{"dataset_attributes": {"@spider": "usps_collection_boxes"}, "geometry": {"coordinates": [-82.688954, 43.061985], "type": "Point"}, "id": "ZV6NYpYXfwOONf0mjwkAGb3MNFA=", "properties": {"@spider": "usps_collection_boxes", "addr:city": "AVOCA", "addr:country": "US", "addr:full": "8810 AVOCA RD", "addr:postcode": "48006", "addr:state": "MI", "amenity": "post_box", "brand": "United States Postal Service", "brand:wikidata": "Q668687", "collection_times": "Mo-Fr 16:00; Sa 11:00", "name": "USPS COLLECTION BOX - BLUE BOX", "note": "ON 12/24 AND 12/31, THIS BOX MAY BE COLLECTED AS EARLY AS 12 NOON.", "nsi_id": "unitedstatespostalservice-a77078", "operator": "United States Postal Service", "operator:short": "USPS", "operator:type": "public", "operator:wikidata": "Q668687", "ref": "4800600001"}, "type": "Feature"}
{"dataset_attributes": {"@spider": "usps_collection_boxes"}, "geometry": {"coordinates": [-82.688874, 43.06196], "type": "Point"}, "id": "SUzKrUQwacJbo4IkfSIcmGmqDJc=", "properties": {"@spider": "usps_collection_boxes", "addr:city": "AVOCA", "addr:country": "US", "addr:full": "8810 AVOCA RD", "addr:postcode": "48006", "addr:state": "MI", "amenity": "post_box", "brand": "United States Postal Service", "brand:wikidata": "Q668687", "collection_times": "Mo-Fr 16:00; Sa 11:00", "name": "USPS COLLECTION BOX - PO LOBBY", "note": "ON 12/24 AND 12/31, THIS BOX MAY BE COLLECTED AS EARLY AS 12 NOON.", "nsi_id": "unitedstatespostalservice-a77078", "operator": "United States Postal Service", "operator:short": "USPS", "operator:type": "public", "operator:wikidata": "Q668687", "ref": "4800600002"}, "type": "Feature"}
{"dataset_attributes": {"@spider": "usps_collection_boxes"}, "geometry": {"coordinates": [-82.689144831, 43.0619714499], "type": "Point"}, "id": "aHDVRvmQpZBMv_zyem7SF-UJz9s=", "properties": {"@spider": "usps_collection_boxes", "addr:city": "AVOCA", "addr:country": "US", "addr:full": "8810 AVOCA RD", "addr:postcode": "48006", "addr:state": "MI", "amenity": "post_box", "brand": "United States Postal Service", "brand:wikidata": "Q668687", "collection_times": "Mo-Fr 16:00; Sa 11:00", "name": "USPS COLLECTION BOX - PO LOBBY", "note": "ON 12/24 AND 12/31, THIS BOX MAY BE COLLECTED AS EARLY AS 12 NOON.", "nsi_id": "unitedstatespostalservice-a77078", "operator": "United States Postal Service", "operator:short": "USPS", "operator:type": "public", "operator:wikidata": "Q668687", "ref": "4800600004"}, "type": "Feature"}
{"dataset_attributes": {"@spider": "usps_collection_boxes"}, "geometry": {"coordinates": [-82.583456, 43.152342], "type": "Point"}, "id": "EWUC0QPbnJUBmUTh9Twm6AZt7Vo=", "properties": {"@spider": "usps_collection_boxes", "addr:city": "JEDDO", "addr:country": "US", "addr:full": "8511 WILDCAT RD", "addr:postcode": "48032", "addr:state": "MI", "amenity": "post_box", "brand": "United States Postal Service", "brand:wikidata": "Q668687", "collection_times": "Mo-Fr 16:30; Sa 11:00", "name": "USPS COLLECTION BOX - BLUE BOX", "note": "ON 12/24 AND 12/31, THIS BOX MAY BE COLLECTED AS EARLY AS 12 NOON.", "nsi_id": "unitedstatespostalservice-a77078", "operator": "United States Postal Service", "operator:short": "USPS", "operator:type": "public", "operator:wikidata": "Q668687", "ref": "4803200002"}, "type": "Feature"}
{"dataset_attributes": {"@spider": "usps_collection_boxes"}, "geometry": {"coordinates": [-82.583414, 43.152273], "type": "Point"}, "id": "zVnbPBm2XhBuwphsZR1zrUzAHJo=", "properties": {"@spider": "usps_collection_boxes", "addr:city": "JEDDO", "addr:country": "US", "addr:full": "8511 WILDCAT RD", "addr:postcode": "48032", "addr:state": "MI", "amenity": "post_box", "brand": "United States Postal Service", "brand:wikidata": "Q668687", "collection_times": "Mo-Fr 16:30; Sa 11:00", "name": "USPS COLLECTION BOX - PO LOBBY", "note": "ON 12/24 AND 12/31, THIS BOX MAY BE COLLECTED AS EARLY AS 12 NOON.", "nsi_id": "unitedstatespostalservice-a77078", "operator": "United States Postal Service", "operator:short": "USPS", "operator:type": "public", "operator:wikidata": "Q668687", "ref": "4803200003"}, "type": "Feature"}
{"dataset_attributes": {"@spider": "usps_collection_boxes"}, "geometry": {"coordinates": [-82.583439526, 43.152144737], "type": "Point"}, "id": "MrZOMPkfjrnryYBxeiNjKHawBu0=", "properties": {"@spider": "usps_collection_boxes", "addr:city": "JEDDO", "addr:country": "US", "addr:full": "8511 WILDCAT RD", "addr:postcode": "48032", "addr:state": "MI", "amenity": "post_box", "brand": "United States Postal Service", "brand:wikidata": "Q668687", "collection_times": "Mo-Fr 16:30; Sa 11:00", "name": "USPS COLLECTION BOX - PO LOBBY", "note": "ON 12/24 AND 12/31, THIS BOX MAY BE COLLECTED AS EARLY AS 12 NOON.", "nsi_id": "unitedstatespostalservice-a77078", "operator": "United States Postal Service", "operator:short": "USPS", "operator:type": "public", "operator:wikidata": "Q668687", "ref": "4803200005"}, "type": "Feature"}
{"dataset_attributes": {"@spider": "usps_collection_boxes"}, "geometry": {"coordinates": [-82.4795813, 42.91925], "type": "Point"}, "id": "NqP0Lk6BZ3NelpA2_zmwxtMXn_g=", "properties": {"@spider": "usps_collection_boxes", "addr:city": "MARYSVILLE", "addr:country": "US", "addr:full": "1710 GRATIOT BLVD", "addr:postcode": "48040", "addr:state": "MI", "amenity": "post_box", "brand": "United States Postal Service", "brand:wikidata": "Q668687", "collection_times": "Mo-Sa 12:00", "name": "USPS COLLECTION BOX - BLUE BOX", "nsi_id": "unitedstatespostalservice-a77078", "operator": "United States Postal Service", "operator:short": "USPS", "operator:type": "public", "operator:wikidata": "Q668687", "ref": "4804000001"}, "type": "Feature"}
{"dataset_attributes": {"@spider": "usps_collection_boxes"}, "geometry": {"coordinates": [-82.527203, 43.057846], "type": "Point"}, "id": "TAXWD51Qj41xJg8y_zkWkms9K5U=", "properties": {"@spider": "usps_collection_boxes", "addr:city": "NORTH STREET", "addr:country": "US", "addr:full": "5201 NORTH RD", "addr:postcode": "48049", "addr:state": "MI", "amenity": "post_box", "brand": "United States Postal Service", "brand:wikidata": "Q668687", "collection_times": "Mo-Fr 13:45; Sa 11:00", "name": "USPS COLLECTION BOX - BLUE BOX", "note": "ON 12/24 AND 12/31, THIS BOX MAY BE COLLECTED AS EARLY AS 12 NOON.", "nsi_id": "unitedstatespostalservice-a77078", "operator": "United States Postal Service", "operator:short": "USPS", "operator:type": "public", "operator:wikidata": "Q668687", "ref": "4804900001"}, "type": "Feature"}
{"dataset_attributes": {"@spider": "usps_collection_boxes"}, "geometry": {"coordinates": [-82.527225782, 43.057891712], "type": "Point"}, "id": "B3PCfyCiX9zcCqiGbHocJ-cG-6E=", "properties": {"@spider": "usps_collection_boxes", "addr:city": "NORTH STREET", "addr:country": "US", "addr:full": "5201 NORTH RD", "addr:postcode": "48049", "addr:state": "MI", "amenity": "post_box", "brand": "United States Postal Service", "brand:wikidata": "Q668687", "collection_times": "Mo-Fr 13:45; Sa 11:00", "name": "USPS COLLECTION BOX - PO LOBBY", "note": "ON 12/24 AND 12/31, THIS BOX MAY BE COLLECTED AS EARLY AS 12 NOON.", "nsi_id": "unitedstatespostalservice-a77078", "operator": "United States Postal Service", "operator:short": "USPS", "operator:type": "public", "operator:wikidata": "Q668687", "ref": "4804900003"}, "type": "Feature"}
{"dataset_attributes": {"@spider": "usps_collection_boxes"}, "geometry": {"coordinates": [-82.527225782, 43.057891712], "type": "Point"}, "id": "YSbLgrlawtTFUtbx17dKCnFie9I=", "properties": {"@spider": "usps_collection_boxes", "addr:city": "NORTH STREET", "addr:country": "US", "addr:full": "5201 NORTH RD", "addr:postcode": "48049", "addr:state": "MI", "amenity": "post_box", "brand": "United States Postal Service", "brand:wikidata": "Q668687", "collection_times": "Mo-Fr 13:45; Sa 11:00", "name": "USPS COLLECTION BOX - PO LOBBY", "note": "ON 12/24 AND 12/31, THIS BOX MAY BE COLLECTED AS EARLY AS 12 NOON.", "nsi_id": "unitedstatespostalservice-a77078", "operator": "United States Postal Service", "operator:short": "USPS", "operator:type": "public", "operator:wikidata": "Q668687", "ref": "4804900004"}, "type": "Feature"}
{"dataset_attributes": {"@spider": "usps_collection_boxes"}, "geometry": {"coordinates": [-82.4865914, 43.086354], "type": "Point"}, "id": "iWnou38EXRZdkrtdaqny2bf6vNQ=", "properties": {"@spider": "usps_collection_boxes", "addr:city": "BURTCHVILLE", "addr:country": "US", "addr:full": "3650 METCALF RD", "addr:postcode": "48059", "addr:state": "MI", "amenity": "post_box", "brand": "United States Postal Service", "brand:wikidata": "Q668687", "collection_times": "Mo-Sa 10:00", "name": "USPS COLLECTION BOX - BLUE BOX", "nsi_id": "unitedstatespostalservice-a77078", "operator": "United States Postal Service", "operator:short": "USPS", "operator:type": "public", "operator:wikidata": "Q668687", "ref": "4805900003"}, "type": "Feature"}
{"dataset_attributes": {"@spider": "usps_collection_boxes"}, "geometry": {"coordinates": [-82.4560146, 43.020962], "type": "Point"}, "id": "FmEAQuCzPoyyInX6ZlF8wVoLwVI=", "properties": {"@spider": "usps_collection_boxes", "addr:city": "BURTCHVILLE", "addr:country": "US", "addr:full": "3853 PINE GROVE AVE", "addr:postcode": "48059", "addr:state": "MI", "amenity": "post_box", "brand": "United States Postal Service", "brand:wikidata": "Q668687", "collection_times": "Mo-Sa 13:00", "name": "USPS COLLECTION BOX - BLUE BOX", "note": "ON 12/24 AND 12/31, THIS BOX MAY BE COLLECTED AS EARLY AS 12 NOON.", "nsi_id": "unitedstatespostalservice-a77078", "operator": "United States Postal Service", "operator:short": "USPS", "operator:type": "public", "operator:wikidata": "Q668687", "ref": "4805900009"}, "type": "Feature"}
{"dataset_attributes": {"@spider": "usps_collection_boxes"}, "geometry": {"coordinates": [-82.4532419, 43.037436], "type": "Point"}, "id": "3dODbx4sVIXoUFtFGxVwlGbEsts=", "properties": {"@spider": "usps_collection_boxes", "addr:city": "BURTCHVILLE", "addr:country": "US", "addr:full": "4350 24TH AVE", "addr:postcode": "48059", "addr:state": "MI", "amenity": "post_box", "brand": "United States Postal Service", "brand:wikidata": "Q668687", "collection_times": "Mo-Fr 17:00; Sa 14:00", "name": "USPS COLLECTION BOX - PO LOBBY", "note": "ON 12/24 AND 12/31, THIS BOX MAY BE COLLECTED AS EARLY AS 12 NOON.", "nsi_id": "unitedstatespostalservice-a77078", "operator": "United States Postal Service", "operator:short": "USPS", "operator:type": "public", "operator:wikidata": "Q668687", "ref": "4805900010"}, "type": "Feature"}
{"dataset_attributes": {"@spider": "usps_collection_boxes"}, "geometry": {"coordinates": [-82.4532417, 43.037408], "type": "Point"}, "id": "R2CSzL8ccCh7_XOyMYrB74tPZ7E=", "properties": {"@spider": "usps_collection_boxes", "addr:city": "BURTCHVILLE", "addr:country": "US", "addr:full": "4350 24TH AVE", "addr:postcode": "48059", "addr:state": "MI", "amenity": "post_box", "brand": "United States Postal Service", "brand:wikidata": "Q668687", "collection_times": "Mo-Fr 17:00; Sa 14:00", "name": "USPS COLLECTION BOX - PO LOBBY", "note": "ON 12/24 AND 12/31, THIS BOX MAY BE COLLECTED AS EARLY AS 12 NOON.", "nsi_id": "unitedstatespostalservice-a77078", "operator": "United States Postal Service", "operator:short": "USPS", "operator:type": "public", "operator:wikidata": "Q668687", "ref": "4805900013"}, "type": "Feature"}
{"dataset_attributes": {"@spider": "usps_collection_boxes"}, "geometry": {"coordinates": [-82.4598489, 43.046168], "type": "Point"}, "id": "MnHu0mv8gFiQGeWT7Xp7Ovc6TPc=", "properties": {"@spider": "usps_collection_boxes", "addr:city": "BURTCHVILLE", "addr:country": "US", "addr:full": "4775 24TH AVE", "addr:postcode": "48059", "addr:state": "MI", "amenity": "post_box", "brand": "United States Postal Service", "brand:wikidata": "Q668687", "collection_times": "Mo-Fr 16:00; Sa 13:30", "name": "USPS COLLECTION BOX - BLUE BOX", "note": "ON 12/24 AND 12/31, THIS BOX MAY BE COLLECTED AS EARLY AS 12 NOON.", "nsi_id": "unitedstatespostalservice-a77078", "operator": "United States Postal Service", "operator:short": "USPS", "operator:type": "public", "operator:wikidata": "Q668687", "ref": "4805900014"}, "type": "Feature"}
{"dataset_attributes": {"@spider": "usps_collection_boxes"}, "geometry": {"coordinates": [-82.4531848, 43.037406], "type": "Point"}, "id": "eLLUrQpPoSbX2ySqCAZeyEr2Sms=", "properties": {"@spider": "usps_collection_boxes", "addr:city": "BURTCHVILLE", "addr:country": "US", "addr:full": "4350 24TH AVE", "addr:postcode": "48059", "addr:state": "MI", "amenity": "post_box", "brand": "United States Postal Service", "brand:wikidata": "Q668687", "collection_times": "Mo-Fr 17:00; Sa 14:00", "name": "USPS COLLECTION BOX - PO LOBBY", "note": "ON 12/24 AND 12/31, THIS BOX MAY BE COLLECTED AS EARLY AS 12 NOON.", "nsi_id": "unitedstatespostalservice-a77078", "operator": "United States Postal Service", "operator:short": "USPS", "operator:type": "public", "operator:wikidata": "Q668687", "ref": "4805900015"}, "type": "Feature"}
{"dataset_attributes": {"@spider": "usps_collection_boxes"}, "geometry": {"coordinates": [-82.4532203, 43.037423], "type": "Point"}, "id": "kim7hUPplzLyVi7F61UKWZgHm9Y=", "properties": {"@spider": "usps_collection_boxes", "addr:city": "BURTCHVILLE", "addr:country": "US", "addr:full": "4350 24TH AVE", "addr:postcode": "48059", "addr:state": "MI", "amenity": "post_box", "brand": "United States Postal Service", "brand:wikidata": "Q668687", "collection_times": "Mo-Fr 17:00; Sa 14:00", "name": "USPS COLLECTION BOX - PO LOBBY", "note": "ON 12/24 AND 12/31, THIS BOX MAY BE COLLECTED AS EARLY AS 12 NOON.", "nsi_id": "unitedstatespostalservice-a77078", "operator": "United States Postal Service", "operator:short": "USPS", "operator:type": "public", "operator:wikidata": "Q668687", "ref": "4805900016"}, "type": "Feature"}
{"dataset_attributes": {"@spider": "usps_collection_boxes"}, "geometry": {"coordinates": [-82.45642654, 43.036021435], "type": "Point"}, "id": "OIdgQfmYi8ePwg-yNMLwWmN9ArQ=", "properties": {"@spider": "usps_collection_boxes", "addr:city": "BURTCHVILLE", "addr:country": "US", "addr:full": "4350 24TH AVE", "addr:postcode": "48059", "addr:state": "MI", "amenity": "post_box", "brand": "United States Postal Service", "brand:wikidata": "Q668687", "collection_times": "Mo-Fr 17:00; Sa 14:00", "name": "USPS COLLECTION BOX - PO LOBBY", "note": "ON 12/24 AND 12/31, THIS BOX MAY BE COLLECTED AS EARLY AS 12 NOON.", "nsi_id": "unitedstatespostalservice-a77078", "operator": "United States Postal Service", "operator:short": "USPS", "operator:type": "public", "operator:wikidata": "Q668687", "ref": "4805900024"}, "type": "Feature"}
{"dataset_attributes": {"@spider": "usps_collection_boxes"}, "geometry": {"coordinates": [-82.4198894, 42.978217], "type": "Point"}, "id": "HIAjcm_PQT9IvCpqae3xgqSBZWI=", "properties": {"@spider": "usps_collection_boxes", "addr:city": "PORT HURON", "addr:country": "US", "addr:full": "100 MCMORRAN BLVD", "addr:postcode": "48060", "addr:state": "MI", "amenity": "post_box", "brand": "United States Postal Service", "brand:wikidata": "Q668687", "collection_times": "Mo-Sa 12:30", "name": "USPS COLLECTION BOX - BLUE BOX", "note": "ON 12/24 AND 12/31, THIS BOX MAY BE COLLECTED AS EARLY AS 12 NOON.", "nsi_id": "unitedstatespostalservice-a77078", "operator": "United States Postal Service", "operator:short": "USPS", "operator:type": "public", "operator:wikidata": "Q668687", "ref": "4806000001"}, "type": "Feature"}
{"dataset_attributes": {"@spider": "usps_collection_boxes"}, "geometry": {"coordinates": [-82.4213789, 42.978816], "type": "Point"}, "id": "AeZ80g3RIp9ldv-WzcmfN4liIQc=", "properties": {"@spider": "usps_collection_boxes", "addr:city": "PORT HURON", "addr:country": "US", "addr:full": "201 MCMORRAN BLVD", "addr:postcode": "48060", "addr:state": "MI", "amenity": "post_box", "brand": "United States Postal Service", "brand:wikidata": "Q668687", "collection_times": "Mo-Sa 10:00", "name": "USPS COLLECTION BOX - BLUE BOX", "nsi_id": "unitedstatespostalservice-a77078", "operator": "United States Postal Service", "operator:short": "USPS", "operator:type": "public", "operator:wikidata": "Q668687", "ref": "4806000004"}, "type": "Feature"}
{"dataset_attributes": {"@spider": "usps_collection_boxes"}, "geometry": {"coordinates": [-82.4263249, 42.970645], "type": "Point"}, "id": "gXxpoIc92lBwBFZMkYSYnRq9xVw=", "properties": {"@spider": "usps_collection_boxes", "addr:city": "PORT HURON", "addr:country": "US", "addr:full": "615 UNION UN", "addr:postcode": "48060", "addr:state": "MI", "amenity": "post_box", "brand": "United States Postal Service", "brand:wikidata": "Q668687", "collection_times": "Mo-Sa 12:30", "name": "USPS COLLECTION BOX - BLUE BOX", "note": "ON 12/24 AND 12/31, THIS BOX MAY BE COLLECTED AS EARLY AS 12 NOON.", "nsi_id": "unitedstatespostalservice-a77078", "operator": "United States Postal Service", "operator:short": "USPS", "operator:type": "public", "operator:wikidata": "Q668687", "ref": "4806000005"}, "type": "Feature"}
{"dataset_attributes": {"@spider": "usps_collection_boxes"}, "geometry": {"coordinates": [-82.4260539, 42.975255], "type": "Point"}, "id": "pFJ824-KACFFUvwyIi07GMqrg08=", "properties": {"@spider": "usps_collection_boxes", "addr:city": "PORT HURON", "addr:country": "US", "addr:full": "526 WATER ST", "addr:postcode": "48060", "addr:state": "MI", "amenity": "post_box", "brand": "United States Postal Service", "brand:wikidata": "Q668687", "collection_times": "Mo-Sa 12:30", "name": "USPS COLLECTION BOX - BLUE BOX", "note": "ON 12/24 AND 12/31, THIS BOX MAY BE COLLECTED AS EARLY AS 12 NOON.", "nsi_id": "unitedstatespostalservice-a77078", "operator": "United States Postal Service", "operator:short": "USPS", "operator:type": "public", "operator:wikidata": "Q668687", "ref": "4806000007"}, "type": "Feature"}
{"dataset_attributes": {"@spider": "usps_collection_boxes"}, "geometry": {"coordinates": [-82.4330657, 42.971473], "type": "Point"}, "id": "49SjnUkg1g_rn6Ava7Y4adUYMaY=", "properties": {"@spider": "usps_collection_boxes", "addr:city": "PORT HURON", "addr:country": "US", "addr:full": "1002 COURT CT", "addr:postcode": "48060", "addr:state": "MI", "amenity": "post_box", "brand": "United States Postal Service", "brand:wikidata": "Q668687", "collection_times": "Mo-Sa 11:30", "name": "USPS COLLECTION BOX - BLUE BOX", "nsi_id": "unitedstatespostalservice-a77078", "operator": "United States Postal Service", "operator:short": "USPS", "operator:type": "public", "operator:wikidata": "Q668687", "ref": "4806000014"}, "type": "Feature"}
{"dataset_attributes": {"@spider": "usps_collection_boxes"}, "geometry": {"coordinates": [-82.4308733, 42.986919], "type": "Point"}, "id": "qlulwFG2zICYu7hpLTaRQ45HQ9g=", "properties": {"@spider": "usps_collection_boxes", "addr:city": "PORT HURON", "addr:country": "US", "addr:full": "1200 STONE ST", "addr:postcode": "48060", "addr:state": "MI", "amenity": "post_box", "brand": "United States Postal Service", "brand:wikidata": "Q668687", "collection_times": "Mo-Fr 12:30", "name": "USPS COLLECTION BOX - BLUE BOX", "note": "ON 12/24 AND 12/31, THIS BOX MAY BE COLLECTED AS EARLY AS 12 NOON.", "nsi_id": "unitedstatespostalservice-a77078", "operator": "United States Postal Service", "operator:short": "USPS", "operator:type": "public", "operator:wikidata": "Q668687", "ref": "4806000016"}, "type": "Feature"}
{"dataset_attributes": {"@spider": "usps_collection_boxes"}, "geometry": {"coordinates": [-82.428061, 42.987053], "type": "Point"}, "id": "fpwOqMGfloL_swfj06L4kPD0yLo=", "properties": {"@spider": "usps_collection_boxes", "addr:city": "PORT HURON", "addr:country": "US", "addr:full": "1221 PINE GROVE AVE", "addr:postcode": "48060", "addr:state": "MI", "amenity": "post_box", "brand": "United States Postal Service", "brand:wikidata": "Q668687", "collection_times": "Mo-Sa 13:00", "name": "USPS COLLECTION BOX - BLUE BOX", "note": "ON 12/24 AND 12/31, THIS BOX MAY BE COLLECTED AS EARLY AS 12 NOON.", "nsi_id": "unitedstatespostalservice-a77078", "operator": "United States Postal Service", "operator:short": "USPS", "operator:type": "public", "operator:wikidata": "Q668687", "ref": "4806000018"}, "type": "Feature"}
{"dataset_attributes": {"@spider": "usps_collection_boxes"}, "geometry": {"coordinates": [-82.4307939, 42.992108], "type": "Point"}, "id": "2OV9lUIZxLLCNlmBdeOnsG8xwLA=", "properties": {"@spider": "usps_collection_boxes", "addr:city": "PORT HURON", "addr:country": "US", "addr:full": "1630 STONE ST", "addr:postcode": "48060", "addr:state": "MI", "amenity": "post_box", "brand": "United States Postal Service", "brand:wikidata": "Q668687", "collection_times": "Mo-Sa 12:30", "name": "USPS COLLECTION BOX - BLUE BOX", "note": "ON 12/24 AND 12/31, THIS BOX MAY BE COLLECTED AS EARLY AS 12 NOON.", "nsi_id": "unitedstatespostalservice-a77078", "operator": "United States Postal Service", "operator:short": "USPS", "operator:type": "public", "operator:wikidata": "Q668687", "ref": "4806000020"}, "type": "Feature"}
{"dataset_attributes": {"@spider": "usps_collection_boxes"}, "geometry": {"coordinates": [-82.4516019, 42.970373], "type": "Point"}, "id": "Xbc2eIGeyrVUQv1bMZTsliz3kpc=", "properties": {"@spider": "usps_collection_boxes", "addr:city": "PORT HURON", "addr:country": "US", "addr:full": "2302 COURT CT", "addr:postcode": "48060", "addr:state": "MI", "amenity": "post_box", "brand": "United States Postal Service", "brand:wikidata": "Q668687", "collection_times": "Mo-Sa 11:30", "name": "USPS COLLECTION BOX - BLUE BOX", "nsi_id": "unitedstatespostalservice-a77078", "operator": "United States Postal Service", "operator:short": "USPS", "operator:type": "public", "operator:wikidata": "Q668687", "ref": "4806000023"}, "type": "Feature"}
{"dataset_attributes": {"@spider": "usps_collection_boxes"}, "geometry": {"coordinates": [-82.4525294022, 42.9703456275], "type": "Point"}, "id": "vuUDYNdTWTHV3Y0qo2FOkZhmSuw=", "properties": {"@spider": "usps_collection_boxes", "addr:city": "PORT HURON", "addr:country": "US", "addr:full": "1215 24TH ST", "addr:postcode": "48060", "addr:state": "MI", "amenity": "post_box", "brand": "United States Postal Service", "brand:wikidata": "Q668687", "collection_times": "Mo-Sa 11:30", "name": "USPS COLLECTION BOX - BLUE BOX", "nsi_id": "unitedstatespostalservice-a77078", "operator": "United States Postal Service", "operator:short": "USPS", "operator:type": "public", "operator:wikidata": "Q668687", "ref": "4806000025"}, "type": "Feature"}
{"dataset_attributes": {"@spider": "usps_collection_boxes"}, "geometry": {"coordinates": [-82.4395828, 43.004551], "type": "Point"}, "id": "1AQtZ-daQZ6Q3meGtSL9BRF37OY=", "properties": {"@spider": "usps_collection_boxes", "addr:city": "PORT HURON", "addr:country": "US", "addr:full": "1600 GARFIELD ST", "addr:postcode": "48060", "addr:state": "MI", "amenity": "post_box", "brand": "United States Postal Service", "brand:wikidata": "Q668687", "collection_times": "Mo-Fr 17:00; Sa 13:00", "name": "USPS COLLECTION BOX - BLUE BOX", "note": "ON 12/24 AND 12/31, THIS BOX MAY BE COLLECTED AS EARLY AS 12 NOON.", "nsi_id": "unitedstatespostalservice-a77078", "operator": "United States Postal Service", "operator:short": "USPS", "operator:type": "public", "operator:wikidata": "Q668687", "ref": "4806000030"}, "type": "Feature"}
{"dataset_attributes": {"@spider": "usps_collection_boxes"}, "geometry": {"coordinates": [-82.4395937, 43.004542], "type": "Point"}, "id": "MZJe5Uceq3SIrCeujXGrKI9jZFQ=", "properties": {"@spider": "usps_collection_boxes", "addr:city": "PORT HURON", "addr:country": "US", "addr:full": "1600 GARFIELD ST", "addr:postcode": "48060", "addr:state": "MI", "amenity": "post_box", "brand": "United States Postal Service", "brand:wikidata": "Q668687", "collection_times": "Mo-Fr 17:00; Sa 13:00", "name": "USPS COLLECTION BOX - BLUE BOX", "note": "ON 12/24 AND 12/31, THIS BOX MAY BE COLLECTED AS EARLY AS 12 NOON.", "nsi_id": "unitedstatespostalservice-a77078", "operator": "United States Postal Service", "operator:short": "USPS", "operator:type": "public", "operator:wikidata": "Q668687", "ref": "4806000032"}, "type": "Feature"}
{"dataset_attributes": {"@spider": "usps_collection_boxes"}, "geometry": {"coordinates": [-82.4533318, 43.024333], "type": "Point"}, "id": "3fGaem_EXqnNFh6BYKcE8AcIR7M=", "properties": {"@spider": "usps_collection_boxes", "addr:city": "PORT HURON", "addr:country": "US", "addr:full": "2907 KRAFFT RD", "addr:postcode": "48060", "addr:state": "MI", "amenity": "post_box", "brand": "United States Postal Service", "brand:wikidata": "Q668687", "collection_times": "Mo-Sa 13:00", "name": "USPS COLLECTION BOX - BLUE BOX", "note": "ON 12/24 AND 12/31, THIS BOX MAY BE COLLECTED AS EARLY AS 12 NOON.", "nsi_id": "unitedstatespostalservice-a77078", "operator": "United States Postal Service", "operator:short": "USPS", "operator:type": "public", "operator:wikidata": "Q668687", "ref": "4806000035"}, "type": "Feature"}
{"dataset_attributes": {"@spider": "usps_collection_boxes"}, "geometry": {"coordinates": [-82.4569728, 42.94382], "type": "Point"}, "id": "_oDNObdFzCQj6oQ9DxeVGy39YLI=", "properties": {"@spider": "usps_collection_boxes", "addr:city": "PORT HURON", "addr:country": "US", "addr:full": "3415 28TH ST", "addr:postcode": "48060", "addr:state": "MI", "amenity": "post_box", "brand": "United States Postal Service", "brand:wikidata": "Q668687", "collection_times": "Mo-Fr 12:00", "name": "USPS COLLECTION BOX - BLUE BOX", "nsi_id": "unitedstatespostalservice-a77078", "operator": "United States Postal Service", "operator:short": "USPS", "operator:type": "public", "operator:wikidata": "Q668687", "ref": "4806000037"}, "type": "Feature"}
{"dataset_attributes": {"@spider": "usps_collection_boxes"}, "geometry": {"coordinates": [-82.4231307, 42.979597], "type": "Point"}, "id": "rV1G9LD3E5_FADsQnWfk9uv4czY=", "properties": {"@spider": "usps_collection_boxes", "addr:city": "PORT HURON", "addr:country": "US", "addr:full": "511 FORT ST", "addr:postcode": "48060", "addr:state": "MI", "amenity": "post_box", "brand": "United States Postal Service", "brand:wikidata": "Q668687", "collection_times": "Mo-Fr 17:00; Sa 12:30", "name": "USPS COLLECTION BOX - BLUE BOX", "note": "ON 12/24 AND 12/31, THIS BOX MAY BE COLLECTED AS EARLY AS 12 NOON.", "nsi_id": "unitedstatespostalservice-a77078", "operator": "United States Postal Service", "operator:short": "USPS", "operator:type": "public", "operator:wikidata": "Q668687", "ref": "4806000046"}, "type": "Feature"}
{"dataset_attributes": {"@spider": "usps_collection_boxes"}, "geometry": {"coordinates": [-82.4589395, 42.969031], "type": "Point"}, "id": "PI9LRL6Bgkv-KpeDAtcivf-lBCA=", "properties": {"@spider": "usps_collection_boxes", "addr:city": "PORT HURON", "addr:country": "US", "addr:full": "1179 32ND ST", "addr:postcode": "48060", "addr:state": "MI", "amenity": "post_box", "brand": "United States Postal Service", "brand:wikidata": "Q668687", "collection_times": "Mo-Sa 10:00", "name": "USPS COLLECTION BOX - BLUE BOX", "nsi_id": "unitedstatespostalservice-a77078", "operator": "United States Postal Service", "operator:short": "USPS", "operator:type": "public", "operator:wikidata": "Q668687", "ref": "4806000051"}, "type": "Feature"}
{"dataset_attributes": {"@spider": "usps_collection_boxes"}, "geometry": {"coordinates": [-82.4342723, 42.955818], "type": "Point"}, "id": "B1KobUgRGMNDk0Hg_ugHakNPqnw=", "properties": {"@spider": "usps_collection_boxes", "addr:city": "PORT HURON", "addr:country": "US", "addr:full": "2601 ELECTRIC AVE", "addr:postcode": "48060", "addr:state": "MI", "amenity": "post_box", "brand": "United States Postal Service", "brand:wikidata": "Q668687", "collection_times": "Mo-Sa 12:00", "name": "USPS COLLECTION BOX - BLUE BOX", "nsi_id": "unitedstatespostalservice-a77078", "operator": "United States Postal Service", "operator:short": "USPS", "operator:type": "public", "operator:wikidata": "Q668687", "ref": "4806000052"}, "type": "Feature"}
{"dataset_attributes": {"@spider": "usps_collection_boxes"}, "geometry": {"coordinates": [-82.4215639, 42.976234], "type": "Point"}, "id": "snuQIEBdJ_FuWYlaPb0YxvyhUSo=", "properties": {"@spider": "usps_collection_boxes", "addr:city": "PORT HURON", "addr:country": "US", "addr:full": "220 FORT ST", "addr:postcode": "48060", "addr:state": "MI", "amenity": "post_box", "brand": "United States Postal Service", "brand:wikidata": "Q668687", "collection_times": "Mo-Sa 12:30", "name": "USPS COLLECTION BOX - BLUE BOX", "note": "ON 12/24 AND 12/31, THIS BOX MAY BE COLLECTED AS EARLY AS 12 NOON.", "nsi_id": "unitedstatespostalservice-a77078", "operator": "United States Postal Service", "operator:short": "USPS", "operator:type": "public", "operator:wikidata": "Q668687", "ref": "4806000056"}, "type": "Feature"}
{"dataset_attributes": {"@spider": "usps_collection_boxes"}, "geometry": {"coordinates": [-82.4250039, 42.971845], "type": "Point"}, "id": "embn0huZFUIIxGxJAqUaMLDkRtQ=", "properties": {"@spider": "usps_collection_boxes", "addr:city": "PORT HURON", "addr:country": "US", "addr:full": "1121 MILITARY ST", "addr:postcode": "48060", "addr:state": "MI", "amenity": "post_box", "brand": "United States Postal Service", "brand:wikidata": "Q668687", "collection_times": "Mo-Fr 17:00; Sa 11:30", "name": "USPS COLLECTION BOX - BLUE BOX", "note": "ON 12/24 AND 12/31, THIS BOX MAY BE COLLECTED AS EARLY AS 12 NOON.", "nsi_id": "unitedstatespostalservice-a77078", "operator": "United States Postal Service", "operator:short": "USPS", "operator:type": "public", "operator:wikidata": "Q668687", "ref": "4806000057"}, "type": "Feature"}
{"dataset_attributes": {"@spider": "usps_collection_boxes"}, "geometry": {"coordinates": [-82.4632768, 42.972624], "type": "Point"}, "id": "RZ7fHgHFjxIhqpwkB-bBtZQ0TKo=", "properties": {"@spider": "usps_collection_boxes", "addr:city": "PORT HURON", "addr:country": "US", "addr:full": "852 32ND ST", "addr:postcode": "48061", "addr:state": "MI", "amenity": "post_box", "brand": "United States Postal Service", "brand:wikidata": "Q668687", "collection_times": "Mo-Sa 17:00", "name": "USPS COLLECTION BOX - BLUE BOX", "note": "ON 12/24 AND 12/31, THIS BOX MAY BE COLLECTED AS EARLY AS 12 NOON.", "nsi_id": "unitedstatespostalservice-a77078", "operator": "United States Postal Service", "operator:short": "USPS", "operator:type": "public", "operator:wikidata": "Q668687", "ref": "4806100015"}, "type": "Feature"}
{"dataset_attributes": {"@spider": "usps_collection_boxes"}, "geometry": {"coordinates": [-82.4636613, 42.972718], "type": "Point"}, "id": "uEIzQMG9xeJc5nxE5zlrQHCGAWE=", "properties": {"@spider": "usps_collection_boxes", "addr:city": "PORT HURON", "addr:country": "US", "addr:full": "852 32ND ST", "addr:postcode": "48061", "addr:state": "MI", "amenity": "post_box", "brand": "United States Postal Service", "brand:wikidata": "Q668687", "collection_times": "Mo-Sa 17:00", "name": "USPS COLLECTION BOX - PO LOBBY", "note": "ON 12/24 AND 12/31, THIS BOX MAY BE COLLECTED AS EARLY AS 12 NOON.", "nsi_id": "unitedstatespostalservice-a77078", "operator": "United States Postal Service", "operator:short": "USPS", "operator:type": "public", "operator:wikidata": "Q668687", "ref": "4806100018"}, "type": "Feature"}
{"dataset_attributes": {"@spider": "usps_collection_boxes"}, "geometry": {"coordinates": [-82.4632431, 42.97259], "type": "Point"}, "id": "b8thZRvaRB1TDdUu_mRQBYmPuLo=", "properties": {"@spider": "usps_collection_boxes", "addr:city": "PORT HURON", "addr:country": "US", "addr:full": "852 32ND ST", "addr:postcode": "48061", "addr:state": "MI", "amenity": "post_box", "brand": "United States Postal Service", "brand:wikidata": "Q668687", "collection_times": "Mo-Sa 17:00", "name": "USPS COLLECTION BOX - BLUE BOX", "note": "ON 12/24 AND 12/31, THIS BOX MAY BE COLLECTED AS EARLY AS 12 NOON.", "nsi_id": "unitedstatespostalservice-a77078", "operator": "United States Postal Service", "operator:short": "USPS", "operator:type": "public", "operator:wikidata": "Q668687", "ref": "4806100020"}, "type": "Feature"}
{"dataset_attributes": {"@spider": "usps_collection_boxes"}, "geometry": {"coordinates": [-82.462570962, 42.972303112], "type": "Point"}, "id": "YP0_SHm2RfEl_e2F678Tlw0-8Jo=", "properties": {"@spider": "usps_collection_boxes", "addr:city": "PORT HURON", "addr:country": "US", "addr:full": "852 32ND ST", "addr:postcode": "48061", "addr:state": "MI", "amenity": "post_box", "brand": "United States Postal Service", "brand:wikidata": "Q668687", "collection_times": "Mo-Fr 17:00; Sa 15:00", "name": "USPS COLLECTION BOX - PO LOBBY", "note": "ON 12/24 AND 12/31, THIS BOX MAY BE COLLECTED AS EARLY AS 12 NOON.", "nsi_id": "unitedstatespostalservice-a77078", "operator": "United States Postal Service", "operator:short": "USPS", "operator:type": "public", "operator:wikidata": "Q668687", "ref": "4806100024"}, "type": "Feature"}
{"dataset_attributes": {"@spider": "usps_collection_boxes"}, "geometry": {"coordinates": [-82.5361943, 42.98531], "type": "Point"}, "id": "PxqJzIUq5BxpJrOxoEk2udDZWGY=", "properties": {"@spider": "usps_collection_boxes", "addr:city": "KIMBALL", "addr:country": "US", "addr:full": "5275 LAPEER RD", "addr:postcode": "48074", "addr:state": "MI", "amenity": "post_box", "brand": "United States Postal Service", "brand:wikidata": "Q668687", "collection_times": "Mo-Fr 16:00; Sa 13:00", "name": "USPS COLLECTION BOX - BLUE BOX", "note": "ON 12/24 AND 12/31, THIS BOX MAY BE COLLECTED AS EARLY AS 12 NOON.", "nsi_id": "unitedstatespostalservice-a77078", "operator": "United States Postal Service", "operator:short": "USPS", "operator:type": "public", "operator:wikidata": "Q668687", "ref": "4807400004"}, "type": "Feature"}
{"dataset_attributes": {"@spider": "usps_collection_boxes"}, "geometry": {"coordinates": [-82.7980157, 43.128855], "type": "Point"}, "id": "rVCgXYKjhrnvvjenuZIUumb2lFA=", "properties": {"@spider": "usps_collection_boxes", "addr:city": "YALE", "addr:country": "US", "addr:full": "100 S MAIN ST", "addr:postcode": "48097", "addr:state": "MI", "amenity": "post_box", "brand": "United States Postal Service", "brand:wikidata": "Q668687", "collection_times": "Mo-Fr 15:00; Sa 11:00", "name": "USPS COLLECTION BOX - BLUE BOX", "note": "ON 12/24 AND 12/31, THIS BOX MAY BE COLLECTED AS EARLY AS 12 NOON.", "nsi_id": "unitedstatespostalservice-a77078", "operator": "United States Postal Service", "operator:short": "USPS", "operator:type": "public", "operator:wikidata": "Q668687", "ref": "4809700004"}, "type": "Feature"}
{"dataset_attributes": {"@spider": "usps_collection_boxes"}, "geometry": {"coordinates": [-82.7988346, 43.130497], "type": "Point"}, "id": "RRHc7CmVjcp0uai4WBk3cwqyioc=", "properties": {"@spider": "usps_collection_boxes", "addr:city": "YALE", "addr:country": "US", "addr:full": "3 N MAIN ST", "addr:postcode": "48097", "addr:state": "MI", "amenity": "post_box", "brand": "United States Postal Service", "brand:wikidata": "Q668687", "collection_times": "Mo-Fr 15:00; Sa 11:00", "name": "USPS COLLECTION BOX - BLUE BOX", "note": "ON 12/24 AND 12/31, THIS BOX MAY BE COLLECTED AS EARLY AS 12 NOON.", "nsi_id": "unitedstatespostalservice-a77078", "operator": "United States Postal Service", "operator:short": "USPS", "operator:type": "public", "operator:wikidata": "Q668687", "ref": "4809700005"}, "type": "Feature"}
{"dataset_attributes": {"@spider": "usps_collection_boxes"}, "geometry": {"coordinates": [-82.799462, 43.128132], "type": "Point"}, "id": "f3Ei3P_YiU-8wCFvuku7Z_yUlX8=", "properties": {"@spider": "usps_collection_boxes", "addr:city": "YALE", "addr:country": "US", "addr:full": "211 JONES ST", "addr:postcode": "48097", "addr:state": "MI", "amenity": "post_box", "brand": "United States Postal Service", "brand:wikidata": "Q668687", "collection_times": "Mo-Fr 15:00; Sa 11:00", "name": "USPS COLLECTION BOX - BLUE BOX", "note": "ON 12/24 AND 12/31, THIS BOX MAY BE COLLECTED AS EARLY AS 12 NOON.", "nsi_id": "unitedstatespostalservice-a77078", "operator": "United States Postal Service", "operator:short": "USPS", "operator:type": "public", "operator:wikidata": "Q668687", "ref": "4809700006"}, "type": "Feature"}
{"dataset_attributes": {"@spider": "usps_collection_boxes"}, "geometry": {"coordinates": [-82.799424, 43.128123], "type": "Point"}, "id": "VpsQdw33GgKmYX2NGasn5uFcD6s=", "properties": {"@spider": "usps_collection_boxes", "addr:city": "YALE", "addr:country": "US", "addr:full": "211 JONES ST", "addr:postcode": "48097", "addr:state": "MI", "amenity": "post_box", "brand": "United States Postal Service", "brand:wikidata": "Q668687", "collection_times": "Mo-Fr 15:00; Sa 11:00", "name": "USPS COLLECTION BOX - PO LOBBY", "note": "ON 12/24 AND 12/31, THIS BOX MAY BE COLLECTED AS EARLY AS 12 NOON.", "nsi_id": "unitedstatespostalservice-a77078", "operator": "United States Postal Service", "operator:short": "USPS", "operator:type": "public", "operator:wikidata": "Q668687", "ref": "4809700008"}, "type": "Feature"}
{"dataset_attributes": {"@spider": "usps_collection_boxes"}, "geometry": {"coordinates": [-82.799424, 43.128123], "type": "Point"}, "id": "UVIqpGNsR9lGR-OxQ6z4uZmtsdA=", "properties": {"@spider": "usps_collection_boxes", "addr:city": "YALE", "addr:country": "US", "addr:full": "211 JONES ST", "addr:postcode": "48097", "addr:state": "MI", "amenity": "post_box", "brand": "United States Postal Service", "brand:wikidata": "Q668687", "collection_times": "Mo-Fr 15:00; Sa 11:00", "name": "USPS COLLECTION BOX - BLUE BOX", "note": "ON 12/24 AND 12/31, THIS BOX MAY BE COLLECTED AS EARLY AS 12 NOON.", "nsi_id": "unitedstatespostalservice-a77078", "operator": "United States Postal Service", "operator:short": "USPS", "operator:type": "public", "operator:wikidata": "Q668687", "ref": "4809700009"}, "type": "Feature"}
{"dataset_attributes": {"@spider": "usps_collection_boxes"}, "geometry": {"coordinates": [-82.7994389833, 43.1277396603], "type": "Point"}, "id": "gX3NtXLAI6dg_0edaxrxUGDhRyY=", "properties": {"@spider": "usps_collection_boxes", "addr:city": "YALE", "addr:country": "US", "addr:full": "211 JONES ST", "addr:postcode": "48097", "addr:state": "MI", "amenity": "post_box", "brand": "United States Postal Service", "brand:wikidata": "Q668687", "collection_times": "Mo-Fr 16:30; Sa 12:00", "name": "USPS COLLECTION BOX - PO LOBBY", "note": "ON 12/24 AND 12/31, THIS BOX MAY BE COLLECTED AS EARLY AS 12 NOON.", "nsi_id": "unitedstatespostalservice-a77078", "operator": "United States Postal Service", "operator:short": "USPS", "operator:type": "public", "operator:wikidata": "Q668687", "ref": "4809700011"}, "type": "Feature"}
