{"geometry": {"coordinates": [-83.7829999, 42.52942], "type": "Point"}, "id": "xEGq6hNrE6T915g__VIZn2MLl8E=", "properties": {"@spider": "usps_collection_boxes", "addr:city": "BRIGHTON", "addr:country": "US", "addr:full": "317 W MAIN ST", "addr:postcode": "48116", "addr:state": "MI", "brand": "USPS", "collection_times": "Mo-Fr 16:00; Sa 13:00", "name": "USPS COLLECTION BOX - BLUE BOX", "note": "ON 12/24 AND 12/31, THIS BOX MAY BE COLLECTED AS EARLY AS 12 NOON.", "ref": "4811600002"}, "type": "Feature"}
{"geometry": {"coordinates": [-83.7727309, 42.517624], "type": "Point"}, "id": "eVhQxEPu_quLbXWHh0YIL37zhdo=", "properties": {"@spider": "usps_collection_boxes", "addr:city": "BRIGHTON", "addr:country": "US", "addr:full": "37 SUMMIT ST", "addr:postcode": "48116", "addr:state": "MI", "brand": "USPS", "collection_times": "Mo-Fr 16:00; Sa 13:00", "name": "USPS COLLECTION BOX - BLUE BOX", "note": "ON 12/24 AND 12/31, THIS BOX MAY BE COLLECTED AS EARLY AS 12 NOON.", "ref": "4811600005"}, "type": "Feature"}
{"geometry": {"coordinates": [-83.7646981, 42.520085], "type": "Point"}, "id": "NZoOxy-qT-TdF47MP430Ef7la90=", "properties": {"@spider": "usps_collection_boxes", "addr:city": "BRIGHTON", "addr:country": "US", "addr:full": "9870 E GRAND RIVER AVE", "addr:postcode": "48116", "addr:state": "MI", "brand": "USPS", "collection_times": "Mo-Fr 16:00; Sa 13:00", "name": "USPS COLLECTION BOX - BLUE BOX", "note": "ON 12/24 AND 12/31, THIS BOX MAY BE COLLECTED AS EARLY AS 12 NOON.", "ref": "4811600006"}, "type": "Feature"}
{"geometry": {"coordinates": [-83.763469, 42.521661], "type": "Point"}, "id": "NaR58w0Syyshiz-V-noIaDY9hik=", "properties": {"@spider": "usps_collection_boxes", "addr:city": "BRIGHTON", "addr:country": "US", "addr:full": "9912 E GRAND RIVER AVE", "addr:postcode": "48116", "addr:state": "MI", "brand": "USPS", "collection_times": "Mo-Fr 16:00; Sa 13:00", "name": "USPS COLLECTION BOX - BLUE BOX", "note": "ON 12/24 AND 12/31, THIS BOX MAY BE COLLECTED AS EARLY AS 12 NOON.", "ref": "4811600008"}, "type": "Feature"}
{"geometry": {"coordinates": [-83.7583499, 42.519495], "type": "Point"}, "id": "GkPKKmkGOaXO3jOwtbbzLoC0TLM=", "properties": {"@spider": "usps_collection_boxes", "addr:city": "BRIGHTON", "addr:country": "US", "addr:full": "5757 WHITMORE LAKE RD", "addr:postcode": "48116", "addr:state": "MI", "brand": "USPS", "collection_times": "Mo-Fr 16:00; Sa 13:00", "name": "USPS COLLECTION BOX - BLUE BOX", "note": "ON 12/24 AND 12/31, THIS BOX MAY BE COLLECTED AS EARLY AS 12 NOON.", "ref": "4811600010"}, "type": "Feature"}
{"geometry": {"coordinates": [-83.7726114, 42.524776], "type": "Point"}, "id": "ynzt-36rFCaJNPTxkygh_3Kz4YE=", "properties": {"@spider": "usps_collection_boxes", "addr:city": "BRIGHTON", "addr:country": "US", "addr:full": "1005 E GRAND RIVER AVE", "addr:postcode": "48116", "addr:state": "MI", "brand": "USPS", "collection_times": "Mo-Fr 16:00; Sa 13:00", "name": "USPS COLLECTION BOX - BLUE BOX", "note": "ON 12/24 AND 12/31, THIS BOX MAY BE COLLECTED AS EARLY AS 12 NOON.", "ref": "4811600011"}, "type": "Feature"}
{"geometry": {"coordinates": [-83.7782527, 42.526565], "type": "Point"}, "id": "91L6sNrmJH5xYrejUTgk52B2mG8=", "properties": {"@spider": "usps_collection_boxes", "addr:city": "BRIGHTON", "addr:country": "US", "addr:full": "455 E GRAND RIVER AVE", "addr:postcode": "48116", "addr:state": "MI", "brand": "USPS", "collection_times": "Mo-Fr 16:00; Sa 13:00", "name": "USPS COLLECTION BOX - BLUE BOX", "note": "ON 12/24 AND 12/31, THIS BOX MAY BE COLLECTED AS EARLY AS 12 NOON.", "ref": "4811600012"}, "type": "Feature"}
{"geometry": {"coordinates": [-83.7787399, 42.528216], "type": "Point"}, "id": "06dAs_yV3ttsKN0hVahlaKJiV50=", "properties": {"@spider": "usps_collection_boxes", "addr:city": "BRIGHTON", "addr:country": "US", "addr:full": "225 E GRAND RIVER AVE", "addr:postcode": "48116", "addr:state": "MI", "brand": "USPS", "collection_times": "Mo-Fr 16:00; Sa 13:00", "name": "USPS COLLECTION BOX - BLUE BOX", "note": "ON 12/24 AND 12/31, THIS BOX MAY BE COLLECTED AS EARLY AS 12 NOON.", "ref": "4811600013"}, "type": "Feature"}
{"geometry": {"coordinates": [-83.7857286, 42.544182], "type": "Point"}, "id": "NWMzr7_punWwnshM0ELHde3Ghv8=", "properties": {"@spider": "usps_collection_boxes", "addr:city": "BRIGHTON", "addr:country": "US", "addr:full": "8483 W GRAND RIVER AVE", "addr:postcode": "48116", "addr:state": "MI", "brand": "USPS", "collection_times": "Mo-Fr 16:00; Sa 13:00", "name": "USPS COLLECTION BOX - BLUE BOX", "note": "ON 12/24 AND 12/31, THIS BOX MAY BE COLLECTED AS EARLY AS 12 NOON.", "ref": "4811600020"}, "type": "Feature"}
{"geometry": {"coordinates": [-83.7841456, 42.530371], "type": "Point"}, "id": "BUYCMkVzcJxw64RRmHIvq2zi7Cg=", "properties": {"@spider": "usps_collection_boxes", "addr:city": "BRIGHTON", "addr:country": "US", "addr:full": "200 N 1ST ST", "addr:postcode": "48116", "addr:state": "MI", "brand": "USPS", "collection_times": "Mo-Fr 16:00; Sa 13:00", "name": "USPS COLLECTION BOX - BLUE BOX", "note": "ON 12/24 AND 12/31, THIS BOX MAY BE COLLECTED AS EARLY AS 12 NOON.", "ref": "4811600024"}, "type": "Feature"}
{"geometry": {"coordinates": [-83.7784976, 42.515676], "type": "Point"}, "id": "B7EQ3Xq_35lygXoqXkMwr326RRA=", "properties": {"@spider": "usps_collection_boxes", "addr:city": "BRIGHTON", "addr:country": "US", "addr:full": "396 WOODLAKE DR", "addr:postcode": "48116", "addr:state": "MI", "brand": "USPS", "collection_times": "Mo-Sa 13:00", "name": "USPS COLLECTION BOX - BLUE BOX", "note": "ON 12/24 AND 12/31, THIS BOX MAY BE COLLECTED AS EARLY AS 12 NOON.", "ref": "4811600029"}, "type": "Feature"}
{"geometry": {"coordinates": [-83.8518949, 42.52896], "type": "Point"}, "id": "vCrYUQl4MRf2n5MKllQAn99Cero=", "properties": {"@spider": "usps_collection_boxes", "addr:city": "BRIGHTON", "addr:country": "US", "addr:full": "4839 OAK TREE CT", "addr:postcode": "48116", "addr:state": "MI", "brand": "USPS", "collection_times": "Mo-Sa 13:00", "name": "USPS COLLECTION BOX - BLUE BOX", "note": "ON 12/24 AND 12/31, THIS BOX MAY BE COLLECTED AS EARLY AS 12 NOON.", "ref": "4811600032"}, "type": "Feature"}
{"geometry": {"coordinates": [-83.782651364, 42.528399483], "type": "Point"}, "id": "KPTnlZMLZ8leCVxxa_4jeVeAe9Y=", "properties": {"@spider": "usps_collection_boxes", "addr:city": "BRIGHTON", "addr:country": "US", "addr:full": "300 W NORTH ST", "addr:postcode": "48116", "addr:state": "MI", "brand": "USPS", "collection_times": "Mo-Fr 16:00; Sa 13:00", "name": "USPS COLLECTION BOX - BLUE BOX", "note": "ON 12/24 AND 12/31, THIS BOX MAY BE COLLECTED AS EARLY AS 12 NOON.", "ref": "4811600035"}, "type": "Feature"}
{"geometry": {"coordinates": [-83.7893328893, 42.5403605232], "type": "Point"}, "id": "GHjaDZj0suNSpdszHkEkg2xdB4U=", "properties": {"@spider": "usps_collection_boxes", "addr:city": "BRIGHTON", "addr:country": "US", "addr:full": "100 ORNDORF DR", "addr:postcode": "48116", "addr:state": "MI", "brand": "USPS", "collection_times": "Mo-Sa 17:00", "name": "USPS COLLECTION BOX - BLUE BOX", "note": "ON 12/24 AND 12/31, THIS BOX MAY BE COLLECTED AS EARLY AS 12 NOON.", "ref": "4811600039"}, "type": "Feature"}
{"geometry": {"coordinates": [-83.7920923, 42.544793], "type": "Point"}, "id": "1LxHhCHbF3M4ikWXR554nMsav-I=", "properties": {"@spider": "usps_collection_boxes", "addr:city": "BRIGHTON", "addr:country": "US", "addr:full": "8043 CHALLIS RD", "addr:postcode": "48116", "addr:state": "MI", "brand": "USPS", "collection_times": "Mo-Sa 09:30", "name": "USPS COLLECTION BOX - BLUE BOX", "ref": "4811600050"}, "type": "Feature"}
{"geometry": {"coordinates": [-83.7896794, 42.540457], "type": "Point"}, "id": "3Oopo9vgZ0FbYWdoPVuGJ-loaqo=", "properties": {"@spider": "usps_collection_boxes", "addr:city": "BRIGHTON", "addr:country": "US", "addr:full": "100 CHARLES H ORNDORF DR", "addr:postcode": "48116", "addr:state": "MI", "brand": "USPS", "collection_times": "Mo-Sa 17:00", "name": "USPS COLLECTION BOX - BLUE BOX", "note": "ON 12/24 AND 12/31, THIS BOX MAY BE COLLECTED AS EARLY AS 12 NOON.", "ref": "4811600052"}, "type": "Feature"}
{"geometry": {"coordinates": [-83.7501764, 42.519696], "type": "Point"}, "id": "D2He-t_2cU57n_RqrV2spe9Dv6k=", "properties": {"@spider": "usps_collection_boxes", "addr:city": "BRIGHTON", "addr:country": "US", "addr:full": "10321 GRAND RIVER RD", "addr:postcode": "48116", "addr:state": "MI", "brand": "USPS", "collection_times": "Mo-Fr 16:00; Sa 13:00", "name": "USPS COLLECTION BOX - BLUE BOX", "note": "ON 12/24 AND 12/31, THIS BOX MAY BE COLLECTED AS EARLY AS 12 NOON.", "ref": "4811600056"}, "type": "Feature"}
{"geometry": {"coordinates": [-83.7791414, 42.525608], "type": "Point"}, "id": "Fw_R1t5oHBOMk53f3UoOBrugZmM=", "properties": {"@spider": "usps_collection_boxes", "addr:city": "BRIGHTON", "addr:country": "US", "addr:full": "520 E GRAND RIVER AVE", "addr:postcode": "48116", "addr:state": "MI", "brand": "USPS", "collection_times": "Mo-Fr 16:00; Sa 13:00", "name": "USPS COLLECTION BOX - BLUE BOX", "note": "ON 12/24 AND 12/31, THIS BOX MAY BE COLLECTED AS EARLY AS 12 NOON.", "ref": "4811600057"}, "type": "Feature"}
{"geometry": {"coordinates": [-83.7895319, 42.540905], "type": "Point"}, "id": "36icsnz9JPMlRh23HW6GMTHDXOY=", "properties": {"@spider": "usps_collection_boxes", "addr:city": "BRIGHTON", "addr:country": "US", "addr:full": "100 ORNDORF DR", "addr:postcode": "48116", "addr:state": "MI", "brand": "USPS", "collection_times": "Mo-Sa 17:00", "name": "USPS COLLECTION BOX - APC", "note": "ON 12/24 AND 12/31, THIS BOX MAY BE COLLECTED AS EARLY AS 12 NOON.", "ref": "4811600058"}, "type": "Feature"}
{"geometry": {"coordinates": [-83.789332889, 42.540360523], "type": "Point"}, "id": "DSsMm34wX8yT5-U3ZEHCskC6jUI=", "properties": {"@spider": "usps_collection_boxes", "addr:city": "BRIGHTON", "addr:country": "US", "addr:full": "100 ORNDORF DR", "addr:postcode": "48116", "addr:state": "MI", "brand": "USPS", "collection_times": "Mo-Fr 18:00; Sa 16:00", "name": "USPS COLLECTION BOX - PO LOBBY", "note": "ON 12/24 AND 12/31, THIS BOX MAY BE COLLECTED AS EARLY AS 12 NOON.", "ref": "4811600066"}, "type": "Feature"}
