{"geometry": {"coordinates": [-83.30645, 42.698303], "type": "Point"}, "id": "ffJ_3oBwoLNFor_gJyRLebRtuoM=", "properties": {"@spider": "usps_collection_boxes", "addr:city": "AUBURN HILLS", "addr:country": "US", "addr:full": "3906 BALDWIN RD", "addr:postcode": "48321", "addr:state": "MI", "brand": "USPS", "collection_times": "Mo-Fr 17:00; Sa 16:00", "name": "USPS COLLECTION BOX - BLUE BOX", "note": "ON 12/24 AND 12/31, THIS BOX MAY BE COLLECTED AS EARLY AS 12 NOON.", "ref": "4832100009"}, "type": "Feature"}
{"geometry": {"coordinates": [-83.306444, 42.698063], "type": "Point"}, "id": "7nQSvdmboMCOnPIsYW7GJ-2PBFA=", "properties": {"@spider": "usps_collection_boxes", "addr:city": "AUBURN HILLS", "addr:country": "US", "addr:full": "3906 BALDWIN RD", "addr:postcode": "48321", "addr:state": "MI", "brand": "USPS", "collection_times": "Mo-Fr 17:00; Sa 16:00", "name": "USPS COLLECTION BOX - APC", "note": "ON 12/24 AND 12/31, THIS BOX MAY BE COLLECTED AS EARLY AS 12 NOON.", "ref": "4832100012"}, "type": "Feature"}
{"geometry": {"coordinates": [-83.306444, 42.698063], "type": "Point"}, "id": "KiAjKZrVPYUs0TVsCWfNXRbT6Hc=", "properties": {"@spider": "usps_collection_boxes", "addr:city": "AUBURN HILLS", "addr:country": "US", "addr:full": "3906 BALDWIN RD", "addr:postcode": "48321", "addr:state": "MI", "brand": "USPS", "collection_times": "Mo-Fr 17:00; Sa 16:00", "name": "USPS COLLECTION BOX - BLUE BOX", "note": "ON 12/24 AND 12/31, THIS BOX MAY BE COLLECTED AS EARLY AS 12 NOON.", "ref": "4832100013"}, "type": "Feature"}
{"geometry": {"coordinates": [-83.3064222043, 42.6980937043], "type": "Point"}, "id": "1assF9xrUu_7NQe41suetq88Qps=", "properties": {"@spider": "usps_collection_boxes", "addr:city": "AUBURN HILLS", "addr:country": "US", "addr:full": "3906 BALDWIN RD", "addr:postcode": "48321", "addr:state": "MI", "brand": "USPS", "collection_times": "Mo-Fr 17:30; Sa 17:00", "name": "USPS COLLECTION BOX - PO LOBBY", "note": "ON 12/24 AND 12/31, THIS BOX MAY BE COLLECTED AS EARLY AS 12 NOON.", "ref": "4832100017"}, "type": "Feature"}
{"geometry": {"coordinates": [-83.3881319, 42.693814], "type": "Point"}, "id": "tZUPbqplv3K5sn8m0SmYRtk20y4=", "properties": {"@spider": "usps_collection_boxes", "addr:city": "WATERFORD", "addr:country": "US", "addr:full": "5036 DIXIE HWY", "addr:postcode": "48329", "addr:state": "MI", "brand": "USPS", "collection_times": "Mo-Fr 17:00; Sa 16:00", "name": "USPS COLLECTION BOX - BLUE BOX", "note": "ON 12/24 AND 12/31, THIS BOX MAY BE COLLECTED AS EARLY AS 12 NOON.", "ref": "4832900003"}, "type": "Feature"}
{"geometry": {"coordinates": [-83.3745839, 42.682538], "type": "Point"}, "id": "XdmVldFzCHb7uCYtv03nZp8JUj0=", "properties": {"@spider": "usps_collection_boxes", "addr:city": "WATERFORD", "addr:country": "US", "addr:full": "4350 DIXIE HWY", "addr:postcode": "48329", "addr:state": "MI", "brand": "USPS", "collection_times": "Mo-Sa 10:00", "name": "USPS COLLECTION BOX - BLUE BOX", "ref": "4832900006"}, "type": "Feature"}
{"geometry": {"coordinates": [-83.389324, 42.692616], "type": "Point"}, "id": "RG6b1-XYhpxSdR9DviT30wYSyZI=", "properties": {"@spider": "usps_collection_boxes", "addr:city": "WATERFORD", "addr:country": "US", "addr:full": "5036 DIXIE HWY", "addr:postcode": "48329", "addr:state": "MI", "brand": "USPS", "collection_times": "Mo-Fr 17:00; Sa 16:00", "name": "USPS COLLECTION BOX - PO LOBBY", "note": "ON 12/24 AND 12/31, THIS BOX MAY BE COLLECTED AS EARLY AS 12 NOON.", "ref": "4832900011"}, "type": "Feature"}
{"geometry": {"coordinates": [-83.389324, 42.692616], "type": "Point"}, "id": "TY6H0ymWf8fVbZhN7Cd-Ji5dKXM=", "properties": {"@spider": "usps_collection_boxes", "addr:city": "WATERFORD", "addr:country": "US", "addr:full": "5036 DIXIE HWY", "addr:postcode": "48329", "addr:state": "MI", "brand": "USPS", "collection_times": "Mo-Fr 17:00; Sa 16:00", "name": "USPS COLLECTION BOX - PO LOBBY", "note": "ON 12/24 AND 12/31, THIS BOX MAY BE COLLECTED AS EARLY AS 12 NOON.", "ref": "4832900012"}, "type": "Feature"}
{"geometry": {"coordinates": [-83.389324, 42.692616], "type": "Point"}, "id": "6uGiuoQEgbjIy8MRpLpBMycpUfg=", "properties": {"@spider": "usps_collection_boxes", "addr:city": "WATERFORD", "addr:country": "US", "addr:full": "5036 DIXIE HWY", "addr:postcode": "48329", "addr:state": "MI", "brand": "USPS", "collection_times": "Mo-Fr 17:00; Sa 16:00", "name": "USPS COLLECTION BOX - PO LOBBY", "note": "ON 12/24 AND 12/31, THIS BOX MAY BE COLLECTED AS EARLY AS 12 NOON.", "ref": "4832900013"}, "type": "Feature"}
{"geometry": {"coordinates": [-83.389324, 42.692616], "type": "Point"}, "id": "-TXXGynM63fTLUxTS7CjwzebEk8=", "properties": {"@spider": "usps_collection_boxes", "addr:city": "WATERFORD", "addr:country": "US", "addr:full": "5036 DIXIE HWY", "addr:postcode": "48329", "addr:state": "MI", "brand": "USPS", "collection_times": "Mo-Fr 17:00; Sa 16:00", "name": "USPS COLLECTION BOX - PO LOBBY", "note": "ON 12/24 AND 12/31, THIS BOX MAY BE COLLECTED AS EARLY AS 12 NOON.", "ref": "4832900014"}, "type": "Feature"}
{"geometry": {"coordinates": [-83.3881711, 42.693783], "type": "Point"}, "id": "lLVoHVC16DdvTc1ui9XU35haDH0=", "properties": {"@spider": "usps_collection_boxes", "addr:city": "WATERFORD", "addr:country": "US", "addr:full": "5036 DIXIE HWY", "addr:postcode": "48329", "addr:state": "MI", "brand": "USPS", "collection_times": "Mo-Fr 17:00; Sa 16:00", "name": "USPS COLLECTION BOX - BLUE BOX", "note": "ON 12/24 AND 12/31, THIS BOX MAY BE COLLECTED AS EARLY AS 12 NOON.", "ref": "4832900015"}, "type": "Feature"}
{"geometry": {"coordinates": [-83.389324, 42.692616], "type": "Point"}, "id": "ccECR2--NY-0BSDDkuN_MaXC3n4=", "properties": {"@spider": "usps_collection_boxes", "addr:city": "WATERFORD", "addr:country": "US", "addr:full": "5036 DIXIE HWY", "addr:postcode": "48329", "addr:state": "MI", "brand": "USPS", "collection_times": "Mo-Fr 17:00; Sa 16:00", "name": "USPS COLLECTION BOX - APC", "note": "ON 12/24 AND 12/31, THIS BOX MAY BE COLLECTED AS EARLY AS 12 NOON.", "ref": "4832900016"}, "type": "Feature"}
{"geometry": {"coordinates": [-83.3894441, 42.692747526], "type": "Point"}, "id": "rcgcma0zuGVHSFDIIycZZCkw_kk=", "properties": {"@spider": "usps_collection_boxes", "addr:city": "WATERFORD", "addr:country": "US", "addr:full": "5036 DIXIE HWY", "addr:postcode": "48329", "addr:state": "MI", "brand": "USPS", "collection_times": "Mo-Fr 17:00; Sa 16:00", "name": "USPS COLLECTION BOX - PO LOBBY", "note": "ON 12/24 AND 12/31, THIS BOX MAY BE COLLECTED AS EARLY AS 12 NOON.", "ref": "4832900020"}, "type": "Feature"}
{"geometry": {"coordinates": [-83.2993362, 42.676668], "type": "Point"}, "id": "FIuM3ofksNzAOABR8P9TuH-CE58=", "properties": {"@spider": "usps_collection_boxes", "addr:city": "PONTIAC", "addr:country": "US", "addr:full": "20 E WALTON BLVD", "addr:postcode": "48340", "addr:state": "MI", "brand": "USPS", "collection_times": "Mo-Sa 11:00", "name": "USPS COLLECTION BOX - BLUE BOX", "ref": "4834000004"}, "type": "Feature"}
{"geometry": {"coordinates": [-83.299343, 42.676658], "type": "Point"}, "id": "uYgXiYDrCVf6ycv-0yz5k9xgOWM=", "properties": {"@spider": "usps_collection_boxes", "addr:city": "PONTIAC", "addr:country": "US", "addr:full": "20 E WALTON BLVD", "addr:postcode": "48341", "addr:state": "MI", "brand": "USPS", "collection_times": "Mo-Sa 11:00", "name": "USPS COLLECTION BOX - BLUE BOX", "ref": "4834100016"}, "type": "Feature"}
{"geometry": {"coordinates": [-83.4192684, 42.735796], "type": "Point"}, "id": "SWS8yo_c-e4RMMPhq42oh-uL2as=", "properties": {"@spider": "usps_collection_boxes", "addr:city": "CLARKSTON", "addr:country": "US", "addr:full": "5 S MAIN ST", "addr:postcode": "48346", "addr:state": "MI", "brand": "USPS", "collection_times": "Mo-Sa 13:00", "name": "USPS COLLECTION BOX - BLUE BOX", "note": "ON 12/24 AND 12/31, THIS BOX MAY BE COLLECTED AS EARLY AS 12 NOON.", "ref": "4834600000"}, "type": "Feature"}
{"geometry": {"coordinates": [-83.3378549, 42.70649], "type": "Point"}, "id": "CEW3oMPGf4MTLnesKcrEhCCYwMQ=", "properties": {"@spider": "usps_collection_boxes", "addr:city": "CLARKSTON", "addr:country": "US", "addr:full": "2500 MANN RD", "addr:postcode": "48346", "addr:state": "MI", "brand": "USPS", "collection_times": "Mo-Sa 11:00", "name": "USPS COLLECTION BOX - BLUE BOX", "ref": "4834600005"}, "type": "Feature"}
{"geometry": {"coordinates": [-83.4188161, 42.743503], "type": "Point"}, "id": "qIZ8FIImLJ40ppMThdr7XuqzyiE=", "properties": {"@spider": "usps_collection_boxes", "addr:city": "CLARKSTON", "addr:country": "US", "addr:full": "7210 M-15", "addr:postcode": "48346", "addr:state": "MI", "brand": "USPS", "collection_times": "Mo-Sa 13:00", "name": "USPS COLLECTION BOX - BLUE BOX", "note": "ON 12/24 AND 12/31, THIS BOX MAY BE COLLECTED AS EARLY AS 12 NOON.", "ref": "4834600006"}, "type": "Feature"}
{"geometry": {"coordinates": [-83.3486107, 42.713127], "type": "Point"}, "id": "QzXzBCqviTDYePLwXZ5-31lMa_c=", "properties": {"@spider": "usps_collection_boxes", "addr:city": "CLARKSTON", "addr:country": "US", "addr:full": "4855 FOX CRK", "addr:postcode": "48346", "addr:state": "MI", "brand": "USPS", "collection_times": "Mo-Sa 11:00", "name": "USPS COLLECTION BOX - BLUE BOX", "ref": "4834600008"}, "type": "Feature"}
{"geometry": {"coordinates": [-83.4276499, 42.722927], "type": "Point"}, "id": "NqKPiukG6h-N7HAEkhaHkcxJX0o=", "properties": {"@spider": "usps_collection_boxes", "addr:city": "CLARKSTON", "addr:country": "US", "addr:full": "7121 DIXIE HWY", "addr:postcode": "48346", "addr:state": "MI", "brand": "USPS", "collection_times": "Mo-Sa 12:00", "name": "USPS COLLECTION BOX - BLUE BOX", "ref": "4834600009"}, "type": "Feature"}
{"geometry": {"coordinates": [-83.3809949, 42.732623], "type": "Point"}, "id": "vhg7VPv2hPR_ws4hpalom0MqmUM=", "properties": {"@spider": "usps_collection_boxes", "addr:city": "CLARKSTON", "addr:country": "US", "addr:full": "6555 SASHABAW RD", "addr:postcode": "48346", "addr:state": "MI", "brand": "USPS", "collection_times": "Mo-Sa 11:00", "name": "USPS COLLECTION BOX - BLUE BOX", "ref": "4834600010"}, "type": "Feature"}
{"geometry": {"coordinates": [-83.416471, 42.717173], "type": "Point"}, "id": "T3YoUozcPpmi31F9zl5t_lqCdcU=", "properties": {"@spider": "usps_collection_boxes", "addr:city": "CLARKSTON", "addr:country": "US", "addr:full": "6647 DIXIE HWY", "addr:postcode": "48346", "addr:state": "MI", "brand": "USPS", "collection_times": "Mo-Sa 13:00", "name": "USPS COLLECTION BOX - BLUE BOX", "note": "ON 12/24 AND 12/31, THIS BOX MAY BE COLLECTED AS EARLY AS 12 NOON.", "ref": "4834600012"}, "type": "Feature"}
{"geometry": {"coordinates": [-83.418588, 42.722585], "type": "Point"}, "id": "AZ44Vd3eXbwx-g2soIz9a4q_j-Y=", "properties": {"@spider": "usps_collection_boxes", "addr:city": "CLARKSTON", "addr:country": "US", "addr:full": "5799 S MAIN ST", "addr:postcode": "48347", "addr:state": "MI", "brand": "USPS", "collection_times": "Mo-Sa 16:45", "name": "USPS COLLECTION BOX - BLUE BOX", "note": "ON 12/24 AND 12/31, THIS BOX MAY BE COLLECTED AS EARLY AS 12 NOON.", "ref": "4834700002"}, "type": "Feature"}
{"geometry": {"coordinates": [-83.418588, 42.722585], "type": "Point"}, "id": "-mnNYExTQ3qYH30nDd4h5j5snpE=", "properties": {"@spider": "usps_collection_boxes", "addr:city": "CLARKSTON", "addr:country": "US", "addr:full": "5799 S MAIN ST", "addr:postcode": "48347", "addr:state": "MI", "brand": "USPS", "collection_times": "Mo-Sa 16:45", "name": "USPS COLLECTION BOX - BLUE BOX", "note": "ON 12/24 AND 12/31, THIS BOX MAY BE COLLECTED AS EARLY AS 12 NOON.", "ref": "4834700003"}, "type": "Feature"}
{"geometry": {"coordinates": [-83.418588, 42.722585], "type": "Point"}, "id": "g_c-Lhs0mxnsISCm4DUyPlCG79Q=", "properties": {"@spider": "usps_collection_boxes", "addr:city": "CLARKSTON", "addr:country": "US", "addr:full": "5799 S MAIN ST", "addr:postcode": "48347", "addr:state": "MI", "brand": "USPS", "collection_times": "Mo-Fr 16:45; Sa 13:45", "name": "USPS COLLECTION BOX - PO LOBBY", "note": "ON 12/24 AND 12/31, THIS BOX MAY BE COLLECTED AS EARLY AS 12 NOON.", "ref": "4834700016"}, "type": "Feature"}
{"geometry": {"coordinates": [-83.418588, 42.722585], "type": "Point"}, "id": "Z9M7u31jXo6DSc-LPOzrQo44QEI=", "properties": {"@spider": "usps_collection_boxes", "addr:city": "CLARKSTON", "addr:country": "US", "addr:full": "5799 S MAIN ST", "addr:postcode": "48347", "addr:state": "MI", "brand": "USPS", "collection_times": "Mo-Fr 16:45; Sa 13:45", "name": "USPS COLLECTION BOX - PO LOBBY", "note": "ON 12/24 AND 12/31, THIS BOX MAY BE COLLECTED AS EARLY AS 12 NOON.", "ref": "4834700018"}, "type": "Feature"}
{"geometry": {"coordinates": [-83.418588, 42.722585], "type": "Point"}, "id": "fPfbeXYxI37GjdRDro2oMjGBqSI=", "properties": {"@spider": "usps_collection_boxes", "addr:city": "CLARKSTON", "addr:country": "US", "addr:full": "5799 S MAIN ST", "addr:postcode": "48347", "addr:state": "MI", "brand": "USPS", "collection_times": "Mo-Fr 16:45; Sa 13:45", "name": "USPS COLLECTION BOX - APC", "note": "ON 12/24 AND 12/31, THIS BOX MAY BE COLLECTED AS EARLY AS 12 NOON.", "ref": "4834700020"}, "type": "Feature"}
{"geometry": {"coordinates": [-83.418639831, 42.722874524], "type": "Point"}, "id": "fhOUHFhqpv0r-owOWfMCCEJwIKo=", "properties": {"@spider": "usps_collection_boxes", "addr:city": "CLARKSTON", "addr:country": "US", "addr:full": "5799 S MAIN ST", "addr:postcode": "48347", "addr:state": "MI", "brand": "USPS", "collection_times": "Mo-Fr 17:00; Sa 14:00", "name": "USPS COLLECTION BOX - PO LOBBY", "note": "ON 12/24 AND 12/31, THIS BOX MAY BE COLLECTED AS EARLY AS 12 NOON.", "ref": "4834700022"}, "type": "Feature"}
{"geometry": {"coordinates": [-83.543832, 42.747012], "type": "Point"}, "id": "bnCVnZQH3y3qopC2NRWctKYiUyI=", "properties": {"@spider": "usps_collection_boxes", "addr:city": "DAVISBURG", "addr:country": "US", "addr:full": "12795 FOUNTAIN SQUARE", "addr:postcode": "48350", "addr:state": "MI", "brand": "USPS", "collection_times": "Mo-Fr 16:30; Sa 12:00", "name": "USPS COLLECTION BOX - PO LOBBY", "note": "ON 12/24 AND 12/31, THIS BOX MAY BE COLLECTED AS EARLY AS 12 NOON.", "ref": "4835000002"}, "type": "Feature"}
{"geometry": {"coordinates": [-83.543831, 42.747011], "type": "Point"}, "id": "GB9LK66uSezON8ML6_hW4Tu1Vig=", "properties": {"@spider": "usps_collection_boxes", "addr:city": "DAVISBURG", "addr:country": "US", "addr:full": "12795 FOUNTAIN SQUARE", "addr:postcode": "48350", "addr:state": "MI", "brand": "USPS", "collection_times": "Mo-Fr 16:30; Sa 12:00", "name": "USPS COLLECTION BOX - PO LOBBY", "note": "ON 12/24 AND 12/31, THIS BOX MAY BE COLLECTED AS EARLY AS 12 NOON.", "ref": "4835000003"}, "type": "Feature"}
{"geometry": {"coordinates": [-83.543831, 42.747011], "type": "Point"}, "id": "YB272qnXXTfgmKYpc3zFkfnSp2g=", "properties": {"@spider": "usps_collection_boxes", "addr:city": "DAVISBURG", "addr:country": "US", "addr:full": "12795 FOUNTAIN SQUARE", "addr:postcode": "48350", "addr:state": "MI", "brand": "USPS", "collection_times": "Mo-Fr 16:30; Sa 12:00", "name": "USPS COLLECTION BOX - BLUE BOX", "note": "ON 12/24 AND 12/31, THIS BOX MAY BE COLLECTED AS EARLY AS 12 NOON.", "ref": "4835000004"}, "type": "Feature"}
{"geometry": {"coordinates": [-83.544229278, 42.746996477], "type": "Point"}, "id": "MfD7DrZqxKG8UdSoi2IY72ottQs=", "properties": {"@spider": "usps_collection_boxes", "addr:city": "DAVISBURG", "addr:country": "US", "addr:full": "12795 FOUNTAIN SQUARE", "addr:postcode": "48350", "addr:state": "MI", "brand": "USPS", "collection_times": "Mo-Fr 16:30; Sa 12:00", "name": "USPS COLLECTION BOX - PO LOBBY", "note": "ON 12/24 AND 12/31, THIS BOX MAY BE COLLECTED AS EARLY AS 12 NOON.", "ref": "4835000005"}, "type": "Feature"}
{"geometry": {"coordinates": [-83.7461994, 42.630969], "type": "Point"}, "id": "t3qmmaYMKKis2O7VK4l0oVNu-To=", "properties": {"@spider": "usps_collection_boxes", "addr:city": "HARTLAND", "addr:country": "US", "addr:full": "10400 HIGHLAND RD", "addr:postcode": "48353", "addr:state": "MI", "brand": "USPS", "collection_times": "Mo-Sa 09:30", "name": "USPS COLLECTION BOX - BLUE BOX", "ref": "4835300001"}, "type": "Feature"}
{"geometry": {"coordinates": [-83.753704, 42.65505], "type": "Point"}, "id": "D3RDmwYlelWrGWElE5myjr9UV_w=", "properties": {"@spider": "usps_collection_boxes", "addr:city": "HARTLAND", "addr:country": "US", "addr:full": "10246 CROUSE RD", "addr:postcode": "48353", "addr:state": "MI", "brand": "USPS", "collection_times": "Mo-Fr 16:30; Sa 12:00", "name": "USPS COLLECTION BOX - BLUE BOX", "note": "ON 12/24 AND 12/31, THIS BOX MAY BE COLLECTED AS EARLY AS 12 NOON.", "ref": "4835300002"}, "type": "Feature"}
{"geometry": {"coordinates": [-83.753712, 42.655077], "type": "Point"}, "id": "iwK5Iol3Fi4cAkaF5Djq58pRxZs=", "properties": {"@spider": "usps_collection_boxes", "addr:city": "HARTLAND", "addr:country": "US", "addr:full": "10246 CROUSE RD", "addr:postcode": "48353", "addr:state": "MI", "brand": "USPS", "collection_times": "Mo-Fr 16:30; Sa 12:00", "name": "USPS COLLECTION BOX - PO LOBBY", "note": "ON 12/24 AND 12/31, THIS BOX MAY BE COLLECTED AS EARLY AS 12 NOON.", "ref": "4835300004"}, "type": "Feature"}
{"geometry": {"coordinates": [-83.7128653, 42.635612], "type": "Point"}, "id": "OFzR5024Gl1oMGdyRQK9Vw4s05M=", "properties": {"@spider": "usps_collection_boxes", "addr:city": "HARTLAND", "addr:country": "US", "addr:full": "12319 HIGHLAND RD", "addr:postcode": "48353", "addr:state": "MI", "brand": "USPS", "collection_times": "Mo-Sa 09:30", "name": "USPS COLLECTION BOX - BLUE BOX", "ref": "4835300005"}, "type": "Feature"}
{"geometry": {"coordinates": [-83.7504804, 42.632121], "type": "Point"}, "id": "VR1AopzEhbFIVk_RO_LkfM6P4p4=", "properties": {"@spider": "usps_collection_boxes", "addr:city": "HARTLAND", "addr:country": "US", "addr:full": "10100 HIGHLAND RD", "addr:postcode": "48353", "addr:state": "MI", "brand": "USPS", "collection_times": "Mo-Sa 09:30", "name": "USPS COLLECTION BOX - BLUE BOX", "ref": "4835300007"}, "type": "Feature"}
{"geometry": {"coordinates": [-83.7537110903, 42.6549945633], "type": "Point"}, "id": "XS4CLBipAjqRcwYec47pj2t6n_U=", "properties": {"@spider": "usps_collection_boxes", "addr:city": "HARTLAND", "addr:country": "US", "addr:full": "10246 CROUSE RD", "addr:postcode": "48353", "addr:state": "MI", "brand": "USPS", "collection_times": "Mo-Fr 16:30; Sa 12:30", "name": "USPS COLLECTION BOX - PO LOBBY", "note": "ON 12/24 AND 12/31, THIS BOX MAY BE COLLECTED AS EARLY AS 12 NOON.", "ref": "4835300009"}, "type": "Feature"}
{"geometry": {"coordinates": [-83.612143, 42.643737], "type": "Point"}, "id": "Ig1kW0v3pnOea0vB8HkMs6U6Mbo=", "properties": {"@spider": "usps_collection_boxes", "addr:city": "HIGHLAND", "addr:country": "US", "addr:full": "376 BEACH FARM CIR", "addr:postcode": "48356", "addr:state": "MI", "brand": "USPS", "collection_times": "Mo-Fr 16:45; Sa 13:00", "name": "USPS COLLECTION BOX - PO LOBBY", "note": "ON 12/24 AND 12/31, THIS BOX MAY BE COLLECTED AS EARLY AS 12 NOON.", "ref": "4835600002"}, "type": "Feature"}
{"geometry": {"coordinates": [-83.612173, 42.643763], "type": "Point"}, "id": "i_2tnLEpfMbkWOlU6TUUgu5xXOc=", "properties": {"@spider": "usps_collection_boxes", "addr:city": "HIGHLAND", "addr:country": "US", "addr:full": "376 BEACH FARM CIR", "addr:postcode": "48356", "addr:state": "MI", "brand": "USPS", "collection_times": "Mo-Fr 16:30; Sa 13:00", "name": "USPS COLLECTION BOX - BLUE BOX", "note": "ON 12/24 AND 12/31, THIS BOX MAY BE COLLECTED AS EARLY AS 12 NOON.", "ref": "4835600003"}, "type": "Feature"}
{"geometry": {"coordinates": [-83.612173, 42.643763], "type": "Point"}, "id": "t5aV8DoM4WI9kgPLtH3VAarRams=", "properties": {"@spider": "usps_collection_boxes", "addr:city": "HIGHLAND", "addr:country": "US", "addr:full": "376 BEACH FARM CIR", "addr:postcode": "48356", "addr:state": "MI", "brand": "USPS", "collection_times": "Mo-Fr 16:45; Sa 13:00", "name": "USPS COLLECTION BOX - APC", "note": "ON 12/24 AND 12/31, THIS BOX MAY BE COLLECTED AS EARLY AS 12 NOON.", "ref": "4835600005"}, "type": "Feature"}
{"geometry": {"coordinates": [-83.612110841, 42.6437245273], "type": "Point"}, "id": "qnoZpkYrND3x-gVFw5GMhc6RH4o=", "properties": {"@spider": "usps_collection_boxes", "addr:city": "HIGHLAND", "addr:country": "US", "addr:full": "376 BEACH FARM CIR", "addr:postcode": "48356", "addr:state": "MI", "brand": "USPS", "collection_times": "Mo-Fr 17:00; Sa 13:00", "name": "USPS COLLECTION BOX - PO LOBBY", "note": "ON 12/24 AND 12/31, THIS BOX MAY BE COLLECTED AS EARLY AS 12 NOON.", "ref": "4835600008"}, "type": "Feature"}
{"geometry": {"coordinates": [-83.6194861, 42.639177], "type": "Point"}, "id": "adRc7_mPpoqvyuJSeX7ngPb-E5A=", "properties": {"@spider": "usps_collection_boxes", "addr:city": "HIGHLAND", "addr:country": "US", "addr:full": "205 N JOHN ST", "addr:postcode": "48357", "addr:state": "MI", "brand": "USPS", "collection_times": "Mo-Fr 11:00; Sa 10:00", "name": "USPS COLLECTION BOX - BLUE BOX", "ref": "4835700001"}, "type": "Feature"}
{"geometry": {"coordinates": [-83.6190474, 42.661503], "type": "Point"}, "id": "z2FNCJ5vJK66wv7nHabONX2bk5Y=", "properties": {"@spider": "usps_collection_boxes", "addr:city": "HIGHLAND", "addr:country": "US", "addr:full": "2377 N MILFORD RD", "addr:postcode": "48357", "addr:state": "MI", "brand": "USPS", "collection_times": "Mo-Sa 10:00", "name": "USPS COLLECTION BOX - BLUE BOX", "ref": "4835700003"}, "type": "Feature"}
{"geometry": {"coordinates": [-83.2465642, 42.791032], "type": "Point"}, "id": "JScZ9c-TQ4DEV2H8GI_AGGk04w0=", "properties": {"@spider": "usps_collection_boxes", "addr:city": "LAKE ORION", "addr:country": "US", "addr:full": "611 N AXFORD ST", "addr:postcode": "48361", "addr:state": "MI", "brand": "USPS", "collection_times": "Mo-Fr 17:00; Sa 16:00", "name": "USPS COLLECTION BOX - BLUE BOX", "note": "ON 12/24 AND 12/31, THIS BOX MAY BE COLLECTED AS EARLY AS 12 NOON.", "ref": "4836100010"}, "type": "Feature"}
{"geometry": {"coordinates": [-83.2468699, 42.791098], "type": "Point"}, "id": "PMw8PVqvkD49a3Xmryx569_6QKM=", "properties": {"@spider": "usps_collection_boxes", "addr:city": "LAKE ORION", "addr:country": "US", "addr:full": "611 N AXFORD ST", "addr:postcode": "48361", "addr:state": "MI", "brand": "USPS", "collection_times": "Mo-Fr 17:00; Sa 13:00", "name": "USPS COLLECTION BOX - PO LOBBY", "note": "ON 12/24 AND 12/31, THIS BOX MAY BE COLLECTED AS EARLY AS 12 NOON.", "ref": "4836100014"}, "type": "Feature"}
{"geometry": {"coordinates": [-83.2467388, 42.791062], "type": "Point"}, "id": "fx0lJRMy47vrReAh_foCPwfH3QY=", "properties": {"@spider": "usps_collection_boxes", "addr:city": "LAKE ORION", "addr:country": "US", "addr:full": "611 N AXFORD ST", "addr:postcode": "48361", "addr:state": "MI", "brand": "USPS", "collection_times": "Mo-Fr 17:00; Sa 13:00", "name": "USPS COLLECTION BOX - APC", "note": "ON 12/24 AND 12/31, THIS BOX MAY BE COLLECTED AS EARLY AS 12 NOON.", "ref": "4836100017"}, "type": "Feature"}
{"geometry": {"coordinates": [-83.246446204, 42.7904590667], "type": "Point"}, "id": "mmPh9sSHIuRx_M8iVk1AGt0_fHY=", "properties": {"@spider": "usps_collection_boxes", "addr:city": "LAKE ORION", "addr:country": "US", "addr:full": "611 N AXFORD ST", "addr:postcode": "48361", "addr:state": "MI", "brand": "USPS", "collection_times": "Mo-Fr 17:15; Sa 13:00", "name": "USPS COLLECTION BOX - PO LOBBY", "note": "ON 12/24 AND 12/31, THIS BOX MAY BE COLLECTED AS EARLY AS 12 NOON.", "ref": "4836100020"}, "type": "Feature"}
{"geometry": {"coordinates": [-83.1658718, 42.795611], "type": "Point"}, "id": "2bbP6o8ztgDeig2SY_m2AoqiI9Y=", "properties": {"@spider": "usps_collection_boxes", "addr:city": "OAKLAND", "addr:country": "US", "addr:full": "1441 W ROMEO RD", "addr:postcode": "48363", "addr:state": "MI", "brand": "USPS", "collection_times": "Mo-Sa 12:00", "name": "USPS COLLECTION BOX - BLUE BOX", "ref": "4836300000"}, "type": "Feature"}
{"geometry": {"coordinates": [-83.146852, 42.820951], "type": "Point"}, "id": "1qcr2QWopT21j7Nl41fT3dpFX0Q=", "properties": {"@spider": "usps_collection_boxes", "addr:city": "LAKEVILLE", "addr:country": "US", "addr:full": "1436 ROCHESTER RD", "addr:postcode": "48366", "addr:state": "MI", "brand": "USPS", "collection_times": "Mo-Fr 15:45; Sa 12:00", "name": "USPS COLLECTION BOX - BLUE BOX", "note": "ON 12/24 AND 12/31, THIS BOX MAY BE COLLECTED AS EARLY AS 12 NOON.", "ref": "4836600000"}, "type": "Feature"}
{"geometry": {"coordinates": [-83.146852, 42.820951], "type": "Point"}, "id": "1LkPN2eqQ2-cvBIuFo2IoeKAqYk=", "properties": {"@spider": "usps_collection_boxes", "addr:city": "LAKEVILLE", "addr:country": "US", "addr:full": "1436 ROCHESTER RD", "addr:postcode": "48366", "addr:state": "MI", "brand": "USPS", "collection_times": "Mo-Fr 15:45; Sa 12:00", "name": "USPS COLLECTION BOX - PO LOBBY", "note": "ON 12/24 AND 12/31, THIS BOX MAY BE COLLECTED AS EARLY AS 12 NOON.", "ref": "4836600001"}, "type": "Feature"}
{"geometry": {"coordinates": [-83.146852, 42.820951], "type": "Point"}, "id": "uow9VM93eR90xIEJvN8KPp3mQnk=", "properties": {"@spider": "usps_collection_boxes", "addr:city": "LAKEVILLE", "addr:country": "US", "addr:full": "1436 ROCHESTER RD", "addr:postcode": "48366", "addr:state": "MI", "brand": "USPS", "collection_times": "Mo-Fr 15:45; Sa 12:00", "name": "USPS COLLECTION BOX - PO LOBBY", "note": "ON 12/24 AND 12/31, THIS BOX MAY BE COLLECTED AS EARLY AS 12 NOON.", "ref": "4836600002"}, "type": "Feature"}
{"geometry": {"coordinates": [-83.1380637618, 42.7778918833], "type": "Point"}, "id": "G0oOHyoSMY4GX1I7TKNUMNIcbQM=", "properties": {"@spider": "usps_collection_boxes", "addr:city": "LAKEVILLE", "addr:country": "US", "addr:full": "1436 ROCHESTER RD", "addr:postcode": "48366", "addr:state": "MI", "brand": "USPS", "collection_times": "Mo-Fr 16:00; Sa 12:00", "name": "USPS COLLECTION BOX - PO LOBBY", "note": "ON 12/24 AND 12/31, THIS BOX MAY BE COLLECTED AS EARLY AS 12 NOON.", "ref": "4836600004"}, "type": "Feature"}
{"geometry": {"coordinates": [-83.14239, 42.865305], "type": "Point"}, "id": "3sjX2SqNTtwXdaPxwCzmHD_gxIQ=", "properties": {"@spider": "usps_collection_boxes", "addr:city": "LEONARD", "addr:country": "US", "addr:full": "22 E ELMWOOD", "addr:postcode": "48367", "addr:state": "MI", "brand": "USPS", "collection_times": "Mo-Fr 15:00; Sa 11:00", "name": "USPS COLLECTION BOX - BLUE BOX", "note": "ON 12/24 AND 12/31, THIS BOX MAY BE COLLECTED AS EARLY AS 12 NOON.", "ref": "4836700001"}, "type": "Feature"}
{"geometry": {"coordinates": [-83.142481, 42.865328], "type": "Point"}, "id": "28yqrjhUXeKsOrLXCoo7ZFWTXns=", "properties": {"@spider": "usps_collection_boxes", "addr:city": "LEONARD", "addr:country": "US", "addr:full": "22 E ELMWOOD", "addr:postcode": "48367", "addr:state": "MI", "brand": "USPS", "collection_times": "Mo-Fr 15:00; Sa 11:00", "name": "USPS COLLECTION BOX - PO LOBBY", "note": "ON 12/24 AND 12/31, THIS BOX MAY BE COLLECTED AS EARLY AS 12 NOON.", "ref": "4836700002"}, "type": "Feature"}
{"geometry": {"coordinates": [-83.1421617172, 42.8653105579], "type": "Point"}, "id": "7odo6MUQw64o0KneQxA_WkifI7o=", "properties": {"@spider": "usps_collection_boxes", "addr:city": "LEONARD", "addr:country": "US", "addr:full": "22 E ELMWOOD", "addr:postcode": "48367", "addr:state": "MI", "brand": "USPS", "collection_times": "Mo-Fr 16:00; Sa 12:00", "name": "USPS COLLECTION BOX - PO LOBBY", "note": "ON 12/24 AND 12/31, THIS BOX MAY BE COLLECTED AS EARLY AS 12 NOON.", "ref": "4836700006"}, "type": "Feature"}
{"geometry": {"coordinates": [-83.2614508, 42.824727], "type": "Point"}, "id": "1vivUI2ARd7AlJ3xJOt-Luxm4Ck=", "properties": {"@spider": "usps_collection_boxes", "addr:city": "OXFORD", "addr:country": "US", "addr:full": "52 E BURDICK ST", "addr:postcode": "48371", "addr:state": "MI", "brand": "USPS", "collection_times": "Mo-Fr 17:00; Sa 13:00", "name": "USPS COLLECTION BOX - BLUE BOX", "note": "ON 12/24 AND 12/31, THIS BOX MAY BE COLLECTED AS EARLY AS 12 NOON.", "ref": "4837100002"}, "type": "Feature"}
{"geometry": {"coordinates": [-83.2614223, 42.824747], "type": "Point"}, "id": "5UBuoit6916VFpfIy_hIMWSFsZ0=", "properties": {"@spider": "usps_collection_boxes", "addr:city": "OXFORD", "addr:country": "US", "addr:full": "52 E BURDICK ST", "addr:postcode": "48371", "addr:state": "MI", "brand": "USPS", "collection_times": "Mo-Fr 17:00; Sa 13:00", "name": "USPS COLLECTION BOX - BLUE BOX", "note": "ON 12/24 AND 12/31, THIS BOX MAY BE COLLECTED AS EARLY AS 12 NOON.", "ref": "4837100004"}, "type": "Feature"}
{"geometry": {"coordinates": [-83.2614471, 42.824733], "type": "Point"}, "id": "Jk88lOM5LdvS2FiIcMqCycaakAQ=", "properties": {"@spider": "usps_collection_boxes", "addr:city": "OXFORD", "addr:country": "US", "addr:full": "52 E BURDICK ST", "addr:postcode": "48371", "addr:state": "MI", "brand": "USPS", "collection_times": "Mo-Fr 17:00; Sa 13:00", "name": "USPS COLLECTION BOX - BLUE BOX", "note": "ON 12/24 AND 12/31, THIS BOX MAY BE COLLECTED AS EARLY AS 12 NOON.", "ref": "4837100005"}, "type": "Feature"}
{"geometry": {"coordinates": [-83.2612793, 42.824499], "type": "Point"}, "id": "RqzJFSsOAXC8F9Br0hi9FKNaamk=", "properties": {"@spider": "usps_collection_boxes", "addr:city": "OXFORD", "addr:country": "US", "addr:full": "52 E BURDICK ST", "addr:postcode": "48371", "addr:state": "MI", "brand": "USPS", "collection_times": "Mo-Fr 17:00; Sa 13:00", "name": "USPS COLLECTION BOX - PO LOBBY", "note": "ON 12/24 AND 12/31, THIS BOX MAY BE COLLECTED AS EARLY AS 12 NOON.", "ref": "4837100010"}, "type": "Feature"}
{"geometry": {"coordinates": [-83.2690219, 42.819556], "type": "Point"}, "id": "CdBRO40EPfmQjRp4sE3sghZc04Q=", "properties": {"@spider": "usps_collection_boxes", "addr:city": "OXFORD", "addr:country": "US", "addr:full": "75 CRAWFORD ST", "addr:postcode": "48371", "addr:state": "MI", "brand": "USPS", "collection_times": "Mo-Sa 10:00", "name": "USPS COLLECTION BOX - BLUE BOX", "ref": "4837100011"}, "type": "Feature"}
{"geometry": {"coordinates": [-83.261489303, 42.824806495], "type": "Point"}, "id": "XbOshATxfvcpN8M-8NvaBIKv62I=", "properties": {"@spider": "usps_collection_boxes", "addr:city": "OXFORD", "addr:country": "US", "addr:full": "52 E BURDICK ST", "addr:postcode": "48371", "addr:state": "MI", "brand": "USPS", "collection_times": "Mo-Fr 17:00; Sa 13:00", "name": "USPS COLLECTION BOX - PO LOBBY", "note": "ON 12/24 AND 12/31, THIS BOX MAY BE COLLECTED AS EARLY AS 12 NOON.", "ref": "4837100013"}, "type": "Feature"}
{"geometry": {"coordinates": [-83.6056147033, 42.5943815091], "type": "Point"}, "id": "-36psy-1dz11l9AagUQy6wPNpAs=", "properties": {"@spider": "usps_collection_boxes", "addr:city": "MILFORD", "addr:country": "US", "addr:full": "660 HIGHLAND AVE", "addr:postcode": "48381", "addr:state": "MI", "brand": "USPS", "collection_times": "Mo-Sa 11:00", "name": "USPS COLLECTION BOX - BLUE BOX", "ref": "4838100005"}, "type": "Feature"}
{"geometry": {"coordinates": [-83.6046326, 42.593033], "type": "Point"}, "id": "Qv7SpjjkMdPqHsg4BrF1Z-TSsWo=", "properties": {"@spider": "usps_collection_boxes", "addr:city": "MILFORD", "addr:country": "US", "addr:full": "660 HIGHLAND AVE", "addr:postcode": "48381", "addr:state": "MI", "brand": "USPS", "collection_times": "Mo-Sa 11:00", "name": "USPS COLLECTION BOX - BLUE BOX", "ref": "4838100006"}, "type": "Feature"}
{"geometry": {"coordinates": [-83.5994978, 42.590709], "type": "Point"}, "id": "zg55FQqyOWeHGztLmTSqwNOAn2c=", "properties": {"@spider": "usps_collection_boxes", "addr:city": "MILFORD", "addr:country": "US", "addr:full": "344 N MAIN ST", "addr:postcode": "48381", "addr:state": "MI", "brand": "USPS", "collection_times": "Mo-Sa 11:00", "name": "USPS COLLECTION BOX - BLUE BOX", "ref": "4838100008"}, "type": "Feature"}
{"geometry": {"coordinates": [-83.6181679, 42.558572], "type": "Point"}, "id": "QjBdQS4mX3UevJ0rt0VRahS4-_w=", "properties": {"@spider": "usps_collection_boxes", "addr:city": "MILFORD", "addr:country": "US", "addr:full": "2055 S MILFORD RD", "addr:postcode": "48381", "addr:state": "MI", "brand": "USPS", "collection_times": "Mo-Sa 11:00", "name": "USPS COLLECTION BOX - BLUE BOX", "ref": "4838100026"}, "type": "Feature"}
