{"dataset_attributes": {"@spider": "usps_collection_boxes"}, "geometry": {"coordinates": [-82.637585, 43.364351], "type": "Point"}, "id": "H1vJXl2v8lO0BSnzuxBhAFKcfng=", "properties": {"@spider": "usps_collection_boxes", "addr:city": "APPLEGATE", "addr:country": "US", "addr:full": "2469 S SHERMAN RD", "addr:postcode": "48401", "addr:state": "MI", "amenity": "post_box", "brand": "United States Postal Service", "brand:wikidata": "Q668687", "collection_times": "Mo-Fr 15:45; Sa 11:15", "name": "USPS COLLECTION BOX - BLUE BOX", "note": "ON 12/24 AND 12/31, THIS BOX MAY BE COLLECTED AS EARLY AS 12 NOON.", "nsi_id": "unitedstatespostalservice-a77078", "operator": "United States Postal Service", "operator:short": "USPS", "operator:type": "public", "operator:wikidata": "Q668687", "ref": "4840100000"}, "type": "Feature"}
{"dataset_attributes": {"@spider": "usps_collection_boxes"}, "geometry": {"coordinates": [-82.637621, 43.364339], "type": "Point"}, "id": "Fp0z3OhCEf2eBa-9PHHgfGca2u8=", "properties": {"@spider": "usps_collection_boxes", "addr:city": "APPLEGATE", "addr:country": "US", "addr:full": "2469 S SHERMAN RD", "addr:postcode": "48401", "addr:state": "MI", "amenity": "post_box", "brand": "United States Postal Service", "brand:wikidata": "Q668687", "collection_times": "Mo-Fr 15:45; Sa 11:15", "name": "USPS COLLECTION BOX - PO LOBBY", "note": "ON 12/24 AND 12/31, THIS BOX MAY BE COLLECTED AS EARLY AS 12 NOON.", "nsi_id": "unitedstatespostalservice-a77078", "operator": "United States Postal Service", "operator:short": "USPS", "operator:type": "public", "operator:wikidata": "Q668687", "ref": "4840100001"}, "type": "Feature"}
{"dataset_attributes": {"@spider": "usps_collection_boxes"}, "geometry": {"coordinates": [-82.6375659544, 43.3643411715], "type": "Point"}, "id": "GSIxWZfzOCJo9TDJhJKxg3DgI6I=", "properties": {"@spider": "usps_collection_boxes", "addr:city": "APPLEGATE", "addr:country": "US", "addr:full": "2469 S SHERMAN RD", "addr:postcode": "48401", "addr:state": "MI", "amenity": "post_box", "brand": "United States Postal Service", "brand:wikidata": "Q668687", "collection_times": "Mo-Fr 15:45; Sa 11:15", "name": "USPS COLLECTION BOX - PO LOBBY", "note": "ON 12/24 AND 12/31, THIS BOX MAY BE COLLECTED AS EARLY AS 12 NOON.", "nsi_id": "unitedstatespostalservice-a77078", "operator": "United States Postal Service", "operator:short": "USPS", "operator:type": "public", "operator:wikidata": "Q668687", "ref": "4840100004"}, "type": "Feature"}
{"dataset_attributes": {"@spider": "usps_collection_boxes"}, "geometry": {"coordinates": [-82.9363095, 43.564359], "type": "Point"}, "id": "cWef_vviTgzh04tRnLObQHrOlJ0=", "properties": {"@spider": "usps_collection_boxes", "addr:city": "ARGYLE", "addr:country": "US", "addr:full": "5009 UBLY RD", "addr:postcode": "48410", "addr:state": "MI", "amenity": "post_box", "brand": "United States Postal Service", "brand:wikidata": "Q668687", "collection_times": "Mo-Sa 10:00", "name": "USPS COLLECTION BOX - BLUE BOX", "nsi_id": "unitedstatespostalservice-a77078", "operator": "United States Postal Service", "operator:short": "USPS", "operator:type": "public", "operator:wikidata": "Q668687", "ref": "4841000003"}, "type": "Feature"}
{"dataset_attributes": {"@spider": "usps_collection_boxes"}, "geometry": {"coordinates": [-82.9981994, 43.80133], "type": "Point"}, "id": "AAcnYB__qp7peGpDVSGIatPiTQM=", "properties": {"@spider": "usps_collection_boxes", "addr:city": "BAD AXE", "addr:country": "US", "addr:full": "220 E SOUTH ST S", "addr:postcode": "48413", "addr:state": "MI", "amenity": "post_box", "brand": "United States Postal Service", "brand:wikidata": "Q668687", "collection_times": "Mo-Fr 13:30; Sa 12:00", "name": "USPS COLLECTION BOX - BLUE BOX", "note": "ON 12/24 AND 12/31, THIS BOX MAY BE COLLECTED AS EARLY AS 12 NOON.", "nsi_id": "unitedstatespostalservice-a77078", "operator": "United States Postal Service", "operator:short": "USPS", "operator:type": "public", "operator:wikidata": "Q668687", "ref": "4841300003"}, "type": "Feature"}
{"dataset_attributes": {"@spider": "usps_collection_boxes"}, "geometry": {"coordinates": [-82.997507, 43.802521], "type": "Point"}, "id": "NmzaR6n0ghPQOrxa5DLCnOCocm8=", "properties": {"@spider": "usps_collection_boxes", "addr:city": "BAD AXE", "addr:country": "US", "addr:full": "133 N HANSELMAN ST", "addr:postcode": "48413", "addr:state": "MI", "amenity": "post_box", "brand": "United States Postal Service", "brand:wikidata": "Q668687", "collection_times": "Mo-Fr 17:00; Sa 16:00", "name": "USPS COLLECTION BOX - BLUE BOX", "note": "ON 12/24 AND 12/31, THIS BOX MAY BE COLLECTED AS EARLY AS 12 NOON.", "nsi_id": "unitedstatespostalservice-a77078", "operator": "United States Postal Service", "operator:short": "USPS", "operator:type": "public", "operator:wikidata": "Q668687", "ref": "4841300004"}, "type": "Feature"}
{"dataset_attributes": {"@spider": "usps_collection_boxes"}, "geometry": {"coordinates": [-83.0009107, 43.810291], "type": "Point"}, "id": "NyTLOW5o1jj8V2gA4qD0FE7ogQc=", "properties": {"@spider": "usps_collection_boxes", "addr:city": "BAD AXE", "addr:country": "US", "addr:full": "721 N VAN DYKE RD", "addr:postcode": "48413", "addr:state": "MI", "amenity": "post_box", "brand": "United States Postal Service", "brand:wikidata": "Q668687", "collection_times": "Mo-Sa 09:00", "name": "USPS COLLECTION BOX - BLUE BOX", "nsi_id": "unitedstatespostalservice-a77078", "operator": "United States Postal Service", "operator:short": "USPS", "operator:type": "public", "operator:wikidata": "Q668687", "ref": "4841300007"}, "type": "Feature"}
{"dataset_attributes": {"@spider": "usps_collection_boxes"}, "geometry": {"coordinates": [-82.997468, 43.802491], "type": "Point"}, "id": "5NLWiEAq0XZqefjqhCxcOWZ-4X0=", "properties": {"@spider": "usps_collection_boxes", "addr:city": "BAD AXE", "addr:country": "US", "addr:full": "133 N HANSELMAN ST", "addr:postcode": "48413", "addr:state": "MI", "amenity": "post_box", "brand": "United States Postal Service", "brand:wikidata": "Q668687", "collection_times": "Mo-Fr 17:00; Sa 16:00", "name": "USPS COLLECTION BOX - PO LOBBY", "note": "ON 12/24 AND 12/31, THIS BOX MAY BE COLLECTED AS EARLY AS 12 NOON.", "nsi_id": "unitedstatespostalservice-a77078", "operator": "United States Postal Service", "operator:short": "USPS", "operator:type": "public", "operator:wikidata": "Q668687", "ref": "4841300012"}, "type": "Feature"}
{"dataset_attributes": {"@spider": "usps_collection_boxes"}, "geometry": {"coordinates": [-82.997539, 43.803018], "type": "Point"}, "id": "_pLMGgh9hYUcCsdsdFxCm5Me76E=", "properties": {"@spider": "usps_collection_boxes", "addr:city": "BAD AXE", "addr:country": "US", "addr:full": "133 N HANSELMAN ST", "addr:postcode": "48413", "addr:state": "MI", "amenity": "post_box", "brand": "United States Postal Service", "brand:wikidata": "Q668687", "collection_times": "Mo-Fr 17:00; Sa 16:00", "name": "USPS COLLECTION BOX - PO LOBBY", "note": "ON 12/24 AND 12/31, THIS BOX MAY BE COLLECTED AS EARLY AS 12 NOON.", "nsi_id": "unitedstatespostalservice-a77078", "operator": "United States Postal Service", "operator:short": "USPS", "operator:type": "public", "operator:wikidata": "Q668687", "ref": "4841300013"}, "type": "Feature"}
{"dataset_attributes": {"@spider": "usps_collection_boxes"}, "geometry": {"coordinates": [-82.997468, 43.802491], "type": "Point"}, "id": "Im9b96QSjO5-bNGhF83eFSpFiSg=", "properties": {"@spider": "usps_collection_boxes", "addr:city": "BAD AXE", "addr:country": "US", "addr:full": "133 N HANSELMAN ST", "addr:postcode": "48413", "addr:state": "MI", "amenity": "post_box", "brand": "United States Postal Service", "brand:wikidata": "Q668687", "collection_times": "Mo-Fr 17:00; Sa 16:00", "name": "USPS COLLECTION BOX - BLUE BOX", "note": "ON 12/24 AND 12/31, THIS BOX MAY BE COLLECTED AS EARLY AS 12 NOON.", "nsi_id": "unitedstatespostalservice-a77078", "operator": "United States Postal Service", "operator:short": "USPS", "operator:type": "public", "operator:wikidata": "Q668687", "ref": "4841300014"}, "type": "Feature"}
{"dataset_attributes": {"@spider": "usps_collection_boxes"}, "geometry": {"coordinates": [-83.0049379, 43.817455], "type": "Point"}, "id": "1YwUm-LTGXlgO8UMMi8tgJ5EQCA=", "properties": {"@spider": "usps_collection_boxes", "addr:city": "BAD AXE", "addr:country": "US", "addr:full": "901 N VAN DYKE RD", "addr:postcode": "48413", "addr:state": "MI", "amenity": "post_box", "brand": "United States Postal Service", "brand:wikidata": "Q668687", "collection_times": "Mo-Sa 09:00", "name": "USPS COLLECTION BOX - BLUE BOX", "nsi_id": "unitedstatespostalservice-a77078", "operator": "United States Postal Service", "operator:short": "USPS", "operator:type": "public", "operator:wikidata": "Q668687", "ref": "4841300015"}, "type": "Feature"}
{"dataset_attributes": {"@spider": "usps_collection_boxes"}, "geometry": {"coordinates": [-82.997541018, 43.803017047], "type": "Point"}, "id": "bUeNnsLie-3Ld1_rMaYlPaJEoks=", "properties": {"@spider": "usps_collection_boxes", "addr:city": "BAD AXE", "addr:country": "US", "addr:full": "133 N HANSELMAN ST", "addr:postcode": "48413", "addr:state": "MI", "amenity": "post_box", "brand": "United States Postal Service", "brand:wikidata": "Q668687", "collection_times": "Mo-Fr 17:00; Sa 12:00", "name": "USPS COLLECTION BOX - PO LOBBY", "note": "ON 12/24 AND 12/31, THIS BOX MAY BE COLLECTED AS EARLY AS 12 NOON.", "nsi_id": "unitedstatespostalservice-a77078", "operator": "United States Postal Service", "operator:short": "USPS", "operator:type": "public", "operator:wikidata": "Q668687", "ref": "4841300017"}, "type": "Feature"}
{"dataset_attributes": {"@spider": "usps_collection_boxes"}, "geometry": {"coordinates": [-82.6716314271, 43.4252139737], "type": "Point"}, "id": "nIasqirDcznwQ_IzdNVLs4WNW3g=", "properties": {"@spider": "usps_collection_boxes", "addr:city": "CARSONVILLE", "addr:country": "US", "addr:full": "77 S MAIN ST", "addr:postcode": "48419", "addr:state": "MI", "amenity": "post_box", "brand": "United States Postal Service", "brand:wikidata": "Q668687", "collection_times": "Mo-Sa 12:45", "name": "USPS COLLECTION BOX - BLUE BOX", "note": "ON 12/24 AND 12/31, THIS BOX MAY BE COLLECTED AS EARLY AS 12 NOON.", "nsi_id": "unitedstatespostalservice-a77078", "operator": "United States Postal Service", "operator:short": "USPS", "operator:type": "public", "operator:wikidata": "Q668687", "ref": "4841900001"}, "type": "Feature"}
{"dataset_attributes": {"@spider": "usps_collection_boxes"}, "geometry": {"coordinates": [-82.671692, 43.425229], "type": "Point"}, "id": "u3m1xsMc4zs3_ZNY4cbElviMwNQ=", "properties": {"@spider": "usps_collection_boxes", "addr:city": "CARSONVILLE", "addr:country": "US", "addr:full": "77 S MAIN ST", "addr:postcode": "48419", "addr:state": "MI", "amenity": "post_box", "brand": "United States Postal Service", "brand:wikidata": "Q668687", "collection_times": "Mo-Sa 12:45", "name": "USPS COLLECTION BOX - PO LOBBY", "note": "ON 12/24 AND 12/31, THIS BOX MAY BE COLLECTED AS EARLY AS 12 NOON.", "nsi_id": "unitedstatespostalservice-a77078", "operator": "United States Postal Service", "operator:short": "USPS", "operator:type": "public", "operator:wikidata": "Q668687", "ref": "4841900004"}, "type": "Feature"}
{"dataset_attributes": {"@spider": "usps_collection_boxes"}, "geometry": {"coordinates": [-82.671638207, 43.425256015], "type": "Point"}, "id": "USXFJqrn6Lkt3ptzxcEnN7WmcnY=", "properties": {"@spider": "usps_collection_boxes", "addr:city": "CARSONVILLE", "addr:country": "US", "addr:full": "77 S MAIN ST", "addr:postcode": "48419", "addr:state": "MI", "amenity": "post_box", "brand": "United States Postal Service", "brand:wikidata": "Q668687", "collection_times": "Mo-Sa 13:00", "name": "USPS COLLECTION BOX - PO LOBBY", "note": "ON 12/24 AND 12/31, THIS BOX MAY BE COLLECTED AS EARLY AS 12 NOON.", "nsi_id": "unitedstatespostalservice-a77078", "operator": "United States Postal Service", "operator:short": "USPS", "operator:type": "public", "operator:wikidata": "Q668687", "ref": "4841900006"}, "type": "Feature"}
{"dataset_attributes": {"@spider": "usps_collection_boxes"}, "geometry": {"coordinates": [-82.6210757, 43.275935], "type": "Point"}, "id": "5prkej13WA4UiBa2b4W0jU-d51M=", "properties": {"@spider": "usps_collection_boxes", "addr:city": "CROSWELL", "addr:country": "US", "addr:full": "104 N HOWARD AVE", "addr:postcode": "48422", "addr:state": "MI", "amenity": "post_box", "brand": "United States Postal Service", "brand:wikidata": "Q668687", "collection_times": "Mo-Fr 16:15; Sa 15:00", "name": "USPS COLLECTION BOX - BLUE BOX", "note": "ON 12/24 AND 12/31, THIS BOX MAY BE COLLECTED AS EARLY AS 12 NOON.", "nsi_id": "unitedstatespostalservice-a77078", "operator": "United States Postal Service", "operator:short": "USPS", "operator:type": "public", "operator:wikidata": "Q668687", "ref": "4842200013"}, "type": "Feature"}
{"dataset_attributes": {"@spider": "usps_collection_boxes"}, "geometry": {"coordinates": [-82.6208012, 43.276015], "type": "Point"}, "id": "Jp3ofKkOY7E-i22wy_SpeA-3xYE=", "properties": {"@spider": "usps_collection_boxes", "addr:city": "CROSWELL", "addr:country": "US", "addr:full": "104 N HOWARD AVE", "addr:postcode": "48422", "addr:state": "MI", "amenity": "post_box", "brand": "United States Postal Service", "brand:wikidata": "Q668687", "collection_times": "Mo-Fr 16:30; Sa 15:00", "name": "USPS COLLECTION BOX - PO LOBBY", "note": "ON 12/24 AND 12/31, THIS BOX MAY BE COLLECTED AS EARLY AS 12 NOON.", "nsi_id": "unitedstatespostalservice-a77078", "operator": "United States Postal Service", "operator:short": "USPS", "operator:type": "public", "operator:wikidata": "Q668687", "ref": "4842200014"}, "type": "Feature"}
{"dataset_attributes": {"@spider": "usps_collection_boxes"}, "geometry": {"coordinates": [-82.6210339983, 43.2757433238], "type": "Point"}, "id": "LpHmV2vjAGtNO67V-nexPj-ziXI=", "properties": {"@spider": "usps_collection_boxes", "addr:city": "CROSWELL", "addr:country": "US", "addr:full": "104 N HOWARD AVE", "addr:postcode": "48422", "addr:state": "MI", "amenity": "post_box", "brand": "United States Postal Service", "brand:wikidata": "Q668687", "collection_times": "Mo-Fr 16:30; Sa 15:00", "name": "USPS COLLECTION BOX - PO LOBBY", "note": "ON 12/24 AND 12/31, THIS BOX MAY BE COLLECTED AS EARLY AS 12 NOON.", "nsi_id": "unitedstatespostalservice-a77078", "operator": "United States Postal Service", "operator:short": "USPS", "operator:type": "public", "operator:wikidata": "Q668687", "ref": "4842200017"}, "type": "Feature"}
{"dataset_attributes": {"@spider": "usps_collection_boxes"}, "geometry": {"coordinates": [-83.08967, 43.466271], "type": "Point"}, "id": "nrleLAEO7Olpo5wrMLxdHk3AkUw=", "properties": {"@spider": "usps_collection_boxes", "addr:city": "DECKER", "addr:country": "US", "addr:full": "1624 VAN DYKE RD", "addr:postcode": "48426", "addr:state": "MI", "amenity": "post_box", "brand": "United States Postal Service", "brand:wikidata": "Q668687", "collection_times": "Mo-Fr 16:00; Sa 11:00", "name": "USPS COLLECTION BOX - BLUE BOX", "note": "ON 12/24 AND 12/31, THIS BOX MAY BE COLLECTED AS EARLY AS 12 NOON.", "nsi_id": "unitedstatespostalservice-a77078", "operator": "United States Postal Service", "operator:short": "USPS", "operator:type": "public", "operator:wikidata": "Q668687", "ref": "4842600001"}, "type": "Feature"}
{"dataset_attributes": {"@spider": "usps_collection_boxes"}, "geometry": {"coordinates": [-83.089704, 43.466209], "type": "Point"}, "id": "2ako8xI7tIZa8Ha5U4BE-EEBWCQ=", "properties": {"@spider": "usps_collection_boxes", "addr:city": "DECKER", "addr:country": "US", "addr:full": "1624 VAN DYKE RD", "addr:postcode": "48426", "addr:state": "MI", "amenity": "post_box", "brand": "United States Postal Service", "brand:wikidata": "Q668687", "collection_times": "Mo-Fr 16:00; Sa 11:00", "name": "USPS COLLECTION BOX - PO LOBBY", "note": "ON 12/24 AND 12/31, THIS BOX MAY BE COLLECTED AS EARLY AS 12 NOON.", "nsi_id": "unitedstatespostalservice-a77078", "operator": "United States Postal Service", "operator:short": "USPS", "operator:type": "public", "operator:wikidata": "Q668687", "ref": "4842600002"}, "type": "Feature"}
{"dataset_attributes": {"@spider": "usps_collection_boxes"}, "geometry": {"coordinates": [-83.08965295, 43.466242262], "type": "Point"}, "id": "JViTSA5BU7RIBj7SSqKOWF7OcEI=", "properties": {"@spider": "usps_collection_boxes", "addr:city": "DECKER", "addr:country": "US", "addr:full": "1624 VAN DYKE RD", "addr:postcode": "48426", "addr:state": "MI", "amenity": "post_box", "brand": "United States Postal Service", "brand:wikidata": "Q668687", "collection_times": "Mo-Fr 16:00; Sa 11:00", "name": "USPS COLLECTION BOX - PO LOBBY", "note": "ON 12/24 AND 12/31, THIS BOX MAY BE COLLECTED AS EARLY AS 12 NOON.", "nsi_id": "unitedstatespostalservice-a77078", "operator": "United States Postal Service", "operator:short": "USPS", "operator:type": "public", "operator:wikidata": "Q668687", "ref": "4842600004"}, "type": "Feature"}
{"dataset_attributes": {"@spider": "usps_collection_boxes"}, "geometry": {"coordinates": [-82.733498, 43.525483], "type": "Point"}, "id": "XKC34U18fojbygTCs1VfvYi9nNw=", "properties": {"@spider": "usps_collection_boxes", "addr:city": "DECKERVILLE", "addr:country": "US", "addr:full": "2517 MAPLE ST", "addr:postcode": "48427", "addr:state": "MI", "amenity": "post_box", "brand": "United States Postal Service", "brand:wikidata": "Q668687", "collection_times": "Mo-Fr 16:00; Sa 11:15", "name": "USPS COLLECTION BOX - BLUE BOX", "note": "ON 12/24 AND 12/31, THIS BOX MAY BE COLLECTED AS EARLY AS 12 NOON.", "nsi_id": "unitedstatespostalservice-a77078", "operator": "United States Postal Service", "operator:short": "USPS", "operator:type": "public", "operator:wikidata": "Q668687", "ref": "4842700003"}, "type": "Feature"}
{"dataset_attributes": {"@spider": "usps_collection_boxes"}, "geometry": {"coordinates": [-82.733498, 43.525483], "type": "Point"}, "id": "ELUt6NNVCj9oaXSJQVRM6qsbLqQ=", "properties": {"@spider": "usps_collection_boxes", "addr:city": "DECKERVILLE", "addr:country": "US", "addr:full": "2517 MAPLE ST", "addr:postcode": "48427", "addr:state": "MI", "amenity": "post_box", "brand": "United States Postal Service", "brand:wikidata": "Q668687", "collection_times": "Mo-Fr 16:00; Sa 11:15", "name": "USPS COLLECTION BOX - PO LOBBY", "note": "ON 12/24 AND 12/31, THIS BOX MAY BE COLLECTED AS EARLY AS 12 NOON.", "nsi_id": "unitedstatespostalservice-a77078", "operator": "United States Postal Service", "operator:short": "USPS", "operator:type": "public", "operator:wikidata": "Q668687", "ref": "4842700005"}, "type": "Feature"}
{"dataset_attributes": {"@spider": "usps_collection_boxes"}, "geometry": {"coordinates": [-82.733449913, 43.525556794], "type": "Point"}, "id": "L3LhvsEsyRhJZNyGcddaCucWldw=", "properties": {"@spider": "usps_collection_boxes", "addr:city": "DECKERVILLE", "addr:country": "US", "addr:full": "2517 MAPLE ST", "addr:postcode": "48427", "addr:state": "MI", "amenity": "post_box", "brand": "United States Postal Service", "brand:wikidata": "Q668687", "collection_times": "Mo-Fr 16:30; Sa 12:00", "name": "USPS COLLECTION BOX - PO LOBBY", "note": "ON 12/24 AND 12/31, THIS BOX MAY BE COLLECTED AS EARLY AS 12 NOON.", "nsi_id": "unitedstatespostalservice-a77078", "operator": "United States Postal Service", "operator:short": "USPS", "operator:type": "public", "operator:wikidata": "Q668687", "ref": "4842700007"}, "type": "Feature"}
{"dataset_attributes": {"@spider": "usps_collection_boxes"}, "geometry": {"coordinates": [-82.609272, 43.663195], "type": "Point"}, "id": "RC0alMcDUNuIKLb-68szSWrQVgY=", "properties": {"@spider": "usps_collection_boxes", "addr:city": "FORESTVILLE", "addr:country": "US", "addr:full": "8007 3RD ST", "addr:postcode": "48434", "addr:state": "MI", "amenity": "post_box", "brand": "United States Postal Service", "brand:wikidata": "Q668687", "collection_times": "Mo-Fr 12:30; Sa 11:30", "name": "USPS COLLECTION BOX - BLUE BOX", "note": "ON 12/24 AND 12/31, THIS BOX MAY BE COLLECTED AS EARLY AS 12 NOON.", "nsi_id": "unitedstatespostalservice-a77078", "operator": "United States Postal Service", "operator:short": "USPS", "operator:type": "public", "operator:wikidata": "Q668687", "ref": "4843400001"}, "type": "Feature"}
{"dataset_attributes": {"@spider": "usps_collection_boxes"}, "geometry": {"coordinates": [-82.609231, 43.663118], "type": "Point"}, "id": "DLWZaG-Mp4ul6E0tJAZpnZLgtB4=", "properties": {"@spider": "usps_collection_boxes", "addr:city": "FORESTVILLE", "addr:country": "US", "addr:full": "8007 3RD ST", "addr:postcode": "48434", "addr:state": "MI", "amenity": "post_box", "brand": "United States Postal Service", "brand:wikidata": "Q668687", "collection_times": "Mo-Fr 12:30; Sa 11:30", "name": "USPS COLLECTION BOX - PO LOBBY", "note": "ON 12/24 AND 12/31, THIS BOX MAY BE COLLECTED AS EARLY AS 12 NOON.", "nsi_id": "unitedstatespostalservice-a77078", "operator": "United States Postal Service", "operator:short": "USPS", "operator:type": "public", "operator:wikidata": "Q668687", "ref": "4843400002"}, "type": "Feature"}
{"dataset_attributes": {"@spider": "usps_collection_boxes"}, "geometry": {"coordinates": [-82.6092922239, 43.6631636972], "type": "Point"}, "id": "luO18mgMybJ0tejgYl8EfOfnLdQ=", "properties": {"@spider": "usps_collection_boxes", "addr:city": "FORESTVILLE", "addr:country": "US", "addr:full": "8007 3RD ST", "addr:postcode": "48434", "addr:state": "MI", "amenity": "post_box", "brand": "United States Postal Service", "brand:wikidata": "Q668687", "collection_times": "Mo-Fr 12:30; Sa 11:30", "name": "USPS COLLECTION BOX - PO LOBBY", "note": "ON 12/24 AND 12/31, THIS BOX MAY BE COLLECTED AS EARLY AS 12 NOON.", "nsi_id": "unitedstatespostalservice-a77078", "operator": "United States Postal Service", "operator:short": "USPS", "operator:type": "public", "operator:wikidata": "Q668687", "ref": "4843400004"}, "type": "Feature"}
{"dataset_attributes": {"@spider": "usps_collection_boxes"}, "geometry": {"coordinates": [-82.65207, 43.847181], "type": "Point"}, "id": "uI4YyLT_dGGoCK4ieCeDriRZ7Gc=", "properties": {"@spider": "usps_collection_boxes", "addr:city": "HARBOR BEACH", "addr:country": "US", "addr:full": "110 SCHOOL ST", "addr:postcode": "48441", "addr:state": "MI", "amenity": "post_box", "brand": "United States Postal Service", "brand:wikidata": "Q668687", "collection_times": "Mo-Fr 15:30; Sa 12:00", "name": "USPS COLLECTION BOX - BLUE BOX", "note": "ON 12/24 AND 12/31, THIS BOX MAY BE COLLECTED AS EARLY AS 12 NOON.", "nsi_id": "unitedstatespostalservice-a77078", "operator": "United States Postal Service", "operator:short": "USPS", "operator:type": "public", "operator:wikidata": "Q668687", "ref": "4844100010"}, "type": "Feature"}
{"dataset_attributes": {"@spider": "usps_collection_boxes"}, "geometry": {"coordinates": [-82.651972, 43.84721], "type": "Point"}, "id": "olrSFgvGEHoV6L3uxF0pKYE6Lds=", "properties": {"@spider": "usps_collection_boxes", "addr:city": "HARBOR BEACH", "addr:country": "US", "addr:full": "110 SCHOOL ST", "addr:postcode": "48441", "addr:state": "MI", "amenity": "post_box", "brand": "United States Postal Service", "brand:wikidata": "Q668687", "collection_times": "Mo-Fr 15:30; Sa 12:00", "name": "USPS COLLECTION BOX - PO LOBBY", "note": "ON 12/24 AND 12/31, THIS BOX MAY BE COLLECTED AS EARLY AS 12 NOON.", "nsi_id": "unitedstatespostalservice-a77078", "operator": "United States Postal Service", "operator:short": "USPS", "operator:type": "public", "operator:wikidata": "Q668687", "ref": "4844100012"}, "type": "Feature"}
{"dataset_attributes": {"@spider": "usps_collection_boxes"}, "geometry": {"coordinates": [-82.652212446, 43.8471704924], "type": "Point"}, "id": "2RTUyj2JFXRSZ2OKim2YD7Eiclw=", "properties": {"@spider": "usps_collection_boxes", "addr:city": "HARBOR BEACH", "addr:country": "US", "addr:full": "110 SCHOOL ST", "addr:postcode": "48441", "addr:state": "MI", "amenity": "post_box", "brand": "United States Postal Service", "brand:wikidata": "Q668687", "collection_times": "Mo-Fr 15:30; Sa 12:00", "name": "USPS COLLECTION BOX - PO LOBBY", "note": "ON 12/24 AND 12/31, THIS BOX MAY BE COLLECTED AS EARLY AS 12 NOON.", "nsi_id": "unitedstatespostalservice-a77078", "operator": "United States Postal Service", "operator:short": "USPS", "operator:type": "public", "operator:wikidata": "Q668687", "ref": "4844100014"}, "type": "Feature"}
{"dataset_attributes": {"@spider": "usps_collection_boxes"}, "geometry": {"coordinates": [-82.996842, 43.939099], "type": "Point"}, "id": "Dny13cgR1z8j0_ItX_IlNXUGuFE=", "properties": {"@spider": "usps_collection_boxes", "addr:city": "KINDE", "addr:country": "US", "addr:full": "220 MAIN ST", "addr:postcode": "48445", "addr:state": "MI", "amenity": "post_box", "brand": "United States Postal Service", "brand:wikidata": "Q668687", "collection_times": "Mo-Fr 15:00; Sa 11:30", "name": "USPS COLLECTION BOX - BLUE BOX", "note": "ON 12/24 AND 12/31, THIS BOX MAY BE COLLECTED AS EARLY AS 12 NOON.", "nsi_id": "unitedstatespostalservice-a77078", "operator": "United States Postal Service", "operator:short": "USPS", "operator:type": "public", "operator:wikidata": "Q668687", "ref": "4844500001"}, "type": "Feature"}
{"dataset_attributes": {"@spider": "usps_collection_boxes"}, "geometry": {"coordinates": [-82.996918, 43.939123], "type": "Point"}, "id": "K3xsSlafHAaRXl-eZ5DnG7CP7tg=", "properties": {"@spider": "usps_collection_boxes", "addr:city": "KINDE", "addr:country": "US", "addr:full": "220 MAIN ST", "addr:postcode": "48445", "addr:state": "MI", "amenity": "post_box", "brand": "United States Postal Service", "brand:wikidata": "Q668687", "collection_times": "Mo-Fr 15:00; Sa 11:30", "name": "USPS COLLECTION BOX - PO LOBBY", "note": "ON 12/24 AND 12/31, THIS BOX MAY BE COLLECTED AS EARLY AS 12 NOON.", "nsi_id": "unitedstatespostalservice-a77078", "operator": "United States Postal Service", "operator:short": "USPS", "operator:type": "public", "operator:wikidata": "Q668687", "ref": "4844500002"}, "type": "Feature"}
{"dataset_attributes": {"@spider": "usps_collection_boxes"}, "geometry": {"coordinates": [-82.996918, 43.939123], "type": "Point"}, "id": "sM7_TdowW5BwSFRbA59SwnWZj34=", "properties": {"@spider": "usps_collection_boxes", "addr:city": "KINDE", "addr:country": "US", "addr:full": "220 MAIN ST", "addr:postcode": "48445", "addr:state": "MI", "amenity": "post_box", "brand": "United States Postal Service", "brand:wikidata": "Q668687", "collection_times": "Mo-Fr 15:00; Sa 11:30", "name": "USPS COLLECTION BOX - PO LOBBY", "note": "ON 12/24 AND 12/31, THIS BOX MAY BE COLLECTED AS EARLY AS 12 NOON.", "nsi_id": "unitedstatespostalservice-a77078", "operator": "United States Postal Service", "operator:short": "USPS", "operator:type": "public", "operator:wikidata": "Q668687", "ref": "4844500003"}, "type": "Feature"}
{"dataset_attributes": {"@spider": "usps_collection_boxes"}, "geometry": {"coordinates": [-82.99686983, 43.939039492], "type": "Point"}, "id": "B4jw8cyxTjV89JvZLVS6wRT-5j4=", "properties": {"@spider": "usps_collection_boxes", "addr:city": "KINDE", "addr:country": "US", "addr:full": "220 MAIN ST", "addr:postcode": "48445", "addr:state": "MI", "amenity": "post_box", "brand": "United States Postal Service", "brand:wikidata": "Q668687", "collection_times": "Mo-Fr 16:00; Sa 11:30", "name": "USPS COLLECTION BOX - PO LOBBY", "note": "ON 12/24 AND 12/31, THIS BOX MAY BE COLLECTED AS EARLY AS 12 NOON.", "nsi_id": "unitedstatespostalservice-a77078", "operator": "United States Postal Service", "operator:short": "USPS", "operator:type": "public", "operator:wikidata": "Q668687", "ref": "4844500004"}, "type": "Feature"}
{"dataset_attributes": {"@spider": "usps_collection_boxes"}, "geometry": {"coordinates": [-82.531395, 43.274554], "type": "Point"}, "id": "kMIqCuOE7lt0-X-79yAEZ7rJc-M=", "properties": {"@spider": "usps_collection_boxes", "addr:city": "LEXINGTON", "addr:country": "US", "addr:full": "5204 MAIN ST", "addr:postcode": "48450", "addr:state": "MI", "amenity": "post_box", "brand": "United States Postal Service", "brand:wikidata": "Q668687", "collection_times": "Mo-Fr 16:00; Sa 11:00", "name": "USPS COLLECTION BOX - BLUE BOX", "note": "ON 12/24 AND 12/31, THIS BOX MAY BE COLLECTED AS EARLY AS 12 NOON.", "nsi_id": "unitedstatespostalservice-a77078", "operator": "United States Postal Service", "operator:short": "USPS", "operator:type": "public", "operator:wikidata": "Q668687", "ref": "4845000001"}, "type": "Feature"}
{"dataset_attributes": {"@spider": "usps_collection_boxes"}, "geometry": {"coordinates": [-82.531358, 43.274539], "type": "Point"}, "id": "ZJtWB_WkUBsrdcG2jLwTEb428L0=", "properties": {"@spider": "usps_collection_boxes", "addr:city": "LEXINGTON", "addr:country": "US", "addr:full": "5204 MAIN ST", "addr:postcode": "48450", "addr:state": "MI", "amenity": "post_box", "brand": "United States Postal Service", "brand:wikidata": "Q668687", "collection_times": "Mo-Fr 16:00; Sa 11:00", "name": "USPS COLLECTION BOX - PO LOBBY", "note": "ON 12/24 AND 12/31, THIS BOX MAY BE COLLECTED AS EARLY AS 12 NOON.", "nsi_id": "unitedstatespostalservice-a77078", "operator": "United States Postal Service", "operator:short": "USPS", "operator:type": "public", "operator:wikidata": "Q668687", "ref": "4845000004"}, "type": "Feature"}
{"dataset_attributes": {"@spider": "usps_collection_boxes"}, "geometry": {"coordinates": [-82.531358, 43.274539], "type": "Point"}, "id": "WKxsya6wf5S0qyqa0gGNA-eiY1Y=", "properties": {"@spider": "usps_collection_boxes", "addr:city": "LEXINGTON", "addr:country": "US", "addr:full": "5204 MAIN ST", "addr:postcode": "48450", "addr:state": "MI", "amenity": "post_box", "brand": "United States Postal Service", "brand:wikidata": "Q668687", "collection_times": "Mo-Fr 16:00; Sa 11:00", "name": "USPS COLLECTION BOX - PO LOBBY", "note": "ON 12/24 AND 12/31, THIS BOX MAY BE COLLECTED AS EARLY AS 12 NOON.", "nsi_id": "unitedstatespostalservice-a77078", "operator": "United States Postal Service", "operator:short": "USPS", "operator:type": "public", "operator:wikidata": "Q668687", "ref": "4845000005"}, "type": "Feature"}
{"dataset_attributes": {"@spider": "usps_collection_boxes"}, "geometry": {"coordinates": [-82.531417694, 43.274538759], "type": "Point"}, "id": "IrFMU9lreVFKwZvAqv2NRNKlhs8=", "properties": {"@spider": "usps_collection_boxes", "addr:city": "LEXINGTON", "addr:country": "US", "addr:full": "5204 MAIN ST", "addr:postcode": "48450", "addr:state": "MI", "amenity": "post_box", "brand": "United States Postal Service", "brand:wikidata": "Q668687", "collection_times": "Mo-Fr 16:00; Sa 11:00", "name": "USPS COLLECTION BOX - PO LOBBY", "note": "ON 12/24 AND 12/31, THIS BOX MAY BE COLLECTED AS EARLY AS 12 NOON.", "nsi_id": "unitedstatespostalservice-a77078", "operator": "United States Postal Service", "operator:short": "USPS", "operator:type": "public", "operator:wikidata": "Q668687", "ref": "4845000006"}, "type": "Feature"}
{"dataset_attributes": {"@spider": "usps_collection_boxes"}, "geometry": {"coordinates": [-82.864981, 43.186413], "type": "Point"}, "id": "sRjj2-9tajTW14TGI0XSyBGOnKU=", "properties": {"@spider": "usps_collection_boxes", "addr:city": "MELVIN", "addr:country": "US", "addr:full": "1296 MAIN ST", "addr:postcode": "48454", "addr:state": "MI", "amenity": "post_box", "brand": "United States Postal Service", "brand:wikidata": "Q668687", "collection_times": "Mo-Fr 11:45; Sa 09:30", "name": "USPS COLLECTION BOX - BLUE BOX", "nsi_id": "unitedstatespostalservice-a77078", "operator": "United States Postal Service", "operator:short": "USPS", "operator:type": "public", "operator:wikidata": "Q668687", "ref": "4845400001"}, "type": "Feature"}
{"dataset_attributes": {"@spider": "usps_collection_boxes"}, "geometry": {"coordinates": [-82.865098, 43.186383], "type": "Point"}, "id": "HVg-lHBL3RVwYuImB0QcfBnLNjc=", "properties": {"@spider": "usps_collection_boxes", "addr:city": "MELVIN", "addr:country": "US", "addr:full": "1296 MAIN ST", "addr:postcode": "48454", "addr:state": "MI", "amenity": "post_box", "brand": "United States Postal Service", "brand:wikidata": "Q668687", "collection_times": "Mo-Fr 11:45; Sa 09:30", "name": "USPS COLLECTION BOX - PO LOBBY", "nsi_id": "unitedstatespostalservice-a77078", "operator": "United States Postal Service", "operator:short": "USPS", "operator:type": "public", "operator:wikidata": "Q668687", "ref": "4845400002"}, "type": "Feature"}
{"dataset_attributes": {"@spider": "usps_collection_boxes"}, "geometry": {"coordinates": [-82.8650277549, 43.1864561345], "type": "Point"}, "id": "OlNs8kv8PyzH8qqHvhQAmXVHTQg=", "properties": {"@spider": "usps_collection_boxes", "addr:city": "MELVIN", "addr:country": "US", "addr:full": "1296 MAIN ST", "addr:postcode": "48454", "addr:state": "MI", "amenity": "post_box", "brand": "United States Postal Service", "brand:wikidata": "Q668687", "collection_times": "Mo-Fr 12:00; Sa 10:00", "name": "USPS COLLECTION BOX - PO LOBBY", "nsi_id": "unitedstatespostalservice-a77078", "operator": "United States Postal Service", "operator:short": "USPS", "operator:type": "public", "operator:wikidata": "Q668687", "ref": "4845400005"}, "type": "Feature"}
{"dataset_attributes": {"@spider": "usps_collection_boxes"}, "geometry": {"coordinates": [-82.7746476, 43.671348], "type": "Point"}, "id": "ktjFn4-lm8ULBdHmCDSKOGvb8j8=", "properties": {"@spider": "usps_collection_boxes", "addr:city": "MINDEN CITY", "addr:country": "US", "addr:full": "1608 MAIN ST", "addr:postcode": "48456", "addr:state": "MI", "amenity": "post_box", "brand": "United States Postal Service", "brand:wikidata": "Q668687", "collection_times": "Mo-Fr 15:00; Sa 11:00", "name": "USPS COLLECTION BOX - BLUE BOX", "note": "ON 12/24 AND 12/31, THIS BOX MAY BE COLLECTED AS EARLY AS 12 NOON.", "nsi_id": "unitedstatespostalservice-a77078", "operator": "United States Postal Service", "operator:short": "USPS", "operator:type": "public", "operator:wikidata": "Q668687", "ref": "4845600001"}, "type": "Feature"}
{"dataset_attributes": {"@spider": "usps_collection_boxes"}, "geometry": {"coordinates": [-82.7744176, 43.671325], "type": "Point"}, "id": "yINKbQjmjkgOjiNBZaiCJ23kM8M=", "properties": {"@spider": "usps_collection_boxes", "addr:city": "MINDEN CITY", "addr:country": "US", "addr:full": "1608 MAIN ST", "addr:postcode": "48456", "addr:state": "MI", "amenity": "post_box", "brand": "United States Postal Service", "brand:wikidata": "Q668687", "collection_times": "Mo-Fr 15:00; Sa 11:00", "name": "USPS COLLECTION BOX - PO LOBBY", "note": "ON 12/24 AND 12/31, THIS BOX MAY BE COLLECTED AS EARLY AS 12 NOON.", "nsi_id": "unitedstatespostalservice-a77078", "operator": "United States Postal Service", "operator:short": "USPS", "operator:type": "public", "operator:wikidata": "Q668687", "ref": "4845600002"}, "type": "Feature"}
{"dataset_attributes": {"@spider": "usps_collection_boxes"}, "geometry": {"coordinates": [-82.7738675814, 43.671442498], "type": "Point"}, "id": "Yyrk8V_rtlvylAFoo-Kmj0wUwws=", "properties": {"@spider": "usps_collection_boxes", "addr:city": "MINDEN CITY", "addr:country": "US", "addr:full": "1608 MAIN ST", "addr:postcode": "48456", "addr:state": "MI", "amenity": "post_box", "brand": "United States Postal Service", "brand:wikidata": "Q668687", "collection_times": "Mo-Fr 16:00; Sa 11:00", "name": "USPS COLLECTION BOX - PO LOBBY", "note": "ON 12/24 AND 12/31, THIS BOX MAY BE COLLECTED AS EARLY AS 12 NOON.", "nsi_id": "unitedstatespostalservice-a77078", "operator": "United States Postal Service", "operator:short": "USPS", "operator:type": "public", "operator:wikidata": "Q668687", "ref": "4845600004"}, "type": "Feature"}
{"dataset_attributes": {"@spider": "usps_collection_boxes"}, "geometry": {"coordinates": [-82.815856, 43.258624], "type": "Point"}, "id": "vEGeloSVGdiKyLhwjWXZ9VEfWk0=", "properties": {"@spider": "usps_collection_boxes", "addr:city": "PECK", "addr:country": "US", "addr:full": "46 E LAPEER ST", "addr:postcode": "48466", "addr:state": "MI", "amenity": "post_box", "brand": "United States Postal Service", "brand:wikidata": "Q668687", "collection_times": "Mo-Fr 16:00; Sa 11:00", "name": "USPS COLLECTION BOX - BLUE BOX", "note": "ON 12/24 AND 12/31, THIS BOX MAY BE COLLECTED AS EARLY AS 12 NOON.", "nsi_id": "unitedstatespostalservice-a77078", "operator": "United States Postal Service", "operator:short": "USPS", "operator:type": "public", "operator:wikidata": "Q668687", "ref": "4846600003"}, "type": "Feature"}
{"dataset_attributes": {"@spider": "usps_collection_boxes"}, "geometry": {"coordinates": [-82.815805, 43.258653], "type": "Point"}, "id": "A4dav8MVoi3KByVD1cPJi_mvGZo=", "properties": {"@spider": "usps_collection_boxes", "addr:city": "PECK", "addr:country": "US", "addr:full": "46 E LAPEER ST", "addr:postcode": "48466", "addr:state": "MI", "amenity": "post_box", "brand": "United States Postal Service", "brand:wikidata": "Q668687", "collection_times": "Mo-Fr 16:00; Sa 11:00", "name": "USPS COLLECTION BOX - BLUE BOX", "note": "ON 12/24 AND 12/31, THIS BOX MAY BE COLLECTED AS EARLY AS 12 NOON.", "nsi_id": "unitedstatespostalservice-a77078", "operator": "United States Postal Service", "operator:short": "USPS", "operator:type": "public", "operator:wikidata": "Q668687", "ref": "4846600004"}, "type": "Feature"}
{"dataset_attributes": {"@spider": "usps_collection_boxes"}, "geometry": {"coordinates": [-82.81584036, 43.258565941], "type": "Point"}, "id": "98VdXV4Ex-rucZ5m02jI9HiJsDw=", "properties": {"@spider": "usps_collection_boxes", "addr:city": "PECK", "addr:country": "US", "addr:full": "46 E LAPEER ST", "addr:postcode": "48466", "addr:state": "MI", "amenity": "post_box", "brand": "United States Postal Service", "brand:wikidata": "Q668687", "collection_times": "Mo-Fr 16:00; Sa 11:30", "name": "USPS COLLECTION BOX - PO LOBBY", "note": "ON 12/24 AND 12/31, THIS BOX MAY BE COLLECTED AS EARLY AS 12 NOON.", "nsi_id": "unitedstatespostalservice-a77078", "operator": "United States Postal Service", "operator:short": "USPS", "operator:type": "public", "operator:wikidata": "Q668687", "ref": "4846600006"}, "type": "Feature"}
{"dataset_attributes": {"@spider": "usps_collection_boxes"}, "geometry": {"coordinates": [-82.992046, 44.045265], "type": "Point"}, "id": "y0fa9eiwHojrQG91LgjQCUccc4E=", "properties": {"@spider": "usps_collection_boxes", "addr:city": "PORT AUSTIN", "addr:country": "US", "addr:full": "8710 NORTH ST", "addr:postcode": "48467", "addr:state": "MI", "amenity": "post_box", "brand": "United States Postal Service", "brand:wikidata": "Q668687", "collection_times": "Mo-Fr 15:00; Sa 11:00", "name": "USPS COLLECTION BOX - BLUE BOX", "note": "ON 12/24 AND 12/31, THIS BOX MAY BE COLLECTED AS EARLY AS 12 NOON.", "nsi_id": "unitedstatespostalservice-a77078", "operator": "United States Postal Service", "operator:short": "USPS", "operator:type": "public", "operator:wikidata": "Q668687", "ref": "4846700001"}, "type": "Feature"}
{"dataset_attributes": {"@spider": "usps_collection_boxes"}, "geometry": {"coordinates": [-82.992081, 44.045279], "type": "Point"}, "id": "Gs2GCV9CxPFJ0YzsCok2ESQTFNw=", "properties": {"@spider": "usps_collection_boxes", "addr:city": "PORT AUSTIN", "addr:country": "US", "addr:full": "8710 NORTH ST", "addr:postcode": "48467", "addr:state": "MI", "amenity": "post_box", "brand": "United States Postal Service", "brand:wikidata": "Q668687", "collection_times": "Mo-Fr 15:00; Sa 11:00", "name": "USPS COLLECTION BOX - PO LOBBY", "note": "ON 12/24 AND 12/31, THIS BOX MAY BE COLLECTED AS EARLY AS 12 NOON.", "nsi_id": "unitedstatespostalservice-a77078", "operator": "United States Postal Service", "operator:short": "USPS", "operator:type": "public", "operator:wikidata": "Q668687", "ref": "4846700002"}, "type": "Feature"}
{"dataset_attributes": {"@spider": "usps_collection_boxes"}, "geometry": {"coordinates": [-82.992081, 44.045279], "type": "Point"}, "id": "wgEf5KaV2_KDnEZfJBt6YjqJfgA=", "properties": {"@spider": "usps_collection_boxes", "addr:city": "PORT AUSTIN", "addr:country": "US", "addr:full": "8710 NORTH ST", "addr:postcode": "48467", "addr:state": "MI", "amenity": "post_box", "brand": "United States Postal Service", "brand:wikidata": "Q668687", "collection_times": "Mo-Fr 15:00; Sa 11:00", "name": "USPS COLLECTION BOX - PO LOBBY", "note": "ON 12/24 AND 12/31, THIS BOX MAY BE COLLECTED AS EARLY AS 12 NOON.", "nsi_id": "unitedstatespostalservice-a77078", "operator": "United States Postal Service", "operator:short": "USPS", "operator:type": "public", "operator:wikidata": "Q668687", "ref": "4846700003"}, "type": "Feature"}
{"dataset_attributes": {"@spider": "usps_collection_boxes"}, "geometry": {"coordinates": [-82.992023792, 44.045611594], "type": "Point"}, "id": "vFzuYbcFH_SnurDbTpAzMTe_jgM=", "properties": {"@spider": "usps_collection_boxes", "addr:city": "PORT AUSTIN", "addr:country": "US", "addr:full": "8710 NORTH ST", "addr:postcode": "48467", "addr:state": "MI", "amenity": "post_box", "brand": "United States Postal Service", "brand:wikidata": "Q668687", "collection_times": "Mo-Fr 16:00; Sa 11:00", "name": "USPS COLLECTION BOX - PO LOBBY", "note": "ON 12/24 AND 12/31, THIS BOX MAY BE COLLECTED AS EARLY AS 12 NOON.", "nsi_id": "unitedstatespostalservice-a77078", "operator": "United States Postal Service", "operator:short": "USPS", "operator:type": "public", "operator:wikidata": "Q668687", "ref": "4846700005"}, "type": "Feature"}
{"dataset_attributes": {"@spider": "usps_collection_boxes"}, "geometry": {"coordinates": [-82.713578, 43.941565], "type": "Point"}, "id": "LVq7C4G7zDZ9ZURqLBzRKzGK-JU=", "properties": {"@spider": "usps_collection_boxes", "addr:city": "PORT HOPE", "addr:country": "US", "addr:full": "4456 MAIN ST", "addr:postcode": "48468", "addr:state": "MI", "amenity": "post_box", "brand": "United States Postal Service", "brand:wikidata": "Q668687", "collection_times": "Mo-Fr 16:00; Sa 11:00", "name": "USPS COLLECTION BOX - BLUE BOX", "note": "ON 12/24 AND 12/31, THIS BOX MAY BE COLLECTED AS EARLY AS 12 NOON.", "nsi_id": "unitedstatespostalservice-a77078", "operator": "United States Postal Service", "operator:short": "USPS", "operator:type": "public", "operator:wikidata": "Q668687", "ref": "4846800001"}, "type": "Feature"}
{"dataset_attributes": {"@spider": "usps_collection_boxes"}, "geometry": {"coordinates": [-82.713697, 43.941603], "type": "Point"}, "id": "Bt7xR61HuR77AfZ3y4NSc2a5noI=", "properties": {"@spider": "usps_collection_boxes", "addr:city": "PORT HOPE", "addr:country": "US", "addr:full": "4456 MAIN ST", "addr:postcode": "48468", "addr:state": "MI", "amenity": "post_box", "brand": "United States Postal Service", "brand:wikidata": "Q668687", "collection_times": "Mo-Fr 16:00; Sa 11:00", "name": "USPS COLLECTION BOX - PO LOBBY", "note": "ON 12/24 AND 12/31, THIS BOX MAY BE COLLECTED AS EARLY AS 12 NOON.", "nsi_id": "unitedstatespostalservice-a77078", "operator": "United States Postal Service", "operator:short": "USPS", "operator:type": "public", "operator:wikidata": "Q668687", "ref": "4846800002"}, "type": "Feature"}
{"dataset_attributes": {"@spider": "usps_collection_boxes"}, "geometry": {"coordinates": [-82.7136548763, 43.9416020625], "type": "Point"}, "id": "pGGihDC52Z2qzvIQ0Exh95UZtEA=", "properties": {"@spider": "usps_collection_boxes", "addr:city": "PORT HOPE", "addr:country": "US", "addr:full": "4456 MAIN ST", "addr:postcode": "48468", "addr:state": "MI", "amenity": "post_box", "brand": "United States Postal Service", "brand:wikidata": "Q668687", "collection_times": "Mo-Fr 16:00; Sa 11:00", "name": "USPS COLLECTION BOX - PO LOBBY", "note": "ON 12/24 AND 12/31, THIS BOX MAY BE COLLECTED AS EARLY AS 12 NOON.", "nsi_id": "unitedstatespostalservice-a77078", "operator": "United States Postal Service", "operator:short": "USPS", "operator:type": "public", "operator:wikidata": "Q668687", "ref": "4846800004"}, "type": "Feature"}
{"dataset_attributes": {"@spider": "usps_collection_boxes"}, "geometry": {"coordinates": [-82.54229, 43.431606], "type": "Point"}, "id": "V94iYogoJOI82_DuW56mhslkC4E=", "properties": {"@spider": "usps_collection_boxes", "addr:city": "PORT SANILAC", "addr:country": "US", "addr:full": "34 N RIDGE ST", "addr:postcode": "48469", "addr:state": "MI", "amenity": "post_box", "brand": "United States Postal Service", "brand:wikidata": "Q668687", "collection_times": "Mo-Fr 16:00; Sa 11:00", "name": "USPS COLLECTION BOX - BLUE BOX", "note": "ON 12/24 AND 12/31, THIS BOX MAY BE COLLECTED AS EARLY AS 12 NOON.", "nsi_id": "unitedstatespostalservice-a77078", "operator": "United States Postal Service", "operator:short": "USPS", "operator:type": "public", "operator:wikidata": "Q668687", "ref": "4846900001"}, "type": "Feature"}
{"dataset_attributes": {"@spider": "usps_collection_boxes"}, "geometry": {"coordinates": [-82.542333, 43.431637], "type": "Point"}, "id": "LMOjg_f-Q1UN1gwyGLQxf5MK3ik=", "properties": {"@spider": "usps_collection_boxes", "addr:city": "PORT SANILAC", "addr:country": "US", "addr:full": "34 N RIDGE ST", "addr:postcode": "48469", "addr:state": "MI", "amenity": "post_box", "brand": "United States Postal Service", "brand:wikidata": "Q668687", "collection_times": "Mo-Fr 16:00; Sa 11:00", "name": "USPS COLLECTION BOX - PO LOBBY", "note": "ON 12/24 AND 12/31, THIS BOX MAY BE COLLECTED AS EARLY AS 12 NOON.", "nsi_id": "unitedstatespostalservice-a77078", "operator": "United States Postal Service", "operator:short": "USPS", "operator:type": "public", "operator:wikidata": "Q668687", "ref": "4846900002"}, "type": "Feature"}
{"dataset_attributes": {"@spider": "usps_collection_boxes"}, "geometry": {"coordinates": [-82.542333, 43.431637], "type": "Point"}, "id": "wXI-af3xvm-B5VfOXcDi2VYtnhE=", "properties": {"@spider": "usps_collection_boxes", "addr:city": "PORT SANILAC", "addr:country": "US", "addr:full": "34 N RIDGE ST", "addr:postcode": "48469", "addr:state": "MI", "amenity": "post_box", "brand": "United States Postal Service", "brand:wikidata": "Q668687", "collection_times": "Mo-Fr 16:00; Sa 11:00", "name": "USPS COLLECTION BOX - BLUE BOX", "note": "ON 12/24 AND 12/31, THIS BOX MAY BE COLLECTED AS EARLY AS 12 NOON.", "nsi_id": "unitedstatespostalservice-a77078", "operator": "United States Postal Service", "operator:short": "USPS", "operator:type": "public", "operator:wikidata": "Q668687", "ref": "4846900003"}, "type": "Feature"}
{"dataset_attributes": {"@spider": "usps_collection_boxes"}, "geometry": {"coordinates": [-82.5422733956, 43.4316136328], "type": "Point"}, "id": "Mz-MnBV7usmIBomFeYd8IN7pENI=", "properties": {"@spider": "usps_collection_boxes", "addr:city": "PORT SANILAC", "addr:country": "US", "addr:full": "34 N RIDGE ST", "addr:postcode": "48469", "addr:state": "MI", "amenity": "post_box", "brand": "United States Postal Service", "brand:wikidata": "Q668687", "collection_times": "Mo-Fr 16:00; Sa 11:00", "name": "USPS COLLECTION BOX - PO LOBBY", "note": "ON 12/24 AND 12/31, THIS BOX MAY BE COLLECTED AS EARLY AS 12 NOON.", "nsi_id": "unitedstatespostalservice-a77078", "operator": "United States Postal Service", "operator:short": "USPS", "operator:type": "public", "operator:wikidata": "Q668687", "ref": "4846900005"}, "type": "Feature"}
{"dataset_attributes": {"@spider": "usps_collection_boxes"}, "geometry": {"coordinates": [-82.739235, 43.715469], "type": "Point"}, "id": "FlgrGTQ-mLk0rJaMlkFm5hMZiYA=", "properties": {"@spider": "usps_collection_boxes", "addr:city": "RUTH", "addr:country": "US", "addr:full": "7031 E ATWATER RD", "addr:postcode": "48470", "addr:state": "MI", "amenity": "post_box", "brand": "United States Postal Service", "brand:wikidata": "Q668687", "collection_times": "Mo-Fr 12:00; Sa 11:00", "name": "USPS COLLECTION BOX - BLUE BOX", "nsi_id": "unitedstatespostalservice-a77078", "operator": "United States Postal Service", "operator:short": "USPS", "operator:type": "public", "operator:wikidata": "Q668687", "ref": "4847000001"}, "type": "Feature"}
{"dataset_attributes": {"@spider": "usps_collection_boxes"}, "geometry": {"coordinates": [-82.739161, 43.715444], "type": "Point"}, "id": "i5SvbAowhJzcXDJDksJBtI4xWpk=", "properties": {"@spider": "usps_collection_boxes", "addr:city": "RUTH", "addr:country": "US", "addr:full": "7031 E ATWATER RD", "addr:postcode": "48470", "addr:state": "MI", "amenity": "post_box", "brand": "United States Postal Service", "brand:wikidata": "Q668687", "collection_times": "Mo-Fr 12:00; Sa 11:00", "name": "USPS COLLECTION BOX - PO LOBBY", "nsi_id": "unitedstatespostalservice-a77078", "operator": "United States Postal Service", "operator:short": "USPS", "operator:type": "public", "operator:wikidata": "Q668687", "ref": "4847000002"}, "type": "Feature"}
{"dataset_attributes": {"@spider": "usps_collection_boxes"}, "geometry": {"coordinates": [-82.7390013893, 43.7154595226], "type": "Point"}, "id": "2SXCnppsKQXfnxBe5J9GQCY0OQY=", "properties": {"@spider": "usps_collection_boxes", "addr:city": "RUTH", "addr:country": "US", "addr:full": "7031 E ATWATER RD", "addr:postcode": "48470", "addr:state": "MI", "amenity": "post_box", "brand": "United States Postal Service", "brand:wikidata": "Q668687", "collection_times": "Mo-Fr 12:00; Sa 11:00", "name": "USPS COLLECTION BOX - PO LOBBY", "nsi_id": "unitedstatespostalservice-a77078", "operator": "United States Postal Service", "operator:short": "USPS", "operator:type": "public", "operator:wikidata": "Q668687", "ref": "4847000004"}, "type": "Feature"}
{"dataset_attributes": {"@spider": "usps_collection_boxes"}, "geometry": {"coordinates": [-82.8277088, 43.420185], "type": "Point"}, "id": "wLZhEUDjWGNk-LgqUKgdtiDVVtE=", "properties": {"@spider": "usps_collection_boxes", "addr:city": "SANDUSKY", "addr:country": "US", "addr:full": "55 S MORSE ST", "addr:postcode": "48471", "addr:state": "MI", "amenity": "post_box", "brand": "United States Postal Service", "brand:wikidata": "Q668687", "collection_times": "Mo-Fr 17:00; Sa 12:00", "name": "USPS COLLECTION BOX - BLUE BOX", "note": "ON 12/24 AND 12/31, THIS BOX MAY BE COLLECTED AS EARLY AS 12 NOON.", "nsi_id": "unitedstatespostalservice-a77078", "operator": "United States Postal Service", "operator:short": "USPS", "operator:type": "public", "operator:wikidata": "Q668687", "ref": "4847100001"}, "type": "Feature"}
{"dataset_attributes": {"@spider": "usps_collection_boxes"}, "geometry": {"coordinates": [-82.8280879, 43.41998], "type": "Point"}, "id": "3jQ_TK04-tmUWaAv9_yiN5g6wiM=", "properties": {"@spider": "usps_collection_boxes", "addr:city": "SANDUSKY", "addr:country": "US", "addr:full": "55 S MORSE ST", "addr:postcode": "48471", "addr:state": "MI", "amenity": "post_box", "brand": "United States Postal Service", "brand:wikidata": "Q668687", "collection_times": "Mo-Fr 17:00; Sa 12:00", "name": "USPS COLLECTION BOX - PO LOBBY", "note": "ON 12/24 AND 12/31, THIS BOX MAY BE COLLECTED AS EARLY AS 12 NOON.", "nsi_id": "unitedstatespostalservice-a77078", "operator": "United States Postal Service", "operator:short": "USPS", "operator:type": "public", "operator:wikidata": "Q668687", "ref": "4847100008"}, "type": "Feature"}
{"dataset_attributes": {"@spider": "usps_collection_boxes"}, "geometry": {"coordinates": [-82.8558595, 43.418751], "type": "Point"}, "id": "tMKAEeIUUPNuPCJtyxQlWyQI8xQ=", "properties": {"@spider": "usps_collection_boxes", "addr:city": "SANDUSKY", "addr:country": "US", "addr:full": "655 W SANILAC RD", "addr:postcode": "48471", "addr:state": "MI", "amenity": "post_box", "brand": "United States Postal Service", "brand:wikidata": "Q668687", "collection_times": "Mo-Sa 08:30", "name": "USPS COLLECTION BOX - BLUE BOX", "nsi_id": "unitedstatespostalservice-a77078", "operator": "United States Postal Service", "operator:short": "USPS", "operator:type": "public", "operator:wikidata": "Q668687", "ref": "4847100011"}, "type": "Feature"}
{"dataset_attributes": {"@spider": "usps_collection_boxes"}, "geometry": {"coordinates": [-82.8283359422, 43.4200827802], "type": "Point"}, "id": "db-AHo00csuCmwwKQX6eE7YigEA=", "properties": {"@spider": "usps_collection_boxes", "addr:city": "SANDUSKY", "addr:country": "US", "addr:full": "55 S MORSE ST", "addr:postcode": "48471", "addr:state": "MI", "amenity": "post_box", "brand": "United States Postal Service", "brand:wikidata": "Q668687", "collection_times": "Mo-Fr 17:00; Sa 12:00", "name": "USPS COLLECTION BOX - PO LOBBY", "note": "ON 12/24 AND 12/31, THIS BOX MAY BE COLLECTED AS EARLY AS 12 NOON.", "nsi_id": "unitedstatespostalservice-a77078", "operator": "United States Postal Service", "operator:short": "USPS", "operator:type": "public", "operator:wikidata": "Q668687", "ref": "4847100012"}, "type": "Feature"}
{"dataset_attributes": {"@spider": "usps_collection_boxes"}, "geometry": {"coordinates": [-82.970151, 43.452323], "type": "Point"}, "id": "W3glu-gL8UZjld1Z5qm_QPr4uV4=", "properties": {"@spider": "usps_collection_boxes", "addr:city": "SNOVER", "addr:country": "US", "addr:full": "1493 MAIN ST", "addr:postcode": "48472", "addr:state": "MI", "amenity": "post_box", "brand": "United States Postal Service", "brand:wikidata": "Q668687", "collection_times": "Mo-Fr 15:45; Sa 11:00", "name": "USPS COLLECTION BOX - BLUE BOX", "note": "ON 12/24 AND 12/31, THIS BOX MAY BE COLLECTED AS EARLY AS 12 NOON.", "nsi_id": "unitedstatespostalservice-a77078", "operator": "United States Postal Service", "operator:short": "USPS", "operator:type": "public", "operator:wikidata": "Q668687", "ref": "4847200001"}, "type": "Feature"}
{"dataset_attributes": {"@spider": "usps_collection_boxes"}, "geometry": {"coordinates": [-82.970114, 43.452323], "type": "Point"}, "id": "1MDbrhhxHYPTLjclmbrq7uN2EfU=", "properties": {"@spider": "usps_collection_boxes", "addr:city": "SNOVER", "addr:country": "US", "addr:full": "1493 MAIN ST", "addr:postcode": "48472", "addr:state": "MI", "amenity": "post_box", "brand": "United States Postal Service", "brand:wikidata": "Q668687", "collection_times": "Mo-Fr 15:45; Sa 11:00", "name": "USPS COLLECTION BOX - PO LOBBY", "note": "ON 12/24 AND 12/31, THIS BOX MAY BE COLLECTED AS EARLY AS 12 NOON.", "nsi_id": "unitedstatespostalservice-a77078", "operator": "United States Postal Service", "operator:short": "USPS", "operator:type": "public", "operator:wikidata": "Q668687", "ref": "4847200002"}, "type": "Feature"}
{"dataset_attributes": {"@spider": "usps_collection_boxes"}, "geometry": {"coordinates": [-82.9707405074, 43.4611701711], "type": "Point"}, "id": "fH28l_4qJ1sFfheqin0dOnZNcgc=", "properties": {"@spider": "usps_collection_boxes", "addr:city": "SNOVER", "addr:country": "US", "addr:full": "1493 MAIN ST", "addr:postcode": "48472", "addr:state": "MI", "amenity": "post_box", "brand": "United States Postal Service", "brand:wikidata": "Q668687", "collection_times": "Mo-Fr 16:00; Sa 11:00", "name": "USPS COLLECTION BOX - PO LOBBY", "note": "ON 12/24 AND 12/31, THIS BOX MAY BE COLLECTED AS EARLY AS 12 NOON.", "nsi_id": "unitedstatespostalservice-a77078", "operator": "United States Postal Service", "operator:short": "USPS", "operator:type": "public", "operator:wikidata": "Q668687", "ref": "4847200005"}, "type": "Feature"}
{"dataset_attributes": {"@spider": "usps_collection_boxes"}, "geometry": {"coordinates": [-82.930273, 43.71051], "type": "Point"}, "id": "pf93LIAhq5sxsNWHbG_KAw-3jzk=", "properties": {"@spider": "usps_collection_boxes", "addr:city": "UBLY", "addr:country": "US", "addr:full": "4482 GARFIELD ST", "addr:postcode": "48475", "addr:state": "MI", "amenity": "post_box", "brand": "United States Postal Service", "brand:wikidata": "Q668687", "collection_times": "Mo-Fr 16:30; Sa 11:00", "name": "USPS COLLECTION BOX - BLUE BOX", "note": "ON 12/24 AND 12/31, THIS BOX MAY BE COLLECTED AS EARLY AS 12 NOON.", "nsi_id": "unitedstatespostalservice-a77078", "operator": "United States Postal Service", "operator:short": "USPS", "operator:type": "public", "operator:wikidata": "Q668687", "ref": "4847500001"}, "type": "Feature"}
{"dataset_attributes": {"@spider": "usps_collection_boxes"}, "geometry": {"coordinates": [-82.930234, 43.710472], "type": "Point"}, "id": "DzjmbDz01NnTURiGONvDSaBpqAM=", "properties": {"@spider": "usps_collection_boxes", "addr:city": "UBLY", "addr:country": "US", "addr:full": "4482 GARFIELD ST", "addr:postcode": "48475", "addr:state": "MI", "amenity": "post_box", "brand": "United States Postal Service", "brand:wikidata": "Q668687", "collection_times": "Mo-Fr 16:30; Sa 11:00", "name": "USPS COLLECTION BOX - PO LOBBY", "note": "ON 12/24 AND 12/31, THIS BOX MAY BE COLLECTED AS EARLY AS 12 NOON.", "nsi_id": "unitedstatespostalservice-a77078", "operator": "United States Postal Service", "operator:short": "USPS", "operator:type": "public", "operator:wikidata": "Q668687", "ref": "4847500002"}, "type": "Feature"}
{"dataset_attributes": {"@spider": "usps_collection_boxes"}, "geometry": {"coordinates": [-82.9302794562, 43.7105962143], "type": "Point"}, "id": "l6-wtuWU-BrDKQp5aePy6JhqNLk=", "properties": {"@spider": "usps_collection_boxes", "addr:city": "UBLY", "addr:country": "US", "addr:full": "4482 GARFIELD ST", "addr:postcode": "48475", "addr:state": "MI", "amenity": "post_box", "brand": "United States Postal Service", "brand:wikidata": "Q668687", "collection_times": "Mo-Fr 16:30; Sa 11:00", "name": "USPS COLLECTION BOX - PO LOBBY", "note": "ON 12/24 AND 12/31, THIS BOX MAY BE COLLECTED AS EARLY AS 12 NOON.", "nsi_id": "unitedstatespostalservice-a77078", "operator": "United States Postal Service", "operator:short": "USPS", "operator:type": "public", "operator:wikidata": "Q668687", "ref": "4847500004"}, "type": "Feature"}
