{"geometry": {"coordinates": [-83.5974826, 43.022794], "type": "Point"}, "id": "pa18mRm_qiyTRLYjZHdHX-5vzFk=", "properties": {"@spider": "usps_collection_boxes", "addr:city": "FLINT", "addr:country": "US", "addr:full": "1135 N BELSAY RD", "addr:postcode": "48509", "addr:state": "MI", "brand": "USPS", "collection_times": "Mo-Sa 11:00", "name": "USPS COLLECTION BOX - BLUE BOX", "ref": "4850900001"}, "type": "Feature"}
{"geometry": {"coordinates": [-83.5973079, 43.055023], "type": "Point"}, "id": "CLH02cHyxESoKTStr0ur58azboc=", "properties": {"@spider": "usps_collection_boxes", "addr:city": "FLINT", "addr:country": "US", "addr:full": "5510 RICHFIELD RD", "addr:postcode": "48509", "addr:state": "MI", "brand": "USPS", "collection_times": "Mo-Sa 13:00", "name": "USPS COLLECTION BOX - BLUE BOX", "note": "ON 12/24 AND 12/31, THIS BOX MAY BE COLLECTED AS EARLY AS 12 NOON.", "ref": "4850900027"}, "type": "Feature"}
{"geometry": {"coordinates": [-83.6187199, 43.033231], "type": "Point"}, "id": "PbXfqSh9s_THunUx6aHaQv-o2To=", "properties": {"@spider": "usps_collection_boxes", "addr:city": "FLINT", "addr:country": "US", "addr:full": "4465 DAVISON RD", "addr:postcode": "48509", "addr:state": "MI", "brand": "USPS", "collection_times": "Mo-Fr 17:00; Sa 15:00", "name": "USPS COLLECTION BOX - BLUE BOX", "note": "ON 12/24 AND 12/31, THIS BOX MAY BE COLLECTED AS EARLY AS 12 NOON.", "ref": "4850900032"}, "type": "Feature"}
{"geometry": {"coordinates": [-83.5943295, 43.01065], "type": "Point"}, "id": "w3AnFYU9s1EHXnU3a2Fl-WavgIY=", "properties": {"@spider": "usps_collection_boxes", "addr:city": "FLINT", "addr:country": "US", "addr:full": "6024 LAPEER RD", "addr:postcode": "48509", "addr:state": "MI", "brand": "USPS", "collection_times": "Mo-Sa 13:00", "name": "USPS COLLECTION BOX - BLUE BOX", "note": "ON 12/24 AND 12/31, THIS BOX MAY BE COLLECTED AS EARLY AS 12 NOON.", "ref": "4850900070"}, "type": "Feature"}
{"geometry": {"coordinates": [-83.6186742, 43.033236], "type": "Point"}, "id": "XB-hudK11koyitzVGLn6QrBlE9g=", "properties": {"@spider": "usps_collection_boxes", "addr:city": "FLINT", "addr:country": "US", "addr:full": "4465 DAVISON RD", "addr:postcode": "48509", "addr:state": "MI", "brand": "USPS", "collection_times": "Mo-Fr 17:00; Sa 15:00", "name": "USPS COLLECTION BOX - BLUE BOX", "note": "ON 12/24 AND 12/31, THIS BOX MAY BE COLLECTED AS EARLY AS 12 NOON.", "ref": "4850900071"}, "type": "Feature"}
{"geometry": {"coordinates": [-83.6086824, 43.020028], "type": "Point"}, "id": "wZfR9AN0HNMwYljXK81-8hLya6M=", "properties": {"@spider": "usps_collection_boxes", "addr:city": "FLINT", "addr:country": "US", "addr:full": "5161 E COURT ST N", "addr:postcode": "48509", "addr:state": "MI", "brand": "USPS", "collection_times": "Mo-Sa 12:00", "name": "USPS COLLECTION BOX - BLUE BOX", "ref": "4850900073"}, "type": "Feature"}
{"geometry": {"coordinates": [-83.6193225, 43.033741], "type": "Point"}, "id": "15Ck-7jHnRqvdVbeodJPcIPdJoA=", "properties": {"@spider": "usps_collection_boxes", "addr:city": "FLINT", "addr:country": "US", "addr:full": "4465 DAVISON RD", "addr:postcode": "48509", "addr:state": "MI", "brand": "USPS", "collection_times": "Mo-Fr 17:00; Sa 15:00", "name": "USPS COLLECTION BOX - PO LOBBY", "note": "ON 12/24 AND 12/31, THIS BOX MAY BE COLLECTED AS EARLY AS 12 NOON.", "ref": "4850900077"}, "type": "Feature"}
{"geometry": {"coordinates": [-83.6180828, 43.033472], "type": "Point"}, "id": "35nO1Yyy5PGJnYLMlbb8eK3-z4M=", "properties": {"@spider": "usps_collection_boxes", "addr:city": "FLINT", "addr:country": "US", "addr:full": "4465 DAVISON RD", "addr:postcode": "48509", "addr:state": "MI", "brand": "USPS", "collection_times": "Mo-Fr 17:00; Sa 15:00", "name": "USPS COLLECTION BOX - PO LOBBY", "note": "ON 12/24 AND 12/31, THIS BOX MAY BE COLLECTED AS EARLY AS 12 NOON.", "ref": "4850900080"}, "type": "Feature"}
{"geometry": {"coordinates": [-83.5959968, 43.01639], "type": "Point"}, "id": "3zPaDkOl5ztKTWx5yCxEwh-N1yc=", "properties": {"@spider": "usps_collection_boxes", "addr:city": "FLINT", "addr:country": "US", "addr:full": "1096 S BELSAY RD", "addr:postcode": "48509", "addr:state": "MI", "brand": "USPS", "collection_times": "Mo-Sa 13:00", "name": "USPS COLLECTION BOX - BLUE BOX", "note": "ON 12/24 AND 12/31, THIS BOX MAY BE COLLECTED AS EARLY AS 12 NOON.", "ref": "4850900081"}, "type": "Feature"}
{"geometry": {"coordinates": [-83.6190627408, 43.0331458619], "type": "Point"}, "id": "EHEC4dm5kl8am5zTaRNK8JyZWCc=", "properties": {"@spider": "usps_collection_boxes", "addr:city": "FLINT", "addr:country": "US", "addr:full": "4465 DAVISON RD", "addr:postcode": "48509", "addr:state": "MI", "brand": "USPS", "collection_times": "Mo-Fr 17:00; Sa 14:00", "name": "USPS COLLECTION BOX - PO LOBBY", "note": "ON 12/24 AND 12/31, THIS BOX MAY BE COLLECTED AS EARLY AS 12 NOON.", "ref": "4850900084"}, "type": "Feature"}
