{"geometry": {"coordinates": [-83.910617, 43.39955], "type": "Point"}, "id": "vAn0m6MhkJQd4XoI4Wn0Fr1Q7bM=", "properties": {"@source_uri": "https://tools.usps.com/UspsToolsRestServices/rest/POLocator/findLocations", "@spider": "usps_collection_boxes", "addr:city": "SAGINAW", "addr:country": "US", "addr:postcode": "48601", "addr:state": "MI", "addr:street_address": "3581 DIXIE HWY", "amenity": "post_box", "collection_times": "Mo-Sa 10:15", "nsi_id": "unitedstatespostalservice-a77078", "operator": "United States Postal Service", "operator:short": "USPS", "operator:type": "public", "operator:wikidata": "Q668687", "ref": "4860100009"}, "type": "Feature"}
{"geometry": {"coordinates": [-83.9483415, 43.419906], "type": "Point"}, "id": "abQ6UG4uTBOW4uUus7oqRegu2Ng=", "properties": {"@source_uri": "https://tools.usps.com/UspsToolsRestServices/rest/POLocator/findLocations", "@spider": "usps_collection_boxes", "addr:city": "SAGINAW", "addr:country": "US", "addr:postcode": "48601", "addr:state": "MI", "addr:street_address": "1315 S WASHINGTON AVE", "amenity": "post_box", "collection_times": "Mo-Sa 11:30", "nsi_id": "unitedstatespostalservice-a77078", "operator": "United States Postal Service", "operator:short": "USPS", "operator:type": "public", "operator:wikidata": "Q668687", "ref": "4860100010"}, "type": "Feature"}
{"geometry": {"coordinates": [-83.909305, 43.414681], "type": "Point"}, "id": "TAIGoVZ-vkca--K0XWz6Du75DHI=", "properties": {"@source_uri": "https://tools.usps.com/UspsToolsRestServices/rest/POLocator/findLocations", "@spider": "usps_collection_boxes", "addr:city": "SAGINAW", "addr:country": "US", "addr:postcode": "48601", "addr:state": "MI", "addr:street_address": "1300 CUMBERLAND ST", "amenity": "post_box", "collection_times": "Mo-Fr 17:00; Sa 14:00", "note": "ON 12/24 AND 12/31, THIS BOX MAY BE COLLECTED AS EARLY AS 12 NOON.", "nsi_id": "unitedstatespostalservice-a77078", "operator": "United States Postal Service", "operator:short": "USPS", "operator:type": "public", "operator:wikidata": "Q668687", "ref": "4860100015"}, "type": "Feature"}
{"geometry": {"coordinates": [-83.937506016, 43.433260002], "type": "Point"}, "id": "Q5NilU1nR_pj80tq7JyxIYJizpA=", "properties": {"@source_uri": "https://tools.usps.com/UspsToolsRestServices/rest/POLocator/findLocations", "@spider": "usps_collection_boxes", "addr:city": "SAGINAW", "addr:country": "US", "addr:postcode": "48601", "addr:state": "MI", "addr:street_address": "301 E GENESEE AVE", "amenity": "post_box", "collection_times": "Mo-Sa 11:00", "nsi_id": "unitedstatespostalservice-a77078", "operator": "United States Postal Service", "operator:short": "USPS", "operator:type": "public", "operator:wikidata": "Q668687", "ref": "4860100055"}, "type": "Feature"}
{"geometry": {"coordinates": [-83.909339, 43.414772], "type": "Point"}, "id": "pdUzHCtQE_1hGRqX8VQEQZwL9HI=", "properties": {"@source_uri": "https://tools.usps.com/UspsToolsRestServices/rest/POLocator/findLocations", "@spider": "usps_collection_boxes", "addr:city": "SAGINAW", "addr:country": "US", "addr:postcode": "48601", "addr:state": "MI", "addr:street_address": "1300 CUMBERLAND ST", "amenity": "post_box", "collection_times": "Mo-Fr 17:00; Sa 14:00", "indoor": "yes", "note": "ON 12/24 AND 12/31, THIS BOX MAY BE COLLECTED AS EARLY AS 12 NOON.", "nsi_id": "unitedstatespostalservice-a77078", "operator": "United States Postal Service", "operator:short": "USPS", "operator:type": "public", "operator:wikidata": "Q668687", "ref": "4860100112"}, "type": "Feature"}
{"geometry": {"coordinates": [-83.912611, 43.407795], "type": "Point"}, "id": "Z7od7kZqQzwLkyqmBAyEOCMoC7w=", "properties": {"@source_uri": "https://tools.usps.com/UspsToolsRestServices/rest/POLocator/findLocations", "@spider": "usps_collection_boxes", "addr:city": "SAGINAW", "addr:country": "US", "addr:postcode": "48601", "addr:state": "MI", "addr:street_address": "100 S JEFFERSON AVE", "amenity": "post_box", "collection_times": "Mo-Sa 10:45", "nsi_id": "unitedstatespostalservice-a77078", "operator": "United States Postal Service", "operator:short": "USPS", "operator:type": "public", "operator:wikidata": "Q668687", "ref": "4860100118"}, "type": "Feature"}
{"geometry": {"coordinates": [-83.93596098, 43.433214991], "type": "Point"}, "id": "R3RTeV3Xui-URRLEsFVc32MONUM=", "properties": {"@source_uri": "https://tools.usps.com/UspsToolsRestServices/rest/POLocator/findLocations", "@spider": "usps_collection_boxes", "addr:city": "SAGINAW", "addr:country": "US", "addr:postcode": "48601", "addr:state": "MI", "addr:street_address": "411 E GENESEE AVE", "amenity": "post_box", "collection_times": "Mo-Sa 10:45", "nsi_id": "unitedstatespostalservice-a77078", "operator": "United States Postal Service", "operator:short": "USPS", "operator:type": "public", "operator:wikidata": "Q668687", "ref": "4860100132"}, "type": "Feature"}
{"geometry": {"coordinates": [-83.909323194, 43.414123673], "type": "Point"}, "id": "qRU8eBpHdZBO1AYgvuOwqReEJck=", "properties": {"@source_uri": "https://tools.usps.com/UspsToolsRestServices/rest/POLocator/findLocations", "@spider": "usps_collection_boxes", "addr:city": "SAGINAW", "addr:country": "US", "addr:postcode": "48601", "addr:state": "MI", "addr:street_address": "1300 CUMBERLAND ST", "amenity": "post_box", "collection_times": "Mo-Fr 16:30; Sa 11:30", "indoor": "yes", "note": "ON 12/24 AND 12/31, THIS BOX MAY BE COLLECTED AS EARLY AS 12 NOON.", "nsi_id": "unitedstatespostalservice-a77078", "operator": "United States Postal Service", "operator:short": "USPS", "operator:type": "public", "operator:wikidata": "Q668687", "ref": "4860100138"}, "type": "Feature"}
{"geometry": {"coordinates": [-84.068079975, 43.415539988], "type": "Point"}, "id": "Mf76ftdcdiamUqadDLPojkbB2-c=", "properties": {"@source_uri": "https://tools.usps.com/UspsToolsRestServices/rest/POLocator/findLocations", "@spider": "usps_collection_boxes", "addr:city": "SAGINAW", "addr:country": "US", "addr:postcode": "48602", "addr:state": "MI", "addr:street_address": "7835 GRATIOT RD", "amenity": "post_box", "collection_times": "Mo-Sa 12:00", "nsi_id": "unitedstatespostalservice-a77078", "operator": "United States Postal Service", "operator:short": "USPS", "operator:type": "public", "operator:wikidata": "Q668687", "ref": "4860200004"}, "type": "Feature"}
{"geometry": {"coordinates": [-84.079789996, 43.416370006], "type": "Point"}, "id": "50-KPZ2mXi_318ZaZyQCVxqZ_Fw=", "properties": {"@source_uri": "https://tools.usps.com/UspsToolsRestServices/rest/POLocator/findLocations", "@spider": "usps_collection_boxes", "addr:city": "SAGINAW", "addr:country": "US", "addr:postcode": "48602", "addr:state": "MI", "addr:street_address": "8400 GRATIOT RD", "amenity": "post_box", "collection_times": "Mo-Fr 16:15; Sa 15:30", "note": "ON 12/24 AND 12/31, THIS BOX MAY BE COLLECTED AS EARLY AS 12 NOON.", "nsi_id": "unitedstatespostalservice-a77078", "operator": "United States Postal Service", "operator:short": "USPS", "operator:type": "public", "operator:wikidata": "Q668687", "ref": "4860200006"}, "type": "Feature"}
{"geometry": {"coordinates": [-83.9555303, 43.428386], "type": "Point"}, "id": "jy0pwPQnnOuCt-zUQOuK0yFg4is=", "properties": {"@source_uri": "https://tools.usps.com/UspsToolsRestServices/rest/POLocator/findLocations", "@spider": "usps_collection_boxes", "addr:city": "SAGINAW", "addr:country": "US", "addr:postcode": "48602", "addr:state": "MI", "addr:street_address": "1447 N HARRISON ST", "amenity": "post_box", "collection_times": "Mo-Sa 09:00", "nsi_id": "unitedstatespostalservice-a77078", "operator": "United States Postal Service", "operator:short": "USPS", "operator:type": "public", "operator:wikidata": "Q668687", "ref": "4860200009"}, "type": "Feature"}
{"geometry": {"coordinates": [-83.9673426, 43.416017], "type": "Point"}, "id": "vMR5Ea2OwxVDFg_J2GeEhA-sPGc=", "properties": {"@source_uri": "https://tools.usps.com/UspsToolsRestServices/rest/POLocator/findLocations", "@spider": "usps_collection_boxes", "addr:city": "SAGINAW", "addr:country": "US", "addr:postcode": "48602", "addr:state": "MI", "addr:street_address": "333 S MICHIGAN AVE", "amenity": "post_box", "collection_times": "Mo-Sa 11:00", "nsi_id": "unitedstatespostalservice-a77078", "operator": "United States Postal Service", "operator:short": "USPS", "operator:type": "public", "operator:wikidata": "Q668687", "ref": "4860200020"}, "type": "Feature"}
{"geometry": {"coordinates": [-83.9748366, 43.436291], "type": "Point"}, "id": "YF1sUfXFS_eWSnMYlC741dQAXgU=", "properties": {"@source_uri": "https://tools.usps.com/UspsToolsRestServices/rest/POLocator/findLocations", "@spider": "usps_collection_boxes", "addr:city": "SAGINAW", "addr:country": "US", "addr:postcode": "48602", "addr:state": "MI", "addr:street_address": "2032 BAY ST", "amenity": "post_box", "collection_times": "Mo-Sa 13:00", "note": "ON 12/24 AND 12/31, THIS BOX MAY BE COLLECTED AS EARLY AS 12 NOON.", "nsi_id": "unitedstatespostalservice-a77078", "operator": "United States Postal Service", "operator:short": "USPS", "operator:type": "public", "operator:wikidata": "Q668687", "ref": "4860200034"}, "type": "Feature"}
{"geometry": {"coordinates": [-83.9910109, 43.436882], "type": "Point"}, "id": "REgypDSTc6s6WwizshJM092U1YM=", "properties": {"@source_uri": "https://tools.usps.com/UspsToolsRestServices/rest/POLocator/findLocations", "@spider": "usps_collection_boxes", "addr:city": "SAGINAW", "addr:country": "US", "addr:postcode": "48602", "addr:state": "MI", "addr:street_address": "3518 STATE ST", "amenity": "post_box", "collection_times": "Mo-Sa 13:15", "note": "ON 12/24 AND 12/31, THIS BOX MAY BE COLLECTED AS EARLY AS 12 NOON.", "nsi_id": "unitedstatespostalservice-a77078", "operator": "United States Postal Service", "operator:short": "USPS", "operator:type": "public", "operator:wikidata": "Q668687", "ref": "4860200062"}, "type": "Feature"}
{"geometry": {"coordinates": [-83.9524204, 43.429932], "type": "Point"}, "id": "B3n6We7wlqmfu0Pgcvz3JJHTauw=", "properties": {"@source_uri": "https://tools.usps.com/UspsToolsRestServices/rest/POLocator/findLocations", "@spider": "usps_collection_boxes", "addr:city": "SAGINAW", "addr:country": "US", "addr:postcode": "48602", "addr:state": "MI", "addr:street_address": "700 COOPER AVE", "amenity": "post_box", "collection_times": "Mo-Fr 14:00; Sa 12:00", "note": "ON 12/24 AND 12/31, THIS BOX MAY BE COLLECTED AS EARLY AS 12 NOON.", "nsi_id": "unitedstatespostalservice-a77078", "operator": "United States Postal Service", "operator:short": "USPS", "operator:type": "public", "operator:wikidata": "Q668687", "ref": "4860200064"}, "type": "Feature"}
{"geometry": {"coordinates": [-84.0126438, 43.416405], "type": "Point"}, "id": "kEGRePSVUdFP_tFJKU1bDXl3KwM=", "properties": {"@source_uri": "https://tools.usps.com/UspsToolsRestServices/rest/POLocator/findLocations", "@spider": "usps_collection_boxes", "addr:city": "SAGINAW", "addr:country": "US", "addr:postcode": "48602", "addr:state": "MI", "addr:street_address": "4880 GRATIOT RD", "amenity": "post_box", "collection_times": "Mo-Sa 10:00", "nsi_id": "unitedstatespostalservice-a77078", "operator": "United States Postal Service", "operator:short": "USPS", "operator:type": "public", "operator:wikidata": "Q668687", "ref": "4860200067"}, "type": "Feature"}
{"geometry": {"coordinates": [-83.9640999, 43.476454], "type": "Point"}, "id": "iZOWcWpK7M_f0aa4-2pOZNCBHA4=", "properties": {"@source_uri": "https://tools.usps.com/UspsToolsRestServices/rest/POLocator/findLocations", "@spider": "usps_collection_boxes", "addr:city": "SAGINAW", "addr:country": "US", "addr:postcode": "48603", "addr:state": "MI", "addr:street_address": "4701 TOWNE CENTRE RD", "amenity": "post_box", "collection_times": "Mo-Sa 10:00", "nsi_id": "unitedstatespostalservice-a77078", "operator": "United States Postal Service", "operator:short": "USPS", "operator:type": "public", "operator:wikidata": "Q668687", "ref": "4860300001"}, "type": "Feature"}
{"geometry": {"coordinates": [-83.9760563, 43.448516], "type": "Point"}, "id": "6PNJ2bBqsznTzl2F46gJQ6xDlwA=", "properties": {"@source_uri": "https://tools.usps.com/UspsToolsRestServices/rest/POLocator/findLocations", "@spider": "usps_collection_boxes", "addr:city": "SAGINAW", "addr:country": "US", "addr:postcode": "48603", "addr:state": "MI", "addr:street_address": "2885 BAY RD", "amenity": "post_box", "collection_times": "Mo-Sa 10:00", "nsi_id": "unitedstatespostalservice-a77078", "operator": "United States Postal Service", "operator:short": "USPS", "operator:type": "public", "operator:wikidata": "Q668687", "ref": "4860300028"}, "type": "Feature"}
{"geometry": {"coordinates": [-83.9737147, 43.475523], "type": "Point"}, "id": "YpJO35Xl06S8rpmTRZSnK1LAE6k=", "properties": {"@source_uri": "https://tools.usps.com/UspsToolsRestServices/rest/POLocator/findLocations", "@spider": "usps_collection_boxes", "addr:city": "SAGINAW", "addr:country": "US", "addr:postcode": "48603", "addr:state": "MI", "addr:street_address": "4900 BAY RD", "amenity": "post_box", "collection_times": "Mo-Sa 13:00", "note": "ON 12/24 AND 12/31, THIS BOX MAY BE COLLECTED AS EARLY AS 12 NOON.", "nsi_id": "unitedstatespostalservice-a77078", "operator": "United States Postal Service", "operator:short": "USPS", "operator:type": "public", "operator:wikidata": "Q668687", "ref": "4860300034"}, "type": "Feature"}
{"geometry": {"coordinates": [-83.9485042, 43.462118], "type": "Point"}, "id": "pE373vjokBt3acmQWDar7GUZjJY=", "properties": {"@source_uri": "https://tools.usps.com/UspsToolsRestServices/rest/POLocator/findLocations", "@spider": "usps_collection_boxes", "addr:city": "SAGINAW", "addr:country": "US", "addr:postcode": "48603", "addr:state": "MI", "addr:street_address": "3775 N MICHIGAN AVE", "amenity": "post_box", "collection_times": "Mo-Sa 14:00", "note": "ON 12/24 AND 12/31, THIS BOX MAY BE COLLECTED AS EARLY AS 12 NOON.", "nsi_id": "unitedstatespostalservice-a77078", "operator": "United States Postal Service", "operator:short": "USPS", "operator:type": "public", "operator:wikidata": "Q668687", "ref": "4860300059"}, "type": "Feature"}
{"geometry": {"coordinates": [-83.982867, 43.480913], "type": "Point"}, "id": "XaEwkIQtU0nf6bMJ--5YquCy3RQ=", "properties": {"@source_uri": "https://tools.usps.com/UspsToolsRestServices/rest/POLocator/findLocations", "@spider": "usps_collection_boxes", "addr:city": "SAGINAW", "addr:country": "US", "addr:postcode": "48603", "addr:state": "MI", "addr:street_address": "3360 TITTABAWASSEE RD", "amenity": "post_box", "collection_times": "Mo-Fr 17:00; Sa 16:15", "note": "ON 12/24 AND 12/31, THIS BOX MAY BE COLLECTED AS EARLY AS 12 NOON.", "nsi_id": "unitedstatespostalservice-a77078", "operator": "United States Postal Service", "operator:short": "USPS", "operator:type": "public", "operator:wikidata": "Q668687", "ref": "4860300072"}, "type": "Feature"}
{"geometry": {"coordinates": [-83.9643969, 43.478509], "type": "Point"}, "id": "TavMhFosLp6k_Dwj2-HvJQfvw4s=", "properties": {"@source_uri": "https://tools.usps.com/UspsToolsRestServices/rest/POLocator/findLocations", "@spider": "usps_collection_boxes", "addr:city": "SAGINAW", "addr:country": "US", "addr:postcode": "48603", "addr:state": "MI", "addr:street_address": "4901 TOWNE CENTRE RD", "amenity": "post_box", "collection_times": "Mo-Sa 10:00", "nsi_id": "unitedstatespostalservice-a77078", "operator": "United States Postal Service", "operator:short": "USPS", "operator:type": "public", "operator:wikidata": "Q668687", "ref": "4860300076"}, "type": "Feature"}
{"geometry": {"coordinates": [-83.964201, 43.477938], "type": "Point"}, "id": "5ySzJcW8TtWm-fEQ7qKsagD5AwA=", "properties": {"@source_uri": "https://tools.usps.com/UspsToolsRestServices/rest/POLocator/findLocations", "@spider": "usps_collection_boxes", "addr:city": "SAGINAW", "addr:country": "US", "addr:postcode": "48603", "addr:state": "MI", "addr:street_address": "4835 TOWNE CENTRE RD", "amenity": "post_box", "collection_times": "Mo-Sa 10:00", "nsi_id": "unitedstatespostalservice-a77078", "operator": "United States Postal Service", "operator:short": "USPS", "operator:type": "public", "operator:wikidata": "Q668687", "ref": "4860300092"}, "type": "Feature"}
{"geometry": {"coordinates": [-83.9642966, 43.482196], "type": "Point"}, "id": "RF7vSMXCwvVAfDuL-8nqJC8F6uo=", "properties": {"@source_uri": "https://tools.usps.com/UspsToolsRestServices/rest/POLocator/findLocations", "@spider": "usps_collection_boxes", "addr:city": "SAGINAW", "addr:country": "US", "addr:postcode": "48603", "addr:state": "MI", "addr:street_address": "2272 TITTABAWASSEE RD", "amenity": "post_box", "collection_times": "Mo-Sa 11:00", "nsi_id": "unitedstatespostalservice-a77078", "operator": "United States Postal Service", "operator:short": "USPS", "operator:type": "public", "operator:wikidata": "Q668687", "ref": "4860300104"}, "type": "Feature"}
{"geometry": {"coordinates": [-83.979405, 43.455667], "type": "Point"}, "id": "TJtfZ9Ts9UgV4rmb-nSAjqQGlK8=", "properties": {"@source_uri": "https://tools.usps.com/UspsToolsRestServices/rest/POLocator/findLocations", "@spider": "usps_collection_boxes", "addr:city": "SAGINAW", "addr:country": "US", "addr:postcode": "48603", "addr:state": "MI", "addr:street_address": "3193 BOARDWALK DR", "amenity": "post_box", "collection_times": "Mo-Fr 17:00; Sa 16:00", "indoor": "yes", "note": "ON 12/24 AND 12/31, THIS BOX MAY BE COLLECTED AS EARLY AS 12 NOON.", "nsi_id": "unitedstatespostalservice-a77078", "operator": "United States Postal Service", "operator:short": "USPS", "operator:type": "public", "operator:wikidata": "Q668687", "ref": "4860300106"}, "type": "Feature"}
{"geometry": {"coordinates": [-84.0145537, 43.451525], "type": "Point"}, "id": "7U8MjmT8WBP9I7ldUZphWHMa0eM=", "properties": {"@source_uri": "https://tools.usps.com/UspsToolsRestServices/rest/POLocator/findLocations", "@spider": "usps_collection_boxes", "addr:city": "SAGINAW", "addr:country": "US", "addr:postcode": "48603", "addr:state": "MI", "addr:street_address": "4980 SHATTUCK RD", "amenity": "post_box", "collection_times": "Mo-Sa 10:00", "nsi_id": "unitedstatespostalservice-a77078", "operator": "United States Postal Service", "operator:short": "USPS", "operator:type": "public", "operator:wikidata": "Q668687", "ref": "4860300109"}, "type": "Feature"}
{"geometry": {"coordinates": [-83.9203359, 43.478933], "type": "Point"}, "id": "_ly_r8N29jJEEG4EMGtcBXyZxWw=", "properties": {"@source_uri": "https://tools.usps.com/UspsToolsRestServices/rest/POLocator/findLocations", "@spider": "usps_collection_boxes", "addr:city": "SAGINAW", "addr:country": "US", "addr:postcode": "48603", "addr:state": "MI", "addr:street_address": "319 TITTABAWASSEE RD", "amenity": "post_box", "collection_times": "Mo-Sa 12:30", "note": "ON 12/24 AND 12/31, THIS BOX MAY BE COLLECTED AS EARLY AS 12 NOON.", "nsi_id": "unitedstatespostalservice-a77078", "operator": "United States Postal Service", "operator:short": "USPS", "operator:type": "public", "operator:wikidata": "Q668687", "ref": "4860300116"}, "type": "Feature"}
{"geometry": {"coordinates": [-84.0056189, 43.441176], "type": "Point"}, "id": "AdUZSppnsz7n-CAkMGOqfa8UlVw=", "properties": {"@source_uri": "https://tools.usps.com/UspsToolsRestServices/rest/POLocator/findLocations", "@spider": "usps_collection_boxes", "addr:city": "SAGINAW", "addr:country": "US", "addr:postcode": "48603", "addr:state": "MI", "addr:street_address": "4545 COLONIAL DR", "amenity": "post_box", "collection_times": "Mo-Fr 12:00; Sa 00:00", "nsi_id": "unitedstatespostalservice-a77078", "operator": "United States Postal Service", "operator:short": "USPS", "operator:type": "public", "operator:wikidata": "Q668687", "ref": "4860300117"}, "type": "Feature"}
{"geometry": {"coordinates": [-84.0290875, 43.439007], "type": "Point"}, "id": "PXMtwLqcaUJJF5USG-rmwnzo1OI=", "properties": {"@source_uri": "https://tools.usps.com/UspsToolsRestServices/rest/POLocator/findLocations", "@spider": "usps_collection_boxes", "addr:city": "SAGINAW", "addr:country": "US", "addr:postcode": "48603", "addr:state": "MI", "addr:street_address": "2130 WIENEKE RD", "amenity": "post_box", "collection_times": "Mo-Fr 17:00; Sa 15:15", "note": "ON 12/24 AND 12/31, THIS BOX MAY BE COLLECTED AS EARLY AS 12 NOON.", "nsi_id": "unitedstatespostalservice-a77078", "operator": "United States Postal Service", "operator:short": "USPS", "operator:type": "public", "operator:wikidata": "Q668687", "ref": "4860300122"}, "type": "Feature"}
{"geometry": {"coordinates": [-83.9797699, 43.455871], "type": "Point"}, "id": "k_5eCn3iRYnfy8a7Eyr3r7U_YEI=", "properties": {"@source_uri": "https://tools.usps.com/UspsToolsRestServices/rest/POLocator/findLocations", "@spider": "usps_collection_boxes", "addr:city": "SAGINAW", "addr:country": "US", "addr:postcode": "48603", "addr:state": "MI", "addr:street_address": "3193 BOARDWALK DR", "amenity": "post_box", "collection_times": "Mo-Fr 17:00; Sa 16:00", "note": "ON 12/24 AND 12/31, THIS BOX MAY BE COLLECTED AS EARLY AS 12 NOON.", "nsi_id": "unitedstatespostalservice-a77078", "operator": "United States Postal Service", "operator:short": "USPS", "operator:type": "public", "operator:wikidata": "Q668687", "ref": "4860300124"}, "type": "Feature"}
{"geometry": {"coordinates": [-84.0163521, 43.437317], "type": "Point"}, "id": "O385vcMau18h28Y1ivyf8hzN7NQ=", "properties": {"@source_uri": "https://tools.usps.com/UspsToolsRestServices/rest/POLocator/findLocations", "@spider": "usps_collection_boxes", "addr:city": "SAGINAW", "addr:country": "US", "addr:postcode": "48603", "addr:state": "MI", "addr:street_address": "5090 STATE ST", "amenity": "post_box", "collection_times": "Mo-Sa 10:00", "nsi_id": "unitedstatespostalservice-a77078", "operator": "United States Postal Service", "operator:short": "USPS", "operator:type": "public", "operator:wikidata": "Q668687", "ref": "4860300125"}, "type": "Feature"}
{"geometry": {"coordinates": [-84.0054717, 43.437805], "type": "Point"}, "id": "XrFA6QidK_wZ6mmLiTrLqtq3L0s=", "properties": {"@source_uri": "https://tools.usps.com/UspsToolsRestServices/rest/POLocator/findLocations", "@spider": "usps_collection_boxes", "addr:city": "SAGINAW", "addr:country": "US", "addr:postcode": "48603", "addr:state": "MI", "addr:street_address": "4550 STATE ST", "amenity": "post_box", "collection_times": "Mo-Sa 10:00", "nsi_id": "unitedstatespostalservice-a77078", "operator": "United States Postal Service", "operator:short": "USPS", "operator:type": "public", "operator:wikidata": "Q668687", "ref": "4860300126"}, "type": "Feature"}
{"geometry": {"coordinates": [-84.0166773, 43.41508], "type": "Point"}, "id": "H9v8XxSLMLrhopP8jzfG68AOz2Y=", "properties": {"@source_uri": "https://tools.usps.com/UspsToolsRestServices/rest/POLocator/findLocations", "@spider": "usps_collection_boxes", "addr:city": "SAGINAW", "addr:country": "US", "addr:postcode": "48603", "addr:state": "MI", "addr:street_address": "5115 GRATIOT RD", "amenity": "post_box", "collection_times": "Mo-Sa 10:00", "nsi_id": "unitedstatespostalservice-a77078", "operator": "United States Postal Service", "operator:short": "USPS", "operator:type": "public", "operator:wikidata": "Q668687", "ref": "4860300129"}, "type": "Feature"}
{"geometry": {"coordinates": [-83.9691149, 43.476756], "type": "Point"}, "id": "wqHEUQUUrTgydKTI3AKMYkqHTD4=", "properties": {"@source_uri": "https://tools.usps.com/UspsToolsRestServices/rest/POLocator/findLocations", "@spider": "usps_collection_boxes", "addr:city": "SAGINAW", "addr:country": "US", "addr:postcode": "48603", "addr:state": "MI", "addr:street_address": "4800 FASHION SQUARE BLVD", "amenity": "post_box", "collection_times": "Mo-Sa 11:00", "nsi_id": "unitedstatespostalservice-a77078", "operator": "United States Postal Service", "operator:short": "USPS", "operator:type": "public", "operator:wikidata": "Q668687", "ref": "4860300130"}, "type": "Feature"}
{"geometry": {"coordinates": [-83.979380265, 43.455546987], "type": "Point"}, "id": "3jjKrqaxGU64cgaUKcfhroPa2vo=", "properties": {"@source_uri": "https://tools.usps.com/UspsToolsRestServices/rest/POLocator/findLocations", "@spider": "usps_collection_boxes", "addr:city": "SAGINAW", "addr:country": "US", "addr:postcode": "48603", "addr:state": "MI", "addr:street_address": "3193 BOARDWALK DR", "amenity": "post_box", "collection_times": "Mo-Fr 17:30; Sa 14:30", "indoor": "yes", "note": "ON 12/24 AND 12/31, THIS BOX MAY BE COLLECTED AS EARLY AS 12 NOON.", "nsi_id": "unitedstatespostalservice-a77078", "operator": "United States Postal Service", "operator:short": "USPS", "operator:type": "public", "operator:wikidata": "Q668687", "ref": "4860300137"}, "type": "Feature"}
{"geometry": {"coordinates": [-84.029576149, 43.438842388], "type": "Point"}, "id": "Yoo88Z0fqykkThYFth7a-nJ1flc=", "properties": {"@source_uri": "https://tools.usps.com/UspsToolsRestServices/rest/POLocator/findLocations", "@spider": "usps_collection_boxes", "addr:city": "SAGINAW", "addr:country": "US", "addr:postcode": "48603", "addr:state": "MI", "addr:street_address": "2130 WIENEKE RD", "amenity": "post_box", "collection_times": "Mo-Fr 16:30; Sa 14:30", "indoor": "yes", "note": "ON 12/24 AND 12/31, THIS BOX MAY BE COLLECTED AS EARLY AS 12 NOON.", "nsi_id": "unitedstatespostalservice-a77078", "operator": "United States Postal Service", "operator:short": "USPS", "operator:type": "public", "operator:wikidata": "Q668687", "ref": "4860300138"}, "type": "Feature"}
{"geometry": {"coordinates": [-83.945645, 43.420676], "type": "Point"}, "id": "JXXGBPbF0M3U6yYMN1a9OB6IqdY=", "properties": {"@source_uri": "https://tools.usps.com/UspsToolsRestServices/rest/POLocator/findLocations", "@spider": "usps_collection_boxes", "addr:city": "SAGINAW", "addr:country": "US", "addr:postcode": "48605", "addr:state": "MI", "addr:street_address": "1233 S WASHINGTON AVE", "amenity": "post_box", "collection_times": "Mo-Sa 18:00", "indoor": "yes", "note": "ON 12/24 AND 12/31, THIS BOX MAY BE COLLECTED AS EARLY AS 12 NOON.", "nsi_id": "unitedstatespostalservice-a77078", "operator": "United States Postal Service", "operator:short": "USPS", "operator:type": "public", "operator:wikidata": "Q668687", "ref": "4860500002"}, "type": "Feature"}
{"geometry": {"coordinates": [-83.945645, 43.420676], "type": "Point"}, "id": "2VPuQW8UUYrpx26rHwfQsnj1akA=", "properties": {"@source_uri": "https://tools.usps.com/UspsToolsRestServices/rest/POLocator/findLocations", "@spider": "usps_collection_boxes", "addr:city": "SAGINAW", "addr:country": "US", "addr:postcode": "48605", "addr:state": "MI", "addr:street_address": "1233 S WASHINGTON AVE", "amenity": "post_box", "collection_times": "Mo-Sa 18:00", "note": "ON 12/24 AND 12/31, THIS BOX MAY BE COLLECTED AS EARLY AS 12 NOON.", "nsi_id": "unitedstatespostalservice-a77078", "operator": "United States Postal Service", "operator:short": "USPS", "operator:type": "public", "operator:wikidata": "Q668687", "ref": "4860500007"}, "type": "Feature"}
{"geometry": {"coordinates": [-84.120615, 44.125509], "type": "Point"}, "id": "IfYdaKOa-kXhF9ydO6Hg7QnGlvc=", "properties": {"@source_uri": "https://tools.usps.com/UspsToolsRestServices/rest/POLocator/findLocations", "@spider": "usps_collection_boxes", "addr:city": "ALGER", "addr:country": "US", "addr:postcode": "48610", "addr:state": "MI", "addr:street_address": "1454 JOY ST", "amenity": "post_box", "collection_times": "Mo-Fr 16:00; Sa 09:00", "note": "ON 12/24 AND 12/31, THIS BOX MAY BE COLLECTED AS EARLY AS 12 NOON.", "nsi_id": "unitedstatespostalservice-a77078", "operator": "United States Postal Service", "operator:short": "USPS", "operator:type": "public", "operator:wikidata": "Q668687", "ref": "4861000000"}, "type": "Feature"}
{"geometry": {"coordinates": [-84.120615, 44.125509], "type": "Point"}, "id": "zI6ZRn8gIQ6zu_YgB8F1mBJdNFo=", "properties": {"@source_uri": "https://tools.usps.com/UspsToolsRestServices/rest/POLocator/findLocations", "@spider": "usps_collection_boxes", "addr:city": "ALGER", "addr:country": "US", "addr:postcode": "48610", "addr:state": "MI", "addr:street_address": "1454 JOY ST", "amenity": "post_box", "collection_times": "Mo-Fr 16:00; Sa 09:00", "indoor": "yes", "note": "ON 12/24 AND 12/31, THIS BOX MAY BE COLLECTED AS EARLY AS 12 NOON.", "nsi_id": "unitedstatespostalservice-a77078", "operator": "United States Postal Service", "operator:short": "USPS", "operator:type": "public", "operator:wikidata": "Q668687", "ref": "4861000001"}, "type": "Feature"}
{"geometry": {"coordinates": [-84.120594589, 44.125502542], "type": "Point"}, "id": "D6s4mfq8mF9YLB4RX1sjoi5iWsg=", "properties": {"@source_uri": "https://tools.usps.com/UspsToolsRestServices/rest/POLocator/findLocations", "@spider": "usps_collection_boxes", "addr:city": "ALGER", "addr:country": "US", "addr:postcode": "48610", "addr:state": "MI", "addr:street_address": "1454 JOY ST", "amenity": "post_box", "collection_times": "Mo-Fr 15:30; Sa 09:30", "indoor": "yes", "note": "ON 12/24 AND 12/31, THIS BOX MAY BE COLLECTED AS EARLY AS 12 NOON.", "nsi_id": "unitedstatespostalservice-a77078", "operator": "United States Postal Service", "operator:short": "USPS", "operator:type": "public", "operator:wikidata": "Q668687", "ref": "4861000002"}, "type": "Feature"}
{"geometry": {"coordinates": [-84.088115, 43.603597], "type": "Point"}, "id": "rFFujbDZ5Hcz1lAMhswDOUkpskc=", "properties": {"@source_uri": "https://tools.usps.com/UspsToolsRestServices/rest/POLocator/findLocations", "@spider": "usps_collection_boxes", "addr:city": "AUBURN", "addr:country": "US", "addr:postcode": "48611", "addr:state": "MI", "addr:street_address": "951 W MIDLAND RD", "amenity": "post_box", "collection_times": "Mo-Fr 16:30; Sa 10:00", "note": "ON 12/24 AND 12/31, THIS BOX MAY BE COLLECTED AS EARLY AS 12 NOON.", "nsi_id": "unitedstatespostalservice-a77078", "operator": "United States Postal Service", "operator:short": "USPS", "operator:type": "public", "operator:wikidata": "Q668687", "ref": "4861100001"}, "type": "Feature"}
{"geometry": {"coordinates": [-84.088115, 43.603597], "type": "Point"}, "id": "pIl7vuDjXqc2hT2viLDgrgJEL0A=", "properties": {"@source_uri": "https://tools.usps.com/UspsToolsRestServices/rest/POLocator/findLocations", "@spider": "usps_collection_boxes", "addr:city": "AUBURN", "addr:country": "US", "addr:postcode": "48611", "addr:state": "MI", "addr:street_address": "951 W MIDLAND RD", "amenity": "post_box", "collection_times": "Mo-Fr 16:30; Sa 10:00", "indoor": "yes", "note": "ON 12/24 AND 12/31, THIS BOX MAY BE COLLECTED AS EARLY AS 12 NOON.", "nsi_id": "unitedstatespostalservice-a77078", "operator": "United States Postal Service", "operator:short": "USPS", "operator:type": "public", "operator:wikidata": "Q668687", "ref": "4861100003"}, "type": "Feature"}
{"geometry": {"coordinates": [-84.088083311, 43.603536434], "type": "Point"}, "id": "pdCnLL0Hd_Bc7aLYUQKe_l7C-iU=", "properties": {"@source_uri": "https://tools.usps.com/UspsToolsRestServices/rest/POLocator/findLocations", "@spider": "usps_collection_boxes", "addr:city": "AUBURN", "addr:country": "US", "addr:postcode": "48611", "addr:state": "MI", "addr:street_address": "951 W MIDLAND RD", "amenity": "post_box", "collection_times": "Mo-Fr 16:30; Sa 11:30", "indoor": "yes", "note": "ON 12/24 AND 12/31, THIS BOX MAY BE COLLECTED AS EARLY AS 12 NOON.", "nsi_id": "unitedstatespostalservice-a77078", "operator": "United States Postal Service", "operator:short": "USPS", "operator:type": "public", "operator:wikidata": "Q668687", "ref": "4861100005"}, "type": "Feature"}
{"geometry": {"coordinates": [-84.485336, 43.879851], "type": "Point"}, "id": "yAx289MbFJFJPpuhjmLLBcaVItI=", "properties": {"@source_uri": "https://tools.usps.com/UspsToolsRestServices/rest/POLocator/findLocations", "@spider": "usps_collection_boxes", "addr:city": "BEAVERTON", "addr:country": "US", "addr:postcode": "48612", "addr:state": "MI", "addr:street_address": "362 N ROSS ST", "amenity": "post_box", "collection_times": "Mo-Fr 16:25; Sa 10:00", "note": "ON 12/24 AND 12/31, THIS BOX MAY BE COLLECTED AS EARLY AS 12 NOON.", "nsi_id": "unitedstatespostalservice-a77078", "operator": "United States Postal Service", "operator:short": "USPS", "operator:type": "public", "operator:wikidata": "Q668687", "ref": "4861200001"}, "type": "Feature"}
{"geometry": {"coordinates": [-84.491641011, 43.887466995], "type": "Point"}, "id": "A_C6TDv0U4VQEjbILAnOl2WjTnQ=", "properties": {"@source_uri": "https://tools.usps.com/UspsToolsRestServices/rest/POLocator/findLocations", "@spider": "usps_collection_boxes", "addr:city": "BEAVERTON", "addr:country": "US", "addr:postcode": "48612", "addr:state": "MI", "addr:street_address": "362 N ROSS ST", "amenity": "post_box", "collection_times": "Mo-Fr 16:25; Sa 10:00", "indoor": "yes", "note": "ON 12/24 AND 12/31, THIS BOX MAY BE COLLECTED AS EARLY AS 12 NOON.", "nsi_id": "unitedstatespostalservice-a77078", "operator": "United States Postal Service", "operator:short": "USPS", "operator:type": "public", "operator:wikidata": "Q668687", "ref": "4861200005"}, "type": "Feature"}
{"geometry": {"coordinates": [-84.4856239783, 43.8814479922], "type": "Point"}, "id": "uRCRehMa35TldjhAAglTU4hEBCY=", "properties": {"@source_uri": "https://tools.usps.com/UspsToolsRestServices/rest/POLocator/findLocations", "@spider": "usps_collection_boxes", "addr:city": "BEAVERTON", "addr:country": "US", "addr:postcode": "48612", "addr:state": "MI", "addr:street_address": "190 S ROSS ST", "amenity": "post_box", "collection_times": "Mo-Sa 09:00", "nsi_id": "unitedstatespostalservice-a77078", "operator": "United States Postal Service", "operator:short": "USPS", "operator:type": "public", "operator:wikidata": "Q668687", "ref": "4861200007"}, "type": "Feature"}
{"geometry": {"coordinates": [-84.491641011, 43.887466995], "type": "Point"}, "id": "t0sb28aJYRNHSzK_VAky0-LO0SI=", "properties": {"@source_uri": "https://tools.usps.com/UspsToolsRestServices/rest/POLocator/findLocations", "@spider": "usps_collection_boxes", "addr:city": "BEAVERTON", "addr:country": "US", "addr:postcode": "48612", "addr:state": "MI", "addr:street_address": "362 N ROSS ST", "amenity": "post_box", "collection_times": "Mo-Fr 16:00; Sa 11:00", "indoor": "yes", "note": "ON 12/24 AND 12/31, THIS BOX MAY BE COLLECTED AS EARLY AS 12 NOON.", "nsi_id": "unitedstatespostalservice-a77078", "operator": "United States Postal Service", "operator:short": "USPS", "operator:type": "public", "operator:wikidata": "Q668687", "ref": "4861200008"}, "type": "Feature"}
{"geometry": {"coordinates": [-84.2292740079, 43.2588770074], "type": "Point"}, "id": "lNCwqUCKVZcHMTHvJNOFFIUvLPY=", "properties": {"@source_uri": "https://tools.usps.com/UspsToolsRestServices/rest/POLocator/findLocations", "@spider": "usps_collection_boxes", "addr:city": "BRANT", "addr:country": "US", "addr:postcode": "48614", "addr:state": "MI", "addr:street_address": "11012 S. HEMLOCK RD", "amenity": "post_box", "collection_times": "Mo-Sa 10:00", "nsi_id": "unitedstatespostalservice-a77078", "operator": "United States Postal Service", "operator:short": "USPS", "operator:type": "public", "operator:wikidata": "Q668687", "ref": "4861400003"}, "type": "Feature"}
{"geometry": {"coordinates": [-84.47434, 43.408], "type": "Point"}, "id": "82qus5lIcPynYBUAHl9w7o5dlzE=", "properties": {"@source_uri": "https://tools.usps.com/UspsToolsRestServices/rest/POLocator/findLocations", "@spider": "usps_collection_boxes", "addr:city": "BRECKENRIDGE", "addr:country": "US", "addr:postcode": "48615", "addr:state": "MI", "addr:street_address": "307 E SAGINAW ST", "amenity": "post_box", "collection_times": "Mo-Fr 16:00; Sa 09:00", "note": "ON 12/24 AND 12/31, THIS BOX MAY BE COLLECTED AS EARLY AS 12 NOON.", "nsi_id": "unitedstatespostalservice-a77078", "operator": "United States Postal Service", "operator:short": "USPS", "operator:type": "public", "operator:wikidata": "Q668687", "ref": "4861500001"}, "type": "Feature"}
{"geometry": {"coordinates": [-84.476172, 43.408026], "type": "Point"}, "id": "lwFccZN1H7PQbN6RBCu4M5quP7A=", "properties": {"@source_uri": "https://tools.usps.com/UspsToolsRestServices/rest/POLocator/findLocations", "@spider": "usps_collection_boxes", "addr:city": "BRECKENRIDGE", "addr:country": "US", "addr:postcode": "48615", "addr:state": "MI", "addr:street_address": "307 E SAGINAW ST", "amenity": "post_box", "collection_times": "Mo-Fr 16:00; Sa 09:00", "indoor": "yes", "note": "ON 12/24 AND 12/31, THIS BOX MAY BE COLLECTED AS EARLY AS 12 NOON.", "nsi_id": "unitedstatespostalservice-a77078", "operator": "United States Postal Service", "operator:short": "USPS", "operator:type": "public", "operator:wikidata": "Q668687", "ref": "4861500002"}, "type": "Feature"}
{"geometry": {"coordinates": [-84.476163526, 43.408022489], "type": "Point"}, "id": "A_EfGKDomNW0PKyrdxCvKLp-WIM=", "properties": {"@source_uri": "https://tools.usps.com/UspsToolsRestServices/rest/POLocator/findLocations", "@spider": "usps_collection_boxes", "addr:city": "BRECKENRIDGE", "addr:country": "US", "addr:postcode": "48615", "addr:state": "MI", "addr:street_address": "307 E SAGINAW ST", "amenity": "post_box", "collection_times": "Mo-Fr 15:30; Sa 10:30", "indoor": "yes", "note": "ON 12/24 AND 12/31, THIS BOX MAY BE COLLECTED AS EARLY AS 12 NOON.", "nsi_id": "unitedstatespostalservice-a77078", "operator": "United States Postal Service", "operator:short": "USPS", "operator:type": "public", "operator:wikidata": "Q668687", "ref": "4861500005"}, "type": "Feature"}
{"geometry": {"coordinates": [-84.1162014, 43.185155], "type": "Point"}, "id": "9mGOSG-J-wm6D8AF0glfiYL_2zc=", "properties": {"@source_uri": "https://tools.usps.com/UspsToolsRestServices/rest/POLocator/findLocations", "@spider": "usps_collection_boxes", "addr:city": "CHESANING", "addr:country": "US", "addr:postcode": "48616", "addr:state": "MI", "addr:street_address": "150 W BROAD ST", "amenity": "post_box", "collection_times": "Mo-Fr 14:30; Sa 14:00", "note": "ON 12/24 AND 12/31, THIS BOX MAY BE COLLECTED AS EARLY AS 12 NOON.", "nsi_id": "unitedstatespostalservice-a77078", "operator": "United States Postal Service", "operator:short": "USPS", "operator:type": "public", "operator:wikidata": "Q668687", "ref": "4861600002"}, "type": "Feature"}
{"geometry": {"coordinates": [-84.114043, 43.184003], "type": "Point"}, "id": "JU1idVgDFRVL8pYM-Ncwg6e5kyA=", "properties": {"@source_uri": "https://tools.usps.com/UspsToolsRestServices/rest/POLocator/findLocations", "@spider": "usps_collection_boxes", "addr:city": "CHESANING", "addr:country": "US", "addr:postcode": "48616", "addr:state": "MI", "addr:street_address": "230 E BROAD ST", "amenity": "post_box", "collection_times": "Mo-Fr 16:30; Sa 15:00", "note": "ON 12/24 AND 12/31, THIS BOX MAY BE COLLECTED AS EARLY AS 12 NOON.", "nsi_id": "unitedstatespostalservice-a77078", "operator": "United States Postal Service", "operator:short": "USPS", "operator:type": "public", "operator:wikidata": "Q668687", "ref": "4861600004"}, "type": "Feature"}
{"geometry": {"coordinates": [-84.11399, 43.18401], "type": "Point"}, "id": "khXQRavyF7nNATYPlb2FTV7lBiw=", "properties": {"@source_uri": "https://tools.usps.com/UspsToolsRestServices/rest/POLocator/findLocations", "@spider": "usps_collection_boxes", "addr:city": "CHESANING", "addr:country": "US", "addr:postcode": "48616", "addr:state": "MI", "addr:street_address": "230 E BROAD ST", "amenity": "post_box", "collection_times": "Mo-Fr 16:30; Sa 15:00", "indoor": "yes", "note": "ON 12/24 AND 12/31, THIS BOX MAY BE COLLECTED AS EARLY AS 12 NOON.", "nsi_id": "unitedstatespostalservice-a77078", "operator": "United States Postal Service", "operator:short": "USPS", "operator:type": "public", "operator:wikidata": "Q668687", "ref": "4861600007"}, "type": "Feature"}
{"geometry": {"coordinates": [-84.113802225, 43.183815153], "type": "Point"}, "id": "y30mU2mnVtlt4r4swjlgoU15u-M=", "properties": {"@source_uri": "https://tools.usps.com/UspsToolsRestServices/rest/POLocator/findLocations", "@spider": "usps_collection_boxes", "addr:city": "CHESANING", "addr:country": "US", "addr:postcode": "48616", "addr:state": "MI", "addr:street_address": "230 E BROAD ST", "amenity": "post_box", "collection_times": "Mo-Fr 16:00; Sa 10:30", "indoor": "yes", "note": "ON 12/24 AND 12/31, THIS BOX MAY BE COLLECTED AS EARLY AS 12 NOON.", "nsi_id": "unitedstatespostalservice-a77078", "operator": "United States Postal Service", "operator:short": "USPS", "operator:type": "public", "operator:wikidata": "Q668687", "ref": "4861600008"}, "type": "Feature"}
{"geometry": {"coordinates": [-84.7672999, 43.825366], "type": "Point"}, "id": "yEJmtTV0t8u5sTLP-Xc2Nnjay1k=", "properties": {"@source_uri": "https://tools.usps.com/UspsToolsRestServices/rest/POLocator/findLocations", "@spider": "usps_collection_boxes", "addr:city": "CLARE", "addr:country": "US", "addr:postcode": "48617", "addr:state": "MI", "addr:street_address": "1026 N MCEWAN ST", "amenity": "post_box", "collection_times": "Mo-Sa 10:00", "nsi_id": "unitedstatespostalservice-a77078", "operator": "United States Postal Service", "operator:short": "USPS", "operator:type": "public", "operator:wikidata": "Q668687", "ref": "4861700003"}, "type": "Feature"}
{"geometry": {"coordinates": [-84.7688599, 43.826124], "type": "Point"}, "id": "5dmCn1vhL_edSROESUXly56qwFQ=", "properties": {"@source_uri": "https://tools.usps.com/UspsToolsRestServices/rest/POLocator/findLocations", "@spider": "usps_collection_boxes", "addr:city": "CLARE", "addr:country": "US", "addr:postcode": "48617", "addr:state": "MI", "addr:street_address": "1141 N MCEWAN ST", "amenity": "post_box", "collection_times": "Mo-Sa 10:30", "nsi_id": "unitedstatespostalservice-a77078", "operator": "United States Postal Service", "operator:short": "USPS", "operator:type": "public", "operator:wikidata": "Q668687", "ref": "4861700004"}, "type": "Feature"}
{"geometry": {"coordinates": [-84.7693566, 43.819475], "type": "Point"}, "id": "OgR1BIo_kCX_6CZnW9aUMybbC0M=", "properties": {"@source_uri": "https://tools.usps.com/UspsToolsRestServices/rest/POLocator/findLocations", "@spider": "usps_collection_boxes", "addr:city": "CLARE", "addr:country": "US", "addr:postcode": "48617", "addr:state": "MI", "addr:street_address": "111 W 5TH ST", "amenity": "post_box", "collection_times": "Mo-Fr 16:30; Sa 12:00", "indoor": "yes", "note": "ON 12/24 AND 12/31, THIS BOX MAY BE COLLECTED AS EARLY AS 12 NOON.", "nsi_id": "unitedstatespostalservice-a77078", "operator": "United States Postal Service", "operator:short": "USPS", "operator:type": "public", "operator:wikidata": "Q668687", "ref": "4861700008"}, "type": "Feature"}
{"geometry": {"coordinates": [-84.7696633, 43.819586], "type": "Point"}, "id": "YqWkoEpX5T-CcWRKgl7h8pczLT8=", "properties": {"@source_uri": "https://tools.usps.com/UspsToolsRestServices/rest/POLocator/findLocations", "@spider": "usps_collection_boxes", "addr:city": "CLARE", "addr:country": "US", "addr:postcode": "48617", "addr:state": "MI", "addr:street_address": "111 W 5TH ST", "amenity": "post_box", "collection_times": "Mo-Fr 16:30; Sa 12:00", "note": "ON 12/24 AND 12/31, THIS BOX MAY BE COLLECTED AS EARLY AS 12 NOON.", "nsi_id": "unitedstatespostalservice-a77078", "operator": "United States Postal Service", "operator:short": "USPS", "operator:type": "public", "operator:wikidata": "Q668687", "ref": "4861700010"}, "type": "Feature"}
{"geometry": {"coordinates": [-84.768625905, 43.819600596], "type": "Point"}, "id": "ZdAmmZ0J22ON4-681Ui9RT2Syfc=", "properties": {"@source_uri": "https://tools.usps.com/UspsToolsRestServices/rest/POLocator/findLocations", "@spider": "usps_collection_boxes", "addr:city": "CLARE", "addr:country": "US", "addr:postcode": "48617", "addr:state": "MI", "addr:street_address": "111 W 5TH ST", "amenity": "post_box", "collection_times": "Mo-Fr 16:00; Sa 11:30", "indoor": "yes", "note": "ON 12/24 AND 12/31, THIS BOX MAY BE COLLECTED AS EARLY AS 12 NOON.", "nsi_id": "unitedstatespostalservice-a77078", "operator": "United States Postal Service", "operator:short": "USPS", "operator:type": "public", "operator:wikidata": "Q668687", "ref": "4861700015"}, "type": "Feature"}
{"geometry": {"coordinates": [-84.584726, 43.75627], "type": "Point"}, "id": "i0bSNbqmE1aMfmRyCFjMtNoBimQ=", "properties": {"@source_uri": "https://tools.usps.com/UspsToolsRestServices/rest/POLocator/findLocations", "@spider": "usps_collection_boxes", "addr:city": "COLEMAN", "addr:country": "US", "addr:postcode": "48618", "addr:state": "MI", "addr:street_address": "109 N 3RD ST", "amenity": "post_box", "collection_times": "Mo-Fr 16:00; Sa 11:00", "note": "ON 12/24 AND 12/31, THIS BOX MAY BE COLLECTED AS EARLY AS 12 NOON.", "nsi_id": "unitedstatespostalservice-a77078", "operator": "United States Postal Service", "operator:short": "USPS", "operator:type": "public", "operator:wikidata": "Q668687", "ref": "4861800001"}, "type": "Feature"}
{"geometry": {"coordinates": [-84.584726, 43.75627], "type": "Point"}, "id": "zx9ZOKErQKcilGnowA4K6rPtLdY=", "properties": {"@source_uri": "https://tools.usps.com/UspsToolsRestServices/rest/POLocator/findLocations", "@spider": "usps_collection_boxes", "addr:city": "COLEMAN", "addr:country": "US", "addr:postcode": "48618", "addr:state": "MI", "addr:street_address": "109 N 3RD ST", "amenity": "post_box", "collection_times": "Mo-Fr 16:00; Sa 11:00", "indoor": "yes", "note": "ON 12/24 AND 12/31, THIS BOX MAY BE COLLECTED AS EARLY AS 12 NOON.", "nsi_id": "unitedstatespostalservice-a77078", "operator": "United States Postal Service", "operator:short": "USPS", "operator:type": "public", "operator:wikidata": "Q668687", "ref": "4861800003"}, "type": "Feature"}
{"geometry": {"coordinates": [-84.584694838, 43.756295196], "type": "Point"}, "id": "lrU5ufdVZ_JTB5gNoiH5bXXsWzE=", "properties": {"@source_uri": "https://tools.usps.com/UspsToolsRestServices/rest/POLocator/findLocations", "@spider": "usps_collection_boxes", "addr:city": "COLEMAN", "addr:country": "US", "addr:postcode": "48618", "addr:state": "MI", "addr:street_address": "109 N 3RD ST", "amenity": "post_box", "collection_times": "Mo-Fr 16:00; Sa 10:30", "indoor": "yes", "note": "ON 12/24 AND 12/31, THIS BOX MAY BE COLLECTED AS EARLY AS 12 NOON.", "nsi_id": "unitedstatespostalservice-a77078", "operator": "United States Postal Service", "operator:short": "USPS", "operator:type": "public", "operator:wikidata": "Q668687", "ref": "4861800004"}, "type": "Feature"}
{"geometry": {"coordinates": [-84.051237, 44.804868], "type": "Point"}, "id": "O_jzX5Jtpq2ZQQeLzUK9LvakR2g=", "properties": {"@source_uri": "https://tools.usps.com/UspsToolsRestServices/rest/POLocator/findLocations", "@spider": "usps_collection_boxes", "addr:city": "COMINS", "addr:country": "US", "addr:postcode": "48619", "addr:state": "MI", "addr:street_address": "4240 N ABBE RD", "amenity": "post_box", "collection_times": "Mo-Fr 14:45; Sa 09:30", "note": "ON 12/24 AND 12/31, THIS BOX MAY BE COLLECTED AS EARLY AS 12 NOON.", "nsi_id": "unitedstatespostalservice-a77078", "operator": "United States Postal Service", "operator:short": "USPS", "operator:type": "public", "operator:wikidata": "Q668687", "ref": "4861900001"}, "type": "Feature"}
{"geometry": {"coordinates": [-84.051237, 44.804868], "type": "Point"}, "id": "ndSChHCyiDnp0n9Doq3tf8Wx_K4=", "properties": {"@source_uri": "https://tools.usps.com/UspsToolsRestServices/rest/POLocator/findLocations", "@spider": "usps_collection_boxes", "addr:city": "COMINS", "addr:country": "US", "addr:postcode": "48619", "addr:state": "MI", "addr:street_address": "4240 N ABBE RD", "amenity": "post_box", "collection_times": "Mo-Fr 14:45; Sa 09:30", "indoor": "yes", "note": "ON 12/24 AND 12/31, THIS BOX MAY BE COLLECTED AS EARLY AS 12 NOON.", "nsi_id": "unitedstatespostalservice-a77078", "operator": "United States Postal Service", "operator:short": "USPS", "operator:type": "public", "operator:wikidata": "Q668687", "ref": "4861900002"}, "type": "Feature"}
{"geometry": {"coordinates": [-84.0512198424, 44.8048834795], "type": "Point"}, "id": "RGf6sOtD8N4AkkUKoA0fdwzE6xA=", "properties": {"@source_uri": "https://tools.usps.com/UspsToolsRestServices/rest/POLocator/findLocations", "@spider": "usps_collection_boxes", "addr:city": "COMINS", "addr:country": "US", "addr:postcode": "48619", "addr:state": "MI", "addr:street_address": "4240 N ABBE RD", "amenity": "post_box", "collection_times": "Mo-Fr 14:15; Sa 10:30", "indoor": "yes", "note": "ON 12/24 AND 12/31, THIS BOX MAY BE COLLECTED AS EARLY AS 12 NOON.", "nsi_id": "unitedstatespostalservice-a77078", "operator": "United States Postal Service", "operator:short": "USPS", "operator:type": "public", "operator:wikidata": "Q668687", "ref": "4861900003"}, "type": "Feature"}
{"geometry": {"coordinates": [-84.385371082, 43.805370512], "type": "Point"}, "id": "JO8rvepIIHBpUHnlhUWGPZO_qoM=", "properties": {"@source_uri": "https://tools.usps.com/UspsToolsRestServices/rest/POLocator/findLocations", "@spider": "usps_collection_boxes", "addr:city": "EDENVILLE", "addr:country": "US", "addr:postcode": "48620", "addr:state": "MI", "addr:street_address": "461 CEDAR DR", "amenity": "post_box", "collection_times": "Mo-Fr 15:40; Sa 11:00", "note": "ON 12/24 AND 12/31, THIS BOX MAY BE COLLECTED AS EARLY AS 12 NOON.", "nsi_id": "unitedstatespostalservice-a77078", "operator": "United States Postal Service", "operator:short": "USPS", "operator:type": "public", "operator:wikidata": "Q668687", "ref": "4862000001"}, "type": "Feature"}
{"geometry": {"coordinates": [-84.3853710824, 43.8053705118], "type": "Point"}, "id": "YmCztuFTUCKcNP7i8ddBvIk4aRA=", "properties": {"@source_uri": "https://tools.usps.com/UspsToolsRestServices/rest/POLocator/findLocations", "@spider": "usps_collection_boxes", "addr:city": "EDENVILLE", "addr:country": "US", "addr:postcode": "48620", "addr:state": "MI", "addr:street_address": "461 CEDAR DR", "amenity": "post_box", "collection_times": "Mo-Fr 15:40; Sa 11:00", "indoor": "yes", "note": "ON 12/24 AND 12/31, THIS BOX MAY BE COLLECTED AS EARLY AS 12 NOON.", "nsi_id": "unitedstatespostalservice-a77078", "operator": "United States Postal Service", "operator:short": "USPS", "operator:type": "public", "operator:wikidata": "Q668687", "ref": "4862000002"}, "type": "Feature"}
{"geometry": {"coordinates": [-84.3853710824, 43.8053705118], "type": "Point"}, "id": "SHpfX1F-eoDHfmExkC1-H25qD7E=", "properties": {"@source_uri": "https://tools.usps.com/UspsToolsRestServices/rest/POLocator/findLocations", "@spider": "usps_collection_boxes", "addr:city": "EDENVILLE", "addr:country": "US", "addr:postcode": "48620", "addr:state": "MI", "addr:street_address": "461 CEDAR DR", "amenity": "post_box", "collection_times": "Mo-Fr 15:00; Sa 10:30", "indoor": "yes", "note": "ON 12/24 AND 12/31, THIS BOX MAY BE COLLECTED AS EARLY AS 12 NOON.", "nsi_id": "unitedstatespostalservice-a77078", "operator": "United States Postal Service", "operator:short": "USPS", "operator:type": "public", "operator:wikidata": "Q668687", "ref": "4862000003"}, "type": "Feature"}
{"geometry": {"coordinates": [-84.050619, 44.725808], "type": "Point"}, "id": "g9FXjrmNEwY4pqk0yH6I8dBrOR8=", "properties": {"@source_uri": "https://tools.usps.com/UspsToolsRestServices/rest/POLocator/findLocations", "@spider": "usps_collection_boxes", "addr:city": "FAIRVIEW", "addr:country": "US", "addr:postcode": "48621", "addr:state": "MI", "addr:street_address": "1531 N ABBE RD", "amenity": "post_box", "collection_times": "Mo-Fr 14:55; Sa 09:30", "note": "ON 12/24 AND 12/31, THIS BOX MAY BE COLLECTED AS EARLY AS 12 NOON.", "nsi_id": "unitedstatespostalservice-a77078", "operator": "United States Postal Service", "operator:short": "USPS", "operator:type": "public", "operator:wikidata": "Q668687", "ref": "4862100001"}, "type": "Feature"}
{"geometry": {"coordinates": [-84.050619, 44.725808], "type": "Point"}, "id": "ovyIHThnHY3qs30_uSvsH7lAme8=", "properties": {"@source_uri": "https://tools.usps.com/UspsToolsRestServices/rest/POLocator/findLocations", "@spider": "usps_collection_boxes", "addr:city": "FAIRVIEW", "addr:country": "US", "addr:postcode": "48621", "addr:state": "MI", "addr:street_address": "1531 N ABBE RD", "amenity": "post_box", "collection_times": "Mo-Fr 14:55; Sa 09:30", "indoor": "yes", "note": "ON 12/24 AND 12/31, THIS BOX MAY BE COLLECTED AS EARLY AS 12 NOON.", "nsi_id": "unitedstatespostalservice-a77078", "operator": "United States Postal Service", "operator:short": "USPS", "operator:type": "public", "operator:wikidata": "Q668687", "ref": "4862100002"}, "type": "Feature"}
{"geometry": {"coordinates": [-84.0506422, 44.725801577], "type": "Point"}, "id": "HH4R3NfFRiNrd30TfsG7JTEjiWc=", "properties": {"@source_uri": "https://tools.usps.com/UspsToolsRestServices/rest/POLocator/findLocations", "@spider": "usps_collection_boxes", "addr:city": "FAIRVIEW", "addr:country": "US", "addr:postcode": "48621", "addr:state": "MI", "addr:street_address": "1531 N ABBE RD", "amenity": "post_box", "collection_times": "Mo-Fr 14:30; Sa 09:30", "indoor": "yes", "note": "ON 12/24 AND 12/31, THIS BOX MAY BE COLLECTED AS EARLY AS 12 NOON.", "nsi_id": "unitedstatespostalservice-a77078", "operator": "United States Postal Service", "operator:short": "USPS", "operator:type": "public", "operator:wikidata": "Q668687", "ref": "4862100003"}, "type": "Feature"}
{"geometry": {"coordinates": [-84.868993, 43.835282], "type": "Point"}, "id": "l52jBFilvMXHLUFgUS2D0UHzds4=", "properties": {"@source_uri": "https://tools.usps.com/UspsToolsRestServices/rest/POLocator/findLocations", "@spider": "usps_collection_boxes", "addr:city": "FARWELL", "addr:country": "US", "addr:postcode": "48622", "addr:state": "MI", "addr:street_address": "254 W MAIN ST", "amenity": "post_box", "collection_times": "Mo-Fr 16:15; Sa 11:30", "note": "ON 12/24 AND 12/31, THIS BOX MAY BE COLLECTED AS EARLY AS 12 NOON.", "nsi_id": "unitedstatespostalservice-a77078", "operator": "United States Postal Service", "operator:short": "USPS", "operator:type": "public", "operator:wikidata": "Q668687", "ref": "4862200003"}, "type": "Feature"}
{"geometry": {"coordinates": [-84.868993, 43.835282], "type": "Point"}, "id": "YNUcPSzE65Jz9HizGPZZ5DV0WQo=", "properties": {"@source_uri": "https://tools.usps.com/UspsToolsRestServices/rest/POLocator/findLocations", "@spider": "usps_collection_boxes", "addr:city": "FARWELL", "addr:country": "US", "addr:postcode": "48622", "addr:state": "MI", "addr:street_address": "254 W MAIN ST", "amenity": "post_box", "collection_times": "Mo-Fr 16:15; Sa 11:30", "indoor": "yes", "note": "ON 12/24 AND 12/31, THIS BOX MAY BE COLLECTED AS EARLY AS 12 NOON.", "nsi_id": "unitedstatespostalservice-a77078", "operator": "United States Postal Service", "operator:short": "USPS", "operator:type": "public", "operator:wikidata": "Q668687", "ref": "4862200004"}, "type": "Feature"}
{"geometry": {"coordinates": [-84.869000456, 43.835324643], "type": "Point"}, "id": "yTZjHB_fuwdZAs8CUa-lOEPa0iA=", "properties": {"@source_uri": "https://tools.usps.com/UspsToolsRestServices/rest/POLocator/findLocations", "@spider": "usps_collection_boxes", "addr:city": "FARWELL", "addr:country": "US", "addr:postcode": "48622", "addr:state": "MI", "addr:street_address": "254 W MAIN ST", "amenity": "post_box", "collection_times": "Mo-Fr 15:30; Sa 11:00", "indoor": "yes", "note": "ON 12/24 AND 12/31, THIS BOX MAY BE COLLECTED AS EARLY AS 12 NOON.", "nsi_id": "unitedstatespostalservice-a77078", "operator": "United States Postal Service", "operator:short": "USPS", "operator:type": "public", "operator:wikidata": "Q668687", "ref": "4862200005"}, "type": "Feature"}
{"geometry": {"coordinates": [-84.120971725, 43.520519732], "type": "Point"}, "id": "8cHCdZhUZ-soAMx6ToZpFKASVCE=", "properties": {"@source_uri": "https://tools.usps.com/UspsToolsRestServices/rest/POLocator/findLocations", "@spider": "usps_collection_boxes", "addr:city": "FREELAND", "addr:country": "US", "addr:postcode": "48623", "addr:state": "MI", "addr:street_address": "7736 MIDLAND RD STE 3", "amenity": "post_box", "collection_times": "Mo-Fr 16:30; Sa 12:00", "note": "ON 12/24 AND 12/31, THIS BOX MAY BE COLLECTED AS EARLY AS 12 NOON.", "nsi_id": "unitedstatespostalservice-a77078", "operator": "United States Postal Service", "operator:short": "USPS", "operator:type": "public", "operator:wikidata": "Q668687", "ref": "4862300001"}, "type": "Feature"}
{"geometry": {"coordinates": [-84.120971725, 43.520519732], "type": "Point"}, "id": "uWHLJZYb_G6-5xfvtkUo617_Q1o=", "properties": {"@source_uri": "https://tools.usps.com/UspsToolsRestServices/rest/POLocator/findLocations", "@spider": "usps_collection_boxes", "addr:city": "FREELAND", "addr:country": "US", "addr:postcode": "48623", "addr:state": "MI", "addr:street_address": "7736 MIDLAND RD STE 3", "amenity": "post_box", "collection_times": "Mo-Fr 17:00; Sa 12:00", "indoor": "yes", "note": "ON 12/24 AND 12/31, THIS BOX MAY BE COLLECTED AS EARLY AS 12 NOON.", "nsi_id": "unitedstatespostalservice-a77078", "operator": "United States Postal Service", "operator:short": "USPS", "operator:type": "public", "operator:wikidata": "Q668687", "ref": "4862300004"}, "type": "Feature"}
{"geometry": {"coordinates": [-84.1200699, 43.519606], "type": "Point"}, "id": "Ft297H0oGbdZ0hpPMsRDJjVSOEE=", "properties": {"@source_uri": "https://tools.usps.com/UspsToolsRestServices/rest/POLocator/findLocations", "@spider": "usps_collection_boxes", "addr:city": "FREELAND", "addr:country": "US", "addr:postcode": "48623", "addr:state": "MI", "addr:street_address": "7620 MIDLAND RD", "amenity": "post_box", "collection_times": "Mo-Sa 10:00", "nsi_id": "unitedstatespostalservice-a77078", "operator": "United States Postal Service", "operator:short": "USPS", "operator:type": "public", "operator:wikidata": "Q668687", "ref": "4862300005"}, "type": "Feature"}
{"geometry": {"coordinates": [-84.120971725, 43.520519732], "type": "Point"}, "id": "8391W1A2YH1j4UIXok0OIqcXVUc=", "properties": {"@source_uri": "https://tools.usps.com/UspsToolsRestServices/rest/POLocator/findLocations", "@spider": "usps_collection_boxes", "addr:city": "FREELAND", "addr:country": "US", "addr:postcode": "48623", "addr:state": "MI", "addr:street_address": "7736 MIDLAND RD STE 3", "amenity": "post_box", "collection_times": "Mo-Fr 16:30; Sa 11:30", "indoor": "yes", "note": "ON 12/24 AND 12/31, THIS BOX MAY BE COLLECTED AS EARLY AS 12 NOON.", "nsi_id": "unitedstatespostalservice-a77078", "operator": "United States Postal Service", "operator:short": "USPS", "operator:type": "public", "operator:wikidata": "Q668687", "ref": "4862300006"}, "type": "Feature"}
{"geometry": {"coordinates": [-84.49044, 43.98349], "type": "Point"}, "id": "4LtIVqGEuMP9XYI5PSFONkMhM4s=", "properties": {"@source_uri": "https://tools.usps.com/UspsToolsRestServices/rest/POLocator/findLocations", "@spider": "usps_collection_boxes", "addr:city": "GLADWIN", "addr:country": "US", "addr:postcode": "48624", "addr:state": "MI", "addr:street_address": "27 E M 61", "amenity": "post_box", "collection_times": "Mo-Sa 11:00", "nsi_id": "unitedstatespostalservice-a77078", "operator": "United States Postal Service", "operator:short": "USPS", "operator:type": "public", "operator:wikidata": "Q668687", "ref": "4862400001"}, "type": "Feature"}
{"geometry": {"coordinates": [-84.4852534, 43.989778], "type": "Point"}, "id": "d8I5TiSf52ZpQ2F4rjHDQSr6w5U=", "properties": {"@source_uri": "https://tools.usps.com/UspsToolsRestServices/rest/POLocator/findLocations", "@spider": "usps_collection_boxes", "addr:city": "GLADWIN", "addr:country": "US", "addr:postcode": "48624", "addr:state": "MI", "addr:street_address": "1204 N STATE ST", "amenity": "post_box", "collection_times": "Mo-Sa 11:00", "nsi_id": "unitedstatespostalservice-a77078", "operator": "United States Postal Service", "operator:short": "USPS", "operator:type": "public", "operator:wikidata": "Q668687", "ref": "4862400002"}, "type": "Feature"}
{"geometry": {"coordinates": [-84.4901956, 43.981469], "type": "Point"}, "id": "Z39N0f2xylXgL9s5vF-KeFcKv3w=", "properties": {"@source_uri": "https://tools.usps.com/UspsToolsRestServices/rest/POLocator/findLocations", "@spider": "usps_collection_boxes", "addr:city": "GLADWIN", "addr:country": "US", "addr:postcode": "48624", "addr:state": "MI", "addr:street_address": "140 N BOWERY AVE", "amenity": "post_box", "collection_times": "Mo-Fr 16:10; Sa 15:00", "indoor": "yes", "note": "ON 12/24 AND 12/31, THIS BOX MAY BE COLLECTED AS EARLY AS 12 NOON.", "nsi_id": "unitedstatespostalservice-a77078", "operator": "United States Postal Service", "operator:short": "USPS", "operator:type": "public", "operator:wikidata": "Q668687", "ref": "4862400013"}, "type": "Feature"}
{"geometry": {"coordinates": [-84.4898044, 43.981518], "type": "Point"}, "id": "cWejhK3JfQYt69onq4i9g7T7B3U=", "properties": {"@source_uri": "https://tools.usps.com/UspsToolsRestServices/rest/POLocator/findLocations", "@spider": "usps_collection_boxes", "addr:city": "GLADWIN", "addr:country": "US", "addr:postcode": "48624", "addr:state": "MI", "addr:street_address": "140 N BOWERY AVE", "amenity": "post_box", "collection_times": "Mo-Fr 16:10; Sa 15:00", "note": "ON 12/24 AND 12/31, THIS BOX MAY BE COLLECTED AS EARLY AS 12 NOON.", "nsi_id": "unitedstatespostalservice-a77078", "operator": "United States Postal Service", "operator:short": "USPS", "operator:type": "public", "operator:wikidata": "Q668687", "ref": "4862400014"}, "type": "Feature"}
{"geometry": {"coordinates": [-84.490444328, 43.981434136], "type": "Point"}, "id": "HI8CITDgJymU6Jhpd2j2-BaMB2A=", "properties": {"@source_uri": "https://tools.usps.com/UspsToolsRestServices/rest/POLocator/findLocations", "@spider": "usps_collection_boxes", "addr:city": "GLADWIN", "addr:country": "US", "addr:postcode": "48624", "addr:state": "MI", "addr:street_address": "140 N BOWERY AVE", "amenity": "post_box", "collection_times": "Mo-Fr 16:30; Sa 11:30", "indoor": "yes", "note": "ON 12/24 AND 12/31, THIS BOX MAY BE COLLECTED AS EARLY AS 12 NOON.", "nsi_id": "unitedstatespostalservice-a77078", "operator": "United States Postal Service", "operator:short": "USPS", "operator:type": "public", "operator:wikidata": "Q668687", "ref": "4862400015"}, "type": "Feature"}
{"geometry": {"coordinates": [-84.79944, 44.018872], "type": "Point"}, "id": "cUlwWx-xjA-aIO-v6iHIziGyaDo=", "properties": {"@source_uri": "https://tools.usps.com/UspsToolsRestServices/rest/POLocator/findLocations", "@spider": "usps_collection_boxes", "addr:city": "HARRISON", "addr:country": "US", "addr:postcode": "48625", "addr:state": "MI", "addr:street_address": "191 S 1ST ST", "amenity": "post_box", "collection_times": "Mo-Sa 16:25", "note": "ON 12/24 AND 12/31, THIS BOX MAY BE COLLECTED AS EARLY AS 12 NOON.", "nsi_id": "unitedstatespostalservice-a77078", "operator": "United States Postal Service", "operator:short": "USPS", "operator:type": "public", "operator:wikidata": "Q668687", "ref": "4862500001"}, "type": "Feature"}
{"geometry": {"coordinates": [-84.79944, 44.018872], "type": "Point"}, "id": "WlVK6TtH0gy8pK99zBUgPTgsIPk=", "properties": {"@source_uri": "https://tools.usps.com/UspsToolsRestServices/rest/POLocator/findLocations", "@spider": "usps_collection_boxes", "addr:city": "HARRISON", "addr:country": "US", "addr:postcode": "48625", "addr:state": "MI", "addr:street_address": "191 S 1ST ST", "amenity": "post_box", "collection_times": "Mo-Sa 16:25", "note": "ON 12/24 AND 12/31, THIS BOX MAY BE COLLECTED AS EARLY AS 12 NOON.", "nsi_id": "unitedstatespostalservice-a77078", "operator": "United States Postal Service", "operator:short": "USPS", "operator:type": "public", "operator:wikidata": "Q668687", "ref": "4862500002"}, "type": "Feature"}
{"geometry": {"coordinates": [-84.7922937, 44.011315], "type": "Point"}, "id": "ovbc9cvTZ5rFi6eNvXkL1e7UHsM=", "properties": {"@source_uri": "https://tools.usps.com/UspsToolsRestServices/rest/POLocator/findLocations", "@spider": "usps_collection_boxes", "addr:city": "HARRISON", "addr:country": "US", "addr:postcode": "48625", "addr:state": "MI", "addr:street_address": "1570 S CLARE AVE", "amenity": "post_box", "collection_times": "Mo-Sa 12:00", "nsi_id": "unitedstatespostalservice-a77078", "operator": "United States Postal Service", "operator:short": "USPS", "operator:type": "public", "operator:wikidata": "Q668687", "ref": "4862500003"}, "type": "Feature"}
{"geometry": {"coordinates": [-84.79944, 44.018872], "type": "Point"}, "id": "h2rYXwolePIASHIVYrMtOzdgqkw=", "properties": {"@source_uri": "https://tools.usps.com/UspsToolsRestServices/rest/POLocator/findLocations", "@spider": "usps_collection_boxes", "addr:city": "HARRISON", "addr:country": "US", "addr:postcode": "48625", "addr:state": "MI", "addr:street_address": "191 S 1ST ST", "amenity": "post_box", "collection_times": "Mo-Sa 16:25", "indoor": "yes", "note": "ON 12/24 AND 12/31, THIS BOX MAY BE COLLECTED AS EARLY AS 12 NOON.", "nsi_id": "unitedstatespostalservice-a77078", "operator": "United States Postal Service", "operator:short": "USPS", "operator:type": "public", "operator:wikidata": "Q668687", "ref": "4862500005"}, "type": "Feature"}
{"geometry": {"coordinates": [-84.883642897, 44.117671748], "type": "Point"}, "id": "RKMPgyisk7Fy1qhbdAYbb3cqNE0=", "properties": {"@source_uri": "https://tools.usps.com/UspsToolsRestServices/rest/POLocator/findLocations", "@spider": "usps_collection_boxes", "addr:city": "HARRISON", "addr:country": "US", "addr:postcode": "48625", "addr:state": "MI", "addr:street_address": "9971 N FINLEY LAKE AVE", "amenity": "post_box", "collection_times": "Mo-Sa 12:00", "nsi_id": "unitedstatespostalservice-a77078", "operator": "United States Postal Service", "operator:short": "USPS", "operator:type": "public", "operator:wikidata": "Q668687", "ref": "4862500007"}, "type": "Feature"}
{"geometry": {"coordinates": [-84.799423162, 44.018835467], "type": "Point"}, "id": "QJC2t07NKhAEJaegAvnZc8nEUxE=", "properties": {"@source_uri": "https://tools.usps.com/UspsToolsRestServices/rest/POLocator/findLocations", "@spider": "usps_collection_boxes", "addr:city": "HARRISON", "addr:country": "US", "addr:postcode": "48625", "addr:state": "MI", "addr:street_address": "191 S 1ST ST", "amenity": "post_box", "collection_times": "Mo-Fr 16:00; Sa 11:30", "indoor": "yes", "note": "ON 12/24 AND 12/31, THIS BOX MAY BE COLLECTED AS EARLY AS 12 NOON.", "nsi_id": "unitedstatespostalservice-a77078", "operator": "United States Postal Service", "operator:short": "USPS", "operator:type": "public", "operator:wikidata": "Q668687", "ref": "4862500008"}, "type": "Feature"}
{"geometry": {"coordinates": [-84.229637, 43.413386], "type": "Point"}, "id": "SJxd3cGTLK5dEQTHMm6roHtMGR8=", "properties": {"@source_uri": "https://tools.usps.com/UspsToolsRestServices/rest/POLocator/findLocations", "@spider": "usps_collection_boxes", "addr:city": "HEMLOCK", "addr:country": "US", "addr:postcode": "48626", "addr:state": "MI", "addr:street_address": "215 S HEMLOCK RD", "amenity": "post_box", "collection_times": "Mo-Fr 15:45; Sa 09:00", "indoor": "yes", "note": "ON 12/24 AND 12/31, THIS BOX MAY BE COLLECTED AS EARLY AS 12 NOON.", "nsi_id": "unitedstatespostalservice-a77078", "operator": "United States Postal Service", "operator:short": "USPS", "operator:type": "public", "operator:wikidata": "Q668687", "ref": "4862600002"}, "type": "Feature"}
{"geometry": {"coordinates": [-84.229637, 43.413386], "type": "Point"}, "id": "nC2Zuvht6qU40gZZQi-EPg7x4eM=", "properties": {"@source_uri": "https://tools.usps.com/UspsToolsRestServices/rest/POLocator/findLocations", "@spider": "usps_collection_boxes", "addr:city": "HEMLOCK", "addr:country": "US", "addr:postcode": "48626", "addr:state": "MI", "addr:street_address": "215 S HEMLOCK RD", "amenity": "post_box", "collection_times": "Mo-Fr 15:45; Sa 09:00", "note": "ON 12/24 AND 12/31, THIS BOX MAY BE COLLECTED AS EARLY AS 12 NOON.", "nsi_id": "unitedstatespostalservice-a77078", "operator": "United States Postal Service", "operator:short": "USPS", "operator:type": "public", "operator:wikidata": "Q668687", "ref": "4862600003"}, "type": "Feature"}
{"geometry": {"coordinates": [-84.2296224699, 43.4133984601], "type": "Point"}, "id": "bTuCcHOtIz15jgZrgyEMaj2sFMo=", "properties": {"@source_uri": "https://tools.usps.com/UspsToolsRestServices/rest/POLocator/findLocations", "@spider": "usps_collection_boxes", "addr:city": "HEMLOCK", "addr:country": "US", "addr:postcode": "48626", "addr:state": "MI", "addr:street_address": "215 S HEMLOCK RD", "amenity": "post_box", "collection_times": "Mo-Fr 16:00", "indoor": "yes", "note": "ON 12/24 AND 12/31, THIS BOX MAY BE COLLECTED AS EARLY AS 12 NOON.", "nsi_id": "unitedstatespostalservice-a77078", "operator": "United States Postal Service", "operator:short": "USPS", "operator:type": "public", "operator:wikidata": "Q668687", "ref": "4862600004"}, "type": "Feature"}
{"geometry": {"coordinates": [-84.778378, 44.490949], "type": "Point"}, "id": "LsFGE9H6ajhoFbCBHyJ2ojANv1I=", "properties": {"@source_uri": "https://tools.usps.com/UspsToolsRestServices/rest/POLocator/findLocations", "@spider": "usps_collection_boxes", "addr:city": "HIGGINS LAKE", "addr:country": "US", "addr:postcode": "48627", "addr:state": "MI", "addr:street_address": "6311 W HIGGINS LAKE DR", "amenity": "post_box", "collection_times": "Mo-Fr 14:35; Sa 11:00", "note": "ON 12/24 AND 12/31, THIS BOX MAY BE COLLECTED AS EARLY AS 12 NOON.", "nsi_id": "unitedstatespostalservice-a77078", "operator": "United States Postal Service", "operator:short": "USPS", "operator:type": "public", "operator:wikidata": "Q668687", "ref": "4862700002"}, "type": "Feature"}
{"geometry": {"coordinates": [-84.778341, 44.490949], "type": "Point"}, "id": "LmjcH-uF3hIXnitnOIiX5Xg7_IE=", "properties": {"@source_uri": "https://tools.usps.com/UspsToolsRestServices/rest/POLocator/findLocations", "@spider": "usps_collection_boxes", "addr:city": "HIGGINS LAKE", "addr:country": "US", "addr:postcode": "48627", "addr:state": "MI", "addr:street_address": "6311 W HIGGINS LAKE DR", "amenity": "post_box", "collection_times": "Mo-Fr 14:35; Sa 11:00", "indoor": "yes", "note": "ON 12/24 AND 12/31, THIS BOX MAY BE COLLECTED AS EARLY AS 12 NOON.", "nsi_id": "unitedstatespostalservice-a77078", "operator": "United States Postal Service", "operator:short": "USPS", "operator:type": "public", "operator:wikidata": "Q668687", "ref": "4862700003"}, "type": "Feature"}
{"geometry": {"coordinates": [-84.7791190952, 44.4883694297], "type": "Point"}, "id": "GhMz-zPvofIuTxC7mfz6kXQLlLg=", "properties": {"@source_uri": "https://tools.usps.com/UspsToolsRestServices/rest/POLocator/findLocations", "@spider": "usps_collection_boxes", "addr:city": "HIGGINS LAKE", "addr:country": "US", "addr:postcode": "48627", "addr:state": "MI", "addr:street_address": "6311 W HIGGINS LAKE DR", "amenity": "post_box", "collection_times": "Mo-Fr 14:00; Sa 10:30", "indoor": "yes", "note": "ON 12/24 AND 12/31, THIS BOX MAY BE COLLECTED AS EARLY AS 12 NOON.", "nsi_id": "unitedstatespostalservice-a77078", "operator": "United States Postal Service", "operator:short": "USPS", "operator:type": "public", "operator:wikidata": "Q668687", "ref": "4862700004"}, "type": "Feature"}
{"geometry": {"coordinates": [-84.338713, 43.763258], "type": "Point"}, "id": "JKiwJ0dNpN8_nTceMlMFK3KiTYE=", "properties": {"@source_uri": "https://tools.usps.com/UspsToolsRestServices/rest/POLocator/findLocations", "@spider": "usps_collection_boxes", "addr:city": "HOPE", "addr:country": "US", "addr:postcode": "48628", "addr:state": "MI", "addr:street_address": "5230 N HOPE RD", "amenity": "post_box", "collection_times": "Mo-Fr 15:25; Sa 13:00", "note": "ON 12/24 AND 12/31, THIS BOX MAY BE COLLECTED AS EARLY AS 12 NOON.", "nsi_id": "unitedstatespostalservice-a77078", "operator": "United States Postal Service", "operator:short": "USPS", "operator:type": "public", "operator:wikidata": "Q668687", "ref": "4862800001"}, "type": "Feature"}
{"geometry": {"coordinates": [-84.3384759, 43.763318], "type": "Point"}, "id": "v2aePZ640fhxGcoDHdJC8wrzHCs=", "properties": {"@source_uri": "https://tools.usps.com/UspsToolsRestServices/rest/POLocator/findLocations", "@spider": "usps_collection_boxes", "addr:city": "HOPE", "addr:country": "US", "addr:postcode": "48628", "addr:state": "MI", "addr:street_address": "5230 N HOPE RD", "amenity": "post_box", "collection_times": "Mo-Fr 15:25; Sa 13:00", "indoor": "yes", "note": "ON 12/24 AND 12/31, THIS BOX MAY BE COLLECTED AS EARLY AS 12 NOON.", "nsi_id": "unitedstatespostalservice-a77078", "operator": "United States Postal Service", "operator:short": "USPS", "operator:type": "public", "operator:wikidata": "Q668687", "ref": "4862800002"}, "type": "Feature"}
{"geometry": {"coordinates": [-84.3387155072, 43.7632562201], "type": "Point"}, "id": "wXAj2AWkWGpOB5acKgUCfO6xI5s=", "properties": {"@source_uri": "https://tools.usps.com/UspsToolsRestServices/rest/POLocator/findLocations", "@spider": "usps_collection_boxes", "addr:city": "HOPE", "addr:country": "US", "addr:postcode": "48628", "addr:state": "MI", "addr:street_address": "5230 N HOPE RD", "amenity": "post_box", "collection_times": "Mo-Fr 14:30; Sa 09:30", "indoor": "yes", "note": "ON 12/24 AND 12/31, THIS BOX MAY BE COLLECTED AS EARLY AS 12 NOON.", "nsi_id": "unitedstatespostalservice-a77078", "operator": "United States Postal Service", "operator:short": "USPS", "operator:type": "public", "operator:wikidata": "Q668687", "ref": "4862800003"}, "type": "Feature"}
{"geometry": {"coordinates": [-84.753048, 44.290844], "type": "Point"}, "id": "0L1GBth-FxH_vISEOoBjjRTLwDc=", "properties": {"@source_uri": "https://tools.usps.com/UspsToolsRestServices/rest/POLocator/findLocations", "@spider": "usps_collection_boxes", "addr:city": "HOUGHTON LAKE", "addr:country": "US", "addr:postcode": "48629", "addr:state": "MI", "addr:street_address": "2255 TOWER HILL RD", "amenity": "post_box", "collection_times": "Mo-Fr 15:05; Sa 12:00", "note": "ON 12/24 AND 12/31, THIS BOX MAY BE COLLECTED AS EARLY AS 12 NOON.", "nsi_id": "unitedstatespostalservice-a77078", "operator": "United States Postal Service", "operator:short": "USPS", "operator:type": "public", "operator:wikidata": "Q668687", "ref": "4862900001"}, "type": "Feature"}
{"geometry": {"coordinates": [-84.7840499, 44.32818], "type": "Point"}, "id": "hNNIqMZWVWTG95mv71Is7Dk2EbY=", "properties": {"@source_uri": "https://tools.usps.com/UspsToolsRestServices/rest/POLocator/findLocations", "@spider": "usps_collection_boxes", "addr:city": "HOUGHTON LAKE", "addr:country": "US", "addr:postcode": "48629", "addr:state": "MI", "addr:street_address": "8135 W HOUGHTON LAKE DR", "amenity": "post_box", "collection_times": "Mo-Sa 10:30", "nsi_id": "unitedstatespostalservice-a77078", "operator": "United States Postal Service", "operator:short": "USPS", "operator:type": "public", "operator:wikidata": "Q668687", "ref": "4862900002"}, "type": "Feature"}
{"geometry": {"coordinates": [-84.7111833, 44.297381], "type": "Point"}, "id": "a8IebVzPRdaEYd86RYLeet1Fw28=", "properties": {"@source_uri": "https://tools.usps.com/UspsToolsRestServices/rest/POLocator/findLocations", "@spider": "usps_collection_boxes", "addr:city": "HOUGHTON LAKE", "addr:country": "US", "addr:postcode": "48629", "addr:state": "MI", "addr:street_address": "3561 W HOUGHTON LAKE DR", "amenity": "post_box", "collection_times": "Mo-Sa 11:30", "nsi_id": "unitedstatespostalservice-a77078", "operator": "United States Postal Service", "operator:short": "USPS", "operator:type": "public", "operator:wikidata": "Q668687", "ref": "4862900003"}, "type": "Feature"}
{"geometry": {"coordinates": [-84.753089, 44.290917], "type": "Point"}, "id": "GsjP8zJlXU1s_CxhEMBFHtlIMec=", "properties": {"@source_uri": "https://tools.usps.com/UspsToolsRestServices/rest/POLocator/findLocations", "@spider": "usps_collection_boxes", "addr:city": "HOUGHTON LAKE", "addr:country": "US", "addr:postcode": "48629", "addr:state": "MI", "addr:street_address": "2255 TOWER HILL RD", "amenity": "post_box", "collection_times": "Mo-Fr 15:05; Sa 12:00", "indoor": "yes", "note": "ON 12/24 AND 12/31, THIS BOX MAY BE COLLECTED AS EARLY AS 12 NOON.", "nsi_id": "unitedstatespostalservice-a77078", "operator": "United States Postal Service", "operator:short": "USPS", "operator:type": "public", "operator:wikidata": "Q668687", "ref": "4862900004"}, "type": "Feature"}
{"geometry": {"coordinates": [-84.7304927, 44.298611], "type": "Point"}, "id": "uBQGi515g459xGc84gxXrfvvgs0=", "properties": {"@source_uri": "https://tools.usps.com/UspsToolsRestServices/rest/POLocator/findLocations", "@spider": "usps_collection_boxes", "addr:city": "HOUGHTON LAKE", "addr:country": "US", "addr:postcode": "48629", "addr:state": "MI", "addr:street_address": "4562 W HOUGHTON LAKE DR", "amenity": "post_box", "collection_times": "Mo-Sa 11:30", "nsi_id": "unitedstatespostalservice-a77078", "operator": "United States Postal Service", "operator:short": "USPS", "operator:type": "public", "operator:wikidata": "Q668687", "ref": "4862900006"}, "type": "Feature"}
{"geometry": {"coordinates": [-84.6800807, 44.296541], "type": "Point"}, "id": "gebPzVTcAd12fcPzH6YrjB3fv7w=", "properties": {"@source_uri": "https://tools.usps.com/UspsToolsRestServices/rest/POLocator/findLocations", "@spider": "usps_collection_boxes", "addr:city": "HOUGHTON LAKE", "addr:country": "US", "addr:postcode": "48629", "addr:state": "MI", "addr:street_address": "2129 W HOUGHTON LAKE DR", "amenity": "post_box", "collection_times": "Mo-Sa 11:00", "nsi_id": "unitedstatespostalservice-a77078", "operator": "United States Postal Service", "operator:short": "USPS", "operator:type": "public", "operator:wikidata": "Q668687", "ref": "4862900007"}, "type": "Feature"}
{"geometry": {"coordinates": [-84.753333124, 44.301887445], "type": "Point"}, "id": "3J2beq536C4FgP6Fps_36-4k914=", "properties": {"@source_uri": "https://tools.usps.com/UspsToolsRestServices/rest/POLocator/findLocations", "@spider": "usps_collection_boxes", "addr:city": "HOUGHTON LAKE", "addr:country": "US", "addr:postcode": "48629", "addr:state": "MI", "addr:street_address": "2255 TOWER HILL RD", "amenity": "post_box", "collection_times": "Mo-Fr 15:00; Sa 11:30", "indoor": "yes", "note": "ON 12/24 AND 12/31, THIS BOX MAY BE COLLECTED AS EARLY AS 12 NOON.", "nsi_id": "unitedstatespostalservice-a77078", "operator": "United States Postal Service", "operator:short": "USPS", "operator:type": "public", "operator:wikidata": "Q668687", "ref": "4862900008"}, "type": "Feature"}
{"geometry": {"coordinates": [-84.772199, 44.327837], "type": "Point"}, "id": "TsicYKCSaI_Ez1nOwQF6CbiqcaQ=", "properties": {"@source_uri": "https://tools.usps.com/UspsToolsRestServices/rest/POLocator/findLocations", "@spider": "usps_collection_boxes", "addr:city": "HOUGHTON LAKE", "addr:country": "US", "addr:postcode": "48630", "addr:state": "MI", "addr:street_address": "1641 HEIGHTSVIEW DR", "amenity": "post_box", "collection_times": "Mo-Fr 14:55; Sa 10:00", "note": "ON 12/24 AND 12/31, THIS BOX MAY BE COLLECTED AS EARLY AS 12 NOON.", "nsi_id": "unitedstatespostalservice-a77078", "operator": "United States Postal Service", "operator:short": "USPS", "operator:type": "public", "operator:wikidata": "Q668687", "ref": "4863000001"}, "type": "Feature"}
{"geometry": {"coordinates": [-84.772199, 44.327837], "type": "Point"}, "id": "k2S8E6DzE8KBlVXwZtfBq1gh_T8=", "properties": {"@source_uri": "https://tools.usps.com/UspsToolsRestServices/rest/POLocator/findLocations", "@spider": "usps_collection_boxes", "addr:city": "HOUGHTON LAKE", "addr:country": "US", "addr:postcode": "48630", "addr:state": "MI", "addr:street_address": "1641 HEIGHTSVIEW DR", "amenity": "post_box", "collection_times": "Mo-Fr 14:55; Sa 10:00", "indoor": "yes", "note": "ON 12/24 AND 12/31, THIS BOX MAY BE COLLECTED AS EARLY AS 12 NOON.", "nsi_id": "unitedstatespostalservice-a77078", "operator": "United States Postal Service", "operator:short": "USPS", "operator:type": "public", "operator:wikidata": "Q668687", "ref": "4863000002"}, "type": "Feature"}
{"geometry": {"coordinates": [-84.772239905, 44.327842764], "type": "Point"}, "id": "9HvYbHxq6cntvgDcAmbg-8fEU8g=", "properties": {"@source_uri": "https://tools.usps.com/UspsToolsRestServices/rest/POLocator/findLocations", "@spider": "usps_collection_boxes", "addr:city": "HOUGHTON LAKE", "addr:country": "US", "addr:postcode": "48630", "addr:state": "MI", "addr:street_address": "1641 HEIGHTSVIEW DR", "amenity": "post_box", "collection_times": "Mo-Fr 14:45; Sa 09:30", "indoor": "yes", "note": "ON 12/24 AND 12/31, THIS BOX MAY BE COLLECTED AS EARLY AS 12 NOON.", "nsi_id": "unitedstatespostalservice-a77078", "operator": "United States Postal Service", "operator:short": "USPS", "operator:type": "public", "operator:wikidata": "Q668687", "ref": "4863000003"}, "type": "Feature"}
{"geometry": {"coordinates": [-83.945228, 43.651601], "type": "Point"}, "id": "zEWCrHFpBHDZQr6LCzsnpESjOF8=", "properties": {"@source_uri": "https://tools.usps.com/UspsToolsRestServices/rest/POLocator/findLocations", "@spider": "usps_collection_boxes", "addr:city": "KAWKAWLIN", "addr:country": "US", "addr:postcode": "48631", "addr:state": "MI", "addr:street_address": "121 W GROVE ST", "amenity": "post_box", "collection_times": "Mo-Fr 16:30; Sa 10:30", "note": "ON 12/24 AND 12/31, THIS BOX MAY BE COLLECTED AS EARLY AS 12 NOON.", "nsi_id": "unitedstatespostalservice-a77078", "operator": "United States Postal Service", "operator:short": "USPS", "operator:type": "public", "operator:wikidata": "Q668687", "ref": "4863100001"}, "type": "Feature"}
{"geometry": {"coordinates": [-83.945228, 43.651601], "type": "Point"}, "id": "KJ7PaE2XLhVgdQN-bF9n2Ah_OIw=", "properties": {"@source_uri": "https://tools.usps.com/UspsToolsRestServices/rest/POLocator/findLocations", "@spider": "usps_collection_boxes", "addr:city": "KAWKAWLIN", "addr:country": "US", "addr:postcode": "48631", "addr:state": "MI", "addr:street_address": "121 W GROVE ST", "amenity": "post_box", "collection_times": "Mo-Fr 16:30; Sa 10:30", "indoor": "yes", "note": "ON 12/24 AND 12/31, THIS BOX MAY BE COLLECTED AS EARLY AS 12 NOON.", "nsi_id": "unitedstatespostalservice-a77078", "operator": "United States Postal Service", "operator:short": "USPS", "operator:type": "public", "operator:wikidata": "Q668687", "ref": "4863100002"}, "type": "Feature"}
{"geometry": {"coordinates": [-83.945229355, 43.651602609], "type": "Point"}, "id": "v5yfoATuhlOCIZAl1cE6-zdrZng=", "properties": {"@source_uri": "https://tools.usps.com/UspsToolsRestServices/rest/POLocator/findLocations", "@spider": "usps_collection_boxes", "addr:city": "KAWKAWLIN", "addr:country": "US", "addr:postcode": "48631", "addr:state": "MI", "addr:street_address": "121 W GROVE ST", "amenity": "post_box", "collection_times": "Mo-Fr 16:30; Sa 10:30", "indoor": "yes", "note": "ON 12/24 AND 12/31, THIS BOX MAY BE COLLECTED AS EARLY AS 12 NOON.", "nsi_id": "unitedstatespostalservice-a77078", "operator": "United States Postal Service", "operator:short": "USPS", "operator:type": "public", "operator:wikidata": "Q668687", "ref": "4863100003"}, "type": "Feature"}
{"geometry": {"coordinates": [-85.0134299905, 43.8575399964], "type": "Point"}, "id": "B12JN4P2z93bWF-kFQVxGC1sigw=", "properties": {"@source_uri": "https://tools.usps.com/UspsToolsRestServices/rest/POLocator/findLocations", "@spider": "usps_collection_boxes", "addr:city": "LAKE", "addr:country": "US", "addr:postcode": "48632", "addr:state": "MI", "addr:street_address": "8959 LAKE STATION AVE", "amenity": "post_box", "collection_times": "Mo-Fr 15:45; Sa 09:30", "note": "ON 12/24 AND 12/31, THIS BOX MAY BE COLLECTED AS EARLY AS 12 NOON.", "nsi_id": "unitedstatespostalservice-a77078", "operator": "United States Postal Service", "operator:short": "USPS", "operator:type": "public", "operator:wikidata": "Q668687", "ref": "4863200002"}, "type": "Feature"}
{"geometry": {"coordinates": [-85.013855, 43.857891], "type": "Point"}, "id": "fKcl2VO5ayKnXOfSgkTa8MW5M54=", "properties": {"@source_uri": "https://tools.usps.com/UspsToolsRestServices/rest/POLocator/findLocations", "@spider": "usps_collection_boxes", "addr:city": "LAKE", "addr:country": "US", "addr:postcode": "48632", "addr:state": "MI", "addr:street_address": "8959 LAKE STATION AVE", "amenity": "post_box", "collection_times": "Mo-Fr 15:45; Sa 09:30", "indoor": "yes", "note": "ON 12/24 AND 12/31, THIS BOX MAY BE COLLECTED AS EARLY AS 12 NOON.", "nsi_id": "unitedstatespostalservice-a77078", "operator": "United States Postal Service", "operator:short": "USPS", "operator:type": "public", "operator:wikidata": "Q668687", "ref": "4863200003"}, "type": "Feature"}
{"geometry": {"coordinates": [-85.013992241, 43.857673775], "type": "Point"}, "id": "mtq9pA7SyqykYxajSCbAi6CMQq4=", "properties": {"@source_uri": "https://tools.usps.com/UspsToolsRestServices/rest/POLocator/findLocations", "@spider": "usps_collection_boxes", "addr:city": "LAKE", "addr:country": "US", "addr:postcode": "48632", "addr:state": "MI", "addr:street_address": "8959 LAKE STATION AVE", "amenity": "post_box", "collection_times": "Mo-Fr 15:30; Sa 10:00", "indoor": "yes", "note": "ON 12/24 AND 12/31, THIS BOX MAY BE COLLECTED AS EARLY AS 12 NOON.", "nsi_id": "unitedstatespostalservice-a77078", "operator": "United States Postal Service", "operator:short": "USPS", "operator:type": "public", "operator:wikidata": "Q668687", "ref": "4863200004"}, "type": "Feature"}
{"geometry": {"coordinates": [-84.951345826, 43.972365684], "type": "Point"}, "id": "r0exSW2dktBdVgustlON1hFslvc=", "properties": {"@source_uri": "https://tools.usps.com/UspsToolsRestServices/rest/POLocator/findLocations", "@spider": "usps_collection_boxes", "addr:city": "LAKE GEORGE", "addr:country": "US", "addr:postcode": "48633", "addr:state": "MI", "addr:street_address": "190 W PARK ST", "amenity": "post_box", "collection_times": "Mo-Fr 15:45; Sa 10:30", "note": "ON 12/24 AND 12/31, THIS BOX MAY BE COLLECTED AS EARLY AS 12 NOON.", "nsi_id": "unitedstatespostalservice-a77078", "operator": "United States Postal Service", "operator:short": "USPS", "operator:type": "public", "operator:wikidata": "Q668687", "ref": "4863300001"}, "type": "Feature"}
{"geometry": {"coordinates": [-84.951345826, 43.972365684], "type": "Point"}, "id": "LffqU0gITVZ8Rm0xKMvqDD6AknA=", "properties": {"@source_uri": "https://tools.usps.com/UspsToolsRestServices/rest/POLocator/findLocations", "@spider": "usps_collection_boxes", "addr:city": "LAKE GEORGE", "addr:country": "US", "addr:postcode": "48633", "addr:state": "MI", "addr:street_address": "190 W PARK ST", "amenity": "post_box", "collection_times": "Mo-Fr 15:45; Sa 10:30", "indoor": "yes", "note": "ON 12/24 AND 12/31, THIS BOX MAY BE COLLECTED AS EARLY AS 12 NOON.", "nsi_id": "unitedstatespostalservice-a77078", "operator": "United States Postal Service", "operator:short": "USPS", "operator:type": "public", "operator:wikidata": "Q668687", "ref": "4863300003"}, "type": "Feature"}
{"geometry": {"coordinates": [-84.947680696, 43.963783193], "type": "Point"}, "id": "cD2WEXW-YNSQXhpSkdoUCZMNBy8=", "properties": {"@source_uri": "https://tools.usps.com/UspsToolsRestServices/rest/POLocator/findLocations", "@spider": "usps_collection_boxes", "addr:city": "LAKE GEORGE", "addr:country": "US", "addr:postcode": "48633", "addr:state": "MI", "addr:street_address": "190 W PARK ST", "amenity": "post_box", "collection_times": "Mo-Fr 15:30; Sa 10:15", "indoor": "yes", "note": "ON 12/24 AND 12/31, THIS BOX MAY BE COLLECTED AS EARLY AS 12 NOON.", "nsi_id": "unitedstatespostalservice-a77078", "operator": "United States Postal Service", "operator:short": "USPS", "operator:type": "public", "operator:wikidata": "Q668687", "ref": "4863300004"}, "type": "Feature"}
{"geometry": {"coordinates": [-83.961821, 43.738706], "type": "Point"}, "id": "fbbFmgJl2D3vbAmDa-hbvE_j7Tw=", "properties": {"@source_uri": "https://tools.usps.com/UspsToolsRestServices/rest/POLocator/findLocations", "@spider": "usps_collection_boxes", "addr:city": "LINWOOD", "addr:country": "US", "addr:postcode": "48634", "addr:state": "MI", "addr:street_address": "200 W CENTER ST", "amenity": "post_box", "collection_times": "Mo-Fr 15:45; Sa 11:00", "note": "ON 12/24 AND 12/31, THIS BOX MAY BE COLLECTED AS EARLY AS 12 NOON.", "nsi_id": "unitedstatespostalservice-a77078", "operator": "United States Postal Service", "operator:short": "USPS", "operator:type": "public", "operator:wikidata": "Q668687", "ref": "4863400001"}, "type": "Feature"}
{"geometry": {"coordinates": [-83.961821, 43.738706], "type": "Point"}, "id": "0Hiov8BCGqafIH0z54IubgjYKxo=", "properties": {"@source_uri": "https://tools.usps.com/UspsToolsRestServices/rest/POLocator/findLocations", "@spider": "usps_collection_boxes", "addr:city": "LINWOOD", "addr:country": "US", "addr:postcode": "48634", "addr:state": "MI", "addr:street_address": "200 W CENTER ST", "amenity": "post_box", "collection_times": "Mo-Fr 15:45; Sa 11:00", "indoor": "yes", "note": "ON 12/24 AND 12/31, THIS BOX MAY BE COLLECTED AS EARLY AS 12 NOON.", "nsi_id": "unitedstatespostalservice-a77078", "operator": "United States Postal Service", "operator:short": "USPS", "operator:type": "public", "operator:wikidata": "Q668687", "ref": "4863400002"}, "type": "Feature"}
{"geometry": {"coordinates": [-83.961720639, 43.738695512], "type": "Point"}, "id": "Gj42GwLwZ0WzY-wFcHOPPlpv0GE=", "properties": {"@source_uri": "https://tools.usps.com/UspsToolsRestServices/rest/POLocator/findLocations", "@spider": "usps_collection_boxes", "addr:city": "LINWOOD", "addr:country": "US", "addr:postcode": "48634", "addr:state": "MI", "addr:street_address": "200 W CENTER ST", "amenity": "post_box", "collection_times": "Mo-Fr 15:30; Sa 10:30", "indoor": "yes", "note": "ON 12/24 AND 12/31, THIS BOX MAY BE COLLECTED AS EARLY AS 12 NOON.", "nsi_id": "unitedstatespostalservice-a77078", "operator": "United States Postal Service", "operator:short": "USPS", "operator:type": "public", "operator:wikidata": "Q668687", "ref": "4863400004"}, "type": "Feature"}
{"geometry": {"coordinates": [-84.0233891, 44.421928], "type": "Point"}, "id": "uvYlvRKZlBj4JBNteXl4XnXjS4c=", "properties": {"@source_uri": "https://tools.usps.com/UspsToolsRestServices/rest/POLocator/findLocations", "@spider": "usps_collection_boxes", "addr:city": "LUPTON", "addr:country": "US", "addr:postcode": "48635", "addr:state": "MI", "addr:street_address": "2575 ROSE CITY RD", "amenity": "post_box", "collection_times": "Mo-Sa 12:00", "nsi_id": "unitedstatespostalservice-a77078", "operator": "United States Postal Service", "operator:short": "USPS", "operator:type": "public", "operator:wikidata": "Q668687", "ref": "4863500006"}, "type": "Feature"}
{"geometry": {"coordinates": [-84.269729, 44.614621], "type": "Point"}, "id": "zhOQdwGhGp1Oye-qhozlHL2Uv2Q=", "properties": {"@source_uri": "https://tools.usps.com/UspsToolsRestServices/rest/POLocator/findLocations", "@spider": "usps_collection_boxes", "addr:city": "LUZERNE", "addr:country": "US", "addr:postcode": "48636", "addr:state": "MI", "addr:street_address": "2289 ROYCE AVE", "amenity": "post_box", "collection_times": "Mo-Fr 15:20; Sa 09:30", "note": "ON 12/24 AND 12/31, THIS BOX MAY BE COLLECTED AS EARLY AS 12 NOON.", "nsi_id": "unitedstatespostalservice-a77078", "operator": "United States Postal Service", "operator:short": "USPS", "operator:type": "public", "operator:wikidata": "Q668687", "ref": "4863600001"}, "type": "Feature"}
{"geometry": {"coordinates": [-84.269729, 44.614621], "type": "Point"}, "id": "9iJRQVCUnghZfLCrfFQJgfLeuoA=", "properties": {"@source_uri": "https://tools.usps.com/UspsToolsRestServices/rest/POLocator/findLocations", "@spider": "usps_collection_boxes", "addr:city": "LUZERNE", "addr:country": "US", "addr:postcode": "48636", "addr:state": "MI", "addr:street_address": "2289 ROYCE AVE", "amenity": "post_box", "collection_times": "Mo-Fr 15:20; Sa 09:30", "indoor": "yes", "note": "ON 12/24 AND 12/31, THIS BOX MAY BE COLLECTED AS EARLY AS 12 NOON.", "nsi_id": "unitedstatespostalservice-a77078", "operator": "United States Postal Service", "operator:short": "USPS", "operator:type": "public", "operator:wikidata": "Q668687", "ref": "4863600002"}, "type": "Feature"}
{"geometry": {"coordinates": [-84.2697137154, 44.6145999922], "type": "Point"}, "id": "j18TuUOpeuX4B0HWxSCGPh1spsY=", "properties": {"@source_uri": "https://tools.usps.com/UspsToolsRestServices/rest/POLocator/findLocations", "@spider": "usps_collection_boxes", "addr:city": "LUZERNE", "addr:country": "US", "addr:postcode": "48636", "addr:state": "MI", "addr:street_address": "2289 ROYCE AVE", "amenity": "post_box", "collection_times": "Mo-Fr 14:30; Sa 12:45", "indoor": "yes", "note": "ON 12/24 AND 12/31, THIS BOX MAY BE COLLECTED AS EARLY AS 12 NOON.", "nsi_id": "unitedstatespostalservice-a77078", "operator": "United States Postal Service", "operator:short": "USPS", "operator:type": "public", "operator:wikidata": "Q668687", "ref": "4863600003"}, "type": "Feature"}
{"geometry": {"coordinates": [-84.33034, 43.408437], "type": "Point"}, "id": "1_lxuiMp2Gx1HIK_2MWNQbi-bCY=", "properties": {"@source_uri": "https://tools.usps.com/UspsToolsRestServices/rest/POLocator/findLocations", "@spider": "usps_collection_boxes", "addr:city": "MERRILL", "addr:country": "US", "addr:postcode": "48637", "addr:state": "MI", "addr:street_address": "242 S MIDLAND ST", "amenity": "post_box", "collection_times": "Mo-Fr 16:00; Sa 09:00", "note": "ON 12/24 AND 12/31, THIS BOX MAY BE COLLECTED AS EARLY AS 12 NOON.", "nsi_id": "unitedstatespostalservice-a77078", "operator": "United States Postal Service", "operator:short": "USPS", "operator:type": "public", "operator:wikidata": "Q668687", "ref": "4863700001"}, "type": "Feature"}
{"geometry": {"coordinates": [-84.33034, 43.408437], "type": "Point"}, "id": "2LF7mzKAkZnOaCNVLV_uuA3zyrk=", "properties": {"@source_uri": "https://tools.usps.com/UspsToolsRestServices/rest/POLocator/findLocations", "@spider": "usps_collection_boxes", "addr:city": "MERRILL", "addr:country": "US", "addr:postcode": "48637", "addr:state": "MI", "addr:street_address": "242 S MIDLAND ST", "amenity": "post_box", "collection_times": "Mo-Fr 16:00; Sa 09:00", "indoor": "yes", "note": "ON 12/24 AND 12/31, THIS BOX MAY BE COLLECTED AS EARLY AS 12 NOON.", "nsi_id": "unitedstatespostalservice-a77078", "operator": "United States Postal Service", "operator:short": "USPS", "operator:type": "public", "operator:wikidata": "Q668687", "ref": "4863700002"}, "type": "Feature"}
{"geometry": {"coordinates": [-84.330338803, 43.408457581], "type": "Point"}, "id": "0fenr_rKMfaFuMYM5DScPr39fnI=", "properties": {"@source_uri": "https://tools.usps.com/UspsToolsRestServices/rest/POLocator/findLocations", "@spider": "usps_collection_boxes", "addr:city": "MERRILL", "addr:country": "US", "addr:postcode": "48637", "addr:state": "MI", "addr:street_address": "242 S MIDLAND ST", "amenity": "post_box", "collection_times": "Mo-Fr 15:30", "indoor": "yes", "note": "ON 12/24 AND 12/31, THIS BOX MAY BE COLLECTED AS EARLY AS 12 NOON.", "nsi_id": "unitedstatespostalservice-a77078", "operator": "United States Postal Service", "operator:short": "USPS", "operator:type": "public", "operator:wikidata": "Q668687", "ref": "4863700003"}, "type": "Feature"}
{"geometry": {"coordinates": [-84.2261816, 43.623517], "type": "Point"}, "id": "gu1Q-VHGGRQdLG6Cor800QiXYEE=", "properties": {"@source_uri": "https://tools.usps.com/UspsToolsRestServices/rest/POLocator/findLocations", "@spider": "usps_collection_boxes", "addr:city": "MIDLAND", "addr:country": "US", "addr:postcode": "48640", "addr:state": "MI", "addr:street_address": "2901 RODD ST", "amenity": "post_box", "collection_times": "Mo-Fr 17:00; Sa 15:00", "note": "ON 12/24 AND 12/31, THIS BOX MAY BE COLLECTED AS EARLY AS 12 NOON.", "nsi_id": "unitedstatespostalservice-a77078", "operator": "United States Postal Service", "operator:short": "USPS", "operator:type": "public", "operator:wikidata": "Q668687", "ref": "4864000001"}, "type": "Feature"}
{"geometry": {"coordinates": [-84.2454312, 43.615247], "type": "Point"}, "id": "uJxUNynfliykvYlq7JNqAWkrF6U=", "properties": {"@source_uri": "https://tools.usps.com/UspsToolsRestServices/rest/POLocator/findLocations", "@spider": "usps_collection_boxes", "addr:city": "MIDLAND", "addr:country": "US", "addr:postcode": "48640", "addr:state": "MI", "addr:street_address": "333 W ELLSWORTH ST", "amenity": "post_box", "collection_times": "Mo-Fr 17:00; Sa 14:00", "note": "ON 12/24 AND 12/31, THIS BOX MAY BE COLLECTED AS EARLY AS 12 NOON.", "nsi_id": "unitedstatespostalservice-a77078", "operator": "United States Postal Service", "operator:short": "USPS", "operator:type": "public", "operator:wikidata": "Q668687", "ref": "4864000020"}, "type": "Feature"}
{"geometry": {"coordinates": [-84.2443639, 43.613974], "type": "Point"}, "id": "GpETp4-24ipzILVg6yGcwtfhHFQ=", "properties": {"@source_uri": "https://tools.usps.com/UspsToolsRestServices/rest/POLocator/findLocations", "@spider": "usps_collection_boxes", "addr:city": "MIDLAND", "addr:country": "US", "addr:postcode": "48640", "addr:state": "MI", "addr:street_address": "202 ASHMAN ST", "amenity": "post_box", "collection_times": "Mo-Fr 17:00; Sa 14:00", "note": "ON 12/24 AND 12/31, THIS BOX MAY BE COLLECTED AS EARLY AS 12 NOON.", "nsi_id": "unitedstatespostalservice-a77078", "operator": "United States Postal Service", "operator:short": "USPS", "operator:type": "public", "operator:wikidata": "Q668687", "ref": "4864000026"}, "type": "Feature"}
{"geometry": {"coordinates": [-84.2328652, 43.654314], "type": "Point"}, "id": "ofQxVUhQHXqzfP_TVqt-aENPuM4=", "properties": {"@source_uri": "https://tools.usps.com/UspsToolsRestServices/rest/POLocator/findLocations", "@spider": "usps_collection_boxes", "addr:city": "MIDLAND", "addr:country": "US", "addr:postcode": "48640", "addr:state": "MI", "addr:street_address": "555 W WACKERLY ST", "amenity": "post_box", "collection_times": "Mo-Sa 14:00", "note": "ON 12/24 AND 12/31, THIS BOX MAY BE COLLECTED AS EARLY AS 12 NOON.", "nsi_id": "unitedstatespostalservice-a77078", "operator": "United States Postal Service", "operator:short": "USPS", "operator:type": "public", "operator:wikidata": "Q668687", "ref": "4864000039"}, "type": "Feature"}
{"geometry": {"coordinates": [-84.1868987, 43.616606], "type": "Point"}, "id": "eD7Gy5g99r6V_eAj0Qtp5my70nM=", "properties": {"@source_uri": "https://tools.usps.com/UspsToolsRestServices/rest/POLocator/findLocations", "@spider": "usps_collection_boxes", "addr:city": "MIDLAND", "addr:country": "US", "addr:postcode": "48640", "addr:state": "MI", "addr:street_address": "3300 RIDGECREST DR", "amenity": "post_box", "collection_times": "Mo-Sa 14:00", "note": "ON 12/24 AND 12/31, THIS BOX MAY BE COLLECTED AS EARLY AS 12 NOON.", "nsi_id": "unitedstatespostalservice-a77078", "operator": "United States Postal Service", "operator:short": "USPS", "operator:type": "public", "operator:wikidata": "Q668687", "ref": "4864000056"}, "type": "Feature"}
{"geometry": {"coordinates": [-84.2481372, 43.654798], "type": "Point"}, "id": "c6WXou2fnLX3DUzY922ausbTOq4=", "properties": {"@source_uri": "https://tools.usps.com/UspsToolsRestServices/rest/POLocator/findLocations", "@spider": "usps_collection_boxes", "addr:city": "MIDLAND", "addr:country": "US", "addr:postcode": "48640", "addr:state": "MI", "addr:street_address": "1711 W WACKERLY ST", "amenity": "post_box", "collection_times": "Mo-Sa 11:00", "nsi_id": "unitedstatespostalservice-a77078", "operator": "United States Postal Service", "operator:short": "USPS", "operator:type": "public", "operator:wikidata": "Q668687", "ref": "4864000058"}, "type": "Feature"}
{"geometry": {"coordinates": [-84.1862994, 43.600187], "type": "Point"}, "id": "wjOBVK0DAgTSZ6b04CiwD_6VMSM=", "properties": {"@source_uri": "https://tools.usps.com/UspsToolsRestServices/rest/POLocator/findLocations", "@spider": "usps_collection_boxes", "addr:city": "MIDLAND", "addr:country": "US", "addr:postcode": "48640", "addr:state": "MI", "addr:street_address": "3403 CENTENNIAL DR", "amenity": "post_box", "collection_times": "Mo-Sa 13:00", "note": "ON 12/24 AND 12/31, THIS BOX MAY BE COLLECTED AS EARLY AS 12 NOON.", "nsi_id": "unitedstatespostalservice-a77078", "operator": "United States Postal Service", "operator:short": "USPS", "operator:type": "public", "operator:wikidata": "Q668687", "ref": "4864000062"}, "type": "Feature"}
{"geometry": {"coordinates": [-84.244532266, 43.612399888], "type": "Point"}, "id": "Rol7GqDP4rbro87vICkdIc8DaOY=", "properties": {"@source_uri": "https://tools.usps.com/UspsToolsRestServices/rest/POLocator/findLocations", "@spider": "usps_collection_boxes", "addr:city": "MIDLAND", "addr:country": "US", "addr:postcode": "48640", "addr:state": "MI", "addr:street_address": "200 E MAIN ST", "amenity": "post_box", "collection_times": "Mo-Sa 14:00", "note": "ON 12/24 AND 12/31, THIS BOX MAY BE COLLECTED AS EARLY AS 12 NOON.", "nsi_id": "unitedstatespostalservice-a77078", "operator": "United States Postal Service", "operator:short": "USPS", "operator:type": "public", "operator:wikidata": "Q668687", "ref": "4864000067"}, "type": "Feature"}
{"geometry": {"coordinates": [-84.1975582, 43.620265], "type": "Point"}, "id": "Bhysjk52V6uIoO7xOfS-tZgX3Io=", "properties": {"@source_uri": "https://tools.usps.com/UspsToolsRestServices/rest/POLocator/findLocations", "@spider": "usps_collection_boxes", "addr:city": "MIDLAND", "addr:country": "US", "addr:postcode": "48640", "addr:state": "MI", "addr:street_address": "2405 ABBOTT RD", "amenity": "post_box", "collection_times": "Mo-Sa 12:00", "nsi_id": "unitedstatespostalservice-a77078", "operator": "United States Postal Service", "operator:short": "USPS", "operator:type": "public", "operator:wikidata": "Q668687", "ref": "4864000069"}, "type": "Feature"}
{"geometry": {"coordinates": [-84.2349508324, 43.6548764572], "type": "Point"}, "id": "sya3TkFqzLw6uLRJcYe-n8JwmhA=", "properties": {"@source_uri": "https://tools.usps.com/UspsToolsRestServices/rest/POLocator/findLocations", "@spider": "usps_collection_boxes", "addr:city": "MIDLAND", "addr:country": "US", "addr:postcode": "48640", "addr:state": "MI", "addr:street_address": "720 W WACKERLY ST", "amenity": "post_box", "collection_times": "Mo-Sa 14:00", "note": "ON 12/24 AND 12/31, THIS BOX MAY BE COLLECTED AS EARLY AS 12 NOON.", "nsi_id": "unitedstatespostalservice-a77078", "operator": "United States Postal Service", "operator:short": "USPS", "operator:type": "public", "operator:wikidata": "Q668687", "ref": "4864000079"}, "type": "Feature"}
{"geometry": {"coordinates": [-84.22562, 43.623564], "type": "Point"}, "id": "9F1UPX41wamSII1_6VCjIe2osTs=", "properties": {"@source_uri": "https://tools.usps.com/UspsToolsRestServices/rest/POLocator/findLocations", "@spider": "usps_collection_boxes", "addr:city": "MIDLAND", "addr:country": "US", "addr:postcode": "48640", "addr:state": "MI", "addr:street_address": "2900 RODD ST", "amenity": "post_box", "collection_times": "Mo-Fr 17:00; Sa 15:00", "indoor": "yes", "note": "ON 12/24 AND 12/31, THIS BOX MAY BE COLLECTED AS EARLY AS 12 NOON.", "nsi_id": "unitedstatespostalservice-a77078", "operator": "United States Postal Service", "operator:short": "USPS", "operator:type": "public", "operator:wikidata": "Q668687", "ref": "4864000085"}, "type": "Feature"}
{"geometry": {"coordinates": [-84.2258349099, 43.6234729286], "type": "Point"}, "id": "xUeMf5SqZwuDLz5oVuQD1U8gDBQ=", "properties": {"@source_uri": "https://tools.usps.com/UspsToolsRestServices/rest/POLocator/findLocations", "@spider": "usps_collection_boxes", "addr:city": "MIDLAND", "addr:country": "US", "addr:postcode": "48640", "addr:state": "MI", "addr:street_address": "2900 RODD ST", "amenity": "post_box", "collection_times": "Mo-Fr 17:00; Sa 15:00", "note": "ON 12/24 AND 12/31, THIS BOX MAY BE COLLECTED AS EARLY AS 12 NOON.", "nsi_id": "unitedstatespostalservice-a77078", "operator": "United States Postal Service", "operator:short": "USPS", "operator:type": "public", "operator:wikidata": "Q668687", "ref": "4864000090"}, "type": "Feature"}
{"geometry": {"coordinates": [-84.2445394, 43.664412], "type": "Point"}, "id": "iKBkS_gQtw5ozaJI9-wFYNuA3aY=", "properties": {"@source_uri": "https://tools.usps.com/UspsToolsRestServices/rest/POLocator/findLocations", "@spider": "usps_collection_boxes", "addr:city": "MIDLAND", "addr:country": "US", "addr:postcode": "48640", "addr:state": "MI", "addr:street_address": "7300 EASTMAN AVE", "amenity": "post_box", "collection_times": "Mo-Fr 17:00; Sa 14:00", "note": "ON 12/24 AND 12/31, THIS BOX MAY BE COLLECTED AS EARLY AS 12 NOON.", "nsi_id": "unitedstatespostalservice-a77078", "operator": "United States Postal Service", "operator:short": "USPS", "operator:type": "public", "operator:wikidata": "Q668687", "ref": "4864000091"}, "type": "Feature"}
{"geometry": {"coordinates": [-84.2498511, 43.642381], "type": "Point"}, "id": "vCGS06TvWnlVQbYV6kZfZkRC4dU=", "properties": {"@source_uri": "https://tools.usps.com/UspsToolsRestServices/rest/POLocator/findLocations", "@spider": "usps_collection_boxes", "addr:city": "MIDLAND", "addr:country": "US", "addr:postcode": "48640", "addr:state": "MI", "addr:street_address": "2018 N SAGINAW RD", "amenity": "post_box", "collection_times": "Mo-Fr 15:00; Sa 14:00", "note": "ON 12/24 AND 12/31, THIS BOX MAY BE COLLECTED AS EARLY AS 12 NOON.", "nsi_id": "unitedstatespostalservice-a77078", "operator": "United States Postal Service", "operator:short": "USPS", "operator:type": "public", "operator:wikidata": "Q668687", "ref": "4864000105"}, "type": "Feature"}
{"geometry": {"coordinates": [-84.2205699, 43.610828], "type": "Point"}, "id": "yTCe-au4g5Jad8a6xe05O2Dexbo=", "properties": {"@source_uri": "https://tools.usps.com/UspsToolsRestServices/rest/POLocator/findLocations", "@spider": "usps_collection_boxes", "addr:city": "MIDLAND", "addr:country": "US", "addr:postcode": "48640", "addr:state": "MI", "addr:street_address": "300 E LYON RD", "amenity": "post_box", "collection_times": "Mo-Sa 14:00", "note": "ON 12/24 AND 12/31, THIS BOX MAY BE COLLECTED AS EARLY AS 12 NOON.", "nsi_id": "unitedstatespostalservice-a77078", "operator": "United States Postal Service", "operator:short": "USPS", "operator:type": "public", "operator:wikidata": "Q668687", "ref": "4864000106"}, "type": "Feature"}
{"geometry": {"coordinates": [-84.225537, 43.623631], "type": "Point"}, "id": "9dsDEiSJVTKc_wgKAy_-Cnp9ibo=", "properties": {"@source_uri": "https://tools.usps.com/UspsToolsRestServices/rest/POLocator/findLocations", "@spider": "usps_collection_boxes", "addr:city": "MIDLAND", "addr:country": "US", "addr:postcode": "48640", "addr:state": "MI", "addr:street_address": "2900 RODD ST", "amenity": "post_box", "collection_times": "Mo-Fr 17:00; Sa 15:00", "name": "USPS COLLECTION BOX - APC", "note": "ON 12/24 AND 12/31, THIS BOX MAY BE COLLECTED AS EARLY AS 12 NOON.", "nsi_id": "unitedstatespostalservice-a77078", "operator": "United States Postal Service", "operator:short": "USPS", "operator:type": "public", "operator:wikidata": "Q668687", "ref": "4864000107"}, "type": "Feature"}
{"geometry": {"coordinates": [-84.22583491, 43.623472929], "type": "Point"}, "id": "TPwqdsNfogHOT9WYgUbVLC7tMbA=", "properties": {"@source_uri": "https://tools.usps.com/UspsToolsRestServices/rest/POLocator/findLocations", "@spider": "usps_collection_boxes", "addr:city": "MIDLAND", "addr:country": "US", "addr:postcode": "48640", "addr:state": "MI", "addr:street_address": "2900 RODD ST", "amenity": "post_box", "collection_times": "Mo-Fr 17:00; Sa 14:30", "indoor": "yes", "note": "ON 12/24 AND 12/31, THIS BOX MAY BE COLLECTED AS EARLY AS 12 NOON.", "nsi_id": "unitedstatespostalservice-a77078", "operator": "United States Postal Service", "operator:short": "USPS", "operator:type": "public", "operator:wikidata": "Q668687", "ref": "4864000109"}, "type": "Feature"}
{"geometry": {"coordinates": [-84.1306588, 44.654279], "type": "Point"}, "id": "OiZukJTaOQtPv-r6YHgXd_oQ9sA=", "properties": {"@source_uri": "https://tools.usps.com/UspsToolsRestServices/rest/POLocator/findLocations", "@spider": "usps_collection_boxes", "addr:city": "MIO", "addr:country": "US", "addr:postcode": "48647", "addr:state": "MI", "addr:street_address": "305 N MORENCI AVE", "amenity": "post_box", "collection_times": "Mo-Sa 13:30", "note": "ON 12/24 AND 12/31, THIS BOX MAY BE COLLECTED AS EARLY AS 12 NOON.", "nsi_id": "unitedstatespostalservice-a77078", "operator": "United States Postal Service", "operator:short": "USPS", "operator:type": "public", "operator:wikidata": "Q668687", "ref": "4864700001"}, "type": "Feature"}
{"geometry": {"coordinates": [-84.129945, 44.651197], "type": "Point"}, "id": "S7oXXCrbQAWhZm71NQCsYsnF3oQ=", "properties": {"@source_uri": "https://tools.usps.com/UspsToolsRestServices/rest/POLocator/findLocations", "@spider": "usps_collection_boxes", "addr:city": "MIO", "addr:country": "US", "addr:postcode": "48647", "addr:state": "MI", "addr:street_address": "213 S MORENCI AVE", "amenity": "post_box", "collection_times": "Mo-Fr 16:10; Sa 14:00", "note": "ON 12/24 AND 12/31, THIS BOX MAY BE COLLECTED AS EARLY AS 12 NOON.", "nsi_id": "unitedstatespostalservice-a77078", "operator": "United States Postal Service", "operator:short": "USPS", "operator:type": "public", "operator:wikidata": "Q668687", "ref": "4864700005"}, "type": "Feature"}
{"geometry": {"coordinates": [-84.129945, 44.651197], "type": "Point"}, "id": "kOihUyguGxRy2HekfnNIlbXXij4=", "properties": {"@source_uri": "https://tools.usps.com/UspsToolsRestServices/rest/POLocator/findLocations", "@spider": "usps_collection_boxes", "addr:city": "MIO", "addr:country": "US", "addr:postcode": "48647", "addr:state": "MI", "addr:street_address": "213 S MORENCI AVE", "amenity": "post_box", "collection_times": "Mo-Fr 16:10; Sa 14:00", "indoor": "yes", "note": "ON 12/24 AND 12/31, THIS BOX MAY BE COLLECTED AS EARLY AS 12 NOON.", "nsi_id": "unitedstatespostalservice-a77078", "operator": "United States Postal Service", "operator:short": "USPS", "operator:type": "public", "operator:wikidata": "Q668687", "ref": "4864700006"}, "type": "Feature"}
{"geometry": {"coordinates": [-84.129930121, 44.651213204], "type": "Point"}, "id": "286GqXX1X-DW6qAAzgSM8c03zb0=", "properties": {"@source_uri": "https://tools.usps.com/UspsToolsRestServices/rest/POLocator/findLocations", "@spider": "usps_collection_boxes", "addr:city": "MIO", "addr:country": "US", "addr:postcode": "48647", "addr:state": "MI", "addr:street_address": "213 S MORENCI AVE", "amenity": "post_box", "collection_times": "Mo-Fr 15:45; Sa 11:30", "indoor": "yes", "note": "ON 12/24 AND 12/31, THIS BOX MAY BE COLLECTED AS EARLY AS 12 NOON.", "nsi_id": "unitedstatespostalservice-a77078", "operator": "United States Postal Service", "operator:short": "USPS", "operator:type": "public", "operator:wikidata": "Q668687", "ref": "4864700007"}, "type": "Feature"}
{"geometry": {"coordinates": [-84.168334, 43.141869], "type": "Point"}, "id": "NYkKposUm4CGCF4k7irX9QG-kWQ=", "properties": {"@source_uri": "https://tools.usps.com/UspsToolsRestServices/rest/POLocator/findLocations", "@spider": "usps_collection_boxes", "addr:city": "OAKLEY", "addr:country": "US", "addr:postcode": "48649", "addr:state": "MI", "addr:street_address": "205 S MAIN ST", "amenity": "post_box", "collection_times": "Mo-Fr 16:30; Sa 09:30", "note": "ON 12/24 AND 12/31, THIS BOX MAY BE COLLECTED AS EARLY AS 12 NOON.", "nsi_id": "unitedstatespostalservice-a77078", "operator": "United States Postal Service", "operator:short": "USPS", "operator:type": "public", "operator:wikidata": "Q668687", "ref": "4864900001"}, "type": "Feature"}
{"geometry": {"coordinates": [-84.168334, 43.141869], "type": "Point"}, "id": "RgMNH4AQlWvSq38ud9uNZXh_HYk=", "properties": {"@source_uri": "https://tools.usps.com/UspsToolsRestServices/rest/POLocator/findLocations", "@spider": "usps_collection_boxes", "addr:city": "OAKLEY", "addr:country": "US", "addr:postcode": "48649", "addr:state": "MI", "addr:street_address": "205 S MAIN ST", "amenity": "post_box", "collection_times": "Mo-Fr 16:30; Sa 09:30", "indoor": "yes", "note": "ON 12/24 AND 12/31, THIS BOX MAY BE COLLECTED AS EARLY AS 12 NOON.", "nsi_id": "unitedstatespostalservice-a77078", "operator": "United States Postal Service", "operator:short": "USPS", "operator:type": "public", "operator:wikidata": "Q668687", "ref": "4864900002"}, "type": "Feature"}
{"geometry": {"coordinates": [-84.168334853, 43.141896335], "type": "Point"}, "id": "5F7Ix3W9nQVXVLtPRNKdcziTRVo=", "properties": {"@source_uri": "https://tools.usps.com/UspsToolsRestServices/rest/POLocator/findLocations", "@spider": "usps_collection_boxes", "addr:city": "OAKLEY", "addr:country": "US", "addr:postcode": "48649", "addr:state": "MI", "addr:street_address": "205 S MAIN ST", "amenity": "post_box", "collection_times": "Mo-Fr 16:00; Sa 11:15", "indoor": "yes", "note": "ON 12/24 AND 12/31, THIS BOX MAY BE COLLECTED AS EARLY AS 12 NOON.", "nsi_id": "unitedstatespostalservice-a77078", "operator": "United States Postal Service", "operator:short": "USPS", "operator:type": "public", "operator:wikidata": "Q668687", "ref": "4864900003"}, "type": "Feature"}
{"geometry": {"coordinates": [-83.961203, 43.856028], "type": "Point"}, "id": "j85hZvlgrp0pgyq7GInOlCEAeJQ=", "properties": {"@source_uri": "https://tools.usps.com/UspsToolsRestServices/rest/POLocator/findLocations", "@spider": "usps_collection_boxes", "addr:city": "PINCONNING", "addr:country": "US", "addr:postcode": "48650", "addr:state": "MI", "addr:street_address": "207 S KAISER ST", "amenity": "post_box", "collection_times": "Mo-Fr 16:15; Sa 10:00", "note": "ON 12/24 AND 12/31, THIS BOX MAY BE COLLECTED AS EARLY AS 12 NOON.", "nsi_id": "unitedstatespostalservice-a77078", "operator": "United States Postal Service", "operator:short": "USPS", "operator:type": "public", "operator:wikidata": "Q668687", "ref": "4865000002"}, "type": "Feature"}
{"geometry": {"coordinates": [-83.9665041, 43.850422], "type": "Point"}, "id": "Dct95tP2XFgpD_ImA_XftL19oSg=", "properties": {"@source_uri": "https://tools.usps.com/UspsToolsRestServices/rest/POLocator/findLocations", "@spider": "usps_collection_boxes", "addr:city": "PINCONNING", "addr:country": "US", "addr:postcode": "48650", "addr:state": "MI", "addr:street_address": "704 S MABLE ST", "amenity": "post_box", "collection_times": "Mo-Sa 10:00", "nsi_id": "unitedstatespostalservice-a77078", "operator": "United States Postal Service", "operator:short": "USPS", "operator:type": "public", "operator:wikidata": "Q668687", "ref": "4865000003"}, "type": "Feature"}
{"geometry": {"coordinates": [-83.961203, 43.856028], "type": "Point"}, "id": "R6TKk1yCVwQ_V1XfRjUQE94hTzc=", "properties": {"@source_uri": "https://tools.usps.com/UspsToolsRestServices/rest/POLocator/findLocations", "@spider": "usps_collection_boxes", "addr:city": "PINCONNING", "addr:country": "US", "addr:postcode": "48650", "addr:state": "MI", "addr:street_address": "207 S KAISER ST", "amenity": "post_box", "collection_times": "Mo-Fr 16:15; Sa 10:00", "note": "ON 12/24 AND 12/31, THIS BOX MAY BE COLLECTED AS EARLY AS 12 NOON.", "nsi_id": "unitedstatespostalservice-a77078", "operator": "United States Postal Service", "operator:short": "USPS", "operator:type": "public", "operator:wikidata": "Q668687", "ref": "4865000006"}, "type": "Feature"}
{"geometry": {"coordinates": [-83.961203, 43.856028], "type": "Point"}, "id": "hDSvVqpFDB7lC_C6DlnWyAXKoZU=", "properties": {"@source_uri": "https://tools.usps.com/UspsToolsRestServices/rest/POLocator/findLocations", "@spider": "usps_collection_boxes", "addr:city": "PINCONNING", "addr:country": "US", "addr:postcode": "48650", "addr:state": "MI", "addr:street_address": "207 S KAISER ST", "amenity": "post_box", "collection_times": "Mo-Fr 16:15; Sa 10:00", "indoor": "yes", "note": "ON 12/24 AND 12/31, THIS BOX MAY BE COLLECTED AS EARLY AS 12 NOON.", "nsi_id": "unitedstatespostalservice-a77078", "operator": "United States Postal Service", "operator:short": "USPS", "operator:type": "public", "operator:wikidata": "Q668687", "ref": "4865000007"}, "type": "Feature"}
{"geometry": {"coordinates": [-83.9612019417, 43.856027801], "type": "Point"}, "id": "wwKL2_cr6gWNzU_Xcu8zfgFDh7s=", "properties": {"@source_uri": "https://tools.usps.com/UspsToolsRestServices/rest/POLocator/findLocations", "@spider": "usps_collection_boxes", "addr:city": "PINCONNING", "addr:country": "US", "addr:postcode": "48650", "addr:state": "MI", "addr:street_address": "207 S KAISER ST", "amenity": "post_box", "collection_times": "Mo-Fr 16:30; Sa 11:30", "indoor": "yes", "note": "ON 12/24 AND 12/31, THIS BOX MAY BE COLLECTED AS EARLY AS 12 NOON.", "nsi_id": "unitedstatespostalservice-a77078", "operator": "United States Postal Service", "operator:short": "USPS", "operator:type": "public", "operator:wikidata": "Q668687", "ref": "4865000008"}, "type": "Feature"}
{"geometry": {"coordinates": [-84.65486, 44.298411], "type": "Point"}, "id": "oXqX3zhcMPWycP9JfsjMrZS21PI=", "properties": {"@source_uri": "https://tools.usps.com/UspsToolsRestServices/rest/POLocator/findLocations", "@spider": "usps_collection_boxes", "addr:city": "PRUDENVILLE", "addr:country": "US", "addr:postcode": "48651", "addr:state": "MI", "addr:street_address": "899 W HOUGHTON LAKE DR", "amenity": "post_box", "collection_times": "Mo-Fr 15:20; Sa 12:00", "note": "ON 12/24 AND 12/31, THIS BOX MAY BE COLLECTED AS EARLY AS 12 NOON.", "nsi_id": "unitedstatespostalservice-a77078", "operator": "United States Postal Service", "operator:short": "USPS", "operator:type": "public", "operator:wikidata": "Q668687", "ref": "4865100001"}, "type": "Feature"}
{"geometry": {"coordinates": [-84.65486, 44.298411], "type": "Point"}, "id": "smHOiQXnd7nw7wCfURKXGu8pz9o=", "properties": {"@source_uri": "https://tools.usps.com/UspsToolsRestServices/rest/POLocator/findLocations", "@spider": "usps_collection_boxes", "addr:city": "PRUDENVILLE", "addr:country": "US", "addr:postcode": "48651", "addr:state": "MI", "addr:street_address": "899 W HOUGHTON LAKE DR", "amenity": "post_box", "collection_times": "Mo-Fr 15:20; Sa 12:00", "indoor": "yes", "note": "ON 12/24 AND 12/31, THIS BOX MAY BE COLLECTED AS EARLY AS 12 NOON.", "nsi_id": "unitedstatespostalservice-a77078", "operator": "United States Postal Service", "operator:short": "USPS", "operator:type": "public", "operator:wikidata": "Q668687", "ref": "4865100002"}, "type": "Feature"}
{"geometry": {"coordinates": [-84.65486, 44.298411], "type": "Point"}, "id": "5ptTDFiTaulITEddCHHR-aMTSg0=", "properties": {"@source_uri": "https://tools.usps.com/UspsToolsRestServices/rest/POLocator/findLocations", "@spider": "usps_collection_boxes", "addr:city": "PRUDENVILLE", "addr:country": "US", "addr:postcode": "48651", "addr:state": "MI", "addr:street_address": "899 W HOUGHTON LAKE DR", "amenity": "post_box", "collection_times": "Mo-Fr 15:20; Sa 12:00", "note": "ON 12/24 AND 12/31, THIS BOX MAY BE COLLECTED AS EARLY AS 12 NOON.", "nsi_id": "unitedstatespostalservice-a77078", "operator": "United States Postal Service", "operator:short": "USPS", "operator:type": "public", "operator:wikidata": "Q668687", "ref": "4865100003"}, "type": "Feature"}
{"geometry": {"coordinates": [-84.654864, 44.298408532], "type": "Point"}, "id": "8bZSnun9hhszXmUcVF2TEbITeio=", "properties": {"@source_uri": "https://tools.usps.com/UspsToolsRestServices/rest/POLocator/findLocations", "@spider": "usps_collection_boxes", "addr:city": "PRUDENVILLE", "addr:country": "US", "addr:postcode": "48651", "addr:state": "MI", "addr:street_address": "899 W HOUGHTON LAKE DR", "amenity": "post_box", "collection_times": "Mo-Fr 15:00; Sa 11:30", "indoor": "yes", "note": "ON 12/24 AND 12/31, THIS BOX MAY BE COLLECTED AS EARLY AS 12 NOON.", "nsi_id": "unitedstatespostalservice-a77078", "operator": "United States Postal Service", "operator:short": "USPS", "operator:type": "public", "operator:wikidata": "Q668687", "ref": "4865100004"}, "type": "Feature"}
{"geometry": {"coordinates": [-84.176091, 43.902352], "type": "Point"}, "id": "vRs5nUjy_2wt7l5h8xPkN25HZhQ=", "properties": {"@source_uri": "https://tools.usps.com/UspsToolsRestServices/rest/POLocator/findLocations", "@spider": "usps_collection_boxes", "addr:city": "RHODES", "addr:country": "US", "addr:postcode": "48652", "addr:state": "MI", "addr:street_address": "2832 RHODES RD", "amenity": "post_box", "collection_times": "Mo-Fr 11:00; Sa 10:00", "nsi_id": "unitedstatespostalservice-a77078", "operator": "United States Postal Service", "operator:short": "USPS", "operator:type": "public", "operator:wikidata": "Q668687", "ref": "4865200001"}, "type": "Feature"}
{"geometry": {"coordinates": [-84.176091, 43.902352], "type": "Point"}, "id": "ll6Drvhc6sVygWJYoACKwdwoPl8=", "properties": {"@source_uri": "https://tools.usps.com/UspsToolsRestServices/rest/POLocator/findLocations", "@spider": "usps_collection_boxes", "addr:city": "RHODES", "addr:country": "US", "addr:postcode": "48652", "addr:state": "MI", "addr:street_address": "2832 RHODES RD", "amenity": "post_box", "collection_times": "Mo-Fr 11:00; Sa 10:00", "indoor": "yes", "nsi_id": "unitedstatespostalservice-a77078", "operator": "United States Postal Service", "operator:short": "USPS", "operator:type": "public", "operator:wikidata": "Q668687", "ref": "4865200002"}, "type": "Feature"}
{"geometry": {"coordinates": [-84.1761066461, 43.9027875198], "type": "Point"}, "id": "wR_TmitMXH5bIvXm6uJ_IPfcFW0=", "properties": {"@source_uri": "https://tools.usps.com/UspsToolsRestServices/rest/POLocator/findLocations", "@spider": "usps_collection_boxes", "addr:city": "RHODES", "addr:country": "US", "addr:postcode": "48652", "addr:state": "MI", "addr:street_address": "2832 RHODES RD", "amenity": "post_box", "collection_times": "Mo-Fr 11:00; Sa 10:00", "indoor": "yes", "nsi_id": "unitedstatespostalservice-a77078", "operator": "United States Postal Service", "operator:short": "USPS", "operator:type": "public", "operator:wikidata": "Q668687", "ref": "4865200003"}, "type": "Feature"}
{"geometry": {"coordinates": [-84.59693, 44.493512], "type": "Point"}, "id": "QI7RThSoc4uhBf7SdY-MhhWG9JE=", "properties": {"@source_uri": "https://tools.usps.com/UspsToolsRestServices/rest/POLocator/findLocations", "@spider": "usps_collection_boxes", "addr:city": "ROSCOMMON", "addr:country": "US", "addr:postcode": "48653", "addr:state": "MI", "addr:street_address": "281 LAKE ST", "amenity": "post_box", "collection_times": "Mo-Fr 16:00; Sa 12:00", "note": "ON 12/24 AND 12/31, THIS BOX MAY BE COLLECTED AS EARLY AS 12 NOON.", "nsi_id": "unitedstatespostalservice-a77078", "operator": "United States Postal Service", "operator:short": "USPS", "operator:type": "public", "operator:wikidata": "Q668687", "ref": "4865300001"}, "type": "Feature"}
{"geometry": {"coordinates": [-84.596860759, 44.494063124], "type": "Point"}, "id": "WDEMrBMMBDm1fjAtQ83mdh8SzeM=", "properties": {"@source_uri": "https://tools.usps.com/UspsToolsRestServices/rest/POLocator/findLocations", "@spider": "usps_collection_boxes", "addr:city": "ROSCOMMON", "addr:country": "US", "addr:postcode": "48653", "addr:state": "MI", "addr:street_address": "281 LAKE ST", "amenity": "post_box", "collection_times": "Mo-Fr 16:05; Sa 12:00", "indoor": "yes", "note": "ON 12/24 AND 12/31, THIS BOX MAY BE COLLECTED AS EARLY AS 12 NOON.", "nsi_id": "unitedstatespostalservice-a77078", "operator": "United States Postal Service", "operator:short": "USPS", "operator:type": "public", "operator:wikidata": "Q668687", "ref": "4865300007"}, "type": "Feature"}
{"geometry": {"coordinates": [-84.596860759, 44.494063124], "type": "Point"}, "id": "nnQf3SKYmFPL_FG2KOdKTPAr0oQ=", "properties": {"@source_uri": "https://tools.usps.com/UspsToolsRestServices/rest/POLocator/findLocations", "@spider": "usps_collection_boxes", "addr:city": "ROSCOMMON", "addr:country": "US", "addr:postcode": "48653", "addr:state": "MI", "addr:street_address": "281 LAKE ST", "amenity": "post_box", "collection_times": "Mo-Fr 16:00; Sa 11:30", "indoor": "yes", "note": "ON 12/24 AND 12/31, THIS BOX MAY BE COLLECTED AS EARLY AS 12 NOON.", "nsi_id": "unitedstatespostalservice-a77078", "operator": "United States Postal Service", "operator:short": "USPS", "operator:type": "public", "operator:wikidata": "Q668687", "ref": "4865300008"}, "type": "Feature"}
{"geometry": {"coordinates": [-84.1177326, 44.422214], "type": "Point"}, "id": "F4mO9cSZOwt1Wq5tVSig41rntDw=", "properties": {"@source_uri": "https://tools.usps.com/UspsToolsRestServices/rest/POLocator/findLocations", "@spider": "usps_collection_boxes", "addr:city": "ROSE CITY", "addr:country": "US", "addr:postcode": "48654", "addr:state": "MI", "addr:street_address": "130 CLYDE ST", "amenity": "post_box", "collection_times": "Mo-Fr 16:00; Sa 10:00", "note": "ON 12/24 AND 12/31, THIS BOX MAY BE COLLECTED AS EARLY AS 12 NOON.", "nsi_id": "unitedstatespostalservice-a77078", "operator": "United States Postal Service", "operator:short": "USPS", "operator:type": "public", "operator:wikidata": "Q668687", "ref": "4865400001"}, "type": "Feature"}
{"geometry": {"coordinates": [-84.1173949, 44.422073], "type": "Point"}, "id": "MWq7Aae6u0wCVxwqWxiNCN6r9j4=", "properties": {"@source_uri": "https://tools.usps.com/UspsToolsRestServices/rest/POLocator/findLocations", "@spider": "usps_collection_boxes", "addr:city": "ROSE CITY", "addr:country": "US", "addr:postcode": "48654", "addr:state": "MI", "addr:street_address": "130 CLYDE ST", "amenity": "post_box", "collection_times": "Mo-Fr 16:00; Sa 10:00", "indoor": "yes", "note": "ON 12/24 AND 12/31, THIS BOX MAY BE COLLECTED AS EARLY AS 12 NOON.", "nsi_id": "unitedstatespostalservice-a77078", "operator": "United States Postal Service", "operator:short": "USPS", "operator:type": "public", "operator:wikidata": "Q668687", "ref": "4865400004"}, "type": "Feature"}
{"geometry": {"coordinates": [-84.1164454, 44.4235249], "type": "Point"}, "id": "fBqsJuevm0Dw2dt576ml1j-n0ec=", "properties": {"@source_uri": "https://tools.usps.com/UspsToolsRestServices/rest/POLocator/findLocations", "@spider": "usps_collection_boxes", "addr:city": "ROSE CITY", "addr:country": "US", "addr:postcode": "48654", "addr:state": "MI", "addr:street_address": "130 GEORGE SMITH JR ST", "amenity": "post_box", "collection_times": "Mo-Fr 16:00; Sa 11:30", "indoor": "yes", "note": "ON 12/24 AND 12/31, THIS BOX MAY BE COLLECTED AS EARLY AS 12 NOON.", "nsi_id": "unitedstatespostalservice-a77078", "operator": "United States Postal Service", "operator:short": "USPS", "operator:type": "public", "operator:wikidata": "Q668687", "ref": "4865400005"}, "type": "Feature"}
{"geometry": {"coordinates": [-84.1399241, 43.296163], "type": "Point"}, "id": "qqJzpFe6-XGwElu6cxxNSt6iLYs=", "properties": {"@source_uri": "https://tools.usps.com/UspsToolsRestServices/rest/POLocator/findLocations", "@spider": "usps_collection_boxes", "addr:city": "SAINT CHARLES", "addr:country": "US", "addr:postcode": "48655", "addr:state": "MI", "addr:street_address": "202 S SAGINAW ST", "amenity": "post_box", "collection_times": "Mo-Fr 16:30; Sa 15:00", "note": "ON 12/24 AND 12/31, THIS BOX MAY BE COLLECTED AS EARLY AS 12 NOON.", "nsi_id": "unitedstatespostalservice-a77078", "operator": "United States Postal Service", "operator:short": "USPS", "operator:type": "public", "operator:wikidata": "Q668687", "ref": "4865500001"}, "type": "Feature"}
{"geometry": {"coordinates": [-84.1431291, 43.299448], "type": "Point"}, "id": "uF5xB8EYf2ahpQhdvE1jDQwj7IY=", "properties": {"@source_uri": "https://tools.usps.com/UspsToolsRestServices/rest/POLocator/findLocations", "@spider": "usps_collection_boxes", "addr:city": "SAINT CHARLES", "addr:country": "US", "addr:postcode": "48655", "addr:state": "MI", "addr:street_address": "500 N SAGINAW ST", "amenity": "post_box", "collection_times": "Mo-Sa 11:00", "nsi_id": "unitedstatespostalservice-a77078", "operator": "United States Postal Service", "operator:short": "USPS", "operator:type": "public", "operator:wikidata": "Q668687", "ref": "4865500003"}, "type": "Feature"}
{"geometry": {"coordinates": [-84.1397666, 43.295975], "type": "Point"}, "id": "0uk11nFQxWIitiENRRMC8s6zf8Q=", "properties": {"@source_uri": "https://tools.usps.com/UspsToolsRestServices/rest/POLocator/findLocations", "@spider": "usps_collection_boxes", "addr:city": "SAINT CHARLES", "addr:country": "US", "addr:postcode": "48655", "addr:state": "MI", "addr:street_address": "202 S SAGINAW ST", "amenity": "post_box", "collection_times": "Mo-Fr 16:30; Sa 15:00", "indoor": "yes", "note": "ON 12/24 AND 12/31, THIS BOX MAY BE COLLECTED AS EARLY AS 12 NOON.", "nsi_id": "unitedstatespostalservice-a77078", "operator": "United States Postal Service", "operator:short": "USPS", "operator:type": "public", "operator:wikidata": "Q668687", "ref": "4865500004"}, "type": "Feature"}
{"geometry": {"coordinates": [-84.139764868, 43.296121478], "type": "Point"}, "id": "GK5vFeyQEX-MYUWfE7gCfyZeZQA=", "properties": {"@source_uri": "https://tools.usps.com/UspsToolsRestServices/rest/POLocator/findLocations", "@spider": "usps_collection_boxes", "addr:city": "SAINT CHARLES", "addr:country": "US", "addr:postcode": "48655", "addr:state": "MI", "addr:street_address": "202 S SAGINAW ST", "amenity": "post_box", "collection_times": "Mo-Fr 16:00; Sa 11:00", "indoor": "yes", "note": "ON 12/24 AND 12/31, THIS BOX MAY BE COLLECTED AS EARLY AS 12 NOON.", "nsi_id": "unitedstatespostalservice-a77078", "operator": "United States Postal Service", "operator:short": "USPS", "operator:type": "public", "operator:wikidata": "Q668687", "ref": "4865500005"}, "type": "Feature"}
{"geometry": {"coordinates": [-84.4098807, 44.355114], "type": "Point"}, "id": "oI875K1gNbV371MZV1Juk86ATd4=", "properties": {"@source_uri": "https://tools.usps.com/UspsToolsRestServices/rest/POLocator/findLocations", "@spider": "usps_collection_boxes", "addr:city": "SAINT HELEN", "addr:country": "US", "addr:postcode": "48656", "addr:state": "MI", "addr:street_address": "1410 N SAINT HELEN RD", "amenity": "post_box", "collection_times": "Mo-Sa 12:00", "nsi_id": "unitedstatespostalservice-a77078", "operator": "United States Postal Service", "operator:short": "USPS", "operator:type": "public", "operator:wikidata": "Q668687", "ref": "4865600001"}, "type": "Feature"}
{"geometry": {"coordinates": [-84.410223, 44.367908], "type": "Point"}, "id": "r1QEau0WEDFAYDYopvFogVDxfXE=", "properties": {"@source_uri": "https://tools.usps.com/UspsToolsRestServices/rest/POLocator/findLocations", "@spider": "usps_collection_boxes", "addr:city": "SAINT HELEN", "addr:country": "US", "addr:postcode": "48656", "addr:state": "MI", "addr:street_address": "2332 N SAINT HELEN RD", "amenity": "post_box", "collection_times": "Mo-Fr 14:40; Sa 12:00", "note": "ON 12/24 AND 12/31, THIS BOX MAY BE COLLECTED AS EARLY AS 12 NOON.", "nsi_id": "unitedstatespostalservice-a77078", "operator": "United States Postal Service", "operator:short": "USPS", "operator:type": "public", "operator:wikidata": "Q668687", "ref": "4865600002"}, "type": "Feature"}
{"geometry": {"coordinates": [-84.410223, 44.367908], "type": "Point"}, "id": "ubJhwS9RzLDXmekny3QrXDLJ86U=", "properties": {"@source_uri": "https://tools.usps.com/UspsToolsRestServices/rest/POLocator/findLocations", "@spider": "usps_collection_boxes", "addr:city": "SAINT HELEN", "addr:country": "US", "addr:postcode": "48656", "addr:state": "MI", "addr:street_address": "2332 N SAINT HELEN RD", "amenity": "post_box", "collection_times": "Mo-Fr 14:40; Sa 12:00", "indoor": "yes", "note": "ON 12/24 AND 12/31, THIS BOX MAY BE COLLECTED AS EARLY AS 12 NOON.", "nsi_id": "unitedstatespostalservice-a77078", "operator": "United States Postal Service", "operator:short": "USPS", "operator:type": "public", "operator:wikidata": "Q668687", "ref": "4865600004"}, "type": "Feature"}
{"geometry": {"coordinates": [-84.410224091, 44.367848329], "type": "Point"}, "id": "h9rqYiwc4Om1E8Ehi8an_TOYBYI=", "properties": {"@source_uri": "https://tools.usps.com/UspsToolsRestServices/rest/POLocator/findLocations", "@spider": "usps_collection_boxes", "addr:city": "SAINT HELEN", "addr:country": "US", "addr:postcode": "48656", "addr:state": "MI", "addr:street_address": "2332 N SAINT HELEN RD", "amenity": "post_box", "collection_times": "Mo-Fr 15:30; Sa 11:30", "indoor": "yes", "note": "ON 12/24 AND 12/31, THIS BOX MAY BE COLLECTED AS EARLY AS 12 NOON.", "nsi_id": "unitedstatespostalservice-a77078", "operator": "United States Postal Service", "operator:short": "USPS", "operator:type": "public", "operator:wikidata": "Q668687", "ref": "4865600005"}, "type": "Feature"}
{"geometry": {"coordinates": [-84.377150994, 43.67034906], "type": "Point"}, "id": "rTW26gYmz2jWOPC0MEOHzpcHrhU=", "properties": {"@source_uri": "https://tools.usps.com/UspsToolsRestServices/rest/POLocator/findLocations", "@spider": "usps_collection_boxes", "addr:city": "SANFORD", "addr:country": "US", "addr:postcode": "48657", "addr:state": "MI", "addr:street_address": "239 W SAGINAW RD", "amenity": "post_box", "collection_times": "Mo-Fr 16:30; Sa 11:00", "indoor": "yes", "note": "ON 12/24 AND 12/31, THIS BOX MAY BE COLLECTED AS EARLY AS 12 NOON.", "nsi_id": "unitedstatespostalservice-a77078", "operator": "United States Postal Service", "operator:short": "USPS", "operator:type": "public", "operator:wikidata": "Q668687", "ref": "4865700002"}, "type": "Feature"}
{"geometry": {"coordinates": [-84.377150994, 43.67034906], "type": "Point"}, "id": "AJxJeJJhiVG5gSiRmhXMkmND3RA=", "properties": {"@source_uri": "https://tools.usps.com/UspsToolsRestServices/rest/POLocator/findLocations", "@spider": "usps_collection_boxes", "addr:city": "SANFORD", "addr:country": "US", "addr:postcode": "48657", "addr:state": "MI", "addr:street_address": "239 W SAGINAW RD", "amenity": "post_box", "collection_times": "Mo-Fr 16:00; Sa 10:30", "indoor": "yes", "note": "ON 12/24 AND 12/31, THIS BOX MAY BE COLLECTED AS EARLY AS 12 NOON.", "nsi_id": "unitedstatespostalservice-a77078", "operator": "United States Postal Service", "operator:short": "USPS", "operator:type": "public", "operator:wikidata": "Q668687", "ref": "4865700004"}, "type": "Feature"}
{"geometry": {"coordinates": [-84.3771614534, 43.6703683187], "type": "Point"}, "id": "Sw0O2GNAZsuBmenpZCcbno9W_wI=", "properties": {"@source_uri": "https://tools.usps.com/UspsToolsRestServices/rest/POLocator/findLocations", "@spider": "usps_collection_boxes", "addr:city": "SANFORD", "addr:country": "US", "addr:postcode": "48657", "addr:state": "MI", "addr:street_address": "239 W SAGINAW RD", "amenity": "post_box", "collection_times": "Mo-Fr 16:15; Sa 11:00", "note": "ON 12/24 AND 12/31, THIS BOX MAY BE COLLECTED AS EARLY AS 12 NOON.", "nsi_id": "unitedstatespostalservice-a77078", "operator": "United States Postal Service", "operator:short": "USPS", "operator:type": "public", "operator:wikidata": "Q668687", "ref": "4865700005"}, "type": "Feature"}
{"geometry": {"coordinates": [-83.957078, 43.981929], "type": "Point"}, "id": "DgJoZ1rpph8VyDnkdBRQPARz1Ck=", "properties": {"@source_uri": "https://tools.usps.com/UspsToolsRestServices/rest/POLocator/findLocations", "@spider": "usps_collection_boxes", "addr:city": "STANDISH", "addr:country": "US", "addr:postcode": "48658", "addr:state": "MI", "addr:street_address": "120 S GROVE ST", "amenity": "post_box", "collection_times": "Mo-Fr 16:05; Sa 12:00", "note": "ON 12/24 AND 12/31, THIS BOX MAY BE COLLECTED AS EARLY AS 12 NOON.", "nsi_id": "unitedstatespostalservice-a77078", "operator": "United States Postal Service", "operator:short": "USPS", "operator:type": "public", "operator:wikidata": "Q668687", "ref": "4865800001"}, "type": "Feature"}
{"geometry": {"coordinates": [-83.9577717, 43.976091], "type": "Point"}, "id": "cMV4rNdR40J_ghmT9LUzRRuezKU=", "properties": {"@source_uri": "https://tools.usps.com/UspsToolsRestServices/rest/POLocator/findLocations", "@spider": "usps_collection_boxes", "addr:city": "STANDISH", "addr:country": "US", "addr:postcode": "48658", "addr:state": "MI", "addr:street_address": "533 S MAIN ST", "amenity": "post_box", "collection_times": "Mo-Sa 12:00", "nsi_id": "unitedstatespostalservice-a77078", "operator": "United States Postal Service", "operator:short": "USPS", "operator:type": "public", "operator:wikidata": "Q668687", "ref": "4865800004"}, "type": "Feature"}
{"geometry": {"coordinates": [-83.957078, 43.981929], "type": "Point"}, "id": "1Xb6NMJTs1H1OZWmdiYHKRV0LG0=", "properties": {"@source_uri": "https://tools.usps.com/UspsToolsRestServices/rest/POLocator/findLocations", "@spider": "usps_collection_boxes", "addr:city": "STANDISH", "addr:country": "US", "addr:postcode": "48658", "addr:state": "MI", "addr:street_address": "120 S GROVE ST", "amenity": "post_box", "collection_times": "Mo-Fr 16:05; Sa 12:00", "indoor": "yes", "note": "ON 12/24 AND 12/31, THIS BOX MAY BE COLLECTED AS EARLY AS 12 NOON.", "nsi_id": "unitedstatespostalservice-a77078", "operator": "United States Postal Service", "operator:short": "USPS", "operator:type": "public", "operator:wikidata": "Q668687", "ref": "4865800006"}, "type": "Feature"}
{"geometry": {"coordinates": [-83.957079172, 43.981929251], "type": "Point"}, "id": "nlS0DPWBdkrM6LZ--reU7w6l8Tk=", "properties": {"@source_uri": "https://tools.usps.com/UspsToolsRestServices/rest/POLocator/findLocations", "@spider": "usps_collection_boxes", "addr:city": "STANDISH", "addr:country": "US", "addr:postcode": "48658", "addr:state": "MI", "addr:street_address": "120 S GROVE ST", "amenity": "post_box", "collection_times": "Mo-Fr 16:15; Sa 11:00", "indoor": "yes", "note": "ON 12/24 AND 12/31, THIS BOX MAY BE COLLECTED AS EARLY AS 12 NOON.", "nsi_id": "unitedstatespostalservice-a77078", "operator": "United States Postal Service", "operator:short": "USPS", "operator:type": "public", "operator:wikidata": "Q668687", "ref": "4865800007"}, "type": "Feature"}
{"geometry": {"coordinates": [-84.028908, 44.033324], "type": "Point"}, "id": "kOtE_Qm9rg0toltHCVDen-4x_XI=", "properties": {"@source_uri": "https://tools.usps.com/UspsToolsRestServices/rest/POLocator/findLocations", "@spider": "usps_collection_boxes", "addr:city": "STERLING", "addr:country": "US", "addr:postcode": "48659", "addr:state": "MI", "addr:street_address": "420 W STATE ST", "amenity": "post_box", "collection_times": "Mo-Fr 16:00; Sa 08:30", "note": "ON 12/24 AND 12/31, THIS BOX MAY BE COLLECTED AS EARLY AS 12 NOON.", "nsi_id": "unitedstatespostalservice-a77078", "operator": "United States Postal Service", "operator:short": "USPS", "operator:type": "public", "operator:wikidata": "Q668687", "ref": "4865900001"}, "type": "Feature"}
{"geometry": {"coordinates": [-84.028908, 44.033324], "type": "Point"}, "id": "ucOkKWm3WhQHAoCitbvBQtMniko=", "properties": {"@source_uri": "https://tools.usps.com/UspsToolsRestServices/rest/POLocator/findLocations", "@spider": "usps_collection_boxes", "addr:city": "STERLING", "addr:country": "US", "addr:postcode": "48659", "addr:state": "MI", "addr:street_address": "420 W STATE ST", "amenity": "post_box", "collection_times": "Mo-Fr 16:00; Sa 08:30", "indoor": "yes", "note": "ON 12/24 AND 12/31, THIS BOX MAY BE COLLECTED AS EARLY AS 12 NOON.", "nsi_id": "unitedstatespostalservice-a77078", "operator": "United States Postal Service", "operator:short": "USPS", "operator:type": "public", "operator:wikidata": "Q668687", "ref": "4865900005"}, "type": "Feature"}
{"geometry": {"coordinates": [-84.028903598, 44.033366469], "type": "Point"}, "id": "iBlFzgJR4JgnsRBW-ruU0wH9tuY=", "properties": {"@source_uri": "https://tools.usps.com/UspsToolsRestServices/rest/POLocator/findLocations", "@spider": "usps_collection_boxes", "addr:city": "STERLING", "addr:country": "US", "addr:postcode": "48659", "addr:state": "MI", "addr:street_address": "420 W STATE ST", "amenity": "post_box", "collection_times": "Mo-Fr 15:30", "indoor": "yes", "note": "ON 12/24 AND 12/31, THIS BOX MAY BE COLLECTED AS EARLY AS 12 NOON.", "nsi_id": "unitedstatespostalservice-a77078", "operator": "United States Postal Service", "operator:short": "USPS", "operator:type": "public", "operator:wikidata": "Q668687", "ref": "4865900006"}, "type": "Feature"}
{"geometry": {"coordinates": [-84.238483, 44.275919], "type": "Point"}, "id": "RoiT6Jd7tVqkTUjA9juBFj5m33I=", "properties": {"@source_uri": "https://tools.usps.com/UspsToolsRestServices/rest/POLocator/findLocations", "@spider": "usps_collection_boxes", "addr:city": "WEST BRANCH", "addr:country": "US", "addr:postcode": "48661", "addr:state": "MI", "addr:street_address": "122 S 3RD ST", "amenity": "post_box", "collection_times": "Mo-Fr 16:50; Sa 15:00", "note": "ON 12/24 AND 12/31, THIS BOX MAY BE COLLECTED AS EARLY AS 12 NOON.", "nsi_id": "unitedstatespostalservice-a77078", "operator": "United States Postal Service", "operator:short": "USPS", "operator:type": "public", "operator:wikidata": "Q668687", "ref": "4866100001"}, "type": "Feature"}
{"geometry": {"coordinates": [-84.238521, 44.275969], "type": "Point"}, "id": "ICAWAiOTUunXpYTS4DheGDKzll0=", "properties": {"@source_uri": "https://tools.usps.com/UspsToolsRestServices/rest/POLocator/findLocations", "@spider": "usps_collection_boxes", "addr:city": "WEST BRANCH", "addr:country": "US", "addr:postcode": "48661", "addr:state": "MI", "addr:street_address": "122 S 3RD ST", "amenity": "post_box", "collection_times": "Mo-Fr 16:50; Sa 15:00", "note": "ON 12/24 AND 12/31, THIS BOX MAY BE COLLECTED AS EARLY AS 12 NOON.", "nsi_id": "unitedstatespostalservice-a77078", "operator": "United States Postal Service", "operator:short": "USPS", "operator:type": "public", "operator:wikidata": "Q668687", "ref": "4866100003"}, "type": "Feature"}
{"geometry": {"coordinates": [-84.2242843, 44.275573], "type": "Point"}, "id": "jKgCpdv2Pvxeoq7xXkXu32SPAVY=", "properties": {"@source_uri": "https://tools.usps.com/UspsToolsRestServices/rest/POLocator/findLocations", "@spider": "usps_collection_boxes", "addr:city": "WEST BRANCH", "addr:country": "US", "addr:postcode": "48661", "addr:state": "MI", "addr:street_address": "520 E HOUGHTON AVE", "amenity": "post_box", "collection_times": "Mo-Sa 12:00", "nsi_id": "unitedstatespostalservice-a77078", "operator": "United States Postal Service", "operator:short": "USPS", "operator:type": "public", "operator:wikidata": "Q668687", "ref": "4866100006"}, "type": "Feature"}
{"geometry": {"coordinates": [-84.2454924, 44.276091], "type": "Point"}, "id": "zJp4zM_H8kaQBnzcup_vM4SAi6A=", "properties": {"@source_uri": "https://tools.usps.com/UspsToolsRestServices/rest/POLocator/findLocations", "@spider": "usps_collection_boxes", "addr:city": "WEST BRANCH", "addr:country": "US", "addr:postcode": "48661", "addr:state": "MI", "addr:street_address": "806 W HOUGHTON AVE", "amenity": "post_box", "collection_times": "Mo-Fr 15:00; Sa 12:00", "note": "ON 12/24 AND 12/31, THIS BOX MAY BE COLLECTED AS EARLY AS 12 NOON.", "nsi_id": "unitedstatespostalservice-a77078", "operator": "United States Postal Service", "operator:short": "USPS", "operator:type": "public", "operator:wikidata": "Q668687", "ref": "4866100007"}, "type": "Feature"}
{"geometry": {"coordinates": [-84.2213849, 44.271373], "type": "Point"}, "id": "DIOtBmJf6UbcH_JIyVvTFeMS49g=", "properties": {"@source_uri": "https://tools.usps.com/UspsToolsRestServices/rest/POLocator/findLocations", "@spider": "usps_collection_boxes", "addr:city": "WEST BRANCH", "addr:country": "US", "addr:postcode": "48661", "addr:state": "MI", "addr:street_address": "2206 S M 76", "amenity": "post_box", "collection_times": "Mo-Sa 09:00", "nsi_id": "unitedstatespostalservice-a77078", "operator": "United States Postal Service", "operator:short": "USPS", "operator:type": "public", "operator:wikidata": "Q668687", "ref": "4866100008"}, "type": "Feature"}
{"geometry": {"coordinates": [-84.238521, 44.275969], "type": "Point"}, "id": "ZZrIUi18ic5Qt932P4S__VdK6YE=", "properties": {"@source_uri": "https://tools.usps.com/UspsToolsRestServices/rest/POLocator/findLocations", "@spider": "usps_collection_boxes", "addr:city": "WEST BRANCH", "addr:country": "US", "addr:postcode": "48661", "addr:state": "MI", "addr:street_address": "122 S 3RD ST", "amenity": "post_box", "collection_times": "Mo-Fr 16:50; Sa 15:00", "indoor": "yes", "note": "ON 12/24 AND 12/31, THIS BOX MAY BE COLLECTED AS EARLY AS 12 NOON.", "nsi_id": "unitedstatespostalservice-a77078", "operator": "United States Postal Service", "operator:short": "USPS", "operator:type": "public", "operator:wikidata": "Q668687", "ref": "4866100009"}, "type": "Feature"}
{"geometry": {"coordinates": [-84.2284942, 44.25362], "type": "Point"}, "id": "6Otgav4-HPf_QgBynpRrPw2SerU=", "properties": {"@source_uri": "https://tools.usps.com/UspsToolsRestServices/rest/POLocator/findLocations", "@spider": "usps_collection_boxes", "addr:city": "WEST BRANCH", "addr:country": "US", "addr:postcode": "48661", "addr:state": "MI", "addr:street_address": "2750 COOK RD", "amenity": "post_box", "collection_times": "Mo-Sa 09:00", "nsi_id": "unitedstatespostalservice-a77078", "operator": "United States Postal Service", "operator:short": "USPS", "operator:type": "public", "operator:wikidata": "Q668687", "ref": "4866100010"}, "type": "Feature"}
{"geometry": {"coordinates": [-84.238466664, 44.275930346], "type": "Point"}, "id": "vEutMxIgLVnvyItvmu1AZhJz8OA=", "properties": {"@source_uri": "https://tools.usps.com/UspsToolsRestServices/rest/POLocator/findLocations", "@spider": "usps_collection_boxes", "addr:city": "WEST BRANCH", "addr:country": "US", "addr:postcode": "48661", "addr:state": "MI", "addr:street_address": "122 S 3RD ST", "amenity": "post_box", "collection_times": "Mo-Fr 16:30; Sa 11:30", "indoor": "yes", "note": "ON 12/24 AND 12/31, THIS BOX MAY BE COLLECTED AS EARLY AS 12 NOON.", "nsi_id": "unitedstatespostalservice-a77078", "operator": "United States Postal Service", "operator:short": "USPS", "operator:type": "public", "operator:wikidata": "Q668687", "ref": "4866100011"}, "type": "Feature"}
{"geometry": {"coordinates": [-84.4389278, 43.407491], "type": "Point"}, "id": "UpW9tyxXQNBsyYekFe3kre8z0Lw=", "properties": {"@source_uri": "https://tools.usps.com/UspsToolsRestServices/rest/POLocator/findLocations", "@spider": "usps_collection_boxes", "addr:city": "WHEELER", "addr:country": "US", "addr:postcode": "48662", "addr:state": "MI", "addr:street_address": "8510 E MONROE RD", "amenity": "post_box", "collection_times": "Mo-Sa 10:00", "nsi_id": "unitedstatespostalservice-a77078", "operator": "United States Postal Service", "operator:short": "USPS", "operator:type": "public", "operator:wikidata": "Q668687", "ref": "4866200003"}, "type": "Feature"}
