{"geometry": {"coordinates": [-83.601633, 44.683757], "type": "Point"}, "id": "0XGmGviMC_hHzF2DTvB4JzmX8Ls=", "properties": {"@spider": "usps_collection_boxes", "addr:city": "BARTON CITY", "addr:country": "US", "addr:full": "1011 N MONTANA RD", "addr:postcode": "48705", "addr:state": "MI", "brand": "USPS", "collection_times": "Mo-Fr 11:25; Sa 11:15", "name": "USPS COLLECTION BOX - BLUE BOX", "ref": "4870500001"}, "type": "Feature"}
{"geometry": {"coordinates": [-83.601633, 44.683757], "type": "Point"}, "id": "Z7enet4XcT5AEihcp9D5pPdcFvQ=", "properties": {"@spider": "usps_collection_boxes", "addr:city": "BARTON CITY", "addr:country": "US", "addr:full": "1011 N MONTANA RD", "addr:postcode": "48705", "addr:state": "MI", "brand": "USPS", "collection_times": "Mo-Fr 11:25; Sa 11:15", "name": "USPS COLLECTION BOX - PO LOBBY", "ref": "4870500002"}, "type": "Feature"}
{"geometry": {"coordinates": [-83.601664914, 44.683744157], "type": "Point"}, "id": "M8WIhB5q6bgVLa-2zDdOOagCE5k=", "properties": {"@spider": "usps_collection_boxes", "addr:city": "BARTON CITY", "addr:country": "US", "addr:full": "1011 N MONTANA RD", "addr:postcode": "48705", "addr:state": "MI", "brand": "USPS", "collection_times": "Mo-Sa 11:00", "name": "USPS COLLECTION BOX - PO LOBBY", "ref": "4870500003"}, "type": "Feature"}
{"geometry": {"coordinates": [-83.8715042, 43.353149], "type": "Point"}, "id": "VtKPYt64xz3zJcy9X3Ek4v3DmAg=", "properties": {"@spider": "usps_collection_boxes", "addr:city": "BRIDGEPORT", "addr:country": "US", "addr:full": "6370 BRIDGEPORT VILLAGE SQUARE DR", "addr:postcode": "48722", "addr:state": "MI", "brand": "USPS", "collection_times": "Mo-Fr 10:00; Sa 09:00", "name": "USPS COLLECTION BOX - BLUE BOX", "ref": "4872200002"}, "type": "Feature"}
{"geometry": {"coordinates": [-83.8691478, 43.351942], "type": "Point"}, "id": "JbObfj22opPecokBgI5_0zNUqug=", "properties": {"@spider": "usps_collection_boxes", "addr:city": "BRIDGEPORT", "addr:country": "US", "addr:full": "6364 DIXIE HWY", "addr:postcode": "48722", "addr:state": "MI", "brand": "USPS", "collection_times": "Mo-Fr 10:00; Sa 09:00", "name": "USPS COLLECTION BOX - BLUE BOX", "ref": "4872200003"}, "type": "Feature"}
{"geometry": {"coordinates": [-83.880754, 43.359304], "type": "Point"}, "id": "cioE2OUnp7Mp6BaGvtQCGYxaki4=", "properties": {"@spider": "usps_collection_boxes", "addr:city": "BRIDGEPORT", "addr:country": "US", "addr:full": "3760 STATE ST", "addr:postcode": "48722", "addr:state": "MI", "brand": "USPS", "collection_times": "Mo-Fr 16:30; Sa 09:00", "name": "USPS COLLECTION BOX - BLUE BOX", "note": "ON 12/24 AND 12/31, THIS BOX MAY BE COLLECTED AS EARLY AS 12 NOON.", "ref": "4872200005"}, "type": "Feature"}
{"geometry": {"coordinates": [-83.880754, 43.359304], "type": "Point"}, "id": "d1irlZGKG5qxF1Becqkxo4hvre8=", "properties": {"@spider": "usps_collection_boxes", "addr:city": "BRIDGEPORT", "addr:country": "US", "addr:full": "3760 STATE ST", "addr:postcode": "48722", "addr:state": "MI", "brand": "USPS", "collection_times": "Mo-Fr 16:30; Sa 09:00", "name": "USPS COLLECTION BOX - PO LOBBY", "note": "ON 12/24 AND 12/31, THIS BOX MAY BE COLLECTED AS EARLY AS 12 NOON.", "ref": "4872200006"}, "type": "Feature"}
{"geometry": {"coordinates": [-83.880704093, 43.359328196], "type": "Point"}, "id": "jA-ZGfJ_RnJpz-mSTXaPr7L31Y0=", "properties": {"@spider": "usps_collection_boxes", "addr:city": "BRIDGEPORT", "addr:country": "US", "addr:full": "3760 STATE ST", "addr:postcode": "48722", "addr:state": "MI", "brand": "USPS", "collection_times": "Mo-Fr 16:30", "name": "USPS COLLECTION BOX - PO LOBBY", "note": "ON 12/24 AND 12/31, THIS BOX MAY BE COLLECTED AS EARLY AS 12 NOON.", "ref": "4872200007"}, "type": "Feature"}
{"geometry": {"coordinates": [-83.929891, 43.457691], "type": "Point"}, "id": "P2Zax_604Y7w25K-bZCAqmy8s7w=", "properties": {"@spider": "usps_collection_boxes", "addr:city": "CARROLLTON", "addr:country": "US", "addr:full": "3510 N MADISON ST", "addr:postcode": "48724", "addr:state": "MI", "brand": "USPS", "collection_times": "Mo-Fr 16:00; Sa 10:00", "name": "USPS COLLECTION BOX - BLUE BOX", "note": "ON 12/24 AND 12/31, THIS BOX MAY BE COLLECTED AS EARLY AS 12 NOON.", "ref": "4872400001"}, "type": "Feature"}
{"geometry": {"coordinates": [-83.929993, 43.457674], "type": "Point"}, "id": "FC02bfZt5tp0RYvjPZymZctZq5A=", "properties": {"@spider": "usps_collection_boxes", "addr:city": "CARROLLTON", "addr:country": "US", "addr:full": "3510 N MADISON ST", "addr:postcode": "48724", "addr:state": "MI", "brand": "USPS", "collection_times": "Mo-Fr 16:00; Sa 10:00", "name": "USPS COLLECTION BOX - PO LOBBY", "note": "ON 12/24 AND 12/31, THIS BOX MAY BE COLLECTED AS EARLY AS 12 NOON.", "ref": "4872400002"}, "type": "Feature"}
{"geometry": {"coordinates": [-83.929718196, 43.457772983], "type": "Point"}, "id": "70T6RZB4sBfFoHgCR1lb2PnE02w=", "properties": {"@spider": "usps_collection_boxes", "addr:city": "CARROLLTON", "addr:country": "US", "addr:full": "3510 N MADISON ST", "addr:postcode": "48724", "addr:state": "MI", "brand": "USPS", "collection_times": "Mo-Fr 15:30", "name": "USPS COLLECTION BOX - PO LOBBY", "note": "ON 12/24 AND 12/31, THIS BOX MAY BE COLLECTED AS EARLY AS 12 NOON.", "ref": "4872400004"}, "type": "Feature"}
{"geometry": {"coordinates": [-83.179248, 43.313738], "type": "Point"}, "id": "lownhY8iTA8F0di0xBa-NdILIYA=", "properties": {"@spider": "usps_collection_boxes", "addr:city": "CLIFFORD", "addr:country": "US", "addr:full": "9581 MAIN ST", "addr:postcode": "48727", "addr:state": "MI", "brand": "USPS", "collection_times": "Mo-Fr 15:15; Sa 09:15", "name": "USPS COLLECTION BOX - BLUE BOX", "note": "ON 12/24 AND 12/31, THIS BOX MAY BE COLLECTED AS EARLY AS 12 NOON.", "ref": "4872700001"}, "type": "Feature"}
{"geometry": {"coordinates": [-83.179248, 43.313738], "type": "Point"}, "id": "1lh9Pe3ouDKvxLkCMfHjWz-__J4=", "properties": {"@spider": "usps_collection_boxes", "addr:city": "CLIFFORD", "addr:country": "US", "addr:full": "9581 MAIN ST", "addr:postcode": "48727", "addr:state": "MI", "brand": "USPS", "collection_times": "Mo-Fr 15:15; Sa 09:15", "name": "USPS COLLECTION BOX - PO LOBBY", "note": "ON 12/24 AND 12/31, THIS BOX MAY BE COLLECTED AS EARLY AS 12 NOON.", "ref": "4872700002"}, "type": "Feature"}
{"geometry": {"coordinates": [-83.179250249, 43.31373191], "type": "Point"}, "id": "0xYh4sFJziloIU9WqpMGd30RlA0=", "properties": {"@spider": "usps_collection_boxes", "addr:city": "CLIFFORD", "addr:country": "US", "addr:full": "9581 MAIN ST", "addr:postcode": "48727", "addr:state": "MI", "brand": "USPS", "collection_times": "Mo-Fr 14:45; Sa 10:00", "name": "USPS COLLECTION BOX - PO LOBBY", "note": "ON 12/24 AND 12/31, THIS BOX MAY BE COLLECTED AS EARLY AS 12 NOON.", "ref": "4872700003"}, "type": "Feature"}
{"geometry": {"coordinates": [-83.807558, 44.714398], "type": "Point"}, "id": "fJC3Mtgkl1Ssy3p9lD1oqWtGi7A=", "properties": {"@spider": "usps_collection_boxes", "addr:city": "CURRAN", "addr:country": "US", "addr:full": "2071 N CURRAN RD", "addr:postcode": "48728", "addr:state": "MI", "brand": "USPS", "collection_times": "Mo-Fr 13:45; Sa 12:45", "name": "USPS COLLECTION BOX - BLUE BOX", "note": "ON 12/24 AND 12/31, THIS BOX MAY BE COLLECTED AS EARLY AS 12 NOON.", "ref": "4872800001"}, "type": "Feature"}
{"geometry": {"coordinates": [-83.807558, 44.714398], "type": "Point"}, "id": "z3kszqNQxSKrL33MsSdQCtWaeIQ=", "properties": {"@spider": "usps_collection_boxes", "addr:city": "CURRAN", "addr:country": "US", "addr:full": "2071 N CURRAN RD", "addr:postcode": "48728", "addr:state": "MI", "brand": "USPS", "collection_times": "Mo-Fr 13:45; Sa 12:45", "name": "USPS COLLECTION BOX - PO LOBBY", "note": "ON 12/24 AND 12/31, THIS BOX MAY BE COLLECTED AS EARLY AS 12 NOON.", "ref": "4872800002"}, "type": "Feature"}
{"geometry": {"coordinates": [-83.807585035, 44.714383225], "type": "Point"}, "id": "tL8jvbVw4n7DRNw8yi_lXdQU_tk=", "properties": {"@spider": "usps_collection_boxes", "addr:city": "CURRAN", "addr:country": "US", "addr:full": "2071 N CURRAN RD", "addr:postcode": "48728", "addr:state": "MI", "brand": "USPS", "collection_times": "Mo-Fr 13:30; Sa 12:30", "name": "USPS COLLECTION BOX - PO LOBBY", "note": "ON 12/24 AND 12/31, THIS BOX MAY BE COLLECTED AS EARLY AS 12 NOON.", "ref": "4872800003"}, "type": "Feature"}
{"geometry": {"coordinates": [-83.738123, 43.336097], "type": "Point"}, "id": "qfN5YeA7iq1yqTFkxO56SR8oYco=", "properties": {"@spider": "usps_collection_boxes", "addr:city": "FRANKENMUTH", "addr:country": "US", "addr:full": "119 N MAIN ST", "addr:postcode": "48734", "addr:state": "MI", "brand": "USPS", "collection_times": "Mo-Fr 17:00; Sa 14:00", "name": "USPS COLLECTION BOX - BLUE BOX", "note": "ON 12/24 AND 12/31, THIS BOX MAY BE COLLECTED AS EARLY AS 12 NOON.", "ref": "4873400001"}, "type": "Feature"}
{"geometry": {"coordinates": [-83.7404299, 43.327266], "type": "Point"}, "id": "VlFGweOO3NwTe_j4gPOJL0wC0-0=", "properties": {"@spider": "usps_collection_boxes", "addr:city": "FRANKENMUTH", "addr:country": "US", "addr:full": "664 S MAIN ST", "addr:postcode": "48734", "addr:state": "MI", "brand": "USPS", "collection_times": "Mo-Sa 10:00", "name": "USPS COLLECTION BOX - BLUE BOX", "ref": "4873400008"}, "type": "Feature"}
{"geometry": {"coordinates": [-83.73816, 43.33604], "type": "Point"}, "id": "YcOTqnfZyrCqOrr9Vu8Avc65Nhc=", "properties": {"@spider": "usps_collection_boxes", "addr:city": "FRANKENMUTH", "addr:country": "US", "addr:full": "119 N MAIN ST", "addr:postcode": "48734", "addr:state": "MI", "brand": "USPS", "collection_times": "Mo-Fr 17:00; Sa 14:00", "name": "USPS COLLECTION BOX - PO LOBBY", "note": "ON 12/24 AND 12/31, THIS BOX MAY BE COLLECTED AS EARLY AS 12 NOON.", "ref": "4873400011"}, "type": "Feature"}
{"geometry": {"coordinates": [-83.738132218, 43.336556445], "type": "Point"}, "id": "45J2Fo5Mhi8M4O6T60npFRlye70=", "properties": {"@spider": "usps_collection_boxes", "addr:city": "FRANKENMUTH", "addr:country": "US", "addr:full": "119 N MAIN ST", "addr:postcode": "48734", "addr:state": "MI", "brand": "USPS", "collection_times": "Mo-Fr 16:30; Sa 11:30", "name": "USPS COLLECTION BOX - PO LOBBY", "note": "ON 12/24 AND 12/31, THIS BOX MAY BE COLLECTED AS EARLY AS 12 NOON.", "ref": "4873400013"}, "type": "Feature"}
{"geometry": {"coordinates": [-83.726534, 44.563834], "type": "Point"}, "id": "FX6VlefhfFZeeiL_yx4yyzu-vBs=", "properties": {"@spider": "usps_collection_boxes", "addr:city": "GLENNIE", "addr:country": "US", "addr:full": "3160 STATE RD", "addr:postcode": "48737", "addr:state": "MI", "brand": "USPS", "collection_times": "Mo-Fr 14:20; Sa 09:30", "name": "USPS COLLECTION BOX - BLUE BOX", "note": "ON 12/24 AND 12/31, THIS BOX MAY BE COLLECTED AS EARLY AS 12 NOON.", "ref": "4873700001"}, "type": "Feature"}
{"geometry": {"coordinates": [-83.726534, 44.563834], "type": "Point"}, "id": "ncJr1joVtdobWYePZ_17RKjlHDA=", "properties": {"@spider": "usps_collection_boxes", "addr:city": "GLENNIE", "addr:country": "US", "addr:full": "3160 STATE RD", "addr:postcode": "48737", "addr:state": "MI", "brand": "USPS", "collection_times": "Mo-Fr 14:20; Sa 09:30", "name": "USPS COLLECTION BOX - PO LOBBY", "note": "ON 12/24 AND 12/31, THIS BOX MAY BE COLLECTED AS EARLY AS 12 NOON.", "ref": "4873700004"}, "type": "Feature"}
{"geometry": {"coordinates": [-83.726552393, 44.563813257], "type": "Point"}, "id": "WJ3drEz7ICKaJ4YpxgkPAu6LnmM=", "properties": {"@spider": "usps_collection_boxes", "addr:city": "GLENNIE", "addr:country": "US", "addr:full": "3160 STATE RD", "addr:postcode": "48737", "addr:state": "MI", "brand": "USPS", "collection_times": "Mo-Fr 14:00; Sa 10:30", "name": "USPS COLLECTION BOX - PO LOBBY", "note": "ON 12/24 AND 12/31, THIS BOX MAY BE COLLECTED AS EARLY AS 12 NOON.", "ref": "4873700005"}, "type": "Feature"}
{"geometry": {"coordinates": [-83.316632, 44.58724], "type": "Point"}, "id": "8N4HD-dGso_M3FHubWEitTaIV-Q=", "properties": {"@spider": "usps_collection_boxes", "addr:city": "GREENBUSH", "addr:country": "US", "addr:full": "2398 S US HIGHWAY 23", "addr:postcode": "48738", "addr:state": "MI", "brand": "USPS", "collection_times": "Mo-Fr 15:40; Sa 09:30", "name": "USPS COLLECTION BOX - BLUE BOX", "note": "ON 12/24 AND 12/31, THIS BOX MAY BE COLLECTED AS EARLY AS 12 NOON.", "ref": "4873800001"}, "type": "Feature"}
{"geometry": {"coordinates": [-83.316632, 44.58724], "type": "Point"}, "id": "xQtdohqhhXHt-q8O6OGG51wkKGk=", "properties": {"@spider": "usps_collection_boxes", "addr:city": "GREENBUSH", "addr:country": "US", "addr:full": "2398 S US HIGHWAY 23", "addr:postcode": "48738", "addr:state": "MI", "brand": "USPS", "collection_times": "Mo-Fr 15:40; Sa 09:30", "name": "USPS COLLECTION BOX - PO LOBBY", "note": "ON 12/24 AND 12/31, THIS BOX MAY BE COLLECTED AS EARLY AS 12 NOON.", "ref": "4873800002"}, "type": "Feature"}
{"geometry": {"coordinates": [-83.316651307, 44.587197277], "type": "Point"}, "id": "8D556mpyfM46FxlhC0NQqQVLakg=", "properties": {"@spider": "usps_collection_boxes", "addr:city": "GREENBUSH", "addr:country": "US", "addr:full": "2398 S US HIGHWAY 23", "addr:postcode": "48738", "addr:state": "MI", "brand": "USPS", "collection_times": "Mo-Fr 15:30; Sa 11:00", "name": "USPS COLLECTION BOX - PO LOBBY", "note": "ON 12/24 AND 12/31, THIS BOX MAY BE COLLECTED AS EARLY AS 12 NOON.", "ref": "4873800003"}, "type": "Feature"}
{"geometry": {"coordinates": [-83.29119, 44.6567], "type": "Point"}, "id": "KvAET5u_wBKbwbzsqAgku45gjHI=", "properties": {"@spider": "usps_collection_boxes", "addr:city": "HARRISVILLE", "addr:country": "US", "addr:full": "109 1ST ST", "addr:postcode": "48740", "addr:state": "MI", "brand": "USPS", "collection_times": "Mo-Fr 15:25; Sa 09:30", "name": "USPS COLLECTION BOX - BLUE BOX", "note": "ON 12/24 AND 12/31, THIS BOX MAY BE COLLECTED AS EARLY AS 12 NOON.", "ref": "4874000001"}, "type": "Feature"}
{"geometry": {"coordinates": [-83.29119, 44.6567], "type": "Point"}, "id": "G7y213fNjIbsXjxSmhdws8I8aXo=", "properties": {"@spider": "usps_collection_boxes", "addr:city": "HARRISVILLE", "addr:country": "US", "addr:full": "109 1ST ST", "addr:postcode": "48740", "addr:state": "MI", "brand": "USPS", "collection_times": "Mo-Fr 15:25; Sa 09:30", "name": "USPS COLLECTION BOX - PO LOBBY", "note": "ON 12/24 AND 12/31, THIS BOX MAY BE COLLECTED AS EARLY AS 12 NOON.", "ref": "4874000002"}, "type": "Feature"}
{"geometry": {"coordinates": [-83.291220591, 44.656670327], "type": "Point"}, "id": "uVwn_lLbl4858_k4GqM3Em8xF8U=", "properties": {"@spider": "usps_collection_boxes", "addr:city": "HARRISVILLE", "addr:country": "US", "addr:full": "109 1ST ST", "addr:postcode": "48740", "addr:state": "MI", "brand": "USPS", "collection_times": "Mo-Fr 15:00", "name": "USPS COLLECTION BOX - PO LOBBY", "note": "ON 12/24 AND 12/31, THIS BOX MAY BE COLLECTED AS EARLY AS 12 NOON.", "ref": "4874000003"}, "type": "Feature"}
{"geometry": {"coordinates": [-83.187298, 43.413355], "type": "Point"}, "id": "GWQrEhf8RAumYl_DpIKRKr1TAZU=", "properties": {"@spider": "usps_collection_boxes", "addr:city": "KINGSTON", "addr:country": "US", "addr:full": "3484 RIVER ST", "addr:postcode": "48741", "addr:state": "MI", "brand": "USPS", "collection_times": "Mo-Fr 14:55; Sa 09:15", "name": "USPS COLLECTION BOX - BLUE BOX", "note": "ON 12/24 AND 12/31, THIS BOX MAY BE COLLECTED AS EARLY AS 12 NOON.", "ref": "4874100001"}, "type": "Feature"}
{"geometry": {"coordinates": [-83.187298, 43.413355], "type": "Point"}, "id": "MhhQmvmjS26aNjML7pkGBeMGxDQ=", "properties": {"@spider": "usps_collection_boxes", "addr:city": "KINGSTON", "addr:country": "US", "addr:full": "3484 RIVER ST", "addr:postcode": "48741", "addr:state": "MI", "brand": "USPS", "collection_times": "Mo-Fr 14:55; Sa 09:15", "name": "USPS COLLECTION BOX - PO LOBBY", "note": "ON 12/24 AND 12/31, THIS BOX MAY BE COLLECTED AS EARLY AS 12 NOON.", "ref": "4874100002"}, "type": "Feature"}
{"geometry": {"coordinates": [-83.187319718, 43.413335694], "type": "Point"}, "id": "MMfoc3iStkOnYvUxiFPjzFv72EQ=", "properties": {"@spider": "usps_collection_boxes", "addr:city": "KINGSTON", "addr:country": "US", "addr:full": "3484 RIVER ST", "addr:postcode": "48741", "addr:state": "MI", "brand": "USPS", "collection_times": "Mo-Fr 14:30; Sa 09:30", "name": "USPS COLLECTION BOX - PO LOBBY", "note": "ON 12/24 AND 12/31, THIS BOX MAY BE COLLECTED AS EARLY AS 12 NOON.", "ref": "4874100003"}, "type": "Feature"}
{"geometry": {"coordinates": [-83.411557, 44.682671], "type": "Point"}, "id": "0zCSNDeMQn5128rrCMHoKNoY0Wo=", "properties": {"@spider": "usps_collection_boxes", "addr:city": "LINCOLN", "addr:country": "US", "addr:full": "215 S 2ND ST", "addr:postcode": "48742", "addr:state": "MI", "brand": "USPS", "collection_times": "Mo-Fr 14:45; Sa 09:30", "name": "USPS COLLECTION BOX - BLUE BOX", "note": "ON 12/24 AND 12/31, THIS BOX MAY BE COLLECTED AS EARLY AS 12 NOON.", "ref": "4874200001"}, "type": "Feature"}
{"geometry": {"coordinates": [-83.411557, 44.682671], "type": "Point"}, "id": "BRJFEvKTQd5f_Tj-R1SyzIg_z8k=", "properties": {"@spider": "usps_collection_boxes", "addr:city": "LINCOLN", "addr:country": "US", "addr:full": "215 S 2ND ST", "addr:postcode": "48742", "addr:state": "MI", "brand": "USPS", "collection_times": "Mo-Fr 14:45; Sa 09:30", "name": "USPS COLLECTION BOX - PO LOBBY", "note": "ON 12/24 AND 12/31, THIS BOX MAY BE COLLECTED AS EARLY AS 12 NOON.", "ref": "4874200002"}, "type": "Feature"}
{"geometry": {"coordinates": [-83.411540708, 44.682694148], "type": "Point"}, "id": "CkeFnVPoEYwkEcP24j6geowBI-4=", "properties": {"@spider": "usps_collection_boxes", "addr:city": "LINCOLN", "addr:country": "US", "addr:full": "215 S 2ND ST", "addr:postcode": "48742", "addr:state": "MI", "brand": "USPS", "collection_times": "Mo-Fr 14:30", "name": "USPS COLLECTION BOX - PO LOBBY", "note": "ON 12/24 AND 12/31, THIS BOX MAY BE COLLECTED AS EARLY AS 12 NOON.", "ref": "4874200003"}, "type": "Feature"}
{"geometry": {"coordinates": [-83.352518, 43.33473], "type": "Point"}, "id": "eNeOoQXZ9OhcjuJ6Ner_NgA9hxo=", "properties": {"@spider": "usps_collection_boxes", "addr:city": "MAYVILLE", "addr:country": "US", "addr:full": "6120 FULTON ST", "addr:postcode": "48744", "addr:state": "MI", "brand": "USPS", "collection_times": "Mo-Fr 15:50; Sa 11:00", "name": "USPS COLLECTION BOX - BLUE BOX", "note": "ON 12/24 AND 12/31, THIS BOX MAY BE COLLECTED AS EARLY AS 12 NOON.", "ref": "4874400001"}, "type": "Feature"}
{"geometry": {"coordinates": [-83.352518, 43.33473], "type": "Point"}, "id": "q4ej6yUQ23VkakjQgSWyUyj9w9s=", "properties": {"@spider": "usps_collection_boxes", "addr:city": "MAYVILLE", "addr:country": "US", "addr:full": "6120 FULTON ST", "addr:postcode": "48744", "addr:state": "MI", "brand": "USPS", "collection_times": "Mo-Fr 15:50; Sa 11:00", "name": "USPS COLLECTION BOX - BLUE BOX", "note": "ON 12/24 AND 12/31, THIS BOX MAY BE COLLECTED AS EARLY AS 12 NOON.", "ref": "4874400002"}, "type": "Feature"}
{"geometry": {"coordinates": [-83.352518, 43.33473], "type": "Point"}, "id": "Pn3keuu7A_UzJq4uX4aRJlIUG3o=", "properties": {"@spider": "usps_collection_boxes", "addr:city": "MAYVILLE", "addr:country": "US", "addr:full": "6120 FULTON ST", "addr:postcode": "48744", "addr:state": "MI", "brand": "USPS", "collection_times": "Mo-Fr 15:50; Sa 11:00", "name": "USPS COLLECTION BOX - PO LOBBY", "note": "ON 12/24 AND 12/31, THIS BOX MAY BE COLLECTED AS EARLY AS 12 NOON.", "ref": "4874400003"}, "type": "Feature"}
{"geometry": {"coordinates": [-83.352538738, 43.334739145], "type": "Point"}, "id": "k3NcXq2UkoHdVhP2k956-sezsDg=", "properties": {"@spider": "usps_collection_boxes", "addr:city": "MAYVILLE", "addr:country": "US", "addr:full": "6120 FULTON ST", "addr:postcode": "48744", "addr:state": "MI", "brand": "USPS", "collection_times": "Mo-Fr 16:00; Sa 11:30", "name": "USPS COLLECTION BOX - PO LOBBY", "note": "ON 12/24 AND 12/31, THIS BOX MAY BE COLLECTED AS EARLY AS 12 NOON.", "ref": "4874400005"}, "type": "Feature"}
{"geometry": {"coordinates": [-83.422611857, 44.590708125], "type": "Point"}, "id": "VnG_9vgWkDASwnIyH1UtjCtXedM=", "properties": {"@spider": "usps_collection_boxes", "addr:city": "MIKADO", "addr:country": "US", "addr:full": "2256 S F 41", "addr:postcode": "48745", "addr:state": "MI", "brand": "USPS", "collection_times": "Mo-Fr 15:00; Sa 09:00", "name": "USPS COLLECTION BOX - BLUE BOX", "note": "ON 12/24 AND 12/31, THIS BOX MAY BE COLLECTED AS EARLY AS 12 NOON.", "ref": "4874500001"}, "type": "Feature"}
{"geometry": {"coordinates": [-83.422611857, 44.590708125], "type": "Point"}, "id": "AYoGrbvgj5vHr8GdCja-LtJD6iI=", "properties": {"@spider": "usps_collection_boxes", "addr:city": "MIKADO", "addr:country": "US", "addr:full": "2256 S F 41", "addr:postcode": "48745", "addr:state": "MI", "brand": "USPS", "collection_times": "Mo-Fr 15:00; Sa 09:00", "name": "USPS COLLECTION BOX - PO LOBBY", "note": "ON 12/24 AND 12/31, THIS BOX MAY BE COLLECTED AS EARLY AS 12 NOON.", "ref": "4874500002"}, "type": "Feature"}
{"geometry": {"coordinates": [-83.422611857, 44.590708125], "type": "Point"}, "id": "A0ND7ybmRc9h4ctdYXMUZ0chmrY=", "properties": {"@spider": "usps_collection_boxes", "addr:city": "MIKADO", "addr:country": "US", "addr:full": "2256 S F 41", "addr:postcode": "48745", "addr:state": "MI", "brand": "USPS", "collection_times": "Mo-Fr 15:00", "name": "USPS COLLECTION BOX - PO LOBBY", "note": "ON 12/24 AND 12/31, THIS BOX MAY BE COLLECTED AS EARLY AS 12 NOON.", "ref": "4874500003"}, "type": "Feature"}
{"geometry": {"coordinates": [-83.530108, 43.28132], "type": "Point"}, "id": "x8kAJd1YEcrg0jrTs7TCyctU9qc=", "properties": {"@spider": "usps_collection_boxes", "addr:city": "MILLINGTON", "addr:country": "US", "addr:full": "4717 MAIN ST", "addr:postcode": "48746", "addr:state": "MI", "brand": "USPS", "collection_times": "Mo-Fr 16:45; Sa 12:45", "name": "USPS COLLECTION BOX - BLUE BOX", "note": "ON 12/24 AND 12/31, THIS BOX MAY BE COLLECTED AS EARLY AS 12 NOON.", "ref": "4874600001"}, "type": "Feature"}
{"geometry": {"coordinates": [-83.5290861, 43.280202], "type": "Point"}, "id": "XW5wvSAjip58GaRaNR_9gWroQ1U=", "properties": {"@spider": "usps_collection_boxes", "addr:city": "MILLINGTON", "addr:country": "US", "addr:full": "4728 CENTER ST", "addr:postcode": "48746", "addr:state": "MI", "brand": "USPS", "collection_times": "Mo-Sa 11:00", "name": "USPS COLLECTION BOX - BLUE BOX", "ref": "4874600002"}, "type": "Feature"}
{"geometry": {"coordinates": [-83.530108, 43.28132], "type": "Point"}, "id": "GVrkzMnvipOFyf5Jwdtoryti0o8=", "properties": {"@spider": "usps_collection_boxes", "addr:city": "MILLINGTON", "addr:country": "US", "addr:full": "4717 MAIN ST", "addr:postcode": "48746", "addr:state": "MI", "brand": "USPS", "collection_times": "Mo-Fr 16:45; Sa 12:45", "name": "USPS COLLECTION BOX - PO LOBBY", "note": "ON 12/24 AND 12/31, THIS BOX MAY BE COLLECTED AS EARLY AS 12 NOON.", "ref": "4874600003"}, "type": "Feature"}
{"geometry": {"coordinates": [-83.530082422, 43.281259835], "type": "Point"}, "id": "Xaxti9fxVdoTK9XmYNNMin7DNDc=", "properties": {"@spider": "usps_collection_boxes", "addr:city": "MILLINGTON", "addr:country": "US", "addr:full": "4717 MAIN ST", "addr:postcode": "48746", "addr:state": "MI", "brand": "USPS", "collection_times": "Mo-Fr 16:00; Sa 11:30", "name": "USPS COLLECTION BOX - PO LOBBY", "note": "ON 12/24 AND 12/31, THIS BOX MAY BE COLLECTED AS EARLY AS 12 NOON.", "ref": "4874600005"}, "type": "Feature"}
{"geometry": {"coordinates": [-83.777871, 43.522016], "type": "Point"}, "id": "cVXMv4SGrX_HF_OheIPONuLU4N4=", "properties": {"@spider": "usps_collection_boxes", "addr:city": "MUNGER", "addr:country": "US", "addr:full": "11 E MUNGER RD", "addr:postcode": "48747", "addr:state": "MI", "brand": "USPS", "collection_times": "Mo-Fr 14:25; Sa 08:45", "name": "USPS COLLECTION BOX - BLUE BOX", "note": "ON 12/24 AND 12/31, THIS BOX MAY BE COLLECTED AS EARLY AS 12 NOON.", "ref": "4874700001"}, "type": "Feature"}
{"geometry": {"coordinates": [-83.777871, 43.522016], "type": "Point"}, "id": "w08humsmSVyoPCwbBjILKVEre2I=", "properties": {"@spider": "usps_collection_boxes", "addr:city": "MUNGER", "addr:country": "US", "addr:full": "11 E MUNGER RD", "addr:postcode": "48747", "addr:state": "MI", "brand": "USPS", "collection_times": "Mo-Fr 14:25; Sa 08:45", "name": "USPS COLLECTION BOX - PO LOBBY", "note": "ON 12/24 AND 12/31, THIS BOX MAY BE COLLECTED AS EARLY AS 12 NOON.", "ref": "4874700002"}, "type": "Feature"}
{"geometry": {"coordinates": [-83.777871693, 43.522015493], "type": "Point"}, "id": "HiTMu2fUWbGcqxTvMpjBciVcxsM=", "properties": {"@spider": "usps_collection_boxes", "addr:city": "MUNGER", "addr:country": "US", "addr:full": "11 E MUNGER RD", "addr:postcode": "48747", "addr:state": "MI", "brand": "USPS", "collection_times": "Mo-Fr 14:00; Sa 08:15", "name": "USPS COLLECTION BOX - PO LOBBY", "note": "ON 12/24 AND 12/31, THIS BOX MAY BE COLLECTED AS EARLY AS 12 NOON.", "ref": "4874700003"}, "type": "Feature"}
{"geometry": {"coordinates": [-83.3304393, 44.417762], "type": "Point"}, "id": "Kjo_TC8e_s-nXkaAfdDMPR5V6vg=", "properties": {"@spider": "usps_collection_boxes", "addr:city": "OSCODA", "addr:country": "US", "addr:full": "328 S STATE ST", "addr:postcode": "48750", "addr:state": "MI", "brand": "USPS", "collection_times": "Mo-Fr 13:45; Sa 12:30", "name": "USPS COLLECTION BOX - BLUE BOX", "note": "ON 12/24 AND 12/31, THIS BOX MAY BE COLLECTED AS EARLY AS 12 NOON.", "ref": "4875000005"}, "type": "Feature"}
{"geometry": {"coordinates": [-83.330326866, 44.42161221], "type": "Point"}, "id": "DWzjRrXhXxWCvyY2aYBozu-rCEM=", "properties": {"@spider": "usps_collection_boxes", "addr:city": "OSCODA", "addr:country": "US", "addr:full": "221 N STATE ST", "addr:postcode": "48750", "addr:state": "MI", "brand": "USPS", "collection_times": "Mo-Fr 16:00; Sa 12:30", "name": "USPS COLLECTION BOX - PO LOBBY", "note": "ON 12/24 AND 12/31, THIS BOX MAY BE COLLECTED AS EARLY AS 12 NOON.", "ref": "4875000007"}, "type": "Feature"}
{"geometry": {"coordinates": [-83.330326866, 44.42161221], "type": "Point"}, "id": "R0WbFAE2nqggACxdBjlbFZlUKmM=", "properties": {"@spider": "usps_collection_boxes", "addr:city": "OSCODA", "addr:country": "US", "addr:full": "221 N STATE ST", "addr:postcode": "48750", "addr:state": "MI", "brand": "USPS", "collection_times": "Mo-Fr 16:00; Sa 12:30", "name": "USPS COLLECTION BOX - BLUE BOX", "note": "ON 12/24 AND 12/31, THIS BOX MAY BE COLLECTED AS EARLY AS 12 NOON.", "ref": "4875000009"}, "type": "Feature"}
{"geometry": {"coordinates": [-83.330326866, 44.42161221], "type": "Point"}, "id": "isFx9sO-HD844TWn-fIy0nMj3es=", "properties": {"@spider": "usps_collection_boxes", "addr:city": "OSCODA", "addr:country": "US", "addr:full": "221 N STATE ST", "addr:postcode": "48750", "addr:state": "MI", "brand": "USPS", "collection_times": "Mo-Fr 16:00; Sa 11:30", "name": "USPS COLLECTION BOX - PO LOBBY", "note": "ON 12/24 AND 12/31, THIS BOX MAY BE COLLECTED AS EARLY AS 12 NOON.", "ref": "4875000010"}, "type": "Feature"}
{"geometry": {"coordinates": [-83.6963787189, 43.4487150252], "type": "Point"}, "id": "CJC5yHfCwgTd5KHn6wzs4IFJNC4=", "properties": {"@spider": "usps_collection_boxes", "addr:city": "REESE", "addr:country": "US", "addr:full": "2077 GATES ST", "addr:postcode": "48757", "addr:state": "MI", "brand": "USPS", "collection_times": "Mo-Fr 16:30; Sa 08:15", "name": "USPS COLLECTION BOX - BLUE BOX", "note": "ON 12/24 AND 12/31, THIS BOX MAY BE COLLECTED AS EARLY AS 12 NOON.", "ref": "4875700002"}, "type": "Feature"}
{"geometry": {"coordinates": [-83.696397, 43.448737], "type": "Point"}, "id": "nmEUegROULEt9Q_yNCH7sVFR06g=", "properties": {"@spider": "usps_collection_boxes", "addr:city": "REESE", "addr:country": "US", "addr:full": "2077 GATES ST", "addr:postcode": "48757", "addr:state": "MI", "brand": "USPS", "collection_times": "Mo-Fr 16:30; Sa 08:15", "name": "USPS COLLECTION BOX - PO LOBBY", "note": "ON 12/24 AND 12/31, THIS BOX MAY BE COLLECTED AS EARLY AS 12 NOON.", "ref": "4875700005"}, "type": "Feature"}
{"geometry": {"coordinates": [-83.696378719, 43.448715025], "type": "Point"}, "id": "0o0YM2gAND2P7n9voT0Ns8T5dkQ=", "properties": {"@spider": "usps_collection_boxes", "addr:city": "REESE", "addr:country": "US", "addr:full": "2077 GATES ST", "addr:postcode": "48757", "addr:state": "MI", "brand": "USPS", "collection_times": "Mo-Fr 16:00; Sa 10:30", "name": "USPS COLLECTION BOX - PO LOBBY", "note": "ON 12/24 AND 12/31, THIS BOX MAY BE COLLECTED AS EARLY AS 12 NOON.", "ref": "4875700006"}, "type": "Feature"}
{"geometry": {"coordinates": [-83.677199032, 43.409096551], "type": "Point"}, "id": "Q91nUJhOcz0ICkLQkhH-AhMK9Ic=", "properties": {"@spider": "usps_collection_boxes", "addr:city": "RICHVILLE", "addr:country": "US", "addr:full": "9400 W SAGINAW RD", "addr:postcode": "48758", "addr:state": "MI", "brand": "USPS", "collection_times": "Mo-Fr 15:00; Sa 10:00", "name": "USPS COLLECTION BOX - BLUE BOX", "note": "ON 12/24 AND 12/31, THIS BOX MAY BE COLLECTED AS EARLY AS 12 NOON.", "ref": "4875800001"}, "type": "Feature"}
{"geometry": {"coordinates": [-83.677199032, 43.409096551], "type": "Point"}, "id": "3osyNbsxPZqj0dZlRaiBspg5OEs=", "properties": {"@spider": "usps_collection_boxes", "addr:city": "RICHVILLE", "addr:country": "US", "addr:full": "9400 W SAGINAW RD", "addr:postcode": "48758", "addr:state": "MI", "brand": "USPS", "collection_times": "Mo-Fr 15:00; Sa 10:00", "name": "USPS COLLECTION BOX - PO LOBBY", "note": "ON 12/24 AND 12/31, THIS BOX MAY BE COLLECTED AS EARLY AS 12 NOON.", "ref": "4875800003"}, "type": "Feature"}
{"geometry": {"coordinates": [-83.677220336, 43.409265744], "type": "Point"}, "id": "D9QxPJlCQFkeSYbvgk-FJLYejSo=", "properties": {"@spider": "usps_collection_boxes", "addr:city": "RICHVILLE", "addr:country": "US", "addr:full": "9400 W SAGINAW RD", "addr:postcode": "48758", "addr:state": "MI", "brand": "USPS", "collection_times": "Mo-Fr 14:30; Sa 10:30", "name": "USPS COLLECTION BOX - PO LOBBY", "note": "ON 12/24 AND 12/31, THIS BOX MAY BE COLLECTED AS EARLY AS 12 NOON.", "ref": "4875800004"}, "type": "Feature"}
{"geometry": {"coordinates": [-83.247383, 43.323113], "type": "Point"}, "id": "zCifKbKbgRA3XqdpRfxvcDpkfIs=", "properties": {"@spider": "usps_collection_boxes", "addr:city": "SILVERWOOD", "addr:country": "US", "addr:full": "2760 CLIFFORD RD", "addr:postcode": "48760", "addr:state": "MI", "brand": "USPS", "collection_times": "Mo-Fr 11:45; Sa 09:00", "name": "USPS COLLECTION BOX - BLUE BOX", "ref": "4876000001"}, "type": "Feature"}
{"geometry": {"coordinates": [-83.247383, 43.323113], "type": "Point"}, "id": "a2VfxZP9OzyeN6F3nE9Cgtk7-20=", "properties": {"@spider": "usps_collection_boxes", "addr:city": "SILVERWOOD", "addr:country": "US", "addr:full": "2760 CLIFFORD RD", "addr:postcode": "48760", "addr:state": "MI", "brand": "USPS", "collection_times": "Mo-Fr 11:45; Sa 09:00", "name": "USPS COLLECTION BOX - PO LOBBY", "ref": "4876000002"}, "type": "Feature"}
{"geometry": {"coordinates": [-83.247416087, 43.323057126], "type": "Point"}, "id": "7VdnII8BQfLNyixs46PxBtlUGg0=", "properties": {"@spider": "usps_collection_boxes", "addr:city": "SILVERWOOD", "addr:country": "US", "addr:full": "2760 CLIFFORD RD", "addr:postcode": "48760", "addr:state": "MI", "brand": "USPS", "collection_times": "Mo-Fr 11:30", "name": "USPS COLLECTION BOX - PO LOBBY", "ref": "4876000003"}, "type": "Feature"}
{"geometry": {"coordinates": [-83.466151, 44.844104], "type": "Point"}, "id": "Vhwi0ziLIYAt8d0cjKkSSztALgI=", "properties": {"@spider": "usps_collection_boxes", "addr:city": "SPRUCE", "addr:country": "US", "addr:full": "1495 E SPRUCE RD", "addr:postcode": "48762", "addr:state": "MI", "brand": "USPS", "collection_times": "Mo-Fr 14:20; Sa 09:30", "name": "USPS COLLECTION BOX - BLUE BOX", "note": "ON 12/24 AND 12/31, THIS BOX MAY BE COLLECTED AS EARLY AS 12 NOON.", "ref": "4876200001"}, "type": "Feature"}
{"geometry": {"coordinates": [-83.466151, 44.844104], "type": "Point"}, "id": "YfQqGCTcZdu5bJoyVzmbfnlwWbc=", "properties": {"@spider": "usps_collection_boxes", "addr:city": "SPRUCE", "addr:country": "US", "addr:full": "1495 E SPRUCE RD", "addr:postcode": "48762", "addr:state": "MI", "brand": "USPS", "collection_times": "Mo-Fr 14:20; Sa 09:30", "name": "USPS COLLECTION BOX - PO LOBBY", "note": "ON 12/24 AND 12/31, THIS BOX MAY BE COLLECTED AS EARLY AS 12 NOON.", "ref": "4876200002"}, "type": "Feature"}
{"geometry": {"coordinates": [-83.4661287287, 44.844153623], "type": "Point"}, "id": "o3sZcJAwijl5ueo30WMOFJI_UJw=", "properties": {"@spider": "usps_collection_boxes", "addr:city": "SPRUCE", "addr:country": "US", "addr:full": "1495 E SPRUCE RD", "addr:postcode": "48762", "addr:state": "MI", "brand": "USPS", "collection_times": "Mo-Fr 14:15", "name": "USPS COLLECTION BOX - PO LOBBY", "note": "ON 12/24 AND 12/31, THIS BOX MAY BE COLLECTED AS EARLY AS 12 NOON.", "ref": "4876200003"}, "type": "Feature"}
{"geometry": {"coordinates": [-83.582603, 43.373425], "type": "Point"}, "id": "8lUGtdj1oWimIpAiiSgQWC2y37k=", "properties": {"@spider": "usps_collection_boxes", "addr:city": "VASSAR", "addr:country": "US", "addr:full": "203 N MAIN ST", "addr:postcode": "48768", "addr:state": "MI", "brand": "USPS", "collection_times": "Mo-Fr 16:30; Sa 11:00", "name": "USPS COLLECTION BOX - BLUE BOX", "note": "ON 12/24 AND 12/31, THIS BOX MAY BE COLLECTED AS EARLY AS 12 NOON.", "ref": "4876800003"}, "type": "Feature"}
{"geometry": {"coordinates": [-83.5786259, 43.370126], "type": "Point"}, "id": "bJHps3YkLQav7TY0Zq7szT3wg-c=", "properties": {"@spider": "usps_collection_boxes", "addr:city": "VASSAR", "addr:country": "US", "addr:full": "320 E HURON AVE", "addr:postcode": "48768", "addr:state": "MI", "brand": "USPS", "collection_times": "Mo-Sa 11:30", "name": "USPS COLLECTION BOX - BLUE BOX", "ref": "4876800007"}, "type": "Feature"}
{"geometry": {"coordinates": [-83.5803815, 43.362867], "type": "Point"}, "id": "3FbsAxdihJ2ZCoADumEYtbOblH8=", "properties": {"@spider": "usps_collection_boxes", "addr:city": "VASSAR", "addr:country": "US", "addr:full": "500 GOODRICH ST", "addr:postcode": "48768", "addr:state": "MI", "brand": "USPS", "collection_times": "Mo-Sa 09:30", "name": "USPS COLLECTION BOX - BLUE BOX", "ref": "4876800009"}, "type": "Feature"}
{"geometry": {"coordinates": [-83.5834566, 43.371895], "type": "Point"}, "id": "pTLis3Xzw2HgviGQJSZU2ihmUnw=", "properties": {"@spider": "usps_collection_boxes", "addr:city": "VASSAR", "addr:country": "US", "addr:full": "101 S MAIN ST", "addr:postcode": "48768", "addr:state": "MI", "brand": "USPS", "collection_times": "Mo-Sa 12:00", "name": "USPS COLLECTION BOX - BLUE BOX", "ref": "4876800011"}, "type": "Feature"}
{"geometry": {"coordinates": [-83.582603, 43.373425], "type": "Point"}, "id": "CJcqXQEnb1CENZyhmKoz60tYbjM=", "properties": {"@spider": "usps_collection_boxes", "addr:city": "VASSAR", "addr:country": "US", "addr:full": "203 N MAIN ST", "addr:postcode": "48768", "addr:state": "MI", "brand": "USPS", "collection_times": "Mo-Fr 16:30; Sa 11:00", "name": "USPS COLLECTION BOX - PO LOBBY", "note": "ON 12/24 AND 12/31, THIS BOX MAY BE COLLECTED AS EARLY AS 12 NOON.", "ref": "4876800012"}, "type": "Feature"}
{"geometry": {"coordinates": [-83.58263345, 43.373495694], "type": "Point"}, "id": "2ZaEws4p-RAFSYjniAITvpDqH4g=", "properties": {"@spider": "usps_collection_boxes", "addr:city": "VASSAR", "addr:country": "US", "addr:full": "203 N MAIN ST", "addr:postcode": "48768", "addr:state": "MI", "brand": "USPS", "collection_times": "Mo-Fr 16:00; Sa 11:30", "name": "USPS COLLECTION BOX - PO LOBBY", "note": "ON 12/24 AND 12/31, THIS BOX MAY BE COLLECTED AS EARLY AS 12 NOON.", "ref": "4876800013"}, "type": "Feature"}
