{"geometry": {"coordinates": [-84.420111, 43.132365], "type": "Point"}, "id": "bK0-IDsO1MmE-ZDpRDAe_3xsHWw=", "properties": {"@spider": "usps_collection_boxes", "addr:city": "BANNISTER", "addr:country": "US", "addr:full": "395 E MAIN ST", "addr:postcode": "48807", "addr:state": "MI", "brand": "USPS", "collection_times": "Mo-Fr 10:45; Sa 11:45", "name": "USPS COLLECTION BOX - BLUE BOX", "ref": "4880700001"}, "type": "Feature"}
{"geometry": {"coordinates": [-84.420111, 43.132365], "type": "Point"}, "id": "i9mkAdBPrGgh8H3WYm8H1rOuPos=", "properties": {"@spider": "usps_collection_boxes", "addr:city": "BANNISTER", "addr:country": "US", "addr:full": "395 E MAIN ST", "addr:postcode": "48807", "addr:state": "MI", "brand": "USPS", "collection_times": "Mo-Fr 10:45; Sa 11:45", "name": "USPS COLLECTION BOX - PO LOBBY", "ref": "4880700002"}, "type": "Feature"}
{"geometry": {"coordinates": [-84.4200225, 43.132364453], "type": "Point"}, "id": "0tOKwvmuBPjwyqvMu43_q7QUH5E=", "properties": {"@spider": "usps_collection_boxes", "addr:city": "BANNISTER", "addr:country": "US", "addr:full": "395 E MAIN ST", "addr:postcode": "48807", "addr:state": "MI", "brand": "USPS", "collection_times": "Mo-Fr 10:30; Sa 11:30", "name": "USPS COLLECTION BOX - PO LOBBY", "ref": "4880700003"}, "type": "Feature"}
{"geometry": {"coordinates": [-84.448314, 42.81125], "type": "Point"}, "id": "RktTROe2iqV8bxqqIHxV36G2c9U=", "properties": {"@spider": "usps_collection_boxes", "addr:city": "BATH", "addr:country": "US", "addr:full": "14137 WEBSTER RD", "addr:postcode": "48808", "addr:state": "MI", "brand": "USPS", "collection_times": "Mo-Fr 14:50; Sa 10:00", "name": "USPS COLLECTION BOX - BLUE BOX", "note": "ON 12/24 AND 12/31, THIS BOX MAY BE COLLECTED AS EARLY AS 12 NOON.", "ref": "4880800001"}, "type": "Feature"}
{"geometry": {"coordinates": [-84.448314, 42.81125], "type": "Point"}, "id": "D7UcJJ8dlwRwT49ezPrAoJqKeW4=", "properties": {"@spider": "usps_collection_boxes", "addr:city": "BATH", "addr:country": "US", "addr:full": "14137 WEBSTER RD", "addr:postcode": "48808", "addr:state": "MI", "brand": "USPS", "collection_times": "Mo-Fr 14:50; Sa 10:00", "name": "USPS COLLECTION BOX - PO LOBBY", "note": "ON 12/24 AND 12/31, THIS BOX MAY BE COLLECTED AS EARLY AS 12 NOON.", "ref": "4880800005"}, "type": "Feature"}
{"geometry": {"coordinates": [-84.448312557, 42.811245754], "type": "Point"}, "id": "Fx3bWK7_MjtHdGyAMN8zjvDgrrc=", "properties": {"@spider": "usps_collection_boxes", "addr:city": "BATH", "addr:country": "US", "addr:full": "14137 WEBSTER RD", "addr:postcode": "48808", "addr:state": "MI", "brand": "USPS", "collection_times": "Mo-Fr 14:00; Sa 09:30", "name": "USPS COLLECTION BOX - PO LOBBY", "note": "ON 12/24 AND 12/31, THIS BOX MAY BE COLLECTED AS EARLY AS 12 NOON.", "ref": "4880800007"}, "type": "Feature"}
{"geometry": {"coordinates": [-84.978037194, 43.407406344], "type": "Point"}, "id": "ZQrB5KHnZW92BndSdyeH1wJbVeI=", "properties": {"@spider": "usps_collection_boxes", "addr:city": "CEDAR LAKE", "addr:country": "US", "addr:full": "7772 ACADEMY RD", "addr:postcode": "48812", "addr:state": "MI", "brand": "USPS", "collection_times": "Mo-Fr 14:20; Sa 11:15", "name": "USPS COLLECTION BOX - BLUE BOX", "note": "ON 12/24 AND 12/31, THIS BOX MAY BE COLLECTED AS EARLY AS 12 NOON.", "ref": "4881200001"}, "type": "Feature"}
{"geometry": {"coordinates": [-84.978037194, 43.407406344], "type": "Point"}, "id": "IiStUyneiy6jH5fMy0B961nZBak=", "properties": {"@spider": "usps_collection_boxes", "addr:city": "CEDAR LAKE", "addr:country": "US", "addr:full": "7772 ACADEMY RD", "addr:postcode": "48812", "addr:state": "MI", "brand": "USPS", "collection_times": "Mo-Fr 14:20", "name": "USPS COLLECTION BOX - PO LOBBY", "note": "ON 12/24 AND 12/31, THIS BOX MAY BE COLLECTED AS EARLY AS 12 NOON.", "ref": "4881200002"}, "type": "Feature"}
{"geometry": {"coordinates": [-84.975186178, 43.405434199], "type": "Point"}, "id": "iCEHhQhmSW-nlTS5ZnQ4OMx56bY=", "properties": {"@spider": "usps_collection_boxes", "addr:city": "CEDAR LAKE", "addr:country": "US", "addr:full": "7772 ACADEMY RD", "addr:postcode": "48812", "addr:state": "MI", "brand": "USPS", "collection_times": "Mo-Fr 16:00", "name": "USPS COLLECTION BOX - PO LOBBY", "note": "ON 12/24 AND 12/31, THIS BOX MAY BE COLLECTED AS EARLY AS 12 NOON.", "ref": "4881200003"}, "type": "Feature"}
{"geometry": {"coordinates": [-83.950032809, 42.759663213], "type": "Point"}, "id": "REu4hr4mgDsn0yHQbbqeDBHZOHY=", "properties": {"@spider": "usps_collection_boxes", "addr:city": "COHOCTAH", "addr:country": "US", "addr:full": "1477 W COHOCTAH RD", "addr:postcode": "48816", "addr:state": "MI", "brand": "USPS", "collection_times": "Mo-Fr 14:00; Sa 09:00", "name": "USPS COLLECTION BOX - BLUE BOX", "note": "ON 12/24 AND 12/31, THIS BOX MAY BE COLLECTED AS EARLY AS 12 NOON.", "ref": "4881600001"}, "type": "Feature"}
{"geometry": {"coordinates": [-83.950032809, 42.759663213], "type": "Point"}, "id": "mrYMOlAhQ7brz5-lrx7vp3XOTmY=", "properties": {"@spider": "usps_collection_boxes", "addr:city": "COHOCTAH", "addr:country": "US", "addr:full": "1477 W COHOCTAH RD", "addr:postcode": "48816", "addr:state": "MI", "brand": "USPS", "collection_times": "Mo-Fr 14:00; Sa 09:00", "name": "USPS COLLECTION BOX - PO LOBBY", "note": "ON 12/24 AND 12/31, THIS BOX MAY BE COLLECTED AS EARLY AS 12 NOON.", "ref": "4881600002"}, "type": "Feature"}
{"geometry": {"coordinates": [-83.950032809, 42.759663213], "type": "Point"}, "id": "rGc2tfPWfbtEdC0qGeKpMR1wcRE=", "properties": {"@spider": "usps_collection_boxes", "addr:city": "COHOCTAH", "addr:country": "US", "addr:full": "1477 W COHOCTAH RD", "addr:postcode": "48816", "addr:state": "MI", "brand": "USPS", "collection_times": "Mo-Fr 13:30; Sa 08:30", "name": "USPS COLLECTION BOX - PO LOBBY", "note": "ON 12/24 AND 12/31, THIS BOX MAY BE COLLECTED AS EARLY AS 12 NOON.", "ref": "4881600003"}, "type": "Feature"}
{"geometry": {"coordinates": [-84.117888, 42.982226], "type": "Point"}, "id": "XChwzCzQbywzpMpe4wgNlYMzb7A=", "properties": {"@spider": "usps_collection_boxes", "addr:city": "CORUNNA", "addr:country": "US", "addr:full": "330 N SHIAWASSEE ST", "addr:postcode": "48817", "addr:state": "MI", "brand": "USPS", "collection_times": "Mo-Fr 14:35; Sa 10:30", "name": "USPS COLLECTION BOX - PO LOBBY", "note": "ON 12/24 AND 12/31, THIS BOX MAY BE COLLECTED AS EARLY AS 12 NOON.", "ref": "4881700012"}, "type": "Feature"}
{"geometry": {"coordinates": [-84.1171795, 42.982295], "type": "Point"}, "id": "r64JYf1Y6_xjq1i5XoD8T26kj2w=", "properties": {"@spider": "usps_collection_boxes", "addr:city": "CORUNNA", "addr:country": "US", "addr:full": "310 N SHIAWASSEE ST", "addr:postcode": "48817", "addr:state": "MI", "brand": "USPS", "collection_times": "Mo-Fr 14:35; Sa 10:30", "name": "USPS COLLECTION BOX - BLUE BOX", "note": "ON 12/24 AND 12/31, THIS BOX MAY BE COLLECTED AS EARLY AS 12 NOON.", "ref": "4881700013"}, "type": "Feature"}
{"geometry": {"coordinates": [-84.1171776, 42.982298], "type": "Point"}, "id": "jOWYppjfYcZJWKKqtDXMh8iZcqM=", "properties": {"@spider": "usps_collection_boxes", "addr:city": "CORUNNA", "addr:country": "US", "addr:full": "310 N SHIAWASSEE ST", "addr:postcode": "48817", "addr:state": "MI", "brand": "USPS", "collection_times": "Mo-Fr 14:35; Sa 10:30", "name": "USPS COLLECTION BOX - BLUE BOX", "note": "ON 12/24 AND 12/31, THIS BOX MAY BE COLLECTED AS EARLY AS 12 NOON.", "ref": "4881700014"}, "type": "Feature"}
{"geometry": {"coordinates": [-84.1226931, 42.97421], "type": "Point"}, "id": "iaQ98_1eOMudGk813UVo9biYq74=", "properties": {"@spider": "usps_collection_boxes", "addr:city": "CORUNNA", "addr:country": "US", "addr:full": "601 S NORTON ST", "addr:postcode": "48817", "addr:state": "MI", "brand": "USPS", "collection_times": "Mo-Sa 11:00", "name": "USPS COLLECTION BOX - BLUE BOX", "ref": "4881700017"}, "type": "Feature"}
{"geometry": {"coordinates": [-84.1178319, 42.982797], "type": "Point"}, "id": "Sh0xHZpWrhX9AGRFDYi7I3A8Las=", "properties": {"@spider": "usps_collection_boxes", "addr:city": "CORUNNA", "addr:country": "US", "addr:full": "330 N SHIAWASSEE ST", "addr:postcode": "48817", "addr:state": "MI", "brand": "USPS", "collection_times": "Mo-Fr 14:35; Sa 14:30", "name": "USPS COLLECTION BOX - BLUE BOX", "note": "ON 12/24 AND 12/31, THIS BOX MAY BE COLLECTED AS EARLY AS 12 NOON.", "ref": "4881700022"}, "type": "Feature"}
{"geometry": {"coordinates": [-84.117872583, 42.982203103], "type": "Point"}, "id": "GF-0v7iQ-46Y48Tq_1JHtnvZ5qw=", "properties": {"@spider": "usps_collection_boxes", "addr:city": "CORUNNA", "addr:country": "US", "addr:full": "330 N SHIAWASSEE ST", "addr:postcode": "48817", "addr:state": "MI", "brand": "USPS", "collection_times": "Mo-Fr 16:00; Sa 10:00", "name": "USPS COLLECTION BOX - PO LOBBY", "note": "ON 12/24 AND 12/31, THIS BOX MAY BE COLLECTED AS EARLY AS 12 NOON.", "ref": "4881700024"}, "type": "Feature"}
{"geometry": {"coordinates": [-85.040961, 43.408085], "type": "Point"}, "id": "6lYqaIQX62hXf5Nc6KnoRJ9Gt9g=", "properties": {"@spider": "usps_collection_boxes", "addr:city": "EDMORE", "addr:country": "US", "addr:full": "317 E MAIN ST", "addr:postcode": "48829", "addr:state": "MI", "brand": "USPS", "collection_times": "Mo-Fr 14:10; Sa 11:15", "name": "USPS COLLECTION BOX - BLUE BOX", "note": "ON 12/24 AND 12/31, THIS BOX MAY BE COLLECTED AS EARLY AS 12 NOON.", "ref": "4882900001"}, "type": "Feature"}
{"geometry": {"coordinates": [-85.040961, 43.408085], "type": "Point"}, "id": "Od6z1pXxCkgSW1eicMr8Y8TSgJg=", "properties": {"@spider": "usps_collection_boxes", "addr:city": "EDMORE", "addr:country": "US", "addr:full": "317 E MAIN ST", "addr:postcode": "48829", "addr:state": "MI", "brand": "USPS", "collection_times": "Mo-Fr 14:10; Sa 11:30", "name": "USPS COLLECTION BOX - PO LOBBY", "note": "ON 12/24 AND 12/31, THIS BOX MAY BE COLLECTED AS EARLY AS 12 NOON.", "ref": "4882900002"}, "type": "Feature"}
{"geometry": {"coordinates": [-85.040964, 43.408079453], "type": "Point"}, "id": "qpoFBUiuDMzsGE7WOUV9EPEMQwE=", "properties": {"@spider": "usps_collection_boxes", "addr:city": "EDMORE", "addr:country": "US", "addr:full": "317 E MAIN ST", "addr:postcode": "48829", "addr:state": "MI", "brand": "USPS", "collection_times": "Mo-Fr 16:00; Sa 10:30", "name": "USPS COLLECTION BOX - PO LOBBY", "note": "ON 12/24 AND 12/31, THIS BOX MAY BE COLLECTED AS EARLY AS 12 NOON.", "ref": "4882900003"}, "type": "Feature"}
{"geometry": {"coordinates": [-84.385221, 43.088726], "type": "Point"}, "id": "I-Tx7bmQgBpZloPLTNefV0BP6b4=", "properties": {"@spider": "usps_collection_boxes", "addr:city": "ELSIE", "addr:country": "US", "addr:full": "153 E MAIN ST", "addr:postcode": "48831", "addr:state": "MI", "brand": "USPS", "collection_times": "Mo-Fr 15:10; Sa 10:45", "name": "USPS COLLECTION BOX - BLUE BOX", "note": "ON 12/24 AND 12/31, THIS BOX MAY BE COLLECTED AS EARLY AS 12 NOON.", "ref": "4883100002"}, "type": "Feature"}
{"geometry": {"coordinates": [-84.385221, 43.088726], "type": "Point"}, "id": "geN2fgvgXJlHV6L15pB_1wg-xjM=", "properties": {"@spider": "usps_collection_boxes", "addr:city": "ELSIE", "addr:country": "US", "addr:full": "153 E MAIN ST", "addr:postcode": "48831", "addr:state": "MI", "brand": "USPS", "collection_times": "Mo-Fr 15:10; Sa 10:45", "name": "USPS COLLECTION BOX - PO LOBBY", "note": "ON 12/24 AND 12/31, THIS BOX MAY BE COLLECTED AS EARLY AS 12 NOON.", "ref": "4883100003"}, "type": "Feature"}
{"geometry": {"coordinates": [-84.385223026, 43.088725464], "type": "Point"}, "id": "8frLudEM6mr32TlycduDMKZ_vyg=", "properties": {"@spider": "usps_collection_boxes", "addr:city": "ELSIE", "addr:country": "US", "addr:full": "153 E MAIN ST", "addr:postcode": "48831", "addr:state": "MI", "brand": "USPS", "collection_times": "Mo-Fr 16:00; Sa 10:30", "name": "USPS COLLECTION BOX - PO LOBBY", "note": "ON 12/24 AND 12/31, THIS BOX MAY BE COLLECTED AS EARLY AS 12 NOON.", "ref": "4883100004"}, "type": "Feature"}
{"geometry": {"coordinates": [-85.288544, 43.177137], "type": "Point"}, "id": "vkh6r9ESNwnCiZA9glvUpzXyCK4=", "properties": {"@spider": "usps_collection_boxes", "addr:city": "GREENVILLE", "addr:country": "US", "addr:full": "10772 W CARSON CITY RD", "addr:postcode": "48838", "addr:state": "MI", "brand": "USPS", "collection_times": "Mo-Sa 10:30", "name": "USPS COLLECTION BOX - BLUE BOX", "ref": "4883800015"}, "type": "Feature"}
{"geometry": {"coordinates": [-84.403951, 42.747141], "type": "Point"}, "id": "bGlLvCfp9gwbpiDYFfhJDkjzVys=", "properties": {"@spider": "usps_collection_boxes", "addr:city": "HASLETT", "addr:country": "US", "addr:full": "1518 HASLETT RD", "addr:postcode": "48840", "addr:state": "MI", "brand": "USPS", "collection_times": "Mo-Fr 16:45; Sa 11:45", "name": "USPS COLLECTION BOX - BLUE BOX", "note": "ON 12/24 AND 12/31, THIS BOX MAY BE COLLECTED AS EARLY AS 12 NOON.", "ref": "4884000002"}, "type": "Feature"}
{"geometry": {"coordinates": [-84.403942, 42.747114], "type": "Point"}, "id": "aP_-kViObtLNb1tuAiyXc0ZX4XA=", "properties": {"@spider": "usps_collection_boxes", "addr:city": "HASLETT", "addr:country": "US", "addr:full": "1518 HASLETT RD", "addr:postcode": "48840", "addr:state": "MI", "brand": "USPS", "collection_times": "Mo-Fr 16:45; Sa 11:45", "name": "USPS COLLECTION BOX - PO LOBBY", "note": "ON 12/24 AND 12/31, THIS BOX MAY BE COLLECTED AS EARLY AS 12 NOON.", "ref": "4884000007"}, "type": "Feature"}
{"geometry": {"coordinates": [-84.4060954, 42.74669], "type": "Point"}, "id": "6vivE9C3YGXkHILj7UPeAgl4VkA=", "properties": {"@spider": "usps_collection_boxes", "addr:city": "HASLETT", "addr:country": "US", "addr:full": "1561 HASLETT RD", "addr:postcode": "48840", "addr:state": "MI", "brand": "USPS", "collection_times": "Mo-Sa 11:30", "name": "USPS COLLECTION BOX - BLUE BOX", "ref": "4884000009"}, "type": "Feature"}
{"geometry": {"coordinates": [-84.4103916, 42.746142], "type": "Point"}, "id": "dI9LI5mmrv3fxnUX0VGBOtpA-io=", "properties": {"@spider": "usps_collection_boxes", "addr:city": "HASLETT", "addr:country": "US", "addr:full": "1671 HASLETT RD", "addr:postcode": "48840", "addr:state": "MI", "brand": "USPS", "collection_times": "Mo-Sa 13:00", "name": "USPS COLLECTION BOX - BLUE BOX", "note": "ON 12/24 AND 12/31, THIS BOX MAY BE COLLECTED AS EARLY AS 12 NOON.", "ref": "4884000010"}, "type": "Feature"}
{"geometry": {"coordinates": [-84.4076424, 42.747568], "type": "Point"}, "id": "FZj0-ybWGIzTe3dv7sMRYQLfpWI=", "properties": {"@spider": "usps_collection_boxes", "addr:city": "HASLETT", "addr:country": "US", "addr:full": "1602 HASLETT RD", "addr:postcode": "48840", "addr:state": "MI", "brand": "USPS", "collection_times": "Mo-Sa 11:30", "name": "USPS COLLECTION BOX - BLUE BOX", "ref": "4884000011"}, "type": "Feature"}
{"geometry": {"coordinates": [-84.4108583, 42.747556], "type": "Point"}, "id": "SYpY6cuoCO5jCmAQ8drIOvi-59M=", "properties": {"@spider": "usps_collection_boxes", "addr:city": "HASLETT", "addr:country": "US", "addr:full": "1640 HASLETT RD", "addr:postcode": "48840", "addr:state": "MI", "brand": "USPS", "collection_times": "Mo-Fr 13:00; Sa 12:00", "name": "USPS COLLECTION BOX - BLUE BOX", "note": "ON 12/24 AND 12/31, THIS BOX MAY BE COLLECTED AS EARLY AS 12 NOON.", "ref": "4884000012"}, "type": "Feature"}
{"geometry": {"coordinates": [-84.4211707, 42.752969], "type": "Point"}, "id": "dL924yv9keKjVBMxshJb2nyOEtI=", "properties": {"@spider": "usps_collection_boxes", "addr:city": "HASLETT", "addr:country": "US", "addr:full": "5911 BOIS ILE DR", "addr:postcode": "48840", "addr:state": "MI", "brand": "USPS", "collection_times": "Mo-Sa 11:00", "name": "USPS COLLECTION BOX - BLUE BOX", "ref": "4884000013"}, "type": "Feature"}
{"geometry": {"coordinates": [-84.403559138, 42.747107424], "type": "Point"}, "id": "7M53JBxWSyHO91Wz88WP6fK-Msc=", "properties": {"@spider": "usps_collection_boxes", "addr:city": "HASLETT", "addr:country": "US", "addr:full": "1518 HASLETT RD", "addr:postcode": "48840", "addr:state": "MI", "brand": "USPS", "collection_times": "Mo-Fr 16:30; Sa 11:30", "name": "USPS COLLECTION BOX - PO LOBBY", "note": "ON 12/24 AND 12/31, THIS BOX MAY BE COLLECTED AS EARLY AS 12 NOON.", "ref": "4884000014"}, "type": "Feature"}
{"geometry": {"coordinates": [-84.195616, 43.086142], "type": "Point"}, "id": "HjPSVZKqnGpl6cG1YxhgTc5E2ZM=", "properties": {"@spider": "usps_collection_boxes", "addr:city": "HENDERSON", "addr:country": "US", "addr:full": "121 W MAIN", "addr:postcode": "48841", "addr:state": "MI", "brand": "USPS", "collection_times": "Mo-Fr 11:45; Sa 10:00", "name": "USPS COLLECTION BOX - BLUE BOX", "ref": "4884100001"}, "type": "Feature"}
{"geometry": {"coordinates": [-84.195616, 43.086142], "type": "Point"}, "id": "oAH0XJwBD3bnfoJFU9Owj83HwAM=", "properties": {"@spider": "usps_collection_boxes", "addr:city": "HENDERSON", "addr:country": "US", "addr:full": "121 W MAIN", "addr:postcode": "48841", "addr:state": "MI", "brand": "USPS", "collection_times": "Mo-Fr 11:45; Sa 10:00", "name": "USPS COLLECTION BOX - PO LOBBY", "ref": "4884100002"}, "type": "Feature"}
{"geometry": {"coordinates": [-84.195592115, 43.086085589], "type": "Point"}, "id": "LJZZFm_PieG4XXGESaOk4V_ggVc=", "properties": {"@spider": "usps_collection_boxes", "addr:city": "HENDERSON", "addr:country": "US", "addr:full": "121 W MAIN", "addr:postcode": "48841", "addr:state": "MI", "brand": "USPS", "collection_times": "Mo-Fr 12:30; Sa 09:30", "name": "USPS COLLECTION BOX - PO LOBBY", "note": "ON 12/24 AND 12/31, THIS BOX MAY BE COLLECTED AS EARLY AS 12 NOON.", "ref": "4884100003"}, "type": "Feature"}
{"geometry": {"coordinates": [-83.930811, 42.605215], "type": "Point"}, "id": "4r8TKCzKfsTimesB4ZGjlBJXp5Q=", "properties": {"@spider": "usps_collection_boxes", "addr:city": "HOWELL", "addr:country": "US", "addr:full": "325 S MICHIGAN AVE", "addr:postcode": "48843", "addr:state": "MI", "brand": "USPS", "collection_times": "Mo-Sa 14:15", "name": "USPS COLLECTION BOX - BLUE BOX", "note": "ON 12/24 AND 12/31, THIS BOX MAY BE COLLECTED AS EARLY AS 12 NOON.", "ref": "4884300003"}, "type": "Feature"}
{"geometry": {"coordinates": [-83.9284778, 42.60731], "type": "Point"}, "id": "SVBtrwT6LytDFGhSS_HG3V5NjMw=", "properties": {"@spider": "usps_collection_boxes", "addr:city": "HOWELL", "addr:country": "US", "addr:full": "200 E GRAND RIVER AVE", "addr:postcode": "48843", "addr:state": "MI", "brand": "USPS", "collection_times": "Mo-Sa 13:15", "name": "USPS COLLECTION BOX - BLUE BOX", "note": "ON 12/24 AND 12/31, THIS BOX MAY BE COLLECTED AS EARLY AS 12 NOON.", "ref": "4884300005"}, "type": "Feature"}
{"geometry": {"coordinates": [-83.9612133, 42.61653], "type": "Point"}, "id": "36RK5WNOVBnWk7vn3WQG-i8922E=", "properties": {"@spider": "usps_collection_boxes", "addr:city": "HOWELL", "addr:country": "US", "addr:full": "2400 W GRAND RIVER AVE", "addr:postcode": "48843", "addr:state": "MI", "brand": "USPS", "collection_times": "Mo-Sa 13:00", "name": "USPS COLLECTION BOX - BLUE BOX", "note": "ON 12/24 AND 12/31, THIS BOX MAY BE COLLECTED AS EARLY AS 12 NOON.", "ref": "4884300010"}, "type": "Feature"}
{"geometry": {"coordinates": [-83.9238599, 42.604557], "type": "Point"}, "id": "wSSqk_AFdTuL5-MeyCeGxznM0Ug=", "properties": {"@spider": "usps_collection_boxes", "addr:city": "HOWELL", "addr:country": "US", "addr:full": "611 E GRAND RIVER AVE", "addr:postcode": "48843", "addr:state": "MI", "brand": "USPS", "collection_times": "Mo-Sa 13:20", "name": "USPS COLLECTION BOX - BLUE BOX", "note": "ON 12/24 AND 12/31, THIS BOX MAY BE COLLECTED AS EARLY AS 12 NOON.", "ref": "4884300013"}, "type": "Feature"}
{"geometry": {"coordinates": [-83.9404655, 42.615395], "type": "Point"}, "id": "TxyA3gLp30Zwd8UJNLJeWF6YzO0=", "properties": {"@spider": "usps_collection_boxes", "addr:city": "HOWELL", "addr:country": "US", "addr:full": "620 BYRON RD", "addr:postcode": "48843", "addr:state": "MI", "brand": "USPS", "collection_times": "Mo-Sa 09:30", "name": "USPS COLLECTION BOX - BLUE BOX", "ref": "4884300017"}, "type": "Feature"}
{"geometry": {"coordinates": [-83.9347981, 42.62082], "type": "Point"}, "id": "TyFy80oEQOta6j-dwkx4boFSzhY=", "properties": {"@spider": "usps_collection_boxes", "addr:city": "HOWELL", "addr:country": "US", "addr:full": "408 CURZON ST", "addr:postcode": "48843", "addr:state": "MI", "brand": "USPS", "collection_times": "Mo-Sa 11:30", "name": "USPS COLLECTION BOX - BLUE BOX", "ref": "4884300018"}, "type": "Feature"}
{"geometry": {"coordinates": [-83.9080859, 42.597436], "type": "Point"}, "id": "SrJYXyv6THhMAJqnE6Xfka-qrDM=", "properties": {"@spider": "usps_collection_boxes", "addr:city": "HOWELL", "addr:country": "US", "addr:full": "2300 E GRAND RIVER AVE", "addr:postcode": "48843", "addr:state": "MI", "brand": "USPS", "collection_times": "Mo-Sa 13:25", "name": "USPS COLLECTION BOX - BLUE BOX", "note": "ON 12/24 AND 12/31, THIS BOX MAY BE COLLECTED AS EARLY AS 12 NOON.", "ref": "4884300019"}, "type": "Feature"}
{"geometry": {"coordinates": [-83.9067395, 42.597912], "type": "Point"}, "id": "hFVCIYlkohu8ACvSn9INqOtSqPQ=", "properties": {"@spider": "usps_collection_boxes", "addr:city": "HOWELL", "addr:country": "US", "addr:full": "2350 E GRAND RIVER AVE", "addr:postcode": "48843", "addr:state": "MI", "brand": "USPS", "collection_times": "Mo-Sa 13:25", "name": "USPS COLLECTION BOX - BLUE BOX", "note": "ON 12/24 AND 12/31, THIS BOX MAY BE COLLECTED AS EARLY AS 12 NOON.", "ref": "4884300024"}, "type": "Feature"}
{"geometry": {"coordinates": [-83.930816, 42.605268], "type": "Point"}, "id": "wzYGCIH_RWRxFOdkhrycRxPc1Qo=", "properties": {"@spider": "usps_collection_boxes", "addr:city": "HOWELL", "addr:country": "US", "addr:full": "325 S MICHIGAN AVE", "addr:postcode": "48843", "addr:state": "MI", "brand": "USPS", "collection_times": "Mo-Sa 14:15", "name": "USPS COLLECTION BOX - PO LOBBY", "note": "ON 12/24 AND 12/31, THIS BOX MAY BE COLLECTED AS EARLY AS 12 NOON.", "ref": "4884300025"}, "type": "Feature"}
{"geometry": {"coordinates": [-83.8802147, 42.590779], "type": "Point"}, "id": "evscFTN87BG7RC3Qs7Nr7U6r19A=", "properties": {"@spider": "usps_collection_boxes", "addr:city": "HOWELL", "addr:country": "US", "addr:full": "3659 E GRAND RIVER AVE", "addr:postcode": "48843", "addr:state": "MI", "brand": "USPS", "collection_times": "Mo-Sa 13:35", "name": "USPS COLLECTION BOX - BLUE BOX", "note": "ON 12/24 AND 12/31, THIS BOX MAY BE COLLECTED AS EARLY AS 12 NOON.", "ref": "4884300031"}, "type": "Feature"}
{"geometry": {"coordinates": [-83.8627585, 42.527563], "type": "Point"}, "id": "ayvi8ko_Jzp9ArQ4flH_fOtdsmQ=", "properties": {"@spider": "usps_collection_boxes", "addr:city": "HOWELL", "addr:country": "US", "addr:full": "4986 CHILSON RD", "addr:postcode": "48843", "addr:state": "MI", "brand": "USPS", "collection_times": "Mo-Sa 09:30", "name": "USPS COLLECTION BOX - BLUE BOX", "ref": "4884300032"}, "type": "Feature"}
{"geometry": {"coordinates": [-83.8772079, 42.58518], "type": "Point"}, "id": "OWJpBPNKrFYc7ov3dsQxUgmJZ7g=", "properties": {"@spider": "usps_collection_boxes", "addr:city": "HOWELL", "addr:country": "US", "addr:full": "3850 E GRAND RIVER AVE", "addr:postcode": "48843", "addr:state": "MI", "brand": "USPS", "collection_times": "Mo-Sa 13:40", "name": "USPS COLLECTION BOX - BLUE BOX", "note": "ON 12/24 AND 12/31, THIS BOX MAY BE COLLECTED AS EARLY AS 12 NOON.", "ref": "4884300033"}, "type": "Feature"}
{"geometry": {"coordinates": [-83.9080961, 42.59743], "type": "Point"}, "id": "aUHhQSZ_BHNicvRJ007J4t_YNXI=", "properties": {"@spider": "usps_collection_boxes", "addr:city": "HOWELL", "addr:country": "US", "addr:full": "2300 E GRAND RIVER AVE", "addr:postcode": "48843", "addr:state": "MI", "brand": "USPS", "collection_times": "Mo-Sa 13:25", "name": "USPS COLLECTION BOX - BLUE BOX", "note": "ON 12/24 AND 12/31, THIS BOX MAY BE COLLECTED AS EARLY AS 12 NOON.", "ref": "4884300035"}, "type": "Feature"}
{"geometry": {"coordinates": [-83.8767031, 42.590061], "type": "Point"}, "id": "PjiHUfG158xbrbQNh74RXe0sMUo=", "properties": {"@spider": "usps_collection_boxes", "addr:city": "HOWELL", "addr:country": "US", "addr:full": "3883 E GRAND RIVER AVE", "addr:postcode": "48843", "addr:state": "MI", "brand": "USPS", "collection_times": "Mo-Sa 13:55", "name": "USPS COLLECTION BOX - BLUE BOX", "note": "ON 12/24 AND 12/31, THIS BOX MAY BE COLLECTED AS EARLY AS 12 NOON.", "ref": "4884300037"}, "type": "Feature"}
{"geometry": {"coordinates": [-83.930816, 42.605268], "type": "Point"}, "id": "osr7EHQSiWUs0zx2tVXA8GTyXVU=", "properties": {"@spider": "usps_collection_boxes", "addr:city": "HOWELL", "addr:country": "US", "addr:full": "325 S MICHIGAN AVE", "addr:postcode": "48843", "addr:state": "MI", "brand": "USPS", "collection_times": "Mo-Sa 14:15", "name": "USPS COLLECTION BOX - APC", "note": "ON 12/24 AND 12/31, THIS BOX MAY BE COLLECTED AS EARLY AS 12 NOON.", "ref": "4884300039"}, "type": "Feature"}
{"geometry": {"coordinates": [-83.9279894, 42.623972], "type": "Point"}, "id": "87B25Fhaakw6xtR8_uAh8fHTrZg=", "properties": {"@spider": "usps_collection_boxes", "addr:city": "HOWELL", "addr:country": "US", "addr:full": "108 W HIGHLAND RD", "addr:postcode": "48843", "addr:state": "MI", "brand": "USPS", "collection_times": "Mo-Sa 13:10", "name": "USPS COLLECTION BOX - BLUE BOX", "note": "ON 12/24 AND 12/31, THIS BOX MAY BE COLLECTED AS EARLY AS 12 NOON.", "ref": "4884300040"}, "type": "Feature"}
{"geometry": {"coordinates": [-83.930995393, 42.604925869], "type": "Point"}, "id": "GAXz0wAd1I7RDLs0yFNpZuSQu1M=", "properties": {"@spider": "usps_collection_boxes", "addr:city": "HOWELL", "addr:country": "US", "addr:full": "325 S MICHIGAN AVE", "addr:postcode": "48843", "addr:state": "MI", "brand": "USPS", "collection_times": "Mo-Fr 17:30; Sa 14:30", "name": "USPS COLLECTION BOX - PO LOBBY", "note": "ON 12/24 AND 12/31, THIS BOX MAY BE COLLECTED AS EARLY AS 12 NOON.", "ref": "4884300049"}, "type": "Feature"}
{"geometry": {"coordinates": [-84.351017, 42.890388], "type": "Point"}, "id": "8wnSqd7dCWiKcWjJW1mhlTzpZro=", "properties": {"@spider": "usps_collection_boxes", "addr:city": "LAINGSBURG", "addr:country": "US", "addr:full": "221 E GRAND RIVER RD", "addr:postcode": "48848", "addr:state": "MI", "brand": "USPS", "collection_times": "Mo-Fr 15:10; Sa 11:00", "name": "USPS COLLECTION BOX - BLUE BOX", "note": "ON 12/24 AND 12/31, THIS BOX MAY BE COLLECTED AS EARLY AS 12 NOON.", "ref": "4884800002"}, "type": "Feature"}
{"geometry": {"coordinates": [-84.351017, 42.890388], "type": "Point"}, "id": "FhAy8MrMB4TClZvBsTnNicADZh8=", "properties": {"@spider": "usps_collection_boxes", "addr:city": "LAINGSBURG", "addr:country": "US", "addr:full": "221 E GRAND RIVER RD", "addr:postcode": "48848", "addr:state": "MI", "brand": "USPS", "collection_times": "Mo-Fr 15:10; Sa 11:00", "name": "USPS COLLECTION BOX - PO LOBBY", "note": "ON 12/24 AND 12/31, THIS BOX MAY BE COLLECTED AS EARLY AS 12 NOON.", "ref": "4884800003"}, "type": "Feature"}
{"geometry": {"coordinates": [-84.3406999, 42.885245], "type": "Point"}, "id": "1he4UaFMjtVsQ6gjLSRJHB6PfbI=", "properties": {"@spider": "usps_collection_boxes", "addr:city": "LAINGSBURG", "addr:country": "US", "addr:full": "7400 WOODBURY RD", "addr:postcode": "48848", "addr:state": "MI", "brand": "USPS", "collection_times": "Mo-Sa 10:00", "name": "USPS COLLECTION BOX - BLUE BOX", "ref": "4884800004"}, "type": "Feature"}
{"geometry": {"coordinates": [-84.351016985, 42.890431255], "type": "Point"}, "id": "UsGIfEQKyzOyiR25Sl591XcjxxQ=", "properties": {"@spider": "usps_collection_boxes", "addr:city": "LAINGSBURG", "addr:country": "US", "addr:full": "221 E GRAND RIVER RD", "addr:postcode": "48848", "addr:state": "MI", "brand": "USPS", "collection_times": "Mo-Fr 16:00; Sa 10:30", "name": "USPS COLLECTION BOX - PO LOBBY", "note": "ON 12/24 AND 12/31, THIS BOX MAY BE COLLECTED AS EARLY AS 12 NOON.", "ref": "4884800005"}, "type": "Feature"}
{"geometry": {"coordinates": [-85.2647681, 43.434335], "type": "Point"}, "id": "kXNQBks4iVW8QlKiDGQpksVJ1KE=", "properties": {"@spider": "usps_collection_boxes", "addr:city": "LAKEVIEW", "addr:country": "US", "addr:full": "9700 N GREENVILLE RD", "addr:postcode": "48850", "addr:state": "MI", "brand": "USPS", "collection_times": "Mo-Fr 11:00; Sa 10:00", "name": "USPS COLLECTION BOX - BLUE BOX", "ref": "4885000004"}, "type": "Feature"}
{"geometry": {"coordinates": [-85.27995, 43.441937], "type": "Point"}, "id": "YIxF86NU1yghQXPo4Hnz7pEW28s=", "properties": {"@spider": "usps_collection_boxes", "addr:city": "LAKEVIEW", "addr:country": "US", "addr:full": "319 WASHINGTON ST", "addr:postcode": "48850", "addr:state": "MI", "brand": "USPS", "collection_times": "Mo-Fr 13:40; Sa 10:00", "name": "USPS COLLECTION BOX - BLUE BOX", "note": "ON 12/24 AND 12/31, THIS BOX MAY BE COLLECTED AS EARLY AS 12 NOON.", "ref": "4885000005"}, "type": "Feature"}
{"geometry": {"coordinates": [-85.27995, 43.441937], "type": "Point"}, "id": "w8Ogdcrmo7cUj_EQlCPnzEeRMcQ=", "properties": {"@spider": "usps_collection_boxes", "addr:city": "LAKEVIEW", "addr:country": "US", "addr:full": "319 WASHINGTON ST", "addr:postcode": "48850", "addr:state": "MI", "brand": "USPS", "collection_times": "Mo-Fr 13:40; Sa 10:00", "name": "USPS COLLECTION BOX - PO LOBBY", "note": "ON 12/24 AND 12/31, THIS BOX MAY BE COLLECTED AS EARLY AS 12 NOON.", "ref": "4885000007"}, "type": "Feature"}
{"geometry": {"coordinates": [-85.279636867, 43.441751544], "type": "Point"}, "id": "8G-Y7FZ2nN9gUS4fjM32vkKNRSs=", "properties": {"@spider": "usps_collection_boxes", "addr:city": "LAKEVIEW", "addr:country": "US", "addr:full": "319 WASHINGTON ST", "addr:postcode": "48850", "addr:state": "MI", "brand": "USPS", "collection_times": "Mo-Fr 15:30; Sa 10:30", "name": "USPS COLLECTION BOX - PO LOBBY", "note": "ON 12/24 AND 12/31, THIS BOX MAY BE COLLECTED AS EARLY AS 12 NOON.", "ref": "4885000008"}, "type": "Feature"}
{"geometry": {"coordinates": [-85.044151, 43.355013], "type": "Point"}, "id": "7jzfuvOqPmE8SGFjLrqZvmHkmPA=", "properties": {"@spider": "usps_collection_boxes", "addr:city": "MC BRIDES", "addr:country": "US", "addr:full": "4321 DIVISION ST", "addr:postcode": "48852", "addr:state": "MI", "brand": "USPS", "collection_times": "Mo-Fr 12:55; Sa 09:00", "name": "USPS COLLECTION BOX - BLUE BOX", "note": "ON 12/24 AND 12/31, THIS BOX MAY BE COLLECTED AS EARLY AS 12 NOON.", "ref": "4885200001"}, "type": "Feature"}
{"geometry": {"coordinates": [-85.044151, 43.355013], "type": "Point"}, "id": "Gf-JrogNlMXObXvtjTiiZaIcaqw=", "properties": {"@spider": "usps_collection_boxes", "addr:city": "MC BRIDES", "addr:country": "US", "addr:full": "4321 DIVISION ST", "addr:postcode": "48852", "addr:state": "MI", "brand": "USPS", "collection_times": "Mo-Fr 12:55; Sa 09:00", "name": "USPS COLLECTION BOX - PO LOBBY", "note": "ON 12/24 AND 12/31, THIS BOX MAY BE COLLECTED AS EARLY AS 12 NOON.", "ref": "4885200002"}, "type": "Feature"}
{"geometry": {"coordinates": [-85.044117345, 43.354133079], "type": "Point"}, "id": "Jr121c32JRH4LmqpjXS7dVuC5EM=", "properties": {"@spider": "usps_collection_boxes", "addr:city": "MC BRIDES", "addr:country": "US", "addr:full": "4321 DIVISION ST", "addr:postcode": "48852", "addr:state": "MI", "brand": "USPS", "collection_times": "Mo-Fr 12:30; Sa 09:00", "name": "USPS COLLECTION BOX - PO LOBBY", "note": "ON 12/24 AND 12/31, THIS BOX MAY BE COLLECTED AS EARLY AS 12 NOON.", "ref": "4885200003"}, "type": "Feature"}
{"geometry": {"coordinates": [-84.177809, 42.837837], "type": "Point"}, "id": "0ghVDtXqa75MFA8rGkl42W9ynsU=", "properties": {"@spider": "usps_collection_boxes", "addr:city": "MORRICE", "addr:country": "US", "addr:full": "316 MAIN ST", "addr:postcode": "48857", "addr:state": "MI", "brand": "USPS", "collection_times": "Mo-Fr 14:05; Sa 10:00", "name": "USPS COLLECTION BOX - BLUE BOX", "note": "ON 12/24 AND 12/31, THIS BOX MAY BE COLLECTED AS EARLY AS 12 NOON.", "ref": "4885700000"}, "type": "Feature"}
{"geometry": {"coordinates": [-84.177809, 42.837837], "type": "Point"}, "id": "hdkVbhwvhzt4ptoGhGzkb94pVJA=", "properties": {"@spider": "usps_collection_boxes", "addr:city": "MORRICE", "addr:country": "US", "addr:full": "316 MAIN ST", "addr:postcode": "48857", "addr:state": "MI", "brand": "USPS", "collection_times": "Mo-Fr 14:05; Sa 10:00", "name": "USPS COLLECTION BOX - PO LOBBY", "note": "ON 12/24 AND 12/31, THIS BOX MAY BE COLLECTED AS EARLY AS 12 NOON.", "ref": "4885700002"}, "type": "Feature"}
{"geometry": {"coordinates": [-84.177790188, 42.837815228], "type": "Point"}, "id": "sa92HTGYx38podBPYy6G9DzFSzY=", "properties": {"@spider": "usps_collection_boxes", "addr:city": "MORRICE", "addr:country": "US", "addr:full": "316 MAIN ST", "addr:postcode": "48857", "addr:state": "MI", "brand": "USPS", "collection_times": "Mo-Fr 15:30; Sa 10:30", "name": "USPS COLLECTION BOX - PO LOBBY", "note": "ON 12/24 AND 12/31, THIS BOX MAY BE COLLECTED AS EARLY AS 12 NOON.", "ref": "4885700003"}, "type": "Feature"}
{"geometry": {"coordinates": [-84.7767898985, 43.610858801], "type": "Point"}, "id": "brk3BREyk3-89vKGPsLT2wUk9Ec=", "properties": {"@spider": "usps_collection_boxes", "addr:city": "MOUNT PLEASANT", "addr:country": "US", "addr:full": "813 N MAIN ST", "addr:postcode": "48858", "addr:state": "MI", "brand": "USPS", "collection_times": "Mo-Sa 14:50", "name": "USPS COLLECTION BOX - BLUE BOX", "note": "ON 12/24 AND 12/31, THIS BOX MAY BE COLLECTED AS EARLY AS 12 NOON.", "ref": "4885800002"}, "type": "Feature"}
{"geometry": {"coordinates": [-84.776789898, 43.610858801], "type": "Point"}, "id": "c72Hkiz69vqvSwc_wIwjRu9nEQ8=", "properties": {"@spider": "usps_collection_boxes", "addr:city": "MOUNT PLEASANT", "addr:country": "US", "addr:full": "813 N MAIN ST", "addr:postcode": "48858", "addr:state": "MI", "brand": "USPS", "collection_times": "Mo-Sa 14:50", "name": "USPS COLLECTION BOX - BLUE BOX", "note": "ON 12/24 AND 12/31, THIS BOX MAY BE COLLECTED AS EARLY AS 12 NOON.", "ref": "4885800004"}, "type": "Feature"}
{"geometry": {"coordinates": [-84.7766989051, 43.6042612456], "type": "Point"}, "id": "jhpTe-rr4lAViZjnxmO6P3m0cWk=", "properties": {"@spider": "usps_collection_boxes", "addr:city": "MOUNT PLEASANT", "addr:country": "US", "addr:full": "102 S MAIN ST", "addr:postcode": "48858", "addr:state": "MI", "brand": "USPS", "collection_times": "Mo-Fr 14:50; Sa 14:00", "name": "USPS COLLECTION BOX - BLUE BOX", "note": "ON 12/24 AND 12/31, THIS BOX MAY BE COLLECTED AS EARLY AS 12 NOON.", "ref": "4885800008"}, "type": "Feature"}
{"geometry": {"coordinates": [-84.7741173425, 43.5912806575], "type": "Point"}, "id": "DkgKLPiqu5-9Jj2hISZ0IaktqRI=", "properties": {"@spider": "usps_collection_boxes", "addr:city": "MOUNT PLEASANT", "addr:country": "US", "addr:full": "1220 S FRANKLIN ST", "addr:postcode": "48858", "addr:state": "MI", "brand": "USPS", "collection_times": "Mo-Sa 11:30", "name": "USPS COLLECTION BOX - BLUE BOX", "ref": "4885800009"}, "type": "Feature"}
{"geometry": {"coordinates": [-84.777502963, 43.604911843], "type": "Point"}, "id": "VTtleDvCQ4E_bTcaUO0yn9j6K1s=", "properties": {"@spider": "usps_collection_boxes", "addr:city": "MOUNT PLEASANT", "addr:country": "US", "addr:full": "1 W MOSHER ST", "addr:postcode": "48858", "addr:state": "MI", "brand": "USPS", "collection_times": "Mo-Sa 10:00", "name": "USPS COLLECTION BOX - BLUE BOX", "ref": "4885800010"}, "type": "Feature"}
{"geometry": {"coordinates": [-84.788694, 43.596999509], "type": "Point"}, "id": "12ERwMRdvhSRxpl9GW9LGcGqIT0=", "properties": {"@spider": "usps_collection_boxes", "addr:city": "MOUNT PLEASANT", "addr:country": "US", "addr:full": "1106 W HIGH ST", "addr:postcode": "48858", "addr:state": "MI", "brand": "USPS", "collection_times": "Mo-Sa 10:00", "name": "USPS COLLECTION BOX - BLUE BOX", "ref": "4885800011"}, "type": "Feature"}
{"geometry": {"coordinates": [-84.776633572, 43.605674445], "type": "Point"}, "id": "8wOd-0o9H37LKMRtjG1Y1j0AlMQ=", "properties": {"@spider": "usps_collection_boxes", "addr:city": "MOUNT PLEASANT", "addr:country": "US", "addr:full": "200 N MAIN ST", "addr:postcode": "48858", "addr:state": "MI", "brand": "USPS", "collection_times": "Mo-Fr 12:00; Sa 11:30", "name": "USPS COLLECTION BOX - BLUE BOX", "ref": "4885800015"}, "type": "Feature"}
{"geometry": {"coordinates": [-84.767542017, 43.597872], "type": "Point"}, "id": "CNn_7y3jZD7YDOvoLKYE1a6j0QM=", "properties": {"@spider": "usps_collection_boxes", "addr:city": "MOUNT PLEASANT", "addr:country": "US", "addr:full": "705 S MISSION ST", "addr:postcode": "48858", "addr:state": "MI", "brand": "USPS", "collection_times": "Mo-Sa 11:00", "name": "USPS COLLECTION BOX - BLUE BOX", "ref": "4885800022"}, "type": "Feature"}
{"geometry": {"coordinates": [-84.777485657, 43.591478657], "type": "Point"}, "id": "gSTU3PFOmXcxATCi3_2BRrJrT4E=", "properties": {"@spider": "usps_collection_boxes", "addr:city": "MOUNT PLEASANT", "addr:country": "US", "addr:full": "1201 S WASHINGTON ST", "addr:postcode": "48858", "addr:state": "MI", "brand": "USPS", "collection_times": "Mo-Sa 11:00", "name": "USPS COLLECTION BOX - BLUE BOX", "ref": "4885800023"}, "type": "Feature"}
{"geometry": {"coordinates": [-84.762075462, 43.598618224], "type": "Point"}, "id": "WZ7sP9BsUu71BHyozIUuppnkMNk=", "properties": {"@spider": "usps_collection_boxes", "addr:city": "MOUNT PLEASANT", "addr:country": "US", "addr:full": "1221 SOUTH DR", "addr:postcode": "48858", "addr:state": "MI", "brand": "USPS", "collection_times": "Mo-Fr 12:00; Sa 11:30", "name": "USPS COLLECTION BOX - BLUE BOX", "ref": "4885800024"}, "type": "Feature"}
{"geometry": {"coordinates": [-84.777401109, 43.589913891], "type": "Point"}, "id": "RMORp_6oU6Bvh2qA6hiueEf24EQ=", "properties": {"@spider": "usps_collection_boxes", "addr:city": "MOUNT PLEASANT", "addr:country": "US", "addr:full": "101 E PRESTON RD", "addr:postcode": "48858", "addr:state": "MI", "brand": "USPS", "collection_times": "Mo-Sa 11:30", "name": "USPS COLLECTION BOX - BLUE BOX", "ref": "4885800027"}, "type": "Feature"}
{"geometry": {"coordinates": [-84.775311, 43.604517519], "type": "Point"}, "id": "6cL51Pf6KGwR9O9-EZp3t3aymN0=", "properties": {"@spider": "usps_collection_boxes", "addr:city": "MOUNT PLEASANT", "addr:country": "US", "addr:full": "137 E BROADWAY ST", "addr:postcode": "48858", "addr:state": "MI", "brand": "USPS", "collection_times": "Mo-Fr 11:00; Sa 10:00", "name": "USPS COLLECTION BOX - BLUE BOX", "ref": "4885800028"}, "type": "Feature"}
{"geometry": {"coordinates": [-84.753750433, 43.611895216], "type": "Point"}, "id": "k18QrTuq4GREYrgqHWZl6sGG9kg=", "properties": {"@spider": "usps_collection_boxes", "addr:city": "MOUNT PLEASANT", "addr:country": "US", "addr:full": "4699 E PICKARD ST", "addr:postcode": "48858", "addr:state": "MI", "brand": "USPS", "collection_times": "Mo-Fr 12:00; Sa 11:30", "name": "USPS COLLECTION BOX - BLUE BOX", "ref": "4885800029"}, "type": "Feature"}
{"geometry": {"coordinates": [-84.7689055618, 43.6045659105], "type": "Point"}, "id": "IFzuv1nwY4YiN6InUEDYZBGjnbs=", "properties": {"@spider": "usps_collection_boxes", "addr:city": "MOUNT PLEASANT", "addr:country": "US", "addr:full": "705 E BROADWAY ST", "addr:postcode": "48858", "addr:state": "MI", "brand": "USPS", "collection_times": "Mo-Fr 10:30; Sa 10:00", "name": "USPS COLLECTION BOX - BLUE BOX", "ref": "4885800030"}, "type": "Feature"}
{"geometry": {"coordinates": [-84.76484027, 43.611846469], "type": "Point"}, "id": "n_hFyMDjxTusjIBD9Fv6ehlDlkY=", "properties": {"@spider": "usps_collection_boxes", "addr:city": "MOUNT PLEASANT", "addr:country": "US", "addr:full": "1015 E PICKARD ST", "addr:postcode": "48858", "addr:state": "MI", "brand": "USPS", "collection_times": "Mo-Fr 11:30; Sa 11:00", "name": "USPS COLLECTION BOX - BLUE BOX", "ref": "4885800032"}, "type": "Feature"}
{"geometry": {"coordinates": [-84.7797042892, 43.5826120278], "type": "Point"}, "id": "FGpZ4aa-OH0SgX2wQLl6oPSy1Xw=", "properties": {"@spider": "usps_collection_boxes", "addr:city": "MOUNT PLEASANT", "addr:country": "US", "addr:full": "200 W BROOMFIELD ST", "addr:postcode": "48858", "addr:state": "MI", "brand": "USPS", "collection_times": "Mo-Sa 10:00", "name": "USPS COLLECTION BOX - BLUE BOX", "ref": "4885800046"}, "type": "Feature"}
{"geometry": {"coordinates": [-84.7674594279, 43.5803936647], "type": "Point"}, "id": "YbvCH8b5hjAMxRVqf403PLqDWMM=", "properties": {"@spider": "usps_collection_boxes", "addr:city": "MOUNT PLEASANT", "addr:country": "US", "addr:full": "2020 S MISSION ST", "addr:postcode": "48858", "addr:state": "MI", "brand": "USPS", "collection_times": "Mo-Sa 10:00", "name": "USPS COLLECTION BOX - BLUE BOX", "ref": "4885800056"}, "type": "Feature"}
{"geometry": {"coordinates": [-84.77526627, 43.594786713], "type": "Point"}, "id": "jeIX9G4bDtQ-TiASeScm6LxHfxA=", "properties": {"@spider": "usps_collection_boxes", "addr:city": "MOUNT PLEASANT", "addr:country": "US", "addr:full": "1029 S UNIVERSITY ST", "addr:postcode": "48858", "addr:state": "MI", "brand": "USPS", "collection_times": "Mo-Sa 11:30", "name": "USPS COLLECTION BOX - BLUE BOX", "ref": "4885800067"}, "type": "Feature"}
{"geometry": {"coordinates": [-84.767514708, 43.586296574], "type": "Point"}, "id": "uiB-ujRrMFyai44Cf5MSpkajQpE=", "properties": {"@spider": "usps_collection_boxes", "addr:city": "MOUNT PLEASANT", "addr:country": "US", "addr:full": "1620 S MISSION ST", "addr:postcode": "48858", "addr:state": "MI", "brand": "USPS", "collection_times": "Mo-Sa 10:00", "name": "USPS COLLECTION BOX - BLUE BOX", "ref": "4885800074"}, "type": "Feature"}
{"geometry": {"coordinates": [-84.759083451, 43.593663901], "type": "Point"}, "id": "WE_hh8cbWljDRFeLOORQ6Y4qXDI=", "properties": {"@spider": "usps_collection_boxes", "addr:city": "MOUNT PLEASANT", "addr:country": "US", "addr:full": "1309 E BELLOWS ST", "addr:postcode": "48858", "addr:state": "MI", "brand": "USPS", "collection_times": "Mo-Sa 10:00", "name": "USPS COLLECTION BOX - BLUE BOX", "ref": "4885800076"}, "type": "Feature"}
{"geometry": {"coordinates": [-84.7438799464, 43.6043630896], "type": "Point"}, "id": "lJYBUEDmXs3JYV7yBohLCBOG6Q4=", "properties": {"@spider": "usps_collection_boxes", "addr:city": "MOUNT PLEASANT", "addr:country": "US", "addr:full": "5232 E BROADWAY RD", "addr:postcode": "48858", "addr:state": "MI", "brand": "USPS", "collection_times": "Mo-Sa 10:00", "name": "USPS COLLECTION BOX - BLUE BOX", "ref": "4885800077"}, "type": "Feature"}
{"geometry": {"coordinates": [-84.779892951, 43.567932358], "type": "Point"}, "id": "cRNufQCTUmTHbYqOVZ8TgFzebsA=", "properties": {"@spider": "usps_collection_boxes", "addr:city": "MOUNT PLEASANT", "addr:country": "US", "addr:full": "3300 E DEERFIELD RD", "addr:postcode": "48858", "addr:state": "MI", "brand": "USPS", "collection_times": "Mo-Sa 10:00", "name": "USPS COLLECTION BOX - BLUE BOX", "ref": "4885800079"}, "type": "Feature"}
{"geometry": {"coordinates": [-84.776789898, 43.610858801], "type": "Point"}, "id": "p7dzqtlhG9KbYyFlmFwMT33jcq8=", "properties": {"@spider": "usps_collection_boxes", "addr:city": "MOUNT PLEASANT", "addr:country": "US", "addr:full": "813 N MAIN ST", "addr:postcode": "48858", "addr:state": "MI", "brand": "USPS", "collection_times": "Mo-Sa 14:50", "name": "USPS COLLECTION BOX - PO LOBBY", "note": "ON 12/24 AND 12/31, THIS BOX MAY BE COLLECTED AS EARLY AS 12 NOON.", "ref": "4885800080"}, "type": "Feature"}
{"geometry": {"coordinates": [-84.747402413, 43.581720223], "type": "Point"}, "id": "AFRs_x3DPzqkX1kU5n6AeUtGxh4=", "properties": {"@spider": "usps_collection_boxes", "addr:city": "MOUNT PLEASANT", "addr:country": "US", "addr:full": "4075 S ISABELLA RD", "addr:postcode": "48858", "addr:state": "MI", "brand": "USPS", "collection_times": "Mo-Sa 10:00", "name": "USPS COLLECTION BOX - BLUE BOX", "ref": "4885800083"}, "type": "Feature"}
{"geometry": {"coordinates": [-84.776789898, 43.610858801], "type": "Point"}, "id": "jo_Yr9AmCsnVuahKL56xdyIldbU=", "properties": {"@spider": "usps_collection_boxes", "addr:city": "MOUNT PLEASANT", "addr:country": "US", "addr:full": "813 N MAIN ST", "addr:postcode": "48858", "addr:state": "MI", "brand": "USPS", "collection_times": "Mo-Sa 14:50", "name": "USPS COLLECTION BOX - BLUE BOX", "note": "ON 12/24 AND 12/31, THIS BOX MAY BE COLLECTED AS EARLY AS 12 NOON.", "ref": "4885800085"}, "type": "Feature"}
{"geometry": {"coordinates": [-84.7767898985, 43.610858801], "type": "Point"}, "id": "oIA6iuwgywPacx2G9alaM_45rmQ=", "properties": {"@spider": "usps_collection_boxes", "addr:city": "MOUNT PLEASANT", "addr:country": "US", "addr:full": "813 N MAIN ST", "addr:postcode": "48858", "addr:state": "MI", "brand": "USPS", "collection_times": "Mo-Sa 14:50", "name": "USPS COLLECTION BOX - APC", "note": "ON 12/24 AND 12/31, THIS BOX MAY BE COLLECTED AS EARLY AS 12 NOON.", "ref": "4885800087"}, "type": "Feature"}
{"geometry": {"coordinates": [-84.7874724, 43.583710548], "type": "Point"}, "id": "hhZHGi-IqcBYJL9G6Dc0y-8YuMA=", "properties": {"@spider": "usps_collection_boxes", "addr:city": "MOUNT PLEASANT", "addr:country": "US", "addr:full": "1820 S CRAWFORD ST", "addr:postcode": "48858", "addr:state": "MI", "brand": "USPS", "collection_times": "Mo-Sa 10:30", "name": "USPS COLLECTION BOX - BLUE BOX", "ref": "4885800088"}, "type": "Feature"}
{"geometry": {"coordinates": [-84.77516389, 43.584641414], "type": "Point"}, "id": "Mld-5M_JJmC9xBdJT8DAinA_AQE=", "properties": {"@spider": "usps_collection_boxes", "addr:city": "MOUNT PLEASANT", "addr:country": "US", "addr:full": "300 E OJIBWAY CT", "addr:postcode": "48858", "addr:state": "MI", "brand": "USPS", "collection_times": "Mo-Sa 10:00", "name": "USPS COLLECTION BOX - BLUE BOX", "ref": "4885800089"}, "type": "Feature"}
{"geometry": {"coordinates": [-84.827376532, 43.582218558], "type": "Point"}, "id": "iYkp_5CDDzp8sRr9giSyBc3out8=", "properties": {"@spider": "usps_collection_boxes", "addr:city": "MOUNT PLEASANT", "addr:country": "US", "addr:full": "303 E BROOMFIELD RD", "addr:postcode": "48858", "addr:state": "MI", "brand": "USPS", "collection_times": "Mo-Sa 10:00", "name": "USPS COLLECTION BOX - BLUE BOX", "ref": "4885800090"}, "type": "Feature"}
{"geometry": {"coordinates": [-84.757640895, 43.573013832], "type": "Point"}, "id": "-S-zeBKN9fNPK8fsCyl2e4Qr3tk=", "properties": {"@spider": "usps_collection_boxes", "addr:city": "MOUNT PLEASANT", "addr:country": "US", "addr:full": "4730 ENCORE BLVD", "addr:postcode": "48858", "addr:state": "MI", "brand": "USPS", "collection_times": "Mo-Sa 11:00", "name": "USPS COLLECTION BOX - BLUE BOX", "ref": "4885800091"}, "type": "Feature"}
{"geometry": {"coordinates": [-84.764234128, 43.575311128], "type": "Point"}, "id": "IVtF5E21BycUeyg_SaQm6c43ees=", "properties": {"@spider": "usps_collection_boxes", "addr:city": "MOUNT PLEASANT", "addr:country": "US", "addr:full": "4080 E BLUE GRASS RD", "addr:postcode": "48858", "addr:state": "MI", "brand": "USPS", "collection_times": "Mo-Fr 11:00; Sa 10:30", "name": "USPS COLLECTION BOX - BLUE BOX", "ref": "4885800092"}, "type": "Feature"}
{"geometry": {"coordinates": [-84.76742205, 43.589268472], "type": "Point"}, "id": "nA43vWMfFcTP15cHoe0ch7ahQuA=", "properties": {"@spider": "usps_collection_boxes", "addr:city": "MOUNT PLEASANT", "addr:country": "US", "addr:full": "1309 S MISSION ST", "addr:postcode": "48858", "addr:state": "MI", "brand": "USPS", "collection_times": "Mo-Fr 11:00; Sa 10:30", "name": "USPS COLLECTION BOX - BLUE BOX", "ref": "4885800093"}, "type": "Feature"}
{"geometry": {"coordinates": [-84.779154168, 43.60451053], "type": "Point"}, "id": "D1zO_pqAIwS2H9S0bAM0X0zbsIM=", "properties": {"@spider": "usps_collection_boxes", "addr:city": "MOUNT PLEASANT", "addr:country": "US", "addr:full": "320 W BROADWAY ST", "addr:postcode": "48858", "addr:state": "MI", "brand": "USPS", "collection_times": "Mo-Fr 13:00; Sa 11:00", "name": "USPS COLLECTION BOX - BLUE BOX", "note": "ON 12/24 AND 12/31, THIS BOX MAY BE COLLECTED AS EARLY AS 12 NOON.", "ref": "4885800094"}, "type": "Feature"}
{"geometry": {"coordinates": [-84.776789898, 43.610858801], "type": "Point"}, "id": "u2BkOfrv1o_OIf0fmeOCNH3iax4=", "properties": {"@spider": "usps_collection_boxes", "addr:city": "MOUNT PLEASANT", "addr:country": "US", "addr:full": "813 N MAIN ST", "addr:postcode": "48858", "addr:state": "MI", "brand": "USPS", "collection_times": "Mo-Fr 17:30; Sa 14:00", "name": "USPS COLLECTION BOX - PO LOBBY", "note": "ON 12/24 AND 12/31, THIS BOX MAY BE COLLECTED AS EARLY AS 12 NOON.", "ref": "4885800097"}, "type": "Feature"}
{"geometry": {"coordinates": [-84.1717701, 43.000138], "type": "Point"}, "id": "WneGHldC7cDtzqiMX2gll4qGWCE=", "properties": {"@spider": "usps_collection_boxes", "addr:city": "OWOSSO", "addr:country": "US", "addr:full": "319 N WASHINGTON ST", "addr:postcode": "48867", "addr:state": "MI", "brand": "USPS", "collection_times": "Mo-Sa 14:55", "name": "USPS COLLECTION BOX - BLUE BOX", "note": "ON 12/24 AND 12/31, THIS BOX MAY BE COLLECTED AS EARLY AS 12 NOON.", "ref": "4886700001"}, "type": "Feature"}
{"geometry": {"coordinates": [-84.1717195, 43.000166], "type": "Point"}, "id": "Bhks7p1z1VXxTA26QiwveAjG08Y=", "properties": {"@spider": "usps_collection_boxes", "addr:city": "OWOSSO", "addr:country": "US", "addr:full": "319 N WASHINGTON ST", "addr:postcode": "48867", "addr:state": "MI", "brand": "USPS", "collection_times": "Mo-Sa 14:55", "name": "USPS COLLECTION BOX - BLUE BOX", "note": "ON 12/24 AND 12/31, THIS BOX MAY BE COLLECTED AS EARLY AS 12 NOON.", "ref": "4886700002"}, "type": "Feature"}
{"geometry": {"coordinates": [-84.1870321, 42.979618], "type": "Point"}, "id": "sDxq_HAtjtrai04pTIpry25uul8=", "properties": {"@spider": "usps_collection_boxes", "addr:city": "OWOSSO", "addr:country": "US", "addr:full": "1910 S CHIPMAN ST", "addr:postcode": "48867", "addr:state": "MI", "brand": "USPS", "collection_times": "Mo-Sa 10:00", "name": "USPS COLLECTION BOX - BLUE BOX", "ref": "4886700008"}, "type": "Feature"}
{"geometry": {"coordinates": [-84.2198995, 42.997307], "type": "Point"}, "id": "ikL_c2x9z5xyvtXUx4F_XHB_w8w=", "properties": {"@spider": "usps_collection_boxes", "addr:city": "OWOSSO", "addr:country": "US", "addr:full": "2627 W M 21", "addr:postcode": "48867", "addr:state": "MI", "brand": "USPS", "collection_times": "Mo-Sa 09:30", "name": "USPS COLLECTION BOX - BLUE BOX", "ref": "4886700010"}, "type": "Feature"}
{"geometry": {"coordinates": [-84.1883599, 42.976749], "type": "Point"}, "id": "vcnAromimc4pwhkBdX-aZKWLBvQ=", "properties": {"@spider": "usps_collection_boxes", "addr:city": "OWOSSO", "addr:country": "US", "addr:full": "1200 PENBROOK DR", "addr:postcode": "48867", "addr:state": "MI", "brand": "USPS", "collection_times": "Mo-Sa 10:00", "name": "USPS COLLECTION BOX - BLUE BOX", "ref": "4886700011"}, "type": "Feature"}
{"geometry": {"coordinates": [-84.2152552, 42.983548], "type": "Point"}, "id": "AQ_nSCvxmJPS6CUBOgTKml_lbRA=", "properties": {"@spider": "usps_collection_boxes", "addr:city": "OWOSSO", "addr:country": "US", "addr:full": "2450 KROUSE RD", "addr:postcode": "48867", "addr:state": "MI", "brand": "USPS", "collection_times": "Mo-Sa 09:30", "name": "USPS COLLECTION BOX - BLUE BOX", "ref": "4886700013"}, "type": "Feature"}
{"geometry": {"coordinates": [-84.1901158, 42.981112], "type": "Point"}, "id": "p9UIGAOt2zJnlwe59K499X8jxLc=", "properties": {"@spider": "usps_collection_boxes", "addr:city": "OWOSSO", "addr:country": "US", "addr:full": "1800 CANDLEWICK CT", "addr:postcode": "48867", "addr:state": "MI", "brand": "USPS", "collection_times": "Mo-Sa 10:30", "name": "USPS COLLECTION BOX - BLUE BOX", "ref": "4886700014"}, "type": "Feature"}
{"geometry": {"coordinates": [-84.1810393, 43.005642], "type": "Point"}, "id": "rD37fxDUbcRFqJCBMRQwN1qcq-k=", "properties": {"@spider": "usps_collection_boxes", "addr:city": "OWOSSO", "addr:country": "US", "addr:full": "826 W KING ST", "addr:postcode": "48867", "addr:state": "MI", "brand": "USPS", "collection_times": "Mo-Sa 09:30", "name": "USPS COLLECTION BOX - BLUE BOX", "ref": "4886700021"}, "type": "Feature"}
{"geometry": {"coordinates": [-84.1708414, 42.998593], "type": "Point"}, "id": "haXbIvkBLYUKPhdvhcE0n2pxMQg=", "properties": {"@spider": "usps_collection_boxes", "addr:city": "OWOSSO", "addr:country": "US", "addr:full": "201 N WASHINGTON ST", "addr:postcode": "48867", "addr:state": "MI", "brand": "USPS", "collection_times": "Mo-Sa 09:30", "name": "USPS COLLECTION BOX - BLUE BOX", "ref": "4886700024"}, "type": "Feature"}
{"geometry": {"coordinates": [-84.1882361, 42.972929], "type": "Point"}, "id": "j7uRg3ToRF0qdRsrLIq2qHoO5hc=", "properties": {"@spider": "usps_collection_boxes", "addr:city": "OWOSSO", "addr:country": "US", "addr:full": "1704 S M 52", "addr:postcode": "48867", "addr:state": "MI", "brand": "USPS", "collection_times": "Mo-Sa 09:00", "name": "USPS COLLECTION BOX - BLUE BOX", "ref": "4886700037"}, "type": "Feature"}
{"geometry": {"coordinates": [-84.1455952, 42.999428], "type": "Point"}, "id": "6Qcdw0KnT6y78nEp9C73bkPsKTs=", "properties": {"@spider": "usps_collection_boxes", "addr:city": "OWOSSO", "addr:country": "US", "addr:full": "1411 E M 21", "addr:postcode": "48867", "addr:state": "MI", "brand": "USPS", "collection_times": "Mo-Sa 10:00", "name": "USPS COLLECTION BOX - BLUE BOX", "ref": "4886700038"}, "type": "Feature"}
{"geometry": {"coordinates": [-84.1576951716, 42.9975618686], "type": "Point"}, "id": "6D5C_yGkEbIyKDLSJF4-9DDYyvk=", "properties": {"@spider": "usps_collection_boxes", "addr:city": "OWOSSO", "addr:country": "US", "addr:full": "1002 E M 21", "addr:postcode": "48867", "addr:state": "MI", "brand": "USPS", "collection_times": "Mo-Sa 09:00", "name": "USPS COLLECTION BOX - BLUE BOX", "ref": "4886700052"}, "type": "Feature"}
{"geometry": {"coordinates": [-84.17061, 43.00011], "type": "Point"}, "id": "ceSV0NkFAqOE3O7AVZ3RlfH5dEQ=", "properties": {"@spider": "usps_collection_boxes", "addr:city": "OWOSSO", "addr:country": "US", "addr:full": "319 N WASHINGTON ST", "addr:postcode": "48867", "addr:state": "MI", "brand": "USPS", "collection_times": "Mo-Sa 14:55", "name": "USPS COLLECTION BOX - PO LOBBY", "note": "ON 12/24 AND 12/31, THIS BOX MAY BE COLLECTED AS EARLY AS 12 NOON.", "ref": "4886700054"}, "type": "Feature"}
{"geometry": {"coordinates": [-84.170609078, 43.000110251], "type": "Point"}, "id": "Pki5gIn7D77EIvDXcfROB9Y-iog=", "properties": {"@spider": "usps_collection_boxes", "addr:city": "OWOSSO", "addr:country": "US", "addr:full": "319 N WASHINGTON ST", "addr:postcode": "48867", "addr:state": "MI", "brand": "USPS", "collection_times": "Mo-Fr 17:00; Sa 13:30", "name": "USPS COLLECTION BOX - PO LOBBY", "note": "ON 12/24 AND 12/31, THIS BOX MAY BE COLLECTED AS EARLY AS 12 NOON.", "ref": "4886700056"}, "type": "Feature"}
{"geometry": {"coordinates": [-84.2185309, 42.830418], "type": "Point"}, "id": "A8EzjimD8Bhk--gV_eVjA7UVR7k=", "properties": {"@spider": "usps_collection_boxes", "addr:city": "PERRY", "addr:country": "US", "addr:full": "520 N MAIN", "addr:postcode": "48872", "addr:state": "MI", "brand": "USPS", "collection_times": "Mo-Sa 12:00", "name": "USPS COLLECTION BOX - BLUE BOX", "ref": "4887200004"}, "type": "Feature"}
{"geometry": {"coordinates": [-84.219093, 42.826343], "type": "Point"}, "id": "3Q_7MN4DB5lY7bC1GfHbo5Suqe8=", "properties": {"@spider": "usps_collection_boxes", "addr:city": "PERRY", "addr:country": "US", "addr:full": "200 N MAIN", "addr:postcode": "48872", "addr:state": "MI", "brand": "USPS", "collection_times": "Mo-Fr 13:50; Sa 10:30", "name": "USPS COLLECTION BOX - PO LOBBY", "note": "ON 12/24 AND 12/31, THIS BOX MAY BE COLLECTED AS EARLY AS 12 NOON.", "ref": "4887200005"}, "type": "Feature"}
{"geometry": {"coordinates": [-84.219093, 42.826343], "type": "Point"}, "id": "Li0M7IXAFkOgy-I7ij4ELy4C4vA=", "properties": {"@spider": "usps_collection_boxes", "addr:city": "PERRY", "addr:country": "US", "addr:full": "200 N MAIN", "addr:postcode": "48872", "addr:state": "MI", "brand": "USPS", "collection_times": "Mo-Fr 13:50; Sa 10:30", "name": "USPS COLLECTION BOX - BLUE BOX", "note": "ON 12/24 AND 12/31, THIS BOX MAY BE COLLECTED AS EARLY AS 12 NOON.", "ref": "4887200006"}, "type": "Feature"}
{"geometry": {"coordinates": [-84.2209941, 42.835801], "type": "Point"}, "id": "y4pbsr6IgBdCT_SBbm2vprlGQXA=", "properties": {"@spider": "usps_collection_boxes", "addr:city": "PERRY", "addr:country": "US", "addr:full": "3034 LANSING RD", "addr:postcode": "48872", "addr:state": "MI", "brand": "USPS", "collection_times": "Mo-Sa 11:00", "name": "USPS COLLECTION BOX - BLUE BOX", "ref": "4887200008"}, "type": "Feature"}
{"geometry": {"coordinates": [-84.219077754, 42.826306931], "type": "Point"}, "id": "9NNV77wLUv5uRWwHC9tZmlgXLV4=", "properties": {"@spider": "usps_collection_boxes", "addr:city": "PERRY", "addr:country": "US", "addr:full": "200 N MAIN", "addr:postcode": "48872", "addr:state": "MI", "brand": "USPS", "collection_times": "Mo-Fr 16:00; Sa 11:00", "name": "USPS COLLECTION BOX - PO LOBBY", "note": "ON 12/24 AND 12/31, THIS BOX MAY BE COLLECTED AS EARLY AS 12 NOON.", "ref": "4887200009"}, "type": "Feature"}
{"geometry": {"coordinates": [-84.835982, 43.390264], "type": "Point"}, "id": "oi7WyZ2xlyfgWA2P51dJh8fDz98=", "properties": {"@spider": "usps_collection_boxes", "addr:city": "RIVERDALE", "addr:country": "US", "addr:full": "6728 N LUMBERJACK RD", "addr:postcode": "48877", "addr:state": "MI", "brand": "USPS", "collection_times": "Mo-Fr 14:50; Sa 10:00", "name": "USPS COLLECTION BOX - BLUE BOX", "note": "ON 12/24 AND 12/31, THIS BOX MAY BE COLLECTED AS EARLY AS 12 NOON.", "ref": "4887700001"}, "type": "Feature"}
{"geometry": {"coordinates": [-84.835982, 43.390264], "type": "Point"}, "id": "59j1QrfR2iFnWLP3eWQ_uaQpZf8=", "properties": {"@spider": "usps_collection_boxes", "addr:city": "RIVERDALE", "addr:country": "US", "addr:full": "6728 N LUMBERJACK RD", "addr:postcode": "48877", "addr:state": "MI", "brand": "USPS", "collection_times": "Mo-Fr 14:50; Sa 10:00", "name": "USPS COLLECTION BOX - PO LOBBY", "note": "ON 12/24 AND 12/31, THIS BOX MAY BE COLLECTED AS EARLY AS 12 NOON.", "ref": "4887700002"}, "type": "Feature"}
{"geometry": {"coordinates": [-84.835971745, 43.390181441], "type": "Point"}, "id": "JQo3xk-VnLm5vTtugnCvhMVFu4o=", "properties": {"@spider": "usps_collection_boxes", "addr:city": "RIVERDALE", "addr:country": "US", "addr:full": "6728 N LUMBERJACK RD", "addr:postcode": "48877", "addr:state": "MI", "brand": "USPS", "collection_times": "Mo-Fr 15:30", "name": "USPS COLLECTION BOX - PO LOBBY", "note": "ON 12/24 AND 12/31, THIS BOX MAY BE COLLECTED AS EARLY AS 12 NOON.", "ref": "4887700003"}, "type": "Feature"}
{"geometry": {"coordinates": [-84.769518, 43.69852], "type": "Point"}, "id": "aDbAiRzKoPc_nUl-D5nzaAawz8c=", "properties": {"@spider": "usps_collection_boxes", "addr:city": "ROSEBUSH", "addr:country": "US", "addr:full": "3905 E ROSEBUSH RD", "addr:postcode": "48878", "addr:state": "MI", "brand": "USPS", "collection_times": "Mo-Fr 13:45; Sa 09:00", "name": "USPS COLLECTION BOX - BLUE BOX", "note": "ON 12/24 AND 12/31, THIS BOX MAY BE COLLECTED AS EARLY AS 12 NOON.", "ref": "4887800001"}, "type": "Feature"}
{"geometry": {"coordinates": [-84.769518, 43.69852], "type": "Point"}, "id": "3oZXmbRlWgDRMNPVhnytL2heDfI=", "properties": {"@spider": "usps_collection_boxes", "addr:city": "ROSEBUSH", "addr:country": "US", "addr:full": "3905 E ROSEBUSH RD", "addr:postcode": "48878", "addr:state": "MI", "brand": "USPS", "collection_times": "Mo-Fr 13:45; Sa 09:00", "name": "USPS COLLECTION BOX - PO LOBBY", "note": "ON 12/24 AND 12/31, THIS BOX MAY BE COLLECTED AS EARLY AS 12 NOON.", "ref": "4887800002"}, "type": "Feature"}
{"geometry": {"coordinates": [-84.76902, 43.69851246], "type": "Point"}, "id": "9tV3Mz0hz1nQFXVSTtNRcm7fpXc=", "properties": {"@spider": "usps_collection_boxes", "addr:city": "ROSEBUSH", "addr:country": "US", "addr:full": "3905 E ROSEBUSH RD", "addr:postcode": "48878", "addr:state": "MI", "brand": "USPS", "collection_times": "Mo-Fr 15:30; Sa 10:00", "name": "USPS COLLECTION BOX - PO LOBBY", "note": "ON 12/24 AND 12/31, THIS BOX MAY BE COLLECTED AS EARLY AS 12 NOON.", "ref": "4887800003"}, "type": "Feature"}
{"geometry": {"coordinates": [-84.295135, 42.804903], "type": "Point"}, "id": "YR4VtL1DHgoHHkF4TsDpgd-7P_w=", "properties": {"@spider": "usps_collection_boxes", "addr:city": "SHAFTSBURG", "addr:country": "US", "addr:full": "7090 W BEARD RD", "addr:postcode": "48882", "addr:state": "MI", "brand": "USPS", "collection_times": "Mo-Fr 14:00; Sa 09:00", "name": "USPS COLLECTION BOX - BLUE BOX", "note": "ON 12/24 AND 12/31, THIS BOX MAY BE COLLECTED AS EARLY AS 12 NOON.", "ref": "4888200001"}, "type": "Feature"}
{"geometry": {"coordinates": [-84.295135, 42.804903], "type": "Point"}, "id": "9bopfuW83030LNBbycMLOaLBFXc=", "properties": {"@spider": "usps_collection_boxes", "addr:city": "SHAFTSBURG", "addr:country": "US", "addr:full": "7090 W BEARD RD", "addr:postcode": "48882", "addr:state": "MI", "brand": "USPS", "collection_times": "Mo-Fr 14:00; Sa 09:00", "name": "USPS COLLECTION BOX - PO LOBBY", "note": "ON 12/24 AND 12/31, THIS BOX MAY BE COLLECTED AS EARLY AS 12 NOON.", "ref": "4888200002"}, "type": "Feature"}
{"geometry": {"coordinates": [-84.294324295, 42.805011282], "type": "Point"}, "id": "AVzOXQk4qRd0AL-5ChnQ9IcJAYg=", "properties": {"@spider": "usps_collection_boxes", "addr:city": "SHAFTSBURG", "addr:country": "US", "addr:full": "7090 W BEARD RD", "addr:postcode": "48882", "addr:state": "MI", "brand": "USPS", "collection_times": "Mo-Fr 13:30; Sa 08:30", "name": "USPS COLLECTION BOX - PO LOBBY", "note": "ON 12/24 AND 12/31, THIS BOX MAY BE COLLECTED AS EARLY AS 12 NOON.", "ref": "4888200003"}, "type": "Feature"}
{"geometry": {"coordinates": [-85.132462, 43.250027], "type": "Point"}, "id": "RArPkBs-PWjXB98Q3ax25CaqiYc=", "properties": {"@spider": "usps_collection_boxes", "addr:city": "SIDNEY", "addr:country": "US", "addr:full": "2960 W SIDNEY RD", "addr:postcode": "48885", "addr:state": "MI", "brand": "USPS", "collection_times": "Mo-Fr 14:40; Sa 09:00", "name": "USPS COLLECTION BOX - BLUE BOX", "note": "ON 12/24 AND 12/31, THIS BOX MAY BE COLLECTED AS EARLY AS 12 NOON.", "ref": "4888500001"}, "type": "Feature"}
{"geometry": {"coordinates": [-85.132462, 43.250027], "type": "Point"}, "id": "Ufir-CYPrNQnwcweP_tGsVZ0DcM=", "properties": {"@spider": "usps_collection_boxes", "addr:city": "SIDNEY", "addr:country": "US", "addr:full": "2960 W SIDNEY RD", "addr:postcode": "48885", "addr:state": "MI", "brand": "USPS", "collection_times": "Mo-Fr 14:40; Sa 09:00", "name": "USPS COLLECTION BOX - PO LOBBY", "note": "ON 12/24 AND 12/31, THIS BOX MAY BE COLLECTED AS EARLY AS 12 NOON.", "ref": "4888500002"}, "type": "Feature"}
{"geometry": {"coordinates": [-85.132461693, 43.250006482], "type": "Point"}, "id": "vJWTxCjaRZ1YE9LOIAPvzpbLXsY=", "properties": {"@spider": "usps_collection_boxes", "addr:city": "SIDNEY", "addr:country": "US", "addr:full": "2960 W SIDNEY RD", "addr:postcode": "48885", "addr:state": "MI", "brand": "USPS", "collection_times": "Mo-Fr 15:15; Sa 09:30", "name": "USPS COLLECTION BOX - PO LOBBY", "note": "ON 12/24 AND 12/31, THIS BOX MAY BE COLLECTED AS EARLY AS 12 NOON.", "ref": "4888500003"}, "type": "Feature"}
{"geometry": {"coordinates": [-85.145253, 43.431538], "type": "Point"}, "id": "FlyCUkFglPAo1iMnOo0xqTtsrFQ=", "properties": {"@spider": "usps_collection_boxes", "addr:city": "SIX LAKES", "addr:country": "US", "addr:full": "126 N CLARK ST", "addr:postcode": "48886", "addr:state": "MI", "brand": "USPS", "collection_times": "Mo-Fr 13:15; Sa 10:00", "name": "USPS COLLECTION BOX - BLUE BOX", "note": "ON 12/24 AND 12/31, THIS BOX MAY BE COLLECTED AS EARLY AS 12 NOON.", "ref": "4888600001"}, "type": "Feature"}
{"geometry": {"coordinates": [-85.145253, 43.431538], "type": "Point"}, "id": "3amJUj-GPOexd0oEpg7lPWyO-BY=", "properties": {"@spider": "usps_collection_boxes", "addr:city": "SIX LAKES", "addr:country": "US", "addr:full": "126 N CLARK ST", "addr:postcode": "48886", "addr:state": "MI", "brand": "USPS", "collection_times": "Mo-Fr 13:15; Sa 10:00", "name": "USPS COLLECTION BOX - PO LOBBY", "note": "ON 12/24 AND 12/31, THIS BOX MAY BE COLLECTED AS EARLY AS 12 NOON.", "ref": "4888600002"}, "type": "Feature"}
{"geometry": {"coordinates": [-85.1451330106, 43.4305206322], "type": "Point"}, "id": "U7en50NLPmOKZ6SOVoF6OckQL1U=", "properties": {"@spider": "usps_collection_boxes", "addr:city": "SIX LAKES", "addr:country": "US", "addr:full": "126 N CLARK ST", "addr:postcode": "48886", "addr:state": "MI", "brand": "USPS", "collection_times": "Mo-Fr 14:30; Sa 09:30", "name": "USPS COLLECTION BOX - PO LOBBY", "note": "ON 12/24 AND 12/31, THIS BOX MAY BE COLLECTED AS EARLY AS 12 NOON.", "ref": "4888600003"}, "type": "Feature"}
{"geometry": {"coordinates": [-85.084838, 43.295459], "type": "Point"}, "id": "Sb-aVl5vYDDhN-JT96GyyYkW-rE=", "properties": {"@spider": "usps_collection_boxes", "addr:city": "STANTON", "addr:country": "US", "addr:full": "363 N STATE ST", "addr:postcode": "48888", "addr:state": "MI", "brand": "USPS", "collection_times": "Mo-Fr 15:25; Sa 11:00", "name": "USPS COLLECTION BOX - BLUE BOX", "note": "ON 12/24 AND 12/31, THIS BOX MAY BE COLLECTED AS EARLY AS 12 NOON.", "ref": "4888800001"}, "type": "Feature"}
{"geometry": {"coordinates": [-85.080154, 43.29256], "type": "Point"}, "id": "j7eceSmfSNUA9uqrSgXR8nX4k5U=", "properties": {"@spider": "usps_collection_boxes", "addr:city": "STANTON", "addr:country": "US", "addr:full": "200 E MAIN ST", "addr:postcode": "48888", "addr:state": "MI", "brand": "USPS", "collection_times": "Mo-Fr 13:00; Sa 10:00", "name": "USPS COLLECTION BOX - BLUE BOX", "note": "ON 12/24 AND 12/31, THIS BOX MAY BE COLLECTED AS EARLY AS 12 NOON.", "ref": "4888800003"}, "type": "Feature"}
{"geometry": {"coordinates": [-85.084838, 43.295459], "type": "Point"}, "id": "J_25BRVGnVCYW9HhZ_mLnIr9Tmw=", "properties": {"@spider": "usps_collection_boxes", "addr:city": "STANTON", "addr:country": "US", "addr:full": "363 N STATE ST", "addr:postcode": "48888", "addr:state": "MI", "brand": "USPS", "collection_times": "Mo-Fr 15:25; Sa 11:00", "name": "USPS COLLECTION BOX - PO LOBBY", "note": "ON 12/24 AND 12/31, THIS BOX MAY BE COLLECTED AS EARLY AS 12 NOON.", "ref": "4888800005"}, "type": "Feature"}
{"geometry": {"coordinates": [-85.08336, 43.292541], "type": "Point"}, "id": "fvE3oFNAyI5fBVoeaMGYQApvA5k=", "properties": {"@spider": "usps_collection_boxes", "addr:city": "STANTON", "addr:country": "US", "addr:full": "211 W MAIN ST", "addr:postcode": "48888", "addr:state": "MI", "brand": "USPS", "collection_times": "Mo-Fr 13:00; Sa 10:00", "name": "USPS COLLECTION BOX - BLUE BOX", "note": "ON 12/24 AND 12/31, THIS BOX MAY BE COLLECTED AS EARLY AS 12 NOON.", "ref": "4888800007"}, "type": "Feature"}
{"geometry": {"coordinates": [-85.084838, 43.295459], "type": "Point"}, "id": "LmWWmkA-YOZhr_-uYLezkz9JExY=", "properties": {"@spider": "usps_collection_boxes", "addr:city": "STANTON", "addr:country": "US", "addr:full": "363 N STATE ST", "addr:postcode": "48888", "addr:state": "MI", "brand": "USPS", "collection_times": "Mo-Fr 15:25; Sa 11:00", "name": "USPS COLLECTION BOX - BLUE BOX", "note": "ON 12/24 AND 12/31, THIS BOX MAY BE COLLECTED AS EARLY AS 12 NOON.", "ref": "4888800008"}, "type": "Feature"}
{"geometry": {"coordinates": [-85.084860346, 43.295461745], "type": "Point"}, "id": "yzlKuNvAyJhQiZFDOFit0Se2yOU=", "properties": {"@spider": "usps_collection_boxes", "addr:city": "STANTON", "addr:country": "US", "addr:full": "363 N STATE ST", "addr:postcode": "48888", "addr:state": "MI", "brand": "USPS", "collection_times": "Mo-Fr 16:00; Sa 10:30", "name": "USPS COLLECTION BOX - PO LOBBY", "note": "ON 12/24 AND 12/31, THIS BOX MAY BE COLLECTED AS EARLY AS 12 NOON.", "ref": "4888800009"}, "type": "Feature"}
{"geometry": {"coordinates": [-84.90823, 43.399003], "type": "Point"}, "id": "OF5pohUxzyYQgP7lxrPlGSDpWdc=", "properties": {"@spider": "usps_collection_boxes", "addr:city": "VESTABURG", "addr:country": "US", "addr:full": "8845 3RD ST", "addr:postcode": "48891", "addr:state": "MI", "brand": "USPS", "collection_times": "Mo-Fr 14:35; Sa 09:30", "name": "USPS COLLECTION BOX - BLUE BOX", "note": "ON 12/24 AND 12/31, THIS BOX MAY BE COLLECTED AS EARLY AS 12 NOON.", "ref": "4889100001"}, "type": "Feature"}
{"geometry": {"coordinates": [-84.90823, 43.399003], "type": "Point"}, "id": "3hJzB-fR1zPfpJpiXWDfyF8uRtU=", "properties": {"@spider": "usps_collection_boxes", "addr:city": "VESTABURG", "addr:country": "US", "addr:full": "8845 3RD ST", "addr:postcode": "48891", "addr:state": "MI", "brand": "USPS", "collection_times": "Mo-Fr 14:35; Sa 09:30", "name": "USPS COLLECTION BOX - PO LOBBY", "note": "ON 12/24 AND 12/31, THIS BOX MAY BE COLLECTED AS EARLY AS 12 NOON.", "ref": "4889100002"}, "type": "Feature"}
{"geometry": {"coordinates": [-84.9046557, 43.407858], "type": "Point"}, "id": "CkvK5bqyAAUmV5TS_Ld89zmiQoY=", "properties": {"@spider": "usps_collection_boxes", "addr:city": "VESTABURG", "addr:country": "US", "addr:full": "9002 E HOWARD CITY EDMORE RD", "addr:postcode": "48891", "addr:state": "MI", "brand": "USPS", "collection_times": "Mo-Fr 12:00; Sa 09:30", "name": "USPS COLLECTION BOX - BLUE BOX", "ref": "4889100003"}, "type": "Feature"}
{"geometry": {"coordinates": [-84.908231554, 43.399046424], "type": "Point"}, "id": "KOXhd8YSb0PlGRamDKyehRhICP0=", "properties": {"@spider": "usps_collection_boxes", "addr:city": "VESTABURG", "addr:country": "US", "addr:full": "8845 3RD ST", "addr:postcode": "48891", "addr:state": "MI", "brand": "USPS", "collection_times": "Mo-Fr 14:30; Sa 10:00", "name": "USPS COLLECTION BOX - PO LOBBY", "note": "ON 12/24 AND 12/31, THIS BOX MAY BE COLLECTED AS EARLY AS 12 NOON.", "ref": "4889100004"}, "type": "Feature"}
{"geometry": {"coordinates": [-84.968558, 43.687469], "type": "Point"}, "id": "ftnSDiIAiuUCN0pHh3UmMsed7Hg=", "properties": {"@spider": "usps_collection_boxes", "addr:city": "WEIDMAN", "addr:country": "US", "addr:full": "3366 N WOODRUFF RD", "addr:postcode": "48893", "addr:state": "MI", "brand": "USPS", "collection_times": "Mo-Fr 13:20; Sa 10:00", "name": "USPS COLLECTION BOX - BLUE BOX", "note": "ON 12/24 AND 12/31, THIS BOX MAY BE COLLECTED AS EARLY AS 12 NOON.", "ref": "4889300001"}, "type": "Feature"}
{"geometry": {"coordinates": [-84.968558, 43.687469], "type": "Point"}, "id": "yvEOKTKEoqHMA0vnaCC2BYWUhCE=", "properties": {"@spider": "usps_collection_boxes", "addr:city": "WEIDMAN", "addr:country": "US", "addr:full": "3366 N WOODRUFF RD", "addr:postcode": "48893", "addr:state": "MI", "brand": "USPS", "collection_times": "Mo-Fr 13:20; Sa 10:00", "name": "USPS COLLECTION BOX - PO LOBBY", "note": "ON 12/24 AND 12/31, THIS BOX MAY BE COLLECTED AS EARLY AS 12 NOON.", "ref": "4889300002"}, "type": "Feature"}
{"geometry": {"coordinates": [-84.96857246, 43.688637], "type": "Point"}, "id": "KfwUhklNb0yJSGiOiKTqC5iduhw=", "properties": {"@spider": "usps_collection_boxes", "addr:city": "WEIDMAN", "addr:country": "US", "addr:full": "3366 N WOODRUFF RD", "addr:postcode": "48893", "addr:state": "MI", "brand": "USPS", "collection_times": "Mo-Fr 15:45; Sa 10:30", "name": "USPS COLLECTION BOX - PO LOBBY", "note": "ON 12/24 AND 12/31, THIS BOX MAY BE COLLECTED AS EARLY AS 12 NOON.", "ref": "4889300004"}, "type": "Feature"}
{"geometry": {"coordinates": [-84.279333062, 42.680514062], "type": "Point"}, "id": "frVRDdTnUN50iLOTyDcYfsyjFcI=", "properties": {"@spider": "usps_collection_boxes", "addr:city": "WILLIAMSTON", "addr:country": "US", "addr:full": "100 INDUSTRIAL DR", "addr:postcode": "48895", "addr:state": "MI", "brand": "USPS", "collection_times": "Mo-Fr 14:00; Sa 10:00", "name": "USPS COLLECTION BOX - BLUE BOX", "note": "ON 12/24 AND 12/31, THIS BOX MAY BE COLLECTED AS EARLY AS 12 NOON.", "ref": "4889500001"}, "type": "Feature"}
{"geometry": {"coordinates": [-84.3127299, 42.691879], "type": "Point"}, "id": "pFmRbjEqby8GEGhx-mm9nAy0q0s=", "properties": {"@spider": "usps_collection_boxes", "addr:city": "WILLIAMSTON", "addr:country": "US", "addr:full": "1295 E GRAND RIVER RD", "addr:postcode": "48895", "addr:state": "MI", "brand": "USPS", "collection_times": "Mo-Fr 15:20; Sa 12:30", "name": "USPS COLLECTION BOX - BLUE BOX", "note": "ON 12/24 AND 12/31, THIS BOX MAY BE COLLECTED AS EARLY AS 12 NOON.", "ref": "4889500002"}, "type": "Feature"}
{"geometry": {"coordinates": [-84.2804409, 42.672163], "type": "Point"}, "id": "pGzPqLH8bYQQKFlYhGm7tcpkQ88=", "properties": {"@spider": "usps_collection_boxes", "addr:city": "WILLIAMSTON", "addr:country": "US", "addr:full": "301 WILLIAMSTON CENTER RD", "addr:postcode": "48895", "addr:state": "MI", "brand": "USPS", "collection_times": "Mo-Sa 12:30", "name": "USPS COLLECTION BOX - BLUE BOX", "note": "ON 12/24 AND 12/31, THIS BOX MAY BE COLLECTED AS EARLY AS 12 NOON.", "ref": "4889500003"}, "type": "Feature"}
{"geometry": {"coordinates": [-84.2848706, 42.687965], "type": "Point"}, "id": "UHRZVnGiX-SOrRu9QF-rs_nFqr4=", "properties": {"@spider": "usps_collection_boxes", "addr:city": "WILLIAMSTON", "addr:country": "US", "addr:full": "151 W GRAND RIVER AVE", "addr:postcode": "48895", "addr:state": "MI", "brand": "USPS", "collection_times": "Mo-Fr 14:00; Sa 12:30", "name": "USPS COLLECTION BOX - BLUE BOX", "note": "ON 12/24 AND 12/31, THIS BOX MAY BE COLLECTED AS EARLY AS 12 NOON.", "ref": "4889500006"}, "type": "Feature"}
{"geometry": {"coordinates": [-84.3122739, 42.691738], "type": "Point"}, "id": "hpg8Bv7OkB_CDhvuHtY-4z6Smg4=", "properties": {"@spider": "usps_collection_boxes", "addr:city": "WILLIAMSTON", "addr:country": "US", "addr:full": "1295 E GRAND RIVER RD", "addr:postcode": "48895", "addr:state": "MI", "brand": "USPS", "collection_times": "Mo-Fr 15:20; Sa 12:30", "name": "USPS COLLECTION BOX - PO LOBBY", "note": "ON 12/24 AND 12/31, THIS BOX MAY BE COLLECTED AS EARLY AS 12 NOON.", "ref": "4889500007"}, "type": "Feature"}
{"geometry": {"coordinates": [-84.3160482, 42.729514], "type": "Point"}, "id": "fP6hcsL0_v3G4XiBZHdA2pSq7KE=", "properties": {"@spider": "usps_collection_boxes", "addr:city": "WILLIAMSTON", "addr:country": "US", "addr:full": "4990 ZIMMER RD", "addr:postcode": "48895", "addr:state": "MI", "brand": "USPS", "collection_times": "Mo-Sa 10:00", "name": "USPS COLLECTION BOX - BLUE BOX", "ref": "4889500008"}, "type": "Feature"}
{"geometry": {"coordinates": [-84.312122251, 42.691158542], "type": "Point"}, "id": "Fep6tc1DMAgdt2iunfSeQb474UA=", "properties": {"@spider": "usps_collection_boxes", "addr:city": "WILLIAMSTON", "addr:country": "US", "addr:full": "1295 E GRAND RIVER RD", "addr:postcode": "48895", "addr:state": "MI", "brand": "USPS", "collection_times": "Mo-Fr 16:30; Sa 12:00", "name": "USPS COLLECTION BOX - PO LOBBY", "note": "ON 12/24 AND 12/31, THIS BOX MAY BE COLLECTED AS EARLY AS 12 NOON.", "ref": "4889500009"}, "type": "Feature"}
{"geometry": {"coordinates": [-84.903379, 43.525173], "type": "Point"}, "id": "aWBo-Oc4hz8CYwnBYD9iy5Pt64U=", "properties": {"@spider": "usps_collection_boxes", "addr:city": "WINN", "addr:country": "US", "addr:full": "2855 W BLANCHARD RD", "addr:postcode": "48896", "addr:state": "MI", "brand": "USPS", "collection_times": "Mo-Fr 12:30; Sa 09:00", "name": "USPS COLLECTION BOX - BLUE BOX", "note": "ON 12/24 AND 12/31, THIS BOX MAY BE COLLECTED AS EARLY AS 12 NOON.", "ref": "4889600001"}, "type": "Feature"}
{"geometry": {"coordinates": [-84.903379, 43.525173], "type": "Point"}, "id": "RrjINIVcIsn1pkMVrHBmRHAp_po=", "properties": {"@spider": "usps_collection_boxes", "addr:city": "WINN", "addr:country": "US", "addr:full": "2855 W BLANCHARD RD", "addr:postcode": "48896", "addr:state": "MI", "brand": "USPS", "collection_times": "Mo-Fr 12:30; Sa 09:00", "name": "USPS COLLECTION BOX - PO LOBBY", "note": "ON 12/24 AND 12/31, THIS BOX MAY BE COLLECTED AS EARLY AS 12 NOON.", "ref": "4889600002"}, "type": "Feature"}
{"geometry": {"coordinates": [-84.902979959, 43.525091193], "type": "Point"}, "id": "Wy8K5Zh23ItzOh21fKpZLpHdT6w=", "properties": {"@spider": "usps_collection_boxes", "addr:city": "WINN", "addr:country": "US", "addr:full": "2855 W BLANCHARD RD", "addr:postcode": "48896", "addr:state": "MI", "brand": "USPS", "collection_times": "Mo-Fr 15:15", "name": "USPS COLLECTION BOX - PO LOBBY", "note": "ON 12/24 AND 12/31, THIS BOX MAY BE COLLECTED AS EARLY AS 12 NOON.", "ref": "4889600003"}, "type": "Feature"}
