{"geometry": {"coordinates": [-84.5623522297, 42.7488540237], "type": "Point"}, "id": "KowlMvU1tIJzsBn1A-ry2Za-JB4=", "properties": {"@source_uri": "https://tools.usps.com/UspsToolsRestServices/rest/POLocator/findLocations", "@spider": "usps_collection_boxes", "addr:city": "LANSING", "addr:country": "US", "addr:postcode": "48906", "addr:state": "MI", "addr:street_address": "736 W WILLOW ST", "amenity": "post_box", "collection_times": "Mo-Sa 10:45", "nsi_id": "unitedstatespostalservice-a77078", "operator": "United States Postal Service", "operator:short": "USPS", "operator:type": "public", "operator:wikidata": "Q668687", "ref": "4890600005"}, "type": "Feature"}
{"geometry": {"coordinates": [-84.519129966, 42.78426001], "type": "Point"}, "id": "nbUngFt4EXZUjcjFDV8wBVGjYx8=", "properties": {"@source_uri": "https://tools.usps.com/UspsToolsRestServices/rest/POLocator/findLocations", "@spider": "usps_collection_boxes", "addr:city": "LANSING", "addr:country": "US", "addr:postcode": "48906", "addr:state": "MI", "addr:street_address": "2201 E STATE RD", "amenity": "post_box", "collection_times": "Mo-Sa 11:00", "nsi_id": "unitedstatespostalservice-a77078", "operator": "United States Postal Service", "operator:short": "USPS", "operator:type": "public", "operator:wikidata": "Q668687", "ref": "4890600007"}, "type": "Feature"}
{"geometry": {"coordinates": [-84.5175068, 42.783912], "type": "Point"}, "id": "3ru1xKnlynCG8oVq5UYO9biou0s=", "properties": {"@source_uri": "https://tools.usps.com/UspsToolsRestServices/rest/POLocator/findLocations", "@spider": "usps_collection_boxes", "addr:city": "LANSING", "addr:country": "US", "addr:postcode": "48906", "addr:state": "MI", "addr:street_address": "2300 E STATE RD", "amenity": "post_box", "collection_times": "Mo-Sa 11:00", "nsi_id": "unitedstatespostalservice-a77078", "operator": "United States Postal Service", "operator:short": "USPS", "operator:type": "public", "operator:wikidata": "Q668687", "ref": "4890600008"}, "type": "Feature"}
{"geometry": {"coordinates": [-84.5490884, 42.747286], "type": "Point"}, "id": "wzMewBFjZ8NspYTYSvZfFZwooxA=", "properties": {"@source_uri": "https://tools.usps.com/UspsToolsRestServices/rest/POLocator/findLocations", "@spider": "usps_collection_boxes", "addr:city": "LANSING", "addr:country": "US", "addr:postcode": "48906", "addr:state": "MI", "addr:street_address": "226 E GRAND RIVER AVE", "amenity": "post_box", "collection_times": "Mo-Sa 10:45", "nsi_id": "unitedstatespostalservice-a77078", "operator": "United States Postal Service", "operator:short": "USPS", "operator:type": "public", "operator:wikidata": "Q668687", "ref": "4890600011"}, "type": "Feature"}
{"geometry": {"coordinates": [-84.5429949, 42.758008], "type": "Point"}, "id": "46yoQkxsAeHGB69QsAttFxGTAmI=", "properties": {"@source_uri": "https://tools.usps.com/UspsToolsRestServices/rest/POLocator/findLocations", "@spider": "usps_collection_boxes", "addr:city": "LANSING", "addr:country": "US", "addr:postcode": "48906", "addr:state": "MI", "addr:street_address": "600 E THOMAS ST", "amenity": "post_box", "collection_times": "Mo-Sa 11:00", "nsi_id": "unitedstatespostalservice-a77078", "operator": "United States Postal Service", "operator:short": "USPS", "operator:type": "public", "operator:wikidata": "Q668687", "ref": "4890600012"}, "type": "Feature"}
{"geometry": {"coordinates": [-84.5544726, 42.760055], "type": "Point"}, "id": "y1anRSEl0CGEkGxx41TzjdMm8Pc=", "properties": {"@source_uri": "https://tools.usps.com/UspsToolsRestServices/rest/POLocator/findLocations", "@spider": "usps_collection_boxes", "addr:city": "LANSING", "addr:country": "US", "addr:postcode": "48906", "addr:state": "MI", "addr:street_address": "2601 TURNER ST", "amenity": "post_box", "collection_times": "Mo-Sa 10:00", "nsi_id": "unitedstatespostalservice-a77078", "operator": "United States Postal Service", "operator:short": "USPS", "operator:type": "public", "operator:wikidata": "Q668687", "ref": "4890600013"}, "type": "Feature"}
{"geometry": {"coordinates": [-84.588744, 42.767583], "type": "Point"}, "id": "dfnUYZyPiUgHu-TCURUkmaSSync=", "properties": {"@source_uri": "https://tools.usps.com/UspsToolsRestServices/rest/POLocator/findLocations", "@spider": "usps_collection_boxes", "addr:city": "LANSING", "addr:country": "US", "addr:postcode": "48906", "addr:state": "MI", "addr:street_address": "3400 CAPITOL CITY BLVD", "amenity": "post_box", "collection_times": "Mo-Sa 10:00", "nsi_id": "unitedstatespostalservice-a77078", "operator": "United States Postal Service", "operator:short": "USPS", "operator:type": "public", "operator:wikidata": "Q668687", "ref": "4890600014"}, "type": "Feature"}
{"geometry": {"coordinates": [-84.5424024, 42.792228], "type": "Point"}, "id": "3i4fQZ8MQrFz8IpRfmEFFTGY5wg=", "properties": {"@source_uri": "https://tools.usps.com/UspsToolsRestServices/rest/POLocator/findLocations", "@spider": "usps_collection_boxes", "addr:city": "LANSING", "addr:country": "US", "addr:postcode": "48906", "addr:state": "MI", "addr:street_address": "15431 S US HIGHWAY 27", "amenity": "post_box", "collection_times": "Mo-Sa 11:00", "nsi_id": "unitedstatespostalservice-a77078", "operator": "United States Postal Service", "operator:short": "USPS", "operator:type": "public", "operator:wikidata": "Q668687", "ref": "4890600018"}, "type": "Feature"}
{"geometry": {"coordinates": [-84.5539129, 42.744893], "type": "Point"}, "id": "uL_NQXEViLRgj8vCyHULuf2aXM4=", "properties": {"@source_uri": "https://tools.usps.com/UspsToolsRestServices/rest/POLocator/findLocations", "@spider": "usps_collection_boxes", "addr:city": "LANSING", "addr:country": "US", "addr:postcode": "48906", "addr:state": "MI", "addr:street_address": "1001 N CAPITOL AVE", "amenity": "post_box", "collection_times": "Mo-Sa 10:45", "nsi_id": "unitedstatespostalservice-a77078", "operator": "United States Postal Service", "operator:short": "USPS", "operator:type": "public", "operator:wikidata": "Q668687", "ref": "4890600021"}, "type": "Feature"}
{"geometry": {"coordinates": [-84.570818, 42.761644], "type": "Point"}, "id": "6Y7DiYyDZElmZyaX95pvwNPkcLM=", "properties": {"@source_uri": "https://tools.usps.com/UspsToolsRestServices/rest/POLocator/findLocations", "@spider": "usps_collection_boxes", "addr:city": "LANSING", "addr:country": "US", "addr:postcode": "48906", "addr:state": "MI", "addr:street_address": "2810 N GRAND RIVER AVE", "amenity": "post_box", "collection_times": "Mo-Sa 10:30", "nsi_id": "unitedstatespostalservice-a77078", "operator": "United States Postal Service", "operator:short": "USPS", "operator:type": "public", "operator:wikidata": "Q668687", "ref": "4890600029"}, "type": "Feature"}
{"geometry": {"coordinates": [-84.5987299, 42.768738], "type": "Point"}, "id": "7SUWw2CJvENyRy4ZbnA907IG1DA=", "properties": {"@source_uri": "https://tools.usps.com/UspsToolsRestServices/rest/POLocator/findLocations", "@spider": "usps_collection_boxes", "addr:city": "LANSING", "addr:country": "US", "addr:postcode": "48906", "addr:state": "MI", "addr:street_address": "5101 N GRAND RIVER AVE", "amenity": "post_box", "collection_times": "Mo-Sa 10:30", "nsi_id": "unitedstatespostalservice-a77078", "operator": "United States Postal Service", "operator:short": "USPS", "operator:type": "public", "operator:wikidata": "Q668687", "ref": "4890600033"}, "type": "Feature"}
{"geometry": {"coordinates": [-84.5896206, 42.77459], "type": "Point"}, "id": "T7_IJOgUIedpo_9tnDYa3SJqP4Q=", "properties": {"@source_uri": "https://tools.usps.com/UspsToolsRestServices/rest/POLocator/findLocations", "@spider": "usps_collection_boxes", "addr:city": "LANSING", "addr:country": "US", "addr:postcode": "48906", "addr:state": "MI", "addr:street_address": "4100 CAPITOL CITY BLVD", "amenity": "post_box", "collection_times": "Mo-Sa 10:00", "nsi_id": "unitedstatespostalservice-a77078", "operator": "United States Postal Service", "operator:short": "USPS", "operator:type": "public", "operator:wikidata": "Q668687", "ref": "4890600034"}, "type": "Feature"}
{"geometry": {"coordinates": [-84.5406527, 42.741539], "type": "Point"}, "id": "hGp_Hg3hLA9RVOvDG0xyKF1LjUk=", "properties": {"@source_uri": "https://tools.usps.com/UspsToolsRestServices/rest/POLocator/findLocations", "@spider": "usps_collection_boxes", "addr:city": "LANSING", "addr:country": "US", "addr:postcode": "48906", "addr:state": "MI", "addr:street_address": "725 PRUDDEN ST", "amenity": "post_box", "collection_times": "Mo-Sa 11:00", "nsi_id": "unitedstatespostalservice-a77078", "operator": "United States Postal Service", "operator:short": "USPS", "operator:type": "public", "operator:wikidata": "Q668687", "ref": "4890600035"}, "type": "Feature"}
{"geometry": {"coordinates": [-84.5554213, 42.747493], "type": "Point"}, "id": "Yxf0_FwiWl025H8ZfWkmLeSJudo=", "properties": {"@source_uri": "https://tools.usps.com/UspsToolsRestServices/rest/POLocator/findLocations", "@spider": "usps_collection_boxes", "addr:city": "LANSING", "addr:country": "US", "addr:postcode": "48906", "addr:state": "MI", "addr:street_address": "300 W GRAND RIVER AVE", "amenity": "post_box", "collection_times": "Mo-Sa 10:30", "nsi_id": "unitedstatespostalservice-a77078", "operator": "United States Postal Service", "operator:short": "USPS", "operator:type": "public", "operator:wikidata": "Q668687", "ref": "4890600037"}, "type": "Feature"}
{"geometry": {"coordinates": [-84.5425039, 42.784378], "type": "Point"}, "id": "tuBZ814l81YRciwIErqbzHOv9Zw=", "properties": {"@source_uri": "https://tools.usps.com/UspsToolsRestServices/rest/POLocator/findLocations", "@spider": "usps_collection_boxes", "addr:city": "LANSING", "addr:country": "US", "addr:postcode": "48906", "addr:state": "MI", "addr:street_address": "1019 E STATE RD", "amenity": "post_box", "collection_times": "Mo-Sa 11:00", "nsi_id": "unitedstatespostalservice-a77078", "operator": "United States Postal Service", "operator:short": "USPS", "operator:type": "public", "operator:wikidata": "Q668687", "ref": "4890600038"}, "type": "Feature"}
{"geometry": {"coordinates": [-84.5519644, 42.746287], "type": "Point"}, "id": "GlTlEwUaW9rrFup28scj68nKp7Q=", "properties": {"@source_uri": "https://tools.usps.com/UspsToolsRestServices/rest/POLocator/findLocations", "@spider": "usps_collection_boxes", "addr:city": "LANSING", "addr:country": "US", "addr:postcode": "48906", "addr:state": "MI", "addr:street_address": "1100 N WASHINGTON AVE", "amenity": "post_box", "collection_times": "Mo-Sa 12:30", "note": "ON 12/24 AND 12/31, THIS BOX MAY BE COLLECTED AS EARLY AS 12 NOON.", "nsi_id": "unitedstatespostalservice-a77078", "operator": "United States Postal Service", "operator:short": "USPS", "operator:type": "public", "operator:wikidata": "Q668687", "ref": "4890600039"}, "type": "Feature"}
{"geometry": {"coordinates": [-84.5232604, 42.69169], "type": "Point"}, "id": "KGXCQf7eYZ6YcicBmnfLS5EwYQs=", "properties": {"@source_uri": "https://tools.usps.com/UspsToolsRestServices/rest/POLocator/findLocations", "@spider": "usps_collection_boxes", "addr:city": "LANSING", "addr:country": "US", "addr:postcode": "48910", "addr:state": "MI", "addr:street_address": "4013 AURELIUS RD", "amenity": "post_box", "collection_times": "Mo-Sa 12:45", "note": "ON 12/24 AND 12/31, THIS BOX MAY BE COLLECTED AS EARLY AS 12 NOON.", "nsi_id": "unitedstatespostalservice-a77078", "operator": "United States Postal Service", "operator:short": "USPS", "operator:type": "public", "operator:wikidata": "Q668687", "ref": "4891000006"}, "type": "Feature"}
{"geometry": {"coordinates": [-84.5367354, 42.711818], "type": "Point"}, "id": "ZsieFLZ7vE4yq-AmaYudpRAAxXw=", "properties": {"@source_uri": "https://tools.usps.com/UspsToolsRestServices/rest/POLocator/findLocations", "@spider": "usps_collection_boxes", "addr:city": "LANSING", "addr:country": "US", "addr:postcode": "48910", "addr:state": "MI", "addr:street_address": "1018 E MOUNT HOPE AVE", "amenity": "post_box", "collection_times": "Mo-Sa 12:45", "note": "ON 12/24 AND 12/31, THIS BOX MAY BE COLLECTED AS EARLY AS 12 NOON.", "nsi_id": "unitedstatespostalservice-a77078", "operator": "United States Postal Service", "operator:short": "USPS", "operator:type": "public", "operator:wikidata": "Q668687", "ref": "4891000007"}, "type": "Feature"}
{"geometry": {"coordinates": [-84.5458966, 42.683474], "type": "Point"}, "id": "B47qJyCBqyR5Gif_9EToe2CDLn0=", "properties": {"@source_uri": "https://tools.usps.com/UspsToolsRestServices/rest/POLocator/findLocations", "@spider": "usps_collection_boxes", "addr:city": "LANSING", "addr:country": "US", "addr:postcode": "48910", "addr:state": "MI", "addr:street_address": "5015 S CEDAR ST", "amenity": "post_box", "collection_times": "Mo-Sa 12:30", "note": "ON 12/24 AND 12/31, THIS BOX MAY BE COLLECTED AS EARLY AS 12 NOON.", "nsi_id": "unitedstatespostalservice-a77078", "operator": "United States Postal Service", "operator:short": "USPS", "operator:type": "public", "operator:wikidata": "Q668687", "ref": "4891000014"}, "type": "Feature"}
{"geometry": {"coordinates": [-84.560979, 42.701396], "type": "Point"}, "id": "LhlwSwIgslVCewUrkT5t-yvCCcM=", "properties": {"@source_uri": "https://tools.usps.com/UspsToolsRestServices/rest/POLocator/findLocations", "@spider": "usps_collection_boxes", "addr:city": "LANSING", "addr:country": "US", "addr:postcode": "48910", "addr:state": "MI", "addr:street_address": "3031 S WASHINGTON AVE", "amenity": "post_box", "collection_times": "Mo-Sa 12:30", "note": "ON 12/24 AND 12/31, THIS BOX MAY BE COLLECTED AS EARLY AS 12 NOON.", "nsi_id": "unitedstatespostalservice-a77078", "operator": "United States Postal Service", "operator:short": "USPS", "operator:type": "public", "operator:wikidata": "Q668687", "ref": "4891000015"}, "type": "Feature"}
{"geometry": {"coordinates": [-84.548005, 42.709665], "type": "Point"}, "id": "86OMN7WQpQqbFFWvBnK_Fu4LN9I=", "properties": {"@source_uri": "https://tools.usps.com/UspsToolsRestServices/rest/POLocator/findLocations", "@spider": "usps_collection_boxes", "addr:city": "LANSING", "addr:country": "US", "addr:postcode": "48910", "addr:state": "MI", "addr:street_address": "3630 S CEDAR ST", "amenity": "post_box", "collection_times": "Mo-Sa 12:30", "note": "ON 12/24 AND 12/31, THIS BOX MAY BE COLLECTED AS EARLY AS 12 NOON.", "nsi_id": "unitedstatespostalservice-a77078", "operator": "United States Postal Service", "operator:short": "USPS", "operator:type": "public", "operator:wikidata": "Q668687", "ref": "4891000038"}, "type": "Feature"}
{"geometry": {"coordinates": [-84.5482737, 42.70504], "type": "Point"}, "id": "7YEMzxoi_qKKz3K5giQVhHpMVyk=", "properties": {"@source_uri": "https://tools.usps.com/UspsToolsRestServices/rest/POLocator/findLocations", "@spider": "usps_collection_boxes", "addr:city": "LANSING", "addr:country": "US", "addr:postcode": "48910", "addr:state": "MI", "addr:street_address": "2600 S CEDAR ST", "amenity": "post_box", "collection_times": "Mo-Sa 15:20", "note": "ON 12/24 AND 12/31, THIS BOX MAY BE COLLECTED AS EARLY AS 12 NOON.", "nsi_id": "unitedstatespostalservice-a77078", "operator": "United States Postal Service", "operator:short": "USPS", "operator:type": "public", "operator:wikidata": "Q668687", "ref": "4891000039"}, "type": "Feature"}
{"geometry": {"coordinates": [-84.5488299, 42.695618], "type": "Point"}, "id": "wqzKuQF4lXfTV5Rx4CEyoQ7-CUs=", "properties": {"@source_uri": "https://tools.usps.com/UspsToolsRestServices/rest/POLocator/findLocations", "@spider": "usps_collection_boxes", "addr:city": "LANSING", "addr:country": "US", "addr:postcode": "48910", "addr:state": "MI", "addr:street_address": "3500 S CEDAR ST", "amenity": "post_box", "collection_times": "Mo-Sa 15:00", "note": "ON 12/24 AND 12/31, THIS BOX MAY BE COLLECTED AS EARLY AS 12 NOON.", "nsi_id": "unitedstatespostalservice-a77078", "operator": "United States Postal Service", "operator:short": "USPS", "operator:type": "public", "operator:wikidata": "Q668687", "ref": "4891000040"}, "type": "Feature"}
{"geometry": {"coordinates": [-84.5672247, 42.714852], "type": "Point"}, "id": "PHoaYE2ZqJAYC9WVEj5F23YPLdA=", "properties": {"@source_uri": "https://tools.usps.com/UspsToolsRestServices/rest/POLocator/findLocations", "@spider": "usps_collection_boxes", "addr:city": "LANSING", "addr:country": "US", "addr:postcode": "48910", "addr:state": "MI", "addr:street_address": "1031 W BARNES AVE", "amenity": "post_box", "collection_times": "Mo-Sa 12:30", "note": "ON 12/24 AND 12/31, THIS BOX MAY BE COLLECTED AS EARLY AS 12 NOON.", "nsi_id": "unitedstatespostalservice-a77078", "operator": "United States Postal Service", "operator:short": "USPS", "operator:type": "public", "operator:wikidata": "Q668687", "ref": "4891000042"}, "type": "Feature"}
{"geometry": {"coordinates": [-84.5082394, 42.684551], "type": "Point"}, "id": "KbL-1NM6Pm38vTjbB5M7-lhNczM=", "properties": {"@source_uri": "https://tools.usps.com/UspsToolsRestServices/rest/POLocator/findLocations", "@spider": "usps_collection_boxes", "addr:city": "LANSING", "addr:country": "US", "addr:postcode": "48910", "addr:state": "MI", "addr:street_address": "3101 BEAUJARDIN DR", "amenity": "post_box", "collection_times": "Mo-Sa 13:00", "note": "ON 12/24 AND 12/31, THIS BOX MAY BE COLLECTED AS EARLY AS 12 NOON.", "nsi_id": "unitedstatespostalservice-a77078", "operator": "United States Postal Service", "operator:short": "USPS", "operator:type": "public", "operator:wikidata": "Q668687", "ref": "4891000043"}, "type": "Feature"}
{"geometry": {"coordinates": [-84.5475226, 42.699411], "type": "Point"}, "id": "Yt2qO12wYd7nh2y_RF24L-JZKz8=", "properties": {"@source_uri": "https://tools.usps.com/UspsToolsRestServices/rest/POLocator/findLocations", "@spider": "usps_collection_boxes", "addr:city": "LANSING", "addr:country": "US", "addr:postcode": "48910", "addr:state": "MI", "addr:street_address": "501 BROOKLAND BLVD", "amenity": "post_box", "collection_times": "Mo-Sa 13:00", "note": "ON 12/24 AND 12/31, THIS BOX MAY BE COLLECTED AS EARLY AS 12 NOON.", "nsi_id": "unitedstatespostalservice-a77078", "operator": "United States Postal Service", "operator:short": "USPS", "operator:type": "public", "operator:wikidata": "Q668687", "ref": "4891000044"}, "type": "Feature"}
{"geometry": {"coordinates": [-84.5454667, 42.6961142], "type": "Point"}, "id": "Kqkh_-eEqfkOACC-JO4AMRMqIMI=", "properties": {"@source_uri": "https://tools.usps.com/UspsToolsRestServices/rest/POLocator/findLocations", "@spider": "usps_collection_boxes", "addr:city": "LANSING", "addr:country": "US", "addr:postcode": "48910", "addr:state": "MI", "addr:street_address": "405 W GREENLAWN AVE", "amenity": "post_box", "collection_times": "Mo-Sa 15:20", "note": "ON 12/24 AND 12/31, THIS BOX MAY BE COLLECTED AS EARLY AS 12 NOON.", "nsi_id": "unitedstatespostalservice-a77078", "operator": "United States Postal Service", "operator:short": "USPS", "operator:type": "public", "operator:wikidata": "Q668687", "ref": "4891000050"}, "type": "Feature"}
{"geometry": {"coordinates": [-84.5467875, 42.714018], "type": "Point"}, "id": "t2dOct3PoOzzY5ObOS0xDNjjsz0=", "properties": {"@source_uri": "https://tools.usps.com/UspsToolsRestServices/rest/POLocator/findLocations", "@spider": "usps_collection_boxes", "addr:city": "LANSING", "addr:country": "US", "addr:postcode": "48910", "addr:state": "MI", "addr:street_address": "1701 S CEDAR ST", "amenity": "post_box", "collection_times": "Mo-Sa 13:00", "note": "ON 12/24 AND 12/31, THIS BOX MAY BE COLLECTED AS EARLY AS 12 NOON.", "nsi_id": "unitedstatespostalservice-a77078", "operator": "United States Postal Service", "operator:short": "USPS", "operator:type": "public", "operator:wikidata": "Q668687", "ref": "4891000053"}, "type": "Feature"}
{"geometry": {"coordinates": [-84.548005, 42.709665], "type": "Point"}, "id": "4kQxIeM-H1Dy9EzhgLhV0WeMAqQ=", "properties": {"@source_uri": "https://tools.usps.com/UspsToolsRestServices/rest/POLocator/findLocations", "@spider": "usps_collection_boxes", "addr:city": "LANSING", "addr:country": "US", "addr:postcode": "48910", "addr:state": "MI", "addr:street_address": "2118 MARION AVE", "amenity": "post_box", "collection_times": "Mo-Sa 12:30", "note": "ON 12/24 AND 12/31, THIS BOX MAY BE COLLECTED AS EARLY AS 12 NOON.", "nsi_id": "unitedstatespostalservice-a77078", "operator": "United States Postal Service", "operator:short": "USPS", "operator:type": "public", "operator:wikidata": "Q668687", "ref": "4891000055"}, "type": "Feature"}
{"geometry": {"coordinates": [-84.5823487, 42.711302], "type": "Point"}, "id": "TIGYtbh5tuxBi1k-Tgg2SEknkNs=", "properties": {"@source_uri": "https://tools.usps.com/UspsToolsRestServices/rest/POLocator/findLocations", "@spider": "usps_collection_boxes", "addr:city": "LANSING", "addr:country": "US", "addr:postcode": "48910", "addr:state": "MI", "addr:street_address": "1900 PLEASANT GROVE RD", "amenity": "post_box", "collection_times": "Mo-Sa 12:15", "note": "ON 12/24 AND 12/31, THIS BOX MAY BE COLLECTED AS EARLY AS 12 NOON.", "nsi_id": "unitedstatespostalservice-a77078", "operator": "United States Postal Service", "operator:short": "USPS", "operator:type": "public", "operator:wikidata": "Q668687", "ref": "4891000057"}, "type": "Feature"}
{"geometry": {"coordinates": [-84.5824742, 42.691281], "type": "Point"}, "id": "wfDcf3u2Ww15W_M8_Er7lB97mVA=", "properties": {"@source_uri": "https://tools.usps.com/UspsToolsRestServices/rest/POLocator/findLocations", "@spider": "usps_collection_boxes", "addr:city": "LANSING", "addr:country": "US", "addr:postcode": "48910", "addr:state": "MI", "addr:street_address": "4110 PLEASANT GROVE RD", "amenity": "post_box", "collection_times": "Mo-Fr 12:15; Sa 12:00", "note": "ON 12/24 AND 12/31, THIS BOX MAY BE COLLECTED AS EARLY AS 12 NOON.", "nsi_id": "unitedstatespostalservice-a77078", "operator": "United States Postal Service", "operator:short": "USPS", "operator:type": "public", "operator:wikidata": "Q668687", "ref": "4891000058"}, "type": "Feature"}
{"geometry": {"coordinates": [-84.5735005, 42.699019], "type": "Point"}, "id": "u691mkZobcQdzrEtWjV874c0fmc=", "properties": {"@source_uri": "https://tools.usps.com/UspsToolsRestServices/rest/POLocator/findLocations", "@spider": "usps_collection_boxes", "addr:city": "LANSING", "addr:country": "US", "addr:postcode": "48910", "addr:state": "MI", "addr:street_address": "3285 EXPRESS CT", "amenity": "post_box", "collection_times": "Mo-Sa 15:00", "note": "ON 12/24 AND 12/31, THIS BOX MAY BE COLLECTED AS EARLY AS 12 NOON.", "nsi_id": "unitedstatespostalservice-a77078", "operator": "United States Postal Service", "operator:short": "USPS", "operator:type": "public", "operator:wikidata": "Q668687", "ref": "4891000065"}, "type": "Feature"}
{"geometry": {"coordinates": [-84.5421009904, 42.7116440203], "type": "Point"}, "id": "EkKsVvP5WC4xt4h46Hx9WnIGIgI=", "properties": {"@source_uri": "https://tools.usps.com/UspsToolsRestServices/rest/POLocator/findLocations", "@spider": "usps_collection_boxes", "addr:city": "LANSING", "addr:country": "US", "addr:postcode": "48910", "addr:state": "MI", "addr:street_address": "716 E MOUNT HOPE AVE", "amenity": "post_box", "collection_times": "Mo-Sa 13:00", "note": "ON 12/24 AND 12/31, THIS BOX MAY BE COLLECTED AS EARLY AS 12 NOON.", "nsi_id": "unitedstatespostalservice-a77078", "operator": "United States Postal Service", "operator:short": "USPS", "operator:type": "public", "operator:wikidata": "Q668687", "ref": "4891000066"}, "type": "Feature"}
{"geometry": {"coordinates": [-84.5643696, 42.696401], "type": "Point"}, "id": "-28PBYSw0NVoFcs68sEFqV6c8Cg=", "properties": {"@source_uri": "https://tools.usps.com/UspsToolsRestServices/rest/POLocator/findLocations", "@spider": "usps_collection_boxes", "addr:city": "LANSING", "addr:country": "US", "addr:postcode": "48910", "addr:state": "MI", "addr:street_address": "913 W HOLMES RD", "amenity": "post_box", "collection_times": "Mo-Sa 15:00", "note": "ON 12/24 AND 12/31, THIS BOX MAY BE COLLECTED AS EARLY AS 12 NOON.", "nsi_id": "unitedstatespostalservice-a77078", "operator": "United States Postal Service", "operator:short": "USPS", "operator:type": "public", "operator:wikidata": "Q668687", "ref": "4891000070"}, "type": "Feature"}
{"geometry": {"coordinates": [-84.565819, 42.695315], "type": "Point"}, "id": "cbnE0FCqUaa1I7uIGOMfYMrqE44=", "properties": {"@source_uri": "https://tools.usps.com/UspsToolsRestServices/rest/POLocator/findLocations", "@spider": "usps_collection_boxes", "addr:city": "LANSING", "addr:country": "US", "addr:postcode": "48910", "addr:state": "MI", "addr:street_address": "921 W HOLMES RD", "amenity": "post_box", "collection_times": "Mo-Sa 15:00", "note": "ON 12/24 AND 12/31, THIS BOX MAY BE COLLECTED AS EARLY AS 12 NOON.", "nsi_id": "unitedstatespostalservice-a77078", "operator": "United States Postal Service", "operator:short": "USPS", "operator:type": "public", "operator:wikidata": "Q668687", "ref": "4891000072"}, "type": "Feature"}
{"geometry": {"coordinates": [-84.5747593, 42.711632], "type": "Point"}, "id": "Za9BvMUBy5Paz4cWBzzgDIbQq44=", "properties": {"@source_uri": "https://tools.usps.com/UspsToolsRestServices/rest/POLocator/findLocations", "@spider": "usps_collection_boxes", "addr:city": "LANSING", "addr:country": "US", "addr:postcode": "48910", "addr:state": "MI", "addr:street_address": "1623 W MOUNT HOPE AVE", "amenity": "post_box", "collection_times": "Mo-Sa 15:00", "note": "ON 12/24 AND 12/31, THIS BOX MAY BE COLLECTED AS EARLY AS 12 NOON.", "nsi_id": "unitedstatespostalservice-a77078", "operator": "United States Postal Service", "operator:short": "USPS", "operator:type": "public", "operator:wikidata": "Q668687", "ref": "4891000073"}, "type": "Feature"}
{"geometry": {"coordinates": [-84.5829909, 42.696838], "type": "Point"}, "id": "A6ITvHTYLKIkn35KuWwp_hWiZGY=", "properties": {"@source_uri": "https://tools.usps.com/UspsToolsRestServices/rest/POLocator/findLocations", "@spider": "usps_collection_boxes", "addr:city": "LANSING", "addr:country": "US", "addr:postcode": "48910", "addr:state": "MI", "addr:street_address": "3422 PLEASANT GROVE RD", "amenity": "post_box", "collection_times": "Mo-Fr 12:15; Sa 12:00", "note": "ON 12/24 AND 12/31, THIS BOX MAY BE COLLECTED AS EARLY AS 12 NOON.", "nsi_id": "unitedstatespostalservice-a77078", "operator": "United States Postal Service", "operator:short": "USPS", "operator:type": "public", "operator:wikidata": "Q668687", "ref": "4891000075"}, "type": "Feature"}
{"geometry": {"coordinates": [-84.5658115, 42.699959], "type": "Point"}, "id": "myez9ZxSMQ7BQDEk4tIQpX2FtMc=", "properties": {"@source_uri": "https://tools.usps.com/UspsToolsRestServices/rest/POLocator/findLocations", "@spider": "usps_collection_boxes", "addr:city": "LANSING", "addr:country": "US", "addr:postcode": "48910", "addr:state": "MI", "addr:street_address": "914 SOUTHLAND ST", "amenity": "post_box", "collection_times": "Mo-Sa 13:00", "note": "ON 12/24 AND 12/31, THIS BOX MAY BE COLLECTED AS EARLY AS 12 NOON.", "nsi_id": "unitedstatespostalservice-a77078", "operator": "United States Postal Service", "operator:short": "USPS", "operator:type": "public", "operator:wikidata": "Q668687", "ref": "4891000076"}, "type": "Feature"}
{"geometry": {"coordinates": [-84.5091214, 42.687414], "type": "Point"}, "id": "6U3x5_nqkAZT9kEnjTY9pKmo4TI=", "properties": {"@source_uri": "https://tools.usps.com/UspsToolsRestServices/rest/POLocator/findLocations", "@spider": "usps_collection_boxes", "addr:city": "LANSING", "addr:country": "US", "addr:postcode": "48910", "addr:state": "MI", "addr:street_address": "3000 TRAPPERS COVE TRL", "amenity": "post_box", "collection_times": "Mo-Sa 13:00", "note": "ON 12/24 AND 12/31, THIS BOX MAY BE COLLECTED AS EARLY AS 12 NOON.", "nsi_id": "unitedstatespostalservice-a77078", "operator": "United States Postal Service", "operator:short": "USPS", "operator:type": "public", "operator:wikidata": "Q668687", "ref": "4891000077"}, "type": "Feature"}
{"geometry": {"coordinates": [-84.5511599, 42.718377], "type": "Point"}, "id": "UTe1jgY8Ra4Y3MkvJgSy8q7cYhg=", "properties": {"@source_uri": "https://tools.usps.com/UspsToolsRestServices/rest/POLocator/findLocations", "@spider": "usps_collection_boxes", "addr:city": "LANSING", "addr:country": "US", "addr:postcode": "48910", "addr:state": "MI", "addr:street_address": "1375 S WASHINGTON AVE", "amenity": "post_box", "collection_times": "Mo-Sa 15:20", "note": "ON 12/24 AND 12/31, THIS BOX MAY BE COLLECTED AS EARLY AS 12 NOON.", "nsi_id": "unitedstatespostalservice-a77078", "operator": "United States Postal Service", "operator:short": "USPS", "operator:type": "public", "operator:wikidata": "Q668687", "ref": "4891000078"}, "type": "Feature"}
{"geometry": {"coordinates": [-84.5416755, 42.681915], "type": "Point"}, "id": "6kRTaAHLkuZ3CDnV12o_n3rTEQQ=", "properties": {"@source_uri": "https://tools.usps.com/UspsToolsRestServices/rest/POLocator/findLocations", "@spider": "usps_collection_boxes", "addr:city": "LANSING", "addr:country": "US", "addr:postcode": "48910", "addr:state": "MI", "addr:street_address": "812 E JOLLY RD", "amenity": "post_box", "collection_times": "Mo-Fr 15:00; Sa 14:30", "note": "ON 12/24 AND 12/31, THIS BOX MAY BE COLLECTED AS EARLY AS 12 NOON.", "nsi_id": "unitedstatespostalservice-a77078", "operator": "United States Postal Service", "operator:short": "USPS", "operator:type": "public", "operator:wikidata": "Q668687", "ref": "4891000082"}, "type": "Feature"}
{"geometry": {"coordinates": [-84.5070185, 42.702862], "type": "Point"}, "id": "XWTAsRCTWAI5PeGUkp4zikF7Izk=", "properties": {"@source_uri": "https://tools.usps.com/UspsToolsRestServices/rest/POLocator/findLocations", "@spider": "usps_collection_boxes", "addr:city": "LANSING", "addr:country": "US", "addr:postcode": "48910", "addr:state": "MI", "addr:street_address": "3120 STATEN AVE", "amenity": "post_box", "collection_times": "Mo-Sa 13:00", "note": "ON 12/24 AND 12/31, THIS BOX MAY BE COLLECTED AS EARLY AS 12 NOON.", "nsi_id": "unitedstatespostalservice-a77078", "operator": "United States Postal Service", "operator:short": "USPS", "operator:type": "public", "operator:wikidata": "Q668687", "ref": "4891000086"}, "type": "Feature"}
{"geometry": {"coordinates": [-84.5668099, 42.692012], "type": "Point"}, "id": "S36bKmy9kGFmHwrM_yTDyjUUHbg=", "properties": {"@source_uri": "https://tools.usps.com/UspsToolsRestServices/rest/POLocator/findLocations", "@spider": "usps_collection_boxes", "addr:city": "LANSING", "addr:country": "US", "addr:postcode": "48910", "addr:state": "MI", "addr:street_address": "4019 S MARTIN LUTHER KING JR BLVD", "amenity": "post_box", "collection_times": "Mo-Sa 13:00", "note": "ON 12/24 AND 12/31, THIS BOX MAY BE COLLECTED AS EARLY AS 12 NOON.", "nsi_id": "unitedstatespostalservice-a77078", "operator": "United States Postal Service", "operator:short": "USPS", "operator:type": "public", "operator:wikidata": "Q668687", "ref": "4891000088"}, "type": "Feature"}
{"geometry": {"coordinates": [-84.604892659, 42.6996343742], "type": "Point"}, "id": "hakPL2Ogyg44cVKIXfyGLQA1ruw=", "properties": {"@source_uri": "https://tools.usps.com/UspsToolsRestServices/rest/POLocator/findLocations", "@spider": "usps_collection_boxes", "addr:city": "LANSING", "addr:country": "US", "addr:postcode": "48911", "addr:state": "MI", "addr:street_address": "3915 HUNTERS RIDGE DR", "amenity": "post_box", "collection_times": "Mo-Sa 10:00", "nsi_id": "unitedstatespostalservice-a77078", "operator": "United States Postal Service", "operator:short": "USPS", "operator:type": "public", "operator:wikidata": "Q668687", "ref": "4891100003"}, "type": "Feature"}
{"geometry": {"coordinates": [-84.6043385, 42.694044], "type": "Point"}, "id": "K6DJVTRFZ0-3evPJd3yjioN9pP8=", "properties": {"@source_uri": "https://tools.usps.com/UspsToolsRestServices/rest/POLocator/findLocations", "@spider": "usps_collection_boxes", "addr:city": "LANSING", "addr:country": "US", "addr:postcode": "48911", "addr:state": "MI", "addr:street_address": "3927 SHEFFIELD BLVD", "amenity": "post_box", "collection_times": "Mo-Sa 10:00", "nsi_id": "unitedstatespostalservice-a77078", "operator": "United States Postal Service", "operator:short": "USPS", "operator:type": "public", "operator:wikidata": "Q668687", "ref": "4891100005"}, "type": "Feature"}
{"geometry": {"coordinates": [-84.5383772, 42.66896], "type": "Point"}, "id": "_oMDIhHXw6FNisObjv7Jm3mAwCs=", "properties": {"@source_uri": "https://tools.usps.com/UspsToolsRestServices/rest/POLocator/findLocations", "@spider": "usps_collection_boxes", "addr:city": "LANSING", "addr:country": "US", "addr:postcode": "48911", "addr:state": "MI", "addr:street_address": "6100 S PENNSYLVANIA AVE", "amenity": "post_box", "collection_times": "Mo-Sa 15:20", "note": "ON 12/24 AND 12/31, THIS BOX MAY BE COLLECTED AS EARLY AS 12 NOON.", "nsi_id": "unitedstatespostalservice-a77078", "operator": "United States Postal Service", "operator:short": "USPS", "operator:type": "public", "operator:wikidata": "Q668687", "ref": "4891100009"}, "type": "Feature"}
{"geometry": {"coordinates": [-84.5057835, 42.67332], "type": "Point"}, "id": "VpsoVTc2y2uZM7ZNnm_ncHLEU_M=", "properties": {"@source_uri": "https://tools.usps.com/UspsToolsRestServices/rest/POLocator/findLocations", "@spider": "usps_collection_boxes", "addr:city": "LANSING", "addr:country": "US", "addr:postcode": "48911", "addr:state": "MI", "addr:street_address": "3120 SOVEREIGN DR.", "amenity": "post_box", "collection_times": "Mo-Fr 16:00; Sa 15:20", "note": "ON 12/24 AND 12/31, THIS BOX MAY BE COLLECTED AS EARLY AS 12 NOON.", "nsi_id": "unitedstatespostalservice-a77078", "operator": "United States Postal Service", "operator:short": "USPS", "operator:type": "public", "operator:wikidata": "Q668687", "ref": "4891100011"}, "type": "Feature"}
{"geometry": {"coordinates": [-84.5360739, 42.656966], "type": "Point"}, "id": "3f_ysKwEMD-1DTqMUQW3cJH3Hkc=", "properties": {"@source_uri": "https://tools.usps.com/UspsToolsRestServices/rest/POLocator/findLocations", "@spider": "usps_collection_boxes", "addr:city": "LANSING", "addr:country": "US", "addr:postcode": "48911", "addr:state": "MI", "addr:street_address": "6920 S CEDAR ST", "amenity": "post_box", "collection_times": "Mo-Sa 15:20", "note": "ON 12/24 AND 12/31, THIS BOX MAY BE COLLECTED AS EARLY AS 12 NOON.", "nsi_id": "unitedstatespostalservice-a77078", "operator": "United States Postal Service", "operator:short": "USPS", "operator:type": "public", "operator:wikidata": "Q668687", "ref": "4891100012"}, "type": "Feature"}
{"geometry": {"coordinates": [-84.5434179, 42.677385], "type": "Point"}, "id": "MBM9GwP8PyOR74BIVuU1Jt0tdWc=", "properties": {"@source_uri": "https://tools.usps.com/UspsToolsRestServices/rest/POLocator/findLocations", "@spider": "usps_collection_boxes", "addr:city": "LANSING", "addr:country": "US", "addr:postcode": "48911", "addr:state": "MI", "addr:street_address": "5500 KAYNORTH RD", "amenity": "post_box", "collection_times": "Mo-Sa 13:00", "note": "ON 12/24 AND 12/31, THIS BOX MAY BE COLLECTED AS EARLY AS 12 NOON.", "nsi_id": "unitedstatespostalservice-a77078", "operator": "United States Postal Service", "operator:short": "USPS", "operator:type": "public", "operator:wikidata": "Q668687", "ref": "4891100016"}, "type": "Feature"}
{"geometry": {"coordinates": [-84.5399833, 42.675001], "type": "Point"}, "id": "MUYGnNthga2ElBsDrdGxs71js5o=", "properties": {"@source_uri": "https://tools.usps.com/UspsToolsRestServices/rest/POLocator/findLocations", "@spider": "usps_collection_boxes", "addr:city": "LANSING", "addr:country": "US", "addr:postcode": "48911", "addr:state": "MI", "addr:street_address": "5700 RICHWOOD ST", "amenity": "post_box", "collection_times": "Mo-Sa 13:00", "note": "ON 12/24 AND 12/31, THIS BOX MAY BE COLLECTED AS EARLY AS 12 NOON.", "nsi_id": "unitedstatespostalservice-a77078", "operator": "United States Postal Service", "operator:short": "USPS", "operator:type": "public", "operator:wikidata": "Q668687", "ref": "4891100017"}, "type": "Feature"}
{"geometry": {"coordinates": [-84.5353756, 42.663905], "type": "Point"}, "id": "eB1xkAdEsvU9D0Mp-iOMMEEDAQU=", "properties": {"@source_uri": "https://tools.usps.com/UspsToolsRestServices/rest/POLocator/findLocations", "@spider": "usps_collection_boxes", "addr:city": "LANSING", "addr:country": "US", "addr:postcode": "48911", "addr:state": "MI", "addr:street_address": "6545 MERCANTILE WAY", "amenity": "post_box", "collection_times": "Mo-Sa 12:00", "nsi_id": "unitedstatespostalservice-a77078", "operator": "United States Postal Service", "operator:short": "USPS", "operator:type": "public", "operator:wikidata": "Q668687", "ref": "4891100020"}, "type": "Feature"}
{"geometry": {"coordinates": [-84.5707993, 42.671471], "type": "Point"}, "id": "GEmuSqZoR4DBJZdaoG7myXKmTh0=", "properties": {"@source_uri": "https://tools.usps.com/UspsToolsRestServices/rest/POLocator/findLocations", "@spider": "usps_collection_boxes", "addr:city": "LANSING", "addr:country": "US", "addr:postcode": "48911", "addr:state": "MI", "addr:street_address": "5937 HAVERHILL DR", "amenity": "post_box", "collection_times": "Mo-Fr 10:45; Sa 10:00", "nsi_id": "unitedstatespostalservice-a77078", "operator": "United States Postal Service", "operator:short": "USPS", "operator:type": "public", "operator:wikidata": "Q668687", "ref": "4891100024"}, "type": "Feature"}
{"geometry": {"coordinates": [-84.5441011, 42.66321], "type": "Point"}, "id": "F6zdEaXOyG5WIg7zRtvMYpC0y8E=", "properties": {"@source_uri": "https://tools.usps.com/UspsToolsRestServices/rest/POLocator/findLocations", "@spider": "usps_collection_boxes", "addr:city": "LANSING", "addr:country": "US", "addr:postcode": "48911", "addr:state": "MI", "addr:street_address": "500 E EDGEWOOD BLVD", "amenity": "post_box", "collection_times": "Mo-Sa 11:45", "nsi_id": "unitedstatespostalservice-a77078", "operator": "United States Postal Service", "operator:short": "USPS", "operator:type": "public", "operator:wikidata": "Q668687", "ref": "4891100025"}, "type": "Feature"}
{"geometry": {"coordinates": [-84.6086691, 42.682473], "type": "Point"}, "id": "jffnD-BednLzB4fRQ_g0bZqaETk=", "properties": {"@source_uri": "https://tools.usps.com/UspsToolsRestServices/rest/POLocator/findLocations", "@spider": "usps_collection_boxes", "addr:city": "LANSING", "addr:country": "US", "addr:postcode": "48911", "addr:state": "MI", "addr:street_address": "4245 W JOLLY RD", "amenity": "post_box", "collection_times": "Mo-Sa 10:00", "nsi_id": "unitedstatespostalservice-a77078", "operator": "United States Postal Service", "operator:short": "USPS", "operator:type": "public", "operator:wikidata": "Q668687", "ref": "4891100030"}, "type": "Feature"}
{"geometry": {"coordinates": [-84.5727199, 42.668824], "type": "Point"}, "id": "ZnCa3AbE7EHkl6dQUeaQz_jDRgs=", "properties": {"@source_uri": "https://tools.usps.com/UspsToolsRestServices/rest/POLocator/findLocations", "@spider": "usps_collection_boxes", "addr:city": "LANSING", "addr:country": "US", "addr:postcode": "48911", "addr:state": "MI", "addr:street_address": "6100 HAAG RD", "amenity": "post_box", "collection_times": "Mo-Sa 11:00", "nsi_id": "unitedstatespostalservice-a77078", "operator": "United States Postal Service", "operator:short": "USPS", "operator:type": "public", "operator:wikidata": "Q668687", "ref": "4891100032"}, "type": "Feature"}
{"geometry": {"coordinates": [-84.5394681, 42.658725], "type": "Point"}, "id": "Oppswo1mtHwEnB5QWVbE-IQlJ10=", "properties": {"@source_uri": "https://tools.usps.com/UspsToolsRestServices/rest/POLocator/findLocations", "@spider": "usps_collection_boxes", "addr:city": "LANSING", "addr:country": "US", "addr:postcode": "48911", "addr:state": "MI", "addr:street_address": "941 LONG BLVD", "amenity": "post_box", "collection_times": "Mo-Sa 12:00", "nsi_id": "unitedstatespostalservice-a77078", "operator": "United States Postal Service", "operator:short": "USPS", "operator:type": "public", "operator:wikidata": "Q668687", "ref": "4891100037"}, "type": "Feature"}
{"geometry": {"coordinates": [-84.5488271, 42.68189], "type": "Point"}, "id": "DFKlqQT4o98RajH83N_PjevJeSc=", "properties": {"@source_uri": "https://tools.usps.com/UspsToolsRestServices/rest/POLocator/findLocations", "@spider": "usps_collection_boxes", "addr:city": "LANSING", "addr:country": "US", "addr:postcode": "48911", "addr:state": "MI", "addr:street_address": "5132 S CEDAR ST", "amenity": "post_box", "collection_times": "Mo-Sa 11:30", "nsi_id": "unitedstatespostalservice-a77078", "operator": "United States Postal Service", "operator:short": "USPS", "operator:type": "public", "operator:wikidata": "Q668687", "ref": "4891100042"}, "type": "Feature"}
{"geometry": {"coordinates": [-84.592867, 42.657335], "type": "Point"}, "id": "q4WwG6XvyVYkXqcOBBqEJFV5MBQ=", "properties": {"@source_uri": "https://tools.usps.com/UspsToolsRestServices/rest/POLocator/findLocations", "@spider": "usps_collection_boxes", "addr:city": "LANSING", "addr:country": "US", "addr:postcode": "48911", "addr:state": "MI", "addr:street_address": "2700 EATON RAPIDS RD", "amenity": "post_box", "collection_times": "Mo-Sa 11:00", "nsi_id": "unitedstatespostalservice-a77078", "operator": "United States Postal Service", "operator:short": "USPS", "operator:type": "public", "operator:wikidata": "Q668687", "ref": "4891100044"}, "type": "Feature"}
{"geometry": {"coordinates": [-84.5037474, 42.678405], "type": "Point"}, "id": "w9Cl7laZanrdBygBHOJZiT8yvFw=", "properties": {"@source_uri": "https://tools.usps.com/UspsToolsRestServices/rest/POLocator/findLocations", "@spider": "usps_collection_boxes", "addr:city": "LANSING", "addr:country": "US", "addr:postcode": "48911", "addr:state": "MI", "addr:street_address": "3325 PINETREE RD", "amenity": "post_box", "collection_times": "Mo-Sa 11:30", "nsi_id": "unitedstatespostalservice-a77078", "operator": "United States Postal Service", "operator:short": "USPS", "operator:type": "public", "operator:wikidata": "Q668687", "ref": "4891100045"}, "type": "Feature"}
{"geometry": {"coordinates": [-84.6031604848, 42.6889022845], "type": "Point"}, "id": "wxBhSq4zhe9dMfoHkAFDrJG4yDQ=", "properties": {"@source_uri": "https://tools.usps.com/UspsToolsRestServices/rest/POLocator/findLocations", "@spider": "usps_collection_boxes", "addr:city": "LANSING", "addr:country": "US", "addr:postcode": "48911", "addr:state": "MI", "addr:street_address": "3900 GLENBURNE BLVD", "amenity": "post_box", "collection_times": "Mo-Sa 10:00", "nsi_id": "unitedstatespostalservice-a77078", "operator": "United States Postal Service", "operator:short": "USPS", "operator:type": "public", "operator:wikidata": "Q668687", "ref": "4891100046"}, "type": "Feature"}
{"geometry": {"coordinates": [-84.6069187, 42.680485], "type": "Point"}, "id": "GdRqaPRyQ4_Jr3gknUHQH6zQJsI=", "properties": {"@source_uri": "https://tools.usps.com/UspsToolsRestServices/rest/POLocator/findLocations", "@spider": "usps_collection_boxes", "addr:city": "LANSING", "addr:country": "US", "addr:postcode": "48911", "addr:state": "MI", "addr:street_address": "4030 HARTFORD RD", "amenity": "post_box", "collection_times": "Mo-Sa 10:00", "nsi_id": "unitedstatespostalservice-a77078", "operator": "United States Postal Service", "operator:short": "USPS", "operator:type": "public", "operator:wikidata": "Q668687", "ref": "4891100049"}, "type": "Feature"}
{"geometry": {"coordinates": [-84.6025026, 42.68298], "type": "Point"}, "id": "1CezJqMS0X_UhXLM1ylEb-zcvDw=", "properties": {"@source_uri": "https://tools.usps.com/UspsToolsRestServices/rest/POLocator/findLocations", "@spider": "usps_collection_boxes", "addr:city": "LANSING", "addr:country": "US", "addr:postcode": "48911", "addr:state": "MI", "addr:street_address": "3825 W JOLLY RD", "amenity": "post_box", "collection_times": "Mo-Sa 10:00", "nsi_id": "unitedstatespostalservice-a77078", "operator": "United States Postal Service", "operator:short": "USPS", "operator:type": "public", "operator:wikidata": "Q668687", "ref": "4891100050"}, "type": "Feature"}
{"geometry": {"coordinates": [-84.5681876, 42.683637], "type": "Point"}, "id": "XD29TydvyiR5pG7Z0e8ZOKcij2s=", "properties": {"@source_uri": "https://tools.usps.com/UspsToolsRestServices/rest/POLocator/findLocations", "@spider": "usps_collection_boxes", "addr:city": "LANSING", "addr:country": "US", "addr:postcode": "48911", "addr:state": "MI", "addr:street_address": "5016 S MARTIN LUTHER KING JR BLVD", "amenity": "post_box", "collection_times": "Mo-Sa 10:00", "nsi_id": "unitedstatespostalservice-a77078", "operator": "United States Postal Service", "operator:short": "USPS", "operator:type": "public", "operator:wikidata": "Q668687", "ref": "4891100054"}, "type": "Feature"}
{"geometry": {"coordinates": [-84.5376888, 42.658855], "type": "Point"}, "id": "V3FhBVRUi-M5jAdySs0X0KEHiuI=", "properties": {"@source_uri": "https://tools.usps.com/UspsToolsRestServices/rest/POLocator/findLocations", "@spider": "usps_collection_boxes", "addr:city": "LANSING", "addr:country": "US", "addr:postcode": "48911", "addr:state": "MI", "addr:street_address": "6810 S CEDAR ST", "amenity": "post_box", "collection_times": "Mo-Sa 12:00", "nsi_id": "unitedstatespostalservice-a77078", "operator": "United States Postal Service", "operator:short": "USPS", "operator:type": "public", "operator:wikidata": "Q668687", "ref": "4891100064"}, "type": "Feature"}
{"geometry": {"coordinates": [-84.5438744, 42.666441], "type": "Point"}, "id": "TPrFHixF_iRgTMYqG2kIStyBtvo=", "properties": {"@source_uri": "https://tools.usps.com/UspsToolsRestServices/rest/POLocator/findLocations", "@spider": "usps_collection_boxes", "addr:city": "LANSING", "addr:country": "US", "addr:postcode": "48911", "addr:state": "MI", "addr:street_address": "6250 S CEDAR ST", "amenity": "post_box", "collection_times": "Mo-Sa 11:45", "nsi_id": "unitedstatespostalservice-a77078", "operator": "United States Postal Service", "operator:short": "USPS", "operator:type": "public", "operator:wikidata": "Q668687", "ref": "4891100070"}, "type": "Feature"}
{"geometry": {"coordinates": [-84.5919461, 42.66149], "type": "Point"}, "id": "ngKYANNwjU0kIE0qrsoR644-SWM=", "properties": {"@source_uri": "https://tools.usps.com/UspsToolsRestServices/rest/POLocator/findLocations", "@spider": "usps_collection_boxes", "addr:city": "LANSING", "addr:country": "US", "addr:postcode": "48911", "addr:state": "MI", "addr:street_address": "6237 BISHOP RD", "amenity": "post_box", "collection_times": "Mo-Sa 11:00", "nsi_id": "unitedstatespostalservice-a77078", "operator": "United States Postal Service", "operator:short": "USPS", "operator:type": "public", "operator:wikidata": "Q668687", "ref": "4891100073"}, "type": "Feature"}
{"geometry": {"coordinates": [-84.5357278, 42.669985], "type": "Point"}, "id": "FltnXg4hp6q-wkM_AwWDph4X8ac=", "properties": {"@source_uri": "https://tools.usps.com/UspsToolsRestServices/rest/POLocator/findLocations", "@spider": "usps_collection_boxes", "addr:city": "LANSING", "addr:country": "US", "addr:postcode": "48911", "addr:state": "MI", "addr:street_address": "6035 EXECUTIVE DR", "amenity": "post_box", "collection_times": "Mo-Sa 11:30", "nsi_id": "unitedstatespostalservice-a77078", "operator": "United States Postal Service", "operator:short": "USPS", "operator:type": "public", "operator:wikidata": "Q668687", "ref": "4891100074"}, "type": "Feature"}
{"geometry": {"coordinates": [-84.5739693, 42.675437], "type": "Point"}, "id": "Ktzwkf8z82Am8Y8oYbeZO-o3l08=", "properties": {"@source_uri": "https://tools.usps.com/UspsToolsRestServices/rest/POLocator/findLocations", "@spider": "usps_collection_boxes", "addr:city": "LANSING", "addr:country": "US", "addr:postcode": "48911", "addr:state": "MI", "addr:street_address": "5639 S MARTIN LUTHER KING JR BLVD", "amenity": "post_box", "collection_times": "Mo-Fr 10:30; Sa 10:00", "nsi_id": "unitedstatespostalservice-a77078", "operator": "United States Postal Service", "operator:short": "USPS", "operator:type": "public", "operator:wikidata": "Q668687", "ref": "4891100075"}, "type": "Feature"}
{"geometry": {"coordinates": [-84.6032811, 42.695453], "type": "Point"}, "id": "jeRVzE7TVvS22kGuxloChudRLDc=", "properties": {"@source_uri": "https://tools.usps.com/UspsToolsRestServices/rest/POLocator/findLocations", "@spider": "usps_collection_boxes", "addr:city": "LANSING", "addr:country": "US", "addr:postcode": "48911", "addr:state": "MI", "addr:street_address": "3530 S WAVERLY RD", "amenity": "post_box", "collection_times": "Mo-Sa 10:00", "nsi_id": "unitedstatespostalservice-a77078", "operator": "United States Postal Service", "operator:short": "USPS", "operator:type": "public", "operator:wikidata": "Q668687", "ref": "4891100076"}, "type": "Feature"}
{"geometry": {"coordinates": [-84.6022906, 42.672353], "type": "Point"}, "id": "umoepf7VaNzdm2AMZ7oMSYwWkUA=", "properties": {"@source_uri": "https://tools.usps.com/UspsToolsRestServices/rest/POLocator/findLocations", "@spider": "usps_collection_boxes", "addr:city": "LANSING", "addr:country": "US", "addr:postcode": "48911", "addr:state": "MI", "addr:street_address": "3808 COACHLIGHT COMMON ST", "amenity": "post_box", "collection_times": "Mo-Sa 10:00", "nsi_id": "unitedstatespostalservice-a77078", "operator": "United States Postal Service", "operator:short": "USPS", "operator:type": "public", "operator:wikidata": "Q668687", "ref": "4891100077"}, "type": "Feature"}
{"geometry": {"coordinates": [-84.5056374, 42.738601], "type": "Point"}, "id": "B0a2VPWt6Ob72D2kdQGGwyHYkMA=", "properties": {"@source_uri": "https://tools.usps.com/UspsToolsRestServices/rest/POLocator/findLocations", "@spider": "usps_collection_boxes", "addr:city": "LANSING", "addr:country": "US", "addr:postcode": "48912", "addr:state": "MI", "addr:street_address": "446 FRANDOR AVE", "amenity": "post_box", "collection_times": "Mo-Sa 09:30", "nsi_id": "unitedstatespostalservice-a77078", "operator": "United States Postal Service", "operator:short": "USPS", "operator:type": "public", "operator:wikidata": "Q668687", "ref": "4891200000"}, "type": "Feature"}
{"geometry": {"coordinates": [-84.5210473, 42.744105], "type": "Point"}, "id": "REy4rf4TBo7LhfHgdpJ_AXaxqJA=", "properties": {"@source_uri": "https://tools.usps.com/UspsToolsRestServices/rest/POLocator/findLocations", "@spider": "usps_collection_boxes", "addr:city": "LANSING", "addr:country": "US", "addr:postcode": "48912", "addr:state": "MI", "addr:street_address": "2100 SHOPPERS ALY", "amenity": "post_box", "collection_times": "Mo-Sa 09:30", "nsi_id": "unitedstatespostalservice-a77078", "operator": "United States Postal Service", "operator:short": "USPS", "operator:type": "public", "operator:wikidata": "Q668687", "ref": "4891200001"}, "type": "Feature"}
{"geometry": {"coordinates": [-84.5080374, 42.734363], "type": "Point"}, "id": "fmVEcve98xgW9Ar-3zewXNQzXLc=", "properties": {"@source_uri": "https://tools.usps.com/UspsToolsRestServices/rest/POLocator/findLocations", "@spider": "usps_collection_boxes", "addr:city": "LANSING", "addr:country": "US", "addr:postcode": "48912", "addr:state": "MI", "addr:street_address": "3131 E MICHIGAN AVE", "amenity": "post_box", "collection_times": "Mo-Sa 14:30", "note": "ON 12/24 AND 12/31, THIS BOX MAY BE COLLECTED AS EARLY AS 12 NOON.", "nsi_id": "unitedstatespostalservice-a77078", "operator": "United States Postal Service", "operator:short": "USPS", "operator:type": "public", "operator:wikidata": "Q668687", "ref": "4891200005"}, "type": "Feature"}
{"geometry": {"coordinates": [-84.5064043, 42.736223], "type": "Point"}, "id": "_SWTw1LsmI3nl4mnq_w_tl6QGic=", "properties": {"@source_uri": "https://tools.usps.com/UspsToolsRestServices/rest/POLocator/findLocations", "@spider": "usps_collection_boxes", "addr:city": "LANSING", "addr:country": "US", "addr:postcode": "48912", "addr:state": "MI", "addr:street_address": "300 FRANDOR AVE", "amenity": "post_box", "collection_times": "Mo-Sa 09:30", "nsi_id": "unitedstatespostalservice-a77078", "operator": "United States Postal Service", "operator:short": "USPS", "operator:type": "public", "operator:wikidata": "Q668687", "ref": "4891200007"}, "type": "Feature"}
{"geometry": {"coordinates": [-84.51107, 42.73722], "type": "Point"}, "id": "nocCRwKx0FBnqIwVHXB1kv956D4=", "properties": {"@source_uri": "https://tools.usps.com/UspsToolsRestServices/rest/POLocator/findLocations", "@spider": "usps_collection_boxes", "addr:city": "LANSING", "addr:country": "US", "addr:postcode": "48912", "addr:state": "MI", "addr:street_address": "730 MERRILL ST", "amenity": "post_box", "collection_times": "Mo-Sa 16:00", "note": "ON 12/24 AND 12/31, THIS BOX MAY BE COLLECTED AS EARLY AS 12 NOON.", "nsi_id": "unitedstatespostalservice-a77078", "operator": "United States Postal Service", "operator:short": "USPS", "operator:type": "public", "operator:wikidata": "Q668687", "ref": "4891200009"}, "type": "Feature"}
{"geometry": {"coordinates": [-84.5316871, 42.732945], "type": "Point"}, "id": "Wmj2QmaFBYOOa92X-Xp3r0HiXco=", "properties": {"@source_uri": "https://tools.usps.com/UspsToolsRestServices/rest/POLocator/findLocations", "@spider": "usps_collection_boxes", "addr:city": "LANSING", "addr:country": "US", "addr:postcode": "48912", "addr:state": "MI", "addr:street_address": "1322 E MICHIGAN AVE", "amenity": "post_box", "collection_times": "Mo-Fr 13:00; Sa 12:45", "note": "ON 12/24 AND 12/31, THIS BOX MAY BE COLLECTED AS EARLY AS 12 NOON.", "nsi_id": "unitedstatespostalservice-a77078", "operator": "United States Postal Service", "operator:short": "USPS", "operator:type": "public", "operator:wikidata": "Q668687", "ref": "4891200021"}, "type": "Feature"}
{"geometry": {"coordinates": [-84.52116, 42.738756], "type": "Point"}, "id": "W7SQ2pE3jaeVR5BsTpM-5ojVb0Y=", "properties": {"@source_uri": "https://tools.usps.com/UspsToolsRestServices/rest/POLocator/findLocations", "@spider": "usps_collection_boxes", "addr:city": "LANSING", "addr:country": "US", "addr:postcode": "48912", "addr:state": "MI", "addr:street_address": "2617 E MICHIGAN AVE", "amenity": "post_box", "collection_times": "Mo-Sa 14:00", "note": "ON 12/24 AND 12/31, THIS BOX MAY BE COLLECTED AS EARLY AS 12 NOON.", "nsi_id": "unitedstatespostalservice-a77078", "operator": "United States Postal Service", "operator:short": "USPS", "operator:type": "public", "operator:wikidata": "Q668687", "ref": "4891200023"}, "type": "Feature"}
{"geometry": {"coordinates": [-84.5124059, 42.759568], "type": "Point"}, "id": "HromexxXIrH_SVhQLlkAaOMXTHc=", "properties": {"@source_uri": "https://tools.usps.com/UspsToolsRestServices/rest/POLocator/findLocations", "@spider": "usps_collection_boxes", "addr:city": "LANSING", "addr:country": "US", "addr:postcode": "48912", "addr:state": "MI", "addr:street_address": "2500 KERRY ST", "amenity": "post_box", "collection_times": "Mo-Sa 12:00", "nsi_id": "unitedstatespostalservice-a77078", "operator": "United States Postal Service", "operator:short": "USPS", "operator:type": "public", "operator:wikidata": "Q668687", "ref": "4891200027"}, "type": "Feature"}
{"geometry": {"coordinates": [-84.5187957, 42.748522], "type": "Point"}, "id": "4MjGvyQ4zleCHsBfbTVbZK6BtgU=", "properties": {"@source_uri": "https://tools.usps.com/UspsToolsRestServices/rest/POLocator/findLocations", "@spider": "usps_collection_boxes", "addr:city": "LANSING", "addr:country": "US", "addr:postcode": "48912", "addr:state": "MI", "addr:street_address": "2305 HOPKINS AVE", "amenity": "post_box", "collection_times": "Mo-Sa 10:30", "nsi_id": "unitedstatespostalservice-a77078", "operator": "United States Postal Service", "operator:short": "USPS", "operator:type": "public", "operator:wikidata": "Q668687", "ref": "4891200032"}, "type": "Feature"}
{"geometry": {"coordinates": [-84.532709102, 42.72558552], "type": "Point"}, "id": "UQUjqhEuSTlgZllSV3Bztdj-cBk=", "properties": {"@source_uri": "https://tools.usps.com/UspsToolsRestServices/rest/POLocator/findLocations", "@spider": "usps_collection_boxes", "addr:city": "LANSING", "addr:country": "US", "addr:postcode": "48912", "addr:state": "MI", "addr:street_address": "1300 E MALCOLM X ST", "amenity": "post_box", "collection_times": "Mo-Sa 09:30", "nsi_id": "unitedstatespostalservice-a77078", "operator": "United States Postal Service", "operator:short": "USPS", "operator:type": "public", "operator:wikidata": "Q668687", "ref": "4891200033"}, "type": "Feature"}
{"geometry": {"coordinates": [-84.52116, 42.738756], "type": "Point"}, "id": "t9sBBvFJIrFfdkFrMOoQAGdOkHc=", "properties": {"@source_uri": "https://tools.usps.com/UspsToolsRestServices/rest/POLocator/findLocations", "@spider": "usps_collection_boxes", "addr:city": "LANSING", "addr:country": "US", "addr:postcode": "48912", "addr:state": "MI", "addr:street_address": "2320 E MICHIGAN AVE", "amenity": "post_box", "collection_times": "Mo-Sa 13:00", "note": "ON 12/24 AND 12/31, THIS BOX MAY BE COLLECTED AS EARLY AS 12 NOON.", "nsi_id": "unitedstatespostalservice-a77078", "operator": "United States Postal Service", "operator:short": "USPS", "operator:type": "public", "operator:wikidata": "Q668687", "ref": "4891200035"}, "type": "Feature"}
{"geometry": {"coordinates": [-84.5014621, 42.736145], "type": "Point"}, "id": "7eSsZ22cgzpTAqvozSCGOsnKLuA=", "properties": {"@source_uri": "https://tools.usps.com/UspsToolsRestServices/rest/POLocator/findLocations", "@spider": "usps_collection_boxes", "addr:city": "LANSING", "addr:country": "US", "addr:postcode": "48912", "addr:state": "MI", "addr:street_address": "200 FRIENDSHIP CIR", "amenity": "post_box", "collection_times": "Mo-Sa 13:00", "note": "ON 12/24 AND 12/31, THIS BOX MAY BE COLLECTED AS EARLY AS 12 NOON.", "nsi_id": "unitedstatespostalservice-a77078", "operator": "United States Postal Service", "operator:short": "USPS", "operator:type": "public", "operator:wikidata": "Q668687", "ref": "4891200036"}, "type": "Feature"}
{"geometry": {"coordinates": [-84.5168109, 42.759995], "type": "Point"}, "id": "JDQqP_mFYIbcL39fQQnshnVSUI8=", "properties": {"@source_uri": "https://tools.usps.com/UspsToolsRestServices/rest/POLocator/findLocations", "@spider": "usps_collection_boxes", "addr:city": "LANSING", "addr:country": "US", "addr:postcode": "48912", "addr:state": "MI", "addr:street_address": "2400 LAKE LANSING RD", "amenity": "post_box", "collection_times": "Mo-Sa 10:30", "nsi_id": "unitedstatespostalservice-a77078", "operator": "United States Postal Service", "operator:short": "USPS", "operator:type": "public", "operator:wikidata": "Q668687", "ref": "4891200047"}, "type": "Feature"}
{"geometry": {"coordinates": [-84.51107, 42.73722], "type": "Point"}, "id": "nhcV4N9sja701VH_0-3Dl0GspSs=", "properties": {"@source_uri": "https://tools.usps.com/UspsToolsRestServices/rest/POLocator/findLocations", "@spider": "usps_collection_boxes", "addr:city": "LANSING", "addr:country": "US", "addr:postcode": "48912", "addr:state": "MI", "addr:street_address": "119 PERE MARQUETTE DR", "amenity": "post_box", "collection_times": "Mo-Sa 10:30", "nsi_id": "unitedstatespostalservice-a77078", "operator": "United States Postal Service", "operator:short": "USPS", "operator:type": "public", "operator:wikidata": "Q668687", "ref": "4891200048"}, "type": "Feature"}
{"geometry": {"coordinates": [-84.5232905, 42.760385], "type": "Point"}, "id": "9ETsefJg0UkOgg-jHoEXr5nozGQ=", "properties": {"@source_uri": "https://tools.usps.com/UspsToolsRestServices/rest/POLocator/findLocations", "@spider": "usps_collection_boxes", "addr:city": "LANSING", "addr:country": "US", "addr:postcode": "48912", "addr:state": "MI", "addr:street_address": "1910 LAKE LANSING RD", "amenity": "post_box", "collection_times": "Mo-Sa 13:00", "note": "ON 12/24 AND 12/31, THIS BOX MAY BE COLLECTED AS EARLY AS 12 NOON.", "nsi_id": "unitedstatespostalservice-a77078", "operator": "United States Postal Service", "operator:short": "USPS", "operator:type": "public", "operator:wikidata": "Q668687", "ref": "4891200051"}, "type": "Feature"}
{"geometry": {"coordinates": [-84.5345447, 42.733387], "type": "Point"}, "id": "dt7S2SS7W_EK6aod2SfHHA5JpB0=", "properties": {"@source_uri": "https://tools.usps.com/UspsToolsRestServices/rest/POLocator/findLocations", "@spider": "usps_collection_boxes", "addr:city": "LANSING", "addr:country": "US", "addr:postcode": "48912", "addr:state": "MI", "addr:street_address": "1200 E MICHIGAN AVE", "amenity": "post_box", "collection_times": "Mo-Fr 13:00; Sa 12:45", "note": "ON 12/24 AND 12/31, THIS BOX MAY BE COLLECTED AS EARLY AS 12 NOON.", "nsi_id": "unitedstatespostalservice-a77078", "operator": "United States Postal Service", "operator:short": "USPS", "operator:type": "public", "operator:wikidata": "Q668687", "ref": "4891200053"}, "type": "Feature"}
{"geometry": {"coordinates": [-84.5156873, 42.760169], "type": "Point"}, "id": "JEn_oV-N_NhvjLcnPIdayFHE1oU=", "properties": {"@source_uri": "https://tools.usps.com/UspsToolsRestServices/rest/POLocator/findLocations", "@spider": "usps_collection_boxes", "addr:city": "LANSING", "addr:country": "US", "addr:postcode": "48912", "addr:state": "MI", "addr:street_address": "2510 LAKE LANSING RD", "amenity": "post_box", "collection_times": "Mo-Sa 12:00", "nsi_id": "unitedstatespostalservice-a77078", "operator": "United States Postal Service", "operator:short": "USPS", "operator:type": "public", "operator:wikidata": "Q668687", "ref": "4891200055"}, "type": "Feature"}
{"geometry": {"coordinates": [-84.5373661, 42.721736], "type": "Point"}, "id": "vP1nWZ03ukmNkP3em7lDNob-VLM=", "properties": {"@source_uri": "https://tools.usps.com/UspsToolsRestServices/rest/POLocator/findLocations", "@spider": "usps_collection_boxes", "addr:city": "LANSING", "addr:country": "US", "addr:postcode": "48912", "addr:state": "MI", "addr:street_address": "1115 S PENNSYLVANIA AVE", "amenity": "post_box", "collection_times": "Mo-Sa 16:00", "note": "ON 12/24 AND 12/31, THIS BOX MAY BE COLLECTED AS EARLY AS 12 NOON.", "nsi_id": "unitedstatespostalservice-a77078", "operator": "United States Postal Service", "operator:short": "USPS", "operator:type": "public", "operator:wikidata": "Q668687", "ref": "4891200058"}, "type": "Feature"}
{"geometry": {"coordinates": [-84.5279423, 42.760452], "type": "Point"}, "id": "dKIcRubk0hJh8_KJV8FCM-SYbTg=", "properties": {"@source_uri": "https://tools.usps.com/UspsToolsRestServices/rest/POLocator/findLocations", "@spider": "usps_collection_boxes", "addr:city": "LANSING", "addr:country": "US", "addr:postcode": "48912", "addr:state": "MI", "addr:street_address": "1540 LAKE LANSING RD", "amenity": "post_box", "collection_times": "Mo-Sa 11:00", "nsi_id": "unitedstatespostalservice-a77078", "operator": "United States Postal Service", "operator:short": "USPS", "operator:type": "public", "operator:wikidata": "Q668687", "ref": "4891200059"}, "type": "Feature"}
{"geometry": {"coordinates": [-84.5452649913, 42.7333039896], "type": "Point"}, "id": "X43mARDFHvDeN4bIZaR4OSXEx9M=", "properties": {"@source_uri": "https://tools.usps.com/UspsToolsRestServices/rest/POLocator/findLocations", "@spider": "usps_collection_boxes", "addr:city": "LANSING", "addr:country": "US", "addr:postcode": "48912", "addr:state": "MI", "addr:street_address": "500 E MICHIGAN AVE", "amenity": "post_box", "collection_times": "Mo-Sa 10:30", "nsi_id": "unitedstatespostalservice-a77078", "operator": "United States Postal Service", "operator:short": "USPS", "operator:type": "public", "operator:wikidata": "Q668687", "ref": "4891200060"}, "type": "Feature"}
{"geometry": {"coordinates": [-84.5746731, 42.748167], "type": "Point"}, "id": "dTCMnokXkCSKCg4V_zhUeVVVlu0=", "properties": {"@source_uri": "https://tools.usps.com/UspsToolsRestServices/rest/POLocator/findLocations", "@spider": "usps_collection_boxes", "addr:city": "LANSING", "addr:country": "US", "addr:postcode": "48915", "addr:state": "MI", "addr:street_address": "1701 W WILLOW ST", "amenity": "post_box", "collection_times": "Mo-Sa 09:30", "nsi_id": "unitedstatespostalservice-a77078", "operator": "United States Postal Service", "operator:short": "USPS", "operator:type": "public", "operator:wikidata": "Q668687", "ref": "4891500002"}, "type": "Feature"}
{"geometry": {"coordinates": [-84.5666699, 42.740846], "type": "Point"}, "id": "YebDCIfEuQQoQOwBnzGsUD9V0vQ=", "properties": {"@source_uri": "https://tools.usps.com/UspsToolsRestServices/rest/POLocator/findLocations", "@spider": "usps_collection_boxes", "addr:city": "LANSING", "addr:country": "US", "addr:postcode": "48915", "addr:state": "MI", "addr:street_address": "1019 W SAGINAW ST", "amenity": "post_box", "collection_times": "Mo-Sa 12:30", "note": "ON 12/24 AND 12/31, THIS BOX MAY BE COLLECTED AS EARLY AS 12 NOON.", "nsi_id": "unitedstatespostalservice-a77078", "operator": "United States Postal Service", "operator:short": "USPS", "operator:type": "public", "operator:wikidata": "Q668687", "ref": "4891500006"}, "type": "Feature"}
{"geometry": {"coordinates": [-84.5710951, 42.741796], "type": "Point"}, "id": "HOcz0hJlEY3H1dE8T8J6APdm-Fw=", "properties": {"@source_uri": "https://tools.usps.com/UspsToolsRestServices/rest/POLocator/findLocations", "@spider": "usps_collection_boxes", "addr:city": "LANSING", "addr:country": "US", "addr:postcode": "48915", "addr:state": "MI", "addr:street_address": "1210 W SAGINAW ST", "amenity": "post_box", "collection_times": "Mo-Sa 13:30", "note": "ON 12/24 AND 12/31, THIS BOX MAY BE COLLECTED AS EARLY AS 12 NOON.", "nsi_id": "unitedstatespostalservice-a77078", "operator": "United States Postal Service", "operator:short": "USPS", "operator:type": "public", "operator:wikidata": "Q668687", "ref": "4891500007"}, "type": "Feature"}
{"geometry": {"coordinates": [-84.5673117, 42.741276], "type": "Point"}, "id": "E_5GGq_ndyGYJJ62WEaHN6kPCHY=", "properties": {"@source_uri": "https://tools.usps.com/UspsToolsRestServices/rest/POLocator/findLocations", "@spider": "usps_collection_boxes", "addr:city": "LANSING", "addr:country": "US", "addr:postcode": "48915", "addr:state": "MI", "addr:street_address": "1100 W SAGINAW ST", "amenity": "post_box", "collection_times": "Mo-Sa 13:30", "note": "ON 12/24 AND 12/31, THIS BOX MAY BE COLLECTED AS EARLY AS 12 NOON.", "nsi_id": "unitedstatespostalservice-a77078", "operator": "United States Postal Service", "operator:short": "USPS", "operator:type": "public", "operator:wikidata": "Q668687", "ref": "4891500011"}, "type": "Feature"}
{"geometry": {"coordinates": [-84.5770143, 42.73554], "type": "Point"}, "id": "Gtb_alLkNTcUrnyLzmmWTY2WA14=", "properties": {"@source_uri": "https://tools.usps.com/UspsToolsRestServices/rest/POLocator/findLocations", "@spider": "usps_collection_boxes", "addr:city": "LANSING", "addr:country": "US", "addr:postcode": "48915", "addr:state": "MI", "addr:street_address": "212 N VERLINDEN AVE", "amenity": "post_box", "collection_times": "Mo-Sa 13:30", "note": "ON 12/24 AND 12/31, THIS BOX MAY BE COLLECTED AS EARLY AS 12 NOON.", "nsi_id": "unitedstatespostalservice-a77078", "operator": "United States Postal Service", "operator:short": "USPS", "operator:type": "public", "operator:wikidata": "Q668687", "ref": "4891500013"}, "type": "Feature"}
{"geometry": {"coordinates": [-84.6048809, 42.739991], "type": "Point"}, "id": "2QUp6Zpq9h5K6xcMuP4Q6VhW7KM=", "properties": {"@source_uri": "https://tools.usps.com/UspsToolsRestServices/rest/POLocator/findLocations", "@spider": "usps_collection_boxes", "addr:city": "LANSING", "addr:country": "US", "addr:postcode": "48917", "addr:state": "MI", "addr:street_address": "632 N DIBBLE AVE", "amenity": "post_box", "collection_times": "Mo-Sa 12:15", "note": "ON 12/24 AND 12/31, THIS BOX MAY BE COLLECTED AS EARLY AS 12 NOON.", "nsi_id": "unitedstatespostalservice-a77078", "operator": "United States Postal Service", "operator:short": "USPS", "operator:type": "public", "operator:wikidata": "Q668687", "ref": "4891700004"}, "type": "Feature"}
{"geometry": {"coordinates": [-84.61523, 42.72661], "type": "Point"}, "id": "_BWiLgyoA0cVVWo_OVuEabq4FT0=", "properties": {"@source_uri": "https://tools.usps.com/UspsToolsRestServices/rest/POLocator/findLocations", "@spider": "usps_collection_boxes", "addr:city": "LANSING", "addr:country": "US", "addr:postcode": "48917", "addr:state": "MI", "addr:street_address": "300 WESTERN AVE", "amenity": "post_box", "collection_times": "Mo-Sa 12:15", "note": "ON 12/24 AND 12/31, THIS BOX MAY BE COLLECTED AS EARLY AS 12 NOON.", "nsi_id": "unitedstatespostalservice-a77078", "operator": "United States Postal Service", "operator:short": "USPS", "operator:type": "public", "operator:wikidata": "Q668687", "ref": "4891700006"}, "type": "Feature"}
{"geometry": {"coordinates": [-84.5963223, 42.748223], "type": "Point"}, "id": "T0Tz_QQPrKRREfZpMOx-T5uOGlw=", "properties": {"@source_uri": "https://tools.usps.com/UspsToolsRestServices/rest/POLocator/findLocations", "@spider": "usps_collection_boxes", "addr:city": "LANSING", "addr:country": "US", "addr:postcode": "48917", "addr:state": "MI", "addr:street_address": "3407 W WILLOW ST", "amenity": "post_box", "collection_times": "Mo-Sa 10:30", "nsi_id": "unitedstatespostalservice-a77078", "operator": "United States Postal Service", "operator:short": "USPS", "operator:type": "public", "operator:wikidata": "Q668687", "ref": "4891700012"}, "type": "Feature"}
{"geometry": {"coordinates": [-84.6151295, 42.740847], "type": "Point"}, "id": "M2E9iWaqsKXFMsHCV0pyaebj_Dc=", "properties": {"@source_uri": "https://tools.usps.com/UspsToolsRestServices/rest/POLocator/findLocations", "@spider": "usps_collection_boxes", "addr:city": "LANSING", "addr:country": "US", "addr:postcode": "48917", "addr:state": "MI", "addr:street_address": "4601 W SAGINAW HWY", "amenity": "post_box", "collection_times": "Mo-Sa 12:30", "note": "ON 12/24 AND 12/31, THIS BOX MAY BE COLLECTED AS EARLY AS 12 NOON.", "nsi_id": "unitedstatespostalservice-a77078", "operator": "United States Postal Service", "operator:short": "USPS", "operator:type": "public", "operator:wikidata": "Q668687", "ref": "4891700014"}, "type": "Feature"}
{"geometry": {"coordinates": [-84.6436084, 42.742343], "type": "Point"}, "id": "HSC3UdkpkMACSQm0DUATySaQcc4=", "properties": {"@source_uri": "https://tools.usps.com/UspsToolsRestServices/rest/POLocator/findLocations", "@spider": "usps_collection_boxes", "addr:city": "LANSING", "addr:country": "US", "addr:postcode": "48917", "addr:state": "MI", "addr:street_address": "6430 W SAGINAW HWY", "amenity": "post_box", "collection_times": "Mo-Fr 12:30; Sa 10:00", "note": "ON 12/24 AND 12/31, THIS BOX MAY BE COLLECTED AS EARLY AS 12 NOON.", "nsi_id": "unitedstatespostalservice-a77078", "operator": "United States Postal Service", "operator:short": "USPS", "operator:type": "public", "operator:wikidata": "Q668687", "ref": "4891700020"}, "type": "Feature"}
{"geometry": {"coordinates": [-84.6589726, 42.7401], "type": "Point"}, "id": "e7zRMD8wxxEu3_tqrt0PM_facRc=", "properties": {"@source_uri": "https://tools.usps.com/UspsToolsRestServices/rest/POLocator/findLocations", "@spider": "usps_collection_boxes", "addr:city": "LANSING", "addr:country": "US", "addr:postcode": "48917", "addr:state": "MI", "addr:street_address": "200 VERMILLION DR", "amenity": "post_box", "collection_times": "Mo-Sa 12:45", "note": "ON 12/24 AND 12/31, THIS BOX MAY BE COLLECTED AS EARLY AS 12 NOON.", "nsi_id": "unitedstatespostalservice-a77078", "operator": "United States Postal Service", "operator:short": "USPS", "operator:type": "public", "operator:wikidata": "Q668687", "ref": "4891700021"}, "type": "Feature"}
{"geometry": {"coordinates": [-84.64480421, 42.688345158], "type": "Point"}, "id": "jEwds1Zm4Lie3TX2Eeq5rHoKtrM=", "properties": {"@source_uri": "https://tools.usps.com/UspsToolsRestServices/rest/POLocator/findLocations", "@spider": "usps_collection_boxes", "addr:city": "LANSING", "addr:country": "US", "addr:postcode": "48917", "addr:state": "MI", "addr:street_address": "6500 WESTLAND WAY", "amenity": "post_box", "collection_times": "Mo-Fr 10:30; Sa 10:00", "nsi_id": "unitedstatespostalservice-a77078", "operator": "United States Postal Service", "operator:short": "USPS", "operator:type": "public", "operator:wikidata": "Q668687", "ref": "4891700023"}, "type": "Feature"}
{"geometry": {"coordinates": [-84.6625121, 42.736839], "type": "Point"}, "id": "oKj2bIXisgV0GCiVG_OxApN6u6k=", "properties": {"@source_uri": "https://tools.usps.com/UspsToolsRestServices/rest/POLocator/findLocations", "@spider": "usps_collection_boxes", "addr:city": "LANSING", "addr:country": "US", "addr:postcode": "48917", "addr:state": "MI", "addr:street_address": "200 RYDER RD", "amenity": "post_box", "collection_times": "Mo-Sa 12:45", "note": "ON 12/24 AND 12/31, THIS BOX MAY BE COLLECTED AS EARLY AS 12 NOON.", "nsi_id": "unitedstatespostalservice-a77078", "operator": "United States Postal Service", "operator:short": "USPS", "operator:type": "public", "operator:wikidata": "Q668687", "ref": "4891700024"}, "type": "Feature"}
{"geometry": {"coordinates": [-84.6429607, 42.7279], "type": "Point"}, "id": "FzB5g_R5QlZaIPKt6-2c-dM7ugs=", "properties": {"@source_uri": "https://tools.usps.com/UspsToolsRestServices/rest/POLocator/findLocations", "@spider": "usps_collection_boxes", "addr:city": "LANSING", "addr:country": "US", "addr:postcode": "48917", "addr:state": "MI", "addr:street_address": "612 S CREYTS RD", "amenity": "post_box", "collection_times": "Mo-Sa 13:00", "note": "ON 12/24 AND 12/31, THIS BOX MAY BE COLLECTED AS EARLY AS 12 NOON.", "nsi_id": "unitedstatespostalservice-a77078", "operator": "United States Postal Service", "operator:short": "USPS", "operator:type": "public", "operator:wikidata": "Q668687", "ref": "4891700025"}, "type": "Feature"}
{"geometry": {"coordinates": [-84.6376868, 42.725548], "type": "Point"}, "id": "H7eKyu1Sm7fSi-CRW7j_MiC51bg=", "properties": {"@source_uri": "https://tools.usps.com/UspsToolsRestServices/rest/POLocator/findLocations", "@spider": "usps_collection_boxes", "addr:city": "LANSING", "addr:country": "US", "addr:postcode": "48917", "addr:state": "MI", "addr:street_address": "6105 W ST JOE HWY", "amenity": "post_box", "collection_times": "Mo-Sa 13:00", "note": "ON 12/24 AND 12/31, THIS BOX MAY BE COLLECTED AS EARLY AS 12 NOON.", "nsi_id": "unitedstatespostalservice-a77078", "operator": "United States Postal Service", "operator:short": "USPS", "operator:type": "public", "operator:wikidata": "Q668687", "ref": "4891700027"}, "type": "Feature"}
{"geometry": {"coordinates": [-84.6553466, 42.745406], "type": "Point"}, "id": "3TaZHqb2JlS442jwvruYqglwAKM=", "properties": {"@source_uri": "https://tools.usps.com/UspsToolsRestServices/rest/POLocator/findLocations", "@spider": "usps_collection_boxes", "addr:city": "LANSING", "addr:country": "US", "addr:postcode": "48917", "addr:state": "MI", "addr:street_address": "900 RUNAWAY BAY DR", "amenity": "post_box", "collection_times": "Mo-Sa 12:45", "note": "ON 12/24 AND 12/31, THIS BOX MAY BE COLLECTED AS EARLY AS 12 NOON.", "nsi_id": "unitedstatespostalservice-a77078", "operator": "United States Postal Service", "operator:short": "USPS", "operator:type": "public", "operator:wikidata": "Q668687", "ref": "4891700028"}, "type": "Feature"}
{"geometry": {"coordinates": [-84.6623499, 42.74567], "type": "Point"}, "id": "H8BGxEWrXKOVpFfsO8J77qb1WIs=", "properties": {"@source_uri": "https://tools.usps.com/UspsToolsRestServices/rest/POLocator/findLocations", "@spider": "usps_collection_boxes", "addr:city": "LANSING", "addr:country": "US", "addr:postcode": "48917", "addr:state": "MI", "addr:street_address": "7600 STREAMWOOD DR", "amenity": "post_box", "collection_times": "Mo-Sa 12:45", "note": "ON 12/24 AND 12/31, THIS BOX MAY BE COLLECTED AS EARLY AS 12 NOON.", "nsi_id": "unitedstatespostalservice-a77078", "operator": "United States Postal Service", "operator:short": "USPS", "operator:type": "public", "operator:wikidata": "Q668687", "ref": "4891700029"}, "type": "Feature"}
{"geometry": {"coordinates": [-84.6276300143, 42.7405060142], "type": "Point"}, "id": "cawXyec_0RT8gXE7PYVD12GQesI=", "properties": {"@source_uri": "https://tools.usps.com/UspsToolsRestServices/rest/POLocator/findLocations", "@spider": "usps_collection_boxes", "addr:city": "LANSING", "addr:country": "US", "addr:postcode": "48917", "addr:state": "MI", "addr:street_address": "5507 W SAGINAW HWY", "amenity": "post_box", "collection_times": "Mo-Sa 12:30", "note": "ON 12/24 AND 12/31, THIS BOX MAY BE COLLECTED AS EARLY AS 12 NOON.", "nsi_id": "unitedstatespostalservice-a77078", "operator": "United States Postal Service", "operator:short": "USPS", "operator:type": "public", "operator:wikidata": "Q668687", "ref": "4891700033"}, "type": "Feature"}
{"geometry": {"coordinates": [-84.6053733, 42.74164], "type": "Point"}, "id": "ToC0LaLLItAyAq2v_CephbSs1wo=", "properties": {"@source_uri": "https://tools.usps.com/UspsToolsRestServices/rest/POLocator/findLocations", "@spider": "usps_collection_boxes", "addr:city": "LANSING", "addr:country": "US", "addr:postcode": "48917", "addr:state": "MI", "addr:street_address": "4014 W SAGINAW HWY", "amenity": "post_box", "collection_times": "Mo-Sa 12:30", "note": "ON 12/24 AND 12/31, THIS BOX MAY BE COLLECTED AS EARLY AS 12 NOON.", "nsi_id": "unitedstatespostalservice-a77078", "operator": "United States Postal Service", "operator:short": "USPS", "operator:type": "public", "operator:wikidata": "Q668687", "ref": "4891700035"}, "type": "Feature"}
{"geometry": {"coordinates": [-84.6018564, 42.733716], "type": "Point"}, "id": "gHJq80k0Qb9JvkmYRfkCID3q0u0=", "properties": {"@source_uri": "https://tools.usps.com/UspsToolsRestServices/rest/POLocator/findLocations", "@spider": "usps_collection_boxes", "addr:city": "LANSING", "addr:country": "US", "addr:postcode": "48917", "addr:state": "MI", "addr:street_address": "111 S WAVERLY RD", "amenity": "post_box", "collection_times": "Mo-Sa 12:15", "note": "ON 12/24 AND 12/31, THIS BOX MAY BE COLLECTED AS EARLY AS 12 NOON.", "nsi_id": "unitedstatespostalservice-a77078", "operator": "United States Postal Service", "operator:short": "USPS", "operator:type": "public", "operator:wikidata": "Q668687", "ref": "4891700039"}, "type": "Feature"}
{"geometry": {"coordinates": [-84.6365259, 42.73362], "type": "Point"}, "id": "RjQJJCXLKqh_-yLoG2Xm-z7YBNQ=", "properties": {"@source_uri": "https://tools.usps.com/UspsToolsRestServices/rest/POLocator/findLocations", "@spider": "usps_collection_boxes", "addr:city": "LANSING", "addr:country": "US", "addr:postcode": "48917", "addr:state": "MI", "addr:street_address": "6101 W MICHIGAN AVE", "amenity": "post_box", "collection_times": "Mo-Fr 15:40; Sa 15:30", "note": "ON 12/24 AND 12/31, THIS BOX MAY BE COLLECTED AS EARLY AS 12 NOON.", "nsi_id": "unitedstatespostalservice-a77078", "operator": "United States Postal Service", "operator:short": "USPS", "operator:type": "public", "operator:wikidata": "Q668687", "ref": "4891700041"}, "type": "Feature"}
{"geometry": {"coordinates": [-84.6441074, 42.724099], "type": "Point"}, "id": "dzwIfRfjIQ-w_RBNleViSzppdbg=", "properties": {"@source_uri": "https://tools.usps.com/UspsToolsRestServices/rest/POLocator/findLocations", "@spider": "usps_collection_boxes", "addr:city": "LANSING", "addr:country": "US", "addr:postcode": "48917", "addr:state": "MI", "addr:street_address": "6412 CENTURION DR", "amenity": "post_box", "collection_times": "Mo-Sa 13:00", "note": "ON 12/24 AND 12/31, THIS BOX MAY BE COLLECTED AS EARLY AS 12 NOON.", "nsi_id": "unitedstatespostalservice-a77078", "operator": "United States Postal Service", "operator:short": "USPS", "operator:type": "public", "operator:wikidata": "Q668687", "ref": "4891700048"}, "type": "Feature"}
{"geometry": {"coordinates": [-84.5998117, 42.741632], "type": "Point"}, "id": "Mtr4hAG9oxHqVTOHD89Pz3oTTFU=", "properties": {"@source_uri": "https://tools.usps.com/UspsToolsRestServices/rest/POLocator/findLocations", "@spider": "usps_collection_boxes", "addr:city": "LANSING", "addr:country": "US", "addr:postcode": "48917", "addr:state": "MI", "addr:street_address": "3700 W SAGINAW ST", "amenity": "post_box", "collection_times": "Mo-Sa 12:30", "note": "ON 12/24 AND 12/31, THIS BOX MAY BE COLLECTED AS EARLY AS 12 NOON.", "nsi_id": "unitedstatespostalservice-a77078", "operator": "United States Postal Service", "operator:short": "USPS", "operator:type": "public", "operator:wikidata": "Q668687", "ref": "4891700051"}, "type": "Feature"}
{"geometry": {"coordinates": [-84.6598479, 42.746031], "type": "Point"}, "id": "ioQWLDvljJ-Oaz0HpY5A0iHGIqE=", "properties": {"@source_uri": "https://tools.usps.com/UspsToolsRestServices/rest/POLocator/findLocations", "@spider": "usps_collection_boxes", "addr:city": "LANSING", "addr:country": "US", "addr:postcode": "48917", "addr:state": "MI", "addr:street_address": "7436 DELTA COMMERCE DR", "amenity": "post_box", "collection_times": "Mo-Sa 12:45", "note": "ON 12/24 AND 12/31, THIS BOX MAY BE COLLECTED AS EARLY AS 12 NOON.", "nsi_id": "unitedstatespostalservice-a77078", "operator": "United States Postal Service", "operator:short": "USPS", "operator:type": "public", "operator:wikidata": "Q668687", "ref": "4891700054"}, "type": "Feature"}
{"geometry": {"coordinates": [-84.636691, 42.73337], "type": "Point"}, "id": "lS6QDunCsJ3Y3qsCVN8ewWxBy5U=", "properties": {"@source_uri": "https://tools.usps.com/UspsToolsRestServices/rest/POLocator/findLocations", "@spider": "usps_collection_boxes", "addr:city": "LANSING", "addr:country": "US", "addr:postcode": "48917", "addr:state": "MI", "addr:street_address": "6101 W MICHIGAN AVE", "amenity": "post_box", "collection_times": "Mo-Fr 15:40; Sa 15:30", "indoor": "yes", "note": "ON 12/24 AND 12/31, THIS BOX MAY BE COLLECTED AS EARLY AS 12 NOON.", "nsi_id": "unitedstatespostalservice-a77078", "operator": "United States Postal Service", "operator:short": "USPS", "operator:type": "public", "operator:wikidata": "Q668687", "ref": "4891700058"}, "type": "Feature"}
{"geometry": {"coordinates": [-84.6022943, 42.714758], "type": "Point"}, "id": "v6bv1oYudJY5W56UE56EdFbtRjI=", "properties": {"@source_uri": "https://tools.usps.com/UspsToolsRestServices/rest/POLocator/findLocations", "@spider": "usps_collection_boxes", "addr:city": "LANSING", "addr:country": "US", "addr:postcode": "48917", "addr:state": "MI", "addr:street_address": "1701 S WAVERLY RD", "amenity": "post_box", "collection_times": "Mo-Sa 10:00", "nsi_id": "unitedstatespostalservice-a77078", "operator": "United States Postal Service", "operator:short": "USPS", "operator:type": "public", "operator:wikidata": "Q668687", "ref": "4891700060"}, "type": "Feature"}
{"geometry": {"coordinates": [-84.6460162, 42.723536], "type": "Point"}, "id": "R9An-AHhDuUX462hcj6FEcJfn_o=", "properties": {"@source_uri": "https://tools.usps.com/UspsToolsRestServices/rest/POLocator/findLocations", "@spider": "usps_collection_boxes", "addr:city": "LANSING", "addr:country": "US", "addr:postcode": "48917", "addr:state": "MI", "addr:street_address": "915 CENTENNIAL WAY", "amenity": "post_box", "collection_times": "Mo-Sa 13:00", "note": "ON 12/24 AND 12/31, THIS BOX MAY BE COLLECTED AS EARLY AS 12 NOON.", "nsi_id": "unitedstatespostalservice-a77078", "operator": "United States Postal Service", "operator:short": "USPS", "operator:type": "public", "operator:wikidata": "Q668687", "ref": "4891700061"}, "type": "Feature"}
{"geometry": {"coordinates": [-84.6727518, 42.737966], "type": "Point"}, "id": "m1tND-4CboBew8XbcqnMAVhsUJ8=", "properties": {"@source_uri": "https://tools.usps.com/UspsToolsRestServices/rest/POLocator/findLocations", "@spider": "usps_collection_boxes", "addr:city": "LANSING", "addr:country": "US", "addr:postcode": "48917", "addr:state": "MI", "addr:street_address": "100 N MARKETPLACE BLVD", "amenity": "post_box", "collection_times": "Mo-Sa 10:00", "nsi_id": "unitedstatespostalservice-a77078", "operator": "United States Postal Service", "operator:short": "USPS", "operator:type": "public", "operator:wikidata": "Q668687", "ref": "4891700064"}, "type": "Feature"}
{"geometry": {"coordinates": [-84.624083167, 42.741096473], "type": "Point"}, "id": "vpeYIsvHMNrooypYDBLAroKnV4w=", "properties": {"@source_uri": "https://tools.usps.com/UspsToolsRestServices/rest/POLocator/findLocations", "@spider": "usps_collection_boxes", "addr:city": "LANSING", "addr:country": "US", "addr:postcode": "48917", "addr:state": "MI", "addr:street_address": "5208 W SAGINAW HWY", "amenity": "post_box", "collection_times": "Mo-Sa 15:40", "note": "ON 12/24 AND 12/31, THIS BOX MAY BE COLLECTED AS EARLY AS 12 NOON.", "nsi_id": "unitedstatespostalservice-a77078", "operator": "United States Postal Service", "operator:short": "USPS", "operator:type": "public", "operator:wikidata": "Q668687", "ref": "4891700065"}, "type": "Feature"}
{"geometry": {"coordinates": [-84.624083167, 42.741096473], "type": "Point"}, "id": "tGECbx7FFwfUD5rIHS_owrkuf0A=", "properties": {"@source_uri": "https://tools.usps.com/UspsToolsRestServices/rest/POLocator/findLocations", "@spider": "usps_collection_boxes", "addr:city": "LANSING", "addr:country": "US", "addr:postcode": "48917", "addr:state": "MI", "addr:street_address": "5208 W SAGINAW HWY", "amenity": "post_box", "collection_times": "Mo-Fr 15:40; Sa 12:30", "name": "USPS COLLECTION BOX - APC", "note": "ON 12/24 AND 12/31, THIS BOX MAY BE COLLECTED AS EARLY AS 12 NOON.", "nsi_id": "unitedstatespostalservice-a77078", "operator": "United States Postal Service", "operator:short": "USPS", "operator:type": "public", "operator:wikidata": "Q668687", "ref": "4891700067"}, "type": "Feature"}
{"geometry": {"coordinates": [-84.498659, 42.685427], "type": "Point"}, "id": "IPiAkEr9wCk8imSNJPadXQ7gO54=", "properties": {"@source_uri": "https://tools.usps.com/UspsToolsRestServices/rest/POLocator/findLocations", "@spider": "usps_collection_boxes", "addr:city": "LANSING", "addr:country": "US", "addr:postcode": "48924", "addr:state": "MI", "addr:street_address": "4800 COLLINS RD", "amenity": "post_box", "collection_times": "Mo-Sa 17:00", "note": "ON 12/24 AND 12/31, THIS BOX MAY BE COLLECTED AS EARLY AS 12 NOON.", "nsi_id": "unitedstatespostalservice-a77078", "operator": "United States Postal Service", "operator:short": "USPS", "operator:type": "public", "operator:wikidata": "Q668687", "ref": "4892400028"}, "type": "Feature"}
{"geometry": {"coordinates": [-84.4986983657, 42.685488], "type": "Point"}, "id": "nH_EsXbPZfaERYyxmpG6dXme1wg=", "properties": {"@source_uri": "https://tools.usps.com/UspsToolsRestServices/rest/POLocator/findLocations", "@spider": "usps_collection_boxes", "addr:city": "LANSING", "addr:country": "US", "addr:postcode": "48924", "addr:state": "MI", "addr:street_address": "4800 COLLINS RD", "amenity": "post_box", "collection_times": "Mo-Sa 17:00", "note": "ON 12/24 AND 12/31, THIS BOX MAY BE COLLECTED AS EARLY AS 12 NOON.", "nsi_id": "unitedstatespostalservice-a77078", "operator": "United States Postal Service", "operator:short": "USPS", "operator:type": "public", "operator:wikidata": "Q668687", "ref": "4892400029"}, "type": "Feature"}
{"geometry": {"coordinates": [-84.498659, 42.685427], "type": "Point"}, "id": "m-Me4VTVIG_WGmPXWytlM6WUBA4=", "properties": {"@source_uri": "https://tools.usps.com/UspsToolsRestServices/rest/POLocator/findLocations", "@spider": "usps_collection_boxes", "addr:city": "LANSING", "addr:country": "US", "addr:postcode": "48924", "addr:state": "MI", "addr:street_address": "4800 COLLINS RD", "amenity": "post_box", "collection_times": "Mo-Sa 17:00", "indoor": "yes", "note": "ON 12/24 AND 12/31, THIS BOX MAY BE COLLECTED AS EARLY AS 12 NOON.", "nsi_id": "unitedstatespostalservice-a77078", "operator": "United States Postal Service", "operator:short": "USPS", "operator:type": "public", "operator:wikidata": "Q668687", "ref": "4892400030"}, "type": "Feature"}
{"geometry": {"coordinates": [-84.498659, 42.685427], "type": "Point"}, "id": "s2FDAtIUdLr6NzbqXEqH3Mkra5g=", "properties": {"@source_uri": "https://tools.usps.com/UspsToolsRestServices/rest/POLocator/findLocations", "@spider": "usps_collection_boxes", "addr:city": "LANSING", "addr:country": "US", "addr:postcode": "48924", "addr:state": "MI", "addr:street_address": "4800 COLLINS RD", "amenity": "post_box", "collection_times": "Mo-Sa 17:00", "name": "USPS COLLECTION BOX - APC", "note": "ON 12/24 AND 12/31, THIS BOX MAY BE COLLECTED AS EARLY AS 12 NOON.", "nsi_id": "unitedstatespostalservice-a77078", "operator": "United States Postal Service", "operator:short": "USPS", "operator:type": "public", "operator:wikidata": "Q668687", "ref": "4892400031"}, "type": "Feature"}
{"geometry": {"coordinates": [-84.498698366, 42.685488], "type": "Point"}, "id": "N91Nf6vv4EfFhrEbsUjr-2GIxQ0=", "properties": {"@source_uri": "https://tools.usps.com/UspsToolsRestServices/rest/POLocator/findLocations", "@spider": "usps_collection_boxes", "addr:city": "LANSING", "addr:country": "US", "addr:postcode": "48924", "addr:state": "MI", "addr:street_address": "4800 COLLINS RD", "amenity": "post_box", "collection_times": "Mo-Fr 19:00; Sa 14:00", "indoor": "yes", "note": "ON 12/24 AND 12/31, THIS BOX MAY BE COLLECTED AS EARLY AS 12 NOON.", "nsi_id": "unitedstatespostalservice-a77078", "operator": "United States Postal Service", "operator:short": "USPS", "operator:type": "public", "operator:wikidata": "Q668687", "ref": "4892400032"}, "type": "Feature"}
{"geometry": {"coordinates": [-84.5518410134, 42.7324300086], "type": "Point"}, "id": "x9JarnNNnREhcwAVims_5wRv66Q=", "properties": {"@source_uri": "https://tools.usps.com/UspsToolsRestServices/rest/POLocator/findLocations", "@spider": "usps_collection_boxes", "addr:city": "LANSING", "addr:country": "US", "addr:postcode": "48933", "addr:state": "MI", "addr:street_address": "201 S WASHINGTON SQ", "amenity": "post_box", "collection_times": "Mo-Sa 13:00", "note": "ON 12/24 AND 12/31, THIS BOX MAY BE COLLECTED AS EARLY AS 12 NOON.", "nsi_id": "unitedstatespostalservice-a77078", "operator": "United States Postal Service", "operator:short": "USPS", "operator:type": "public", "operator:wikidata": "Q668687", "ref": "4893300019"}, "type": "Feature"}
{"geometry": {"coordinates": [-84.5527689739, 42.7327820066], "type": "Point"}, "id": "XKO07t9nria2tjPTR1-dKbeQ_AM=", "properties": {"@source_uri": "https://tools.usps.com/UspsToolsRestServices/rest/POLocator/findLocations", "@spider": "usps_collection_boxes", "addr:city": "LANSING", "addr:country": "US", "addr:postcode": "48933", "addr:state": "MI", "addr:street_address": "124 W ALLEGAN ST", "amenity": "post_box", "collection_times": "Mo-Sa 14:55", "note": "ON 12/24 AND 12/31, THIS BOX MAY BE COLLECTED AS EARLY AS 12 NOON.", "nsi_id": "unitedstatespostalservice-a77078", "operator": "United States Postal Service", "operator:short": "USPS", "operator:type": "public", "operator:wikidata": "Q668687", "ref": "4893300020"}, "type": "Feature"}
{"geometry": {"coordinates": [-84.5601035196, 42.7351133347], "type": "Point"}, "id": "GftBjVYIfbsdBRNUulNJaOteh9I=", "properties": {"@source_uri": "https://tools.usps.com/UspsToolsRestServices/rest/POLocator/findLocations", "@spider": "usps_collection_boxes", "addr:city": "LANSING", "addr:country": "US", "addr:postcode": "48933", "addr:state": "MI", "addr:street_address": "235 N PINE ST", "amenity": "post_box", "collection_times": "Mo-Sa 10:00", "nsi_id": "unitedstatespostalservice-a77078", "operator": "United States Postal Service", "operator:short": "USPS", "operator:type": "public", "operator:wikidata": "Q668687", "ref": "4893300022"}, "type": "Feature"}
{"geometry": {"coordinates": [-84.5606479629, 42.735049018], "type": "Point"}, "id": "wy1Ro2IT7zGlsm7OwkSRbNOUHt0=", "properties": {"@source_uri": "https://tools.usps.com/UspsToolsRestServices/rest/POLocator/findLocations", "@spider": "usps_collection_boxes", "addr:city": "LANSING", "addr:country": "US", "addr:postcode": "48933", "addr:state": "MI", "addr:street_address": "610 W OTTAWA ST", "amenity": "post_box", "collection_times": "Mo-Sa 14:55", "note": "ON 12/24 AND 12/31, THIS BOX MAY BE COLLECTED AS EARLY AS 12 NOON.", "nsi_id": "unitedstatespostalservice-a77078", "operator": "United States Postal Service", "operator:short": "USPS", "operator:type": "public", "operator:wikidata": "Q668687", "ref": "4893300023"}, "type": "Feature"}
{"geometry": {"coordinates": [-84.5570186, 42.736829], "type": "Point"}, "id": "Gh3Ei4TCkOz3em_RDYKNfWMlacE=", "properties": {"@source_uri": "https://tools.usps.com/UspsToolsRestServices/rest/POLocator/findLocations", "@spider": "usps_collection_boxes", "addr:city": "LANSING", "addr:country": "US", "addr:postcode": "48933", "addr:state": "MI", "addr:street_address": "323 N WALNUT ST", "amenity": "post_box", "collection_times": "Mo-Sa 13:00", "note": "ON 12/24 AND 12/31, THIS BOX MAY BE COLLECTED AS EARLY AS 12 NOON.", "nsi_id": "unitedstatespostalservice-a77078", "operator": "United States Postal Service", "operator:short": "USPS", "operator:type": "public", "operator:wikidata": "Q668687", "ref": "4893300028"}, "type": "Feature"}
{"geometry": {"coordinates": [-84.5533609877, 42.7339509887], "type": "Point"}, "id": "Ktrs-mGWAQaH41CuKVR1LUEt6dw=", "properties": {"@source_uri": "https://tools.usps.com/UspsToolsRestServices/rest/POLocator/findLocations", "@spider": "usps_collection_boxes", "addr:city": "LANSING", "addr:country": "US", "addr:postcode": "48933", "addr:state": "MI", "addr:street_address": "124 W MICHIGAN AVE", "amenity": "post_box", "collection_times": "Mo-Sa 14:15", "note": "ON 12/24 AND 12/31, THIS BOX MAY BE COLLECTED AS EARLY AS 12 NOON.", "nsi_id": "unitedstatespostalservice-a77078", "operator": "United States Postal Service", "operator:short": "USPS", "operator:type": "public", "operator:wikidata": "Q668687", "ref": "4893300032"}, "type": "Feature"}
{"geometry": {"coordinates": [-84.555405, 42.73259], "type": "Point"}, "id": "mUNu5_oB4b3dtRaYrf-ZPpoa1_s=", "properties": {"@source_uri": "https://tools.usps.com/UspsToolsRestServices/rest/POLocator/findLocations", "@spider": "usps_collection_boxes", "addr:city": "LANSING", "addr:country": "US", "addr:postcode": "48933", "addr:state": "MI", "addr:street_address": "501 S CAPITOL AVE", "amenity": "post_box", "collection_times": "Mo-Sa 11:00", "nsi_id": "unitedstatespostalservice-a77078", "operator": "United States Postal Service", "operator:short": "USPS", "operator:type": "public", "operator:wikidata": "Q668687", "ref": "4893300033"}, "type": "Feature"}
{"geometry": {"coordinates": [-84.5518290273, 42.7296420199], "type": "Point"}, "id": "js9EHchjO5rnXn9V8TYxIM9wHkU=", "properties": {"@source_uri": "https://tools.usps.com/UspsToolsRestServices/rest/POLocator/findLocations", "@spider": "usps_collection_boxes", "addr:city": "LANSING", "addr:country": "US", "addr:postcode": "48933", "addr:state": "MI", "addr:street_address": "401 S WASHINGTON SQ", "amenity": "post_box", "collection_times": "Mo-Sa 14:30", "note": "ON 12/24 AND 12/31, THIS BOX MAY BE COLLECTED AS EARLY AS 12 NOON.", "nsi_id": "unitedstatespostalservice-a77078", "operator": "United States Postal Service", "operator:short": "USPS", "operator:type": "public", "operator:wikidata": "Q668687", "ref": "4893300041"}, "type": "Feature"}
{"geometry": {"coordinates": [-84.554383999, 42.7271230066], "type": "Point"}, "id": "oSmN4QkBM8jRS_YB8K757xmhaVU=", "properties": {"@source_uri": "https://tools.usps.com/UspsToolsRestServices/rest/POLocator/findLocations", "@spider": "usps_collection_boxes", "addr:city": "LANSING", "addr:country": "US", "addr:postcode": "48933", "addr:state": "MI", "addr:street_address": "600 S CAPITOL AVE", "amenity": "post_box", "collection_times": "Mo-Sa 11:00", "nsi_id": "unitedstatespostalservice-a77078", "operator": "United States Postal Service", "operator:short": "USPS", "operator:type": "public", "operator:wikidata": "Q668687", "ref": "4893300043"}, "type": "Feature"}
{"geometry": {"coordinates": [-84.5521819351, 42.7346473207], "type": "Point"}, "id": "FRP73xMVrcvVLJpmtro7A4PQz6Q=", "properties": {"@source_uri": "https://tools.usps.com/UspsToolsRestServices/rest/POLocator/findLocations", "@spider": "usps_collection_boxes", "addr:city": "LANSING", "addr:country": "US", "addr:postcode": "48933", "addr:state": "MI", "addr:street_address": "100 E OTTAWA ST", "amenity": "post_box", "collection_times": "Mo-Sa 13:30", "note": "ON 12/24 AND 12/31, THIS BOX MAY BE COLLECTED AS EARLY AS 12 NOON.", "nsi_id": "unitedstatespostalservice-a77078", "operator": "United States Postal Service", "operator:short": "USPS", "operator:type": "public", "operator:wikidata": "Q668687", "ref": "4893300056"}, "type": "Feature"}
{"geometry": {"coordinates": [-84.5500600266, 42.7313660098], "type": "Point"}, "id": "L9wDPvjZLG6EayfiXpgDqpuDZPU=", "properties": {"@source_uri": "https://tools.usps.com/UspsToolsRestServices/rest/POLocator/findLocations", "@spider": "usps_collection_boxes", "addr:city": "LANSING", "addr:country": "US", "addr:postcode": "48933", "addr:state": "MI", "addr:street_address": "235 S GRAND AVE", "amenity": "post_box", "collection_times": "Mo-Sa 12:00", "nsi_id": "unitedstatespostalservice-a77078", "operator": "United States Postal Service", "operator:short": "USPS", "operator:type": "public", "operator:wikidata": "Q668687", "ref": "4893300058"}, "type": "Feature"}
{"geometry": {"coordinates": [-84.5521691362, 42.7321177659], "type": "Point"}, "id": "aOWZGtNZl3dlWj7Ipz1G68dNlJY=", "properties": {"@source_uri": "https://tools.usps.com/UspsToolsRestServices/rest/POLocator/findLocations", "@spider": "usps_collection_boxes", "addr:city": "LANSING", "addr:country": "US", "addr:postcode": "48933", "addr:state": "MI", "addr:street_address": "235 S WASHINGTON SQ", "amenity": "post_box", "collection_times": "Mo-Sa 12:00", "nsi_id": "unitedstatespostalservice-a77078", "operator": "United States Postal Service", "operator:short": "USPS", "operator:type": "public", "operator:wikidata": "Q668687", "ref": "4893300060"}, "type": "Feature"}
{"geometry": {"coordinates": [-84.5522978846, 42.737162761], "type": "Point"}, "id": "0zJOTEdGuQXmeDoIKcOsNhEdxl0=", "properties": {"@source_uri": "https://tools.usps.com/UspsToolsRestServices/rest/POLocator/findLocations", "@spider": "usps_collection_boxes", "addr:city": "LANSING", "addr:country": "US", "addr:postcode": "48933", "addr:state": "MI", "addr:street_address": "101 W SHIAWASSEE ST", "amenity": "post_box", "collection_times": "Mo-Sa 14:00", "note": "ON 12/24 AND 12/31, THIS BOX MAY BE COLLECTED AS EARLY AS 12 NOON.", "nsi_id": "unitedstatespostalservice-a77078", "operator": "United States Postal Service", "operator:short": "USPS", "operator:type": "public", "operator:wikidata": "Q668687", "ref": "4893300064"}, "type": "Feature"}
{"geometry": {"coordinates": [-84.5557704787, 42.7326495229], "type": "Point"}, "id": "QXGKqKL0qTYim1awXw4fQbOK4m4=", "properties": {"@source_uri": "https://tools.usps.com/UspsToolsRestServices/rest/POLocator/findLocations", "@spider": "usps_collection_boxes", "addr:city": "LANSING", "addr:country": "US", "addr:postcode": "48933", "addr:state": "MI", "addr:street_address": "316 W ALLEGAN ST", "amenity": "post_box", "collection_times": "Mo-Sa 12:30", "note": "ON 12/24 AND 12/31, THIS BOX MAY BE COLLECTED AS EARLY AS 12 NOON.", "nsi_id": "unitedstatespostalservice-a77078", "operator": "United States Postal Service", "operator:short": "USPS", "operator:type": "public", "operator:wikidata": "Q668687", "ref": "4893300066"}, "type": "Feature"}
{"geometry": {"coordinates": [-84.5555778835, 42.7325327653], "type": "Point"}, "id": "64Me_0_7IK8hFwiIaRw7OwdjIWo=", "properties": {"@source_uri": "https://tools.usps.com/UspsToolsRestServices/rest/POLocator/findLocations", "@spider": "usps_collection_boxes", "addr:city": "LANSING", "addr:country": "US", "addr:postcode": "48933", "addr:state": "MI", "addr:street_address": "200 TOWNSEND ST", "amenity": "post_box", "collection_times": "Mo-Sa 12:30", "note": "ON 12/24 AND 12/31, THIS BOX MAY BE COLLECTED AS EARLY AS 12 NOON.", "nsi_id": "unitedstatespostalservice-a77078", "operator": "United States Postal Service", "operator:short": "USPS", "operator:type": "public", "operator:wikidata": "Q668687", "ref": "4893300068"}, "type": "Feature"}
{"geometry": {"coordinates": [-84.5516520015, 42.7270059952], "type": "Point"}, "id": "BcFFGpNlxYlJ2b0QrMGw2EL8poU=", "properties": {"@source_uri": "https://tools.usps.com/UspsToolsRestServices/rest/POLocator/findLocations", "@spider": "usps_collection_boxes", "addr:city": "LANSING", "addr:country": "US", "addr:postcode": "48933", "addr:state": "MI", "addr:street_address": "603 S WASHINGTON AVE", "amenity": "post_box", "collection_times": "Mo-Sa 14:30", "note": "ON 12/24 AND 12/31, THIS BOX MAY BE COLLECTED AS EARLY AS 12 NOON.", "nsi_id": "unitedstatespostalservice-a77078", "operator": "United States Postal Service", "operator:short": "USPS", "operator:type": "public", "operator:wikidata": "Q668687", "ref": "4893300078"}, "type": "Feature"}
{"geometry": {"coordinates": [-84.5618526, 42.72707], "type": "Point"}, "id": "chqy-IH27C7S6_g3zet-6ThU7gs=", "properties": {"@source_uri": "https://tools.usps.com/UspsToolsRestServices/rest/POLocator/findLocations", "@spider": "usps_collection_boxes", "addr:city": "LANSING", "addr:country": "US", "addr:postcode": "48933", "addr:state": "MI", "addr:street_address": "600 S SYCAMORE ST", "amenity": "post_box", "collection_times": "Mo-Sa 13:00", "note": "ON 12/24 AND 12/31, THIS BOX MAY BE COLLECTED AS EARLY AS 12 NOON.", "nsi_id": "unitedstatespostalservice-a77078", "operator": "United States Postal Service", "operator:short": "USPS", "operator:type": "public", "operator:wikidata": "Q668687", "ref": "4893300081"}, "type": "Feature"}
{"geometry": {"coordinates": [-84.556242168, 42.732562488], "type": "Point"}, "id": "DQNRn4ToD89yRJY_WXJo-mRlMYA=", "properties": {"@source_uri": "https://tools.usps.com/UspsToolsRestServices/rest/POLocator/findLocations", "@spider": "usps_collection_boxes", "addr:city": "LANSING", "addr:country": "US", "addr:postcode": "48933", "addr:state": "MI", "addr:street_address": "315 W ALLEGAN ST", "amenity": "post_box", "collection_times": "Mo-Fr 14:55; Sa 12:00", "indoor": "yes", "note": "ON 12/24 AND 12/31, THIS BOX MAY BE COLLECTED AS EARLY AS 12 NOON.", "nsi_id": "unitedstatespostalservice-a77078", "operator": "United States Postal Service", "operator:short": "USPS", "operator:type": "public", "operator:wikidata": "Q668687", "ref": "4893300084"}, "type": "Feature"}
{"geometry": {"coordinates": [-84.5517459626, 42.7341140167], "type": "Point"}, "id": "ZTdhSmZEwpPxWZUbV1eumA2ah8k=", "properties": {"@source_uri": "https://tools.usps.com/UspsToolsRestServices/rest/POLocator/findLocations", "@spider": "usps_collection_boxes", "addr:city": "LANSING", "addr:country": "US", "addr:postcode": "48933", "addr:state": "MI", "addr:street_address": "120 N WASHINGTON SQ", "amenity": "post_box", "collection_times": "Mo-Sa 13:30", "note": "ON 12/24 AND 12/31, THIS BOX MAY BE COLLECTED AS EARLY AS 12 NOON.", "nsi_id": "unitedstatespostalservice-a77078", "operator": "United States Postal Service", "operator:short": "USPS", "operator:type": "public", "operator:wikidata": "Q668687", "ref": "4893300087"}, "type": "Feature"}
{"geometry": {"coordinates": [-84.5538110124, 42.7346566927], "type": "Point"}, "id": "ftO766HXXZA3J93YwoybY8yfmH8=", "properties": {"@source_uri": "https://tools.usps.com/UspsToolsRestServices/rest/POLocator/findLocations", "@spider": "usps_collection_boxes", "addr:city": "LANSING", "addr:country": "US", "addr:postcode": "48933", "addr:state": "MI", "addr:street_address": "200 N CAPITOL AVE", "amenity": "post_box", "collection_times": "Mo-Sa 13:00", "note": "ON 12/24 AND 12/31, THIS BOX MAY BE COLLECTED AS EARLY AS 12 NOON.", "nsi_id": "unitedstatespostalservice-a77078", "operator": "United States Postal Service", "operator:short": "USPS", "operator:type": "public", "operator:wikidata": "Q668687", "ref": "4893300093"}, "type": "Feature"}
{"geometry": {"coordinates": [-84.5553310586, 42.7359766671], "type": "Point"}, "id": "CJs9AdgW7_HRB62JKMaaMNYQQCQ=", "properties": {"@source_uri": "https://tools.usps.com/UspsToolsRestServices/rest/POLocator/findLocations", "@spider": "usps_collection_boxes", "addr:city": "LANSING", "addr:country": "US", "addr:postcode": "48933", "addr:state": "MI", "addr:street_address": "300 SEYMOUR AVE", "amenity": "post_box", "collection_times": "Mo-Sa 09:30", "nsi_id": "unitedstatespostalservice-a77078", "operator": "United States Postal Service", "operator:short": "USPS", "operator:type": "public", "operator:wikidata": "Q668687", "ref": "4893300097"}, "type": "Feature"}
{"geometry": {"coordinates": [-84.5521519262, 42.7358527534], "type": "Point"}, "id": "ch0dMn8eydU5CRClLaNNdItdeSI=", "properties": {"@source_uri": "https://tools.usps.com/UspsToolsRestServices/rest/POLocator/findLocations", "@spider": "usps_collection_boxes", "addr:city": "LANSING", "addr:country": "US", "addr:postcode": "48933", "addr:state": "MI", "addr:street_address": "101 E IONIA ST", "amenity": "post_box", "collection_times": "Mo-Sa 13:30", "note": "ON 12/24 AND 12/31, THIS BOX MAY BE COLLECTED AS EARLY AS 12 NOON.", "nsi_id": "unitedstatespostalservice-a77078", "operator": "United States Postal Service", "operator:short": "USPS", "operator:type": "public", "operator:wikidata": "Q668687", "ref": "4893300100"}, "type": "Feature"}
{"geometry": {"coordinates": [-84.5557392828, 42.729904343], "type": "Point"}, "id": "_kLpdrHLI7CdXQJAuKrryXE2mO0=", "properties": {"@source_uri": "https://tools.usps.com/UspsToolsRestServices/rest/POLocator/findLocations", "@spider": "usps_collection_boxes", "addr:city": "LANSING", "addr:country": "US", "addr:postcode": "48933", "addr:state": "MI", "addr:street_address": "313 W KALAMAZOO ST", "amenity": "post_box", "collection_times": "Mo-Sa 12:00", "nsi_id": "unitedstatespostalservice-a77078", "operator": "United States Postal Service", "operator:short": "USPS", "operator:type": "public", "operator:wikidata": "Q668687", "ref": "4893300102"}, "type": "Feature"}
{"geometry": {"coordinates": [-84.55026597, 42.733163006], "type": "Point"}, "id": "KVlodk28_iAQUV_q5od-g3DlsMo=", "properties": {"@source_uri": "https://tools.usps.com/UspsToolsRestServices/rest/POLocator/findLocations", "@spider": "usps_collection_boxes", "addr:city": "LANSING", "addr:country": "US", "addr:postcode": "48933", "addr:state": "MI", "addr:street_address": "206 E MICHIGAN AVE", "amenity": "post_box", "collection_times": "Mo-Sa 11:30", "nsi_id": "unitedstatespostalservice-a77078", "operator": "United States Postal Service", "operator:short": "USPS", "operator:type": "public", "operator:wikidata": "Q668687", "ref": "4893300104"}, "type": "Feature"}
