{"geometry": {"coordinates": [-86.111813, 42.314452], "type": "Point"}, "id": "NvraabDI-eciF_iyl84Vl62I5fI=", "properties": {"@spider": "usps_collection_boxes", "addr:city": "BANGOR", "addr:country": "US", "addr:full": "538 RAILROAD ST", "addr:postcode": "49013", "addr:state": "MI", "brand": "USPS", "collection_times": "Mo-Fr 16:10; Sa 11:30", "name": "USPS COLLECTION BOX - BLUE BOX", "note": "ON 12/24 AND 12/31, THIS BOX MAY BE COLLECTED AS EARLY AS 12 NOON.", "ref": "4901300002"}, "type": "Feature"}
{"geometry": {"coordinates": [-86.111813, 42.314452], "type": "Point"}, "id": "3uajigJjadIyp7vi6dRg_g_qWBo=", "properties": {"@spider": "usps_collection_boxes", "addr:city": "BANGOR", "addr:country": "US", "addr:full": "538 RAILROAD ST", "addr:postcode": "49013", "addr:state": "MI", "brand": "USPS", "collection_times": "Mo-Fr 16:10; Sa 11:30", "name": "USPS COLLECTION BOX - PO LOBBY", "note": "ON 12/24 AND 12/31, THIS BOX MAY BE COLLECTED AS EARLY AS 12 NOON.", "ref": "4901300007"}, "type": "Feature"}
{"geometry": {"coordinates": [-86.1118149892, 42.3144477444], "type": "Point"}, "id": "y-cb_90IICg8136kRayB-hWfi2E=", "properties": {"@spider": "usps_collection_boxes", "addr:city": "BANGOR", "addr:country": "US", "addr:full": "538 RAILROAD ST", "addr:postcode": "49013", "addr:state": "MI", "brand": "USPS", "collection_times": "Mo-Fr 16:30; Sa 11:00", "name": "USPS COLLECTION BOX - PO LOBBY", "note": "ON 12/24 AND 12/31, THIS BOX MAY BE COLLECTED AS EARLY AS 12 NOON.", "ref": "4901300008"}, "type": "Feature"}
{"geometry": {"coordinates": [-86.4567824, 42.086997], "type": "Point"}, "id": "mbLwXcouzNZmikurtncsJ0ckrQc=", "properties": {"@spider": "usps_collection_boxes", "addr:city": "BENTON HARBOR", "addr:country": "US", "addr:full": "130 W NAPIER AVE", "addr:postcode": "49022", "addr:state": "MI", "brand": "USPS", "collection_times": "Mo-Sa 12:30", "name": "USPS COLLECTION BOX - BLUE BOX", "note": "ON 12/24 AND 12/31, THIS BOX MAY BE COLLECTED AS EARLY AS 12 NOON.", "ref": "4902200032"}, "type": "Feature"}
{"geometry": {"coordinates": [-86.4404299, 42.083245], "type": "Point"}, "id": "KeH41jzjXhx3v1zfRqatX0hx13c=", "properties": {"@spider": "usps_collection_boxes", "addr:city": "BENTON HARBOR", "addr:country": "US", "addr:full": "1905 UNION AVE", "addr:postcode": "49022", "addr:state": "MI", "brand": "USPS", "collection_times": "Mo-Sa 12:30", "name": "USPS COLLECTION BOX - BLUE BOX", "note": "ON 12/24 AND 12/31, THIS BOX MAY BE COLLECTED AS EARLY AS 12 NOON.", "ref": "4902200037"}, "type": "Feature"}
{"geometry": {"coordinates": [-86.4249995, 42.077763], "type": "Point"}, "id": "Gc70N9qp4cA2WKG5oX4WwUT-rIg=", "properties": {"@spider": "usps_collection_boxes", "addr:city": "BENTON HARBOR", "addr:country": "US", "addr:full": "1400 MALL DR", "addr:postcode": "49022", "addr:state": "MI", "brand": "USPS", "collection_times": "Mo-Fr 15:00; Sa 12:30", "name": "USPS COLLECTION BOX - BLUE BOX", "note": "ON 12/24 AND 12/31, THIS BOX MAY BE COLLECTED AS EARLY AS 12 NOON.", "ref": "4902200039"}, "type": "Feature"}
{"geometry": {"coordinates": [-86.419756875, 42.086291238], "type": "Point"}, "id": "aL3wt7KX3o9TvFZdEzfPpyVUZ1s=", "properties": {"@spider": "usps_collection_boxes", "addr:city": "BENTON HARBOR", "addr:country": "US", "addr:full": "1800 PIPESTONE RD", "addr:postcode": "49022", "addr:state": "MI", "brand": "USPS", "collection_times": "Mo-Fr 16:35; Sa 12:30", "name": "USPS COLLECTION BOX - BLUE BOX", "note": "ON 12/24 AND 12/31, THIS BOX MAY BE COLLECTED AS EARLY AS 12 NOON.", "ref": "4902200042"}, "type": "Feature"}
{"geometry": {"coordinates": [-86.4122672, 42.089928], "type": "Point"}, "id": "dGx3nWdIBw1dQylDHUGosCve24E=", "properties": {"@spider": "usps_collection_boxes", "addr:city": "BENTON HARBOR", "addr:country": "US", "addr:full": "1860 E NAPIER AVE", "addr:postcode": "49022", "addr:state": "MI", "brand": "USPS", "collection_times": "Mo-Sa 12:30", "name": "USPS COLLECTION BOX - BLUE BOX", "note": "ON 12/24 AND 12/31, THIS BOX MAY BE COLLECTED AS EARLY AS 12 NOON.", "ref": "4902200044"}, "type": "Feature"}
{"geometry": {"coordinates": [-86.3418699, 42.122587], "type": "Point"}, "id": "LRJLVpdiaS4BN5_hcc9g4Db-TB0=", "properties": {"@spider": "usps_collection_boxes", "addr:city": "BENTON HARBOR", "addr:country": "US", "addr:full": "4781 TERRITORIAL RD", "addr:postcode": "49022", "addr:state": "MI", "brand": "USPS", "collection_times": "Mo-Sa 12:30", "name": "USPS COLLECTION BOX - BLUE BOX", "note": "ON 12/24 AND 12/31, THIS BOX MAY BE COLLECTED AS EARLY AS 12 NOON.", "ref": "4902200047"}, "type": "Feature"}
{"geometry": {"coordinates": [-86.4534447, 42.115373], "type": "Point"}, "id": "5Pp3bkw5gp136NEtHIfwU2BJUHg=", "properties": {"@spider": "usps_collection_boxes", "addr:city": "BENTON HARBOR", "addr:country": "US", "addr:full": "200 E WALL ST", "addr:postcode": "49022", "addr:state": "MI", "brand": "USPS", "collection_times": "Mo-Sa 12:30", "name": "USPS COLLECTION BOX - BLUE BOX", "note": "ON 12/24 AND 12/31, THIS BOX MAY BE COLLECTED AS EARLY AS 12 NOON.", "ref": "4902200053"}, "type": "Feature"}
{"geometry": {"coordinates": [-86.4540456, 42.116433], "type": "Point"}, "id": "JWZo60SfTssHUbssJfwwsdU3lbc=", "properties": {"@spider": "usps_collection_boxes", "addr:city": "BENTON HARBOR", "addr:country": "US", "addr:full": "185 E MAIN ST", "addr:postcode": "49022", "addr:state": "MI", "brand": "USPS", "collection_times": "Mo-Sa 12:30", "name": "USPS COLLECTION BOX - BLUE BOX", "note": "ON 12/24 AND 12/31, THIS BOX MAY BE COLLECTED AS EARLY AS 12 NOON.", "ref": "4902200054"}, "type": "Feature"}
{"geometry": {"coordinates": [-86.46467, 42.108279], "type": "Point"}, "id": "4jNqluhD0EPGUYvtFeM43HywM4Y=", "properties": {"@spider": "usps_collection_boxes", "addr:city": "BENTON HARBOR", "addr:country": "US", "addr:full": "525 RIVERVIEW DR", "addr:postcode": "49022", "addr:state": "MI", "brand": "USPS", "collection_times": "Mo-Sa 16:35", "name": "USPS COLLECTION BOX - PO LOBBY", "note": "ON 12/24 AND 12/31, THIS BOX MAY BE COLLECTED AS EARLY AS 12 NOON.", "ref": "4902200057"}, "type": "Feature"}
{"geometry": {"coordinates": [-86.464726, 42.108346], "type": "Point"}, "id": "R_4MXrGv4DpxylY38jRSJn0aF04=", "properties": {"@spider": "usps_collection_boxes", "addr:city": "BENTON HARBOR", "addr:country": "US", "addr:full": "525 RIVERVIEW DR", "addr:postcode": "49022", "addr:state": "MI", "brand": "USPS", "collection_times": "Mo-Sa 16:35", "name": "USPS COLLECTION BOX - BLUE BOX", "note": "ON 12/24 AND 12/31, THIS BOX MAY BE COLLECTED AS EARLY AS 12 NOON.", "ref": "4902200059"}, "type": "Feature"}
{"geometry": {"coordinates": [-86.4356457, 42.085238], "type": "Point"}, "id": "0WRMGFYPAky0bYL1bZQBNUVLXMo=", "properties": {"@spider": "usps_collection_boxes", "addr:city": "BENTON HARBOR", "addr:country": "US", "addr:full": "1800 M 139", "addr:postcode": "49022", "addr:state": "MI", "brand": "USPS", "collection_times": "Mo-Fr 15:00; Sa 12:30", "name": "USPS COLLECTION BOX - BLUE BOX", "note": "ON 12/24 AND 12/31, THIS BOX MAY BE COLLECTED AS EARLY AS 12 NOON.", "ref": "4902200060"}, "type": "Feature"}
{"geometry": {"coordinates": [-86.419756875, 42.086291238], "type": "Point"}, "id": "bHTiQFUiQ4j_p1-K6aRJiBN6-TM=", "properties": {"@spider": "usps_collection_boxes", "addr:city": "BENTON HARBOR", "addr:country": "US", "addr:full": "1800 PIPESTONE RD", "addr:postcode": "49022", "addr:state": "MI", "brand": "USPS", "collection_times": "Mo-Fr 15:00; Sa 12:30", "name": "USPS COLLECTION BOX - BLUE BOX", "note": "ON 12/24 AND 12/31, THIS BOX MAY BE COLLECTED AS EARLY AS 12 NOON.", "ref": "4902200063"}, "type": "Feature"}
{"geometry": {"coordinates": [-86.4536294, 42.130955], "type": "Point"}, "id": "YrS6NKFRKKHF-0kC9OcwPE7kFLs=", "properties": {"@spider": "usps_collection_boxes", "addr:city": "BENTON HARBOR", "addr:country": "US", "addr:full": "197 MADELINE AVE", "addr:postcode": "49022", "addr:state": "MI", "brand": "USPS", "collection_times": "Mo-Sa 12:30", "name": "USPS COLLECTION BOX - BLUE BOX", "note": "ON 12/24 AND 12/31, THIS BOX MAY BE COLLECTED AS EARLY AS 12 NOON.", "ref": "4902200064"}, "type": "Feature"}
{"geometry": {"coordinates": [-86.4646868925, 42.1083237721], "type": "Point"}, "id": "BMjmmXrm_m4GoLKhrpUYS9AHG2o=", "properties": {"@spider": "usps_collection_boxes", "addr:city": "BENTON HARBOR", "addr:country": "US", "addr:full": "525 RIVERVIEW DR", "addr:postcode": "49022", "addr:state": "MI", "brand": "USPS", "collection_times": "Mo-Fr 16:30; Sa 11:00", "name": "USPS COLLECTION BOX - PO LOBBY", "note": "ON 12/24 AND 12/31, THIS BOX MAY BE COLLECTED AS EARLY AS 12 NOON.", "ref": "4902200070"}, "type": "Feature"}
{"geometry": {"coordinates": [-86.070654, 42.346491], "type": "Point"}, "id": "_BgpkIgWwivo3LwsMrBD6AbvyU0=", "properties": {"@spider": "usps_collection_boxes", "addr:city": "BREEDSVILLE", "addr:country": "US", "addr:full": "18 E MAIN ST", "addr:postcode": "49027", "addr:state": "MI", "brand": "USPS", "collection_times": "Mo-Fr 15:00; Sa 11:00", "name": "USPS COLLECTION BOX - BLUE BOX", "note": "ON 12/24 AND 12/31, THIS BOX MAY BE COLLECTED AS EARLY AS 12 NOON.", "ref": "4902700001"}, "type": "Feature"}
{"geometry": {"coordinates": [-86.070654, 42.346491], "type": "Point"}, "id": "MoeqagKwq3hI1pLIpRJZvybt3UE=", "properties": {"@spider": "usps_collection_boxes", "addr:city": "BREEDSVILLE", "addr:country": "US", "addr:full": "18 E MAIN ST", "addr:postcode": "49027", "addr:state": "MI", "brand": "USPS", "collection_times": "Mo-Fr 15:00; Sa 11:00", "name": "USPS COLLECTION BOX - PO LOBBY", "note": "ON 12/24 AND 12/31, THIS BOX MAY BE COLLECTED AS EARLY AS 12 NOON.", "ref": "4902700002"}, "type": "Feature"}
{"geometry": {"coordinates": [-86.072094251, 42.346535481], "type": "Point"}, "id": "FrFRXV3sucApg7viaevWVxaLcRs=", "properties": {"@spider": "usps_collection_boxes", "addr:city": "BREEDSVILLE", "addr:country": "US", "addr:full": "18 E MAIN ST", "addr:postcode": "49027", "addr:state": "MI", "brand": "USPS", "collection_times": "Mo-Fr 16:00; Sa 10:30", "name": "USPS COLLECTION BOX - PO LOBBY", "note": "ON 12/24 AND 12/31, THIS BOX MAY BE COLLECTED AS EARLY AS 12 NOON.", "ref": "4902700003"}, "type": "Feature"}
{"geometry": {"coordinates": [-85.317463, 41.845177], "type": "Point"}, "id": "Cay3KymbjWmYg6-6IpGzBXtBbJc=", "properties": {"@spider": "usps_collection_boxes", "addr:city": "BURR OAK", "addr:country": "US", "addr:full": "235 S 3RD ST", "addr:postcode": "49030", "addr:state": "MI", "brand": "USPS", "collection_times": "Mo-Fr 15:15; Sa 10:30", "name": "USPS COLLECTION BOX - BLUE BOX", "note": "ON 12/24 AND 12/31, THIS BOX MAY BE COLLECTED AS EARLY AS 12 NOON.", "ref": "4903000001"}, "type": "Feature"}
{"geometry": {"coordinates": [-85.317463, 41.845177], "type": "Point"}, "id": "tlbRJ_qHdPGGUJCTOLTGqYR9PBo=", "properties": {"@spider": "usps_collection_boxes", "addr:city": "BURR OAK", "addr:country": "US", "addr:full": "235 S 3RD ST", "addr:postcode": "49030", "addr:state": "MI", "brand": "USPS", "collection_times": "Mo-Fr 15:15; Sa 10:30", "name": "USPS COLLECTION BOX - PO LOBBY", "note": "ON 12/24 AND 12/31, THIS BOX MAY BE COLLECTED AS EARLY AS 12 NOON.", "ref": "4903000002"}, "type": "Feature"}
{"geometry": {"coordinates": [-85.317465417, 41.845176387], "type": "Point"}, "id": "q28MNWmpBNDRIwaer8T12UHPVio=", "properties": {"@spider": "usps_collection_boxes", "addr:city": "BURR OAK", "addr:country": "US", "addr:full": "235 S 3RD ST", "addr:postcode": "49030", "addr:state": "MI", "brand": "USPS", "collection_times": "Mo-Fr 15:00; Sa 10:00", "name": "USPS COLLECTION BOX - PO LOBBY", "note": "ON 12/24 AND 12/31, THIS BOX MAY BE COLLECTED AS EARLY AS 12 NOON.", "ref": "4903000003"}, "type": "Feature"}
{"geometry": {"coordinates": [-86.011166, 41.911025], "type": "Point"}, "id": "u69Y6KCo3vbasrY7nk3QdgNT2QA=", "properties": {"@spider": "usps_collection_boxes", "addr:city": "CASSOPOLIS", "addr:country": "US", "addr:full": "129 S ROWLAND ST", "addr:postcode": "49031", "addr:state": "MI", "brand": "USPS", "collection_times": "Mo-Fr 15:30; Sa 12:00", "name": "USPS COLLECTION BOX - BLUE BOX", "note": "ON 12/24 AND 12/31, THIS BOX MAY BE COLLECTED AS EARLY AS 12 NOON.", "ref": "4903100005"}, "type": "Feature"}
{"geometry": {"coordinates": [-86.011203, 41.911063], "type": "Point"}, "id": "ARz03VKSU9DiHDG_l_34Xfb34GM=", "properties": {"@spider": "usps_collection_boxes", "addr:city": "CASSOPOLIS", "addr:country": "US", "addr:full": "129 S ROWLAND ST", "addr:postcode": "49031", "addr:state": "MI", "brand": "USPS", "collection_times": "Mo-Fr 15:30; Sa 12:00", "name": "USPS COLLECTION BOX - PO LOBBY", "note": "ON 12/24 AND 12/31, THIS BOX MAY BE COLLECTED AS EARLY AS 12 NOON.", "ref": "4903100007"}, "type": "Feature"}
{"geometry": {"coordinates": [-86.011155075, 41.910345115], "type": "Point"}, "id": "yYtG705Nb4fI0Wq8y9gmBZxiZLk=", "properties": {"@spider": "usps_collection_boxes", "addr:city": "CASSOPOLIS", "addr:country": "US", "addr:full": "129 S ROWLAND ST", "addr:postcode": "49031", "addr:state": "MI", "brand": "USPS", "collection_times": "Mo-Fr 15:00; Sa 11:00", "name": "USPS COLLECTION BOX - PO LOBBY", "note": "ON 12/24 AND 12/31, THIS BOX MAY BE COLLECTED AS EARLY AS 12 NOON.", "ref": "4903100008"}, "type": "Feature"}
{"geometry": {"coordinates": [-85.528249, 41.923169], "type": "Point"}, "id": "IwP-xoZICLiVzVoEBqwf8h3lfD4=", "properties": {"@spider": "usps_collection_boxes", "addr:city": "CENTREVILLE", "addr:country": "US", "addr:full": "116 S CLARK ST", "addr:postcode": "49032", "addr:state": "MI", "brand": "USPS", "collection_times": "Mo-Fr 15:30; Sa 11:00", "name": "USPS COLLECTION BOX - BLUE BOX", "note": "ON 12/24 AND 12/31, THIS BOX MAY BE COLLECTED AS EARLY AS 12 NOON.", "ref": "4903200002"}, "type": "Feature"}
{"geometry": {"coordinates": [-85.528249, 41.923169], "type": "Point"}, "id": "MbA1aZP8Dhoevj09rWWDHNeRv98=", "properties": {"@spider": "usps_collection_boxes", "addr:city": "CENTREVILLE", "addr:country": "US", "addr:full": "116 S CLARK ST", "addr:postcode": "49032", "addr:state": "MI", "brand": "USPS", "collection_times": "Mo-Fr 15:45; Sa 12:00", "name": "USPS COLLECTION BOX - PO LOBBY", "note": "ON 12/24 AND 12/31, THIS BOX MAY BE COLLECTED AS EARLY AS 12 NOON.", "ref": "4903200003"}, "type": "Feature"}
{"geometry": {"coordinates": [-85.5250871, 41.92378], "type": "Point"}, "id": "b9IZpE02Vz_KK4wNKfSVRi5y5ts=", "properties": {"@spider": "usps_collection_boxes", "addr:city": "CENTREVILLE", "addr:country": "US", "addr:full": "201 E MAIN ST", "addr:postcode": "49032", "addr:state": "MI", "brand": "USPS", "collection_times": "Mo-Fr 12:00; Sa 09:00", "name": "USPS COLLECTION BOX - BLUE BOX", "ref": "4903200004"}, "type": "Feature"}
{"geometry": {"coordinates": [-85.5126874, 41.922431], "type": "Point"}, "id": "WbM5aKX3rC2_iNNwBpsVFdhjR-c=", "properties": {"@spider": "usps_collection_boxes", "addr:city": "CENTREVILLE", "addr:country": "US", "addr:full": "666 E MAIN ST", "addr:postcode": "49032", "addr:state": "MI", "brand": "USPS", "collection_times": "Mo-Sa 09:00", "name": "USPS COLLECTION BOX - BLUE BOX", "ref": "4903200005"}, "type": "Feature"}
{"geometry": {"coordinates": [-85.5282489326, 41.9231702515], "type": "Point"}, "id": "v1D6-bSX7K60UPk0BKQMyUINru4=", "properties": {"@spider": "usps_collection_boxes", "addr:city": "CENTREVILLE", "addr:country": "US", "addr:full": "116 S CLARK ST", "addr:postcode": "49032", "addr:state": "MI", "brand": "USPS", "collection_times": "Mo-Fr 15:00", "name": "USPS COLLECTION BOX - PO LOBBY", "note": "ON 12/24 AND 12/31, THIS BOX MAY BE COLLECTED AS EARLY AS 12 NOON.", "ref": "4903200006"}, "type": "Feature"}
{"geometry": {"coordinates": [-86.308302, 42.187961], "type": "Point"}, "id": "5Qi4XtTQtVdKYJM7DKWrNd51KZM=", "properties": {"@spider": "usps_collection_boxes", "addr:city": "COLOMA", "addr:country": "US", "addr:full": "201 N WEST ST", "addr:postcode": "49038", "addr:state": "MI", "brand": "USPS", "collection_times": "Mo-Fr 15:15; Sa 12:00", "name": "USPS COLLECTION BOX - BLUE BOX", "note": "ON 12/24 AND 12/31, THIS BOX MAY BE COLLECTED AS EARLY AS 12 NOON.", "ref": "4903800004"}, "type": "Feature"}
{"geometry": {"coordinates": [-86.308302, 42.187961], "type": "Point"}, "id": "-PCKMDIo8iw5nOI_qd0OveK23c0=", "properties": {"@spider": "usps_collection_boxes", "addr:city": "COLOMA", "addr:country": "US", "addr:full": "201 N WEST ST", "addr:postcode": "49038", "addr:state": "MI", "brand": "USPS", "collection_times": "Mo-Fr 15:15; Sa 12:00", "name": "USPS COLLECTION BOX - BLUE BOX", "note": "ON 12/24 AND 12/31, THIS BOX MAY BE COLLECTED AS EARLY AS 12 NOON.", "ref": "4903800005"}, "type": "Feature"}
{"geometry": {"coordinates": [-86.2984464, 42.194258], "type": "Point"}, "id": "xRgAIBehXf9np3O89p0-DCnCwZg=", "properties": {"@spider": "usps_collection_boxes", "addr:city": "COLOMA", "addr:country": "US", "addr:full": "6577 PAW PAW AVE", "addr:postcode": "49038", "addr:state": "MI", "brand": "USPS", "collection_times": "Mo-Sa 12:00", "name": "USPS COLLECTION BOX - BLUE BOX", "ref": "4903800006"}, "type": "Feature"}
{"geometry": {"coordinates": [-86.308287673, 42.187927376], "type": "Point"}, "id": "NtrxsoZSfnX2mUsWI6TnN6IkPZA=", "properties": {"@spider": "usps_collection_boxes", "addr:city": "COLOMA", "addr:country": "US", "addr:full": "201N WEST ST", "addr:postcode": "49038", "addr:state": "MI", "brand": "USPS", "collection_times": "Mo-Fr 16:30; Sa 11:30", "name": "USPS COLLECTION BOX - PO LOBBY", "note": "ON 12/24 AND 12/31, THIS BOX MAY BE COLLECTED AS EARLY AS 12 NOON.", "ref": "4903800008"}, "type": "Feature"}
{"geometry": {"coordinates": [-85.667466339, 41.839836728], "type": "Point"}, "id": "609C9EjHBkSpvuDn7uCXjqgtw3w=", "properties": {"@spider": "usps_collection_boxes", "addr:city": "CONSTANTINE", "addr:country": "US", "addr:full": "340 S WASHINGTON ST", "addr:postcode": "49042", "addr:state": "MI", "brand": "USPS", "collection_times": "Mo-Fr 16:25; Sa 12:15", "name": "USPS COLLECTION BOX - BLUE BOX", "note": "ON 12/24 AND 12/31, THIS BOX MAY BE COLLECTED AS EARLY AS 12 NOON.", "ref": "4904200004"}, "type": "Feature"}
{"geometry": {"coordinates": [-85.667466339, 41.839836728], "type": "Point"}, "id": "ZLhCRM09jQt9qev0wt1Yt1bs3ww=", "properties": {"@spider": "usps_collection_boxes", "addr:city": "CONSTANTINE", "addr:country": "US", "addr:full": "340 S WASHINGTON ST", "addr:postcode": "49042", "addr:state": "MI", "brand": "USPS", "collection_times": "Mo-Fr 16:25; Sa 12:15", "name": "USPS COLLECTION BOX - PO LOBBY", "note": "ON 12/24 AND 12/31, THIS BOX MAY BE COLLECTED AS EARLY AS 12 NOON.", "ref": "4904200007"}, "type": "Feature"}
{"geometry": {"coordinates": [-85.667466339, 41.839836728], "type": "Point"}, "id": "EFugWiuVxpkyn2o0mentgUD5tSM=", "properties": {"@spider": "usps_collection_boxes", "addr:city": "CONSTANTINE", "addr:country": "US", "addr:full": "340 S WASHINGTON ST", "addr:postcode": "49042", "addr:state": "MI", "brand": "USPS", "collection_times": "Mo-Fr 16:00; Sa 11:30", "name": "USPS COLLECTION BOX - PO LOBBY", "note": "ON 12/24 AND 12/31, THIS BOX MAY BE COLLECTED AS EARLY AS 12 NOON.", "ref": "4904200008"}, "type": "Feature"}
{"geometry": {"coordinates": [-86.2623968, 42.294878], "type": "Point"}, "id": "WEMc9zOk6NolPvSmz8XgLovpyKg=", "properties": {"@spider": "usps_collection_boxes", "addr:city": "COVERT", "addr:country": "US", "addr:full": "33845 M 140 HWY", "addr:postcode": "49043", "addr:state": "MI", "brand": "USPS", "collection_times": "Mo-Fr 14:40; Sa 10:00", "name": "USPS COLLECTION BOX - BLUE BOX", "note": "ON 12/24 AND 12/31, THIS BOX MAY BE COLLECTED AS EARLY AS 12 NOON.", "ref": "4904300001"}, "type": "Feature"}
{"geometry": {"coordinates": [-86.2623385, 42.294889], "type": "Point"}, "id": "j9w-gQezgSto01hOJbVEAGHQIKA=", "properties": {"@spider": "usps_collection_boxes", "addr:city": "COVERT", "addr:country": "US", "addr:full": "33845 M 140 HWY", "addr:postcode": "49043", "addr:state": "MI", "brand": "USPS", "collection_times": "Mo-Fr 14:40; Sa 10:00", "name": "USPS COLLECTION BOX - PO LOBBY", "note": "ON 12/24 AND 12/31, THIS BOX MAY BE COLLECTED AS EARLY AS 12 NOON.", "ref": "4904300002"}, "type": "Feature"}
{"geometry": {"coordinates": [-86.2624868748, 42.2948516647], "type": "Point"}, "id": "aUz1DFvKkHPgAgZbzpr1e5YLL1w=", "properties": {"@spider": "usps_collection_boxes", "addr:city": "COVERT", "addr:country": "US", "addr:full": "33845 M 140 HWY", "addr:postcode": "49043", "addr:state": "MI", "brand": "USPS", "collection_times": "Mo-Fr 14:30; Sa 09:30", "name": "USPS COLLECTION BOX - PO LOBBY", "note": "ON 12/24 AND 12/31, THIS BOX MAY BE COLLECTED AS EARLY AS 12 NOON.", "ref": "4904300003"}, "type": "Feature"}
{"geometry": {"coordinates": [-85.974047, 42.108447], "type": "Point"}, "id": "ZgCKguT4lW14Z9i1gczDe-B4Y5M=", "properties": {"@spider": "usps_collection_boxes", "addr:city": "DECATUR", "addr:country": "US", "addr:full": "127 S PHELPS ST", "addr:postcode": "49045", "addr:state": "MI", "brand": "USPS", "collection_times": "Mo-Fr 16:25; Sa 12:00", "name": "USPS COLLECTION BOX - PO LOBBY", "note": "ON 12/24 AND 12/31, THIS BOX MAY BE COLLECTED AS EARLY AS 12 NOON.", "ref": "4904500002"}, "type": "Feature"}
{"geometry": {"coordinates": [-85.973409, 42.107793], "type": "Point"}, "id": "-jrvqUcA2j07TqiAWrFnIv2ejz4=", "properties": {"@spider": "usps_collection_boxes", "addr:city": "DECATUR", "addr:country": "US", "addr:full": "100 E SHERWOOD ST", "addr:postcode": "49045", "addr:state": "MI", "brand": "USPS", "collection_times": "Mo-Fr 16:25; Sa 12:00", "name": "USPS COLLECTION BOX - BLUE BOX", "note": "ON 12/24 AND 12/31, THIS BOX MAY BE COLLECTED AS EARLY AS 12 NOON.", "ref": "4904500004"}, "type": "Feature"}
{"geometry": {"coordinates": [-85.97411, 42.108465], "type": "Point"}, "id": "NPtqq8FUHGLIaxVLyaKiOah4aC8=", "properties": {"@spider": "usps_collection_boxes", "addr:city": "DECATUR", "addr:country": "US", "addr:full": "127 S PHELPS ST", "addr:postcode": "49045", "addr:state": "MI", "brand": "USPS", "collection_times": "Mo-Fr 16:25; Sa 12:00", "name": "USPS COLLECTION BOX - BLUE BOX", "note": "ON 12/24 AND 12/31, THIS BOX MAY BE COLLECTED AS EARLY AS 12 NOON.", "ref": "4904500005"}, "type": "Feature"}
{"geometry": {"coordinates": [-85.974047626, 42.108481635], "type": "Point"}, "id": "VfyrWtdHDylw8Mw0WHzAb3Tka5s=", "properties": {"@spider": "usps_collection_boxes", "addr:city": "DECATUR", "addr:country": "US", "addr:full": "127 S PHELPS ST", "addr:postcode": "49045", "addr:state": "MI", "brand": "USPS", "collection_times": "Mo-Fr 16:00; Sa 11:30", "name": "USPS COLLECTION BOX - PO LOBBY", "note": "ON 12/24 AND 12/31, THIS BOX MAY BE COLLECTED AS EARLY AS 12 NOON.", "ref": "4904500006"}, "type": "Feature"}
{"geometry": {"coordinates": [-86.1106711, 41.982561], "type": "Point"}, "id": "pK2DplX-xfmYPGMAKHab8CAwBRY=", "properties": {"@spider": "usps_collection_boxes", "addr:city": "DOWAGIAC", "addr:country": "US", "addr:full": "202 COMMERCIAL ST", "addr:postcode": "49047", "addr:state": "MI", "brand": "USPS", "collection_times": "Mo-Sa 15:45", "name": "USPS COLLECTION BOX - BLUE BOX", "note": "ON 12/24 AND 12/31, THIS BOX MAY BE COLLECTED AS EARLY AS 12 NOON.", "ref": "4904700001"}, "type": "Feature"}
{"geometry": {"coordinates": [-86.1099585, 41.983077], "type": "Point"}, "id": "1yqivDrTDplEwxkYvJZ_wSPTR5U=", "properties": {"@spider": "usps_collection_boxes", "addr:city": "DOWAGIAC", "addr:country": "US", "addr:full": "202 COMMERCIAL ST", "addr:postcode": "49047", "addr:state": "MI", "brand": "USPS", "collection_times": "Mo-Sa 15:45", "name": "USPS COLLECTION BOX - BLUE BOX", "note": "ON 12/24 AND 12/31, THIS BOX MAY BE COLLECTED AS EARLY AS 12 NOON.", "ref": "4904700002"}, "type": "Feature"}
{"geometry": {"coordinates": [-86.109744, 41.9829], "type": "Point"}, "id": "r-VefBZVSk-PAtosCKVZiVi7SuE=", "properties": {"@spider": "usps_collection_boxes", "addr:city": "DOWAGIAC", "addr:country": "US", "addr:full": "202 COMMERCIAL ST", "addr:postcode": "49047", "addr:state": "MI", "brand": "USPS", "collection_times": "Mo-Sa 15:45", "name": "USPS COLLECTION BOX - PO LOBBY", "note": "ON 12/24 AND 12/31, THIS BOX MAY BE COLLECTED AS EARLY AS 12 NOON.", "ref": "4904700015"}, "type": "Feature"}
{"geometry": {"coordinates": [-86.203769, 42.086207], "type": "Point"}, "id": "qjM7msQYbUt9IvGiqsOSvCBC6t8=", "properties": {"@spider": "usps_collection_boxes", "addr:city": "DOWAGIAC", "addr:country": "US", "addr:full": "67900 M 152", "addr:postcode": "49047", "addr:state": "MI", "brand": "USPS", "collection_times": "Mo-Fr 10:45; Sa 10:30", "name": "USPS COLLECTION BOX - BLUE BOX", "ref": "4904700016"}, "type": "Feature"}
{"geometry": {"coordinates": [-86.109989613, 41.983054814], "type": "Point"}, "id": "O3HPajLZtlvKxv7G-K9egvrDhFk=", "properties": {"@spider": "usps_collection_boxes", "addr:city": "DOWAGIAC", "addr:country": "US", "addr:full": "202 COMMERCIAL ST", "addr:postcode": "49047", "addr:state": "MI", "brand": "USPS", "collection_times": "Mo-Fr 16:00; Sa 11:30", "name": "USPS COLLECTION BOX - PO LOBBY", "note": "ON 12/24 AND 12/31, THIS BOX MAY BE COLLECTED AS EARLY AS 12 NOON.", "ref": "4904700022"}, "type": "Feature"}
{"geometry": {"coordinates": [-86.072631, 42.404437], "type": "Point"}, "id": "sGgVk73ZqUYDBbJSpBKWW9d_eGI=", "properties": {"@spider": "usps_collection_boxes", "addr:city": "GRAND JUNCTION", "addr:country": "US", "addr:full": "54014 COUNTY ROAD 388", "addr:postcode": "49056", "addr:state": "MI", "brand": "USPS", "collection_times": "Mo-Fr 14:45; Sa 11:00", "name": "USPS COLLECTION BOX - BLUE BOX", "note": "ON 12/24 AND 12/31, THIS BOX MAY BE COLLECTED AS EARLY AS 12 NOON.", "ref": "4905600001"}, "type": "Feature"}
{"geometry": {"coordinates": [-86.072631, 42.404437], "type": "Point"}, "id": "we5l5BmhTF4tWQHkuWII9FUPnis=", "properties": {"@spider": "usps_collection_boxes", "addr:city": "GRAND JUNCTION", "addr:country": "US", "addr:full": "54014 COUNTY ROAD 388", "addr:postcode": "49056", "addr:state": "MI", "brand": "USPS", "collection_times": "Mo-Fr 14:45; Sa 11:00", "name": "USPS COLLECTION BOX - PO LOBBY", "note": "ON 12/24 AND 12/31, THIS BOX MAY BE COLLECTED AS EARLY AS 12 NOON.", "ref": "4905600002"}, "type": "Feature"}
{"geometry": {"coordinates": [-86.0738978, 42.404333], "type": "Point"}, "id": "sDOqhYSQaycJjAJR_wKoBpbYArw=", "properties": {"@spider": "usps_collection_boxes", "addr:city": "GRAND JUNCTION", "addr:country": "US", "addr:full": "54099 COUNTY ROAD 388", "addr:postcode": "49056", "addr:state": "MI", "brand": "USPS", "collection_times": "Mo-Sa 10:00", "name": "USPS COLLECTION BOX - BLUE BOX", "ref": "4905600003"}, "type": "Feature"}
{"geometry": {"coordinates": [-86.072634, 42.404437486], "type": "Point"}, "id": "0gVgXdlROWkBjRiVjeJLro4Se2c=", "properties": {"@spider": "usps_collection_boxes", "addr:city": "GRAND JUNCTION", "addr:country": "US", "addr:full": "54014 COUNTY ROAD 388", "addr:postcode": "49056", "addr:state": "MI", "brand": "USPS", "collection_times": "Mo-Fr 14:00; Sa 10:30", "name": "USPS COLLECTION BOX - PO LOBBY", "note": "ON 12/24 AND 12/31, THIS BOX MAY BE COLLECTED AS EARLY AS 12 NOON.", "ref": "4905600004"}, "type": "Feature"}
{"geometry": {"coordinates": [-86.166742, 42.207152], "type": "Point"}, "id": "1OgmXQZiN2gR5VGPKDlcIwdOMQc=", "properties": {"@spider": "usps_collection_boxes", "addr:city": "HARTFORD", "addr:country": "US", "addr:full": "19 N CENTER ST", "addr:postcode": "49057", "addr:state": "MI", "brand": "USPS", "collection_times": "Mo-Fr 15:55; Sa 11:00", "name": "USPS COLLECTION BOX - PO LOBBY", "note": "ON 12/24 AND 12/31, THIS BOX MAY BE COLLECTED AS EARLY AS 12 NOON.", "ref": "4905700002"}, "type": "Feature"}
{"geometry": {"coordinates": [-86.166742, 42.207152], "type": "Point"}, "id": "LQpnonBLgv-Yj3F80WVPBUStkVQ=", "properties": {"@spider": "usps_collection_boxes", "addr:city": "HARTFORD", "addr:country": "US", "addr:full": "19 N CENTER ST", "addr:postcode": "49057", "addr:state": "MI", "brand": "USPS", "collection_times": "Mo-Fr 15:55; Sa 11:00", "name": "USPS COLLECTION BOX - BLUE BOX", "note": "ON 12/24 AND 12/31, THIS BOX MAY BE COLLECTED AS EARLY AS 12 NOON.", "ref": "4905700003"}, "type": "Feature"}
{"geometry": {"coordinates": [-86.166706513, 42.207955711], "type": "Point"}, "id": "iXsxpZQLulEgJBj8_HFQHwoXxi8=", "properties": {"@spider": "usps_collection_boxes", "addr:city": "HARTFORD", "addr:country": "US", "addr:full": "19 N CENTER ST", "addr:postcode": "49057", "addr:state": "MI", "brand": "USPS", "collection_times": "Mo-Fr 16:30; Sa 10:30", "name": "USPS COLLECTION BOX - PO LOBBY", "note": "ON 12/24 AND 12/31, THIS BOX MAY BE COLLECTED AS EARLY AS 12 NOON.", "ref": "4905700004"}, "type": "Feature"}
{"geometry": {"coordinates": [-85.800388, 41.90438], "type": "Point"}, "id": "75wdjloBRjlhSoOwpFS80cbBQ4U=", "properties": {"@spider": "usps_collection_boxes", "addr:city": "JONES", "addr:country": "US", "addr:full": "12081 M 60", "addr:postcode": "49061", "addr:state": "MI", "brand": "USPS", "collection_times": "Mo-Fr 14:10; Sa 10:45", "name": "USPS COLLECTION BOX - BLUE BOX", "note": "ON 12/24 AND 12/31, THIS BOX MAY BE COLLECTED AS EARLY AS 12 NOON.", "ref": "4906100001"}, "type": "Feature"}
{"geometry": {"coordinates": [-85.800388, 41.90438], "type": "Point"}, "id": "32gxdLxhULUxU-mdJyuHUvFbWfQ=", "properties": {"@spider": "usps_collection_boxes", "addr:city": "JONES", "addr:country": "US", "addr:full": "12081 M 60", "addr:postcode": "49061", "addr:state": "MI", "brand": "USPS", "collection_times": "Mo-Fr 14:10; Sa 10:45", "name": "USPS COLLECTION BOX - PO LOBBY", "note": "ON 12/24 AND 12/31, THIS BOX MAY BE COLLECTED AS EARLY AS 12 NOON.", "ref": "4906100003"}, "type": "Feature"}
{"geometry": {"coordinates": [-85.800435952, 41.904316647], "type": "Point"}, "id": "20KsqgXccGA7ey_d7t6lYiT8IFw=", "properties": {"@spider": "usps_collection_boxes", "addr:city": "JONES", "addr:country": "US", "addr:full": "12081 M 60", "addr:postcode": "49061", "addr:state": "MI", "brand": "USPS", "collection_times": "Mo-Fr 15:30; Sa 10:00", "name": "USPS COLLECTION BOX - PO LOBBY", "note": "ON 12/24 AND 12/31, THIS BOX MAY BE COLLECTED AS EARLY AS 12 NOON.", "ref": "4906100004"}, "type": "Feature"}
{"geometry": {"coordinates": [-86.129831, 42.411856], "type": "Point"}, "id": "lOkTxBX8-Vf_VGX4vEYlh_KsrIg=", "properties": {"@spider": "usps_collection_boxes", "addr:city": "LACOTA", "addr:country": "US", "addr:full": "60062 CHURCH ST", "addr:postcode": "49063", "addr:state": "MI", "brand": "USPS", "collection_times": "Mo-Fr 15:20; Sa 10:00", "name": "USPS COLLECTION BOX - BLUE BOX", "note": "ON 12/24 AND 12/31, THIS BOX MAY BE COLLECTED AS EARLY AS 12 NOON.", "ref": "4906300000"}, "type": "Feature"}
{"geometry": {"coordinates": [-86.129831, 42.411856], "type": "Point"}, "id": "tbMIkVKjlggv0DQPmwdLOR_bf0g=", "properties": {"@spider": "usps_collection_boxes", "addr:city": "LACOTA", "addr:country": "US", "addr:full": "60062 CHURCH ST", "addr:postcode": "49063", "addr:state": "MI", "brand": "USPS", "collection_times": "Mo-Fr 15:20; Sa 10:00", "name": "USPS COLLECTION BOX - PO LOBBY", "note": "ON 12/24 AND 12/31, THIS BOX MAY BE COLLECTED AS EARLY AS 12 NOON.", "ref": "4906300001"}, "type": "Feature"}
{"geometry": {"coordinates": [-86.1298335, 42.411855519], "type": "Point"}, "id": "i_3N4yEXok7jOjBkvuc6TtwMWXQ=", "properties": {"@spider": "usps_collection_boxes", "addr:city": "LACOTA", "addr:country": "US", "addr:full": "60062 CHURCH ST", "addr:postcode": "49063", "addr:state": "MI", "brand": "USPS", "collection_times": "Mo-Fr 15:00; Sa 10:00", "name": "USPS COLLECTION BOX - PO LOBBY", "note": "ON 12/24 AND 12/31, THIS BOX MAY BE COLLECTED AS EARLY AS 12 NOON.", "ref": "4906300002"}, "type": "Feature"}
{"geometry": {"coordinates": [-85.815145, 42.025869], "type": "Point"}, "id": "xxOd3abNZSwSVTY3oYvWn1HxeAE=", "properties": {"@spider": "usps_collection_boxes", "addr:city": "MARCELLUS", "addr:country": "US", "addr:full": "203 S CENTRE ST", "addr:postcode": "49067", "addr:state": "MI", "brand": "USPS", "collection_times": "Mo-Fr 15:05; Sa 12:00", "name": "USPS COLLECTION BOX - BLUE BOX", "note": "ON 12/24 AND 12/31, THIS BOX MAY BE COLLECTED AS EARLY AS 12 NOON.", "ref": "4906700003"}, "type": "Feature"}
{"geometry": {"coordinates": [-85.815145, 42.025869], "type": "Point"}, "id": "j7n3x49chZTFduegKm7fLqdkTIs=", "properties": {"@spider": "usps_collection_boxes", "addr:city": "MARCELLUS", "addr:country": "US", "addr:full": "203 S CENTRE ST", "addr:postcode": "49067", "addr:state": "MI", "brand": "USPS", "collection_times": "Mo-Fr 15:05; Sa 12:00", "name": "USPS COLLECTION BOX - PO LOBBY", "note": "ON 12/24 AND 12/31, THIS BOX MAY BE COLLECTED AS EARLY AS 12 NOON.", "ref": "4906700004"}, "type": "Feature"}
{"geometry": {"coordinates": [-85.815146024, 42.025869], "type": "Point"}, "id": "7_u0HKeZ-X-PAx3kI6-dLksvebc=", "properties": {"@spider": "usps_collection_boxes", "addr:city": "MARCELLUS", "addr:country": "US", "addr:full": "203 S CENTRE ST", "addr:postcode": "49067", "addr:state": "MI", "brand": "USPS", "collection_times": "Mo-Fr 16:00; Sa 11:30", "name": "USPS COLLECTION BOX - PO LOBBY", "note": "ON 12/24 AND 12/31, THIS BOX MAY BE COLLECTED AS EARLY AS 12 NOON.", "ref": "4906700005"}, "type": "Feature"}
{"geometry": {"coordinates": [-85.4489853, 41.918744], "type": "Point"}, "id": "1Y1oWKaZXMm4X4hsDN7iDg5N1Eg=", "properties": {"@spider": "usps_collection_boxes", "addr:city": "NOTTAWA", "addr:country": "US", "addr:full": "25987 M 86 HWY", "addr:postcode": "49075", "addr:state": "MI", "brand": "USPS", "collection_times": "Mo-Fr 14:10; Sa 10:00", "name": "USPS COLLECTION BOX - BLUE BOX", "note": "ON 12/24 AND 12/31, THIS BOX MAY BE COLLECTED AS EARLY AS 12 NOON.", "ref": "4907500001"}, "type": "Feature"}
{"geometry": {"coordinates": [-85.449218, 41.918989], "type": "Point"}, "id": "zXYUSf3HujB0zknfPwDrcN_AUXE=", "properties": {"@spider": "usps_collection_boxes", "addr:city": "NOTTAWA", "addr:country": "US", "addr:full": "25987 M 86 HWY", "addr:postcode": "49075", "addr:state": "MI", "brand": "USPS", "collection_times": "Mo-Fr 12:00; Sa 10:00", "name": "USPS COLLECTION BOX - PO LOBBY", "ref": "4907500002"}, "type": "Feature"}
{"geometry": {"coordinates": [-85.4491601407, 41.9189822512], "type": "Point"}, "id": "52yfoepym-oEtXsac43K0aTzVl0=", "properties": {"@spider": "usps_collection_boxes", "addr:city": "NOTTAWA", "addr:country": "US", "addr:full": "25987 M 86 HWY", "addr:postcode": "49075", "addr:state": "MI", "brand": "USPS", "collection_times": "Mo-Fr 11:30", "name": "USPS COLLECTION BOX - PO LOBBY", "ref": "4907500003"}, "type": "Feature"}
{"geometry": {"coordinates": [-86.3834374, 42.18257], "type": "Point"}, "id": "ZR3aQOSbMd9fjumFjQbTF5vD1q0=", "properties": {"@spider": "usps_collection_boxes", "addr:city": "RIVERSIDE", "addr:country": "US", "addr:full": "3889 RIVERSIDE RD", "addr:postcode": "49084", "addr:state": "MI", "brand": "USPS", "collection_times": "Mo-Fr 14:10; Sa 09:30", "name": "USPS COLLECTION BOX - BLUE BOX", "note": "ON 12/24 AND 12/31, THIS BOX MAY BE COLLECTED AS EARLY AS 12 NOON.", "ref": "4908400001"}, "type": "Feature"}
{"geometry": {"coordinates": [-86.382699262, 42.183296635], "type": "Point"}, "id": "gI-I9Ia5ZKTGMBapJ_7tpHvN6ag=", "properties": {"@spider": "usps_collection_boxes", "addr:city": "RIVERSIDE", "addr:country": "US", "addr:full": "3889 RIVERSIDE RD", "addr:postcode": "49084", "addr:state": "MI", "brand": "USPS", "collection_times": "Mo-Fr 11:30; Sa 09:30", "name": "USPS COLLECTION BOX - PO LOBBY", "ref": "4908400002"}, "type": "Feature"}
{"geometry": {"coordinates": [-86.383505936, 42.182559251], "type": "Point"}, "id": "rZs--A3VIhNngtqB5XGEZkciX9k=", "properties": {"@spider": "usps_collection_boxes", "addr:city": "RIVERSIDE", "addr:country": "US", "addr:full": "3889 RIVERSIDE RD", "addr:postcode": "49084", "addr:state": "MI", "brand": "USPS", "collection_times": "Mo-Fr 11:00; Sa 09:00", "name": "USPS COLLECTION BOX - PO LOBBY", "ref": "4908400003"}, "type": "Feature"}
{"geometry": {"coordinates": [-86.4800677, 42.116588], "type": "Point"}, "id": "nfHuwEi7QkJTiDxgXvxK2QeEWmc=", "properties": {"@spider": "usps_collection_boxes", "addr:city": "SAINT JOSEPH", "addr:country": "US", "addr:full": "303 UPTON DR", "addr:postcode": "49085", "addr:state": "MI", "brand": "USPS", "collection_times": "Mo-Fr 13:30; Sa 12:00", "name": "USPS COLLECTION BOX - BLUE BOX", "note": "ON 12/24 AND 12/31, THIS BOX MAY BE COLLECTED AS EARLY AS 12 NOON.", "ref": "4908500008"}, "type": "Feature"}
{"geometry": {"coordinates": [-86.4832176, 42.108029], "type": "Point"}, "id": "wWVlIcb3ED7i8udmnB2h4WNl7jE=", "properties": {"@spider": "usps_collection_boxes", "addr:city": "SAINT JOSEPH", "addr:country": "US", "addr:full": "424 STATE ST", "addr:postcode": "49085", "addr:state": "MI", "brand": "USPS", "collection_times": "Mo-Sa 14:00", "name": "USPS COLLECTION BOX - BLUE BOX", "note": "ON 12/24 AND 12/31, THIS BOX MAY BE COLLECTED AS EARLY AS 12 NOON.", "ref": "4908500010"}, "type": "Feature"}
{"geometry": {"coordinates": [-86.4880217, 42.092701], "type": "Point"}, "id": "ohBN7uiNhJKU_Kw_l785Om0YLcw=", "properties": {"@spider": "usps_collection_boxes", "addr:city": "SAINT JOSEPH", "addr:country": "US", "addr:full": "2214 S STATE ST", "addr:postcode": "49085", "addr:state": "MI", "brand": "USPS", "collection_times": "Mo-Sa 13:00", "name": "USPS COLLECTION BOX - BLUE BOX", "note": "ON 12/24 AND 12/31, THIS BOX MAY BE COLLECTED AS EARLY AS 12 NOON.", "ref": "4908500020"}, "type": "Feature"}
{"geometry": {"coordinates": [-86.4814892, 42.085453], "type": "Point"}, "id": "jpMkZ9fUhqaSuez5OaCO8SDwD0E=", "properties": {"@spider": "usps_collection_boxes", "addr:city": "SAINT JOSEPH", "addr:country": "US", "addr:full": "2725 THAYER DR", "addr:postcode": "49085", "addr:state": "MI", "brand": "USPS", "collection_times": "Mo-Sa 11:00", "name": "USPS COLLECTION BOX - BLUE BOX", "ref": "4908500024"}, "type": "Feature"}
{"geometry": {"coordinates": [-86.477536, 42.089908], "type": "Point"}, "id": "4yMZszENnpROGmGJOG5AdxXgZNY=", "properties": {"@spider": "usps_collection_boxes", "addr:city": "SAINT JOSEPH", "addr:country": "US", "addr:full": "1234 NAPIER AVE", "addr:postcode": "49085", "addr:state": "MI", "brand": "USPS", "collection_times": "Mo-Sa 14:00", "name": "USPS COLLECTION BOX - BLUE BOX", "note": "ON 12/24 AND 12/31, THIS BOX MAY BE COLLECTED AS EARLY AS 12 NOON.", "ref": "4908500026"}, "type": "Feature"}
{"geometry": {"coordinates": [-86.4958356, 42.083296], "type": "Point"}, "id": "UoZ2Z4PFRrvOa-EVhx3Plz0R20c=", "properties": {"@spider": "usps_collection_boxes", "addr:city": "SAINT JOSEPH", "addr:country": "US", "addr:full": "2850 CLEVELAND AVE", "addr:postcode": "49085", "addr:state": "MI", "brand": "USPS", "collection_times": "Mo-Sa 11:30", "name": "USPS COLLECTION BOX - BLUE BOX", "ref": "4908500028"}, "type": "Feature"}
{"geometry": {"coordinates": [-86.4966521, 42.087367], "type": "Point"}, "id": "yfk84VZh5mSvhSuYCesLSwIbmLw=", "properties": {"@spider": "usps_collection_boxes", "addr:city": "SAINT JOSEPH", "addr:country": "US", "addr:full": "2708 LAKESHORE DR", "addr:postcode": "49085", "addr:state": "MI", "brand": "USPS", "collection_times": "Mo-Fr 13:00; Sa 11:30", "name": "USPS COLLECTION BOX - BLUE BOX", "note": "ON 12/24 AND 12/31, THIS BOX MAY BE COLLECTED AS EARLY AS 12 NOON.", "ref": "4908500031"}, "type": "Feature"}
{"geometry": {"coordinates": [-86.4876031, 42.083465], "type": "Point"}, "id": "WIvoGkuLd2ntydozt5lKTibw4ds=", "properties": {"@spider": "usps_collection_boxes", "addr:city": "SAINT JOSEPH", "addr:country": "US", "addr:full": "714 MIDWAY AVE", "addr:postcode": "49085", "addr:state": "MI", "brand": "USPS", "collection_times": "Mo-Sa 14:00", "name": "USPS COLLECTION BOX - BLUE BOX", "note": "ON 12/24 AND 12/31, THIS BOX MAY BE COLLECTED AS EARLY AS 12 NOON.", "ref": "4908500033"}, "type": "Feature"}
{"geometry": {"coordinates": [-86.4840911123, 42.0907944885], "type": "Point"}, "id": "85mNZM88q9U6AHMvcryv-c7v7P0=", "properties": {"@spider": "usps_collection_boxes", "addr:city": "SAINT JOSEPH", "addr:country": "US", "addr:full": "810 NAPIER AVE", "addr:postcode": "49085", "addr:state": "MI", "brand": "USPS", "collection_times": "Mo-Sa 14:00", "name": "USPS COLLECTION BOX - BLUE BOX", "note": "ON 12/24 AND 12/31, THIS BOX MAY BE COLLECTED AS EARLY AS 12 NOON.", "ref": "4908500034"}, "type": "Feature"}
{"geometry": {"coordinates": [-86.4860252, 42.08414], "type": "Point"}, "id": "br2DO1bvQi-Eh0xJfIRMuuKkyxU=", "properties": {"@spider": "usps_collection_boxes", "addr:city": "SAINT JOSEPH", "addr:country": "US", "addr:full": "2830 NILES AVE", "addr:postcode": "49085", "addr:state": "MI", "brand": "USPS", "collection_times": "Mo-Sa 14:00", "name": "USPS COLLECTION BOX - BLUE BOX", "note": "ON 12/24 AND 12/31, THIS BOX MAY BE COLLECTED AS EARLY AS 12 NOON.", "ref": "4908500037"}, "type": "Feature"}
{"geometry": {"coordinates": [-86.4818979, 42.10963], "type": "Point"}, "id": "5wniZF5Viira_EYc8bDZJAfDwLs=", "properties": {"@spider": "usps_collection_boxes", "addr:city": "SAINT JOSEPH", "addr:country": "US", "addr:full": "519 PLEASANT ST", "addr:postcode": "49085", "addr:state": "MI", "brand": "USPS", "collection_times": "Mo-Sa 14:00", "name": "USPS COLLECTION BOX - BLUE BOX", "note": "ON 12/24 AND 12/31, THIS BOX MAY BE COLLECTED AS EARLY AS 12 NOON.", "ref": "4908500040"}, "type": "Feature"}
{"geometry": {"coordinates": [-86.4809294, 42.107961], "type": "Point"}, "id": "nMmYjvk1CIvRyO1mTSFhW5aIJxQ=", "properties": {"@spider": "usps_collection_boxes", "addr:city": "SAINT JOSEPH", "addr:country": "US", "addr:full": "700 BROAD ST", "addr:postcode": "49085", "addr:state": "MI", "brand": "USPS", "collection_times": "Mo-Sa 14:00", "name": "USPS COLLECTION BOX - BLUE BOX", "note": "ON 12/24 AND 12/31, THIS BOX MAY BE COLLECTED AS EARLY AS 12 NOON.", "ref": "4908500041"}, "type": "Feature"}
{"geometry": {"coordinates": [-86.4780152, 42.10948], "type": "Point"}, "id": "DIzzJ9PPwdNH75UuSwsURoIZiHs=", "properties": {"@spider": "usps_collection_boxes", "addr:city": "SAINT JOSEPH", "addr:country": "US", "addr:full": "811 SHIP ST", "addr:postcode": "49085", "addr:state": "MI", "brand": "USPS", "collection_times": "Mo-Fr 15:00; Sa 14:00", "name": "USPS COLLECTION BOX - BLUE BOX", "note": "ON 12/24 AND 12/31, THIS BOX MAY BE COLLECTED AS EARLY AS 12 NOON.", "ref": "4908500044"}, "type": "Feature"}
{"geometry": {"coordinates": [-86.4364074, 42.045085], "type": "Point"}, "id": "eDzn7xGfLZoUog98GOwt7ez9Tqs=", "properties": {"@spider": "usps_collection_boxes", "addr:city": "SAINT JOSEPH", "addr:country": "US", "addr:full": "4032 M 139", "addr:postcode": "49085", "addr:state": "MI", "brand": "USPS", "collection_times": "Mo-Sa 10:30", "name": "USPS COLLECTION BOX - BLUE BOX", "ref": "4908500045"}, "type": "Feature"}
{"geometry": {"coordinates": [-86.480013, 42.109752], "type": "Point"}, "id": "d4cNwH-Do23VmQ1iAY_eAvfinng=", "properties": {"@spider": "usps_collection_boxes", "addr:city": "SAINT JOSEPH", "addr:country": "US", "addr:full": "205 MAIN ST", "addr:postcode": "49085", "addr:state": "MI", "brand": "USPS", "collection_times": "Mo-Fr 15:25; Sa 12:30", "name": "USPS COLLECTION BOX - PO LOBBY", "note": "ON 12/24 AND 12/31, THIS BOX MAY BE COLLECTED AS EARLY AS 12 NOON.", "ref": "4908500046"}, "type": "Feature"}
{"geometry": {"coordinates": [-86.4798579, 42.109036], "type": "Point"}, "id": "1da-5mXwnrbRLh0vslpjitwGt2k=", "properties": {"@spider": "usps_collection_boxes", "addr:city": "SAINT JOSEPH", "addr:country": "US", "addr:full": "205 MAIN ST", "addr:postcode": "49085", "addr:state": "MI", "brand": "USPS", "collection_times": "Mo-Fr 15:25; Sa 13:25", "name": "USPS COLLECTION BOX - BLUE BOX", "note": "ON 12/24 AND 12/31, THIS BOX MAY BE COLLECTED AS EARLY AS 12 NOON.", "ref": "4908500049"}, "type": "Feature"}
{"geometry": {"coordinates": [-86.4994673, 42.080226], "type": "Point"}, "id": "GTvDT0rc85efWGC5R-I0zdH2WU8=", "properties": {"@spider": "usps_collection_boxes", "addr:city": "SAINT JOSEPH", "addr:country": "US", "addr:full": "211 HILLTOP RD", "addr:postcode": "49085", "addr:state": "MI", "brand": "USPS", "collection_times": "Mo-Sa 14:00", "name": "USPS COLLECTION BOX - BLUE BOX", "note": "ON 12/24 AND 12/31, THIS BOX MAY BE COLLECTED AS EARLY AS 12 NOON.", "ref": "4908500052"}, "type": "Feature"}
{"geometry": {"coordinates": [-86.4940352, 42.078832], "type": "Point"}, "id": "ZUQwOYZyH6V4OkZz7UNB3biqsCs=", "properties": {"@spider": "usps_collection_boxes", "addr:city": "SAINT JOSEPH", "addr:country": "US", "addr:full": "2121 S CLEVELAND AVE", "addr:postcode": "49085", "addr:state": "MI", "brand": "USPS", "collection_times": "Mo-Sa 14:00", "name": "USPS COLLECTION BOX - BLUE BOX", "note": "ON 12/24 AND 12/31, THIS BOX MAY BE COLLECTED AS EARLY AS 12 NOON.", "ref": "4908500054"}, "type": "Feature"}
{"geometry": {"coordinates": [-86.4839769, 42.078977], "type": "Point"}, "id": "r6qE9ALjM-IB4_S93JkgZNQtPBc=", "properties": {"@spider": "usps_collection_boxes", "addr:city": "SAINT JOSEPH", "addr:country": "US", "addr:full": "1260 HILLTOP RD", "addr:postcode": "49085", "addr:state": "MI", "brand": "USPS", "collection_times": "Mo-Fr 14:00", "name": "USPS COLLECTION BOX - BLUE BOX", "note": "ON 12/24 AND 12/31, THIS BOX MAY BE COLLECTED AS EARLY AS 12 NOON.", "ref": "4908500055"}, "type": "Feature"}
{"geometry": {"coordinates": [-86.4539023, 42.044601], "type": "Point"}, "id": "U6VaYHST_nCHubwZQEcxGJ8Rpbk=", "properties": {"@spider": "usps_collection_boxes", "addr:city": "SAINT JOSEPH", "addr:country": "US", "addr:full": "4039 HOLLYWOOD RD", "addr:postcode": "49085", "addr:state": "MI", "brand": "USPS", "collection_times": "Mo-Sa 09:30", "name": "USPS COLLECTION BOX - BLUE BOX", "ref": "4908500058"}, "type": "Feature"}
{"geometry": {"coordinates": [-86.480228276, 42.109447475], "type": "Point"}, "id": "RSDmzVxeSK_s4SqLtFrJZ5qovQM=", "properties": {"@spider": "usps_collection_boxes", "addr:city": "SAINT JOSEPH", "addr:country": "US", "addr:full": "205 MAIN ST", "addr:postcode": "49085", "addr:state": "MI", "brand": "USPS", "collection_times": "Mo-Fr 15:00; Sa 12:00", "name": "USPS COLLECTION BOX - PO LOBBY", "note": "ON 12/24 AND 12/31, THIS BOX MAY BE COLLECTED AS EARLY AS 12 NOON.", "ref": "4908500060"}, "type": "Feature"}
{"geometry": {"coordinates": [-86.271139712, 42.402555], "type": "Point"}, "id": "ZtdodIdSZjgTmNFzTSo3wew01lw=", "properties": {"@spider": "usps_collection_boxes", "addr:city": "SOUTH HAVEN", "addr:country": "US", "addr:full": "336 BROADWAY ST", "addr:postcode": "49090", "addr:state": "MI", "brand": "USPS", "collection_times": "Mo-Fr 15:45; Sa 12:00", "name": "USPS COLLECTION BOX - BLUE BOX", "note": "ON 12/24 AND 12/31, THIS BOX MAY BE COLLECTED AS EARLY AS 12 NOON.", "ref": "4909000004"}, "type": "Feature"}
{"geometry": {"coordinates": [-86.271139712, 42.402555], "type": "Point"}, "id": "PQAXzcnVj9eynunsuGP4_Bla7mk=", "properties": {"@spider": "usps_collection_boxes", "addr:city": "SOUTH HAVEN", "addr:country": "US", "addr:full": "336 BROADWAY ST", "addr:postcode": "49090", "addr:state": "MI", "brand": "USPS", "collection_times": "Mo-Fr 15:45; Sa 12:00", "name": "USPS COLLECTION BOX - PO LOBBY", "note": "ON 12/24 AND 12/31, THIS BOX MAY BE COLLECTED AS EARLY AS 12 NOON.", "ref": "4909000010"}, "type": "Feature"}
{"geometry": {"coordinates": [-86.2741096, 42.403341], "type": "Point"}, "id": "1Uk7hEQ-bLoDffkOEU8lkbM6zas=", "properties": {"@spider": "usps_collection_boxes", "addr:city": "SOUTH HAVEN", "addr:country": "US", "addr:full": "433 PHOENIX ST", "addr:postcode": "49090", "addr:state": "MI", "brand": "USPS", "collection_times": "Mo-Fr 14:15; Sa 12:00", "name": "USPS COLLECTION BOX - BLUE BOX", "note": "ON 12/24 AND 12/31, THIS BOX MAY BE COLLECTED AS EARLY AS 12 NOON.", "ref": "4909000012"}, "type": "Feature"}
{"geometry": {"coordinates": [-86.268527, 42.387254], "type": "Point"}, "id": "eGpld0BS6vybbCEp491rH_MNxgQ=", "properties": {"@spider": "usps_collection_boxes", "addr:city": "SOUTH HAVEN", "addr:country": "US", "addr:full": "08337 M 140", "addr:postcode": "49090", "addr:state": "MI", "brand": "USPS", "collection_times": "Mo-Sa 10:00", "name": "USPS COLLECTION BOX - BLUE BOX", "ref": "4909000014"}, "type": "Feature"}
{"geometry": {"coordinates": [-86.271139712, 42.402555], "type": "Point"}, "id": "LgVc3VaS_I9itdHrHJgQThAe9rk=", "properties": {"@spider": "usps_collection_boxes", "addr:city": "SOUTH HAVEN", "addr:country": "US", "addr:full": "336 BROADWAY ST", "addr:postcode": "49090", "addr:state": "MI", "brand": "USPS", "collection_times": "Mo-Fr 17:00; Sa 13:30", "name": "USPS COLLECTION BOX - PO LOBBY", "note": "ON 12/24 AND 12/31, THIS BOX MAY BE COLLECTED AS EARLY AS 12 NOON.", "ref": "4909000016"}, "type": "Feature"}
{"geometry": {"coordinates": [-85.4276261, 41.781616], "type": "Point"}, "id": "_2Wz11BxjseHE5kSfsZttc36rh8=", "properties": {"@spider": "usps_collection_boxes", "addr:city": "STURGIS", "addr:country": "US", "addr:full": "27010 FAWN RIVER RD", "addr:postcode": "49091", "addr:state": "MI", "brand": "USPS", "collection_times": "Mo-Sa 11:00", "name": "USPS COLLECTION BOX - BLUE BOX", "ref": "4909100001"}, "type": "Feature"}
{"geometry": {"coordinates": [-85.4185116, 41.81523], "type": "Point"}, "id": "T-nErRooqPtH05tYwyTcwxYmlvk=", "properties": {"@spider": "usps_collection_boxes", "addr:city": "STURGIS", "addr:country": "US", "addr:full": "67699 N M 66", "addr:postcode": "49091", "addr:state": "MI", "brand": "USPS", "collection_times": "Mo-Sa 12:30", "name": "USPS COLLECTION BOX - BLUE BOX", "note": "ON 12/24 AND 12/31, THIS BOX MAY BE COLLECTED AS EARLY AS 12 NOON.", "ref": "4909100003"}, "type": "Feature"}
{"geometry": {"coordinates": [-85.4302999, 41.789709], "type": "Point"}, "id": "O90IJ87zvZaUMTxM-CjoZPIrk0E=", "properties": {"@spider": "usps_collection_boxes", "addr:city": "STURGIS", "addr:country": "US", "addr:full": "815 S CENTERVILLE RD", "addr:postcode": "49091", "addr:state": "MI", "brand": "USPS", "collection_times": "Mo-Sa 13:30", "name": "USPS COLLECTION BOX - BLUE BOX", "note": "ON 12/24 AND 12/31, THIS BOX MAY BE COLLECTED AS EARLY AS 12 NOON.", "ref": "4909100008"}, "type": "Feature"}
{"geometry": {"coordinates": [-85.4000945, 41.801087], "type": "Point"}, "id": "EmlAuOCtNT9bvACj6RL7vsTTQ_I=", "properties": {"@spider": "usps_collection_boxes", "addr:city": "STURGIS", "addr:country": "US", "addr:full": "1517 E CHICAGO RD", "addr:postcode": "49091", "addr:state": "MI", "brand": "USPS", "collection_times": "Mo-Sa 13:30", "name": "USPS COLLECTION BOX - BLUE BOX", "note": "ON 12/24 AND 12/31, THIS BOX MAY BE COLLECTED AS EARLY AS 12 NOON.", "ref": "4909100018"}, "type": "Feature"}
{"geometry": {"coordinates": [-85.4070263, 41.794546], "type": "Point"}, "id": "VkTgB_833FILZfGQwuhObAj7W4E=", "properties": {"@spider": "usps_collection_boxes", "addr:city": "STURGIS", "addr:country": "US", "addr:full": "916 MYRTLE ST", "addr:postcode": "49091", "addr:state": "MI", "brand": "USPS", "collection_times": "Mo-Sa 11:30", "name": "USPS COLLECTION BOX - BLUE BOX", "ref": "4909100022"}, "type": "Feature"}
{"geometry": {"coordinates": [-85.418325, 41.79937], "type": "Point"}, "id": "v5oEkvtFYx0wbSFCCPO4GyU7QBU=", "properties": {"@spider": "usps_collection_boxes", "addr:city": "STURGIS", "addr:country": "US", "addr:full": "124 E CHICAGO RD", "addr:postcode": "49091", "addr:state": "MI", "brand": "USPS", "collection_times": "Mo-Sa 15:55", "name": "USPS COLLECTION BOX - PO LOBBY", "note": "ON 12/24 AND 12/31, THIS BOX MAY BE COLLECTED AS EARLY AS 12 NOON.", "ref": "4909100033"}, "type": "Feature"}
{"geometry": {"coordinates": [-85.4274089, 41.783531], "type": "Point"}, "id": "soX2r9v87h_mmkR8iirUlx60Dcg=", "properties": {"@spider": "usps_collection_boxes", "addr:city": "STURGIS", "addr:country": "US", "addr:full": "1500 S CENTERVILLE RD", "addr:postcode": "49091", "addr:state": "MI", "brand": "USPS", "collection_times": "Mo-Sa 13:30", "name": "USPS COLLECTION BOX - BLUE BOX", "note": "ON 12/24 AND 12/31, THIS BOX MAY BE COLLECTED AS EARLY AS 12 NOON.", "ref": "4909100034"}, "type": "Feature"}
{"geometry": {"coordinates": [-85.418381, 41.799336], "type": "Point"}, "id": "R0co4sZu2HXaqUL9lSItqfn9Flk=", "properties": {"@spider": "usps_collection_boxes", "addr:city": "STURGIS", "addr:country": "US", "addr:full": "124 E CHICAGO RD", "addr:postcode": "49091", "addr:state": "MI", "brand": "USPS", "collection_times": "Mo-Sa 15:55", "name": "USPS COLLECTION BOX - BLUE BOX", "note": "ON 12/24 AND 12/31, THIS BOX MAY BE COLLECTED AS EARLY AS 12 NOON.", "ref": "4909100035"}, "type": "Feature"}
{"geometry": {"coordinates": [-85.418381, 41.799336], "type": "Point"}, "id": "ZKbwN1P_iM1fhHZNCY8Noa0M_CI=", "properties": {"@spider": "usps_collection_boxes", "addr:city": "STURGIS", "addr:country": "US", "addr:full": "124 E CHICAGO RD", "addr:postcode": "49091", "addr:state": "MI", "brand": "USPS", "collection_times": "Mo-Sa 15:55", "name": "USPS COLLECTION BOX - BLUE BOX", "note": "ON 12/24 AND 12/31, THIS BOX MAY BE COLLECTED AS EARLY AS 12 NOON.", "ref": "4909100036"}, "type": "Feature"}
{"geometry": {"coordinates": [-85.417846061, 41.799409373], "type": "Point"}, "id": "_QHhTkf291WN7ciTpGYeSSXf2c4=", "properties": {"@spider": "usps_collection_boxes", "addr:city": "STURGIS", "addr:country": "US", "addr:full": "124 E CHICAGO RD", "addr:postcode": "49091", "addr:state": "MI", "brand": "USPS", "collection_times": "Mo-Fr 16:00; Sa 11:30", "name": "USPS COLLECTION BOX - PO LOBBY", "note": "ON 12/24 AND 12/31, THIS BOX MAY BE COLLECTED AS EARLY AS 12 NOON.", "ref": "4909100037"}, "type": "Feature"}
{"geometry": {"coordinates": [-85.6541513, 41.934201], "type": "Point"}, "id": "dKJixvvvlrzUsimISPeIK_ISXAY=", "properties": {"@spider": "usps_collection_boxes", "addr:city": "THREE RIVERS", "addr:country": "US", "addr:full": "800 S US 131", "addr:postcode": "49093", "addr:state": "MI", "brand": "USPS", "collection_times": "Mo-Sa 15:00", "name": "USPS COLLECTION BOX - BLUE BOX", "note": "ON 12/24 AND 12/31, THIS BOX MAY BE COLLECTED AS EARLY AS 12 NOON.", "ref": "4909300001"}, "type": "Feature"}
{"geometry": {"coordinates": [-85.634651, 41.946021], "type": "Point"}, "id": "COL2IVd3uvLipGFkE_KnINWkiko=", "properties": {"@spider": "usps_collection_boxes", "addr:city": "THREE RIVERS", "addr:country": "US", "addr:full": "100 N MAIN ST", "addr:postcode": "49093", "addr:state": "MI", "brand": "USPS", "collection_times": "Mo-Sa 16:30", "name": "USPS COLLECTION BOX - BLUE BOX", "note": "ON 12/24 AND 12/31, THIS BOX MAY BE COLLECTED AS EARLY AS 12 NOON.", "ref": "4909300002"}, "type": "Feature"}
{"geometry": {"coordinates": [-85.634651, 41.946021], "type": "Point"}, "id": "zgpUp22SmF2QHTAT83HRhW6OA4g=", "properties": {"@spider": "usps_collection_boxes", "addr:city": "THREE RIVERS", "addr:country": "US", "addr:full": "100 N MAIN ST", "addr:postcode": "49093", "addr:state": "MI", "brand": "USPS", "collection_times": "Mo-Sa 16:30", "name": "USPS COLLECTION BOX - BLUE BOX", "note": "ON 12/24 AND 12/31, THIS BOX MAY BE COLLECTED AS EARLY AS 12 NOON.", "ref": "4909300003"}, "type": "Feature"}
{"geometry": {"coordinates": [-85.634651, 41.946021], "type": "Point"}, "id": "rspmCJmrVqAAfDtrOXc37UGJrfw=", "properties": {"@spider": "usps_collection_boxes", "addr:city": "THREE RIVERS", "addr:country": "US", "addr:full": "100 N MAIN ST", "addr:postcode": "49093", "addr:state": "MI", "brand": "USPS", "collection_times": "Mo-Sa 16:30", "name": "USPS COLLECTION BOX - BLUE BOX", "note": "ON 12/24 AND 12/31, THIS BOX MAY BE COLLECTED AS EARLY AS 12 NOON.", "ref": "4909300004"}, "type": "Feature"}
{"geometry": {"coordinates": [-85.634651, 41.946021], "type": "Point"}, "id": "Wm5iBq77LL0sNBohmd1WGabNvzA=", "properties": {"@spider": "usps_collection_boxes", "addr:city": "THREE RIVERS", "addr:country": "US", "addr:full": "100 N MAIN ST", "addr:postcode": "49093", "addr:state": "MI", "brand": "USPS", "collection_times": "Mo-Sa 16:30", "name": "USPS COLLECTION BOX - BLUE BOX", "note": "ON 12/24 AND 12/31, THIS BOX MAY BE COLLECTED AS EARLY AS 12 NOON.", "ref": "4909300005"}, "type": "Feature"}
{"geometry": {"coordinates": [-85.6474868, 41.935022], "type": "Point"}, "id": "jQwLyVKNVX_kjxsptVHSLB94uF8=", "properties": {"@spider": "usps_collection_boxes", "addr:city": "THREE RIVERS", "addr:country": "US", "addr:full": "701 S HEALTH PARKWAY", "addr:postcode": "49093", "addr:state": "MI", "brand": "USPS", "collection_times": "Mo-Sa 14:00", "name": "USPS COLLECTION BOX - BLUE BOX", "note": "ON 12/24 AND 12/31, THIS BOX MAY BE COLLECTED AS EARLY AS 12 NOON.", "ref": "4909300007"}, "type": "Feature"}
{"geometry": {"coordinates": [-85.6494738, 41.944489], "type": "Point"}, "id": "hJrpbsvyNE65E7p6CTJLlz2tmTU=", "properties": {"@spider": "usps_collection_boxes", "addr:city": "THREE RIVERS", "addr:country": "US", "addr:full": "209 N US HIGHWAY 131", "addr:postcode": "49093", "addr:state": "MI", "brand": "USPS", "collection_times": "Mo-Sa 14:30", "name": "USPS COLLECTION BOX - BLUE BOX", "note": "ON 12/24 AND 12/31, THIS BOX MAY BE COLLECTED AS EARLY AS 12 NOON.", "ref": "4909300008"}, "type": "Feature"}
{"geometry": {"coordinates": [-85.6423155, 41.942243], "type": "Point"}, "id": "Bddny_u7f3hP3QtUA0Y0iNbzbE8=", "properties": {"@spider": "usps_collection_boxes", "addr:city": "THREE RIVERS", "addr:country": "US", "addr:full": "808 W MICHIGAN AVE", "addr:postcode": "49093", "addr:state": "MI", "brand": "USPS", "collection_times": "Mo-Sa 14:30", "name": "USPS COLLECTION BOX - BLUE BOX", "note": "ON 12/24 AND 12/31, THIS BOX MAY BE COLLECTED AS EARLY AS 12 NOON.", "ref": "4909300010"}, "type": "Feature"}
{"geometry": {"coordinates": [-85.634651, 41.946021], "type": "Point"}, "id": "SIKuL8O7I7ZvQWVJa106KOMSkxg=", "properties": {"@spider": "usps_collection_boxes", "addr:city": "THREE RIVERS", "addr:country": "US", "addr:full": "100 N MAIN ST", "addr:postcode": "49093", "addr:state": "MI", "brand": "USPS", "collection_times": "Mo-Sa 16:30", "name": "USPS COLLECTION BOX - PO LOBBY", "note": "ON 12/24 AND 12/31, THIS BOX MAY BE COLLECTED AS EARLY AS 12 NOON.", "ref": "4909300013"}, "type": "Feature"}
{"geometry": {"coordinates": [-85.6558018, 41.942263], "type": "Point"}, "id": "J_vHARhi1TqvtyfBfG163R2OwmY=", "properties": {"@spider": "usps_collection_boxes", "addr:city": "THREE RIVERS", "addr:country": "US", "addr:full": "101 S TOLBERT DR", "addr:postcode": "49093", "addr:state": "MI", "brand": "USPS", "collection_times": "Mo-Sa 14:45", "name": "USPS COLLECTION BOX - BLUE BOX", "note": "ON 12/24 AND 12/31, THIS BOX MAY BE COLLECTED AS EARLY AS 12 NOON.", "ref": "4909300015"}, "type": "Feature"}
{"geometry": {"coordinates": [-85.6346899215, 41.9462417669], "type": "Point"}, "id": "CrZu5MxqxdK8bxBS5OyGtydBnXg=", "properties": {"@spider": "usps_collection_boxes", "addr:city": "THREE RIVERS", "addr:country": "US", "addr:full": "100 N MAIN ST", "addr:postcode": "49093", "addr:state": "MI", "brand": "USPS", "collection_times": "Mo-Fr 16:00; Sa 11:00", "name": "USPS COLLECTION BOX - PO LOBBY", "note": "ON 12/24 AND 12/31, THIS BOX MAY BE COLLECTED AS EARLY AS 12 NOON.", "ref": "4909300016"}, "type": "Feature"}
{"geometry": {"coordinates": [-85.911838, 41.916983], "type": "Point"}, "id": "pXBq1JYQr782rEHrXeTDXH4s0mc=", "properties": {"@spider": "usps_collection_boxes", "addr:city": "VANDALIA", "addr:country": "US", "addr:full": "17899 MILL ST", "addr:postcode": "49095", "addr:state": "MI", "brand": "USPS", "collection_times": "Mo-Fr 15:45; Sa 10:30", "name": "USPS COLLECTION BOX - BLUE BOX", "note": "ON 12/24 AND 12/31, THIS BOX MAY BE COLLECTED AS EARLY AS 12 NOON.", "ref": "4909500001"}, "type": "Feature"}
{"geometry": {"coordinates": [-85.911838, 41.916983], "type": "Point"}, "id": "18jUNkWGSKa-1wPj8G5CVI_wgNM=", "properties": {"@spider": "usps_collection_boxes", "addr:city": "VANDALIA", "addr:country": "US", "addr:full": "17899 MILL ST", "addr:postcode": "49095", "addr:state": "MI", "brand": "USPS", "collection_times": "Mo-Fr 15:45; Sa 10:30", "name": "USPS COLLECTION BOX - PO LOBBY", "note": "ON 12/24 AND 12/31, THIS BOX MAY BE COLLECTED AS EARLY AS 12 NOON.", "ref": "4909500002"}, "type": "Feature"}
{"geometry": {"coordinates": [-85.912290168, 41.916976514], "type": "Point"}, "id": "Ytj73rCqtLcq1U9e_aP3BovpEjg=", "properties": {"@spider": "usps_collection_boxes", "addr:city": "VANDALIA", "addr:country": "US", "addr:full": "17899 MILL ST", "addr:postcode": "49095", "addr:state": "MI", "brand": "USPS", "collection_times": "Mo-Fr 15:15; Sa 10:00", "name": "USPS COLLECTION BOX - PO LOBBY", "note": "ON 12/24 AND 12/31, THIS BOX MAY BE COLLECTED AS EARLY AS 12 NOON.", "ref": "4909500003"}, "type": "Feature"}
{"geometry": {"coordinates": [-86.263991, 42.188136], "type": "Point"}, "id": "1Va7Pmbe6ll77w8Lr65nY_i1KSg=", "properties": {"@spider": "usps_collection_boxes", "addr:city": "WATERVLIET", "addr:country": "US", "addr:full": "342 W PLEASANT ST", "addr:postcode": "49098", "addr:state": "MI", "brand": "USPS", "collection_times": "Mo-Fr 15:35; Sa 12:15", "name": "USPS COLLECTION BOX - BLUE BOX", "note": "ON 12/24 AND 12/31, THIS BOX MAY BE COLLECTED AS EARLY AS 12 NOON.", "ref": "4909800002"}, "type": "Feature"}
{"geometry": {"coordinates": [-86.2602614, 42.188703], "type": "Point"}, "id": "_7_LDxH3BtgrlsLeBg5r0-AhKpA=", "properties": {"@spider": "usps_collection_boxes", "addr:city": "WATERVLIET", "addr:country": "US", "addr:full": "323 N MAIN ST", "addr:postcode": "49098", "addr:state": "MI", "brand": "USPS", "collection_times": "Mo-Sa 12:00", "name": "USPS COLLECTION BOX - BLUE BOX", "ref": "4909800003"}, "type": "Feature"}
{"geometry": {"coordinates": [-86.263991, 42.188136], "type": "Point"}, "id": "RPfXR0rj0QkcVN9pFBnaJi5XUFk=", "properties": {"@spider": "usps_collection_boxes", "addr:city": "WATERVLIET", "addr:country": "US", "addr:full": "342 W PLEASANT ST", "addr:postcode": "49098", "addr:state": "MI", "brand": "USPS", "collection_times": "Mo-Fr 15:35; Sa 12:15", "name": "USPS COLLECTION BOX - PO LOBBY", "note": "ON 12/24 AND 12/31, THIS BOX MAY BE COLLECTED AS EARLY AS 12 NOON.", "ref": "4909800004"}, "type": "Feature"}
{"geometry": {"coordinates": [-86.263991916, 42.188131464], "type": "Point"}, "id": "AnRduup7xS_TFTBcU5PQofTyAYU=", "properties": {"@spider": "usps_collection_boxes", "addr:city": "WATERVLIET", "addr:country": "US", "addr:full": "342 W PLEASANT ST", "addr:postcode": "49098", "addr:state": "MI", "brand": "USPS", "collection_times": "Mo-Fr 16:30; Sa 11:30", "name": "USPS COLLECTION BOX - PO LOBBY", "note": "ON 12/24 AND 12/31, THIS BOX MAY BE COLLECTED AS EARLY AS 12 NOON.", "ref": "4909800005"}, "type": "Feature"}
{"geometry": {"coordinates": [-85.7397276, 41.798821], "type": "Point"}, "id": "QMrh1bOaS0MNdfea3nE4NXe1TO8=", "properties": {"@spider": "usps_collection_boxes", "addr:city": "WHITE PIGEON", "addr:country": "US", "addr:full": "11028 US HIGHWAY 12", "addr:postcode": "49099", "addr:state": "MI", "brand": "USPS", "collection_times": "Mo-Sa 11:00", "name": "USPS COLLECTION BOX - BLUE BOX", "ref": "4909900001"}, "type": "Feature"}
{"geometry": {"coordinates": [-85.643238, 41.798831], "type": "Point"}, "id": "QHQ5yiY0BB5N8H55gkUrisd1wvk=", "properties": {"@spider": "usps_collection_boxes", "addr:city": "WHITE PIGEON", "addr:country": "US", "addr:full": "107 N KALAMAZOO ST", "addr:postcode": "49099", "addr:state": "MI", "brand": "USPS", "collection_times": "Mo-Fr 16:05; Sa 12:00", "name": "USPS COLLECTION BOX - PO LOBBY", "note": "ON 12/24 AND 12/31, THIS BOX MAY BE COLLECTED AS EARLY AS 12 NOON.", "ref": "4909900010"}, "type": "Feature"}
{"geometry": {"coordinates": [-85.643238, 41.798831], "type": "Point"}, "id": "C0fTIjnQO_QcLWpJ2ISms1sPkrc=", "properties": {"@spider": "usps_collection_boxes", "addr:city": "WHITE PIGEON", "addr:country": "US", "addr:full": "107 N KALAMAZOO ST", "addr:postcode": "49099", "addr:state": "MI", "brand": "USPS", "collection_times": "Mo-Fr 16:05; Sa 11:30", "name": "USPS COLLECTION BOX - BLUE BOX", "note": "ON 12/24 AND 12/31, THIS BOX MAY BE COLLECTED AS EARLY AS 12 NOON.", "ref": "4909900012"}, "type": "Feature"}
{"geometry": {"coordinates": [-85.643240812, 41.798827729], "type": "Point"}, "id": "_kbxoEJnzqpnAsYO0VUfSUpsT9Q=", "properties": {"@spider": "usps_collection_boxes", "addr:city": "WHITE PIGEON", "addr:country": "US", "addr:full": "107 N KALAMAZOO ST", "addr:postcode": "49099", "addr:state": "MI", "brand": "USPS", "collection_times": "Mo-Fr 15:30; Sa 11:30", "name": "USPS COLLECTION BOX - PO LOBBY", "note": "ON 12/24 AND 12/31, THIS BOX MAY BE COLLECTED AS EARLY AS 12 NOON.", "ref": "4909900014"}, "type": "Feature"}
