{"dataset_attributes": {"@spider": "usps_collection_boxes", "spider:collection_time": "2023-11-19T08:23:43.397954"}, "geometry": {"coordinates": [-86.4866, 41.955173], "type": "Point"}, "id": "vK14y1pXt1r0TXmMd3sNG29VfAU=", "properties": {"@spider": "usps_collection_boxes", "addr:city": "BARODA", "addr:country": "US", "addr:full": "1368 SOUTH ST", "addr:postcode": "49101", "addr:state": "MI", "amenity": "post_box", "brand": "United States Postal Service", "brand:wikidata": "Q668687", "collection_times": "Mo-Fr 14:20; Sa 11:45", "name": "USPS COLLECTION BOX - BLUE BOX", "note": "ON 12/24 AND 12/31, THIS BOX MAY BE COLLECTED AS EARLY AS 12 NOON.", "nsi_id": "unitedstatespostalservice-a77078", "operator": "United States Postal Service", "operator:short": "USPS", "operator:type": "public", "operator:wikidata": "Q668687", "ref": "4910100001"}, "type": "Feature"}
{"dataset_attributes": {"@spider": "usps_collection_boxes", "spider:collection_time": "2023-11-19T08:23:43.397954"}, "geometry": {"coordinates": [-86.4866, 41.955173], "type": "Point"}, "id": "X2KqyBAFlgSmaZxN5rXQlenf9io=", "properties": {"@spider": "usps_collection_boxes", "addr:city": "BARODA", "addr:country": "US", "addr:full": "1368 SOUTH ST", "addr:postcode": "49101", "addr:state": "MI", "amenity": "post_box", "brand": "United States Postal Service", "brand:wikidata": "Q668687", "collection_times": "Mo-Fr 14:20; Sa 11:45", "name": "USPS COLLECTION BOX - PO LOBBY", "note": "ON 12/24 AND 12/31, THIS BOX MAY BE COLLECTED AS EARLY AS 12 NOON.", "nsi_id": "unitedstatespostalservice-a77078", "operator": "United States Postal Service", "operator:short": "USPS", "operator:type": "public", "operator:wikidata": "Q668687", "ref": "4910100003"}, "type": "Feature"}
{"dataset_attributes": {"@spider": "usps_collection_boxes", "spider:collection_time": "2023-11-19T08:23:43.397954"}, "geometry": {"coordinates": [-86.4866025, 41.955167474], "type": "Point"}, "id": "9rXaMQVTugD2IJ8ZGn4_Wd1cno0=", "properties": {"@spider": "usps_collection_boxes", "addr:city": "BARODA", "addr:country": "US", "addr:full": "1368 SOUTH ST", "addr:postcode": "49101", "addr:state": "MI", "amenity": "post_box", "brand": "United States Postal Service", "brand:wikidata": "Q668687", "collection_times": "Mo-Fr 14:20; Sa 11:00", "name": "USPS COLLECTION BOX - PO LOBBY", "note": "ON 12/24 AND 12/31, THIS BOX MAY BE COLLECTED AS EARLY AS 12 NOON.", "nsi_id": "unitedstatespostalservice-a77078", "operator": "United States Postal Service", "operator:short": "USPS", "operator:type": "public", "operator:wikidata": "Q668687", "ref": "4910100004"}, "type": "Feature"}
{"dataset_attributes": {"@spider": "usps_collection_boxes", "spider:collection_time": "2023-11-19T08:23:43.397954"}, "geometry": {"coordinates": [-86.2766716, 41.956905], "type": "Point"}, "id": "6Xci19CRoJBj9bM4SqVMBLCut8s=", "properties": {"@spider": "usps_collection_boxes", "addr:city": "BERRIEN CENTER", "addr:country": "US", "addr:full": "8916 M 140", "addr:postcode": "49102", "addr:state": "MI", "amenity": "post_box", "brand": "United States Postal Service", "brand:wikidata": "Q668687", "collection_times": "Mo-Sa 10:00", "name": "USPS COLLECTION BOX - BLUE BOX", "nsi_id": "unitedstatespostalservice-a77078", "operator": "United States Postal Service", "operator:short": "USPS", "operator:type": "public", "operator:wikidata": "Q668687", "ref": "4910200003"}, "type": "Feature"}
{"dataset_attributes": {"@spider": "usps_collection_boxes", "spider:collection_time": "2023-11-19T08:23:43.397954"}, "geometry": {"coordinates": [-86.3382968, 41.947491], "type": "Point"}, "id": "PIN_vGLhv05hmNIzy7UhtENhy3I=", "properties": {"@spider": "usps_collection_boxes", "addr:city": "BERRIEN SPRINGS", "addr:country": "US", "addr:full": "115 N MAIN ST", "addr:postcode": "49103", "addr:state": "MI", "amenity": "post_box", "brand": "United States Postal Service", "brand:wikidata": "Q668687", "collection_times": "Mo-Sa 14:15", "name": "USPS COLLECTION BOX - BLUE BOX", "note": "ON 12/24 AND 12/31, THIS BOX MAY BE COLLECTED AS EARLY AS 12 NOON.", "nsi_id": "unitedstatespostalservice-a77078", "operator": "United States Postal Service", "operator:short": "USPS", "operator:type": "public", "operator:wikidata": "Q668687", "ref": "4910300003"}, "type": "Feature"}
{"dataset_attributes": {"@spider": "usps_collection_boxes", "spider:collection_time": "2023-11-19T08:23:43.397954"}, "geometry": {"coordinates": [-86.33865, 41.948022], "type": "Point"}, "id": "Wrq0MwhU3vnkqrbCpGLX-20m1eI=", "properties": {"@spider": "usps_collection_boxes", "addr:city": "BERRIEN SPRINGS", "addr:country": "US", "addr:full": "204 N MAIN ST", "addr:postcode": "49103", "addr:state": "MI", "amenity": "post_box", "brand": "United States Postal Service", "brand:wikidata": "Q668687", "collection_times": "Mo-Sa 14:15", "name": "USPS COLLECTION BOX - BLUE BOX", "note": "ON 12/24 AND 12/31, THIS BOX MAY BE COLLECTED AS EARLY AS 12 NOON.", "nsi_id": "unitedstatespostalservice-a77078", "operator": "United States Postal Service", "operator:short": "USPS", "operator:type": "public", "operator:wikidata": "Q668687", "ref": "4910300007"}, "type": "Feature"}
{"dataset_attributes": {"@spider": "usps_collection_boxes", "spider:collection_time": "2023-11-19T08:23:43.397954"}, "geometry": {"coordinates": [-86.3546759, 41.955496], "type": "Point"}, "id": "O-nUhI6kpc0QG0H6ZWtXKMRq-Rg=", "properties": {"@spider": "usps_collection_boxes", "addr:city": "BERRIEN SPRINGS", "addr:country": "US", "addr:full": "9067 US HIGHWAY 31", "addr:postcode": "49103", "addr:state": "MI", "amenity": "post_box", "brand": "United States Postal Service", "brand:wikidata": "Q668687", "collection_times": "Mo-Sa 14:00", "name": "USPS COLLECTION BOX - BLUE BOX", "note": "ON 12/24 AND 12/31, THIS BOX MAY BE COLLECTED AS EARLY AS 12 NOON.", "nsi_id": "unitedstatespostalservice-a77078", "operator": "United States Postal Service", "operator:short": "USPS", "operator:type": "public", "operator:wikidata": "Q668687", "ref": "4910300012"}, "type": "Feature"}
{"dataset_attributes": {"@spider": "usps_collection_boxes", "spider:collection_time": "2023-11-19T08:23:43.397954"}, "geometry": {"coordinates": [-86.3555986, 41.96373], "type": "Point"}, "id": "YVdk6eby8e3C4VPEaPJbjYeMe1A=", "properties": {"@spider": "usps_collection_boxes", "addr:city": "BERRIEN SPRINGS", "addr:country": "US", "addr:full": "500 GROVE AVE", "addr:postcode": "49103", "addr:state": "MI", "amenity": "post_box", "brand": "United States Postal Service", "brand:wikidata": "Q668687", "collection_times": "Mo-Sa 14:00", "name": "USPS COLLECTION BOX - BLUE BOX", "note": "ON 12/24 AND 12/31, THIS BOX MAY BE COLLECTED AS EARLY AS 12 NOON.", "nsi_id": "unitedstatespostalservice-a77078", "operator": "United States Postal Service", "operator:short": "USPS", "operator:type": "public", "operator:wikidata": "Q668687", "ref": "4910300014"}, "type": "Feature"}
{"dataset_attributes": {"@spider": "usps_collection_boxes", "spider:collection_time": "2023-11-19T08:23:43.397954"}, "geometry": {"coordinates": [-86.3383998, 41.947534], "type": "Point"}, "id": "NnCL0uaKHBu520u12OMXHu-DHG8=", "properties": {"@spider": "usps_collection_boxes", "addr:city": "BERRIEN SPRINGS", "addr:country": "US", "addr:full": "115 N MAIN ST", "addr:postcode": "49103", "addr:state": "MI", "amenity": "post_box", "brand": "United States Postal Service", "brand:wikidata": "Q668687", "collection_times": "Mo-Sa 14:15", "name": "USPS COLLECTION BOX - PO LOBBY", "note": "ON 12/24 AND 12/31, THIS BOX MAY BE COLLECTED AS EARLY AS 12 NOON.", "nsi_id": "unitedstatespostalservice-a77078", "operator": "United States Postal Service", "operator:short": "USPS", "operator:type": "public", "operator:wikidata": "Q668687", "ref": "4910300015"}, "type": "Feature"}
{"dataset_attributes": {"@spider": "usps_collection_boxes", "spider:collection_time": "2023-11-19T08:23:43.397954"}, "geometry": {"coordinates": [-86.337816681, 41.947055407], "type": "Point"}, "id": "GlmrZ-FS8RfyNWvTm44KXy0qoDY=", "properties": {"@spider": "usps_collection_boxes", "addr:city": "BERRIEN SPRINGS", "addr:country": "US", "addr:full": "115 N MAIN ST", "addr:postcode": "49103", "addr:state": "MI", "amenity": "post_box", "brand": "United States Postal Service", "brand:wikidata": "Q668687", "collection_times": "Mo-Fr 14:30; Sa 11:30", "name": "USPS COLLECTION BOX - PO LOBBY", "note": "ON 12/24 AND 12/31, THIS BOX MAY BE COLLECTED AS EARLY AS 12 NOON.", "nsi_id": "unitedstatespostalservice-a77078", "operator": "United States Postal Service", "operator:short": "USPS", "operator:type": "public", "operator:wikidata": "Q668687", "ref": "4910300017"}, "type": "Feature"}
{"dataset_attributes": {"@spider": "usps_collection_boxes", "spider:collection_time": "2023-11-19T08:23:43.397954"}, "geometry": {"coordinates": [-86.557326, 41.943442], "type": "Point"}, "id": "-WiTOuWrr8rF3LYsn_REwc_euIg=", "properties": {"@spider": "usps_collection_boxes", "addr:city": "BRIDGMAN", "addr:country": "US", "addr:full": "9655 MAPLEWOOD AVE", "addr:postcode": "49106", "addr:state": "MI", "amenity": "post_box", "brand": "United States Postal Service", "brand:wikidata": "Q668687", "collection_times": "Mo-Fr 14:40; Sa 11:00", "name": "USPS COLLECTION BOX - BLUE BOX", "note": "ON 12/24 AND 12/31, THIS BOX MAY BE COLLECTED AS EARLY AS 12 NOON.", "nsi_id": "unitedstatespostalservice-a77078", "operator": "United States Postal Service", "operator:short": "USPS", "operator:type": "public", "operator:wikidata": "Q668687", "ref": "4910600011"}, "type": "Feature"}
{"dataset_attributes": {"@spider": "usps_collection_boxes", "spider:collection_time": "2023-11-19T08:23:43.397954"}, "geometry": {"coordinates": [-86.557326, 41.943442], "type": "Point"}, "id": "nEP0eF7CYmUfiF810khdQDpOKd0=", "properties": {"@spider": "usps_collection_boxes", "addr:city": "BRIDGMAN", "addr:country": "US", "addr:full": "9655 MAPLEWOOD AVE", "addr:postcode": "49106", "addr:state": "MI", "amenity": "post_box", "brand": "United States Postal Service", "brand:wikidata": "Q668687", "collection_times": "Mo-Fr 14:40; Sa 11:00", "name": "USPS COLLECTION BOX - PO LOBBY", "note": "ON 12/24 AND 12/31, THIS BOX MAY BE COLLECTED AS EARLY AS 12 NOON.", "nsi_id": "unitedstatespostalservice-a77078", "operator": "United States Postal Service", "operator:short": "USPS", "operator:type": "public", "operator:wikidata": "Q668687", "ref": "4910600012"}, "type": "Feature"}
{"dataset_attributes": {"@spider": "usps_collection_boxes", "spider:collection_time": "2023-11-19T08:23:43.397954"}, "geometry": {"coordinates": [-86.557308842, 41.943458315], "type": "Point"}, "id": "3kjFz9OJQ_bJei_XkyjCrqBD66Q=", "properties": {"@spider": "usps_collection_boxes", "addr:city": "BRIDGMAN", "addr:country": "US", "addr:full": "9655 MAPLEWOOD AVE", "addr:postcode": "49106", "addr:state": "MI", "amenity": "post_box", "brand": "United States Postal Service", "brand:wikidata": "Q668687", "collection_times": "Mo-Fr 14:30; Sa 11:30", "name": "USPS COLLECTION BOX - PO LOBBY", "note": "ON 12/24 AND 12/31, THIS BOX MAY BE COLLECTED AS EARLY AS 12 NOON.", "nsi_id": "unitedstatespostalservice-a77078", "operator": "United States Postal Service", "operator:short": "USPS", "operator:type": "public", "operator:wikidata": "Q668687", "ref": "4910600013"}, "type": "Feature"}
{"dataset_attributes": {"@spider": "usps_collection_boxes", "spider:collection_time": "2023-11-19T08:23:43.397954"}, "geometry": {"coordinates": [-86.35058, 41.826769981], "type": "Point"}, "id": "JuKcmWMP-hXijXJOESMRYJIc5YI=", "properties": {"@spider": "usps_collection_boxes", "addr:city": "BUCHANAN", "addr:country": "US", "addr:full": "802 E FRONT ST", "addr:postcode": "49107", "addr:state": "MI", "amenity": "post_box", "brand": "United States Postal Service", "brand:wikidata": "Q668687", "collection_times": "Mo-Sa 09:45", "name": "USPS COLLECTION BOX - BLUE BOX", "nsi_id": "unitedstatespostalservice-a77078", "operator": "United States Postal Service", "operator:short": "USPS", "operator:type": "public", "operator:wikidata": "Q668687", "ref": "4910700009"}, "type": "Feature"}
{"dataset_attributes": {"@spider": "usps_collection_boxes", "spider:collection_time": "2023-11-19T08:23:43.397954"}, "geometry": {"coordinates": [-86.3446036, 41.82708], "type": "Point"}, "id": "wmZE0SoPcnR5UVeQGU04Y5hOFkQ=", "properties": {"@spider": "usps_collection_boxes", "addr:city": "BUCHANAN", "addr:country": "US", "addr:full": "4700 NILES BUCHANAN RD", "addr:postcode": "49107", "addr:state": "MI", "amenity": "post_box", "brand": "United States Postal Service", "brand:wikidata": "Q668687", "collection_times": "Mo-Sa 11:30", "name": "USPS COLLECTION BOX - BLUE BOX", "nsi_id": "unitedstatespostalservice-a77078", "operator": "United States Postal Service", "operator:short": "USPS", "operator:type": "public", "operator:wikidata": "Q668687", "ref": "4910700011"}, "type": "Feature"}
{"dataset_attributes": {"@spider": "usps_collection_boxes", "spider:collection_time": "2023-11-19T08:23:43.397954"}, "geometry": {"coordinates": [-86.3609752, 41.826454], "type": "Point"}, "id": "pduCXKxGJJuQQHH0__usED_F__U=", "properties": {"@spider": "usps_collection_boxes", "addr:city": "BUCHANAN", "addr:country": "US", "addr:full": "131 S OAK ST", "addr:postcode": "49107", "addr:state": "MI", "amenity": "post_box", "brand": "United States Postal Service", "brand:wikidata": "Q668687", "collection_times": "Mo-Sa 11:00", "name": "USPS COLLECTION BOX - BLUE BOX", "nsi_id": "unitedstatespostalservice-a77078", "operator": "United States Postal Service", "operator:short": "USPS", "operator:type": "public", "operator:wikidata": "Q668687", "ref": "4910700012"}, "type": "Feature"}
{"dataset_attributes": {"@spider": "usps_collection_boxes", "spider:collection_time": "2023-11-19T08:23:43.397954"}, "geometry": {"coordinates": [-86.361432694, 41.82742997], "type": "Point"}, "id": "g0u_P8K3V_SnfN9L_va7zhSsh_E=", "properties": {"@spider": "usps_collection_boxes", "addr:city": "BUCHANAN", "addr:country": "US", "addr:full": "112 W FRONT ST", "addr:postcode": "49107", "addr:state": "MI", "amenity": "post_box", "brand": "United States Postal Service", "brand:wikidata": "Q668687", "collection_times": "Mo-Fr 14:55; Sa 12:00", "name": "USPS COLLECTION BOX - PO LOBBY", "note": "ON 12/24 AND 12/31, THIS BOX MAY BE COLLECTED AS EARLY AS 12 NOON.", "nsi_id": "unitedstatespostalservice-a77078", "operator": "United States Postal Service", "operator:short": "USPS", "operator:type": "public", "operator:wikidata": "Q668687", "ref": "4910700014"}, "type": "Feature"}
{"dataset_attributes": {"@spider": "usps_collection_boxes", "spider:collection_time": "2023-11-19T08:23:43.397954"}, "geometry": {"coordinates": [-86.361432694, 41.82742997], "type": "Point"}, "id": "Gr-tdPAPbfxL5N6W3F06y9hxkyY=", "properties": {"@spider": "usps_collection_boxes", "addr:city": "BUCHANAN", "addr:country": "US", "addr:full": "112 W FRONT ST", "addr:postcode": "49107", "addr:state": "MI", "amenity": "post_box", "brand": "United States Postal Service", "brand:wikidata": "Q668687", "collection_times": "Mo-Fr 14:55; Sa 12:00", "name": "USPS COLLECTION BOX - BLUE BOX", "note": "ON 12/24 AND 12/31, THIS BOX MAY BE COLLECTED AS EARLY AS 12 NOON.", "nsi_id": "unitedstatespostalservice-a77078", "operator": "United States Postal Service", "operator:short": "USPS", "operator:type": "public", "operator:wikidata": "Q668687", "ref": "4910700016"}, "type": "Feature"}
{"dataset_attributes": {"@spider": "usps_collection_boxes", "spider:collection_time": "2023-11-19T08:23:43.397954"}, "geometry": {"coordinates": [-86.361432694, 41.82742997], "type": "Point"}, "id": "Vi3Sx-dZG-PQm1pLvRmWU21pIpI=", "properties": {"@spider": "usps_collection_boxes", "addr:city": "BUCHANAN", "addr:country": "US", "addr:full": "112 W FRONT ST", "addr:postcode": "49107", "addr:state": "MI", "amenity": "post_box", "brand": "United States Postal Service", "brand:wikidata": "Q668687", "collection_times": "Mo-Fr 14:30; Sa 11:30", "name": "USPS COLLECTION BOX - PO LOBBY", "note": "ON 12/24 AND 12/31, THIS BOX MAY BE COLLECTED AS EARLY AS 12 NOON.", "nsi_id": "unitedstatespostalservice-a77078", "operator": "United States Postal Service", "operator:short": "USPS", "operator:type": "public", "operator:wikidata": "Q668687", "ref": "4910700018"}, "type": "Feature"}
{"dataset_attributes": {"@spider": "usps_collection_boxes", "spider:collection_time": "2023-11-19T08:23:43.397954"}, "geometry": {"coordinates": [-86.3096513, 41.985088], "type": "Point"}, "id": "md0bj7WvVKXmZWK8MZw_n35N-rQ=", "properties": {"@spider": "usps_collection_boxes", "addr:city": "EAU CLAIRE", "addr:country": "US", "addr:full": "6100 W MAIN ST", "addr:postcode": "49111", "addr:state": "MI", "amenity": "post_box", "brand": "United States Postal Service", "brand:wikidata": "Q668687", "collection_times": "Mo-Sa 09:00", "name": "USPS COLLECTION BOX - BLUE BOX", "nsi_id": "unitedstatespostalservice-a77078", "operator": "United States Postal Service", "operator:short": "USPS", "operator:type": "public", "operator:wikidata": "Q668687", "ref": "4911100003"}, "type": "Feature"}
{"dataset_attributes": {"@spider": "usps_collection_boxes", "spider:collection_time": "2023-11-19T08:23:43.397954"}, "geometry": {"coordinates": [-86.2994, 41.985359], "type": "Point"}, "id": "xydkmxnbuUbTIly7lkAmgAFQGSM=", "properties": {"@spider": "usps_collection_boxes", "addr:city": "EAU CLAIRE", "addr:country": "US", "addr:full": "6537 E MAIN ST", "addr:postcode": "49111", "addr:state": "MI", "amenity": "post_box", "brand": "United States Postal Service", "brand:wikidata": "Q668687", "collection_times": "Mo-Fr 13:55; Sa 11:00", "name": "USPS COLLECTION BOX - BLUE BOX", "note": "ON 12/24 AND 12/31, THIS BOX MAY BE COLLECTED AS EARLY AS 12 NOON.", "nsi_id": "unitedstatespostalservice-a77078", "operator": "United States Postal Service", "operator:short": "USPS", "operator:type": "public", "operator:wikidata": "Q668687", "ref": "4911100004"}, "type": "Feature"}
{"dataset_attributes": {"@spider": "usps_collection_boxes", "spider:collection_time": "2023-11-19T08:23:43.397954"}, "geometry": {"coordinates": [-86.2994, 41.985359], "type": "Point"}, "id": "dHz0pOwW1bW9fMHZtL4szGyl9Do=", "properties": {"@spider": "usps_collection_boxes", "addr:city": "EAU CLAIRE", "addr:country": "US", "addr:full": "6537 E MAIN ST", "addr:postcode": "49111", "addr:state": "MI", "amenity": "post_box", "brand": "United States Postal Service", "brand:wikidata": "Q668687", "collection_times": "Mo-Fr 13:55; Sa 11:00", "name": "USPS COLLECTION BOX - PO LOBBY", "note": "ON 12/24 AND 12/31, THIS BOX MAY BE COLLECTED AS EARLY AS 12 NOON.", "nsi_id": "unitedstatespostalservice-a77078", "operator": "United States Postal Service", "operator:short": "USPS", "operator:type": "public", "operator:wikidata": "Q668687", "ref": "4911100005"}, "type": "Feature"}
{"dataset_attributes": {"@spider": "usps_collection_boxes", "spider:collection_time": "2023-11-19T08:23:43.397954"}, "geometry": {"coordinates": [-86.299379628, 41.98540088], "type": "Point"}, "id": "neJT5m3QKs94o7KjFfOxrIJ-jBE=", "properties": {"@spider": "usps_collection_boxes", "addr:city": "EAU CLAIRE", "addr:country": "US", "addr:full": "6537 E MAIN ST", "addr:postcode": "49111", "addr:state": "MI", "amenity": "post_box", "brand": "United States Postal Service", "brand:wikidata": "Q668687", "collection_times": "Mo-Fr 13:30; Sa 10:30", "name": "USPS COLLECTION BOX - PO LOBBY", "note": "ON 12/24 AND 12/31, THIS BOX MAY BE COLLECTED AS EARLY AS 12 NOON.", "nsi_id": "unitedstatespostalservice-a77078", "operator": "United States Postal Service", "operator:short": "USPS", "operator:type": "public", "operator:wikidata": "Q668687", "ref": "4911100006"}, "type": "Feature"}
{"dataset_attributes": {"@spider": "usps_collection_boxes", "spider:collection_time": "2023-11-19T08:23:43.397954"}, "geometry": {"coordinates": [-85.8668853, 41.78586], "type": "Point"}, "id": "3AOjOKPXT-KFjtkDYpRlkmcvMgQ=", "properties": {"@spider": "usps_collection_boxes", "addr:city": "EDWARDSBURG", "addr:country": "US", "addr:full": "15479 US HIGHWAY 12", "addr:postcode": "49112", "addr:state": "MI", "amenity": "post_box", "brand": "United States Postal Service", "brand:wikidata": "Q668687", "collection_times": "Mo-Sa 10:00", "name": "USPS COLLECTION BOX - BLUE BOX", "nsi_id": "unitedstatespostalservice-a77078", "operator": "United States Postal Service", "operator:short": "USPS", "operator:type": "public", "operator:wikidata": "Q668687", "ref": "4911200005"}, "type": "Feature"}
{"dataset_attributes": {"@spider": "usps_collection_boxes", "spider:collection_time": "2023-11-19T08:23:43.397954"}, "geometry": {"coordinates": [-86.083422, 41.797648], "type": "Point"}, "id": "JlezV2AkSYCi6xuFxLqRGn3SVZQ=", "properties": {"@spider": "usps_collection_boxes", "addr:city": "EDWARDSBURG", "addr:country": "US", "addr:full": "68926 CASS ST", "addr:postcode": "49112", "addr:state": "MI", "amenity": "post_box", "brand": "United States Postal Service", "brand:wikidata": "Q668687", "collection_times": "Mo-Fr 15:00; Sa 11:30", "name": "USPS COLLECTION BOX - PO LOBBY", "note": "ON 12/24 AND 12/31, THIS BOX MAY BE COLLECTED AS EARLY AS 12 NOON.", "nsi_id": "unitedstatespostalservice-a77078", "operator": "United States Postal Service", "operator:short": "USPS", "operator:type": "public", "operator:wikidata": "Q668687", "ref": "4911200006"}, "type": "Feature"}
{"dataset_attributes": {"@spider": "usps_collection_boxes", "spider:collection_time": "2023-11-19T08:23:43.397954"}, "geometry": {"coordinates": [-86.083422, 41.797648], "type": "Point"}, "id": "6_keYEQU3Os7PlBKkZVWn51v2K8=", "properties": {"@spider": "usps_collection_boxes", "addr:city": "EDWARDSBURG", "addr:country": "US", "addr:full": "68926 CASS ST", "addr:postcode": "49112", "addr:state": "MI", "amenity": "post_box", "brand": "United States Postal Service", "brand:wikidata": "Q668687", "collection_times": "Mo-Fr 15:00; Sa 11:30", "name": "USPS COLLECTION BOX - BLUE BOX", "note": "ON 12/24 AND 12/31, THIS BOX MAY BE COLLECTED AS EARLY AS 12 NOON.", "nsi_id": "unitedstatespostalservice-a77078", "operator": "United States Postal Service", "operator:short": "USPS", "operator:type": "public", "operator:wikidata": "Q668687", "ref": "4911200007"}, "type": "Feature"}
{"dataset_attributes": {"@spider": "usps_collection_boxes", "spider:collection_time": "2023-11-19T08:23:43.397954"}, "geometry": {"coordinates": [-86.083417087, 41.797605835], "type": "Point"}, "id": "XSdNONC8dWRFZ7SEXNVwFyzktW4=", "properties": {"@spider": "usps_collection_boxes", "addr:city": "EDWARDSBURG", "addr:country": "US", "addr:full": "68926 CASS ST", "addr:postcode": "49112", "addr:state": "MI", "amenity": "post_box", "brand": "United States Postal Service", "brand:wikidata": "Q668687", "collection_times": "Mo-Fr 14:30; Sa 11:00", "name": "USPS COLLECTION BOX - PO LOBBY", "note": "ON 12/24 AND 12/31, THIS BOX MAY BE COLLECTED AS EARLY AS 12 NOON.", "nsi_id": "unitedstatespostalservice-a77078", "operator": "United States Postal Service", "operator:short": "USPS", "operator:type": "public", "operator:wikidata": "Q668687", "ref": "4911200008"}, "type": "Feature"}
{"dataset_attributes": {"@spider": "usps_collection_boxes", "spider:collection_time": "2023-11-19T08:23:43.397954"}, "geometry": {"coordinates": [-86.498992, 41.80297], "type": "Point"}, "id": "oOsAY-HAuDxs_ejrX9bgh_o6dig=", "properties": {"@spider": "usps_collection_boxes", "addr:city": "GALIEN", "addr:country": "US", "addr:full": "114 N CLEVELAND AVE", "addr:postcode": "49113", "addr:state": "MI", "amenity": "post_box", "brand": "United States Postal Service", "brand:wikidata": "Q668687", "collection_times": "Mo-Fr 14:25; Sa 11:00", "name": "USPS COLLECTION BOX - BLUE BOX", "note": "ON 12/24 AND 12/31, THIS BOX MAY BE COLLECTED AS EARLY AS 12 NOON.", "nsi_id": "unitedstatespostalservice-a77078", "operator": "United States Postal Service", "operator:short": "USPS", "operator:type": "public", "operator:wikidata": "Q668687", "ref": "4911300001"}, "type": "Feature"}
{"dataset_attributes": {"@spider": "usps_collection_boxes", "spider:collection_time": "2023-11-19T08:23:43.397954"}, "geometry": {"coordinates": [-86.498992, 41.80297], "type": "Point"}, "id": "6qSNHa3n4xzZCMnlig_OyVrbrl0=", "properties": {"@spider": "usps_collection_boxes", "addr:city": "GALIEN", "addr:country": "US", "addr:full": "114 N CLEVELAND AVE", "addr:postcode": "49113", "addr:state": "MI", "amenity": "post_box", "brand": "United States Postal Service", "brand:wikidata": "Q668687", "collection_times": "Mo-Fr 14:25; Sa 11:00", "name": "USPS COLLECTION BOX - PO LOBBY", "note": "ON 12/24 AND 12/31, THIS BOX MAY BE COLLECTED AS EARLY AS 12 NOON.", "nsi_id": "unitedstatespostalservice-a77078", "operator": "United States Postal Service", "operator:short": "USPS", "operator:type": "public", "operator:wikidata": "Q668687", "ref": "4911300003"}, "type": "Feature"}
{"dataset_attributes": {"@spider": "usps_collection_boxes", "spider:collection_time": "2023-11-19T08:23:43.397954"}, "geometry": {"coordinates": [-86.499019773, 41.80293925], "type": "Point"}, "id": "QNRkeUxEEo7DTb5rYOdRNc_HBho=", "properties": {"@spider": "usps_collection_boxes", "addr:city": "GALIEN", "addr:country": "US", "addr:full": "114 N CLEVELAND AVE", "addr:postcode": "49113", "addr:state": "MI", "amenity": "post_box", "brand": "United States Postal Service", "brand:wikidata": "Q668687", "collection_times": "Mo-Fr 13:30; Sa 10:30", "name": "USPS COLLECTION BOX - PO LOBBY", "note": "ON 12/24 AND 12/31, THIS BOX MAY BE COLLECTED AS EARLY AS 12 NOON.", "nsi_id": "unitedstatespostalservice-a77078", "operator": "United States Postal Service", "operator:short": "USPS", "operator:type": "public", "operator:wikidata": "Q668687", "ref": "4911300004"}, "type": "Feature"}
{"dataset_attributes": {"@spider": "usps_collection_boxes", "spider:collection_time": "2023-11-19T08:23:43.397954"}, "geometry": {"coordinates": [-86.624004, 41.873727], "type": "Point"}, "id": "BQ3gyLHpabtPOrXRfjIgsX6-ViY=", "properties": {"@spider": "usps_collection_boxes", "addr:city": "HARBERT", "addr:country": "US", "addr:full": "13785 RED ARROW HWY", "addr:postcode": "49115", "addr:state": "MI", "amenity": "post_box", "brand": "United States Postal Service", "brand:wikidata": "Q668687", "collection_times": "Mo-Fr 13:45; Sa 11:00", "name": "USPS COLLECTION BOX - BLUE BOX", "note": "ON 12/24 AND 12/31, THIS BOX MAY BE COLLECTED AS EARLY AS 12 NOON.", "nsi_id": "unitedstatespostalservice-a77078", "operator": "United States Postal Service", "operator:short": "USPS", "operator:type": "public", "operator:wikidata": "Q668687", "ref": "4911500001"}, "type": "Feature"}
{"dataset_attributes": {"@spider": "usps_collection_boxes", "spider:collection_time": "2023-11-19T08:23:43.397954"}, "geometry": {"coordinates": [-86.624004, 41.873727], "type": "Point"}, "id": "WNo6EejesPSUOp9U74u1ex5Ab-g=", "properties": {"@spider": "usps_collection_boxes", "addr:city": "HARBERT", "addr:country": "US", "addr:full": "13785 RED ARROW HWY", "addr:postcode": "49115", "addr:state": "MI", "amenity": "post_box", "brand": "United States Postal Service", "brand:wikidata": "Q668687", "collection_times": "Mo-Fr 13:45; Sa 11:00", "name": "USPS COLLECTION BOX - PO LOBBY", "note": "ON 12/24 AND 12/31, THIS BOX MAY BE COLLECTED AS EARLY AS 12 NOON.", "nsi_id": "unitedstatespostalservice-a77078", "operator": "United States Postal Service", "operator:short": "USPS", "operator:type": "public", "operator:wikidata": "Q668687", "ref": "4911500002"}, "type": "Feature"}
{"dataset_attributes": {"@spider": "usps_collection_boxes", "spider:collection_time": "2023-11-19T08:23:43.397954"}, "geometry": {"coordinates": [-86.631080825, 41.8712912111], "type": "Point"}, "id": "1uZI2XP9hUfgYNERj1TyRT_mF4s=", "properties": {"@spider": "usps_collection_boxes", "addr:city": "HARBERT", "addr:country": "US", "addr:full": "13785 RED ARROW HWY", "addr:postcode": "49115", "addr:state": "MI", "amenity": "post_box", "brand": "United States Postal Service", "brand:wikidata": "Q668687", "collection_times": "Mo-Fr 13:30; Sa 10:30", "name": "USPS COLLECTION BOX - PO LOBBY", "note": "ON 12/24 AND 12/31, THIS BOX MAY BE COLLECTED AS EARLY AS 12 NOON.", "nsi_id": "unitedstatespostalservice-a77078", "operator": "United States Postal Service", "operator:short": "USPS", "operator:type": "public", "operator:wikidata": "Q668687", "ref": "4911500003"}, "type": "Feature"}
{"dataset_attributes": {"@spider": "usps_collection_boxes", "spider:collection_time": "2023-11-19T08:23:43.397954"}, "geometry": {"coordinates": [-86.6678838, 41.849307], "type": "Point"}, "id": "qpTCDNg9BHDQJjNkMXgHjZrhg0Q=", "properties": {"@spider": "usps_collection_boxes", "addr:city": "LAKESIDE", "addr:country": "US", "addr:full": "14950 LAKESIDE RD", "addr:postcode": "49116", "addr:state": "MI", "amenity": "post_box", "brand": "United States Postal Service", "brand:wikidata": "Q668687", "collection_times": "Mo-Sa 10:30", "name": "USPS COLLECTION BOX - BLUE BOX", "nsi_id": "unitedstatespostalservice-a77078", "operator": "United States Postal Service", "operator:short": "USPS", "operator:type": "public", "operator:wikidata": "Q668687", "ref": "4911600005"}, "type": "Feature"}
{"dataset_attributes": {"@spider": "usps_collection_boxes", "spider:collection_time": "2023-11-19T08:23:43.397954"}, "geometry": {"coordinates": [-86.7459014065, 41.7945038007], "type": "Point"}, "id": "KT2MPcYOsiXZEq7R_A-3QgviPpA=", "properties": {"@spider": "usps_collection_boxes", "addr:city": "NEW BUFFALO", "addr:country": "US", "addr:full": "105 W MERCHANT ST", "addr:postcode": "49117", "addr:state": "MI", "amenity": "post_box", "brand": "United States Postal Service", "brand:wikidata": "Q668687", "collection_times": "Mo-Sa 14:20", "name": "USPS COLLECTION BOX - BLUE BOX", "note": "ON 12/24 AND 12/31, THIS BOX MAY BE COLLECTED AS EARLY AS 12 NOON.", "nsi_id": "unitedstatespostalservice-a77078", "operator": "United States Postal Service", "operator:short": "USPS", "operator:type": "public", "operator:wikidata": "Q668687", "ref": "4911700001"}, "type": "Feature"}
{"dataset_attributes": {"@spider": "usps_collection_boxes", "spider:collection_time": "2023-11-19T08:23:43.397954"}, "geometry": {"coordinates": [-86.7474559, 41.791736], "type": "Point"}, "id": "hrj4pIOkBIgEU8WvhenJXJxedoA=", "properties": {"@spider": "usps_collection_boxes", "addr:city": "NEW BUFFALO", "addr:country": "US", "addr:full": "325 W BUFFALO ST", "addr:postcode": "49117", "addr:state": "MI", "amenity": "post_box", "brand": "United States Postal Service", "brand:wikidata": "Q668687", "collection_times": "Mo-Sa 14:20", "name": "USPS COLLECTION BOX - BLUE BOX", "note": "ON 12/24 AND 12/31, THIS BOX MAY BE COLLECTED AS EARLY AS 12 NOON.", "nsi_id": "unitedstatespostalservice-a77078", "operator": "United States Postal Service", "operator:short": "USPS", "operator:type": "public", "operator:wikidata": "Q668687", "ref": "4911700003"}, "type": "Feature"}
{"dataset_attributes": {"@spider": "usps_collection_boxes", "spider:collection_time": "2023-11-19T08:23:43.397954"}, "geometry": {"coordinates": [-86.7430219, 41.794472], "type": "Point"}, "id": "ddqQ4CUxApDoMZynTIhDbsoJJSU=", "properties": {"@spider": "usps_collection_boxes", "addr:city": "NEW BUFFALO", "addr:country": "US", "addr:full": "1 N WHITTAKER ST", "addr:postcode": "49117", "addr:state": "MI", "amenity": "post_box", "brand": "United States Postal Service", "brand:wikidata": "Q668687", "collection_times": "Mo-Sa 14:20", "name": "USPS COLLECTION BOX - BLUE BOX", "note": "ON 12/24 AND 12/31, THIS BOX MAY BE COLLECTED AS EARLY AS 12 NOON.", "nsi_id": "unitedstatespostalservice-a77078", "operator": "United States Postal Service", "operator:short": "USPS", "operator:type": "public", "operator:wikidata": "Q668687", "ref": "4911700007"}, "type": "Feature"}
{"dataset_attributes": {"@spider": "usps_collection_boxes", "spider:collection_time": "2023-11-19T08:23:43.397954"}, "geometry": {"coordinates": [-86.747601, 41.792345], "type": "Point"}, "id": "ILAIvOGTmZtz1G9puZ4JquUDnk8=", "properties": {"@spider": "usps_collection_boxes", "addr:city": "NEW BUFFALO", "addr:country": "US", "addr:full": "325 W BUFFALO ST", "addr:postcode": "49117", "addr:state": "MI", "amenity": "post_box", "brand": "United States Postal Service", "brand:wikidata": "Q668687", "collection_times": "Mo-Sa 14:20", "name": "USPS COLLECTION BOX - PO LOBBY", "note": "ON 12/24 AND 12/31, THIS BOX MAY BE COLLECTED AS EARLY AS 12 NOON.", "nsi_id": "unitedstatespostalservice-a77078", "operator": "United States Postal Service", "operator:short": "USPS", "operator:type": "public", "operator:wikidata": "Q668687", "ref": "4911700009"}, "type": "Feature"}
{"dataset_attributes": {"@spider": "usps_collection_boxes", "spider:collection_time": "2023-11-19T08:23:43.397954"}, "geometry": {"coordinates": [-86.7476022821, 41.7923388257], "type": "Point"}, "id": "PDHbMxpWEb06CIIL_IxjB5dy_24=", "properties": {"@spider": "usps_collection_boxes", "addr:city": "NEW BUFFALO", "addr:country": "US", "addr:full": "325 W BUFFALO ST", "addr:postcode": "49117", "addr:state": "MI", "amenity": "post_box", "brand": "United States Postal Service", "brand:wikidata": "Q668687", "collection_times": "Mo-Fr 13:30; Sa 11:30", "name": "USPS COLLECTION BOX - PO LOBBY", "note": "ON 12/24 AND 12/31, THIS BOX MAY BE COLLECTED AS EARLY AS 12 NOON.", "nsi_id": "unitedstatespostalservice-a77078", "operator": "United States Postal Service", "operator:short": "USPS", "operator:type": "public", "operator:wikidata": "Q668687", "ref": "4911700010"}, "type": "Feature"}
{"dataset_attributes": {"@spider": "usps_collection_boxes", "spider:collection_time": "2023-11-19T08:23:43.397954"}, "geometry": {"coordinates": [-86.5499321, 41.876758], "type": "Point"}, "id": "SLkKHbpt4t0i66LQk_2bXWdE6bg=", "properties": {"@spider": "usps_collection_boxes", "addr:city": "NEW TROY", "addr:country": "US", "addr:full": "13377 CALIFORNIA RD", "addr:postcode": "49119", "addr:state": "MI", "amenity": "post_box", "brand": "United States Postal Service", "brand:wikidata": "Q668687", "collection_times": "Mo-Fr 12:15; Sa 11:00", "name": "USPS COLLECTION BOX - BLUE BOX", "note": "ON 12/24 AND 12/31, THIS BOX MAY BE COLLECTED AS EARLY AS 12 NOON.", "nsi_id": "unitedstatespostalservice-a77078", "operator": "United States Postal Service", "operator:short": "USPS", "operator:type": "public", "operator:wikidata": "Q668687", "ref": "4911900001"}, "type": "Feature"}
{"dataset_attributes": {"@spider": "usps_collection_boxes", "spider:collection_time": "2023-11-19T08:23:43.397954"}, "geometry": {"coordinates": [-86.550015, 41.87673], "type": "Point"}, "id": "PVaAwyCRFVMpNTLtySbkf6JVkj4=", "properties": {"@spider": "usps_collection_boxes", "addr:city": "NEW TROY", "addr:country": "US", "addr:full": "13377 CALIFORNIA RD", "addr:postcode": "49119", "addr:state": "MI", "amenity": "post_box", "brand": "United States Postal Service", "brand:wikidata": "Q668687", "collection_times": "Mo-Fr 12:15; Sa 11:00", "name": "USPS COLLECTION BOX - PO LOBBY", "note": "ON 12/24 AND 12/31, THIS BOX MAY BE COLLECTED AS EARLY AS 12 NOON.", "nsi_id": "unitedstatespostalservice-a77078", "operator": "United States Postal Service", "operator:short": "USPS", "operator:type": "public", "operator:wikidata": "Q668687", "ref": "4911900002"}, "type": "Feature"}
{"dataset_attributes": {"@spider": "usps_collection_boxes", "spider:collection_time": "2023-11-19T08:23:43.397954"}, "geometry": {"coordinates": [-86.5500135896, 41.8767211363], "type": "Point"}, "id": "DMC30MbvJ7S4LsSEl4VK-HjUkIg=", "properties": {"@spider": "usps_collection_boxes", "addr:city": "NEW TROY", "addr:country": "US", "addr:full": "13377 CALIFORNIA RD", "addr:postcode": "49119", "addr:state": "MI", "amenity": "post_box", "brand": "United States Postal Service", "brand:wikidata": "Q668687", "collection_times": "Mo-Fr 12:00; Sa 10:30", "name": "USPS COLLECTION BOX - PO LOBBY", "nsi_id": "unitedstatespostalservice-a77078", "operator": "United States Postal Service", "operator:short": "USPS", "operator:type": "public", "operator:wikidata": "Q668687", "ref": "4911900003"}, "type": "Feature"}
{"dataset_attributes": {"@spider": "usps_collection_boxes", "spider:collection_time": "2023-11-19T08:23:43.397954"}, "geometry": {"coordinates": [-86.2468838, 41.79317], "type": "Point"}, "id": "tN4cV-wR1_JODDN0Fpe5gemOdI0=", "properties": {"@spider": "usps_collection_boxes", "addr:city": "NILES", "addr:country": "US", "addr:full": "1950 S 13TH ST", "addr:postcode": "49120", "addr:state": "MI", "amenity": "post_box", "brand": "United States Postal Service", "brand:wikidata": "Q668687", "collection_times": "Mo-Sa 13:00", "name": "USPS COLLECTION BOX - BLUE BOX", "note": "ON 12/24 AND 12/31, THIS BOX MAY BE COLLECTED AS EARLY AS 12 NOON.", "nsi_id": "unitedstatespostalservice-a77078", "operator": "United States Postal Service", "operator:short": "USPS", "operator:type": "public", "operator:wikidata": "Q668687", "ref": "4912000016"}, "type": "Feature"}
{"dataset_attributes": {"@spider": "usps_collection_boxes", "spider:collection_time": "2023-11-19T08:23:43.397954"}, "geometry": {"coordinates": [-86.2295059, 41.848531], "type": "Point"}, "id": "XPEaCVEh_XV76nFw9bg6vVU_lmw=", "properties": {"@spider": "usps_collection_boxes", "addr:city": "NILES", "addr:country": "US", "addr:full": "1943 TERMINAL RD", "addr:postcode": "49120", "addr:state": "MI", "amenity": "post_box", "brand": "United States Postal Service", "brand:wikidata": "Q668687", "collection_times": "Mo-Sa 15:00", "name": "USPS COLLECTION BOX - BLUE BOX", "note": "ON 12/24 AND 12/31, THIS BOX MAY BE COLLECTED AS EARLY AS 12 NOON.", "nsi_id": "unitedstatespostalservice-a77078", "operator": "United States Postal Service", "operator:short": "USPS", "operator:type": "public", "operator:wikidata": "Q668687", "ref": "4912000018"}, "type": "Feature"}
{"dataset_attributes": {"@spider": "usps_collection_boxes", "spider:collection_time": "2023-11-19T08:23:43.397954"}, "geometry": {"coordinates": [-86.2600658, 41.839255], "type": "Point"}, "id": "TtggdeXNyvHNcG1zSn4p4qu00t0=", "properties": {"@spider": "usps_collection_boxes", "addr:city": "NILES", "addr:country": "US", "addr:full": "1205 N FRONT ST", "addr:postcode": "49120", "addr:state": "MI", "amenity": "post_box", "brand": "United States Postal Service", "brand:wikidata": "Q668687", "collection_times": "Mo-Sa 15:00", "name": "USPS COLLECTION BOX - BLUE BOX", "note": "ON 12/24 AND 12/31, THIS BOX MAY BE COLLECTED AS EARLY AS 12 NOON.", "nsi_id": "unitedstatespostalservice-a77078", "operator": "United States Postal Service", "operator:short": "USPS", "operator:type": "public", "operator:wikidata": "Q668687", "ref": "4912000019"}, "type": "Feature"}
{"dataset_attributes": {"@spider": "usps_collection_boxes", "spider:collection_time": "2023-11-19T08:23:43.397954"}, "geometry": {"coordinates": [-86.261611911, 41.829689651], "type": "Point"}, "id": "_kcrpbh-guA-6ly4Ib5Nxh4QHxM=", "properties": {"@spider": "usps_collection_boxes", "addr:city": "NILES", "addr:country": "US", "addr:full": "321 MAIN ST", "addr:postcode": "49120", "addr:state": "MI", "amenity": "post_box", "brand": "United States Postal Service", "brand:wikidata": "Q668687", "collection_times": "Mo-Sa 15:00", "name": "USPS COLLECTION BOX - BLUE BOX", "note": "ON 12/24 AND 12/31, THIS BOX MAY BE COLLECTED AS EARLY AS 12 NOON.", "nsi_id": "unitedstatespostalservice-a77078", "operator": "United States Postal Service", "operator:short": "USPS", "operator:type": "public", "operator:wikidata": "Q668687", "ref": "4912000022"}, "type": "Feature"}
{"dataset_attributes": {"@spider": "usps_collection_boxes", "spider:collection_time": "2023-11-19T08:23:43.397954"}, "geometry": {"coordinates": [-86.2573652, 41.82972], "type": "Point"}, "id": "lKB1P6kEPQjboRw9AUWpnEFR79Q=", "properties": {"@spider": "usps_collection_boxes", "addr:city": "NILES", "addr:country": "US", "addr:full": "206 E MAIN ST", "addr:postcode": "49120", "addr:state": "MI", "amenity": "post_box", "brand": "United States Postal Service", "brand:wikidata": "Q668687", "collection_times": "Mo-Sa 15:00", "name": "USPS COLLECTION BOX - BLUE BOX", "note": "ON 12/24 AND 12/31, THIS BOX MAY BE COLLECTED AS EARLY AS 12 NOON.", "nsi_id": "unitedstatespostalservice-a77078", "operator": "United States Postal Service", "operator:short": "USPS", "operator:type": "public", "operator:wikidata": "Q668687", "ref": "4912000027"}, "type": "Feature"}
{"dataset_attributes": {"@spider": "usps_collection_boxes", "spider:collection_time": "2023-11-19T08:23:43.397954"}, "geometry": {"coordinates": [-86.2487199, 41.796899], "type": "Point"}, "id": "TtG84IKL8eAPyTCD4rlO7fNR8es=", "properties": {"@spider": "usps_collection_boxes", "addr:city": "NILES", "addr:country": "US", "addr:full": "1900 S 11TH ST", "addr:postcode": "49120", "addr:state": "MI", "amenity": "post_box", "brand": "United States Postal Service", "brand:wikidata": "Q668687", "collection_times": "Mo-Sa 15:00", "name": "USPS COLLECTION BOX - BLUE BOX", "note": "ON 12/24 AND 12/31, THIS BOX MAY BE COLLECTED AS EARLY AS 12 NOON.", "nsi_id": "unitedstatespostalservice-a77078", "operator": "United States Postal Service", "operator:short": "USPS", "operator:type": "public", "operator:wikidata": "Q668687", "ref": "4912000033"}, "type": "Feature"}
{"dataset_attributes": {"@spider": "usps_collection_boxes", "spider:collection_time": "2023-11-19T08:23:43.397954"}, "geometry": {"coordinates": [-86.250481, 41.828022], "type": "Point"}, "id": "WbSHP6y1g-4Q6I2Xwq_d08mNBUI=", "properties": {"@spider": "usps_collection_boxes", "addr:city": "NILES", "addr:country": "US", "addr:full": "741 BROADWAY ST", "addr:postcode": "49120", "addr:state": "MI", "amenity": "post_box", "brand": "United States Postal Service", "brand:wikidata": "Q668687", "collection_times": "Mo-Sa 15:25", "name": "USPS COLLECTION BOX - BLUE BOX", "note": "ON 12/24 AND 12/31, THIS BOX MAY BE COLLECTED AS EARLY AS 12 NOON.", "nsi_id": "unitedstatespostalservice-a77078", "operator": "United States Postal Service", "operator:short": "USPS", "operator:type": "public", "operator:wikidata": "Q668687", "ref": "4912000038"}, "type": "Feature"}
{"dataset_attributes": {"@spider": "usps_collection_boxes", "spider:collection_time": "2023-11-19T08:23:43.397954"}, "geometry": {"coordinates": [-86.250504, 41.827996], "type": "Point"}, "id": "UMUqc1_YnAw1_VnGpWN5vMFi6f4=", "properties": {"@spider": "usps_collection_boxes", "addr:city": "NILES", "addr:country": "US", "addr:full": "741 BROADWAY ST", "addr:postcode": "49120", "addr:state": "MI", "amenity": "post_box", "brand": "United States Postal Service", "brand:wikidata": "Q668687", "collection_times": "Mo-Sa 15:25", "name": "USPS COLLECTION BOX - PO LOBBY", "note": "ON 12/24 AND 12/31, THIS BOX MAY BE COLLECTED AS EARLY AS 12 NOON.", "nsi_id": "unitedstatespostalservice-a77078", "operator": "United States Postal Service", "operator:short": "USPS", "operator:type": "public", "operator:wikidata": "Q668687", "ref": "4912000043"}, "type": "Feature"}
{"dataset_attributes": {"@spider": "usps_collection_boxes", "spider:collection_time": "2023-11-19T08:23:43.397954"}, "geometry": {"coordinates": [-86.2483684, 41.821041], "type": "Point"}, "id": "jQRlDN9vcrkSTctyU9A5XEqqasM=", "properties": {"@spider": "usps_collection_boxes", "addr:city": "NILES", "addr:country": "US", "addr:full": "720 S 11TH ST", "addr:postcode": "49120", "addr:state": "MI", "amenity": "post_box", "brand": "United States Postal Service", "brand:wikidata": "Q668687", "collection_times": "Mo-Sa 15:00", "name": "USPS COLLECTION BOX - BLUE BOX", "note": "ON 12/24 AND 12/31, THIS BOX MAY BE COLLECTED AS EARLY AS 12 NOON.", "nsi_id": "unitedstatespostalservice-a77078", "operator": "United States Postal Service", "operator:short": "USPS", "operator:type": "public", "operator:wikidata": "Q668687", "ref": "4912000045"}, "type": "Feature"}
{"dataset_attributes": {"@spider": "usps_collection_boxes", "spider:collection_time": "2023-11-19T08:23:43.397954"}, "geometry": {"coordinates": [-86.2609578, 41.828226], "type": "Point"}, "id": "d8_Oliv0oOgoeWUL3oI-FjMtZcw=", "properties": {"@spider": "usps_collection_boxes", "addr:city": "NILES", "addr:country": "US", "addr:full": "31 N SAINT JOSEPH AVE", "addr:postcode": "49120", "addr:state": "MI", "amenity": "post_box", "brand": "United States Postal Service", "brand:wikidata": "Q668687", "collection_times": "Mo-Sa 15:00", "name": "USPS COLLECTION BOX - BLUE BOX", "note": "ON 12/24 AND 12/31, THIS BOX MAY BE COLLECTED AS EARLY AS 12 NOON.", "nsi_id": "unitedstatespostalservice-a77078", "operator": "United States Postal Service", "operator:short": "USPS", "operator:type": "public", "operator:wikidata": "Q668687", "ref": "4912000047"}, "type": "Feature"}
{"dataset_attributes": {"@spider": "usps_collection_boxes", "spider:collection_time": "2023-11-19T08:23:43.397954"}, "geometry": {"coordinates": [-86.2497538, 41.77389], "type": "Point"}, "id": "YMqozwQzwZJsEm-cXJK2LZ0d6l8=", "properties": {"@spider": "usps_collection_boxes", "addr:city": "NILES", "addr:country": "US", "addr:full": "2707 S 11TH ST", "addr:postcode": "49120", "addr:state": "MI", "amenity": "post_box", "brand": "United States Postal Service", "brand:wikidata": "Q668687", "collection_times": "Mo-Sa 15:00", "name": "USPS COLLECTION BOX - BLUE BOX", "note": "ON 12/24 AND 12/31, THIS BOX MAY BE COLLECTED AS EARLY AS 12 NOON.", "nsi_id": "unitedstatespostalservice-a77078", "operator": "United States Postal Service", "operator:short": "USPS", "operator:type": "public", "operator:wikidata": "Q668687", "ref": "4912000048"}, "type": "Feature"}
{"dataset_attributes": {"@spider": "usps_collection_boxes", "spider:collection_time": "2023-11-19T08:23:43.397954"}, "geometry": {"coordinates": [-86.2700979, 41.857943], "type": "Point"}, "id": "_NjVf89xwpMNbnULquHO9acXyLU=", "properties": {"@spider": "usps_collection_boxes", "addr:city": "NILES", "addr:country": "US", "addr:full": "2028 N OLD US 31", "addr:postcode": "49120", "addr:state": "MI", "amenity": "post_box", "brand": "United States Postal Service", "brand:wikidata": "Q668687", "collection_times": "Mo-Sa 15:00", "name": "USPS COLLECTION BOX - BLUE BOX", "note": "ON 12/24 AND 12/31, THIS BOX MAY BE COLLECTED AS EARLY AS 12 NOON.", "nsi_id": "unitedstatespostalservice-a77078", "operator": "United States Postal Service", "operator:short": "USPS", "operator:type": "public", "operator:wikidata": "Q668687", "ref": "4912000050"}, "type": "Feature"}
{"dataset_attributes": {"@spider": "usps_collection_boxes", "spider:collection_time": "2023-11-19T08:23:43.397954"}, "geometry": {"coordinates": [-86.2970773, 41.80696], "type": "Point"}, "id": "oS3hchQEU_XEXDAauY0pj5icbbs=", "properties": {"@spider": "usps_collection_boxes", "addr:city": "NILES", "addr:country": "US", "addr:full": "2121 W CHICAGO RD", "addr:postcode": "49120", "addr:state": "MI", "amenity": "post_box", "brand": "United States Postal Service", "brand:wikidata": "Q668687", "collection_times": "Mo-Sa 15:00", "name": "USPS COLLECTION BOX - BLUE BOX", "note": "ON 12/24 AND 12/31, THIS BOX MAY BE COLLECTED AS EARLY AS 12 NOON.", "nsi_id": "unitedstatespostalservice-a77078", "operator": "United States Postal Service", "operator:short": "USPS", "operator:type": "public", "operator:wikidata": "Q668687", "ref": "4912000051"}, "type": "Feature"}
{"dataset_attributes": {"@spider": "usps_collection_boxes", "spider:collection_time": "2023-11-19T08:23:43.397954"}, "geometry": {"coordinates": [-86.2504908258, 41.8280657528], "type": "Point"}, "id": "IedRrvo26Kn4IGfJlxl2STBq-9E=", "properties": {"@spider": "usps_collection_boxes", "addr:city": "NILES", "addr:country": "US", "addr:full": "741 BROADWAY ST", "addr:postcode": "49120", "addr:state": "MI", "amenity": "post_box", "brand": "United States Postal Service", "brand:wikidata": "Q668687", "collection_times": "Mo-Fr 17:30; Sa 14:30", "name": "USPS COLLECTION BOX - PO LOBBY", "note": "ON 12/24 AND 12/31, THIS BOX MAY BE COLLECTED AS EARLY AS 12 NOON.", "nsi_id": "unitedstatespostalservice-a77078", "operator": "United States Postal Service", "operator:short": "USPS", "operator:type": "public", "operator:wikidata": "Q668687", "ref": "4912000053"}, "type": "Feature"}
{"dataset_attributes": {"@spider": "usps_collection_boxes", "spider:collection_time": "2023-11-19T08:23:43.397954"}, "geometry": {"coordinates": [-86.59311, 41.885528], "type": "Point"}, "id": "2F-nFPBd_Ua5lCRpDOJHDKFr6NM=", "properties": {"@spider": "usps_collection_boxes", "addr:city": "SAWYER", "addr:country": "US", "addr:full": "5835 SAWYER RD", "addr:postcode": "49125", "addr:state": "MI", "amenity": "post_box", "brand": "United States Postal Service", "brand:wikidata": "Q668687", "collection_times": "Mo-Fr 14:50; Sa 11:00", "name": "USPS COLLECTION BOX - BLUE BOX", "note": "ON 12/24 AND 12/31, THIS BOX MAY BE COLLECTED AS EARLY AS 12 NOON.", "nsi_id": "unitedstatespostalservice-a77078", "operator": "United States Postal Service", "operator:short": "USPS", "operator:type": "public", "operator:wikidata": "Q668687", "ref": "4912500001"}, "type": "Feature"}
{"dataset_attributes": {"@spider": "usps_collection_boxes", "spider:collection_time": "2023-11-19T08:23:43.397954"}, "geometry": {"coordinates": [-86.6001576, 41.884269], "type": "Point"}, "id": "BV0oGjVCmItksKjbn_dtU_cubSM=", "properties": {"@spider": "usps_collection_boxes", "addr:city": "SAWYER", "addr:country": "US", "addr:full": "6100 SAWYER RD", "addr:postcode": "49125", "addr:state": "MI", "amenity": "post_box", "brand": "United States Postal Service", "brand:wikidata": "Q668687", "collection_times": "Mo-Fr 12:30; Sa 10:00", "name": "USPS COLLECTION BOX - BLUE BOX", "note": "ON 12/24 AND 12/31, THIS BOX MAY BE COLLECTED AS EARLY AS 12 NOON.", "nsi_id": "unitedstatespostalservice-a77078", "operator": "United States Postal Service", "operator:short": "USPS", "operator:type": "public", "operator:wikidata": "Q668687", "ref": "4912500002"}, "type": "Feature"}
{"dataset_attributes": {"@spider": "usps_collection_boxes", "spider:collection_time": "2023-11-19T08:23:43.397954"}, "geometry": {"coordinates": [-86.609297886, 41.895548476], "type": "Point"}, "id": "xne2kRvrPBR3pbMoVMO-cJ_xPlw=", "properties": {"@spider": "usps_collection_boxes", "addr:city": "SAWYER", "addr:country": "US", "addr:full": "12370 TOWER HILL RD", "addr:postcode": "49125", "addr:state": "MI", "amenity": "post_box", "brand": "United States Postal Service", "brand:wikidata": "Q668687", "collection_times": "Mo-Fr 11:00; Sa 10:00", "name": "USPS COLLECTION BOX - BLUE BOX", "nsi_id": "unitedstatespostalservice-a77078", "operator": "United States Postal Service", "operator:short": "USPS", "operator:type": "public", "operator:wikidata": "Q668687", "ref": "4912500003"}, "type": "Feature"}
{"dataset_attributes": {"@spider": "usps_collection_boxes", "spider:collection_time": "2023-11-19T08:23:43.397954"}, "geometry": {"coordinates": [-86.6154119, 41.89065], "type": "Point"}, "id": "Heh8hyEz1WUaVTK7E-joLgBceM0=", "properties": {"@spider": "usps_collection_boxes", "addr:city": "SAWYER", "addr:country": "US", "addr:full": "12684 OAK PARK AVE", "addr:postcode": "49125", "addr:state": "MI", "amenity": "post_box", "brand": "United States Postal Service", "brand:wikidata": "Q668687", "collection_times": "Mo-Fr 11:30; Sa 10:00", "name": "USPS COLLECTION BOX - BLUE BOX", "nsi_id": "unitedstatespostalservice-a77078", "operator": "United States Postal Service", "operator:short": "USPS", "operator:type": "public", "operator:wikidata": "Q668687", "ref": "4912500004"}, "type": "Feature"}
{"dataset_attributes": {"@spider": "usps_collection_boxes", "spider:collection_time": "2023-11-19T08:23:43.397954"}, "geometry": {"coordinates": [-86.59311, 41.885528], "type": "Point"}, "id": "4j1BvjRKKLoMf5aUtZlpgSVBX3M=", "properties": {"@spider": "usps_collection_boxes", "addr:city": "SAWYER", "addr:country": "US", "addr:full": "5835 SAWYER RD", "addr:postcode": "49125", "addr:state": "MI", "amenity": "post_box", "brand": "United States Postal Service", "brand:wikidata": "Q668687", "collection_times": "Mo-Fr 14:50; Sa 11:00", "name": "USPS COLLECTION BOX - PO LOBBY", "note": "ON 12/24 AND 12/31, THIS BOX MAY BE COLLECTED AS EARLY AS 12 NOON.", "nsi_id": "unitedstatespostalservice-a77078", "operator": "United States Postal Service", "operator:short": "USPS", "operator:type": "public", "operator:wikidata": "Q668687", "ref": "4912500006"}, "type": "Feature"}
{"dataset_attributes": {"@spider": "usps_collection_boxes", "spider:collection_time": "2023-11-19T08:23:43.397954"}, "geometry": {"coordinates": [-86.593113807, 41.885520504], "type": "Point"}, "id": "0lv95JhFguGtw7MrNOrLItt13Ik=", "properties": {"@spider": "usps_collection_boxes", "addr:city": "SAWYER", "addr:country": "US", "addr:full": "5835 SAWYER RD", "addr:postcode": "49125", "addr:state": "MI", "amenity": "post_box", "brand": "United States Postal Service", "brand:wikidata": "Q668687", "collection_times": "Mo-Fr 14:30; Sa 10:30", "name": "USPS COLLECTION BOX - PO LOBBY", "note": "ON 12/24 AND 12/31, THIS BOX MAY BE COLLECTED AS EARLY AS 12 NOON.", "nsi_id": "unitedstatespostalservice-a77078", "operator": "United States Postal Service", "operator:short": "USPS", "operator:type": "public", "operator:wikidata": "Q668687", "ref": "4912500007"}, "type": "Feature"}
{"dataset_attributes": {"@spider": "usps_collection_boxes", "spider:collection_time": "2023-11-19T08:23:43.397954"}, "geometry": {"coordinates": [-86.37181, 42.043453], "type": "Point"}, "id": "KYfqmYqFkflAO8RrK01ifFd0dE4=", "properties": {"@spider": "usps_collection_boxes", "addr:city": "SODUS", "addr:country": "US", "addr:full": "3568 NAOMI RD", "addr:postcode": "49126", "addr:state": "MI", "amenity": "post_box", "brand": "United States Postal Service", "brand:wikidata": "Q668687", "collection_times": "Mo-Fr 11:30; Sa 10:30", "name": "USPS COLLECTION BOX - BLUE BOX", "nsi_id": "unitedstatespostalservice-a77078", "operator": "United States Postal Service", "operator:short": "USPS", "operator:type": "public", "operator:wikidata": "Q668687", "ref": "4912600003"}, "type": "Feature"}
{"dataset_attributes": {"@spider": "usps_collection_boxes", "spider:collection_time": "2023-11-19T08:23:43.397954"}, "geometry": {"coordinates": [-86.37181, 42.043453], "type": "Point"}, "id": "R8oBcUeHiXptyqLt3ARe6a-FRTk=", "properties": {"@spider": "usps_collection_boxes", "addr:city": "SODUS", "addr:country": "US", "addr:full": "3568 NAOMI RD", "addr:postcode": "49126", "addr:state": "MI", "amenity": "post_box", "brand": "United States Postal Service", "brand:wikidata": "Q668687", "collection_times": "Mo-Fr 11:30; Sa 10:30", "name": "USPS COLLECTION BOX - PO LOBBY", "nsi_id": "unitedstatespostalservice-a77078", "operator": "United States Postal Service", "operator:short": "USPS", "operator:type": "public", "operator:wikidata": "Q668687", "ref": "4912600004"}, "type": "Feature"}
{"dataset_attributes": {"@spider": "usps_collection_boxes", "spider:collection_time": "2023-11-19T08:23:43.397954"}, "geometry": {"coordinates": [-86.371812, 42.043445488], "type": "Point"}, "id": "-LXJd4qwyEsMy7fe7E-xsaLEkpM=", "properties": {"@spider": "usps_collection_boxes", "addr:city": "SODUS", "addr:country": "US", "addr:full": "3568 NAOMI RD", "addr:postcode": "49126", "addr:state": "MI", "amenity": "post_box", "brand": "United States Postal Service", "brand:wikidata": "Q668687", "collection_times": "Mo-Fr 11:00; Sa 10:00", "name": "USPS COLLECTION BOX - PO LOBBY", "nsi_id": "unitedstatespostalservice-a77078", "operator": "United States Postal Service", "operator:short": "USPS", "operator:type": "public", "operator:wikidata": "Q668687", "ref": "4912600005"}, "type": "Feature"}
{"dataset_attributes": {"@spider": "usps_collection_boxes", "spider:collection_time": "2023-11-19T08:23:43.397954"}, "geometry": {"coordinates": [-86.494904, 42.011278], "type": "Point"}, "id": "Gbu1sAb7fq9qoS3Lei7-8KAGF7w=", "properties": {"@spider": "usps_collection_boxes", "addr:city": "STEVENSVILLE", "addr:country": "US", "addr:full": "5888 CLEVELAND AVE", "addr:postcode": "49127", "addr:state": "MI", "amenity": "post_box", "brand": "United States Postal Service", "brand:wikidata": "Q668687", "collection_times": "Mo-Sa 15:00", "name": "USPS COLLECTION BOX - BLUE BOX", "note": "ON 12/24 AND 12/31, THIS BOX MAY BE COLLECTED AS EARLY AS 12 NOON.", "nsi_id": "unitedstatespostalservice-a77078", "operator": "United States Postal Service", "operator:short": "USPS", "operator:type": "public", "operator:wikidata": "Q668687", "ref": "4912700001"}, "type": "Feature"}
{"dataset_attributes": {"@spider": "usps_collection_boxes", "spider:collection_time": "2023-11-19T08:23:43.397954"}, "geometry": {"coordinates": [-86.4927444, 42.015922], "type": "Point"}, "id": "I8fEEeQmIpeWcRHkRJFGd6SATwg=", "properties": {"@spider": "usps_collection_boxes", "addr:city": "STEVENSVILLE", "addr:country": "US", "addr:full": "5637 CLEVELAND AVE", "addr:postcode": "49127", "addr:state": "MI", "amenity": "post_box", "brand": "United States Postal Service", "brand:wikidata": "Q668687", "collection_times": "Mo-Sa 13:00", "name": "USPS COLLECTION BOX - BLUE BOX", "note": "ON 12/24 AND 12/31, THIS BOX MAY BE COLLECTED AS EARLY AS 12 NOON.", "nsi_id": "unitedstatespostalservice-a77078", "operator": "United States Postal Service", "operator:short": "USPS", "operator:type": "public", "operator:wikidata": "Q668687", "ref": "4912700003"}, "type": "Feature"}
{"dataset_attributes": {"@spider": "usps_collection_boxes", "spider:collection_time": "2023-11-19T08:23:43.397954"}, "geometry": {"coordinates": [-86.5139381, 42.035229], "type": "Point"}, "id": "TT4kKA7x4UJpBQI_dCo8qSN6QxA=", "properties": {"@spider": "usps_collection_boxes", "addr:city": "STEVENSVILLE", "addr:country": "US", "addr:full": "4559 RED ARROW HWY", "addr:postcode": "49127", "addr:state": "MI", "amenity": "post_box", "brand": "United States Postal Service", "brand:wikidata": "Q668687", "collection_times": "Mo-Sa 13:00", "name": "USPS COLLECTION BOX - BLUE BOX", "note": "ON 12/24 AND 12/31, THIS BOX MAY BE COLLECTED AS EARLY AS 12 NOON.", "nsi_id": "unitedstatespostalservice-a77078", "operator": "United States Postal Service", "operator:short": "USPS", "operator:type": "public", "operator:wikidata": "Q668687", "ref": "4912700006"}, "type": "Feature"}
{"dataset_attributes": {"@spider": "usps_collection_boxes", "spider:collection_time": "2023-11-19T08:23:43.397954"}, "geometry": {"coordinates": [-86.5205291, 42.01375], "type": "Point"}, "id": "w2v6yktUK5EOxUTjTHxJjpVNyDE=", "properties": {"@spider": "usps_collection_boxes", "addr:city": "STEVENSVILLE", "addr:country": "US", "addr:full": "5732 SAINT JOSEPH AVE", "addr:postcode": "49127", "addr:state": "MI", "amenity": "post_box", "brand": "United States Postal Service", "brand:wikidata": "Q668687", "collection_times": "Mo-Sa 13:00", "name": "USPS COLLECTION BOX - BLUE BOX", "note": "ON 12/24 AND 12/31, THIS BOX MAY BE COLLECTED AS EARLY AS 12 NOON.", "nsi_id": "unitedstatespostalservice-a77078", "operator": "United States Postal Service", "operator:short": "USPS", "operator:type": "public", "operator:wikidata": "Q668687", "ref": "4912700007"}, "type": "Feature"}
{"dataset_attributes": {"@spider": "usps_collection_boxes", "spider:collection_time": "2023-11-19T08:23:43.397954"}, "geometry": {"coordinates": [-86.494868, 42.01127], "type": "Point"}, "id": "xHv0F9RtQKoO4E3Zif8CuwawGL0=", "properties": {"@spider": "usps_collection_boxes", "addr:city": "STEVENSVILLE", "addr:country": "US", "addr:full": "5888 CLEVELAND AVE", "addr:postcode": "49127", "addr:state": "MI", "amenity": "post_box", "brand": "United States Postal Service", "brand:wikidata": "Q668687", "collection_times": "Mo-Sa 15:00", "name": "USPS COLLECTION BOX - PO LOBBY", "note": "ON 12/24 AND 12/31, THIS BOX MAY BE COLLECTED AS EARLY AS 12 NOON.", "nsi_id": "unitedstatespostalservice-a77078", "operator": "United States Postal Service", "operator:short": "USPS", "operator:type": "public", "operator:wikidata": "Q668687", "ref": "4912700010"}, "type": "Feature"}
{"dataset_attributes": {"@spider": "usps_collection_boxes", "spider:collection_time": "2023-11-19T08:23:43.397954"}, "geometry": {"coordinates": [-86.5135803, 42.043887], "type": "Point"}, "id": "E2gpKP2ZpTrkUg6-ciXws31YOYA=", "properties": {"@spider": "usps_collection_boxes", "addr:city": "STEVENSVILLE", "addr:country": "US", "addr:full": "2485 W GLENLORD RD", "addr:postcode": "49127", "addr:state": "MI", "amenity": "post_box", "brand": "United States Postal Service", "brand:wikidata": "Q668687", "collection_times": "Mo-Sa 13:00", "name": "USPS COLLECTION BOX - BLUE BOX", "note": "ON 12/24 AND 12/31, THIS BOX MAY BE COLLECTED AS EARLY AS 12 NOON.", "nsi_id": "unitedstatespostalservice-a77078", "operator": "United States Postal Service", "operator:short": "USPS", "operator:type": "public", "operator:wikidata": "Q668687", "ref": "4912700013"}, "type": "Feature"}
{"dataset_attributes": {"@spider": "usps_collection_boxes", "spider:collection_time": "2023-11-19T08:23:43.397954"}, "geometry": {"coordinates": [-86.494906955, 42.011081916], "type": "Point"}, "id": "PKtMzcJDcKCrZNxvTQqls-9rarw=", "properties": {"@spider": "usps_collection_boxes", "addr:city": "STEVENSVILLE", "addr:country": "US", "addr:full": "5888 CLEVELAND AVE", "addr:postcode": "49127", "addr:state": "MI", "amenity": "post_box", "brand": "United States Postal Service", "brand:wikidata": "Q668687", "collection_times": "Mo-Fr 15:00; Sa 12:00", "name": "USPS COLLECTION BOX - PO LOBBY", "note": "ON 12/24 AND 12/31, THIS BOX MAY BE COLLECTED AS EARLY AS 12 NOON.", "nsi_id": "unitedstatespostalservice-a77078", "operator": "United States Postal Service", "operator:short": "USPS", "operator:type": "public", "operator:wikidata": "Q668687", "ref": "4912700015"}, "type": "Feature"}
{"dataset_attributes": {"@spider": "usps_collection_boxes", "spider:collection_time": "2023-11-19T08:23:43.397954"}, "geometry": {"coordinates": [-86.610436, 41.803033], "type": "Point"}, "id": "1acdobpDpogaDdwNFM3cCAfBMYc=", "properties": {"@spider": "usps_collection_boxes", "addr:city": "THREE OAKS", "addr:country": "US", "addr:full": "201 N ELM ST", "addr:postcode": "49128", "addr:state": "MI", "amenity": "post_box", "brand": "United States Postal Service", "brand:wikidata": "Q668687", "collection_times": "Mo-Fr 14:05; Sa 12:00", "name": "USPS COLLECTION BOX - PO LOBBY", "note": "ON 12/24 AND 12/31, THIS BOX MAY BE COLLECTED AS EARLY AS 12 NOON.", "nsi_id": "unitedstatespostalservice-a77078", "operator": "United States Postal Service", "operator:short": "USPS", "operator:type": "public", "operator:wikidata": "Q668687", "ref": "4912800005"}, "type": "Feature"}
{"dataset_attributes": {"@spider": "usps_collection_boxes", "spider:collection_time": "2023-11-19T08:23:43.397954"}, "geometry": {"coordinates": [-86.610399, 41.802943], "type": "Point"}, "id": "IlLfJbmXERIPHpsyWvfjx90EHt4=", "properties": {"@spider": "usps_collection_boxes", "addr:city": "THREE OAKS", "addr:country": "US", "addr:full": "201 N ELM ST", "addr:postcode": "49128", "addr:state": "MI", "amenity": "post_box", "brand": "United States Postal Service", "brand:wikidata": "Q668687", "collection_times": "Mo-Fr 14:05; Sa 12:00", "name": "USPS COLLECTION BOX - BLUE BOX", "note": "ON 12/24 AND 12/31, THIS BOX MAY BE COLLECTED AS EARLY AS 12 NOON.", "nsi_id": "unitedstatespostalservice-a77078", "operator": "United States Postal Service", "operator:short": "USPS", "operator:type": "public", "operator:wikidata": "Q668687", "ref": "4912800007"}, "type": "Feature"}
{"dataset_attributes": {"@spider": "usps_collection_boxes", "spider:collection_time": "2023-11-19T08:23:43.397954"}, "geometry": {"coordinates": [-86.610440827, 41.802993], "type": "Point"}, "id": "B-q6pXGbhQHSWY9gppdpIgPeSdc=", "properties": {"@spider": "usps_collection_boxes", "addr:city": "THREE OAKS", "addr:country": "US", "addr:full": "201 N ELM ST", "addr:postcode": "49128", "addr:state": "MI", "amenity": "post_box", "brand": "United States Postal Service", "brand:wikidata": "Q668687", "collection_times": "Mo-Fr 13:30; Sa 11:30", "name": "USPS COLLECTION BOX - PO LOBBY", "note": "ON 12/24 AND 12/31, THIS BOX MAY BE COLLECTED AS EARLY AS 12 NOON.", "nsi_id": "unitedstatespostalservice-a77078", "operator": "United States Postal Service", "operator:short": "USPS", "operator:type": "public", "operator:wikidata": "Q668687", "ref": "4912800008"}, "type": "Feature"}
{"dataset_attributes": {"@spider": "usps_collection_boxes", "spider:collection_time": "2023-11-19T08:23:43.397954"}, "geometry": {"coordinates": [-86.695404, 41.825297], "type": "Point"}, "id": "9Q-9P9VnVNsNEHYtlLhzI9eI94w=", "properties": {"@spider": "usps_collection_boxes", "addr:city": "UNION PIER", "addr:country": "US", "addr:full": "16201 RED ARROW HWY", "addr:postcode": "49129", "addr:state": "MI", "amenity": "post_box", "brand": "United States Postal Service", "brand:wikidata": "Q668687", "collection_times": "Mo-Fr 14:05; Sa 11:00", "name": "USPS COLLECTION BOX - BLUE BOX", "note": "ON 12/24 AND 12/31, THIS BOX MAY BE COLLECTED AS EARLY AS 12 NOON.", "nsi_id": "unitedstatespostalservice-a77078", "operator": "United States Postal Service", "operator:short": "USPS", "operator:type": "public", "operator:wikidata": "Q668687", "ref": "4912900001"}, "type": "Feature"}
{"dataset_attributes": {"@spider": "usps_collection_boxes", "spider:collection_time": "2023-11-19T08:23:43.397954"}, "geometry": {"coordinates": [-86.695404, 41.825297], "type": "Point"}, "id": "ox9EZebiDOTREO2LKb8mmMIOzd8=", "properties": {"@spider": "usps_collection_boxes", "addr:city": "UNION PIER", "addr:country": "US", "addr:full": "16201 RED ARROW HWY", "addr:postcode": "49129", "addr:state": "MI", "amenity": "post_box", "brand": "United States Postal Service", "brand:wikidata": "Q668687", "collection_times": "Mo-Fr 14:05; Sa 11:00", "name": "USPS COLLECTION BOX - PO LOBBY", "note": "ON 12/24 AND 12/31, THIS BOX MAY BE COLLECTED AS EARLY AS 12 NOON.", "nsi_id": "unitedstatespostalservice-a77078", "operator": "United States Postal Service", "operator:short": "USPS", "operator:type": "public", "operator:wikidata": "Q668687", "ref": "4912900002"}, "type": "Feature"}
{"dataset_attributes": {"@spider": "usps_collection_boxes", "spider:collection_time": "2023-11-19T08:23:43.397954"}, "geometry": {"coordinates": [-86.6953630351, 41.8252818063], "type": "Point"}, "id": "0OMztOyPPQZZb63VznWvaae9mAM=", "properties": {"@spider": "usps_collection_boxes", "addr:city": "UNION PIER", "addr:country": "US", "addr:full": "16201 RED ARROW HWY", "addr:postcode": "49129", "addr:state": "MI", "amenity": "post_box", "brand": "United States Postal Service", "brand:wikidata": "Q668687", "collection_times": "Mo-Fr 14:00; Sa 10:30", "name": "USPS COLLECTION BOX - PO LOBBY", "note": "ON 12/24 AND 12/31, THIS BOX MAY BE COLLECTED AS EARLY AS 12 NOON.", "nsi_id": "unitedstatespostalservice-a77078", "operator": "United States Postal Service", "operator:short": "USPS", "operator:type": "public", "operator:wikidata": "Q668687", "ref": "4912900003"}, "type": "Feature"}
