{"geometry": {"coordinates": [-84.3203588, 42.276458], "type": "Point"}, "id": "-MpsVfksjQk8AGTuArFOsUUvzV4=", "properties": {"@source_uri": "https://tools.usps.com/UspsToolsRestServices/rest/POLocator/findLocations", "@spider": "usps_collection_boxes", "addr:city": "JACKSON", "addr:country": "US", "addr:postcode": "49201", "addr:state": "MI", "addr:street_address": "5511 ANN ARBOR RD", "amenity": "post_box", "brand": "United States Postal Service", "brand:wikidata": "Q668687", "collection_times": "Mo-Sa 12:00", "nsi_id": "unitedstatespostalservice-a77078", "operator": "United States Postal Service", "operator:short": "USPS", "operator:type": "public", "operator:wikidata": "Q668687", "ref": "4920100003"}, "type": "Feature"}
{"geometry": {"coordinates": [-84.429525998, 42.243691396], "type": "Point"}, "id": "krZDpc5nhcM0p7p3TyV3Le83bnU=", "properties": {"@source_uri": "https://tools.usps.com/UspsToolsRestServices/rest/POLocator/findLocations", "@spider": "usps_collection_boxes", "addr:city": "JACKSON", "addr:country": "US", "addr:postcode": "49201", "addr:state": "MI", "addr:street_address": "1301 W FRANKLIN ST", "amenity": "post_box", "brand": "United States Postal Service", "brand:wikidata": "Q668687", "collection_times": "Mo-Sa 16:30", "note": "ON 12/24 AND 12/31, THIS BOX MAY BE COLLECTED AS EARLY AS 12 NOON.", "nsi_id": "unitedstatespostalservice-a77078", "operator": "United States Postal Service", "operator:short": "USPS", "operator:type": "public", "operator:wikidata": "Q668687", "ref": "4920100013"}, "type": "Feature"}
{"geometry": {"coordinates": [-84.4088205969, 42.244965], "type": "Point"}, "id": "Ip-tIexCA5U0ASnPgNeDucvZpgs=", "properties": {"@source_uri": "https://tools.usps.com/UspsToolsRestServices/rest/POLocator/findLocations", "@spider": "usps_collection_boxes", "addr:city": "JACKSON", "addr:country": "US", "addr:postcode": "49201", "addr:state": "MI", "addr:street_address": "312 S JACKSON ST", "amenity": "post_box", "brand": "United States Postal Service", "brand:wikidata": "Q668687", "collection_times": "Mo-Sa 13:00", "note": "ON 12/24 AND 12/31, THIS BOX MAY BE COLLECTED AS EARLY AS 12 NOON.", "nsi_id": "unitedstatespostalservice-a77078", "operator": "United States Postal Service", "operator:short": "USPS", "operator:type": "public", "operator:wikidata": "Q668687", "ref": "4920100023"}, "type": "Feature"}
{"geometry": {"coordinates": [-84.4089645, 42.25427], "type": "Point"}, "id": "ENFsHsMNDALdRkt5PjUAtyXkWV4=", "properties": {"@source_uri": "https://tools.usps.com/UspsToolsRestServices/rest/POLocator/findLocations", "@spider": "usps_collection_boxes", "addr:city": "JACKSON", "addr:country": "US", "addr:postcode": "49201", "addr:state": "MI", "addr:street_address": "540 N JACKSON ST", "amenity": "post_box", "brand": "United States Postal Service", "brand:wikidata": "Q668687", "collection_times": "Mo-Sa 10:00", "nsi_id": "unitedstatespostalservice-a77078", "operator": "United States Postal Service", "operator:short": "USPS", "operator:type": "public", "operator:wikidata": "Q668687", "ref": "4920100032"}, "type": "Feature"}
{"geometry": {"coordinates": [-84.4137066, 42.22733], "type": "Point"}, "id": "E2-sKe5tjzKv275wk2qmbCtkayg=", "properties": {"@source_uri": "https://tools.usps.com/UspsToolsRestServices/rest/POLocator/findLocations", "@spider": "usps_collection_boxes", "addr:city": "JACKSON", "addr:country": "US", "addr:postcode": "49201", "addr:state": "MI", "addr:street_address": "303 W PROSPECT ST", "amenity": "post_box", "brand": "United States Postal Service", "brand:wikidata": "Q668687", "collection_times": "Mo-Sa 16:30", "note": "ON 12/24 AND 12/31, THIS BOX MAY BE COLLECTED AS EARLY AS 12 NOON.", "nsi_id": "unitedstatespostalservice-a77078", "operator": "United States Postal Service", "operator:short": "USPS", "operator:type": "public", "operator:wikidata": "Q668687", "ref": "4920100036"}, "type": "Feature"}
{"geometry": {"coordinates": [-84.4101506201, 42.2934436359], "type": "Point"}, "id": "AFR0KHSd3qcR-aQ3uAV0YieXNpE=", "properties": {"@source_uri": "https://tools.usps.com/UspsToolsRestServices/rest/POLocator/findLocations", "@spider": "usps_collection_boxes", "addr:city": "JACKSON", "addr:country": "US", "addr:postcode": "49201", "addr:state": "MI", "addr:street_address": "1400 GALLERY PLACE DR", "amenity": "post_box", "brand": "United States Postal Service", "brand:wikidata": "Q668687", "collection_times": "Mo-Sa 10:00", "nsi_id": "unitedstatespostalservice-a77078", "operator": "United States Postal Service", "operator:short": "USPS", "operator:type": "public", "operator:wikidata": "Q668687", "ref": "4920100052"}, "type": "Feature"}
{"geometry": {"coordinates": [-84.384497, 42.252237], "type": "Point"}, "id": "o_vaQ3GS6660jgNRS34YaFmGWLg=", "properties": {"@source_uri": "https://tools.usps.com/UspsToolsRestServices/rest/POLocator/findLocations", "@spider": "usps_collection_boxes", "addr:city": "JACKSON", "addr:country": "US", "addr:postcode": "49201", "addr:state": "MI", "addr:street_address": "110 ELM ST", "amenity": "post_box", "brand": "United States Postal Service", "brand:wikidata": "Q668687", "collection_times": "Mo-Fr 17:00; Sa 16:45", "note": "ON 12/24 AND 12/31, THIS BOX MAY BE COLLECTED AS EARLY AS 12 NOON.", "nsi_id": "unitedstatespostalservice-a77078", "operator": "United States Postal Service", "operator:short": "USPS", "operator:type": "public", "operator:wikidata": "Q668687", "ref": "4920100053"}, "type": "Feature"}
{"geometry": {"coordinates": [-84.4241445, 42.232914], "type": "Point"}, "id": "nLL_VPTgzn87IrZS8g3pq1Y1hzE=", "properties": {"@source_uri": "https://tools.usps.com/UspsToolsRestServices/rest/POLocator/findLocations", "@spider": "usps_collection_boxes", "addr:city": "JACKSON", "addr:country": "US", "addr:postcode": "49201", "addr:state": "MI", "addr:street_address": "820 W HIGH ST", "amenity": "post_box", "brand": "United States Postal Service", "brand:wikidata": "Q668687", "collection_times": "Mo-Fr 16:30; Sa 14:00", "note": "ON 12/24 AND 12/31, THIS BOX MAY BE COLLECTED AS EARLY AS 12 NOON.", "nsi_id": "unitedstatespostalservice-a77078", "operator": "United States Postal Service", "operator:short": "USPS", "operator:type": "public", "operator:wikidata": "Q668687", "ref": "4920100060"}, "type": "Feature"}
{"geometry": {"coordinates": [-84.4274528, 42.267374], "type": "Point"}, "id": "-RLPAbwiR45XTmTUabw7kteNzJQ=", "properties": {"@source_uri": "https://tools.usps.com/UspsToolsRestServices/rest/POLocator/findLocations", "@spider": "usps_collection_boxes", "addr:city": "JACKSON", "addr:country": "US", "addr:postcode": "49201", "addr:state": "MI", "addr:street_address": "1104 JACKSON XING", "amenity": "post_box", "brand": "United States Postal Service", "brand:wikidata": "Q668687", "collection_times": "Mo-Sa 17:00", "note": "ON 12/24 AND 12/31, THIS BOX MAY BE COLLECTED AS EARLY AS 12 NOON.", "nsi_id": "unitedstatespostalservice-a77078", "operator": "United States Postal Service", "operator:short": "USPS", "operator:type": "public", "operator:wikidata": "Q668687", "ref": "4920100068"}, "type": "Feature"}
{"geometry": {"coordinates": [-84.3632799, 42.25656], "type": "Point"}, "id": "UmuqJ__KgPJTkbY8Rn1mYirzueo=", "properties": {"@source_uri": "https://tools.usps.com/UspsToolsRestServices/rest/POLocator/findLocations", "@spider": "usps_collection_boxes", "addr:city": "JACKSON", "addr:country": "US", "addr:postcode": "49201", "addr:state": "MI", "addr:street_address": "3152 E MICHIGAN AVE", "amenity": "post_box", "brand": "United States Postal Service", "brand:wikidata": "Q668687", "collection_times": "Mo-Sa 13:00", "note": "ON 12/24 AND 12/31, THIS BOX MAY BE COLLECTED AS EARLY AS 12 NOON.", "nsi_id": "unitedstatespostalservice-a77078", "operator": "United States Postal Service", "operator:short": "USPS", "operator:type": "public", "operator:wikidata": "Q668687", "ref": "4920100072"}, "type": "Feature"}
{"geometry": {"coordinates": [-84.3891736, 42.225515], "type": "Point"}, "id": "nnpa25EyThnblzesPZKfOKevCAw=", "properties": {"@source_uri": "https://tools.usps.com/UspsToolsRestServices/rest/POLocator/findLocations", "@spider": "usps_collection_boxes", "addr:city": "JACKSON", "addr:country": "US", "addr:postcode": "49201", "addr:state": "MI", "addr:street_address": "2000 BROOKLYN RD", "amenity": "post_box", "brand": "United States Postal Service", "brand:wikidata": "Q668687", "collection_times": "Mo-Sa 12:00", "nsi_id": "unitedstatespostalservice-a77078", "operator": "United States Postal Service", "operator:short": "USPS", "operator:type": "public", "operator:wikidata": "Q668687", "ref": "4920100099"}, "type": "Feature"}
{"geometry": {"coordinates": [-84.4415818, 42.27575], "type": "Point"}, "id": "mXflapH6IutRxg4fG7b8KnWaUTo=", "properties": {"@source_uri": "https://tools.usps.com/UspsToolsRestServices/rest/POLocator/findLocations", "@spider": "usps_collection_boxes", "addr:city": "JACKSON", "addr:country": "US", "addr:postcode": "49201", "addr:state": "MI", "addr:street_address": "2251 SPRINGPORT RD", "amenity": "post_box", "brand": "United States Postal Service", "brand:wikidata": "Q668687", "collection_times": "Mo-Sa 12:00", "nsi_id": "unitedstatespostalservice-a77078", "operator": "United States Postal Service", "operator:short": "USPS", "operator:type": "public", "operator:wikidata": "Q668687", "ref": "4920100104"}, "type": "Feature"}
{"geometry": {"coordinates": [-84.4167522, 42.268026], "type": "Point"}, "id": "WiG9jnUQRgICTPw630gA0F1Wy1Q=", "properties": {"@source_uri": "https://tools.usps.com/UspsToolsRestServices/rest/POLocator/findLocations", "@spider": "usps_collection_boxes", "addr:city": "JACKSON", "addr:country": "US", "addr:postcode": "49201", "addr:state": "MI", "addr:street_address": "509 SPARKS ST", "amenity": "post_box", "brand": "United States Postal Service", "brand:wikidata": "Q668687", "collection_times": "Mo-Fr 17:00; Sa 16:00", "note": "ON 12/24 AND 12/31, THIS BOX MAY BE COLLECTED AS EARLY AS 12 NOON.", "nsi_id": "unitedstatespostalservice-a77078", "operator": "United States Postal Service", "operator:short": "USPS", "operator:type": "public", "operator:wikidata": "Q668687", "ref": "4920100105"}, "type": "Feature"}
{"geometry": {"coordinates": [-84.40838298, 42.243253003], "type": "Point"}, "id": "yIeslNUm6xTkrpK9Xkjax3W3IlE=", "properties": {"@source_uri": "https://tools.usps.com/UspsToolsRestServices/rest/POLocator/findLocations", "@spider": "usps_collection_boxes", "addr:city": "JACKSON", "addr:country": "US", "addr:postcode": "49201", "addr:state": "MI", "addr:street_address": "511 S JACKSON ST", "amenity": "post_box", "brand": "United States Postal Service", "brand:wikidata": "Q668687", "collection_times": "Mo-Sa 10:00", "nsi_id": "unitedstatespostalservice-a77078", "operator": "United States Postal Service", "operator:short": "USPS", "operator:type": "public", "operator:wikidata": "Q668687", "ref": "4920100106"}, "type": "Feature"}
{"geometry": {"coordinates": [-84.4118863997, 42.2455520672], "type": "Point"}, "id": "9Tg_FePXYFRVb-KYA0amfVRStgE=", "properties": {"@source_uri": "https://tools.usps.com/UspsToolsRestServices/rest/POLocator/findLocations", "@spider": "usps_collection_boxes", "addr:city": "JACKSON", "addr:country": "US", "addr:postcode": "49201", "addr:state": "MI", "addr:street_address": "301 W WASHINGTON AVE", "amenity": "post_box", "brand": "United States Postal Service", "brand:wikidata": "Q668687", "collection_times": "Mo-Sa 17:00", "note": "ON 12/24 AND 12/31, THIS BOX MAY BE COLLECTED AS EARLY AS 12 NOON.", "nsi_id": "unitedstatespostalservice-a77078", "operator": "United States Postal Service", "operator:short": "USPS", "operator:type": "public", "operator:wikidata": "Q668687", "ref": "4920100113"}, "type": "Feature"}
{"geometry": {"coordinates": [-84.4359836, 42.237829], "type": "Point"}, "id": "hTF_KHj6UF3iBeBvM_Sw-BCwCvs=", "properties": {"@source_uri": "https://tools.usps.com/UspsToolsRestServices/rest/POLocator/findLocations", "@spider": "usps_collection_boxes", "addr:city": "JACKSON", "addr:country": "US", "addr:postcode": "49201", "addr:state": "MI", "addr:street_address": "1821 SPRING ARBOR RD", "amenity": "post_box", "brand": "United States Postal Service", "brand:wikidata": "Q668687", "collection_times": "Mo-Sa 17:00", "note": "ON 12/24 AND 12/31, THIS BOX MAY BE COLLECTED AS EARLY AS 12 NOON.", "nsi_id": "unitedstatespostalservice-a77078", "operator": "United States Postal Service", "operator:short": "USPS", "operator:type": "public", "operator:wikidata": "Q668687", "ref": "4920100117"}, "type": "Feature"}
{"geometry": {"coordinates": [-84.4505150357, 42.2730069991], "type": "Point"}, "id": "UfTyqWim-fAOkjfQeVAM_AEFp6Q=", "properties": {"@source_uri": "https://tools.usps.com/UspsToolsRestServices/rest/POLocator/findLocations", "@spider": "usps_collection_boxes", "addr:city": "JACKSON", "addr:country": "US", "addr:postcode": "49201", "addr:state": "MI", "addr:street_address": "2777 AIRPORT RD", "amenity": "post_box", "brand": "United States Postal Service", "brand:wikidata": "Q668687", "collection_times": "Mo-Fr 17:00; Sa 16:45", "note": "ON 12/24 AND 12/31, THIS BOX MAY BE COLLECTED AS EARLY AS 12 NOON.", "nsi_id": "unitedstatespostalservice-a77078", "operator": "United States Postal Service", "operator:short": "USPS", "operator:type": "public", "operator:wikidata": "Q668687", "ref": "4920100128"}, "type": "Feature"}
{"geometry": {"coordinates": [-84.4332749, 42.239539], "type": "Point"}, "id": "wMsRk_DCa4siWrS_hfFXHiVVJvY=", "properties": {"@source_uri": "https://tools.usps.com/UspsToolsRestServices/rest/POLocator/findLocations", "@spider": "usps_collection_boxes", "addr:city": "JACKSON", "addr:country": "US", "addr:postcode": "49201", "addr:state": "MI", "addr:street_address": "900 S BROWN ST", "amenity": "post_box", "brand": "United States Postal Service", "brand:wikidata": "Q668687", "collection_times": "Mo-Sa 17:00", "note": "ON 12/24 AND 12/31, THIS BOX MAY BE COLLECTED AS EARLY AS 12 NOON.", "nsi_id": "unitedstatespostalservice-a77078", "operator": "United States Postal Service", "operator:short": "USPS", "operator:type": "public", "operator:wikidata": "Q668687", "ref": "4920100131"}, "type": "Feature"}
{"geometry": {"coordinates": [-84.4089678, 42.246939], "type": "Point"}, "id": "wptjZLC1SAhJGFz6_tsJw5vqVcw=", "properties": {"@source_uri": "https://tools.usps.com/UspsToolsRestServices/rest/POLocator/findLocations", "@spider": "usps_collection_boxes", "addr:city": "JACKSON", "addr:country": "US", "addr:postcode": "49201", "addr:state": "MI", "addr:street_address": "100 S JACKSON ST", "amenity": "post_box", "brand": "United States Postal Service", "brand:wikidata": "Q668687", "collection_times": "Mo-Sa 14:30", "note": "ON 12/24 AND 12/31, THIS BOX MAY BE COLLECTED AS EARLY AS 12 NOON.", "nsi_id": "unitedstatespostalservice-a77078", "operator": "United States Postal Service", "operator:short": "USPS", "operator:type": "public", "operator:wikidata": "Q668687", "ref": "4920100145"}, "type": "Feature"}
{"geometry": {"coordinates": [-84.3997624, 42.196058], "type": "Point"}, "id": "o_DZWaMmeHeCR4g5h5F1CE83c-I=", "properties": {"@source_uri": "https://tools.usps.com/UspsToolsRestServices/rest/POLocator/findLocations", "@spider": "usps_collection_boxes", "addr:city": "JACKSON", "addr:country": "US", "addr:postcode": "49201", "addr:state": "MI", "addr:street_address": "801 HAGUE AVE", "amenity": "post_box", "brand": "United States Postal Service", "brand:wikidata": "Q668687", "collection_times": "Mo-Fr 13:00; Sa 12:00", "note": "ON 12/24 AND 12/31, THIS BOX MAY BE COLLECTED AS EARLY AS 12 NOON.", "nsi_id": "unitedstatespostalservice-a77078", "operator": "United States Postal Service", "operator:short": "USPS", "operator:type": "public", "operator:wikidata": "Q668687", "ref": "4920100147"}, "type": "Feature"}
{"geometry": {"coordinates": [-84.4368176, 42.20102], "type": "Point"}, "id": "jyGkH1dV7dsJB_3VmSvST7XGk-I=", "properties": {"@source_uri": "https://tools.usps.com/UspsToolsRestServices/rest/POLocator/findLocations", "@spider": "usps_collection_boxes", "addr:city": "JACKSON", "addr:country": "US", "addr:postcode": "49201", "addr:state": "MI", "addr:street_address": "1931 HORTON RD", "amenity": "post_box", "brand": "United States Postal Service", "brand:wikidata": "Q668687", "collection_times": "Mo-Sa 13:00", "note": "ON 12/24 AND 12/31, THIS BOX MAY BE COLLECTED AS EARLY AS 12 NOON.", "nsi_id": "unitedstatespostalservice-a77078", "operator": "United States Postal Service", "operator:short": "USPS", "operator:type": "public", "operator:wikidata": "Q668687", "ref": "4920100151"}, "type": "Feature"}
{"geometry": {"coordinates": [-84.4262139, 42.263183], "type": "Point"}, "id": "72d9LBkGzHCGiIfVwlQtOL2fcig=", "properties": {"@source_uri": "https://tools.usps.com/UspsToolsRestServices/rest/POLocator/findLocations", "@spider": "usps_collection_boxes", "addr:city": "JACKSON", "addr:country": "US", "addr:postcode": "49201", "addr:state": "MI", "addr:street_address": "1100 W ARGYLE AVE", "amenity": "post_box", "brand": "United States Postal Service", "brand:wikidata": "Q668687", "collection_times": "Mo-Fr 17:00; Sa 16:30", "note": "ON 12/24 AND 12/31, THIS BOX MAY BE COLLECTED AS EARLY AS 12 NOON.", "nsi_id": "unitedstatespostalservice-a77078", "operator": "United States Postal Service", "operator:short": "USPS", "operator:type": "public", "operator:wikidata": "Q668687", "ref": "4920100160"}, "type": "Feature"}
{"geometry": {"coordinates": [-84.4027506, 42.247386], "type": "Point"}, "id": "xV93ZrCsJx0DLV6QzM6qYngdPlI=", "properties": {"@source_uri": "https://tools.usps.com/UspsToolsRestServices/rest/POLocator/findLocations", "@spider": "usps_collection_boxes", "addr:city": "JACKSON", "addr:country": "US", "addr:postcode": "49201", "addr:state": "MI", "addr:street_address": "301 E LOUIS GLICK HWY", "amenity": "post_box", "brand": "United States Postal Service", "brand:wikidata": "Q668687", "collection_times": "Mo-Sa 10:00", "nsi_id": "unitedstatespostalservice-a77078", "operator": "United States Postal Service", "operator:short": "USPS", "operator:type": "public", "operator:wikidata": "Q668687", "ref": "4920100161"}, "type": "Feature"}
{"geometry": {"coordinates": [-84.43548, 42.183255], "type": "Point"}, "id": "Pl2YQ9aSiVgMLLdSK2BFFZZQ7bw=", "properties": {"@source_uri": "https://tools.usps.com/UspsToolsRestServices/rest/POLocator/findLocations", "@spider": "usps_collection_boxes", "addr:city": "JACKSON", "addr:country": "US", "addr:postcode": "49201", "addr:state": "MI", "addr:street_address": "1500 N ELM ST", "amenity": "post_box", "brand": "United States Postal Service", "brand:wikidata": "Q668687", "collection_times": "Mo-Sa 17:00", "note": "ON 12/24 AND 12/31, THIS BOX MAY BE COLLECTED AS EARLY AS 12 NOON.", "nsi_id": "unitedstatespostalservice-a77078", "operator": "United States Postal Service", "operator:short": "USPS", "operator:type": "public", "operator:wikidata": "Q668687", "ref": "4920100162"}, "type": "Feature"}
{"geometry": {"coordinates": [-84.3639711, 42.239871], "type": "Point"}, "id": "MkRoVfYd4lDeou8epWpUhf_1j-I=", "properties": {"@source_uri": "https://tools.usps.com/UspsToolsRestServices/rest/POLocator/findLocations", "@spider": "usps_collection_boxes", "addr:city": "JACKSON", "addr:country": "US", "addr:postcode": "49201", "addr:state": "MI", "addr:street_address": "3101 PAGE AVE", "amenity": "post_box", "brand": "United States Postal Service", "brand:wikidata": "Q668687", "collection_times": "Mo-Sa 10:00", "nsi_id": "unitedstatespostalservice-a77078", "operator": "United States Postal Service", "operator:short": "USPS", "operator:type": "public", "operator:wikidata": "Q668687", "ref": "4920100165"}, "type": "Feature"}
{"geometry": {"coordinates": [-84.4063723, 42.247428], "type": "Point"}, "id": "3dOwm66XefwXS1moyV3A1J9TdEU=", "properties": {"@source_uri": "https://tools.usps.com/UspsToolsRestServices/rest/POLocator/findLocations", "@spider": "usps_collection_boxes", "addr:city": "JACKSON", "addr:country": "US", "addr:postcode": "49201", "addr:state": "MI", "addr:street_address": "113 W MICHIGAN AVE", "amenity": "post_box", "brand": "United States Postal Service", "brand:wikidata": "Q668687", "collection_times": "Mo-Sa 17:00", "note": "ON 12/24 AND 12/31, THIS BOX MAY BE COLLECTED AS EARLY AS 12 NOON.", "nsi_id": "unitedstatespostalservice-a77078", "operator": "United States Postal Service", "operator:short": "USPS", "operator:type": "public", "operator:wikidata": "Q668687", "ref": "4920100172"}, "type": "Feature"}
{"geometry": {"coordinates": [-84.4067019897, 42.2480399917], "type": "Point"}, "id": "99DgzQhmdePJf4H47tETHNNhMvY=", "properties": {"@source_uri": "https://tools.usps.com/UspsToolsRestServices/rest/POLocator/findLocations", "@spider": "usps_collection_boxes", "addr:city": "JACKSON", "addr:country": "US", "addr:postcode": "49201", "addr:state": "MI", "addr:street_address": "120 W MICHIGAN AVE", "amenity": "post_box", "brand": "United States Postal Service", "brand:wikidata": "Q668687", "collection_times": "Mo-Sa 14:30", "note": "ON 12/24 AND 12/31, THIS BOX MAY BE COLLECTED AS EARLY AS 12 NOON.", "nsi_id": "unitedstatespostalservice-a77078", "operator": "United States Postal Service", "operator:short": "USPS", "operator:type": "public", "operator:wikidata": "Q668687", "ref": "4920100176"}, "type": "Feature"}
{"geometry": {"coordinates": [-84.4242820257, 42.2637799905], "type": "Point"}, "id": "pkCcFqbJyjVZkrTjxtuOsRc1M1Y=", "properties": {"@source_uri": "https://tools.usps.com/UspsToolsRestServices/rest/POLocator/findLocations", "@spider": "usps_collection_boxes", "addr:city": "JACKSON", "addr:country": "US", "addr:postcode": "49201", "addr:state": "MI", "addr:street_address": "1200 N WEST", "amenity": "post_box", "brand": "United States Postal Service", "brand:wikidata": "Q668687", "collection_times": "Mo-Sa 10:00", "nsi_id": "unitedstatespostalservice-a77078", "operator": "United States Postal Service", "operator:short": "USPS", "operator:type": "public", "operator:wikidata": "Q668687", "ref": "4920100177"}, "type": "Feature"}
{"geometry": {"coordinates": [-84.4619916, 42.233896], "type": "Point"}, "id": "bhJ6Euy-A9kASwohTk1XaJizqb8=", "properties": {"@source_uri": "https://tools.usps.com/UspsToolsRestServices/rest/POLocator/findLocations", "@spider": "usps_collection_boxes", "addr:city": "JACKSON", "addr:country": "US", "addr:postcode": "49201", "addr:state": "MI", "addr:street_address": "3634 MCCAIN RD", "amenity": "post_box", "brand": "United States Postal Service", "brand:wikidata": "Q668687", "collection_times": "Mo-Sa 10:00", "nsi_id": "unitedstatespostalservice-a77078", "operator": "United States Postal Service", "operator:short": "USPS", "operator:type": "public", "operator:wikidata": "Q668687", "ref": "4920100181"}, "type": "Feature"}
{"geometry": {"coordinates": [-84.43548, 42.183255], "type": "Point"}, "id": "mv4rqEcX2YFa9etV3F1mzyPzjZs=", "properties": {"@source_uri": "https://tools.usps.com/UspsToolsRestServices/rest/POLocator/findLocations", "@spider": "usps_collection_boxes", "addr:city": "JACKSON", "addr:country": "US", "addr:postcode": "49201", "addr:state": "MI", "addr:street_address": "1850 W MICHIGAN AVE", "amenity": "post_box", "brand": "United States Postal Service", "brand:wikidata": "Q668687", "collection_times": "Mo-Fr 16:30; Sa 17:00", "note": "ON 12/24 AND 12/31, THIS BOX MAY BE COLLECTED AS EARLY AS 12 NOON.", "nsi_id": "unitedstatespostalservice-a77078", "operator": "United States Postal Service", "operator:short": "USPS", "operator:type": "public", "operator:wikidata": "Q668687", "ref": "4920100189"}, "type": "Feature"}
{"geometry": {"coordinates": [-84.4457599, 42.292175], "type": "Point"}, "id": "FwUPy-05w7UuM34JMzs_pftplX0=", "properties": {"@source_uri": "https://tools.usps.com/UspsToolsRestServices/rest/POLocator/findLocations", "@spider": "usps_collection_boxes", "addr:city": "JACKSON", "addr:country": "US", "addr:postcode": "49201", "addr:state": "MI", "addr:street_address": "3200 HAWTHORN DR", "amenity": "post_box", "brand": "United States Postal Service", "brand:wikidata": "Q668687", "collection_times": "Mo-Sa 12:00", "nsi_id": "unitedstatespostalservice-a77078", "operator": "United States Postal Service", "operator:short": "USPS", "operator:type": "public", "operator:wikidata": "Q668687", "ref": "4920100192"}, "type": "Feature"}
{"geometry": {"coordinates": [-84.3950128, 42.240391], "type": "Point"}, "id": "ZKJ-Yj0oNOuWqY_Be9CABHYXrqU=", "properties": {"@source_uri": "https://tools.usps.com/UspsToolsRestServices/rest/POLocator/findLocations", "@spider": "usps_collection_boxes", "addr:city": "JACKSON", "addr:country": "US", "addr:postcode": "49201", "addr:state": "MI", "addr:street_address": "915 BRIDGE ST", "amenity": "post_box", "brand": "United States Postal Service", "brand:wikidata": "Q668687", "collection_times": "Mo-Sa 10:00", "nsi_id": "unitedstatespostalservice-a77078", "operator": "United States Postal Service", "operator:short": "USPS", "operator:type": "public", "operator:wikidata": "Q668687", "ref": "4920100197"}, "type": "Feature"}
{"geometry": {"coordinates": [-84.4396911, 42.198182], "type": "Point"}, "id": "zcVVmPMcPaoys5UqkLICCpkeals=", "properties": {"@source_uri": "https://tools.usps.com/UspsToolsRestServices/rest/POLocator/findLocations", "@spider": "usps_collection_boxes", "addr:city": "JACKSON", "addr:country": "US", "addr:postcode": "49201", "addr:state": "MI", "addr:street_address": "2141 FERGUSON RD", "amenity": "post_box", "brand": "United States Postal Service", "brand:wikidata": "Q668687", "collection_times": "Mo-Sa 13:00", "note": "ON 12/24 AND 12/31, THIS BOX MAY BE COLLECTED AS EARLY AS 12 NOON.", "nsi_id": "unitedstatespostalservice-a77078", "operator": "United States Postal Service", "operator:short": "USPS", "operator:type": "public", "operator:wikidata": "Q668687", "ref": "4920100199"}, "type": "Feature"}
{"geometry": {"coordinates": [-84.429669054, 42.267657899], "type": "Point"}, "id": "kNRmoQcvuC6maxFYEaKlL5GI9ec=", "properties": {"@source_uri": "https://tools.usps.com/UspsToolsRestServices/rest/POLocator/findLocations", "@spider": "usps_collection_boxes", "addr:city": "JACKSON", "addr:country": "US", "addr:postcode": "49201", "addr:state": "MI", "addr:street_address": "1104 JACKSON XING", "amenity": "post_box", "brand": "United States Postal Service", "brand:wikidata": "Q668687", "collection_times": "Mo-Fr 17:00; Sa 14:00", "indoor": "yes", "note": "ON 12/24 AND 12/31, THIS BOX MAY BE COLLECTED AS EARLY AS 12 NOON.", "nsi_id": "unitedstatespostalservice-a77078", "operator": "United States Postal Service", "operator:short": "USPS", "operator:type": "public", "operator:wikidata": "Q668687", "ref": "4920100203"}, "type": "Feature"}
{"geometry": {"coordinates": [-84.406310665, 42.247451496], "type": "Point"}, "id": "AiB9oIrLHzKPrsNFGimttkhwi9M=", "properties": {"@source_uri": "https://tools.usps.com/UspsToolsRestServices/rest/POLocator/findLocations", "@spider": "usps_collection_boxes", "addr:city": "JACKSON", "addr:country": "US", "addr:postcode": "49201", "addr:state": "MI", "addr:street_address": "113 W MICHIGAN AVE", "amenity": "post_box", "brand": "United States Postal Service", "brand:wikidata": "Q668687", "collection_times": "Mo-Sa 17:00", "indoor": "yes", "note": "ON 12/24 AND 12/31, THIS BOX MAY BE COLLECTED AS EARLY AS 12 NOON.", "nsi_id": "unitedstatespostalservice-a77078", "operator": "United States Postal Service", "operator:short": "USPS", "operator:type": "public", "operator:wikidata": "Q668687", "ref": "4920100204"}, "type": "Feature"}
{"geometry": {"coordinates": [-84.43548, 42.183255], "type": "Point"}, "id": "wme75N6_PtJlZq6MHscYeMU_oao=", "properties": {"@source_uri": "https://tools.usps.com/UspsToolsRestServices/rest/POLocator/findLocations", "@spider": "usps_collection_boxes", "addr:city": "JACKSON", "addr:country": "US", "addr:postcode": "49201", "addr:state": "MI", "addr:street_address": "3031 E MICHIGAN AVE", "amenity": "post_box", "brand": "United States Postal Service", "brand:wikidata": "Q668687", "collection_times": "Mo-Sa 16:30", "note": "ON 12/24 AND 12/31, THIS BOX MAY BE COLLECTED AS EARLY AS 12 NOON.", "nsi_id": "unitedstatespostalservice-a77078", "operator": "United States Postal Service", "operator:short": "USPS", "operator:type": "public", "operator:wikidata": "Q668687", "ref": "4920100209"}, "type": "Feature"}
{"geometry": {"coordinates": [-84.346732, 41.986554], "type": "Point"}, "id": "gBXt77cjo41MSG3WECd7BkbaAlE=", "properties": {"@source_uri": "https://tools.usps.com/UspsToolsRestServices/rest/POLocator/findLocations", "@spider": "usps_collection_boxes", "addr:city": "ADDISON", "addr:country": "US", "addr:postcode": "49220", "addr:state": "MI", "addr:street_address": "103 S TALBOT ST", "amenity": "post_box", "brand": "United States Postal Service", "brand:wikidata": "Q668687", "collection_times": "Mo-Fr 15:45; Sa 11:00", "note": "ON 12/24 AND 12/31, THIS BOX MAY BE COLLECTED AS EARLY AS 12 NOON.", "nsi_id": "unitedstatespostalservice-a77078", "operator": "United States Postal Service", "operator:short": "USPS", "operator:type": "public", "operator:wikidata": "Q668687", "ref": "4922000002"}, "type": "Feature"}
{"geometry": {"coordinates": [-84.346713459, 41.986581301], "type": "Point"}, "id": "UjYi3YUTZOGhnPO8Z07UzM-kOpc=", "properties": {"@source_uri": "https://tools.usps.com/UspsToolsRestServices/rest/POLocator/findLocations", "@spider": "usps_collection_boxes", "addr:city": "ADDISON", "addr:country": "US", "addr:postcode": "49220", "addr:state": "MI", "addr:street_address": "103 S TALBOT ST", "amenity": "post_box", "brand": "United States Postal Service", "brand:wikidata": "Q668687", "collection_times": "Mo-Fr 16:00; Sa 11:00", "indoor": "yes", "note": "ON 12/24 AND 12/31, THIS BOX MAY BE COLLECTED AS EARLY AS 12 NOON.", "nsi_id": "unitedstatespostalservice-a77078", "operator": "United States Postal Service", "operator:short": "USPS", "operator:type": "public", "operator:wikidata": "Q668687", "ref": "4922000005"}, "type": "Feature"}
{"geometry": {"coordinates": [-84.035429279, 41.900526394], "type": "Point"}, "id": "a5E6ZC58rTNWXZIdzwTzbZISx3w=", "properties": {"@source_uri": "https://tools.usps.com/UspsToolsRestServices/rest/POLocator/findLocations", "@spider": "usps_collection_boxes", "addr:city": "ADRIAN", "addr:country": "US", "addr:postcode": "49221", "addr:state": "MI", "addr:street_address": "216 N MAIN ST", "amenity": "post_box", "brand": "United States Postal Service", "brand:wikidata": "Q668687", "collection_times": "Mo-Sa 16:30", "note": "ON 12/24 AND 12/31, THIS BOX MAY BE COLLECTED AS EARLY AS 12 NOON.", "nsi_id": "unitedstatespostalservice-a77078", "operator": "United States Postal Service", "operator:short": "USPS", "operator:type": "public", "operator:wikidata": "Q668687", "ref": "4922100017"}, "type": "Feature"}
{"geometry": {"coordinates": [-84.0388514, 41.876857], "type": "Point"}, "id": "8cBnxQqm40Rr9Li2tw033zma1Fg=", "properties": {"@source_uri": "https://tools.usps.com/UspsToolsRestServices/rest/POLocator/findLocations", "@spider": "usps_collection_boxes", "addr:city": "ADRIAN", "addr:country": "US", "addr:postcode": "49221", "addr:state": "MI", "addr:street_address": "1357 S MAIN ST", "amenity": "post_box", "brand": "United States Postal Service", "brand:wikidata": "Q668687", "collection_times": "Mo-Sa 16:00", "note": "ON 12/24 AND 12/31, THIS BOX MAY BE COLLECTED AS EARLY AS 12 NOON.", "nsi_id": "unitedstatespostalservice-a77078", "operator": "United States Postal Service", "operator:short": "USPS", "operator:type": "public", "operator:wikidata": "Q668687", "ref": "4922100023"}, "type": "Feature"}
{"geometry": {"coordinates": [-84.0440377, 41.878485], "type": "Point"}, "id": "OoHz2oldbT0cIJLS6bKPQZIkBog=", "properties": {"@source_uri": "https://tools.usps.com/UspsToolsRestServices/rest/POLocator/findLocations", "@spider": "usps_collection_boxes", "addr:city": "ADRIAN", "addr:country": "US", "addr:postcode": "49221", "addr:state": "MI", "addr:street_address": "1380 S MAIN ST", "amenity": "post_box", "brand": "United States Postal Service", "brand:wikidata": "Q668687", "collection_times": "Mo-Sa 15:30", "note": "ON 12/24 AND 12/31, THIS BOX MAY BE COLLECTED AS EARLY AS 12 NOON.", "nsi_id": "unitedstatespostalservice-a77078", "operator": "United States Postal Service", "operator:short": "USPS", "operator:type": "public", "operator:wikidata": "Q668687", "ref": "4922100027"}, "type": "Feature"}
{"geometry": {"coordinates": [-84.0462304, 41.875845], "type": "Point"}, "id": "eUNtMqO8CGy9IaKpdDB79hg3P7I=", "properties": {"@source_uri": "https://tools.usps.com/UspsToolsRestServices/rest/POLocator/findLocations", "@spider": "usps_collection_boxes", "addr:city": "ADRIAN", "addr:country": "US", "addr:postcode": "49221", "addr:state": "MI", "addr:street_address": "1416 S MAIN ST", "amenity": "post_box", "brand": "United States Postal Service", "brand:wikidata": "Q668687", "collection_times": "Mo-Sa 15:30", "note": "ON 12/24 AND 12/31, THIS BOX MAY BE COLLECTED AS EARLY AS 12 NOON.", "nsi_id": "unitedstatespostalservice-a77078", "operator": "United States Postal Service", "operator:short": "USPS", "operator:type": "public", "operator:wikidata": "Q668687", "ref": "4922100029"}, "type": "Feature"}
{"geometry": {"coordinates": [-84.030917, 41.897275], "type": "Point"}, "id": "xOJRR7huXLhZ85bWUH8e3UNeLHQ=", "properties": {"@source_uri": "https://tools.usps.com/UspsToolsRestServices/rest/POLocator/findLocations", "@spider": "usps_collection_boxes", "addr:city": "ADRIAN", "addr:country": "US", "addr:postcode": "49221", "addr:state": "MI", "addr:street_address": "413 E MAUMEE ST", "amenity": "post_box", "brand": "United States Postal Service", "brand:wikidata": "Q668687", "collection_times": "Mo-Sa 17:00", "note": "ON 12/24 AND 12/31, THIS BOX MAY BE COLLECTED AS EARLY AS 12 NOON.", "nsi_id": "unitedstatespostalservice-a77078", "operator": "United States Postal Service", "operator:short": "USPS", "operator:type": "public", "operator:wikidata": "Q668687", "ref": "4922100032"}, "type": "Feature"}
{"geometry": {"coordinates": [-84.0350581, 41.898473], "type": "Point"}, "id": "SdJkaqit0k85ceFl5L41Kdxdgy4=", "properties": {"@source_uri": "https://tools.usps.com/UspsToolsRestServices/rest/POLocator/findLocations", "@spider": "usps_collection_boxes", "addr:city": "ADRIAN", "addr:country": "US", "addr:postcode": "49221", "addr:state": "MI", "addr:street_address": "135 E MAUMEE ST", "amenity": "post_box", "brand": "United States Postal Service", "brand:wikidata": "Q668687", "collection_times": "Mo-Sa 16:30", "note": "ON 12/24 AND 12/31, THIS BOX MAY BE COLLECTED AS EARLY AS 12 NOON.", "nsi_id": "unitedstatespostalservice-a77078", "operator": "United States Postal Service", "operator:short": "USPS", "operator:type": "public", "operator:wikidata": "Q668687", "ref": "4922100037"}, "type": "Feature"}
{"geometry": {"coordinates": [-84.0434233, 41.900102], "type": "Point"}, "id": "GJKug6ybY4K9x33_9cNDVFaMteE=", "properties": {"@source_uri": "https://tools.usps.com/UspsToolsRestServices/rest/POLocator/findLocations", "@spider": "usps_collection_boxes", "addr:city": "ADRIAN", "addr:country": "US", "addr:postcode": "49221", "addr:state": "MI", "addr:street_address": "506 W MAUMEE ST", "amenity": "post_box", "brand": "United States Postal Service", "brand:wikidata": "Q668687", "collection_times": "Mo-Sa 15:30", "note": "ON 12/24 AND 12/31, THIS BOX MAY BE COLLECTED AS EARLY AS 12 NOON.", "nsi_id": "unitedstatespostalservice-a77078", "operator": "United States Postal Service", "operator:short": "USPS", "operator:type": "public", "operator:wikidata": "Q668687", "ref": "4922100041"}, "type": "Feature"}
{"geometry": {"coordinates": [-84.0657076, 41.904387], "type": "Point"}, "id": "XPtEtk4BnJiIByHQvO9tMjzfGzk=", "properties": {"@source_uri": "https://tools.usps.com/UspsToolsRestServices/rest/POLocator/findLocations", "@spider": "usps_collection_boxes", "addr:city": "ADRIAN", "addr:country": "US", "addr:postcode": "49221", "addr:state": "MI", "addr:street_address": "1539 W MAUMEE ST", "amenity": "post_box", "brand": "United States Postal Service", "brand:wikidata": "Q668687", "collection_times": "Mo-Sa 15:30", "note": "ON 12/24 AND 12/31, THIS BOX MAY BE COLLECTED AS EARLY AS 12 NOON.", "nsi_id": "unitedstatespostalservice-a77078", "operator": "United States Postal Service", "operator:short": "USPS", "operator:type": "public", "operator:wikidata": "Q668687", "ref": "4922100045"}, "type": "Feature"}
{"geometry": {"coordinates": [-84.0490995, 41.895806], "type": "Point"}, "id": "23BjvaEucf7Pt6Db1lpKEdlaPOI=", "properties": {"@source_uri": "https://tools.usps.com/UspsToolsRestServices/rest/POLocator/findLocations", "@spider": "usps_collection_boxes", "addr:city": "ADRIAN", "addr:country": "US", "addr:postcode": "49221", "addr:state": "MI", "addr:street_address": "804 MICHIGAN AVE", "amenity": "post_box", "brand": "United States Postal Service", "brand:wikidata": "Q668687", "collection_times": "Mo-Sa 15:30", "note": "ON 12/24 AND 12/31, THIS BOX MAY BE COLLECTED AS EARLY AS 12 NOON.", "nsi_id": "unitedstatespostalservice-a77078", "operator": "United States Postal Service", "operator:short": "USPS", "operator:type": "public", "operator:wikidata": "Q668687", "ref": "4922100047"}, "type": "Feature"}
{"geometry": {"coordinates": [-84.0490949, 41.895795], "type": "Point"}, "id": "2JlzcK6Vpki59q8Qns32rlTcOCY=", "properties": {"@source_uri": "https://tools.usps.com/UspsToolsRestServices/rest/POLocator/findLocations", "@spider": "usps_collection_boxes", "addr:city": "ADRIAN", "addr:country": "US", "addr:postcode": "49221", "addr:state": "MI", "addr:street_address": "805 MICHIGAN AVE", "amenity": "post_box", "brand": "United States Postal Service", "brand:wikidata": "Q668687", "collection_times": "Mo-Sa 15:30", "note": "ON 12/24 AND 12/31, THIS BOX MAY BE COLLECTED AS EARLY AS 12 NOON.", "nsi_id": "unitedstatespostalservice-a77078", "operator": "United States Postal Service", "operator:short": "USPS", "operator:type": "public", "operator:wikidata": "Q668687", "ref": "4922100048"}, "type": "Feature"}
{"geometry": {"coordinates": [-84.0297339, 41.896678], "type": "Point"}, "id": "tq2pVhfNwuTCRvR2chb_WznN1MQ=", "properties": {"@source_uri": "https://tools.usps.com/UspsToolsRestServices/rest/POLocator/findLocations", "@spider": "usps_collection_boxes", "addr:city": "ADRIAN", "addr:country": "US", "addr:postcode": "49221", "addr:state": "MI", "addr:street_address": "114 PARK PL W", "amenity": "post_box", "brand": "United States Postal Service", "brand:wikidata": "Q668687", "collection_times": "Mo-Sa 16:45", "note": "ON 12/24 AND 12/31, THIS BOX MAY BE COLLECTED AS EARLY AS 12 NOON.", "nsi_id": "unitedstatespostalservice-a77078", "operator": "United States Postal Service", "operator:short": "USPS", "operator:type": "public", "operator:wikidata": "Q668687", "ref": "4922100050"}, "type": "Feature"}
{"geometry": {"coordinates": [-84.0487710033, 41.9144800175], "type": "Point"}, "id": "FkFyAKViXJvpMPdsPSEoRvWp2jE=", "properties": {"@source_uri": "https://tools.usps.com/UspsToolsRestServices/rest/POLocator/findLocations", "@spider": "usps_collection_boxes", "addr:city": "ADRIAN", "addr:country": "US", "addr:postcode": "49221", "addr:state": "MI", "addr:street_address": "777 KIMOLE LN", "amenity": "post_box", "brand": "United States Postal Service", "brand:wikidata": "Q668687", "collection_times": "Mo-Sa 10:00", "nsi_id": "unitedstatespostalservice-a77078", "operator": "United States Postal Service", "operator:short": "USPS", "operator:type": "public", "operator:wikidata": "Q668687", "ref": "4922100051"}, "type": "Feature"}
{"geometry": {"coordinates": [-84.014478, 41.906294], "type": "Point"}, "id": "cNdD3pWG94g1ToQnv5LEr3KyoQo=", "properties": {"@source_uri": "https://tools.usps.com/UspsToolsRestServices/rest/POLocator/findLocations", "@spider": "usps_collection_boxes", "addr:city": "ADRIAN", "addr:country": "US", "addr:postcode": "49221", "addr:state": "MI", "addr:street_address": "1247 E SIENA HEIGHTS DR", "amenity": "post_box", "brand": "United States Postal Service", "brand:wikidata": "Q668687", "collection_times": "Mo-Sa 10:00", "nsi_id": "unitedstatespostalservice-a77078", "operator": "United States Postal Service", "operator:short": "USPS", "operator:type": "public", "operator:wikidata": "Q668687", "ref": "4922100055"}, "type": "Feature"}
{"geometry": {"coordinates": [-84.0360415, 41.902155], "type": "Point"}, "id": "2fWWJbJrZf5tAWfG8vJNA-xemBk=", "properties": {"@source_uri": "https://tools.usps.com/UspsToolsRestServices/rest/POLocator/findLocations", "@spider": "usps_collection_boxes", "addr:city": "ADRIAN", "addr:country": "US", "addr:postcode": "49221", "addr:state": "MI", "addr:street_address": "305 N WINTER ST", "amenity": "post_box", "brand": "United States Postal Service", "brand:wikidata": "Q668687", "collection_times": "Mo-Sa 16:30", "note": "ON 12/24 AND 12/31, THIS BOX MAY BE COLLECTED AS EARLY AS 12 NOON.", "nsi_id": "unitedstatespostalservice-a77078", "operator": "United States Postal Service", "operator:short": "USPS", "operator:type": "public", "operator:wikidata": "Q668687", "ref": "4922100062"}, "type": "Feature"}
{"geometry": {"coordinates": [-84.0404042, 41.883152], "type": "Point"}, "id": "fkKw3XN06lMN_aOIg8SxkgdH488=", "properties": {"@source_uri": "https://tools.usps.com/UspsToolsRestServices/rest/POLocator/findLocations", "@spider": "usps_collection_boxes", "addr:city": "ADRIAN", "addr:country": "US", "addr:postcode": "49221", "addr:state": "MI", "addr:street_address": "1040 S WINTER ST", "amenity": "post_box", "brand": "United States Postal Service", "brand:wikidata": "Q668687", "collection_times": "Mo-Sa 16:00", "note": "ON 12/24 AND 12/31, THIS BOX MAY BE COLLECTED AS EARLY AS 12 NOON.", "nsi_id": "unitedstatespostalservice-a77078", "operator": "United States Postal Service", "operator:short": "USPS", "operator:type": "public", "operator:wikidata": "Q668687", "ref": "4922100064"}, "type": "Feature"}
{"geometry": {"coordinates": [-84.0427544, 41.859869], "type": "Point"}, "id": "qFReW8NpjstuWxiBYNk0gpPeHJg=", "properties": {"@source_uri": "https://tools.usps.com/UspsToolsRestServices/rest/POLocator/findLocations", "@spider": "usps_collection_boxes", "addr:city": "ADRIAN", "addr:country": "US", "addr:postcode": "49221", "addr:state": "MI", "addr:street_address": "4008 S ADRIAN HWY", "amenity": "post_box", "brand": "United States Postal Service", "brand:wikidata": "Q668687", "collection_times": "Mo-Sa 10:00", "nsi_id": "unitedstatespostalservice-a77078", "operator": "United States Postal Service", "operator:short": "USPS", "operator:type": "public", "operator:wikidata": "Q668687", "ref": "4922100074"}, "type": "Feature"}
{"geometry": {"coordinates": [-84.0526738, 41.886935], "type": "Point"}, "id": "Q4IdLQGOgARlY2KgIHeV3sIKyIE=", "properties": {"@source_uri": "https://tools.usps.com/UspsToolsRestServices/rest/POLocator/findLocations", "@spider": "usps_collection_boxes", "addr:city": "ADRIAN", "addr:country": "US", "addr:postcode": "49221", "addr:state": "MI", "addr:street_address": "975 W BEECHER ST", "amenity": "post_box", "brand": "United States Postal Service", "brand:wikidata": "Q668687", "collection_times": "Mo-Sa 10:15", "nsi_id": "unitedstatespostalservice-a77078", "operator": "United States Postal Service", "operator:short": "USPS", "operator:type": "public", "operator:wikidata": "Q668687", "ref": "4922100076"}, "type": "Feature"}
{"geometry": {"coordinates": [-84.0575809703, 41.8888319805], "type": "Point"}, "id": "dyiFLDrNvv5Oi_v50FrXRtqH5qY=", "properties": {"@source_uri": "https://tools.usps.com/UspsToolsRestServices/rest/POLocator/findLocations", "@spider": "usps_collection_boxes", "addr:city": "ADRIAN", "addr:country": "US", "addr:postcode": "49221", "addr:state": "MI", "addr:street_address": "1157 W BEECHER ST", "amenity": "post_box", "brand": "United States Postal Service", "brand:wikidata": "Q668687", "collection_times": "Mo-Sa 14:00", "note": "ON 12/24 AND 12/31, THIS BOX MAY BE COLLECTED AS EARLY AS 12 NOON.", "nsi_id": "unitedstatespostalservice-a77078", "operator": "United States Postal Service", "operator:short": "USPS", "operator:type": "public", "operator:wikidata": "Q668687", "ref": "4922100077"}, "type": "Feature"}
{"geometry": {"coordinates": [-84.0316217, 41.873314], "type": "Point"}, "id": "87EEVQgdcSjO2JE0I-NmyTHhyOA=", "properties": {"@source_uri": "https://tools.usps.com/UspsToolsRestServices/rest/POLocator/findLocations", "@spider": "usps_collection_boxes", "addr:city": "ADRIAN", "addr:country": "US", "addr:postcode": "49221", "addr:state": "MI", "addr:street_address": "1601 E US HIGHWAY 223", "amenity": "post_box", "brand": "United States Postal Service", "brand:wikidata": "Q668687", "collection_times": "Mo-Sa 10:00", "nsi_id": "unitedstatespostalservice-a77078", "operator": "United States Postal Service", "operator:short": "USPS", "operator:type": "public", "operator:wikidata": "Q668687", "ref": "4922100080"}, "type": "Feature"}
{"geometry": {"coordinates": [-84.0801995, 41.905217], "type": "Point"}, "id": "OLr94JLCdutPk3TMVqaHyQ4nqHc=", "properties": {"@source_uri": "https://tools.usps.com/UspsToolsRestServices/rest/POLocator/findLocations", "@spider": "usps_collection_boxes", "addr:city": "ADRIAN", "addr:country": "US", "addr:postcode": "49221", "addr:state": "MI", "addr:street_address": "1801 W US HIGHWAY 223", "amenity": "post_box", "brand": "United States Postal Service", "brand:wikidata": "Q668687", "collection_times": "Mo-Fr 13:00; Sa 12:00", "note": "ON 12/24 AND 12/31, THIS BOX MAY BE COLLECTED AS EARLY AS 12 NOON.", "nsi_id": "unitedstatespostalservice-a77078", "operator": "United States Postal Service", "operator:short": "USPS", "operator:type": "public", "operator:wikidata": "Q668687", "ref": "4922100084"}, "type": "Feature"}
{"geometry": {"coordinates": [-84.030431109, 41.8969940816], "type": "Point"}, "id": "M6SlwIdc5koAsNuw3wWQ0czzn8U=", "properties": {"@source_uri": "https://tools.usps.com/UspsToolsRestServices/rest/POLocator/findLocations", "@spider": "usps_collection_boxes", "addr:city": "ADRIAN", "addr:country": "US", "addr:postcode": "49221", "addr:state": "MI", "addr:street_address": "413 E MAUMEE ST", "amenity": "post_box", "brand": "United States Postal Service", "brand:wikidata": "Q668687", "collection_times": "Mo-Sa 17:00", "indoor": "yes", "note": "ON 12/24 AND 12/31, THIS BOX MAY BE COLLECTED AS EARLY AS 12 NOON.", "nsi_id": "unitedstatespostalservice-a77078", "operator": "United States Postal Service", "operator:short": "USPS", "operator:type": "public", "operator:wikidata": "Q668687", "ref": "4922100088"}, "type": "Feature"}
{"geometry": {"coordinates": [-84.004619999, 41.96484], "type": "Point"}, "id": "KWtLDSqh2hRSRsM5rckNE_KzXhs=", "properties": {"@source_uri": "https://tools.usps.com/UspsToolsRestServices/rest/POLocator/findLocations", "@spider": "usps_collection_boxes", "addr:city": "ADRIAN", "addr:country": "US", "addr:postcode": "49221", "addr:state": "MI", "addr:street_address": "5640 N ADRIAN HWY", "amenity": "post_box", "brand": "United States Postal Service", "brand:wikidata": "Q668687", "collection_times": "Mo-Sa 10:00", "nsi_id": "unitedstatespostalservice-a77078", "operator": "United States Postal Service", "operator:short": "USPS", "operator:type": "public", "operator:wikidata": "Q668687", "ref": "4922100089"}, "type": "Feature"}
{"geometry": {"coordinates": [-84.753073, 42.246963], "type": "Point"}, "id": "i5rNVPbHaJN-tvFhn_RXlObFNEo=", "properties": {"@source_uri": "https://tools.usps.com/UspsToolsRestServices/rest/POLocator/findLocations", "@spider": "usps_collection_boxes", "addr:city": "ALBION", "addr:country": "US", "addr:postcode": "49224", "addr:state": "MI", "addr:street_address": "307 N SUPERIOR ST", "amenity": "post_box", "brand": "United States Postal Service", "brand:wikidata": "Q668687", "collection_times": "Mo-Fr 17:00; Sa 16:30", "note": "ON 12/24 AND 12/31, THIS BOX MAY BE COLLECTED AS EARLY AS 12 NOON.", "nsi_id": "unitedstatespostalservice-a77078", "operator": "United States Postal Service", "operator:short": "USPS", "operator:type": "public", "operator:wikidata": "Q668687", "ref": "4922400009"}, "type": "Feature"}
{"geometry": {"coordinates": [-84.7530781447, 42.247143], "type": "Point"}, "id": "0mV9FgbjDgMOEFTs8FkbeO2zjy0=", "properties": {"@source_uri": "https://tools.usps.com/UspsToolsRestServices/rest/POLocator/findLocations", "@spider": "usps_collection_boxes", "addr:city": "ALBION", "addr:country": "US", "addr:postcode": "49224", "addr:state": "MI", "addr:street_address": "307 N SUPERIOR ST", "amenity": "post_box", "brand": "United States Postal Service", "brand:wikidata": "Q668687", "collection_times": "Mo-Fr 17:00; Sa 12:00", "indoor": "yes", "note": "ON 12/24 AND 12/31, THIS BOX MAY BE COLLECTED AS EARLY AS 12 NOON.", "nsi_id": "unitedstatespostalservice-a77078", "operator": "United States Postal Service", "operator:short": "USPS", "operator:type": "public", "operator:wikidata": "Q668687", "ref": "4922400030"}, "type": "Feature"}
{"geometry": {"coordinates": [-84.7661283, 41.957661], "type": "Point"}, "id": "gIOXuQcU08InexK_wr06izf7w1s=", "properties": {"@source_uri": "https://tools.usps.com/UspsToolsRestServices/rest/POLocator/findLocations", "@spider": "usps_collection_boxes", "addr:city": "ALLEN", "addr:country": "US", "addr:postcode": "49227", "addr:state": "MI", "addr:street_address": "200 E CHICAGO RD", "amenity": "post_box", "brand": "United States Postal Service", "brand:wikidata": "Q668687", "collection_times": "Mo-Fr 12:30; Sa 10:15", "note": "ON 12/24 AND 12/31, THIS BOX MAY BE COLLECTED AS EARLY AS 12 NOON.", "nsi_id": "unitedstatespostalservice-a77078", "operator": "United States Postal Service", "operator:short": "USPS", "operator:type": "public", "operator:wikidata": "Q668687", "ref": "4922700001"}, "type": "Feature"}
{"geometry": {"coordinates": [-84.7658656198, 41.9575951763], "type": "Point"}, "id": "gNVZrj_LxGMtYunObUZVIn_o5tU=", "properties": {"@source_uri": "https://tools.usps.com/UspsToolsRestServices/rest/POLocator/findLocations", "@spider": "usps_collection_boxes", "addr:city": "ALLEN", "addr:country": "US", "addr:postcode": "49227", "addr:state": "MI", "addr:street_address": "200 E CHICAGO RD", "amenity": "post_box", "brand": "United States Postal Service", "brand:wikidata": "Q668687", "collection_times": "Mo-Fr 12:30; Sa 10:15", "indoor": "yes", "note": "ON 12/24 AND 12/31, THIS BOX MAY BE COLLECTED AS EARLY AS 12 NOON.", "nsi_id": "unitedstatespostalservice-a77078", "operator": "United States Postal Service", "operator:short": "USPS", "operator:type": "public", "operator:wikidata": "Q668687", "ref": "4922700003"}, "type": "Feature"}
{"geometry": {"coordinates": [-83.8779486, 41.837004], "type": "Point"}, "id": "-51v8Me2EB_i-a0szDJ7kCkJCvI=", "properties": {"@source_uri": "https://tools.usps.com/UspsToolsRestServices/rest/POLocator/findLocations", "@spider": "usps_collection_boxes", "addr:city": "BLISSFIELD", "addr:country": "US", "addr:postcode": "49228", "addr:state": "MI", "addr:street_address": "628 W ADRIAN ST", "amenity": "post_box", "brand": "United States Postal Service", "brand:wikidata": "Q668687", "collection_times": "Mo-Sa 15:00", "note": "ON 12/24 AND 12/31, THIS BOX MAY BE COLLECTED AS EARLY AS 12 NOON.", "nsi_id": "unitedstatespostalservice-a77078", "operator": "United States Postal Service", "operator:short": "USPS", "operator:type": "public", "operator:wikidata": "Q668687", "ref": "4922800002"}, "type": "Feature"}
{"geometry": {"coordinates": [-83.8720484, 41.834917], "type": "Point"}, "id": "vMejNdBPf1dMNA5KQ-kG4TOcG-c=", "properties": {"@source_uri": "https://tools.usps.com/UspsToolsRestServices/rest/POLocator/findLocations", "@spider": "usps_collection_boxes", "addr:city": "BLISSFIELD", "addr:country": "US", "addr:postcode": "49228", "addr:state": "MI", "addr:street_address": "455 HIGH ST", "amenity": "post_box", "brand": "United States Postal Service", "brand:wikidata": "Q668687", "collection_times": "Mo-Sa 13:00", "note": "ON 12/24 AND 12/31, THIS BOX MAY BE COLLECTED AS EARLY AS 12 NOON.", "nsi_id": "unitedstatespostalservice-a77078", "operator": "United States Postal Service", "operator:short": "USPS", "operator:type": "public", "operator:wikidata": "Q668687", "ref": "4922800003"}, "type": "Feature"}
{"geometry": {"coordinates": [-83.8640096852, 41.8298726467], "type": "Point"}, "id": "oij_2sECVYf6BV49brsSqXzLYZg=", "properties": {"@source_uri": "https://tools.usps.com/UspsToolsRestServices/rest/POLocator/findLocations", "@spider": "usps_collection_boxes", "addr:city": "BLISSFIELD", "addr:country": "US", "addr:postcode": "49228", "addr:state": "MI", "addr:street_address": "302 S LANE ST", "amenity": "post_box", "brand": "United States Postal Service", "brand:wikidata": "Q668687", "collection_times": "Mo-Fr 16:45; Sa 15:30", "note": "ON 12/24 AND 12/31, THIS BOX MAY BE COLLECTED AS EARLY AS 12 NOON.", "nsi_id": "unitedstatespostalservice-a77078", "operator": "United States Postal Service", "operator:short": "USPS", "operator:type": "public", "operator:wikidata": "Q668687", "ref": "4922800007"}, "type": "Feature"}
{"geometry": {"coordinates": [-83.8518589, 41.829004], "type": "Point"}, "id": "tmzFcI93aKT7qDaKeLYwdTXPcho=", "properties": {"@source_uri": "https://tools.usps.com/UspsToolsRestServices/rest/POLocator/findLocations", "@spider": "usps_collection_boxes", "addr:city": "BLISSFIELD", "addr:country": "US", "addr:postcode": "49228", "addr:state": "MI", "addr:street_address": "505 E ADRIAN ST", "amenity": "post_box", "brand": "United States Postal Service", "brand:wikidata": "Q668687", "collection_times": "Mo-Sa 15:00", "note": "ON 12/24 AND 12/31, THIS BOX MAY BE COLLECTED AS EARLY AS 12 NOON.", "nsi_id": "unitedstatespostalservice-a77078", "operator": "United States Postal Service", "operator:short": "USPS", "operator:type": "public", "operator:wikidata": "Q668687", "ref": "4922800013"}, "type": "Feature"}
{"geometry": {"coordinates": [-83.864014185, 41.829872647], "type": "Point"}, "id": "bTO2NmQBRPOBO3_W3zPcVX3Xwjc=", "properties": {"@source_uri": "https://tools.usps.com/UspsToolsRestServices/rest/POLocator/findLocations", "@spider": "usps_collection_boxes", "addr:city": "BLISSFIELD", "addr:country": "US", "addr:postcode": "49228", "addr:state": "MI", "addr:street_address": "302 S LANE ST", "amenity": "post_box", "brand": "United States Postal Service", "brand:wikidata": "Q668687", "collection_times": "Mo-Fr 16:45; Sa 12:00", "indoor": "yes", "note": "ON 12/24 AND 12/31, THIS BOX MAY BE COLLECTED AS EARLY AS 12 NOON.", "nsi_id": "unitedstatespostalservice-a77078", "operator": "United States Postal Service", "operator:short": "USPS", "operator:type": "public", "operator:wikidata": "Q668687", "ref": "4922800015"}, "type": "Feature"}
{"geometry": {"coordinates": [-83.829025, 41.986444], "type": "Point"}, "id": "XfiTFRFroAdmWVP3phJkW8Z1Gys=", "properties": {"@source_uri": "https://tools.usps.com/UspsToolsRestServices/rest/POLocator/findLocations", "@spider": "usps_collection_boxes", "addr:city": "BRITTON", "addr:country": "US", "addr:postcode": "49229", "addr:state": "MI", "addr:street_address": "209 E CHICAGO BLVD", "amenity": "post_box", "brand": "United States Postal Service", "brand:wikidata": "Q668687", "collection_times": "Mo-Fr 16:00; Sa 10:30", "note": "ON 12/24 AND 12/31, THIS BOX MAY BE COLLECTED AS EARLY AS 12 NOON.", "nsi_id": "unitedstatespostalservice-a77078", "operator": "United States Postal Service", "operator:short": "USPS", "operator:type": "public", "operator:wikidata": "Q668687", "ref": "4922900001"}, "type": "Feature"}
{"geometry": {"coordinates": [-83.8290568206, 41.986447249], "type": "Point"}, "id": "a6WTmTz5UZQf9f5pxkKAMyuD3Sc=", "properties": {"@source_uri": "https://tools.usps.com/UspsToolsRestServices/rest/POLocator/findLocations", "@spider": "usps_collection_boxes", "addr:city": "BRITTON", "addr:country": "US", "addr:postcode": "49229", "addr:state": "MI", "addr:street_address": "209 E CHICAGO BLVD", "amenity": "post_box", "brand": "United States Postal Service", "brand:wikidata": "Q668687", "collection_times": "Mo-Fr 16:00; Sa 10:30", "indoor": "yes", "note": "ON 12/24 AND 12/31, THIS BOX MAY BE COLLECTED AS EARLY AS 12 NOON.", "nsi_id": "unitedstatespostalservice-a77078", "operator": "United States Postal Service", "operator:short": "USPS", "operator:type": "public", "operator:wikidata": "Q668687", "ref": "4922900003"}, "type": "Feature"}
{"geometry": {"coordinates": [-84.249087006, 42.0988059892], "type": "Point"}, "id": "0V6ICwiBU1bX4y4z8PjtAMNUm70=", "properties": {"@source_uri": "https://tools.usps.com/UspsToolsRestServices/rest/POLocator/findLocations", "@spider": "usps_collection_boxes", "addr:city": "BROOKLYN", "addr:country": "US", "addr:postcode": "49230", "addr:state": "MI", "addr:street_address": "400 S MAIN ST", "amenity": "post_box", "brand": "United States Postal Service", "brand:wikidata": "Q668687", "collection_times": "Mo-Sa 12:00", "nsi_id": "unitedstatespostalservice-a77078", "operator": "United States Postal Service", "operator:short": "USPS", "operator:type": "public", "operator:wikidata": "Q668687", "ref": "4923000004"}, "type": "Feature"}
{"geometry": {"coordinates": [-84.247905, 42.109054], "type": "Point"}, "id": "r52OH8q6JuKxq3MC5OjPI5JehZE=", "properties": {"@source_uri": "https://tools.usps.com/UspsToolsRestServices/rest/POLocator/findLocations", "@spider": "usps_collection_boxes", "addr:city": "BROOKLYN", "addr:country": "US", "addr:postcode": "49230", "addr:state": "MI", "addr:street_address": "235 N MAIN ST", "amenity": "post_box", "brand": "United States Postal Service", "brand:wikidata": "Q668687", "collection_times": "Mo-Fr 17:00; Sa 12:00", "note": "ON 12/24 AND 12/31, THIS BOX MAY BE COLLECTED AS EARLY AS 12 NOON.", "nsi_id": "unitedstatespostalservice-a77078", "operator": "United States Postal Service", "operator:short": "USPS", "operator:type": "public", "operator:wikidata": "Q668687", "ref": "4923000006"}, "type": "Feature"}
{"geometry": {"coordinates": [-84.2479164469, 42.1093893353], "type": "Point"}, "id": "ecKv7ZcVDW5bj_nBE-310aqoCP4=", "properties": {"@source_uri": "https://tools.usps.com/UspsToolsRestServices/rest/POLocator/findLocations", "@spider": "usps_collection_boxes", "addr:city": "BROOKLYN", "addr:country": "US", "addr:postcode": "49230", "addr:state": "MI", "addr:street_address": "235 N MAIN ST", "amenity": "post_box", "brand": "United States Postal Service", "brand:wikidata": "Q668687", "collection_times": "Mo-Fr 17:00; Sa 12:00", "indoor": "yes", "note": "ON 12/24 AND 12/31, THIS BOX MAY BE COLLECTED AS EARLY AS 12 NOON.", "nsi_id": "unitedstatespostalservice-a77078", "operator": "United States Postal Service", "operator:short": "USPS", "operator:type": "public", "operator:wikidata": "Q668687", "ref": "4923000012"}, "type": "Feature"}
{"geometry": {"coordinates": [-84.757607, 41.755081], "type": "Point"}, "id": "J4ZonzGMN_iOA4ErN_z0I_Ii1uk=", "properties": {"@source_uri": "https://tools.usps.com/UspsToolsRestServices/rest/POLocator/findLocations", "@spider": "usps_collection_boxes", "addr:city": "CAMDEN", "addr:country": "US", "addr:postcode": "49232", "addr:state": "MI", "addr:street_address": "130 S MAIN ST", "amenity": "post_box", "brand": "United States Postal Service", "brand:wikidata": "Q668687", "collection_times": "Mo-Fr 16:00; Sa 10:30", "note": "ON 12/24 AND 12/31, THIS BOX MAY BE COLLECTED AS EARLY AS 12 NOON.", "nsi_id": "unitedstatespostalservice-a77078", "operator": "United States Postal Service", "operator:short": "USPS", "operator:type": "public", "operator:wikidata": "Q668687", "ref": "4923200002"}, "type": "Feature"}
{"geometry": {"coordinates": [-84.7576478632, 41.7545669234], "type": "Point"}, "id": "-SwLnmNlqP6uemgj8Y7vFSFmQQc=", "properties": {"@source_uri": "https://tools.usps.com/UspsToolsRestServices/rest/POLocator/findLocations", "@spider": "usps_collection_boxes", "addr:city": "CAMDEN", "addr:country": "US", "addr:postcode": "49232", "addr:state": "MI", "addr:street_address": "130 S MAIN ST", "amenity": "post_box", "brand": "United States Postal Service", "brand:wikidata": "Q668687", "collection_times": "Mo-Fr 16:00; Sa 10:30", "indoor": "yes", "note": "ON 12/24 AND 12/31, THIS BOX MAY BE COLLECTED AS EARLY AS 12 NOON.", "nsi_id": "unitedstatespostalservice-a77078", "operator": "United States Postal Service", "operator:short": "USPS", "operator:type": "public", "operator:wikidata": "Q668687", "ref": "4923200005"}, "type": "Feature"}
{"geometry": {"coordinates": [-84.328072, 42.069935], "type": "Point"}, "id": "HYLiRk0dcLiaIC9hUeZ1fDG19eE=", "properties": {"@source_uri": "https://tools.usps.com/UspsToolsRestServices/rest/POLocator/findLocations", "@spider": "usps_collection_boxes", "addr:city": "CEMENT CITY", "addr:country": "US", "addr:postcode": "49233", "addr:state": "MI", "addr:street_address": "227 MAIN ST", "amenity": "post_box", "brand": "United States Postal Service", "brand:wikidata": "Q668687", "collection_times": "Mo-Fr 13:30; Sa 12:30", "note": "ON 12/24 AND 12/31, THIS BOX MAY BE COLLECTED AS EARLY AS 12 NOON.", "nsi_id": "unitedstatespostalservice-a77078", "operator": "United States Postal Service", "operator:short": "USPS", "operator:type": "public", "operator:wikidata": "Q668687", "ref": "4923300002"}, "type": "Feature"}
{"geometry": {"coordinates": [-84.328054245, 42.0698493601], "type": "Point"}, "id": "ScpP8sK56-zZWUWJC1ZvQAbNjK4=", "properties": {"@source_uri": "https://tools.usps.com/UspsToolsRestServices/rest/POLocator/findLocations", "@spider": "usps_collection_boxes", "addr:city": "CEMENT CITY", "addr:country": "US", "addr:postcode": "49233", "addr:state": "MI", "addr:street_address": "227 MAIN ST", "amenity": "post_box", "brand": "United States Postal Service", "brand:wikidata": "Q668687", "collection_times": "Mo-Fr 13:30; Sa 12:30", "indoor": "yes", "note": "ON 12/24 AND 12/31, THIS BOX MAY BE COLLECTED AS EARLY AS 12 NOON.", "nsi_id": "unitedstatespostalservice-a77078", "operator": "United States Postal Service", "operator:short": "USPS", "operator:type": "public", "operator:wikidata": "Q668687", "ref": "4923300005"}, "type": "Feature"}
{"geometry": {"coordinates": [-84.345168, 42.116595], "type": "Point"}, "id": "iOFgeik9-kB1z80NLyxqL0OYhHU=", "properties": {"@source_uri": "https://tools.usps.com/UspsToolsRestServices/rest/POLocator/findLocations", "@spider": "usps_collection_boxes", "addr:city": "CLARK LAKE", "addr:country": "US", "addr:postcode": "49234", "addr:state": "MI", "addr:street_address": "208 HYDE RD", "amenity": "post_box", "brand": "United States Postal Service", "brand:wikidata": "Q668687", "collection_times": "Mo-Fr 16:15; Sa 11:00", "note": "ON 12/24 AND 12/31, THIS BOX MAY BE COLLECTED AS EARLY AS 12 NOON.", "nsi_id": "unitedstatespostalservice-a77078", "operator": "United States Postal Service", "operator:short": "USPS", "operator:type": "public", "operator:wikidata": "Q668687", "ref": "4923400002"}, "type": "Feature"}
{"geometry": {"coordinates": [-84.3635594, 42.116211], "type": "Point"}, "id": "AbaF6ScfCiFV1IExQEJIM9RL7FA=", "properties": {"@source_uri": "https://tools.usps.com/UspsToolsRestServices/rest/POLocator/findLocations", "@spider": "usps_collection_boxes", "addr:city": "CLARK LAKE", "addr:country": "US", "addr:postcode": "49234", "addr:state": "MI", "addr:street_address": "3101 JEFFERSON RD", "amenity": "post_box", "brand": "United States Postal Service", "brand:wikidata": "Q668687", "collection_times": "Mo-Sa 10:00", "nsi_id": "unitedstatespostalservice-a77078", "operator": "United States Postal Service", "operator:short": "USPS", "operator:type": "public", "operator:wikidata": "Q668687", "ref": "4923400003"}, "type": "Feature"}
{"geometry": {"coordinates": [-84.345199857, 42.11674295], "type": "Point"}, "id": "PPLYnXddp7mIyN6oZ_ui4-53eRc=", "properties": {"@source_uri": "https://tools.usps.com/UspsToolsRestServices/rest/POLocator/findLocations", "@spider": "usps_collection_boxes", "addr:city": "CLARK LAKE", "addr:country": "US", "addr:postcode": "49234", "addr:state": "MI", "addr:street_address": "208 HYDE RD", "amenity": "post_box", "brand": "United States Postal Service", "brand:wikidata": "Q668687", "collection_times": "Mo-Fr 16:15; Sa 11:00", "indoor": "yes", "note": "ON 12/24 AND 12/31, THIS BOX MAY BE COLLECTED AS EARLY AS 12 NOON.", "nsi_id": "unitedstatespostalservice-a77078", "operator": "United States Postal Service", "operator:short": "USPS", "operator:type": "public", "operator:wikidata": "Q668687", "ref": "4923400006"}, "type": "Feature"}
{"geometry": {"coordinates": [-84.236532, 41.865226], "type": "Point"}, "id": "IFBbLuKg8-UHhPn7J_Kq5TbmEvY=", "properties": {"@source_uri": "https://tools.usps.com/UspsToolsRestServices/rest/POLocator/findLocations", "@spider": "usps_collection_boxes", "addr:city": "CLAYTON", "addr:country": "US", "addr:postcode": "49235", "addr:state": "MI", "addr:street_address": "3409 STATE ST", "amenity": "post_box", "brand": "United States Postal Service", "brand:wikidata": "Q668687", "collection_times": "Mo-Fr 14:30; Sa 10:00", "note": "ON 12/24 AND 12/31, THIS BOX MAY BE COLLECTED AS EARLY AS 12 NOON.", "nsi_id": "unitedstatespostalservice-a77078", "operator": "United States Postal Service", "operator:short": "USPS", "operator:type": "public", "operator:wikidata": "Q668687", "ref": "4923500002"}, "type": "Feature"}
{"geometry": {"coordinates": [-84.236515507, 41.865236959], "type": "Point"}, "id": "svW6VP3isFkk-gmDbyjjbjlAkLM=", "properties": {"@source_uri": "https://tools.usps.com/UspsToolsRestServices/rest/POLocator/findLocations", "@spider": "usps_collection_boxes", "addr:city": "CLAYTON", "addr:country": "US", "addr:postcode": "49235", "addr:state": "MI", "addr:street_address": "3409 STATE ST", "amenity": "post_box", "brand": "United States Postal Service", "brand:wikidata": "Q668687", "collection_times": "Mo-Fr 14:30; Sa 10:00", "indoor": "yes", "note": "ON 12/24 AND 12/31, THIS BOX MAY BE COLLECTED AS EARLY AS 12 NOON.", "nsi_id": "unitedstatespostalservice-a77078", "operator": "United States Postal Service", "operator:short": "USPS", "operator:type": "public", "operator:wikidata": "Q668687", "ref": "4923500004"}, "type": "Feature"}
{"geometry": {"coordinates": [-83.9811759, 42.073111], "type": "Point"}, "id": "WJkbUbdxXkD1QB8wA-KleewCQN0=", "properties": {"@source_uri": "https://tools.usps.com/UspsToolsRestServices/rest/POLocator/findLocations", "@spider": "usps_collection_boxes", "addr:city": "CLINTON", "addr:country": "US", "addr:postcode": "49236", "addr:state": "MI", "addr:street_address": "1950 W US HIGHWAY 12", "amenity": "post_box", "brand": "United States Postal Service", "brand:wikidata": "Q668687", "collection_times": "Mo-Sa 10:00", "nsi_id": "unitedstatespostalservice-a77078", "operator": "United States Postal Service", "operator:short": "USPS", "operator:type": "public", "operator:wikidata": "Q668687", "ref": "4923600004"}, "type": "Feature"}
{"geometry": {"coordinates": [-84.0652249, 42.071081], "type": "Point"}, "id": "ASKG9_c0KoHIP6qo-drgGrhsqog=", "properties": {"@source_uri": "https://tools.usps.com/UspsToolsRestServices/rest/POLocator/findLocations", "@spider": "usps_collection_boxes", "addr:city": "CLINTON", "addr:country": "US", "addr:postcode": "49236", "addr:state": "MI", "addr:street_address": "12919 TIPTON HWY", "amenity": "post_box", "brand": "United States Postal Service", "brand:wikidata": "Q668687", "collection_times": "Mo-Sa 11:00", "nsi_id": "unitedstatespostalservice-a77078", "operator": "United States Postal Service", "operator:short": "USPS", "operator:type": "public", "operator:wikidata": "Q668687", "ref": "4923600006"}, "type": "Feature"}
{"geometry": {"coordinates": [-83.978457, 42.072612], "type": "Point"}, "id": "SLRr7QX4w_nBZrpa9TbDVBTG3Dg=", "properties": {"@source_uri": "https://tools.usps.com/UspsToolsRestServices/rest/POLocator/findLocations", "@spider": "usps_collection_boxes", "addr:city": "CLINTON", "addr:country": "US", "addr:postcode": "49236", "addr:state": "MI", "addr:street_address": "316 W MICHIGAN AVE", "amenity": "post_box", "brand": "United States Postal Service", "brand:wikidata": "Q668687", "collection_times": "Mo-Sa 10:00", "nsi_id": "unitedstatespostalservice-a77078", "operator": "United States Postal Service", "operator:short": "USPS", "operator:type": "public", "operator:wikidata": "Q668687", "ref": "4923600007"}, "type": "Feature"}
{"geometry": {"coordinates": [-83.9676118, 42.066328], "type": "Point"}, "id": "FFIZ_JWqInDxOvNV_-NXOCyPaiA=", "properties": {"@source_uri": "https://tools.usps.com/UspsToolsRestServices/rest/POLocator/findLocations", "@spider": "usps_collection_boxes", "addr:city": "CLINTON", "addr:country": "US", "addr:postcode": "49236", "addr:state": "MI", "addr:street_address": "705 TECUMSEH RD", "amenity": "post_box", "brand": "United States Postal Service", "brand:wikidata": "Q668687", "collection_times": "Mo-Sa 11:00", "nsi_id": "unitedstatespostalservice-a77078", "operator": "United States Postal Service", "operator:short": "USPS", "operator:type": "public", "operator:wikidata": "Q668687", "ref": "4923600009"}, "type": "Feature"}
{"geometry": {"coordinates": [-83.9707085, 42.072901], "type": "Point"}, "id": "0msfS_SNdMpr1ZaDaRCYYw9vofs=", "properties": {"@source_uri": "https://tools.usps.com/UspsToolsRestServices/rest/POLocator/findLocations", "@spider": "usps_collection_boxes", "addr:city": "CLINTON", "addr:country": "US", "addr:postcode": "49236", "addr:state": "MI", "addr:street_address": "123 E MICHIGAN AVE", "amenity": "post_box", "brand": "United States Postal Service", "brand:wikidata": "Q668687", "collection_times": "Mo-Fr 16:30; Sa 12:15", "note": "ON 12/24 AND 12/31, THIS BOX MAY BE COLLECTED AS EARLY AS 12 NOON.", "nsi_id": "unitedstatespostalservice-a77078", "operator": "United States Postal Service", "operator:short": "USPS", "operator:type": "public", "operator:wikidata": "Q668687", "ref": "4923600010"}, "type": "Feature"}
{"geometry": {"coordinates": [-83.970366211, 42.072739668], "type": "Point"}, "id": "ePX5xQcqzIYfZ4vo3_qL1yJj0N8=", "properties": {"@source_uri": "https://tools.usps.com/UspsToolsRestServices/rest/POLocator/findLocations", "@spider": "usps_collection_boxes", "addr:city": "CLINTON", "addr:country": "US", "addr:postcode": "49236", "addr:state": "MI", "addr:street_address": "123 E MICHIGAN AVE", "amenity": "post_box", "brand": "United States Postal Service", "brand:wikidata": "Q668687", "collection_times": "Mo-Fr 16:30; Sa 12:15", "indoor": "yes", "note": "ON 12/24 AND 12/31, THIS BOX MAY BE COLLECTED AS EARLY AS 12 NOON.", "nsi_id": "unitedstatespostalservice-a77078", "operator": "United States Postal Service", "operator:short": "USPS", "operator:type": "public", "operator:wikidata": "Q668687", "ref": "4923600011"}, "type": "Feature"}
{"geometry": {"coordinates": [-84.645291, 42.178025], "type": "Point"}, "id": "oxvOMiszyDPt9cVArj7Q4-OSRbU=", "properties": {"@source_uri": "https://tools.usps.com/UspsToolsRestServices/rest/POLocator/findLocations", "@spider": "usps_collection_boxes", "addr:city": "CONCORD", "addr:country": "US", "addr:postcode": "49237", "addr:state": "MI", "addr:street_address": "112 HOMER RD", "amenity": "post_box", "brand": "United States Postal Service", "brand:wikidata": "Q668687", "collection_times": "Mo-Fr 16:00; Sa 11:00", "note": "ON 12/24 AND 12/31, THIS BOX MAY BE COLLECTED AS EARLY AS 12 NOON.", "nsi_id": "unitedstatespostalservice-a77078", "operator": "United States Postal Service", "operator:short": "USPS", "operator:type": "public", "operator:wikidata": "Q668687", "ref": "4923700001"}, "type": "Feature"}
{"geometry": {"coordinates": [-84.6456582037, 42.1779128082], "type": "Point"}, "id": "ADVbIA_R1OBkUsaXd8TgdM7TVkc=", "properties": {"@source_uri": "https://tools.usps.com/UspsToolsRestServices/rest/POLocator/findLocations", "@spider": "usps_collection_boxes", "addr:city": "CONCORD", "addr:country": "US", "addr:postcode": "49237", "addr:state": "MI", "addr:street_address": "112 HOMER RD", "amenity": "post_box", "brand": "United States Postal Service", "brand:wikidata": "Q668687", "collection_times": "Mo-Fr 16:00; Sa 11:00", "indoor": "yes", "note": "ON 12/24 AND 12/31, THIS BOX MAY BE COLLECTED AS EARLY AS 12 NOON.", "nsi_id": "unitedstatespostalservice-a77078", "operator": "United States Postal Service", "operator:short": "USPS", "operator:type": "public", "operator:wikidata": "Q668687", "ref": "4923700004"}, "type": "Feature"}
{"geometry": {"coordinates": [-83.782068, 41.888742], "type": "Point"}, "id": "02AkUh1CiEuERz1Vt_JbDt4BJVA=", "properties": {"@source_uri": "https://tools.usps.com/UspsToolsRestServices/rest/POLocator/findLocations", "@spider": "usps_collection_boxes", "addr:city": "DEERFIELD", "addr:country": "US", "addr:postcode": "49238", "addr:state": "MI", "addr:street_address": "123 WILLIAMS ST", "amenity": "post_box", "brand": "United States Postal Service", "brand:wikidata": "Q668687", "collection_times": "Mo-Fr 12:00; Sa 10:15", "nsi_id": "unitedstatespostalservice-a77078", "operator": "United States Postal Service", "operator:short": "USPS", "operator:type": "public", "operator:wikidata": "Q668687", "ref": "4923800001"}, "type": "Feature"}
{"geometry": {"coordinates": [-83.782008066, 41.888616367], "type": "Point"}, "id": "YAOPxUIOLcYSXNy4t1h8dSWzd4E=", "properties": {"@source_uri": "https://tools.usps.com/UspsToolsRestServices/rest/POLocator/findLocations", "@spider": "usps_collection_boxes", "addr:city": "DEERFIELD", "addr:country": "US", "addr:postcode": "49238", "addr:state": "MI", "addr:street_address": "123 WILLIAMS ST", "amenity": "post_box", "brand": "United States Postal Service", "brand:wikidata": "Q668687", "collection_times": "Mo-Fr 12:00; Sa 10:15", "indoor": "yes", "nsi_id": "unitedstatespostalservice-a77078", "operator": "United States Postal Service", "operator:short": "USPS", "operator:type": "public", "operator:wikidata": "Q668687", "ref": "4923800004"}, "type": "Feature"}
{"geometry": {"coordinates": [-84.630786202, 41.9201530617], "type": "Point"}, "id": "MZmlu-0IPbdMM1ct3Q1Ypy1II_U=", "properties": {"@source_uri": "https://tools.usps.com/UspsToolsRestServices/rest/POLocator/findLocations", "@spider": "usps_collection_boxes", "addr:city": "FRONTIER", "addr:country": "US", "addr:postcode": "49239", "addr:state": "MI", "addr:street_address": "2342 E MONTGOMERY RD", "amenity": "post_box", "brand": "United States Postal Service", "brand:wikidata": "Q668687", "collection_times": "Mo-Fr 13:00; Sa 11:00", "note": "ON 12/24 AND 12/31, THIS BOX MAY BE COLLECTED AS EARLY AS 12 NOON.", "nsi_id": "unitedstatespostalservice-a77078", "operator": "United States Postal Service", "operator:short": "USPS", "operator:type": "public", "operator:wikidata": "Q668687", "ref": "4923900001"}, "type": "Feature"}
{"geometry": {"coordinates": [-84.6054899162, 41.7821325076], "type": "Point"}, "id": "qdi2uUCVxhY-Qb9bcBcQAbsg19Q=", "properties": {"@source_uri": "https://tools.usps.com/UspsToolsRestServices/rest/POLocator/findLocations", "@spider": "usps_collection_boxes", "addr:city": "FRONTIER", "addr:country": "US", "addr:postcode": "49239", "addr:state": "MI", "addr:street_address": "2342 E MONTGOMERY RD", "amenity": "post_box", "brand": "United States Postal Service", "brand:wikidata": "Q668687", "collection_times": "Mo-Fr 13:00; Sa 11:00", "indoor": "yes", "note": "ON 12/24 AND 12/31, THIS BOX MAY BE COLLECTED AS EARLY AS 12 NOON.", "nsi_id": "unitedstatespostalservice-a77078", "operator": "United States Postal Service", "operator:short": "USPS", "operator:type": "public", "operator:wikidata": "Q668687", "ref": "4923900004"}, "type": "Feature"}
{"geometry": {"coordinates": [-84.211818, 42.251442], "type": "Point"}, "id": "8Cwqn1UD6skxKl37_sXRzmGXKQU=", "properties": {"@source_uri": "https://tools.usps.com/UspsToolsRestServices/rest/POLocator/findLocations", "@spider": "usps_collection_boxes", "addr:city": "GRASS LAKE", "addr:country": "US", "addr:postcode": "49240", "addr:state": "MI", "addr:street_address": "221 E MICHIGAN AVE", "amenity": "post_box", "brand": "United States Postal Service", "brand:wikidata": "Q668687", "collection_times": "Mo-Fr 16:00; Sa 11:00", "note": "ON 12/24 AND 12/31, THIS BOX MAY BE COLLECTED AS EARLY AS 12 NOON.", "nsi_id": "unitedstatespostalservice-a77078", "operator": "United States Postal Service", "operator:short": "USPS", "operator:type": "public", "operator:wikidata": "Q668687", "ref": "4924000001"}, "type": "Feature"}
{"geometry": {"coordinates": [-84.1889747, 42.254022], "type": "Point"}, "id": "Cr7Bwc95GtNycRyWLtd7JmloMRU=", "properties": {"@source_uri": "https://tools.usps.com/UspsToolsRestServices/rest/POLocator/findLocations", "@spider": "usps_collection_boxes", "addr:city": "GRASS LAKE", "addr:country": "US", "addr:postcode": "49240", "addr:state": "MI", "addr:street_address": "12005 E MICHIGAN AVE", "amenity": "post_box", "brand": "United States Postal Service", "brand:wikidata": "Q668687", "collection_times": "Mo-Fr 10:00", "nsi_id": "unitedstatespostalservice-a77078", "operator": "United States Postal Service", "operator:short": "USPS", "operator:type": "public", "operator:wikidata": "Q668687", "ref": "4924000003"}, "type": "Feature"}
{"geometry": {"coordinates": [-84.211278088, 42.251537623], "type": "Point"}, "id": "AlxfVp7iO86q53ledUFsWaT1im8=", "properties": {"@source_uri": "https://tools.usps.com/UspsToolsRestServices/rest/POLocator/findLocations", "@spider": "usps_collection_boxes", "addr:city": "GRASS LAKE", "addr:country": "US", "addr:postcode": "49240", "addr:state": "MI", "addr:street_address": "221 E MICHIGAN AVE", "amenity": "post_box", "brand": "United States Postal Service", "brand:wikidata": "Q668687", "collection_times": "Mo-Fr 16:00; Sa 11:00", "indoor": "yes", "note": "ON 12/24 AND 12/31, THIS BOX MAY BE COLLECTED AS EARLY AS 12 NOON.", "nsi_id": "unitedstatespostalservice-a77078", "operator": "United States Postal Service", "operator:short": "USPS", "operator:type": "public", "operator:wikidata": "Q668687", "ref": "4924000004"}, "type": "Feature"}
{"geometry": {"coordinates": [-84.555738, 42.101871], "type": "Point"}, "id": "-3c1M05Yv0x8F8BER2qof3UwmgQ=", "properties": {"@source_uri": "https://tools.usps.com/UspsToolsRestServices/rest/POLocator/findLocations", "@spider": "usps_collection_boxes", "addr:city": "HANOVER", "addr:country": "US", "addr:postcode": "49241", "addr:state": "MI", "addr:street_address": "175 W MAIN ST", "amenity": "post_box", "brand": "United States Postal Service", "brand:wikidata": "Q668687", "collection_times": "Mo-Fr 16:45; Sa 12:00", "note": "ON 12/24 AND 12/31, THIS BOX MAY BE COLLECTED AS EARLY AS 12 NOON.", "nsi_id": "unitedstatespostalservice-a77078", "operator": "United States Postal Service", "operator:short": "USPS", "operator:type": "public", "operator:wikidata": "Q668687", "ref": "4924100001"}, "type": "Feature"}
{"geometry": {"coordinates": [-84.555760636, 42.101870481], "type": "Point"}, "id": "uJQtvaMLx8wxd1lMkmbngu2HdsM=", "properties": {"@source_uri": "https://tools.usps.com/UspsToolsRestServices/rest/POLocator/findLocations", "@spider": "usps_collection_boxes", "addr:city": "HANOVER", "addr:country": "US", "addr:postcode": "49241", "addr:state": "MI", "addr:street_address": "175 W MAIN ST", "amenity": "post_box", "brand": "United States Postal Service", "brand:wikidata": "Q668687", "collection_times": "Mo-Fr 16:45; Sa 12:00", "indoor": "yes", "note": "ON 12/24 AND 12/31, THIS BOX MAY BE COLLECTED AS EARLY AS 12 NOON.", "nsi_id": "unitedstatespostalservice-a77078", "operator": "United States Postal Service", "operator:short": "USPS", "operator:type": "public", "operator:wikidata": "Q668687", "ref": "4924100003"}, "type": "Feature"}
{"geometry": {"coordinates": [-84.630744, 41.922535], "type": "Point"}, "id": "074U78lRCOc2kFuH_20JkeBLZjw=", "properties": {"@source_uri": "https://tools.usps.com/UspsToolsRestServices/rest/POLocator/findLocations", "@spider": "usps_collection_boxes", "addr:city": "HILLSDALE", "addr:country": "US", "addr:postcode": "49242", "addr:state": "MI", "addr:street_address": "77 NORTH ST", "amenity": "post_box", "brand": "United States Postal Service", "brand:wikidata": "Q668687", "collection_times": "Mo-Sa 17:00", "note": "ON 12/24 AND 12/31, THIS BOX MAY BE COLLECTED AS EARLY AS 12 NOON.", "nsi_id": "unitedstatespostalservice-a77078", "operator": "United States Postal Service", "operator:short": "USPS", "operator:type": "public", "operator:wikidata": "Q668687", "ref": "4924200008"}, "type": "Feature"}
{"geometry": {"coordinates": [-84.6512856, 41.944018], "type": "Point"}, "id": "vMU0trrm6lCbL1NAphZxxy2OsFI=", "properties": {"@source_uri": "https://tools.usps.com/UspsToolsRestServices/rest/POLocator/findLocations", "@spider": "usps_collection_boxes", "addr:city": "HILLSDALE", "addr:country": "US", "addr:postcode": "49242", "addr:state": "MI", "addr:street_address": "3240 W CARLETON RD", "amenity": "post_box", "brand": "United States Postal Service", "brand:wikidata": "Q668687", "collection_times": "Mo-Sa 10:00", "nsi_id": "unitedstatespostalservice-a77078", "operator": "United States Postal Service", "operator:short": "USPS", "operator:type": "public", "operator:wikidata": "Q668687", "ref": "4924200009"}, "type": "Feature"}
{"geometry": {"coordinates": [-84.630744, 41.922536], "type": "Point"}, "id": "AQm8pV_q2SgYIa0nOSyw4lib6y4=", "properties": {"@source_uri": "https://tools.usps.com/UspsToolsRestServices/rest/POLocator/findLocations", "@spider": "usps_collection_boxes", "addr:city": "HILLSDALE", "addr:country": "US", "addr:postcode": "49242", "addr:state": "MI", "addr:street_address": "77 NORTH ST", "amenity": "post_box", "brand": "United States Postal Service", "brand:wikidata": "Q668687", "collection_times": "Mo-Sa 17:00", "note": "ON 12/24 AND 12/31, THIS BOX MAY BE COLLECTED AS EARLY AS 12 NOON.", "nsi_id": "unitedstatespostalservice-a77078", "operator": "United States Postal Service", "operator:short": "USPS", "operator:type": "public", "operator:wikidata": "Q668687", "ref": "4924200011"}, "type": "Feature"}
{"geometry": {"coordinates": [-84.6337619, 41.920788], "type": "Point"}, "id": "4DO9RQP0mybCC0H28AM9VGBYJW8=", "properties": {"@source_uri": "https://tools.usps.com/UspsToolsRestServices/rest/POLocator/findLocations", "@spider": "usps_collection_boxes", "addr:city": "HILLSDALE", "addr:country": "US", "addr:postcode": "49242", "addr:state": "MI", "addr:street_address": "22 N MANNING ST", "amenity": "post_box", "brand": "United States Postal Service", "brand:wikidata": "Q668687", "collection_times": "Mo-Sa 11:00", "nsi_id": "unitedstatespostalservice-a77078", "operator": "United States Postal Service", "operator:short": "USPS", "operator:type": "public", "operator:wikidata": "Q668687", "ref": "4924200019"}, "type": "Feature"}
{"geometry": {"coordinates": [-84.6425099, 41.92942], "type": "Point"}, "id": "PygX63oghkq1RSdEuNWxoavvlmw=", "properties": {"@source_uri": "https://tools.usps.com/UspsToolsRestServices/rest/POLocator/findLocations", "@spider": "usps_collection_boxes", "addr:city": "HILLSDALE", "addr:country": "US", "addr:postcode": "49242", "addr:state": "MI", "addr:street_address": "210 W CARLETON RD", "amenity": "post_box", "brand": "United States Postal Service", "brand:wikidata": "Q668687", "collection_times": "Mo-Sa 10:00", "nsi_id": "unitedstatespostalservice-a77078", "operator": "United States Postal Service", "operator:short": "USPS", "operator:type": "public", "operator:wikidata": "Q668687", "ref": "4924200023"}, "type": "Feature"}
{"geometry": {"coordinates": [-84.6319379, 41.920735], "type": "Point"}, "id": "QFYbOEQMeRXKlM3lTpUzFXFjexQ=", "properties": {"@source_uri": "https://tools.usps.com/UspsToolsRestServices/rest/POLocator/findLocations", "@spider": "usps_collection_boxes", "addr:city": "HILLSDALE", "addr:country": "US", "addr:postcode": "49242", "addr:state": "MI", "addr:street_address": "29 N HOWELL ST", "amenity": "post_box", "brand": "United States Postal Service", "brand:wikidata": "Q668687", "collection_times": "Mo-Sa 15:00", "note": "ON 12/24 AND 12/31, THIS BOX MAY BE COLLECTED AS EARLY AS 12 NOON.", "nsi_id": "unitedstatespostalservice-a77078", "operator": "United States Postal Service", "operator:short": "USPS", "operator:type": "public", "operator:wikidata": "Q668687", "ref": "4924200032"}, "type": "Feature"}
{"geometry": {"coordinates": [-84.6325573, 41.911371], "type": "Point"}, "id": "EJrIGj21J8GuN8rGddEoFZfy9MU=", "properties": {"@source_uri": "https://tools.usps.com/UspsToolsRestServices/rest/POLocator/findLocations", "@spider": "usps_collection_boxes", "addr:city": "HILLSDALE", "addr:country": "US", "addr:postcode": "49242", "addr:state": "MI", "addr:street_address": "168 S HOWELL ST", "amenity": "post_box", "brand": "United States Postal Service", "brand:wikidata": "Q668687", "collection_times": "Mo-Sa 15:00", "note": "ON 12/24 AND 12/31, THIS BOX MAY BE COLLECTED AS EARLY AS 12 NOON.", "nsi_id": "unitedstatespostalservice-a77078", "operator": "United States Postal Service", "operator:short": "USPS", "operator:type": "public", "operator:wikidata": "Q668687", "ref": "4924200035"}, "type": "Feature"}
{"geometry": {"coordinates": [-84.6347662, 41.93208], "type": "Point"}, "id": "6VuEmJAZxqQm6UruhRcLAaTozdg=", "properties": {"@source_uri": "https://tools.usps.com/UspsToolsRestServices/rest/POLocator/findLocations", "@spider": "usps_collection_boxes", "addr:city": "HILLSDALE", "addr:country": "US", "addr:postcode": "49242", "addr:state": "MI", "addr:street_address": "33 E COLLEGE ST", "amenity": "post_box", "brand": "United States Postal Service", "brand:wikidata": "Q668687", "collection_times": "Mo-Sa 11:00", "nsi_id": "unitedstatespostalservice-a77078", "operator": "United States Postal Service", "operator:short": "USPS", "operator:type": "public", "operator:wikidata": "Q668687", "ref": "4924200036"}, "type": "Feature"}
{"geometry": {"coordinates": [-84.6319856, 41.917795], "type": "Point"}, "id": "9l60iqG0uYljPeaT7s6UBknBu_4=", "properties": {"@source_uri": "https://tools.usps.com/UspsToolsRestServices/rest/POLocator/findLocations", "@spider": "usps_collection_boxes", "addr:city": "HILLSDALE", "addr:country": "US", "addr:postcode": "49242", "addr:state": "MI", "addr:street_address": "51 S HOWELL ST", "amenity": "post_box", "brand": "United States Postal Service", "brand:wikidata": "Q668687", "collection_times": "Mo-Sa 15:00", "note": "ON 12/24 AND 12/31, THIS BOX MAY BE COLLECTED AS EARLY AS 12 NOON.", "nsi_id": "unitedstatespostalservice-a77078", "operator": "United States Postal Service", "operator:short": "USPS", "operator:type": "public", "operator:wikidata": "Q668687", "ref": "4924200038"}, "type": "Feature"}
{"geometry": {"coordinates": [-84.6428828, 41.932078], "type": "Point"}, "id": "CTEkpLEg6yNFqwkYjIqmMZ9Bn1k=", "properties": {"@source_uri": "https://tools.usps.com/UspsToolsRestServices/rest/POLocator/findLocations", "@spider": "usps_collection_boxes", "addr:city": "HILLSDALE", "addr:country": "US", "addr:postcode": "49242", "addr:state": "MI", "addr:street_address": "290 W CARLETON RD", "amenity": "post_box", "brand": "United States Postal Service", "brand:wikidata": "Q668687", "collection_times": "Mo-Sa 11:00", "nsi_id": "unitedstatespostalservice-a77078", "operator": "United States Postal Service", "operator:short": "USPS", "operator:type": "public", "operator:wikidata": "Q668687", "ref": "4924200040"}, "type": "Feature"}
{"geometry": {"coordinates": [-84.630744, 41.922536], "type": "Point"}, "id": "wVXIK0valIxD9SRj39RmSlVXacc=", "properties": {"@source_uri": "https://tools.usps.com/UspsToolsRestServices/rest/POLocator/findLocations", "@spider": "usps_collection_boxes", "addr:city": "HILLSDALE", "addr:country": "US", "addr:postcode": "49242", "addr:state": "MI", "addr:street_address": "77 NORTH ST", "amenity": "post_box", "brand": "United States Postal Service", "brand:wikidata": "Q668687", "collection_times": "Mo-Sa 17:00", "note": "ON 12/24 AND 12/31, THIS BOX MAY BE COLLECTED AS EARLY AS 12 NOON.", "nsi_id": "unitedstatespostalservice-a77078", "operator": "United States Postal Service", "operator:short": "USPS", "operator:type": "public", "operator:wikidata": "Q668687", "ref": "4924200041"}, "type": "Feature"}
{"geometry": {"coordinates": [-84.630719975, 41.922578914], "type": "Point"}, "id": "myay32kUzu56jYrFpfj6DE2VwQU=", "properties": {"@source_uri": "https://tools.usps.com/UspsToolsRestServices/rest/POLocator/findLocations", "@spider": "usps_collection_boxes", "addr:city": "HILLSDALE", "addr:country": "US", "addr:postcode": "49242", "addr:state": "MI", "addr:street_address": "77 NORTH ST", "amenity": "post_box", "brand": "United States Postal Service", "brand:wikidata": "Q668687", "collection_times": "Mo-Sa 17:00", "indoor": "yes", "note": "ON 12/24 AND 12/31, THIS BOX MAY BE COLLECTED AS EARLY AS 12 NOON.", "nsi_id": "unitedstatespostalservice-a77078", "operator": "United States Postal Service", "operator:short": "USPS", "operator:type": "public", "operator:wikidata": "Q668687", "ref": "4924200042"}, "type": "Feature"}
{"geometry": {"coordinates": [-84.807281, 42.145725], "type": "Point"}, "id": "LnvdzKJClrJEW4Xm3dCyjvBCNWA=", "properties": {"@source_uri": "https://tools.usps.com/UspsToolsRestServices/rest/POLocator/findLocations", "@spider": "usps_collection_boxes", "addr:city": "HOMER", "addr:country": "US", "addr:postcode": "49245", "addr:state": "MI", "addr:street_address": "110 W MAIN ST", "amenity": "post_box", "brand": "United States Postal Service", "brand:wikidata": "Q668687", "collection_times": "Mo-Fr 16:30; Sa 11:00", "note": "ON 12/24 AND 12/31, THIS BOX MAY BE COLLECTED AS EARLY AS 12 NOON.", "nsi_id": "unitedstatespostalservice-a77078", "operator": "United States Postal Service", "operator:short": "USPS", "operator:type": "public", "operator:wikidata": "Q668687", "ref": "4924500001"}, "type": "Feature"}
{"geometry": {"coordinates": [-84.807281, 42.145725], "type": "Point"}, "id": "hBknIUnLWfyqcDnMeGdksT4c14A=", "properties": {"@source_uri": "https://tools.usps.com/UspsToolsRestServices/rest/POLocator/findLocations", "@spider": "usps_collection_boxes", "addr:city": "HOMER", "addr:country": "US", "addr:postcode": "49245", "addr:state": "MI", "addr:street_address": "110 W MAIN ST", "amenity": "post_box", "brand": "United States Postal Service", "brand:wikidata": "Q668687", "collection_times": "Mo-Fr 16:30; Sa 11:00", "note": "ON 12/24 AND 12/31, THIS BOX MAY BE COLLECTED AS EARLY AS 12 NOON.", "nsi_id": "unitedstatespostalservice-a77078", "operator": "United States Postal Service", "operator:short": "USPS", "operator:type": "public", "operator:wikidata": "Q668687", "ref": "4924500002"}, "type": "Feature"}
{"geometry": {"coordinates": [-84.8074375362, 42.1458162373], "type": "Point"}, "id": "1-ObNFz-v3PMzMMtXPm_x0sdIGQ=", "properties": {"@source_uri": "https://tools.usps.com/UspsToolsRestServices/rest/POLocator/findLocations", "@spider": "usps_collection_boxes", "addr:city": "HOMER", "addr:country": "US", "addr:postcode": "49245", "addr:state": "MI", "addr:street_address": "110 W MAIN ST", "amenity": "post_box", "brand": "United States Postal Service", "brand:wikidata": "Q668687", "collection_times": "Mo-Fr 16:30; Sa 11:00", "indoor": "yes", "note": "ON 12/24 AND 12/31, THIS BOX MAY BE COLLECTED AS EARLY AS 12 NOON.", "nsi_id": "unitedstatespostalservice-a77078", "operator": "United States Postal Service", "operator:short": "USPS", "operator:type": "public", "operator:wikidata": "Q668687", "ref": "4924500009"}, "type": "Feature"}
{"geometry": {"coordinates": [-84.5223498, 42.150568], "type": "Point"}, "id": "HjaRvRLCaNPrLdiOG3EM_tnSQWo=", "properties": {"@source_uri": "https://tools.usps.com/UspsToolsRestServices/rest/POLocator/findLocations", "@spider": "usps_collection_boxes", "addr:city": "HORTON", "addr:country": "US", "addr:postcode": "49246", "addr:state": "MI", "addr:street_address": "220 MAIN ST", "amenity": "post_box", "brand": "United States Postal Service", "brand:wikidata": "Q668687", "collection_times": "Mo-Fr 15:30; Sa 10:00", "note": "ON 12/24 AND 12/31, THIS BOX MAY BE COLLECTED AS EARLY AS 12 NOON.", "nsi_id": "unitedstatespostalservice-a77078", "operator": "United States Postal Service", "operator:short": "USPS", "operator:type": "public", "operator:wikidata": "Q668687", "ref": "4924600001"}, "type": "Feature"}
{"geometry": {"coordinates": [-84.519020032, 42.156175425], "type": "Point"}, "id": "sRbj75ltM9cejsvZk34ogXPNUeI=", "properties": {"@source_uri": "https://tools.usps.com/UspsToolsRestServices/rest/POLocator/findLocations", "@spider": "usps_collection_boxes", "addr:city": "HORTON", "addr:country": "US", "addr:postcode": "49246", "addr:state": "MI", "addr:street_address": "7518 MOSCOW RD", "amenity": "post_box", "brand": "United States Postal Service", "brand:wikidata": "Q668687", "collection_times": "Mo-Fr 12:00; Sa 10:00", "nsi_id": "unitedstatespostalservice-a77078", "operator": "United States Postal Service", "operator:short": "USPS", "operator:type": "public", "operator:wikidata": "Q668687", "ref": "4924600002"}, "type": "Feature"}
{"geometry": {"coordinates": [-84.521902854, 42.1503920656], "type": "Point"}, "id": "dwD8igeNNcPxQM6hweQEfU3Sp_U=", "properties": {"@source_uri": "https://tools.usps.com/UspsToolsRestServices/rest/POLocator/findLocations", "@spider": "usps_collection_boxes", "addr:city": "HORTON", "addr:country": "US", "addr:postcode": "49246", "addr:state": "MI", "addr:street_address": "220 MAIN ST", "amenity": "post_box", "brand": "United States Postal Service", "brand:wikidata": "Q668687", "collection_times": "Mo-Fr 16:00; Sa 10:00", "indoor": "yes", "note": "ON 12/24 AND 12/31, THIS BOX MAY BE COLLECTED AS EARLY AS 12 NOON.", "nsi_id": "unitedstatespostalservice-a77078", "operator": "United States Postal Service", "operator:short": "USPS", "operator:type": "public", "operator:wikidata": "Q668687", "ref": "4924600005"}, "type": "Feature"}
{"geometry": {"coordinates": [-84.3568612869, 41.8548301234], "type": "Point"}, "id": "Hh_6a8LZijhDOhNgI8VH21WjCY4=", "properties": {"@source_uri": "https://tools.usps.com/UspsToolsRestServices/rest/POLocator/findLocations", "@spider": "usps_collection_boxes", "addr:city": "HUDSON", "addr:country": "US", "addr:postcode": "49247", "addr:state": "MI", "addr:street_address": "101 HOWARD ST", "amenity": "post_box", "brand": "United States Postal Service", "brand:wikidata": "Q668687", "collection_times": "Mo-Fr 17:00; Sa 12:00", "note": "ON 12/24 AND 12/31, THIS BOX MAY BE COLLECTED AS EARLY AS 12 NOON.", "nsi_id": "unitedstatespostalservice-a77078", "operator": "United States Postal Service", "operator:short": "USPS", "operator:type": "public", "operator:wikidata": "Q668687", "ref": "4924700001"}, "type": "Feature"}
{"geometry": {"coordinates": [-84.3570629, 41.855425], "type": "Point"}, "id": "zr8aFhTIFb4oMbvCSepS3UGhPXU=", "properties": {"@source_uri": "https://tools.usps.com/UspsToolsRestServices/rest/POLocator/findLocations", "@spider": "usps_collection_boxes", "addr:city": "HUDSON", "addr:country": "US", "addr:postcode": "49247", "addr:state": "MI", "addr:street_address": "325 RAILROAD ST", "amenity": "post_box", "brand": "United States Postal Service", "brand:wikidata": "Q668687", "collection_times": "Mo-Fr 16:00; Sa 12:00", "note": "ON 12/24 AND 12/31, THIS BOX MAY BE COLLECTED AS EARLY AS 12 NOON.", "nsi_id": "unitedstatespostalservice-a77078", "operator": "United States Postal Service", "operator:short": "USPS", "operator:type": "public", "operator:wikidata": "Q668687", "ref": "4924700002"}, "type": "Feature"}
{"geometry": {"coordinates": [-84.356861219, 41.854812063], "type": "Point"}, "id": "8qR17lCmfDJFT-2oQeeU1yL3C6w=", "properties": {"@source_uri": "https://tools.usps.com/UspsToolsRestServices/rest/POLocator/findLocations", "@spider": "usps_collection_boxes", "addr:city": "HUDSON", "addr:country": "US", "addr:postcode": "49247", "addr:state": "MI", "addr:street_address": "101 HOWARD ST", "amenity": "post_box", "brand": "United States Postal Service", "brand:wikidata": "Q668687", "collection_times": "Mo-Fr 17:00; Sa 12:00", "indoor": "yes", "note": "ON 12/24 AND 12/31, THIS BOX MAY BE COLLECTED AS EARLY AS 12 NOON.", "nsi_id": "unitedstatespostalservice-a77078", "operator": "United States Postal Service", "operator:short": "USPS", "operator:type": "public", "operator:wikidata": "Q668687", "ref": "4924700008"}, "type": "Feature"}
{"geometry": {"coordinates": [-84.040617, 41.792807], "type": "Point"}, "id": "-d9Qhc1csPm3o04dUV5s0SQi5SY=", "properties": {"@source_uri": "https://tools.usps.com/UspsToolsRestServices/rest/POLocator/findLocations", "@spider": "usps_collection_boxes", "addr:city": "JASPER", "addr:country": "US", "addr:postcode": "49248", "addr:state": "MI", "addr:street_address": "8520 S ADRIAN HWY", "amenity": "post_box", "brand": "United States Postal Service", "brand:wikidata": "Q668687", "collection_times": "Mo-Fr 11:45; Sa 10:00", "nsi_id": "unitedstatespostalservice-a77078", "operator": "United States Postal Service", "operator:short": "USPS", "operator:type": "public", "operator:wikidata": "Q668687", "ref": "4924800002"}, "type": "Feature"}
{"geometry": {"coordinates": [-84.0406292872, 41.7928861887], "type": "Point"}, "id": "ujq3fG3nIXgvc_BVA8JN-54imI8=", "properties": {"@source_uri": "https://tools.usps.com/UspsToolsRestServices/rest/POLocator/findLocations", "@spider": "usps_collection_boxes", "addr:city": "JASPER", "addr:country": "US", "addr:postcode": "49248", "addr:state": "MI", "addr:street_address": "8520 S ADRIAN HWY", "amenity": "post_box", "brand": "United States Postal Service", "brand:wikidata": "Q668687", "collection_times": "Mo-Fr 11:45; Sa 10:00", "indoor": "yes", "nsi_id": "unitedstatespostalservice-a77078", "operator": "United States Postal Service", "operator:short": "USPS", "operator:type": "public", "operator:wikidata": "Q668687", "ref": "4924800004"}, "type": "Feature"}
{"geometry": {"coordinates": [-84.469487, 42.024914], "type": "Point"}, "id": "d9iYhy-DiaCTiHTcNXBsIK6y5Bo=", "properties": {"@source_uri": "https://tools.usps.com/UspsToolsRestServices/rest/POLocator/findLocations", "@spider": "usps_collection_boxes", "addr:city": "JEROME", "addr:country": "US", "addr:postcode": "49249", "addr:state": "MI", "addr:street_address": "8650 N JEROME RD", "amenity": "post_box", "brand": "United States Postal Service", "brand:wikidata": "Q668687", "collection_times": "Mo-Fr 16:00; Sa 10:30", "note": "ON 12/24 AND 12/31, THIS BOX MAY BE COLLECTED AS EARLY AS 12 NOON.", "nsi_id": "unitedstatespostalservice-a77078", "operator": "United States Postal Service", "operator:short": "USPS", "operator:type": "public", "operator:wikidata": "Q668687", "ref": "4924900001"}, "type": "Feature"}
{"geometry": {"coordinates": [-84.46949049, 42.025211665], "type": "Point"}, "id": "EdU_u936h4lhxnzR31kPs6P4JiY=", "properties": {"@source_uri": "https://tools.usps.com/UspsToolsRestServices/rest/POLocator/findLocations", "@spider": "usps_collection_boxes", "addr:city": "JEROME", "addr:country": "US", "addr:postcode": "49249", "addr:state": "MI", "addr:street_address": "8650 N JEROME RD", "amenity": "post_box", "brand": "United States Postal Service", "brand:wikidata": "Q668687", "collection_times": "Mo-Fr 16:00; Sa 10:30", "indoor": "yes", "note": "ON 12/24 AND 12/31, THIS BOX MAY BE COLLECTED AS EARLY AS 12 NOON.", "nsi_id": "unitedstatespostalservice-a77078", "operator": "United States Postal Service", "operator:short": "USPS", "operator:type": "public", "operator:wikidata": "Q668687", "ref": "4924900003"}, "type": "Feature"}
{"geometry": {"coordinates": [-84.662505, 41.981915], "type": "Point"}, "id": "-jGIFsLQhLLC1O9PeAiuMCPgjQQ=", "properties": {"@source_uri": "https://tools.usps.com/UspsToolsRestServices/rest/POLocator/findLocations", "@spider": "usps_collection_boxes", "addr:city": "JONESVILLE", "addr:country": "US", "addr:postcode": "49250", "addr:state": "MI", "addr:street_address": "114 MAUMEE ST", "amenity": "post_box", "brand": "United States Postal Service", "brand:wikidata": "Q668687", "collection_times": "Mo-Fr 16:15; Sa 11:45", "note": "ON 12/24 AND 12/31, THIS BOX MAY BE COLLECTED AS EARLY AS 12 NOON.", "nsi_id": "unitedstatespostalservice-a77078", "operator": "United States Postal Service", "operator:short": "USPS", "operator:type": "public", "operator:wikidata": "Q668687", "ref": "4925000002"}, "type": "Feature"}
{"geometry": {"coordinates": [-84.6694028, 41.963599], "type": "Point"}, "id": "_YhBzF6s-Go8GYHHGAPybwydpd0=", "properties": {"@source_uri": "https://tools.usps.com/UspsToolsRestServices/rest/POLocator/findLocations", "@spider": "usps_collection_boxes", "addr:city": "JONESVILLE", "addr:country": "US", "addr:postcode": "49250", "addr:state": "MI", "addr:street_address": "702 OLDS ST", "amenity": "post_box", "brand": "United States Postal Service", "brand:wikidata": "Q668687", "collection_times": "Mo-Sa 11:45", "nsi_id": "unitedstatespostalservice-a77078", "operator": "United States Postal Service", "operator:short": "USPS", "operator:type": "public", "operator:wikidata": "Q668687", "ref": "4925000003"}, "type": "Feature"}
{"geometry": {"coordinates": [-84.6612478168, 41.983337368], "type": "Point"}, "id": "1tjhSnGgceESrZ8c4nYoPSvFiNI=", "properties": {"@source_uri": "https://tools.usps.com/UspsToolsRestServices/rest/POLocator/findLocations", "@spider": "usps_collection_boxes", "addr:city": "JONESVILLE", "addr:country": "US", "addr:postcode": "49250", "addr:state": "MI", "addr:street_address": "114 MAUMEE ST", "amenity": "post_box", "brand": "United States Postal Service", "brand:wikidata": "Q668687", "collection_times": "Mo-Fr 16:15; Sa 11:45", "indoor": "yes", "note": "ON 12/24 AND 12/31, THIS BOX MAY BE COLLECTED AS EARLY AS 12 NOON.", "nsi_id": "unitedstatespostalservice-a77078", "operator": "United States Postal Service", "operator:short": "USPS", "operator:type": "public", "operator:wikidata": "Q668687", "ref": "4925000007"}, "type": "Feature"}
{"geometry": {"coordinates": [-84.43202, 42.450042], "type": "Point"}, "id": "rg7sZVxvGBkLKrSDkAm-Rey3sOM=", "properties": {"@source_uri": "https://tools.usps.com/UspsToolsRestServices/rest/POLocator/findLocations", "@spider": "usps_collection_boxes", "addr:city": "LESLIE", "addr:country": "US", "addr:postcode": "49251", "addr:state": "MI", "addr:street_address": "170 S MAIN ST", "amenity": "post_box", "brand": "United States Postal Service", "brand:wikidata": "Q668687", "collection_times": "Mo-Fr 16:00; Sa 11:00", "note": "ON 12/24 AND 12/31, THIS BOX MAY BE COLLECTED AS EARLY AS 12 NOON.", "nsi_id": "unitedstatespostalservice-a77078", "operator": "United States Postal Service", "operator:short": "USPS", "operator:type": "public", "operator:wikidata": "Q668687", "ref": "4925100001"}, "type": "Feature"}
{"geometry": {"coordinates": [-84.432008727, 42.44968691], "type": "Point"}, "id": "xcrMUQVzWnhcDRmpxTI5sX1qGpo=", "properties": {"@source_uri": "https://tools.usps.com/UspsToolsRestServices/rest/POLocator/findLocations", "@spider": "usps_collection_boxes", "addr:city": "LESLIE", "addr:country": "US", "addr:postcode": "49251", "addr:state": "MI", "addr:street_address": "170 S MAIN ST", "amenity": "post_box", "brand": "United States Postal Service", "brand:wikidata": "Q668687", "collection_times": "Mo-Fr 16:00; Sa 11:00", "indoor": "yes", "note": "ON 12/24 AND 12/31, THIS BOX MAY BE COLLECTED AS EARLY AS 12 NOON.", "nsi_id": "unitedstatespostalservice-a77078", "operator": "United States Postal Service", "operator:short": "USPS", "operator:type": "public", "operator:wikidata": "Q668687", "ref": "4925100005"}, "type": "Feature"}
{"geometry": {"coordinates": [-84.758371, 42.043612], "type": "Point"}, "id": "oGynprYeTwmDpLfduI65_EW_Q_M=", "properties": {"@source_uri": "https://tools.usps.com/UspsToolsRestServices/rest/POLocator/findLocations", "@spider": "usps_collection_boxes", "addr:city": "LITCHFIELD", "addr:country": "US", "addr:postcode": "49252", "addr:state": "MI", "addr:street_address": "111 S CHICAGO", "amenity": "post_box", "brand": "United States Postal Service", "brand:wikidata": "Q668687", "collection_times": "Mo-Fr 16:30; Sa 11:00", "note": "ON 12/24 AND 12/31, THIS BOX MAY BE COLLECTED AS EARLY AS 12 NOON.", "nsi_id": "unitedstatespostalservice-a77078", "operator": "United States Postal Service", "operator:short": "USPS", "operator:type": "public", "operator:wikidata": "Q668687", "ref": "4925200001"}, "type": "Feature"}
{"geometry": {"coordinates": [-84.758375024, 42.043238277], "type": "Point"}, "id": "pSDtBZn__cOgADh1RfJnlVuox_4=", "properties": {"@source_uri": "https://tools.usps.com/UspsToolsRestServices/rest/POLocator/findLocations", "@spider": "usps_collection_boxes", "addr:city": "LITCHFIELD", "addr:country": "US", "addr:postcode": "49252", "addr:state": "MI", "addr:street_address": "111 S CHICAGO", "amenity": "post_box", "brand": "United States Postal Service", "brand:wikidata": "Q668687", "collection_times": "Mo-Fr 16:30; Sa 11:00", "indoor": "yes", "note": "ON 12/24 AND 12/31, THIS BOX MAY BE COLLECTED AS EARLY AS 12 NOON.", "nsi_id": "unitedstatespostalservice-a77078", "operator": "United States Postal Service", "operator:short": "USPS", "operator:type": "public", "operator:wikidata": "Q668687", "ref": "4925200005"}, "type": "Feature"}
{"geometry": {"coordinates": [-84.302666, 41.967898], "type": "Point"}, "id": "wxvM05X6_j67fgBKF3RrA6j4qeg=", "properties": {"@source_uri": "https://tools.usps.com/UspsToolsRestServices/rest/POLocator/findLocations", "@spider": "usps_collection_boxes", "addr:city": "MANITOU BEACH", "addr:country": "US", "addr:postcode": "49253", "addr:state": "MI", "addr:street_address": "1235 ELM ST", "amenity": "post_box", "brand": "United States Postal Service", "brand:wikidata": "Q668687", "collection_times": "Mo-Fr 16:15; Sa 11:00", "note": "ON 12/24 AND 12/31, THIS BOX MAY BE COLLECTED AS EARLY AS 12 NOON.", "nsi_id": "unitedstatespostalservice-a77078", "operator": "United States Postal Service", "operator:short": "USPS", "operator:type": "public", "operator:wikidata": "Q668687", "ref": "4925300001"}, "type": "Feature"}
{"geometry": {"coordinates": [-84.2864178, 41.964634], "type": "Point"}, "id": "xyTlrOOGporhImexhuvzkVLSDdA=", "properties": {"@source_uri": "https://tools.usps.com/UspsToolsRestServices/rest/POLocator/findLocations", "@spider": "usps_collection_boxes", "addr:city": "MANITOU BEACH", "addr:country": "US", "addr:postcode": "49253", "addr:state": "MI", "addr:street_address": "851 MANITOU RD", "amenity": "post_box", "brand": "United States Postal Service", "brand:wikidata": "Q668687", "collection_times": "Mo-Sa 14:00", "note": "ON 12/24 AND 12/31, THIS BOX MAY BE COLLECTED AS EARLY AS 12 NOON.", "nsi_id": "unitedstatespostalservice-a77078", "operator": "United States Postal Service", "operator:short": "USPS", "operator:type": "public", "operator:wikidata": "Q668687", "ref": "4925300003"}, "type": "Feature"}
{"geometry": {"coordinates": [-84.302642303, 41.967837278], "type": "Point"}, "id": "oZP388fiAy1eSw0edlImBQQqXoQ=", "properties": {"@source_uri": "https://tools.usps.com/UspsToolsRestServices/rest/POLocator/findLocations", "@spider": "usps_collection_boxes", "addr:city": "MANITOU BEACH", "addr:country": "US", "addr:postcode": "49253", "addr:state": "MI", "addr:street_address": "1235 ELM ST", "amenity": "post_box", "brand": "United States Postal Service", "brand:wikidata": "Q668687", "collection_times": "Mo-Fr 16:30; Sa 11:00", "indoor": "yes", "note": "ON 12/24 AND 12/31, THIS BOX MAY BE COLLECTED AS EARLY AS 12 NOON.", "nsi_id": "unitedstatespostalservice-a77078", "operator": "United States Postal Service", "operator:short": "USPS", "operator:type": "public", "operator:wikidata": "Q668687", "ref": "4925300007"}, "type": "Feature"}
{"geometry": {"coordinates": [-84.326131, 42.230145], "type": "Point"}, "id": "xEF24JJAqvQyB75IUkbky1k8ERQ=", "properties": {"@source_uri": "https://tools.usps.com/UspsToolsRestServices/rest/POLocator/findLocations", "@spider": "usps_collection_boxes", "addr:city": "MICHIGAN CENTER", "addr:country": "US", "addr:postcode": "49254", "addr:state": "MI", "addr:street_address": "133 BROAD ST", "amenity": "post_box", "brand": "United States Postal Service", "brand:wikidata": "Q668687", "collection_times": "Mo-Sa 10:00", "nsi_id": "unitedstatespostalservice-a77078", "operator": "United States Postal Service", "operator:short": "USPS", "operator:type": "public", "operator:wikidata": "Q668687", "ref": "4925400001"}, "type": "Feature"}
{"geometry": {"coordinates": [-84.3274959, 42.233248], "type": "Point"}, "id": "m5Bf_mwCd-PviYJZDqqLsbIrT40=", "properties": {"@source_uri": "https://tools.usps.com/UspsToolsRestServices/rest/POLocator/findLocations", "@spider": "usps_collection_boxes", "addr:city": "MICHIGAN CENTER", "addr:country": "US", "addr:postcode": "49254", "addr:state": "MI", "addr:street_address": "4646 PAGE AVE", "amenity": "post_box", "brand": "United States Postal Service", "brand:wikidata": "Q668687", "collection_times": "Mo-Sa 10:00", "nsi_id": "unitedstatespostalservice-a77078", "operator": "United States Postal Service", "operator:short": "USPS", "operator:type": "public", "operator:wikidata": "Q668687", "ref": "4925400002"}, "type": "Feature"}
{"geometry": {"coordinates": [-84.326332, 42.230196], "type": "Point"}, "id": "bZHzdupgTjVLwAXcILUBQeff6Xg=", "properties": {"@source_uri": "https://tools.usps.com/UspsToolsRestServices/rest/POLocator/findLocations", "@spider": "usps_collection_boxes", "addr:city": "MICHIGAN CENTER", "addr:country": "US", "addr:postcode": "49254", "addr:state": "MI", "addr:street_address": "122 BROAD ST", "amenity": "post_box", "brand": "United States Postal Service", "brand:wikidata": "Q668687", "collection_times": "Mo-Fr 17:00; Sa 11:00", "note": "ON 12/24 AND 12/31, THIS BOX MAY BE COLLECTED AS EARLY AS 12 NOON.", "nsi_id": "unitedstatespostalservice-a77078", "operator": "United States Postal Service", "operator:short": "USPS", "operator:type": "public", "operator:wikidata": "Q668687", "ref": "4925400003"}, "type": "Feature"}
{"geometry": {"coordinates": [-84.325872945, 42.230195515], "type": "Point"}, "id": "AZNgS9WnVRnHfqiKDthfMl2BNuA=", "properties": {"@source_uri": "https://tools.usps.com/UspsToolsRestServices/rest/POLocator/findLocations", "@spider": "usps_collection_boxes", "addr:city": "MICHIGAN CENTER", "addr:country": "US", "addr:postcode": "49254", "addr:state": "MI", "addr:street_address": "122 BROAD ST", "amenity": "post_box", "brand": "United States Postal Service", "brand:wikidata": "Q668687", "collection_times": "Mo-Fr 17:00; Sa 11:00", "indoor": "yes", "note": "ON 12/24 AND 12/31, THIS BOX MAY BE COLLECTED AS EARLY AS 12 NOON.", "nsi_id": "unitedstatespostalservice-a77078", "operator": "United States Postal Service", "operator:short": "USPS", "operator:type": "public", "operator:wikidata": "Q668687", "ref": "4925400005"}, "type": "Feature"}
{"geometry": {"coordinates": [-84.804051, 41.777632], "type": "Point"}, "id": "MgZmI-fO7a5AA71d3l04ik9Va4c=", "properties": {"@source_uri": "https://tools.usps.com/UspsToolsRestServices/rest/POLocator/findLocations", "@spider": "usps_collection_boxes", "addr:city": "MONTGOMERY", "addr:country": "US", "addr:postcode": "49255", "addr:state": "MI", "addr:street_address": "106 W HAKES", "amenity": "post_box", "brand": "United States Postal Service", "brand:wikidata": "Q668687", "collection_times": "Mo-Fr 12:00; Sa 10:00", "nsi_id": "unitedstatespostalservice-a77078", "operator": "United States Postal Service", "operator:short": "USPS", "operator:type": "public", "operator:wikidata": "Q668687", "ref": "4925500001"}, "type": "Feature"}
{"geometry": {"coordinates": [-84.8041603324, 41.7776225115], "type": "Point"}, "id": "lQw6ezJNWR28G-nsM4KtNLa6RBQ=", "properties": {"@source_uri": "https://tools.usps.com/UspsToolsRestServices/rest/POLocator/findLocations", "@spider": "usps_collection_boxes", "addr:city": "MONTGOMERY", "addr:country": "US", "addr:postcode": "49255", "addr:state": "MI", "addr:street_address": "106 W HAKES", "amenity": "post_box", "brand": "United States Postal Service", "brand:wikidata": "Q668687", "collection_times": "Mo-Fr 12:00; Sa 10:00", "indoor": "yes", "nsi_id": "unitedstatespostalservice-a77078", "operator": "United States Postal Service", "operator:short": "USPS", "operator:type": "public", "operator:wikidata": "Q668687", "ref": "4925500003"}, "type": "Feature"}
{"geometry": {"coordinates": [-84.2185737, 41.718731], "type": "Point"}, "id": "qDn5h8EvaReYeWxt5dVtTsXBdzY=", "properties": {"@source_uri": "https://tools.usps.com/UspsToolsRestServices/rest/POLocator/findLocations", "@spider": "usps_collection_boxes", "addr:city": "MORENCI", "addr:country": "US", "addr:postcode": "49256", "addr:state": "MI", "addr:street_address": "243 BAKER ST", "amenity": "post_box", "brand": "United States Postal Service", "brand:wikidata": "Q668687", "collection_times": "Mo-Fr 13:00; Sa 12:00", "note": "ON 12/24 AND 12/31, THIS BOX MAY BE COLLECTED AS EARLY AS 12 NOON.", "nsi_id": "unitedstatespostalservice-a77078", "operator": "United States Postal Service", "operator:short": "USPS", "operator:type": "public", "operator:wikidata": "Q668687", "ref": "4925600005"}, "type": "Feature"}
{"geometry": {"coordinates": [-84.21217, 41.721555], "type": "Point"}, "id": "Ph8O3umd8Q8yO6jxnfD2sGHXrW0=", "properties": {"@source_uri": "https://tools.usps.com/UspsToolsRestServices/rest/POLocator/findLocations", "@spider": "usps_collection_boxes", "addr:city": "MORENCI", "addr:country": "US", "addr:postcode": "49256", "addr:state": "MI", "addr:street_address": "950 E MAIN ST", "amenity": "post_box", "brand": "United States Postal Service", "brand:wikidata": "Q668687", "collection_times": "Mo-Sa 10:00", "nsi_id": "unitedstatespostalservice-a77078", "operator": "United States Postal Service", "operator:short": "USPS", "operator:type": "public", "operator:wikidata": "Q668687", "ref": "4925600006"}, "type": "Feature"}
{"geometry": {"coordinates": [-84.2164201887, 41.7194594716], "type": "Point"}, "id": "JArrb8H3Hup3zyGe5TwkFj8ZnN0=", "properties": {"@source_uri": "https://tools.usps.com/UspsToolsRestServices/rest/POLocator/findLocations", "@spider": "usps_collection_boxes", "addr:city": "MORENCI", "addr:country": "US", "addr:postcode": "49256", "addr:state": "MI", "addr:street_address": "126 W MAIN ST", "amenity": "post_box", "brand": "United States Postal Service", "brand:wikidata": "Q668687", "collection_times": "Mo-Fr 16:00; Sa 12:00", "indoor": "yes", "note": "ON 12/24 AND 12/31, THIS BOX MAY BE COLLECTED AS EARLY AS 12 NOON.", "nsi_id": "unitedstatespostalservice-a77078", "operator": "United States Postal Service", "operator:short": "USPS", "operator:type": "public", "operator:wikidata": "Q668687", "ref": "4925600007"}, "type": "Feature"}
{"geometry": {"coordinates": [-84.6585156631, 42.059455349], "type": "Point"}, "id": "u5x5hcwo2kNyszqManP76LwInU0=", "properties": {"@source_uri": "https://tools.usps.com/UspsToolsRestServices/rest/POLocator/findLocations", "@spider": "usps_collection_boxes", "addr:city": "MOSHERVILLE", "addr:country": "US", "addr:postcode": "49258", "addr:state": "MI", "addr:street_address": "11200 WINFIELD RD", "amenity": "post_box", "brand": "United States Postal Service", "brand:wikidata": "Q668687", "collection_times": "Mo-Sa 10:50", "nsi_id": "unitedstatespostalservice-a77078", "operator": "United States Postal Service", "operator:short": "USPS", "operator:type": "public", "operator:wikidata": "Q668687", "ref": "4925800001"}, "type": "Feature"}
{"geometry": {"coordinates": [-84.6593178579, 42.0605313579], "type": "Point"}, "id": "tpp4jFaLgjmnsjue2kbJSr1EvYc=", "properties": {"@source_uri": "https://tools.usps.com/UspsToolsRestServices/rest/POLocator/findLocations", "@spider": "usps_collection_boxes", "addr:city": "MOSHERVILLE", "addr:country": "US", "addr:postcode": "49258", "addr:state": "MI", "addr:street_address": "11200 WINFIELD RD", "amenity": "post_box", "brand": "United States Postal Service", "brand:wikidata": "Q668687", "collection_times": "Mo-Sa 10:45", "indoor": "yes", "nsi_id": "unitedstatespostalservice-a77078", "operator": "United States Postal Service", "operator:short": "USPS", "operator:type": "public", "operator:wikidata": "Q668687", "ref": "4925800003"}, "type": "Feature"}
{"geometry": {"coordinates": [-84.250952, 42.391477], "type": "Point"}, "id": "lXyDTjEWrRANYcHkT-rPHPT9mTM=", "properties": {"@source_uri": "https://tools.usps.com/UspsToolsRestServices/rest/POLocator/findLocations", "@spider": "usps_collection_boxes", "addr:city": "MUNITH", "addr:country": "US", "addr:postcode": "49259", "addr:state": "MI", "addr:street_address": "100 W 6TH ST", "amenity": "post_box", "brand": "United States Postal Service", "brand:wikidata": "Q668687", "collection_times": "Mo-Fr 16:00; Sa 10:30", "note": "ON 12/24 AND 12/31, THIS BOX MAY BE COLLECTED AS EARLY AS 12 NOON.", "nsi_id": "unitedstatespostalservice-a77078", "operator": "United States Postal Service", "operator:short": "USPS", "operator:type": "public", "operator:wikidata": "Q668687", "ref": "4925900001"}, "type": "Feature"}
{"geometry": {"coordinates": [-84.2509804955, 42.3915240389], "type": "Point"}, "id": "hvfuSsvPfjUgE3esPHj-8fJxaKA=", "properties": {"@source_uri": "https://tools.usps.com/UspsToolsRestServices/rest/POLocator/findLocations", "@spider": "usps_collection_boxes", "addr:city": "MUNITH", "addr:country": "US", "addr:postcode": "49259", "addr:state": "MI", "addr:street_address": "100 W 6TH ST", "amenity": "post_box", "brand": "United States Postal Service", "brand:wikidata": "Q668687", "collection_times": "Mo-Fr 16:00; Sa 10:30", "indoor": "yes", "note": "ON 12/24 AND 12/31, THIS BOX MAY BE COLLECTED AS EARLY AS 12 NOON.", "nsi_id": "unitedstatespostalservice-a77078", "operator": "United States Postal Service", "operator:short": "USPS", "operator:type": "public", "operator:wikidata": "Q668687", "ref": "4925900003"}, "type": "Feature"}
{"geometry": {"coordinates": [-84.247771, 42.161623], "type": "Point"}, "id": "v-uAAe5mynVARX4QLwP8Ivfesk0=", "properties": {"@source_uri": "https://tools.usps.com/UspsToolsRestServices/rest/POLocator/findLocations", "@spider": "usps_collection_boxes", "addr:city": "NAPOLEON", "addr:country": "US", "addr:postcode": "49261", "addr:state": "MI", "addr:street_address": "125 AUSTIN RD", "amenity": "post_box", "brand": "United States Postal Service", "brand:wikidata": "Q668687", "collection_times": "Mo-Fr 16:00; Sa 11:45", "note": "ON 12/24 AND 12/31, THIS BOX MAY BE COLLECTED AS EARLY AS 12 NOON.", "nsi_id": "unitedstatespostalservice-a77078", "operator": "United States Postal Service", "operator:short": "USPS", "operator:type": "public", "operator:wikidata": "Q668687", "ref": "4926100002"}, "type": "Feature"}
{"geometry": {"coordinates": [-84.2468428961, 42.161200859], "type": "Point"}, "id": "Cn-XWgy7rKE03aCXtBExHJFAWQ8=", "properties": {"@source_uri": "https://tools.usps.com/UspsToolsRestServices/rest/POLocator/findLocations", "@spider": "usps_collection_boxes", "addr:city": "NAPOLEON", "addr:country": "US", "addr:postcode": "49261", "addr:state": "MI", "addr:street_address": "125 AUSTIN RD", "amenity": "post_box", "brand": "United States Postal Service", "brand:wikidata": "Q668687", "collection_times": "Mo-Fr 16:00; Sa 11:45", "indoor": "yes", "note": "ON 12/24 AND 12/31, THIS BOX MAY BE COLLECTED AS EARLY AS 12 NOON.", "nsi_id": "unitedstatespostalservice-a77078", "operator": "United States Postal Service", "operator:short": "USPS", "operator:type": "public", "operator:wikidata": "Q668687", "ref": "4926100004"}, "type": "Feature"}
{"geometry": {"coordinates": [-84.5260933, 41.971015], "type": "Point"}, "id": "2rlU0VCorMV2H6xrAEZLuz0ezbg=", "properties": {"@source_uri": "https://tools.usps.com/UspsToolsRestServices/rest/POLocator/findLocations", "@spider": "usps_collection_boxes", "addr:city": "NORTH ADAMS", "addr:country": "US", "addr:postcode": "49262", "addr:state": "MI", "addr:street_address": "114 W MAIN ST", "amenity": "post_box", "brand": "United States Postal Service", "brand:wikidata": "Q668687", "collection_times": "Mo-Fr 12:30; Sa 10:30", "note": "ON 12/24 AND 12/31, THIS BOX MAY BE COLLECTED AS EARLY AS 12 NOON.", "nsi_id": "unitedstatespostalservice-a77078", "operator": "United States Postal Service", "operator:short": "USPS", "operator:type": "public", "operator:wikidata": "Q668687", "ref": "4926200001"}, "type": "Feature"}
{"geometry": {"coordinates": [-84.5262115511, 41.9709224788], "type": "Point"}, "id": "rGzejsWdwv0Xo_wBTzgCvuQurus=", "properties": {"@source_uri": "https://tools.usps.com/UspsToolsRestServices/rest/POLocator/findLocations", "@spider": "usps_collection_boxes", "addr:city": "NORTH ADAMS", "addr:country": "US", "addr:postcode": "49262", "addr:state": "MI", "addr:street_address": "114 W MAIN ST", "amenity": "post_box", "brand": "United States Postal Service", "brand:wikidata": "Q668687", "collection_times": "Mo-Fr 12:30; Sa 10:30", "indoor": "yes", "note": "ON 12/24 AND 12/31, THIS BOX MAY BE COLLECTED AS EARLY AS 12 NOON.", "nsi_id": "unitedstatespostalservice-a77078", "operator": "United States Postal Service", "operator:short": "USPS", "operator:type": "public", "operator:wikidata": "Q668687", "ref": "4926200003"}, "type": "Feature"}
{"geometry": {"coordinates": [-84.183346587, 42.158285572], "type": "Point"}, "id": "IwR7JWvTOXwi3XgKasifB4Laybo=", "properties": {"@source_uri": "https://tools.usps.com/UspsToolsRestServices/rest/POLocator/findLocations", "@spider": "usps_collection_boxes", "addr:city": "NORVELL", "addr:country": "US", "addr:postcode": "49263", "addr:state": "MI", "addr:street_address": "105 COMMERCIAL ST", "amenity": "post_box", "brand": "United States Postal Service", "brand:wikidata": "Q668687", "collection_times": "Mo-Fr 11:00; Sa 10:45", "nsi_id": "unitedstatespostalservice-a77078", "operator": "United States Postal Service", "operator:short": "USPS", "operator:type": "public", "operator:wikidata": "Q668687", "ref": "4926300001"}, "type": "Feature"}
{"geometry": {"coordinates": [-84.1833465869, 42.1582855723], "type": "Point"}, "id": "EsV2mw3p1zrBTpMZeY-JxWaly3o=", "properties": {"@source_uri": "https://tools.usps.com/UspsToolsRestServices/rest/POLocator/findLocations", "@spider": "usps_collection_boxes", "addr:city": "NORVELL", "addr:country": "US", "addr:postcode": "49263", "addr:state": "MI", "addr:street_address": "105 COMMERCIAL ST", "amenity": "post_box", "brand": "United States Postal Service", "brand:wikidata": "Q668687", "collection_times": "Mo-Fr 11:00; Sa 10:45", "indoor": "yes", "nsi_id": "unitedstatespostalservice-a77078", "operator": "United States Postal Service", "operator:short": "USPS", "operator:type": "public", "operator:wikidata": "Q668687", "ref": "4926300003"}, "type": "Feature"}
{"geometry": {"coordinates": [-84.5618695, 42.443789], "type": "Point"}, "id": "ByHTMqLyNWQRO4uhS5n8n0y3dEQ=", "properties": {"@source_uri": "https://tools.usps.com/UspsToolsRestServices/rest/POLocator/findLocations", "@spider": "usps_collection_boxes", "addr:city": "ONONDAGA", "addr:country": "US", "addr:postcode": "49264", "addr:state": "MI", "addr:street_address": "5555 OAK ST", "amenity": "post_box", "brand": "United States Postal Service", "brand:wikidata": "Q668687", "collection_times": "Mo-Fr 16:00; Sa 10:00", "note": "ON 12/24 AND 12/31, THIS BOX MAY BE COLLECTED AS EARLY AS 12 NOON.", "nsi_id": "unitedstatespostalservice-a77078", "operator": "United States Postal Service", "operator:short": "USPS", "operator:type": "public", "operator:wikidata": "Q668687", "ref": "4926400001"}, "type": "Feature"}
{"geometry": {"coordinates": [-84.5619024989, 42.4437947539], "type": "Point"}, "id": "ieWs2M28vS_vL43CuSjWAmyCDho=", "properties": {"@source_uri": "https://tools.usps.com/UspsToolsRestServices/rest/POLocator/findLocations", "@spider": "usps_collection_boxes", "addr:city": "ONONDAGA", "addr:country": "US", "addr:postcode": "49264", "addr:state": "MI", "addr:street_address": "5555 OAK ST", "amenity": "post_box", "brand": "United States Postal Service", "brand:wikidata": "Q668687", "collection_times": "Mo-Fr 16:00; Sa 10:00", "indoor": "yes", "note": "ON 12/24 AND 12/31, THIS BOX MAY BE COLLECTED AS EARLY AS 12 NOON.", "nsi_id": "unitedstatespostalservice-a77078", "operator": "United States Postal Service", "operator:short": "USPS", "operator:type": "public", "operator:wikidata": "Q668687", "ref": "4926400003"}, "type": "Feature"}
{"geometry": {"coordinates": [-84.189283, 42.006349], "type": "Point"}, "id": "VZVrX7LfzNeTtlAq3tWWbNeBwNk=", "properties": {"@source_uri": "https://tools.usps.com/UspsToolsRestServices/rest/POLocator/findLocations", "@spider": "usps_collection_boxes", "addr:city": "ONSTED", "addr:country": "US", "addr:postcode": "49265", "addr:state": "MI", "addr:street_address": "110 E 3RD ST", "amenity": "post_box", "brand": "United States Postal Service", "brand:wikidata": "Q668687", "collection_times": "Mo-Fr 16:00; Sa 10:30", "note": "ON 12/24 AND 12/31, THIS BOX MAY BE COLLECTED AS EARLY AS 12 NOON.", "nsi_id": "unitedstatespostalservice-a77078", "operator": "United States Postal Service", "operator:short": "USPS", "operator:type": "public", "operator:wikidata": "Q668687", "ref": "4926500002"}, "type": "Feature"}
{"geometry": {"coordinates": [-84.1891576, 42.001099], "type": "Point"}, "id": "WRsbZ1mPh6RVhkOECr-sPS0AtaU=", "properties": {"@source_uri": "https://tools.usps.com/UspsToolsRestServices/rest/POLocator/findLocations", "@spider": "usps_collection_boxes", "addr:city": "ONSTED", "addr:country": "US", "addr:postcode": "49265", "addr:state": "MI", "addr:street_address": "7991 ONSTED HWY", "amenity": "post_box", "brand": "United States Postal Service", "brand:wikidata": "Q668687", "collection_times": "Mo-Fr 13:15; Sa 11:00", "note": "ON 12/24 AND 12/31, THIS BOX MAY BE COLLECTED AS EARLY AS 12 NOON.", "nsi_id": "unitedstatespostalservice-a77078", "operator": "United States Postal Service", "operator:short": "USPS", "operator:type": "public", "operator:wikidata": "Q668687", "ref": "4926500004"}, "type": "Feature"}
{"geometry": {"coordinates": [-84.1251784, 42.02401], "type": "Point"}, "id": "J7TPO2NIC01FlkUARjXcB6NgtyQ=", "properties": {"@source_uri": "https://tools.usps.com/UspsToolsRestServices/rest/POLocator/findLocations", "@spider": "usps_collection_boxes", "addr:city": "ONSTED", "addr:country": "US", "addr:postcode": "49265", "addr:state": "MI", "addr:street_address": "9544 PENTECOST HWY", "amenity": "post_box", "brand": "United States Postal Service", "brand:wikidata": "Q668687", "collection_times": "Mo-Sa 14:00", "note": "ON 12/24 AND 12/31, THIS BOX MAY BE COLLECTED AS EARLY AS 12 NOON.", "nsi_id": "unitedstatespostalservice-a77078", "operator": "United States Postal Service", "operator:short": "USPS", "operator:type": "public", "operator:wikidata": "Q668687", "ref": "4926500005"}, "type": "Feature"}
{"geometry": {"coordinates": [-84.1387921, 42.056417], "type": "Point"}, "id": "dkH_nSKK8wWdTZE6h3dzR_eui0k=", "properties": {"@source_uri": "https://tools.usps.com/UspsToolsRestServices/rest/POLocator/findLocations", "@spider": "usps_collection_boxes", "addr:city": "ONSTED", "addr:country": "US", "addr:postcode": "49265", "addr:state": "MI", "addr:street_address": "7577 US HIGHWAY 12", "amenity": "post_box", "brand": "United States Postal Service", "brand:wikidata": "Q668687", "collection_times": "Mo-Sa 11:00", "nsi_id": "unitedstatespostalservice-a77078", "operator": "United States Postal Service", "operator:short": "USPS", "operator:type": "public", "operator:wikidata": "Q668687", "ref": "4926500007"}, "type": "Feature"}
{"geometry": {"coordinates": [-84.189321596, 42.006388905], "type": "Point"}, "id": "ibLMLVaT5Sf_q7ArLcXP8ouBwHo=", "properties": {"@source_uri": "https://tools.usps.com/UspsToolsRestServices/rest/POLocator/findLocations", "@spider": "usps_collection_boxes", "addr:city": "ONSTED", "addr:country": "US", "addr:postcode": "49265", "addr:state": "MI", "addr:street_address": "110 E 3RD ST", "amenity": "post_box", "brand": "United States Postal Service", "brand:wikidata": "Q668687", "collection_times": "Mo-Fr 16:30; Sa 10:30", "indoor": "yes", "note": "ON 12/24 AND 12/31, THIS BOX MAY BE COLLECTED AS EARLY AS 12 NOON.", "nsi_id": "unitedstatespostalservice-a77078", "operator": "United States Postal Service", "operator:short": "USPS", "operator:type": "public", "operator:wikidata": "Q668687", "ref": "4926500009"}, "type": "Feature"}
{"geometry": {"coordinates": [-84.5335474, 41.8265739], "type": "Point"}, "id": "6wwr40F66c1eASwrByD11xoc78M=", "properties": {"@source_uri": "https://tools.usps.com/UspsToolsRestServices/rest/POLocator/findLocations", "@spider": "usps_collection_boxes", "addr:city": "OSSEO", "addr:country": "US", "addr:postcode": "49266", "addr:state": "MI", "addr:street_address": "5500 BEECHER RD", "amenity": "post_box", "brand": "United States Postal Service", "brand:wikidata": "Q668687", "collection_times": "Mo-Fr 16:00; Sa 10:30", "note": "ON 12/24 AND 12/31, THIS BOX MAY BE COLLECTED AS EARLY AS 12 NOON.", "nsi_id": "unitedstatespostalservice-a77078", "operator": "United States Postal Service", "operator:short": "USPS", "operator:type": "public", "operator:wikidata": "Q668687", "ref": "4926600001"}, "type": "Feature"}
{"geometry": {"coordinates": [-84.5440008752, 41.8869848805], "type": "Point"}, "id": "Aol-J70EmPfFtA3ef4NErsBBs4w=", "properties": {"@source_uri": "https://tools.usps.com/UspsToolsRestServices/rest/POLocator/findLocations", "@spider": "usps_collection_boxes", "addr:city": "OSSEO", "addr:country": "US", "addr:postcode": "49266", "addr:state": "MI", "addr:street_address": "5500 BEECHER RD", "amenity": "post_box", "brand": "United States Postal Service", "brand:wikidata": "Q668687", "collection_times": "Mo-Fr 16:00; Sa 10:30", "indoor": "yes", "note": "ON 12/24 AND 12/31, THIS BOX MAY BE COLLECTED AS EARLY AS 12 NOON.", "nsi_id": "unitedstatespostalservice-a77078", "operator": "United States Postal Service", "operator:short": "USPS", "operator:type": "public", "operator:wikidata": "Q668687", "ref": "4926600003"}, "type": "Feature"}
{"geometry": {"coordinates": [-83.748365, 41.764052], "type": "Point"}, "id": "j7GKAeVbIiQZaW5VhKLO8n0m6sE=", "properties": {"@source_uri": "https://tools.usps.com/UspsToolsRestServices/rest/POLocator/findLocations", "@spider": "usps_collection_boxes", "addr:city": "OTTAWA LAKE", "addr:country": "US", "addr:postcode": "49267", "addr:state": "MI", "addr:street_address": "8425 BROWN ST", "amenity": "post_box", "brand": "United States Postal Service", "brand:wikidata": "Q668687", "collection_times": "Mo-Fr 16:15; Sa 11:00", "note": "ON 12/24 AND 12/31, THIS BOX MAY BE COLLECTED AS EARLY AS 12 NOON.", "nsi_id": "unitedstatespostalservice-a77078", "operator": "United States Postal Service", "operator:short": "USPS", "operator:type": "public", "operator:wikidata": "Q668687", "ref": "4926700001"}, "type": "Feature"}
{"geometry": {"coordinates": [-83.6941617, 41.798808], "type": "Point"}, "id": "VSjfg7GgZR_JMQXiyeZpqgcs1QA=", "properties": {"@source_uri": "https://tools.usps.com/UspsToolsRestServices/rest/POLocator/findLocations", "@spider": "usps_collection_boxes", "addr:city": "OTTAWA LAKE", "addr:country": "US", "addr:postcode": "49267", "addr:state": "MI", "addr:street_address": "6158 NEW US 223", "amenity": "post_box", "brand": "United States Postal Service", "brand:wikidata": "Q668687", "collection_times": "Mo-Fr 10:00", "nsi_id": "unitedstatespostalservice-a77078", "operator": "United States Postal Service", "operator:short": "USPS", "operator:type": "public", "operator:wikidata": "Q668687", "ref": "4926700004"}, "type": "Feature"}
{"geometry": {"coordinates": [-83.6921304, 41.797478], "type": "Point"}, "id": "aJ2Nukulrn_Nrp_ZlLAn9TN0WuY=", "properties": {"@source_uri": "https://tools.usps.com/UspsToolsRestServices/rest/POLocator/findLocations", "@spider": "usps_collection_boxes", "addr:city": "OTTAWA LAKE", "addr:country": "US", "addr:postcode": "49267", "addr:state": "MI", "addr:street_address": "6055 NEW US 223", "amenity": "post_box", "brand": "United States Postal Service", "brand:wikidata": "Q668687", "collection_times": "Mo-Fr 10:00", "nsi_id": "unitedstatespostalservice-a77078", "operator": "United States Postal Service", "operator:short": "USPS", "operator:type": "public", "operator:wikidata": "Q668687", "ref": "4926700005"}, "type": "Feature"}
{"geometry": {"coordinates": [-83.7492559673, 41.7636548757], "type": "Point"}, "id": "j74cAC9MSCmpG6QExu2VAHiIw0k=", "properties": {"@source_uri": "https://tools.usps.com/UspsToolsRestServices/rest/POLocator/findLocations", "@spider": "usps_collection_boxes", "addr:city": "OTTAWA LAKE", "addr:country": "US", "addr:postcode": "49267", "addr:state": "MI", "addr:street_address": "8425 BROWN ST", "amenity": "post_box", "brand": "United States Postal Service", "brand:wikidata": "Q668687", "collection_times": "Mo-Fr 16:15; Sa 11:00", "indoor": "yes", "note": "ON 12/24 AND 12/31, THIS BOX MAY BE COLLECTED AS EARLY AS 12 NOON.", "nsi_id": "unitedstatespostalservice-a77078", "operator": "United States Postal Service", "operator:short": "USPS", "operator:type": "public", "operator:wikidata": "Q668687", "ref": "4926700006"}, "type": "Feature"}
{"geometry": {"coordinates": [-83.9347477, 41.862156], "type": "Point"}, "id": "-uY4NRxXiwL0gStWP2DXk8iS3Pc=", "properties": {"@source_uri": "https://tools.usps.com/UspsToolsRestServices/rest/POLocator/findLocations", "@spider": "usps_collection_boxes", "addr:city": "PALMYRA", "addr:country": "US", "addr:postcode": "49268", "addr:state": "MI", "addr:street_address": "6380 PALMYRA RD", "amenity": "post_box", "brand": "United States Postal Service", "brand:wikidata": "Q668687", "collection_times": "Mo-Fr 13:00; Sa 10:30", "note": "ON 12/24 AND 12/31, THIS BOX MAY BE COLLECTED AS EARLY AS 12 NOON.", "nsi_id": "unitedstatespostalservice-a77078", "operator": "United States Postal Service", "operator:short": "USPS", "operator:type": "public", "operator:wikidata": "Q668687", "ref": "4926800001"}, "type": "Feature"}
{"geometry": {"coordinates": [-83.9353949346, 41.8626139378], "type": "Point"}, "id": "5azkBS7Jtq3SXivAR__cKX0M3gI=", "properties": {"@source_uri": "https://tools.usps.com/UspsToolsRestServices/rest/POLocator/findLocations", "@spider": "usps_collection_boxes", "addr:city": "PALMYRA", "addr:country": "US", "addr:postcode": "49268", "addr:state": "MI", "addr:street_address": "6380 PALMYRA RD", "amenity": "post_box", "brand": "United States Postal Service", "brand:wikidata": "Q668687", "collection_times": "Mo-Fr 11:30; Sa 11:00", "indoor": "yes", "nsi_id": "unitedstatespostalservice-a77078", "operator": "United States Postal Service", "operator:short": "USPS", "operator:type": "public", "operator:wikidata": "Q668687", "ref": "4926800004"}, "type": "Feature"}
{"geometry": {"coordinates": [-84.599655, 42.25892], "type": "Point"}, "id": "PYxBBGyE7KEhj6H56GwHG93xtSs=", "properties": {"@source_uri": "https://tools.usps.com/UspsToolsRestServices/rest/POLocator/findLocations", "@spider": "usps_collection_boxes", "addr:city": "PARMA", "addr:country": "US", "addr:postcode": "49269", "addr:state": "MI", "addr:street_address": "111 E MAIN ST", "amenity": "post_box", "brand": "United States Postal Service", "brand:wikidata": "Q668687", "collection_times": "Mo-Fr 16:30; Sa 10:00", "note": "ON 12/24 AND 12/31, THIS BOX MAY BE COLLECTED AS EARLY AS 12 NOON.", "nsi_id": "unitedstatespostalservice-a77078", "operator": "United States Postal Service", "operator:short": "USPS", "operator:type": "public", "operator:wikidata": "Q668687", "ref": "4926900001"}, "type": "Feature"}
{"geometry": {"coordinates": [-84.5996917441, 42.2588631642], "type": "Point"}, "id": "e54-mFkJp27V1XHQEu7LNihGTjo=", "properties": {"@source_uri": "https://tools.usps.com/UspsToolsRestServices/rest/POLocator/findLocations", "@spider": "usps_collection_boxes", "addr:city": "PARMA", "addr:country": "US", "addr:postcode": "49269", "addr:state": "MI", "addr:street_address": "111 E MAIN ST", "amenity": "post_box", "brand": "United States Postal Service", "brand:wikidata": "Q668687", "collection_times": "Mo-Fr 16:30; Sa 10:00", "indoor": "yes", "note": "ON 12/24 AND 12/31, THIS BOX MAY BE COLLECTED AS EARLY AS 12 NOON.", "nsi_id": "unitedstatespostalservice-a77078", "operator": "United States Postal Service", "operator:short": "USPS", "operator:type": "public", "operator:wikidata": "Q668687", "ref": "4926900005"}, "type": "Feature"}
{"geometry": {"coordinates": [-83.714037, 41.901644], "type": "Point"}, "id": "QTIQPa5adJ6e615utL50OjJwxVk=", "properties": {"@source_uri": "https://tools.usps.com/UspsToolsRestServices/rest/POLocator/findLocations", "@spider": "usps_collection_boxes", "addr:city": "PETERSBURG", "addr:country": "US", "addr:postcode": "49270", "addr:state": "MI", "addr:street_address": "55 PAHL MALL RD", "amenity": "post_box", "brand": "United States Postal Service", "brand:wikidata": "Q668687", "collection_times": "Mo-Fr 16:30; Sa 11:00", "note": "ON 12/24 AND 12/31, THIS BOX MAY BE COLLECTED AS EARLY AS 12 NOON.", "nsi_id": "unitedstatespostalservice-a77078", "operator": "United States Postal Service", "operator:short": "USPS", "operator:type": "public", "operator:wikidata": "Q668687", "ref": "4927000001"}, "type": "Feature"}
{"geometry": {"coordinates": [-83.7139905838, 41.9016474893], "type": "Point"}, "id": "96oVXMMWju1CcwrwYimQhPr7DB4=", "properties": {"@source_uri": "https://tools.usps.com/UspsToolsRestServices/rest/POLocator/findLocations", "@spider": "usps_collection_boxes", "addr:city": "PETERSBURG", "addr:country": "US", "addr:postcode": "49270", "addr:state": "MI", "addr:street_address": "55 PAHL MALL RD", "amenity": "post_box", "brand": "United States Postal Service", "brand:wikidata": "Q668687", "collection_times": "Mo-Fr 16:30; Sa 11:00", "indoor": "yes", "note": "ON 12/24 AND 12/31, THIS BOX MAY BE COLLECTED AS EARLY AS 12 NOON.", "nsi_id": "unitedstatespostalservice-a77078", "operator": "United States Postal Service", "operator:short": "USPS", "operator:type": "public", "operator:wikidata": "Q668687", "ref": "4927000004"}, "type": "Feature"}
{"geometry": {"coordinates": [-84.476539, 41.862861], "type": "Point"}, "id": "5SOWqwQYFU__XT9fo92r9SAwKE4=", "properties": {"@source_uri": "https://tools.usps.com/UspsToolsRestServices/rest/POLocator/findLocations", "@spider": "usps_collection_boxes", "addr:city": "PITTSFORD", "addr:country": "US", "addr:postcode": "49271", "addr:state": "MI", "addr:street_address": "4448 S PITTSFORD RD", "amenity": "post_box", "brand": "United States Postal Service", "brand:wikidata": "Q668687", "collection_times": "Mo-Fr 16:00; Sa 11:00", "note": "ON 12/24 AND 12/31, THIS BOX MAY BE COLLECTED AS EARLY AS 12 NOON.", "nsi_id": "unitedstatespostalservice-a77078", "operator": "United States Postal Service", "operator:short": "USPS", "operator:type": "public", "operator:wikidata": "Q668687", "ref": "4927100001"}, "type": "Feature"}
{"geometry": {"coordinates": [-84.4765403921, 41.8628516647], "type": "Point"}, "id": "CChY5SU4YxBoyj5Xi-3QMVN2sY4=", "properties": {"@source_uri": "https://tools.usps.com/UspsToolsRestServices/rest/POLocator/findLocations", "@spider": "usps_collection_boxes", "addr:city": "PITTSFORD", "addr:country": "US", "addr:postcode": "49271", "addr:state": "MI", "addr:street_address": "4448 S PITTSFORD RD", "amenity": "post_box", "brand": "United States Postal Service", "brand:wikidata": "Q668687", "collection_times": "Mo-Fr 16:00; Sa 11:00", "indoor": "yes", "note": "ON 12/24 AND 12/31, THIS BOX MAY BE COLLECTED AS EARLY AS 12 NOON.", "nsi_id": "unitedstatespostalservice-a77078", "operator": "United States Postal Service", "operator:short": "USPS", "operator:type": "public", "operator:wikidata": "Q668687", "ref": "4927100004"}, "type": "Feature"}
{"geometry": {"coordinates": [-84.324667, 42.380683], "type": "Point"}, "id": "aKEBHODwMVMaZlczRYmUnvKVi7o=", "properties": {"@source_uri": "https://tools.usps.com/UspsToolsRestServices/rest/POLocator/findLocations", "@spider": "usps_collection_boxes", "addr:city": "PLEASANT LAKE", "addr:country": "US", "addr:postcode": "49272", "addr:state": "MI", "addr:street_address": "11586 BUNKERHILL RD", "amenity": "post_box", "brand": "United States Postal Service", "brand:wikidata": "Q668687", "collection_times": "Mo-Fr 16:00; Sa 10:30", "note": "ON 12/24 AND 12/31, THIS BOX MAY BE COLLECTED AS EARLY AS 12 NOON.", "nsi_id": "unitedstatespostalservice-a77078", "operator": "United States Postal Service", "operator:short": "USPS", "operator:type": "public", "operator:wikidata": "Q668687", "ref": "4927200000"}, "type": "Feature"}
{"geometry": {"coordinates": [-84.32483917, 42.378956612], "type": "Point"}, "id": "2UU7OUT91jrRIPEJ1VtgYoJxt24=", "properties": {"@source_uri": "https://tools.usps.com/UspsToolsRestServices/rest/POLocator/findLocations", "@spider": "usps_collection_boxes", "addr:city": "PLEASANT LAKE", "addr:country": "US", "addr:postcode": "49272", "addr:state": "MI", "addr:street_address": "11586 BUNKERHILL RD", "amenity": "post_box", "brand": "United States Postal Service", "brand:wikidata": "Q668687", "collection_times": "Mo-Fr 16:00; Sa 10:30", "indoor": "yes", "note": "ON 12/24 AND 12/31, THIS BOX MAY BE COLLECTED AS EARLY AS 12 NOON.", "nsi_id": "unitedstatespostalservice-a77078", "operator": "United States Postal Service", "operator:short": "USPS", "operator:type": "public", "operator:wikidata": "Q668687", "ref": "4927200003"}, "type": "Feature"}
{"geometry": {"coordinates": [-84.7474013, 41.839575], "type": "Point"}, "id": "E_XaLrZWCt0x-YGTOjfl0W9_UiU=", "properties": {"@source_uri": "https://tools.usps.com/UspsToolsRestServices/rest/POLocator/findLocations", "@spider": "usps_collection_boxes", "addr:city": "READING", "addr:country": "US", "addr:postcode": "49274", "addr:state": "MI", "addr:street_address": "111 MICHIGAN ST", "amenity": "post_box", "brand": "United States Postal Service", "brand:wikidata": "Q668687", "collection_times": "Mo-Fr 16:00; Sa 11:30", "note": "ON 12/24 AND 12/31, THIS BOX MAY BE COLLECTED AS EARLY AS 12 NOON.", "nsi_id": "unitedstatespostalservice-a77078", "operator": "United States Postal Service", "operator:short": "USPS", "operator:type": "public", "operator:wikidata": "Q668687", "ref": "4927400003"}, "type": "Feature"}
{"geometry": {"coordinates": [-84.7474515, 41.839616474], "type": "Point"}, "id": "Pv5zybMw0S7hukNU9YIpE2Iag0w=", "properties": {"@source_uri": "https://tools.usps.com/UspsToolsRestServices/rest/POLocator/findLocations", "@spider": "usps_collection_boxes", "addr:city": "READING", "addr:country": "US", "addr:postcode": "49274", "addr:state": "MI", "addr:street_address": "111 MICHIGAN ST", "amenity": "post_box", "brand": "United States Postal Service", "brand:wikidata": "Q668687", "collection_times": "Mo-Fr 16:00; Sa 11:30", "indoor": "yes", "note": "ON 12/24 AND 12/31, THIS BOX MAY BE COLLECTED AS EARLY AS 12 NOON.", "nsi_id": "unitedstatespostalservice-a77078", "operator": "United States Postal Service", "operator:short": "USPS", "operator:type": "public", "operator:wikidata": "Q668687", "ref": "4927400005"}, "type": "Feature"}
{"geometry": {"coordinates": [-83.8252, 41.810881], "type": "Point"}, "id": "c-n2pMic_BINzoDD0UAYaQNSWbg=", "properties": {"@source_uri": "https://tools.usps.com/UspsToolsRestServices/rest/POLocator/findLocations", "@spider": "usps_collection_boxes", "addr:city": "RIGA", "addr:country": "US", "addr:postcode": "49276", "addr:state": "MI", "addr:street_address": "7512 RIGA HWY", "amenity": "post_box", "brand": "United States Postal Service", "brand:wikidata": "Q668687", "collection_times": "Mo-Fr 12:15; Sa 10:15", "note": "ON 12/24 AND 12/31, THIS BOX MAY BE COLLECTED AS EARLY AS 12 NOON.", "nsi_id": "unitedstatespostalservice-a77078", "operator": "United States Postal Service", "operator:short": "USPS", "operator:type": "public", "operator:wikidata": "Q668687", "ref": "4927600001"}, "type": "Feature"}
{"geometry": {"coordinates": [-83.8251988193, 41.8108581304], "type": "Point"}, "id": "MDxOP6w_8O_2MVxWsbwbn5oi1y4=", "properties": {"@source_uri": "https://tools.usps.com/UspsToolsRestServices/rest/POLocator/findLocations", "@spider": "usps_collection_boxes", "addr:city": "RIGA", "addr:country": "US", "addr:postcode": "49276", "addr:state": "MI", "addr:street_address": "7512 RIGA HWY", "amenity": "post_box", "brand": "United States Postal Service", "brand:wikidata": "Q668687", "collection_times": "Mo-Fr 12:15; Sa 10:15", "indoor": "yes", "note": "ON 12/24 AND 12/31, THIS BOX MAY BE COLLECTED AS EARLY AS 12 NOON.", "nsi_id": "unitedstatespostalservice-a77078", "operator": "United States Postal Service", "operator:short": "USPS", "operator:type": "public", "operator:wikidata": "Q668687", "ref": "4927600003"}, "type": "Feature"}
{"geometry": {"coordinates": [-84.4595957, 42.390013], "type": "Point"}, "id": "-ty3htpvw2GY7s3oKQc7-r3TRiM=", "properties": {"@source_uri": "https://tools.usps.com/UspsToolsRestServices/rest/POLocator/findLocations", "@spider": "usps_collection_boxes", "addr:city": "RIVES JUNCTION", "addr:country": "US", "addr:postcode": "49277", "addr:state": "MI", "addr:street_address": "3955 RIVES EATON RD", "amenity": "post_box", "brand": "United States Postal Service", "brand:wikidata": "Q668687", "collection_times": "Mo-Fr 16:00; Sa 10:00", "note": "ON 12/24 AND 12/31, THIS BOX MAY BE COLLECTED AS EARLY AS 12 NOON.", "nsi_id": "unitedstatespostalservice-a77078", "operator": "United States Postal Service", "operator:short": "USPS", "operator:type": "public", "operator:wikidata": "Q668687", "ref": "4927700001"}, "type": "Feature"}
{"geometry": {"coordinates": [-84.45887382, 42.389814336], "type": "Point"}, "id": "-AtLwCwwAhV4wZ7zH9lfyHNmxLc=", "properties": {"@source_uri": "https://tools.usps.com/UspsToolsRestServices/rest/POLocator/findLocations", "@spider": "usps_collection_boxes", "addr:city": "RIVES JUNCTION", "addr:country": "US", "addr:postcode": "49277", "addr:state": "MI", "addr:street_address": "3955 RIVES EATON RD", "amenity": "post_box", "brand": "United States Postal Service", "brand:wikidata": "Q668687", "collection_times": "Mo-Fr 16:00; Sa 10:00", "indoor": "yes", "note": "ON 12/24 AND 12/31, THIS BOX MAY BE COLLECTED AS EARLY AS 12 NOON.", "nsi_id": "unitedstatespostalservice-a77078", "operator": "United States Postal Service", "operator:short": "USPS", "operator:type": "public", "operator:wikidata": "Q668687", "ref": "4927700003"}, "type": "Feature"}
{"geometry": {"coordinates": [-84.101874, 41.8256], "type": "Point"}, "id": "56tOxYJ_ph44NCtQp92-twRZdbk=", "properties": {"@source_uri": "https://tools.usps.com/UspsToolsRestServices/rest/POLocator/findLocations", "@spider": "usps_collection_boxes", "addr:city": "SAND CREEK", "addr:country": "US", "addr:postcode": "49279", "addr:state": "MI", "addr:street_address": "6300 SAND CREEK HWY", "amenity": "post_box", "brand": "United States Postal Service", "brand:wikidata": "Q668687", "collection_times": "Mo-Fr 11:45; Sa 10:00", "nsi_id": "unitedstatespostalservice-a77078", "operator": "United States Postal Service", "operator:short": "USPS", "operator:type": "public", "operator:wikidata": "Q668687", "ref": "4927900001"}, "type": "Feature"}
{"geometry": {"coordinates": [-84.1018370424, 41.8252214285], "type": "Point"}, "id": "JAjrprtV1UxgjmuulKyHdByS_hA=", "properties": {"@source_uri": "https://tools.usps.com/UspsToolsRestServices/rest/POLocator/findLocations", "@spider": "usps_collection_boxes", "addr:city": "SAND CREEK", "addr:country": "US", "addr:postcode": "49279", "addr:state": "MI", "addr:street_address": "6300 SAND CREEK HWY", "amenity": "post_box", "brand": "United States Postal Service", "brand:wikidata": "Q668687", "collection_times": "Mo-Fr 11:45; Sa 10:00", "indoor": "yes", "nsi_id": "unitedstatespostalservice-a77078", "operator": "United States Postal Service", "operator:short": "USPS", "operator:type": "public", "operator:wikidata": "Q668687", "ref": "4927900004"}, "type": "Feature"}
{"geometry": {"coordinates": [-84.408511, 42.050052], "type": "Point"}, "id": "Swqod868B5oVXvKJLS05JnM-nf4=", "properties": {"@source_uri": "https://tools.usps.com/UspsToolsRestServices/rest/POLocator/findLocations", "@spider": "usps_collection_boxes", "addr:city": "SOMERSET CENTER", "addr:country": "US", "addr:postcode": "49282", "addr:state": "MI", "addr:street_address": "12631 E CHICAGO RD", "amenity": "post_box", "brand": "United States Postal Service", "brand:wikidata": "Q668687", "collection_times": "Mo-Fr 15:30; Sa 11:30", "note": "ON 12/24 AND 12/31, THIS BOX MAY BE COLLECTED AS EARLY AS 12 NOON.", "nsi_id": "unitedstatespostalservice-a77078", "operator": "United States Postal Service", "operator:short": "USPS", "operator:type": "public", "operator:wikidata": "Q668687", "ref": "4928200001"}, "type": "Feature"}
{"geometry": {"coordinates": [-84.409307499, 42.050110986], "type": "Point"}, "id": "gaGgyQn7p3oSxAQzPiGfZ8TQmGw=", "properties": {"@source_uri": "https://tools.usps.com/UspsToolsRestServices/rest/POLocator/findLocations", "@spider": "usps_collection_boxes", "addr:city": "SOMERSET CENTER", "addr:country": "US", "addr:postcode": "49282", "addr:state": "MI", "addr:street_address": "12631 E CHICAGO RD", "amenity": "post_box", "brand": "United States Postal Service", "brand:wikidata": "Q668687", "collection_times": "Mo-Fr 15:30; Sa 11:30", "indoor": "yes", "note": "ON 12/24 AND 12/31, THIS BOX MAY BE COLLECTED AS EARLY AS 12 NOON.", "nsi_id": "unitedstatespostalservice-a77078", "operator": "United States Postal Service", "operator:short": "USPS", "operator:type": "public", "operator:wikidata": "Q668687", "ref": "4928200004"}, "type": "Feature"}
{"geometry": {"coordinates": [-84.553769, 42.204708], "type": "Point"}, "id": "ksA9p05rj0J9VMhPXog9sZLysEk=", "properties": {"@source_uri": "https://tools.usps.com/UspsToolsRestServices/rest/POLocator/findLocations", "@spider": "usps_collection_boxes", "addr:city": "SPRING ARBOR", "addr:country": "US", "addr:postcode": "49283", "addr:state": "MI", "addr:street_address": "109 TEFT RD", "amenity": "post_box", "brand": "United States Postal Service", "brand:wikidata": "Q668687", "collection_times": "Mo-Fr 16:30; Sa 10:00", "note": "ON 12/24 AND 12/31, THIS BOX MAY BE COLLECTED AS EARLY AS 12 NOON.", "nsi_id": "unitedstatespostalservice-a77078", "operator": "United States Postal Service", "operator:short": "USPS", "operator:type": "public", "operator:wikidata": "Q668687", "ref": "4928300003"}, "type": "Feature"}
{"geometry": {"coordinates": [-84.5537629475, 42.2046092515], "type": "Point"}, "id": "tV7henLpcfgAgvpLNLhsWx8WcRY=", "properties": {"@source_uri": "https://tools.usps.com/UspsToolsRestServices/rest/POLocator/findLocations", "@spider": "usps_collection_boxes", "addr:city": "SPRING ARBOR", "addr:country": "US", "addr:postcode": "49283", "addr:state": "MI", "addr:street_address": "109 TEFT RD", "amenity": "post_box", "brand": "United States Postal Service", "brand:wikidata": "Q668687", "collection_times": "Mo-Fr 16:30; Sa 10:00", "indoor": "yes", "note": "ON 12/24 AND 12/31, THIS BOX MAY BE COLLECTED AS EARLY AS 12 NOON.", "nsi_id": "unitedstatespostalservice-a77078", "operator": "United States Postal Service", "operator:short": "USPS", "operator:type": "public", "operator:wikidata": "Q668687", "ref": "4928300027"}, "type": "Feature"}
{"geometry": {"coordinates": [-84.698886, 42.378538], "type": "Point"}, "id": "a0fgBgwnxqsVtbu6koU93tFXdFQ=", "properties": {"@source_uri": "https://tools.usps.com/UspsToolsRestServices/rest/POLocator/findLocations", "@spider": "usps_collection_boxes", "addr:city": "SPRINGPORT", "addr:country": "US", "addr:postcode": "49284", "addr:state": "MI", "addr:street_address": "118 MECHANIC ST", "amenity": "post_box", "brand": "United States Postal Service", "brand:wikidata": "Q668687", "collection_times": "Mo-Fr 16:15; Sa 11:15", "note": "ON 12/24 AND 12/31, THIS BOX MAY BE COLLECTED AS EARLY AS 12 NOON.", "nsi_id": "unitedstatespostalservice-a77078", "operator": "United States Postal Service", "operator:short": "USPS", "operator:type": "public", "operator:wikidata": "Q668687", "ref": "4928400001"}, "type": "Feature"}
{"geometry": {"coordinates": [-84.6988967799, 42.3788678382], "type": "Point"}, "id": "Y2aWImPWWTYZzyxxzenYHFBYj6s=", "properties": {"@source_uri": "https://tools.usps.com/UspsToolsRestServices/rest/POLocator/findLocations", "@spider": "usps_collection_boxes", "addr:city": "SPRINGPORT", "addr:country": "US", "addr:postcode": "49284", "addr:state": "MI", "addr:street_address": "118 MECHANIC ST", "amenity": "post_box", "brand": "United States Postal Service", "brand:wikidata": "Q668687", "collection_times": "Mo-Fr 16:00; Sa 11:30", "indoor": "yes", "note": "ON 12/24 AND 12/31, THIS BOX MAY BE COLLECTED AS EARLY AS 12 NOON.", "nsi_id": "unitedstatespostalservice-a77078", "operator": "United States Postal Service", "operator:short": "USPS", "operator:type": "public", "operator:wikidata": "Q668687", "ref": "4928400004"}, "type": "Feature"}
{"geometry": {"coordinates": [-84.180098, 42.45146], "type": "Point"}, "id": "fOQH_bkPRxg0ZlpVShZ-lbBfbv0=", "properties": {"@source_uri": "https://tools.usps.com/UspsToolsRestServices/rest/POLocator/findLocations", "@spider": "usps_collection_boxes", "addr:city": "STOCKBRIDGE", "addr:country": "US", "addr:postcode": "49285", "addr:state": "MI", "addr:street_address": "117 N CLINTON ST", "amenity": "post_box", "brand": "United States Postal Service", "brand:wikidata": "Q668687", "collection_times": "Mo-Fr 16:45; Sa 11:30", "note": "ON 12/24 AND 12/31, THIS BOX MAY BE COLLECTED AS EARLY AS 12 NOON.", "nsi_id": "unitedstatespostalservice-a77078", "operator": "United States Postal Service", "operator:short": "USPS", "operator:type": "public", "operator:wikidata": "Q668687", "ref": "4928500002"}, "type": "Feature"}
{"geometry": {"coordinates": [-84.1794861, 42.439066], "type": "Point"}, "id": "L7cLTf9xbMaApGCCfCUun0_UEf0=", "properties": {"@source_uri": "https://tools.usps.com/UspsToolsRestServices/rest/POLocator/findLocations", "@spider": "usps_collection_boxes", "addr:city": "STOCKBRIDGE", "addr:country": "US", "addr:postcode": "49285", "addr:state": "MI", "addr:street_address": "5101 S M 106", "amenity": "post_box", "brand": "United States Postal Service", "brand:wikidata": "Q668687", "collection_times": "Mo-Fr 12:30", "note": "ON 12/24 AND 12/31, THIS BOX MAY BE COLLECTED AS EARLY AS 12 NOON.", "nsi_id": "unitedstatespostalservice-a77078", "operator": "United States Postal Service", "operator:short": "USPS", "operator:type": "public", "operator:wikidata": "Q668687", "ref": "4928500004"}, "type": "Feature"}
{"geometry": {"coordinates": [-84.1800967982, 42.4517945554], "type": "Point"}, "id": "AETGPToHVQxs9UcTSnRnjDaykyk=", "properties": {"@source_uri": "https://tools.usps.com/UspsToolsRestServices/rest/POLocator/findLocations", "@spider": "usps_collection_boxes", "addr:city": "STOCKBRIDGE", "addr:country": "US", "addr:postcode": "49285", "addr:state": "MI", "addr:street_address": "117 N CLINTON ST", "amenity": "post_box", "brand": "United States Postal Service", "brand:wikidata": "Q668687", "collection_times": "Mo-Fr 16:45; Sa 11:30", "indoor": "yes", "note": "ON 12/24 AND 12/31, THIS BOX MAY BE COLLECTED AS EARLY AS 12 NOON.", "nsi_id": "unitedstatespostalservice-a77078", "operator": "United States Postal Service", "operator:short": "USPS", "operator:type": "public", "operator:wikidata": "Q668687", "ref": "4928500006"}, "type": "Feature"}
{"geometry": {"coordinates": [-83.941523, 42.004095], "type": "Point"}, "id": "efTAqbtMxz86TDRrw4ilUNQYvWo=", "properties": {"@source_uri": "https://tools.usps.com/UspsToolsRestServices/rest/POLocator/findLocations", "@spider": "usps_collection_boxes", "addr:city": "TECUMSEH", "addr:country": "US", "addr:postcode": "49286", "addr:state": "MI", "addr:street_address": "320 E CHICAGO BLVD", "amenity": "post_box", "brand": "United States Postal Service", "brand:wikidata": "Q668687", "collection_times": "Mo-Sa 16:45", "note": "ON 12/24 AND 12/31, THIS BOX MAY BE COLLECTED AS EARLY AS 12 NOON.", "nsi_id": "unitedstatespostalservice-a77078", "operator": "United States Postal Service", "operator:short": "USPS", "operator:type": "public", "operator:wikidata": "Q668687", "ref": "4928600001"}, "type": "Feature"}
{"geometry": {"coordinates": [-83.944977, 42.004155], "type": "Point"}, "id": "D7FpjHIKd_T0HX2knAOkxYbTThU=", "properties": {"@source_uri": "https://tools.usps.com/UspsToolsRestServices/rest/POLocator/findLocations", "@spider": "usps_collection_boxes", "addr:city": "TECUMSEH", "addr:country": "US", "addr:postcode": "49286", "addr:state": "MI", "addr:street_address": "101 E CHICAGO BLVD", "amenity": "post_box", "brand": "United States Postal Service", "brand:wikidata": "Q668687", "collection_times": "Mo-Sa 14:15", "note": "ON 12/24 AND 12/31, THIS BOX MAY BE COLLECTED AS EARLY AS 12 NOON.", "nsi_id": "unitedstatespostalservice-a77078", "operator": "United States Postal Service", "operator:short": "USPS", "operator:type": "public", "operator:wikidata": "Q668687", "ref": "4928600003"}, "type": "Feature"}
{"geometry": {"coordinates": [-83.9677042, 42.006163], "type": "Point"}, "id": "TuZTsmxu6zKx5dRcuWDj0E2h3VQ=", "properties": {"@source_uri": "https://tools.usps.com/UspsToolsRestServices/rest/POLocator/findLocations", "@spider": "usps_collection_boxes", "addr:city": "TECUMSEH", "addr:country": "US", "addr:postcode": "49286", "addr:state": "MI", "addr:street_address": "1400 W CHICAGO BLVD", "amenity": "post_box", "brand": "United States Postal Service", "brand:wikidata": "Q668687", "collection_times": "Mo-Sa 15:30", "note": "ON 12/24 AND 12/31, THIS BOX MAY BE COLLECTED AS EARLY AS 12 NOON.", "nsi_id": "unitedstatespostalservice-a77078", "operator": "United States Postal Service", "operator:short": "USPS", "operator:type": "public", "operator:wikidata": "Q668687", "ref": "4928600004"}, "type": "Feature"}
{"geometry": {"coordinates": [-83.9423847, 42.01298], "type": "Point"}, "id": "ffJMHHaTl-pvCGOGcYykbd4kmh0=", "properties": {"@source_uri": "https://tools.usps.com/UspsToolsRestServices/rest/POLocator/findLocations", "@spider": "usps_collection_boxes", "addr:city": "TECUMSEH", "addr:country": "US", "addr:postcode": "49286", "addr:state": "MI", "addr:street_address": "602 N EVANS ST", "amenity": "post_box", "brand": "United States Postal Service", "brand:wikidata": "Q668687", "collection_times": "Mo-Sa 13:15", "note": "ON 12/24 AND 12/31, THIS BOX MAY BE COLLECTED AS EARLY AS 12 NOON.", "nsi_id": "unitedstatespostalservice-a77078", "operator": "United States Postal Service", "operator:short": "USPS", "operator:type": "public", "operator:wikidata": "Q668687", "ref": "4928600007"}, "type": "Feature"}
{"geometry": {"coordinates": [-83.9570373, 41.991896], "type": "Point"}, "id": "sSLU7GEdtt1cOTnW05tu-8MWEak=", "properties": {"@source_uri": "https://tools.usps.com/UspsToolsRestServices/rest/POLocator/findLocations", "@spider": "usps_collection_boxes", "addr:city": "TECUMSEH", "addr:country": "US", "addr:postcode": "49286", "addr:state": "MI", "addr:street_address": "3441 W RUSSELL RD", "amenity": "post_box", "brand": "United States Postal Service", "brand:wikidata": "Q668687", "collection_times": "Mo-Sa 13:15", "note": "ON 12/24 AND 12/31, THIS BOX MAY BE COLLECTED AS EARLY AS 12 NOON.", "nsi_id": "unitedstatespostalservice-a77078", "operator": "United States Postal Service", "operator:short": "USPS", "operator:type": "public", "operator:wikidata": "Q668687", "ref": "4928600010"}, "type": "Feature"}
{"geometry": {"coordinates": [-83.9285094, 42.000983], "type": "Point"}, "id": "CEnPXVbu2d9xnYbUtgYRBF51b5k=", "properties": {"@source_uri": "https://tools.usps.com/UspsToolsRestServices/rest/POLocator/findLocations", "@spider": "usps_collection_boxes", "addr:city": "TECUMSEH", "addr:country": "US", "addr:postcode": "49286", "addr:state": "MI", "addr:street_address": "1074 E CHICAGO BLVD", "amenity": "post_box", "brand": "United States Postal Service", "brand:wikidata": "Q668687", "collection_times": "Mo-Sa 10:30", "nsi_id": "unitedstatespostalservice-a77078", "operator": "United States Postal Service", "operator:short": "USPS", "operator:type": "public", "operator:wikidata": "Q668687", "ref": "4928600015"}, "type": "Feature"}
{"geometry": {"coordinates": [-83.941595, 42.004121], "type": "Point"}, "id": "9HDXaU6IHtMpBdUWsfBPrrA2Flg=", "properties": {"@source_uri": "https://tools.usps.com/UspsToolsRestServices/rest/POLocator/findLocations", "@spider": "usps_collection_boxes", "addr:city": "TECUMSEH", "addr:country": "US", "addr:postcode": "49286", "addr:state": "MI", "addr:street_address": "320 E CHICAGO BLVD", "amenity": "post_box", "brand": "United States Postal Service", "brand:wikidata": "Q668687", "collection_times": "Mo-Sa 16:45", "note": "ON 12/24 AND 12/31, THIS BOX MAY BE COLLECTED AS EARLY AS 12 NOON.", "nsi_id": "unitedstatespostalservice-a77078", "operator": "United States Postal Service", "operator:short": "USPS", "operator:type": "public", "operator:wikidata": "Q668687", "ref": "4928600018"}, "type": "Feature"}
{"geometry": {"coordinates": [-83.9415819133, 42.0040885506], "type": "Point"}, "id": "yGzz9YvxI9cqyvxNSF78j6gKGR4=", "properties": {"@source_uri": "https://tools.usps.com/UspsToolsRestServices/rest/POLocator/findLocations", "@spider": "usps_collection_boxes", "addr:city": "TECUMSEH", "addr:country": "US", "addr:postcode": "49286", "addr:state": "MI", "addr:street_address": "320 E CHICAGO BLVD", "amenity": "post_box", "brand": "United States Postal Service", "brand:wikidata": "Q668687", "collection_times": "Mo-Fr 17:00; Sa 13:00", "indoor": "yes", "note": "ON 12/24 AND 12/31, THIS BOX MAY BE COLLECTED AS EARLY AS 12 NOON.", "nsi_id": "unitedstatespostalservice-a77078", "operator": "United States Postal Service", "operator:short": "USPS", "operator:type": "public", "operator:wikidata": "Q668687", "ref": "4928600022"}, "type": "Feature"}
{"geometry": {"coordinates": [-84.062556, 42.016718], "type": "Point"}, "id": "33REwrkT0dIWWE2D82TLs_wSJuU=", "properties": {"@source_uri": "https://tools.usps.com/UspsToolsRestServices/rest/POLocator/findLocations", "@spider": "usps_collection_boxes", "addr:city": "TIPTON", "addr:country": "US", "addr:postcode": "49287", "addr:state": "MI", "addr:street_address": "3936 W MONROE RD", "amenity": "post_box", "brand": "United States Postal Service", "brand:wikidata": "Q668687", "collection_times": "Mo-Fr 16:00; Sa 11:00", "note": "ON 12/24 AND 12/31, THIS BOX MAY BE COLLECTED AS EARLY AS 12 NOON.", "nsi_id": "unitedstatespostalservice-a77078", "operator": "United States Postal Service", "operator:short": "USPS", "operator:type": "public", "operator:wikidata": "Q668687", "ref": "4928700001"}, "type": "Feature"}
{"geometry": {"coordinates": [-84.063109359, 42.016783388], "type": "Point"}, "id": "g_apGj6rcIdE0f4dzCS3dWvYhlM=", "properties": {"@source_uri": "https://tools.usps.com/UspsToolsRestServices/rest/POLocator/findLocations", "@spider": "usps_collection_boxes", "addr:city": "TIPTON", "addr:country": "US", "addr:postcode": "49287", "addr:state": "MI", "addr:street_address": "3936 W MONROE RD", "amenity": "post_box", "brand": "United States Postal Service", "brand:wikidata": "Q668687", "collection_times": "Mo-Fr 16:00; Sa 11:00", "indoor": "yes", "note": "ON 12/24 AND 12/31, THIS BOX MAY BE COLLECTED AS EARLY AS 12 NOON.", "nsi_id": "unitedstatespostalservice-a77078", "operator": "United States Postal Service", "operator:short": "USPS", "operator:type": "public", "operator:wikidata": "Q668687", "ref": "4928700003"}, "type": "Feature"}
{"geometry": {"coordinates": [-84.418877, 41.727824], "type": "Point"}, "id": "eGreU1z_qc26pawa9XWt9p8EXXA=", "properties": {"@source_uri": "https://tools.usps.com/UspsToolsRestServices/rest/POLocator/findLocations", "@spider": "usps_collection_boxes", "addr:city": "WALDRON", "addr:country": "US", "addr:postcode": "49288", "addr:state": "MI", "addr:street_address": "100 S MAIN ST", "amenity": "post_box", "brand": "United States Postal Service", "brand:wikidata": "Q668687", "collection_times": "Mo-Fr 14:30; Sa 11:00", "note": "ON 12/24 AND 12/31, THIS BOX MAY BE COLLECTED AS EARLY AS 12 NOON.", "nsi_id": "unitedstatespostalservice-a77078", "operator": "United States Postal Service", "operator:short": "USPS", "operator:type": "public", "operator:wikidata": "Q668687", "ref": "4928800001"}, "type": "Feature"}
{"geometry": {"coordinates": [-84.418920359, 41.727716749], "type": "Point"}, "id": "HkmYE0Qjr-Kjk50qbExAOseMgFw=", "properties": {"@source_uri": "https://tools.usps.com/UspsToolsRestServices/rest/POLocator/findLocations", "@spider": "usps_collection_boxes", "addr:city": "WALDRON", "addr:country": "US", "addr:postcode": "49288", "addr:state": "MI", "addr:street_address": "100 S MAIN ST", "amenity": "post_box", "brand": "United States Postal Service", "brand:wikidata": "Q668687", "collection_times": "Mo-Fr 14:30; Sa 11:00", "indoor": "yes", "note": "ON 12/24 AND 12/31, THIS BOX MAY BE COLLECTED AS EARLY AS 12 NOON.", "nsi_id": "unitedstatespostalservice-a77078", "operator": "United States Postal Service", "operator:short": "USPS", "operator:type": "public", "operator:wikidata": "Q668687", "ref": "4928800004"}, "type": "Feature"}
{"geometry": {"coordinates": [-84.100472, 41.770371], "type": "Point"}, "id": "0jsPjGUVotgTWtyn-baO-q8S2S8=", "properties": {"@source_uri": "https://tools.usps.com/UspsToolsRestServices/rest/POLocator/findLocations", "@spider": "usps_collection_boxes", "addr:city": "WESTON", "addr:country": "US", "addr:postcode": "49289", "addr:state": "MI", "addr:street_address": "4116 WESTON RD", "amenity": "post_box", "brand": "United States Postal Service", "brand:wikidata": "Q668687", "collection_times": "Mo-Fr 13:00; Sa 10:00", "note": "ON 12/24 AND 12/31, THIS BOX MAY BE COLLECTED AS EARLY AS 12 NOON.", "nsi_id": "unitedstatespostalservice-a77078", "operator": "United States Postal Service", "operator:short": "USPS", "operator:type": "public", "operator:wikidata": "Q668687", "ref": "4928900001"}, "type": "Feature"}
{"geometry": {"coordinates": [-84.1001705255, 41.7703824677], "type": "Point"}, "id": "QdasTPnsssl4yXKSKBR4T3nh-ZA=", "properties": {"@source_uri": "https://tools.usps.com/UspsToolsRestServices/rest/POLocator/findLocations", "@spider": "usps_collection_boxes", "addr:city": "WESTON", "addr:country": "US", "addr:postcode": "49289", "addr:state": "MI", "addr:street_address": "4116 WESTON RD", "amenity": "post_box", "brand": "United States Postal Service", "brand:wikidata": "Q668687", "collection_times": "Mo-Fr 13:00; Sa 10:00", "indoor": "yes", "note": "ON 12/24 AND 12/31, THIS BOX MAY BE COLLECTED AS EARLY AS 12 NOON.", "nsi_id": "unitedstatespostalservice-a77078", "operator": "United States Postal Service", "operator:short": "USPS", "operator:type": "public", "operator:wikidata": "Q668687", "ref": "4928900003"}, "type": "Feature"}
