{"geometry": {"coordinates": [-85.810824, 43.2782534572], "type": "Point"}, "id": "cOReN57iGUTImmEOPA85HgVmqc0=", "properties": {"@spider": "usps_collection_boxes", "addr:city": "BAILEY", "addr:country": "US", "addr:full": "17586 BAILEY RD", "addr:postcode": "49303", "addr:state": "MI", "brand": "USPS", "collection_times": "Mo-Fr 16:30; Sa 10:00", "name": "USPS COLLECTION BOX - BLUE BOX", "note": "ON 12/24 AND 12/31, THIS BOX MAY BE COLLECTED AS EARLY AS 12 NOON.", "ref": "4930300001"}, "type": "Feature"}
{"geometry": {"coordinates": [-85.810822, 43.278257], "type": "Point"}, "id": "MEbPxDIv5av9sdCIzSOmZd9PwdU=", "properties": {"@spider": "usps_collection_boxes", "addr:city": "BAILEY", "addr:country": "US", "addr:full": "17586 BAILEY RD", "addr:postcode": "49303", "addr:state": "MI", "brand": "USPS", "collection_times": "Mo-Fr 16:30; Sa 10:00", "name": "USPS COLLECTION BOX - PO LOBBY", "note": "ON 12/24 AND 12/31, THIS BOX MAY BE COLLECTED AS EARLY AS 12 NOON.", "ref": "4930300002"}, "type": "Feature"}
{"geometry": {"coordinates": [-85.810824, 43.278253457], "type": "Point"}, "id": "bJoQ8HBeR6k1pnsuv-UL7aCGXwc=", "properties": {"@spider": "usps_collection_boxes", "addr:city": "BAILEY", "addr:country": "US", "addr:full": "17586 BAILEY RD", "addr:postcode": "49303", "addr:state": "MI", "brand": "USPS", "collection_times": "Mo-Fr 16:30", "name": "USPS COLLECTION BOX - PO LOBBY", "note": "ON 12/24 AND 12/31, THIS BOX MAY BE COLLECTED AS EARLY AS 12 NOON.", "ref": "4930300003"}, "type": "Feature"}
{"geometry": {"coordinates": [-85.8519729, 43.849383], "type": "Point"}, "id": "Q1dyBa5zuxuH4ZlbEcPm9Q1PdZk=", "properties": {"@spider": "usps_collection_boxes", "addr:city": "BALDWIN", "addr:country": "US", "addr:full": "9559 S M 37", "addr:postcode": "49304", "addr:state": "MI", "brand": "USPS", "collection_times": "Mo-Fr 12:00; Sa 11:00", "name": "USPS COLLECTION BOX - BLUE BOX", "ref": "4930400001"}, "type": "Feature"}
{"geometry": {"coordinates": [-85.85183, 43.891351], "type": "Point"}, "id": "v3PK2xY8XyTfANOX3LXv0BOXacM=", "properties": {"@spider": "usps_collection_boxes", "addr:city": "BALDWIN", "addr:country": "US", "addr:full": "513 MICHIGAN AVE", "addr:postcode": "49304", "addr:state": "MI", "brand": "USPS", "collection_times": "Mo-Fr 15:45; Sa 11:00", "name": "USPS COLLECTION BOX - BLUE BOX", "note": "ON 12/24 AND 12/31, THIS BOX MAY BE COLLECTED AS EARLY AS 12 NOON.", "ref": "4930400009"}, "type": "Feature"}
{"geometry": {"coordinates": [-85.85183, 43.891351], "type": "Point"}, "id": "fMyTNsNXdJchPxkiKgj6Ch-sSqo=", "properties": {"@spider": "usps_collection_boxes", "addr:city": "BALDWIN", "addr:country": "US", "addr:full": "513 MICHIGAN AVE", "addr:postcode": "49304", "addr:state": "MI", "brand": "USPS", "collection_times": "Mo-Fr 15:45; Sa 11:00", "name": "USPS COLLECTION BOX - PO LOBBY", "note": "ON 12/24 AND 12/31, THIS BOX MAY BE COLLECTED AS EARLY AS 12 NOON.", "ref": "4930400010"}, "type": "Feature"}
{"geometry": {"coordinates": [-85.851829055, 43.891348221], "type": "Point"}, "id": "rM1D0tDwJb2qQsJboTAEYEPgXXY=", "properties": {"@spider": "usps_collection_boxes", "addr:city": "BALDWIN", "addr:country": "US", "addr:full": "513 MICHIGAN AVE", "addr:postcode": "49304", "addr:state": "MI", "brand": "USPS", "collection_times": "Mo-Fr 16:00; Sa 11:30", "name": "USPS COLLECTION BOX - PO LOBBY", "note": "ON 12/24 AND 12/31, THIS BOX MAY BE COLLECTED AS EARLY AS 12 NOON.", "ref": "4930400011"}, "type": "Feature"}
{"geometry": {"coordinates": [-85.145385, 43.750087], "type": "Point"}, "id": "YO978AOWnUqTk9xdQBsjuoEpxFg=", "properties": {"@spider": "usps_collection_boxes", "addr:city": "BARRYTON", "addr:country": "US", "addr:full": "151 E NORTHERN AVE", "addr:postcode": "49305", "addr:state": "MI", "brand": "USPS", "collection_times": "Mo-Fr 15:40; Sa 11:00", "name": "USPS COLLECTION BOX - BLUE BOX", "note": "ON 12/24 AND 12/31, THIS BOX MAY BE COLLECTED AS EARLY AS 12 NOON.", "ref": "4930500001"}, "type": "Feature"}
{"geometry": {"coordinates": [-85.145385, 43.750087], "type": "Point"}, "id": "tzJJ1UEVuE4FJwstJcvw3JYFc7s=", "properties": {"@spider": "usps_collection_boxes", "addr:city": "BARRYTON", "addr:country": "US", "addr:full": "151 E NORTHERN AVE", "addr:postcode": "49305", "addr:state": "MI", "brand": "USPS", "collection_times": "Mo-Fr 15:40; Sa 11:00", "name": "USPS COLLECTION BOX - PO LOBBY", "note": "ON 12/24 AND 12/31, THIS BOX MAY BE COLLECTED AS EARLY AS 12 NOON.", "ref": "4930500003"}, "type": "Feature"}
{"geometry": {"coordinates": [-85.145386424, 43.750132101], "type": "Point"}, "id": "ncetOC-17ixvknNndMQ37WpvnvM=", "properties": {"@spider": "usps_collection_boxes", "addr:city": "BARRYTON", "addr:country": "US", "addr:full": "151 E NORTHERN AVE", "addr:postcode": "49305", "addr:state": "MI", "brand": "USPS", "collection_times": "Mo-Fr 15:30; Sa 10:30", "name": "USPS COLLECTION BOX - PO LOBBY", "note": "ON 12/24 AND 12/31, THIS BOX MAY BE COLLECTED AS EARLY AS 12 NOON.", "ref": "4930500005"}, "type": "Feature"}
{"geometry": {"coordinates": [-85.609284, 43.075969], "type": "Point"}, "id": "O-VJJhgh687iF0GUjHXtH6-dhHo=", "properties": {"@spider": "usps_collection_boxes", "addr:city": "BELMONT", "addr:country": "US", "addr:full": "6220 BELMONT AVE NE", "addr:postcode": "49306", "addr:state": "MI", "brand": "USPS", "collection_times": "Mo-Fr 16:45; Sa 11:30", "name": "USPS COLLECTION BOX - BLUE BOX", "note": "ON 12/24 AND 12/31, THIS BOX MAY BE COLLECTED AS EARLY AS 12 NOON.", "ref": "4930600003"}, "type": "Feature"}
{"geometry": {"coordinates": [-85.609284, 43.075969], "type": "Point"}, "id": "IQ5YY1xfjFTn6eVnnGyEHjBJN_k=", "properties": {"@spider": "usps_collection_boxes", "addr:city": "BELMONT", "addr:country": "US", "addr:full": "6220 BELMONT AVE NE", "addr:postcode": "49306", "addr:state": "MI", "brand": "USPS", "collection_times": "Mo-Fr 17:00; Sa 12:00", "name": "USPS COLLECTION BOX - PO LOBBY", "note": "ON 12/24 AND 12/31, THIS BOX MAY BE COLLECTED AS EARLY AS 12 NOON.", "ref": "4930600005"}, "type": "Feature"}
{"geometry": {"coordinates": [-85.60928485, 43.075962671], "type": "Point"}, "id": "JSnBYBu51CC8LOwrDFtpJ2ZCus0=", "properties": {"@spider": "usps_collection_boxes", "addr:city": "BELMONT", "addr:country": "US", "addr:full": "6220 BELMONT AVE NE", "addr:postcode": "49306", "addr:state": "MI", "brand": "USPS", "collection_times": "Mo-Fr 16:30; Sa 11:00", "name": "USPS COLLECTION BOX - PO LOBBY", "note": "ON 12/24 AND 12/31, THIS BOX MAY BE COLLECTED AS EARLY AS 12 NOON.", "ref": "4930600006"}, "type": "Feature"}
{"geometry": {"coordinates": [-85.4822977, 43.698378], "type": "Point"}, "id": "5s59uWpVIr82aw50IivZ0pIAE2A=", "properties": {"@spider": "usps_collection_boxes", "addr:city": "BIG RAPIDS", "addr:country": "US", "addr:full": "101 MAPLE ST", "addr:postcode": "49307", "addr:state": "MI", "brand": "USPS", "collection_times": "Mo-Sa 14:00", "name": "USPS COLLECTION BOX - BLUE BOX", "note": "ON 12/24 AND 12/31, THIS BOX MAY BE COLLECTED AS EARLY AS 12 NOON.", "ref": "4930700032"}, "type": "Feature"}
{"geometry": {"coordinates": [-85.4827456, 43.696574], "type": "Point"}, "id": "4cx2W2g-LNbknCkzDkpoei9CKY8=", "properties": {"@spider": "usps_collection_boxes", "addr:city": "BIG RAPIDS", "addr:country": "US", "addr:full": "110 ELM ST", "addr:postcode": "49307", "addr:state": "MI", "brand": "USPS", "collection_times": "Mo-Sa 13:00", "name": "USPS COLLECTION BOX - BLUE BOX", "note": "ON 12/24 AND 12/31, THIS BOX MAY BE COLLECTED AS EARLY AS 12 NOON.", "ref": "4930700035"}, "type": "Feature"}
{"geometry": {"coordinates": [-85.4838916, 43.705942], "type": "Point"}, "id": "ajzlDzD8x0RQGbEFFQiFXfMzYPc=", "properties": {"@spider": "usps_collection_boxes", "addr:city": "BIG RAPIDS", "addr:country": "US", "addr:full": "624 N STATE ST", "addr:postcode": "49307", "addr:state": "MI", "brand": "USPS", "collection_times": "Mo-Sa 10:00", "name": "USPS COLLECTION BOX - BLUE BOX", "ref": "4930700045"}, "type": "Feature"}
{"geometry": {"coordinates": [-85.4764811, 43.700778], "type": "Point"}, "id": "1WeLI5trW8aMZYatZMgXQj8NreE=", "properties": {"@spider": "usps_collection_boxes", "addr:city": "BIG RAPIDS", "addr:country": "US", "addr:full": "9 PARKVIEW VLG", "addr:postcode": "49307", "addr:state": "MI", "brand": "USPS", "collection_times": "Mo-Sa 10:00", "name": "USPS COLLECTION BOX - BLUE BOX", "ref": "4930700051"}, "type": "Feature"}
{"geometry": {"coordinates": [-85.4844491, 43.688017], "type": "Point"}, "id": "j3dmpPXoDpZLWqVj3lcRfjVSt7s=", "properties": {"@spider": "usps_collection_boxes", "addr:city": "BIG RAPIDS", "addr:country": "US", "addr:full": "842 S STATE ST", "addr:postcode": "49307", "addr:state": "MI", "brand": "USPS", "collection_times": "Mo-Sa 14:00", "name": "USPS COLLECTION BOX - BLUE BOX", "note": "ON 12/24 AND 12/31, THIS BOX MAY BE COLLECTED AS EARLY AS 12 NOON.", "ref": "4930700056"}, "type": "Feature"}
{"geometry": {"coordinates": [-85.4840482, 43.692597], "type": "Point"}, "id": "hglc2aH_yGnR3MYdKtguWvp-Ucw=", "properties": {"@spider": "usps_collection_boxes", "addr:city": "BIG RAPIDS", "addr:country": "US", "addr:full": "114 SPRING ST", "addr:postcode": "49307", "addr:state": "MI", "brand": "USPS", "collection_times": "Mo-Sa 13:00", "name": "USPS COLLECTION BOX - BLUE BOX", "note": "ON 12/24 AND 12/31, THIS BOX MAY BE COLLECTED AS EARLY AS 12 NOON.", "ref": "4930700058"}, "type": "Feature"}
{"geometry": {"coordinates": [-85.4819042, 43.700843], "type": "Point"}, "id": "k6A3kiAWhxyMGMn_VzuH_YVXhjU=", "properties": {"@spider": "usps_collection_boxes", "addr:city": "BIG RAPIDS", "addr:country": "US", "addr:full": "226 N MICHIGAN AVE", "addr:postcode": "49307", "addr:state": "MI", "brand": "USPS", "collection_times": "Mo-Sa 14:00", "name": "USPS COLLECTION BOX - BLUE BOX", "note": "ON 12/24 AND 12/31, THIS BOX MAY BE COLLECTED AS EARLY AS 12 NOON.", "ref": "4930700059"}, "type": "Feature"}
{"geometry": {"coordinates": [-85.5095512, 43.689966], "type": "Point"}, "id": "08Tt0RZ1WQlol_tIiij7mvnUGlU=", "properties": {"@spider": "usps_collection_boxes", "addr:city": "BIG RAPIDS", "addr:country": "US", "addr:full": "21400 PERRY AVE", "addr:postcode": "49307", "addr:state": "MI", "brand": "USPS", "collection_times": "Mo-Sa 10:00", "name": "USPS COLLECTION BOX - BLUE BOX", "ref": "4930700060"}, "type": "Feature"}
{"geometry": {"coordinates": [-85.4808805, 43.699386], "type": "Point"}, "id": "t3Z1Ux3vAmMHgHG5e1SvG5pklmk=", "properties": {"@spider": "usps_collection_boxes", "addr:city": "BIG RAPIDS", "addr:country": "US", "addr:full": "302 N WARREN AVE", "addr:postcode": "49307", "addr:state": "MI", "brand": "USPS", "collection_times": "Mo-Sa 14:00", "name": "USPS COLLECTION BOX - BLUE BOX", "note": "ON 12/24 AND 12/31, THIS BOX MAY BE COLLECTED AS EARLY AS 12 NOON.", "ref": "4930700067"}, "type": "Feature"}
{"geometry": {"coordinates": [-85.4808638, 43.698849], "type": "Point"}, "id": "ZoOvajWSYfUlbexK9mv71QKMTCo=", "properties": {"@spider": "usps_collection_boxes", "addr:city": "BIG RAPIDS", "addr:country": "US", "addr:full": "302 N WARREN AVE", "addr:postcode": "49307", "addr:state": "MI", "brand": "USPS", "collection_times": "Mo-Sa 14:00", "name": "USPS COLLECTION BOX - BLUE BOX", "note": "ON 12/24 AND 12/31, THIS BOX MAY BE COLLECTED AS EARLY AS 12 NOON.", "ref": "4930700068"}, "type": "Feature"}
{"geometry": {"coordinates": [-85.4804044666, 43.6983910334], "type": "Point"}, "id": "VF7URsZ1AncXKQIQD-PD4YHPRA0=", "properties": {"@spider": "usps_collection_boxes", "addr:city": "BIG RAPIDS", "addr:country": "US", "addr:full": "301 MAPLE ST", "addr:postcode": "49307", "addr:state": "MI", "brand": "USPS", "collection_times": "Mo-Fr 16:00; Sa 11:45", "name": "USPS COLLECTION BOX - PO LOBBY", "note": "ON 12/24 AND 12/31, THIS BOX MAY BE COLLECTED AS EARLY AS 12 NOON.", "ref": "4930700070"}, "type": "Feature"}
{"geometry": {"coordinates": [-85.4705823, 43.698417], "type": "Point"}, "id": "b-gZIKPudXiQIknm7iXIyeWWfVc=", "properties": {"@spider": "usps_collection_boxes", "addr:city": "BIG RAPIDS", "addr:country": "US", "addr:full": "307 S 3RD AVE", "addr:postcode": "49307", "addr:state": "MI", "brand": "USPS", "collection_times": "Mo-Sa 11:00", "name": "USPS COLLECTION BOX - BLUE BOX", "ref": "4930700072"}, "type": "Feature"}
{"geometry": {"coordinates": [-85.4825759, 43.685352], "type": "Point"}, "id": "xbugV95vxRFSRhgmowbfEDljS64=", "properties": {"@spider": "usps_collection_boxes", "addr:city": "BIG RAPIDS", "addr:country": "US", "addr:full": "1201 S STATE ST", "addr:postcode": "49307", "addr:state": "MI", "brand": "USPS", "collection_times": "Mo-Fr 11:00; Sa 10:30", "name": "USPS COLLECTION BOX - BLUE BOX", "ref": "4930700073"}, "type": "Feature"}
{"geometry": {"coordinates": [-85.486574, 43.689335], "type": "Point"}, "id": "6JJFzkuvhXkyBV7LnbHHcftxjDU=", "properties": {"@spider": "usps_collection_boxes", "addr:city": "BIG RAPIDS", "addr:country": "US", "addr:full": "826 DIVISION ST", "addr:postcode": "49307", "addr:state": "MI", "brand": "USPS", "collection_times": "Mo-Fr 16:00; Sa 15:00", "name": "USPS COLLECTION BOX - BLUE BOX", "note": "ON 12/24 AND 12/31, THIS BOX MAY BE COLLECTED AS EARLY AS 12 NOON.", "ref": "4930700075"}, "type": "Feature"}
{"geometry": {"coordinates": [-85.4741683, 43.694501], "type": "Point"}, "id": "FpMYA7nncJVZfdyLErp-WkIf3ms=", "properties": {"@spider": "usps_collection_boxes", "addr:city": "BIG RAPIDS", "addr:country": "US", "addr:full": "722 LOCUST ST", "addr:postcode": "49307", "addr:state": "MI", "brand": "USPS", "collection_times": "Mo-Sa 10:00", "name": "USPS COLLECTION BOX - BLUE BOX", "ref": "4930700076"}, "type": "Feature"}
{"geometry": {"coordinates": [-85.4839579, 43.627791], "type": "Point"}, "id": "XCwTIVuhBps74w5eKf2hkX-yj4M=", "properties": {"@spider": "usps_collection_boxes", "addr:city": "BIG RAPIDS", "addr:country": "US", "addr:full": "11031 NORTHLAND DR", "addr:postcode": "49307", "addr:state": "MI", "brand": "USPS", "collection_times": "Mo-Sa 10:00", "name": "USPS COLLECTION BOX - BLUE BOX", "ref": "4930700077"}, "type": "Feature"}
{"geometry": {"coordinates": [-85.486574, 43.689335], "type": "Point"}, "id": "eM_6beC4DNh_5he31jlKwzoC4hM=", "properties": {"@spider": "usps_collection_boxes", "addr:city": "BIG RAPIDS", "addr:country": "US", "addr:full": "826 DIVISION ST", "addr:postcode": "49307", "addr:state": "MI", "brand": "USPS", "collection_times": "Mo-Fr 16:00; Sa 15:00", "name": "USPS COLLECTION BOX - PO LOBBY", "note": "ON 12/24 AND 12/31, THIS BOX MAY BE COLLECTED AS EARLY AS 12 NOON.", "ref": "4930700080"}, "type": "Feature"}
{"geometry": {"coordinates": [-85.480404467, 43.698391033], "type": "Point"}, "id": "3o1AN3OzsvaRjjOM7mZSd7gMeKk=", "properties": {"@spider": "usps_collection_boxes", "addr:city": "BIG RAPIDS", "addr:country": "US", "addr:full": "301 MAPLE ST", "addr:postcode": "49307", "addr:state": "MI", "brand": "USPS", "collection_times": "Mo-Fr 16:30; Sa 11:30", "name": "USPS COLLECTION BOX - PO LOBBY", "note": "ON 12/24 AND 12/31, THIS BOX MAY BE COLLECTED AS EARLY AS 12 NOON.", "ref": "4930700081"}, "type": "Feature"}
{"geometry": {"coordinates": [-85.8600757, 43.746082], "type": "Point"}, "id": "I82mlLBy2xu9ngq6n7e6PV4mavU=", "properties": {"@spider": "usps_collection_boxes", "addr:city": "BITELY", "addr:country": "US", "addr:full": "10647 N BINGHAM AVE", "addr:postcode": "49309", "addr:state": "MI", "brand": "USPS", "collection_times": "Mo-Fr 14:15; Sa 12:00", "name": "USPS COLLECTION BOX - BLUE BOX", "note": "ON 12/24 AND 12/31, THIS BOX MAY BE COLLECTED AS EARLY AS 12 NOON.", "ref": "4930900001"}, "type": "Feature"}
{"geometry": {"coordinates": [-85.8601337, 43.746058], "type": "Point"}, "id": "MnBmXokPEPHB4X5TcdF_-Flpg14=", "properties": {"@spider": "usps_collection_boxes", "addr:city": "BITELY", "addr:country": "US", "addr:full": "10647 N BINGHAM AVE", "addr:postcode": "49309", "addr:state": "MI", "brand": "USPS", "collection_times": "Mo-Fr 14:15; Sa 12:00", "name": "USPS COLLECTION BOX - PO LOBBY", "note": "ON 12/24 AND 12/31, THIS BOX MAY BE COLLECTED AS EARLY AS 12 NOON.", "ref": "4930900004"}, "type": "Feature"}
{"geometry": {"coordinates": [-85.860131015, 43.746244659], "type": "Point"}, "id": "r45tkxf4gxwIQU9uRhH7XapfJFs=", "properties": {"@spider": "usps_collection_boxes", "addr:city": "BITELY", "addr:country": "US", "addr:full": "10647 N BINGHAM AVE", "addr:postcode": "49309", "addr:state": "MI", "brand": "USPS", "collection_times": "Mo-Fr 15:00; Sa 10:00", "name": "USPS COLLECTION BOX - PO LOBBY", "note": "ON 12/24 AND 12/31, THIS BOX MAY BE COLLECTED AS EARLY AS 12 NOON.", "ref": "4930900005"}, "type": "Feature"}
{"geometry": {"coordinates": [-85.079123916, 43.519982481], "type": "Point"}, "id": "dXCRwv4dQ8Czl4Oo5khurC3-5tE=", "properties": {"@spider": "usps_collection_boxes", "addr:city": "BLANCHARD", "addr:country": "US", "addr:full": "420 MAIN ST", "addr:postcode": "49310", "addr:state": "MI", "brand": "USPS", "collection_times": "Mo-Fr 14:40; Sa 10:00", "name": "USPS COLLECTION BOX - BLUE BOX", "note": "ON 12/24 AND 12/31, THIS BOX MAY BE COLLECTED AS EARLY AS 12 NOON.", "ref": "4931000001"}, "type": "Feature"}
{"geometry": {"coordinates": [-85.079121, 43.519981], "type": "Point"}, "id": "LSrYo_wZJfWQiGE-kVIjZ1Hv5tg=", "properties": {"@spider": "usps_collection_boxes", "addr:city": "BLANCHARD", "addr:country": "US", "addr:full": "420 MAIN ST", "addr:postcode": "49310", "addr:state": "MI", "brand": "USPS", "collection_times": "Mo-Fr 14:40; Sa 10:00", "name": "USPS COLLECTION BOX - PO LOBBY", "note": "ON 12/24 AND 12/31, THIS BOX MAY BE COLLECTED AS EARLY AS 12 NOON.", "ref": "4931000002"}, "type": "Feature"}
{"geometry": {"coordinates": [-85.079123916, 43.519982481], "type": "Point"}, "id": "9FIMHzGYSYJcdei_AtC82XG3I4Y=", "properties": {"@spider": "usps_collection_boxes", "addr:city": "BLANCHARD", "addr:country": "US", "addr:full": "420 MAIN ST", "addr:postcode": "49310", "addr:state": "MI", "brand": "USPS", "collection_times": "Mo-Fr 15:30; Sa 10:30", "name": "USPS COLLECTION BOX - PO LOBBY", "note": "ON 12/24 AND 12/31, THIS BOX MAY BE COLLECTED AS EARLY AS 12 NOON.", "ref": "4931000003"}, "type": "Feature"}
{"geometry": {"coordinates": [-85.813571, 43.691474], "type": "Point"}, "id": "HdKV3RZHWecDNXUjg3fvqJMTryM=", "properties": {"@spider": "usps_collection_boxes", "addr:city": "BROHMAN", "addr:country": "US", "addr:full": "577 W LINCOLN ST", "addr:postcode": "49312", "addr:state": "MI", "brand": "USPS", "collection_times": "Mo-Fr 13:55; Sa 09:00", "name": "USPS COLLECTION BOX - BLUE BOX", "note": "ON 12/24 AND 12/31, THIS BOX MAY BE COLLECTED AS EARLY AS 12 NOON.", "ref": "4931200001"}, "type": "Feature"}
{"geometry": {"coordinates": [-85.813571, 43.691474], "type": "Point"}, "id": "50mVbNOE19l-R8KbQT6M1_cVSpk=", "properties": {"@spider": "usps_collection_boxes", "addr:city": "BROHMAN", "addr:country": "US", "addr:full": "577 W LINCOLN ST", "addr:postcode": "49312", "addr:state": "MI", "brand": "USPS", "collection_times": "Mo-Fr 13:55; Sa 09:00", "name": "USPS COLLECTION BOX - PO LOBBY", "note": "ON 12/24 AND 12/31, THIS BOX MAY BE COLLECTED AS EARLY AS 12 NOON.", "ref": "4931200002"}, "type": "Feature"}
{"geometry": {"coordinates": [-85.814798425, 43.691353737], "type": "Point"}, "id": "2E_NcCeqA4myOoBVd8cwFkA-Xls=", "properties": {"@spider": "usps_collection_boxes", "addr:city": "BROHMAN", "addr:country": "US", "addr:full": "577 W LINCOLN ST", "addr:postcode": "49312", "addr:state": "MI", "brand": "USPS", "collection_times": "Mo-Fr 13:30; Sa 10:00", "name": "USPS COLLECTION BOX - PO LOBBY", "note": "ON 12/24 AND 12/31, THIS BOX MAY BE COLLECTED AS EARLY AS 12 NOON.", "ref": "4931200003"}, "type": "Feature"}
{"geometry": {"coordinates": [-85.7908666, 43.235758], "type": "Point"}, "id": "iClxt_vgJzM-7I7Orl87ATvMzrU=", "properties": {"@spider": "usps_collection_boxes", "addr:city": "CASNOVIA", "addr:country": "US", "addr:full": "87 N MAIN ST", "addr:postcode": "49318", "addr:state": "MI", "brand": "USPS", "collection_times": "Mo-Sa 12:00", "name": "USPS COLLECTION BOX - BLUE BOX", "ref": "4931800001"}, "type": "Feature"}
{"geometry": {"coordinates": [-85.790578, 43.235728], "type": "Point"}, "id": "73CLkn3f5IT3Cc6kPH2bQO-EfAQ=", "properties": {"@spider": "usps_collection_boxes", "addr:city": "CASNOVIA", "addr:country": "US", "addr:full": "87 N MAIN ST", "addr:postcode": "49318", "addr:state": "MI", "brand": "USPS", "collection_times": "Mo-Sa 12:00", "name": "USPS COLLECTION BOX - PO LOBBY", "ref": "4931800002"}, "type": "Feature"}
{"geometry": {"coordinates": [-85.790579241, 43.23573], "type": "Point"}, "id": "jnexJX8da3ml2MMbmTVutZr57VA=", "properties": {"@spider": "usps_collection_boxes", "addr:city": "CASNOVIA", "addr:country": "US", "addr:full": "87 N MAIN ST", "addr:postcode": "49318", "addr:state": "MI", "brand": "USPS", "collection_times": "Mo-Fr 11:30; Sa 10:00", "name": "USPS COLLECTION BOX - PO LOBBY", "ref": "4931800003"}, "type": "Feature"}
{"geometry": {"coordinates": [-85.550319, 43.223568], "type": "Point"}, "id": "JC6Hte4qXdcSuEyKFjYRXQGB85k=", "properties": {"@spider": "usps_collection_boxes", "addr:city": "CEDAR SPRINGS", "addr:country": "US", "addr:full": "36 E CHERRY ST", "addr:postcode": "49319", "addr:state": "MI", "brand": "USPS", "collection_times": "Mo-Fr 16:35; Sa 11:00", "name": "USPS COLLECTION BOX - BLUE BOX", "note": "ON 12/24 AND 12/31, THIS BOX MAY BE COLLECTED AS EARLY AS 12 NOON.", "ref": "4931900001"}, "type": "Feature"}
{"geometry": {"coordinates": [-85.5670747, 43.220943], "type": "Point"}, "id": "kDndOAvnYsf4tf9p1LxHpBpDOFM=", "properties": {"@spider": "usps_collection_boxes", "addr:city": "CEDAR SPRINGS", "addr:country": "US", "addr:full": "4175 17 MILE RD NE", "addr:postcode": "49319", "addr:state": "MI", "brand": "USPS", "collection_times": "Mo-Sa 09:30", "name": "USPS COLLECTION BOX - BLUE BOX", "ref": "4931900005"}, "type": "Feature"}
{"geometry": {"coordinates": [-85.550319, 43.223568], "type": "Point"}, "id": "exBCt7_jE5V0bHq4M7NzdCqwLF0=", "properties": {"@spider": "usps_collection_boxes", "addr:city": "CEDAR SPRINGS", "addr:country": "US", "addr:full": "36 E CHERRY ST", "addr:postcode": "49319", "addr:state": "MI", "brand": "USPS", "collection_times": "Mo-Fr 16:35; Sa 11:00", "name": "USPS COLLECTION BOX - PO LOBBY", "note": "ON 12/24 AND 12/31, THIS BOX MAY BE COLLECTED AS EARLY AS 12 NOON.", "ref": "4931900006"}, "type": "Feature"}
{"geometry": {"coordinates": [-85.550323668, 43.223559518], "type": "Point"}, "id": "KtxK84E1m5UIuHVm395vAVj1fN0=", "properties": {"@spider": "usps_collection_boxes", "addr:city": "CEDAR SPRINGS", "addr:country": "US", "addr:full": "36 E CHERRY ST", "addr:postcode": "49319", "addr:state": "MI", "brand": "USPS", "collection_times": "Mo-Fr 16:30; Sa 11:30", "name": "USPS COLLECTION BOX - PO LOBBY", "note": "ON 12/24 AND 12/31, THIS BOX MAY BE COLLECTED AS EARLY AS 12 NOON.", "ref": "4931900007"}, "type": "Feature"}
{"geometry": {"coordinates": [-85.303299, 43.742714], "type": "Point"}, "id": "0jSbFGfN-hxyUHx9-L5IVXrpamo=", "properties": {"@spider": "usps_collection_boxes", "addr:city": "CHIPPEWA LAKE", "addr:country": "US", "addr:full": "10510 DWIGHT ST", "addr:postcode": "49320", "addr:state": "MI", "brand": "USPS", "collection_times": "Mo-Fr 15:20; Sa 10:45", "name": "USPS COLLECTION BOX - BLUE BOX", "note": "ON 12/24 AND 12/31, THIS BOX MAY BE COLLECTED AS EARLY AS 12 NOON.", "ref": "4932000001"}, "type": "Feature"}
{"geometry": {"coordinates": [-85.302448, 43.743239], "type": "Point"}, "id": "Yac3foMj8NYcLZfTWYQCyiysa1g=", "properties": {"@spider": "usps_collection_boxes", "addr:city": "CHIPPEWA LAKE", "addr:country": "US", "addr:full": "10510 DWIGHT ST", "addr:postcode": "49320", "addr:state": "MI", "brand": "USPS", "collection_times": "Mo-Fr 15:20; Sa 10:45", "name": "USPS COLLECTION BOX - PO LOBBY", "note": "ON 12/24 AND 12/31, THIS BOX MAY BE COLLECTED AS EARLY AS 12 NOON.", "ref": "4932000002"}, "type": "Feature"}
{"geometry": {"coordinates": [-85.294236992, 43.743787093], "type": "Point"}, "id": "DuS2FGJmhpSgwVHOqonDaVDkIRc=", "properties": {"@spider": "usps_collection_boxes", "addr:city": "CHIPPEWA LAKE", "addr:country": "US", "addr:full": "10510 DWIGHT ST", "addr:postcode": "49320", "addr:state": "MI", "brand": "USPS", "collection_times": "Mo-Fr 15:00; Sa 10:00", "name": "USPS COLLECTION BOX - PO LOBBY", "note": "ON 12/24 AND 12/31, THIS BOX MAY BE COLLECTED AS EARLY AS 12 NOON.", "ref": "4932000003"}, "type": "Feature"}
{"geometry": {"coordinates": [-85.6934133, 43.047612], "type": "Point"}, "id": "q854LsJzWXeZukGSlwjW7uDHbIM=", "properties": {"@spider": "usps_collection_boxes", "addr:city": "COMSTOCK PARK", "addr:country": "US", "addr:full": "4601 ALDUN RIDGE AVE NW", "addr:postcode": "49321", "addr:state": "MI", "brand": "USPS", "collection_times": "Mo-Sa 09:30", "name": "USPS COLLECTION BOX - BLUE BOX", "ref": "4932100012"}, "type": "Feature"}
{"geometry": {"coordinates": [-85.6911905, 43.059302], "type": "Point"}, "id": "r58hmQthXOPydfROHpPoFovOkHc=", "properties": {"@spider": "usps_collection_boxes", "addr:city": "COMSTOCK PARK", "addr:country": "US", "addr:full": "5255 ALPINE AVE NW", "addr:postcode": "49321", "addr:state": "MI", "brand": "USPS", "collection_times": "Mo-Sa 10:00", "name": "USPS COLLECTION BOX - BLUE BOX", "ref": "4932100013"}, "type": "Feature"}
{"geometry": {"coordinates": [-85.6894418, 43.072242], "type": "Point"}, "id": "3WdGsQoZcRJd5gtTpQOVcPW111w=", "properties": {"@spider": "usps_collection_boxes", "addr:city": "COMSTOCK PARK", "addr:country": "US", "addr:full": "5960 ALPINE AVE NW", "addr:postcode": "49321", "addr:state": "MI", "brand": "USPS", "collection_times": "Mo-Sa 09:30", "name": "USPS COLLECTION BOX - BLUE BOX", "ref": "4932100015"}, "type": "Feature"}
{"geometry": {"coordinates": [-85.6911721, 43.059302], "type": "Point"}, "id": "YyF9lu-5Np0jdd1Jd-K6_JbHLHM=", "properties": {"@spider": "usps_collection_boxes", "addr:city": "COMSTOCK PARK", "addr:country": "US", "addr:full": "5255 ALPINE AVE NW", "addr:postcode": "49321", "addr:state": "MI", "brand": "USPS", "collection_times": "Mo-Sa 10:00", "name": "USPS COLLECTION BOX - BLUE BOX", "ref": "4932100016"}, "type": "Feature"}
{"geometry": {"coordinates": [-85.4028807, 43.362903], "type": "Point"}, "id": "XNG9FycwYXxr4tMv7TioTa8-23E=", "properties": {"@spider": "usps_collection_boxes", "addr:city": "CORAL", "addr:country": "US", "addr:full": "4726 N BAILEY RD", "addr:postcode": "49322", "addr:state": "MI", "brand": "USPS", "collection_times": "Mo-Fr 13:00; Sa 11:00", "name": "USPS COLLECTION BOX - BLUE BOX", "note": "ON 12/24 AND 12/31, THIS BOX MAY BE COLLECTED AS EARLY AS 12 NOON.", "ref": "4932200001"}, "type": "Feature"}
{"geometry": {"coordinates": [-85.4027924, 43.362954], "type": "Point"}, "id": "7nVLZay_-wA1llxdRLFGWbq4KSU=", "properties": {"@spider": "usps_collection_boxes", "addr:city": "CORAL", "addr:country": "US", "addr:full": "4726 N BAILEY RD", "addr:postcode": "49322", "addr:state": "MI", "brand": "USPS", "collection_times": "Mo-Fr 13:00; Sa 11:00", "name": "USPS COLLECTION BOX - PO LOBBY", "note": "ON 12/24 AND 12/31, THIS BOX MAY BE COLLECTED AS EARLY AS 12 NOON.", "ref": "4932200002"}, "type": "Feature"}
{"geometry": {"coordinates": [-85.4027133, 43.362043], "type": "Point"}, "id": "3gVPKQBPTiF-mJwJAz70njdcxZ0=", "properties": {"@spider": "usps_collection_boxes", "addr:city": "CORAL", "addr:country": "US", "addr:full": "4668 N BAILEY RD", "addr:postcode": "49322", "addr:state": "MI", "brand": "USPS", "collection_times": "Mo-Sa 10:00", "name": "USPS COLLECTION BOX - BLUE BOX", "ref": "4932200003"}, "type": "Feature"}
{"geometry": {"coordinates": [-85.40292223, 43.362954], "type": "Point"}, "id": "2D3RykwDrETBJ_rRNrPeSo8Ihx4=", "properties": {"@spider": "usps_collection_boxes", "addr:city": "CORAL", "addr:country": "US", "addr:full": "4726 N BAILEY RD", "addr:postcode": "49322", "addr:state": "MI", "brand": "USPS", "collection_times": "Mo-Sa 13:00", "name": "USPS COLLECTION BOX - PO LOBBY", "note": "ON 12/24 AND 12/31, THIS BOX MAY BE COLLECTED AS EARLY AS 12 NOON.", "ref": "4932200004"}, "type": "Feature"}
{"geometry": {"coordinates": [-85.2992199, 43.250834], "type": "Point"}, "id": "hYRgmBn9Q6eaPywaGgHREFfpmtc=", "properties": {"@spider": "usps_collection_boxes", "addr:city": "GOWEN", "addr:country": "US", "addr:full": "2922 OAK ST", "addr:postcode": "49326", "addr:state": "MI", "brand": "USPS", "collection_times": "Mo-Fr 16:00; Sa 14:00", "name": "USPS COLLECTION BOX - BLUE BOX", "note": "ON 12/24 AND 12/31, THIS BOX MAY BE COLLECTED AS EARLY AS 12 NOON.", "ref": "4932600001"}, "type": "Feature"}
{"geometry": {"coordinates": [-85.3695499, 43.235862], "type": "Point"}, "id": "AYmraS9iKINyUdL1MsQntZpw__o=", "properties": {"@spider": "usps_collection_boxes", "addr:city": "GOWEN", "addr:country": "US", "addr:full": "12091 18 MILE RD", "addr:postcode": "49326", "addr:state": "MI", "brand": "USPS", "collection_times": "Mo-Sa 14:00", "name": "USPS COLLECTION BOX - BLUE BOX", "note": "ON 12/24 AND 12/31, THIS BOX MAY BE COLLECTED AS EARLY AS 12 NOON.", "ref": "4932600002"}, "type": "Feature"}
{"geometry": {"coordinates": [-85.2993704, 43.250732], "type": "Point"}, "id": "8F3Ie27IBtsFUxhYRHvnuhLkNjE=", "properties": {"@spider": "usps_collection_boxes", "addr:city": "GOWEN", "addr:country": "US", "addr:full": "2922 OAK ST", "addr:postcode": "49326", "addr:state": "MI", "brand": "USPS", "collection_times": "Mo-Fr 16:00; Sa 10:30", "name": "USPS COLLECTION BOX - PO LOBBY", "note": "ON 12/24 AND 12/31, THIS BOX MAY BE COLLECTED AS EARLY AS 12 NOON.", "ref": "4932600003"}, "type": "Feature"}
{"geometry": {"coordinates": [-85.299138504, 43.251211223], "type": "Point"}, "id": "SH3QvMoqgvM5lLxlajmpPtB37a0=", "properties": {"@spider": "usps_collection_boxes", "addr:city": "GOWEN", "addr:country": "US", "addr:full": "2921 OAK ST", "addr:postcode": "49326", "addr:state": "MI", "brand": "USPS", "collection_times": "Mo-Fr 16:00; Sa 10:30", "name": "USPS COLLECTION BOX - PO LOBBY", "note": "ON 12/24 AND 12/31, THIS BOX MAY BE COLLECTED AS EARLY AS 12 NOON.", "ref": "4932600004"}, "type": "Feature"}
{"geometry": {"coordinates": [-85.81452, 43.333351], "type": "Point"}, "id": "K0VniwWA9yJRG63GnsI8KsH6Th0=", "properties": {"@spider": "usps_collection_boxes", "addr:city": "GRANT", "addr:country": "US", "addr:full": "79 W PINE ST", "addr:postcode": "49327", "addr:state": "MI", "brand": "USPS", "collection_times": "Mo-Fr 16:00; Sa 12:00", "name": "USPS COLLECTION BOX - BLUE BOX", "note": "ON 12/24 AND 12/31, THIS BOX MAY BE COLLECTED AS EARLY AS 12 NOON.", "ref": "4932700002"}, "type": "Feature"}
{"geometry": {"coordinates": [-85.81452, 43.333351], "type": "Point"}, "id": "0YM6fH86llt93_B_C9GlFnAIX5s=", "properties": {"@spider": "usps_collection_boxes", "addr:city": "GRANT", "addr:country": "US", "addr:full": "79 W PINE ST", "addr:postcode": "49327", "addr:state": "MI", "brand": "USPS", "collection_times": "Mo-Fr 16:00; Sa 12:00", "name": "USPS COLLECTION BOX - PO LOBBY", "note": "ON 12/24 AND 12/31, THIS BOX MAY BE COLLECTED AS EARLY AS 12 NOON.", "ref": "4932700003"}, "type": "Feature"}
{"geometry": {"coordinates": [-85.8122504162, 43.333350526], "type": "Point"}, "id": "h2bhFFnP8lDJFLDspNFNhX08g4s=", "properties": {"@spider": "usps_collection_boxes", "addr:city": "GRANT", "addr:country": "US", "addr:full": "79 W PINE ST", "addr:postcode": "49327", "addr:state": "MI", "brand": "USPS", "collection_times": "Mo-Fr 16:30", "name": "USPS COLLECTION BOX - PO LOBBY", "note": "ON 12/24 AND 12/31, THIS BOX MAY BE COLLECTED AS EARLY AS 12 NOON.", "ref": "4932700004"}, "type": "Feature"}
{"geometry": {"coordinates": [-85.468986, 43.396915], "type": "Point"}, "id": "OW-SYG6fTv6DF0w3P_CH-hr6Pp0=", "properties": {"@spider": "usps_collection_boxes", "addr:city": "HOWARD CITY", "addr:country": "US", "addr:full": "107 E EDGERTON ST", "addr:postcode": "49329", "addr:state": "MI", "brand": "USPS", "collection_times": "Mo-Fr 15:30; Sa 10:30", "name": "USPS COLLECTION BOX - BLUE BOX", "note": "ON 12/24 AND 12/31, THIS BOX MAY BE COLLECTED AS EARLY AS 12 NOON.", "ref": "4932900001"}, "type": "Feature"}
{"geometry": {"coordinates": [-85.4805374, 43.3961], "type": "Point"}, "id": "0srdgIR21UOioPU41StbjfFgEsU=", "properties": {"@spider": "usps_collection_boxes", "addr:city": "HOWARD CITY", "addr:country": "US", "addr:full": "730 W SHAW ST", "addr:postcode": "49329", "addr:state": "MI", "brand": "USPS", "collection_times": "Mo-Fr 10:00; Sa 09:00", "name": "USPS COLLECTION BOX - BLUE BOX", "ref": "4932900002"}, "type": "Feature"}
{"geometry": {"coordinates": [-85.468986, 43.396915], "type": "Point"}, "id": "2Blz74Fyh_eD57JivFdAnSjdXK4=", "properties": {"@spider": "usps_collection_boxes", "addr:city": "HOWARD CITY", "addr:country": "US", "addr:full": "107 E EDGERTON ST", "addr:postcode": "49329", "addr:state": "MI", "brand": "USPS", "collection_times": "Mo-Fr 15:50; Sa 11:00", "name": "USPS COLLECTION BOX - PO LOBBY", "note": "ON 12/24 AND 12/31, THIS BOX MAY BE COLLECTED AS EARLY AS 12 NOON.", "ref": "4932900007"}, "type": "Feature"}
{"geometry": {"coordinates": [-85.468987792, 43.396912235], "type": "Point"}, "id": "5UOUIDyxCxdn1rKE8DnpwX0ryVE=", "properties": {"@spider": "usps_collection_boxes", "addr:city": "HOWARD CITY", "addr:country": "US", "addr:full": "107 E EDGERTON ST", "addr:postcode": "49329", "addr:state": "MI", "brand": "USPS", "collection_times": "Mo-Fr 16:00; Sa 11:30", "name": "USPS COLLECTION BOX - PO LOBBY", "note": "ON 12/24 AND 12/31, THIS BOX MAY BE COLLECTED AS EARLY AS 12 NOON.", "ref": "4932900008"}, "type": "Feature"}
{"geometry": {"coordinates": [-85.751143, 43.21837], "type": "Point"}, "id": "L8keqntqpIu_4ikiMtJPJkxEUek=", "properties": {"@spider": "usps_collection_boxes", "addr:city": "KENT CITY", "addr:country": "US", "addr:full": "60 S MAIN ST", "addr:postcode": "49330", "addr:state": "MI", "brand": "USPS", "collection_times": "Mo-Fr 16:00; Sa 11:00", "name": "USPS COLLECTION BOX - BLUE BOX", "note": "ON 12/24 AND 12/31, THIS BOX MAY BE COLLECTED AS EARLY AS 12 NOON.", "ref": "4933000001"}, "type": "Feature"}
{"geometry": {"coordinates": [-85.751143, 43.21837], "type": "Point"}, "id": "RnoVDQRonCvTpcCmADI1ShIaUn8=", "properties": {"@spider": "usps_collection_boxes", "addr:city": "KENT CITY", "addr:country": "US", "addr:full": "60 S MAIN ST", "addr:postcode": "49330", "addr:state": "MI", "brand": "USPS", "collection_times": "Mo-Fr 16:00; Sa 11:00", "name": "USPS COLLECTION BOX - PO LOBBY", "note": "ON 12/24 AND 12/31, THIS BOX MAY BE COLLECTED AS EARLY AS 12 NOON.", "ref": "4933000002"}, "type": "Feature"}
{"geometry": {"coordinates": [-85.7610766, 43.219166], "type": "Point"}, "id": "8OKSt1hjlikgdEDrylpRZ0V4_wA=", "properties": {"@spider": "usps_collection_boxes", "addr:city": "KENT CITY", "addr:country": "US", "addr:full": "380 W MUSKEGON ST", "addr:postcode": "49330", "addr:state": "MI", "brand": "USPS", "collection_times": "Mo-Sa 12:30", "name": "USPS COLLECTION BOX - BLUE BOX", "note": "ON 12/24 AND 12/31, THIS BOX MAY BE COLLECTED AS EARLY AS 12 NOON.", "ref": "4933000003"}, "type": "Feature"}
{"geometry": {"coordinates": [-85.7511442803, 43.218369922], "type": "Point"}, "id": "a6fwMCjeNLDC9TUZs5sq58eP0Vg=", "properties": {"@spider": "usps_collection_boxes", "addr:city": "KENT CITY", "addr:country": "US", "addr:full": "60 S MAIN ST", "addr:postcode": "49330", "addr:state": "MI", "brand": "USPS", "collection_times": "Mo-Fr 15:30; Sa 10:30", "name": "USPS COLLECTION BOX - PO LOBBY", "note": "ON 12/24 AND 12/31, THIS BOX MAY BE COLLECTED AS EARLY AS 12 NOON.", "ref": "4933000004"}, "type": "Feature"}
{"geometry": {"coordinates": [-85.22794, 43.621125], "type": "Point"}, "id": "6XEggTtGZufllGmq9Dncxm987Io=", "properties": {"@spider": "usps_collection_boxes", "addr:city": "MECOSTA", "addr:country": "US", "addr:full": "250 W MAIN ST", "addr:postcode": "49332", "addr:state": "MI", "brand": "USPS", "collection_times": "Mo-Fr 14:05; Sa 11:00", "name": "USPS COLLECTION BOX - BLUE BOX", "note": "ON 12/24 AND 12/31, THIS BOX MAY BE COLLECTED AS EARLY AS 12 NOON.", "ref": "4933200001"}, "type": "Feature"}
{"geometry": {"coordinates": [-85.22794, 43.621125], "type": "Point"}, "id": "1pbD-u13LrP-VkqS3aMK-LwnMOE=", "properties": {"@spider": "usps_collection_boxes", "addr:city": "MECOSTA", "addr:country": "US", "addr:full": "250 W MAIN ST", "addr:postcode": "49332", "addr:state": "MI", "brand": "USPS", "collection_times": "Mo-Fr 14:05; Sa 11:00", "name": "USPS COLLECTION BOX - PO LOBBY", "note": "ON 12/24 AND 12/31, THIS BOX MAY BE COLLECTED AS EARLY AS 12 NOON.", "ref": "4933200002"}, "type": "Feature"}
{"geometry": {"coordinates": [-85.227930771, 43.621165732], "type": "Point"}, "id": "xXgx7xnl-09a6bnI0HWtSrG5QcM=", "properties": {"@spider": "usps_collection_boxes", "addr:city": "MECOSTA", "addr:country": "US", "addr:full": "250 W MAIN ST", "addr:postcode": "49332", "addr:state": "MI", "brand": "USPS", "collection_times": "Mo-Fr 14:30; Sa 10:30", "name": "USPS COLLECTION BOX - PO LOBBY", "note": "ON 12/24 AND 12/31, THIS BOX MAY BE COLLECTED AS EARLY AS 12 NOON.", "ref": "4933200003"}, "type": "Feature"}
{"geometry": {"coordinates": [-85.444986, 43.486804], "type": "Point"}, "id": "QF6OHHJnah-PzzKVL0orfmyMTHo=", "properties": {"@spider": "usps_collection_boxes", "addr:city": "MORLEY", "addr:country": "US", "addr:full": "123 S CASS ST", "addr:postcode": "49336", "addr:state": "MI", "brand": "USPS", "collection_times": "Mo-Fr 15:50; Sa 11:00", "name": "USPS COLLECTION BOX - BLUE BOX", "note": "ON 12/24 AND 12/31, THIS BOX MAY BE COLLECTED AS EARLY AS 12 NOON.", "ref": "4933600001"}, "type": "Feature"}
{"geometry": {"coordinates": [-85.444986, 43.486804], "type": "Point"}, "id": "bbIIuWEIVxvSGcjkKxuju8_m1qA=", "properties": {"@spider": "usps_collection_boxes", "addr:city": "MORLEY", "addr:country": "US", "addr:full": "123 S CASS ST", "addr:postcode": "49336", "addr:state": "MI", "brand": "USPS", "collection_times": "Mo-Fr 15:50; Sa 11:00", "name": "USPS COLLECTION BOX - PO LOBBY", "note": "ON 12/24 AND 12/31, THIS BOX MAY BE COLLECTED AS EARLY AS 12 NOON.", "ref": "4933600003"}, "type": "Feature"}
{"geometry": {"coordinates": [-85.4440029, 43.539574], "type": "Point"}, "id": "kG6efK34JgUgEBr-g4KZaXd1ofM=", "properties": {"@spider": "usps_collection_boxes", "addr:city": "MORLEY", "addr:country": "US", "addr:full": "4981 NORTHLAND DR", "addr:postcode": "49336", "addr:state": "MI", "brand": "USPS", "collection_times": "Mo-Sa 10:30", "name": "USPS COLLECTION BOX - BLUE BOX", "ref": "4933600004"}, "type": "Feature"}
{"geometry": {"coordinates": [-85.4447208862, 43.4904772867], "type": "Point"}, "id": "S46RM50BF7FBibXYNLr9hcO_tAs=", "properties": {"@spider": "usps_collection_boxes", "addr:city": "MORLEY", "addr:country": "US", "addr:full": "123 S CASS ST", "addr:postcode": "49336", "addr:state": "MI", "brand": "USPS", "collection_times": "Mo-Fr 15:30", "name": "USPS COLLECTION BOX - PO LOBBY", "note": "ON 12/24 AND 12/31, THIS BOX MAY BE COLLECTED AS EARLY AS 12 NOON.", "ref": "4933600005"}, "type": "Feature"}
{"geometry": {"coordinates": [-85.7993382, 43.405757], "type": "Point"}, "id": "V6Cwn2f-cB9jB-yPWbkFkf0n9R4=", "properties": {"@spider": "usps_collection_boxes", "addr:city": "NEWAYGO", "addr:country": "US", "addr:full": "193 W RIVER VALLEY DR STE A STE 0", "addr:postcode": "49337", "addr:state": "MI", "brand": "USPS", "collection_times": "Mo-Sa 10:00", "name": "USPS COLLECTION BOX - BLUE BOX", "ref": "4933700001"}, "type": "Feature"}
{"geometry": {"coordinates": [-85.8012779, 43.419818], "type": "Point"}, "id": "v4VYsXmZgurWJvs9fQfrW7uzUXo=", "properties": {"@spider": "usps_collection_boxes", "addr:city": "NEWAYGO", "addr:country": "US", "addr:full": "136 W WOOD ST", "addr:postcode": "49337", "addr:state": "MI", "brand": "USPS", "collection_times": "Mo-Fr 16:00; Sa 12:00", "name": "USPS COLLECTION BOX - BLUE BOX", "note": "ON 12/24 AND 12/31, THIS BOX MAY BE COLLECTED AS EARLY AS 12 NOON.", "ref": "4933700004"}, "type": "Feature"}
{"geometry": {"coordinates": [-85.8012899, 43.419818], "type": "Point"}, "id": "EhPZ4qqvKwsavlwn8Etn5LDWdRw=", "properties": {"@spider": "usps_collection_boxes", "addr:city": "NEWAYGO", "addr:country": "US", "addr:full": "136 W WOOD ST", "addr:postcode": "49337", "addr:state": "MI", "brand": "USPS", "collection_times": "Mo-Fr 16:00; Sa 12:00", "name": "USPS COLLECTION BOX - BLUE BOX", "note": "ON 12/24 AND 12/31, THIS BOX MAY BE COLLECTED AS EARLY AS 12 NOON.", "ref": "4933700007"}, "type": "Feature"}
{"geometry": {"coordinates": [-85.7941438, 43.404208], "type": "Point"}, "id": "e3DUVsfoNZPG6Ym3dziUF2mGQ4o=", "properties": {"@spider": "usps_collection_boxes", "addr:city": "NEWAYGO", "addr:country": "US", "addr:full": "290 E 82ND ST", "addr:postcode": "49337", "addr:state": "MI", "brand": "USPS", "collection_times": "Mo-Sa 10:15", "name": "USPS COLLECTION BOX - BLUE BOX", "ref": "4933700008"}, "type": "Feature"}
{"geometry": {"coordinates": [-85.7860099, 43.41112], "type": "Point"}, "id": "nvSn16rS0aXIY83kYbakcOy6rZU=", "properties": {"@spider": "usps_collection_boxes", "addr:city": "NEWAYGO", "addr:country": "US", "addr:full": "622 DIVISION ST", "addr:postcode": "49337", "addr:state": "MI", "brand": "USPS", "collection_times": "Mo-Sa 11:00", "name": "USPS COLLECTION BOX - BLUE BOX", "ref": "4933700010"}, "type": "Feature"}
{"geometry": {"coordinates": [-85.8017212, 43.419737], "type": "Point"}, "id": "uUo5v0llaF312wA_ZZfga_v0kjc=", "properties": {"@spider": "usps_collection_boxes", "addr:city": "NEWAYGO", "addr:country": "US", "addr:full": "136 W WOOD ST", "addr:postcode": "49337", "addr:state": "MI", "brand": "USPS", "collection_times": "Mo-Fr 16:00; Sa 12:00", "name": "USPS COLLECTION BOX - PO LOBBY", "note": "ON 12/24 AND 12/31, THIS BOX MAY BE COLLECTED AS EARLY AS 12 NOON.", "ref": "4933700011"}, "type": "Feature"}
{"geometry": {"coordinates": [-85.8063784, 43.410745], "type": "Point"}, "id": "fQl8nXvVmzqv6BYmXhfK93rOliU=", "properties": {"@spider": "usps_collection_boxes", "addr:city": "NEWAYGO", "addr:country": "US", "addr:full": "335 ADAMS ST", "addr:postcode": "49337", "addr:state": "MI", "brand": "USPS", "collection_times": "Mo-Sa 10:30", "name": "USPS COLLECTION BOX - BLUE BOX", "ref": "4933700014"}, "type": "Feature"}
{"geometry": {"coordinates": [-85.6614972, 43.438413], "type": "Point"}, "id": "HrbWuIgB7ncvD-JY7tjBFIGQSHc=", "properties": {"@spider": "usps_collection_boxes", "addr:city": "NEWAYGO", "addr:country": "US", "addr:full": "8249 S CROTON HARDY DR", "addr:postcode": "49337", "addr:state": "MI", "brand": "USPS", "collection_times": "Mo-Sa 12:00", "name": "USPS COLLECTION BOX - BLUE BOX", "ref": "4933700015"}, "type": "Feature"}
{"geometry": {"coordinates": [-85.801981114, 43.419933767], "type": "Point"}, "id": "r_p_BvGDOKc1jvGgoPooOW482lc=", "properties": {"@spider": "usps_collection_boxes", "addr:city": "NEWAYGO", "addr:country": "US", "addr:full": "136 W WOOD ST", "addr:postcode": "49337", "addr:state": "MI", "brand": "USPS", "collection_times": "Mo-Fr 16:30; Sa 11:30", "name": "USPS COLLECTION BOX - PO LOBBY", "note": "ON 12/24 AND 12/31, THIS BOX MAY BE COLLECTED AS EARLY AS 12 NOON.", "ref": "4933700016"}, "type": "Feature"}
{"geometry": {"coordinates": [-85.503055, 43.772993], "type": "Point"}, "id": "2_8psqpiVxw-CeR1mY6ZfOQhk3g=", "properties": {"@spider": "usps_collection_boxes", "addr:city": "PARIS", "addr:country": "US", "addr:full": "21159 NORTHLAND DR", "addr:postcode": "49338", "addr:state": "MI", "brand": "USPS", "collection_times": "Mo-Fr 13:00; Sa 11:00", "name": "USPS COLLECTION BOX - BLUE BOX", "note": "ON 12/24 AND 12/31, THIS BOX MAY BE COLLECTED AS EARLY AS 12 NOON.", "ref": "4933800001"}, "type": "Feature"}
{"geometry": {"coordinates": [-85.503055, 43.772993], "type": "Point"}, "id": "m0A4K2Y6PHsC-NlOSxfzmPY3GXk=", "properties": {"@spider": "usps_collection_boxes", "addr:city": "PARIS", "addr:country": "US", "addr:full": "21159 NORTHLAND DR", "addr:postcode": "49338", "addr:state": "MI", "brand": "USPS", "collection_times": "Mo-Fr 13:00; Sa 11:00", "name": "USPS COLLECTION BOX - PO LOBBY", "note": "ON 12/24 AND 12/31, THIS BOX MAY BE COLLECTED AS EARLY AS 12 NOON.", "ref": "4933800002"}, "type": "Feature"}
{"geometry": {"coordinates": [-85.503078257, 43.772994158], "type": "Point"}, "id": "_vNWIUIjedcHmo6xfjRlTonuIaI=", "properties": {"@spider": "usps_collection_boxes", "addr:city": "PARIS", "addr:country": "US", "addr:full": "21159 NORTHLAND DR", "addr:postcode": "49338", "addr:state": "MI", "brand": "USPS", "collection_times": "Mo-Sa 13:30", "name": "USPS COLLECTION BOX - PO LOBBY", "note": "ON 12/24 AND 12/31, THIS BOX MAY BE COLLECTED AS EARLY AS 12 NOON.", "ref": "4933800003"}, "type": "Feature"}
{"geometry": {"coordinates": [-85.4973166, 43.31921], "type": "Point"}, "id": "bSP_v6QwEzlk1UJJlWbMY4S9fRw=", "properties": {"@spider": "usps_collection_boxes", "addr:city": "PIERSON", "addr:country": "US", "addr:full": "7 S 4TH ST", "addr:postcode": "49339", "addr:state": "MI", "brand": "USPS", "collection_times": "Mo-Fr 14:00; Sa 10:45", "name": "USPS COLLECTION BOX - BLUE BOX", "note": "ON 12/24 AND 12/31, THIS BOX MAY BE COLLECTED AS EARLY AS 12 NOON.", "ref": "4933900001"}, "type": "Feature"}
{"geometry": {"coordinates": [-85.498102, 43.317732], "type": "Point"}, "id": "-_KqAa5gYRYZjy7dDLcFLlgg0hA=", "properties": {"@spider": "usps_collection_boxes", "addr:city": "PIERSON", "addr:country": "US", "addr:full": "7 S 4TH ST", "addr:postcode": "49339", "addr:state": "MI", "brand": "USPS", "collection_times": "Mo-Fr 11:30; Sa 10:45", "name": "USPS COLLECTION BOX - PO LOBBY", "ref": "4933900002"}, "type": "Feature"}
{"geometry": {"coordinates": [-85.497534888, 43.318740523], "type": "Point"}, "id": "Pi8IhXSj7rubVsL7YjkAq3rlFik=", "properties": {"@spider": "usps_collection_boxes", "addr:city": "PIERSON", "addr:country": "US", "addr:full": "7 S 4TH ST", "addr:postcode": "49339", "addr:state": "MI", "brand": "USPS", "collection_times": "Mo-Fr 11:00; Sa 12:00", "name": "USPS COLLECTION BOX - PO LOBBY", "ref": "4933900003"}, "type": "Feature"}
{"geometry": {"coordinates": [-85.148036, 43.596536], "type": "Point"}, "id": "WoTBP95s2gZsmN35AsrF8D_Zk-k=", "properties": {"@spider": "usps_collection_boxes", "addr:city": "REMUS", "addr:country": "US", "addr:full": "302 W WHEATLAND AVE", "addr:postcode": "49340", "addr:state": "MI", "brand": "USPS", "collection_times": "Mo-Fr 15:05; Sa 10:00", "name": "USPS COLLECTION BOX - BLUE BOX", "note": "ON 12/24 AND 12/31, THIS BOX MAY BE COLLECTED AS EARLY AS 12 NOON.", "ref": "4934000002"}, "type": "Feature"}
{"geometry": {"coordinates": [-85.148036, 43.596536], "type": "Point"}, "id": "iRONXS8zQAMCUDnkyHYHn0sq6KI=", "properties": {"@spider": "usps_collection_boxes", "addr:city": "REMUS", "addr:country": "US", "addr:full": "302 W WHEATLAND AVE", "addr:postcode": "49340", "addr:state": "MI", "brand": "USPS", "collection_times": "Mo-Fr 15:05; Sa 10:00", "name": "USPS COLLECTION BOX - PO LOBBY", "note": "ON 12/24 AND 12/31, THIS BOX MAY BE COLLECTED AS EARLY AS 12 NOON.", "ref": "4934000003"}, "type": "Feature"}
{"geometry": {"coordinates": [-85.148064264, 43.5965829], "type": "Point"}, "id": "k8UQYlnyGnkYxDwLnpRH7hEldRU=", "properties": {"@spider": "usps_collection_boxes", "addr:city": "REMUS", "addr:country": "US", "addr:full": "302 W WHEATLAND AVE", "addr:postcode": "49340", "addr:state": "MI", "brand": "USPS", "collection_times": "Mo-Fr 15:30; Sa 10:00", "name": "USPS COLLECTION BOX - PO LOBBY", "note": "ON 12/24 AND 12/31, THIS BOX MAY BE COLLECTED AS EARLY AS 12 NOON.", "ref": "4934000004"}, "type": "Feature"}
{"geometry": {"coordinates": [-85.5499713, 43.116829], "type": "Point"}, "id": "zuZnxCDPH3SjYCPaxzjbf-gXYQc=", "properties": {"@spider": "usps_collection_boxes", "addr:city": "ROCKFORD", "addr:country": "US", "addr:full": "400 E DIVISION ST", "addr:postcode": "49341", "addr:state": "MI", "brand": "USPS", "collection_times": "Mo-Sa 09:00", "name": "USPS COLLECTION BOX - BLUE BOX", "ref": "4934100005"}, "type": "Feature"}
{"geometry": {"coordinates": [-85.545676438, 43.116746668], "type": "Point"}, "id": "u4Rp1cYxrfmyB60XuF4yrdzsYI0=", "properties": {"@spider": "usps_collection_boxes", "addr:city": "ROCKFORD", "addr:country": "US", "addr:full": "185 MARCELL DR NE", "addr:postcode": "49341", "addr:state": "MI", "brand": "USPS", "collection_times": "Mo-Sa 09:00", "name": "USPS COLLECTION BOX - BLUE BOX", "ref": "4934100006"}, "type": "Feature"}
{"geometry": {"coordinates": [-85.5597931, 43.118691], "type": "Point"}, "id": "fHRiFSvwm__fzB8pb59p37MZUaM=", "properties": {"@spider": "usps_collection_boxes", "addr:city": "ROCKFORD", "addr:country": "US", "addr:full": "23 S MAIN ST", "addr:postcode": "49341", "addr:state": "MI", "brand": "USPS", "collection_times": "Mo-Fr 13:00; Sa 12:00", "name": "USPS COLLECTION BOX - BLUE BOX", "note": "ON 12/24 AND 12/31, THIS BOX MAY BE COLLECTED AS EARLY AS 12 NOON.", "ref": "4934100007"}, "type": "Feature"}
{"geometry": {"coordinates": [-85.56035, 43.120892], "type": "Point"}, "id": "7P8leSYsH8B4aTF32Ipn9socPmY=", "properties": {"@spider": "usps_collection_boxes", "addr:city": "ROCKFORD", "addr:country": "US", "addr:full": "57 COURTLAND ST", "addr:postcode": "49341", "addr:state": "MI", "brand": "USPS", "collection_times": "Mo-Fr 17:00; Sa 12:00", "name": "USPS COLLECTION BOX - BLUE BOX", "note": "ON 12/24 AND 12/31, THIS BOX MAY BE COLLECTED AS EARLY AS 12 NOON.", "ref": "4934100008"}, "type": "Feature"}
{"geometry": {"coordinates": [-85.560399, 43.120865], "type": "Point"}, "id": "u4OhMCPTYJ53lF3JntR2rquWnbI=", "properties": {"@spider": "usps_collection_boxes", "addr:city": "ROCKFORD", "addr:country": "US", "addr:full": "57 COURTLAND ST", "addr:postcode": "49341", "addr:state": "MI", "brand": "USPS", "collection_times": "Mo-Fr 17:00; Sa 12:00", "name": "USPS COLLECTION BOX - BLUE BOX", "note": "ON 12/24 AND 12/31, THIS BOX MAY BE COLLECTED AS EARLY AS 12 NOON.", "ref": "4934100009"}, "type": "Feature"}
{"geometry": {"coordinates": [-85.5608912, 43.088513], "type": "Point"}, "id": "ZW1GpQnbIFGWAh0P9PcdVWvTLHs=", "properties": {"@spider": "usps_collection_boxes", "addr:city": "ROCKFORD", "addr:country": "US", "addr:full": "6737 NORTHLAND DR NE", "addr:postcode": "49341", "addr:state": "MI", "brand": "USPS", "collection_times": "Mo-Sa 09:30", "name": "USPS COLLECTION BOX - BLUE BOX", "ref": "4934100012"}, "type": "Feature"}
{"geometry": {"coordinates": [-85.5535057, 43.117291], "type": "Point"}, "id": "pDwP_JhwAFajj-RUmyG_FWWAuCs=", "properties": {"@spider": "usps_collection_boxes", "addr:city": "ROCKFORD", "addr:country": "US", "addr:full": "111 S LINCOLN ST", "addr:postcode": "49341", "addr:state": "MI", "brand": "USPS", "collection_times": "Mo-Sa 09:00", "name": "USPS COLLECTION BOX - BLUE BOX", "ref": "4934100014"}, "type": "Feature"}
{"geometry": {"coordinates": [-85.5582811, 43.115763], "type": "Point"}, "id": "iAoy4jiluPTBsLh7u_fznbhN8Lw=", "properties": {"@spider": "usps_collection_boxes", "addr:city": "ROCKFORD", "addr:country": "US", "addr:full": "161 S MONROE ST", "addr:postcode": "49341", "addr:state": "MI", "brand": "USPS", "collection_times": "Mo-Sa 08:45", "name": "USPS COLLECTION BOX - BLUE BOX", "ref": "4934100018"}, "type": "Feature"}
{"geometry": {"coordinates": [-85.4981447, 43.08562], "type": "Point"}, "id": "ZWjIVeqzCVMl8q2dpobreBUHy9s=", "properties": {"@spider": "usps_collection_boxes", "addr:city": "ROCKFORD", "addr:country": "US", "addr:full": "6878 BELDING RD NE", "addr:postcode": "49341", "addr:state": "MI", "brand": "USPS", "collection_times": "Mo-Sa 10:00", "name": "USPS COLLECTION BOX - BLUE BOX", "ref": "4934100020"}, "type": "Feature"}
{"geometry": {"coordinates": [-85.5596091, 43.159131], "type": "Point"}, "id": "8IF67vEE41XMkR5h65g4Zdeo4Sg=", "properties": {"@spider": "usps_collection_boxes", "addr:city": "ROCKFORD", "addr:country": "US", "addr:full": "10678 GALAXY DR NE", "addr:postcode": "49341", "addr:state": "MI", "brand": "USPS", "collection_times": "Mo-Sa 10:00", "name": "USPS COLLECTION BOX - BLUE BOX", "ref": "4934100022"}, "type": "Feature"}
{"geometry": {"coordinates": [-85.560399, 43.120865], "type": "Point"}, "id": "QdGhCN6xHPLlxdTTKM6qRZ178ac=", "properties": {"@spider": "usps_collection_boxes", "addr:city": "ROCKFORD", "addr:country": "US", "addr:full": "57 COURTLAND ST", "addr:postcode": "49341", "addr:state": "MI", "brand": "USPS", "collection_times": "Mo-Fr 17:00; Sa 12:00", "name": "USPS COLLECTION BOX - PO LOBBY", "note": "ON 12/24 AND 12/31, THIS BOX MAY BE COLLECTED AS EARLY AS 12 NOON.", "ref": "4934100023"}, "type": "Feature"}
{"geometry": {"coordinates": [-85.6018929, 43.117191], "type": "Point"}, "id": "Ens3MsDWyfUvR8C3nVbVC4stVmI=", "properties": {"@spider": "usps_collection_boxes", "addr:city": "ROCKFORD", "addr:country": "US", "addr:full": "2745 10 MILE RD NE", "addr:postcode": "49341", "addr:state": "MI", "brand": "USPS", "collection_times": "Mo-Sa 12:00", "name": "USPS COLLECTION BOX - BLUE BOX", "ref": "4934100025"}, "type": "Feature"}
{"geometry": {"coordinates": [-85.5020713, 43.087101], "type": "Point"}, "id": "Z6HpuZP5tZCwR68GtOahukqbkw8=", "properties": {"@spider": "usps_collection_boxes", "addr:city": "ROCKFORD", "addr:country": "US", "addr:full": "6767 BELDING RD NE", "addr:postcode": "49341", "addr:state": "MI", "brand": "USPS", "collection_times": "Mo-Sa 11:00", "name": "USPS COLLECTION BOX - BLUE BOX", "ref": "4934100026"}, "type": "Feature"}
{"geometry": {"coordinates": [-85.560264168, 43.120885534], "type": "Point"}, "id": "MR0JzYRJo827qlUDcdlvD7YAeRQ=", "properties": {"@spider": "usps_collection_boxes", "addr:city": "ROCKFORD", "addr:country": "US", "addr:full": "57 COURTLAND ST", "addr:postcode": "49341", "addr:state": "MI", "brand": "USPS", "collection_times": "Mo-Fr 16:30; Sa 11:30", "name": "USPS COLLECTION BOX - PO LOBBY", "note": "ON 12/24 AND 12/31, THIS BOX MAY BE COLLECTED AS EARLY AS 12 NOON.", "ref": "4934100027"}, "type": "Feature"}
{"geometry": {"coordinates": [-85.327979, 43.673549], "type": "Point"}, "id": "TL_AENks7VK3jUDGz6p92rWtSco=", "properties": {"@spider": "usps_collection_boxes", "addr:city": "RODNEY", "addr:country": "US", "addr:full": "12190 MCKINLEY RD", "addr:postcode": "49342", "addr:state": "MI", "brand": "USPS", "collection_times": "Mo-Fr 14:00; Sa 10:45", "name": "USPS COLLECTION BOX - BLUE BOX", "note": "ON 12/24 AND 12/31, THIS BOX MAY BE COLLECTED AS EARLY AS 12 NOON.", "ref": "4934200001"}, "type": "Feature"}
{"geometry": {"coordinates": [-85.3278857, 43.67373], "type": "Point"}, "id": "pDvvxl5eTop2lZAAOKIvfsVMUvk=", "properties": {"@spider": "usps_collection_boxes", "addr:city": "RODNEY", "addr:country": "US", "addr:full": "12190 MCKINLEY RD", "addr:postcode": "49342", "addr:state": "MI", "brand": "USPS", "collection_times": "Mo-Fr 14:00; Sa 10:45", "name": "USPS COLLECTION BOX - PO LOBBY", "note": "ON 12/24 AND 12/31, THIS BOX MAY BE COLLECTED AS EARLY AS 12 NOON.", "ref": "4934200002"}, "type": "Feature"}
{"geometry": {"coordinates": [-85.327978784, 43.673595402], "type": "Point"}, "id": "A_iG6C5WB6SWkKpzdoWfrxdiA4w=", "properties": {"@spider": "usps_collection_boxes", "addr:city": "RODNEY", "addr:country": "US", "addr:full": "12190 MCKINLEY RD", "addr:postcode": "49342", "addr:state": "MI", "brand": "USPS", "collection_times": "Mo-Fr 13:30", "name": "USPS COLLECTION BOX - PO LOBBY", "note": "ON 12/24 AND 12/31, THIS BOX MAY BE COLLECTED AS EARLY AS 12 NOON.", "ref": "4934200003"}, "type": "Feature"}
{"geometry": {"coordinates": [-85.516171, 43.293111], "type": "Point"}, "id": "EFRgUSRuNBlkZNnjiQhSBsf6Rb0=", "properties": {"@spider": "usps_collection_boxes", "addr:city": "SAND LAKE", "addr:country": "US", "addr:full": "20 E MAPLE ST", "addr:postcode": "49343", "addr:state": "MI", "brand": "USPS", "collection_times": "Mo-Fr 16:00; Sa 12:00", "name": "USPS COLLECTION BOX - BLUE BOX", "note": "ON 12/24 AND 12/31, THIS BOX MAY BE COLLECTED AS EARLY AS 12 NOON.", "ref": "4934300000"}, "type": "Feature"}
{"geometry": {"coordinates": [-85.516171, 43.293111], "type": "Point"}, "id": "50IVszQ02jhEY1t2uXp9nfXejAw=", "properties": {"@spider": "usps_collection_boxes", "addr:city": "SAND LAKE", "addr:country": "US", "addr:full": "20 E MAPLE ST", "addr:postcode": "49343", "addr:state": "MI", "brand": "USPS", "collection_times": "Mo-Fr 16:00; Sa 12:00", "name": "USPS COLLECTION BOX - PO LOBBY", "note": "ON 12/24 AND 12/31, THIS BOX MAY BE COLLECTED AS EARLY AS 12 NOON.", "ref": "4934300001"}, "type": "Feature"}
{"geometry": {"coordinates": [-85.516174142, 43.293107496], "type": "Point"}, "id": "lu4oX99902Rz50S6Vkg1uSZiF9I=", "properties": {"@spider": "usps_collection_boxes", "addr:city": "SAND LAKE", "addr:country": "US", "addr:full": "20 E MAPLE ST", "addr:postcode": "49343", "addr:state": "MI", "brand": "USPS", "collection_times": "Mo-Fr 16:00; Sa 10:30", "name": "USPS COLLECTION BOX - PO LOBBY", "note": "ON 12/24 AND 12/31, THIS BOX MAY BE COLLECTED AS EARLY AS 12 NOON.", "ref": "4934300002"}, "type": "Feature"}
{"geometry": {"coordinates": [-85.709272, 43.160761], "type": "Point"}, "id": "sC7t_XizVXkWnZ-CM-nU-c1nEic=", "properties": {"@spider": "usps_collection_boxes", "addr:city": "SPARTA", "addr:country": "US", "addr:full": "34 E DIVISION ST", "addr:postcode": "49345", "addr:state": "MI", "brand": "USPS", "collection_times": "Mo-Fr 17:00; Sa 12:00", "name": "USPS COLLECTION BOX - BLUE BOX", "note": "ON 12/24 AND 12/31, THIS BOX MAY BE COLLECTED AS EARLY AS 12 NOON.", "ref": "4934500004"}, "type": "Feature"}
{"geometry": {"coordinates": [-85.7111049, 43.148059], "type": "Point"}, "id": "EIIveGQVtuZ5DNNaKYa2dw2eOFo=", "properties": {"@spider": "usps_collection_boxes", "addr:city": "SPARTA", "addr:country": "US", "addr:full": "565 S STATE ST", "addr:postcode": "49345", "addr:state": "MI", "brand": "USPS", "collection_times": "Mo-Sa 12:00", "name": "USPS COLLECTION BOX - BLUE BOX", "ref": "4934500018"}, "type": "Feature"}
{"geometry": {"coordinates": [-85.7069413, 43.161189], "type": "Point"}, "id": "6udlIUJaAcYjH0vs6cRak_1BenM=", "properties": {"@spider": "usps_collection_boxes", "addr:city": "SPARTA", "addr:country": "US", "addr:full": "38 N UNION ST", "addr:postcode": "49345", "addr:state": "MI", "brand": "USPS", "collection_times": "Mo-Sa 12:00", "name": "USPS COLLECTION BOX - BLUE BOX", "ref": "4934500020"}, "type": "Feature"}
{"geometry": {"coordinates": [-85.709223, 43.160787], "type": "Point"}, "id": "h1bkQ-NcKuJfzIb9zJF6yN6XGr8=", "properties": {"@spider": "usps_collection_boxes", "addr:city": "SPARTA", "addr:country": "US", "addr:full": "34 E DIVISION ST", "addr:postcode": "49345", "addr:state": "MI", "brand": "USPS", "collection_times": "Mo-Fr 17:00; Sa 12:00", "name": "USPS COLLECTION BOX - PO LOBBY", "note": "ON 12/24 AND 12/31, THIS BOX MAY BE COLLECTED AS EARLY AS 12 NOON.", "ref": "4934500023"}, "type": "Feature"}
{"geometry": {"coordinates": [-85.709222445, 43.16075051], "type": "Point"}, "id": "F56NINGa5c0v5y6CanX0TD5ZVmU=", "properties": {"@spider": "usps_collection_boxes", "addr:city": "SPARTA", "addr:country": "US", "addr:full": "34 E DIVISION ST", "addr:postcode": "49345", "addr:state": "MI", "brand": "USPS", "collection_times": "Mo-Fr 16:30; Sa 11:30", "name": "USPS COLLECTION BOX - PO LOBBY", "note": "ON 12/24 AND 12/31, THIS BOX MAY BE COLLECTED AS EARLY AS 12 NOON.", "ref": "4934500024"}, "type": "Feature"}
{"geometry": {"coordinates": [-85.2858078, 43.59008], "type": "Point"}, "id": "m4MseKBUbYs3qvgEG6kWUBS7LaE=", "properties": {"@spider": "usps_collection_boxes", "addr:city": "STANWOOD", "addr:country": "US", "addr:full": "10039 BUCHANAN RD", "addr:postcode": "49346", "addr:state": "MI", "brand": "USPS", "collection_times": "Mo-Fr 12:00; Sa 11:00", "name": "USPS COLLECTION BOX - BLUE BOX", "ref": "4934600001"}, "type": "Feature"}
{"geometry": {"coordinates": [-85.451848, 43.579186], "type": "Point"}, "id": "C5M2nFfHza_JImJvp_ur2wMFb34=", "properties": {"@spider": "usps_collection_boxes", "addr:city": "STANWOOD", "addr:country": "US", "addr:full": "7551 NORTHLAND DR", "addr:postcode": "49346", "addr:state": "MI", "brand": "USPS", "collection_times": "Mo-Fr 16:00; Sa 11:00", "name": "USPS COLLECTION BOX - BLUE BOX", "note": "ON 12/24 AND 12/31, THIS BOX MAY BE COLLECTED AS EARLY AS 12 NOON.", "ref": "4934600005"}, "type": "Feature"}
{"geometry": {"coordinates": [-85.451848, 43.579186], "type": "Point"}, "id": "c8UoqwQpOQpK2xwG1B6mdA2SyP8=", "properties": {"@spider": "usps_collection_boxes", "addr:city": "STANWOOD", "addr:country": "US", "addr:full": "7551 NORTHLAND DR", "addr:postcode": "49346", "addr:state": "MI", "brand": "USPS", "collection_times": "Mo-Fr 16:00; Sa 11:00", "name": "USPS COLLECTION BOX - PO LOBBY", "note": "ON 12/24 AND 12/31, THIS BOX MAY BE COLLECTED AS EARLY AS 12 NOON.", "ref": "4934600006"}, "type": "Feature"}
{"geometry": {"coordinates": [-85.451870149, 43.579142922], "type": "Point"}, "id": "K1TDV8aLxoRIJTXqfBpeSKd3hrs=", "properties": {"@spider": "usps_collection_boxes", "addr:city": "STANWOOD", "addr:country": "US", "addr:full": "7551 NORTHLAND DR", "addr:postcode": "49346", "addr:state": "MI", "brand": "USPS", "collection_times": "Mo-Fr 15:30; Sa 10:30", "name": "USPS COLLECTION BOX - PO LOBBY", "note": "ON 12/24 AND 12/31, THIS BOX MAY BE COLLECTED AS EARLY AS 12 NOON.", "ref": "4934600007"}, "type": "Feature"}
{"geometry": {"coordinates": [-85.357679, 43.312323], "type": "Point"}, "id": "C1AFNefwOhexXFswj9_yuuLKyRw=", "properties": {"@spider": "usps_collection_boxes", "addr:city": "TRUFANT", "addr:country": "US", "addr:full": "113 W 2ND ST", "addr:postcode": "49347", "addr:state": "MI", "brand": "USPS", "collection_times": "Mo-Fr 16:00; Sa 09:45", "name": "USPS COLLECTION BOX - BLUE BOX", "note": "ON 12/24 AND 12/31, THIS BOX MAY BE COLLECTED AS EARLY AS 12 NOON.", "ref": "4934700001"}, "type": "Feature"}
{"geometry": {"coordinates": [-85.357679, 43.312323], "type": "Point"}, "id": "LoiWIF1_0tIC9LGiz5YItAKhzSU=", "properties": {"@spider": "usps_collection_boxes", "addr:city": "TRUFANT", "addr:country": "US", "addr:full": "113 W 2ND ST", "addr:postcode": "49347", "addr:state": "MI", "brand": "USPS", "collection_times": "Mo-Fr 16:00; Sa 09:45", "name": "USPS COLLECTION BOX - PO LOBBY", "note": "ON 12/24 AND 12/31, THIS BOX MAY BE COLLECTED AS EARLY AS 12 NOON.", "ref": "4934700003"}, "type": "Feature"}
{"geometry": {"coordinates": [-85.3551026, 43.313773], "type": "Point"}, "id": "hE2KRfQC_9OzRmaW3CU9stGRMb4=", "properties": {"@spider": "usps_collection_boxes", "addr:city": "TRUFANT", "addr:country": "US", "addr:full": "106 W 2ND ST", "addr:postcode": "49347", "addr:state": "MI", "brand": "USPS", "collection_times": "Mo-Sa 12:00", "name": "USPS COLLECTION BOX - BLUE BOX", "ref": "4934700005"}, "type": "Feature"}
{"geometry": {"coordinates": [-85.354972171, 43.313623631], "type": "Point"}, "id": "f1dRKepHqj7yoOhTJpre6nomJKE=", "properties": {"@spider": "usps_collection_boxes", "addr:city": "TRUFANT", "addr:country": "US", "addr:full": "113 W 2ND ST", "addr:postcode": "49347", "addr:state": "MI", "brand": "USPS", "collection_times": "Mo-Fr 16:00", "name": "USPS COLLECTION BOX - PO LOBBY", "note": "ON 12/24 AND 12/31, THIS BOX MAY BE COLLECTED AS EARLY AS 12 NOON.", "ref": "4934700006"}, "type": "Feature"}
{"geometry": {"coordinates": [-85.774375, 43.550158], "type": "Point"}, "id": "qqHfpnzUupjf8jxoFCHJo-BuZBQ=", "properties": {"@spider": "usps_collection_boxes", "addr:city": "WHITE CLOUD", "addr:country": "US", "addr:full": "1097 E WILCOX AVE", "addr:postcode": "49349", "addr:state": "MI", "brand": "USPS", "collection_times": "Mo-Fr 16:00; Sa 13:00", "name": "USPS COLLECTION BOX - BLUE BOX", "note": "ON 12/24 AND 12/31, THIS BOX MAY BE COLLECTED AS EARLY AS 12 NOON.", "ref": "4934900001"}, "type": "Feature"}
{"geometry": {"coordinates": [-85.774375, 43.550158], "type": "Point"}, "id": "oXXreUWXQHYHFgOph3ceO-Djrkg=", "properties": {"@spider": "usps_collection_boxes", "addr:city": "WHITE CLOUD", "addr:country": "US", "addr:full": "1097 E WILCOX AVE", "addr:postcode": "49349", "addr:state": "MI", "brand": "USPS", "collection_times": "Mo-Fr 16:00; Sa 13:00", "name": "USPS COLLECTION BOX - BLUE BOX", "note": "ON 12/24 AND 12/31, THIS BOX MAY BE COLLECTED AS EARLY AS 12 NOON.", "ref": "4934900002"}, "type": "Feature"}
{"geometry": {"coordinates": [-85.7745259, 43.550314], "type": "Point"}, "id": "XrO_Mhe3a06YHXAZN3W5JHorfd0=", "properties": {"@spider": "usps_collection_boxes", "addr:city": "WHITE CLOUD", "addr:country": "US", "addr:full": "1097 E WILCOX AVE", "addr:postcode": "49349", "addr:state": "MI", "brand": "USPS", "collection_times": "Mo-Fr 16:00; Sa 13:00", "name": "USPS COLLECTION BOX - PO LOBBY", "note": "ON 12/24 AND 12/31, THIS BOX MAY BE COLLECTED AS EARLY AS 12 NOON.", "ref": "4934900003"}, "type": "Feature"}
{"geometry": {"coordinates": [-85.7727779, 43.552858], "type": "Point"}, "id": "6ZeSPFrXX3bQJ_XP7byPz910zcQ=", "properties": {"@spider": "usps_collection_boxes", "addr:city": "WHITE CLOUD", "addr:country": "US", "addr:full": "47 S CHARLES ST", "addr:postcode": "49349", "addr:state": "MI", "brand": "USPS", "collection_times": "Mo-Sa 13:00", "name": "USPS COLLECTION BOX - BLUE BOX", "note": "ON 12/24 AND 12/31, THIS BOX MAY BE COLLECTED AS EARLY AS 12 NOON.", "ref": "4934900005"}, "type": "Feature"}
{"geometry": {"coordinates": [-85.774383028, 43.550204962], "type": "Point"}, "id": "8-xy4SC-3sUjaLR82YsePJq4AsM=", "properties": {"@spider": "usps_collection_boxes", "addr:city": "WHITE CLOUD", "addr:country": "US", "addr:full": "1097 E WILCOX AVE", "addr:postcode": "49349", "addr:state": "MI", "brand": "USPS", "collection_times": "Mo-Fr 16:30; Sa 11:30", "name": "USPS COLLECTION BOX - PO LOBBY", "note": "ON 12/24 AND 12/31, THIS BOX MAY BE COLLECTED AS EARLY AS 12 NOON.", "ref": "4934900006"}, "type": "Feature"}
