{"geometry": {"coordinates": [-85.672952, 42.970404], "type": "Point"}, "id": "TBsQMY54Vwp2P7R8MPMbdSfL4xE=", "properties": {"@source_uri": "https://tools.usps.com/UspsToolsRestServices/rest/POLocator/findLocations", "@spider": "usps_collection_boxes", "addr:city": "GRAND RAPIDS", "addr:country": "US", "addr:postcode": "49501", "addr:state": "MI", "addr:street_address": "225 MICHIGAN ST NW", "amenity": "post_box", "collection_times": "Mo-Sa 18:00", "note": "ON 12/24 AND 12/31, THIS BOX MAY BE COLLECTED AS EARLY AS 12 NOON.", "nsi_id": "unitedstatespostalservice-a77078", "operator": "United States Postal Service", "operator:short": "USPS", "operator:type": "public", "operator:wikidata": "Q668687", "ref": "4950100012"}, "type": "Feature"}
{"geometry": {"coordinates": [-85.672907, 42.970377], "type": "Point"}, "id": "dWpuRcs2RBaMGOAv-bpE9pcjOYs=", "properties": {"@source_uri": "https://tools.usps.com/UspsToolsRestServices/rest/POLocator/findLocations", "@spider": "usps_collection_boxes", "addr:city": "GRAND RAPIDS", "addr:country": "US", "addr:postcode": "49501", "addr:state": "MI", "addr:street_address": "225 MICHIGAN ST NW", "amenity": "post_box", "collection_times": "Mo-Sa 18:00", "note": "ON 12/24 AND 12/31, THIS BOX MAY BE COLLECTED AS EARLY AS 12 NOON.", "nsi_id": "unitedstatespostalservice-a77078", "operator": "United States Postal Service", "operator:short": "USPS", "operator:type": "public", "operator:wikidata": "Q668687", "ref": "4950100014"}, "type": "Feature"}
{"geometry": {"coordinates": [-85.672907, 42.970377], "type": "Point"}, "id": "CkL8dvZOi-XrCm4HRneuNYJWVCk=", "properties": {"@source_uri": "https://tools.usps.com/UspsToolsRestServices/rest/POLocator/findLocations", "@spider": "usps_collection_boxes", "addr:city": "GRAND RAPIDS", "addr:country": "US", "addr:postcode": "49501", "addr:state": "MI", "addr:street_address": "225 MICHIGAN ST NW", "amenity": "post_box", "collection_times": "Mo-Sa 18:00", "name": "USPS COLLECTION BOX - APC", "note": "ON 12/24 AND 12/31, THIS BOX MAY BE COLLECTED AS EARLY AS 12 NOON.", "nsi_id": "unitedstatespostalservice-a77078", "operator": "United States Postal Service", "operator:short": "USPS", "operator:type": "public", "operator:wikidata": "Q668687", "ref": "4950100015"}, "type": "Feature"}
{"geometry": {"coordinates": [-85.6381571, 42.976094], "type": "Point"}, "id": "vyzlgENETGOUuWUYB2CbqlZd6dI=", "properties": {"@source_uri": "https://tools.usps.com/UspsToolsRestServices/rest/POLocator/findLocations", "@spider": "usps_collection_boxes", "addr:city": "GRAND RAPIDS", "addr:country": "US", "addr:postcode": "49503", "addr:state": "MI", "addr:street_address": "750 FULLER AVE NE", "amenity": "post_box", "collection_times": "Mo-Sa 09:00", "nsi_id": "unitedstatespostalservice-a77078", "operator": "United States Postal Service", "operator:short": "USPS", "operator:type": "public", "operator:wikidata": "Q668687", "ref": "4950300018"}, "type": "Feature"}
{"geometry": {"coordinates": [-85.662774, 42.963507], "type": "Point"}, "id": "Jkn7aiLFRCNL8L4w4zRoXL1ub5k=", "properties": {"@source_uri": "https://tools.usps.com/UspsToolsRestServices/rest/POLocator/findLocations", "@spider": "usps_collection_boxes", "addr:city": "GRAND RAPIDS", "addr:country": "US", "addr:postcode": "49503", "addr:state": "MI", "addr:street_address": "233 FULTON ST E", "amenity": "post_box", "collection_times": "Mo-Sa 08:30", "nsi_id": "unitedstatespostalservice-a77078", "operator": "United States Postal Service", "operator:short": "USPS", "operator:type": "public", "operator:wikidata": "Q668687", "ref": "4950300021"}, "type": "Feature"}
{"geometry": {"coordinates": [-85.63563, 42.963822], "type": "Point"}, "id": "Gt5Wwa_ZKzSfmbGVrhtrZXBZ9bM=", "properties": {"@source_uri": "https://tools.usps.com/UspsToolsRestServices/rest/POLocator/findLocations", "@spider": "usps_collection_boxes", "addr:city": "GRAND RAPIDS", "addr:country": "US", "addr:postcode": "49503", "addr:state": "MI", "addr:street_address": "1415 FULTON ST E", "amenity": "post_box", "collection_times": "Mo-Sa 12:30", "note": "ON 12/24 AND 12/31, THIS BOX MAY BE COLLECTED AS EARLY AS 12 NOON.", "nsi_id": "unitedstatespostalservice-a77078", "operator": "United States Postal Service", "operator:short": "USPS", "operator:type": "public", "operator:wikidata": "Q668687", "ref": "4950300025"}, "type": "Feature"}
{"geometry": {"coordinates": [-85.662396, 42.95835], "type": "Point"}, "id": "dtEGlE3HIstDpkbg-LlErZ4LIxY=", "properties": {"@source_uri": "https://tools.usps.com/UspsToolsRestServices/rest/POLocator/findLocations", "@spider": "usps_collection_boxes", "addr:city": "GRAND RAPIDS", "addr:country": "US", "addr:postcode": "49503", "addr:state": "MI", "addr:street_address": "200 JEFFERSON AVE SE", "amenity": "post_box", "collection_times": "Mo-Sa 08:00", "nsi_id": "unitedstatespostalservice-a77078", "operator": "United States Postal Service", "operator:short": "USPS", "operator:type": "public", "operator:wikidata": "Q668687", "ref": "4950300032"}, "type": "Feature"}
{"geometry": {"coordinates": [-85.6705299605, 42.9656800176], "type": "Point"}, "id": "YJEAWrf_iTnMJKkIu5X_TrRLU1Q=", "properties": {"@source_uri": "https://tools.usps.com/UspsToolsRestServices/rest/POLocator/findLocations", "@spider": "usps_collection_boxes", "addr:city": "GRAND RAPIDS", "addr:country": "US", "addr:postcode": "49503", "addr:state": "MI", "addr:street_address": "120 MONROE CENTER ST NW", "amenity": "post_box", "collection_times": "Mo-Sa 14:00", "note": "ON 12/24 AND 12/31, THIS BOX MAY BE COLLECTED AS EARLY AS 12 NOON.", "nsi_id": "unitedstatespostalservice-a77078", "operator": "United States Postal Service", "operator:short": "USPS", "operator:type": "public", "operator:wikidata": "Q668687", "ref": "4950300081"}, "type": "Feature"}
{"geometry": {"coordinates": [-85.669882039, 42.965271987], "type": "Point"}, "id": "pCQ0X0w5ckLq3cdXdaYxr8R7no4=", "properties": {"@source_uri": "https://tools.usps.com/UspsToolsRestServices/rest/POLocator/findLocations", "@spider": "usps_collection_boxes", "addr:city": "GRAND RAPIDS", "addr:country": "US", "addr:postcode": "49503", "addr:state": "MI", "addr:street_address": "98 OTTAWA AVE NW", "amenity": "post_box", "collection_times": "Mo-Sa 13:30", "note": "ON 12/24 AND 12/31, THIS BOX MAY BE COLLECTED AS EARLY AS 12 NOON.", "nsi_id": "unitedstatespostalservice-a77078", "operator": "United States Postal Service", "operator:short": "USPS", "operator:type": "public", "operator:wikidata": "Q668687", "ref": "4950300087"}, "type": "Feature"}
{"geometry": {"coordinates": [-85.6301285, 42.978366], "type": "Point"}, "id": "hbF69UfahOTGZxKgDGCaWAaESMU=", "properties": {"@source_uri": "https://tools.usps.com/UspsToolsRestServices/rest/POLocator/findLocations", "@spider": "usps_collection_boxes", "addr:city": "GRAND RAPIDS", "addr:country": "US", "addr:postcode": "49503", "addr:state": "MI", "addr:street_address": "1540 MASON ST NE", "amenity": "post_box", "collection_times": "Mo-Sa 10:00", "nsi_id": "unitedstatespostalservice-a77078", "operator": "United States Postal Service", "operator:short": "USPS", "operator:type": "public", "operator:wikidata": "Q668687", "ref": "4950300097"}, "type": "Feature"}
{"geometry": {"coordinates": [-85.668265, 42.9632], "type": "Point"}, "id": "Jf6k1-0NahDV35e9jpIKGlStylg=", "properties": {"@source_uri": "https://tools.usps.com/UspsToolsRestServices/rest/POLocator/findLocations", "@spider": "usps_collection_boxes", "addr:city": "GRAND RAPIDS", "addr:country": "US", "addr:postcode": "49503", "addr:state": "MI", "addr:street_address": "499 CHERRY ST SE", "amenity": "post_box", "collection_times": "Mo-Sa 12:00", "nsi_id": "unitedstatespostalservice-a77078", "operator": "United States Postal Service", "operator:short": "USPS", "operator:type": "public", "operator:wikidata": "Q668687", "ref": "4950300105"}, "type": "Feature"}
{"geometry": {"coordinates": [-85.669035548, 42.968032009], "type": "Point"}, "id": "U-awhy_Zsph1nUMYJ-lMRt3vloY=", "properties": {"@source_uri": "https://tools.usps.com/UspsToolsRestServices/rest/POLocator/findLocations", "@spider": "usps_collection_boxes", "addr:city": "GRAND RAPIDS", "addr:country": "US", "addr:postcode": "49503", "addr:state": "MI", "addr:street_address": "251 IONIA AVE NW", "amenity": "post_box", "collection_times": "Mo-Sa 08:00", "nsi_id": "unitedstatespostalservice-a77078", "operator": "United States Postal Service", "operator:short": "USPS", "operator:type": "public", "operator:wikidata": "Q668687", "ref": "4950300112"}, "type": "Feature"}
{"geometry": {"coordinates": [-85.668265, 42.9632], "type": "Point"}, "id": "oP1VIYHn5FMTRR7l-moahJSSxcg=", "properties": {"@source_uri": "https://tools.usps.com/UspsToolsRestServices/rest/POLocator/findLocations", "@spider": "usps_collection_boxes", "addr:city": "GRAND RAPIDS", "addr:country": "US", "addr:postcode": "49503", "addr:state": "MI", "addr:street_address": "5 IONIA AVE SW", "amenity": "post_box", "collection_times": "Mo-Sa 08:00", "nsi_id": "unitedstatespostalservice-a77078", "operator": "United States Postal Service", "operator:short": "USPS", "operator:type": "public", "operator:wikidata": "Q668687", "ref": "4950300125"}, "type": "Feature"}
{"geometry": {"coordinates": [-85.6337311, 42.966303], "type": "Point"}, "id": "-P8NygkNH55ULqwNjjPMJxUy4rI=", "properties": {"@source_uri": "https://tools.usps.com/UspsToolsRestServices/rest/POLocator/findLocations", "@spider": "usps_collection_boxes", "addr:city": "GRAND RAPIDS", "addr:country": "US", "addr:postcode": "49503", "addr:state": "MI", "addr:street_address": "160 LOWELL AVE NE", "amenity": "post_box", "collection_times": "Mo-Sa 10:00", "nsi_id": "unitedstatespostalservice-a77078", "operator": "United States Postal Service", "operator:short": "USPS", "operator:type": "public", "operator:wikidata": "Q668687", "ref": "4950300139"}, "type": "Feature"}
{"geometry": {"coordinates": [-85.6262265, 42.966586], "type": "Point"}, "id": "pj7iIQ6G4nBe_S8sMKwNjOy3EIs=", "properties": {"@source_uri": "https://tools.usps.com/UspsToolsRestServices/rest/POLocator/findLocations", "@spider": "usps_collection_boxes", "addr:city": "GRAND RAPIDS", "addr:country": "US", "addr:postcode": "49503", "addr:state": "MI", "addr:street_address": "1736 LYON ST NE", "amenity": "post_box", "collection_times": "Mo-Sa 10:00", "nsi_id": "unitedstatespostalservice-a77078", "operator": "United States Postal Service", "operator:short": "USPS", "operator:type": "public", "operator:wikidata": "Q668687", "ref": "4950300140"}, "type": "Feature"}
{"geometry": {"coordinates": [-85.6432395, 42.977847], "type": "Point"}, "id": "Lbn7brsnAs9fBDajPhcxby7gh8M=", "properties": {"@source_uri": "https://tools.usps.com/UspsToolsRestServices/rest/POLocator/findLocations", "@spider": "usps_collection_boxes", "addr:city": "GRAND RAPIDS", "addr:country": "US", "addr:postcode": "49503", "addr:state": "MI", "addr:street_address": "1039 SHORT ST NE", "amenity": "post_box", "collection_times": "Mo-Sa 10:00", "nsi_id": "unitedstatespostalservice-a77078", "operator": "United States Postal Service", "operator:short": "USPS", "operator:type": "public", "operator:wikidata": "Q668687", "ref": "4950300155"}, "type": "Feature"}
{"geometry": {"coordinates": [-85.6399631, 42.970442], "type": "Point"}, "id": "CruovZO7gT3llRh62sTcqModwyE=", "properties": {"@source_uri": "https://tools.usps.com/UspsToolsRestServices/rest/POLocator/findLocations", "@spider": "usps_collection_boxes", "addr:city": "GRAND RAPIDS", "addr:country": "US", "addr:postcode": "49503", "addr:state": "MI", "addr:street_address": "425 FULLER AVE NE", "amenity": "post_box", "collection_times": "Mo-Sa 10:00", "nsi_id": "unitedstatespostalservice-a77078", "operator": "United States Postal Service", "operator:short": "USPS", "operator:type": "public", "operator:wikidata": "Q668687", "ref": "4950300168"}, "type": "Feature"}
{"geometry": {"coordinates": [-85.6613416, 42.956375], "type": "Point"}, "id": "oN-cJPMWsXiiFKjod0mO9e9i3MY=", "properties": {"@source_uri": "https://tools.usps.com/UspsToolsRestServices/rest/POLocator/findLocations", "@spider": "usps_collection_boxes", "addr:city": "GRAND RAPIDS", "addr:country": "US", "addr:postcode": "49503", "addr:state": "MI", "addr:street_address": "350 LAFAYETTE AVE SE", "amenity": "post_box", "collection_times": "Mo-Sa 08:00", "nsi_id": "unitedstatespostalservice-a77078", "operator": "United States Postal Service", "operator:short": "USPS", "operator:type": "public", "operator:wikidata": "Q668687", "ref": "4950300179"}, "type": "Feature"}
{"geometry": {"coordinates": [-85.667301, 42.969654], "type": "Point"}, "id": "jF-X_uXdbfa1fuYzeCQWqmhy4Rg=", "properties": {"@source_uri": "https://tools.usps.com/UspsToolsRestServices/rest/POLocator/findLocations", "@spider": "usps_collection_boxes", "addr:city": "GRAND RAPIDS", "addr:country": "US", "addr:postcode": "49503", "addr:state": "MI", "addr:street_address": "333 BOSTWICK AVE NE", "amenity": "post_box", "collection_times": "Mo-Sa 08:30", "nsi_id": "unitedstatespostalservice-a77078", "operator": "United States Postal Service", "operator:short": "USPS", "operator:type": "public", "operator:wikidata": "Q668687", "ref": "4950300181"}, "type": "Feature"}
{"geometry": {"coordinates": [-85.671926, 42.98013], "type": "Point"}, "id": "2KUCsLWIwbweEN3xMqjmtiXrD6s=", "properties": {"@source_uri": "https://tools.usps.com/UspsToolsRestServices/rest/POLocator/findLocations", "@spider": "usps_collection_boxes", "addr:city": "GRAND RAPIDS", "addr:country": "US", "addr:postcode": "49503", "addr:state": "MI", "addr:street_address": "940 MONROE AVE NW", "amenity": "post_box", "collection_times": "Mo-Sa 09:30", "nsi_id": "unitedstatespostalservice-a77078", "operator": "United States Postal Service", "operator:short": "USPS", "operator:type": "public", "operator:wikidata": "Q668687", "ref": "4950300183"}, "type": "Feature"}
{"geometry": {"coordinates": [-85.670232148, 42.972994159], "type": "Point"}, "id": "CgLSUnjKOEXh1Eeq2ms0jslC-Rs=", "properties": {"@source_uri": "https://tools.usps.com/UspsToolsRestServices/rest/POLocator/findLocations", "@spider": "usps_collection_boxes", "addr:city": "GRAND RAPIDS", "addr:country": "US", "addr:postcode": "49503", "addr:state": "MI", "addr:street_address": "549 OTTAWA AVE NW", "amenity": "post_box", "collection_times": "Mo-Sa 09:00", "nsi_id": "unitedstatespostalservice-a77078", "operator": "United States Postal Service", "operator:short": "USPS", "operator:type": "public", "operator:wikidata": "Q668687", "ref": "4950300188"}, "type": "Feature"}
{"geometry": {"coordinates": [-85.665799584, 42.9672537], "type": "Point"}, "id": "xDTw6pnpIUIlFWBra2i66UavjHQ=", "properties": {"@source_uri": "https://tools.usps.com/UspsToolsRestServices/rest/POLocator/findLocations", "@spider": "usps_collection_boxes", "addr:city": "GRAND RAPIDS", "addr:country": "US", "addr:postcode": "49503", "addr:state": "MI", "addr:street_address": "122 LYON ST NE", "amenity": "post_box", "collection_times": "Mo-Sa 11:00", "nsi_id": "unitedstatespostalservice-a77078", "operator": "United States Postal Service", "operator:short": "USPS", "operator:type": "public", "operator:wikidata": "Q668687", "ref": "4950300190"}, "type": "Feature"}
{"geometry": {"coordinates": [-85.6129542, 42.969904], "type": "Point"}, "id": "J0RKPj9PdZ3-o4rkoUrF4Q8SMQM=", "properties": {"@source_uri": "https://tools.usps.com/UspsToolsRestServices/rest/POLocator/findLocations", "@spider": "usps_collection_boxes", "addr:city": "GRAND RAPIDS", "addr:country": "US", "addr:postcode": "49503", "addr:state": "MI", "addr:street_address": "2280 MICHIGAN ST NE", "amenity": "post_box", "collection_times": "Mo-Sa 08:30", "nsi_id": "unitedstatespostalservice-a77078", "operator": "United States Postal Service", "operator:short": "USPS", "operator:type": "public", "operator:wikidata": "Q668687", "ref": "4950300191"}, "type": "Feature"}
{"geometry": {"coordinates": [-85.664511, 42.962355], "type": "Point"}, "id": "DA_R4A4X39qfnihlo3r80w-iFXk=", "properties": {"@source_uri": "https://tools.usps.com/UspsToolsRestServices/rest/POLocator/findLocations", "@spider": "usps_collection_boxes", "addr:city": "GRAND RAPIDS", "addr:country": "US", "addr:postcode": "49503", "addr:state": "MI", "addr:street_address": "25 JEFFERSON AVE SE", "amenity": "post_box", "collection_times": "Mo-Sa 08:30", "nsi_id": "unitedstatespostalservice-a77078", "operator": "United States Postal Service", "operator:short": "USPS", "operator:type": "public", "operator:wikidata": "Q668687", "ref": "4950300192"}, "type": "Feature"}
{"geometry": {"coordinates": [-85.669545467, 42.962168199], "type": "Point"}, "id": "Ay06olJE6LRkK433nMq01gGJ_ao=", "properties": {"@source_uri": "https://tools.usps.com/UspsToolsRestServices/rest/POLocator/findLocations", "@spider": "usps_collection_boxes", "addr:city": "GRAND RAPIDS", "addr:country": "US", "addr:postcode": "49503", "addr:state": "MI", "addr:street_address": "50 WESTON ST SW", "amenity": "post_box", "collection_times": "Mo-Sa 10:00", "nsi_id": "unitedstatespostalservice-a77078", "operator": "United States Postal Service", "operator:short": "USPS", "operator:type": "public", "operator:wikidata": "Q668687", "ref": "4950300194"}, "type": "Feature"}
{"geometry": {"coordinates": [-85.6872257, 43.023404], "type": "Point"}, "id": "mUP_eV0iUNfxqfdMeiyWNVihHSk=", "properties": {"@source_uri": "https://tools.usps.com/UspsToolsRestServices/rest/POLocator/findLocations", "@spider": "usps_collection_boxes", "addr:city": "GRAND RAPIDS", "addr:country": "US", "addr:postcode": "49504", "addr:state": "MI", "addr:street_address": "3200 ALPINE AVE NW", "amenity": "post_box", "collection_times": "Mo-Sa 10:00", "nsi_id": "unitedstatespostalservice-a77078", "operator": "United States Postal Service", "operator:short": "USPS", "operator:type": "public", "operator:wikidata": "Q668687", "ref": "4950400004"}, "type": "Feature"}
{"geometry": {"coordinates": [-85.6903691, 42.970877], "type": "Point"}, "id": "oQdwa6SpSRitTV2eFRRW4Ng5K2E=", "properties": {"@source_uri": "https://tools.usps.com/UspsToolsRestServices/rest/POLocator/findLocations", "@spider": "usps_collection_boxes", "addr:city": "GRAND RAPIDS", "addr:country": "US", "addr:postcode": "49504", "addr:state": "MI", "addr:street_address": "913 BRIDGE ST NW", "amenity": "post_box", "collection_times": "Mo-Fr 11:30", "nsi_id": "unitedstatespostalservice-a77078", "operator": "United States Postal Service", "operator:short": "USPS", "operator:type": "public", "operator:wikidata": "Q668687", "ref": "4950400008"}, "type": "Feature"}
{"geometry": {"coordinates": [-85.6955752, 43.030321], "type": "Point"}, "id": "zHj6atFY5i8aMdz4MdAfHyh4RGU=", "properties": {"@source_uri": "https://tools.usps.com/UspsToolsRestServices/rest/POLocator/findLocations", "@spider": "usps_collection_boxes", "addr:city": "GRAND RAPIDS", "addr:country": "US", "addr:postcode": "49504", "addr:state": "MI", "addr:street_address": "1025 4 MILE RD NW", "amenity": "post_box", "collection_times": "Mo-Sa 10:30", "nsi_id": "unitedstatespostalservice-a77078", "operator": "United States Postal Service", "operator:short": "USPS", "operator:type": "public", "operator:wikidata": "Q668687", "ref": "4950400028"}, "type": "Feature"}
{"geometry": {"coordinates": [-85.6873427, 42.963453], "type": "Point"}, "id": "fn5B7KVVT-Q3UnOQa6CS-YpRGtk=", "properties": {"@source_uri": "https://tools.usps.com/UspsToolsRestServices/rest/POLocator/findLocations", "@spider": "usps_collection_boxes", "addr:city": "GRAND RAPIDS", "addr:country": "US", "addr:postcode": "49504", "addr:state": "MI", "addr:street_address": "758 FULTON ST W", "amenity": "post_box", "collection_times": "Mo-Sa 14:30", "note": "ON 12/24 AND 12/31, THIS BOX MAY BE COLLECTED AS EARLY AS 12 NOON.", "nsi_id": "unitedstatespostalservice-a77078", "operator": "United States Postal Service", "operator:short": "USPS", "operator:type": "public", "operator:wikidata": "Q668687", "ref": "4950400037"}, "type": "Feature"}
{"geometry": {"coordinates": [-85.6970372, 42.963863], "type": "Point"}, "id": "71_P3H1955meiPOOGIIUBPEXIFM=", "properties": {"@source_uri": "https://tools.usps.com/UspsToolsRestServices/rest/POLocator/findLocations", "@spider": "usps_collection_boxes", "addr:city": "GRAND RAPIDS", "addr:country": "US", "addr:postcode": "49504", "addr:state": "MI", "addr:street_address": "1157 FULTON ST W", "amenity": "post_box", "collection_times": "Mo-Sa 11:00", "nsi_id": "unitedstatespostalservice-a77078", "operator": "United States Postal Service", "operator:short": "USPS", "operator:type": "public", "operator:wikidata": "Q668687", "ref": "4950400038"}, "type": "Feature"}
{"geometry": {"coordinates": [-85.7191742, 42.971165], "type": "Point"}, "id": "QH_0OBMczdoSA7GT32MGLu-GqMQ=", "properties": {"@source_uri": "https://tools.usps.com/UspsToolsRestServices/rest/POLocator/findLocations", "@spider": "usps_collection_boxes", "addr:city": "GRAND RAPIDS", "addr:country": "US", "addr:postcode": "49504", "addr:state": "MI", "addr:street_address": "2058 LAKE MICHIGAN DR NW", "amenity": "post_box", "collection_times": "Mo-Sa 11:30", "nsi_id": "unitedstatespostalservice-a77078", "operator": "United States Postal Service", "operator:short": "USPS", "operator:type": "public", "operator:wikidata": "Q668687", "ref": "4950400041"}, "type": "Feature"}
{"geometry": {"coordinates": [-85.7364592, 42.972696], "type": "Point"}, "id": "CyM_i2ZenMbA2mBUVhioUTM-fDE=", "properties": {"@source_uri": "https://tools.usps.com/UspsToolsRestServices/rest/POLocator/findLocations", "@spider": "usps_collection_boxes", "addr:city": "GRAND RAPIDS", "addr:country": "US", "addr:postcode": "49504", "addr:state": "MI", "addr:street_address": "2755 LAKE MICHIGAN DR NW", "amenity": "post_box", "collection_times": "Mo-Sa 15:00", "note": "ON 12/24 AND 12/31, THIS BOX MAY BE COLLECTED AS EARLY AS 12 NOON.", "nsi_id": "unitedstatespostalservice-a77078", "operator": "United States Postal Service", "operator:short": "USPS", "operator:type": "public", "operator:wikidata": "Q668687", "ref": "4950400042"}, "type": "Feature"}
{"geometry": {"coordinates": [-85.7622239, 42.970912], "type": "Point"}, "id": "fOt-1np8z7xbE140zw3d8QFHIyA=", "properties": {"@source_uri": "https://tools.usps.com/UspsToolsRestServices/rest/POLocator/findLocations", "@spider": "usps_collection_boxes", "addr:city": "GRAND RAPIDS", "addr:country": "US", "addr:postcode": "49504", "addr:state": "MI", "addr:street_address": "306 MANZANA CT NW", "amenity": "post_box", "collection_times": "Mo-Sa 14:30", "note": "ON 12/24 AND 12/31, THIS BOX MAY BE COLLECTED AS EARLY AS 12 NOON.", "nsi_id": "unitedstatespostalservice-a77078", "operator": "United States Postal Service", "operator:short": "USPS", "operator:type": "public", "operator:wikidata": "Q668687", "ref": "4950400049"}, "type": "Feature"}
{"geometry": {"coordinates": [-85.774311, 43.006884], "type": "Point"}, "id": "eRaakZwAv8bpUIM49VnK6p6SHaw=", "properties": {"@source_uri": "https://tools.usps.com/UspsToolsRestServices/rest/POLocator/findLocations", "@spider": "usps_collection_boxes", "addr:city": "GRAND RAPIDS", "addr:country": "US", "addr:postcode": "49504", "addr:state": "MI", "addr:street_address": "4243 REMEMBRANCE RD NW", "amenity": "post_box", "collection_times": "Mo-Sa 10:30", "nsi_id": "unitedstatespostalservice-a77078", "operator": "United States Postal Service", "operator:short": "USPS", "operator:type": "public", "operator:wikidata": "Q668687", "ref": "4950400057"}, "type": "Feature"}
{"geometry": {"coordinates": [-85.6767926, 42.980027], "type": "Point"}, "id": "3H6Oxl60gq_FZWmZPgzF-19_q-4=", "properties": {"@source_uri": "https://tools.usps.com/UspsToolsRestServices/rest/POLocator/findLocations", "@spider": "usps_collection_boxes", "addr:city": "GRAND RAPIDS", "addr:country": "US", "addr:postcode": "49504", "addr:state": "MI", "addr:street_address": "920 SCRIBNER AVE NW", "amenity": "post_box", "collection_times": "Mo-Sa 13:30", "note": "ON 12/24 AND 12/31, THIS BOX MAY BE COLLECTED AS EARLY AS 12 NOON.", "nsi_id": "unitedstatespostalservice-a77078", "operator": "United States Postal Service", "operator:short": "USPS", "operator:type": "public", "operator:wikidata": "Q668687", "ref": "4950400059"}, "type": "Feature"}
{"geometry": {"coordinates": [-85.6870021, 43.014058], "type": "Point"}, "id": "CrJkor45eQipctDtVifzbRrRLFE=", "properties": {"@source_uri": "https://tools.usps.com/UspsToolsRestServices/rest/POLocator/findLocations", "@spider": "usps_collection_boxes", "addr:city": "GRAND RAPIDS", "addr:country": "US", "addr:postcode": "49504", "addr:state": "MI", "addr:street_address": "700 3 MILE RD NW", "amenity": "post_box", "collection_times": "Mo-Sa 10:00", "nsi_id": "unitedstatespostalservice-a77078", "operator": "United States Postal Service", "operator:short": "USPS", "operator:type": "public", "operator:wikidata": "Q668687", "ref": "4950400063"}, "type": "Feature"}
{"geometry": {"coordinates": [-85.7203829, 43.01618], "type": "Point"}, "id": "TtxweLrt7A1oZL6dZorY6LpdM1Q=", "properties": {"@source_uri": "https://tools.usps.com/UspsToolsRestServices/rest/POLocator/findLocations", "@spider": "usps_collection_boxes", "addr:city": "GRAND RAPIDS", "addr:country": "US", "addr:postcode": "49504", "addr:state": "MI", "addr:street_address": "2065 3 MILE RD NW", "amenity": "post_box", "collection_times": "Mo-Sa 15:00", "note": "ON 12/24 AND 12/31, THIS BOX MAY BE COLLECTED AS EARLY AS 12 NOON.", "nsi_id": "unitedstatespostalservice-a77078", "operator": "United States Postal Service", "operator:short": "USPS", "operator:type": "public", "operator:wikidata": "Q668687", "ref": "4950400067"}, "type": "Feature"}
{"geometry": {"coordinates": [-85.6973578, 42.981493], "type": "Point"}, "id": "E_I9lFpE6AxctWyBBDQp2lHwCnY=", "properties": {"@source_uri": "https://tools.usps.com/UspsToolsRestServices/rest/POLocator/findLocations", "@spider": "usps_collection_boxes", "addr:city": "GRAND RAPIDS", "addr:country": "US", "addr:postcode": "49504", "addr:state": "MI", "addr:street_address": "1181 WALKER AVE NW", "amenity": "post_box", "collection_times": "Mo-Sa 15:00", "note": "ON 12/24 AND 12/31, THIS BOX MAY BE COLLECTED AS EARLY AS 12 NOON.", "nsi_id": "unitedstatespostalservice-a77078", "operator": "United States Postal Service", "operator:short": "USPS", "operator:type": "public", "operator:wikidata": "Q668687", "ref": "4950400068"}, "type": "Feature"}
{"geometry": {"coordinates": [-85.6764171, 42.989997], "type": "Point"}, "id": "8Uv7rvYv68JaXDq_Nj8OpVWsMSU=", "properties": {"@source_uri": "https://tools.usps.com/UspsToolsRestServices/rest/POLocator/findLocations", "@spider": "usps_collection_boxes", "addr:city": "GRAND RAPIDS", "addr:country": "US", "addr:postcode": "49504", "addr:state": "MI", "addr:street_address": "1500 SCRIBNER AVE NW", "amenity": "post_box", "collection_times": "Mo-Sa 14:00", "note": "ON 12/24 AND 12/31, THIS BOX MAY BE COLLECTED AS EARLY AS 12 NOON.", "nsi_id": "unitedstatespostalservice-a77078", "operator": "United States Postal Service", "operator:short": "USPS", "operator:type": "public", "operator:wikidata": "Q668687", "ref": "4950400080"}, "type": "Feature"}
{"geometry": {"coordinates": [-85.68629, 42.970735], "type": "Point"}, "id": "irh4iO7FUHgCa-UVoTRWfsW65IU=", "properties": {"@source_uri": "https://tools.usps.com/UspsToolsRestServices/rest/POLocator/findLocations", "@spider": "usps_collection_boxes", "addr:city": "GRAND RAPIDS", "addr:country": "US", "addr:postcode": "49504", "addr:state": "MI", "addr:street_address": "1625 WALKER AVE NW", "amenity": "post_box", "collection_times": "Mo-Sa 17:00", "note": "ON 12/24 AND 12/31, THIS BOX MAY BE COLLECTED AS EARLY AS 12 NOON.", "nsi_id": "unitedstatespostalservice-a77078", "operator": "United States Postal Service", "operator:short": "USPS", "operator:type": "public", "operator:wikidata": "Q668687", "ref": "4950400088"}, "type": "Feature"}
{"geometry": {"coordinates": [-85.7481499, 42.986398], "type": "Point"}, "id": "FvubiI3XLWAxo-wKje3l9djiauQ=", "properties": {"@source_uri": "https://tools.usps.com/UspsToolsRestServices/rest/POLocator/findLocations", "@spider": "usps_collection_boxes", "addr:city": "GRAND RAPIDS", "addr:country": "US", "addr:postcode": "49504", "addr:state": "MI", "addr:street_address": "3232 LEONARD ST NW", "amenity": "post_box", "collection_times": "Mo-Sa 15:00", "note": "ON 12/24 AND 12/31, THIS BOX MAY BE COLLECTED AS EARLY AS 12 NOON.", "nsi_id": "unitedstatespostalservice-a77078", "operator": "United States Postal Service", "operator:short": "USPS", "operator:type": "public", "operator:wikidata": "Q668687", "ref": "4950400095"}, "type": "Feature"}
{"geometry": {"coordinates": [-85.7089363, 42.987528], "type": "Point"}, "id": "iJA1laTwZYpkXzB-o0vgJIeFDLI=", "properties": {"@source_uri": "https://tools.usps.com/UspsToolsRestServices/rest/POLocator/findLocations", "@spider": "usps_collection_boxes", "addr:city": "GRAND RAPIDS", "addr:country": "US", "addr:postcode": "49504", "addr:state": "MI", "addr:street_address": "1625 WALKER AVE NW", "amenity": "post_box", "collection_times": "Mo-Sa 17:00", "indoor": "yes", "note": "ON 12/24 AND 12/31, THIS BOX MAY BE COLLECTED AS EARLY AS 12 NOON.", "nsi_id": "unitedstatespostalservice-a77078", "operator": "United States Postal Service", "operator:short": "USPS", "operator:type": "public", "operator:wikidata": "Q668687", "ref": "4950400109"}, "type": "Feature"}
{"geometry": {"coordinates": [-85.6794199834, 42.9634427648], "type": "Point"}, "id": "Rm5Z_39CIiJRkCfLFfAE_v2IIYc=", "properties": {"@source_uri": "https://tools.usps.com/UspsToolsRestServices/rest/POLocator/findLocations", "@spider": "usps_collection_boxes", "addr:city": "GRAND RAPIDS", "addr:country": "US", "addr:postcode": "49504", "addr:state": "MI", "addr:street_address": "401 FULTON ST W", "amenity": "post_box", "collection_times": "Mo-Fr 10:30", "nsi_id": "unitedstatespostalservice-a77078", "operator": "United States Postal Service", "operator:short": "USPS", "operator:type": "public", "operator:wikidata": "Q668687", "ref": "4950400112"}, "type": "Feature"}
{"geometry": {"coordinates": [-85.7672479, 42.972406], "type": "Point"}, "id": "bk4mmRZSpD5R4VSUH2aLmne8g8k=", "properties": {"@source_uri": "https://tools.usps.com/UspsToolsRestServices/rest/POLocator/findLocations", "@spider": "usps_collection_boxes", "addr:city": "GRAND RAPIDS", "addr:country": "US", "addr:postcode": "49504", "addr:state": "MI", "addr:street_address": "4015 LAKE MICHIGAN DR NW", "amenity": "post_box", "collection_times": "Mo-Sa 15:00", "note": "ON 12/24 AND 12/31, THIS BOX MAY BE COLLECTED AS EARLY AS 12 NOON.", "nsi_id": "unitedstatespostalservice-a77078", "operator": "United States Postal Service", "operator:short": "USPS", "operator:type": "public", "operator:wikidata": "Q668687", "ref": "4950400115"}, "type": "Feature"}
{"geometry": {"coordinates": [-85.68629, 42.970735], "type": "Point"}, "id": "TA-fFokh99MaIISgEAHlNDiBAB0=", "properties": {"@source_uri": "https://tools.usps.com/UspsToolsRestServices/rest/POLocator/findLocations", "@spider": "usps_collection_boxes", "addr:city": "GRAND RAPIDS", "addr:country": "US", "addr:postcode": "49504", "addr:state": "MI", "addr:street_address": "1625 WALKER AVE NW", "amenity": "post_box", "collection_times": "Mo-Sa 17:00", "note": "ON 12/24 AND 12/31, THIS BOX MAY BE COLLECTED AS EARLY AS 12 NOON.", "nsi_id": "unitedstatespostalservice-a77078", "operator": "United States Postal Service", "operator:short": "USPS", "operator:type": "public", "operator:wikidata": "Q668687", "ref": "4950400118"}, "type": "Feature"}
{"geometry": {"coordinates": [-85.766812, 42.971568], "type": "Point"}, "id": "PEXRmd1Aak2n-EZnPVsRduLYCJQ=", "properties": {"@source_uri": "https://tools.usps.com/UspsToolsRestServices/rest/POLocator/findLocations", "@spider": "usps_collection_boxes", "addr:city": "GRAND RAPIDS", "addr:country": "US", "addr:postcode": "49504", "addr:state": "MI", "addr:street_address": "4030 LAKE MICHIGAN DR NW", "amenity": "post_box", "collection_times": "Mo-Sa 15:00", "note": "ON 12/24 AND 12/31, THIS BOX MAY BE COLLECTED AS EARLY AS 12 NOON.", "nsi_id": "unitedstatespostalservice-a77078", "operator": "United States Postal Service", "operator:short": "USPS", "operator:type": "public", "operator:wikidata": "Q668687", "ref": "4950400119"}, "type": "Feature"}
{"geometry": {"coordinates": [-85.7086485, 42.987433], "type": "Point"}, "id": "gPC8nhQ5xtZN3O36Nfl2V1HP1sI=", "properties": {"@source_uri": "https://tools.usps.com/UspsToolsRestServices/rest/POLocator/findLocations", "@spider": "usps_collection_boxes", "addr:city": "GRAND RAPIDS", "addr:country": "US", "addr:postcode": "49504", "addr:state": "MI", "addr:street_address": "1625 WALKER AVE NW", "amenity": "post_box", "collection_times": "Mo-Sa 17:00", "name": "USPS COLLECTION BOX - APC", "note": "ON 12/24 AND 12/31, THIS BOX MAY BE COLLECTED AS EARLY AS 12 NOON.", "nsi_id": "unitedstatespostalservice-a77078", "operator": "United States Postal Service", "operator:short": "USPS", "operator:type": "public", "operator:wikidata": "Q668687", "ref": "4950400123"}, "type": "Feature"}
{"geometry": {"coordinates": [-85.6798552, 42.978212], "type": "Point"}, "id": "vznYrmW8vaVutOsnewtzbBCqHgM=", "properties": {"@source_uri": "https://tools.usps.com/UspsToolsRestServices/rest/POLocator/findLocations", "@spider": "usps_collection_boxes", "addr:city": "GRAND RAPIDS", "addr:country": "US", "addr:postcode": "49504", "addr:state": "MI", "addr:street_address": "801 BROADWAY AVE NW", "amenity": "post_box", "collection_times": "Mo-Sa 14:30", "note": "ON 12/24 AND 12/31, THIS BOX MAY BE COLLECTED AS EARLY AS 12 NOON.", "nsi_id": "unitedstatespostalservice-a77078", "operator": "United States Postal Service", "operator:short": "USPS", "operator:type": "public", "operator:wikidata": "Q668687", "ref": "4950400125"}, "type": "Feature"}
{"geometry": {"coordinates": [-85.709060299, 42.987226603], "type": "Point"}, "id": "d1lZadNakJQLX8cLLeBYl3EmG_Q=", "properties": {"@source_uri": "https://tools.usps.com/UspsToolsRestServices/rest/POLocator/findLocations", "@spider": "usps_collection_boxes", "addr:city": "GRAND RAPIDS", "addr:country": "US", "addr:postcode": "49504", "addr:state": "MI", "addr:street_address": "1625 WALKER AVE NW", "amenity": "post_box", "collection_times": "Mo-Sa 17:00", "indoor": "yes", "note": "ON 12/24 AND 12/31, THIS BOX MAY BE COLLECTED AS EARLY AS 12 NOON.", "nsi_id": "unitedstatespostalservice-a77078", "operator": "United States Postal Service", "operator:short": "USPS", "operator:type": "public", "operator:wikidata": "Q668687", "ref": "4950400126"}, "type": "Feature"}
{"geometry": {"coordinates": [-85.664595, 42.9923], "type": "Point"}, "id": "UN2S9tJKtXv0bIssT8S8WzNZXRM=", "properties": {"@source_uri": "https://tools.usps.com/UspsToolsRestServices/rest/POLocator/findLocations", "@spider": "usps_collection_boxes", "addr:city": "GRAND RAPIDS", "addr:country": "US", "addr:postcode": "49505", "addr:state": "MI", "addr:street_address": "3260 EAGLE PARK DR NE", "amenity": "post_box", "collection_times": "Mo-Fr 17:00; Sa 15:00", "note": "ON 12/24 AND 12/31, THIS BOX MAY BE COLLECTED AS EARLY AS 12 NOON.", "nsi_id": "unitedstatespostalservice-a77078", "operator": "United States Postal Service", "operator:short": "USPS", "operator:type": "public", "operator:wikidata": "Q668687", "ref": "4950500000"}, "type": "Feature"}
{"geometry": {"coordinates": [-85.5862699, 43.048331], "type": "Point"}, "id": "u7Fl8LrwwXSKoXcTnyrdbIWYQOs=", "properties": {"@source_uri": "https://tools.usps.com/UspsToolsRestServices/rest/POLocator/findLocations", "@spider": "usps_collection_boxes", "addr:city": "GRAND RAPIDS", "addr:country": "US", "addr:postcode": "49505", "addr:state": "MI", "addr:street_address": "3417 DEVONWOOD HLS NE", "amenity": "post_box", "collection_times": "Mo-Fr 11:30; Sa 15:00", "note": "ON 12/24 AND 12/31, THIS BOX MAY BE COLLECTED AS EARLY AS 12 NOON.", "nsi_id": "unitedstatespostalservice-a77078", "operator": "United States Postal Service", "operator:short": "USPS", "operator:type": "public", "operator:wikidata": "Q668687", "ref": "4950500005"}, "type": "Feature"}
{"geometry": {"coordinates": [-85.6394816, 43.016588], "type": "Point"}, "id": "S4pPSmzDBM9Lcc3nD0QJyAroNOE=", "properties": {"@source_uri": "https://tools.usps.com/UspsToolsRestServices/rest/POLocator/findLocations", "@spider": "usps_collection_boxes", "addr:city": "GRAND RAPIDS", "addr:country": "US", "addr:postcode": "49505", "addr:state": "MI", "addr:street_address": "2920 FULLER AVE NE", "amenity": "post_box", "collection_times": "Mo-Sa 15:00", "note": "ON 12/24 AND 12/31, THIS BOX MAY BE COLLECTED AS EARLY AS 12 NOON.", "nsi_id": "unitedstatespostalservice-a77078", "operator": "United States Postal Service", "operator:short": "USPS", "operator:type": "public", "operator:wikidata": "Q668687", "ref": "4950500015"}, "type": "Feature"}
{"geometry": {"coordinates": [-85.6490841, 42.998909], "type": "Point"}, "id": "aNiIiihz041_u8Ui8abmv2XG18w=", "properties": {"@source_uri": "https://tools.usps.com/UspsToolsRestServices/rest/POLocator/findLocations", "@spider": "usps_collection_boxes", "addr:city": "GRAND RAPIDS", "addr:country": "US", "addr:postcode": "49505", "addr:state": "MI", "addr:street_address": "804 KNAPP ST NE", "amenity": "post_box", "collection_times": "Mo-Fr 10:00; Sa 15:00", "note": "ON 12/24 AND 12/31, THIS BOX MAY BE COLLECTED AS EARLY AS 12 NOON.", "nsi_id": "unitedstatespostalservice-a77078", "operator": "United States Postal Service", "operator:short": "USPS", "operator:type": "public", "operator:wikidata": "Q668687", "ref": "4950500020"}, "type": "Feature"}
{"geometry": {"coordinates": [-85.6601071, 42.99913], "type": "Point"}, "id": "g71HOSWYvoVUUyB9ykAbz_DRL60=", "properties": {"@source_uri": "https://tools.usps.com/UspsToolsRestServices/rest/POLocator/findLocations", "@spider": "usps_collection_boxes", "addr:city": "GRAND RAPIDS", "addr:country": "US", "addr:postcode": "49505", "addr:state": "MI", "addr:street_address": "357 KNAPP ST NE", "amenity": "post_box", "collection_times": "Mo-Fr 10:00; Sa 15:00", "note": "ON 12/24 AND 12/31, THIS BOX MAY BE COLLECTED AS EARLY AS 12 NOON.", "nsi_id": "unitedstatespostalservice-a77078", "operator": "United States Postal Service", "operator:short": "USPS", "operator:type": "public", "operator:wikidata": "Q668687", "ref": "4950500022"}, "type": "Feature"}
{"geometry": {"coordinates": [-85.6704243, 42.993761], "type": "Point"}, "id": "aCkIxzSsiF99KnAGbN3rI1SOhcs=", "properties": {"@source_uri": "https://tools.usps.com/UspsToolsRestServices/rest/POLocator/findLocations", "@spider": "usps_collection_boxes", "addr:city": "GRAND RAPIDS", "addr:country": "US", "addr:postcode": "49505", "addr:state": "MI", "addr:street_address": "1702 MONROE AVE NW", "amenity": "post_box", "collection_times": "Mo-Fr 10:00; Sa 15:00", "note": "ON 12/24 AND 12/31, THIS BOX MAY BE COLLECTED AS EARLY AS 12 NOON.", "nsi_id": "unitedstatespostalservice-a77078", "operator": "United States Postal Service", "operator:short": "USPS", "operator:type": "public", "operator:wikidata": "Q668687", "ref": "4950500031"}, "type": "Feature"}
{"geometry": {"coordinates": [-85.6711711, 42.987335], "type": "Point"}, "id": "k1wfBJ09s7HdiSiz0UYXKcEXvcA=", "properties": {"@source_uri": "https://tools.usps.com/UspsToolsRestServices/rest/POLocator/findLocations", "@spider": "usps_collection_boxes", "addr:city": "GRAND RAPIDS", "addr:country": "US", "addr:postcode": "49505", "addr:state": "MI", "addr:street_address": "1345 MONROE AVE NW", "amenity": "post_box", "collection_times": "Mo-Fr 15:00", "note": "ON 12/24 AND 12/31, THIS BOX MAY BE COLLECTED AS EARLY AS 12 NOON.", "nsi_id": "unitedstatespostalservice-a77078", "operator": "United States Postal Service", "operator:short": "USPS", "operator:type": "public", "operator:wikidata": "Q668687", "ref": "4950500032"}, "type": "Feature"}
{"geometry": {"coordinates": [-85.635579, 42.99439], "type": "Point"}, "id": "4TYq-6GHJ6EMPTmiMlJpwbY7FmU=", "properties": {"@source_uri": "https://tools.usps.com/UspsToolsRestServices/rest/POLocator/findLocations", "@spider": "usps_collection_boxes", "addr:city": "GRAND RAPIDS", "addr:country": "US", "addr:postcode": "49505", "addr:state": "MI", "addr:street_address": "3000 MONROE AVE NE", "amenity": "post_box", "collection_times": "Mo-Fr 12:00; Sa 15:00", "note": "ON 12/24 AND 12/31, THIS BOX MAY BE COLLECTED AS EARLY AS 12 NOON.", "nsi_id": "unitedstatespostalservice-a77078", "operator": "United States Postal Service", "operator:short": "USPS", "operator:type": "public", "operator:wikidata": "Q668687", "ref": "4950500036"}, "type": "Feature"}
{"geometry": {"coordinates": [-85.5809586, 43.058369], "type": "Point"}, "id": "QuH1NGnfec4cRs45_VycFRPCp3k=", "properties": {"@source_uri": "https://tools.usps.com/UspsToolsRestServices/rest/POLocator/findLocations", "@spider": "usps_collection_boxes", "addr:city": "GRAND RAPIDS", "addr:country": "US", "addr:postcode": "49505", "addr:state": "MI", "addr:street_address": "5265 NORTHLAND DR NE", "amenity": "post_box", "collection_times": "Mo-Sa 15:00", "note": "ON 12/24 AND 12/31, THIS BOX MAY BE COLLECTED AS EARLY AS 12 NOON.", "nsi_id": "unitedstatespostalservice-a77078", "operator": "United States Postal Service", "operator:short": "USPS", "operator:type": "public", "operator:wikidata": "Q668687", "ref": "4950500041"}, "type": "Feature"}
{"geometry": {"coordinates": [-85.624797, 42.974389], "type": "Point"}, "id": "5A1hFzwXdF1yv4fycn6GayXqy0Q=", "properties": {"@source_uri": "https://tools.usps.com/UspsToolsRestServices/rest/POLocator/findLocations", "@spider": "usps_collection_boxes", "addr:city": "GRAND RAPIDS", "addr:country": "US", "addr:postcode": "49505", "addr:state": "MI", "addr:street_address": "1805 OAK INDUSTRIAL DR NE", "amenity": "post_box", "collection_times": "Mo-Sa 15:00", "note": "ON 12/24 AND 12/31, THIS BOX MAY BE COLLECTED AS EARLY AS 12 NOON.", "nsi_id": "unitedstatespostalservice-a77078", "operator": "United States Postal Service", "operator:short": "USPS", "operator:type": "public", "operator:wikidata": "Q668687", "ref": "4950500047"}, "type": "Feature"}
{"geometry": {"coordinates": [-85.6498973, 43.007492], "type": "Point"}, "id": "4OmT_T5CRckEtzzhumgh3F_uie0=", "properties": {"@source_uri": "https://tools.usps.com/UspsToolsRestServices/rest/POLocator/findLocations", "@spider": "usps_collection_boxes", "addr:city": "GRAND RAPIDS", "addr:country": "US", "addr:postcode": "49505", "addr:state": "MI", "addr:street_address": "2444 PLAINFIELD AVE NE", "amenity": "post_box", "collection_times": "Mo-Fr 10:00; Sa 15:00", "note": "ON 12/24 AND 12/31, THIS BOX MAY BE COLLECTED AS EARLY AS 12 NOON.", "nsi_id": "unitedstatespostalservice-a77078", "operator": "United States Postal Service", "operator:short": "USPS", "operator:type": "public", "operator:wikidata": "Q668687", "ref": "4950500055"}, "type": "Feature"}
{"geometry": {"coordinates": [-85.6338975, 43.019496], "type": "Point"}, "id": "3SbW3lrRsXlXN1mmazF8R9FMcFc=", "properties": {"@source_uri": "https://tools.usps.com/UspsToolsRestServices/rest/POLocator/findLocations", "@spider": "usps_collection_boxes", "addr:city": "GRAND RAPIDS", "addr:country": "US", "addr:postcode": "49505", "addr:state": "MI", "addr:street_address": "3148 PLAINFIELD AVE NE", "amenity": "post_box", "collection_times": "Mo-Sa 15:00", "note": "ON 12/24 AND 12/31, THIS BOX MAY BE COLLECTED AS EARLY AS 12 NOON.", "nsi_id": "unitedstatespostalservice-a77078", "operator": "United States Postal Service", "operator:short": "USPS", "operator:type": "public", "operator:wikidata": "Q668687", "ref": "4950500056"}, "type": "Feature"}
{"geometry": {"coordinates": [-85.6266181, 43.0328], "type": "Point"}, "id": "GN3EaOV-ZMj5mudfk9jI28hoCus=", "properties": {"@source_uri": "https://tools.usps.com/UspsToolsRestServices/rest/POLocator/findLocations", "@spider": "usps_collection_boxes", "addr:city": "GRAND RAPIDS", "addr:country": "US", "addr:postcode": "49505", "addr:state": "MI", "addr:street_address": "3757 PLAINFIELD AVE NE", "amenity": "post_box", "collection_times": "Mo-Fr 17:00; Sa 15:00", "note": "ON 12/24 AND 12/31, THIS BOX MAY BE COLLECTED AS EARLY AS 12 NOON.", "nsi_id": "unitedstatespostalservice-a77078", "operator": "United States Postal Service", "operator:short": "USPS", "operator:type": "public", "operator:wikidata": "Q668687", "ref": "4950500057"}, "type": "Feature"}
{"geometry": {"coordinates": [-85.6336335, 43.023934], "type": "Point"}, "id": "pxgsskKITAy9JUe0NSFDkTipf_4=", "properties": {"@source_uri": "https://tools.usps.com/UspsToolsRestServices/rest/POLocator/findLocations", "@spider": "usps_collection_boxes", "addr:city": "GRAND RAPIDS", "addr:country": "US", "addr:postcode": "49505", "addr:state": "MI", "addr:street_address": "3391 PLAINFIELD AVE NE", "amenity": "post_box", "collection_times": "Mo-Sa 15:00", "note": "ON 12/24 AND 12/31, THIS BOX MAY BE COLLECTED AS EARLY AS 12 NOON.", "nsi_id": "unitedstatespostalservice-a77078", "operator": "United States Postal Service", "operator:short": "USPS", "operator:type": "public", "operator:wikidata": "Q668687", "ref": "4950500058"}, "type": "Feature"}
{"geometry": {"coordinates": [-85.6122227, 43.040078], "type": "Point"}, "id": "IL0J_M1nz3TouuCKz6rWsb3UJD0=", "properties": {"@source_uri": "https://tools.usps.com/UspsToolsRestServices/rest/POLocator/findLocations", "@spider": "usps_collection_boxes", "addr:city": "GRAND RAPIDS", "addr:country": "US", "addr:postcode": "49505", "addr:state": "MI", "addr:street_address": "4223 PLAINFIELD AVE NE", "amenity": "post_box", "collection_times": "Mo-Sa 15:00", "note": "ON 12/24 AND 12/31, THIS BOX MAY BE COLLECTED AS EARLY AS 12 NOON.", "nsi_id": "unitedstatespostalservice-a77078", "operator": "United States Postal Service", "operator:short": "USPS", "operator:type": "public", "operator:wikidata": "Q668687", "ref": "4950500070"}, "type": "Feature"}
{"geometry": {"coordinates": [-85.664595, 42.9923], "type": "Point"}, "id": "QsJ7frk-wzx9gAiokpWvoqKtXhg=", "properties": {"@source_uri": "https://tools.usps.com/UspsToolsRestServices/rest/POLocator/findLocations", "@spider": "usps_collection_boxes", "addr:city": "GRAND RAPIDS", "addr:country": "US", "addr:postcode": "49505", "addr:state": "MI", "addr:street_address": "702 3 MILE RD NE", "amenity": "post_box", "collection_times": "Mo-Fr 10:00; Sa 15:00", "note": "ON 12/24 AND 12/31, THIS BOX MAY BE COLLECTED AS EARLY AS 12 NOON.", "nsi_id": "unitedstatespostalservice-a77078", "operator": "United States Postal Service", "operator:short": "USPS", "operator:type": "public", "operator:wikidata": "Q668687", "ref": "4950500076"}, "type": "Feature"}
{"geometry": {"coordinates": [-85.664595, 42.9923], "type": "Point"}, "id": "flAvHw2lEY4HFHrY9LrFUikpVuw=", "properties": {"@source_uri": "https://tools.usps.com/UspsToolsRestServices/rest/POLocator/findLocations", "@spider": "usps_collection_boxes", "addr:city": "GRAND RAPIDS", "addr:country": "US", "addr:postcode": "49505", "addr:state": "MI", "addr:street_address": "3350 COIT AVE NE", "amenity": "post_box", "collection_times": "Mo-Fr 10:00; Sa 15:00", "note": "ON 12/24 AND 12/31, THIS BOX MAY BE COLLECTED AS EARLY AS 12 NOON.", "nsi_id": "unitedstatespostalservice-a77078", "operator": "United States Postal Service", "operator:short": "USPS", "operator:type": "public", "operator:wikidata": "Q668687", "ref": "4950500077"}, "type": "Feature"}
{"geometry": {"coordinates": [-85.6603513, 43.008624], "type": "Point"}, "id": "pDJS3kmM_KVpLBDZclCFZvfQoBM=", "properties": {"@source_uri": "https://tools.usps.com/UspsToolsRestServices/rest/POLocator/findLocations", "@spider": "usps_collection_boxes", "addr:city": "GRAND RAPIDS", "addr:country": "US", "addr:postcode": "49505", "addr:state": "MI", "addr:street_address": "2493 COIT AVE NE", "amenity": "post_box", "collection_times": "Mo-Fr 10:00; Sa 15:00", "note": "ON 12/24 AND 12/31, THIS BOX MAY BE COLLECTED AS EARLY AS 12 NOON.", "nsi_id": "unitedstatespostalservice-a77078", "operator": "United States Postal Service", "operator:short": "USPS", "operator:type": "public", "operator:wikidata": "Q668687", "ref": "4950500078"}, "type": "Feature"}
{"geometry": {"coordinates": [-85.6645027, 42.989093], "type": "Point"}, "id": "Fp-doq5c8zzllVSW9y_65GGjs2U=", "properties": {"@source_uri": "https://tools.usps.com/UspsToolsRestServices/rest/POLocator/findLocations", "@spider": "usps_collection_boxes", "addr:city": "GRAND RAPIDS", "addr:country": "US", "addr:postcode": "49505", "addr:state": "MI", "addr:street_address": "1425 COIT AVE NE", "amenity": "post_box", "collection_times": "Mo-Sa 15:00", "note": "ON 12/24 AND 12/31, THIS BOX MAY BE COLLECTED AS EARLY AS 12 NOON.", "nsi_id": "unitedstatespostalservice-a77078", "operator": "United States Postal Service", "operator:short": "USPS", "operator:type": "public", "operator:wikidata": "Q668687", "ref": "4950500079"}, "type": "Feature"}
{"geometry": {"coordinates": [-85.6646852, 43.003164], "type": "Point"}, "id": "HvDlzsKQ6GipK4Cze2VG-ZDqI7E=", "properties": {"@source_uri": "https://tools.usps.com/UspsToolsRestServices/rest/POLocator/findLocations", "@spider": "usps_collection_boxes", "addr:city": "GRAND RAPIDS", "addr:country": "US", "addr:postcode": "49505", "addr:state": "MI", "addr:street_address": "2201 COIT AVE NE", "amenity": "post_box", "collection_times": "Mo-Fr 10:00; Sa 15:00", "note": "ON 12/24 AND 12/31, THIS BOX MAY BE COLLECTED AS EARLY AS 12 NOON.", "nsi_id": "unitedstatespostalservice-a77078", "operator": "United States Postal Service", "operator:short": "USPS", "operator:type": "public", "operator:wikidata": "Q668687", "ref": "4950500084"}, "type": "Feature"}
{"geometry": {"coordinates": [-85.6261413, 43.013531], "type": "Point"}, "id": "GzNjk11F3IZ5DHxQj694SDMhILc=", "properties": {"@source_uri": "https://tools.usps.com/UspsToolsRestServices/rest/POLocator/findLocations", "@spider": "usps_collection_boxes", "addr:city": "GRAND RAPIDS", "addr:country": "US", "addr:postcode": "49505", "addr:state": "MI", "addr:street_address": "1765 3 MILE RD NE", "amenity": "post_box", "collection_times": "Mo-Fr 17:00; Sa 15:00", "note": "ON 12/24 AND 12/31, THIS BOX MAY BE COLLECTED AS EARLY AS 12 NOON.", "nsi_id": "unitedstatespostalservice-a77078", "operator": "United States Postal Service", "operator:short": "USPS", "operator:type": "public", "operator:wikidata": "Q668687", "ref": "4950500091"}, "type": "Feature"}
{"geometry": {"coordinates": [-85.6038049, 43.042275], "type": "Point"}, "id": "8fra3AAlYKQ4w9v_hUkzUQToEVg=", "properties": {"@source_uri": "https://tools.usps.com/UspsToolsRestServices/rest/POLocator/findLocations", "@spider": "usps_collection_boxes", "addr:city": "GRAND RAPIDS", "addr:country": "US", "addr:postcode": "49505", "addr:state": "MI", "addr:street_address": "2650 5 MILE RD NE", "amenity": "post_box", "collection_times": "Mo-Sa 13:00", "note": "ON 12/24 AND 12/31, THIS BOX MAY BE COLLECTED AS EARLY AS 12 NOON.", "nsi_id": "unitedstatespostalservice-a77078", "operator": "United States Postal Service", "operator:short": "USPS", "operator:type": "public", "operator:wikidata": "Q668687", "ref": "4950500094"}, "type": "Feature"}
{"geometry": {"coordinates": [-85.6537922, 43.002491], "type": "Point"}, "id": "SVvCy0fW2GHNwE399XLo0wK4ZGc=", "properties": {"@source_uri": "https://tools.usps.com/UspsToolsRestServices/rest/POLocator/findLocations", "@spider": "usps_collection_boxes", "addr:city": "GRAND RAPIDS", "addr:country": "US", "addr:postcode": "49505", "addr:state": "MI", "addr:street_address": "2178 PLAINFIELD AVE NE", "amenity": "post_box", "collection_times": "Mo-Sa 15:00", "note": "ON 12/24 AND 12/31, THIS BOX MAY BE COLLECTED AS EARLY AS 12 NOON.", "nsi_id": "unitedstatespostalservice-a77078", "operator": "United States Postal Service", "operator:short": "USPS", "operator:type": "public", "operator:wikidata": "Q668687", "ref": "4950500104"}, "type": "Feature"}
{"geometry": {"coordinates": [-85.5891431, 42.99389], "type": "Point"}, "id": "SqzNG8DYDnktOkzrqTcdqwcN0lg=", "properties": {"@source_uri": "https://tools.usps.com/UspsToolsRestServices/rest/POLocator/findLocations", "@spider": "usps_collection_boxes", "addr:city": "GRAND RAPIDS", "addr:country": "US", "addr:postcode": "49505", "addr:state": "MI", "addr:street_address": "1700 E BELTLINE AVE NE", "amenity": "post_box", "collection_times": "Mo-Fr 15:00; Sa 12:00", "note": "ON 12/24 AND 12/31, THIS BOX MAY BE COLLECTED AS EARLY AS 12 NOON.", "nsi_id": "unitedstatespostalservice-a77078", "operator": "United States Postal Service", "operator:short": "USPS", "operator:type": "public", "operator:wikidata": "Q668687", "ref": "4950500107"}, "type": "Feature"}
{"geometry": {"coordinates": [-85.625835, 43.013379], "type": "Point"}, "id": "E23tgkaWttViKglIbF71OEmXvSE=", "properties": {"@source_uri": "https://tools.usps.com/UspsToolsRestServices/rest/POLocator/findLocations", "@spider": "usps_collection_boxes", "addr:city": "GRAND RAPIDS", "addr:country": "US", "addr:postcode": "49505", "addr:state": "MI", "addr:street_address": "1765 3 MILE RD NE", "amenity": "post_box", "collection_times": "Mo-Fr 17:00; Sa 15:00", "indoor": "yes", "note": "ON 12/24 AND 12/31, THIS BOX MAY BE COLLECTED AS EARLY AS 12 NOON.", "nsi_id": "unitedstatespostalservice-a77078", "operator": "United States Postal Service", "operator:short": "USPS", "operator:type": "public", "operator:wikidata": "Q668687", "ref": "4950500112"}, "type": "Feature"}
{"geometry": {"coordinates": [-85.6257049672, 43.0141010149], "type": "Point"}, "id": "7t84RrJ-A9F4BEtFIocHgF7LbyY=", "properties": {"@source_uri": "https://tools.usps.com/UspsToolsRestServices/rest/POLocator/findLocations", "@spider": "usps_collection_boxes", "addr:city": "GRAND RAPIDS", "addr:country": "US", "addr:postcode": "49505", "addr:state": "MI", "addr:street_address": "1765 3 MILE RD NE", "amenity": "post_box", "collection_times": "Mo-Fr 17:00; Sa 15:00", "name": "USPS COLLECTION BOX - APC", "note": "ON 12/24 AND 12/31, THIS BOX MAY BE COLLECTED AS EARLY AS 12 NOON.", "nsi_id": "unitedstatespostalservice-a77078", "operator": "United States Postal Service", "operator:short": "USPS", "operator:type": "public", "operator:wikidata": "Q668687", "ref": "4950500118"}, "type": "Feature"}
{"geometry": {"coordinates": [-85.6390573, 42.985228], "type": "Point"}, "id": "kZn-Gu-PqV_XYyQ_9wnWfbRXKQY=", "properties": {"@source_uri": "https://tools.usps.com/UspsToolsRestServices/rest/POLocator/findLocations", "@spider": "usps_collection_boxes", "addr:city": "GRAND RAPIDS", "addr:country": "US", "addr:postcode": "49505", "addr:state": "MI", "addr:street_address": "1225 LEONARD ST NE", "amenity": "post_box", "collection_times": "Mo-Sa 15:00", "note": "ON 12/24 AND 12/31, THIS BOX MAY BE COLLECTED AS EARLY AS 12 NOON.", "nsi_id": "unitedstatespostalservice-a77078", "operator": "United States Postal Service", "operator:short": "USPS", "operator:type": "public", "operator:wikidata": "Q668687", "ref": "4950500119"}, "type": "Feature"}
{"geometry": {"coordinates": [-85.625761332, 43.01340048], "type": "Point"}, "id": "BqdmxLk6Zpynl3yC9zV38E4Y_0w=", "properties": {"@source_uri": "https://tools.usps.com/UspsToolsRestServices/rest/POLocator/findLocations", "@spider": "usps_collection_boxes", "addr:city": "GRAND RAPIDS", "addr:country": "US", "addr:postcode": "49505", "addr:state": "MI", "addr:street_address": "1765 3 MILE RD NE", "amenity": "post_box", "collection_times": "Mo-Fr 17:00; Sa 11:30", "indoor": "yes", "note": "ON 12/24 AND 12/31, THIS BOX MAY BE COLLECTED AS EARLY AS 12 NOON.", "nsi_id": "unitedstatespostalservice-a77078", "operator": "United States Postal Service", "operator:short": "USPS", "operator:type": "public", "operator:wikidata": "Q668687", "ref": "4950500120"}, "type": "Feature"}
{"geometry": {"coordinates": [-85.6112354801, 42.9127935888], "type": "Point"}, "id": "z9ZPKAZMXzEgO66efFEeSaiWLMY=", "properties": {"@source_uri": "https://tools.usps.com/UspsToolsRestServices/rest/POLocator/findLocations", "@spider": "usps_collection_boxes", "addr:city": "GRAND RAPIDS", "addr:country": "US", "addr:postcode": "49506", "addr:state": "MI", "addr:street_address": "2781 BIRCHCREST DR SE", "amenity": "post_box", "collection_times": "Mo-Sa 15:00", "note": "ON 12/24 AND 12/31, THIS BOX MAY BE COLLECTED AS EARLY AS 12 NOON.", "nsi_id": "unitedstatespostalservice-a77078", "operator": "United States Postal Service", "operator:short": "USPS", "operator:type": "public", "operator:wikidata": "Q668687", "ref": "4950600005"}, "type": "Feature"}
{"geometry": {"coordinates": [-85.6187266, 42.934213], "type": "Point"}, "id": "ISzGVepUBf0s2mQTZR7rPaumGyw=", "properties": {"@source_uri": "https://tools.usps.com/UspsToolsRestServices/rest/POLocator/findLocations", "@spider": "usps_collection_boxes", "addr:city": "GRAND RAPIDS", "addr:country": "US", "addr:postcode": "49506", "addr:state": "MI", "addr:street_address": "2026 BOSTON ST SE", "amenity": "post_box", "collection_times": "Mo-Sa 13:00", "note": "ON 12/24 AND 12/31, THIS BOX MAY BE COLLECTED AS EARLY AS 12 NOON.", "nsi_id": "unitedstatespostalservice-a77078", "operator": "United States Postal Service", "operator:short": "USPS", "operator:type": "public", "operator:wikidata": "Q668687", "ref": "4950600008"}, "type": "Feature"}
{"geometry": {"coordinates": [-85.638975, 42.955535], "type": "Point"}, "id": "1VHrjs8IRD8_8wvZd31Qlb-6Gos=", "properties": {"@source_uri": "https://tools.usps.com/UspsToolsRestServices/rest/POLocator/findLocations", "@spider": "usps_collection_boxes", "addr:city": "GRAND RAPIDS", "addr:country": "US", "addr:postcode": "49506", "addr:state": "MI", "addr:street_address": "1818 BRETON RD SE", "amenity": "post_box", "collection_times": "Mo-Sa 15:00", "note": "ON 12/24 AND 12/31, THIS BOX MAY BE COLLECTED AS EARLY AS 12 NOON.", "nsi_id": "unitedstatespostalservice-a77078", "operator": "United States Postal Service", "operator:short": "USPS", "operator:type": "public", "operator:wikidata": "Q668687", "ref": "4950600009"}, "type": "Feature"}
{"geometry": {"coordinates": [-85.5848119, 42.936602], "type": "Point"}, "id": "4a4h7Vl_m0KThetOP15ZoXZ33ds=", "properties": {"@source_uri": "https://tools.usps.com/UspsToolsRestServices/rest/POLocator/findLocations", "@spider": "usps_collection_boxes", "addr:city": "GRAND RAPIDS", "addr:country": "US", "addr:postcode": "49506", "addr:state": "MI", "addr:street_address": "1500 E BELTLINE AVE SE", "amenity": "post_box", "collection_times": "Mo-Sa 15:00", "note": "ON 12/24 AND 12/31, THIS BOX MAY BE COLLECTED AS EARLY AS 12 NOON.", "nsi_id": "unitedstatespostalservice-a77078", "operator": "United States Postal Service", "operator:short": "USPS", "operator:type": "public", "operator:wikidata": "Q668687", "ref": "4950600023"}, "type": "Feature"}
{"geometry": {"coordinates": [-85.6341494, 42.948057], "type": "Point"}, "id": "XNT8hQJUXKpjO7-NDxfdz2QkUSc=", "properties": {"@source_uri": "https://tools.usps.com/UspsToolsRestServices/rest/POLocator/findLocations", "@spider": "usps_collection_boxes", "addr:city": "GRAND RAPIDS", "addr:country": "US", "addr:postcode": "49506", "addr:state": "MI", "addr:street_address": "1425 PONTIAC RD SE", "amenity": "post_box", "collection_times": "Mo-Sa 15:00", "note": "ON 12/24 AND 12/31, THIS BOX MAY BE COLLECTED AS EARLY AS 12 NOON.", "nsi_id": "unitedstatespostalservice-a77078", "operator": "United States Postal Service", "operator:short": "USPS", "operator:type": "public", "operator:wikidata": "Q668687", "ref": "4950600029"}, "type": "Feature"}
{"geometry": {"coordinates": [-85.638975, 42.955535], "type": "Point"}, "id": "8hCHgDBPrIQPFVteEeu8f5Io0IY=", "properties": {"@source_uri": "https://tools.usps.com/UspsToolsRestServices/rest/POLocator/findLocations", "@spider": "usps_collection_boxes", "addr:city": "GRAND RAPIDS", "addr:country": "US", "addr:postcode": "49506", "addr:state": "MI", "addr:street_address": "1800 WOODWARD AVE SE", "amenity": "post_box", "collection_times": "Mo-Sa 13:00", "note": "ON 12/24 AND 12/31, THIS BOX MAY BE COLLECTED AS EARLY AS 12 NOON.", "nsi_id": "unitedstatespostalservice-a77078", "operator": "United States Postal Service", "operator:short": "USPS", "operator:type": "public", "operator:wikidata": "Q668687", "ref": "4950600032"}, "type": "Feature"}
{"geometry": {"coordinates": [-85.6331817, 42.956482], "type": "Point"}, "id": "5CkQjgTe0PHHT0DykWHsZqWQreE=", "properties": {"@source_uri": "https://tools.usps.com/UspsToolsRestServices/rest/POLocator/findLocations", "@spider": "usps_collection_boxes", "addr:city": "GRAND RAPIDS", "addr:country": "US", "addr:postcode": "49506", "addr:state": "MI", "addr:street_address": "1451 LAKE DR SE", "amenity": "post_box", "collection_times": "Mo-Fr 17:00; Sa 15:00", "note": "ON 12/24 AND 12/31, THIS BOX MAY BE COLLECTED AS EARLY AS 12 NOON.", "nsi_id": "unitedstatespostalservice-a77078", "operator": "United States Postal Service", "operator:short": "USPS", "operator:type": "public", "operator:wikidata": "Q668687", "ref": "4950600035"}, "type": "Feature"}
{"geometry": {"coordinates": [-85.6331585, 42.956603], "type": "Point"}, "id": "AHDulKEa6FwFZe8BfniBvpl633w=", "properties": {"@source_uri": "https://tools.usps.com/UspsToolsRestServices/rest/POLocator/findLocations", "@spider": "usps_collection_boxes", "addr:city": "GRAND RAPIDS", "addr:country": "US", "addr:postcode": "49506", "addr:state": "MI", "addr:street_address": "1451 LAKE DR SE", "amenity": "post_box", "collection_times": "Mo-Fr 17:00; Sa 14:00", "indoor": "yes", "note": "ON 12/24 AND 12/31, THIS BOX MAY BE COLLECTED AS EARLY AS 12 NOON.", "nsi_id": "unitedstatespostalservice-a77078", "operator": "United States Postal Service", "operator:short": "USPS", "operator:type": "public", "operator:wikidata": "Q668687", "ref": "4950600036"}, "type": "Feature"}
{"geometry": {"coordinates": [-85.638975, 42.955535], "type": "Point"}, "id": "RvdOMnd1EuuigNJIbps6yzYmDtA=", "properties": {"@source_uri": "https://tools.usps.com/UspsToolsRestServices/rest/POLocator/findLocations", "@spider": "usps_collection_boxes", "addr:city": "GRAND RAPIDS", "addr:country": "US", "addr:postcode": "49506", "addr:state": "MI", "addr:street_address": "746 LAKESIDE DR SE", "amenity": "post_box", "collection_times": "Mo-Sa 15:00", "note": "ON 12/24 AND 12/31, THIS BOX MAY BE COLLECTED AS EARLY AS 12 NOON.", "nsi_id": "unitedstatespostalservice-a77078", "operator": "United States Postal Service", "operator:short": "USPS", "operator:type": "public", "operator:wikidata": "Q668687", "ref": "4950600041"}, "type": "Feature"}
{"geometry": {"coordinates": [-85.6148724, 42.951823], "type": "Point"}, "id": "nBa4zbQxW8-ArbzPz7plA_StbxY=", "properties": {"@source_uri": "https://tools.usps.com/UspsToolsRestServices/rest/POLocator/findLocations", "@spider": "usps_collection_boxes", "addr:city": "GRAND RAPIDS", "addr:country": "US", "addr:postcode": "49506", "addr:state": "MI", "addr:street_address": "2181 WEALTHY ST SE", "amenity": "post_box", "collection_times": "Mo-Sa 14:30", "note": "ON 12/24 AND 12/31, THIS BOX MAY BE COLLECTED AS EARLY AS 12 NOON.", "nsi_id": "unitedstatespostalservice-a77078", "operator": "United States Postal Service", "operator:short": "USPS", "operator:type": "public", "operator:wikidata": "Q668687", "ref": "4950600052"}, "type": "Feature"}
{"geometry": {"coordinates": [-85.6425869, 42.919945], "type": "Point"}, "id": "tZwCzZlbKw0fDjsXpCZTk6HoCwI=", "properties": {"@source_uri": "https://tools.usps.com/UspsToolsRestServices/rest/POLocator/findLocations", "@spider": "usps_collection_boxes", "addr:city": "GRAND RAPIDS", "addr:country": "US", "addr:postcode": "49507", "addr:state": "MI", "addr:street_address": "1000 ALGER ST SE", "amenity": "post_box", "collection_times": "Mo-Sa 13:30", "note": "ON 12/24 AND 12/31, THIS BOX MAY BE COLLECTED AS EARLY AS 12 NOON.", "nsi_id": "unitedstatespostalservice-a77078", "operator": "United States Postal Service", "operator:short": "USPS", "operator:type": "public", "operator:wikidata": "Q668687", "ref": "4950700002"}, "type": "Feature"}
{"geometry": {"coordinates": [-85.6466974, 42.919971], "type": "Point"}, "id": "ihUQPZJRXlZH3AdDX3rdc6VHL-0=", "properties": {"@source_uri": "https://tools.usps.com/UspsToolsRestServices/rest/POLocator/findLocations", "@spider": "usps_collection_boxes", "addr:city": "GRAND RAPIDS", "addr:country": "US", "addr:postcode": "49507", "addr:state": "MI", "addr:street_address": "820 ALGER ST SE", "amenity": "post_box", "collection_times": "Mo-Sa 15:00", "note": "ON 12/24 AND 12/31, THIS BOX MAY BE COLLECTED AS EARLY AS 12 NOON.", "nsi_id": "unitedstatespostalservice-a77078", "operator": "United States Postal Service", "operator:short": "USPS", "operator:type": "public", "operator:wikidata": "Q668687", "ref": "4950700003"}, "type": "Feature"}
{"geometry": {"coordinates": [-85.6424636, 42.914896], "type": "Point"}, "id": "KrSxSZO-nOalEbrIt464WnSrZuY=", "properties": {"@source_uri": "https://tools.usps.com/UspsToolsRestServices/rest/POLocator/findLocations", "@spider": "usps_collection_boxes", "addr:city": "GRAND RAPIDS", "addr:country": "US", "addr:postcode": "49507", "addr:state": "MI", "addr:street_address": "947 WALSH ST SE", "amenity": "post_box", "collection_times": "Mo-Sa 10:00", "nsi_id": "unitedstatespostalservice-a77078", "operator": "United States Postal Service", "operator:short": "USPS", "operator:type": "public", "operator:wikidata": "Q668687", "ref": "4950700007"}, "type": "Feature"}
{"geometry": {"coordinates": [-85.639446, 42.934329], "type": "Point"}, "id": "K-V8xIJBmBciqKR_77vxSTP2cRQ=", "properties": {"@source_uri": "https://tools.usps.com/UspsToolsRestServices/rest/POLocator/findLocations", "@spider": "usps_collection_boxes", "addr:city": "GRAND RAPIDS", "addr:country": "US", "addr:postcode": "49507", "addr:state": "MI", "addr:street_address": "1601 KALAMAZOO AVE SE", "amenity": "post_box", "collection_times": "Mo-Sa 10:00", "nsi_id": "unitedstatespostalservice-a77078", "operator": "United States Postal Service", "operator:short": "USPS", "operator:type": "public", "operator:wikidata": "Q668687", "ref": "4950700008"}, "type": "Feature"}
{"geometry": {"coordinates": [-85.6731529933, 42.9362299912], "type": "Point"}, "id": "kyMmGAdCSCaX4D83DOSKmTwdKNo=", "properties": {"@source_uri": "https://tools.usps.com/UspsToolsRestServices/rest/POLocator/findLocations", "@spider": "usps_collection_boxes", "addr:city": "GRAND RAPIDS", "addr:country": "US", "addr:postcode": "49507", "addr:state": "MI", "addr:street_address": "1501 BUCHANAN AVE SW", "amenity": "post_box", "collection_times": "Mo-Sa 11:30", "nsi_id": "unitedstatespostalservice-a77078", "operator": "United States Postal Service", "operator:short": "USPS", "operator:type": "public", "operator:wikidata": "Q668687", "ref": "4950700011"}, "type": "Feature"}
{"geometry": {"coordinates": [-85.6359005, 42.921812], "type": "Point"}, "id": "797GGngHuxoCmea1MQQdtIPbaYI=", "properties": {"@source_uri": "https://tools.usps.com/UspsToolsRestServices/rest/POLocator/findLocations", "@spider": "usps_collection_boxes", "addr:city": "GRAND RAPIDS", "addr:country": "US", "addr:postcode": "49507", "addr:state": "MI", "addr:street_address": "1220 EDNA ST SE", "amenity": "post_box", "collection_times": "Mo-Sa 10:30", "nsi_id": "unitedstatespostalservice-a77078", "operator": "United States Postal Service", "operator:short": "USPS", "operator:type": "public", "operator:wikidata": "Q668687", "ref": "4950700023"}, "type": "Feature"}
{"geometry": {"coordinates": [-85.6433209, 42.932647], "type": "Point"}, "id": "RbGg1trk56IK_jmjGi4AqeykqNg=", "properties": {"@source_uri": "https://tools.usps.com/UspsToolsRestServices/rest/POLocator/findLocations", "@spider": "usps_collection_boxes", "addr:city": "GRAND RAPIDS", "addr:country": "US", "addr:postcode": "49507", "addr:state": "MI", "addr:street_address": "1911 KALAMAZOO AVE SE", "amenity": "post_box", "collection_times": "Mo-Sa 11:30", "nsi_id": "unitedstatespostalservice-a77078", "operator": "United States Postal Service", "operator:short": "USPS", "operator:type": "public", "operator:wikidata": "Q668687", "ref": "4950700028"}, "type": "Feature"}
{"geometry": {"coordinates": [-85.6572399, 42.915587], "type": "Point"}, "id": "RUVdpW-hemRX9pSxn0zCmlABTRs=", "properties": {"@source_uri": "https://tools.usps.com/UspsToolsRestServices/rest/POLocator/findLocations", "@spider": "usps_collection_boxes", "addr:city": "GRAND RAPIDS", "addr:country": "US", "addr:postcode": "49507", "addr:state": "MI", "addr:street_address": "2639 MADISON AVE SE", "amenity": "post_box", "collection_times": "Mo-Sa 11:00", "nsi_id": "unitedstatespostalservice-a77078", "operator": "United States Postal Service", "operator:short": "USPS", "operator:type": "public", "operator:wikidata": "Q668687", "ref": "4950700029"}, "type": "Feature"}
{"geometry": {"coordinates": [-85.6485660214, 42.9267389946], "type": "Point"}, "id": "HaaPlHp2Fih7aPnwYKRsYA55y5A=", "properties": {"@source_uri": "https://tools.usps.com/UspsToolsRestServices/rest/POLocator/findLocations", "@spider": "usps_collection_boxes", "addr:city": "GRAND RAPIDS", "addr:country": "US", "addr:postcode": "49507", "addr:state": "MI", "addr:street_address": "2017 EASTERN AVE SE", "amenity": "post_box", "collection_times": "Mo-Sa 10:00", "indoor": "yes", "nsi_id": "unitedstatespostalservice-a77078", "operator": "United States Postal Service", "operator:short": "USPS", "operator:type": "public", "operator:wikidata": "Q668687", "ref": "4950700030"}, "type": "Feature"}
{"geometry": {"coordinates": [-85.6588957512, 42.9407350977], "type": "Point"}, "id": "E22NXJ6ACbQaZhyErhsHAssCg8E=", "properties": {"@source_uri": "https://tools.usps.com/UspsToolsRestServices/rest/POLocator/findLocations", "@spider": "usps_collection_boxes", "addr:city": "GRAND RAPIDS", "addr:country": "US", "addr:postcode": "49507", "addr:state": "MI", "addr:street_address": "1226 MADISON AVE SE", "amenity": "post_box", "collection_times": "Mo-Sa 13:30", "note": "ON 12/24 AND 12/31, THIS BOX MAY BE COLLECTED AS EARLY AS 12 NOON.", "nsi_id": "unitedstatespostalservice-a77078", "operator": "United States Postal Service", "operator:short": "USPS", "operator:type": "public", "operator:wikidata": "Q668687", "ref": "4950700040"}, "type": "Feature"}
{"geometry": {"coordinates": [-85.6068458, 42.882479], "type": "Point"}, "id": "qASik-YywOdIgHBehcjrmk1UiWs=", "properties": {"@source_uri": "https://tools.usps.com/UspsToolsRestServices/rest/POLocator/findLocations", "@spider": "usps_collection_boxes", "addr:city": "GRAND RAPIDS", "addr:country": "US", "addr:postcode": "49508", "addr:state": "MI", "addr:street_address": "4433 BRETON RD SE", "amenity": "post_box", "collection_times": "Mo-Sa 15:00", "note": "ON 12/24 AND 12/31, THIS BOX MAY BE COLLECTED AS EARLY AS 12 NOON.", "nsi_id": "unitedstatespostalservice-a77078", "operator": "United States Postal Service", "operator:short": "USPS", "operator:type": "public", "operator:wikidata": "Q668687", "ref": "4950800007"}, "type": "Feature"}
{"geometry": {"coordinates": [-85.6262147, 42.852044], "type": "Point"}, "id": "Fc51TR4Rt3H6kuqirHWhu81Tr0g=", "properties": {"@source_uri": "https://tools.usps.com/UspsToolsRestServices/rest/POLocator/findLocations", "@spider": "usps_collection_boxes", "addr:city": "GRAND RAPIDS", "addr:country": "US", "addr:postcode": "49508", "addr:state": "MI", "addr:street_address": "6127 KALAMAZOO AVE SE", "amenity": "post_box", "collection_times": "Mo-Sa 15:00", "note": "ON 12/24 AND 12/31, THIS BOX MAY BE COLLECTED AS EARLY AS 12 NOON.", "nsi_id": "unitedstatespostalservice-a77078", "operator": "United States Postal Service", "operator:short": "USPS", "operator:type": "public", "operator:wikidata": "Q668687", "ref": "4950800020"}, "type": "Feature"}
{"geometry": {"coordinates": [-85.6584216, 42.82541], "type": "Point"}, "id": "RpXU967k481KEYNTO0EwDonzDls=", "properties": {"@source_uri": "https://tools.usps.com/UspsToolsRestServices/rest/POLocator/findLocations", "@spider": "usps_collection_boxes", "addr:city": "GRAND RAPIDS", "addr:country": "US", "addr:postcode": "49508", "addr:state": "MI", "addr:street_address": "7615 QUAIL RUN WEST SE", "amenity": "post_box", "collection_times": "Mo-Sa 12:00", "nsi_id": "unitedstatespostalservice-a77078", "operator": "United States Postal Service", "operator:short": "USPS", "operator:type": "public", "operator:wikidata": "Q668687", "ref": "4950800023"}, "type": "Feature"}
{"geometry": {"coordinates": [-85.6292029, 42.91245], "type": "Point"}, "id": "yHkAmqZY0dUs9-ScT_QrnVjOtQk=", "properties": {"@source_uri": "https://tools.usps.com/UspsToolsRestServices/rest/POLocator/findLocations", "@spider": "usps_collection_boxes", "addr:city": "GRAND RAPIDS", "addr:country": "US", "addr:postcode": "49508", "addr:state": "MI", "addr:street_address": "1540 28TH ST SE", "amenity": "post_box", "collection_times": "Mo-Sa 09:30", "nsi_id": "unitedstatespostalservice-a77078", "operator": "United States Postal Service", "operator:short": "USPS", "operator:type": "public", "operator:wikidata": "Q668687", "ref": "4950800030"}, "type": "Feature"}
{"geometry": {"coordinates": [-85.6159126, 42.913229], "type": "Point"}, "id": "ZrqGE0TzvZYQpDflGJxxcUQ3d9Y=", "properties": {"@source_uri": "https://tools.usps.com/UspsToolsRestServices/rest/POLocator/findLocations", "@spider": "usps_collection_boxes", "addr:city": "GRAND RAPIDS", "addr:country": "US", "addr:postcode": "49508", "addr:state": "MI", "addr:street_address": "2055 28TH ST SE", "amenity": "post_box", "collection_times": "Mo-Sa 15:00", "note": "ON 12/24 AND 12/31, THIS BOX MAY BE COLLECTED AS EARLY AS 12 NOON.", "nsi_id": "unitedstatespostalservice-a77078", "operator": "United States Postal Service", "operator:short": "USPS", "operator:type": "public", "operator:wikidata": "Q668687", "ref": "4950800031"}, "type": "Feature"}
{"geometry": {"coordinates": [-85.6432813, 42.851222], "type": "Point"}, "id": "7GH4t3yykITDCFEJEZaYXo5JLnA=", "properties": {"@source_uri": "https://tools.usps.com/UspsToolsRestServices/rest/POLocator/findLocations", "@spider": "usps_collection_boxes", "addr:city": "GRAND RAPIDS", "addr:country": "US", "addr:postcode": "49508", "addr:state": "MI", "addr:street_address": "865 WOODFIELD EAST DR SE", "amenity": "post_box", "collection_times": "Mo-Sa 13:00", "note": "ON 12/24 AND 12/31, THIS BOX MAY BE COLLECTED AS EARLY AS 12 NOON.", "nsi_id": "unitedstatespostalservice-a77078", "operator": "United States Postal Service", "operator:short": "USPS", "operator:type": "public", "operator:wikidata": "Q668687", "ref": "4950800040"}, "type": "Feature"}
{"geometry": {"coordinates": [-85.6083244, 42.909545], "type": "Point"}, "id": "QueVIVG6Ju3oPwQwDUZCpeARPcs=", "properties": {"@source_uri": "https://tools.usps.com/UspsToolsRestServices/rest/POLocator/findLocations", "@spider": "usps_collection_boxes", "addr:city": "GRAND RAPIDS", "addr:country": "US", "addr:postcode": "49508", "addr:state": "MI", "addr:street_address": "2370 29TH ST SE", "amenity": "post_box", "collection_times": "Mo-Sa 15:00", "note": "ON 12/24 AND 12/31, THIS BOX MAY BE COLLECTED AS EARLY AS 12 NOON.", "nsi_id": "unitedstatespostalservice-a77078", "operator": "United States Postal Service", "operator:short": "USPS", "operator:type": "public", "operator:wikidata": "Q668687", "ref": "4950800041"}, "type": "Feature"}
{"geometry": {"coordinates": [-85.6275313176, 42.8865377563], "type": "Point"}, "id": "me_zAaNBljHNaNOrb4_qUioYsXM=", "properties": {"@source_uri": "https://tools.usps.com/UspsToolsRestServices/rest/POLocator/findLocations", "@spider": "usps_collection_boxes", "addr:city": "GRAND RAPIDS", "addr:country": "US", "addr:postcode": "49508", "addr:state": "MI", "addr:street_address": "1550 LANGLEY ST SE", "amenity": "post_box", "collection_times": "Mo-Sa 15:00", "note": "ON 12/24 AND 12/31, THIS BOX MAY BE COLLECTED AS EARLY AS 12 NOON.", "nsi_id": "unitedstatespostalservice-a77078", "operator": "United States Postal Service", "operator:short": "USPS", "operator:type": "public", "operator:wikidata": "Q668687", "ref": "4950800046"}, "type": "Feature"}
{"geometry": {"coordinates": [-85.6439323, 42.867298], "type": "Point"}, "id": "GpSPdgBW7xhgK6PN2UyV41-XB_k=", "properties": {"@source_uri": "https://tools.usps.com/UspsToolsRestServices/rest/POLocator/findLocations", "@spider": "usps_collection_boxes", "addr:city": "GRAND RAPIDS", "addr:country": "US", "addr:postcode": "49508", "addr:state": "MI", "addr:street_address": "5282 EASTERN AVE SE", "amenity": "post_box", "collection_times": "Mo-Sa 13:00", "note": "ON 12/24 AND 12/31, THIS BOX MAY BE COLLECTED AS EARLY AS 12 NOON.", "nsi_id": "unitedstatespostalservice-a77078", "operator": "United States Postal Service", "operator:short": "USPS", "operator:type": "public", "operator:wikidata": "Q668687", "ref": "4950800052"}, "type": "Feature"}
{"geometry": {"coordinates": [-85.6081521, 42.884879], "type": "Point"}, "id": "K1nGYabBTuHooioF6p-A1yNWrIM=", "properties": {"@source_uri": "https://tools.usps.com/UspsToolsRestServices/rest/POLocator/findLocations", "@spider": "usps_collection_boxes", "addr:city": "GRAND RAPIDS", "addr:country": "US", "addr:postcode": "49508", "addr:state": "MI", "addr:street_address": "4325 BRETON RD SE", "amenity": "post_box", "collection_times": "Mo-Sa 15:00", "note": "ON 12/24 AND 12/31, THIS BOX MAY BE COLLECTED AS EARLY AS 12 NOON.", "nsi_id": "unitedstatespostalservice-a77078", "operator": "United States Postal Service", "operator:short": "USPS", "operator:type": "public", "operator:wikidata": "Q668687", "ref": "4950800053"}, "type": "Feature"}
{"geometry": {"coordinates": [-85.5965033, 42.874269], "type": "Point"}, "id": "lxTw-ynfJBAAANM13-5SGSPMD-w=", "properties": {"@source_uri": "https://tools.usps.com/UspsToolsRestServices/rest/POLocator/findLocations", "@spider": "usps_collection_boxes", "addr:city": "GRAND RAPIDS", "addr:country": "US", "addr:postcode": "49508", "addr:state": "MI", "addr:street_address": "4900 BRETON RD SE", "amenity": "post_box", "collection_times": "Mo-Sa 15:00", "note": "ON 12/24 AND 12/31, THIS BOX MAY BE COLLECTED AS EARLY AS 12 NOON.", "nsi_id": "unitedstatespostalservice-a77078", "operator": "United States Postal Service", "operator:short": "USPS", "operator:type": "public", "operator:wikidata": "Q668687", "ref": "4950800055"}, "type": "Feature"}
{"geometry": {"coordinates": [-85.7040531, 42.911735], "type": "Point"}, "id": "i93j8K3jXjorqTMMqmG7XvnUuQY=", "properties": {"@source_uri": "https://tools.usps.com/UspsToolsRestServices/rest/POLocator/findLocations", "@spider": "usps_collection_boxes", "addr:city": "GRAND RAPIDS", "addr:country": "US", "addr:postcode": "49509", "addr:state": "MI", "addr:street_address": "2900 BURLINGAME AVE SW", "amenity": "post_box", "collection_times": "Mo-Fr 13:00; Sa 15:00", "note": "ON 12/24 AND 12/31, THIS BOX MAY BE COLLECTED AS EARLY AS 12 NOON.", "nsi_id": "unitedstatespostalservice-a77078", "operator": "United States Postal Service", "operator:short": "USPS", "operator:type": "public", "operator:wikidata": "Q668687", "ref": "4950900005"}, "type": "Feature"}
{"geometry": {"coordinates": [-85.7239676, 42.874542], "type": "Point"}, "id": "bqQaTEnNSnC11mRJ1a-mm3NyMQM=", "properties": {"@source_uri": "https://tools.usps.com/UspsToolsRestServices/rest/POLocator/findLocations", "@spider": "usps_collection_boxes", "addr:city": "GRAND RAPIDS", "addr:country": "US", "addr:postcode": "49509", "addr:state": "MI", "addr:street_address": "2400 WOODLAKE RD SW", "amenity": "post_box", "collection_times": "Mo-Fr 13:00; Sa 15:00", "note": "ON 12/24 AND 12/31, THIS BOX MAY BE COLLECTED AS EARLY AS 12 NOON.", "nsi_id": "unitedstatespostalservice-a77078", "operator": "United States Postal Service", "operator:short": "USPS", "operator:type": "public", "operator:wikidata": "Q668687", "ref": "4950900008"}, "type": "Feature"}
{"geometry": {"coordinates": [-85.683704, 42.863599], "type": "Point"}, "id": "2nDJa7hSbC3z-8lAwKNz3VvymRY=", "properties": {"@source_uri": "https://tools.usps.com/UspsToolsRestServices/rest/POLocator/findLocations", "@spider": "usps_collection_boxes", "addr:city": "GRAND RAPIDS", "addr:country": "US", "addr:postcode": "49509", "addr:state": "MI", "addr:street_address": "5500 CLYDE PARK AVE SW", "amenity": "post_box", "collection_times": "Mo-Sa 11:00", "nsi_id": "unitedstatespostalservice-a77078", "operator": "United States Postal Service", "operator:short": "USPS", "operator:type": "public", "operator:wikidata": "Q668687", "ref": "4950900021"}, "type": "Feature"}
{"geometry": {"coordinates": [-85.7327455, 42.885626], "type": "Point"}, "id": "8ZqmFXFhpNwf_ALQi8jafJH2jv4=", "properties": {"@source_uri": "https://tools.usps.com/UspsToolsRestServices/rest/POLocator/findLocations", "@spider": "usps_collection_boxes", "addr:city": "GRAND RAPIDS", "addr:country": "US", "addr:postcode": "49509", "addr:state": "MI", "addr:street_address": "2777 44TH ST SW", "amenity": "post_box", "collection_times": "Mo-Sa 15:00", "note": "ON 12/24 AND 12/31, THIS BOX MAY BE COLLECTED AS EARLY AS 12 NOON.", "nsi_id": "unitedstatespostalservice-a77078", "operator": "United States Postal Service", "operator:short": "USPS", "operator:type": "public", "operator:wikidata": "Q668687", "ref": "4950900030"}, "type": "Feature"}
{"geometry": {"coordinates": [-85.7304089, 42.882284], "type": "Point"}, "id": "Lxud4x5m2vSE9fTzTv8yowFj5C0=", "properties": {"@source_uri": "https://tools.usps.com/UspsToolsRestServices/rest/POLocator/findLocations", "@spider": "usps_collection_boxes", "addr:city": "GRAND RAPIDS", "addr:country": "US", "addr:postcode": "49509", "addr:state": "MI", "addr:street_address": "4528 HALIFAX AVE SW", "amenity": "post_box", "collection_times": "Mo-Fr 13:00; Sa 15:00", "note": "ON 12/24 AND 12/31, THIS BOX MAY BE COLLECTED AS EARLY AS 12 NOON.", "nsi_id": "unitedstatespostalservice-a77078", "operator": "United States Postal Service", "operator:short": "USPS", "operator:type": "public", "operator:wikidata": "Q668687", "ref": "4950900032"}, "type": "Feature"}
{"geometry": {"coordinates": [-85.7134164, 42.92092], "type": "Point"}, "id": "Q-XPub_hscjxBLJg-HetgehHZtk=", "properties": {"@source_uri": "https://tools.usps.com/UspsToolsRestServices/rest/POLocator/findLocations", "@spider": "usps_collection_boxes", "addr:city": "GRAND RAPIDS", "addr:country": "US", "addr:postcode": "49509", "addr:state": "MI", "addr:street_address": "1870 PORTER ST SW", "amenity": "post_box", "collection_times": "Mo-Fr 13:00; Sa 15:00", "note": "ON 12/24 AND 12/31, THIS BOX MAY BE COLLECTED AS EARLY AS 12 NOON.", "nsi_id": "unitedstatespostalservice-a77078", "operator": "United States Postal Service", "operator:short": "USPS", "operator:type": "public", "operator:wikidata": "Q668687", "ref": "4950900036"}, "type": "Feature"}
{"geometry": {"coordinates": [-85.6939599, 42.912377], "type": "Point"}, "id": "xTkPdGiQjy-vYRriMmEmh_NjSOI=", "properties": {"@source_uri": "https://tools.usps.com/UspsToolsRestServices/rest/POLocator/findLocations", "@spider": "usps_collection_boxes", "addr:city": "GRAND RAPIDS", "addr:country": "US", "addr:postcode": "49509", "addr:state": "MI", "addr:street_address": "2850 MICHAEL AVE SW", "amenity": "post_box", "collection_times": "Mo-Fr 17:00; Sa 15:00", "note": "ON 12/24 AND 12/31, THIS BOX MAY BE COLLECTED AS EARLY AS 12 NOON.", "nsi_id": "unitedstatespostalservice-a77078", "operator": "United States Postal Service", "operator:short": "USPS", "operator:type": "public", "operator:wikidata": "Q668687", "ref": "4950900047"}, "type": "Feature"}
{"geometry": {"coordinates": [-85.6939611, 42.912388], "type": "Point"}, "id": "85lx_8dQaqBAS0tbZ7a7dPLjyZ4=", "properties": {"@source_uri": "https://tools.usps.com/UspsToolsRestServices/rest/POLocator/findLocations", "@spider": "usps_collection_boxes", "addr:city": "GRAND RAPIDS", "addr:country": "US", "addr:postcode": "49509", "addr:state": "MI", "addr:street_address": "2850 MICHAEL AVE SW", "amenity": "post_box", "collection_times": "Mo-Fr 17:00; Sa 15:00", "note": "ON 12/24 AND 12/31, THIS BOX MAY BE COLLECTED AS EARLY AS 12 NOON.", "nsi_id": "unitedstatespostalservice-a77078", "operator": "United States Postal Service", "operator:short": "USPS", "operator:type": "public", "operator:wikidata": "Q668687", "ref": "4950900048"}, "type": "Feature"}
{"geometry": {"coordinates": [-85.710391, 42.883644], "type": "Point"}, "id": "F5GwPPe11vjMfGk6rvmd9ErV5ag=", "properties": {"@source_uri": "https://tools.usps.com/UspsToolsRestServices/rest/POLocator/findLocations", "@spider": "usps_collection_boxes", "addr:city": "GRAND RAPIDS", "addr:country": "US", "addr:postcode": "49509", "addr:state": "MI", "addr:street_address": "1849 R W BERENDS DR SW", "amenity": "post_box", "collection_times": "Mo-Sa 15:00", "note": "ON 12/24 AND 12/31, THIS BOX MAY BE COLLECTED AS EARLY AS 12 NOON.", "nsi_id": "unitedstatespostalservice-a77078", "operator": "United States Postal Service", "operator:short": "USPS", "operator:type": "public", "operator:wikidata": "Q668687", "ref": "4950900052"}, "type": "Feature"}
{"geometry": {"coordinates": [-85.7243118, 42.883927], "type": "Point"}, "id": "pyZk09m1nVGRqBoonZYz7JOuATo=", "properties": {"@source_uri": "https://tools.usps.com/UspsToolsRestServices/rest/POLocator/findLocations", "@spider": "usps_collection_boxes", "addr:city": "GRAND RAPIDS", "addr:country": "US", "addr:postcode": "49509", "addr:state": "MI", "addr:street_address": "4433 BYRON CENTER AVE SW", "amenity": "post_box", "collection_times": "Mo-Sa 15:00", "note": "ON 12/24 AND 12/31, THIS BOX MAY BE COLLECTED AS EARLY AS 12 NOON.", "nsi_id": "unitedstatespostalservice-a77078", "operator": "United States Postal Service", "operator:short": "USPS", "operator:type": "public", "operator:wikidata": "Q668687", "ref": "4950900069"}, "type": "Feature"}
{"geometry": {"coordinates": [-85.7317211614, 42.9134934828], "type": "Point"}, "id": "1jRsPBWH-RC9KcF92SjPMyvT9bY=", "properties": {"@source_uri": "https://tools.usps.com/UspsToolsRestServices/rest/POLocator/findLocations", "@spider": "usps_collection_boxes", "addr:city": "GRAND RAPIDS", "addr:country": "US", "addr:postcode": "49509", "addr:state": "MI", "addr:street_address": "2820 CLYDON AVE SW", "amenity": "post_box", "collection_times": "Mo-Sa 13:00", "note": "ON 12/24 AND 12/31, THIS BOX MAY BE COLLECTED AS EARLY AS 12 NOON.", "nsi_id": "unitedstatespostalservice-a77078", "operator": "United States Postal Service", "operator:short": "USPS", "operator:type": "public", "operator:wikidata": "Q668687", "ref": "4950900073"}, "type": "Feature"}
{"geometry": {"coordinates": [-85.7214608, 42.907128], "type": "Point"}, "id": "oirNXJAEmrA3HFaPm6vtADQkLZ8=", "properties": {"@source_uri": "https://tools.usps.com/UspsToolsRestServices/rest/POLocator/findLocations", "@spider": "usps_collection_boxes", "addr:city": "GRAND RAPIDS", "addr:country": "US", "addr:postcode": "49509", "addr:state": "MI", "addr:street_address": "3100 WATERCHASE WAY SW", "amenity": "post_box", "collection_times": "Mo-Fr 13:00; Sa 15:00", "note": "ON 12/24 AND 12/31, THIS BOX MAY BE COLLECTED AS EARLY AS 12 NOON.", "nsi_id": "unitedstatespostalservice-a77078", "operator": "United States Postal Service", "operator:short": "USPS", "operator:type": "public", "operator:wikidata": "Q668687", "ref": "4950900079"}, "type": "Feature"}
{"geometry": {"coordinates": [-85.6948385, 42.914202], "type": "Point"}, "id": "SQkj-IEgv3TsSThRSbZXYSVDa10=", "properties": {"@source_uri": "https://tools.usps.com/UspsToolsRestServices/rest/POLocator/findLocations", "@spider": "usps_collection_boxes", "addr:city": "GRAND RAPIDS", "addr:country": "US", "addr:postcode": "49509", "addr:state": "MI", "addr:street_address": "1155 28TH ST SW", "amenity": "post_box", "collection_times": "Mo-Fr 17:00", "note": "ON 12/24 AND 12/31, THIS BOX MAY BE COLLECTED AS EARLY AS 12 NOON.", "nsi_id": "unitedstatespostalservice-a77078", "operator": "United States Postal Service", "operator:short": "USPS", "operator:type": "public", "operator:wikidata": "Q668687", "ref": "4950900080"}, "type": "Feature"}
{"geometry": {"coordinates": [-85.7039837, 42.898561], "type": "Point"}, "id": "tpq1sCET2ryN9ORiRbnxnXRqaMg=", "properties": {"@source_uri": "https://tools.usps.com/UspsToolsRestServices/rest/POLocator/findLocations", "@spider": "usps_collection_boxes", "addr:city": "GRAND RAPIDS", "addr:country": "US", "addr:postcode": "49509", "addr:state": "MI", "addr:street_address": "1550 36TH ST SW", "amenity": "post_box", "collection_times": "Mo-Sa 15:00", "note": "ON 12/24 AND 12/31, THIS BOX MAY BE COLLECTED AS EARLY AS 12 NOON.", "nsi_id": "unitedstatespostalservice-a77078", "operator": "United States Postal Service", "operator:short": "USPS", "operator:type": "public", "operator:wikidata": "Q668687", "ref": "4950900082"}, "type": "Feature"}
{"geometry": {"coordinates": [-85.6905984973, 42.9133247768], "type": "Point"}, "id": "0lF15f4RGd9Vtrb-V0QZ0INwlbE=", "properties": {"@source_uri": "https://tools.usps.com/UspsToolsRestServices/rest/POLocator/findLocations", "@spider": "usps_collection_boxes", "addr:city": "GRAND RAPIDS", "addr:country": "US", "addr:postcode": "49509", "addr:state": "MI", "addr:street_address": "1025 28TH ST SW", "amenity": "post_box", "collection_times": "Mo-Fr 18:00; Sa 12:30", "indoor": "yes", "note": "ON 12/24 AND 12/31, THIS BOX MAY BE COLLECTED AS EARLY AS 12 NOON.", "nsi_id": "unitedstatespostalservice-a77078", "operator": "United States Postal Service", "operator:short": "USPS", "operator:type": "public", "operator:wikidata": "Q668687", "ref": "4950900083"}, "type": "Feature"}
{"geometry": {"coordinates": [-85.6911119752, 42.9121220032], "type": "Point"}, "id": "uOZ-Xchl9eze8ZOy2FKPC-VO4jM=", "properties": {"@source_uri": "https://tools.usps.com/UspsToolsRestServices/rest/POLocator/findLocations", "@spider": "usps_collection_boxes", "addr:city": "GRAND RAPIDS", "addr:country": "US", "addr:postcode": "49509", "addr:state": "MI", "addr:street_address": "1026 28TH ST SW", "amenity": "post_box", "collection_times": "Mo-Fr 18:00; Sa 15:00", "name": "USPS COLLECTION BOX - APC", "note": "ON 12/24 AND 12/31, THIS BOX MAY BE COLLECTED AS EARLY AS 12 NOON.", "nsi_id": "unitedstatespostalservice-a77078", "operator": "United States Postal Service", "operator:short": "USPS", "operator:type": "public", "operator:wikidata": "Q668687", "ref": "4950900086"}, "type": "Feature"}
{"geometry": {"coordinates": [-85.5646705, 42.881552], "type": "Point"}, "id": "bYuEa41Txh4WIgAZtRI9H7a_xUo=", "properties": {"@source_uri": "https://tools.usps.com/UspsToolsRestServices/rest/POLocator/findLocations", "@spider": "usps_collection_boxes", "addr:city": "GRAND RAPIDS", "addr:country": "US", "addr:postcode": "49512", "addr:state": "MI", "addr:street_address": "4595 BROADMOOR AVE SE", "amenity": "post_box", "collection_times": "Mo-Sa 10:00", "nsi_id": "unitedstatespostalservice-a77078", "operator": "United States Postal Service", "operator:short": "USPS", "operator:type": "public", "operator:wikidata": "Q668687", "ref": "4951200003"}, "type": "Feature"}
{"geometry": {"coordinates": [-85.5623833, 42.901188], "type": "Point"}, "id": "Xo90f9OjTXgKC-Xi22pFokMy6hw=", "properties": {"@source_uri": "https://tools.usps.com/UspsToolsRestServices/rest/POLocator/findLocations", "@spider": "usps_collection_boxes", "addr:city": "GRAND RAPIDS", "addr:country": "US", "addr:postcode": "49512", "addr:state": "MI", "addr:street_address": "4243 FOREST CREEK CT SE", "amenity": "post_box", "collection_times": "Mo-Fr 13:00; Sa 15:00", "note": "ON 12/24 AND 12/31, THIS BOX MAY BE COLLECTED AS EARLY AS 12 NOON.", "nsi_id": "unitedstatespostalservice-a77078", "operator": "United States Postal Service", "operator:short": "USPS", "operator:type": "public", "operator:wikidata": "Q668687", "ref": "4951200010"}, "type": "Feature"}
{"geometry": {"coordinates": [-85.562471, 42.883391], "type": "Point"}, "id": "zJG0yz-WwnmCtrt-PoTbpkPRxkk=", "properties": {"@source_uri": "https://tools.usps.com/UspsToolsRestServices/rest/POLocator/findLocations", "@spider": "usps_collection_boxes", "addr:city": "GRAND RAPIDS", "addr:country": "US", "addr:postcode": "49512", "addr:state": "MI", "addr:street_address": "4180 44TH ST SE", "amenity": "post_box", "collection_times": "Mo-Sa 10:00", "nsi_id": "unitedstatespostalservice-a77078", "operator": "United States Postal Service", "operator:short": "USPS", "operator:type": "public", "operator:wikidata": "Q668687", "ref": "4951200011"}, "type": "Feature"}
{"geometry": {"coordinates": [-85.5508707, 42.884491], "type": "Point"}, "id": "Lv7ZsJWzYmnEG811-uWlyzMO-Yw=", "properties": {"@source_uri": "https://tools.usps.com/UspsToolsRestServices/rest/POLocator/findLocations", "@spider": "usps_collection_boxes", "addr:city": "GRAND RAPIDS", "addr:country": "US", "addr:postcode": "49512", "addr:state": "MI", "addr:street_address": "4665 44TH ST SE", "amenity": "post_box", "collection_times": "Mo-Fr 14:15", "note": "ON 12/24 AND 12/31, THIS BOX MAY BE COLLECTED AS EARLY AS 12 NOON.", "nsi_id": "unitedstatespostalservice-a77078", "operator": "United States Postal Service", "operator:short": "USPS", "operator:type": "public", "operator:wikidata": "Q668687", "ref": "4951200013"}, "type": "Feature"}
{"geometry": {"coordinates": [-85.5981305, 42.8856], "type": "Point"}, "id": "8qZnh5BtjLvtqGcxzStiE9DCO0U=", "properties": {"@source_uri": "https://tools.usps.com/UspsToolsRestServices/rest/POLocator/findLocations", "@spider": "usps_collection_boxes", "addr:city": "GRAND RAPIDS", "addr:country": "US", "addr:postcode": "49512", "addr:state": "MI", "addr:street_address": "2650 PHEASANT RUN DR SE", "amenity": "post_box", "collection_times": "Mo-Fr 10:15; Sa 15:00", "note": "ON 12/24 AND 12/31, THIS BOX MAY BE COLLECTED AS EARLY AS 12 NOON.", "nsi_id": "unitedstatespostalservice-a77078", "operator": "United States Postal Service", "operator:short": "USPS", "operator:type": "public", "operator:wikidata": "Q668687", "ref": "4951200019"}, "type": "Feature"}
{"geometry": {"coordinates": [-85.5332488, 42.914228], "type": "Point"}, "id": "e72qwwO11EQgwjG1QzsXiO96hjg=", "properties": {"@source_uri": "https://tools.usps.com/UspsToolsRestServices/rest/POLocator/findLocations", "@spider": "usps_collection_boxes", "addr:city": "GRAND RAPIDS", "addr:country": "US", "addr:postcode": "49512", "addr:state": "MI", "addr:street_address": "5531 28TH ST SE", "amenity": "post_box", "collection_times": "Mo-Sa 10:00", "nsi_id": "unitedstatespostalservice-a77078", "operator": "United States Postal Service", "operator:short": "USPS", "operator:type": "public", "operator:wikidata": "Q668687", "ref": "4951200026"}, "type": "Feature"}
{"geometry": {"coordinates": [-85.5894209657, 42.9038380007], "type": "Point"}, "id": "YgHrB-4YvTyKXt7bwyogdGCm3EQ=", "properties": {"@source_uri": "https://tools.usps.com/UspsToolsRestServices/rest/POLocator/findLocations", "@spider": "usps_collection_boxes", "addr:city": "GRAND RAPIDS", "addr:country": "US", "addr:postcode": "49512", "addr:state": "MI", "addr:street_address": "3151 WINGATE DR SE", "amenity": "post_box", "collection_times": "Mo-Fr 13:00; Sa 15:00", "note": "ON 12/24 AND 12/31, THIS BOX MAY BE COLLECTED AS EARLY AS 12 NOON.", "nsi_id": "unitedstatespostalservice-a77078", "operator": "United States Postal Service", "operator:short": "USPS", "operator:type": "public", "operator:wikidata": "Q668687", "ref": "4951200027"}, "type": "Feature"}
{"geometry": {"coordinates": [-85.5671018, 42.90416], "type": "Point"}, "id": "KaZNCB_Ct_mh9kUepz1KFbCrils=", "properties": {"@source_uri": "https://tools.usps.com/UspsToolsRestServices/rest/POLocator/findLocations", "@spider": "usps_collection_boxes", "addr:city": "GRAND RAPIDS", "addr:country": "US", "addr:postcode": "49512", "addr:state": "MI", "addr:street_address": "4005 WOODLAND CREEK DR SE", "amenity": "post_box", "collection_times": "Mo-Fr 13:00; Sa 15:00", "note": "ON 12/24 AND 12/31, THIS BOX MAY BE COLLECTED AS EARLY AS 12 NOON.", "nsi_id": "unitedstatespostalservice-a77078", "operator": "United States Postal Service", "operator:short": "USPS", "operator:type": "public", "operator:wikidata": "Q668687", "ref": "4951200028"}, "type": "Feature"}
{"geometry": {"coordinates": [-85.5735332, 42.8614046], "type": "Point"}, "id": "z72n9aHB3K_O-TOby0TL77sqsnk=", "properties": {"@source_uri": "https://tools.usps.com/UspsToolsRestServices/rest/POLocator/findLocations", "@spider": "usps_collection_boxes", "addr:city": "GRAND RAPIDS", "addr:country": "US", "addr:postcode": "49512", "addr:state": "MI", "addr:street_address": "3195 28TH ST SE", "amenity": "post_box", "collection_times": "Mo-Sa 15:00", "note": "ON 12/24 AND 12/31, THIS BOX MAY BE COLLECTED AS EARLY AS 12 NOON.", "nsi_id": "unitedstatespostalservice-a77078", "operator": "United States Postal Service", "operator:short": "USPS", "operator:type": "public", "operator:wikidata": "Q668687", "ref": "4951200029"}, "type": "Feature"}
{"geometry": {"coordinates": [-85.5407999, 42.868185], "type": "Point"}, "id": "3cxBtR4GtLkaaNg915BLpbm7wNI=", "properties": {"@source_uri": "https://tools.usps.com/UspsToolsRestServices/rest/POLocator/findLocations", "@spider": "usps_collection_boxes", "addr:city": "GRAND RAPIDS", "addr:country": "US", "addr:postcode": "49512", "addr:state": "MI", "addr:street_address": "5300 CORPORATE GROVE DR SE", "amenity": "post_box", "collection_times": "Mo-Fr 15:00", "note": "ON 12/24 AND 12/31, THIS BOX MAY BE COLLECTED AS EARLY AS 12 NOON.", "nsi_id": "unitedstatespostalservice-a77078", "operator": "United States Postal Service", "operator:short": "USPS", "operator:type": "public", "operator:wikidata": "Q668687", "ref": "4951200041"}, "type": "Feature"}
{"geometry": {"coordinates": [-85.5735332, 42.8614046], "type": "Point"}, "id": "pFKcTHlFedHMAXZWkl2AxkS_I88=", "properties": {"@source_uri": "https://tools.usps.com/UspsToolsRestServices/rest/POLocator/findLocations", "@spider": "usps_collection_boxes", "addr:city": "GRAND RAPIDS", "addr:country": "US", "addr:postcode": "49512", "addr:state": "MI", "addr:street_address": "3680 44TH ST SE", "amenity": "post_box", "collection_times": "Mo-Fr 14:15; Sa 15:00", "note": "ON 12/24 AND 12/31, THIS BOX MAY BE COLLECTED AS EARLY AS 12 NOON.", "nsi_id": "unitedstatespostalservice-a77078", "operator": "United States Postal Service", "operator:short": "USPS", "operator:type": "public", "operator:wikidata": "Q668687", "ref": "4951200042"}, "type": "Feature"}
{"geometry": {"coordinates": [-85.5735332, 42.8614046], "type": "Point"}, "id": "xXpbslHlYF-Bk_5CTrTb9YI7_4w=", "properties": {"@source_uri": "https://tools.usps.com/UspsToolsRestServices/rest/POLocator/findLocations", "@spider": "usps_collection_boxes", "addr:city": "GRAND RAPIDS", "addr:country": "US", "addr:postcode": "49512", "addr:state": "MI", "addr:street_address": "4633 PATTERSON AVE SE", "amenity": "post_box", "collection_times": "Mo-Sa 15:00", "note": "ON 12/24 AND 12/31, THIS BOX MAY BE COLLECTED AS EARLY AS 12 NOON.", "nsi_id": "unitedstatespostalservice-a77078", "operator": "United States Postal Service", "operator:short": "USPS", "operator:type": "public", "operator:wikidata": "Q668687", "ref": "4951200071"}, "type": "Feature"}
{"geometry": {"coordinates": [-85.5677846, 42.872056], "type": "Point"}, "id": "ihSCGiIVA2LsZDQWWDhMx22P1GE=", "properties": {"@source_uri": "https://tools.usps.com/UspsToolsRestServices/rest/POLocator/findLocations", "@spider": "usps_collection_boxes", "addr:city": "GRAND RAPIDS", "addr:country": "US", "addr:postcode": "49512", "addr:state": "MI", "addr:street_address": "3970 S GREENBROOKE DR SE", "amenity": "post_box", "collection_times": "Mo-Fr 17:00; Sa 15:00", "note": "ON 12/24 AND 12/31, THIS BOX MAY BE COLLECTED AS EARLY AS 12 NOON.", "nsi_id": "unitedstatespostalservice-a77078", "operator": "United States Postal Service", "operator:short": "USPS", "operator:type": "public", "operator:wikidata": "Q668687", "ref": "4951200075"}, "type": "Feature"}
{"geometry": {"coordinates": [-85.566866, 42.872196], "type": "Point"}, "id": "YiTrO58DQyRI8pp6Q8Rp2eLAmw0=", "properties": {"@source_uri": "https://tools.usps.com/UspsToolsRestServices/rest/POLocator/findLocations", "@spider": "usps_collection_boxes", "addr:city": "GRAND RAPIDS", "addr:country": "US", "addr:postcode": "49512", "addr:state": "MI", "addr:street_address": "3970 S GREENBROOKE DR SE", "amenity": "post_box", "collection_times": "Mo-Fr 16:00; Sa 12:30", "indoor": "yes", "note": "ON 12/24 AND 12/31, THIS BOX MAY BE COLLECTED AS EARLY AS 12 NOON.", "nsi_id": "unitedstatespostalservice-a77078", "operator": "United States Postal Service", "operator:short": "USPS", "operator:type": "public", "operator:wikidata": "Q668687", "ref": "4951200080"}, "type": "Feature"}
{"geometry": {"coordinates": [-85.7189641, 42.857569], "type": "Point"}, "id": "c_6rQMw9pQ0rUwkYQ5M339uv9Ck=", "properties": {"@source_uri": "https://tools.usps.com/UspsToolsRestServices/rest/POLocator/findLocations", "@spider": "usps_collection_boxes", "addr:city": "GRAND RAPIDS", "addr:country": "US", "addr:postcode": "49519", "addr:state": "MI", "addr:street_address": "5900 BYRON CENTER AVE SW", "amenity": "post_box", "collection_times": "Mo-Sa 15:00", "note": "ON 12/24 AND 12/31, THIS BOX MAY BE COLLECTED AS EARLY AS 12 NOON.", "nsi_id": "unitedstatespostalservice-a77078", "operator": "United States Postal Service", "operator:short": "USPS", "operator:type": "public", "operator:wikidata": "Q668687", "ref": "4951900001"}, "type": "Feature"}
{"geometry": {"coordinates": [-85.7156933, 42.860019], "type": "Point"}, "id": "x-UbHOLSV8XGn-0fUgeSdaoYifQ=", "properties": {"@source_uri": "https://tools.usps.com/UspsToolsRestServices/rest/POLocator/findLocations", "@spider": "usps_collection_boxes", "addr:city": "GRAND RAPIDS", "addr:country": "US", "addr:postcode": "49519", "addr:state": "MI", "addr:street_address": "2093 HEALTH DR SW", "amenity": "post_box", "collection_times": "Mo-Sa 15:00", "note": "ON 12/24 AND 12/31, THIS BOX MAY BE COLLECTED AS EARLY AS 12 NOON.", "nsi_id": "unitedstatespostalservice-a77078", "operator": "United States Postal Service", "operator:short": "USPS", "operator:type": "public", "operator:wikidata": "Q668687", "ref": "4951900002"}, "type": "Feature"}
{"geometry": {"coordinates": [-85.5893046, 43.039608], "type": "Point"}, "id": "VSqjxtacpL_j8uOTbYRhVFrdonA=", "properties": {"@source_uri": "https://tools.usps.com/UspsToolsRestServices/rest/POLocator/findLocations", "@spider": "usps_collection_boxes", "addr:city": "GRAND RAPIDS", "addr:country": "US", "addr:postcode": "49525", "addr:state": "MI", "addr:street_address": "4250 E BELTLINE AVE NE", "amenity": "post_box", "collection_times": "Mo-Sa 15:00", "note": "ON 12/24 AND 12/31, THIS BOX MAY BE COLLECTED AS EARLY AS 12 NOON.", "nsi_id": "unitedstatespostalservice-a77078", "operator": "United States Postal Service", "operator:short": "USPS", "operator:type": "public", "operator:wikidata": "Q668687", "ref": "4952500000"}, "type": "Feature"}
{"geometry": {"coordinates": [-85.791506877, 43.013594735], "type": "Point"}, "id": "Sp8d5AQA4yw7RsksJy7ncfO7VVc=", "properties": {"@source_uri": "https://tools.usps.com/UspsToolsRestServices/rest/POLocator/findLocations", "@spider": "usps_collection_boxes", "addr:city": "GRAND RAPIDS", "addr:country": "US", "addr:postcode": "49534", "addr:state": "MI", "addr:street_address": "205 HERON DR NW", "amenity": "post_box", "collection_times": "Mo-Sa 14:30", "note": "ON 12/24 AND 12/31, THIS BOX MAY BE COLLECTED AS EARLY AS 12 NOON.", "nsi_id": "unitedstatespostalservice-a77078", "operator": "United States Postal Service", "operator:short": "USPS", "operator:type": "public", "operator:wikidata": "Q668687", "ref": "4953400001"}, "type": "Feature"}
{"geometry": {"coordinates": [-85.7782421, 43.016597], "type": "Point"}, "id": "_S_j-CPe6t70ABpQ-4JH7OS7fgk=", "properties": {"@source_uri": "https://tools.usps.com/UspsToolsRestServices/rest/POLocator/findLocations", "@spider": "usps_collection_boxes", "addr:city": "GRAND RAPIDS", "addr:country": "US", "addr:postcode": "49544", "addr:state": "MI", "addr:street_address": "2800 WILSON DR NW", "amenity": "post_box", "collection_times": "Mo-Sa 09:00", "nsi_id": "unitedstatespostalservice-a77078", "operator": "United States Postal Service", "operator:short": "USPS", "operator:type": "public", "operator:wikidata": "Q668687", "ref": "4954400000"}, "type": "Feature"}
{"geometry": {"coordinates": [-85.542922, 42.915844], "type": "Point"}, "id": "krrt6FsIUJQ_Amsh2o_oimNctO0=", "properties": {"@source_uri": "https://tools.usps.com/UspsToolsRestServices/rest/POLocator/findLocations", "@spider": "usps_collection_boxes", "addr:city": "GRAND RAPIDS", "addr:country": "US", "addr:postcode": "49546", "addr:state": "MI", "addr:street_address": "2620 HORIZON DR SE", "amenity": "post_box", "collection_times": "Mo-Sa 15:00", "note": "ON 12/24 AND 12/31, THIS BOX MAY BE COLLECTED AS EARLY AS 12 NOON.", "nsi_id": "unitedstatespostalservice-a77078", "operator": "United States Postal Service", "operator:short": "USPS", "operator:type": "public", "operator:wikidata": "Q668687", "ref": "4954600001"}, "type": "Feature"}
{"geometry": {"coordinates": [-85.5783838, 42.919667], "type": "Point"}, "id": "4XACZQVdDKhwgkC0lOHkAq2C-ww=", "properties": {"@source_uri": "https://tools.usps.com/UspsToolsRestServices/rest/POLocator/findLocations", "@spider": "usps_collection_boxes", "addr:city": "GRAND RAPIDS", "addr:country": "US", "addr:postcode": "49546", "addr:state": "MI", "addr:street_address": "3600 CAMELOT DR SE", "amenity": "post_box", "collection_times": "Mo-Fr 17:00; Sa 15:00", "note": "ON 12/24 AND 12/31, THIS BOX MAY BE COLLECTED AS EARLY AS 12 NOON.", "nsi_id": "unitedstatespostalservice-a77078", "operator": "United States Postal Service", "operator:short": "USPS", "operator:type": "public", "operator:wikidata": "Q668687", "ref": "4954600008"}, "type": "Feature"}
{"geometry": {"coordinates": [-85.5710849, 42.949298], "type": "Point"}, "id": "40Z5XKutwctDf02L2Tj-EGivJT4=", "properties": {"@source_uri": "https://tools.usps.com/UspsToolsRestServices/rest/POLocator/findLocations", "@spider": "usps_collection_boxes", "addr:city": "GRAND RAPIDS", "addr:country": "US", "addr:postcode": "49546", "addr:state": "MI", "addr:street_address": "699 CASCADE WEST PKWY SE", "amenity": "post_box", "collection_times": "Mo-Fr 17:00; Sa 09:30", "note": "ON 12/24 AND 12/31, THIS BOX MAY BE COLLECTED AS EARLY AS 12 NOON.", "nsi_id": "unitedstatespostalservice-a77078", "operator": "United States Postal Service", "operator:short": "USPS", "operator:type": "public", "operator:wikidata": "Q668687", "ref": "4954600010"}, "type": "Feature"}
{"geometry": {"coordinates": [-85.5639611, 42.947028], "type": "Point"}, "id": "kxYZDctl__gcLmIky500tcj59Rg=", "properties": {"@source_uri": "https://tools.usps.com/UspsToolsRestServices/rest/POLocator/findLocations", "@spider": "usps_collection_boxes", "addr:city": "GRAND RAPIDS", "addr:country": "US", "addr:postcode": "49546", "addr:state": "MI", "addr:street_address": "889 KENMOOR AVE SE", "amenity": "post_box", "collection_times": "Mo-Sa 09:45", "nsi_id": "unitedstatespostalservice-a77078", "operator": "United States Postal Service", "operator:short": "USPS", "operator:type": "public", "operator:wikidata": "Q668687", "ref": "4954600014"}, "type": "Feature"}
{"geometry": {"coordinates": [-85.5596433, 42.945531], "type": "Point"}, "id": "ToRptyrAmANil_e3BKTjYJ7oqCA=", "properties": {"@source_uri": "https://tools.usps.com/UspsToolsRestServices/rest/POLocator/findLocations", "@spider": "usps_collection_boxes", "addr:city": "GRAND RAPIDS", "addr:country": "US", "addr:postcode": "49546", "addr:state": "MI", "addr:street_address": "970 PARCHMENT DR SE", "amenity": "post_box", "collection_times": "Mo-Sa 09:30", "nsi_id": "unitedstatespostalservice-a77078", "operator": "United States Postal Service", "operator:short": "USPS", "operator:type": "public", "operator:wikidata": "Q668687", "ref": "4954600016"}, "type": "Feature"}
{"geometry": {"coordinates": [-85.5550524, 42.940035], "type": "Point"}, "id": "p4nbZZgEf5VvdBwqjiQZXeLp0uE=", "properties": {"@source_uri": "https://tools.usps.com/UspsToolsRestServices/rest/POLocator/findLocations", "@spider": "usps_collection_boxes", "addr:city": "GRAND RAPIDS", "addr:country": "US", "addr:postcode": "49546", "addr:state": "MI", "addr:street_address": "2900 CHARLEVOIX DR SE", "amenity": "post_box", "collection_times": "Mo-Sa 10:00", "nsi_id": "unitedstatespostalservice-a77078", "operator": "United States Postal Service", "operator:short": "USPS", "operator:type": "public", "operator:wikidata": "Q668687", "ref": "4954600028"}, "type": "Feature"}
{"geometry": {"coordinates": [-85.5843995, 42.915147], "type": "Point"}, "id": "lhcG246Hy2qvoeMYuXTCoKDANB0=", "properties": {"@source_uri": "https://tools.usps.com/UspsToolsRestServices/rest/POLocator/findLocations", "@spider": "usps_collection_boxes", "addr:city": "GRAND RAPIDS", "addr:country": "US", "addr:postcode": "49546", "addr:state": "MI", "addr:street_address": "2627 E BELTLINE AVE SE", "amenity": "post_box", "collection_times": "Mo-Sa 15:00", "note": "ON 12/24 AND 12/31, THIS BOX MAY BE COLLECTED AS EARLY AS 12 NOON.", "nsi_id": "unitedstatespostalservice-a77078", "operator": "United States Postal Service", "operator:short": "USPS", "operator:type": "public", "operator:wikidata": "Q668687", "ref": "4954600036"}, "type": "Feature"}
{"geometry": {"coordinates": [-85.5699339, 42.94402], "type": "Point"}, "id": "fRUFUFFApUrLpgE09KJGLfSkRPE=", "properties": {"@source_uri": "https://tools.usps.com/UspsToolsRestServices/rest/POLocator/findLocations", "@spider": "usps_collection_boxes", "addr:city": "GRAND RAPIDS", "addr:country": "US", "addr:postcode": "49546", "addr:state": "MI", "addr:street_address": "1000 EAST PARIS AVE SE", "amenity": "post_box", "collection_times": "Mo-Sa 15:00", "note": "ON 12/24 AND 12/31, THIS BOX MAY BE COLLECTED AS EARLY AS 12 NOON.", "nsi_id": "unitedstatespostalservice-a77078", "operator": "United States Postal Service", "operator:short": "USPS", "operator:type": "public", "operator:wikidata": "Q668687", "ref": "4954600037"}, "type": "Feature"}
{"geometry": {"coordinates": [-85.5486799299, 42.9156845712], "type": "Point"}, "id": "36bUTvNiGUQNknuik_aP7OEkn2g=", "properties": {"@source_uri": "https://tools.usps.com/UspsToolsRestServices/rest/POLocator/findLocations", "@spider": "usps_collection_boxes", "addr:city": "GRAND RAPIDS", "addr:country": "US", "addr:postcode": "49546", "addr:state": "MI", "addr:street_address": "4815 STARR ST SE", "amenity": "post_box", "collection_times": "Mo-Sa 15:00", "note": "ON 12/24 AND 12/31, THIS BOX MAY BE COLLECTED AS EARLY AS 12 NOON.", "nsi_id": "unitedstatespostalservice-a77078", "operator": "United States Postal Service", "operator:short": "USPS", "operator:type": "public", "operator:wikidata": "Q668687", "ref": "4954600045"}, "type": "Feature"}
{"geometry": {"coordinates": [-85.507614, 42.913915], "type": "Point"}, "id": "-UCJiax4lBixB5rlzps3hu2e33c=", "properties": {"@source_uri": "https://tools.usps.com/UspsToolsRestServices/rest/POLocator/findLocations", "@spider": "usps_collection_boxes", "addr:city": "GRAND RAPIDS", "addr:country": "US", "addr:postcode": "49546", "addr:state": "MI", "addr:street_address": "6485 28TH ST SE", "amenity": "post_box", "collection_times": "Mo-Sa 15:00", "note": "ON 12/24 AND 12/31, THIS BOX MAY BE COLLECTED AS EARLY AS 12 NOON.", "nsi_id": "unitedstatespostalservice-a77078", "operator": "United States Postal Service", "operator:short": "USPS", "operator:type": "public", "operator:wikidata": "Q668687", "ref": "4954600056"}, "type": "Feature"}
{"geometry": {"coordinates": [-85.4996888, 42.915993], "type": "Point"}, "id": "bc8vp1lfQhuNYbBEb_l3Zee7GCc=", "properties": {"@source_uri": "https://tools.usps.com/UspsToolsRestServices/rest/POLocator/findLocations", "@spider": "usps_collection_boxes", "addr:city": "GRAND RAPIDS", "addr:country": "US", "addr:postcode": "49546", "addr:state": "MI", "addr:street_address": "6797 CASCADE RD SE", "amenity": "post_box", "collection_times": "Mo-Sa 15:00", "note": "ON 12/24 AND 12/31, THIS BOX MAY BE COLLECTED AS EARLY AS 12 NOON.", "nsi_id": "unitedstatespostalservice-a77078", "operator": "United States Postal Service", "operator:short": "USPS", "operator:type": "public", "operator:wikidata": "Q668687", "ref": "4954600071"}, "type": "Feature"}
{"geometry": {"coordinates": [-85.5550524, 42.940035], "type": "Point"}, "id": "a83VMaqneiqahMszypgffn2_HD0=", "properties": {"@source_uri": "https://tools.usps.com/UspsToolsRestServices/rest/POLocator/findLocations", "@spider": "usps_collection_boxes", "addr:city": "GRAND RAPIDS", "addr:country": "US", "addr:postcode": "49546", "addr:state": "MI", "addr:street_address": "2041 RIDGECREST RD SE", "amenity": "post_box", "collection_times": "Mo-Sa 10:00", "nsi_id": "unitedstatespostalservice-a77078", "operator": "United States Postal Service", "operator:short": "USPS", "operator:type": "public", "operator:wikidata": "Q668687", "ref": "4954600081"}, "type": "Feature"}
{"geometry": {"coordinates": [-85.5868822, 42.930989], "type": "Point"}, "id": "9B4PU_tSGqObpNiJ13fwF2vYGOo=", "properties": {"@source_uri": "https://tools.usps.com/UspsToolsRestServices/rest/POLocator/findLocations", "@spider": "usps_collection_boxes", "addr:city": "GRAND RAPIDS", "addr:country": "US", "addr:postcode": "49546", "addr:state": "MI", "addr:street_address": "3201 BURTON ST SE", "amenity": "post_box", "collection_times": "Mo-Sa 15:00", "note": "ON 12/24 AND 12/31, THIS BOX MAY BE COLLECTED AS EARLY AS 12 NOON.", "nsi_id": "unitedstatespostalservice-a77078", "operator": "United States Postal Service", "operator:short": "USPS", "operator:type": "public", "operator:wikidata": "Q668687", "ref": "4954600089"}, "type": "Feature"}
{"geometry": {"coordinates": [-85.5416626, 42.942636], "type": "Point"}, "id": "vItfirAuuPgzeIuSKf0nsImYErI=", "properties": {"@source_uri": "https://tools.usps.com/UspsToolsRestServices/rest/POLocator/findLocations", "@spider": "usps_collection_boxes", "addr:city": "GRAND RAPIDS", "addr:country": "US", "addr:postcode": "49546", "addr:state": "MI", "addr:street_address": "5136 CASCADE RD SE", "amenity": "post_box", "collection_times": "Mo-Sa 15:00", "note": "ON 12/24 AND 12/31, THIS BOX MAY BE COLLECTED AS EARLY AS 12 NOON.", "nsi_id": "unitedstatespostalservice-a77078", "operator": "United States Postal Service", "operator:short": "USPS", "operator:type": "public", "operator:wikidata": "Q668687", "ref": "4954600097"}, "type": "Feature"}
{"geometry": {"coordinates": [-85.5657977, 42.951317], "type": "Point"}, "id": "dAN4TyElf91uhUeT9gut0ZRGla0=", "properties": {"@source_uri": "https://tools.usps.com/UspsToolsRestServices/rest/POLocator/findLocations", "@spider": "usps_collection_boxes", "addr:city": "GRAND RAPIDS", "addr:country": "US", "addr:postcode": "49546", "addr:state": "MI", "addr:street_address": "649 KENMOOR AVE SE", "amenity": "post_box", "collection_times": "Mo-Sa 09:45", "nsi_id": "unitedstatespostalservice-a77078", "operator": "United States Postal Service", "operator:short": "USPS", "operator:type": "public", "operator:wikidata": "Q668687", "ref": "4954600099"}, "type": "Feature"}
{"geometry": {"coordinates": [-85.5694694, 42.917874], "type": "Point"}, "id": "MoNUrDq49XFFUZV9Wij2IDiyN6Q=", "properties": {"@source_uri": "https://tools.usps.com/UspsToolsRestServices/rest/POLocator/findLocations", "@spider": "usps_collection_boxes", "addr:city": "GRAND RAPIDS", "addr:country": "US", "addr:postcode": "49546", "addr:state": "MI", "addr:street_address": "3950 PENINSULAR DR SE", "amenity": "post_box", "collection_times": "Mo-Sa 09:45", "nsi_id": "unitedstatespostalservice-a77078", "operator": "United States Postal Service", "operator:short": "USPS", "operator:type": "public", "operator:wikidata": "Q668687", "ref": "4954600105"}, "type": "Feature"}
{"geometry": {"coordinates": [-85.5711631, 42.916138], "type": "Point"}, "id": "dwLNAf-PAV3yguf6wBcGrkUWg68=", "properties": {"@source_uri": "https://tools.usps.com/UspsToolsRestServices/rest/POLocator/findLocations", "@spider": "usps_collection_boxes", "addr:city": "GRAND RAPIDS", "addr:country": "US", "addr:postcode": "49546", "addr:state": "MI", "addr:street_address": "3855 SPARKS DR SE", "amenity": "post_box", "collection_times": "Mo-Sa 10:00", "nsi_id": "unitedstatespostalservice-a77078", "operator": "United States Postal Service", "operator:short": "USPS", "operator:type": "public", "operator:wikidata": "Q668687", "ref": "4954600106"}, "type": "Feature"}
{"geometry": {"coordinates": [-85.6709619, 42.910551], "type": "Point"}, "id": "u53aGDc4w6YR4uyLXW1AqCq-3QQ=", "properties": {"@source_uri": "https://tools.usps.com/UspsToolsRestServices/rest/POLocator/findLocations", "@spider": "usps_collection_boxes", "addr:city": "GRAND RAPIDS", "addr:country": "US", "addr:postcode": "49548", "addr:state": "MI", "addr:street_address": "2935 BUCHANAN AVE SW", "amenity": "post_box", "collection_times": "Mo-Fr 13:00; Sa 15:00", "note": "ON 12/24 AND 12/31, THIS BOX MAY BE COLLECTED AS EARLY AS 12 NOON.", "nsi_id": "unitedstatespostalservice-a77078", "operator": "United States Postal Service", "operator:short": "USPS", "operator:type": "public", "operator:wikidata": "Q668687", "ref": "4954800002"}, "type": "Feature"}
{"geometry": {"coordinates": [-85.660679, 42.8654191], "type": "Point"}, "id": "ounB8O5GxIZaBFx7a7mY62Stuew=", "properties": {"@source_uri": "https://tools.usps.com/UspsToolsRestServices/rest/POLocator/findLocations", "@spider": "usps_collection_boxes", "addr:city": "GRAND RAPIDS", "addr:country": "US", "addr:postcode": "49548", "addr:state": "MI", "addr:street_address": "5 MURRAY ST SW", "amenity": "post_box", "collection_times": "Mo-Fr 13:00; Sa 15:00", "note": "ON 12/24 AND 12/31, THIS BOX MAY BE COLLECTED AS EARLY AS 12 NOON.", "nsi_id": "unitedstatespostalservice-a77078", "operator": "United States Postal Service", "operator:short": "USPS", "operator:type": "public", "operator:wikidata": "Q668687", "ref": "4954800005"}, "type": "Feature"}
{"geometry": {"coordinates": [-85.6713715, 42.916277], "type": "Point"}, "id": "sekKVUzeYGlz9wzgVzsIyJrA2WY=", "properties": {"@source_uri": "https://tools.usps.com/UspsToolsRestServices/rest/POLocator/findLocations", "@spider": "usps_collection_boxes", "addr:city": "GRAND RAPIDS", "addr:country": "US", "addr:postcode": "49548", "addr:state": "MI", "addr:street_address": "220 MART ST SW", "amenity": "post_box", "collection_times": "Mo-Fr 13:00; Sa 15:00", "note": "ON 12/24 AND 12/31, THIS BOX MAY BE COLLECTED AS EARLY AS 12 NOON.", "nsi_id": "unitedstatespostalservice-a77078", "operator": "United States Postal Service", "operator:short": "USPS", "operator:type": "public", "operator:wikidata": "Q668687", "ref": "4954800006"}, "type": "Feature"}
{"geometry": {"coordinates": [-85.6625399, 42.864323], "type": "Point"}, "id": "jyAA1U_JIntZAsyXf0UiE2U7pj0=", "properties": {"@source_uri": "https://tools.usps.com/UspsToolsRestServices/rest/POLocator/findLocations", "@spider": "usps_collection_boxes", "addr:city": "GRAND RAPIDS", "addr:country": "US", "addr:postcode": "49548", "addr:state": "MI", "addr:street_address": "5450 DIVISION AVE S", "amenity": "post_box", "collection_times": "Mo-Sa 13:00", "note": "ON 12/24 AND 12/31, THIS BOX MAY BE COLLECTED AS EARLY AS 12 NOON.", "nsi_id": "unitedstatespostalservice-a77078", "operator": "United States Postal Service", "operator:short": "USPS", "operator:type": "public", "operator:wikidata": "Q668687", "ref": "4954800014"}, "type": "Feature"}
{"geometry": {"coordinates": [-85.6544279, 42.902286], "type": "Point"}, "id": "ER1nqYzfHp4geuGh5nN0P20mA1U=", "properties": {"@source_uri": "https://tools.usps.com/UspsToolsRestServices/rest/POLocator/findLocations", "@spider": "usps_collection_boxes", "addr:city": "GRAND RAPIDS", "addr:country": "US", "addr:postcode": "49548", "addr:state": "MI", "addr:street_address": "3400 ROGER B CHAFFEE MEM DR SE", "amenity": "post_box", "collection_times": "Mo-Sa 15:00", "note": "ON 12/24 AND 12/31, THIS BOX MAY BE COLLECTED AS EARLY AS 12 NOON.", "nsi_id": "unitedstatespostalservice-a77078", "operator": "United States Postal Service", "operator:short": "USPS", "operator:type": "public", "operator:wikidata": "Q668687", "ref": "4954800023"}, "type": "Feature"}
{"geometry": {"coordinates": [-85.6539407, 42.901112], "type": "Point"}, "id": "aRWmETg_vdZwEmIdXIkLTqmbn_I=", "properties": {"@source_uri": "https://tools.usps.com/UspsToolsRestServices/rest/POLocator/findLocations", "@spider": "usps_collection_boxes", "addr:city": "GRAND RAPIDS", "addr:country": "US", "addr:postcode": "49548", "addr:state": "MI", "addr:street_address": "3457 ROGER B CHAFFEE MEM DR SE", "amenity": "post_box", "collection_times": "Mo-Sa 15:00", "note": "ON 12/24 AND 12/31, THIS BOX MAY BE COLLECTED AS EARLY AS 12 NOON.", "nsi_id": "unitedstatespostalservice-a77078", "operator": "United States Postal Service", "operator:short": "USPS", "operator:type": "public", "operator:wikidata": "Q668687", "ref": "4954800025"}, "type": "Feature"}
{"geometry": {"coordinates": [-85.6531876, 42.894868], "type": "Point"}, "id": "k6iMcFVlAgBWQlD6JvFU3paUf60=", "properties": {"@source_uri": "https://tools.usps.com/UspsToolsRestServices/rest/POLocator/findLocations", "@spider": "usps_collection_boxes", "addr:city": "GRAND RAPIDS", "addr:country": "US", "addr:postcode": "49548", "addr:state": "MI", "addr:street_address": "3803 ROGER B CHAFFEE MEM DR SE", "amenity": "post_box", "collection_times": "Mo-Sa 15:00", "note": "ON 12/24 AND 12/31, THIS BOX MAY BE COLLECTED AS EARLY AS 12 NOON.", "nsi_id": "unitedstatespostalservice-a77078", "operator": "United States Postal Service", "operator:short": "USPS", "operator:type": "public", "operator:wikidata": "Q668687", "ref": "4954800026"}, "type": "Feature"}
{"geometry": {"coordinates": [-85.6528106, 42.894269], "type": "Point"}, "id": "VuP-fHg7euPhP9l0zJ6Fy148Oxg=", "properties": {"@source_uri": "https://tools.usps.com/UspsToolsRestServices/rest/POLocator/findLocations", "@spider": "usps_collection_boxes", "addr:city": "GRAND RAPIDS", "addr:country": "US", "addr:postcode": "49548", "addr:state": "MI", "addr:street_address": "3810 ROGER B CHAFFEE MEM DR SE", "amenity": "post_box", "collection_times": "Mo-Sa 15:00", "note": "ON 12/24 AND 12/31, THIS BOX MAY BE COLLECTED AS EARLY AS 12 NOON.", "nsi_id": "unitedstatespostalservice-a77078", "operator": "United States Postal Service", "operator:short": "USPS", "operator:type": "public", "operator:wikidata": "Q668687", "ref": "4954800028"}, "type": "Feature"}
{"geometry": {"coordinates": [-85.6625058, 42.849761], "type": "Point"}, "id": "3wmt7Ct1Zelt7iSF-9h8ZRTfsO4=", "properties": {"@source_uri": "https://tools.usps.com/UspsToolsRestServices/rest/POLocator/findLocations", "@spider": "usps_collection_boxes", "addr:city": "GRAND RAPIDS", "addr:country": "US", "addr:postcode": "49548", "addr:state": "MI", "addr:street_address": "63 PIEDMONT DR SE", "amenity": "post_box", "collection_times": "Mo-Fr 13:00; Sa 15:00", "note": "ON 12/24 AND 12/31, THIS BOX MAY BE COLLECTED AS EARLY AS 12 NOON.", "nsi_id": "unitedstatespostalservice-a77078", "operator": "United States Postal Service", "operator:short": "USPS", "operator:type": "public", "operator:wikidata": "Q668687", "ref": "4954800037"}, "type": "Feature"}
{"geometry": {"coordinates": [-85.6625183, 42.839632], "type": "Point"}, "id": "7cdd4v5cmT9iFc-B1-o9XUq3uPs=", "properties": {"@source_uri": "https://tools.usps.com/UspsToolsRestServices/rest/POLocator/findLocations", "@spider": "usps_collection_boxes", "addr:city": "GRAND RAPIDS", "addr:country": "US", "addr:postcode": "49548", "addr:state": "MI", "addr:street_address": "80 68TH ST SE", "amenity": "post_box", "collection_times": "Mo-Fr 13:00; Sa 15:00", "note": "ON 12/24 AND 12/31, THIS BOX MAY BE COLLECTED AS EARLY AS 12 NOON.", "nsi_id": "unitedstatespostalservice-a77078", "operator": "United States Postal Service", "operator:short": "USPS", "operator:type": "public", "operator:wikidata": "Q668687", "ref": "4954800039"}, "type": "Feature"}
{"geometry": {"coordinates": [-85.657125764, 42.874692115], "type": "Point"}, "id": "CPJlCKaRQFrY37j-5vE2td0vmio=", "properties": {"@source_uri": "https://tools.usps.com/UspsToolsRestServices/rest/POLocator/findLocations", "@spider": "usps_collection_boxes", "addr:city": "GRAND RAPIDS", "addr:country": "US", "addr:postcode": "49548", "addr:state": "MI", "addr:street_address": "318 GRAND CHATEAU ST SE", "amenity": "post_box", "collection_times": "Mo-Fr 13:00; Sa 15:00", "note": "ON 12/24 AND 12/31, THIS BOX MAY BE COLLECTED AS EARLY AS 12 NOON.", "nsi_id": "unitedstatespostalservice-a77078", "operator": "United States Postal Service", "operator:short": "USPS", "operator:type": "public", "operator:wikidata": "Q668687", "ref": "4954800040"}, "type": "Feature"}
{"geometry": {"coordinates": [-85.6239545, 42.882995], "type": "Point"}, "id": "te34IdpXUBRroJAtizW_1OmLWu0=", "properties": {"@source_uri": "https://tools.usps.com/UspsToolsRestServices/rest/POLocator/findLocations", "@spider": "usps_collection_boxes", "addr:city": "GRAND RAPIDS", "addr:country": "US", "addr:postcode": "49548", "addr:state": "MI", "addr:street_address": "1680 44TH ST SE", "amenity": "post_box", "collection_times": "Mo-Fr 17:00; Sa 16:00", "indoor": "yes", "note": "ON 12/24 AND 12/31, THIS BOX MAY BE COLLECTED AS EARLY AS 12 NOON.", "nsi_id": "unitedstatespostalservice-a77078", "operator": "United States Postal Service", "operator:short": "USPS", "operator:type": "public", "operator:wikidata": "Q668687", "ref": "4954800042"}, "type": "Feature"}
{"geometry": {"coordinates": [-85.6602185, 42.8799342], "type": "Point"}, "id": "i5VVFATpJrNiA6wbAFf88j7t_NM=", "properties": {"@source_uri": "https://tools.usps.com/UspsToolsRestServices/rest/POLocator/findLocations", "@spider": "usps_collection_boxes", "addr:city": "GRAND RAPIDS", "addr:country": "US", "addr:postcode": "49548", "addr:state": "MI", "addr:street_address": "1680 44TH ST SE", "amenity": "post_box", "collection_times": "Mo-Fr 17:00; Sa 15:00", "note": "ON 12/24 AND 12/31, THIS BOX MAY BE COLLECTED AS EARLY AS 12 NOON.", "nsi_id": "unitedstatespostalservice-a77078", "operator": "United States Postal Service", "operator:short": "USPS", "operator:type": "public", "operator:wikidata": "Q668687", "ref": "4954800044"}, "type": "Feature"}
{"geometry": {"coordinates": [-85.6538705, 42.861227], "type": "Point"}, "id": "zett9zBoBCNNuC9OHAtMwxnXSQM=", "properties": {"@source_uri": "https://tools.usps.com/UspsToolsRestServices/rest/POLocator/findLocations", "@spider": "usps_collection_boxes", "addr:city": "GRAND RAPIDS", "addr:country": "US", "addr:postcode": "49548", "addr:state": "MI", "addr:street_address": "444 BELLEWOOD DR SE", "amenity": "post_box", "collection_times": "Mo-Fr 13:00; Sa 15:00", "note": "ON 12/24 AND 12/31, THIS BOX MAY BE COLLECTED AS EARLY AS 12 NOON.", "nsi_id": "unitedstatespostalservice-a77078", "operator": "United States Postal Service", "operator:short": "USPS", "operator:type": "public", "operator:wikidata": "Q668687", "ref": "4954800047"}, "type": "Feature"}
{"geometry": {"coordinates": [-85.624041, 42.883609], "type": "Point"}, "id": "Sl5aOJaTvPY64uN86JEGnu8MXBM=", "properties": {"@source_uri": "https://tools.usps.com/UspsToolsRestServices/rest/POLocator/findLocations", "@spider": "usps_collection_boxes", "addr:city": "GRAND RAPIDS", "addr:country": "US", "addr:postcode": "49548", "addr:state": "MI", "addr:street_address": "1680 44TH ST SE", "amenity": "post_box", "collection_times": "Mo-Fr 17:00; Sa 15:00", "name": "USPS COLLECTION BOX - APC", "note": "ON 12/24 AND 12/31, THIS BOX MAY BE COLLECTED AS EARLY AS 12 NOON.", "nsi_id": "unitedstatespostalservice-a77078", "operator": "United States Postal Service", "operator:short": "USPS", "operator:type": "public", "operator:wikidata": "Q668687", "ref": "4954800048"}, "type": "Feature"}
{"geometry": {"coordinates": [-85.6631979, 42.842464], "type": "Point"}, "id": "n51ewXK4OvVnNs92YsuHPV-drRI=", "properties": {"@source_uri": "https://tools.usps.com/UspsToolsRestServices/rest/POLocator/findLocations", "@spider": "usps_collection_boxes", "addr:city": "GRAND RAPIDS", "addr:country": "US", "addr:postcode": "49548", "addr:state": "MI", "addr:street_address": "6700 DIVISION AVE S", "amenity": "post_box", "collection_times": "Mo-Fr 13:00; Sa 15:00", "note": "ON 12/24 AND 12/31, THIS BOX MAY BE COLLECTED AS EARLY AS 12 NOON.", "nsi_id": "unitedstatespostalservice-a77078", "operator": "United States Postal Service", "operator:short": "USPS", "operator:type": "public", "operator:wikidata": "Q668687", "ref": "4954800049"}, "type": "Feature"}
{"geometry": {"coordinates": [-85.530382, 42.884551], "type": "Point"}, "id": "F4lmeQYNY5Wyl3eb2VvjlHjhjFA=", "properties": {"@source_uri": "https://tools.usps.com/UspsToolsRestServices/rest/POLocator/findLocations", "@spider": "usps_collection_boxes", "addr:city": "GRAND RAPIDS", "addr:country": "US", "addr:postcode": "49588", "addr:state": "MI", "addr:street_address": "5500 44TH ST SE", "amenity": "post_box", "collection_times": "Mo-Fr 17:00; Sa 15:00", "note": "ON 12/24 AND 12/31, THIS BOX MAY BE COLLECTED AS EARLY AS 12 NOON.", "nsi_id": "unitedstatespostalservice-a77078", "operator": "United States Postal Service", "operator:short": "USPS", "operator:type": "public", "operator:wikidata": "Q668687", "ref": "4958800015"}, "type": "Feature"}
