{"geometry": {"coordinates": [-85.4040223, 44.279908], "type": "Point"}, "id": "VN7PfIDvy3eh-g04G02yDdUjqP4=", "properties": {"@spider": "usps_collection_boxes", "addr:city": "CADILLAC", "addr:country": "US", "addr:full": "2200 N MITCHELL ST", "addr:postcode": "49601", "addr:state": "MI", "brand": "USPS", "brand:wikidata": "Q668687", "collection_times": "Mo-Sa 12:00", "name": "USPS COLLECTION BOX - BLUE BOX", "ref": "4960100001"}, "type": "Feature"}
{"geometry": {"coordinates": [-85.4057399, 44.26195], "type": "Point"}, "id": "wA0qzRmvzTtga9CPosQGcCFUIfg=", "properties": {"@spider": "usps_collection_boxes", "addr:city": "CADILLAC", "addr:country": "US", "addr:full": "1021 N MITCHELL ST", "addr:postcode": "49601", "addr:state": "MI", "brand": "USPS", "brand:wikidata": "Q668687", "collection_times": "Mo-Sa 10:00", "name": "USPS COLLECTION BOX - BLUE BOX", "ref": "4960100005"}, "type": "Feature"}
{"geometry": {"coordinates": [-85.399173, 44.250137], "type": "Point"}, "id": "UTWE_mUATkudFS5YJBepW1ekiTs=", "properties": {"@spider": "usps_collection_boxes", "addr:city": "CADILLAC", "addr:country": "US", "addr:full": "123 S MITCHELL ST", "addr:postcode": "49601", "addr:state": "MI", "brand": "USPS", "brand:wikidata": "Q668687", "collection_times": "Mo-Sa 15:00", "name": "USPS COLLECTION BOX - BLUE BOX", "note": "ON 12/24 AND 12/31, THIS BOX MAY BE COLLECTED AS EARLY AS 12 NOON.", "ref": "4960100008"}, "type": "Feature"}
{"geometry": {"coordinates": [-85.4542092, 44.235559], "type": "Point"}, "id": "IFZIdsjkVgaHj6ZXA31VJtFfEG0=", "properties": {"@spider": "usps_collection_boxes", "addr:city": "CADILLAC", "addr:country": "US", "addr:full": "6184 E M 115", "addr:postcode": "49601", "addr:state": "MI", "brand": "USPS", "brand:wikidata": "Q668687", "collection_times": "Mo-Sa 12:30", "name": "USPS COLLECTION BOX - BLUE BOX", "note": "ON 12/24 AND 12/31, THIS BOX MAY BE COLLECTED AS EARLY AS 12 NOON.", "ref": "4960100009"}, "type": "Feature"}
{"geometry": {"coordinates": [-85.4048004, 44.272391], "type": "Point"}, "id": "m2O6VUUovZTpn-TWVpdLaZrFq1A=", "properties": {"@spider": "usps_collection_boxes", "addr:city": "CADILLAC", "addr:country": "US", "addr:full": "1450 N MITCHELL ST", "addr:postcode": "49601", "addr:state": "MI", "brand": "USPS", "brand:wikidata": "Q668687", "collection_times": "Mo-Sa 11:00", "name": "USPS COLLECTION BOX - BLUE BOX", "ref": "4960100024"}, "type": "Feature"}
{"geometry": {"coordinates": [-85.4394816, 44.249928], "type": "Point"}, "id": "8aHRimCxOdxC92BtMQM-wbrXeC4=", "properties": {"@spider": "usps_collection_boxes", "addr:city": "CADILLAC", "addr:country": "US", "addr:full": "2201 COUNTRY ACRES ST", "addr:postcode": "49601", "addr:state": "MI", "brand": "USPS", "brand:wikidata": "Q668687", "collection_times": "Mo-Sa 09:30", "name": "USPS COLLECTION BOX - BLUE BOX", "ref": "4960100025"}, "type": "Feature"}
{"geometry": {"coordinates": [-85.399104, 44.250507], "type": "Point"}, "id": "GrGwTSu1wtYFaubV0ceiHgbO79w=", "properties": {"@spider": "usps_collection_boxes", "addr:city": "CADILLAC", "addr:country": "US", "addr:full": "118 E HARRIS ST", "addr:postcode": "49601", "addr:state": "MI", "brand": "USPS", "brand:wikidata": "Q668687", "collection_times": "Mo-Fr 16:30; Sa 16:00", "name": "USPS COLLECTION BOX - BLUE BOX", "note": "ON 12/24 AND 12/31, THIS BOX MAY BE COLLECTED AS EARLY AS 12 NOON.", "ref": "4960100044"}, "type": "Feature"}
{"geometry": {"coordinates": [-85.399192, 44.250502], "type": "Point"}, "id": "7raqczSMg2D5cb21l75iffwOkSE=", "properties": {"@spider": "usps_collection_boxes", "addr:city": "CADILLAC", "addr:country": "US", "addr:full": "118 E HARRIS ST", "addr:postcode": "49601", "addr:state": "MI", "brand": "USPS", "brand:wikidata": "Q668687", "collection_times": "Mo-Fr 16:55; Sa 16:00", "name": "USPS COLLECTION BOX - PO LOBBY", "note": "ON 12/24 AND 12/31, THIS BOX MAY BE COLLECTED AS EARLY AS 12 NOON.", "ref": "4960100046"}, "type": "Feature"}
{"geometry": {"coordinates": [-85.4042423, 44.235713], "type": "Point"}, "id": "nHTg1G92IToB_ONzS6SXQW5ZVg4=", "properties": {"@spider": "usps_collection_boxes", "addr:city": "CADILLAC", "addr:country": "US", "addr:full": "630 PHEASANT BLVD", "addr:postcode": "49601", "addr:state": "MI", "brand": "USPS", "brand:wikidata": "Q668687", "collection_times": "Mo-Sa 10:30", "name": "USPS COLLECTION BOX - BLUE BOX", "ref": "4960100047"}, "type": "Feature"}
{"geometry": {"coordinates": [-85.4050343, 44.283353], "type": "Point"}, "id": "i-36Op2i4-Sdey18bjUaWIHsSfY=", "properties": {"@spider": "usps_collection_boxes", "addr:city": "CADILLAC", "addr:country": "US", "addr:full": "8605 E 34 RD", "addr:postcode": "49601", "addr:state": "MI", "brand": "USPS", "brand:wikidata": "Q668687", "collection_times": "Mo-Sa 13:00", "name": "USPS COLLECTION BOX - BLUE BOX", "note": "ON 12/24 AND 12/31, THIS BOX MAY BE COLLECTED AS EARLY AS 12 NOON.", "ref": "4960100049"}, "type": "Feature"}
{"geometry": {"coordinates": [-85.3978504, 44.283532], "type": "Point"}, "id": "PbfgW9iAE62E6S4KBuXPfPJ3TPQ=", "properties": {"@spider": "usps_collection_boxes", "addr:city": "CADILLAC", "addr:country": "US", "addr:full": "8917 E 34 RD", "addr:postcode": "49601", "addr:state": "MI", "brand": "USPS", "brand:wikidata": "Q668687", "collection_times": "Mo-Sa 12:30", "name": "USPS COLLECTION BOX - BLUE BOX", "note": "ON 12/24 AND 12/31, THIS BOX MAY BE COLLECTED AS EARLY AS 12 NOON.", "ref": "4960100050"}, "type": "Feature"}
{"geometry": {"coordinates": [-85.404313, 44.25247], "type": "Point"}, "id": "35YR0JXd2FejlLGBEZD3KI5VcQk=", "properties": {"@spider": "usps_collection_boxes", "addr:city": "CADILLAC", "addr:country": "US", "addr:full": "401 N LAKE ST", "addr:postcode": "49601", "addr:state": "MI", "brand": "USPS", "brand:wikidata": "Q668687", "collection_times": "Mo-Fr 13:00; Sa 12:30", "name": "USPS COLLECTION BOX - BLUE BOX", "note": "ON 12/24 AND 12/31, THIS BOX MAY BE COLLECTED AS EARLY AS 12 NOON.", "ref": "4960100052"}, "type": "Feature"}
{"geometry": {"coordinates": [-85.399030665, 44.250327531], "type": "Point"}, "id": "rED2iyp4UyDkcprEdb5Wem31pA4=", "properties": {"@spider": "usps_collection_boxes", "addr:city": "CADILLAC", "addr:country": "US", "addr:full": "118 E HARRIS ST", "addr:postcode": "49601", "addr:state": "MI", "brand": "USPS", "brand:wikidata": "Q668687", "collection_times": "Mo-Fr 16:45; Sa 12:30", "name": "USPS COLLECTION BOX - PO LOBBY", "note": "ON 12/24 AND 12/31, THIS BOX MAY BE COLLECTED AS EARLY AS 12 NOON.", "ref": "4960100053"}, "type": "Feature"}
{"geometry": {"coordinates": [-85.505672, 44.764104], "type": "Point"}, "id": "KjF0tZSVvjHJ62vdzIF7ABymrRA=", "properties": {"@spider": "usps_collection_boxes", "addr:city": "ACME", "addr:country": "US", "addr:full": "3585 BUNKER HILL RD", "addr:postcode": "49610", "addr:state": "MI", "brand": "USPS", "brand:wikidata": "Q668687", "collection_times": "Mo-Fr 16:45; Sa 11:00", "name": "USPS COLLECTION BOX - BLUE BOX", "note": "ON 12/24 AND 12/31, THIS BOX MAY BE COLLECTED AS EARLY AS 12 NOON.", "ref": "4961000002"}, "type": "Feature"}
{"geometry": {"coordinates": [-85.505679, 44.76407], "type": "Point"}, "id": "yB2ZxUWl8Hnrbew9ygxUtzgHNak=", "properties": {"@spider": "usps_collection_boxes", "addr:city": "ACME", "addr:country": "US", "addr:full": "3585 BUNKER HILL RD", "addr:postcode": "49610", "addr:state": "MI", "brand": "USPS", "brand:wikidata": "Q668687", "collection_times": "Mo-Fr 16:45; Sa 11:00", "name": "USPS COLLECTION BOX - PO LOBBY", "note": "ON 12/24 AND 12/31, THIS BOX MAY BE COLLECTED AS EARLY AS 12 NOON.", "ref": "4961000004"}, "type": "Feature"}
{"geometry": {"coordinates": [-85.505564369, 44.764067423], "type": "Point"}, "id": "Sklz0Er6Vzoas7aN4F2S8bLo2u8=", "properties": {"@spider": "usps_collection_boxes", "addr:city": "ACME", "addr:country": "US", "addr:full": "3585 BUNKER HILL RD", "addr:postcode": "49610", "addr:state": "MI", "brand": "USPS", "brand:wikidata": "Q668687", "collection_times": "Mo-Fr 16:00; Sa 11:30", "name": "USPS COLLECTION BOX - PO LOBBY", "note": "ON 12/24 AND 12/31, THIS BOX MAY BE COLLECTED AS EARLY AS 12 NOON.", "ref": "4961000005"}, "type": "Feature"}
{"geometry": {"coordinates": [-84.971592, 44.975138], "type": "Point"}, "id": "36LaRE7oGLrgA-Eh-aIFW2105Vg=", "properties": {"@spider": "usps_collection_boxes", "addr:city": "ALBA", "addr:country": "US", "addr:full": "3995 2ND ST", "addr:postcode": "49611", "addr:state": "MI", "brand": "USPS", "brand:wikidata": "Q668687", "collection_times": "Mo-Fr 14:30; Sa 10:30", "name": "USPS COLLECTION BOX - BLUE BOX", "note": "ON 12/24 AND 12/31, THIS BOX MAY BE COLLECTED AS EARLY AS 12 NOON.", "ref": "4961100001"}, "type": "Feature"}
{"geometry": {"coordinates": [-84.971592, 44.975138], "type": "Point"}, "id": "odHgbY3tJmzQMG_3ABkURd8PRlk=", "properties": {"@spider": "usps_collection_boxes", "addr:city": "ALBA", "addr:country": "US", "addr:full": "3995 2ND ST", "addr:postcode": "49611", "addr:state": "MI", "brand": "USPS", "brand:wikidata": "Q668687", "collection_times": "Mo-Fr 14:30; Sa 10:30", "name": "USPS COLLECTION BOX - PO LOBBY", "note": "ON 12/24 AND 12/31, THIS BOX MAY BE COLLECTED AS EARLY AS 12 NOON.", "ref": "4961100002"}, "type": "Feature"}
{"geometry": {"coordinates": [-84.971595166, 44.975205], "type": "Point"}, "id": "EjHMpnmCcwEcxI93yESZVeJuE_k=", "properties": {"@spider": "usps_collection_boxes", "addr:city": "ALBA", "addr:country": "US", "addr:full": "3995 2ND ST", "addr:postcode": "49611", "addr:state": "MI", "brand": "USPS", "brand:wikidata": "Q668687", "collection_times": "Mo-Fr 15:00", "name": "USPS COLLECTION BOX - PO LOBBY", "note": "ON 12/24 AND 12/31, THIS BOX MAY BE COLLECTED AS EARLY AS 12 NOON.", "ref": "4961100003"}, "type": "Feature"}
{"geometry": {"coordinates": [-85.275022, 44.881231], "type": "Point"}, "id": "Y6QmbQjAl-5vr0dl18rZ3qx24U8=", "properties": {"@spider": "usps_collection_boxes", "addr:city": "ALDEN", "addr:country": "US", "addr:full": "9095 HELENA RD", "addr:postcode": "49612", "addr:state": "MI", "brand": "USPS", "brand:wikidata": "Q668687", "collection_times": "Mo-Fr 15:45; Sa 11:00", "name": "USPS COLLECTION BOX - BLUE BOX", "note": "ON 12/24 AND 12/31, THIS BOX MAY BE COLLECTED AS EARLY AS 12 NOON.", "ref": "4961200001"}, "type": "Feature"}
{"geometry": {"coordinates": [-85.275022, 44.881231], "type": "Point"}, "id": "eIV2avsNwYLtLlHBbZfVFJ6AJ1A=", "properties": {"@spider": "usps_collection_boxes", "addr:city": "ALDEN", "addr:country": "US", "addr:full": "9095 HELENA RD", "addr:postcode": "49612", "addr:state": "MI", "brand": "USPS", "brand:wikidata": "Q668687", "collection_times": "Mo-Fr 15:45; Sa 11:00", "name": "USPS COLLECTION BOX - PO LOBBY", "note": "ON 12/24 AND 12/31, THIS BOX MAY BE COLLECTED AS EARLY AS 12 NOON.", "ref": "4961200002"}, "type": "Feature"}
{"geometry": {"coordinates": [-85.275030526, 44.881225514], "type": "Point"}, "id": "Ut5uaS69U0Ny0wlh3ZM14xcG_FE=", "properties": {"@spider": "usps_collection_boxes", "addr:city": "ALDEN", "addr:country": "US", "addr:full": "9095 HELENA RD", "addr:postcode": "49612", "addr:state": "MI", "brand": "USPS", "brand:wikidata": "Q668687", "collection_times": "Mo-Fr 15:30; Sa 09:45", "name": "USPS COLLECTION BOX - PO LOBBY", "note": "ON 12/24 AND 12/31, THIS BOX MAY BE COLLECTED AS EARLY AS 12 NOON.", "ref": "4961200003"}, "type": "Feature"}
{"geometry": {"coordinates": [-86.236061, 44.493287], "type": "Point"}, "id": "DH83J04OWmk4YjBfS5AH1LYVZ10=", "properties": {"@spider": "usps_collection_boxes", "addr:city": "ARCADIA", "addr:country": "US", "addr:full": "3294 LAKE ST", "addr:postcode": "49613", "addr:state": "MI", "brand": "USPS", "brand:wikidata": "Q668687", "collection_times": "Mo-Fr 15:00; Sa 11:00", "name": "USPS COLLECTION BOX - BLUE BOX", "note": "ON 12/24 AND 12/31, THIS BOX MAY BE COLLECTED AS EARLY AS 12 NOON.", "ref": "4961300001"}, "type": "Feature"}
{"geometry": {"coordinates": [-86.236061, 44.493287], "type": "Point"}, "id": "XgIm9enANURMgzWSNuhJ8cDrpE0=", "properties": {"@spider": "usps_collection_boxes", "addr:city": "ARCADIA", "addr:country": "US", "addr:full": "3294 LAKE ST", "addr:postcode": "49613", "addr:state": "MI", "brand": "USPS", "brand:wikidata": "Q668687", "collection_times": "Mo-Fr 15:00; Sa 11:00", "name": "USPS COLLECTION BOX - PO LOBBY", "note": "ON 12/24 AND 12/31, THIS BOX MAY BE COLLECTED AS EARLY AS 12 NOON.", "ref": "4961300002"}, "type": "Feature"}
{"geometry": {"coordinates": [-86.236119555, 44.493279526], "type": "Point"}, "id": "sjoUpDQ8l2fUDwDICEbL_-oZlUU=", "properties": {"@spider": "usps_collection_boxes", "addr:city": "ARCADIA", "addr:country": "US", "addr:full": "3294 LAKE ST", "addr:postcode": "49613", "addr:state": "MI", "brand": "USPS", "brand:wikidata": "Q668687", "collection_times": "Mo-Fr 15:00; Sa 10:30", "name": "USPS COLLECTION BOX - PO LOBBY", "note": "ON 12/24 AND 12/31, THIS BOX MAY BE COLLECTED AS EARLY AS 12 NOON.", "ref": "4961300003"}, "type": "Feature"}
{"geometry": {"coordinates": [-86.145942, 44.422632], "type": "Point"}, "id": "lenkdvxbFyXojn9VyE8OV6x4t84=", "properties": {"@spider": "usps_collection_boxes", "addr:city": "BEAR LAKE", "addr:country": "US", "addr:full": "7777 MAIN ST", "addr:postcode": "49614", "addr:state": "MI", "brand": "USPS", "brand:wikidata": "Q668687", "collection_times": "Mo-Fr 16:15; Sa 10:45", "name": "USPS COLLECTION BOX - BLUE BOX", "note": "ON 12/24 AND 12/31, THIS BOX MAY BE COLLECTED AS EARLY AS 12 NOON.", "ref": "4961400002"}, "type": "Feature"}
{"geometry": {"coordinates": [-86.145942, 44.422632], "type": "Point"}, "id": "6vOqbBY61tkTknC0kwSo-wPzpOo=", "properties": {"@spider": "usps_collection_boxes", "addr:city": "BEAR LAKE", "addr:country": "US", "addr:full": "7777 MAIN ST", "addr:postcode": "49614", "addr:state": "MI", "brand": "USPS", "brand:wikidata": "Q668687", "collection_times": "Mo-Fr 16:15; Sa 10:45", "name": "USPS COLLECTION BOX - PO LOBBY", "note": "ON 12/24 AND 12/31, THIS BOX MAY BE COLLECTED AS EARLY AS 12 NOON.", "ref": "4961400003"}, "type": "Feature"}
{"geometry": {"coordinates": [-86.145902445, 44.422630473], "type": "Point"}, "id": "26ctzaSw-LJJOQhSa7LvhMzmLmM=", "properties": {"@spider": "usps_collection_boxes", "addr:city": "BEAR LAKE", "addr:country": "US", "addr:full": "7777 MAIN ST", "addr:postcode": "49614", "addr:state": "MI", "brand": "USPS", "brand:wikidata": "Q668687", "collection_times": "Mo-Fr 16:00; Sa 10:30", "name": "USPS COLLECTION BOX - PO LOBBY", "note": "ON 12/24 AND 12/31, THIS BOX MAY BE COLLECTED AS EARLY AS 12 NOON.", "ref": "4961400006"}, "type": "Feature"}
{"geometry": {"coordinates": [-85.209942, 44.975799], "type": "Point"}, "id": "cUOKnZHOEn6JSqmLplNvJCnqaio=", "properties": {"@spider": "usps_collection_boxes", "addr:city": "BELLAIRE", "addr:country": "US", "addr:full": "110 N BRIDGE ST", "addr:postcode": "49615", "addr:state": "MI", "brand": "USPS", "brand:wikidata": "Q668687", "collection_times": "Mo-Fr 15:50; Sa 10:00", "name": "USPS COLLECTION BOX - BLUE BOX", "note": "ON 12/24 AND 12/31, THIS BOX MAY BE COLLECTED AS EARLY AS 12 NOON.", "ref": "4961500001"}, "type": "Feature"}
{"geometry": {"coordinates": [-85.209942, 44.975799], "type": "Point"}, "id": "UPoQ3Zyd1c9u-5dLAeltSAXpjHA=", "properties": {"@spider": "usps_collection_boxes", "addr:city": "BELLAIRE", "addr:country": "US", "addr:full": "110 N BRIDGE ST", "addr:postcode": "49615", "addr:state": "MI", "brand": "USPS", "brand:wikidata": "Q668687", "collection_times": "Mo-Fr 15:50; Sa 10:00", "name": "USPS COLLECTION BOX - PO LOBBY", "note": "ON 12/24 AND 12/31, THIS BOX MAY BE COLLECTED AS EARLY AS 12 NOON.", "ref": "4961500002"}, "type": "Feature"}
{"geometry": {"coordinates": [-85.1967772, 44.971528], "type": "Point"}, "id": "vUcnyPlkXCNPrzc4BQPl2EmMLAM=", "properties": {"@spider": "usps_collection_boxes", "addr:city": "BELLAIRE", "addr:country": "US", "addr:full": "305 S DIVISION ST", "addr:postcode": "49615", "addr:state": "MI", "brand": "USPS", "brand:wikidata": "Q668687", "collection_times": "Mo-Sa 10:00", "name": "USPS COLLECTION BOX - BLUE BOX", "ref": "4961500003"}, "type": "Feature"}
{"geometry": {"coordinates": [-85.209931673, 44.975861665], "type": "Point"}, "id": "EtG7ws75gqNCFddXxj64CI_zx-o=", "properties": {"@spider": "usps_collection_boxes", "addr:city": "BELLAIRE", "addr:country": "US", "addr:full": "110 N BRIDGE ST", "addr:postcode": "49615", "addr:state": "MI", "brand": "USPS", "brand:wikidata": "Q668687", "collection_times": "Mo-Fr 15:30; Sa 09:30", "name": "USPS COLLECTION BOX - PO LOBBY", "note": "ON 12/24 AND 12/31, THIS BOX MAY BE COLLECTED AS EARLY AS 12 NOON.", "ref": "4961500005"}, "type": "Feature"}
{"geometry": {"coordinates": [-86.0990316, 44.617086], "type": "Point"}, "id": "exO7Pv-KdUNcR-sLZn99vO0kk7c=", "properties": {"@spider": "usps_collection_boxes", "addr:city": "BENZONIA", "addr:country": "US", "addr:full": "1035 MICHIGAN AVE", "addr:postcode": "49616", "addr:state": "MI", "brand": "USPS", "brand:wikidata": "Q668687", "collection_times": "Mo-Fr 15:45; Sa 11:00", "name": "USPS COLLECTION BOX - BLUE BOX", "note": "ON 12/24 AND 12/31, THIS BOX MAY BE COLLECTED AS EARLY AS 12 NOON.", "ref": "4961600001"}, "type": "Feature"}
{"geometry": {"coordinates": [-86.0980772, 44.607297], "type": "Point"}, "id": "3i-CCguCMBO5bIqWNvzd2i1CqoA=", "properties": {"@spider": "usps_collection_boxes", "addr:city": "BENZONIA", "addr:country": "US", "addr:full": "1747 BENZIE HWY", "addr:postcode": "49616", "addr:state": "MI", "brand": "USPS", "brand:wikidata": "Q668687", "collection_times": "Mo-Sa 12:30", "name": "USPS COLLECTION BOX - BLUE BOX", "note": "ON 12/24 AND 12/31, THIS BOX MAY BE COLLECTED AS EARLY AS 12 NOON.", "ref": "4961600003"}, "type": "Feature"}
{"geometry": {"coordinates": [-86.0989755, 44.617095], "type": "Point"}, "id": "8YT72iQWsWRAtyVDulTz3GEcvnw=", "properties": {"@spider": "usps_collection_boxes", "addr:city": "BENZONIA", "addr:country": "US", "addr:full": "1035 MICHIGAN AVE", "addr:postcode": "49616", "addr:state": "MI", "brand": "USPS", "brand:wikidata": "Q668687", "collection_times": "Mo-Fr 15:45; Sa 10:45", "name": "USPS COLLECTION BOX - PO LOBBY", "note": "ON 12/24 AND 12/31, THIS BOX MAY BE COLLECTED AS EARLY AS 12 NOON.", "ref": "4961600004"}, "type": "Feature"}
{"geometry": {"coordinates": [-86.099086168, 44.6170815], "type": "Point"}, "id": "neIpZtKWb5Xjj4h4Ld_xlNR810Q=", "properties": {"@spider": "usps_collection_boxes", "addr:city": "BENZONIA", "addr:country": "US", "addr:full": "1035 MICHIGAN AVE", "addr:postcode": "49616", "addr:state": "MI", "brand": "USPS", "brand:wikidata": "Q668687", "collection_times": "Mo-Fr 15:30; Sa 10:30", "name": "USPS COLLECTION BOX - PO LOBBY", "note": "ON 12/24 AND 12/31, THIS BOX MAY BE COLLECTED AS EARLY AS 12 NOON.", "ref": "4961600005"}, "type": "Feature"}
{"geometry": {"coordinates": [-86.09578, 44.628393], "type": "Point"}, "id": "4yWmMucwtUNbGLgn66-AsK4pROg=", "properties": {"@spider": "usps_collection_boxes", "addr:city": "BEULAH", "addr:country": "US", "addr:full": "246 S BENZIE BLVD", "addr:postcode": "49617", "addr:state": "MI", "brand": "USPS", "brand:wikidata": "Q668687", "collection_times": "Mo-Fr 16:00; Sa 11:00", "name": "USPS COLLECTION BOX - BLUE BOX", "note": "ON 12/24 AND 12/31, THIS BOX MAY BE COLLECTED AS EARLY AS 12 NOON.", "ref": "4961700001"}, "type": "Feature"}
{"geometry": {"coordinates": [-86.09578, 44.628393], "type": "Point"}, "id": "c1q38mfdoFAMbiUqbp0hyF9UNBI=", "properties": {"@spider": "usps_collection_boxes", "addr:city": "BEULAH", "addr:country": "US", "addr:full": "246 S BENZIE BLVD", "addr:postcode": "49617", "addr:state": "MI", "brand": "USPS", "brand:wikidata": "Q668687", "collection_times": "Mo-Fr 16:15; Sa 11:15", "name": "USPS COLLECTION BOX - PO LOBBY", "note": "ON 12/24 AND 12/31, THIS BOX MAY BE COLLECTED AS EARLY AS 12 NOON.", "ref": "4961700002"}, "type": "Feature"}
{"geometry": {"coordinates": [-86.0910192, 44.632609], "type": "Point"}, "id": "o8I7_Thfd9fT5_vilElCf5iDREg=", "properties": {"@spider": "usps_collection_boxes", "addr:city": "BEULAH", "addr:country": "US", "addr:full": "49 N BENZIE BLVD", "addr:postcode": "49617", "addr:state": "MI", "brand": "USPS", "brand:wikidata": "Q668687", "collection_times": "Mo-Sa 13:00", "name": "USPS COLLECTION BOX - BLUE BOX", "note": "ON 12/24 AND 12/31, THIS BOX MAY BE COLLECTED AS EARLY AS 12 NOON.", "ref": "4961700003"}, "type": "Feature"}
{"geometry": {"coordinates": [-86.095781941, 44.628386122], "type": "Point"}, "id": "di2nFLjy5sQf2dmGK0o3gGFvRKo=", "properties": {"@spider": "usps_collection_boxes", "addr:city": "BEULAH", "addr:country": "US", "addr:full": "246 S BENZIE BLVD", "addr:postcode": "49617", "addr:state": "MI", "brand": "USPS", "brand:wikidata": "Q668687", "collection_times": "Mo-Fr 15:30; Sa 10:30", "name": "USPS COLLECTION BOX - PO LOBBY", "note": "ON 12/24 AND 12/31, THIS BOX MAY BE COLLECTED AS EARLY AS 12 NOON.", "ref": "4961700005"}, "type": "Feature"}
{"geometry": {"coordinates": [-85.60035, 44.28909], "type": "Point"}, "id": "cqW0CD56vU9PyvOFJ0HvzntsedY=", "properties": {"@spider": "usps_collection_boxes", "addr:city": "BOON", "addr:country": "US", "addr:full": "209 S HASKINS RD", "addr:postcode": "49618", "addr:state": "MI", "brand": "USPS", "brand:wikidata": "Q668687", "collection_times": "Mo-Fr 14:30; Sa 12:30", "name": "USPS COLLECTION BOX - BLUE BOX", "note": "ON 12/24 AND 12/31, THIS BOX MAY BE COLLECTED AS EARLY AS 12 NOON.", "ref": "4961800001"}, "type": "Feature"}
{"geometry": {"coordinates": [-85.60035, 44.28909], "type": "Point"}, "id": "utC4j63b7II5_PuFX217WnCsm_M=", "properties": {"@spider": "usps_collection_boxes", "addr:city": "BOON", "addr:country": "US", "addr:full": "209 S HASKINS RD", "addr:postcode": "49618", "addr:state": "MI", "brand": "USPS", "brand:wikidata": "Q668687", "collection_times": "Mo-Fr 14:30; Sa 12:30", "name": "USPS COLLECTION BOX - PO LOBBY", "note": "ON 12/24 AND 12/31, THIS BOX MAY BE COLLECTED AS EARLY AS 12 NOON.", "ref": "4961800002"}, "type": "Feature"}
{"geometry": {"coordinates": [-85.6003331645, 44.2890323326], "type": "Point"}, "id": "jzuK4PoEE4-QzXJ0ZcQ92BUNZpI=", "properties": {"@spider": "usps_collection_boxes", "addr:city": "BOON", "addr:country": "US", "addr:full": "209 S HASKINS RD", "addr:postcode": "49618", "addr:state": "MI", "brand": "USPS", "brand:wikidata": "Q668687", "collection_times": "Mo-Fr 14:30; Sa 12:00", "name": "USPS COLLECTION BOX - PO LOBBY", "note": "ON 12/24 AND 12/31, THIS BOX MAY BE COLLECTED AS EARLY AS 12 NOON.", "ref": "4961800003"}, "type": "Feature"}
{"geometry": {"coordinates": [-86.0185916934, 44.3043785503], "type": "Point"}, "id": "I2xeHGYdZk5EeDmv4j8BWdheuUc=", "properties": {"@spider": "usps_collection_boxes", "addr:city": "BRETHREN", "addr:country": "US", "addr:full": "14125 COATES HWY", "addr:postcode": "49619", "addr:state": "MI", "brand": "USPS", "brand:wikidata": "Q668687", "collection_times": "Mo-Fr 16:05; Sa 10:30", "name": "USPS COLLECTION BOX - BLUE BOX", "note": "ON 12/24 AND 12/31, THIS BOX MAY BE COLLECTED AS EARLY AS 12 NOON.", "ref": "4961900001"}, "type": "Feature"}
{"geometry": {"coordinates": [-86.018557, 44.304411], "type": "Point"}, "id": "g-QPndHrkBKSz_mhRERTqmuiriE=", "properties": {"@spider": "usps_collection_boxes", "addr:city": "BRETHREN", "addr:country": "US", "addr:full": "14125 COATES HWY", "addr:postcode": "49619", "addr:state": "MI", "brand": "USPS", "brand:wikidata": "Q668687", "collection_times": "Mo-Fr 16:05; Sa 10:30", "name": "USPS COLLECTION BOX - PO LOBBY", "note": "ON 12/24 AND 12/31, THIS BOX MAY BE COLLECTED AS EARLY AS 12 NOON.", "ref": "4961900002"}, "type": "Feature"}
{"geometry": {"coordinates": [-86.018502945, 44.304397492], "type": "Point"}, "id": "8bHfHKjr15QtH8sVYI7Or-jfgas=", "properties": {"@spider": "usps_collection_boxes", "addr:city": "BRETHREN", "addr:country": "US", "addr:full": "14125 COATES HWY", "addr:postcode": "49619", "addr:state": "MI", "brand": "USPS", "brand:wikidata": "Q668687", "collection_times": "Mo-Fr 16:00; Sa 10:00", "name": "USPS COLLECTION BOX - PO LOBBY", "note": "ON 12/24 AND 12/31, THIS BOX MAY BE COLLECTED AS EARLY AS 12 NOON.", "ref": "4961900004"}, "type": "Feature"}
{"geometry": {"coordinates": [-85.6768462, 44.5042], "type": "Point"}, "id": "wkNBH0_GEITDXyNzsmGr0OSNApQ=", "properties": {"@spider": "usps_collection_boxes", "addr:city": "BUCKLEY", "addr:country": "US", "addr:full": "100 E WEXFORD AVE", "addr:postcode": "49620", "addr:state": "MI", "brand": "USPS", "brand:wikidata": "Q668687", "collection_times": "Mo-Fr 14:30; Sa 09:45", "name": "USPS COLLECTION BOX - BLUE BOX", "note": "ON 12/24 AND 12/31, THIS BOX MAY BE COLLECTED AS EARLY AS 12 NOON.", "ref": "4962000001"}, "type": "Feature"}
{"geometry": {"coordinates": [-85.6769133, 44.504175], "type": "Point"}, "id": "y3lpdGdJchcIpxiSQiC9n311vto=", "properties": {"@spider": "usps_collection_boxes", "addr:city": "BUCKLEY", "addr:country": "US", "addr:full": "100 E WEXFORD AVE", "addr:postcode": "49620", "addr:state": "MI", "brand": "USPS", "brand:wikidata": "Q668687", "collection_times": "Mo-Fr 14:30; Sa 10:00", "name": "USPS COLLECTION BOX - PO LOBBY", "note": "ON 12/24 AND 12/31, THIS BOX MAY BE COLLECTED AS EARLY AS 12 NOON.", "ref": "4962000002"}, "type": "Feature"}
{"geometry": {"coordinates": [-85.676890799, 44.504263481], "type": "Point"}, "id": "ZD5Ew95GPB5M6CZWdHc435IpLWc=", "properties": {"@spider": "usps_collection_boxes", "addr:city": "BUCKLEY", "addr:country": "US", "addr:full": "100 E WEXFORD AVE", "addr:postcode": "49620", "addr:state": "MI", "brand": "USPS", "brand:wikidata": "Q668687", "collection_times": "Mo-Fr 14:15; Sa 09:30", "name": "USPS COLLECTION BOX - PO LOBBY", "note": "ON 12/24 AND 12/31, THIS BOX MAY BE COLLECTED AS EARLY AS 12 NOON.", "ref": "4962000003"}, "type": "Feature"}
{"geometry": {"coordinates": [-85.795711, 44.847456], "type": "Point"}, "id": "Dm2EjLnecHWA9QQll3K995CHHf8=", "properties": {"@spider": "usps_collection_boxes", "addr:city": "CEDAR", "addr:country": "US", "addr:full": "2989 E BELLINGER RD", "addr:postcode": "49621", "addr:state": "MI", "brand": "USPS", "brand:wikidata": "Q668687", "collection_times": "Mo-Fr 16:00; Sa 10:30", "name": "USPS COLLECTION BOX - BLUE BOX", "note": "ON 12/24 AND 12/31, THIS BOX MAY BE COLLECTED AS EARLY AS 12 NOON.", "ref": "4962100001"}, "type": "Feature"}
{"geometry": {"coordinates": [-85.795711, 44.847456], "type": "Point"}, "id": "yXjMIjLO4W5OXCs8W2au2zNso2U=", "properties": {"@spider": "usps_collection_boxes", "addr:city": "CEDAR", "addr:country": "US", "addr:full": "2989 E BELLINGER RD", "addr:postcode": "49621", "addr:state": "MI", "brand": "USPS", "brand:wikidata": "Q668687", "collection_times": "Mo-Fr 16:00; Sa 10:30", "name": "USPS COLLECTION BOX - PO LOBBY", "note": "ON 12/24 AND 12/31, THIS BOX MAY BE COLLECTED AS EARLY AS 12 NOON.", "ref": "4962100002"}, "type": "Feature"}
{"geometry": {"coordinates": [-85.795712141, 44.8474575], "type": "Point"}, "id": "kbEsLWAGpdHAY_wEvjjHY2e6f1k=", "properties": {"@spider": "usps_collection_boxes", "addr:city": "CEDAR", "addr:country": "US", "addr:full": "2989 E BELLINGER RD", "addr:postcode": "49621", "addr:state": "MI", "brand": "USPS", "brand:wikidata": "Q668687", "collection_times": "Mo-Fr 16:00; Sa 10:00", "name": "USPS COLLECTION BOX - PO LOBBY", "note": "ON 12/24 AND 12/31, THIS BOX MAY BE COLLECTED AS EARLY AS 12 NOON.", "ref": "4962100003"}, "type": "Feature"}
{"geometry": {"coordinates": [-85.263171, 45.070177], "type": "Point"}, "id": "_-gP4mPIaRDyT4d2mBudu8jWwFA=", "properties": {"@spider": "usps_collection_boxes", "addr:city": "CENTRAL LAKE", "addr:country": "US", "addr:full": "7956 E STATE ST", "addr:postcode": "49622", "addr:state": "MI", "brand": "USPS", "brand:wikidata": "Q668687", "collection_times": "Mo-Fr 15:25; Sa 10:00", "name": "USPS COLLECTION BOX - BLUE BOX", "note": "ON 12/24 AND 12/31, THIS BOX MAY BE COLLECTED AS EARLY AS 12 NOON.", "ref": "4962200002"}, "type": "Feature"}
{"geometry": {"coordinates": [-85.263171, 45.070177], "type": "Point"}, "id": "oTXGH_k2nNlOTsRT7NgmL4smvac=", "properties": {"@spider": "usps_collection_boxes", "addr:city": "CENTRAL LAKE", "addr:country": "US", "addr:full": "7956 E STATE ST", "addr:postcode": "49622", "addr:state": "MI", "brand": "USPS", "brand:wikidata": "Q668687", "collection_times": "Mo-Fr 15:25; Sa 10:00", "name": "USPS COLLECTION BOX - PO LOBBY", "note": "ON 12/24 AND 12/31, THIS BOX MAY BE COLLECTED AS EARLY AS 12 NOON.", "ref": "4962200004"}, "type": "Feature"}
{"geometry": {"coordinates": [-85.263200916, 45.070176497], "type": "Point"}, "id": "553fyRFqz9js2mCNFfEdpGD_U08=", "properties": {"@spider": "usps_collection_boxes", "addr:city": "CENTRAL LAKE", "addr:country": "US", "addr:full": "7956 E STATE ST", "addr:postcode": "49622", "addr:state": "MI", "brand": "USPS", "brand:wikidata": "Q668687", "collection_times": "Mo-Fr 14:45; Sa 11:00", "name": "USPS COLLECTION BOX - PO LOBBY", "note": "ON 12/24 AND 12/31, THIS BOX MAY BE COLLECTED AS EARLY AS 12 NOON.", "ref": "4962200005"}, "type": "Feature"}
{"geometry": {"coordinates": [-85.637173, 43.888499], "type": "Point"}, "id": "YoOOg2IF-5OpPoSZH3NOy59Z_Js=", "properties": {"@spider": "usps_collection_boxes", "addr:city": "CHASE", "addr:country": "US", "addr:full": "6958 S DEPOT ST", "addr:postcode": "49623", "addr:state": "MI", "brand": "USPS", "brand:wikidata": "Q668687", "collection_times": "Mo-Fr 16:15; Sa 10:00", "name": "USPS COLLECTION BOX - BLUE BOX", "note": "ON 12/24 AND 12/31, THIS BOX MAY BE COLLECTED AS EARLY AS 12 NOON.", "ref": "4962300001"}, "type": "Feature"}
{"geometry": {"coordinates": [-85.637173, 43.888499], "type": "Point"}, "id": "vHiDVHXdLIJ3pAkMgY1uTUY6wuA=", "properties": {"@spider": "usps_collection_boxes", "addr:city": "CHASE", "addr:country": "US", "addr:full": "6958 S DEPOT ST", "addr:postcode": "49623", "addr:state": "MI", "brand": "USPS", "brand:wikidata": "Q668687", "collection_times": "Mo-Fr 11:15; Sa 10:00", "name": "USPS COLLECTION BOX - PO LOBBY", "ref": "4962300002"}, "type": "Feature"}
{"geometry": {"coordinates": [-85.637172858, 43.888498994], "type": "Point"}, "id": "fl-aPbR5aEQzPhbNleILUuUToG8=", "properties": {"@spider": "usps_collection_boxes", "addr:city": "CHASE", "addr:country": "US", "addr:full": "6958 S DEPOT ST", "addr:postcode": "49623", "addr:state": "MI", "brand": "USPS", "brand:wikidata": "Q668687", "collection_times": "Mo-Fr 11:00; Sa 09:30", "name": "USPS COLLECTION BOX - PO LOBBY", "ref": "4962300003"}, "type": "Feature"}
{"geometry": {"coordinates": [-85.9229904, 44.481884], "type": "Point"}, "id": "sqPqmbISEoK5TZqoqbLVIW7vAxY=", "properties": {"@spider": "usps_collection_boxes", "addr:city": "COPEMISH", "addr:country": "US", "addr:full": "18772 MAPLE ST", "addr:postcode": "49625", "addr:state": "MI", "brand": "USPS", "brand:wikidata": "Q668687", "collection_times": "Mo-Fr 16:00; Sa 09:45", "name": "USPS COLLECTION BOX - BLUE BOX", "note": "ON 12/24 AND 12/31, THIS BOX MAY BE COLLECTED AS EARLY AS 12 NOON.", "ref": "4962500001"}, "type": "Feature"}
{"geometry": {"coordinates": [-85.9275263934, 44.482433438], "type": "Point"}, "id": "3qvCjsf6ka3APrJbPiAn1PrYELU=", "properties": {"@spider": "usps_collection_boxes", "addr:city": "COPEMISH", "addr:country": "US", "addr:full": "18507 CADILLAC HWY", "addr:postcode": "49625", "addr:state": "MI", "brand": "USPS", "brand:wikidata": "Q668687", "collection_times": "Mo-Sa 14:30", "name": "USPS COLLECTION BOX - BLUE BOX", "note": "ON 12/24 AND 12/31, THIS BOX MAY BE COLLECTED AS EARLY AS 12 NOON.", "ref": "4962500002"}, "type": "Feature"}
{"geometry": {"coordinates": [-85.9230354, 44.481978], "type": "Point"}, "id": "cmLfR7irRxo1ckXj3fU5lHKzj04=", "properties": {"@spider": "usps_collection_boxes", "addr:city": "COPEMISH", "addr:country": "US", "addr:full": "18772 MAPLE ST", "addr:postcode": "49625", "addr:state": "MI", "brand": "USPS", "brand:wikidata": "Q668687", "collection_times": "Mo-Fr 16:00; Sa 09:45", "name": "USPS COLLECTION BOX - PO LOBBY", "note": "ON 12/24 AND 12/31, THIS BOX MAY BE COLLECTED AS EARLY AS 12 NOON.", "ref": "4962500003"}, "type": "Feature"}
{"geometry": {"coordinates": [-85.922963832, 44.481846519], "type": "Point"}, "id": "MWlMvBYoGv8lB9JWbWmvQqEsTE0=", "properties": {"@spider": "usps_collection_boxes", "addr:city": "COPEMISH", "addr:country": "US", "addr:full": "18772 MAPLE ST", "addr:postcode": "49625", "addr:state": "MI", "brand": "USPS", "brand:wikidata": "Q668687", "collection_times": "Mo-Fr 15:45; Sa 09:30", "name": "USPS COLLECTION BOX - PO LOBBY", "note": "ON 12/24 AND 12/31, THIS BOX MAY BE COLLECTED AS EARLY AS 12 NOON.", "ref": "4962500004"}, "type": "Feature"}
{"geometry": {"coordinates": [-86.296859, 44.244092], "type": "Point"}, "id": "Ia3ne1U7zjvX4nyto-OauiRT8as=", "properties": {"@spider": "usps_collection_boxes", "addr:city": "EASTLAKE", "addr:country": "US", "addr:full": "298 1ST ST", "addr:postcode": "49626", "addr:state": "MI", "brand": "USPS", "brand:wikidata": "Q668687", "collection_times": "Mo-Fr 11:00; Sa 09:00", "name": "USPS COLLECTION BOX - BLUE BOX", "ref": "4962600001"}, "type": "Feature"}
{"geometry": {"coordinates": [-86.296859, 44.244092], "type": "Point"}, "id": "S9TQSEu99RyuvqckilhUHhkMH7w=", "properties": {"@spider": "usps_collection_boxes", "addr:city": "EASTLAKE", "addr:country": "US", "addr:full": "298 1ST ST", "addr:postcode": "49626", "addr:state": "MI", "brand": "USPS", "brand:wikidata": "Q668687", "collection_times": "Mo-Fr 11:00; Sa 09:00", "name": "USPS COLLECTION BOX - PO LOBBY", "ref": "4962600002"}, "type": "Feature"}
{"geometry": {"coordinates": [-86.29684119, 44.244378482], "type": "Point"}, "id": "_0vfL4DT1IGrng2LT1dfQ1nEKuM=", "properties": {"@spider": "usps_collection_boxes", "addr:city": "EASTLAKE", "addr:country": "US", "addr:full": "298 1ST ST", "addr:postcode": "49626", "addr:state": "MI", "brand": "USPS", "brand:wikidata": "Q668687", "collection_times": "Mo-Fr 11:30; Sa 08:30", "name": "USPS COLLECTION BOX - PO LOBBY", "ref": "4962600003"}, "type": "Feature"}
{"geometry": {"coordinates": [-85.35144, 45.108001], "type": "Point"}, "id": "TV_l4GlLTkIP5vWyUx0-Ap7vc-I=", "properties": {"@spider": "usps_collection_boxes", "addr:city": "EASTPORT", "addr:country": "US", "addr:full": "12037 BAKER ST", "addr:postcode": "49627", "addr:state": "MI", "brand": "USPS", "brand:wikidata": "Q668687", "collection_times": "Mo-Fr 15:10; Sa 10:00", "name": "USPS COLLECTION BOX - BLUE BOX", "note": "ON 12/24 AND 12/31, THIS BOX MAY BE COLLECTED AS EARLY AS 12 NOON.", "ref": "4962700001"}, "type": "Feature"}
{"geometry": {"coordinates": [-85.35144, 45.108001], "type": "Point"}, "id": "M3CDqDkBxMJ4M0_0PkAv67p6ZV4=", "properties": {"@spider": "usps_collection_boxes", "addr:city": "EASTPORT", "addr:country": "US", "addr:full": "12037 BAKER ST", "addr:postcode": "49627", "addr:state": "MI", "brand": "USPS", "brand:wikidata": "Q668687", "collection_times": "Mo-Fr 15:10; Sa 10:00", "name": "USPS COLLECTION BOX - PO LOBBY", "note": "ON 12/24 AND 12/31, THIS BOX MAY BE COLLECTED AS EARLY AS 12 NOON.", "ref": "4962700003"}, "type": "Feature"}
{"geometry": {"coordinates": [-85.351441751, 45.108001521], "type": "Point"}, "id": "UpK9_ys7pma_rz9cdJD09wtdKBo=", "properties": {"@spider": "usps_collection_boxes", "addr:city": "EASTPORT", "addr:country": "US", "addr:full": "12037 BAKER ST", "addr:postcode": "49627", "addr:state": "MI", "brand": "USPS", "brand:wikidata": "Q668687", "collection_times": "Mo-Fr 14:45; Sa 09:30", "name": "USPS COLLECTION BOX - PO LOBBY", "note": "ON 12/24 AND 12/31, THIS BOX MAY BE COLLECTED AS EARLY AS 12 NOON.", "ref": "4962700004"}, "type": "Feature"}
{"geometry": {"coordinates": [-86.2264334, 44.618312], "type": "Point"}, "id": "x20X0Ng6txvwNQiipJXXz8-xl-U=", "properties": {"@spider": "usps_collection_boxes", "addr:city": "ELBERTA", "addr:country": "US", "addr:full": "655 FRANKFORT AVE", "addr:postcode": "49628", "addr:state": "MI", "brand": "USPS", "brand:wikidata": "Q668687", "collection_times": "Mo-Fr 15:00; Sa 10:30", "name": "USPS COLLECTION BOX - BLUE BOX", "note": "ON 12/24 AND 12/31, THIS BOX MAY BE COLLECTED AS EARLY AS 12 NOON.", "ref": "4962800001"}, "type": "Feature"}
{"geometry": {"coordinates": [-86.22636, 44.618277], "type": "Point"}, "id": "eLBTXWp7FFo2OeSRUVExToAy-oc=", "properties": {"@spider": "usps_collection_boxes", "addr:city": "ELBERTA", "addr:country": "US", "addr:full": "655 FRANKFORT AVE", "addr:postcode": "49628", "addr:state": "MI", "brand": "USPS", "brand:wikidata": "Q668687", "collection_times": "Mo-Fr 13:00; Sa 10:30", "name": "USPS COLLECTION BOX - PO LOBBY", "note": "ON 12/24 AND 12/31, THIS BOX MAY BE COLLECTED AS EARLY AS 12 NOON.", "ref": "4962800002"}, "type": "Feature"}
{"geometry": {"coordinates": [-86.226359561, 44.618265], "type": "Point"}, "id": "wIDjY1K8KAQYnf-Fy_yCMsR-EwI=", "properties": {"@spider": "usps_collection_boxes", "addr:city": "ELBERTA", "addr:country": "US", "addr:full": "655 FRANKFORT AVE", "addr:postcode": "49628", "addr:state": "MI", "brand": "USPS", "brand:wikidata": "Q668687", "collection_times": "Mo-Fr 12:30; Sa 10:00", "name": "USPS COLLECTION BOX - PO LOBBY", "note": "ON 12/24 AND 12/31, THIS BOX MAY BE COLLECTED AS EARLY AS 12 NOON.", "ref": "4962800003"}, "type": "Feature"}
{"geometry": {"coordinates": [-85.412144, 44.898421], "type": "Point"}, "id": "OJLs19JmYsRZr356OioCgLonME4=", "properties": {"@spider": "usps_collection_boxes", "addr:city": "ELK RAPIDS", "addr:country": "US", "addr:full": "105 RIVER ST", "addr:postcode": "49629", "addr:state": "MI", "brand": "USPS", "brand:wikidata": "Q668687", "collection_times": "Mo-Fr 16:30; Sa 11:00", "name": "USPS COLLECTION BOX - BLUE BOX", "note": "ON 12/24 AND 12/31, THIS BOX MAY BE COLLECTED AS EARLY AS 12 NOON.", "ref": "4962900001"}, "type": "Feature"}
{"geometry": {"coordinates": [-85.412144, 44.898421], "type": "Point"}, "id": "MQNr89mkAj2UlUod-_Au04jeC3Y=", "properties": {"@spider": "usps_collection_boxes", "addr:city": "ELK RAPIDS", "addr:country": "US", "addr:full": "105 RIVER ST", "addr:postcode": "49629", "addr:state": "MI", "brand": "USPS", "brand:wikidata": "Q668687", "collection_times": "Mo-Fr 16:30; Sa 11:00", "name": "USPS COLLECTION BOX - BLUE BOX", "note": "ON 12/24 AND 12/31, THIS BOX MAY BE COLLECTED AS EARLY AS 12 NOON.", "ref": "4962900002"}, "type": "Feature"}
{"geometry": {"coordinates": [-85.4130747, 44.888254], "type": "Point"}, "id": "-IxKP28Zw1ubO0JANv8MOvt66SA=", "properties": {"@spider": "usps_collection_boxes", "addr:city": "ELK RAPIDS", "addr:country": "US", "addr:full": "930 S US HIGHWAY 31", "addr:postcode": "49629", "addr:state": "MI", "brand": "USPS", "brand:wikidata": "Q668687", "collection_times": "Mo-Sa 11:00", "name": "USPS COLLECTION BOX - BLUE BOX", "ref": "4962900004"}, "type": "Feature"}
{"geometry": {"coordinates": [-85.4010453, 44.89881], "type": "Point"}, "id": "yB56jjUKlX9KJr6kYXXOloRnqXA=", "properties": {"@spider": "usps_collection_boxes", "addr:city": "ELK RAPIDS", "addr:country": "US", "addr:full": "250 AMES ST", "addr:postcode": "49629", "addr:state": "MI", "brand": "USPS", "brand:wikidata": "Q668687", "collection_times": "Mo-Sa 13:00", "name": "USPS COLLECTION BOX - BLUE BOX", "note": "ON 12/24 AND 12/31, THIS BOX MAY BE COLLECTED AS EARLY AS 12 NOON.", "ref": "4962900005"}, "type": "Feature"}
{"geometry": {"coordinates": [-85.412144, 44.898421], "type": "Point"}, "id": "qE154tP1FGPXcek68URWbozREkY=", "properties": {"@spider": "usps_collection_boxes", "addr:city": "ELK RAPIDS", "addr:country": "US", "addr:full": "105 RIVER ST", "addr:postcode": "49629", "addr:state": "MI", "brand": "USPS", "brand:wikidata": "Q668687", "collection_times": "Mo-Fr 16:30; Sa 11:00", "name": "USPS COLLECTION BOX - PO LOBBY", "note": "ON 12/24 AND 12/31, THIS BOX MAY BE COLLECTED AS EARLY AS 12 NOON.", "ref": "4962900006"}, "type": "Feature"}
{"geometry": {"coordinates": [-85.412165202, 44.898406828], "type": "Point"}, "id": "rKV1ncgsodowt9Ca8l7w-AjdhnY=", "properties": {"@spider": "usps_collection_boxes", "addr:city": "ELK RAPIDS", "addr:country": "US", "addr:full": "105 RIVER ST", "addr:postcode": "49629", "addr:state": "MI", "brand": "USPS", "brand:wikidata": "Q668687", "collection_times": "Mo-Fr 16:00; Sa 10:00", "name": "USPS COLLECTION BOX - PO LOBBY", "note": "ON 12/24 AND 12/31, THIS BOX MAY BE COLLECTED AS EARLY AS 12 NOON.", "ref": "4962900007"}, "type": "Feature"}
{"geometry": {"coordinates": [-86.063117, 44.811025], "type": "Point"}, "id": "ISJFdnskRrhvAsulll5x0i1PyFE=", "properties": {"@spider": "usps_collection_boxes", "addr:city": "EMPIRE", "addr:country": "US", "addr:full": "10234 W FRONT ST", "addr:postcode": "49630", "addr:state": "MI", "brand": "USPS", "brand:wikidata": "Q668687", "collection_times": "Mo-Fr 16:00; Sa 11:00", "name": "USPS COLLECTION BOX - BLUE BOX", "note": "ON 12/24 AND 12/31, THIS BOX MAY BE COLLECTED AS EARLY AS 12 NOON.", "ref": "4963000001"}, "type": "Feature"}
{"geometry": {"coordinates": [-86.063117, 44.811025], "type": "Point"}, "id": "fSlruzDb76o2p1E1z0XRU6vbNEo=", "properties": {"@spider": "usps_collection_boxes", "addr:city": "EMPIRE", "addr:country": "US", "addr:full": "10234 W FRONT ST", "addr:postcode": "49630", "addr:state": "MI", "brand": "USPS", "brand:wikidata": "Q668687", "collection_times": "Mo-Fr 16:00; Sa 11:00", "name": "USPS COLLECTION BOX - PO LOBBY", "note": "ON 12/24 AND 12/31, THIS BOX MAY BE COLLECTED AS EARLY AS 12 NOON.", "ref": "4963000002"}, "type": "Feature"}
{"geometry": {"coordinates": [-86.063091273, 44.811066904], "type": "Point"}, "id": "fuuPY2VUBWRbfMLJt5cIO9RWOk0=", "properties": {"@spider": "usps_collection_boxes", "addr:city": "EMPIRE", "addr:country": "US", "addr:full": "10234 W FRONT ST", "addr:postcode": "49630", "addr:state": "MI", "brand": "USPS", "brand:wikidata": "Q668687", "collection_times": "Mo-Fr 15:30; Sa 10:30", "name": "USPS COLLECTION BOX - PO LOBBY", "note": "ON 12/24 AND 12/31, THIS BOX MAY BE COLLECTED AS EARLY AS 12 NOON.", "ref": "4963000003"}, "type": "Feature"}
{"geometry": {"coordinates": [-85.259353, 43.902437], "type": "Point"}, "id": "sEsfB3y4nE4_VtptJCBR3Jc5Gnw=", "properties": {"@spider": "usps_collection_boxes", "addr:city": "EVART", "addr:country": "US", "addr:full": "240 N MAIN ST", "addr:postcode": "49631", "addr:state": "MI", "brand": "USPS", "brand:wikidata": "Q668687", "collection_times": "Mo-Fr 16:00; Sa 13:00", "name": "USPS COLLECTION BOX - BLUE BOX", "note": "ON 12/24 AND 12/31, THIS BOX MAY BE COLLECTED AS EARLY AS 12 NOON.", "ref": "4963100001"}, "type": "Feature"}
{"geometry": {"coordinates": [-85.259353, 43.902437], "type": "Point"}, "id": "VZBeAaU__xO-7Q_8dBEteeVEwqE=", "properties": {"@spider": "usps_collection_boxes", "addr:city": "EVART", "addr:country": "US", "addr:full": "240 N MAIN ST", "addr:postcode": "49631", "addr:state": "MI", "brand": "USPS", "brand:wikidata": "Q668687", "collection_times": "Mo-Fr 16:00; Sa 13:00", "name": "USPS COLLECTION BOX - PO LOBBY", "note": "ON 12/24 AND 12/31, THIS BOX MAY BE COLLECTED AS EARLY AS 12 NOON.", "ref": "4963100002"}, "type": "Feature"}
{"geometry": {"coordinates": [-85.2729309, 43.900755], "type": "Point"}, "id": "r7Rmm9KSiEvS8k5wGtHBkKqgPwU=", "properties": {"@spider": "usps_collection_boxes", "addr:city": "EVART", "addr:country": "US", "addr:full": "820 W 7TH ST", "addr:postcode": "49631", "addr:state": "MI", "brand": "USPS", "brand:wikidata": "Q668687", "collection_times": "Mo-Sa 10:00", "name": "USPS COLLECTION BOX - BLUE BOX", "ref": "4963100004"}, "type": "Feature"}
{"geometry": {"coordinates": [-85.259336661, 43.902420491], "type": "Point"}, "id": "Ezjqf_uig1kBCu6oou0GUAfSEI4=", "properties": {"@spider": "usps_collection_boxes", "addr:city": "EVART", "addr:country": "US", "addr:full": "240 N MAIN ST", "addr:postcode": "49631", "addr:state": "MI", "brand": "USPS", "brand:wikidata": "Q668687", "collection_times": "Mo-Fr 15:30; Sa 11:30", "name": "USPS COLLECTION BOX - PO LOBBY", "note": "ON 12/24 AND 12/31, THIS BOX MAY BE COLLECTED AS EARLY AS 12 NOON.", "ref": "4963100005"}, "type": "Feature"}
{"geometry": {"coordinates": [-85.087511, 44.236778], "type": "Point"}, "id": "tJPlciUAAfQW0x9E7g1DfYAslAw=", "properties": {"@spider": "usps_collection_boxes", "addr:city": "FALMOUTH", "addr:country": "US", "addr:full": "6520 S MAIN ST", "addr:postcode": "49632", "addr:state": "MI", "brand": "USPS", "brand:wikidata": "Q668687", "collection_times": "Mo-Fr 15:45; Sa 10:00", "name": "USPS COLLECTION BOX - BLUE BOX", "note": "ON 12/24 AND 12/31, THIS BOX MAY BE COLLECTED AS EARLY AS 12 NOON.", "ref": "4963200001"}, "type": "Feature"}
{"geometry": {"coordinates": [-85.087511, 44.236778], "type": "Point"}, "id": "SXzbLVcvgQvIaWVSKFr-hHzGL40=", "properties": {"@spider": "usps_collection_boxes", "addr:city": "FALMOUTH", "addr:country": "US", "addr:full": "6520 S MAIN ST", "addr:postcode": "49632", "addr:state": "MI", "brand": "USPS", "brand:wikidata": "Q668687", "collection_times": "Mo-Fr 15:45; Sa 10:00", "name": "USPS COLLECTION BOX - PO LOBBY", "note": "ON 12/24 AND 12/31, THIS BOX MAY BE COLLECTED AS EARLY AS 12 NOON.", "ref": "4963200002"}, "type": "Feature"}
{"geometry": {"coordinates": [-85.0875233837, 44.2367314077], "type": "Point"}, "id": "WoGgwq1RE2SD2qsNmZP0aqiYxIc=", "properties": {"@spider": "usps_collection_boxes", "addr:city": "FALMOUTH", "addr:country": "US", "addr:full": "6520 S MAIN ST", "addr:postcode": "49632", "addr:state": "MI", "brand": "USPS", "brand:wikidata": "Q668687", "collection_times": "Mo-Fr 15:15; Sa 09:30", "name": "USPS COLLECTION BOX - PO LOBBY", "note": "ON 12/24 AND 12/31, THIS BOX MAY BE COLLECTED AS EARLY AS 12 NOON.", "ref": "4963200003"}, "type": "Feature"}
{"geometry": {"coordinates": [-85.348354, 44.577632], "type": "Point"}, "id": "zmZ3CgZwOjCC7XNTjwZnmy4kaUY=", "properties": {"@spider": "usps_collection_boxes", "addr:city": "FIFE LAKE", "addr:country": "US", "addr:full": "113 OAK ST", "addr:postcode": "49633", "addr:state": "MI", "brand": "USPS", "brand:wikidata": "Q668687", "collection_times": "Mo-Fr 16:15; Sa 10:00", "name": "USPS COLLECTION BOX - BLUE BOX", "note": "ON 12/24 AND 12/31, THIS BOX MAY BE COLLECTED AS EARLY AS 12 NOON.", "ref": "4963300001"}, "type": "Feature"}
{"geometry": {"coordinates": [-85.348354, 44.577632], "type": "Point"}, "id": "PiR39_iWGELZl-4eHtx6dkKKfAU=", "properties": {"@spider": "usps_collection_boxes", "addr:city": "FIFE LAKE", "addr:country": "US", "addr:full": "113 OAK ST", "addr:postcode": "49633", "addr:state": "MI", "brand": "USPS", "brand:wikidata": "Q668687", "collection_times": "Mo-Fr 16:30; Sa 10:00", "name": "USPS COLLECTION BOX - PO LOBBY", "note": "ON 12/24 AND 12/31, THIS BOX MAY BE COLLECTED AS EARLY AS 12 NOON.", "ref": "4963300002"}, "type": "Feature"}
{"geometry": {"coordinates": [-85.348373963, 44.577579666], "type": "Point"}, "id": "YZLupa2cSGgmU68p51EzDtkCHUs=", "properties": {"@spider": "usps_collection_boxes", "addr:city": "FIFE LAKE", "addr:country": "US", "addr:full": "113 OAK ST", "addr:postcode": "49633", "addr:state": "MI", "brand": "USPS", "brand:wikidata": "Q668687", "collection_times": "Mo-Fr 15:30", "name": "USPS COLLECTION BOX - PO LOBBY", "note": "ON 12/24 AND 12/31, THIS BOX MAY BE COLLECTED AS EARLY AS 12 NOON.", "ref": "4963300003"}, "type": "Feature"}
{"geometry": {"coordinates": [-86.2896571, 44.216645], "type": "Point"}, "id": "TUeZ67b7AJFU5g7jphb3DDctm-U=", "properties": {"@spider": "usps_collection_boxes", "addr:city": "FILER CITY", "addr:country": "US", "addr:full": "711 MEE ST", "addr:postcode": "49634", "addr:state": "MI", "brand": "USPS", "brand:wikidata": "Q668687", "collection_times": "Mo-Fr 13:00; Sa 10:45", "name": "USPS COLLECTION BOX - BLUE BOX", "note": "ON 12/24 AND 12/31, THIS BOX MAY BE COLLECTED AS EARLY AS 12 NOON.", "ref": "4963400001"}, "type": "Feature"}
{"geometry": {"coordinates": [-86.23518, 44.632527], "type": "Point"}, "id": "TlWcE0-aGYD_ZOdE4FC8vbEWZz0=", "properties": {"@spider": "usps_collection_boxes", "addr:city": "FRANKFORT", "addr:country": "US", "addr:full": "615 MAIN ST", "addr:postcode": "49635", "addr:state": "MI", "brand": "USPS", "brand:wikidata": "Q668687", "collection_times": "Mo-Fr 15:30; Sa 11:30", "name": "USPS COLLECTION BOX - BLUE BOX", "note": "ON 12/24 AND 12/31, THIS BOX MAY BE COLLECTED AS EARLY AS 12 NOON.", "ref": "4963500001"}, "type": "Feature"}
{"geometry": {"coordinates": [-86.2390181, 44.632418], "type": "Point"}, "id": "wHWr8ycLVkf1e4tex-rN1jt1MyA=", "properties": {"@spider": "usps_collection_boxes", "addr:city": "FRANKFORT", "addr:country": "US", "addr:full": "412 MAIN ST", "addr:postcode": "49635", "addr:state": "MI", "brand": "USPS", "brand:wikidata": "Q668687", "collection_times": "Mo-Sa 14:15", "name": "USPS COLLECTION BOX - BLUE BOX", "note": "ON 12/24 AND 12/31, THIS BOX MAY BE COLLECTED AS EARLY AS 12 NOON.", "ref": "4963500003"}, "type": "Feature"}
{"geometry": {"coordinates": [-86.23518, 44.632527], "type": "Point"}, "id": "8VanQpWAIDBE1N8C_GMKZYBSOYE=", "properties": {"@spider": "usps_collection_boxes", "addr:city": "FRANKFORT", "addr:country": "US", "addr:full": "615 MAIN ST", "addr:postcode": "49635", "addr:state": "MI", "brand": "USPS", "brand:wikidata": "Q668687", "collection_times": "Mo-Fr 15:45; Sa 11:00", "name": "USPS COLLECTION BOX - PO LOBBY", "note": "ON 12/24 AND 12/31, THIS BOX MAY BE COLLECTED AS EARLY AS 12 NOON.", "ref": "4963500004"}, "type": "Feature"}
{"geometry": {"coordinates": [-86.2282149, 44.633013], "type": "Point"}, "id": "VNOkPcE-rvX5or5685Ww-CF21H8=", "properties": {"@spider": "usps_collection_boxes", "addr:city": "FRANKFORT", "addr:country": "US", "addr:full": "1002 FOREST AVE", "addr:postcode": "49635", "addr:state": "MI", "brand": "USPS", "brand:wikidata": "Q668687", "collection_times": "Mo-Sa 13:30", "name": "USPS COLLECTION BOX - BLUE BOX", "note": "ON 12/24 AND 12/31, THIS BOX MAY BE COLLECTED AS EARLY AS 12 NOON.", "ref": "4963500005"}, "type": "Feature"}
{"geometry": {"coordinates": [-86.235182916, 44.632525472], "type": "Point"}, "id": "Jz_Srwc2TLSZ7Wfmzw-lclQlpFg=", "properties": {"@spider": "usps_collection_boxes", "addr:city": "FRANKFORT", "addr:country": "US", "addr:full": "615 MAIN ST", "addr:postcode": "49635", "addr:state": "MI", "brand": "USPS", "brand:wikidata": "Q668687", "collection_times": "Mo-Fr 15:45; Sa 10:30", "name": "USPS COLLECTION BOX - PO LOBBY", "note": "ON 12/24 AND 12/31, THIS BOX MAY BE COLLECTED AS EARLY AS 12 NOON.", "ref": "4963500006"}, "type": "Feature"}
{"geometry": {"coordinates": [-85.988136, 44.897756], "type": "Point"}, "id": "iC-bNRNysAsRA9qWk9IWUc7hrFY=", "properties": {"@spider": "usps_collection_boxes", "addr:city": "GLEN ARBOR", "addr:country": "US", "addr:full": "6456 WESTERN AVE", "addr:postcode": "49636", "addr:state": "MI", "brand": "USPS", "brand:wikidata": "Q668687", "collection_times": "Mo-Fr 16:00; Sa 10:45", "name": "USPS COLLECTION BOX - BLUE BOX", "note": "ON 12/24 AND 12/31, THIS BOX MAY BE COLLECTED AS EARLY AS 12 NOON.", "ref": "4963600005"}, "type": "Feature"}
{"geometry": {"coordinates": [-85.988136, 44.897756], "type": "Point"}, "id": "WgfFLW4FeY-bE00Lmw8_LJddY20=", "properties": {"@spider": "usps_collection_boxes", "addr:city": "GLEN ARBOR", "addr:country": "US", "addr:full": "6456 WESTERN AVE", "addr:postcode": "49636", "addr:state": "MI", "brand": "USPS", "brand:wikidata": "Q668687", "collection_times": "Mo-Fr 16:00; Sa 10:45", "name": "USPS COLLECTION BOX - BLUE BOX", "note": "ON 12/24 AND 12/31, THIS BOX MAY BE COLLECTED AS EARLY AS 12 NOON.", "ref": "4963600006"}, "type": "Feature"}
{"geometry": {"coordinates": [-85.988136, 44.897756], "type": "Point"}, "id": "ORLdd8s58Yl3rabcsPdfonXZrq8=", "properties": {"@spider": "usps_collection_boxes", "addr:city": "GLEN ARBOR", "addr:country": "US", "addr:full": "6456 WESTERN AVE", "addr:postcode": "49636", "addr:state": "MI", "brand": "USPS", "brand:wikidata": "Q668687", "collection_times": "Mo-Fr 16:15; Sa 10:45", "name": "USPS COLLECTION BOX - PO LOBBY", "note": "ON 12/24 AND 12/31, THIS BOX MAY BE COLLECTED AS EARLY AS 12 NOON.", "ref": "4963600007"}, "type": "Feature"}
{"geometry": {"coordinates": [-85.9880205, 44.8977514899], "type": "Point"}, "id": "SqkDY2ybwmnb3xXvRFIsOEzR_HM=", "properties": {"@spider": "usps_collection_boxes", "addr:city": "GLEN ARBOR", "addr:country": "US", "addr:full": "6456 WESTERN AVE", "addr:postcode": "49636", "addr:state": "MI", "brand": "USPS", "brand:wikidata": "Q668687", "collection_times": "Mo-Fr 15:30; Sa 10:30", "name": "USPS COLLECTION BOX - PO LOBBY", "note": "ON 12/24 AND 12/31, THIS BOX MAY BE COLLECTED AS EARLY AS 12 NOON.", "ref": "4963600009"}, "type": "Feature"}
{"geometry": {"coordinates": [-85.69373, 44.664008], "type": "Point"}, "id": "Y5tBg62k7ADey3u5sq0MTMYQLbY=", "properties": {"@spider": "usps_collection_boxes", "addr:city": "GRAWN", "addr:country": "US", "addr:full": "1568 STATE ST", "addr:postcode": "49637", "addr:state": "MI", "brand": "USPS", "brand:wikidata": "Q668687", "collection_times": "Mo-Fr 16:30; Sa 09:00", "name": "USPS COLLECTION BOX - BLUE BOX", "note": "ON 12/24 AND 12/31, THIS BOX MAY BE COLLECTED AS EARLY AS 12 NOON.", "ref": "4963700001"}, "type": "Feature"}
{"geometry": {"coordinates": [-85.69373, 44.664008], "type": "Point"}, "id": "mmmSNu7RQ-11xjNe8g4GPM1lDso=", "properties": {"@spider": "usps_collection_boxes", "addr:city": "GRAWN", "addr:country": "US", "addr:full": "1568 STATE ST", "addr:postcode": "49637", "addr:state": "MI", "brand": "USPS", "brand:wikidata": "Q668687", "collection_times": "Mo-Fr 16:30; Sa 09:00", "name": "USPS COLLECTION BOX - BLUE BOX", "note": "ON 12/24 AND 12/31, THIS BOX MAY BE COLLECTED AS EARLY AS 12 NOON.", "ref": "4963700002"}, "type": "Feature"}
{"geometry": {"coordinates": [-85.693712065, 44.664001827], "type": "Point"}, "id": "xydoKngkYFnrFHe59ftNg4p4qTQ=", "properties": {"@spider": "usps_collection_boxes", "addr:city": "GRAWN", "addr:country": "US", "addr:full": "1568 STATE ST", "addr:postcode": "49637", "addr:state": "MI", "brand": "USPS", "brand:wikidata": "Q668687", "collection_times": "Mo-Fr 16:30", "name": "USPS COLLECTION BOX - PO LOBBY", "note": "ON 12/24 AND 12/31, THIS BOX MAY BE COLLECTED AS EARLY AS 12 NOON.", "ref": "4963700004"}, "type": "Feature"}
{"geometry": {"coordinates": [-85.6977135, 44.309258], "type": "Point"}, "id": "OBoghyvf9ouM80NyBKgB67tBLX0=", "properties": {"@spider": "usps_collection_boxes", "addr:city": "HARRIETTA", "addr:country": "US", "addr:full": "108 S DAVIS ST", "addr:postcode": "49638", "addr:state": "MI", "brand": "USPS", "brand:wikidata": "Q668687", "collection_times": "Mo-Fr 16:00; Sa 09:45", "name": "USPS COLLECTION BOX - BLUE BOX", "note": "ON 12/24 AND 12/31, THIS BOX MAY BE COLLECTED AS EARLY AS 12 NOON.", "ref": "4963800001"}, "type": "Feature"}
{"geometry": {"coordinates": [-85.697529, 44.309109], "type": "Point"}, "id": "IzjJRd4pA2Z-gBp3eXSxrXPrNUE=", "properties": {"@spider": "usps_collection_boxes", "addr:city": "HARRIETTA", "addr:country": "US", "addr:full": "108 S DAVIS ST", "addr:postcode": "49638", "addr:state": "MI", "brand": "USPS", "brand:wikidata": "Q668687", "collection_times": "Mo-Fr 12:00; Sa 09:45", "name": "USPS COLLECTION BOX - PO LOBBY", "ref": "4963800002"}, "type": "Feature"}
{"geometry": {"coordinates": [-85.697566835, 44.309498077], "type": "Point"}, "id": "-Tm1ayFtT6xCV3pcf6xWVg4-NgU=", "properties": {"@spider": "usps_collection_boxes", "addr:city": "HARRIETTA", "addr:country": "US", "addr:full": "108 S DAVIS ST", "addr:postcode": "49638", "addr:state": "MI", "brand": "USPS", "brand:wikidata": "Q668687", "collection_times": "Mo-Fr 11:30; Sa 09:00", "name": "USPS COLLECTION BOX - PO LOBBY", "ref": "4963800003"}, "type": "Feature"}
{"geometry": {"coordinates": [-85.444378, 43.849919], "type": "Point"}, "id": "cqTzm56fG2AWKUbd6lkmp9ilbz4=", "properties": {"@spider": "usps_collection_boxes", "addr:city": "HERSEY", "addr:country": "US", "addr:full": "102 S MAIN ST", "addr:postcode": "49639", "addr:state": "MI", "brand": "USPS", "brand:wikidata": "Q668687", "collection_times": "Mo-Fr 16:00; Sa 10:30", "name": "USPS COLLECTION BOX - BLUE BOX", "note": "ON 12/24 AND 12/31, THIS BOX MAY BE COLLECTED AS EARLY AS 12 NOON.", "ref": "4963900001"}, "type": "Feature"}
{"geometry": {"coordinates": [-85.444378, 43.849919], "type": "Point"}, "id": "Ej9xwGb90qjXNKyBhbaayv6aFsg=", "properties": {"@spider": "usps_collection_boxes", "addr:city": "HERSEY", "addr:country": "US", "addr:full": "102 S MAIN ST", "addr:postcode": "49639", "addr:state": "MI", "brand": "USPS", "brand:wikidata": "Q668687", "collection_times": "Mo-Fr 16:00; Sa 10:30", "name": "USPS COLLECTION BOX - PO LOBBY", "note": "ON 12/24 AND 12/31, THIS BOX MAY BE COLLECTED AS EARLY AS 12 NOON.", "ref": "4963900003"}, "type": "Feature"}
{"geometry": {"coordinates": [-85.4444024578, 43.8499349723], "type": "Point"}, "id": "rEoM6SPhS3-MLVULxcIg8ByOAO8=", "properties": {"@spider": "usps_collection_boxes", "addr:city": "HERSEY", "addr:country": "US", "addr:full": "102 S MAIN ST", "addr:postcode": "49639", "addr:state": "MI", "brand": "USPS", "brand:wikidata": "Q668687", "collection_times": "Mo-Fr 15:15; Sa 10:00", "name": "USPS COLLECTION BOX - PO LOBBY", "note": "ON 12/24 AND 12/31, THIS BOX MAY BE COLLECTED AS EARLY AS 12 NOON.", "ref": "4963900004"}, "type": "Feature"}
{"geometry": {"coordinates": [-86.019312, 44.663217], "type": "Point"}, "id": "NzDVX29pyxDFJxoQLZxLRpBiOpg=", "properties": {"@spider": "usps_collection_boxes", "addr:city": "HONOR", "addr:country": "US", "addr:full": "10982 MAIN ST", "addr:postcode": "49640", "addr:state": "MI", "brand": "USPS", "brand:wikidata": "Q668687", "collection_times": "Mo-Fr 16:00; Sa 10:00", "name": "USPS COLLECTION BOX - BLUE BOX", "note": "ON 12/24 AND 12/31, THIS BOX MAY BE COLLECTED AS EARLY AS 12 NOON.", "ref": "4964000001"}, "type": "Feature"}
{"geometry": {"coordinates": [-86.019312, 44.663217], "type": "Point"}, "id": "4A3uD3ao3HCkfGCnEMA_bbPRsm4=", "properties": {"@spider": "usps_collection_boxes", "addr:city": "HONOR", "addr:country": "US", "addr:full": "10982 MAIN ST", "addr:postcode": "49640", "addr:state": "MI", "brand": "USPS", "brand:wikidata": "Q668687", "collection_times": "Mo-Fr 16:00; Sa 10:00", "name": "USPS COLLECTION BOX - PO LOBBY", "note": "ON 12/24 AND 12/31, THIS BOX MAY BE COLLECTED AS EARLY AS 12 NOON.", "ref": "4964000002"}, "type": "Feature"}
{"geometry": {"coordinates": [-86.019312228, 44.663210779], "type": "Point"}, "id": "94ECOQdGudspXuuYtP1v6_KfOBg=", "properties": {"@spider": "usps_collection_boxes", "addr:city": "HONOR", "addr:country": "US", "addr:full": "10982 MAIN ST", "addr:postcode": "49640", "addr:state": "MI", "brand": "USPS", "brand:wikidata": "Q668687", "collection_times": "Mo-Fr 15:30; Sa 09:30", "name": "USPS COLLECTION BOX - PO LOBBY", "note": "ON 12/24 AND 12/31, THIS BOX MAY BE COLLECTED AS EARLY AS 12 NOON.", "ref": "4964000003"}, "type": "Feature"}
{"geometry": {"coordinates": [-85.78585, 43.894776], "type": "Point"}, "id": "Y_qPjvFVp61m1YcHLBYh-279U-c=", "properties": {"@spider": "usps_collection_boxes", "addr:city": "IDLEWILD", "addr:country": "US", "addr:full": "812 E ESSEX", "addr:postcode": "49642", "addr:state": "MI", "brand": "USPS", "brand:wikidata": "Q668687", "collection_times": "Mo-Fr 16:05; Sa 10:45", "name": "USPS COLLECTION BOX - BLUE BOX", "note": "ON 12/24 AND 12/31, THIS BOX MAY BE COLLECTED AS EARLY AS 12 NOON.", "ref": "4964200001"}, "type": "Feature"}
{"geometry": {"coordinates": [-85.78585, 43.894776], "type": "Point"}, "id": "gVZQ7J9tKihu-OwVVPJknIAvzfM=", "properties": {"@spider": "usps_collection_boxes", "addr:city": "IDLEWILD", "addr:country": "US", "addr:full": "812 E ESSEX", "addr:postcode": "49642", "addr:state": "MI", "brand": "USPS", "brand:wikidata": "Q668687", "collection_times": "Mo-Fr 16:05; Sa 10:45", "name": "USPS COLLECTION BOX - PO LOBBY", "note": "ON 12/24 AND 12/31, THIS BOX MAY BE COLLECTED AS EARLY AS 12 NOON.", "ref": "4964200002"}, "type": "Feature"}
{"geometry": {"coordinates": [-85.785852829, 43.894772497], "type": "Point"}, "id": "Pol6DCkzd46w5k3orez0AgEYWsM=", "properties": {"@spider": "usps_collection_boxes", "addr:city": "IDLEWILD", "addr:country": "US", "addr:full": "812 E ESSEX", "addr:postcode": "49642", "addr:state": "MI", "brand": "USPS", "brand:wikidata": "Q668687", "collection_times": "Mo-Fr 15:45; Sa 12:00", "name": "USPS COLLECTION BOX - PO LOBBY", "note": "ON 12/24 AND 12/31, THIS BOX MAY BE COLLECTED AS EARLY AS 12 NOON.", "ref": "4964200003"}, "type": "Feature"}
{"geometry": {"coordinates": [-85.7682478, 44.657913], "type": "Point"}, "id": "UaQZf7JVkEOuSomPKq-7mmVS5jE=", "properties": {"@spider": "usps_collection_boxes", "addr:city": "INTERLOCHEN", "addr:country": "US", "addr:full": "2000 M 137", "addr:postcode": "49643", "addr:state": "MI", "brand": "USPS", "brand:wikidata": "Q668687", "collection_times": "Mo-Sa 11:00", "name": "USPS COLLECTION BOX - BLUE BOX", "ref": "4964300003"}, "type": "Feature"}
{"geometry": {"coordinates": [-85.7677824, 44.645627], "type": "Point"}, "id": "gwpVdzNq2oMJ1AuzOwPvGoSnaCU=", "properties": {"@spider": "usps_collection_boxes", "addr:city": "INTERLOCHEN", "addr:country": "US", "addr:full": "9508 9TH ST", "addr:postcode": "49643", "addr:state": "MI", "brand": "USPS", "brand:wikidata": "Q668687", "collection_times": "Mo-Fr 16:30; Sa 11:00", "name": "USPS COLLECTION BOX - BLUE BOX", "note": "ON 12/24 AND 12/31, THIS BOX MAY BE COLLECTED AS EARLY AS 12 NOON.", "ref": "4964300004"}, "type": "Feature"}
{"geometry": {"coordinates": [-85.766131, 44.645369], "type": "Point"}, "id": "PSeTXK3LmzYa82yKAHUsiDpyH0c=", "properties": {"@spider": "usps_collection_boxes", "addr:city": "INTERLOCHEN", "addr:country": "US", "addr:full": "9508 9TH ST", "addr:postcode": "49643", "addr:state": "MI", "brand": "USPS", "brand:wikidata": "Q668687", "collection_times": "Mo-Fr 16:30; Sa 09:00", "name": "USPS COLLECTION BOX - PO LOBBY", "note": "ON 12/24 AND 12/31, THIS BOX MAY BE COLLECTED AS EARLY AS 12 NOON.", "ref": "4964300006"}, "type": "Feature"}
{"geometry": {"coordinates": [-85.7669452, 44.656153], "type": "Point"}, "id": "-KKF9mSzMI1TIOhq3EG-r8XEIJw=", "properties": {"@spider": "usps_collection_boxes", "addr:city": "INTERLOCHEN", "addr:country": "US", "addr:full": "9475 MARKET DR", "addr:postcode": "49643", "addr:state": "MI", "brand": "USPS", "brand:wikidata": "Q668687", "collection_times": "Mo-Fr 11:30; Sa 11:00", "name": "USPS COLLECTION BOX - BLUE BOX", "ref": "4964300007"}, "type": "Feature"}
{"geometry": {"coordinates": [-85.766115533, 44.645417308], "type": "Point"}, "id": "6kq6l-QGRc6Cp1R4OFcOHeeas5o=", "properties": {"@spider": "usps_collection_boxes", "addr:city": "INTERLOCHEN", "addr:country": "US", "addr:full": "9508 9TH ST", "addr:postcode": "49643", "addr:state": "MI", "brand": "USPS", "brand:wikidata": "Q668687", "collection_times": "Mo-Fr 16:00", "name": "USPS COLLECTION BOX - PO LOBBY", "note": "ON 12/24 AND 12/31, THIS BOX MAY BE COLLECTED AS EARLY AS 12 NOON.", "ref": "4964300008"}, "type": "Feature"}
{"geometry": {"coordinates": [-85.91427, 44.140447], "type": "Point"}, "id": "yn8_B20tLt_R7DQ9yDKx5P4LvtU=", "properties": {"@spider": "usps_collection_boxes", "addr:city": "IRONS", "addr:country": "US", "addr:full": "5574 W 10 1/2 MILE RD", "addr:postcode": "49644", "addr:state": "MI", "brand": "USPS", "brand:wikidata": "Q668687", "collection_times": "Mo-Fr 15:25; Sa 11:15", "name": "USPS COLLECTION BOX - BLUE BOX", "note": "ON 12/24 AND 12/31, THIS BOX MAY BE COLLECTED AS EARLY AS 12 NOON.", "ref": "4964400001"}, "type": "Feature"}
{"geometry": {"coordinates": [-85.91427, 44.140447], "type": "Point"}, "id": "aaw9pSt1iBRlcRGSupPSFGpgV3A=", "properties": {"@spider": "usps_collection_boxes", "addr:city": "IRONS", "addr:country": "US", "addr:full": "5574 W 10 1/2 MILE RD", "addr:postcode": "49644", "addr:state": "MI", "brand": "USPS", "brand:wikidata": "Q668687", "collection_times": "Mo-Fr 15:25; Sa 11:15", "name": "USPS COLLECTION BOX - PO LOBBY", "note": "ON 12/24 AND 12/31, THIS BOX MAY BE COLLECTED AS EARLY AS 12 NOON.", "ref": "4964400002"}, "type": "Feature"}
{"geometry": {"coordinates": [-85.914303857, 44.140489403], "type": "Point"}, "id": "NIkebkZ4jDftimhltUPZYkC4Slo=", "properties": {"@spider": "usps_collection_boxes", "addr:city": "IRONS", "addr:country": "US", "addr:full": "5574 W 10 1/2 MILE RD", "addr:postcode": "49644", "addr:state": "MI", "brand": "USPS", "brand:wikidata": "Q668687", "collection_times": "Mo-Fr 14:45; Sa 10:30", "name": "USPS COLLECTION BOX - PO LOBBY", "note": "ON 12/24 AND 12/31, THIS BOX MAY BE COLLECTED AS EARLY AS 12 NOON.", "ref": "4964400003"}, "type": "Feature"}
{"geometry": {"coordinates": [-86.01169, 44.373437], "type": "Point"}, "id": "nuiE7ZVdE6SRCqaMvRwBLEAH0PA=", "properties": {"@spider": "usps_collection_boxes", "addr:city": "KALEVA", "addr:country": "US", "addr:full": "14424 WUOKSI AVE", "addr:postcode": "49645", "addr:state": "MI", "brand": "USPS", "brand:wikidata": "Q668687", "collection_times": "Mo-Fr 15:30; Sa 11:00", "name": "USPS COLLECTION BOX - BLUE BOX", "note": "ON 12/24 AND 12/31, THIS BOX MAY BE COLLECTED AS EARLY AS 12 NOON.", "ref": "4964500001"}, "type": "Feature"}
{"geometry": {"coordinates": [-86.01169, 44.373437], "type": "Point"}, "id": "QwoEQ-kff0CaWa6qDhRz6R7xsgk=", "properties": {"@spider": "usps_collection_boxes", "addr:city": "KALEVA", "addr:country": "US", "addr:full": "14424 WUOKSI AVE", "addr:postcode": "49645", "addr:state": "MI", "brand": "USPS", "brand:wikidata": "Q668687", "collection_times": "Mo-Fr 15:30; Sa 11:00", "name": "USPS COLLECTION BOX - PO LOBBY", "note": "ON 12/24 AND 12/31, THIS BOX MAY BE COLLECTED AS EARLY AS 12 NOON.", "ref": "4964500002"}, "type": "Feature"}
{"geometry": {"coordinates": [-86.0115735, 44.373437475], "type": "Point"}, "id": "7ELmPFZ2JDErPXmfLE8B0ivHHhM=", "properties": {"@spider": "usps_collection_boxes", "addr:city": "KALEVA", "addr:country": "US", "addr:full": "14424 WUOKSI AVE", "addr:postcode": "49645", "addr:state": "MI", "brand": "USPS", "brand:wikidata": "Q668687", "collection_times": "Mo-Fr 14:45; Sa 10:30", "name": "USPS COLLECTION BOX - PO LOBBY", "note": "ON 12/24 AND 12/31, THIS BOX MAY BE COLLECTED AS EARLY AS 12 NOON.", "ref": "4964500003"}, "type": "Feature"}
{"geometry": {"coordinates": [-85.178899, 44.730412], "type": "Point"}, "id": "u10Kc6KWXeweyLDGkC_gZLJLE_w=", "properties": {"@spider": "usps_collection_boxes", "addr:city": "KALKASKA", "addr:country": "US", "addr:full": "105 W 3RD ST", "addr:postcode": "49646", "addr:state": "MI", "brand": "USPS", "brand:wikidata": "Q668687", "collection_times": "Mo-Fr 16:15; Sa 11:00", "name": "USPS COLLECTION BOX - BLUE BOX", "note": "ON 12/24 AND 12/31, THIS BOX MAY BE COLLECTED AS EARLY AS 12 NOON.", "ref": "4964600001"}, "type": "Feature"}
{"geometry": {"coordinates": [-85.178899, 44.730412], "type": "Point"}, "id": "JhKa8dDeqDAqrX3mkkUvacv_N_o=", "properties": {"@spider": "usps_collection_boxes", "addr:city": "KALKASKA", "addr:country": "US", "addr:full": "105 W 3RD ST", "addr:postcode": "49646", "addr:state": "MI", "brand": "USPS", "brand:wikidata": "Q668687", "collection_times": "Mo-Fr 16:15; Sa 11:00", "name": "USPS COLLECTION BOX - PO LOBBY", "note": "ON 12/24 AND 12/31, THIS BOX MAY BE COLLECTED AS EARLY AS 12 NOON.", "ref": "4964600003"}, "type": "Feature"}
{"geometry": {"coordinates": [-85.178899, 44.730412], "type": "Point"}, "id": "aDmc3R17rzUtKIw5H86zOZ3-Dus=", "properties": {"@spider": "usps_collection_boxes", "addr:city": "KALKASKA", "addr:country": "US", "addr:full": "105 W 3RD ST", "addr:postcode": "49646", "addr:state": "MI", "brand": "USPS", "brand:wikidata": "Q668687", "collection_times": "Mo-Fr 16:15; Sa 11:00", "name": "USPS COLLECTION BOX - BLUE BOX", "note": "ON 12/24 AND 12/31, THIS BOX MAY BE COLLECTED AS EARLY AS 12 NOON.", "ref": "4964600004"}, "type": "Feature"}
{"geometry": {"coordinates": [-85.178878805, 44.730350762], "type": "Point"}, "id": "YYJbJ8C07cFZjMIzdsOK7Td3zhU=", "properties": {"@spider": "usps_collection_boxes", "addr:city": "KALKASKA", "addr:country": "US", "addr:full": "105 W 3RD ST", "addr:postcode": "49646", "addr:state": "MI", "brand": "USPS", "brand:wikidata": "Q668687", "collection_times": "Mo-Fr 15:45; Sa 11:00", "name": "USPS COLLECTION BOX - PO LOBBY", "note": "ON 12/24 AND 12/31, THIS BOX MAY BE COLLECTED AS EARLY AS 12 NOON.", "ref": "4964600008"}, "type": "Feature"}
{"geometry": {"coordinates": [-85.371356, 44.929425], "type": "Point"}, "id": "P6zVMMMZGH_HB6peZByjhKZXq2M=", "properties": {"@spider": "usps_collection_boxes", "addr:city": "KEWADIN", "addr:country": "US", "addr:full": "7292 CAIRN HWY", "addr:postcode": "49648", "addr:state": "MI", "brand": "USPS", "brand:wikidata": "Q668687", "collection_times": "Mo-Fr 16:00; Sa 10:00", "name": "USPS COLLECTION BOX - BLUE BOX", "note": "ON 12/24 AND 12/31, THIS BOX MAY BE COLLECTED AS EARLY AS 12 NOON.", "ref": "4964800001"}, "type": "Feature"}
{"geometry": {"coordinates": [-85.371356, 44.929425], "type": "Point"}, "id": "6VnhRh2Z69zniZ2REJabqo9nq_E=", "properties": {"@spider": "usps_collection_boxes", "addr:city": "KEWADIN", "addr:country": "US", "addr:full": "7292 CAIRN HWY", "addr:postcode": "49648", "addr:state": "MI", "brand": "USPS", "brand:wikidata": "Q668687", "collection_times": "Mo-Fr 16:00; Sa 10:00", "name": "USPS COLLECTION BOX - PO LOBBY", "note": "ON 12/24 AND 12/31, THIS BOX MAY BE COLLECTED AS EARLY AS 12 NOON.", "ref": "4964800002"}, "type": "Feature"}
{"geometry": {"coordinates": [-85.371337246, 44.929431322], "type": "Point"}, "id": "1_pJivDan7cICtFT5qy27cTA-HE=", "properties": {"@spider": "usps_collection_boxes", "addr:city": "KEWADIN", "addr:country": "US", "addr:full": "7292 CAIRN HWY", "addr:postcode": "49648", "addr:state": "MI", "brand": "USPS", "brand:wikidata": "Q668687", "collection_times": "Mo-Fr 15:30; Sa 09:00", "name": "USPS COLLECTION BOX - PO LOBBY", "note": "ON 12/24 AND 12/31, THIS BOX MAY BE COLLECTED AS EARLY AS 12 NOON.", "ref": "4964800003"}, "type": "Feature"}
{"geometry": {"coordinates": [-85.536152, 44.583618], "type": "Point"}, "id": "0De_CKQjj-PzSMqek5ziQS4TlP0=", "properties": {"@spider": "usps_collection_boxes", "addr:city": "KINGSLEY", "addr:country": "US", "addr:full": "201 S BROWNSON AVE", "addr:postcode": "49649", "addr:state": "MI", "brand": "USPS", "brand:wikidata": "Q668687", "collection_times": "Mo-Fr 16:45; Sa 11:00", "name": "USPS COLLECTION BOX - BLUE BOX", "note": "ON 12/24 AND 12/31, THIS BOX MAY BE COLLECTED AS EARLY AS 12 NOON.", "ref": "4964900001"}, "type": "Feature"}
{"geometry": {"coordinates": [-85.5287173, 44.585084], "type": "Point"}, "id": "4tq3i4ko2LoMEqULg1cdCprLyuI=", "properties": {"@spider": "usps_collection_boxes", "addr:city": "KINGSLEY", "addr:country": "US", "addr:full": "2377 E M 113", "addr:postcode": "49649", "addr:state": "MI", "brand": "USPS", "brand:wikidata": "Q668687", "collection_times": "Mo-Sa 11:00", "name": "USPS COLLECTION BOX - BLUE BOX", "ref": "4964900002"}, "type": "Feature"}
{"geometry": {"coordinates": [-85.536152, 44.583618], "type": "Point"}, "id": "SL7bzHl-ltiXGy-w6BRM5iMIOf4=", "properties": {"@spider": "usps_collection_boxes", "addr:city": "KINGSLEY", "addr:country": "US", "addr:full": "201 S BROWNSON AVE", "addr:postcode": "49649", "addr:state": "MI", "brand": "USPS", "brand:wikidata": "Q668687", "collection_times": "Mo-Fr 16:30; Sa 11:00", "name": "USPS COLLECTION BOX - PO LOBBY", "note": "ON 12/24 AND 12/31, THIS BOX MAY BE COLLECTED AS EARLY AS 12 NOON.", "ref": "4964900003"}, "type": "Feature"}
{"geometry": {"coordinates": [-85.536154384, 44.583596665], "type": "Point"}, "id": "Hz3nchm5L95cultGY6V_HJO3uKw=", "properties": {"@spider": "usps_collection_boxes", "addr:city": "KINGSLEY", "addr:country": "US", "addr:full": "201 S BROWNSON AVE", "addr:postcode": "49649", "addr:state": "MI", "brand": "USPS", "brand:wikidata": "Q668687", "collection_times": "Mo-Fr 16:00; Sa 10:30", "name": "USPS COLLECTION BOX - PO LOBBY", "note": "ON 12/24 AND 12/31, THIS BOX MAY BE COLLECTED AS EARLY AS 12 NOON.", "ref": "4964900005"}, "type": "Feature"}
{"geometry": {"coordinates": [-85.843863, 44.723917], "type": "Point"}, "id": "8LuScKKOwcZSepB2iTDzOaRGJi0=", "properties": {"@spider": "usps_collection_boxes", "addr:city": "LAKE ANN", "addr:country": "US", "addr:full": "19614 MAPLE ST", "addr:postcode": "49650", "addr:state": "MI", "brand": "USPS", "brand:wikidata": "Q668687", "collection_times": "Mo-Fr 16:30; Sa 11:00", "name": "USPS COLLECTION BOX - BLUE BOX", "note": "ON 12/24 AND 12/31, THIS BOX MAY BE COLLECTED AS EARLY AS 12 NOON.", "ref": "4965000001"}, "type": "Feature"}
{"geometry": {"coordinates": [-85.843863, 44.723917], "type": "Point"}, "id": "MJwVvfZ3TEqjDKr_H1c1ZVBVFUI=", "properties": {"@spider": "usps_collection_boxes", "addr:city": "LAKE ANN", "addr:country": "US", "addr:full": "19614 MAPLE ST", "addr:postcode": "49650", "addr:state": "MI", "brand": "USPS", "brand:wikidata": "Q668687", "collection_times": "Mo-Fr 16:30; Sa 11:00", "name": "USPS COLLECTION BOX - PO LOBBY", "note": "ON 12/24 AND 12/31, THIS BOX MAY BE COLLECTED AS EARLY AS 12 NOON.", "ref": "4965000002"}, "type": "Feature"}
{"geometry": {"coordinates": [-85.843864168, 44.723909439], "type": "Point"}, "id": "FPZ_C33w44Po65Kcrlhpm1v0Yus=", "properties": {"@spider": "usps_collection_boxes", "addr:city": "LAKE ANN", "addr:country": "US", "addr:full": "19614 MAPLE ST", "addr:postcode": "49650", "addr:state": "MI", "brand": "USPS", "brand:wikidata": "Q668687", "collection_times": "Mo-Fr 15:30; Sa 10:30", "name": "USPS COLLECTION BOX - PO LOBBY", "note": "ON 12/24 AND 12/31, THIS BOX MAY BE COLLECTED AS EARLY AS 12 NOON.", "ref": "4965000003"}, "type": "Feature"}
{"geometry": {"coordinates": [-85.09602, 44.481448], "type": "Point"}, "id": "GqUmy-OpO6rV3QbApy9KJdeTRaY=", "properties": {"@spider": "usps_collection_boxes", "addr:city": "LAKE CITY", "addr:country": "US", "addr:full": "121 E JOHN ST", "addr:postcode": "49651", "addr:state": "MI", "brand": "USPS", "brand:wikidata": "Q668687", "collection_times": "Mo-Fr 16:15; Sa 11:00", "name": "USPS COLLECTION BOX - BLUE BOX", "note": "ON 12/24 AND 12/31, THIS BOX MAY BE COLLECTED AS EARLY AS 12 NOON.", "ref": "4965100001"}, "type": "Feature"}
{"geometry": {"coordinates": [-85.09602, 44.481448], "type": "Point"}, "id": "NjrGi4EzKAvo8UF3RyQyFsvky5I=", "properties": {"@spider": "usps_collection_boxes", "addr:city": "LAKE CITY", "addr:country": "US", "addr:full": "121 E JOHN ST", "addr:postcode": "49651", "addr:state": "MI", "brand": "USPS", "brand:wikidata": "Q668687", "collection_times": "Mo-Fr 16:30; Sa 11:00", "name": "USPS COLLECTION BOX - PO LOBBY", "note": "ON 12/24 AND 12/31, THIS BOX MAY BE COLLECTED AS EARLY AS 12 NOON.", "ref": "4965100002"}, "type": "Feature"}
{"geometry": {"coordinates": [-84.9960626, 44.465977], "type": "Point"}, "id": "249s0BhNXjpCBbE9SYAwFccGbPU=", "properties": {"@spider": "usps_collection_boxes", "addr:city": "LAKE CITY", "addr:country": "US", "addr:full": "4865 E MOORESTOWN RD", "addr:postcode": "49651", "addr:state": "MI", "brand": "USPS", "brand:wikidata": "Q668687", "collection_times": "Mo-Sa 11:00", "name": "USPS COLLECTION BOX - BLUE BOX", "ref": "4965100005"}, "type": "Feature"}
{"geometry": {"coordinates": [-85.210596996, 44.3400870004], "type": "Point"}, "id": "9ky8D8MNfhrn9xK-R05uE8pBh9E=", "properties": {"@spider": "usps_collection_boxes", "addr:city": "LAKE CITY", "addr:country": "US", "addr:full": "5760 W HOUGHTON LAKE RD", "addr:postcode": "49651", "addr:state": "MI", "brand": "USPS", "brand:wikidata": "Q668687", "collection_times": "Mo-Fr 12:00; Sa 11:00", "name": "USPS COLLECTION BOX - BLUE BOX", "ref": "4965100006"}, "type": "Feature"}
{"geometry": {"coordinates": [-85.214441275, 44.334352123], "type": "Point"}, "id": "vF46eFV0LpMpTnjza2AfK0oMctg=", "properties": {"@spider": "usps_collection_boxes", "addr:city": "LAKE CITY", "addr:country": "US", "addr:full": "121 E JOHN ST", "addr:postcode": "49651", "addr:state": "MI", "brand": "USPS", "brand:wikidata": "Q668687", "collection_times": "Mo-Fr 16:00", "name": "USPS COLLECTION BOX - PO LOBBY", "note": "ON 12/24 AND 12/31, THIS BOX MAY BE COLLECTED AS EARLY AS 12 NOON.", "ref": "4965100007"}, "type": "Feature"}
{"geometry": {"coordinates": [-85.715293, 44.982596], "type": "Point"}, "id": "OJvrdZQfO0vuUi7J3OVVFsP8st4=", "properties": {"@spider": "usps_collection_boxes", "addr:city": "LAKE LEELANAU", "addr:country": "US", "addr:full": "115 S SAINT JOSEPH ST", "addr:postcode": "49653", "addr:state": "MI", "brand": "USPS", "brand:wikidata": "Q668687", "collection_times": "Mo-Fr 15:45; Sa 10:45", "name": "USPS COLLECTION BOX - BLUE BOX", "note": "ON 12/24 AND 12/31, THIS BOX MAY BE COLLECTED AS EARLY AS 12 NOON.", "ref": "4965300001"}, "type": "Feature"}
{"geometry": {"coordinates": [-85.715293, 44.982596], "type": "Point"}, "id": "fKvMTcQYa01Dj7AZx39Ksb4oxNQ=", "properties": {"@spider": "usps_collection_boxes", "addr:city": "LAKE LEELANAU", "addr:country": "US", "addr:full": "115 S SAINT JOSEPH ST", "addr:postcode": "49653", "addr:state": "MI", "brand": "USPS", "brand:wikidata": "Q668687", "collection_times": "Mo-Fr 15:45; Sa 10:45", "name": "USPS COLLECTION BOX - PO LOBBY", "note": "ON 12/24 AND 12/31, THIS BOX MAY BE COLLECTED AS EARLY AS 12 NOON.", "ref": "4965300002"}, "type": "Feature"}
{"geometry": {"coordinates": [-85.71532122, 44.98172055], "type": "Point"}, "id": "1x09Lf8_huF22ozsiiGHcflr5rw=", "properties": {"@spider": "usps_collection_boxes", "addr:city": "LAKE LEELANAU", "addr:country": "US", "addr:full": "115 S SAINT JOSEPH ST", "addr:postcode": "49653", "addr:state": "MI", "brand": "USPS", "brand:wikidata": "Q668687", "collection_times": "Mo-Fr 15:30; Sa 10:30", "name": "USPS COLLECTION BOX - PO LOBBY", "note": "ON 12/24 AND 12/31, THIS BOX MAY BE COLLECTED AS EARLY AS 12 NOON.", "ref": "4965300003"}, "type": "Feature"}
{"geometry": {"coordinates": [-85.75978, 45.023583], "type": "Point"}, "id": "eT_oQ9yEOHU1uo-a3qW8hh2cOBw=", "properties": {"@spider": "usps_collection_boxes", "addr:city": "LELAND", "addr:country": "US", "addr:full": "122 N MAIN ST", "addr:postcode": "49654", "addr:state": "MI", "brand": "USPS", "brand:wikidata": "Q668687", "collection_times": "Mo-Fr 16:00; Sa 11:00", "name": "USPS COLLECTION BOX - BLUE BOX", "note": "ON 12/24 AND 12/31, THIS BOX MAY BE COLLECTED AS EARLY AS 12 NOON.", "ref": "4965400001"}, "type": "Feature"}
{"geometry": {"coordinates": [-85.75978, 45.023583], "type": "Point"}, "id": "68IJsDPCFl3FUXk070_ANppBVBY=", "properties": {"@spider": "usps_collection_boxes", "addr:city": "LELAND", "addr:country": "US", "addr:full": "122 N MAIN ST", "addr:postcode": "49654", "addr:state": "MI", "brand": "USPS", "brand:wikidata": "Q668687", "collection_times": "Mo-Fr 16:00; Sa 11:00", "name": "USPS COLLECTION BOX - PO LOBBY", "note": "ON 12/24 AND 12/31, THIS BOX MAY BE COLLECTED AS EARLY AS 12 NOON.", "ref": "4965400002"}, "type": "Feature"}
{"geometry": {"coordinates": [-85.7597502406, 45.0236331629], "type": "Point"}, "id": "b0pv3DDOlLW-7yppSjUnz9pwe1Q=", "properties": {"@spider": "usps_collection_boxes", "addr:city": "LELAND", "addr:country": "US", "addr:full": "122 N MAIN ST", "addr:postcode": "49654", "addr:state": "MI", "brand": "USPS", "brand:wikidata": "Q668687", "collection_times": "Mo-Fr 15:30; Sa 10:30", "name": "USPS COLLECTION BOX - PO LOBBY", "note": "ON 12/24 AND 12/31, THIS BOX MAY BE COLLECTED AS EARLY AS 12 NOON.", "ref": "4965400003"}, "type": "Feature"}
{"geometry": {"coordinates": [-85.4526338, 44.038253], "type": "Point"}, "id": "o5If3apqWwotaH96olF93Yk4918=", "properties": {"@spider": "usps_collection_boxes", "addr:city": "LEROY", "addr:country": "US", "addr:full": "106 W GILBERT ST", "addr:postcode": "49655", "addr:state": "MI", "brand": "USPS", "brand:wikidata": "Q668687", "collection_times": "Mo-Fr 16:00; Sa 10:30", "name": "USPS COLLECTION BOX - BLUE BOX", "note": "ON 12/24 AND 12/31, THIS BOX MAY BE COLLECTED AS EARLY AS 12 NOON.", "ref": "4965500001"}, "type": "Feature"}
{"geometry": {"coordinates": [-85.4526491, 44.038286], "type": "Point"}, "id": "4uGeiI6RMZIMnGdaIhYFD-xEqp0=", "properties": {"@spider": "usps_collection_boxes", "addr:city": "LEROY", "addr:country": "US", "addr:full": "106 W GILBERT ST", "addr:postcode": "49655", "addr:state": "MI", "brand": "USPS", "brand:wikidata": "Q668687", "collection_times": "Mo-Fr 16:00; Sa 10:30", "name": "USPS COLLECTION BOX - PO LOBBY", "note": "ON 12/24 AND 12/31, THIS BOX MAY BE COLLECTED AS EARLY AS 12 NOON.", "ref": "4965500002"}, "type": "Feature"}
{"geometry": {"coordinates": [-85.451627008, 44.038224114], "type": "Point"}, "id": "0K81ZYfWbTPnPNVyRZTf9AGq3sg=", "properties": {"@spider": "usps_collection_boxes", "addr:city": "LEROY", "addr:country": "US", "addr:full": "106 W GILBERT ST", "addr:postcode": "49655", "addr:state": "MI", "brand": "USPS", "brand:wikidata": "Q668687", "collection_times": "Mo-Fr 15:30; Sa 10:00", "name": "USPS COLLECTION BOX - PO LOBBY", "note": "ON 12/24 AND 12/31, THIS BOX MAY BE COLLECTED AS EARLY AS 12 NOON.", "ref": "4965500003"}, "type": "Feature"}
{"geometry": {"coordinates": [-85.6824, 44.037008], "type": "Point"}, "id": "7WtGa0OKIqFdbnWf9NVfaCoYsbw=", "properties": {"@spider": "usps_collection_boxes", "addr:city": "LUTHER", "addr:country": "US", "addr:full": "207 STATE ST", "addr:postcode": "49656", "addr:state": "MI", "brand": "USPS", "brand:wikidata": "Q668687", "collection_times": "Mo-Fr 15:30; Sa 10:30", "name": "USPS COLLECTION BOX - BLUE BOX", "note": "ON 12/24 AND 12/31, THIS BOX MAY BE COLLECTED AS EARLY AS 12 NOON.", "ref": "4965600001"}, "type": "Feature"}
{"geometry": {"coordinates": [-85.6824, 44.037008], "type": "Point"}, "id": "YDNIUHfhdWEGj73sztfaEdWxBNY=", "properties": {"@spider": "usps_collection_boxes", "addr:city": "LUTHER", "addr:country": "US", "addr:full": "207 STATE ST", "addr:postcode": "49656", "addr:state": "MI", "brand": "USPS", "brand:wikidata": "Q668687", "collection_times": "Mo-Fr 15:30; Sa 10:30", "name": "USPS COLLECTION BOX - PO LOBBY", "note": "ON 12/24 AND 12/31, THIS BOX MAY BE COLLECTED AS EARLY AS 12 NOON.", "ref": "4965600003"}, "type": "Feature"}
{"geometry": {"coordinates": [-85.682400697, 44.037001446], "type": "Point"}, "id": "odj7c89r9Gq6GRu2rXe2LfFBLps=", "properties": {"@spider": "usps_collection_boxes", "addr:city": "LUTHER", "addr:country": "US", "addr:full": "207 STATE ST", "addr:postcode": "49656", "addr:state": "MI", "brand": "USPS", "brand:wikidata": "Q668687", "collection_times": "Mo-Fr 14:45; Sa 10:00", "name": "USPS COLLECTION BOX - PO LOBBY", "note": "ON 12/24 AND 12/31, THIS BOX MAY BE COLLECTED AS EARLY AS 12 NOON.", "ref": "4965600004"}, "type": "Feature"}
{"geometry": {"coordinates": [-85.210459, 44.192238], "type": "Point"}, "id": "ET_SJEptFNiDxCQcsEjGUZvrWU0=", "properties": {"@spider": "usps_collection_boxes", "addr:city": "MCBAIN", "addr:country": "US", "addr:full": "104 N ROLAND ST", "addr:postcode": "49657", "addr:state": "MI", "brand": "USPS", "brand:wikidata": "Q668687", "collection_times": "Mo-Fr 15:30; Sa 10:30", "name": "USPS COLLECTION BOX - PO LOBBY", "note": "ON 12/24 AND 12/31, THIS BOX MAY BE COLLECTED AS EARLY AS 12 NOON.", "ref": "4965700004"}, "type": "Feature"}
{"geometry": {"coordinates": [-85.2103678, 44.189852], "type": "Point"}, "id": "KYWwmZ_YS6aeRAe6gixbvODDpCo=", "properties": {"@spider": "usps_collection_boxes", "addr:city": "MCBAIN", "addr:country": "US", "addr:full": "100 E ELM ST", "addr:postcode": "49657", "addr:state": "MI", "brand": "USPS", "brand:wikidata": "Q668687", "collection_times": "Mo-Sa 09:45", "name": "USPS COLLECTION BOX - BLUE BOX", "ref": "4965700005"}, "type": "Feature"}
{"geometry": {"coordinates": [-85.210459, 44.192238], "type": "Point"}, "id": "Bt4XJ47DvlsSNgDMwOHxHMR_tbc=", "properties": {"@spider": "usps_collection_boxes", "addr:city": "MCBAIN", "addr:country": "US", "addr:full": "104 N ROLAND ST", "addr:postcode": "49657", "addr:state": "MI", "brand": "USPS", "brand:wikidata": "Q668687", "collection_times": "Mo-Fr 15:30; Sa 10:30", "name": "USPS COLLECTION BOX - BLUE BOX", "note": "ON 12/24 AND 12/31, THIS BOX MAY BE COLLECTED AS EARLY AS 12 NOON.", "ref": "4965700006"}, "type": "Feature"}
{"geometry": {"coordinates": [-85.2124934, 44.18796], "type": "Point"}, "id": "sISKtoyn8kWB3e9GFKnD7tMTfsE=", "properties": {"@spider": "usps_collection_boxes", "addr:city": "MCBAIN", "addr:country": "US", "addr:full": "229 S PINE ST", "addr:postcode": "49657", "addr:state": "MI", "brand": "USPS", "brand:wikidata": "Q668687", "collection_times": "Mo-Sa 09:45", "name": "USPS COLLECTION BOX - BLUE BOX", "ref": "4965700008"}, "type": "Feature"}
{"geometry": {"coordinates": [-85.210444164, 44.192202554], "type": "Point"}, "id": "5I9aO6LvJxos46vzK01zrP3Ch5Y=", "properties": {"@spider": "usps_collection_boxes", "addr:city": "MCBAIN", "addr:country": "US", "addr:full": "104 N ROLAND ST", "addr:postcode": "49657", "addr:state": "MI", "brand": "USPS", "brand:wikidata": "Q668687", "collection_times": "Mo-Fr 15:45; Sa 10:45", "name": "USPS COLLECTION BOX - PO LOBBY", "note": "ON 12/24 AND 12/31, THIS BOX MAY BE COLLECTED AS EARLY AS 12 NOON.", "ref": "4965700009"}, "type": "Feature"}
{"geometry": {"coordinates": [-85.0601302265, 44.9029224882], "type": "Point"}, "id": "yJyuCGM7L9Rlg91UD5nU893zD_o=", "properties": {"@spider": "usps_collection_boxes", "addr:city": "MANCELONA", "addr:country": "US", "addr:full": "115 N WILLIAMS ST", "addr:postcode": "49659", "addr:state": "MI", "brand": "USPS", "brand:wikidata": "Q668687", "collection_times": "Mo-Fr 16:00; Sa 11:00", "name": "USPS COLLECTION BOX - BLUE BOX", "note": "ON 12/24 AND 12/31, THIS BOX MAY BE COLLECTED AS EARLY AS 12 NOON.", "ref": "4965900002"}, "type": "Feature"}
{"geometry": {"coordinates": [-85.0601302265, 44.9029224882], "type": "Point"}, "id": "qNGTcWeibNz0g5XSfo4v_92HmW8=", "properties": {"@spider": "usps_collection_boxes", "addr:city": "MANCELONA", "addr:country": "US", "addr:full": "115 N WILLIAMS ST", "addr:postcode": "49659", "addr:state": "MI", "brand": "USPS", "brand:wikidata": "Q668687", "collection_times": "Mo-Fr 16:00; Sa 11:00", "name": "USPS COLLECTION BOX - PO LOBBY", "note": "ON 12/24 AND 12/31, THIS BOX MAY BE COLLECTED AS EARLY AS 12 NOON.", "ref": "4965900003"}, "type": "Feature"}
{"geometry": {"coordinates": [-85.060268055, 44.902848982], "type": "Point"}, "id": "3_JgmZ0W9QFMzf8idEhyqJk-fi4=", "properties": {"@spider": "usps_collection_boxes", "addr:city": "MANCELONA", "addr:country": "US", "addr:full": "131 N WILLIAMS ST", "addr:postcode": "49659", "addr:state": "MI", "brand": "USPS", "brand:wikidata": "Q668687", "collection_times": "Mo-Fr 15:30; Sa 10:30", "name": "USPS COLLECTION BOX - PO LOBBY", "note": "ON 12/24 AND 12/31, THIS BOX MAY BE COLLECTED AS EARLY AS 12 NOON.", "ref": "4965900005"}, "type": "Feature"}
{"geometry": {"coordinates": [-86.3214485, 44.248021], "type": "Point"}, "id": "Yt5hE5hmv_fj_IlR0skVEdXJOW8=", "properties": {"@spider": "usps_collection_boxes", "addr:city": "MANISTEE", "addr:country": "US", "addr:full": "355 RIVER ST", "addr:postcode": "49660", "addr:state": "MI", "brand": "USPS", "brand:wikidata": "Q668687", "collection_times": "Mo-Sa 10:30", "name": "USPS COLLECTION BOX - BLUE BOX", "ref": "4966000002"}, "type": "Feature"}
{"geometry": {"coordinates": [-86.322476, 44.247835], "type": "Point"}, "id": "WH8bmYFVMJYt2wtXdguu_hCd8pA=", "properties": {"@spider": "usps_collection_boxes", "addr:city": "MANISTEE", "addr:country": "US", "addr:full": "375 RIVER ST", "addr:postcode": "49660", "addr:state": "MI", "brand": "USPS", "brand:wikidata": "Q668687", "collection_times": "Mo-Sa 15:00", "name": "USPS COLLECTION BOX - BLUE BOX", "note": "ON 12/24 AND 12/31, THIS BOX MAY BE COLLECTED AS EARLY AS 12 NOON.", "ref": "4966000004"}, "type": "Feature"}
{"geometry": {"coordinates": [-86.3071505, 44.219783], "type": "Point"}, "id": "uCEQWn6Dt59ejwr9CGKmC9Lwf_M=", "properties": {"@spider": "usps_collection_boxes", "addr:city": "MANISTEE", "addr:country": "US", "addr:full": "1117 28TH ST", "addr:postcode": "49660", "addr:state": "MI", "brand": "USPS", "brand:wikidata": "Q668687", "collection_times": "Mo-Sa 11:00", "name": "USPS COLLECTION BOX - BLUE BOX", "ref": "4966000018"}, "type": "Feature"}
{"geometry": {"coordinates": [-86.3246576, 44.243723], "type": "Point"}, "id": "6xerVCXvvhYq0M1nPY38SsznNvI=", "properties": {"@spider": "usps_collection_boxes", "addr:city": "MANISTEE", "addr:country": "US", "addr:full": "415 3RD ST", "addr:postcode": "49660", "addr:state": "MI", "brand": "USPS", "brand:wikidata": "Q668687", "collection_times": "Mo-Sa 15:00", "name": "USPS COLLECTION BOX - BLUE BOX", "note": "ON 12/24 AND 12/31, THIS BOX MAY BE COLLECTED AS EARLY AS 12 NOON.", "ref": "4966000029"}, "type": "Feature"}
{"geometry": {"coordinates": [-86.3030894, 44.267686], "type": "Point"}, "id": "7DSEstcfmsAVSo1_93YnDWELRWw=", "properties": {"@spider": "usps_collection_boxes", "addr:city": "MANISTEE", "addr:country": "US", "addr:full": "330 E PARKDALE AVE", "addr:postcode": "49660", "addr:state": "MI", "brand": "USPS", "brand:wikidata": "Q668687", "collection_times": "Mo-Sa 11:00", "name": "USPS COLLECTION BOX - BLUE BOX", "ref": "4966000035"}, "type": "Feature"}
{"geometry": {"coordinates": [-86.3131571, 44.233875], "type": "Point"}, "id": "MXZo9B4wUrv5YtlqdnrdKs390tA=", "properties": {"@spider": "usps_collection_boxes", "addr:city": "MANISTEE", "addr:country": "US", "addr:full": "1057 MANISTEE ST", "addr:postcode": "49660", "addr:state": "MI", "brand": "USPS", "brand:wikidata": "Q668687", "collection_times": "Mo-Sa 09:30", "name": "USPS COLLECTION BOX - BLUE BOX", "ref": "4966000036"}, "type": "Feature"}
{"geometry": {"coordinates": [-86.3246684, 44.24368], "type": "Point"}, "id": "NGiCpWInI1uFuL-AP0G84t_ObVc=", "properties": {"@spider": "usps_collection_boxes", "addr:city": "MANISTEE", "addr:country": "US", "addr:full": "415 3RD ST", "addr:postcode": "49660", "addr:state": "MI", "brand": "USPS", "brand:wikidata": "Q668687", "collection_times": "Mo-Sa 15:00", "name": "USPS COLLECTION BOX - BLUE BOX", "note": "ON 12/24 AND 12/31, THIS BOX MAY BE COLLECTED AS EARLY AS 12 NOON.", "ref": "4966000050"}, "type": "Feature"}
{"geometry": {"coordinates": [-86.3188938, 44.247171], "type": "Point"}, "id": "cS71dyWa_30lAWsJ9NL1FukOdac=", "properties": {"@spider": "usps_collection_boxes", "addr:city": "MANISTEE", "addr:country": "US", "addr:full": "35 FILER ST", "addr:postcode": "49660", "addr:state": "MI", "brand": "USPS", "brand:wikidata": "Q668687", "collection_times": "Mo-Fr 16:55; Sa 16:30", "name": "USPS COLLECTION BOX - PO LOBBY", "note": "ON 12/24 AND 12/31, THIS BOX MAY BE COLLECTED AS EARLY AS 12 NOON.", "ref": "4966000051"}, "type": "Feature"}
{"geometry": {"coordinates": [-86.3208412, 44.250201], "type": "Point"}, "id": "pqnWBaG846LZH2v9EQDkMSfzlwg=", "properties": {"@spider": "usps_collection_boxes", "addr:city": "MANISTEE", "addr:country": "US", "addr:full": "160 MEMORIAL DR", "addr:postcode": "49660", "addr:state": "MI", "brand": "USPS", "brand:wikidata": "Q668687", "collection_times": "Mo-Sa 09:30", "name": "USPS COLLECTION BOX - BLUE BOX", "ref": "4966000052"}, "type": "Feature"}
{"geometry": {"coordinates": [-86.3188755, 44.247105], "type": "Point"}, "id": "IhM5JGp0aeVpoPZtEqYEXID7ON4=", "properties": {"@spider": "usps_collection_boxes", "addr:city": "MANISTEE", "addr:country": "US", "addr:full": "35 FILER ST", "addr:postcode": "49660", "addr:state": "MI", "brand": "USPS", "brand:wikidata": "Q668687", "collection_times": "Mo-Fr 16:55; Sa 16:30", "name": "USPS COLLECTION BOX - BLUE BOX", "note": "ON 12/24 AND 12/31, THIS BOX MAY BE COLLECTED AS EARLY AS 12 NOON.", "ref": "4966000058"}, "type": "Feature"}
{"geometry": {"coordinates": [-86.318874965, 44.247529521], "type": "Point"}, "id": "mq0fjHdAvyzZ5OxxETvVFY8Tm4I=", "properties": {"@spider": "usps_collection_boxes", "addr:city": "MANISTEE", "addr:country": "US", "addr:full": "35 FILER ST", "addr:postcode": "49660", "addr:state": "MI", "brand": "USPS", "brand:wikidata": "Q668687", "collection_times": "Mo-Fr 16:00; Sa 11:00", "name": "USPS COLLECTION BOX - PO LOBBY", "note": "ON 12/24 AND 12/31, THIS BOX MAY BE COLLECTED AS EARLY AS 12 NOON.", "ref": "4966000061"}, "type": "Feature"}
{"geometry": {"coordinates": [-85.398634, 44.410845], "type": "Point"}, "id": "azF_RhTDxkQ6Sv4cy3FmhOF4Iqw=", "properties": {"@spider": "usps_collection_boxes", "addr:city": "MANTON", "addr:country": "US", "addr:full": "128 W MAIN ST", "addr:postcode": "49663", "addr:state": "MI", "brand": "USPS", "brand:wikidata": "Q668687", "collection_times": "Mo-Fr 16:30; Sa 11:00", "name": "USPS COLLECTION BOX - BLUE BOX", "note": "ON 12/24 AND 12/31, THIS BOX MAY BE COLLECTED AS EARLY AS 12 NOON.", "ref": "4966300001"}, "type": "Feature"}
{"geometry": {"coordinates": [-85.398634, 44.410845], "type": "Point"}, "id": "2Z5GT2xbgvblzEO6Rzz28YkdDAQ=", "properties": {"@spider": "usps_collection_boxes", "addr:city": "MANTON", "addr:country": "US", "addr:full": "128 W MAIN ST", "addr:postcode": "49663", "addr:state": "MI", "brand": "USPS", "brand:wikidata": "Q668687", "collection_times": "Mo-Fr 16:30; Sa 11:00", "name": "USPS COLLECTION BOX - PO LOBBY", "note": "ON 12/24 AND 12/31, THIS BOX MAY BE COLLECTED AS EARLY AS 12 NOON.", "ref": "4966300003"}, "type": "Feature"}
{"geometry": {"coordinates": [-85.3984576256, 44.410888872], "type": "Point"}, "id": "T_sfpKvQcNT6yq9mf5Nff8TFOME=", "properties": {"@spider": "usps_collection_boxes", "addr:city": "MANTON", "addr:country": "US", "addr:full": "128 W MAIN ST", "addr:postcode": "49663", "addr:state": "MI", "brand": "USPS", "brand:wikidata": "Q668687", "collection_times": "Mo-Fr 15:45; Sa 10:30", "name": "USPS COLLECTION BOX - PO LOBBY", "note": "ON 12/24 AND 12/31, THIS BOX MAY BE COLLECTED AS EARLY AS 12 NOON.", "ref": "4966300005"}, "type": "Feature"}
{"geometry": {"coordinates": [-85.855582, 44.854429], "type": "Point"}, "id": "Vi0K-SKArVzPKTF368BIByZacHw=", "properties": {"@spider": "usps_collection_boxes", "addr:city": "MAPLE CITY", "addr:country": "US", "addr:full": "8621 S MAPLE CITY RD", "addr:postcode": "49664", "addr:state": "MI", "brand": "USPS", "brand:wikidata": "Q668687", "collection_times": "Mo-Fr 15:30; Sa 10:30", "name": "USPS COLLECTION BOX - BLUE BOX", "note": "ON 12/24 AND 12/31, THIS BOX MAY BE COLLECTED AS EARLY AS 12 NOON.", "ref": "4966400001"}, "type": "Feature"}
{"geometry": {"coordinates": [-85.855582, 44.854429], "type": "Point"}, "id": "WdKJZ3UFOoFIA-fao9cUrXNjPtc=", "properties": {"@spider": "usps_collection_boxes", "addr:city": "MAPLE CITY", "addr:country": "US", "addr:full": "8621 S MAPLE CITY RD", "addr:postcode": "49664", "addr:state": "MI", "brand": "USPS", "brand:wikidata": "Q668687", "collection_times": "Mo-Fr 15:30; Sa 10:30", "name": "USPS COLLECTION BOX - PO LOBBY", "note": "ON 12/24 AND 12/31, THIS BOX MAY BE COLLECTED AS EARLY AS 12 NOON.", "ref": "4966400002"}, "type": "Feature"}
{"geometry": {"coordinates": [-85.855584789, 44.854424078], "type": "Point"}, "id": "8WToWRO8ckT147nwN8RCAGnOvTU=", "properties": {"@spider": "usps_collection_boxes", "addr:city": "MAPLE CITY", "addr:country": "US", "addr:full": "8621 S MAPLE CITY RD", "addr:postcode": "49664", "addr:state": "MI", "brand": "USPS", "brand:wikidata": "Q668687", "collection_times": "Mo-Fr 14:45; Sa 10:00", "name": "USPS COLLECTION BOX - PO LOBBY", "note": "ON 12/24 AND 12/31, THIS BOX MAY BE COLLECTED AS EARLY AS 12 NOON.", "ref": "4966400003"}, "type": "Feature"}
{"geometry": {"coordinates": [-85.144705, 44.102437], "type": "Point"}, "id": "tKPei6KsfaJrXxQ75SLs3yC587E=", "properties": {"@spider": "usps_collection_boxes", "addr:city": "MARION", "addr:country": "US", "addr:full": "216 E MAIN ST", "addr:postcode": "49665", "addr:state": "MI", "brand": "USPS", "brand:wikidata": "Q668687", "collection_times": "Mo-Fr 15:30; Sa 11:00", "name": "USPS COLLECTION BOX - BLUE BOX", "note": "ON 12/24 AND 12/31, THIS BOX MAY BE COLLECTED AS EARLY AS 12 NOON.", "ref": "4966500001"}, "type": "Feature"}
{"geometry": {"coordinates": [-85.1470953, 44.099083], "type": "Point"}, "id": "i-TI_dfRvmZbKWRhCzZx8V9eQLA=", "properties": {"@spider": "usps_collection_boxes", "addr:city": "MARION", "addr:country": "US", "addr:full": "401 S MILL ST", "addr:postcode": "49665", "addr:state": "MI", "brand": "USPS", "brand:wikidata": "Q668687", "collection_times": "Mo-Fr 12:00; Sa 11:00", "name": "USPS COLLECTION BOX - BLUE BOX", "ref": "4966500004"}, "type": "Feature"}
{"geometry": {"coordinates": [-85.144705, 44.102437], "type": "Point"}, "id": "mykAnHJT5_oLUXHv5lJITvXn5SM=", "properties": {"@spider": "usps_collection_boxes", "addr:city": "MARION", "addr:country": "US", "addr:full": "216 E MAIN ST", "addr:postcode": "49665", "addr:state": "MI", "brand": "USPS", "brand:wikidata": "Q668687", "collection_times": "Mo-Fr 16:00; Sa 11:00", "name": "USPS COLLECTION BOX - PO LOBBY", "note": "ON 12/24 AND 12/31, THIS BOX MAY BE COLLECTED AS EARLY AS 12 NOON.", "ref": "4966500005"}, "type": "Feature"}
{"geometry": {"coordinates": [-85.144739423, 44.102379304], "type": "Point"}, "id": "TsPm5DWuXQ3RK2UMb03jAOY75KY=", "properties": {"@spider": "usps_collection_boxes", "addr:city": "MARION", "addr:country": "US", "addr:full": "216 E MAIN ST", "addr:postcode": "49665", "addr:state": "MI", "brand": "USPS", "brand:wikidata": "Q668687", "collection_times": "Mo-Fr 15:30; Sa 10:30", "name": "USPS COLLECTION BOX - PO LOBBY", "note": "ON 12/24 AND 12/31, THIS BOX MAY BE COLLECTED AS EARLY AS 12 NOON.", "ref": "4966500006"}, "type": "Feature"}
{"geometry": {"coordinates": [-85.528597186, 44.626097831], "type": "Point"}, "id": "CDHRuUtP8lrOxwKRJc1Z0ymbCck=", "properties": {"@spider": "usps_collection_boxes", "addr:city": "MAYFIELD", "addr:country": "US", "addr:full": "4044 S GARFIELD RD", "addr:postcode": "49666", "addr:state": "MI", "brand": "USPS", "brand:wikidata": "Q668687", "collection_times": "Mo-Fr 16:45; Sa 09:45", "name": "USPS COLLECTION BOX - BLUE BOX", "note": "ON 12/24 AND 12/31, THIS BOX MAY BE COLLECTED AS EARLY AS 12 NOON.", "ref": "4966600001"}, "type": "Feature"}
{"geometry": {"coordinates": [-85.528597186, 44.626097831], "type": "Point"}, "id": "MqpOdZF3VPiAzRPiwqp1YrO39dI=", "properties": {"@spider": "usps_collection_boxes", "addr:city": "MAYFIELD", "addr:country": "US", "addr:full": "4044 S GARFIELD RD", "addr:postcode": "49666", "addr:state": "MI", "brand": "USPS", "brand:wikidata": "Q668687", "collection_times": "Mo-Fr 16:45; Sa 09:45", "name": "USPS COLLECTION BOX - PO LOBBY", "note": "ON 12/24 AND 12/31, THIS BOX MAY BE COLLECTED AS EARLY AS 12 NOON.", "ref": "4966600002"}, "type": "Feature"}
{"geometry": {"coordinates": [-85.518061988, 44.637464229], "type": "Point"}, "id": "9X2IlfA4oEQ1xQ8mnRqq3gkPBpY=", "properties": {"@spider": "usps_collection_boxes", "addr:city": "MAYFIELD", "addr:country": "US", "addr:full": "4044 S GARFIELD RD", "addr:postcode": "49666", "addr:state": "MI", "brand": "USPS", "brand:wikidata": "Q668687", "collection_times": "Mo-Fr 16:15; Sa 09:15", "name": "USPS COLLECTION BOX - PO LOBBY", "note": "ON 12/24 AND 12/31, THIS BOX MAY BE COLLECTED AS EARLY AS 12 NOON.", "ref": "4966600003"}, "type": "Feature"}
{"geometry": {"coordinates": [-84.94446, 44.331392], "type": "Point"}, "id": "ZeM-3H-ZHA1wajDulq03Rpw0yvo=", "properties": {"@spider": "usps_collection_boxes", "addr:city": "MERRITT", "addr:country": "US", "addr:full": "329 S MERRITT RD", "addr:postcode": "49667", "addr:state": "MI", "brand": "USPS", "brand:wikidata": "Q668687", "collection_times": "Mo-Fr 15:15; Sa 10:00", "name": "USPS COLLECTION BOX - BLUE BOX", "note": "ON 12/24 AND 12/31, THIS BOX MAY BE COLLECTED AS EARLY AS 12 NOON.", "ref": "4966700001"}, "type": "Feature"}
{"geometry": {"coordinates": [-84.94446, 44.331392], "type": "Point"}, "id": "f9yFTQtsaguukmyaV-dScOOymIc=", "properties": {"@spider": "usps_collection_boxes", "addr:city": "MERRITT", "addr:country": "US", "addr:full": "329 S MERRITT RD", "addr:postcode": "49667", "addr:state": "MI", "brand": "USPS", "brand:wikidata": "Q668687", "collection_times": "Mo-Fr 15:15; Sa 10:00", "name": "USPS COLLECTION BOX - PO LOBBY", "note": "ON 12/24 AND 12/31, THIS BOX MAY BE COLLECTED AS EARLY AS 12 NOON.", "ref": "4966700002"}, "type": "Feature"}
{"geometry": {"coordinates": [-84.9444521031, 44.3311841735], "type": "Point"}, "id": "c2JOnFNSKSIxPrgeo0ThXuomc4Q=", "properties": {"@spider": "usps_collection_boxes", "addr:city": "MERRITT", "addr:country": "US", "addr:full": "329 S MERRITT RD", "addr:postcode": "49667", "addr:state": "MI", "brand": "USPS", "brand:wikidata": "Q668687", "collection_times": "Mo-Fr 14:45; Sa 10:15", "name": "USPS COLLECTION BOX - PO LOBBY", "note": "ON 12/24 AND 12/31, THIS BOX MAY BE COLLECTED AS EARLY AS 12 NOON.", "ref": "4966700003"}, "type": "Feature"}
{"geometry": {"coordinates": [-85.721283, 44.405814], "type": "Point"}, "id": "oxeF5VR0wrF4kbzafAjEJqLMU5g=", "properties": {"@spider": "usps_collection_boxes", "addr:city": "MESICK", "addr:country": "US", "addr:full": "340 W MESICK AVE", "addr:postcode": "49668", "addr:state": "MI", "brand": "USPS", "brand:wikidata": "Q668687", "collection_times": "Mo-Fr 16:15; Sa 10:30", "name": "USPS COLLECTION BOX - BLUE BOX", "note": "ON 12/24 AND 12/31, THIS BOX MAY BE COLLECTED AS EARLY AS 12 NOON.", "ref": "4966800001"}, "type": "Feature"}
{"geometry": {"coordinates": [-85.721283, 44.405814], "type": "Point"}, "id": "WgPC1aa0d_euYqCPcLRHttqAuwo=", "properties": {"@spider": "usps_collection_boxes", "addr:city": "MESICK", "addr:country": "US", "addr:full": "340 W MESICK AVE", "addr:postcode": "49668", "addr:state": "MI", "brand": "USPS", "brand:wikidata": "Q668687", "collection_times": "Mo-Fr 16:15; Sa 10:30", "name": "USPS COLLECTION BOX - PO LOBBY", "note": "ON 12/24 AND 12/31, THIS BOX MAY BE COLLECTED AS EARLY AS 12 NOON.", "ref": "4966800002"}, "type": "Feature"}
{"geometry": {"coordinates": [-85.721283, 44.405814], "type": "Point"}, "id": "eLZEcbw1n68jF_hzsavPFU31wA4=", "properties": {"@spider": "usps_collection_boxes", "addr:city": "MESICK", "addr:country": "US", "addr:full": "340 W MESICK AVE", "addr:postcode": "49668", "addr:state": "MI", "brand": "USPS", "brand:wikidata": "Q668687", "collection_times": "Mo-Fr 16:15; Sa 10:30", "name": "USPS COLLECTION BOX - BLUE BOX", "note": "ON 12/24 AND 12/31, THIS BOX MAY BE COLLECTED AS EARLY AS 12 NOON.", "ref": "4966800004"}, "type": "Feature"}
{"geometry": {"coordinates": [-85.718052115, 44.40582593], "type": "Point"}, "id": "vWDIteudLQ46ntrGz9jHZanKYwU=", "properties": {"@spider": "usps_collection_boxes", "addr:city": "MESICK", "addr:country": "US", "addr:full": "340 W MESICK AVE", "addr:postcode": "49668", "addr:state": "MI", "brand": "USPS", "brand:wikidata": "Q668687", "collection_times": "Mo-Fr 15:30; Sa 09:30", "name": "USPS COLLECTION BOX - PO LOBBY", "note": "ON 12/24 AND 12/31, THIS BOX MAY BE COLLECTED AS EARLY AS 12 NOON.", "ref": "4966800005"}, "type": "Feature"}
{"geometry": {"coordinates": [-85.614803528, 45.129765519], "type": "Point"}, "id": "502uZ5j4tpRmj2YuS8lItw6IfSs=", "properties": {"@spider": "usps_collection_boxes", "addr:city": "NORTHPORT", "addr:country": "US", "addr:full": "117 E NAGONABA ST", "addr:postcode": "49670", "addr:state": "MI", "brand": "USPS", "brand:wikidata": "Q668687", "collection_times": "Mo-Fr 16:00; Sa 11:30", "name": "USPS COLLECTION BOX - BLUE BOX", "note": "ON 12/24 AND 12/31, THIS BOX MAY BE COLLECTED AS EARLY AS 12 NOON.", "ref": "4967000001"}, "type": "Feature"}
{"geometry": {"coordinates": [-85.614801, 45.129765], "type": "Point"}, "id": "q5Pl1Eght5Z4qkOsU1bNE6g9TuU=", "properties": {"@spider": "usps_collection_boxes", "addr:city": "NORTHPORT", "addr:country": "US", "addr:full": "117 E NAGONABA ST", "addr:postcode": "49670", "addr:state": "MI", "brand": "USPS", "brand:wikidata": "Q668687", "collection_times": "Mo-Fr 16:15; Sa 11:30", "name": "USPS COLLECTION BOX - PO LOBBY", "note": "ON 12/24 AND 12/31, THIS BOX MAY BE COLLECTED AS EARLY AS 12 NOON.", "ref": "4967000002"}, "type": "Feature"}
{"geometry": {"coordinates": [-85.614803528, 45.129765519], "type": "Point"}, "id": "uOV0llfZS-2WbJi3xPnULeixFYo=", "properties": {"@spider": "usps_collection_boxes", "addr:city": "NORTHPORT", "addr:country": "US", "addr:full": "117 E NAGONABA ST", "addr:postcode": "49670", "addr:state": "MI", "brand": "USPS", "brand:wikidata": "Q668687", "collection_times": "Mo-Fr 15:30; Sa 10:30", "name": "USPS COLLECTION BOX - PO LOBBY", "note": "ON 12/24 AND 12/31, THIS BOX MAY BE COLLECTED AS EARLY AS 12 NOON.", "ref": "4967000003"}, "type": "Feature"}
{"geometry": {"coordinates": [-85.485199272, 44.962197042], "type": "Point"}, "id": "yn7Voqz3KEckrqBpsMN8jVkVwEA=", "properties": {"@spider": "usps_collection_boxes", "addr:city": "OLD MISSION", "addr:country": "US", "addr:full": "4007 SWANEY RD", "addr:postcode": "49673", "addr:state": "MI", "brand": "USPS", "brand:wikidata": "Q668687", "collection_times": "Mo-Fr 10:30; Sa 11:00", "name": "USPS COLLECTION BOX - BLUE BOX", "ref": "4967300001"}, "type": "Feature"}
{"geometry": {"coordinates": [-85.485199272, 44.962197042], "type": "Point"}, "id": "_dZD7Np5KcKqtXtDkByQW157yuE=", "properties": {"@spider": "usps_collection_boxes", "addr:city": "OLD MISSION", "addr:country": "US", "addr:full": "4007 SWANEY RD", "addr:postcode": "49673", "addr:state": "MI", "brand": "USPS", "brand:wikidata": "Q668687", "collection_times": "Mo-Fr 10:30; Sa 11:00", "name": "USPS COLLECTION BOX - PO LOBBY", "ref": "4967300002"}, "type": "Feature"}
{"geometry": {"coordinates": [-85.486601666, 44.961267475], "type": "Point"}, "id": "xoaWz58H5UfNlgS4A-FPWkq50vc=", "properties": {"@spider": "usps_collection_boxes", "addr:city": "OLD MISSION", "addr:country": "US", "addr:full": "4007 SWANEY RD", "addr:postcode": "49673", "addr:state": "MI", "brand": "USPS", "brand:wikidata": "Q668687", "collection_times": "Mo-Fr 10:00; Sa 10:30", "name": "USPS COLLECTION BOX - PO LOBBY", "ref": "4967300003"}, "type": "Feature"}
{"geometry": {"coordinates": [-85.587175, 45.055992], "type": "Point"}, "id": "WpM3sZMY87tBBY2Yg6IhPAUXCYU=", "properties": {"@spider": "usps_collection_boxes", "addr:city": "OMENA", "addr:country": "US", "addr:full": "5059 N WEST BAYSHORE DR", "addr:postcode": "49674", "addr:state": "MI", "brand": "USPS", "brand:wikidata": "Q668687", "collection_times": "Mo-Fr 15:45; Sa 10:15", "name": "USPS COLLECTION BOX - BLUE BOX", "note": "ON 12/24 AND 12/31, THIS BOX MAY BE COLLECTED AS EARLY AS 12 NOON.", "ref": "4967400001"}, "type": "Feature"}
{"geometry": {"coordinates": [-85.587175, 45.055992], "type": "Point"}, "id": "6npPgJDJnEVZGsQ5p2fttyWfSdE=", "properties": {"@spider": "usps_collection_boxes", "addr:city": "OMENA", "addr:country": "US", "addr:full": "5059 N WEST BAYSHORE DR", "addr:postcode": "49674", "addr:state": "MI", "brand": "USPS", "brand:wikidata": "Q668687", "collection_times": "Mo-Fr 16:00; Sa 10:15", "name": "USPS COLLECTION BOX - PO LOBBY", "note": "ON 12/24 AND 12/31, THIS BOX MAY BE COLLECTED AS EARLY AS 12 NOON.", "ref": "4967400002"}, "type": "Feature"}
{"geometry": {"coordinates": [-85.587215011, 45.055976737], "type": "Point"}, "id": "zgF0cb3JrISV_HUBMqDgPIPRSXU=", "properties": {"@spider": "usps_collection_boxes", "addr:city": "OMENA", "addr:country": "US", "addr:full": "5059 N WEST BAYSHORE DR", "addr:postcode": "49674", "addr:state": "MI", "brand": "USPS", "brand:wikidata": "Q668687", "collection_times": "Mo-Fr 15:30", "name": "USPS COLLECTION BOX - PO LOBBY", "note": "ON 12/24 AND 12/31, THIS BOX MAY BE COLLECTED AS EARLY AS 12 NOON.", "ref": "4967400003"}, "type": "Feature"}
{"geometry": {"coordinates": [-86.204922, 44.364719], "type": "Point"}, "id": "_iwb7H2psVk5DzHeRRM2yoSNTuE=", "properties": {"@spider": "usps_collection_boxes", "addr:city": "ONEKAMA", "addr:country": "US", "addr:full": "8311 MILL ST", "addr:postcode": "49675", "addr:state": "MI", "brand": "USPS", "brand:wikidata": "Q668687", "collection_times": "Mo-Fr 15:25; Sa 11:00", "name": "USPS COLLECTION BOX - BLUE BOX", "note": "ON 12/24 AND 12/31, THIS BOX MAY BE COLLECTED AS EARLY AS 12 NOON.", "ref": "4967500001"}, "type": "Feature"}
{"geometry": {"coordinates": [-86.204922, 44.364719], "type": "Point"}, "id": "_O0WEnpz7y50gA5Ms2WleGB2F1Y=", "properties": {"@spider": "usps_collection_boxes", "addr:city": "ONEKAMA", "addr:country": "US", "addr:full": "8311 MILL ST", "addr:postcode": "49675", "addr:state": "MI", "brand": "USPS", "brand:wikidata": "Q668687", "collection_times": "Mo-Fr 15:25; Sa 11:00", "name": "USPS COLLECTION BOX - PO LOBBY", "note": "ON 12/24 AND 12/31, THIS BOX MAY BE COLLECTED AS EARLY AS 12 NOON.", "ref": "4967500002"}, "type": "Feature"}
{"geometry": {"coordinates": [-86.204925599, 44.364716665], "type": "Point"}, "id": "GSCvpST5376ahzqUH4-A7S4HIOo=", "properties": {"@spider": "usps_collection_boxes", "addr:city": "ONEKAMA", "addr:country": "US", "addr:full": "8311 MILL ST", "addr:postcode": "49675", "addr:state": "MI", "brand": "USPS", "brand:wikidata": "Q668687", "collection_times": "Mo-Fr 15:15; Sa 10:30", "name": "USPS COLLECTION BOX - PO LOBBY", "note": "ON 12/24 AND 12/31, THIS BOX MAY BE COLLECTED AS EARLY AS 12 NOON.", "ref": "4967500004"}, "type": "Feature"}
{"geometry": {"coordinates": [-85.282702, 44.835123], "type": "Point"}, "id": "h-vjuvTSPmAYawEVQYClzI30bHU=", "properties": {"@spider": "usps_collection_boxes", "addr:city": "RAPID CITY", "addr:country": "US", "addr:full": "8310 RAPID CITY RD NW", "addr:postcode": "49676", "addr:state": "MI", "brand": "USPS", "brand:wikidata": "Q668687", "collection_times": "Mo-Fr 16:20; Sa 11:00", "name": "USPS COLLECTION BOX - BLUE BOX", "note": "ON 12/24 AND 12/31, THIS BOX MAY BE COLLECTED AS EARLY AS 12 NOON.", "ref": "4967600001"}, "type": "Feature"}
{"geometry": {"coordinates": [-85.282739, 44.835192], "type": "Point"}, "id": "f9KxGsFgujSc4RxH1LBlrxcdD9s=", "properties": {"@spider": "usps_collection_boxes", "addr:city": "RAPID CITY", "addr:country": "US", "addr:full": "8310 RAPID CITY RD NW", "addr:postcode": "49676", "addr:state": "MI", "brand": "USPS", "brand:wikidata": "Q668687", "collection_times": "Mo-Fr 16:20; Sa 10:30", "name": "USPS COLLECTION BOX - PO LOBBY", "note": "ON 12/24 AND 12/31, THIS BOX MAY BE COLLECTED AS EARLY AS 12 NOON.", "ref": "4967600002"}, "type": "Feature"}
{"geometry": {"coordinates": [-85.282703289, 44.835119665], "type": "Point"}, "id": "8KUxaHnL4yc8XtActJOzR79OhRU=", "properties": {"@spider": "usps_collection_boxes", "addr:city": "RAPID CITY", "addr:country": "US", "addr:full": "8310 RAPID CITY RD NW", "addr:postcode": "49676", "addr:state": "MI", "brand": "USPS", "brand:wikidata": "Q668687", "collection_times": "Mo-Fr 16:00; Sa 10:00", "name": "USPS COLLECTION BOX - PO LOBBY", "note": "ON 12/24 AND 12/31, THIS BOX MAY BE COLLECTED AS EARLY AS 12 NOON.", "ref": "4967600003"}, "type": "Feature"}
{"geometry": {"coordinates": [-85.51304, 43.87602], "type": "Point"}, "id": "QQ52o1jxIaURXbeYdt9GM5pQGfA=", "properties": {"@spider": "usps_collection_boxes", "addr:city": "REED CITY", "addr:country": "US", "addr:full": "232 W UPTON AVE", "addr:postcode": "49677", "addr:state": "MI", "brand": "USPS", "brand:wikidata": "Q668687", "collection_times": "Mo-Fr 16:15; Sa 12:00", "name": "USPS COLLECTION BOX - BLUE BOX", "note": "ON 12/24 AND 12/31, THIS BOX MAY BE COLLECTED AS EARLY AS 12 NOON.", "ref": "4967700004"}, "type": "Feature"}
{"geometry": {"coordinates": [-85.5096493, 43.868809], "type": "Point"}, "id": "wt3OPjc9R_PkWBXePsJrwWf2FDo=", "properties": {"@spider": "usps_collection_boxes", "addr:city": "REED CITY", "addr:country": "US", "addr:full": "716 S CHESTNUT ST", "addr:postcode": "49677", "addr:state": "MI", "brand": "USPS", "brand:wikidata": "Q668687", "collection_times": "Mo-Fr 12:45; Sa 12:00", "name": "USPS COLLECTION BOX - BLUE BOX", "note": "ON 12/24 AND 12/31, THIS BOX MAY BE COLLECTED AS EARLY AS 12 NOON.", "ref": "4967700007"}, "type": "Feature"}
{"geometry": {"coordinates": [-85.503208, 43.972832], "type": "Point"}, "id": "QK-0hWUjS5doLshraJOM-l7DEZI=", "properties": {"@spider": "usps_collection_boxes", "addr:city": "REED CITY", "addr:country": "US", "addr:full": "10989 210TH AVE", "addr:postcode": "49677", "addr:state": "MI", "brand": "USPS", "brand:wikidata": "Q668687", "collection_times": "Mo-Sa 09:00", "name": "USPS COLLECTION BOX - BLUE BOX", "ref": "4967700009"}, "type": "Feature"}
{"geometry": {"coordinates": [-85.5100505, 43.875762], "type": "Point"}, "id": "hlivXSemcdwL_c076VPfbKEgxOs=", "properties": {"@spider": "usps_collection_boxes", "addr:city": "REED CITY", "addr:country": "US", "addr:full": "103 W UPTON AVE", "addr:postcode": "49677", "addr:state": "MI", "brand": "USPS", "brand:wikidata": "Q668687", "collection_times": "Mo-Fr 14:00; Sa 12:00", "name": "USPS COLLECTION BOX - BLUE BOX", "note": "ON 12/24 AND 12/31, THIS BOX MAY BE COLLECTED AS EARLY AS 12 NOON.", "ref": "4967700012"}, "type": "Feature"}
{"geometry": {"coordinates": [-85.512545, 43.875959], "type": "Point"}, "id": "c1xwjC969rHEXB1wMM-2eHWi3FA=", "properties": {"@spider": "usps_collection_boxes", "addr:city": "REED CITY", "addr:country": "US", "addr:full": "232 W UPTON AVE", "addr:postcode": "49677", "addr:state": "MI", "brand": "USPS", "brand:wikidata": "Q668687", "collection_times": "Mo-Fr 16:15; Sa 11:00", "name": "USPS COLLECTION BOX - PO LOBBY", "note": "ON 12/24 AND 12/31, THIS BOX MAY BE COLLECTED AS EARLY AS 12 NOON.", "ref": "4967700014"}, "type": "Feature"}
{"geometry": {"coordinates": [-85.512576824, 43.876030357], "type": "Point"}, "id": "TKitaQhjE4FEefrpLsd8jpEDPSs=", "properties": {"@spider": "usps_collection_boxes", "addr:city": "REED CITY", "addr:country": "US", "addr:full": "232 W UPTON AVE", "addr:postcode": "49677", "addr:state": "MI", "brand": "USPS", "brand:wikidata": "Q668687", "collection_times": "Mo-Fr 15:45; Sa 10:30", "name": "USPS COLLECTION BOX - PO LOBBY", "note": "ON 12/24 AND 12/31, THIS BOX MAY BE COLLECTED AS EARLY AS 12 NOON.", "ref": "4967700017"}, "type": "Feature"}
{"geometry": {"coordinates": [-85.187546, 43.896956], "type": "Point"}, "id": "gld-Do6Z4givLaqJdItT73AreC8=", "properties": {"@spider": "usps_collection_boxes", "addr:city": "SEARS", "addr:country": "US", "addr:full": "5843 50TH AVE", "addr:postcode": "49679", "addr:state": "MI", "brand": "USPS", "brand:wikidata": "Q668687", "collection_times": "Mo-Fr 14:15; Sa 12:30", "name": "USPS COLLECTION BOX - BLUE BOX", "note": "ON 12/24 AND 12/31, THIS BOX MAY BE COLLECTED AS EARLY AS 12 NOON.", "ref": "4967900001"}, "type": "Feature"}
{"geometry": {"coordinates": [-85.187546, 43.896956], "type": "Point"}, "id": "uuCcDOnjIKroPmjPH_-JZbtn890=", "properties": {"@spider": "usps_collection_boxes", "addr:city": "SEARS", "addr:country": "US", "addr:full": "5843 50TH AVE", "addr:postcode": "49679", "addr:state": "MI", "brand": "USPS", "brand:wikidata": "Q668687", "collection_times": "Mo-Fr 14:15; Sa 12:30", "name": "USPS COLLECTION BOX - PO LOBBY", "note": "ON 12/24 AND 12/31, THIS BOX MAY BE COLLECTED AS EARLY AS 12 NOON.", "ref": "4967900002"}, "type": "Feature"}
{"geometry": {"coordinates": [-85.1875761275, 43.8969749011], "type": "Point"}, "id": "2iJzouibAjESIElOwtO1VIEGXC4=", "properties": {"@spider": "usps_collection_boxes", "addr:city": "SEARS", "addr:country": "US", "addr:full": "5843 50TH AVE", "addr:postcode": "49679", "addr:state": "MI", "brand": "USPS", "brand:wikidata": "Q668687", "collection_times": "Mo-Fr 13:45", "name": "USPS COLLECTION BOX - PO LOBBY", "note": "ON 12/24 AND 12/31, THIS BOX MAY BE COLLECTED AS EARLY AS 12 NOON.", "ref": "4967900003"}, "type": "Feature"}
{"geometry": {"coordinates": [-85.27942, 44.641326], "type": "Point"}, "id": "oYVZ69vuP3ohI--yKplxf5--rj4=", "properties": {"@spider": "usps_collection_boxes", "addr:city": "SOUTH BOARDMAN", "addr:country": "US", "addr:full": "5408 BOARDMAN RD SW", "addr:postcode": "49680", "addr:state": "MI", "brand": "USPS", "brand:wikidata": "Q668687", "collection_times": "Mo-Fr 13:00; Sa 09:30", "name": "USPS COLLECTION BOX - BLUE BOX", "note": "ON 12/24 AND 12/31, THIS BOX MAY BE COLLECTED AS EARLY AS 12 NOON.", "ref": "4968000001"}, "type": "Feature"}
{"geometry": {"coordinates": [-85.27942, 44.641326], "type": "Point"}, "id": "b7uzyIPw-ggW0ftaoZXzf4MomzQ=", "properties": {"@spider": "usps_collection_boxes", "addr:city": "SOUTH BOARDMAN", "addr:country": "US", "addr:full": "5408 BOARDMAN RD SW", "addr:postcode": "49680", "addr:state": "MI", "brand": "USPS", "brand:wikidata": "Q668687", "collection_times": "Mo-Fr 13:00; Sa 09:30", "name": "USPS COLLECTION BOX - PO LOBBY", "note": "ON 12/24 AND 12/31, THIS BOX MAY BE COLLECTED AS EARLY AS 12 NOON.", "ref": "4968000002"}, "type": "Feature"}
{"geometry": {"coordinates": [-85.279423369, 44.641327472], "type": "Point"}, "id": "WvkHhGSZvZ8aIht1qYsoAoR3z-o=", "properties": {"@spider": "usps_collection_boxes", "addr:city": "SOUTH BOARDMAN", "addr:country": "US", "addr:full": "5408 BOARDMAN RD SW", "addr:postcode": "49680", "addr:state": "MI", "brand": "USPS", "brand:wikidata": "Q668687", "collection_times": "Mo-Fr 12:30", "name": "USPS COLLECTION BOX - PO LOBBY", "note": "ON 12/24 AND 12/31, THIS BOX MAY BE COLLECTED AS EARLY AS 12 NOON.", "ref": "4968000003"}, "type": "Feature"}
{"geometry": {"coordinates": [-85.651348, 44.974519], "type": "Point"}, "id": "dsGdV1lAyZIQ6cFFj1d7PQO-xu8=", "properties": {"@spider": "usps_collection_boxes", "addr:city": "SUTTONS BAY", "addr:country": "US", "addr:full": "106 W BROADWAY", "addr:postcode": "49682", "addr:state": "MI", "brand": "USPS", "brand:wikidata": "Q668687", "collection_times": "Mo-Fr 16:00; Sa 11:00", "name": "USPS COLLECTION BOX - BLUE BOX", "note": "ON 12/24 AND 12/31, THIS BOX MAY BE COLLECTED AS EARLY AS 12 NOON.", "ref": "4968200001"}, "type": "Feature"}
{"geometry": {"coordinates": [-85.651348, 44.974519], "type": "Point"}, "id": "ahqRZZexfQuiZuAPjOtBujsd0_Q=", "properties": {"@spider": "usps_collection_boxes", "addr:city": "SUTTONS BAY", "addr:country": "US", "addr:full": "106 W BROADWAY", "addr:postcode": "49682", "addr:state": "MI", "brand": "USPS", "brand:wikidata": "Q668687", "collection_times": "Mo-Fr 16:00; Sa 11:00", "name": "USPS COLLECTION BOX - PO LOBBY", "note": "ON 12/24 AND 12/31, THIS BOX MAY BE COLLECTED AS EARLY AS 12 NOON.", "ref": "4968200003"}, "type": "Feature"}
{"geometry": {"coordinates": [-85.6894714, 44.995199], "type": "Point"}, "id": "LfzibpNk0FiR4EEg6Bwx-6u5TiQ=", "properties": {"@spider": "usps_collection_boxes", "addr:city": "SUTTONS BAY", "addr:country": "US", "addr:full": "8527 E GOVERNMENT CENTER DR", "addr:postcode": "49682", "addr:state": "MI", "brand": "USPS", "brand:wikidata": "Q668687", "collection_times": "Mo-Fr 10:00", "name": "USPS COLLECTION BOX - BLUE BOX", "ref": "4968200004"}, "type": "Feature"}
{"geometry": {"coordinates": [-85.651309482, 44.974564632], "type": "Point"}, "id": "6r5bDC6bXvjKhkOr8GJY4_Q_eMU=", "properties": {"@spider": "usps_collection_boxes", "addr:city": "SUTTONS BAY", "addr:country": "US", "addr:full": "106 W BROADWAY", "addr:postcode": "49682", "addr:state": "MI", "brand": "USPS", "brand:wikidata": "Q668687", "collection_times": "Mo-Fr 15:30; Sa 10:30", "name": "USPS COLLECTION BOX - PO LOBBY", "note": "ON 12/24 AND 12/31, THIS BOX MAY BE COLLECTED AS EARLY AS 12 NOON.", "ref": "4968200005"}, "type": "Feature"}
{"geometry": {"coordinates": [-85.942311, 44.519432], "type": "Point"}, "id": "CHbjAhbGALAfmgGOtbmQQCIzr_Q=", "properties": {"@spider": "usps_collection_boxes", "addr:city": "THOMPSONVILLE", "addr:country": "US", "addr:full": "14799 THOMPSON AVE", "addr:postcode": "49683", "addr:state": "MI", "brand": "USPS", "brand:wikidata": "Q668687", "collection_times": "Mo-Fr 15:45; Sa 10:30", "name": "USPS COLLECTION BOX - BLUE BOX", "note": "ON 12/24 AND 12/31, THIS BOX MAY BE COLLECTED AS EARLY AS 12 NOON.", "ref": "4968300001"}, "type": "Feature"}
{"geometry": {"coordinates": [-85.942311, 44.519432], "type": "Point"}, "id": "7t51qf1t37CuTNNG5td7vMqaMaI=", "properties": {"@spider": "usps_collection_boxes", "addr:city": "THOMPSONVILLE", "addr:country": "US", "addr:full": "14799 THOMPSON AVE", "addr:postcode": "49683", "addr:state": "MI", "brand": "USPS", "brand:wikidata": "Q668687", "collection_times": "Mo-Fr 15:45; Sa 10:30", "name": "USPS COLLECTION BOX - PO LOBBY", "note": "ON 12/24 AND 12/31, THIS BOX MAY BE COLLECTED AS EARLY AS 12 NOON.", "ref": "4968300002"}, "type": "Feature"}
{"geometry": {"coordinates": [-85.942312172, 44.519429496], "type": "Point"}, "id": "iA6t9KKwppp6l5PZK1vWsmneMpw=", "properties": {"@spider": "usps_collection_boxes", "addr:city": "THOMPSONVILLE", "addr:country": "US", "addr:full": "14799 THOMPSON AVE", "addr:postcode": "49683", "addr:state": "MI", "brand": "USPS", "brand:wikidata": "Q668687", "collection_times": "Mo-Fr 15:30; Sa 10:00", "name": "USPS COLLECTION BOX - PO LOBBY", "note": "ON 12/24 AND 12/31, THIS BOX MAY BE COLLECTED AS EARLY AS 12 NOON.", "ref": "4968300003"}, "type": "Feature"}
{"geometry": {"coordinates": [-85.6442265, 44.761446], "type": "Point"}, "id": "-KRvKKl_m9h59zFE3o43sprQufw=", "properties": {"@spider": "usps_collection_boxes", "addr:city": "TRAVERSE CITY", "addr:country": "US", "addr:full": "1221 SIXTH ST", "addr:postcode": "49684", "addr:state": "MI", "brand": "USPS", "brand:wikidata": "Q668687", "collection_times": "Mo-Fr 15:00; Sa 10:00", "name": "USPS COLLECTION BOX - BLUE BOX", "note": "ON 12/24 AND 12/31, THIS BOX MAY BE COLLECTED AS EARLY AS 12 NOON.", "ref": "4968400006"}, "type": "Feature"}
{"geometry": {"coordinates": [-85.6244072, 44.76048], "type": "Point"}, "id": "rxcbJXys9vg6VUuOx_crDYaWXL4=", "properties": {"@spider": "usps_collection_boxes", "addr:city": "TRAVERSE CITY", "addr:country": "US", "addr:full": "125 W SEVENTH ST", "addr:postcode": "49684", "addr:state": "MI", "brand": "USPS", "brand:wikidata": "Q668687", "collection_times": "Mo-Sa 15:00", "name": "USPS COLLECTION BOX - BLUE BOX", "note": "ON 12/24 AND 12/31, THIS BOX MAY BE COLLECTED AS EARLY AS 12 NOON.", "ref": "4968400008"}, "type": "Feature"}
{"geometry": {"coordinates": [-85.6236733, 44.758226], "type": "Point"}, "id": "yq7Nqdm6zQ_J058KyAY1ISJ3jkw=", "properties": {"@spider": "usps_collection_boxes", "addr:city": "TRAVERSE CITY", "addr:country": "US", "addr:full": "531 S UNION ST", "addr:postcode": "49684", "addr:state": "MI", "brand": "USPS", "brand:wikidata": "Q668687", "collection_times": "Mo-Fr 13:00; Sa 10:00", "name": "USPS COLLECTION BOX - BLUE BOX", "note": "ON 12/24 AND 12/31, THIS BOX MAY BE COLLECTED AS EARLY AS 12 NOON.", "ref": "4968400013"}, "type": "Feature"}
{"geometry": {"coordinates": [-85.6417999, 44.722426], "type": "Point"}, "id": "V9b02sZtlGLu9MKVlza40j-s_wk=", "properties": {"@spider": "usps_collection_boxes", "addr:city": "TRAVERSE CITY", "addr:country": "US", "addr:full": "3323 S AIRPORT RD W", "addr:postcode": "49684", "addr:state": "MI", "brand": "USPS", "brand:wikidata": "Q668687", "collection_times": "Mo-Fr 15:00; Sa 09:00", "name": "USPS COLLECTION BOX - BLUE BOX", "note": "ON 12/24 AND 12/31, THIS BOX MAY BE COLLECTED AS EARLY AS 12 NOON.", "ref": "4968400017"}, "type": "Feature"}
{"geometry": {"coordinates": [-85.6397315887, 44.7720452989], "type": "Point"}, "id": "JF4zQcAV9vDAE6hIdSFxggJn9p4=", "properties": {"@spider": "usps_collection_boxes", "addr:city": "TRAVERSE CITY", "addr:country": "US", "addr:full": "1001 BAY ST", "addr:postcode": "49684", "addr:state": "MI", "brand": "USPS", "brand:wikidata": "Q668687", "collection_times": "Mo-Sa 15:00", "name": "USPS COLLECTION BOX - BLUE BOX", "note": "ON 12/24 AND 12/31, THIS BOX MAY BE COLLECTED AS EARLY AS 12 NOON.", "ref": "4968400021"}, "type": "Feature"}
{"geometry": {"coordinates": [-85.6342128, 44.76741], "type": "Point"}, "id": "ru6WZnrGb6qz2rbm22go0Oxu-Ds=", "properties": {"@spider": "usps_collection_boxes", "addr:city": "TRAVERSE CITY", "addr:country": "US", "addr:full": "537 BAY ST", "addr:postcode": "49684", "addr:state": "MI", "brand": "USPS", "brand:wikidata": "Q668687", "collection_times": "Mo-Sa 10:00", "name": "USPS COLLECTION BOX - BLUE BOX", "ref": "4968400022"}, "type": "Feature"}
{"geometry": {"coordinates": [-85.6159539, 44.763583], "type": "Point"}, "id": "GAD-a6999aZUCBymnHEnonXIAug=", "properties": {"@spider": "usps_collection_boxes", "addr:city": "TRAVERSE CITY", "addr:country": "US", "addr:full": "120 BOARDMAN AVE", "addr:postcode": "49684", "addr:state": "MI", "brand": "USPS", "brand:wikidata": "Q668687", "collection_times": "Mo-Sa 15:00", "name": "USPS COLLECTION BOX - BLUE BOX", "note": "ON 12/24 AND 12/31, THIS BOX MAY BE COLLECTED AS EARLY AS 12 NOON.", "ref": "4968400023"}, "type": "Feature"}
{"geometry": {"coordinates": [-85.6158806856, 44.760276], "type": "Point"}, "id": "Lix5fljkaAdCPvisADHVvDM55LA=", "properties": {"@spider": "usps_collection_boxes", "addr:city": "TRAVERSE CITY", "addr:country": "US", "addr:full": "400 BOARDMAN AVE", "addr:postcode": "49684", "addr:state": "MI", "brand": "USPS", "brand:wikidata": "Q668687", "collection_times": "Mo-Fr 17:00; Sa 10:00", "name": "USPS COLLECTION BOX - BLUE BOX", "note": "ON 12/24 AND 12/31, THIS BOX MAY BE COLLECTED AS EARLY AS 12 NOON.", "ref": "4968400026"}, "type": "Feature"}
{"geometry": {"coordinates": [-85.6332239, 44.751089], "type": "Point"}, "id": "83_PSiU-Qd1TioIDWs9iKEkW0tM=", "properties": {"@spider": "usps_collection_boxes", "addr:city": "TRAVERSE CITY", "addr:country": "US", "addr:full": "1201 S DIVISION ST", "addr:postcode": "49684", "addr:state": "MI", "brand": "USPS", "brand:wikidata": "Q668687", "collection_times": "Mo-Sa 13:00", "name": "USPS COLLECTION BOX - BLUE BOX", "note": "ON 12/24 AND 12/31, THIS BOX MAY BE COLLECTED AS EARLY AS 12 NOON.", "ref": "4968400027"}, "type": "Feature"}
{"geometry": {"coordinates": [-85.6394438, 44.756618], "type": "Point"}, "id": "ol-Ehv_Luz7d1CR42nKVjdIFsQQ=", "properties": {"@spider": "usps_collection_boxes", "addr:city": "TRAVERSE CITY", "addr:country": "US", "addr:full": "701 S ELMWOOD AVE", "addr:postcode": "49684", "addr:state": "MI", "brand": "USPS", "brand:wikidata": "Q668687", "collection_times": "Mo-Fr 15:00; Sa 10:00", "name": "USPS COLLECTION BOX - BLUE BOX", "note": "ON 12/24 AND 12/31, THIS BOX MAY BE COLLECTED AS EARLY AS 12 NOON.", "ref": "4968400028"}, "type": "Feature"}
{"geometry": {"coordinates": [-85.6209974, 44.764173], "type": "Point"}, "id": "fQ2lGdxoeQPlub38wNGy2ka_C18=", "properties": {"@spider": "usps_collection_boxes", "addr:city": "TRAVERSE CITY", "addr:country": "US", "addr:full": "201 E FRONT ST", "addr:postcode": "49684", "addr:state": "MI", "brand": "USPS", "brand:wikidata": "Q668687", "collection_times": "Mo-Fr 15:00; Sa 10:00", "name": "USPS COLLECTION BOX - BLUE BOX", "note": "ON 12/24 AND 12/31, THIS BOX MAY BE COLLECTED AS EARLY AS 12 NOON.", "ref": "4968400029"}, "type": "Feature"}
{"geometry": {"coordinates": [-85.6181423516, 44.7643268382], "type": "Point"}, "id": "aEZtIFRb5Q-wxzfxBwDWDVWUxBI=", "properties": {"@spider": "usps_collection_boxes", "addr:city": "TRAVERSE CITY", "addr:country": "US", "addr:full": "100 PARK ST", "addr:postcode": "49684", "addr:state": "MI", "brand": "USPS", "brand:wikidata": "Q668687", "collection_times": "Mo-Sa 15:00", "name": "USPS COLLECTION BOX - BLUE BOX", "note": "ON 12/24 AND 12/31, THIS BOX MAY BE COLLECTED AS EARLY AS 12 NOON.", "ref": "4968400031"}, "type": "Feature"}
{"geometry": {"coordinates": [-85.6320139, 44.753354], "type": "Point"}, "id": "D3dSO11B0eGLDWJzfJzESkF6q_c=", "properties": {"@spider": "usps_collection_boxes", "addr:city": "TRAVERSE CITY", "addr:country": "US", "addr:full": "1003 S MAPLE ST", "addr:postcode": "49684", "addr:state": "MI", "brand": "USPS", "brand:wikidata": "Q668687", "collection_times": "Mo-Sa 10:00", "name": "USPS COLLECTION BOX - BLUE BOX", "ref": "4968400040"}, "type": "Feature"}
{"geometry": {"coordinates": [-85.649571, 44.731247], "type": "Point"}, "id": "IIzKg8DUCvwul8qa7AouIqnY9bg=", "properties": {"@spider": "usps_collection_boxes", "addr:city": "TRAVERSE CITY", "addr:country": "US", "addr:full": "3639 MARKETPLACE CIR", "addr:postcode": "49684", "addr:state": "MI", "brand": "USPS", "brand:wikidata": "Q668687", "collection_times": "Mo-Sa 15:00", "name": "USPS COLLECTION BOX - BLUE BOX", "note": "ON 12/24 AND 12/31, THIS BOX MAY BE COLLECTED AS EARLY AS 12 NOON.", "ref": "4968400041"}, "type": "Feature"}
{"geometry": {"coordinates": [-85.6626153, 44.697939], "type": "Point"}, "id": "SWL2cWe7v87TF0XSC52HF7DS_zA=", "properties": {"@spider": "usps_collection_boxes", "addr:city": "TRAVERSE CITY", "addr:country": "US", "addr:full": "4301 MEADOW LANE DR", "addr:postcode": "49684", "addr:state": "MI", "brand": "USPS", "brand:wikidata": "Q668687", "collection_times": "Mo-Sa 11:00", "name": "USPS COLLECTION BOX - BLUE BOX", "ref": "4968400043"}, "type": "Feature"}
{"geometry": {"coordinates": [-85.6814909, 44.673054], "type": "Point"}, "id": "6M8Yp2e-g1sU1JvLknKR341zJYM=", "properties": {"@spider": "usps_collection_boxes", "addr:city": "TRAVERSE CITY", "addr:country": "US", "addr:full": "1257 OVERLOOK RD", "addr:postcode": "49684", "addr:state": "MI", "brand": "USPS", "brand:wikidata": "Q668687", "collection_times": "Mo-Sa 10:00", "name": "USPS COLLECTION BOX - BLUE BOX", "ref": "4968400047"}, "type": "Feature"}
{"geometry": {"coordinates": [-85.619206, 44.7315], "type": "Point"}, "id": "HX7dy8u6Cc9y4yetps2UFEswru8=", "properties": {"@spider": "usps_collection_boxes", "addr:city": "TRAVERSE CITY", "addr:country": "US", "addr:full": "3230 RACQUET CLUB DR", "addr:postcode": "49684", "addr:state": "MI", "brand": "USPS", "brand:wikidata": "Q668687", "collection_times": "Mo-Fr 15:00; Sa 10:00", "name": "USPS COLLECTION BOX - BLUE BOX", "note": "ON 12/24 AND 12/31, THIS BOX MAY BE COLLECTED AS EARLY AS 12 NOON.", "ref": "4968400049"}, "type": "Feature"}
{"geometry": {"coordinates": [-85.6792276, 44.702355], "type": "Point"}, "id": "ej0av3q-9oh2Dr1arbuEkJBzq1w=", "properties": {"@spider": "usps_collection_boxes", "addr:city": "TRAVERSE CITY", "addr:country": "US", "addr:full": "22 SILVER LAKE VIEW CT", "addr:postcode": "49684", "addr:state": "MI", "brand": "USPS", "brand:wikidata": "Q668687", "collection_times": "Mo-Sa 10:00", "name": "USPS COLLECTION BOX - BLUE BOX", "ref": "4968400051"}, "type": "Feature"}
{"geometry": {"coordinates": [-85.6590533, 44.672871], "type": "Point"}, "id": "JC8ntjOclSgY7MaYTFYg-CrByR4=", "properties": {"@spider": "usps_collection_boxes", "addr:city": "TRAVERSE CITY", "addr:country": "US", "addr:full": "4144 US HIGHWAY 31 S", "addr:postcode": "49684", "addr:state": "MI", "brand": "USPS", "brand:wikidata": "Q668687", "collection_times": "Mo-Fr 17:00; Sa 15:00", "name": "USPS COLLECTION BOX - BLUE BOX", "note": "ON 12/24 AND 12/31, THIS BOX MAY BE COLLECTED AS EARLY AS 12 NOON.", "ref": "4968400057"}, "type": "Feature"}
{"geometry": {"coordinates": [-85.623863, 44.762766], "type": "Point"}, "id": "LEDH06HLxCPf66UJp4dnMhFepUw=", "properties": {"@spider": "usps_collection_boxes", "addr:city": "TRAVERSE CITY", "addr:country": "US", "addr:full": "202 S UNION ST", "addr:postcode": "49684", "addr:state": "MI", "brand": "USPS", "brand:wikidata": "Q668687", "collection_times": "Mo-Fr 17:15; Sa 16:30", "name": "USPS COLLECTION BOX - BLUE BOX", "note": "ON 12/24 AND 12/31, THIS BOX MAY BE COLLECTED AS EARLY AS 12 NOON.", "ref": "4968400061"}, "type": "Feature"}
{"geometry": {"coordinates": [-85.623827, 44.762849], "type": "Point"}, "id": "WPfwXqELwvat1irb7q1mgkcOIcM=", "properties": {"@spider": "usps_collection_boxes", "addr:city": "TRAVERSE CITY", "addr:country": "US", "addr:full": "202 S UNION ST", "addr:postcode": "49684", "addr:state": "MI", "brand": "USPS", "brand:wikidata": "Q668687", "collection_times": "Mo-Fr 17:15; Sa 16:30", "name": "USPS COLLECTION BOX - PO LOBBY", "note": "ON 12/24 AND 12/31, THIS BOX MAY BE COLLECTED AS EARLY AS 12 NOON.", "ref": "4968400062"}, "type": "Feature"}
{"geometry": {"coordinates": [-85.6312878, 44.740622], "type": "Point"}, "id": "wbh7VdO7js0-bQZ_pgk9rrXdfpQ=", "properties": {"@spider": "usps_collection_boxes", "addr:city": "TRAVERSE CITY", "addr:country": "US", "addr:full": "3848 VETERANS DR", "addr:postcode": "49684", "addr:state": "MI", "brand": "USPS", "brand:wikidata": "Q668687", "collection_times": "Mo-Sa 09:00", "name": "USPS COLLECTION BOX - BLUE BOX", "ref": "4968400065"}, "type": "Feature"}
{"geometry": {"coordinates": [-85.6237932218, 44.7641057932], "type": "Point"}, "id": "pupifcfQGOuRZbYYdz7dy71-q8Q=", "properties": {"@spider": "usps_collection_boxes", "addr:city": "TRAVERSE CITY", "addr:country": "US", "addr:full": "100 N UNION ST", "addr:postcode": "49684", "addr:state": "MI", "brand": "USPS", "brand:wikidata": "Q668687", "collection_times": "Mo-Fr 15:00; Sa 10:00", "name": "USPS COLLECTION BOX - BLUE BOX", "note": "ON 12/24 AND 12/31, THIS BOX MAY BE COLLECTED AS EARLY AS 12 NOON.", "ref": "4968400079"}, "type": "Feature"}
{"geometry": {"coordinates": [-85.6324422, 44.739701], "type": "Point"}, "id": "5fya5DlLhjBqbcq5w48ltzSsjXM=", "properties": {"@spider": "usps_collection_boxes", "addr:city": "TRAVERSE CITY", "addr:country": "US", "addr:full": "3686 MATADOR W", "addr:postcode": "49684", "addr:state": "MI", "brand": "USPS", "brand:wikidata": "Q668687", "collection_times": "Mo-Sa 11:00", "name": "USPS COLLECTION BOX - BLUE BOX", "ref": "4968400084"}, "type": "Feature"}
{"geometry": {"coordinates": [-85.621293, 44.762634], "type": "Point"}, "id": "JG3S_v9WibPccdDFMIqdoW0aW20=", "properties": {"@spider": "usps_collection_boxes", "addr:city": "TRAVERSE CITY", "addr:country": "US", "addr:full": "160 E STATE ST", "addr:postcode": "49684", "addr:state": "MI", "brand": "USPS", "brand:wikidata": "Q668687", "collection_times": "Mo-Sa 10:00", "name": "USPS COLLECTION BOX - BLUE BOX", "ref": "4968400085"}, "type": "Feature"}
{"geometry": {"coordinates": [-85.6192234, 44.731497], "type": "Point"}, "id": "dCHU6NMSp6j-Elj9AplRtD_kkUI=", "properties": {"@spider": "usps_collection_boxes", "addr:city": "TRAVERSE CITY", "addr:country": "US", "addr:full": "3230 RACQUET CLUB DR", "addr:postcode": "49684", "addr:state": "MI", "brand": "USPS", "brand:wikidata": "Q668687", "collection_times": "Mo-Fr 15:00; Sa 10:00", "name": "USPS COLLECTION BOX - EXPRESS", "note": "ON 12/24 AND 12/31, THIS BOX MAY BE COLLECTED AS EARLY AS 12 NOON.", "ref": "4968400099"}, "type": "Feature"}
{"geometry": {"coordinates": [-85.6325178, 44.726205], "type": "Point"}, "id": "Fr7qRU8gk6G8IxKfTxQSqP04kws=", "properties": {"@spider": "usps_collection_boxes", "addr:city": "TRAVERSE CITY", "addr:country": "US", "addr:full": "2612 CROSSING CIR", "addr:postcode": "49684", "addr:state": "MI", "brand": "USPS", "brand:wikidata": "Q668687", "collection_times": "Mo-Sa 10:00", "name": "USPS COLLECTION BOX - BLUE BOX", "ref": "4968400101"}, "type": "Feature"}
{"geometry": {"coordinates": [-85.6244066, 44.760473], "type": "Point"}, "id": "jtjCuF3CtK9dppVTbsvZminRNcI=", "properties": {"@spider": "usps_collection_boxes", "addr:city": "TRAVERSE CITY", "addr:country": "US", "addr:full": "125 W SEVENTH ST", "addr:postcode": "49684", "addr:state": "MI", "brand": "USPS", "brand:wikidata": "Q668687", "collection_times": "Mo-Sa 15:00", "name": "USPS COLLECTION BOX - BLUE BOX", "note": "ON 12/24 AND 12/31, THIS BOX MAY BE COLLECTED AS EARLY AS 12 NOON.", "ref": "4968400102"}, "type": "Feature"}
{"geometry": {"coordinates": [-85.6237484, 44.764724], "type": "Point"}, "id": "nUxc0YtO03vcFN-m7LRN83DKFRQ=", "properties": {"@spider": "usps_collection_boxes", "addr:city": "TRAVERSE CITY", "addr:country": "US", "addr:full": "100 N UNION ST", "addr:postcode": "49684", "addr:state": "MI", "brand": "USPS", "brand:wikidata": "Q668687", "collection_times": "Mo-Fr 15:00; Sa 10:00", "name": "USPS COLLECTION BOX - BLUE BOX", "note": "ON 12/24 AND 12/31, THIS BOX MAY BE COLLECTED AS EARLY AS 12 NOON.", "ref": "4968400103"}, "type": "Feature"}
{"geometry": {"coordinates": [-85.6521435, 44.757515], "type": "Point"}, "id": "k2P3hdmGitJRnADVJYz_p37J0rc=", "properties": {"@spider": "usps_collection_boxes", "addr:city": "TRAVERSE CITY", "addr:country": "US", "addr:full": "3850 N LONG LAKE RD", "addr:postcode": "49684", "addr:state": "MI", "brand": "USPS", "brand:wikidata": "Q668687", "collection_times": "Mo-Sa 15:00", "name": "USPS COLLECTION BOX - BLUE BOX", "note": "ON 12/24 AND 12/31, THIS BOX MAY BE COLLECTED AS EARLY AS 12 NOON.", "ref": "4968400116"}, "type": "Feature"}
{"geometry": {"coordinates": [-85.6430159, 44.775914], "type": "Point"}, "id": "uFbUpN2Y8Z0a5lxbTLcjX8BMrAo=", "properties": {"@spider": "usps_collection_boxes", "addr:city": "TRAVERSE CITY", "addr:country": "US", "addr:full": "13930 S WEST BAY SHORE DR", "addr:postcode": "49684", "addr:state": "MI", "brand": "USPS", "brand:wikidata": "Q668687", "collection_times": "Mo-Sa 15:00", "name": "USPS COLLECTION BOX - BLUE BOX", "note": "ON 12/24 AND 12/31, THIS BOX MAY BE COLLECTED AS EARLY AS 12 NOON.", "ref": "4968400123"}, "type": "Feature"}
{"geometry": {"coordinates": [-85.623827, 44.762849], "type": "Point"}, "id": "3LfqnQS8HjZAoNDHx4jVL2KM5mY=", "properties": {"@spider": "usps_collection_boxes", "addr:city": "TRAVERSE CITY", "addr:country": "US", "addr:full": "202 S UNION ST", "addr:postcode": "49684", "addr:state": "MI", "brand": "USPS", "brand:wikidata": "Q668687", "collection_times": "Mo-Fr 17:15; Sa 16:30", "name": "USPS COLLECTION BOX - APC", "note": "ON 12/24 AND 12/31, THIS BOX MAY BE COLLECTED AS EARLY AS 12 NOON.", "ref": "4968400124"}, "type": "Feature"}
{"geometry": {"coordinates": [-85.6540519, 44.7446], "type": "Point"}, "id": "tuZYMdd3WFyhKLCV5hnvZyD0Ud0=", "properties": {"@spider": "usps_collection_boxes", "addr:city": "TRAVERSE CITY", "addr:country": "US", "addr:full": "4100 PARK FOREST DR", "addr:postcode": "49684", "addr:state": "MI", "brand": "USPS", "brand:wikidata": "Q668687", "collection_times": "Mo-Sa 15:00", "name": "USPS COLLECTION BOX - BLUE BOX", "note": "ON 12/24 AND 12/31, THIS BOX MAY BE COLLECTED AS EARLY AS 12 NOON.", "ref": "4968400128"}, "type": "Feature"}
{"geometry": {"coordinates": [-85.6343193, 44.717469], "type": "Point"}, "id": "R6cP1Yc1n_e2b2dP3BLSiSX2JFQ=", "properties": {"@spider": "usps_collection_boxes", "addr:city": "TRAVERSE CITY", "addr:country": "US", "addr:full": "2955 LEGGETT DR", "addr:postcode": "49684", "addr:state": "MI", "brand": "USPS", "brand:wikidata": "Q668687", "collection_times": "Mo-Sa 10:00", "name": "USPS COLLECTION BOX - BLUE BOX", "ref": "4968400135"}, "type": "Feature"}
{"geometry": {"coordinates": [-85.6243531615, 44.7629621557], "type": "Point"}, "id": "dOI3PomUEIm8Me4eIjb9WPQ8ENU=", "properties": {"@spider": "usps_collection_boxes", "addr:city": "TRAVERSE CITY", "addr:country": "US", "addr:full": "120 W STATE ST", "addr:postcode": "49684", "addr:state": "MI", "brand": "USPS", "brand:wikidata": "Q668687", "collection_times": "Mo-Fr 17:15; Sa 16:30", "name": "USPS COLLECTION BOX - BLUE BOX", "note": "ON 12/24 AND 12/31, THIS BOX MAY BE COLLECTED AS EARLY AS 12 NOON.", "ref": "4968400136"}, "type": "Feature"}
{"geometry": {"coordinates": [-85.6540358, 44.744601], "type": "Point"}, "id": "KISnyvuR1WstPKoB0n2NPMEro-U=", "properties": {"@spider": "usps_collection_boxes", "addr:city": "TRAVERSE CITY", "addr:country": "US", "addr:full": "4100 PARK FOREST DR", "addr:postcode": "49684", "addr:state": "MI", "brand": "USPS", "brand:wikidata": "Q668687", "collection_times": "Mo-Sa 15:00", "name": "USPS COLLECTION BOX - BLUE BOX", "note": "ON 12/24 AND 12/31, THIS BOX MAY BE COLLECTED AS EARLY AS 12 NOON.", "ref": "4968400137"}, "type": "Feature"}
{"geometry": {"coordinates": [-85.6403699, 44.779166], "type": "Point"}, "id": "hR3h8WKbIurgiOC4v9JiGH52KNc=", "properties": {"@spider": "usps_collection_boxes", "addr:city": "TRAVERSE CITY", "addr:country": "US", "addr:full": "13730 S WEST BAY SHORE DR", "addr:postcode": "49684", "addr:state": "MI", "brand": "USPS", "brand:wikidata": "Q668687", "collection_times": "Mo-Fr 15:00; Sa 10:00", "name": "USPS COLLECTION BOX - BLUE BOX", "note": "ON 12/24 AND 12/31, THIS BOX MAY BE COLLECTED AS EARLY AS 12 NOON.", "ref": "4968400138"}, "type": "Feature"}
{"geometry": {"coordinates": [-85.6439215, 44.741838], "type": "Point"}, "id": "-knEbV0lg1XUAAZ7kXh7FgBbrfo=", "properties": {"@spider": "usps_collection_boxes", "addr:city": "TRAVERSE CITY", "addr:country": "US", "addr:full": "3955 N US HIGHWAY 31 S", "addr:postcode": "49684", "addr:state": "MI", "brand": "USPS", "brand:wikidata": "Q668687", "collection_times": "Mo-Sa 16:45", "name": "USPS COLLECTION BOX - BLUE BOX", "note": "ON 12/24 AND 12/31, THIS BOX MAY BE COLLECTED AS EARLY AS 12 NOON.", "ref": "4968400139"}, "type": "Feature"}
{"geometry": {"coordinates": [-85.6238611345, 44.7625079686], "type": "Point"}, "id": "A6jRhNBbB7KPJzc5ruVIbxOxxSk=", "properties": {"@spider": "usps_collection_boxes", "addr:city": "TRAVERSE CITY", "addr:country": "US", "addr:full": "202 S UNION ST", "addr:postcode": "49684", "addr:state": "MI", "brand": "USPS", "brand:wikidata": "Q668687", "collection_times": "Mo-Fr 16:45; Sa 13:30", "name": "USPS COLLECTION BOX - PO LOBBY", "note": "ON 12/24 AND 12/31, THIS BOX MAY BE COLLECTED AS EARLY AS 12 NOON.", "ref": "4968400147"}, "type": "Feature"}
{"geometry": {"coordinates": [-85.6238611345, 44.7625079686], "type": "Point"}, "id": "gbHmlyepmGgm1SGt0fSO8WlGpRo=", "properties": {"@spider": "usps_collection_boxes", "addr:city": "TRAVERSE CITY", "addr:country": "US", "addr:full": "202 S UNION ST", "addr:postcode": "49684", "addr:state": "MI", "brand": "USPS", "brand:wikidata": "Q668687", "collection_times": "Mo-Fr 16:45; Sa 13:30", "name": "USPS COLLECTION BOX - PO LOBBY", "note": "ON 12/24 AND 12/31, THIS BOX MAY BE COLLECTED AS EARLY AS 12 NOON.", "ref": "4968400149"}, "type": "Feature"}
{"geometry": {"coordinates": [-85.592861, 44.753151], "type": "Point"}, "id": "LhfFHQ2uUxlbk8OAKZXdvzQcsP0=", "properties": {"@spider": "usps_collection_boxes", "addr:city": "TRAVERSE CITY", "addr:country": "US", "addr:full": "810 HASTINGS ST", "addr:postcode": "49686", "addr:state": "MI", "brand": "USPS", "brand:wikidata": "Q668687", "collection_times": "Mo-Fr 15:00; Sa 12:00", "name": "USPS COLLECTION BOX - BLUE BOX", "note": "ON 12/24 AND 12/31, THIS BOX MAY BE COLLECTED AS EARLY AS 12 NOON.", "ref": "4968600003"}, "type": "Feature"}
{"geometry": {"coordinates": [-85.5534581, 44.742076], "type": "Point"}, "id": "R0-h6vf54z8QiRITCgDmPL2jsoA=", "properties": {"@spider": "usps_collection_boxes", "addr:city": "TRAVERSE CITY", "addr:country": "US", "addr:full": "1159 BUSINESS PARK DR", "addr:postcode": "49686", "addr:state": "MI", "brand": "USPS", "brand:wikidata": "Q668687", "collection_times": "Mo-Fr 15:00; Sa 09:00", "name": "USPS COLLECTION BOX - BLUE BOX", "note": "ON 12/24 AND 12/31, THIS BOX MAY BE COLLECTED AS EARLY AS 12 NOON.", "ref": "4968600004"}, "type": "Feature"}
{"geometry": {"coordinates": [-85.5917611, 44.764344], "type": "Point"}, "id": "eWTrCtaovl8wUk_2gCtps0U_Ffk=", "properties": {"@spider": "usps_collection_boxes", "addr:city": "TRAVERSE CITY", "addr:country": "US", "addr:full": "1219 E FRONT ST", "addr:postcode": "49686", "addr:state": "MI", "brand": "USPS", "brand:wikidata": "Q668687", "collection_times": "Mo-Sa 15:00", "name": "USPS COLLECTION BOX - BLUE BOX", "note": "ON 12/24 AND 12/31, THIS BOX MAY BE COLLECTED AS EARLY AS 12 NOON.", "ref": "4968600005"}, "type": "Feature"}
{"geometry": {"coordinates": [-85.5729654, 44.7461], "type": "Point"}, "id": "9d6jxyYbJG5eywxUNCAS23_auKA=", "properties": {"@spider": "usps_collection_boxes", "addr:city": "TRAVERSE CITY", "addr:country": "US", "addr:full": "2561 AERO PARK DR", "addr:postcode": "49686", "addr:state": "MI", "brand": "USPS", "brand:wikidata": "Q668687", "collection_times": "Mo-Fr 15:00; Sa 10:00", "name": "USPS COLLECTION BOX - BLUE BOX", "note": "ON 12/24 AND 12/31, THIS BOX MAY BE COLLECTED AS EARLY AS 12 NOON.", "ref": "4968600006"}, "type": "Feature"}
{"geometry": {"coordinates": [-85.5616614, 44.743092], "type": "Point"}, "id": "skU_uajwZIH95wuSx8iz4_49DJg=", "properties": {"@spider": "usps_collection_boxes", "addr:city": "TRAVERSE CITY", "addr:country": "US", "addr:full": "2889 AERO PARK DR", "addr:postcode": "49686", "addr:state": "MI", "brand": "USPS", "brand:wikidata": "Q668687", "collection_times": "Mo-Fr 15:00; Sa 09:00", "name": "USPS COLLECTION BOX - BLUE BOX", "note": "ON 12/24 AND 12/31, THIS BOX MAY BE COLLECTED AS EARLY AS 12 NOON.", "ref": "4968600008"}, "type": "Feature"}
{"geometry": {"coordinates": [-85.60563, 44.734965], "type": "Point"}, "id": "UyT7hENjZhY_-aa9ElNIeF4SDRw=", "properties": {"@spider": "usps_collection_boxes", "addr:city": "TRAVERSE CITY", "addr:country": "US", "addr:full": "1756 BARLOW ST", "addr:postcode": "49686", "addr:state": "MI", "brand": "USPS", "brand:wikidata": "Q668687", "collection_times": "Mo-Fr 17:30; Sa 16:30", "name": "USPS COLLECTION BOX - EXPRESS", "note": "ON 12/24 AND 12/31, THIS BOX MAY BE COLLECTED AS EARLY AS 12 NOON.", "ref": "4968600010"}, "type": "Feature"}
{"geometry": {"coordinates": [-85.605592, 44.734952], "type": "Point"}, "id": "6RtZXSE2jNuj6HBFezCiN049RmQ=", "properties": {"@spider": "usps_collection_boxes", "addr:city": "TRAVERSE CITY", "addr:country": "US", "addr:full": "1756 BARLOW ST", "addr:postcode": "49686", "addr:state": "MI", "brand": "USPS", "brand:wikidata": "Q668687", "collection_times": "Mo-Fr 17:30; Sa 16:30", "name": "USPS COLLECTION BOX - APC", "note": "ON 12/24 AND 12/31, THIS BOX MAY BE COLLECTED AS EARLY AS 12 NOON.", "ref": "4968600011"}, "type": "Feature"}
{"geometry": {"coordinates": [-85.605631632, 44.735408445], "type": "Point"}, "id": "dV2LZLhxfNmqm8S5abt7Htn86VA=", "properties": {"@spider": "usps_collection_boxes", "addr:city": "TRAVERSE CITY", "addr:country": "US", "addr:full": "1756 BARLOW ST", "addr:postcode": "49686", "addr:state": "MI", "brand": "USPS", "brand:wikidata": "Q668687", "collection_times": "Mo-Fr 17:30; Sa 16:30", "name": "USPS COLLECTION BOX - PO LOBBY", "note": "ON 12/24 AND 12/31, THIS BOX MAY BE COLLECTED AS EARLY AS 12 NOON.", "ref": "4968600012"}, "type": "Feature"}
{"geometry": {"coordinates": [-85.6056316318, 44.7354084446], "type": "Point"}, "id": "idjoDz1M7myuH951ytD3h2IaVLU=", "properties": {"@spider": "usps_collection_boxes", "addr:city": "TRAVERSE CITY", "addr:country": "US", "addr:full": "1756 BARLOW ST", "addr:postcode": "49686", "addr:state": "MI", "brand": "USPS", "brand:wikidata": "Q668687", "collection_times": "Mo-Fr 17:30; Sa 16:30", "name": "USPS COLLECTION BOX - BLUE BOX", "note": "ON 12/24 AND 12/31, THIS BOX MAY BE COLLECTED AS EARLY AS 12 NOON.", "ref": "4968600013"}, "type": "Feature"}
{"geometry": {"coordinates": [-85.606507978, 44.73542202], "type": "Point"}, "id": "ke7Z24AhThZvg24pjwwmdf0sR-0=", "properties": {"@spider": "usps_collection_boxes", "addr:city": "TRAVERSE CITY", "addr:country": "US", "addr:full": "1756 BARLOW ST", "addr:postcode": "49686", "addr:state": "MI", "brand": "USPS", "brand:wikidata": "Q668687", "collection_times": "Mo-Fr 17:30; Sa 16:30", "name": "USPS COLLECTION BOX - APC", "note": "ON 12/24 AND 12/31, THIS BOX MAY BE COLLECTED AS EARLY AS 12 NOON.", "ref": "4968600014"}, "type": "Feature"}
{"geometry": {"coordinates": [-85.5534633, 44.742074], "type": "Point"}, "id": "-EgFHfwFulVCjYQljgCfgHeUyoA=", "properties": {"@spider": "usps_collection_boxes", "addr:city": "TRAVERSE CITY", "addr:country": "US", "addr:full": "1159 BUSINESS PARK DR", "addr:postcode": "49686", "addr:state": "MI", "brand": "USPS", "brand:wikidata": "Q668687", "collection_times": "Mo-Fr 15:00; Sa 09:00", "name": "USPS COLLECTION BOX - BLUE BOX", "note": "ON 12/24 AND 12/31, THIS BOX MAY BE COLLECTED AS EARLY AS 12 NOON.", "ref": "4968600016"}, "type": "Feature"}
{"geometry": {"coordinates": [-85.5797732, 44.736603], "type": "Point"}, "id": "e2w5TEmgbb103y8pLB5cdf3xVtQ=", "properties": {"@spider": "usps_collection_boxes", "addr:city": "TRAVERSE CITY", "addr:country": "US", "addr:full": "727 FLY DONT DR", "addr:postcode": "49686", "addr:state": "MI", "brand": "USPS", "brand:wikidata": "Q668687", "collection_times": "Mo-Sa 10:00", "name": "USPS COLLECTION BOX - BLUE BOX", "ref": "4968600017"}, "type": "Feature"}
{"geometry": {"coordinates": [-85.5917792, 44.764345], "type": "Point"}, "id": "yD8d8NGK1gx25NRYZvPLK6LCpJM=", "properties": {"@spider": "usps_collection_boxes", "addr:city": "TRAVERSE CITY", "addr:country": "US", "addr:full": "1219 E FRONT ST", "addr:postcode": "49686", "addr:state": "MI", "brand": "USPS", "brand:wikidata": "Q668687", "collection_times": "Mo-Sa 15:00", "name": "USPS COLLECTION BOX - BLUE BOX", "note": "ON 12/24 AND 12/31, THIS BOX MAY BE COLLECTED AS EARLY AS 12 NOON.", "ref": "4968600018"}, "type": "Feature"}
{"geometry": {"coordinates": [-85.5963279, 44.752807], "type": "Point"}, "id": "52OOSdTOSOp3m7bfk5Gfl3SVh50=", "properties": {"@spider": "usps_collection_boxes", "addr:city": "TRAVERSE CITY", "addr:country": "US", "addr:full": "800 S GARFIELD AVE", "addr:postcode": "49686", "addr:state": "MI", "brand": "USPS", "brand:wikidata": "Q668687", "collection_times": "Mo-Sa 11:00", "name": "USPS COLLECTION BOX - BLUE BOX", "ref": "4968600019"}, "type": "Feature"}
{"geometry": {"coordinates": [-85.5955726768, 44.7117119162], "type": "Point"}, "id": "CKcVEBsAwEZkVbpxagTorRvYc3U=", "properties": {"@spider": "usps_collection_boxes", "addr:city": "TRAVERSE CITY", "addr:country": "US", "addr:full": "1801 GARFIELD RD N", "addr:postcode": "49686", "addr:state": "MI", "brand": "USPS", "brand:wikidata": "Q668687", "collection_times": "Mo-Sa 18:00", "name": "USPS COLLECTION BOX - BLUE BOX", "note": "ON 12/24 AND 12/31, THIS BOX MAY BE COLLECTED AS EARLY AS 12 NOON.", "ref": "4968600020"}, "type": "Feature"}
{"geometry": {"coordinates": [-85.5955726768, 44.7117119162], "type": "Point"}, "id": "qW6xYSImH7MUTENEAdxtyNAY2v0=", "properties": {"@spider": "usps_collection_boxes", "addr:city": "TRAVERSE CITY", "addr:country": "US", "addr:full": "1801 GARFIELD RD N", "addr:postcode": "49686", "addr:state": "MI", "brand": "USPS", "brand:wikidata": "Q668687", "collection_times": "Mo-Sa 18:00", "name": "USPS COLLECTION BOX - EXPRESS", "note": "ON 12/24 AND 12/31, THIS BOX MAY BE COLLECTED AS EARLY AS 12 NOON.", "ref": "4968600021"}, "type": "Feature"}
{"geometry": {"coordinates": [-85.5575978, 44.71573], "type": "Point"}, "id": "ELaW-YXJR6gyFxZ_kkXkUOInLW0=", "properties": {"@spider": "usps_collection_boxes", "addr:city": "TRAVERSE CITY", "addr:country": "US", "addr:full": "963 HAMMOND RD E", "addr:postcode": "49686", "addr:state": "MI", "brand": "USPS", "brand:wikidata": "Q668687", "collection_times": "Mo-Sa 12:00", "name": "USPS COLLECTION BOX - BLUE BOX", "ref": "4968600022"}, "type": "Feature"}
{"geometry": {"coordinates": [-85.6119836, 44.738701], "type": "Point"}, "id": "tAIbiyYlO_8JjEdpMeToi1AkzYU=", "properties": {"@spider": "usps_collection_boxes", "addr:city": "TRAVERSE CITY", "addr:country": "US", "addr:full": "1646 MAPLE RIDGE WAY", "addr:postcode": "49686", "addr:state": "MI", "brand": "USPS", "brand:wikidata": "Q668687", "collection_times": "Mo-Sa 10:00", "name": "USPS COLLECTION BOX - BLUE BOX", "ref": "4968600023"}, "type": "Feature"}
{"geometry": {"coordinates": [-85.5743743, 44.754552], "type": "Point"}, "id": "Qiph2WF4Rqbeo5e4QWEFAqwRohQ=", "properties": {"@spider": "usps_collection_boxes", "addr:city": "TRAVERSE CITY", "addr:country": "US", "addr:full": "722 MUNSON AVE", "addr:postcode": "49686", "addr:state": "MI", "brand": "USPS", "brand:wikidata": "Q668687", "collection_times": "Mo-Sa 15:00", "name": "USPS COLLECTION BOX - BLUE BOX", "note": "ON 12/24 AND 12/31, THIS BOX MAY BE COLLECTED AS EARLY AS 12 NOON.", "ref": "4968600025"}, "type": "Feature"}
{"geometry": {"coordinates": [-85.595429, 44.736009], "type": "Point"}, "id": "OvXChNN-m79r7gx4vmKgH73ARAM=", "properties": {"@spider": "usps_collection_boxes", "addr:city": "TRAVERSE CITY", "addr:country": "US", "addr:full": "1712 S GARFIELD AVE", "addr:postcode": "49686", "addr:state": "MI", "brand": "USPS", "brand:wikidata": "Q668687", "collection_times": "Mo-Sa 15:00", "name": "USPS COLLECTION BOX - BLUE BOX", "note": "ON 12/24 AND 12/31, THIS BOX MAY BE COLLECTED AS EARLY AS 12 NOON.", "ref": "4968600026"}, "type": "Feature"}
{"geometry": {"coordinates": [-85.5948819, 44.758546], "type": "Point"}, "id": "gDeVtBQhJgWVVNRNVfT8xxo5TxA=", "properties": {"@spider": "usps_collection_boxes", "addr:city": "TRAVERSE CITY", "addr:country": "US", "addr:full": "1108 E EIGHTH ST", "addr:postcode": "49686", "addr:state": "MI", "brand": "USPS", "brand:wikidata": "Q668687", "collection_times": "Mo-Sa 15:00", "name": "USPS COLLECTION BOX - BLUE BOX", "note": "ON 12/24 AND 12/31, THIS BOX MAY BE COLLECTED AS EARLY AS 12 NOON.", "ref": "4968600027"}, "type": "Feature"}
{"geometry": {"coordinates": [-85.605631632, 44.735408445], "type": "Point"}, "id": "LcsSERh-IiJKg-Mm-rt6nnKe0-I=", "properties": {"@spider": "usps_collection_boxes", "addr:city": "TRAVERSE CITY", "addr:country": "US", "addr:full": "1756 BARLOW ST", "addr:postcode": "49686", "addr:state": "MI", "brand": "USPS", "brand:wikidata": "Q668687", "collection_times": "Mo-Fr 17:30; Sa 14:00", "name": "USPS COLLECTION BOX - PO LOBBY", "note": "ON 12/24 AND 12/31, THIS BOX MAY BE COLLECTED AS EARLY AS 12 NOON.", "ref": "4968600030"}, "type": "Feature"}
{"geometry": {"coordinates": [-85.458596, 44.102702], "type": "Point"}, "id": "aNTN0nS3i3-K3miDLBtaJJ4xa9s=", "properties": {"@spider": "usps_collection_boxes", "addr:city": "TUSTIN", "addr:country": "US", "addr:full": "120 E CHURCH ST", "addr:postcode": "49688", "addr:state": "MI", "brand": "USPS", "brand:wikidata": "Q668687", "collection_times": "Mo-Fr 16:00; Sa 11:00", "name": "USPS COLLECTION BOX - BLUE BOX", "note": "ON 12/24 AND 12/31, THIS BOX MAY BE COLLECTED AS EARLY AS 12 NOON.", "ref": "4968800001"}, "type": "Feature"}
{"geometry": {"coordinates": [-85.458596, 44.102702], "type": "Point"}, "id": "cXclXXy_4cjvx1ZuCvBi6BiUN-A=", "properties": {"@spider": "usps_collection_boxes", "addr:city": "TUSTIN", "addr:country": "US", "addr:full": "120 E CHURCH ST", "addr:postcode": "49688", "addr:state": "MI", "brand": "USPS", "brand:wikidata": "Q668687", "collection_times": "Mo-Fr 16:00; Sa 10:30", "name": "USPS COLLECTION BOX - PO LOBBY", "note": "ON 12/24 AND 12/31, THIS BOX MAY BE COLLECTED AS EARLY AS 12 NOON.", "ref": "4968800002"}, "type": "Feature"}
{"geometry": {"coordinates": [-85.458624534, 44.102645223], "type": "Point"}, "id": "wbirTjTUsrFB_jIKuG0usfpkNOk=", "properties": {"@spider": "usps_collection_boxes", "addr:city": "TUSTIN", "addr:country": "US", "addr:full": "120 E CHURCH ST", "addr:postcode": "49688", "addr:state": "MI", "brand": "USPS", "brand:wikidata": "Q668687", "collection_times": "Mo-Fr 15:30; Sa 10:00", "name": "USPS COLLECTION BOX - PO LOBBY", "note": "ON 12/24 AND 12/31, THIS BOX MAY BE COLLECTED AS EARLY AS 12 NOON.", "ref": "4968800003"}, "type": "Feature"}
{"geometry": {"coordinates": [-85.959121, 44.216726], "type": "Point"}, "id": "1OKBS_xc8B7EYqPUXHZJurLh3u4=", "properties": {"@spider": "usps_collection_boxes", "addr:city": "WELLSTON", "addr:country": "US", "addr:full": "17114 6TH ST", "addr:postcode": "49689", "addr:state": "MI", "brand": "USPS", "brand:wikidata": "Q668687", "collection_times": "Mo-Fr 15:00; Sa 10:00", "name": "USPS COLLECTION BOX - BLUE BOX", "note": "ON 12/24 AND 12/31, THIS BOX MAY BE COLLECTED AS EARLY AS 12 NOON.", "ref": "4968900001"}, "type": "Feature"}
{"geometry": {"coordinates": [-85.959121, 44.216726], "type": "Point"}, "id": "iTFL0UjIWc_GBkUk0CU9D-vgMp8=", "properties": {"@spider": "usps_collection_boxes", "addr:city": "WELLSTON", "addr:country": "US", "addr:full": "17114 6TH ST", "addr:postcode": "49689", "addr:state": "MI", "brand": "USPS", "brand:wikidata": "Q668687", "collection_times": "Mo-Fr 15:00; Sa 10:00", "name": "USPS COLLECTION BOX - PO LOBBY", "note": "ON 12/24 AND 12/31, THIS BOX MAY BE COLLECTED AS EARLY AS 12 NOON.", "ref": "4968900002"}, "type": "Feature"}
{"geometry": {"coordinates": [-85.959399354, 44.216847156], "type": "Point"}, "id": "uLwE0cA10_EFV_Qx5l5znKbxBEI=", "properties": {"@spider": "usps_collection_boxes", "addr:city": "WELLSTON", "addr:country": "US", "addr:full": "17114 6TH ST", "addr:postcode": "49689", "addr:state": "MI", "brand": "USPS", "brand:wikidata": "Q668687", "collection_times": "Mo-Fr 14:30; Sa 09:30", "name": "USPS COLLECTION BOX - PO LOBBY", "note": "ON 12/24 AND 12/31, THIS BOX MAY BE COLLECTED AS EARLY AS 12 NOON.", "ref": "4968900003"}, "type": "Feature"}
{"geometry": {"coordinates": [-85.407261, 44.772931], "type": "Point"}, "id": "pSwMt5_5zk2npZ6dNRzI-FUUyIs=", "properties": {"@spider": "usps_collection_boxes", "addr:city": "WILLIAMSBURG", "addr:country": "US", "addr:full": "8344 OLD M 72", "addr:postcode": "49690", "addr:state": "MI", "brand": "USPS", "brand:wikidata": "Q668687", "collection_times": "Mo-Fr 16:30; Sa 11:00", "name": "USPS COLLECTION BOX - BLUE BOX", "note": "ON 12/24 AND 12/31, THIS BOX MAY BE COLLECTED AS EARLY AS 12 NOON.", "ref": "4969000001"}, "type": "Feature"}
{"geometry": {"coordinates": [-85.4994528, 44.774028136], "type": "Point"}, "id": "FdVgh1sVSfMRGsJUK9-93ML2Gn8=", "properties": {"@spider": "usps_collection_boxes", "addr:city": "WILLIAMSBURG", "addr:country": "US", "addr:full": "6042 ACME RD", "addr:postcode": "49690", "addr:state": "MI", "brand": "USPS", "brand:wikidata": "Q668687", "collection_times": "Mo-Sa 12:30", "name": "USPS COLLECTION BOX - BLUE BOX", "note": "ON 12/24 AND 12/31, THIS BOX MAY BE COLLECTED AS EARLY AS 12 NOON.", "ref": "4969000002"}, "type": "Feature"}
{"geometry": {"coordinates": [-85.4072966, 44.772798], "type": "Point"}, "id": "e8jPeoeDwEjFml4oR82mT1PQ9DY=", "properties": {"@spider": "usps_collection_boxes", "addr:city": "WILLIAMSBURG", "addr:country": "US", "addr:full": "8344 OLD M 72", "addr:postcode": "49690", "addr:state": "MI", "brand": "USPS", "brand:wikidata": "Q668687", "collection_times": "Mo-Fr 16:30; Sa 11:00", "name": "USPS COLLECTION BOX - PO LOBBY", "note": "ON 12/24 AND 12/31, THIS BOX MAY BE COLLECTED AS EARLY AS 12 NOON.", "ref": "4969000003"}, "type": "Feature"}
{"geometry": {"coordinates": [-85.407273304, 44.772930547], "type": "Point"}, "id": "4fKyP8OUvru7WPQSHd4r2xWU7uo=", "properties": {"@spider": "usps_collection_boxes", "addr:city": "WILLIAMSBURG", "addr:country": "US", "addr:full": "8344 OLD M 72", "addr:postcode": "49690", "addr:state": "MI", "brand": "USPS", "brand:wikidata": "Q668687", "collection_times": "Mo-Fr 16:00", "name": "USPS COLLECTION BOX - PO LOBBY", "note": "ON 12/24 AND 12/31, THIS BOX MAY BE COLLECTED AS EARLY AS 12 NOON.", "ref": "4969000006"}, "type": "Feature"}
