{"geometry": {"coordinates": [-84.726990084, 45.781418496], "type": "Point"}, "id": "uxhmQhLKmteab_aXoYkn2juHJjs=", "properties": {"@source_uri": "https://tools.usps.com/UspsToolsRestServices/rest/POLocator/findLocations", "@spider": "usps_collection_boxes", "addr:city": "MACKINAW CITY", "addr:country": "US", "addr:postcode": "49701", "addr:state": "MI", "addr:street_address": "306 E CENTRAL AVE", "amenity": "post_box", "collection_times": "Mo-Fr 15:05; Sa 11:00", "note": "ON 12/24 AND 12/31, THIS BOX MAY BE COLLECTED AS EARLY AS 12 NOON.", "nsi_id": "unitedstatespostalservice-a77078", "operator": "United States Postal Service", "operator:short": "USPS", "operator:type": "public", "operator:wikidata": "Q668687", "ref": "4970100001"}, "type": "Feature"}
{"geometry": {"coordinates": [-84.726990084, 45.781418496], "type": "Point"}, "id": "U_85I7a-5wxHgHzyDHUDs2zjYW0=", "properties": {"@source_uri": "https://tools.usps.com/UspsToolsRestServices/rest/POLocator/findLocations", "@spider": "usps_collection_boxes", "addr:city": "MACKINAW CITY", "addr:country": "US", "addr:postcode": "49701", "addr:state": "MI", "addr:street_address": "306 E CENTRAL AVE", "amenity": "post_box", "collection_times": "Mo-Fr 15:05; Sa 11:00", "indoor": "yes", "note": "ON 12/24 AND 12/31, THIS BOX MAY BE COLLECTED AS EARLY AS 12 NOON.", "nsi_id": "unitedstatespostalservice-a77078", "operator": "United States Postal Service", "operator:short": "USPS", "operator:type": "public", "operator:wikidata": "Q668687", "ref": "4970100003"}, "type": "Feature"}
{"geometry": {"coordinates": [-84.726990084, 45.781418496], "type": "Point"}, "id": "vzfpQwL9UYScvIaX7MlXKcCZ9-M=", "properties": {"@source_uri": "https://tools.usps.com/UspsToolsRestServices/rest/POLocator/findLocations", "@spider": "usps_collection_boxes", "addr:city": "MACKINAW CITY", "addr:country": "US", "addr:postcode": "49701", "addr:state": "MI", "addr:street_address": "306 E CENTRAL AVE", "amenity": "post_box", "collection_times": "Mo-Fr 14:30; Sa 10:30", "indoor": "yes", "note": "ON 12/24 AND 12/31, THIS BOX MAY BE COLLECTED AS EARLY AS 12 NOON.", "nsi_id": "unitedstatespostalservice-a77078", "operator": "United States Postal Service", "operator:short": "USPS", "operator:type": "public", "operator:wikidata": "Q668687", "ref": "4970100004"}, "type": "Feature"}
{"geometry": {"coordinates": [-84.47824, 45.373688], "type": "Point"}, "id": "p3d-TpcjgzhVgxja1P7px2aHu-0=", "properties": {"@source_uri": "https://tools.usps.com/UspsToolsRestServices/rest/POLocator/findLocations", "@spider": "usps_collection_boxes", "addr:city": "AFTON", "addr:country": "US", "addr:postcode": "49705", "addr:state": "MI", "addr:street_address": "498 M 68 HWY", "amenity": "post_box", "collection_times": "Mo-Fr 11:45; Sa 09:45", "nsi_id": "unitedstatespostalservice-a77078", "operator": "United States Postal Service", "operator:short": "USPS", "operator:type": "public", "operator:wikidata": "Q668687", "ref": "4970500001"}, "type": "Feature"}
{"geometry": {"coordinates": [-84.47824, 45.373688], "type": "Point"}, "id": "hy3LQ3KZpeQn1hc72MwdmUHcO90=", "properties": {"@source_uri": "https://tools.usps.com/UspsToolsRestServices/rest/POLocator/findLocations", "@spider": "usps_collection_boxes", "addr:city": "AFTON", "addr:country": "US", "addr:postcode": "49705", "addr:state": "MI", "addr:street_address": "498 M 68 HWY", "amenity": "post_box", "collection_times": "Mo-Fr 11:45; Sa 09:45", "indoor": "yes", "nsi_id": "unitedstatespostalservice-a77078", "operator": "United States Postal Service", "operator:short": "USPS", "operator:type": "public", "operator:wikidata": "Q668687", "ref": "4970500002"}, "type": "Feature"}
{"geometry": {"coordinates": [-84.478244965, 45.373631401], "type": "Point"}, "id": "_-uWYE0sgJYqdSPG6hU9lpKnDL8=", "properties": {"@source_uri": "https://tools.usps.com/UspsToolsRestServices/rest/POLocator/findLocations", "@spider": "usps_collection_boxes", "addr:city": "AFTON", "addr:country": "US", "addr:postcode": "49705", "addr:state": "MI", "addr:street_address": "498 M 68 HWY", "amenity": "post_box", "collection_times": "Mo-Fr 11:30; Sa 09:15", "indoor": "yes", "nsi_id": "unitedstatespostalservice-a77078", "operator": "United States Postal Service", "operator:short": "USPS", "operator:type": "public", "operator:wikidata": "Q668687", "ref": "4970500003"}, "type": "Feature"}
{"geometry": {"coordinates": [-84.787818, 45.440835], "type": "Point"}, "id": "w8av4jv2hHi3tTvOV-pXLgYhS0A=", "properties": {"@source_uri": "https://tools.usps.com/UspsToolsRestServices/rest/POLocator/findLocations", "@spider": "usps_collection_boxes", "addr:city": "ALANSON", "addr:country": "US", "addr:postcode": "49706", "addr:state": "MI", "addr:street_address": "6263 RIVER ST", "amenity": "post_box", "collection_times": "Mo-Fr 15:25; Sa 10:00", "note": "ON 12/24 AND 12/31, THIS BOX MAY BE COLLECTED AS EARLY AS 12 NOON.", "nsi_id": "unitedstatespostalservice-a77078", "operator": "United States Postal Service", "operator:short": "USPS", "operator:type": "public", "operator:wikidata": "Q668687", "ref": "4970600001"}, "type": "Feature"}
{"geometry": {"coordinates": [-84.776867117, 45.442036792], "type": "Point"}, "id": "eSKKtzLLhx1PcxwEKh-ggjmLc_c=", "properties": {"@source_uri": "https://tools.usps.com/UspsToolsRestServices/rest/POLocator/findLocations", "@spider": "usps_collection_boxes", "addr:city": "ALANSON", "addr:country": "US", "addr:postcode": "49706", "addr:state": "MI", "addr:street_address": "6732 M 68", "amenity": "post_box", "collection_times": "Mo-Sa 11:00", "nsi_id": "unitedstatespostalservice-a77078", "operator": "United States Postal Service", "operator:short": "USPS", "operator:type": "public", "operator:wikidata": "Q668687", "ref": "4970600003"}, "type": "Feature"}
{"geometry": {"coordinates": [-84.7875269711, 45.4409949972], "type": "Point"}, "id": "3zPrn0nFIWal-3K09eQZY0SdX08=", "properties": {"@source_uri": "https://tools.usps.com/UspsToolsRestServices/rest/POLocator/findLocations", "@spider": "usps_collection_boxes", "addr:city": "ALANSON", "addr:country": "US", "addr:postcode": "49706", "addr:state": "MI", "addr:street_address": "6263 RIVER ST", "amenity": "post_box", "collection_times": "Mo-Fr 15:25; Sa 10:00", "indoor": "yes", "note": "ON 12/24 AND 12/31, THIS BOX MAY BE COLLECTED AS EARLY AS 12 NOON.", "nsi_id": "unitedstatespostalservice-a77078", "operator": "United States Postal Service", "operator:short": "USPS", "operator:type": "public", "operator:wikidata": "Q668687", "ref": "4970600004"}, "type": "Feature"}
{"geometry": {"coordinates": [-84.787819996, 45.44083497], "type": "Point"}, "id": "Xx_6xzZyhRL9lxQCAs8p7N3ip7I=", "properties": {"@source_uri": "https://tools.usps.com/UspsToolsRestServices/rest/POLocator/findLocations", "@spider": "usps_collection_boxes", "addr:city": "ALANSON", "addr:country": "US", "addr:postcode": "49706", "addr:state": "MI", "addr:street_address": "6263 RIVER ST", "amenity": "post_box", "collection_times": "Mo-Fr 16:15; Sa 10:45", "indoor": "yes", "note": "ON 12/24 AND 12/31, THIS BOX MAY BE COLLECTED AS EARLY AS 12 NOON.", "nsi_id": "unitedstatespostalservice-a77078", "operator": "United States Postal Service", "operator:short": "USPS", "operator:type": "public", "operator:wikidata": "Q668687", "ref": "4970600005"}, "type": "Feature"}
{"geometry": {"coordinates": [-83.43056, 45.063875], "type": "Point"}, "id": "iMIk_3MCrjJxY1_P3AbOYMaeQ_c=", "properties": {"@source_uri": "https://tools.usps.com/UspsToolsRestServices/rest/POLocator/findLocations", "@spider": "usps_collection_boxes", "addr:city": "ALPENA", "addr:country": "US", "addr:postcode": "49707", "addr:state": "MI", "addr:street_address": "350 N SECOND AVE", "amenity": "post_box", "collection_times": "Mo-Sa 15:05", "note": "ON 12/24 AND 12/31, THIS BOX MAY BE COLLECTED AS EARLY AS 12 NOON.", "nsi_id": "unitedstatespostalservice-a77078", "operator": "United States Postal Service", "operator:short": "USPS", "operator:type": "public", "operator:wikidata": "Q668687", "ref": "4970700001"}, "type": "Feature"}
{"geometry": {"coordinates": [-83.4417036, 45.068075], "type": "Point"}, "id": "5lADA-D0FSOdEsq6lW7ON2zSJLs=", "properties": {"@source_uri": "https://tools.usps.com/UspsToolsRestServices/rest/POLocator/findLocations", "@spider": "usps_collection_boxes", "addr:city": "ALPENA", "addr:country": "US", "addr:postcode": "49707", "addr:state": "MI", "addr:street_address": "720 W CHISHOLM ST", "amenity": "post_box", "collection_times": "Mo-Sa 14:00", "note": "ON 12/24 AND 12/31, THIS BOX MAY BE COLLECTED AS EARLY AS 12 NOON.", "nsi_id": "unitedstatespostalservice-a77078", "operator": "United States Postal Service", "operator:short": "USPS", "operator:type": "public", "operator:wikidata": "Q668687", "ref": "4970700007"}, "type": "Feature"}
{"geometry": {"coordinates": [-83.4401086, 45.06889], "type": "Point"}, "id": "vEkkgOitvpF5VHAK3B4YdQkpdC8=", "properties": {"@source_uri": "https://tools.usps.com/UspsToolsRestServices/rest/POLocator/findLocations", "@spider": "usps_collection_boxes", "addr:city": "ALPENA", "addr:country": "US", "addr:postcode": "49707", "addr:state": "MI", "addr:street_address": "719 W CHISHOLM ST", "amenity": "post_box", "collection_times": "Mo-Sa 08:30", "nsi_id": "unitedstatespostalservice-a77078", "operator": "United States Postal Service", "operator:short": "USPS", "operator:type": "public", "operator:wikidata": "Q668687", "ref": "4970700010"}, "type": "Feature"}
{"geometry": {"coordinates": [-83.4565757, 45.044545], "type": "Point"}, "id": "n4XxPrvefg8BNW2RSeEoE2DmX8g=", "properties": {"@source_uri": "https://tools.usps.com/UspsToolsRestServices/rest/POLocator/findLocations", "@spider": "usps_collection_boxes", "addr:city": "ALPENA", "addr:country": "US", "addr:postcode": "49707", "addr:state": "MI", "addr:street_address": "2236 US HIGHWAY 23 S", "amenity": "post_box", "collection_times": "Mo-Sa 08:30", "nsi_id": "unitedstatespostalservice-a77078", "operator": "United States Postal Service", "operator:short": "USPS", "operator:type": "public", "operator:wikidata": "Q668687", "ref": "4970700012"}, "type": "Feature"}
{"geometry": {"coordinates": [-83.451727, 45.058456], "type": "Point"}, "id": "mOb9fgYkILuYABsHC4ddf7izOkM=", "properties": {"@source_uri": "https://tools.usps.com/UspsToolsRestServices/rest/POLocator/findLocations", "@spider": "usps_collection_boxes", "addr:city": "ALPENA", "addr:country": "US", "addr:postcode": "49707", "addr:state": "MI", "addr:street_address": "458 W BALDWIN ST", "amenity": "post_box", "collection_times": "Mo-Sa 11:30", "nsi_id": "unitedstatespostalservice-a77078", "operator": "United States Postal Service", "operator:short": "USPS", "operator:type": "public", "operator:wikidata": "Q668687", "ref": "4970700013"}, "type": "Feature"}
{"geometry": {"coordinates": [-83.4537599, 45.043972], "type": "Point"}, "id": "s-V0M0wbtSzEYEHqnsHegjCwrVo=", "properties": {"@source_uri": "https://tools.usps.com/UspsToolsRestServices/rest/POLocator/findLocations", "@spider": "usps_collection_boxes", "addr:city": "ALPENA", "addr:country": "US", "addr:postcode": "49707", "addr:state": "MI", "addr:street_address": "2205 US HIGHWAY 23 S", "amenity": "post_box", "collection_times": "Mo-Sa 09:30", "nsi_id": "unitedstatespostalservice-a77078", "operator": "United States Postal Service", "operator:short": "USPS", "operator:type": "public", "operator:wikidata": "Q668687", "ref": "4970700014"}, "type": "Feature"}
{"geometry": {"coordinates": [-83.4337500313, 45.0617570035], "type": "Point"}, "id": "cWW3AJXZQlO-Lm-ZzLOQmQFiGDE=", "properties": {"@source_uri": "https://tools.usps.com/UspsToolsRestServices/rest/POLocator/findLocations", "@spider": "usps_collection_boxes", "addr:city": "ALPENA", "addr:country": "US", "addr:postcode": "49707", "addr:state": "MI", "addr:street_address": "100 S SECOND AVE", "amenity": "post_box", "collection_times": "Mo-Sa 08:00", "nsi_id": "unitedstatespostalservice-a77078", "operator": "United States Postal Service", "operator:short": "USPS", "operator:type": "public", "operator:wikidata": "Q668687", "ref": "4970700022"}, "type": "Feature"}
{"geometry": {"coordinates": [-83.4770717, 45.063496], "type": "Point"}, "id": "VgpnOCDKvygoWraNf1p90HsSkvM=", "properties": {"@source_uri": "https://tools.usps.com/UspsToolsRestServices/rest/POLocator/findLocations", "@spider": "usps_collection_boxes", "addr:city": "ALPENA", "addr:country": "US", "addr:postcode": "49707", "addr:state": "MI", "addr:street_address": "1180 M 32 W", "amenity": "post_box", "collection_times": "Mo-Sa 09:00", "nsi_id": "unitedstatespostalservice-a77078", "operator": "United States Postal Service", "operator:short": "USPS", "operator:type": "public", "operator:wikidata": "Q668687", "ref": "4970700037"}, "type": "Feature"}
{"geometry": {"coordinates": [-83.4308045167, 45.0620847721], "type": "Point"}, "id": "Jcv-WoOqBCpCpwiqJuIfXudyrxk=", "properties": {"@source_uri": "https://tools.usps.com/UspsToolsRestServices/rest/POLocator/findLocations", "@spider": "usps_collection_boxes", "addr:city": "ALPENA", "addr:country": "US", "addr:postcode": "49707", "addr:state": "MI", "addr:street_address": "208 N FIRST AVE", "amenity": "post_box", "collection_times": "Mo-Sa 09:00", "nsi_id": "unitedstatespostalservice-a77078", "operator": "United States Postal Service", "operator:short": "USPS", "operator:type": "public", "operator:wikidata": "Q668687", "ref": "4970700046"}, "type": "Feature"}
{"geometry": {"coordinates": [-83.4716772, 45.059446], "type": "Point"}, "id": "UH1jOb-Bqeigxj9w1AqV596uSEc=", "properties": {"@source_uri": "https://tools.usps.com/UspsToolsRestServices/rest/POLocator/findLocations", "@spider": "usps_collection_boxes", "addr:city": "ALPENA", "addr:country": "US", "addr:postcode": "49707", "addr:state": "MI", "addr:street_address": "1100 S BAGLEY ST", "amenity": "post_box", "collection_times": "Mo-Sa 09:00", "nsi_id": "unitedstatespostalservice-a77078", "operator": "United States Postal Service", "operator:short": "USPS", "operator:type": "public", "operator:wikidata": "Q668687", "ref": "4970700047"}, "type": "Feature"}
{"geometry": {"coordinates": [-83.4724994, 45.078142], "type": "Point"}, "id": "tz6epoVbPT4DEFgABfA4OLyd_v4=", "properties": {"@source_uri": "https://tools.usps.com/UspsToolsRestServices/rest/POLocator/findLocations", "@spider": "usps_collection_boxes", "addr:city": "ALPENA", "addr:country": "US", "addr:postcode": "49707", "addr:state": "MI", "addr:street_address": "999 LONG RAPIDS RD", "amenity": "post_box", "collection_times": "Mo-Sa 11:00", "nsi_id": "unitedstatespostalservice-a77078", "operator": "United States Postal Service", "operator:short": "USPS", "operator:type": "public", "operator:wikidata": "Q668687", "ref": "4970700048"}, "type": "Feature"}
{"geometry": {"coordinates": [-83.4350052, 45.063491], "type": "Point"}, "id": "jebvi2jElqKg6KdI95bQUewG9HE=", "properties": {"@source_uri": "https://tools.usps.com/UspsToolsRestServices/rest/POLocator/findLocations", "@spider": "usps_collection_boxes", "addr:city": "ALPENA", "addr:country": "US", "addr:postcode": "49707", "addr:state": "MI", "addr:street_address": "200 W CHISHOLM ST", "amenity": "post_box", "collection_times": "Mo-Sa 08:30", "nsi_id": "unitedstatespostalservice-a77078", "operator": "United States Postal Service", "operator:short": "USPS", "operator:type": "public", "operator:wikidata": "Q668687", "ref": "4970700051"}, "type": "Feature"}
{"geometry": {"coordinates": [-83.429956, 45.064254], "type": "Point"}, "id": "M-hQjJhAMsBUNry6cqcGBn72cZQ=", "properties": {"@source_uri": "https://tools.usps.com/UspsToolsRestServices/rest/POLocator/findLocations", "@spider": "usps_collection_boxes", "addr:city": "ALPENA", "addr:country": "US", "addr:postcode": "49707", "addr:state": "MI", "addr:street_address": "350 N SECOND AVE", "amenity": "post_box", "collection_times": "Mo-Sa 15:05", "indoor": "yes", "note": "ON 12/24 AND 12/31, THIS BOX MAY BE COLLECTED AS EARLY AS 12 NOON.", "nsi_id": "unitedstatespostalservice-a77078", "operator": "United States Postal Service", "operator:short": "USPS", "operator:type": "public", "operator:wikidata": "Q668687", "ref": "4970700057"}, "type": "Feature"}
{"geometry": {"coordinates": [-83.4564976, 45.08547], "type": "Point"}, "id": "5YuJhL6Be679EE6_WbDjL6FaqDk=", "properties": {"@source_uri": "https://tools.usps.com/UspsToolsRestServices/rest/POLocator/findLocations", "@spider": "usps_collection_boxes", "addr:city": "ALPENA", "addr:country": "US", "addr:postcode": "49707", "addr:state": "MI", "addr:street_address": "1025 US HIGHWAY 23 N", "amenity": "post_box", "collection_times": "Mo-Sa 09:00", "nsi_id": "unitedstatespostalservice-a77078", "operator": "United States Postal Service", "operator:short": "USPS", "operator:type": "public", "operator:wikidata": "Q668687", "ref": "4970700063"}, "type": "Feature"}
{"geometry": {"coordinates": [-84.140275, 45.004444], "type": "Point"}, "id": "KLW7h4E4ejjXONoS_1PwxT56aJI=", "properties": {"@source_uri": "https://tools.usps.com/UspsToolsRestServices/rest/POLocator/findLocations", "@spider": "usps_collection_boxes", "addr:city": "ATLANTA", "addr:country": "US", "addr:postcode": "49709", "addr:state": "MI", "addr:street_address": "12606 STATE ST", "amenity": "post_box", "collection_times": "Mo-Fr 15:20; Sa 11:00", "note": "ON 12/24 AND 12/31, THIS BOX MAY BE COLLECTED AS EARLY AS 12 NOON.", "nsi_id": "unitedstatespostalservice-a77078", "operator": "United States Postal Service", "operator:short": "USPS", "operator:type": "public", "operator:wikidata": "Q668687", "ref": "4970900002"}, "type": "Feature"}
{"geometry": {"coordinates": [-84.140275, 45.004444], "type": "Point"}, "id": "hqadQtRc_LXB0olUF5AXqp08-Bk=", "properties": {"@source_uri": "https://tools.usps.com/UspsToolsRestServices/rest/POLocator/findLocations", "@spider": "usps_collection_boxes", "addr:city": "ATLANTA", "addr:country": "US", "addr:postcode": "49709", "addr:state": "MI", "addr:street_address": "12606 STATE ST", "amenity": "post_box", "collection_times": "Mo-Fr 15:20; Sa 11:00", "indoor": "yes", "note": "ON 12/24 AND 12/31, THIS BOX MAY BE COLLECTED AS EARLY AS 12 NOON.", "nsi_id": "unitedstatespostalservice-a77078", "operator": "United States Postal Service", "operator:short": "USPS", "operator:type": "public", "operator:wikidata": "Q668687", "ref": "4970900004"}, "type": "Feature"}
{"geometry": {"coordinates": [-84.140265989, 45.004444897], "type": "Point"}, "id": "C28HyExzZkabbk_1KG-eF01Ifgo=", "properties": {"@source_uri": "https://tools.usps.com/UspsToolsRestServices/rest/POLocator/findLocations", "@spider": "usps_collection_boxes", "addr:city": "ATLANTA", "addr:country": "US", "addr:postcode": "49709", "addr:state": "MI", "addr:street_address": "12606 STATE ST", "amenity": "post_box", "collection_times": "Mo-Fr 15:45; Sa 10:45", "indoor": "yes", "note": "ON 12/24 AND 12/31, THIS BOX MAY BE COLLECTED AS EARLY AS 12 NOON.", "nsi_id": "unitedstatespostalservice-a77078", "operator": "United States Postal Service", "operator:short": "USPS", "operator:type": "public", "operator:wikidata": "Q668687", "ref": "4970900005"}, "type": "Feature"}
{"geometry": {"coordinates": [-84.182127776, 46.267649599], "type": "Point"}, "id": "8vQw94lSpfkbPkVm4A-KDkaedkY=", "properties": {"@source_uri": "https://tools.usps.com/UspsToolsRestServices/rest/POLocator/findLocations", "@spider": "usps_collection_boxes", "addr:city": "BARBEAU", "addr:country": "US", "addr:postcode": "49710", "addr:state": "MI", "addr:street_address": "15005 S RIVERSIDE DR", "amenity": "post_box", "collection_times": "Mo-Fr 12:50; Sa 10:30", "note": "ON 12/24 AND 12/31, THIS BOX MAY BE COLLECTED AS EARLY AS 12 NOON.", "nsi_id": "unitedstatespostalservice-a77078", "operator": "United States Postal Service", "operator:short": "USPS", "operator:type": "public", "operator:wikidata": "Q668687", "ref": "4971000001"}, "type": "Feature"}
{"geometry": {"coordinates": [-84.182127776, 46.267649599], "type": "Point"}, "id": "pVg8Y-e1gzqR9ZXbbpcMH-Epun4=", "properties": {"@source_uri": "https://tools.usps.com/UspsToolsRestServices/rest/POLocator/findLocations", "@spider": "usps_collection_boxes", "addr:city": "BARBEAU", "addr:country": "US", "addr:postcode": "49710", "addr:state": "MI", "addr:street_address": "15005 S RIVERSIDE DR", "amenity": "post_box", "collection_times": "Mo-Fr 12:50; Sa 10:30", "indoor": "yes", "note": "ON 12/24 AND 12/31, THIS BOX MAY BE COLLECTED AS EARLY AS 12 NOON.", "nsi_id": "unitedstatespostalservice-a77078", "operator": "United States Postal Service", "operator:short": "USPS", "operator:type": "public", "operator:wikidata": "Q668687", "ref": "4971000003"}, "type": "Feature"}
{"geometry": {"coordinates": [-84.15715, 46.276268182], "type": "Point"}, "id": "yPAVOyPox1v5hDvzPX4_pC-yU7w=", "properties": {"@source_uri": "https://tools.usps.com/UspsToolsRestServices/rest/POLocator/findLocations", "@spider": "usps_collection_boxes", "addr:city": "BARBEAU", "addr:country": "US", "addr:postcode": "49710", "addr:state": "MI", "addr:street_address": "15005 S RIVERSIDE DR", "amenity": "post_box", "collection_times": "Mo-Fr 12:30; Sa 10:00", "indoor": "yes", "note": "ON 12/24 AND 12/31, THIS BOX MAY BE COLLECTED AS EARLY AS 12 NOON.", "nsi_id": "unitedstatespostalservice-a77078", "operator": "United States Postal Service", "operator:short": "USPS", "operator:type": "public", "operator:wikidata": "Q668687", "ref": "4971000004"}, "type": "Feature"}
{"geometry": {"coordinates": [-85.011282472, 45.213596453], "type": "Point"}, "id": "2kGnqtRfhUWMfQldRNhb5LRR0Fc=", "properties": {"@source_uri": "https://tools.usps.com/UspsToolsRestServices/rest/POLocator/findLocations", "@spider": "usps_collection_boxes", "addr:city": "BOYNE CITY", "addr:country": "US", "addr:postcode": "49712", "addr:state": "MI", "addr:street_address": "301 WATER ST", "amenity": "post_box", "collection_times": "Mo-Fr 16:00; Sa 15:00", "note": "ON 12/24 AND 12/31, THIS BOX MAY BE COLLECTED AS EARLY AS 12 NOON.", "nsi_id": "unitedstatespostalservice-a77078", "operator": "United States Postal Service", "operator:short": "USPS", "operator:type": "public", "operator:wikidata": "Q668687", "ref": "4971200001"}, "type": "Feature"}
{"geometry": {"coordinates": [-85.0148269, 45.220275], "type": "Point"}, "id": "yPim3astmgCe4pEojzZ19ymnnRM=", "properties": {"@source_uri": "https://tools.usps.com/UspsToolsRestServices/rest/POLocator/findLocations", "@spider": "usps_collection_boxes", "addr:city": "BOYNE CITY", "addr:country": "US", "addr:postcode": "49712", "addr:state": "MI", "addr:street_address": "430 N LAKE ST", "amenity": "post_box", "collection_times": "Mo-Sa 11:30", "nsi_id": "unitedstatespostalservice-a77078", "operator": "United States Postal Service", "operator:short": "USPS", "operator:type": "public", "operator:wikidata": "Q668687", "ref": "4971200005"}, "type": "Feature"}
{"geometry": {"coordinates": [-85.0148539, 45.21206], "type": "Point"}, "id": "s7GWeI_SRKGtyA0lYz-xvfJmCLU=", "properties": {"@source_uri": "https://tools.usps.com/UspsToolsRestServices/rest/POLocator/findLocations", "@spider": "usps_collection_boxes", "addr:city": "BOYNE CITY", "addr:country": "US", "addr:postcode": "49712", "addr:state": "MI", "addr:street_address": "219 S LAKE ST", "amenity": "post_box", "collection_times": "Mo-Sa 14:00", "note": "ON 12/24 AND 12/31, THIS BOX MAY BE COLLECTED AS EARLY AS 12 NOON.", "nsi_id": "unitedstatespostalservice-a77078", "operator": "United States Postal Service", "operator:short": "USPS", "operator:type": "public", "operator:wikidata": "Q668687", "ref": "4971200007"}, "type": "Feature"}
{"geometry": {"coordinates": [-85.011282472, 45.213596453], "type": "Point"}, "id": "4yGWi8YRCjBmYB1RyS26bVgwquU=", "properties": {"@source_uri": "https://tools.usps.com/UspsToolsRestServices/rest/POLocator/findLocations", "@spider": "usps_collection_boxes", "addr:city": "BOYNE CITY", "addr:country": "US", "addr:postcode": "49712", "addr:state": "MI", "addr:street_address": "301 WATER ST", "amenity": "post_box", "collection_times": "Mo-Fr 16:00; Sa 15:00", "note": "ON 12/24 AND 12/31, THIS BOX MAY BE COLLECTED AS EARLY AS 12 NOON.", "nsi_id": "unitedstatespostalservice-a77078", "operator": "United States Postal Service", "operator:short": "USPS", "operator:type": "public", "operator:wikidata": "Q668687", "ref": "4971200008"}, "type": "Feature"}
{"geometry": {"coordinates": [-85.011282472, 45.213596453], "type": "Point"}, "id": "rNqLKTyBk4F50kM0p4pbcrwHZgw=", "properties": {"@source_uri": "https://tools.usps.com/UspsToolsRestServices/rest/POLocator/findLocations", "@spider": "usps_collection_boxes", "addr:city": "BOYNE CITY", "addr:country": "US", "addr:postcode": "49712", "addr:state": "MI", "addr:street_address": "301 WATER ST", "amenity": "post_box", "collection_times": "Mo-Fr 16:00; Sa 15:00", "indoor": "yes", "note": "ON 12/24 AND 12/31, THIS BOX MAY BE COLLECTED AS EARLY AS 12 NOON.", "nsi_id": "unitedstatespostalservice-a77078", "operator": "United States Postal Service", "operator:short": "USPS", "operator:type": "public", "operator:wikidata": "Q668687", "ref": "4971200009"}, "type": "Feature"}
{"geometry": {"coordinates": [-85.0146149, 45.213546], "type": "Point"}, "id": "tTzjWaTScpiDawYQ-Uq3-5D2JmI=", "properties": {"@source_uri": "https://tools.usps.com/UspsToolsRestServices/rest/POLocator/findLocations", "@spider": "usps_collection_boxes", "addr:city": "BOYNE CITY", "addr:country": "US", "addr:postcode": "49712", "addr:state": "MI", "addr:street_address": "102 WATER ST", "amenity": "post_box", "collection_times": "Mo-Sa 14:00", "note": "ON 12/24 AND 12/31, THIS BOX MAY BE COLLECTED AS EARLY AS 12 NOON.", "nsi_id": "unitedstatespostalservice-a77078", "operator": "United States Postal Service", "operator:short": "USPS", "operator:type": "public", "operator:wikidata": "Q668687", "ref": "4971200010"}, "type": "Feature"}
{"geometry": {"coordinates": [-85.011282472, 45.213596453], "type": "Point"}, "id": "rYQrsm-1dfa9Iv_MiP38pLxUC8A=", "properties": {"@source_uri": "https://tools.usps.com/UspsToolsRestServices/rest/POLocator/findLocations", "@spider": "usps_collection_boxes", "addr:city": "BOYNE CITY", "addr:country": "US", "addr:postcode": "49712", "addr:state": "MI", "addr:street_address": "301 WATER ST", "amenity": "post_box", "collection_times": "Mo-Fr 16:00; Sa 12:00", "indoor": "yes", "note": "ON 12/24 AND 12/31, THIS BOX MAY BE COLLECTED AS EARLY AS 12 NOON.", "nsi_id": "unitedstatespostalservice-a77078", "operator": "United States Postal Service", "operator:short": "USPS", "operator:type": "public", "operator:wikidata": "Q668687", "ref": "4971200011"}, "type": "Feature"}
{"geometry": {"coordinates": [-84.914493885, 45.167253114], "type": "Point"}, "id": "Phu5RlL7N4G34bY8vk0HhubDCx8=", "properties": {"@source_uri": "https://tools.usps.com/UspsToolsRestServices/rest/POLocator/findLocations", "@spider": "usps_collection_boxes", "addr:city": "BOYNE FALLS", "addr:country": "US", "addr:postcode": "49713", "addr:state": "MI", "addr:street_address": "2543 CENTER ST", "amenity": "post_box", "collection_times": "Mo-Fr 15:00; Sa 11:00", "note": "ON 12/24 AND 12/31, THIS BOX MAY BE COLLECTED AS EARLY AS 12 NOON.", "nsi_id": "unitedstatespostalservice-a77078", "operator": "United States Postal Service", "operator:short": "USPS", "operator:type": "public", "operator:wikidata": "Q668687", "ref": "4971300001"}, "type": "Feature"}
{"geometry": {"coordinates": [-84.914493885, 45.167253114], "type": "Point"}, "id": "yUO9ivef_RQUTupntKMaheVoQUM=", "properties": {"@source_uri": "https://tools.usps.com/UspsToolsRestServices/rest/POLocator/findLocations", "@spider": "usps_collection_boxes", "addr:city": "BOYNE FALLS", "addr:country": "US", "addr:postcode": "49713", "addr:state": "MI", "addr:street_address": "2543 CENTER ST", "amenity": "post_box", "collection_times": "Mo-Fr 15:00; Sa 11:00", "indoor": "yes", "note": "ON 12/24 AND 12/31, THIS BOX MAY BE COLLECTED AS EARLY AS 12 NOON.", "nsi_id": "unitedstatespostalservice-a77078", "operator": "United States Postal Service", "operator:short": "USPS", "operator:type": "public", "operator:wikidata": "Q668687", "ref": "4971300002"}, "type": "Feature"}
{"geometry": {"coordinates": [-84.914493885, 45.167253114], "type": "Point"}, "id": "xU0iUCedbYx6HqAkuj6lmolrjsQ=", "properties": {"@source_uri": "https://tools.usps.com/UspsToolsRestServices/rest/POLocator/findLocations", "@spider": "usps_collection_boxes", "addr:city": "BOYNE FALLS", "addr:country": "US", "addr:postcode": "49713", "addr:state": "MI", "addr:street_address": "2543 CENTER ST", "amenity": "post_box", "collection_times": "Mo-Fr 15:00; Sa 10:30", "indoor": "yes", "note": "ON 12/24 AND 12/31, THIS BOX MAY BE COLLECTED AS EARLY AS 12 NOON.", "nsi_id": "unitedstatespostalservice-a77078", "operator": "United States Postal Service", "operator:short": "USPS", "operator:type": "public", "operator:wikidata": "Q668687", "ref": "4971300003"}, "type": "Feature"}
{"geometry": {"coordinates": [-84.572238, 46.404417], "type": "Point"}, "id": "qSF2F8Ro2BmhGCpWURKop4kIQ4Q=", "properties": {"@source_uri": "https://tools.usps.com/UspsToolsRestServices/rest/POLocator/findLocations", "@spider": "usps_collection_boxes", "addr:city": "BRIMLEY", "addr:country": "US", "addr:postcode": "49715", "addr:state": "MI", "addr:street_address": "6981 S M 221", "amenity": "post_box", "collection_times": "Mo-Fr 13:55; Sa 10:00", "note": "ON 12/24 AND 12/31, THIS BOX MAY BE COLLECTED AS EARLY AS 12 NOON.", "nsi_id": "unitedstatespostalservice-a77078", "operator": "United States Postal Service", "operator:short": "USPS", "operator:type": "public", "operator:wikidata": "Q668687", "ref": "4971500001"}, "type": "Feature"}
{"geometry": {"coordinates": [-84.572238, 46.404417], "type": "Point"}, "id": "J59oZsq75wFBdA8x9FndHtC0sq8=", "properties": {"@source_uri": "https://tools.usps.com/UspsToolsRestServices/rest/POLocator/findLocations", "@spider": "usps_collection_boxes", "addr:city": "BRIMLEY", "addr:country": "US", "addr:postcode": "49715", "addr:state": "MI", "addr:street_address": "6981 S M 221", "amenity": "post_box", "collection_times": "Mo-Fr 13:55; Sa 10:00", "indoor": "yes", "note": "ON 12/24 AND 12/31, THIS BOX MAY BE COLLECTED AS EARLY AS 12 NOON.", "nsi_id": "unitedstatespostalservice-a77078", "operator": "United States Postal Service", "operator:short": "USPS", "operator:type": "public", "operator:wikidata": "Q668687", "ref": "4971500002"}, "type": "Feature"}
{"geometry": {"coordinates": [-84.572221828, 46.404455947], "type": "Point"}, "id": "FuC8z63HIb_9Frn5zT-q_d88Iss=", "properties": {"@source_uri": "https://tools.usps.com/UspsToolsRestServices/rest/POLocator/findLocations", "@spider": "usps_collection_boxes", "addr:city": "BRIMLEY", "addr:country": "US", "addr:postcode": "49715", "addr:state": "MI", "addr:street_address": "6981 S M 221", "amenity": "post_box", "collection_times": "Mo-Fr 13:45; Sa 10:30", "indoor": "yes", "note": "ON 12/24 AND 12/31, THIS BOX MAY BE COLLECTED AS EARLY AS 12 NOON.", "nsi_id": "unitedstatespostalservice-a77078", "operator": "United States Postal Service", "operator:short": "USPS", "operator:type": "public", "operator:wikidata": "Q668687", "ref": "4971500003"}, "type": "Feature"}
{"geometry": {"coordinates": [-84.7811708, 45.493776], "type": "Point"}, "id": "S1stxL0docP9-5LBR0FxqE_y9UQ=", "properties": {"@source_uri": "https://tools.usps.com/UspsToolsRestServices/rest/POLocator/findLocations", "@spider": "usps_collection_boxes", "addr:city": "BRUTUS", "addr:country": "US", "addr:postcode": "49716", "addr:state": "MI", "addr:street_address": "3989 US HIGHWAY 31", "amenity": "post_box", "collection_times": "Mo-Fr 13:00; Sa 10:00", "note": "ON 12/24 AND 12/31, THIS BOX MAY BE COLLECTED AS EARLY AS 12 NOON.", "nsi_id": "unitedstatespostalservice-a77078", "operator": "United States Postal Service", "operator:short": "USPS", "operator:type": "public", "operator:wikidata": "Q668687", "ref": "4971600002"}, "type": "Feature"}
{"geometry": {"coordinates": [-84.3044444, 45.3555456], "type": "Point"}, "id": "fN28-L7PMtbR-AihbH3p0bV735w=", "properties": {"@source_uri": "https://tools.usps.com/UspsToolsRestServices/rest/POLocator/findLocations", "@spider": "usps_collection_boxes", "addr:city": "BURT LAKE", "addr:country": "US", "addr:postcode": "49717", "addr:state": "MI", "addr:street_address": "10501 E WEST RESORT RD", "amenity": "post_box", "collection_times": "Mo-Fr 13:00; Sa 10:00", "note": "ON 12/24 AND 12/31, THIS BOX MAY BE COLLECTED AS EARLY AS 12 NOON.", "nsi_id": "unitedstatespostalservice-a77078", "operator": "United States Postal Service", "operator:short": "USPS", "operator:type": "public", "operator:wikidata": "Q668687", "ref": "4971700001"}, "type": "Feature"}
{"geometry": {"coordinates": [-84.3044444, 45.3555456], "type": "Point"}, "id": "YX2cjYIwF8NTsJbQwNrpGHrXt9E=", "properties": {"@source_uri": "https://tools.usps.com/UspsToolsRestServices/rest/POLocator/findLocations", "@spider": "usps_collection_boxes", "addr:city": "BURT LAKE", "addr:country": "US", "addr:postcode": "49717", "addr:state": "MI", "addr:street_address": "10501 E WEST RESORT RD", "amenity": "post_box", "collection_times": "Mo-Fr 13:00; Sa 10:00", "indoor": "yes", "note": "ON 12/24 AND 12/31, THIS BOX MAY BE COLLECTED AS EARLY AS 12 NOON.", "nsi_id": "unitedstatespostalservice-a77078", "operator": "United States Postal Service", "operator:short": "USPS", "operator:type": "public", "operator:wikidata": "Q668687", "ref": "4971700002"}, "type": "Feature"}
{"geometry": {"coordinates": [-84.3044444, 45.3555456], "type": "Point"}, "id": "7qjM3-FulgFbHb8NYicV4FrwWaQ=", "properties": {"@source_uri": "https://tools.usps.com/UspsToolsRestServices/rest/POLocator/findLocations", "@spider": "usps_collection_boxes", "addr:city": "BURT LAKE", "addr:country": "US", "addr:postcode": "49717", "addr:state": "MI", "addr:street_address": "10501 E WEST RESORT RD", "amenity": "post_box", "collection_times": "Mo-Fr 12:30; Sa 10:30", "indoor": "yes", "note": "ON 12/24 AND 12/31, THIS BOX MAY BE COLLECTED AS EARLY AS 12 NOON.", "nsi_id": "unitedstatespostalservice-a77078", "operator": "United States Postal Service", "operator:short": "USPS", "operator:type": "public", "operator:wikidata": "Q668687", "ref": "4971700003"}, "type": "Feature"}
{"geometry": {"coordinates": [-84.77915, 45.694637], "type": "Point"}, "id": "Egt6ZB5uVuDMRvsHQFIySdyNAX8=", "properties": {"@source_uri": "https://tools.usps.com/UspsToolsRestServices/rest/POLocator/findLocations", "@spider": "usps_collection_boxes", "addr:city": "CARP LAKE", "addr:country": "US", "addr:postcode": "49718", "addr:state": "MI", "addr:street_address": "6496 PARADISE TRL", "amenity": "post_box", "collection_times": "Mo-Fr 14:25; Sa 10:00", "note": "ON 12/24 AND 12/31, THIS BOX MAY BE COLLECTED AS EARLY AS 12 NOON.", "nsi_id": "unitedstatespostalservice-a77078", "operator": "United States Postal Service", "operator:short": "USPS", "operator:type": "public", "operator:wikidata": "Q668687", "ref": "4971800002"}, "type": "Feature"}
{"geometry": {"coordinates": [-84.77915, 45.694637], "type": "Point"}, "id": "EPLfZCStZ6pgwgGq9c70-CxH0VU=", "properties": {"@source_uri": "https://tools.usps.com/UspsToolsRestServices/rest/POLocator/findLocations", "@spider": "usps_collection_boxes", "addr:city": "CARP LAKE", "addr:country": "US", "addr:postcode": "49718", "addr:state": "MI", "addr:street_address": "6496 PARADISE TRL", "amenity": "post_box", "collection_times": "Mo-Fr 14:25; Sa 10:00", "indoor": "yes", "note": "ON 12/24 AND 12/31, THIS BOX MAY BE COLLECTED AS EARLY AS 12 NOON.", "nsi_id": "unitedstatespostalservice-a77078", "operator": "United States Postal Service", "operator:short": "USPS", "operator:type": "public", "operator:wikidata": "Q668687", "ref": "4971800005"}, "type": "Feature"}
{"geometry": {"coordinates": [-84.779123314, 45.694628624], "type": "Point"}, "id": "qkfB19w2WTeWBnJqVOigLSuvYaQ=", "properties": {"@source_uri": "https://tools.usps.com/UspsToolsRestServices/rest/POLocator/findLocations", "@spider": "usps_collection_boxes", "addr:city": "CARP LAKE", "addr:country": "US", "addr:postcode": "49718", "addr:state": "MI", "addr:street_address": "6496 PARADISE TRL", "amenity": "post_box", "collection_times": "Mo-Fr 15:30; Sa 10:30", "indoor": "yes", "note": "ON 12/24 AND 12/31, THIS BOX MAY BE COLLECTED AS EARLY AS 12 NOON.", "nsi_id": "unitedstatespostalservice-a77078", "operator": "United States Postal Service", "operator:short": "USPS", "operator:type": "public", "operator:wikidata": "Q668687", "ref": "4971800006"}, "type": "Feature"}
{"geometry": {"coordinates": [-84.357858246, 45.997475814], "type": "Point"}, "id": "ESN-R-4EygMllsw5z99XAD3FH8Q=", "properties": {"@source_uri": "https://tools.usps.com/UspsToolsRestServices/rest/POLocator/findLocations", "@spider": "usps_collection_boxes", "addr:city": "CEDARVILLE", "addr:country": "US", "addr:postcode": "49719", "addr:state": "MI", "addr:street_address": "124 BEACH ST", "amenity": "post_box", "collection_times": "Mo-Fr 13:55; Sa 10:00", "note": "ON 12/24 AND 12/31, THIS BOX MAY BE COLLECTED AS EARLY AS 12 NOON.", "nsi_id": "unitedstatespostalservice-a77078", "operator": "United States Postal Service", "operator:short": "USPS", "operator:type": "public", "operator:wikidata": "Q668687", "ref": "4971900002"}, "type": "Feature"}
{"geometry": {"coordinates": [-84.357858246, 45.997475814], "type": "Point"}, "id": "Jkg4UrxiArKV56rutkuPXV4UZos=", "properties": {"@source_uri": "https://tools.usps.com/UspsToolsRestServices/rest/POLocator/findLocations", "@spider": "usps_collection_boxes", "addr:city": "CEDARVILLE", "addr:country": "US", "addr:postcode": "49719", "addr:state": "MI", "addr:street_address": "124 BEACH ST", "amenity": "post_box", "collection_times": "Mo-Fr 13:55; Sa 10:00", "indoor": "yes", "note": "ON 12/24 AND 12/31, THIS BOX MAY BE COLLECTED AS EARLY AS 12 NOON.", "nsi_id": "unitedstatespostalservice-a77078", "operator": "United States Postal Service", "operator:short": "USPS", "operator:type": "public", "operator:wikidata": "Q668687", "ref": "4971900004"}, "type": "Feature"}
{"geometry": {"coordinates": [-84.357858246, 45.997475814], "type": "Point"}, "id": "wzY9k21oIlRkcDo-y3DUdQIBUTY=", "properties": {"@source_uri": "https://tools.usps.com/UspsToolsRestServices/rest/POLocator/findLocations", "@spider": "usps_collection_boxes", "addr:city": "CEDARVILLE", "addr:country": "US", "addr:postcode": "49719", "addr:state": "MI", "addr:street_address": "124 BEACH ST", "amenity": "post_box", "collection_times": "Mo-Fr 13:00; Sa 10:30", "indoor": "yes", "note": "ON 12/24 AND 12/31, THIS BOX MAY BE COLLECTED AS EARLY AS 12 NOON.", "nsi_id": "unitedstatespostalservice-a77078", "operator": "United States Postal Service", "operator:short": "USPS", "operator:type": "public", "operator:wikidata": "Q668687", "ref": "4971900005"}, "type": "Feature"}
{"geometry": {"coordinates": [-85.2585569, 45.31303], "type": "Point"}, "id": "FjoIWXM7TYrygfNMdrJgFeiikIo=", "properties": {"@source_uri": "https://tools.usps.com/UspsToolsRestServices/rest/POLocator/findLocations", "@spider": "usps_collection_boxes", "addr:city": "CHARLEVOIX", "addr:country": "US", "addr:postcode": "49720", "addr:state": "MI", "addr:street_address": "802 BRIDGE ST", "amenity": "post_box", "collection_times": "Mo-Fr 13:00; Sa 11:30", "note": "ON 12/24 AND 12/31, THIS BOX MAY BE COLLECTED AS EARLY AS 12 NOON.", "nsi_id": "unitedstatespostalservice-a77078", "operator": "United States Postal Service", "operator:short": "USPS", "operator:type": "public", "operator:wikidata": "Q668687", "ref": "4972000003"}, "type": "Feature"}
{"geometry": {"coordinates": [-85.259592, 45.314928], "type": "Point"}, "id": "C3D6QInVyC7i-UQAkEzQ9Cl_VPo=", "properties": {"@source_uri": "https://tools.usps.com/UspsToolsRestServices/rest/POLocator/findLocations", "@spider": "usps_collection_boxes", "addr:city": "CHARLEVOIX", "addr:country": "US", "addr:postcode": "49720", "addr:state": "MI", "addr:street_address": "112 ANTRIM ST", "amenity": "post_box", "collection_times": "Mo-Fr 13:00; Sa 11:30", "note": "ON 12/24 AND 12/31, THIS BOX MAY BE COLLECTED AS EARLY AS 12 NOON.", "nsi_id": "unitedstatespostalservice-a77078", "operator": "United States Postal Service", "operator:short": "USPS", "operator:type": "public", "operator:wikidata": "Q668687", "ref": "4972000004"}, "type": "Feature"}
{"geometry": {"coordinates": [-85.256335, 45.299625], "type": "Point"}, "id": "rYdUEcU5dlyI21eA8cxPIqxgCuc=", "properties": {"@source_uri": "https://tools.usps.com/UspsToolsRestServices/rest/POLocator/findLocations", "@spider": "usps_collection_boxes", "addr:city": "CHARLEVOIX", "addr:country": "US", "addr:postcode": "49720", "addr:state": "MI", "addr:street_address": "6700 M 66 N", "amenity": "post_box", "collection_times": "Mo-Fr 17:00; Sa 16:00", "note": "ON 12/24 AND 12/31, THIS BOX MAY BE COLLECTED AS EARLY AS 12 NOON.", "nsi_id": "unitedstatespostalservice-a77078", "operator": "United States Postal Service", "operator:short": "USPS", "operator:type": "public", "operator:wikidata": "Q668687", "ref": "4972000009"}, "type": "Feature"}
{"geometry": {"coordinates": [-85.2600231932, 45.3160055043], "type": "Point"}, "id": "bnefOaomUNyUw0-us51-FzaSNIc=", "properties": {"@source_uri": "https://tools.usps.com/UspsToolsRestServices/rest/POLocator/findLocations", "@spider": "usps_collection_boxes", "addr:city": "CHARLEVOIX", "addr:country": "US", "addr:postcode": "49720", "addr:state": "MI", "addr:street_address": "109 MASON ST", "amenity": "post_box", "collection_times": "Mo-Fr 15:00; Sa 11:30", "note": "ON 12/24 AND 12/31, THIS BOX MAY BE COLLECTED AS EARLY AS 12 NOON.", "nsi_id": "unitedstatespostalservice-a77078", "operator": "United States Postal Service", "operator:short": "USPS", "operator:type": "public", "operator:wikidata": "Q668687", "ref": "4972000011"}, "type": "Feature"}
{"geometry": {"coordinates": [-85.256419, 45.299697], "type": "Point"}, "id": "otNxXQ-R6-tzHZc6Y5iBh6wCYik=", "properties": {"@source_uri": "https://tools.usps.com/UspsToolsRestServices/rest/POLocator/findLocations", "@spider": "usps_collection_boxes", "addr:city": "CHARLEVOIX", "addr:country": "US", "addr:postcode": "49720", "addr:state": "MI", "addr:street_address": "6700 M 66 N", "amenity": "post_box", "collection_times": "Mo-Fr 17:00; Sa 16:00", "indoor": "yes", "note": "ON 12/24 AND 12/31, THIS BOX MAY BE COLLECTED AS EARLY AS 12 NOON.", "nsi_id": "unitedstatespostalservice-a77078", "operator": "United States Postal Service", "operator:short": "USPS", "operator:type": "public", "operator:wikidata": "Q668687", "ref": "4972000014"}, "type": "Feature"}
{"geometry": {"coordinates": [-85.256342155, 45.299637701], "type": "Point"}, "id": "pZRBXmze3arBkPmMUUJF_tvJNlk=", "properties": {"@source_uri": "https://tools.usps.com/UspsToolsRestServices/rest/POLocator/findLocations", "@spider": "usps_collection_boxes", "addr:city": "CHARLEVOIX", "addr:country": "US", "addr:postcode": "49720", "addr:state": "MI", "addr:street_address": "6700 M 66 N", "amenity": "post_box", "collection_times": "Mo-Fr 16:30; Sa 11:30", "indoor": "yes", "note": "ON 12/24 AND 12/31, THIS BOX MAY BE COLLECTED AS EARLY AS 12 NOON.", "nsi_id": "unitedstatespostalservice-a77078", "operator": "United States Postal Service", "operator:short": "USPS", "operator:type": "public", "operator:wikidata": "Q668687", "ref": "4972000017"}, "type": "Feature"}
{"geometry": {"coordinates": [-84.4815932, 45.628313], "type": "Point"}, "id": "jGdmcw9tkApF_JDtAD3TkeZ5Vrk=", "properties": {"@source_uri": "https://tools.usps.com/UspsToolsRestServices/rest/POLocator/findLocations", "@spider": "usps_collection_boxes", "addr:city": "CHEBOYGAN", "addr:country": "US", "addr:postcode": "49721", "addr:state": "MI", "addr:street_address": "992 S MAIN ST", "amenity": "post_box", "collection_times": "Mo-Sa 10:30", "nsi_id": "unitedstatespostalservice-a77078", "operator": "United States Postal Service", "operator:short": "USPS", "operator:type": "public", "operator:wikidata": "Q668687", "ref": "4972100003"}, "type": "Feature"}
{"geometry": {"coordinates": [-84.4596564, 45.641845], "type": "Point"}, "id": "Dqx6CTmSD_48Qj5S6UdqWxv_bqw=", "properties": {"@source_uri": "https://tools.usps.com/UspsToolsRestServices/rest/POLocator/findLocations", "@spider": "usps_collection_boxes", "addr:city": "CHEBOYGAN", "addr:country": "US", "addr:postcode": "49721", "addr:state": "MI", "addr:street_address": "1131 E STATE ST", "amenity": "post_box", "collection_times": "Mo-Sa 10:00", "nsi_id": "unitedstatespostalservice-a77078", "operator": "United States Postal Service", "operator:short": "USPS", "operator:type": "public", "operator:wikidata": "Q668687", "ref": "4972100009"}, "type": "Feature"}
{"geometry": {"coordinates": [-84.477399, 45.643958], "type": "Point"}, "id": "2tJG1cMAj7EMfvKlVgsxHh4NmxU=", "properties": {"@source_uri": "https://tools.usps.com/UspsToolsRestServices/rest/POLocator/findLocations", "@spider": "usps_collection_boxes", "addr:city": "CHEBOYGAN", "addr:country": "US", "addr:postcode": "49721", "addr:state": "MI", "addr:street_address": "200 N MAIN ST", "amenity": "post_box", "collection_times": "Mo-Fr 15:30; Sa 15:00", "indoor": "yes", "note": "ON 12/24 AND 12/31, THIS BOX MAY BE COLLECTED AS EARLY AS 12 NOON.", "nsi_id": "unitedstatespostalservice-a77078", "operator": "United States Postal Service", "operator:short": "USPS", "operator:type": "public", "operator:wikidata": "Q668687", "ref": "4972100010"}, "type": "Feature"}
{"geometry": {"coordinates": [-84.477399, 45.643958], "type": "Point"}, "id": "OXtwSMt1R2pAX9pbLbIb2UC7olw=", "properties": {"@source_uri": "https://tools.usps.com/UspsToolsRestServices/rest/POLocator/findLocations", "@spider": "usps_collection_boxes", "addr:city": "CHEBOYGAN", "addr:country": "US", "addr:postcode": "49721", "addr:state": "MI", "addr:street_address": "200 N MAIN ST", "amenity": "post_box", "collection_times": "Mo-Fr 15:30; Sa 15:00", "note": "ON 12/24 AND 12/31, THIS BOX MAY BE COLLECTED AS EARLY AS 12 NOON.", "nsi_id": "unitedstatespostalservice-a77078", "operator": "United States Postal Service", "operator:short": "USPS", "operator:type": "public", "operator:wikidata": "Q668687", "ref": "4972100011"}, "type": "Feature"}
{"geometry": {"coordinates": [-84.477197177, 45.644144418], "type": "Point"}, "id": "SvPZYf3d8tywQWAJflTobIcvk84=", "properties": {"@source_uri": "https://tools.usps.com/UspsToolsRestServices/rest/POLocator/findLocations", "@spider": "usps_collection_boxes", "addr:city": "CHEBOYGAN", "addr:country": "US", "addr:postcode": "49721", "addr:state": "MI", "addr:street_address": "200 N MAIN ST", "amenity": "post_box", "collection_times": "Mo-Fr 15:30; Sa 10:30", "indoor": "yes", "note": "ON 12/24 AND 12/31, THIS BOX MAY BE COLLECTED AS EARLY AS 12 NOON.", "nsi_id": "unitedstatespostalservice-a77078", "operator": "United States Postal Service", "operator:short": "USPS", "operator:type": "public", "operator:wikidata": "Q668687", "ref": "4972100012"}, "type": "Feature"}
{"geometry": {"coordinates": [-84.863568, 45.420712], "type": "Point"}, "id": "r4vbt0jR_MKMkPxUOwaJhFx5UXo=", "properties": {"@source_uri": "https://tools.usps.com/UspsToolsRestServices/rest/POLocator/findLocations", "@spider": "usps_collection_boxes", "addr:city": "CONWAY", "addr:country": "US", "addr:postcode": "49722", "addr:state": "MI", "addr:street_address": "3459 US 31 N", "amenity": "post_box", "collection_times": "Mo-Fr 16:00; Sa 10:30", "indoor": "yes", "note": "ON 12/24 AND 12/31, THIS BOX MAY BE COLLECTED AS EARLY AS 12 NOON.", "nsi_id": "unitedstatespostalservice-a77078", "operator": "United States Postal Service", "operator:short": "USPS", "operator:type": "public", "operator:wikidata": "Q668687", "ref": "4972200004"}, "type": "Feature"}
{"geometry": {"coordinates": [-84.863568, 45.420712], "type": "Point"}, "id": "d2r7J7-E_7aDaW4yfm4rU-lab6w=", "properties": {"@source_uri": "https://tools.usps.com/UspsToolsRestServices/rest/POLocator/findLocations", "@spider": "usps_collection_boxes", "addr:city": "CONWAY", "addr:country": "US", "addr:postcode": "49722", "addr:state": "MI", "addr:street_address": "3459 US 31 N", "amenity": "post_box", "collection_times": "Mo-Fr 16:00; Sa 10:30", "note": "ON 12/24 AND 12/31, THIS BOX MAY BE COLLECTED AS EARLY AS 12 NOON.", "nsi_id": "unitedstatespostalservice-a77078", "operator": "United States Postal Service", "operator:short": "USPS", "operator:type": "public", "operator:wikidata": "Q668687", "ref": "4972200005"}, "type": "Feature"}
{"geometry": {"coordinates": [-84.863878893, 45.420359077], "type": "Point"}, "id": "8aiNoW4b0CdARHdynZQURkg1GDc=", "properties": {"@source_uri": "https://tools.usps.com/UspsToolsRestServices/rest/POLocator/findLocations", "@spider": "usps_collection_boxes", "addr:city": "CONWAY", "addr:country": "US", "addr:postcode": "49722", "addr:state": "MI", "addr:street_address": "3459 N US 31", "amenity": "post_box", "collection_times": "Mo-Fr 15:30; Sa 10:45", "indoor": "yes", "note": "ON 12/24 AND 12/31, THIS BOX MAY BE COLLECTED AS EARLY AS 12 NOON.", "nsi_id": "unitedstatespostalservice-a77078", "operator": "United States Postal Service", "operator:short": "USPS", "operator:type": "public", "operator:wikidata": "Q668687", "ref": "4972200006"}, "type": "Feature"}
{"geometry": {"coordinates": [-85.038034, 45.64178], "type": "Point"}, "id": "k2pSlHUncIzIt6i7yg_H-5q3cz4=", "properties": {"@source_uri": "https://tools.usps.com/UspsToolsRestServices/rest/POLocator/findLocations", "@spider": "usps_collection_boxes", "addr:city": "CROSS VILLAGE", "addr:country": "US", "addr:postcode": "49723", "addr:state": "MI", "addr:street_address": "6340 N LAKE SHORE DR", "amenity": "post_box", "collection_times": "Mo-Fr 11:45; Sa 10:30", "nsi_id": "unitedstatespostalservice-a77078", "operator": "United States Postal Service", "operator:short": "USPS", "operator:type": "public", "operator:wikidata": "Q668687", "ref": "4972300001"}, "type": "Feature"}
{"geometry": {"coordinates": [-85.038034, 45.641781], "type": "Point"}, "id": "LOsbf6rrhs8UvsEcfhi_km2flb0=", "properties": {"@source_uri": "https://tools.usps.com/UspsToolsRestServices/rest/POLocator/findLocations", "@spider": "usps_collection_boxes", "addr:city": "CROSS VILLAGE", "addr:country": "US", "addr:postcode": "49723", "addr:state": "MI", "addr:street_address": "6340 N LAKE SHORE DR", "amenity": "post_box", "collection_times": "Mo-Fr 11:45; Sa 10:30", "indoor": "yes", "nsi_id": "unitedstatespostalservice-a77078", "operator": "United States Postal Service", "operator:short": "USPS", "operator:type": "public", "operator:wikidata": "Q668687", "ref": "4972300002"}, "type": "Feature"}
{"geometry": {"coordinates": [-85.038336505, 45.641624209], "type": "Point"}, "id": "833W6q8utVVHUHR9p6S0cMbK3CA=", "properties": {"@source_uri": "https://tools.usps.com/UspsToolsRestServices/rest/POLocator/findLocations", "@spider": "usps_collection_boxes", "addr:city": "CROSS VILLAGE", "addr:country": "US", "addr:postcode": "49723", "addr:state": "MI", "addr:street_address": "6340 N LAKE SHORE DR", "amenity": "post_box", "collection_times": "Mo-Fr 11:30; Sa 10:15", "indoor": "yes", "nsi_id": "unitedstatespostalservice-a77078", "operator": "United States Postal Service", "operator:short": "USPS", "operator:type": "public", "operator:wikidata": "Q668687", "ref": "4972300003"}, "type": "Feature"}
{"geometry": {"coordinates": [-84.428009, 46.360219], "type": "Point"}, "id": "66fDsHez0Kxo6J1Yeec1oo5vXs8=", "properties": {"@source_uri": "https://tools.usps.com/UspsToolsRestServices/rest/POLocator/findLocations", "@spider": "usps_collection_boxes", "addr:city": "DAFTER", "addr:country": "US", "addr:postcode": "49724", "addr:state": "MI", "addr:street_address": "3082 W 10 MILE RD", "amenity": "post_box", "collection_times": "Mo-Fr 14:20; Sa 11:45", "note": "ON 12/24 AND 12/31, THIS BOX MAY BE COLLECTED AS EARLY AS 12 NOON.", "nsi_id": "unitedstatespostalservice-a77078", "operator": "United States Postal Service", "operator:short": "USPS", "operator:type": "public", "operator:wikidata": "Q668687", "ref": "4972400001"}, "type": "Feature"}
{"geometry": {"coordinates": [-84.428009, 46.360219], "type": "Point"}, "id": "zCtj7RlriASW_tn8FBuhfNu6xMA=", "properties": {"@source_uri": "https://tools.usps.com/UspsToolsRestServices/rest/POLocator/findLocations", "@spider": "usps_collection_boxes", "addr:city": "DAFTER", "addr:country": "US", "addr:postcode": "49724", "addr:state": "MI", "addr:street_address": "3082 W 10 MILE RD", "amenity": "post_box", "collection_times": "Mo-Fr 14:20; Sa 11:30", "indoor": "yes", "note": "ON 12/24 AND 12/31, THIS BOX MAY BE COLLECTED AS EARLY AS 12 NOON.", "nsi_id": "unitedstatespostalservice-a77078", "operator": "United States Postal Service", "operator:short": "USPS", "operator:type": "public", "operator:wikidata": "Q668687", "ref": "4972400002"}, "type": "Feature"}
{"geometry": {"coordinates": [-84.428682027, 46.36031815], "type": "Point"}, "id": "B423-viJjGnWz2X_YautnchWmRM=", "properties": {"@source_uri": "https://tools.usps.com/UspsToolsRestServices/rest/POLocator/findLocations", "@spider": "usps_collection_boxes", "addr:city": "DAFTER", "addr:country": "US", "addr:postcode": "49724", "addr:state": "MI", "addr:street_address": "3082 W 10 MILE RD", "amenity": "post_box", "collection_times": "Mo-Fr 14:15; Sa 11:00", "indoor": "yes", "note": "ON 12/24 AND 12/31, THIS BOX MAY BE COLLECTED AS EARLY AS 12 NOON.", "nsi_id": "unitedstatespostalservice-a77078", "operator": "United States Postal Service", "operator:short": "USPS", "operator:type": "public", "operator:wikidata": "Q668687", "ref": "4972400003"}, "type": "Feature"}
{"geometry": {"coordinates": [-83.901795, 45.992832], "type": "Point"}, "id": "3k_XmtPiqYCHIIHqL6-ZAKUNwrQ=", "properties": {"@source_uri": "https://tools.usps.com/UspsToolsRestServices/rest/POLocator/findLocations", "@spider": "usps_collection_boxes", "addr:city": "DETOUR VILLAGE", "addr:country": "US", "addr:postcode": "49725", "addr:state": "MI", "addr:street_address": "136 N ONTARIO ST", "amenity": "post_box", "collection_times": "Mo-Fr 13:10; Sa 11:30", "note": "ON 12/24 AND 12/31, THIS BOX MAY BE COLLECTED AS EARLY AS 12 NOON.", "nsi_id": "unitedstatespostalservice-a77078", "operator": "United States Postal Service", "operator:short": "USPS", "operator:type": "public", "operator:wikidata": "Q668687", "ref": "4972500001"}, "type": "Feature"}
{"geometry": {"coordinates": [-83.901795, 45.992832], "type": "Point"}, "id": "cqkltlvGtH179oH_LiegGzk6SxQ=", "properties": {"@source_uri": "https://tools.usps.com/UspsToolsRestServices/rest/POLocator/findLocations", "@spider": "usps_collection_boxes", "addr:city": "DETOUR VILLAGE", "addr:country": "US", "addr:postcode": "49725", "addr:state": "MI", "addr:street_address": "136 N ONTARIO ST", "amenity": "post_box", "collection_times": "Mo-Fr 13:10; Sa 11:30", "indoor": "yes", "note": "ON 12/24 AND 12/31, THIS BOX MAY BE COLLECTED AS EARLY AS 12 NOON.", "nsi_id": "unitedstatespostalservice-a77078", "operator": "United States Postal Service", "operator:short": "USPS", "operator:type": "public", "operator:wikidata": "Q668687", "ref": "4972500002"}, "type": "Feature"}
{"geometry": {"coordinates": [-83.901782216, 45.99282903], "type": "Point"}, "id": "OXYXu2DL1lP-jIi4byXs09WVrCU=", "properties": {"@source_uri": "https://tools.usps.com/UspsToolsRestServices/rest/POLocator/findLocations", "@spider": "usps_collection_boxes", "addr:city": "DETOUR VILLAGE", "addr:country": "US", "addr:postcode": "49725", "addr:state": "MI", "addr:street_address": "136 N ONTARIO ST", "amenity": "post_box", "collection_times": "Mo-Fr 12:45; Sa 11:00", "indoor": "yes", "note": "ON 12/24 AND 12/31, THIS BOX MAY BE COLLECTED AS EARLY AS 12 NOON.", "nsi_id": "unitedstatespostalservice-a77078", "operator": "United States Postal Service", "operator:short": "USPS", "operator:type": "public", "operator:wikidata": "Q668687", "ref": "4972500003"}, "type": "Feature"}
{"geometry": {"coordinates": [-83.7385116, 45.998783], "type": "Point"}, "id": "mKlOwpXZw8zVxkvWjVYhY1--3Rc=", "properties": {"@source_uri": "https://tools.usps.com/UspsToolsRestServices/rest/POLocator/findLocations", "@spider": "usps_collection_boxes", "addr:city": "DRUMMOND ISLAND", "addr:country": "US", "addr:postcode": "49726", "addr:state": "MI", "addr:street_address": "30012 E JOHNSWOOD RD", "amenity": "post_box", "collection_times": "Mo-Sa 10:00", "nsi_id": "unitedstatespostalservice-a77078", "operator": "United States Postal Service", "operator:short": "USPS", "operator:type": "public", "operator:wikidata": "Q668687", "ref": "4972600001"}, "type": "Feature"}
{"geometry": {"coordinates": [-83.748229849, 46.02054188], "type": "Point"}, "id": "DFDTe-ITkOflnr-LKpXv3nDX8fI=", "properties": {"@source_uri": "https://tools.usps.com/UspsToolsRestServices/rest/POLocator/findLocations", "@spider": "usps_collection_boxes", "addr:city": "DRUMMOND ISLAND", "addr:country": "US", "addr:postcode": "49726", "addr:state": "MI", "addr:street_address": "29726 E SOMES RD", "amenity": "post_box", "collection_times": "Mo-Fr 12:25; Sa 12:00", "note": "ON 12/24 AND 12/31, THIS BOX MAY BE COLLECTED AS EARLY AS 12 NOON.", "nsi_id": "unitedstatespostalservice-a77078", "operator": "United States Postal Service", "operator:short": "USPS", "operator:type": "public", "operator:wikidata": "Q668687", "ref": "4972600003"}, "type": "Feature"}
{"geometry": {"coordinates": [-83.748229849, 46.02054188], "type": "Point"}, "id": "F_rsYns8aA3x0OwiYWON3bcdzWg=", "properties": {"@source_uri": "https://tools.usps.com/UspsToolsRestServices/rest/POLocator/findLocations", "@spider": "usps_collection_boxes", "addr:city": "DRUMMOND ISLAND", "addr:country": "US", "addr:postcode": "49726", "addr:state": "MI", "addr:street_address": "29726 E SOMES RD", "amenity": "post_box", "collection_times": "Mo-Fr 12:25; Sa 12:00", "indoor": "yes", "note": "ON 12/24 AND 12/31, THIS BOX MAY BE COLLECTED AS EARLY AS 12 NOON.", "nsi_id": "unitedstatespostalservice-a77078", "operator": "United States Postal Service", "operator:short": "USPS", "operator:type": "public", "operator:wikidata": "Q668687", "ref": "4972600005"}, "type": "Feature"}
{"geometry": {"coordinates": [-83.748229849, 46.02054188], "type": "Point"}, "id": "stDuIBNphbLNuBtC0dTzir01ctg=", "properties": {"@source_uri": "https://tools.usps.com/UspsToolsRestServices/rest/POLocator/findLocations", "@spider": "usps_collection_boxes", "addr:city": "DRUMMOND ISLAND", "addr:country": "US", "addr:postcode": "49726", "addr:state": "MI", "addr:street_address": "29726 E SOMES RD", "amenity": "post_box", "collection_times": "Mo-Fr 12:00; Sa 11:30", "indoor": "yes", "nsi_id": "unitedstatespostalservice-a77078", "operator": "United States Postal Service", "operator:short": "USPS", "operator:type": "public", "operator:wikidata": "Q668687", "ref": "4972600006"}, "type": "Feature"}
{"geometry": {"coordinates": [-85.126101, 45.154699], "type": "Point"}, "id": "mMeDtv4uMpyuhm6Cdt1tdTAk13k=", "properties": {"@source_uri": "https://tools.usps.com/UspsToolsRestServices/rest/POLocator/findLocations", "@spider": "usps_collection_boxes", "addr:city": "EAST JORDAN", "addr:country": "US", "addr:postcode": "49727", "addr:state": "MI", "addr:street_address": "103 2ND ST", "amenity": "post_box", "collection_times": "Mo-Fr 16:20; Sa 11:30", "note": "ON 12/24 AND 12/31, THIS BOX MAY BE COLLECTED AS EARLY AS 12 NOON.", "nsi_id": "unitedstatespostalservice-a77078", "operator": "United States Postal Service", "operator:short": "USPS", "operator:type": "public", "operator:wikidata": "Q668687", "ref": "4972700001"}, "type": "Feature"}
{"geometry": {"coordinates": [-85.126101, 45.154699], "type": "Point"}, "id": "pQJ3MsYe7f1mMlwY3cd0o__mThw=", "properties": {"@source_uri": "https://tools.usps.com/UspsToolsRestServices/rest/POLocator/findLocations", "@spider": "usps_collection_boxes", "addr:city": "EAST JORDAN", "addr:country": "US", "addr:postcode": "49727", "addr:state": "MI", "addr:street_address": "103 2ND ST", "amenity": "post_box", "collection_times": "Mo-Fr 16:20; Sa 11:30", "indoor": "yes", "note": "ON 12/24 AND 12/31, THIS BOX MAY BE COLLECTED AS EARLY AS 12 NOON.", "nsi_id": "unitedstatespostalservice-a77078", "operator": "United States Postal Service", "operator:short": "USPS", "operator:type": "public", "operator:wikidata": "Q668687", "ref": "4972700004"}, "type": "Feature"}
{"geometry": {"coordinates": [-85.126102991, 45.154691413], "type": "Point"}, "id": "n4eGDN8lz0BnGPrckg_jrZ4ubiw=", "properties": {"@source_uri": "https://tools.usps.com/UspsToolsRestServices/rest/POLocator/findLocations", "@spider": "usps_collection_boxes", "addr:city": "EAST JORDAN", "addr:country": "US", "addr:postcode": "49727", "addr:state": "MI", "addr:street_address": "103 2ND ST", "amenity": "post_box", "collection_times": "Mo-Fr 16:00; Sa 11:30", "indoor": "yes", "note": "ON 12/24 AND 12/31, THIS BOX MAY BE COLLECTED AS EARLY AS 12 NOON.", "nsi_id": "unitedstatespostalservice-a77078", "operator": "United States Postal Service", "operator:short": "USPS", "operator:type": "public", "operator:wikidata": "Q668687", "ref": "4972700005"}, "type": "Feature"}
{"geometry": {"coordinates": [-84.974495, 46.34612], "type": "Point"}, "id": "xbnODMK3dKkFXs8oi7G6ZOJx0eo=", "properties": {"@source_uri": "https://tools.usps.com/UspsToolsRestServices/rest/POLocator/findLocations", "@spider": "usps_collection_boxes", "addr:city": "ECKERMAN", "addr:country": "US", "addr:postcode": "49728", "addr:state": "MI", "addr:street_address": "9925 S SHELDON RD", "amenity": "post_box", "collection_times": "Mo-Fr 12:00; Sa 10:15", "nsi_id": "unitedstatespostalservice-a77078", "operator": "United States Postal Service", "operator:short": "USPS", "operator:type": "public", "operator:wikidata": "Q668687", "ref": "4972800001"}, "type": "Feature"}
{"geometry": {"coordinates": [-84.974495, 46.34612], "type": "Point"}, "id": "zIr31E6AfIYbcnQjIum3B57gqZM=", "properties": {"@source_uri": "https://tools.usps.com/UspsToolsRestServices/rest/POLocator/findLocations", "@spider": "usps_collection_boxes", "addr:city": "ECKERMAN", "addr:country": "US", "addr:postcode": "49728", "addr:state": "MI", "addr:street_address": "9925 S SHELDON RD", "amenity": "post_box", "collection_times": "Mo-Fr 12:00; Sa 10:15", "indoor": "yes", "nsi_id": "unitedstatespostalservice-a77078", "operator": "United States Postal Service", "operator:short": "USPS", "operator:type": "public", "operator:wikidata": "Q668687", "ref": "4972800003"}, "type": "Feature"}
{"geometry": {"coordinates": [-84.974495, 46.34612], "type": "Point"}, "id": "pupofLvABv_2x4abrbhQs8ivUz4=", "properties": {"@source_uri": "https://tools.usps.com/UspsToolsRestServices/rest/POLocator/findLocations", "@spider": "usps_collection_boxes", "addr:city": "ECKERMAN", "addr:country": "US", "addr:postcode": "49728", "addr:state": "MI", "addr:street_address": "9925 S SHELDON RD", "amenity": "post_box", "collection_times": "Mo-Sa 10:00", "indoor": "yes", "nsi_id": "unitedstatespostalservice-a77078", "operator": "United States Postal Service", "operator:short": "USPS", "operator:type": "public", "operator:wikidata": "Q668687", "ref": "4972800005"}, "type": "Feature"}
{"geometry": {"coordinates": [-85.246103, 45.166156], "type": "Point"}, "id": "96D1QO08WIoQZKOf88RjodIpDVE=", "properties": {"@source_uri": "https://tools.usps.com/UspsToolsRestServices/rest/POLocator/findLocations", "@spider": "usps_collection_boxes", "addr:city": "ELLSWORTH", "addr:country": "US", "addr:postcode": "49729", "addr:state": "MI", "addr:street_address": "9284 MAIN ST", "amenity": "post_box", "collection_times": "Mo-Fr 15:50; Sa 11:30", "note": "ON 12/24 AND 12/31, THIS BOX MAY BE COLLECTED AS EARLY AS 12 NOON.", "nsi_id": "unitedstatespostalservice-a77078", "operator": "United States Postal Service", "operator:short": "USPS", "operator:type": "public", "operator:wikidata": "Q668687", "ref": "4972900001"}, "type": "Feature"}
{"geometry": {"coordinates": [-85.246103, 45.166156], "type": "Point"}, "id": "H4b2guCq-5dl88YWsU8TsWFZUNI=", "properties": {"@source_uri": "https://tools.usps.com/UspsToolsRestServices/rest/POLocator/findLocations", "@spider": "usps_collection_boxes", "addr:city": "ELLSWORTH", "addr:country": "US", "addr:postcode": "49729", "addr:state": "MI", "addr:street_address": "9284 MAIN ST", "amenity": "post_box", "collection_times": "Mo-Fr 15:50; Sa 11:30", "indoor": "yes", "note": "ON 12/24 AND 12/31, THIS BOX MAY BE COLLECTED AS EARLY AS 12 NOON.", "nsi_id": "unitedstatespostalservice-a77078", "operator": "United States Postal Service", "operator:short": "USPS", "operator:type": "public", "operator:wikidata": "Q668687", "ref": "4972900002"}, "type": "Feature"}
{"geometry": {"coordinates": [-85.246101636, 45.166210407], "type": "Point"}, "id": "03emgO2w36WCi7NSSwAAVsGbJOU=", "properties": {"@source_uri": "https://tools.usps.com/UspsToolsRestServices/rest/POLocator/findLocations", "@spider": "usps_collection_boxes", "addr:city": "ELLSWORTH", "addr:country": "US", "addr:postcode": "49729", "addr:state": "MI", "addr:street_address": "9284 MAIN ST", "amenity": "post_box", "collection_times": "Mo-Fr 15:15; Sa 11:00", "indoor": "yes", "note": "ON 12/24 AND 12/31, THIS BOX MAY BE COLLECTED AS EARLY AS 12 NOON.", "nsi_id": "unitedstatespostalservice-a77078", "operator": "United States Postal Service", "operator:short": "USPS", "operator:type": "public", "operator:wikidata": "Q668687", "ref": "4972900003"}, "type": "Feature"}
{"geometry": {"coordinates": [-84.8574819997, 45.0593480026], "type": "Point"}, "id": "V6uBirkDqsOVstLmr7JbAamwgr0=", "properties": {"@source_uri": "https://tools.usps.com/UspsToolsRestServices/rest/POLocator/findLocations", "@spider": "usps_collection_boxes", "addr:city": "ELMIRA", "addr:country": "US", "addr:postcode": "49730", "addr:state": "MI", "addr:street_address": "2035 MT JACK RD", "amenity": "post_box", "collection_times": "Mo-Fr 12:00; Sa 10:00", "nsi_id": "unitedstatespostalservice-a77078", "operator": "United States Postal Service", "operator:short": "USPS", "operator:type": "public", "operator:wikidata": "Q668687", "ref": "4973000001"}, "type": "Feature"}
{"geometry": {"coordinates": [-84.753791, 44.805244], "type": "Point"}, "id": "l2hG0eeUoOHkh3dxmci3FbAhTZI=", "properties": {"@source_uri": "https://tools.usps.com/UspsToolsRestServices/rest/POLocator/findLocations", "@spider": "usps_collection_boxes", "addr:city": "FREDERIC", "addr:country": "US", "addr:postcode": "49733", "addr:state": "MI", "addr:street_address": "6450 OLD 27 N", "amenity": "post_box", "collection_times": "Mo-Fr 15:30; Sa 10:30", "note": "ON 12/24 AND 12/31, THIS BOX MAY BE COLLECTED AS EARLY AS 12 NOON.", "nsi_id": "unitedstatespostalservice-a77078", "operator": "United States Postal Service", "operator:short": "USPS", "operator:type": "public", "operator:wikidata": "Q668687", "ref": "4973300001"}, "type": "Feature"}
{"geometry": {"coordinates": [-84.753791, 44.805244], "type": "Point"}, "id": "mu2q6DcSSBBVn4zyvp127vSEhnI=", "properties": {"@source_uri": "https://tools.usps.com/UspsToolsRestServices/rest/POLocator/findLocations", "@spider": "usps_collection_boxes", "addr:city": "FREDERIC", "addr:country": "US", "addr:postcode": "49733", "addr:state": "MI", "addr:street_address": "6450 OLD 27 N", "amenity": "post_box", "collection_times": "Mo-Fr 15:30; Sa 11:30", "indoor": "yes", "note": "ON 12/24 AND 12/31, THIS BOX MAY BE COLLECTED AS EARLY AS 12 NOON.", "nsi_id": "unitedstatespostalservice-a77078", "operator": "United States Postal Service", "operator:short": "USPS", "operator:type": "public", "operator:wikidata": "Q668687", "ref": "4973300002"}, "type": "Feature"}
{"geometry": {"coordinates": [-84.75424752, 44.778943002], "type": "Point"}, "id": "Qxj-EX4UNjIFyCJKIGNAzCg0BQw=", "properties": {"@source_uri": "https://tools.usps.com/UspsToolsRestServices/rest/POLocator/findLocations", "@spider": "usps_collection_boxes", "addr:city": "FREDERIC", "addr:country": "US", "addr:postcode": "49733", "addr:state": "MI", "addr:street_address": "6450 OLD 27 N", "amenity": "post_box", "collection_times": "Mo-Fr 15:00; Sa 11:00", "indoor": "yes", "note": "ON 12/24 AND 12/31, THIS BOX MAY BE COLLECTED AS EARLY AS 12 NOON.", "nsi_id": "unitedstatespostalservice-a77078", "operator": "United States Postal Service", "operator:short": "USPS", "operator:type": "public", "operator:wikidata": "Q668687", "ref": "4973300003"}, "type": "Feature"}
{"geometry": {"coordinates": [-84.6776491, 45.027385], "type": "Point"}, "id": "_GB5ETj6NpkPfUdmjg3L5oSX8vk=", "properties": {"@source_uri": "https://tools.usps.com/UspsToolsRestServices/rest/POLocator/findLocations", "@spider": "usps_collection_boxes", "addr:city": "GAYLORD", "addr:country": "US", "addr:postcode": "49735", "addr:state": "MI", "addr:street_address": "302 W MAIN ST", "amenity": "post_box", "collection_times": "Mo-Sa 15:00", "note": "ON 12/24 AND 12/31, THIS BOX MAY BE COLLECTED AS EARLY AS 12 NOON.", "nsi_id": "unitedstatespostalservice-a77078", "operator": "United States Postal Service", "operator:short": "USPS", "operator:type": "public", "operator:wikidata": "Q668687", "ref": "4973500008"}, "type": "Feature"}
{"geometry": {"coordinates": [-84.6712839, 45.027838], "type": "Point"}, "id": "XWQP3K9MNomG7GBO_aXDCJn7OzY=", "properties": {"@source_uri": "https://tools.usps.com/UspsToolsRestServices/rest/POLocator/findLocations", "@spider": "usps_collection_boxes", "addr:city": "GAYLORD", "addr:country": "US", "addr:postcode": "49735", "addr:state": "MI", "addr:street_address": "305 E MAIN ST", "amenity": "post_box", "collection_times": "Mo-Sa 15:00", "note": "ON 12/24 AND 12/31, THIS BOX MAY BE COLLECTED AS EARLY AS 12 NOON.", "nsi_id": "unitedstatespostalservice-a77078", "operator": "United States Postal Service", "operator:short": "USPS", "operator:type": "public", "operator:wikidata": "Q668687", "ref": "4973500009"}, "type": "Feature"}
{"geometry": {"coordinates": [-84.6881184, 45.01148], "type": "Point"}, "id": "FvspfCge16lKdqyVDTDHriPWofM=", "properties": {"@source_uri": "https://tools.usps.com/UspsToolsRestServices/rest/POLocator/findLocations", "@spider": "usps_collection_boxes", "addr:city": "GAYLORD", "addr:country": "US", "addr:postcode": "49735", "addr:state": "MI", "addr:street_address": "1068 OROURKE BLVD", "amenity": "post_box", "collection_times": "Mo-Sa 15:00", "note": "ON 12/24 AND 12/31, THIS BOX MAY BE COLLECTED AS EARLY AS 12 NOON.", "nsi_id": "unitedstatespostalservice-a77078", "operator": "United States Postal Service", "operator:short": "USPS", "operator:type": "public", "operator:wikidata": "Q668687", "ref": "4973500010"}, "type": "Feature"}
{"geometry": {"coordinates": [-84.6741929, 45.027248], "type": "Point"}, "id": "oQCna67x_HWcSi6ky6dqnbhjaOM=", "properties": {"@source_uri": "https://tools.usps.com/UspsToolsRestServices/rest/POLocator/findLocations", "@spider": "usps_collection_boxes", "addr:city": "GAYLORD", "addr:country": "US", "addr:postcode": "49735", "addr:state": "MI", "addr:street_address": "123 W MAIN ST", "amenity": "post_box", "collection_times": "Mo-Sa 15:00", "note": "ON 12/24 AND 12/31, THIS BOX MAY BE COLLECTED AS EARLY AS 12 NOON.", "nsi_id": "unitedstatespostalservice-a77078", "operator": "United States Postal Service", "operator:short": "USPS", "operator:type": "public", "operator:wikidata": "Q668687", "ref": "4973500017"}, "type": "Feature"}
{"geometry": {"coordinates": [-84.7029494, 45.026982], "type": "Point"}, "id": "5K2-YuOkMX-Hgo8VVprYfOehqSo=", "properties": {"@source_uri": "https://tools.usps.com/UspsToolsRestServices/rest/POLocator/findLocations", "@spider": "usps_collection_boxes", "addr:city": "GAYLORD", "addr:country": "US", "addr:postcode": "49735", "addr:state": "MI", "addr:street_address": "1425 W MAIN ST", "amenity": "post_box", "collection_times": "Mo-Sa 15:00", "note": "ON 12/24 AND 12/31, THIS BOX MAY BE COLLECTED AS EARLY AS 12 NOON.", "nsi_id": "unitedstatespostalservice-a77078", "operator": "United States Postal Service", "operator:short": "USPS", "operator:type": "public", "operator:wikidata": "Q668687", "ref": "4973500023"}, "type": "Feature"}
{"geometry": {"coordinates": [-84.6834286, 45.025994], "type": "Point"}, "id": "CJED5QCP1n2-kS8zmVSRwYHuqHs=", "properties": {"@source_uri": "https://tools.usps.com/UspsToolsRestServices/rest/POLocator/findLocations", "@spider": "usps_collection_boxes", "addr:city": "GAYLORD", "addr:country": "US", "addr:postcode": "49735", "addr:state": "MI", "addr:street_address": "829 W MAIN ST", "amenity": "post_box", "collection_times": "Mo-Sa 13:00", "note": "ON 12/24 AND 12/31, THIS BOX MAY BE COLLECTED AS EARLY AS 12 NOON.", "nsi_id": "unitedstatespostalservice-a77078", "operator": "United States Postal Service", "operator:short": "USPS", "operator:type": "public", "operator:wikidata": "Q668687", "ref": "4973500025"}, "type": "Feature"}
{"geometry": {"coordinates": [-84.67618, 45.012664], "type": "Point"}, "id": "uJp1rfCJsyTo_Zz920764l0qkl0=", "properties": {"@source_uri": "https://tools.usps.com/UspsToolsRestServices/rest/POLocator/findLocations", "@spider": "usps_collection_boxes", "addr:city": "GAYLORD", "addr:country": "US", "addr:postcode": "49735", "addr:state": "MI", "addr:street_address": "289 W COMMERCE BLVD", "amenity": "post_box", "collection_times": "Mo-Fr 17:00; Sa 14:00", "note": "ON 12/24 AND 12/31, THIS BOX MAY BE COLLECTED AS EARLY AS 12 NOON.", "nsi_id": "unitedstatespostalservice-a77078", "operator": "United States Postal Service", "operator:short": "USPS", "operator:type": "public", "operator:wikidata": "Q668687", "ref": "4973500030"}, "type": "Feature"}
{"geometry": {"coordinates": [-84.6912094, 45.023068], "type": "Point"}, "id": "anJ7KX3ddE-3J0uTY08zkH0pC04=", "properties": {"@source_uri": "https://tools.usps.com/UspsToolsRestServices/rest/POLocator/findLocations", "@spider": "usps_collection_boxes", "addr:city": "GAYLORD", "addr:country": "US", "addr:postcode": "49735", "addr:state": "MI", "addr:street_address": "840 EDELWEISS VILLAGE PKWY", "amenity": "post_box", "collection_times": "Mo-Sa 15:00", "note": "ON 12/24 AND 12/31, THIS BOX MAY BE COLLECTED AS EARLY AS 12 NOON.", "nsi_id": "unitedstatespostalservice-a77078", "operator": "United States Postal Service", "operator:short": "USPS", "operator:type": "public", "operator:wikidata": "Q668687", "ref": "4973500033"}, "type": "Feature"}
{"geometry": {"coordinates": [-84.676202, 45.012631], "type": "Point"}, "id": "hmh-Yg0Wl79pTbmEE5bSUIjqVTE=", "properties": {"@source_uri": "https://tools.usps.com/UspsToolsRestServices/rest/POLocator/findLocations", "@spider": "usps_collection_boxes", "addr:city": "GAYLORD", "addr:country": "US", "addr:postcode": "49735", "addr:state": "MI", "addr:street_address": "289 W COMMERCE BLVD", "amenity": "post_box", "collection_times": "Mo-Fr 17:00; Sa 14:00", "name": "USPS COLLECTION BOX - APC", "note": "ON 12/24 AND 12/31, THIS BOX MAY BE COLLECTED AS EARLY AS 12 NOON.", "nsi_id": "unitedstatespostalservice-a77078", "operator": "United States Postal Service", "operator:short": "USPS", "operator:type": "public", "operator:wikidata": "Q668687", "ref": "4973500034"}, "type": "Feature"}
{"geometry": {"coordinates": [-84.675391172, 45.013264479], "type": "Point"}, "id": "KH6qTF5A1BSiHy2Jb5jLecNhvqU=", "properties": {"@source_uri": "https://tools.usps.com/UspsToolsRestServices/rest/POLocator/findLocations", "@spider": "usps_collection_boxes", "addr:city": "GAYLORD", "addr:country": "US", "addr:postcode": "49735", "addr:state": "MI", "addr:street_address": "289 W COMMERCE BLVD", "amenity": "post_box", "collection_times": "Mo-Fr 16:30; Sa 11:00", "indoor": "yes", "note": "ON 12/24 AND 12/31, THIS BOX MAY BE COLLECTED AS EARLY AS 12 NOON.", "nsi_id": "unitedstatespostalservice-a77078", "operator": "United States Postal Service", "operator:short": "USPS", "operator:type": "public", "operator:wikidata": "Q668687", "ref": "4973500035"}, "type": "Feature"}
{"geometry": {"coordinates": [-84.091746, 46.058048], "type": "Point"}, "id": "eIoZAavidrqr4kBRyQIyUVlwVWk=", "properties": {"@source_uri": "https://tools.usps.com/UspsToolsRestServices/rest/POLocator/findLocations", "@spider": "usps_collection_boxes", "addr:city": "GOETZVILLE", "addr:country": "US", "addr:postcode": "49736", "addr:state": "MI", "addr:street_address": "18001 E M 48", "amenity": "post_box", "collection_times": "Mo-Fr 12:20; Sa 11:00", "note": "ON 12/24 AND 12/31, THIS BOX MAY BE COLLECTED AS EARLY AS 12 NOON.", "nsi_id": "unitedstatespostalservice-a77078", "operator": "United States Postal Service", "operator:short": "USPS", "operator:type": "public", "operator:wikidata": "Q668687", "ref": "4973600001"}, "type": "Feature"}
{"geometry": {"coordinates": [-84.091746, 46.058048], "type": "Point"}, "id": "hPjrGMvrdUL3yHmxjJT7I_b0MyI=", "properties": {"@source_uri": "https://tools.usps.com/UspsToolsRestServices/rest/POLocator/findLocations", "@spider": "usps_collection_boxes", "addr:city": "GOETZVILLE", "addr:country": "US", "addr:postcode": "49736", "addr:state": "MI", "addr:street_address": "18001 E M 48", "amenity": "post_box", "collection_times": "Mo-Fr 12:20; Sa 11:00", "indoor": "yes", "note": "ON 12/24 AND 12/31, THIS BOX MAY BE COLLECTED AS EARLY AS 12 NOON.", "nsi_id": "unitedstatespostalservice-a77078", "operator": "United States Postal Service", "operator:short": "USPS", "operator:type": "public", "operator:wikidata": "Q668687", "ref": "4973600002"}, "type": "Feature"}
{"geometry": {"coordinates": [-84.09172889, 46.058070036], "type": "Point"}, "id": "S3K0Ll2WeNn2Id2BDX31XJtCRZY=", "properties": {"@source_uri": "https://tools.usps.com/UspsToolsRestServices/rest/POLocator/findLocations", "@spider": "usps_collection_boxes", "addr:city": "GOETZVILLE", "addr:country": "US", "addr:postcode": "49736", "addr:state": "MI", "addr:street_address": "18001 E M 48", "amenity": "post_box", "collection_times": "Mo-Fr 12:30; Sa 10:30", "indoor": "yes", "note": "ON 12/24 AND 12/31, THIS BOX MAY BE COLLECTED AS EARLY AS 12 NOON.", "nsi_id": "unitedstatespostalservice-a77078", "operator": "United States Postal Service", "operator:short": "USPS", "operator:type": "public", "operator:wikidata": "Q668687", "ref": "4973600003"}, "type": "Feature"}
{"geometry": {"coordinates": [-84.713639, 44.662221], "type": "Point"}, "id": "QpkWmOjxc2wrWUoD143JaHQ3XrQ=", "properties": {"@source_uri": "https://tools.usps.com/UspsToolsRestServices/rest/POLocator/findLocations", "@spider": "usps_collection_boxes", "addr:city": "GRAYLING", "addr:country": "US", "addr:postcode": "49738", "addr:state": "MI", "addr:street_address": "300 E MICHIGAN AVE", "amenity": "post_box", "collection_times": "Mo-Fr 16:00; Sa 13:30", "note": "ON 12/24 AND 12/31, THIS BOX MAY BE COLLECTED AS EARLY AS 12 NOON.", "nsi_id": "unitedstatespostalservice-a77078", "operator": "United States Postal Service", "operator:short": "USPS", "operator:type": "public", "operator:wikidata": "Q668687", "ref": "4973800002"}, "type": "Feature"}
{"geometry": {"coordinates": [-84.7070519, 44.657769], "type": "Point"}, "id": "PUvVyUwef-txGH-H3k9FRcXbdp8=", "properties": {"@source_uri": "https://tools.usps.com/UspsToolsRestServices/rest/POLocator/findLocations", "@spider": "usps_collection_boxes", "addr:city": "GRAYLING", "addr:country": "US", "addr:postcode": "49738", "addr:state": "MI", "addr:street_address": "308 LAWNDALE ST", "amenity": "post_box", "collection_times": "Mo-Sa 11:30", "nsi_id": "unitedstatespostalservice-a77078", "operator": "United States Postal Service", "operator:short": "USPS", "operator:type": "public", "operator:wikidata": "Q668687", "ref": "4973800007"}, "type": "Feature"}
{"geometry": {"coordinates": [-84.7095207, 44.650567], "type": "Point"}, "id": "ni3nkDOh15lFDRLiDKMaXfkxIHQ=", "properties": {"@source_uri": "https://tools.usps.com/UspsToolsRestServices/rest/POLocator/findLocations", "@spider": "usps_collection_boxes", "addr:city": "GRAYLING", "addr:country": "US", "addr:postcode": "49738", "addr:state": "MI", "addr:street_address": "2470 S I 75 BUSINESS LOOP", "amenity": "post_box", "collection_times": "Mo-Sa 09:30", "nsi_id": "unitedstatespostalservice-a77078", "operator": "United States Postal Service", "operator:short": "USPS", "operator:type": "public", "operator:wikidata": "Q668687", "ref": "4973800009"}, "type": "Feature"}
{"geometry": {"coordinates": [-84.713757, 44.662178], "type": "Point"}, "id": "o5ozyBS7XovAmYeW-f4wW1wZ2go=", "properties": {"@source_uri": "https://tools.usps.com/UspsToolsRestServices/rest/POLocator/findLocations", "@spider": "usps_collection_boxes", "addr:city": "GRAYLING", "addr:country": "US", "addr:postcode": "49738", "addr:state": "MI", "addr:street_address": "300 E MICHIGAN AVE", "amenity": "post_box", "collection_times": "Mo-Fr 16:00; Sa 13:30", "indoor": "yes", "note": "ON 12/24 AND 12/31, THIS BOX MAY BE COLLECTED AS EARLY AS 12 NOON.", "nsi_id": "unitedstatespostalservice-a77078", "operator": "United States Postal Service", "operator:short": "USPS", "operator:type": "public", "operator:wikidata": "Q668687", "ref": "4973800010"}, "type": "Feature"}
{"geometry": {"coordinates": [-84.7112422, 44.601155], "type": "Point"}, "id": "L0ylDbKWwq9yY7upPtHuUoW6Zko=", "properties": {"@source_uri": "https://tools.usps.com/UspsToolsRestServices/rest/POLocator/findLocations", "@spider": "usps_collection_boxes", "addr:city": "GRAYLING", "addr:country": "US", "addr:postcode": "49738", "addr:state": "MI", "addr:street_address": "5801 NELSON A MILES PKWY", "amenity": "post_box", "collection_times": "Mo-Sa 10:00", "nsi_id": "unitedstatespostalservice-a77078", "operator": "United States Postal Service", "operator:short": "USPS", "operator:type": "public", "operator:wikidata": "Q668687", "ref": "4973800013"}, "type": "Feature"}
{"geometry": {"coordinates": [-84.710058, 44.651845], "type": "Point"}, "id": "_4bS0NNIwxnw0D9W4KZl2xTiDHg=", "properties": {"@source_uri": "https://tools.usps.com/UspsToolsRestServices/rest/POLocator/findLocations", "@spider": "usps_collection_boxes", "addr:city": "GRAYLING", "addr:country": "US", "addr:postcode": "49738", "addr:state": "MI", "addr:street_address": "2384 S I 75 BUSINESS LOOP", "amenity": "post_box", "collection_times": "Mo-Sa 09:30", "nsi_id": "unitedstatespostalservice-a77078", "operator": "United States Postal Service", "operator:short": "USPS", "operator:type": "public", "operator:wikidata": "Q668687", "ref": "4973800015"}, "type": "Feature"}
{"geometry": {"coordinates": [-84.713757, 44.662178], "type": "Point"}, "id": "Pkotn6RJmLXPpELFD8ifmGlreoA=", "properties": {"@source_uri": "https://tools.usps.com/UspsToolsRestServices/rest/POLocator/findLocations", "@spider": "usps_collection_boxes", "addr:city": "GRAYLING", "addr:country": "US", "addr:postcode": "49738", "addr:state": "MI", "addr:street_address": "300 E MICHIGAN AVE", "amenity": "post_box", "collection_times": "Mo-Fr 16:00; Sa 13:30", "note": "ON 12/24 AND 12/31, THIS BOX MAY BE COLLECTED AS EARLY AS 12 NOON.", "nsi_id": "unitedstatespostalservice-a77078", "operator": "United States Postal Service", "operator:short": "USPS", "operator:type": "public", "operator:wikidata": "Q668687", "ref": "4973800016"}, "type": "Feature"}
{"geometry": {"coordinates": [-84.4805809, 44.806366], "type": "Point"}, "id": "gF04Jko0At-lAka2JH97v1U4390=", "properties": {"@source_uri": "https://tools.usps.com/UspsToolsRestServices/rest/POLocator/findLocations", "@spider": "usps_collection_boxes", "addr:city": "GRAYLING", "addr:country": "US", "addr:postcode": "49738", "addr:state": "MI", "addr:street_address": "6510 COUNTY ROAD 612", "amenity": "post_box", "collection_times": "Mo-Sa 10:30", "nsi_id": "unitedstatespostalservice-a77078", "operator": "United States Postal Service", "operator:short": "USPS", "operator:type": "public", "operator:wikidata": "Q668687", "ref": "4973800018"}, "type": "Feature"}
{"geometry": {"coordinates": [-84.713662295, 44.662157403], "type": "Point"}, "id": "uFvWwB64bhsL_2TVP9ZFhEDHDjY=", "properties": {"@source_uri": "https://tools.usps.com/UspsToolsRestServices/rest/POLocator/findLocations", "@spider": "usps_collection_boxes", "addr:city": "GRAYLING", "addr:country": "US", "addr:postcode": "49738", "addr:state": "MI", "addr:street_address": "300 E MICHIGAN AVE", "amenity": "post_box", "collection_times": "Mo-Fr 16:00; Sa 11:30", "indoor": "yes", "note": "ON 12/24 AND 12/31, THIS BOX MAY BE COLLECTED AS EARLY AS 12 NOON.", "nsi_id": "unitedstatespostalservice-a77078", "operator": "United States Postal Service", "operator:short": "USPS", "operator:type": "public", "operator:wikidata": "Q668687", "ref": "4973800019"}, "type": "Feature"}
{"geometry": {"coordinates": [-84.9140807, 45.46931], "type": "Point"}, "id": "cBE9UveiBMO_tBIvL5TEGPbKAGA=", "properties": {"@source_uri": "https://tools.usps.com/UspsToolsRestServices/rest/POLocator/findLocations", "@spider": "usps_collection_boxes", "addr:city": "HARBOR SPRINGS", "addr:country": "US", "addr:postcode": "49740", "addr:state": "MI", "addr:street_address": "5667 S PLEASANTVIEW RD", "amenity": "post_box", "collection_times": "Mo-Sa 11:00", "nsi_id": "unitedstatespostalservice-a77078", "operator": "United States Postal Service", "operator:short": "USPS", "operator:type": "public", "operator:wikidata": "Q668687", "ref": "4974000001"}, "type": "Feature"}
{"geometry": {"coordinates": [-84.9879264, 45.430371], "type": "Point"}, "id": "8hKzvE5Ts0lbaWpT6SR_Au1PsBI=", "properties": {"@source_uri": "https://tools.usps.com/UspsToolsRestServices/rest/POLocator/findLocations", "@spider": "usps_collection_boxes", "addr:city": "HARBOR SPRINGS", "addr:country": "US", "addr:postcode": "49740", "addr:state": "MI", "addr:street_address": "297 S SPRING ST", "amenity": "post_box", "collection_times": "Mo-Fr 14:30; Sa 12:00", "note": "ON 12/24 AND 12/31, THIS BOX MAY BE COLLECTED AS EARLY AS 12 NOON.", "nsi_id": "unitedstatespostalservice-a77078", "operator": "United States Postal Service", "operator:short": "USPS", "operator:type": "public", "operator:wikidata": "Q668687", "ref": "4974000002"}, "type": "Feature"}
{"geometry": {"coordinates": [-84.989018, 45.430019], "type": "Point"}, "id": "o9MKhya4rQN91FuLrE9HuqMA6p8=", "properties": {"@source_uri": "https://tools.usps.com/UspsToolsRestServices/rest/POLocator/findLocations", "@spider": "usps_collection_boxes", "addr:city": "HARBOR SPRINGS", "addr:country": "US", "addr:postcode": "49740", "addr:state": "MI", "addr:street_address": "250 STATE ST", "amenity": "post_box", "collection_times": "Mo-Fr 16:00; Sa 12:00", "note": "ON 12/24 AND 12/31, THIS BOX MAY BE COLLECTED AS EARLY AS 12 NOON.", "nsi_id": "unitedstatespostalservice-a77078", "operator": "United States Postal Service", "operator:short": "USPS", "operator:type": "public", "operator:wikidata": "Q668687", "ref": "4974000003"}, "type": "Feature"}
{"geometry": {"coordinates": [-84.9906443696, 45.4384814303], "type": "Point"}, "id": "sY99v9LvCT0XxsWmc42UJDq4qsc=", "properties": {"@source_uri": "https://tools.usps.com/UspsToolsRestServices/rest/POLocator/findLocations", "@spider": "usps_collection_boxes", "addr:city": "HARBOR SPRINGS", "addr:country": "US", "addr:postcode": "49740", "addr:state": "MI", "addr:street_address": "1057 STATE ST", "amenity": "post_box", "collection_times": "Mo-Sa 11:00", "nsi_id": "unitedstatespostalservice-a77078", "operator": "United States Postal Service", "operator:short": "USPS", "operator:type": "public", "operator:wikidata": "Q668687", "ref": "4974000007"}, "type": "Feature"}
{"geometry": {"coordinates": [-84.987668, 45.429831], "type": "Point"}, "id": "s-yFzhWU8VENwIdv9qI5P-bjMG4=", "properties": {"@source_uri": "https://tools.usps.com/UspsToolsRestServices/rest/POLocator/findLocations", "@spider": "usps_collection_boxes", "addr:city": "HARBOR SPRINGS", "addr:country": "US", "addr:postcode": "49740", "addr:state": "MI", "addr:street_address": "220 E MAIN ST", "amenity": "post_box", "collection_times": "Mo-Fr 14:30; Sa 12:00", "note": "ON 12/24 AND 12/31, THIS BOX MAY BE COLLECTED AS EARLY AS 12 NOON.", "nsi_id": "unitedstatespostalservice-a77078", "operator": "United States Postal Service", "operator:short": "USPS", "operator:type": "public", "operator:wikidata": "Q668687", "ref": "4974000008"}, "type": "Feature"}
{"geometry": {"coordinates": [-84.9085699, 45.427516], "type": "Point"}, "id": "kQOghyLs7oxjyAxM1M24GKkEjlo=", "properties": {"@source_uri": "https://tools.usps.com/UspsToolsRestServices/rest/POLocator/findLocations", "@spider": "usps_collection_boxes", "addr:city": "HARBOR SPRINGS", "addr:country": "US", "addr:postcode": "49740", "addr:state": "MI", "addr:street_address": "8460 M 119", "amenity": "post_box", "collection_times": "Mo-Sa 11:15", "nsi_id": "unitedstatespostalservice-a77078", "operator": "United States Postal Service", "operator:short": "USPS", "operator:type": "public", "operator:wikidata": "Q668687", "ref": "4974000009"}, "type": "Feature"}
{"geometry": {"coordinates": [-84.989056, 45.430015], "type": "Point"}, "id": "PlkR68C8oWvRMmrfgQhomZu5X7g=", "properties": {"@source_uri": "https://tools.usps.com/UspsToolsRestServices/rest/POLocator/findLocations", "@spider": "usps_collection_boxes", "addr:city": "HARBOR SPRINGS", "addr:country": "US", "addr:postcode": "49740", "addr:state": "MI", "addr:street_address": "250 STATE ST", "amenity": "post_box", "collection_times": "Mo-Fr 16:30; Sa 12:00", "indoor": "yes", "note": "ON 12/24 AND 12/31, THIS BOX MAY BE COLLECTED AS EARLY AS 12 NOON.", "nsi_id": "unitedstatespostalservice-a77078", "operator": "United States Postal Service", "operator:short": "USPS", "operator:type": "public", "operator:wikidata": "Q668687", "ref": "4974000010"}, "type": "Feature"}
{"geometry": {"coordinates": [-84.989056737, 45.430134946], "type": "Point"}, "id": "AL5zko__-1JZhe-3lGyKQ-6xwiA=", "properties": {"@source_uri": "https://tools.usps.com/UspsToolsRestServices/rest/POLocator/findLocations", "@spider": "usps_collection_boxes", "addr:city": "HARBOR SPRINGS", "addr:country": "US", "addr:postcode": "49740", "addr:state": "MI", "addr:street_address": "250 STATE ST", "amenity": "post_box", "collection_times": "Mo-Fr 16:00; Sa 11:30", "indoor": "yes", "note": "ON 12/24 AND 12/31, THIS BOX MAY BE COLLECTED AS EARLY AS 12 NOON.", "nsi_id": "unitedstatespostalservice-a77078", "operator": "United States Postal Service", "operator:short": "USPS", "operator:type": "public", "operator:wikidata": "Q668687", "ref": "4974000011"}, "type": "Feature"}
{"geometry": {"coordinates": [-83.886001479, 45.300372433], "type": "Point"}, "id": "EsReS52wQ-b49WcrQNW3txs3hfQ=", "properties": {"@source_uri": "https://tools.usps.com/UspsToolsRestServices/rest/POLocator/findLocations", "@spider": "usps_collection_boxes", "addr:city": "HAWKS", "addr:country": "US", "addr:postcode": "49743", "addr:state": "MI", "addr:street_address": "8129 F-21 HWY", "amenity": "post_box", "collection_times": "Mo-Fr 14:30; Sa 12:00", "note": "ON 12/24 AND 12/31, THIS BOX MAY BE COLLECTED AS EARLY AS 12 NOON.", "nsi_id": "unitedstatespostalservice-a77078", "operator": "United States Postal Service", "operator:short": "USPS", "operator:type": "public", "operator:wikidata": "Q668687", "ref": "4974300001"}, "type": "Feature"}
{"geometry": {"coordinates": [-83.886001479, 45.300372433], "type": "Point"}, "id": "u70Wr7QE58AbQ-6ZHIIR9ufBmuY=", "properties": {"@source_uri": "https://tools.usps.com/UspsToolsRestServices/rest/POLocator/findLocations", "@spider": "usps_collection_boxes", "addr:city": "HAWKS", "addr:country": "US", "addr:postcode": "49743", "addr:state": "MI", "addr:street_address": "8129 F-21 HWY", "amenity": "post_box", "collection_times": "Mo-Fr 14:30; Sa 12:00", "indoor": "yes", "note": "ON 12/24 AND 12/31, THIS BOX MAY BE COLLECTED AS EARLY AS 12 NOON.", "nsi_id": "unitedstatespostalservice-a77078", "operator": "United States Postal Service", "operator:short": "USPS", "operator:type": "public", "operator:wikidata": "Q668687", "ref": "4974300002"}, "type": "Feature"}
{"geometry": {"coordinates": [-83.886001479, 45.300372433], "type": "Point"}, "id": "dWbYP1JRqmN8WQhZ2-PELZvRY44=", "properties": {"@source_uri": "https://tools.usps.com/UspsToolsRestServices/rest/POLocator/findLocations", "@spider": "usps_collection_boxes", "addr:city": "HAWKS", "addr:country": "US", "addr:postcode": "49743", "addr:state": "MI", "addr:street_address": "8129 F-21 HWY", "amenity": "post_box", "collection_times": "Mo-Fr 14:00; Sa 12:00", "indoor": "yes", "note": "ON 12/24 AND 12/31, THIS BOX MAY BE COLLECTED AS EARLY AS 12 NOON.", "nsi_id": "unitedstatespostalservice-a77078", "operator": "United States Postal Service", "operator:short": "USPS", "operator:type": "public", "operator:wikidata": "Q668687", "ref": "4974300003"}, "type": "Feature"}
{"geometry": {"coordinates": [-83.657123, 45.065012], "type": "Point"}, "id": "GkMg4T4Y2zk78qH4VjxZwb7JaGE=", "properties": {"@source_uri": "https://tools.usps.com/UspsToolsRestServices/rest/POLocator/findLocations", "@spider": "usps_collection_boxes", "addr:city": "HERRON", "addr:country": "US", "addr:postcode": "49744", "addr:state": "MI", "addr:street_address": "10084 M 32 W", "amenity": "post_box", "collection_times": "Mo-Fr 14:55; Sa 10:30", "note": "ON 12/24 AND 12/31, THIS BOX MAY BE COLLECTED AS EARLY AS 12 NOON.", "nsi_id": "unitedstatespostalservice-a77078", "operator": "United States Postal Service", "operator:short": "USPS", "operator:type": "public", "operator:wikidata": "Q668687", "ref": "4974400001"}, "type": "Feature"}
{"geometry": {"coordinates": [-83.656709997, 45.06526001], "type": "Point"}, "id": "1qKcKBXN4LD43psht5Op6O94qyg=", "properties": {"@source_uri": "https://tools.usps.com/UspsToolsRestServices/rest/POLocator/findLocations", "@spider": "usps_collection_boxes", "addr:city": "HERRON", "addr:country": "US", "addr:postcode": "49744", "addr:state": "MI", "addr:street_address": "10084 M 32 W", "amenity": "post_box", "collection_times": "Mo-Fr 14:55; Sa 10:40", "indoor": "yes", "note": "ON 12/24 AND 12/31, THIS BOX MAY BE COLLECTED AS EARLY AS 12 NOON.", "nsi_id": "unitedstatespostalservice-a77078", "operator": "United States Postal Service", "operator:short": "USPS", "operator:type": "public", "operator:wikidata": "Q668687", "ref": "4974400002"}, "type": "Feature"}
{"geometry": {"coordinates": [-83.656709997, 45.06526001], "type": "Point"}, "id": "XYc93z1AdK_TWh3FbZSBsb2AMDY=", "properties": {"@source_uri": "https://tools.usps.com/UspsToolsRestServices/rest/POLocator/findLocations", "@spider": "usps_collection_boxes", "addr:city": "HERRON", "addr:country": "US", "addr:postcode": "49744", "addr:state": "MI", "addr:street_address": "10084 M 32 W", "amenity": "post_box", "collection_times": "Mo-Fr 14:45; Sa 12:30", "indoor": "yes", "note": "ON 12/24 AND 12/31, THIS BOX MAY BE COLLECTED AS EARLY AS 12 NOON.", "nsi_id": "unitedstatespostalservice-a77078", "operator": "United States Postal Service", "operator:short": "USPS", "operator:type": "public", "operator:wikidata": "Q668687", "ref": "4974400003"}, "type": "Feature"}
{"geometry": {"coordinates": [-84.426618875, 46.003745323], "type": "Point"}, "id": "3T2P321RqLTIZih4JPg9OK3HU4I=", "properties": {"@source_uri": "https://tools.usps.com/UspsToolsRestServices/rest/POLocator/findLocations", "@spider": "usps_collection_boxes", "addr:city": "HESSEL", "addr:country": "US", "addr:postcode": "49745", "addr:state": "MI", "addr:street_address": "3042 LAKE ST", "amenity": "post_box", "collection_times": "Mo-Fr 14:05; Sa 09:30", "note": "ON 12/24 AND 12/31, THIS BOX MAY BE COLLECTED AS EARLY AS 12 NOON.", "nsi_id": "unitedstatespostalservice-a77078", "operator": "United States Postal Service", "operator:short": "USPS", "operator:type": "public", "operator:wikidata": "Q668687", "ref": "4974500002"}, "type": "Feature"}
{"geometry": {"coordinates": [-84.426618875, 46.003745323], "type": "Point"}, "id": "oT9hMnk5yBd0UAjkAZ5__mhyV4Q=", "properties": {"@source_uri": "https://tools.usps.com/UspsToolsRestServices/rest/POLocator/findLocations", "@spider": "usps_collection_boxes", "addr:city": "HESSEL", "addr:country": "US", "addr:postcode": "49745", "addr:state": "MI", "addr:street_address": "3042 LAKE ST", "amenity": "post_box", "collection_times": "Mo-Fr 14:05; Sa 09:30", "indoor": "yes", "note": "ON 12/24 AND 12/31, THIS BOX MAY BE COLLECTED AS EARLY AS 12 NOON.", "nsi_id": "unitedstatespostalservice-a77078", "operator": "United States Postal Service", "operator:short": "USPS", "operator:type": "public", "operator:wikidata": "Q668687", "ref": "4974500003"}, "type": "Feature"}
{"geometry": {"coordinates": [-84.426618875, 46.003745323], "type": "Point"}, "id": "6D8mZKfwXxzeVZMlHatrWlaVCyU=", "properties": {"@source_uri": "https://tools.usps.com/UspsToolsRestServices/rest/POLocator/findLocations", "@spider": "usps_collection_boxes", "addr:city": "HESSEL", "addr:country": "US", "addr:postcode": "49745", "addr:state": "MI", "addr:street_address": "3042 LAKE ST", "amenity": "post_box", "collection_times": "Mo-Fr 13:30; Sa 10:30", "indoor": "yes", "note": "ON 12/24 AND 12/31, THIS BOX MAY BE COLLECTED AS EARLY AS 12 NOON.", "nsi_id": "unitedstatespostalservice-a77078", "operator": "United States Postal Service", "operator:short": "USPS", "operator:type": "public", "operator:wikidata": "Q668687", "ref": "4974500004"}, "type": "Feature"}
{"geometry": {"coordinates": [-83.900801, 45.06378], "type": "Point"}, "id": "Mmjq6zZuvTFw2X4vLpBgDpt8nv8=", "properties": {"@source_uri": "https://tools.usps.com/UspsToolsRestServices/rest/POLocator/findLocations", "@spider": "usps_collection_boxes", "addr:city": "HILLMAN", "addr:country": "US", "addr:postcode": "49746", "addr:state": "MI", "addr:street_address": "111 N STATE ST", "amenity": "post_box", "collection_times": "Mo-Fr 15:25; Sa 10:00", "note": "ON 12/24 AND 12/31, THIS BOX MAY BE COLLECTED AS EARLY AS 12 NOON.", "nsi_id": "unitedstatespostalservice-a77078", "operator": "United States Postal Service", "operator:short": "USPS", "operator:type": "public", "operator:wikidata": "Q668687", "ref": "4974600001"}, "type": "Feature"}
{"geometry": {"coordinates": [-83.900801, 45.06378], "type": "Point"}, "id": "QNcuZlYnGtWtU9E101ROELabjNI=", "properties": {"@source_uri": "https://tools.usps.com/UspsToolsRestServices/rest/POLocator/findLocations", "@spider": "usps_collection_boxes", "addr:city": "HILLMAN", "addr:country": "US", "addr:postcode": "49746", "addr:state": "MI", "addr:street_address": "111 N STATE ST", "amenity": "post_box", "collection_times": "Mo-Fr 15:25; Sa 10:00", "indoor": "yes", "note": "ON 12/24 AND 12/31, THIS BOX MAY BE COLLECTED AS EARLY AS 12 NOON.", "nsi_id": "unitedstatespostalservice-a77078", "operator": "United States Postal Service", "operator:short": "USPS", "operator:type": "public", "operator:wikidata": "Q668687", "ref": "4974600002"}, "type": "Feature"}
{"geometry": {"coordinates": [-83.900802864, 45.063773528], "type": "Point"}, "id": "vbiLOT_ZAw-5ySCBfu4qffaViso=", "properties": {"@source_uri": "https://tools.usps.com/UspsToolsRestServices/rest/POLocator/findLocations", "@spider": "usps_collection_boxes", "addr:city": "HILLMAN", "addr:country": "US", "addr:postcode": "49746", "addr:state": "MI", "addr:street_address": "111 N STATE ST", "amenity": "post_box", "collection_times": "Mo-Fr 15:00", "indoor": "yes", "note": "ON 12/24 AND 12/31, THIS BOX MAY BE COLLECTED AS EARLY AS 12 NOON.", "nsi_id": "unitedstatespostalservice-a77078", "operator": "United States Postal Service", "operator:short": "USPS", "operator:type": "public", "operator:wikidata": "Q668687", "ref": "4974600004"}, "type": "Feature"}
{"geometry": {"coordinates": [-83.587328, 44.875774], "type": "Point"}, "id": "0ZP6On8sIPOg51EoN_tv5Tcmmc4=", "properties": {"@source_uri": "https://tools.usps.com/UspsToolsRestServices/rest/POLocator/findLocations", "@spider": "usps_collection_boxes", "addr:city": "HUBBARD LAKE", "addr:country": "US", "addr:postcode": "49747", "addr:state": "MI", "addr:street_address": "13818 HUBBARD LAKE RD", "amenity": "post_box", "collection_times": "Mo-Fr 14:40; Sa 11:30", "note": "ON 12/24 AND 12/31, THIS BOX MAY BE COLLECTED AS EARLY AS 12 NOON.", "nsi_id": "unitedstatespostalservice-a77078", "operator": "United States Postal Service", "operator:short": "USPS", "operator:type": "public", "operator:wikidata": "Q668687", "ref": "4974700001"}, "type": "Feature"}
{"geometry": {"coordinates": [-83.587328, 44.875774], "type": "Point"}, "id": "vqrto77zai97wffxPpkndzr4asQ=", "properties": {"@source_uri": "https://tools.usps.com/UspsToolsRestServices/rest/POLocator/findLocations", "@spider": "usps_collection_boxes", "addr:city": "HUBBARD LAKE", "addr:country": "US", "addr:postcode": "49747", "addr:state": "MI", "addr:street_address": "13818 HUBBARD LAKE RD", "amenity": "post_box", "collection_times": "Mo-Fr 14:40; Sa 11:30", "indoor": "yes", "note": "ON 12/24 AND 12/31, THIS BOX MAY BE COLLECTED AS EARLY AS 12 NOON.", "nsi_id": "unitedstatespostalservice-a77078", "operator": "United States Postal Service", "operator:short": "USPS", "operator:type": "public", "operator:wikidata": "Q668687", "ref": "4974700002"}, "type": "Feature"}
{"geometry": {"coordinates": [-83.58735033, 44.875760338], "type": "Point"}, "id": "c0Q3AMDgGiEshagA1crR6diAnwk=", "properties": {"@source_uri": "https://tools.usps.com/UspsToolsRestServices/rest/POLocator/findLocations", "@spider": "usps_collection_boxes", "addr:city": "HUBBARD LAKE", "addr:country": "US", "addr:postcode": "49747", "addr:state": "MI", "addr:street_address": "13818 HUBBARD LAKE RD", "amenity": "post_box", "collection_times": "Mo-Fr 14:00; Sa 10:30", "indoor": "yes", "note": "ON 12/24 AND 12/31, THIS BOX MAY BE COLLECTED AS EARLY AS 12 NOON.", "nsi_id": "unitedstatespostalservice-a77078", "operator": "United States Postal Service", "operator:short": "USPS", "operator:type": "public", "operator:wikidata": "Q668687", "ref": "4974700003"}, "type": "Feature"}
{"geometry": {"coordinates": [-85.150306, 46.352646], "type": "Point"}, "id": "03mFM_gefRj5o6u2QWkANw2UMcY=", "properties": {"@source_uri": "https://tools.usps.com/UspsToolsRestServices/rest/POLocator/findLocations", "@spider": "usps_collection_boxes", "addr:city": "HULBERT", "addr:country": "US", "addr:postcode": "49748", "addr:state": "MI", "addr:street_address": "10395 S MAPLE ST", "amenity": "post_box", "collection_times": "Mo-Fr 14:00; Sa 12:45", "note": "ON 12/24 AND 12/31, THIS BOX MAY BE COLLECTED AS EARLY AS 12 NOON.", "nsi_id": "unitedstatespostalservice-a77078", "operator": "United States Postal Service", "operator:short": "USPS", "operator:type": "public", "operator:wikidata": "Q668687", "ref": "4974800001"}, "type": "Feature"}
{"geometry": {"coordinates": [-85.150306, 46.352646], "type": "Point"}, "id": "d7KRA-S7OdVhaEwUXSOKUvShMCM=", "properties": {"@source_uri": "https://tools.usps.com/UspsToolsRestServices/rest/POLocator/findLocations", "@spider": "usps_collection_boxes", "addr:city": "HULBERT", "addr:country": "US", "addr:postcode": "49748", "addr:state": "MI", "addr:street_address": "10395 S MAPLE ST", "amenity": "post_box", "collection_times": "Mo-Fr 14:00; Sa 12:45", "indoor": "yes", "note": "ON 12/24 AND 12/31, THIS BOX MAY BE COLLECTED AS EARLY AS 12 NOON.", "nsi_id": "unitedstatespostalservice-a77078", "operator": "United States Postal Service", "operator:short": "USPS", "operator:type": "public", "operator:wikidata": "Q668687", "ref": "4974800002"}, "type": "Feature"}
{"geometry": {"coordinates": [-85.150398856, 46.355208861], "type": "Point"}, "id": "sZlKkK2eEQrTXh-Z135OyA0OOGA=", "properties": {"@source_uri": "https://tools.usps.com/UspsToolsRestServices/rest/POLocator/findLocations", "@spider": "usps_collection_boxes", "addr:city": "HULBERT", "addr:country": "US", "addr:postcode": "49748", "addr:state": "MI", "addr:street_address": "10395 S MAPLE ST", "amenity": "post_box", "collection_times": "Mo-Fr 13:30; Sa 12:00", "indoor": "yes", "note": "ON 12/24 AND 12/31, THIS BOX MAY BE COLLECTED AS EARLY AS 12 NOON.", "nsi_id": "unitedstatespostalservice-a77078", "operator": "United States Postal Service", "operator:short": "USPS", "operator:type": "public", "operator:wikidata": "Q668687", "ref": "4974800003"}, "type": "Feature"}
{"geometry": {"coordinates": [-84.613455, 45.41183], "type": "Point"}, "id": "MfXLE42SOgd5pjRClQsgQDxbr8w=", "properties": {"@source_uri": "https://tools.usps.com/UspsToolsRestServices/rest/POLocator/findLocations", "@spider": "usps_collection_boxes", "addr:city": "INDIAN RIVER", "addr:country": "US", "addr:postcode": "49749", "addr:state": "MI", "addr:street_address": "6095 LAKE ST", "amenity": "post_box", "collection_times": "Mo-Fr 16:05; Sa 11:45", "indoor": "yes", "note": "ON 12/24 AND 12/31, THIS BOX MAY BE COLLECTED AS EARLY AS 12 NOON.", "nsi_id": "unitedstatespostalservice-a77078", "operator": "United States Postal Service", "operator:short": "USPS", "operator:type": "public", "operator:wikidata": "Q668687", "ref": "4974900004"}, "type": "Feature"}
{"geometry": {"coordinates": [-84.6134979049, 45.4117804892], "type": "Point"}, "id": "PhOd52j73JtWI_jn_d0qB3BMARc=", "properties": {"@source_uri": "https://tools.usps.com/UspsToolsRestServices/rest/POLocator/findLocations", "@spider": "usps_collection_boxes", "addr:city": "INDIAN RIVER", "addr:country": "US", "addr:postcode": "49749", "addr:state": "MI", "addr:street_address": "6095 LAKE ST", "amenity": "post_box", "collection_times": "Mo-Fr 16:05; Sa 11:45", "note": "ON 12/24 AND 12/31, THIS BOX MAY BE COLLECTED AS EARLY AS 12 NOON.", "nsi_id": "unitedstatespostalservice-a77078", "operator": "United States Postal Service", "operator:short": "USPS", "operator:type": "public", "operator:wikidata": "Q668687", "ref": "4974900005"}, "type": "Feature"}
{"geometry": {"coordinates": [-84.613497905, 45.411780489], "type": "Point"}, "id": "uIACVR918OGXwrypoEJQo2ktrRE=", "properties": {"@source_uri": "https://tools.usps.com/UspsToolsRestServices/rest/POLocator/findLocations", "@spider": "usps_collection_boxes", "addr:city": "INDIAN RIVER", "addr:country": "US", "addr:postcode": "49749", "addr:state": "MI", "addr:street_address": "6095 LAKE ST", "amenity": "post_box", "collection_times": "Mo-Fr 16:30; Sa 11:30", "indoor": "yes", "note": "ON 12/24 AND 12/31, THIS BOX MAY BE COLLECTED AS EARLY AS 12 NOON.", "nsi_id": "unitedstatespostalservice-a77078", "operator": "United States Postal Service", "operator:short": "USPS", "operator:type": "public", "operator:wikidata": "Q668687", "ref": "4974900006"}, "type": "Feature"}
{"geometry": {"coordinates": [-84.458723, 44.985751], "type": "Point"}, "id": "1uJrC7LWfoUc7Xq5a0ntyy1pHqg=", "properties": {"@source_uri": "https://tools.usps.com/UspsToolsRestServices/rest/POLocator/findLocations", "@spider": "usps_collection_boxes", "addr:city": "JOHANNESBURG", "addr:country": "US", "addr:postcode": "49751", "addr:state": "MI", "addr:street_address": "10701 M 32 E", "amenity": "post_box", "collection_times": "Mo-Fr 15:00; Sa 10:30", "note": "ON 12/24 AND 12/31, THIS BOX MAY BE COLLECTED AS EARLY AS 12 NOON.", "nsi_id": "unitedstatespostalservice-a77078", "operator": "United States Postal Service", "operator:short": "USPS", "operator:type": "public", "operator:wikidata": "Q668687", "ref": "4975100001"}, "type": "Feature"}
{"geometry": {"coordinates": [-84.458723, 44.985751], "type": "Point"}, "id": "A9ddH-uR1He5l8FZh4zqyAXMaXQ=", "properties": {"@source_uri": "https://tools.usps.com/UspsToolsRestServices/rest/POLocator/findLocations", "@spider": "usps_collection_boxes", "addr:city": "JOHANNESBURG", "addr:country": "US", "addr:postcode": "49751", "addr:state": "MI", "addr:street_address": "10701 M 32 E", "amenity": "post_box", "collection_times": "Mo-Fr 15:00; Sa 10:30", "indoor": "yes", "note": "ON 12/24 AND 12/31, THIS BOX MAY BE COLLECTED AS EARLY AS 12 NOON.", "nsi_id": "unitedstatespostalservice-a77078", "operator": "United States Postal Service", "operator:short": "USPS", "operator:type": "public", "operator:wikidata": "Q668687", "ref": "4975100003"}, "type": "Feature"}
{"geometry": {"coordinates": [-84.458631222, 44.985744485], "type": "Point"}, "id": "wPdXEa8VaY_tCyF3Ea6y8MH-s0c=", "properties": {"@source_uri": "https://tools.usps.com/UspsToolsRestServices/rest/POLocator/findLocations", "@spider": "usps_collection_boxes", "addr:city": "JOHANNESBURG", "addr:country": "US", "addr:postcode": "49751", "addr:state": "MI", "addr:street_address": "10701 M 32 E", "amenity": "post_box", "collection_times": "Mo-Fr 14:30; Sa 10:00", "indoor": "yes", "note": "ON 12/24 AND 12/31, THIS BOX MAY BE COLLECTED AS EARLY AS 12 NOON.", "nsi_id": "unitedstatespostalservice-a77078", "operator": "United States Postal Service", "operator:short": "USPS", "operator:type": "public", "operator:wikidata": "Q668687", "ref": "4975100004"}, "type": "Feature"}
{"geometry": {"coordinates": [-84.5143599922, 46.2748900085], "type": "Point"}, "id": "IgI7Je9N8QEAFSrK44yq5gcxJ34=", "properties": {"@source_uri": "https://tools.usps.com/UspsToolsRestServices/rest/POLocator/findLocations", "@spider": "usps_collection_boxes", "addr:city": "KINROSS", "addr:country": "US", "addr:postcode": "49752", "addr:state": "MI", "addr:street_address": "16901 S HASSETT DR", "amenity": "post_box", "collection_times": "Mo-Fr 14:10; Sa 10:30", "note": "ON 12/24 AND 12/31, THIS BOX MAY BE COLLECTED AS EARLY AS 12 NOON.", "nsi_id": "unitedstatespostalservice-a77078", "operator": "United States Postal Service", "operator:short": "USPS", "operator:type": "public", "operator:wikidata": "Q668687", "ref": "4975200001"}, "type": "Feature"}
{"geometry": {"coordinates": [-84.514854, 46.273989], "type": "Point"}, "id": "g3PecZpAOS4tm4pi3mvpcn1B1PM=", "properties": {"@source_uri": "https://tools.usps.com/UspsToolsRestServices/rest/POLocator/findLocations", "@spider": "usps_collection_boxes", "addr:city": "KINROSS", "addr:country": "US", "addr:postcode": "49752", "addr:state": "MI", "addr:street_address": "16901 S HASSETT DR", "amenity": "post_box", "collection_times": "Mo-Fr 14:10; Sa 10:30", "indoor": "yes", "note": "ON 12/24 AND 12/31, THIS BOX MAY BE COLLECTED AS EARLY AS 12 NOON.", "nsi_id": "unitedstatespostalservice-a77078", "operator": "United States Postal Service", "operator:short": "USPS", "operator:type": "public", "operator:wikidata": "Q668687", "ref": "4975200002"}, "type": "Feature"}
{"geometry": {"coordinates": [-84.514702103, 46.275109287], "type": "Point"}, "id": "Uq--L3UJWqohrUXFD8xCv2Dhz1U=", "properties": {"@source_uri": "https://tools.usps.com/UspsToolsRestServices/rest/POLocator/findLocations", "@spider": "usps_collection_boxes", "addr:city": "KINROSS", "addr:country": "US", "addr:postcode": "49752", "addr:state": "MI", "addr:street_address": "16901 S HASSETT DR", "amenity": "post_box", "collection_times": "Mo-Fr 13:30; Sa 10:30", "indoor": "yes", "note": "ON 12/24 AND 12/31, THIS BOX MAY BE COLLECTED AS EARLY AS 12 NOON.", "nsi_id": "unitedstatespostalservice-a77078", "operator": "United States Postal Service", "operator:short": "USPS", "operator:type": "public", "operator:wikidata": "Q668687", "ref": "4975200003"}, "type": "Feature"}
{"geometry": {"coordinates": [-83.717179, 45.079293], "type": "Point"}, "id": "eQRZFcZnZ8vUxEltSoCmdZ9k7BM=", "properties": {"@source_uri": "https://tools.usps.com/UspsToolsRestServices/rest/POLocator/findLocations", "@spider": "usps_collection_boxes", "addr:city": "LACHINE", "addr:country": "US", "addr:postcode": "49753", "addr:state": "MI", "addr:street_address": "2292 M 65 N", "amenity": "post_box", "collection_times": "Mo-Fr 12:15; Sa 10:00", "note": "ON 12/24 AND 12/31, THIS BOX MAY BE COLLECTED AS EARLY AS 12 NOON.", "nsi_id": "unitedstatespostalservice-a77078", "operator": "United States Postal Service", "operator:short": "USPS", "operator:type": "public", "operator:wikidata": "Q668687", "ref": "4975300001"}, "type": "Feature"}
{"geometry": {"coordinates": [-83.717179, 45.079293], "type": "Point"}, "id": "cgrlXgsHYiy4w5KWb9esg5b9VFU=", "properties": {"@source_uri": "https://tools.usps.com/UspsToolsRestServices/rest/POLocator/findLocations", "@spider": "usps_collection_boxes", "addr:city": "LACHINE", "addr:country": "US", "addr:postcode": "49753", "addr:state": "MI", "addr:street_address": "2292 M 65 N", "amenity": "post_box", "collection_times": "Mo-Fr 12:15; Sa 10:30", "indoor": "yes", "note": "ON 12/24 AND 12/31, THIS BOX MAY BE COLLECTED AS EARLY AS 12 NOON.", "nsi_id": "unitedstatespostalservice-a77078", "operator": "United States Postal Service", "operator:short": "USPS", "operator:type": "public", "operator:wikidata": "Q668687", "ref": "4975300003"}, "type": "Feature"}
{"geometry": {"coordinates": [-83.7171781788, 45.0792897377], "type": "Point"}, "id": "Id_gaw7Xm15FlKIUo6dYYQMlnms=", "properties": {"@source_uri": "https://tools.usps.com/UspsToolsRestServices/rest/POLocator/findLocations", "@spider": "usps_collection_boxes", "addr:city": "LACHINE", "addr:country": "US", "addr:postcode": "49753", "addr:state": "MI", "addr:street_address": "2292 M 65 N", "amenity": "post_box", "collection_times": "Mo-Fr 12:00; Sa 10:00", "indoor": "yes", "nsi_id": "unitedstatespostalservice-a77078", "operator": "United States Postal Service", "operator:short": "USPS", "operator:type": "public", "operator:wikidata": "Q668687", "ref": "4975300004"}, "type": "Feature"}
{"geometry": {"coordinates": [-84.789282, 45.63572], "type": "Point"}, "id": "LYSMda2jXcGN-MRwvMweXmXxXFI=", "properties": {"@source_uri": "https://tools.usps.com/UspsToolsRestServices/rest/POLocator/findLocations", "@spider": "usps_collection_boxes", "addr:city": "LEVERING", "addr:country": "US", "addr:postcode": "49755", "addr:state": "MI", "addr:street_address": "5912 ROBINSON ST", "amenity": "post_box", "collection_times": "Mo-Fr 14:40; Sa 10:30", "note": "ON 12/24 AND 12/31, THIS BOX MAY BE COLLECTED AS EARLY AS 12 NOON.", "nsi_id": "unitedstatespostalservice-a77078", "operator": "United States Postal Service", "operator:short": "USPS", "operator:type": "public", "operator:wikidata": "Q668687", "ref": "4975500001"}, "type": "Feature"}
{"geometry": {"coordinates": [-84.789282, 45.63572], "type": "Point"}, "id": "ezi8Q5Op-T3bTNmQ61Br15fp3zY=", "properties": {"@source_uri": "https://tools.usps.com/UspsToolsRestServices/rest/POLocator/findLocations", "@spider": "usps_collection_boxes", "addr:city": "LEVERING", "addr:country": "US", "addr:postcode": "49755", "addr:state": "MI", "addr:street_address": "5912 ROBINSON ST", "amenity": "post_box", "collection_times": "Mo-Fr 14:40; Sa 10:30", "indoor": "yes", "note": "ON 12/24 AND 12/31, THIS BOX MAY BE COLLECTED AS EARLY AS 12 NOON.", "nsi_id": "unitedstatespostalservice-a77078", "operator": "United States Postal Service", "operator:short": "USPS", "operator:type": "public", "operator:wikidata": "Q668687", "ref": "4975500002"}, "type": "Feature"}
{"geometry": {"coordinates": [-84.789270757, 45.635589702], "type": "Point"}, "id": "yuXUhVHzspGuFhpohirN4hdwbMU=", "properties": {"@source_uri": "https://tools.usps.com/UspsToolsRestServices/rest/POLocator/findLocations", "@spider": "usps_collection_boxes", "addr:city": "LEVERING", "addr:country": "US", "addr:postcode": "49755", "addr:state": "MI", "addr:street_address": "5912 ROBINSON ST", "amenity": "post_box", "collection_times": "Mo-Fr 14:30; Sa 10:00", "indoor": "yes", "note": "ON 12/24 AND 12/31, THIS BOX MAY BE COLLECTED AS EARLY AS 12 NOON.", "nsi_id": "unitedstatespostalservice-a77078", "operator": "United States Postal Service", "operator:short": "USPS", "operator:type": "public", "operator:wikidata": "Q668687", "ref": "4975500003"}, "type": "Feature"}
{"geometry": {"coordinates": [-84.309627, 44.883944], "type": "Point"}, "id": "O1wBEKZ8opZ4keXMWXkBvHnJUgI=", "properties": {"@source_uri": "https://tools.usps.com/UspsToolsRestServices/rest/POLocator/findLocations", "@spider": "usps_collection_boxes", "addr:city": "LEWISTON", "addr:country": "US", "addr:postcode": "49756", "addr:state": "MI", "addr:street_address": "4165 SALLING AVE", "amenity": "post_box", "collection_times": "Mo-Fr 15:30; Sa 11:30", "note": "ON 12/24 AND 12/31, THIS BOX MAY BE COLLECTED AS EARLY AS 12 NOON.", "nsi_id": "unitedstatespostalservice-a77078", "operator": "United States Postal Service", "operator:short": "USPS", "operator:type": "public", "operator:wikidata": "Q668687", "ref": "4975600002"}, "type": "Feature"}
{"geometry": {"coordinates": [-84.2910911, 44.882685], "type": "Point"}, "id": "bGb6JSEb9A-PCJGJExYbAMuGjDo=", "properties": {"@source_uri": "https://tools.usps.com/UspsToolsRestServices/rest/POLocator/findLocations", "@spider": "usps_collection_boxes", "addr:city": "LEWISTON", "addr:country": "US", "addr:postcode": "49756", "addr:state": "MI", "addr:street_address": "2855 S COUNTY ROAD 489", "amenity": "post_box", "collection_times": "Mo-Fr 11:30; Sa 11:00", "nsi_id": "unitedstatespostalservice-a77078", "operator": "United States Postal Service", "operator:short": "USPS", "operator:type": "public", "operator:wikidata": "Q668687", "ref": "4975600004"}, "type": "Feature"}
{"geometry": {"coordinates": [-84.309627, 44.883944], "type": "Point"}, "id": "lKprHHWJwaEZUj4ykx3rb2nzKp4=", "properties": {"@source_uri": "https://tools.usps.com/UspsToolsRestServices/rest/POLocator/findLocations", "@spider": "usps_collection_boxes", "addr:city": "LEWISTON", "addr:country": "US", "addr:postcode": "49756", "addr:state": "MI", "addr:street_address": "4165 SALLING AVE", "amenity": "post_box", "collection_times": "Mo-Fr 15:30; Sa 11:30", "indoor": "yes", "note": "ON 12/24 AND 12/31, THIS BOX MAY BE COLLECTED AS EARLY AS 12 NOON.", "nsi_id": "unitedstatespostalservice-a77078", "operator": "United States Postal Service", "operator:short": "USPS", "operator:type": "public", "operator:wikidata": "Q668687", "ref": "4975600005"}, "type": "Feature"}
{"geometry": {"coordinates": [-84.3097815, 44.883938539], "type": "Point"}, "id": "toFWMebi_FfM4c8XO39uIgMGaoc=", "properties": {"@source_uri": "https://tools.usps.com/UspsToolsRestServices/rest/POLocator/findLocations", "@spider": "usps_collection_boxes", "addr:city": "LEWISTON", "addr:country": "US", "addr:postcode": "49756", "addr:state": "MI", "addr:street_address": "4165 SALLING AVE", "amenity": "post_box", "collection_times": "Mo-Fr 15:30; Sa 11:00", "indoor": "yes", "note": "ON 12/24 AND 12/31, THIS BOX MAY BE COLLECTED AS EARLY AS 12 NOON.", "nsi_id": "unitedstatespostalservice-a77078", "operator": "United States Postal Service", "operator:short": "USPS", "operator:type": "public", "operator:wikidata": "Q668687", "ref": "4975600006"}, "type": "Feature"}
{"geometry": {"coordinates": [-84.618977, 45.84933], "type": "Point"}, "id": "9R-cLfXguIQplHUtpELV5nNedh4=", "properties": {"@source_uri": "https://tools.usps.com/UspsToolsRestServices/rest/POLocator/findLocations", "@spider": "usps_collection_boxes", "addr:city": "MACKINAC ISLAND", "addr:country": "US", "addr:postcode": "49757", "addr:state": "MI", "addr:street_address": "7316 MARKET ST", "amenity": "post_box", "collection_times": "Mo-Fr 12:00; Sa 11:00", "nsi_id": "unitedstatespostalservice-a77078", "operator": "United States Postal Service", "operator:short": "USPS", "operator:type": "public", "operator:wikidata": "Q668687", "ref": "4975700001"}, "type": "Feature"}
{"geometry": {"coordinates": [-84.618977, 45.84933], "type": "Point"}, "id": "0ARFdLPARlhXTNq_bKwKNv0e4h8=", "properties": {"@source_uri": "https://tools.usps.com/UspsToolsRestServices/rest/POLocator/findLocations", "@spider": "usps_collection_boxes", "addr:city": "MACKINAC ISLAND", "addr:country": "US", "addr:postcode": "49757", "addr:state": "MI", "addr:street_address": "7316 MARKET ST", "amenity": "post_box", "collection_times": "Mo-Fr 12:00; Sa 11:00", "indoor": "yes", "nsi_id": "unitedstatespostalservice-a77078", "operator": "United States Postal Service", "operator:short": "USPS", "operator:type": "public", "operator:wikidata": "Q668687", "ref": "4975700002"}, "type": "Feature"}
{"geometry": {"coordinates": [-84.618528883, 45.849950376], "type": "Point"}, "id": "aIlKmUR8iCn3uvcZVvnomlKlm18=", "properties": {"@source_uri": "https://tools.usps.com/UspsToolsRestServices/rest/POLocator/findLocations", "@spider": "usps_collection_boxes", "addr:city": "MACKINAC ISLAND", "addr:country": "US", "addr:postcode": "49757", "addr:state": "MI", "addr:street_address": "7316 MARKET ST", "amenity": "post_box", "collection_times": "Mo-Fr 11:30; Sa 10:30", "indoor": "yes", "nsi_id": "unitedstatespostalservice-a77078", "operator": "United States Postal Service", "operator:short": "USPS", "operator:type": "public", "operator:wikidata": "Q668687", "ref": "4975700003"}, "type": "Feature"}
{"geometry": {"coordinates": [-84.060069, 45.33708], "type": "Point"}, "id": "HaAtNNDYSz5Nfi1acQCVSzpwroM=", "properties": {"@source_uri": "https://tools.usps.com/UspsToolsRestServices/rest/POLocator/findLocations", "@spider": "usps_collection_boxes", "addr:city": "MILLERSBURG", "addr:country": "US", "addr:postcode": "49759", "addr:state": "MI", "addr:street_address": "5316 MAIN ST", "amenity": "post_box", "collection_times": "Mo-Fr 15:10; Sa 10:30", "note": "ON 12/24 AND 12/31, THIS BOX MAY BE COLLECTED AS EARLY AS 12 NOON.", "nsi_id": "unitedstatespostalservice-a77078", "operator": "United States Postal Service", "operator:short": "USPS", "operator:type": "public", "operator:wikidata": "Q668687", "ref": "4975900001"}, "type": "Feature"}
{"geometry": {"coordinates": [-84.060069, 45.33708], "type": "Point"}, "id": "beDtl6QEDCwIY8Yn3AE9SCyRbmU=", "properties": {"@source_uri": "https://tools.usps.com/UspsToolsRestServices/rest/POLocator/findLocations", "@spider": "usps_collection_boxes", "addr:city": "MILLERSBURG", "addr:country": "US", "addr:postcode": "49759", "addr:state": "MI", "addr:street_address": "5316 MAIN ST", "amenity": "post_box", "collection_times": "Mo-Fr 15:10; Sa 10:30", "indoor": "yes", "note": "ON 12/24 AND 12/31, THIS BOX MAY BE COLLECTED AS EARLY AS 12 NOON.", "nsi_id": "unitedstatespostalservice-a77078", "operator": "United States Postal Service", "operator:short": "USPS", "operator:type": "public", "operator:wikidata": "Q668687", "ref": "4975900003"}, "type": "Feature"}
{"geometry": {"coordinates": [-84.060072134, 45.337077974], "type": "Point"}, "id": "Jg0fwMMhovaiqFlHOgXsAqpsr8k=", "properties": {"@source_uri": "https://tools.usps.com/UspsToolsRestServices/rest/POLocator/findLocations", "@spider": "usps_collection_boxes", "addr:city": "MILLERSBURG", "addr:country": "US", "addr:postcode": "49759", "addr:state": "MI", "addr:street_address": "5316 MAIN ST", "amenity": "post_box", "collection_times": "Mo-Fr 15:00; Sa 10:00", "indoor": "yes", "note": "ON 12/24 AND 12/31, THIS BOX MAY BE COLLECTED AS EARLY AS 12 NOON.", "nsi_id": "unitedstatespostalservice-a77078", "operator": "United States Postal Service", "operator:short": "USPS", "operator:type": "public", "operator:wikidata": "Q668687", "ref": "4975900004"}, "type": "Feature"}
{"geometry": {"coordinates": [-84.8319693, 45.995092], "type": "Point"}, "id": "jOyu3RDOJBtH6QpqlrxgG2kMeYE=", "properties": {"@source_uri": "https://tools.usps.com/UspsToolsRestServices/rest/POLocator/findLocations", "@spider": "usps_collection_boxes", "addr:city": "MORAN", "addr:country": "US", "addr:postcode": "49760", "addr:state": "MI", "addr:street_address": "N4050 M 123", "amenity": "post_box", "collection_times": "Mo-Fr 11:45; Sa 10:30", "nsi_id": "unitedstatespostalservice-a77078", "operator": "United States Postal Service", "operator:short": "USPS", "operator:type": "public", "operator:wikidata": "Q668687", "ref": "4976000002"}, "type": "Feature"}
{"geometry": {"coordinates": [-84.8320187, 45.995019], "type": "Point"}, "id": "vU7-uyza9xzhIxpLlzdgR2pIuLM=", "properties": {"@source_uri": "https://tools.usps.com/UspsToolsRestServices/rest/POLocator/findLocations", "@spider": "usps_collection_boxes", "addr:city": "MORAN", "addr:country": "US", "addr:postcode": "49760", "addr:state": "MI", "addr:street_address": "N4050 M 123", "amenity": "post_box", "collection_times": "Mo-Fr 11:45; Sa 10:30", "indoor": "yes", "nsi_id": "unitedstatespostalservice-a77078", "operator": "United States Postal Service", "operator:short": "USPS", "operator:type": "public", "operator:wikidata": "Q668687", "ref": "4976000004"}, "type": "Feature"}
{"geometry": {"coordinates": [-84.831982804, 45.995206546], "type": "Point"}, "id": "VFPjZFiyTP7ciuqcNK5wXi_43nA=", "properties": {"@source_uri": "https://tools.usps.com/UspsToolsRestServices/rest/POLocator/findLocations", "@spider": "usps_collection_boxes", "addr:city": "MORAN", "addr:country": "US", "addr:postcode": "49760", "addr:state": "MI", "addr:street_address": "N4050 STATE ROUTE 123", "amenity": "post_box", "collection_times": "Mo-Fr 11:30; Sa 10:00", "indoor": "yes", "nsi_id": "unitedstatespostalservice-a77078", "operator": "United States Postal Service", "operator:short": "USPS", "operator:type": "public", "operator:wikidata": "Q668687", "ref": "4976000005"}, "type": "Feature"}
{"geometry": {"coordinates": [-84.525548321, 45.562216231], "type": "Point"}, "id": "2UyrgGQV9eqrLpl3FcMNjYOWgBY=", "properties": {"@source_uri": "https://tools.usps.com/UspsToolsRestServices/rest/POLocator/findLocations", "@spider": "usps_collection_boxes", "addr:city": "MULLETT LAKE", "addr:country": "US", "addr:postcode": "49761", "addr:state": "MI", "addr:street_address": "7221 MULLETT LAKE DR", "amenity": "post_box", "collection_times": "Mo-Fr 13:00; Sa 10:00", "note": "ON 12/24 AND 12/31, THIS BOX MAY BE COLLECTED AS EARLY AS 12 NOON.", "nsi_id": "unitedstatespostalservice-a77078", "operator": "United States Postal Service", "operator:short": "USPS", "operator:type": "public", "operator:wikidata": "Q668687", "ref": "4976100001"}, "type": "Feature"}
{"geometry": {"coordinates": [-84.525548321, 45.562216231], "type": "Point"}, "id": "NDnjAi8e8I1oncZwn0UfY8Jsagw=", "properties": {"@source_uri": "https://tools.usps.com/UspsToolsRestServices/rest/POLocator/findLocations", "@spider": "usps_collection_boxes", "addr:city": "MULLETT LAKE", "addr:country": "US", "addr:postcode": "49761", "addr:state": "MI", "addr:street_address": "7221 MULLETT LAKE DR", "amenity": "post_box", "collection_times": "Mo-Fr 13:00; Sa 10:00", "indoor": "yes", "note": "ON 12/24 AND 12/31, THIS BOX MAY BE COLLECTED AS EARLY AS 12 NOON.", "nsi_id": "unitedstatespostalservice-a77078", "operator": "United States Postal Service", "operator:short": "USPS", "operator:type": "public", "operator:wikidata": "Q668687", "ref": "4976100002"}, "type": "Feature"}
{"geometry": {"coordinates": [-84.560050811, 45.440982434], "type": "Point"}, "id": "0mjO_6ajr6Tq0KThTqm_b8RxHNw=", "properties": {"@source_uri": "https://tools.usps.com/UspsToolsRestServices/rest/POLocator/findLocations", "@spider": "usps_collection_boxes", "addr:city": "MULLETT LAKE", "addr:country": "US", "addr:postcode": "49761", "addr:state": "MI", "addr:street_address": "1498 MULLETT LAKE DR", "amenity": "post_box", "collection_times": "Mo-Fr 12:30; Sa 10:30", "indoor": "yes", "note": "ON 12/24 AND 12/31, THIS BOX MAY BE COLLECTED AS EARLY AS 12 NOON.", "nsi_id": "unitedstatespostalservice-a77078", "operator": "United States Postal Service", "operator:short": "USPS", "operator:type": "public", "operator:wikidata": "Q668687", "ref": "4976100003"}, "type": "Feature"}
{"geometry": {"coordinates": [-85.269649, 46.069195], "type": "Point"}, "id": "A7diTb7w7ueIEVhkBpvq009nIB8=", "properties": {"@source_uri": "https://tools.usps.com/UspsToolsRestServices/rest/POLocator/findLocations", "@spider": "usps_collection_boxes", "addr:city": "NAUBINWAY", "addr:country": "US", "addr:postcode": "49762", "addr:state": "MI", "addr:street_address": "W11631 US HIGHWAY 2", "amenity": "post_box", "collection_times": "Mo-Fr 11:45; Sa 09:45", "nsi_id": "unitedstatespostalservice-a77078", "operator": "United States Postal Service", "operator:short": "USPS", "operator:type": "public", "operator:wikidata": "Q668687", "ref": "4976200001"}, "type": "Feature"}
{"geometry": {"coordinates": [-85.269649, 46.069195], "type": "Point"}, "id": "rll_LR5io3j_Hps0vLqvnYPLGvY=", "properties": {"@source_uri": "https://tools.usps.com/UspsToolsRestServices/rest/POLocator/findLocations", "@spider": "usps_collection_boxes", "addr:city": "NAUBINWAY", "addr:country": "US", "addr:postcode": "49762", "addr:state": "MI", "addr:street_address": "W11631 US HIGHWAY 2", "amenity": "post_box", "collection_times": "Mo-Fr 11:45; Sa 09:45", "indoor": "yes", "nsi_id": "unitedstatespostalservice-a77078", "operator": "United States Postal Service", "operator:short": "USPS", "operator:type": "public", "operator:wikidata": "Q668687", "ref": "4976200002"}, "type": "Feature"}
{"geometry": {"coordinates": [-85.44851364, 46.094356334], "type": "Point"}, "id": "u2iIZMNwlW3M--wENOor9sRWWP4=", "properties": {"@source_uri": "https://tools.usps.com/UspsToolsRestServices/rest/POLocator/findLocations", "@spider": "usps_collection_boxes", "addr:city": "NAUBINWAY", "addr:country": "US", "addr:postcode": "49762", "addr:state": "MI", "addr:street_address": "W11631 US HIGHWAY 2", "amenity": "post_box", "collection_times": "Mo-Fr 11:15; Sa 09:15", "indoor": "yes", "nsi_id": "unitedstatespostalservice-a77078", "operator": "United States Postal Service", "operator:short": "USPS", "operator:type": "public", "operator:wikidata": "Q668687", "ref": "4976200003"}, "type": "Feature"}
{"geometry": {"coordinates": [-84.826863, 45.423479], "type": "Point"}, "id": "Z7ql2gDxbvy9SfW_0yhwLTBbWuM=", "properties": {"@source_uri": "https://tools.usps.com/UspsToolsRestServices/rest/POLocator/findLocations", "@spider": "usps_collection_boxes", "addr:city": "ODEN", "addr:country": "US", "addr:postcode": "49764", "addr:state": "MI", "addr:street_address": "8841 MAIN ST", "amenity": "post_box", "collection_times": "Mo-Fr 15:55; Sa 10:30", "note": "ON 12/24 AND 12/31, THIS BOX MAY BE COLLECTED AS EARLY AS 12 NOON.", "nsi_id": "unitedstatespostalservice-a77078", "operator": "United States Postal Service", "operator:short": "USPS", "operator:type": "public", "operator:wikidata": "Q668687", "ref": "4976400001"}, "type": "Feature"}
{"geometry": {"coordinates": [-84.826863, 45.423479], "type": "Point"}, "id": "LinONoP0h3kaCiBkUlBCIKXhYWI=", "properties": {"@source_uri": "https://tools.usps.com/UspsToolsRestServices/rest/POLocator/findLocations", "@spider": "usps_collection_boxes", "addr:city": "ODEN", "addr:country": "US", "addr:postcode": "49764", "addr:state": "MI", "addr:street_address": "8841 MAIN ST", "amenity": "post_box", "collection_times": "Mo-Fr 15:55; Sa 10:30", "indoor": "yes", "note": "ON 12/24 AND 12/31, THIS BOX MAY BE COLLECTED AS EARLY AS 12 NOON.", "nsi_id": "unitedstatespostalservice-a77078", "operator": "United States Postal Service", "operator:short": "USPS", "operator:type": "public", "operator:wikidata": "Q668687", "ref": "4976400002"}, "type": "Feature"}
{"geometry": {"coordinates": [-84.826863323, 45.423478949], "type": "Point"}, "id": "2a2_ObiP8aDEsnasmBaNGRfNq6k=", "properties": {"@source_uri": "https://tools.usps.com/UspsToolsRestServices/rest/POLocator/findLocations", "@spider": "usps_collection_boxes", "addr:city": "ODEN", "addr:country": "US", "addr:postcode": "49764", "addr:state": "MI", "addr:street_address": "8841 MAIN ST", "amenity": "post_box", "collection_times": "Mo-Fr 15:45; Sa 10:00", "indoor": "yes", "note": "ON 12/24 AND 12/31, THIS BOX MAY BE COLLECTED AS EARLY AS 12 NOON.", "nsi_id": "unitedstatespostalservice-a77078", "operator": "United States Postal Service", "operator:short": "USPS", "operator:type": "public", "operator:wikidata": "Q668687", "ref": "4976400003"}, "type": "Feature"}
{"geometry": {"coordinates": [-84.2305019797, 45.3559540097], "type": "Point"}, "id": "C9m1Ogn1_LZHeR5hYsJ7UJcEL0A=", "properties": {"@source_uri": "https://tools.usps.com/UspsToolsRestServices/rest/POLocator/findLocations", "@spider": "usps_collection_boxes", "addr:city": "ONAWAY", "addr:country": "US", "addr:postcode": "49765", "addr:state": "MI", "addr:street_address": "20855 WASHINGTON AVE", "amenity": "post_box", "collection_times": "Mo-Sa 11:00", "nsi_id": "unitedstatespostalservice-a77078", "operator": "United States Postal Service", "operator:short": "USPS", "operator:type": "public", "operator:wikidata": "Q668687", "ref": "4976500002"}, "type": "Feature"}
{"geometry": {"coordinates": [-84.22739, 45.35763], "type": "Point"}, "id": "EmcSDHo2GOJhjnRylPKo4EwwoQs=", "properties": {"@source_uri": "https://tools.usps.com/UspsToolsRestServices/rest/POLocator/findLocations", "@spider": "usps_collection_boxes", "addr:city": "ONAWAY", "addr:country": "US", "addr:postcode": "49765", "addr:state": "MI", "addr:street_address": "20675 STATE ST", "amenity": "post_box", "collection_times": "Mo-Fr 15:30; Sa 11:00", "note": "ON 12/24 AND 12/31, THIS BOX MAY BE COLLECTED AS EARLY AS 12 NOON.", "nsi_id": "unitedstatespostalservice-a77078", "operator": "United States Postal Service", "operator:short": "USPS", "operator:type": "public", "operator:wikidata": "Q668687", "ref": "4976500003"}, "type": "Feature"}
{"geometry": {"coordinates": [-84.22739, 45.35763], "type": "Point"}, "id": "KFtURVrbctQf2NzzziD3vDVPFug=", "properties": {"@source_uri": "https://tools.usps.com/UspsToolsRestServices/rest/POLocator/findLocations", "@spider": "usps_collection_boxes", "addr:city": "ONAWAY", "addr:country": "US", "addr:postcode": "49765", "addr:state": "MI", "addr:street_address": "20675 STATE ST", "amenity": "post_box", "collection_times": "Mo-Fr 15:30; Sa 11:00", "indoor": "yes", "note": "ON 12/24 AND 12/31, THIS BOX MAY BE COLLECTED AS EARLY AS 12 NOON.", "nsi_id": "unitedstatespostalservice-a77078", "operator": "United States Postal Service", "operator:short": "USPS", "operator:type": "public", "operator:wikidata": "Q668687", "ref": "4976500004"}, "type": "Feature"}
{"geometry": {"coordinates": [-84.227391, 45.357626474], "type": "Point"}, "id": "VAjMeHFQ2DjZmbyWpVTk2WrpnC8=", "properties": {"@source_uri": "https://tools.usps.com/UspsToolsRestServices/rest/POLocator/findLocations", "@spider": "usps_collection_boxes", "addr:city": "ONAWAY", "addr:country": "US", "addr:postcode": "49765", "addr:state": "MI", "addr:street_address": "20675 STATE ST", "amenity": "post_box", "collection_times": "Mo-Fr 15:30; Sa 10:30", "indoor": "yes", "note": "ON 12/24 AND 12/31, THIS BOX MAY BE COLLECTED AS EARLY AS 12 NOON.", "nsi_id": "unitedstatespostalservice-a77078", "operator": "United States Postal Service", "operator:short": "USPS", "operator:type": "public", "operator:wikidata": "Q668687", "ref": "4976500005"}, "type": "Feature"}
{"geometry": {"coordinates": [-83.442967, 44.90287], "type": "Point"}, "id": "4cP2LFyjGoiV8N3JXgO_mSbzoVo=", "properties": {"@source_uri": "https://tools.usps.com/UspsToolsRestServices/rest/POLocator/findLocations", "@spider": "usps_collection_boxes", "addr:city": "OSSINEKE", "addr:country": "US", "addr:postcode": "49766", "addr:state": "MI", "addr:street_address": "11926 US HIGHWAY 23 S", "amenity": "post_box", "collection_times": "Mo-Fr 14:40; Sa 11:00", "note": "ON 12/24 AND 12/31, THIS BOX MAY BE COLLECTED AS EARLY AS 12 NOON.", "nsi_id": "unitedstatespostalservice-a77078", "operator": "United States Postal Service", "operator:short": "USPS", "operator:type": "public", "operator:wikidata": "Q668687", "ref": "4976600001"}, "type": "Feature"}
{"geometry": {"coordinates": [-83.442967, 44.90287], "type": "Point"}, "id": "m1HK_ex8eBJ4oaEyjPX9R6ByCpg=", "properties": {"@source_uri": "https://tools.usps.com/UspsToolsRestServices/rest/POLocator/findLocations", "@spider": "usps_collection_boxes", "addr:city": "OSSINEKE", "addr:country": "US", "addr:postcode": "49766", "addr:state": "MI", "addr:street_address": "11926 US HIGHWAY 23 S", "amenity": "post_box", "collection_times": "Mo-Fr 14:40; Sa 11:00", "indoor": "yes", "note": "ON 12/24 AND 12/31, THIS BOX MAY BE COLLECTED AS EARLY AS 12 NOON.", "nsi_id": "unitedstatespostalservice-a77078", "operator": "United States Postal Service", "operator:short": "USPS", "operator:type": "public", "operator:wikidata": "Q668687", "ref": "4976600002"}, "type": "Feature"}
{"geometry": {"coordinates": [-83.442979511, 44.902912789], "type": "Point"}, "id": "iF1lNfpAerj9GXc00AA16qpMpn4=", "properties": {"@source_uri": "https://tools.usps.com/UspsToolsRestServices/rest/POLocator/findLocations", "@spider": "usps_collection_boxes", "addr:city": "OSSINEKE", "addr:country": "US", "addr:postcode": "49766", "addr:state": "MI", "addr:street_address": "11926 US HIGHWAY 23 S", "amenity": "post_box", "collection_times": "Mo-Fr 14:00; Sa 10:30", "indoor": "yes", "note": "ON 12/24 AND 12/31, THIS BOX MAY BE COLLECTED AS EARLY AS 12 NOON.", "nsi_id": "unitedstatespostalservice-a77078", "operator": "United States Postal Service", "operator:short": "USPS", "operator:type": "public", "operator:wikidata": "Q668687", "ref": "4976600003"}, "type": "Feature"}
{"geometry": {"coordinates": [-85.037525, 46.625695], "type": "Point"}, "id": "PFbjHeSKb4y9bU9-2REaVTuzLn0=", "properties": {"@source_uri": "https://tools.usps.com/UspsToolsRestServices/rest/POLocator/findLocations", "@spider": "usps_collection_boxes", "addr:city": "PARADISE", "addr:country": "US", "addr:postcode": "49768", "addr:state": "MI", "addr:street_address": "8196 N M 123", "amenity": "post_box", "collection_times": "Mo-Fr 13:25; Sa 10:00", "note": "ON 12/24 AND 12/31, THIS BOX MAY BE COLLECTED AS EARLY AS 12 NOON.", "nsi_id": "unitedstatespostalservice-a77078", "operator": "United States Postal Service", "operator:short": "USPS", "operator:type": "public", "operator:wikidata": "Q668687", "ref": "4976800001"}, "type": "Feature"}
{"geometry": {"coordinates": [-85.037525, 46.625695], "type": "Point"}, "id": "53-dlw_Xsq7nYjtmnBrLZCuB2E0=", "properties": {"@source_uri": "https://tools.usps.com/UspsToolsRestServices/rest/POLocator/findLocations", "@spider": "usps_collection_boxes", "addr:city": "PARADISE", "addr:country": "US", "addr:postcode": "49768", "addr:state": "MI", "addr:street_address": "8196 N M 123", "amenity": "post_box", "collection_times": "Mo-Fr 13:25; Sa 10:00", "indoor": "yes", "note": "ON 12/24 AND 12/31, THIS BOX MAY BE COLLECTED AS EARLY AS 12 NOON.", "nsi_id": "unitedstatespostalservice-a77078", "operator": "United States Postal Service", "operator:short": "USPS", "operator:type": "public", "operator:wikidata": "Q668687", "ref": "4976800002"}, "type": "Feature"}
{"geometry": {"coordinates": [-85.037639663, 46.624956481], "type": "Point"}, "id": "0jllkEdl8FPNke1f58GM2ZtezXo=", "properties": {"@source_uri": "https://tools.usps.com/UspsToolsRestServices/rest/POLocator/findLocations", "@spider": "usps_collection_boxes", "addr:city": "PARADISE", "addr:country": "US", "addr:postcode": "49768", "addr:state": "MI", "addr:street_address": "8196 N M 123", "amenity": "post_box", "collection_times": "Mo-Fr 13:00; Sa 10:00", "indoor": "yes", "note": "ON 12/24 AND 12/31, THIS BOX MAY BE COLLECTED AS EARLY AS 12 NOON.", "nsi_id": "unitedstatespostalservice-a77078", "operator": "United States Postal Service", "operator:short": "USPS", "operator:type": "public", "operator:wikidata": "Q668687", "ref": "4976800003"}, "type": "Feature"}
{"geometry": {"coordinates": [-84.7856878, 45.571437], "type": "Point"}, "id": "Itv4-sQ5R_CjUt3MiTZnbuu8RPc=", "properties": {"@source_uri": "https://tools.usps.com/UspsToolsRestServices/rest/POLocator/findLocations", "@spider": "usps_collection_boxes", "addr:city": "PELLSTON", "addr:country": "US", "addr:postcode": "49769", "addr:state": "MI", "addr:street_address": "200 N US HIGHWAY 31", "amenity": "post_box", "collection_times": "Mo-Sa 11:00", "nsi_id": "unitedstatespostalservice-a77078", "operator": "United States Postal Service", "operator:short": "USPS", "operator:type": "public", "operator:wikidata": "Q668687", "ref": "4976900002"}, "type": "Feature"}
{"geometry": {"coordinates": [-84.784538, 45.549596], "type": "Point"}, "id": "AjRUlehwq36PbxRL2GvVpsh98-k=", "properties": {"@source_uri": "https://tools.usps.com/UspsToolsRestServices/rest/POLocator/findLocations", "@spider": "usps_collection_boxes", "addr:city": "PELLSTON", "addr:country": "US", "addr:postcode": "49769", "addr:state": "MI", "addr:street_address": "146 STIMPSON DR", "amenity": "post_box", "collection_times": "Mo-Fr 15:00; Sa 11:00", "note": "ON 12/24 AND 12/31, THIS BOX MAY BE COLLECTED AS EARLY AS 12 NOON.", "nsi_id": "unitedstatespostalservice-a77078", "operator": "United States Postal Service", "operator:short": "USPS", "operator:type": "public", "operator:wikidata": "Q668687", "ref": "4976900003"}, "type": "Feature"}
{"geometry": {"coordinates": [-84.784538, 45.549596], "type": "Point"}, "id": "Np-LMEM36-ArQDc9LoW3simY5D8=", "properties": {"@source_uri": "https://tools.usps.com/UspsToolsRestServices/rest/POLocator/findLocations", "@spider": "usps_collection_boxes", "addr:city": "PELLSTON", "addr:country": "US", "addr:postcode": "49769", "addr:state": "MI", "addr:street_address": "146 STIMPSON DR", "amenity": "post_box", "collection_times": "Mo-Fr 15:00; Sa 11:00", "indoor": "yes", "note": "ON 12/24 AND 12/31, THIS BOX MAY BE COLLECTED AS EARLY AS 12 NOON.", "nsi_id": "unitedstatespostalservice-a77078", "operator": "United States Postal Service", "operator:short": "USPS", "operator:type": "public", "operator:wikidata": "Q668687", "ref": "4976900004"}, "type": "Feature"}
{"geometry": {"coordinates": [-84.7845573228, 45.5497332407], "type": "Point"}, "id": "yH5ipgkIjGZGbQ0tQXa55R3TW0E=", "properties": {"@source_uri": "https://tools.usps.com/UspsToolsRestServices/rest/POLocator/findLocations", "@spider": "usps_collection_boxes", "addr:city": "PELLSTON", "addr:country": "US", "addr:postcode": "49769", "addr:state": "MI", "addr:street_address": "146 STIMPSON DR", "amenity": "post_box", "collection_times": "Mo-Fr 14:30; Sa 10:30", "indoor": "yes", "note": "ON 12/24 AND 12/31, THIS BOX MAY BE COLLECTED AS EARLY AS 12 NOON.", "nsi_id": "unitedstatespostalservice-a77078", "operator": "United States Postal Service", "operator:short": "USPS", "operator:type": "public", "operator:wikidata": "Q668687", "ref": "4976900005"}, "type": "Feature"}
{"geometry": {"coordinates": [-84.9523657, 45.375342], "type": "Point"}, "id": "Uw2y3vtEWa6JnIAAbgwtB3A7YUY=", "properties": {"@source_uri": "https://tools.usps.com/UspsToolsRestServices/rest/POLocator/findLocations", "@spider": "usps_collection_boxes", "addr:city": "PETOSKEY", "addr:country": "US", "addr:postcode": "49770", "addr:state": "MI", "addr:street_address": "200 DIVISION ST", "amenity": "post_box", "collection_times": "Mo-Sa 14:30", "note": "ON 12/24 AND 12/31, THIS BOX MAY BE COLLECTED AS EARLY AS 12 NOON.", "nsi_id": "unitedstatespostalservice-a77078", "operator": "United States Postal Service", "operator:short": "USPS", "operator:type": "public", "operator:wikidata": "Q668687", "ref": "4977000001"}, "type": "Feature"}
{"geometry": {"coordinates": [-84.9197194, 45.390901], "type": "Point"}, "id": "A7Ll8i1_ezta30kVb767dihhcdM=", "properties": {"@source_uri": "https://tools.usps.com/UspsToolsRestServices/rest/POLocator/findLocations", "@spider": "usps_collection_boxes", "addr:city": "PETOSKEY", "addr:country": "US", "addr:postcode": "49770", "addr:state": "MI", "addr:street_address": "1163 N US HIGHWAY 31", "amenity": "post_box", "collection_times": "Mo-Sa 13:00", "note": "ON 12/24 AND 12/31, THIS BOX MAY BE COLLECTED AS EARLY AS 12 NOON.", "nsi_id": "unitedstatespostalservice-a77078", "operator": "United States Postal Service", "operator:short": "USPS", "operator:type": "public", "operator:wikidata": "Q668687", "ref": "4977000007"}, "type": "Feature"}
{"geometry": {"coordinates": [-84.9713564, 45.372043], "type": "Point"}, "id": "J_bfhxVqzn46xJGo1a_VMryG4hM=", "properties": {"@source_uri": "https://tools.usps.com/UspsToolsRestServices/rest/POLocator/findLocations", "@spider": "usps_collection_boxes", "addr:city": "PETOSKEY", "addr:country": "US", "addr:postcode": "49770", "addr:state": "MI", "addr:street_address": "560 W MITCHELL ST", "amenity": "post_box", "collection_times": "Mo-Fr 14:30; Sa 14:00", "note": "ON 12/24 AND 12/31, THIS BOX MAY BE COLLECTED AS EARLY AS 12 NOON.", "nsi_id": "unitedstatespostalservice-a77078", "operator": "United States Postal Service", "operator:short": "USPS", "operator:type": "public", "operator:wikidata": "Q668687", "ref": "4977000008"}, "type": "Feature"}
{"geometry": {"coordinates": [-84.956966, 45.371894], "type": "Point"}, "id": "OcMUDzXb1TcuCQq0HM9rZd9KrsA=", "properties": {"@source_uri": "https://tools.usps.com/UspsToolsRestServices/rest/POLocator/findLocations", "@spider": "usps_collection_boxes", "addr:city": "PETOSKEY", "addr:country": "US", "addr:postcode": "49770", "addr:state": "MI", "addr:street_address": "318 STATE ST", "amenity": "post_box", "collection_times": "Mo-Fr 16:55; Sa 15:00", "note": "ON 12/24 AND 12/31, THIS BOX MAY BE COLLECTED AS EARLY AS 12 NOON.", "nsi_id": "unitedstatespostalservice-a77078", "operator": "United States Postal Service", "operator:short": "USPS", "operator:type": "public", "operator:wikidata": "Q668687", "ref": "4977000009"}, "type": "Feature"}
{"geometry": {"coordinates": [-84.9557648, 45.374944], "type": "Point"}, "id": "S7moF26KSUnq2f5aYhIWgX8omyU=", "properties": {"@source_uri": "https://tools.usps.com/UspsToolsRestServices/rest/POLocator/findLocations", "@spider": "usps_collection_boxes", "addr:city": "PETOSKEY", "addr:country": "US", "addr:postcode": "49770", "addr:state": "MI", "addr:street_address": "300 HOWARD ST", "amenity": "post_box", "collection_times": "Mo-Fr 14:30; Sa 13:45", "note": "ON 12/24 AND 12/31, THIS BOX MAY BE COLLECTED AS EARLY AS 12 NOON.", "nsi_id": "unitedstatespostalservice-a77078", "operator": "United States Postal Service", "operator:short": "USPS", "operator:type": "public", "operator:wikidata": "Q668687", "ref": "4977000012"}, "type": "Feature"}
{"geometry": {"coordinates": [-84.9706615, 45.373608], "type": "Point"}, "id": "lc7l1ngHzr8gNtYqb7EMsrHLNu0=", "properties": {"@source_uri": "https://tools.usps.com/UspsToolsRestServices/rest/POLocator/findLocations", "@spider": "usps_collection_boxes", "addr:city": "PETOSKEY", "addr:country": "US", "addr:postcode": "49770", "addr:state": "MI", "addr:street_address": "416 CONNABLE AVE", "amenity": "post_box", "collection_times": "Mo-Fr 14:30; Sa 14:00", "note": "ON 12/24 AND 12/31, THIS BOX MAY BE COLLECTED AS EARLY AS 12 NOON.", "nsi_id": "unitedstatespostalservice-a77078", "operator": "United States Postal Service", "operator:short": "USPS", "operator:type": "public", "operator:wikidata": "Q668687", "ref": "4977000014"}, "type": "Feature"}
{"geometry": {"coordinates": [-84.9555105, 45.373622], "type": "Point"}, "id": "fSORzcHHR4V9HI47Xf3pHtnKZtE=", "properties": {"@source_uri": "https://tools.usps.com/UspsToolsRestServices/rest/POLocator/findLocations", "@spider": "usps_collection_boxes", "addr:city": "PETOSKEY", "addr:country": "US", "addr:postcode": "49770", "addr:state": "MI", "addr:street_address": "405 HOWARD ST", "amenity": "post_box", "collection_times": "Mo-Fr 14:30; Sa 13:45", "note": "ON 12/24 AND 12/31, THIS BOX MAY BE COLLECTED AS EARLY AS 12 NOON.", "nsi_id": "unitedstatespostalservice-a77078", "operator": "United States Postal Service", "operator:short": "USPS", "operator:type": "public", "operator:wikidata": "Q668687", "ref": "4977000015"}, "type": "Feature"}
{"geometry": {"coordinates": [-84.9536261, 45.376156], "type": "Point"}, "id": "1ofA1Db8-vUlwyTkM2qtKTa5DgA=", "properties": {"@source_uri": "https://tools.usps.com/UspsToolsRestServices/rest/POLocator/findLocations", "@spider": "usps_collection_boxes", "addr:city": "PETOSKEY", "addr:country": "US", "addr:postcode": "49770", "addr:state": "MI", "addr:street_address": "101 LEWIS ST", "amenity": "post_box", "collection_times": "Mo-Sa 14:30", "note": "ON 12/24 AND 12/31, THIS BOX MAY BE COLLECTED AS EARLY AS 12 NOON.", "nsi_id": "unitedstatespostalservice-a77078", "operator": "United States Postal Service", "operator:short": "USPS", "operator:type": "public", "operator:wikidata": "Q668687", "ref": "4977000016"}, "type": "Feature"}
{"geometry": {"coordinates": [-84.9016149, 45.403578], "type": "Point"}, "id": "7U1X0hTdppIAxwJXVDY6Gecm06A=", "properties": {"@source_uri": "https://tools.usps.com/UspsToolsRestServices/rest/POLocator/findLocations", "@spider": "usps_collection_boxes", "addr:city": "PETOSKEY", "addr:country": "US", "addr:postcode": "49770", "addr:state": "MI", "addr:street_address": "2292 M 119", "amenity": "post_box", "collection_times": "Mo-Sa 09:30", "nsi_id": "unitedstatespostalservice-a77078", "operator": "United States Postal Service", "operator:short": "USPS", "operator:type": "public", "operator:wikidata": "Q668687", "ref": "4977000019"}, "type": "Feature"}
{"geometry": {"coordinates": [-84.956966, 45.371894], "type": "Point"}, "id": "FEK5lyLExI4lVfXNzZd2WeuT4L8=", "properties": {"@source_uri": "https://tools.usps.com/UspsToolsRestServices/rest/POLocator/findLocations", "@spider": "usps_collection_boxes", "addr:city": "PETOSKEY", "addr:country": "US", "addr:postcode": "49770", "addr:state": "MI", "addr:street_address": "318 STATE ST", "amenity": "post_box", "collection_times": "Mo-Fr 16:55; Sa 15:00", "indoor": "yes", "note": "ON 12/24 AND 12/31, THIS BOX MAY BE COLLECTED AS EARLY AS 12 NOON.", "nsi_id": "unitedstatespostalservice-a77078", "operator": "United States Postal Service", "operator:short": "USPS", "operator:type": "public", "operator:wikidata": "Q668687", "ref": "4977000020"}, "type": "Feature"}
{"geometry": {"coordinates": [-84.956966, 45.371894], "type": "Point"}, "id": "iJYyhIIAkji9vORmguVYOZS_iec=", "properties": {"@source_uri": "https://tools.usps.com/UspsToolsRestServices/rest/POLocator/findLocations", "@spider": "usps_collection_boxes", "addr:city": "PETOSKEY", "addr:country": "US", "addr:postcode": "49770", "addr:state": "MI", "addr:street_address": "318 STATE ST", "amenity": "post_box", "collection_times": "Mo-Fr 16:55; Sa 15:00", "name": "USPS COLLECTION BOX - APC", "note": "ON 12/24 AND 12/31, THIS BOX MAY BE COLLECTED AS EARLY AS 12 NOON.", "nsi_id": "unitedstatespostalservice-a77078", "operator": "United States Postal Service", "operator:short": "USPS", "operator:type": "public", "operator:wikidata": "Q668687", "ref": "4977000033"}, "type": "Feature"}
{"geometry": {"coordinates": [-84.9234059, 45.375152], "type": "Point"}, "id": "RiVL4bBFCMEvOWyjnXZX56vnrHc=", "properties": {"@source_uri": "https://tools.usps.com/UspsToolsRestServices/rest/POLocator/findLocations", "@spider": "usps_collection_boxes", "addr:city": "PETOSKEY", "addr:country": "US", "addr:postcode": "49770", "addr:state": "MI", "addr:street_address": "2233 MITCHELL PARK DR", "amenity": "post_box", "collection_times": "Mo-Sa 13:00", "note": "ON 12/24 AND 12/31, THIS BOX MAY BE COLLECTED AS EARLY AS 12 NOON.", "nsi_id": "unitedstatespostalservice-a77078", "operator": "United States Postal Service", "operator:short": "USPS", "operator:type": "public", "operator:wikidata": "Q668687", "ref": "4977000034"}, "type": "Feature"}
{"geometry": {"coordinates": [-84.9732277, 45.350817], "type": "Point"}, "id": "fbkC2bITnRNuN5cDiUmZ5SFKL28=", "properties": {"@source_uri": "https://tools.usps.com/UspsToolsRestServices/rest/POLocator/findLocations", "@spider": "usps_collection_boxes", "addr:city": "PETOSKEY", "addr:country": "US", "addr:postcode": "49770", "addr:state": "MI", "addr:street_address": "1850 ANDERSON RD", "amenity": "post_box", "collection_times": "Mo-Sa 12:00", "nsi_id": "unitedstatespostalservice-a77078", "operator": "United States Postal Service", "operator:short": "USPS", "operator:type": "public", "operator:wikidata": "Q668687", "ref": "4977000036"}, "type": "Feature"}
{"geometry": {"coordinates": [-84.956183361, 45.371858503], "type": "Point"}, "id": "gecbNXSu4DN5ndQIVJ-6RxxCUPE=", "properties": {"@source_uri": "https://tools.usps.com/UspsToolsRestServices/rest/POLocator/findLocations", "@spider": "usps_collection_boxes", "addr:city": "PETOSKEY", "addr:country": "US", "addr:postcode": "49770", "addr:state": "MI", "addr:street_address": "318 STATE ST", "amenity": "post_box", "collection_times": "Mo-Fr 16:30; Sa 12:00", "indoor": "yes", "note": "ON 12/24 AND 12/31, THIS BOX MAY BE COLLECTED AS EARLY AS 12 NOON.", "nsi_id": "unitedstatespostalservice-a77078", "operator": "United States Postal Service", "operator:short": "USPS", "operator:type": "public", "operator:wikidata": "Q668687", "ref": "4977000038"}, "type": "Feature"}
{"geometry": {"coordinates": [-84.361294, 46.157961], "type": "Point"}, "id": "_CLK5dEU_kiSybdnsBmc9UzpLHI=", "properties": {"@source_uri": "https://tools.usps.com/UspsToolsRestServices/rest/POLocator/findLocations", "@spider": "usps_collection_boxes", "addr:city": "PICKFORD", "addr:country": "US", "addr:postcode": "49774", "addr:state": "MI", "addr:street_address": "160 E MAIN ST", "amenity": "post_box", "collection_times": "Mo-Fr 13:30; Sa 11:30", "indoor": "yes", "note": "ON 12/24 AND 12/31, THIS BOX MAY BE COLLECTED AS EARLY AS 12 NOON.", "nsi_id": "unitedstatespostalservice-a77078", "operator": "United States Postal Service", "operator:short": "USPS", "operator:type": "public", "operator:wikidata": "Q668687", "ref": "4977400002"}, "type": "Feature"}
{"geometry": {"coordinates": [-84.361294, 46.157961], "type": "Point"}, "id": "m7xjeDLrvXmg5xqecfxSgslxUP4=", "properties": {"@source_uri": "https://tools.usps.com/UspsToolsRestServices/rest/POLocator/findLocations", "@spider": "usps_collection_boxes", "addr:city": "PICKFORD", "addr:country": "US", "addr:postcode": "49774", "addr:state": "MI", "addr:street_address": "160 E MAIN ST", "amenity": "post_box", "collection_times": "Mo-Fr 13:30; Sa 11:30", "note": "ON 12/24 AND 12/31, THIS BOX MAY BE COLLECTED AS EARLY AS 12 NOON.", "nsi_id": "unitedstatespostalservice-a77078", "operator": "United States Postal Service", "operator:short": "USPS", "operator:type": "public", "operator:wikidata": "Q668687", "ref": "4977400003"}, "type": "Feature"}
{"geometry": {"coordinates": [-84.3612651144, 46.1579042874], "type": "Point"}, "id": "T7HiCCgx_j_qHPBskcDMuwdQbOw=", "properties": {"@source_uri": "https://tools.usps.com/UspsToolsRestServices/rest/POLocator/findLocations", "@spider": "usps_collection_boxes", "addr:city": "PICKFORD", "addr:country": "US", "addr:postcode": "49774", "addr:state": "MI", "addr:street_address": "160 E MAIN ST", "amenity": "post_box", "collection_times": "Mo-Fr 13:00; Sa 11:00", "indoor": "yes", "note": "ON 12/24 AND 12/31, THIS BOX MAY BE COLLECTED AS EARLY AS 12 NOON.", "nsi_id": "unitedstatespostalservice-a77078", "operator": "United States Postal Service", "operator:short": "USPS", "operator:type": "public", "operator:wikidata": "Q668687", "ref": "4977400004"}, "type": "Feature"}
{"geometry": {"coordinates": [-83.698822, 45.26229], "type": "Point"}, "id": "MFZTKMhQ_7lxvljjppE0gvOoMcg=", "properties": {"@source_uri": "https://tools.usps.com/UspsToolsRestServices/rest/POLocator/findLocations", "@spider": "usps_collection_boxes", "addr:city": "POSEN", "addr:country": "US", "addr:postcode": "49776", "addr:state": "MI", "addr:street_address": "10993 MICHIGAN AVE", "amenity": "post_box", "collection_times": "Mo-Fr 14:20; Sa 10:30", "note": "ON 12/24 AND 12/31, THIS BOX MAY BE COLLECTED AS EARLY AS 12 NOON.", "nsi_id": "unitedstatespostalservice-a77078", "operator": "United States Postal Service", "operator:short": "USPS", "operator:type": "public", "operator:wikidata": "Q668687", "ref": "4977600001"}, "type": "Feature"}
{"geometry": {"coordinates": [-83.698822, 45.26229], "type": "Point"}, "id": "Kztaz8-3OZ0x03Uxta3mD0D-xeI=", "properties": {"@source_uri": "https://tools.usps.com/UspsToolsRestServices/rest/POLocator/findLocations", "@spider": "usps_collection_boxes", "addr:city": "POSEN", "addr:country": "US", "addr:postcode": "49776", "addr:state": "MI", "addr:street_address": "10993 MICHIGAN AVE", "amenity": "post_box", "collection_times": "Mo-Fr 14:20; Sa 10:30", "indoor": "yes", "note": "ON 12/24 AND 12/31, THIS BOX MAY BE COLLECTED AS EARLY AS 12 NOON.", "nsi_id": "unitedstatespostalservice-a77078", "operator": "United States Postal Service", "operator:short": "USPS", "operator:type": "public", "operator:wikidata": "Q668687", "ref": "4977600002"}, "type": "Feature"}
{"geometry": {"coordinates": [-83.698823979, 45.262287], "type": "Point"}, "id": "OsB42l6uGQMuYLlhiLmNk5VLkEw=", "properties": {"@source_uri": "https://tools.usps.com/UspsToolsRestServices/rest/POLocator/findLocations", "@spider": "usps_collection_boxes", "addr:city": "POSEN", "addr:country": "US", "addr:postcode": "49776", "addr:state": "MI", "addr:street_address": "10993 MICHIGAN AVE", "amenity": "post_box", "collection_times": "Mo-Fr 14:00; Sa 10:00", "indoor": "yes", "note": "ON 12/24 AND 12/31, THIS BOX MAY BE COLLECTED AS EARLY AS 12 NOON.", "nsi_id": "unitedstatespostalservice-a77078", "operator": "United States Postal Service", "operator:short": "USPS", "operator:type": "public", "operator:wikidata": "Q668687", "ref": "4977600003"}, "type": "Feature"}
{"geometry": {"coordinates": [-83.477425, 45.302498], "type": "Point"}, "id": "ZFixHpQ2RgTTgObzXcoEhw0jVZU=", "properties": {"@source_uri": "https://tools.usps.com/UspsToolsRestServices/rest/POLocator/findLocations", "@spider": "usps_collection_boxes", "addr:city": "PRESQUE ISLE", "addr:country": "US", "addr:postcode": "49777", "addr:state": "MI", "addr:street_address": "8133 E GRAND LAKE RD", "amenity": "post_box", "collection_times": "Mo-Fr 13:30; Sa 10:00", "note": "ON 12/24 AND 12/31, THIS BOX MAY BE COLLECTED AS EARLY AS 12 NOON.", "nsi_id": "unitedstatespostalservice-a77078", "operator": "United States Postal Service", "operator:short": "USPS", "operator:type": "public", "operator:wikidata": "Q668687", "ref": "4977700002"}, "type": "Feature"}
{"geometry": {"coordinates": [-83.477425, 45.302498], "type": "Point"}, "id": "J3UhdqVcH8tEKoB9YaoMjCTusQ0=", "properties": {"@source_uri": "https://tools.usps.com/UspsToolsRestServices/rest/POLocator/findLocations", "@spider": "usps_collection_boxes", "addr:city": "PRESQUE ISLE", "addr:country": "US", "addr:postcode": "49777", "addr:state": "MI", "addr:street_address": "8133 E GRAND LAKE RD", "amenity": "post_box", "collection_times": "Mo-Fr 13:30; Sa 10:00", "indoor": "yes", "note": "ON 12/24 AND 12/31, THIS BOX MAY BE COLLECTED AS EARLY AS 12 NOON.", "nsi_id": "unitedstatespostalservice-a77078", "operator": "United States Postal Service", "operator:short": "USPS", "operator:type": "public", "operator:wikidata": "Q668687", "ref": "4977700003"}, "type": "Feature"}
{"geometry": {"coordinates": [-83.477415446, 45.302486344], "type": "Point"}, "id": "j6qkmQ4ps-sd0MdoXrJxMRjc8J8=", "properties": {"@source_uri": "https://tools.usps.com/UspsToolsRestServices/rest/POLocator/findLocations", "@spider": "usps_collection_boxes", "addr:city": "PRESQUE ISLE", "addr:country": "US", "addr:postcode": "49777", "addr:state": "MI", "addr:street_address": "8133 E GRAND LAKE RD", "amenity": "post_box", "collection_times": "Mo-Fr 14:00; Sa 11:00", "indoor": "yes", "note": "ON 12/24 AND 12/31, THIS BOX MAY BE COLLECTED AS EARLY AS 12 NOON.", "nsi_id": "unitedstatespostalservice-a77078", "operator": "United States Postal Service", "operator:short": "USPS", "operator:type": "public", "operator:wikidata": "Q668687", "ref": "4977700004"}, "type": "Feature"}
{"geometry": {"coordinates": [-83.8253954, 45.412935], "type": "Point"}, "id": "I3Wuah0orvnDPcL0yOrEJsXuv4c=", "properties": {"@source_uri": "https://tools.usps.com/UspsToolsRestServices/rest/POLocator/findLocations", "@spider": "usps_collection_boxes", "addr:city": "ROGERS CITY", "addr:country": "US", "addr:postcode": "49779", "addr:state": "MI", "addr:street_address": "100 S BRADLEY HWY", "amenity": "post_box", "collection_times": "Mo-Sa 11:00", "nsi_id": "unitedstatespostalservice-a77078", "operator": "United States Postal Service", "operator:short": "USPS", "operator:type": "public", "operator:wikidata": "Q668687", "ref": "4977900008"}, "type": "Feature"}
{"geometry": {"coordinates": [-83.816557, 45.42029], "type": "Point"}, "id": "0pdoQVdPgyzgUh4-iRNdxY1MMFQ=", "properties": {"@source_uri": "https://tools.usps.com/UspsToolsRestServices/rest/POLocator/findLocations", "@spider": "usps_collection_boxes", "addr:city": "ROGERS CITY", "addr:country": "US", "addr:postcode": "49779", "addr:state": "MI", "addr:street_address": "188 N 3RD ST", "amenity": "post_box", "collection_times": "Mo-Fr 14:50; Sa 14:00", "note": "ON 12/24 AND 12/31, THIS BOX MAY BE COLLECTED AS EARLY AS 12 NOON.", "nsi_id": "unitedstatespostalservice-a77078", "operator": "United States Postal Service", "operator:short": "USPS", "operator:type": "public", "operator:wikidata": "Q668687", "ref": "4977900009"}, "type": "Feature"}
{"geometry": {"coordinates": [-83.816561, 45.420293], "type": "Point"}, "id": "Tq1kRcA9OTJ2dqZCJLnNr08bI7w=", "properties": {"@source_uri": "https://tools.usps.com/UspsToolsRestServices/rest/POLocator/findLocations", "@spider": "usps_collection_boxes", "addr:city": "ROGERS CITY", "addr:country": "US", "addr:postcode": "49779", "addr:state": "MI", "addr:street_address": "188 N 3RD ST", "amenity": "post_box", "collection_times": "Mo-Fr 14:50; Sa 14:00", "indoor": "yes", "note": "ON 12/24 AND 12/31, THIS BOX MAY BE COLLECTED AS EARLY AS 12 NOON.", "nsi_id": "unitedstatespostalservice-a77078", "operator": "United States Postal Service", "operator:short": "USPS", "operator:type": "public", "operator:wikidata": "Q668687", "ref": "4977900010"}, "type": "Feature"}
{"geometry": {"coordinates": [-83.816561, 45.420293], "type": "Point"}, "id": "lIfMlwJkvfMO7ssR0xM30knADdE=", "properties": {"@source_uri": "https://tools.usps.com/UspsToolsRestServices/rest/POLocator/findLocations", "@spider": "usps_collection_boxes", "addr:city": "ROGERS CITY", "addr:country": "US", "addr:postcode": "49779", "addr:state": "MI", "addr:street_address": "188 N 3RD ST", "amenity": "post_box", "collection_times": "Mo-Fr 14:50; Sa 14:00", "note": "ON 12/24 AND 12/31, THIS BOX MAY BE COLLECTED AS EARLY AS 12 NOON.", "nsi_id": "unitedstatespostalservice-a77078", "operator": "United States Postal Service", "operator:short": "USPS", "operator:type": "public", "operator:wikidata": "Q668687", "ref": "4977900011"}, "type": "Feature"}
{"geometry": {"coordinates": [-83.816558866, 45.420286116], "type": "Point"}, "id": "GdR02pMgduWUdNmrGFFHwD3hWbY=", "properties": {"@source_uri": "https://tools.usps.com/UspsToolsRestServices/rest/POLocator/findLocations", "@spider": "usps_collection_boxes", "addr:city": "ROGERS CITY", "addr:country": "US", "addr:postcode": "49779", "addr:state": "MI", "addr:street_address": "188 N 3RD ST", "amenity": "post_box", "collection_times": "Mo-Fr 14:30; Sa 10:30", "indoor": "yes", "note": "ON 12/24 AND 12/31, THIS BOX MAY BE COLLECTED AS EARLY AS 12 NOON.", "nsi_id": "unitedstatespostalservice-a77078", "operator": "United States Postal Service", "operator:short": "USPS", "operator:type": "public", "operator:wikidata": "Q668687", "ref": "4977900013"}, "type": "Feature"}
{"geometry": {"coordinates": [-84.592545, 46.230201], "type": "Point"}, "id": "_AUA3o6b3yCMCCoBqCt1ynkXM0M=", "properties": {"@source_uri": "https://tools.usps.com/UspsToolsRestServices/rest/POLocator/findLocations", "@spider": "usps_collection_boxes", "addr:city": "RUDYARD", "addr:country": "US", "addr:postcode": "49780", "addr:state": "MI", "addr:street_address": "19018 S MACKINAC TRL", "amenity": "post_box", "collection_times": "Mo-Fr 14:35; Sa 10:00", "note": "ON 12/24 AND 12/31, THIS BOX MAY BE COLLECTED AS EARLY AS 12 NOON.", "nsi_id": "unitedstatespostalservice-a77078", "operator": "United States Postal Service", "operator:short": "USPS", "operator:type": "public", "operator:wikidata": "Q668687", "ref": "4978000001"}, "type": "Feature"}
{"geometry": {"coordinates": [-84.592545, 46.230201], "type": "Point"}, "id": "ziSpTxVk13gbRyHZdr6wKCxcnlY=", "properties": {"@source_uri": "https://tools.usps.com/UspsToolsRestServices/rest/POLocator/findLocations", "@spider": "usps_collection_boxes", "addr:city": "RUDYARD", "addr:country": "US", "addr:postcode": "49780", "addr:state": "MI", "addr:street_address": "19018 S MACKINAC TRL", "amenity": "post_box", "collection_times": "Mo-Fr 14:35; Sa 10:00", "indoor": "yes", "note": "ON 12/24 AND 12/31, THIS BOX MAY BE COLLECTED AS EARLY AS 12 NOON.", "nsi_id": "unitedstatespostalservice-a77078", "operator": "United States Postal Service", "operator:short": "USPS", "operator:type": "public", "operator:wikidata": "Q668687", "ref": "4978000002"}, "type": "Feature"}
{"geometry": {"coordinates": [-84.592566461, 46.230230101], "type": "Point"}, "id": "eBhFO81etTzlXlLkD3mOhVxG4Tk=", "properties": {"@source_uri": "https://tools.usps.com/UspsToolsRestServices/rest/POLocator/findLocations", "@spider": "usps_collection_boxes", "addr:city": "RUDYARD", "addr:country": "US", "addr:postcode": "49780", "addr:state": "MI", "addr:street_address": "19018 S MACKINAC TRL", "amenity": "post_box", "collection_times": "Mo-Fr 14:15; Sa 11:30", "indoor": "yes", "note": "ON 12/24 AND 12/31, THIS BOX MAY BE COLLECTED AS EARLY AS 12 NOON.", "nsi_id": "unitedstatespostalservice-a77078", "operator": "United States Postal Service", "operator:short": "USPS", "operator:type": "public", "operator:wikidata": "Q668687", "ref": "4978000003"}, "type": "Feature"}
{"geometry": {"coordinates": [-84.718121, 45.863852], "type": "Point"}, "id": "SAShGmblJvTaS84L2wd9jI590VA=", "properties": {"@source_uri": "https://tools.usps.com/UspsToolsRestServices/rest/POLocator/findLocations", "@spider": "usps_collection_boxes", "addr:city": "SAINT IGNACE", "addr:country": "US", "addr:postcode": "49781", "addr:state": "MI", "addr:street_address": "310 S STATE ST", "amenity": "post_box", "collection_times": "Mo-Fr 15:20; Sa 14:30", "note": "ON 12/24 AND 12/31, THIS BOX MAY BE COLLECTED AS EARLY AS 12 NOON.", "nsi_id": "unitedstatespostalservice-a77078", "operator": "United States Postal Service", "operator:short": "USPS", "operator:type": "public", "operator:wikidata": "Q668687", "ref": "4978100005"}, "type": "Feature"}
{"geometry": {"coordinates": [-84.718159, 45.863924], "type": "Point"}, "id": "iYc0Cw0uDp0ELUVeOp4Azfluxl8=", "properties": {"@source_uri": "https://tools.usps.com/UspsToolsRestServices/rest/POLocator/findLocations", "@spider": "usps_collection_boxes", "addr:city": "SAINT IGNACE", "addr:country": "US", "addr:postcode": "49781", "addr:state": "MI", "addr:street_address": "310 S STATE ST", "amenity": "post_box", "collection_times": "Mo-Fr 15:20; Sa 14:30", "indoor": "yes", "note": "ON 12/24 AND 12/31, THIS BOX MAY BE COLLECTED AS EARLY AS 12 NOON.", "nsi_id": "unitedstatespostalservice-a77078", "operator": "United States Postal Service", "operator:short": "USPS", "operator:type": "public", "operator:wikidata": "Q668687", "ref": "4978100006"}, "type": "Feature"}
{"geometry": {"coordinates": [-85.518009, 45.748303], "type": "Point"}, "id": "HGZRl7vge3_PU-GHOLCexOd_MWY=", "properties": {"@source_uri": "https://tools.usps.com/UspsToolsRestServices/rest/POLocator/findLocations", "@spider": "usps_collection_boxes", "addr:city": "BEAVER ISLAND", "addr:country": "US", "addr:postcode": "49782", "addr:state": "MI", "addr:street_address": "26135 MAIN ST", "amenity": "post_box", "collection_times": "Mo-Sa 07:45", "nsi_id": "unitedstatespostalservice-a77078", "operator": "United States Postal Service", "operator:short": "USPS", "operator:type": "public", "operator:wikidata": "Q668687", "ref": "4978200001"}, "type": "Feature"}
{"geometry": {"coordinates": [-85.518009, 45.748303], "type": "Point"}, "id": "imQ10qlvdMC7o26OVAKXmMuDoAY=", "properties": {"@source_uri": "https://tools.usps.com/UspsToolsRestServices/rest/POLocator/findLocations", "@spider": "usps_collection_boxes", "addr:city": "BEAVER ISLAND", "addr:country": "US", "addr:postcode": "49782", "addr:state": "MI", "addr:street_address": "26135 MAIN ST", "amenity": "post_box", "collection_times": "Mo-Sa 08:00", "indoor": "yes", "nsi_id": "unitedstatespostalservice-a77078", "operator": "United States Postal Service", "operator:short": "USPS", "operator:type": "public", "operator:wikidata": "Q668687", "ref": "4978200003"}, "type": "Feature"}
{"geometry": {"coordinates": [-85.518010843, 45.748300505], "type": "Point"}, "id": "OjxuYE34e8UU4sLAlMBUcchE40g=", "properties": {"@source_uri": "https://tools.usps.com/UspsToolsRestServices/rest/POLocator/findLocations", "@spider": "usps_collection_boxes", "addr:city": "BEAVER ISLAND", "addr:country": "US", "addr:postcode": "49782", "addr:state": "MI", "addr:street_address": "26135 MAIN ST", "amenity": "post_box", "collection_times": "Mo-Sa 08:30", "indoor": "yes", "nsi_id": "unitedstatespostalservice-a77078", "operator": "United States Postal Service", "operator:short": "USPS", "operator:type": "public", "operator:wikidata": "Q668687", "ref": "4978200004"}, "type": "Feature"}
{"geometry": {"coordinates": [-84.348258, 46.496798], "type": "Point"}, "id": "WhJgBk80k27s9K9JJl9bZLuFXuk=", "properties": {"@source_uri": "https://tools.usps.com/UspsToolsRestServices/rest/POLocator/findLocations", "@spider": "usps_collection_boxes", "addr:city": "SAULT S MARIE", "addr:country": "US", "addr:postcode": "49783", "addr:state": "MI", "addr:street_address": "523 ASHMUN ST", "amenity": "post_box", "collection_times": "Mo-Fr 14:00; Sa 13:00", "note": "ON 12/24 AND 12/31, THIS BOX MAY BE COLLECTED AS EARLY AS 12 NOON.", "nsi_id": "unitedstatespostalservice-a77078", "operator": "United States Postal Service", "operator:short": "USPS", "operator:type": "public", "operator:wikidata": "Q668687", "ref": "4978300006"}, "type": "Feature"}
{"geometry": {"coordinates": [-84.348328, 46.499492], "type": "Point"}, "id": "TgmP6b61dbkGswNzQ9yVL-CpZiw=", "properties": {"@source_uri": "https://tools.usps.com/UspsToolsRestServices/rest/POLocator/findLocations", "@spider": "usps_collection_boxes", "addr:city": "SAULT S MARIE", "addr:country": "US", "addr:postcode": "49783", "addr:state": "MI", "addr:street_address": "161 RIDGE ST", "amenity": "post_box", "collection_times": "Mo-Fr 15:10; Sa 15:00", "note": "ON 12/24 AND 12/31, THIS BOX MAY BE COLLECTED AS EARLY AS 12 NOON.", "nsi_id": "unitedstatespostalservice-a77078", "operator": "United States Postal Service", "operator:short": "USPS", "operator:type": "public", "operator:wikidata": "Q668687", "ref": "4978300011"}, "type": "Feature"}
{"geometry": {"coordinates": [-84.3465810289, 46.4959399898], "type": "Point"}, "id": "Jp5UY44rUkycmKgNSn7UZf6a3E8=", "properties": {"@source_uri": "https://tools.usps.com/UspsToolsRestServices/rest/POLocator/findLocations", "@spider": "usps_collection_boxes", "addr:city": "SAULT S MARIE", "addr:country": "US", "addr:postcode": "49783", "addr:state": "MI", "addr:street_address": "536 BINGHAM AVE", "amenity": "post_box", "collection_times": "Mo-Fr 15:00; Sa 13:00", "note": "ON 12/24 AND 12/31, THIS BOX MAY BE COLLECTED AS EARLY AS 12 NOON.", "nsi_id": "unitedstatespostalservice-a77078", "operator": "United States Postal Service", "operator:short": "USPS", "operator:type": "public", "operator:wikidata": "Q668687", "ref": "4978300012"}, "type": "Feature"}
{"geometry": {"coordinates": [-84.3548589, 46.476071], "type": "Point"}, "id": "ZZ7Nim56Ey7uSHbYlp6RC7gh5co=", "properties": {"@source_uri": "https://tools.usps.com/UspsToolsRestServices/rest/POLocator/findLocations", "@spider": "usps_collection_boxes", "addr:city": "SAULT S MARIE", "addr:country": "US", "addr:postcode": "49783", "addr:state": "MI", "addr:street_address": "2581 I 75 BUSINESS SPUR", "amenity": "post_box", "collection_times": "Mo-Sa 10:00", "nsi_id": "unitedstatespostalservice-a77078", "operator": "United States Postal Service", "operator:short": "USPS", "operator:type": "public", "operator:wikidata": "Q668687", "ref": "4978300016"}, "type": "Feature"}
{"geometry": {"coordinates": [-84.346485, 46.49038], "type": "Point"}, "id": "C9XTSI27R4MEavg_7K-RwAK2cDo=", "properties": {"@source_uri": "https://tools.usps.com/UspsToolsRestServices/rest/POLocator/findLocations", "@spider": "usps_collection_boxes", "addr:city": "SAULT S MARIE", "addr:country": "US", "addr:postcode": "49783", "addr:state": "MI", "addr:street_address": "2186 SHUNK RD", "amenity": "post_box", "collection_times": "Mo-Sa 12:00", "nsi_id": "unitedstatespostalservice-a77078", "operator": "United States Postal Service", "operator:short": "USPS", "operator:type": "public", "operator:wikidata": "Q668687", "ref": "4978300019"}, "type": "Feature"}
{"geometry": {"coordinates": [-84.3665983, 46.46993], "type": "Point"}, "id": "wZTpAl3SJZfAL0clLbks6IfOkZE=", "properties": {"@source_uri": "https://tools.usps.com/UspsToolsRestServices/rest/POLocator/findLocations", "@spider": "usps_collection_boxes", "addr:city": "SAULT S MARIE", "addr:country": "US", "addr:postcode": "49783", "addr:state": "MI", "addr:street_address": "3394 I 75 BUSINESS SPUR", "amenity": "post_box", "collection_times": "Mo-Sa 10:00", "nsi_id": "unitedstatespostalservice-a77078", "operator": "United States Postal Service", "operator:short": "USPS", "operator:type": "public", "operator:wikidata": "Q668687", "ref": "4978300023"}, "type": "Feature"}
{"geometry": {"coordinates": [-84.3780699, 46.465213], "type": "Point"}, "id": "2oO6xv9PEYxprvZqcoWaZNCwFP8=", "properties": {"@source_uri": "https://tools.usps.com/UspsToolsRestServices/rest/POLocator/findLocations", "@spider": "usps_collection_boxes", "addr:city": "SAULT S MARIE", "addr:country": "US", "addr:postcode": "49783", "addr:state": "MI", "addr:street_address": "4516 I 75 BUSINESS SPUR", "amenity": "post_box", "collection_times": "Mo-Fr 14:00; Sa 13:00", "note": "ON 12/24 AND 12/31, THIS BOX MAY BE COLLECTED AS EARLY AS 12 NOON.", "nsi_id": "unitedstatespostalservice-a77078", "operator": "United States Postal Service", "operator:short": "USPS", "operator:type": "public", "operator:wikidata": "Q668687", "ref": "4978300024"}, "type": "Feature"}
{"geometry": {"coordinates": [-84.348314, 46.499518], "type": "Point"}, "id": "wIrtn8BQMIBMlOE8oShQhEBJz5Q=", "properties": {"@source_uri": "https://tools.usps.com/UspsToolsRestServices/rest/POLocator/findLocations", "@spider": "usps_collection_boxes", "addr:city": "SAULT S MARIE", "addr:country": "US", "addr:postcode": "49783", "addr:state": "MI", "addr:street_address": "161 RIDGE ST", "amenity": "post_box", "collection_times": "Mo-Fr 15:10; Sa 15:00", "indoor": "yes", "note": "ON 12/24 AND 12/31, THIS BOX MAY BE COLLECTED AS EARLY AS 12 NOON.", "nsi_id": "unitedstatespostalservice-a77078", "operator": "United States Postal Service", "operator:short": "USPS", "operator:type": "public", "operator:wikidata": "Q668687", "ref": "4978300035"}, "type": "Feature"}
{"geometry": {"coordinates": [-84.3458122, 46.497778], "type": "Point"}, "id": "G1zDJIQf1DwQ-d9C3O-YQXIVxJw=", "properties": {"@source_uri": "https://tools.usps.com/UspsToolsRestServices/rest/POLocator/findLocations", "@spider": "usps_collection_boxes", "addr:city": "SAULT S MARIE", "addr:country": "US", "addr:postcode": "49783", "addr:state": "MI", "addr:street_address": "325 COURT ST", "amenity": "post_box", "collection_times": "Mo-Fr 14:00; Sa 13:00", "note": "ON 12/24 AND 12/31, THIS BOX MAY BE COLLECTED AS EARLY AS 12 NOON.", "nsi_id": "unitedstatespostalservice-a77078", "operator": "United States Postal Service", "operator:short": "USPS", "operator:type": "public", "operator:wikidata": "Q668687", "ref": "4978300036"}, "type": "Feature"}
{"geometry": {"coordinates": [-84.3592507, 46.476578], "type": "Point"}, "id": "j5eZSzfmAZj4_4b7mMpluP6v4Hc=", "properties": {"@source_uri": "https://tools.usps.com/UspsToolsRestServices/rest/POLocator/findLocations", "@spider": "usps_collection_boxes", "addr:city": "SAULT S MARIE", "addr:country": "US", "addr:postcode": "49783", "addr:state": "MI", "addr:street_address": "2700 DAVITT ST", "amenity": "post_box", "collection_times": "Mo-Sa 09:00", "nsi_id": "unitedstatespostalservice-a77078", "operator": "United States Postal Service", "operator:short": "USPS", "operator:type": "public", "operator:wikidata": "Q668687", "ref": "4978300037"}, "type": "Feature"}
{"geometry": {"coordinates": [-84.3427793, 46.499335], "type": "Point"}, "id": "Rs-gsg6Cm3Dyge9SX3QUGM3hTLE=", "properties": {"@source_uri": "https://tools.usps.com/UspsToolsRestServices/rest/POLocator/findLocations", "@spider": "usps_collection_boxes", "addr:city": "SAULT S MARIE", "addr:country": "US", "addr:postcode": "49783", "addr:state": "MI", "addr:street_address": "225 E PORTAGE AVE", "amenity": "post_box", "collection_times": "Mo-Fr 14:00; Sa 12:00", "note": "ON 12/24 AND 12/31, THIS BOX MAY BE COLLECTED AS EARLY AS 12 NOON.", "nsi_id": "unitedstatespostalservice-a77078", "operator": "United States Postal Service", "operator:short": "USPS", "operator:type": "public", "operator:wikidata": "Q668687", "ref": "4978300051"}, "type": "Feature"}
{"geometry": {"coordinates": [-84.345461, 46.498491], "type": "Point"}, "id": "e3MGccggMgURRRC-bpkOGIJnXGk=", "properties": {"@source_uri": "https://tools.usps.com/UspsToolsRestServices/rest/POLocator/findLocations", "@spider": "usps_collection_boxes", "addr:city": "SAULT S MARIE", "addr:country": "US", "addr:postcode": "49783", "addr:state": "MI", "addr:street_address": "319 COURT ST", "amenity": "post_box", "collection_times": "Mo-Fr 14:00; Sa 13:00", "note": "ON 12/24 AND 12/31, THIS BOX MAY BE COLLECTED AS EARLY AS 12 NOON.", "nsi_id": "unitedstatespostalservice-a77078", "operator": "United States Postal Service", "operator:short": "USPS", "operator:type": "public", "operator:wikidata": "Q668687", "ref": "4978300052"}, "type": "Feature"}
{"geometry": {"coordinates": [-84.348687486, 46.49948083], "type": "Point"}, "id": "eAZo98KdrYZgh5a8McAR5j50Hc8=", "properties": {"@source_uri": "https://tools.usps.com/UspsToolsRestServices/rest/POLocator/findLocations", "@spider": "usps_collection_boxes", "addr:city": "SAULT S MARIE", "addr:country": "US", "addr:postcode": "49783", "addr:state": "MI", "addr:street_address": "161 RIDGE ST", "amenity": "post_box", "collection_times": "Mo-Fr 14:45; Sa 12:30", "indoor": "yes", "note": "ON 12/24 AND 12/31, THIS BOX MAY BE COLLECTED AS EARLY AS 12 NOON.", "nsi_id": "unitedstatespostalservice-a77078", "operator": "United States Postal Service", "operator:short": "USPS", "operator:type": "public", "operator:wikidata": "Q668687", "ref": "4978300053"}, "type": "Feature"}
{"geometry": {"coordinates": [-84.463869, 46.259429], "type": "Point"}, "id": "uBPGPZDiVigPPW2rR19CKUil3o8=", "properties": {"@source_uri": "https://tools.usps.com/UspsToolsRestServices/rest/POLocator/findLocations", "@spider": "usps_collection_boxes", "addr:city": "KINCHELOE", "addr:country": "US", "addr:postcode": "49788", "addr:state": "MI", "addr:street_address": "4800 W M 80", "amenity": "post_box", "collection_times": "Mo-Fr 14:00; Sa 12:00", "note": "ON 12/24 AND 12/31, THIS BOX MAY BE COLLECTED AS EARLY AS 12 NOON.", "nsi_id": "unitedstatespostalservice-a77078", "operator": "United States Postal Service", "operator:short": "USPS", "operator:type": "public", "operator:wikidata": "Q668687", "ref": "4978800000"}, "type": "Feature"}
{"geometry": {"coordinates": [-84.46388, 46.259402], "type": "Point"}, "id": "spSZku1ap8tNikoApaYbXYMoRAo=", "properties": {"@source_uri": "https://tools.usps.com/UspsToolsRestServices/rest/POLocator/findLocations", "@spider": "usps_collection_boxes", "addr:city": "KINCHELOE", "addr:country": "US", "addr:postcode": "49788", "addr:state": "MI", "addr:street_address": "4800 W M 80", "amenity": "post_box", "collection_times": "Mo-Fr 14:00; Sa 12:00", "indoor": "yes", "note": "ON 12/24 AND 12/31, THIS BOX MAY BE COLLECTED AS EARLY AS 12 NOON.", "nsi_id": "unitedstatespostalservice-a77078", "operator": "United States Postal Service", "operator:short": "USPS", "operator:type": "public", "operator:wikidata": "Q668687", "ref": "4978800007"}, "type": "Feature"}
{"geometry": {"coordinates": [-84.463744133, 46.259485126], "type": "Point"}, "id": "prRqkf9X94bvJeAVCv3wqf9bi84=", "properties": {"@source_uri": "https://tools.usps.com/UspsToolsRestServices/rest/POLocator/findLocations", "@spider": "usps_collection_boxes", "addr:city": "KINCHELOE", "addr:country": "US", "addr:postcode": "49788", "addr:state": "MI", "addr:street_address": "4800 W M 80", "amenity": "post_box", "collection_times": "Mo-Fr 13:30; Sa 11:30", "indoor": "yes", "note": "ON 12/24 AND 12/31, THIS BOX MAY BE COLLECTED AS EARLY AS 12 NOON.", "nsi_id": "unitedstatespostalservice-a77078", "operator": "United States Postal Service", "operator:short": "USPS", "operator:type": "public", "operator:wikidata": "Q668687", "ref": "4978800008"}, "type": "Feature"}
{"geometry": {"coordinates": [-84.588774, 45.486049], "type": "Point"}, "id": "7sCT6SyhRGZ_r3SYHtxjD24EAOg=", "properties": {"@source_uri": "https://tools.usps.com/UspsToolsRestServices/rest/POLocator/findLocations", "@spider": "usps_collection_boxes", "addr:city": "TOPINABEE", "addr:country": "US", "addr:postcode": "49791", "addr:state": "MI", "addr:street_address": "1593 N STRAITS HWY", "amenity": "post_box", "collection_times": "Mo-Fr 14:50; Sa 10:45", "note": "ON 12/24 AND 12/31, THIS BOX MAY BE COLLECTED AS EARLY AS 12 NOON.", "nsi_id": "unitedstatespostalservice-a77078", "operator": "United States Postal Service", "operator:short": "USPS", "operator:type": "public", "operator:wikidata": "Q668687", "ref": "4979100002"}, "type": "Feature"}
{"geometry": {"coordinates": [-84.588774, 45.486049], "type": "Point"}, "id": "BqHJvgfzWP0DUvaJwHFGIjlcypA=", "properties": {"@source_uri": "https://tools.usps.com/UspsToolsRestServices/rest/POLocator/findLocations", "@spider": "usps_collection_boxes", "addr:city": "TOPINABEE", "addr:country": "US", "addr:postcode": "49791", "addr:state": "MI", "addr:street_address": "1593 N STRAITS HWY", "amenity": "post_box", "collection_times": "Mo-Fr 14:50; Sa 10:45", "indoor": "yes", "note": "ON 12/24 AND 12/31, THIS BOX MAY BE COLLECTED AS EARLY AS 12 NOON.", "nsi_id": "unitedstatespostalservice-a77078", "operator": "United States Postal Service", "operator:short": "USPS", "operator:type": "public", "operator:wikidata": "Q668687", "ref": "4979100003"}, "type": "Feature"}
{"geometry": {"coordinates": [-84.591175734, 45.484892977], "type": "Point"}, "id": "0ZY-eAyGyMr0ZLeFurlC_KBP8Eg=", "properties": {"@source_uri": "https://tools.usps.com/UspsToolsRestServices/rest/POLocator/findLocations", "@spider": "usps_collection_boxes", "addr:city": "TOPINABEE", "addr:country": "US", "addr:postcode": "49791", "addr:state": "MI", "addr:street_address": "1593 N STRAITS HWY", "amenity": "post_box", "collection_times": "Mo-Fr 16:00; Sa 10:00", "indoor": "yes", "note": "ON 12/24 AND 12/31, THIS BOX MAY BE COLLECTED AS EARLY AS 12 NOON.", "nsi_id": "unitedstatespostalservice-a77078", "operator": "United States Postal Service", "operator:short": "USPS", "operator:type": "public", "operator:wikidata": "Q668687", "ref": "4979100004"}, "type": "Feature"}
{"geometry": {"coordinates": [-84.9606930889, 43.9186092029], "type": "Point"}, "id": "47oDtVzkxl5P5a4_QNg2bmAAZOU=", "properties": {"@source_uri": "https://tools.usps.com/UspsToolsRestServices/rest/POLocator/findLocations", "@spider": "usps_collection_boxes", "addr:city": "TROUT LAKE", "addr:country": "US", "addr:postcode": "49793", "addr:state": "MI", "addr:street_address": "100 MAPLE ST", "amenity": "post_box", "collection_times": "Mo-Fr 14:20; Sa 11:00", "note": "ON 12/24 AND 12/31, THIS BOX MAY BE COLLECTED AS EARLY AS 12 NOON.", "nsi_id": "unitedstatespostalservice-a77078", "operator": "United States Postal Service", "operator:short": "USPS", "operator:type": "public", "operator:wikidata": "Q668687", "ref": "4979300001"}, "type": "Feature"}
{"geometry": {"coordinates": [-85.0231869, 46.1964144], "type": "Point"}, "id": "vYs2m6mtahy04ssNazi690f9oag=", "properties": {"@source_uri": "https://tools.usps.com/UspsToolsRestServices/rest/POLocator/findLocations", "@spider": "usps_collection_boxes", "addr:city": "TROUT LAKE", "addr:country": "US", "addr:postcode": "49793", "addr:state": "MI", "addr:street_address": "100 MAPLE ST", "amenity": "post_box", "collection_times": "Mo-Fr 14:20; Sa 11:00", "indoor": "yes", "note": "ON 12/24 AND 12/31, THIS BOX MAY BE COLLECTED AS EARLY AS 12 NOON.", "nsi_id": "unitedstatespostalservice-a77078", "operator": "United States Postal Service", "operator:short": "USPS", "operator:type": "public", "operator:wikidata": "Q668687", "ref": "4979300002"}, "type": "Feature"}
{"geometry": {"coordinates": [-85.0231869, 46.1964144], "type": "Point"}, "id": "y_q_18L2-qdmN1UsPXV08V_UHm0=", "properties": {"@source_uri": "https://tools.usps.com/UspsToolsRestServices/rest/POLocator/findLocations", "@spider": "usps_collection_boxes", "addr:city": "TROUT LAKE", "addr:country": "US", "addr:postcode": "49793", "addr:state": "MI", "addr:street_address": "100 MAPLE ST", "amenity": "post_box", "collection_times": "Mo-Fr 14:00; Sa 10:30", "indoor": "yes", "note": "ON 12/24 AND 12/31, THIS BOX MAY BE COLLECTED AS EARLY AS 12 NOON.", "nsi_id": "unitedstatespostalservice-a77078", "operator": "United States Postal Service", "operator:short": "USPS", "operator:type": "public", "operator:wikidata": "Q668687", "ref": "4979300003"}, "type": "Feature"}
{"geometry": {"coordinates": [-84.662671, 45.142561], "type": "Point"}, "id": "utpFnNeXRiVfD57sn95t_1QDRmA=", "properties": {"@source_uri": "https://tools.usps.com/UspsToolsRestServices/rest/POLocator/findLocations", "@spider": "usps_collection_boxes", "addr:city": "VANDERBILT", "addr:country": "US", "addr:postcode": "49795", "addr:state": "MI", "addr:street_address": "534 E MAIN ST", "amenity": "post_box", "collection_times": "Mo-Fr 14:50; Sa 10:00", "note": "ON 12/24 AND 12/31, THIS BOX MAY BE COLLECTED AS EARLY AS 12 NOON.", "nsi_id": "unitedstatespostalservice-a77078", "operator": "United States Postal Service", "operator:short": "USPS", "operator:type": "public", "operator:wikidata": "Q668687", "ref": "4979500001"}, "type": "Feature"}
{"geometry": {"coordinates": [-84.662671, 45.142561], "type": "Point"}, "id": "NUnkOr22UthHgsG2m-UcaLUlplM=", "properties": {"@source_uri": "https://tools.usps.com/UspsToolsRestServices/rest/POLocator/findLocations", "@spider": "usps_collection_boxes", "addr:city": "VANDERBILT", "addr:country": "US", "addr:postcode": "49795", "addr:state": "MI", "addr:street_address": "534 E MAIN ST", "amenity": "post_box", "collection_times": "Mo-Fr 14:50; Sa 10:00", "indoor": "yes", "note": "ON 12/24 AND 12/31, THIS BOX MAY BE COLLECTED AS EARLY AS 12 NOON.", "nsi_id": "unitedstatespostalservice-a77078", "operator": "United States Postal Service", "operator:short": "USPS", "operator:type": "public", "operator:wikidata": "Q668687", "ref": "4979500002"}, "type": "Feature"}
{"geometry": {"coordinates": [-84.662653751, 45.142555528], "type": "Point"}, "id": "w8DdwDOkQwbxC-f3ciG8TxaQ7Ks=", "properties": {"@source_uri": "https://tools.usps.com/UspsToolsRestServices/rest/POLocator/findLocations", "@spider": "usps_collection_boxes", "addr:city": "VANDERBILT", "addr:country": "US", "addr:postcode": "49795", "addr:state": "MI", "addr:street_address": "534 E MAIN ST", "amenity": "post_box", "collection_times": "Mo-Fr 14:30; Sa 09:30", "indoor": "yes", "note": "ON 12/24 AND 12/31, THIS BOX MAY BE COLLECTED AS EARLY AS 12 NOON.", "nsi_id": "unitedstatespostalservice-a77078", "operator": "United States Postal Service", "operator:short": "USPS", "operator:type": "public", "operator:wikidata": "Q668687", "ref": "4979500003"}, "type": "Feature"}
{"geometry": {"coordinates": [-84.927383, 45.270031], "type": "Point"}, "id": "8q4aMf_GX3TafaVd38Vr1uKblvQ=", "properties": {"@source_uri": "https://tools.usps.com/UspsToolsRestServices/rest/POLocator/findLocations", "@spider": "usps_collection_boxes", "addr:city": "WALLOON LAKE", "addr:country": "US", "addr:postcode": "49796", "addr:state": "MI", "addr:street_address": "4149 STATE ST", "amenity": "post_box", "collection_times": "Mo-Fr 15:50; Sa 11:00", "note": "ON 12/24 AND 12/31, THIS BOX MAY BE COLLECTED AS EARLY AS 12 NOON.", "nsi_id": "unitedstatespostalservice-a77078", "operator": "United States Postal Service", "operator:short": "USPS", "operator:type": "public", "operator:wikidata": "Q668687", "ref": "4979600001"}, "type": "Feature"}
{"geometry": {"coordinates": [-84.927383, 45.270031], "type": "Point"}, "id": "IjAZPPUPwtDrqfwZ8It3uybvLPY=", "properties": {"@source_uri": "https://tools.usps.com/UspsToolsRestServices/rest/POLocator/findLocations", "@spider": "usps_collection_boxes", "addr:city": "WALLOON LAKE", "addr:country": "US", "addr:postcode": "49796", "addr:state": "MI", "addr:street_address": "4149 STATE ST", "amenity": "post_box", "collection_times": "Mo-Fr 15:50; Sa 11:00", "indoor": "yes", "note": "ON 12/24 AND 12/31, THIS BOX MAY BE COLLECTED AS EARLY AS 12 NOON.", "nsi_id": "unitedstatespostalservice-a77078", "operator": "United States Postal Service", "operator:short": "USPS", "operator:type": "public", "operator:wikidata": "Q668687", "ref": "4979600002"}, "type": "Feature"}
{"geometry": {"coordinates": [-84.929446341, 45.266922773], "type": "Point"}, "id": "eu40h89FDT2qQDZgBDMLPIQahsA=", "properties": {"@source_uri": "https://tools.usps.com/UspsToolsRestServices/rest/POLocator/findLocations", "@spider": "usps_collection_boxes", "addr:city": "WALLOON LAKE", "addr:country": "US", "addr:postcode": "49796", "addr:state": "MI", "addr:street_address": "4149 STATE ST", "amenity": "post_box", "collection_times": "Mo-Fr 15:30; Sa 10:30", "indoor": "yes", "note": "ON 12/24 AND 12/31, THIS BOX MAY BE COLLECTED AS EARLY AS 12 NOON.", "nsi_id": "unitedstatespostalservice-a77078", "operator": "United States Postal Service", "operator:short": "USPS", "operator:type": "public", "operator:wikidata": "Q668687", "ref": "4979600003"}, "type": "Feature"}
{"geometry": {"coordinates": [-84.7002610441, 44.8755013571], "type": "Point"}, "id": "S1_d92HqMRwes_ZwNd3dn4KctvQ=", "properties": {"@source_uri": "https://tools.usps.com/UspsToolsRestServices/rest/POLocator/findLocations", "@spider": "usps_collection_boxes", "addr:city": "WATERS", "addr:country": "US", "addr:postcode": "49797", "addr:state": "MI", "addr:street_address": "10568 OTSEGOLAND RD", "amenity": "post_box", "collection_times": "Mo-Fr 15:10; Sa 10:00", "note": "ON 12/24 AND 12/31, THIS BOX MAY BE COLLECTED AS EARLY AS 12 NOON.", "nsi_id": "unitedstatespostalservice-a77078", "operator": "United States Postal Service", "operator:short": "USPS", "operator:type": "public", "operator:wikidata": "Q668687", "ref": "4979700001"}, "type": "Feature"}
{"geometry": {"coordinates": [-84.700269683, 44.875509837], "type": "Point"}, "id": "PVVhicDKpjdtXTgTIvG676_fUcI=", "properties": {"@source_uri": "https://tools.usps.com/UspsToolsRestServices/rest/POLocator/findLocations", "@spider": "usps_collection_boxes", "addr:city": "WATERS", "addr:country": "US", "addr:postcode": "49797", "addr:state": "MI", "addr:street_address": "10568 OTSEGOLAND RD", "amenity": "post_box", "collection_times": "Mo-Fr 15:10; Sa 10:00", "indoor": "yes", "note": "ON 12/24 AND 12/31, THIS BOX MAY BE COLLECTED AS EARLY AS 12 NOON.", "nsi_id": "unitedstatespostalservice-a77078", "operator": "United States Postal Service", "operator:short": "USPS", "operator:type": "public", "operator:wikidata": "Q668687", "ref": "4979700002"}, "type": "Feature"}
{"geometry": {"coordinates": [-84.6898275, 44.8771989], "type": "Point"}, "id": "rlYFLwdKtjLboBPjkBeTFLnP-xQ=", "properties": {"@source_uri": "https://tools.usps.com/UspsToolsRestServices/rest/POLocator/findLocations", "@spider": "usps_collection_boxes", "addr:city": "WATERS", "addr:country": "US", "addr:postcode": "49797", "addr:state": "MI", "addr:street_address": "10568 OTSEGOLAND RD", "amenity": "post_box", "collection_times": "Mo-Fr 15:00; Sa 10:00", "indoor": "yes", "note": "ON 12/24 AND 12/31, THIS BOX MAY BE COLLECTED AS EARLY AS 12 NOON.", "nsi_id": "unitedstatespostalservice-a77078", "operator": "United States Postal Service", "operator:short": "USPS", "operator:type": "public", "operator:wikidata": "Q668687", "ref": "4979700003"}, "type": "Feature"}
{"geometry": {"coordinates": [-84.603711, 45.273708], "type": "Point"}, "id": "FtQXIPV8-v1FYEIAZzx3E9wCTR4=", "properties": {"@source_uri": "https://tools.usps.com/UspsToolsRestServices/rest/POLocator/findLocations", "@spider": "usps_collection_boxes", "addr:city": "WOLVERINE", "addr:country": "US", "addr:postcode": "49799", "addr:state": "MI", "addr:street_address": "12966 S STRAITS HWY", "amenity": "post_box", "collection_times": "Mo-Fr 14:40; Sa 10:45", "note": "ON 12/24 AND 12/31, THIS BOX MAY BE COLLECTED AS EARLY AS 12 NOON.", "nsi_id": "unitedstatespostalservice-a77078", "operator": "United States Postal Service", "operator:short": "USPS", "operator:type": "public", "operator:wikidata": "Q668687", "ref": "4979900001"}, "type": "Feature"}
{"geometry": {"coordinates": [-84.603711, 45.273708], "type": "Point"}, "id": "egzF7gdB-3V5dYSFyYEXiYhImQU=", "properties": {"@source_uri": "https://tools.usps.com/UspsToolsRestServices/rest/POLocator/findLocations", "@spider": "usps_collection_boxes", "addr:city": "WOLVERINE", "addr:country": "US", "addr:postcode": "49799", "addr:state": "MI", "addr:street_address": "12966 S STRAITS HWY", "amenity": "post_box", "collection_times": "Mo-Fr 14:40; Sa 10:45", "indoor": "yes", "note": "ON 12/24 AND 12/31, THIS BOX MAY BE COLLECTED AS EARLY AS 12 NOON.", "nsi_id": "unitedstatespostalservice-a77078", "operator": "United States Postal Service", "operator:short": "USPS", "operator:type": "public", "operator:wikidata": "Q668687", "ref": "4979900002"}, "type": "Feature"}
{"geometry": {"coordinates": [-84.6037105386, 45.2737089745], "type": "Point"}, "id": "-zqmM4twYhZUU8BGTxPGOAKWqxU=", "properties": {"@source_uri": "https://tools.usps.com/UspsToolsRestServices/rest/POLocator/findLocations", "@spider": "usps_collection_boxes", "addr:city": "WOLVERINE", "addr:country": "US", "addr:postcode": "49799", "addr:state": "MI", "addr:street_address": "12966 S STRAITS HWY", "amenity": "post_box", "collection_times": "Mo-Fr 16:00; Sa 10:30", "indoor": "yes", "note": "ON 12/24 AND 12/31, THIS BOX MAY BE COLLECTED AS EARLY AS 12 NOON.", "nsi_id": "unitedstatespostalservice-a77078", "operator": "United States Postal Service", "operator:short": "USPS", "operator:type": "public", "operator:wikidata": "Q668687", "ref": "4979900003"}, "type": "Feature"}
