{"geometry": {"coordinates": [-88.0512504, 45.807304], "type": "Point"}, "id": "pN9wXRZ3XoFkcTuULuzbZZXqi9g=", "properties": {"@source_uri": "https://tools.usps.com/UspsToolsRestServices/rest/POLocator/findLocations", "@spider": "usps_collection_boxes", "addr:city": "IRON MOUNTAIN", "addr:country": "US", "addr:postcode": "49801", "addr:state": "MI", "addr:street_address": "1600 S STEPHENSON AVE", "amenity": "post_box", "collection_times": "Mo-Sa 09:30", "nsi_id": "unitedstatespostalservice-a77078", "operator": "United States Postal Service", "operator:short": "USPS", "operator:type": "public", "operator:wikidata": "Q668687", "ref": "4980100007"}, "type": "Feature"}
{"geometry": {"coordinates": [-88.0569814, 45.834313], "type": "Point"}, "id": "qcvdzjgxkh_tRy9w5dCT0nkgahg=", "properties": {"@source_uri": "https://tools.usps.com/UspsToolsRestServices/rest/POLocator/findLocations", "@spider": "usps_collection_boxes", "addr:city": "IRON MOUNTAIN", "addr:country": "US", "addr:postcode": "49801", "addr:state": "MI", "addr:street_address": "1208 VULCAN ST", "amenity": "post_box", "collection_times": "Mo-Sa 11:00", "nsi_id": "unitedstatespostalservice-a77078", "operator": "United States Postal Service", "operator:short": "USPS", "operator:type": "public", "operator:wikidata": "Q668687", "ref": "4980100009"}, "type": "Feature"}
{"geometry": {"coordinates": [-88.0651747, 45.822273], "type": "Point"}, "id": "hSY6vhICdRZeq9q5_o9vpk82AC8=", "properties": {"@source_uri": "https://tools.usps.com/UspsToolsRestServices/rest/POLocator/findLocations", "@spider": "usps_collection_boxes", "addr:city": "IRON MOUNTAIN", "addr:country": "US", "addr:postcode": "49801", "addr:state": "MI", "addr:street_address": "105 N STEPHENSON AVE", "amenity": "post_box", "collection_times": "Mo-Sa 10:00", "nsi_id": "unitedstatespostalservice-a77078", "operator": "United States Postal Service", "operator:short": "USPS", "operator:type": "public", "operator:wikidata": "Q668687", "ref": "4980100013"}, "type": "Feature"}
{"geometry": {"coordinates": [-88.0699144, 45.818606], "type": "Point"}, "id": "mdsfi1gmSdg1YkjDtqMcTzVeUXo=", "properties": {"@source_uri": "https://tools.usps.com/UspsToolsRestServices/rest/POLocator/findLocations", "@spider": "usps_collection_boxes", "addr:city": "IRON MOUNTAIN", "addr:country": "US", "addr:postcode": "49801", "addr:state": "MI", "addr:street_address": "400 W A ST", "amenity": "post_box", "collection_times": "Mo-Sa 07:00", "nsi_id": "unitedstatespostalservice-a77078", "operator": "United States Postal Service", "operator:short": "USPS", "operator:type": "public", "operator:wikidata": "Q668687", "ref": "4980100015"}, "type": "Feature"}
{"geometry": {"coordinates": [-88.0630414, 45.81242], "type": "Point"}, "id": "5Mex-MPejmi2ifUVdtqh3TvD55E=", "properties": {"@source_uri": "https://tools.usps.com/UspsToolsRestServices/rest/POLocator/findLocations", "@spider": "usps_collection_boxes", "addr:city": "IRON MOUNTAIN", "addr:country": "US", "addr:postcode": "49801", "addr:state": "MI", "addr:street_address": "1100 S STEPHENSON AVE", "amenity": "post_box", "collection_times": "Mo-Sa 12:30", "note": "ON 12/24 AND 12/31, THIS BOX MAY BE COLLECTED AS EARLY AS 12 NOON.", "nsi_id": "unitedstatespostalservice-a77078", "operator": "United States Postal Service", "operator:short": "USPS", "operator:type": "public", "operator:wikidata": "Q668687", "ref": "4980100034"}, "type": "Feature"}
{"geometry": {"coordinates": [-88.0658394, 45.81762], "type": "Point"}, "id": "1AICXANhfpIUMow6m-uyY8nPaVg=", "properties": {"@source_uri": "https://tools.usps.com/UspsToolsRestServices/rest/POLocator/findLocations", "@spider": "usps_collection_boxes", "addr:city": "IRON MOUNTAIN", "addr:country": "US", "addr:postcode": "49801", "addr:state": "MI", "addr:street_address": "500 S STEPHENSON AVE", "amenity": "post_box", "collection_times": "Mo-Sa 12:00", "nsi_id": "unitedstatespostalservice-a77078", "operator": "United States Postal Service", "operator:short": "USPS", "operator:type": "public", "operator:wikidata": "Q668687", "ref": "4980100036"}, "type": "Feature"}
{"geometry": {"coordinates": [-88.0660586, 45.818583], "type": "Point"}, "id": "wblnnlwKyP_Ap2A8Rpi59cRt4A8=", "properties": {"@source_uri": "https://tools.usps.com/UspsToolsRestServices/rest/POLocator/findLocations", "@spider": "usps_collection_boxes", "addr:city": "IRON MOUNTAIN", "addr:country": "US", "addr:postcode": "49801", "addr:state": "MI", "addr:street_address": "105 E A ST", "amenity": "post_box", "collection_times": "Mo-Sa 12:00", "nsi_id": "unitedstatespostalservice-a77078", "operator": "United States Postal Service", "operator:short": "USPS", "operator:type": "public", "operator:wikidata": "Q668687", "ref": "4980100037"}, "type": "Feature"}
{"geometry": {"coordinates": [-88.0653149, 45.819442], "type": "Point"}, "id": "KD9KmhXyUE-kULvN3aERITF0pNU=", "properties": {"@source_uri": "https://tools.usps.com/UspsToolsRestServices/rest/POLocator/findLocations", "@spider": "usps_collection_boxes", "addr:city": "IRON MOUNTAIN", "addr:country": "US", "addr:postcode": "49801", "addr:state": "MI", "addr:street_address": "333 S STEPHENSON AVE", "amenity": "post_box", "collection_times": "Mo-Sa 12:00", "nsi_id": "unitedstatespostalservice-a77078", "operator": "United States Postal Service", "operator:short": "USPS", "operator:type": "public", "operator:wikidata": "Q668687", "ref": "4980100038"}, "type": "Feature"}
{"geometry": {"coordinates": [-88.0674922, 45.819578], "type": "Point"}, "id": "Vtp2Habp0U8JLB0KV7Jgh40oMiQ=", "properties": {"@source_uri": "https://tools.usps.com/UspsToolsRestServices/rest/POLocator/findLocations", "@spider": "usps_collection_boxes", "addr:city": "IRON MOUNTAIN", "addr:country": "US", "addr:postcode": "49801", "addr:state": "MI", "addr:street_address": "101 W LUDINGTON ST", "amenity": "post_box", "collection_times": "Mo-Fr 17:00; Sa 12:00", "note": "ON 12/24 AND 12/31, THIS BOX MAY BE COLLECTED AS EARLY AS 12 NOON.", "nsi_id": "unitedstatespostalservice-a77078", "operator": "United States Postal Service", "operator:short": "USPS", "operator:type": "public", "operator:wikidata": "Q668687", "ref": "4980100043"}, "type": "Feature"}
{"geometry": {"coordinates": [-88.0558478, 45.82422], "type": "Point"}, "id": "gx9t-JMu5zhEL2EqX8h9H4qTVJA=", "properties": {"@source_uri": "https://tools.usps.com/UspsToolsRestServices/rest/POLocator/findLocations", "@spider": "usps_collection_boxes", "addr:city": "IRON MOUNTAIN", "addr:country": "US", "addr:postcode": "49801", "addr:state": "MI", "addr:street_address": "610 N PARK AVE", "amenity": "post_box", "collection_times": "Mo-Sa 08:00", "nsi_id": "unitedstatespostalservice-a77078", "operator": "United States Postal Service", "operator:short": "USPS", "operator:type": "public", "operator:wikidata": "Q668687", "ref": "4980100044"}, "type": "Feature"}
{"geometry": {"coordinates": [-88.0676188, 45.81958], "type": "Point"}, "id": "nQq_9_k97-NnKPFnRUuBHpG97mE=", "properties": {"@source_uri": "https://tools.usps.com/UspsToolsRestServices/rest/POLocator/findLocations", "@spider": "usps_collection_boxes", "addr:city": "IRON MOUNTAIN", "addr:country": "US", "addr:postcode": "49801", "addr:state": "MI", "addr:street_address": "101 W LUDINGTON ST", "amenity": "post_box", "collection_times": "Mo-Fr 17:00; Sa 12:00", "note": "ON 12/24 AND 12/31, THIS BOX MAY BE COLLECTED AS EARLY AS 12 NOON.", "nsi_id": "unitedstatespostalservice-a77078", "operator": "United States Postal Service", "operator:short": "USPS", "operator:type": "public", "operator:wikidata": "Q668687", "ref": "4980100045"}, "type": "Feature"}
{"geometry": {"coordinates": [-88.0446792, 45.809519], "type": "Point"}, "id": "_W8uG1d3gOewnC5hTO-xs-SSgCg=", "properties": {"@source_uri": "https://tools.usps.com/UspsToolsRestServices/rest/POLocator/findLocations", "@spider": "usps_collection_boxes", "addr:city": "IRON MOUNTAIN", "addr:country": "US", "addr:postcode": "49801", "addr:state": "MI", "addr:street_address": "1721 S STEPHENSON AVE", "amenity": "post_box", "collection_times": "Mo-Sa 08:30", "nsi_id": "unitedstatespostalservice-a77078", "operator": "United States Postal Service", "operator:short": "USPS", "operator:type": "public", "operator:wikidata": "Q668687", "ref": "4980100047"}, "type": "Feature"}
{"geometry": {"coordinates": [-88.0672742, 45.820121], "type": "Point"}, "id": "UtKBkkYEoVWCYo7g7WBnIieYbFo=", "properties": {"@source_uri": "https://tools.usps.com/UspsToolsRestServices/rest/POLocator/findLocations", "@spider": "usps_collection_boxes", "addr:city": "IRON MOUNTAIN", "addr:country": "US", "addr:postcode": "49801", "addr:state": "MI", "addr:street_address": "101 W LUDINGTON ST", "amenity": "post_box", "collection_times": "Mo-Fr 17:00; Sa 12:00", "indoor": "yes", "note": "ON 12/24 AND 12/31, THIS BOX MAY BE COLLECTED AS EARLY AS 12 NOON.", "nsi_id": "unitedstatespostalservice-a77078", "operator": "United States Postal Service", "operator:short": "USPS", "operator:type": "public", "operator:wikidata": "Q668687", "ref": "4980100048"}, "type": "Feature"}
{"geometry": {"coordinates": [-88.06672125, 45.82022302], "type": "Point"}, "id": "kAZYMZz8T4DKdCWRwUW3OZlkvVc=", "properties": {"@source_uri": "https://tools.usps.com/UspsToolsRestServices/rest/POLocator/findLocations", "@spider": "usps_collection_boxes", "addr:city": "IRON MOUNTAIN", "addr:country": "US", "addr:postcode": "49801", "addr:state": "MI", "addr:street_address": "101 W LUDINGTON ST", "amenity": "post_box", "collection_times": "Mo-Fr 17:00; Sa 12:00", "indoor": "yes", "note": "ON 12/24 AND 12/31, THIS BOX MAY BE COLLECTED AS EARLY AS 12 NOON.", "nsi_id": "unitedstatespostalservice-a77078", "operator": "United States Postal Service", "operator:short": "USPS", "operator:type": "public", "operator:wikidata": "Q668687", "ref": "4980100055"}, "type": "Feature"}
{"geometry": {"coordinates": [-88.0834414, 45.793254], "type": "Point"}, "id": "cW1YTlmCex1LBls03OnB2Qk6fYo=", "properties": {"@source_uri": "https://tools.usps.com/UspsToolsRestServices/rest/POLocator/findLocations", "@spider": "usps_collection_boxes", "addr:city": "IRON MOUNTAIN", "addr:country": "US", "addr:postcode": "49802", "addr:state": "MI", "addr:street_address": "1201 W BREEN AVE", "amenity": "post_box", "collection_times": "Mo-Sa 12:00", "nsi_id": "unitedstatespostalservice-a77078", "operator": "United States Postal Service", "operator:short": "USPS", "operator:type": "public", "operator:wikidata": "Q668687", "ref": "4980200000"}, "type": "Feature"}
{"geometry": {"coordinates": [-88.077056, 45.796982], "type": "Point"}, "id": "eIJ0UcadfClRJaZEOA0qua2m2IM=", "properties": {"@source_uri": "https://tools.usps.com/UspsToolsRestServices/rest/POLocator/findLocations", "@spider": "usps_collection_boxes", "addr:city": "IRON MOUNTAIN", "addr:country": "US", "addr:postcode": "49802", "addr:state": "MI", "addr:street_address": "700 W BREITUNG AVE", "amenity": "post_box", "collection_times": "Mo-Sa 18:30", "note": "ON 12/24 AND 12/31, THIS BOX MAY BE COLLECTED AS EARLY AS 12 NOON.", "nsi_id": "unitedstatespostalservice-a77078", "operator": "United States Postal Service", "operator:short": "USPS", "operator:type": "public", "operator:wikidata": "Q668687", "ref": "4980200002"}, "type": "Feature"}
{"geometry": {"coordinates": [-88.077056, 45.796982], "type": "Point"}, "id": "k0gEb9ykR720lh19aA0zAoOnD6g=", "properties": {"@source_uri": "https://tools.usps.com/UspsToolsRestServices/rest/POLocator/findLocations", "@spider": "usps_collection_boxes", "addr:city": "IRON MOUNTAIN", "addr:country": "US", "addr:postcode": "49802", "addr:state": "MI", "addr:street_address": "700 W BREITUNG AVE", "amenity": "post_box", "collection_times": "Mo-Sa 18:30", "note": "ON 12/24 AND 12/31, THIS BOX MAY BE COLLECTED AS EARLY AS 12 NOON.", "nsi_id": "unitedstatespostalservice-a77078", "operator": "United States Postal Service", "operator:short": "USPS", "operator:type": "public", "operator:wikidata": "Q668687", "ref": "4980200003"}, "type": "Feature"}
{"geometry": {"coordinates": [-88.0682700072, 45.802645998], "type": "Point"}, "id": "WJTm5bBIDo6s2t-nmbPa99R2kpw=", "properties": {"@source_uri": "https://tools.usps.com/UspsToolsRestServices/rest/POLocator/findLocations", "@spider": "usps_collection_boxes", "addr:city": "IRON MOUNTAIN", "addr:country": "US", "addr:postcode": "49802", "addr:state": "MI", "addr:street_address": "555 S CARPENTER AVE", "amenity": "post_box", "collection_times": "Mo-Sa 12:30", "note": "ON 12/24 AND 12/31, THIS BOX MAY BE COLLECTED AS EARLY AS 12 NOON.", "nsi_id": "unitedstatespostalservice-a77078", "operator": "United States Postal Service", "operator:short": "USPS", "operator:type": "public", "operator:wikidata": "Q668687", "ref": "4980200008"}, "type": "Feature"}
{"geometry": {"coordinates": [-88.0979279, 45.81136], "type": "Point"}, "id": "oP3bXkkLxeSWh6d60pabFykepk8=", "properties": {"@source_uri": "https://tools.usps.com/UspsToolsRestServices/rest/POLocator/findLocations", "@spider": "usps_collection_boxes", "addr:city": "IRON MOUNTAIN", "addr:country": "US", "addr:postcode": "49802", "addr:state": "MI", "addr:street_address": "401 WESTWOOD AVE", "amenity": "post_box", "collection_times": "Mo-Sa 12:00", "nsi_id": "unitedstatespostalservice-a77078", "operator": "United States Postal Service", "operator:short": "USPS", "operator:type": "public", "operator:wikidata": "Q668687", "ref": "4980200013"}, "type": "Feature"}
{"geometry": {"coordinates": [-88.077056, 45.796982], "type": "Point"}, "id": "LOHYJew23LJFEH6Od7s9ZkrI0YE=", "properties": {"@source_uri": "https://tools.usps.com/UspsToolsRestServices/rest/POLocator/findLocations", "@spider": "usps_collection_boxes", "addr:city": "IRON MOUNTAIN", "addr:country": "US", "addr:postcode": "49802", "addr:state": "MI", "addr:street_address": "700 W BREITUNG AVE", "amenity": "post_box", "collection_times": "Mo-Sa 20:00", "indoor": "yes", "note": "ON 12/24 AND 12/31, THIS BOX MAY BE COLLECTED AS EARLY AS 12 NOON.", "nsi_id": "unitedstatespostalservice-a77078", "operator": "United States Postal Service", "operator:short": "USPS", "operator:type": "public", "operator:wikidata": "Q668687", "ref": "4980200019"}, "type": "Feature"}
{"geometry": {"coordinates": [-86.837703, 46.430838], "type": "Point"}, "id": "FQEvqjf0uzMbotXBGfmBGS7kOQw=", "properties": {"@source_uri": "https://tools.usps.com/UspsToolsRestServices/rest/POLocator/findLocations", "@spider": "usps_collection_boxes", "addr:city": "AU TRAIN", "addr:country": "US", "addr:postcode": "49806", "addr:state": "MI", "addr:street_address": "N7589 ARBUTUS ST", "amenity": "post_box", "collection_times": "Mo-Fr 12:15; Sa 10:45", "note": "ON 12/24 AND 12/31, THIS BOX MAY BE COLLECTED AS EARLY AS 12 NOON.", "nsi_id": "unitedstatespostalservice-a77078", "operator": "United States Postal Service", "operator:short": "USPS", "operator:type": "public", "operator:wikidata": "Q668687", "ref": "4980600000"}, "type": "Feature"}
{"geometry": {"coordinates": [-86.837703, 46.430838], "type": "Point"}, "id": "Bz1p7TL_bottY2mPcRBqBMqf34M=", "properties": {"@source_uri": "https://tools.usps.com/UspsToolsRestServices/rest/POLocator/findLocations", "@spider": "usps_collection_boxes", "addr:city": "AU TRAIN", "addr:country": "US", "addr:postcode": "49806", "addr:state": "MI", "addr:street_address": "N7589 ARBUTUS ST", "amenity": "post_box", "collection_times": "Mo-Fr 12:15; Sa 10:45", "indoor": "yes", "note": "ON 12/24 AND 12/31, THIS BOX MAY BE COLLECTED AS EARLY AS 12 NOON.", "nsi_id": "unitedstatespostalservice-a77078", "operator": "United States Postal Service", "operator:short": "USPS", "operator:type": "public", "operator:wikidata": "Q668687", "ref": "4980600001"}, "type": "Feature"}
{"geometry": {"coordinates": [-86.837722813, 46.430834007], "type": "Point"}, "id": "fCs3DlGewWj0_m9b_Z44GvZph_c=", "properties": {"@source_uri": "https://tools.usps.com/UspsToolsRestServices/rest/POLocator/findLocations", "@spider": "usps_collection_boxes", "addr:city": "AU TRAIN", "addr:country": "US", "addr:postcode": "49806", "addr:state": "MI", "addr:street_address": "N7589 ARBUTUS ST", "amenity": "post_box", "collection_times": "Mo-Fr 12:00; Sa 10:15", "indoor": "yes", "nsi_id": "unitedstatespostalservice-a77078", "operator": "United States Postal Service", "operator:short": "USPS", "operator:type": "public", "operator:wikidata": "Q668687", "ref": "4980600002"}, "type": "Feature"}
{"geometry": {"coordinates": [-87.3041379132, 45.7105562939], "type": "Point"}, "id": "0mrpLiCxW34d9bZNPkF5KVjbShk=", "properties": {"@source_uri": "https://tools.usps.com/UspsToolsRestServices/rest/POLocator/findLocations", "@spider": "usps_collection_boxes", "addr:city": "BARK RIVER", "addr:country": "US", "addr:postcode": "49807", "addr:state": "MI", "addr:street_address": "1316 OLD HIGHWAY 2/41", "amenity": "post_box", "collection_times": "Mo-Fr 16:30; Sa 12:15", "note": "ON 12/24 AND 12/31, THIS BOX MAY BE COLLECTED AS EARLY AS 12 NOON.", "nsi_id": "unitedstatespostalservice-a77078", "operator": "United States Postal Service", "operator:short": "USPS", "operator:type": "public", "operator:wikidata": "Q668687", "ref": "4980700000"}, "type": "Feature"}
{"geometry": {"coordinates": [-87.304094, 45.710517], "type": "Point"}, "id": "btLlrS4OiUZUALndUm91A-EjLyo=", "properties": {"@source_uri": "https://tools.usps.com/UspsToolsRestServices/rest/POLocator/findLocations", "@spider": "usps_collection_boxes", "addr:city": "BARK RIVER", "addr:country": "US", "addr:postcode": "49807", "addr:state": "MI", "addr:street_address": "1316 OLD HIGHWAY 2/41", "amenity": "post_box", "collection_times": "Mo-Fr 16:30; Sa 12:15", "indoor": "yes", "note": "ON 12/24 AND 12/31, THIS BOX MAY BE COLLECTED AS EARLY AS 12 NOON.", "nsi_id": "unitedstatespostalservice-a77078", "operator": "United States Postal Service", "operator:short": "USPS", "operator:type": "public", "operator:wikidata": "Q668687", "ref": "4980700001"}, "type": "Feature"}
{"geometry": {"coordinates": [-87.3041427918, 45.7105469811], "type": "Point"}, "id": "5mn40GQX8el2BpZtKvm_u_ALBuQ=", "properties": {"@source_uri": "https://tools.usps.com/UspsToolsRestServices/rest/POLocator/findLocations", "@spider": "usps_collection_boxes", "addr:city": "BARK RIVER", "addr:country": "US", "addr:postcode": "49807", "addr:state": "MI", "addr:street_address": "1316 OLD HIGHWAY 2 41", "amenity": "post_box", "collection_times": "Mo-Fr 15:30; Sa 10:30", "indoor": "yes", "note": "ON 12/24 AND 12/31, THIS BOX MAY BE COLLECTED AS EARLY AS 12 NOON.", "nsi_id": "unitedstatespostalservice-a77078", "operator": "United States Postal Service", "operator:short": "USPS", "operator:type": "public", "operator:wikidata": "Q668687", "ref": "4980700003"}, "type": "Feature"}
{"geometry": {"coordinates": [-87.731555, 46.818868], "type": "Point"}, "id": "X7gjxJ1pbFi4WcI9YQHPCkAzvTg=", "properties": {"@source_uri": "https://tools.usps.com/UspsToolsRestServices/rest/POLocator/findLocations", "@spider": "usps_collection_boxes", "addr:city": "BIG BAY", "addr:country": "US", "addr:postcode": "49808", "addr:state": "MI", "addr:street_address": "505 HOFFMAN ST", "amenity": "post_box", "collection_times": "Mo-Fr 13:00; Sa 13:45", "note": "ON 12/24 AND 12/31, THIS BOX MAY BE COLLECTED AS EARLY AS 12 NOON.", "nsi_id": "unitedstatespostalservice-a77078", "operator": "United States Postal Service", "operator:short": "USPS", "operator:type": "public", "operator:wikidata": "Q668687", "ref": "4980800000"}, "type": "Feature"}
{"geometry": {"coordinates": [-87.73150619, 46.819062], "type": "Point"}, "id": "dunY2XWiBsJ38qc_Ne8hMnsnC6Y=", "properties": {"@source_uri": "https://tools.usps.com/UspsToolsRestServices/rest/POLocator/findLocations", "@spider": "usps_collection_boxes", "addr:city": "BIG BAY", "addr:country": "US", "addr:postcode": "49808", "addr:state": "MI", "addr:street_address": "505 HOFFMAN ST", "amenity": "post_box", "collection_times": "Mo-Sa 12:30", "indoor": "yes", "note": "ON 12/24 AND 12/31, THIS BOX MAY BE COLLECTED AS EARLY AS 12 NOON.", "nsi_id": "unitedstatespostalservice-a77078", "operator": "United States Postal Service", "operator:short": "USPS", "operator:type": "public", "operator:wikidata": "Q668687", "ref": "4980800002"}, "type": "Feature"}
{"geometry": {"coordinates": [-87.553076, 45.591133], "type": "Point"}, "id": "RusoA6jS2OMU5jLTSlOOfW6wDYQ=", "properties": {"@source_uri": "https://tools.usps.com/UspsToolsRestServices/rest/POLocator/findLocations", "@spider": "usps_collection_boxes", "addr:city": "CARNEY", "addr:country": "US", "addr:postcode": "49812", "addr:state": "MI", "addr:street_address": "211 N US HIGHWAY 41", "amenity": "post_box", "collection_times": "Mo-Fr 11:45; Sa 09:30", "nsi_id": "unitedstatespostalservice-a77078", "operator": "United States Postal Service", "operator:short": "USPS", "operator:type": "public", "operator:wikidata": "Q668687", "ref": "4981200000"}, "type": "Feature"}
{"geometry": {"coordinates": [-87.553076, 45.591133], "type": "Point"}, "id": "j5SyaK7s8EBcWTOqHT43nPE_LtA=", "properties": {"@source_uri": "https://tools.usps.com/UspsToolsRestServices/rest/POLocator/findLocations", "@spider": "usps_collection_boxes", "addr:city": "CARNEY", "addr:country": "US", "addr:postcode": "49812", "addr:state": "MI", "addr:street_address": "211 N US HIGHWAY 41", "amenity": "post_box", "collection_times": "Mo-Fr 11:45; Sa 09:30", "indoor": "yes", "nsi_id": "unitedstatespostalservice-a77078", "operator": "United States Postal Service", "operator:short": "USPS", "operator:type": "public", "operator:wikidata": "Q668687", "ref": "4981200002"}, "type": "Feature"}
{"geometry": {"coordinates": [-87.5531013224, 45.5911086792], "type": "Point"}, "id": "1yFD6XN9yDzFYn7AtmrZiphKUB8=", "properties": {"@source_uri": "https://tools.usps.com/UspsToolsRestServices/rest/POLocator/findLocations", "@spider": "usps_collection_boxes", "addr:city": "CARNEY", "addr:country": "US", "addr:postcode": "49812", "addr:state": "MI", "addr:street_address": "211 N US HIGHWAY 41", "amenity": "post_box", "collection_times": "Mo-Fr 11:30; Sa 09:15", "indoor": "yes", "nsi_id": "unitedstatespostalservice-a77078", "operator": "United States Postal Service", "operator:short": "USPS", "operator:type": "public", "operator:wikidata": "Q668687", "ref": "4981200003"}, "type": "Feature"}
{"geometry": {"coordinates": [-87.96614, 46.513843], "type": "Point"}, "id": "kLzLsPFPT1_jP4UMXlCVP_x0ZGk=", "properties": {"@source_uri": "https://tools.usps.com/UspsToolsRestServices/rest/POLocator/findLocations", "@spider": "usps_collection_boxes", "addr:city": "CHAMPION", "addr:country": "US", "addr:postcode": "49814", "addr:state": "MI", "addr:street_address": "3953 US HIGHWAY 41 W", "amenity": "post_box", "collection_times": "Mo-Fr 13:45; Sa 10:00", "note": "ON 12/24 AND 12/31, THIS BOX MAY BE COLLECTED AS EARLY AS 12 NOON.", "nsi_id": "unitedstatespostalservice-a77078", "operator": "United States Postal Service", "operator:short": "USPS", "operator:type": "public", "operator:wikidata": "Q668687", "ref": "4981400000"}, "type": "Feature"}
{"geometry": {"coordinates": [-87.96614, 46.513843], "type": "Point"}, "id": "KyQxfWfv71nAoGbC7WlYmbcK3Eo=", "properties": {"@source_uri": "https://tools.usps.com/UspsToolsRestServices/rest/POLocator/findLocations", "@spider": "usps_collection_boxes", "addr:city": "CHAMPION", "addr:country": "US", "addr:postcode": "49814", "addr:state": "MI", "addr:street_address": "3953 US HIGHWAY 41 W", "amenity": "post_box", "collection_times": "Mo-Fr 13:45; Sa 10:00", "indoor": "yes", "note": "ON 12/24 AND 12/31, THIS BOX MAY BE COLLECTED AS EARLY AS 12 NOON.", "nsi_id": "unitedstatespostalservice-a77078", "operator": "United States Postal Service", "operator:short": "USPS", "operator:type": "public", "operator:wikidata": "Q668687", "ref": "4981400002"}, "type": "Feature"}
{"geometry": {"coordinates": [-87.9179753, 46.497046], "type": "Point"}, "id": "M9x7LotLU2s_hiPO6peTWsFItQY=", "properties": {"@source_uri": "https://tools.usps.com/UspsToolsRestServices/rest/POLocator/findLocations", "@spider": "usps_collection_boxes", "addr:city": "CHAMPION", "addr:country": "US", "addr:postcode": "49814", "addr:state": "MI", "addr:street_address": "13401 US HIGHWAY 41 W", "amenity": "post_box", "collection_times": "Mo-Sa 09:30", "nsi_id": "unitedstatespostalservice-a77078", "operator": "United States Postal Service", "operator:short": "USPS", "operator:type": "public", "operator:wikidata": "Q668687", "ref": "4981400004"}, "type": "Feature"}
{"geometry": {"coordinates": [-87.9661415887, 46.5138382756], "type": "Point"}, "id": "zCBiF-zgrXQXnR_ATTdOzJueWSg=", "properties": {"@source_uri": "https://tools.usps.com/UspsToolsRestServices/rest/POLocator/findLocations", "@spider": "usps_collection_boxes", "addr:city": "CHAMPION", "addr:country": "US", "addr:postcode": "49814", "addr:state": "MI", "addr:street_address": "3953 US HIGHWAY 41 W", "amenity": "post_box", "collection_times": "Mo-Fr 13:30; Sa 09:30", "indoor": "yes", "note": "ON 12/24 AND 12/31, THIS BOX MAY BE COLLECTED AS EARLY AS 12 NOON.", "nsi_id": "unitedstatespostalservice-a77078", "operator": "United States Postal Service", "operator:short": "USPS", "operator:type": "public", "operator:wikidata": "Q668687", "ref": "4981400005"}, "type": "Feature"}
{"geometry": {"coordinates": [-88.0937319, 46.139881], "type": "Point"}, "id": "hlQY7gs7vNttGVoC2AvJg4t0Dvw=", "properties": {"@source_uri": "https://tools.usps.com/UspsToolsRestServices/rest/POLocator/findLocations", "@spider": "usps_collection_boxes", "addr:city": "CHANNING", "addr:country": "US", "addr:postcode": "49815", "addr:state": "MI", "addr:street_address": "601 RAILROAD AVE", "amenity": "post_box", "collection_times": "Mo-Fr 11:30; Sa 09:45", "nsi_id": "unitedstatespostalservice-a77078", "operator": "United States Postal Service", "operator:short": "USPS", "operator:type": "public", "operator:wikidata": "Q668687", "ref": "4981500000"}, "type": "Feature"}
{"geometry": {"coordinates": [-88.0935019, 46.13996], "type": "Point"}, "id": "jJXhqJThroF8mGc5xkc6k8rr9_w=", "properties": {"@source_uri": "https://tools.usps.com/UspsToolsRestServices/rest/POLocator/findLocations", "@spider": "usps_collection_boxes", "addr:city": "CHANNING", "addr:country": "US", "addr:postcode": "49815", "addr:state": "MI", "addr:street_address": "601 RAILROAD AVE", "amenity": "post_box", "collection_times": "Mo-Fr 11:30; Sa 09:45", "indoor": "yes", "nsi_id": "unitedstatespostalservice-a77078", "operator": "United States Postal Service", "operator:short": "USPS", "operator:type": "public", "operator:wikidata": "Q668687", "ref": "4981500002"}, "type": "Feature"}
{"geometry": {"coordinates": [-88.0937750813, 46.1406293814], "type": "Point"}, "id": "5Ky0zpKXRr4qKAQETh8AsXwxP0M=", "properties": {"@source_uri": "https://tools.usps.com/UspsToolsRestServices/rest/POLocator/findLocations", "@spider": "usps_collection_boxes", "addr:city": "CHANNING", "addr:country": "US", "addr:postcode": "49815", "addr:state": "MI", "addr:street_address": "601 RAILROAD AVE", "amenity": "post_box", "collection_times": "Mo-Fr 11:00; Sa 08:15", "indoor": "yes", "nsi_id": "unitedstatespostalservice-a77078", "operator": "United States Postal Service", "operator:short": "USPS", "operator:type": "public", "operator:wikidata": "Q668687", "ref": "4981500003"}, "type": "Feature"}
{"geometry": {"coordinates": [-86.923703, 46.347523], "type": "Point"}, "id": "EW1vT1hjxqvTwe9v9qcd8wJIO1M=", "properties": {"@source_uri": "https://tools.usps.com/UspsToolsRestServices/rest/POLocator/findLocations", "@spider": "usps_collection_boxes", "addr:city": "CHATHAM", "addr:country": "US", "addr:postcode": "49816", "addr:state": "MI", "addr:street_address": "E3735 MUNISING ST", "amenity": "post_box", "collection_times": "Mo-Fr 15:30; Sa 11:00", "note": "ON 12/24 AND 12/31, THIS BOX MAY BE COLLECTED AS EARLY AS 12 NOON.", "nsi_id": "unitedstatespostalservice-a77078", "operator": "United States Postal Service", "operator:short": "USPS", "operator:type": "public", "operator:wikidata": "Q668687", "ref": "4981600000"}, "type": "Feature"}
{"geometry": {"coordinates": [-86.923703, 46.347523], "type": "Point"}, "id": "QLFHpFD-G5Sv81U4GjL2owAnCH8=", "properties": {"@source_uri": "https://tools.usps.com/UspsToolsRestServices/rest/POLocator/findLocations", "@spider": "usps_collection_boxes", "addr:city": "CHATHAM", "addr:country": "US", "addr:postcode": "49816", "addr:state": "MI", "addr:street_address": "E3735 MUNISING ST", "amenity": "post_box", "collection_times": "Mo-Fr 15:30; Sa 11:00", "indoor": "yes", "note": "ON 12/24 AND 12/31, THIS BOX MAY BE COLLECTED AS EARLY AS 12 NOON.", "nsi_id": "unitedstatespostalservice-a77078", "operator": "United States Postal Service", "operator:short": "USPS", "operator:type": "public", "operator:wikidata": "Q668687", "ref": "4981600001"}, "type": "Feature"}
{"geometry": {"coordinates": [-86.9253703531, 46.3474699612], "type": "Point"}, "id": "yT2l_aVuOLnuPLYY-agSZbq1Cgo=", "properties": {"@source_uri": "https://tools.usps.com/UspsToolsRestServices/rest/POLocator/findLocations", "@spider": "usps_collection_boxes", "addr:city": "CHATHAM", "addr:country": "US", "addr:postcode": "49816", "addr:state": "MI", "addr:street_address": "E3735 MUNISING ST", "amenity": "post_box", "collection_times": "Mo-Fr 15:00; Sa 10:30", "indoor": "yes", "note": "ON 12/24 AND 12/31, THIS BOX MAY BE COLLECTED AS EARLY AS 12 NOON.", "nsi_id": "unitedstatespostalservice-a77078", "operator": "United States Postal Service", "operator:short": "USPS", "operator:type": "public", "operator:wikidata": "Q668687", "ref": "4981600002"}, "type": "Feature"}
{"geometry": {"coordinates": [-86.4783458, 45.915044], "type": "Point"}, "id": "4d7K9r-TOi4qnug7QChWxsdKChk=", "properties": {"@source_uri": "https://tools.usps.com/UspsToolsRestServices/rest/POLocator/findLocations", "@spider": "usps_collection_boxes", "addr:city": "COOKS", "addr:country": "US", "addr:postcode": "49817", "addr:state": "MI", "addr:street_address": "1131S COUNTY ROAD 442", "amenity": "post_box", "collection_times": "Mo-Fr 12:00; Sa 10:00", "nsi_id": "unitedstatespostalservice-a77078", "operator": "United States Postal Service", "operator:short": "USPS", "operator:type": "public", "operator:wikidata": "Q668687", "ref": "4981700000"}, "type": "Feature"}
{"geometry": {"coordinates": [-86.4709429058, 45.9345541196], "type": "Point"}, "id": "6p3id1-55v1FkNSMsSeeMdx8GaE=", "properties": {"@source_uri": "https://tools.usps.com/UspsToolsRestServices/rest/POLocator/findLocations", "@spider": "usps_collection_boxes", "addr:city": "COOKS", "addr:country": "US", "addr:postcode": "49817", "addr:state": "MI", "addr:street_address": "1131 S COUNTY ROAD 442", "amenity": "post_box", "collection_times": "Mo-Fr 12:00; Sa 10:00", "indoor": "yes", "nsi_id": "unitedstatespostalservice-a77078", "operator": "United States Postal Service", "operator:short": "USPS", "operator:type": "public", "operator:wikidata": "Q668687", "ref": "4981700001"}, "type": "Feature"}
{"geometry": {"coordinates": [-86.468801561, 45.936834705], "type": "Point"}, "id": "AUXv8EmCGH4G6ye1uy53N3shKjU=", "properties": {"@source_uri": "https://tools.usps.com/UspsToolsRestServices/rest/POLocator/findLocations", "@spider": "usps_collection_boxes", "addr:city": "COOKS", "addr:country": "US", "addr:postcode": "49817", "addr:state": "MI", "addr:street_address": "1131S COUNTY ROAD 442", "amenity": "post_box", "collection_times": "Mo-Fr 11:30; Sa 09:30", "indoor": "yes", "nsi_id": "unitedstatespostalservice-a77078", "operator": "United States Postal Service", "operator:short": "USPS", "operator:type": "public", "operator:wikidata": "Q668687", "ref": "4981700002"}, "type": "Feature"}
{"geometry": {"coordinates": [-87.223129, 45.903798], "type": "Point"}, "id": "hCJGF1u_mIh44Ki7zZz4k5l8Ocg=", "properties": {"@source_uri": "https://tools.usps.com/UspsToolsRestServices/rest/POLocator/findLocations", "@spider": "usps_collection_boxes", "addr:city": "CORNELL", "addr:country": "US", "addr:postcode": "49818", "addr:state": "MI", "addr:street_address": "9845 BONEY FALLS H RD", "amenity": "post_box", "collection_times": "Mo-Fr 12:00; Sa 11:00", "nsi_id": "unitedstatespostalservice-a77078", "operator": "United States Postal Service", "operator:short": "USPS", "operator:type": "public", "operator:wikidata": "Q668687", "ref": "4981800000"}, "type": "Feature"}
{"geometry": {"coordinates": [-87.223129, 45.903798], "type": "Point"}, "id": "zt7Eg4JVpMBXCNa2Dx2ZkauysLA=", "properties": {"@source_uri": "https://tools.usps.com/UspsToolsRestServices/rest/POLocator/findLocations", "@spider": "usps_collection_boxes", "addr:city": "CORNELL", "addr:country": "US", "addr:postcode": "49818", "addr:state": "MI", "addr:street_address": "9845 BONEY FALLS H RD", "amenity": "post_box", "collection_times": "Mo-Fr 12:00; Sa 11:00", "indoor": "yes", "nsi_id": "unitedstatespostalservice-a77078", "operator": "United States Postal Service", "operator:short": "USPS", "operator:type": "public", "operator:wikidata": "Q668687", "ref": "4981800001"}, "type": "Feature"}
{"geometry": {"coordinates": [-87.223156317, 45.903770665], "type": "Point"}, "id": "BuG8AhmYW1SCgi-TcDOu_AFZF8E=", "properties": {"@source_uri": "https://tools.usps.com/UspsToolsRestServices/rest/POLocator/findLocations", "@spider": "usps_collection_boxes", "addr:city": "CORNELL", "addr:country": "US", "addr:postcode": "49818", "addr:state": "MI", "addr:street_address": "9845 BONEY FALLS H RD", "amenity": "post_box", "collection_times": "Mo-Fr 11:45; Sa 10:45", "indoor": "yes", "nsi_id": "unitedstatespostalservice-a77078", "operator": "United States Postal Service", "operator:short": "USPS", "operator:type": "public", "operator:wikidata": "Q668687", "ref": "4981800003"}, "type": "Feature"}
{"geometry": {"coordinates": [-85.741026, 46.205238], "type": "Point"}, "id": "8MozmQ8muPEXmdXg-BAMNxT-gmo=", "properties": {"@source_uri": "https://tools.usps.com/UspsToolsRestServices/rest/POLocator/findLocations", "@spider": "usps_collection_boxes", "addr:city": "CURTIS", "addr:country": "US", "addr:postcode": "49820", "addr:state": "MI", "addr:street_address": "W17194 MAIN ST", "amenity": "post_box", "collection_times": "Mo-Fr 15:30; Sa 12:45", "note": "ON 12/24 AND 12/31, THIS BOX MAY BE COLLECTED AS EARLY AS 12 NOON.", "nsi_id": "unitedstatespostalservice-a77078", "operator": "United States Postal Service", "operator:short": "USPS", "operator:type": "public", "operator:wikidata": "Q668687", "ref": "4982000000"}, "type": "Feature"}
{"geometry": {"coordinates": [-85.741026, 46.205238], "type": "Point"}, "id": "WTbtovp1XLVRFlVhqAMrWU_bHws=", "properties": {"@source_uri": "https://tools.usps.com/UspsToolsRestServices/rest/POLocator/findLocations", "@spider": "usps_collection_boxes", "addr:city": "CURTIS", "addr:country": "US", "addr:postcode": "49820", "addr:state": "MI", "addr:street_address": "W17194 MAIN ST", "amenity": "post_box", "collection_times": "Mo-Fr 15:30; Sa 12:45", "indoor": "yes", "note": "ON 12/24 AND 12/31, THIS BOX MAY BE COLLECTED AS EARLY AS 12 NOON.", "nsi_id": "unitedstatespostalservice-a77078", "operator": "United States Postal Service", "operator:short": "USPS", "operator:type": "public", "operator:wikidata": "Q668687", "ref": "4982000001"}, "type": "Feature"}
{"geometry": {"coordinates": [-85.7392300467, 46.2048710634], "type": "Point"}, "id": "g61CBh2-gOxhI5-KBgHchMUn3z8=", "properties": {"@source_uri": "https://tools.usps.com/UspsToolsRestServices/rest/POLocator/findLocations", "@spider": "usps_collection_boxes", "addr:city": "CURTIS", "addr:country": "US", "addr:postcode": "49820", "addr:state": "MI", "addr:street_address": "W17194 MAIN ST", "amenity": "post_box", "collection_times": "Mo-Fr 15:00; Sa 12:15", "indoor": "yes", "note": "ON 12/24 AND 12/31, THIS BOX MAY BE COLLECTED AS EARLY AS 12 NOON.", "nsi_id": "unitedstatespostalservice-a77078", "operator": "United States Postal Service", "operator:short": "USPS", "operator:type": "public", "operator:wikidata": "Q668687", "ref": "4982000002"}, "type": "Feature"}
{"geometry": {"coordinates": [-87.599204, 45.461683], "type": "Point"}, "id": "CXc7ThcqzkkWfWc8BDHpYujJJgw=", "properties": {"@source_uri": "https://tools.usps.com/UspsToolsRestServices/rest/POLocator/findLocations", "@spider": "usps_collection_boxes", "addr:city": "DAGGETT", "addr:country": "US", "addr:postcode": "49821", "addr:state": "MI", "addr:street_address": "125 W SCHOOL RD", "amenity": "post_box", "collection_times": "Mo-Fr 14:45; Sa 09:45", "note": "ON 12/24 AND 12/31, THIS BOX MAY BE COLLECTED AS EARLY AS 12 NOON.", "nsi_id": "unitedstatespostalservice-a77078", "operator": "United States Postal Service", "operator:short": "USPS", "operator:type": "public", "operator:wikidata": "Q668687", "ref": "4982100000"}, "type": "Feature"}
{"geometry": {"coordinates": [-87.599204, 45.461683], "type": "Point"}, "id": "J0LQBv0UcMkYTmQdgJ5U3Jj0o7I=", "properties": {"@source_uri": "https://tools.usps.com/UspsToolsRestServices/rest/POLocator/findLocations", "@spider": "usps_collection_boxes", "addr:city": "DAGGETT", "addr:country": "US", "addr:postcode": "49821", "addr:state": "MI", "addr:street_address": "125 W SCHOOL RD", "amenity": "post_box", "collection_times": "Mo-Fr 14:45; Sa 09:45", "indoor": "yes", "note": "ON 12/24 AND 12/31, THIS BOX MAY BE COLLECTED AS EARLY AS 12 NOON.", "nsi_id": "unitedstatespostalservice-a77078", "operator": "United States Postal Service", "operator:short": "USPS", "operator:type": "public", "operator:wikidata": "Q668687", "ref": "4982100001"}, "type": "Feature"}
{"geometry": {"coordinates": [-87.599182315, 45.461733921], "type": "Point"}, "id": "Uu_5iRMDIpXe1NZpyFExeJLRrik=", "properties": {"@source_uri": "https://tools.usps.com/UspsToolsRestServices/rest/POLocator/findLocations", "@spider": "usps_collection_boxes", "addr:city": "DAGGETT", "addr:country": "US", "addr:postcode": "49821", "addr:state": "MI", "addr:street_address": "125 W SCHOOL RD", "amenity": "post_box", "collection_times": "Mo-Fr 14:30; Sa 09:15", "indoor": "yes", "note": "ON 12/24 AND 12/31, THIS BOX MAY BE COLLECTED AS EARLY AS 12 NOON.", "nsi_id": "unitedstatespostalservice-a77078", "operator": "United States Postal Service", "operator:short": "USPS", "operator:type": "public", "operator:wikidata": "Q668687", "ref": "4982100003"}, "type": "Feature"}
{"geometry": {"coordinates": [-86.97611, 46.354822], "type": "Point"}, "id": "w-58VEAc8EMPJFKaGe6HHH9f_OE=", "properties": {"@source_uri": "https://tools.usps.com/UspsToolsRestServices/rest/POLocator/findLocations", "@spider": "usps_collection_boxes", "addr:city": "EBEN JUNCTION", "addr:country": "US", "addr:postcode": "49825", "addr:state": "MI", "addr:street_address": "E2895 STATE HIGHWAY M94", "amenity": "post_box", "collection_times": "Mo-Fr 15:30; Sa 10:30", "note": "ON 12/24 AND 12/31, THIS BOX MAY BE COLLECTED AS EARLY AS 12 NOON.", "nsi_id": "unitedstatespostalservice-a77078", "operator": "United States Postal Service", "operator:short": "USPS", "operator:type": "public", "operator:wikidata": "Q668687", "ref": "4982500000"}, "type": "Feature"}
{"geometry": {"coordinates": [-86.97611, 46.354822], "type": "Point"}, "id": "Z3KTNGcMTRYOwlNTbf2LIPt5oZE=", "properties": {"@source_uri": "https://tools.usps.com/UspsToolsRestServices/rest/POLocator/findLocations", "@spider": "usps_collection_boxes", "addr:city": "EBEN JUNCTION", "addr:country": "US", "addr:postcode": "49825", "addr:state": "MI", "addr:street_address": "E2895 STATE HIGHWAY M94", "amenity": "post_box", "collection_times": "Mo-Fr 15:30; Sa 10:30", "indoor": "yes", "note": "ON 12/24 AND 12/31, THIS BOX MAY BE COLLECTED AS EARLY AS 12 NOON.", "nsi_id": "unitedstatespostalservice-a77078", "operator": "United States Postal Service", "operator:short": "USPS", "operator:type": "public", "operator:wikidata": "Q668687", "ref": "4982500001"}, "type": "Feature"}
{"geometry": {"coordinates": [-86.971074546, 46.354767732], "type": "Point"}, "id": "Bdz8BAd0o4YEcWbtL8M11MkRx1Q=", "properties": {"@source_uri": "https://tools.usps.com/UspsToolsRestServices/rest/POLocator/findLocations", "@spider": "usps_collection_boxes", "addr:city": "EBEN JUNCTION", "addr:country": "US", "addr:postcode": "49825", "addr:state": "MI", "addr:street_address": "E2895 STATE HIGHWAY M94", "amenity": "post_box", "collection_times": "Mo-Fr 16:00; Sa 10:00", "indoor": "yes", "note": "ON 12/24 AND 12/31, THIS BOX MAY BE COLLECTED AS EARLY AS 12 NOON.", "nsi_id": "unitedstatespostalservice-a77078", "operator": "United States Postal Service", "operator:short": "USPS", "operator:type": "public", "operator:wikidata": "Q668687", "ref": "4982500002"}, "type": "Feature"}
{"geometry": {"coordinates": [-85.5724518, 46.116626], "type": "Point"}, "id": "LzKezt4KkOk4ND3ktb4L3w8WIZM=", "properties": {"@source_uri": "https://tools.usps.com/UspsToolsRestServices/rest/POLocator/findLocations", "@spider": "usps_collection_boxes", "addr:city": "ENGADINE", "addr:country": "US", "addr:postcode": "49827", "addr:state": "MI", "addr:street_address": "104 MELVILLE ST", "amenity": "post_box", "collection_times": "Mo-Fr 16:00; Sa 12:45", "note": "ON 12/24 AND 12/31, THIS BOX MAY BE COLLECTED AS EARLY AS 12 NOON.", "nsi_id": "unitedstatespostalservice-a77078", "operator": "United States Postal Service", "operator:short": "USPS", "operator:type": "public", "operator:wikidata": "Q668687", "ref": "4982700000"}, "type": "Feature"}
{"geometry": {"coordinates": [-85.5724847, 46.116647], "type": "Point"}, "id": "sY6L-fJ4NJlC9--C-MWoSUnhYio=", "properties": {"@source_uri": "https://tools.usps.com/UspsToolsRestServices/rest/POLocator/findLocations", "@spider": "usps_collection_boxes", "addr:city": "ENGADINE", "addr:country": "US", "addr:postcode": "49827", "addr:state": "MI", "addr:street_address": "104 MELVILLE ST", "amenity": "post_box", "collection_times": "Mo-Fr 16:00; Sa 12:45", "indoor": "yes", "note": "ON 12/24 AND 12/31, THIS BOX MAY BE COLLECTED AS EARLY AS 12 NOON.", "nsi_id": "unitedstatespostalservice-a77078", "operator": "United States Postal Service", "operator:short": "USPS", "operator:type": "public", "operator:wikidata": "Q668687", "ref": "4982700001"}, "type": "Feature"}
{"geometry": {"coordinates": [-85.571590279, 46.116714664], "type": "Point"}, "id": "sjXAOjlK_5LroEIEr8y1F8ZEEf8=", "properties": {"@source_uri": "https://tools.usps.com/UspsToolsRestServices/rest/POLocator/findLocations", "@spider": "usps_collection_boxes", "addr:city": "ENGADINE", "addr:country": "US", "addr:postcode": "49827", "addr:state": "MI", "addr:street_address": "104 MELVILLE ST", "amenity": "post_box", "collection_times": "Mo-Fr 15:30; Sa 12:00", "indoor": "yes", "note": "ON 12/24 AND 12/31, THIS BOX MAY BE COLLECTED AS EARLY AS 12 NOON.", "nsi_id": "unitedstatespostalservice-a77078", "operator": "United States Postal Service", "operator:short": "USPS", "operator:type": "public", "operator:wikidata": "Q668687", "ref": "4982700003"}, "type": "Feature"}
{"geometry": {"coordinates": [-87.0845947, 45.746467], "type": "Point"}, "id": "dNxSNkKrlwEfNBFpx4lc7F83XiU=", "properties": {"@source_uri": "https://tools.usps.com/UspsToolsRestServices/rest/POLocator/findLocations", "@spider": "usps_collection_boxes", "addr:city": "ESCANABA", "addr:country": "US", "addr:postcode": "49829", "addr:state": "MI", "addr:street_address": "2525 1ST AVE N", "amenity": "post_box", "collection_times": "Mo-Fr 16:30; Sa 14:30", "note": "ON 12/24 AND 12/31, THIS BOX MAY BE COLLECTED AS EARLY AS 12 NOON.", "nsi_id": "unitedstatespostalservice-a77078", "operator": "United States Postal Service", "operator:short": "USPS", "operator:type": "public", "operator:wikidata": "Q668687", "ref": "4982900000"}, "type": "Feature"}
{"geometry": {"coordinates": [-87.0954047, 45.74268], "type": "Point"}, "id": "weOsTrQriL3e3fdEKzOsAe61rTg=", "properties": {"@source_uri": "https://tools.usps.com/UspsToolsRestServices/rest/POLocator/findLocations", "@spider": "usps_collection_boxes", "addr:city": "ESCANABA", "addr:country": "US", "addr:postcode": "49829", "addr:state": "MI", "addr:street_address": "3401 LUDINGTON ST", "amenity": "post_box", "collection_times": "Mo-Sa 10:00", "nsi_id": "unitedstatespostalservice-a77078", "operator": "United States Postal Service", "operator:short": "USPS", "operator:type": "public", "operator:wikidata": "Q668687", "ref": "4982900003"}, "type": "Feature"}
{"geometry": {"coordinates": [-87.0835066, 45.738034], "type": "Point"}, "id": "VriDtaUv-NsH-rwF4KO4PjtL0fg=", "properties": {"@source_uri": "https://tools.usps.com/UspsToolsRestServices/rest/POLocator/findLocations", "@spider": "usps_collection_boxes", "addr:city": "ESCANABA", "addr:country": "US", "addr:postcode": "49829", "addr:state": "MI", "addr:street_address": "2500 7TH AVE S", "amenity": "post_box", "collection_times": "Mo-Fr 15:00", "note": "ON 12/24 AND 12/31, THIS BOX MAY BE COLLECTED AS EARLY AS 12 NOON.", "nsi_id": "unitedstatespostalservice-a77078", "operator": "United States Postal Service", "operator:short": "USPS", "operator:type": "public", "operator:wikidata": "Q668687", "ref": "4982900004"}, "type": "Feature"}
{"geometry": {"coordinates": [-87.0539684695, 45.7456311288], "type": "Point"}, "id": "cULZNDfMjuaVTIxBpCfKQSzN1vI=", "properties": {"@source_uri": "https://tools.usps.com/UspsToolsRestServices/rest/POLocator/findLocations", "@spider": "usps_collection_boxes", "addr:city": "ESCANABA", "addr:country": "US", "addr:postcode": "49829", "addr:state": "MI", "addr:street_address": "519 LUDINGTON ST", "amenity": "post_box", "collection_times": "Mo-Fr 15:30; Sa 12:00", "note": "ON 12/24 AND 12/31, THIS BOX MAY BE COLLECTED AS EARLY AS 12 NOON.", "nsi_id": "unitedstatespostalservice-a77078", "operator": "United States Postal Service", "operator:short": "USPS", "operator:type": "public", "operator:wikidata": "Q668687", "ref": "4982900006"}, "type": "Feature"}
{"geometry": {"coordinates": [-87.0818387, 45.752966], "type": "Point"}, "id": "7hsHj3PlmsLvm7vcJ38Kk98fx1w=", "properties": {"@source_uri": "https://tools.usps.com/UspsToolsRestServices/rest/POLocator/findLocations", "@spider": "usps_collection_boxes", "addr:city": "ESCANABA", "addr:country": "US", "addr:postcode": "49829", "addr:state": "MI", "addr:street_address": "601 N LINCOLN RD", "amenity": "post_box", "collection_times": "Mo-Sa 09:00", "nsi_id": "unitedstatespostalservice-a77078", "operator": "United States Postal Service", "operator:short": "USPS", "operator:type": "public", "operator:wikidata": "Q668687", "ref": "4982900008"}, "type": "Feature"}
{"geometry": {"coordinates": [-87.0573685, 45.745832], "type": "Point"}, "id": "nuBkJehNq0bPFuHD7RL95lpNnCs=", "properties": {"@source_uri": "https://tools.usps.com/UspsToolsRestServices/rest/POLocator/findLocations", "@spider": "usps_collection_boxes", "addr:city": "ESCANABA", "addr:country": "US", "addr:postcode": "49829", "addr:state": "MI", "addr:street_address": "720 LUDINGTON ST", "amenity": "post_box", "collection_times": "Mo-Fr 15:30; Sa 12:00", "note": "ON 12/24 AND 12/31, THIS BOX MAY BE COLLECTED AS EARLY AS 12 NOON.", "nsi_id": "unitedstatespostalservice-a77078", "operator": "United States Postal Service", "operator:short": "USPS", "operator:type": "public", "operator:wikidata": "Q668687", "ref": "4982900012"}, "type": "Feature"}
{"geometry": {"coordinates": [-87.0769546, 45.749963], "type": "Point"}, "id": "mAu-jhQxQ9W5XL0YUuWGgidZxTA=", "properties": {"@source_uri": "https://tools.usps.com/UspsToolsRestServices/rest/POLocator/findLocations", "@spider": "usps_collection_boxes", "addr:city": "ESCANABA", "addr:country": "US", "addr:postcode": "49829", "addr:state": "MI", "addr:street_address": "412 N LINCOLN RD", "amenity": "post_box", "collection_times": "Mo-Sa 10:00", "nsi_id": "unitedstatespostalservice-a77078", "operator": "United States Postal Service", "operator:short": "USPS", "operator:type": "public", "operator:wikidata": "Q668687", "ref": "4982900026"}, "type": "Feature"}
{"geometry": {"coordinates": [-87.0798420831, 45.745672688], "type": "Point"}, "id": "W2i-NHFgfREWQIjkkaBKzNHNJeM=", "properties": {"@source_uri": "https://tools.usps.com/UspsToolsRestServices/rest/POLocator/findLocations", "@spider": "usps_collection_boxes", "addr:city": "ESCANABA", "addr:country": "US", "addr:postcode": "49829", "addr:state": "MI", "addr:street_address": "2301 LUDINGTON ST", "amenity": "post_box", "collection_times": "Mo-Sa 10:00", "nsi_id": "unitedstatespostalservice-a77078", "operator": "United States Postal Service", "operator:short": "USPS", "operator:type": "public", "operator:wikidata": "Q668687", "ref": "4982900027"}, "type": "Feature"}
{"geometry": {"coordinates": [-87.0524176, 45.745862], "type": "Point"}, "id": "TBPBbT-ikb_czOAdbxaNYzSniJQ=", "properties": {"@source_uri": "https://tools.usps.com/UspsToolsRestServices/rest/POLocator/findLocations", "@spider": "usps_collection_boxes", "addr:city": "ESCANABA", "addr:country": "US", "addr:postcode": "49829", "addr:state": "MI", "addr:street_address": "400 LUDINGTON ST", "amenity": "post_box", "collection_times": "Mo-Fr 15:30; Sa 12:00", "note": "ON 12/24 AND 12/31, THIS BOX MAY BE COLLECTED AS EARLY AS 12 NOON.", "nsi_id": "unitedstatespostalservice-a77078", "operator": "United States Postal Service", "operator:short": "USPS", "operator:type": "public", "operator:wikidata": "Q668687", "ref": "4982900028"}, "type": "Feature"}
{"geometry": {"coordinates": [-87.0888004, 45.743504], "type": "Point"}, "id": "OG0nUYAQopm7kGr_X19T108W8l4=", "properties": {"@source_uri": "https://tools.usps.com/UspsToolsRestServices/rest/POLocator/findLocations", "@spider": "usps_collection_boxes", "addr:city": "ESCANABA", "addr:country": "US", "addr:postcode": "49829", "addr:state": "MI", "addr:street_address": "2900 3RD AVE S", "amenity": "post_box", "collection_times": "Mo-Sa 09:00", "nsi_id": "unitedstatespostalservice-a77078", "operator": "United States Postal Service", "operator:short": "USPS", "operator:type": "public", "operator:wikidata": "Q668687", "ref": "4982900032"}, "type": "Feature"}
{"geometry": {"coordinates": [-87.0842331, 45.746872], "type": "Point"}, "id": "9iAVqQwvt7YYe1bo60POCBqG_AY=", "properties": {"@source_uri": "https://tools.usps.com/UspsToolsRestServices/rest/POLocator/findLocations", "@spider": "usps_collection_boxes", "addr:city": "ESCANABA", "addr:country": "US", "addr:postcode": "49829", "addr:state": "MI", "addr:street_address": "2525 1ST AVE N", "amenity": "post_box", "collection_times": "Mo-Fr 17:30; Sa 15:00", "indoor": "yes", "note": "ON 12/24 AND 12/31, THIS BOX MAY BE COLLECTED AS EARLY AS 12 NOON.", "nsi_id": "unitedstatespostalservice-a77078", "operator": "United States Postal Service", "operator:short": "USPS", "operator:type": "public", "operator:wikidata": "Q668687", "ref": "4982900039"}, "type": "Feature"}
{"geometry": {"coordinates": [-87.0974173, 45.746196], "type": "Point"}, "id": "qtrErCYq9jGCuVzv0GC6PdpBnQk=", "properties": {"@source_uri": "https://tools.usps.com/UspsToolsRestServices/rest/POLocator/findLocations", "@spider": "usps_collection_boxes", "addr:city": "ESCANABA", "addr:country": "US", "addr:postcode": "49829", "addr:state": "MI", "addr:street_address": "3500 LUDINGTON ST", "amenity": "post_box", "collection_times": "Mo-Sa 10:00", "nsi_id": "unitedstatespostalservice-a77078", "operator": "United States Postal Service", "operator:short": "USPS", "operator:type": "public", "operator:wikidata": "Q668687", "ref": "4982900045"}, "type": "Feature"}
{"geometry": {"coordinates": [-87.085218653, 45.746764008], "type": "Point"}, "id": "_OEhOt8CYAYNpHU1QfNEJI9ooV8=", "properties": {"@source_uri": "https://tools.usps.com/UspsToolsRestServices/rest/POLocator/findLocations", "@spider": "usps_collection_boxes", "addr:city": "ESCANABA", "addr:country": "US", "addr:postcode": "49829", "addr:state": "MI", "addr:street_address": "2525 1ST AVE N", "amenity": "post_box", "collection_times": "Mo-Fr 17:30; Sa 12:30", "indoor": "yes", "note": "ON 12/24 AND 12/31, THIS BOX MAY BE COLLECTED AS EARLY AS 12 NOON.", "nsi_id": "unitedstatespostalservice-a77078", "operator": "United States Postal Service", "operator:short": "USPS", "operator:type": "public", "operator:wikidata": "Q668687", "ref": "4982900048"}, "type": "Feature"}
{"geometry": {"coordinates": [-87.8297233, 45.996311], "type": "Point"}, "id": "zYtjfOwXBD7-V7BY1lIziGcjLDc=", "properties": {"@source_uri": "https://tools.usps.com/UspsToolsRestServices/rest/POLocator/findLocations", "@spider": "usps_collection_boxes", "addr:city": "FELCH", "addr:country": "US", "addr:postcode": "49831", "addr:state": "MI", "addr:street_address": "W4243 STATE HIGHWAY M69", "amenity": "post_box", "collection_times": "Mo-Fr 11:40; Sa 09:45", "nsi_id": "unitedstatespostalservice-a77078", "operator": "United States Postal Service", "operator:short": "USPS", "operator:type": "public", "operator:wikidata": "Q668687", "ref": "4983100000"}, "type": "Feature"}
{"geometry": {"coordinates": [-87.8297071, 45.996502], "type": "Point"}, "id": "wX18WraAfhbSnLzbCMDcdNXyJ4w=", "properties": {"@source_uri": "https://tools.usps.com/UspsToolsRestServices/rest/POLocator/findLocations", "@spider": "usps_collection_boxes", "addr:city": "FELCH", "addr:country": "US", "addr:postcode": "49831", "addr:state": "MI", "addr:street_address": "W4243 STATE HIGHWAY M69", "amenity": "post_box", "collection_times": "Mo-Fr 11:40; Sa 09:45", "indoor": "yes", "nsi_id": "unitedstatespostalservice-a77078", "operator": "United States Postal Service", "operator:short": "USPS", "operator:type": "public", "operator:wikidata": "Q668687", "ref": "4983100001"}, "type": "Feature"}
{"geometry": {"coordinates": [-87.82925176, 45.996456443], "type": "Point"}, "id": "2Y3E4GqzUjkrmhfRQIfr6FiiMg8=", "properties": {"@source_uri": "https://tools.usps.com/UspsToolsRestServices/rest/POLocator/findLocations", "@spider": "usps_collection_boxes", "addr:city": "FELCH", "addr:country": "US", "addr:postcode": "49831", "addr:state": "MI", "addr:street_address": "W4243 STATE HIGHWAY M69", "amenity": "post_box", "collection_times": "Mo-Fr 11:00; Sa 09:15", "indoor": "yes", "nsi_id": "unitedstatespostalservice-a77078", "operator": "United States Postal Service", "operator:short": "USPS", "operator:type": "public", "operator:wikidata": "Q668687", "ref": "4983100003"}, "type": "Feature"}
{"geometry": {"coordinates": [-87.342093337, 46.287964987], "type": "Point"}, "id": "RpjWoSeEmiKfUoku4zE4m2EQVPE=", "properties": {"@source_uri": "https://tools.usps.com/UspsToolsRestServices/rest/POLocator/findLocations", "@spider": "usps_collection_boxes", "addr:city": "LITTLE LAKE", "addr:country": "US", "addr:postcode": "49833", "addr:state": "MI", "addr:street_address": "1673 STATE HIGHWAY M35 E", "amenity": "post_box", "collection_times": "Mo-Fr 15:30; Sa 09:30", "note": "ON 12/24 AND 12/31, THIS BOX MAY BE COLLECTED AS EARLY AS 12 NOON.", "nsi_id": "unitedstatespostalservice-a77078", "operator": "United States Postal Service", "operator:short": "USPS", "operator:type": "public", "operator:wikidata": "Q668687", "ref": "4983300000"}, "type": "Feature"}
{"geometry": {"coordinates": [-87.342093337, 46.287964987], "type": "Point"}, "id": "WsBTSHYc6JJwIl0XqbntsWxj67w=", "properties": {"@source_uri": "https://tools.usps.com/UspsToolsRestServices/rest/POLocator/findLocations", "@spider": "usps_collection_boxes", "addr:city": "LITTLE LAKE", "addr:country": "US", "addr:postcode": "49833", "addr:state": "MI", "addr:street_address": "1673 STATE HIGHWAY M35 E", "amenity": "post_box", "collection_times": "Mo-Fr 15:30; Sa 09:30", "indoor": "yes", "note": "ON 12/24 AND 12/31, THIS BOX MAY BE COLLECTED AS EARLY AS 12 NOON.", "nsi_id": "unitedstatespostalservice-a77078", "operator": "United States Postal Service", "operator:short": "USPS", "operator:type": "public", "operator:wikidata": "Q668687", "ref": "4983300001"}, "type": "Feature"}
{"geometry": {"coordinates": [-87.341813473, 46.288157156], "type": "Point"}, "id": "uaGdUcIZIcy1eyW0Q3v6RpXgn5Q=", "properties": {"@source_uri": "https://tools.usps.com/UspsToolsRestServices/rest/POLocator/findLocations", "@spider": "usps_collection_boxes", "addr:city": "LITTLE LAKE", "addr:country": "US", "addr:postcode": "49833", "addr:state": "MI", "addr:street_address": "1673 STATE HIGHWAY M35 E", "amenity": "post_box", "collection_times": "Mo-Fr 15:30; Sa 11:00", "indoor": "yes", "note": "ON 12/24 AND 12/31, THIS BOX MAY BE COLLECTED AS EARLY AS 12 NOON.", "nsi_id": "unitedstatespostalservice-a77078", "operator": "United States Postal Service", "operator:short": "USPS", "operator:type": "public", "operator:wikidata": "Q668687", "ref": "4983300002"}, "type": "Feature"}
{"geometry": {"coordinates": [-86.55180011, 45.774837998], "type": "Point"}, "id": "3EKoiO_saAGig2hVg9H1mam925E=", "properties": {"@source_uri": "https://tools.usps.com/UspsToolsRestServices/rest/POLocator/findLocations", "@spider": "usps_collection_boxes", "addr:city": "GARDEN", "addr:country": "US", "addr:postcode": "49835", "addr:state": "MI", "addr:street_address": "6353 STATE ST", "amenity": "post_box", "collection_times": "Mo-Fr 13:45; Sa 12:15", "note": "ON 12/24 AND 12/31, THIS BOX MAY BE COLLECTED AS EARLY AS 12 NOON.", "nsi_id": "unitedstatespostalservice-a77078", "operator": "United States Postal Service", "operator:short": "USPS", "operator:type": "public", "operator:wikidata": "Q668687", "ref": "4983500000"}, "type": "Feature"}
{"geometry": {"coordinates": [-86.55180011, 45.774837998], "type": "Point"}, "id": "gdm0CCVSElKirsTu1TZYTXBqILU=", "properties": {"@source_uri": "https://tools.usps.com/UspsToolsRestServices/rest/POLocator/findLocations", "@spider": "usps_collection_boxes", "addr:city": "GARDEN", "addr:country": "US", "addr:postcode": "49835", "addr:state": "MI", "addr:street_address": "6353 STATE ST", "amenity": "post_box", "collection_times": "Mo-Fr 13:45; Sa 12:15", "indoor": "yes", "note": "ON 12/24 AND 12/31, THIS BOX MAY BE COLLECTED AS EARLY AS 12 NOON.", "nsi_id": "unitedstatespostalservice-a77078", "operator": "United States Postal Service", "operator:short": "USPS", "operator:type": "public", "operator:wikidata": "Q668687", "ref": "4983500001"}, "type": "Feature"}
{"geometry": {"coordinates": [-86.55180011, 45.774837998], "type": "Point"}, "id": "nBomK0vdQuiyMXyZKpdVUoP3RFA=", "properties": {"@source_uri": "https://tools.usps.com/UspsToolsRestServices/rest/POLocator/findLocations", "@spider": "usps_collection_boxes", "addr:city": "GARDEN", "addr:country": "US", "addr:postcode": "49835", "addr:state": "MI", "addr:street_address": "6353 STATE ST", "amenity": "post_box", "collection_times": "Mo-Fr 13:30; Sa 12:00", "indoor": "yes", "note": "ON 12/24 AND 12/31, THIS BOX MAY BE COLLECTED AS EARLY AS 12 NOON.", "nsi_id": "unitedstatespostalservice-a77078", "operator": "United States Postal Service", "operator:short": "USPS", "operator:type": "public", "operator:wikidata": "Q668687", "ref": "4983500002"}, "type": "Feature"}
{"geometry": {"coordinates": [-85.9273629, 46.246974], "type": "Point"}, "id": "Z5H2l1Ng0Ruw5DjhsKSrH6_nZWo=", "properties": {"@source_uri": "https://tools.usps.com/UspsToolsRestServices/rest/POLocator/findLocations", "@spider": "usps_collection_boxes", "addr:city": "GERMFASK", "addr:country": "US", "addr:postcode": "49836", "addr:state": "MI", "addr:street_address": "1220 KNAGGS ST", "amenity": "post_box", "collection_times": "Mo-Fr 15:30; Sa 12:00", "note": "ON 12/24 AND 12/31, THIS BOX MAY BE COLLECTED AS EARLY AS 12 NOON.", "nsi_id": "unitedstatespostalservice-a77078", "operator": "United States Postal Service", "operator:short": "USPS", "operator:type": "public", "operator:wikidata": "Q668687", "ref": "4983600000"}, "type": "Feature"}
{"geometry": {"coordinates": [-85.926574, 46.246874], "type": "Point"}, "id": "T3FGcVFd_BiIiIAeDdiUjLtJ_3U=", "properties": {"@source_uri": "https://tools.usps.com/UspsToolsRestServices/rest/POLocator/findLocations", "@spider": "usps_collection_boxes", "addr:city": "GERMFASK", "addr:country": "US", "addr:postcode": "49836", "addr:state": "MI", "addr:street_address": "1220 KNAGGS ST", "amenity": "post_box", "collection_times": "Mo-Sa 11:45", "indoor": "yes", "nsi_id": "unitedstatespostalservice-a77078", "operator": "United States Postal Service", "operator:short": "USPS", "operator:type": "public", "operator:wikidata": "Q668687", "ref": "4983600001"}, "type": "Feature"}
{"geometry": {"coordinates": [-85.926629192, 46.24695624], "type": "Point"}, "id": "D70jk_3ffB158wj35JCBg6n_Yz4=", "properties": {"@source_uri": "https://tools.usps.com/UspsToolsRestServices/rest/POLocator/findLocations", "@spider": "usps_collection_boxes", "addr:city": "GERMFASK", "addr:country": "US", "addr:postcode": "49836", "addr:state": "MI", "addr:street_address": "1220 KNAGGS ST", "amenity": "post_box", "collection_times": "Mo-Sa 11:30", "indoor": "yes", "nsi_id": "unitedstatespostalservice-a77078", "operator": "United States Postal Service", "operator:short": "USPS", "operator:type": "public", "operator:wikidata": "Q668687", "ref": "4983600002"}, "type": "Feature"}
{"geometry": {"coordinates": [-87.0486714, 45.854847], "type": "Point"}, "id": "31y2m86mbmAaMYDuPBIRKPaOhOY=", "properties": {"@source_uri": "https://tools.usps.com/UspsToolsRestServices/rest/POLocator/findLocations", "@spider": "usps_collection_boxes", "addr:city": "GLADSTONE", "addr:country": "US", "addr:postcode": "49837", "addr:state": "MI", "addr:street_address": "6287 HWY M-35", "amenity": "post_box", "collection_times": "Mo-Sa 10:00", "nsi_id": "unitedstatespostalservice-a77078", "operator": "United States Postal Service", "operator:short": "USPS", "operator:type": "public", "operator:wikidata": "Q668687", "ref": "4983700010"}, "type": "Feature"}
{"geometry": {"coordinates": [-87.022307, 45.84718], "type": "Point"}, "id": "ofmzxQVDwARt09xi5bDkiEjZRz0=", "properties": {"@source_uri": "https://tools.usps.com/UspsToolsRestServices/rest/POLocator/findLocations", "@spider": "usps_collection_boxes", "addr:city": "GLADSTONE", "addr:country": "US", "addr:postcode": "49837", "addr:state": "MI", "addr:street_address": "1003 DELTA AVE", "amenity": "post_box", "collection_times": "Mo-Fr 16:00; Sa 11:30", "indoor": "yes", "note": "ON 12/24 AND 12/31, THIS BOX MAY BE COLLECTED AS EARLY AS 12 NOON.", "nsi_id": "unitedstatespostalservice-a77078", "operator": "United States Postal Service", "operator:short": "USPS", "operator:type": "public", "operator:wikidata": "Q668687", "ref": "4983700014"}, "type": "Feature"}
{"geometry": {"coordinates": [-87.037229, 45.836473], "type": "Point"}, "id": "sEyB9oLuGjYBH02JL75nfcmrCXA=", "properties": {"@source_uri": "https://tools.usps.com/UspsToolsRestServices/rest/POLocator/findLocations", "@spider": "usps_collection_boxes", "addr:city": "GLADSTONE", "addr:country": "US", "addr:postcode": "49837", "addr:state": "MI", "addr:street_address": "2009 LAKE SHORE DR", "amenity": "post_box", "collection_times": "Mo-Sa 10:00", "nsi_id": "unitedstatespostalservice-a77078", "operator": "United States Postal Service", "operator:short": "USPS", "operator:type": "public", "operator:wikidata": "Q668687", "ref": "4983700016"}, "type": "Feature"}
{"geometry": {"coordinates": [-87.0475417, 45.840372], "type": "Point"}, "id": "HowcXJhMdrdl_5rJh53k1kLAtYY=", "properties": {"@source_uri": "https://tools.usps.com/UspsToolsRestServices/rest/POLocator/findLocations", "@spider": "usps_collection_boxes", "addr:city": "GLADSTONE", "addr:country": "US", "addr:postcode": "49837", "addr:state": "MI", "addr:street_address": "2821 S HILL RD", "amenity": "post_box", "collection_times": "Mo-Sa 11:00", "nsi_id": "unitedstatespostalservice-a77078", "operator": "United States Postal Service", "operator:short": "USPS", "operator:type": "public", "operator:wikidata": "Q668687", "ref": "4983700017"}, "type": "Feature"}
{"geometry": {"coordinates": [-87.022307, 45.84718], "type": "Point"}, "id": "9F7p7B7oMPR2Qet80G434V4rHD4=", "properties": {"@source_uri": "https://tools.usps.com/UspsToolsRestServices/rest/POLocator/findLocations", "@spider": "usps_collection_boxes", "addr:city": "GLADSTONE", "addr:country": "US", "addr:postcode": "49837", "addr:state": "MI", "addr:street_address": "1003 DELTA AVE", "amenity": "post_box", "collection_times": "Mo-Fr 17:00; Sa 15:00", "note": "ON 12/24 AND 12/31, THIS BOX MAY BE COLLECTED AS EARLY AS 12 NOON.", "nsi_id": "unitedstatespostalservice-a77078", "operator": "United States Postal Service", "operator:short": "USPS", "operator:type": "public", "operator:wikidata": "Q668687", "ref": "4983700020"}, "type": "Feature"}
{"geometry": {"coordinates": [-87.0222656024, 45.8471324516], "type": "Point"}, "id": "T-lT0XyLMlGoM5aekDoTSZNEAWw=", "properties": {"@source_uri": "https://tools.usps.com/UspsToolsRestServices/rest/POLocator/findLocations", "@spider": "usps_collection_boxes", "addr:city": "GLADSTONE", "addr:country": "US", "addr:postcode": "49837", "addr:state": "MI", "addr:street_address": "1003 DELTA AVE", "amenity": "post_box", "collection_times": "Mo-Fr 16:30; Sa 11:00", "indoor": "yes", "note": "ON 12/24 AND 12/31, THIS BOX MAY BE COLLECTED AS EARLY AS 12 NOON.", "nsi_id": "unitedstatespostalservice-a77078", "operator": "United States Postal Service", "operator:short": "USPS", "operator:type": "public", "operator:wikidata": "Q668687", "ref": "4983700021"}, "type": "Feature"}
{"geometry": {"coordinates": [-85.68804, 45.963779], "type": "Point"}, "id": "9y3LVozs0pUqxQ69xqoVBqiaquM=", "properties": {"@source_uri": "https://tools.usps.com/UspsToolsRestServices/rest/POLocator/findLocations", "@spider": "usps_collection_boxes", "addr:city": "GOULD CITY", "addr:country": "US", "addr:postcode": "49838", "addr:state": "MI", "addr:street_address": "N6116 S GOULD CITY RD", "amenity": "post_box", "collection_times": "Mo-Fr 16:00; Sa 11:00", "note": "ON 12/24 AND 12/31, THIS BOX MAY BE COLLECTED AS EARLY AS 12 NOON.", "nsi_id": "unitedstatespostalservice-a77078", "operator": "United States Postal Service", "operator:short": "USPS", "operator:type": "public", "operator:wikidata": "Q668687", "ref": "4983800000"}, "type": "Feature"}
{"geometry": {"coordinates": [-85.68804, 45.963779], "type": "Point"}, "id": "zeYNo4L6cyV6nIrvaQzAeZydNR8=", "properties": {"@source_uri": "https://tools.usps.com/UspsToolsRestServices/rest/POLocator/findLocations", "@spider": "usps_collection_boxes", "addr:city": "GOULD CITY", "addr:country": "US", "addr:postcode": "49838", "addr:state": "MI", "addr:street_address": "N6116 S GOULD CITY RD", "amenity": "post_box", "collection_times": "Mo-Fr 16:00; Sa 11:00", "indoor": "yes", "note": "ON 12/24 AND 12/31, THIS BOX MAY BE COLLECTED AS EARLY AS 12 NOON.", "nsi_id": "unitedstatespostalservice-a77078", "operator": "United States Postal Service", "operator:short": "USPS", "operator:type": "public", "operator:wikidata": "Q668687", "ref": "4983800001"}, "type": "Feature"}
{"geometry": {"coordinates": [-85.6965732913, 46.0946130637], "type": "Point"}, "id": "Pmic0_p5vrefnj3QfM-Lgjr5Btk=", "properties": {"@source_uri": "https://tools.usps.com/UspsToolsRestServices/rest/POLocator/findLocations", "@spider": "usps_collection_boxes", "addr:city": "GOULD CITY", "addr:country": "US", "addr:postcode": "49838", "addr:state": "MI", "addr:street_address": "N6116 S GOULD CITY RD", "amenity": "post_box", "collection_times": "Mo-Fr 15:30; Sa 10:30", "indoor": "yes", "note": "ON 12/24 AND 12/31, THIS BOX MAY BE COLLECTED AS EARLY AS 12 NOON.", "nsi_id": "unitedstatespostalservice-a77078", "operator": "United States Postal Service", "operator:short": "USPS", "operator:type": "public", "operator:wikidata": "Q668687", "ref": "4983800004"}, "type": "Feature"}
{"geometry": {"coordinates": [-85.979151, 46.669079], "type": "Point"}, "id": "7UGLuj48mphmcYK97lmTwGosfIQ=", "properties": {"@source_uri": "https://tools.usps.com/UspsToolsRestServices/rest/POLocator/findLocations", "@spider": "usps_collection_boxes", "addr:city": "GRAND MARAIS", "addr:country": "US", "addr:postcode": "49839", "addr:state": "MI", "addr:street_address": "1 GRAND MARAIS AVE", "amenity": "post_box", "collection_times": "Mo-Fr 15:45; Sa 12:45", "note": "ON 12/24 AND 12/31, THIS BOX MAY BE COLLECTED AS EARLY AS 12 NOON.", "nsi_id": "unitedstatespostalservice-a77078", "operator": "United States Postal Service", "operator:short": "USPS", "operator:type": "public", "operator:wikidata": "Q668687", "ref": "4983900000"}, "type": "Feature"}
{"geometry": {"coordinates": [-85.979151, 46.669079], "type": "Point"}, "id": "Axi8GSAbdijwTRHSSbuXxU1BjrQ=", "properties": {"@source_uri": "https://tools.usps.com/UspsToolsRestServices/rest/POLocator/findLocations", "@spider": "usps_collection_boxes", "addr:city": "GRAND MARAIS", "addr:country": "US", "addr:postcode": "49839", "addr:state": "MI", "addr:street_address": "1 GRAND MARAIS AVE", "amenity": "post_box", "collection_times": "Mo-Fr 15:45; Sa 12:45", "indoor": "yes", "note": "ON 12/24 AND 12/31, THIS BOX MAY BE COLLECTED AS EARLY AS 12 NOON.", "nsi_id": "unitedstatespostalservice-a77078", "operator": "United States Postal Service", "operator:short": "USPS", "operator:type": "public", "operator:wikidata": "Q668687", "ref": "4983900001"}, "type": "Feature"}
{"geometry": {"coordinates": [-85.9842228059, 46.6717474062], "type": "Point"}, "id": "ZTZRrR_u4Fy6khgkzHrJncbD2e4=", "properties": {"@source_uri": "https://tools.usps.com/UspsToolsRestServices/rest/POLocator/findLocations", "@spider": "usps_collection_boxes", "addr:city": "GRAND MARAIS", "addr:country": "US", "addr:postcode": "49839", "addr:state": "MI", "addr:street_address": "1 GRAND MARAIS AVE", "amenity": "post_box", "collection_times": "Mo-Fr 15:30; Sa 12:30", "indoor": "yes", "note": "ON 12/24 AND 12/31, THIS BOX MAY BE COLLECTED AS EARLY AS 12 NOON.", "nsi_id": "unitedstatespostalservice-a77078", "operator": "United States Postal Service", "operator:short": "USPS", "operator:type": "public", "operator:wikidata": "Q668687", "ref": "4983900002"}, "type": "Feature"}
{"geometry": {"coordinates": [-86.0186823, 45.992175], "type": "Point"}, "id": "5GZKkoLLBELEpyOIWRPgm7tZtNo=", "properties": {"@source_uri": "https://tools.usps.com/UspsToolsRestServices/rest/POLocator/findLocations", "@spider": "usps_collection_boxes", "addr:city": "GULLIVER", "addr:country": "US", "addr:postcode": "49840", "addr:state": "MI", "addr:street_address": "2926W US HIGHWAY 2", "amenity": "post_box", "collection_times": "Mo-Fr 12:00; Sa 11:30", "nsi_id": "unitedstatespostalservice-a77078", "operator": "United States Postal Service", "operator:short": "USPS", "operator:type": "public", "operator:wikidata": "Q668687", "ref": "4984000000"}, "type": "Feature"}
{"geometry": {"coordinates": [-85.990657, 46.016781], "type": "Point"}, "id": "-OVgXBHX8pTMOFoDzEvSjcf6zPE=", "properties": {"@source_uri": "https://tools.usps.com/UspsToolsRestServices/rest/POLocator/findLocations", "@spider": "usps_collection_boxes", "addr:city": "GULLIVER", "addr:country": "US", "addr:postcode": "49840", "addr:state": "MI", "addr:street_address": "2926W US HIGHWAY 2", "amenity": "post_box", "collection_times": "Mo-Fr 12:00; Sa 11:30", "indoor": "yes", "nsi_id": "unitedstatespostalservice-a77078", "operator": "United States Postal Service", "operator:short": "USPS", "operator:type": "public", "operator:wikidata": "Q668687", "ref": "4984000001"}, "type": "Feature"}
{"geometry": {"coordinates": [-85.99076597, 46.016638088], "type": "Point"}, "id": "Xt3Y844yAfHbtzJ0f-2PyxWTYjo=", "properties": {"@source_uri": "https://tools.usps.com/UspsToolsRestServices/rest/POLocator/findLocations", "@spider": "usps_collection_boxes", "addr:city": "GULLIVER", "addr:country": "US", "addr:postcode": "49840", "addr:state": "MI", "addr:street_address": "2926W US HIGHWAY 2", "amenity": "post_box", "collection_times": "Mo-Fr 11:30; Sa 11:00", "indoor": "yes", "nsi_id": "unitedstatespostalservice-a77078", "operator": "United States Postal Service", "operator:short": "USPS", "operator:type": "public", "operator:wikidata": "Q668687", "ref": "4984000002"}, "type": "Feature"}
{"geometry": {"coordinates": [-87.438373, 46.278657], "type": "Point"}, "id": "2YOnopxeuvUFKiGf9beulse6nZE=", "properties": {"@source_uri": "https://tools.usps.com/UspsToolsRestServices/rest/POLocator/findLocations", "@spider": "usps_collection_boxes", "addr:city": "GWINN", "addr:country": "US", "addr:postcode": "49841", "addr:state": "MI", "addr:street_address": "95 N PINE ST", "amenity": "post_box", "collection_times": "Mo-Fr 16:00; Sa 12:00", "note": "ON 12/24 AND 12/31, THIS BOX MAY BE COLLECTED AS EARLY AS 12 NOON.", "nsi_id": "unitedstatespostalservice-a77078", "operator": "United States Postal Service", "operator:short": "USPS", "operator:type": "public", "operator:wikidata": "Q668687", "ref": "4984100000"}, "type": "Feature"}
{"geometry": {"coordinates": [-87.438373, 46.278657], "type": "Point"}, "id": "vJfbIqWm5XoW73vS-RYCrsGRULg=", "properties": {"@source_uri": "https://tools.usps.com/UspsToolsRestServices/rest/POLocator/findLocations", "@spider": "usps_collection_boxes", "addr:city": "GWINN", "addr:country": "US", "addr:postcode": "49841", "addr:state": "MI", "addr:street_address": "95 N PINE ST", "amenity": "post_box", "collection_times": "Mo-Fr 16:30; Sa 12:00", "indoor": "yes", "note": "ON 12/24 AND 12/31, THIS BOX MAY BE COLLECTED AS EARLY AS 12 NOON.", "nsi_id": "unitedstatespostalservice-a77078", "operator": "United States Postal Service", "operator:short": "USPS", "operator:type": "public", "operator:wikidata": "Q668687", "ref": "4984100002"}, "type": "Feature"}
{"geometry": {"coordinates": [-87.3871744, 46.349611], "type": "Point"}, "id": "Ei5DzdlkNF6IbG6iWV2ikizjXD4=", "properties": {"@source_uri": "https://tools.usps.com/UspsToolsRestServices/rest/POLocator/findLocations", "@spider": "usps_collection_boxes", "addr:city": "GWINN", "addr:country": "US", "addr:postcode": "49841", "addr:state": "MI", "addr:street_address": "225 AIRPORT AVE", "amenity": "post_box", "collection_times": "Mo-Sa 09:00", "nsi_id": "unitedstatespostalservice-a77078", "operator": "United States Postal Service", "operator:short": "USPS", "operator:type": "public", "operator:wikidata": "Q668687", "ref": "4984100004"}, "type": "Feature"}
{"geometry": {"coordinates": [-87.43837461, 46.278649405], "type": "Point"}, "id": "xyATzg3YJVzcVFTg-PfPBVf7-r0=", "properties": {"@source_uri": "https://tools.usps.com/UspsToolsRestServices/rest/POLocator/findLocations", "@spider": "usps_collection_boxes", "addr:city": "GWINN", "addr:country": "US", "addr:postcode": "49841", "addr:state": "MI", "addr:street_address": "95 N PINE ST", "amenity": "post_box", "collection_times": "Mo-Fr 16:00; Sa 11:30", "indoor": "yes", "note": "ON 12/24 AND 12/31, THIS BOX MAY BE COLLECTED AS EARLY AS 12 NOON.", "nsi_id": "unitedstatespostalservice-a77078", "operator": "United States Postal Service", "operator:short": "USPS", "operator:type": "public", "operator:wikidata": "Q668687", "ref": "4984100005"}, "type": "Feature"}
{"geometry": {"coordinates": [-87.349003, 45.703882], "type": "Point"}, "id": "gzw9_nHhe3zcE2jK8xk6Oy5ph34=", "properties": {"@source_uri": "https://tools.usps.com/UspsToolsRestServices/rest/POLocator/findLocations", "@spider": "usps_collection_boxes", "addr:city": "HARRIS", "addr:country": "US", "addr:postcode": "49845", "addr:state": "MI", "addr:street_address": "W555 US HIGHWAY 2 41", "amenity": "post_box", "collection_times": "Mo-Fr 11:15; Sa 10:15", "nsi_id": "unitedstatespostalservice-a77078", "operator": "United States Postal Service", "operator:short": "USPS", "operator:type": "public", "operator:wikidata": "Q668687", "ref": "4984500001"}, "type": "Feature"}
{"geometry": {"coordinates": [-87.349003, 45.703882], "type": "Point"}, "id": "cNM7DcWUrDPgHo919QmOv52RTRk=", "properties": {"@source_uri": "https://tools.usps.com/UspsToolsRestServices/rest/POLocator/findLocations", "@spider": "usps_collection_boxes", "addr:city": "HARRIS", "addr:country": "US", "addr:postcode": "49845", "addr:state": "MI", "addr:street_address": "W555 US HIGHWAY 2 41", "amenity": "post_box", "collection_times": "Mo-Fr 11:15; Sa 10:15", "indoor": "yes", "nsi_id": "unitedstatespostalservice-a77078", "operator": "United States Postal Service", "operator:short": "USPS", "operator:type": "public", "operator:wikidata": "Q668687", "ref": "4984500002"}, "type": "Feature"}
{"geometry": {"coordinates": [-87.348878362, 45.703071027], "type": "Point"}, "id": "JxRmVHbL-j6aW-UVBxqqbNmH_-E=", "properties": {"@source_uri": "https://tools.usps.com/UspsToolsRestServices/rest/POLocator/findLocations", "@spider": "usps_collection_boxes", "addr:city": "HARRIS", "addr:country": "US", "addr:postcode": "49845", "addr:state": "MI", "addr:street_address": "W555 US HIGHWAY 2 41", "amenity": "post_box", "collection_times": "Mo-Fr 11:00; Sa 09:45", "indoor": "yes", "nsi_id": "unitedstatespostalservice-a77078", "operator": "United States Postal Service", "operator:short": "USPS", "operator:type": "public", "operator:wikidata": "Q668687", "ref": "4984500003"}, "type": "Feature"}
{"geometry": {"coordinates": [-87.601926, 45.710068], "type": "Point"}, "id": "doNCtBGN8MlUatv9BVI4alpO59g=", "properties": {"@source_uri": "https://tools.usps.com/UspsToolsRestServices/rest/POLocator/findLocations", "@spider": "usps_collection_boxes", "addr:city": "HERMANSVILLE", "addr:country": "US", "addr:postcode": "49847", "addr:state": "MI", "addr:street_address": "W5444 2ND ST", "amenity": "post_box", "collection_times": "Mo-Fr 16:00; Sa 10:00", "note": "ON 12/24 AND 12/31, THIS BOX MAY BE COLLECTED AS EARLY AS 12 NOON.", "nsi_id": "unitedstatespostalservice-a77078", "operator": "United States Postal Service", "operator:short": "USPS", "operator:type": "public", "operator:wikidata": "Q668687", "ref": "4984700000"}, "type": "Feature"}
{"geometry": {"coordinates": [-87.601926, 45.710068], "type": "Point"}, "id": "4gfljeCanz8-vTW5XpyxMMJ0mZQ=", "properties": {"@source_uri": "https://tools.usps.com/UspsToolsRestServices/rest/POLocator/findLocations", "@spider": "usps_collection_boxes", "addr:city": "HERMANSVILLE", "addr:country": "US", "addr:postcode": "49847", "addr:state": "MI", "addr:street_address": "W5444 2ND ST", "amenity": "post_box", "collection_times": "Mo-Fr 16:15; Sa 10:15", "indoor": "yes", "note": "ON 12/24 AND 12/31, THIS BOX MAY BE COLLECTED AS EARLY AS 12 NOON.", "nsi_id": "unitedstatespostalservice-a77078", "operator": "United States Postal Service", "operator:short": "USPS", "operator:type": "public", "operator:wikidata": "Q668687", "ref": "4984700001"}, "type": "Feature"}
{"geometry": {"coordinates": [-87.6018888854, 45.7101077411], "type": "Point"}, "id": "621_-ssE5XmPmuLZNjkiINi1RRw=", "properties": {"@source_uri": "https://tools.usps.com/UspsToolsRestServices/rest/POLocator/findLocations", "@spider": "usps_collection_boxes", "addr:city": "HERMANSVILLE", "addr:country": "US", "addr:postcode": "49847", "addr:state": "MI", "addr:street_address": "W5444 2ND ST", "amenity": "post_box", "collection_times": "Mo-Fr 15:45; Sa 09:15", "indoor": "yes", "note": "ON 12/24 AND 12/31, THIS BOX MAY BE COLLECTED AS EARLY AS 12 NOON.", "nsi_id": "unitedstatespostalservice-a77078", "operator": "United States Postal Service", "operator:short": "USPS", "operator:type": "public", "operator:wikidata": "Q668687", "ref": "4984700002"}, "type": "Feature"}
{"geometry": {"coordinates": [-87.610521, 45.376998], "type": "Point"}, "id": "bl13eim6ECMKa-EbGoOnnlFpAD4=", "properties": {"@source_uri": "https://tools.usps.com/UspsToolsRestServices/rest/POLocator/findLocations", "@spider": "usps_collection_boxes", "addr:city": "INGALLS", "addr:country": "US", "addr:postcode": "49848", "addr:state": "MI", "addr:street_address": "N7303 US HIGHWAY 41", "amenity": "post_box", "collection_times": "Mo-Fr 15:45; Sa 10:15", "note": "ON 12/24 AND 12/31, THIS BOX MAY BE COLLECTED AS EARLY AS 12 NOON.", "nsi_id": "unitedstatespostalservice-a77078", "operator": "United States Postal Service", "operator:short": "USPS", "operator:type": "public", "operator:wikidata": "Q668687", "ref": "4984800000"}, "type": "Feature"}
{"geometry": {"coordinates": [-87.610521, 45.376998], "type": "Point"}, "id": "4qlaDrvKRShEN9OinR7lMWtotSg=", "properties": {"@source_uri": "https://tools.usps.com/UspsToolsRestServices/rest/POLocator/findLocations", "@spider": "usps_collection_boxes", "addr:city": "INGALLS", "addr:country": "US", "addr:postcode": "49848", "addr:state": "MI", "addr:street_address": "N7303 US HIGHWAY 41", "amenity": "post_box", "collection_times": "Mo-Fr 15:45; Sa 10:15", "indoor": "yes", "note": "ON 12/24 AND 12/31, THIS BOX MAY BE COLLECTED AS EARLY AS 12 NOON.", "nsi_id": "unitedstatespostalservice-a77078", "operator": "United States Postal Service", "operator:short": "USPS", "operator:type": "public", "operator:wikidata": "Q668687", "ref": "4984800001"}, "type": "Feature"}
{"geometry": {"coordinates": [-87.610545025, 45.376976959], "type": "Point"}, "id": "XqM1Vj0yck4qdooWu0hE2r0SNx8=", "properties": {"@source_uri": "https://tools.usps.com/UspsToolsRestServices/rest/POLocator/findLocations", "@spider": "usps_collection_boxes", "addr:city": "INGALLS", "addr:country": "US", "addr:postcode": "49848", "addr:state": "MI", "addr:street_address": "N7303 US HIGHWAY 41", "amenity": "post_box", "collection_times": "Mo-Fr 15:30; Sa 11:00", "indoor": "yes", "note": "ON 12/24 AND 12/31, THIS BOX MAY BE COLLECTED AS EARLY AS 12 NOON.", "nsi_id": "unitedstatespostalservice-a77078", "operator": "United States Postal Service", "operator:short": "USPS", "operator:type": "public", "operator:wikidata": "Q668687", "ref": "4984800002"}, "type": "Feature"}
{"geometry": {"coordinates": [-87.6687282, 46.488833], "type": "Point"}, "id": "2lIOB60eOcMRG31TK1RBljUFUyk=", "properties": {"@source_uri": "https://tools.usps.com/UspsToolsRestServices/rest/POLocator/findLocations", "@spider": "usps_collection_boxes", "addr:city": "ISHPEMING", "addr:country": "US", "addr:postcode": "49849", "addr:state": "MI", "addr:street_address": "219 S MAIN ST", "amenity": "post_box", "collection_times": "Mo-Fr 15:00; Sa 09:30", "note": "ON 12/24 AND 12/31, THIS BOX MAY BE COLLECTED AS EARLY AS 12 NOON.", "nsi_id": "unitedstatespostalservice-a77078", "operator": "United States Postal Service", "operator:short": "USPS", "operator:type": "public", "operator:wikidata": "Q668687", "ref": "4984900002"}, "type": "Feature"}
{"geometry": {"coordinates": [-87.6802472, 46.500907], "type": "Point"}, "id": "se4xoRroRzO-ip_5Jf4qh0y9U2A=", "properties": {"@source_uri": "https://tools.usps.com/UspsToolsRestServices/rest/POLocator/findLocations", "@spider": "usps_collection_boxes", "addr:city": "ISHPEMING", "addr:country": "US", "addr:postcode": "49849", "addr:state": "MI", "addr:street_address": "830 CARP RIVER LN", "amenity": "post_box", "collection_times": "Mo-Sa 12:00", "nsi_id": "unitedstatespostalservice-a77078", "operator": "United States Postal Service", "operator:short": "USPS", "operator:type": "public", "operator:wikidata": "Q668687", "ref": "4984900006"}, "type": "Feature"}
{"geometry": {"coordinates": [-87.7144213371, 46.4876065327], "type": "Point"}, "id": "IjoJen10IuLD8gyJg5BOj15TyQI=", "properties": {"@source_uri": "https://tools.usps.com/UspsToolsRestServices/rest/POLocator/findLocations", "@spider": "usps_collection_boxes", "addr:city": "ISHPEMING", "addr:country": "US", "addr:postcode": "49849", "addr:state": "MI", "addr:street_address": "1710 US HIGHWAY 41 W.", "amenity": "post_box", "collection_times": "Mo-Sa 09:30", "nsi_id": "unitedstatespostalservice-a77078", "operator": "United States Postal Service", "operator:short": "USPS", "operator:type": "public", "operator:wikidata": "Q668687", "ref": "4984900007"}, "type": "Feature"}
{"geometry": {"coordinates": [-87.6665359, 46.502895], "type": "Point"}, "id": "Mmh4oP3fsK_xY7UePTtggX7eDTw=", "properties": {"@source_uri": "https://tools.usps.com/UspsToolsRestServices/rest/POLocator/findLocations", "@spider": "usps_collection_boxes", "addr:city": "ISHPEMING", "addr:country": "US", "addr:postcode": "49849", "addr:state": "MI", "addr:street_address": "1419 N 2ND ST", "amenity": "post_box", "collection_times": "Mo-Sa 14:30", "note": "ON 12/24 AND 12/31, THIS BOX MAY BE COLLECTED AS EARLY AS 12 NOON.", "nsi_id": "unitedstatespostalservice-a77078", "operator": "United States Postal Service", "operator:short": "USPS", "operator:type": "public", "operator:wikidata": "Q668687", "ref": "4984900008"}, "type": "Feature"}
{"geometry": {"coordinates": [-87.66708, 46.490887], "type": "Point"}, "id": "EbUdWY34pgzMpnza7wf7zCMIQoM=", "properties": {"@source_uri": "https://tools.usps.com/UspsToolsRestServices/rest/POLocator/findLocations", "@spider": "usps_collection_boxes", "addr:city": "ISHPEMING", "addr:country": "US", "addr:postcode": "49849", "addr:state": "MI", "addr:street_address": "101 BANK ST", "amenity": "post_box", "collection_times": "Mo-Fr 17:00; Sa 16:00", "note": "ON 12/24 AND 12/31, THIS BOX MAY BE COLLECTED AS EARLY AS 12 NOON.", "nsi_id": "unitedstatespostalservice-a77078", "operator": "United States Postal Service", "operator:short": "USPS", "operator:type": "public", "operator:wikidata": "Q668687", "ref": "4984900014"}, "type": "Feature"}
{"geometry": {"coordinates": [-87.666534, 46.490977], "type": "Point"}, "id": "PpTP0XhAZoy19jJzWobCa_d3tGk=", "properties": {"@source_uri": "https://tools.usps.com/UspsToolsRestServices/rest/POLocator/findLocations", "@spider": "usps_collection_boxes", "addr:city": "ISHPEMING", "addr:country": "US", "addr:postcode": "49849", "addr:state": "MI", "addr:street_address": "211 N 2ND ST", "amenity": "post_box", "collection_times": "Mo-Fr 17:00; Sa 16:00", "note": "ON 12/24 AND 12/31, THIS BOX MAY BE COLLECTED AS EARLY AS 12 NOON.", "nsi_id": "unitedstatespostalservice-a77078", "operator": "United States Postal Service", "operator:short": "USPS", "operator:type": "public", "operator:wikidata": "Q668687", "ref": "4984900017"}, "type": "Feature"}
{"geometry": {"coordinates": [-87.6845684, 46.498704], "type": "Point"}, "id": "Kq05RYCg6hrxrFwUO2CeK23Hyks=", "properties": {"@source_uri": "https://tools.usps.com/UspsToolsRestServices/rest/POLocator/findLocations", "@spider": "usps_collection_boxes", "addr:city": "ISHPEMING", "addr:country": "US", "addr:postcode": "49849", "addr:state": "MI", "addr:street_address": "900 US HIGHWAY 41 W", "amenity": "post_box", "collection_times": "Mo-Sa 09:00", "nsi_id": "unitedstatespostalservice-a77078", "operator": "United States Postal Service", "operator:short": "USPS", "operator:type": "public", "operator:wikidata": "Q668687", "ref": "4984900018"}, "type": "Feature"}
{"geometry": {"coordinates": [-87.666558292, 46.490948165], "type": "Point"}, "id": "2aNd7Hnj_rVJupI0aU6pvU1m8fs=", "properties": {"@source_uri": "https://tools.usps.com/UspsToolsRestServices/rest/POLocator/findLocations", "@spider": "usps_collection_boxes", "addr:city": "ISHPEMING", "addr:country": "US", "addr:postcode": "49849", "addr:state": "MI", "addr:street_address": "211 N 2ND ST", "amenity": "post_box", "collection_times": "Mo-Fr 17:00; Sa 16:15", "indoor": "yes", "note": "ON 12/24 AND 12/31, THIS BOX MAY BE COLLECTED AS EARLY AS 12 NOON.", "nsi_id": "unitedstatespostalservice-a77078", "operator": "United States Postal Service", "operator:short": "USPS", "operator:type": "public", "operator:wikidata": "Q668687", "ref": "4984900021"}, "type": "Feature"}
{"geometry": {"coordinates": [-87.666558292, 46.490948165], "type": "Point"}, "id": "jSHh_UotpblWg8BWZNDVOQVPYVg=", "properties": {"@source_uri": "https://tools.usps.com/UspsToolsRestServices/rest/POLocator/findLocations", "@spider": "usps_collection_boxes", "addr:city": "ISHPEMING", "addr:country": "US", "addr:postcode": "49849", "addr:state": "MI", "addr:street_address": "211 N 2ND ST", "amenity": "post_box", "collection_times": "Mo-Fr 16:30; Sa 11:30", "indoor": "yes", "note": "ON 12/24 AND 12/31, THIS BOX MAY BE COLLECTED AS EARLY AS 12 NOON.", "nsi_id": "unitedstatespostalservice-a77078", "operator": "United States Postal Service", "operator:short": "USPS", "operator:type": "public", "operator:wikidata": "Q668687", "ref": "4984900022"}, "type": "Feature"}
{"geometry": {"coordinates": [-85.689621, 46.339024], "type": "Point"}, "id": "-97Hsksqv0sqIWcpLqhW4C5zwBw=", "properties": {"@source_uri": "https://tools.usps.com/UspsToolsRestServices/rest/POLocator/findLocations", "@spider": "usps_collection_boxes", "addr:city": "MCMILLAN", "addr:country": "US", "addr:postcode": "49853", "addr:state": "MI", "addr:street_address": "22579 STATE HIGHWAY M28", "amenity": "post_box", "collection_times": "Mo-Fr 16:15; Sa 13:30", "note": "ON 12/24 AND 12/31, THIS BOX MAY BE COLLECTED AS EARLY AS 12 NOON.", "nsi_id": "unitedstatespostalservice-a77078", "operator": "United States Postal Service", "operator:short": "USPS", "operator:type": "public", "operator:wikidata": "Q668687", "ref": "4985300000"}, "type": "Feature"}
{"geometry": {"coordinates": [-85.689621, 46.339024], "type": "Point"}, "id": "g4hFIbwzQJC_yLTWJvK8X3euWtM=", "properties": {"@source_uri": "https://tools.usps.com/UspsToolsRestServices/rest/POLocator/findLocations", "@spider": "usps_collection_boxes", "addr:city": "MCMILLAN", "addr:country": "US", "addr:postcode": "49853", "addr:state": "MI", "addr:street_address": "22579 STATE HIGHWAY M28", "amenity": "post_box", "collection_times": "Mo-Fr 16:15; Sa 13:30", "indoor": "yes", "note": "ON 12/24 AND 12/31, THIS BOX MAY BE COLLECTED AS EARLY AS 12 NOON.", "nsi_id": "unitedstatespostalservice-a77078", "operator": "United States Postal Service", "operator:short": "USPS", "operator:type": "public", "operator:wikidata": "Q668687", "ref": "4985300001"}, "type": "Feature"}
{"geometry": {"coordinates": [-85.689511248, 46.338964248], "type": "Point"}, "id": "evCBiGajsvGh_F7dSUBriwwrebQ=", "properties": {"@source_uri": "https://tools.usps.com/UspsToolsRestServices/rest/POLocator/findLocations", "@spider": "usps_collection_boxes", "addr:city": "MCMILLAN", "addr:country": "US", "addr:postcode": "49853", "addr:state": "MI", "addr:street_address": "22579 STATE HIGHWAY M28", "amenity": "post_box", "collection_times": "Mo-Fr 15:45; Sa 13:00", "indoor": "yes", "note": "ON 12/24 AND 12/31, THIS BOX MAY BE COLLECTED AS EARLY AS 12 NOON.", "nsi_id": "unitedstatespostalservice-a77078", "operator": "United States Postal Service", "operator:short": "USPS", "operator:type": "public", "operator:wikidata": "Q668687", "ref": "4985300002"}, "type": "Feature"}
{"geometry": {"coordinates": [-86.2466533, 45.956784], "type": "Point"}, "id": "OyyUUF1qmwvgKbEAZvkmgR-EP1I=", "properties": {"@source_uri": "https://tools.usps.com/UspsToolsRestServices/rest/POLocator/findLocations", "@spider": "usps_collection_boxes", "addr:city": "MANISTIQUE", "addr:country": "US", "addr:postcode": "49854", "addr:state": "MI", "addr:street_address": "130 S CEDAR ST", "amenity": "post_box", "collection_times": "Mo-Sa 14:30", "note": "ON 12/24 AND 12/31, THIS BOX MAY BE COLLECTED AS EARLY AS 12 NOON.", "nsi_id": "unitedstatespostalservice-a77078", "operator": "United States Postal Service", "operator:short": "USPS", "operator:type": "public", "operator:wikidata": "Q668687", "ref": "4985400000"}, "type": "Feature"}
{"geometry": {"coordinates": [-86.246583, 45.954954], "type": "Point"}, "id": "HGhSLQZ2n3Spw_NvABhnHrEjFmQ=", "properties": {"@source_uri": "https://tools.usps.com/UspsToolsRestServices/rest/POLocator/findLocations", "@spider": "usps_collection_boxes", "addr:city": "MANISTIQUE", "addr:country": "US", "addr:postcode": "49854", "addr:state": "MI", "addr:street_address": "301 S CEDAR ST", "amenity": "post_box", "collection_times": "Mo-Fr 16:30; Sa 12:30", "note": "ON 12/24 AND 12/31, THIS BOX MAY BE COLLECTED AS EARLY AS 12 NOON.", "nsi_id": "unitedstatespostalservice-a77078", "operator": "United States Postal Service", "operator:short": "USPS", "operator:type": "public", "operator:wikidata": "Q668687", "ref": "4985400001"}, "type": "Feature"}
{"geometry": {"coordinates": [-86.2540876, 45.963435], "type": "Point"}, "id": "akt05gfhA9autoprL3ELoEiKdsk=", "properties": {"@source_uri": "https://tools.usps.com/UspsToolsRestServices/rest/POLocator/findLocations", "@spider": "usps_collection_boxes", "addr:city": "MANISTIQUE", "addr:country": "US", "addr:postcode": "49854", "addr:state": "MI", "addr:street_address": "100 S HOUGHTON AVE", "amenity": "post_box", "collection_times": "Mo-Sa 14:30", "note": "ON 12/24 AND 12/31, THIS BOX MAY BE COLLECTED AS EARLY AS 12 NOON.", "nsi_id": "unitedstatespostalservice-a77078", "operator": "United States Postal Service", "operator:short": "USPS", "operator:type": "public", "operator:wikidata": "Q668687", "ref": "4985400004"}, "type": "Feature"}
{"geometry": {"coordinates": [-86.2437468, 45.956652], "type": "Point"}, "id": "UDnvBkRm53ca76p84e7v8zC2jEY=", "properties": {"@source_uri": "https://tools.usps.com/UspsToolsRestServices/rest/POLocator/findLocations", "@spider": "usps_collection_boxes", "addr:city": "MANISTIQUE", "addr:country": "US", "addr:postcode": "49854", "addr:state": "MI", "addr:street_address": "300 WALNUT ST", "amenity": "post_box", "collection_times": "Mo-Sa 14:30", "note": "ON 12/24 AND 12/31, THIS BOX MAY BE COLLECTED AS EARLY AS 12 NOON.", "nsi_id": "unitedstatespostalservice-a77078", "operator": "United States Postal Service", "operator:short": "USPS", "operator:type": "public", "operator:wikidata": "Q668687", "ref": "4985400007"}, "type": "Feature"}
{"geometry": {"coordinates": [-86.246583, 45.954954], "type": "Point"}, "id": "CAY2mQFtc9GAZUuF8g-3voBu3ZM=", "properties": {"@source_uri": "https://tools.usps.com/UspsToolsRestServices/rest/POLocator/findLocations", "@spider": "usps_collection_boxes", "addr:city": "MANISTIQUE", "addr:country": "US", "addr:postcode": "49854", "addr:state": "MI", "addr:street_address": "301 S CEDAR ST", "amenity": "post_box", "collection_times": "Mo-Fr 16:30; Sa 12:30", "indoor": "yes", "note": "ON 12/24 AND 12/31, THIS BOX MAY BE COLLECTED AS EARLY AS 12 NOON.", "nsi_id": "unitedstatespostalservice-a77078", "operator": "United States Postal Service", "operator:short": "USPS", "operator:type": "public", "operator:wikidata": "Q668687", "ref": "4985400008"}, "type": "Feature"}
{"geometry": {"coordinates": [-86.246571774, 45.954975144], "type": "Point"}, "id": "YKenPAvIH9lSE8T3phbk428R2HY=", "properties": {"@source_uri": "https://tools.usps.com/UspsToolsRestServices/rest/POLocator/findLocations", "@spider": "usps_collection_boxes", "addr:city": "MANISTIQUE", "addr:country": "US", "addr:postcode": "49854", "addr:state": "MI", "addr:street_address": "301 S CEDAR ST", "amenity": "post_box", "collection_times": "Mo-Fr 16:00; Sa 11:30", "indoor": "yes", "note": "ON 12/24 AND 12/31, THIS BOX MAY BE COLLECTED AS EARLY AS 12 NOON.", "nsi_id": "unitedstatespostalservice-a77078", "operator": "United States Postal Service", "operator:short": "USPS", "operator:type": "public", "operator:wikidata": "Q668687", "ref": "4985400009"}, "type": "Feature"}
{"geometry": {"coordinates": [-87.395916, 46.543677], "type": "Point"}, "id": "l2YNZZJsE2jn28FIJou41f0FCfI=", "properties": {"@source_uri": "https://tools.usps.com/UspsToolsRestServices/rest/POLocator/findLocations", "@spider": "usps_collection_boxes", "addr:city": "MARQUETTE", "addr:country": "US", "addr:postcode": "49855", "addr:state": "MI", "addr:street_address": "202 W WASHINGTON ST", "amenity": "post_box", "collection_times": "Mo-Sa 17:15", "note": "ON 12/24 AND 12/31, THIS BOX MAY BE COLLECTED AS EARLY AS 12 NOON.", "nsi_id": "unitedstatespostalservice-a77078", "operator": "United States Postal Service", "operator:short": "USPS", "operator:type": "public", "operator:wikidata": "Q668687", "ref": "4985500000"}, "type": "Feature"}
{"geometry": {"coordinates": [-87.3947584, 46.55603], "type": "Point"}, "id": "I_iGA7uX5qOUgtu0uOERzJnJ9PU=", "properties": {"@source_uri": "https://tools.usps.com/UspsToolsRestServices/rest/POLocator/findLocations", "@spider": "usps_collection_boxes", "addr:city": "MARQUETTE", "addr:country": "US", "addr:postcode": "49855", "addr:state": "MI", "addr:street_address": "1300 N 3RD ST", "amenity": "post_box", "collection_times": "Mo-Sa 13:00", "note": "ON 12/24 AND 12/31, THIS BOX MAY BE COLLECTED AS EARLY AS 12 NOON.", "nsi_id": "unitedstatespostalservice-a77078", "operator": "United States Postal Service", "operator:short": "USPS", "operator:type": "public", "operator:wikidata": "Q668687", "ref": "4985500005"}, "type": "Feature"}
{"geometry": {"coordinates": [-87.3950683, 46.552834], "type": "Point"}, "id": "EpKUn_YO5ioASzhzQUh9IpuMyBg=", "properties": {"@source_uri": "https://tools.usps.com/UspsToolsRestServices/rest/POLocator/findLocations", "@spider": "usps_collection_boxes", "addr:city": "MARQUETTE", "addr:country": "US", "addr:postcode": "49855", "addr:state": "MI", "addr:street_address": "1015 N 3RD ST", "amenity": "post_box", "collection_times": "Mo-Sa 13:00", "note": "ON 12/24 AND 12/31, THIS BOX MAY BE COLLECTED AS EARLY AS 12 NOON.", "nsi_id": "unitedstatespostalservice-a77078", "operator": "United States Postal Service", "operator:short": "USPS", "operator:type": "public", "operator:wikidata": "Q668687", "ref": "4985500006"}, "type": "Feature"}
{"geometry": {"coordinates": [-87.397079974, 46.541749982], "type": "Point"}, "id": "Mwjv-nx5hXOWDY5-fcFiExCAYy0=", "properties": {"@source_uri": "https://tools.usps.com/UspsToolsRestServices/rest/POLocator/findLocations", "@spider": "usps_collection_boxes", "addr:city": "MARQUETTE", "addr:country": "US", "addr:postcode": "49855", "addr:state": "MI", "addr:street_address": "234 W BARAGA AVE", "amenity": "post_box", "collection_times": "Mo-Fr 12:30; Sa 12:00", "note": "ON 12/24 AND 12/31, THIS BOX MAY BE COLLECTED AS EARLY AS 12 NOON.", "nsi_id": "unitedstatespostalservice-a77078", "operator": "United States Postal Service", "operator:short": "USPS", "operator:type": "public", "operator:wikidata": "Q668687", "ref": "4985500007"}, "type": "Feature"}
{"geometry": {"coordinates": [-87.4013672, 46.547062], "type": "Point"}, "id": "LTq1Gt2F_S2TxhEZH3bd7i6b0Aw=", "properties": {"@source_uri": "https://tools.usps.com/UspsToolsRestServices/rest/POLocator/findLocations", "@spider": "usps_collection_boxes", "addr:city": "MARQUETTE", "addr:country": "US", "addr:postcode": "49855", "addr:state": "MI", "addr:street_address": "445 W MICHIGAN ST", "amenity": "post_box", "collection_times": "Mo-Sa 10:00", "nsi_id": "unitedstatespostalservice-a77078", "operator": "United States Postal Service", "operator:short": "USPS", "operator:type": "public", "operator:wikidata": "Q668687", "ref": "4985500009"}, "type": "Feature"}
{"geometry": {"coordinates": [-87.4252533, 46.54644], "type": "Point"}, "id": "6VRFJWON-9i0_GS5QyBIJPpoSkc=", "properties": {"@source_uri": "https://tools.usps.com/UspsToolsRestServices/rest/POLocator/findLocations", "@spider": "usps_collection_boxes", "addr:city": "MARQUETTE", "addr:country": "US", "addr:postcode": "49855", "addr:state": "MI", "addr:street_address": "1502 W WASHINGTON ST", "amenity": "post_box", "collection_times": "Mo-Fr 14:30; Sa 12:00", "note": "ON 12/24 AND 12/31, THIS BOX MAY BE COLLECTED AS EARLY AS 12 NOON.", "nsi_id": "unitedstatespostalservice-a77078", "operator": "United States Postal Service", "operator:short": "USPS", "operator:type": "public", "operator:wikidata": "Q668687", "ref": "4985500013"}, "type": "Feature"}
{"geometry": {"coordinates": [-87.452311, 46.550849], "type": "Point"}, "id": "yPLAzKjNjGuqTCx0uxAsamnMR00=", "properties": {"@source_uri": "https://tools.usps.com/UspsToolsRestServices/rest/POLocator/findLocations", "@spider": "usps_collection_boxes", "addr:city": "MARQUETTE", "addr:country": "US", "addr:postcode": "49855", "addr:state": "MI", "addr:street_address": "3020 US HIGHWAY 41 W", "amenity": "post_box", "collection_times": "Mo-Fr 14:00; Sa 12:00", "note": "ON 12/24 AND 12/31, THIS BOX MAY BE COLLECTED AS EARLY AS 12 NOON.", "nsi_id": "unitedstatespostalservice-a77078", "operator": "United States Postal Service", "operator:short": "USPS", "operator:type": "public", "operator:wikidata": "Q668687", "ref": "4985500014"}, "type": "Feature"}
{"geometry": {"coordinates": [-87.4351408, 46.545117], "type": "Point"}, "id": "mJWrY6stg2LBaba9FUVUKsaf2Ts=", "properties": {"@source_uri": "https://tools.usps.com/UspsToolsRestServices/rest/POLocator/findLocations", "@spider": "usps_collection_boxes", "addr:city": "MARQUETTE", "addr:country": "US", "addr:postcode": "49855", "addr:state": "MI", "addr:street_address": "200 WHETSTONE RD", "amenity": "post_box", "collection_times": "Mo-Sa 11:00", "nsi_id": "unitedstatespostalservice-a77078", "operator": "United States Postal Service", "operator:short": "USPS", "operator:type": "public", "operator:wikidata": "Q668687", "ref": "4985500015"}, "type": "Feature"}
{"geometry": {"coordinates": [-87.4110774833, 46.5431083417], "type": "Point"}, "id": "W8AhzlbHj5pdy3TcGBHiXmvf_4g=", "properties": {"@source_uri": "https://tools.usps.com/UspsToolsRestServices/rest/POLocator/findLocations", "@spider": "usps_collection_boxes", "addr:city": "MARQUETTE", "addr:country": "US", "addr:postcode": "49855", "addr:state": "MI", "addr:street_address": "850 W BARAGA ST", "amenity": "post_box", "collection_times": "Mo-Fr 14:00; Sa 12:00", "note": "ON 12/24 AND 12/31, THIS BOX MAY BE COLLECTED AS EARLY AS 12 NOON.", "nsi_id": "unitedstatespostalservice-a77078", "operator": "United States Postal Service", "operator:short": "USPS", "operator:type": "public", "operator:wikidata": "Q668687", "ref": "4985500016"}, "type": "Feature"}
{"geometry": {"coordinates": [-87.3930765, 46.54326], "type": "Point"}, "id": "qkao5hVzav4aHVlSTKOBBzTb_Zw=", "properties": {"@source_uri": "https://tools.usps.com/UspsToolsRestServices/rest/POLocator/findLocations", "@spider": "usps_collection_boxes", "addr:city": "MARQUETTE", "addr:country": "US", "addr:postcode": "49855", "addr:state": "MI", "addr:street_address": "101 W WASHINGTON ST", "amenity": "post_box", "collection_times": "Mo-Fr 14:00; Sa 12:00", "note": "ON 12/24 AND 12/31, THIS BOX MAY BE COLLECTED AS EARLY AS 12 NOON.", "nsi_id": "unitedstatespostalservice-a77078", "operator": "United States Postal Service", "operator:short": "USPS", "operator:type": "public", "operator:wikidata": "Q668687", "ref": "4985500018"}, "type": "Feature"}
{"geometry": {"coordinates": [-87.3968963, 46.534795], "type": "Point"}, "id": "jRXiljTgiuqKDy-4chobIb65BDk=", "properties": {"@source_uri": "https://tools.usps.com/UspsToolsRestServices/rest/POLocator/findLocations", "@spider": "usps_collection_boxes", "addr:city": "MARQUETTE", "addr:country": "US", "addr:postcode": "49855", "addr:state": "MI", "addr:street_address": "1013 CHAMPION ST", "amenity": "post_box", "collection_times": "Mo-Sa 10:00", "nsi_id": "unitedstatespostalservice-a77078", "operator": "United States Postal Service", "operator:short": "USPS", "operator:type": "public", "operator:wikidata": "Q668687", "ref": "4985500025"}, "type": "Feature"}
{"geometry": {"coordinates": [-87.4186136, 46.557795], "type": "Point"}, "id": "xNEotj_fFerKJ9fansyURVbVDW4=", "properties": {"@source_uri": "https://tools.usps.com/UspsToolsRestServices/rest/POLocator/findLocations", "@spider": "usps_collection_boxes", "addr:city": "MARQUETTE", "addr:country": "US", "addr:postcode": "49855", "addr:state": "MI", "addr:street_address": "1414 W FAIR AVE", "amenity": "post_box", "collection_times": "Mo-Fr 14:30; Sa 09:30", "note": "ON 12/24 AND 12/31, THIS BOX MAY BE COLLECTED AS EARLY AS 12 NOON.", "nsi_id": "unitedstatespostalservice-a77078", "operator": "United States Postal Service", "operator:short": "USPS", "operator:type": "public", "operator:wikidata": "Q668687", "ref": "4985500032"}, "type": "Feature"}
{"geometry": {"coordinates": [-87.4119154, 46.525631], "type": "Point"}, "id": "W76IslsPb4jj4Mp5-KtkwUYmbdo=", "properties": {"@source_uri": "https://tools.usps.com/UspsToolsRestServices/rest/POLocator/findLocations", "@spider": "usps_collection_boxes", "addr:city": "MARQUETTE", "addr:country": "US", "addr:postcode": "49855", "addr:state": "MI", "addr:street_address": "777 PIONEER RD TRLR PARK", "amenity": "post_box", "collection_times": "Mo-Sa 10:30", "nsi_id": "unitedstatespostalservice-a77078", "operator": "United States Postal Service", "operator:short": "USPS", "operator:type": "public", "operator:wikidata": "Q668687", "ref": "4985500034"}, "type": "Feature"}
{"geometry": {"coordinates": [-87.3500976, 46.486079], "type": "Point"}, "id": "c1Bu9e7iJ8cfZYP8xCH7PfZKtYY=", "properties": {"@source_uri": "https://tools.usps.com/UspsToolsRestServices/rest/POLocator/findLocations", "@spider": "usps_collection_boxes", "addr:city": "MARQUETTE", "addr:country": "US", "addr:postcode": "49855", "addr:state": "MI", "addr:street_address": "6000 US HIGHWAY 41 S", "amenity": "post_box", "collection_times": "Mo-Sa 10:30", "nsi_id": "unitedstatespostalservice-a77078", "operator": "United States Postal Service", "operator:short": "USPS", "operator:type": "public", "operator:wikidata": "Q668687", "ref": "4985500036"}, "type": "Feature"}
{"geometry": {"coordinates": [-87.4259203, 46.548938], "type": "Point"}, "id": "-nXDqefGqmDzRR6gjNbbBhuth6c=", "properties": {"@source_uri": "https://tools.usps.com/UspsToolsRestServices/rest/POLocator/findLocations", "@spider": "usps_collection_boxes", "addr:city": "MARQUETTE", "addr:country": "US", "addr:postcode": "49855", "addr:state": "MI", "addr:street_address": "1536 W RIDGE ST", "amenity": "post_box", "collection_times": "Mo-Sa 11:00", "nsi_id": "unitedstatespostalservice-a77078", "operator": "United States Postal Service", "operator:short": "USPS", "operator:type": "public", "operator:wikidata": "Q668687", "ref": "4985500038"}, "type": "Feature"}
{"geometry": {"coordinates": [-87.4001262, 46.556259], "type": "Point"}, "id": "tC9Myp2k0RQx-uJh4ZhRzOcdt1g=", "properties": {"@source_uri": "https://tools.usps.com/UspsToolsRestServices/rest/POLocator/findLocations", "@spider": "usps_collection_boxes", "addr:city": "MARQUETTE", "addr:country": "US", "addr:postcode": "49855", "addr:state": "MI", "addr:street_address": "1401 PRESQUE ISLE AVE", "amenity": "post_box", "collection_times": "Mo-Fr 13:00; Sa 12:00", "note": "ON 12/24 AND 12/31, THIS BOX MAY BE COLLECTED AS EARLY AS 12 NOON.", "nsi_id": "unitedstatespostalservice-a77078", "operator": "United States Postal Service", "operator:short": "USPS", "operator:type": "public", "operator:wikidata": "Q668687", "ref": "4985500041"}, "type": "Feature"}
{"geometry": {"coordinates": [-87.422686727, 46.542607678], "type": "Point"}, "id": "S7vBXSQ7_3F5NwI4jDpZ2QB5c8M=", "properties": {"@source_uri": "https://tools.usps.com/UspsToolsRestServices/rest/POLocator/findLocations", "@spider": "usps_collection_boxes", "addr:city": "MARQUETTE", "addr:country": "US", "addr:postcode": "49855", "addr:state": "MI", "addr:street_address": "1401 ODOVERO DR", "amenity": "post_box", "collection_times": "Mo-Sa 12:00", "nsi_id": "unitedstatespostalservice-a77078", "operator": "United States Postal Service", "operator:short": "USPS", "operator:type": "public", "operator:wikidata": "Q668687", "ref": "4985500044"}, "type": "Feature"}
{"geometry": {"coordinates": [-87.4604166, 46.548], "type": "Point"}, "id": "fxTm9EPs0GugRiWGA_K2EcLMiQY=", "properties": {"@source_uri": "https://tools.usps.com/UspsToolsRestServices/rest/POLocator/findLocations", "@spider": "usps_collection_boxes", "addr:city": "MARQUETTE", "addr:country": "US", "addr:postcode": "49855", "addr:state": "MI", "addr:street_address": "3225 US HIGHWAY 41 W", "amenity": "post_box", "collection_times": "Mo-Fr 14:00; Sa 12:00", "note": "ON 12/24 AND 12/31, THIS BOX MAY BE COLLECTED AS EARLY AS 12 NOON.", "nsi_id": "unitedstatespostalservice-a77078", "operator": "United States Postal Service", "operator:short": "USPS", "operator:type": "public", "operator:wikidata": "Q668687", "ref": "4985500045"}, "type": "Feature"}
{"geometry": {"coordinates": [-87.3954416, 46.541843], "type": "Point"}, "id": "EAVmPPIpZT5JdqdgRSRsvfVpTPo=", "properties": {"@source_uri": "https://tools.usps.com/UspsToolsRestServices/rest/POLocator/findLocations", "@spider": "usps_collection_boxes", "addr:city": "MARQUETTE", "addr:country": "US", "addr:postcode": "49855", "addr:state": "MI", "addr:street_address": "145 W SPRING ST", "amenity": "post_box", "collection_times": "Mo-Fr 14:00; Sa 12:00", "note": "ON 12/24 AND 12/31, THIS BOX MAY BE COLLECTED AS EARLY AS 12 NOON.", "nsi_id": "unitedstatespostalservice-a77078", "operator": "United States Postal Service", "operator:short": "USPS", "operator:type": "public", "operator:wikidata": "Q668687", "ref": "4985500048"}, "type": "Feature"}
{"geometry": {"coordinates": [-87.395916, 46.543677], "type": "Point"}, "id": "w5U5c6zuYd0HjKnuUPp2VTlK760=", "properties": {"@source_uri": "https://tools.usps.com/UspsToolsRestServices/rest/POLocator/findLocations", "@spider": "usps_collection_boxes", "addr:city": "MARQUETTE", "addr:country": "US", "addr:postcode": "49855", "addr:state": "MI", "addr:street_address": "202 W WASHINGTON ST", "amenity": "post_box", "collection_times": "Mo-Sa 17:15", "indoor": "yes", "note": "ON 12/24 AND 12/31, THIS BOX MAY BE COLLECTED AS EARLY AS 12 NOON.", "nsi_id": "unitedstatespostalservice-a77078", "operator": "United States Postal Service", "operator:short": "USPS", "operator:type": "public", "operator:wikidata": "Q668687", "ref": "4985500051"}, "type": "Feature"}
{"geometry": {"coordinates": [-87.425803, 46.464536], "type": "Point"}, "id": "-TQvXRyuknRZv2K-hMWVqmHf_bE=", "properties": {"@source_uri": "https://tools.usps.com/UspsToolsRestServices/rest/POLocator/findLocations", "@spider": "usps_collection_boxes", "addr:city": "MARQUETTE", "addr:country": "US", "addr:postcode": "49855", "addr:state": "MI", "addr:street_address": "301 COUNTY RD 553", "amenity": "post_box", "collection_times": "Mo-Sa 11:30", "nsi_id": "unitedstatespostalservice-a77078", "operator": "United States Postal Service", "operator:short": "USPS", "operator:type": "public", "operator:wikidata": "Q668687", "ref": "4985500056"}, "type": "Feature"}
{"geometry": {"coordinates": [-87.3940166, 46.541325], "type": "Point"}, "id": "NdIn-ot1ZQvOUNGIb0PncVIlkNI=", "properties": {"@source_uri": "https://tools.usps.com/UspsToolsRestServices/rest/POLocator/findLocations", "@spider": "usps_collection_boxes", "addr:city": "MARQUETTE", "addr:country": "US", "addr:postcode": "49855", "addr:state": "MI", "addr:street_address": "300 S FRONT ST", "amenity": "post_box", "collection_times": "Mo-Fr 14:00; Sa 12:30", "note": "ON 12/24 AND 12/31, THIS BOX MAY BE COLLECTED AS EARLY AS 12 NOON.", "nsi_id": "unitedstatespostalservice-a77078", "operator": "United States Postal Service", "operator:short": "USPS", "operator:type": "public", "operator:wikidata": "Q668687", "ref": "4985500061"}, "type": "Feature"}
{"geometry": {"coordinates": [-87.395919634, 46.543669352], "type": "Point"}, "id": "KrbjxWnjCJWjeLhOjIPBSINe3jg=", "properties": {"@source_uri": "https://tools.usps.com/UspsToolsRestServices/rest/POLocator/findLocations", "@spider": "usps_collection_boxes", "addr:city": "MARQUETTE", "addr:country": "US", "addr:postcode": "49855", "addr:state": "MI", "addr:street_address": "202 W WASHINGTON ST", "amenity": "post_box", "collection_times": "Mo-Fr 16:30; Sa 12:00", "indoor": "yes", "note": "ON 12/24 AND 12/31, THIS BOX MAY BE COLLECTED AS EARLY AS 12 NOON.", "nsi_id": "unitedstatespostalservice-a77078", "operator": "United States Postal Service", "operator:short": "USPS", "operator:type": "public", "operator:wikidata": "Q668687", "ref": "4985500065"}, "type": "Feature"}
{"geometry": {"coordinates": [-87.6198699, 45.10624], "type": "Point"}, "id": "ODJzt8wgKnJQCwS1SKUUkJuUtEU=", "properties": {"@source_uri": "https://tools.usps.com/UspsToolsRestServices/rest/POLocator/findLocations", "@spider": "usps_collection_boxes", "addr:city": "MENOMINEE", "addr:country": "US", "addr:postcode": "49858", "addr:state": "MI", "addr:street_address": "1401 8TH AVE", "amenity": "post_box", "collection_times": "Mo-Sa 11:00", "nsi_id": "unitedstatespostalservice-a77078", "operator": "United States Postal Service", "operator:short": "USPS", "operator:type": "public", "operator:wikidata": "Q668687", "ref": "4985800001"}, "type": "Feature"}
{"geometry": {"coordinates": [-87.6184604, 45.111413], "type": "Point"}, "id": "WdvQlygBEYhI0mcP0-KpKwfFB8c=", "properties": {"@source_uri": "https://tools.usps.com/UspsToolsRestServices/rest/POLocator/findLocations", "@spider": "usps_collection_boxes", "addr:city": "MENOMINEE", "addr:country": "US", "addr:postcode": "49858", "addr:state": "MI", "addr:street_address": "1301 14TH AVE", "amenity": "post_box", "collection_times": "Mo-Sa 13:00", "note": "ON 12/24 AND 12/31, THIS BOX MAY BE COLLECTED AS EARLY AS 12 NOON.", "nsi_id": "unitedstatespostalservice-a77078", "operator": "United States Postal Service", "operator:short": "USPS", "operator:type": "public", "operator:wikidata": "Q668687", "ref": "4985800006"}, "type": "Feature"}
{"geometry": {"coordinates": [-87.6184052, 45.122304], "type": "Point"}, "id": "KO2tEDydt7oguxTJjg4sCkOEepU=", "properties": {"@source_uri": "https://tools.usps.com/UspsToolsRestServices/rest/POLocator/findLocations", "@spider": "usps_collection_boxes", "addr:city": "MENOMINEE", "addr:country": "US", "addr:postcode": "49858", "addr:state": "MI", "addr:street_address": "2529 13TH ST", "amenity": "post_box", "collection_times": "Mo-Sa 11:00", "nsi_id": "unitedstatespostalservice-a77078", "operator": "United States Postal Service", "operator:short": "USPS", "operator:type": "public", "operator:wikidata": "Q668687", "ref": "4985800009"}, "type": "Feature"}
{"geometry": {"coordinates": [-87.6180942, 45.129435], "type": "Point"}, "id": "Rk0_X0DY1rKF4NvGSMyBYQgOe2M=", "properties": {"@source_uri": "https://tools.usps.com/UspsToolsRestServices/rest/POLocator/findLocations", "@spider": "usps_collection_boxes", "addr:city": "MENOMINEE", "addr:country": "US", "addr:postcode": "49858", "addr:state": "MI", "addr:street_address": "3309 13TH ST", "amenity": "post_box", "collection_times": "Mo-Sa 11:00", "nsi_id": "unitedstatespostalservice-a77078", "operator": "United States Postal Service", "operator:short": "USPS", "operator:type": "public", "operator:wikidata": "Q668687", "ref": "4985800010"}, "type": "Feature"}
{"geometry": {"coordinates": [-87.6123924537, 45.1359180144], "type": "Point"}, "id": "o-ZDcDkiVgG0Odwd8bnsDT2BtjM=", "properties": {"@source_uri": "https://tools.usps.com/UspsToolsRestServices/rest/POLocator/findLocations", "@spider": "usps_collection_boxes", "addr:city": "MENOMINEE", "addr:country": "US", "addr:postcode": "49858", "addr:state": "MI", "addr:street_address": "4000 10TH ST", "amenity": "post_box", "collection_times": "Mo-Sa 11:00", "nsi_id": "unitedstatespostalservice-a77078", "operator": "United States Postal Service", "operator:short": "USPS", "operator:type": "public", "operator:wikidata": "Q668687", "ref": "4985800012"}, "type": "Feature"}
{"geometry": {"coordinates": [-87.6140409, 45.121423], "type": "Point"}, "id": "yKVxgVY-e793HRPL-sfuHhaluls=", "properties": {"@source_uri": "https://tools.usps.com/UspsToolsRestServices/rest/POLocator/findLocations", "@spider": "usps_collection_boxes", "addr:city": "MENOMINEE", "addr:country": "US", "addr:postcode": "49858", "addr:state": "MI", "addr:street_address": "2511 10TH ST", "amenity": "post_box", "collection_times": "Mo-Sa 10:30", "nsi_id": "unitedstatespostalservice-a77078", "operator": "United States Postal Service", "operator:short": "USPS", "operator:type": "public", "operator:wikidata": "Q668687", "ref": "4985800014"}, "type": "Feature"}
{"geometry": {"coordinates": [-87.6092563, 45.111522], "type": "Point"}, "id": "Js6qMtXyntkIcamNwZ4n4xvk-jk=", "properties": {"@source_uri": "https://tools.usps.com/UspsToolsRestServices/rest/POLocator/findLocations", "@spider": "usps_collection_boxes", "addr:city": "MENOMINEE", "addr:country": "US", "addr:postcode": "49858", "addr:state": "MI", "addr:street_address": "1401 1ST ST", "amenity": "post_box", "collection_times": "Mo-Sa 10:00", "nsi_id": "unitedstatespostalservice-a77078", "operator": "United States Postal Service", "operator:short": "USPS", "operator:type": "public", "operator:wikidata": "Q668687", "ref": "4985800015"}, "type": "Feature"}
{"geometry": {"coordinates": [-87.6134272, 45.106988], "type": "Point"}, "id": "8A58GbwoGbsQjXMero9Ew2kDuKk=", "properties": {"@source_uri": "https://tools.usps.com/UspsToolsRestServices/rest/POLocator/findLocations", "@spider": "usps_collection_boxes", "addr:city": "MENOMINEE", "addr:country": "US", "addr:postcode": "49858", "addr:state": "MI", "addr:street_address": "839 10TH AVE", "amenity": "post_box", "collection_times": "Mo-Sa 11:00", "nsi_id": "unitedstatespostalservice-a77078", "operator": "United States Postal Service", "operator:short": "USPS", "operator:type": "public", "operator:wikidata": "Q668687", "ref": "4985800021"}, "type": "Feature"}
{"geometry": {"coordinates": [-87.616259, 45.106492], "type": "Point"}, "id": "dOvIlAvzhNYnfmV-oAtCvCO_elQ=", "properties": {"@source_uri": "https://tools.usps.com/UspsToolsRestServices/rest/POLocator/findLocations", "@spider": "usps_collection_boxes", "addr:city": "MENOMINEE", "addr:country": "US", "addr:postcode": "49858", "addr:state": "MI", "addr:street_address": "801 11TH ST", "amenity": "post_box", "collection_times": "Mo-Fr 17:00; Sa 14:45", "note": "ON 12/24 AND 12/31, THIS BOX MAY BE COLLECTED AS EARLY AS 12 NOON.", "nsi_id": "unitedstatespostalservice-a77078", "operator": "United States Postal Service", "operator:short": "USPS", "operator:type": "public", "operator:wikidata": "Q668687", "ref": "4985800023"}, "type": "Feature"}
{"geometry": {"coordinates": [-87.616259, 45.106492], "type": "Point"}, "id": "ZEW0SwnuDfhBM3G0spGlmoNl3rk=", "properties": {"@source_uri": "https://tools.usps.com/UspsToolsRestServices/rest/POLocator/findLocations", "@spider": "usps_collection_boxes", "addr:city": "MENOMINEE", "addr:country": "US", "addr:postcode": "49858", "addr:state": "MI", "addr:street_address": "801 11TH ST", "amenity": "post_box", "collection_times": "Mo-Fr 17:00; Sa 14:45", "indoor": "yes", "note": "ON 12/24 AND 12/31, THIS BOX MAY BE COLLECTED AS EARLY AS 12 NOON.", "nsi_id": "unitedstatespostalservice-a77078", "operator": "United States Postal Service", "operator:short": "USPS", "operator:type": "public", "operator:wikidata": "Q668687", "ref": "4985800026"}, "type": "Feature"}
{"geometry": {"coordinates": [-87.616259, 45.106492], "type": "Point"}, "id": "ZpOAtZ80BZ6VF5C9RF2SILGOmGc=", "properties": {"@source_uri": "https://tools.usps.com/UspsToolsRestServices/rest/POLocator/findLocations", "@spider": "usps_collection_boxes", "addr:city": "MENOMINEE", "addr:country": "US", "addr:postcode": "49858", "addr:state": "MI", "addr:street_address": "801 11TH ST", "amenity": "post_box", "collection_times": "Mo-Fr 17:00; Sa 14:45", "indoor": "yes", "note": "ON 12/24 AND 12/31, THIS BOX MAY BE COLLECTED AS EARLY AS 12 NOON.", "nsi_id": "unitedstatespostalservice-a77078", "operator": "United States Postal Service", "operator:short": "USPS", "operator:type": "public", "operator:wikidata": "Q668687", "ref": "4985800027"}, "type": "Feature"}
{"geometry": {"coordinates": [-87.616282084, 45.106463556], "type": "Point"}, "id": "59j7KYENNwN30uaFWax-qc3is7o=", "properties": {"@source_uri": "https://tools.usps.com/UspsToolsRestServices/rest/POLocator/findLocations", "@spider": "usps_collection_boxes", "addr:city": "MENOMINEE", "addr:country": "US", "addr:postcode": "49858", "addr:state": "MI", "addr:street_address": "801 11TH ST", "amenity": "post_box", "collection_times": "Mo-Fr 16:30; Sa 11:30", "indoor": "yes", "note": "ON 12/24 AND 12/31, THIS BOX MAY BE COLLECTED AS EARLY AS 12 NOON.", "nsi_id": "unitedstatespostalservice-a77078", "operator": "United States Postal Service", "operator:short": "USPS", "operator:type": "public", "operator:wikidata": "Q668687", "ref": "4985800029"}, "type": "Feature"}
{"geometry": {"coordinates": [-88.1093665, 46.536005], "type": "Point"}, "id": "F0wVr5epFj83NjVAQ3-T-631hU0=", "properties": {"@source_uri": "https://tools.usps.com/UspsToolsRestServices/rest/POLocator/findLocations", "@spider": "usps_collection_boxes", "addr:city": "MICHIGAMME", "addr:country": "US", "addr:postcode": "49861", "addr:state": "MI", "addr:street_address": "113 W MAIN ST", "amenity": "post_box", "collection_times": "Mo-Fr 11:45; Sa 10:15", "nsi_id": "unitedstatespostalservice-a77078", "operator": "United States Postal Service", "operator:short": "USPS", "operator:type": "public", "operator:wikidata": "Q668687", "ref": "4986100000"}, "type": "Feature"}
{"geometry": {"coordinates": [-88.1093603, 46.536054], "type": "Point"}, "id": "O_JFvfQrGyzoUfaguWSojwVDXcQ=", "properties": {"@source_uri": "https://tools.usps.com/UspsToolsRestServices/rest/POLocator/findLocations", "@spider": "usps_collection_boxes", "addr:city": "MICHIGAMME", "addr:country": "US", "addr:postcode": "49861", "addr:state": "MI", "addr:street_address": "113 MAIN ST", "amenity": "post_box", "collection_times": "Mo-Fr 11:45; Sa 10:15", "indoor": "yes", "nsi_id": "unitedstatespostalservice-a77078", "operator": "United States Postal Service", "operator:short": "USPS", "operator:type": "public", "operator:wikidata": "Q668687", "ref": "4986100001"}, "type": "Feature"}
{"geometry": {"coordinates": [-88.109310693, 46.535767479], "type": "Point"}, "id": "OyYVTXihvtu5XBpBwxmy6JLDgXk=", "properties": {"@source_uri": "https://tools.usps.com/UspsToolsRestServices/rest/POLocator/findLocations", "@spider": "usps_collection_boxes", "addr:city": "MICHIGAMME", "addr:country": "US", "addr:postcode": "49861", "addr:state": "MI", "addr:street_address": "113 W MAIN ST", "amenity": "post_box", "collection_times": "Mo-Fr 11:30; Sa 09:45", "indoor": "yes", "nsi_id": "unitedstatespostalservice-a77078", "operator": "United States Postal Service", "operator:short": "USPS", "operator:type": "public", "operator:wikidata": "Q668687", "ref": "4986100003"}, "type": "Feature"}
{"geometry": {"coordinates": [-86.656018, 46.41046], "type": "Point"}, "id": "D5rFfGr0HfWBFbfyDQobGyc3O64=", "properties": {"@source_uri": "https://tools.usps.com/UspsToolsRestServices/rest/POLocator/findLocations", "@spider": "usps_collection_boxes", "addr:city": "MUNISING", "addr:country": "US", "addr:postcode": "49862", "addr:state": "MI", "addr:street_address": "220 ELM AVE", "amenity": "post_box", "collection_times": "Mo-Fr 16:45; Sa 16:00", "note": "ON 12/24 AND 12/31, THIS BOX MAY BE COLLECTED AS EARLY AS 12 NOON.", "nsi_id": "unitedstatespostalservice-a77078", "operator": "United States Postal Service", "operator:short": "USPS", "operator:type": "public", "operator:wikidata": "Q668687", "ref": "4986200000"}, "type": "Feature"}
{"geometry": {"coordinates": [-86.6519587, 46.409478], "type": "Point"}, "id": "ZMWPffXbbjHr7i6nj6ILaN0zlMQ=", "properties": {"@source_uri": "https://tools.usps.com/UspsToolsRestServices/rest/POLocator/findLocations", "@spider": "usps_collection_boxes", "addr:city": "MUNISING", "addr:country": "US", "addr:postcode": "49862", "addr:state": "MI", "addr:street_address": "221 E SUPERIOR ST", "amenity": "post_box", "collection_times": "Mo-Sa 10:30", "nsi_id": "unitedstatespostalservice-a77078", "operator": "United States Postal Service", "operator:short": "USPS", "operator:type": "public", "operator:wikidata": "Q668687", "ref": "4986200003"}, "type": "Feature"}
{"geometry": {"coordinates": [-86.6493299, 46.406768], "type": "Point"}, "id": "8olcqND2I_GNb5jynFB8Z9jvIlM=", "properties": {"@source_uri": "https://tools.usps.com/UspsToolsRestServices/rest/POLocator/findLocations", "@spider": "usps_collection_boxes", "addr:city": "MUNISING", "addr:country": "US", "addr:postcode": "49862", "addr:state": "MI", "addr:street_address": "425 E HWY M-28", "amenity": "post_box", "collection_times": "Mo-Sa 14:30", "note": "ON 12/24 AND 12/31, THIS BOX MAY BE COLLECTED AS EARLY AS 12 NOON.", "nsi_id": "unitedstatespostalservice-a77078", "operator": "United States Postal Service", "operator:short": "USPS", "operator:type": "public", "operator:wikidata": "Q668687", "ref": "4986200004"}, "type": "Feature"}
{"geometry": {"coordinates": [-86.6584852, 46.40803], "type": "Point"}, "id": "jq3L8OZc8h8mLSEuAPUkGXUTXpc=", "properties": {"@source_uri": "https://tools.usps.com/UspsToolsRestServices/rest/POLocator/findLocations", "@spider": "usps_collection_boxes", "addr:city": "MUNISING", "addr:country": "US", "addr:postcode": "49862", "addr:state": "MI", "addr:street_address": "101 COURT ST", "amenity": "post_box", "collection_times": "Mo-Sa 14:30", "note": "ON 12/24 AND 12/31, THIS BOX MAY BE COLLECTED AS EARLY AS 12 NOON.", "nsi_id": "unitedstatespostalservice-a77078", "operator": "United States Postal Service", "operator:short": "USPS", "operator:type": "public", "operator:wikidata": "Q668687", "ref": "4986200007"}, "type": "Feature"}
{"geometry": {"coordinates": [-86.656018, 46.41046], "type": "Point"}, "id": "n1YMfHkszf-LLeS3OyUSw958qcE=", "properties": {"@source_uri": "https://tools.usps.com/UspsToolsRestServices/rest/POLocator/findLocations", "@spider": "usps_collection_boxes", "addr:city": "MUNISING", "addr:country": "US", "addr:postcode": "49862", "addr:state": "MI", "addr:street_address": "220 ELM AVE", "amenity": "post_box", "collection_times": "Mo-Fr 16:45; Sa 16:00", "indoor": "yes", "note": "ON 12/24 AND 12/31, THIS BOX MAY BE COLLECTED AS EARLY AS 12 NOON.", "nsi_id": "unitedstatespostalservice-a77078", "operator": "United States Postal Service", "operator:short": "USPS", "operator:type": "public", "operator:wikidata": "Q668687", "ref": "4986200008"}, "type": "Feature"}
{"geometry": {"coordinates": [-86.656023647, 46.410497905], "type": "Point"}, "id": "wsa5P2LiewiLT2U7dS1SkfQJBYE=", "properties": {"@source_uri": "https://tools.usps.com/UspsToolsRestServices/rest/POLocator/findLocations", "@spider": "usps_collection_boxes", "addr:city": "MUNISING", "addr:country": "US", "addr:postcode": "49862", "addr:state": "MI", "addr:street_address": "220 ELM AVE", "amenity": "post_box", "collection_times": "Mo-Fr 16:00; Sa 11:30", "indoor": "yes", "note": "ON 12/24 AND 12/31, THIS BOX MAY BE COLLECTED AS EARLY AS 12 NOON.", "nsi_id": "unitedstatespostalservice-a77078", "operator": "United States Postal Service", "operator:short": "USPS", "operator:type": "public", "operator:wikidata": "Q668687", "ref": "4986200014"}, "type": "Feature"}
{"geometry": {"coordinates": [-87.5537265, 45.610937], "type": "Point"}, "id": "HXXbIfR__hNmLLNhA_kkzCzVGNc=", "properties": {"@source_uri": "https://tools.usps.com/UspsToolsRestServices/rest/POLocator/findLocations", "@spider": "usps_collection_boxes", "addr:city": "NADEAU", "addr:country": "US", "addr:postcode": "49863", "addr:state": "MI", "addr:street_address": "N13755 1ST ST", "amenity": "post_box", "collection_times": "Mo-Fr 12:30; Sa 09:45", "note": "ON 12/24 AND 12/31, THIS BOX MAY BE COLLECTED AS EARLY AS 12 NOON.", "nsi_id": "unitedstatespostalservice-a77078", "operator": "United States Postal Service", "operator:short": "USPS", "operator:type": "public", "operator:wikidata": "Q668687", "ref": "4986300000"}, "type": "Feature"}
{"geometry": {"coordinates": [-87.55363, 45.608938], "type": "Point"}, "id": "8-Nm_DqB6LXHz7vZbakNwDovyvA=", "properties": {"@source_uri": "https://tools.usps.com/UspsToolsRestServices/rest/POLocator/findLocations", "@spider": "usps_collection_boxes", "addr:city": "NADEAU", "addr:country": "US", "addr:postcode": "49863", "addr:state": "MI", "addr:street_address": "N13755 1ST ST", "amenity": "post_box", "collection_times": "Mo-Fr 12:30; Sa 09:45", "indoor": "yes", "note": "ON 12/24 AND 12/31, THIS BOX MAY BE COLLECTED AS EARLY AS 12 NOON.", "nsi_id": "unitedstatespostalservice-a77078", "operator": "United States Postal Service", "operator:short": "USPS", "operator:type": "public", "operator:wikidata": "Q668687", "ref": "4986300001"}, "type": "Feature"}
{"geometry": {"coordinates": [-87.5536332305, 45.611378803], "type": "Point"}, "id": "H1HdzyCV5dSHt7pP91KxEAn9nAU=", "properties": {"@source_uri": "https://tools.usps.com/UspsToolsRestServices/rest/POLocator/findLocations", "@spider": "usps_collection_boxes", "addr:city": "NADEAU", "addr:country": "US", "addr:postcode": "49863", "addr:state": "MI", "addr:street_address": "N13755 1ST ST", "amenity": "post_box", "collection_times": "Mo-Sa 12:30", "indoor": "yes", "note": "ON 12/24 AND 12/31, THIS BOX MAY BE COLLECTED AS EARLY AS 12 NOON.", "nsi_id": "unitedstatespostalservice-a77078", "operator": "United States Postal Service", "operator:short": "USPS", "operator:type": "public", "operator:wikidata": "Q668687", "ref": "4986300002"}, "type": "Feature"}
{"geometry": {"coordinates": [-87.6071259, 46.509583], "type": "Point"}, "id": "DWknb2EC27-5J5qqqJj1Qnvgcgc=", "properties": {"@source_uri": "https://tools.usps.com/UspsToolsRestServices/rest/POLocator/findLocations", "@spider": "usps_collection_boxes", "addr:city": "NEGAUNEE", "addr:country": "US", "addr:postcode": "49866", "addr:state": "MI", "addr:street_address": "490 US HIGHWAY 41", "amenity": "post_box", "collection_times": "Mo-Sa 14:00", "note": "ON 12/24 AND 12/31, THIS BOX MAY BE COLLECTED AS EARLY AS 12 NOON.", "nsi_id": "unitedstatespostalservice-a77078", "operator": "United States Postal Service", "operator:short": "USPS", "operator:type": "public", "operator:wikidata": "Q668687", "ref": "4986600006"}, "type": "Feature"}
{"geometry": {"coordinates": [-87.611568, 46.499831], "type": "Point"}, "id": "N3jb8ORgBrYe_IDxK29HXA8BdSg=", "properties": {"@source_uri": "https://tools.usps.com/UspsToolsRestServices/rest/POLocator/findLocations", "@spider": "usps_collection_boxes", "addr:city": "NEGAUNEE", "addr:country": "US", "addr:postcode": "49866", "addr:state": "MI", "addr:street_address": "319 W CASE ST", "amenity": "post_box", "collection_times": "Mo-Fr 17:00; Sa 11:00", "note": "ON 12/24 AND 12/31, THIS BOX MAY BE COLLECTED AS EARLY AS 12 NOON.", "nsi_id": "unitedstatespostalservice-a77078", "operator": "United States Postal Service", "operator:short": "USPS", "operator:type": "public", "operator:wikidata": "Q668687", "ref": "4986600008"}, "type": "Feature"}
{"geometry": {"coordinates": [-87.611559, 46.499896], "type": "Point"}, "id": "g0mYpLzT0JrncGis-D7ZoeSJ0T4=", "properties": {"@source_uri": "https://tools.usps.com/UspsToolsRestServices/rest/POLocator/findLocations", "@spider": "usps_collection_boxes", "addr:city": "NEGAUNEE", "addr:country": "US", "addr:postcode": "49866", "addr:state": "MI", "addr:street_address": "304 W CASE ST", "amenity": "post_box", "collection_times": "Mo-Fr 17:00; Sa 11:00", "indoor": "yes", "note": "ON 12/24 AND 12/31, THIS BOX MAY BE COLLECTED AS EARLY AS 12 NOON.", "nsi_id": "unitedstatespostalservice-a77078", "operator": "United States Postal Service", "operator:short": "USPS", "operator:type": "public", "operator:wikidata": "Q668687", "ref": "4986600010"}, "type": "Feature"}
{"geometry": {"coordinates": [-87.611552925, 46.49989679], "type": "Point"}, "id": "aS3WKII7ZrgG4gaRPrarixiOJNg=", "properties": {"@source_uri": "https://tools.usps.com/UspsToolsRestServices/rest/POLocator/findLocations", "@spider": "usps_collection_boxes", "addr:city": "NEGAUNEE", "addr:country": "US", "addr:postcode": "49866", "addr:state": "MI", "addr:street_address": "304 W CASE ST", "amenity": "post_box", "collection_times": "Mo-Fr 16:15; Sa 10:30", "indoor": "yes", "note": "ON 12/24 AND 12/31, THIS BOX MAY BE COLLECTED AS EARLY AS 12 NOON.", "nsi_id": "unitedstatespostalservice-a77078", "operator": "United States Postal Service", "operator:short": "USPS", "operator:type": "public", "operator:wikidata": "Q668687", "ref": "4986600014"}, "type": "Feature"}
{"geometry": {"coordinates": [-85.5162989, 46.352808], "type": "Point"}, "id": "u68Uir8vj8uWos5P_mHjUGHE4Dk=", "properties": {"@source_uri": "https://tools.usps.com/UspsToolsRestServices/rest/POLocator/findLocations", "@spider": "usps_collection_boxes", "addr:city": "NEWBERRY", "addr:country": "US", "addr:postcode": "49868", "addr:state": "MI", "addr:street_address": "502 W HARRIE ST", "amenity": "post_box", "collection_times": "Mo-Sa 14:30", "note": "ON 12/24 AND 12/31, THIS BOX MAY BE COLLECTED AS EARLY AS 12 NOON.", "nsi_id": "unitedstatespostalservice-a77078", "operator": "United States Postal Service", "operator:short": "USPS", "operator:type": "public", "operator:wikidata": "Q668687", "ref": "4986800001"}, "type": "Feature"}
{"geometry": {"coordinates": [-85.507886, 46.35491], "type": "Point"}, "id": "hS4Hap689G19Eo9EbWl1Knmk-OQ=", "properties": {"@source_uri": "https://tools.usps.com/UspsToolsRestServices/rest/POLocator/findLocations", "@spider": "usps_collection_boxes", "addr:city": "NEWBERRY", "addr:country": "US", "addr:postcode": "49868", "addr:state": "MI", "addr:street_address": "216 E JOHN ST", "amenity": "post_box", "collection_times": "Mo-Fr 16:00; Sa 12:30", "note": "ON 12/24 AND 12/31, THIS BOX MAY BE COLLECTED AS EARLY AS 12 NOON.", "nsi_id": "unitedstatespostalservice-a77078", "operator": "United States Postal Service", "operator:short": "USPS", "operator:type": "public", "operator:wikidata": "Q668687", "ref": "4986800002"}, "type": "Feature"}
{"geometry": {"coordinates": [-85.5100383, 46.353094], "type": "Point"}, "id": "ZntyFtmKEv-CEQfZYYdHYUXVYPs=", "properties": {"@source_uri": "https://tools.usps.com/UspsToolsRestServices/rest/POLocator/findLocations", "@spider": "usps_collection_boxes", "addr:city": "NEWBERRY", "addr:country": "US", "addr:postcode": "49868", "addr:state": "MI", "addr:street_address": "414 NEWBERRY AVE", "amenity": "post_box", "collection_times": "Mo-Sa 14:30", "note": "ON 12/24 AND 12/31, THIS BOX MAY BE COLLECTED AS EARLY AS 12 NOON.", "nsi_id": "unitedstatespostalservice-a77078", "operator": "United States Postal Service", "operator:short": "USPS", "operator:type": "public", "operator:wikidata": "Q668687", "ref": "4986800003"}, "type": "Feature"}
{"geometry": {"coordinates": [-85.5080013, 46.336653], "type": "Point"}, "id": "DE2pvDeVE7PsMod6cOUlVnUQ04s=", "properties": {"@source_uri": "https://tools.usps.com/UspsToolsRestServices/rest/POLocator/findLocations", "@spider": "usps_collection_boxes", "addr:city": "NEWBERRY", "addr:country": "US", "addr:postcode": "49868", "addr:state": "MI", "addr:street_address": "7296 STATE HIGHWAY M123", "amenity": "post_box", "collection_times": "Mo-Sa 14:30", "note": "ON 12/24 AND 12/31, THIS BOX MAY BE COLLECTED AS EARLY AS 12 NOON.", "nsi_id": "unitedstatespostalservice-a77078", "operator": "United States Postal Service", "operator:short": "USPS", "operator:type": "public", "operator:wikidata": "Q668687", "ref": "4986800004"}, "type": "Feature"}
{"geometry": {"coordinates": [-85.507886, 46.35491], "type": "Point"}, "id": "Xfl0053lYA9RAdfzga6XBoLrRkw=", "properties": {"@source_uri": "https://tools.usps.com/UspsToolsRestServices/rest/POLocator/findLocations", "@spider": "usps_collection_boxes", "addr:city": "NEWBERRY", "addr:country": "US", "addr:postcode": "49868", "addr:state": "MI", "addr:street_address": "216 E JOHN ST", "amenity": "post_box", "collection_times": "Mo-Fr 16:00; Sa 12:30", "indoor": "yes", "note": "ON 12/24 AND 12/31, THIS BOX MAY BE COLLECTED AS EARLY AS 12 NOON.", "nsi_id": "unitedstatespostalservice-a77078", "operator": "United States Postal Service", "operator:short": "USPS", "operator:type": "public", "operator:wikidata": "Q668687", "ref": "4986800005"}, "type": "Feature"}
{"geometry": {"coordinates": [-85.507930386, 46.354852789], "type": "Point"}, "id": "rMfnLazeEuvZ6UXXAT8LZFEcb0I=", "properties": {"@source_uri": "https://tools.usps.com/UspsToolsRestServices/rest/POLocator/findLocations", "@spider": "usps_collection_boxes", "addr:city": "NEWBERRY", "addr:country": "US", "addr:postcode": "49868", "addr:state": "MI", "addr:street_address": "216 E JOHN ST", "amenity": "post_box", "collection_times": "Mo-Fr 16:00; Sa 12:30", "indoor": "yes", "note": "ON 12/24 AND 12/31, THIS BOX MAY BE COLLECTED AS EARLY AS 12 NOON.", "nsi_id": "unitedstatespostalservice-a77078", "operator": "United States Postal Service", "operator:short": "USPS", "operator:type": "public", "operator:wikidata": "Q668687", "ref": "4986800006"}, "type": "Feature"}
{"geometry": {"coordinates": [-87.907370348, 45.785160223], "type": "Point"}, "id": "DwBa9g2u2dCtjWUXtLsqUWH4Ofs=", "properties": {"@source_uri": "https://tools.usps.com/UspsToolsRestServices/rest/POLocator/findLocations", "@spider": "usps_collection_boxes", "addr:city": "NORWAY", "addr:country": "US", "addr:postcode": "49870", "addr:state": "MI", "addr:street_address": "520 MAIN ST", "amenity": "post_box", "collection_times": "Mo-Fr 16:30; Sa 10:00", "note": "ON 12/24 AND 12/31, THIS BOX MAY BE COLLECTED AS EARLY AS 12 NOON.", "nsi_id": "unitedstatespostalservice-a77078", "operator": "United States Postal Service", "operator:short": "USPS", "operator:type": "public", "operator:wikidata": "Q668687", "ref": "4987000000"}, "type": "Feature"}
{"geometry": {"coordinates": [-87.8991934, 45.787241], "type": "Point"}, "id": "fXVTmKtP3RB5lVO0j9YXf-kUTtM=", "properties": {"@source_uri": "https://tools.usps.com/UspsToolsRestServices/rest/POLocator/findLocations", "@spider": "usps_collection_boxes", "addr:city": "NORWAY", "addr:country": "US", "addr:postcode": "49870", "addr:state": "MI", "addr:street_address": "1102 E 7TH AVE", "amenity": "post_box", "collection_times": "Mo-Sa 12:00", "nsi_id": "unitedstatespostalservice-a77078", "operator": "United States Postal Service", "operator:short": "USPS", "operator:type": "public", "operator:wikidata": "Q668687", "ref": "4987000002"}, "type": "Feature"}
{"geometry": {"coordinates": [-87.9075428, 45.787148], "type": "Point"}, "id": "BIORP01CQJx2KOjciaO0cWUYku8=", "properties": {"@source_uri": "https://tools.usps.com/UspsToolsRestServices/rest/POLocator/findLocations", "@spider": "usps_collection_boxes", "addr:city": "NORWAY", "addr:country": "US", "addr:postcode": "49870", "addr:state": "MI", "addr:street_address": "645 MAIN ST", "amenity": "post_box", "collection_times": "Mo-Sa 13:00", "note": "ON 12/24 AND 12/31, THIS BOX MAY BE COLLECTED AS EARLY AS 12 NOON.", "nsi_id": "unitedstatespostalservice-a77078", "operator": "United States Postal Service", "operator:short": "USPS", "operator:type": "public", "operator:wikidata": "Q668687", "ref": "4987000005"}, "type": "Feature"}
{"geometry": {"coordinates": [-87.907370348, 45.785160223], "type": "Point"}, "id": "cg0MkwmBqiQmxLQVoAnon6TOwnY=", "properties": {"@source_uri": "https://tools.usps.com/UspsToolsRestServices/rest/POLocator/findLocations", "@spider": "usps_collection_boxes", "addr:city": "NORWAY", "addr:country": "US", "addr:postcode": "49870", "addr:state": "MI", "addr:street_address": "520 MAIN ST", "amenity": "post_box", "collection_times": "Mo-Fr 16:30; Sa 10:00", "indoor": "yes", "note": "ON 12/24 AND 12/31, THIS BOX MAY BE COLLECTED AS EARLY AS 12 NOON.", "nsi_id": "unitedstatespostalservice-a77078", "operator": "United States Postal Service", "operator:short": "USPS", "operator:type": "public", "operator:wikidata": "Q668687", "ref": "4987000009"}, "type": "Feature"}
{"geometry": {"coordinates": [-87.907370348, 45.785160223], "type": "Point"}, "id": "Dp8Dr2-ETEEnbodJQr5qRKeYLNM=", "properties": {"@source_uri": "https://tools.usps.com/UspsToolsRestServices/rest/POLocator/findLocations", "@spider": "usps_collection_boxes", "addr:city": "NORWAY", "addr:country": "US", "addr:postcode": "49870", "addr:state": "MI", "addr:street_address": "520 MAIN ST", "amenity": "post_box", "collection_times": "Mo-Fr 16:30; Sa 10:00", "indoor": "yes", "note": "ON 12/24 AND 12/31, THIS BOX MAY BE COLLECTED AS EARLY AS 12 NOON.", "nsi_id": "unitedstatespostalservice-a77078", "operator": "United States Postal Service", "operator:short": "USPS", "operator:type": "public", "operator:wikidata": "Q668687", "ref": "4987000010"}, "type": "Feature"}
{"geometry": {"coordinates": [-87.907370348, 45.785160223], "type": "Point"}, "id": "VcLRoLmeSLKAm21Fcp4dJmooB04=", "properties": {"@source_uri": "https://tools.usps.com/UspsToolsRestServices/rest/POLocator/findLocations", "@spider": "usps_collection_boxes", "addr:city": "NORWAY", "addr:country": "US", "addr:postcode": "49870", "addr:state": "MI", "addr:street_address": "520 MAIN ST", "amenity": "post_box", "collection_times": "Mo-Fr 16:00; Sa 10:30", "indoor": "yes", "note": "ON 12/24 AND 12/31, THIS BOX MAY BE COLLECTED AS EARLY AS 12 NOON.", "nsi_id": "unitedstatespostalservice-a77078", "operator": "United States Postal Service", "operator:short": "USPS", "operator:type": "public", "operator:wikidata": "Q668687", "ref": "4987000011"}, "type": "Feature"}
{"geometry": {"coordinates": [-87.593298, 46.440826], "type": "Point"}, "id": "nHlJW14e_c9TzzfVdrL2XnHTb2I=", "properties": {"@source_uri": "https://tools.usps.com/UspsToolsRestServices/rest/POLocator/findLocations", "@spider": "usps_collection_boxes", "addr:city": "PALMER", "addr:country": "US", "addr:postcode": "49871", "addr:state": "MI", "addr:street_address": "100 NICHOLAS AVE", "amenity": "post_box", "collection_times": "Mo-Fr 16:30; Sa 14:00", "note": "ON 12/24 AND 12/31, THIS BOX MAY BE COLLECTED AS EARLY AS 12 NOON.", "nsi_id": "unitedstatespostalservice-a77078", "operator": "United States Postal Service", "operator:short": "USPS", "operator:type": "public", "operator:wikidata": "Q668687", "ref": "4987100000"}, "type": "Feature"}
{"geometry": {"coordinates": [-87.593429, 46.440799], "type": "Point"}, "id": "g-IHxRDJc1k7xqTxZgcfXu6WPno=", "properties": {"@source_uri": "https://tools.usps.com/UspsToolsRestServices/rest/POLocator/findLocations", "@spider": "usps_collection_boxes", "addr:city": "PALMER", "addr:country": "US", "addr:postcode": "49871", "addr:state": "MI", "addr:street_address": "100 NICHOLAS AVE", "amenity": "post_box", "collection_times": "Mo-Fr 16:30; Sa 14:00", "indoor": "yes", "note": "ON 12/24 AND 12/31, THIS BOX MAY BE COLLECTED AS EARLY AS 12 NOON.", "nsi_id": "unitedstatespostalservice-a77078", "operator": "United States Postal Service", "operator:short": "USPS", "operator:type": "public", "operator:wikidata": "Q668687", "ref": "4987100001"}, "type": "Feature"}
{"geometry": {"coordinates": [-87.593229807, 46.440821482], "type": "Point"}, "id": "T0Lj5S51ZHk2NdBSSGHX9WxsVXA=", "properties": {"@source_uri": "https://tools.usps.com/UspsToolsRestServices/rest/POLocator/findLocations", "@spider": "usps_collection_boxes", "addr:city": "PALMER", "addr:country": "US", "addr:postcode": "49871", "addr:state": "MI", "addr:street_address": "100 NICHOLAS AVE", "amenity": "post_box", "collection_times": "Mo-Fr 16:00; Sa 13:30", "indoor": "yes", "note": "ON 12/24 AND 12/31, THIS BOX MAY BE COLLECTED AS EARLY AS 12 NOON.", "nsi_id": "unitedstatespostalservice-a77078", "operator": "United States Postal Service", "operator:short": "USPS", "operator:type": "public", "operator:wikidata": "Q668687", "ref": "4987100002"}, "type": "Feature"}
{"geometry": {"coordinates": [-87.071088, 45.977755], "type": "Point"}, "id": "wWY_k4I0knDeIpJa4lnI04YJgqA=", "properties": {"@source_uri": "https://tools.usps.com/UspsToolsRestServices/rest/POLocator/findLocations", "@spider": "usps_collection_boxes", "addr:city": "PERKINS", "addr:country": "US", "addr:postcode": "49872", "addr:state": "MI", "addr:street_address": "11892 STATE HIGHWAY M35", "amenity": "post_box", "collection_times": "Mo-Fr 16:00; Sa 10:45", "note": "ON 12/24 AND 12/31, THIS BOX MAY BE COLLECTED AS EARLY AS 12 NOON.", "nsi_id": "unitedstatespostalservice-a77078", "operator": "United States Postal Service", "operator:short": "USPS", "operator:type": "public", "operator:wikidata": "Q668687", "ref": "4987200000"}, "type": "Feature"}
{"geometry": {"coordinates": [-87.071088, 45.977755], "type": "Point"}, "id": "eaU61eJpOdcD3bEA4Cnx9ItUfHw=", "properties": {"@source_uri": "https://tools.usps.com/UspsToolsRestServices/rest/POLocator/findLocations", "@spider": "usps_collection_boxes", "addr:city": "PERKINS", "addr:country": "US", "addr:postcode": "49872", "addr:state": "MI", "addr:street_address": "11892 STATE HIGHWAY M35", "amenity": "post_box", "collection_times": "Mo-Fr 16:00; Sa 10:45", "indoor": "yes", "note": "ON 12/24 AND 12/31, THIS BOX MAY BE COLLECTED AS EARLY AS 12 NOON.", "nsi_id": "unitedstatespostalservice-a77078", "operator": "United States Postal Service", "operator:short": "USPS", "operator:type": "public", "operator:wikidata": "Q668687", "ref": "4987200001"}, "type": "Feature"}
{"geometry": {"coordinates": [-87.071075111, 45.977781924], "type": "Point"}, "id": "1ZVHyHLmDzLAYSrNmbN_3xhVNQ4=", "properties": {"@source_uri": "https://tools.usps.com/UspsToolsRestServices/rest/POLocator/findLocations", "@spider": "usps_collection_boxes", "addr:city": "PERKINS", "addr:country": "US", "addr:postcode": "49872", "addr:state": "MI", "addr:street_address": "11892 STATE HIGHWAY M35", "amenity": "post_box", "collection_times": "Mo-Fr 15:30; Sa 13:45", "indoor": "yes", "note": "ON 12/24 AND 12/31, THIS BOX MAY BE COLLECTED AS EARLY AS 12 NOON.", "nsi_id": "unitedstatespostalservice-a77078", "operator": "United States Postal Service", "operator:short": "USPS", "operator:type": "public", "operator:wikidata": "Q668687", "ref": "4987200002"}, "type": "Feature"}
{"geometry": {"coordinates": [-87.3529183, 45.798295], "type": "Point"}, "id": "SY88034yx5axBZS0wGIlZaOXkOo=", "properties": {"@source_uri": "https://tools.usps.com/UspsToolsRestServices/rest/POLocator/findLocations", "@spider": "usps_collection_boxes", "addr:city": "PERRONVILLE", "addr:country": "US", "addr:postcode": "49873", "addr:state": "MI", "addr:street_address": "W625 STATE HIGHWAY M69", "amenity": "post_box", "collection_times": "Mo-Fr 12:00; Sa 10:45", "nsi_id": "unitedstatespostalservice-a77078", "operator": "United States Postal Service", "operator:short": "USPS", "operator:type": "public", "operator:wikidata": "Q668687", "ref": "4987300000"}, "type": "Feature"}
{"geometry": {"coordinates": [-87.633493, 45.942158], "type": "Point"}, "id": "Ip1LsZAWJScE1fY7zEZmOaFourI=", "properties": {"@source_uri": "https://tools.usps.com/UspsToolsRestServices/rest/POLocator/findLocations", "@spider": "usps_collection_boxes", "addr:city": "PERRONVILLE", "addr:country": "US", "addr:postcode": "49873", "addr:state": "MI", "addr:street_address": "W625 STATE HIGHWAY M69", "amenity": "post_box", "collection_times": "Mo-Fr 12:00; Sa 10:45", "indoor": "yes", "nsi_id": "unitedstatespostalservice-a77078", "operator": "United States Postal Service", "operator:short": "USPS", "operator:type": "public", "operator:wikidata": "Q668687", "ref": "4987300001"}, "type": "Feature"}
{"geometry": {"coordinates": [-87.352296329, 45.79806782], "type": "Point"}, "id": "skHU9Zo5c8NwBd54f-BbC9tFYr0=", "properties": {"@source_uri": "https://tools.usps.com/UspsToolsRestServices/rest/POLocator/findLocations", "@spider": "usps_collection_boxes", "addr:city": "PERRONVILLE", "addr:country": "US", "addr:postcode": "49873", "addr:state": "MI", "addr:street_address": "W625 STATE HIGHWAY M69", "amenity": "post_box", "collection_times": "Mo-Sa 11:30", "indoor": "yes", "nsi_id": "unitedstatespostalservice-a77078", "operator": "United States Postal Service", "operator:short": "USPS", "operator:type": "public", "operator:wikidata": "Q668687", "ref": "4987300002"}, "type": "Feature"}
{"geometry": {"coordinates": [-87.516772, 45.693051], "type": "Point"}, "id": "9C6UvF1fXyK4fBLg4ajiT-o9hkE=", "properties": {"@source_uri": "https://tools.usps.com/UspsToolsRestServices/rest/POLocator/findLocations", "@spider": "usps_collection_boxes", "addr:city": "POWERS", "addr:country": "US", "addr:postcode": "49874", "addr:state": "MI", "addr:street_address": "W3804 US HIGHWAY 2/41", "amenity": "post_box", "collection_times": "Mo-Fr 15:00; Sa 10:00", "note": "ON 12/24 AND 12/31, THIS BOX MAY BE COLLECTED AS EARLY AS 12 NOON.", "nsi_id": "unitedstatespostalservice-a77078", "operator": "United States Postal Service", "operator:short": "USPS", "operator:type": "public", "operator:wikidata": "Q668687", "ref": "4987400000"}, "type": "Feature"}
{"geometry": {"coordinates": [-87.516772, 45.693051], "type": "Point"}, "id": "-zsoJqYRuHvn64Kcxhoa2_UD0Gk=", "properties": {"@source_uri": "https://tools.usps.com/UspsToolsRestServices/rest/POLocator/findLocations", "@spider": "usps_collection_boxes", "addr:city": "POWERS", "addr:country": "US", "addr:postcode": "49874", "addr:state": "MI", "addr:street_address": "W3804 US HIGHWAY 2/41", "amenity": "post_box", "collection_times": "Mo-Fr 15:00; Sa 10:00", "indoor": "yes", "note": "ON 12/24 AND 12/31, THIS BOX MAY BE COLLECTED AS EARLY AS 12 NOON.", "nsi_id": "unitedstatespostalservice-a77078", "operator": "United States Postal Service", "operator:short": "USPS", "operator:type": "public", "operator:wikidata": "Q668687", "ref": "4987400001"}, "type": "Feature"}
{"geometry": {"coordinates": [-87.5162930244, 45.6932175861], "type": "Point"}, "id": "8ndKgVA2AY0XHmmHVsHRMO0vTkI=", "properties": {"@source_uri": "https://tools.usps.com/UspsToolsRestServices/rest/POLocator/findLocations", "@spider": "usps_collection_boxes", "addr:city": "POWERS", "addr:country": "US", "addr:postcode": "49874", "addr:state": "MI", "addr:street_address": "W3804 US HIGHWAY 2/41", "amenity": "post_box", "collection_times": "Mo-Fr 15:00; Sa 09:15", "indoor": "yes", "note": "ON 12/24 AND 12/31, THIS BOX MAY BE COLLECTED AS EARLY AS 12 NOON.", "nsi_id": "unitedstatespostalservice-a77078", "operator": "United States Postal Service", "operator:short": "USPS", "operator:type": "public", "operator:wikidata": "Q668687", "ref": "4987400002"}, "type": "Feature"}
{"geometry": {"coordinates": [-87.988427, 45.8063], "type": "Point"}, "id": "YMDCyp7j4V_LuYrYglScihznh-M=", "properties": {"@source_uri": "https://tools.usps.com/UspsToolsRestServices/rest/POLocator/findLocations", "@spider": "usps_collection_boxes", "addr:city": "QUINNESEC", "addr:country": "US", "addr:postcode": "49876", "addr:state": "MI", "addr:street_address": "1214 QUINNESEC ST", "amenity": "post_box", "collection_times": "Mo-Fr 16:15; Sa 10:00", "note": "ON 12/24 AND 12/31, THIS BOX MAY BE COLLECTED AS EARLY AS 12 NOON.", "nsi_id": "unitedstatespostalservice-a77078", "operator": "United States Postal Service", "operator:short": "USPS", "operator:type": "public", "operator:wikidata": "Q668687", "ref": "4987600000"}, "type": "Feature"}
{"geometry": {"coordinates": [-87.988427, 45.8063], "type": "Point"}, "id": "_mX6xGWbzuJVtmP-C78vz6KoBIw=", "properties": {"@source_uri": "https://tools.usps.com/UspsToolsRestServices/rest/POLocator/findLocations", "@spider": "usps_collection_boxes", "addr:city": "QUINNESEC", "addr:country": "US", "addr:postcode": "49876", "addr:state": "MI", "addr:street_address": "1214 QUINNESEC ST", "amenity": "post_box", "collection_times": "Mo-Fr 16:15; Sa 10:00", "indoor": "yes", "note": "ON 12/24 AND 12/31, THIS BOX MAY BE COLLECTED AS EARLY AS 12 NOON.", "nsi_id": "unitedstatespostalservice-a77078", "operator": "United States Postal Service", "operator:short": "USPS", "operator:type": "public", "operator:wikidata": "Q668687", "ref": "4987600001"}, "type": "Feature"}
{"geometry": {"coordinates": [-87.988359455, 45.804332258], "type": "Point"}, "id": "zB9o2rgSpcO88tHzQ-pOvKg-v0c=", "properties": {"@source_uri": "https://tools.usps.com/UspsToolsRestServices/rest/POLocator/findLocations", "@spider": "usps_collection_boxes", "addr:city": "QUINNESEC", "addr:country": "US", "addr:postcode": "49876", "addr:state": "MI", "addr:street_address": "1214 QUINNESEC ST", "amenity": "post_box", "collection_times": "Mo-Fr 15:45; Sa 09:30", "indoor": "yes", "note": "ON 12/24 AND 12/31, THIS BOX MAY BE COLLECTED AS EARLY AS 12 NOON.", "nsi_id": "unitedstatespostalservice-a77078", "operator": "United States Postal Service", "operator:short": "USPS", "operator:type": "public", "operator:wikidata": "Q668687", "ref": "4987600003"}, "type": "Feature"}
{"geometry": {"coordinates": [-86.967133, 45.925469], "type": "Point"}, "id": "OgriGFQZQjRYRdIAXUTeTSGw5k4=", "properties": {"@source_uri": "https://tools.usps.com/UspsToolsRestServices/rest/POLocator/findLocations", "@spider": "usps_collection_boxes", "addr:city": "RAPID RIVER", "addr:country": "US", "addr:postcode": "49878", "addr:state": "MI", "addr:street_address": "10467 S MAIN ST", "amenity": "post_box", "collection_times": "Mo-Fr 16:00; Sa 11:30", "note": "ON 12/24 AND 12/31, THIS BOX MAY BE COLLECTED AS EARLY AS 12 NOON.", "nsi_id": "unitedstatespostalservice-a77078", "operator": "United States Postal Service", "operator:short": "USPS", "operator:type": "public", "operator:wikidata": "Q668687", "ref": "4987800000"}, "type": "Feature"}
{"geometry": {"coordinates": [-86.9758076, 45.927488], "type": "Point"}, "id": "OMxDvxxkSLHdac3Fjs9IJbKttfY=", "properties": {"@source_uri": "https://tools.usps.com/UspsToolsRestServices/rest/POLocator/findLocations", "@spider": "usps_collection_boxes", "addr:city": "RAPID RIVER", "addr:country": "US", "addr:postcode": "49878", "addr:state": "MI", "addr:street_address": "7668 US HIGHWAY 2", "amenity": "post_box", "collection_times": "Mo-Sa 09:45", "nsi_id": "unitedstatespostalservice-a77078", "operator": "United States Postal Service", "operator:short": "USPS", "operator:type": "public", "operator:wikidata": "Q668687", "ref": "4987800001"}, "type": "Feature"}
{"geometry": {"coordinates": [-86.967133, 45.925469], "type": "Point"}, "id": "rTpXcnfhdq4uFJvNWRi8PMNkKFE=", "properties": {"@source_uri": "https://tools.usps.com/UspsToolsRestServices/rest/POLocator/findLocations", "@spider": "usps_collection_boxes", "addr:city": "RAPID RIVER", "addr:country": "US", "addr:postcode": "49878", "addr:state": "MI", "addr:street_address": "10467 S MAIN ST", "amenity": "post_box", "collection_times": "Mo-Fr 16:00; Sa 11:30", "indoor": "yes", "note": "ON 12/24 AND 12/31, THIS BOX MAY BE COLLECTED AS EARLY AS 12 NOON.", "nsi_id": "unitedstatespostalservice-a77078", "operator": "United States Postal Service", "operator:short": "USPS", "operator:type": "public", "operator:wikidata": "Q668687", "ref": "4987800002"}, "type": "Feature"}
{"geometry": {"coordinates": [-86.967154732, 45.925491605], "type": "Point"}, "id": "K8ITCly-C82X1micnRjYGn7P6r8=", "properties": {"@source_uri": "https://tools.usps.com/UspsToolsRestServices/rest/POLocator/findLocations", "@spider": "usps_collection_boxes", "addr:city": "RAPID RIVER", "addr:country": "US", "addr:postcode": "49878", "addr:state": "MI", "addr:street_address": "10467 S MAIN ST", "amenity": "post_box", "collection_times": "Mo-Fr 16:00; Sa 11:00", "indoor": "yes", "note": "ON 12/24 AND 12/31, THIS BOX MAY BE COLLECTED AS EARLY AS 12 NOON.", "nsi_id": "unitedstatespostalservice-a77078", "operator": "United States Postal Service", "operator:short": "USPS", "operator:type": "public", "operator:wikidata": "Q668687", "ref": "4987800003"}, "type": "Feature"}
{"geometry": {"coordinates": [-87.978644, 46.407017], "type": "Point"}, "id": "VzcDaLJcmcyHwF90x-DEFzkSigA=", "properties": {"@source_uri": "https://tools.usps.com/UspsToolsRestServices/rest/POLocator/findLocations", "@spider": "usps_collection_boxes", "addr:city": "REPUBLIC", "addr:country": "US", "addr:postcode": "49879", "addr:state": "MI", "addr:street_address": "415 2ND ST", "amenity": "post_box", "collection_times": "Mo-Fr 14:45; Sa 10:00", "note": "ON 12/24 AND 12/31, THIS BOX MAY BE COLLECTED AS EARLY AS 12 NOON.", "nsi_id": "unitedstatespostalservice-a77078", "operator": "United States Postal Service", "operator:short": "USPS", "operator:type": "public", "operator:wikidata": "Q668687", "ref": "4987900000"}, "type": "Feature"}
{"geometry": {"coordinates": [-87.978644, 46.407017], "type": "Point"}, "id": "50fiw5jKzdrvuHXzC-MwS5d7Bjg=", "properties": {"@source_uri": "https://tools.usps.com/UspsToolsRestServices/rest/POLocator/findLocations", "@spider": "usps_collection_boxes", "addr:city": "REPUBLIC", "addr:country": "US", "addr:postcode": "49879", "addr:state": "MI", "addr:street_address": "415 2ND ST", "amenity": "post_box", "collection_times": "Mo-Fr 14:45; Sa 10:00", "indoor": "yes", "note": "ON 12/24 AND 12/31, THIS BOX MAY BE COLLECTED AS EARLY AS 12 NOON.", "nsi_id": "unitedstatespostalservice-a77078", "operator": "United States Postal Service", "operator:short": "USPS", "operator:type": "public", "operator:wikidata": "Q668687", "ref": "4987900001"}, "type": "Feature"}
{"geometry": {"coordinates": [-87.978592316, 46.407829256], "type": "Point"}, "id": "hluhSS6nYkjVqXlfJ-Yv2OHAL9w=", "properties": {"@source_uri": "https://tools.usps.com/UspsToolsRestServices/rest/POLocator/findLocations", "@spider": "usps_collection_boxes", "addr:city": "REPUBLIC", "addr:country": "US", "addr:postcode": "49879", "addr:state": "MI", "addr:street_address": "415 2ND ST", "amenity": "post_box", "collection_times": "Mo-Fr 14:30; Sa 09:30", "indoor": "yes", "note": "ON 12/24 AND 12/31, THIS BOX MAY BE COLLECTED AS EARLY AS 12 NOON.", "nsi_id": "unitedstatespostalservice-a77078", "operator": "United States Postal Service", "operator:short": "USPS", "operator:type": "public", "operator:wikidata": "Q668687", "ref": "4987900003"}, "type": "Feature"}
{"geometry": {"coordinates": [-87.166972, 46.068536], "type": "Point"}, "id": "o9PCf0ynKhpiHNYzigrOVqSZfKw=", "properties": {"@source_uri": "https://tools.usps.com/UspsToolsRestServices/rest/POLocator/findLocations", "@spider": "usps_collection_boxes", "addr:city": "ROCK", "addr:country": "US", "addr:postcode": "49880", "addr:state": "MI", "addr:street_address": "3980 W MAPLE RIDGE 37TH RD", "amenity": "post_box", "collection_times": "Mo-Fr 14:15; Sa 10:00", "note": "ON 12/24 AND 12/31, THIS BOX MAY BE COLLECTED AS EARLY AS 12 NOON.", "nsi_id": "unitedstatespostalservice-a77078", "operator": "United States Postal Service", "operator:short": "USPS", "operator:type": "public", "operator:wikidata": "Q668687", "ref": "4988000000"}, "type": "Feature"}
{"geometry": {"coordinates": [-87.166972, 46.068536], "type": "Point"}, "id": "070QeJ0e2gCl4o_d5B3KPYU_aAE=", "properties": {"@source_uri": "https://tools.usps.com/UspsToolsRestServices/rest/POLocator/findLocations", "@spider": "usps_collection_boxes", "addr:city": "ROCK", "addr:country": "US", "addr:postcode": "49880", "addr:state": "MI", "addr:street_address": "3980 W MAPLE RIDGE 37TH RD", "amenity": "post_box", "collection_times": "Mo-Fr 11:15; Sa 10:00", "indoor": "yes", "nsi_id": "unitedstatespostalservice-a77078", "operator": "United States Postal Service", "operator:short": "USPS", "operator:type": "public", "operator:wikidata": "Q668687", "ref": "4988000001"}, "type": "Feature"}
{"geometry": {"coordinates": [-87.1669130867, 46.0685295149], "type": "Point"}, "id": "mTHS5_qcOaE7LyjSzk0WIqLkwLk=", "properties": {"@source_uri": "https://tools.usps.com/UspsToolsRestServices/rest/POLocator/findLocations", "@spider": "usps_collection_boxes", "addr:city": "ROCK", "addr:country": "US", "addr:postcode": "49880", "addr:state": "MI", "addr:street_address": "3980 W MAPLE RIDGE 37TH RD", "amenity": "post_box", "collection_times": "Mo-Fr 13:30; Sa 09:30", "indoor": "yes", "note": "ON 12/24 AND 12/31, THIS BOX MAY BE COLLECTED AS EARLY AS 12 NOON.", "nsi_id": "unitedstatespostalservice-a77078", "operator": "United States Postal Service", "operator:short": "USPS", "operator:type": "public", "operator:wikidata": "Q668687", "ref": "4988000003"}, "type": "Feature"}
{"geometry": {"coordinates": [-88.0790961, 46.088085], "type": "Point"}, "id": "Ljd6ehc4fUIRrfVs4NlG9-KJVv8=", "properties": {"@source_uri": "https://tools.usps.com/UspsToolsRestServices/rest/POLocator/findLocations", "@spider": "usps_collection_boxes", "addr:city": "SAGOLA", "addr:country": "US", "addr:postcode": "49881", "addr:state": "MI", "addr:street_address": "302 1ST ST", "amenity": "post_box", "collection_times": "Mo-Fr 16:00; Sa 10:30", "note": "ON 12/24 AND 12/31, THIS BOX MAY BE COLLECTED AS EARLY AS 12 NOON.", "nsi_id": "unitedstatespostalservice-a77078", "operator": "United States Postal Service", "operator:short": "USPS", "operator:type": "public", "operator:wikidata": "Q668687", "ref": "4988100000"}, "type": "Feature"}
{"geometry": {"coordinates": [-88.0790916, 46.088069], "type": "Point"}, "id": "OyjmJ9Whh4N3zPBZzm86k9My4mE=", "properties": {"@source_uri": "https://tools.usps.com/UspsToolsRestServices/rest/POLocator/findLocations", "@spider": "usps_collection_boxes", "addr:city": "SAGOLA", "addr:country": "US", "addr:postcode": "49881", "addr:state": "MI", "addr:street_address": "302 1ST ST", "amenity": "post_box", "collection_times": "Mo-Fr 16:00; Sa 10:30", "indoor": "yes", "note": "ON 12/24 AND 12/31, THIS BOX MAY BE COLLECTED AS EARLY AS 12 NOON.", "nsi_id": "unitedstatespostalservice-a77078", "operator": "United States Postal Service", "operator:short": "USPS", "operator:type": "public", "operator:wikidata": "Q668687", "ref": "4988100001"}, "type": "Feature"}
{"geometry": {"coordinates": [-88.078892057, 46.088425927], "type": "Point"}, "id": "9QXAuk0L1nf8q_6MBG5DmVA4ZfI=", "properties": {"@source_uri": "https://tools.usps.com/UspsToolsRestServices/rest/POLocator/findLocations", "@spider": "usps_collection_boxes", "addr:city": "SAGOLA", "addr:country": "US", "addr:postcode": "49881", "addr:state": "MI", "addr:street_address": "302 1ST ST", "amenity": "post_box", "collection_times": "Mo-Fr 15:30; Sa 11:45", "indoor": "yes", "note": "ON 12/24 AND 12/31, THIS BOX MAY BE COLLECTED AS EARLY AS 12 NOON.", "nsi_id": "unitedstatespostalservice-a77078", "operator": "United States Postal Service", "operator:short": "USPS", "operator:type": "public", "operator:wikidata": "Q668687", "ref": "4988100002"}, "type": "Feature"}
{"geometry": {"coordinates": [-85.9447916, 46.345189], "type": "Point"}, "id": "kB4Czd-QbWuRMiHmyNq7XouXvrI=", "properties": {"@source_uri": "https://tools.usps.com/UspsToolsRestServices/rest/POLocator/findLocations", "@spider": "usps_collection_boxes", "addr:city": "SENEY", "addr:country": "US", "addr:postcode": "49883", "addr:state": "MI", "addr:street_address": "10790N GRAND ST", "amenity": "post_box", "collection_times": "Mo-Fr 11:45; Sa 10:45", "nsi_id": "unitedstatespostalservice-a77078", "operator": "United States Postal Service", "operator:short": "USPS", "operator:type": "public", "operator:wikidata": "Q668687", "ref": "4988300000"}, "type": "Feature"}
{"geometry": {"coordinates": [-85.944938, 46.345226], "type": "Point"}, "id": "H_YXzJD4qrojaGKJZM8w9-UcFlI=", "properties": {"@source_uri": "https://tools.usps.com/UspsToolsRestServices/rest/POLocator/findLocations", "@spider": "usps_collection_boxes", "addr:city": "SENEY", "addr:country": "US", "addr:postcode": "49883", "addr:state": "MI", "addr:street_address": "10790N GRAND ST", "amenity": "post_box", "collection_times": "Mo-Fr 11:45; Sa 10:45", "indoor": "yes", "nsi_id": "unitedstatespostalservice-a77078", "operator": "United States Postal Service", "operator:short": "USPS", "operator:type": "public", "operator:wikidata": "Q668687", "ref": "4988300001"}, "type": "Feature"}
{"geometry": {"coordinates": [-85.944911589, 46.344856039], "type": "Point"}, "id": "C2b_nKkWr6MBj7QKGArDtQei_wg=", "properties": {"@source_uri": "https://tools.usps.com/UspsToolsRestServices/rest/POLocator/findLocations", "@spider": "usps_collection_boxes", "addr:city": "SENEY", "addr:country": "US", "addr:postcode": "49883", "addr:state": "MI", "addr:street_address": "10790N GRAND ST", "amenity": "post_box", "collection_times": "Mo-Fr 11:30; Sa 10:30", "indoor": "yes", "nsi_id": "unitedstatespostalservice-a77078", "operator": "United States Postal Service", "operator:short": "USPS", "operator:type": "public", "operator:wikidata": "Q668687", "ref": "4988300002"}, "type": "Feature"}
{"geometry": {"coordinates": [-86.469717, 46.347951], "type": "Point"}, "id": "TJcTkubg3HUvFGPmFuTMbcOj4hc=", "properties": {"@source_uri": "https://tools.usps.com/UspsToolsRestServices/rest/POLocator/findLocations", "@spider": "usps_collection_boxes", "addr:city": "SHINGLETON", "addr:country": "US", "addr:postcode": "49884", "addr:state": "MI", "addr:street_address": "E12503 STATE HIGHWAY M28", "amenity": "post_box", "collection_times": "Mo-Fr 16:30; Sa 10:30", "note": "ON 12/24 AND 12/31, THIS BOX MAY BE COLLECTED AS EARLY AS 12 NOON.", "nsi_id": "unitedstatespostalservice-a77078", "operator": "United States Postal Service", "operator:short": "USPS", "operator:type": "public", "operator:wikidata": "Q668687", "ref": "4988400000"}, "type": "Feature"}
{"geometry": {"coordinates": [-86.469717, 46.347951], "type": "Point"}, "id": "dwjcQjNK_o2IpFK1Xz8GMuMIGpw=", "properties": {"@source_uri": "https://tools.usps.com/UspsToolsRestServices/rest/POLocator/findLocations", "@spider": "usps_collection_boxes", "addr:city": "SHINGLETON", "addr:country": "US", "addr:postcode": "49884", "addr:state": "MI", "addr:street_address": "E12503 STATE HIGHWAY M28", "amenity": "post_box", "collection_times": "Mo-Fr 16:30; Sa 10:30", "indoor": "yes", "note": "ON 12/24 AND 12/31, THIS BOX MAY BE COLLECTED AS EARLY AS 12 NOON.", "nsi_id": "unitedstatespostalservice-a77078", "operator": "United States Postal Service", "operator:short": "USPS", "operator:type": "public", "operator:wikidata": "Q668687", "ref": "4988400001"}, "type": "Feature"}
{"geometry": {"coordinates": [-86.469759197, 46.347891381], "type": "Point"}, "id": "xr8WASku-9i8SWRx9depUajKoEw=", "properties": {"@source_uri": "https://tools.usps.com/UspsToolsRestServices/rest/POLocator/findLocations", "@spider": "usps_collection_boxes", "addr:city": "SHINGLETON", "addr:country": "US", "addr:postcode": "49884", "addr:state": "MI", "addr:street_address": "E12503 STATE HIGHWAY M28", "amenity": "post_box", "collection_times": "Mo-Fr 16:00; Sa 10:15", "indoor": "yes", "note": "ON 12/24 AND 12/31, THIS BOX MAY BE COLLECTED AS EARLY AS 12 NOON.", "nsi_id": "unitedstatespostalservice-a77078", "operator": "United States Postal Service", "operator:short": "USPS", "operator:type": "public", "operator:wikidata": "Q668687", "ref": "4988400002"}, "type": "Feature"}
{"geometry": {"coordinates": [-87.238752539, 46.375261797], "type": "Point"}, "id": "KuZVrKBvvT3B7hdCAIpuW0sTLtM=", "properties": {"@source_uri": "https://tools.usps.com/UspsToolsRestServices/rest/POLocator/findLocations", "@spider": "usps_collection_boxes", "addr:city": "SKANDIA", "addr:country": "US", "addr:postcode": "49885", "addr:state": "MI", "addr:street_address": "224 KREIGER DR", "amenity": "post_box", "collection_times": "Mo-Fr 15:00; Sa 11:00", "note": "ON 12/24 AND 12/31, THIS BOX MAY BE COLLECTED AS EARLY AS 12 NOON.", "nsi_id": "unitedstatespostalservice-a77078", "operator": "United States Postal Service", "operator:short": "USPS", "operator:type": "public", "operator:wikidata": "Q668687", "ref": "4988500000"}, "type": "Feature"}
{"geometry": {"coordinates": [-87.238752539, 46.375261797], "type": "Point"}, "id": "Cv6j7GWyHV5MoBqSJ84DjqWHcKc=", "properties": {"@source_uri": "https://tools.usps.com/UspsToolsRestServices/rest/POLocator/findLocations", "@spider": "usps_collection_boxes", "addr:city": "SKANDIA", "addr:country": "US", "addr:postcode": "49885", "addr:state": "MI", "addr:street_address": "224 KREIGER DR", "amenity": "post_box", "collection_times": "Mo-Fr 15:00; Sa 11:00", "indoor": "yes", "note": "ON 12/24 AND 12/31, THIS BOX MAY BE COLLECTED AS EARLY AS 12 NOON.", "nsi_id": "unitedstatespostalservice-a77078", "operator": "United States Postal Service", "operator:short": "USPS", "operator:type": "public", "operator:wikidata": "Q668687", "ref": "4988500003"}, "type": "Feature"}
{"geometry": {"coordinates": [-87.238752539, 46.375261797], "type": "Point"}, "id": "j1lMX4VMQxMX-0A5uDHKNWWi6Rk=", "properties": {"@source_uri": "https://tools.usps.com/UspsToolsRestServices/rest/POLocator/findLocations", "@spider": "usps_collection_boxes", "addr:city": "SKANDIA", "addr:country": "US", "addr:postcode": "49885", "addr:state": "MI", "addr:street_address": "224 KREIGER DR", "amenity": "post_box", "collection_times": "Mo-Fr 14:30; Sa 10:30", "indoor": "yes", "note": "ON 12/24 AND 12/31, THIS BOX MAY BE COLLECTED AS EARLY AS 12 NOON.", "nsi_id": "unitedstatespostalservice-a77078", "operator": "United States Postal Service", "operator:short": "USPS", "operator:type": "public", "operator:wikidata": "Q668687", "ref": "4988500004"}, "type": "Feature"}
{"geometry": {"coordinates": [-87.512726, 45.696787], "type": "Point"}, "id": "TW6xPjCNVkndN4xnPe-a4pB_wiI=", "properties": {"@source_uri": "https://tools.usps.com/UspsToolsRestServices/rest/POLocator/findLocations", "@spider": "usps_collection_boxes", "addr:city": "SPALDING", "addr:country": "US", "addr:postcode": "49886", "addr:state": "MI", "addr:street_address": "N16118 CEDAR ST", "amenity": "post_box", "collection_times": "Mo-Fr 15:45; Sa 08:45", "note": "ON 12/24 AND 12/31, THIS BOX MAY BE COLLECTED AS EARLY AS 12 NOON.", "nsi_id": "unitedstatespostalservice-a77078", "operator": "United States Postal Service", "operator:short": "USPS", "operator:type": "public", "operator:wikidata": "Q668687", "ref": "4988600000"}, "type": "Feature"}
{"geometry": {"coordinates": [-87.512764, 45.69673], "type": "Point"}, "id": "ZvGqDPY1uvpyshUjd1XVunHcGMo=", "properties": {"@source_uri": "https://tools.usps.com/UspsToolsRestServices/rest/POLocator/findLocations", "@spider": "usps_collection_boxes", "addr:city": "SPALDING", "addr:country": "US", "addr:postcode": "49886", "addr:state": "MI", "addr:street_address": "N16118 CEDAR ST", "amenity": "post_box", "collection_times": "Mo-Fr 15:45; Sa 08:45", "indoor": "yes", "note": "ON 12/24 AND 12/31, THIS BOX MAY BE COLLECTED AS EARLY AS 12 NOON.", "nsi_id": "unitedstatespostalservice-a77078", "operator": "United States Postal Service", "operator:short": "USPS", "operator:type": "public", "operator:wikidata": "Q668687", "ref": "4988600001"}, "type": "Feature"}
{"geometry": {"coordinates": [-87.512706559, 45.696766104], "type": "Point"}, "id": "SjGc5a7XUI0QoFcw40XxfHKX4RM=", "properties": {"@source_uri": "https://tools.usps.com/UspsToolsRestServices/rest/POLocator/findLocations", "@spider": "usps_collection_boxes", "addr:city": "SPALDING", "addr:country": "US", "addr:postcode": "49886", "addr:state": "MI", "addr:street_address": "N16118 CEDAR ST", "amenity": "post_box", "collection_times": "Mo-Fr 15:45; Sa 09:30", "indoor": "yes", "note": "ON 12/24 AND 12/31, THIS BOX MAY BE COLLECTED AS EARLY AS 12 NOON.", "nsi_id": "unitedstatespostalservice-a77078", "operator": "United States Postal Service", "operator:short": "USPS", "operator:type": "public", "operator:wikidata": "Q668687", "ref": "4988600002"}, "type": "Feature"}
{"geometry": {"coordinates": [-87.610754, 45.415314], "type": "Point"}, "id": "UKT-FwcIPlLQ3GXcTAYOoeSjmvw=", "properties": {"@source_uri": "https://tools.usps.com/UspsToolsRestServices/rest/POLocator/findLocations", "@spider": "usps_collection_boxes", "addr:city": "STEPHENSON", "addr:country": "US", "addr:postcode": "49887", "addr:state": "MI", "addr:street_address": "W520 SAMUEL ST", "amenity": "post_box", "collection_times": "Mo-Fr 15:45; Sa 11:00", "note": "ON 12/24 AND 12/31, THIS BOX MAY BE COLLECTED AS EARLY AS 12 NOON.", "nsi_id": "unitedstatespostalservice-a77078", "operator": "United States Postal Service", "operator:short": "USPS", "operator:type": "public", "operator:wikidata": "Q668687", "ref": "4988700000"}, "type": "Feature"}
{"geometry": {"coordinates": [-87.610754, 45.415314], "type": "Point"}, "id": "OXfS16BAbWvi5JDYzkAmkvLQBq0=", "properties": {"@source_uri": "https://tools.usps.com/UspsToolsRestServices/rest/POLocator/findLocations", "@spider": "usps_collection_boxes", "addr:city": "STEPHENSON", "addr:country": "US", "addr:postcode": "49887", "addr:state": "MI", "addr:street_address": "W520 SAMUEL ST", "amenity": "post_box", "collection_times": "Mo-Fr 15:45; Sa 11:00", "indoor": "yes", "note": "ON 12/24 AND 12/31, THIS BOX MAY BE COLLECTED AS EARLY AS 12 NOON.", "nsi_id": "unitedstatespostalservice-a77078", "operator": "United States Postal Service", "operator:short": "USPS", "operator:type": "public", "operator:wikidata": "Q668687", "ref": "4988700002"}, "type": "Feature"}
{"geometry": {"coordinates": [-87.61074879, 45.415367148], "type": "Point"}, "id": "09SgF8yCvop-Lo0cr8wTbNEmXdc=", "properties": {"@source_uri": "https://tools.usps.com/UspsToolsRestServices/rest/POLocator/findLocations", "@spider": "usps_collection_boxes", "addr:city": "STEPHENSON", "addr:country": "US", "addr:postcode": "49887", "addr:state": "MI", "addr:street_address": "W520 SAMUEL ST", "amenity": "post_box", "collection_times": "Mo-Fr 15:30; Sa 10:30", "indoor": "yes", "note": "ON 12/24 AND 12/31, THIS BOX MAY BE COLLECTED AS EARLY AS 12 NOON.", "nsi_id": "unitedstatespostalservice-a77078", "operator": "United States Postal Service", "operator:short": "USPS", "operator:type": "public", "operator:wikidata": "Q668687", "ref": "4988700004"}, "type": "Feature"}
{"geometry": {"coordinates": [-86.965644, 46.195013], "type": "Point"}, "id": "0kXIO5s7NRAywo1AnwEZ8Kqcx1I=", "properties": {"@source_uri": "https://tools.usps.com/UspsToolsRestServices/rest/POLocator/findLocations", "@spider": "usps_collection_boxes", "addr:city": "TRENARY", "addr:country": "US", "addr:postcode": "49891", "addr:state": "MI", "addr:street_address": "E2993 STATE HIGHWAY M67", "amenity": "post_box", "collection_times": "Mo-Fr 11:45; Sa 11:15", "nsi_id": "unitedstatespostalservice-a77078", "operator": "United States Postal Service", "operator:short": "USPS", "operator:type": "public", "operator:wikidata": "Q668687", "ref": "4989100000"}, "type": "Feature"}
{"geometry": {"coordinates": [-86.965644, 46.195013], "type": "Point"}, "id": "KnBoVwGx8WvpxvRYh4hbh7doEXQ=", "properties": {"@source_uri": "https://tools.usps.com/UspsToolsRestServices/rest/POLocator/findLocations", "@spider": "usps_collection_boxes", "addr:city": "TRENARY", "addr:country": "US", "addr:postcode": "49891", "addr:state": "MI", "addr:street_address": "E2993 STATE HIGHWAY M67", "amenity": "post_box", "collection_times": "Mo-Fr 12:00; Sa 11:15", "indoor": "yes", "nsi_id": "unitedstatespostalservice-a77078", "operator": "United States Postal Service", "operator:short": "USPS", "operator:type": "public", "operator:wikidata": "Q668687", "ref": "4989100001"}, "type": "Feature"}
{"geometry": {"coordinates": [-86.965665988, 46.194955464], "type": "Point"}, "id": "4GHEckyV2VFgMrn5TS1sWyDM7cY=", "properties": {"@source_uri": "https://tools.usps.com/UspsToolsRestServices/rest/POLocator/findLocations", "@spider": "usps_collection_boxes", "addr:city": "TRENARY", "addr:country": "US", "addr:postcode": "49891", "addr:state": "MI", "addr:street_address": "E2993 STATE HIGHWAY M67", "amenity": "post_box", "collection_times": "Mo-Fr 11:30; Sa 10:45", "indoor": "yes", "nsi_id": "unitedstatespostalservice-a77078", "operator": "United States Postal Service", "operator:short": "USPS", "operator:type": "public", "operator:wikidata": "Q668687", "ref": "4989100003"}, "type": "Feature"}
{"geometry": {"coordinates": [-87.87066449, 45.782485264], "type": "Point"}, "id": "vk9iX63NOziL0tp7RaRZEvO9s2U=", "properties": {"@source_uri": "https://tools.usps.com/UspsToolsRestServices/rest/POLocator/findLocations", "@spider": "usps_collection_boxes", "addr:city": "VULCAN", "addr:country": "US", "addr:postcode": "49892", "addr:state": "MI", "addr:street_address": "W4994 CENTRAL AVE", "amenity": "post_box", "collection_times": "Mo-Fr 16:00; Sa 09:45", "note": "ON 12/24 AND 12/31, THIS BOX MAY BE COLLECTED AS EARLY AS 12 NOON.", "nsi_id": "unitedstatespostalservice-a77078", "operator": "United States Postal Service", "operator:short": "USPS", "operator:type": "public", "operator:wikidata": "Q668687", "ref": "4989200000"}, "type": "Feature"}
{"geometry": {"coordinates": [-87.87066449, 45.782485264], "type": "Point"}, "id": "Km4Ug7Jn8cmDtedyCI0H0L6c6bE=", "properties": {"@source_uri": "https://tools.usps.com/UspsToolsRestServices/rest/POLocator/findLocations", "@spider": "usps_collection_boxes", "addr:city": "VULCAN", "addr:country": "US", "addr:postcode": "49892", "addr:state": "MI", "addr:street_address": "W4994 CENTRAL AVE", "amenity": "post_box", "collection_times": "Mo-Fr 16:15; Sa 09:45", "indoor": "yes", "note": "ON 12/24 AND 12/31, THIS BOX MAY BE COLLECTED AS EARLY AS 12 NOON.", "nsi_id": "unitedstatespostalservice-a77078", "operator": "United States Postal Service", "operator:short": "USPS", "operator:type": "public", "operator:wikidata": "Q668687", "ref": "4989200001"}, "type": "Feature"}
{"geometry": {"coordinates": [-87.87066449, 45.782485264], "type": "Point"}, "id": "ebo4hEIguslOoBttf7pFkZFbEjU=", "properties": {"@source_uri": "https://tools.usps.com/UspsToolsRestServices/rest/POLocator/findLocations", "@spider": "usps_collection_boxes", "addr:city": "VULCAN", "addr:country": "US", "addr:postcode": "49892", "addr:state": "MI", "addr:street_address": "W4994 CENTRAL AVE", "amenity": "post_box", "collection_times": "Mo-Fr 15:45; Sa 09:15", "indoor": "yes", "note": "ON 12/24 AND 12/31, THIS BOX MAY BE COLLECTED AS EARLY AS 12 NOON.", "nsi_id": "unitedstatespostalservice-a77078", "operator": "United States Postal Service", "operator:short": "USPS", "operator:type": "public", "operator:wikidata": "Q668687", "ref": "4989200002"}, "type": "Feature"}
{"geometry": {"coordinates": [-87.614771, 45.327945], "type": "Point"}, "id": "3sLrW5Q7yKUwK0TwECe-toCm8CA=", "properties": {"@source_uri": "https://tools.usps.com/UspsToolsRestServices/rest/POLocator/findLocations", "@spider": "usps_collection_boxes", "addr:city": "WALLACE", "addr:country": "US", "addr:postcode": "49893", "addr:state": "MI", "addr:street_address": "N5965 US HIGHWAY 41", "amenity": "post_box", "collection_times": "Mo-Fr 16:15; Sa 10:00", "note": "ON 12/24 AND 12/31, THIS BOX MAY BE COLLECTED AS EARLY AS 12 NOON.", "nsi_id": "unitedstatespostalservice-a77078", "operator": "United States Postal Service", "operator:short": "USPS", "operator:type": "public", "operator:wikidata": "Q668687", "ref": "4989300000"}, "type": "Feature"}
{"geometry": {"coordinates": [-87.614771, 45.327945], "type": "Point"}, "id": "QTyjYqu99Wqn9xJ_ObNrzKOgDK8=", "properties": {"@source_uri": "https://tools.usps.com/UspsToolsRestServices/rest/POLocator/findLocations", "@spider": "usps_collection_boxes", "addr:city": "WALLACE", "addr:country": "US", "addr:postcode": "49893", "addr:state": "MI", "addr:street_address": "N5965 US HIGHWAY 41", "amenity": "post_box", "collection_times": "Mo-Fr 16:15; Sa 10:00", "indoor": "yes", "note": "ON 12/24 AND 12/31, THIS BOX MAY BE COLLECTED AS EARLY AS 12 NOON.", "nsi_id": "unitedstatespostalservice-a77078", "operator": "United States Postal Service", "operator:short": "USPS", "operator:type": "public", "operator:wikidata": "Q668687", "ref": "4989300001"}, "type": "Feature"}
{"geometry": {"coordinates": [-87.614784584, 45.327911748], "type": "Point"}, "id": "N_GrYvpIDr8fUpnPtyl0kGDUmRU=", "properties": {"@source_uri": "https://tools.usps.com/UspsToolsRestServices/rest/POLocator/findLocations", "@spider": "usps_collection_boxes", "addr:city": "WALLACE", "addr:country": "US", "addr:postcode": "49893", "addr:state": "MI", "addr:street_address": "N5965 US HIGHWAY 41", "amenity": "post_box", "collection_times": "Mo-Fr 16:00; Sa 12:00", "indoor": "yes", "note": "ON 12/24 AND 12/31, THIS BOX MAY BE COLLECTED AS EARLY AS 12 NOON.", "nsi_id": "unitedstatespostalservice-a77078", "operator": "United States Postal Service", "operator:short": "USPS", "operator:type": "public", "operator:wikidata": "Q668687", "ref": "4989300003"}, "type": "Feature"}
{"geometry": {"coordinates": [-87.081571002, 45.7770959474], "type": "Point"}, "id": "qD6Uqc9ceJlktC8TebkbGmBJBCg=", "properties": {"@source_uri": "https://tools.usps.com/UspsToolsRestServices/rest/POLocator/findLocations", "@spider": "usps_collection_boxes", "addr:city": "WELLS", "addr:country": "US", "addr:postcode": "49894", "addr:state": "MI", "addr:street_address": "5659 MAIN ST", "amenity": "post_box", "collection_times": "Mo-Fr 16:30; Sa 11:00", "note": "ON 12/24 AND 12/31, THIS BOX MAY BE COLLECTED AS EARLY AS 12 NOON.", "nsi_id": "unitedstatespostalservice-a77078", "operator": "United States Postal Service", "operator:short": "USPS", "operator:type": "public", "operator:wikidata": "Q668687", "ref": "4989400000"}, "type": "Feature"}
{"geometry": {"coordinates": [-87.08163, 45.777206], "type": "Point"}, "id": "1uajlHecto1lRyISmk5QhEhr9yU=", "properties": {"@source_uri": "https://tools.usps.com/UspsToolsRestServices/rest/POLocator/findLocations", "@spider": "usps_collection_boxes", "addr:city": "WELLS", "addr:country": "US", "addr:postcode": "49894", "addr:state": "MI", "addr:street_address": "5659 MAIN ST", "amenity": "post_box", "collection_times": "Mo-Fr 16:30; Sa 11:00", "indoor": "yes", "note": "ON 12/24 AND 12/31, THIS BOX MAY BE COLLECTED AS EARLY AS 12 NOON.", "nsi_id": "unitedstatespostalservice-a77078", "operator": "United States Postal Service", "operator:short": "USPS", "operator:type": "public", "operator:wikidata": "Q668687", "ref": "4989400001"}, "type": "Feature"}
{"geometry": {"coordinates": [-87.081571002, 45.777095947], "type": "Point"}, "id": "r7zd4MHTxXbRkniHb3g0XJNMzb4=", "properties": {"@source_uri": "https://tools.usps.com/UspsToolsRestServices/rest/POLocator/findLocations", "@spider": "usps_collection_boxes", "addr:city": "WELLS", "addr:country": "US", "addr:postcode": "49894", "addr:state": "MI", "addr:street_address": "5659 MAIN ST", "amenity": "post_box", "collection_times": "Mo-Fr 16:00; Sa 10:30", "indoor": "yes", "note": "ON 12/24 AND 12/31, THIS BOX MAY BE COLLECTED AS EARLY AS 12 NOON.", "nsi_id": "unitedstatespostalservice-a77078", "operator": "United States Postal Service", "operator:short": "USPS", "operator:type": "public", "operator:wikidata": "Q668687", "ref": "4989400003"}, "type": "Feature"}
{"geometry": {"coordinates": [-86.54442, 46.37172], "type": "Point"}, "id": "A2ldKKcUmPkn7ba91g8vHM2s09w=", "properties": {"@source_uri": "https://tools.usps.com/UspsToolsRestServices/rest/POLocator/findLocations", "@spider": "usps_collection_boxes", "addr:city": "WETMORE", "addr:country": "US", "addr:postcode": "49895", "addr:state": "MI", "addr:street_address": "E9714 STATE HIGHWAY M28", "amenity": "post_box", "collection_times": "Mo-Fr 15:00; Sa 10:30", "note": "ON 12/24 AND 12/31, THIS BOX MAY BE COLLECTED AS EARLY AS 12 NOON.", "nsi_id": "unitedstatespostalservice-a77078", "operator": "United States Postal Service", "operator:short": "USPS", "operator:type": "public", "operator:wikidata": "Q668687", "ref": "4989500000"}, "type": "Feature"}
{"geometry": {"coordinates": [-86.6143, 46.381242], "type": "Point"}, "id": "6Rb-YPG3ynK5HRd-DNUjDNJ5FoM=", "properties": {"@source_uri": "https://tools.usps.com/UspsToolsRestServices/rest/POLocator/findLocations", "@spider": "usps_collection_boxes", "addr:city": "WETMORE", "addr:country": "US", "addr:postcode": "49895", "addr:state": "MI", "addr:street_address": "E9714 STATE HIGHWAY M28", "amenity": "post_box", "collection_times": "Mo-Fr 15:00; Sa 10:30", "indoor": "yes", "note": "ON 12/24 AND 12/31, THIS BOX MAY BE COLLECTED AS EARLY AS 12 NOON.", "nsi_id": "unitedstatespostalservice-a77078", "operator": "United States Postal Service", "operator:short": "USPS", "operator:type": "public", "operator:wikidata": "Q668687", "ref": "4989500001"}, "type": "Feature"}
{"geometry": {"coordinates": [-86.614391093, 46.381304653], "type": "Point"}, "id": "By4__Pq_d8dYg4ZAJt36KSgmm-o=", "properties": {"@source_uri": "https://tools.usps.com/UspsToolsRestServices/rest/POLocator/findLocations", "@spider": "usps_collection_boxes", "addr:city": "WETMORE", "addr:country": "US", "addr:postcode": "49895", "addr:state": "MI", "addr:street_address": "E9714 STATE HIGHWAY M28", "amenity": "post_box", "collection_times": "Mo-Fr 14:45; Sa 10:00", "indoor": "yes", "note": "ON 12/24 AND 12/31, THIS BOX MAY BE COLLECTED AS EARLY AS 12 NOON.", "nsi_id": "unitedstatespostalservice-a77078", "operator": "United States Postal Service", "operator:short": "USPS", "operator:type": "public", "operator:wikidata": "Q668687", "ref": "4989500002"}, "type": "Feature"}
{"geometry": {"coordinates": [-87.436625, 45.705286], "type": "Point"}, "id": "bzvO_HEyGftEsBiAcfckdziBxJE=", "properties": {"@source_uri": "https://tools.usps.com/UspsToolsRestServices/rest/POLocator/findLocations", "@spider": "usps_collection_boxes", "addr:city": "WILSON", "addr:country": "US", "addr:postcode": "49896", "addr:state": "MI", "addr:street_address": "W2261 US HIGHWAY 2 41", "amenity": "post_box", "collection_times": "Mo-Fr 15:45; Sa 09:30", "note": "ON 12/24 AND 12/31, THIS BOX MAY BE COLLECTED AS EARLY AS 12 NOON.", "nsi_id": "unitedstatespostalservice-a77078", "operator": "United States Postal Service", "operator:short": "USPS", "operator:type": "public", "operator:wikidata": "Q668687", "ref": "4989600000"}, "type": "Feature"}
{"geometry": {"coordinates": [-87.436625, 45.705286], "type": "Point"}, "id": "uf3Zz8qmCJu3hQcKB0PVeYUozT8=", "properties": {"@source_uri": "https://tools.usps.com/UspsToolsRestServices/rest/POLocator/findLocations", "@spider": "usps_collection_boxes", "addr:city": "WILSON", "addr:country": "US", "addr:postcode": "49896", "addr:state": "MI", "addr:street_address": "W2261 US HIGHWAY 2 41", "amenity": "post_box", "collection_times": "Mo-Fr 15:45; Sa 09:30", "indoor": "yes", "note": "ON 12/24 AND 12/31, THIS BOX MAY BE COLLECTED AS EARLY AS 12 NOON.", "nsi_id": "unitedstatespostalservice-a77078", "operator": "United States Postal Service", "operator:short": "USPS", "operator:type": "public", "operator:wikidata": "Q668687", "ref": "4989600001"}, "type": "Feature"}
{"geometry": {"coordinates": [-87.436667098, 45.705230898], "type": "Point"}, "id": "bTtaN6XzruDoWzn0SGeu-qHlq9U=", "properties": {"@source_uri": "https://tools.usps.com/UspsToolsRestServices/rest/POLocator/findLocations", "@spider": "usps_collection_boxes", "addr:city": "WILSON", "addr:country": "US", "addr:postcode": "49896", "addr:state": "MI", "addr:street_address": "W2261 US HIGHWAY 2 41", "amenity": "post_box", "collection_times": "Mo-Fr 15:15; Sa 09:00", "indoor": "yes", "note": "ON 12/24 AND 12/31, THIS BOX MAY BE COLLECTED AS EARLY AS 12 NOON.", "nsi_id": "unitedstatespostalservice-a77078", "operator": "United States Postal Service", "operator:short": "USPS", "operator:type": "public", "operator:wikidata": "Q668687", "ref": "4989600003"}, "type": "Feature"}
