{"geometry": {"coordinates": [-88.396607537, 47.296907014], "type": "Point"}, "id": "gGRCnsZuFfa6yKvckd-HFJXmBsQ=", "properties": {"@spider": "usps_collection_boxes", "addr:city": "AHMEEK", "addr:country": "US", "addr:full": "2 VIVIAN ST", "addr:postcode": "49901", "addr:state": "MI", "brand": "USPS", "collection_times": "Mo-Fr 15:30; Sa 11:30", "name": "USPS COLLECTION BOX - BLUE BOX", "note": "ON 12/24 AND 12/31, THIS BOX MAY BE COLLECTED AS EARLY AS 12 NOON.", "ref": "4990100000"}, "type": "Feature"}
{"geometry": {"coordinates": [-88.396549, 47.296848], "type": "Point"}, "id": "0NvgVboLSQktftsFRPqoTlUWr-0=", "properties": {"@spider": "usps_collection_boxes", "addr:city": "AHMEEK", "addr:country": "US", "addr:full": "2 VIVIAN ST", "addr:postcode": "49901", "addr:state": "MI", "brand": "USPS", "collection_times": "Mo-Fr 14:00; Sa 11:30", "name": "USPS COLLECTION BOX - PO LOBBY", "note": "ON 12/24 AND 12/31, THIS BOX MAY BE COLLECTED AS EARLY AS 12 NOON.", "ref": "4990100001"}, "type": "Feature"}
{"geometry": {"coordinates": [-88.396608589, 47.296902021], "type": "Point"}, "id": "F3cQCAwoC9PHPO9cznaaeAM1Vz4=", "properties": {"@spider": "usps_collection_boxes", "addr:city": "AHMEEK", "addr:country": "US", "addr:full": "2 VIVIAN ST", "addr:postcode": "49901", "addr:state": "MI", "brand": "USPS", "collection_times": "Mo-Fr 15:00; Sa 11:00", "name": "USPS COLLECTION BOX - PO LOBBY", "note": "ON 12/24 AND 12/31, THIS BOX MAY BE COLLECTED AS EARLY AS 12 NOON.", "ref": "4990100002"}, "type": "Feature"}
{"geometry": {"coordinates": [-88.382679, 46.046196], "type": "Point"}, "id": "P2H6iP3AcTDlr8NCJucSFMVlRpY=", "properties": {"@spider": "usps_collection_boxes", "addr:city": "ALPHA", "addr:country": "US", "addr:full": "405 MAIN ST", "addr:postcode": "49902", "addr:state": "MI", "brand": "USPS", "collection_times": "Mo-Fr 16:00; Sa 09:15", "name": "USPS COLLECTION BOX - BLUE BOX", "note": "ON 12/24 AND 12/31, THIS BOX MAY BE COLLECTED AS EARLY AS 12 NOON.", "ref": "4990200000"}, "type": "Feature"}
{"geometry": {"coordinates": [-88.382679, 46.046196], "type": "Point"}, "id": "GSagNqFMxSBHlPnDs1TZxaVVlho=", "properties": {"@spider": "usps_collection_boxes", "addr:city": "ALPHA", "addr:country": "US", "addr:full": "405 MAIN ST", "addr:postcode": "49902", "addr:state": "MI", "brand": "USPS", "collection_times": "Mo-Fr 16:00; Sa 09:15", "name": "USPS COLLECTION BOX - PO LOBBY", "note": "ON 12/24 AND 12/31, THIS BOX MAY BE COLLECTED AS EARLY AS 12 NOON.", "ref": "4990200001"}, "type": "Feature"}
{"geometry": {"coordinates": [-88.380333735, 46.046259], "type": "Point"}, "id": "T2UvIYIaBqDNJfWNdzGZXo9AiA0=", "properties": {"@spider": "usps_collection_boxes", "addr:city": "ALPHA", "addr:country": "US", "addr:full": "405 MAIN ST", "addr:postcode": "49902", "addr:state": "MI", "brand": "USPS", "collection_times": "Mo-Fr 15:30; Sa 08:45", "name": "USPS COLLECTION BOX - PO LOBBY", "note": "ON 12/24 AND 12/31, THIS BOX MAY BE COLLECTED AS EARLY AS 12 NOON.", "ref": "4990200002"}, "type": "Feature"}
{"geometry": {"coordinates": [-88.447115655, 46.234236507], "type": "Point"}, "id": "R0luvAWPou__ToBtV1SNXCEEFEY=", "properties": {"@spider": "usps_collection_boxes", "addr:city": "AMASA", "addr:country": "US", "addr:full": "209 MAPLE AVE", "addr:postcode": "49903", "addr:state": "MI", "brand": "USPS", "collection_times": "Mo-Fr 12:00; Sa 09:45", "name": "USPS COLLECTION BOX - BLUE BOX", "ref": "4990300000"}, "type": "Feature"}
{"geometry": {"coordinates": [-88.447115655, 46.234236507], "type": "Point"}, "id": "A1uo7lZWfFezI-GQgplMY3gYJDs=", "properties": {"@spider": "usps_collection_boxes", "addr:city": "AMASA", "addr:country": "US", "addr:full": "209 MAPLE AVE", "addr:postcode": "49903", "addr:state": "MI", "brand": "USPS", "collection_times": "Mo-Fr 12:00; Sa 09:45", "name": "USPS COLLECTION BOX - PO LOBBY", "ref": "4990300001"}, "type": "Feature"}
{"geometry": {"coordinates": [-88.448468298, 46.23252279], "type": "Point"}, "id": "EBiQqh5RCMpYt33Hnl0HaeCOu9g=", "properties": {"@spider": "usps_collection_boxes", "addr:city": "AMASA", "addr:country": "US", "addr:full": "209 MAPLE AVE", "addr:postcode": "49903", "addr:state": "MI", "brand": "USPS", "collection_times": "Mo-Fr 11:30; Sa 08:15", "name": "USPS COLLECTION BOX - PO LOBBY", "ref": "4990300003"}, "type": "Feature"}
{"geometry": {"coordinates": [-89.56825, 46.591582], "type": "Point"}, "id": "m3nCm94KTFfTochKJiRzCJfYOUA=", "properties": {"@spider": "usps_collection_boxes", "addr:city": "BERGLAND", "addr:country": "US", "addr:full": "107 PINE ST", "addr:postcode": "49910", "addr:state": "MI", "brand": "USPS", "collection_times": "Mo-Fr 16:45; Sa 10:45", "name": "USPS COLLECTION BOX - BLUE BOX", "note": "ON 12/24 AND 12/31, THIS BOX MAY BE COLLECTED AS EARLY AS 12 NOON.", "ref": "4991000000"}, "type": "Feature"}
{"geometry": {"coordinates": [-89.56825, 46.591582], "type": "Point"}, "id": "Brc0jpI4pu_Fbu37FT-6aHikQOc=", "properties": {"@spider": "usps_collection_boxes", "addr:city": "BERGLAND", "addr:country": "US", "addr:full": "107 PINE ST", "addr:postcode": "49910", "addr:state": "MI", "brand": "USPS", "collection_times": "Mo-Fr 16:45; Sa 10:45", "name": "USPS COLLECTION BOX - PO LOBBY", "note": "ON 12/24 AND 12/31, THIS BOX MAY BE COLLECTED AS EARLY AS 12 NOON.", "ref": "4991000001"}, "type": "Feature"}
{"geometry": {"coordinates": [-89.568151238, 46.590782884], "type": "Point"}, "id": "p-BOEIu44eYCVCH8YpieXmDpubc=", "properties": {"@spider": "usps_collection_boxes", "addr:city": "BERGLAND", "addr:country": "US", "addr:full": "107 PINE ST", "addr:postcode": "49910", "addr:state": "MI", "brand": "USPS", "collection_times": "Mo-Fr 16:15; Sa 10:15", "name": "USPS COLLECTION BOX - PO LOBBY", "note": "ON 12/24 AND 12/31, THIS BOX MAY BE COLLECTED AS EARLY AS 12 NOON.", "ref": "4991000002"}, "type": "Feature"}
{"geometry": {"coordinates": [-90.050403, 46.480049], "type": "Point"}, "id": "aO2Ehxq-zu38f5i9HybBvr3PLBU=", "properties": {"@spider": "usps_collection_boxes", "addr:city": "BESSEMER", "addr:country": "US", "addr:full": "212 S SOPHIE ST", "addr:postcode": "49911", "addr:state": "MI", "brand": "USPS", "collection_times": "Mo-Fr 16:00; Sa 11:00", "name": "USPS COLLECTION BOX - BLUE BOX", "note": "ON 12/24 AND 12/31, THIS BOX MAY BE COLLECTED AS EARLY AS 12 NOON.", "ref": "4991100000"}, "type": "Feature"}
{"geometry": {"coordinates": [-90.0505147, 46.480889], "type": "Point"}, "id": "vFH43Jy5y8KVLNtF95SizHHmvQg=", "properties": {"@spider": "usps_collection_boxes", "addr:city": "BESSEMER", "addr:country": "US", "addr:full": "117 E LEAD ST", "addr:postcode": "49911", "addr:state": "MI", "brand": "USPS", "collection_times": "Mo-Sa 09:30", "name": "USPS COLLECTION BOX - BLUE BOX", "ref": "4991100001"}, "type": "Feature"}
{"geometry": {"coordinates": [-90.0531428, 46.482049], "type": "Point"}, "id": "PZam7SrtNudL4b_C8HSrVnFnQtQ=", "properties": {"@spider": "usps_collection_boxes", "addr:city": "BESSEMER", "addr:country": "US", "addr:full": "200 N MOORE ST", "addr:postcode": "49911", "addr:state": "MI", "brand": "USPS", "collection_times": "Mo-Fr 13:45", "name": "USPS COLLECTION BOX - BLUE BOX", "note": "ON 12/24 AND 12/31, THIS BOX MAY BE COLLECTED AS EARLY AS 12 NOON.", "ref": "4991100004"}, "type": "Feature"}
{"geometry": {"coordinates": [-90.050403, 46.480049], "type": "Point"}, "id": "KgaRjV77ZXWKQF1HnrClh_Aqqqk=", "properties": {"@spider": "usps_collection_boxes", "addr:city": "BESSEMER", "addr:country": "US", "addr:full": "212 S SOPHIE ST", "addr:postcode": "49911", "addr:state": "MI", "brand": "USPS", "collection_times": "Mo-Fr 16:30; Sa 11:00", "name": "USPS COLLECTION BOX - PO LOBBY", "note": "ON 12/24 AND 12/31, THIS BOX MAY BE COLLECTED AS EARLY AS 12 NOON.", "ref": "4991100010"}, "type": "Feature"}
{"geometry": {"coordinates": [-90.050425514, 46.480049563], "type": "Point"}, "id": "1alAEfuBxafxqO1GFoYykuBdh4c=", "properties": {"@spider": "usps_collection_boxes", "addr:city": "BESSEMER", "addr:country": "US", "addr:full": "212 S SOPHIE ST", "addr:postcode": "49911", "addr:state": "MI", "brand": "USPS", "collection_times": "Mo-Fr 16:00; Sa 10:30", "name": "USPS COLLECTION BOX - PO LOBBY", "note": "ON 12/24 AND 12/31, THIS BOX MAY BE COLLECTED AS EARLY AS 12 NOON.", "ref": "4991100013"}, "type": "Feature"}
{"geometry": {"coordinates": [-89.178931, 46.505344], "type": "Point"}, "id": "U9oJnUrpd6glAoqi-hWMdPQUSHE=", "properties": {"@spider": "usps_collection_boxes", "addr:city": "BRUCE CROSSING", "addr:country": "US", "addr:full": "13944 US HIGHWAY 45", "addr:postcode": "49912", "addr:state": "MI", "brand": "USPS", "collection_times": "Mo-Fr 15:15; Sa 10:30", "name": "USPS COLLECTION BOX - BLUE BOX", "note": "ON 12/24 AND 12/31, THIS BOX MAY BE COLLECTED AS EARLY AS 12 NOON.", "ref": "4991200001"}, "type": "Feature"}
{"geometry": {"coordinates": [-89.178931, 46.505344], "type": "Point"}, "id": "RTsifc3urlluQ14jZg6LY2HUHCs=", "properties": {"@spider": "usps_collection_boxes", "addr:city": "BRUCE CROSSING", "addr:country": "US", "addr:full": "13944 US HIGHWAY 45", "addr:postcode": "49912", "addr:state": "MI", "brand": "USPS", "collection_times": "Mo-Fr 15:15; Sa 10:30", "name": "USPS COLLECTION BOX - PO LOBBY", "note": "ON 12/24 AND 12/31, THIS BOX MAY BE COLLECTED AS EARLY AS 12 NOON.", "ref": "4991200002"}, "type": "Feature"}
{"geometry": {"coordinates": [-89.1786182175, 46.5334353745], "type": "Point"}, "id": "vyLP2P0pFCI_EkPjBb7jbx5NV_0=", "properties": {"@spider": "usps_collection_boxes", "addr:city": "BRUCE CROSSING", "addr:country": "US", "addr:full": "5419 US HIGHWAY 45 S", "addr:postcode": "49912", "addr:state": "MI", "brand": "USPS", "collection_times": "Mo-Fr 15:00; Sa 10:15", "name": "USPS COLLECTION BOX - PO LOBBY", "note": "ON 12/24 AND 12/31, THIS BOX MAY BE COLLECTED AS EARLY AS 12 NOON.", "ref": "4991200004"}, "type": "Feature"}
{"geometry": {"coordinates": [-88.628915, 46.065037], "type": "Point"}, "id": "ZGzzT3_dIQV9rzE6VdaGW2fYiEM=", "properties": {"@spider": "usps_collection_boxes", "addr:city": "CASPIAN", "addr:country": "US", "addr:full": "300 E CASPIAN AVE", "addr:postcode": "49915", "addr:state": "MI", "brand": "USPS", "collection_times": "Mo-Fr 15:30; Sa 11:00", "name": "USPS COLLECTION BOX - BLUE BOX", "note": "ON 12/24 AND 12/31, THIS BOX MAY BE COLLECTED AS EARLY AS 12 NOON.", "ref": "4991500000"}, "type": "Feature"}
{"geometry": {"coordinates": [-88.62905, 46.06503], "type": "Point"}, "id": "ZWVrEUJbxj8DNMvnMN8QgCP-qVI=", "properties": {"@spider": "usps_collection_boxes", "addr:city": "CASPIAN", "addr:country": "US", "addr:full": "300 E CASPIAN AVE", "addr:postcode": "49915", "addr:state": "MI", "brand": "USPS", "collection_times": "Mo-Fr 15:30; Sa 11:00", "name": "USPS COLLECTION BOX - PO LOBBY", "note": "ON 12/24 AND 12/31, THIS BOX MAY BE COLLECTED AS EARLY AS 12 NOON.", "ref": "4991500001"}, "type": "Feature"}
{"geometry": {"coordinates": [-88.62905, 46.06503], "type": "Point"}, "id": "xc53bGrk_O075L2u0jVb98CqFwc=", "properties": {"@spider": "usps_collection_boxes", "addr:city": "CASPIAN", "addr:country": "US", "addr:full": "300 E CASPIAN AVE", "addr:postcode": "49915", "addr:state": "MI", "brand": "USPS", "collection_times": "Mo-Fr 15:30; Sa 11:00", "name": "USPS COLLECTION BOX - PO LOBBY", "note": "ON 12/24 AND 12/31, THIS BOX MAY BE COLLECTED AS EARLY AS 12 NOON.", "ref": "4991500002"}, "type": "Feature"}
{"geometry": {"coordinates": [-88.628955156, 46.064967428], "type": "Point"}, "id": "yP5cEpRFf5qMPj0hYHYQpmqIGQo=", "properties": {"@spider": "usps_collection_boxes", "addr:city": "CASPIAN", "addr:country": "US", "addr:full": "300 E CASPIAN AVE", "addr:postcode": "49915", "addr:state": "MI", "brand": "USPS", "collection_times": "Mo-Fr 15:00; Sa 10:30", "name": "USPS COLLECTION BOX - PO LOBBY", "note": "ON 12/24 AND 12/31, THIS BOX MAY BE COLLECTED AS EARLY AS 12 NOON.", "ref": "4991500003"}, "type": "Feature"}
{"geometry": {"coordinates": [-88.388105, 47.284761], "type": "Point"}, "id": "fFnJG3bdzoMkPetBG9uX1ALgVf8=", "properties": {"@spider": "usps_collection_boxes", "addr:city": "COPPER CITY", "addr:country": "US", "addr:full": "212 MOHAWK ST", "addr:postcode": "49917", "addr:state": "MI", "brand": "USPS", "collection_times": "Mo-Fr 15:45; Sa 11:30", "name": "USPS COLLECTION BOX - BLUE BOX", "note": "ON 12/24 AND 12/31, THIS BOX MAY BE COLLECTED AS EARLY AS 12 NOON.", "ref": "4991700000"}, "type": "Feature"}
{"geometry": {"coordinates": [-88.3880893922, 47.2847818326], "type": "Point"}, "id": "dHhRXUkKhnR-_4Eekpgpya63-is=", "properties": {"@spider": "usps_collection_boxes", "addr:city": "COPPER CITY", "addr:country": "US", "addr:full": "212 MOHAWK ST", "addr:postcode": "49917", "addr:state": "MI", "brand": "USPS", "collection_times": "Mo-Fr 15:15; Sa 11:00", "name": "USPS COLLECTION BOX - PO LOBBY", "note": "ON 12/24 AND 12/31, THIS BOX MAY BE COLLECTED AS EARLY AS 12 NOON.", "ref": "4991700002"}, "type": "Feature"}
{"geometry": {"coordinates": [-88.536346, 46.542149], "type": "Point"}, "id": "5rjiuaZtnKVtAyHIhXaNumCMn_E=", "properties": {"@spider": "usps_collection_boxes", "addr:city": "COVINGTON", "addr:country": "US", "addr:full": "25387 US HIGHWAY 141", "addr:postcode": "49919", "addr:state": "MI", "brand": "USPS", "collection_times": "Mo-Fr 14:00; Sa 12:00", "name": "USPS COLLECTION BOX - BLUE BOX", "note": "ON 12/24 AND 12/31, THIS BOX MAY BE COLLECTED AS EARLY AS 12 NOON.", "ref": "4991900000"}, "type": "Feature"}
{"geometry": {"coordinates": [-88.536384, 46.542089], "type": "Point"}, "id": "opt2Omt0HAeOzXW4TyFjtm6KenQ=", "properties": {"@spider": "usps_collection_boxes", "addr:city": "COVINGTON", "addr:country": "US", "addr:full": "25387 US HIGHWAY 141", "addr:postcode": "49919", "addr:state": "MI", "brand": "USPS", "collection_times": "Mo-Fr 14:00; Sa 12:00", "name": "USPS COLLECTION BOX - PO LOBBY", "note": "ON 12/24 AND 12/31, THIS BOX MAY BE COLLECTED AS EARLY AS 12 NOON.", "ref": "4991900001"}, "type": "Feature"}
{"geometry": {"coordinates": [-88.536330643, 46.542121977], "type": "Point"}, "id": "51GByqYqFktwKbEal8Iy8v2KiLw=", "properties": {"@spider": "usps_collection_boxes", "addr:city": "COVINGTON", "addr:country": "US", "addr:full": "25387 US HIGHWAY 141", "addr:postcode": "49919", "addr:state": "MI", "brand": "USPS", "collection_times": "Mo-Fr 13:45; Sa 12:00", "name": "USPS COLLECTION BOX - PO LOBBY", "note": "ON 12/24 AND 12/31, THIS BOX MAY BE COLLECTED AS EARLY AS 12 NOON.", "ref": "4991900002"}, "type": "Feature"}
{"geometry": {"coordinates": [-88.334149, 46.096733], "type": "Point"}, "id": "fvMH0YUyvfQ59XZuiWafRX9nb7w=", "properties": {"@spider": "usps_collection_boxes", "addr:city": "CRYSTAL FALLS", "addr:country": "US", "addr:full": "501 SUPERIOR AVE", "addr:postcode": "49920", "addr:state": "MI", "brand": "USPS", "collection_times": "Mo-Fr 16:30; Sa 11:00", "name": "USPS COLLECTION BOX - BLUE BOX", "note": "ON 12/24 AND 12/31, THIS BOX MAY BE COLLECTED AS EARLY AS 12 NOON.", "ref": "4992000000"}, "type": "Feature"}
{"geometry": {"coordinates": [-88.3553219, 46.097383], "type": "Point"}, "id": "kBNsTX1DfH5SQnAM7boPbmdJvqE=", "properties": {"@spider": "usps_collection_boxes", "addr:city": "CRYSTAL FALLS", "addr:country": "US", "addr:full": "1363 US HIGHWAY 2", "addr:postcode": "49920", "addr:state": "MI", "brand": "USPS", "collection_times": "Mo-Sa 09:00", "name": "USPS COLLECTION BOX - BLUE BOX", "ref": "4992000008"}, "type": "Feature"}
{"geometry": {"coordinates": [-88.33402, 46.096759], "type": "Point"}, "id": "VBZwefUyWyfYglOeXVDXe8DEZCI=", "properties": {"@spider": "usps_collection_boxes", "addr:city": "CRYSTAL FALLS", "addr:country": "US", "addr:full": "501 SUPERIOR AVE", "addr:postcode": "49920", "addr:state": "MI", "brand": "USPS", "collection_times": "Mo-Fr 16:30; Sa 11:00", "name": "USPS COLLECTION BOX - PO LOBBY", "note": "ON 12/24 AND 12/31, THIS BOX MAY BE COLLECTED AS EARLY AS 12 NOON.", "ref": "4992000011"}, "type": "Feature"}
{"geometry": {"coordinates": [-88.334110389, 46.096675611], "type": "Point"}, "id": "ePUuTD2PtZCxxK6u_pQUp_9iu3c=", "properties": {"@spider": "usps_collection_boxes", "addr:city": "CRYSTAL FALLS", "addr:country": "US", "addr:full": "501 SUPERIOR AVE", "addr:postcode": "49920", "addr:state": "MI", "brand": "USPS", "collection_times": "Mo-Fr 16:00; Sa 10:30", "name": "USPS COLLECTION BOX - PO LOBBY", "note": "ON 12/24 AND 12/31, THIS BOX MAY BE COLLECTED AS EARLY AS 12 NOON.", "ref": "4992000015"}, "type": "Feature"}
{"geometry": {"coordinates": [-89.281661, 46.527982], "type": "Point"}, "id": "ic9NfbGpxDAux_aSsHRWp-zp_vc=", "properties": {"@spider": "usps_collection_boxes", "addr:city": "EWEN", "addr:country": "US", "addr:full": "106 S CEDAR ST", "addr:postcode": "49925", "addr:state": "MI", "brand": "USPS", "collection_times": "Mo-Fr 16:30; Sa 10:30", "name": "USPS COLLECTION BOX - BLUE BOX", "note": "ON 12/24 AND 12/31, THIS BOX MAY BE COLLECTED AS EARLY AS 12 NOON.", "ref": "4992500000"}, "type": "Feature"}
{"geometry": {"coordinates": [-89.281661, 46.527982], "type": "Point"}, "id": "ND68IabXlkltc9iAH-cmyqOzQd0=", "properties": {"@spider": "usps_collection_boxes", "addr:city": "EWEN", "addr:country": "US", "addr:full": "106 S CEDAR ST", "addr:postcode": "49925", "addr:state": "MI", "brand": "USPS", "collection_times": "Mo-Fr 16:30; Sa 10:45", "name": "USPS COLLECTION BOX - PO LOBBY", "note": "ON 12/24 AND 12/31, THIS BOX MAY BE COLLECTED AS EARLY AS 12 NOON.", "ref": "4992500001"}, "type": "Feature"}
{"geometry": {"coordinates": [-89.281470343, 46.534593618], "type": "Point"}, "id": "Jdg5-McmbuPZvRzqUcu0IcVynxs=", "properties": {"@spider": "usps_collection_boxes", "addr:city": "EWEN", "addr:country": "US", "addr:full": "106 S CEDAR ST", "addr:postcode": "49925", "addr:state": "MI", "brand": "USPS", "collection_times": "Mo-Fr 12:30; Sa 10:15", "name": "USPS COLLECTION BOX - PO LOBBY", "note": "ON 12/24 AND 12/31, THIS BOX MAY BE COLLECTED AS EARLY AS 12 NOON.", "ref": "4992500002"}, "type": "Feature"}
{"geometry": {"coordinates": [-88.601939, 46.059038], "type": "Point"}, "id": "FniVpBRGaNNOanFW2Bm5K8_lYMQ=", "properties": {"@spider": "usps_collection_boxes", "addr:city": "GAASTRA", "addr:country": "US", "addr:full": "12 2ND ST", "addr:postcode": "49927", "addr:state": "MI", "brand": "USPS", "collection_times": "Mo-Fr 16:00; Sa 09:45", "name": "USPS COLLECTION BOX - BLUE BOX", "note": "ON 12/24 AND 12/31, THIS BOX MAY BE COLLECTED AS EARLY AS 12 NOON.", "ref": "4992700000"}, "type": "Feature"}
{"geometry": {"coordinates": [-88.601939, 46.059038], "type": "Point"}, "id": "FbEEvtDcacQpGKitaKVIJD1jVKE=", "properties": {"@spider": "usps_collection_boxes", "addr:city": "GAASTRA", "addr:country": "US", "addr:full": "12 2ND ST", "addr:postcode": "49927", "addr:state": "MI", "brand": "USPS", "collection_times": "Mo-Fr 16:00; Sa 09:45", "name": "USPS COLLECTION BOX - PO LOBBY", "note": "ON 12/24 AND 12/31, THIS BOX MAY BE COLLECTED AS EARLY AS 12 NOON.", "ref": "4992700001"}, "type": "Feature"}
{"geometry": {"coordinates": [-88.601923182, 46.059059288], "type": "Point"}, "id": "_j11hGFquC_5zLC0mmPYtl9sB0g=", "properties": {"@spider": "usps_collection_boxes", "addr:city": "GAASTRA", "addr:country": "US", "addr:full": "12 2ND ST", "addr:postcode": "49927", "addr:state": "MI", "brand": "USPS", "collection_times": "Mo-Fr 15:30; Sa 12:30", "name": "USPS COLLECTION BOX - PO LOBBY", "note": "ON 12/24 AND 12/31, THIS BOX MAY BE COLLECTED AS EARLY AS 12 NOON.", "ref": "4992700002"}, "type": "Feature"}
{"geometry": {"coordinates": [-88.642941, 46.091503], "type": "Point"}, "id": "u0z4MYDRgWmPY80Vq-D37Sn4wA0=", "properties": {"@spider": "usps_collection_boxes", "addr:city": "IRON RIVER", "addr:country": "US", "addr:full": "425 W GENESEE ST", "addr:postcode": "49935", "addr:state": "MI", "brand": "USPS", "collection_times": "Mo-Fr 17:00; Sa 14:30", "name": "USPS COLLECTION BOX - BLUE BOX", "note": "ON 12/24 AND 12/31, THIS BOX MAY BE COLLECTED AS EARLY AS 12 NOON.", "ref": "4993500001"}, "type": "Feature"}
{"geometry": {"coordinates": [-88.6429190668, 46.0914502299], "type": "Point"}, "id": "XK-1hxHV1pm7mYlmn5Z2JZNTk7Q=", "properties": {"@spider": "usps_collection_boxes", "addr:city": "IRON RIVER", "addr:country": "US", "addr:full": "425 W GENESEE ST", "addr:postcode": "49935", "addr:state": "MI", "brand": "USPS", "collection_times": "Mo-Fr 17:00; Sa 14:30", "name": "USPS COLLECTION BOX - BLUE BOX", "note": "ON 12/24 AND 12/31, THIS BOX MAY BE COLLECTED AS EARLY AS 12 NOON.", "ref": "4993500003"}, "type": "Feature"}
{"geometry": {"coordinates": [-88.6460549, 46.090703], "type": "Point"}, "id": "mXj4pSsp1zj3dDpBN13EB7Zf2xM=", "properties": {"@spider": "usps_collection_boxes", "addr:city": "IRON RIVER", "addr:country": "US", "addr:full": "706 W MAPLE ST", "addr:postcode": "49935", "addr:state": "MI", "brand": "USPS", "collection_times": "Mo-Sa 09:00", "name": "USPS COLLECTION BOX - BLUE BOX", "ref": "4993500008"}, "type": "Feature"}
{"geometry": {"coordinates": [-88.6401261, 46.091391], "type": "Point"}, "id": "oCrTBUiq65_uNSgnqKXJGod7q94=", "properties": {"@spider": "usps_collection_boxes", "addr:city": "IRON RIVER", "addr:country": "US", "addr:full": "131 W GENESEE ST", "addr:postcode": "49935", "addr:state": "MI", "brand": "USPS", "collection_times": "Mo-Sa 09:00", "name": "USPS COLLECTION BOX - BLUE BOX", "ref": "4993500009"}, "type": "Feature"}
{"geometry": {"coordinates": [-88.6311477, 46.096196], "type": "Point"}, "id": "m77wyAUhsbWUJTkO7uFGqzPyej0=", "properties": {"@spider": "usps_collection_boxes", "addr:city": "IRON RIVER", "addr:country": "US", "addr:full": "833 RIVERSIDE PLZ", "addr:postcode": "49935", "addr:state": "MI", "brand": "USPS", "collection_times": "Mo-Fr 14:00; Sa 13:00", "name": "USPS COLLECTION BOX - BLUE BOX", "note": "ON 12/24 AND 12/31, THIS BOX MAY BE COLLECTED AS EARLY AS 12 NOON.", "ref": "4993500012"}, "type": "Feature"}
{"geometry": {"coordinates": [-88.642941, 46.091503], "type": "Point"}, "id": "Mw7U7YqGl7gTIzFfXvtuMRxV_9U=", "properties": {"@spider": "usps_collection_boxes", "addr:city": "IRON RIVER", "addr:country": "US", "addr:full": "425 W GENESEE ST", "addr:postcode": "49935", "addr:state": "MI", "brand": "USPS", "collection_times": "Mo-Fr 17:00; Sa 15:00", "name": "USPS COLLECTION BOX - PO LOBBY", "note": "ON 12/24 AND 12/31, THIS BOX MAY BE COLLECTED AS EARLY AS 12 NOON.", "ref": "4993500017"}, "type": "Feature"}
{"geometry": {"coordinates": [-88.642921991, 46.091449141], "type": "Point"}, "id": "in1wAGVSjliqw1-H2uiqnnj7-eY=", "properties": {"@spider": "usps_collection_boxes", "addr:city": "IRON RIVER", "addr:country": "US", "addr:full": "425 W GENESEE ST", "addr:postcode": "49935", "addr:state": "MI", "brand": "USPS", "collection_times": "Mo-Fr 16:30; Sa 12:00", "name": "USPS COLLECTION BOX - PO LOBBY", "note": "ON 12/24 AND 12/31, THIS BOX MAY BE COLLECTED AS EARLY AS 12 NOON.", "ref": "4993500018"}, "type": "Feature"}
{"geometry": {"coordinates": [-90.170637, 46.454597], "type": "Point"}, "id": "bb1Qc47X7zhyGK2RrG4QFDeWOIY=", "properties": {"@spider": "usps_collection_boxes", "addr:city": "IRONWOOD", "addr:country": "US", "addr:full": "100 E AYER ST", "addr:postcode": "49938", "addr:state": "MI", "brand": "USPS", "collection_times": "Mo-Fr 16:30; Sa 16:00", "name": "USPS COLLECTION BOX - BLUE BOX", "note": "ON 12/24 AND 12/31, THIS BOX MAY BE COLLECTED AS EARLY AS 12 NOON.", "ref": "4993800002"}, "type": "Feature"}
{"geometry": {"coordinates": [-90.1651672, 46.455293], "type": "Point"}, "id": "ADtDGEDMlYt-SUqRpZwrdhLpo9I=", "properties": {"@spider": "usps_collection_boxes", "addr:city": "IRONWOOD", "addr:country": "US", "addr:full": "213 S MARQUETTE ST", "addr:postcode": "49938", "addr:state": "MI", "brand": "USPS", "collection_times": "Mo-Sa 15:00", "name": "USPS COLLECTION BOX - BLUE BOX", "note": "ON 12/24 AND 12/31, THIS BOX MAY BE COLLECTED AS EARLY AS 12 NOON.", "ref": "4993800013"}, "type": "Feature"}
{"geometry": {"coordinates": [-90.1433549, 46.465095], "type": "Point"}, "id": "WYgvpXwjZ-lJRp4muab8zYA7gwY=", "properties": {"@spider": "usps_collection_boxes", "addr:city": "IRONWOOD", "addr:country": "US", "addr:full": "1400 E CLOVERLAND DR", "addr:postcode": "49938", "addr:state": "MI", "brand": "USPS", "collection_times": "Mo-Sa 09:45", "name": "USPS COLLECTION BOX - BLUE BOX", "ref": "4993800018"}, "type": "Feature"}
{"geometry": {"coordinates": [-90.1419283, 46.464564], "type": "Point"}, "id": "NCx2Byb44k3fcb3uUa-5DTZhPWE=", "properties": {"@spider": "usps_collection_boxes", "addr:city": "IRONWOOD", "addr:country": "US", "addr:full": "211 ROOSEVELT ST", "addr:postcode": "49938", "addr:state": "MI", "brand": "USPS", "collection_times": "Mo-Sa 09:30", "name": "USPS COLLECTION BOX - BLUE BOX", "ref": "4993800026"}, "type": "Feature"}
{"geometry": {"coordinates": [-90.170637, 46.454597], "type": "Point"}, "id": "7CmabT_KDXKPSPUE1wXL1NbDu4E=", "properties": {"@spider": "usps_collection_boxes", "addr:city": "IRONWOOD", "addr:country": "US", "addr:full": "100 E AYER ST", "addr:postcode": "49938", "addr:state": "MI", "brand": "USPS", "collection_times": "Mo-Fr 16:30; Sa 16:00", "name": "USPS COLLECTION BOX - PO LOBBY", "note": "ON 12/24 AND 12/31, THIS BOX MAY BE COLLECTED AS EARLY AS 12 NOON.", "ref": "4993800029"}, "type": "Feature"}
{"geometry": {"coordinates": [-90.170687164, 46.45461717], "type": "Point"}, "id": "S6KqH0clDczpSj0NA3fG6uA_xKE=", "properties": {"@spider": "usps_collection_boxes", "addr:city": "IRONWOOD", "addr:country": "US", "addr:full": "100 E AYER ST", "addr:postcode": "49938", "addr:state": "MI", "brand": "USPS", "collection_times": "Mo-Fr 16:30; Sa 16:00", "name": "USPS COLLECTION BOX - BLUE BOX", "note": "ON 12/24 AND 12/31, THIS BOX MAY BE COLLECTED AS EARLY AS 12 NOON.", "ref": "4993800032"}, "type": "Feature"}
{"geometry": {"coordinates": [-90.169695197, 46.453839463], "type": "Point"}, "id": "qp5mrvP6C30cW1DV5Vqf6ElSipM=", "properties": {"@spider": "usps_collection_boxes", "addr:city": "IRONWOOD", "addr:country": "US", "addr:full": "100 E AURORA ST", "addr:postcode": "49938", "addr:state": "MI", "brand": "USPS", "collection_times": "Mo-Fr 14:30; Sa 11:00", "name": "USPS COLLECTION BOX - BLUE BOX", "note": "ON 12/24 AND 12/31, THIS BOX MAY BE COLLECTED AS EARLY AS 12 NOON.", "ref": "4993800033"}, "type": "Feature"}
{"geometry": {"coordinates": [-90.170687164, 46.45461717], "type": "Point"}, "id": "3yhB-eUVmSoN4s05NYK7RtZ8E4A=", "properties": {"@spider": "usps_collection_boxes", "addr:city": "IRONWOOD", "addr:country": "US", "addr:full": "100 E AYER ST", "addr:postcode": "49938", "addr:state": "MI", "brand": "USPS", "collection_times": "Mo-Fr 16:00; Sa 11:30", "name": "USPS COLLECTION BOX - PO LOBBY", "note": "ON 12/24 AND 12/31, THIS BOX MAY BE COLLECTED AS EARLY AS 12 NOON.", "ref": "4993800034"}, "type": "Feature"}
{"geometry": {"coordinates": [-88.4448903, 46.750579], "type": "Point"}, "id": "nnw4dzhBzyjHd0CHsQIv5_XyEKk=", "properties": {"@spider": "usps_collection_boxes", "addr:city": "LANSE", "addr:country": "US", "addr:full": "118 US HIGHWAY 41", "addr:postcode": "49946", "addr:state": "MI", "brand": "USPS", "collection_times": "Mo-Sa 10:30", "name": "USPS COLLECTION BOX - BLUE BOX", "ref": "4994600013"}, "type": "Feature"}
{"geometry": {"coordinates": [-89.695668, 46.380327], "type": "Point"}, "id": "1nX5FDwnCr5O5EDQnLJHXrR-0fM=", "properties": {"@spider": "usps_collection_boxes", "addr:city": "MARENISCO", "addr:country": "US", "addr:full": "306 HALL ST", "addr:postcode": "49947", "addr:state": "MI", "brand": "USPS", "collection_times": "Mo-Fr 11:30; Sa 10:30", "name": "USPS COLLECTION BOX - BLUE BOX", "ref": "4994700000"}, "type": "Feature"}
{"geometry": {"coordinates": [-89.695668, 46.380327], "type": "Point"}, "id": "i-wopJcoKXpcNLqRwvx9V5nqsPE=", "properties": {"@spider": "usps_collection_boxes", "addr:city": "MARENISCO", "addr:country": "US", "addr:full": "306 HALL ST", "addr:postcode": "49947", "addr:state": "MI", "brand": "USPS", "collection_times": "Mo-Fr 11:30; Sa 10:45", "name": "USPS COLLECTION BOX - PO LOBBY", "ref": "4994700002"}, "type": "Feature"}
{"geometry": {"coordinates": [-89.695788368, 46.381668323], "type": "Point"}, "id": "gb1ukwHlLgCTIh79xwilXOBbBxw=", "properties": {"@spider": "usps_collection_boxes", "addr:city": "MARENISCO", "addr:country": "US", "addr:full": "306 HALL ST", "addr:postcode": "49947", "addr:state": "MI", "brand": "USPS", "collection_times": "Mo-Fr 11:00; Sa 10:00", "name": "USPS COLLECTION BOX - PO LOBBY", "ref": "4994700003"}, "type": "Feature"}
{"geometry": {"coordinates": [-88.363988, 47.304459], "type": "Point"}, "id": "LLttZV_IP3yArR9nEKDUImMUshY=", "properties": {"@spider": "usps_collection_boxes", "addr:city": "MOHAWK", "addr:country": "US", "addr:full": "78 MOHAWK ST", "addr:postcode": "49950", "addr:state": "MI", "brand": "USPS", "collection_times": "Mo-Fr 15:45; Sa 12:30", "name": "USPS COLLECTION BOX - BLUE BOX", "note": "ON 12/24 AND 12/31, THIS BOX MAY BE COLLECTED AS EARLY AS 12 NOON.", "ref": "4995000000"}, "type": "Feature"}
{"geometry": {"coordinates": [-88.364111, 47.304416], "type": "Point"}, "id": "0hDow064d-ZY8PePgDKJV_ZxDpA=", "properties": {"@spider": "usps_collection_boxes", "addr:city": "MOHAWK", "addr:country": "US", "addr:full": "78 MOHAWK ST", "addr:postcode": "49950", "addr:state": "MI", "brand": "USPS", "collection_times": "Mo-Fr 15:45; Sa 12:45", "name": "USPS COLLECTION BOX - PO LOBBY", "note": "ON 12/24 AND 12/31, THIS BOX MAY BE COLLECTED AS EARLY AS 12 NOON.", "ref": "4995000001"}, "type": "Feature"}
{"geometry": {"coordinates": [-88.3630201, 47.305059265], "type": "Point"}, "id": "JprF-ohE0mekHb8txk7EYptL-w0=", "properties": {"@spider": "usps_collection_boxes", "addr:city": "MOHAWK", "addr:country": "US", "addr:full": "78 MOHAWK ST", "addr:postcode": "49950", "addr:state": "MI", "brand": "USPS", "collection_times": "Mo-Fr 15:15; Sa 11:30", "name": "USPS COLLECTION BOX - PO LOBBY", "note": "ON 12/24 AND 12/31, THIS BOX MAY BE COLLECTED AS EARLY AS 12 NOON.", "ref": "4995000002"}, "type": "Feature"}
{"geometry": {"coordinates": [-89.179345, 46.736358], "type": "Point"}, "id": "SUY3na6O9xuhAB36FkOaF0kReFY=", "properties": {"@spider": "usps_collection_boxes", "addr:city": "ROCKLAND", "addr:country": "US", "addr:full": "86 NATIONAL AVE", "addr:postcode": "49960", "addr:state": "MI", "brand": "USPS", "collection_times": "Mo-Fr 16:30; Sa 10:30", "name": "USPS COLLECTION BOX - BLUE BOX", "note": "ON 12/24 AND 12/31, THIS BOX MAY BE COLLECTED AS EARLY AS 12 NOON.", "ref": "4996000000"}, "type": "Feature"}
{"geometry": {"coordinates": [-89.179304, 46.736314], "type": "Point"}, "id": "dsrZqTMWwe7W3qh4nFvhP0-Nwlg=", "properties": {"@spider": "usps_collection_boxes", "addr:city": "ROCKLAND", "addr:country": "US", "addr:full": "86 NATIONAL AVE", "addr:postcode": "49960", "addr:state": "MI", "brand": "USPS", "collection_times": "Mo-Fr 16:00; Sa 10:30", "name": "USPS COLLECTION BOX - PO LOBBY", "note": "ON 12/24 AND 12/31, THIS BOX MAY BE COLLECTED AS EARLY AS 12 NOON.", "ref": "4996000001"}, "type": "Feature"}
{"geometry": {"coordinates": [-89.1794888, 46.737845], "type": "Point"}, "id": "fLUIRv1TdtamOA7AcvMevhslcPw=", "properties": {"@spider": "usps_collection_boxes", "addr:city": "ROCKLAND", "addr:country": "US", "addr:full": "100 NATIONAL AVE", "addr:postcode": "49960", "addr:state": "MI", "brand": "USPS", "collection_times": "Mo-Sa 10:30", "name": "USPS COLLECTION BOX - BLUE BOX", "ref": "4996000002"}, "type": "Feature"}
{"geometry": {"coordinates": [-89.1793671734, 46.7363360988], "type": "Point"}, "id": "jnBpZbW4duRYKmsUtnQ9ku4J3pI=", "properties": {"@spider": "usps_collection_boxes", "addr:city": "ROCKLAND", "addr:country": "US", "addr:full": "86 NATIONAL AVE", "addr:postcode": "49960", "addr:state": "MI", "brand": "USPS", "collection_times": "Mo-Fr 16:00; Sa 10:15", "name": "USPS COLLECTION BOX - PO LOBBY", "note": "ON 12/24 AND 12/31, THIS BOX MAY BE COLLECTED AS EARLY AS 12 NOON.", "ref": "4996000003"}, "type": "Feature"}
{"geometry": {"coordinates": [-88.708164, 46.506655], "type": "Point"}, "id": "DAgqzVgHjTKi1qFjq27tPKssEEs=", "properties": {"@spider": "usps_collection_boxes", "addr:city": "SIDNAW", "addr:country": "US", "addr:full": "13640 E STATE HIGHWAY M28", "addr:postcode": "49961", "addr:state": "MI", "brand": "USPS", "collection_times": "Mo-Fr 16:15; Sa 10:30", "name": "USPS COLLECTION BOX - BLUE BOX", "note": "ON 12/24 AND 12/31, THIS BOX MAY BE COLLECTED AS EARLY AS 12 NOON.", "ref": "4996100000"}, "type": "Feature"}
{"geometry": {"coordinates": [-88.708164, 46.506655], "type": "Point"}, "id": "R8Zn9Nz1y7crXRnalI9JXQNi58k=", "properties": {"@spider": "usps_collection_boxes", "addr:city": "SIDNAW", "addr:country": "US", "addr:full": "13640 E STATE HIGHWAY M28", "addr:postcode": "49961", "addr:state": "MI", "brand": "USPS", "collection_times": "Mo-Fr 16:15; Sa 10:30", "name": "USPS COLLECTION BOX - PO LOBBY", "note": "ON 12/24 AND 12/31, THIS BOX MAY BE COLLECTED AS EARLY AS 12 NOON.", "ref": "4996100001"}, "type": "Feature"}
{"geometry": {"coordinates": [-88.712358293, 46.522628534], "type": "Point"}, "id": "ddc3arZVxui1kSk2VxPnr3sL3dE=", "properties": {"@spider": "usps_collection_boxes", "addr:city": "SIDNAW", "addr:country": "US", "addr:full": "13640 E STATE HIGHWAY M28", "addr:postcode": "49961", "addr:state": "MI", "brand": "USPS", "collection_times": "Mo-Fr 16:00; Sa 10:30", "name": "USPS COLLECTION BOX - PO LOBBY", "note": "ON 12/24 AND 12/31, THIS BOX MAY BE COLLECTED AS EARLY AS 12 NOON.", "ref": "4996100002"}, "type": "Feature"}
{"geometry": {"coordinates": [-88.214209, 46.877162], "type": "Point"}, "id": "7z6OVJj6ZgTVEGc48GCz-9e4gPI=", "properties": {"@spider": "usps_collection_boxes", "addr:city": "SKANEE", "addr:country": "US", "addr:full": "13120 TOWN RD", "addr:postcode": "49962", "addr:state": "MI", "brand": "USPS", "collection_times": "Mo-Fr 12:00; Sa 11:30", "name": "USPS COLLECTION BOX - BLUE BOX", "ref": "4996200000"}, "type": "Feature"}
{"geometry": {"coordinates": [-88.214167, 46.877081], "type": "Point"}, "id": "hsaYHqzXdSiuZ5a1ckwvGXiLXhs=", "properties": {"@spider": "usps_collection_boxes", "addr:city": "SKANEE", "addr:country": "US", "addr:full": "13120 TOWN RD", "addr:postcode": "49962", "addr:state": "MI", "brand": "USPS", "collection_times": "Mo-Fr 12:00; Sa 11:30", "name": "USPS COLLECTION BOX - PO LOBBY", "ref": "4996200001"}, "type": "Feature"}
{"geometry": {"coordinates": [-88.2142269669, 46.8771260449], "type": "Point"}, "id": "IY8lW7hi722MLsulhOpFhN377TY=", "properties": {"@spider": "usps_collection_boxes", "addr:city": "SKANEE", "addr:country": "US", "addr:full": "13120 TOWN RD", "addr:postcode": "49962", "addr:state": "MI", "brand": "USPS", "collection_times": "Mo-Sa 11:30", "name": "USPS COLLECTION BOX - PO LOBBY", "ref": "4996200002"}, "type": "Feature"}
{"geometry": {"coordinates": [-88.633402, 46.086671], "type": "Point"}, "id": "Zv8t4diZcWhsA9EJ5Hg3xhBtX4c=", "properties": {"@spider": "usps_collection_boxes", "addr:city": "STAMBAUGH", "addr:country": "US", "addr:full": "201 WASHINGTON AVE", "addr:postcode": "49964", "addr:state": "MI", "brand": "USPS", "collection_times": "Mo-Fr 12:00; Sa 11:00", "name": "USPS COLLECTION BOX - BLUE BOX", "ref": "4996400000"}, "type": "Feature"}
{"geometry": {"coordinates": [-88.633442, 46.086761], "type": "Point"}, "id": "VRXmm2SQHwyC__dQvUmizalZdIY=", "properties": {"@spider": "usps_collection_boxes", "addr:city": "STAMBAUGH", "addr:country": "US", "addr:full": "201 WASHINGTON AVE", "addr:postcode": "49964", "addr:state": "MI", "brand": "USPS", "collection_times": "Mo-Fr 12:00; Sa 11:15", "name": "USPS COLLECTION BOX - PO LOBBY", "ref": "4996400001"}, "type": "Feature"}
{"geometry": {"coordinates": [-88.633430509, 46.08671238], "type": "Point"}, "id": "NH8M3KiPi3Yl_01cLjxS5UU-t2c=", "properties": {"@spider": "usps_collection_boxes", "addr:city": "STAMBAUGH", "addr:country": "US", "addr:full": "201 WASHINGTON AVE", "addr:postcode": "49964", "addr:state": "MI", "brand": "USPS", "collection_times": "Mo-Fr 11:30; Sa 10:30", "name": "USPS COLLECTION BOX - PO LOBBY", "ref": "4996400002"}, "type": "Feature"}
{"geometry": {"coordinates": [-89.0122694, 46.482747], "type": "Point"}, "id": "P_5-Y3gfzKr7KaQLbW9s9-ecrdg=", "properties": {"@spider": "usps_collection_boxes", "addr:city": "TROUT CREEK", "addr:country": "US", "addr:full": "153 DIVISION ST", "addr:postcode": "49967", "addr:state": "MI", "brand": "USPS", "collection_times": "Mo-Fr 16:30; Sa 10:00", "name": "USPS COLLECTION BOX - BLUE BOX", "note": "ON 12/24 AND 12/31, THIS BOX MAY BE COLLECTED AS EARLY AS 12 NOON.", "ref": "4996700000"}, "type": "Feature"}
{"geometry": {"coordinates": [-89.0122855, 46.482658], "type": "Point"}, "id": "iZ0AnZ_4GXsP2y93F3VmqBLF484=", "properties": {"@spider": "usps_collection_boxes", "addr:city": "TROUT CREEK", "addr:country": "US", "addr:full": "153 DIVISION ST", "addr:postcode": "49967", "addr:state": "MI", "brand": "USPS", "collection_times": "Mo-Fr 16:30; Sa 10:00", "name": "USPS COLLECTION BOX - PO LOBBY", "note": "ON 12/24 AND 12/31, THIS BOX MAY BE COLLECTED AS EARLY AS 12 NOON.", "ref": "4996700001"}, "type": "Feature"}
{"geometry": {"coordinates": [-89.0124019, 46.482746], "type": "Point"}, "id": "0aY0IW2GsQ5Q9EaWfwmOSzhG_x8=", "properties": {"@spider": "usps_collection_boxes", "addr:city": "TROUT CREEK", "addr:country": "US", "addr:full": "153 DIVISION ST", "addr:postcode": "49967", "addr:state": "MI", "brand": "USPS", "collection_times": "Mo-Fr 16:30; Sa 10:00", "name": "USPS COLLECTION BOX - PO LOBBY", "note": "ON 12/24 AND 12/31, THIS BOX MAY BE COLLECTED AS EARLY AS 12 NOON.", "ref": "4996700002"}, "type": "Feature"}
{"geometry": {"coordinates": [-89.01216143, 46.482681465], "type": "Point"}, "id": "WaW1YiBZW8kQMuOpjs9YSzQ22qk=", "properties": {"@spider": "usps_collection_boxes", "addr:city": "TROUT CREEK", "addr:country": "US", "addr:full": "153 DIVISION ST", "addr:postcode": "49967", "addr:state": "MI", "brand": "USPS", "collection_times": "Mo-Fr 12:00; Sa 09:45", "name": "USPS COLLECTION BOX - PO LOBBY", "ref": "4996700004"}, "type": "Feature"}
{"geometry": {"coordinates": [-89.942368, 46.474815], "type": "Point"}, "id": "jmdYzqKJY8cDZSF5JNYMVP8q6s0=", "properties": {"@spider": "usps_collection_boxes", "addr:city": "WAKEFIELD", "addr:country": "US", "addr:full": "409 HANCOCK ST", "addr:postcode": "49968", "addr:state": "MI", "brand": "USPS", "collection_times": "Mo-Fr 16:00; Sa 12:00", "name": "USPS COLLECTION BOX - BLUE BOX", "note": "ON 12/24 AND 12/31, THIS BOX MAY BE COLLECTED AS EARLY AS 12 NOON.", "ref": "4996800000"}, "type": "Feature"}
{"geometry": {"coordinates": [-89.9412355, 46.473666], "type": "Point"}, "id": "vLoUZ7x5Sg2dZsSZ_0vl1k_mqh8=", "properties": {"@spider": "usps_collection_boxes", "addr:city": "WAKEFIELD", "addr:country": "US", "addr:full": "501 SUNDAY LAKE ST", "addr:postcode": "49968", "addr:state": "MI", "brand": "USPS", "collection_times": "Mo-Fr 09:30; Sa 09:45", "name": "USPS COLLECTION BOX - BLUE BOX", "ref": "4996800002"}, "type": "Feature"}
{"geometry": {"coordinates": [-89.9277028, 46.473587], "type": "Point"}, "id": "ITGr5YloCJPfvzwkGluCNZ0YNlI=", "properties": {"@spider": "usps_collection_boxes", "addr:city": "WAKEFIELD", "addr:country": "US", "addr:full": "1410 E PIERCE ST", "addr:postcode": "49968", "addr:state": "MI", "brand": "USPS", "collection_times": "Mo-Fr 11:00; Sa 11:45", "name": "USPS COLLECTION BOX - BLUE BOX", "ref": "4996800003"}, "type": "Feature"}
{"geometry": {"coordinates": [-89.9320571, 46.475998], "type": "Point"}, "id": "BPDgPtGAJLSHJhY5wa7TY4SA9UY=", "properties": {"@spider": "usps_collection_boxes", "addr:city": "WAKEFIELD", "addr:country": "US", "addr:full": "1110 US HIGHWAY 2", "addr:postcode": "49968", "addr:state": "MI", "brand": "USPS", "collection_times": "Mo-Sa 14:00", "name": "USPS COLLECTION BOX - BLUE BOX", "note": "ON 12/24 AND 12/31, THIS BOX MAY BE COLLECTED AS EARLY AS 12 NOON.", "ref": "4996800005"}, "type": "Feature"}
{"geometry": {"coordinates": [-89.9349995, 46.476838], "type": "Point"}, "id": "yP2co9YKxR1BjgrqaLdJj0rfzFY=", "properties": {"@spider": "usps_collection_boxes", "addr:city": "WAKEFIELD", "addr:country": "US", "addr:full": "905 PUTNAM ST", "addr:postcode": "49968", "addr:state": "MI", "brand": "USPS", "collection_times": "Mo-Sa 10:30", "name": "USPS COLLECTION BOX - BLUE BOX", "ref": "4996800007"}, "type": "Feature"}
{"geometry": {"coordinates": [-89.9327573, 46.473267], "type": "Point"}, "id": "dvQNzaLjgFxON4klr0Sj9cyYg-k=", "properties": {"@spider": "usps_collection_boxes", "addr:city": "WAKEFIELD", "addr:country": "US", "addr:full": "506 OLSON AVE", "addr:postcode": "49968", "addr:state": "MI", "brand": "USPS", "collection_times": "Mo-Fr 10:45; Sa 11:15", "name": "USPS COLLECTION BOX - BLUE BOX", "ref": "4996800009"}, "type": "Feature"}
{"geometry": {"coordinates": [-89.9417424, 46.474661], "type": "Point"}, "id": "jf_PrWsIRQwjKwLxcHSakVtOf6E=", "properties": {"@spider": "usps_collection_boxes", "addr:city": "WAKEFIELD", "addr:country": "US", "addr:full": "409 HANCOCK ST", "addr:postcode": "49968", "addr:state": "MI", "brand": "USPS", "collection_times": "Mo-Fr 16:15; Sa 12:00", "name": "USPS COLLECTION BOX - PO LOBBY", "note": "ON 12/24 AND 12/31, THIS BOX MAY BE COLLECTED AS EARLY AS 12 NOON.", "ref": "4996800011"}, "type": "Feature"}
{"geometry": {"coordinates": [-89.942413105, 46.474869113], "type": "Point"}, "id": "5EJjG6SjJCp8SdRBRtyM0EsLvSI=", "properties": {"@spider": "usps_collection_boxes", "addr:city": "WAKEFIELD", "addr:country": "US", "addr:full": "409 HANCOCK ST", "addr:postcode": "49968", "addr:state": "MI", "brand": "USPS", "collection_times": "Mo-Fr 15:30; Sa 11:30", "name": "USPS COLLECTION BOX - PO LOBBY", "note": "ON 12/24 AND 12/31, THIS BOX MAY BE COLLECTED AS EARLY AS 12 NOON.", "ref": "4996800012"}, "type": "Feature"}
{"geometry": {"coordinates": [-89.4074939, 46.2173823], "type": "Point"}, "id": "-hUzGVYEMfN09kARQiCbB0p02lY=", "properties": {"@spider": "usps_collection_boxes", "addr:city": "WATERSMEET", "addr:country": "US", "addr:full": "N4708 MAIN ST", "addr:postcode": "49969", "addr:state": "MI", "brand": "USPS", "collection_times": "Mo-Fr 16:00; Sa 10:30", "name": "USPS COLLECTION BOX - BLUE BOX", "note": "ON 12/24 AND 12/31, THIS BOX MAY BE COLLECTED AS EARLY AS 12 NOON.", "ref": "4996900000"}, "type": "Feature"}
{"geometry": {"coordinates": [-89.4074939, 46.2173823], "type": "Point"}, "id": "FmQQoHvH1ehpTlWOU--IUeHiL5o=", "properties": {"@spider": "usps_collection_boxes", "addr:city": "WATERSMEET", "addr:country": "US", "addr:full": "N4708 MAIN ST", "addr:postcode": "49969", "addr:state": "MI", "brand": "USPS", "collection_times": "Mo-Fr 16:00; Sa 10:30", "name": "USPS COLLECTION BOX - PO LOBBY", "note": "ON 12/24 AND 12/31, THIS BOX MAY BE COLLECTED AS EARLY AS 12 NOON.", "ref": "4996900001"}, "type": "Feature"}
{"geometry": {"coordinates": [-89.4074939, 46.2173823], "type": "Point"}, "id": "JrGjHdqqHQWXaN7_P6FJvcERz0s=", "properties": {"@spider": "usps_collection_boxes", "addr:city": "WATERSMEET", "addr:country": "US", "addr:full": "N4708 MAIN ST", "addr:postcode": "49969", "addr:state": "MI", "brand": "USPS", "collection_times": "Mo-Fr 15:30; Sa 10:15", "name": "USPS COLLECTION BOX - PO LOBBY", "note": "ON 12/24 AND 12/31, THIS BOX MAY BE COLLECTED AS EARLY AS 12 NOON.", "ref": "4996900002"}, "type": "Feature"}
{"geometry": {"coordinates": [-88.606903134, 46.537485002], "type": "Point"}, "id": "9WrvXA0-Q2o5HunskpS6RM_p6cU=", "properties": {"@spider": "usps_collection_boxes", "addr:city": "WATTON", "addr:country": "US", "addr:full": "11729 STATE HIGHWAY M28", "addr:postcode": "49970", "addr:state": "MI", "brand": "USPS", "collection_times": "Mo-Fr 12:00; Sa 09:45", "name": "USPS COLLECTION BOX - BLUE BOX", "ref": "4997000000"}, "type": "Feature"}
{"geometry": {"coordinates": [-88.606903134, 46.537485002], "type": "Point"}, "id": "gdyROqUFmW5XRsIL-Y8pvbjuMaA=", "properties": {"@spider": "usps_collection_boxes", "addr:city": "WATTON", "addr:country": "US", "addr:full": "11729 STATE HIGHWAY M28", "addr:postcode": "49970", "addr:state": "MI", "brand": "USPS", "collection_times": "Mo-Fr 12:00; Sa 09:45", "name": "USPS COLLECTION BOX - PO LOBBY", "ref": "4997000001"}, "type": "Feature"}
{"geometry": {"coordinates": [-88.606903134, 46.537485002], "type": "Point"}, "id": "HRos8wgEZbp9xW6Q89iImuVLVvg=", "properties": {"@spider": "usps_collection_boxes", "addr:city": "WATTON", "addr:country": "US", "addr:full": "11729 STATE HIGHWAY M28", "addr:postcode": "49970", "addr:state": "MI", "brand": "USPS", "collection_times": "Mo-Fr 11:30; Sa 09:15", "name": "USPS COLLECTION BOX - PO LOBBY", "ref": "4997000003"}, "type": "Feature"}
{"geometry": {"coordinates": [-89.5737364766, 46.7547568914], "type": "Point"}, "id": "Cl_WMgCxQBsuXKRNJf_8ptyPUyQ=", "properties": {"@spider": "usps_collection_boxes", "addr:city": "WHITE PINE", "addr:country": "US", "addr:full": "303 MINERAL RIVER PLZ", "addr:postcode": "49971", "addr:state": "MI", "brand": "USPS", "collection_times": "Mo-Fr 16:30; Sa 11:45", "name": "USPS COLLECTION BOX - BLUE BOX", "note": "ON 12/24 AND 12/31, THIS BOX MAY BE COLLECTED AS EARLY AS 12 NOON.", "ref": "4997100000"}, "type": "Feature"}
{"geometry": {"coordinates": [-89.5737364766, 46.7547568914], "type": "Point"}, "id": "9czCBG2LoDRNKwZ5UJj8hpGvjcA=", "properties": {"@spider": "usps_collection_boxes", "addr:city": "WHITE PINE", "addr:country": "US", "addr:full": "303 MINERAL RIVER PLZ", "addr:postcode": "49971", "addr:state": "MI", "brand": "USPS", "collection_times": "Mo-Fr 16:30; Sa 11:45", "name": "USPS COLLECTION BOX - PO LOBBY", "note": "ON 12/24 AND 12/31, THIS BOX MAY BE COLLECTED AS EARLY AS 12 NOON.", "ref": "4997100001"}, "type": "Feature"}
{"geometry": {"coordinates": [-89.5794764, 46.7586163], "type": "Point"}, "id": "CkO1KQugvzGolleVR5gxxSiAAqI=", "properties": {"@spider": "usps_collection_boxes", "addr:city": "WHITE PINE", "addr:country": "US", "addr:full": "303 MINERAL RIVER PLZ", "addr:postcode": "49971", "addr:state": "MI", "brand": "USPS", "collection_times": "Mo-Fr 16:00; Sa 11:15", "name": "USPS COLLECTION BOX - PO LOBBY", "note": "ON 12/24 AND 12/31, THIS BOX MAY BE COLLECTED AS EARLY AS 12 NOON.", "ref": "4997100002"}, "type": "Feature"}
