{"geometry": {"coordinates": [-94.6518247, 41.5008563], "type": "Point"}, "id": "afoG0i9q1Eru63QVCRNeyNLtaa0=", "properties": {"@source_uri": "https://tools.usps.com/UspsToolsRestServices/rest/POLocator/findLocations", "@spider": "usps_collection_boxes", "addr:city": "ADAIR", "addr:country": "US", "addr:postcode": "50002", "addr:state": "IA", "addr:street_address": "317 AUDUBON ST", "amenity": "post_box", "collection_times": "Mo-Fr 16:15; Sa 08:45", "indoor": "yes", "note": "ON 12/24 AND 12/31, THIS BOX MAY BE COLLECTED AS EARLY AS 12 NOON.", "nsi_id": "unitedstatespostalservice-a77078", "operator": "United States Postal Service", "operator:short": "USPS", "operator:type": "public", "operator:wikidata": "Q668687", "ref": "5000200002"}, "type": "Feature"}
{"geometry": {"coordinates": [-94.641481672, 41.50068548], "type": "Point"}, "id": "GZp-2lBcZ49Sq9fNQMrTGEWJxkU=", "properties": {"@source_uri": "https://tools.usps.com/UspsToolsRestServices/rest/POLocator/findLocations", "@spider": "usps_collection_boxes", "addr:city": "ADAIR", "addr:country": "US", "addr:postcode": "50002", "addr:state": "IA", "addr:street_address": "317 AUDUBON ST", "amenity": "post_box", "collection_times": "Mo-Fr 16:15", "note": "ON 12/24 AND 12/31, THIS BOX MAY BE COLLECTED AS EARLY AS 12 NOON.", "nsi_id": "unitedstatespostalservice-a77078", "operator": "United States Postal Service", "operator:short": "USPS", "operator:type": "public", "operator:wikidata": "Q668687", "ref": "5000200003"}, "type": "Feature"}
{"geometry": {"coordinates": [-94.641481672, 41.50068548], "type": "Point"}, "id": "e_oHt4qzPO_zeP7ToXPOEGzAYo0=", "properties": {"@source_uri": "https://tools.usps.com/UspsToolsRestServices/rest/POLocator/findLocations", "@spider": "usps_collection_boxes", "addr:city": "ADAIR", "addr:country": "US", "addr:postcode": "50002", "addr:state": "IA", "addr:street_address": "317 AUDUBON ST", "amenity": "post_box", "collection_times": "Mo-Fr 16:15; Sa 08:45", "indoor": "yes", "note": "ON 12/24 AND 12/31, THIS BOX MAY BE COLLECTED AS EARLY AS 12 NOON.", "nsi_id": "unitedstatespostalservice-a77078", "operator": "United States Postal Service", "operator:short": "USPS", "operator:type": "public", "operator:wikidata": "Q668687", "ref": "5000200007"}, "type": "Feature"}
{"geometry": {"coordinates": [-94.016007195, 41.609008468], "type": "Point"}, "id": "eYJICX6dX8mD-lPT8wvkfasoG54=", "properties": {"@source_uri": "https://tools.usps.com/UspsToolsRestServices/rest/POLocator/findLocations", "@spider": "usps_collection_boxes", "addr:city": "ADEL", "addr:country": "US", "addr:postcode": "50003", "addr:state": "IA", "addr:street_address": "904 NILE KINNICK DR S", "amenity": "post_box", "collection_times": "Mo-Sa 17:00", "note": "ON 12/24 AND 12/31, THIS BOX MAY BE COLLECTED AS EARLY AS 12 NOON.", "nsi_id": "unitedstatespostalservice-a77078", "operator": "United States Postal Service", "operator:short": "USPS", "operator:type": "public", "operator:wikidata": "Q668687", "ref": "5000300002"}, "type": "Feature"}
{"geometry": {"coordinates": [-94.016007195, 41.609008468], "type": "Point"}, "id": "E6u3yWTKBfe5iObYXOJiLPrBq_g=", "properties": {"@source_uri": "https://tools.usps.com/UspsToolsRestServices/rest/POLocator/findLocations", "@spider": "usps_collection_boxes", "addr:city": "ADEL", "addr:country": "US", "addr:postcode": "50003", "addr:state": "IA", "addr:street_address": "904 NILE KINNICK DR S", "amenity": "post_box", "collection_times": "Mo-Fr 16:30; Sa 11:00", "indoor": "yes", "note": "ON 12/24 AND 12/31, THIS BOX MAY BE COLLECTED AS EARLY AS 12 NOON.", "nsi_id": "unitedstatespostalservice-a77078", "operator": "United States Postal Service", "operator:short": "USPS", "operator:type": "public", "operator:wikidata": "Q668687", "ref": "5000300006"}, "type": "Feature"}
{"geometry": {"coordinates": [-94.019874818, 41.617396874], "type": "Point"}, "id": "1DAl80SkJanBxzENJkJb8EkpII4=", "properties": {"@source_uri": "https://tools.usps.com/UspsToolsRestServices/rest/POLocator/findLocations", "@spider": "usps_collection_boxes", "addr:city": "ADEL", "addr:country": "US", "addr:postcode": "50003", "addr:state": "IA", "addr:street_address": "108 N 10TH ST", "amenity": "post_box", "collection_times": "Mo-Fr 12:00", "nsi_id": "unitedstatespostalservice-a77078", "operator": "United States Postal Service", "operator:short": "USPS", "operator:type": "public", "operator:wikidata": "Q668687", "ref": "5000300008"}, "type": "Feature"}
{"geometry": {"coordinates": [-94.016007195, 41.609008468], "type": "Point"}, "id": "mlSwp8C7aa7SRO_asvnKwvjKv64=", "properties": {"@source_uri": "https://tools.usps.com/UspsToolsRestServices/rest/POLocator/findLocations", "@spider": "usps_collection_boxes", "addr:city": "ADEL", "addr:country": "US", "addr:postcode": "50003", "addr:state": "IA", "addr:street_address": "904 NILE KINNICK DR S", "amenity": "post_box", "collection_times": "Mo-Fr 16:30; Sa 11:00", "indoor": "yes", "note": "ON 12/24 AND 12/31, THIS BOX MAY BE COLLECTED AS EARLY AS 12 NOON.", "nsi_id": "unitedstatespostalservice-a77078", "operator": "United States Postal Service", "operator:short": "USPS", "operator:type": "public", "operator:wikidata": "Q668687", "ref": "5000300009"}, "type": "Feature"}
{"geometry": {"coordinates": [-92.99088, 42.111387512], "type": "Point"}, "id": "Sn2gH4E2bNrzvfItblf_cccm5dA=", "properties": {"@source_uri": "https://tools.usps.com/UspsToolsRestServices/rest/POLocator/findLocations", "@spider": "usps_collection_boxes", "addr:city": "ALBION", "addr:country": "US", "addr:postcode": "50005", "addr:state": "IA", "addr:street_address": "103 W BROWN ST", "amenity": "post_box", "collection_times": "Mo-Fr 10:45; Sa 09:30", "nsi_id": "unitedstatespostalservice-a77078", "operator": "United States Postal Service", "operator:short": "USPS", "operator:type": "public", "operator:wikidata": "Q668687", "ref": "5000500001"}, "type": "Feature"}
{"geometry": {"coordinates": [-92.99088, 42.111387512], "type": "Point"}, "id": "-E086RtU7a-J-m5gzpZ2tYUCp3Y=", "properties": {"@source_uri": "https://tools.usps.com/UspsToolsRestServices/rest/POLocator/findLocations", "@spider": "usps_collection_boxes", "addr:city": "ALBION", "addr:country": "US", "addr:postcode": "50005", "addr:state": "IA", "addr:street_address": "103 W BROWN ST", "amenity": "post_box", "collection_times": "Mo-Fr 10:45; Sa 09:30", "indoor": "yes", "nsi_id": "unitedstatespostalservice-a77078", "operator": "United States Postal Service", "operator:short": "USPS", "operator:type": "public", "operator:wikidata": "Q668687", "ref": "5000500002"}, "type": "Feature"}
{"geometry": {"coordinates": [-92.99088, 42.111387512], "type": "Point"}, "id": "teVkWaSNO_pZJWetWo_B_EsEQmQ=", "properties": {"@source_uri": "https://tools.usps.com/UspsToolsRestServices/rest/POLocator/findLocations", "@spider": "usps_collection_boxes", "addr:city": "ALBION", "addr:country": "US", "addr:postcode": "50005", "addr:state": "IA", "addr:street_address": "103 W BROWN ST", "amenity": "post_box", "collection_times": "Mo-Fr 10:45; Sa 09:30", "indoor": "yes", "nsi_id": "unitedstatespostalservice-a77078", "operator": "United States Postal Service", "operator:short": "USPS", "operator:type": "public", "operator:wikidata": "Q668687", "ref": "5000500003"}, "type": "Feature"}
{"geometry": {"coordinates": [-93.376530891, 42.520442079], "type": "Point"}, "id": "52KYCd-CEm3UslsirobWiRNngaA=", "properties": {"@source_uri": "https://tools.usps.com/UspsToolsRestServices/rest/POLocator/findLocations", "@spider": "usps_collection_boxes", "addr:city": "ALDEN", "addr:country": "US", "addr:postcode": "50006", "addr:state": "IA", "addr:street_address": "1223 WATER ST", "amenity": "post_box", "collection_times": "Mo-Fr 16:00; Sa 09:00", "note": "ON 12/24 AND 12/31, THIS BOX MAY BE COLLECTED AS EARLY AS 12 NOON.", "nsi_id": "unitedstatespostalservice-a77078", "operator": "United States Postal Service", "operator:short": "USPS", "operator:type": "public", "operator:wikidata": "Q668687", "ref": "5000600001"}, "type": "Feature"}
{"geometry": {"coordinates": [-93.376530891, 42.520442079], "type": "Point"}, "id": "5WBF8Rj1gL8chZdQhYBglN71oUg=", "properties": {"@source_uri": "https://tools.usps.com/UspsToolsRestServices/rest/POLocator/findLocations", "@spider": "usps_collection_boxes", "addr:city": "ALDEN", "addr:country": "US", "addr:postcode": "50006", "addr:state": "IA", "addr:street_address": "1223 WATER ST", "amenity": "post_box", "collection_times": "Mo-Fr 16:00; Sa 10:15", "indoor": "yes", "note": "ON 12/24 AND 12/31, THIS BOX MAY BE COLLECTED AS EARLY AS 12 NOON.", "nsi_id": "unitedstatespostalservice-a77078", "operator": "United States Postal Service", "operator:short": "USPS", "operator:type": "public", "operator:wikidata": "Q668687", "ref": "5000600002"}, "type": "Feature"}
{"geometry": {"coordinates": [-93.376530891, 42.520442079], "type": "Point"}, "id": "p2Z-7IaoWYRntVWBW8qKRYXfj2U=", "properties": {"@source_uri": "https://tools.usps.com/UspsToolsRestServices/rest/POLocator/findLocations", "@spider": "usps_collection_boxes", "addr:city": "ALDEN", "addr:country": "US", "addr:postcode": "50006", "addr:state": "IA", "addr:street_address": "1223 WATER ST", "amenity": "post_box", "collection_times": "Mo-Fr 16:15", "indoor": "yes", "note": "ON 12/24 AND 12/31, THIS BOX MAY BE COLLECTED AS EARLY AS 12 NOON.", "nsi_id": "unitedstatespostalservice-a77078", "operator": "United States Postal Service", "operator:short": "USPS", "operator:type": "public", "operator:wikidata": "Q668687", "ref": "5000600003"}, "type": "Feature"}
{"geometry": {"coordinates": [-93.610623688, 41.819784451], "type": "Point"}, "id": "UfCrtQVjNz4BjLbC91ImhoPNNaU=", "properties": {"@source_uri": "https://tools.usps.com/UspsToolsRestServices/rest/POLocator/findLocations", "@spider": "usps_collection_boxes", "addr:city": "ALLEMAN", "addr:country": "US", "addr:postcode": "50007", "addr:state": "IA", "addr:street_address": "14172 NE 6TH ST", "amenity": "post_box", "collection_times": "Mo-Fr 15:30; Sa 13:15", "note": "ON 12/24 AND 12/31, THIS BOX MAY BE COLLECTED AS EARLY AS 12 NOON.", "nsi_id": "unitedstatespostalservice-a77078", "operator": "United States Postal Service", "operator:short": "USPS", "operator:type": "public", "operator:wikidata": "Q668687", "ref": "5000700001"}, "type": "Feature"}
{"geometry": {"coordinates": [-93.610623688, 41.819784451], "type": "Point"}, "id": "FwC88x6lDfaHV2l3TbeOTjSr0C8=", "properties": {"@source_uri": "https://tools.usps.com/UspsToolsRestServices/rest/POLocator/findLocations", "@spider": "usps_collection_boxes", "addr:city": "ALLEMAN", "addr:country": "US", "addr:postcode": "50007", "addr:state": "IA", "addr:street_address": "14172 NE 6TH ST", "amenity": "post_box", "collection_times": "Mo-Fr 15:30; Sa 13:15", "indoor": "yes", "note": "ON 12/24 AND 12/31, THIS BOX MAY BE COLLECTED AS EARLY AS 12 NOON.", "nsi_id": "unitedstatespostalservice-a77078", "operator": "United States Postal Service", "operator:short": "USPS", "operator:type": "public", "operator:wikidata": "Q668687", "ref": "5000700002"}, "type": "Feature"}
{"geometry": {"coordinates": [-93.610623688, 41.819784451], "type": "Point"}, "id": "nn-wYXE5whfv8q3SQ7OKMOsAMjQ=", "properties": {"@source_uri": "https://tools.usps.com/UspsToolsRestServices/rest/POLocator/findLocations", "@spider": "usps_collection_boxes", "addr:city": "ALLEMAN", "addr:country": "US", "addr:postcode": "50007", "addr:state": "IA", "addr:street_address": "14172 NE 6TH ST", "amenity": "post_box", "collection_times": "Mo-Fr 15:45; Sa 13:30", "indoor": "yes", "note": "ON 12/24 AND 12/31, THIS BOX MAY BE COLLECTED AS EARLY AS 12 NOON.", "nsi_id": "unitedstatespostalservice-a77078", "operator": "United States Postal Service", "operator:short": "USPS", "operator:type": "public", "operator:wikidata": "Q668687", "ref": "5000700004"}, "type": "Feature"}
{"geometry": {"coordinates": [-93.365187691, 40.706704882], "type": "Point"}, "id": "bibSeEJzHEP5yYVnQ8S4GtAmjd0=", "properties": {"@source_uri": "https://tools.usps.com/UspsToolsRestServices/rest/POLocator/findLocations", "@spider": "usps_collection_boxes", "addr:city": "ALLERTON", "addr:country": "US", "addr:postcode": "50008", "addr:state": "IA", "addr:street_address": "108 N CENTRAL AVE", "amenity": "post_box", "collection_times": "Mo-Fr 11:45; Sa 09:15", "nsi_id": "unitedstatespostalservice-a77078", "operator": "United States Postal Service", "operator:short": "USPS", "operator:type": "public", "operator:wikidata": "Q668687", "ref": "5000800001"}, "type": "Feature"}
{"geometry": {"coordinates": [-93.365187691, 40.706704882], "type": "Point"}, "id": "XtuFGysuaDqNEISelwCksp0_FM8=", "properties": {"@source_uri": "https://tools.usps.com/UspsToolsRestServices/rest/POLocator/findLocations", "@spider": "usps_collection_boxes", "addr:city": "ALLERTON", "addr:country": "US", "addr:postcode": "50008", "addr:state": "IA", "addr:street_address": "108 N CENTRAL AVE", "amenity": "post_box", "collection_times": "Mo-Fr 11:45; Sa 09:15", "indoor": "yes", "nsi_id": "unitedstatespostalservice-a77078", "operator": "United States Postal Service", "operator:short": "USPS", "operator:type": "public", "operator:wikidata": "Q668687", "ref": "5000800002"}, "type": "Feature"}
{"geometry": {"coordinates": [-93.365187691, 40.706704882], "type": "Point"}, "id": "uUpTH7kXvAcY2LeA6hdu0WB8Gp0=", "properties": {"@source_uri": "https://tools.usps.com/UspsToolsRestServices/rest/POLocator/findLocations", "@spider": "usps_collection_boxes", "addr:city": "ALLERTON", "addr:country": "US", "addr:postcode": "50008", "addr:state": "IA", "addr:street_address": "108 N CENTRAL AVE", "amenity": "post_box", "collection_times": "Mo-Fr 12:00; Sa 09:30", "indoor": "yes", "nsi_id": "unitedstatespostalservice-a77078", "operator": "United States Postal Service", "operator:short": "USPS", "operator:type": "public", "operator:wikidata": "Q668687", "ref": "5000800003"}, "type": "Feature"}
{"geometry": {"coordinates": [-93.461773416, 41.644018502], "type": "Point"}, "id": "1QAUuSte0HH-uNpUAXvH_a1TO94=", "properties": {"@source_uri": "https://tools.usps.com/UspsToolsRestServices/rest/POLocator/findLocations", "@spider": "usps_collection_boxes", "addr:city": "ALTOONA", "addr:country": "US", "addr:postcode": "50009", "addr:state": "IA", "addr:street_address": "300 8TH ST SE", "amenity": "post_box", "collection_times": "Mo-Fr 17:00; Sa 16:00", "note": "ON 12/24 AND 12/31, THIS BOX MAY BE COLLECTED AS EARLY AS 12 NOON.", "nsi_id": "unitedstatespostalservice-a77078", "operator": "United States Postal Service", "operator:short": "USPS", "operator:type": "public", "operator:wikidata": "Q668687", "ref": "5000900014"}, "type": "Feature"}
{"geometry": {"coordinates": [-93.499552781, 41.658540515], "type": "Point"}, "id": "RBZ3xW53yG5MnLpFZJZi4C1emek=", "properties": {"@source_uri": "https://tools.usps.com/UspsToolsRestServices/rest/POLocator/findLocations", "@spider": "usps_collection_boxes", "addr:city": "ALTOONA", "addr:country": "US", "addr:postcode": "50009", "addr:state": "IA", "addr:street_address": "3231 ADVENTURELAND DR", "amenity": "post_box", "collection_times": "Mo-Sa 10:30", "nsi_id": "unitedstatespostalservice-a77078", "operator": "United States Postal Service", "operator:short": "USPS", "operator:type": "public", "operator:wikidata": "Q668687", "ref": "5000900023"}, "type": "Feature"}
{"geometry": {"coordinates": [-93.483571512, 41.656736224], "type": "Point"}, "id": "9isXeF8eopYJetbcVca7H-2lwVI=", "properties": {"@source_uri": "https://tools.usps.com/UspsToolsRestServices/rest/POLocator/findLocations", "@spider": "usps_collection_boxes", "addr:city": "ALTOONA", "addr:country": "US", "addr:postcode": "50009", "addr:state": "IA", "addr:street_address": "617 17TH AVE NW", "amenity": "post_box", "collection_times": "Mo-Sa 14:00", "note": "ON 12/24 AND 12/31, THIS BOX MAY BE COLLECTED AS EARLY AS 12 NOON.", "nsi_id": "unitedstatespostalservice-a77078", "operator": "United States Postal Service", "operator:short": "USPS", "operator:type": "public", "operator:wikidata": "Q668687", "ref": "5000900024"}, "type": "Feature"}
{"geometry": {"coordinates": [-93.461773416, 41.644018502], "type": "Point"}, "id": "xhDgYH1D1R3XOkA2VplcjGOdLps=", "properties": {"@source_uri": "https://tools.usps.com/UspsToolsRestServices/rest/POLocator/findLocations", "@spider": "usps_collection_boxes", "addr:city": "ALTOONA", "addr:country": "US", "addr:postcode": "50009", "addr:state": "IA", "addr:street_address": "300 8TH ST SE", "amenity": "post_box", "collection_times": "Mo-Fr 17:00; Sa 12:00", "indoor": "yes", "note": "ON 12/24 AND 12/31, THIS BOX MAY BE COLLECTED AS EARLY AS 12 NOON.", "nsi_id": "unitedstatespostalservice-a77078", "operator": "United States Postal Service", "operator:short": "USPS", "operator:type": "public", "operator:wikidata": "Q668687", "ref": "5000900027"}, "type": "Feature"}
{"geometry": {"coordinates": [-93.476737194, 41.658982871], "type": "Point"}, "id": "HxYUyVtK9Jn-jvejyNq8oZjv9bg=", "properties": {"@source_uri": "https://tools.usps.com/UspsToolsRestServices/rest/POLocator/findLocations", "@spider": "usps_collection_boxes", "addr:city": "ALTOONA", "addr:country": "US", "addr:postcode": "50009", "addr:state": "IA", "addr:street_address": "955 10TH AVE NW", "amenity": "post_box", "collection_times": "Mo-Sa 10:15", "nsi_id": "unitedstatespostalservice-a77078", "operator": "United States Postal Service", "operator:short": "USPS", "operator:type": "public", "operator:wikidata": "Q668687", "ref": "5000900028"}, "type": "Feature"}
{"geometry": {"coordinates": [-93.465684, 41.644011478], "type": "Point"}, "id": "ot5K9WyeyqgGoh6ufqnXhRiph0s=", "properties": {"@source_uri": "https://tools.usps.com/UspsToolsRestServices/rest/POLocator/findLocations", "@spider": "usps_collection_boxes", "addr:city": "ALTOONA", "addr:country": "US", "addr:postcode": "50009", "addr:state": "IA", "addr:street_address": "108 8TH ST SW", "amenity": "post_box", "collection_times": "Mo-Sa 09:30", "nsi_id": "unitedstatespostalservice-a77078", "operator": "United States Postal Service", "operator:short": "USPS", "operator:type": "public", "operator:wikidata": "Q668687", "ref": "5000900031"}, "type": "Feature"}
{"geometry": {"coordinates": [-93.504783526, 41.644212491], "type": "Point"}, "id": "MiAU-OpXaDUiVbiPFKmGEBU1SVY=", "properties": {"@source_uri": "https://tools.usps.com/UspsToolsRestServices/rest/POLocator/findLocations", "@spider": "usps_collection_boxes", "addr:city": "ALTOONA", "addr:country": "US", "addr:postcode": "50009", "addr:state": "IA", "addr:street_address": "3501 8TH ST SW", "amenity": "post_box", "collection_times": "Mo-Sa 14:00", "note": "ON 12/24 AND 12/31, THIS BOX MAY BE COLLECTED AS EARLY AS 12 NOON.", "nsi_id": "unitedstatespostalservice-a77078", "operator": "United States Postal Service", "operator:short": "USPS", "operator:type": "public", "operator:wikidata": "Q668687", "ref": "5000900032"}, "type": "Feature"}
{"geometry": {"coordinates": [-93.461773416, 41.644018502], "type": "Point"}, "id": "Naz8kUMP8nHXpOt1QneGR8lgJ1o=", "properties": {"@source_uri": "https://tools.usps.com/UspsToolsRestServices/rest/POLocator/findLocations", "@spider": "usps_collection_boxes", "addr:city": "ALTOONA", "addr:country": "US", "addr:postcode": "50009", "addr:state": "IA", "addr:street_address": "300 8TH ST SE", "amenity": "post_box", "collection_times": "Mo-Fr 17:00; Sa 12:00", "indoor": "yes", "note": "ON 12/24 AND 12/31, THIS BOX MAY BE COLLECTED AS EARLY AS 12 NOON.", "nsi_id": "unitedstatespostalservice-a77078", "operator": "United States Postal Service", "operator:short": "USPS", "operator:type": "public", "operator:wikidata": "Q668687", "ref": "5000900035"}, "type": "Feature"}
{"geometry": {"coordinates": [-93.644435291, 41.997811585], "type": "Point"}, "id": "sME0V7cAKECOaZ-otIxc5tkvyDU=", "properties": {"@source_uri": "https://tools.usps.com/UspsToolsRestServices/rest/POLocator/findLocations", "@spider": "usps_collection_boxes", "addr:city": "AMES", "addr:country": "US", "addr:postcode": "50010", "addr:state": "IA", "addr:street_address": "2701 GREEN HILLS DR", "amenity": "post_box", "collection_times": "Mo-Sa 10:00", "nsi_id": "unitedstatespostalservice-a77078", "operator": "United States Postal Service", "operator:short": "USPS", "operator:type": "public", "operator:wikidata": "Q668687", "ref": "5001000004"}, "type": "Feature"}
{"geometry": {"coordinates": [-93.643861757, 42.015557558], "type": "Point"}, "id": "V2DckWon075F9Q7QDw6J_qpUvAA=", "properties": {"@source_uri": "https://tools.usps.com/UspsToolsRestServices/rest/POLocator/findLocations", "@spider": "usps_collection_boxes", "addr:city": "AMES", "addr:country": "US", "addr:postcode": "50010", "addr:state": "IA", "addr:street_address": "2160 COUNTRY CLUB BLVD", "amenity": "post_box", "collection_times": "Mo-Sa 13:00", "note": "ON 12/24 AND 12/31, THIS BOX MAY BE COLLECTED AS EARLY AS 12 NOON.", "nsi_id": "unitedstatespostalservice-a77078", "operator": "United States Postal Service", "operator:short": "USPS", "operator:type": "public", "operator:wikidata": "Q668687", "ref": "5001000007"}, "type": "Feature"}
{"geometry": {"coordinates": [-93.615450951, 42.02742555], "type": "Point"}, "id": "hwQbDcXcQQl-bwUvbm7XJeu4rLw=", "properties": {"@source_uri": "https://tools.usps.com/UspsToolsRestServices/rest/POLocator/findLocations", "@spider": "usps_collection_boxes", "addr:city": "AMES", "addr:country": "US", "addr:postcode": "50010", "addr:state": "IA", "addr:street_address": "619 BURNETT AVE", "amenity": "post_box", "collection_times": "Mo-Fr 17:00; Sa 11:45", "note": "ON 12/24 AND 12/31, THIS BOX MAY BE COLLECTED AS EARLY AS 12 NOON.", "nsi_id": "unitedstatespostalservice-a77078", "operator": "United States Postal Service", "operator:short": "USPS", "operator:type": "public", "operator:wikidata": "Q668687", "ref": "5001000010"}, "type": "Feature"}
{"geometry": {"coordinates": [-93.646372713, 42.022350211], "type": "Point"}, "id": "UdvA91-jpXyTp2khNXe8gxax_t4=", "properties": {"@source_uri": "https://tools.usps.com/UspsToolsRestServices/rest/POLocator/findLocations", "@spider": "usps_collection_boxes", "addr:city": "AMES", "addr:country": "US", "addr:postcode": "50010", "addr:state": "IA", "addr:street_address": "110 LYNN AVE", "amenity": "post_box", "collection_times": "Mo-Fr 10:00", "nsi_id": "unitedstatespostalservice-a77078", "operator": "United States Postal Service", "operator:short": "USPS", "operator:type": "public", "operator:wikidata": "Q668687", "ref": "5001000020"}, "type": "Feature"}
{"geometry": {"coordinates": [-93.679563185, 42.012081509], "type": "Point"}, "id": "ifpY2PLs1X7bTNMsE1iPYxs-MPM=", "properties": {"@source_uri": "https://tools.usps.com/UspsToolsRestServices/rest/POLocator/findLocations", "@spider": "usps_collection_boxes", "addr:city": "AMES", "addr:country": "US", "addr:postcode": "50010", "addr:state": "IA", "addr:street_address": "4510 MORTENSEN RD", "amenity": "post_box", "collection_times": "Mo-Sa 12:00", "nsi_id": "unitedstatespostalservice-a77078", "operator": "United States Postal Service", "operator:short": "USPS", "operator:type": "public", "operator:wikidata": "Q668687", "ref": "5001000022"}, "type": "Feature"}
{"geometry": {"coordinates": [-93.669003, 42.022824518], "type": "Point"}, "id": "TwHLV63E7il0gk6KuZWWfrEZJ9M=", "properties": {"@source_uri": "https://tools.usps.com/UspsToolsRestServices/rest/POLocator/findLocations", "@spider": "usps_collection_boxes", "addr:city": "AMES", "addr:country": "US", "addr:postcode": "50010", "addr:state": "IA", "addr:street_address": "3800 LINCOLN WAY", "amenity": "post_box", "collection_times": "Mo-Sa 09:15", "nsi_id": "unitedstatespostalservice-a77078", "operator": "United States Postal Service", "operator:short": "USPS", "operator:type": "public", "operator:wikidata": "Q668687", "ref": "5001000033"}, "type": "Feature"}
{"geometry": {"coordinates": [-93.610638972, 42.032477557], "type": "Point"}, "id": "Bp8vxlUJ_o2XrKZ1qWBTZ-xMkv8=", "properties": {"@source_uri": "https://tools.usps.com/UspsToolsRestServices/rest/POLocator/findLocations", "@spider": "usps_collection_boxes", "addr:city": "AMES", "addr:country": "US", "addr:postcode": "50010", "addr:state": "IA", "addr:street_address": "1111 DUFF AVE", "amenity": "post_box", "collection_times": "Mo-Fr 09:00", "nsi_id": "unitedstatespostalservice-a77078", "operator": "United States Postal Service", "operator:short": "USPS", "operator:type": "public", "operator:wikidata": "Q668687", "ref": "5001000034"}, "type": "Feature"}
{"geometry": {"coordinates": [-93.619250026, 42.045749494], "type": "Point"}, "id": "gZcWIIrbRNd8XDhSu2T5Ui09Lc0=", "properties": {"@source_uri": "https://tools.usps.com/UspsToolsRestServices/rest/POLocator/findLocations", "@spider": "usps_collection_boxes", "addr:city": "AMES", "addr:country": "US", "addr:postcode": "50010", "addr:state": "IA", "addr:street_address": "615 24TH ST", "amenity": "post_box", "collection_times": "Mo-Sa 09:15", "nsi_id": "unitedstatespostalservice-a77078", "operator": "United States Postal Service", "operator:short": "USPS", "operator:type": "public", "operator:wikidata": "Q668687", "ref": "5001000038"}, "type": "Feature"}
{"geometry": {"coordinates": [-93.622068, 42.052572], "type": "Point"}, "id": "sI4gNjDJH8Rdqxl6cHPjQvqk8vw=", "properties": {"@source_uri": "https://tools.usps.com/UspsToolsRestServices/rest/POLocator/findLocations", "@spider": "usps_collection_boxes", "addr:city": "AMES", "addr:country": "US", "addr:postcode": "50010", "addr:state": "IA", "addr:street_address": "3105 GRAND AVE", "amenity": "post_box", "collection_times": "Mo-Sa 15:00", "note": "ON 12/24 AND 12/31, THIS BOX MAY BE COLLECTED AS EARLY AS 12 NOON.", "nsi_id": "unitedstatespostalservice-a77078", "operator": "United States Postal Service", "operator:short": "USPS", "operator:type": "public", "operator:wikidata": "Q668687", "ref": "5001000039"}, "type": "Feature"}
{"geometry": {"coordinates": [-93.639489471, 41.999634943], "type": "Point"}, "id": "Xzdzor-dZgjqAHUErmWxwQthc5Y=", "properties": {"@source_uri": "https://tools.usps.com/UspsToolsRestServices/rest/POLocator/findLocations", "@spider": "usps_collection_boxes", "addr:city": "AMES", "addr:country": "US", "addr:postcode": "50010", "addr:state": "IA", "addr:street_address": "2521 UNIVERSITY BLVD", "amenity": "post_box", "collection_times": "Mo-Fr 09:00", "nsi_id": "unitedstatespostalservice-a77078", "operator": "United States Postal Service", "operator:short": "USPS", "operator:type": "public", "operator:wikidata": "Q668687", "ref": "5001000042"}, "type": "Feature"}
{"geometry": {"coordinates": [-93.615450951, 42.02742555], "type": "Point"}, "id": "sRKPuwEvf-IPuSPl3eQJLDQJSHo=", "properties": {"@source_uri": "https://tools.usps.com/UspsToolsRestServices/rest/POLocator/findLocations", "@spider": "usps_collection_boxes", "addr:city": "AMES", "addr:country": "US", "addr:postcode": "50010", "addr:state": "IA", "addr:street_address": "619 BURNETT AVE", "amenity": "post_box", "collection_times": "Mo-Fr 17:00; Sa 11:45", "note": "ON 12/24 AND 12/31, THIS BOX MAY BE COLLECTED AS EARLY AS 12 NOON.", "nsi_id": "unitedstatespostalservice-a77078", "operator": "United States Postal Service", "operator:short": "USPS", "operator:type": "public", "operator:wikidata": "Q668687", "ref": "5001000046"}, "type": "Feature"}
{"geometry": {"coordinates": [-93.618531555, 42.025764532], "type": "Point"}, "id": "9nTKEGWSu7WSBzZVU4qtknZDb2Y=", "properties": {"@source_uri": "https://tools.usps.com/UspsToolsRestServices/rest/POLocator/findLocations", "@spider": "usps_collection_boxes", "addr:city": "AMES", "addr:country": "US", "addr:postcode": "50010", "addr:state": "IA", "addr:street_address": "600 5TH ST", "amenity": "post_box", "collection_times": "Mo-Fr 09:00", "nsi_id": "unitedstatespostalservice-a77078", "operator": "United States Postal Service", "operator:short": "USPS", "operator:type": "public", "operator:wikidata": "Q668687", "ref": "5001000048"}, "type": "Feature"}
{"geometry": {"coordinates": [-93.627439479, 42.005516502], "type": "Point"}, "id": "FcLxScRbCdaxtZLdn7uTpImfaNA=", "properties": {"@source_uri": "https://tools.usps.com/UspsToolsRestServices/rest/POLocator/findLocations", "@spider": "usps_collection_boxes", "addr:city": "AMES", "addr:country": "US", "addr:postcode": "50010", "addr:state": "IA", "addr:street_address": "111 MULBERRY BLVD", "amenity": "post_box", "collection_times": "Mo-Sa 10:00", "nsi_id": "unitedstatespostalservice-a77078", "operator": "United States Postal Service", "operator:short": "USPS", "operator:type": "public", "operator:wikidata": "Q668687", "ref": "5001000050"}, "type": "Feature"}
{"geometry": {"coordinates": [-93.650496877, 42.047552617], "type": "Point"}, "id": "A4-KiMup-p9lXIyoQxBFyuRSET8=", "properties": {"@source_uri": "https://tools.usps.com/UspsToolsRestServices/rest/POLocator/findLocations", "@spider": "usps_collection_boxes", "addr:city": "AMES", "addr:country": "US", "addr:postcode": "50010", "addr:state": "IA", "addr:street_address": "2900 NORTHRIDGE PKWY", "amenity": "post_box", "collection_times": "Mo-Sa 11:00", "nsi_id": "unitedstatespostalservice-a77078", "operator": "United States Postal Service", "operator:short": "USPS", "operator:type": "public", "operator:wikidata": "Q668687", "ref": "5001000057"}, "type": "Feature"}
{"geometry": {"coordinates": [-93.6115925826, 42.0103567211], "type": "Point"}, "id": "zocOm-tohwqQxjkFTKjlaLxNbDo=", "properties": {"@source_uri": "https://tools.usps.com/UspsToolsRestServices/rest/POLocator/findLocations", "@spider": "usps_collection_boxes", "addr:city": "AMES", "addr:country": "US", "addr:postcode": "50010", "addr:state": "IA", "addr:street_address": "1407 BUCKEYE AVE", "amenity": "post_box", "collection_times": "Mo-Sa 09:15", "nsi_id": "unitedstatespostalservice-a77078", "operator": "United States Postal Service", "operator:short": "USPS", "operator:type": "public", "operator:wikidata": "Q668687", "ref": "5001000063"}, "type": "Feature"}
{"geometry": {"coordinates": [-93.648529461, 42.021954], "type": "Point"}, "id": "xUz25sCwOGGdjseXRiG-n9qdsO0=", "properties": {"@source_uri": "https://tools.usps.com/UspsToolsRestServices/rest/POLocator/findLocations", "@spider": "usps_collection_boxes", "addr:city": "AMES", "addr:country": "US", "addr:postcode": "50010", "addr:state": "IA", "addr:street_address": "119 STANTON AVE", "amenity": "post_box", "collection_times": "Mo-Fr 16:30; Sa 15:00", "note": "ON 12/24 AND 12/31, THIS BOX MAY BE COLLECTED AS EARLY AS 12 NOON.", "nsi_id": "unitedstatespostalservice-a77078", "operator": "United States Postal Service", "operator:short": "USPS", "operator:type": "public", "operator:wikidata": "Q668687", "ref": "5001000073"}, "type": "Feature"}
{"geometry": {"coordinates": [-93.5867025, 42.02241054], "type": "Point"}, "id": "t51EquLfRjK6xvXQCx__LKnuu08=", "properties": {"@source_uri": "https://tools.usps.com/UspsToolsRestServices/rest/POLocator/findLocations", "@spider": "usps_collection_boxes", "addr:city": "AMES", "addr:country": "US", "addr:postcode": "50010", "addr:state": "IA", "addr:street_address": "1920 E LINCOLN WAY", "amenity": "post_box", "collection_times": "Mo-Sa 09:00", "nsi_id": "unitedstatespostalservice-a77078", "operator": "United States Postal Service", "operator:short": "USPS", "operator:type": "public", "operator:wikidata": "Q668687", "ref": "5001000076"}, "type": "Feature"}
{"geometry": {"coordinates": [-93.613653807, 42.001094514], "type": "Point"}, "id": "mULw6ucfWSuHOCZ6w3VzdC70Y3c=", "properties": {"@source_uri": "https://tools.usps.com/UspsToolsRestServices/rest/POLocator/findLocations", "@spider": "usps_collection_boxes", "addr:city": "AMES", "addr:country": "US", "addr:postcode": "50010", "addr:state": "IA", "addr:street_address": "305 AIRPORT RD", "amenity": "post_box", "collection_times": "Mo-Sa 09:00", "nsi_id": "unitedstatespostalservice-a77078", "operator": "United States Postal Service", "operator:short": "USPS", "operator:type": "public", "operator:wikidata": "Q668687", "ref": "5001000083"}, "type": "Feature"}
{"geometry": {"coordinates": [-93.637258483, 41.99991571], "type": "Point"}, "id": "cI6kOJp3XXQDWjrNMPqSrtB_7fY=", "properties": {"@source_uri": "https://tools.usps.com/UspsToolsRestServices/rest/POLocator/findLocations", "@spider": "usps_collection_boxes", "addr:city": "AMES", "addr:country": "US", "addr:postcode": "50010", "addr:state": "IA", "addr:street_address": "2501 N LOOP DR", "amenity": "post_box", "collection_times": "Mo-Fr 09:00", "nsi_id": "unitedstatespostalservice-a77078", "operator": "United States Postal Service", "operator:short": "USPS", "operator:type": "public", "operator:wikidata": "Q668687", "ref": "5001000085"}, "type": "Feature"}
{"geometry": {"coordinates": [-93.613799973, 42.026588329], "type": "Point"}, "id": "cLZeTEWc5tQG413g_y9FE8lwc7U=", "properties": {"@source_uri": "https://tools.usps.com/UspsToolsRestServices/rest/POLocator/findLocations", "@spider": "usps_collection_boxes", "addr:city": "AMES", "addr:country": "US", "addr:postcode": "50010", "addr:state": "IA", "addr:street_address": "525 KELLOGG AVE", "amenity": "post_box", "collection_times": "Mo-Sa 17:30", "indoor": "yes", "note": "ON 12/24 AND 12/31, THIS BOX MAY BE COLLECTED AS EARLY AS 12 NOON.", "nsi_id": "unitedstatespostalservice-a77078", "operator": "United States Postal Service", "operator:short": "USPS", "operator:type": "public", "operator:wikidata": "Q668687", "ref": "5001000088"}, "type": "Feature"}
{"geometry": {"coordinates": [-93.6465500359, 42.0571400095], "type": "Point"}, "id": "6eTgKY-xP0GxG2jrCM1o-L3gfKo=", "properties": {"@source_uri": "https://tools.usps.com/UspsToolsRestServices/rest/POLocator/findLocations", "@spider": "usps_collection_boxes", "addr:city": "AMES", "addr:country": "US", "addr:postcode": "50010", "addr:state": "IA", "addr:street_address": "3619 STANGE RD", "amenity": "post_box", "collection_times": "Mo-Sa 13:00", "note": "ON 12/24 AND 12/31, THIS BOX MAY BE COLLECTED AS EARLY AS 12 NOON.", "nsi_id": "unitedstatespostalservice-a77078", "operator": "United States Postal Service", "operator:short": "USPS", "operator:type": "public", "operator:wikidata": "Q668687", "ref": "5001000091"}, "type": "Feature"}
{"geometry": {"coordinates": [-93.610334043, 42.019272], "type": "Point"}, "id": "7vfJj4LsSc9Srqm3y6ZYH9dZjuQ=", "properties": {"@source_uri": "https://tools.usps.com/UspsToolsRestServices/rest/POLocator/findLocations", "@spider": "usps_collection_boxes", "addr:city": "AMES", "addr:country": "US", "addr:postcode": "50010", "addr:state": "IA", "addr:street_address": "320 S DUFF AVE", "amenity": "post_box", "collection_times": "Mo-Fr 09:00", "nsi_id": "unitedstatespostalservice-a77078", "operator": "United States Postal Service", "operator:short": "USPS", "operator:type": "public", "operator:wikidata": "Q668687", "ref": "5001000097"}, "type": "Feature"}
{"geometry": {"coordinates": [-93.613584926, 42.022594608], "type": "Point"}, "id": "TRyA8dRz0yyYta8YUgQzotFfYlA=", "properties": {"@source_uri": "https://tools.usps.com/UspsToolsRestServices/rest/POLocator/findLocations", "@spider": "usps_collection_boxes", "addr:city": "AMES", "addr:country": "US", "addr:postcode": "50010", "addr:state": "IA", "addr:street_address": "120 S KELLOGG AVE", "amenity": "post_box", "collection_times": "Mo-Fr 09:30", "nsi_id": "unitedstatespostalservice-a77078", "operator": "United States Postal Service", "operator:short": "USPS", "operator:type": "public", "operator:wikidata": "Q668687", "ref": "5001000100"}, "type": "Feature"}
{"geometry": {"coordinates": [-93.613799973, 42.026588329], "type": "Point"}, "id": "crV3KDldARX4upjaAfuVxIgstvs=", "properties": {"@source_uri": "https://tools.usps.com/UspsToolsRestServices/rest/POLocator/findLocations", "@spider": "usps_collection_boxes", "addr:city": "AMES", "addr:country": "US", "addr:postcode": "50010", "addr:state": "IA", "addr:street_address": "525 KELLOGG AVE", "amenity": "post_box", "collection_times": "Mo-Sa 17:30", "note": "ON 12/24 AND 12/31, THIS BOX MAY BE COLLECTED AS EARLY AS 12 NOON.", "nsi_id": "unitedstatespostalservice-a77078", "operator": "United States Postal Service", "operator:short": "USPS", "operator:type": "public", "operator:wikidata": "Q668687", "ref": "5001000101"}, "type": "Feature"}
{"geometry": {"coordinates": [-93.616333858, 42.00801832], "type": "Point"}, "id": "6eORL2m7o-z35_iGeE1roYRqk9U=", "properties": {"@source_uri": "https://tools.usps.com/UspsToolsRestServices/rest/POLocator/findLocations", "@spider": "usps_collection_boxes", "addr:city": "AMES", "addr:country": "US", "addr:postcode": "50010", "addr:state": "IA", "addr:street_address": "1615 GOLDEN ASPEN DR", "amenity": "post_box", "collection_times": "Mo-Sa 09:15", "nsi_id": "unitedstatespostalservice-a77078", "operator": "United States Postal Service", "operator:short": "USPS", "operator:type": "public", "operator:wikidata": "Q668687", "ref": "5001000102"}, "type": "Feature"}
{"geometry": {"coordinates": [-93.613799973, 42.026588329], "type": "Point"}, "id": "ILbM0XtKP1TwH7MyYjhO5XK3yzI=", "properties": {"@source_uri": "https://tools.usps.com/UspsToolsRestServices/rest/POLocator/findLocations", "@spider": "usps_collection_boxes", "addr:city": "AMES", "addr:country": "US", "addr:postcode": "50010", "addr:state": "IA", "addr:street_address": "525 KELLOGG AVE", "amenity": "post_box", "collection_times": "Mo-Sa 17:30", "name": "USPS COLLECTION BOX - APC", "note": "ON 12/24 AND 12/31, THIS BOX MAY BE COLLECTED AS EARLY AS 12 NOON.", "nsi_id": "unitedstatespostalservice-a77078", "operator": "United States Postal Service", "operator:short": "USPS", "operator:type": "public", "operator:wikidata": "Q668687", "ref": "5001000103"}, "type": "Feature"}
{"geometry": {"coordinates": [-93.575146612, 42.020598207], "type": "Point"}, "id": "BSJBksOXrmANLrf7Y1wzCHgivcQ=", "properties": {"@source_uri": "https://tools.usps.com/UspsToolsRestServices/rest/POLocator/findLocations", "@spider": "usps_collection_boxes", "addr:city": "AMES", "addr:country": "US", "addr:postcode": "50010", "addr:state": "IA", "addr:street_address": "236 S BELL AVE", "amenity": "post_box", "collection_times": "Mo-Fr 09:00", "nsi_id": "unitedstatespostalservice-a77078", "operator": "United States Postal Service", "operator:short": "USPS", "operator:type": "public", "operator:wikidata": "Q668687", "ref": "5001000107"}, "type": "Feature"}
{"geometry": {"coordinates": [-93.648529461, 42.021954], "type": "Point"}, "id": "pe5kolflI8O1iMP3mbovZ1d6BSs=", "properties": {"@source_uri": "https://tools.usps.com/UspsToolsRestServices/rest/POLocator/findLocations", "@spider": "usps_collection_boxes", "addr:city": "AMES", "addr:country": "US", "addr:postcode": "50010", "addr:state": "IA", "addr:street_address": "119 STANTON AVE", "amenity": "post_box", "collection_times": "Mo-Fr 16:15", "indoor": "yes", "note": "ON 12/24 AND 12/31, THIS BOX MAY BE COLLECTED AS EARLY AS 12 NOON.", "nsi_id": "unitedstatespostalservice-a77078", "operator": "United States Postal Service", "operator:short": "USPS", "operator:type": "public", "operator:wikidata": "Q668687", "ref": "5001000110"}, "type": "Feature"}
{"geometry": {"coordinates": [-93.613799973, 42.026588329], "type": "Point"}, "id": "2sI8T_ay9THO4kVgY9ZDVjbeG00=", "properties": {"@source_uri": "https://tools.usps.com/UspsToolsRestServices/rest/POLocator/findLocations", "@spider": "usps_collection_boxes", "addr:city": "AMES", "addr:country": "US", "addr:postcode": "50010", "addr:state": "IA", "addr:street_address": "525 KELLOGG AVE", "amenity": "post_box", "collection_times": "Mo-Fr 16:30; Sa 12:00", "indoor": "yes", "note": "ON 12/24 AND 12/31, THIS BOX MAY BE COLLECTED AS EARLY AS 12 NOON.", "nsi_id": "unitedstatespostalservice-a77078", "operator": "United States Postal Service", "operator:short": "USPS", "operator:type": "public", "operator:wikidata": "Q668687", "ref": "5001000113"}, "type": "Feature"}
{"geometry": {"coordinates": [-93.648529461, 42.021954], "type": "Point"}, "id": "u4fFNWCB-64fA7sd5lmx201SGEY=", "properties": {"@source_uri": "https://tools.usps.com/UspsToolsRestServices/rest/POLocator/findLocations", "@spider": "usps_collection_boxes", "addr:city": "AMES", "addr:country": "US", "addr:postcode": "50010", "addr:state": "IA", "addr:street_address": "119 STANTON AVE", "amenity": "post_box", "collection_times": "Mo-Fr 16:00", "indoor": "yes", "note": "ON 12/24 AND 12/31, THIS BOX MAY BE COLLECTED AS EARLY AS 12 NOON.", "nsi_id": "unitedstatespostalservice-a77078", "operator": "United States Postal Service", "operator:short": "USPS", "operator:type": "public", "operator:wikidata": "Q668687", "ref": "5001000115"}, "type": "Feature"}
{"geometry": {"coordinates": [-93.585313046, 42.035381532], "type": "Point"}, "id": "GBQ6kAU9q3CQcHBgjlu0QRYMqEw=", "properties": {"@source_uri": "https://tools.usps.com/UspsToolsRestServices/rest/POLocator/findLocations", "@spider": "usps_collection_boxes", "addr:city": "AMES", "addr:country": "US", "addr:postcode": "50010", "addr:state": "IA", "addr:street_address": "2020 PHILADELPHIA ST", "amenity": "post_box", "collection_times": "Mo-Sa 13:00", "note": "ON 12/24 AND 12/31, THIS BOX MAY BE COLLECTED AS EARLY AS 12 NOON.", "nsi_id": "unitedstatespostalservice-a77078", "operator": "United States Postal Service", "operator:short": "USPS", "operator:type": "public", "operator:wikidata": "Q668687", "ref": "5001000117"}, "type": "Feature"}
{"geometry": {"coordinates": [-93.6224249907, 42.0493440014], "type": "Point"}, "id": "MHpTk_3jrFZrNDNDdXDA-ENgdj4=", "properties": {"@source_uri": "https://tools.usps.com/UspsToolsRestServices/rest/POLocator/findLocations", "@spider": "usps_collection_boxes", "addr:city": "AMES", "addr:country": "US", "addr:postcode": "50010", "addr:state": "IA", "addr:street_address": "2801 GRAND AVE", "amenity": "post_box", "collection_times": "Mo-Sa 11:00", "nsi_id": "unitedstatespostalservice-a77078", "operator": "United States Postal Service", "operator:short": "USPS", "operator:type": "public", "operator:wikidata": "Q668687", "ref": "5001000118"}, "type": "Feature"}
{"geometry": {"coordinates": [-94.767576581, 41.443664376], "type": "Point"}, "id": "jsy9ELGoV944eER1bApAw_n5pXc=", "properties": {"@source_uri": "https://tools.usps.com/UspsToolsRestServices/rest/POLocator/findLocations", "@spider": "usps_collection_boxes", "addr:city": "ANITA", "addr:country": "US", "addr:postcode": "50020", "addr:state": "IA", "addr:street_address": "906 MAIN ST", "amenity": "post_box", "collection_times": "Mo-Fr 16:15; Sa 09:15", "note": "ON 12/24 AND 12/31, THIS BOX MAY BE COLLECTED AS EARLY AS 12 NOON.", "nsi_id": "unitedstatespostalservice-a77078", "operator": "United States Postal Service", "operator:short": "USPS", "operator:type": "public", "operator:wikidata": "Q668687", "ref": "5002000001"}, "type": "Feature"}
{"geometry": {"coordinates": [-94.7674079681, 41.4435510018], "type": "Point"}, "id": "R_GUXsXAVMJDWqpxRGmuAQpgM5s=", "properties": {"@source_uri": "https://tools.usps.com/UspsToolsRestServices/rest/POLocator/findLocations", "@spider": "usps_collection_boxes", "addr:city": "ANITA", "addr:country": "US", "addr:postcode": "50020", "addr:state": "IA", "addr:street_address": "906 MAIN ST (LOBBY)", "amenity": "post_box", "collection_times": "Mo-Fr 16:30", "indoor": "yes", "note": "ON 12/24 AND 12/31, THIS BOX MAY BE COLLECTED AS EARLY AS 12 NOON.", "nsi_id": "unitedstatespostalservice-a77078", "operator": "United States Postal Service", "operator:short": "USPS", "operator:type": "public", "operator:wikidata": "Q668687", "ref": "5002000002"}, "type": "Feature"}
{"geometry": {"coordinates": [-94.767576581, 41.443664376], "type": "Point"}, "id": "TqDNrr-epQsL8z9SmcA0-J6PzDg=", "properties": {"@source_uri": "https://tools.usps.com/UspsToolsRestServices/rest/POLocator/findLocations", "@spider": "usps_collection_boxes", "addr:city": "ANITA", "addr:country": "US", "addr:postcode": "50020", "addr:state": "IA", "addr:street_address": "906 MAIN ST", "amenity": "post_box", "collection_times": "Mo-Fr 16:30", "indoor": "yes", "note": "ON 12/24 AND 12/31, THIS BOX MAY BE COLLECTED AS EARLY AS 12 NOON.", "nsi_id": "unitedstatespostalservice-a77078", "operator": "United States Postal Service", "operator:short": "USPS", "operator:type": "public", "operator:wikidata": "Q668687", "ref": "5002000003"}, "type": "Feature"}
{"geometry": {"coordinates": [-93.594037065, 41.711174884], "type": "Point"}, "id": "4xpb2tk8iT0i3XMteMSlAu1wOgQ=", "properties": {"@source_uri": "https://tools.usps.com/UspsToolsRestServices/rest/POLocator/findLocations", "@spider": "usps_collection_boxes", "addr:city": "ANKENY", "addr:country": "US", "addr:postcode": "50021", "addr:state": "IA", "addr:street_address": "1800 FOUR SEASONS DR", "amenity": "post_box", "collection_times": "Mo-Sa 12:00", "nsi_id": "unitedstatespostalservice-a77078", "operator": "United States Postal Service", "operator:short": "USPS", "operator:type": "public", "operator:wikidata": "Q668687", "ref": "5002100001"}, "type": "Feature"}
{"geometry": {"coordinates": [-93.581156172, 41.728082176], "type": "Point"}, "id": "ZOMTVY0gY_SydyDy2GChNqEbPnY=", "properties": {"@source_uri": "https://tools.usps.com/UspsToolsRestServices/rest/POLocator/findLocations", "@spider": "usps_collection_boxes", "addr:city": "ANKENY", "addr:country": "US", "addr:postcode": "50021", "addr:state": "IA", "addr:street_address": "400 SE DELAWARE AVE", "amenity": "post_box", "collection_times": "Mo-Sa 11:00", "nsi_id": "unitedstatespostalservice-a77078", "operator": "United States Postal Service", "operator:short": "USPS", "operator:type": "public", "operator:wikidata": "Q668687", "ref": "5002100002"}, "type": "Feature"}
{"geometry": {"coordinates": [-93.600687817, 41.685641916], "type": "Point"}, "id": "L0MEBcdN-EgjsG0-HZarQKZNZYM=", "properties": {"@source_uri": "https://tools.usps.com/UspsToolsRestServices/rest/POLocator/findLocations", "@spider": "usps_collection_boxes", "addr:city": "ANKENY", "addr:country": "US", "addr:postcode": "50021", "addr:state": "IA", "addr:street_address": "6864 NE 14TH ST", "amenity": "post_box", "collection_times": "Mo-Fr 13:00", "note": "ON 12/24 AND 12/31, THIS BOX MAY BE COLLECTED AS EARLY AS 12 NOON.", "nsi_id": "unitedstatespostalservice-a77078", "operator": "United States Postal Service", "operator:short": "USPS", "operator:type": "public", "operator:wikidata": "Q668687", "ref": "5002100012"}, "type": "Feature"}
{"geometry": {"coordinates": [-93.605996786, 41.730006259], "type": "Point"}, "id": "O-IJWMRUn5P3d_DxTgWA8HpVDl8=", "properties": {"@source_uri": "https://tools.usps.com/UspsToolsRestServices/rest/POLocator/findLocations", "@spider": "usps_collection_boxes", "addr:city": "ANKENY", "addr:country": "US", "addr:postcode": "50021", "addr:state": "IA", "addr:street_address": "214 SW WALNUT ST", "amenity": "post_box", "collection_times": "Mo-Sa 14:00", "note": "ON 12/24 AND 12/31, THIS BOX MAY BE COLLECTED AS EARLY AS 12 NOON.", "nsi_id": "unitedstatespostalservice-a77078", "operator": "United States Postal Service", "operator:short": "USPS", "operator:type": "public", "operator:wikidata": "Q668687", "ref": "5002100018"}, "type": "Feature"}
{"geometry": {"coordinates": [-93.599521021, 41.70205602], "type": "Point"}, "id": "t87c58iGauHgDywyUrLFbL21cnw=", "properties": {"@source_uri": "https://tools.usps.com/UspsToolsRestServices/rest/POLocator/findLocations", "@spider": "usps_collection_boxes", "addr:city": "ANKENY", "addr:country": "US", "addr:postcode": "50021", "addr:state": "IA", "addr:street_address": "109 SE ORALABOR RD", "amenity": "post_box", "collection_times": "Mo-Sa 09:00", "nsi_id": "unitedstatespostalservice-a77078", "operator": "United States Postal Service", "operator:short": "USPS", "operator:type": "public", "operator:wikidata": "Q668687", "ref": "5002100022"}, "type": "Feature"}
{"geometry": {"coordinates": [-93.582443581, 41.704893533], "type": "Point"}, "id": "f4VvePnn6NykQ1RwRMPBLUwLsAc=", "properties": {"@source_uri": "https://tools.usps.com/UspsToolsRestServices/rest/POLocator/findLocations", "@spider": "usps_collection_boxes", "addr:city": "ANKENY", "addr:country": "US", "addr:postcode": "50021", "addr:state": "IA", "addr:street_address": "1002 SE NATIONAL DR", "amenity": "post_box", "collection_times": "Mo-Sa 09:00", "nsi_id": "unitedstatespostalservice-a77078", "operator": "United States Postal Service", "operator:short": "USPS", "operator:type": "public", "operator:wikidata": "Q668687", "ref": "5002100023"}, "type": "Feature"}
{"geometry": {"coordinates": [-93.624210992, 41.731924577], "type": "Point"}, "id": "lZfyATHAslXnUt2z7Fif_642r2I=", "properties": {"@source_uri": "https://tools.usps.com/UspsToolsRestServices/rest/POLocator/findLocations", "@spider": "usps_collection_boxes", "addr:city": "ANKENY", "addr:country": "US", "addr:postcode": "50021", "addr:state": "IA", "addr:street_address": "1702 W 1ST ST", "amenity": "post_box", "collection_times": "Mo-Sa 09:00", "nsi_id": "unitedstatespostalservice-a77078", "operator": "United States Postal Service", "operator:short": "USPS", "operator:type": "public", "operator:wikidata": "Q668687", "ref": "5002100024"}, "type": "Feature"}
{"geometry": {"coordinates": [-93.600194639, 41.740311551], "type": "Point"}, "id": "kavDi3oDlNLqhHv_O35D4DgHEXI=", "properties": {"@source_uri": "https://tools.usps.com/UspsToolsRestServices/rest/POLocator/findLocations", "@spider": "usps_collection_boxes", "addr:city": "ANKENY", "addr:country": "US", "addr:postcode": "50021", "addr:state": "IA", "addr:street_address": "1011 N ANKENY BLVD", "amenity": "post_box", "collection_times": "Mo-Sa 17:15", "note": "ON 12/24 AND 12/31, THIS BOX MAY BE COLLECTED AS EARLY AS 12 NOON.", "nsi_id": "unitedstatespostalservice-a77078", "operator": "United States Postal Service", "operator:short": "USPS", "operator:type": "public", "operator:wikidata": "Q668687", "ref": "5002100027"}, "type": "Feature"}
{"geometry": {"coordinates": [-93.638479972, 41.731674477], "type": "Point"}, "id": "kY1mx4scERyS0zPoSQg8280PJsw=", "properties": {"@source_uri": "https://tools.usps.com/UspsToolsRestServices/rest/POLocator/findLocations", "@spider": "usps_collection_boxes", "addr:city": "ANKENY", "addr:country": "US", "addr:postcode": "50021", "addr:state": "IA", "addr:street_address": "2905 W 1ST ST", "amenity": "post_box", "collection_times": "Mo-Fr 09:00", "nsi_id": "unitedstatespostalservice-a77078", "operator": "United States Postal Service", "operator:short": "USPS", "operator:type": "public", "operator:wikidata": "Q668687", "ref": "5002100029"}, "type": "Feature"}
{"geometry": {"coordinates": [-93.600480293, 41.734635831], "type": "Point"}, "id": "4DXYawLCRKK5R-1LTt11Wpb46Qs=", "properties": {"@source_uri": "https://tools.usps.com/UspsToolsRestServices/rest/POLocator/findLocations", "@spider": "usps_collection_boxes", "addr:city": "ANKENY", "addr:country": "US", "addr:postcode": "50021", "addr:state": "IA", "addr:street_address": "410 N ANKENY BLVD", "amenity": "post_box", "collection_times": "Mo-Fr 14:45; Sa 14:30", "note": "ON 12/24 AND 12/31, THIS BOX MAY BE COLLECTED AS EARLY AS 12 NOON.", "nsi_id": "unitedstatespostalservice-a77078", "operator": "United States Postal Service", "operator:short": "USPS", "operator:type": "public", "operator:wikidata": "Q668687", "ref": "5002100031"}, "type": "Feature"}
{"geometry": {"coordinates": [-93.586078795, 41.709401832], "type": "Point"}, "id": "c3T0Y2xBK3kJWdVJehsz56XZ76Y=", "properties": {"@source_uri": "https://tools.usps.com/UspsToolsRestServices/rest/POLocator/findLocations", "@spider": "usps_collection_boxes", "addr:city": "ANKENY", "addr:country": "US", "addr:postcode": "50021", "addr:state": "IA", "addr:street_address": "1918 SE HULSIZER RD", "amenity": "post_box", "collection_times": "Mo-Sa 09:00", "nsi_id": "unitedstatespostalservice-a77078", "operator": "United States Postal Service", "operator:short": "USPS", "operator:type": "public", "operator:wikidata": "Q668687", "ref": "5002100032"}, "type": "Feature"}
{"geometry": {"coordinates": [-93.600194639, 41.740311551], "type": "Point"}, "id": "rgCjIj6TDCIiBl5fXFYeSkXcOh0=", "properties": {"@source_uri": "https://tools.usps.com/UspsToolsRestServices/rest/POLocator/findLocations", "@spider": "usps_collection_boxes", "addr:city": "ANKENY", "addr:country": "US", "addr:postcode": "50021", "addr:state": "IA", "addr:street_address": "1011 N ANKENY BLVD", "amenity": "post_box", "collection_times": "Mo-Sa 17:15", "indoor": "yes", "note": "ON 12/24 AND 12/31, THIS BOX MAY BE COLLECTED AS EARLY AS 12 NOON.", "nsi_id": "unitedstatespostalservice-a77078", "operator": "United States Postal Service", "operator:short": "USPS", "operator:type": "public", "operator:wikidata": "Q668687", "ref": "5002100039"}, "type": "Feature"}
{"geometry": {"coordinates": [-93.572782901, 41.70533277], "type": "Point"}, "id": "Z0eDopex5YRZa1VzbjD1GgPO5K4=", "properties": {"@source_uri": "https://tools.usps.com/UspsToolsRestServices/rest/POLocator/findLocations", "@spider": "usps_collection_boxes", "addr:city": "ANKENY", "addr:country": "US", "addr:postcode": "50021", "addr:state": "IA", "addr:street_address": "2401 SE TONES DR", "amenity": "post_box", "collection_times": "Mo-Fr 12:00", "nsi_id": "unitedstatespostalservice-a77078", "operator": "United States Postal Service", "operator:short": "USPS", "operator:type": "public", "operator:wikidata": "Q668687", "ref": "5002100040"}, "type": "Feature"}
{"geometry": {"coordinates": [-93.600194639, 41.740311551], "type": "Point"}, "id": "mtWO5GmW7YfgvRnJgVSO6l2osZY=", "properties": {"@source_uri": "https://tools.usps.com/UspsToolsRestServices/rest/POLocator/findLocations", "@spider": "usps_collection_boxes", "addr:city": "ANKENY", "addr:country": "US", "addr:postcode": "50021", "addr:state": "IA", "addr:street_address": "1011 N ANKENY BLVD", "amenity": "post_box", "collection_times": "Mo-Sa 17:15", "name": "USPS COLLECTION BOX - APC", "note": "ON 12/24 AND 12/31, THIS BOX MAY BE COLLECTED AS EARLY AS 12 NOON.", "nsi_id": "unitedstatespostalservice-a77078", "operator": "United States Postal Service", "operator:short": "USPS", "operator:type": "public", "operator:wikidata": "Q668687", "ref": "5002100043"}, "type": "Feature"}
{"geometry": {"coordinates": [-93.600195716, 41.746809479], "type": "Point"}, "id": "_QoN8l9iTHblJP2YeXspyth-ofk=", "properties": {"@source_uri": "https://tools.usps.com/UspsToolsRestServices/rest/POLocator/findLocations", "@spider": "usps_collection_boxes", "addr:city": "ANKENY", "addr:country": "US", "addr:postcode": "50021", "addr:state": "IA", "addr:street_address": "1825 N ANKENY BLVD", "amenity": "post_box", "collection_times": "Mo-Sa 09:00", "nsi_id": "unitedstatespostalservice-a77078", "operator": "United States Postal Service", "operator:short": "USPS", "operator:type": "public", "operator:wikidata": "Q668687", "ref": "5002100044"}, "type": "Feature"}
{"geometry": {"coordinates": [-93.626522963, 41.701915505], "type": "Point"}, "id": "PX6rjhpqp04PM_6s6qTiJhT0U3M=", "properties": {"@source_uri": "https://tools.usps.com/UspsToolsRestServices/rest/POLocator/findLocations", "@spider": "usps_collection_boxes", "addr:city": "ANKENY", "addr:country": "US", "addr:postcode": "50021", "addr:state": "IA", "addr:street_address": "1910 SW WHITE BIRCH CIR", "amenity": "post_box", "collection_times": "Mo-Sa 12:00", "nsi_id": "unitedstatespostalservice-a77078", "operator": "United States Postal Service", "operator:short": "USPS", "operator:type": "public", "operator:wikidata": "Q668687", "ref": "5002100045"}, "type": "Feature"}
{"geometry": {"coordinates": [-93.600194639, 41.740311551], "type": "Point"}, "id": "u-sbPo6UvlmWefmW_zAGq-P7ATc=", "properties": {"@source_uri": "https://tools.usps.com/UspsToolsRestServices/rest/POLocator/findLocations", "@spider": "usps_collection_boxes", "addr:city": "ANKENY", "addr:country": "US", "addr:postcode": "50021", "addr:state": "IA", "addr:street_address": "1011 N ANKENY BLVD", "amenity": "post_box", "collection_times": "Mo-Fr 17:00; Sa 12:00", "indoor": "yes", "note": "ON 12/24 AND 12/31, THIS BOX MAY BE COLLECTED AS EARLY AS 12 NOON.", "nsi_id": "unitedstatespostalservice-a77078", "operator": "United States Postal Service", "operator:short": "USPS", "operator:type": "public", "operator:wikidata": "Q668687", "ref": "5002100052"}, "type": "Feature"}
{"geometry": {"coordinates": [-94.98969, 41.403889529], "type": "Point"}, "id": "8-s6aRd4RvEHMN901_KSeSr82pE=", "properties": {"@source_uri": "https://tools.usps.com/UspsToolsRestServices/rest/POLocator/findLocations", "@spider": "usps_collection_boxes", "addr:city": "ATLANTIC", "addr:country": "US", "addr:postcode": "50022", "addr:state": "IA", "addr:street_address": "1630 E 7TH ST", "amenity": "post_box", "collection_times": "Mo-Sa 15:30", "note": "ON 12/24 AND 12/31, THIS BOX MAY BE COLLECTED AS EARLY AS 12 NOON.", "nsi_id": "unitedstatespostalservice-a77078", "operator": "United States Postal Service", "operator:short": "USPS", "operator:type": "public", "operator:wikidata": "Q668687", "ref": "5002200002"}, "type": "Feature"}
{"geometry": {"coordinates": [-95.013791445, 41.403964488], "type": "Point"}, "id": "AcJ5HRj1mq8xA1_nJb2Hm_-mvH8=", "properties": {"@source_uri": "https://tools.usps.com/UspsToolsRestServices/rest/POLocator/findLocations", "@spider": "usps_collection_boxes", "addr:city": "ATLANTIC", "addr:country": "US", "addr:postcode": "50022", "addr:state": "IA", "addr:street_address": "5 W 7TH ST", "amenity": "post_box", "collection_times": "Mo-Fr 15:30", "note": "ON 12/24 AND 12/31, THIS BOX MAY BE COLLECTED AS EARLY AS 12 NOON.", "nsi_id": "unitedstatespostalservice-a77078", "operator": "United States Postal Service", "operator:short": "USPS", "operator:type": "public", "operator:wikidata": "Q668687", "ref": "5002200005"}, "type": "Feature"}
{"geometry": {"coordinates": [-95.012000612, 41.406022486], "type": "Point"}, "id": "NAtE8oEBb2rTGwSKlqitZ_Yq0Zs=", "properties": {"@source_uri": "https://tools.usps.com/UspsToolsRestServices/rest/POLocator/findLocations", "@spider": "usps_collection_boxes", "addr:city": "ATLANTIC", "addr:country": "US", "addr:postcode": "50022", "addr:state": "IA", "addr:street_address": "20 E 5TH ST", "amenity": "post_box", "collection_times": "Mo-Fr 16:30; Sa 16:00", "note": "ON 12/24 AND 12/31, THIS BOX MAY BE COLLECTED AS EARLY AS 12 NOON.", "nsi_id": "unitedstatespostalservice-a77078", "operator": "United States Postal Service", "operator:short": "USPS", "operator:type": "public", "operator:wikidata": "Q668687", "ref": "5002200015"}, "type": "Feature"}
{"geometry": {"coordinates": [-95.012000612, 41.406022486], "type": "Point"}, "id": "juYIuKWwH7bynlOSgCTVfSwhR08=", "properties": {"@source_uri": "https://tools.usps.com/UspsToolsRestServices/rest/POLocator/findLocations", "@spider": "usps_collection_boxes", "addr:city": "ATLANTIC", "addr:country": "US", "addr:postcode": "50022", "addr:state": "IA", "addr:street_address": "20 E 5TH ST", "amenity": "post_box", "collection_times": "Mo-Fr 16:30; Sa 16:00", "indoor": "yes", "note": "ON 12/24 AND 12/31, THIS BOX MAY BE COLLECTED AS EARLY AS 12 NOON.", "nsi_id": "unitedstatespostalservice-a77078", "operator": "United States Postal Service", "operator:short": "USPS", "operator:type": "public", "operator:wikidata": "Q668687", "ref": "5002200020"}, "type": "Feature"}
{"geometry": {"coordinates": [-95.012000612, 41.406022486], "type": "Point"}, "id": "wnvBNx4-ei2jELtCaSMcLDwBFRg=", "properties": {"@source_uri": "https://tools.usps.com/UspsToolsRestServices/rest/POLocator/findLocations", "@spider": "usps_collection_boxes", "addr:city": "ATLANTIC", "addr:country": "US", "addr:postcode": "50022", "addr:state": "IA", "addr:street_address": "20 E 5TH ST", "amenity": "post_box", "collection_times": "Mo-Fr 16:15; Sa 12:00", "indoor": "yes", "note": "ON 12/24 AND 12/31, THIS BOX MAY BE COLLECTED AS EARLY AS 12 NOON.", "nsi_id": "unitedstatespostalservice-a77078", "operator": "United States Postal Service", "operator:short": "USPS", "operator:type": "public", "operator:wikidata": "Q668687", "ref": "5002200021"}, "type": "Feature"}
{"geometry": {"coordinates": [-94.991224983, 41.401247997], "type": "Point"}, "id": "JsqFRjYnZLkWFZyuAmqjX9EAjjQ=", "properties": {"@source_uri": "https://tools.usps.com/UspsToolsRestServices/rest/POLocator/findLocations", "@spider": "usps_collection_boxes", "addr:city": "ATLANTIC", "addr:country": "US", "addr:postcode": "50022", "addr:state": "IA", "addr:street_address": "1501 E 10TH ST", "amenity": "post_box", "collection_times": "Mo-Fr 15:30", "note": "ON 12/24 AND 12/31, THIS BOX MAY BE COLLECTED AS EARLY AS 12 NOON.", "nsi_id": "unitedstatespostalservice-a77078", "operator": "United States Postal Service", "operator:short": "USPS", "operator:type": "public", "operator:wikidata": "Q668687", "ref": "5002200023"}, "type": "Feature"}
{"geometry": {"coordinates": [-94.937127413, 41.724876143], "type": "Point"}, "id": "vk0DTLkY6sNnziLqLDv0D5FALr8=", "properties": {"@source_uri": "https://tools.usps.com/UspsToolsRestServices/rest/POLocator/findLocations", "@spider": "usps_collection_boxes", "addr:city": "AUDUBON", "addr:country": "US", "addr:postcode": "50025", "addr:state": "IA", "addr:street_address": "104 MARKET ST", "amenity": "post_box", "collection_times": "Mo-Sa 10:00", "nsi_id": "unitedstatespostalservice-a77078", "operator": "United States Postal Service", "operator:short": "USPS", "operator:type": "public", "operator:wikidata": "Q668687", "ref": "5002500001"}, "type": "Feature"}
{"geometry": {"coordinates": [-94.930187798, 41.721801635], "type": "Point"}, "id": "YI8znjz1Q62to7g7fG5go94QqkQ=", "properties": {"@source_uri": "https://tools.usps.com/UspsToolsRestServices/rest/POLocator/findLocations", "@spider": "usps_collection_boxes", "addr:city": "AUDUBON", "addr:country": "US", "addr:postcode": "50025", "addr:state": "IA", "addr:street_address": "318 LEROY ST", "amenity": "post_box", "collection_times": "Mo-Fr 15:00; Sa 14:00", "note": "ON 12/24 AND 12/31, THIS BOX MAY BE COLLECTED AS EARLY AS 12 NOON.", "nsi_id": "unitedstatespostalservice-a77078", "operator": "United States Postal Service", "operator:short": "USPS", "operator:type": "public", "operator:wikidata": "Q668687", "ref": "5002500003"}, "type": "Feature"}
{"geometry": {"coordinates": [-94.93104982, 41.720748856], "type": "Point"}, "id": "uTVal3QiPbjUKNeOINgRCVVmLwU=", "properties": {"@source_uri": "https://tools.usps.com/UspsToolsRestServices/rest/POLocator/findLocations", "@spider": "usps_collection_boxes", "addr:city": "AUDUBON", "addr:country": "US", "addr:postcode": "50025", "addr:state": "IA", "addr:street_address": "428 TRACY ST", "amenity": "post_box", "collection_times": "Mo-Fr 16:45; Sa 14:00", "note": "ON 12/24 AND 12/31, THIS BOX MAY BE COLLECTED AS EARLY AS 12 NOON.", "nsi_id": "unitedstatespostalservice-a77078", "operator": "United States Postal Service", "operator:short": "USPS", "operator:type": "public", "operator:wikidata": "Q668687", "ref": "5002500005"}, "type": "Feature"}
{"geometry": {"coordinates": [-94.93104982, 41.720748856], "type": "Point"}, "id": "V5b_h0lf7FRI9P7yVlJkv8NpoSc=", "properties": {"@source_uri": "https://tools.usps.com/UspsToolsRestServices/rest/POLocator/findLocations", "@spider": "usps_collection_boxes", "addr:city": "AUDUBON", "addr:country": "US", "addr:postcode": "50025", "addr:state": "IA", "addr:street_address": "428 TRACY ST", "amenity": "post_box", "collection_times": "Mo-Fr 16:45; Sa 14:00", "indoor": "yes", "note": "ON 12/24 AND 12/31, THIS BOX MAY BE COLLECTED AS EARLY AS 12 NOON.", "nsi_id": "unitedstatespostalservice-a77078", "operator": "United States Postal Service", "operator:short": "USPS", "operator:type": "public", "operator:wikidata": "Q668687", "ref": "5002500007"}, "type": "Feature"}
{"geometry": {"coordinates": [-94.93104982, 41.720748856], "type": "Point"}, "id": "HeaFre8PeN-ZXtL2iSppyvil5VI=", "properties": {"@source_uri": "https://tools.usps.com/UspsToolsRestServices/rest/POLocator/findLocations", "@spider": "usps_collection_boxes", "addr:city": "AUDUBON", "addr:country": "US", "addr:postcode": "50025", "addr:state": "IA", "addr:street_address": "428 TRACY ST", "amenity": "post_box", "collection_times": "Mo-Fr 16:30; Sa 12:00", "indoor": "yes", "note": "ON 12/24 AND 12/31, THIS BOX MAY BE COLLECTED AS EARLY AS 12 NOON.", "nsi_id": "unitedstatespostalservice-a77078", "operator": "United States Postal Service", "operator:short": "USPS", "operator:type": "public", "operator:wikidata": "Q668687", "ref": "5002500008"}, "type": "Feature"}
{"geometry": {"coordinates": [-94.429526137, 41.847596665], "type": "Point"}, "id": "hUnZN6Awa9qBF5Z4ejybQtLiKuU=", "properties": {"@source_uri": "https://tools.usps.com/UspsToolsRestServices/rest/POLocator/findLocations", "@spider": "usps_collection_boxes", "addr:city": "BAGLEY", "addr:country": "US", "addr:postcode": "50026", "addr:state": "IA", "addr:street_address": "213 MAIN ST", "amenity": "post_box", "collection_times": "Mo-Fr 11:45; Sa 09:00", "nsi_id": "unitedstatespostalservice-a77078", "operator": "United States Postal Service", "operator:short": "USPS", "operator:type": "public", "operator:wikidata": "Q668687", "ref": "5002600001"}, "type": "Feature"}
{"geometry": {"coordinates": [-94.429526137, 41.847596665], "type": "Point"}, "id": "AGY3IwFhnPxX3s7HT7baOzyqfvw=", "properties": {"@source_uri": "https://tools.usps.com/UspsToolsRestServices/rest/POLocator/findLocations", "@spider": "usps_collection_boxes", "addr:city": "BAGLEY", "addr:country": "US", "addr:postcode": "50026", "addr:state": "IA", "addr:street_address": "213 MAIN ST", "amenity": "post_box", "collection_times": "Mo-Fr 11:45; Sa 09:00", "indoor": "yes", "nsi_id": "unitedstatespostalservice-a77078", "operator": "United States Postal Service", "operator:short": "USPS", "operator:type": "public", "operator:wikidata": "Q668687", "ref": "5002600002"}, "type": "Feature"}
{"geometry": {"coordinates": [-94.429526137, 41.847596665], "type": "Point"}, "id": "r6V7mgCDjwNhGnb_lf6faRGX4fc=", "properties": {"@source_uri": "https://tools.usps.com/UspsToolsRestServices/rest/POLocator/findLocations", "@spider": "usps_collection_boxes", "addr:city": "BAGLEY", "addr:country": "US", "addr:postcode": "50026", "addr:state": "IA", "addr:street_address": "213 MAIN ST", "amenity": "post_box", "collection_times": "Mo-Fr 11:45; Sa 09:00", "indoor": "yes", "nsi_id": "unitedstatespostalservice-a77078", "operator": "United States Postal Service", "operator:short": "USPS", "operator:type": "public", "operator:wikidata": "Q668687", "ref": "5002600003"}, "type": "Feature"}
{"geometry": {"coordinates": [-92.468020584, 41.508112528], "type": "Point"}, "id": "-_DhdX0zlT4wTUYgfxnn-Fg8kE0=", "properties": {"@source_uri": "https://tools.usps.com/UspsToolsRestServices/rest/POLocator/findLocations", "@spider": "usps_collection_boxes", "addr:city": "BARNES CITY", "addr:country": "US", "addr:postcode": "50027", "addr:state": "IA", "addr:street_address": "610 SPRUCE ST", "amenity": "post_box", "collection_times": "Mo-Fr 16:15; Sa 13:30", "note": "ON 12/24 AND 12/31, THIS BOX MAY BE COLLECTED AS EARLY AS 12 NOON.", "nsi_id": "unitedstatespostalservice-a77078", "operator": "United States Postal Service", "operator:short": "USPS", "operator:type": "public", "operator:wikidata": "Q668687", "ref": "5002700001"}, "type": "Feature"}
{"geometry": {"coordinates": [-92.468020584, 41.508112528], "type": "Point"}, "id": "yGNUePwWAIiYzr85olNzCRoZ1TI=", "properties": {"@source_uri": "https://tools.usps.com/UspsToolsRestServices/rest/POLocator/findLocations", "@spider": "usps_collection_boxes", "addr:city": "BARNES CITY", "addr:country": "US", "addr:postcode": "50027", "addr:state": "IA", "addr:street_address": "610 SPRUCE ST", "amenity": "post_box", "collection_times": "Mo-Fr 16:15; Sa 13:30", "indoor": "yes", "note": "ON 12/24 AND 12/31, THIS BOX MAY BE COLLECTED AS EARLY AS 12 NOON.", "nsi_id": "unitedstatespostalservice-a77078", "operator": "United States Postal Service", "operator:short": "USPS", "operator:type": "public", "operator:wikidata": "Q668687", "ref": "5002700002"}, "type": "Feature"}
{"geometry": {"coordinates": [-92.468020584, 41.508112528], "type": "Point"}, "id": "BU18i8QEOMwD-TKA4ZV5t5FLnWs=", "properties": {"@source_uri": "https://tools.usps.com/UspsToolsRestServices/rest/POLocator/findLocations", "@spider": "usps_collection_boxes", "addr:city": "BARNES CITY", "addr:country": "US", "addr:postcode": "50027", "addr:state": "IA", "addr:street_address": "610 SPRUCE ST", "amenity": "post_box", "collection_times": "Mo-Fr 16:30; Sa 13:45", "indoor": "yes", "note": "ON 12/24 AND 12/31, THIS BOX MAY BE COLLECTED AS EARLY AS 12 NOON.", "nsi_id": "unitedstatespostalservice-a77078", "operator": "United States Postal Service", "operator:short": "USPS", "operator:type": "public", "operator:wikidata": "Q668687", "ref": "5002700003"}, "type": "Feature"}
{"geometry": {"coordinates": [-93.1510213324, 41.8262795107], "type": "Point"}, "id": "q6zedbb8UpdGFqburq4LtWm48JM=", "properties": {"@source_uri": "https://tools.usps.com/UspsToolsRestServices/rest/POLocator/findLocations", "@spider": "usps_collection_boxes", "addr:city": "BAXTER", "addr:country": "US", "addr:postcode": "50028", "addr:state": "IA", "addr:street_address": "105 E STATE ST", "amenity": "post_box", "collection_times": "Mo-Fr 14:45; Sa 08:15", "note": "ON 12/24 AND 12/31, THIS BOX MAY BE COLLECTED AS EARLY AS 12 NOON.", "nsi_id": "unitedstatespostalservice-a77078", "operator": "United States Postal Service", "operator:short": "USPS", "operator:type": "public", "operator:wikidata": "Q668687", "ref": "5002800001"}, "type": "Feature"}
{"geometry": {"coordinates": [-93.1510213324, 41.8262795107], "type": "Point"}, "id": "bjh_P61xdvkXI06M-pDsnQcmJP8=", "properties": {"@source_uri": "https://tools.usps.com/UspsToolsRestServices/rest/POLocator/findLocations", "@spider": "usps_collection_boxes", "addr:city": "BAXTER", "addr:country": "US", "addr:postcode": "50028", "addr:state": "IA", "addr:street_address": "105 E STATE ST", "amenity": "post_box", "collection_times": "Mo-Fr 14:45", "indoor": "yes", "note": "ON 12/24 AND 12/31, THIS BOX MAY BE COLLECTED AS EARLY AS 12 NOON.", "nsi_id": "unitedstatespostalservice-a77078", "operator": "United States Postal Service", "operator:short": "USPS", "operator:type": "public", "operator:wikidata": "Q668687", "ref": "5002800002"}, "type": "Feature"}
{"geometry": {"coordinates": [-93.1510213324, 41.8262795107], "type": "Point"}, "id": "EdUC6mvSgJd_nTq5fLDnY5Ng6ZQ=", "properties": {"@source_uri": "https://tools.usps.com/UspsToolsRestServices/rest/POLocator/findLocations", "@spider": "usps_collection_boxes", "addr:city": "BAXTER", "addr:country": "US", "addr:postcode": "50028", "addr:state": "IA", "addr:street_address": "105 E STATE ST", "amenity": "post_box", "collection_times": "Mo-Fr 15:00; Sa 08:30", "indoor": "yes", "note": "ON 12/24 AND 12/31, THIS BOX MAY BE COLLECTED AS EARLY AS 12 NOON.", "nsi_id": "unitedstatespostalservice-a77078", "operator": "United States Postal Service", "operator:short": "USPS", "operator:type": "public", "operator:wikidata": "Q668687", "ref": "5002800003"}, "type": "Feature"}
{"geometry": {"coordinates": [-94.557947094, 41.850864], "type": "Point"}, "id": "eGYjoChr6lDlwCbY4xj5o6eAMl4=", "properties": {"@source_uri": "https://tools.usps.com/UspsToolsRestServices/rest/POLocator/findLocations", "@spider": "usps_collection_boxes", "addr:city": "BAYARD", "addr:country": "US", "addr:postcode": "50029", "addr:state": "IA", "addr:street_address": "300 MAIN ST", "amenity": "post_box", "collection_times": "Mo-Fr 14:45; Sa 12:15", "note": "ON 12/24 AND 12/31, THIS BOX MAY BE COLLECTED AS EARLY AS 12 NOON.", "nsi_id": "unitedstatespostalservice-a77078", "operator": "United States Postal Service", "operator:short": "USPS", "operator:type": "public", "operator:wikidata": "Q668687", "ref": "5002900001"}, "type": "Feature"}
{"geometry": {"coordinates": [-94.557947094, 41.850864], "type": "Point"}, "id": "m4BwLLtaLWLGFbA0dydHK-gYz7c=", "properties": {"@source_uri": "https://tools.usps.com/UspsToolsRestServices/rest/POLocator/findLocations", "@spider": "usps_collection_boxes", "addr:city": "BAYARD", "addr:country": "US", "addr:postcode": "50029", "addr:state": "IA", "addr:street_address": "300 MAIN ST", "amenity": "post_box", "collection_times": "Mo-Fr 14:45", "indoor": "yes", "note": "ON 12/24 AND 12/31, THIS BOX MAY BE COLLECTED AS EARLY AS 12 NOON.", "nsi_id": "unitedstatespostalservice-a77078", "operator": "United States Postal Service", "operator:short": "USPS", "operator:type": "public", "operator:wikidata": "Q668687", "ref": "5002900002"}, "type": "Feature"}
{"geometry": {"coordinates": [-94.557947094, 41.850864], "type": "Point"}, "id": "_cXG3MCEKv8Lk0bQTEJXrLGKGwY=", "properties": {"@source_uri": "https://tools.usps.com/UspsToolsRestServices/rest/POLocator/findLocations", "@spider": "usps_collection_boxes", "addr:city": "BAYARD", "addr:country": "US", "addr:postcode": "50029", "addr:state": "IA", "addr:street_address": "300 MAIN ST", "amenity": "post_box", "collection_times": "Mo-Fr 15:00; Sa 12:30", "indoor": "yes", "note": "ON 12/24 AND 12/31, THIS BOX MAY BE COLLECTED AS EARLY AS 12 NOON.", "nsi_id": "unitedstatespostalservice-a77078", "operator": "United States Postal Service", "operator:short": "USPS", "operator:type": "public", "operator:wikidata": "Q668687", "ref": "5002900003"}, "type": "Feature"}
{"geometry": {"coordinates": [-94.142861864, 42.036517508], "type": "Point"}, "id": "vFcDozZ8jY8uLQ7vfaieeSW0RiY=", "properties": {"@source_uri": "https://tools.usps.com/UspsToolsRestServices/rest/POLocator/findLocations", "@spider": "usps_collection_boxes", "addr:city": "BEAVER", "addr:country": "US", "addr:postcode": "50031", "addr:state": "IA", "addr:street_address": "117 3RD ST", "amenity": "post_box", "collection_times": "Mo-Fr 08:15; Sa 10:15", "nsi_id": "unitedstatespostalservice-a77078", "operator": "United States Postal Service", "operator:short": "USPS", "operator:type": "public", "operator:wikidata": "Q668687", "ref": "5003100001"}, "type": "Feature"}
{"geometry": {"coordinates": [-94.142861864, 42.036517508], "type": "Point"}, "id": "ZrlME5yGewCJBF2mRE6RSQqhXcM=", "properties": {"@source_uri": "https://tools.usps.com/UspsToolsRestServices/rest/POLocator/findLocations", "@spider": "usps_collection_boxes", "addr:city": "BEAVER", "addr:country": "US", "addr:postcode": "50031", "addr:state": "IA", "addr:street_address": "117 3RD ST", "amenity": "post_box", "collection_times": "Mo-Fr 08:15; Sa 10:15", "indoor": "yes", "nsi_id": "unitedstatespostalservice-a77078", "operator": "United States Postal Service", "operator:short": "USPS", "operator:type": "public", "operator:wikidata": "Q668687", "ref": "5003100002"}, "type": "Feature"}
{"geometry": {"coordinates": [-94.142861864, 42.036517508], "type": "Point"}, "id": "M6bOZI70vgTwPYVslYNaBDHN3JU=", "properties": {"@source_uri": "https://tools.usps.com/UspsToolsRestServices/rest/POLocator/findLocations", "@spider": "usps_collection_boxes", "addr:city": "BEAVER", "addr:country": "US", "addr:postcode": "50031", "addr:state": "IA", "addr:street_address": "117 3RD ST", "amenity": "post_box", "collection_times": "Mo-Fr 08:30; Sa 10:30", "indoor": "yes", "nsi_id": "unitedstatespostalservice-a77078", "operator": "United States Postal Service", "operator:short": "USPS", "operator:type": "public", "operator:wikidata": "Q668687", "ref": "5003100003"}, "type": "Feature"}
{"geometry": {"coordinates": [-93.546039717, 41.66519291], "type": "Point"}, "id": "E3eEQY_Cg8eTCA4ZX1npfkkRbgo=", "properties": {"@source_uri": "https://tools.usps.com/UspsToolsRestServices/rest/POLocator/findLocations", "@spider": "usps_collection_boxes", "addr:city": "BERWICK", "addr:country": "US", "addr:postcode": "50032", "addr:state": "IA", "addr:street_address": "5760 NE BERWICK DR", "amenity": "post_box", "collection_times": "Mo-Fr 16:30; Sa 13:45", "note": "ON 12/24 AND 12/31, THIS BOX MAY BE COLLECTED AS EARLY AS 12 NOON.", "nsi_id": "unitedstatespostalservice-a77078", "operator": "United States Postal Service", "operator:short": "USPS", "operator:type": "public", "operator:wikidata": "Q668687", "ref": "5003200001"}, "type": "Feature"}
{"geometry": {"coordinates": [-93.546039717, 41.66519291], "type": "Point"}, "id": "BWMKlfi_BTKxQ-dkRgizCEU6b9s=", "properties": {"@source_uri": "https://tools.usps.com/UspsToolsRestServices/rest/POLocator/findLocations", "@spider": "usps_collection_boxes", "addr:city": "BERWICK", "addr:country": "US", "addr:postcode": "50032", "addr:state": "IA", "addr:street_address": "5760 NE BERWICK DR", "amenity": "post_box", "collection_times": "Mo-Fr 16:30; Sa 13:45", "indoor": "yes", "note": "ON 12/24 AND 12/31, THIS BOX MAY BE COLLECTED AS EARLY AS 12 NOON.", "nsi_id": "unitedstatespostalservice-a77078", "operator": "United States Postal Service", "operator:short": "USPS", "operator:type": "public", "operator:wikidata": "Q668687", "ref": "5003200002"}, "type": "Feature"}
{"geometry": {"coordinates": [-93.546039717, 41.66519291], "type": "Point"}, "id": "FsPOxRv2N1ryTeyudGfkgEBX0Fk=", "properties": {"@source_uri": "https://tools.usps.com/UspsToolsRestServices/rest/POLocator/findLocations", "@spider": "usps_collection_boxes", "addr:city": "BERWICK", "addr:country": "US", "addr:postcode": "50032", "addr:state": "IA", "addr:street_address": "5760 NE BERWICK DR", "amenity": "post_box", "collection_times": "Mo-Fr 16:45; Sa 14:00", "indoor": "yes", "note": "ON 12/24 AND 12/31, THIS BOX MAY BE COLLECTED AS EARLY AS 12 NOON.", "nsi_id": "unitedstatespostalservice-a77078", "operator": "United States Postal Service", "operator:short": "USPS", "operator:type": "public", "operator:wikidata": "Q668687", "ref": "5003200003"}, "type": "Feature"}
{"geometry": {"coordinates": [-93.643168738, 42.480288199], "type": "Point"}, "id": "76uCKV9iA5yB1_NeFZHXdTgzvwQ=", "properties": {"@source_uri": "https://tools.usps.com/UspsToolsRestServices/rest/POLocator/findLocations", "@spider": "usps_collection_boxes", "addr:city": "BLAIRSBURG", "addr:country": "US", "addr:postcode": "50034", "addr:state": "IA", "addr:street_address": "512 LAKE ST", "amenity": "post_box", "collection_times": "Mo-Fr 11:45; Sa 09:15", "nsi_id": "unitedstatespostalservice-a77078", "operator": "United States Postal Service", "operator:short": "USPS", "operator:type": "public", "operator:wikidata": "Q668687", "ref": "5003400001"}, "type": "Feature"}
{"geometry": {"coordinates": [-93.643166749, 42.4802980896], "type": "Point"}, "id": "9rECSNnFOk-nmlJg5AdXeFQZ7CY=", "properties": {"@source_uri": "https://tools.usps.com/UspsToolsRestServices/rest/POLocator/findLocations", "@spider": "usps_collection_boxes", "addr:city": "BLAIRSBURG", "addr:country": "US", "addr:postcode": "50034", "addr:state": "IA", "addr:street_address": "512 LAKE ST", "amenity": "post_box", "collection_times": "Mo-Fr 11:45; Sa 09:15", "indoor": "yes", "nsi_id": "unitedstatespostalservice-a77078", "operator": "United States Postal Service", "operator:short": "USPS", "operator:type": "public", "operator:wikidata": "Q668687", "ref": "5003400002"}, "type": "Feature"}
{"geometry": {"coordinates": [-93.643166749, 42.4802980896], "type": "Point"}, "id": "7HXoPeRiMAsvjaIqKe4rogr94-Q=", "properties": {"@source_uri": "https://tools.usps.com/UspsToolsRestServices/rest/POLocator/findLocations", "@spider": "usps_collection_boxes", "addr:city": "BLAIRSBURG", "addr:country": "US", "addr:postcode": "50034", "addr:state": "IA", "addr:street_address": "512 LAKE ST", "amenity": "post_box", "collection_times": "Mo-Fr 11:45; Sa 09:15", "indoor": "yes", "nsi_id": "unitedstatespostalservice-a77078", "operator": "United States Postal Service", "operator:short": "USPS", "operator:type": "public", "operator:wikidata": "Q668687", "ref": "5003400003"}, "type": "Feature"}
{"geometry": {"coordinates": [-93.45031996, 41.697949014], "type": "Point"}, "id": "9cfbwIyyceAWnVV95IqUxelPJdg=", "properties": {"@source_uri": "https://tools.usps.com/UspsToolsRestServices/rest/POLocator/findLocations", "@spider": "usps_collection_boxes", "addr:city": "BONDURANT", "addr:country": "US", "addr:postcode": "50035", "addr:state": "IA", "addr:street_address": "89 PAINE ST. SE", "amenity": "post_box", "collection_times": "Mo-Fr 16:15; Sa 08:45", "note": "ON 12/24 AND 12/31, THIS BOX MAY BE COLLECTED AS EARLY AS 12 NOON.", "nsi_id": "unitedstatespostalservice-a77078", "operator": "United States Postal Service", "operator:short": "USPS", "operator:type": "public", "operator:wikidata": "Q668687", "ref": "5003500001"}, "type": "Feature"}
{"geometry": {"coordinates": [-93.45031996, 41.697949014], "type": "Point"}, "id": "DC9FbAIQOkOsIAahUkug7tAhZO0=", "properties": {"@source_uri": "https://tools.usps.com/UspsToolsRestServices/rest/POLocator/findLocations", "@spider": "usps_collection_boxes", "addr:city": "BONDURANT", "addr:country": "US", "addr:postcode": "50035", "addr:state": "IA", "addr:street_address": "89 PAINE ST. SE", "amenity": "post_box", "collection_times": "Mo-Fr 16:15; Sa 08:45", "indoor": "yes", "note": "ON 12/24 AND 12/31, THIS BOX MAY BE COLLECTED AS EARLY AS 12 NOON.", "nsi_id": "unitedstatespostalservice-a77078", "operator": "United States Postal Service", "operator:short": "USPS", "operator:type": "public", "operator:wikidata": "Q668687", "ref": "5003500004"}, "type": "Feature"}
{"geometry": {"coordinates": [-93.45031996, 41.697949014], "type": "Point"}, "id": "L7E9txTfXrIJ3HTlB0hpJG4D2zE=", "properties": {"@source_uri": "https://tools.usps.com/UspsToolsRestServices/rest/POLocator/findLocations", "@spider": "usps_collection_boxes", "addr:city": "BONDURANT", "addr:country": "US", "addr:postcode": "50035", "addr:state": "IA", "addr:street_address": "89 PAINE ST. SE", "amenity": "post_box", "collection_times": "Mo-Fr 16:15; Sa 08:45", "indoor": "yes", "note": "ON 12/24 AND 12/31, THIS BOX MAY BE COLLECTED AS EARLY AS 12 NOON.", "nsi_id": "unitedstatespostalservice-a77078", "operator": "United States Postal Service", "operator:short": "USPS", "operator:type": "public", "operator:wikidata": "Q668687", "ref": "5003500006"}, "type": "Feature"}
{"geometry": {"coordinates": [-93.896932584, 42.059287521], "type": "Point"}, "id": "HFU0-RjfGXV_tSxU5uwiyDct4Gc=", "properties": {"@source_uri": "https://tools.usps.com/UspsToolsRestServices/rest/POLocator/findLocations", "@spider": "usps_collection_boxes", "addr:city": "BOONE", "addr:country": "US", "addr:postcode": "50036", "addr:state": "IA", "addr:street_address": "320 W MAMIE EISENHOWER AVE", "amenity": "post_box", "collection_times": "Mo-Sa 10:00", "nsi_id": "unitedstatespostalservice-a77078", "operator": "United States Postal Service", "operator:short": "USPS", "operator:type": "public", "operator:wikidata": "Q668687", "ref": "5003600001"}, "type": "Feature"}
{"geometry": {"coordinates": [-93.876945502, 42.04578467], "type": "Point"}, "id": "u_1URfZCerYR9pR9M_x-OhbwH4o=", "properties": {"@source_uri": "https://tools.usps.com/UspsToolsRestServices/rest/POLocator/findLocations", "@spider": "usps_collection_boxes", "addr:city": "BOONE", "addr:country": "US", "addr:postcode": "50036", "addr:state": "IA", "addr:street_address": "1125 HANCOCK DR", "amenity": "post_box", "collection_times": "Mo-Fr 13:00", "note": "ON 12/24 AND 12/31, THIS BOX MAY BE COLLECTED AS EARLY AS 12 NOON.", "nsi_id": "unitedstatespostalservice-a77078", "operator": "United States Postal Service", "operator:short": "USPS", "operator:type": "public", "operator:wikidata": "Q668687", "ref": "5003600002"}, "type": "Feature"}
{"geometry": {"coordinates": [-93.879314495, 42.040188168], "type": "Point"}, "id": "fR72FjRdN3PHFoCr2hedrDGnFQ4=", "properties": {"@source_uri": "https://tools.usps.com/UspsToolsRestServices/rest/POLocator/findLocations", "@spider": "usps_collection_boxes", "addr:city": "BOONE", "addr:country": "US", "addr:postcode": "50036", "addr:state": "IA", "addr:street_address": "1414 S STORY ST", "amenity": "post_box", "collection_times": "Mo-Sa 10:00", "nsi_id": "unitedstatespostalservice-a77078", "operator": "United States Postal Service", "operator:short": "USPS", "operator:type": "public", "operator:wikidata": "Q668687", "ref": "5003600004"}, "type": "Feature"}
{"geometry": {"coordinates": [-93.878362242, 42.055600964], "type": "Point"}, "id": "6m1eKqR9ycUNtxjy0cPz4BdqCbo=", "properties": {"@source_uri": "https://tools.usps.com/UspsToolsRestServices/rest/POLocator/findLocations", "@spider": "usps_collection_boxes", "addr:city": "BOONE", "addr:country": "US", "addr:postcode": "50036", "addr:state": "IA", "addr:street_address": "1015 UNION ST", "amenity": "post_box", "collection_times": "Mo-Sa 09:00", "nsi_id": "unitedstatespostalservice-a77078", "operator": "United States Postal Service", "operator:short": "USPS", "operator:type": "public", "operator:wikidata": "Q668687", "ref": "5003600005"}, "type": "Feature"}
{"geometry": {"coordinates": [-93.870653307, 42.035117481], "type": "Point"}, "id": "RJPynWlZGJ8Z37ueBw7cp6G7wU0=", "properties": {"@source_uri": "https://tools.usps.com/UspsToolsRestServices/rest/POLocator/findLocations", "@spider": "usps_collection_boxes", "addr:city": "BOONE", "addr:country": "US", "addr:postcode": "50036", "addr:state": "IA", "addr:street_address": "1515 SE MARSHALL ST", "amenity": "post_box", "collection_times": "Mo-Sa 13:00", "note": "ON 12/24 AND 12/31, THIS BOX MAY BE COLLECTED AS EARLY AS 12 NOON.", "nsi_id": "unitedstatespostalservice-a77078", "operator": "United States Postal Service", "operator:short": "USPS", "operator:type": "public", "operator:wikidata": "Q668687", "ref": "5003600007"}, "type": "Feature"}
{"geometry": {"coordinates": [-93.905619539, 42.058827], "type": "Point"}, "id": "J1YB8Sx17mx_1vR77I9KCYqcGQ4=", "properties": {"@source_uri": "https://tools.usps.com/UspsToolsRestServices/rest/POLocator/findLocations", "@spider": "usps_collection_boxes", "addr:city": "BOONE", "addr:country": "US", "addr:postcode": "50036", "addr:state": "IA", "addr:street_address": "201 STATE ST", "amenity": "post_box", "collection_times": "Mo-Fr 15:00", "note": "ON 12/24 AND 12/31, THIS BOX MAY BE COLLECTED AS EARLY AS 12 NOON.", "nsi_id": "unitedstatespostalservice-a77078", "operator": "United States Postal Service", "operator:short": "USPS", "operator:type": "public", "operator:wikidata": "Q668687", "ref": "5003600008"}, "type": "Feature"}
{"geometry": {"coordinates": [-93.880809, 42.063766492], "type": "Point"}, "id": "1LhFqExcG8t92GOp_L1uu0XfmCI=", "properties": {"@source_uri": "https://tools.usps.com/UspsToolsRestServices/rest/POLocator/findLocations", "@spider": "usps_collection_boxes", "addr:city": "BOONE", "addr:country": "US", "addr:postcode": "50036", "addr:state": "IA", "addr:street_address": "814 8TH ST", "amenity": "post_box", "collection_times": "Mo-Sa 09:00", "nsi_id": "unitedstatespostalservice-a77078", "operator": "United States Postal Service", "operator:short": "USPS", "operator:type": "public", "operator:wikidata": "Q668687", "ref": "5003600009"}, "type": "Feature"}
{"geometry": {"coordinates": [-93.880058545, 42.062543665], "type": "Point"}, "id": "WW7fjPSmY2SM6n4KMtQcGqgmwNs=", "properties": {"@source_uri": "https://tools.usps.com/UspsToolsRestServices/rest/POLocator/findLocations", "@spider": "usps_collection_boxes", "addr:city": "BOONE", "addr:country": "US", "addr:postcode": "50036", "addr:state": "IA", "addr:street_address": "621 STORY ST", "amenity": "post_box", "collection_times": "Mo-Sa 11:00", "nsi_id": "unitedstatespostalservice-a77078", "operator": "United States Postal Service", "operator:short": "USPS", "operator:type": "public", "operator:wikidata": "Q668687", "ref": "5003600011"}, "type": "Feature"}
{"geometry": {"coordinates": [-93.879648723, 42.063761474], "type": "Point"}, "id": "8WT8TzfhKMy71_KCyAbwdfueDfs=", "properties": {"@source_uri": "https://tools.usps.com/UspsToolsRestServices/rest/POLocator/findLocations", "@spider": "usps_collection_boxes", "addr:city": "BOONE", "addr:country": "US", "addr:postcode": "50036", "addr:state": "IA", "addr:street_address": "908 8TH ST", "amenity": "post_box", "collection_times": "Mo-Sa 11:30", "nsi_id": "unitedstatespostalservice-a77078", "operator": "United States Postal Service", "operator:short": "USPS", "operator:type": "public", "operator:wikidata": "Q668687", "ref": "5003600013"}, "type": "Feature"}
{"geometry": {"coordinates": [-93.882347987, 42.064496665], "type": "Point"}, "id": "QhXMCopM9YzL-SWj9_98uw4N2xQ=", "properties": {"@source_uri": "https://tools.usps.com/UspsToolsRestServices/rest/POLocator/findLocations", "@spider": "usps_collection_boxes", "addr:city": "BOONE", "addr:country": "US", "addr:postcode": "50036", "addr:state": "IA", "addr:street_address": "815 ARDEN ST", "amenity": "post_box", "collection_times": "Mo-Sa 17:30", "note": "ON 12/24 AND 12/31, THIS BOX MAY BE COLLECTED AS EARLY AS 12 NOON.", "nsi_id": "unitedstatespostalservice-a77078", "operator": "United States Postal Service", "operator:short": "USPS", "operator:type": "public", "operator:wikidata": "Q668687", "ref": "5003600017"}, "type": "Feature"}
{"geometry": {"coordinates": [-93.882347987, 42.064496665], "type": "Point"}, "id": "ZndzGIwfDMu8ZnsoIH6PNVA3wP4=", "properties": {"@source_uri": "https://tools.usps.com/UspsToolsRestServices/rest/POLocator/findLocations", "@spider": "usps_collection_boxes", "addr:city": "BOONE", "addr:country": "US", "addr:postcode": "50036", "addr:state": "IA", "addr:street_address": "815 ARDEN ST", "amenity": "post_box", "collection_times": "Mo-Sa 17:30", "indoor": "yes", "note": "ON 12/24 AND 12/31, THIS BOX MAY BE COLLECTED AS EARLY AS 12 NOON.", "nsi_id": "unitedstatespostalservice-a77078", "operator": "United States Postal Service", "operator:short": "USPS", "operator:type": "public", "operator:wikidata": "Q668687", "ref": "5003600028"}, "type": "Feature"}
{"geometry": {"coordinates": [-93.875724, 42.063833504], "type": "Point"}, "id": "tx5U_MdiLQl2dYavRi6AxUXAcTs=", "properties": {"@source_uri": "https://tools.usps.com/UspsToolsRestServices/rest/POLocator/findLocations", "@spider": "usps_collection_boxes", "addr:city": "BOONE", "addr:country": "US", "addr:postcode": "50036", "addr:state": "IA", "addr:street_address": "1111 8TH ST", "amenity": "post_box", "collection_times": "Mo-Sa 09:00", "nsi_id": "unitedstatespostalservice-a77078", "operator": "United States Postal Service", "operator:short": "USPS", "operator:type": "public", "operator:wikidata": "Q668687", "ref": "5003600031"}, "type": "Feature"}
{"geometry": {"coordinates": [-93.882347987, 42.064496665], "type": "Point"}, "id": "P2oRntVlaZ0r5Z83UP2qoHgy6EQ=", "properties": {"@source_uri": "https://tools.usps.com/UspsToolsRestServices/rest/POLocator/findLocations", "@spider": "usps_collection_boxes", "addr:city": "BOONE", "addr:country": "US", "addr:postcode": "50036", "addr:state": "IA", "addr:street_address": "815 ARDEN ST", "amenity": "post_box", "collection_times": "Mo-Fr 17:00; Sa 12:00", "indoor": "yes", "note": "ON 12/24 AND 12/31, THIS BOX MAY BE COLLECTED AS EARLY AS 12 NOON.", "nsi_id": "unitedstatespostalservice-a77078", "operator": "United States Postal Service", "operator:short": "USPS", "operator:type": "public", "operator:wikidata": "Q668687", "ref": "5003600032"}, "type": "Feature"}
{"geometry": {"coordinates": [-93.884390665, 41.524092525], "type": "Point"}, "id": "UYItUBMEkhHWN2c7Zsz_B0hRoDw=", "properties": {"@source_uri": "https://tools.usps.com/UspsToolsRestServices/rest/POLocator/findLocations", "@spider": "usps_collection_boxes", "addr:city": "BOONEVILLE", "addr:country": "US", "addr:postcode": "50038", "addr:state": "IA", "addr:street_address": "31080 MAIN ST", "amenity": "post_box", "collection_times": "Mo-Fr 14:45; Sa 14:00", "note": "ON 12/24 AND 12/31, THIS BOX MAY BE COLLECTED AS EARLY AS 12 NOON.", "nsi_id": "unitedstatespostalservice-a77078", "operator": "United States Postal Service", "operator:short": "USPS", "operator:type": "public", "operator:wikidata": "Q668687", "ref": "5003800001"}, "type": "Feature"}
{"geometry": {"coordinates": [-93.884390665, 41.524092525], "type": "Point"}, "id": "ImiS8_DFB6ywkt2xMwef6UK06uI=", "properties": {"@source_uri": "https://tools.usps.com/UspsToolsRestServices/rest/POLocator/findLocations", "@spider": "usps_collection_boxes", "addr:city": "BOONEVILLE", "addr:country": "US", "addr:postcode": "50038", "addr:state": "IA", "addr:street_address": "31080 MAIN ST", "amenity": "post_box", "collection_times": "Mo-Fr 14:45", "indoor": "yes", "note": "ON 12/24 AND 12/31, THIS BOX MAY BE COLLECTED AS EARLY AS 12 NOON.", "nsi_id": "unitedstatespostalservice-a77078", "operator": "United States Postal Service", "operator:short": "USPS", "operator:type": "public", "operator:wikidata": "Q668687", "ref": "5003800002"}, "type": "Feature"}
{"geometry": {"coordinates": [-93.884390665, 41.524092525], "type": "Point"}, "id": "RUKlx8QkYLH8dQ53_SYDL21TglA=", "properties": {"@source_uri": "https://tools.usps.com/UspsToolsRestServices/rest/POLocator/findLocations", "@spider": "usps_collection_boxes", "addr:city": "BOONEVILLE", "addr:country": "US", "addr:postcode": "50038", "addr:state": "IA", "addr:street_address": "31080 MAIN ST", "amenity": "post_box", "collection_times": "Mo-Fr 15:00; Sa 14:15", "indoor": "yes", "note": "ON 12/24 AND 12/31, THIS BOX MAY BE COLLECTED AS EARLY AS 12 NOON.", "nsi_id": "unitedstatespostalservice-a77078", "operator": "United States Postal Service", "operator:short": "USPS", "operator:type": "public", "operator:wikidata": "Q668687", "ref": "5003800003"}, "type": "Feature"}
{"geometry": {"coordinates": [-94.008204587, 41.852323529], "type": "Point"}, "id": "7Sgk-610w4zepMxV0NGYVf8PmO0=", "properties": {"@source_uri": "https://tools.usps.com/UspsToolsRestServices/rest/POLocator/findLocations", "@spider": "usps_collection_boxes", "addr:city": "BOUTON", "addr:country": "US", "addr:postcode": "50039", "addr:state": "IA", "addr:street_address": "108 E 1ST ST", "amenity": "post_box", "collection_times": "Mo-Fr 16:45; Sa 14:30", "note": "ON 12/24 AND 12/31, THIS BOX MAY BE COLLECTED AS EARLY AS 12 NOON.", "nsi_id": "unitedstatespostalservice-a77078", "operator": "United States Postal Service", "operator:short": "USPS", "operator:type": "public", "operator:wikidata": "Q668687", "ref": "5003900001"}, "type": "Feature"}
{"geometry": {"coordinates": [-94.008204587, 41.852323529], "type": "Point"}, "id": "QjDRkTT4sbR-qKO_uc2eNeIrL-c=", "properties": {"@source_uri": "https://tools.usps.com/UspsToolsRestServices/rest/POLocator/findLocations", "@spider": "usps_collection_boxes", "addr:city": "BOUTON", "addr:country": "US", "addr:postcode": "50039", "addr:state": "IA", "addr:street_address": "108 E 1ST ST", "amenity": "post_box", "collection_times": "Mo-Fr 16:45", "indoor": "yes", "note": "ON 12/24 AND 12/31, THIS BOX MAY BE COLLECTED AS EARLY AS 12 NOON.", "nsi_id": "unitedstatespostalservice-a77078", "operator": "United States Postal Service", "operator:short": "USPS", "operator:type": "public", "operator:wikidata": "Q668687", "ref": "5003900002"}, "type": "Feature"}
{"geometry": {"coordinates": [-94.008204587, 41.852323529], "type": "Point"}, "id": "n8dBNkExKGC_vFl4kGz5iFtmSVw=", "properties": {"@source_uri": "https://tools.usps.com/UspsToolsRestServices/rest/POLocator/findLocations", "@spider": "usps_collection_boxes", "addr:city": "BOUTON", "addr:country": "US", "addr:postcode": "50039", "addr:state": "IA", "addr:street_address": "108 E 1ST ST", "amenity": "post_box", "collection_times": "Mo-Fr 17:00; Sa 14:45", "indoor": "yes", "note": "ON 12/24 AND 12/31, THIS BOX MAY BE COLLECTED AS EARLY AS 12 NOON.", "nsi_id": "unitedstatespostalservice-a77078", "operator": "United States Postal Service", "operator:short": "USPS", "operator:type": "public", "operator:wikidata": "Q668687", "ref": "5003900003"}, "type": "Feature"}
{"geometry": {"coordinates": [-94.104896728, 42.17570611], "type": "Point"}, "id": "dhXDrisezjC3mOnZHINq4AU4KXk=", "properties": {"@source_uri": "https://tools.usps.com/UspsToolsRestServices/rest/POLocator/findLocations", "@spider": "usps_collection_boxes", "addr:city": "BOXHOLM", "addr:country": "US", "addr:postcode": "50040", "addr:state": "IA", "addr:street_address": "402 2ND ST", "amenity": "post_box", "collection_times": "Mo-Fr 11:15; Sa 08:45", "nsi_id": "unitedstatespostalservice-a77078", "operator": "United States Postal Service", "operator:short": "USPS", "operator:type": "public", "operator:wikidata": "Q668687", "ref": "5004000001"}, "type": "Feature"}
{"geometry": {"coordinates": [-94.104896728, 42.17570611], "type": "Point"}, "id": "8tuzcTha_2_LSb3vm_b9nMQ-eA8=", "properties": {"@source_uri": "https://tools.usps.com/UspsToolsRestServices/rest/POLocator/findLocations", "@spider": "usps_collection_boxes", "addr:city": "BOXHOLM", "addr:country": "US", "addr:postcode": "50040", "addr:state": "IA", "addr:street_address": "402 2ND ST", "amenity": "post_box", "collection_times": "Mo-Fr 11:15; Sa 08:45", "indoor": "yes", "nsi_id": "unitedstatespostalservice-a77078", "operator": "United States Postal Service", "operator:short": "USPS", "operator:type": "public", "operator:wikidata": "Q668687", "ref": "5004000002"}, "type": "Feature"}
{"geometry": {"coordinates": [-94.104896728, 42.17570611], "type": "Point"}, "id": "1NLK-drBPQtyNKxXLY12kz27LOk=", "properties": {"@source_uri": "https://tools.usps.com/UspsToolsRestServices/rest/POLocator/findLocations", "@spider": "usps_collection_boxes", "addr:city": "BOXHOLM", "addr:country": "US", "addr:postcode": "50040", "addr:state": "IA", "addr:street_address": "402 2ND ST", "amenity": "post_box", "collection_times": "Mo-Fr 11:15; Sa 08:45", "indoor": "yes", "nsi_id": "unitedstatespostalservice-a77078", "operator": "United States Postal Service", "operator:short": "USPS", "operator:type": "public", "operator:wikidata": "Q668687", "ref": "5004000003"}, "type": "Feature"}
{"geometry": {"coordinates": [-93.244472948, 42.632479521], "type": "Point"}, "id": "-8Aew3i9H9H6cI58DeOfUNkXI6E=", "properties": {"@source_uri": "https://tools.usps.com/UspsToolsRestServices/rest/POLocator/findLocations", "@spider": "usps_collection_boxes", "addr:city": "BRADFORD", "addr:country": "US", "addr:postcode": "50041", "addr:state": "IA", "addr:street_address": "301 MAIN ST", "amenity": "post_box", "collection_times": "Mo-Fr 09:45; Sa 08:45", "nsi_id": "unitedstatespostalservice-a77078", "operator": "United States Postal Service", "operator:short": "USPS", "operator:type": "public", "operator:wikidata": "Q668687", "ref": "5004100001"}, "type": "Feature"}
{"geometry": {"coordinates": [-93.244472948, 42.632479521], "type": "Point"}, "id": "WcN_1uABq5GPaAnrIwRLA6AGmdQ=", "properties": {"@source_uri": "https://tools.usps.com/UspsToolsRestServices/rest/POLocator/findLocations", "@spider": "usps_collection_boxes", "addr:city": "BRADFORD", "addr:country": "US", "addr:postcode": "50041", "addr:state": "IA", "addr:street_address": "301 MAIN ST", "amenity": "post_box", "collection_times": "Mo-Fr 09:45", "indoor": "yes", "nsi_id": "unitedstatespostalservice-a77078", "operator": "United States Postal Service", "operator:short": "USPS", "operator:type": "public", "operator:wikidata": "Q668687", "ref": "5004100002"}, "type": "Feature"}
{"geometry": {"coordinates": [-93.244472948, 42.632479521], "type": "Point"}, "id": "EwFYtzaF5Sh34a3qHTDfrhoRNlE=", "properties": {"@source_uri": "https://tools.usps.com/UspsToolsRestServices/rest/POLocator/findLocations", "@spider": "usps_collection_boxes", "addr:city": "BRADFORD", "addr:country": "US", "addr:postcode": "50041", "addr:state": "IA", "addr:street_address": "301 MAIN ST", "amenity": "post_box", "collection_times": "Mo-Fr 10:00; Sa 09:00", "indoor": "yes", "nsi_id": "unitedstatespostalservice-a77078", "operator": "United States Postal Service", "operator:short": "USPS", "operator:type": "public", "operator:wikidata": "Q668687", "ref": "5004100003"}, "type": "Feature"}
{"geometry": {"coordinates": [-94.923072, 41.544351512], "type": "Point"}, "id": "jDvkqNEzDjOpDtSnwBq40rXmJ-s=", "properties": {"@source_uri": "https://tools.usps.com/UspsToolsRestServices/rest/POLocator/findLocations", "@spider": "usps_collection_boxes", "addr:city": "BRAYTON", "addr:country": "US", "addr:postcode": "50042", "addr:state": "IA", "addr:street_address": "200 COUNTY TRUNK RD", "amenity": "post_box", "collection_times": "Mo-Fr 13:45; Sa 13:30", "note": "ON 12/24 AND 12/31, THIS BOX MAY BE COLLECTED AS EARLY AS 12 NOON.", "nsi_id": "unitedstatespostalservice-a77078", "operator": "United States Postal Service", "operator:short": "USPS", "operator:type": "public", "operator:wikidata": "Q668687", "ref": "5004200001"}, "type": "Feature"}
{"geometry": {"coordinates": [-94.923072, 41.544351512], "type": "Point"}, "id": "Ey1YgtP8gnuCHkr_7DpmByqF7hI=", "properties": {"@source_uri": "https://tools.usps.com/UspsToolsRestServices/rest/POLocator/findLocations", "@spider": "usps_collection_boxes", "addr:city": "BRAYTON", "addr:country": "US", "addr:postcode": "50042", "addr:state": "IA", "addr:street_address": "200 COUNTY TRUNK RD", "amenity": "post_box", "collection_times": "Mo-Fr 13:45; Sa 13:30", "indoor": "yes", "note": "ON 12/24 AND 12/31, THIS BOX MAY BE COLLECTED AS EARLY AS 12 NOON.", "nsi_id": "unitedstatespostalservice-a77078", "operator": "United States Postal Service", "operator:short": "USPS", "operator:type": "public", "operator:wikidata": "Q668687", "ref": "5004200002"}, "type": "Feature"}
{"geometry": {"coordinates": [-94.923072, 41.544351512], "type": "Point"}, "id": "d5qhp2eKjAIoVFgBLbnWfq42Xa0=", "properties": {"@source_uri": "https://tools.usps.com/UspsToolsRestServices/rest/POLocator/findLocations", "@spider": "usps_collection_boxes", "addr:city": "BRAYTON", "addr:country": "US", "addr:postcode": "50042", "addr:state": "IA", "addr:street_address": "200 COUNTY TRUNK RD", "amenity": "post_box", "collection_times": "Mo-Fr 14:00; Sa 13:45", "indoor": "yes", "note": "ON 12/24 AND 12/31, THIS BOX MAY BE COLLECTED AS EARLY AS 12 NOON.", "nsi_id": "unitedstatespostalservice-a77078", "operator": "United States Postal Service", "operator:short": "USPS", "operator:type": "public", "operator:wikidata": "Q668687", "ref": "5004200003"}, "type": "Feature"}
{"geometry": {"coordinates": [-92.886626009, 41.205131665], "type": "Point"}, "id": "nmesjwRmtQRwLHKvNqI1kwEYQPA=", "properties": {"@source_uri": "https://tools.usps.com/UspsToolsRestServices/rest/POLocator/findLocations", "@spider": "usps_collection_boxes", "addr:city": "BUSSEY", "addr:country": "US", "addr:postcode": "50044", "addr:state": "IA", "addr:street_address": "408 MERRILL ST", "amenity": "post_box", "collection_times": "Mo-Fr 11:15; Sa 08:15", "nsi_id": "unitedstatespostalservice-a77078", "operator": "United States Postal Service", "operator:short": "USPS", "operator:type": "public", "operator:wikidata": "Q668687", "ref": "5004400001"}, "type": "Feature"}
{"geometry": {"coordinates": [-92.886626009, 41.205131665], "type": "Point"}, "id": "E83YeLXnBeBMqu_m4U3qUCr1chU=", "properties": {"@source_uri": "https://tools.usps.com/UspsToolsRestServices/rest/POLocator/findLocations", "@spider": "usps_collection_boxes", "addr:city": "BUSSEY", "addr:country": "US", "addr:postcode": "50044", "addr:state": "IA", "addr:street_address": "408 MERRILL ST", "amenity": "post_box", "collection_times": "Mo-Fr 11:15", "indoor": "yes", "nsi_id": "unitedstatespostalservice-a77078", "operator": "United States Postal Service", "operator:short": "USPS", "operator:type": "public", "operator:wikidata": "Q668687", "ref": "5004400002"}, "type": "Feature"}
{"geometry": {"coordinates": [-92.886626009, 41.205131665], "type": "Point"}, "id": "TSpwp0bd8Xei3iyQJLRZsEiH1LM=", "properties": {"@source_uri": "https://tools.usps.com/UspsToolsRestServices/rest/POLocator/findLocations", "@spider": "usps_collection_boxes", "addr:city": "BUSSEY", "addr:country": "US", "addr:postcode": "50044", "addr:state": "IA", "addr:street_address": "408 MERRILL ST", "amenity": "post_box", "collection_times": "Mo-Fr 11:30; Sa 08:30", "indoor": "yes", "nsi_id": "unitedstatespostalservice-a77078", "operator": "United States Postal Service", "operator:short": "USPS", "operator:type": "public", "operator:wikidata": "Q668687", "ref": "5004400003"}, "type": "Feature"}
{"geometry": {"coordinates": [-93.529237412, 41.899525606], "type": "Point"}, "id": "OqK9e6NMkwZU0jW05DUolU0a-OM=", "properties": {"@source_uri": "https://tools.usps.com/UspsToolsRestServices/rest/POLocator/findLocations", "@spider": "usps_collection_boxes", "addr:city": "CAMBRIDGE", "addr:country": "US", "addr:postcode": "50046", "addr:state": "IA", "addr:street_address": "304 WATER ST", "amenity": "post_box", "collection_times": "Mo-Fr 15:45; Sa 13:15", "note": "ON 12/24 AND 12/31, THIS BOX MAY BE COLLECTED AS EARLY AS 12 NOON.", "nsi_id": "unitedstatespostalservice-a77078", "operator": "United States Postal Service", "operator:short": "USPS", "operator:type": "public", "operator:wikidata": "Q668687", "ref": "5004600001"}, "type": "Feature"}
{"geometry": {"coordinates": [-93.529237412, 41.899525606], "type": "Point"}, "id": "Rm-gngOKy4GJmhNFhdU68lUljkY=", "properties": {"@source_uri": "https://tools.usps.com/UspsToolsRestServices/rest/POLocator/findLocations", "@spider": "usps_collection_boxes", "addr:city": "CAMBRIDGE", "addr:country": "US", "addr:postcode": "50046", "addr:state": "IA", "addr:street_address": "304 WATER ST", "amenity": "post_box", "collection_times": "Mo-Fr 15:45", "indoor": "yes", "note": "ON 12/24 AND 12/31, THIS BOX MAY BE COLLECTED AS EARLY AS 12 NOON.", "nsi_id": "unitedstatespostalservice-a77078", "operator": "United States Postal Service", "operator:short": "USPS", "operator:type": "public", "operator:wikidata": "Q668687", "ref": "5004600002"}, "type": "Feature"}
{"geometry": {"coordinates": [-93.529237412, 41.899525606], "type": "Point"}, "id": "hjZkglJLGg78pmATXcic7jrSvWo=", "properties": {"@source_uri": "https://tools.usps.com/UspsToolsRestServices/rest/POLocator/findLocations", "@spider": "usps_collection_boxes", "addr:city": "CAMBRIDGE", "addr:country": "US", "addr:postcode": "50046", "addr:state": "IA", "addr:street_address": "304 WATER ST", "amenity": "post_box", "collection_times": "Mo-Fr 16:00; Sa 13:30", "indoor": "yes", "note": "ON 12/24 AND 12/31, THIS BOX MAY BE COLLECTED AS EARLY AS 12 NOON.", "nsi_id": "unitedstatespostalservice-a77078", "operator": "United States Postal Service", "operator:short": "USPS", "operator:type": "public", "operator:wikidata": "Q668687", "ref": "5004600003"}, "type": "Feature"}
{"geometry": {"coordinates": [-93.486655323, 41.497478413], "type": "Point"}, "id": "7NvvMKileM2K1z9F61x-W8ruq4g=", "properties": {"@source_uri": "https://tools.usps.com/UspsToolsRestServices/rest/POLocator/findLocations", "@spider": "usps_collection_boxes", "addr:city": "CARLISLE", "addr:country": "US", "addr:postcode": "50047", "addr:state": "IA", "addr:street_address": "200 S 1ST ST", "amenity": "post_box", "collection_times": "Mo-Sa 16:45", "note": "ON 12/24 AND 12/31, THIS BOX MAY BE COLLECTED AS EARLY AS 12 NOON.", "nsi_id": "unitedstatespostalservice-a77078", "operator": "United States Postal Service", "operator:short": "USPS", "operator:type": "public", "operator:wikidata": "Q668687", "ref": "5004700001"}, "type": "Feature"}
{"geometry": {"coordinates": [-93.486655323, 41.497478413], "type": "Point"}, "id": "m_g1IPIXZ1wS3Ozqh8950Kq-JgE=", "properties": {"@source_uri": "https://tools.usps.com/UspsToolsRestServices/rest/POLocator/findLocations", "@spider": "usps_collection_boxes", "addr:city": "CARLISLE", "addr:country": "US", "addr:postcode": "50047", "addr:state": "IA", "addr:street_address": "200 S 1ST ST", "amenity": "post_box", "collection_times": "Mo-Fr 16:45; Sa 10:45", "indoor": "yes", "note": "ON 12/24 AND 12/31, THIS BOX MAY BE COLLECTED AS EARLY AS 12 NOON.", "nsi_id": "unitedstatespostalservice-a77078", "operator": "United States Postal Service", "operator:short": "USPS", "operator:type": "public", "operator:wikidata": "Q668687", "ref": "5004700002"}, "type": "Feature"}
{"geometry": {"coordinates": [-93.486655323, 41.497478413], "type": "Point"}, "id": "TX7oSzB87k2wy0mQw4FrubBKxSM=", "properties": {"@source_uri": "https://tools.usps.com/UspsToolsRestServices/rest/POLocator/findLocations", "@spider": "usps_collection_boxes", "addr:city": "CARLISLE", "addr:country": "US", "addr:postcode": "50047", "addr:state": "IA", "addr:street_address": "200 S 1ST ST", "amenity": "post_box", "collection_times": "Mo-Fr 16:30; Sa 10:30", "indoor": "yes", "note": "ON 12/24 AND 12/31, THIS BOX MAY BE COLLECTED AS EARLY AS 12 NOON.", "nsi_id": "unitedstatespostalservice-a77078", "operator": "United States Postal Service", "operator:short": "USPS", "operator:type": "public", "operator:wikidata": "Q668687", "ref": "5004700003"}, "type": "Feature"}
{"geometry": {"coordinates": [-94.518940332, 41.506790503], "type": "Point"}, "id": "Wfyhi50YpE93jH3pgsQK3cJAisY=", "properties": {"@source_uri": "https://tools.usps.com/UspsToolsRestServices/rest/POLocator/findLocations", "@spider": "usps_collection_boxes", "addr:city": "CASEY", "addr:country": "US", "addr:postcode": "50048", "addr:state": "IA", "addr:street_address": "101 E GRANT ST", "amenity": "post_box", "collection_times": "Mo-Fr 11:15; Sa 08:30", "nsi_id": "unitedstatespostalservice-a77078", "operator": "United States Postal Service", "operator:short": "USPS", "operator:type": "public", "operator:wikidata": "Q668687", "ref": "5004800001"}, "type": "Feature"}
{"geometry": {"coordinates": [-94.518940332, 41.506790503], "type": "Point"}, "id": "pKLKi22A2dZkpIbcKFmHOX4pyZY=", "properties": {"@source_uri": "https://tools.usps.com/UspsToolsRestServices/rest/POLocator/findLocations", "@spider": "usps_collection_boxes", "addr:city": "CASEY", "addr:country": "US", "addr:postcode": "50048", "addr:state": "IA", "addr:street_address": "101 E GRANT ST", "amenity": "post_box", "collection_times": "Mo-Fr 11:15; Sa 08:30", "indoor": "yes", "nsi_id": "unitedstatespostalservice-a77078", "operator": "United States Postal Service", "operator:short": "USPS", "operator:type": "public", "operator:wikidata": "Q668687", "ref": "5004800002"}, "type": "Feature"}
{"geometry": {"coordinates": [-94.518940332, 41.506790503], "type": "Point"}, "id": "mic68QgKGHBAh7KJby04vdrApkw=", "properties": {"@source_uri": "https://tools.usps.com/UspsToolsRestServices/rest/POLocator/findLocations", "@spider": "usps_collection_boxes", "addr:city": "CASEY", "addr:country": "US", "addr:postcode": "50048", "addr:state": "IA", "addr:street_address": "101 E GRANT ST", "amenity": "post_box", "collection_times": "Mo-Fr 11:30; Sa 08:45", "indoor": "yes", "nsi_id": "unitedstatespostalservice-a77078", "operator": "United States Postal Service", "operator:short": "USPS", "operator:type": "public", "operator:wikidata": "Q668687", "ref": "5004800003"}, "type": "Feature"}
{"geometry": {"coordinates": [-93.323372081, 41.014579488], "type": "Point"}, "id": "26pfLmqZAzxA8OY8dx71b80QI84=", "properties": {"@source_uri": "https://tools.usps.com/UspsToolsRestServices/rest/POLocator/findLocations", "@spider": "usps_collection_boxes", "addr:city": "CHARITON", "addr:country": "US", "addr:postcode": "50049", "addr:state": "IA", "addr:street_address": "2001 COURT AVE", "amenity": "post_box", "collection_times": "Mo-Sa 12:00", "nsi_id": "unitedstatespostalservice-a77078", "operator": "United States Postal Service", "operator:short": "USPS", "operator:type": "public", "operator:wikidata": "Q668687", "ref": "5004900004"}, "type": "Feature"}
{"geometry": {"coordinates": [-93.308440419, 41.015754587], "type": "Point"}, "id": "oOp-k-nMlWcF94vNiQXl54sELkY=", "properties": {"@source_uri": "https://tools.usps.com/UspsToolsRestServices/rest/POLocator/findLocations", "@spider": "usps_collection_boxes", "addr:city": "CHARITON", "addr:country": "US", "addr:postcode": "50049", "addr:state": "IA", "addr:street_address": "201 N MAIN ST", "amenity": "post_box", "collection_times": "Mo-Fr 16:30; Sa 13:45", "note": "ON 12/24 AND 12/31, THIS BOX MAY BE COLLECTED AS EARLY AS 12 NOON.", "nsi_id": "unitedstatespostalservice-a77078", "operator": "United States Postal Service", "operator:short": "USPS", "operator:type": "public", "operator:wikidata": "Q668687", "ref": "5004900008"}, "type": "Feature"}
{"geometry": {"coordinates": [-93.307653, 41.015558477], "type": "Point"}, "id": "SI7_OK_lWVRwPS_jTfPMDgND-JE=", "properties": {"@source_uri": "https://tools.usps.com/UspsToolsRestServices/rest/POLocator/findLocations", "@spider": "usps_collection_boxes", "addr:city": "CHARITON", "addr:country": "US", "addr:postcode": "50049", "addr:state": "IA", "addr:street_address": "916 BRADEN AVE", "amenity": "post_box", "collection_times": "Mo-Fr 16:30", "note": "ON 12/24 AND 12/31, THIS BOX MAY BE COLLECTED AS EARLY AS 12 NOON.", "nsi_id": "unitedstatespostalservice-a77078", "operator": "United States Postal Service", "operator:short": "USPS", "operator:type": "public", "operator:wikidata": "Q668687", "ref": "5004900009"}, "type": "Feature"}
{"geometry": {"coordinates": [-93.306856581, 41.013594251], "type": "Point"}, "id": "BfrTyXvWzUhMYHRjWkP1mmXz6gk=", "properties": {"@source_uri": "https://tools.usps.com/UspsToolsRestServices/rest/POLocator/findLocations", "@spider": "usps_collection_boxes", "addr:city": "CHARITON", "addr:country": "US", "addr:postcode": "50049", "addr:state": "IA", "addr:street_address": "126 S GRAND ST", "amenity": "post_box", "collection_times": "Mo-Fr 17:15; Sa 15:15", "note": "ON 12/24 AND 12/31, THIS BOX MAY BE COLLECTED AS EARLY AS 12 NOON.", "nsi_id": "unitedstatespostalservice-a77078", "operator": "United States Postal Service", "operator:short": "USPS", "operator:type": "public", "operator:wikidata": "Q668687", "ref": "5004900010"}, "type": "Feature"}
{"geometry": {"coordinates": [-93.306856581, 41.013594251], "type": "Point"}, "id": "aYS6gNXuyk6mForLm_b6J27nwiQ=", "properties": {"@source_uri": "https://tools.usps.com/UspsToolsRestServices/rest/POLocator/findLocations", "@spider": "usps_collection_boxes", "addr:city": "CHARITON", "addr:country": "US", "addr:postcode": "50049", "addr:state": "IA", "addr:street_address": "126 S GRAND ST", "amenity": "post_box", "collection_times": "Mo-Fr 17:15; Sa 15:15", "indoor": "yes", "note": "ON 12/24 AND 12/31, THIS BOX MAY BE COLLECTED AS EARLY AS 12 NOON.", "nsi_id": "unitedstatespostalservice-a77078", "operator": "United States Postal Service", "operator:short": "USPS", "operator:type": "public", "operator:wikidata": "Q668687", "ref": "5004900012"}, "type": "Feature"}
{"geometry": {"coordinates": [-93.306856581, 41.013594251], "type": "Point"}, "id": "bJTaX-2NJTl1cGWexhFcGHmzADk=", "properties": {"@source_uri": "https://tools.usps.com/UspsToolsRestServices/rest/POLocator/findLocations", "@spider": "usps_collection_boxes", "addr:city": "CHARITON", "addr:country": "US", "addr:postcode": "50049", "addr:state": "IA", "addr:street_address": "126 S GRAND ST", "amenity": "post_box", "collection_times": "Mo-Fr 16:30", "indoor": "yes", "note": "ON 12/24 AND 12/31, THIS BOX MAY BE COLLECTED AS EARLY AS 12 NOON.", "nsi_id": "unitedstatespostalservice-a77078", "operator": "United States Postal Service", "operator:short": "USPS", "operator:type": "public", "operator:wikidata": "Q668687", "ref": "5004900014"}, "type": "Feature"}
{"geometry": {"coordinates": [-94.478227952, 42.155177768], "type": "Point"}, "id": "1DDMLShnW7FQVizinpd3s5eRCCc=", "properties": {"@source_uri": "https://tools.usps.com/UspsToolsRestServices/rest/POLocator/findLocations", "@spider": "usps_collection_boxes", "addr:city": "CHURDAN", "addr:country": "US", "addr:postcode": "50050", "addr:state": "IA", "addr:street_address": "517 SAND ST", "amenity": "post_box", "collection_times": "Mo-Fr 11:15; Sa 09:15", "nsi_id": "unitedstatespostalservice-a77078", "operator": "United States Postal Service", "operator:short": "USPS", "operator:type": "public", "operator:wikidata": "Q668687", "ref": "5005000001"}, "type": "Feature"}
{"geometry": {"coordinates": [-94.478227952, 42.155177768], "type": "Point"}, "id": "ohSz_vqaNqhpFT6KNzCeXydFQbs=", "properties": {"@source_uri": "https://tools.usps.com/UspsToolsRestServices/rest/POLocator/findLocations", "@spider": "usps_collection_boxes", "addr:city": "CHURDAN", "addr:country": "US", "addr:postcode": "50050", "addr:state": "IA", "addr:street_address": "517 SAND ST", "amenity": "post_box", "collection_times": "Mo-Fr 11:15; Sa 09:15", "indoor": "yes", "nsi_id": "unitedstatespostalservice-a77078", "operator": "United States Postal Service", "operator:short": "USPS", "operator:type": "public", "operator:wikidata": "Q668687", "ref": "5005000002"}, "type": "Feature"}
{"geometry": {"coordinates": [-94.478227952, 42.155177768], "type": "Point"}, "id": "UTrbUUP4560iQH9YChgoEDYU814=", "properties": {"@source_uri": "https://tools.usps.com/UspsToolsRestServices/rest/POLocator/findLocations", "@spider": "usps_collection_boxes", "addr:city": "CHURDAN", "addr:country": "US", "addr:postcode": "50050", "addr:state": "IA", "addr:street_address": "517 SAND ST", "amenity": "post_box", "collection_times": "Mo-Fr 11:15; Sa 09:15", "indoor": "yes", "nsi_id": "unitedstatespostalservice-a77078", "operator": "United States Postal Service", "operator:short": "USPS", "operator:type": "public", "operator:wikidata": "Q668687", "ref": "5005000003"}, "type": "Feature"}
{"geometry": {"coordinates": [-93.159060064, 42.11506778], "type": "Point"}, "id": "_ifk__Ds_e29GwmY2wmAZFILf80=", "properties": {"@source_uri": "https://tools.usps.com/UspsToolsRestServices/rest/POLocator/findLocations", "@spider": "usps_collection_boxes", "addr:city": "CLEMONS", "addr:country": "US", "addr:postcode": "50051", "addr:state": "IA", "addr:street_address": "110 MAIN ST", "amenity": "post_box", "collection_times": "Mo-Fr 14:45; Sa 14:00", "note": "ON 12/24 AND 12/31, THIS BOX MAY BE COLLECTED AS EARLY AS 12 NOON.", "nsi_id": "unitedstatespostalservice-a77078", "operator": "United States Postal Service", "operator:short": "USPS", "operator:type": "public", "operator:wikidata": "Q668687", "ref": "5005100001"}, "type": "Feature"}
{"geometry": {"coordinates": [-93.159060064, 42.11506778], "type": "Point"}, "id": "LSNHI9Ho20lEDoEgri9cu-J_e-s=", "properties": {"@source_uri": "https://tools.usps.com/UspsToolsRestServices/rest/POLocator/findLocations", "@spider": "usps_collection_boxes", "addr:city": "CLEMONS", "addr:country": "US", "addr:postcode": "50051", "addr:state": "IA", "addr:street_address": "110 MAIN ST", "amenity": "post_box", "collection_times": "Mo-Fr 14:45", "indoor": "yes", "note": "ON 12/24 AND 12/31, THIS BOX MAY BE COLLECTED AS EARLY AS 12 NOON.", "nsi_id": "unitedstatespostalservice-a77078", "operator": "United States Postal Service", "operator:short": "USPS", "operator:type": "public", "operator:wikidata": "Q668687", "ref": "5005100002"}, "type": "Feature"}
{"geometry": {"coordinates": [-93.159060064, 42.11506778], "type": "Point"}, "id": "JRl-O9LHv57wVpzj0S7FCPW9NEM=", "properties": {"@source_uri": "https://tools.usps.com/UspsToolsRestServices/rest/POLocator/findLocations", "@spider": "usps_collection_boxes", "addr:city": "CLEMONS", "addr:country": "US", "addr:postcode": "50051", "addr:state": "IA", "addr:street_address": "110 MAIN ST", "amenity": "post_box", "collection_times": "Mo-Fr 15:00; Sa 14:15", "indoor": "yes", "note": "ON 12/24 AND 12/31, THIS BOX MAY BE COLLECTED AS EARLY AS 12 NOON.", "nsi_id": "unitedstatespostalservice-a77078", "operator": "United States Postal Service", "operator:short": "USPS", "operator:type": "public", "operator:wikidata": "Q668687", "ref": "5005100003"}, "type": "Feature"}
{"geometry": {"coordinates": [-93.245467239, 41.677747035], "type": "Point"}, "id": "OdOufVSCOcuJRDW-HSIrEAOWf8Q=", "properties": {"@source_uri": "https://tools.usps.com/UspsToolsRestServices/rest/POLocator/findLocations", "@spider": "usps_collection_boxes", "addr:city": "COLFAX", "addr:country": "US", "addr:postcode": "50054", "addr:state": "IA", "addr:street_address": "101 N WALNUT ST", "amenity": "post_box", "collection_times": "Mo-Sa 14:00", "note": "ON 12/24 AND 12/31, THIS BOX MAY BE COLLECTED AS EARLY AS 12 NOON.", "nsi_id": "unitedstatespostalservice-a77078", "operator": "United States Postal Service", "operator:short": "USPS", "operator:type": "public", "operator:wikidata": "Q668687", "ref": "5005400002"}, "type": "Feature"}
{"geometry": {"coordinates": [-93.243536313, 41.678123111], "type": "Point"}, "id": "OFinxVp4-byXDivcqiitS2dl7EM=", "properties": {"@source_uri": "https://tools.usps.com/UspsToolsRestServices/rest/POLocator/findLocations", "@spider": "usps_collection_boxes", "addr:city": "COLFAX", "addr:country": "US", "addr:postcode": "50054", "addr:state": "IA", "addr:street_address": "110 E HOWARD ST", "amenity": "post_box", "collection_times": "Mo-Sa 17:00", "note": "ON 12/24 AND 12/31, THIS BOX MAY BE COLLECTED AS EARLY AS 12 NOON.", "nsi_id": "unitedstatespostalservice-a77078", "operator": "United States Postal Service", "operator:short": "USPS", "operator:type": "public", "operator:wikidata": "Q668687", "ref": "5005400004"}, "type": "Feature"}
{"geometry": {"coordinates": [-93.243536313, 41.678123111], "type": "Point"}, "id": "gQSNYAPUmIZHBVtQGEIyF2HXITY=", "properties": {"@source_uri": "https://tools.usps.com/UspsToolsRestServices/rest/POLocator/findLocations", "@spider": "usps_collection_boxes", "addr:city": "COLFAX", "addr:country": "US", "addr:postcode": "50054", "addr:state": "IA", "addr:street_address": "110 E HOWARD ST", "amenity": "post_box", "collection_times": "Mo-Fr 17:00; Sa 11:00", "indoor": "yes", "note": "ON 12/24 AND 12/31, THIS BOX MAY BE COLLECTED AS EARLY AS 12 NOON.", "nsi_id": "unitedstatespostalservice-a77078", "operator": "United States Postal Service", "operator:short": "USPS", "operator:type": "public", "operator:wikidata": "Q668687", "ref": "5005400005"}, "type": "Feature"}
{"geometry": {"coordinates": [-93.243536313, 41.678123111], "type": "Point"}, "id": "jypOP_AEj5mauuOOE52R7q1a24w=", "properties": {"@source_uri": "https://tools.usps.com/UspsToolsRestServices/rest/POLocator/findLocations", "@spider": "usps_collection_boxes", "addr:city": "COLFAX", "addr:country": "US", "addr:postcode": "50054", "addr:state": "IA", "addr:street_address": "110 E HOWARD ST", "amenity": "post_box", "collection_times": "Mo-Fr 17:00; Sa 11:00", "indoor": "yes", "note": "ON 12/24 AND 12/31, THIS BOX MAY BE COLLECTED AS EARLY AS 12 NOON.", "nsi_id": "unitedstatespostalservice-a77078", "operator": "United States Postal Service", "operator:short": "USPS", "operator:type": "public", "operator:wikidata": "Q668687", "ref": "5005400006"}, "type": "Feature"}
{"geometry": {"coordinates": [-93.306081746, 41.900877471], "type": "Point"}, "id": "lgNHkRCRdnIw8g8e0G47VtpknDc=", "properties": {"@source_uri": "https://tools.usps.com/UspsToolsRestServices/rest/POLocator/findLocations", "@spider": "usps_collection_boxes", "addr:city": "COLLINS", "addr:country": "US", "addr:postcode": "50055", "addr:state": "IA", "addr:street_address": "205 1ST ST", "amenity": "post_box", "collection_times": "Mo-Fr 11:15; Sa 09:15", "nsi_id": "unitedstatespostalservice-a77078", "operator": "United States Postal Service", "operator:short": "USPS", "operator:type": "public", "operator:wikidata": "Q668687", "ref": "5005500001"}, "type": "Feature"}
{"geometry": {"coordinates": [-93.306081746, 41.900877471], "type": "Point"}, "id": "n60w2dScxqYsrdPE65QDi2m550g=", "properties": {"@source_uri": "https://tools.usps.com/UspsToolsRestServices/rest/POLocator/findLocations", "@spider": "usps_collection_boxes", "addr:city": "COLLINS", "addr:country": "US", "addr:postcode": "50055", "addr:state": "IA", "addr:street_address": "205 1ST ST", "amenity": "post_box", "collection_times": "Mo-Fr 11:15", "indoor": "yes", "nsi_id": "unitedstatespostalservice-a77078", "operator": "United States Postal Service", "operator:short": "USPS", "operator:type": "public", "operator:wikidata": "Q668687", "ref": "5005500002"}, "type": "Feature"}
{"geometry": {"coordinates": [-93.306081746, 41.900877471], "type": "Point"}, "id": "Lw0vk-Xx7kNz3vnyGw74J2jGR3Q=", "properties": {"@source_uri": "https://tools.usps.com/UspsToolsRestServices/rest/POLocator/findLocations", "@spider": "usps_collection_boxes", "addr:city": "COLLINS", "addr:country": "US", "addr:postcode": "50055", "addr:state": "IA", "addr:street_address": "205 1ST ST", "amenity": "post_box", "collection_times": "Mo-Fr 11:30; Sa 09:30", "indoor": "yes", "nsi_id": "unitedstatespostalservice-a77078", "operator": "United States Postal Service", "operator:short": "USPS", "operator:type": "public", "operator:wikidata": "Q668687", "ref": "5005500003"}, "type": "Feature"}
{"geometry": {"coordinates": [-93.315293832, 42.018485481], "type": "Point"}, "id": "hOqhK4dFSOcSaK19OcMTT7W2org=", "properties": {"@source_uri": "https://tools.usps.com/UspsToolsRestServices/rest/POLocator/findLocations", "@spider": "usps_collection_boxes", "addr:city": "COLO", "addr:country": "US", "addr:postcode": "50056", "addr:state": "IA", "addr:street_address": "401 MAIN ST", "amenity": "post_box", "collection_times": "Mo-Fr 11:15; Sa 08:45", "nsi_id": "unitedstatespostalservice-a77078", "operator": "United States Postal Service", "operator:short": "USPS", "operator:type": "public", "operator:wikidata": "Q668687", "ref": "5005600001"}, "type": "Feature"}
{"geometry": {"coordinates": [-93.315293832, 42.018485481], "type": "Point"}, "id": "Gn_yfaF2E5ifB9ur5dWyRwROuEI=", "properties": {"@source_uri": "https://tools.usps.com/UspsToolsRestServices/rest/POLocator/findLocations", "@spider": "usps_collection_boxes", "addr:city": "COLO", "addr:country": "US", "addr:postcode": "50056", "addr:state": "IA", "addr:street_address": "401 MAIN ST", "amenity": "post_box", "collection_times": "Mo-Fr 11:15", "indoor": "yes", "nsi_id": "unitedstatespostalservice-a77078", "operator": "United States Postal Service", "operator:short": "USPS", "operator:type": "public", "operator:wikidata": "Q668687", "ref": "5005600002"}, "type": "Feature"}
{"geometry": {"coordinates": [-93.315293832, 42.018485481], "type": "Point"}, "id": "MxZmJu2Byy3xAQGy4TodSdOqL50=", "properties": {"@source_uri": "https://tools.usps.com/UspsToolsRestServices/rest/POLocator/findLocations", "@spider": "usps_collection_boxes", "addr:city": "COLO", "addr:country": "US", "addr:postcode": "50056", "addr:state": "IA", "addr:street_address": "401 MAIN ST", "amenity": "post_box", "collection_times": "Mo-Fr 11:30; Sa 09:00", "indoor": "yes", "nsi_id": "unitedstatespostalservice-a77078", "operator": "United States Postal Service", "operator:short": "USPS", "operator:type": "public", "operator:wikidata": "Q668687", "ref": "5005600003"}, "type": "Feature"}
{"geometry": {"coordinates": [-94.677960777, 41.870886526], "type": "Point"}, "id": "3NncvoOhkjv7Ubn1gyE2bmFK_sU=", "properties": {"@source_uri": "https://tools.usps.com/UspsToolsRestServices/rest/POLocator/findLocations", "@spider": "usps_collection_boxes", "addr:city": "COON RAPIDS", "addr:country": "US", "addr:postcode": "50058", "addr:state": "IA", "addr:street_address": "507 MAIN ST", "amenity": "post_box", "collection_times": "Mo-Fr 17:00; Sa 09:15", "note": "ON 12/24 AND 12/31, THIS BOX MAY BE COLLECTED AS EARLY AS 12 NOON.", "nsi_id": "unitedstatespostalservice-a77078", "operator": "United States Postal Service", "operator:short": "USPS", "operator:type": "public", "operator:wikidata": "Q668687", "ref": "5005800004"}, "type": "Feature"}
{"geometry": {"coordinates": [-94.677960777, 41.870886526], "type": "Point"}, "id": "xB3R3P0dpvqpxO0ZSpkEqFgW1Bs=", "properties": {"@source_uri": "https://tools.usps.com/UspsToolsRestServices/rest/POLocator/findLocations", "@spider": "usps_collection_boxes", "addr:city": "COON RAPIDS", "addr:country": "US", "addr:postcode": "50058", "addr:state": "IA", "addr:street_address": "507 MAIN ST", "amenity": "post_box", "collection_times": "Mo-Fr 16:00", "indoor": "yes", "note": "ON 12/24 AND 12/31, THIS BOX MAY BE COLLECTED AS EARLY AS 12 NOON.", "nsi_id": "unitedstatespostalservice-a77078", "operator": "United States Postal Service", "operator:short": "USPS", "operator:type": "public", "operator:wikidata": "Q668687", "ref": "5005800007"}, "type": "Feature"}
{"geometry": {"coordinates": [-94.677960777, 41.870886526], "type": "Point"}, "id": "GzsdcFOdAytxKSs2TN1OrdTBWrE=", "properties": {"@source_uri": "https://tools.usps.com/UspsToolsRestServices/rest/POLocator/findLocations", "@spider": "usps_collection_boxes", "addr:city": "COON RAPIDS", "addr:country": "US", "addr:postcode": "50058", "addr:state": "IA", "addr:street_address": "507 MAIN ST", "amenity": "post_box", "collection_times": "Mo-Fr 16:00; Sa 08:00", "indoor": "yes", "note": "ON 12/24 AND 12/31, THIS BOX MAY BE COLLECTED AS EARLY AS 12 NOON.", "nsi_id": "unitedstatespostalservice-a77078", "operator": "United States Postal Service", "operator:short": "USPS", "operator:type": "public", "operator:wikidata": "Q668687", "ref": "5005800008"}, "type": "Feature"}
{"geometry": {"coordinates": [-93.319166924, 40.757860829], "type": "Point"}, "id": "TCfvgiP3mPYl3V571Pnb5XSDW1o=", "properties": {"@source_uri": "https://tools.usps.com/UspsToolsRestServices/rest/POLocator/findLocations", "@spider": "usps_collection_boxes", "addr:city": "CORYDON", "addr:country": "US", "addr:postcode": "50060", "addr:state": "IA", "addr:street_address": "215 W STATE ST", "amenity": "post_box", "collection_times": "Mo-Fr 17:00; Sa 08:15", "note": "ON 12/24 AND 12/31, THIS BOX MAY BE COLLECTED AS EARLY AS 12 NOON.", "nsi_id": "unitedstatespostalservice-a77078", "operator": "United States Postal Service", "operator:short": "USPS", "operator:type": "public", "operator:wikidata": "Q668687", "ref": "5006000010"}, "type": "Feature"}
{"geometry": {"coordinates": [-93.319166924, 40.757860829], "type": "Point"}, "id": "-1UwPHyzv0i_rs08i5ZtvkUN3H8=", "properties": {"@source_uri": "https://tools.usps.com/UspsToolsRestServices/rest/POLocator/findLocations", "@spider": "usps_collection_boxes", "addr:city": "CORYDON", "addr:country": "US", "addr:postcode": "50060", "addr:state": "IA", "addr:street_address": "215 W STATE ST", "amenity": "post_box", "collection_times": "Mo-Fr 16:30", "indoor": "yes", "note": "ON 12/24 AND 12/31, THIS BOX MAY BE COLLECTED AS EARLY AS 12 NOON.", "nsi_id": "unitedstatespostalservice-a77078", "operator": "United States Postal Service", "operator:short": "USPS", "operator:type": "public", "operator:wikidata": "Q668687", "ref": "5006000012"}, "type": "Feature"}
{"geometry": {"coordinates": [-93.319166924, 40.757860829], "type": "Point"}, "id": "lHf-KaWXv5acRm-4NSIqjH2v8nk=", "properties": {"@source_uri": "https://tools.usps.com/UspsToolsRestServices/rest/POLocator/findLocations", "@spider": "usps_collection_boxes", "addr:city": "CORYDON", "addr:country": "US", "addr:postcode": "50060", "addr:state": "IA", "addr:street_address": "215 W STATE ST", "amenity": "post_box", "collection_times": "Mo-Fr 16:30", "indoor": "yes", "note": "ON 12/24 AND 12/31, THIS BOX MAY BE COLLECTED AS EARLY AS 12 NOON.", "nsi_id": "unitedstatespostalservice-a77078", "operator": "United States Postal Service", "operator:short": "USPS", "operator:type": "public", "operator:wikidata": "Q668687", "ref": "5006000013"}, "type": "Feature"}
{"geometry": {"coordinates": [-93.7626585091, 41.4834346513], "type": "Point"}, "id": "SLtn3bzm0KX-NuLSPZvoKOyW3Hg=", "properties": {"@source_uri": "https://tools.usps.com/UspsToolsRestServices/rest/POLocator/findLocations", "@spider": "usps_collection_boxes", "addr:city": "CUMMING", "addr:country": "US", "addr:postcode": "50061", "addr:state": "IA", "addr:street_address": "121 N 44TH ST", "amenity": "post_box", "collection_times": "Mo-Fr 11:45; Sa 09:15", "nsi_id": "unitedstatespostalservice-a77078", "operator": "United States Postal Service", "operator:short": "USPS", "operator:type": "public", "operator:wikidata": "Q668687", "ref": "5006100001"}, "type": "Feature"}
{"geometry": {"coordinates": [-93.762663079, 41.483434688], "type": "Point"}, "id": "U94E0IHY71QXpn6yPmE2BVknx8c=", "properties": {"@source_uri": "https://tools.usps.com/UspsToolsRestServices/rest/POLocator/findLocations", "@spider": "usps_collection_boxes", "addr:city": "CUMMING", "addr:country": "US", "addr:postcode": "50061", "addr:state": "IA", "addr:street_address": "121 N 44TH ST", "amenity": "post_box", "collection_times": "Mo-Fr 11:45; Sa 09:15", "indoor": "yes", "nsi_id": "unitedstatespostalservice-a77078", "operator": "United States Postal Service", "operator:short": "USPS", "operator:type": "public", "operator:wikidata": "Q668687", "ref": "5006100002"}, "type": "Feature"}
{"geometry": {"coordinates": [-93.762663079, 41.483434688], "type": "Point"}, "id": "ETUTZde01STl3nuCR7bUWeOKrYE=", "properties": {"@source_uri": "https://tools.usps.com/UspsToolsRestServices/rest/POLocator/findLocations", "@spider": "usps_collection_boxes", "addr:city": "CUMMING", "addr:country": "US", "addr:postcode": "50061", "addr:state": "IA", "addr:street_address": "121 N 44TH ST", "amenity": "post_box", "collection_times": "Mo-Fr 12:00; Sa 09:30", "indoor": "yes", "nsi_id": "unitedstatespostalservice-a77078", "operator": "United States Postal Service", "operator:short": "USPS", "operator:type": "public", "operator:wikidata": "Q668687", "ref": "5006100003"}, "type": "Feature"}
{"geometry": {"coordinates": [-93.961134151, 41.684241795], "type": "Point"}, "id": "GMvA-WRQlas8o_ZJACywjdI9-yw=", "properties": {"@source_uri": "https://tools.usps.com/UspsToolsRestServices/rest/POLocator/findLocations", "@spider": "usps_collection_boxes", "addr:city": "DALLAS CENTER", "addr:country": "US", "addr:postcode": "50063", "addr:state": "IA", "addr:street_address": "506 14TH ST", "amenity": "post_box", "collection_times": "Mo-Fr 16:15; Sa 17:00", "note": "ON 12/24 AND 12/31, THIS BOX MAY BE COLLECTED AS EARLY AS 12 NOON.", "nsi_id": "unitedstatespostalservice-a77078", "operator": "United States Postal Service", "operator:short": "USPS", "operator:type": "public", "operator:wikidata": "Q668687", "ref": "5006300003"}, "type": "Feature"}
{"geometry": {"coordinates": [-93.961134151, 41.684241795], "type": "Point"}, "id": "F32aVDdXBCM-Bj7OBm30U1Sg25Y=", "properties": {"@source_uri": "https://tools.usps.com/UspsToolsRestServices/rest/POLocator/findLocations", "@spider": "usps_collection_boxes", "addr:city": "DALLAS CENTER", "addr:country": "US", "addr:postcode": "50063", "addr:state": "IA", "addr:street_address": "506 14TH ST", "amenity": "post_box", "collection_times": "Mo-Fr 16:30; Sa 11:00", "indoor": "yes", "note": "ON 12/24 AND 12/31, THIS BOX MAY BE COLLECTED AS EARLY AS 12 NOON.", "nsi_id": "unitedstatespostalservice-a77078", "operator": "United States Postal Service", "operator:short": "USPS", "operator:type": "public", "operator:wikidata": "Q668687", "ref": "5006300004"}, "type": "Feature"}
{"geometry": {"coordinates": [-93.961134151, 41.684241795], "type": "Point"}, "id": "FnK_SGAYhNx5b39O08ZDZ2Koi9s=", "properties": {"@source_uri": "https://tools.usps.com/UspsToolsRestServices/rest/POLocator/findLocations", "@spider": "usps_collection_boxes", "addr:city": "DALLAS CENTER", "addr:country": "US", "addr:postcode": "50063", "addr:state": "IA", "addr:street_address": "506 14TH ST", "amenity": "post_box", "collection_times": "Mo-Fr 16:30; Sa 11:00", "indoor": "yes", "note": "ON 12/24 AND 12/31, THIS BOX MAY BE COLLECTED AS EARLY AS 12 NOON.", "nsi_id": "unitedstatespostalservice-a77078", "operator": "United States Postal Service", "operator:short": "USPS", "operator:type": "public", "operator:wikidata": "Q668687", "ref": "5006300005"}, "type": "Feature"}
{"geometry": {"coordinates": [-94.239638428, 42.10686746], "type": "Point"}, "id": "ogtzm78Rf-SxUKqwgIUNQRKSocA=", "properties": {"@source_uri": "https://tools.usps.com/UspsToolsRestServices/rest/POLocator/findLocations", "@spider": "usps_collection_boxes", "addr:city": "DANA", "addr:country": "US", "addr:postcode": "50064", "addr:state": "IA", "addr:street_address": "104 GILMORE ST", "amenity": "post_box", "collection_times": "Mo-Sa 11:45", "nsi_id": "unitedstatespostalservice-a77078", "operator": "United States Postal Service", "operator:short": "USPS", "operator:type": "public", "operator:wikidata": "Q668687", "ref": "5006400001"}, "type": "Feature"}
{"geometry": {"coordinates": [-93.814355805, 40.634489805], "type": "Point"}, "id": "ck0HaMDLGupKsEXtXIX2zwApqgw=", "properties": {"@source_uri": "https://tools.usps.com/UspsToolsRestServices/rest/POLocator/findLocations", "@spider": "usps_collection_boxes", "addr:city": "DAVIS CITY", "addr:country": "US", "addr:postcode": "50065", "addr:state": "IA", "addr:street_address": "613 S MUIR ST", "amenity": "post_box", "collection_times": "Mo-Fr 16:15; Sa 14:00", "note": "ON 12/24 AND 12/31, THIS BOX MAY BE COLLECTED AS EARLY AS 12 NOON.", "nsi_id": "unitedstatespostalservice-a77078", "operator": "United States Postal Service", "operator:short": "USPS", "operator:type": "public", "operator:wikidata": "Q668687", "ref": "5006500001"}, "type": "Feature"}
{"geometry": {"coordinates": [-93.814355805, 40.634489805], "type": "Point"}, "id": "TJ_moPKtfnN1dF5x3sFz44oRHm8=", "properties": {"@source_uri": "https://tools.usps.com/UspsToolsRestServices/rest/POLocator/findLocations", "@spider": "usps_collection_boxes", "addr:city": "DAVIS CITY", "addr:country": "US", "addr:postcode": "50065", "addr:state": "IA", "addr:street_address": "613 S MUIR ST", "amenity": "post_box", "collection_times": "Mo-Fr 16:15; Sa 14:00", "indoor": "yes", "note": "ON 12/24 AND 12/31, THIS BOX MAY BE COLLECTED AS EARLY AS 12 NOON.", "nsi_id": "unitedstatespostalservice-a77078", "operator": "United States Postal Service", "operator:short": "USPS", "operator:type": "public", "operator:wikidata": "Q668687", "ref": "5006500002"}, "type": "Feature"}
{"geometry": {"coordinates": [-93.814355805, 40.634489805], "type": "Point"}, "id": "a9Oz26w1H-XSDRRdGkGSqcQ1XRU=", "properties": {"@source_uri": "https://tools.usps.com/UspsToolsRestServices/rest/POLocator/findLocations", "@spider": "usps_collection_boxes", "addr:city": "DAVIS CITY", "addr:country": "US", "addr:postcode": "50065", "addr:state": "IA", "addr:street_address": "613 S MUIR ST", "amenity": "post_box", "collection_times": "Mo-Fr 16:30; Sa 14:15", "indoor": "yes", "note": "ON 12/24 AND 12/31, THIS BOX MAY BE COLLECTED AS EARLY AS 12 NOON.", "nsi_id": "unitedstatespostalservice-a77078", "operator": "United States Postal Service", "operator:short": "USPS", "operator:type": "public", "operator:wikidata": "Q668687", "ref": "5006500003"}, "type": "Feature"}
{"geometry": {"coordinates": [-94.222042972, 41.84392971], "type": "Point"}, "id": "z3B7n3LeNA6CixNWQ2tEz0B2rx0=", "properties": {"@source_uri": "https://tools.usps.com/UspsToolsRestServices/rest/POLocator/findLocations", "@spider": "usps_collection_boxes", "addr:city": "DAWSON", "addr:country": "US", "addr:postcode": "50066", "addr:state": "IA", "addr:street_address": "302 E WALNUT AVE", "amenity": "post_box", "collection_times": "Mo-Fr 10:45; Sa 10:30", "nsi_id": "unitedstatespostalservice-a77078", "operator": "United States Postal Service", "operator:short": "USPS", "operator:type": "public", "operator:wikidata": "Q668687", "ref": "5006600001"}, "type": "Feature"}
{"geometry": {"coordinates": [-94.222042972, 41.84392971], "type": "Point"}, "id": "7uExUxa8pYSuZAWK0_bQWHVHC2A=", "properties": {"@source_uri": "https://tools.usps.com/UspsToolsRestServices/rest/POLocator/findLocations", "@spider": "usps_collection_boxes", "addr:city": "DAWSON", "addr:country": "US", "addr:postcode": "50066", "addr:state": "IA", "addr:street_address": "302 E WALNUT AVE", "amenity": "post_box", "collection_times": "Mo-Fr 10:45", "indoor": "yes", "nsi_id": "unitedstatespostalservice-a77078", "operator": "United States Postal Service", "operator:short": "USPS", "operator:type": "public", "operator:wikidata": "Q668687", "ref": "5006600002"}, "type": "Feature"}
{"geometry": {"coordinates": [-94.222042972, 41.84392971], "type": "Point"}, "id": "j63BlG8Cqf4gcBlN6JE1kXZsB_g=", "properties": {"@source_uri": "https://tools.usps.com/UspsToolsRestServices/rest/POLocator/findLocations", "@spider": "usps_collection_boxes", "addr:city": "DAWSON", "addr:country": "US", "addr:postcode": "50066", "addr:state": "IA", "addr:street_address": "302 E WALNUT AVE", "amenity": "post_box", "collection_times": "Mo-Fr 11:00; Sa 10:45", "indoor": "yes", "nsi_id": "unitedstatespostalservice-a77078", "operator": "United States Postal Service", "operator:short": "USPS", "operator:type": "public", "operator:wikidata": "Q668687", "ref": "5006600003"}, "type": "Feature"}
{"geometry": {"coordinates": [-93.8342025, 40.741826511], "type": "Point"}, "id": "Ohqg7vLYP5_iAosZuCM-_SbW-W4=", "properties": {"@source_uri": "https://tools.usps.com/UspsToolsRestServices/rest/POLocator/findLocations", "@spider": "usps_collection_boxes", "addr:city": "DECATUR", "addr:country": "US", "addr:postcode": "50067", "addr:state": "IA", "addr:street_address": "408 W NATIONAL ST", "amenity": "post_box", "collection_times": "Mo-Fr 11:45; Sa 09:45", "nsi_id": "unitedstatespostalservice-a77078", "operator": "United States Postal Service", "operator:short": "USPS", "operator:type": "public", "operator:wikidata": "Q668687", "ref": "5006700001"}, "type": "Feature"}
{"geometry": {"coordinates": [-93.8342025, 40.741826511], "type": "Point"}, "id": "JJLFmZJVpEEaTzmFcoPZLRKbxcg=", "properties": {"@source_uri": "https://tools.usps.com/UspsToolsRestServices/rest/POLocator/findLocations", "@spider": "usps_collection_boxes", "addr:city": "DECATUR", "addr:country": "US", "addr:postcode": "50067", "addr:state": "IA", "addr:street_address": "408 W NATIONAL ST", "amenity": "post_box", "collection_times": "Mo-Fr 11:45; Sa 09:45", "indoor": "yes", "nsi_id": "unitedstatespostalservice-a77078", "operator": "United States Postal Service", "operator:short": "USPS", "operator:type": "public", "operator:wikidata": "Q668687", "ref": "5006700002"}, "type": "Feature"}
{"geometry": {"coordinates": [-93.8342025, 40.741826511], "type": "Point"}, "id": "yDfJUMRq0puvAqgJA7XLjVitgpE=", "properties": {"@source_uri": "https://tools.usps.com/UspsToolsRestServices/rest/POLocator/findLocations", "@spider": "usps_collection_boxes", "addr:city": "DECATUR", "addr:country": "US", "addr:postcode": "50067", "addr:state": "IA", "addr:street_address": "408 W NATIONAL ST", "amenity": "post_box", "collection_times": "Mo-Fr 12:00; Sa 10:00", "indoor": "yes", "nsi_id": "unitedstatespostalservice-a77078", "operator": "United States Postal Service", "operator:short": "USPS", "operator:type": "public", "operator:wikidata": "Q668687", "ref": "5006700003"}, "type": "Feature"}
{"geometry": {"coordinates": [-93.457644626, 40.93157417], "type": "Point"}, "id": "vcQtmUg1lPqUgidyUS4JGCEUXL4=", "properties": {"@source_uri": "https://tools.usps.com/UspsToolsRestServices/rest/POLocator/findLocations", "@spider": "usps_collection_boxes", "addr:city": "DERBY", "addr:country": "US", "addr:postcode": "50068", "addr:state": "IA", "addr:street_address": "481 FRONT ST", "amenity": "post_box", "collection_times": "Mo-Fr 11:45; Sa 09:15", "nsi_id": "unitedstatespostalservice-a77078", "operator": "United States Postal Service", "operator:short": "USPS", "operator:type": "public", "operator:wikidata": "Q668687", "ref": "5006800001"}, "type": "Feature"}
{"geometry": {"coordinates": [-93.457644626, 40.93157417], "type": "Point"}, "id": "-GwJ9LhgeCW5qqJWKhc-7_ZDSzk=", "properties": {"@source_uri": "https://tools.usps.com/UspsToolsRestServices/rest/POLocator/findLocations", "@spider": "usps_collection_boxes", "addr:city": "DERBY", "addr:country": "US", "addr:postcode": "50068", "addr:state": "IA", "addr:street_address": "481 FRONT ST", "amenity": "post_box", "collection_times": "Mo-Fr 11:45; Sa 09:15", "indoor": "yes", "nsi_id": "unitedstatespostalservice-a77078", "operator": "United States Postal Service", "operator:short": "USPS", "operator:type": "public", "operator:wikidata": "Q668687", "ref": "5006800002"}, "type": "Feature"}
{"geometry": {"coordinates": [-93.457644626, 40.93157417], "type": "Point"}, "id": "OE0rwjtkkbuNNUFZvM4f_KXwULw=", "properties": {"@source_uri": "https://tools.usps.com/UspsToolsRestServices/rest/POLocator/findLocations", "@spider": "usps_collection_boxes", "addr:city": "DERBY", "addr:country": "US", "addr:postcode": "50068", "addr:state": "IA", "addr:street_address": "481 FRONT ST", "amenity": "post_box", "collection_times": "Mo-Fr 11:45; Sa 09:15", "indoor": "yes", "nsi_id": "unitedstatespostalservice-a77078", "operator": "United States Postal Service", "operator:short": "USPS", "operator:type": "public", "operator:wikidata": "Q668687", "ref": "5006800003"}, "type": "Feature"}
{"geometry": {"coordinates": [-94.012596764, 41.534136], "type": "Point"}, "id": "FxcL7gssUkhQa1RcpAu57iApeVo=", "properties": {"@source_uri": "https://tools.usps.com/UspsToolsRestServices/rest/POLocator/findLocations", "@spider": "usps_collection_boxes", "addr:city": "DE SOTO", "addr:country": "US", "addr:postcode": "50069", "addr:state": "IA", "addr:street_address": "859 GUTHRIE ST", "amenity": "post_box", "collection_times": "Mo-Fr 15:45; Sa 11:45", "note": "ON 12/24 AND 12/31, THIS BOX MAY BE COLLECTED AS EARLY AS 12 NOON.", "nsi_id": "unitedstatespostalservice-a77078", "operator": "United States Postal Service", "operator:short": "USPS", "operator:type": "public", "operator:wikidata": "Q668687", "ref": "5006900001"}, "type": "Feature"}
{"geometry": {"coordinates": [-94.012596764, 41.534136], "type": "Point"}, "id": "VTgS78HxeXvVwPs_eBleOGNajE4=", "properties": {"@source_uri": "https://tools.usps.com/UspsToolsRestServices/rest/POLocator/findLocations", "@spider": "usps_collection_boxes", "addr:city": "DE SOTO", "addr:country": "US", "addr:postcode": "50069", "addr:state": "IA", "addr:street_address": "859 GUTHRIE ST", "amenity": "post_box", "collection_times": "Mo-Fr 15:45; Sa 11:45", "indoor": "yes", "note": "ON 12/24 AND 12/31, THIS BOX MAY BE COLLECTED AS EARLY AS 12 NOON.", "nsi_id": "unitedstatespostalservice-a77078", "operator": "United States Postal Service", "operator:short": "USPS", "operator:type": "public", "operator:wikidata": "Q668687", "ref": "5006900002"}, "type": "Feature"}
{"geometry": {"coordinates": [-94.012596764, 41.534136], "type": "Point"}, "id": "mDbIBj_900yUi3MNB8IZO0WdH4o=", "properties": {"@source_uri": "https://tools.usps.com/UspsToolsRestServices/rest/POLocator/findLocations", "@spider": "usps_collection_boxes", "addr:city": "DE SOTO", "addr:country": "US", "addr:postcode": "50069", "addr:state": "IA", "addr:street_address": "859 GUTHRIE ST", "amenity": "post_box", "collection_times": "Mo-Fr 16:00; Sa 12:00", "indoor": "yes", "note": "ON 12/24 AND 12/31, THIS BOX MAY BE COLLECTED AS EARLY AS 12 NOON.", "nsi_id": "unitedstatespostalservice-a77078", "operator": "United States Postal Service", "operator:short": "USPS", "operator:type": "public", "operator:wikidata": "Q668687", "ref": "5006900003"}, "type": "Feature"}
{"geometry": {"coordinates": [-94.228180159, 41.516082335], "type": "Point"}, "id": "ApukAlY4xXQdJlg5eccUk1eaiDU=", "properties": {"@source_uri": "https://tools.usps.com/UspsToolsRestServices/rest/POLocator/findLocations", "@spider": "usps_collection_boxes", "addr:city": "DEXTER", "addr:country": "US", "addr:postcode": "50070", "addr:state": "IA", "addr:street_address": "702 MARSHALL ST", "amenity": "post_box", "collection_times": "Mo-Fr 11:45; Sa 09:45", "nsi_id": "unitedstatespostalservice-a77078", "operator": "United States Postal Service", "operator:short": "USPS", "operator:type": "public", "operator:wikidata": "Q668687", "ref": "5007000001"}, "type": "Feature"}
{"geometry": {"coordinates": [-94.228180159, 41.516082335], "type": "Point"}, "id": "RoEKCWg8sOOYDwibg95XWXbFtv4=", "properties": {"@source_uri": "https://tools.usps.com/UspsToolsRestServices/rest/POLocator/findLocations", "@spider": "usps_collection_boxes", "addr:city": "DEXTER", "addr:country": "US", "addr:postcode": "50070", "addr:state": "IA", "addr:street_address": "702 MARSHALL ST", "amenity": "post_box", "collection_times": "Mo-Fr 11:45; Sa 09:45", "indoor": "yes", "nsi_id": "unitedstatespostalservice-a77078", "operator": "United States Postal Service", "operator:short": "USPS", "operator:type": "public", "operator:wikidata": "Q668687", "ref": "5007000002"}, "type": "Feature"}
{"geometry": {"coordinates": [-94.228180159, 41.516082335], "type": "Point"}, "id": "wK-C_kQEix6-mwNBQiUZUns3MZ0=", "properties": {"@source_uri": "https://tools.usps.com/UspsToolsRestServices/rest/POLocator/findLocations", "@spider": "usps_collection_boxes", "addr:city": "DEXTER", "addr:country": "US", "addr:postcode": "50070", "addr:state": "IA", "addr:street_address": "702 MARSHALL ST", "amenity": "post_box", "collection_times": "Mo-Fr 12:00; Sa 10:00", "indoor": "yes", "nsi_id": "unitedstatespostalservice-a77078", "operator": "United States Postal Service", "operator:short": "USPS", "operator:type": "public", "operator:wikidata": "Q668687", "ref": "5007000003"}, "type": "Feature"}
{"geometry": {"coordinates": [-93.501280003, 42.656269983], "type": "Point"}, "id": "oTziKElQ84ouM-ERdfcfDGe1-sM=", "properties": {"@source_uri": "https://tools.usps.com/UspsToolsRestServices/rest/POLocator/findLocations", "@spider": "usps_collection_boxes", "addr:city": "DOWS", "addr:country": "US", "addr:postcode": "50071", "addr:state": "IA", "addr:street_address": "101 W ELLSWORTH ST", "amenity": "post_box", "collection_times": "Mo-Fr 15:30; Sa 10:15", "note": "ON 12/24 AND 12/31, THIS BOX MAY BE COLLECTED AS EARLY AS 12 NOON.", "nsi_id": "unitedstatespostalservice-a77078", "operator": "United States Postal Service", "operator:short": "USPS", "operator:type": "public", "operator:wikidata": "Q668687", "ref": "5007100002"}, "type": "Feature"}
{"geometry": {"coordinates": [-93.501621, 42.656506514], "type": "Point"}, "id": "YuwvvOzLAV8Pl9HrrmWEFPGnjFA=", "properties": {"@source_uri": "https://tools.usps.com/UspsToolsRestServices/rest/POLocator/findLocations", "@spider": "usps_collection_boxes", "addr:city": "DOWS", "addr:country": "US", "addr:postcode": "50071", "addr:state": "IA", "addr:street_address": "105 W ELLSWORTH ST", "amenity": "post_box", "collection_times": "Mo-Fr 15:30", "indoor": "yes", "note": "ON 12/24 AND 12/31, THIS BOX MAY BE COLLECTED AS EARLY AS 12 NOON.", "nsi_id": "unitedstatespostalservice-a77078", "operator": "United States Postal Service", "operator:short": "USPS", "operator:type": "public", "operator:wikidata": "Q668687", "ref": "5007100003"}, "type": "Feature"}
{"geometry": {"coordinates": [-93.501621, 42.656506514], "type": "Point"}, "id": "40Zv_Ju1EJk74Z8x1Qb4E0hg4uQ=", "properties": {"@source_uri": "https://tools.usps.com/UspsToolsRestServices/rest/POLocator/findLocations", "@spider": "usps_collection_boxes", "addr:city": "DOWS", "addr:country": "US", "addr:postcode": "50071", "addr:state": "IA", "addr:street_address": "105 W ELLSWORTH ST", "amenity": "post_box", "collection_times": "Mo-Fr 15:45; Sa 10:30", "indoor": "yes", "note": "ON 12/24 AND 12/31, THIS BOX MAY BE COLLECTED AS EARLY AS 12 NOON.", "nsi_id": "unitedstatespostalservice-a77078", "operator": "United States Postal Service", "operator:short": "USPS", "operator:type": "public", "operator:wikidata": "Q668687", "ref": "5007100004"}, "type": "Feature"}
{"geometry": {"coordinates": [-94.12257342, 41.491634331], "type": "Point"}, "id": "wY6b00lU2f-iI_jwkp-scTCKMR4=", "properties": {"@source_uri": "https://tools.usps.com/UspsToolsRestServices/rest/POLocator/findLocations", "@spider": "usps_collection_boxes", "addr:city": "EARLHAM", "addr:country": "US", "addr:postcode": "50072", "addr:state": "IA", "addr:street_address": "125 E 1ST ST", "amenity": "post_box", "collection_times": "Mo-Fr 16:00; Sa 10:45", "note": "ON 12/24 AND 12/31, THIS BOX MAY BE COLLECTED AS EARLY AS 12 NOON.", "nsi_id": "unitedstatespostalservice-a77078", "operator": "United States Postal Service", "operator:short": "USPS", "operator:type": "public", "operator:wikidata": "Q668687", "ref": "5007200001"}, "type": "Feature"}
{"geometry": {"coordinates": [-94.12257342, 41.491634331], "type": "Point"}, "id": "50NoqIXtoKUTctfgRyMtB0PqUYc=", "properties": {"@source_uri": "https://tools.usps.com/UspsToolsRestServices/rest/POLocator/findLocations", "@spider": "usps_collection_boxes", "addr:city": "EARLHAM", "addr:country": "US", "addr:postcode": "50072", "addr:state": "IA", "addr:street_address": "125 E 1ST ST", "amenity": "post_box", "collection_times": "Mo-Fr 16:30; Sa 10:45", "indoor": "yes", "note": "ON 12/24 AND 12/31, THIS BOX MAY BE COLLECTED AS EARLY AS 12 NOON.", "nsi_id": "unitedstatespostalservice-a77078", "operator": "United States Postal Service", "operator:short": "USPS", "operator:type": "public", "operator:wikidata": "Q668687", "ref": "5007200002"}, "type": "Feature"}
{"geometry": {"coordinates": [-94.12257342, 41.491634331], "type": "Point"}, "id": "pQKBndcirbDKH-oFra95eV5wGY0=", "properties": {"@source_uri": "https://tools.usps.com/UspsToolsRestServices/rest/POLocator/findLocations", "@spider": "usps_collection_boxes", "addr:city": "EARLHAM", "addr:country": "US", "addr:postcode": "50072", "addr:state": "IA", "addr:street_address": "125 E 1ST ST", "amenity": "post_box", "collection_times": "Mo-Fr 16:15; Sa 10:30", "indoor": "yes", "note": "ON 12/24 AND 12/31, THIS BOX MAY BE COLLECTED AS EARLY AS 12 NOON.", "nsi_id": "unitedstatespostalservice-a77078", "operator": "United States Postal Service", "operator:short": "USPS", "operator:type": "public", "operator:wikidata": "Q668687", "ref": "5007200003"}, "type": "Feature"}
{"geometry": {"coordinates": [-93.52404, 41.793356496], "type": "Point"}, "id": "RRN55g-GtTM5QriNbNcXOu8as9w=", "properties": {"@source_uri": "https://tools.usps.com/UspsToolsRestServices/rest/POLocator/findLocations", "@spider": "usps_collection_boxes", "addr:city": "ELKHART", "addr:country": "US", "addr:postcode": "50073", "addr:state": "IA", "addr:street_address": "263 NW MAIN ST", "amenity": "post_box", "collection_times": "Mo-Fr 13:00; Sa 09:45", "note": "ON 12/24 AND 12/31, THIS BOX MAY BE COLLECTED AS EARLY AS 12 NOON.", "nsi_id": "unitedstatespostalservice-a77078", "operator": "United States Postal Service", "operator:short": "USPS", "operator:type": "public", "operator:wikidata": "Q668687", "ref": "5007300001"}, "type": "Feature"}
{"geometry": {"coordinates": [-93.52404, 41.793356496], "type": "Point"}, "id": "Rc7YvxXPNARNGKvIT63qdy5eVzA=", "properties": {"@source_uri": "https://tools.usps.com/UspsToolsRestServices/rest/POLocator/findLocations", "@spider": "usps_collection_boxes", "addr:city": "ELKHART", "addr:country": "US", "addr:postcode": "50073", "addr:state": "IA", "addr:street_address": "263 NW MAIN ST", "amenity": "post_box", "collection_times": "Mo-Fr 13:00", "indoor": "yes", "note": "ON 12/24 AND 12/31, THIS BOX MAY BE COLLECTED AS EARLY AS 12 NOON.", "nsi_id": "unitedstatespostalservice-a77078", "operator": "United States Postal Service", "operator:short": "USPS", "operator:type": "public", "operator:wikidata": "Q668687", "ref": "5007300002"}, "type": "Feature"}
{"geometry": {"coordinates": [-93.52404, 41.793356496], "type": "Point"}, "id": "U_9hAhjUP4izijzDDbEnGlnHTP4=", "properties": {"@source_uri": "https://tools.usps.com/UspsToolsRestServices/rest/POLocator/findLocations", "@spider": "usps_collection_boxes", "addr:city": "ELKHART", "addr:country": "US", "addr:postcode": "50073", "addr:state": "IA", "addr:street_address": "263 NW MAIN ST", "amenity": "post_box", "collection_times": "Mo-Fr 13:15; Sa 10:00", "indoor": "yes", "note": "ON 12/24 AND 12/31, THIS BOX MAY BE COLLECTED AS EARLY AS 12 NOON.", "nsi_id": "unitedstatespostalservice-a77078", "operator": "United States Postal Service", "operator:short": "USPS", "operator:type": "public", "operator:wikidata": "Q668687", "ref": "5007300003"}, "type": "Feature"}
{"geometry": {"coordinates": [-94.05027787, 40.808544889], "type": "Point"}, "id": "9UkySb0iRnk3v2v-AqpKzmATqCI=", "properties": {"@source_uri": "https://tools.usps.com/UspsToolsRestServices/rest/POLocator/findLocations", "@spider": "usps_collection_boxes", "addr:city": "ELLSTON", "addr:country": "US", "addr:postcode": "50074", "addr:state": "IA", "addr:street_address": "105 E MAIN ST", "amenity": "post_box", "collection_times": "Mo-Fr 11:45; Sa 09:45", "nsi_id": "unitedstatespostalservice-a77078", "operator": "United States Postal Service", "operator:short": "USPS", "operator:type": "public", "operator:wikidata": "Q668687", "ref": "5007400001"}, "type": "Feature"}
{"geometry": {"coordinates": [-94.05027787, 40.808544889], "type": "Point"}, "id": "U51cNCFrZiqDI8csXCPM9Tcqcco=", "properties": {"@source_uri": "https://tools.usps.com/UspsToolsRestServices/rest/POLocator/findLocations", "@spider": "usps_collection_boxes", "addr:city": "ELLSTON", "addr:country": "US", "addr:postcode": "50074", "addr:state": "IA", "addr:street_address": "105 E MAIN ST", "amenity": "post_box", "collection_times": "Mo-Fr 11:45; Sa 09:45", "indoor": "yes", "nsi_id": "unitedstatespostalservice-a77078", "operator": "United States Postal Service", "operator:short": "USPS", "operator:type": "public", "operator:wikidata": "Q668687", "ref": "5007400002"}, "type": "Feature"}
{"geometry": {"coordinates": [-94.05027787, 40.808544889], "type": "Point"}, "id": "Xat2yPAZKcdTmofcBGt6Ix6vOFA=", "properties": {"@source_uri": "https://tools.usps.com/UspsToolsRestServices/rest/POLocator/findLocations", "@spider": "usps_collection_boxes", "addr:city": "ELLSTON", "addr:country": "US", "addr:postcode": "50074", "addr:state": "IA", "addr:street_address": "105 E MAIN ST", "amenity": "post_box", "collection_times": "Mo-Fr 12:00; Sa 10:00", "indoor": "yes", "nsi_id": "unitedstatespostalservice-a77078", "operator": "United States Postal Service", "operator:short": "USPS", "operator:type": "public", "operator:wikidata": "Q668687", "ref": "5007400003"}, "type": "Feature"}
{"geometry": {"coordinates": [-93.578811147, 42.312131749], "type": "Point"}, "id": "wlI3Ltlai-i3EKrXOyQ_jRQFgHQ=", "properties": {"@source_uri": "https://tools.usps.com/UspsToolsRestServices/rest/POLocator/findLocations", "@spider": "usps_collection_boxes", "addr:city": "ELLSWORTH", "addr:country": "US", "addr:postcode": "50075", "addr:state": "IA", "addr:street_address": "1545 DEWITT ST", "amenity": "post_box", "collection_times": "Mo-Fr 11:45; Sa 09:45", "nsi_id": "unitedstatespostalservice-a77078", "operator": "United States Postal Service", "operator:short": "USPS", "operator:type": "public", "operator:wikidata": "Q668687", "ref": "5007500001"}, "type": "Feature"}
{"geometry": {"coordinates": [-93.578811147, 42.312131749], "type": "Point"}, "id": "j9hLOt3IAy70XMAxkVZmYBtIo2E=", "properties": {"@source_uri": "https://tools.usps.com/UspsToolsRestServices/rest/POLocator/findLocations", "@spider": "usps_collection_boxes", "addr:city": "ELLSWORTH", "addr:country": "US", "addr:postcode": "50075", "addr:state": "IA", "addr:street_address": "1545 DEWITT ST", "amenity": "post_box", "collection_times": "Mo-Fr 11:45", "indoor": "yes", "nsi_id": "unitedstatespostalservice-a77078", "operator": "United States Postal Service", "operator:short": "USPS", "operator:type": "public", "operator:wikidata": "Q668687", "ref": "5007500002"}, "type": "Feature"}
{"geometry": {"coordinates": [-93.578811147, 42.312131749], "type": "Point"}, "id": "pswXdXWTOJa8yInw3U2IKEScZ_I=", "properties": {"@source_uri": "https://tools.usps.com/UspsToolsRestServices/rest/POLocator/findLocations", "@spider": "usps_collection_boxes", "addr:city": "ELLSWORTH", "addr:country": "US", "addr:postcode": "50075", "addr:state": "IA", "addr:street_address": "1545 DEWITT ST", "amenity": "post_box", "collection_times": "Mo-Fr 12:00; Sa 10:00", "indoor": "yes", "nsi_id": "unitedstatespostalservice-a77078", "operator": "United States Postal Service", "operator:short": "USPS", "operator:type": "public", "operator:wikidata": "Q668687", "ref": "5007500003"}, "type": "Feature"}
{"geometry": {"coordinates": [-94.87756817, 41.5913407019], "type": "Point"}, "id": "QFmLTL8aLjbkQjMAfbyxKt5RIFY=", "properties": {"@source_uri": "https://tools.usps.com/UspsToolsRestServices/rest/POLocator/findLocations", "@spider": "usps_collection_boxes", "addr:city": "EXIRA", "addr:country": "US", "addr:postcode": "50076", "addr:state": "IA", "addr:street_address": "101 N CARTHAGE ST", "amenity": "post_box", "collection_times": "Mo-Fr 14:15; Sa 10:45", "note": "ON 12/24 AND 12/31, THIS BOX MAY BE COLLECTED AS EARLY AS 12 NOON.", "nsi_id": "unitedstatespostalservice-a77078", "operator": "United States Postal Service", "operator:short": "USPS", "operator:type": "public", "operator:wikidata": "Q668687", "ref": "5007600001"}, "type": "Feature"}
{"geometry": {"coordinates": [-94.87756817, 41.591340702], "type": "Point"}, "id": "qvz3H5U4qRXlYObTlWNSuxRQDE8=", "properties": {"@source_uri": "https://tools.usps.com/UspsToolsRestServices/rest/POLocator/findLocations", "@spider": "usps_collection_boxes", "addr:city": "EXIRA", "addr:country": "US", "addr:postcode": "50076", "addr:state": "IA", "addr:street_address": "101 N CARTHAGE ST", "amenity": "post_box", "collection_times": "Mo-Fr 14:15; Sa 10:45", "indoor": "yes", "note": "ON 12/24 AND 12/31, THIS BOX MAY BE COLLECTED AS EARLY AS 12 NOON.", "nsi_id": "unitedstatespostalservice-a77078", "operator": "United States Postal Service", "operator:short": "USPS", "operator:type": "public", "operator:wikidata": "Q668687", "ref": "5007600003"}, "type": "Feature"}
{"geometry": {"coordinates": [-94.87756817, 41.591340702], "type": "Point"}, "id": "aRtdet8rJwhGfw_PBfWK59SR0FY=", "properties": {"@source_uri": "https://tools.usps.com/UspsToolsRestServices/rest/POLocator/findLocations", "@spider": "usps_collection_boxes", "addr:city": "EXIRA", "addr:country": "US", "addr:postcode": "50076", "addr:state": "IA", "addr:street_address": "101 N CARTHAGE ST", "amenity": "post_box", "collection_times": "Mo-Fr 14:30; Sa 11:00", "indoor": "yes", "note": "ON 12/24 AND 12/31, THIS BOX MAY BE COLLECTED AS EARLY AS 12 NOON.", "nsi_id": "unitedstatespostalservice-a77078", "operator": "United States Postal Service", "operator:short": "USPS", "operator:type": "public", "operator:wikidata": "Q668687", "ref": "5007600004"}, "type": "Feature"}
{"geometry": {"coordinates": [-92.865050832, 41.938042493], "type": "Point"}, "id": "gYyLWajP0kKUiwoYcGyZJ1lic-c=", "properties": {"@source_uri": "https://tools.usps.com/UspsToolsRestServices/rest/POLocator/findLocations", "@spider": "usps_collection_boxes", "addr:city": "FERGUSON", "addr:country": "US", "addr:postcode": "50078", "addr:state": "IA", "addr:street_address": "275 1ST ST", "amenity": "post_box", "collection_times": "Mo-Fr 14:45; Sa 14:30", "note": "ON 12/24 AND 12/31, THIS BOX MAY BE COLLECTED AS EARLY AS 12 NOON.", "nsi_id": "unitedstatespostalservice-a77078", "operator": "United States Postal Service", "operator:short": "USPS", "operator:type": "public", "operator:wikidata": "Q668687", "ref": "5007800001"}, "type": "Feature"}
{"geometry": {"coordinates": [-92.865050832, 41.938042493], "type": "Point"}, "id": "LVecDFLSn8V4rsQheM0XloPNYJU=", "properties": {"@source_uri": "https://tools.usps.com/UspsToolsRestServices/rest/POLocator/findLocations", "@spider": "usps_collection_boxes", "addr:city": "FERGUSON", "addr:country": "US", "addr:postcode": "50078", "addr:state": "IA", "addr:street_address": "275 1ST ST", "amenity": "post_box", "collection_times": "Mo-Fr 14:45", "indoor": "yes", "note": "ON 12/24 AND 12/31, THIS BOX MAY BE COLLECTED AS EARLY AS 12 NOON.", "nsi_id": "unitedstatespostalservice-a77078", "operator": "United States Postal Service", "operator:short": "USPS", "operator:type": "public", "operator:wikidata": "Q668687", "ref": "5007800002"}, "type": "Feature"}
{"geometry": {"coordinates": [-92.865050832, 41.938042493], "type": "Point"}, "id": "ydH5HVbs91bk_AbeNOWJZzSLFII=", "properties": {"@source_uri": "https://tools.usps.com/UspsToolsRestServices/rest/POLocator/findLocations", "@spider": "usps_collection_boxes", "addr:city": "FERGUSON", "addr:country": "US", "addr:postcode": "50078", "addr:state": "IA", "addr:street_address": "275 1ST ST", "amenity": "post_box", "collection_times": "Mo-Fr 15:00; Sa 14:45", "indoor": "yes", "note": "ON 12/24 AND 12/31, THIS BOX MAY BE COLLECTED AS EARLY AS 12 NOON.", "nsi_id": "unitedstatespostalservice-a77078", "operator": "United States Postal Service", "operator:short": "USPS", "operator:type": "public", "operator:wikidata": "Q668687", "ref": "5007800003"}, "type": "Feature"}
