{"geometry": {"coordinates": [-93.649774973, 42.107355991], "type": "Point"}, "id": "CdryibRfMfmNoV4g6y0CH8M8UQ8=", "properties": {"@spider": "usps_collection_boxes", "addr:city": "GILBERT", "addr:country": "US", "addr:full": "117 MAIN ST", "addr:postcode": "50105", "addr:state": "IA", "amenity": "post_box", "brand": "United States Postal Service", "brand:wikidata": "Q668687", "collection_times": "Mo-Sa 16:45", "name": "USPS COLLECTION BOX - BLUE BOX", "note": "ON 12/24 AND 12/31, THIS BOX MAY BE COLLECTED AS EARLY AS 12 NOON.", "nsi_id": "unitedstatespostalservice-a77078", "operator": "United States Postal Service", "operator:short": "USPS", "operator:type": "public", "operator:wikidata": "Q668687", "ref": "5010500001"}, "type": "Feature"}
{"geometry": {"coordinates": [-93.649530494, 42.107355671], "type": "Point"}, "id": "XnatIrVmyXlXozllY1gXoNWemac=", "properties": {"@spider": "usps_collection_boxes", "addr:city": "GILBERT", "addr:country": "US", "addr:full": "117 MAIN ST", "addr:postcode": "50105", "addr:state": "IA", "amenity": "post_box", "brand": "United States Postal Service", "brand:wikidata": "Q668687", "collection_times": "Mo-Fr 14:15", "name": "USPS COLLECTION BOX - PO LOBBY", "note": "ON 12/24 AND 12/31, THIS BOX MAY BE COLLECTED AS EARLY AS 12 NOON.", "nsi_id": "unitedstatespostalservice-a77078", "operator": "United States Postal Service", "operator:short": "USPS", "operator:type": "public", "operator:wikidata": "Q668687", "ref": "5010500002"}, "type": "Feature"}
{"geometry": {"coordinates": [-93.649530494, 42.107355671], "type": "Point"}, "id": "Z9FEaBikE1fPapudFO1VpQdKyeY=", "properties": {"@spider": "usps_collection_boxes", "addr:city": "GILBERT", "addr:country": "US", "addr:full": "117 MAIN ST", "addr:postcode": "50105", "addr:state": "IA", "amenity": "post_box", "brand": "United States Postal Service", "brand:wikidata": "Q668687", "collection_times": "Mo-Fr 14:30; Sa 10:15", "name": "USPS COLLECTION BOX - PO LOBBY", "note": "ON 12/24 AND 12/31, THIS BOX MAY BE COLLECTED AS EARLY AS 12 NOON.", "nsi_id": "unitedstatespostalservice-a77078", "operator": "United States Postal Service", "operator:short": "USPS", "operator:type": "public", "operator:wikidata": "Q668687", "ref": "5010500003"}, "type": "Feature"}
{"geometry": {"coordinates": [-94.235940723, 42.031766482], "type": "Point"}, "id": "zmWEjT5FQGfDYmNbYg5KO5Cvv_8=", "properties": {"@spider": "usps_collection_boxes", "addr:city": "GRAND JUNCTION", "addr:country": "US", "addr:full": "405 MAIN ST E", "addr:postcode": "50107", "addr:state": "IA", "amenity": "post_box", "brand": "United States Postal Service", "brand:wikidata": "Q668687", "collection_times": "Mo-Sa 15:45", "name": "USPS COLLECTION BOX - BLUE BOX", "note": "ON 12/24 AND 12/31, THIS BOX MAY BE COLLECTED AS EARLY AS 12 NOON.", "nsi_id": "unitedstatespostalservice-a77078", "operator": "United States Postal Service", "operator:short": "USPS", "operator:type": "public", "operator:wikidata": "Q668687", "ref": "5010700001"}, "type": "Feature"}
{"geometry": {"coordinates": [-94.235940723, 42.031766482], "type": "Point"}, "id": "lmjOLV7zRAgskdFX8ywIwNql05s=", "properties": {"@spider": "usps_collection_boxes", "addr:city": "GRAND JUNCTION", "addr:country": "US", "addr:full": "405 MAIN ST E", "addr:postcode": "50107", "addr:state": "IA", "amenity": "post_box", "brand": "United States Postal Service", "brand:wikidata": "Q668687", "collection_times": "Mo-Fr 15:15; Sa 09:30", "name": "USPS COLLECTION BOX - PO LOBBY", "note": "ON 12/24 AND 12/31, THIS BOX MAY BE COLLECTED AS EARLY AS 12 NOON.", "nsi_id": "unitedstatespostalservice-a77078", "operator": "United States Postal Service", "operator:short": "USPS", "operator:type": "public", "operator:wikidata": "Q668687", "ref": "5010700002"}, "type": "Feature"}
{"geometry": {"coordinates": [-94.235940723, 42.031766482], "type": "Point"}, "id": "REJhdcATnsHCZmR0nbsIqAFqmwU=", "properties": {"@spider": "usps_collection_boxes", "addr:city": "GRAND JUNCTION", "addr:country": "US", "addr:full": "405 MAIN ST E", "addr:postcode": "50107", "addr:state": "IA", "amenity": "post_box", "brand": "United States Postal Service", "brand:wikidata": "Q668687", "collection_times": "Mo-Fr 15:30; Sa 09:45", "name": "USPS COLLECTION BOX - PO LOBBY", "note": "ON 12/24 AND 12/31, THIS BOX MAY BE COLLECTED AS EARLY AS 12 NOON.", "nsi_id": "unitedstatespostalservice-a77078", "operator": "United States Postal Service", "operator:short": "USPS", "operator:type": "public", "operator:wikidata": "Q668687", "ref": "5010700003"}, "type": "Feature"}
{"geometry": {"coordinates": [-93.818030334, 41.760053832], "type": "Point"}, "id": "RUz9uvH-P-JLfuwx3iF5l-vaRic=", "properties": {"@spider": "usps_collection_boxes", "addr:city": "GRANGER", "addr:country": "US", "addr:full": "1902 OAK ST", "addr:postcode": "50109", "addr:state": "IA", "amenity": "post_box", "brand": "United States Postal Service", "brand:wikidata": "Q668687", "collection_times": "Mo-Fr 16:30; Sa 11:15", "name": "USPS COLLECTION BOX - BLUE BOX", "note": "ON 12/24 AND 12/31, THIS BOX MAY BE COLLECTED AS EARLY AS 12 NOON.", "nsi_id": "unitedstatespostalservice-a77078", "operator": "United States Postal Service", "operator:short": "USPS", "operator:type": "public", "operator:wikidata": "Q668687", "ref": "5010900001"}, "type": "Feature"}
{"geometry": {"coordinates": [-93.818030334, 41.760053832], "type": "Point"}, "id": "-mHPwGFDHV31vfaAdiR-1T-z5Qg=", "properties": {"@spider": "usps_collection_boxes", "addr:city": "GRANGER", "addr:country": "US", "addr:full": "1902 OAK ST", "addr:postcode": "50109", "addr:state": "IA", "amenity": "post_box", "brand": "United States Postal Service", "brand:wikidata": "Q668687", "collection_times": "Mo-Fr 16:30; Sa 08:30", "name": "USPS COLLECTION BOX - PO LOBBY", "note": "ON 12/24 AND 12/31, THIS BOX MAY BE COLLECTED AS EARLY AS 12 NOON.", "nsi_id": "unitedstatespostalservice-a77078", "operator": "United States Postal Service", "operator:short": "USPS", "operator:type": "public", "operator:wikidata": "Q668687", "ref": "5010900002"}, "type": "Feature"}
{"geometry": {"coordinates": [-93.818030334, 41.760053832], "type": "Point"}, "id": "crHWCs4IspecITELQ7Tu0-mgXvw=", "properties": {"@spider": "usps_collection_boxes", "addr:city": "GRANGER", "addr:country": "US", "addr:full": "1902 OAK ST", "addr:postcode": "50109", "addr:state": "IA", "amenity": "post_box", "brand": "United States Postal Service", "brand:wikidata": "Q668687", "collection_times": "Mo-Fr 16:30; Sa 11:00", "name": "USPS COLLECTION BOX - PO LOBBY", "note": "ON 12/24 AND 12/31, THIS BOX MAY BE COLLECTED AS EARLY AS 12 NOON.", "nsi_id": "unitedstatespostalservice-a77078", "operator": "United States Postal Service", "operator:short": "USPS", "operator:type": "public", "operator:wikidata": "Q668687", "ref": "5010900003"}, "type": "Feature"}
{"geometry": {"coordinates": [-94.982633832, 41.83943154], "type": "Point"}, "id": "gN6n6yP1283nZrdopYE6BcCAT4k=", "properties": {"@spider": "usps_collection_boxes", "addr:city": "GRAY", "addr:country": "US", "addr:full": "204 MAIN ST", "addr:postcode": "50110", "addr:state": "IA", "amenity": "post_box", "brand": "United States Postal Service", "brand:wikidata": "Q668687", "collection_times": "Mo-Sa 15:30", "name": "USPS COLLECTION BOX - BLUE BOX", "note": "ON 12/24 AND 12/31, THIS BOX MAY BE COLLECTED AS EARLY AS 12 NOON.", "nsi_id": "unitedstatespostalservice-a77078", "operator": "United States Postal Service", "operator:short": "USPS", "operator:type": "public", "operator:wikidata": "Q668687", "ref": "5011000001"}, "type": "Feature"}
{"geometry": {"coordinates": [-94.982633832, 41.83943154], "type": "Point"}, "id": "4OUYF6pkt3GpsMjdWwRNcmtynMU=", "properties": {"@spider": "usps_collection_boxes", "addr:city": "GRAY", "addr:country": "US", "addr:full": "204 MAIN ST", "addr:postcode": "50110", "addr:state": "IA", "amenity": "post_box", "brand": "United States Postal Service", "brand:wikidata": "Q668687", "collection_times": "Mo-Sa 12:45", "name": "USPS COLLECTION BOX - PO LOBBY", "note": "ON 12/24 AND 12/31, THIS BOX MAY BE COLLECTED AS EARLY AS 12 NOON.", "nsi_id": "unitedstatespostalservice-a77078", "operator": "United States Postal Service", "operator:short": "USPS", "operator:type": "public", "operator:wikidata": "Q668687", "ref": "5011000002"}, "type": "Feature"}
{"geometry": {"coordinates": [-94.982633832, 41.83943154], "type": "Point"}, "id": "5yIRdDG2itUKdwWb8HssWMULb4A=", "properties": {"@spider": "usps_collection_boxes", "addr:city": "GRAY", "addr:country": "US", "addr:full": "204 MAIN ST", "addr:postcode": "50110", "addr:state": "IA", "amenity": "post_box", "brand": "United States Postal Service", "brand:wikidata": "Q668687", "collection_times": "Mo-Sa 13:00", "name": "USPS COLLECTION BOX - PO LOBBY", "note": "ON 12/24 AND 12/31, THIS BOX MAY BE COLLECTED AS EARLY AS 12 NOON.", "nsi_id": "unitedstatespostalservice-a77078", "operator": "United States Postal Service", "operator:short": "USPS", "operator:type": "public", "operator:wikidata": "Q668687", "ref": "5011000003"}, "type": "Feature"}
{"geometry": {"coordinates": [-94.502043168, 41.677772543], "type": "Point"}, "id": "u-cEbOyMpU_DJ_bIpJWA6vP6Ydc=", "properties": {"@spider": "usps_collection_boxes", "addr:city": "GUTHRIE CENTER", "addr:country": "US", "addr:full": "500 MAIN ST", "addr:postcode": "50115", "addr:state": "IA", "amenity": "post_box", "brand": "United States Postal Service", "brand:wikidata": "Q668687", "collection_times": "Mo-Sa 16:45", "name": "USPS COLLECTION BOX - BLUE BOX", "note": "ON 12/24 AND 12/31, THIS BOX MAY BE COLLECTED AS EARLY AS 12 NOON.", "nsi_id": "unitedstatespostalservice-a77078", "operator": "United States Postal Service", "operator:short": "USPS", "operator:type": "public", "operator:wikidata": "Q668687", "ref": "5011500002"}, "type": "Feature"}
{"geometry": {"coordinates": [-94.502043168, 41.677772543], "type": "Point"}, "id": "_L9ZLXkxiLShTsQB82YdCm9Msa8=", "properties": {"@spider": "usps_collection_boxes", "addr:city": "GUTHRIE CENTER", "addr:country": "US", "addr:full": "500 MAIN ST", "addr:postcode": "50115", "addr:state": "IA", "amenity": "post_box", "brand": "United States Postal Service", "brand:wikidata": "Q668687", "collection_times": "Mo-Fr 16:45; Sa 10:30", "name": "USPS COLLECTION BOX - PO LOBBY", "note": "ON 12/24 AND 12/31, THIS BOX MAY BE COLLECTED AS EARLY AS 12 NOON.", "nsi_id": "unitedstatespostalservice-a77078", "operator": "United States Postal Service", "operator:short": "USPS", "operator:type": "public", "operator:wikidata": "Q668687", "ref": "5011500003"}, "type": "Feature"}
{"geometry": {"coordinates": [-94.502043168, 41.677772543], "type": "Point"}, "id": "ZHJhrsEvBrZ8052oO8RgISoRw3A=", "properties": {"@spider": "usps_collection_boxes", "addr:city": "GUTHRIE CENTER", "addr:country": "US", "addr:full": "500 MAIN ST", "addr:postcode": "50115", "addr:state": "IA", "amenity": "post_box", "brand": "United States Postal Service", "brand:wikidata": "Q668687", "collection_times": "Mo-Fr 16:30; Sa 10:30", "name": "USPS COLLECTION BOX - PO LOBBY", "note": "ON 12/24 AND 12/31, THIS BOX MAY BE COLLECTED AS EARLY AS 12 NOON.", "nsi_id": "unitedstatespostalservice-a77078", "operator": "United States Postal Service", "operator:short": "USPS", "operator:type": "public", "operator:wikidata": "Q668687", "ref": "5011500004"}, "type": "Feature"}
{"geometry": {"coordinates": [-93.604055475, 41.898958983], "type": "Point"}, "id": "xIlGFREof_MuUD2s4j1yExChxZw=", "properties": {"@spider": "usps_collection_boxes", "addr:city": "HUXLEY", "addr:country": "US", "addr:full": "624 N HIGHWAY 69", "addr:postcode": "50124", "addr:state": "IA", "amenity": "post_box", "brand": "United States Postal Service", "brand:wikidata": "Q668687", "collection_times": "Mo-Fr 15:30; Sa 16:00", "name": "USPS COLLECTION BOX - BLUE BOX", "note": "ON 12/24 AND 12/31, THIS BOX MAY BE COLLECTED AS EARLY AS 12 NOON.", "nsi_id": "unitedstatespostalservice-a77078", "operator": "United States Postal Service", "operator:short": "USPS", "operator:type": "public", "operator:wikidata": "Q668687", "ref": "5012400002"}, "type": "Feature"}
{"geometry": {"coordinates": [-93.604055475, 41.898958983], "type": "Point"}, "id": "bMoofU1BmVyApufy_WvMgHk94TU=", "properties": {"@spider": "usps_collection_boxes", "addr:city": "HUXLEY", "addr:country": "US", "addr:full": "624 N HIGHWAY 69", "addr:postcode": "50124", "addr:state": "IA", "amenity": "post_box", "brand": "United States Postal Service", "brand:wikidata": "Q668687", "collection_times": "Mo-Fr 16:00", "name": "USPS COLLECTION BOX - PO LOBBY", "note": "ON 12/24 AND 12/31, THIS BOX MAY BE COLLECTED AS EARLY AS 12 NOON.", "nsi_id": "unitedstatespostalservice-a77078", "operator": "United States Postal Service", "operator:short": "USPS", "operator:type": "public", "operator:wikidata": "Q668687", "ref": "5012400007"}, "type": "Feature"}
{"geometry": {"coordinates": [-93.604055475, 41.898958983], "type": "Point"}, "id": "j8CnNV0ubRENkJzuPEgt20znvoY=", "properties": {"@spider": "usps_collection_boxes", "addr:city": "HUXLEY", "addr:country": "US", "addr:full": "624 N HIGHWAY 69", "addr:postcode": "50124", "addr:state": "IA", "amenity": "post_box", "brand": "United States Postal Service", "brand:wikidata": "Q668687", "collection_times": "Mo-Fr 16:00; Sa 11:00", "name": "USPS COLLECTION BOX - PO LOBBY", "note": "ON 12/24 AND 12/31, THIS BOX MAY BE COLLECTED AS EARLY AS 12 NOON.", "nsi_id": "unitedstatespostalservice-a77078", "operator": "United States Postal Service", "operator:short": "USPS", "operator:type": "public", "operator:wikidata": "Q668687", "ref": "5012400008"}, "type": "Feature"}
{"geometry": {"coordinates": [-94.30798317, 41.845688246], "type": "Point"}, "id": "qk_bvoOI_5U4CHvFtCHFiXaO-pc=", "properties": {"@spider": "usps_collection_boxes", "addr:city": "JAMAICA", "addr:country": "US", "addr:full": "405 MAIN ST", "addr:postcode": "50128", "addr:state": "IA", "amenity": "post_box", "brand": "United States Postal Service", "brand:wikidata": "Q668687", "collection_times": "Mo-Sa 16:15", "name": "USPS COLLECTION BOX - BLUE BOX", "note": "ON 12/24 AND 12/31, THIS BOX MAY BE COLLECTED AS EARLY AS 12 NOON.", "nsi_id": "unitedstatespostalservice-a77078", "operator": "United States Postal Service", "operator:short": "USPS", "operator:type": "public", "operator:wikidata": "Q668687", "ref": "5012800001"}, "type": "Feature"}
{"geometry": {"coordinates": [-94.30798317, 41.845688246], "type": "Point"}, "id": "LYTE9pwadLHfuAIqHtIiaD73cJM=", "properties": {"@spider": "usps_collection_boxes", "addr:city": "JAMAICA", "addr:country": "US", "addr:full": "405 MAIN ST", "addr:postcode": "50128", "addr:state": "IA", "amenity": "post_box", "brand": "United States Postal Service", "brand:wikidata": "Q668687", "collection_times": "Mo-Fr 15:45", "name": "USPS COLLECTION BOX - PO LOBBY", "note": "ON 12/24 AND 12/31, THIS BOX MAY BE COLLECTED AS EARLY AS 12 NOON.", "nsi_id": "unitedstatespostalservice-a77078", "operator": "United States Postal Service", "operator:short": "USPS", "operator:type": "public", "operator:wikidata": "Q668687", "ref": "5012800002"}, "type": "Feature"}
{"geometry": {"coordinates": [-94.30798317, 41.845688246], "type": "Point"}, "id": "EH7m2RvrB36LGwhnvhXw0Pqv_hg=", "properties": {"@spider": "usps_collection_boxes", "addr:city": "JAMAICA", "addr:country": "US", "addr:full": "405 MAIN ST", "addr:postcode": "50128", "addr:state": "IA", "amenity": "post_box", "brand": "United States Postal Service", "brand:wikidata": "Q668687", "collection_times": "Mo-Fr 16:00; Sa 08:00", "name": "USPS COLLECTION BOX - PO LOBBY", "note": "ON 12/24 AND 12/31, THIS BOX MAY BE COLLECTED AS EARLY AS 12 NOON.", "nsi_id": "unitedstatespostalservice-a77078", "operator": "United States Postal Service", "operator:short": "USPS", "operator:type": "public", "operator:wikidata": "Q668687", "ref": "5012800003"}, "type": "Feature"}
{"geometry": {"coordinates": [-94.375674168, 42.014311479], "type": "Point"}, "id": "oPUOZPys-71ldISU8VRMNOwlZUg=", "properties": {"@spider": "usps_collection_boxes", "addr:city": "JEFFERSON", "addr:country": "US", "addr:full": "106 W HARRISON ST", "addr:postcode": "50129", "addr:state": "IA", "amenity": "post_box", "brand": "United States Postal Service", "brand:wikidata": "Q668687", "collection_times": "Mo-Sa 17:15", "name": "USPS COLLECTION BOX - BLUE BOX", "note": "ON 12/24 AND 12/31, THIS BOX MAY BE COLLECTED AS EARLY AS 12 NOON.", "nsi_id": "unitedstatespostalservice-a77078", "operator": "United States Postal Service", "operator:short": "USPS", "operator:type": "public", "operator:wikidata": "Q668687", "ref": "5012900005"}, "type": "Feature"}
{"geometry": {"coordinates": [-94.375674168, 42.014311479], "type": "Point"}, "id": "Po-D8EbFxbLye78thYHp0oKD_hY=", "properties": {"@spider": "usps_collection_boxes", "addr:city": "JEFFERSON", "addr:country": "US", "addr:full": "106 W HARRISON ST", "addr:postcode": "50129", "addr:state": "IA", "amenity": "post_box", "brand": "United States Postal Service", "brand:wikidata": "Q668687", "collection_times": "Mo-Fr 17:15; Sa 09:45", "name": "USPS COLLECTION BOX - PO LOBBY", "note": "ON 12/24 AND 12/31, THIS BOX MAY BE COLLECTED AS EARLY AS 12 NOON.", "nsi_id": "unitedstatespostalservice-a77078", "operator": "United States Postal Service", "operator:short": "USPS", "operator:type": "public", "operator:wikidata": "Q668687", "ref": "5012900007"}, "type": "Feature"}
{"geometry": {"coordinates": [-94.375674168, 42.014311479], "type": "Point"}, "id": "LHdA7bnWrQ4m2XIQJNydDa3kmhc=", "properties": {"@spider": "usps_collection_boxes", "addr:city": "JEFFERSON", "addr:country": "US", "addr:full": "106 W HARRISON ST", "addr:postcode": "50129", "addr:state": "IA", "amenity": "post_box", "brand": "United States Postal Service", "brand:wikidata": "Q668687", "collection_times": "Mo-Sa 17:15", "name": "USPS COLLECTION BOX - BLUE BOX", "note": "ON 12/24 AND 12/31, THIS BOX MAY BE COLLECTED AS EARLY AS 12 NOON.", "nsi_id": "unitedstatespostalservice-a77078", "operator": "United States Postal Service", "operator:short": "USPS", "operator:type": "public", "operator:wikidata": "Q668687", "ref": "5012900008"}, "type": "Feature"}
{"geometry": {"coordinates": [-94.375674168, 42.014311479], "type": "Point"}, "id": "Ti1prwqdyKLW7Bpvi2QOl5ep2tQ=", "properties": {"@spider": "usps_collection_boxes", "addr:city": "JEFFERSON", "addr:country": "US", "addr:full": "106 W HARRISON ST", "addr:postcode": "50129", "addr:state": "IA", "amenity": "post_box", "brand": "United States Postal Service", "brand:wikidata": "Q668687", "collection_times": "Mo-Fr 17:00; Sa 08:00", "name": "USPS COLLECTION BOX - PO LOBBY", "note": "ON 12/24 AND 12/31, THIS BOX MAY BE COLLECTED AS EARLY AS 12 NOON.", "nsi_id": "unitedstatespostalservice-a77078", "operator": "United States Postal Service", "operator:short": "USPS", "operator:type": "public", "operator:wikidata": "Q668687", "ref": "5012900009"}, "type": "Feature"}
{"geometry": {"coordinates": [-93.640051129, 42.306714], "type": "Point"}, "id": "MU83BHrPeZdhXx2gwgbTKm_rijs=", "properties": {"@spider": "usps_collection_boxes", "addr:city": "JEWELL", "addr:country": "US", "addr:full": "549 MAIN ST", "addr:postcode": "50130", "addr:state": "IA", "amenity": "post_box", "brand": "United States Postal Service", "brand:wikidata": "Q668687", "collection_times": "Mo-Sa 16:30", "name": "USPS COLLECTION BOX - BLUE BOX", "note": "ON 12/24 AND 12/31, THIS BOX MAY BE COLLECTED AS EARLY AS 12 NOON.", "nsi_id": "unitedstatespostalservice-a77078", "operator": "United States Postal Service", "operator:short": "USPS", "operator:type": "public", "operator:wikidata": "Q668687", "ref": "5013000002"}, "type": "Feature"}
{"geometry": {"coordinates": [-93.640051129, 42.306714], "type": "Point"}, "id": "FSnUYjy6w-1ug40EFr_zVSmy33s=", "properties": {"@spider": "usps_collection_boxes", "addr:city": "JEWELL", "addr:country": "US", "addr:full": "549 MAIN ST", "addr:postcode": "50130", "addr:state": "IA", "amenity": "post_box", "brand": "United States Postal Service", "brand:wikidata": "Q668687", "collection_times": "Mo-Fr 13:45; Sa 08:45", "name": "USPS COLLECTION BOX - PO LOBBY", "note": "ON 12/24 AND 12/31, THIS BOX MAY BE COLLECTED AS EARLY AS 12 NOON.", "nsi_id": "unitedstatespostalservice-a77078", "operator": "United States Postal Service", "operator:short": "USPS", "operator:type": "public", "operator:wikidata": "Q668687", "ref": "5013000003"}, "type": "Feature"}
{"geometry": {"coordinates": [-93.640051129, 42.306714], "type": "Point"}, "id": "UWqEHh97nfTz1z0mPcyids552Io=", "properties": {"@spider": "usps_collection_boxes", "addr:city": "JEWELL", "addr:country": "US", "addr:full": "549 MAIN ST", "addr:postcode": "50130", "addr:state": "IA", "amenity": "post_box", "brand": "United States Postal Service", "brand:wikidata": "Q668687", "collection_times": "Mo-Fr 14:00; Sa 09:00", "name": "USPS COLLECTION BOX - PO LOBBY", "note": "ON 12/24 AND 12/31, THIS BOX MAY BE COLLECTED AS EARLY AS 12 NOON.", "nsi_id": "unitedstatespostalservice-a77078", "operator": "United States Postal Service", "operator:short": "USPS", "operator:type": "public", "operator:wikidata": "Q668687", "ref": "5013000004"}, "type": "Feature"}
{"geometry": {"coordinates": [-93.728141696, 42.3943455], "type": "Point"}, "id": "ENAyVLwceGvnaQ5gFyYUmyh4r6s=", "properties": {"@spider": "usps_collection_boxes", "addr:city": "KAMRAR", "addr:country": "US", "addr:full": "610 MAPLE ST", "addr:postcode": "50132", "addr:state": "IA", "amenity": "post_box", "brand": "United States Postal Service", "brand:wikidata": "Q668687", "collection_times": "Mo-Sa 16:00", "name": "USPS COLLECTION BOX - BLUE BOX", "note": "ON 12/24 AND 12/31, THIS BOX MAY BE COLLECTED AS EARLY AS 12 NOON.", "nsi_id": "unitedstatespostalservice-a77078", "operator": "United States Postal Service", "operator:short": "USPS", "operator:type": "public", "operator:wikidata": "Q668687", "ref": "5013200001"}, "type": "Feature"}
{"geometry": {"coordinates": [-93.728141696, 42.3943455], "type": "Point"}, "id": "SCpIUPUc7GWACM6TYouvkq1An90=", "properties": {"@spider": "usps_collection_boxes", "addr:city": "KAMRAR", "addr:country": "US", "addr:full": "610 MAPLE ST", "addr:postcode": "50132", "addr:state": "IA", "amenity": "post_box", "brand": "United States Postal Service", "brand:wikidata": "Q668687", "collection_times": "Mo-Fr 15:45; Sa 12:45", "name": "USPS COLLECTION BOX - PO LOBBY", "note": "ON 12/24 AND 12/31, THIS BOX MAY BE COLLECTED AS EARLY AS 12 NOON.", "nsi_id": "unitedstatespostalservice-a77078", "operator": "United States Postal Service", "operator:short": "USPS", "operator:type": "public", "operator:wikidata": "Q668687", "ref": "5013200002"}, "type": "Feature"}
{"geometry": {"coordinates": [-93.728141696, 42.3943455], "type": "Point"}, "id": "z5W5FCju99tLF7mw-1H74TStX0o=", "properties": {"@spider": "usps_collection_boxes", "addr:city": "KAMRAR", "addr:country": "US", "addr:full": "610 MAPLE ST", "addr:postcode": "50132", "addr:state": "IA", "amenity": "post_box", "brand": "United States Postal Service", "brand:wikidata": "Q668687", "collection_times": "Mo-Fr 16:00; Sa 13:00", "name": "USPS COLLECTION BOX - PO LOBBY", "note": "ON 12/24 AND 12/31, THIS BOX MAY BE COLLECTED AS EARLY AS 12 NOON.", "nsi_id": "unitedstatespostalservice-a77078", "operator": "United States Postal Service", "operator:short": "USPS", "operator:type": "public", "operator:wikidata": "Q668687", "ref": "5013200003"}, "type": "Feature"}
{"geometry": {"coordinates": [-94.269608425, 41.643186244], "type": "Point"}, "id": "-bG9-V9p9MJGD0eIb8ZwaZf8UjU=", "properties": {"@spider": "usps_collection_boxes", "addr:city": "LINDEN", "addr:country": "US", "addr:full": "133 S MAIN ST", "addr:postcode": "50146", "addr:state": "IA", "amenity": "post_box", "brand": "United States Postal Service", "brand:wikidata": "Q668687", "collection_times": "Mo-Sa 16:15", "name": "USPS COLLECTION BOX - BLUE BOX", "note": "ON 12/24 AND 12/31, THIS BOX MAY BE COLLECTED AS EARLY AS 12 NOON.", "nsi_id": "unitedstatespostalservice-a77078", "operator": "United States Postal Service", "operator:short": "USPS", "operator:type": "public", "operator:wikidata": "Q668687", "ref": "5014600001"}, "type": "Feature"}
{"geometry": {"coordinates": [-94.269608425, 41.643186244], "type": "Point"}, "id": "QZw3Xph99mxl2gD1HPogxVkydYo=", "properties": {"@spider": "usps_collection_boxes", "addr:city": "LINDEN", "addr:country": "US", "addr:full": "133 S MAIN ST", "addr:postcode": "50146", "addr:state": "IA", "amenity": "post_box", "brand": "United States Postal Service", "brand:wikidata": "Q668687", "collection_times": "Mo-Fr 16:00", "name": "USPS COLLECTION BOX - PO LOBBY", "note": "ON 12/24 AND 12/31, THIS BOX MAY BE COLLECTED AS EARLY AS 12 NOON.", "nsi_id": "unitedstatespostalservice-a77078", "operator": "United States Postal Service", "operator:short": "USPS", "operator:type": "public", "operator:wikidata": "Q668687", "ref": "5014600002"}, "type": "Feature"}
{"geometry": {"coordinates": [-94.269608425, 41.643186244], "type": "Point"}, "id": "O6BBba9mboQopFJDOBar1FUMTys=", "properties": {"@spider": "usps_collection_boxes", "addr:city": "LINDEN", "addr:country": "US", "addr:full": "133 S MAIN ST", "addr:postcode": "50146", "addr:state": "IA", "amenity": "post_box", "brand": "United States Postal Service", "brand:wikidata": "Q668687", "collection_times": "Mo-Fr 16:15; Sa 13:45", "name": "USPS COLLECTION BOX - PO LOBBY", "note": "ON 12/24 AND 12/31, THIS BOX MAY BE COLLECTED AS EARLY AS 12 NOON.", "nsi_id": "unitedstatespostalservice-a77078", "operator": "United States Postal Service", "operator:short": "USPS", "operator:type": "public", "operator:wikidata": "Q668687", "ref": "5014600003"}, "type": "Feature"}
{"geometry": {"coordinates": [-93.823058268, 41.875053653], "type": "Point"}, "id": "xfKp8r-yUjFDJwTpvuJo4W_pd68=", "properties": {"@spider": "usps_collection_boxes", "addr:city": "MADRID", "addr:country": "US", "addr:full": "232 S MAIN ST", "addr:postcode": "50156", "addr:state": "IA", "amenity": "post_box", "brand": "United States Postal Service", "brand:wikidata": "Q668687", "collection_times": "Mo-Sa 17:00", "name": "USPS COLLECTION BOX - BLUE BOX", "note": "ON 12/24 AND 12/31, THIS BOX MAY BE COLLECTED AS EARLY AS 12 NOON.", "nsi_id": "unitedstatespostalservice-a77078", "operator": "United States Postal Service", "operator:short": "USPS", "operator:type": "public", "operator:wikidata": "Q668687", "ref": "5015600004"}, "type": "Feature"}
{"geometry": {"coordinates": [-93.823058268, 41.875053653], "type": "Point"}, "id": "GY0gtJfUSnmUQa0HhRjSjWhKPOE=", "properties": {"@spider": "usps_collection_boxes", "addr:city": "MADRID", "addr:country": "US", "addr:full": "232 S MAIN ST", "addr:postcode": "50156", "addr:state": "IA", "amenity": "post_box", "brand": "United States Postal Service", "brand:wikidata": "Q668687", "collection_times": "Mo-Fr 17:00", "name": "USPS COLLECTION BOX - PO LOBBY", "note": "ON 12/24 AND 12/31, THIS BOX MAY BE COLLECTED AS EARLY AS 12 NOON.", "nsi_id": "unitedstatespostalservice-a77078", "operator": "United States Postal Service", "operator:short": "USPS", "operator:type": "public", "operator:wikidata": "Q668687", "ref": "5015600006"}, "type": "Feature"}
{"geometry": {"coordinates": [-93.823058268, 41.875053653], "type": "Point"}, "id": "kwB5S-tBAkpNMO-FRAuDev6c8Aw=", "properties": {"@spider": "usps_collection_boxes", "addr:city": "MADRID", "addr:country": "US", "addr:full": "232 S MAIN ST", "addr:postcode": "50156", "addr:state": "IA", "amenity": "post_box", "brand": "United States Postal Service", "brand:wikidata": "Q668687", "collection_times": "Mo-Fr 16:45; Sa 08:00", "name": "USPS COLLECTION BOX - PO LOBBY", "note": "ON 12/24 AND 12/31, THIS BOX MAY BE COLLECTED AS EARLY AS 12 NOON.", "nsi_id": "unitedstatespostalservice-a77078", "operator": "United States Postal Service", "operator:short": "USPS", "operator:type": "public", "operator:wikidata": "Q668687", "ref": "5015600007"}, "type": "Feature"}
{"geometry": {"coordinates": [-94.404515801, 41.520177], "type": "Point"}, "id": "16Q-vWQ1noqQJvSi4k6ERi58_l8=", "properties": {"@spider": "usps_collection_boxes", "addr:city": "MENLO", "addr:country": "US", "addr:full": "503 SHERMAN ST", "addr:postcode": "50164", "addr:state": "IA", "amenity": "post_box", "brand": "United States Postal Service", "brand:wikidata": "Q668687", "collection_times": "Mo-Sa 16:15", "name": "USPS COLLECTION BOX - BLUE BOX", "note": "ON 12/24 AND 12/31, THIS BOX MAY BE COLLECTED AS EARLY AS 12 NOON.", "nsi_id": "unitedstatespostalservice-a77078", "operator": "United States Postal Service", "operator:short": "USPS", "operator:type": "public", "operator:wikidata": "Q668687", "ref": "5016400001"}, "type": "Feature"}
{"geometry": {"coordinates": [-94.404515801, 41.520177], "type": "Point"}, "id": "nhtgPY4OhrXacpcu3FcYNNieXV0=", "properties": {"@spider": "usps_collection_boxes", "addr:city": "MENLO", "addr:country": "US", "addr:full": "503 SHERMAN ST", "addr:postcode": "50164", "addr:state": "IA", "amenity": "post_box", "brand": "United States Postal Service", "brand:wikidata": "Q668687", "collection_times": "Mo-Fr 11:45; Sa 09:45", "name": "USPS COLLECTION BOX - PO LOBBY", "nsi_id": "unitedstatespostalservice-a77078", "operator": "United States Postal Service", "operator:short": "USPS", "operator:type": "public", "operator:wikidata": "Q668687", "ref": "5016400002"}, "type": "Feature"}
{"geometry": {"coordinates": [-94.404515801, 41.520177], "type": "Point"}, "id": "7PK9y3Td5mLBwhJWqr5XTxmLliU=", "properties": {"@spider": "usps_collection_boxes", "addr:city": "MENLO", "addr:country": "US", "addr:full": "503 SHERMAN ST", "addr:postcode": "50164", "addr:state": "IA", "amenity": "post_box", "brand": "United States Postal Service", "brand:wikidata": "Q668687", "collection_times": "Mo-Fr 12:00; Sa 10:00", "name": "USPS COLLECTION BOX - PO LOBBY", "nsi_id": "unitedstatespostalservice-a77078", "operator": "United States Postal Service", "operator:short": "USPS", "operator:type": "public", "operator:wikidata": "Q668687", "ref": "5016400003"}, "type": "Feature"}
{"geometry": {"coordinates": [-94.029790668, 41.75531754], "type": "Point"}, "id": "-5BD8T-jgPj69Kua95T1lhN7Mus=", "properties": {"@spider": "usps_collection_boxes", "addr:city": "MINBURN", "addr:country": "US", "addr:full": "514 CHESTNUT ST", "addr:postcode": "50167", "addr:state": "IA", "amenity": "post_box", "brand": "United States Postal Service", "brand:wikidata": "Q668687", "collection_times": "Mo-Fr 16:45; Sa 16:30", "name": "USPS COLLECTION BOX - BLUE BOX", "note": "ON 12/24 AND 12/31, THIS BOX MAY BE COLLECTED AS EARLY AS 12 NOON.", "nsi_id": "unitedstatespostalservice-a77078", "operator": "United States Postal Service", "operator:short": "USPS", "operator:type": "public", "operator:wikidata": "Q668687", "ref": "5016700001"}, "type": "Feature"}
{"geometry": {"coordinates": [-94.029790668, 41.75531754], "type": "Point"}, "id": "2KIVLjTaY2rpqhy7spp8P9opGww=", "properties": {"@spider": "usps_collection_boxes", "addr:city": "MINBURN", "addr:country": "US", "addr:full": "514 CHESTNUT ST", "addr:postcode": "50167", "addr:state": "IA", "amenity": "post_box", "brand": "United States Postal Service", "brand:wikidata": "Q668687", "collection_times": "Mo-Fr 16:45", "name": "USPS COLLECTION BOX - PO LOBBY", "note": "ON 12/24 AND 12/31, THIS BOX MAY BE COLLECTED AS EARLY AS 12 NOON.", "nsi_id": "unitedstatespostalservice-a77078", "operator": "United States Postal Service", "operator:short": "USPS", "operator:type": "public", "operator:wikidata": "Q668687", "ref": "5016700002"}, "type": "Feature"}
{"geometry": {"coordinates": [-94.029790668, 41.75531754], "type": "Point"}, "id": "oLeowyevlLSvKtoHYmojJG9O_jU=", "properties": {"@spider": "usps_collection_boxes", "addr:city": "MINBURN", "addr:country": "US", "addr:full": "514 CHESTNUT ST", "addr:postcode": "50167", "addr:state": "IA", "amenity": "post_box", "brand": "United States Postal Service", "brand:wikidata": "Q668687", "collection_times": "Mo-Fr 17:00; Sa 15:45", "name": "USPS COLLECTION BOX - PO LOBBY", "note": "ON 12/24 AND 12/31, THIS BOX MAY BE COLLECTED AS EARLY AS 12 NOON.", "nsi_id": "unitedstatespostalservice-a77078", "operator": "United States Postal Service", "operator:short": "USPS", "operator:type": "public", "operator:wikidata": "Q668687", "ref": "5016700004"}, "type": "Feature"}
