{"geometry": {"coordinates": [-94.032060541, 42.037829832], "type": "Point"}, "id": "mgi3mHpQpplBruFVw52_6XWx--Q=", "properties": {"@spider": "usps_collection_boxes", "addr:city": "OGDEN", "addr:country": "US", "addr:full": "202 SW 4TH ST", "addr:postcode": "50212", "addr:state": "IA", "amenity": "post_box", "brand": "United States Postal Service", "brand:wikidata": "Q668687", "collection_times": "Mo-Fr 16:30; Sa 17:00", "name": "USPS COLLECTION BOX - BLUE BOX", "note": "ON 12/24 AND 12/31, THIS BOX MAY BE COLLECTED AS EARLY AS 12 NOON.", "nsi_id": "unitedstatespostalservice-a77078", "operator": "United States Postal Service", "operator:short": "USPS", "operator:type": "public", "operator:wikidata": "Q668687", "ref": "5021200001"}, "type": "Feature"}
{"geometry": {"coordinates": [-94.032060541, 42.037829832], "type": "Point"}, "id": "lFzdXvowUwV88pe9HBQeIaSh5H4=", "properties": {"@spider": "usps_collection_boxes", "addr:city": "OGDEN", "addr:country": "US", "addr:full": "202 SW 4TH ST", "addr:postcode": "50212", "addr:state": "IA", "amenity": "post_box", "brand": "United States Postal Service", "brand:wikidata": "Q668687", "collection_times": "Mo-Fr 16:30", "name": "USPS COLLECTION BOX - PO LOBBY", "note": "ON 12/24 AND 12/31, THIS BOX MAY BE COLLECTED AS EARLY AS 12 NOON.", "nsi_id": "unitedstatespostalservice-a77078", "operator": "United States Postal Service", "operator:short": "USPS", "operator:type": "public", "operator:wikidata": "Q668687", "ref": "5021200002"}, "type": "Feature"}
{"geometry": {"coordinates": [-94.032060541, 42.037829832], "type": "Point"}, "id": "1HmJDF0UJMSBKYeqSo_8EktOloQ=", "properties": {"@spider": "usps_collection_boxes", "addr:city": "OGDEN", "addr:country": "US", "addr:full": "202 SW 4TH ST", "addr:postcode": "50212", "addr:state": "IA", "amenity": "post_box", "brand": "United States Postal Service", "brand:wikidata": "Q668687", "collection_times": "Mo-Fr 16:30; Sa 10:00", "name": "USPS COLLECTION BOX - PO LOBBY", "note": "ON 12/24 AND 12/31, THIS BOX MAY BE COLLECTED AS EARLY AS 12 NOON.", "nsi_id": "unitedstatespostalservice-a77078", "operator": "United States Postal Service", "operator:short": "USPS", "operator:type": "public", "operator:wikidata": "Q668687", "ref": "5021200003"}, "type": "Feature"}
{"geometry": {"coordinates": [-94.363082612, 41.69060653], "type": "Point"}, "id": "FsgSiH2CPfuay_bwBZuzLvCBRTY=", "properties": {"@spider": "usps_collection_boxes", "addr:city": "PANORA", "addr:country": "US", "addr:full": "117 E CHURCH ST", "addr:postcode": "50216", "addr:state": "IA", "amenity": "post_box", "brand": "United States Postal Service", "brand:wikidata": "Q668687", "collection_times": "Mo-Fr 16:45; Sa 17:00", "name": "USPS COLLECTION BOX - BLUE BOX", "note": "ON 12/24 AND 12/31, THIS BOX MAY BE COLLECTED AS EARLY AS 12 NOON.", "nsi_id": "unitedstatespostalservice-a77078", "operator": "United States Postal Service", "operator:short": "USPS", "operator:type": "public", "operator:wikidata": "Q668687", "ref": "5021600003"}, "type": "Feature"}
{"geometry": {"coordinates": [-94.363082612, 41.69060653], "type": "Point"}, "id": "KvFi3dfg0cvZwgK11XCgSb9fjHo=", "properties": {"@spider": "usps_collection_boxes", "addr:city": "PANORA", "addr:country": "US", "addr:full": "117 E CHURCH ST", "addr:postcode": "50216", "addr:state": "IA", "amenity": "post_box", "brand": "United States Postal Service", "brand:wikidata": "Q668687", "collection_times": "Mo-Fr 16:45", "name": "USPS COLLECTION BOX - PO LOBBY", "note": "ON 12/24 AND 12/31, THIS BOX MAY BE COLLECTED AS EARLY AS 12 NOON.", "nsi_id": "unitedstatespostalservice-a77078", "operator": "United States Postal Service", "operator:short": "USPS", "operator:type": "public", "operator:wikidata": "Q668687", "ref": "5021600004"}, "type": "Feature"}
{"geometry": {"coordinates": [-94.363082612, 41.69060653], "type": "Point"}, "id": "0Kg_JaUUc8VxbIU5go0EK3j24Z0=", "properties": {"@spider": "usps_collection_boxes", "addr:city": "PANORA", "addr:country": "US", "addr:full": "117 E CHURCH ST", "addr:postcode": "50216", "addr:state": "IA", "amenity": "post_box", "brand": "United States Postal Service", "brand:wikidata": "Q668687", "collection_times": "Mo-Fr 16:30; Sa 10:00", "name": "USPS COLLECTION BOX - PO LOBBY", "note": "ON 12/24 AND 12/31, THIS BOX MAY BE COLLECTED AS EARLY AS 12 NOON.", "nsi_id": "unitedstatespostalservice-a77078", "operator": "United States Postal Service", "operator:short": "USPS", "operator:type": "public", "operator:wikidata": "Q668687", "ref": "5021600005"}, "type": "Feature"}
{"geometry": {"coordinates": [-94.25427898, 42.165108953], "type": "Point"}, "id": "jeNauyiMW0ruPrXX_CVJV03OPSQ=", "properties": {"@spider": "usps_collection_boxes", "addr:city": "PATON", "addr:country": "US", "addr:full": "205 S MAIN ST", "addr:postcode": "50217", "addr:state": "IA", "amenity": "post_box", "brand": "United States Postal Service", "brand:wikidata": "Q668687", "collection_times": "Mo-Sa 16:00", "name": "USPS COLLECTION BOX - BLUE BOX", "note": "ON 12/24 AND 12/31, THIS BOX MAY BE COLLECTED AS EARLY AS 12 NOON.", "nsi_id": "unitedstatespostalservice-a77078", "operator": "United States Postal Service", "operator:short": "USPS", "operator:type": "public", "operator:wikidata": "Q668687", "ref": "5021700001"}, "type": "Feature"}
{"geometry": {"coordinates": [-94.25427898, 42.165108953], "type": "Point"}, "id": "z3uJQTsAXt1XeqTUw_w3LvP0cQU=", "properties": {"@spider": "usps_collection_boxes", "addr:city": "PATON", "addr:country": "US", "addr:full": "205 S MAIN ST", "addr:postcode": "50217", "addr:state": "IA", "amenity": "post_box", "brand": "United States Postal Service", "brand:wikidata": "Q668687", "collection_times": "Mo-Fr 11:15", "name": "USPS COLLECTION BOX - PO LOBBY", "nsi_id": "unitedstatespostalservice-a77078", "operator": "United States Postal Service", "operator:short": "USPS", "operator:type": "public", "operator:wikidata": "Q668687", "ref": "5021700002"}, "type": "Feature"}
{"geometry": {"coordinates": [-94.25427898, 42.165108953], "type": "Point"}, "id": "20UZ5QZst-oKvZGuyxqfKTJk7Xo=", "properties": {"@spider": "usps_collection_boxes", "addr:city": "PATON", "addr:country": "US", "addr:full": "205 S MAIN ST", "addr:postcode": "50217", "addr:state": "IA", "amenity": "post_box", "brand": "United States Postal Service", "brand:wikidata": "Q668687", "collection_times": "Mo-Fr 11:30; Sa 10:15", "name": "USPS COLLECTION BOX - PO LOBBY", "nsi_id": "unitedstatespostalservice-a77078", "operator": "United States Postal Service", "operator:short": "USPS", "operator:type": "public", "operator:wikidata": "Q668687", "ref": "5021700003"}, "type": "Feature"}
{"geometry": {"coordinates": [-94.105151004, 41.84181699], "type": "Point"}, "id": "aWKeRjCuuOa9MatbBrI8OpWH_Ys=", "properties": {"@spider": "usps_collection_boxes", "addr:city": "PERRY", "addr:country": "US", "addr:full": "1420 2ND ST", "addr:postcode": "50220", "addr:state": "IA", "amenity": "post_box", "brand": "United States Postal Service", "brand:wikidata": "Q668687", "collection_times": "Mo-Fr 17:15; Sa 15:00", "name": "USPS COLLECTION BOX - BLUE BOX", "note": "ON 12/24 AND 12/31, THIS BOX MAY BE COLLECTED AS EARLY AS 12 NOON.", "nsi_id": "unitedstatespostalservice-a77078", "operator": "United States Postal Service", "operator:short": "USPS", "operator:type": "public", "operator:wikidata": "Q668687", "ref": "5022000001"}, "type": "Feature"}
{"geometry": {"coordinates": [-94.105162298, 41.830225522], "type": "Point"}, "id": "zSYbAOJ51PaOWwTgUmkigDqTcjc=", "properties": {"@spider": "usps_collection_boxes", "addr:city": "PERRY", "addr:country": "US", "addr:full": "1215 141ST ST", "addr:postcode": "50220", "addr:state": "IA", "amenity": "post_box", "brand": "United States Postal Service", "brand:wikidata": "Q668687", "collection_times": "Mo-Fr 09:00", "name": "USPS COLLECTION BOX - BLUE BOX", "nsi_id": "unitedstatespostalservice-a77078", "operator": "United States Postal Service", "operator:short": "USPS", "operator:type": "public", "operator:wikidata": "Q668687", "ref": "5022000003"}, "type": "Feature"}
{"geometry": {"coordinates": [-94.105151004, 41.84181699], "type": "Point"}, "id": "B9RxqAM2UO-AP13vmCJ4g2r0vOE=", "properties": {"@spider": "usps_collection_boxes", "addr:city": "PERRY", "addr:country": "US", "addr:full": "1420 2ND ST", "addr:postcode": "50220", "addr:state": "IA", "amenity": "post_box", "brand": "United States Postal Service", "brand:wikidata": "Q668687", "collection_times": "Mo-Fr 17:00; Sa 15:00", "name": "USPS COLLECTION BOX - PO LOBBY", "note": "ON 12/24 AND 12/31, THIS BOX MAY BE COLLECTED AS EARLY AS 12 NOON.", "nsi_id": "unitedstatespostalservice-a77078", "operator": "United States Postal Service", "operator:short": "USPS", "operator:type": "public", "operator:wikidata": "Q668687", "ref": "5022000004"}, "type": "Feature"}
{"geometry": {"coordinates": [-94.105151004, 41.84181699], "type": "Point"}, "id": "1v6skpctXbjj2tGCYAbWOe8mkko=", "properties": {"@spider": "usps_collection_boxes", "addr:city": "PERRY", "addr:country": "US", "addr:full": "1420 2ND ST", "addr:postcode": "50220", "addr:state": "IA", "amenity": "post_box", "brand": "United States Postal Service", "brand:wikidata": "Q668687", "collection_times": "Mo-Fr 17:00; Sa 11:00", "name": "USPS COLLECTION BOX - PO LOBBY", "note": "ON 12/24 AND 12/31, THIS BOX MAY BE COLLECTED AS EARLY AS 12 NOON.", "nsi_id": "unitedstatespostalservice-a77078", "operator": "United States Postal Service", "operator:short": "USPS", "operator:type": "public", "operator:wikidata": "Q668687", "ref": "5022000005"}, "type": "Feature"}
{"geometry": {"coordinates": [-94.017764893, 42.162039], "type": "Point"}, "id": "Ip_QIvVlQ0hRlnCnlYhJ-n-rxDw=", "properties": {"@spider": "usps_collection_boxes", "addr:city": "PILOT MOUND", "addr:country": "US", "addr:full": "102 PILOT ST", "addr:postcode": "50223", "addr:state": "IA", "amenity": "post_box", "brand": "United States Postal Service", "brand:wikidata": "Q668687", "collection_times": "Mo-Sa 16:00", "name": "USPS COLLECTION BOX - BLUE BOX", "note": "ON 12/24 AND 12/31, THIS BOX MAY BE COLLECTED AS EARLY AS 12 NOON.", "nsi_id": "unitedstatespostalservice-a77078", "operator": "United States Postal Service", "operator:short": "USPS", "operator:type": "public", "operator:wikidata": "Q668687", "ref": "5022300001"}, "type": "Feature"}
{"geometry": {"coordinates": [-94.017764893, 42.162039], "type": "Point"}, "id": "UovRAFBU63ohjeu7bzMSBURw4kc=", "properties": {"@spider": "usps_collection_boxes", "addr:city": "PILOT MOUND", "addr:country": "US", "addr:full": "102 PILOT ST", "addr:postcode": "50223", "addr:state": "IA", "amenity": "post_box", "brand": "United States Postal Service", "brand:wikidata": "Q668687", "collection_times": "Mo-Fr 15:45", "name": "USPS COLLECTION BOX - PO LOBBY", "note": "ON 12/24 AND 12/31, THIS BOX MAY BE COLLECTED AS EARLY AS 12 NOON.", "nsi_id": "unitedstatespostalservice-a77078", "operator": "United States Postal Service", "operator:short": "USPS", "operator:type": "public", "operator:wikidata": "Q668687", "ref": "5022300002"}, "type": "Feature"}
{"geometry": {"coordinates": [-94.017764893, 42.162039], "type": "Point"}, "id": "JdgpVNoo19BvJkcSUQgwfSE5Pp8=", "properties": {"@spider": "usps_collection_boxes", "addr:city": "PILOT MOUND", "addr:country": "US", "addr:full": "102 PILOT ST", "addr:postcode": "50223", "addr:state": "IA", "amenity": "post_box", "brand": "United States Postal Service", "brand:wikidata": "Q668687", "collection_times": "Mo-Fr 16:00; Sa 14:00", "name": "USPS COLLECTION BOX - PO LOBBY", "note": "ON 12/24 AND 12/31, THIS BOX MAY BE COLLECTED AS EARLY AS 12 NOON.", "nsi_id": "unitedstatespostalservice-a77078", "operator": "United States Postal Service", "operator:short": "USPS", "operator:type": "public", "operator:wikidata": "Q668687", "ref": "5022300003"}, "type": "Feature"}
{"geometry": {"coordinates": [-93.712471269, 41.77311742], "type": "Point"}, "id": "lrJ_fTbWhYnIhsIMmcO6dldhgUA=", "properties": {"@spider": "usps_collection_boxes", "addr:city": "POLK CITY", "addr:country": "US", "addr:full": "302 N 3RD ST", "addr:postcode": "50226", "addr:state": "IA", "amenity": "post_box", "brand": "United States Postal Service", "brand:wikidata": "Q668687", "collection_times": "Mo-Fr 16:45", "name": "USPS COLLECTION BOX - PO LOBBY", "note": "ON 12/24 AND 12/31, THIS BOX MAY BE COLLECTED AS EARLY AS 12 NOON.", "nsi_id": "unitedstatespostalservice-a77078", "operator": "United States Postal Service", "operator:short": "USPS", "operator:type": "public", "operator:wikidata": "Q668687", "ref": "5022600002"}, "type": "Feature"}
{"geometry": {"coordinates": [-93.712471269, 41.77311742], "type": "Point"}, "id": "2K6AuynhgRYEcxVc6fVmENJ25Uk=", "properties": {"@spider": "usps_collection_boxes", "addr:city": "POLK CITY", "addr:country": "US", "addr:full": "302 N 3RD ST", "addr:postcode": "50226", "addr:state": "IA", "amenity": "post_box", "brand": "United States Postal Service", "brand:wikidata": "Q668687", "collection_times": "Mo-Fr 16:30; Sa 17:00", "name": "USPS COLLECTION BOX - BLUE BOX", "note": "ON 12/24 AND 12/31, THIS BOX MAY BE COLLECTED AS EARLY AS 12 NOON.", "nsi_id": "unitedstatespostalservice-a77078", "operator": "United States Postal Service", "operator:short": "USPS", "operator:type": "public", "operator:wikidata": "Q668687", "ref": "5022600004"}, "type": "Feature"}
{"geometry": {"coordinates": [-93.712471269, 41.77311742], "type": "Point"}, "id": "b3fRK-fzAjQFFwXm3g-hLdbeRwA=", "properties": {"@spider": "usps_collection_boxes", "addr:city": "POLK CITY", "addr:country": "US", "addr:full": "302 N 3RD ST", "addr:postcode": "50226", "addr:state": "IA", "amenity": "post_box", "brand": "United States Postal Service", "brand:wikidata": "Q668687", "collection_times": "Mo-Fr 16:30; Sa 09:30", "name": "USPS COLLECTION BOX - PO LOBBY", "note": "ON 12/24 AND 12/31, THIS BOX MAY BE COLLECTED AS EARLY AS 12 NOON.", "nsi_id": "unitedstatespostalservice-a77078", "operator": "United States Postal Service", "operator:short": "USPS", "operator:type": "public", "operator:wikidata": "Q668687", "ref": "5022600005"}, "type": "Feature"}
{"geometry": {"coordinates": [-93.602442861, 42.236677521], "type": "Point"}, "id": "gxQZZzwQo3n5FEdNsG1_lkaZV4U=", "properties": {"@spider": "usps_collection_boxes", "addr:city": "RANDALL", "addr:country": "US", "addr:full": "440 MAIN ST", "addr:postcode": "50231", "addr:state": "IA", "amenity": "post_box", "brand": "United States Postal Service", "brand:wikidata": "Q668687", "collection_times": "Mo-Fr 16:15; Sa 16:00", "name": "USPS COLLECTION BOX - BLUE BOX", "note": "ON 12/24 AND 12/31, THIS BOX MAY BE COLLECTED AS EARLY AS 12 NOON.", "nsi_id": "unitedstatespostalservice-a77078", "operator": "United States Postal Service", "operator:short": "USPS", "operator:type": "public", "operator:wikidata": "Q668687", "ref": "5023100001"}, "type": "Feature"}
{"geometry": {"coordinates": [-93.602442861, 42.236677521], "type": "Point"}, "id": "z-bSL5MUDB3wTmPS2PXZLerNtgI=", "properties": {"@spider": "usps_collection_boxes", "addr:city": "RANDALL", "addr:country": "US", "addr:full": "440 MAIN ST", "addr:postcode": "50231", "addr:state": "IA", "amenity": "post_box", "brand": "United States Postal Service", "brand:wikidata": "Q668687", "collection_times": "Mo-Fr 15:45; Sa 12:15", "name": "USPS COLLECTION BOX - PO LOBBY", "note": "ON 12/24 AND 12/31, THIS BOX MAY BE COLLECTED AS EARLY AS 12 NOON.", "nsi_id": "unitedstatespostalservice-a77078", "operator": "United States Postal Service", "operator:short": "USPS", "operator:type": "public", "operator:wikidata": "Q668687", "ref": "5023100002"}, "type": "Feature"}
{"geometry": {"coordinates": [-93.602442861, 42.236677521], "type": "Point"}, "id": "1hohJun2XFosqW43vaZONCHHH9o=", "properties": {"@spider": "usps_collection_boxes", "addr:city": "RANDALL", "addr:country": "US", "addr:full": "440 MAIN ST", "addr:postcode": "50231", "addr:state": "IA", "amenity": "post_box", "brand": "United States Postal Service", "brand:wikidata": "Q668687", "collection_times": "Mo-Fr 16:00; Sa 12:30", "name": "USPS COLLECTION BOX - PO LOBBY", "note": "ON 12/24 AND 12/31, THIS BOX MAY BE COLLECTED AS EARLY AS 12 NOON.", "nsi_id": "unitedstatespostalservice-a77078", "operator": "United States Postal Service", "operator:short": "USPS", "operator:type": "public", "operator:wikidata": "Q668687", "ref": "5023100003"}, "type": "Feature"}
{"geometry": {"coordinates": [-94.197000777, 41.590584547], "type": "Point"}, "id": "IrIn4ssTj7m7bmGT10u6POaIkAw=", "properties": {"@spider": "usps_collection_boxes", "addr:city": "REDFIELD", "addr:country": "US", "addr:full": "1106 THOMAS ST", "addr:postcode": "50233", "addr:state": "IA", "amenity": "post_box", "brand": "United States Postal Service", "brand:wikidata": "Q668687", "collection_times": "Mo-Sa 16:00", "name": "USPS COLLECTION BOX - BLUE BOX", "note": "ON 12/24 AND 12/31, THIS BOX MAY BE COLLECTED AS EARLY AS 12 NOON.", "nsi_id": "unitedstatespostalservice-a77078", "operator": "United States Postal Service", "operator:short": "USPS", "operator:type": "public", "operator:wikidata": "Q668687", "ref": "5023300001"}, "type": "Feature"}
{"geometry": {"coordinates": [-94.197000777, 41.590584547], "type": "Point"}, "id": "qR046WP6cF3Lnk2YNE2TXlznLdY=", "properties": {"@spider": "usps_collection_boxes", "addr:city": "REDFIELD", "addr:country": "US", "addr:full": "1106 THOMAS ST", "addr:postcode": "50233", "addr:state": "IA", "amenity": "post_box", "brand": "United States Postal Service", "brand:wikidata": "Q668687", "collection_times": "Mo-Fr 14:45", "name": "USPS COLLECTION BOX - PO LOBBY", "note": "ON 12/24 AND 12/31, THIS BOX MAY BE COLLECTED AS EARLY AS 12 NOON.", "nsi_id": "unitedstatespostalservice-a77078", "operator": "United States Postal Service", "operator:short": "USPS", "operator:type": "public", "operator:wikidata": "Q668687", "ref": "5023300002"}, "type": "Feature"}
{"geometry": {"coordinates": [-94.197000777, 41.590584547], "type": "Point"}, "id": "0TQ2uXhWenAeDWPi7peaXJ9D6uU=", "properties": {"@spider": "usps_collection_boxes", "addr:city": "REDFIELD", "addr:country": "US", "addr:full": "1106 THOMAS ST", "addr:postcode": "50233", "addr:state": "IA", "amenity": "post_box", "brand": "United States Postal Service", "brand:wikidata": "Q668687", "collection_times": "Mo-Fr 15:00; Sa 10:00", "name": "USPS COLLECTION BOX - PO LOBBY", "note": "ON 12/24 AND 12/31, THIS BOX MAY BE COLLECTED AS EARLY AS 12 NOON.", "nsi_id": "unitedstatespostalservice-a77078", "operator": "United States Postal Service", "operator:short": "USPS", "operator:type": "public", "operator:wikidata": "Q668687", "ref": "5023300003"}, "type": "Feature"}
{"geometry": {"coordinates": [-94.199913, 41.934501547], "type": "Point"}, "id": "vFrd213A5NqPqBPX0Jiwlt_6bYQ=", "properties": {"@spider": "usps_collection_boxes", "addr:city": "RIPPEY", "addr:country": "US", "addr:full": "315 MAIN ST", "addr:postcode": "50235", "addr:state": "IA", "amenity": "post_box", "brand": "United States Postal Service", "brand:wikidata": "Q668687", "collection_times": "Mo-Sa 15:00", "name": "USPS COLLECTION BOX - BLUE BOX", "note": "ON 12/24 AND 12/31, THIS BOX MAY BE COLLECTED AS EARLY AS 12 NOON.", "nsi_id": "unitedstatespostalservice-a77078", "operator": "United States Postal Service", "operator:short": "USPS", "operator:type": "public", "operator:wikidata": "Q668687", "ref": "5023500001"}, "type": "Feature"}
{"geometry": {"coordinates": [-94.199913, 41.934501547], "type": "Point"}, "id": "g3zC8Pc4A8mYT4ZzXCi4qE7pQ7w=", "properties": {"@spider": "usps_collection_boxes", "addr:city": "RIPPEY", "addr:country": "US", "addr:full": "315 MAIN ST", "addr:postcode": "50235", "addr:state": "IA", "amenity": "post_box", "brand": "United States Postal Service", "brand:wikidata": "Q668687", "collection_times": "Mo-Sa 15:00", "name": "USPS COLLECTION BOX - PO LOBBY", "note": "ON 12/24 AND 12/31, THIS BOX MAY BE COLLECTED AS EARLY AS 12 NOON.", "nsi_id": "unitedstatespostalservice-a77078", "operator": "United States Postal Service", "operator:short": "USPS", "operator:type": "public", "operator:wikidata": "Q668687", "ref": "5023500002"}, "type": "Feature"}
{"geometry": {"coordinates": [-94.199913, 41.934501547], "type": "Point"}, "id": "tyAnJ_uGQ-9kBs9HJyaTXShwOhQ=", "properties": {"@spider": "usps_collection_boxes", "addr:city": "RIPPEY", "addr:country": "US", "addr:full": "315 MAIN ST", "addr:postcode": "50235", "addr:state": "IA", "amenity": "post_box", "brand": "United States Postal Service", "brand:wikidata": "Q668687", "collection_times": "Mo-Sa 15:00", "name": "USPS COLLECTION BOX - PO LOBBY", "note": "ON 12/24 AND 12/31, THIS BOX MAY BE COLLECTED AS EARLY AS 12 NOON.", "nsi_id": "unitedstatespostalservice-a77078", "operator": "United States Postal Service", "operator:short": "USPS", "operator:type": "public", "operator:wikidata": "Q668687", "ref": "5023500003"}, "type": "Feature"}
{"geometry": {"coordinates": [-93.693763321, 41.863254933], "type": "Point"}, "id": "ZvkazzZjv8n-n2HRuwwMfjjnPvI=", "properties": {"@spider": "usps_collection_boxes", "addr:city": "SHELDAHL", "addr:country": "US", "addr:full": "106 COUNTY AVE", "addr:postcode": "50243", "addr:state": "IA", "amenity": "post_box", "brand": "United States Postal Service", "brand:wikidata": "Q668687", "collection_times": "Mo-Sa 16:00", "name": "USPS COLLECTION BOX - BLUE BOX", "note": "ON 12/24 AND 12/31, THIS BOX MAY BE COLLECTED AS EARLY AS 12 NOON.", "nsi_id": "unitedstatespostalservice-a77078", "operator": "United States Postal Service", "operator:short": "USPS", "operator:type": "public", "operator:wikidata": "Q668687", "ref": "5024300001"}, "type": "Feature"}
{"geometry": {"coordinates": [-93.693763321, 41.863254933], "type": "Point"}, "id": "na1Z4sm6VnIaEa20b1Tbs3ErzlM=", "properties": {"@spider": "usps_collection_boxes", "addr:city": "SHELDAHL", "addr:country": "US", "addr:full": "106 COUNTY AVE", "addr:postcode": "50243", "addr:state": "IA", "amenity": "post_box", "brand": "United States Postal Service", "brand:wikidata": "Q668687", "collection_times": "Mo-Fr 16:00; Sa 13:45", "name": "USPS COLLECTION BOX - PO LOBBY", "note": "ON 12/24 AND 12/31, THIS BOX MAY BE COLLECTED AS EARLY AS 12 NOON.", "nsi_id": "unitedstatespostalservice-a77078", "operator": "United States Postal Service", "operator:short": "USPS", "operator:type": "public", "operator:wikidata": "Q668687", "ref": "5024300002"}, "type": "Feature"}
{"geometry": {"coordinates": [-93.693763321, 41.863254933], "type": "Point"}, "id": "61_gUezV_B5uATBc0MwMJ3jUl4Q=", "properties": {"@spider": "usps_collection_boxes", "addr:city": "SHELDAHL", "addr:country": "US", "addr:full": "106 COUNTY AVE", "addr:postcode": "50243", "addr:state": "IA", "amenity": "post_box", "brand": "United States Postal Service", "brand:wikidata": "Q668687", "collection_times": "Mo-Fr 15:45; Sa 13:30", "name": "USPS COLLECTION BOX - PO LOBBY", "note": "ON 12/24 AND 12/31, THIS BOX MAY BE COLLECTED AS EARLY AS 12 NOON.", "nsi_id": "unitedstatespostalservice-a77078", "operator": "United States Postal Service", "operator:short": "USPS", "operator:type": "public", "operator:wikidata": "Q668687", "ref": "5024300003"}, "type": "Feature"}
{"geometry": {"coordinates": [-93.683249832, 41.882717496], "type": "Point"}, "id": "ybFBVxgklzQNBewJUBePWJINxkg=", "properties": {"@spider": "usps_collection_boxes", "addr:city": "SLATER", "addr:country": "US", "addr:full": "422 MAIN ST", "addr:postcode": "50244", "addr:state": "IA", "amenity": "post_box", "brand": "United States Postal Service", "brand:wikidata": "Q668687", "collection_times": "Mo-Fr 16:30", "name": "USPS COLLECTION BOX - PO LOBBY", "note": "ON 12/24 AND 12/31, THIS BOX MAY BE COLLECTED AS EARLY AS 12 NOON.", "nsi_id": "unitedstatespostalservice-a77078", "operator": "United States Postal Service", "operator:short": "USPS", "operator:type": "public", "operator:wikidata": "Q668687", "ref": "5024400001"}, "type": "Feature"}
{"geometry": {"coordinates": [-93.683249832, 41.882717496], "type": "Point"}, "id": "4DRNz-m-LTjTQZsXB9jEvNf_mWo=", "properties": {"@spider": "usps_collection_boxes", "addr:city": "SLATER", "addr:country": "US", "addr:full": "422 MAIN ST", "addr:postcode": "50244", "addr:state": "IA", "amenity": "post_box", "brand": "United States Postal Service", "brand:wikidata": "Q668687", "collection_times": "Mo-Sa 16:30", "name": "USPS COLLECTION BOX - BLUE BOX", "note": "ON 12/24 AND 12/31, THIS BOX MAY BE COLLECTED AS EARLY AS 12 NOON.", "nsi_id": "unitedstatespostalservice-a77078", "operator": "United States Postal Service", "operator:short": "USPS", "operator:type": "public", "operator:wikidata": "Q668687", "ref": "5024400003"}, "type": "Feature"}
{"geometry": {"coordinates": [-93.683249832, 41.882717496], "type": "Point"}, "id": "NBIdaYDqwcLhDdk-YM-KKv_XJh4=", "properties": {"@spider": "usps_collection_boxes", "addr:city": "SLATER", "addr:country": "US", "addr:full": "422 MAIN ST", "addr:postcode": "50244", "addr:state": "IA", "amenity": "post_box", "brand": "United States Postal Service", "brand:wikidata": "Q668687", "collection_times": "Mo-Fr 16:30; Sa 11:30", "name": "USPS COLLECTION BOX - PO LOBBY", "note": "ON 12/24 AND 12/31, THIS BOX MAY BE COLLECTED AS EARLY AS 12 NOON.", "nsi_id": "unitedstatespostalservice-a77078", "operator": "United States Postal Service", "operator:short": "USPS", "operator:type": "public", "operator:wikidata": "Q668687", "ref": "5024400004"}, "type": "Feature"}
{"geometry": {"coordinates": [-93.796038176, 42.289776], "type": "Point"}, "id": "LYaFjM5guLadS2i-qUPrnap9lcw=", "properties": {"@spider": "usps_collection_boxes", "addr:city": "STANHOPE", "addr:country": "US", "addr:full": "605 PARKER ST", "addr:postcode": "50246", "addr:state": "IA", "amenity": "post_box", "brand": "United States Postal Service", "brand:wikidata": "Q668687", "collection_times": "Mo-Sa 16:15", "name": "USPS COLLECTION BOX - BLUE BOX", "note": "ON 12/24 AND 12/31, THIS BOX MAY BE COLLECTED AS EARLY AS 12 NOON.", "nsi_id": "unitedstatespostalservice-a77078", "operator": "United States Postal Service", "operator:short": "USPS", "operator:type": "public", "operator:wikidata": "Q668687", "ref": "5024600001"}, "type": "Feature"}
{"geometry": {"coordinates": [-93.796038176, 42.289776], "type": "Point"}, "id": "KvRl4oNxKblHxud9w_8oCYxPSrs=", "properties": {"@spider": "usps_collection_boxes", "addr:city": "STANHOPE", "addr:country": "US", "addr:full": "605 PARKER ST", "addr:postcode": "50246", "addr:state": "IA", "amenity": "post_box", "brand": "United States Postal Service", "brand:wikidata": "Q668687", "collection_times": "Mo-Fr 11:15", "name": "USPS COLLECTION BOX - PO LOBBY", "nsi_id": "unitedstatespostalservice-a77078", "operator": "United States Postal Service", "operator:short": "USPS", "operator:type": "public", "operator:wikidata": "Q668687", "ref": "5024600002"}, "type": "Feature"}
{"geometry": {"coordinates": [-93.796038176, 42.289776], "type": "Point"}, "id": "Y0LU475FXwIM_7Vw4hMto_UozAw=", "properties": {"@spider": "usps_collection_boxes", "addr:city": "STANHOPE", "addr:country": "US", "addr:full": "605 PARKER ST", "addr:postcode": "50246", "addr:state": "IA", "amenity": "post_box", "brand": "United States Postal Service", "brand:wikidata": "Q668687", "collection_times": "Mo-Fr 11:30; Sa 08:30", "name": "USPS COLLECTION BOX - PO LOBBY", "nsi_id": "unitedstatespostalservice-a77078", "operator": "United States Postal Service", "operator:short": "USPS", "operator:type": "public", "operator:wikidata": "Q668687", "ref": "5024600003"}, "type": "Feature"}
{"geometry": {"coordinates": [-93.595212168, 42.187117472], "type": "Point"}, "id": "ytxIoC8mUEWgVgguKC0yZR0SP40=", "properties": {"@spider": "usps_collection_boxes", "addr:city": "STORY CITY", "addr:country": "US", "addr:full": "613 BROAD ST", "addr:postcode": "50248", "addr:state": "IA", "amenity": "post_box", "brand": "United States Postal Service", "brand:wikidata": "Q668687", "collection_times": "Mo-Fr 16:45; Sa 17:00", "name": "USPS COLLECTION BOX - BLUE BOX", "note": "ON 12/24 AND 12/31, THIS BOX MAY BE COLLECTED AS EARLY AS 12 NOON.", "nsi_id": "unitedstatespostalservice-a77078", "operator": "United States Postal Service", "operator:short": "USPS", "operator:type": "public", "operator:wikidata": "Q668687", "ref": "5024800004"}, "type": "Feature"}
{"geometry": {"coordinates": [-93.595212168, 42.187117472], "type": "Point"}, "id": "uRu7OYj785Q51vU4tV9zHHjsnaY=", "properties": {"@spider": "usps_collection_boxes", "addr:city": "STORY CITY", "addr:country": "US", "addr:full": "613 BROAD ST", "addr:postcode": "50248", "addr:state": "IA", "amenity": "post_box", "brand": "United States Postal Service", "brand:wikidata": "Q668687", "collection_times": "Mo-Fr 17:00; Sa 12:00", "name": "USPS COLLECTION BOX - PO LOBBY", "note": "ON 12/24 AND 12/31, THIS BOX MAY BE COLLECTED AS EARLY AS 12 NOON.", "nsi_id": "unitedstatespostalservice-a77078", "operator": "United States Postal Service", "operator:short": "USPS", "operator:type": "public", "operator:wikidata": "Q668687", "ref": "5024800009"}, "type": "Feature"}
{"geometry": {"coordinates": [-93.595212168, 42.187117472], "type": "Point"}, "id": "ywVxJHT6MVsJDzLUehJrW4bsF8Q=", "properties": {"@spider": "usps_collection_boxes", "addr:city": "STORY CITY", "addr:country": "US", "addr:full": "613 BROAD ST", "addr:postcode": "50248", "addr:state": "IA", "amenity": "post_box", "brand": "United States Postal Service", "brand:wikidata": "Q668687", "collection_times": "Mo-Fr 17:00; Sa 12:00", "name": "USPS COLLECTION BOX - PO LOBBY", "note": "ON 12/24 AND 12/31, THIS BOX MAY BE COLLECTED AS EARLY AS 12 NOON.", "nsi_id": "unitedstatespostalservice-a77078", "operator": "United States Postal Service", "operator:short": "USPS", "operator:type": "public", "operator:wikidata": "Q668687", "ref": "5024800010"}, "type": "Feature"}
{"geometry": {"coordinates": [-93.927096364, 42.270102], "type": "Point"}, "id": "2oJFfA6AwTmthpQXm3jx4LkNTCQ=", "properties": {"@spider": "usps_collection_boxes", "addr:city": "STRATFORD", "addr:country": "US", "addr:full": "720 SHAKESPEARE AVE", "addr:postcode": "50249", "addr:state": "IA", "amenity": "post_box", "brand": "United States Postal Service", "brand:wikidata": "Q668687", "collection_times": "Mo-Sa 16:00", "name": "USPS COLLECTION BOX - BLUE BOX", "note": "ON 12/24 AND 12/31, THIS BOX MAY BE COLLECTED AS EARLY AS 12 NOON.", "nsi_id": "unitedstatespostalservice-a77078", "operator": "United States Postal Service", "operator:short": "USPS", "operator:type": "public", "operator:wikidata": "Q668687", "ref": "5024900001"}, "type": "Feature"}
{"geometry": {"coordinates": [-93.927096364, 42.270102], "type": "Point"}, "id": "xx0UaAMDdmKr4T-7spIRJJW9wtk=", "properties": {"@spider": "usps_collection_boxes", "addr:city": "STRATFORD", "addr:country": "US", "addr:full": "720 SHAKESPEARE AVE", "addr:postcode": "50249", "addr:state": "IA", "amenity": "post_box", "brand": "United States Postal Service", "brand:wikidata": "Q668687", "collection_times": "Mo-Fr 14:15", "name": "USPS COLLECTION BOX - PO LOBBY", "note": "ON 12/24 AND 12/31, THIS BOX MAY BE COLLECTED AS EARLY AS 12 NOON.", "nsi_id": "unitedstatespostalservice-a77078", "operator": "United States Postal Service", "operator:short": "USPS", "operator:type": "public", "operator:wikidata": "Q668687", "ref": "5024900002"}, "type": "Feature"}
{"geometry": {"coordinates": [-93.927096364, 42.270102], "type": "Point"}, "id": "kWtOgTYvmQrxfaGWbBnbAj6VnIU=", "properties": {"@spider": "usps_collection_boxes", "addr:city": "STRATFORD", "addr:country": "US", "addr:full": "720 SHAKESPEARE AVE", "addr:postcode": "50249", "addr:state": "IA", "amenity": "post_box", "brand": "United States Postal Service", "brand:wikidata": "Q668687", "collection_times": "Mo-Fr 14:30; Sa 09:45", "name": "USPS COLLECTION BOX - PO LOBBY", "note": "ON 12/24 AND 12/31, THIS BOX MAY BE COLLECTED AS EARLY AS 12 NOON.", "nsi_id": "unitedstatespostalservice-a77078", "operator": "United States Postal Service", "operator:short": "USPS", "operator:type": "public", "operator:wikidata": "Q668687", "ref": "5024900003"}, "type": "Feature"}
{"geometry": {"coordinates": [-94.316463, 41.504861496], "type": "Point"}, "id": "EJ1Lh6rneMTWias210nl0hncdks=", "properties": {"@spider": "usps_collection_boxes", "addr:city": "STUART", "addr:country": "US", "addr:full": "208 NE 2ND ST", "addr:postcode": "50250", "addr:state": "IA", "amenity": "post_box", "brand": "United States Postal Service", "brand:wikidata": "Q668687", "collection_times": "Mo-Fr 16:30; Sa 17:00", "name": "USPS COLLECTION BOX - BLUE BOX", "note": "ON 12/24 AND 12/31, THIS BOX MAY BE COLLECTED AS EARLY AS 12 NOON.", "nsi_id": "unitedstatespostalservice-a77078", "operator": "United States Postal Service", "operator:short": "USPS", "operator:type": "public", "operator:wikidata": "Q668687", "ref": "5025000003"}, "type": "Feature"}
{"geometry": {"coordinates": [-94.316463, 41.504861496], "type": "Point"}, "id": "SHm7TF-UVwlwvBayLbTllrBzXS4=", "properties": {"@spider": "usps_collection_boxes", "addr:city": "STUART", "addr:country": "US", "addr:full": "208 NE 2ND ST", "addr:postcode": "50250", "addr:state": "IA", "amenity": "post_box", "brand": "United States Postal Service", "brand:wikidata": "Q668687", "collection_times": "Mo-Fr 16:30; Sa 10:30", "name": "USPS COLLECTION BOX - PO LOBBY", "note": "ON 12/24 AND 12/31, THIS BOX MAY BE COLLECTED AS EARLY AS 12 NOON.", "nsi_id": "unitedstatespostalservice-a77078", "operator": "United States Postal Service", "operator:short": "USPS", "operator:type": "public", "operator:wikidata": "Q668687", "ref": "5025000006"}, "type": "Feature"}
{"geometry": {"coordinates": [-94.316463, 41.504861496], "type": "Point"}, "id": "Hevv5bW1owqRDfDiSOTDVb2Pijk=", "properties": {"@spider": "usps_collection_boxes", "addr:city": "STUART", "addr:country": "US", "addr:full": "208 NE 2ND ST", "addr:postcode": "50250", "addr:state": "IA", "amenity": "post_box", "brand": "United States Postal Service", "brand:wikidata": "Q668687", "collection_times": "Mo-Fr 16:30; Sa 10:30", "name": "USPS COLLECTION BOX - PO LOBBY", "note": "ON 12/24 AND 12/31, THIS BOX MAY BE COLLECTED AS EARLY AS 12 NOON.", "nsi_id": "unitedstatespostalservice-a77078", "operator": "United States Postal Service", "operator:short": "USPS", "operator:type": "public", "operator:wikidata": "Q668687", "ref": "5025000007"}, "type": "Feature"}
{"geometry": {"coordinates": [-93.544633878, 42.487615205], "type": "Point"}, "id": "GA6dS5YBQdxamHtdf1iU1ZaOrqE=", "properties": {"@spider": "usps_collection_boxes", "addr:city": "WILLIAMS", "addr:country": "US", "addr:full": "208 MAIN ST", "addr:postcode": "50271", "addr:state": "IA", "amenity": "post_box", "brand": "United States Postal Service", "brand:wikidata": "Q668687", "collection_times": "Mo-Sa 15:30", "name": "USPS COLLECTION BOX - BLUE BOX", "note": "ON 12/24 AND 12/31, THIS BOX MAY BE COLLECTED AS EARLY AS 12 NOON.", "nsi_id": "unitedstatespostalservice-a77078", "operator": "United States Postal Service", "operator:short": "USPS", "operator:type": "public", "operator:wikidata": "Q668687", "ref": "5027100001"}, "type": "Feature"}
{"geometry": {"coordinates": [-93.544633878, 42.487615205], "type": "Point"}, "id": "J0oQFj47H3BRw0L69ydfXZsc67s=", "properties": {"@spider": "usps_collection_boxes", "addr:city": "WILLIAMS", "addr:country": "US", "addr:full": "208 MAIN ST", "addr:postcode": "50271", "addr:state": "IA", "amenity": "post_box", "brand": "United States Postal Service", "brand:wikidata": "Q668687", "collection_times": "Mo-Fr 11:45; Sa 09:30", "name": "USPS COLLECTION BOX - PO LOBBY", "nsi_id": "unitedstatespostalservice-a77078", "operator": "United States Postal Service", "operator:short": "USPS", "operator:type": "public", "operator:wikidata": "Q668687", "ref": "5027100002"}, "type": "Feature"}
{"geometry": {"coordinates": [-93.544633878, 42.487615205], "type": "Point"}, "id": "GE8KWTvihYgdy6g3dBD5XakD4kk=", "properties": {"@spider": "usps_collection_boxes", "addr:city": "WILLIAMS", "addr:country": "US", "addr:full": "208 MAIN ST", "addr:postcode": "50271", "addr:state": "IA", "amenity": "post_box", "brand": "United States Postal Service", "brand:wikidata": "Q668687", "collection_times": "Mo-Fr 12:00; Sa 09:45", "name": "USPS COLLECTION BOX - PO LOBBY", "nsi_id": "unitedstatespostalservice-a77078", "operator": "United States Postal Service", "operator:short": "USPS", "operator:type": "public", "operator:wikidata": "Q668687", "ref": "5027100003"}, "type": "Feature"}
{"geometry": {"coordinates": [-94.890792861, 41.403579504], "type": "Point"}, "id": "XCLKXK9SlMM94MOZfAJLvQD8wiA=", "properties": {"@spider": "usps_collection_boxes", "addr:city": "WIOTA", "addr:country": "US", "addr:full": "405 PIONEER AVE", "addr:postcode": "50274", "addr:state": "IA", "amenity": "post_box", "brand": "United States Postal Service", "brand:wikidata": "Q668687", "collection_times": "Mo-Sa 16:45", "name": "USPS COLLECTION BOX - BLUE BOX", "note": "ON 12/24 AND 12/31, THIS BOX MAY BE COLLECTED AS EARLY AS 12 NOON.", "nsi_id": "unitedstatespostalservice-a77078", "operator": "United States Postal Service", "operator:short": "USPS", "operator:type": "public", "operator:wikidata": "Q668687", "ref": "5027400001"}, "type": "Feature"}
{"geometry": {"coordinates": [-94.890792861, 41.403579504], "type": "Point"}, "id": "05uO_FHEz0uvViOUxedDeT2nQ0w=", "properties": {"@spider": "usps_collection_boxes", "addr:city": "WIOTA", "addr:country": "US", "addr:full": "405 PIONEER AVE", "addr:postcode": "50274", "addr:state": "IA", "amenity": "post_box", "brand": "United States Postal Service", "brand:wikidata": "Q668687", "collection_times": "Mo-Sa 11:45", "name": "USPS COLLECTION BOX - PO LOBBY", "nsi_id": "unitedstatespostalservice-a77078", "operator": "United States Postal Service", "operator:short": "USPS", "operator:type": "public", "operator:wikidata": "Q668687", "ref": "5027400002"}, "type": "Feature"}
{"geometry": {"coordinates": [-94.890792861, 41.403579504], "type": "Point"}, "id": "Md8fyIsiEqNJvrE2btFH0QI4FKI=", "properties": {"@spider": "usps_collection_boxes", "addr:city": "WIOTA", "addr:country": "US", "addr:full": "405 PIONEER AVE", "addr:postcode": "50274", "addr:state": "IA", "amenity": "post_box", "brand": "United States Postal Service", "brand:wikidata": "Q668687", "collection_times": "Mo-Sa 11:30", "name": "USPS COLLECTION BOX - PO LOBBY", "nsi_id": "unitedstatespostalservice-a77078", "operator": "United States Postal Service", "operator:short": "USPS", "operator:type": "public", "operator:wikidata": "Q668687", "ref": "5027400003"}, "type": "Feature"}
{"geometry": {"coordinates": [-93.922057396, 41.856246671], "type": "Point"}, "id": "QSFxablln1UzOQPwblu1_JxqINw=", "properties": {"@spider": "usps_collection_boxes", "addr:city": "WOODWARD", "addr:country": "US", "addr:full": "212 S MAIN ST", "addr:postcode": "50276", "addr:state": "IA", "amenity": "post_box", "brand": "United States Postal Service", "brand:wikidata": "Q668687", "collection_times": "Mo-Fr 16:30; Sa 17:00", "name": "USPS COLLECTION BOX - BLUE BOX", "note": "ON 12/24 AND 12/31, THIS BOX MAY BE COLLECTED AS EARLY AS 12 NOON.", "nsi_id": "unitedstatespostalservice-a77078", "operator": "United States Postal Service", "operator:short": "USPS", "operator:type": "public", "operator:wikidata": "Q668687", "ref": "5027600001"}, "type": "Feature"}
{"geometry": {"coordinates": [-93.922057396, 41.856246671], "type": "Point"}, "id": "a9YotxZlBlol7OrTPwNHt1HF-E0=", "properties": {"@spider": "usps_collection_boxes", "addr:city": "WOODWARD", "addr:country": "US", "addr:full": "212 S MAIN ST", "addr:postcode": "50276", "addr:state": "IA", "amenity": "post_box", "brand": "United States Postal Service", "brand:wikidata": "Q668687", "collection_times": "Mo-Fr 16:30; Sa 10:15", "name": "USPS COLLECTION BOX - PO LOBBY", "note": "ON 12/24 AND 12/31, THIS BOX MAY BE COLLECTED AS EARLY AS 12 NOON.", "nsi_id": "unitedstatespostalservice-a77078", "operator": "United States Postal Service", "operator:short": "USPS", "operator:type": "public", "operator:wikidata": "Q668687", "ref": "5027600002"}, "type": "Feature"}
{"geometry": {"coordinates": [-93.922057396, 41.856246671], "type": "Point"}, "id": "l4ZA-342NNWZJRNLWFwSAbDkUUI=", "properties": {"@spider": "usps_collection_boxes", "addr:city": "WOODWARD", "addr:country": "US", "addr:full": "212 S MAIN ST", "addr:postcode": "50276", "addr:state": "IA", "amenity": "post_box", "brand": "United States Postal Service", "brand:wikidata": "Q668687", "collection_times": "Mo-Fr 16:30; Sa 10:15", "name": "USPS COLLECTION BOX - PO LOBBY", "note": "ON 12/24 AND 12/31, THIS BOX MAY BE COLLECTED AS EARLY AS 12 NOON.", "nsi_id": "unitedstatespostalservice-a77078", "operator": "United States Postal Service", "operator:short": "USPS", "operator:type": "public", "operator:wikidata": "Q668687", "ref": "5027600003"}, "type": "Feature"}
{"geometry": {"coordinates": [-94.354922244, 41.775597558], "type": "Point"}, "id": "axGBYA7FkC6DB2KK66CfxaZTjxE=", "properties": {"@spider": "usps_collection_boxes", "addr:city": "YALE", "addr:country": "US", "addr:full": "211 MAIN ST", "addr:postcode": "50277", "addr:state": "IA", "amenity": "post_box", "brand": "United States Postal Service", "brand:wikidata": "Q668687", "collection_times": "Mo-Sa 16:15", "name": "USPS COLLECTION BOX - BLUE BOX", "note": "ON 12/24 AND 12/31, THIS BOX MAY BE COLLECTED AS EARLY AS 12 NOON.", "nsi_id": "unitedstatespostalservice-a77078", "operator": "United States Postal Service", "operator:short": "USPS", "operator:type": "public", "operator:wikidata": "Q668687", "ref": "5027700001"}, "type": "Feature"}
{"geometry": {"coordinates": [-94.354922244, 41.775597558], "type": "Point"}, "id": "RIKaBGu2TrAMTI-tL_aNHINacvg=", "properties": {"@spider": "usps_collection_boxes", "addr:city": "YALE", "addr:country": "US", "addr:full": "211 MAIN ST", "addr:postcode": "50277", "addr:state": "IA", "amenity": "post_box", "brand": "United States Postal Service", "brand:wikidata": "Q668687", "collection_times": "Mo-Fr 15:45", "name": "USPS COLLECTION BOX - PO LOBBY", "note": "ON 12/24 AND 12/31, THIS BOX MAY BE COLLECTED AS EARLY AS 12 NOON.", "nsi_id": "unitedstatespostalservice-a77078", "operator": "United States Postal Service", "operator:short": "USPS", "operator:type": "public", "operator:wikidata": "Q668687", "ref": "5027700002"}, "type": "Feature"}
{"geometry": {"coordinates": [-94.354922244, 41.775597558], "type": "Point"}, "id": "y3LAF2aUFQKe4PMSWn09vFkHrxw=", "properties": {"@spider": "usps_collection_boxes", "addr:city": "YALE", "addr:country": "US", "addr:full": "211 MAIN ST", "addr:postcode": "50277", "addr:state": "IA", "amenity": "post_box", "brand": "United States Postal Service", "brand:wikidata": "Q668687", "collection_times": "Mo-Fr 16:00; Sa 08:00", "name": "USPS COLLECTION BOX - PO LOBBY", "note": "ON 12/24 AND 12/31, THIS BOX MAY BE COLLECTED AS EARLY AS 12 NOON.", "nsi_id": "unitedstatespostalservice-a77078", "operator": "United States Postal Service", "operator:short": "USPS", "operator:type": "public", "operator:wikidata": "Q668687", "ref": "5027700003"}, "type": "Feature"}
