{"dataset_attributes": {"@spider": "usps_collection_boxes", "spider:collection_time": "2023-12-13T08:25:56.872100"}, "geometry": {"coordinates": [-93.631351835, 41.593443461], "type": "Point"}, "id": "eMPKzI2ZWq5L6BdCLVaOhk8OOkg=", "properties": {"@spider": "usps_collection_boxes", "addr:city": "DES MOINES", "addr:country": "US", "addr:full": "1101 CROCKER ST", "addr:postcode": "50309", "addr:state": "IA", "amenity": "post_box", "brand": "United States Postal Service", "brand:wikidata": "Q668687", "collection_times": "Mo-Sa 11:00", "name": "USPS COLLECTION BOX - BLUE BOX", "nsi_id": "unitedstatespostalservice-a77078", "operator": "United States Postal Service", "operator:short": "USPS", "operator:type": "public", "operator:wikidata": "Q668687", "ref": "5030900003"}, "type": "Feature"}
{"dataset_attributes": {"@spider": "usps_collection_boxes", "spider:collection_time": "2023-12-13T08:25:56.872100"}, "geometry": {"coordinates": [-93.6228659626, 41.5841870157], "type": "Point"}, "id": "MWB9oSgMS4o8Ew2pstOYfoAMdBQ=", "properties": {"@spider": "usps_collection_boxes", "addr:city": "DES MOINES", "addr:country": "US", "addr:full": "500 CHERRY ST", "addr:postcode": "50309", "addr:state": "IA", "amenity": "post_box", "brand": "United States Postal Service", "brand:wikidata": "Q668687", "collection_times": "Mo-Fr 15:00", "name": "USPS COLLECTION BOX - BLUE BOX", "note": "ON 12/24 AND 12/31, THIS BOX MAY BE COLLECTED AS EARLY AS 12 NOON.", "nsi_id": "unitedstatespostalservice-a77078", "operator": "United States Postal Service", "operator:short": "USPS", "operator:type": "public", "operator:wikidata": "Q668687", "ref": "5030900008"}, "type": "Feature"}
{"dataset_attributes": {"@spider": "usps_collection_boxes", "spider:collection_time": "2023-12-13T08:25:56.872100"}, "geometry": {"coordinates": [-93.621852, 41.589723497], "type": "Point"}, "id": "m0AUr-yok1aJBOIMETIRTu-PimM=", "properties": {"@spider": "usps_collection_boxes", "addr:city": "DES MOINES", "addr:country": "US", "addr:full": "303 WATSON POWELL JR WAY", "addr:postcode": "50309", "addr:state": "IA", "amenity": "post_box", "brand": "United States Postal Service", "brand:wikidata": "Q668687", "collection_times": "Mo-Fr 13:00", "name": "USPS COLLECTION BOX - BLUE BOX", "note": "ON 12/24 AND 12/31, THIS BOX MAY BE COLLECTED AS EARLY AS 12 NOON.", "nsi_id": "unitedstatespostalservice-a77078", "operator": "United States Postal Service", "operator:short": "USPS", "operator:type": "public", "operator:wikidata": "Q668687", "ref": "5030900014"}, "type": "Feature"}
{"dataset_attributes": {"@spider": "usps_collection_boxes", "spider:collection_time": "2023-12-13T08:25:56.872100"}, "geometry": {"coordinates": [-93.629357872, 41.584405693], "type": "Point"}, "id": "fKHm-sJ4f_s3E9lcL-XfENo5IrM=", "properties": {"@spider": "usps_collection_boxes", "addr:city": "DES MOINES", "addr:country": "US", "addr:full": "215 10TH ST", "addr:postcode": "50309", "addr:state": "IA", "amenity": "post_box", "brand": "United States Postal Service", "brand:wikidata": "Q668687", "collection_times": "Mo-Fr 13:00", "name": "USPS COLLECTION BOX - BLUE BOX", "note": "ON 12/24 AND 12/31, THIS BOX MAY BE COLLECTED AS EARLY AS 12 NOON.", "nsi_id": "unitedstatespostalservice-a77078", "operator": "United States Postal Service", "operator:short": "USPS", "operator:type": "public", "operator:wikidata": "Q668687", "ref": "5030900017"}, "type": "Feature"}
{"dataset_attributes": {"@spider": "usps_collection_boxes", "spider:collection_time": "2023-12-13T08:25:56.872100"}, "geometry": {"coordinates": [-93.634285871, 41.583827125], "type": "Point"}, "id": "kIOnqAAYleeA_k-r6pn4dZJCqYQ=", "properties": {"@spider": "usps_collection_boxes", "addr:city": "DES MOINES", "addr:country": "US", "addr:full": "1321 WALNUT ST", "addr:postcode": "50309", "addr:state": "IA", "amenity": "post_box", "brand": "United States Postal Service", "brand:wikidata": "Q668687", "collection_times": "Mo-Fr 14:00", "name": "USPS COLLECTION BOX - BLUE BOX", "note": "ON 12/24 AND 12/31, THIS BOX MAY BE COLLECTED AS EARLY AS 12 NOON.", "nsi_id": "unitedstatespostalservice-a77078", "operator": "United States Postal Service", "operator:short": "USPS", "operator:type": "public", "operator:wikidata": "Q668687", "ref": "5030900025"}, "type": "Feature"}
{"dataset_attributes": {"@spider": "usps_collection_boxes", "spider:collection_time": "2023-12-13T08:25:56.872100"}, "geometry": {"coordinates": [-93.61276924, 41.577460465], "type": "Point"}, "id": "miykj788b9CbQe6NsO6VJ6XKolQ=", "properties": {"@spider": "usps_collection_boxes", "addr:city": "DES MOINES", "addr:country": "US", "addr:full": "602 SE 1ST ST", "addr:postcode": "50309", "addr:state": "IA", "amenity": "post_box", "brand": "United States Postal Service", "brand:wikidata": "Q668687", "collection_times": "Mo-Fr 11:00", "name": "USPS COLLECTION BOX - BLUE BOX", "nsi_id": "unitedstatespostalservice-a77078", "operator": "United States Postal Service", "operator:short": "USPS", "operator:type": "public", "operator:wikidata": "Q668687", "ref": "5030900027"}, "type": "Feature"}
{"dataset_attributes": {"@spider": "usps_collection_boxes", "spider:collection_time": "2023-12-13T08:25:56.872100"}, "geometry": {"coordinates": [-93.610747988, 41.588491852], "type": "Point"}, "id": "pBj8G2vqhKE0TXgfEobIFAAB0AE=", "properties": {"@spider": "usps_collection_boxes", "addr:city": "DES MOINES", "addr:country": "US", "addr:full": "501 E WALNUT ST", "addr:postcode": "50309", "addr:state": "IA", "amenity": "post_box", "brand": "United States Postal Service", "brand:wikidata": "Q668687", "collection_times": "Mo-Fr 11:00", "name": "USPS COLLECTION BOX - BLUE BOX", "nsi_id": "unitedstatespostalservice-a77078", "operator": "United States Postal Service", "operator:short": "USPS", "operator:type": "public", "operator:wikidata": "Q668687", "ref": "5030900035"}, "type": "Feature"}
{"dataset_attributes": {"@spider": "usps_collection_boxes", "spider:collection_time": "2023-12-13T08:25:56.872100"}, "geometry": {"coordinates": [-93.612236678, 41.589506125], "type": "Point"}, "id": "oNtdJjdt7MLJHqprxUrjey7080w=", "properties": {"@spider": "usps_collection_boxes", "addr:city": "DES MOINES", "addr:country": "US", "addr:full": "400 E LOCUST ST", "addr:postcode": "50309", "addr:state": "IA", "amenity": "post_box", "brand": "United States Postal Service", "brand:wikidata": "Q668687", "collection_times": "Mo-Fr 10:30", "name": "USPS COLLECTION BOX - BLUE BOX", "nsi_id": "unitedstatespostalservice-a77078", "operator": "United States Postal Service", "operator:short": "USPS", "operator:type": "public", "operator:wikidata": "Q668687", "ref": "5030900037"}, "type": "Feature"}
{"dataset_attributes": {"@spider": "usps_collection_boxes", "spider:collection_time": "2023-12-13T08:25:56.872100"}, "geometry": {"coordinates": [-93.608520308, 41.590159017], "type": "Point"}, "id": "9lysKfqdTzdTIcx3YsWV2JgUiEI=", "properties": {"@spider": "usps_collection_boxes", "addr:city": "DES MOINES", "addr:country": "US", "addr:full": "627 E LOCUST ST", "addr:postcode": "50309", "addr:state": "IA", "amenity": "post_box", "brand": "United States Postal Service", "brand:wikidata": "Q668687", "collection_times": "Mo-Fr 11:00", "name": "USPS COLLECTION BOX - BLUE BOX", "nsi_id": "unitedstatespostalservice-a77078", "operator": "United States Postal Service", "operator:short": "USPS", "operator:type": "public", "operator:wikidata": "Q668687", "ref": "5030900038"}, "type": "Feature"}
{"dataset_attributes": {"@spider": "usps_collection_boxes", "spider:collection_time": "2023-12-13T08:25:56.872100"}, "geometry": {"coordinates": [-93.626507526, 41.586570698], "type": "Point"}, "id": "mzlsQDwYTZeQgc0L5vQUXcUgpTo=", "properties": {"@spider": "usps_collection_boxes", "addr:city": "DES MOINES", "addr:country": "US", "addr:full": "715 LOCUST ST", "addr:postcode": "50309", "addr:state": "IA", "amenity": "post_box", "brand": "United States Postal Service", "brand:wikidata": "Q668687", "collection_times": "Mo-Fr 12:00", "name": "USPS COLLECTION BOX - BLUE BOX", "nsi_id": "unitedstatespostalservice-a77078", "operator": "United States Postal Service", "operator:short": "USPS", "operator:type": "public", "operator:wikidata": "Q668687", "ref": "5030900041"}, "type": "Feature"}
{"dataset_attributes": {"@spider": "usps_collection_boxes", "spider:collection_time": "2023-12-13T08:25:56.872100"}, "geometry": {"coordinates": [-93.6125810321, 41.5880970059], "type": "Point"}, "id": "FHVY-D9Xez5UByEet5u9eWPZ0c0=", "properties": {"@spider": "usps_collection_boxes", "addr:city": "DES MOINES", "addr:country": "US", "addr:full": "321 E WALNUT ST", "addr:postcode": "50309", "addr:state": "IA", "amenity": "post_box", "brand": "United States Postal Service", "brand:wikidata": "Q668687", "collection_times": "Mo-Fr 09:30", "name": "USPS COLLECTION BOX - BLUE BOX", "nsi_id": "unitedstatespostalservice-a77078", "operator": "United States Postal Service", "operator:short": "USPS", "operator:type": "public", "operator:wikidata": "Q668687", "ref": "5030900046"}, "type": "Feature"}
{"dataset_attributes": {"@spider": "usps_collection_boxes", "spider:collection_time": "2023-12-13T08:25:56.872100"}, "geometry": {"coordinates": [-93.622998813, 41.587263176], "type": "Point"}, "id": "qtOK1dlXVA3CmRDjDZPb_QxhE74=", "properties": {"@spider": "usps_collection_boxes", "addr:city": "DES MOINES", "addr:country": "US", "addr:full": "401 LOCUST ST", "addr:postcode": "50309", "addr:state": "IA", "amenity": "post_box", "brand": "United States Postal Service", "brand:wikidata": "Q668687", "collection_times": "Mo-Fr 11:00", "name": "USPS COLLECTION BOX - BLUE BOX", "nsi_id": "unitedstatespostalservice-a77078", "operator": "United States Postal Service", "operator:short": "USPS", "operator:type": "public", "operator:wikidata": "Q668687", "ref": "5030900055"}, "type": "Feature"}
{"dataset_attributes": {"@spider": "usps_collection_boxes", "spider:collection_time": "2023-12-13T08:25:56.872100"}, "geometry": {"coordinates": [-93.622945691, 41.577714148], "type": "Point"}, "id": "OHXrL7bEKMODRBPTDte7tNFDn3I=", "properties": {"@spider": "usps_collection_boxes", "addr:city": "DES MOINES", "addr:country": "US", "addr:full": "500 SW 7TH ST", "addr:postcode": "50309", "addr:state": "IA", "amenity": "post_box", "brand": "United States Postal Service", "brand:wikidata": "Q668687", "collection_times": "Mo-Fr 10:45", "name": "USPS COLLECTION BOX - BLUE BOX", "nsi_id": "unitedstatespostalservice-a77078", "operator": "United States Postal Service", "operator:short": "USPS", "operator:type": "public", "operator:wikidata": "Q668687", "ref": "5030900057"}, "type": "Feature"}
{"dataset_attributes": {"@spider": "usps_collection_boxes", "spider:collection_time": "2023-12-13T08:25:56.872100"}, "geometry": {"coordinates": [-93.6285390023, 41.5874420021], "type": "Point"}, "id": "TV5F42Kuk8rZoZy_6f54Q51TyX4=", "properties": {"@spider": "usps_collection_boxes", "addr:city": "DES MOINES", "addr:country": "US", "addr:full": "801 GRAND AVE", "addr:postcode": "50309", "addr:state": "IA", "amenity": "post_box", "brand": "United States Postal Service", "brand:wikidata": "Q668687", "collection_times": "Mo-Fr 11:00", "name": "USPS COLLECTION BOX - BLUE BOX", "nsi_id": "unitedstatespostalservice-a77078", "operator": "United States Postal Service", "operator:short": "USPS", "operator:type": "public", "operator:wikidata": "Q668687", "ref": "5030900062"}, "type": "Feature"}
{"dataset_attributes": {"@spider": "usps_collection_boxes", "spider:collection_time": "2023-12-13T08:25:56.872100"}, "geometry": {"coordinates": [-93.635650466, 41.590136944], "type": "Point"}, "id": "FVl_e6N_RfeLRvDL3wepIxQq0Qs=", "properties": {"@spider": "usps_collection_boxes", "addr:city": "DES MOINES", "addr:country": "US", "addr:full": "1221 PLEASANT ST", "addr:postcode": "50309", "addr:state": "IA", "amenity": "post_box", "brand": "United States Postal Service", "brand:wikidata": "Q668687", "collection_times": "Mo-Fr 15:30", "name": "USPS COLLECTION BOX - BLUE BOX", "note": "ON 12/24 AND 12/31, THIS BOX MAY BE COLLECTED AS EARLY AS 12 NOON.", "nsi_id": "unitedstatespostalservice-a77078", "operator": "United States Postal Service", "operator:short": "USPS", "operator:type": "public", "operator:wikidata": "Q668687", "ref": "5030900063"}, "type": "Feature"}
{"dataset_attributes": {"@spider": "usps_collection_boxes", "spider:collection_time": "2023-12-13T08:25:56.872100"}, "geometry": {"coordinates": [-93.633059991, 41.590645184], "type": "Point"}, "id": "sc-4lNsFfATfFuAcNsXrMpIYrDM=", "properties": {"@spider": "usps_collection_boxes", "addr:city": "DES MOINES", "addr:country": "US", "addr:full": "1200 PLEASANT ST", "addr:postcode": "50309", "addr:state": "IA", "amenity": "post_box", "brand": "United States Postal Service", "brand:wikidata": "Q668687", "collection_times": "Mo-Fr 15:30", "name": "USPS COLLECTION BOX - BLUE BOX", "note": "ON 12/24 AND 12/31, THIS BOX MAY BE COLLECTED AS EARLY AS 12 NOON.", "nsi_id": "unitedstatespostalservice-a77078", "operator": "United States Postal Service", "operator:short": "USPS", "operator:type": "public", "operator:wikidata": "Q668687", "ref": "5030900064"}, "type": "Feature"}
{"dataset_attributes": {"@spider": "usps_collection_boxes", "spider:collection_time": "2023-12-13T08:25:56.872100"}, "geometry": {"coordinates": [-93.635696018, 41.590014498], "type": "Point"}, "id": "UxRue8dyAb40rpIiJzqBvR8xf8Q=", "properties": {"@spider": "usps_collection_boxes", "addr:city": "DES MOINES", "addr:country": "US", "addr:full": "1215 PLEASANT ST", "addr:postcode": "50309", "addr:state": "IA", "amenity": "post_box", "brand": "United States Postal Service", "brand:wikidata": "Q668687", "collection_times": "Mo-Fr 15:30", "name": "USPS COLLECTION BOX - BLUE BOX", "note": "ON 12/24 AND 12/31, THIS BOX MAY BE COLLECTED AS EARLY AS 12 NOON.", "nsi_id": "unitedstatespostalservice-a77078", "operator": "United States Postal Service", "operator:short": "USPS", "operator:type": "public", "operator:wikidata": "Q668687", "ref": "5030900065"}, "type": "Feature"}
{"dataset_attributes": {"@spider": "usps_collection_boxes", "spider:collection_time": "2023-12-13T08:25:56.872100"}, "geometry": {"coordinates": [-93.630126561, 41.587511195], "type": "Point"}, "id": "S4pvMVQC_5nHUlBscT_LdyhR4qk=", "properties": {"@spider": "usps_collection_boxes", "addr:city": "DES MOINES", "addr:country": "US", "addr:full": "925 HIGH ST", "addr:postcode": "50309", "addr:state": "IA", "amenity": "post_box", "brand": "United States Postal Service", "brand:wikidata": "Q668687", "collection_times": "Mo-Fr 10:30", "name": "USPS COLLECTION BOX - BLUE BOX", "nsi_id": "unitedstatespostalservice-a77078", "operator": "United States Postal Service", "operator:short": "USPS", "operator:type": "public", "operator:wikidata": "Q668687", "ref": "5030900074"}, "type": "Feature"}
{"dataset_attributes": {"@spider": "usps_collection_boxes", "spider:collection_time": "2023-12-13T08:25:56.872100"}, "geometry": {"coordinates": [-93.624455, 41.585475], "type": "Point"}, "id": "ZtVX00sCKB0ctEScTxXewc6L_CU=", "properties": {"@spider": "usps_collection_boxes", "addr:city": "DES MOINES", "addr:country": "US", "addr:full": "1700 WOODLAND AVE", "addr:postcode": "50309", "addr:state": "IA", "amenity": "post_box", "brand": "United States Postal Service", "brand:wikidata": "Q668687", "collection_times": "Mo-Fr 13:00", "name": "USPS COLLECTION BOX - BLUE BOX", "note": "ON 12/24 AND 12/31, THIS BOX MAY BE COLLECTED AS EARLY AS 12 NOON.", "nsi_id": "unitedstatespostalservice-a77078", "operator": "United States Postal Service", "operator:short": "USPS", "operator:type": "public", "operator:wikidata": "Q668687", "ref": "5030900077"}, "type": "Feature"}
{"dataset_attributes": {"@spider": "usps_collection_boxes", "spider:collection_time": "2023-12-13T08:25:56.872100"}, "geometry": {"coordinates": [-93.631005085, 41.586472878], "type": "Point"}, "id": "mG6bdIKZPZRTIqwU2n5B_zHV-Z8=", "properties": {"@spider": "usps_collection_boxes", "addr:city": "DES MOINES", "addr:country": "US", "addr:full": "1000 GRAND AVE", "addr:postcode": "50309", "addr:state": "IA", "amenity": "post_box", "brand": "United States Postal Service", "brand:wikidata": "Q668687", "collection_times": "Mo-Fr 11:00", "name": "USPS COLLECTION BOX - BLUE BOX", "nsi_id": "unitedstatespostalservice-a77078", "operator": "United States Postal Service", "operator:short": "USPS", "operator:type": "public", "operator:wikidata": "Q668687", "ref": "5030900089"}, "type": "Feature"}
{"dataset_attributes": {"@spider": "usps_collection_boxes", "spider:collection_time": "2023-12-13T08:25:56.872100"}, "geometry": {"coordinates": [-93.62510299, 41.586964429], "type": "Point"}, "id": "ZerNlo4gT8h-GApSRe2C29R2Bmg=", "properties": {"@spider": "usps_collection_boxes", "addr:city": "DES MOINES", "addr:country": "US", "addr:full": "418 6TH AVE", "addr:postcode": "50309", "addr:state": "IA", "amenity": "post_box", "brand": "United States Postal Service", "brand:wikidata": "Q668687", "collection_times": "Mo-Fr 11:00", "name": "USPS COLLECTION BOX - BLUE BOX", "nsi_id": "unitedstatespostalservice-a77078", "operator": "United States Postal Service", "operator:short": "USPS", "operator:type": "public", "operator:wikidata": "Q668687", "ref": "5030900090"}, "type": "Feature"}
{"dataset_attributes": {"@spider": "usps_collection_boxes", "spider:collection_time": "2023-12-13T08:25:56.872100"}, "geometry": {"coordinates": [-93.61276924, 41.577460465], "type": "Point"}, "id": "XAzZfmZ26Mj5UizLwVWff0XRJu4=", "properties": {"@spider": "usps_collection_boxes", "addr:city": "DES MOINES", "addr:country": "US", "addr:full": "602 SE 1ST ST", "addr:postcode": "50309", "addr:state": "IA", "amenity": "post_box", "brand": "United States Postal Service", "brand:wikidata": "Q668687", "collection_times": "Mo-Fr 11:00", "name": "USPS COLLECTION BOX - BLUE BOX", "nsi_id": "unitedstatespostalservice-a77078", "operator": "United States Postal Service", "operator:short": "USPS", "operator:type": "public", "operator:wikidata": "Q668687", "ref": "5030900101"}, "type": "Feature"}
{"dataset_attributes": {"@spider": "usps_collection_boxes", "spider:collection_time": "2023-12-13T08:25:56.872100"}, "geometry": {"coordinates": [-93.6182010144, 41.5854549881], "type": "Point"}, "id": "UyAoSvodDQ7NRU8YjtP6aNjFJeg=", "properties": {"@spider": "usps_collection_boxes", "addr:city": "DES MOINES", "addr:country": "US", "addr:full": "100 COURT AVE", "addr:postcode": "50309", "addr:state": "IA", "amenity": "post_box", "brand": "United States Postal Service", "brand:wikidata": "Q668687", "collection_times": "Mo-Fr 12:15", "name": "USPS COLLECTION BOX - BLUE BOX", "note": "ON 12/24 AND 12/31, THIS BOX MAY BE COLLECTED AS EARLY AS 12 NOON.", "nsi_id": "unitedstatespostalservice-a77078", "operator": "United States Postal Service", "operator:short": "USPS", "operator:type": "public", "operator:wikidata": "Q668687", "ref": "5030900104"}, "type": "Feature"}
{"dataset_attributes": {"@spider": "usps_collection_boxes", "spider:collection_time": "2023-12-13T08:25:56.872100"}, "geometry": {"coordinates": [-93.6182010144, 41.5854549881], "type": "Point"}, "id": "FEuMq7G0-Z08IR1qX_c3S5D1HpA=", "properties": {"@spider": "usps_collection_boxes", "addr:city": "DES MOINES", "addr:country": "US", "addr:full": "100 COURT AVE", "addr:postcode": "50309", "addr:state": "IA", "amenity": "post_box", "brand": "United States Postal Service", "brand:wikidata": "Q668687", "collection_times": "Mo-Fr 12:15", "name": "USPS COLLECTION BOX - BLUE BOX", "note": "ON 12/24 AND 12/31, THIS BOX MAY BE COLLECTED AS EARLY AS 12 NOON.", "nsi_id": "unitedstatespostalservice-a77078", "operator": "United States Postal Service", "operator:short": "USPS", "operator:type": "public", "operator:wikidata": "Q668687", "ref": "5030900105"}, "type": "Feature"}
{"dataset_attributes": {"@spider": "usps_collection_boxes", "spider:collection_time": "2023-12-13T08:25:56.872100"}, "geometry": {"coordinates": [-93.624246299, 41.58598978], "type": "Point"}, "id": "wn2EXK-4VbCxSVk5srEBbepa-wk=", "properties": {"@spider": "usps_collection_boxes", "addr:city": "DES MOINES", "addr:country": "US", "addr:full": "520 WALNUT ST", "addr:postcode": "50309", "addr:state": "IA", "amenity": "post_box", "brand": "United States Postal Service", "brand:wikidata": "Q668687", "collection_times": "Mo-Fr 11:30", "name": "USPS COLLECTION BOX - BLUE BOX", "nsi_id": "unitedstatespostalservice-a77078", "operator": "United States Postal Service", "operator:short": "USPS", "operator:type": "public", "operator:wikidata": "Q668687", "ref": "5030900109"}, "type": "Feature"}
{"dataset_attributes": {"@spider": "usps_collection_boxes", "spider:collection_time": "2023-12-13T08:25:56.872100"}, "geometry": {"coordinates": [-93.626165285, 41.587534816], "type": "Point"}, "id": "omj8JIp1wq0SqWh5t-gHHfNbC3k=", "properties": {"@spider": "usps_collection_boxes", "addr:city": "DES MOINES", "addr:country": "US", "addr:full": "666 GRAND AVE", "addr:postcode": "50309", "addr:state": "IA", "amenity": "post_box", "brand": "United States Postal Service", "brand:wikidata": "Q668687", "collection_times": "Mo-Fr 16:15", "name": "USPS COLLECTION BOX - BLUE BOX", "note": "ON 12/24 AND 12/31, THIS BOX MAY BE COLLECTED AS EARLY AS 12 NOON.", "nsi_id": "unitedstatespostalservice-a77078", "operator": "United States Postal Service", "operator:short": "USPS", "operator:type": "public", "operator:wikidata": "Q668687", "ref": "5030900123"}, "type": "Feature"}
{"dataset_attributes": {"@spider": "usps_collection_boxes", "spider:collection_time": "2023-12-13T08:25:56.872100"}, "geometry": {"coordinates": [-93.623995988, 41.588124051], "type": "Point"}, "id": "f8X_rmbO8tPjBEIjIhvD-apR5yc=", "properties": {"@spider": "usps_collection_boxes", "addr:city": "DES MOINES", "addr:country": "US", "addr:full": "505 5TH AVE", "addr:postcode": "50309", "addr:state": "IA", "amenity": "post_box", "brand": "United States Postal Service", "brand:wikidata": "Q668687", "collection_times": "Mo-Fr 16:00", "name": "USPS COLLECTION BOX - BLUE BOX", "note": "ON 12/24 AND 12/31, THIS BOX MAY BE COLLECTED AS EARLY AS 12 NOON.", "nsi_id": "unitedstatespostalservice-a77078", "operator": "United States Postal Service", "operator:short": "USPS", "operator:type": "public", "operator:wikidata": "Q668687", "ref": "5030900126"}, "type": "Feature"}
{"dataset_attributes": {"@spider": "usps_collection_boxes", "spider:collection_time": "2023-12-13T08:25:56.872100"}, "geometry": {"coordinates": [-93.625236623, 41.585846132], "type": "Point"}, "id": "jXO_QBv50ZbTyxyU7nVJKAvJpf4=", "properties": {"@spider": "usps_collection_boxes", "addr:city": "DES MOINES", "addr:country": "US", "addr:full": "699 WALNUT ST", "addr:postcode": "50309", "addr:state": "IA", "amenity": "post_box", "brand": "United States Postal Service", "brand:wikidata": "Q668687", "collection_times": "Mo-Fr 10:30", "name": "USPS COLLECTION BOX - BLUE BOX", "nsi_id": "unitedstatespostalservice-a77078", "operator": "United States Postal Service", "operator:short": "USPS", "operator:type": "public", "operator:wikidata": "Q668687", "ref": "5030900129"}, "type": "Feature"}
{"dataset_attributes": {"@spider": "usps_collection_boxes", "spider:collection_time": "2023-12-13T08:25:56.872100"}, "geometry": {"coordinates": [-93.641862526, 41.584444476], "type": "Point"}, "id": "kYOxg-Lr2nUoTsTjt6_pqFP-vz4=", "properties": {"@spider": "usps_collection_boxes", "addr:city": "DES MOINES", "addr:country": "US", "addr:full": "1801 GRAND AVE", "addr:postcode": "50309", "addr:state": "IA", "amenity": "post_box", "brand": "United States Postal Service", "brand:wikidata": "Q668687", "collection_times": "Mo-Fr 12:00", "name": "USPS COLLECTION BOX - BLUE BOX", "nsi_id": "unitedstatespostalservice-a77078", "operator": "United States Postal Service", "operator:short": "USPS", "operator:type": "public", "operator:wikidata": "Q668687", "ref": "5030900138"}, "type": "Feature"}
{"dataset_attributes": {"@spider": "usps_collection_boxes", "spider:collection_time": "2023-12-13T08:25:56.872100"}, "geometry": {"coordinates": [-93.620812209, 41.57918378], "type": "Point"}, "id": "xk7DH2LBkMfUfmEYODRAP6_yTbw=", "properties": {"@spider": "usps_collection_boxes", "addr:city": "DES MOINES", "addr:country": "US", "addr:full": "455 SW 5TH ST", "addr:postcode": "50309", "addr:state": "IA", "amenity": "post_box", "brand": "United States Postal Service", "brand:wikidata": "Q668687", "collection_times": "Mo-Fr 11:30", "name": "USPS COLLECTION BOX - BLUE BOX", "nsi_id": "unitedstatespostalservice-a77078", "operator": "United States Postal Service", "operator:short": "USPS", "operator:type": "public", "operator:wikidata": "Q668687", "ref": "5030900146"}, "type": "Feature"}
{"dataset_attributes": {"@spider": "usps_collection_boxes", "spider:collection_time": "2023-12-13T08:25:56.872100"}, "geometry": {"coordinates": [-93.6182010144, 41.5854549881], "type": "Point"}, "id": "9s1hPmxDNCjhSPw7pF7e3IMcwh8=", "properties": {"@spider": "usps_collection_boxes", "addr:city": "DES MOINES", "addr:country": "US", "addr:full": "100 COURT AVE", "addr:postcode": "50309", "addr:state": "IA", "amenity": "post_box", "brand": "United States Postal Service", "brand:wikidata": "Q668687", "collection_times": "Mo-Fr 12:15", "name": "USPS COLLECTION BOX - BLUE BOX", "note": "ON 12/24 AND 12/31, THIS BOX MAY BE COLLECTED AS EARLY AS 12 NOON.", "nsi_id": "unitedstatespostalservice-a77078", "operator": "United States Postal Service", "operator:short": "USPS", "operator:type": "public", "operator:wikidata": "Q668687", "ref": "5030900152"}, "type": "Feature"}
{"dataset_attributes": {"@spider": "usps_collection_boxes", "spider:collection_time": "2023-12-13T08:25:56.872100"}, "geometry": {"coordinates": [-93.625236623, 41.585846132], "type": "Point"}, "id": "HKd_emcRwxkHUJ0xy9LSjJ0c6LQ=", "properties": {"@spider": "usps_collection_boxes", "addr:city": "DES MOINES", "addr:country": "US", "addr:full": "699 WALNUT ST", "addr:postcode": "50309", "addr:state": "IA", "amenity": "post_box", "brand": "United States Postal Service", "brand:wikidata": "Q668687", "collection_times": "Mo-Fr 10:30", "name": "USPS COLLECTION BOX - BLUE BOX", "nsi_id": "unitedstatespostalservice-a77078", "operator": "United States Postal Service", "operator:short": "USPS", "operator:type": "public", "operator:wikidata": "Q668687", "ref": "5030900153"}, "type": "Feature"}
{"dataset_attributes": {"@spider": "usps_collection_boxes", "spider:collection_time": "2023-12-13T08:25:56.872100"}, "geometry": {"coordinates": [-93.62283609, 41.588277085], "type": "Point"}, "id": "97xd8miH6UCSic3yBxqw5-H5RBA=", "properties": {"@spider": "usps_collection_boxes", "addr:city": "DES MOINES", "addr:country": "US", "addr:full": "401 GRAND AVE", "addr:postcode": "50309", "addr:state": "IA", "amenity": "post_box", "brand": "United States Postal Service", "brand:wikidata": "Q668687", "collection_times": "Mo-Fr 10:00", "name": "USPS COLLECTION BOX - BLUE BOX", "nsi_id": "unitedstatespostalservice-a77078", "operator": "United States Postal Service", "operator:short": "USPS", "operator:type": "public", "operator:wikidata": "Q668687", "ref": "5030900159"}, "type": "Feature"}
{"dataset_attributes": {"@spider": "usps_collection_boxes", "spider:collection_time": "2023-12-13T08:25:56.872100"}, "geometry": {"coordinates": [-93.6227475, 41.586822], "type": "Point"}, "id": "XiAeJ1rZ7XEkucQAovUqL0kgUwg=", "properties": {"@spider": "usps_collection_boxes", "addr:city": "DES MOINES", "addr:country": "US", "addr:full": "400 LOCUST ST", "addr:postcode": "50309", "addr:state": "IA", "amenity": "post_box", "brand": "United States Postal Service", "brand:wikidata": "Q668687", "collection_times": "Mo-Fr 17:00", "name": "USPS COLLECTION BOX - PO LOBBY", "note": "ON 12/24 AND 12/31, THIS BOX MAY BE COLLECTED AS EARLY AS 12 NOON.", "nsi_id": "unitedstatespostalservice-a77078", "operator": "United States Postal Service", "operator:short": "USPS", "operator:type": "public", "operator:wikidata": "Q668687", "ref": "5030900160"}, "type": "Feature"}
{"dataset_attributes": {"@spider": "usps_collection_boxes", "spider:collection_time": "2023-12-13T08:25:56.872100"}, "geometry": {"coordinates": [-93.697775271, 41.630814], "type": "Point"}, "id": "oow69SsjOeIDjESo96SzM5EhOPk=", "properties": {"@spider": "usps_collection_boxes", "addr:city": "DES MOINES", "addr:country": "US", "addr:full": "3839 MERLE HAY RD", "addr:postcode": "50310", "addr:state": "IA", "amenity": "post_box", "brand": "United States Postal Service", "brand:wikidata": "Q668687", "collection_times": "Mo-Fr 14:00", "name": "USPS COLLECTION BOX - BLUE BOX", "note": "ON 12/24 AND 12/31, THIS BOX MAY BE COLLECTED AS EARLY AS 12 NOON.", "nsi_id": "unitedstatespostalservice-a77078", "operator": "United States Postal Service", "operator:short": "USPS", "operator:type": "public", "operator:wikidata": "Q668687", "ref": "5031000004"}, "type": "Feature"}
{"dataset_attributes": {"@spider": "usps_collection_boxes", "spider:collection_time": "2023-12-13T08:25:56.872100"}, "geometry": {"coordinates": [-93.697684327, 41.63756705], "type": "Point"}, "id": "IpRB8Ru0Nuo9AUYtM6vulyes7Y8=", "properties": {"@spider": "usps_collection_boxes", "addr:city": "DES MOINES", "addr:country": "US", "addr:full": "4343 MERLE HAY RD", "addr:postcode": "50310", "addr:state": "IA", "amenity": "post_box", "brand": "United States Postal Service", "brand:wikidata": "Q668687", "collection_times": "Mo-Fr 11:30", "name": "USPS COLLECTION BOX - BLUE BOX", "nsi_id": "unitedstatespostalservice-a77078", "operator": "United States Postal Service", "operator:short": "USPS", "operator:type": "public", "operator:wikidata": "Q668687", "ref": "5031000006"}, "type": "Feature"}
{"dataset_attributes": {"@spider": "usps_collection_boxes", "spider:collection_time": "2023-12-13T08:25:56.872100"}, "geometry": {"coordinates": [-93.697849776, 41.629878], "type": "Point"}, "id": "UmuAaLL1BK3VPGk0G0kNUNgu_5c=", "properties": {"@spider": "usps_collection_boxes", "addr:city": "DES MOINES", "addr:country": "US", "addr:full": "3800 MERLE HAY RD", "addr:postcode": "50310", "addr:state": "IA", "amenity": "post_box", "brand": "United States Postal Service", "brand:wikidata": "Q668687", "collection_times": "Mo-Fr 14:00", "name": "USPS COLLECTION BOX - BLUE BOX", "note": "ON 12/24 AND 12/31, THIS BOX MAY BE COLLECTED AS EARLY AS 12 NOON.", "nsi_id": "unitedstatespostalservice-a77078", "operator": "United States Postal Service", "operator:short": "USPS", "operator:type": "public", "operator:wikidata": "Q668687", "ref": "5031000009"}, "type": "Feature"}
{"dataset_attributes": {"@spider": "usps_collection_boxes", "spider:collection_time": "2023-12-13T08:25:56.872100"}, "geometry": {"coordinates": [-93.697745242, 41.61566591], "type": "Point"}, "id": "9SASKgkl8YToFMC8HD6EAdU6H88=", "properties": {"@spider": "usps_collection_boxes", "addr:city": "DES MOINES", "addr:country": "US", "addr:full": "2303 MERLE HAY RD", "addr:postcode": "50310", "addr:state": "IA", "amenity": "post_box", "brand": "United States Postal Service", "brand:wikidata": "Q668687", "collection_times": "Mo-Fr 13:00", "name": "USPS COLLECTION BOX - BLUE BOX", "note": "ON 12/24 AND 12/31, THIS BOX MAY BE COLLECTED AS EARLY AS 12 NOON.", "nsi_id": "unitedstatespostalservice-a77078", "operator": "United States Postal Service", "operator:short": "USPS", "operator:type": "public", "operator:wikidata": "Q668687", "ref": "5031000010"}, "type": "Feature"}
{"dataset_attributes": {"@spider": "usps_collection_boxes", "spider:collection_time": "2023-12-13T08:25:56.872100"}, "geometry": {"coordinates": [-93.697828796, 41.635703472], "type": "Point"}, "id": "k53ADxzD3YP_VZviZSBKFKLXPLY=", "properties": {"@spider": "usps_collection_boxes", "addr:city": "DES MOINES", "addr:country": "US", "addr:full": "4100 MERLE HAY RD", "addr:postcode": "50310", "addr:state": "IA", "amenity": "post_box", "brand": "United States Postal Service", "brand:wikidata": "Q668687", "collection_times": "Mo-Fr 11:00", "name": "USPS COLLECTION BOX - BLUE BOX", "nsi_id": "unitedstatespostalservice-a77078", "operator": "United States Postal Service", "operator:short": "USPS", "operator:type": "public", "operator:wikidata": "Q668687", "ref": "5031000011"}, "type": "Feature"}
{"dataset_attributes": {"@spider": "usps_collection_boxes", "spider:collection_time": "2023-12-13T08:25:56.872100"}, "geometry": {"coordinates": [-93.672986779, 41.61105], "type": "Point"}, "id": "MVMUxSe6w6Bmetrk3IPtK6yLXlg=", "properties": {"@spider": "usps_collection_boxes", "addr:city": "DES MOINES", "addr:country": "US", "addr:full": "1819 BEAVER AVE", "addr:postcode": "50310", "addr:state": "IA", "amenity": "post_box", "brand": "United States Postal Service", "brand:wikidata": "Q668687", "collection_times": "Mo-Fr 15:00; Sa 14:00", "name": "USPS COLLECTION BOX - BLUE BOX", "note": "ON 12/24 AND 12/31, THIS BOX MAY BE COLLECTED AS EARLY AS 12 NOON.", "nsi_id": "unitedstatespostalservice-a77078", "operator": "United States Postal Service", "operator:short": "USPS", "operator:type": "public", "operator:wikidata": "Q668687", "ref": "5031000013"}, "type": "Feature"}
{"dataset_attributes": {"@spider": "usps_collection_boxes", "spider:collection_time": "2023-12-13T08:25:56.872100"}, "geometry": {"coordinates": [-93.650911263, 41.626126021], "type": "Point"}, "id": "Dko_QRUFZ4Y7y6Pv-CwbeX6Msv4=", "properties": {"@spider": "usps_collection_boxes", "addr:city": "DES MOINES", "addr:country": "US", "addr:full": "3330 MARTIN LUTHER KING JR PKWY", "addr:postcode": "50310", "addr:state": "IA", "amenity": "post_box", "brand": "United States Postal Service", "brand:wikidata": "Q668687", "collection_times": "Mo-Sa 11:30", "name": "USPS COLLECTION BOX - BLUE BOX", "nsi_id": "unitedstatespostalservice-a77078", "operator": "United States Postal Service", "operator:short": "USPS", "operator:type": "public", "operator:wikidata": "Q668687", "ref": "5031000014"}, "type": "Feature"}
{"dataset_attributes": {"@spider": "usps_collection_boxes", "spider:collection_time": "2023-12-13T08:25:56.872100"}, "geometry": {"coordinates": [-93.658789752, 41.627735919], "type": "Point"}, "id": "Et1XGs-IseSnv8QNyo-SRbdX9Zw=", "properties": {"@spider": "usps_collection_boxes", "addr:city": "DES MOINES", "addr:country": "US", "addr:full": "3600 30TH ST", "addr:postcode": "50310", "addr:state": "IA", "amenity": "post_box", "brand": "United States Postal Service", "brand:wikidata": "Q668687", "collection_times": "Mo-Fr 15:15", "name": "USPS COLLECTION BOX - BLUE BOX", "note": "ON 12/24 AND 12/31, THIS BOX MAY BE COLLECTED AS EARLY AS 12 NOON.", "nsi_id": "unitedstatespostalservice-a77078", "operator": "United States Postal Service", "operator:short": "USPS", "operator:type": "public", "operator:wikidata": "Q668687", "ref": "5031000015"}, "type": "Feature"}
{"dataset_attributes": {"@spider": "usps_collection_boxes", "spider:collection_time": "2023-12-13T08:25:56.872100"}, "geometry": {"coordinates": [-93.6838732, 41.611260511], "type": "Point"}, "id": "BEnrZG-FuVSZ60Z1t95s79cjIlI=", "properties": {"@spider": "usps_collection_boxes", "addr:city": "DES MOINES", "addr:country": "US", "addr:full": "4801 FRANKLIN AVE", "addr:postcode": "50310", "addr:state": "IA", "amenity": "post_box", "brand": "United States Postal Service", "brand:wikidata": "Q668687", "collection_times": "Mo-Fr 14:00", "name": "USPS COLLECTION BOX - BLUE BOX", "note": "ON 12/24 AND 12/31, THIS BOX MAY BE COLLECTED AS EARLY AS 12 NOON.", "nsi_id": "unitedstatespostalservice-a77078", "operator": "United States Postal Service", "operator:short": "USPS", "operator:type": "public", "operator:wikidata": "Q668687", "ref": "5031000018"}, "type": "Feature"}
{"dataset_attributes": {"@spider": "usps_collection_boxes", "spider:collection_time": "2023-12-13T08:25:56.872100"}, "geometry": {"coordinates": [-93.679452, 41.629514524], "type": "Point"}, "id": "updGLg8zHMwECkfe3mcArWfEq2Y=", "properties": {"@spider": "usps_collection_boxes", "addr:city": "DES MOINES", "addr:country": "US", "addr:full": "4505 DOUGLAS AVE", "addr:postcode": "50310", "addr:state": "IA", "amenity": "post_box", "brand": "United States Postal Service", "brand:wikidata": "Q668687", "collection_times": "Mo-Fr 11:45", "name": "USPS COLLECTION BOX - BLUE BOX", "nsi_id": "unitedstatespostalservice-a77078", "operator": "United States Postal Service", "operator:short": "USPS", "operator:type": "public", "operator:wikidata": "Q668687", "ref": "5031000019"}, "type": "Feature"}
{"dataset_attributes": {"@spider": "usps_collection_boxes", "spider:collection_time": "2023-12-13T08:25:56.872100"}, "geometry": {"coordinates": [-93.671897395, 41.619900319], "type": "Point"}, "id": "X6OIoY8bW6fAdOF9Bam-FFYa94M=", "properties": {"@spider": "usps_collection_boxes", "addr:city": "DES MOINES", "addr:country": "US", "addr:full": "4023 URBANDALE AVE", "addr:postcode": "50310", "addr:state": "IA", "amenity": "post_box", "brand": "United States Postal Service", "brand:wikidata": "Q668687", "collection_times": "Mo-Sa 17:00", "name": "USPS COLLECTION BOX - BLUE BOX", "note": "ON 12/24 AND 12/31, THIS BOX MAY BE COLLECTED AS EARLY AS 12 NOON.", "nsi_id": "unitedstatespostalservice-a77078", "operator": "United States Postal Service", "operator:short": "USPS", "operator:type": "public", "operator:wikidata": "Q668687", "ref": "5031000020"}, "type": "Feature"}
{"dataset_attributes": {"@spider": "usps_collection_boxes", "spider:collection_time": "2023-12-13T08:25:56.872100"}, "geometry": {"coordinates": [-93.691711697, 41.643951526], "type": "Point"}, "id": "UM2M_ZX98pVCGUBIaaI9GieyHow=", "properties": {"@spider": "usps_collection_boxes", "addr:city": "DES MOINES", "addr:country": "US", "addr:full": "5528 MEREDITH DR", "addr:postcode": "50310", "addr:state": "IA", "amenity": "post_box", "brand": "United States Postal Service", "brand:wikidata": "Q668687", "collection_times": "Mo-Fr 13:30; Sa 11:00", "name": "USPS COLLECTION BOX - BLUE BOX", "note": "ON 12/24 AND 12/31, THIS BOX MAY BE COLLECTED AS EARLY AS 12 NOON.", "nsi_id": "unitedstatespostalservice-a77078", "operator": "United States Postal Service", "operator:short": "USPS", "operator:type": "public", "operator:wikidata": "Q668687", "ref": "5031000021"}, "type": "Feature"}
{"dataset_attributes": {"@spider": "usps_collection_boxes", "spider:collection_time": "2023-12-13T08:25:56.872100"}, "geometry": {"coordinates": [-93.697809746, 41.635683], "type": "Point"}, "id": "vadQGf2BiLskoeogYhiNJoJMNv8=", "properties": {"@spider": "usps_collection_boxes", "addr:city": "DES MOINES", "addr:country": "US", "addr:full": "4100 MERLE HAY RD", "addr:postcode": "50310", "addr:state": "IA", "amenity": "post_box", "brand": "United States Postal Service", "brand:wikidata": "Q668687", "collection_times": "Mo-Fr 11:00", "name": "USPS COLLECTION BOX - BLUE BOX", "nsi_id": "unitedstatespostalservice-a77078", "operator": "United States Postal Service", "operator:short": "USPS", "operator:type": "public", "operator:wikidata": "Q668687", "ref": "5031000024"}, "type": "Feature"}
{"dataset_attributes": {"@spider": "usps_collection_boxes", "spider:collection_time": "2023-12-13T08:25:56.872100"}, "geometry": {"coordinates": [-93.697684327, 41.63756705], "type": "Point"}, "id": "846-O-bXOb-weqK61mqkuM-4A50=", "properties": {"@spider": "usps_collection_boxes", "addr:city": "DES MOINES", "addr:country": "US", "addr:full": "4343 MERLE HAY RD", "addr:postcode": "50310", "addr:state": "IA", "amenity": "post_box", "brand": "United States Postal Service", "brand:wikidata": "Q668687", "collection_times": "Mo-Sa 11:30", "name": "USPS COLLECTION BOX - BLUE BOX", "nsi_id": "unitedstatespostalservice-a77078", "operator": "United States Postal Service", "operator:short": "USPS", "operator:type": "public", "operator:wikidata": "Q668687", "ref": "5031000025"}, "type": "Feature"}
{"dataset_attributes": {"@spider": "usps_collection_boxes", "spider:collection_time": "2023-12-13T08:25:56.872100"}, "geometry": {"coordinates": [-93.6721047099, 41.6199724466], "type": "Point"}, "id": "dkBsIRzqMWPKM35zJwPHxw6L-cU=", "properties": {"@spider": "usps_collection_boxes", "addr:city": "DES MOINES", "addr:country": "US", "addr:full": "4023 URBANDALE AVE", "addr:postcode": "50310", "addr:state": "IA", "amenity": "post_box", "brand": "United States Postal Service", "brand:wikidata": "Q668687", "collection_times": "Mo-Sa 17:00", "name": "USPS COLLECTION BOX - BLUE BOX", "note": "ON 12/24 AND 12/31, THIS BOX MAY BE COLLECTED AS EARLY AS 12 NOON.", "nsi_id": "unitedstatespostalservice-a77078", "operator": "United States Postal Service", "operator:short": "USPS", "operator:type": "public", "operator:wikidata": "Q668687", "ref": "5031000027"}, "type": "Feature"}
{"dataset_attributes": {"@spider": "usps_collection_boxes", "spider:collection_time": "2023-12-13T08:25:56.872100"}, "geometry": {"coordinates": [-93.697828862, 41.634954948], "type": "Point"}, "id": "pkty6m08YCWkL4xfAknrhzUxWgY=", "properties": {"@spider": "usps_collection_boxes", "addr:city": "DES MOINES", "addr:country": "US", "addr:full": "4060 MERLE HAY RD", "addr:postcode": "50310", "addr:state": "IA", "amenity": "post_box", "brand": "United States Postal Service", "brand:wikidata": "Q668687", "collection_times": "Mo-Fr 11:00", "name": "USPS COLLECTION BOX - BLUE BOX", "nsi_id": "unitedstatespostalservice-a77078", "operator": "United States Postal Service", "operator:short": "USPS", "operator:type": "public", "operator:wikidata": "Q668687", "ref": "5031000028"}, "type": "Feature"}
{"dataset_attributes": {"@spider": "usps_collection_boxes", "spider:collection_time": "2023-12-13T08:25:56.872100"}, "geometry": {"coordinates": [-93.650911263, 41.626126021], "type": "Point"}, "id": "24j2dELaYs8R7buYjbA8utsmThc=", "properties": {"@spider": "usps_collection_boxes", "addr:city": "DES MOINES", "addr:country": "US", "addr:full": "3330 MARTIN LUTHER KING JR PKWY", "addr:postcode": "50310", "addr:state": "IA", "amenity": "post_box", "brand": "United States Postal Service", "brand:wikidata": "Q668687", "collection_times": "Mo-Sa 11:30", "name": "USPS COLLECTION BOX - BLUE BOX", "nsi_id": "unitedstatespostalservice-a77078", "operator": "United States Postal Service", "operator:short": "USPS", "operator:type": "public", "operator:wikidata": "Q668687", "ref": "5031000029"}, "type": "Feature"}
{"dataset_attributes": {"@spider": "usps_collection_boxes", "spider:collection_time": "2023-12-13T08:25:56.872100"}, "geometry": {"coordinates": [-93.671897395, 41.619900319], "type": "Point"}, "id": "Sib3BaHHkj260gkGD16WBFzPR-Q=", "properties": {"@spider": "usps_collection_boxes", "addr:city": "DES MOINES", "addr:country": "US", "addr:full": "4023 URBANDALE AVE", "addr:postcode": "50310", "addr:state": "IA", "amenity": "post_box", "brand": "United States Postal Service", "brand:wikidata": "Q668687", "collection_times": "Mo-Fr 17:00; Sa 16:00", "name": "USPS COLLECTION BOX - PO LOBBY", "note": "ON 12/24 AND 12/31, THIS BOX MAY BE COLLECTED AS EARLY AS 12 NOON.", "nsi_id": "unitedstatespostalservice-a77078", "operator": "United States Postal Service", "operator:short": "USPS", "operator:type": "public", "operator:wikidata": "Q668687", "ref": "5031000035"}, "type": "Feature"}
{"dataset_attributes": {"@spider": "usps_collection_boxes", "spider:collection_time": "2023-12-13T08:25:56.872100"}, "geometry": {"coordinates": [-93.671897395, 41.619900319], "type": "Point"}, "id": "nlKFwvGqT3Fcqb0cVNGwmUkPaEI=", "properties": {"@spider": "usps_collection_boxes", "addr:city": "DES MOINES", "addr:country": "US", "addr:full": "4023 URBANDALE AVE", "addr:postcode": "50310", "addr:state": "IA", "amenity": "post_box", "brand": "United States Postal Service", "brand:wikidata": "Q668687", "collection_times": "Mo-Fr 17:00; Sa 08:00", "name": "USPS COLLECTION BOX - PO LOBBY", "note": "ON 12/24 AND 12/31, THIS BOX MAY BE COLLECTED AS EARLY AS 12 NOON.", "nsi_id": "unitedstatespostalservice-a77078", "operator": "United States Postal Service", "operator:short": "USPS", "operator:type": "public", "operator:wikidata": "Q668687", "ref": "5031000041"}, "type": "Feature"}
{"dataset_attributes": {"@spider": "usps_collection_boxes", "spider:collection_time": "2023-12-13T08:25:56.872100"}, "geometry": {"coordinates": [-93.718636737, 41.596308], "type": "Point"}, "id": "Fx1StzH7U2D7jS8WVTIxLQoG80U=", "properties": {"@spider": "usps_collection_boxes", "addr:city": "DES MOINES", "addr:country": "US", "addr:full": "1000 73RD ST", "addr:postcode": "50311", "addr:state": "IA", "amenity": "post_box", "brand": "United States Postal Service", "brand:wikidata": "Q668687", "collection_times": "Mo-Fr 10:30", "name": "USPS COLLECTION BOX - BLUE BOX", "nsi_id": "unitedstatespostalservice-a77078", "operator": "United States Postal Service", "operator:short": "USPS", "operator:type": "public", "operator:wikidata": "Q668687", "ref": "5031100000"}, "type": "Feature"}
{"dataset_attributes": {"@spider": "usps_collection_boxes", "spider:collection_time": "2023-12-13T08:25:56.872100"}, "geometry": {"coordinates": [-93.718524297, 41.596685163], "type": "Point"}, "id": "tfGf7bGRntPGyMf7I5vK6sgh8Is=", "properties": {"@spider": "usps_collection_boxes", "addr:city": "DES MOINES", "addr:country": "US", "addr:full": "1001 73RD ST", "addr:postcode": "50311", "addr:state": "IA", "amenity": "post_box", "brand": "United States Postal Service", "brand:wikidata": "Q668687", "collection_times": "Mo-Fr 13:15", "name": "USPS COLLECTION BOX - BLUE BOX", "note": "ON 12/24 AND 12/31, THIS BOX MAY BE COLLECTED AS EARLY AS 12 NOON.", "nsi_id": "unitedstatespostalservice-a77078", "operator": "United States Postal Service", "operator:short": "USPS", "operator:type": "public", "operator:wikidata": "Q668687", "ref": "5031100003"}, "type": "Feature"}
{"dataset_attributes": {"@spider": "usps_collection_boxes", "spider:collection_time": "2023-12-13T08:25:56.872100"}, "geometry": {"coordinates": [-93.684033, 41.600339488], "type": "Point"}, "id": "gJIY8no5xdjbVA7e50FNIQ3KA28=", "properties": {"@spider": "usps_collection_boxes", "addr:city": "DES MOINES", "addr:country": "US", "addr:full": "4900 UNIVERSITY AVE", "addr:postcode": "50311", "addr:state": "IA", "amenity": "post_box", "brand": "United States Postal Service", "brand:wikidata": "Q668687", "collection_times": "Mo-Fr 14:00", "name": "USPS COLLECTION BOX - BLUE BOX", "note": "ON 12/24 AND 12/31, THIS BOX MAY BE COLLECTED AS EARLY AS 12 NOON.", "nsi_id": "unitedstatespostalservice-a77078", "operator": "United States Postal Service", "operator:short": "USPS", "operator:type": "public", "operator:wikidata": "Q668687", "ref": "5031100004"}, "type": "Feature"}
{"dataset_attributes": {"@spider": "usps_collection_boxes", "spider:collection_time": "2023-12-13T08:25:56.872100"}, "geometry": {"coordinates": [-93.673669421, 41.600272579], "type": "Point"}, "id": "JCCMgRqgtVnVqxSSRNVHxCF2TQk=", "properties": {"@spider": "usps_collection_boxes", "addr:city": "DES MOINES", "addr:country": "US", "addr:full": "4132 UNIVERSITY AVE", "addr:postcode": "50311", "addr:state": "IA", "amenity": "post_box", "brand": "United States Postal Service", "brand:wikidata": "Q668687", "collection_times": "Mo-Fr 15:30; Sa 14:00", "name": "USPS COLLECTION BOX - BLUE BOX", "note": "ON 12/24 AND 12/31, THIS BOX MAY BE COLLECTED AS EARLY AS 12 NOON.", "nsi_id": "unitedstatespostalservice-a77078", "operator": "United States Postal Service", "operator:short": "USPS", "operator:type": "public", "operator:wikidata": "Q668687", "ref": "5031100005"}, "type": "Feature"}
{"dataset_attributes": {"@spider": "usps_collection_boxes", "spider:collection_time": "2023-12-13T08:25:56.872100"}, "geometry": {"coordinates": [-93.65485, 41.601005], "type": "Point"}, "id": "R7rgfhDx0JRhVhJ0RUoE6x0YRuk=", "properties": {"@spider": "usps_collection_boxes", "addr:city": "DES MOINES", "addr:country": "US", "addr:full": "2323 FOREST AVE", "addr:postcode": "50311", "addr:state": "IA", "amenity": "post_box", "brand": "United States Postal Service", "brand:wikidata": "Q668687", "collection_times": "Mo-Fr 17:00; Sa 17:15", "name": "USPS COLLECTION BOX - BLUE BOX", "note": "ON 12/24 AND 12/31, THIS BOX MAY BE COLLECTED AS EARLY AS 12 NOON.", "nsi_id": "unitedstatespostalservice-a77078", "operator": "United States Postal Service", "operator:short": "USPS", "operator:type": "public", "operator:wikidata": "Q668687", "ref": "5031100006"}, "type": "Feature"}
{"dataset_attributes": {"@spider": "usps_collection_boxes", "spider:collection_time": "2023-12-13T08:25:56.872100"}, "geometry": {"coordinates": [-93.660440055, 41.600320495], "type": "Point"}, "id": "L4NaMm83K6Q7DLACKFkXDkXJ_io=", "properties": {"@spider": "usps_collection_boxes", "addr:city": "DES MOINES", "addr:country": "US", "addr:full": "3116 UNIVERSITY AVE", "addr:postcode": "50311", "addr:state": "IA", "amenity": "post_box", "brand": "United States Postal Service", "brand:wikidata": "Q668687", "collection_times": "Mo-Fr 10:00", "name": "USPS COLLECTION BOX - BLUE BOX", "nsi_id": "unitedstatespostalservice-a77078", "operator": "United States Postal Service", "operator:short": "USPS", "operator:type": "public", "operator:wikidata": "Q668687", "ref": "5031100007"}, "type": "Feature"}
{"dataset_attributes": {"@spider": "usps_collection_boxes", "spider:collection_time": "2023-12-13T08:25:56.872100"}, "geometry": {"coordinates": [-93.718636737, 41.596308], "type": "Point"}, "id": "SATYvLCNuKCguFnxvlO_tmXuPnc=", "properties": {"@spider": "usps_collection_boxes", "addr:city": "DES MOINES", "addr:country": "US", "addr:full": "1000 73RD ST", "addr:postcode": "50311", "addr:state": "IA", "amenity": "post_box", "brand": "United States Postal Service", "brand:wikidata": "Q668687", "collection_times": "Mo-Fr 10:30", "name": "USPS COLLECTION BOX - BLUE BOX", "nsi_id": "unitedstatespostalservice-a77078", "operator": "United States Postal Service", "operator:short": "USPS", "operator:type": "public", "operator:wikidata": "Q668687", "ref": "5031100010"}, "type": "Feature"}
{"dataset_attributes": {"@spider": "usps_collection_boxes", "spider:collection_time": "2023-12-13T08:25:56.872100"}, "geometry": {"coordinates": [-93.712937022, 41.600461421], "type": "Point"}, "id": "wKnB0DCv1K92Wr3ovdGATwSxLKg=", "properties": {"@spider": "usps_collection_boxes", "addr:city": "DES MOINES", "addr:country": "US", "addr:full": "6989 UNIVERSITY AVE", "addr:postcode": "50311", "addr:state": "IA", "amenity": "post_box", "brand": "United States Postal Service", "brand:wikidata": "Q668687", "collection_times": "Mo-Fr 11:00", "name": "USPS COLLECTION BOX - BLUE BOX", "nsi_id": "unitedstatespostalservice-a77078", "operator": "United States Postal Service", "operator:short": "USPS", "operator:type": "public", "operator:wikidata": "Q668687", "ref": "5031100019"}, "type": "Feature"}
{"dataset_attributes": {"@spider": "usps_collection_boxes", "spider:collection_time": "2023-12-13T08:25:56.872100"}, "geometry": {"coordinates": [-93.712937022, 41.600461421], "type": "Point"}, "id": "N6U1Mf4wu43np0UjextBFOaNgJ8=", "properties": {"@spider": "usps_collection_boxes", "addr:city": "DES MOINES", "addr:country": "US", "addr:full": "6989 UNIVERSITY AVE", "addr:postcode": "50311", "addr:state": "IA", "amenity": "post_box", "brand": "United States Postal Service", "brand:wikidata": "Q668687", "collection_times": "Mo-Fr 11:00", "name": "USPS COLLECTION BOX - BLUE BOX", "nsi_id": "unitedstatespostalservice-a77078", "operator": "United States Postal Service", "operator:short": "USPS", "operator:type": "public", "operator:wikidata": "Q668687", "ref": "5031100021"}, "type": "Feature"}
{"dataset_attributes": {"@spider": "usps_collection_boxes", "spider:collection_time": "2023-12-13T08:25:56.872100"}, "geometry": {"coordinates": [-93.6490005, 41.604085524], "type": "Point"}, "id": "Pvbdfqi6olosz-0QdM_rDP1-DVU=", "properties": {"@spider": "usps_collection_boxes", "addr:city": "DES MOINES", "addr:country": "US", "addr:full": "2323 FOREST AVE", "addr:postcode": "50311", "addr:state": "IA", "amenity": "post_box", "brand": "United States Postal Service", "brand:wikidata": "Q668687", "collection_times": "Mo-Fr 17:00; Sa 15:00", "name": "USPS COLLECTION BOX - PO LOBBY", "note": "ON 12/24 AND 12/31, THIS BOX MAY BE COLLECTED AS EARLY AS 12 NOON.", "nsi_id": "unitedstatespostalservice-a77078", "operator": "United States Postal Service", "operator:short": "USPS", "operator:type": "public", "operator:wikidata": "Q668687", "ref": "5031100023"}, "type": "Feature"}
{"dataset_attributes": {"@spider": "usps_collection_boxes", "spider:collection_time": "2023-12-13T08:25:56.872100"}, "geometry": {"coordinates": [-93.6490005, 41.604085524], "type": "Point"}, "id": "eh2Ij3d-s7OWTL0MUnQ9WxRxQ0Y=", "properties": {"@spider": "usps_collection_boxes", "addr:city": "DES MOINES", "addr:country": "US", "addr:full": "2323 FOREST AVE", "addr:postcode": "50311", "addr:state": "IA", "amenity": "post_box", "brand": "United States Postal Service", "brand:wikidata": "Q668687", "collection_times": "Mo-Fr 17:00; Sa 08:00", "name": "USPS COLLECTION BOX - PO LOBBY", "note": "ON 12/24 AND 12/31, THIS BOX MAY BE COLLECTED AS EARLY AS 12 NOON.", "nsi_id": "unitedstatespostalservice-a77078", "operator": "United States Postal Service", "operator:short": "USPS", "operator:type": "public", "operator:wikidata": "Q668687", "ref": "5031100024"}, "type": "Feature"}
{"dataset_attributes": {"@spider": "usps_collection_boxes", "spider:collection_time": "2023-12-13T08:25:56.872100"}, "geometry": {"coordinates": [-93.697383138, 41.582780494], "type": "Point"}, "id": "omRe5kPAxAGEDnSixWdJJhcKoBw=", "properties": {"@spider": "usps_collection_boxes", "addr:city": "DES MOINES", "addr:country": "US", "addr:full": "5835 GRAND AVE", "addr:postcode": "50312", "addr:state": "IA", "amenity": "post_box", "brand": "United States Postal Service", "brand:wikidata": "Q668687", "collection_times": "Mo-Fr 11:00", "name": "USPS COLLECTION BOX - BLUE BOX", "nsi_id": "unitedstatespostalservice-a77078", "operator": "United States Postal Service", "operator:short": "USPS", "operator:type": "public", "operator:wikidata": "Q668687", "ref": "5031200005"}, "type": "Feature"}
{"dataset_attributes": {"@spider": "usps_collection_boxes", "spider:collection_time": "2023-12-13T08:25:56.872100"}, "geometry": {"coordinates": [-93.674447914, 41.594179586], "type": "Point"}, "id": "AN8CwK-Dk02ODJVAOT7m4mmJzEo=", "properties": {"@spider": "usps_collection_boxes", "addr:city": "DES MOINES", "addr:country": "US", "addr:full": "4200 CROCKER ST", "addr:postcode": "50312", "addr:state": "IA", "amenity": "post_box", "brand": "United States Postal Service", "brand:wikidata": "Q668687", "collection_times": "Mo-Fr 14:45", "name": "USPS COLLECTION BOX - BLUE BOX", "note": "ON 12/24 AND 12/31, THIS BOX MAY BE COLLECTED AS EARLY AS 12 NOON.", "nsi_id": "unitedstatespostalservice-a77078", "operator": "United States Postal Service", "operator:short": "USPS", "operator:type": "public", "operator:wikidata": "Q668687", "ref": "5031200012"}, "type": "Feature"}
{"dataset_attributes": {"@spider": "usps_collection_boxes", "spider:collection_time": "2023-12-13T08:25:56.872100"}, "geometry": {"coordinates": [-93.663303114, 41.586340488], "type": "Point"}, "id": "5A11-x5M3FPg5z2hwmqmGL2M88I=", "properties": {"@spider": "usps_collection_boxes", "addr:city": "DES MOINES", "addr:country": "US", "addr:full": "3425 INGERSOLL AVE", "addr:postcode": "50312", "addr:state": "IA", "amenity": "post_box", "brand": "United States Postal Service", "brand:wikidata": "Q668687", "collection_times": "Mo-Fr 16:30; Sa 13:45", "name": "USPS COLLECTION BOX - BLUE BOX", "note": "ON 12/24 AND 12/31, THIS BOX MAY BE COLLECTED AS EARLY AS 12 NOON.", "nsi_id": "unitedstatespostalservice-a77078", "operator": "United States Postal Service", "operator:short": "USPS", "operator:type": "public", "operator:wikidata": "Q668687", "ref": "5031200013"}, "type": "Feature"}
{"dataset_attributes": {"@spider": "usps_collection_boxes", "spider:collection_time": "2023-12-13T08:25:56.872100"}, "geometry": {"coordinates": [-93.647553821, 41.584378531], "type": "Point"}, "id": "vHC-ZLMpCeWgVnEwv6RYSCI0Pdg=", "properties": {"@spider": "usps_collection_boxes", "addr:city": "DES MOINES", "addr:country": "US", "addr:full": "2200 GRAND AVE", "addr:postcode": "50312", "addr:state": "IA", "amenity": "post_box", "brand": "United States Postal Service", "brand:wikidata": "Q668687", "collection_times": "Mo-Fr 10:00", "name": "USPS COLLECTION BOX - BLUE BOX", "nsi_id": "unitedstatespostalservice-a77078", "operator": "United States Postal Service", "operator:short": "USPS", "operator:type": "public", "operator:wikidata": "Q668687", "ref": "5031200015"}, "type": "Feature"}
{"dataset_attributes": {"@spider": "usps_collection_boxes", "spider:collection_time": "2023-12-13T08:25:56.872100"}, "geometry": {"coordinates": [-93.6504900333, 41.5861149792], "type": "Point"}, "id": "387W2lexS_qbhqLDlVMMO2K8T_0=", "properties": {"@spider": "usps_collection_boxes", "addr:city": "DES MOINES", "addr:country": "US", "addr:full": "2415 INGERSOLL AVE", "addr:postcode": "50312", "addr:state": "IA", "amenity": "post_box", "brand": "United States Postal Service", "brand:wikidata": "Q668687", "collection_times": "Mo-Fr 12:00", "name": "USPS COLLECTION BOX - BLUE BOX", "nsi_id": "unitedstatespostalservice-a77078", "operator": "United States Postal Service", "operator:short": "USPS", "operator:type": "public", "operator:wikidata": "Q668687", "ref": "5031200016"}, "type": "Feature"}
{"dataset_attributes": {"@spider": "usps_collection_boxes", "spider:collection_time": "2023-12-13T08:25:56.872100"}, "geometry": {"coordinates": [-93.669776201, 41.585430231], "type": "Point"}, "id": "gorA5q-DfQLlhGyGoSPlK_TxxRc=", "properties": {"@spider": "usps_collection_boxes", "addr:city": "DES MOINES", "addr:country": "US", "addr:full": "550 39TH ST", "addr:postcode": "50312", "addr:state": "IA", "amenity": "post_box", "brand": "United States Postal Service", "brand:wikidata": "Q668687", "collection_times": "Mo-Fr 11:00", "name": "USPS COLLECTION BOX - BLUE BOX", "nsi_id": "unitedstatespostalservice-a77078", "operator": "United States Postal Service", "operator:short": "USPS", "operator:type": "public", "operator:wikidata": "Q668687", "ref": "5031200023"}, "type": "Feature"}
{"dataset_attributes": {"@spider": "usps_collection_boxes", "spider:collection_time": "2023-12-13T08:25:56.872100"}, "geometry": {"coordinates": [-93.6516735, 41.584366543], "type": "Point"}, "id": "8JwkLelRO_vO3cBLzuhCqClIduE=", "properties": {"@spider": "usps_collection_boxes", "addr:city": "DES MOINES", "addr:country": "US", "addr:full": "2600 GRAND AVE", "addr:postcode": "50312", "addr:state": "IA", "amenity": "post_box", "brand": "United States Postal Service", "brand:wikidata": "Q668687", "collection_times": "Mo-Fr 12:00", "name": "USPS COLLECTION BOX - BLUE BOX", "nsi_id": "unitedstatespostalservice-a77078", "operator": "United States Postal Service", "operator:short": "USPS", "operator:type": "public", "operator:wikidata": "Q668687", "ref": "5031200025"}, "type": "Feature"}
{"dataset_attributes": {"@spider": "usps_collection_boxes", "spider:collection_time": "2023-12-13T08:25:56.872100"}, "geometry": {"coordinates": [-93.67380297, 41.584512535], "type": "Point"}, "id": "BhTti2kbq4RvWLiNnPeJMh_puHI=", "properties": {"@spider": "usps_collection_boxes", "addr:city": "DES MOINES", "addr:country": "US", "addr:full": "4140 GRAND AVE", "addr:postcode": "50312", "addr:state": "IA", "amenity": "post_box", "brand": "United States Postal Service", "brand:wikidata": "Q668687", "collection_times": "Mo-Fr 11:00", "name": "USPS COLLECTION BOX - BLUE BOX", "nsi_id": "unitedstatespostalservice-a77078", "operator": "United States Postal Service", "operator:short": "USPS", "operator:type": "public", "operator:wikidata": "Q668687", "ref": "5031200026"}, "type": "Feature"}
{"dataset_attributes": {"@spider": "usps_collection_boxes", "spider:collection_time": "2023-12-13T08:25:56.872100"}, "geometry": {"coordinates": [-93.668395889, 41.586270017], "type": "Point"}, "id": "KlZhYkE4txTQehyRY-wK_25stug=", "properties": {"@spider": "usps_collection_boxes", "addr:city": "DES MOINES", "addr:country": "US", "addr:full": "3802 INGERSOLL AVE", "addr:postcode": "50312", "addr:state": "IA", "amenity": "post_box", "brand": "United States Postal Service", "brand:wikidata": "Q668687", "collection_times": "Mo-Fr 11:00", "name": "USPS COLLECTION BOX - BLUE BOX", "nsi_id": "unitedstatespostalservice-a77078", "operator": "United States Postal Service", "operator:short": "USPS", "operator:type": "public", "operator:wikidata": "Q668687", "ref": "5031200027"}, "type": "Feature"}
{"dataset_attributes": {"@spider": "usps_collection_boxes", "spider:collection_time": "2023-12-13T08:25:56.872100"}, "geometry": {"coordinates": [-93.616254036, 41.636848464], "type": "Point"}, "id": "YCrivI_BGNaGwXky3hqKbLSWZEw=", "properties": {"@spider": "usps_collection_boxes", "addr:city": "DES MOINES", "addr:country": "US", "addr:full": "200 E AURORA AVE", "addr:postcode": "50313", "addr:state": "IA", "amenity": "post_box", "brand": "United States Postal Service", "brand:wikidata": "Q668687", "collection_times": "Mo-Sa 13:15", "name": "USPS COLLECTION BOX - BLUE BOX", "note": "ON 12/24 AND 12/31, THIS BOX MAY BE COLLECTED AS EARLY AS 12 NOON.", "nsi_id": "unitedstatespostalservice-a77078", "operator": "United States Postal Service", "operator:short": "USPS", "operator:type": "public", "operator:wikidata": "Q668687", "ref": "5031300000"}, "type": "Feature"}
{"dataset_attributes": {"@spider": "usps_collection_boxes", "spider:collection_time": "2023-12-13T08:25:56.872100"}, "geometry": {"coordinates": [-93.618562714, 41.627723441], "type": "Point"}, "id": "M68qTwYQ5kyANK0S_QBvzpI3O7A=", "properties": {"@spider": "usps_collection_boxes", "addr:city": "DES MOINES", "addr:country": "US", "addr:full": "100 E EUCLID AVE", "addr:postcode": "50313", "addr:state": "IA", "amenity": "post_box", "brand": "United States Postal Service", "brand:wikidata": "Q668687", "collection_times": "Mo-Fr 10:30", "name": "USPS COLLECTION BOX - BLUE BOX", "nsi_id": "unitedstatespostalservice-a77078", "operator": "United States Postal Service", "operator:short": "USPS", "operator:type": "public", "operator:wikidata": "Q668687", "ref": "5031300003"}, "type": "Feature"}
{"dataset_attributes": {"@spider": "usps_collection_boxes", "spider:collection_time": "2023-12-13T08:25:56.872100"}, "geometry": {"coordinates": [-93.621511028, 41.627986986], "type": "Point"}, "id": "gG7A67puOnFipnP7Vdk_7sHm9y4=", "properties": {"@spider": "usps_collection_boxes", "addr:city": "DES MOINES", "addr:country": "US", "addr:full": "303 EUCLID AVE", "addr:postcode": "50313", "addr:state": "IA", "amenity": "post_box", "brand": "United States Postal Service", "brand:wikidata": "Q668687", "collection_times": "Mo-Fr 10:30", "name": "USPS COLLECTION BOX - BLUE BOX", "nsi_id": "unitedstatespostalservice-a77078", "operator": "United States Postal Service", "operator:short": "USPS", "operator:type": "public", "operator:wikidata": "Q668687", "ref": "5031300004"}, "type": "Feature"}
{"dataset_attributes": {"@spider": "usps_collection_boxes", "spider:collection_time": "2023-12-13T08:25:56.872100"}, "geometry": {"coordinates": [-93.624746739, 41.629743], "type": "Point"}, "id": "J6YMKSl2Tef7K3YVPM-Ry6gEiBs=", "properties": {"@spider": "usps_collection_boxes", "addr:city": "DES MOINES", "addr:country": "US", "addr:full": "3805 6TH AVE", "addr:postcode": "50313", "addr:state": "IA", "amenity": "post_box", "brand": "United States Postal Service", "brand:wikidata": "Q668687", "collection_times": "Mo-Fr 10:00", "name": "USPS COLLECTION BOX - BLUE BOX", "nsi_id": "unitedstatespostalservice-a77078", "operator": "United States Postal Service", "operator:short": "USPS", "operator:type": "public", "operator:wikidata": "Q668687", "ref": "5031300005"}, "type": "Feature"}
{"dataset_attributes": {"@spider": "usps_collection_boxes", "spider:collection_time": "2023-12-13T08:25:56.872100"}, "geometry": {"coordinates": [-93.600216229, 41.648263743], "type": "Point"}, "id": "ZkX4l2BQYpjtRjfSTM0r8qJtJhc=", "properties": {"@spider": "usps_collection_boxes", "addr:city": "DES MOINES", "addr:country": "US", "addr:full": "4801 NE 14TH ST", "addr:postcode": "50313", "addr:state": "IA", "amenity": "post_box", "brand": "United States Postal Service", "brand:wikidata": "Q668687", "collection_times": "Mo-Sa 09:15", "name": "USPS COLLECTION BOX - BLUE BOX", "nsi_id": "unitedstatespostalservice-a77078", "operator": "United States Postal Service", "operator:short": "USPS", "operator:type": "public", "operator:wikidata": "Q668687", "ref": "5031300009"}, "type": "Feature"}
{"dataset_attributes": {"@spider": "usps_collection_boxes", "spider:collection_time": "2023-12-13T08:25:56.872100"}, "geometry": {"coordinates": [-93.600499207, 41.6207327], "type": "Point"}, "id": "0L2FOchYFMAhIVFepNgIgaBEZy4=", "properties": {"@spider": "usps_collection_boxes", "addr:city": "DES MOINES", "addr:country": "US", "addr:full": "2811 E 14TH ST", "addr:postcode": "50313", "addr:state": "IA", "amenity": "post_box", "brand": "United States Postal Service", "brand:wikidata": "Q668687", "collection_times": "Mo-Fr 14:45", "name": "USPS COLLECTION BOX - BLUE BOX", "note": "ON 12/24 AND 12/31, THIS BOX MAY BE COLLECTED AS EARLY AS 12 NOON.", "nsi_id": "unitedstatespostalservice-a77078", "operator": "United States Postal Service", "operator:short": "USPS", "operator:type": "public", "operator:wikidata": "Q668687", "ref": "5031300014"}, "type": "Feature"}
{"dataset_attributes": {"@spider": "usps_collection_boxes", "spider:collection_time": "2023-12-13T08:25:56.872100"}, "geometry": {"coordinates": [-93.636643416, 41.627647521], "type": "Point"}, "id": "3cr9QmLK8R4WVA04JJzstzXYMf4=", "properties": {"@spider": "usps_collection_boxes", "addr:city": "DES MOINES", "addr:country": "US", "addr:full": "1320 EUCLID AVE", "addr:postcode": "50313", "addr:state": "IA", "amenity": "post_box", "brand": "United States Postal Service", "brand:wikidata": "Q668687", "collection_times": "Mo-Fr 16:00; Sa 09:45", "name": "USPS COLLECTION BOX - BLUE BOX", "note": "ON 12/24 AND 12/31, THIS BOX MAY BE COLLECTED AS EARLY AS 12 NOON.", "nsi_id": "unitedstatespostalservice-a77078", "operator": "United States Postal Service", "operator:short": "USPS", "operator:type": "public", "operator:wikidata": "Q668687", "ref": "5031300015"}, "type": "Feature"}
{"dataset_attributes": {"@spider": "usps_collection_boxes", "spider:collection_time": "2023-12-13T08:25:56.872100"}, "geometry": {"coordinates": [-93.62228, 41.628615], "type": "Point"}, "id": "90SQ7ECN0KG-iXaxL26nvP7QPF0=", "properties": {"@spider": "usps_collection_boxes", "addr:city": "DES MOINES", "addr:country": "US", "addr:full": "1501 E FLEMING AVE", "addr:postcode": "50313", "addr:state": "IA", "amenity": "post_box", "brand": "United States Postal Service", "brand:wikidata": "Q668687", "collection_times": "Mo-Fr 17:30; Sa 18:00", "name": "USPS COLLECTION BOX - BLUE BOX", "note": "ON 12/24 AND 12/31, THIS BOX MAY BE COLLECTED AS EARLY AS 12 NOON.", "nsi_id": "unitedstatespostalservice-a77078", "operator": "United States Postal Service", "operator:short": "USPS", "operator:type": "public", "operator:wikidata": "Q668687", "ref": "5031300016"}, "type": "Feature"}
{"dataset_attributes": {"@spider": "usps_collection_boxes", "spider:collection_time": "2023-12-13T08:25:56.872100"}, "geometry": {"coordinates": [-93.598087026, 41.632182554], "type": "Point"}, "id": "SMwEZooi-OqcyjkrXSu6UGAc13Q=", "properties": {"@spider": "usps_collection_boxes", "addr:city": "DES MOINES", "addr:country": "US", "addr:full": "1501 E FLEMING AVE", "addr:postcode": "50313", "addr:state": "IA", "amenity": "post_box", "brand": "United States Postal Service", "brand:wikidata": "Q668687", "collection_times": "Mo-Fr 17:00; Sa 16:00", "name": "USPS COLLECTION BOX - PO LOBBY", "note": "ON 12/24 AND 12/31, THIS BOX MAY BE COLLECTED AS EARLY AS 12 NOON.", "nsi_id": "unitedstatespostalservice-a77078", "operator": "United States Postal Service", "operator:short": "USPS", "operator:type": "public", "operator:wikidata": "Q668687", "ref": "5031300017"}, "type": "Feature"}
{"dataset_attributes": {"@spider": "usps_collection_boxes", "spider:collection_time": "2023-12-13T08:25:56.872100"}, "geometry": {"coordinates": [-93.598087026, 41.632182554], "type": "Point"}, "id": "yCHMb3JSS82PnzYsrCaAIpx7LEo=", "properties": {"@spider": "usps_collection_boxes", "addr:city": "DES MOINES", "addr:country": "US", "addr:full": "1501 E FLEMING AVE", "addr:postcode": "50313", "addr:state": "IA", "amenity": "post_box", "brand": "United States Postal Service", "brand:wikidata": "Q668687", "collection_times": "Mo-Fr 17:00; Sa 08:00", "name": "USPS COLLECTION BOX - PO LOBBY", "note": "ON 12/24 AND 12/31, THIS BOX MAY BE COLLECTED AS EARLY AS 12 NOON.", "nsi_id": "unitedstatespostalservice-a77078", "operator": "United States Postal Service", "operator:short": "USPS", "operator:type": "public", "operator:wikidata": "Q668687", "ref": "5031300019"}, "type": "Feature"}
{"dataset_attributes": {"@spider": "usps_collection_boxes", "spider:collection_time": "2023-12-13T08:25:56.872100"}, "geometry": {"coordinates": [-93.642494059, 41.61510652], "type": "Point"}, "id": "PR0Ght0raFssoLyarP6ol-_J4Nc=", "properties": {"@spider": "usps_collection_boxes", "addr:city": "DES MOINES", "addr:country": "US", "addr:full": "1801 HICKMAN RD", "addr:postcode": "50314", "addr:state": "IA", "amenity": "post_box", "brand": "United States Postal Service", "brand:wikidata": "Q668687", "collection_times": "Mo-Fr 10:00", "name": "USPS COLLECTION BOX - BLUE BOX", "nsi_id": "unitedstatespostalservice-a77078", "operator": "United States Postal Service", "operator:short": "USPS", "operator:type": "public", "operator:wikidata": "Q668687", "ref": "5031400001"}, "type": "Feature"}
{"dataset_attributes": {"@spider": "usps_collection_boxes", "spider:collection_time": "2023-12-13T08:25:56.872100"}, "geometry": {"coordinates": [-93.624446862, 41.598615602], "type": "Point"}, "id": "GyxqF0FwD-n6aM1DJ0PN1eFrvVE=", "properties": {"@spider": "usps_collection_boxes", "addr:city": "DES MOINES", "addr:country": "US", "addr:full": "1157 5TH AVE", "addr:postcode": "50314", "addr:state": "IA", "amenity": "post_box", "brand": "United States Postal Service", "brand:wikidata": "Q668687", "collection_times": "Mo-Fr 11:00", "name": "USPS COLLECTION BOX - BLUE BOX", "nsi_id": "unitedstatespostalservice-a77078", "operator": "United States Postal Service", "operator:short": "USPS", "operator:type": "public", "operator:wikidata": "Q668687", "ref": "5031400006"}, "type": "Feature"}
{"dataset_attributes": {"@spider": "usps_collection_boxes", "spider:collection_time": "2023-12-13T08:25:56.872100"}, "geometry": {"coordinates": [-93.636782911, 41.591740411], "type": "Point"}, "id": "A-jeI18Ha9E_zDdqBJBjzDBvCpM=", "properties": {"@spider": "usps_collection_boxes", "addr:city": "DES MOINES", "addr:country": "US", "addr:full": "1401 CENTER ST", "addr:postcode": "50314", "addr:state": "IA", "amenity": "post_box", "brand": "United States Postal Service", "brand:wikidata": "Q668687", "collection_times": "Mo-Fr 12:15; Sa 11:00", "name": "USPS COLLECTION BOX - BLUE BOX", "note": "ON 12/24 AND 12/31, THIS BOX MAY BE COLLECTED AS EARLY AS 12 NOON.", "nsi_id": "unitedstatespostalservice-a77078", "operator": "United States Postal Service", "operator:short": "USPS", "operator:type": "public", "operator:wikidata": "Q668687", "ref": "5031400009"}, "type": "Feature"}
{"dataset_attributes": {"@spider": "usps_collection_boxes", "spider:collection_time": "2023-12-13T08:25:56.872100"}, "geometry": {"coordinates": [-93.629336264, 41.598360251], "type": "Point"}, "id": "SkVPjQe2o6U66Pd8uDUWGpGoZaw=", "properties": {"@spider": "usps_collection_boxes", "addr:city": "DES MOINES", "addr:country": "US", "addr:full": "1111 9TH ST", "addr:postcode": "50314", "addr:state": "IA", "amenity": "post_box", "brand": "United States Postal Service", "brand:wikidata": "Q668687", "collection_times": "Mo-Fr 12:00", "name": "USPS COLLECTION BOX - BLUE BOX", "nsi_id": "unitedstatespostalservice-a77078", "operator": "United States Postal Service", "operator:short": "USPS", "operator:type": "public", "operator:wikidata": "Q668687", "ref": "5031400011"}, "type": "Feature"}
{"dataset_attributes": {"@spider": "usps_collection_boxes", "spider:collection_time": "2023-12-13T08:25:56.872100"}, "geometry": {"coordinates": [-93.629336264, 41.598360251], "type": "Point"}, "id": "BeSIj4KdZVK1QfPJ_Az4QC_RyLI=", "properties": {"@spider": "usps_collection_boxes", "addr:city": "DES MOINES", "addr:country": "US", "addr:full": "1111 9TH ST", "addr:postcode": "50314", "addr:state": "IA", "amenity": "post_box", "brand": "United States Postal Service", "brand:wikidata": "Q668687", "collection_times": "Mo-Fr 12:00", "name": "USPS COLLECTION BOX - BLUE BOX", "nsi_id": "unitedstatespostalservice-a77078", "operator": "United States Postal Service", "operator:short": "USPS", "operator:type": "public", "operator:wikidata": "Q668687", "ref": "5031400012"}, "type": "Feature"}
{"dataset_attributes": {"@spider": "usps_collection_boxes", "spider:collection_time": "2023-12-13T08:25:56.872100"}, "geometry": {"coordinates": [-93.629385, 41.60494], "type": "Point"}, "id": "azd3ulGd4yzHH-GfxO9a1KPqja8=", "properties": {"@spider": "usps_collection_boxes", "addr:city": "DES MOINES", "addr:country": "US", "addr:full": "1111 9TH ST", "addr:postcode": "50314", "addr:state": "IA", "amenity": "post_box", "brand": "United States Postal Service", "brand:wikidata": "Q668687", "collection_times": "Mo-Fr 12:00", "name": "USPS COLLECTION BOX - BLUE BOX", "nsi_id": "unitedstatespostalservice-a77078", "operator": "United States Postal Service", "operator:short": "USPS", "operator:type": "public", "operator:wikidata": "Q668687", "ref": "5031400014"}, "type": "Feature"}
{"dataset_attributes": {"@spider": "usps_collection_boxes", "spider:collection_time": "2023-12-13T08:25:56.872100"}, "geometry": {"coordinates": [-93.62392, 41.55], "type": "Point"}, "id": "diYyIeid26j1bwxpDxFm32qDjCc=", "properties": {"@spider": "usps_collection_boxes", "addr:city": "DES MOINES", "addr:country": "US", "addr:full": "899 PAYTON AVE", "addr:postcode": "50315", "addr:state": "IA", "amenity": "post_box", "brand": "United States Postal Service", "brand:wikidata": "Q668687", "collection_times": "Mo-Fr 13:45", "name": "USPS COLLECTION BOX - BLUE BOX", "note": "ON 12/24 AND 12/31, THIS BOX MAY BE COLLECTED AS EARLY AS 12 NOON.", "nsi_id": "unitedstatespostalservice-a77078", "operator": "United States Postal Service", "operator:short": "USPS", "operator:type": "public", "operator:wikidata": "Q668687", "ref": "5031500000"}, "type": "Feature"}
{"dataset_attributes": {"@spider": "usps_collection_boxes", "spider:collection_time": "2023-12-13T08:25:56.872100"}, "geometry": {"coordinates": [-93.6019935, 41.526241541], "type": "Point"}, "id": "QjdoSAB5Uyl5os7Lt8tbF12eeGQ=", "properties": {"@spider": "usps_collection_boxes", "addr:city": "DES MOINES", "addr:country": "US", "addr:full": "1107 E ARMY POST RD", "addr:postcode": "50315", "addr:state": "IA", "amenity": "post_box", "brand": "United States Postal Service", "brand:wikidata": "Q668687", "collection_times": "Mo-Fr 15:15; Sa 13:15", "name": "USPS COLLECTION BOX - BLUE BOX", "note": "ON 12/24 AND 12/31, THIS BOX MAY BE COLLECTED AS EARLY AS 12 NOON.", "nsi_id": "unitedstatespostalservice-a77078", "operator": "United States Postal Service", "operator:short": "USPS", "operator:type": "public", "operator:wikidata": "Q668687", "ref": "5031500005"}, "type": "Feature"}
{"dataset_attributes": {"@spider": "usps_collection_boxes", "spider:collection_time": "2023-12-13T08:25:56.872100"}, "geometry": {"coordinates": [-93.608564117, 41.54097539], "type": "Point"}, "id": "MCISXr1QtEZX2VSQrG0_dRxcql0=", "properties": {"@spider": "usps_collection_boxes", "addr:city": "DES MOINES", "addr:country": "US", "addr:full": "430 E MCKINLEY AVE", "addr:postcode": "50315", "addr:state": "IA", "amenity": "post_box", "brand": "United States Postal Service", "brand:wikidata": "Q668687", "collection_times": "Mo-Fr 17:00; Sa 16:30", "name": "USPS COLLECTION BOX - BLUE BOX", "note": "ON 12/24 AND 12/31, THIS BOX MAY BE COLLECTED AS EARLY AS 12 NOON.", "nsi_id": "unitedstatespostalservice-a77078", "operator": "United States Postal Service", "operator:short": "USPS", "operator:type": "public", "operator:wikidata": "Q668687", "ref": "5031500009"}, "type": "Feature"}
{"dataset_attributes": {"@spider": "usps_collection_boxes", "spider:collection_time": "2023-12-13T08:25:56.872100"}, "geometry": {"coordinates": [-93.625819218, 41.555142472], "type": "Point"}, "id": "PeKyAyrkQ2MLdAqUyF4HqrEGSCA=", "properties": {"@spider": "usps_collection_boxes", "addr:city": "DES MOINES", "addr:country": "US", "addr:full": "3200 SW 9TH ST", "addr:postcode": "50315", "addr:state": "IA", "amenity": "post_box", "brand": "United States Postal Service", "brand:wikidata": "Q668687", "collection_times": "Mo-Fr 13:15", "name": "USPS COLLECTION BOX - BLUE BOX", "note": "ON 12/24 AND 12/31, THIS BOX MAY BE COLLECTED AS EARLY AS 12 NOON.", "nsi_id": "unitedstatespostalservice-a77078", "operator": "United States Postal Service", "operator:short": "USPS", "operator:type": "public", "operator:wikidata": "Q668687", "ref": "5031500016"}, "type": "Feature"}
{"dataset_attributes": {"@spider": "usps_collection_boxes", "spider:collection_time": "2023-12-13T08:25:56.872100"}, "geometry": {"coordinates": [-93.608564117, 41.54097539], "type": "Point"}, "id": "D_YygshC7lOzn_SSNpiYrf6-lqM=", "properties": {"@spider": "usps_collection_boxes", "addr:city": "DES MOINES", "addr:country": "US", "addr:full": "430 E MCKINLEY AVE", "addr:postcode": "50315", "addr:state": "IA", "amenity": "post_box", "brand": "United States Postal Service", "brand:wikidata": "Q668687", "collection_times": "Mo-Fr 17:00; Sa 16:30", "name": "USPS COLLECTION BOX - PO LOBBY", "note": "ON 12/24 AND 12/31, THIS BOX MAY BE COLLECTED AS EARLY AS 12 NOON.", "nsi_id": "unitedstatespostalservice-a77078", "operator": "United States Postal Service", "operator:short": "USPS", "operator:type": "public", "operator:wikidata": "Q668687", "ref": "5031500020"}, "type": "Feature"}
{"dataset_attributes": {"@spider": "usps_collection_boxes", "spider:collection_time": "2023-12-13T08:25:56.872100"}, "geometry": {"coordinates": [-93.608564117, 41.54097539], "type": "Point"}, "id": "g5o9WbmovxkeGwYY8z2HGpGHHsw=", "properties": {"@spider": "usps_collection_boxes", "addr:city": "DES MOINES", "addr:country": "US", "addr:full": "430 E MCKINLEY AVE", "addr:postcode": "50315", "addr:state": "IA", "amenity": "post_box", "brand": "United States Postal Service", "brand:wikidata": "Q668687", "collection_times": "Mo-Fr 17:00; Sa 16:30", "name": "USPS COLLECTION BOX - APC", "note": "ON 12/24 AND 12/31, THIS BOX MAY BE COLLECTED AS EARLY AS 12 NOON.", "nsi_id": "unitedstatespostalservice-a77078", "operator": "United States Postal Service", "operator:short": "USPS", "operator:type": "public", "operator:wikidata": "Q668687", "ref": "5031500022"}, "type": "Feature"}
{"dataset_attributes": {"@spider": "usps_collection_boxes", "spider:collection_time": "2023-12-13T08:25:56.872100"}, "geometry": {"coordinates": [-93.608564117, 41.54097539], "type": "Point"}, "id": "HbrhQdXeUlMWepnShsTScljI5Mw=", "properties": {"@spider": "usps_collection_boxes", "addr:city": "DES MOINES", "addr:country": "US", "addr:full": "430 E MCKINLEY AVE", "addr:postcode": "50315", "addr:state": "IA", "amenity": "post_box", "brand": "United States Postal Service", "brand:wikidata": "Q668687", "collection_times": "Mo-Fr 17:00; Sa 13:00", "name": "USPS COLLECTION BOX - PO LOBBY", "note": "ON 12/24 AND 12/31, THIS BOX MAY BE COLLECTED AS EARLY AS 12 NOON.", "nsi_id": "unitedstatespostalservice-a77078", "operator": "United States Postal Service", "operator:short": "USPS", "operator:type": "public", "operator:wikidata": "Q668687", "ref": "5031500023"}, "type": "Feature"}
{"dataset_attributes": {"@spider": "usps_collection_boxes", "spider:collection_time": "2023-12-13T08:25:56.872100"}, "geometry": {"coordinates": [-93.592334515, 41.594499798], "type": "Point"}, "id": "iXeRjTdE94HxLsT3DBfMVKKptIA=", "properties": {"@spider": "usps_collection_boxes", "addr:city": "DES MOINES", "addr:country": "US", "addr:full": "1601 E GRAND AVE", "addr:postcode": "50316", "addr:state": "IA", "amenity": "post_box", "brand": "United States Postal Service", "brand:wikidata": "Q668687", "collection_times": "Mo-Fr 13:00", "name": "USPS COLLECTION BOX - BLUE BOX", "note": "ON 12/24 AND 12/31, THIS BOX MAY BE COLLECTED AS EARLY AS 12 NOON.", "nsi_id": "unitedstatespostalservice-a77078", "operator": "United States Postal Service", "operator:short": "USPS", "operator:type": "public", "operator:wikidata": "Q668687", "ref": "5031600000"}, "type": "Feature"}
{"dataset_attributes": {"@spider": "usps_collection_boxes", "spider:collection_time": "2023-12-13T08:25:56.872100"}, "geometry": {"coordinates": [-93.61018197, 41.600407485], "type": "Point"}, "id": "V6pfIC_qEFxO2Nwq_B97ye3psh4=", "properties": {"@spider": "usps_collection_boxes", "addr:city": "DES MOINES", "addr:country": "US", "addr:full": "700 E UNIVERSITY AVE", "addr:postcode": "50316", "addr:state": "IA", "amenity": "post_box", "brand": "United States Postal Service", "brand:wikidata": "Q668687", "collection_times": "Mo-Fr 15:00", "name": "USPS COLLECTION BOX - BLUE BOX", "note": "ON 12/24 AND 12/31, THIS BOX MAY BE COLLECTED AS EARLY AS 12 NOON.", "nsi_id": "unitedstatespostalservice-a77078", "operator": "United States Postal Service", "operator:short": "USPS", "operator:type": "public", "operator:wikidata": "Q668687", "ref": "5031600003"}, "type": "Feature"}
{"dataset_attributes": {"@spider": "usps_collection_boxes", "spider:collection_time": "2023-12-13T08:25:56.872100"}, "geometry": {"coordinates": [-93.590022526, 41.615009451], "type": "Point"}, "id": "SbpZWoipd24jhoxFNoDhrqjrjso=", "properties": {"@spider": "usps_collection_boxes", "addr:city": "DES MOINES", "addr:country": "US", "addr:full": "1710 GUTHRIE AVE", "addr:postcode": "50316", "addr:state": "IA", "amenity": "post_box", "brand": "United States Postal Service", "brand:wikidata": "Q668687", "collection_times": "Mo-Fr 10:30", "name": "USPS COLLECTION BOX - BLUE BOX", "nsi_id": "unitedstatespostalservice-a77078", "operator": "United States Postal Service", "operator:short": "USPS", "operator:type": "public", "operator:wikidata": "Q668687", "ref": "5031600007"}, "type": "Feature"}
{"dataset_attributes": {"@spider": "usps_collection_boxes", "spider:collection_time": "2023-12-13T08:25:56.872100"}, "geometry": {"coordinates": [-93.6014085, 41.60115], "type": "Point"}, "id": "sAz803Ju9L8tFbS4Z1iQwKEvwY4=", "properties": {"@spider": "usps_collection_boxes", "addr:city": "DES MOINES", "addr:country": "US", "addr:full": "1330 E UNIVERSITY AVE", "addr:postcode": "50316", "addr:state": "IA", "amenity": "post_box", "brand": "United States Postal Service", "brand:wikidata": "Q668687", "collection_times": "Mo-Fr 13:45", "name": "USPS COLLECTION BOX - BLUE BOX", "note": "ON 12/24 AND 12/31, THIS BOX MAY BE COLLECTED AS EARLY AS 12 NOON.", "nsi_id": "unitedstatespostalservice-a77078", "operator": "United States Postal Service", "operator:short": "USPS", "operator:type": "public", "operator:wikidata": "Q668687", "ref": "5031600021"}, "type": "Feature"}
{"dataset_attributes": {"@spider": "usps_collection_boxes", "spider:collection_time": "2023-12-13T08:25:56.872100"}, "geometry": {"coordinates": [-93.561209776, 41.632992251], "type": "Point"}, "id": "35a_0MUSIFpBHQPJCLSu5U_s1nI=", "properties": {"@spider": "usps_collection_boxes", "addr:city": "DES MOINES", "addr:country": "US", "addr:full": "3940 E 29TH ST", "addr:postcode": "50317", "addr:state": "IA", "amenity": "post_box", "brand": "United States Postal Service", "brand:wikidata": "Q668687", "collection_times": "Mo-Fr 13:45", "name": "USPS COLLECTION BOX - BLUE BOX", "note": "ON 12/24 AND 12/31, THIS BOX MAY BE COLLECTED AS EARLY AS 12 NOON.", "nsi_id": "unitedstatespostalservice-a77078", "operator": "United States Postal Service", "operator:short": "USPS", "operator:type": "public", "operator:wikidata": "Q668687", "ref": "5031700000"}, "type": "Feature"}
{"dataset_attributes": {"@spider": "usps_collection_boxes", "spider:collection_time": "2023-12-13T08:25:56.872100"}, "geometry": {"coordinates": [-93.57341902, 41.606472987], "type": "Point"}, "id": "p5fIbgarTQLezxpKhLKeLN5QP5s=", "properties": {"@spider": "usps_collection_boxes", "addr:city": "DES MOINES", "addr:country": "US", "addr:full": "2400 EASTON BLVD", "addr:postcode": "50317", "addr:state": "IA", "amenity": "post_box", "brand": "United States Postal Service", "brand:wikidata": "Q668687", "collection_times": "Mo-Fr 14:00", "name": "USPS COLLECTION BOX - BLUE BOX", "note": "ON 12/24 AND 12/31, THIS BOX MAY BE COLLECTED AS EARLY AS 12 NOON.", "nsi_id": "unitedstatespostalservice-a77078", "operator": "United States Postal Service", "operator:short": "USPS", "operator:type": "public", "operator:wikidata": "Q668687", "ref": "5031700002"}, "type": "Feature"}
{"dataset_attributes": {"@spider": "usps_collection_boxes", "spider:collection_time": "2023-12-13T08:25:56.872100"}, "geometry": {"coordinates": [-93.570242139, 41.593379503], "type": "Point"}, "id": "79pI7Cpq_Y-O2uh2m5SFxKv7C18=", "properties": {"@spider": "usps_collection_boxes", "addr:city": "DES MOINES", "addr:country": "US", "addr:full": "2501 E WALNUT ST", "addr:postcode": "50317", "addr:state": "IA", "amenity": "post_box", "brand": "United States Postal Service", "brand:wikidata": "Q668687", "collection_times": "Mo-Sa 14:00", "name": "USPS COLLECTION BOX - BLUE BOX", "note": "ON 12/24 AND 12/31, THIS BOX MAY BE COLLECTED AS EARLY AS 12 NOON.", "nsi_id": "unitedstatespostalservice-a77078", "operator": "United States Postal Service", "operator:short": "USPS", "operator:type": "public", "operator:wikidata": "Q668687", "ref": "5031700003"}, "type": "Feature"}
{"dataset_attributes": {"@spider": "usps_collection_boxes", "spider:collection_time": "2023-12-13T08:25:56.872100"}, "geometry": {"coordinates": [-93.571371, 41.586871515], "type": "Point"}, "id": "3UERBgAuPTKH4FDypwurQOVaF0g=", "properties": {"@spider": "usps_collection_boxes", "addr:city": "DES MOINES", "addr:country": "US", "addr:full": "2345 E MARKET ST", "addr:postcode": "50317", "addr:state": "IA", "amenity": "post_box", "brand": "United States Postal Service", "brand:wikidata": "Q668687", "collection_times": "Mo-Sa 14:00", "name": "USPS COLLECTION BOX - BLUE BOX", "note": "ON 12/24 AND 12/31, THIS BOX MAY BE COLLECTED AS EARLY AS 12 NOON.", "nsi_id": "unitedstatespostalservice-a77078", "operator": "United States Postal Service", "operator:short": "USPS", "operator:type": "public", "operator:wikidata": "Q668687", "ref": "5031700005"}, "type": "Feature"}
{"dataset_attributes": {"@spider": "usps_collection_boxes", "spider:collection_time": "2023-12-13T08:25:56.872100"}, "geometry": {"coordinates": [-93.5532550111, 41.6257889995], "type": "Point"}, "id": "JCg68tNbK8o92jGyw7a-cPOFhlQ=", "properties": {"@spider": "usps_collection_boxes", "addr:city": "DES MOINES", "addr:country": "US", "addr:full": "3400 E 33RD ST", "addr:postcode": "50317", "addr:state": "IA", "amenity": "post_box", "brand": "United States Postal Service", "brand:wikidata": "Q668687", "collection_times": "Mo-Sa 13:00", "name": "USPS COLLECTION BOX - BLUE BOX", "note": "ON 12/24 AND 12/31, THIS BOX MAY BE COLLECTED AS EARLY AS 12 NOON.", "nsi_id": "unitedstatespostalservice-a77078", "operator": "United States Postal Service", "operator:short": "USPS", "operator:type": "public", "operator:wikidata": "Q668687", "ref": "5031700007"}, "type": "Feature"}
{"dataset_attributes": {"@spider": "usps_collection_boxes", "spider:collection_time": "2023-12-13T08:25:56.872100"}, "geometry": {"coordinates": [-93.518631764, 41.598027531], "type": "Point"}, "id": "sg_usFtrGCVw_oFeXubFrGro5nA=", "properties": {"@spider": "usps_collection_boxes", "addr:city": "DES MOINES", "addr:country": "US", "addr:full": "4815 MAPLE DR", "addr:postcode": "50317", "addr:state": "IA", "amenity": "post_box", "brand": "United States Postal Service", "brand:wikidata": "Q668687", "collection_times": "Mo-Fr 15:30; Sa 12:30", "name": "USPS COLLECTION BOX - BLUE BOX", "note": "ON 12/24 AND 12/31, THIS BOX MAY BE COLLECTED AS EARLY AS 12 NOON.", "nsi_id": "unitedstatespostalservice-a77078", "operator": "United States Postal Service", "operator:short": "USPS", "operator:type": "public", "operator:wikidata": "Q668687", "ref": "5031700010"}, "type": "Feature"}
{"dataset_attributes": {"@spider": "usps_collection_boxes", "spider:collection_time": "2023-12-13T08:25:56.872100"}, "geometry": {"coordinates": [-93.569450223, 41.627771513], "type": "Point"}, "id": "mYy7Dh5Loax55jvw4qsSZ-zSlT4=", "properties": {"@spider": "usps_collection_boxes", "addr:city": "DES MOINES", "addr:country": "US", "addr:full": "2540 E EUCLID AVE", "addr:postcode": "50317", "addr:state": "IA", "amenity": "post_box", "brand": "United States Postal Service", "brand:wikidata": "Q668687", "collection_times": "Mo-Fr 15:45; Sa 13:00", "name": "USPS COLLECTION BOX - BLUE BOX", "note": "ON 12/24 AND 12/31, THIS BOX MAY BE COLLECTED AS EARLY AS 12 NOON.", "nsi_id": "unitedstatespostalservice-a77078", "operator": "United States Postal Service", "operator:short": "USPS", "operator:type": "public", "operator:wikidata": "Q668687", "ref": "5031700011"}, "type": "Feature"}
{"dataset_attributes": {"@spider": "usps_collection_boxes", "spider:collection_time": "2023-12-13T08:25:56.872100"}, "geometry": {"coordinates": [-93.503279737, 41.602679916], "type": "Point"}, "id": "msV5dbYgH5ztxltmod0BIW2p50A=", "properties": {"@spider": "usps_collection_boxes", "addr:city": "DES MOINES", "addr:country": "US", "addr:full": "1300 NE 56TH ST", "addr:postcode": "50317", "addr:state": "IA", "amenity": "post_box", "brand": "United States Postal Service", "brand:wikidata": "Q668687", "collection_times": "Mo-Fr 18:00; Sa 17:15", "name": "USPS COLLECTION BOX - BLUE BOX", "note": "ON 12/24 AND 12/31, THIS BOX MAY BE COLLECTED AS EARLY AS 12 NOON.", "nsi_id": "unitedstatespostalservice-a77078", "operator": "United States Postal Service", "operator:short": "USPS", "operator:type": "public", "operator:wikidata": "Q668687", "ref": "5031700012"}, "type": "Feature"}
{"dataset_attributes": {"@spider": "usps_collection_boxes", "spider:collection_time": "2023-12-13T08:25:56.872100"}, "geometry": {"coordinates": [-93.568855087, 41.627668547], "type": "Point"}, "id": "aCZ3PG5H3JthZ4PjZ6AAOdXOcU4=", "properties": {"@spider": "usps_collection_boxes", "addr:city": "DES MOINES", "addr:country": "US", "addr:full": "2545 1/2 E EUCLID AVE", "addr:postcode": "50317", "addr:state": "IA", "amenity": "post_box", "brand": "United States Postal Service", "brand:wikidata": "Q668687", "collection_times": "Mo-Fr 13:45", "name": "USPS COLLECTION BOX - BLUE BOX", "note": "ON 12/24 AND 12/31, THIS BOX MAY BE COLLECTED AS EARLY AS 12 NOON.", "nsi_id": "unitedstatespostalservice-a77078", "operator": "United States Postal Service", "operator:short": "USPS", "operator:type": "public", "operator:wikidata": "Q668687", "ref": "5031700014"}, "type": "Feature"}
{"dataset_attributes": {"@spider": "usps_collection_boxes", "spider:collection_time": "2023-12-13T08:25:56.872100"}, "geometry": {"coordinates": [-93.536686948, 41.633379717], "type": "Point"}, "id": "p5Q2nUB4u-fKcaeU6EW0KfvHLjU=", "properties": {"@spider": "usps_collection_boxes", "addr:city": "DES MOINES", "addr:country": "US", "addr:full": "4014 HUBBELL AVE", "addr:postcode": "50317", "addr:state": "IA", "amenity": "post_box", "brand": "United States Postal Service", "brand:wikidata": "Q668687", "collection_times": "Mo-Fr 13:30; Sa 11:00", "name": "USPS COLLECTION BOX - BLUE BOX", "note": "ON 12/24 AND 12/31, THIS BOX MAY BE COLLECTED AS EARLY AS 12 NOON.", "nsi_id": "unitedstatespostalservice-a77078", "operator": "United States Postal Service", "operator:short": "USPS", "operator:type": "public", "operator:wikidata": "Q668687", "ref": "5031700016"}, "type": "Feature"}
{"dataset_attributes": {"@spider": "usps_collection_boxes", "spider:collection_time": "2023-12-13T08:25:56.872100"}, "geometry": {"coordinates": [-93.568023, 41.614952549], "type": "Point"}, "id": "X27ZvOxprpOpIMD16lj8jk95a7g=", "properties": {"@spider": "usps_collection_boxes", "addr:city": "DES MOINES", "addr:country": "US", "addr:full": "2571 GUTHRIE AVE", "addr:postcode": "50317", "addr:state": "IA", "amenity": "post_box", "brand": "United States Postal Service", "brand:wikidata": "Q668687", "collection_times": "Mo-Fr 14:00; Sa 11:00", "name": "USPS COLLECTION BOX - BLUE BOX", "note": "ON 12/24 AND 12/31, THIS BOX MAY BE COLLECTED AS EARLY AS 12 NOON.", "nsi_id": "unitedstatespostalservice-a77078", "operator": "United States Postal Service", "operator:short": "USPS", "operator:type": "public", "operator:wikidata": "Q668687", "ref": "5031700017"}, "type": "Feature"}
{"dataset_attributes": {"@spider": "usps_collection_boxes", "spider:collection_time": "2023-12-13T08:25:56.872100"}, "geometry": {"coordinates": [-93.503279737, 41.602679916], "type": "Point"}, "id": "Kx1j_Pa2TDy6LyV7ECclCa89rgY=", "properties": {"@spider": "usps_collection_boxes", "addr:city": "DES MOINES", "addr:country": "US", "addr:full": "1300 NE 56TH ST", "addr:postcode": "50317", "addr:state": "IA", "amenity": "post_box", "brand": "United States Postal Service", "brand:wikidata": "Q668687", "collection_times": "Mo-Fr 18:00; Sa 17:15", "name": "USPS COLLECTION BOX - BLUE BOX", "note": "ON 12/24 AND 12/31, THIS BOX MAY BE COLLECTED AS EARLY AS 12 NOON.", "nsi_id": "unitedstatespostalservice-a77078", "operator": "United States Postal Service", "operator:short": "USPS", "operator:type": "public", "operator:wikidata": "Q668687", "ref": "5031700022"}, "type": "Feature"}
{"dataset_attributes": {"@spider": "usps_collection_boxes", "spider:collection_time": "2023-12-13T08:25:56.872100"}, "geometry": {"coordinates": [-93.503279737, 41.602679916], "type": "Point"}, "id": "PT0dWlbkTS93A2Ai4jrJX2fd1Og=", "properties": {"@spider": "usps_collection_boxes", "addr:city": "DES MOINES", "addr:country": "US", "addr:full": "1300 NE 56TH ST", "addr:postcode": "50317", "addr:state": "IA", "amenity": "post_box", "brand": "United States Postal Service", "brand:wikidata": "Q668687", "collection_times": "Mo-Fr 16:30; Sa 16:00", "name": "USPS COLLECTION BOX - PO LOBBY", "note": "ON 12/24 AND 12/31, THIS BOX MAY BE COLLECTED AS EARLY AS 12 NOON.", "nsi_id": "unitedstatespostalservice-a77078", "operator": "United States Postal Service", "operator:short": "USPS", "operator:type": "public", "operator:wikidata": "Q668687", "ref": "5031700024"}, "type": "Feature"}
{"dataset_attributes": {"@spider": "usps_collection_boxes", "spider:collection_time": "2023-12-13T08:25:56.872100"}, "geometry": {"coordinates": [-93.559221168, 41.600595475], "type": "Point"}, "id": "L5TWPIdp2IZS7sfgfYkojRvB7OE=", "properties": {"@spider": "usps_collection_boxes", "addr:city": "DES MOINES", "addr:country": "US", "addr:full": "2930 E UNIVERSITY AVE", "addr:postcode": "50317", "addr:state": "IA", "amenity": "post_box", "brand": "United States Postal Service", "brand:wikidata": "Q668687", "collection_times": "Mo-Fr 13:15", "name": "USPS COLLECTION BOX - BLUE BOX", "note": "ON 12/24 AND 12/31, THIS BOX MAY BE COLLECTED AS EARLY AS 12 NOON.", "nsi_id": "unitedstatespostalservice-a77078", "operator": "United States Postal Service", "operator:short": "USPS", "operator:type": "public", "operator:wikidata": "Q668687", "ref": "5031700025"}, "type": "Feature"}
{"dataset_attributes": {"@spider": "usps_collection_boxes", "spider:collection_time": "2023-12-13T08:25:56.872100"}, "geometry": {"coordinates": [-93.503279737, 41.602679916], "type": "Point"}, "id": "0ThBrYgm1sIyTFYKYyVGOXcv8Qo=", "properties": {"@spider": "usps_collection_boxes", "addr:city": "DES MOINES", "addr:country": "US", "addr:full": "1300 NE 56TH ST", "addr:postcode": "50317", "addr:state": "IA", "amenity": "post_box", "brand": "United States Postal Service", "brand:wikidata": "Q668687", "collection_times": "Mo-Fr 17:30; Sa 13:00", "name": "USPS COLLECTION BOX - PO LOBBY", "note": "ON 12/24 AND 12/31, THIS BOX MAY BE COLLECTED AS EARLY AS 12 NOON.", "nsi_id": "unitedstatespostalservice-a77078", "operator": "United States Postal Service", "operator:short": "USPS", "operator:type": "public", "operator:wikidata": "Q668687", "ref": "5031700027"}, "type": "Feature"}
{"dataset_attributes": {"@spider": "usps_collection_boxes", "spider:collection_time": "2023-12-13T08:25:56.872100"}, "geometry": {"coordinates": [-93.619584769, 41.599551966], "type": "Point"}, "id": "0gYVXK9Fekty671-nwqjQ6afVjI=", "properties": {"@spider": "usps_collection_boxes", "addr:city": "DES MOINES", "addr:country": "US", "addr:full": "1165 2ND AVE", "addr:postcode": "50318", "addr:state": "IA", "amenity": "post_box", "brand": "United States Postal Service", "brand:wikidata": "Q668687", "collection_times": "Mo-Sa 19:00", "name": "USPS COLLECTION BOX - BLUE BOX", "note": "ON 12/24 AND 12/31, THIS BOX MAY BE COLLECTED AS EARLY AS 12 NOON.", "nsi_id": "unitedstatespostalservice-a77078", "operator": "United States Postal Service", "operator:short": "USPS", "operator:type": "public", "operator:wikidata": "Q668687", "ref": "5031800000"}, "type": "Feature"}
{"dataset_attributes": {"@spider": "usps_collection_boxes", "spider:collection_time": "2023-12-13T08:25:56.872100"}, "geometry": {"coordinates": [-93.619584769, 41.599551966], "type": "Point"}, "id": "QXT5LmWr4QolVs8IRBoz-4jx30g=", "properties": {"@spider": "usps_collection_boxes", "addr:city": "DES MOINES", "addr:country": "US", "addr:full": "1165 2ND AVE", "addr:postcode": "50318", "addr:state": "IA", "amenity": "post_box", "brand": "United States Postal Service", "brand:wikidata": "Q668687", "collection_times": "Mo-Sa 19:00", "name": "USPS COLLECTION BOX - BLUE BOX", "note": "ON 12/24 AND 12/31, THIS BOX MAY BE COLLECTED AS EARLY AS 12 NOON.", "nsi_id": "unitedstatespostalservice-a77078", "operator": "United States Postal Service", "operator:short": "USPS", "operator:type": "public", "operator:wikidata": "Q668687", "ref": "5031800001"}, "type": "Feature"}
{"dataset_attributes": {"@spider": "usps_collection_boxes", "spider:collection_time": "2023-12-13T08:25:56.872100"}, "geometry": {"coordinates": [-93.6195847694, 41.5995519655], "type": "Point"}, "id": "1WCI_nG-JtzCseBUAzzsyEMQ99w=", "properties": {"@spider": "usps_collection_boxes", "addr:city": "DES MOINES", "addr:country": "US", "addr:full": "1165 2ND AVE", "addr:postcode": "50318", "addr:state": "IA", "amenity": "post_box", "brand": "United States Postal Service", "brand:wikidata": "Q668687", "collection_times": "Mo-Sa 19:00", "name": "USPS COLLECTION BOX - PO LOBBY", "note": "ON 12/24 AND 12/31, THIS BOX MAY BE COLLECTED AS EARLY AS 12 NOON.", "nsi_id": "unitedstatespostalservice-a77078", "operator": "United States Postal Service", "operator:short": "USPS", "operator:type": "public", "operator:wikidata": "Q668687", "ref": "5031800004"}, "type": "Feature"}
{"dataset_attributes": {"@spider": "usps_collection_boxes", "spider:collection_time": "2023-12-13T08:25:56.872100"}, "geometry": {"coordinates": [-93.619584769, 41.599551966], "type": "Point"}, "id": "vUL4O4Ub7NwHV1HGHbyFpbMo8-Y=", "properties": {"@spider": "usps_collection_boxes", "addr:city": "DES MOINES", "addr:country": "US", "addr:full": "1165 2ND AVE", "addr:postcode": "50318", "addr:state": "IA", "amenity": "post_box", "brand": "United States Postal Service", "brand:wikidata": "Q668687", "collection_times": "Mo-Fr 17:30", "name": "USPS COLLECTION BOX - PO LOBBY", "note": "ON 12/24 AND 12/31, THIS BOX MAY BE COLLECTED AS EARLY AS 12 NOON.", "nsi_id": "unitedstatespostalservice-a77078", "operator": "United States Postal Service", "operator:short": "USPS", "operator:type": "public", "operator:wikidata": "Q668687", "ref": "5031800005"}, "type": "Feature"}
{"dataset_attributes": {"@spider": "usps_collection_boxes", "spider:collection_time": "2023-12-13T08:25:56.872100"}, "geometry": {"coordinates": [-93.596850667, 41.555042162], "type": "Point"}, "id": "6ticSt3pclhycjiaoWCoL4vTggQ=", "properties": {"@spider": "usps_collection_boxes", "addr:city": "DES MOINES", "addr:country": "US", "addr:full": "3200 SE 14TH ST", "addr:postcode": "50320", "addr:state": "IA", "amenity": "post_box", "brand": "United States Postal Service", "brand:wikidata": "Q668687", "collection_times": "Mo-Sa 13:15", "name": "USPS COLLECTION BOX - BLUE BOX", "note": "ON 12/24 AND 12/31, THIS BOX MAY BE COLLECTED AS EARLY AS 12 NOON.", "nsi_id": "unitedstatespostalservice-a77078", "operator": "United States Postal Service", "operator:short": "USPS", "operator:type": "public", "operator:wikidata": "Q668687", "ref": "5032000001"}, "type": "Feature"}
{"dataset_attributes": {"@spider": "usps_collection_boxes", "spider:collection_time": "2023-12-13T08:25:56.872100"}, "geometry": {"coordinates": [-93.577951027, 41.555180501], "type": "Point"}, "id": "W8wfwzuI8_wsRGBCtJNlHFxGRLw=", "properties": {"@spider": "usps_collection_boxes", "addr:city": "DES MOINES", "addr:country": "US", "addr:full": "2140 E PARK AVE", "addr:postcode": "50320", "addr:state": "IA", "amenity": "post_box", "brand": "United States Postal Service", "brand:wikidata": "Q668687", "collection_times": "Mo-Fr 13:15", "name": "USPS COLLECTION BOX - BLUE BOX", "note": "ON 12/24 AND 12/31, THIS BOX MAY BE COLLECTED AS EARLY AS 12 NOON.", "nsi_id": "unitedstatespostalservice-a77078", "operator": "United States Postal Service", "operator:short": "USPS", "operator:type": "public", "operator:wikidata": "Q668687", "ref": "5032000004"}, "type": "Feature"}
{"dataset_attributes": {"@spider": "usps_collection_boxes", "spider:collection_time": "2023-12-13T08:25:56.872100"}, "geometry": {"coordinates": [-93.596880363, 41.536740593], "type": "Point"}, "id": "I_rAAFXFZiR1bkSan4Msp-k2FaE=", "properties": {"@spider": "usps_collection_boxes", "addr:city": "DES MOINES", "addr:country": "US", "addr:full": "5110 SE 14TH ST", "addr:postcode": "50320", "addr:state": "IA", "amenity": "post_box", "brand": "United States Postal Service", "brand:wikidata": "Q668687", "collection_times": "Mo-Fr 14:00", "name": "USPS COLLECTION BOX - BLUE BOX", "note": "ON 12/24 AND 12/31, THIS BOX MAY BE COLLECTED AS EARLY AS 12 NOON.", "nsi_id": "unitedstatespostalservice-a77078", "operator": "United States Postal Service", "operator:short": "USPS", "operator:type": "public", "operator:wikidata": "Q668687", "ref": "5032000005"}, "type": "Feature"}
{"dataset_attributes": {"@spider": "usps_collection_boxes", "spider:collection_time": "2023-12-13T08:25:56.872100"}, "geometry": {"coordinates": [-93.596819205, 41.528556], "type": "Point"}, "id": "hGUoGECZUVgMuoJFxvMMDIAh0Vc=", "properties": {"@spider": "usps_collection_boxes", "addr:city": "DES MOINES", "addr:country": "US", "addr:full": "6200 SE 14TH ST", "addr:postcode": "50320", "addr:state": "IA", "amenity": "post_box", "brand": "United States Postal Service", "brand:wikidata": "Q668687", "collection_times": "Mo-Fr 13:00", "name": "USPS COLLECTION BOX - BLUE BOX", "note": "ON 12/24 AND 12/31, THIS BOX MAY BE COLLECTED AS EARLY AS 12 NOON.", "nsi_id": "unitedstatespostalservice-a77078", "operator": "United States Postal Service", "operator:short": "USPS", "operator:type": "public", "operator:wikidata": "Q668687", "ref": "5032000006"}, "type": "Feature"}
{"dataset_attributes": {"@spider": "usps_collection_boxes", "spider:collection_time": "2023-12-13T08:25:56.872100"}, "geometry": {"coordinates": [-93.6456089996, 41.5454220127], "type": "Point"}, "id": "zEDyx__cnWbEQ2tvf9loYc3aabU=", "properties": {"@spider": "usps_collection_boxes", "addr:city": "DES MOINES", "addr:country": "US", "addr:full": "4210 FLEUR DR", "addr:postcode": "50321", "addr:state": "IA", "amenity": "post_box", "brand": "United States Postal Service", "brand:wikidata": "Q668687", "collection_times": "Mo-Fr 13:15", "name": "USPS COLLECTION BOX - BLUE BOX", "note": "ON 12/24 AND 12/31, THIS BOX MAY BE COLLECTED AS EARLY AS 12 NOON.", "nsi_id": "unitedstatespostalservice-a77078", "operator": "United States Postal Service", "operator:short": "USPS", "operator:type": "public", "operator:wikidata": "Q668687", "ref": "5032100002"}, "type": "Feature"}
{"dataset_attributes": {"@spider": "usps_collection_boxes", "spider:collection_time": "2023-12-13T08:25:56.872100"}, "geometry": {"coordinates": [-93.644925754, 41.541813], "type": "Point"}, "id": "AvnLZ9a4dMuTkM68Wfpvyv7j8pA=", "properties": {"@spider": "usps_collection_boxes", "addr:city": "DES MOINES", "addr:country": "US", "addr:full": "4707 FLEUR DR", "addr:postcode": "50321", "addr:state": "IA", "amenity": "post_box", "brand": "United States Postal Service", "brand:wikidata": "Q668687", "collection_times": "Mo-Fr 15:45; Sa 13:30", "name": "USPS COLLECTION BOX - BLUE BOX", "note": "ON 12/24 AND 12/31, THIS BOX MAY BE COLLECTED AS EARLY AS 12 NOON.", "nsi_id": "unitedstatespostalservice-a77078", "operator": "United States Postal Service", "operator:short": "USPS", "operator:type": "public", "operator:wikidata": "Q668687", "ref": "5032100003"}, "type": "Feature"}
{"dataset_attributes": {"@spider": "usps_collection_boxes", "spider:collection_time": "2023-12-13T08:25:56.872100"}, "geometry": {"coordinates": [-93.644895256, 41.546835], "type": "Point"}, "id": "bLcofU22hzSNxZO2mexGKv-8ZX0=", "properties": {"@spider": "usps_collection_boxes", "addr:city": "DES MOINES", "addr:country": "US", "addr:full": "4121 FLEUR DR", "addr:postcode": "50321", "addr:state": "IA", "amenity": "post_box", "brand": "United States Postal Service", "brand:wikidata": "Q668687", "collection_times": "Mo-Fr 13:15; Sa 13:30", "name": "USPS COLLECTION BOX - BLUE BOX", "note": "ON 12/24 AND 12/31, THIS BOX MAY BE COLLECTED AS EARLY AS 12 NOON.", "nsi_id": "unitedstatespostalservice-a77078", "operator": "United States Postal Service", "operator:short": "USPS", "operator:type": "public", "operator:wikidata": "Q668687", "ref": "5032100004"}, "type": "Feature"}
{"dataset_attributes": {"@spider": "usps_collection_boxes", "spider:collection_time": "2023-12-13T08:25:56.872100"}, "geometry": {"coordinates": [-93.645090181, 41.559669], "type": "Point"}, "id": "xiUt3ZGdqd2s24td1bdOWHviviY=", "properties": {"@spider": "usps_collection_boxes", "addr:city": "DES MOINES", "addr:country": "US", "addr:full": "2800 FLEUR DR", "addr:postcode": "50321", "addr:state": "IA", "amenity": "post_box", "brand": "United States Postal Service", "brand:wikidata": "Q668687", "collection_times": "Mo-Fr 13:15", "name": "USPS COLLECTION BOX - BLUE BOX", "note": "ON 12/24 AND 12/31, THIS BOX MAY BE COLLECTED AS EARLY AS 12 NOON.", "nsi_id": "unitedstatespostalservice-a77078", "operator": "United States Postal Service", "operator:short": "USPS", "operator:type": "public", "operator:wikidata": "Q668687", "ref": "5032100008"}, "type": "Feature"}
{"dataset_attributes": {"@spider": "usps_collection_boxes", "spider:collection_time": "2023-12-13T08:25:56.872100"}, "geometry": {"coordinates": [-93.615982366, 41.509601964], "type": "Point"}, "id": "aNr4ZnCbBy-Bo7e-WcdCohwz4_c=", "properties": {"@spider": "usps_collection_boxes", "addr:city": "DES MOINES", "addr:country": "US", "addr:full": "8018 S CLOVER HILLS DR", "addr:postcode": "50321", "addr:state": "IA", "amenity": "post_box", "brand": "United States Postal Service", "brand:wikidata": "Q668687", "collection_times": "Mo-Fr 13:45", "name": "USPS COLLECTION BOX - BLUE BOX", "note": "ON 12/24 AND 12/31, THIS BOX MAY BE COLLECTED AS EARLY AS 12 NOON.", "nsi_id": "unitedstatespostalservice-a77078", "operator": "United States Postal Service", "operator:short": "USPS", "operator:type": "public", "operator:wikidata": "Q668687", "ref": "5032100011"}, "type": "Feature"}
{"dataset_attributes": {"@spider": "usps_collection_boxes", "spider:collection_time": "2023-12-13T08:25:56.872100"}, "geometry": {"coordinates": [-93.64141328, 41.562754522], "type": "Point"}, "id": "ieQFxAwdNTfbvvltviXPQr7dORc=", "properties": {"@spider": "usps_collection_boxes", "addr:city": "DES MOINES", "addr:country": "US", "addr:full": "1901 BELL AVE", "addr:postcode": "50321", "addr:state": "IA", "amenity": "post_box", "brand": "United States Postal Service", "brand:wikidata": "Q668687", "collection_times": "Mo-Fr 10:00", "name": "USPS COLLECTION BOX - BLUE BOX", "nsi_id": "unitedstatespostalservice-a77078", "operator": "United States Postal Service", "operator:short": "USPS", "operator:type": "public", "operator:wikidata": "Q668687", "ref": "5032100018"}, "type": "Feature"}
{"dataset_attributes": {"@spider": "usps_collection_boxes", "spider:collection_time": "2023-12-13T08:25:56.872100"}, "geometry": {"coordinates": [-93.760662653, 41.618847392], "type": "Point"}, "id": "-mIuYjImZkZUb_0yrC1BgKbBflg=", "properties": {"@spider": "usps_collection_boxes", "addr:city": "DES MOINES", "addr:country": "US", "addr:full": "10400 NEW YORK AVE", "addr:postcode": "50322", "addr:state": "IA", "amenity": "post_box", "brand": "United States Postal Service", "brand:wikidata": "Q668687", "collection_times": "Mo-Fr 14:00", "name": "USPS COLLECTION BOX - BLUE BOX", "note": "ON 12/24 AND 12/31, THIS BOX MAY BE COLLECTED AS EARLY AS 12 NOON.", "nsi_id": "unitedstatespostalservice-a77078", "operator": "United States Postal Service", "operator:short": "USPS", "operator:type": "public", "operator:wikidata": "Q668687", "ref": "5032200002"}, "type": "Feature"}
{"dataset_attributes": {"@spider": "usps_collection_boxes", "spider:collection_time": "2023-12-13T08:25:56.872100"}, "geometry": {"coordinates": [-93.772959996, 41.638149114], "type": "Point"}, "id": "hbctAbRaevsfjT93Ap0GOPgTKag=", "properties": {"@spider": "usps_collection_boxes", "addr:city": "DES MOINES", "addr:country": "US", "addr:full": "11253 AURORA AVE", "addr:postcode": "50322", "addr:state": "IA", "amenity": "post_box", "brand": "United States Postal Service", "brand:wikidata": "Q668687", "collection_times": "Mo-Fr 12:00", "name": "USPS COLLECTION BOX - BLUE BOX", "nsi_id": "unitedstatespostalservice-a77078", "operator": "United States Postal Service", "operator:short": "USPS", "operator:type": "public", "operator:wikidata": "Q668687", "ref": "5032200006"}, "type": "Feature"}
{"dataset_attributes": {"@spider": "usps_collection_boxes", "spider:collection_time": "2023-12-13T08:25:56.872100"}, "geometry": {"coordinates": [-93.736413202, 41.649671417], "type": "Point"}, "id": "J3I3DbOWznBuAb74xQmTOFTNjGQ=", "properties": {"@spider": "usps_collection_boxes", "addr:city": "DES MOINES", "addr:country": "US", "addr:full": "4901 86TH ST", "addr:postcode": "50322", "addr:state": "IA", "amenity": "post_box", "brand": "United States Postal Service", "brand:wikidata": "Q668687", "collection_times": "Mo-Sa 11:00", "name": "USPS COLLECTION BOX - BLUE BOX", "nsi_id": "unitedstatespostalservice-a77078", "operator": "United States Postal Service", "operator:short": "USPS", "operator:type": "public", "operator:wikidata": "Q668687", "ref": "5032200013"}, "type": "Feature"}
{"dataset_attributes": {"@spider": "usps_collection_boxes", "spider:collection_time": "2023-12-13T08:25:56.872100"}, "geometry": {"coordinates": [-93.774769003, 41.643065815], "type": "Point"}, "id": "DsdQobaT2lw98QbJ0T27R3IWOzs=", "properties": {"@spider": "usps_collection_boxes", "addr:city": "DES MOINES", "addr:country": "US", "addr:full": "4544 114TH ST", "addr:postcode": "50322", "addr:state": "IA", "amenity": "post_box", "brand": "United States Postal Service", "brand:wikidata": "Q668687", "collection_times": "Mo-Fr 09:45", "name": "USPS COLLECTION BOX - BLUE BOX", "nsi_id": "unitedstatespostalservice-a77078", "operator": "United States Postal Service", "operator:short": "USPS", "operator:type": "public", "operator:wikidata": "Q668687", "ref": "5032200016"}, "type": "Feature"}
{"dataset_attributes": {"@spider": "usps_collection_boxes", "spider:collection_time": "2023-12-13T08:25:56.872100"}, "geometry": {"coordinates": [-93.736484247, 41.623616988], "type": "Point"}, "id": "M4UCAUWyMmZKMqH3I6yW7M4mIiY=", "properties": {"@spider": "usps_collection_boxes", "addr:city": "DES MOINES", "addr:country": "US", "addr:full": "3201 86TH ST", "addr:postcode": "50322", "addr:state": "IA", "amenity": "post_box", "brand": "United States Postal Service", "brand:wikidata": "Q668687", "collection_times": "Mo-Fr 10:30", "name": "USPS COLLECTION BOX - BLUE BOX", "nsi_id": "unitedstatespostalservice-a77078", "operator": "United States Postal Service", "operator:short": "USPS", "operator:type": "public", "operator:wikidata": "Q668687", "ref": "5032200017"}, "type": "Feature"}
{"dataset_attributes": {"@spider": "usps_collection_boxes", "spider:collection_time": "2023-12-13T08:25:56.872100"}, "geometry": {"coordinates": [-93.780242906, 41.629587474], "type": "Point"}, "id": "qjMRv_3s_t7BAM7HjT_cQ06gB7I=", "properties": {"@spider": "usps_collection_boxes", "addr:city": "DES MOINES", "addr:country": "US", "addr:full": "11957 DOUGLAS PKWY", "addr:postcode": "50322", "addr:state": "IA", "amenity": "post_box", "brand": "United States Postal Service", "brand:wikidata": "Q668687", "collection_times": "Mo-Sa 09:30", "name": "USPS COLLECTION BOX - BLUE BOX", "nsi_id": "unitedstatespostalservice-a77078", "operator": "United States Postal Service", "operator:short": "USPS", "operator:type": "public", "operator:wikidata": "Q668687", "ref": "5032200021"}, "type": "Feature"}
{"dataset_attributes": {"@spider": "usps_collection_boxes", "spider:collection_time": "2023-12-13T08:25:56.872100"}, "geometry": {"coordinates": [-93.714877063, 41.615068637], "type": "Point"}, "id": "jEVrSs7v6PQOGkbmtFHu5BwLoIg=", "properties": {"@spider": "usps_collection_boxes", "addr:city": "DES MOINES", "addr:country": "US", "addr:full": "7025 HICKMAN RD", "addr:postcode": "50322", "addr:state": "IA", "amenity": "post_box", "brand": "United States Postal Service", "brand:wikidata": "Q668687", "collection_times": "Mo-Fr 12:00", "name": "USPS COLLECTION BOX - BLUE BOX", "nsi_id": "unitedstatespostalservice-a77078", "operator": "United States Postal Service", "operator:short": "USPS", "operator:type": "public", "operator:wikidata": "Q668687", "ref": "5032200023"}, "type": "Feature"}
{"dataset_attributes": {"@spider": "usps_collection_boxes", "spider:collection_time": "2023-12-13T08:25:56.872100"}, "geometry": {"coordinates": [-93.719583307, 41.614364737], "type": "Point"}, "id": "vLR4svVX_yCPxzrIMFz0AHBp4iw=", "properties": {"@spider": "usps_collection_boxes", "addr:city": "DES MOINES", "addr:country": "US", "addr:full": "7440 HICKMAN RD", "addr:postcode": "50322", "addr:state": "IA", "amenity": "post_box", "brand": "United States Postal Service", "brand:wikidata": "Q668687", "collection_times": "Mo-Fr 12:00", "name": "USPS COLLECTION BOX - BLUE BOX", "nsi_id": "unitedstatespostalservice-a77078", "operator": "United States Postal Service", "operator:short": "USPS", "operator:type": "public", "operator:wikidata": "Q668687", "ref": "5032200025"}, "type": "Feature"}
{"dataset_attributes": {"@spider": "usps_collection_boxes", "spider:collection_time": "2023-12-13T08:25:56.872100"}, "geometry": {"coordinates": [-93.712761, 41.629352546], "type": "Point"}, "id": "u0UlFbq4RPc0vOKQpcCcTiEYbto=", "properties": {"@spider": "usps_collection_boxes", "addr:city": "DES MOINES", "addr:country": "US", "addr:full": "7000 DOUGLAS AVE", "addr:postcode": "50322", "addr:state": "IA", "amenity": "post_box", "brand": "United States Postal Service", "brand:wikidata": "Q668687", "collection_times": "Mo-Sa 12:00", "name": "USPS COLLECTION BOX - BLUE BOX", "nsi_id": "unitedstatespostalservice-a77078", "operator": "United States Postal Service", "operator:short": "USPS", "operator:type": "public", "operator:wikidata": "Q668687", "ref": "5032200032"}, "type": "Feature"}
{"dataset_attributes": {"@spider": "usps_collection_boxes", "spider:collection_time": "2023-12-13T08:25:56.872100"}, "geometry": {"coordinates": [-93.733756134, 41.630135477], "type": "Point"}, "id": "FooT5FU6UKZrWCPMfSwDEVGCqa0=", "properties": {"@spider": "usps_collection_boxes", "addr:city": "DES MOINES", "addr:country": "US", "addr:full": "8401 DOUGLAS AVE", "addr:postcode": "50322", "addr:state": "IA", "amenity": "post_box", "brand": "United States Postal Service", "brand:wikidata": "Q668687", "collection_times": "Mo-Fr 09:00", "name": "USPS COLLECTION BOX - BLUE BOX", "nsi_id": "unitedstatespostalservice-a77078", "operator": "United States Postal Service", "operator:short": "USPS", "operator:type": "public", "operator:wikidata": "Q668687", "ref": "5032200033"}, "type": "Feature"}
{"dataset_attributes": {"@spider": "usps_collection_boxes", "spider:collection_time": "2023-12-13T08:25:56.872100"}, "geometry": {"coordinates": [-93.734889005, 41.643769528], "type": "Point"}, "id": "lFg56deV1MLzzEDvePi2f1_cG8U=", "properties": {"@spider": "usps_collection_boxes", "addr:city": "DES MOINES", "addr:country": "US", "addr:full": "8450 MEREDITH DR", "addr:postcode": "50322", "addr:state": "IA", "amenity": "post_box", "brand": "United States Postal Service", "brand:wikidata": "Q668687", "collection_times": "Mo-Sa 11:00", "name": "USPS COLLECTION BOX - BLUE BOX", "nsi_id": "unitedstatespostalservice-a77078", "operator": "United States Postal Service", "operator:short": "USPS", "operator:type": "public", "operator:wikidata": "Q668687", "ref": "5032200042"}, "type": "Feature"}
{"dataset_attributes": {"@spider": "usps_collection_boxes", "spider:collection_time": "2023-12-13T08:25:56.872100"}, "geometry": {"coordinates": [-93.725389834, 41.629359454], "type": "Point"}, "id": "vbHMs-KhsMyvVIOqDQ-eZEBEAGk=", "properties": {"@spider": "usps_collection_boxes", "addr:city": "DES MOINES", "addr:country": "US", "addr:full": "7755 DOUGLAS AVE", "addr:postcode": "50322", "addr:state": "IA", "amenity": "post_box", "brand": "United States Postal Service", "brand:wikidata": "Q668687", "collection_times": "Mo-Sa 17:00", "name": "USPS COLLECTION BOX - BLUE BOX", "note": "ON 12/24 AND 12/31, THIS BOX MAY BE COLLECTED AS EARLY AS 12 NOON.", "nsi_id": "unitedstatespostalservice-a77078", "operator": "United States Postal Service", "operator:short": "USPS", "operator:type": "public", "operator:wikidata": "Q668687", "ref": "5032200044"}, "type": "Feature"}
{"dataset_attributes": {"@spider": "usps_collection_boxes", "spider:collection_time": "2023-12-13T08:25:56.872100"}, "geometry": {"coordinates": [-93.771994284, 41.637866611], "type": "Point"}, "id": "qhEGcqvM_Xn-lYzHh5b-3r9zDEM=", "properties": {"@spider": "usps_collection_boxes", "addr:city": "DES MOINES", "addr:country": "US", "addr:full": "11200 AURORA AVE", "addr:postcode": "50322", "addr:state": "IA", "amenity": "post_box", "brand": "United States Postal Service", "brand:wikidata": "Q668687", "collection_times": "Mo-Fr 12:45", "name": "USPS COLLECTION BOX - BLUE BOX", "note": "ON 12/24 AND 12/31, THIS BOX MAY BE COLLECTED AS EARLY AS 12 NOON.", "nsi_id": "unitedstatespostalservice-a77078", "operator": "United States Postal Service", "operator:short": "USPS", "operator:type": "public", "operator:wikidata": "Q668687", "ref": "5032200052"}, "type": "Feature"}
{"dataset_attributes": {"@spider": "usps_collection_boxes", "spider:collection_time": "2023-12-13T08:25:56.872100"}, "geometry": {"coordinates": [-93.755794289, 41.625314696], "type": "Point"}, "id": "hegWnTRE4DLREcSQxqN0hvBVR_k=", "properties": {"@spider": "usps_collection_boxes", "addr:city": "DES MOINES", "addr:country": "US", "addr:full": "3311 100TH ST", "addr:postcode": "50322", "addr:state": "IA", "amenity": "post_box", "brand": "United States Postal Service", "brand:wikidata": "Q668687", "collection_times": "Mo-Fr 18:00; Sa 15:00", "name": "USPS COLLECTION BOX - PO LOBBY", "note": "ON 12/24 AND 12/31, THIS BOX MAY BE COLLECTED AS EARLY AS 12 NOON.", "nsi_id": "unitedstatespostalservice-a77078", "operator": "United States Postal Service", "operator:short": "USPS", "operator:type": "public", "operator:wikidata": "Q668687", "ref": "5032200062"}, "type": "Feature"}
{"dataset_attributes": {"@spider": "usps_collection_boxes", "spider:collection_time": "2023-12-13T08:25:56.872100"}, "geometry": {"coordinates": [-93.705722193, 41.629426498], "type": "Point"}, "id": "Rzo6_1Nn7QKB_Vpe199rozZPlv8=", "properties": {"@spider": "usps_collection_boxes", "addr:city": "DES MOINES", "addr:country": "US", "addr:full": "6401 DOUGLAS AVE", "addr:postcode": "50322", "addr:state": "IA", "amenity": "post_box", "brand": "United States Postal Service", "brand:wikidata": "Q668687", "collection_times": "Mo-Fr 11:00", "name": "USPS COLLECTION BOX - BLUE BOX", "nsi_id": "unitedstatespostalservice-a77078", "operator": "United States Postal Service", "operator:short": "USPS", "operator:type": "public", "operator:wikidata": "Q668687", "ref": "5032200063"}, "type": "Feature"}
{"dataset_attributes": {"@spider": "usps_collection_boxes", "spider:collection_time": "2023-12-13T08:25:56.872100"}, "geometry": {"coordinates": [-93.703703307, 41.636570508], "type": "Point"}, "id": "QSWjEjIuKyzSVuYn05v1sr4D_RM=", "properties": {"@spider": "usps_collection_boxes", "addr:city": "DES MOINES", "addr:country": "US", "addr:full": "6200 AURORA AVE", "addr:postcode": "50322", "addr:state": "IA", "amenity": "post_box", "brand": "United States Postal Service", "brand:wikidata": "Q668687", "collection_times": "Mo-Fr 09:30", "name": "USPS COLLECTION BOX - BLUE BOX", "nsi_id": "unitedstatespostalservice-a77078", "operator": "United States Postal Service", "operator:short": "USPS", "operator:type": "public", "operator:wikidata": "Q668687", "ref": "5032200064"}, "type": "Feature"}
{"dataset_attributes": {"@spider": "usps_collection_boxes", "spider:collection_time": "2023-12-13T08:25:56.872100"}, "geometry": {"coordinates": [-93.755794289, 41.625314696], "type": "Point"}, "id": "krF3yijHPYR9fUxO_hEQJSE9F6U=", "properties": {"@spider": "usps_collection_boxes", "addr:city": "DES MOINES", "addr:country": "US", "addr:full": "3311 100TH ST", "addr:postcode": "50322", "addr:state": "IA", "amenity": "post_box", "brand": "United States Postal Service", "brand:wikidata": "Q668687", "collection_times": "Mo-Fr 18:00; Sa 15:00", "name": "USPS COLLECTION BOX - APC", "note": "ON 12/24 AND 12/31, THIS BOX MAY BE COLLECTED AS EARLY AS 12 NOON.", "nsi_id": "unitedstatespostalservice-a77078", "operator": "United States Postal Service", "operator:short": "USPS", "operator:type": "public", "operator:wikidata": "Q668687", "ref": "5032200065"}, "type": "Feature"}
{"dataset_attributes": {"@spider": "usps_collection_boxes", "spider:collection_time": "2023-12-13T08:25:56.872100"}, "geometry": {"coordinates": [-93.736542188, 41.630350453], "type": "Point"}, "id": "fGzWF5p2epUhXNWUJP6jXZlInsc=", "properties": {"@spider": "usps_collection_boxes", "addr:city": "DES MOINES", "addr:country": "US", "addr:full": "8701 DOUGLAS AVE", "addr:postcode": "50322", "addr:state": "IA", "amenity": "post_box", "brand": "United States Postal Service", "brand:wikidata": "Q668687", "collection_times": "Mo-Sa 14:00", "name": "USPS COLLECTION BOX - BLUE BOX", "note": "ON 12/24 AND 12/31, THIS BOX MAY BE COLLECTED AS EARLY AS 12 NOON.", "nsi_id": "unitedstatespostalservice-a77078", "operator": "United States Postal Service", "operator:short": "USPS", "operator:type": "public", "operator:wikidata": "Q668687", "ref": "5032200068"}, "type": "Feature"}
{"dataset_attributes": {"@spider": "usps_collection_boxes", "spider:collection_time": "2023-12-13T08:25:56.872100"}, "geometry": {"coordinates": [-93.755794289, 41.625314696], "type": "Point"}, "id": "rbT6anU1CXkhb4xYOc0XFSS3rBQ=", "properties": {"@spider": "usps_collection_boxes", "addr:city": "DES MOINES", "addr:country": "US", "addr:full": "3311 100TH ST", "addr:postcode": "50323", "addr:state": "IA", "amenity": "post_box", "brand": "United States Postal Service", "brand:wikidata": "Q668687", "collection_times": "Mo-Fr 17:00; Sa 13:30", "name": "USPS COLLECTION BOX - PO LOBBY", "note": "ON 12/24 AND 12/31, THIS BOX MAY BE COLLECTED AS EARLY AS 12 NOON.", "nsi_id": "unitedstatespostalservice-a77078", "operator": "United States Postal Service", "operator:short": "USPS", "operator:type": "public", "operator:wikidata": "Q668687", "ref": "5032300002"}, "type": "Feature"}
{"dataset_attributes": {"@spider": "usps_collection_boxes", "spider:collection_time": "2023-12-13T08:25:56.872100"}, "geometry": {"coordinates": [-93.736446219, 41.613216685], "type": "Point"}, "id": "slAIvObaCqIhI269xO6LN5HP8Ck=", "properties": {"@spider": "usps_collection_boxes", "addr:city": "DES MOINES", "addr:country": "US", "addr:full": "2175 NW 86TH ST", "addr:postcode": "50325", "addr:state": "IA", "amenity": "post_box", "brand": "United States Postal Service", "brand:wikidata": "Q668687", "collection_times": "Mo-Fr 12:30", "name": "USPS COLLECTION BOX - BLUE BOX", "note": "ON 12/24 AND 12/31, THIS BOX MAY BE COLLECTED AS EARLY AS 12 NOON.", "nsi_id": "unitedstatespostalservice-a77078", "operator": "United States Postal Service", "operator:short": "USPS", "operator:type": "public", "operator:wikidata": "Q668687", "ref": "5032500000"}, "type": "Feature"}
{"dataset_attributes": {"@spider": "usps_collection_boxes", "spider:collection_time": "2023-12-13T08:25:56.872100"}, "geometry": {"coordinates": [-93.73868, 41.606775], "type": "Point"}, "id": "wKzZ90yqBwC0o_xldely22yyJhg=", "properties": {"@spider": "usps_collection_boxes", "addr:city": "DES MOINES", "addr:country": "US", "addr:full": "11800 HICKMAN RD", "addr:postcode": "50325", "addr:state": "IA", "amenity": "post_box", "brand": "United States Postal Service", "brand:wikidata": "Q668687", "collection_times": "Mo-Fr 10:30", "name": "USPS COLLECTION BOX - BLUE BOX", "nsi_id": "unitedstatespostalservice-a77078", "operator": "United States Postal Service", "operator:short": "USPS", "operator:type": "public", "operator:wikidata": "Q668687", "ref": "5032500001"}, "type": "Feature"}
{"dataset_attributes": {"@spider": "usps_collection_boxes", "spider:collection_time": "2023-12-13T08:25:56.872100"}, "geometry": {"coordinates": [-93.73868, 41.606775], "type": "Point"}, "id": "7KIQG8nq_6LwkCSTdjYy4jyp7R8=", "properties": {"@spider": "usps_collection_boxes", "addr:city": "DES MOINES", "addr:country": "US", "addr:full": "2135 NW 108TH ST", "addr:postcode": "50325", "addr:state": "IA", "amenity": "post_box", "brand": "United States Postal Service", "brand:wikidata": "Q668687", "collection_times": "Mo-Sa 17:00", "name": "USPS COLLECTION BOX - BLUE BOX", "note": "ON 12/24 AND 12/31, THIS BOX MAY BE COLLECTED AS EARLY AS 12 NOON.", "nsi_id": "unitedstatespostalservice-a77078", "operator": "United States Postal Service", "operator:short": "USPS", "operator:type": "public", "operator:wikidata": "Q668687", "ref": "5032500005"}, "type": "Feature"}
{"dataset_attributes": {"@spider": "usps_collection_boxes", "spider:collection_time": "2023-12-13T08:25:56.872100"}, "geometry": {"coordinates": [-93.736446219, 41.613216685], "type": "Point"}, "id": "THetlwvF1HvEEG8rj3jjMQNiPB8=", "properties": {"@spider": "usps_collection_boxes", "addr:city": "DES MOINES", "addr:country": "US", "addr:full": "2175 NW 86TH ST", "addr:postcode": "50325", "addr:state": "IA", "amenity": "post_box", "brand": "United States Postal Service", "brand:wikidata": "Q668687", "collection_times": "Mo-Fr 12:30", "name": "USPS COLLECTION BOX - BLUE BOX", "note": "ON 12/24 AND 12/31, THIS BOX MAY BE COLLECTED AS EARLY AS 12 NOON.", "nsi_id": "unitedstatespostalservice-a77078", "operator": "United States Postal Service", "operator:short": "USPS", "operator:type": "public", "operator:wikidata": "Q668687", "ref": "5032500008"}, "type": "Feature"}
{"dataset_attributes": {"@spider": "usps_collection_boxes", "spider:collection_time": "2023-12-13T08:25:56.872100"}, "geometry": {"coordinates": [-93.774987273, 41.609628], "type": "Point"}, "id": "XHqPgBLukYUe8KkYHoE8A5OrD4A=", "properties": {"@spider": "usps_collection_boxes", "addr:city": "DES MOINES", "addr:country": "US", "addr:full": "1900 NW 114TH ST", "addr:postcode": "50325", "addr:state": "IA", "amenity": "post_box", "brand": "United States Postal Service", "brand:wikidata": "Q668687", "collection_times": "Mo-Fr 11:00", "name": "USPS COLLECTION BOX - BLUE BOX", "nsi_id": "unitedstatespostalservice-a77078", "operator": "United States Postal Service", "operator:short": "USPS", "operator:type": "public", "operator:wikidata": "Q668687", "ref": "5032500014"}, "type": "Feature"}
{"dataset_attributes": {"@spider": "usps_collection_boxes", "spider:collection_time": "2023-12-13T08:25:56.872100"}, "geometry": {"coordinates": [-93.755871, 41.600460475], "type": "Point"}, "id": "wpTB33K9kekoD5nihPpa4vT9uaU=", "properties": {"@spider": "usps_collection_boxes", "addr:city": "DES MOINES", "addr:country": "US", "addr:full": "10101 UNIVERSITY AVE", "addr:postcode": "50325", "addr:state": "IA", "amenity": "post_box", "brand": "United States Postal Service", "brand:wikidata": "Q668687", "collection_times": "Mo-Fr 11:00", "name": "USPS COLLECTION BOX - BLUE BOX", "nsi_id": "unitedstatespostalservice-a77078", "operator": "United States Postal Service", "operator:short": "USPS", "operator:type": "public", "operator:wikidata": "Q668687", "ref": "5032500016"}, "type": "Feature"}
{"dataset_attributes": {"@spider": "usps_collection_boxes", "spider:collection_time": "2023-12-13T08:25:56.872100"}, "geometry": {"coordinates": [-93.765525303, 41.612698471], "type": "Point"}, "id": "ZGHn6FG08svukjWLzm5IKr6FQ1I=", "properties": {"@spider": "usps_collection_boxes", "addr:city": "DES MOINES", "addr:country": "US", "addr:full": "2135 NW 108TH ST", "addr:postcode": "50325", "addr:state": "IA", "amenity": "post_box", "brand": "United States Postal Service", "brand:wikidata": "Q668687", "collection_times": "Mo-Fr 17:00; Sa 14:30", "name": "USPS COLLECTION BOX - PO LOBBY", "note": "ON 12/24 AND 12/31, THIS BOX MAY BE COLLECTED AS EARLY AS 12 NOON.", "nsi_id": "unitedstatespostalservice-a77078", "operator": "United States Postal Service", "operator:short": "USPS", "operator:type": "public", "operator:wikidata": "Q668687", "ref": "5032500021"}, "type": "Feature"}
{"dataset_attributes": {"@spider": "usps_collection_boxes", "spider:collection_time": "2023-12-13T08:25:56.872100"}, "geometry": {"coordinates": [-93.794307266, 41.601797528], "type": "Point"}, "id": "TGIqi-jNz5Jx5OVOsc2HT_j7FfQ=", "properties": {"@spider": "usps_collection_boxes", "addr:city": "DES MOINES", "addr:country": "US", "addr:full": "1250 NW 128TH ST", "addr:postcode": "50325", "addr:state": "IA", "amenity": "post_box", "brand": "United States Postal Service", "brand:wikidata": "Q668687", "collection_times": "Mo-Fr 16:00", "name": "USPS COLLECTION BOX - BLUE BOX", "note": "ON 12/24 AND 12/31, THIS BOX MAY BE COLLECTED AS EARLY AS 12 NOON.", "nsi_id": "unitedstatespostalservice-a77078", "operator": "United States Postal Service", "operator:short": "USPS", "operator:type": "public", "operator:wikidata": "Q668687", "ref": "5032500024"}, "type": "Feature"}
{"dataset_attributes": {"@spider": "usps_collection_boxes", "spider:collection_time": "2023-12-13T08:25:56.872100"}, "geometry": {"coordinates": [-93.786804, 41.600475509], "type": "Point"}, "id": "IJqsJ0jQ1KzWrMXGzuIn38TIFYI=", "properties": {"@spider": "usps_collection_boxes", "addr:city": "DES MOINES", "addr:country": "US", "addr:full": "12333 UNIVERSITY AVE", "addr:postcode": "50325", "addr:state": "IA", "amenity": "post_box", "brand": "United States Postal Service", "brand:wikidata": "Q668687", "collection_times": "Mo-Fr 11:00", "name": "USPS COLLECTION BOX - BLUE BOX", "nsi_id": "unitedstatespostalservice-a77078", "operator": "United States Postal Service", "operator:short": "USPS", "operator:type": "public", "operator:wikidata": "Q668687", "ref": "5032500025"}, "type": "Feature"}
{"dataset_attributes": {"@spider": "usps_collection_boxes", "spider:collection_time": "2023-12-13T08:25:56.872100"}, "geometry": {"coordinates": [-93.786804, 41.600475509], "type": "Point"}, "id": "pAdXo6Sw0wsvPw1-suac4mDaWx0=", "properties": {"@spider": "usps_collection_boxes", "addr:city": "DES MOINES", "addr:country": "US", "addr:full": "12333 UNIVERSITY AVE", "addr:postcode": "50325", "addr:state": "IA", "amenity": "post_box", "brand": "United States Postal Service", "brand:wikidata": "Q668687", "collection_times": "Mo-Fr 11:00", "name": "USPS COLLECTION BOX - BLUE BOX", "nsi_id": "unitedstatespostalservice-a77078", "operator": "United States Postal Service", "operator:short": "USPS", "operator:type": "public", "operator:wikidata": "Q668687", "ref": "5032500026"}, "type": "Feature"}
{"dataset_attributes": {"@spider": "usps_collection_boxes", "spider:collection_time": "2023-12-13T08:25:56.872100"}, "geometry": {"coordinates": [-93.765525303, 41.612698471], "type": "Point"}, "id": "SLbeKojC3009f8FcZamrQ6tes5o=", "properties": {"@spider": "usps_collection_boxes", "addr:city": "DES MOINES", "addr:country": "US", "addr:full": "2135 NW 108TH ST", "addr:postcode": "50325", "addr:state": "IA", "amenity": "post_box", "brand": "United States Postal Service", "brand:wikidata": "Q668687", "collection_times": "Mo-Fr 17:00; Sa 08:00", "name": "USPS COLLECTION BOX - PO LOBBY", "note": "ON 12/24 AND 12/31, THIS BOX MAY BE COLLECTED AS EARLY AS 12 NOON.", "nsi_id": "unitedstatespostalservice-a77078", "operator": "United States Postal Service", "operator:short": "USPS", "operator:type": "public", "operator:wikidata": "Q668687", "ref": "5032500028"}, "type": "Feature"}
