{"geometry": {"coordinates": [-93.614589723, 42.846814521], "type": "Point"}, "id": "ESkKQ8BNGIfxZe_TYJ8q5iVXvho=", "properties": {"@spider": "usps_collection_boxes", "addr:city": "BELMOND", "addr:country": "US", "addr:full": "216 1ST ST NE", "addr:postcode": "50421", "addr:state": "IA", "amenity": "post_box", "brand": "United States Postal Service", "brand:wikidata": "Q668687", "collection_times": "Mo-Fr 16:00; Sa 11:00", "name": "USPS COLLECTION BOX - PO LOBBY", "note": "ON 12/24 AND 12/31, THIS BOX MAY BE COLLECTED AS EARLY AS 12 NOON.", "nsi_id": "unitedstatespostalservice-a77078", "operator": "United States Postal Service", "operator:short": "USPS", "operator:type": "public", "operator:wikidata": "Q668687", "ref": "5042100000"}, "type": "Feature"}
{"geometry": {"coordinates": [-93.614589723, 42.846814521], "type": "Point"}, "id": "yY-mvuDXiw0CXdyhl6UU7PcPaZo=", "properties": {"@spider": "usps_collection_boxes", "addr:city": "BELMOND", "addr:country": "US", "addr:full": "216 1ST ST NE", "addr:postcode": "50421", "addr:state": "IA", "amenity": "post_box", "brand": "United States Postal Service", "brand:wikidata": "Q668687", "collection_times": "Mo-Fr 16:00; Sa 15:00", "name": "USPS COLLECTION BOX - BLUE BOX", "note": "ON 12/24 AND 12/31, THIS BOX MAY BE COLLECTED AS EARLY AS 12 NOON.", "nsi_id": "unitedstatespostalservice-a77078", "operator": "United States Postal Service", "operator:short": "USPS", "operator:type": "public", "operator:wikidata": "Q668687", "ref": "5042100001"}, "type": "Feature"}
{"geometry": {"coordinates": [-93.614589723, 42.846814521], "type": "Point"}, "id": "1RcY05WLryoQFFAiQm9UNHZ_iAc=", "properties": {"@spider": "usps_collection_boxes", "addr:city": "BELMOND", "addr:country": "US", "addr:full": "216 1ST ST NE", "addr:postcode": "50421", "addr:state": "IA", "amenity": "post_box", "brand": "United States Postal Service", "brand:wikidata": "Q668687", "collection_times": "Mo-Fr 16:30; Sa 08:00", "name": "USPS COLLECTION BOX - PO LOBBY", "note": "ON 12/24 AND 12/31, THIS BOX MAY BE COLLECTED AS EARLY AS 12 NOON.", "nsi_id": "unitedstatespostalservice-a77078", "operator": "United States Postal Service", "operator:short": "USPS", "operator:type": "public", "operator:wikidata": "Q668687", "ref": "5042100002"}, "type": "Feature"}
{"geometry": {"coordinates": [-93.802376621, 43.096060588], "type": "Point"}, "id": "tDPufVxGCPxp4D0VajN54KR0Y2k=", "properties": {"@spider": "usps_collection_boxes", "addr:city": "BRITT", "addr:country": "US", "addr:full": "52 1ST ST SW", "addr:postcode": "50423", "addr:state": "IA", "amenity": "post_box", "brand": "United States Postal Service", "brand:wikidata": "Q668687", "collection_times": "Mo-Sa 16:30", "name": "USPS COLLECTION BOX - BLUE BOX", "note": "ON 12/24 AND 12/31, THIS BOX MAY BE COLLECTED AS EARLY AS 12 NOON.", "nsi_id": "unitedstatespostalservice-a77078", "operator": "United States Postal Service", "operator:short": "USPS", "operator:type": "public", "operator:wikidata": "Q668687", "ref": "5042300002"}, "type": "Feature"}
{"geometry": {"coordinates": [-93.802376621, 43.096060588], "type": "Point"}, "id": "-kZ6l7kZ4vh6LKrAI0uBsgZ9zHc=", "properties": {"@spider": "usps_collection_boxes", "addr:city": "BRITT", "addr:country": "US", "addr:full": "52 1ST ST SW", "addr:postcode": "50423", "addr:state": "IA", "amenity": "post_box", "brand": "United States Postal Service", "brand:wikidata": "Q668687", "collection_times": "Mo-Fr 16:15; Sa 10:15", "name": "USPS COLLECTION BOX - PO LOBBY", "note": "ON 12/24 AND 12/31, THIS BOX MAY BE COLLECTED AS EARLY AS 12 NOON.", "nsi_id": "unitedstatespostalservice-a77078", "operator": "United States Postal Service", "operator:short": "USPS", "operator:type": "public", "operator:wikidata": "Q668687", "ref": "5042300004"}, "type": "Feature"}
{"geometry": {"coordinates": [-93.802376621, 43.096060588], "type": "Point"}, "id": "vlr579b2e5Rf8z67iiYZWGgKNSU=", "properties": {"@spider": "usps_collection_boxes", "addr:city": "BRITT", "addr:country": "US", "addr:full": "52 1ST ST SW", "addr:postcode": "50423", "addr:state": "IA", "amenity": "post_box", "brand": "United States Postal Service", "brand:wikidata": "Q668687", "collection_times": "Mo-Fr 16:30; Sa 10:30", "name": "USPS COLLECTION BOX - PO LOBBY", "note": "ON 12/24 AND 12/31, THIS BOX MAY BE COLLECTED AS EARLY AS 12 NOON.", "nsi_id": "unitedstatespostalservice-a77078", "operator": "United States Postal Service", "operator:short": "USPS", "operator:type": "public", "operator:wikidata": "Q668687", "ref": "5042300005"}, "type": "Feature"}
{"geometry": {"coordinates": [-93.945702777, 43.386969519], "type": "Point"}, "id": "-oc-rmzqoD1MuSOCD806eZzEcIM=", "properties": {"@spider": "usps_collection_boxes", "addr:city": "BUFFALO CENTER", "addr:country": "US", "addr:full": "15 2ND AVE NE", "addr:postcode": "50424", "addr:state": "IA", "amenity": "post_box", "brand": "United States Postal Service", "brand:wikidata": "Q668687", "collection_times": "Mo-Sa 15:45", "name": "USPS COLLECTION BOX - BLUE BOX", "note": "ON 12/24 AND 12/31, THIS BOX MAY BE COLLECTED AS EARLY AS 12 NOON.", "nsi_id": "unitedstatespostalservice-a77078", "operator": "United States Postal Service", "operator:short": "USPS", "operator:type": "public", "operator:wikidata": "Q668687", "ref": "5042400000"}, "type": "Feature"}
{"geometry": {"coordinates": [-93.945702777, 43.386969519], "type": "Point"}, "id": "MmxlGgIbxa8p8EiuN4o6Oef6OgI=", "properties": {"@spider": "usps_collection_boxes", "addr:city": "BUFFALO CENTER", "addr:country": "US", "addr:full": "15 2ND AVE NE", "addr:postcode": "50424", "addr:state": "IA", "amenity": "post_box", "brand": "United States Postal Service", "brand:wikidata": "Q668687", "collection_times": "Mo-Fr 16:00", "name": "USPS COLLECTION BOX - PO LOBBY", "note": "ON 12/24 AND 12/31, THIS BOX MAY BE COLLECTED AS EARLY AS 12 NOON.", "nsi_id": "unitedstatespostalservice-a77078", "operator": "United States Postal Service", "operator:short": "USPS", "operator:type": "public", "operator:wikidata": "Q668687", "ref": "5042400001"}, "type": "Feature"}
{"geometry": {"coordinates": [-93.945702777, 43.386969519], "type": "Point"}, "id": "Aq6Vr20rTuPdNdrDUHyno_bn45E=", "properties": {"@spider": "usps_collection_boxes", "addr:city": "BUFFALO CENTER", "addr:country": "US", "addr:full": "15 2ND AVE NE", "addr:postcode": "50424", "addr:state": "IA", "amenity": "post_box", "brand": "United States Postal Service", "brand:wikidata": "Q668687", "collection_times": "Mo-Fr 16:00; Sa 10:30", "name": "USPS COLLECTION BOX - PO LOBBY", "note": "ON 12/24 AND 12/31, THIS BOX MAY BE COLLECTED AS EARLY AS 12 NOON.", "nsi_id": "unitedstatespostalservice-a77078", "operator": "United States Postal Service", "operator:short": "USPS", "operator:type": "public", "operator:wikidata": "Q668687", "ref": "5042400002"}, "type": "Feature"}
{"geometry": {"coordinates": [-93.956729402, 42.992062281], "type": "Point"}, "id": "6oD9VXkjAC_ak9UapVVSsLUWPSQ=", "properties": {"@spider": "usps_collection_boxes", "addr:city": "CORWITH", "addr:country": "US", "addr:full": "112 NW ELM ST", "addr:postcode": "50430", "addr:state": "IA", "amenity": "post_box", "brand": "United States Postal Service", "brand:wikidata": "Q668687", "collection_times": "Mo-Sa 15:45", "name": "USPS COLLECTION BOX - BLUE BOX", "note": "ON 12/24 AND 12/31, THIS BOX MAY BE COLLECTED AS EARLY AS 12 NOON.", "nsi_id": "unitedstatespostalservice-a77078", "operator": "United States Postal Service", "operator:short": "USPS", "operator:type": "public", "operator:wikidata": "Q668687", "ref": "5043000000"}, "type": "Feature"}
{"geometry": {"coordinates": [-93.956729402, 42.992062281], "type": "Point"}, "id": "9FzuoFnzPdgxvg_Q-x-icme0Xfk=", "properties": {"@spider": "usps_collection_boxes", "addr:city": "CORWITH", "addr:country": "US", "addr:full": "112 NW ELM ST", "addr:postcode": "50430", "addr:state": "IA", "amenity": "post_box", "brand": "United States Postal Service", "brand:wikidata": "Q668687", "collection_times": "Mo-Fr 11:45", "name": "USPS COLLECTION BOX - PO LOBBY", "nsi_id": "unitedstatespostalservice-a77078", "operator": "United States Postal Service", "operator:short": "USPS", "operator:type": "public", "operator:wikidata": "Q668687", "ref": "5043000001"}, "type": "Feature"}
{"geometry": {"coordinates": [-93.956729402, 42.992062281], "type": "Point"}, "id": "cRgodwHkmrnqoPAhM7fINwlGvtU=", "properties": {"@spider": "usps_collection_boxes", "addr:city": "CORWITH", "addr:country": "US", "addr:full": "112 NW ELM ST", "addr:postcode": "50430", "addr:state": "IA", "amenity": "post_box", "brand": "United States Postal Service", "brand:wikidata": "Q668687", "collection_times": "Mo-Fr 12:00; Sa 09:00", "name": "USPS COLLECTION BOX - PO LOBBY", "nsi_id": "unitedstatespostalservice-a77078", "operator": "United States Postal Service", "operator:short": "USPS", "operator:type": "public", "operator:wikidata": "Q668687", "ref": "5043000002"}, "type": "Feature"}
{"geometry": {"coordinates": [-93.790085654, 43.223017684], "type": "Point"}, "id": "t5tspJEsK3sd-nj3iXlnJt9M9jk=", "properties": {"@spider": "usps_collection_boxes", "addr:city": "CRYSTAL LAKE", "addr:country": "US", "addr:full": "210 STATE AVE S", "addr:postcode": "50432", "addr:state": "IA", "amenity": "post_box", "brand": "United States Postal Service", "brand:wikidata": "Q668687", "collection_times": "Mo-Sa 16:00", "name": "USPS COLLECTION BOX - BLUE BOX", "note": "ON 12/24 AND 12/31, THIS BOX MAY BE COLLECTED AS EARLY AS 12 NOON.", "nsi_id": "unitedstatespostalservice-a77078", "operator": "United States Postal Service", "operator:short": "USPS", "operator:type": "public", "operator:wikidata": "Q668687", "ref": "5043200000"}, "type": "Feature"}
{"geometry": {"coordinates": [-93.790085654, 43.223017684], "type": "Point"}, "id": "Rcymo5Xbjpx-cuuCIOd_OGQyGws=", "properties": {"@spider": "usps_collection_boxes", "addr:city": "CRYSTAL LAKE", "addr:country": "US", "addr:full": "210 STATE AVE S", "addr:postcode": "50432", "addr:state": "IA", "amenity": "post_box", "brand": "United States Postal Service", "brand:wikidata": "Q668687", "collection_times": "Mo-Fr 16:00", "name": "USPS COLLECTION BOX - PO LOBBY", "note": "ON 12/24 AND 12/31, THIS BOX MAY BE COLLECTED AS EARLY AS 12 NOON.", "nsi_id": "unitedstatespostalservice-a77078", "operator": "United States Postal Service", "operator:short": "USPS", "operator:type": "public", "operator:wikidata": "Q668687", "ref": "5043200001"}, "type": "Feature"}
{"geometry": {"coordinates": [-93.790085654, 43.223017684], "type": "Point"}, "id": "YZst-W7RNNTMUZb61wD8T_0q0A4=", "properties": {"@spider": "usps_collection_boxes", "addr:city": "CRYSTAL LAKE", "addr:country": "US", "addr:full": "210 STATE AVE S", "addr:postcode": "50432", "addr:state": "IA", "amenity": "post_box", "brand": "United States Postal Service", "brand:wikidata": "Q668687", "collection_times": "Mo-Fr 16:00; Sa 10:00", "name": "USPS COLLECTION BOX - PO LOBBY", "note": "ON 12/24 AND 12/31, THIS BOX MAY BE COLLECTED AS EARLY AS 12 NOON.", "nsi_id": "unitedstatespostalservice-a77078", "operator": "United States Postal Service", "operator:short": "USPS", "operator:type": "public", "operator:wikidata": "Q668687", "ref": "5043200002"}, "type": "Feature"}
{"geometry": {"coordinates": [-93.638169574, 43.265755708], "type": "Point"}, "id": "UreBZAqgyhO56q2ENFI36zhB5ls=", "properties": {"@spider": "usps_collection_boxes", "addr:city": "FOREST CITY", "addr:country": "US", "addr:full": "312 N CLARK ST", "addr:postcode": "50436", "addr:state": "IA", "amenity": "post_box", "brand": "United States Postal Service", "brand:wikidata": "Q668687", "collection_times": "Mo-Fr 16:45; Sa 15:15", "name": "USPS COLLECTION BOX - BLUE BOX", "note": "ON 12/24 AND 12/31, THIS BOX MAY BE COLLECTED AS EARLY AS 12 NOON.", "nsi_id": "unitedstatespostalservice-a77078", "operator": "United States Postal Service", "operator:short": "USPS", "operator:type": "public", "operator:wikidata": "Q668687", "ref": "5043600007"}, "type": "Feature"}
{"geometry": {"coordinates": [-93.638169574, 43.265755708], "type": "Point"}, "id": "K1RPi4WvZp_wpqXfq31iX_NLmho=", "properties": {"@spider": "usps_collection_boxes", "addr:city": "FOREST CITY", "addr:country": "US", "addr:full": "312 N CLARK ST", "addr:postcode": "50436", "addr:state": "IA", "amenity": "post_box", "brand": "United States Postal Service", "brand:wikidata": "Q668687", "collection_times": "Mo-Fr 16:45; Sa 15:15", "name": "USPS COLLECTION BOX - PO LOBBY", "note": "ON 12/24 AND 12/31, THIS BOX MAY BE COLLECTED AS EARLY AS 12 NOON.", "nsi_id": "unitedstatespostalservice-a77078", "operator": "United States Postal Service", "operator:short": "USPS", "operator:type": "public", "operator:wikidata": "Q668687", "ref": "5043600010"}, "type": "Feature"}
{"geometry": {"coordinates": [-93.638169574, 43.265755708], "type": "Point"}, "id": "mXk2UZblZJEXMKIApoq6zo7nTvI=", "properties": {"@spider": "usps_collection_boxes", "addr:city": "FOREST CITY", "addr:country": "US", "addr:full": "312 N CLARK ST", "addr:postcode": "50436", "addr:state": "IA", "amenity": "post_box", "brand": "United States Postal Service", "brand:wikidata": "Q668687", "collection_times": "Mo-Fr 16:45; Sa 11:00", "name": "USPS COLLECTION BOX - PO LOBBY", "note": "ON 12/24 AND 12/31, THIS BOX MAY BE COLLECTED AS EARLY AS 12 NOON.", "nsi_id": "unitedstatespostalservice-a77078", "operator": "United States Postal Service", "operator:short": "USPS", "operator:type": "public", "operator:wikidata": "Q668687", "ref": "5043600011"}, "type": "Feature"}
{"geometry": {"coordinates": [-93.600959424, 43.102235738], "type": "Point"}, "id": "0vKSwtBh0nb3ul46GamCSrWuyuM=", "properties": {"@spider": "usps_collection_boxes", "addr:city": "GARNER", "addr:country": "US", "addr:full": "190 E 3RD ST", "addr:postcode": "50438", "addr:state": "IA", "amenity": "post_box", "brand": "United States Postal Service", "brand:wikidata": "Q668687", "collection_times": "Mo-Fr 17:00; Sa 15:45", "name": "USPS COLLECTION BOX - BLUE BOX", "note": "ON 12/24 AND 12/31, THIS BOX MAY BE COLLECTED AS EARLY AS 12 NOON.", "nsi_id": "unitedstatespostalservice-a77078", "operator": "United States Postal Service", "operator:short": "USPS", "operator:type": "public", "operator:wikidata": "Q668687", "ref": "5043800005"}, "type": "Feature"}
{"geometry": {"coordinates": [-93.600959424, 43.102235738], "type": "Point"}, "id": "9TdvobyOkh_-0qO4ICyDsYT0hPI=", "properties": {"@spider": "usps_collection_boxes", "addr:city": "GARNER", "addr:country": "US", "addr:full": "190 E 3RD ST", "addr:postcode": "50438", "addr:state": "IA", "amenity": "post_box", "brand": "United States Postal Service", "brand:wikidata": "Q668687", "collection_times": "Mo-Fr 17:00; Sa 10:30", "name": "USPS COLLECTION BOX - PO LOBBY", "note": "ON 12/24 AND 12/31, THIS BOX MAY BE COLLECTED AS EARLY AS 12 NOON.", "nsi_id": "unitedstatespostalservice-a77078", "operator": "United States Postal Service", "operator:short": "USPS", "operator:type": "public", "operator:wikidata": "Q668687", "ref": "5043800006"}, "type": "Feature"}
{"geometry": {"coordinates": [-93.600959424, 43.102235738], "type": "Point"}, "id": "WRe-aHaW6Rn1TiDi1reZTIYmJt0=", "properties": {"@spider": "usps_collection_boxes", "addr:city": "GARNER", "addr:country": "US", "addr:full": "190 E 3RD ST", "addr:postcode": "50438", "addr:state": "IA", "amenity": "post_box", "brand": "United States Postal Service", "brand:wikidata": "Q668687", "collection_times": "Mo-Fr 16:30; Sa 10:30", "name": "USPS COLLECTION BOX - PO LOBBY", "note": "ON 12/24 AND 12/31, THIS BOX MAY BE COLLECTED AS EARLY AS 12 NOON.", "nsi_id": "unitedstatespostalservice-a77078", "operator": "United States Postal Service", "operator:short": "USPS", "operator:type": "public", "operator:wikidata": "Q668687", "ref": "5043800007"}, "type": "Feature"}
{"geometry": {"coordinates": [-93.79312747, 42.935548714], "type": "Point"}, "id": "ICNLeeWSIczET6bZWQGkHFYC7aQ=", "properties": {"@spider": "usps_collection_boxes", "addr:city": "KANAWHA", "addr:country": "US", "addr:full": "221 N MAIN ST", "addr:postcode": "50447", "addr:state": "IA", "amenity": "post_box", "brand": "United States Postal Service", "brand:wikidata": "Q668687", "collection_times": "Mo-Sa 15:30", "name": "USPS COLLECTION BOX - BLUE BOX", "note": "ON 12/24 AND 12/31, THIS BOX MAY BE COLLECTED AS EARLY AS 12 NOON.", "nsi_id": "unitedstatespostalservice-a77078", "operator": "United States Postal Service", "operator:short": "USPS", "operator:type": "public", "operator:wikidata": "Q668687", "ref": "5044700000"}, "type": "Feature"}
{"geometry": {"coordinates": [-93.79312747, 42.935548714], "type": "Point"}, "id": "2CxTYFMNLMBm8PnDiZaluu7pLLg=", "properties": {"@spider": "usps_collection_boxes", "addr:city": "KANAWHA", "addr:country": "US", "addr:full": "221 N MAIN ST", "addr:postcode": "50447", "addr:state": "IA", "amenity": "post_box", "brand": "United States Postal Service", "brand:wikidata": "Q668687", "collection_times": "Mo-Fr 14:45", "name": "USPS COLLECTION BOX - PO LOBBY", "note": "ON 12/24 AND 12/31, THIS BOX MAY BE COLLECTED AS EARLY AS 12 NOON.", "nsi_id": "unitedstatespostalservice-a77078", "operator": "United States Postal Service", "operator:short": "USPS", "operator:type": "public", "operator:wikidata": "Q668687", "ref": "5044700001"}, "type": "Feature"}
{"geometry": {"coordinates": [-93.79312747, 42.935548714], "type": "Point"}, "id": "IxBst5PHwOoExMdFArp9DblFWOc=", "properties": {"@spider": "usps_collection_boxes", "addr:city": "KANAWHA", "addr:country": "US", "addr:full": "221 N MAIN ST", "addr:postcode": "50447", "addr:state": "IA", "amenity": "post_box", "brand": "United States Postal Service", "brand:wikidata": "Q668687", "collection_times": "Mo-Fr 15:00; Sa 08:00", "name": "USPS COLLECTION BOX - PO LOBBY", "note": "ON 12/24 AND 12/31, THIS BOX MAY BE COLLECTED AS EARLY AS 12 NOON.", "nsi_id": "unitedstatespostalservice-a77078", "operator": "United States Postal Service", "operator:short": "USPS", "operator:type": "public", "operator:wikidata": "Q668687", "ref": "5044700002"}, "type": "Feature"}
{"geometry": {"coordinates": [-93.599824505, 43.006896], "type": "Point"}, "id": "9cN3jc4nI-stXECyTEfLDcNK2JM=", "properties": {"@spider": "usps_collection_boxes", "addr:city": "KLEMME", "addr:country": "US", "addr:full": "115 E MAIN ST", "addr:postcode": "50449", "addr:state": "IA", "amenity": "post_box", "brand": "United States Postal Service", "brand:wikidata": "Q668687", "collection_times": "Mo-Fr 16:30; Sa 16:15", "name": "USPS COLLECTION BOX - BLUE BOX", "note": "ON 12/24 AND 12/31, THIS BOX MAY BE COLLECTED AS EARLY AS 12 NOON.", "nsi_id": "unitedstatespostalservice-a77078", "operator": "United States Postal Service", "operator:short": "USPS", "operator:type": "public", "operator:wikidata": "Q668687", "ref": "5044900000"}, "type": "Feature"}
{"geometry": {"coordinates": [-93.599824505, 43.006896], "type": "Point"}, "id": "wHXBoy7m1E9-GhnkSHLT38txNnw=", "properties": {"@spider": "usps_collection_boxes", "addr:city": "KLEMME", "addr:country": "US", "addr:full": "115 E MAIN ST", "addr:postcode": "50449", "addr:state": "IA", "amenity": "post_box", "brand": "United States Postal Service", "brand:wikidata": "Q668687", "collection_times": "Mo-Fr 15:45", "name": "USPS COLLECTION BOX - PO LOBBY", "note": "ON 12/24 AND 12/31, THIS BOX MAY BE COLLECTED AS EARLY AS 12 NOON.", "nsi_id": "unitedstatespostalservice-a77078", "operator": "United States Postal Service", "operator:short": "USPS", "operator:type": "public", "operator:wikidata": "Q668687", "ref": "5044900001"}, "type": "Feature"}
{"geometry": {"coordinates": [-93.599824505, 43.006896], "type": "Point"}, "id": "Hv6D952thbMunq29qDFgfI558KQ=", "properties": {"@spider": "usps_collection_boxes", "addr:city": "KLEMME", "addr:country": "US", "addr:full": "115 E MAIN ST", "addr:postcode": "50449", "addr:state": "IA", "amenity": "post_box", "brand": "United States Postal Service", "brand:wikidata": "Q668687", "collection_times": "Mo-Fr 16:00; Sa 12:45", "name": "USPS COLLECTION BOX - PO LOBBY", "note": "ON 12/24 AND 12/31, THIS BOX MAY BE COLLECTED AS EARLY AS 12 NOON.", "nsi_id": "unitedstatespostalservice-a77078", "operator": "United States Postal Service", "operator:short": "USPS", "operator:type": "public", "operator:wikidata": "Q668687", "ref": "5044900003"}, "type": "Feature"}
{"geometry": {"coordinates": [-94.093571752, 43.378047534], "type": "Point"}, "id": "AkDgN3K3o75I-wwOuw_qMj5B8go=", "properties": {"@spider": "usps_collection_boxes", "addr:city": "LAKOTA", "addr:country": "US", "addr:full": "223 3RD ST", "addr:postcode": "50451", "addr:state": "IA", "amenity": "post_box", "brand": "United States Postal Service", "brand:wikidata": "Q668687", "collection_times": "Mo-Fr 15:45; Sa 15:15", "name": "USPS COLLECTION BOX - BLUE BOX", "note": "ON 12/24 AND 12/31, THIS BOX MAY BE COLLECTED AS EARLY AS 12 NOON.", "nsi_id": "unitedstatespostalservice-a77078", "operator": "United States Postal Service", "operator:short": "USPS", "operator:type": "public", "operator:wikidata": "Q668687", "ref": "5045100000"}, "type": "Feature"}
{"geometry": {"coordinates": [-94.093571752, 43.378047534], "type": "Point"}, "id": "DnYQDSh_5aHmspj-ZNNZmMElJrY=", "properties": {"@spider": "usps_collection_boxes", "addr:city": "LAKOTA", "addr:country": "US", "addr:full": "223 3RD ST", "addr:postcode": "50451", "addr:state": "IA", "amenity": "post_box", "brand": "United States Postal Service", "brand:wikidata": "Q668687", "collection_times": "Mo-Fr 11:45", "name": "USPS COLLECTION BOX - PO LOBBY", "nsi_id": "unitedstatespostalservice-a77078", "operator": "United States Postal Service", "operator:short": "USPS", "operator:type": "public", "operator:wikidata": "Q668687", "ref": "5045100001"}, "type": "Feature"}
{"geometry": {"coordinates": [-94.093571752, 43.378047534], "type": "Point"}, "id": "dPnvLM57uM3zQ9Lq3lF5qMYr7e4=", "properties": {"@spider": "usps_collection_boxes", "addr:city": "LAKOTA", "addr:country": "US", "addr:full": "223 3RD ST", "addr:postcode": "50451", "addr:state": "IA", "amenity": "post_box", "brand": "United States Postal Service", "brand:wikidata": "Q668687", "collection_times": "Mo-Fr 12:00; Sa 09:30", "name": "USPS COLLECTION BOX - PO LOBBY", "nsi_id": "unitedstatespostalservice-a77078", "operator": "United States Postal Service", "operator:short": "USPS", "operator:type": "public", "operator:wikidata": "Q668687", "ref": "5045100002"}, "type": "Feature"}
{"geometry": {"coordinates": [-93.637381081, 43.33718046], "type": "Point"}, "id": "THVTHuQxxZeJg9x-FYrgZw27_7s=", "properties": {"@spider": "usps_collection_boxes", "addr:city": "LELAND", "addr:country": "US", "addr:full": "212 W BROADWAY", "addr:postcode": "50453", "addr:state": "IA", "amenity": "post_box", "brand": "United States Postal Service", "brand:wikidata": "Q668687", "collection_times": "Mo-Fr 16:00; Sa 16:15", "name": "USPS COLLECTION BOX - BLUE BOX", "note": "ON 12/24 AND 12/31, THIS BOX MAY BE COLLECTED AS EARLY AS 12 NOON.", "nsi_id": "unitedstatespostalservice-a77078", "operator": "United States Postal Service", "operator:short": "USPS", "operator:type": "public", "operator:wikidata": "Q668687", "ref": "5045300000"}, "type": "Feature"}
{"geometry": {"coordinates": [-93.637381081, 43.33718046], "type": "Point"}, "id": "2BxoDEvu1M3JKj-r0NFh69JqQmg=", "properties": {"@spider": "usps_collection_boxes", "addr:city": "LELAND", "addr:country": "US", "addr:full": "212 W BROADWAY", "addr:postcode": "50453", "addr:state": "IA", "amenity": "post_box", "brand": "United States Postal Service", "brand:wikidata": "Q668687", "collection_times": "Mo-Fr 12:45", "name": "USPS COLLECTION BOX - PO LOBBY", "note": "ON 12/24 AND 12/31, THIS BOX MAY BE COLLECTED AS EARLY AS 12 NOON.", "nsi_id": "unitedstatespostalservice-a77078", "operator": "United States Postal Service", "operator:short": "USPS", "operator:type": "public", "operator:wikidata": "Q668687", "ref": "5045300001"}, "type": "Feature"}
{"geometry": {"coordinates": [-93.637381081, 43.33718046], "type": "Point"}, "id": "zpn1St8Ow6eoDmmf-DbsjrTKAiI=", "properties": {"@spider": "usps_collection_boxes", "addr:city": "LELAND", "addr:country": "US", "addr:full": "212 W BROADWAY", "addr:postcode": "50453", "addr:state": "IA", "amenity": "post_box", "brand": "United States Postal Service", "brand:wikidata": "Q668687", "collection_times": "Mo-Fr 13:00; Sa 10:30", "name": "USPS COLLECTION BOX - PO LOBBY", "note": "ON 12/24 AND 12/31, THIS BOX MAY BE COLLECTED AS EARLY AS 12 NOON.", "nsi_id": "unitedstatespostalservice-a77078", "operator": "United States Postal Service", "operator:short": "USPS", "operator:type": "public", "operator:wikidata": "Q668687", "ref": "5045300002"}, "type": "Feature"}
{"geometry": {"coordinates": [-93.551900055, 42.740767486], "type": "Point"}, "id": "dXWKtYiHXMrxEaI42SOyR-Ys82E=", "properties": {"@spider": "usps_collection_boxes", "addr:city": "ROWAN", "addr:country": "US", "addr:full": "118 MAIN ST", "addr:postcode": "50470", "addr:state": "IA", "amenity": "post_box", "brand": "United States Postal Service", "brand:wikidata": "Q668687", "collection_times": "Mo-Fr 15:45; Sa 15:00", "name": "USPS COLLECTION BOX - BLUE BOX", "note": "ON 12/24 AND 12/31, THIS BOX MAY BE COLLECTED AS EARLY AS 12 NOON.", "nsi_id": "unitedstatespostalservice-a77078", "operator": "United States Postal Service", "operator:short": "USPS", "operator:type": "public", "operator:wikidata": "Q668687", "ref": "5047000000"}, "type": "Feature"}
{"geometry": {"coordinates": [-93.551900055, 42.740767486], "type": "Point"}, "id": "SBrQ3YKBUl91Y_rxSxKjzt1yLgY=", "properties": {"@spider": "usps_collection_boxes", "addr:city": "ROWAN", "addr:country": "US", "addr:full": "118 MAIN ST", "addr:postcode": "50470", "addr:state": "IA", "amenity": "post_box", "brand": "United States Postal Service", "brand:wikidata": "Q668687", "collection_times": "Mo-Fr 11:30", "name": "USPS COLLECTION BOX - PO LOBBY", "nsi_id": "unitedstatespostalservice-a77078", "operator": "United States Postal Service", "operator:short": "USPS", "operator:type": "public", "operator:wikidata": "Q668687", "ref": "5047000001"}, "type": "Feature"}
{"geometry": {"coordinates": [-93.551900055, 42.740767486], "type": "Point"}, "id": "Y3KQfxiwZTRXrK5Qijh_1-AjdzE=", "properties": {"@spider": "usps_collection_boxes", "addr:city": "ROWAN", "addr:country": "US", "addr:full": "118 MAIN ST", "addr:postcode": "50470", "addr:state": "IA", "amenity": "post_box", "brand": "United States Postal Service", "brand:wikidata": "Q668687", "collection_times": "Mo-Fr 11:45; Sa 09:30", "name": "USPS COLLECTION BOX - PO LOBBY", "nsi_id": "unitedstatespostalservice-a77078", "operator": "United States Postal Service", "operator:short": "USPS", "operator:type": "public", "operator:wikidata": "Q668687", "ref": "5047000002"}, "type": "Feature"}
{"geometry": {"coordinates": [-93.771080683, 43.371856456], "type": "Point"}, "id": "8isSNHDg1l1xclBVt-6oll_svAs=", "properties": {"@spider": "usps_collection_boxes", "addr:city": "THOMPSON", "addr:country": "US", "addr:full": "132 N JACKSON ST", "addr:postcode": "50478", "addr:state": "IA", "amenity": "post_box", "brand": "United States Postal Service", "brand:wikidata": "Q668687", "collection_times": "Mo-Fr 16:00; Sa 16:15", "name": "USPS COLLECTION BOX - BLUE BOX", "note": "ON 12/24 AND 12/31, THIS BOX MAY BE COLLECTED AS EARLY AS 12 NOON.", "nsi_id": "unitedstatespostalservice-a77078", "operator": "United States Postal Service", "operator:short": "USPS", "operator:type": "public", "operator:wikidata": "Q668687", "ref": "5047800000"}, "type": "Feature"}
{"geometry": {"coordinates": [-93.771080683, 43.371856456], "type": "Point"}, "id": "w5zg6SlSy6HXo2TVqvWvktptZzw=", "properties": {"@spider": "usps_collection_boxes", "addr:city": "THOMPSON", "addr:country": "US", "addr:full": "132 N JACKSON ST", "addr:postcode": "50478", "addr:state": "IA", "amenity": "post_box", "brand": "United States Postal Service", "brand:wikidata": "Q668687", "collection_times": "Mo-Fr 11:45", "name": "USPS COLLECTION BOX - PO LOBBY", "nsi_id": "unitedstatespostalservice-a77078", "operator": "United States Postal Service", "operator:short": "USPS", "operator:type": "public", "operator:wikidata": "Q668687", "ref": "5047800001"}, "type": "Feature"}
{"geometry": {"coordinates": [-93.771080683, 43.371856456], "type": "Point"}, "id": "dLKvhDIZvKRmY1ElSdrJJUiUmLE=", "properties": {"@spider": "usps_collection_boxes", "addr:city": "THOMPSON", "addr:country": "US", "addr:full": "132 N JACKSON ST", "addr:postcode": "50478", "addr:state": "IA", "amenity": "post_box", "brand": "United States Postal Service", "brand:wikidata": "Q668687", "collection_times": "Mo-Fr 12:00; Sa 10:45", "name": "USPS COLLECTION BOX - PO LOBBY", "nsi_id": "unitedstatespostalservice-a77078", "operator": "United States Postal Service", "operator:short": "USPS", "operator:type": "public", "operator:wikidata": "Q668687", "ref": "5047800002"}, "type": "Feature"}
{"geometry": {"coordinates": [-94.041357734, 43.237404], "type": "Point"}, "id": "WG1t_5GUkgDcN9PcT8LwG0_n6w0=", "properties": {"@spider": "usps_collection_boxes", "addr:city": "TITONKA", "addr:country": "US", "addr:full": "259 MAIN ST N", "addr:postcode": "50480", "addr:state": "IA", "amenity": "post_box", "brand": "United States Postal Service", "brand:wikidata": "Q668687", "collection_times": "Mo-Sa 15:30", "name": "USPS COLLECTION BOX - BLUE BOX", "note": "ON 12/24 AND 12/31, THIS BOX MAY BE COLLECTED AS EARLY AS 12 NOON.", "nsi_id": "unitedstatespostalservice-a77078", "operator": "United States Postal Service", "operator:short": "USPS", "operator:type": "public", "operator:wikidata": "Q668687", "ref": "5048000000"}, "type": "Feature"}
{"geometry": {"coordinates": [-94.041357734, 43.237404], "type": "Point"}, "id": "U2Fy2wiufSTLLjd5aTgFdn1Y9sY=", "properties": {"@spider": "usps_collection_boxes", "addr:city": "TITONKA", "addr:country": "US", "addr:full": "259 MAIN ST N", "addr:postcode": "50480", "addr:state": "IA", "amenity": "post_box", "brand": "United States Postal Service", "brand:wikidata": "Q668687", "collection_times": "Mo-Fr 12:45; Sa 09:30", "name": "USPS COLLECTION BOX - PO LOBBY", "note": "ON 12/24 AND 12/31, THIS BOX MAY BE COLLECTED AS EARLY AS 12 NOON.", "nsi_id": "unitedstatespostalservice-a77078", "operator": "United States Postal Service", "operator:short": "USPS", "operator:type": "public", "operator:wikidata": "Q668687", "ref": "5048000001"}, "type": "Feature"}
{"geometry": {"coordinates": [-94.041357734, 43.237404], "type": "Point"}, "id": "eIX7-_IYJBJreR_gV2Zsmi0aDPM=", "properties": {"@spider": "usps_collection_boxes", "addr:city": "TITONKA", "addr:country": "US", "addr:full": "259 MAIN ST N", "addr:postcode": "50480", "addr:state": "IA", "amenity": "post_box", "brand": "United States Postal Service", "brand:wikidata": "Q668687", "collection_times": "Mo-Fr 13:00; Sa 09:45", "name": "USPS COLLECTION BOX - PO LOBBY", "note": "ON 12/24 AND 12/31, THIS BOX MAY BE COLLECTED AS EARLY AS 12 NOON.", "nsi_id": "unitedstatespostalservice-a77078", "operator": "United States Postal Service", "operator:short": "USPS", "operator:type": "public", "operator:wikidata": "Q668687", "ref": "5048000002"}, "type": "Feature"}
{"geometry": {"coordinates": [-93.991228917, 43.088237572], "type": "Point"}, "id": "xa6iXwRSvD-sBV3fUFHH13n47ec=", "properties": {"@spider": "usps_collection_boxes", "addr:city": "WESLEY", "addr:country": "US", "addr:full": "105 MAIN ST W", "addr:postcode": "50483", "addr:state": "IA", "amenity": "post_box", "brand": "United States Postal Service", "brand:wikidata": "Q668687", "collection_times": "Mo-Sa 16:15", "name": "USPS COLLECTION BOX - BLUE BOX", "note": "ON 12/24 AND 12/31, THIS BOX MAY BE COLLECTED AS EARLY AS 12 NOON.", "nsi_id": "unitedstatespostalservice-a77078", "operator": "United States Postal Service", "operator:short": "USPS", "operator:type": "public", "operator:wikidata": "Q668687", "ref": "5048300001"}, "type": "Feature"}
{"geometry": {"coordinates": [-93.991228917, 43.088237572], "type": "Point"}, "id": "qCmxwRlB-9ZdvXL6QcZp_rBNvYM=", "properties": {"@spider": "usps_collection_boxes", "addr:city": "WESLEY", "addr:country": "US", "addr:full": "105 MAIN ST W", "addr:postcode": "50483", "addr:state": "IA", "amenity": "post_box", "brand": "United States Postal Service", "brand:wikidata": "Q668687", "collection_times": "Mo-Fr 11:30; Sa 10:00", "name": "USPS COLLECTION BOX - PO LOBBY", "nsi_id": "unitedstatespostalservice-a77078", "operator": "United States Postal Service", "operator:short": "USPS", "operator:type": "public", "operator:wikidata": "Q668687", "ref": "5048300002"}, "type": "Feature"}
{"geometry": {"coordinates": [-93.991228917, 43.088237572], "type": "Point"}, "id": "M68p9UmSf-REqux46yYhdIuwI-U=", "properties": {"@spider": "usps_collection_boxes", "addr:city": "WESLEY", "addr:country": "US", "addr:full": "105 MAIN ST W", "addr:postcode": "50483", "addr:state": "IA", "amenity": "post_box", "brand": "United States Postal Service", "brand:wikidata": "Q668687", "collection_times": "Mo-Fr 11:45; Sa 10:15", "name": "USPS COLLECTION BOX - PO LOBBY", "nsi_id": "unitedstatespostalservice-a77078", "operator": "United States Postal Service", "operator:short": "USPS", "operator:type": "public", "operator:wikidata": "Q668687", "ref": "5048300003"}, "type": "Feature"}
{"geometry": {"coordinates": [-93.910039822, 43.232497908], "type": "Point"}, "id": "e4SAHMcfXH7v9cbuiTf6sZIOb2M=", "properties": {"@spider": "usps_collection_boxes", "addr:city": "WODEN", "addr:country": "US", "addr:full": "222 MAIN", "addr:postcode": "50484", "addr:state": "IA", "amenity": "post_box", "brand": "United States Postal Service", "brand:wikidata": "Q668687", "collection_times": "Mo-Sa 16:00", "name": "USPS COLLECTION BOX - BLUE BOX", "note": "ON 12/24 AND 12/31, THIS BOX MAY BE COLLECTED AS EARLY AS 12 NOON.", "nsi_id": "unitedstatespostalservice-a77078", "operator": "United States Postal Service", "operator:short": "USPS", "operator:type": "public", "operator:wikidata": "Q668687", "ref": "5048400000"}, "type": "Feature"}
{"geometry": {"coordinates": [-93.910039822, 43.232497908], "type": "Point"}, "id": "w53IjpE9LxN0jxDvMOUrIYsGciw=", "properties": {"@spider": "usps_collection_boxes", "addr:city": "WODEN", "addr:country": "US", "addr:full": "222 MAIN", "addr:postcode": "50484", "addr:state": "IA", "amenity": "post_box", "brand": "United States Postal Service", "brand:wikidata": "Q668687", "collection_times": "Mo-Fr 11:45", "name": "USPS COLLECTION BOX - PO LOBBY", "nsi_id": "unitedstatespostalservice-a77078", "operator": "United States Postal Service", "operator:short": "USPS", "operator:type": "public", "operator:wikidata": "Q668687", "ref": "5048400001"}, "type": "Feature"}
{"geometry": {"coordinates": [-93.910039822, 43.232497908], "type": "Point"}, "id": "MOdCOjhu8ppC71Z8iBKrEyEEGmg=", "properties": {"@spider": "usps_collection_boxes", "addr:city": "WODEN", "addr:country": "US", "addr:full": "222 MAIN", "addr:postcode": "50484", "addr:state": "IA", "amenity": "post_box", "brand": "United States Postal Service", "brand:wikidata": "Q668687", "collection_times": "Mo-Fr 12:00; Sa 09:30", "name": "USPS COLLECTION BOX - PO LOBBY", "nsi_id": "unitedstatespostalservice-a77078", "operator": "United States Postal Service", "operator:short": "USPS", "operator:type": "public", "operator:wikidata": "Q668687", "ref": "5048400002"}, "type": "Feature"}
