{"dataset_attributes": {"@spider": "usps_collection_boxes", "spider:collection_time": "2023-11-28T08:25:58.546046"}, "geometry": {"coordinates": [-93.0524535, 42.553184522], "type": "Point"}, "id": "C4Bn_-9AfYQhv5G2ZMMEFmUUZ14=", "properties": {"@spider": "usps_collection_boxes", "addr:city": "ACKLEY", "addr:country": "US", "addr:full": "706 1ST AVE", "addr:postcode": "50601", "addr:state": "IA", "amenity": "post_box", "brand": "United States Postal Service", "brand:wikidata": "Q668687", "collection_times": "Mo-Sa 16:15", "name": "USPS COLLECTION BOX - BLUE BOX", "note": "ON 12/24 AND 12/31, THIS BOX MAY BE COLLECTED AS EARLY AS 12 NOON.", "nsi_id": "unitedstatespostalservice-a77078", "operator": "United States Postal Service", "operator:short": "USPS", "operator:type": "public", "operator:wikidata": "Q668687", "ref": "5060100003"}, "type": "Feature"}
{"dataset_attributes": {"@spider": "usps_collection_boxes", "spider:collection_time": "2023-11-28T08:25:58.546046"}, "geometry": {"coordinates": [-93.0524535, 42.553184522], "type": "Point"}, "id": "s3g4Q1T_vu-WAmPBJb0LR8G1rHQ=", "properties": {"@spider": "usps_collection_boxes", "addr:city": "ACKLEY", "addr:country": "US", "addr:full": "706 1ST AVE", "addr:postcode": "50601", "addr:state": "IA", "amenity": "post_box", "brand": "United States Postal Service", "brand:wikidata": "Q668687", "collection_times": "Mo-Fr 16:15; Sa 08:30", "name": "USPS COLLECTION BOX - PO LOBBY", "note": "ON 12/24 AND 12/31, THIS BOX MAY BE COLLECTED AS EARLY AS 12 NOON.", "nsi_id": "unitedstatespostalservice-a77078", "operator": "United States Postal Service", "operator:short": "USPS", "operator:type": "public", "operator:wikidata": "Q668687", "ref": "5060100004"}, "type": "Feature"}
{"dataset_attributes": {"@spider": "usps_collection_boxes", "spider:collection_time": "2023-11-28T08:25:58.546046"}, "geometry": {"coordinates": [-93.0524535, 42.553184522], "type": "Point"}, "id": "bc_L-IWPEw2Xk1mJ4iW_wsKdM70=", "properties": {"@spider": "usps_collection_boxes", "addr:city": "ACKLEY", "addr:country": "US", "addr:full": "706 1ST AVE", "addr:postcode": "50601", "addr:state": "IA", "amenity": "post_box", "brand": "United States Postal Service", "brand:wikidata": "Q668687", "collection_times": "Mo-Fr 16:15; Sa 08:00", "name": "USPS COLLECTION BOX - PO LOBBY", "note": "ON 12/24 AND 12/31, THIS BOX MAY BE COLLECTED AS EARLY AS 12 NOON.", "nsi_id": "unitedstatespostalservice-a77078", "operator": "United States Postal Service", "operator:short": "USPS", "operator:type": "public", "operator:wikidata": "Q668687", "ref": "5060100005"}, "type": "Feature"}
{"dataset_attributes": {"@spider": "usps_collection_boxes", "spider:collection_time": "2023-11-28T08:25:58.546046"}, "geometry": {"coordinates": [-92.795160932, 42.753186335], "type": "Point"}, "id": "UPspzf0UA-DwUf5DWaYBoo6fu4s=", "properties": {"@spider": "usps_collection_boxes", "addr:city": "ALLISON", "addr:country": "US", "addr:full": "307 N MAIN ST", "addr:postcode": "50602", "addr:state": "IA", "amenity": "post_box", "brand": "United States Postal Service", "brand:wikidata": "Q668687", "collection_times": "Mo-Sa 16:00", "name": "USPS COLLECTION BOX - BLUE BOX", "note": "ON 12/24 AND 12/31, THIS BOX MAY BE COLLECTED AS EARLY AS 12 NOON.", "nsi_id": "unitedstatespostalservice-a77078", "operator": "United States Postal Service", "operator:short": "USPS", "operator:type": "public", "operator:wikidata": "Q668687", "ref": "5060200000"}, "type": "Feature"}
{"dataset_attributes": {"@spider": "usps_collection_boxes", "spider:collection_time": "2023-11-28T08:25:58.546046"}, "geometry": {"coordinates": [-92.795160932, 42.753186335], "type": "Point"}, "id": "yTem640y4rjoXgDUmZMHS_D4WFo=", "properties": {"@spider": "usps_collection_boxes", "addr:city": "ALLISON", "addr:country": "US", "addr:full": "307 N MAIN ST", "addr:postcode": "50602", "addr:state": "IA", "amenity": "post_box", "brand": "United States Postal Service", "brand:wikidata": "Q668687", "collection_times": "Mo-Fr 16:00; Sa 09:00", "name": "USPS COLLECTION BOX - PO LOBBY", "note": "ON 12/24 AND 12/31, THIS BOX MAY BE COLLECTED AS EARLY AS 12 NOON.", "nsi_id": "unitedstatespostalservice-a77078", "operator": "United States Postal Service", "operator:short": "USPS", "operator:type": "public", "operator:wikidata": "Q668687", "ref": "5060200001"}, "type": "Feature"}
{"dataset_attributes": {"@spider": "usps_collection_boxes", "spider:collection_time": "2023-11-28T08:25:58.546046"}, "geometry": {"coordinates": [-92.795160932, 42.753186335], "type": "Point"}, "id": "kgDh7RG-3Qjs2dAUdCK2uoWp-SE=", "properties": {"@spider": "usps_collection_boxes", "addr:city": "ALLISON", "addr:country": "US", "addr:full": "307 N MAIN ST", "addr:postcode": "50602", "addr:state": "IA", "amenity": "post_box", "brand": "United States Postal Service", "brand:wikidata": "Q668687", "collection_times": "Mo-Fr 16:00; Sa 08:00", "name": "USPS COLLECTION BOX - PO LOBBY", "note": "ON 12/24 AND 12/31, THIS BOX MAY BE COLLECTED AS EARLY AS 12 NOON.", "nsi_id": "unitedstatespostalservice-a77078", "operator": "United States Postal Service", "operator:short": "USPS", "operator:type": "public", "operator:wikidata": "Q668687", "ref": "5060200002"}, "type": "Feature"}
{"dataset_attributes": {"@spider": "usps_collection_boxes", "spider:collection_time": "2023-11-28T08:25:58.546046"}, "geometry": {"coordinates": [-92.416908705, 43.199127], "type": "Point"}, "id": "xHisBDchWv_PD8MLK-V0wloRdVg=", "properties": {"@spider": "usps_collection_boxes", "addr:city": "ALTA VISTA", "addr:country": "US", "addr:full": "108 N WHITE AVE", "addr:postcode": "50603", "addr:state": "IA", "amenity": "post_box", "brand": "United States Postal Service", "brand:wikidata": "Q668687", "collection_times": "Mo-Fr 15:45; Sa 15:00", "name": "USPS COLLECTION BOX - BLUE BOX", "note": "ON 12/24 AND 12/31, THIS BOX MAY BE COLLECTED AS EARLY AS 12 NOON.", "nsi_id": "unitedstatespostalservice-a77078", "operator": "United States Postal Service", "operator:short": "USPS", "operator:type": "public", "operator:wikidata": "Q668687", "ref": "5060300000"}, "type": "Feature"}
{"dataset_attributes": {"@spider": "usps_collection_boxes", "spider:collection_time": "2023-11-28T08:25:58.546046"}, "geometry": {"coordinates": [-92.416908705, 43.199127], "type": "Point"}, "id": "JAthoWaBrPW3Et6Du1sDEr2tTYw=", "properties": {"@spider": "usps_collection_boxes", "addr:city": "ALTA VISTA", "addr:country": "US", "addr:full": "108 N WHITE AVE", "addr:postcode": "50603", "addr:state": "IA", "amenity": "post_box", "brand": "United States Postal Service", "brand:wikidata": "Q668687", "collection_times": "Mo-Fr 11:45", "name": "USPS COLLECTION BOX - PO LOBBY", "nsi_id": "unitedstatespostalservice-a77078", "operator": "United States Postal Service", "operator:short": "USPS", "operator:type": "public", "operator:wikidata": "Q668687", "ref": "5060300001"}, "type": "Feature"}
{"dataset_attributes": {"@spider": "usps_collection_boxes", "spider:collection_time": "2023-11-28T08:25:58.546046"}, "geometry": {"coordinates": [-92.416908705, 43.199127], "type": "Point"}, "id": "ySuW_ld6ulQZim4ZeeHigEG52rU=", "properties": {"@spider": "usps_collection_boxes", "addr:city": "ALTA VISTA", "addr:country": "US", "addr:full": "108 N WHITE AVE", "addr:postcode": "50603", "addr:state": "IA", "amenity": "post_box", "brand": "United States Postal Service", "brand:wikidata": "Q668687", "collection_times": "Mo-Fr 12:00; Sa 09:45", "name": "USPS COLLECTION BOX - PO LOBBY", "nsi_id": "unitedstatespostalservice-a77078", "operator": "United States Postal Service", "operator:short": "USPS", "operator:type": "public", "operator:wikidata": "Q668687", "ref": "5060300002"}, "type": "Feature"}
{"dataset_attributes": {"@spider": "usps_collection_boxes", "spider:collection_time": "2023-11-28T08:25:58.546046"}, "geometry": {"coordinates": [-92.884035064, 42.583899389], "type": "Point"}, "id": "v1FqG1nIj4I7VWqqQSDXc6W9qUM=", "properties": {"@spider": "usps_collection_boxes", "addr:city": "APLINGTON", "addr:country": "US", "addr:full": "925 PARRIOTT ST", "addr:postcode": "50604", "addr:state": "IA", "amenity": "post_box", "brand": "United States Postal Service", "brand:wikidata": "Q668687", "collection_times": "Mo-Fr 16:00; Sa 16:30", "name": "USPS COLLECTION BOX - BLUE BOX", "note": "ON 12/24 AND 12/31, THIS BOX MAY BE COLLECTED AS EARLY AS 12 NOON.", "nsi_id": "unitedstatespostalservice-a77078", "operator": "United States Postal Service", "operator:short": "USPS", "operator:type": "public", "operator:wikidata": "Q668687", "ref": "5060400000"}, "type": "Feature"}
{"dataset_attributes": {"@spider": "usps_collection_boxes", "spider:collection_time": "2023-11-28T08:25:58.546046"}, "geometry": {"coordinates": [-92.884035064, 42.583899389], "type": "Point"}, "id": "hOaHSWreWLvzSxY1wU_v-bI7PH8=", "properties": {"@spider": "usps_collection_boxes", "addr:city": "APLINGTON", "addr:country": "US", "addr:full": "925 PARRIOTT ST", "addr:postcode": "50604", "addr:state": "IA", "amenity": "post_box", "brand": "United States Postal Service", "brand:wikidata": "Q668687", "collection_times": "Mo-Fr 14:15; Sa 08:30", "name": "USPS COLLECTION BOX - PO LOBBY", "note": "ON 12/24 AND 12/31, THIS BOX MAY BE COLLECTED AS EARLY AS 12 NOON.", "nsi_id": "unitedstatespostalservice-a77078", "operator": "United States Postal Service", "operator:short": "USPS", "operator:type": "public", "operator:wikidata": "Q668687", "ref": "5060400001"}, "type": "Feature"}
{"dataset_attributes": {"@spider": "usps_collection_boxes", "spider:collection_time": "2023-11-28T08:25:58.546046"}, "geometry": {"coordinates": [-92.884035064, 42.583899389], "type": "Point"}, "id": "dD-HRk00H5dtXsWI0mArTX_7TEw=", "properties": {"@spider": "usps_collection_boxes", "addr:city": "APLINGTON", "addr:country": "US", "addr:full": "925 PARRIOTT ST", "addr:postcode": "50604", "addr:state": "IA", "amenity": "post_box", "brand": "United States Postal Service", "brand:wikidata": "Q668687", "collection_times": "Mo-Fr 14:30; Sa 08:00", "name": "USPS COLLECTION BOX - PO LOBBY", "note": "ON 12/24 AND 12/31, THIS BOX MAY BE COLLECTED AS EARLY AS 12 NOON.", "nsi_id": "unitedstatespostalservice-a77078", "operator": "United States Postal Service", "operator:short": "USPS", "operator:type": "public", "operator:wikidata": "Q668687", "ref": "5060400002"}, "type": "Feature"}
{"dataset_attributes": {"@spider": "usps_collection_boxes", "spider:collection_time": "2023-11-28T08:25:58.546046"}, "geometry": {"coordinates": [-93.003947218, 42.835317331], "type": "Point"}, "id": "6WEFcjrYl9_gm52X2Hp1gzinEdw=", "properties": {"@spider": "usps_collection_boxes", "addr:city": "AREDALE", "addr:country": "US", "addr:full": "102 E MAIN", "addr:postcode": "50605", "addr:state": "IA", "amenity": "post_box", "brand": "United States Postal Service", "brand:wikidata": "Q668687", "collection_times": "Mo-Sa 10:00", "name": "USPS COLLECTION BOX - BLUE BOX", "nsi_id": "unitedstatespostalservice-a77078", "operator": "United States Postal Service", "operator:short": "USPS", "operator:type": "public", "operator:wikidata": "Q668687", "ref": "5060500000"}, "type": "Feature"}
{"dataset_attributes": {"@spider": "usps_collection_boxes", "spider:collection_time": "2023-11-28T08:25:58.546046"}, "geometry": {"coordinates": [-91.728049822, 42.618987838], "type": "Point"}, "id": "K-0_gBIeWu_k0TtmdZdwSUjNMss=", "properties": {"@spider": "usps_collection_boxes", "addr:city": "AURORA", "addr:country": "US", "addr:full": "405 MAIN ST", "addr:postcode": "50607", "addr:state": "IA", "amenity": "post_box", "brand": "United States Postal Service", "brand:wikidata": "Q668687", "collection_times": "Mo-Sa 16:15", "name": "USPS COLLECTION BOX - BLUE BOX", "note": "ON 12/24 AND 12/31, THIS BOX MAY BE COLLECTED AS EARLY AS 12 NOON.", "nsi_id": "unitedstatespostalservice-a77078", "operator": "United States Postal Service", "operator:short": "USPS", "operator:type": "public", "operator:wikidata": "Q668687", "ref": "5060700000"}, "type": "Feature"}
{"dataset_attributes": {"@spider": "usps_collection_boxes", "spider:collection_time": "2023-11-28T08:25:58.546046"}, "geometry": {"coordinates": [-91.728049822, 42.618987838], "type": "Point"}, "id": "pQMF0DNZbRCD2eiaUwuaYsOWMbc=", "properties": {"@spider": "usps_collection_boxes", "addr:city": "AURORA", "addr:country": "US", "addr:full": "405 MAIN ST", "addr:postcode": "50607", "addr:state": "IA", "amenity": "post_box", "brand": "United States Postal Service", "brand:wikidata": "Q668687", "collection_times": "Mo-Fr 11:45", "name": "USPS COLLECTION BOX - PO LOBBY", "nsi_id": "unitedstatespostalservice-a77078", "operator": "United States Postal Service", "operator:short": "USPS", "operator:type": "public", "operator:wikidata": "Q668687", "ref": "5060700001"}, "type": "Feature"}
{"dataset_attributes": {"@spider": "usps_collection_boxes", "spider:collection_time": "2023-11-28T08:25:58.546046"}, "geometry": {"coordinates": [-91.728049822, 42.618987838], "type": "Point"}, "id": "DRBx1BjhtxRTDB-yptqqGCMYq3M=", "properties": {"@spider": "usps_collection_boxes", "addr:city": "AURORA", "addr:country": "US", "addr:full": "405 MAIN ST", "addr:postcode": "50607", "addr:state": "IA", "amenity": "post_box", "brand": "United States Postal Service", "brand:wikidata": "Q668687", "collection_times": "Mo-Fr 12:00; Sa 09:00", "name": "USPS COLLECTION BOX - PO LOBBY", "nsi_id": "unitedstatespostalservice-a77078", "operator": "United States Postal Service", "operator:short": "USPS", "operator:type": "public", "operator:wikidata": "Q668687", "ref": "5060700002"}, "type": "Feature"}
{"dataset_attributes": {"@spider": "usps_collection_boxes", "spider:collection_time": "2023-11-28T08:25:58.546046"}, "geometry": {"coordinates": [-92.82105, 42.21887], "type": "Point"}, "id": "4hZtnlOI9sQLliUrl96TJ8fr_ek=", "properties": {"@spider": "usps_collection_boxes", "addr:city": "BEAMAN", "addr:country": "US", "addr:full": "208 CENTER ST", "addr:postcode": "50609", "addr:state": "IA", "amenity": "post_box", "brand": "United States Postal Service", "brand:wikidata": "Q668687", "collection_times": "Mo-Fr 16:15; Sa 16:00", "name": "USPS COLLECTION BOX - BLUE BOX", "note": "ON 12/24 AND 12/31, THIS BOX MAY BE COLLECTED AS EARLY AS 12 NOON.", "nsi_id": "unitedstatespostalservice-a77078", "operator": "United States Postal Service", "operator:short": "USPS", "operator:type": "public", "operator:wikidata": "Q668687", "ref": "5060900000"}, "type": "Feature"}
{"dataset_attributes": {"@spider": "usps_collection_boxes", "spider:collection_time": "2023-11-28T08:25:58.546046"}, "geometry": {"coordinates": [-92.82105, 42.21887], "type": "Point"}, "id": "P3eP5t7dmYps4xMDGBhx4RF5-z4=", "properties": {"@spider": "usps_collection_boxes", "addr:city": "BEAMAN", "addr:country": "US", "addr:full": "208 CENTER ST", "addr:postcode": "50609", "addr:state": "IA", "amenity": "post_box", "brand": "United States Postal Service", "brand:wikidata": "Q668687", "collection_times": "Mo-Fr 11:45", "name": "USPS COLLECTION BOX - PO LOBBY", "nsi_id": "unitedstatespostalservice-a77078", "operator": "United States Postal Service", "operator:short": "USPS", "operator:type": "public", "operator:wikidata": "Q668687", "ref": "5060900001"}, "type": "Feature"}
{"dataset_attributes": {"@spider": "usps_collection_boxes", "spider:collection_time": "2023-11-28T08:25:58.546046"}, "geometry": {"coordinates": [-92.82105, 42.21887], "type": "Point"}, "id": "gFRLS8_HM-Cool0KkLuIQUkRIn8=", "properties": {"@spider": "usps_collection_boxes", "addr:city": "BEAMAN", "addr:country": "US", "addr:full": "208 CENTER ST", "addr:postcode": "50609", "addr:state": "IA", "amenity": "post_box", "brand": "United States Postal Service", "brand:wikidata": "Q668687", "collection_times": "Mo-Fr 12:00; Sa 09:30", "name": "USPS COLLECTION BOX - PO LOBBY", "nsi_id": "unitedstatespostalservice-a77078", "operator": "United States Postal Service", "operator:short": "USPS", "operator:type": "public", "operator:wikidata": "Q668687", "ref": "5060900002"}, "type": "Feature"}
{"dataset_attributes": {"@spider": "usps_collection_boxes", "spider:collection_time": "2023-11-28T08:25:58.546046"}, "geometry": {"coordinates": [-92.467048203, 42.531531245], "type": "Point"}, "id": "GPehuT3un-OO_QmxBg6a4vEQL7I=", "properties": {"@spider": "usps_collection_boxes", "addr:city": "CEDAR FALLS", "addr:country": "US", "addr:full": "1813 W 8TH ST", "addr:postcode": "50613", "addr:state": "IA", "amenity": "post_box", "brand": "United States Postal Service", "brand:wikidata": "Q668687", "collection_times": "Mo-Sa 09:45", "name": "USPS COLLECTION BOX - BLUE BOX", "nsi_id": "unitedstatespostalservice-a77078", "operator": "United States Postal Service", "operator:short": "USPS", "operator:type": "public", "operator:wikidata": "Q668687", "ref": "5061300000"}, "type": "Feature"}
{"dataset_attributes": {"@spider": "usps_collection_boxes", "spider:collection_time": "2023-11-28T08:25:58.546046"}, "geometry": {"coordinates": [-92.4477600178, 42.5336499897], "type": "Point"}, "id": "1cq_NARUSx-7krBabTmWXehUbW0=", "properties": {"@spider": "usps_collection_boxes", "addr:city": "CEDAR FALLS", "addr:country": "US", "addr:full": "221 W 6TH ST", "addr:postcode": "50613", "addr:state": "IA", "amenity": "post_box", "brand": "United States Postal Service", "brand:wikidata": "Q668687", "collection_times": "Mo-Fr 17:30; Sa 16:30", "name": "USPS COLLECTION BOX - BLUE BOX", "note": "ON 12/24 AND 12/31, THIS BOX MAY BE COLLECTED AS EARLY AS 12 NOON.", "nsi_id": "unitedstatespostalservice-a77078", "operator": "United States Postal Service", "operator:short": "USPS", "operator:type": "public", "operator:wikidata": "Q668687", "ref": "5061300014"}, "type": "Feature"}
{"dataset_attributes": {"@spider": "usps_collection_boxes", "spider:collection_time": "2023-11-28T08:25:58.546046"}, "geometry": {"coordinates": [-92.449943146, 42.48401253], "type": "Point"}, "id": "aHU4J7Z3E2Imalv8pCC6Cnx865Q=", "properties": {"@spider": "usps_collection_boxes", "addr:city": "CEDAR FALLS", "addr:country": "US", "addr:full": "406 VIKING RD", "addr:postcode": "50613", "addr:state": "IA", "amenity": "post_box", "brand": "United States Postal Service", "brand:wikidata": "Q668687", "collection_times": "Mo-Fr 16:15", "name": "USPS COLLECTION BOX - BLUE BOX", "note": "ON 12/24 AND 12/31, THIS BOX MAY BE COLLECTED AS EARLY AS 12 NOON.", "nsi_id": "unitedstatespostalservice-a77078", "operator": "United States Postal Service", "operator:short": "USPS", "operator:type": "public", "operator:wikidata": "Q668687", "ref": "5061300016"}, "type": "Feature"}
{"dataset_attributes": {"@spider": "usps_collection_boxes", "spider:collection_time": "2023-11-28T08:25:58.546046"}, "geometry": {"coordinates": [-92.449943146, 42.48401253], "type": "Point"}, "id": "LMJqfsz8CQdlWQmil1Q3iwSvIYA=", "properties": {"@spider": "usps_collection_boxes", "addr:city": "CEDAR FALLS", "addr:country": "US", "addr:full": "406 VIKING RD", "addr:postcode": "50613", "addr:state": "IA", "amenity": "post_box", "brand": "United States Postal Service", "brand:wikidata": "Q668687", "collection_times": "Mo-Fr 16:15", "name": "USPS COLLECTION BOX - BLUE BOX", "note": "ON 12/24 AND 12/31, THIS BOX MAY BE COLLECTED AS EARLY AS 12 NOON.", "nsi_id": "unitedstatespostalservice-a77078", "operator": "United States Postal Service", "operator:short": "USPS", "operator:type": "public", "operator:wikidata": "Q668687", "ref": "5061300017"}, "type": "Feature"}
{"dataset_attributes": {"@spider": "usps_collection_boxes", "spider:collection_time": "2023-11-28T08:25:58.546046"}, "geometry": {"coordinates": [-92.411243222, 42.502966855], "type": "Point"}, "id": "a29So8ky8Yr5gg27XRk6viHJ4Dk=", "properties": {"@spider": "usps_collection_boxes", "addr:city": "CEDAR FALLS", "addr:country": "US", "addr:full": "3900 CEDAR HEIGHTS DR", "addr:postcode": "50613", "addr:state": "IA", "amenity": "post_box", "brand": "United States Postal Service", "brand:wikidata": "Q668687", "collection_times": "Mo-Sa 10:30", "name": "USPS COLLECTION BOX - BLUE BOX", "nsi_id": "unitedstatespostalservice-a77078", "operator": "United States Postal Service", "operator:short": "USPS", "operator:type": "public", "operator:wikidata": "Q668687", "ref": "5061300022"}, "type": "Feature"}
{"dataset_attributes": {"@spider": "usps_collection_boxes", "spider:collection_time": "2023-11-28T08:25:58.546046"}, "geometry": {"coordinates": [-92.445920022, 42.535810006], "type": "Point"}, "id": "jlIvLiWd9CQRYiJjEPd5432otGk=", "properties": {"@spider": "usps_collection_boxes", "addr:city": "CEDAR FALLS", "addr:country": "US", "addr:full": "301 MAIN ST", "addr:postcode": "50613", "addr:state": "IA", "amenity": "post_box", "brand": "United States Postal Service", "brand:wikidata": "Q668687", "collection_times": "Mo-Sa 15:45", "name": "USPS COLLECTION BOX - BLUE BOX", "note": "ON 12/24 AND 12/31, THIS BOX MAY BE COLLECTED AS EARLY AS 12 NOON.", "nsi_id": "unitedstatespostalservice-a77078", "operator": "United States Postal Service", "operator:short": "USPS", "operator:type": "public", "operator:wikidata": "Q668687", "ref": "5061300025"}, "type": "Feature"}
{"dataset_attributes": {"@spider": "usps_collection_boxes", "spider:collection_time": "2023-11-28T08:25:58.546046"}, "geometry": {"coordinates": [-92.472802062, 42.539875864], "type": "Point"}, "id": "VR3LiuDJu1LEG_ubLrRQ1RggUzY=", "properties": {"@spider": "usps_collection_boxes", "addr:city": "CEDAR FALLS", "addr:country": "US", "addr:full": "2302 W 1ST ST", "addr:postcode": "50613", "addr:state": "IA", "amenity": "post_box", "brand": "United States Postal Service", "brand:wikidata": "Q668687", "collection_times": "Mo-Sa 12:00", "name": "USPS COLLECTION BOX - BLUE BOX", "nsi_id": "unitedstatespostalservice-a77078", "operator": "United States Postal Service", "operator:short": "USPS", "operator:type": "public", "operator:wikidata": "Q668687", "ref": "5061300029"}, "type": "Feature"}
{"dataset_attributes": {"@spider": "usps_collection_boxes", "spider:collection_time": "2023-11-28T08:25:58.546046"}, "geometry": {"coordinates": [-92.477074034, 42.537642133], "type": "Point"}, "id": "jrHAMCwwdva4CwqlBHt0K4q2jd8=", "properties": {"@spider": "usps_collection_boxes", "addr:city": "CEDAR FALLS", "addr:country": "US", "addr:full": "2599 CRESCENT DR", "addr:postcode": "50613", "addr:state": "IA", "amenity": "post_box", "brand": "United States Postal Service", "brand:wikidata": "Q668687", "collection_times": "Mo-Sa 10:00", "name": "USPS COLLECTION BOX - BLUE BOX", "nsi_id": "unitedstatespostalservice-a77078", "operator": "United States Postal Service", "operator:short": "USPS", "operator:type": "public", "operator:wikidata": "Q668687", "ref": "5061300030"}, "type": "Feature"}
{"dataset_attributes": {"@spider": "usps_collection_boxes", "spider:collection_time": "2023-11-28T08:25:58.546046"}, "geometry": {"coordinates": [-92.494955218, 42.515826737], "type": "Point"}, "id": "Cav4VnGf-iujqDW3YNz07IgypEo=", "properties": {"@spider": "usps_collection_boxes", "addr:city": "CEDAR FALLS", "addr:country": "US", "addr:full": "2508 UNION RD", "addr:postcode": "50613", "addr:state": "IA", "amenity": "post_box", "brand": "United States Postal Service", "brand:wikidata": "Q668687", "collection_times": "Mo-Sa 09:00", "name": "USPS COLLECTION BOX - BLUE BOX", "nsi_id": "unitedstatespostalservice-a77078", "operator": "United States Postal Service", "operator:short": "USPS", "operator:type": "public", "operator:wikidata": "Q668687", "ref": "5061300041"}, "type": "Feature"}
{"dataset_attributes": {"@spider": "usps_collection_boxes", "spider:collection_time": "2023-11-28T08:25:58.546046"}, "geometry": {"coordinates": [-92.468009654, 42.508782581], "type": "Point"}, "id": "RArDy5U0oq7I2X9S5wE8ZN19Jhw=", "properties": {"@spider": "usps_collection_boxes", "addr:city": "CEDAR FALLS", "addr:country": "US", "addr:full": "1902 UNIVERSITY DR", "addr:postcode": "50613", "addr:state": "IA", "amenity": "post_box", "brand": "United States Postal Service", "brand:wikidata": "Q668687", "collection_times": "Mo-Sa 12:00", "name": "USPS COLLECTION BOX - BLUE BOX", "nsi_id": "unitedstatespostalservice-a77078", "operator": "United States Postal Service", "operator:short": "USPS", "operator:type": "public", "operator:wikidata": "Q668687", "ref": "5061300044"}, "type": "Feature"}
{"dataset_attributes": {"@spider": "usps_collection_boxes", "spider:collection_time": "2023-11-28T08:25:58.546046"}, "geometry": {"coordinates": [-92.452563958, 42.469356531], "type": "Point"}, "id": "WMzZiKSTgaTGp_nT3RM-vYzJWHE=", "properties": {"@spider": "usps_collection_boxes", "addr:city": "CEDAR FALLS", "addr:country": "US", "addr:full": "700 W RIDGEWAY AVE", "addr:postcode": "50613", "addr:state": "IA", "amenity": "post_box", "brand": "United States Postal Service", "brand:wikidata": "Q668687", "collection_times": "Mo-Sa 10:30", "name": "USPS COLLECTION BOX - BLUE BOX", "nsi_id": "unitedstatespostalservice-a77078", "operator": "United States Postal Service", "operator:short": "USPS", "operator:type": "public", "operator:wikidata": "Q668687", "ref": "5061300051"}, "type": "Feature"}
{"dataset_attributes": {"@spider": "usps_collection_boxes", "spider:collection_time": "2023-11-28T08:25:58.546046"}, "geometry": {"coordinates": [-92.447761668, 42.533216494], "type": "Point"}, "id": "NKSdUj_cjxKF3S3tr9a5Z-XDM0A=", "properties": {"@spider": "usps_collection_boxes", "addr:city": "CEDAR FALLS", "addr:country": "US", "addr:full": "221 W 6TH ST", "addr:postcode": "50613", "addr:state": "IA", "amenity": "post_box", "brand": "United States Postal Service", "brand:wikidata": "Q668687", "collection_times": "Mo-Fr 17:00; Sa 16:30", "name": "USPS COLLECTION BOX - PO LOBBY", "note": "ON 12/24 AND 12/31, THIS BOX MAY BE COLLECTED AS EARLY AS 12 NOON.", "nsi_id": "unitedstatespostalservice-a77078", "operator": "United States Postal Service", "operator:short": "USPS", "operator:type": "public", "operator:wikidata": "Q668687", "ref": "5061300055"}, "type": "Feature"}
{"dataset_attributes": {"@spider": "usps_collection_boxes", "spider:collection_time": "2023-11-28T08:25:58.546046"}, "geometry": {"coordinates": [-92.4588135, 42.484077501], "type": "Point"}, "id": "5w_eBL70Yd9gcwGHZrWTSsjidTQ=", "properties": {"@spider": "usps_collection_boxes", "addr:city": "CEDAR FALLS", "addr:country": "US", "addr:full": "1109 VIKING RD", "addr:postcode": "50613", "addr:state": "IA", "amenity": "post_box", "brand": "United States Postal Service", "brand:wikidata": "Q668687", "collection_times": "Mo-Fr 16:15", "name": "USPS COLLECTION BOX - BLUE BOX", "note": "ON 12/24 AND 12/31, THIS BOX MAY BE COLLECTED AS EARLY AS 12 NOON.", "nsi_id": "unitedstatespostalservice-a77078", "operator": "United States Postal Service", "operator:short": "USPS", "operator:type": "public", "operator:wikidata": "Q668687", "ref": "5061300057"}, "type": "Feature"}
{"dataset_attributes": {"@spider": "usps_collection_boxes", "spider:collection_time": "2023-11-28T08:25:58.546046"}, "geometry": {"coordinates": [-92.4588135, 42.484077501], "type": "Point"}, "id": "G_Eo7liLgbnVDGWXBn0pwpnpyvI=", "properties": {"@spider": "usps_collection_boxes", "addr:city": "CEDAR FALLS", "addr:country": "US", "addr:full": "1109 VIKING RD", "addr:postcode": "50613", "addr:state": "IA", "amenity": "post_box", "brand": "United States Postal Service", "brand:wikidata": "Q668687", "collection_times": "Mo-Fr 16:15", "name": "USPS COLLECTION BOX - BLUE BOX", "note": "ON 12/24 AND 12/31, THIS BOX MAY BE COLLECTED AS EARLY AS 12 NOON.", "nsi_id": "unitedstatespostalservice-a77078", "operator": "United States Postal Service", "operator:short": "USPS", "operator:type": "public", "operator:wikidata": "Q668687", "ref": "5061300064"}, "type": "Feature"}
{"dataset_attributes": {"@spider": "usps_collection_boxes", "spider:collection_time": "2023-11-28T08:25:58.546046"}, "geometry": {"coordinates": [-92.449943146, 42.48401253], "type": "Point"}, "id": "u_tkjrRYpOHhX8J0XnZTpOPg1dw=", "properties": {"@spider": "usps_collection_boxes", "addr:city": "CEDAR FALLS", "addr:country": "US", "addr:full": "406 VIKING RD", "addr:postcode": "50613", "addr:state": "IA", "amenity": "post_box", "brand": "United States Postal Service", "brand:wikidata": "Q668687", "collection_times": "Mo-Fr 16:15", "name": "USPS COLLECTION BOX - BLUE BOX", "note": "ON 12/24 AND 12/31, THIS BOX MAY BE COLLECTED AS EARLY AS 12 NOON.", "nsi_id": "unitedstatespostalservice-a77078", "operator": "United States Postal Service", "operator:short": "USPS", "operator:type": "public", "operator:wikidata": "Q668687", "ref": "5061300065"}, "type": "Feature"}
{"dataset_attributes": {"@spider": "usps_collection_boxes", "spider:collection_time": "2023-11-28T08:25:58.546046"}, "geometry": {"coordinates": [-92.4588135, 42.484077501], "type": "Point"}, "id": "sGOEo861B4jtAxGu2XPIg8J2AwY=", "properties": {"@spider": "usps_collection_boxes", "addr:city": "CEDAR FALLS", "addr:country": "US", "addr:full": "1109 VIKING RD", "addr:postcode": "50613", "addr:state": "IA", "amenity": "post_box", "brand": "United States Postal Service", "brand:wikidata": "Q668687", "collection_times": "Mo-Fr 16:15", "name": "USPS COLLECTION BOX - BLUE BOX", "note": "ON 12/24 AND 12/31, THIS BOX MAY BE COLLECTED AS EARLY AS 12 NOON.", "nsi_id": "unitedstatespostalservice-a77078", "operator": "United States Postal Service", "operator:short": "USPS", "operator:type": "public", "operator:wikidata": "Q668687", "ref": "5061300066"}, "type": "Feature"}
{"dataset_attributes": {"@spider": "usps_collection_boxes", "spider:collection_time": "2023-11-28T08:25:58.546046"}, "geometry": {"coordinates": [-92.440051088, 42.485030529], "type": "Point"}, "id": "bDMHQgMitiWTs9nuIyztOBENZJU=", "properties": {"@spider": "usps_collection_boxes", "addr:city": "CEDAR FALLS", "addr:country": "US", "addr:full": "525 BRANDILYNN BLVD", "addr:postcode": "50613", "addr:state": "IA", "amenity": "post_box", "brand": "United States Postal Service", "brand:wikidata": "Q668687", "collection_times": "Mo-Fr 16:15; Sa 14:00", "name": "USPS COLLECTION BOX - BLUE BOX", "note": "ON 12/24 AND 12/31, THIS BOX MAY BE COLLECTED AS EARLY AS 12 NOON.", "nsi_id": "unitedstatespostalservice-a77078", "operator": "United States Postal Service", "operator:short": "USPS", "operator:type": "public", "operator:wikidata": "Q668687", "ref": "5061300068"}, "type": "Feature"}
{"dataset_attributes": {"@spider": "usps_collection_boxes", "spider:collection_time": "2023-11-28T08:25:58.546046"}, "geometry": {"coordinates": [-92.462088925, 42.513169823], "type": "Point"}, "id": "copZDEMNeZDqzZjuwcv_Fx8JCzk=", "properties": {"@spider": "usps_collection_boxes", "addr:city": "CEDAR FALLS", "addr:country": "US", "addr:full": "1227 W 27TH ST", "addr:postcode": "50613", "addr:state": "IA", "amenity": "post_box", "brand": "United States Postal Service", "brand:wikidata": "Q668687", "collection_times": "Mo-Sa 14:00", "name": "USPS COLLECTION BOX - BLUE BOX", "note": "ON 12/24 AND 12/31, THIS BOX MAY BE COLLECTED AS EARLY AS 12 NOON.", "nsi_id": "unitedstatespostalservice-a77078", "operator": "United States Postal Service", "operator:short": "USPS", "operator:type": "public", "operator:wikidata": "Q668687", "ref": "5061300069"}, "type": "Feature"}
{"dataset_attributes": {"@spider": "usps_collection_boxes", "spider:collection_time": "2023-11-28T08:25:58.546046"}, "geometry": {"coordinates": [-92.466281274, 42.506422114], "type": "Point"}, "id": "RMLgS-Rl4yc9YXMnPEjrESEljZY=", "properties": {"@spider": "usps_collection_boxes", "addr:city": "CEDAR FALLS", "addr:country": "US", "addr:full": "9105 UNIVERSITY AVE", "addr:postcode": "50613", "addr:state": "IA", "amenity": "post_box", "brand": "United States Postal Service", "brand:wikidata": "Q668687", "collection_times": "Mo-Sa 09:00", "name": "USPS COLLECTION BOX - BLUE BOX", "nsi_id": "unitedstatespostalservice-a77078", "operator": "United States Postal Service", "operator:short": "USPS", "operator:type": "public", "operator:wikidata": "Q668687", "ref": "5061300070"}, "type": "Feature"}
{"dataset_attributes": {"@spider": "usps_collection_boxes", "spider:collection_time": "2023-11-28T08:25:58.546046"}, "geometry": {"coordinates": [-92.447761668, 42.533216494], "type": "Point"}, "id": "HMLsuBeLewbLT146KeD7Hcf6Zog=", "properties": {"@spider": "usps_collection_boxes", "addr:city": "CEDAR FALLS", "addr:country": "US", "addr:full": "221 W 6TH ST", "addr:postcode": "50613", "addr:state": "IA", "amenity": "post_box", "brand": "United States Postal Service", "brand:wikidata": "Q668687", "collection_times": "Mo-Fr 17:00; Sa 16:30", "name": "USPS COLLECTION BOX - APC", "note": "ON 12/24 AND 12/31, THIS BOX MAY BE COLLECTED AS EARLY AS 12 NOON.", "nsi_id": "unitedstatespostalservice-a77078", "operator": "United States Postal Service", "operator:short": "USPS", "operator:type": "public", "operator:wikidata": "Q668687", "ref": "5061300071"}, "type": "Feature"}
{"dataset_attributes": {"@spider": "usps_collection_boxes", "spider:collection_time": "2023-11-28T08:25:58.546046"}, "geometry": {"coordinates": [-92.4588135, 42.484077501], "type": "Point"}, "id": "D7n533uF3JYx2yEfiTE4ll7M_T0=", "properties": {"@spider": "usps_collection_boxes", "addr:city": "CEDAR FALLS", "addr:country": "US", "addr:full": "1109 VIKING RD", "addr:postcode": "50613", "addr:state": "IA", "amenity": "post_box", "brand": "United States Postal Service", "brand:wikidata": "Q668687", "collection_times": "Mo-Fr 16:15", "name": "USPS COLLECTION BOX - BLUE BOX", "note": "ON 12/24 AND 12/31, THIS BOX MAY BE COLLECTED AS EARLY AS 12 NOON.", "nsi_id": "unitedstatespostalservice-a77078", "operator": "United States Postal Service", "operator:short": "USPS", "operator:type": "public", "operator:wikidata": "Q668687", "ref": "5061300073"}, "type": "Feature"}
{"dataset_attributes": {"@spider": "usps_collection_boxes", "spider:collection_time": "2023-11-28T08:25:58.546046"}, "geometry": {"coordinates": [-92.447761668, 42.533216494], "type": "Point"}, "id": "AZMlgyjsxEHwbSiUECJwJnSCy_g=", "properties": {"@spider": "usps_collection_boxes", "addr:city": "CEDAR FALLS", "addr:country": "US", "addr:full": "221 W 6TH ST", "addr:postcode": "50613", "addr:state": "IA", "amenity": "post_box", "brand": "United States Postal Service", "brand:wikidata": "Q668687", "collection_times": "Mo-Fr 17:00; Sa 08:00", "name": "USPS COLLECTION BOX - PO LOBBY", "note": "ON 12/24 AND 12/31, THIS BOX MAY BE COLLECTED AS EARLY AS 12 NOON.", "nsi_id": "unitedstatespostalservice-a77078", "operator": "United States Postal Service", "operator:short": "USPS", "operator:type": "public", "operator:wikidata": "Q668687", "ref": "5061300076"}, "type": "Feature"}
{"dataset_attributes": {"@spider": "usps_collection_boxes", "spider:collection_time": "2023-11-28T08:25:58.546046"}, "geometry": {"coordinates": [-92.676653388, 43.069640735], "type": "Point"}, "id": "B6rv524LbkPGFVNYt3QfVImofAE=", "properties": {"@spider": "usps_collection_boxes", "addr:city": "CHARLES CITY", "addr:country": "US", "addr:full": "500 N MAIN ST", "addr:postcode": "50616", "addr:state": "IA", "amenity": "post_box", "brand": "United States Postal Service", "brand:wikidata": "Q668687", "collection_times": "Mo-Fr 16:45; Sa 16:15", "name": "USPS COLLECTION BOX - BLUE BOX", "note": "ON 12/24 AND 12/31, THIS BOX MAY BE COLLECTED AS EARLY AS 12 NOON.", "nsi_id": "unitedstatespostalservice-a77078", "operator": "United States Postal Service", "operator:short": "USPS", "operator:type": "public", "operator:wikidata": "Q668687", "ref": "5061600000"}, "type": "Feature"}
{"dataset_attributes": {"@spider": "usps_collection_boxes", "spider:collection_time": "2023-11-28T08:25:58.546046"}, "geometry": {"coordinates": [-92.676653388, 43.069640735], "type": "Point"}, "id": "PV2r9-_nOTGS_3Z9-hvGoLacH3c=", "properties": {"@spider": "usps_collection_boxes", "addr:city": "CHARLES CITY", "addr:country": "US", "addr:full": "500 N MAIN ST", "addr:postcode": "50616", "addr:state": "IA", "amenity": "post_box", "brand": "United States Postal Service", "brand:wikidata": "Q668687", "collection_times": "Mo-Fr 16:45; Sa 16:15", "name": "USPS COLLECTION BOX - BLUE BOX", "note": "ON 12/24 AND 12/31, THIS BOX MAY BE COLLECTED AS EARLY AS 12 NOON.", "nsi_id": "unitedstatespostalservice-a77078", "operator": "United States Postal Service", "operator:short": "USPS", "operator:type": "public", "operator:wikidata": "Q668687", "ref": "5061600001"}, "type": "Feature"}
{"dataset_attributes": {"@spider": "usps_collection_boxes", "spider:collection_time": "2023-11-28T08:25:58.546046"}, "geometry": {"coordinates": [-92.681633539, 43.064320416], "type": "Point"}, "id": "yfcgDltAVz9KFSP9YIv8LCCqPG4=", "properties": {"@spider": "usps_collection_boxes", "addr:city": "CHARLES CITY", "addr:country": "US", "addr:full": "101 S MAIN ST", "addr:postcode": "50616", "addr:state": "IA", "amenity": "post_box", "brand": "United States Postal Service", "brand:wikidata": "Q668687", "collection_times": "Mo-Fr 15:00; Sa 14:30", "name": "USPS COLLECTION BOX - BLUE BOX", "note": "ON 12/24 AND 12/31, THIS BOX MAY BE COLLECTED AS EARLY AS 12 NOON.", "nsi_id": "unitedstatespostalservice-a77078", "operator": "United States Postal Service", "operator:short": "USPS", "operator:type": "public", "operator:wikidata": "Q668687", "ref": "5061600003"}, "type": "Feature"}
{"dataset_attributes": {"@spider": "usps_collection_boxes", "spider:collection_time": "2023-11-28T08:25:58.546046"}, "geometry": {"coordinates": [-92.678136414, 43.068008578], "type": "Point"}, "id": "Jf2NxsU9wi5ZHGKPb0AqY3AmE8Q=", "properties": {"@spider": "usps_collection_boxes", "addr:city": "CHARLES CITY", "addr:country": "US", "addr:full": "222 N MAIN ST", "addr:postcode": "50616", "addr:state": "IA", "amenity": "post_box", "brand": "United States Postal Service", "brand:wikidata": "Q668687", "collection_times": "Mo-Fr 15:00; Sa 14:30", "name": "USPS COLLECTION BOX - BLUE BOX", "note": "ON 12/24 AND 12/31, THIS BOX MAY BE COLLECTED AS EARLY AS 12 NOON.", "nsi_id": "unitedstatespostalservice-a77078", "operator": "United States Postal Service", "operator:short": "USPS", "operator:type": "public", "operator:wikidata": "Q668687", "ref": "5061600004"}, "type": "Feature"}
{"dataset_attributes": {"@spider": "usps_collection_boxes", "spider:collection_time": "2023-11-28T08:25:58.546046"}, "geometry": {"coordinates": [-92.676653388, 43.069640735], "type": "Point"}, "id": "10MaZNF3dlvX1OMaHqlK3XfHfYc=", "properties": {"@spider": "usps_collection_boxes", "addr:city": "CHARLES CITY", "addr:country": "US", "addr:full": "500 N MAIN ST", "addr:postcode": "50616", "addr:state": "IA", "amenity": "post_box", "brand": "United States Postal Service", "brand:wikidata": "Q668687", "collection_times": "Mo-Fr 16:45; Sa 16:15", "name": "USPS COLLECTION BOX - BLUE BOX", "note": "ON 12/24 AND 12/31, THIS BOX MAY BE COLLECTED AS EARLY AS 12 NOON.", "nsi_id": "unitedstatespostalservice-a77078", "operator": "United States Postal Service", "operator:short": "USPS", "operator:type": "public", "operator:wikidata": "Q668687", "ref": "5061600009"}, "type": "Feature"}
{"dataset_attributes": {"@spider": "usps_collection_boxes", "spider:collection_time": "2023-11-28T08:25:58.546046"}, "geometry": {"coordinates": [-92.676653388, 43.069640735], "type": "Point"}, "id": "3bPVQ2VJbrQaOsnAXDg9yLl9DLI=", "properties": {"@spider": "usps_collection_boxes", "addr:city": "CHARLES CITY", "addr:country": "US", "addr:full": "500 N MAIN ST", "addr:postcode": "50616", "addr:state": "IA", "amenity": "post_box", "brand": "United States Postal Service", "brand:wikidata": "Q668687", "collection_times": "Mo-Fr 16:45; Sa 16:15", "name": "USPS COLLECTION BOX - BLUE BOX", "note": "ON 12/24 AND 12/31, THIS BOX MAY BE COLLECTED AS EARLY AS 12 NOON.", "nsi_id": "unitedstatespostalservice-a77078", "operator": "United States Postal Service", "operator:short": "USPS", "operator:type": "public", "operator:wikidata": "Q668687", "ref": "5061600010"}, "type": "Feature"}
{"dataset_attributes": {"@spider": "usps_collection_boxes", "spider:collection_time": "2023-11-28T08:25:58.546046"}, "geometry": {"coordinates": [-92.676653388, 43.069640735], "type": "Point"}, "id": "i3elUffuNd4f2BDQs39sT_idzbY=", "properties": {"@spider": "usps_collection_boxes", "addr:city": "CHARLES CITY", "addr:country": "US", "addr:full": "500 N MAIN ST", "addr:postcode": "50616", "addr:state": "IA", "amenity": "post_box", "brand": "United States Postal Service", "brand:wikidata": "Q668687", "collection_times": "Mo-Fr 16:45; Sa 16:15", "name": "USPS COLLECTION BOX - PO LOBBY", "note": "ON 12/24 AND 12/31, THIS BOX MAY BE COLLECTED AS EARLY AS 12 NOON.", "nsi_id": "unitedstatespostalservice-a77078", "operator": "United States Postal Service", "operator:short": "USPS", "operator:type": "public", "operator:wikidata": "Q668687", "ref": "5061600012"}, "type": "Feature"}
{"dataset_attributes": {"@spider": "usps_collection_boxes", "spider:collection_time": "2023-11-28T08:25:58.546046"}, "geometry": {"coordinates": [-92.675519248, 43.067044905], "type": "Point"}, "id": "a19s-DStFsvwA6S0rdlVr1tI66I=", "properties": {"@spider": "usps_collection_boxes", "addr:city": "CHARLES CITY", "addr:country": "US", "addr:full": "901 KELLY ST", "addr:postcode": "50616", "addr:state": "IA", "amenity": "post_box", "brand": "United States Postal Service", "brand:wikidata": "Q668687", "collection_times": "Mo-Fr 15:00; Sa 14:30", "name": "USPS COLLECTION BOX - BLUE BOX", "note": "ON 12/24 AND 12/31, THIS BOX MAY BE COLLECTED AS EARLY AS 12 NOON.", "nsi_id": "unitedstatespostalservice-a77078", "operator": "United States Postal Service", "operator:short": "USPS", "operator:type": "public", "operator:wikidata": "Q668687", "ref": "5061600013"}, "type": "Feature"}
{"dataset_attributes": {"@spider": "usps_collection_boxes", "spider:collection_time": "2023-11-28T08:25:58.546046"}, "geometry": {"coordinates": [-92.676653388, 43.069640735], "type": "Point"}, "id": "Kk4Eulncy0W_nJu57OJSfCgWdgI=", "properties": {"@spider": "usps_collection_boxes", "addr:city": "CHARLES CITY", "addr:country": "US", "addr:full": "500 N MAIN ST", "addr:postcode": "50616", "addr:state": "IA", "amenity": "post_box", "brand": "United States Postal Service", "brand:wikidata": "Q668687", "collection_times": "Mo-Fr 16:30; Sa 11:30", "name": "USPS COLLECTION BOX - PO LOBBY", "note": "ON 12/24 AND 12/31, THIS BOX MAY BE COLLECTED AS EARLY AS 12 NOON.", "nsi_id": "unitedstatespostalservice-a77078", "operator": "United States Postal Service", "operator:short": "USPS", "operator:type": "public", "operator:wikidata": "Q668687", "ref": "5061600014"}, "type": "Feature"}
{"dataset_attributes": {"@spider": "usps_collection_boxes", "spider:collection_time": "2023-11-28T08:25:58.546046"}, "geometry": {"coordinates": [-92.667858971, 42.783685939], "type": "Point"}, "id": "eKqou8LEvi5b7VycPIqjPZuX0LE=", "properties": {"@spider": "usps_collection_boxes", "addr:city": "CLARKSVILLE", "addr:country": "US", "addr:full": "204 S MAIN ST", "addr:postcode": "50619", "addr:state": "IA", "amenity": "post_box", "brand": "United States Postal Service", "brand:wikidata": "Q668687", "collection_times": "Mo-Fr 16:15; Sa 16:30", "name": "USPS COLLECTION BOX - BLUE BOX", "note": "ON 12/24 AND 12/31, THIS BOX MAY BE COLLECTED AS EARLY AS 12 NOON.", "nsi_id": "unitedstatespostalservice-a77078", "operator": "United States Postal Service", "operator:short": "USPS", "operator:type": "public", "operator:wikidata": "Q668687", "ref": "5061900000"}, "type": "Feature"}
{"dataset_attributes": {"@spider": "usps_collection_boxes", "spider:collection_time": "2023-11-28T08:25:58.546046"}, "geometry": {"coordinates": [-92.667858971, 42.783685939], "type": "Point"}, "id": "42goD0wAK2HKSDA94Z5R7QakQLc=", "properties": {"@spider": "usps_collection_boxes", "addr:city": "CLARKSVILLE", "addr:country": "US", "addr:full": "204 S MAIN ST", "addr:postcode": "50619", "addr:state": "IA", "amenity": "post_box", "brand": "United States Postal Service", "brand:wikidata": "Q668687", "collection_times": "Mo-Fr 16:15; Sa 09:15", "name": "USPS COLLECTION BOX - PO LOBBY", "note": "ON 12/24 AND 12/31, THIS BOX MAY BE COLLECTED AS EARLY AS 12 NOON.", "nsi_id": "unitedstatespostalservice-a77078", "operator": "United States Postal Service", "operator:short": "USPS", "operator:type": "public", "operator:wikidata": "Q668687", "ref": "5061900001"}, "type": "Feature"}
{"dataset_attributes": {"@spider": "usps_collection_boxes", "spider:collection_time": "2023-11-28T08:25:58.546046"}, "geometry": {"coordinates": [-92.667858971, 42.783685939], "type": "Point"}, "id": "5FGx8Qy4SZn1Jh6OuxiF1FIA75s=", "properties": {"@spider": "usps_collection_boxes", "addr:city": "CLARKSVILLE", "addr:country": "US", "addr:full": "204 S MAIN ST", "addr:postcode": "50619", "addr:state": "IA", "amenity": "post_box", "brand": "United States Postal Service", "brand:wikidata": "Q668687", "collection_times": "Mo-Fr 16:30; Sa 08:00", "name": "USPS COLLECTION BOX - PO LOBBY", "note": "ON 12/24 AND 12/31, THIS BOX MAY BE COLLECTED AS EARLY AS 12 NOON.", "nsi_id": "unitedstatespostalservice-a77078", "operator": "United States Postal Service", "operator:short": "USPS", "operator:type": "public", "operator:wikidata": "Q668687", "ref": "5061900002"}, "type": "Feature"}
{"dataset_attributes": {"@spider": "usps_collection_boxes", "spider:collection_time": "2023-11-28T08:25:58.546046"}, "geometry": {"coordinates": [-92.874534915, 42.225282251], "type": "Point"}, "id": "kkkGF5ZBqNpwbtB7DoC4pInmVmg=", "properties": {"@spider": "usps_collection_boxes", "addr:city": "CONRAD", "addr:country": "US", "addr:full": "120 N MAIN ST", "addr:postcode": "50621", "addr:state": "IA", "amenity": "post_box", "brand": "United States Postal Service", "brand:wikidata": "Q668687", "collection_times": "Mo-Fr 16:00; Sa 16:30", "name": "USPS COLLECTION BOX - BLUE BOX", "note": "ON 12/24 AND 12/31, THIS BOX MAY BE COLLECTED AS EARLY AS 12 NOON.", "nsi_id": "unitedstatespostalservice-a77078", "operator": "United States Postal Service", "operator:short": "USPS", "operator:type": "public", "operator:wikidata": "Q668687", "ref": "5062100000"}, "type": "Feature"}
{"dataset_attributes": {"@spider": "usps_collection_boxes", "spider:collection_time": "2023-11-28T08:25:58.546046"}, "geometry": {"coordinates": [-92.874534915, 42.225282251], "type": "Point"}, "id": "yB_f3ZY4ugLvyJC1HEgTiOvnfrA=", "properties": {"@spider": "usps_collection_boxes", "addr:city": "CONRAD", "addr:country": "US", "addr:full": "120 N MAIN ST", "addr:postcode": "50621", "addr:state": "IA", "amenity": "post_box", "brand": "United States Postal Service", "brand:wikidata": "Q668687", "collection_times": "Mo-Fr 16:00; Sa 09:30", "name": "USPS COLLECTION BOX - PO LOBBY", "note": "ON 12/24 AND 12/31, THIS BOX MAY BE COLLECTED AS EARLY AS 12 NOON.", "nsi_id": "unitedstatespostalservice-a77078", "operator": "United States Postal Service", "operator:short": "USPS", "operator:type": "public", "operator:wikidata": "Q668687", "ref": "5062100002"}, "type": "Feature"}
{"dataset_attributes": {"@spider": "usps_collection_boxes", "spider:collection_time": "2023-11-28T08:25:58.546046"}, "geometry": {"coordinates": [-92.874534915, 42.225282251], "type": "Point"}, "id": "P30WRcfccA07FlomBnpkg6hKxjw=", "properties": {"@spider": "usps_collection_boxes", "addr:city": "CONRAD", "addr:country": "US", "addr:full": "120 N MAIN ST", "addr:postcode": "50621", "addr:state": "IA", "amenity": "post_box", "brand": "United States Postal Service", "brand:wikidata": "Q668687", "collection_times": "Mo-Fr 16:00; Sa 08:00", "name": "USPS COLLECTION BOX - PO LOBBY", "note": "ON 12/24 AND 12/31, THIS BOX MAY BE COLLECTED AS EARLY AS 12 NOON.", "nsi_id": "unitedstatespostalservice-a77078", "operator": "United States Postal Service", "operator:short": "USPS", "operator:type": "public", "operator:wikidata": "Q668687", "ref": "5062100003"}, "type": "Feature"}
{"dataset_attributes": {"@spider": "usps_collection_boxes", "spider:collection_time": "2023-11-28T08:25:58.546046"}, "geometry": {"coordinates": [-92.337281348, 42.670665419], "type": "Point"}, "id": "0nVjdzgLPiopC8kG5rnJPZxkB70=", "properties": {"@spider": "usps_collection_boxes", "addr:city": "DENVER", "addr:country": "US", "addr:full": "340 S STATE ST", "addr:postcode": "50622", "addr:state": "IA", "amenity": "post_box", "brand": "United States Postal Service", "brand:wikidata": "Q668687", "collection_times": "Mo-Fr 16:00; Sa 16:15", "name": "USPS COLLECTION BOX - BLUE BOX", "note": "ON 12/24 AND 12/31, THIS BOX MAY BE COLLECTED AS EARLY AS 12 NOON.", "nsi_id": "unitedstatespostalservice-a77078", "operator": "United States Postal Service", "operator:short": "USPS", "operator:type": "public", "operator:wikidata": "Q668687", "ref": "5062200000"}, "type": "Feature"}
{"dataset_attributes": {"@spider": "usps_collection_boxes", "spider:collection_time": "2023-11-28T08:25:58.546046"}, "geometry": {"coordinates": [-92.337281348, 42.670665419], "type": "Point"}, "id": "HVoVGb-wy_JSA0VGHZDQt1yM1XY=", "properties": {"@spider": "usps_collection_boxes", "addr:city": "DENVER", "addr:country": "US", "addr:full": "340 S STATE ST", "addr:postcode": "50622", "addr:state": "IA", "amenity": "post_box", "brand": "United States Postal Service", "brand:wikidata": "Q668687", "collection_times": "Mo-Fr 16:00; Sa 08:00", "name": "USPS COLLECTION BOX - PO LOBBY", "note": "ON 12/24 AND 12/31, THIS BOX MAY BE COLLECTED AS EARLY AS 12 NOON.", "nsi_id": "unitedstatespostalservice-a77078", "operator": "United States Postal Service", "operator:short": "USPS", "operator:type": "public", "operator:wikidata": "Q668687", "ref": "5062200002"}, "type": "Feature"}
{"dataset_attributes": {"@spider": "usps_collection_boxes", "spider:collection_time": "2023-11-28T08:25:58.546046"}, "geometry": {"coordinates": [-92.337281348, 42.670665419], "type": "Point"}, "id": "QjIRfLTMK0hVbH0gUMRMJsAbJkk=", "properties": {"@spider": "usps_collection_boxes", "addr:city": "DENVER", "addr:country": "US", "addr:full": "340 S STATE ST", "addr:postcode": "50622", "addr:state": "IA", "amenity": "post_box", "brand": "United States Postal Service", "brand:wikidata": "Q668687", "collection_times": "Mo-Fr 16:00; Sa 08:00", "name": "USPS COLLECTION BOX - PO LOBBY", "note": "ON 12/24 AND 12/31, THIS BOX MAY BE COLLECTED AS EARLY AS 12 NOON.", "nsi_id": "unitedstatespostalservice-a77078", "operator": "United States Postal Service", "operator:short": "USPS", "operator:type": "public", "operator:wikidata": "Q668687", "ref": "5062200004"}, "type": "Feature"}
{"dataset_attributes": {"@spider": "usps_collection_boxes", "spider:collection_time": "2023-11-28T08:25:58.546046"}, "geometry": {"coordinates": [-92.2198725, 42.525376492], "type": "Point"}, "id": "ZcTs8RB-4f9roWe9kQtRkQ22Q28=", "properties": {"@spider": "usps_collection_boxes", "addr:city": "DEWAR", "addr:country": "US", "addr:full": "5916 1ST ST", "addr:postcode": "50623", "addr:state": "IA", "amenity": "post_box", "brand": "United States Postal Service", "brand:wikidata": "Q668687", "collection_times": "Mo-Fr 16:15; Sa 17:30", "name": "USPS COLLECTION BOX - BLUE BOX", "note": "ON 12/24 AND 12/31, THIS BOX MAY BE COLLECTED AS EARLY AS 12 NOON.", "nsi_id": "unitedstatespostalservice-a77078", "operator": "United States Postal Service", "operator:short": "USPS", "operator:type": "public", "operator:wikidata": "Q668687", "ref": "5062300000"}, "type": "Feature"}
{"dataset_attributes": {"@spider": "usps_collection_boxes", "spider:collection_time": "2023-11-28T08:25:58.546046"}, "geometry": {"coordinates": [-92.2198725, 42.525376492], "type": "Point"}, "id": "B1j1iO-EbW7BTB2L032lBYtzrro=", "properties": {"@spider": "usps_collection_boxes", "addr:city": "DEWAR", "addr:country": "US", "addr:full": "5916 1ST ST", "addr:postcode": "50623", "addr:state": "IA", "amenity": "post_box", "brand": "United States Postal Service", "brand:wikidata": "Q668687", "collection_times": "Mo-Fr 16:15; Sa 09:30", "name": "USPS COLLECTION BOX - PO LOBBY", "note": "ON 12/24 AND 12/31, THIS BOX MAY BE COLLECTED AS EARLY AS 12 NOON.", "nsi_id": "unitedstatespostalservice-a77078", "operator": "United States Postal Service", "operator:short": "USPS", "operator:type": "public", "operator:wikidata": "Q668687", "ref": "5062300001"}, "type": "Feature"}
{"dataset_attributes": {"@spider": "usps_collection_boxes", "spider:collection_time": "2023-11-28T08:25:58.546046"}, "geometry": {"coordinates": [-92.2198725, 42.525376492], "type": "Point"}, "id": "Zvce9NeYYohw6nhxV0viHff3kV0=", "properties": {"@spider": "usps_collection_boxes", "addr:city": "DEWAR", "addr:country": "US", "addr:full": "5916 1ST ST", "addr:postcode": "50623", "addr:state": "IA", "amenity": "post_box", "brand": "United States Postal Service", "brand:wikidata": "Q668687", "collection_times": "Mo-Fr 16:00; Sa 09:45", "name": "USPS COLLECTION BOX - PO LOBBY", "note": "ON 12/24 AND 12/31, THIS BOX MAY BE COLLECTED AS EARLY AS 12 NOON.", "nsi_id": "unitedstatespostalservice-a77078", "operator": "United States Postal Service", "operator:short": "USPS", "operator:type": "public", "operator:wikidata": "Q668687", "ref": "5062300002"}, "type": "Feature"}
{"dataset_attributes": {"@spider": "usps_collection_boxes", "spider:collection_time": "2023-11-28T08:25:58.546046"}, "geometry": {"coordinates": [-92.628087006, 42.464918211], "type": "Point"}, "id": "uwRnHzTHCdhTJZGo9JS_cZV7pm8=", "properties": {"@spider": "usps_collection_boxes", "addr:city": "DIKE", "addr:country": "US", "addr:full": "508 MAIN ST", "addr:postcode": "50624", "addr:state": "IA", "amenity": "post_box", "brand": "United States Postal Service", "brand:wikidata": "Q668687", "collection_times": "Mo-Fr 16:00; Sa 16:30", "name": "USPS COLLECTION BOX - BLUE BOX", "note": "ON 12/24 AND 12/31, THIS BOX MAY BE COLLECTED AS EARLY AS 12 NOON.", "nsi_id": "unitedstatespostalservice-a77078", "operator": "United States Postal Service", "operator:short": "USPS", "operator:type": "public", "operator:wikidata": "Q668687", "ref": "5062400000"}, "type": "Feature"}
{"dataset_attributes": {"@spider": "usps_collection_boxes", "spider:collection_time": "2023-11-28T08:25:58.546046"}, "geometry": {"coordinates": [-92.628087006, 42.464918211], "type": "Point"}, "id": "Zq0dNYlRGBA3VJAWyERgjbY68Wc=", "properties": {"@spider": "usps_collection_boxes", "addr:city": "DIKE", "addr:country": "US", "addr:full": "508 MAIN ST", "addr:postcode": "50624", "addr:state": "IA", "amenity": "post_box", "brand": "United States Postal Service", "brand:wikidata": "Q668687", "collection_times": "Mo-Fr 13:45; Sa 08:15", "name": "USPS COLLECTION BOX - PO LOBBY", "note": "ON 12/24 AND 12/31, THIS BOX MAY BE COLLECTED AS EARLY AS 12 NOON.", "nsi_id": "unitedstatespostalservice-a77078", "operator": "United States Postal Service", "operator:short": "USPS", "operator:type": "public", "operator:wikidata": "Q668687", "ref": "5062400001"}, "type": "Feature"}
{"dataset_attributes": {"@spider": "usps_collection_boxes", "spider:collection_time": "2023-11-28T08:25:58.546046"}, "geometry": {"coordinates": [-92.628087006, 42.464918211], "type": "Point"}, "id": "zoaTneV9Bf2Z7-GLrt6k3SpPW8o=", "properties": {"@spider": "usps_collection_boxes", "addr:city": "DIKE", "addr:country": "US", "addr:full": "508 MAIN ST", "addr:postcode": "50624", "addr:state": "IA", "amenity": "post_box", "brand": "United States Postal Service", "brand:wikidata": "Q668687", "collection_times": "Mo-Fr 14:00; Sa 08:30", "name": "USPS COLLECTION BOX - PO LOBBY", "note": "ON 12/24 AND 12/31, THIS BOX MAY BE COLLECTED AS EARLY AS 12 NOON.", "nsi_id": "unitedstatespostalservice-a77078", "operator": "United States Postal Service", "operator:short": "USPS", "operator:type": "public", "operator:wikidata": "Q668687", "ref": "5062400002"}, "type": "Feature"}
{"dataset_attributes": {"@spider": "usps_collection_boxes", "spider:collection_time": "2023-11-28T08:25:58.546046"}, "geometry": {"coordinates": [-92.973018392, 42.750288283], "type": "Point"}, "id": "uH8muEEnTS3bw2tcSngNZTwXA0g=", "properties": {"@spider": "usps_collection_boxes", "addr:city": "DUMONT", "addr:country": "US", "addr:full": "603 MAIN ST", "addr:postcode": "50625", "addr:state": "IA", "amenity": "post_box", "brand": "United States Postal Service", "brand:wikidata": "Q668687", "collection_times": "Mo-Sa 16:00", "name": "USPS COLLECTION BOX - BLUE BOX", "note": "ON 12/24 AND 12/31, THIS BOX MAY BE COLLECTED AS EARLY AS 12 NOON.", "nsi_id": "unitedstatespostalservice-a77078", "operator": "United States Postal Service", "operator:short": "USPS", "operator:type": "public", "operator:wikidata": "Q668687", "ref": "5062500000"}, "type": "Feature"}
{"dataset_attributes": {"@spider": "usps_collection_boxes", "spider:collection_time": "2023-11-28T08:25:58.546046"}, "geometry": {"coordinates": [-92.973018392, 42.750288283], "type": "Point"}, "id": "VzAkfPHHGZHDH5jSUS62JZB-ciY=", "properties": {"@spider": "usps_collection_boxes", "addr:city": "DUMONT", "addr:country": "US", "addr:full": "603 MAIN ST", "addr:postcode": "50625", "addr:state": "IA", "amenity": "post_box", "brand": "United States Postal Service", "brand:wikidata": "Q668687", "collection_times": "Mo-Fr 14:15", "name": "USPS COLLECTION BOX - PO LOBBY", "note": "ON 12/24 AND 12/31, THIS BOX MAY BE COLLECTED AS EARLY AS 12 NOON.", "nsi_id": "unitedstatespostalservice-a77078", "operator": "United States Postal Service", "operator:short": "USPS", "operator:type": "public", "operator:wikidata": "Q668687", "ref": "5062500001"}, "type": "Feature"}
{"dataset_attributes": {"@spider": "usps_collection_boxes", "spider:collection_time": "2023-11-28T08:25:58.546046"}, "geometry": {"coordinates": [-92.973018392, 42.750288283], "type": "Point"}, "id": "n4pfIXTvdaKdQzKY4E18bSOjwAI=", "properties": {"@spider": "usps_collection_boxes", "addr:city": "DUMONT", "addr:country": "US", "addr:full": "603 MAIN ST", "addr:postcode": "50625", "addr:state": "IA", "amenity": "post_box", "brand": "United States Postal Service", "brand:wikidata": "Q668687", "collection_times": "Mo-Fr 14:30; Sa 08:00", "name": "USPS COLLECTION BOX - PO LOBBY", "note": "ON 12/24 AND 12/31, THIS BOX MAY BE COLLECTED AS EARLY AS 12 NOON.", "nsi_id": "unitedstatespostalservice-a77078", "operator": "United States Postal Service", "operator:short": "USPS", "operator:type": "public", "operator:wikidata": "Q668687", "ref": "5062500002"}, "type": "Feature"}
{"dataset_attributes": {"@spider": "usps_collection_boxes", "spider:collection_time": "2023-11-28T08:25:58.546046"}, "geometry": {"coordinates": [-92.16071077, 42.565834324], "type": "Point"}, "id": "RFy1ScUnY0yLEPSSpLlJWsyIME8=", "properties": {"@spider": "usps_collection_boxes", "addr:city": "DUNKERTON", "addr:country": "US", "addr:full": "713 S CANFIELD ST", "addr:postcode": "50626", "addr:state": "IA", "amenity": "post_box", "brand": "United States Postal Service", "brand:wikidata": "Q668687", "collection_times": "Mo-Fr 16:15; Sa 17:15", "name": "USPS COLLECTION BOX - BLUE BOX", "note": "ON 12/24 AND 12/31, THIS BOX MAY BE COLLECTED AS EARLY AS 12 NOON.", "nsi_id": "unitedstatespostalservice-a77078", "operator": "United States Postal Service", "operator:short": "USPS", "operator:type": "public", "operator:wikidata": "Q668687", "ref": "5062600000"}, "type": "Feature"}
{"dataset_attributes": {"@spider": "usps_collection_boxes", "spider:collection_time": "2023-11-28T08:25:58.546046"}, "geometry": {"coordinates": [-92.16071077, 42.565834324], "type": "Point"}, "id": "5yjP_mfkVTO1V42EvCo01ylAKUE=", "properties": {"@spider": "usps_collection_boxes", "addr:city": "DUNKERTON", "addr:country": "US", "addr:full": "713 S CANFIELD ST", "addr:postcode": "50626", "addr:state": "IA", "amenity": "post_box", "brand": "United States Postal Service", "brand:wikidata": "Q668687", "collection_times": "Mo-Fr 15:45", "name": "USPS COLLECTION BOX - PO LOBBY", "note": "ON 12/24 AND 12/31, THIS BOX MAY BE COLLECTED AS EARLY AS 12 NOON.", "nsi_id": "unitedstatespostalservice-a77078", "operator": "United States Postal Service", "operator:short": "USPS", "operator:type": "public", "operator:wikidata": "Q668687", "ref": "5062600001"}, "type": "Feature"}
{"dataset_attributes": {"@spider": "usps_collection_boxes", "spider:collection_time": "2023-11-28T08:25:58.546046"}, "geometry": {"coordinates": [-92.16071077, 42.565834324], "type": "Point"}, "id": "F9--7nzC_lziVqCIrYF7HKlTyqs=", "properties": {"@spider": "usps_collection_boxes", "addr:city": "DUNKERTON", "addr:country": "US", "addr:full": "713 S CANFIELD ST", "addr:postcode": "50626", "addr:state": "IA", "amenity": "post_box", "brand": "United States Postal Service", "brand:wikidata": "Q668687", "collection_times": "Mo-Fr 16:00; Sa 08:00", "name": "USPS COLLECTION BOX - PO LOBBY", "note": "ON 12/24 AND 12/31, THIS BOX MAY BE COLLECTED AS EARLY AS 12 NOON.", "nsi_id": "unitedstatespostalservice-a77078", "operator": "United States Postal Service", "operator:short": "USPS", "operator:type": "public", "operator:wikidata": "Q668687", "ref": "5062600002"}, "type": "Feature"}
{"dataset_attributes": {"@spider": "usps_collection_boxes", "spider:collection_time": "2023-11-28T08:25:58.546046"}, "geometry": {"coordinates": [-93.098293309, 42.360309], "type": "Point"}, "id": "xNJVrUyI2-1Ms_fKkB1vLWRwf88=", "properties": {"@spider": "usps_collection_boxes", "addr:city": "ELDORA", "addr:country": "US", "addr:full": "1339 12TH ST", "addr:postcode": "50627", "addr:state": "IA", "amenity": "post_box", "brand": "United States Postal Service", "brand:wikidata": "Q668687", "collection_times": "Mo-Sa 14:30", "name": "USPS COLLECTION BOX - BLUE BOX", "note": "ON 12/24 AND 12/31, THIS BOX MAY BE COLLECTED AS EARLY AS 12 NOON.", "nsi_id": "unitedstatespostalservice-a77078", "operator": "United States Postal Service", "operator:short": "USPS", "operator:type": "public", "operator:wikidata": "Q668687", "ref": "5062700008"}, "type": "Feature"}
{"dataset_attributes": {"@spider": "usps_collection_boxes", "spider:collection_time": "2023-11-28T08:25:58.546046"}, "geometry": {"coordinates": [-93.100441332, 42.360651512], "type": "Point"}, "id": "IS5ucwgMoTxxKsQeBqJhXDFFLNs=", "properties": {"@spider": "usps_collection_boxes", "addr:city": "ELDORA", "addr:country": "US", "addr:full": "1334 EDGINGTON AVE", "addr:postcode": "50627", "addr:state": "IA", "amenity": "post_box", "brand": "United States Postal Service", "brand:wikidata": "Q668687", "collection_times": "Mo-Sa 16:30", "name": "USPS COLLECTION BOX - BLUE BOX", "note": "ON 12/24 AND 12/31, THIS BOX MAY BE COLLECTED AS EARLY AS 12 NOON.", "nsi_id": "unitedstatespostalservice-a77078", "operator": "United States Postal Service", "operator:short": "USPS", "operator:type": "public", "operator:wikidata": "Q668687", "ref": "5062700020"}, "type": "Feature"}
{"dataset_attributes": {"@spider": "usps_collection_boxes", "spider:collection_time": "2023-11-28T08:25:58.546046"}, "geometry": {"coordinates": [-93.100441332, 42.360651512], "type": "Point"}, "id": "dw2X3UeaJvKZTS3yz2CzjcOEt80=", "properties": {"@spider": "usps_collection_boxes", "addr:city": "ELDORA", "addr:country": "US", "addr:full": "1334 EDGINGTON AVE", "addr:postcode": "50627", "addr:state": "IA", "amenity": "post_box", "brand": "United States Postal Service", "brand:wikidata": "Q668687", "collection_times": "Mo-Fr 16:30; Sa 10:15", "name": "USPS COLLECTION BOX - PO LOBBY", "note": "ON 12/24 AND 12/31, THIS BOX MAY BE COLLECTED AS EARLY AS 12 NOON.", "nsi_id": "unitedstatespostalservice-a77078", "operator": "United States Postal Service", "operator:short": "USPS", "operator:type": "public", "operator:wikidata": "Q668687", "ref": "5062700022"}, "type": "Feature"}
{"dataset_attributes": {"@spider": "usps_collection_boxes", "spider:collection_time": "2023-11-28T08:25:58.546046"}, "geometry": {"coordinates": [-93.100441332, 42.360651512], "type": "Point"}, "id": "_x2kaceiYtsTBhPQmmHIdOKI4To=", "properties": {"@spider": "usps_collection_boxes", "addr:city": "ELDORA", "addr:country": "US", "addr:full": "1334 EDGINGTON AVE", "addr:postcode": "50627", "addr:state": "IA", "amenity": "post_box", "brand": "United States Postal Service", "brand:wikidata": "Q668687", "collection_times": "Mo-Fr 16:30; Sa 08:00", "name": "USPS COLLECTION BOX - PO LOBBY", "note": "ON 12/24 AND 12/31, THIS BOX MAY BE COLLECTED AS EARLY AS 12 NOON.", "nsi_id": "unitedstatespostalservice-a77078", "operator": "United States Postal Service", "operator:short": "USPS", "operator:type": "public", "operator:wikidata": "Q668687", "ref": "5062700024"}, "type": "Feature"}
{"dataset_attributes": {"@spider": "usps_collection_boxes", "spider:collection_time": "2023-11-28T08:25:58.546046"}, "geometry": {"coordinates": [-92.438351749, 43.244009529], "type": "Point"}, "id": "FOSGiEy8r60oVK0rrv1P_ROM42s=", "properties": {"@spider": "usps_collection_boxes", "addr:city": "ELMA", "addr:country": "US", "addr:full": "412 MAIN ST", "addr:postcode": "50628", "addr:state": "IA", "amenity": "post_box", "brand": "United States Postal Service", "brand:wikidata": "Q668687", "collection_times": "Mo-Sa 15:30", "name": "USPS COLLECTION BOX - BLUE BOX", "note": "ON 12/24 AND 12/31, THIS BOX MAY BE COLLECTED AS EARLY AS 12 NOON.", "nsi_id": "unitedstatespostalservice-a77078", "operator": "United States Postal Service", "operator:short": "USPS", "operator:type": "public", "operator:wikidata": "Q668687", "ref": "5062800001"}, "type": "Feature"}
{"dataset_attributes": {"@spider": "usps_collection_boxes", "spider:collection_time": "2023-11-28T08:25:58.546046"}, "geometry": {"coordinates": [-92.438351749, 43.244009529], "type": "Point"}, "id": "-mwZnJHiyC4VCe0wVY2GR-8arMM=", "properties": {"@spider": "usps_collection_boxes", "addr:city": "ELMA", "addr:country": "US", "addr:full": "412 MAIN ST", "addr:postcode": "50628", "addr:state": "IA", "amenity": "post_box", "brand": "United States Postal Service", "brand:wikidata": "Q668687", "collection_times": "Mo-Fr 14:15; Sa 08:30", "name": "USPS COLLECTION BOX - PO LOBBY", "note": "ON 12/24 AND 12/31, THIS BOX MAY BE COLLECTED AS EARLY AS 12 NOON.", "nsi_id": "unitedstatespostalservice-a77078", "operator": "United States Postal Service", "operator:short": "USPS", "operator:type": "public", "operator:wikidata": "Q668687", "ref": "5062800002"}, "type": "Feature"}
{"dataset_attributes": {"@spider": "usps_collection_boxes", "spider:collection_time": "2023-11-28T08:25:58.546046"}, "geometry": {"coordinates": [-92.438351749, 43.244009529], "type": "Point"}, "id": "lQWdS7wT4W52-kJc6_s0Do5Hov8=", "properties": {"@spider": "usps_collection_boxes", "addr:city": "ELMA", "addr:country": "US", "addr:full": "412 MAIN ST", "addr:postcode": "50628", "addr:state": "IA", "amenity": "post_box", "brand": "United States Postal Service", "brand:wikidata": "Q668687", "collection_times": "Mo-Fr 14:30; Sa 08:45", "name": "USPS COLLECTION BOX - PO LOBBY", "note": "ON 12/24 AND 12/31, THIS BOX MAY BE COLLECTED AS EARLY AS 12 NOON.", "nsi_id": "unitedstatespostalservice-a77078", "operator": "United States Postal Service", "operator:short": "USPS", "operator:type": "public", "operator:wikidata": "Q668687", "ref": "5062800003"}, "type": "Feature"}
{"dataset_attributes": {"@spider": "usps_collection_boxes", "spider:collection_time": "2023-11-28T08:25:58.546046"}, "geometry": {"coordinates": [-92.049534168, 42.63932946], "type": "Point"}, "id": "d3X6k1m6TiotYOtnLndv4WoZLR4=", "properties": {"@spider": "usps_collection_boxes", "addr:city": "FAIRBANK", "addr:country": "US", "addr:full": "201 E MAIN ST", "addr:postcode": "50629", "addr:state": "IA", "amenity": "post_box", "brand": "United States Postal Service", "brand:wikidata": "Q668687", "collection_times": "Mo-Fr 16:30; Sa 17:00", "name": "USPS COLLECTION BOX - BLUE BOX", "note": "ON 12/24 AND 12/31, THIS BOX MAY BE COLLECTED AS EARLY AS 12 NOON.", "nsi_id": "unitedstatespostalservice-a77078", "operator": "United States Postal Service", "operator:short": "USPS", "operator:type": "public", "operator:wikidata": "Q668687", "ref": "5062900001"}, "type": "Feature"}
{"dataset_attributes": {"@spider": "usps_collection_boxes", "spider:collection_time": "2023-11-28T08:25:58.546046"}, "geometry": {"coordinates": [-92.049534168, 42.63932946], "type": "Point"}, "id": "bjlkEc1XYONnRKAkarvzNlUOlUM=", "properties": {"@spider": "usps_collection_boxes", "addr:city": "FAIRBANK", "addr:country": "US", "addr:full": "201 E MAIN ST", "addr:postcode": "50629", "addr:state": "IA", "amenity": "post_box", "brand": "United States Postal Service", "brand:wikidata": "Q668687", "collection_times": "Mo-Fr 16:30; Sa 08:30", "name": "USPS COLLECTION BOX - PO LOBBY", "note": "ON 12/24 AND 12/31, THIS BOX MAY BE COLLECTED AS EARLY AS 12 NOON.", "nsi_id": "unitedstatespostalservice-a77078", "operator": "United States Postal Service", "operator:short": "USPS", "operator:type": "public", "operator:wikidata": "Q668687", "ref": "5062900002"}, "type": "Feature"}
{"dataset_attributes": {"@spider": "usps_collection_boxes", "spider:collection_time": "2023-11-28T08:25:58.546046"}, "geometry": {"coordinates": [-92.049534168, 42.63932946], "type": "Point"}, "id": "f1ej5WXKvbQ87Y7BBhie-bk0yVs=", "properties": {"@spider": "usps_collection_boxes", "addr:city": "FAIRBANK", "addr:country": "US", "addr:full": "201 E MAIN ST", "addr:postcode": "50629", "addr:state": "IA", "amenity": "post_box", "brand": "United States Postal Service", "brand:wikidata": "Q668687", "collection_times": "Mo-Fr 16:30; Sa 08:30", "name": "USPS COLLECTION BOX - PO LOBBY", "note": "ON 12/24 AND 12/31, THIS BOX MAY BE COLLECTED AS EARLY AS 12 NOON.", "nsi_id": "unitedstatespostalservice-a77078", "operator": "United States Postal Service", "operator:short": "USPS", "operator:type": "public", "operator:wikidata": "Q668687", "ref": "5062900003"}, "type": "Feature"}
{"dataset_attributes": {"@spider": "usps_collection_boxes", "spider:collection_time": "2023-11-28T08:25:58.546046"}, "geometry": {"coordinates": [-92.198263668, 42.965140472], "type": "Point"}, "id": "QwUzKlIKUQcSulX6_v3_G3Lk_Gc=", "properties": {"@spider": "usps_collection_boxes", "addr:city": "FREDERICKSBURG", "addr:country": "US", "addr:full": "130 E MAIN ST", "addr:postcode": "50630", "addr:state": "IA", "amenity": "post_box", "brand": "United States Postal Service", "brand:wikidata": "Q668687", "collection_times": "Mo-Sa 16:15", "name": "USPS COLLECTION BOX - BLUE BOX", "note": "ON 12/24 AND 12/31, THIS BOX MAY BE COLLECTED AS EARLY AS 12 NOON.", "nsi_id": "unitedstatespostalservice-a77078", "operator": "United States Postal Service", "operator:short": "USPS", "operator:type": "public", "operator:wikidata": "Q668687", "ref": "5063000000"}, "type": "Feature"}
{"dataset_attributes": {"@spider": "usps_collection_boxes", "spider:collection_time": "2023-11-28T08:25:58.546046"}, "geometry": {"coordinates": [-92.198263668, 42.965140472], "type": "Point"}, "id": "0vheGDr196cMWNyLiF2weGfcG9k=", "properties": {"@spider": "usps_collection_boxes", "addr:city": "FREDERICKSBURG", "addr:country": "US", "addr:full": "130 E MAIN ST", "addr:postcode": "50630", "addr:state": "IA", "amenity": "post_box", "brand": "United States Postal Service", "brand:wikidata": "Q668687", "collection_times": "Mo-Fr 16:15; Sa 09:00", "name": "USPS COLLECTION BOX - PO LOBBY", "note": "ON 12/24 AND 12/31, THIS BOX MAY BE COLLECTED AS EARLY AS 12 NOON.", "nsi_id": "unitedstatespostalservice-a77078", "operator": "United States Postal Service", "operator:short": "USPS", "operator:type": "public", "operator:wikidata": "Q668687", "ref": "5063000001"}, "type": "Feature"}
{"dataset_attributes": {"@spider": "usps_collection_boxes", "spider:collection_time": "2023-11-28T08:25:58.546046"}, "geometry": {"coordinates": [-92.198263668, 42.965140472], "type": "Point"}, "id": "8oWdZmZRuQYXwixqUjyS1GPTvxw=", "properties": {"@spider": "usps_collection_boxes", "addr:city": "FREDERICKSBURG", "addr:country": "US", "addr:full": "130 E MAIN ST", "addr:postcode": "50630", "addr:state": "IA", "amenity": "post_box", "brand": "United States Postal Service", "brand:wikidata": "Q668687", "collection_times": "Mo-Fr 16:15; Sa 08:00", "name": "USPS COLLECTION BOX - PO LOBBY", "note": "ON 12/24 AND 12/31, THIS BOX MAY BE COLLECTED AS EARLY AS 12 NOON.", "nsi_id": "unitedstatespostalservice-a77078", "operator": "United States Postal Service", "operator:short": "USPS", "operator:type": "public", "operator:wikidata": "Q668687", "ref": "5063000002"}, "type": "Feature"}
{"dataset_attributes": {"@spider": "usps_collection_boxes", "spider:collection_time": "2023-11-28T08:25:58.546046"}, "geometry": {"coordinates": [-92.307644277, 42.881480488], "type": "Point"}, "id": "r1zNbVnQpP3B6kMW64xWRwF2IRc=", "properties": {"@spider": "usps_collection_boxes", "addr:city": "FREDERIKA", "addr:country": "US", "addr:full": "104 3RD ST", "addr:postcode": "50631", "addr:state": "IA", "amenity": "post_box", "brand": "United States Postal Service", "brand:wikidata": "Q668687", "collection_times": "Mo-Fr 16:15; Sa 17:30", "name": "USPS COLLECTION BOX - BLUE BOX", "note": "ON 12/24 AND 12/31, THIS BOX MAY BE COLLECTED AS EARLY AS 12 NOON.", "nsi_id": "unitedstatespostalservice-a77078", "operator": "United States Postal Service", "operator:short": "USPS", "operator:type": "public", "operator:wikidata": "Q668687", "ref": "5063100000"}, "type": "Feature"}
{"dataset_attributes": {"@spider": "usps_collection_boxes", "spider:collection_time": "2023-11-28T08:25:58.546046"}, "geometry": {"coordinates": [-92.307644277, 42.881480488], "type": "Point"}, "id": "SNR9NraE5p5_CP2Bbo7EnrLDMCE=", "properties": {"@spider": "usps_collection_boxes", "addr:city": "FREDERIKA", "addr:country": "US", "addr:full": "104 3RD ST", "addr:postcode": "50631", "addr:state": "IA", "amenity": "post_box", "brand": "United States Postal Service", "brand:wikidata": "Q668687", "collection_times": "Mo-Fr 11:45", "name": "USPS COLLECTION BOX - PO LOBBY", "nsi_id": "unitedstatespostalservice-a77078", "operator": "United States Postal Service", "operator:short": "USPS", "operator:type": "public", "operator:wikidata": "Q668687", "ref": "5063100001"}, "type": "Feature"}
{"dataset_attributes": {"@spider": "usps_collection_boxes", "spider:collection_time": "2023-11-28T08:25:58.546046"}, "geometry": {"coordinates": [-92.307644277, 42.881480488], "type": "Point"}, "id": "X0IfWZ8jpl9AVv9PGvxo5iRLUKs=", "properties": {"@spider": "usps_collection_boxes", "addr:city": "FREDERIKA", "addr:country": "US", "addr:full": "104 3RD ST", "addr:postcode": "50631", "addr:state": "IA", "amenity": "post_box", "brand": "United States Postal Service", "brand:wikidata": "Q668687", "collection_times": "Mo-Fr 12:00; Sa 10:00", "name": "USPS COLLECTION BOX - PO LOBBY", "nsi_id": "unitedstatespostalservice-a77078", "operator": "United States Postal Service", "operator:short": "USPS", "operator:type": "public", "operator:wikidata": "Q668687", "ref": "5063100002"}, "type": "Feature"}
{"dataset_attributes": {"@spider": "usps_collection_boxes", "spider:collection_time": "2023-11-28T08:25:58.546046"}, "geometry": {"coordinates": [-92.214606784, 42.415956], "type": "Point"}, "id": "kscqHR52MMt11GIoWwurb-sSh0E=", "properties": {"@spider": "usps_collection_boxes", "addr:city": "GILBERTVILLE", "addr:country": "US", "addr:full": "1320 5TH ST", "addr:postcode": "50634", "addr:state": "IA", "amenity": "post_box", "brand": "United States Postal Service", "brand:wikidata": "Q668687", "collection_times": "Mo-Fr 15:45; Sa 16:00", "name": "USPS COLLECTION BOX - BLUE BOX", "note": "ON 12/24 AND 12/31, THIS BOX MAY BE COLLECTED AS EARLY AS 12 NOON.", "nsi_id": "unitedstatespostalservice-a77078", "operator": "United States Postal Service", "operator:short": "USPS", "operator:type": "public", "operator:wikidata": "Q668687", "ref": "5063400000"}, "type": "Feature"}
{"dataset_attributes": {"@spider": "usps_collection_boxes", "spider:collection_time": "2023-11-28T08:25:58.546046"}, "geometry": {"coordinates": [-92.214606784, 42.415956], "type": "Point"}, "id": "qsSoTb-vnWFCgoI8BwfRYp1vM24=", "properties": {"@spider": "usps_collection_boxes", "addr:city": "GILBERTVILLE", "addr:country": "US", "addr:full": "1320 5TH ST", "addr:postcode": "50634", "addr:state": "IA", "amenity": "post_box", "brand": "United States Postal Service", "brand:wikidata": "Q668687", "collection_times": "Mo-Fr 11:45", "name": "USPS COLLECTION BOX - PO LOBBY", "nsi_id": "unitedstatespostalservice-a77078", "operator": "United States Postal Service", "operator:short": "USPS", "operator:type": "public", "operator:wikidata": "Q668687", "ref": "5063400001"}, "type": "Feature"}
{"dataset_attributes": {"@spider": "usps_collection_boxes", "spider:collection_time": "2023-11-28T08:25:58.546046"}, "geometry": {"coordinates": [-92.214606784, 42.415956], "type": "Point"}, "id": "Dc7Whvdg62SecXG3nzAkAtQwzAg=", "properties": {"@spider": "usps_collection_boxes", "addr:city": "GILBERTVILLE", "addr:country": "US", "addr:full": "1320 5TH ST", "addr:postcode": "50634", "addr:state": "IA", "amenity": "post_box", "brand": "United States Postal Service", "brand:wikidata": "Q668687", "collection_times": "Mo-Fr 12:00; Sa 09:15", "name": "USPS COLLECTION BOX - PO LOBBY", "nsi_id": "unitedstatespostalservice-a77078", "operator": "United States Postal Service", "operator:short": "USPS", "operator:type": "public", "operator:wikidata": "Q668687", "ref": "5063400002"}, "type": "Feature"}
{"dataset_attributes": {"@spider": "usps_collection_boxes", "spider:collection_time": "2023-11-28T08:25:58.546046"}, "geometry": {"coordinates": [-92.715300071, 42.18831], "type": "Point"}, "id": "yybQE4Bb4XNRLWJhZ0jU_w0CxS4=", "properties": {"@spider": "usps_collection_boxes", "addr:city": "GLADBROOK", "addr:country": "US", "addr:full": "101 GOULD ST", "addr:postcode": "50635", "addr:state": "IA", "amenity": "post_box", "brand": "United States Postal Service", "brand:wikidata": "Q668687", "collection_times": "Mo-Sa 16:00", "name": "USPS COLLECTION BOX - BLUE BOX", "note": "ON 12/24 AND 12/31, THIS BOX MAY BE COLLECTED AS EARLY AS 12 NOON.", "nsi_id": "unitedstatespostalservice-a77078", "operator": "United States Postal Service", "operator:short": "USPS", "operator:type": "public", "operator:wikidata": "Q668687", "ref": "5063500000"}, "type": "Feature"}
{"dataset_attributes": {"@spider": "usps_collection_boxes", "spider:collection_time": "2023-11-28T08:25:58.546046"}, "geometry": {"coordinates": [-92.715300071, 42.18831], "type": "Point"}, "id": "XKRnnOw1VrbXurBmee7kpbj7bPw=", "properties": {"@spider": "usps_collection_boxes", "addr:city": "GLADBROOK", "addr:country": "US", "addr:full": "101 GOULD ST", "addr:postcode": "50635", "addr:state": "IA", "amenity": "post_box", "brand": "United States Postal Service", "brand:wikidata": "Q668687", "collection_times": "Mo-Fr 16:00; Sa 10:00", "name": "USPS COLLECTION BOX - PO LOBBY", "note": "ON 12/24 AND 12/31, THIS BOX MAY BE COLLECTED AS EARLY AS 12 NOON.", "nsi_id": "unitedstatespostalservice-a77078", "operator": "United States Postal Service", "operator:short": "USPS", "operator:type": "public", "operator:wikidata": "Q668687", "ref": "5063500001"}, "type": "Feature"}
{"dataset_attributes": {"@spider": "usps_collection_boxes", "spider:collection_time": "2023-11-28T08:25:58.546046"}, "geometry": {"coordinates": [-92.715300071, 42.18831], "type": "Point"}, "id": "E2KEi2DqErBhGddrLxFi593pNnc=", "properties": {"@spider": "usps_collection_boxes", "addr:city": "GLADBROOK", "addr:country": "US", "addr:full": "101 GOULD ST", "addr:postcode": "50635", "addr:state": "IA", "amenity": "post_box", "brand": "United States Postal Service", "brand:wikidata": "Q668687", "collection_times": "Mo-Fr 16:00; Sa 10:00", "name": "USPS COLLECTION BOX - PO LOBBY", "note": "ON 12/24 AND 12/31, THIS BOX MAY BE COLLECTED AS EARLY AS 12 NOON.", "nsi_id": "unitedstatespostalservice-a77078", "operator": "United States Postal Service", "operator:short": "USPS", "operator:type": "public", "operator:wikidata": "Q668687", "ref": "5063500002"}, "type": "Feature"}
{"dataset_attributes": {"@spider": "usps_collection_boxes", "spider:collection_time": "2023-11-28T08:25:58.546046"}, "geometry": {"coordinates": [-92.801312897, 42.8949852], "type": "Point"}, "id": "BRUMe7r5NufZ3OkStRAzzGxBnws=", "properties": {"@spider": "usps_collection_boxes", "addr:city": "GREENE", "addr:country": "US", "addr:full": "114 S 1ST ST", "addr:postcode": "50636", "addr:state": "IA", "amenity": "post_box", "brand": "United States Postal Service", "brand:wikidata": "Q668687", "collection_times": "Mo-Fr 15:30; Sa 15:45", "name": "USPS COLLECTION BOX - BLUE BOX", "note": "ON 12/24 AND 12/31, THIS BOX MAY BE COLLECTED AS EARLY AS 12 NOON.", "nsi_id": "unitedstatespostalservice-a77078", "operator": "United States Postal Service", "operator:short": "USPS", "operator:type": "public", "operator:wikidata": "Q668687", "ref": "5063600000"}, "type": "Feature"}
{"dataset_attributes": {"@spider": "usps_collection_boxes", "spider:collection_time": "2023-11-28T08:25:58.546046"}, "geometry": {"coordinates": [-92.801312897, 42.8949852], "type": "Point"}, "id": "dH9_AaBcbOzzAxhfVbhpSs38grU=", "properties": {"@spider": "usps_collection_boxes", "addr:city": "GREENE", "addr:country": "US", "addr:full": "114 S 1ST ST", "addr:postcode": "50636", "addr:state": "IA", "amenity": "post_box", "brand": "United States Postal Service", "brand:wikidata": "Q668687", "collection_times": "Mo-Fr 15:30; Sa 10:00", "name": "USPS COLLECTION BOX - PO LOBBY", "note": "ON 12/24 AND 12/31, THIS BOX MAY BE COLLECTED AS EARLY AS 12 NOON.", "nsi_id": "unitedstatespostalservice-a77078", "operator": "United States Postal Service", "operator:short": "USPS", "operator:type": "public", "operator:wikidata": "Q668687", "ref": "5063600001"}, "type": "Feature"}
{"dataset_attributes": {"@spider": "usps_collection_boxes", "spider:collection_time": "2023-11-28T08:25:58.546046"}, "geometry": {"coordinates": [-92.801312897, 42.8949852], "type": "Point"}, "id": "eju72B780rfIym8psdizG4Q0BXw=", "properties": {"@spider": "usps_collection_boxes", "addr:city": "GREENE", "addr:country": "US", "addr:full": "114 S 1ST ST", "addr:postcode": "50636", "addr:state": "IA", "amenity": "post_box", "brand": "United States Postal Service", "brand:wikidata": "Q668687", "collection_times": "Mo-Fr 15:30; Sa 08:00", "name": "USPS COLLECTION BOX - PO LOBBY", "note": "ON 12/24 AND 12/31, THIS BOX MAY BE COLLECTED AS EARLY AS 12 NOON.", "nsi_id": "unitedstatespostalservice-a77078", "operator": "United States Postal Service", "operator:short": "USPS", "operator:type": "public", "operator:wikidata": "Q668687", "ref": "5063600002"}, "type": "Feature"}
{"dataset_attributes": {"@spider": "usps_collection_boxes", "spider:collection_time": "2023-11-28T08:25:58.546046"}, "geometry": {"coordinates": [-92.786211, 42.361555547], "type": "Point"}, "id": "r034DM-5kZK1LEREm-Qek5uXPNg=", "properties": {"@spider": "usps_collection_boxes", "addr:city": "GRUNDY CENTER", "addr:country": "US", "addr:full": "1700 G AVE", "addr:postcode": "50638", "addr:state": "IA", "amenity": "post_box", "brand": "United States Postal Service", "brand:wikidata": "Q668687", "collection_times": "Mo-Fr 17:00; Sa 16:30", "name": "USPS COLLECTION BOX - BLUE BOX", "note": "ON 12/24 AND 12/31, THIS BOX MAY BE COLLECTED AS EARLY AS 12 NOON.", "nsi_id": "unitedstatespostalservice-a77078", "operator": "United States Postal Service", "operator:short": "USPS", "operator:type": "public", "operator:wikidata": "Q668687", "ref": "5063800000"}, "type": "Feature"}
{"dataset_attributes": {"@spider": "usps_collection_boxes", "spider:collection_time": "2023-11-28T08:25:58.546046"}, "geometry": {"coordinates": [-92.786211, 42.361555547], "type": "Point"}, "id": "euiYUjAGMfARyV_aT9-pJJOC0L4=", "properties": {"@spider": "usps_collection_boxes", "addr:city": "GRUNDY CENTER", "addr:country": "US", "addr:full": "1700 G AVE", "addr:postcode": "50638", "addr:state": "IA", "amenity": "post_box", "brand": "United States Postal Service", "brand:wikidata": "Q668687", "collection_times": "Mo-Fr 17:00", "name": "USPS COLLECTION BOX - PO LOBBY", "note": "ON 12/24 AND 12/31, THIS BOX MAY BE COLLECTED AS EARLY AS 12 NOON.", "nsi_id": "unitedstatespostalservice-a77078", "operator": "United States Postal Service", "operator:short": "USPS", "operator:type": "public", "operator:wikidata": "Q668687", "ref": "5063800002"}, "type": "Feature"}
{"dataset_attributes": {"@spider": "usps_collection_boxes", "spider:collection_time": "2023-11-28T08:25:58.546046"}, "geometry": {"coordinates": [-92.772972, 42.362523471], "type": "Point"}, "id": "5mlGuzVEGoz9C2ifEisT6MGlNqc=", "properties": {"@spider": "usps_collection_boxes", "addr:city": "GRUNDY CENTER", "addr:country": "US", "addr:full": "703 F AVE", "addr:postcode": "50638", "addr:state": "IA", "amenity": "post_box", "brand": "United States Postal Service", "brand:wikidata": "Q668687", "collection_times": "Mo-Fr 17:00; Sa 09:00", "name": "USPS COLLECTION BOX - BLUE BOX", "note": "ON 12/24 AND 12/31, THIS BOX MAY BE COLLECTED AS EARLY AS 12 NOON.", "nsi_id": "unitedstatespostalservice-a77078", "operator": "United States Postal Service", "operator:short": "USPS", "operator:type": "public", "operator:wikidata": "Q668687", "ref": "5063800003"}, "type": "Feature"}
{"dataset_attributes": {"@spider": "usps_collection_boxes", "spider:collection_time": "2023-11-28T08:25:58.546046"}, "geometry": {"coordinates": [-92.786211, 42.361555547], "type": "Point"}, "id": "Xr1yr-H7lV_bf9vEJHJgzyrJVoc=", "properties": {"@spider": "usps_collection_boxes", "addr:city": "GRUNDY CENTER", "addr:country": "US", "addr:full": "1700 G AVE", "addr:postcode": "50638", "addr:state": "IA", "amenity": "post_box", "brand": "United States Postal Service", "brand:wikidata": "Q668687", "collection_times": "Mo-Fr 16:30; Sa 08:00", "name": "USPS COLLECTION BOX - PO LOBBY", "note": "ON 12/24 AND 12/31, THIS BOX MAY BE COLLECTED AS EARLY AS 12 NOON.", "nsi_id": "unitedstatespostalservice-a77078", "operator": "United States Postal Service", "operator:short": "USPS", "operator:type": "public", "operator:wikidata": "Q668687", "ref": "5063800005"}, "type": "Feature"}
{"dataset_attributes": {"@spider": "usps_collection_boxes", "spider:collection_time": "2023-11-28T08:25:58.546046"}, "geometry": {"coordinates": [-91.905580815, 42.615251801], "type": "Point"}, "id": "ET4bMZ74lj-uMCjSiABrn5gHcCo=", "properties": {"@spider": "usps_collection_boxes", "addr:city": "HAZLETON", "addr:country": "US", "addr:full": "200 MAIN ST S", "addr:postcode": "50641", "addr:state": "IA", "amenity": "post_box", "brand": "United States Postal Service", "brand:wikidata": "Q668687", "collection_times": "Mo-Fr 16:30; Sa 17:00", "name": "USPS COLLECTION BOX - BLUE BOX", "note": "ON 12/24 AND 12/31, THIS BOX MAY BE COLLECTED AS EARLY AS 12 NOON.", "nsi_id": "unitedstatespostalservice-a77078", "operator": "United States Postal Service", "operator:short": "USPS", "operator:type": "public", "operator:wikidata": "Q668687", "ref": "5064100000"}, "type": "Feature"}
{"dataset_attributes": {"@spider": "usps_collection_boxes", "spider:collection_time": "2023-11-28T08:25:58.546046"}, "geometry": {"coordinates": [-91.905580815, 42.615251801], "type": "Point"}, "id": "8JTM1Uy86T7KO_rYylAA2SqGA-M=", "properties": {"@spider": "usps_collection_boxes", "addr:city": "HAZLETON", "addr:country": "US", "addr:full": "200 MAIN ST S", "addr:postcode": "50641", "addr:state": "IA", "amenity": "post_box", "brand": "United States Postal Service", "brand:wikidata": "Q668687", "collection_times": "Mo-Fr 14:15", "name": "USPS COLLECTION BOX - PO LOBBY", "note": "ON 12/24 AND 12/31, THIS BOX MAY BE COLLECTED AS EARLY AS 12 NOON.", "nsi_id": "unitedstatespostalservice-a77078", "operator": "United States Postal Service", "operator:short": "USPS", "operator:type": "public", "operator:wikidata": "Q668687", "ref": "5064100001"}, "type": "Feature"}
{"dataset_attributes": {"@spider": "usps_collection_boxes", "spider:collection_time": "2023-11-28T08:25:58.546046"}, "geometry": {"coordinates": [-91.905580815, 42.615251801], "type": "Point"}, "id": "KuJj5_aj2THjV6EzdZ96fnl3Wak=", "properties": {"@spider": "usps_collection_boxes", "addr:city": "HAZLETON", "addr:country": "US", "addr:full": "200 MAIN ST S", "addr:postcode": "50641", "addr:state": "IA", "amenity": "post_box", "brand": "United States Postal Service", "brand:wikidata": "Q668687", "collection_times": "Mo-Fr 14:30; Sa 09:45", "name": "USPS COLLECTION BOX - PO LOBBY", "note": "ON 12/24 AND 12/31, THIS BOX MAY BE COLLECTED AS EARLY AS 12 NOON.", "nsi_id": "unitedstatespostalservice-a77078", "operator": "United States Postal Service", "operator:short": "USPS", "operator:type": "public", "operator:wikidata": "Q668687", "ref": "5064100002"}, "type": "Feature"}
{"dataset_attributes": {"@spider": "usps_collection_boxes", "spider:collection_time": "2023-11-28T08:25:58.546046"}, "geometry": {"coordinates": [-92.800140731, 42.399098277], "type": "Point"}, "id": "9_6MUEqV9TSvFHmSS6DCfPiW_40=", "properties": {"@spider": "usps_collection_boxes", "addr:city": "HOLLAND", "addr:country": "US", "addr:full": "104 MAIN ST", "addr:postcode": "50642", "addr:state": "IA", "amenity": "post_box", "brand": "United States Postal Service", "brand:wikidata": "Q668687", "collection_times": "Mo-Sa 16:00", "name": "USPS COLLECTION BOX - BLUE BOX", "note": "ON 12/24 AND 12/31, THIS BOX MAY BE COLLECTED AS EARLY AS 12 NOON.", "nsi_id": "unitedstatespostalservice-a77078", "operator": "United States Postal Service", "operator:short": "USPS", "operator:type": "public", "operator:wikidata": "Q668687", "ref": "5064200000"}, "type": "Feature"}
{"dataset_attributes": {"@spider": "usps_collection_boxes", "spider:collection_time": "2023-11-28T08:25:58.546046"}, "geometry": {"coordinates": [-92.800140731, 42.399098277], "type": "Point"}, "id": "3DSeezOygsPI7Tmm1RjUBGyAwuo=", "properties": {"@spider": "usps_collection_boxes", "addr:city": "HOLLAND", "addr:country": "US", "addr:full": "104 MAIN ST", "addr:postcode": "50642", "addr:state": "IA", "amenity": "post_box", "brand": "United States Postal Service", "brand:wikidata": "Q668687", "collection_times": "Mo-Fr 11:45; Sa 11:15", "name": "USPS COLLECTION BOX - PO LOBBY", "nsi_id": "unitedstatespostalservice-a77078", "operator": "United States Postal Service", "operator:short": "USPS", "operator:type": "public", "operator:wikidata": "Q668687", "ref": "5064200001"}, "type": "Feature"}
{"dataset_attributes": {"@spider": "usps_collection_boxes", "spider:collection_time": "2023-11-28T08:25:58.546046"}, "geometry": {"coordinates": [-92.800140731, 42.399098277], "type": "Point"}, "id": "J2w2j47uv6xtUFWCX36nmswdatY=", "properties": {"@spider": "usps_collection_boxes", "addr:city": "HOLLAND", "addr:country": "US", "addr:full": "104 MAIN ST", "addr:postcode": "50642", "addr:state": "IA", "amenity": "post_box", "brand": "United States Postal Service", "brand:wikidata": "Q668687", "collection_times": "Mo-Fr 12:00; Sa 11:30", "name": "USPS COLLECTION BOX - PO LOBBY", "nsi_id": "unitedstatespostalservice-a77078", "operator": "United States Postal Service", "operator:short": "USPS", "operator:type": "public", "operator:wikidata": "Q668687", "ref": "5064200002"}, "type": "Feature"}
{"dataset_attributes": {"@spider": "usps_collection_boxes", "spider:collection_time": "2023-11-28T08:25:58.546046"}, "geometry": {"coordinates": [-92.455451202, 42.405848969], "type": "Point"}, "id": "eGIlu2xCCdT-55Q6h5c2mPzuxjc=", "properties": {"@spider": "usps_collection_boxes", "addr:city": "HUDSON", "addr:country": "US", "addr:full": "410 JEFFERSON ST", "addr:postcode": "50643", "addr:state": "IA", "amenity": "post_box", "brand": "United States Postal Service", "brand:wikidata": "Q668687", "collection_times": "Mo-Fr 16:00; Sa 17:30", "name": "USPS COLLECTION BOX - BLUE BOX", "note": "ON 12/24 AND 12/31, THIS BOX MAY BE COLLECTED AS EARLY AS 12 NOON.", "nsi_id": "unitedstatespostalservice-a77078", "operator": "United States Postal Service", "operator:short": "USPS", "operator:type": "public", "operator:wikidata": "Q668687", "ref": "5064300001"}, "type": "Feature"}
{"dataset_attributes": {"@spider": "usps_collection_boxes", "spider:collection_time": "2023-11-28T08:25:58.546046"}, "geometry": {"coordinates": [-92.455451202, 42.405848969], "type": "Point"}, "id": "UfJBQXjAa2t8_Q9Vo2q-B4opVnI=", "properties": {"@spider": "usps_collection_boxes", "addr:city": "HUDSON", "addr:country": "US", "addr:full": "410 JEFFERSON ST", "addr:postcode": "50643", "addr:state": "IA", "amenity": "post_box", "brand": "United States Postal Service", "brand:wikidata": "Q668687", "collection_times": "Mo-Fr 16:00", "name": "USPS COLLECTION BOX - PO LOBBY", "note": "ON 12/24 AND 12/31, THIS BOX MAY BE COLLECTED AS EARLY AS 12 NOON.", "nsi_id": "unitedstatespostalservice-a77078", "operator": "United States Postal Service", "operator:short": "USPS", "operator:type": "public", "operator:wikidata": "Q668687", "ref": "5064300004"}, "type": "Feature"}
{"dataset_attributes": {"@spider": "usps_collection_boxes", "spider:collection_time": "2023-11-28T08:25:58.546046"}, "geometry": {"coordinates": [-92.455451202, 42.405848969], "type": "Point"}, "id": "SUPyIaplMPgIfwFnoXxVaPcGlYM=", "properties": {"@spider": "usps_collection_boxes", "addr:city": "HUDSON", "addr:country": "US", "addr:full": "410 JEFFERSON ST", "addr:postcode": "50643", "addr:state": "IA", "amenity": "post_box", "brand": "United States Postal Service", "brand:wikidata": "Q668687", "collection_times": "Mo-Fr 16:00; Sa 10:00", "name": "USPS COLLECTION BOX - PO LOBBY", "note": "ON 12/24 AND 12/31, THIS BOX MAY BE COLLECTED AS EARLY AS 12 NOON.", "nsi_id": "unitedstatespostalservice-a77078", "operator": "United States Postal Service", "operator:short": "USPS", "operator:type": "public", "operator:wikidata": "Q668687", "ref": "5064300005"}, "type": "Feature"}
{"dataset_attributes": {"@spider": "usps_collection_boxes", "spider:collection_time": "2023-11-28T08:25:58.546046"}, "geometry": {"coordinates": [-91.892853974, 42.4697685], "type": "Point"}, "id": "ahb1he2B11XWgk34fTWxySVnKi8=", "properties": {"@spider": "usps_collection_boxes", "addr:city": "INDEPENDENCE", "addr:country": "US", "addr:full": "205 2ND ST NE", "addr:postcode": "50644", "addr:state": "IA", "amenity": "post_box", "brand": "United States Postal Service", "brand:wikidata": "Q668687", "collection_times": "Mo-Fr 16:30; Sa 15:30", "name": "USPS COLLECTION BOX - BLUE BOX", "note": "ON 12/24 AND 12/31, THIS BOX MAY BE COLLECTED AS EARLY AS 12 NOON.", "nsi_id": "unitedstatespostalservice-a77078", "operator": "United States Postal Service", "operator:short": "USPS", "operator:type": "public", "operator:wikidata": "Q668687", "ref": "5064400000"}, "type": "Feature"}
{"dataset_attributes": {"@spider": "usps_collection_boxes", "spider:collection_time": "2023-11-28T08:25:58.546046"}, "geometry": {"coordinates": [-91.892853974, 42.4697685], "type": "Point"}, "id": "juemBwA2TfkVWWfHAunW5DAY5Yg=", "properties": {"@spider": "usps_collection_boxes", "addr:city": "INDEPENDENCE", "addr:country": "US", "addr:full": "205 2ND ST NE", "addr:postcode": "50644", "addr:state": "IA", "amenity": "post_box", "brand": "United States Postal Service", "brand:wikidata": "Q668687", "collection_times": "Mo-Fr 16:30; Sa 15:30", "name": "USPS COLLECTION BOX - BLUE BOX", "note": "ON 12/24 AND 12/31, THIS BOX MAY BE COLLECTED AS EARLY AS 12 NOON.", "nsi_id": "unitedstatespostalservice-a77078", "operator": "United States Postal Service", "operator:short": "USPS", "operator:type": "public", "operator:wikidata": "Q668687", "ref": "5064400001"}, "type": "Feature"}
{"dataset_attributes": {"@spider": "usps_collection_boxes", "spider:collection_time": "2023-11-28T08:25:58.546046"}, "geometry": {"coordinates": [-91.892853974, 42.4697685], "type": "Point"}, "id": "Ro9WDBnkEGUfWa8C0uafBnrwDFg=", "properties": {"@spider": "usps_collection_boxes", "addr:city": "INDEPENDENCE", "addr:country": "US", "addr:full": "205 2ND ST NE", "addr:postcode": "50644", "addr:state": "IA", "amenity": "post_box", "brand": "United States Postal Service", "brand:wikidata": "Q668687", "collection_times": "Mo-Fr 16:30; Sa 15:30", "name": "USPS COLLECTION BOX - BLUE BOX", "note": "ON 12/24 AND 12/31, THIS BOX MAY BE COLLECTED AS EARLY AS 12 NOON.", "nsi_id": "unitedstatespostalservice-a77078", "operator": "United States Postal Service", "operator:short": "USPS", "operator:type": "public", "operator:wikidata": "Q668687", "ref": "5064400005"}, "type": "Feature"}
{"dataset_attributes": {"@spider": "usps_collection_boxes", "spider:collection_time": "2023-11-28T08:25:58.546046"}, "geometry": {"coordinates": [-91.8885920252, 42.4702869926], "type": "Point"}, "id": "75BpBGCNeb_1xh9nDxOPfpXqYRY=", "properties": {"@spider": "usps_collection_boxes", "addr:city": "INDEPENDENCE", "addr:country": "US", "addr:full": "210 5TH AVE NE", "addr:postcode": "50644", "addr:state": "IA", "amenity": "post_box", "brand": "United States Postal Service", "brand:wikidata": "Q668687", "collection_times": "Mo-Fr 14:30", "name": "USPS COLLECTION BOX - BLUE BOX", "note": "ON 12/24 AND 12/31, THIS BOX MAY BE COLLECTED AS EARLY AS 12 NOON.", "nsi_id": "unitedstatespostalservice-a77078", "operator": "United States Postal Service", "operator:short": "USPS", "operator:type": "public", "operator:wikidata": "Q668687", "ref": "5064400011"}, "type": "Feature"}
{"dataset_attributes": {"@spider": "usps_collection_boxes", "spider:collection_time": "2023-11-28T08:25:58.546046"}, "geometry": {"coordinates": [-91.893235262, 42.470028], "type": "Point"}, "id": "WTb7I-QA9FEEPKcdn2M4Nm_hmXE=", "properties": {"@spider": "usps_collection_boxes", "addr:city": "INDEPENDENCE", "addr:country": "US", "addr:full": "200 2ND AVE NE", "addr:postcode": "50644", "addr:state": "IA", "amenity": "post_box", "brand": "United States Postal Service", "brand:wikidata": "Q668687", "collection_times": "Mo-Fr 16:30; Sa 10:00", "name": "USPS COLLECTION BOX - PO LOBBY", "note": "ON 12/24 AND 12/31, THIS BOX MAY BE COLLECTED AS EARLY AS 12 NOON.", "nsi_id": "unitedstatespostalservice-a77078", "operator": "United States Postal Service", "operator:short": "USPS", "operator:type": "public", "operator:wikidata": "Q668687", "ref": "5064400012"}, "type": "Feature"}
{"dataset_attributes": {"@spider": "usps_collection_boxes", "spider:collection_time": "2023-11-28T08:25:58.546046"}, "geometry": {"coordinates": [-91.893328854, 42.469891121], "type": "Point"}, "id": "HibCrkG3ood98Ni55jqARyQx0gc=", "properties": {"@spider": "usps_collection_boxes", "addr:city": "INDEPENDENCE", "addr:country": "US", "addr:full": "205 2ND AVE NE", "addr:postcode": "50644", "addr:state": "IA", "amenity": "post_box", "brand": "United States Postal Service", "brand:wikidata": "Q668687", "collection_times": "Mo-Fr 16:30; Sa 08:00", "name": "USPS COLLECTION BOX - PO LOBBY", "note": "ON 12/24 AND 12/31, THIS BOX MAY BE COLLECTED AS EARLY AS 12 NOON.", "nsi_id": "unitedstatespostalservice-a77078", "operator": "United States Postal Service", "operator:short": "USPS", "operator:type": "public", "operator:wikidata": "Q668687", "ref": "5064400013"}, "type": "Feature"}
{"dataset_attributes": {"@spider": "usps_collection_boxes", "spider:collection_time": "2023-11-28T08:25:58.546046"}, "geometry": {"coordinates": [-92.457471982, 43.034075453], "type": "Point"}, "id": "cYr0gJkY8nwuFV6jXARa8LsGFOg=", "properties": {"@spider": "usps_collection_boxes", "addr:city": "IONIA", "addr:country": "US", "addr:full": "203 W MAIN ST", "addr:postcode": "50645", "addr:state": "IA", "amenity": "post_box", "brand": "United States Postal Service", "brand:wikidata": "Q668687", "collection_times": "Mo-Sa 16:30", "name": "USPS COLLECTION BOX - BLUE BOX", "note": "ON 12/24 AND 12/31, THIS BOX MAY BE COLLECTED AS EARLY AS 12 NOON.", "nsi_id": "unitedstatespostalservice-a77078", "operator": "United States Postal Service", "operator:short": "USPS", "operator:type": "public", "operator:wikidata": "Q668687", "ref": "5064500000"}, "type": "Feature"}
{"dataset_attributes": {"@spider": "usps_collection_boxes", "spider:collection_time": "2023-11-28T08:25:58.546046"}, "geometry": {"coordinates": [-92.46302271, 42.646148801], "type": "Point"}, "id": "1I9qLFpzSnw5k5MLlwyakp0e_3g=", "properties": {"@spider": "usps_collection_boxes", "addr:city": "JANESVILLE", "addr:country": "US", "addr:full": "401 MAIN ST", "addr:postcode": "50647", "addr:state": "IA", "amenity": "post_box", "brand": "United States Postal Service", "brand:wikidata": "Q668687", "collection_times": "Mo-Fr 17:15; Sa 17:30", "name": "USPS COLLECTION BOX - BLUE BOX", "note": "ON 12/24 AND 12/31, THIS BOX MAY BE COLLECTED AS EARLY AS 12 NOON.", "nsi_id": "unitedstatespostalservice-a77078", "operator": "United States Postal Service", "operator:short": "USPS", "operator:type": "public", "operator:wikidata": "Q668687", "ref": "5064700000"}, "type": "Feature"}
{"dataset_attributes": {"@spider": "usps_collection_boxes", "spider:collection_time": "2023-11-28T08:25:58.546046"}, "geometry": {"coordinates": [-92.46302271, 42.646148801], "type": "Point"}, "id": "ghm-pC3s3a9Li19feP1lIMnQ-o4=", "properties": {"@spider": "usps_collection_boxes", "addr:city": "JANESVILLE", "addr:country": "US", "addr:full": "401 MAIN ST", "addr:postcode": "50647", "addr:state": "IA", "amenity": "post_box", "brand": "United States Postal Service", "brand:wikidata": "Q668687", "collection_times": "Mo-Fr 17:15; Sa 10:00", "name": "USPS COLLECTION BOX - PO LOBBY", "note": "ON 12/24 AND 12/31, THIS BOX MAY BE COLLECTED AS EARLY AS 12 NOON.", "nsi_id": "unitedstatespostalservice-a77078", "operator": "United States Postal Service", "operator:short": "USPS", "operator:type": "public", "operator:wikidata": "Q668687", "ref": "5064700001"}, "type": "Feature"}
{"dataset_attributes": {"@spider": "usps_collection_boxes", "spider:collection_time": "2023-11-28T08:25:58.546046"}, "geometry": {"coordinates": [-92.46302271, 42.646148801], "type": "Point"}, "id": "ogwxBdkU1R0j5K0LElZLlbD7T3Q=", "properties": {"@spider": "usps_collection_boxes", "addr:city": "JANESVILLE", "addr:country": "US", "addr:full": "401 MAIN ST", "addr:postcode": "50647", "addr:state": "IA", "amenity": "post_box", "brand": "United States Postal Service", "brand:wikidata": "Q668687", "collection_times": "Mo-Fr 17:00; Sa 08:00", "name": "USPS COLLECTION BOX - PO LOBBY", "note": "ON 12/24 AND 12/31, THIS BOX MAY BE COLLECTED AS EARLY AS 12 NOON.", "nsi_id": "unitedstatespostalservice-a77078", "operator": "United States Postal Service", "operator:short": "USPS", "operator:type": "public", "operator:wikidata": "Q668687", "ref": "5064700002"}, "type": "Feature"}
{"dataset_attributes": {"@spider": "usps_collection_boxes", "spider:collection_time": "2023-11-28T08:25:58.546046"}, "geometry": {"coordinates": [-92.061152824, 42.47513187], "type": "Point"}, "id": "UUJHk8lk__IYAhDxa1d_lFsv_DY=", "properties": {"@spider": "usps_collection_boxes", "addr:city": "JESUP", "addr:country": "US", "addr:full": "811 MAIN ST", "addr:postcode": "50648", "addr:state": "IA", "amenity": "post_box", "brand": "United States Postal Service", "brand:wikidata": "Q668687", "collection_times": "Mo-Sa 16:00", "name": "USPS COLLECTION BOX - BLUE BOX", "note": "ON 12/24 AND 12/31, THIS BOX MAY BE COLLECTED AS EARLY AS 12 NOON.", "nsi_id": "unitedstatespostalservice-a77078", "operator": "United States Postal Service", "operator:short": "USPS", "operator:type": "public", "operator:wikidata": "Q668687", "ref": "5064800000"}, "type": "Feature"}
{"dataset_attributes": {"@spider": "usps_collection_boxes", "spider:collection_time": "2023-11-28T08:25:58.546046"}, "geometry": {"coordinates": [-92.061152824, 42.47513187], "type": "Point"}, "id": "0AyZU6jsMKusPaL-z9Nnwk1dEws=", "properties": {"@spider": "usps_collection_boxes", "addr:city": "JESUP", "addr:country": "US", "addr:full": "811 MAIN ST", "addr:postcode": "50648", "addr:state": "IA", "amenity": "post_box", "brand": "United States Postal Service", "brand:wikidata": "Q668687", "collection_times": "Mo-Fr 16:00; Sa 08:30", "name": "USPS COLLECTION BOX - PO LOBBY", "note": "ON 12/24 AND 12/31, THIS BOX MAY BE COLLECTED AS EARLY AS 12 NOON.", "nsi_id": "unitedstatespostalservice-a77078", "operator": "United States Postal Service", "operator:short": "USPS", "operator:type": "public", "operator:wikidata": "Q668687", "ref": "5064800002"}, "type": "Feature"}
{"dataset_attributes": {"@spider": "usps_collection_boxes", "spider:collection_time": "2023-11-28T08:25:58.546046"}, "geometry": {"coordinates": [-92.061152824, 42.47513187], "type": "Point"}, "id": "dNlX98o6fJsT7wX1GFyGqS_pIyw=", "properties": {"@spider": "usps_collection_boxes", "addr:city": "JESUP", "addr:country": "US", "addr:full": "811 MAIN ST", "addr:postcode": "50648", "addr:state": "IA", "amenity": "post_box", "brand": "United States Postal Service", "brand:wikidata": "Q668687", "collection_times": "Mo-Fr 16:00; Sa 08:00", "name": "USPS COLLECTION BOX - PO LOBBY", "note": "ON 12/24 AND 12/31, THIS BOX MAY BE COLLECTED AS EARLY AS 12 NOON.", "nsi_id": "unitedstatespostalservice-a77078", "operator": "United States Postal Service", "operator:short": "USPS", "operator:type": "public", "operator:wikidata": "Q668687", "ref": "5064800003"}, "type": "Feature"}
{"dataset_attributes": {"@spider": "usps_collection_boxes", "spider:collection_time": "2023-11-28T08:25:58.546046"}, "geometry": {"coordinates": [-92.9099115, 42.662463504], "type": "Point"}, "id": "TB9hpqbjuT4B_yNRYF0I8yZuk5g=", "properties": {"@spider": "usps_collection_boxes", "addr:city": "KESLEY", "addr:country": "US", "addr:full": "15823 MAIN ST", "addr:postcode": "50649", "addr:state": "IA", "amenity": "post_box", "brand": "United States Postal Service", "brand:wikidata": "Q668687", "collection_times": "Mo-Sa 10:30", "name": "USPS COLLECTION BOX - BLUE BOX", "nsi_id": "unitedstatespostalservice-a77078", "operator": "United States Postal Service", "operator:short": "USPS", "operator:type": "public", "operator:wikidata": "Q668687", "ref": "5064900000"}, "type": "Feature"}
{"dataset_attributes": {"@spider": "usps_collection_boxes", "spider:collection_time": "2023-11-28T08:25:58.546046"}, "geometry": {"coordinates": [-91.641824594, 42.598851838], "type": "Point"}, "id": "OoF4SG03n5QBuneFTQytLE7OEZs=", "properties": {"@spider": "usps_collection_boxes", "addr:city": "LAMONT", "addr:country": "US", "addr:full": "620 BUSH ST", "addr:postcode": "50650", "addr:state": "IA", "amenity": "post_box", "brand": "United States Postal Service", "brand:wikidata": "Q668687", "collection_times": "Mo-Fr 16:00; Sa 16:30", "name": "USPS COLLECTION BOX - BLUE BOX", "note": "ON 12/24 AND 12/31, THIS BOX MAY BE COLLECTED AS EARLY AS 12 NOON.", "nsi_id": "unitedstatespostalservice-a77078", "operator": "United States Postal Service", "operator:short": "USPS", "operator:type": "public", "operator:wikidata": "Q668687", "ref": "5065000000"}, "type": "Feature"}
{"dataset_attributes": {"@spider": "usps_collection_boxes", "spider:collection_time": "2023-11-28T08:25:58.546046"}, "geometry": {"coordinates": [-91.641824594, 42.598851838], "type": "Point"}, "id": "0e98WamtXfJ4SSjMJ0aAlxoxcig=", "properties": {"@spider": "usps_collection_boxes", "addr:city": "LAMONT", "addr:country": "US", "addr:full": "620 BUSH ST", "addr:postcode": "50650", "addr:state": "IA", "amenity": "post_box", "brand": "United States Postal Service", "brand:wikidata": "Q668687", "collection_times": "Mo-Fr 15:15; Sa 08:15", "name": "USPS COLLECTION BOX - PO LOBBY", "note": "ON 12/24 AND 12/31, THIS BOX MAY BE COLLECTED AS EARLY AS 12 NOON.", "nsi_id": "unitedstatespostalservice-a77078", "operator": "United States Postal Service", "operator:short": "USPS", "operator:type": "public", "operator:wikidata": "Q668687", "ref": "5065000001"}, "type": "Feature"}
{"dataset_attributes": {"@spider": "usps_collection_boxes", "spider:collection_time": "2023-11-28T08:25:58.546046"}, "geometry": {"coordinates": [-91.641824594, 42.598851838], "type": "Point"}, "id": "SGqp-dQnSGhZXXMWL1Uz-4s2kV8=", "properties": {"@spider": "usps_collection_boxes", "addr:city": "LAMONT", "addr:country": "US", "addr:full": "620 BUSH ST", "addr:postcode": "50650", "addr:state": "IA", "amenity": "post_box", "brand": "United States Postal Service", "brand:wikidata": "Q668687", "collection_times": "Mo-Fr 15:30; Sa 08:30", "name": "USPS COLLECTION BOX - PO LOBBY", "note": "ON 12/24 AND 12/31, THIS BOX MAY BE COLLECTED AS EARLY AS 12 NOON.", "nsi_id": "unitedstatespostalservice-a77078", "operator": "United States Postal Service", "operator:short": "USPS", "operator:type": "public", "operator:wikidata": "Q668687", "ref": "5065000002"}, "type": "Feature"}
{"dataset_attributes": {"@spider": "usps_collection_boxes", "spider:collection_time": "2023-11-28T08:25:58.546046"}, "geometry": {"coordinates": [-92.191549203, 42.31368746], "type": "Point"}, "id": "FKY-KQfNFpDAZLZDCOqvdZVdpUc=", "properties": {"@spider": "usps_collection_boxes", "addr:city": "LA PORTE CITY", "addr:country": "US", "addr:full": "408 CHESTNUT ST", "addr:postcode": "50651", "addr:state": "IA", "amenity": "post_box", "brand": "United States Postal Service", "brand:wikidata": "Q668687", "collection_times": "Mo-Fr 16:45; Sa 16:30", "name": "USPS COLLECTION BOX - BLUE BOX", "note": "ON 12/24 AND 12/31, THIS BOX MAY BE COLLECTED AS EARLY AS 12 NOON.", "nsi_id": "unitedstatespostalservice-a77078", "operator": "United States Postal Service", "operator:short": "USPS", "operator:type": "public", "operator:wikidata": "Q668687", "ref": "5065100000"}, "type": "Feature"}
{"dataset_attributes": {"@spider": "usps_collection_boxes", "spider:collection_time": "2023-11-28T08:25:58.546046"}, "geometry": {"coordinates": [-92.191549203, 42.31368746], "type": "Point"}, "id": "AtUqrkrzFFdvtwBZwTXncqYEy54=", "properties": {"@spider": "usps_collection_boxes", "addr:city": "LA PORTE CITY", "addr:country": "US", "addr:full": "408 CHESTNUT ST", "addr:postcode": "50651", "addr:state": "IA", "amenity": "post_box", "brand": "United States Postal Service", "brand:wikidata": "Q668687", "collection_times": "Mo-Fr 16:45", "name": "USPS COLLECTION BOX - PO LOBBY", "note": "ON 12/24 AND 12/31, THIS BOX MAY BE COLLECTED AS EARLY AS 12 NOON.", "nsi_id": "unitedstatespostalservice-a77078", "operator": "United States Postal Service", "operator:short": "USPS", "operator:type": "public", "operator:wikidata": "Q668687", "ref": "5065100003"}, "type": "Feature"}
{"dataset_attributes": {"@spider": "usps_collection_boxes", "spider:collection_time": "2023-11-28T08:25:58.546046"}, "geometry": {"coordinates": [-92.191549203, 42.31368746], "type": "Point"}, "id": "OcZGsEeueRVv_UZqrZc2wMQsEhs=", "properties": {"@spider": "usps_collection_boxes", "addr:city": "LA PORTE CITY", "addr:country": "US", "addr:full": "408 CHESTNUT ST", "addr:postcode": "50651", "addr:state": "IA", "amenity": "post_box", "brand": "United States Postal Service", "brand:wikidata": "Q668687", "collection_times": "Mo-Fr 16:30; Sa 08:00", "name": "USPS COLLECTION BOX - PO LOBBY", "note": "ON 12/24 AND 12/31, THIS BOX MAY BE COLLECTED AS EARLY AS 12 NOON.", "nsi_id": "unitedstatespostalservice-a77078", "operator": "United States Postal Service", "operator:short": "USPS", "operator:type": "public", "operator:wikidata": "Q668687", "ref": "5065100004"}, "type": "Feature"}
{"dataset_attributes": {"@spider": "usps_collection_boxes", "spider:collection_time": "2023-11-28T08:25:58.546046"}, "geometry": {"coordinates": [-92.691109949, 42.262930621], "type": "Point"}, "id": "I8KoHemJhTY_8s7TawHKZduNaxY=", "properties": {"@spider": "usps_collection_boxes", "addr:city": "LINCOLN", "addr:country": "US", "addr:full": "113 MAIN ST", "addr:postcode": "50652", "addr:state": "IA", "amenity": "post_box", "brand": "United States Postal Service", "brand:wikidata": "Q668687", "collection_times": "Mo-Sa 10:45", "name": "USPS COLLECTION BOX - PO LOBBY", "nsi_id": "unitedstatespostalservice-a77078", "operator": "United States Postal Service", "operator:short": "USPS", "operator:type": "public", "operator:wikidata": "Q668687", "ref": "5065200000"}, "type": "Feature"}
{"dataset_attributes": {"@spider": "usps_collection_boxes", "spider:collection_time": "2023-11-28T08:25:58.546046"}, "geometry": {"coordinates": [-92.691109949, 42.262930621], "type": "Point"}, "id": "np3GkhkTI_rk9yLjEjgaDfbuIK8=", "properties": {"@spider": "usps_collection_boxes", "addr:city": "LINCOLN", "addr:country": "US", "addr:full": "113 MAIN ST", "addr:postcode": "50652", "addr:state": "IA", "amenity": "post_box", "brand": "United States Postal Service", "brand:wikidata": "Q668687", "collection_times": "Mo-Fr 15:45; Sa 16:00", "name": "USPS COLLECTION BOX - BLUE BOX", "note": "ON 12/24 AND 12/31, THIS BOX MAY BE COLLECTED AS EARLY AS 12 NOON.", "nsi_id": "unitedstatespostalservice-a77078", "operator": "United States Postal Service", "operator:short": "USPS", "operator:type": "public", "operator:wikidata": "Q668687", "ref": "5065200001"}, "type": "Feature"}
{"dataset_attributes": {"@spider": "usps_collection_boxes", "spider:collection_time": "2023-11-28T08:25:58.546046"}, "geometry": {"coordinates": [-92.691109949, 42.262930621], "type": "Point"}, "id": "EV9RaZmiFkxylD-ydx72NrJWiuk=", "properties": {"@spider": "usps_collection_boxes", "addr:city": "LINCOLN", "addr:country": "US", "addr:full": "113 MAIN ST", "addr:postcode": "50652", "addr:state": "IA", "amenity": "post_box", "brand": "United States Postal Service", "brand:wikidata": "Q668687", "collection_times": "Mo-Sa 11:00", "name": "USPS COLLECTION BOX - PO LOBBY", "nsi_id": "unitedstatespostalservice-a77078", "operator": "United States Postal Service", "operator:short": "USPS", "operator:type": "public", "operator:wikidata": "Q668687", "ref": "5065200002"}, "type": "Feature"}
{"dataset_attributes": {"@spider": "usps_collection_boxes", "spider:collection_time": "2023-11-28T08:25:58.546046"}, "geometry": {"coordinates": [-92.868439577, 42.964677], "type": "Point"}, "id": "7i-S8UvfotndrW8eQj6ACfVNQ6s=", "properties": {"@spider": "usps_collection_boxes", "addr:city": "MARBLE ROCK", "addr:country": "US", "addr:full": "109 S MAIN ST", "addr:postcode": "50653", "addr:state": "IA", "amenity": "post_box", "brand": "United States Postal Service", "brand:wikidata": "Q668687", "collection_times": "Mo-Sa 15:30", "name": "USPS COLLECTION BOX - BLUE BOX", "note": "ON 12/24 AND 12/31, THIS BOX MAY BE COLLECTED AS EARLY AS 12 NOON.", "nsi_id": "unitedstatespostalservice-a77078", "operator": "United States Postal Service", "operator:short": "USPS", "operator:type": "public", "operator:wikidata": "Q668687", "ref": "5065300000"}, "type": "Feature"}
{"dataset_attributes": {"@spider": "usps_collection_boxes", "spider:collection_time": "2023-11-28T08:25:58.546046"}, "geometry": {"coordinates": [-92.868439577, 42.964677], "type": "Point"}, "id": "XZr1ZEYxgJda_mwGICT0uQA91BU=", "properties": {"@spider": "usps_collection_boxes", "addr:city": "MARBLE ROCK", "addr:country": "US", "addr:full": "109 S MAIN ST", "addr:postcode": "50653", "addr:state": "IA", "amenity": "post_box", "brand": "United States Postal Service", "brand:wikidata": "Q668687", "collection_times": "Mo-Fr 11:45; Sa 08:45", "name": "USPS COLLECTION BOX - PO LOBBY", "nsi_id": "unitedstatespostalservice-a77078", "operator": "United States Postal Service", "operator:short": "USPS", "operator:type": "public", "operator:wikidata": "Q668687", "ref": "5065300001"}, "type": "Feature"}
{"dataset_attributes": {"@spider": "usps_collection_boxes", "spider:collection_time": "2023-11-28T08:25:58.546046"}, "geometry": {"coordinates": [-92.868439577, 42.964677], "type": "Point"}, "id": "0Yt02imG0e1JJmzEnmElcEEUsQ8=", "properties": {"@spider": "usps_collection_boxes", "addr:city": "MARBLE ROCK", "addr:country": "US", "addr:full": "109 S MAIN ST", "addr:postcode": "50653", "addr:state": "IA", "amenity": "post_box", "brand": "United States Postal Service", "brand:wikidata": "Q668687", "collection_times": "Mo-Fr 12:00; Sa 09:00", "name": "USPS COLLECTION BOX - PO LOBBY", "nsi_id": "unitedstatespostalservice-a77078", "operator": "United States Postal Service", "operator:short": "USPS", "operator:type": "public", "operator:wikidata": "Q668687", "ref": "5065300002"}, "type": "Feature"}
{"dataset_attributes": {"@spider": "usps_collection_boxes", "spider:collection_time": "2023-11-28T08:25:58.546046"}, "geometry": {"coordinates": [-91.591276345, 42.479800879], "type": "Point"}, "id": "HBLiO25mAbnGLxDoB27PqnhSB44=", "properties": {"@spider": "usps_collection_boxes", "addr:city": "MASONVILLE", "addr:country": "US", "addr:full": "504 BARRETT ST", "addr:postcode": "50654", "addr:state": "IA", "amenity": "post_box", "brand": "United States Postal Service", "brand:wikidata": "Q668687", "collection_times": "Mo-Fr 16:15; Sa 16:30", "name": "USPS COLLECTION BOX - BLUE BOX", "note": "ON 12/24 AND 12/31, THIS BOX MAY BE COLLECTED AS EARLY AS 12 NOON.", "nsi_id": "unitedstatespostalservice-a77078", "operator": "United States Postal Service", "operator:short": "USPS", "operator:type": "public", "operator:wikidata": "Q668687", "ref": "5065400000"}, "type": "Feature"}
{"dataset_attributes": {"@spider": "usps_collection_boxes", "spider:collection_time": "2023-11-28T08:25:58.546046"}, "geometry": {"coordinates": [-91.591276345, 42.479800879], "type": "Point"}, "id": "aBulB5sveNwFhAkJv6ePH3jHOQk=", "properties": {"@spider": "usps_collection_boxes", "addr:city": "MASONVILLE", "addr:country": "US", "addr:full": "504 BARRETT ST", "addr:postcode": "50654", "addr:state": "IA", "amenity": "post_box", "brand": "United States Postal Service", "brand:wikidata": "Q668687", "collection_times": "Mo-Fr 16:15; Sa 12:30", "name": "USPS COLLECTION BOX - PO LOBBY", "note": "ON 12/24 AND 12/31, THIS BOX MAY BE COLLECTED AS EARLY AS 12 NOON.", "nsi_id": "unitedstatespostalservice-a77078", "operator": "United States Postal Service", "operator:short": "USPS", "operator:type": "public", "operator:wikidata": "Q668687", "ref": "5065400001"}, "type": "Feature"}
{"dataset_attributes": {"@spider": "usps_collection_boxes", "spider:collection_time": "2023-11-28T08:25:58.546046"}, "geometry": {"coordinates": [-91.591276345, 42.479800879], "type": "Point"}, "id": "yp-aiG7ygElJUJoPYjPiuCdHVes=", "properties": {"@spider": "usps_collection_boxes", "addr:city": "MASONVILLE", "addr:country": "US", "addr:full": "504 BARRETT ST", "addr:postcode": "50654", "addr:state": "IA", "amenity": "post_box", "brand": "United States Postal Service", "brand:wikidata": "Q668687", "collection_times": "Mo-Fr 16:00; Sa 12:45", "name": "USPS COLLECTION BOX - PO LOBBY", "note": "ON 12/24 AND 12/31, THIS BOX MAY BE COLLECTED AS EARLY AS 12 NOON.", "nsi_id": "unitedstatespostalservice-a77078", "operator": "United States Postal Service", "operator:short": "USPS", "operator:type": "public", "operator:wikidata": "Q668687", "ref": "5065400002"}, "type": "Feature"}
{"dataset_attributes": {"@spider": "usps_collection_boxes", "spider:collection_time": "2023-11-28T08:25:58.546046"}, "geometry": {"coordinates": [-91.879973832, 42.773818528], "type": "Point"}, "id": "uWrNSlDTWMoKpEtnk3hj2E5qx7I=", "properties": {"@spider": "usps_collection_boxes", "addr:city": "MAYNARD", "addr:country": "US", "addr:full": "255 MAIN ST W", "addr:postcode": "50655", "addr:state": "IA", "amenity": "post_box", "brand": "United States Postal Service", "brand:wikidata": "Q668687", "collection_times": "Mo-Fr 16:45; Sa 16:15", "name": "USPS COLLECTION BOX - BLUE BOX", "note": "ON 12/24 AND 12/31, THIS BOX MAY BE COLLECTED AS EARLY AS 12 NOON.", "nsi_id": "unitedstatespostalservice-a77078", "operator": "United States Postal Service", "operator:short": "USPS", "operator:type": "public", "operator:wikidata": "Q668687", "ref": "5065500000"}, "type": "Feature"}
{"dataset_attributes": {"@spider": "usps_collection_boxes", "spider:collection_time": "2023-11-28T08:25:58.546046"}, "geometry": {"coordinates": [-91.879973832, 42.773818528], "type": "Point"}, "id": "Ki4ZyVOSfFJgFBbWn2bVpVzxp94=", "properties": {"@spider": "usps_collection_boxes", "addr:city": "MAYNARD", "addr:country": "US", "addr:full": "255 MAIN ST W", "addr:postcode": "50655", "addr:state": "IA", "amenity": "post_box", "brand": "United States Postal Service", "brand:wikidata": "Q668687", "collection_times": "Mo-Fr 15:15", "name": "USPS COLLECTION BOX - PO LOBBY", "note": "ON 12/24 AND 12/31, THIS BOX MAY BE COLLECTED AS EARLY AS 12 NOON.", "nsi_id": "unitedstatespostalservice-a77078", "operator": "United States Postal Service", "operator:short": "USPS", "operator:type": "public", "operator:wikidata": "Q668687", "ref": "5065500001"}, "type": "Feature"}
{"dataset_attributes": {"@spider": "usps_collection_boxes", "spider:collection_time": "2023-11-28T08:25:58.546046"}, "geometry": {"coordinates": [-91.879973832, 42.773818528], "type": "Point"}, "id": "pa7bk1hMkVmLO0b5eti_vrAvlQs=", "properties": {"@spider": "usps_collection_boxes", "addr:city": "MAYNARD", "addr:country": "US", "addr:full": "255 MAIN ST W", "addr:postcode": "50655", "addr:state": "IA", "amenity": "post_box", "brand": "United States Postal Service", "brand:wikidata": "Q668687", "collection_times": "Mo-Fr 14:30; Sa 08:00", "name": "USPS COLLECTION BOX - PO LOBBY", "note": "ON 12/24 AND 12/31, THIS BOX MAY BE COLLECTED AS EARLY AS 12 NOON.", "nsi_id": "unitedstatespostalservice-a77078", "operator": "United States Postal Service", "operator:short": "USPS", "operator:type": "public", "operator:wikidata": "Q668687", "ref": "5065500002"}, "type": "Feature"}
{"dataset_attributes": {"@spider": "usps_collection_boxes", "spider:collection_time": "2023-11-28T08:25:58.546046"}, "geometry": {"coordinates": [-92.536328523, 42.953129864], "type": "Point"}, "id": "Ns31bIEosNqVlsSRKl4vZVcblgw=", "properties": {"@spider": "usps_collection_boxes", "addr:city": "NASHUA", "addr:country": "US", "addr:full": "212 MAIN ST", "addr:postcode": "50658", "addr:state": "IA", "amenity": "post_box", "brand": "United States Postal Service", "brand:wikidata": "Q668687", "collection_times": "Mo-Fr 16:15; Sa 16:30", "name": "USPS COLLECTION BOX - BLUE BOX", "note": "ON 12/24 AND 12/31, THIS BOX MAY BE COLLECTED AS EARLY AS 12 NOON.", "nsi_id": "unitedstatespostalservice-a77078", "operator": "United States Postal Service", "operator:short": "USPS", "operator:type": "public", "operator:wikidata": "Q668687", "ref": "5065800000"}, "type": "Feature"}
{"dataset_attributes": {"@spider": "usps_collection_boxes", "spider:collection_time": "2023-11-28T08:25:58.546046"}, "geometry": {"coordinates": [-92.536328523, 42.953129864], "type": "Point"}, "id": "oAIeZ0qmQ-_pM06QGJugcyYXn6w=", "properties": {"@spider": "usps_collection_boxes", "addr:city": "NASHUA", "addr:country": "US", "addr:full": "212 MAIN ST", "addr:postcode": "50658", "addr:state": "IA", "amenity": "post_box", "brand": "United States Postal Service", "brand:wikidata": "Q668687", "collection_times": "Mo-Fr 16:15; Sa 08:30", "name": "USPS COLLECTION BOX - PO LOBBY", "note": "ON 12/24 AND 12/31, THIS BOX MAY BE COLLECTED AS EARLY AS 12 NOON.", "nsi_id": "unitedstatespostalservice-a77078", "operator": "United States Postal Service", "operator:short": "USPS", "operator:type": "public", "operator:wikidata": "Q668687", "ref": "5065800001"}, "type": "Feature"}
{"dataset_attributes": {"@spider": "usps_collection_boxes", "spider:collection_time": "2023-11-28T08:25:58.546046"}, "geometry": {"coordinates": [-92.536328523, 42.953129864], "type": "Point"}, "id": "vPgimVeYvX-YkRznIqgEPRylFLk=", "properties": {"@spider": "usps_collection_boxes", "addr:city": "NASHUA", "addr:country": "US", "addr:full": "212 MAIN ST", "addr:postcode": "50658", "addr:state": "IA", "amenity": "post_box", "brand": "United States Postal Service", "brand:wikidata": "Q668687", "collection_times": "Mo-Fr 16:00; Sa 08:00", "name": "USPS COLLECTION BOX - PO LOBBY", "note": "ON 12/24 AND 12/31, THIS BOX MAY BE COLLECTED AS EARLY AS 12 NOON.", "nsi_id": "unitedstatespostalservice-a77078", "operator": "United States Postal Service", "operator:short": "USPS", "operator:type": "public", "operator:wikidata": "Q668687", "ref": "5065800002"}, "type": "Feature"}
{"dataset_attributes": {"@spider": "usps_collection_boxes", "spider:collection_time": "2023-11-28T08:25:58.546046"}, "geometry": {"coordinates": [-92.315388624, 43.060293], "type": "Point"}, "id": "e8n1wAzcvBZB-L7SkUDIWPX4Q7c=", "properties": {"@spider": "usps_collection_boxes", "addr:city": "NEW HAMPTON", "addr:country": "US", "addr:full": "108 N CHESTNUT AVE", "addr:postcode": "50659", "addr:state": "IA", "amenity": "post_box", "brand": "United States Postal Service", "brand:wikidata": "Q668687", "collection_times": "Mo-Sa 17:00", "name": "USPS COLLECTION BOX - BLUE BOX", "note": "ON 12/24 AND 12/31, THIS BOX MAY BE COLLECTED AS EARLY AS 12 NOON.", "nsi_id": "unitedstatespostalservice-a77078", "operator": "United States Postal Service", "operator:short": "USPS", "operator:type": "public", "operator:wikidata": "Q668687", "ref": "5065900000"}, "type": "Feature"}
{"dataset_attributes": {"@spider": "usps_collection_boxes", "spider:collection_time": "2023-11-28T08:25:58.546046"}, "geometry": {"coordinates": [-92.315388624, 43.060293], "type": "Point"}, "id": "EnQvvGLRZl-fujGmlUeTbT_mVwE=", "properties": {"@spider": "usps_collection_boxes", "addr:city": "NEW HAMPTON", "addr:country": "US", "addr:full": "108 N CHESTNUT AVE", "addr:postcode": "50659", "addr:state": "IA", "amenity": "post_box", "brand": "United States Postal Service", "brand:wikidata": "Q668687", "collection_times": "Mo-Sa 17:00", "name": "USPS COLLECTION BOX - BLUE BOX", "note": "ON 12/24 AND 12/31, THIS BOX MAY BE COLLECTED AS EARLY AS 12 NOON.", "nsi_id": "unitedstatespostalservice-a77078", "operator": "United States Postal Service", "operator:short": "USPS", "operator:type": "public", "operator:wikidata": "Q668687", "ref": "5065900003"}, "type": "Feature"}
{"dataset_attributes": {"@spider": "usps_collection_boxes", "spider:collection_time": "2023-11-28T08:25:58.546046"}, "geometry": {"coordinates": [-92.315388624, 43.060293], "type": "Point"}, "id": "cxjLsUmK8NVWl5SGaHQ0dCpdGMI=", "properties": {"@spider": "usps_collection_boxes", "addr:city": "NEW HAMPTON", "addr:country": "US", "addr:full": "108 N CHESTNUT AVE", "addr:postcode": "50659", "addr:state": "IA", "amenity": "post_box", "brand": "United States Postal Service", "brand:wikidata": "Q668687", "collection_times": "Mo-Fr 17:15; Sa 10:30", "name": "USPS COLLECTION BOX - PO LOBBY", "note": "ON 12/24 AND 12/31, THIS BOX MAY BE COLLECTED AS EARLY AS 12 NOON.", "nsi_id": "unitedstatespostalservice-a77078", "operator": "United States Postal Service", "operator:short": "USPS", "operator:type": "public", "operator:wikidata": "Q668687", "ref": "5065900004"}, "type": "Feature"}
{"dataset_attributes": {"@spider": "usps_collection_boxes", "spider:collection_time": "2023-11-28T08:25:58.546046"}, "geometry": {"coordinates": [-92.315388624, 43.060293], "type": "Point"}, "id": "73jogJNr07YojDjSIe8UySvLg5g=", "properties": {"@spider": "usps_collection_boxes", "addr:city": "NEW HAMPTON", "addr:country": "US", "addr:full": "108 N CHESTNUT AVE", "addr:postcode": "50659", "addr:state": "IA", "amenity": "post_box", "brand": "United States Postal Service", "brand:wikidata": "Q668687", "collection_times": "Mo-Fr 16:30; Sa 08:00", "name": "USPS COLLECTION BOX - PO LOBBY", "note": "ON 12/24 AND 12/31, THIS BOX MAY BE COLLECTED AS EARLY AS 12 NOON.", "nsi_id": "unitedstatespostalservice-a77078", "operator": "United States Postal Service", "operator:short": "USPS", "operator:type": "public", "operator:wikidata": "Q668687", "ref": "5065900005"}, "type": "Feature"}
{"dataset_attributes": {"@spider": "usps_collection_boxes", "spider:collection_time": "2023-11-28T08:25:58.546046"}, "geometry": {"coordinates": [-92.622005718, 42.567588838], "type": "Point"}, "id": "kF2-CngVbWKh97kYZV6LpoquLgw=", "properties": {"@spider": "usps_collection_boxes", "addr:city": "NEW HARTFORD", "addr:country": "US", "addr:full": "403 PACKWAUKEE ST", "addr:postcode": "50660", "addr:state": "IA", "amenity": "post_box", "brand": "United States Postal Service", "brand:wikidata": "Q668687", "collection_times": "Mo-Fr 16:15; Sa 16:30", "name": "USPS COLLECTION BOX - BLUE BOX", "note": "ON 12/24 AND 12/31, THIS BOX MAY BE COLLECTED AS EARLY AS 12 NOON.", "nsi_id": "unitedstatespostalservice-a77078", "operator": "United States Postal Service", "operator:short": "USPS", "operator:type": "public", "operator:wikidata": "Q668687", "ref": "5066000000"}, "type": "Feature"}
{"dataset_attributes": {"@spider": "usps_collection_boxes", "spider:collection_time": "2023-11-28T08:25:58.546046"}, "geometry": {"coordinates": [-92.622005718, 42.567588838], "type": "Point"}, "id": "B5CmRXUhwJdNDgLLVS8gh6BYHnQ=", "properties": {"@spider": "usps_collection_boxes", "addr:city": "NEW HARTFORD", "addr:country": "US", "addr:full": "403 PACKWAUKEE ST", "addr:postcode": "50660", "addr:state": "IA", "amenity": "post_box", "brand": "United States Postal Service", "brand:wikidata": "Q668687", "collection_times": "Mo-Fr 15:45", "name": "USPS COLLECTION BOX - PO LOBBY", "note": "ON 12/24 AND 12/31, THIS BOX MAY BE COLLECTED AS EARLY AS 12 NOON.", "nsi_id": "unitedstatespostalservice-a77078", "operator": "United States Postal Service", "operator:short": "USPS", "operator:type": "public", "operator:wikidata": "Q668687", "ref": "5066000001"}, "type": "Feature"}
{"dataset_attributes": {"@spider": "usps_collection_boxes", "spider:collection_time": "2023-11-28T08:25:58.546046"}, "geometry": {"coordinates": [-92.622005718, 42.567588838], "type": "Point"}, "id": "J6JwysQD429AdP3U0TBAC5TBvgU=", "properties": {"@spider": "usps_collection_boxes", "addr:city": "NEW HARTFORD", "addr:country": "US", "addr:full": "403 PACKWAUKEE ST", "addr:postcode": "50660", "addr:state": "IA", "amenity": "post_box", "brand": "United States Postal Service", "brand:wikidata": "Q668687", "collection_times": "Mo-Fr 16:00; Sa 08:00", "name": "USPS COLLECTION BOX - PO LOBBY", "note": "ON 12/24 AND 12/31, THIS BOX MAY BE COLLECTED AS EARLY AS 12 NOON.", "nsi_id": "unitedstatespostalservice-a77078", "operator": "United States Postal Service", "operator:short": "USPS", "operator:type": "public", "operator:wikidata": "Q668687", "ref": "5066000002"}, "type": "Feature"}
{"dataset_attributes": {"@spider": "usps_collection_boxes", "spider:collection_time": "2023-11-28T08:25:58.546046"}, "geometry": {"coordinates": [-91.911999308, 42.679593356], "type": "Point"}, "id": "uxBp41_cvDA-LZj1TRzi75EWf1s=", "properties": {"@spider": "usps_collection_boxes", "addr:city": "OELWEIN", "addr:country": "US", "addr:full": "30 1ST AVE NE", "addr:postcode": "50662", "addr:state": "IA", "amenity": "post_box", "brand": "United States Postal Service", "brand:wikidata": "Q668687", "collection_times": "Mo-Fr 17:00; Sa 15:30", "name": "USPS COLLECTION BOX - BLUE BOX", "note": "ON 12/24 AND 12/31, THIS BOX MAY BE COLLECTED AS EARLY AS 12 NOON.", "nsi_id": "unitedstatespostalservice-a77078", "operator": "United States Postal Service", "operator:short": "USPS", "operator:type": "public", "operator:wikidata": "Q668687", "ref": "5066200011"}, "type": "Feature"}
{"dataset_attributes": {"@spider": "usps_collection_boxes", "spider:collection_time": "2023-11-28T08:25:58.546046"}, "geometry": {"coordinates": [-91.911999308, 42.679593356], "type": "Point"}, "id": "uU5tkAs-vvkhSlft2xK-bFIXOLU=", "properties": {"@spider": "usps_collection_boxes", "addr:city": "OELWEIN", "addr:country": "US", "addr:full": "30 1ST AVE NE", "addr:postcode": "50662", "addr:state": "IA", "amenity": "post_box", "brand": "United States Postal Service", "brand:wikidata": "Q668687", "collection_times": "Mo-Fr 17:00; Sa 15:30", "name": "USPS COLLECTION BOX - BLUE BOX", "note": "ON 12/24 AND 12/31, THIS BOX MAY BE COLLECTED AS EARLY AS 12 NOON.", "nsi_id": "unitedstatespostalservice-a77078", "operator": "United States Postal Service", "operator:short": "USPS", "operator:type": "public", "operator:wikidata": "Q668687", "ref": "5066200012"}, "type": "Feature"}
{"dataset_attributes": {"@spider": "usps_collection_boxes", "spider:collection_time": "2023-11-28T08:25:58.546046"}, "geometry": {"coordinates": [-91.911999308, 42.679593356], "type": "Point"}, "id": "4-8myQFGtIzelcY2PwT5kgr-mTw=", "properties": {"@spider": "usps_collection_boxes", "addr:city": "OELWEIN", "addr:country": "US", "addr:full": "30 1ST AVE NE", "addr:postcode": "50662", "addr:state": "IA", "amenity": "post_box", "brand": "United States Postal Service", "brand:wikidata": "Q668687", "collection_times": "Mo-Fr 17:00; Sa 15:45", "name": "USPS COLLECTION BOX - PO LOBBY", "note": "ON 12/24 AND 12/31, THIS BOX MAY BE COLLECTED AS EARLY AS 12 NOON.", "nsi_id": "unitedstatespostalservice-a77078", "operator": "United States Postal Service", "operator:short": "USPS", "operator:type": "public", "operator:wikidata": "Q668687", "ref": "5066200013"}, "type": "Feature"}
{"dataset_attributes": {"@spider": "usps_collection_boxes", "spider:collection_time": "2023-11-28T08:25:58.546046"}, "geometry": {"coordinates": [-91.911999308, 42.679593356], "type": "Point"}, "id": "BjVcQzcsAwdvf_26eO7N6lKT7-M=", "properties": {"@spider": "usps_collection_boxes", "addr:city": "OELWEIN", "addr:country": "US", "addr:full": "30 1ST AVE NE", "addr:postcode": "50662", "addr:state": "IA", "amenity": "post_box", "brand": "United States Postal Service", "brand:wikidata": "Q668687", "collection_times": "Mo-Fr 17:00; Sa 11:00", "name": "USPS COLLECTION BOX - PO LOBBY", "note": "ON 12/24 AND 12/31, THIS BOX MAY BE COLLECTED AS EARLY AS 12 NOON.", "nsi_id": "unitedstatespostalservice-a77078", "operator": "United States Postal Service", "operator:short": "USPS", "operator:type": "public", "operator:wikidata": "Q668687", "ref": "5066200014"}, "type": "Feature"}
{"dataset_attributes": {"@spider": "usps_collection_boxes", "spider:collection_time": "2023-11-28T08:25:58.546046"}, "geometry": {"coordinates": [-92.786913, 42.577267507], "type": "Point"}, "id": "5D6tAd4_pv9qoujTnMCLb9fsgdU=", "properties": {"@spider": "usps_collection_boxes", "addr:city": "PARKERSBURG", "addr:country": "US", "addr:full": "602 COATES ST", "addr:postcode": "50665", "addr:state": "IA", "amenity": "post_box", "brand": "United States Postal Service", "brand:wikidata": "Q668687", "collection_times": "Mo-Fr 16:30; Sa 16:45", "name": "USPS COLLECTION BOX - BLUE BOX", "note": "ON 12/24 AND 12/31, THIS BOX MAY BE COLLECTED AS EARLY AS 12 NOON.", "nsi_id": "unitedstatespostalservice-a77078", "operator": "United States Postal Service", "operator:short": "USPS", "operator:type": "public", "operator:wikidata": "Q668687", "ref": "5066500000"}, "type": "Feature"}
{"dataset_attributes": {"@spider": "usps_collection_boxes", "spider:collection_time": "2023-11-28T08:25:58.546046"}, "geometry": {"coordinates": [-92.786913, 42.577267507], "type": "Point"}, "id": "NqU-v2HpyUUssC-ySvupem8j-rA=", "properties": {"@spider": "usps_collection_boxes", "addr:city": "PARKERSBURG", "addr:country": "US", "addr:full": "602 COATES ST", "addr:postcode": "50665", "addr:state": "IA", "amenity": "post_box", "brand": "United States Postal Service", "brand:wikidata": "Q668687", "collection_times": "Mo-Fr 16:30; Sa 09:00", "name": "USPS COLLECTION BOX - PO LOBBY", "note": "ON 12/24 AND 12/31, THIS BOX MAY BE COLLECTED AS EARLY AS 12 NOON.", "nsi_id": "unitedstatespostalservice-a77078", "operator": "United States Postal Service", "operator:short": "USPS", "operator:type": "public", "operator:wikidata": "Q668687", "ref": "5066500002"}, "type": "Feature"}
{"dataset_attributes": {"@spider": "usps_collection_boxes", "spider:collection_time": "2023-11-28T08:25:58.546046"}, "geometry": {"coordinates": [-92.786913, 42.577267507], "type": "Point"}, "id": "29lpjB9NEq_il8txevbXo5cyvWU=", "properties": {"@spider": "usps_collection_boxes", "addr:city": "PARKERSBURG", "addr:country": "US", "addr:full": "602 COATES ST", "addr:postcode": "50665", "addr:state": "IA", "amenity": "post_box", "brand": "United States Postal Service", "brand:wikidata": "Q668687", "collection_times": "Mo-Fr 16:30; Sa 08:00", "name": "USPS COLLECTION BOX - PO LOBBY", "note": "ON 12/24 AND 12/31, THIS BOX MAY BE COLLECTED AS EARLY AS 12 NOON.", "nsi_id": "unitedstatespostalservice-a77078", "operator": "United States Postal Service", "operator:short": "USPS", "operator:type": "public", "operator:wikidata": "Q668687", "ref": "5066500003"}, "type": "Feature"}
{"dataset_attributes": {"@spider": "usps_collection_boxes", "spider:collection_time": "2023-11-28T08:25:58.546046"}, "geometry": {"coordinates": [-92.537155909, 42.847221394], "type": "Point"}, "id": "cx8KqrCWRHnz5P4_WIDqxonVpq0=", "properties": {"@spider": "usps_collection_boxes", "addr:city": "PLAINFIELD", "addr:country": "US", "addr:full": "720 MAIN ST", "addr:postcode": "50666", "addr:state": "IA", "amenity": "post_box", "brand": "United States Postal Service", "brand:wikidata": "Q668687", "collection_times": "Mo-Sa 16:00", "name": "USPS COLLECTION BOX - BLUE BOX", "note": "ON 12/24 AND 12/31, THIS BOX MAY BE COLLECTED AS EARLY AS 12 NOON.", "nsi_id": "unitedstatespostalservice-a77078", "operator": "United States Postal Service", "operator:short": "USPS", "operator:type": "public", "operator:wikidata": "Q668687", "ref": "5066600000"}, "type": "Feature"}
{"dataset_attributes": {"@spider": "usps_collection_boxes", "spider:collection_time": "2023-11-28T08:25:58.546046"}, "geometry": {"coordinates": [-92.537155909, 42.847221394], "type": "Point"}, "id": "G7a7xPJtL1npUDxny0R9DrF1SKw=", "properties": {"@spider": "usps_collection_boxes", "addr:city": "PLAINFIELD", "addr:country": "US", "addr:full": "720 MAIN ST", "addr:postcode": "50666", "addr:state": "IA", "amenity": "post_box", "brand": "United States Postal Service", "brand:wikidata": "Q668687", "collection_times": "Mo-Fr 12:15", "name": "USPS COLLECTION BOX - PO LOBBY", "note": "ON 12/24 AND 12/31, THIS BOX MAY BE COLLECTED AS EARLY AS 12 NOON.", "nsi_id": "unitedstatespostalservice-a77078", "operator": "United States Postal Service", "operator:short": "USPS", "operator:type": "public", "operator:wikidata": "Q668687", "ref": "5066600001"}, "type": "Feature"}
{"dataset_attributes": {"@spider": "usps_collection_boxes", "spider:collection_time": "2023-11-28T08:25:58.546046"}, "geometry": {"coordinates": [-92.537155909, 42.847221394], "type": "Point"}, "id": "0KKG5pQH8q_EIDtK510D42nktcA=", "properties": {"@spider": "usps_collection_boxes", "addr:city": "PLAINFIELD", "addr:country": "US", "addr:full": "720 MAIN ST", "addr:postcode": "50666", "addr:state": "IA", "amenity": "post_box", "brand": "United States Postal Service", "brand:wikidata": "Q668687", "collection_times": "Mo-Fr 12:15; Sa 08:00", "name": "USPS COLLECTION BOX - PO LOBBY", "note": "ON 12/24 AND 12/31, THIS BOX MAY BE COLLECTED AS EARLY AS 12 NOON.", "nsi_id": "unitedstatespostalservice-a77078", "operator": "United States Postal Service", "operator:short": "USPS", "operator:type": "public", "operator:wikidata": "Q668687", "ref": "5066600002"}, "type": "Feature"}
{"dataset_attributes": {"@spider": "usps_collection_boxes", "spider:collection_time": "2023-11-28T08:25:58.546046"}, "geometry": {"coordinates": [-92.218967837, 42.466369096], "type": "Point"}, "id": "ACWI-gI96CIo8oDKkRIbOKjwjZo=", "properties": {"@spider": "usps_collection_boxes", "addr:city": "RAYMOND", "addr:country": "US", "addr:full": "111 COMMERCIAL ST", "addr:postcode": "50667", "addr:state": "IA", "amenity": "post_box", "brand": "United States Postal Service", "brand:wikidata": "Q668687", "collection_times": "Mo-Fr 16:00; Sa 17:45", "name": "USPS COLLECTION BOX - BLUE BOX", "note": "ON 12/24 AND 12/31, THIS BOX MAY BE COLLECTED AS EARLY AS 12 NOON.", "nsi_id": "unitedstatespostalservice-a77078", "operator": "United States Postal Service", "operator:short": "USPS", "operator:type": "public", "operator:wikidata": "Q668687", "ref": "5066700000"}, "type": "Feature"}
{"dataset_attributes": {"@spider": "usps_collection_boxes", "spider:collection_time": "2023-11-28T08:25:58.546046"}, "geometry": {"coordinates": [-92.218967837, 42.466369096], "type": "Point"}, "id": "IvOi7kmQ4UnkWNYgK14D42yUBFw=", "properties": {"@spider": "usps_collection_boxes", "addr:city": "RAYMOND", "addr:country": "US", "addr:full": "111 COMMERCIAL ST", "addr:postcode": "50667", "addr:state": "IA", "amenity": "post_box", "brand": "United States Postal Service", "brand:wikidata": "Q668687", "collection_times": "Mo-Fr 16:00; Sa 10:30", "name": "USPS COLLECTION BOX - PO LOBBY", "note": "ON 12/24 AND 12/31, THIS BOX MAY BE COLLECTED AS EARLY AS 12 NOON.", "nsi_id": "unitedstatespostalservice-a77078", "operator": "United States Postal Service", "operator:short": "USPS", "operator:type": "public", "operator:wikidata": "Q668687", "ref": "5066700001"}, "type": "Feature"}
{"dataset_attributes": {"@spider": "usps_collection_boxes", "spider:collection_time": "2023-11-28T08:25:58.546046"}, "geometry": {"coordinates": [-92.218967837, 42.466369096], "type": "Point"}, "id": "aG0C8mr259H1iqQRqEqcuQzkJuE=", "properties": {"@spider": "usps_collection_boxes", "addr:city": "RAYMOND", "addr:country": "US", "addr:full": "111 COMMERCIAL ST", "addr:postcode": "50667", "addr:state": "IA", "amenity": "post_box", "brand": "United States Postal Service", "brand:wikidata": "Q668687", "collection_times": "Mo-Fr 16:00; Sa 10:45", "name": "USPS COLLECTION BOX - PO LOBBY", "note": "ON 12/24 AND 12/31, THIS BOX MAY BE COLLECTED AS EARLY AS 12 NOON.", "nsi_id": "unitedstatespostalservice-a77078", "operator": "United States Postal Service", "operator:short": "USPS", "operator:type": "public", "operator:wikidata": "Q668687", "ref": "5066700002"}, "type": "Feature"}
{"dataset_attributes": {"@spider": "usps_collection_boxes", "spider:collection_time": "2023-11-28T08:25:58.546046"}, "geometry": {"coordinates": [-92.225395648, 42.702047885], "type": "Point"}, "id": "h-FQyzRu0eUS8wZqPvz_3L4wi7o=", "properties": {"@spider": "usps_collection_boxes", "addr:city": "READLYN", "addr:country": "US", "addr:full": "218 MAIN ST", "addr:postcode": "50668", "addr:state": "IA", "amenity": "post_box", "brand": "United States Postal Service", "brand:wikidata": "Q668687", "collection_times": "Mo-Fr 16:15; Sa 16:30", "name": "USPS COLLECTION BOX - BLUE BOX", "note": "ON 12/24 AND 12/31, THIS BOX MAY BE COLLECTED AS EARLY AS 12 NOON.", "nsi_id": "unitedstatespostalservice-a77078", "operator": "United States Postal Service", "operator:short": "USPS", "operator:type": "public", "operator:wikidata": "Q668687", "ref": "5066800000"}, "type": "Feature"}
{"dataset_attributes": {"@spider": "usps_collection_boxes", "spider:collection_time": "2023-11-28T08:25:58.546046"}, "geometry": {"coordinates": [-92.225395648, 42.702047885], "type": "Point"}, "id": "CBwAX-R-dkxT6aMYD4XuM-W4FNE=", "properties": {"@spider": "usps_collection_boxes", "addr:city": "READLYN", "addr:country": "US", "addr:full": "218 MAIN ST", "addr:postcode": "50668", "addr:state": "IA", "amenity": "post_box", "brand": "United States Postal Service", "brand:wikidata": "Q668687", "collection_times": "Mo-Fr 14:15; Sa 08:30", "name": "USPS COLLECTION BOX - PO LOBBY", "note": "ON 12/24 AND 12/31, THIS BOX MAY BE COLLECTED AS EARLY AS 12 NOON.", "nsi_id": "unitedstatespostalservice-a77078", "operator": "United States Postal Service", "operator:short": "USPS", "operator:type": "public", "operator:wikidata": "Q668687", "ref": "5066800001"}, "type": "Feature"}
{"dataset_attributes": {"@spider": "usps_collection_boxes", "spider:collection_time": "2023-11-28T08:25:58.546046"}, "geometry": {"coordinates": [-92.225395648, 42.702047885], "type": "Point"}, "id": "3eqBrJ_23r1rHLUW6rCx9fKq2gE=", "properties": {"@spider": "usps_collection_boxes", "addr:city": "READLYN", "addr:country": "US", "addr:full": "218 MAIN ST", "addr:postcode": "50668", "addr:state": "IA", "amenity": "post_box", "brand": "United States Postal Service", "brand:wikidata": "Q668687", "collection_times": "Mo-Fr 14:30; Sa 08:00", "name": "USPS COLLECTION BOX - PO LOBBY", "note": "ON 12/24 AND 12/31, THIS BOX MAY BE COLLECTED AS EARLY AS 12 NOON.", "nsi_id": "unitedstatespostalservice-a77078", "operator": "United States Postal Service", "operator:short": "USPS", "operator:type": "public", "operator:wikidata": "Q668687", "ref": "5066800002"}, "type": "Feature"}
{"dataset_attributes": {"@spider": "usps_collection_boxes", "spider:collection_time": "2023-11-28T08:25:58.546046"}, "geometry": {"coordinates": [-92.600351832, 42.323731522], "type": "Point"}, "id": "Y5ipRobuWW5b_UsFkAo0Vt6sswM=", "properties": {"@spider": "usps_collection_boxes", "addr:city": "REINBECK", "addr:country": "US", "addr:full": "509 CLARK ST", "addr:postcode": "50669", "addr:state": "IA", "amenity": "post_box", "brand": "United States Postal Service", "brand:wikidata": "Q668687", "collection_times": "Mo-Fr 17:15; Sa 18:00", "name": "USPS COLLECTION BOX - BLUE BOX", "note": "ON 12/24 AND 12/31, THIS BOX MAY BE COLLECTED AS EARLY AS 12 NOON.", "nsi_id": "unitedstatespostalservice-a77078", "operator": "United States Postal Service", "operator:short": "USPS", "operator:type": "public", "operator:wikidata": "Q668687", "ref": "5066900000"}, "type": "Feature"}
{"dataset_attributes": {"@spider": "usps_collection_boxes", "spider:collection_time": "2023-11-28T08:25:58.546046"}, "geometry": {"coordinates": [-92.600351832, 42.323731522], "type": "Point"}, "id": "qrrIpOBU7zTfyvsDzIWVgLG_9z8=", "properties": {"@spider": "usps_collection_boxes", "addr:city": "REINBECK", "addr:country": "US", "addr:full": "509 CLARK ST", "addr:postcode": "50669", "addr:state": "IA", "amenity": "post_box", "brand": "United States Postal Service", "brand:wikidata": "Q668687", "collection_times": "Mo-Fr 17:15", "name": "USPS COLLECTION BOX - PO LOBBY", "note": "ON 12/24 AND 12/31, THIS BOX MAY BE COLLECTED AS EARLY AS 12 NOON.", "nsi_id": "unitedstatespostalservice-a77078", "operator": "United States Postal Service", "operator:short": "USPS", "operator:type": "public", "operator:wikidata": "Q668687", "ref": "5066900002"}, "type": "Feature"}
{"dataset_attributes": {"@spider": "usps_collection_boxes", "spider:collection_time": "2023-11-28T08:25:58.546046"}, "geometry": {"coordinates": [-92.600351832, 42.323731522], "type": "Point"}, "id": "pLsOEF9ttZT3w-pIKjLhGN7W06A=", "properties": {"@spider": "usps_collection_boxes", "addr:city": "REINBECK", "addr:country": "US", "addr:full": "509 CLARK ST", "addr:postcode": "50669", "addr:state": "IA", "amenity": "post_box", "brand": "United States Postal Service", "brand:wikidata": "Q668687", "collection_times": "Mo-Fr 17:00; Sa 08:00", "name": "USPS COLLECTION BOX - PO LOBBY", "note": "ON 12/24 AND 12/31, THIS BOX MAY BE COLLECTED AS EARLY AS 12 NOON.", "nsi_id": "unitedstatespostalservice-a77078", "operator": "United States Postal Service", "operator:short": "USPS", "operator:type": "public", "operator:wikidata": "Q668687", "ref": "5066900003"}, "type": "Feature"}
{"dataset_attributes": {"@spider": "usps_collection_boxes", "spider:collection_time": "2023-11-28T08:25:58.546046"}, "geometry": {"coordinates": [-92.583633843, 42.71131189], "type": "Point"}, "id": "iF5OYHDJE0tuRajyVLaTVuhGl2E=", "properties": {"@spider": "usps_collection_boxes", "addr:city": "SHELL ROCK", "addr:country": "US", "addr:full": "203 S WALNUT ST", "addr:postcode": "50670", "addr:state": "IA", "amenity": "post_box", "brand": "United States Postal Service", "brand:wikidata": "Q668687", "collection_times": "Mo-Fr 16:15; Sa 16:00", "name": "USPS COLLECTION BOX - BLUE BOX", "note": "ON 12/24 AND 12/31, THIS BOX MAY BE COLLECTED AS EARLY AS 12 NOON.", "nsi_id": "unitedstatespostalservice-a77078", "operator": "United States Postal Service", "operator:short": "USPS", "operator:type": "public", "operator:wikidata": "Q668687", "ref": "5067000001"}, "type": "Feature"}
{"dataset_attributes": {"@spider": "usps_collection_boxes", "spider:collection_time": "2023-11-28T08:25:58.546046"}, "geometry": {"coordinates": [-92.583633843, 42.71131189], "type": "Point"}, "id": "chzLS7yQDqlNpxn_Oj3ZG7JwNOQ=", "properties": {"@spider": "usps_collection_boxes", "addr:city": "SHELL ROCK", "addr:country": "US", "addr:full": "203 S WALNUT ST", "addr:postcode": "50670", "addr:state": "IA", "amenity": "post_box", "brand": "United States Postal Service", "brand:wikidata": "Q668687", "collection_times": "Mo-Fr 16:15; Sa 10:00", "name": "USPS COLLECTION BOX - PO LOBBY", "note": "ON 12/24 AND 12/31, THIS BOX MAY BE COLLECTED AS EARLY AS 12 NOON.", "nsi_id": "unitedstatespostalservice-a77078", "operator": "United States Postal Service", "operator:short": "USPS", "operator:type": "public", "operator:wikidata": "Q668687", "ref": "5067000003"}, "type": "Feature"}
{"dataset_attributes": {"@spider": "usps_collection_boxes", "spider:collection_time": "2023-11-28T08:25:58.546046"}, "geometry": {"coordinates": [-92.583633843, 42.71131189], "type": "Point"}, "id": "7td7uLT9wVA8g_TWYc01zux5i68=", "properties": {"@spider": "usps_collection_boxes", "addr:city": "SHELL ROCK", "addr:country": "US", "addr:full": "203 S WALNUT ST", "addr:postcode": "50670", "addr:state": "IA", "amenity": "post_box", "brand": "United States Postal Service", "brand:wikidata": "Q668687", "collection_times": "Mo-Fr 16:00; Sa 08:00", "name": "USPS COLLECTION BOX - PO LOBBY", "note": "ON 12/24 AND 12/31, THIS BOX MAY BE COLLECTED AS EARLY AS 12 NOON.", "nsi_id": "unitedstatespostalservice-a77078", "operator": "United States Postal Service", "operator:short": "USPS", "operator:type": "public", "operator:wikidata": "Q668687", "ref": "5067000004"}, "type": "Feature"}
{"dataset_attributes": {"@spider": "usps_collection_boxes", "spider:collection_time": "2023-11-28T08:25:58.546046"}, "geometry": {"coordinates": [-93.065727016, 42.408015485], "type": "Point"}, "id": "7bkJDrgfbn_EVWw1mpJPTuZtK6Y=", "properties": {"@spider": "usps_collection_boxes", "addr:city": "STEAMBOAT ROCK", "addr:country": "US", "addr:full": "108 4TH ST", "addr:postcode": "50672", "addr:state": "IA", "amenity": "post_box", "brand": "United States Postal Service", "brand:wikidata": "Q668687", "collection_times": "Mo-Fr 16:00; Sa 15:30", "name": "USPS COLLECTION BOX - BLUE BOX", "note": "ON 12/24 AND 12/31, THIS BOX MAY BE COLLECTED AS EARLY AS 12 NOON.", "nsi_id": "unitedstatespostalservice-a77078", "operator": "United States Postal Service", "operator:short": "USPS", "operator:type": "public", "operator:wikidata": "Q668687", "ref": "5067200000"}, "type": "Feature"}
{"dataset_attributes": {"@spider": "usps_collection_boxes", "spider:collection_time": "2023-11-28T08:25:58.546046"}, "geometry": {"coordinates": [-93.065727016, 42.408015485], "type": "Point"}, "id": "LNcJQX0Y4_wmAh9oiBj8HpvXoAs=", "properties": {"@spider": "usps_collection_boxes", "addr:city": "STEAMBOAT ROCK", "addr:country": "US", "addr:full": "108 4TH ST", "addr:postcode": "50672", "addr:state": "IA", "amenity": "post_box", "brand": "United States Postal Service", "brand:wikidata": "Q668687", "collection_times": "Mo-Fr 12:45; Sa 09:45", "name": "USPS COLLECTION BOX - PO LOBBY", "note": "ON 12/24 AND 12/31, THIS BOX MAY BE COLLECTED AS EARLY AS 12 NOON.", "nsi_id": "unitedstatespostalservice-a77078", "operator": "United States Postal Service", "operator:short": "USPS", "operator:type": "public", "operator:wikidata": "Q668687", "ref": "5067200001"}, "type": "Feature"}
{"dataset_attributes": {"@spider": "usps_collection_boxes", "spider:collection_time": "2023-11-28T08:25:58.546046"}, "geometry": {"coordinates": [-93.065727016, 42.408015485], "type": "Point"}, "id": "g8aEKit4nACKWQ1XIQq71NuwYPc=", "properties": {"@spider": "usps_collection_boxes", "addr:city": "STEAMBOAT ROCK", "addr:country": "US", "addr:full": "108 4TH ST", "addr:postcode": "50672", "addr:state": "IA", "amenity": "post_box", "brand": "United States Postal Service", "brand:wikidata": "Q668687", "collection_times": "Mo-Fr 13:00; Sa 10:00", "name": "USPS COLLECTION BOX - PO LOBBY", "note": "ON 12/24 AND 12/31, THIS BOX MAY BE COLLECTED AS EARLY AS 12 NOON.", "nsi_id": "unitedstatespostalservice-a77078", "operator": "United States Postal Service", "operator:short": "USPS", "operator:type": "public", "operator:wikidata": "Q668687", "ref": "5067200002"}, "type": "Feature"}
{"dataset_attributes": {"@spider": "usps_collection_boxes", "spider:collection_time": "2023-11-28T08:25:58.546046"}, "geometry": {"coordinates": [-92.711672665, 42.526322529], "type": "Point"}, "id": "kCTVh3Xk0IMTY7zdtLOdmSr1atY=", "properties": {"@spider": "usps_collection_boxes", "addr:city": "STOUT", "addr:country": "US", "addr:full": "204 MAIN ST", "addr:postcode": "50673", "addr:state": "IA", "amenity": "post_box", "brand": "United States Postal Service", "brand:wikidata": "Q668687", "collection_times": "Mo-Fr 16:00; Sa 16:45", "name": "USPS COLLECTION BOX - BLUE BOX", "note": "ON 12/24 AND 12/31, THIS BOX MAY BE COLLECTED AS EARLY AS 12 NOON.", "nsi_id": "unitedstatespostalservice-a77078", "operator": "United States Postal Service", "operator:short": "USPS", "operator:type": "public", "operator:wikidata": "Q668687", "ref": "5067300000"}, "type": "Feature"}
{"dataset_attributes": {"@spider": "usps_collection_boxes", "spider:collection_time": "2023-11-28T08:25:58.546046"}, "geometry": {"coordinates": [-92.711672665, 42.526322529], "type": "Point"}, "id": "7bgqumd9FGKE2pF1F-kTO3FJqKM=", "properties": {"@spider": "usps_collection_boxes", "addr:city": "STOUT", "addr:country": "US", "addr:full": "204 MAIN ST", "addr:postcode": "50673", "addr:state": "IA", "amenity": "post_box", "brand": "United States Postal Service", "brand:wikidata": "Q668687", "collection_times": "Mo-Fr 11:45", "name": "USPS COLLECTION BOX - PO LOBBY", "nsi_id": "unitedstatespostalservice-a77078", "operator": "United States Postal Service", "operator:short": "USPS", "operator:type": "public", "operator:wikidata": "Q668687", "ref": "5067300001"}, "type": "Feature"}
{"dataset_attributes": {"@spider": "usps_collection_boxes", "spider:collection_time": "2023-11-28T08:25:58.546046"}, "geometry": {"coordinates": [-92.711672665, 42.526322529], "type": "Point"}, "id": "Hbt8ZsSWgBB-nlBkmS3SEVmq97I=", "properties": {"@spider": "usps_collection_boxes", "addr:city": "STOUT", "addr:country": "US", "addr:full": "204 MAIN ST", "addr:postcode": "50673", "addr:state": "IA", "amenity": "post_box", "brand": "United States Postal Service", "brand:wikidata": "Q668687", "collection_times": "Mo-Fr 12:00; Sa 11:15", "name": "USPS COLLECTION BOX - PO LOBBY", "nsi_id": "unitedstatespostalservice-a77078", "operator": "United States Postal Service", "operator:short": "USPS", "operator:type": "public", "operator:wikidata": "Q668687", "ref": "5067300002"}, "type": "Feature"}
{"dataset_attributes": {"@spider": "usps_collection_boxes", "spider:collection_time": "2023-11-28T08:25:58.546046"}, "geometry": {"coordinates": [-92.097809497, 42.846822], "type": "Point"}, "id": "T9pEzEC6P-r7qA5I4Pf1Bohbc5g=", "properties": {"@spider": "usps_collection_boxes", "addr:city": "SUMNER", "addr:country": "US", "addr:full": "113 S CARPENTER ST", "addr:postcode": "50674", "addr:state": "IA", "amenity": "post_box", "brand": "United States Postal Service", "brand:wikidata": "Q668687", "collection_times": "Mo-Sa 16:30", "name": "USPS COLLECTION BOX - BLUE BOX", "note": "ON 12/24 AND 12/31, THIS BOX MAY BE COLLECTED AS EARLY AS 12 NOON.", "nsi_id": "unitedstatespostalservice-a77078", "operator": "United States Postal Service", "operator:short": "USPS", "operator:type": "public", "operator:wikidata": "Q668687", "ref": "5067400002"}, "type": "Feature"}
{"dataset_attributes": {"@spider": "usps_collection_boxes", "spider:collection_time": "2023-11-28T08:25:58.546046"}, "geometry": {"coordinates": [-92.097809497, 42.846822], "type": "Point"}, "id": "9CWD-YCuf5ZW69yMLRLTL4DJD7c=", "properties": {"@spider": "usps_collection_boxes", "addr:city": "SUMNER", "addr:country": "US", "addr:full": "113 S CARPENTER ST", "addr:postcode": "50674", "addr:state": "IA", "amenity": "post_box", "brand": "United States Postal Service", "brand:wikidata": "Q668687", "collection_times": "Mo-Fr 16:30; Sa 09:30", "name": "USPS COLLECTION BOX - PO LOBBY", "note": "ON 12/24 AND 12/31, THIS BOX MAY BE COLLECTED AS EARLY AS 12 NOON.", "nsi_id": "unitedstatespostalservice-a77078", "operator": "United States Postal Service", "operator:short": "USPS", "operator:type": "public", "operator:wikidata": "Q668687", "ref": "5067400005"}, "type": "Feature"}
{"dataset_attributes": {"@spider": "usps_collection_boxes", "spider:collection_time": "2023-11-28T08:25:58.546046"}, "geometry": {"coordinates": [-92.097809497, 42.846822], "type": "Point"}, "id": "1rX4-pyf88ZokZ4aLp57sh_wSag=", "properties": {"@spider": "usps_collection_boxes", "addr:city": "SUMNER", "addr:country": "US", "addr:full": "113 S CARPENTER ST", "addr:postcode": "50674", "addr:state": "IA", "amenity": "post_box", "brand": "United States Postal Service", "brand:wikidata": "Q668687", "collection_times": "Mo-Fr 16:30; Sa 09:30", "name": "USPS COLLECTION BOX - PO LOBBY", "note": "ON 12/24 AND 12/31, THIS BOX MAY BE COLLECTED AS EARLY AS 12 NOON.", "nsi_id": "unitedstatespostalservice-a77078", "operator": "United States Postal Service", "operator:short": "USPS", "operator:type": "public", "operator:wikidata": "Q668687", "ref": "5067400006"}, "type": "Feature"}
{"dataset_attributes": {"@spider": "usps_collection_boxes", "spider:collection_time": "2023-11-28T08:25:58.546046"}, "geometry": {"coordinates": [-92.465412896, 42.194565587], "type": "Point"}, "id": "B4V82LxxB-sBnbKdN2qjglFIKjM=", "properties": {"@spider": "usps_collection_boxes", "addr:city": "TRAER", "addr:country": "US", "addr:full": "101 N MAIN ST", "addr:postcode": "50675", "addr:state": "IA", "amenity": "post_box", "brand": "United States Postal Service", "brand:wikidata": "Q668687", "collection_times": "Mo-Fr 16:30; Sa 17:00", "name": "USPS COLLECTION BOX - BLUE BOX", "note": "ON 12/24 AND 12/31, THIS BOX MAY BE COLLECTED AS EARLY AS 12 NOON.", "nsi_id": "unitedstatespostalservice-a77078", "operator": "United States Postal Service", "operator:short": "USPS", "operator:type": "public", "operator:wikidata": "Q668687", "ref": "5067500001"}, "type": "Feature"}
{"dataset_attributes": {"@spider": "usps_collection_boxes", "spider:collection_time": "2023-11-28T08:25:58.546046"}, "geometry": {"coordinates": [-92.465412896, 42.194565587], "type": "Point"}, "id": "_DBG510byQG2rraD265iQLPvmhE=", "properties": {"@spider": "usps_collection_boxes", "addr:city": "TRAER", "addr:country": "US", "addr:full": "101 N MAIN ST", "addr:postcode": "50675", "addr:state": "IA", "amenity": "post_box", "brand": "United States Postal Service", "brand:wikidata": "Q668687", "collection_times": "Mo-Fr 16:30; Sa 10:30", "name": "USPS COLLECTION BOX - PO LOBBY", "note": "ON 12/24 AND 12/31, THIS BOX MAY BE COLLECTED AS EARLY AS 12 NOON.", "nsi_id": "unitedstatespostalservice-a77078", "operator": "United States Postal Service", "operator:short": "USPS", "operator:type": "public", "operator:wikidata": "Q668687", "ref": "5067500002"}, "type": "Feature"}
{"dataset_attributes": {"@spider": "usps_collection_boxes", "spider:collection_time": "2023-11-28T08:25:58.546046"}, "geometry": {"coordinates": [-92.465412896, 42.194565587], "type": "Point"}, "id": "6qd6duJW8Txakkq489XWsiGoGms=", "properties": {"@spider": "usps_collection_boxes", "addr:city": "TRAER", "addr:country": "US", "addr:full": "101 N MAIN ST", "addr:postcode": "50675", "addr:state": "IA", "amenity": "post_box", "brand": "United States Postal Service", "brand:wikidata": "Q668687", "collection_times": "Mo-Fr 16:30; Sa 09:30", "name": "USPS COLLECTION BOX - PO LOBBY", "note": "ON 12/24 AND 12/31, THIS BOX MAY BE COLLECTED AS EARLY AS 12 NOON.", "nsi_id": "unitedstatespostalservice-a77078", "operator": "United States Postal Service", "operator:short": "USPS", "operator:type": "public", "operator:wikidata": "Q668687", "ref": "5067500003"}, "type": "Feature"}
{"dataset_attributes": {"@spider": "usps_collection_boxes", "spider:collection_time": "2023-11-28T08:25:58.546046"}, "geometry": {"coordinates": [-92.258200464, 42.808958162], "type": "Point"}, "id": "H7FzzCHXgtuSzyW-oK2lVDTQj4Q=", "properties": {"@spider": "usps_collection_boxes", "addr:city": "TRIPOLI", "addr:country": "US", "addr:full": "114 S MAIN ST", "addr:postcode": "50676", "addr:state": "IA", "amenity": "post_box", "brand": "United States Postal Service", "brand:wikidata": "Q668687", "collection_times": "Mo-Fr 16:00; Sa 17:15", "name": "USPS COLLECTION BOX - BLUE BOX", "note": "ON 12/24 AND 12/31, THIS BOX MAY BE COLLECTED AS EARLY AS 12 NOON.", "nsi_id": "unitedstatespostalservice-a77078", "operator": "United States Postal Service", "operator:short": "USPS", "operator:type": "public", "operator:wikidata": "Q668687", "ref": "5067600000"}, "type": "Feature"}
{"dataset_attributes": {"@spider": "usps_collection_boxes", "spider:collection_time": "2023-11-28T08:25:58.546046"}, "geometry": {"coordinates": [-92.258200464, 42.808958162], "type": "Point"}, "id": "_VFRcvzsvOVhxAIThTIz8mycVSo=", "properties": {"@spider": "usps_collection_boxes", "addr:city": "TRIPOLI", "addr:country": "US", "addr:full": "114 S MAIN ST", "addr:postcode": "50676", "addr:state": "IA", "amenity": "post_box", "brand": "United States Postal Service", "brand:wikidata": "Q668687", "collection_times": "Mo-Fr 16:00; Sa 09:45", "name": "USPS COLLECTION BOX - PO LOBBY", "note": "ON 12/24 AND 12/31, THIS BOX MAY BE COLLECTED AS EARLY AS 12 NOON.", "nsi_id": "unitedstatespostalservice-a77078", "operator": "United States Postal Service", "operator:short": "USPS", "operator:type": "public", "operator:wikidata": "Q668687", "ref": "5067600001"}, "type": "Feature"}
{"dataset_attributes": {"@spider": "usps_collection_boxes", "spider:collection_time": "2023-11-28T08:25:58.546046"}, "geometry": {"coordinates": [-92.258200464, 42.808958162], "type": "Point"}, "id": "KA4qiAqHt5k7gmRW4lYmRfJ_-yA=", "properties": {"@spider": "usps_collection_boxes", "addr:city": "TRIPOLI", "addr:country": "US", "addr:full": "114 S MAIN ST", "addr:postcode": "50676", "addr:state": "IA", "amenity": "post_box", "brand": "United States Postal Service", "brand:wikidata": "Q668687", "collection_times": "Mo-Fr 16:00; Sa 09:45", "name": "USPS COLLECTION BOX - PO LOBBY", "note": "ON 12/24 AND 12/31, THIS BOX MAY BE COLLECTED AS EARLY AS 12 NOON.", "nsi_id": "unitedstatespostalservice-a77078", "operator": "United States Postal Service", "operator:short": "USPS", "operator:type": "public", "operator:wikidata": "Q668687", "ref": "5067600002"}, "type": "Feature"}
{"dataset_attributes": {"@spider": "usps_collection_boxes", "spider:collection_time": "2023-11-28T08:25:58.546046"}, "geometry": {"coordinates": [-92.483070148, 42.725421], "type": "Point"}, "id": "kDTCPh3Qt3HeACK6PxrQbMJfcMo=", "properties": {"@spider": "usps_collection_boxes", "addr:city": "WAVERLY", "addr:country": "US", "addr:full": "114 10TH ST SW", "addr:postcode": "50677", "addr:state": "IA", "amenity": "post_box", "brand": "United States Postal Service", "brand:wikidata": "Q668687", "collection_times": "Mo-Sa 10:30", "name": "USPS COLLECTION BOX - BLUE BOX", "nsi_id": "unitedstatespostalservice-a77078", "operator": "United States Postal Service", "operator:short": "USPS", "operator:type": "public", "operator:wikidata": "Q668687", "ref": "5067700010"}, "type": "Feature"}
{"dataset_attributes": {"@spider": "usps_collection_boxes", "spider:collection_time": "2023-11-28T08:25:58.546046"}, "geometry": {"coordinates": [-92.494971481, 42.729235991], "type": "Point"}, "id": "lh_6EslGS4_5EM5jR34guwqm6eU=", "properties": {"@spider": "usps_collection_boxes", "addr:city": "WAVERLY", "addr:country": "US", "addr:full": "204 20TH ST NW", "addr:postcode": "50677", "addr:state": "IA", "amenity": "post_box", "brand": "United States Postal Service", "brand:wikidata": "Q668687", "collection_times": "Mo-Sa 11:00", "name": "USPS COLLECTION BOX - BLUE BOX", "nsi_id": "unitedstatespostalservice-a77078", "operator": "United States Postal Service", "operator:short": "USPS", "operator:type": "public", "operator:wikidata": "Q668687", "ref": "5067700013"}, "type": "Feature"}
{"dataset_attributes": {"@spider": "usps_collection_boxes", "spider:collection_time": "2023-11-28T08:25:58.546046"}, "geometry": {"coordinates": [-92.4681189127, 42.7249523294], "type": "Point"}, "id": "sJ97A1lmDp_LQQ6nyQcLpff-Rh8=", "properties": {"@spider": "usps_collection_boxes", "addr:city": "WAVERLY", "addr:country": "US", "addr:full": "124 2ND ST SE", "addr:postcode": "50677", "addr:state": "IA", "amenity": "post_box", "brand": "United States Postal Service", "brand:wikidata": "Q668687", "collection_times": "Mo-Sa 17:15", "name": "USPS COLLECTION BOX - BLUE BOX", "note": "ON 12/24 AND 12/31, THIS BOX MAY BE COLLECTED AS EARLY AS 12 NOON.", "nsi_id": "unitedstatespostalservice-a77078", "operator": "United States Postal Service", "operator:short": "USPS", "operator:type": "public", "operator:wikidata": "Q668687", "ref": "5067700020"}, "type": "Feature"}
{"dataset_attributes": {"@spider": "usps_collection_boxes", "spider:collection_time": "2023-11-28T08:25:58.546046"}, "geometry": {"coordinates": [-92.468118913, 42.724943329], "type": "Point"}, "id": "jr2J0-PDIOd49_R6BfrcovPuFJ4=", "properties": {"@spider": "usps_collection_boxes", "addr:city": "WAVERLY", "addr:country": "US", "addr:full": "124 2ND ST SE", "addr:postcode": "50677", "addr:state": "IA", "amenity": "post_box", "brand": "United States Postal Service", "brand:wikidata": "Q668687", "collection_times": "Mo-Fr 17:15; Sa 15:30", "name": "USPS COLLECTION BOX - PO LOBBY", "note": "ON 12/24 AND 12/31, THIS BOX MAY BE COLLECTED AS EARLY AS 12 NOON.", "nsi_id": "unitedstatespostalservice-a77078", "operator": "United States Postal Service", "operator:short": "USPS", "operator:type": "public", "operator:wikidata": "Q668687", "ref": "5067700023"}, "type": "Feature"}
{"dataset_attributes": {"@spider": "usps_collection_boxes", "spider:collection_time": "2023-11-28T08:25:58.546046"}, "geometry": {"coordinates": [-92.475454124, 42.712237446], "type": "Point"}, "id": "VDQaTUJffstPPAl_PszIH1aKYJE=", "properties": {"@spider": "usps_collection_boxes", "addr:city": "WAVERLY", "addr:country": "US", "addr:full": "1311 4TH ST SW", "addr:postcode": "50677", "addr:state": "IA", "amenity": "post_box", "brand": "United States Postal Service", "brand:wikidata": "Q668687", "collection_times": "Mo-Sa 13:00", "name": "USPS COLLECTION BOX - BLUE BOX", "note": "ON 12/24 AND 12/31, THIS BOX MAY BE COLLECTED AS EARLY AS 12 NOON.", "nsi_id": "unitedstatespostalservice-a77078", "operator": "United States Postal Service", "operator:short": "USPS", "operator:type": "public", "operator:wikidata": "Q668687", "ref": "5067700024"}, "type": "Feature"}
{"dataset_attributes": {"@spider": "usps_collection_boxes", "spider:collection_time": "2023-11-28T08:25:58.546046"}, "geometry": {"coordinates": [-92.468118913, 42.724943329], "type": "Point"}, "id": "_3z2K-qaJKH85LpDQrilZUZkGHk=", "properties": {"@spider": "usps_collection_boxes", "addr:city": "WAVERLY", "addr:country": "US", "addr:full": "124 2ND ST SE", "addr:postcode": "50677", "addr:state": "IA", "amenity": "post_box", "brand": "United States Postal Service", "brand:wikidata": "Q668687", "collection_times": "Mo-Fr 17:00; Sa 08:00", "name": "USPS COLLECTION BOX - PO LOBBY", "note": "ON 12/24 AND 12/31, THIS BOX MAY BE COLLECTED AS EARLY AS 12 NOON.", "nsi_id": "unitedstatespostalservice-a77078", "operator": "United States Postal Service", "operator:short": "USPS", "operator:type": "public", "operator:wikidata": "Q668687", "ref": "5067700027"}, "type": "Feature"}
{"dataset_attributes": {"@spider": "usps_collection_boxes", "spider:collection_time": "2023-11-28T08:25:58.546046"}, "geometry": {"coordinates": [-92.926235788, 42.434865335], "type": "Point"}, "id": "lIoxuZfenNPwhFRHxjGE6q47uOw=", "properties": {"@spider": "usps_collection_boxes", "addr:city": "WELLSBURG", "addr:country": "US", "addr:full": "500 N ADAMS ST", "addr:postcode": "50680", "addr:state": "IA", "amenity": "post_box", "brand": "United States Postal Service", "brand:wikidata": "Q668687", "collection_times": "Mo-Sa 16:00", "name": "USPS COLLECTION BOX - BLUE BOX", "note": "ON 12/24 AND 12/31, THIS BOX MAY BE COLLECTED AS EARLY AS 12 NOON.", "nsi_id": "unitedstatespostalservice-a77078", "operator": "United States Postal Service", "operator:short": "USPS", "operator:type": "public", "operator:wikidata": "Q668687", "ref": "5068000000"}, "type": "Feature"}
{"dataset_attributes": {"@spider": "usps_collection_boxes", "spider:collection_time": "2023-11-28T08:25:58.546046"}, "geometry": {"coordinates": [-92.926235788, 42.434865335], "type": "Point"}, "id": "AmoBUEAZ1797vruAd2d61Zi2DD0=", "properties": {"@spider": "usps_collection_boxes", "addr:city": "WELLSBURG", "addr:country": "US", "addr:full": "500 N ADAMS ST", "addr:postcode": "50680", "addr:state": "IA", "amenity": "post_box", "brand": "United States Postal Service", "brand:wikidata": "Q668687", "collection_times": "Mo-Fr 14:15; Sa 08:30", "name": "USPS COLLECTION BOX - PO LOBBY", "note": "ON 12/24 AND 12/31, THIS BOX MAY BE COLLECTED AS EARLY AS 12 NOON.", "nsi_id": "unitedstatespostalservice-a77078", "operator": "United States Postal Service", "operator:short": "USPS", "operator:type": "public", "operator:wikidata": "Q668687", "ref": "5068000001"}, "type": "Feature"}
{"dataset_attributes": {"@spider": "usps_collection_boxes", "spider:collection_time": "2023-11-28T08:25:58.546046"}, "geometry": {"coordinates": [-92.926235788, 42.434865335], "type": "Point"}, "id": "iq401rc_GeyhZmPFdqVfEa_-nNo=", "properties": {"@spider": "usps_collection_boxes", "addr:city": "WELLSBURG", "addr:country": "US", "addr:full": "500 N ADAMS ST", "addr:postcode": "50680", "addr:state": "IA", "amenity": "post_box", "brand": "United States Postal Service", "brand:wikidata": "Q668687", "collection_times": "Mo-Fr 14:30; Sa 08:45", "name": "USPS COLLECTION BOX - PO LOBBY", "note": "ON 12/24 AND 12/31, THIS BOX MAY BE COLLECTED AS EARLY AS 12 NOON.", "nsi_id": "unitedstatespostalservice-a77078", "operator": "United States Postal Service", "operator:short": "USPS", "operator:type": "public", "operator:wikidata": "Q668687", "ref": "5068000002"}, "type": "Feature"}
{"dataset_attributes": {"@spider": "usps_collection_boxes", "spider:collection_time": "2023-11-28T08:25:58.546046"}, "geometry": {"coordinates": [-91.733738862, 42.473070219], "type": "Point"}, "id": "WV3C_c_ct1DJ2-7nfMtNrZKGEOE=", "properties": {"@spider": "usps_collection_boxes", "addr:city": "WINTHROP", "addr:country": "US", "addr:full": "253 W MADISON ST", "addr:postcode": "50682", "addr:state": "IA", "amenity": "post_box", "brand": "United States Postal Service", "brand:wikidata": "Q668687", "collection_times": "Mo-Sa 16:30", "name": "USPS COLLECTION BOX - BLUE BOX", "note": "ON 12/24 AND 12/31, THIS BOX MAY BE COLLECTED AS EARLY AS 12 NOON.", "nsi_id": "unitedstatespostalservice-a77078", "operator": "United States Postal Service", "operator:short": "USPS", "operator:type": "public", "operator:wikidata": "Q668687", "ref": "5068200000"}, "type": "Feature"}
{"dataset_attributes": {"@spider": "usps_collection_boxes", "spider:collection_time": "2023-11-28T08:25:58.546046"}, "geometry": {"coordinates": [-91.733738862, 42.473070219], "type": "Point"}, "id": "SsJL8h1MH3-NpOBgFRoSGsVo9nM=", "properties": {"@spider": "usps_collection_boxes", "addr:city": "WINTHROP", "addr:country": "US", "addr:full": "253 W MADISON ST", "addr:postcode": "50682", "addr:state": "IA", "amenity": "post_box", "brand": "United States Postal Service", "brand:wikidata": "Q668687", "collection_times": "Mo-Fr 16:30", "name": "USPS COLLECTION BOX - PO LOBBY", "note": "ON 12/24 AND 12/31, THIS BOX MAY BE COLLECTED AS EARLY AS 12 NOON.", "nsi_id": "unitedstatespostalservice-a77078", "operator": "United States Postal Service", "operator:short": "USPS", "operator:type": "public", "operator:wikidata": "Q668687", "ref": "5068200001"}, "type": "Feature"}
{"dataset_attributes": {"@spider": "usps_collection_boxes", "spider:collection_time": "2023-11-28T08:25:58.546046"}, "geometry": {"coordinates": [-91.733738862, 42.473070219], "type": "Point"}, "id": "THC7qc9Gq60Ek_XwAzMXKjmA2XU=", "properties": {"@spider": "usps_collection_boxes", "addr:city": "WINTHROP", "addr:country": "US", "addr:full": "253 W MADISON ST", "addr:postcode": "50682", "addr:state": "IA", "amenity": "post_box", "brand": "United States Postal Service", "brand:wikidata": "Q668687", "collection_times": "Mo-Fr 16:30; Sa 08:00", "name": "USPS COLLECTION BOX - PO LOBBY", "note": "ON 12/24 AND 12/31, THIS BOX MAY BE COLLECTED AS EARLY AS 12 NOON.", "nsi_id": "unitedstatespostalservice-a77078", "operator": "United States Postal Service", "operator:short": "USPS", "operator:type": "public", "operator:wikidata": "Q668687", "ref": "5068200002"}, "type": "Feature"}
