{"geometry": {"coordinates": [-92.339735267, 42.495133797], "type": "Point"}, "id": "cisM9Kyqfq0m1vVNTYoklaVgcU8=", "properties": {"@source_uri": "https://tools.usps.com/UspsToolsRestServices/rest/POLocator/findLocations", "@spider": "usps_collection_boxes", "addr:city": "WATERLOO", "addr:country": "US", "addr:postcode": "50701", "addr:state": "IA", "addr:street_address": "531 COMMERCIAL ST", "amenity": "post_box", "collection_times": "Mo-Sa 15:00", "note": "ON 12/24 AND 12/31, THIS BOX MAY BE COLLECTED AS EARLY AS 12 NOON.", "nsi_id": "unitedstatespostalservice-a77078", "operator": "United States Postal Service", "operator:short": "USPS", "operator:type": "public", "operator:wikidata": "Q668687", "ref": "5070100000"}, "type": "Feature"}
{"geometry": {"coordinates": [-92.376956232, 42.484904057], "type": "Point"}, "id": "YCZ9LVhrP6gs4wMoqUzwYW8Ookw=", "properties": {"@source_uri": "https://tools.usps.com/UspsToolsRestServices/rest/POLocator/findLocations", "@spider": "usps_collection_boxes", "addr:city": "WATERLOO", "addr:country": "US", "addr:postcode": "50701", "addr:state": "IA", "addr:street_address": "1827 ANSBOROUGH AVE", "amenity": "post_box", "collection_times": "Mo-Sa 13:30", "note": "ON 12/24 AND 12/31, THIS BOX MAY BE COLLECTED AS EARLY AS 12 NOON.", "nsi_id": "unitedstatespostalservice-a77078", "operator": "United States Postal Service", "operator:short": "USPS", "operator:type": "public", "operator:wikidata": "Q668687", "ref": "5070100019"}, "type": "Feature"}
{"geometry": {"coordinates": [-92.332231492, 42.428328376], "type": "Point"}, "id": "4NEOz6kT1cCQlePQL7ybokZN35Q=", "properties": {"@source_uri": "https://tools.usps.com/UspsToolsRestServices/rest/POLocator/findLocations", "@spider": "usps_collection_boxes", "addr:city": "WATERLOO", "addr:country": "US", "addr:postcode": "50701", "addr:state": "IA", "addr:street_address": "6018 STARDUST DR", "amenity": "post_box", "collection_times": "Mo-Sa 10:00", "nsi_id": "unitedstatespostalservice-a77078", "operator": "United States Postal Service", "operator:short": "USPS", "operator:type": "public", "operator:wikidata": "Q668687", "ref": "5070100022"}, "type": "Feature"}
{"geometry": {"coordinates": [-92.379090621, 42.496375407], "type": "Point"}, "id": "xlzFE4wmm4ESE7eimqFhEzaENqg=", "properties": {"@source_uri": "https://tools.usps.com/UspsToolsRestServices/rest/POLocator/findLocations", "@spider": "usps_collection_boxes", "addr:city": "WATERLOO", "addr:country": "US", "addr:postcode": "50701", "addr:state": "IA", "addr:street_address": "2530 UNIVERSITY AVE", "amenity": "post_box", "collection_times": "Mo-Fr 10:00; Sa 14:00", "note": "ON 12/24 AND 12/31, THIS BOX MAY BE COLLECTED AS EARLY AS 12 NOON.", "nsi_id": "unitedstatespostalservice-a77078", "operator": "United States Postal Service", "operator:short": "USPS", "operator:type": "public", "operator:wikidata": "Q668687", "ref": "5070100023"}, "type": "Feature"}
{"geometry": {"coordinates": [-92.399947198, 42.504380161], "type": "Point"}, "id": "ZckMg8WwDgUsFppCOvA8dz3gLzs=", "properties": {"@source_uri": "https://tools.usps.com/UspsToolsRestServices/rest/POLocator/findLocations", "@spider": "usps_collection_boxes", "addr:city": "WATERLOO", "addr:country": "US", "addr:postcode": "50701", "addr:state": "IA", "addr:street_address": "3700 UNIVERSITY AVE", "amenity": "post_box", "collection_times": "Mo-Sa 14:00", "note": "ON 12/24 AND 12/31, THIS BOX MAY BE COLLECTED AS EARLY AS 12 NOON.", "nsi_id": "unitedstatespostalservice-a77078", "operator": "United States Postal Service", "operator:short": "USPS", "operator:type": "public", "operator:wikidata": "Q668687", "ref": "5070100024"}, "type": "Feature"}
{"geometry": {"coordinates": [-92.375842416, 42.468706521], "type": "Point"}, "id": "6rBOt8fVT2KfVlxIZYwAIZhZmC0=", "properties": {"@source_uri": "https://tools.usps.com/UspsToolsRestServices/rest/POLocator/findLocations", "@spider": "usps_collection_boxes", "addr:city": "WATERLOO", "addr:country": "US", "addr:postcode": "50701", "addr:state": "IA", "addr:street_address": "1173 DIXON DR", "amenity": "post_box", "collection_times": "Mo-Sa 10:00", "nsi_id": "unitedstatespostalservice-a77078", "operator": "United States Postal Service", "operator:short": "USPS", "operator:type": "public", "operator:wikidata": "Q668687", "ref": "5070100029"}, "type": "Feature"}
{"geometry": {"coordinates": [-92.375483642, 42.459010495], "type": "Point"}, "id": "iFJ9StYXDxjbjUp7yJ8egphnFj4=", "properties": {"@source_uri": "https://tools.usps.com/UspsToolsRestServices/rest/POLocator/findLocations", "@spider": "usps_collection_boxes", "addr:city": "WATERLOO", "addr:country": "US", "addr:postcode": "50701", "addr:state": "IA", "addr:street_address": "999 HOME PLZ", "amenity": "post_box", "collection_times": "Mo-Sa 13:00", "note": "ON 12/24 AND 12/31, THIS BOX MAY BE COLLECTED AS EARLY AS 12 NOON.", "nsi_id": "unitedstatespostalservice-a77078", "operator": "United States Postal Service", "operator:short": "USPS", "operator:type": "public", "operator:wikidata": "Q668687", "ref": "5070100032"}, "type": "Feature"}
{"geometry": {"coordinates": [-92.3773019912, 42.4715180008], "type": "Point"}, "id": "lCWo060QuDLvq2sYv-A5VUaCzi4=", "properties": {"@source_uri": "https://tools.usps.com/UspsToolsRestServices/rest/POLocator/findLocations", "@spider": "usps_collection_boxes", "addr:city": "WATERLOO", "addr:country": "US", "addr:postcode": "50701", "addr:state": "IA", "addr:street_address": "2834 ANSBOROUGH AVE", "amenity": "post_box", "collection_times": "Mo-Sa 14:30", "note": "ON 12/24 AND 12/31, THIS BOX MAY BE COLLECTED AS EARLY AS 12 NOON.", "nsi_id": "unitedstatespostalservice-a77078", "operator": "United States Postal Service", "operator:short": "USPS", "operator:type": "public", "operator:wikidata": "Q668687", "ref": "5070100034"}, "type": "Feature"}
{"geometry": {"coordinates": [-92.367169243, 42.487973581], "type": "Point"}, "id": "a07DD2ybbmTTwQlOkfipoxVg9iA=", "properties": {"@source_uri": "https://tools.usps.com/UspsToolsRestServices/rest/POLocator/findLocations", "@spider": "usps_collection_boxes", "addr:city": "WATERLOO", "addr:country": "US", "addr:postcode": "50701", "addr:state": "IA", "addr:street_address": "324 FLETCHER AVE", "amenity": "post_box", "collection_times": "Mo-Sa 14:00", "note": "ON 12/24 AND 12/31, THIS BOX MAY BE COLLECTED AS EARLY AS 12 NOON.", "nsi_id": "unitedstatespostalservice-a77078", "operator": "United States Postal Service", "operator:short": "USPS", "operator:type": "public", "operator:wikidata": "Q668687", "ref": "5070100036"}, "type": "Feature"}
{"geometry": {"coordinates": [-92.290672066, 42.428516481], "type": "Point"}, "id": "fM8kCYEo0WOF52CXeIJnGvVwS68=", "properties": {"@source_uri": "https://tools.usps.com/UspsToolsRestServices/rest/POLocator/findLocations", "@spider": "usps_collection_boxes", "addr:city": "WATERLOO", "addr:country": "US", "addr:postcode": "50701", "addr:state": "IA", "addr:street_address": "3451 E ORANGE RD", "amenity": "post_box", "collection_times": "Mo-Sa 12:00", "nsi_id": "unitedstatespostalservice-a77078", "operator": "United States Postal Service", "operator:short": "USPS", "operator:type": "public", "operator:wikidata": "Q668687", "ref": "5070100042"}, "type": "Feature"}
{"geometry": {"coordinates": [-92.374396364, 42.464823432], "type": "Point"}, "id": "-q6JSEEM2px3F4g4e-8I0I6E-2w=", "properties": {"@source_uri": "https://tools.usps.com/UspsToolsRestServices/rest/POLocator/findLocations", "@spider": "usps_collection_boxes", "addr:city": "WATERLOO", "addr:country": "US", "addr:postcode": "50701", "addr:state": "IA", "addr:street_address": "1141 LANTERN SQ", "amenity": "post_box", "collection_times": "Mo-Sa 13:00", "note": "ON 12/24 AND 12/31, THIS BOX MAY BE COLLECTED AS EARLY AS 12 NOON.", "nsi_id": "unitedstatespostalservice-a77078", "operator": "United States Postal Service", "operator:short": "USPS", "operator:type": "public", "operator:wikidata": "Q668687", "ref": "5070100056"}, "type": "Feature"}
{"geometry": {"coordinates": [-92.357416699, 42.457413404], "type": "Point"}, "id": "ZiG1YAn-HUBacWZm9rhO98aSZr8=", "properties": {"@source_uri": "https://tools.usps.com/UspsToolsRestServices/rest/POLocator/findLocations", "@spider": "usps_collection_boxes", "addr:city": "WATERLOO", "addr:country": "US", "addr:postcode": "50701", "addr:state": "IA", "addr:street_address": "40 W SAN MARNAN DR", "amenity": "post_box", "collection_times": "Mo-Fr 14:00; Sa 13:45", "note": "ON 12/24 AND 12/31, THIS BOX MAY BE COLLECTED AS EARLY AS 12 NOON.", "nsi_id": "unitedstatespostalservice-a77078", "operator": "United States Postal Service", "operator:short": "USPS", "operator:type": "public", "operator:wikidata": "Q668687", "ref": "5070100057"}, "type": "Feature"}
{"geometry": {"coordinates": [-92.297875737, 42.435472759], "type": "Point"}, "id": "kR7Mu-B4MJqRSHYKO_DP61TCAco=", "properties": {"@source_uri": "https://tools.usps.com/UspsToolsRestServices/rest/POLocator/findLocations", "@spider": "usps_collection_boxes", "addr:city": "WATERLOO", "addr:country": "US", "addr:postcode": "50701", "addr:state": "IA", "addr:street_address": "5535 DYSART RD", "amenity": "post_box", "collection_times": "Mo-Sa 10:00", "nsi_id": "unitedstatespostalservice-a77078", "operator": "United States Postal Service", "operator:short": "USPS", "operator:type": "public", "operator:wikidata": "Q668687", "ref": "5070100066"}, "type": "Feature"}
{"geometry": {"coordinates": [-92.346951465, 42.489613344], "type": "Point"}, "id": "kah4z-S8Rp8rebx7Ll3byVwGSC8=", "properties": {"@source_uri": "https://tools.usps.com/UspsToolsRestServices/rest/POLocator/findLocations", "@spider": "usps_collection_boxes", "addr:city": "WASHBURN", "addr:country": "US", "addr:postcode": "50702", "addr:state": "IA", "addr:street_address": "847 W 4TH ST", "amenity": "post_box", "collection_times": "Mo-Fr 13:15; Sa 08:30", "note": "ON 12/24 AND 12/31, THIS BOX MAY BE COLLECTED AS EARLY AS 12 NOON.", "nsi_id": "unitedstatespostalservice-a77078", "operator": "United States Postal Service", "operator:short": "USPS", "operator:type": "public", "operator:wikidata": "Q668687", "ref": "5070200003"}, "type": "Feature"}
{"geometry": {"coordinates": [-92.353837753, 42.480192517], "type": "Point"}, "id": "6slPLcZ21bpwluAULwhv9P25PDw=", "properties": {"@source_uri": "https://tools.usps.com/UspsToolsRestServices/rest/POLocator/findLocations", "@spider": "usps_collection_boxes", "addr:city": "WASHBURN", "addr:country": "US", "addr:postcode": "50702", "addr:state": "IA", "addr:street_address": "224 BYRON AVE", "amenity": "post_box", "collection_times": "Mo-Sa 09:00", "nsi_id": "unitedstatespostalservice-a77078", "operator": "United States Postal Service", "operator:short": "USPS", "operator:type": "public", "operator:wikidata": "Q668687", "ref": "5070200009"}, "type": "Feature"}
{"geometry": {"coordinates": [-92.357038989, 42.470390917], "type": "Point"}, "id": "a3CZ4F_r17Ud-WIGV9DqataIe-M=", "properties": {"@source_uri": "https://tools.usps.com/UspsToolsRestServices/rest/POLocator/findLocations", "@spider": "usps_collection_boxes", "addr:city": "WASHBURN", "addr:country": "US", "addr:postcode": "50702", "addr:state": "IA", "addr:street_address": "2120 KIMBALL AVE", "amenity": "post_box", "collection_times": "Mo-Sa 12:00", "nsi_id": "unitedstatespostalservice-a77078", "operator": "United States Postal Service", "operator:short": "USPS", "operator:type": "public", "operator:wikidata": "Q668687", "ref": "5070200016"}, "type": "Feature"}
{"geometry": {"coordinates": [-92.344257738, 42.460253528], "type": "Point"}, "id": "nCaczU_F0TMrGl7ZS79VJ6MHItY=", "properties": {"@source_uri": "https://tools.usps.com/UspsToolsRestServices/rest/POLocator/findLocations", "@spider": "usps_collection_boxes", "addr:city": "WASHBURN", "addr:country": "US", "addr:postcode": "50702", "addr:state": "IA", "addr:street_address": "2710 SAINT FRANCIS DR", "amenity": "post_box", "collection_times": "Mo-Sa 09:30", "nsi_id": "unitedstatespostalservice-a77078", "operator": "United States Postal Service", "operator:short": "USPS", "operator:type": "public", "operator:wikidata": "Q668687", "ref": "5070200017"}, "type": "Feature"}
{"geometry": {"coordinates": [-92.327893219, 42.459947475], "type": "Point"}, "id": "NSmoW7QTk2-DRsV7yMUfTqCD-5c=", "properties": {"@source_uri": "https://tools.usps.com/UspsToolsRestServices/rest/POLocator/findLocations", "@spider": "usps_collection_boxes", "addr:city": "WASHBURN", "addr:country": "US", "addr:postcode": "50702", "addr:state": "IA", "addr:street_address": "1422 FLAMMANG DR", "amenity": "post_box", "collection_times": "Mo-Sa 10:30", "nsi_id": "unitedstatespostalservice-a77078", "operator": "United States Postal Service", "operator:short": "USPS", "operator:type": "public", "operator:wikidata": "Q668687", "ref": "5070200020"}, "type": "Feature"}
{"geometry": {"coordinates": [-92.264961034, 42.409495724], "type": "Point"}, "id": "L8yA2lVETZt23-cJaN1Gaf_6JGk=", "properties": {"@source_uri": "https://tools.usps.com/UspsToolsRestServices/rest/POLocator/findLocations", "@spider": "usps_collection_boxes", "addr:city": "WASHBURN", "addr:country": "US", "addr:postcode": "50702", "addr:state": "IA", "addr:street_address": "7305 LAPORTE RD", "amenity": "post_box", "collection_times": "Mo-Sa 14:00", "note": "ON 12/24 AND 12/31, THIS BOX MAY BE COLLECTED AS EARLY AS 12 NOON.", "nsi_id": "unitedstatespostalservice-a77078", "operator": "United States Postal Service", "operator:short": "USPS", "operator:type": "public", "operator:wikidata": "Q668687", "ref": "5070200022"}, "type": "Feature"}
{"geometry": {"coordinates": [-92.323057217, 42.477091104], "type": "Point"}, "id": "fvE3wzHwt9kQPfgEOH1SlKzLcRc=", "properties": {"@source_uri": "https://tools.usps.com/UspsToolsRestServices/rest/POLocator/findLocations", "@spider": "usps_collection_boxes", "addr:city": "WASHBURN", "addr:country": "US", "addr:postcode": "50702", "addr:state": "IA", "addr:street_address": "928 LAPORTE RD", "amenity": "post_box", "collection_times": "Mo-Sa 13:00", "note": "ON 12/24 AND 12/31, THIS BOX MAY BE COLLECTED AS EARLY AS 12 NOON.", "nsi_id": "unitedstatespostalservice-a77078", "operator": "United States Postal Service", "operator:short": "USPS", "operator:type": "public", "operator:wikidata": "Q668687", "ref": "5070200024"}, "type": "Feature"}
{"geometry": {"coordinates": [-92.343123807, 42.476621546], "type": "Point"}, "id": "4te9SDwnQxZi_BPrJ0V1H4jTe7o=", "properties": {"@source_uri": "https://tools.usps.com/UspsToolsRestServices/rest/POLocator/findLocations", "@spider": "usps_collection_boxes", "addr:city": "WASHBURN", "addr:country": "US", "addr:postcode": "50702", "addr:state": "IA", "addr:street_address": "1010 E MITCHELL AVE", "amenity": "post_box", "collection_times": "Mo-Fr 13:15; Sa 13:30", "note": "ON 12/24 AND 12/31, THIS BOX MAY BE COLLECTED AS EARLY AS 12 NOON.", "nsi_id": "unitedstatespostalservice-a77078", "operator": "United States Postal Service", "operator:short": "USPS", "operator:type": "public", "operator:wikidata": "Q668687", "ref": "5070200026"}, "type": "Feature"}
{"geometry": {"coordinates": [-92.357268771, 42.466932503], "type": "Point"}, "id": "zl5fO7VGbLijH3LYctS3AAXI1no=", "properties": {"@source_uri": "https://tools.usps.com/UspsToolsRestServices/rest/POLocator/findLocations", "@spider": "usps_collection_boxes", "addr:city": "WASHBURN", "addr:country": "US", "addr:postcode": "50702", "addr:state": "IA", "addr:street_address": "3138 KIMBALL AVE", "amenity": "post_box", "collection_times": "Mo-Fr 14:15; Sa 13:45", "note": "ON 12/24 AND 12/31, THIS BOX MAY BE COLLECTED AS EARLY AS 12 NOON.", "nsi_id": "unitedstatespostalservice-a77078", "operator": "United States Postal Service", "operator:short": "USPS", "operator:type": "public", "operator:wikidata": "Q668687", "ref": "5070200027"}, "type": "Feature"}
{"geometry": {"coordinates": [-92.326875834, 42.46803855], "type": "Point"}, "id": "gqYqTiQa5dZzdChbdUAiV92UwH8=", "properties": {"@source_uri": "https://tools.usps.com/UspsToolsRestServices/rest/POLocator/findLocations", "@spider": "usps_collection_boxes", "addr:city": "WASHBURN", "addr:country": "US", "addr:postcode": "50702", "addr:state": "IA", "addr:street_address": "1650 CAMELOT DR", "amenity": "post_box", "collection_times": "Mo-Sa 09:30", "nsi_id": "unitedstatespostalservice-a77078", "operator": "United States Postal Service", "operator:short": "USPS", "operator:type": "public", "operator:wikidata": "Q668687", "ref": "5070200033"}, "type": "Feature"}
{"geometry": {"coordinates": [-92.326463277, 42.469294488], "type": "Point"}, "id": "ZrWhjH9q0ZdQ4lMMkjnNFubbw7o=", "properties": {"@source_uri": "https://tools.usps.com/UspsToolsRestServices/rest/POLocator/findLocations", "@spider": "usps_collection_boxes", "addr:city": "WASHBURN", "addr:country": "US", "addr:postcode": "50702", "addr:state": "IA", "addr:street_address": "1820 E RIDGEWAY AVE", "amenity": "post_box", "collection_times": "Mo-Sa 09:30", "nsi_id": "unitedstatespostalservice-a77078", "operator": "United States Postal Service", "operator:short": "USPS", "operator:type": "public", "operator:wikidata": "Q668687", "ref": "5070200034"}, "type": "Feature"}
{"geometry": {"coordinates": [-92.323104563, 42.464344362], "type": "Point"}, "id": "TMQzkgMs6yzKt7tf7DE1nPvZVyU=", "properties": {"@source_uri": "https://tools.usps.com/UspsToolsRestServices/rest/POLocator/findLocations", "@spider": "usps_collection_boxes", "addr:city": "WASHBURN", "addr:country": "US", "addr:postcode": "50702", "addr:state": "IA", "addr:street_address": "2900 CROSSROADS BLVD", "amenity": "post_box", "collection_times": "Mo-Sa 13:00", "note": "ON 12/24 AND 12/31, THIS BOX MAY BE COLLECTED AS EARLY AS 12 NOON.", "nsi_id": "unitedstatespostalservice-a77078", "operator": "United States Postal Service", "operator:short": "USPS", "operator:type": "public", "operator:wikidata": "Q668687", "ref": "5070200041"}, "type": "Feature"}
{"geometry": {"coordinates": [-92.351238327, 42.463722956], "type": "Point"}, "id": "hB1D-axeGw9cLiXacJ4NQlbl0ks=", "properties": {"@source_uri": "https://tools.usps.com/UspsToolsRestServices/rest/POLocator/findLocations", "@spider": "usps_collection_boxes", "addr:city": "WASHBURN", "addr:country": "US", "addr:postcode": "50702", "addr:state": "IA", "addr:street_address": "527 PARK LN", "amenity": "post_box", "collection_times": "Mo-Fr 14:00; Sa 13:45", "note": "ON 12/24 AND 12/31, THIS BOX MAY BE COLLECTED AS EARLY AS 12 NOON.", "nsi_id": "unitedstatespostalservice-a77078", "operator": "United States Postal Service", "operator:short": "USPS", "operator:type": "public", "operator:wikidata": "Q668687", "ref": "5070200043"}, "type": "Feature"}
{"geometry": {"coordinates": [-92.356764903, 42.484249529], "type": "Point"}, "id": "S9G5sWHro9N1LC57BWZurJHM93g=", "properties": {"@source_uri": "https://tools.usps.com/UspsToolsRestServices/rest/POLocator/findLocations", "@spider": "usps_collection_boxes", "addr:city": "WASHBURN", "addr:country": "US", "addr:postcode": "50702", "addr:state": "IA", "addr:street_address": "1636 W 4TH ST", "amenity": "post_box", "collection_times": "Mo-Sa 09:45", "nsi_id": "unitedstatespostalservice-a77078", "operator": "United States Postal Service", "operator:short": "USPS", "operator:type": "public", "operator:wikidata": "Q668687", "ref": "5070200052"}, "type": "Feature"}
{"geometry": {"coordinates": [-92.306312193, 42.498399451], "type": "Point"}, "id": "4D6Mf--cFQdHUTgICgwv7rgAewI=", "properties": {"@source_uri": "https://tools.usps.com/UspsToolsRestServices/rest/POLocator/findLocations", "@spider": "usps_collection_boxes", "addr:city": "WATERLOO", "addr:country": "US", "addr:postcode": "50703", "addr:state": "IA", "addr:street_address": "1407 INDEPENDENCE AVE", "amenity": "post_box", "collection_times": "Mo-Fr 15:00", "note": "ON 12/24 AND 12/31, THIS BOX MAY BE COLLECTED AS EARLY AS 12 NOON.", "nsi_id": "unitedstatespostalservice-a77078", "operator": "United States Postal Service", "operator:short": "USPS", "operator:type": "public", "operator:wikidata": "Q668687", "ref": "5070300000"}, "type": "Feature"}
{"geometry": {"coordinates": [-92.333945721, 42.49985812], "type": "Point"}, "id": "_7X6853U7gF19aZlcdU2rM_C6CM=", "properties": {"@source_uri": "https://tools.usps.com/UspsToolsRestServices/rest/POLocator/findLocations", "@spider": "usps_collection_boxes", "addr:city": "WATERLOO", "addr:country": "US", "addr:postcode": "50703", "addr:state": "IA", "addr:street_address": "408 E 4TH ST", "amenity": "post_box", "collection_times": "Mo-Sa 09:00", "nsi_id": "unitedstatespostalservice-a77078", "operator": "United States Postal Service", "operator:short": "USPS", "operator:type": "public", "operator:wikidata": "Q668687", "ref": "5070300006"}, "type": "Feature"}
{"geometry": {"coordinates": [-92.333462735, 42.498686475], "type": "Point"}, "id": "jloUx-cndJSuUJiZUPyWNx9fqVE=", "properties": {"@source_uri": "https://tools.usps.com/UspsToolsRestServices/rest/POLocator/findLocations", "@spider": "usps_collection_boxes", "addr:city": "WATERLOO", "addr:country": "US", "addr:postcode": "50703", "addr:state": "IA", "addr:street_address": "316 E 5TH ST", "amenity": "post_box", "collection_times": "Mo-Fr 13:00; Sa 09:00", "note": "ON 12/24 AND 12/31, THIS BOX MAY BE COLLECTED AS EARLY AS 12 NOON.", "nsi_id": "unitedstatespostalservice-a77078", "operator": "United States Postal Service", "operator:short": "USPS", "operator:type": "public", "operator:wikidata": "Q668687", "ref": "5070300007"}, "type": "Feature"}
{"geometry": {"coordinates": [-92.336827242, 42.498780634], "type": "Point"}, "id": "RIi6SdvmsLfk17Bpbfxzs5nab8g=", "properties": {"@source_uri": "https://tools.usps.com/UspsToolsRestServices/rest/POLocator/findLocations", "@spider": "usps_collection_boxes", "addr:city": "WATERLOO", "addr:country": "US", "addr:postcode": "50703", "addr:state": "IA", "addr:street_address": "500 SYCAMORE ST", "amenity": "post_box", "collection_times": "Mo-Sa 09:00", "nsi_id": "unitedstatespostalservice-a77078", "operator": "United States Postal Service", "operator:short": "USPS", "operator:type": "public", "operator:wikidata": "Q668687", "ref": "5070300011"}, "type": "Feature"}
{"geometry": {"coordinates": [-92.345150622, 42.512506628], "type": "Point"}, "id": "quJ1fS--otArKwaHaCQJaqIKIOg=", "properties": {"@source_uri": "https://tools.usps.com/UspsToolsRestServices/rest/POLocator/findLocations", "@spider": "usps_collection_boxes", "addr:city": "WATERLOO", "addr:country": "US", "addr:postcode": "50703", "addr:state": "IA", "addr:street_address": "707 BROADWAY ST", "amenity": "post_box", "collection_times": "Mo-Sa 14:00", "note": "ON 12/24 AND 12/31, THIS BOX MAY BE COLLECTED AS EARLY AS 12 NOON.", "nsi_id": "unitedstatespostalservice-a77078", "operator": "United States Postal Service", "operator:short": "USPS", "operator:type": "public", "operator:wikidata": "Q668687", "ref": "5070300016"}, "type": "Feature"}
{"geometry": {"coordinates": [-92.315854183, 42.490645545], "type": "Point"}, "id": "45Lqmi8WIj9ehL45atBm_Yb6qx4=", "properties": {"@source_uri": "https://tools.usps.com/UspsToolsRestServices/rest/POLocator/findLocations", "@spider": "usps_collection_boxes", "addr:city": "WATERLOO", "addr:country": "US", "addr:postcode": "50703", "addr:state": "IA", "addr:street_address": "1956 LAFAYETTE ST", "amenity": "post_box", "collection_times": "Mo-Sa 12:00", "nsi_id": "unitedstatespostalservice-a77078", "operator": "United States Postal Service", "operator:short": "USPS", "operator:type": "public", "operator:wikidata": "Q668687", "ref": "5070300024"}, "type": "Feature"}
{"geometry": {"coordinates": [-92.326264279, 42.496021584], "type": "Point"}, "id": "HIvkDLqan3_1-IdNMlt-vVEB4V0=", "properties": {"@source_uri": "https://tools.usps.com/UspsToolsRestServices/rest/POLocator/findLocations", "@spider": "usps_collection_boxes", "addr:city": "WATERLOO", "addr:country": "US", "addr:postcode": "50703", "addr:state": "IA", "addr:street_address": "1214 FRANKLIN ST", "amenity": "post_box", "collection_times": "Mo-Sa 10:30", "nsi_id": "unitedstatespostalservice-a77078", "operator": "United States Postal Service", "operator:short": "USPS", "operator:type": "public", "operator:wikidata": "Q668687", "ref": "5070300027"}, "type": "Feature"}
{"geometry": {"coordinates": [-92.337598769, 42.530480445], "type": "Point"}, "id": "Dfouf_f5vIDAN3jc6GK6zmBma6Y=", "properties": {"@source_uri": "https://tools.usps.com/UspsToolsRestServices/rest/POLocator/findLocations", "@spider": "usps_collection_boxes", "addr:city": "WATERLOO", "addr:country": "US", "addr:postcode": "50703", "addr:state": "IA", "addr:street_address": "2181 LOGAN AVE", "amenity": "post_box", "collection_times": "Mo-Sa 15:00", "note": "ON 12/24 AND 12/31, THIS BOX MAY BE COLLECTED AS EARLY AS 12 NOON.", "nsi_id": "unitedstatespostalservice-a77078", "operator": "United States Postal Service", "operator:short": "USPS", "operator:type": "public", "operator:wikidata": "Q668687", "ref": "5070300030"}, "type": "Feature"}
{"geometry": {"coordinates": [-92.36878875, 42.528987472], "type": "Point"}, "id": "WM6gerQfgveyQDAEW25bmVkkzIs=", "properties": {"@source_uri": "https://tools.usps.com/UspsToolsRestServices/rest/POLocator/findLocations", "@spider": "usps_collection_boxes", "addr:city": "WATERLOO", "addr:country": "US", "addr:postcode": "50703", "addr:state": "IA", "addr:street_address": "1105 CEDAR BEND ST", "amenity": "post_box", "collection_times": "Mo-Sa 12:00", "nsi_id": "unitedstatespostalservice-a77078", "operator": "United States Postal Service", "operator:short": "USPS", "operator:type": "public", "operator:wikidata": "Q668687", "ref": "5070300032"}, "type": "Feature"}
{"geometry": {"coordinates": [-92.306300722, 42.491775085], "type": "Point"}, "id": "sY8zsVUlJ2j8Xctv3lWkAn-m8TY=", "properties": {"@source_uri": "https://tools.usps.com/UspsToolsRestServices/rest/POLocator/findLocations", "@spider": "usps_collection_boxes", "addr:city": "WATERLOO", "addr:country": "US", "addr:postcode": "50703", "addr:state": "IA", "addr:street_address": "701 EASTGATE DR", "amenity": "post_box", "collection_times": "Mo-Sa 09:00", "nsi_id": "unitedstatespostalservice-a77078", "operator": "United States Postal Service", "operator:short": "USPS", "operator:type": "public", "operator:wikidata": "Q668687", "ref": "5070300034"}, "type": "Feature"}
{"geometry": {"coordinates": [-92.339080262, 42.500273473], "type": "Point"}, "id": "23R3mQB7QjNzGMiSX3B6ut_YdJU=", "properties": {"@source_uri": "https://tools.usps.com/UspsToolsRestServices/rest/POLocator/findLocations", "@spider": "usps_collection_boxes", "addr:city": "WATERLOO", "addr:country": "US", "addr:postcode": "50703", "addr:state": "IA", "addr:street_address": "300 SYCAMORE ST", "amenity": "post_box", "collection_times": "Mo-Sa 18:30", "note": "ON 12/24 AND 12/31, THIS BOX MAY BE COLLECTED AS EARLY AS 12 NOON.", "nsi_id": "unitedstatespostalservice-a77078", "operator": "United States Postal Service", "operator:short": "USPS", "operator:type": "public", "operator:wikidata": "Q668687", "ref": "5070300047"}, "type": "Feature"}
{"geometry": {"coordinates": [-92.339080262, 42.500273473], "type": "Point"}, "id": "QbdLnbR-HZfrUzMf5WrH0iwhwUY=", "properties": {"@source_uri": "https://tools.usps.com/UspsToolsRestServices/rest/POLocator/findLocations", "@spider": "usps_collection_boxes", "addr:city": "WATERLOO", "addr:country": "US", "addr:postcode": "50703", "addr:state": "IA", "addr:street_address": "300 SYCAMORE ST", "amenity": "post_box", "collection_times": "Mo-Sa 18:30", "indoor": "yes", "note": "ON 12/24 AND 12/31, THIS BOX MAY BE COLLECTED AS EARLY AS 12 NOON.", "nsi_id": "unitedstatespostalservice-a77078", "operator": "United States Postal Service", "operator:short": "USPS", "operator:type": "public", "operator:wikidata": "Q668687", "ref": "5070300051"}, "type": "Feature"}
{"geometry": {"coordinates": [-92.332483651, 42.498771746], "type": "Point"}, "id": "Rs_Shh59hV0GGbAp94I9o9QPG18=", "properties": {"@source_uri": "https://tools.usps.com/UspsToolsRestServices/rest/POLocator/findLocations", "@spider": "usps_collection_boxes", "addr:city": "WATERLOO", "addr:country": "US", "addr:postcode": "50703", "addr:state": "IA", "addr:street_address": "715 MULBERRY ST", "amenity": "post_box", "collection_times": "Mo-Sa 14:00", "note": "ON 12/24 AND 12/31, THIS BOX MAY BE COLLECTED AS EARLY AS 12 NOON.", "nsi_id": "unitedstatespostalservice-a77078", "operator": "United States Postal Service", "operator:short": "USPS", "operator:type": "public", "operator:wikidata": "Q668687", "ref": "5070300052"}, "type": "Feature"}
{"geometry": {"coordinates": [-92.339080262, 42.500273473], "type": "Point"}, "id": "EU5sYN0PJO_7UepYH69hfFdzTVg=", "properties": {"@source_uri": "https://tools.usps.com/UspsToolsRestServices/rest/POLocator/findLocations", "@spider": "usps_collection_boxes", "addr:city": "WATERLOO", "addr:country": "US", "addr:postcode": "50703", "addr:state": "IA", "addr:street_address": "300 SYCAMORE ST", "amenity": "post_box", "collection_times": "Mo-Fr 17:00", "indoor": "yes", "note": "ON 12/24 AND 12/31, THIS BOX MAY BE COLLECTED AS EARLY AS 12 NOON.", "nsi_id": "unitedstatespostalservice-a77078", "operator": "United States Postal Service", "operator:short": "USPS", "operator:type": "public", "operator:wikidata": "Q668687", "ref": "5070300058"}, "type": "Feature"}
{"geometry": {"coordinates": [-92.247762841, 42.461723145], "type": "Point"}, "id": "ps7dSNZqZx6qVYPSf1K16w1suhw=", "properties": {"@source_uri": "https://tools.usps.com/UspsToolsRestServices/rest/POLocator/findLocations", "@spider": "usps_collection_boxes", "addr:city": "ELK RUN HEIGHTS", "addr:country": "US", "addr:postcode": "50707", "addr:state": "IA", "addr:street_address": "100 PLAZA DR", "amenity": "post_box", "collection_times": "Mo-Sa 11:30", "nsi_id": "unitedstatespostalservice-a77078", "operator": "United States Postal Service", "operator:short": "USPS", "operator:type": "public", "operator:wikidata": "Q668687", "ref": "5070700000"}, "type": "Feature"}
{"geometry": {"coordinates": [-92.288538181, 42.477304218], "type": "Point"}, "id": "KsqONb_txTjUhYf2o8V1w_EZUjs=", "properties": {"@source_uri": "https://tools.usps.com/UspsToolsRestServices/rest/POLocator/findLocations", "@spider": "usps_collection_boxes", "addr:city": "ELK RUN HEIGHTS", "addr:country": "US", "addr:postcode": "50707", "addr:state": "IA", "addr:street_address": "3568 LAFAYETTE RD", "amenity": "post_box", "collection_times": "Mo-Sa 17:00", "note": "ON 12/24 AND 12/31, THIS BOX MAY BE COLLECTED AS EARLY AS 12 NOON.", "nsi_id": "unitedstatespostalservice-a77078", "operator": "United States Postal Service", "operator:short": "USPS", "operator:type": "public", "operator:wikidata": "Q668687", "ref": "5070700001"}, "type": "Feature"}
{"geometry": {"coordinates": [-92.257911503, 42.469017477], "type": "Point"}, "id": "v_hg87NPZ_5h-8AcNGObOhicmZI=", "properties": {"@source_uri": "https://tools.usps.com/UspsToolsRestServices/rest/POLocator/findLocations", "@spider": "usps_collection_boxes", "addr:city": "ELK RUN HEIGHTS", "addr:country": "US", "addr:postcode": "50707", "addr:state": "IA", "addr:street_address": "5202 LAFAYETTE RD", "amenity": "post_box", "collection_times": "Mo-Sa 09:45", "nsi_id": "unitedstatespostalservice-a77078", "operator": "United States Postal Service", "operator:short": "USPS", "operator:type": "public", "operator:wikidata": "Q668687", "ref": "5070700003"}, "type": "Feature"}
{"geometry": {"coordinates": [-92.25082882, 42.459858549], "type": "Point"}, "id": "tE39vfAHCxkRGxN1z0lCRm6KK4I=", "properties": {"@source_uri": "https://tools.usps.com/UspsToolsRestServices/rest/POLocator/findLocations", "@spider": "usps_collection_boxes", "addr:city": "ELK RUN HEIGHTS", "addr:country": "US", "addr:postcode": "50707", "addr:state": "IA", "addr:street_address": "441 EVANSDALE DR", "amenity": "post_box", "collection_times": "Mo-Sa 11:00", "nsi_id": "unitedstatespostalservice-a77078", "operator": "United States Postal Service", "operator:short": "USPS", "operator:type": "public", "operator:wikidata": "Q668687", "ref": "5070700004"}, "type": "Feature"}
