{"geometry": {"coordinates": [-94.870528075, 41.273072329], "type": "Point"}, "id": "qkdxot4qBIrsw-iq_nPEmCvHuGM=", "properties": {"@spider": "usps_collection_boxes", "addr:city": "CUMBERLAND", "addr:country": "US", "addr:full": "123 MAIN ST", "addr:postcode": "50843", "addr:state": "IA", "amenity": "post_box", "brand": "United States Postal Service", "brand:wikidata": "Q668687", "collection_times": "Mo-Sa 16:00", "name": "USPS COLLECTION BOX - BLUE BOX", "note": "ON 12/24 AND 12/31, THIS BOX MAY BE COLLECTED AS EARLY AS 12 NOON.", "nsi_id": "unitedstatespostalservice-a77078", "operator": "United States Postal Service", "operator:short": "USPS", "operator:type": "public", "operator:wikidata": "Q668687", "ref": "5084300000"}, "type": "Feature"}
{"geometry": {"coordinates": [-94.870528075, 41.273072329], "type": "Point"}, "id": "A0gIB4-gijW_ZqFrkDIJkinxWdM=", "properties": {"@spider": "usps_collection_boxes", "addr:city": "CUMBERLAND", "addr:country": "US", "addr:full": "123 MAIN ST", "addr:postcode": "50843", "addr:state": "IA", "amenity": "post_box", "brand": "United States Postal Service", "brand:wikidata": "Q668687", "collection_times": "Mo-Fr 11:45; Sa 09:00", "name": "USPS COLLECTION BOX - PO LOBBY", "nsi_id": "unitedstatespostalservice-a77078", "operator": "United States Postal Service", "operator:short": "USPS", "operator:type": "public", "operator:wikidata": "Q668687", "ref": "5084300001"}, "type": "Feature"}
{"geometry": {"coordinates": [-94.870528075, 41.273072329], "type": "Point"}, "id": "jQwDMMu-RCinuyQ6lh5iHiwYAZE=", "properties": {"@spider": "usps_collection_boxes", "addr:city": "CUMBERLAND", "addr:country": "US", "addr:full": "123 MAIN ST", "addr:postcode": "50843", "addr:state": "IA", "amenity": "post_box", "brand": "United States Postal Service", "brand:wikidata": "Q668687", "collection_times": "Mo-Fr 12:00; Sa 09:15", "name": "USPS COLLECTION BOX - PO LOBBY", "nsi_id": "unitedstatespostalservice-a77078", "operator": "United States Postal Service", "operator:short": "USPS", "operator:type": "public", "operator:wikidata": "Q668687", "ref": "5084300002"}, "type": "Feature"}
{"geometry": {"coordinates": [-94.984614194, 41.141983934], "type": "Point"}, "id": "fcu0Tgqg1xiy4pEpv3sibnjxzxE=", "properties": {"@spider": "usps_collection_boxes", "addr:city": "GRANT", "addr:country": "US", "addr:full": "507 2ND ST", "addr:postcode": "50847", "addr:state": "IA", "amenity": "post_box", "brand": "United States Postal Service", "brand:wikidata": "Q668687", "collection_times": "Mo-Sa 13:00", "name": "USPS COLLECTION BOX - BLUE BOX", "note": "ON 12/24 AND 12/31, THIS BOX MAY BE COLLECTED AS EARLY AS 12 NOON.", "nsi_id": "unitedstatespostalservice-a77078", "operator": "United States Postal Service", "operator:short": "USPS", "operator:type": "public", "operator:wikidata": "Q668687", "ref": "5084700000"}, "type": "Feature"}
{"geometry": {"coordinates": [-94.984614194, 41.141983934], "type": "Point"}, "id": "-MTtGa8m9qMULrEecccfFpIV27s=", "properties": {"@spider": "usps_collection_boxes", "addr:city": "GRANT", "addr:country": "US", "addr:full": "507 2ND ST", "addr:postcode": "50847", "addr:state": "IA", "amenity": "post_box", "brand": "United States Postal Service", "brand:wikidata": "Q668687", "collection_times": "Mo-Sa 13:00", "name": "USPS COLLECTION BOX - PO LOBBY", "note": "ON 12/24 AND 12/31, THIS BOX MAY BE COLLECTED AS EARLY AS 12 NOON.", "nsi_id": "unitedstatespostalservice-a77078", "operator": "United States Postal Service", "operator:short": "USPS", "operator:type": "public", "operator:wikidata": "Q668687", "ref": "5084700001"}, "type": "Feature"}
{"geometry": {"coordinates": [-94.984614194, 41.141983934], "type": "Point"}, "id": "6WbsRtmMnkeY_yrHfNl0gl2zMas=", "properties": {"@spider": "usps_collection_boxes", "addr:city": "GRANT", "addr:country": "US", "addr:full": "507 2ND ST", "addr:postcode": "50847", "addr:state": "IA", "amenity": "post_box", "brand": "United States Postal Service", "brand:wikidata": "Q668687", "collection_times": "Mo-Sa 15:00", "name": "USPS COLLECTION BOX - PO LOBBY", "note": "ON 12/24 AND 12/31, THIS BOX MAY BE COLLECTED AS EARLY AS 12 NOON.", "nsi_id": "unitedstatespostalservice-a77078", "operator": "United States Postal Service", "operator:short": "USPS", "operator:type": "public", "operator:wikidata": "Q668687", "ref": "5084700002"}, "type": "Feature"}
{"geometry": {"coordinates": [-94.977346356, 40.927454801], "type": "Point"}, "id": "343FYKofj_t0GpoJFOPrMbxMzes=", "properties": {"@spider": "usps_collection_boxes", "addr:city": "VILLISCA", "addr:country": "US", "addr:full": "500 S 3RD AVE", "addr:postcode": "50864", "addr:state": "IA", "amenity": "post_box", "brand": "United States Postal Service", "brand:wikidata": "Q668687", "collection_times": "Mo-Sa 16:00", "name": "USPS COLLECTION BOX - BLUE BOX", "note": "ON 12/24 AND 12/31, THIS BOX MAY BE COLLECTED AS EARLY AS 12 NOON.", "nsi_id": "unitedstatespostalservice-a77078", "operator": "United States Postal Service", "operator:short": "USPS", "operator:type": "public", "operator:wikidata": "Q668687", "ref": "5086400006"}, "type": "Feature"}
{"geometry": {"coordinates": [-94.9775889679, 40.9275280176], "type": "Point"}, "id": "J2-qsSkMPNzAfPp9A9YmVmd9J-8=", "properties": {"@spider": "usps_collection_boxes", "addr:city": "VILLISCA", "addr:country": "US", "addr:full": "500 S 3RD AVE", "addr:postcode": "50864", "addr:state": "IA", "amenity": "post_box", "brand": "United States Postal Service", "brand:wikidata": "Q668687", "collection_times": "Mo-Fr 16:00; Sa 08:30", "name": "USPS COLLECTION BOX - PO LOBBY", "note": "ON 12/24 AND 12/31, THIS BOX MAY BE COLLECTED AS EARLY AS 12 NOON.", "nsi_id": "unitedstatespostalservice-a77078", "operator": "United States Postal Service", "operator:short": "USPS", "operator:type": "public", "operator:wikidata": "Q668687", "ref": "5086400009"}, "type": "Feature"}
{"geometry": {"coordinates": [-94.9775889679, 40.9275280176], "type": "Point"}, "id": "wtCHrvh7Ma4FE6bntmFf1V_t8FU=", "properties": {"@spider": "usps_collection_boxes", "addr:city": "VILLISCA", "addr:country": "US", "addr:full": "500 S 3RD AVE", "addr:postcode": "50864", "addr:state": "IA", "amenity": "post_box", "brand": "United States Postal Service", "brand:wikidata": "Q668687", "collection_times": "Mo-Fr 16:00; Sa 08:00", "name": "USPS COLLECTION BOX - PO LOBBY", "note": "ON 12/24 AND 12/31, THIS BOX MAY BE COLLECTED AS EARLY AS 12 NOON.", "nsi_id": "unitedstatespostalservice-a77078", "operator": "United States Postal Service", "operator:short": "USPS", "operator:type": "public", "operator:wikidata": "Q668687", "ref": "5086400010"}, "type": "Feature"}
