{"geometry": {"coordinates": [-96.557220168, 42.828729504], "type": "Point"}, "id": "QsuyvoHvYdcl-LXE3GNVA_qoSpg=", "properties": {"@source_uri": "https://tools.usps.com/UspsToolsRestServices/rest/POLocator/findLocations", "@spider": "usps_collection_boxes", "addr:city": "AKRON", "addr:country": "US", "addr:postcode": "51001", "addr:state": "IA", "addr:street_address": "351 REED ST", "amenity": "post_box", "collection_times": "Mo-Fr 15:45; Sa 09:15", "note": "ON 12/24 AND 12/31, THIS BOX MAY BE COLLECTED AS EARLY AS 12 NOON.", "nsi_id": "unitedstatespostalservice-a77078", "operator": "United States Postal Service", "operator:short": "USPS", "operator:type": "public", "operator:wikidata": "Q668687", "ref": "5100100000"}, "type": "Feature"}
{"geometry": {"coordinates": [-96.557220168, 42.828729504], "type": "Point"}, "id": "M486jPY9QMbZoGRKDATv1FD5BkA=", "properties": {"@source_uri": "https://tools.usps.com/UspsToolsRestServices/rest/POLocator/findLocations", "@spider": "usps_collection_boxes", "addr:city": "AKRON", "addr:country": "US", "addr:postcode": "51001", "addr:state": "IA", "addr:street_address": "351 REED ST", "amenity": "post_box", "collection_times": "Mo-Fr 16:00", "indoor": "yes", "note": "ON 12/24 AND 12/31, THIS BOX MAY BE COLLECTED AS EARLY AS 12 NOON.", "nsi_id": "unitedstatespostalservice-a77078", "operator": "United States Postal Service", "operator:short": "USPS", "operator:type": "public", "operator:wikidata": "Q668687", "ref": "5100100001"}, "type": "Feature"}
{"geometry": {"coordinates": [-96.557220168, 42.828729504], "type": "Point"}, "id": "nwprAw8nwMitV-Soc6CQ2EEeaiU=", "properties": {"@source_uri": "https://tools.usps.com/UspsToolsRestServices/rest/POLocator/findLocations", "@spider": "usps_collection_boxes", "addr:city": "AKRON", "addr:country": "US", "addr:postcode": "51001", "addr:state": "IA", "addr:street_address": "351 REED ST", "amenity": "post_box", "collection_times": "Mo-Fr 16:00; Sa 09:30", "indoor": "yes", "note": "ON 12/24 AND 12/31, THIS BOX MAY BE COLLECTED AS EARLY AS 12 NOON.", "nsi_id": "unitedstatespostalservice-a77078", "operator": "United States Postal Service", "operator:short": "USPS", "operator:type": "public", "operator:wikidata": "Q668687", "ref": "5100100002"}, "type": "Feature"}
{"geometry": {"coordinates": [-95.305247348, 42.677045078], "type": "Point"}, "id": "m_leBl-UkiBvEr9Y58Z96bLzsCQ=", "properties": {"@source_uri": "https://tools.usps.com/UspsToolsRestServices/rest/POLocator/findLocations", "@spider": "usps_collection_boxes", "addr:city": "ALTA", "addr:country": "US", "addr:postcode": "51002", "addr:state": "IA", "addr:street_address": "106 CHEROKEE ST", "amenity": "post_box", "collection_times": "Mo-Fr 17:00; Sa 09:45", "note": "ON 12/24 AND 12/31, THIS BOX MAY BE COLLECTED AS EARLY AS 12 NOON.", "nsi_id": "unitedstatespostalservice-a77078", "operator": "United States Postal Service", "operator:short": "USPS", "operator:type": "public", "operator:wikidata": "Q668687", "ref": "5100200001"}, "type": "Feature"}
{"geometry": {"coordinates": [-95.305247348, 42.677045078], "type": "Point"}, "id": "ubqV-7K8H65wG8iE8Yk8WtcWco4=", "properties": {"@source_uri": "https://tools.usps.com/UspsToolsRestServices/rest/POLocator/findLocations", "@spider": "usps_collection_boxes", "addr:city": "ALTA", "addr:country": "US", "addr:postcode": "51002", "addr:state": "IA", "addr:street_address": "106 CHEROKEE ST", "amenity": "post_box", "collection_times": "Mo-Fr 16:00", "indoor": "yes", "note": "ON 12/24 AND 12/31, THIS BOX MAY BE COLLECTED AS EARLY AS 12 NOON.", "nsi_id": "unitedstatespostalservice-a77078", "operator": "United States Postal Service", "operator:short": "USPS", "operator:type": "public", "operator:wikidata": "Q668687", "ref": "5100200002"}, "type": "Feature"}
{"geometry": {"coordinates": [-95.305247348, 42.677045078], "type": "Point"}, "id": "H0dpw8I9XbqIf6OfdRUmOx4nJx4=", "properties": {"@source_uri": "https://tools.usps.com/UspsToolsRestServices/rest/POLocator/findLocations", "@spider": "usps_collection_boxes", "addr:city": "ALTA", "addr:country": "US", "addr:postcode": "51002", "addr:state": "IA", "addr:street_address": "106 CHEROKEE ST.", "amenity": "post_box", "collection_times": "Mo-Fr 16:00; Sa 10:00", "indoor": "yes", "note": "ON 12/24 AND 12/31, THIS BOX MAY BE COLLECTED AS EARLY AS 12 NOON.", "nsi_id": "unitedstatespostalservice-a77078", "operator": "United States Postal Service", "operator:short": "USPS", "operator:type": "public", "operator:wikidata": "Q668687", "ref": "5100200003"}, "type": "Feature"}
{"geometry": {"coordinates": [-96.009920348, 42.988075187], "type": "Point"}, "id": "KHWVko6Cy3DKcUElKkTnS2YO0mI=", "properties": {"@source_uri": "https://tools.usps.com/UspsToolsRestServices/rest/POLocator/findLocations", "@spider": "usps_collection_boxes", "addr:city": "ALTON", "addr:country": "US", "addr:postcode": "51003", "addr:state": "IA", "addr:street_address": "1022 3RD AVE", "amenity": "post_box", "collection_times": "Mo-Fr 13:45; Sa 08:45", "note": "ON 12/24 AND 12/31, THIS BOX MAY BE COLLECTED AS EARLY AS 12 NOON.", "nsi_id": "unitedstatespostalservice-a77078", "operator": "United States Postal Service", "operator:short": "USPS", "operator:type": "public", "operator:wikidata": "Q668687", "ref": "5100300001"}, "type": "Feature"}
{"geometry": {"coordinates": [-96.009920348, 42.988075187], "type": "Point"}, "id": "-h7EgHX36qXB9Lu6ra_DpiDWILI=", "properties": {"@source_uri": "https://tools.usps.com/UspsToolsRestServices/rest/POLocator/findLocations", "@spider": "usps_collection_boxes", "addr:city": "ALTON", "addr:country": "US", "addr:postcode": "51003", "addr:state": "IA", "addr:street_address": "1022 3RD AVE", "amenity": "post_box", "collection_times": "Mo-Fr 13:45", "indoor": "yes", "note": "ON 12/24 AND 12/31, THIS BOX MAY BE COLLECTED AS EARLY AS 12 NOON.", "nsi_id": "unitedstatespostalservice-a77078", "operator": "United States Postal Service", "operator:short": "USPS", "operator:type": "public", "operator:wikidata": "Q668687", "ref": "5100300002"}, "type": "Feature"}
{"geometry": {"coordinates": [-96.009920348, 42.988075187], "type": "Point"}, "id": "E42245mytgb2GRDVo_kcY6NDVQs=", "properties": {"@source_uri": "https://tools.usps.com/UspsToolsRestServices/rest/POLocator/findLocations", "@spider": "usps_collection_boxes", "addr:city": "ALTON", "addr:country": "US", "addr:postcode": "51003", "addr:state": "IA", "addr:street_address": "1022 3RD AVE", "amenity": "post_box", "collection_times": "Mo-Fr 14:00; Sa 09:00", "indoor": "yes", "note": "ON 12/24 AND 12/31, THIS BOX MAY BE COLLECTED AS EARLY AS 12 NOON.", "nsi_id": "unitedstatespostalservice-a77078", "operator": "United States Postal Service", "operator:short": "USPS", "operator:type": "public", "operator:wikidata": "Q668687", "ref": "5100300003"}, "type": "Feature"}
{"geometry": {"coordinates": [-95.86646072, 42.388992], "type": "Point"}, "id": "ise5EcfVivQmkR-8AWVLEINm5yU=", "properties": {"@source_uri": "https://tools.usps.com/UspsToolsRestServices/rest/POLocator/findLocations", "@spider": "usps_collection_boxes", "addr:city": "ANTHON", "addr:country": "US", "addr:postcode": "51004", "addr:state": "IA", "addr:street_address": "109 N 2ND AVE", "amenity": "post_box", "collection_times": "Mo-Fr 15:15; Sa 08:45", "note": "ON 12/24 AND 12/31, THIS BOX MAY BE COLLECTED AS EARLY AS 12 NOON.", "nsi_id": "unitedstatespostalservice-a77078", "operator": "United States Postal Service", "operator:short": "USPS", "operator:type": "public", "operator:wikidata": "Q668687", "ref": "5100400000"}, "type": "Feature"}
{"geometry": {"coordinates": [-95.86646072, 42.388992], "type": "Point"}, "id": "qwFyF_go63zvH7fiLXVAXzIrAno=", "properties": {"@source_uri": "https://tools.usps.com/UspsToolsRestServices/rest/POLocator/findLocations", "@spider": "usps_collection_boxes", "addr:city": "ANTHON", "addr:country": "US", "addr:postcode": "51004", "addr:state": "IA", "addr:street_address": "109 N 2ND AVE", "amenity": "post_box", "collection_times": "Mo-Fr 15:15", "indoor": "yes", "note": "ON 12/24 AND 12/31, THIS BOX MAY BE COLLECTED AS EARLY AS 12 NOON.", "nsi_id": "unitedstatespostalservice-a77078", "operator": "United States Postal Service", "operator:short": "USPS", "operator:type": "public", "operator:wikidata": "Q668687", "ref": "5100400001"}, "type": "Feature"}
{"geometry": {"coordinates": [-95.86646072, 42.388992], "type": "Point"}, "id": "n9_kvm3ZkyyLsTZLp_LVqFcXwco=", "properties": {"@source_uri": "https://tools.usps.com/UspsToolsRestServices/rest/POLocator/findLocations", "@spider": "usps_collection_boxes", "addr:city": "ANTHON", "addr:country": "US", "addr:postcode": "51004", "addr:state": "IA", "addr:street_address": "109 N 2ND AVE", "amenity": "post_box", "collection_times": "Mo-Fr 15:30; Sa 09:00", "indoor": "yes", "note": "ON 12/24 AND 12/31, THIS BOX MAY BE COLLECTED AS EARLY AS 12 NOON.", "nsi_id": "unitedstatespostalservice-a77078", "operator": "United States Postal Service", "operator:short": "USPS", "operator:type": "public", "operator:wikidata": "Q668687", "ref": "5100400002"}, "type": "Feature"}
{"geometry": {"coordinates": [-95.435438881, 42.71294591], "type": "Point"}, "id": "PnWqyKELDiAP6iUu1Wrm8_wzPZ4=", "properties": {"@source_uri": "https://tools.usps.com/UspsToolsRestServices/rest/POLocator/findLocations", "@spider": "usps_collection_boxes", "addr:city": "AURELIA", "addr:country": "US", "addr:postcode": "51005", "addr:state": "IA", "addr:street_address": "209 MYRTLE ST", "amenity": "post_box", "collection_times": "Mo-Fr 15:45; Sa 09:45", "note": "ON 12/24 AND 12/31, THIS BOX MAY BE COLLECTED AS EARLY AS 12 NOON.", "nsi_id": "unitedstatespostalservice-a77078", "operator": "United States Postal Service", "operator:short": "USPS", "operator:type": "public", "operator:wikidata": "Q668687", "ref": "5100500000"}, "type": "Feature"}
{"geometry": {"coordinates": [-95.435438881, 42.71294591], "type": "Point"}, "id": "rqED9rvDVE8pnCttFIKXGkOyidc=", "properties": {"@source_uri": "https://tools.usps.com/UspsToolsRestServices/rest/POLocator/findLocations", "@spider": "usps_collection_boxes", "addr:city": "AURELIA", "addr:country": "US", "addr:postcode": "51005", "addr:state": "IA", "addr:street_address": "209 MYRTLE ST", "amenity": "post_box", "collection_times": "Mo-Fr 16:15", "indoor": "yes", "note": "ON 12/24 AND 12/31, THIS BOX MAY BE COLLECTED AS EARLY AS 12 NOON.", "nsi_id": "unitedstatespostalservice-a77078", "operator": "United States Postal Service", "operator:short": "USPS", "operator:type": "public", "operator:wikidata": "Q668687", "ref": "5100500001"}, "type": "Feature"}
{"geometry": {"coordinates": [-95.435438881, 42.71294591], "type": "Point"}, "id": "S_nqHMpHB9SUBbR78SDMfgRpKI0=", "properties": {"@source_uri": "https://tools.usps.com/UspsToolsRestServices/rest/POLocator/findLocations", "@spider": "usps_collection_boxes", "addr:city": "AURELIA", "addr:country": "US", "addr:postcode": "51005", "addr:state": "IA", "addr:street_address": "209 MYRTLE ST", "amenity": "post_box", "collection_times": "Mo-Fr 16:00; Sa 10:00", "indoor": "yes", "note": "ON 12/24 AND 12/31, THIS BOX MAY BE COLLECTED AS EARLY AS 12 NOON.", "nsi_id": "unitedstatespostalservice-a77078", "operator": "United States Postal Service", "operator:short": "USPS", "operator:type": "public", "operator:wikidata": "Q668687", "ref": "5100500002"}, "type": "Feature"}
{"geometry": {"coordinates": [-95.5989103, 42.315827835], "type": "Point"}, "id": "ZrWmVrTaIp84MJd8fhPhnYkWJlU=", "properties": {"@source_uri": "https://tools.usps.com/UspsToolsRestServices/rest/POLocator/findLocations", "@spider": "usps_collection_boxes", "addr:city": "BATTLE CREEK", "addr:country": "US", "addr:postcode": "51006", "addr:state": "IA", "addr:street_address": "108 MAIN ST", "amenity": "post_box", "collection_times": "Mo-Fr 11:30; Sa 09:15", "nsi_id": "unitedstatespostalservice-a77078", "operator": "United States Postal Service", "operator:short": "USPS", "operator:type": "public", "operator:wikidata": "Q668687", "ref": "5100600000"}, "type": "Feature"}
{"geometry": {"coordinates": [-95.5989103, 42.315827835], "type": "Point"}, "id": "JvyY5XDP4hk4RSBePKXzJZ85iaY=", "properties": {"@source_uri": "https://tools.usps.com/UspsToolsRestServices/rest/POLocator/findLocations", "@spider": "usps_collection_boxes", "addr:city": "BATTLE CREEK", "addr:country": "US", "addr:postcode": "51006", "addr:state": "IA", "addr:street_address": "108 MAIN ST", "amenity": "post_box", "collection_times": "Mo-Fr 11:30", "indoor": "yes", "nsi_id": "unitedstatespostalservice-a77078", "operator": "United States Postal Service", "operator:short": "USPS", "operator:type": "public", "operator:wikidata": "Q668687", "ref": "5100600001"}, "type": "Feature"}
{"geometry": {"coordinates": [-95.5989103, 42.315827835], "type": "Point"}, "id": "b8dKUtZqpKtQ1d3ebFIX-4JwvMI=", "properties": {"@source_uri": "https://tools.usps.com/UspsToolsRestServices/rest/POLocator/findLocations", "@spider": "usps_collection_boxes", "addr:city": "BATTLE CREEK", "addr:country": "US", "addr:postcode": "51006", "addr:state": "IA", "addr:street_address": "108 MAIN ST", "amenity": "post_box", "collection_times": "Mo-Fr 11:45; Sa 09:30", "indoor": "yes", "nsi_id": "unitedstatespostalservice-a77078", "operator": "United States Postal Service", "operator:short": "USPS", "operator:type": "public", "operator:wikidata": "Q668687", "ref": "5100600002"}, "type": "Feature"}
{"geometry": {"coordinates": [-96.2120306773, 42.4094719132], "type": "Point"}, "id": "QdRW9hV7ch8-doXr9AXWtRcJhm4=", "properties": {"@source_uri": "https://tools.usps.com/UspsToolsRestServices/rest/POLocator/findLocations", "@spider": "usps_collection_boxes", "addr:city": "BRONSON", "addr:country": "US", "addr:postcode": "51007", "addr:state": "IA", "addr:street_address": "110 E 1ST ST", "amenity": "post_box", "collection_times": "Mo-Fr 13:45; Sa 11:45", "note": "ON 12/24 AND 12/31, THIS BOX MAY BE COLLECTED AS EARLY AS 12 NOON.", "nsi_id": "unitedstatespostalservice-a77078", "operator": "United States Postal Service", "operator:short": "USPS", "operator:type": "public", "operator:wikidata": "Q668687", "ref": "5100700000"}, "type": "Feature"}
{"geometry": {"coordinates": [-96.2120306773, 42.4094719132], "type": "Point"}, "id": "dHrmvmiqGHU5UzQnbN1_dt94Buw=", "properties": {"@source_uri": "https://tools.usps.com/UspsToolsRestServices/rest/POLocator/findLocations", "@spider": "usps_collection_boxes", "addr:city": "BRONSON", "addr:country": "US", "addr:postcode": "51007", "addr:state": "IA", "addr:street_address": "110 E 1ST ST", "amenity": "post_box", "collection_times": "Mo-Fr 13:45; Sa 11:15", "indoor": "yes", "note": "ON 12/24 AND 12/31, THIS BOX MAY BE COLLECTED AS EARLY AS 12 NOON.", "nsi_id": "unitedstatespostalservice-a77078", "operator": "United States Postal Service", "operator:short": "USPS", "operator:type": "public", "operator:wikidata": "Q668687", "ref": "5100700001"}, "type": "Feature"}
{"geometry": {"coordinates": [-96.2120306773, 42.4094719132], "type": "Point"}, "id": "UeC-cY7Ue1jj-b7jFSnRSZij3UE=", "properties": {"@source_uri": "https://tools.usps.com/UspsToolsRestServices/rest/POLocator/findLocations", "@spider": "usps_collection_boxes", "addr:city": "BRONSON", "addr:country": "US", "addr:postcode": "51007", "addr:state": "IA", "addr:street_address": "110 E 1ST ST", "amenity": "post_box", "collection_times": "Mo-Fr 14:00; Sa 11:30", "indoor": "yes", "note": "ON 12/24 AND 12/31, THIS BOX MAY BE COLLECTED AS EARLY AS 12 NOON.", "nsi_id": "unitedstatespostalservice-a77078", "operator": "United States Postal Service", "operator:short": "USPS", "operator:type": "public", "operator:wikidata": "Q668687", "ref": "5100700002"}, "type": "Feature"}
{"geometry": {"coordinates": [-96.270028817, 42.809664107], "type": "Point"}, "id": "4ewm-Ww-Bcr-lRjcbu8qwldGKx0=", "properties": {"@source_uri": "https://tools.usps.com/UspsToolsRestServices/rest/POLocator/findLocations", "@spider": "usps_collection_boxes", "addr:city": "BRUNSVILLE", "addr:country": "US", "addr:postcode": "51008", "addr:state": "IA", "addr:street_address": "230 OAK ST", "amenity": "post_box", "collection_times": "Mo-Fr 13:00; Sa 10:00", "note": "ON 12/24 AND 12/31, THIS BOX MAY BE COLLECTED AS EARLY AS 12 NOON.", "nsi_id": "unitedstatespostalservice-a77078", "operator": "United States Postal Service", "operator:short": "USPS", "operator:type": "public", "operator:wikidata": "Q668687", "ref": "5100800000"}, "type": "Feature"}
{"geometry": {"coordinates": [-96.270028817, 42.809664107], "type": "Point"}, "id": "BzSFZrM_Jdy_B7smd7iho99i6jQ=", "properties": {"@source_uri": "https://tools.usps.com/UspsToolsRestServices/rest/POLocator/findLocations", "@spider": "usps_collection_boxes", "addr:city": "BRUNSVILLE", "addr:country": "US", "addr:postcode": "51008", "addr:state": "IA", "addr:street_address": "230 OAK ST", "amenity": "post_box", "collection_times": "Mo-Fr 12:45; Sa 09:45", "indoor": "yes", "note": "ON 12/24 AND 12/31, THIS BOX MAY BE COLLECTED AS EARLY AS 12 NOON.", "nsi_id": "unitedstatespostalservice-a77078", "operator": "United States Postal Service", "operator:short": "USPS", "operator:type": "public", "operator:wikidata": "Q668687", "ref": "5100800001"}, "type": "Feature"}
{"geometry": {"coordinates": [-96.270028817, 42.809664107], "type": "Point"}, "id": "OrdNqpO47AIlLBL7XQZKE641vNg=", "properties": {"@source_uri": "https://tools.usps.com/UspsToolsRestServices/rest/POLocator/findLocations", "@spider": "usps_collection_boxes", "addr:city": "BRUNSVILLE", "addr:country": "US", "addr:postcode": "51008", "addr:state": "IA", "addr:street_address": "230 OAK ST", "amenity": "post_box", "collection_times": "Mo-Fr 13:00; Sa 10:00", "indoor": "yes", "note": "ON 12/24 AND 12/31, THIS BOX MAY BE COLLECTED AS EARLY AS 12 NOON.", "nsi_id": "unitedstatespostalservice-a77078", "operator": "United States Postal Service", "operator:short": "USPS", "operator:type": "public", "operator:wikidata": "Q668687", "ref": "5100800002"}, "type": "Feature"}
{"geometry": {"coordinates": [-95.549872953, 42.946311754], "type": "Point"}, "id": "VNL3iuxv4SFv2g7-qhqp7akTsvE=", "properties": {"@source_uri": "https://tools.usps.com/UspsToolsRestServices/rest/POLocator/findLocations", "@spider": "usps_collection_boxes", "addr:city": "CALUMET", "addr:country": "US", "addr:postcode": "51009", "addr:state": "IA", "addr:street_address": "105 2ND ST", "amenity": "post_box", "collection_times": "Mo-Fr 12:45; Sa 09:45", "note": "ON 12/24 AND 12/31, THIS BOX MAY BE COLLECTED AS EARLY AS 12 NOON.", "nsi_id": "unitedstatespostalservice-a77078", "operator": "United States Postal Service", "operator:short": "USPS", "operator:type": "public", "operator:wikidata": "Q668687", "ref": "5100900000"}, "type": "Feature"}
{"geometry": {"coordinates": [-95.549872953, 42.946311754], "type": "Point"}, "id": "xA5rK7Ghc6TLNotDn2_lAoN_sww=", "properties": {"@source_uri": "https://tools.usps.com/UspsToolsRestServices/rest/POLocator/findLocations", "@spider": "usps_collection_boxes", "addr:city": "CALUMET", "addr:country": "US", "addr:postcode": "51009", "addr:state": "IA", "addr:street_address": "105 2ND ST", "amenity": "post_box", "collection_times": "Mo-Fr 12:45; Sa 09:45", "indoor": "yes", "note": "ON 12/24 AND 12/31, THIS BOX MAY BE COLLECTED AS EARLY AS 12 NOON.", "nsi_id": "unitedstatespostalservice-a77078", "operator": "United States Postal Service", "operator:short": "USPS", "operator:type": "public", "operator:wikidata": "Q668687", "ref": "5100900001"}, "type": "Feature"}
{"geometry": {"coordinates": [-95.549872953, 42.946311754], "type": "Point"}, "id": "VK4YEc5FFMN8NsYyN8OAkEfK6-Y=", "properties": {"@source_uri": "https://tools.usps.com/UspsToolsRestServices/rest/POLocator/findLocations", "@spider": "usps_collection_boxes", "addr:city": "CALUMET", "addr:country": "US", "addr:postcode": "51009", "addr:state": "IA", "addr:street_address": "105 2ND ST", "amenity": "post_box", "collection_times": "Mo-Fr 12:45; Sa 09:45", "indoor": "yes", "note": "ON 12/24 AND 12/31, THIS BOX MAY BE COLLECTED AS EARLY AS 12 NOON.", "nsi_id": "unitedstatespostalservice-a77078", "operator": "United States Postal Service", "operator:short": "USPS", "operator:type": "public", "operator:wikidata": "Q668687", "ref": "5100900002"}, "type": "Feature"}
{"geometry": {"coordinates": [-95.908832038, 42.074365506], "type": "Point"}, "id": "JzssnMOIwZsZ0uprGuNolr7tMOI=", "properties": {"@source_uri": "https://tools.usps.com/UspsToolsRestServices/rest/POLocator/findLocations", "@spider": "usps_collection_boxes", "addr:city": "CASTANA", "addr:country": "US", "addr:postcode": "51010", "addr:state": "IA", "addr:street_address": "301 E PINE ST", "amenity": "post_box", "collection_times": "Mo-Fr 11:15; Sa 09:15", "nsi_id": "unitedstatespostalservice-a77078", "operator": "United States Postal Service", "operator:short": "USPS", "operator:type": "public", "operator:wikidata": "Q668687", "ref": "5101000000"}, "type": "Feature"}
{"geometry": {"coordinates": [-95.908832038, 42.074365506], "type": "Point"}, "id": "Xs_Ilx5JqQpZIbHgXx1qf7xAFuY=", "properties": {"@source_uri": "https://tools.usps.com/UspsToolsRestServices/rest/POLocator/findLocations", "@spider": "usps_collection_boxes", "addr:city": "CASTANA", "addr:country": "US", "addr:postcode": "51010", "addr:state": "IA", "addr:street_address": "301 E PINE ST", "amenity": "post_box", "collection_times": "Mo-Fr 11:15", "indoor": "yes", "nsi_id": "unitedstatespostalservice-a77078", "operator": "United States Postal Service", "operator:short": "USPS", "operator:type": "public", "operator:wikidata": "Q668687", "ref": "5101000001"}, "type": "Feature"}
{"geometry": {"coordinates": [-95.908832038, 42.074365506], "type": "Point"}, "id": "unL-HQfnax4SrMO8ZGAmBvEQmJc=", "properties": {"@source_uri": "https://tools.usps.com/UspsToolsRestServices/rest/POLocator/findLocations", "@spider": "usps_collection_boxes", "addr:city": "CASTANA", "addr:country": "US", "addr:postcode": "51010", "addr:state": "IA", "addr:street_address": "301 E PINE ST", "amenity": "post_box", "collection_times": "Mo-Fr 11:30; Sa 09:30", "indoor": "yes", "nsi_id": "unitedstatespostalservice-a77078", "operator": "United States Postal Service", "operator:short": "USPS", "operator:type": "public", "operator:wikidata": "Q668687", "ref": "5101000002"}, "type": "Feature"}
{"geometry": {"coordinates": [-95.553316527, 42.750560882], "type": "Point"}, "id": "p3YHwna5Sme5ynM6hPM6MgGL5PI=", "properties": {"@source_uri": "https://tools.usps.com/UspsToolsRestServices/rest/POLocator/findLocations", "@spider": "usps_collection_boxes", "addr:city": "CHEROKEE", "addr:country": "US", "addr:postcode": "51012", "addr:state": "IA", "addr:street_address": "200 N PINE ST", "amenity": "post_box", "collection_times": "Mo-Fr 17:00; Sa 10:15", "note": "ON 12/24 AND 12/31, THIS BOX MAY BE COLLECTED AS EARLY AS 12 NOON.", "nsi_id": "unitedstatespostalservice-a77078", "operator": "United States Postal Service", "operator:short": "USPS", "operator:type": "public", "operator:wikidata": "Q668687", "ref": "5101200000"}, "type": "Feature"}
{"geometry": {"coordinates": [-95.551241338, 42.749634511], "type": "Point"}, "id": "4eLB_mobdXdsVol65z7cEqKXSao=", "properties": {"@source_uri": "https://tools.usps.com/UspsToolsRestServices/rest/POLocator/findLocations", "@spider": "usps_collection_boxes", "addr:city": "CHEROKEE", "addr:country": "US", "addr:postcode": "51012", "addr:state": "IA", "addr:street_address": "101 E MAIN ST", "amenity": "post_box", "collection_times": "Mo-Sa 14:30", "note": "ON 12/24 AND 12/31, THIS BOX MAY BE COLLECTED AS EARLY AS 12 NOON.", "nsi_id": "unitedstatespostalservice-a77078", "operator": "United States Postal Service", "operator:short": "USPS", "operator:type": "public", "operator:wikidata": "Q668687", "ref": "5101200001"}, "type": "Feature"}
{"geometry": {"coordinates": [-95.553316527, 42.750560882], "type": "Point"}, "id": "OfCYf7O0YfKjWm_PVADd1XthgMw=", "properties": {"@source_uri": "https://tools.usps.com/UspsToolsRestServices/rest/POLocator/findLocations", "@spider": "usps_collection_boxes", "addr:city": "CHEROKEE", "addr:country": "US", "addr:postcode": "51012", "addr:state": "IA", "addr:street_address": "200 N PINE ST", "amenity": "post_box", "collection_times": "Mo-Fr 17:00; Sa 10:15", "note": "ON 12/24 AND 12/31, THIS BOX MAY BE COLLECTED AS EARLY AS 12 NOON.", "nsi_id": "unitedstatespostalservice-a77078", "operator": "United States Postal Service", "operator:short": "USPS", "operator:type": "public", "operator:wikidata": "Q668687", "ref": "5101200013"}, "type": "Feature"}
{"geometry": {"coordinates": [-95.553801472, 42.750575453], "type": "Point"}, "id": "Qot5lUC-vxeq9LpOb0l-_605wk8=", "properties": {"@source_uri": "https://tools.usps.com/UspsToolsRestServices/rest/POLocator/findLocations", "@spider": "usps_collection_boxes", "addr:city": "CHEROKEE", "addr:country": "US", "addr:postcode": "51012", "addr:state": "IA", "addr:street_address": "410 W WILLOW ST", "amenity": "post_box", "collection_times": "Mo-Fr 16:45; Sa 10:30", "indoor": "yes", "note": "ON 12/24 AND 12/31, THIS BOX MAY BE COLLECTED AS EARLY AS 12 NOON.", "nsi_id": "unitedstatespostalservice-a77078", "operator": "United States Postal Service", "operator:short": "USPS", "operator:type": "public", "operator:wikidata": "Q668687", "ref": "5101200021"}, "type": "Feature"}
{"geometry": {"coordinates": [-95.5538014716, 42.7505754533], "type": "Point"}, "id": "o4RK00mo2syGvIGzWnWDU9xXe_A=", "properties": {"@source_uri": "https://tools.usps.com/UspsToolsRestServices/rest/POLocator/findLocations", "@spider": "usps_collection_boxes", "addr:city": "CHEROKEE", "addr:country": "US", "addr:postcode": "51012", "addr:state": "IA", "addr:street_address": "410 W WILLOW", "amenity": "post_box", "collection_times": "Mo-Fr 16:30; Sa 10:30", "indoor": "yes", "note": "ON 12/24 AND 12/31, THIS BOX MAY BE COLLECTED AS EARLY AS 12 NOON.", "nsi_id": "unitedstatespostalservice-a77078", "operator": "United States Postal Service", "operator:short": "USPS", "operator:type": "public", "operator:wikidata": "Q668687", "ref": "5101200024"}, "type": "Feature"}
{"geometry": {"coordinates": [-95.712798413, 42.812846581], "type": "Point"}, "id": "TU3Gi-dP9W8_U5lq2HbZYLxuhIU=", "properties": {"@source_uri": "https://tools.usps.com/UspsToolsRestServices/rest/POLocator/findLocations", "@spider": "usps_collection_boxes", "addr:city": "CLEGHORN", "addr:country": "US", "addr:postcode": "51014", "addr:state": "IA", "addr:street_address": "110 N LEWIS AVE", "amenity": "post_box", "collection_times": "Mo-Fr 11:15; Sa 08:45", "nsi_id": "unitedstatespostalservice-a77078", "operator": "United States Postal Service", "operator:short": "USPS", "operator:type": "public", "operator:wikidata": "Q668687", "ref": "5101400000"}, "type": "Feature"}
{"geometry": {"coordinates": [-95.712798413, 42.812846581], "type": "Point"}, "id": "6FoQWmaxyS6UZcjUKmXWg2wAWFI=", "properties": {"@source_uri": "https://tools.usps.com/UspsToolsRestServices/rest/POLocator/findLocations", "@spider": "usps_collection_boxes", "addr:city": "CLEGHORN", "addr:country": "US", "addr:postcode": "51014", "addr:state": "IA", "addr:street_address": "110 N LEWIS AVE", "amenity": "post_box", "collection_times": "Mo-Fr 11:15; Sa 08:45", "indoor": "yes", "nsi_id": "unitedstatespostalservice-a77078", "operator": "United States Postal Service", "operator:short": "USPS", "operator:type": "public", "operator:wikidata": "Q668687", "ref": "5101400001"}, "type": "Feature"}
{"geometry": {"coordinates": [-95.712798413, 42.812846581], "type": "Point"}, "id": "Z5fpqF0F1oZxw6cLOk1dXMMTb2g=", "properties": {"@source_uri": "https://tools.usps.com/UspsToolsRestServices/rest/POLocator/findLocations", "@spider": "usps_collection_boxes", "addr:city": "CLEGHORN", "addr:country": "US", "addr:postcode": "51014", "addr:state": "IA", "addr:street_address": "110 N LEWIS AVE", "amenity": "post_box", "collection_times": "Mo-Fr 11:30; Sa 09:00", "indoor": "yes", "nsi_id": "unitedstatespostalservice-a77078", "operator": "United States Postal Service", "operator:short": "USPS", "operator:type": "public", "operator:wikidata": "Q668687", "ref": "5101400002"}, "type": "Feature"}
{"geometry": {"coordinates": [-95.78726877, 42.475038974], "type": "Point"}, "id": "Ma7R-imcWV2rGqHcK8j_P-CM60M=", "properties": {"@source_uri": "https://tools.usps.com/UspsToolsRestServices/rest/POLocator/findLocations", "@spider": "usps_collection_boxes", "addr:city": "CORRECTIONVILLE", "addr:country": "US", "addr:postcode": "51016", "addr:state": "IA", "addr:street_address": "305 5TH ST", "amenity": "post_box", "collection_times": "Mo-Fr 13:45; Sa 09:45", "note": "ON 12/24 AND 12/31, THIS BOX MAY BE COLLECTED AS EARLY AS 12 NOON.", "nsi_id": "unitedstatespostalservice-a77078", "operator": "United States Postal Service", "operator:short": "USPS", "operator:type": "public", "operator:wikidata": "Q668687", "ref": "5101600000"}, "type": "Feature"}
{"geometry": {"coordinates": [-95.78726877, 42.475038974], "type": "Point"}, "id": "SYVZB7B-UJumsK2sk_2mAUOnIFc=", "properties": {"@source_uri": "https://tools.usps.com/UspsToolsRestServices/rest/POLocator/findLocations", "@spider": "usps_collection_boxes", "addr:city": "CORRECTIONVILLE", "addr:country": "US", "addr:postcode": "51016", "addr:state": "IA", "addr:street_address": "305 5TH ST", "amenity": "post_box", "collection_times": "Mo-Fr 13:45", "indoor": "yes", "note": "ON 12/24 AND 12/31, THIS BOX MAY BE COLLECTED AS EARLY AS 12 NOON.", "nsi_id": "unitedstatespostalservice-a77078", "operator": "United States Postal Service", "operator:short": "USPS", "operator:type": "public", "operator:wikidata": "Q668687", "ref": "5101600001"}, "type": "Feature"}
{"geometry": {"coordinates": [-95.78726877, 42.475038974], "type": "Point"}, "id": "3_V84bp6Y1vZjOe-orf9snPwJS8=", "properties": {"@source_uri": "https://tools.usps.com/UspsToolsRestServices/rest/POLocator/findLocations", "@spider": "usps_collection_boxes", "addr:city": "CORRECTIONVILLE", "addr:country": "US", "addr:postcode": "51016", "addr:state": "IA", "addr:street_address": "305 5TH ST", "amenity": "post_box", "collection_times": "Mo-Fr 14:00; Sa 10:00", "indoor": "yes", "note": "ON 12/24 AND 12/31, THIS BOX MAY BE COLLECTED AS EARLY AS 12 NOON.", "nsi_id": "unitedstatespostalservice-a77078", "operator": "United States Postal Service", "operator:short": "USPS", "operator:type": "public", "operator:wikidata": "Q668687", "ref": "5101600002"}, "type": "Feature"}
{"geometry": {"coordinates": [-95.675370795, 42.464673227], "type": "Point"}, "id": "WZTjq5oi-FdGNk5XLX0pJZD3q2k=", "properties": {"@source_uri": "https://tools.usps.com/UspsToolsRestServices/rest/POLocator/findLocations", "@spider": "usps_collection_boxes", "addr:city": "CUSHING", "addr:country": "US", "addr:postcode": "51018", "addr:state": "IA", "addr:street_address": "406 3RD ST", "amenity": "post_box", "collection_times": "Mo-Fr 13:45; Sa 10:45", "note": "ON 12/24 AND 12/31, THIS BOX MAY BE COLLECTED AS EARLY AS 12 NOON.", "nsi_id": "unitedstatespostalservice-a77078", "operator": "United States Postal Service", "operator:short": "USPS", "operator:type": "public", "operator:wikidata": "Q668687", "ref": "5101800000"}, "type": "Feature"}
{"geometry": {"coordinates": [-95.675370795, 42.464673227], "type": "Point"}, "id": "W-Yf9mGhyi1dRwPvX6EAN42zy9o=", "properties": {"@source_uri": "https://tools.usps.com/UspsToolsRestServices/rest/POLocator/findLocations", "@spider": "usps_collection_boxes", "addr:city": "CUSHING", "addr:country": "US", "addr:postcode": "51018", "addr:state": "IA", "addr:street_address": "406 3RD ST", "amenity": "post_box", "collection_times": "Mo-Fr 13:45; Sa 10:45", "indoor": "yes", "note": "ON 12/24 AND 12/31, THIS BOX MAY BE COLLECTED AS EARLY AS 12 NOON.", "nsi_id": "unitedstatespostalservice-a77078", "operator": "United States Postal Service", "operator:short": "USPS", "operator:type": "public", "operator:wikidata": "Q668687", "ref": "5101800001"}, "type": "Feature"}
{"geometry": {"coordinates": [-95.675370795, 42.464673227], "type": "Point"}, "id": "eQsSh8Re--W35uWB6YCk7TrvFlw=", "properties": {"@source_uri": "https://tools.usps.com/UspsToolsRestServices/rest/POLocator/findLocations", "@spider": "usps_collection_boxes", "addr:city": "CUSHING", "addr:country": "US", "addr:postcode": "51018", "addr:state": "IA", "addr:street_address": "406 3RD ST", "amenity": "post_box", "collection_times": "Mo-Fr 14:00; Sa 11:00", "indoor": "yes", "note": "ON 12/24 AND 12/31, THIS BOX MAY BE COLLECTED AS EARLY AS 12 NOON.", "nsi_id": "unitedstatespostalservice-a77078", "operator": "United States Postal Service", "operator:short": "USPS", "operator:type": "public", "operator:wikidata": "Q668687", "ref": "5101800002"}, "type": "Feature"}
{"geometry": {"coordinates": [-95.721828129, 42.234930335], "type": "Point"}, "id": "iBy7UKinQjKSGBcE58_T8g4d52I=", "properties": {"@source_uri": "https://tools.usps.com/UspsToolsRestServices/rest/POLocator/findLocations", "@spider": "usps_collection_boxes", "addr:city": "DANBURY", "addr:country": "US", "addr:postcode": "51019", "addr:state": "IA", "addr:street_address": "211 MAIN ST", "amenity": "post_box", "collection_times": "Mo-Fr 13:45; Sa 09:15", "note": "ON 12/24 AND 12/31, THIS BOX MAY BE COLLECTED AS EARLY AS 12 NOON.", "nsi_id": "unitedstatespostalservice-a77078", "operator": "United States Postal Service", "operator:short": "USPS", "operator:type": "public", "operator:wikidata": "Q668687", "ref": "5101900000"}, "type": "Feature"}
{"geometry": {"coordinates": [-95.721828129, 42.234930335], "type": "Point"}, "id": "uIwF0yoahE--P-W0QbRV8hvb5Fs=", "properties": {"@source_uri": "https://tools.usps.com/UspsToolsRestServices/rest/POLocator/findLocations", "@spider": "usps_collection_boxes", "addr:city": "DANBURY", "addr:country": "US", "addr:postcode": "51019", "addr:state": "IA", "addr:street_address": "211 MAIN ST", "amenity": "post_box", "collection_times": "Mo-Fr 13:45", "indoor": "yes", "note": "ON 12/24 AND 12/31, THIS BOX MAY BE COLLECTED AS EARLY AS 12 NOON.", "nsi_id": "unitedstatespostalservice-a77078", "operator": "United States Postal Service", "operator:short": "USPS", "operator:type": "public", "operator:wikidata": "Q668687", "ref": "5101900001"}, "type": "Feature"}
{"geometry": {"coordinates": [-95.721828129, 42.234930335], "type": "Point"}, "id": "Af6sWYtPm0R3-Fm2mpoaGjdFox8=", "properties": {"@source_uri": "https://tools.usps.com/UspsToolsRestServices/rest/POLocator/findLocations", "@spider": "usps_collection_boxes", "addr:city": "DANBURY", "addr:country": "US", "addr:postcode": "51019", "addr:state": "IA", "addr:street_address": "211 MAIN ST", "amenity": "post_box", "collection_times": "Mo-Fr 14:00; Sa 09:30", "indoor": "yes", "note": "ON 12/24 AND 12/31, THIS BOX MAY BE COLLECTED AS EARLY AS 12 NOON.", "nsi_id": "unitedstatespostalservice-a77078", "operator": "United States Postal Service", "operator:short": "USPS", "operator:type": "public", "operator:wikidata": "Q668687", "ref": "5101900002"}, "type": "Feature"}
{"geometry": {"coordinates": [-95.417297307, 42.507855], "type": "Point"}, "id": "eXouAd8YrPSEbOAFGZw2fy7z9gw=", "properties": {"@source_uri": "https://tools.usps.com/UspsToolsRestServices/rest/POLocator/findLocations", "@spider": "usps_collection_boxes", "addr:city": "GALVA", "addr:country": "US", "addr:postcode": "51020", "addr:state": "IA", "addr:street_address": "120 S MAIN ST", "amenity": "post_box", "collection_times": "Mo-Fr 11:15; Sa 09:00", "nsi_id": "unitedstatespostalservice-a77078", "operator": "United States Postal Service", "operator:short": "USPS", "operator:type": "public", "operator:wikidata": "Q668687", "ref": "5102000000"}, "type": "Feature"}
{"geometry": {"coordinates": [-95.417297307, 42.507855], "type": "Point"}, "id": "dtwx2MqzPml2YG2A69HnmjnMdak=", "properties": {"@source_uri": "https://tools.usps.com/UspsToolsRestServices/rest/POLocator/findLocations", "@spider": "usps_collection_boxes", "addr:city": "GALVA", "addr:country": "US", "addr:postcode": "51020", "addr:state": "IA", "addr:street_address": "120 S MAIN ST", "amenity": "post_box", "collection_times": "Mo-Fr 11:15", "indoor": "yes", "nsi_id": "unitedstatespostalservice-a77078", "operator": "United States Postal Service", "operator:short": "USPS", "operator:type": "public", "operator:wikidata": "Q668687", "ref": "5102000001"}, "type": "Feature"}
{"geometry": {"coordinates": [-95.417297307, 42.507855], "type": "Point"}, "id": "7NYIkTMV-bGLI9785PDh-d2pgMg=", "properties": {"@source_uri": "https://tools.usps.com/UspsToolsRestServices/rest/POLocator/findLocations", "@spider": "usps_collection_boxes", "addr:city": "GALVA", "addr:country": "US", "addr:postcode": "51020", "addr:state": "IA", "addr:street_address": "120 S MAIN ST", "amenity": "post_box", "collection_times": "Mo-Fr 11:30; Sa 09:15", "indoor": "yes", "nsi_id": "unitedstatespostalservice-a77078", "operator": "United States Postal Service", "operator:short": "USPS", "operator:type": "public", "operator:wikidata": "Q668687", "ref": "5102000002"}, "type": "Feature"}
{"geometry": {"coordinates": [-95.874213926, 42.985890335], "type": "Point"}, "id": "KvLFA-mBtcZJblfrsevSkhOpiNw=", "properties": {"@source_uri": "https://tools.usps.com/UspsToolsRestServices/rest/POLocator/findLocations", "@spider": "usps_collection_boxes", "addr:city": "GRANVILLE", "addr:country": "US", "addr:postcode": "51022", "addr:state": "IA", "addr:street_address": "839 BROAD ST", "amenity": "post_box", "collection_times": "Mo-Fr 11:15; Sa 08:45", "nsi_id": "unitedstatespostalservice-a77078", "operator": "United States Postal Service", "operator:short": "USPS", "operator:type": "public", "operator:wikidata": "Q668687", "ref": "5102200000"}, "type": "Feature"}
{"geometry": {"coordinates": [-95.874213926, 42.985890335], "type": "Point"}, "id": "iidP7K0xJRdLAKBHV4l5-j2s6zU=", "properties": {"@source_uri": "https://tools.usps.com/UspsToolsRestServices/rest/POLocator/findLocations", "@spider": "usps_collection_boxes", "addr:city": "GRANVILLE", "addr:country": "US", "addr:postcode": "51022", "addr:state": "IA", "addr:street_address": "839 BROAD ST", "amenity": "post_box", "collection_times": "Mo-Fr 11:15", "indoor": "yes", "nsi_id": "unitedstatespostalservice-a77078", "operator": "United States Postal Service", "operator:short": "USPS", "operator:type": "public", "operator:wikidata": "Q668687", "ref": "5102200002"}, "type": "Feature"}
{"geometry": {"coordinates": [-95.874213926, 42.985890335], "type": "Point"}, "id": "5GQbwU5vvkIGZ_75wlCWZtr4zNU=", "properties": {"@source_uri": "https://tools.usps.com/UspsToolsRestServices/rest/POLocator/findLocations", "@spider": "usps_collection_boxes", "addr:city": "GRANVILLE", "addr:country": "US", "addr:postcode": "51022", "addr:state": "IA", "addr:street_address": "839 BROAD ST", "amenity": "post_box", "collection_times": "Mo-Fr 11:30; Sa 09:00", "indoor": "yes", "nsi_id": "unitedstatespostalservice-a77078", "operator": "United States Postal Service", "operator:short": "USPS", "operator:type": "public", "operator:wikidata": "Q668687", "ref": "5102200003"}, "type": "Feature"}
{"geometry": {"coordinates": [-96.482855, 43.00186], "type": "Point"}, "id": "5yfAJQyR9a_UW21bCeeMrAFqd0k=", "properties": {"@source_uri": "https://tools.usps.com/UspsToolsRestServices/rest/POLocator/findLocations", "@spider": "usps_collection_boxes", "addr:city": "HAWARDEN", "addr:country": "US", "addr:postcode": "51023", "addr:state": "IA", "addr:street_address": "900 CENTRAL AVE", "amenity": "post_box", "collection_times": "Mo-Fr 17:00; Sa 10:45", "note": "ON 12/24 AND 12/31, THIS BOX MAY BE COLLECTED AS EARLY AS 12 NOON.", "nsi_id": "unitedstatespostalservice-a77078", "operator": "United States Postal Service", "operator:short": "USPS", "operator:type": "public", "operator:wikidata": "Q668687", "ref": "5102300001"}, "type": "Feature"}
{"geometry": {"coordinates": [-96.4847799654, 42.995859982], "type": "Point"}, "id": "RVtBYbBxws06w8UU6sJ8zugtctQ=", "properties": {"@source_uri": "https://tools.usps.com/UspsToolsRestServices/rest/POLocator/findLocations", "@spider": "usps_collection_boxes", "addr:city": "HAWARDEN", "addr:country": "US", "addr:postcode": "51023", "addr:state": "IA", "addr:street_address": "900 CENTRAL AVE", "amenity": "post_box", "collection_times": "Mo-Fr 16:15; Sa 11:00", "indoor": "yes", "note": "ON 12/24 AND 12/31, THIS BOX MAY BE COLLECTED AS EARLY AS 12 NOON.", "nsi_id": "unitedstatespostalservice-a77078", "operator": "United States Postal Service", "operator:short": "USPS", "operator:type": "public", "operator:wikidata": "Q668687", "ref": "5102300004"}, "type": "Feature"}
{"geometry": {"coordinates": [-96.485205948, 42.995853251], "type": "Point"}, "id": "o0p6uFXRvEk_UvrQU-CRUZa1cfM=", "properties": {"@source_uri": "https://tools.usps.com/UspsToolsRestServices/rest/POLocator/findLocations", "@spider": "usps_collection_boxes", "addr:city": "HAWARDEN", "addr:country": "US", "addr:postcode": "51023", "addr:state": "IA", "addr:street_address": "900 CENTRAL AVE", "amenity": "post_box", "collection_times": "Mo-Fr 16:30; Sa 11:00", "indoor": "yes", "note": "ON 12/24 AND 12/31, THIS BOX MAY BE COLLECTED AS EARLY AS 12 NOON.", "nsi_id": "unitedstatespostalservice-a77078", "operator": "United States Postal Service", "operator:short": "USPS", "operator:type": "public", "operator:wikidata": "Q668687", "ref": "5102300005"}, "type": "Feature"}
{"geometry": {"coordinates": [-96.293514336, 42.626705664], "type": "Point"}, "id": "TcQqliYDmfWOA-4ACTcvjoZtxCY=", "properties": {"@source_uri": "https://tools.usps.com/UspsToolsRestServices/rest/POLocator/findLocations", "@spider": "usps_collection_boxes", "addr:city": "HINTON", "addr:country": "US", "addr:postcode": "51024", "addr:state": "IA", "addr:street_address": "125 W MAIN ST", "amenity": "post_box", "collection_times": "Mo-Fr 16:00; Sa 17:30", "note": "ON 12/24 AND 12/31, THIS BOX MAY BE COLLECTED AS EARLY AS 12 NOON.", "nsi_id": "unitedstatespostalservice-a77078", "operator": "United States Postal Service", "operator:short": "USPS", "operator:type": "public", "operator:wikidata": "Q668687", "ref": "5102400000"}, "type": "Feature"}
{"geometry": {"coordinates": [-96.293514336, 42.626705664], "type": "Point"}, "id": "rLSYH2oePN0dgQ0aqavtB73OxwE=", "properties": {"@source_uri": "https://tools.usps.com/UspsToolsRestServices/rest/POLocator/findLocations", "@spider": "usps_collection_boxes", "addr:city": "HINTON", "addr:country": "US", "addr:postcode": "51024", "addr:state": "IA", "addr:street_address": "125 W MAIN ST", "amenity": "post_box", "collection_times": "Mo-Fr 14:15; Sa 08:45", "indoor": "yes", "note": "ON 12/24 AND 12/31, THIS BOX MAY BE COLLECTED AS EARLY AS 12 NOON.", "nsi_id": "unitedstatespostalservice-a77078", "operator": "United States Postal Service", "operator:short": "USPS", "operator:type": "public", "operator:wikidata": "Q668687", "ref": "5102400001"}, "type": "Feature"}
{"geometry": {"coordinates": [-96.293514336, 42.626705664], "type": "Point"}, "id": "7rO2rZn19GGWGYrwH-K-SnOtr9o=", "properties": {"@source_uri": "https://tools.usps.com/UspsToolsRestServices/rest/POLocator/findLocations", "@spider": "usps_collection_boxes", "addr:city": "HINTON", "addr:country": "US", "addr:postcode": "51024", "addr:state": "IA", "addr:street_address": "125 W MAIN ST", "amenity": "post_box", "collection_times": "Mo-Fr 14:30; Sa 09:00", "indoor": "yes", "note": "ON 12/24 AND 12/31, THIS BOX MAY BE COLLECTED AS EARLY AS 12 NOON.", "nsi_id": "unitedstatespostalservice-a77078", "operator": "United States Postal Service", "operator:short": "USPS", "operator:type": "public", "operator:wikidata": "Q668687", "ref": "5102400002"}, "type": "Feature"}
{"geometry": {"coordinates": [-95.543771003, 42.489247547], "type": "Point"}, "id": "QrazpUTKCTHroZ0ICjsL5jw2Fhk=", "properties": {"@source_uri": "https://tools.usps.com/UspsToolsRestServices/rest/POLocator/findLocations", "@spider": "usps_collection_boxes", "addr:city": "HOLSTEIN", "addr:country": "US", "addr:postcode": "51025", "addr:state": "IA", "addr:street_address": "121 E 2ND ST", "amenity": "post_box", "collection_times": "Mo-Fr 15:45; Sa 10:15", "note": "ON 12/24 AND 12/31, THIS BOX MAY BE COLLECTED AS EARLY AS 12 NOON.", "nsi_id": "unitedstatespostalservice-a77078", "operator": "United States Postal Service", "operator:short": "USPS", "operator:type": "public", "operator:wikidata": "Q668687", "ref": "5102500001"}, "type": "Feature"}
{"geometry": {"coordinates": [-95.543771003, 42.489247547], "type": "Point"}, "id": "SYUFL28TtKpTqwaD3CmwXo9fdtQ=", "properties": {"@source_uri": "https://tools.usps.com/UspsToolsRestServices/rest/POLocator/findLocations", "@spider": "usps_collection_boxes", "addr:city": "HOLSTEIN", "addr:country": "US", "addr:postcode": "51025", "addr:state": "IA", "addr:street_address": "121 E 2ND ST", "amenity": "post_box", "collection_times": "Mo-Fr 16:00", "indoor": "yes", "note": "ON 12/24 AND 12/31, THIS BOX MAY BE COLLECTED AS EARLY AS 12 NOON.", "nsi_id": "unitedstatespostalservice-a77078", "operator": "United States Postal Service", "operator:short": "USPS", "operator:type": "public", "operator:wikidata": "Q668687", "ref": "5102500002"}, "type": "Feature"}
{"geometry": {"coordinates": [-95.543771003, 42.489247547], "type": "Point"}, "id": "Zg9u4Jz-ZEH0jnrslXdEWYDMX0U=", "properties": {"@source_uri": "https://tools.usps.com/UspsToolsRestServices/rest/POLocator/findLocations", "@spider": "usps_collection_boxes", "addr:city": "HOLSTEIN", "addr:country": "US", "addr:postcode": "51025", "addr:state": "IA", "addr:street_address": "121 E 2ND ST", "amenity": "post_box", "collection_times": "Mo-Fr 16:00; Sa 10:30", "indoor": "yes", "note": "ON 12/24 AND 12/31, THIS BOX MAY BE COLLECTED AS EARLY AS 12 NOON.", "nsi_id": "unitedstatespostalservice-a77078", "operator": "United States Postal Service", "operator:short": "USPS", "operator:type": "public", "operator:wikidata": "Q668687", "ref": "5102500003"}, "type": "Feature"}
{"geometry": {"coordinates": [-96.0973261862, 42.2296370752], "type": "Point"}, "id": "dWbOUbESVQemDf3NI6HV5tRK0u8=", "properties": {"@source_uri": "https://tools.usps.com/UspsToolsRestServices/rest/POLocator/findLocations", "@spider": "usps_collection_boxes", "addr:city": "HORNICK", "addr:country": "US", "addr:postcode": "51026", "addr:state": "IA", "addr:street_address": "315 MAIN ST", "amenity": "post_box", "collection_times": "Mo-Fr 11:15; Sa 08:15", "nsi_id": "unitedstatespostalservice-a77078", "operator": "United States Postal Service", "operator:short": "USPS", "operator:type": "public", "operator:wikidata": "Q668687", "ref": "5102600000"}, "type": "Feature"}
{"geometry": {"coordinates": [-96.097326186, 42.229637075], "type": "Point"}, "id": "CLnNNMQ1Dyq0TFEPCXmtuZ11AhA=", "properties": {"@source_uri": "https://tools.usps.com/UspsToolsRestServices/rest/POLocator/findLocations", "@spider": "usps_collection_boxes", "addr:city": "HORNICK", "addr:country": "US", "addr:postcode": "51026", "addr:state": "IA", "addr:street_address": "315 MAIN ST", "amenity": "post_box", "collection_times": "Mo-Fr 11:15", "indoor": "yes", "nsi_id": "unitedstatespostalservice-a77078", "operator": "United States Postal Service", "operator:short": "USPS", "operator:type": "public", "operator:wikidata": "Q668687", "ref": "5102600001"}, "type": "Feature"}
{"geometry": {"coordinates": [-96.097326186, 42.229637075], "type": "Point"}, "id": "vX6yHTyG9rZMRaSoz1PZ24GAjPQ=", "properties": {"@source_uri": "https://tools.usps.com/UspsToolsRestServices/rest/POLocator/findLocations", "@spider": "usps_collection_boxes", "addr:city": "HORNICK", "addr:country": "US", "addr:postcode": "51026", "addr:state": "IA", "addr:street_address": "315 MAIN ST", "amenity": "post_box", "collection_times": "Mo-Fr 11:30; Sa 08:00", "indoor": "yes", "nsi_id": "unitedstatespostalservice-a77078", "operator": "United States Postal Service", "operator:short": "USPS", "operator:type": "public", "operator:wikidata": "Q668687", "ref": "5102600002"}, "type": "Feature"}
{"geometry": {"coordinates": [-96.318308067, 42.97501009], "type": "Point"}, "id": "p13ioWu8gDtFvmMsWg1giUk-uyE=", "properties": {"@source_uri": "https://tools.usps.com/UspsToolsRestServices/rest/POLocator/findLocations", "@spider": "usps_collection_boxes", "addr:city": "IRETON", "addr:country": "US", "addr:postcode": "51027", "addr:state": "IA", "addr:street_address": "320 MAIN ST", "amenity": "post_box", "collection_times": "Mo-Fr 13:45; Sa 08:45", "note": "ON 12/24 AND 12/31, THIS BOX MAY BE COLLECTED AS EARLY AS 12 NOON.", "nsi_id": "unitedstatespostalservice-a77078", "operator": "United States Postal Service", "operator:short": "USPS", "operator:type": "public", "operator:wikidata": "Q668687", "ref": "5102700000"}, "type": "Feature"}
{"geometry": {"coordinates": [-96.318308067, 42.97501009], "type": "Point"}, "id": "rzKrI3rFEHzYSrG-yb3EoQuSY9Y=", "properties": {"@source_uri": "https://tools.usps.com/UspsToolsRestServices/rest/POLocator/findLocations", "@spider": "usps_collection_boxes", "addr:city": "IRETON", "addr:country": "US", "addr:postcode": "51027", "addr:state": "IA", "addr:street_address": "320 MAIN ST", "amenity": "post_box", "collection_times": "Mo-Fr 13:45", "indoor": "yes", "note": "ON 12/24 AND 12/31, THIS BOX MAY BE COLLECTED AS EARLY AS 12 NOON.", "nsi_id": "unitedstatespostalservice-a77078", "operator": "United States Postal Service", "operator:short": "USPS", "operator:type": "public", "operator:wikidata": "Q668687", "ref": "5102700001"}, "type": "Feature"}
{"geometry": {"coordinates": [-96.318308067, 42.97501009], "type": "Point"}, "id": "h692Rnj9a3ZNhPodG3ZU4-7YF_o=", "properties": {"@source_uri": "https://tools.usps.com/UspsToolsRestServices/rest/POLocator/findLocations", "@spider": "usps_collection_boxes", "addr:city": "IRETON", "addr:country": "US", "addr:postcode": "51027", "addr:state": "IA", "addr:street_address": "320 MAIN ST", "amenity": "post_box", "collection_times": "Mo-Fr 14:00; Sa 09:00", "indoor": "yes", "note": "ON 12/24 AND 12/31, THIS BOX MAY BE COLLECTED AS EARLY AS 12 NOON.", "nsi_id": "unitedstatespostalservice-a77078", "operator": "United States Postal Service", "operator:short": "USPS", "operator:type": "public", "operator:wikidata": "Q668687", "ref": "5102700003"}, "type": "Feature"}
{"geometry": {"coordinates": [-95.967358311, 42.588576922], "type": "Point"}, "id": "uKSlKK6F__hwDcuZoS0O3vS0Dq8=", "properties": {"@source_uri": "https://tools.usps.com/UspsToolsRestServices/rest/POLocator/findLocations", "@spider": "usps_collection_boxes", "addr:city": "KINGSLEY", "addr:country": "US", "addr:postcode": "51028", "addr:state": "IA", "addr:street_address": "210 MAIN ST", "amenity": "post_box", "collection_times": "Mo-Fr 15:45; Sa 09:45", "note": "ON 12/24 AND 12/31, THIS BOX MAY BE COLLECTED AS EARLY AS 12 NOON.", "nsi_id": "unitedstatespostalservice-a77078", "operator": "United States Postal Service", "operator:short": "USPS", "operator:type": "public", "operator:wikidata": "Q668687", "ref": "5102800000"}, "type": "Feature"}
{"geometry": {"coordinates": [-95.961950581, 42.591921464], "type": "Point"}, "id": "RAXrRnZIQxXg_RZ8MCDdsm9OBJQ=", "properties": {"@source_uri": "https://tools.usps.com/UspsToolsRestServices/rest/POLocator/findLocations", "@spider": "usps_collection_boxes", "addr:city": "KINGSLEY", "addr:country": "US", "addr:postcode": "51028", "addr:state": "IA", "addr:street_address": "315 E 4TH ST", "amenity": "post_box", "collection_times": "Mo-Sa 13:45", "note": "ON 12/24 AND 12/31, THIS BOX MAY BE COLLECTED AS EARLY AS 12 NOON.", "nsi_id": "unitedstatespostalservice-a77078", "operator": "United States Postal Service", "operator:short": "USPS", "operator:type": "public", "operator:wikidata": "Q668687", "ref": "5102800001"}, "type": "Feature"}
{"geometry": {"coordinates": [-95.967358311, 42.588576922], "type": "Point"}, "id": "Iyy1wd4nfHcvOz5OyyQfjt782Iw=", "properties": {"@source_uri": "https://tools.usps.com/UspsToolsRestServices/rest/POLocator/findLocations", "@spider": "usps_collection_boxes", "addr:city": "KINGSLEY", "addr:country": "US", "addr:postcode": "51028", "addr:state": "IA", "addr:street_address": "210 MAIN ST", "amenity": "post_box", "collection_times": "Mo-Fr 16:00", "indoor": "yes", "note": "ON 12/24 AND 12/31, THIS BOX MAY BE COLLECTED AS EARLY AS 12 NOON.", "nsi_id": "unitedstatespostalservice-a77078", "operator": "United States Postal Service", "operator:short": "USPS", "operator:type": "public", "operator:wikidata": "Q668687", "ref": "5102800002"}, "type": "Feature"}
{"geometry": {"coordinates": [-95.967358311, 42.588576922], "type": "Point"}, "id": "hM2PcMDBzVRLXo_Thmi0ZfGAo50=", "properties": {"@source_uri": "https://tools.usps.com/UspsToolsRestServices/rest/POLocator/findLocations", "@spider": "usps_collection_boxes", "addr:city": "KINGSLEY", "addr:country": "US", "addr:postcode": "51028", "addr:state": "IA", "addr:street_address": "210 MAIN ST", "amenity": "post_box", "collection_times": "Mo-Fr 16:00; Sa 10:00", "indoor": "yes", "note": "ON 12/24 AND 12/31, THIS BOX MAY BE COLLECTED AS EARLY AS 12 NOON.", "nsi_id": "unitedstatespostalservice-a77078", "operator": "United States Postal Service", "operator:short": "USPS", "operator:type": "public", "operator:wikidata": "Q668687", "ref": "5102800003"}, "type": "Feature"}
{"geometry": {"coordinates": [-95.545634587, 42.861466257], "type": "Point"}, "id": "dL7LolcXX5uUR5Zoghw1PnuN6Pw=", "properties": {"@source_uri": "https://tools.usps.com/UspsToolsRestServices/rest/POLocator/findLocations", "@spider": "usps_collection_boxes", "addr:city": "LARRABEE", "addr:country": "US", "addr:postcode": "51029", "addr:state": "IA", "addr:street_address": "116 N MAIN ST", "amenity": "post_box", "collection_times": "Mo-Fr 12:30; Sa 12:00", "note": "ON 12/24 AND 12/31, THIS BOX MAY BE COLLECTED AS EARLY AS 12 NOON.", "nsi_id": "unitedstatespostalservice-a77078", "operator": "United States Postal Service", "operator:short": "USPS", "operator:type": "public", "operator:wikidata": "Q668687", "ref": "5102900000"}, "type": "Feature"}
{"geometry": {"coordinates": [-95.545634587, 42.861466257], "type": "Point"}, "id": "UFd-wf37XcwCKWvOz8NXakvftMQ=", "properties": {"@source_uri": "https://tools.usps.com/UspsToolsRestServices/rest/POLocator/findLocations", "@spider": "usps_collection_boxes", "addr:city": "LARRABEE", "addr:country": "US", "addr:postcode": "51029", "addr:state": "IA", "addr:street_address": "116 N MAIN ST", "amenity": "post_box", "collection_times": "Mo-Fr 12:30; Sa 12:00", "indoor": "yes", "note": "ON 12/24 AND 12/31, THIS BOX MAY BE COLLECTED AS EARLY AS 12 NOON.", "nsi_id": "unitedstatespostalservice-a77078", "operator": "United States Postal Service", "operator:short": "USPS", "operator:type": "public", "operator:wikidata": "Q668687", "ref": "5102900001"}, "type": "Feature"}
{"geometry": {"coordinates": [-95.545634587, 42.861466257], "type": "Point"}, "id": "eZJ8J0k5Xn9WC9jg16YZE_-agDg=", "properties": {"@source_uri": "https://tools.usps.com/UspsToolsRestServices/rest/POLocator/findLocations", "@spider": "usps_collection_boxes", "addr:city": "LARRABEE", "addr:country": "US", "addr:postcode": "51029", "addr:state": "IA", "addr:street_address": "116 N MAIN ST", "amenity": "post_box", "collection_times": "Mo-Fr 12:45; Sa 12:15", "indoor": "yes", "note": "ON 12/24 AND 12/31, THIS BOX MAY BE COLLECTED AS EARLY AS 12 NOON.", "nsi_id": "unitedstatespostalservice-a77078", "operator": "United States Postal Service", "operator:short": "USPS", "operator:type": "public", "operator:wikidata": "Q668687", "ref": "5102900002"}, "type": "Feature"}
{"geometry": {"coordinates": [-96.183793233, 42.479369665], "type": "Point"}, "id": "bGhtY0EXy67UTC9whXNy8jGQvqY=", "properties": {"@source_uri": "https://tools.usps.com/UspsToolsRestServices/rest/POLocator/findLocations", "@spider": "usps_collection_boxes", "addr:city": "LAWTON", "addr:country": "US", "addr:postcode": "51030", "addr:state": "IA", "addr:street_address": "314 CEDAR ST", "amenity": "post_box", "collection_times": "Mo-Fr 13:45; Sa 08:15", "note": "ON 12/24 AND 12/31, THIS BOX MAY BE COLLECTED AS EARLY AS 12 NOON.", "nsi_id": "unitedstatespostalservice-a77078", "operator": "United States Postal Service", "operator:short": "USPS", "operator:type": "public", "operator:wikidata": "Q668687", "ref": "5103000000"}, "type": "Feature"}
{"geometry": {"coordinates": [-96.183793233, 42.479369665], "type": "Point"}, "id": "WspiWmW6kT8v7-Xlkpt0KnjF1uE=", "properties": {"@source_uri": "https://tools.usps.com/UspsToolsRestServices/rest/POLocator/findLocations", "@spider": "usps_collection_boxes", "addr:city": "LAWTON", "addr:country": "US", "addr:postcode": "51030", "addr:state": "IA", "addr:street_address": "314 CEDAR ST", "amenity": "post_box", "collection_times": "Mo-Fr 13:45", "indoor": "yes", "note": "ON 12/24 AND 12/31, THIS BOX MAY BE COLLECTED AS EARLY AS 12 NOON.", "nsi_id": "unitedstatespostalservice-a77078", "operator": "United States Postal Service", "operator:short": "USPS", "operator:type": "public", "operator:wikidata": "Q668687", "ref": "5103000001"}, "type": "Feature"}
{"geometry": {"coordinates": [-96.183793233, 42.479369665], "type": "Point"}, "id": "sq0QBecbMUIR9GZ5X-olQXkcqcg=", "properties": {"@source_uri": "https://tools.usps.com/UspsToolsRestServices/rest/POLocator/findLocations", "@spider": "usps_collection_boxes", "addr:city": "LAWTON", "addr:country": "US", "addr:postcode": "51030", "addr:state": "IA", "addr:street_address": "314 CEDAR ST", "amenity": "post_box", "collection_times": "Mo-Fr 14:00; Sa 08:30", "indoor": "yes", "note": "ON 12/24 AND 12/31, THIS BOX MAY BE COLLECTED AS EARLY AS 12 NOON.", "nsi_id": "unitedstatespostalservice-a77078", "operator": "United States Postal Service", "operator:short": "USPS", "operator:type": "public", "operator:wikidata": "Q668687", "ref": "5103000002"}, "type": "Feature"}
{"geometry": {"coordinates": [-96.170364, 42.79423451], "type": "Point"}, "id": "SGTiZU6Sqla7-qnSbx9iUgYCnaw=", "properties": {"@source_uri": "https://tools.usps.com/UspsToolsRestServices/rest/POLocator/findLocations", "@spider": "usps_collection_boxes", "addr:city": "LE MARS", "addr:country": "US", "addr:postcode": "51031", "addr:state": "IA", "addr:street_address": "230 1ST ST NW", "amenity": "post_box", "collection_times": "Mo-Fr 17:15; Sa 15:00", "note": "ON 12/24 AND 12/31, THIS BOX MAY BE COLLECTED AS EARLY AS 12 NOON.", "nsi_id": "unitedstatespostalservice-a77078", "operator": "United States Postal Service", "operator:short": "USPS", "operator:type": "public", "operator:wikidata": "Q668687", "ref": "5103100013"}, "type": "Feature"}
{"geometry": {"coordinates": [-96.157634071, 42.794954665], "type": "Point"}, "id": "TVhHI3g18_glT3COaiQxcf4Ov18=", "properties": {"@source_uri": "https://tools.usps.com/UspsToolsRestServices/rest/POLocator/findLocations", "@spider": "usps_collection_boxes", "addr:city": "LE MARS", "addr:country": "US", "addr:postcode": "51031", "addr:state": "IA", "addr:street_address": "110 6TH AVE NE", "amenity": "post_box", "collection_times": "Mo-Sa 10:00", "nsi_id": "unitedstatespostalservice-a77078", "operator": "United States Postal Service", "operator:short": "USPS", "operator:type": "public", "operator:wikidata": "Q668687", "ref": "5103100014"}, "type": "Feature"}
{"geometry": {"coordinates": [-96.170364, 42.79423451], "type": "Point"}, "id": "Q77Z61KpoUNCJx02P6I6Ew6g00c=", "properties": {"@source_uri": "https://tools.usps.com/UspsToolsRestServices/rest/POLocator/findLocations", "@spider": "usps_collection_boxes", "addr:city": "LE MARS", "addr:country": "US", "addr:postcode": "51031", "addr:state": "IA", "addr:street_address": "230 1ST ST NW", "amenity": "post_box", "collection_times": "Mo-Fr 17:15; Sa 15:00", "note": "ON 12/24 AND 12/31, THIS BOX MAY BE COLLECTED AS EARLY AS 12 NOON.", "nsi_id": "unitedstatespostalservice-a77078", "operator": "United States Postal Service", "operator:short": "USPS", "operator:type": "public", "operator:wikidata": "Q668687", "ref": "5103100015"}, "type": "Feature"}
{"geometry": {"coordinates": [-96.170364, 42.79423451], "type": "Point"}, "id": "2zfCvHGqOKznXb5MPoDtFn5Lj14=", "properties": {"@source_uri": "https://tools.usps.com/UspsToolsRestServices/rest/POLocator/findLocations", "@spider": "usps_collection_boxes", "addr:city": "LE MARS", "addr:country": "US", "addr:postcode": "51031", "addr:state": "IA", "addr:street_address": "230 1ST ST NW", "amenity": "post_box", "collection_times": "Mo-Fr 17:15; Sa 15:00", "indoor": "yes", "note": "ON 12/24 AND 12/31, THIS BOX MAY BE COLLECTED AS EARLY AS 12 NOON.", "nsi_id": "unitedstatespostalservice-a77078", "operator": "United States Postal Service", "operator:short": "USPS", "operator:type": "public", "operator:wikidata": "Q668687", "ref": "5103100019"}, "type": "Feature"}
{"geometry": {"coordinates": [-96.170364, 42.79423451], "type": "Point"}, "id": "9B41PhMmrac7J9dss0yncd7hpSw=", "properties": {"@source_uri": "https://tools.usps.com/UspsToolsRestServices/rest/POLocator/findLocations", "@spider": "usps_collection_boxes", "addr:city": "LE MARS", "addr:country": "US", "addr:postcode": "51031", "addr:state": "IA", "addr:street_address": "230 1ST ST NW", "amenity": "post_box", "collection_times": "Mo-Fr 15:00; Sa 11:00", "indoor": "yes", "note": "ON 12/24 AND 12/31, THIS BOX MAY BE COLLECTED AS EARLY AS 12 NOON.", "nsi_id": "unitedstatespostalservice-a77078", "operator": "United States Postal Service", "operator:short": "USPS", "operator:type": "public", "operator:wikidata": "Q668687", "ref": "5103100023"}, "type": "Feature"}
{"geometry": {"coordinates": [-95.246419242, 42.89125302], "type": "Point"}, "id": "4SB3i_0N1ScwJ7kIjzQE7xjKLO0=", "properties": {"@source_uri": "https://tools.usps.com/UspsToolsRestServices/rest/POLocator/findLocations", "@spider": "usps_collection_boxes", "addr:city": "LINN GROVE", "addr:country": "US", "addr:postcode": "51033", "addr:state": "IA", "addr:street_address": "132 WEAVER ST", "amenity": "post_box", "collection_times": "Mo-Fr 11:15; Sa 09:15", "nsi_id": "unitedstatespostalservice-a77078", "operator": "United States Postal Service", "operator:short": "USPS", "operator:type": "public", "operator:wikidata": "Q668687", "ref": "5103300000"}, "type": "Feature"}
{"geometry": {"coordinates": [-95.246419242, 42.89125302], "type": "Point"}, "id": "VhnbVt3-Ro09zL_bzIW62bnqzm4=", "properties": {"@source_uri": "https://tools.usps.com/UspsToolsRestServices/rest/POLocator/findLocations", "@spider": "usps_collection_boxes", "addr:city": "LINN GROVE", "addr:country": "US", "addr:postcode": "51033", "addr:state": "IA", "addr:street_address": "132 WEAVER ST", "amenity": "post_box", "collection_times": "Mo-Fr 11:15", "indoor": "yes", "nsi_id": "unitedstatespostalservice-a77078", "operator": "United States Postal Service", "operator:short": "USPS", "operator:type": "public", "operator:wikidata": "Q668687", "ref": "5103300001"}, "type": "Feature"}
{"geometry": {"coordinates": [-95.246419242, 42.89125302], "type": "Point"}, "id": "0PZ_UNvNYxSZyu7fG0BQE5b4YYU=", "properties": {"@source_uri": "https://tools.usps.com/UspsToolsRestServices/rest/POLocator/findLocations", "@spider": "usps_collection_boxes", "addr:city": "LINN GROVE", "addr:country": "US", "addr:postcode": "51033", "addr:state": "IA", "addr:street_address": "132 WEAVER ST", "amenity": "post_box", "collection_times": "Mo-Fr 11:30; Sa 09:30", "indoor": "yes", "nsi_id": "unitedstatespostalservice-a77078", "operator": "United States Postal Service", "operator:short": "USPS", "operator:type": "public", "operator:wikidata": "Q668687", "ref": "5103300002"}, "type": "Feature"}
{"geometry": {"coordinates": [-95.791712944, 42.165297], "type": "Point"}, "id": "eO6J5sfGeHOSplfqVf2tbhbp3Vs=", "properties": {"@source_uri": "https://tools.usps.com/UspsToolsRestServices/rest/POLocator/findLocations", "@spider": "usps_collection_boxes", "addr:city": "MAPLETON", "addr:country": "US", "addr:postcode": "51034", "addr:state": "IA", "addr:street_address": "106 S 5TH ST", "amenity": "post_box", "collection_times": "Mo-Fr 17:00; Sa 09:45", "note": "ON 12/24 AND 12/31, THIS BOX MAY BE COLLECTED AS EARLY AS 12 NOON.", "nsi_id": "unitedstatespostalservice-a77078", "operator": "United States Postal Service", "operator:short": "USPS", "operator:type": "public", "operator:wikidata": "Q668687", "ref": "5103400003"}, "type": "Feature"}
{"geometry": {"coordinates": [-95.791712944, 42.165297], "type": "Point"}, "id": "_B46f4A8Th-AnUf6b_ibqZ0WvgA=", "properties": {"@source_uri": "https://tools.usps.com/UspsToolsRestServices/rest/POLocator/findLocations", "@spider": "usps_collection_boxes", "addr:city": "MAPLETON", "addr:country": "US", "addr:postcode": "51034", "addr:state": "IA", "addr:street_address": "106 S 5TH ST", "amenity": "post_box", "collection_times": "Mo-Fr 16:00", "indoor": "yes", "note": "ON 12/24 AND 12/31, THIS BOX MAY BE COLLECTED AS EARLY AS 12 NOON.", "nsi_id": "unitedstatespostalservice-a77078", "operator": "United States Postal Service", "operator:short": "USPS", "operator:type": "public", "operator:wikidata": "Q668687", "ref": "5103400004"}, "type": "Feature"}
{"geometry": {"coordinates": [-95.791712944, 42.165297], "type": "Point"}, "id": "jIRy5b4U48pFQA9gcx4iUPjY3jk=", "properties": {"@source_uri": "https://tools.usps.com/UspsToolsRestServices/rest/POLocator/findLocations", "@spider": "usps_collection_boxes", "addr:city": "MAPLETON", "addr:country": "US", "addr:postcode": "51034", "addr:state": "IA", "addr:street_address": "106 S 5TH ST", "amenity": "post_box", "collection_times": "Mo-Fr 16:00; Sa 10:00", "indoor": "yes", "note": "ON 12/24 AND 12/31, THIS BOX MAY BE COLLECTED AS EARLY AS 12 NOON.", "nsi_id": "unitedstatespostalservice-a77078", "operator": "United States Postal Service", "operator:short": "USPS", "operator:type": "public", "operator:wikidata": "Q668687", "ref": "5103400005"}, "type": "Feature"}
{"geometry": {"coordinates": [-95.807021024, 42.824586435], "type": "Point"}, "id": "tZRp9IWT2wHnVNeCCEd5Kaw1T_Y=", "properties": {"@source_uri": "https://tools.usps.com/UspsToolsRestServices/rest/POLocator/findLocations", "@spider": "usps_collection_boxes", "addr:city": "MARCUS", "addr:country": "US", "addr:postcode": "51035", "addr:state": "IA", "addr:street_address": "108 E PINE ST", "amenity": "post_box", "collection_times": "Mo-Fr 15:45; Sa 10:45", "note": "ON 12/24 AND 12/31, THIS BOX MAY BE COLLECTED AS EARLY AS 12 NOON.", "nsi_id": "unitedstatespostalservice-a77078", "operator": "United States Postal Service", "operator:short": "USPS", "operator:type": "public", "operator:wikidata": "Q668687", "ref": "5103500000"}, "type": "Feature"}
{"geometry": {"coordinates": [-95.807021024, 42.824586435], "type": "Point"}, "id": "9jiWdSrYX8SVsgfxdG_zlq-M1Qw=", "properties": {"@source_uri": "https://tools.usps.com/UspsToolsRestServices/rest/POLocator/findLocations", "@spider": "usps_collection_boxes", "addr:city": "MARCUS", "addr:country": "US", "addr:postcode": "51035", "addr:state": "IA", "addr:street_address": "108 E PINE ST", "amenity": "post_box", "collection_times": "Mo-Fr 15:15; Sa 10:45", "indoor": "yes", "note": "ON 12/24 AND 12/31, THIS BOX MAY BE COLLECTED AS EARLY AS 12 NOON.", "nsi_id": "unitedstatespostalservice-a77078", "operator": "United States Postal Service", "operator:short": "USPS", "operator:type": "public", "operator:wikidata": "Q668687", "ref": "5103500002"}, "type": "Feature"}
{"geometry": {"coordinates": [-95.807021024, 42.824586435], "type": "Point"}, "id": "i7UoEeFc0u3-iYzx-OF_AKa5H3Y=", "properties": {"@source_uri": "https://tools.usps.com/UspsToolsRestServices/rest/POLocator/findLocations", "@spider": "usps_collection_boxes", "addr:city": "MARCUS", "addr:country": "US", "addr:postcode": "51035", "addr:state": "IA", "addr:street_address": "108 E PINE ST", "amenity": "post_box", "collection_times": "Mo-Fr 16:00; Sa 11:00", "indoor": "yes", "note": "ON 12/24 AND 12/31, THIS BOX MAY BE COLLECTED AS EARLY AS 12 NOON.", "nsi_id": "unitedstatespostalservice-a77078", "operator": "United States Postal Service", "operator:short": "USPS", "operator:type": "public", "operator:wikidata": "Q668687", "ref": "5103500003"}, "type": "Feature"}
{"geometry": {"coordinates": [-96.179620668, 42.96566046], "type": "Point"}, "id": "JvFvFIicz4pIuU3E2X5xxpf8n2Q=", "properties": {"@source_uri": "https://tools.usps.com/UspsToolsRestServices/rest/POLocator/findLocations", "@spider": "usps_collection_boxes", "addr:city": "MAURICE", "addr:country": "US", "addr:postcode": "51036", "addr:state": "IA", "addr:street_address": "410 2ND ST", "amenity": "post_box", "collection_times": "Mo-Fr 14:15; Sa 11:15", "note": "ON 12/24 AND 12/31, THIS BOX MAY BE COLLECTED AS EARLY AS 12 NOON.", "nsi_id": "unitedstatespostalservice-a77078", "operator": "United States Postal Service", "operator:short": "USPS", "operator:type": "public", "operator:wikidata": "Q668687", "ref": "5103600000"}, "type": "Feature"}
{"geometry": {"coordinates": [-96.179620668, 42.96566046], "type": "Point"}, "id": "pt1nOlfIpkOXq9FfbkBWptsmDPY=", "properties": {"@source_uri": "https://tools.usps.com/UspsToolsRestServices/rest/POLocator/findLocations", "@spider": "usps_collection_boxes", "addr:city": "MAURICE", "addr:country": "US", "addr:postcode": "51036", "addr:state": "IA", "addr:street_address": "410 2ND ST", "amenity": "post_box", "collection_times": "Mo-Fr 14:15", "indoor": "yes", "note": "ON 12/24 AND 12/31, THIS BOX MAY BE COLLECTED AS EARLY AS 12 NOON.", "nsi_id": "unitedstatespostalservice-a77078", "operator": "United States Postal Service", "operator:short": "USPS", "operator:type": "public", "operator:wikidata": "Q668687", "ref": "5103600001"}, "type": "Feature"}
{"geometry": {"coordinates": [-96.179620668, 42.96566046], "type": "Point"}, "id": "HpN6M8SWtfMxZ-qK1wmyakf2lS8=", "properties": {"@source_uri": "https://tools.usps.com/UspsToolsRestServices/rest/POLocator/findLocations", "@spider": "usps_collection_boxes", "addr:city": "MAURICE", "addr:country": "US", "addr:postcode": "51036", "addr:state": "IA", "addr:street_address": "410 2ND ST", "amenity": "post_box", "collection_times": "Mo-Fr 14:30; Sa 11:30", "indoor": "yes", "note": "ON 12/24 AND 12/31, THIS BOX MAY BE COLLECTED AS EARLY AS 12 NOON.", "nsi_id": "unitedstatespostalservice-a77078", "operator": "United States Postal Service", "operator:short": "USPS", "operator:type": "public", "operator:wikidata": "Q668687", "ref": "5103600002"}, "type": "Feature"}
{"geometry": {"coordinates": [-95.634385555, 42.794919419], "type": "Point"}, "id": "Wxf5lxVFc3HHWIsmdY44Li2WtLE=", "properties": {"@source_uri": "https://tools.usps.com/UspsToolsRestServices/rest/POLocator/findLocations", "@spider": "usps_collection_boxes", "addr:city": "MERIDEN", "addr:country": "US", "addr:postcode": "51037", "addr:state": "IA", "addr:street_address": "112 EAGLE ST", "amenity": "post_box", "collection_times": "Mo-Fr 11:15; Sa 09:15", "nsi_id": "unitedstatespostalservice-a77078", "operator": "United States Postal Service", "operator:short": "USPS", "operator:type": "public", "operator:wikidata": "Q668687", "ref": "5103700000"}, "type": "Feature"}
{"geometry": {"coordinates": [-95.634385555, 42.794919419], "type": "Point"}, "id": "ZZPRspvO2iVYPqLqNSua_cYeZfY=", "properties": {"@source_uri": "https://tools.usps.com/UspsToolsRestServices/rest/POLocator/findLocations", "@spider": "usps_collection_boxes", "addr:city": "MERIDEN", "addr:country": "US", "addr:postcode": "51037", "addr:state": "IA", "addr:street_address": "112 EAGLE ST", "amenity": "post_box", "collection_times": "Mo-Fr 11:15", "indoor": "yes", "nsi_id": "unitedstatespostalservice-a77078", "operator": "United States Postal Service", "operator:short": "USPS", "operator:type": "public", "operator:wikidata": "Q668687", "ref": "5103700001"}, "type": "Feature"}
{"geometry": {"coordinates": [-95.634385555, 42.794919419], "type": "Point"}, "id": "sIP0cEpOsx9WWbOTbrA5AHH1iXA=", "properties": {"@source_uri": "https://tools.usps.com/UspsToolsRestServices/rest/POLocator/findLocations", "@spider": "usps_collection_boxes", "addr:city": "MERIDEN", "addr:country": "US", "addr:postcode": "51037", "addr:state": "IA", "addr:street_address": "112 EAGLE ST", "amenity": "post_box", "collection_times": "Mo-Fr 11:30; Sa 09:30", "indoor": "yes", "nsi_id": "unitedstatespostalservice-a77078", "operator": "United States Postal Service", "operator:short": "USPS", "operator:type": "public", "operator:wikidata": "Q668687", "ref": "5103700002"}, "type": "Feature"}
{"geometry": {"coordinates": [-96.247682361, 42.719840488], "type": "Point"}, "id": "gxeThUCa3f2qGqoAMR2-m-1Jm2k=", "properties": {"@source_uri": "https://tools.usps.com/UspsToolsRestServices/rest/POLocator/findLocations", "@spider": "usps_collection_boxes", "addr:city": "MERRILL", "addr:country": "US", "addr:postcode": "51038", "addr:state": "IA", "addr:street_address": "134 MAIN ST", "amenity": "post_box", "collection_times": "Mo-Fr 13:45", "indoor": "yes", "note": "ON 12/24 AND 12/31, THIS BOX MAY BE COLLECTED AS EARLY AS 12 NOON.", "nsi_id": "unitedstatespostalservice-a77078", "operator": "United States Postal Service", "operator:short": "USPS", "operator:type": "public", "operator:wikidata": "Q668687", "ref": "5103800001"}, "type": "Feature"}
{"geometry": {"coordinates": [-96.247682361, 42.719840488], "type": "Point"}, "id": "VgpMnwM55pb_SFygIfmb6NoFnk0=", "properties": {"@source_uri": "https://tools.usps.com/UspsToolsRestServices/rest/POLocator/findLocations", "@spider": "usps_collection_boxes", "addr:city": "MERRILL", "addr:country": "US", "addr:postcode": "51038", "addr:state": "IA", "addr:street_address": "134 MAIN ST", "amenity": "post_box", "collection_times": "Mo-Fr 14:00; Sa 09:00", "indoor": "yes", "note": "ON 12/24 AND 12/31, THIS BOX MAY BE COLLECTED AS EARLY AS 12 NOON.", "nsi_id": "unitedstatespostalservice-a77078", "operator": "United States Postal Service", "operator:short": "USPS", "operator:type": "public", "operator:wikidata": "Q668687", "ref": "5103800002"}, "type": "Feature"}
{"geometry": {"coordinates": [-96.071848581, 42.488836395], "type": "Point"}, "id": "FOQioS05V_qpuXReprsEhhpV6eM=", "properties": {"@source_uri": "https://tools.usps.com/UspsToolsRestServices/rest/POLocator/findLocations", "@spider": "usps_collection_boxes", "addr:city": "MOVILLE", "addr:country": "US", "addr:postcode": "51039", "addr:state": "IA", "addr:street_address": "319 MAIN ST", "amenity": "post_box", "collection_times": "Mo-Fr 15:45; Sa 09:45", "note": "ON 12/24 AND 12/31, THIS BOX MAY BE COLLECTED AS EARLY AS 12 NOON.", "nsi_id": "unitedstatespostalservice-a77078", "operator": "United States Postal Service", "operator:short": "USPS", "operator:type": "public", "operator:wikidata": "Q668687", "ref": "5103900000"}, "type": "Feature"}
{"geometry": {"coordinates": [-96.071848581, 42.488836395], "type": "Point"}, "id": "5G1lHixPWM0GQ6GontFtFhFmg_s=", "properties": {"@source_uri": "https://tools.usps.com/UspsToolsRestServices/rest/POLocator/findLocations", "@spider": "usps_collection_boxes", "addr:city": "MOVILLE", "addr:country": "US", "addr:postcode": "51039", "addr:state": "IA", "addr:street_address": "319 MAIN ST", "amenity": "post_box", "collection_times": "Mo-Fr 16:00; Sa 10:00", "indoor": "yes", "note": "ON 12/24 AND 12/31, THIS BOX MAY BE COLLECTED AS EARLY AS 12 NOON.", "nsi_id": "unitedstatespostalservice-a77078", "operator": "United States Postal Service", "operator:short": "USPS", "operator:type": "public", "operator:wikidata": "Q668687", "ref": "5103900001"}, "type": "Feature"}
{"geometry": {"coordinates": [-96.071848581, 42.488836395], "type": "Point"}, "id": "5FDvPMCm6J2s45SNNQnaa_i4eiA=", "properties": {"@source_uri": "https://tools.usps.com/UspsToolsRestServices/rest/POLocator/findLocations", "@spider": "usps_collection_boxes", "addr:city": "MOVILLE", "addr:country": "US", "addr:postcode": "51039", "addr:state": "IA", "addr:street_address": "319 MAIN ST", "amenity": "post_box", "collection_times": "Mo-Fr 16:00; Sa 10:00", "indoor": "yes", "note": "ON 12/24 AND 12/31, THIS BOX MAY BE COLLECTED AS EARLY AS 12 NOON.", "nsi_id": "unitedstatespostalservice-a77078", "operator": "United States Postal Service", "operator:short": "USPS", "operator:type": "public", "operator:wikidata": "Q668687", "ref": "5103900002"}, "type": "Feature"}
{"geometry": {"coordinates": [-96.097542626, 42.026647071], "type": "Point"}, "id": "15-tWkYoV5F97x2LTQ4KZWWEih4=", "properties": {"@source_uri": "https://tools.usps.com/UspsToolsRestServices/rest/POLocator/findLocations", "@spider": "usps_collection_boxes", "addr:city": "ONAWA", "addr:country": "US", "addr:postcode": "51040", "addr:state": "IA", "addr:street_address": "1017 IOWA AVE", "amenity": "post_box", "collection_times": "Mo-Fr 17:00; Sa 10:15", "note": "ON 12/24 AND 12/31, THIS BOX MAY BE COLLECTED AS EARLY AS 12 NOON.", "nsi_id": "unitedstatespostalservice-a77078", "operator": "United States Postal Service", "operator:short": "USPS", "operator:type": "public", "operator:wikidata": "Q668687", "ref": "5104000002"}, "type": "Feature"}
{"geometry": {"coordinates": [-96.097542626, 42.026647071], "type": "Point"}, "id": "7EHxf1xhhDXS4K9yzetAEFapAc4=", "properties": {"@source_uri": "https://tools.usps.com/UspsToolsRestServices/rest/POLocator/findLocations", "@spider": "usps_collection_boxes", "addr:city": "ONAWA", "addr:country": "US", "addr:postcode": "51040", "addr:state": "IA", "addr:street_address": "1017 IOWA AVE", "amenity": "post_box", "collection_times": "Mo-Fr 16:30; Sa 14:00", "indoor": "yes", "note": "ON 12/24 AND 12/31, THIS BOX MAY BE COLLECTED AS EARLY AS 12 NOON.", "nsi_id": "unitedstatespostalservice-a77078", "operator": "United States Postal Service", "operator:short": "USPS", "operator:type": "public", "operator:wikidata": "Q668687", "ref": "5104000004"}, "type": "Feature"}
{"geometry": {"coordinates": [-96.124559946, 42.027222516], "type": "Point"}, "id": "FgM-Cc9Kr9TsgDl_tmUWER73nk4=", "properties": {"@source_uri": "https://tools.usps.com/UspsToolsRestServices/rest/POLocator/findLocations", "@spider": "usps_collection_boxes", "addr:city": "ONAWA", "addr:country": "US", "addr:postcode": "51040", "addr:state": "IA", "addr:street_address": "2650 IOWA AVE", "amenity": "post_box", "collection_times": "Mo-Sa 13:30", "note": "ON 12/24 AND 12/31, THIS BOX MAY BE COLLECTED AS EARLY AS 12 NOON.", "nsi_id": "unitedstatespostalservice-a77078", "operator": "United States Postal Service", "operator:short": "USPS", "operator:type": "public", "operator:wikidata": "Q668687", "ref": "5104000005"}, "type": "Feature"}
{"geometry": {"coordinates": [-96.096071991, 42.026732453], "type": "Point"}, "id": "CBEXiRkHjzFtoeJsqI1kPCC168k=", "properties": {"@source_uri": "https://tools.usps.com/UspsToolsRestServices/rest/POLocator/findLocations", "@spider": "usps_collection_boxes", "addr:city": "ONAWA", "addr:country": "US", "addr:postcode": "51040", "addr:state": "IA", "addr:street_address": "900 IOWA AVE", "amenity": "post_box", "collection_times": "Mo-Fr 15:30; Sa 12:00", "note": "ON 12/24 AND 12/31, THIS BOX MAY BE COLLECTED AS EARLY AS 12 NOON.", "nsi_id": "unitedstatespostalservice-a77078", "operator": "United States Postal Service", "operator:short": "USPS", "operator:type": "public", "operator:wikidata": "Q668687", "ref": "5104000006"}, "type": "Feature"}
{"geometry": {"coordinates": [-96.097542626, 42.026647071], "type": "Point"}, "id": "7Z9zq4dT1K2iUpCiDSPvcLxdpCk=", "properties": {"@source_uri": "https://tools.usps.com/UspsToolsRestServices/rest/POLocator/findLocations", "@spider": "usps_collection_boxes", "addr:city": "ONAWA", "addr:country": "US", "addr:postcode": "51040", "addr:state": "IA", "addr:street_address": "1017 IOWA AVE", "amenity": "post_box", "collection_times": "Mo-Fr 16:15; Sa 10:30", "indoor": "yes", "note": "ON 12/24 AND 12/31, THIS BOX MAY BE COLLECTED AS EARLY AS 12 NOON.", "nsi_id": "unitedstatespostalservice-a77078", "operator": "United States Postal Service", "operator:short": "USPS", "operator:type": "public", "operator:wikidata": "Q668687", "ref": "5104000007"}, "type": "Feature"}
{"geometry": {"coordinates": [-96.056798592, 43.005798587], "type": "Point"}, "id": "12HByzEXhk2JZqkHmuv1NsEMDuw=", "properties": {"@source_uri": "https://tools.usps.com/UspsToolsRestServices/rest/POLocator/findLocations", "@spider": "usps_collection_boxes", "addr:city": "ORANGE CITY", "addr:country": "US", "addr:postcode": "51041", "addr:state": "IA", "addr:street_address": "108 ALBANY AVE SE", "amenity": "post_box", "collection_times": "Mo-Fr 17:00; Sa 11:45", "note": "ON 12/24 AND 12/31, THIS BOX MAY BE COLLECTED AS EARLY AS 12 NOON.", "nsi_id": "unitedstatespostalservice-a77078", "operator": "United States Postal Service", "operator:short": "USPS", "operator:type": "public", "operator:wikidata": "Q668687", "ref": "5104100000"}, "type": "Feature"}
{"geometry": {"coordinates": [-96.056798592, 43.005798587], "type": "Point"}, "id": "SRwBA_gy5GEAVp9fEGr9ojaRFNU=", "properties": {"@source_uri": "https://tools.usps.com/UspsToolsRestServices/rest/POLocator/findLocations", "@spider": "usps_collection_boxes", "addr:city": "ORANGE CITY", "addr:country": "US", "addr:postcode": "51041", "addr:state": "IA", "addr:street_address": "108 ALBANY AVE SE", "amenity": "post_box", "collection_times": "Mo-Fr 16:30; Sa 12:00", "indoor": "yes", "note": "ON 12/24 AND 12/31, THIS BOX MAY BE COLLECTED AS EARLY AS 12 NOON.", "nsi_id": "unitedstatespostalservice-a77078", "operator": "United States Postal Service", "operator:short": "USPS", "operator:type": "public", "operator:wikidata": "Q668687", "ref": "5104100004"}, "type": "Feature"}
{"geometry": {"coordinates": [-96.056798592, 43.005798587], "type": "Point"}, "id": "-zPHACFIvVGfa8Pjdvvm_QhkGl4=", "properties": {"@source_uri": "https://tools.usps.com/UspsToolsRestServices/rest/POLocator/findLocations", "@spider": "usps_collection_boxes", "addr:city": "ORANGE CITY", "addr:country": "US", "addr:postcode": "51041", "addr:state": "IA", "addr:street_address": "108 ALBANY AVE SE", "amenity": "post_box", "collection_times": "Mo-Fr 16:30; Sa 12:00", "indoor": "yes", "note": "ON 12/24 AND 12/31, THIS BOX MAY BE COLLECTED AS EARLY AS 12 NOON.", "nsi_id": "unitedstatespostalservice-a77078", "operator": "United States Postal Service", "operator:short": "USPS", "operator:type": "public", "operator:wikidata": "Q668687", "ref": "5104100006"}, "type": "Feature"}
{"geometry": {"coordinates": [-95.893757504, 42.286548782], "type": "Point"}, "id": "_Gh9as0ctJPI2z2WqRpzNwCRJpM=", "properties": {"@source_uri": "https://tools.usps.com/UspsToolsRestServices/rest/POLocator/findLocations", "@spider": "usps_collection_boxes", "addr:city": "OTO", "addr:country": "US", "addr:postcode": "51044", "addr:state": "IA", "addr:street_address": "32 WASHINGTON ST", "amenity": "post_box", "collection_times": "Mo-Fr 16:15; Sa 17:00", "note": "ON 12/24 AND 12/31, THIS BOX MAY BE COLLECTED AS EARLY AS 12 NOON.", "nsi_id": "unitedstatespostalservice-a77078", "operator": "United States Postal Service", "operator:short": "USPS", "operator:type": "public", "operator:wikidata": "Q668687", "ref": "5104400000"}, "type": "Feature"}
{"geometry": {"coordinates": [-96.058510479, 42.819066], "type": "Point"}, "id": "cCvm_UtBdL0ylInC7rXMAr9Rxp4=", "properties": {"@source_uri": "https://tools.usps.com/UspsToolsRestServices/rest/POLocator/findLocations", "@spider": "usps_collection_boxes", "addr:city": "OYENS", "addr:country": "US", "addr:postcode": "51045", "addr:state": "IA", "addr:street_address": "205 MAIN ST", "amenity": "post_box", "collection_times": "Mo-Fr 10:45; Sa 10:15", "nsi_id": "unitedstatespostalservice-a77078", "operator": "United States Postal Service", "operator:short": "USPS", "operator:type": "public", "operator:wikidata": "Q668687", "ref": "5104500000"}, "type": "Feature"}
{"geometry": {"coordinates": [-96.058510479, 42.819066], "type": "Point"}, "id": "qnYpvNv0RwFp6PF9s_DyrHCFCFI=", "properties": {"@source_uri": "https://tools.usps.com/UspsToolsRestServices/rest/POLocator/findLocations", "@spider": "usps_collection_boxes", "addr:city": "OYENS", "addr:country": "US", "addr:postcode": "51045", "addr:state": "IA", "addr:street_address": "205 MAIN ST", "amenity": "post_box", "collection_times": "Mo-Fr 10:45; Sa 10:15", "indoor": "yes", "nsi_id": "unitedstatespostalservice-a77078", "operator": "United States Postal Service", "operator:short": "USPS", "operator:type": "public", "operator:wikidata": "Q668687", "ref": "5104500001"}, "type": "Feature"}
{"geometry": {"coordinates": [-96.058510479, 42.819066], "type": "Point"}, "id": "xDa5RBY3tQxEzNwl1qM6tn3Afbo=", "properties": {"@source_uri": "https://tools.usps.com/UspsToolsRestServices/rest/POLocator/findLocations", "@spider": "usps_collection_boxes", "addr:city": "OYENS", "addr:country": "US", "addr:postcode": "51045", "addr:state": "IA", "addr:street_address": "205 MAIN ST", "amenity": "post_box", "collection_times": "Mo-Fr 11:00; Sa 10:30", "indoor": "yes", "nsi_id": "unitedstatespostalservice-a77078", "operator": "United States Postal Service", "operator:short": "USPS", "operator:type": "public", "operator:wikidata": "Q668687", "ref": "5104500002"}, "type": "Feature"}
{"geometry": {"coordinates": [-95.687585446, 42.978840923], "type": "Point"}, "id": "A98kNXPtRJhmcMlpnpLEshcQFbg=", "properties": {"@source_uri": "https://tools.usps.com/UspsToolsRestServices/rest/POLocator/findLocations", "@spider": "usps_collection_boxes", "addr:city": "PAULLINA", "addr:country": "US", "addr:postcode": "51046", "addr:state": "IA", "addr:street_address": "121 S MAIN ST", "amenity": "post_box", "collection_times": "Mo-Fr 15:45; Sa 09:45", "note": "ON 12/24 AND 12/31, THIS BOX MAY BE COLLECTED AS EARLY AS 12 NOON.", "nsi_id": "unitedstatespostalservice-a77078", "operator": "United States Postal Service", "operator:short": "USPS", "operator:type": "public", "operator:wikidata": "Q668687", "ref": "5104600001"}, "type": "Feature"}
{"geometry": {"coordinates": [-95.687585446, 42.978840923], "type": "Point"}, "id": "R62dLrO7AdU09J9G21FYYl2rmMc=", "properties": {"@source_uri": "https://tools.usps.com/UspsToolsRestServices/rest/POLocator/findLocations", "@spider": "usps_collection_boxes", "addr:city": "PAULLINA", "addr:country": "US", "addr:postcode": "51046", "addr:state": "IA", "addr:street_address": "121 S MAIN ST", "amenity": "post_box", "collection_times": "Mo-Fr 16:00", "indoor": "yes", "note": "ON 12/24 AND 12/31, THIS BOX MAY BE COLLECTED AS EARLY AS 12 NOON.", "nsi_id": "unitedstatespostalservice-a77078", "operator": "United States Postal Service", "operator:short": "USPS", "operator:type": "public", "operator:wikidata": "Q668687", "ref": "5104600002"}, "type": "Feature"}
{"geometry": {"coordinates": [-95.687585446, 42.978840923], "type": "Point"}, "id": "dr5juYDutBK5OavOVdNIm2NzMqI=", "properties": {"@source_uri": "https://tools.usps.com/UspsToolsRestServices/rest/POLocator/findLocations", "@spider": "usps_collection_boxes", "addr:city": "PAULLINA", "addr:country": "US", "addr:postcode": "51046", "addr:state": "IA", "addr:street_address": "121 S MAIN ST", "amenity": "post_box", "collection_times": "Mo-Fr 16:00; Sa 10:00", "indoor": "yes", "note": "ON 12/24 AND 12/31, THIS BOX MAY BE COLLECTED AS EARLY AS 12 NOON.", "nsi_id": "unitedstatespostalservice-a77078", "operator": "United States Postal Service", "operator:short": "USPS", "operator:type": "public", "operator:wikidata": "Q668687", "ref": "5104600003"}, "type": "Feature"}
{"geometry": {"coordinates": [-95.343685871, 42.918676093], "type": "Point"}, "id": "ooSvpfGPdDN1lXnR4ALo1vdOwXM=", "properties": {"@source_uri": "https://tools.usps.com/UspsToolsRestServices/rest/POLocator/findLocations", "@spider": "usps_collection_boxes", "addr:city": "PETERSON", "addr:country": "US", "addr:postcode": "51047", "addr:state": "IA", "addr:street_address": "222 MAIN ST", "amenity": "post_box", "collection_times": "Mo-Fr 11:15; Sa 10:00", "nsi_id": "unitedstatespostalservice-a77078", "operator": "United States Postal Service", "operator:short": "USPS", "operator:type": "public", "operator:wikidata": "Q668687", "ref": "5104700000"}, "type": "Feature"}
{"geometry": {"coordinates": [-95.343685871, 42.918676093], "type": "Point"}, "id": "EJf7H6sNnKEzuGMOIPypyd2vOa4=", "properties": {"@source_uri": "https://tools.usps.com/UspsToolsRestServices/rest/POLocator/findLocations", "@spider": "usps_collection_boxes", "addr:city": "PETERSON", "addr:country": "US", "addr:postcode": "51047", "addr:state": "IA", "addr:street_address": "222 MAIN ST", "amenity": "post_box", "collection_times": "Mo-Fr 11:15; Sa 10:00", "indoor": "yes", "nsi_id": "unitedstatespostalservice-a77078", "operator": "United States Postal Service", "operator:short": "USPS", "operator:type": "public", "operator:wikidata": "Q668687", "ref": "5104700001"}, "type": "Feature"}
{"geometry": {"coordinates": [-95.343685871, 42.918676093], "type": "Point"}, "id": "RhbcoCinYzB0PFEneqqVigdgCeI=", "properties": {"@source_uri": "https://tools.usps.com/UspsToolsRestServices/rest/POLocator/findLocations", "@spider": "usps_collection_boxes", "addr:city": "PETERSON", "addr:country": "US", "addr:postcode": "51047", "addr:state": "IA", "addr:street_address": "222 MAIN ST", "amenity": "post_box", "collection_times": "Mo-Fr 11:30; Sa 10:15", "indoor": "yes", "nsi_id": "unitedstatespostalservice-a77078", "operator": "United States Postal Service", "operator:short": "USPS", "operator:type": "public", "operator:wikidata": "Q668687", "ref": "5104700002"}, "type": "Feature"}
{"geometry": {"coordinates": [-95.870039953, 42.545406962], "type": "Point"}, "id": "zsSR7D3cOkOkS-DaxOQxzuqJdtw=", "properties": {"@source_uri": "https://tools.usps.com/UspsToolsRestServices/rest/POLocator/findLocations", "@spider": "usps_collection_boxes", "addr:city": "PIERSON", "addr:country": "US", "addr:postcode": "51048", "addr:state": "IA", "addr:street_address": "324 FRONT ST", "amenity": "post_box", "collection_times": "Mo-Fr 13:45; Sa 10:45", "note": "ON 12/24 AND 12/31, THIS BOX MAY BE COLLECTED AS EARLY AS 12 NOON.", "nsi_id": "unitedstatespostalservice-a77078", "operator": "United States Postal Service", "operator:short": "USPS", "operator:type": "public", "operator:wikidata": "Q668687", "ref": "5104800000"}, "type": "Feature"}
{"geometry": {"coordinates": [-95.870039953, 42.545406962], "type": "Point"}, "id": "PMnzhKtNzyhpe7BQsy8nxbVVKFM=", "properties": {"@source_uri": "https://tools.usps.com/UspsToolsRestServices/rest/POLocator/findLocations", "@spider": "usps_collection_boxes", "addr:city": "PIERSON", "addr:country": "US", "addr:postcode": "51048", "addr:state": "IA", "addr:street_address": "324 FRONT ST", "amenity": "post_box", "collection_times": "Mo-Fr 13:45", "indoor": "yes", "note": "ON 12/24 AND 12/31, THIS BOX MAY BE COLLECTED AS EARLY AS 12 NOON.", "nsi_id": "unitedstatespostalservice-a77078", "operator": "United States Postal Service", "operator:short": "USPS", "operator:type": "public", "operator:wikidata": "Q668687", "ref": "5104800001"}, "type": "Feature"}
{"geometry": {"coordinates": [-95.870039953, 42.545406962], "type": "Point"}, "id": "BIkMGAG5b3UZvjbmYrwwrCjsDek=", "properties": {"@source_uri": "https://tools.usps.com/UspsToolsRestServices/rest/POLocator/findLocations", "@spider": "usps_collection_boxes", "addr:city": "PIERSON", "addr:country": "US", "addr:postcode": "51048", "addr:state": "IA", "addr:street_address": "324 FRONT ST", "amenity": "post_box", "collection_times": "Mo-Fr 14:00; Sa 11:00", "indoor": "yes", "note": "ON 12/24 AND 12/31, THIS BOX MAY BE COLLECTED AS EARLY AS 12 NOON.", "nsi_id": "unitedstatespostalservice-a77078", "operator": "United States Postal Service", "operator:short": "USPS", "operator:type": "public", "operator:wikidata": "Q668687", "ref": "5104800002"}, "type": "Feature"}
{"geometry": {"coordinates": [-95.643121249, 42.630373464], "type": "Point"}, "id": "JI1vwbHW-Fv7KZld7y56OrUUdTw=", "properties": {"@source_uri": "https://tools.usps.com/UspsToolsRestServices/rest/POLocator/findLocations", "@spider": "usps_collection_boxes", "addr:city": "QUIMBY", "addr:country": "US", "addr:postcode": "51049", "addr:state": "IA", "addr:street_address": "106 W 2ND AVE", "amenity": "post_box", "collection_times": "Mo-Fr 15:45; Sa 12:15", "note": "ON 12/24 AND 12/31, THIS BOX MAY BE COLLECTED AS EARLY AS 12 NOON.", "nsi_id": "unitedstatespostalservice-a77078", "operator": "United States Postal Service", "operator:short": "USPS", "operator:type": "public", "operator:wikidata": "Q668687", "ref": "5104900000"}, "type": "Feature"}
{"geometry": {"coordinates": [-95.643121249, 42.630373464], "type": "Point"}, "id": "QDnVcxOC8SjlPxGa16PvxZySJkc=", "properties": {"@source_uri": "https://tools.usps.com/UspsToolsRestServices/rest/POLocator/findLocations", "@spider": "usps_collection_boxes", "addr:city": "QUIMBY", "addr:country": "US", "addr:postcode": "51049", "addr:state": "IA", "addr:street_address": "106 W 2ND AVE", "amenity": "post_box", "collection_times": "Mo-Fr 15:45; Sa 12:15", "indoor": "yes", "note": "ON 12/24 AND 12/31, THIS BOX MAY BE COLLECTED AS EARLY AS 12 NOON.", "nsi_id": "unitedstatespostalservice-a77078", "operator": "United States Postal Service", "operator:short": "USPS", "operator:type": "public", "operator:wikidata": "Q668687", "ref": "5104900001"}, "type": "Feature"}
{"geometry": {"coordinates": [-95.643121249, 42.630373464], "type": "Point"}, "id": "qUXwUeAkHjuvC9A-elz-SbVSqHA=", "properties": {"@source_uri": "https://tools.usps.com/UspsToolsRestServices/rest/POLocator/findLocations", "@spider": "usps_collection_boxes", "addr:city": "QUIMBY", "addr:country": "US", "addr:postcode": "51049", "addr:state": "IA", "addr:street_address": "106 W 2ND AVE", "amenity": "post_box", "collection_times": "Mo-Fr 16:00; Sa 12:30", "indoor": "yes", "note": "ON 12/24 AND 12/31, THIS BOX MAY BE COLLECTED AS EARLY AS 12 NOON.", "nsi_id": "unitedstatespostalservice-a77078", "operator": "United States Postal Service", "operator:short": "USPS", "operator:type": "public", "operator:wikidata": "Q668687", "ref": "5104900002"}, "type": "Feature"}
{"geometry": {"coordinates": [-95.972273832, 42.814682475], "type": "Point"}, "id": "iwpkZ2VwS7e7-10LeCIArhnw6yc=", "properties": {"@source_uri": "https://tools.usps.com/UspsToolsRestServices/rest/POLocator/findLocations", "@spider": "usps_collection_boxes", "addr:city": "REMSEN", "addr:country": "US", "addr:postcode": "51050", "addr:state": "IA", "addr:street_address": "23 E 2ND ST", "amenity": "post_box", "collection_times": "Mo-Fr 15:45; Sa 10:15", "note": "ON 12/24 AND 12/31, THIS BOX MAY BE COLLECTED AS EARLY AS 12 NOON.", "nsi_id": "unitedstatespostalservice-a77078", "operator": "United States Postal Service", "operator:short": "USPS", "operator:type": "public", "operator:wikidata": "Q668687", "ref": "5105000000"}, "type": "Feature"}
{"geometry": {"coordinates": [-95.972273832, 42.814682475], "type": "Point"}, "id": "0nym9lXf1JuFgzynSlcUU3jH0Fw=", "properties": {"@source_uri": "https://tools.usps.com/UspsToolsRestServices/rest/POLocator/findLocations", "@spider": "usps_collection_boxes", "addr:city": "REMSEN", "addr:country": "US", "addr:postcode": "51050", "addr:state": "IA", "addr:street_address": "23 E 2ND ST", "amenity": "post_box", "collection_times": "Mo-Fr 16:00", "indoor": "yes", "note": "ON 12/24 AND 12/31, THIS BOX MAY BE COLLECTED AS EARLY AS 12 NOON.", "nsi_id": "unitedstatespostalservice-a77078", "operator": "United States Postal Service", "operator:short": "USPS", "operator:type": "public", "operator:wikidata": "Q668687", "ref": "5105000001"}, "type": "Feature"}
{"geometry": {"coordinates": [-95.972273832, 42.814682475], "type": "Point"}, "id": "ZGVeQf3HtXU-jYug1gNcP8H4Nog=", "properties": {"@source_uri": "https://tools.usps.com/UspsToolsRestServices/rest/POLocator/findLocations", "@spider": "usps_collection_boxes", "addr:city": "REMSEN", "addr:country": "US", "addr:postcode": "51050", "addr:state": "IA", "addr:street_address": "23 E 2ND ST", "amenity": "post_box", "collection_times": "Mo-Fr 16:00; Sa 10:30", "indoor": "yes", "note": "ON 12/24 AND 12/31, THIS BOX MAY BE COLLECTED AS EARLY AS 12 NOON.", "nsi_id": "unitedstatespostalservice-a77078", "operator": "United States Postal Service", "operator:short": "USPS", "operator:type": "public", "operator:wikidata": "Q668687", "ref": "5105000002"}, "type": "Feature"}
{"geometry": {"coordinates": [-95.950462885, 42.204276754], "type": "Point"}, "id": "FZIFsjxqBc8UhlohiB9gfv2Dw1o=", "properties": {"@source_uri": "https://tools.usps.com/UspsToolsRestServices/rest/POLocator/findLocations", "@spider": "usps_collection_boxes", "addr:city": "RODNEY", "addr:country": "US", "addr:postcode": "51051", "addr:state": "IA", "addr:street_address": "120 MAIN ST", "amenity": "post_box", "collection_times": "Mo-Sa 16:45", "note": "ON 12/24 AND 12/31, THIS BOX MAY BE COLLECTED AS EARLY AS 12 NOON.", "nsi_id": "unitedstatespostalservice-a77078", "operator": "United States Postal Service", "operator:short": "USPS", "operator:type": "public", "operator:wikidata": "Q668687", "ref": "5105100000"}, "type": "Feature"}
{"geometry": {"coordinates": [-96.28785818, 42.307955749], "type": "Point"}, "id": "IS8fxdgZ488AiRVFBRx9YpU1Gw0=", "properties": {"@source_uri": "https://tools.usps.com/UspsToolsRestServices/rest/POLocator/findLocations", "@spider": "usps_collection_boxes", "addr:city": "SALIX", "addr:country": "US", "addr:postcode": "51052", "addr:state": "IA", "addr:street_address": "310 TIPTON ST", "amenity": "post_box", "collection_times": "Mo-Fr 11:45", "indoor": "yes", "nsi_id": "unitedstatespostalservice-a77078", "operator": "United States Postal Service", "operator:short": "USPS", "operator:type": "public", "operator:wikidata": "Q668687", "ref": "5105200001"}, "type": "Feature"}
{"geometry": {"coordinates": [-96.28785818, 42.307955749], "type": "Point"}, "id": "nD3kOj19pRFJIpf5AdYHQkhIAsQ=", "properties": {"@source_uri": "https://tools.usps.com/UspsToolsRestServices/rest/POLocator/findLocations", "@spider": "usps_collection_boxes", "addr:city": "SALIX", "addr:country": "US", "addr:postcode": "51052", "addr:state": "IA", "addr:street_address": "310 TIPTON ST", "amenity": "post_box", "collection_times": "Mo-Fr 11:45; Sa 08:45", "nsi_id": "unitedstatespostalservice-a77078", "operator": "United States Postal Service", "operator:short": "USPS", "operator:type": "public", "operator:wikidata": "Q668687", "ref": "5105200002"}, "type": "Feature"}
{"geometry": {"coordinates": [-96.28785818, 42.307955749], "type": "Point"}, "id": "IGwPzD6uviRJgOZQ3STmKI0wDHs=", "properties": {"@source_uri": "https://tools.usps.com/UspsToolsRestServices/rest/POLocator/findLocations", "@spider": "usps_collection_boxes", "addr:city": "SALIX", "addr:country": "US", "addr:postcode": "51052", "addr:state": "IA", "addr:street_address": "310 TIPTON ST", "amenity": "post_box", "collection_times": "Mo-Fr 12:00; Sa 09:00", "indoor": "yes", "nsi_id": "unitedstatespostalservice-a77078", "operator": "United States Postal Service", "operator:short": "USPS", "operator:type": "public", "operator:wikidata": "Q668687", "ref": "5105200003"}, "type": "Feature"}
{"geometry": {"coordinates": [-95.29338375, 42.499053419], "type": "Point"}, "id": "UOl0GNCEL1Bzt7Xxgfgw-umbdrk=", "properties": {"@source_uri": "https://tools.usps.com/UspsToolsRestServices/rest/POLocator/findLocations", "@spider": "usps_collection_boxes", "addr:city": "SCHALLER", "addr:country": "US", "addr:postcode": "51053", "addr:state": "IA", "addr:street_address": "205 S MAIN ST", "amenity": "post_box", "collection_times": "Mo-Fr 13:45; Sa 10:45", "note": "ON 12/24 AND 12/31, THIS BOX MAY BE COLLECTED AS EARLY AS 12 NOON.", "nsi_id": "unitedstatespostalservice-a77078", "operator": "United States Postal Service", "operator:short": "USPS", "operator:type": "public", "operator:wikidata": "Q668687", "ref": "5105300000"}, "type": "Feature"}
{"geometry": {"coordinates": [-95.29338375, 42.499053419], "type": "Point"}, "id": "jL8N8qTwEr13TOxbhDn7STCTMz0=", "properties": {"@source_uri": "https://tools.usps.com/UspsToolsRestServices/rest/POLocator/findLocations", "@spider": "usps_collection_boxes", "addr:city": "SCHALLER", "addr:country": "US", "addr:postcode": "51053", "addr:state": "IA", "addr:street_address": "205 S MAIN ST", "amenity": "post_box", "collection_times": "Mo-Fr 13:45; Sa 10:45", "indoor": "yes", "note": "ON 12/24 AND 12/31, THIS BOX MAY BE COLLECTED AS EARLY AS 12 NOON.", "nsi_id": "unitedstatespostalservice-a77078", "operator": "United States Postal Service", "operator:short": "USPS", "operator:type": "public", "operator:wikidata": "Q668687", "ref": "5105300001"}, "type": "Feature"}
{"geometry": {"coordinates": [-95.29338375, 42.499053419], "type": "Point"}, "id": "Iv3R6cqMY-9R2mlhzRIhhPcMbbU=", "properties": {"@source_uri": "https://tools.usps.com/UspsToolsRestServices/rest/POLocator/findLocations", "@spider": "usps_collection_boxes", "addr:city": "SCHALLER", "addr:country": "US", "addr:postcode": "51053", "addr:state": "IA", "addr:street_address": "205 S MAIN ST", "amenity": "post_box", "collection_times": "Mo-Fr 14:00; Sa 11:00", "indoor": "yes", "note": "ON 12/24 AND 12/31, THIS BOX MAY BE COLLECTED AS EARLY AS 12 NOON.", "nsi_id": "unitedstatespostalservice-a77078", "operator": "United States Postal Service", "operator:short": "USPS", "operator:type": "public", "operator:wikidata": "Q668687", "ref": "5105300002"}, "type": "Feature"}
{"geometry": {"coordinates": [-96.3594135, 42.403831514], "type": "Point"}, "id": "GtcLJcZfj9hoKAgYS3zFgppsuUg=", "properties": {"@source_uri": "https://tools.usps.com/UspsToolsRestServices/rest/POLocator/findLocations", "@spider": "usps_collection_boxes", "addr:city": "SERGEANT BLUFF", "addr:country": "US", "addr:postcode": "51054", "addr:state": "IA", "addr:street_address": "410 4TH ST", "amenity": "post_box", "collection_times": "Mo-Fr 16:15; Sa 09:45", "note": "ON 12/24 AND 12/31, THIS BOX MAY BE COLLECTED AS EARLY AS 12 NOON.", "nsi_id": "unitedstatespostalservice-a77078", "operator": "United States Postal Service", "operator:short": "USPS", "operator:type": "public", "operator:wikidata": "Q668687", "ref": "5105400001"}, "type": "Feature"}
{"geometry": {"coordinates": [-96.3594135, 42.403831514], "type": "Point"}, "id": "WxxK58X5K76Z7_S2JDGZcHUZc0M=", "properties": {"@source_uri": "https://tools.usps.com/UspsToolsRestServices/rest/POLocator/findLocations", "@spider": "usps_collection_boxes", "addr:city": "SERGEANT BLUFF", "addr:country": "US", "addr:postcode": "51054", "addr:state": "IA", "addr:street_address": "410 4TH ST", "amenity": "post_box", "collection_times": "Mo-Fr 16:30; Sa 09:30", "indoor": "yes", "note": "ON 12/24 AND 12/31, THIS BOX MAY BE COLLECTED AS EARLY AS 12 NOON.", "nsi_id": "unitedstatespostalservice-a77078", "operator": "United States Postal Service", "operator:short": "USPS", "operator:type": "public", "operator:wikidata": "Q668687", "ref": "5105400004"}, "type": "Feature"}
{"geometry": {"coordinates": [-96.3594135, 42.403831514], "type": "Point"}, "id": "djomfM0keap0qQkA6o8Qj8gZ80c=", "properties": {"@source_uri": "https://tools.usps.com/UspsToolsRestServices/rest/POLocator/findLocations", "@spider": "usps_collection_boxes", "addr:city": "SERGEANT BLUFF", "addr:country": "US", "addr:postcode": "51054", "addr:state": "IA", "addr:street_address": "410 4TH ST", "amenity": "post_box", "collection_times": "Mo-Fr 16:30; Sa 08:00", "indoor": "yes", "note": "ON 12/24 AND 12/31, THIS BOX MAY BE COLLECTED AS EARLY AS 12 NOON.", "nsi_id": "unitedstatespostalservice-a77078", "operator": "United States Postal Service", "operator:short": "USPS", "operator:type": "public", "operator:wikidata": "Q668687", "ref": "5105400005"}, "type": "Feature"}
{"geometry": {"coordinates": [-96.227572668, 42.232517453], "type": "Point"}, "id": "vmepbp19hifzE1MqaktUIjB3UTU=", "properties": {"@source_uri": "https://tools.usps.com/UspsToolsRestServices/rest/POLocator/findLocations", "@spider": "usps_collection_boxes", "addr:city": "SLOAN", "addr:country": "US", "addr:postcode": "51055", "addr:state": "IA", "addr:street_address": "309 4TH ST", "amenity": "post_box", "collection_times": "Mo-Fr 14:15; Sa 08:45", "note": "ON 12/24 AND 12/31, THIS BOX MAY BE COLLECTED AS EARLY AS 12 NOON.", "nsi_id": "unitedstatespostalservice-a77078", "operator": "United States Postal Service", "operator:short": "USPS", "operator:type": "public", "operator:wikidata": "Q668687", "ref": "5105500000"}, "type": "Feature"}
{"geometry": {"coordinates": [-96.227572668, 42.232517453], "type": "Point"}, "id": "v31DRPQETlNuQlGlFerzWztmtKg=", "properties": {"@source_uri": "https://tools.usps.com/UspsToolsRestServices/rest/POLocator/findLocations", "@spider": "usps_collection_boxes", "addr:city": "SLOAN", "addr:country": "US", "addr:postcode": "51055", "addr:state": "IA", "addr:street_address": "309 4TH ST", "amenity": "post_box", "collection_times": "Mo-Fr 14:15", "indoor": "yes", "note": "ON 12/24 AND 12/31, THIS BOX MAY BE COLLECTED AS EARLY AS 12 NOON.", "nsi_id": "unitedstatespostalservice-a77078", "operator": "United States Postal Service", "operator:short": "USPS", "operator:type": "public", "operator:wikidata": "Q668687", "ref": "5105500001"}, "type": "Feature"}
{"geometry": {"coordinates": [-96.227572668, 42.232517453], "type": "Point"}, "id": "ZJ67F7PB6UYEb-TjfHn7Zhq3Mjg=", "properties": {"@source_uri": "https://tools.usps.com/UspsToolsRestServices/rest/POLocator/findLocations", "@spider": "usps_collection_boxes", "addr:city": "SLOAN", "addr:country": "US", "addr:postcode": "51055", "addr:state": "IA", "addr:street_address": "309 4TH ST", "amenity": "post_box", "collection_times": "Mo-Fr 14:30; Sa 09:00", "indoor": "yes", "note": "ON 12/24 AND 12/31, THIS BOX MAY BE COLLECTED AS EARLY AS 12 NOON.", "nsi_id": "unitedstatespostalservice-a77078", "operator": "United States Postal Service", "operator:short": "USPS", "operator:type": "public", "operator:wikidata": "Q668687", "ref": "5105500002"}, "type": "Feature"}
{"geometry": {"coordinates": [-95.930750104, 42.227576801], "type": "Point"}, "id": "aJyeh80OEUBS-rbzrNBQXImGpLM=", "properties": {"@source_uri": "https://tools.usps.com/UspsToolsRestServices/rest/POLocator/findLocations", "@spider": "usps_collection_boxes", "addr:city": "SMITHLAND", "addr:country": "US", "addr:postcode": "51056", "addr:state": "IA", "addr:street_address": "207 S HICKORY ST", "amenity": "post_box", "collection_times": "Mo-Fr 16:15; Sa 16:45", "note": "ON 12/24 AND 12/31, THIS BOX MAY BE COLLECTED AS EARLY AS 12 NOON.", "nsi_id": "unitedstatespostalservice-a77078", "operator": "United States Postal Service", "operator:short": "USPS", "operator:type": "public", "operator:wikidata": "Q668687", "ref": "5105600000"}, "type": "Feature"}
{"geometry": {"coordinates": [-95.49769391, 42.974674885], "type": "Point"}, "id": "cjsubXtVANjFFzuF4Kd-1rs9qT4=", "properties": {"@source_uri": "https://tools.usps.com/UspsToolsRestServices/rest/POLocator/findLocations", "@spider": "usps_collection_boxes", "addr:city": "SUTHERLAND", "addr:country": "US", "addr:postcode": "51058", "addr:state": "IA", "addr:street_address": "111 W 1ST ST", "amenity": "post_box", "collection_times": "Mo-Fr 14:15; Sa 09:15", "note": "ON 12/24 AND 12/31, THIS BOX MAY BE COLLECTED AS EARLY AS 12 NOON.", "nsi_id": "unitedstatespostalservice-a77078", "operator": "United States Postal Service", "operator:short": "USPS", "operator:type": "public", "operator:wikidata": "Q668687", "ref": "5105800000"}, "type": "Feature"}
{"geometry": {"coordinates": [-95.49769391, 42.974674885], "type": "Point"}, "id": "chW9LID_8y_M1Hidfa22agPsxMs=", "properties": {"@source_uri": "https://tools.usps.com/UspsToolsRestServices/rest/POLocator/findLocations", "@spider": "usps_collection_boxes", "addr:city": "SUTHERLAND", "addr:country": "US", "addr:postcode": "51058", "addr:state": "IA", "addr:street_address": "111 W 1ST ST", "amenity": "post_box", "collection_times": "Mo-Fr 14:15; Sa 09:15", "indoor": "yes", "note": "ON 12/24 AND 12/31, THIS BOX MAY BE COLLECTED AS EARLY AS 12 NOON.", "nsi_id": "unitedstatespostalservice-a77078", "operator": "United States Postal Service", "operator:short": "USPS", "operator:type": "public", "operator:wikidata": "Q668687", "ref": "5105800001"}, "type": "Feature"}
{"geometry": {"coordinates": [-95.49769391, 42.974674885], "type": "Point"}, "id": "FJnCucMC3KWv-sR9tHieByHB1q0=", "properties": {"@source_uri": "https://tools.usps.com/UspsToolsRestServices/rest/POLocator/findLocations", "@spider": "usps_collection_boxes", "addr:city": "SUTHERLAND", "addr:country": "US", "addr:postcode": "51058", "addr:state": "IA", "addr:street_address": "111 W 1ST ST", "amenity": "post_box", "collection_times": "Mo-Fr 14:30; Sa 09:30", "indoor": "yes", "note": "ON 12/24 AND 12/31, THIS BOX MAY BE COLLECTED AS EARLY AS 12 NOON.", "nsi_id": "unitedstatespostalservice-a77078", "operator": "United States Postal Service", "operator:short": "USPS", "operator:type": "public", "operator:wikidata": "Q668687", "ref": "5105800002"}, "type": "Feature"}
{"geometry": {"coordinates": [-95.706144168, 42.050175477], "type": "Point"}, "id": "6pR6BBsFWx4KBBqURDl6ZH9pXqI=", "properties": {"@source_uri": "https://tools.usps.com/UspsToolsRestServices/rest/POLocator/findLocations", "@spider": "usps_collection_boxes", "addr:city": "UTE", "addr:country": "US", "addr:postcode": "51060", "addr:state": "IA", "addr:street_address": "100 E MAIN ST", "amenity": "post_box", "collection_times": "Mo-Fr 11:15; Sa 09:45", "nsi_id": "unitedstatespostalservice-a77078", "operator": "United States Postal Service", "operator:short": "USPS", "operator:type": "public", "operator:wikidata": "Q668687", "ref": "5106000000"}, "type": "Feature"}
{"geometry": {"coordinates": [-95.706144168, 42.050175477], "type": "Point"}, "id": "2drZvIG0zYfcmWbQa7_9fYOFBL8=", "properties": {"@source_uri": "https://tools.usps.com/UspsToolsRestServices/rest/POLocator/findLocations", "@spider": "usps_collection_boxes", "addr:city": "UTE", "addr:country": "US", "addr:postcode": "51060", "addr:state": "IA", "addr:street_address": "100 E MAIN ST", "amenity": "post_box", "collection_times": "Mo-Fr 11:15", "indoor": "yes", "nsi_id": "unitedstatespostalservice-a77078", "operator": "United States Postal Service", "operator:short": "USPS", "operator:type": "public", "operator:wikidata": "Q668687", "ref": "5106000001"}, "type": "Feature"}
{"geometry": {"coordinates": [-95.706144168, 42.050175477], "type": "Point"}, "id": "LAkyuZY1uUgLY9YsZav11jVTYfE=", "properties": {"@source_uri": "https://tools.usps.com/UspsToolsRestServices/rest/POLocator/findLocations", "@spider": "usps_collection_boxes", "addr:city": "UTE", "addr:country": "US", "addr:postcode": "51060", "addr:state": "IA", "addr:street_address": "100 E MAIN ST", "amenity": "post_box", "collection_times": "Mo-Fr 11:30; Sa 10:00", "indoor": "yes", "nsi_id": "unitedstatespostalservice-a77078", "operator": "United States Postal Service", "operator:short": "USPS", "operator:type": "public", "operator:wikidata": "Q668687", "ref": "5106000002"}, "type": "Feature"}
{"geometry": {"coordinates": [-95.7176505, 42.575574519], "type": "Point"}, "id": "xdrNUSZ8fJ6BkiKpNbw7drjXV6Y=", "properties": {"@source_uri": "https://tools.usps.com/UspsToolsRestServices/rest/POLocator/findLocations", "@spider": "usps_collection_boxes", "addr:city": "WASHTA", "addr:country": "US", "addr:postcode": "51061", "addr:state": "IA", "addr:street_address": "306 MAIN ST", "amenity": "post_box", "collection_times": "Mo-Fr 11:15; Sa 08:15", "nsi_id": "unitedstatespostalservice-a77078", "operator": "United States Postal Service", "operator:short": "USPS", "operator:type": "public", "operator:wikidata": "Q668687", "ref": "5106100000"}, "type": "Feature"}
{"geometry": {"coordinates": [-95.7176505, 42.575574519], "type": "Point"}, "id": "gW3wJr6ySBL7x_w88-SDPQQr_tM=", "properties": {"@source_uri": "https://tools.usps.com/UspsToolsRestServices/rest/POLocator/findLocations", "@spider": "usps_collection_boxes", "addr:city": "WASHTA", "addr:country": "US", "addr:postcode": "51061", "addr:state": "IA", "addr:street_address": "306 MAIN ST", "amenity": "post_box", "collection_times": "Mo-Fr 11:15; Sa 08:15", "indoor": "yes", "nsi_id": "unitedstatespostalservice-a77078", "operator": "United States Postal Service", "operator:short": "USPS", "operator:type": "public", "operator:wikidata": "Q668687", "ref": "5106100002"}, "type": "Feature"}
{"geometry": {"coordinates": [-95.7176505, 42.575574519], "type": "Point"}, "id": "FLdx8yoP_koNuKh_rvK-nU6S63I=", "properties": {"@source_uri": "https://tools.usps.com/UspsToolsRestServices/rest/POLocator/findLocations", "@spider": "usps_collection_boxes", "addr:city": "WASHTA", "addr:country": "US", "addr:postcode": "51061", "addr:state": "IA", "addr:street_address": "306 MAIN ST", "amenity": "post_box", "collection_times": "Mo-Fr 11:30; Sa 08:30", "indoor": "yes", "nsi_id": "unitedstatespostalservice-a77078", "operator": "United States Postal Service", "operator:short": "USPS", "operator:type": "public", "operator:wikidata": "Q668687", "ref": "5106100003"}, "type": "Feature"}
{"geometry": {"coordinates": [-96.604187093, 42.756366174], "type": "Point"}, "id": "xxtxLhHVMqSZhBnONvORLv1B4wc=", "properties": {"@source_uri": "https://tools.usps.com/UspsToolsRestServices/rest/POLocator/findLocations", "@spider": "usps_collection_boxes", "addr:city": "WESTFIELD", "addr:country": "US", "addr:postcode": "51062", "addr:state": "IA", "addr:street_address": "220 UNION ST", "amenity": "post_box", "collection_times": "Mo-Fr 14:45; Sa 11:00", "note": "ON 12/24 AND 12/31, THIS BOX MAY BE COLLECTED AS EARLY AS 12 NOON.", "nsi_id": "unitedstatespostalservice-a77078", "operator": "United States Postal Service", "operator:short": "USPS", "operator:type": "public", "operator:wikidata": "Q668687", "ref": "5106200000"}, "type": "Feature"}
{"geometry": {"coordinates": [-96.604187093, 42.756366174], "type": "Point"}, "id": "fbCPAUUz4JtrAies1xNyD_O-0Eg=", "properties": {"@source_uri": "https://tools.usps.com/UspsToolsRestServices/rest/POLocator/findLocations", "@spider": "usps_collection_boxes", "addr:city": "WESTFIELD", "addr:country": "US", "addr:postcode": "51062", "addr:state": "IA", "addr:street_address": "220 UNION ST", "amenity": "post_box", "collection_times": "Mo-Fr 14:45", "indoor": "yes", "note": "ON 12/24 AND 12/31, THIS BOX MAY BE COLLECTED AS EARLY AS 12 NOON.", "nsi_id": "unitedstatespostalservice-a77078", "operator": "United States Postal Service", "operator:short": "USPS", "operator:type": "public", "operator:wikidata": "Q668687", "ref": "5106200001"}, "type": "Feature"}
{"geometry": {"coordinates": [-96.604187093, 42.756366174], "type": "Point"}, "id": "SaomGcw3B1Ov0lVUNH6Lau2yx8I=", "properties": {"@source_uri": "https://tools.usps.com/UspsToolsRestServices/rest/POLocator/findLocations", "@spider": "usps_collection_boxes", "addr:city": "WESTFIELD", "addr:country": "US", "addr:postcode": "51062", "addr:state": "IA", "addr:street_address": "220 UNION ST", "amenity": "post_box", "collection_times": "Mo-Fr 14:45; Sa 11:15", "indoor": "yes", "note": "ON 12/24 AND 12/31, THIS BOX MAY BE COLLECTED AS EARLY AS 12 NOON.", "nsi_id": "unitedstatespostalservice-a77078", "operator": "United States Postal Service", "operator:short": "USPS", "operator:type": "public", "operator:wikidata": "Q668687", "ref": "5106200002"}, "type": "Feature"}
{"geometry": {"coordinates": [-96.152323668, 42.127432514], "type": "Point"}, "id": "7o4xA0CoIh6wy9oLj4TWto4qb4o=", "properties": {"@source_uri": "https://tools.usps.com/UspsToolsRestServices/rest/POLocator/findLocations", "@spider": "usps_collection_boxes", "addr:city": "WHITING", "addr:country": "US", "addr:postcode": "51063", "addr:state": "IA", "addr:street_address": "609 WHITTIER ST", "amenity": "post_box", "collection_times": "Mo-Fr 13:45; Sa 09:30", "note": "ON 12/24 AND 12/31, THIS BOX MAY BE COLLECTED AS EARLY AS 12 NOON.", "nsi_id": "unitedstatespostalservice-a77078", "operator": "United States Postal Service", "operator:short": "USPS", "operator:type": "public", "operator:wikidata": "Q668687", "ref": "5106300000"}, "type": "Feature"}
{"geometry": {"coordinates": [-96.152323668, 42.127432514], "type": "Point"}, "id": "ohwRLhe2pFui9FXK2H_4CBlwmXk=", "properties": {"@source_uri": "https://tools.usps.com/UspsToolsRestServices/rest/POLocator/findLocations", "@spider": "usps_collection_boxes", "addr:city": "WHITING", "addr:country": "US", "addr:postcode": "51063", "addr:state": "IA", "addr:street_address": "609 WHITTIER ST", "amenity": "post_box", "collection_times": "Mo-Fr 13:45", "indoor": "yes", "note": "ON 12/24 AND 12/31, THIS BOX MAY BE COLLECTED AS EARLY AS 12 NOON.", "nsi_id": "unitedstatespostalservice-a77078", "operator": "United States Postal Service", "operator:short": "USPS", "operator:type": "public", "operator:wikidata": "Q668687", "ref": "5106300001"}, "type": "Feature"}
{"geometry": {"coordinates": [-96.152323668, 42.127432514], "type": "Point"}, "id": "bIuPmFQBKrEwPhIfaKsBghj6w-s=", "properties": {"@source_uri": "https://tools.usps.com/UspsToolsRestServices/rest/POLocator/findLocations", "@spider": "usps_collection_boxes", "addr:city": "WHITING", "addr:country": "US", "addr:postcode": "51063", "addr:state": "IA", "addr:street_address": "609 WHITTIER ST", "amenity": "post_box", "collection_times": "Mo-Fr 14:00; Sa 09:45", "indoor": "yes", "note": "ON 12/24 AND 12/31, THIS BOX MAY BE COLLECTED AS EARLY AS 12 NOON.", "nsi_id": "unitedstatespostalservice-a77078", "operator": "United States Postal Service", "operator:short": "USPS", "operator:type": "public", "operator:wikidata": "Q668687", "ref": "5106300002"}, "type": "Feature"}
