{"geometry": {"coordinates": [-96.4064695898, 42.4964233354], "type": "Point"}, "id": "StM-V46WASWND71uuxBrBOvcxUo=", "properties": {"@source_uri": "https://tools.usps.com/UspsToolsRestServices/rest/POLocator/findLocations", "@spider": "usps_collection_boxes", "addr:city": "SIOUX CITY", "addr:country": "US", "addr:postcode": "51101", "addr:state": "IA", "addr:street_address": "605 DOUGLAS ST", "amenity": "post_box", "collection_times": "Mo-Fr 17:00", "note": "ON 12/24 AND 12/31, THIS BOX MAY BE COLLECTED AS EARLY AS 12 NOON.", "nsi_id": "unitedstatespostalservice-a77078", "operator": "United States Postal Service", "operator:short": "USPS", "operator:type": "public", "operator:wikidata": "Q668687", "ref": "5110100002"}, "type": "Feature"}
{"geometry": {"coordinates": [-96.406403776, 42.499260587], "type": "Point"}, "id": "ra1OfRanBFgDSJi3wBhwevVE-6I=", "properties": {"@source_uri": "https://tools.usps.com/UspsToolsRestServices/rest/POLocator/findLocations", "@spider": "usps_collection_boxes", "addr:city": "SIOUX CITY", "addr:country": "US", "addr:postcode": "51101", "addr:state": "IA", "addr:street_address": "822 DOUGLAS ST", "amenity": "post_box", "collection_times": "Mo-Fr 16:15", "note": "ON 12/24 AND 12/31, THIS BOX MAY BE COLLECTED AS EARLY AS 12 NOON.", "nsi_id": "unitedstatespostalservice-a77078", "operator": "United States Postal Service", "operator:short": "USPS", "operator:type": "public", "operator:wikidata": "Q668687", "ref": "5110100003"}, "type": "Feature"}
{"geometry": {"coordinates": [-96.401905706, 42.492545749], "type": "Point"}, "id": "RBpdhgKiu3YR09jE2sNNIWQWTQk=", "properties": {"@source_uri": "https://tools.usps.com/UspsToolsRestServices/rest/POLocator/findLocations", "@spider": "usps_collection_boxes", "addr:city": "SIOUX CITY", "addr:country": "US", "addr:postcode": "51101", "addr:state": "IA", "addr:street_address": "214 JACKSON ST", "amenity": "post_box", "collection_times": "Mo-Fr 18:00; Sa 17:30", "note": "ON 12/24 AND 12/31, THIS BOX MAY BE COLLECTED AS EARLY AS 12 NOON.", "nsi_id": "unitedstatespostalservice-a77078", "operator": "United States Postal Service", "operator:short": "USPS", "operator:type": "public", "operator:wikidata": "Q668687", "ref": "5110100014"}, "type": "Feature"}
{"geometry": {"coordinates": [-96.405030757, 42.500528413], "type": "Point"}, "id": "8AagiqFzu0I3LNf0KEOyXlE2-cw=", "properties": {"@source_uri": "https://tools.usps.com/UspsToolsRestServices/rest/POLocator/findLocations", "@spider": "usps_collection_boxes", "addr:city": "SIOUX CITY", "addr:country": "US", "addr:postcode": "51101", "addr:state": "IA", "addr:street_address": "925 PIERCE ST", "amenity": "post_box", "collection_times": "Mo-Fr 16:30", "note": "ON 12/24 AND 12/31, THIS BOX MAY BE COLLECTED AS EARLY AS 12 NOON.", "nsi_id": "unitedstatespostalservice-a77078", "operator": "United States Postal Service", "operator:short": "USPS", "operator:type": "public", "operator:wikidata": "Q668687", "ref": "5110100037"}, "type": "Feature"}
{"geometry": {"coordinates": [-96.4034134488, 42.496884367], "type": "Point"}, "id": "D5Isvu9P2ZO8QkAaGtxDsXYaw3g=", "properties": {"@source_uri": "https://tools.usps.com/UspsToolsRestServices/rest/POLocator/findLocations", "@spider": "usps_collection_boxes", "addr:city": "SIOUX CITY", "addr:country": "US", "addr:postcode": "51101", "addr:state": "IA", "addr:street_address": "620 NEBRASKA ST", "amenity": "post_box", "collection_times": "Mo-Sa 17:00", "note": "ON 12/24 AND 12/31, THIS BOX MAY BE COLLECTED AS EARLY AS 12 NOON.", "nsi_id": "unitedstatespostalservice-a77078", "operator": "United States Postal Service", "operator:short": "USPS", "operator:type": "public", "operator:wikidata": "Q668687", "ref": "5110100042"}, "type": "Feature"}
{"geometry": {"coordinates": [-96.402789388, 42.494144525], "type": "Point"}, "id": "cDE4k9b-x2jzbd73OWsNokd4wrs=", "properties": {"@source_uri": "https://tools.usps.com/UspsToolsRestServices/rest/POLocator/findLocations", "@spider": "usps_collection_boxes", "addr:city": "SIOUX CITY", "addr:country": "US", "addr:postcode": "51101", "addr:state": "IA", "addr:street_address": "600 4TH ST", "amenity": "post_box", "collection_times": "Mo-Sa 16:00", "note": "ON 12/24 AND 12/31, THIS BOX MAY BE COLLECTED AS EARLY AS 12 NOON.", "nsi_id": "unitedstatespostalservice-a77078", "operator": "United States Postal Service", "operator:short": "USPS", "operator:type": "public", "operator:wikidata": "Q668687", "ref": "5110100053"}, "type": "Feature"}
{"geometry": {"coordinates": [-96.401905706, 42.492545749], "type": "Point"}, "id": "y9xSjE23xqnahVwBvp4HKYbQCzI=", "properties": {"@source_uri": "https://tools.usps.com/UspsToolsRestServices/rest/POLocator/findLocations", "@spider": "usps_collection_boxes", "addr:city": "SIOUX CITY", "addr:country": "US", "addr:postcode": "51101", "addr:state": "IA", "addr:street_address": "214 JACKSON ST", "amenity": "post_box", "collection_times": "Mo-Fr 18:00; Sa 17:30", "indoor": "yes", "note": "ON 12/24 AND 12/31, THIS BOX MAY BE COLLECTED AS EARLY AS 12 NOON.", "nsi_id": "unitedstatespostalservice-a77078", "operator": "United States Postal Service", "operator:short": "USPS", "operator:type": "public", "operator:wikidata": "Q668687", "ref": "5110100065"}, "type": "Feature"}
{"geometry": {"coordinates": [-96.404826499, 42.495341501], "type": "Point"}, "id": "gn4umdTDq_7tch9Kl1EhSThi8yI=", "properties": {"@source_uri": "https://tools.usps.com/UspsToolsRestServices/rest/POLocator/findLocations", "@spider": "usps_collection_boxes", "addr:city": "SIOUX CITY", "addr:country": "US", "addr:postcode": "51101", "addr:state": "IA", "addr:street_address": "501 5TH ST", "amenity": "post_box", "collection_times": "Mo-Sa 17:00", "note": "ON 12/24 AND 12/31, THIS BOX MAY BE COLLECTED AS EARLY AS 12 NOON.", "nsi_id": "unitedstatespostalservice-a77078", "operator": "United States Postal Service", "operator:short": "USPS", "operator:type": "public", "operator:wikidata": "Q668687", "ref": "5110100069"}, "type": "Feature"}
{"geometry": {"coordinates": [-96.404999257, 42.497973136], "type": "Point"}, "id": "BysmtSkvZLZy_1UBmuMEfT1E7Oc=", "properties": {"@source_uri": "https://tools.usps.com/UspsToolsRestServices/rest/POLocator/findLocations", "@spider": "usps_collection_boxes", "addr:city": "SIOUX CITY", "addr:country": "US", "addr:postcode": "51101", "addr:state": "IA", "addr:street_address": "701 PIERCE ST", "amenity": "post_box", "collection_times": "Mo-Fr 16:30", "note": "ON 12/24 AND 12/31, THIS BOX MAY BE COLLECTED AS EARLY AS 12 NOON.", "nsi_id": "unitedstatespostalservice-a77078", "operator": "United States Postal Service", "operator:short": "USPS", "operator:type": "public", "operator:wikidata": "Q668687", "ref": "5110100079"}, "type": "Feature"}
{"geometry": {"coordinates": [-96.401905706, 42.492545749], "type": "Point"}, "id": "ZI1bD84VDEePxVMksfoLNxiFapc=", "properties": {"@source_uri": "https://tools.usps.com/UspsToolsRestServices/rest/POLocator/findLocations", "@spider": "usps_collection_boxes", "addr:city": "SIOUX CITY", "addr:country": "US", "addr:postcode": "51101", "addr:state": "IA", "addr:street_address": "214 JACKSON ST", "amenity": "post_box", "collection_times": "Mo-Fr 18:00; Sa 17:30", "name": "USPS COLLECTION BOX - APC", "note": "ON 12/24 AND 12/31, THIS BOX MAY BE COLLECTED AS EARLY AS 12 NOON.", "nsi_id": "unitedstatespostalservice-a77078", "operator": "United States Postal Service", "operator:short": "USPS", "operator:type": "public", "operator:wikidata": "Q668687", "ref": "5110100088"}, "type": "Feature"}
{"geometry": {"coordinates": [-96.401385, 42.494195], "type": "Point"}, "id": "lQO2BVp2nQ0tVqmL6O8w38hIXjo=", "properties": {"@source_uri": "https://tools.usps.com/UspsToolsRestServices/rest/POLocator/findLocations", "@spider": "usps_collection_boxes", "addr:city": "SIOUX CITY", "addr:country": "US", "addr:postcode": "51101", "addr:state": "IA", "addr:street_address": "523 PEARL ST", "amenity": "post_box", "collection_times": "Mo-Sa 16:30", "note": "ON 12/24 AND 12/31, THIS BOX MAY BE COLLECTED AS EARLY AS 12 NOON.", "nsi_id": "unitedstatespostalservice-a77078", "operator": "United States Postal Service", "operator:short": "USPS", "operator:type": "public", "operator:wikidata": "Q668687", "ref": "5110100089"}, "type": "Feature"}
{"geometry": {"coordinates": [-96.401905706, 42.492545749], "type": "Point"}, "id": "5rKPEQ-_LtrdvQyHBFYqU1BqzLc=", "properties": {"@source_uri": "https://tools.usps.com/UspsToolsRestServices/rest/POLocator/findLocations", "@spider": "usps_collection_boxes", "addr:city": "SIOUX CITY", "addr:country": "US", "addr:postcode": "51101", "addr:state": "IA", "addr:street_address": "214 JACKSON ST", "amenity": "post_box", "collection_times": "Mo-Fr 17:00; Sa 12:30", "indoor": "yes", "note": "ON 12/24 AND 12/31, THIS BOX MAY BE COLLECTED AS EARLY AS 12 NOON.", "nsi_id": "unitedstatespostalservice-a77078", "operator": "United States Postal Service", "operator:short": "USPS", "operator:type": "public", "operator:wikidata": "Q668687", "ref": "5110100090"}, "type": "Feature"}
{"geometry": {"coordinates": [-96.418839543, 42.503423886], "type": "Point"}, "id": "AdW4dvRAea_Kr2EcOzUv7GVq1s4=", "properties": {"@source_uri": "https://tools.usps.com/UspsToolsRestServices/rest/POLocator/findLocations", "@spider": "usps_collection_boxes", "addr:city": "SIOUX CITY", "addr:country": "US", "addr:postcode": "51103", "addr:state": "IA", "addr:street_address": "911 W 7TH ST", "amenity": "post_box", "collection_times": "Mo-Sa 16:00", "note": "ON 12/24 AND 12/31, THIS BOX MAY BE COLLECTED AS EARLY AS 12 NOON.", "nsi_id": "unitedstatespostalservice-a77078", "operator": "United States Postal Service", "operator:short": "USPS", "operator:type": "public", "operator:wikidata": "Q668687", "ref": "5110300012"}, "type": "Feature"}
{"geometry": {"coordinates": [-96.424921391, 42.494363485], "type": "Point"}, "id": "dp8LoqVp3h9mFnw3tDmDUuzEw-M=", "properties": {"@source_uri": "https://tools.usps.com/UspsToolsRestServices/rest/POLocator/findLocations", "@spider": "usps_collection_boxes", "addr:city": "SIOUX CITY", "addr:country": "US", "addr:postcode": "51103", "addr:state": "IA", "addr:street_address": "1404 TRI VIEW AVE", "amenity": "post_box", "collection_times": "Mo-Sa 16:45", "note": "ON 12/24 AND 12/31, THIS BOX MAY BE COLLECTED AS EARLY AS 12 NOON.", "nsi_id": "unitedstatespostalservice-a77078", "operator": "United States Postal Service", "operator:short": "USPS", "operator:type": "public", "operator:wikidata": "Q668687", "ref": "5110300015"}, "type": "Feature"}
{"geometry": {"coordinates": [-96.384946424, 42.533226907], "type": "Point"}, "id": "A15o0bxNGd8fiAqdNrlDkRjyUCk=", "properties": {"@source_uri": "https://tools.usps.com/UspsToolsRestServices/rest/POLocator/findLocations", "@spider": "usps_collection_boxes", "addr:city": "SIOUX CITY", "addr:country": "US", "addr:postcode": "51104", "addr:state": "IA", "addr:street_address": "3638 GLEN OAKS BLVD", "amenity": "post_box", "collection_times": "Mo-Fr 09:30; Sa 16:00", "note": "ON 12/24 AND 12/31, THIS BOX MAY BE COLLECTED AS EARLY AS 12 NOON.", "nsi_id": "unitedstatespostalservice-a77078", "operator": "United States Postal Service", "operator:short": "USPS", "operator:type": "public", "operator:wikidata": "Q668687", "ref": "5110400002"}, "type": "Feature"}
{"geometry": {"coordinates": [-96.356320652, 42.471712634], "type": "Point"}, "id": "Ok4JS2LLaSJXu_d5ZBh-4QnQsv0=", "properties": {"@source_uri": "https://tools.usps.com/UspsToolsRestServices/rest/POLocator/findLocations", "@spider": "usps_collection_boxes", "addr:city": "SIOUX CITY", "addr:country": "US", "addr:postcode": "51104", "addr:state": "IA", "addr:street_address": "1802 MORNINGSIDE AVE", "amenity": "post_box", "collection_times": "Mo-Sa 17:15", "note": "ON 12/24 AND 12/31, THIS BOX MAY BE COLLECTED AS EARLY AS 12 NOON.", "nsi_id": "unitedstatespostalservice-a77078", "operator": "United States Postal Service", "operator:short": "USPS", "operator:type": "public", "operator:wikidata": "Q668687", "ref": "5110400004"}, "type": "Feature"}
{"geometry": {"coordinates": [-96.417876331, 42.51873047], "type": "Point"}, "id": "OlBNgyWW8RS4TpqF3zTjMKMJBMo=", "properties": {"@source_uri": "https://tools.usps.com/UspsToolsRestServices/rest/POLocator/findLocations", "@spider": "usps_collection_boxes", "addr:city": "SIOUX CITY", "addr:country": "US", "addr:postcode": "51104", "addr:state": "IA", "addr:street_address": "312 W 28TH ST", "amenity": "post_box", "collection_times": "Mo-Sa 16:30", "note": "ON 12/24 AND 12/31, THIS BOX MAY BE COLLECTED AS EARLY AS 12 NOON.", "nsi_id": "unitedstatespostalservice-a77078", "operator": "United States Postal Service", "operator:short": "USPS", "operator:type": "public", "operator:wikidata": "Q668687", "ref": "5110400027"}, "type": "Feature"}
{"geometry": {"coordinates": [-96.417688903, 42.523152402], "type": "Point"}, "id": "zukuG8KRfCN2qf6LjwlYZFjAhE8=", "properties": {"@source_uri": "https://tools.usps.com/UspsToolsRestServices/rest/POLocator/findLocations", "@spider": "usps_collection_boxes", "addr:city": "SIOUX CITY", "addr:country": "US", "addr:postcode": "51104", "addr:state": "IA", "addr:street_address": "3025 HAMILTON BLVD", "amenity": "post_box", "collection_times": "Mo-Sa 16:00", "note": "ON 12/24 AND 12/31, THIS BOX MAY BE COLLECTED AS EARLY AS 12 NOON.", "nsi_id": "unitedstatespostalservice-a77078", "operator": "United States Postal Service", "operator:short": "USPS", "operator:type": "public", "operator:wikidata": "Q668687", "ref": "5110400030"}, "type": "Feature"}
{"geometry": {"coordinates": [-96.424636439, 42.526014845], "type": "Point"}, "id": "n565lV4hMtin2cIKYvfpwJ86d4Q=", "properties": {"@source_uri": "https://tools.usps.com/UspsToolsRestServices/rest/POLocator/findLocations", "@spider": "usps_collection_boxes", "addr:city": "SIOUX CITY", "addr:country": "US", "addr:postcode": "51104", "addr:state": "IA", "addr:street_address": "3303 REBECCA ST", "amenity": "post_box", "collection_times": "Mo-Fr 16:00", "note": "ON 12/24 AND 12/31, THIS BOX MAY BE COLLECTED AS EARLY AS 12 NOON.", "nsi_id": "unitedstatespostalservice-a77078", "operator": "United States Postal Service", "operator:short": "USPS", "operator:type": "public", "operator:wikidata": "Q668687", "ref": "5110400032"}, "type": "Feature"}
{"geometry": {"coordinates": [-96.405156218, 42.520050419], "type": "Point"}, "id": "x0Cnd5_kPoVM9vZOrImdI1Zw_Hk=", "properties": {"@source_uri": "https://tools.usps.com/UspsToolsRestServices/rest/POLocator/findLocations", "@spider": "usps_collection_boxes", "addr:city": "SIOUX CITY", "addr:country": "US", "addr:postcode": "51104", "addr:state": "IA", "addr:street_address": "2800 PIERCE ST", "amenity": "post_box", "collection_times": "Mo-Sa 16:00", "note": "ON 12/24 AND 12/31, THIS BOX MAY BE COLLECTED AS EARLY AS 12 NOON.", "nsi_id": "unitedstatespostalservice-a77078", "operator": "United States Postal Service", "operator:short": "USPS", "operator:type": "public", "operator:wikidata": "Q668687", "ref": "5110400033"}, "type": "Feature"}
{"geometry": {"coordinates": [-96.356266225, 42.448512397], "type": "Point"}, "id": "-oGkaR1SBFfmKHm28aDyvp5NAnY=", "properties": {"@source_uri": "https://tools.usps.com/UspsToolsRestServices/rest/POLocator/findLocations", "@spider": "usps_collection_boxes", "addr:city": "SIOUX CITY", "addr:country": "US", "addr:postcode": "51106", "addr:state": "IA", "addr:street_address": "3539 SOUTHERN HILLS DR", "amenity": "post_box", "collection_times": "Mo-Fr 16:00", "note": "ON 12/24 AND 12/31, THIS BOX MAY BE COLLECTED AS EARLY AS 12 NOON.", "nsi_id": "unitedstatespostalservice-a77078", "operator": "United States Postal Service", "operator:short": "USPS", "operator:type": "public", "operator:wikidata": "Q668687", "ref": "5110600002"}, "type": "Feature"}
{"geometry": {"coordinates": [-96.352096023, 42.441872708], "type": "Point"}, "id": "yv9aBAcM3rwzQr6FHw0XcVWmMGI=", "properties": {"@source_uri": "https://tools.usps.com/UspsToolsRestServices/rest/POLocator/findLocations", "@spider": "usps_collection_boxes", "addr:city": "SIOUX CITY", "addr:country": "US", "addr:postcode": "51106", "addr:state": "IA", "addr:street_address": "4501 SOUTHERN HILLS DR", "amenity": "post_box", "collection_times": "Mo-Sa 16:00", "note": "ON 12/24 AND 12/31, THIS BOX MAY BE COLLECTED AS EARLY AS 12 NOON.", "nsi_id": "unitedstatespostalservice-a77078", "operator": "United States Postal Service", "operator:short": "USPS", "operator:type": "public", "operator:wikidata": "Q668687", "ref": "5110600004"}, "type": "Feature"}
{"geometry": {"coordinates": [-96.34710447, 42.470382535], "type": "Point"}, "id": "ai5342XPo7o0tp4cdyhiVJLAYV4=", "properties": {"@source_uri": "https://tools.usps.com/UspsToolsRestServices/rest/POLocator/findLocations", "@spider": "usps_collection_boxes", "addr:city": "SIOUX CITY", "addr:country": "US", "addr:postcode": "51106", "addr:state": "IA", "addr:street_address": "4650 MORNINGSIDE AVE", "amenity": "post_box", "collection_times": "Mo-Sa 16:00", "note": "ON 12/24 AND 12/31, THIS BOX MAY BE COLLECTED AS EARLY AS 12 NOON.", "nsi_id": "unitedstatespostalservice-a77078", "operator": "United States Postal Service", "operator:short": "USPS", "operator:type": "public", "operator:wikidata": "Q668687", "ref": "5110600009"}, "type": "Feature"}
{"geometry": {"coordinates": [-96.356320652, 42.471712634], "type": "Point"}, "id": "QeM6IcqSzI3GxCCr0fd-buNMa9c=", "properties": {"@source_uri": "https://tools.usps.com/UspsToolsRestServices/rest/POLocator/findLocations", "@spider": "usps_collection_boxes", "addr:city": "SIOUX CITY", "addr:country": "US", "addr:postcode": "51106", "addr:state": "IA", "addr:street_address": "1802 MORNINGSIDE AVE", "amenity": "post_box", "collection_times": "Mo-Sa 17:15", "note": "ON 12/24 AND 12/31, THIS BOX MAY BE COLLECTED AS EARLY AS 12 NOON.", "nsi_id": "unitedstatespostalservice-a77078", "operator": "United States Postal Service", "operator:short": "USPS", "operator:type": "public", "operator:wikidata": "Q668687", "ref": "5110600011"}, "type": "Feature"}
{"geometry": {"coordinates": [-96.373473244, 42.465302521], "type": "Point"}, "id": "hsvVRM3dC2NQ99bAoXVKtkHANnw=", "properties": {"@source_uri": "https://tools.usps.com/UspsToolsRestServices/rest/POLocator/findLocations", "@spider": "usps_collection_boxes", "addr:city": "SIOUX CITY", "addr:country": "US", "addr:postcode": "51106", "addr:state": "IA", "addr:street_address": "2500 GLENN AVE", "amenity": "post_box", "collection_times": "Mo-Sa 16:00", "note": "ON 12/24 AND 12/31, THIS BOX MAY BE COLLECTED AS EARLY AS 12 NOON.", "nsi_id": "unitedstatespostalservice-a77078", "operator": "United States Postal Service", "operator:short": "USPS", "operator:type": "public", "operator:wikidata": "Q668687", "ref": "5110600035"}, "type": "Feature"}
{"geometry": {"coordinates": [-96.385267816, 42.487804162], "type": "Point"}, "id": "skYYBGbhHBdG55ZVrQbYGgL97ac=", "properties": {"@source_uri": "https://tools.usps.com/UspsToolsRestServices/rest/POLocator/findLocations", "@spider": "usps_collection_boxes", "addr:city": "SIOUX CITY", "addr:country": "US", "addr:postcode": "51106", "addr:state": "IA", "addr:street_address": "1935 LEECH AVE", "amenity": "post_box", "collection_times": "Mo-Sa 16:00", "note": "ON 12/24 AND 12/31, THIS BOX MAY BE COLLECTED AS EARLY AS 12 NOON.", "nsi_id": "unitedstatespostalservice-a77078", "operator": "United States Postal Service", "operator:short": "USPS", "operator:type": "public", "operator:wikidata": "Q668687", "ref": "5110600041"}, "type": "Feature"}
{"geometry": {"coordinates": [-96.358457094, 42.542069793], "type": "Point"}, "id": "Cpv44XiT09tL7j5knujpwYPoVg0=", "properties": {"@source_uri": "https://tools.usps.com/UspsToolsRestServices/rest/POLocator/findLocations", "@spider": "usps_collection_boxes", "addr:city": "SIOUX CITY", "addr:country": "US", "addr:postcode": "51108", "addr:state": "IA", "addr:street_address": "4103 FLOYD BLVD", "amenity": "post_box", "collection_times": "Mo-Sa 16:00", "note": "ON 12/24 AND 12/31, THIS BOX MAY BE COLLECTED AS EARLY AS 12 NOON.", "nsi_id": "unitedstatespostalservice-a77078", "operator": "United States Postal Service", "operator:short": "USPS", "operator:type": "public", "operator:wikidata": "Q668687", "ref": "5110800002"}, "type": "Feature"}
{"geometry": {"coordinates": [-96.372448965, 42.531214584], "type": "Point"}, "id": "ldbTx6xDyVN6kn7GSYDaWtKLK8M=", "properties": {"@source_uri": "https://tools.usps.com/UspsToolsRestServices/rest/POLocator/findLocations", "@spider": "usps_collection_boxes", "addr:city": "SIOUX CITY", "addr:country": "US", "addr:postcode": "51108", "addr:state": "IA", "addr:street_address": "3101 FLOYD BLVD", "amenity": "post_box", "collection_times": "Mo-Sa 16:00", "note": "ON 12/24 AND 12/31, THIS BOX MAY BE COLLECTED AS EARLY AS 12 NOON.", "nsi_id": "unitedstatespostalservice-a77078", "operator": "United States Postal Service", "operator:short": "USPS", "operator:type": "public", "operator:wikidata": "Q668687", "ref": "5110800003"}, "type": "Feature"}
{"geometry": {"coordinates": [-96.47721004, 42.522060962], "type": "Point"}, "id": "iDrUv0qg45FS4n5GKuF71_2VL8k=", "properties": {"@source_uri": "https://tools.usps.com/UspsToolsRestServices/rest/POLocator/findLocations", "@spider": "usps_collection_boxes", "addr:city": "SIOUX CITY", "addr:country": "US", "addr:postcode": "51109", "addr:state": "IA", "addr:street_address": "5306 MILITARY RD", "amenity": "post_box", "collection_times": "Mo-Sa 13:30", "note": "ON 12/24 AND 12/31, THIS BOX MAY BE COLLECTED AS EARLY AS 12 NOON.", "nsi_id": "unitedstatespostalservice-a77078", "operator": "United States Postal Service", "operator:short": "USPS", "operator:type": "public", "operator:wikidata": "Q668687", "ref": "5110900001"}, "type": "Feature"}
{"geometry": {"coordinates": [-96.474517285, 42.514985839], "type": "Point"}, "id": "rqF95EybHS8Fm6DUHZxdBF6L1iY=", "properties": {"@source_uri": "https://tools.usps.com/UspsToolsRestServices/rest/POLocator/findLocations", "@spider": "usps_collection_boxes", "addr:city": "SIOUX CITY", "addr:country": "US", "addr:postcode": "51109", "addr:state": "IA", "addr:street_address": "2026 RIVERSIDE BLVD", "amenity": "post_box", "collection_times": "Mo-Sa 14:00", "note": "ON 12/24 AND 12/31, THIS BOX MAY BE COLLECTED AS EARLY AS 12 NOON.", "nsi_id": "unitedstatespostalservice-a77078", "operator": "United States Postal Service", "operator:short": "USPS", "operator:type": "public", "operator:wikidata": "Q668687", "ref": "5110900002"}, "type": "Feature"}
{"geometry": {"coordinates": [-96.3800080197, 42.4346139899], "type": "Point"}, "id": "YrFIndkqlg-GOmdIvM8Lo2VWmy8=", "properties": {"@source_uri": "https://tools.usps.com/UspsToolsRestServices/rest/POLocator/findLocations", "@spider": "usps_collection_boxes", "addr:city": "SIOUX CITY", "addr:country": "US", "addr:postcode": "51111", "addr:state": "IA", "addr:street_address": "2525 SINGING HILLS BLVD", "amenity": "post_box", "collection_times": "Mo-Sa 16:00", "note": "ON 12/24 AND 12/31, THIS BOX MAY BE COLLECTED AS EARLY AS 12 NOON.", "nsi_id": "unitedstatespostalservice-a77078", "operator": "United States Postal Service", "operator:short": "USPS", "operator:type": "public", "operator:wikidata": "Q668687", "ref": "5111100000"}, "type": "Feature"}
