{"dataset_attributes": {"@spider": "usps_collection_boxes", "spider:collection_time": "2023-10-01T08:22:44.298171"}, "geometry": {"coordinates": [-95.842090524, 43.178575209], "type": "Point"}, "id": "CSz_D5LWfkpMRRFsHhxNqmRrY2Q=", "properties": {"@spider": "usps_collection_boxes", "addr:city": "SHELDON", "addr:country": "US", "addr:full": "820 WASHINGTON AVE", "addr:postcode": "51201", "addr:state": "IA", "amenity": "post_box", "brand": "United States Postal Service", "brand:wikidata": "Q668687", "collection_times": "Mo-Sa 10:00", "name": "USPS COLLECTION BOX - BLUE BOX", "nsi_id": "unitedstatespostalservice-a77078", "operator": "United States Postal Service", "operator:short": "USPS", "operator:type": "public", "operator:wikidata": "Q668687", "ref": "5120100000"}, "type": "Feature"}
{"dataset_attributes": {"@spider": "usps_collection_boxes", "spider:collection_time": "2023-10-01T08:22:44.298171"}, "geometry": {"coordinates": [-95.855862935, 43.181155735], "type": "Point"}, "id": "6aPgyw8ZUyZKWjiTWJTZ3UYZZoU=", "properties": {"@spider": "usps_collection_boxes", "addr:city": "SHELDON", "addr:country": "US", "addr:full": "223 9TH ST", "addr:postcode": "51201", "addr:state": "IA", "amenity": "post_box", "brand": "United States Postal Service", "brand:wikidata": "Q668687", "collection_times": "Mo-Sa 15:00", "name": "USPS COLLECTION BOX - BLUE BOX", "note": "ON 12/24 AND 12/31, THIS BOX MAY BE COLLECTED AS EARLY AS 12 NOON.", "nsi_id": "unitedstatespostalservice-a77078", "operator": "United States Postal Service", "operator:short": "USPS", "operator:type": "public", "operator:wikidata": "Q668687", "ref": "5120100002"}, "type": "Feature"}
{"dataset_attributes": {"@spider": "usps_collection_boxes", "spider:collection_time": "2023-10-01T08:22:44.298171"}, "geometry": {"coordinates": [-95.845687337, 43.184164286], "type": "Point"}, "id": "cmW8ExqTrhIzQ3-CoNp7j_IRq6Y=", "properties": {"@spider": "usps_collection_boxes", "addr:city": "SHELDON", "addr:country": "US", "addr:full": "801 5TH ST", "addr:postcode": "51201", "addr:state": "IA", "amenity": "post_box", "brand": "United States Postal Service", "brand:wikidata": "Q668687", "collection_times": "Mo-Sa 13:00", "name": "USPS COLLECTION BOX - BLUE BOX", "note": "ON 12/24 AND 12/31, THIS BOX MAY BE COLLECTED AS EARLY AS 12 NOON.", "nsi_id": "unitedstatespostalservice-a77078", "operator": "United States Postal Service", "operator:short": "USPS", "operator:type": "public", "operator:wikidata": "Q668687", "ref": "5120100004"}, "type": "Feature"}
{"dataset_attributes": {"@spider": "usps_collection_boxes", "spider:collection_time": "2023-10-01T08:22:44.298171"}, "geometry": {"coordinates": [-95.831423852, 43.18609842], "type": "Point"}, "id": "EakJzEevEfzg_75JO0AxeJ00Ogo=", "properties": {"@spider": "usps_collection_boxes", "addr:city": "SHELDON", "addr:country": "US", "addr:full": "1989 PARK ST", "addr:postcode": "51201", "addr:state": "IA", "amenity": "post_box", "brand": "United States Postal Service", "brand:wikidata": "Q668687", "collection_times": "Mo-Sa 13:00", "name": "USPS COLLECTION BOX - BLUE BOX", "note": "ON 12/24 AND 12/31, THIS BOX MAY BE COLLECTED AS EARLY AS 12 NOON.", "nsi_id": "unitedstatespostalservice-a77078", "operator": "United States Postal Service", "operator:short": "USPS", "operator:type": "public", "operator:wikidata": "Q668687", "ref": "5120100005"}, "type": "Feature"}
{"dataset_attributes": {"@spider": "usps_collection_boxes", "spider:collection_time": "2023-10-01T08:22:44.298171"}, "geometry": {"coordinates": [-95.855596892, 43.178501072], "type": "Point"}, "id": "24MMDSPAnLoN66-8nLhYfezT6vc=", "properties": {"@spider": "usps_collection_boxes", "addr:city": "SHELDON", "addr:country": "US", "addr:full": "312 11TH ST", "addr:postcode": "51201", "addr:state": "IA", "amenity": "post_box", "brand": "United States Postal Service", "brand:wikidata": "Q668687", "collection_times": "Mo-Sa 17:00", "name": "USPS COLLECTION BOX - BLUE BOX", "note": "ON 12/24 AND 12/31, THIS BOX MAY BE COLLECTED AS EARLY AS 12 NOON.", "nsi_id": "unitedstatespostalservice-a77078", "operator": "United States Postal Service", "operator:short": "USPS", "operator:type": "public", "operator:wikidata": "Q668687", "ref": "5120100008"}, "type": "Feature"}
{"dataset_attributes": {"@spider": "usps_collection_boxes", "spider:collection_time": "2023-10-01T08:22:44.298171"}, "geometry": {"coordinates": [-95.855596892, 43.178501072], "type": "Point"}, "id": "VFJAKM2kdisHqldQxteuARGaTYo=", "properties": {"@spider": "usps_collection_boxes", "addr:city": "SHELDON", "addr:country": "US", "addr:full": "312 11TH ST", "addr:postcode": "51201", "addr:state": "IA", "amenity": "post_box", "brand": "United States Postal Service", "brand:wikidata": "Q668687", "collection_times": "Mo-Sa 17:00", "name": "USPS COLLECTION BOX - BLUE BOX", "note": "ON 12/24 AND 12/31, THIS BOX MAY BE COLLECTED AS EARLY AS 12 NOON.", "nsi_id": "unitedstatespostalservice-a77078", "operator": "United States Postal Service", "operator:short": "USPS", "operator:type": "public", "operator:wikidata": "Q668687", "ref": "5120100009"}, "type": "Feature"}
{"dataset_attributes": {"@spider": "usps_collection_boxes", "spider:collection_time": "2023-10-01T08:22:44.298171"}, "geometry": {"coordinates": [-95.855596892, 43.178501072], "type": "Point"}, "id": "Xo67TZf08DMf6fZQCtv5QVXr4J8=", "properties": {"@spider": "usps_collection_boxes", "addr:city": "SHELDON", "addr:country": "US", "addr:full": "312 11TH ST", "addr:postcode": "51201", "addr:state": "IA", "amenity": "post_box", "brand": "United States Postal Service", "brand:wikidata": "Q668687", "collection_times": "Mo-Sa 17:00", "name": "USPS COLLECTION BOX - PO LOBBY", "note": "ON 12/24 AND 12/31, THIS BOX MAY BE COLLECTED AS EARLY AS 12 NOON.", "nsi_id": "unitedstatespostalservice-a77078", "operator": "United States Postal Service", "operator:short": "USPS", "operator:type": "public", "operator:wikidata": "Q668687", "ref": "5120100010"}, "type": "Feature"}
{"dataset_attributes": {"@spider": "usps_collection_boxes", "spider:collection_time": "2023-10-01T08:22:44.298171"}, "geometry": {"coordinates": [-95.855596892, 43.178501072], "type": "Point"}, "id": "kiqO1u2Wpc_NelW0Po-059AF-sU=", "properties": {"@spider": "usps_collection_boxes", "addr:city": "SHELDON", "addr:country": "US", "addr:full": "312 11TH ST", "addr:postcode": "51201", "addr:state": "IA", "amenity": "post_box", "brand": "United States Postal Service", "brand:wikidata": "Q668687", "collection_times": "Mo-Fr 17:00; Sa 15:00", "name": "USPS COLLECTION BOX - PO LOBBY", "note": "ON 12/24 AND 12/31, THIS BOX MAY BE COLLECTED AS EARLY AS 12 NOON.", "nsi_id": "unitedstatespostalservice-a77078", "operator": "United States Postal Service", "operator:short": "USPS", "operator:type": "public", "operator:wikidata": "Q668687", "ref": "5120100011"}, "type": "Feature"}
{"dataset_attributes": {"@spider": "usps_collection_boxes", "spider:collection_time": "2023-10-01T08:22:44.298171"}, "geometry": {"coordinates": [-96.301116277, 43.342494286], "type": "Point"}, "id": "kxN700AzLswHGBx6WPkPioUJZgc=", "properties": {"@spider": "usps_collection_boxes", "addr:city": "ALVORD", "addr:country": "US", "addr:full": "217 N MAIN ST", "addr:postcode": "51230", "addr:state": "IA", "amenity": "post_box", "brand": "United States Postal Service", "brand:wikidata": "Q668687", "collection_times": "Mo-Sa 16:00", "name": "USPS COLLECTION BOX - BLUE BOX", "note": "ON 12/24 AND 12/31, THIS BOX MAY BE COLLECTED AS EARLY AS 12 NOON.", "nsi_id": "unitedstatespostalservice-a77078", "operator": "United States Postal Service", "operator:short": "USPS", "operator:type": "public", "operator:wikidata": "Q668687", "ref": "5123000000"}, "type": "Feature"}
{"dataset_attributes": {"@spider": "usps_collection_boxes", "spider:collection_time": "2023-10-01T08:22:44.298171"}, "geometry": {"coordinates": [-96.301116277, 43.342494286], "type": "Point"}, "id": "uRrNC4aI0N1K8BxkV3QZzfXD-eo=", "properties": {"@spider": "usps_collection_boxes", "addr:city": "ALVORD", "addr:country": "US", "addr:full": "217 N MAIN ST", "addr:postcode": "51230", "addr:state": "IA", "amenity": "post_box", "brand": "United States Postal Service", "brand:wikidata": "Q668687", "collection_times": "Mo-Fr 11:15", "name": "USPS COLLECTION BOX - PO LOBBY", "nsi_id": "unitedstatespostalservice-a77078", "operator": "United States Postal Service", "operator:short": "USPS", "operator:type": "public", "operator:wikidata": "Q668687", "ref": "5123000001"}, "type": "Feature"}
{"dataset_attributes": {"@spider": "usps_collection_boxes", "spider:collection_time": "2023-10-01T08:22:44.298171"}, "geometry": {"coordinates": [-96.301116277, 43.342494286], "type": "Point"}, "id": "p4yBkuPtkHdvgapJ32NKByE3tWU=", "properties": {"@spider": "usps_collection_boxes", "addr:city": "ALVORD", "addr:country": "US", "addr:full": "217 N MAIN ST", "addr:postcode": "51230", "addr:state": "IA", "amenity": "post_box", "brand": "United States Postal Service", "brand:wikidata": "Q668687", "collection_times": "Mo-Fr 11:30; Sa 10:45", "name": "USPS COLLECTION BOX - PO LOBBY", "nsi_id": "unitedstatespostalservice-a77078", "operator": "United States Postal Service", "operator:short": "USPS", "operator:type": "public", "operator:wikidata": "Q668687", "ref": "5123000002"}, "type": "Feature"}
{"dataset_attributes": {"@spider": "usps_collection_boxes", "spider:collection_time": "2023-10-01T08:22:44.298171"}, "geometry": {"coordinates": [-95.7456179782, 43.1152819857], "type": "Point"}, "id": "4d8FQ_-6KnDzxl7j3PxX1Z2QORY=", "properties": {"@spider": "usps_collection_boxes", "addr:city": "ARCHER", "addr:country": "US", "addr:full": "203 MAIN ST", "addr:postcode": "51231", "addr:state": "IA", "amenity": "post_box", "brand": "United States Postal Service", "brand:wikidata": "Q668687", "collection_times": "Mo-Sa 16:15", "name": "USPS COLLECTION BOX - BLUE BOX", "note": "ON 12/24 AND 12/31, THIS BOX MAY BE COLLECTED AS EARLY AS 12 NOON.", "nsi_id": "unitedstatespostalservice-a77078", "operator": "United States Postal Service", "operator:short": "USPS", "operator:type": "public", "operator:wikidata": "Q668687", "ref": "5123100000"}, "type": "Feature"}
{"dataset_attributes": {"@spider": "usps_collection_boxes", "spider:collection_time": "2023-10-01T08:22:44.298171"}, "geometry": {"coordinates": [-95.745854136, 43.11428413], "type": "Point"}, "id": "NTvqqZh8v7Z9BnyQSkQjMehqMdM=", "properties": {"@spider": "usps_collection_boxes", "addr:city": "ARCHER", "addr:country": "US", "addr:full": "203 MAIN ST", "addr:postcode": "51231", "addr:state": "IA", "amenity": "post_box", "brand": "United States Postal Service", "brand:wikidata": "Q668687", "collection_times": "Mo-Fr 11:45", "name": "USPS COLLECTION BOX - PO LOBBY", "nsi_id": "unitedstatespostalservice-a77078", "operator": "United States Postal Service", "operator:short": "USPS", "operator:type": "public", "operator:wikidata": "Q668687", "ref": "5123100001"}, "type": "Feature"}
{"dataset_attributes": {"@spider": "usps_collection_boxes", "spider:collection_time": "2023-10-01T08:22:44.298171"}, "geometry": {"coordinates": [-95.745854136, 43.11428413], "type": "Point"}, "id": "oXSb0hEn8ivK3lnnoPlmlwROhts=", "properties": {"@spider": "usps_collection_boxes", "addr:city": "ARCHER", "addr:country": "US", "addr:full": "203 MAIN ST", "addr:postcode": "51231", "addr:state": "IA", "amenity": "post_box", "brand": "United States Postal Service", "brand:wikidata": "Q668687", "collection_times": "Mo-Fr 12:00; Sa 09:15", "name": "USPS COLLECTION BOX - PO LOBBY", "nsi_id": "unitedstatespostalservice-a77078", "operator": "United States Postal Service", "operator:short": "USPS", "operator:type": "public", "operator:wikidata": "Q668687", "ref": "5123100002"}, "type": "Feature"}
{"dataset_attributes": {"@spider": "usps_collection_boxes", "spider:collection_time": "2023-10-01T08:22:44.298171"}, "geometry": {"coordinates": [-95.7887633602, 43.3124177088], "type": "Point"}, "id": "TQIk-BG38MV1yNmD6k5EWM6iA7s=", "properties": {"@spider": "usps_collection_boxes", "addr:city": "ASHTON", "addr:country": "US", "addr:full": "152 1ST AVE", "addr:postcode": "51232", "addr:state": "IA", "amenity": "post_box", "brand": "United States Postal Service", "brand:wikidata": "Q668687", "collection_times": "Mo-Sa 16:30", "name": "USPS COLLECTION BOX - BLUE BOX", "note": "ON 12/24 AND 12/31, THIS BOX MAY BE COLLECTED AS EARLY AS 12 NOON.", "nsi_id": "unitedstatespostalservice-a77078", "operator": "United States Postal Service", "operator:short": "USPS", "operator:type": "public", "operator:wikidata": "Q668687", "ref": "5123200000"}, "type": "Feature"}
{"dataset_attributes": {"@spider": "usps_collection_boxes", "spider:collection_time": "2023-10-01T08:22:44.298171"}, "geometry": {"coordinates": [-95.7887633602, 43.3124177088], "type": "Point"}, "id": "CRb5BdGJApeoAZ_ti8Td8k37rpY=", "properties": {"@spider": "usps_collection_boxes", "addr:city": "ASHTON", "addr:country": "US", "addr:full": "152 1ST AVE", "addr:postcode": "51232", "addr:state": "IA", "amenity": "post_box", "brand": "United States Postal Service", "brand:wikidata": "Q668687", "collection_times": "Mo-Fr 13:45", "name": "USPS COLLECTION BOX - PO LOBBY", "note": "ON 12/24 AND 12/31, THIS BOX MAY BE COLLECTED AS EARLY AS 12 NOON.", "nsi_id": "unitedstatespostalservice-a77078", "operator": "United States Postal Service", "operator:short": "USPS", "operator:type": "public", "operator:wikidata": "Q668687", "ref": "5123200002"}, "type": "Feature"}
{"dataset_attributes": {"@spider": "usps_collection_boxes", "spider:collection_time": "2023-10-01T08:22:44.298171"}, "geometry": {"coordinates": [-95.7887633602, 43.3124177088], "type": "Point"}, "id": "5UEsh9E--H5BNV58yUyl0myhLzE=", "properties": {"@spider": "usps_collection_boxes", "addr:city": "ASHTON", "addr:country": "US", "addr:full": "152 1ST AVE", "addr:postcode": "51232", "addr:state": "IA", "amenity": "post_box", "brand": "United States Postal Service", "brand:wikidata": "Q668687", "collection_times": "Mo-Fr 14:00; Sa 12:00", "name": "USPS COLLECTION BOX - PO LOBBY", "note": "ON 12/24 AND 12/31, THIS BOX MAY BE COLLECTED AS EARLY AS 12 NOON.", "nsi_id": "unitedstatespostalservice-a77078", "operator": "United States Postal Service", "operator:short": "USPS", "operator:type": "public", "operator:wikidata": "Q668687", "ref": "5123200003"}, "type": "Feature"}
{"dataset_attributes": {"@spider": "usps_collection_boxes", "spider:collection_time": "2023-10-01T08:22:44.298171"}, "geometry": {"coordinates": [-96.005961574, 43.19141313], "type": "Point"}, "id": "VwSki_XwMULc16YKZ-RCFAgkk4c=", "properties": {"@spider": "usps_collection_boxes", "addr:city": "BOYDEN", "addr:country": "US", "addr:full": "911 MAIN ST", "addr:postcode": "51234", "addr:state": "IA", "amenity": "post_box", "brand": "United States Postal Service", "brand:wikidata": "Q668687", "collection_times": "Mo-Fr 16:15; Sa 17:30", "name": "USPS COLLECTION BOX - BLUE BOX", "note": "ON 12/24 AND 12/31, THIS BOX MAY BE COLLECTED AS EARLY AS 12 NOON.", "nsi_id": "unitedstatespostalservice-a77078", "operator": "United States Postal Service", "operator:short": "USPS", "operator:type": "public", "operator:wikidata": "Q668687", "ref": "5123400000"}, "type": "Feature"}
{"dataset_attributes": {"@spider": "usps_collection_boxes", "spider:collection_time": "2023-10-01T08:22:44.298171"}, "geometry": {"coordinates": [-96.005961574, 43.19141313], "type": "Point"}, "id": "bGqstChI4zIoRNRR8OaBROfWYhw=", "properties": {"@spider": "usps_collection_boxes", "addr:city": "BOYDEN", "addr:country": "US", "addr:full": "911 MAIN ST", "addr:postcode": "51234", "addr:state": "IA", "amenity": "post_box", "brand": "United States Postal Service", "brand:wikidata": "Q668687", "collection_times": "Mo-Fr 16:15; Sa 11:15", "name": "USPS COLLECTION BOX - PO LOBBY", "note": "ON 12/24 AND 12/31, THIS BOX MAY BE COLLECTED AS EARLY AS 12 NOON.", "nsi_id": "unitedstatespostalservice-a77078", "operator": "United States Postal Service", "operator:short": "USPS", "operator:type": "public", "operator:wikidata": "Q668687", "ref": "5123400001"}, "type": "Feature"}
{"dataset_attributes": {"@spider": "usps_collection_boxes", "spider:collection_time": "2023-10-01T08:22:44.298171"}, "geometry": {"coordinates": [-96.005961574, 43.19141313], "type": "Point"}, "id": "NzSW1VcYUQjp781a1fWt5KzhpMQ=", "properties": {"@spider": "usps_collection_boxes", "addr:city": "BOYDEN", "addr:country": "US", "addr:full": "911 MAIN ST", "addr:postcode": "51234", "addr:state": "IA", "amenity": "post_box", "brand": "United States Postal Service", "brand:wikidata": "Q668687", "collection_times": "Mo-Fr 16:30; Sa 11:30", "name": "USPS COLLECTION BOX - PO LOBBY", "note": "ON 12/24 AND 12/31, THIS BOX MAY BE COLLECTED AS EARLY AS 12 NOON.", "nsi_id": "unitedstatespostalservice-a77078", "operator": "United States Postal Service", "operator:short": "USPS", "operator:type": "public", "operator:wikidata": "Q668687", "ref": "5123400002"}, "type": "Feature"}
{"dataset_attributes": {"@spider": "usps_collection_boxes", "spider:collection_time": "2023-10-01T08:22:44.298171"}, "geometry": {"coordinates": [-96.234033864, 43.279363929], "type": "Point"}, "id": "lqyvOyenRt7VHZBz5X8hGSzKCHs=", "properties": {"@spider": "usps_collection_boxes", "addr:city": "DOON", "addr:country": "US", "addr:full": "223 MAIN ST", "addr:postcode": "51235", "addr:state": "IA", "amenity": "post_box", "brand": "United States Postal Service", "brand:wikidata": "Q668687", "collection_times": "Mo-Sa 16:15", "name": "USPS COLLECTION BOX - BLUE BOX", "note": "ON 12/24 AND 12/31, THIS BOX MAY BE COLLECTED AS EARLY AS 12 NOON.", "nsi_id": "unitedstatespostalservice-a77078", "operator": "United States Postal Service", "operator:short": "USPS", "operator:type": "public", "operator:wikidata": "Q668687", "ref": "5123500000"}, "type": "Feature"}
{"dataset_attributes": {"@spider": "usps_collection_boxes", "spider:collection_time": "2023-10-01T08:22:44.298171"}, "geometry": {"coordinates": [-96.234033864, 43.279363929], "type": "Point"}, "id": "9G4WHJyMUaRuo8AjnVlbEjZ_O6E=", "properties": {"@spider": "usps_collection_boxes", "addr:city": "DOON", "addr:country": "US", "addr:full": "223 MAIN ST", "addr:postcode": "51235", "addr:state": "IA", "amenity": "post_box", "brand": "United States Postal Service", "brand:wikidata": "Q668687", "collection_times": "Mo-Fr 13:45; Sa 09:30", "name": "USPS COLLECTION BOX - PO LOBBY", "note": "ON 12/24 AND 12/31, THIS BOX MAY BE COLLECTED AS EARLY AS 12 NOON.", "nsi_id": "unitedstatespostalservice-a77078", "operator": "United States Postal Service", "operator:short": "USPS", "operator:type": "public", "operator:wikidata": "Q668687", "ref": "5123500001"}, "type": "Feature"}
{"dataset_attributes": {"@spider": "usps_collection_boxes", "spider:collection_time": "2023-10-01T08:22:44.298171"}, "geometry": {"coordinates": [-96.234033864, 43.279363929], "type": "Point"}, "id": "Wu0pwMjmCsXUYPKIvK7RCV3CE3I=", "properties": {"@spider": "usps_collection_boxes", "addr:city": "DOON", "addr:country": "US", "addr:full": "223 MAIN ST", "addr:postcode": "51235", "addr:state": "IA", "amenity": "post_box", "brand": "United States Postal Service", "brand:wikidata": "Q668687", "collection_times": "Mo-Fr 14:00; Sa 09:45", "name": "USPS COLLECTION BOX - PO LOBBY", "note": "ON 12/24 AND 12/31, THIS BOX MAY BE COLLECTED AS EARLY AS 12 NOON.", "nsi_id": "unitedstatespostalservice-a77078", "operator": "United States Postal Service", "operator:short": "USPS", "operator:type": "public", "operator:wikidata": "Q668687", "ref": "5123500002"}, "type": "Feature"}
{"dataset_attributes": {"@spider": "usps_collection_boxes", "spider:collection_time": "2023-10-01T08:22:44.298171"}, "geometry": {"coordinates": [-96.001289497, 43.343659529], "type": "Point"}, "id": "-jlQSlyowDzvpsRcB4dPFlr5sZ0=", "properties": {"@spider": "usps_collection_boxes", "addr:city": "GEORGE", "addr:country": "US", "addr:full": "120 E MICHIGAN AVE", "addr:postcode": "51237", "addr:state": "IA", "amenity": "post_box", "brand": "United States Postal Service", "brand:wikidata": "Q668687", "collection_times": "Mo-Sa 15:30", "name": "USPS COLLECTION BOX - BLUE BOX", "note": "ON 12/24 AND 12/31, THIS BOX MAY BE COLLECTED AS EARLY AS 12 NOON.", "nsi_id": "unitedstatespostalservice-a77078", "operator": "United States Postal Service", "operator:short": "USPS", "operator:type": "public", "operator:wikidata": "Q668687", "ref": "5123700000"}, "type": "Feature"}
{"dataset_attributes": {"@spider": "usps_collection_boxes", "spider:collection_time": "2023-10-01T08:22:44.298171"}, "geometry": {"coordinates": [-96.001289497, 43.343659529], "type": "Point"}, "id": "neHeRgupYVO-0wl_CMrgW2B6b1g=", "properties": {"@spider": "usps_collection_boxes", "addr:city": "GEORGE", "addr:country": "US", "addr:full": "120 E MICHIGAN AVE", "addr:postcode": "51237", "addr:state": "IA", "amenity": "post_box", "brand": "United States Postal Service", "brand:wikidata": "Q668687", "collection_times": "Mo-Fr 15:30", "name": "USPS COLLECTION BOX - PO LOBBY", "note": "ON 12/24 AND 12/31, THIS BOX MAY BE COLLECTED AS EARLY AS 12 NOON.", "nsi_id": "unitedstatespostalservice-a77078", "operator": "United States Postal Service", "operator:short": "USPS", "operator:type": "public", "operator:wikidata": "Q668687", "ref": "5123700001"}, "type": "Feature"}
{"dataset_attributes": {"@spider": "usps_collection_boxes", "spider:collection_time": "2023-10-01T08:22:44.298171"}, "geometry": {"coordinates": [-96.001289497, 43.343659529], "type": "Point"}, "id": "Z2u4rMZVZELtLDz9nDM6r8nMliI=", "properties": {"@spider": "usps_collection_boxes", "addr:city": "GEORGE", "addr:country": "US", "addr:full": "120 E MICHIGAN AVE", "addr:postcode": "51237", "addr:state": "IA", "amenity": "post_box", "brand": "United States Postal Service", "brand:wikidata": "Q668687", "collection_times": "Mo-Fr 15:45; Sa 10:00", "name": "USPS COLLECTION BOX - PO LOBBY", "note": "ON 12/24 AND 12/31, THIS BOX MAY BE COLLECTED AS EARLY AS 12 NOON.", "nsi_id": "unitedstatespostalservice-a77078", "operator": "United States Postal Service", "operator:short": "USPS", "operator:type": "public", "operator:wikidata": "Q668687", "ref": "5123700002"}, "type": "Feature"}
{"dataset_attributes": {"@spider": "usps_collection_boxes", "spider:collection_time": "2023-10-01T08:22:44.298171"}, "geometry": {"coordinates": [-95.905784911, 43.07234968], "type": "Point"}, "id": "ycoJzllODwEAJNX60a82lU7CkdU=", "properties": {"@spider": "usps_collection_boxes", "addr:city": "HOSPERS", "addr:country": "US", "addr:full": "202 MAIN ST", "addr:postcode": "51238", "addr:state": "IA", "amenity": "post_box", "brand": "United States Postal Service", "brand:wikidata": "Q668687", "collection_times": "Mo-Sa 16:00", "name": "USPS COLLECTION BOX - BLUE BOX", "note": "ON 12/24 AND 12/31, THIS BOX MAY BE COLLECTED AS EARLY AS 12 NOON.", "nsi_id": "unitedstatespostalservice-a77078", "operator": "United States Postal Service", "operator:short": "USPS", "operator:type": "public", "operator:wikidata": "Q668687", "ref": "5123800000"}, "type": "Feature"}
{"dataset_attributes": {"@spider": "usps_collection_boxes", "spider:collection_time": "2023-10-01T08:22:44.298171"}, "geometry": {"coordinates": [-95.905784911, 43.07234968], "type": "Point"}, "id": "BC06GfIWln_3a1jMHKMz36J0ijk=", "properties": {"@spider": "usps_collection_boxes", "addr:city": "HOSPERS", "addr:country": "US", "addr:full": "202 MAIN ST", "addr:postcode": "51238", "addr:state": "IA", "amenity": "post_box", "brand": "United States Postal Service", "brand:wikidata": "Q668687", "collection_times": "Mo-Fr 13:15; Sa 09:30", "name": "USPS COLLECTION BOX - PO LOBBY", "note": "ON 12/24 AND 12/31, THIS BOX MAY BE COLLECTED AS EARLY AS 12 NOON.", "nsi_id": "unitedstatespostalservice-a77078", "operator": "United States Postal Service", "operator:short": "USPS", "operator:type": "public", "operator:wikidata": "Q668687", "ref": "5123800001"}, "type": "Feature"}
{"dataset_attributes": {"@spider": "usps_collection_boxes", "spider:collection_time": "2023-10-01T08:22:44.298171"}, "geometry": {"coordinates": [-95.905784911, 43.07234968], "type": "Point"}, "id": "uR2VU2LPvWTaWStEoKkTBT2G6HY=", "properties": {"@spider": "usps_collection_boxes", "addr:city": "HOSPERS", "addr:country": "US", "addr:full": "202 MAIN ST", "addr:postcode": "51238", "addr:state": "IA", "amenity": "post_box", "brand": "United States Postal Service", "brand:wikidata": "Q668687", "collection_times": "Mo-Fr 13:30; Sa 09:45", "name": "USPS COLLECTION BOX - PO LOBBY", "note": "ON 12/24 AND 12/31, THIS BOX MAY BE COLLECTED AS EARLY AS 12 NOON.", "nsi_id": "unitedstatespostalservice-a77078", "operator": "United States Postal Service", "operator:short": "USPS", "operator:type": "public", "operator:wikidata": "Q668687", "ref": "5123800002"}, "type": "Feature"}
{"dataset_attributes": {"@spider": "usps_collection_boxes", "spider:collection_time": "2023-10-01T08:22:44.298171"}, "geometry": {"coordinates": [-96.133682846, 43.189929199], "type": "Point"}, "id": "blfzGxAl4XfDTNkhB54FrA3oyME=", "properties": {"@spider": "usps_collection_boxes", "addr:city": "HULL", "addr:country": "US", "addr:full": "1204 MAIN ST", "addr:postcode": "51239", "addr:state": "IA", "amenity": "post_box", "brand": "United States Postal Service", "brand:wikidata": "Q668687", "collection_times": "Mo-Sa 16:30", "name": "USPS COLLECTION BOX - BLUE BOX", "note": "ON 12/24 AND 12/31, THIS BOX MAY BE COLLECTED AS EARLY AS 12 NOON.", "nsi_id": "unitedstatespostalservice-a77078", "operator": "United States Postal Service", "operator:short": "USPS", "operator:type": "public", "operator:wikidata": "Q668687", "ref": "5123900001"}, "type": "Feature"}
{"dataset_attributes": {"@spider": "usps_collection_boxes", "spider:collection_time": "2023-10-01T08:22:44.298171"}, "geometry": {"coordinates": [-96.133682846, 43.189929199], "type": "Point"}, "id": "9euD5kWR4MukVfz3FHrv7pNE5rg=", "properties": {"@spider": "usps_collection_boxes", "addr:city": "HULL", "addr:country": "US", "addr:full": "1204 MAIN ST", "addr:postcode": "51239", "addr:state": "IA", "amenity": "post_box", "brand": "United States Postal Service", "brand:wikidata": "Q668687", "collection_times": "Mo-Fr 16:30", "name": "USPS COLLECTION BOX - PO LOBBY", "note": "ON 12/24 AND 12/31, THIS BOX MAY BE COLLECTED AS EARLY AS 12 NOON.", "nsi_id": "unitedstatespostalservice-a77078", "operator": "United States Postal Service", "operator:short": "USPS", "operator:type": "public", "operator:wikidata": "Q668687", "ref": "5123900002"}, "type": "Feature"}
{"dataset_attributes": {"@spider": "usps_collection_boxes", "spider:collection_time": "2023-10-01T08:22:44.298171"}, "geometry": {"coordinates": [-96.133682846, 43.189929199], "type": "Point"}, "id": "v-9lIdChzgGdf9Nfz2L-v48G1EY=", "properties": {"@spider": "usps_collection_boxes", "addr:city": "HULL", "addr:country": "US", "addr:full": "1204 MAIN ST", "addr:postcode": "51239", "addr:state": "IA", "amenity": "post_box", "brand": "United States Postal Service", "brand:wikidata": "Q668687", "collection_times": "Mo-Fr 16:30; Sa 10:00", "name": "USPS COLLECTION BOX - PO LOBBY", "note": "ON 12/24 AND 12/31, THIS BOX MAY BE COLLECTED AS EARLY AS 12 NOON.", "nsi_id": "unitedstatespostalservice-a77078", "operator": "United States Postal Service", "operator:short": "USPS", "operator:type": "public", "operator:wikidata": "Q668687", "ref": "5123900003"}, "type": "Feature"}
{"dataset_attributes": {"@spider": "usps_collection_boxes", "spider:collection_time": "2023-10-01T08:22:44.298171"}, "geometry": {"coordinates": [-96.431908143, 43.30809087], "type": "Point"}, "id": "KpYgrjx50iYr745YIsMdr2a8USU=", "properties": {"@spider": "usps_collection_boxes", "addr:city": "INWOOD", "addr:country": "US", "addr:full": "201 S MAIN ST", "addr:postcode": "51240", "addr:state": "IA", "amenity": "post_box", "brand": "United States Postal Service", "brand:wikidata": "Q668687", "collection_times": "Mo-Fr 15:45; Sa 16:00", "name": "USPS COLLECTION BOX - BLUE BOX", "note": "ON 12/24 AND 12/31, THIS BOX MAY BE COLLECTED AS EARLY AS 12 NOON.", "nsi_id": "unitedstatespostalservice-a77078", "operator": "United States Postal Service", "operator:short": "USPS", "operator:type": "public", "operator:wikidata": "Q668687", "ref": "5124000000"}, "type": "Feature"}
{"dataset_attributes": {"@spider": "usps_collection_boxes", "spider:collection_time": "2023-10-01T08:22:44.298171"}, "geometry": {"coordinates": [-96.431908143, 43.30809087], "type": "Point"}, "id": "1iFvSJNbY2-2ml-pXrc1buzvJFQ=", "properties": {"@spider": "usps_collection_boxes", "addr:city": "INWOOD", "addr:country": "US", "addr:full": "201 S MAIN ST", "addr:postcode": "51240", "addr:state": "IA", "amenity": "post_box", "brand": "United States Postal Service", "brand:wikidata": "Q668687", "collection_times": "Mo-Fr 16:00", "name": "USPS COLLECTION BOX - PO LOBBY", "note": "ON 12/24 AND 12/31, THIS BOX MAY BE COLLECTED AS EARLY AS 12 NOON.", "nsi_id": "unitedstatespostalservice-a77078", "operator": "United States Postal Service", "operator:short": "USPS", "operator:type": "public", "operator:wikidata": "Q668687", "ref": "5124000001"}, "type": "Feature"}
{"dataset_attributes": {"@spider": "usps_collection_boxes", "spider:collection_time": "2023-10-01T08:22:44.298171"}, "geometry": {"coordinates": [-96.431908143, 43.30809087], "type": "Point"}, "id": "JSBnps85phthHa5CBQgnzI7IUFo=", "properties": {"@spider": "usps_collection_boxes", "addr:city": "INWOOD", "addr:country": "US", "addr:full": "201 S MAIN ST", "addr:postcode": "51240", "addr:state": "IA", "amenity": "post_box", "brand": "United States Postal Service", "brand:wikidata": "Q668687", "collection_times": "Mo-Fr 16:00; Sa 09:30", "name": "USPS COLLECTION BOX - PO LOBBY", "note": "ON 12/24 AND 12/31, THIS BOX MAY BE COLLECTED AS EARLY AS 12 NOON.", "nsi_id": "unitedstatespostalservice-a77078", "operator": "United States Postal Service", "operator:short": "USPS", "operator:type": "public", "operator:wikidata": "Q668687", "ref": "5124000002"}, "type": "Feature"}
{"dataset_attributes": {"@spider": "usps_collection_boxes", "spider:collection_time": "2023-10-01T08:22:44.298171"}, "geometry": {"coordinates": [-96.434187926, 43.453671666], "type": "Point"}, "id": "8RaRMZ9XBGTWkXDuobPP5SEfcYI=", "properties": {"@spider": "usps_collection_boxes", "addr:city": "LARCHWOOD", "addr:country": "US", "addr:full": "935 BROADWAY ST", "addr:postcode": "51241", "addr:state": "IA", "amenity": "post_box", "brand": "United States Postal Service", "brand:wikidata": "Q668687", "collection_times": "Mo-Sa 16:00", "name": "USPS COLLECTION BOX - BLUE BOX", "note": "ON 12/24 AND 12/31, THIS BOX MAY BE COLLECTED AS EARLY AS 12 NOON.", "nsi_id": "unitedstatespostalservice-a77078", "operator": "United States Postal Service", "operator:short": "USPS", "operator:type": "public", "operator:wikidata": "Q668687", "ref": "5124100000"}, "type": "Feature"}
{"dataset_attributes": {"@spider": "usps_collection_boxes", "spider:collection_time": "2023-10-01T08:22:44.298171"}, "geometry": {"coordinates": [-96.434187926, 43.453671666], "type": "Point"}, "id": "6sSTYyO8yP8fzOgVG376hEmnuGA=", "properties": {"@spider": "usps_collection_boxes", "addr:city": "LARCHWOOD", "addr:country": "US", "addr:full": "935 BROADWAY ST", "addr:postcode": "51241", "addr:state": "IA", "amenity": "post_box", "brand": "United States Postal Service", "brand:wikidata": "Q668687", "collection_times": "Mo-Fr 16:00", "name": "USPS COLLECTION BOX - PO LOBBY", "note": "ON 12/24 AND 12/31, THIS BOX MAY BE COLLECTED AS EARLY AS 12 NOON.", "nsi_id": "unitedstatespostalservice-a77078", "operator": "United States Postal Service", "operator:short": "USPS", "operator:type": "public", "operator:wikidata": "Q668687", "ref": "5124100001"}, "type": "Feature"}
{"dataset_attributes": {"@spider": "usps_collection_boxes", "spider:collection_time": "2023-10-01T08:22:44.298171"}, "geometry": {"coordinates": [-96.434187926, 43.453671666], "type": "Point"}, "id": "YTL6bzlpvJHXUMyNfzB0GFegJs0=", "properties": {"@spider": "usps_collection_boxes", "addr:city": "LARCHWOOD", "addr:country": "US", "addr:full": "935 BROADWAY ST", "addr:postcode": "51241", "addr:state": "IA", "amenity": "post_box", "brand": "United States Postal Service", "brand:wikidata": "Q668687", "collection_times": "Mo-Fr 16:15; Sa 09:30", "name": "USPS COLLECTION BOX - PO LOBBY", "note": "ON 12/24 AND 12/31, THIS BOX MAY BE COLLECTED AS EARLY AS 12 NOON.", "nsi_id": "unitedstatespostalservice-a77078", "operator": "United States Postal Service", "operator:short": "USPS", "operator:type": "public", "operator:wikidata": "Q668687", "ref": "5124100002"}, "type": "Feature"}
{"dataset_attributes": {"@spider": "usps_collection_boxes", "spider:collection_time": "2023-10-01T08:22:44.298171"}, "geometry": {"coordinates": [-96.332502318, 43.437575973], "type": "Point"}, "id": "_NR7721WR_jSzEYUdsXPq_4nUlc=", "properties": {"@spider": "usps_collection_boxes", "addr:city": "LESTER", "addr:country": "US", "addr:full": "311 MAIN ST", "addr:postcode": "51242", "addr:state": "IA", "amenity": "post_box", "brand": "United States Postal Service", "brand:wikidata": "Q668687", "collection_times": "Mo-Fr 16:00; Sa 16:30", "name": "USPS COLLECTION BOX - BLUE BOX", "note": "ON 12/24 AND 12/31, THIS BOX MAY BE COLLECTED AS EARLY AS 12 NOON.", "nsi_id": "unitedstatespostalservice-a77078", "operator": "United States Postal Service", "operator:short": "USPS", "operator:type": "public", "operator:wikidata": "Q668687", "ref": "5124200000"}, "type": "Feature"}
{"dataset_attributes": {"@spider": "usps_collection_boxes", "spider:collection_time": "2023-10-01T08:22:44.298171"}, "geometry": {"coordinates": [-96.332502318, 43.437575973], "type": "Point"}, "id": "niec_-lbH4TBx0YXiHbTyGUu01I=", "properties": {"@spider": "usps_collection_boxes", "addr:city": "LESTER", "addr:country": "US", "addr:full": "311 MAIN ST", "addr:postcode": "51242", "addr:state": "IA", "amenity": "post_box", "brand": "United States Postal Service", "brand:wikidata": "Q668687", "collection_times": "Mo-Fr 11:45; Sa 08:15", "name": "USPS COLLECTION BOX - PO LOBBY", "nsi_id": "unitedstatespostalservice-a77078", "operator": "United States Postal Service", "operator:short": "USPS", "operator:type": "public", "operator:wikidata": "Q668687", "ref": "5124200001"}, "type": "Feature"}
{"dataset_attributes": {"@spider": "usps_collection_boxes", "spider:collection_time": "2023-10-01T08:22:44.298171"}, "geometry": {"coordinates": [-96.332502318, 43.437575973], "type": "Point"}, "id": "cKAyK5M_s3qF7jfT3RWOwuloQcQ=", "properties": {"@spider": "usps_collection_boxes", "addr:city": "LESTER", "addr:country": "US", "addr:full": "311 MAIN ST", "addr:postcode": "51242", "addr:state": "IA", "amenity": "post_box", "brand": "United States Postal Service", "brand:wikidata": "Q668687", "collection_times": "Mo-Fr 12:00; Sa 08:30", "name": "USPS COLLECTION BOX - PO LOBBY", "nsi_id": "unitedstatespostalservice-a77078", "operator": "United States Postal Service", "operator:short": "USPS", "operator:type": "public", "operator:wikidata": "Q668687", "ref": "5124200002"}, "type": "Feature"}
{"dataset_attributes": {"@spider": "usps_collection_boxes", "spider:collection_time": "2023-10-01T08:22:44.298171"}, "geometry": {"coordinates": [-95.883251843, 43.443765], "type": "Point"}, "id": "Ya7Ge45wIswFQS38m_hmDyhlJwE=", "properties": {"@spider": "usps_collection_boxes", "addr:city": "LITTLE ROCK", "addr:country": "US", "addr:full": "319 MAIN ST", "addr:postcode": "51243", "addr:state": "IA", "amenity": "post_box", "brand": "United States Postal Service", "brand:wikidata": "Q668687", "collection_times": "Mo-Sa 16:15", "name": "USPS COLLECTION BOX - BLUE BOX", "note": "ON 12/24 AND 12/31, THIS BOX MAY BE COLLECTED AS EARLY AS 12 NOON.", "nsi_id": "unitedstatespostalservice-a77078", "operator": "United States Postal Service", "operator:short": "USPS", "operator:type": "public", "operator:wikidata": "Q668687", "ref": "5124300000"}, "type": "Feature"}
{"dataset_attributes": {"@spider": "usps_collection_boxes", "spider:collection_time": "2023-10-01T08:22:44.298171"}, "geometry": {"coordinates": [-95.883251843, 43.443765], "type": "Point"}, "id": "3n1x84jx0WbP2GKJq8tzEF3fX2w=", "properties": {"@spider": "usps_collection_boxes", "addr:city": "LITTLE ROCK", "addr:country": "US", "addr:full": "319 MAIN ST", "addr:postcode": "51243", "addr:state": "IA", "amenity": "post_box", "brand": "United States Postal Service", "brand:wikidata": "Q668687", "collection_times": "Mo-Fr 11:45", "name": "USPS COLLECTION BOX - PO LOBBY", "nsi_id": "unitedstatespostalservice-a77078", "operator": "United States Postal Service", "operator:short": "USPS", "operator:type": "public", "operator:wikidata": "Q668687", "ref": "5124300001"}, "type": "Feature"}
{"dataset_attributes": {"@spider": "usps_collection_boxes", "spider:collection_time": "2023-10-01T08:22:44.298171"}, "geometry": {"coordinates": [-95.883251843, 43.443765], "type": "Point"}, "id": "2DIJ36MmmvapWsG5BRT3zGc8X0Y=", "properties": {"@spider": "usps_collection_boxes", "addr:city": "LITTLE ROCK", "addr:country": "US", "addr:full": "319 MAIN ST", "addr:postcode": "51243", "addr:state": "IA", "amenity": "post_box", "brand": "United States Postal Service", "brand:wikidata": "Q668687", "collection_times": "Mo-Fr 12:00; Sa 09:00", "name": "USPS COLLECTION BOX - PO LOBBY", "nsi_id": "unitedstatespostalservice-a77078", "operator": "United States Postal Service", "operator:short": "USPS", "operator:type": "public", "operator:wikidata": "Q668687", "ref": "5124300002"}, "type": "Feature"}
{"dataset_attributes": {"@spider": "usps_collection_boxes", "spider:collection_time": "2023-10-01T08:22:44.298171"}, "geometry": {"coordinates": [-95.628337663, 43.085635455], "type": "Point"}, "id": "rUFZzeIFpTrMZEQ0RuVvVZUNwsM=", "properties": {"@spider": "usps_collection_boxes", "addr:city": "PRIMGHAR", "addr:country": "US", "addr:full": "280 S GREEN AVE", "addr:postcode": "51245", "addr:state": "IA", "amenity": "post_box", "brand": "United States Postal Service", "brand:wikidata": "Q668687", "collection_times": "Mo-Sa 16:00", "name": "USPS COLLECTION BOX - BLUE BOX", "note": "ON 12/24 AND 12/31, THIS BOX MAY BE COLLECTED AS EARLY AS 12 NOON.", "nsi_id": "unitedstatespostalservice-a77078", "operator": "United States Postal Service", "operator:short": "USPS", "operator:type": "public", "operator:wikidata": "Q668687", "ref": "5124500000"}, "type": "Feature"}
{"dataset_attributes": {"@spider": "usps_collection_boxes", "spider:collection_time": "2023-10-01T08:22:44.298171"}, "geometry": {"coordinates": [-95.628337663, 43.085635455], "type": "Point"}, "id": "-HACfTh4XJ2uJW7-XPE0cMC_-3A=", "properties": {"@spider": "usps_collection_boxes", "addr:city": "PRIMGHAR", "addr:country": "US", "addr:full": "280 S GREEN AVE", "addr:postcode": "51245", "addr:state": "IA", "amenity": "post_box", "brand": "United States Postal Service", "brand:wikidata": "Q668687", "collection_times": "Mo-Fr 16:00; Sa 09:30", "name": "USPS COLLECTION BOX - PO LOBBY", "note": "ON 12/24 AND 12/31, THIS BOX MAY BE COLLECTED AS EARLY AS 12 NOON.", "nsi_id": "unitedstatespostalservice-a77078", "operator": "United States Postal Service", "operator:short": "USPS", "operator:type": "public", "operator:wikidata": "Q668687", "ref": "5124500002"}, "type": "Feature"}
{"dataset_attributes": {"@spider": "usps_collection_boxes", "spider:collection_time": "2023-10-01T08:22:44.298171"}, "geometry": {"coordinates": [-95.628337663, 43.085635455], "type": "Point"}, "id": "XMohBxkf-KSZ52DZsvKxKbEY9G0=", "properties": {"@spider": "usps_collection_boxes", "addr:city": "PRIMGHAR", "addr:country": "US", "addr:full": "280 S GREEN AVE", "addr:postcode": "51245", "addr:state": "IA", "amenity": "post_box", "brand": "United States Postal Service", "brand:wikidata": "Q668687", "collection_times": "Mo-Fr 16:15; Sa 09:45", "name": "USPS COLLECTION BOX - PO LOBBY", "note": "ON 12/24 AND 12/31, THIS BOX MAY BE COLLECTED AS EARLY AS 12 NOON.", "nsi_id": "unitedstatespostalservice-a77078", "operator": "United States Postal Service", "operator:short": "USPS", "operator:type": "public", "operator:wikidata": "Q668687", "ref": "5124500003"}, "type": "Feature"}
{"dataset_attributes": {"@spider": "usps_collection_boxes", "spider:collection_time": "2023-10-01T08:22:44.298171"}, "geometry": {"coordinates": [-96.167591749, 43.433003504], "type": "Point"}, "id": "9uBnZSjQIvslRlFbWD8QUSyCwQ0=", "properties": {"@spider": "usps_collection_boxes", "addr:city": "ROCK RAPIDS", "addr:country": "US", "addr:full": "217 N 2ND AVE", "addr:postcode": "51246", "addr:state": "IA", "amenity": "post_box", "brand": "United States Postal Service", "brand:wikidata": "Q668687", "collection_times": "Mo-Sa 16:30", "name": "USPS COLLECTION BOX - BLUE BOX", "note": "ON 12/24 AND 12/31, THIS BOX MAY BE COLLECTED AS EARLY AS 12 NOON.", "nsi_id": "unitedstatespostalservice-a77078", "operator": "United States Postal Service", "operator:short": "USPS", "operator:type": "public", "operator:wikidata": "Q668687", "ref": "5124600000"}, "type": "Feature"}
{"dataset_attributes": {"@spider": "usps_collection_boxes", "spider:collection_time": "2023-10-01T08:22:44.298171"}, "geometry": {"coordinates": [-96.167591749, 43.433003504], "type": "Point"}, "id": "TL5liXGyv_As45ht1lEcXdHEabI=", "properties": {"@spider": "usps_collection_boxes", "addr:city": "ROCK RAPIDS", "addr:country": "US", "addr:full": "217 N 2ND AVE", "addr:postcode": "51246", "addr:state": "IA", "amenity": "post_box", "brand": "United States Postal Service", "brand:wikidata": "Q668687", "collection_times": "Mo-Sa 16:30", "name": "USPS COLLECTION BOX - BLUE BOX", "note": "ON 12/24 AND 12/31, THIS BOX MAY BE COLLECTED AS EARLY AS 12 NOON.", "nsi_id": "unitedstatespostalservice-a77078", "operator": "United States Postal Service", "operator:short": "USPS", "operator:type": "public", "operator:wikidata": "Q668687", "ref": "5124600004"}, "type": "Feature"}
{"dataset_attributes": {"@spider": "usps_collection_boxes", "spider:collection_time": "2023-10-01T08:22:44.298171"}, "geometry": {"coordinates": [-96.167591749, 43.433003504], "type": "Point"}, "id": "bsBAQe8K7YJELyVY6htusP_oC7o=", "properties": {"@spider": "usps_collection_boxes", "addr:city": "ROCK RAPIDS", "addr:country": "US", "addr:full": "217 N 2ND AVE", "addr:postcode": "51246", "addr:state": "IA", "amenity": "post_box", "brand": "United States Postal Service", "brand:wikidata": "Q668687", "collection_times": "Mo-Fr 16:30; Sa 10:00", "name": "USPS COLLECTION BOX - PO LOBBY", "note": "ON 12/24 AND 12/31, THIS BOX MAY BE COLLECTED AS EARLY AS 12 NOON.", "nsi_id": "unitedstatespostalservice-a77078", "operator": "United States Postal Service", "operator:short": "USPS", "operator:type": "public", "operator:wikidata": "Q668687", "ref": "5124600005"}, "type": "Feature"}
{"dataset_attributes": {"@spider": "usps_collection_boxes", "spider:collection_time": "2023-10-01T08:22:44.298171"}, "geometry": {"coordinates": [-96.167591749, 43.433003504], "type": "Point"}, "id": "4FR7tw2p5kpOcSkU3BS9JLjOb9w=", "properties": {"@spider": "usps_collection_boxes", "addr:city": "ROCK RAPIDS", "addr:country": "US", "addr:full": "217 N 2ND AVE", "addr:postcode": "51246", "addr:state": "IA", "amenity": "post_box", "brand": "United States Postal Service", "brand:wikidata": "Q668687", "collection_times": "Mo-Fr 16:30; Sa 10:00", "name": "USPS COLLECTION BOX - PO LOBBY", "note": "ON 12/24 AND 12/31, THIS BOX MAY BE COLLECTED AS EARLY AS 12 NOON.", "nsi_id": "unitedstatespostalservice-a77078", "operator": "United States Postal Service", "operator:short": "USPS", "operator:type": "public", "operator:wikidata": "Q668687", "ref": "5124600006"}, "type": "Feature"}
{"dataset_attributes": {"@spider": "usps_collection_boxes", "spider:collection_time": "2023-10-01T08:22:44.298171"}, "geometry": {"coordinates": [-96.294970694, 43.2054], "type": "Point"}, "id": "4-aoEQyt_tHH5AC6vdV4G2MzQw8=", "properties": {"@spider": "usps_collection_boxes", "addr:city": "ROCK VALLEY", "addr:country": "US", "addr:full": "1501 MAIN ST", "addr:postcode": "51247", "addr:state": "IA", "amenity": "post_box", "brand": "United States Postal Service", "brand:wikidata": "Q668687", "collection_times": "Mo-Sa 16:30", "name": "USPS COLLECTION BOX - BLUE BOX", "note": "ON 12/24 AND 12/31, THIS BOX MAY BE COLLECTED AS EARLY AS 12 NOON.", "nsi_id": "unitedstatespostalservice-a77078", "operator": "United States Postal Service", "operator:short": "USPS", "operator:type": "public", "operator:wikidata": "Q668687", "ref": "5124700000"}, "type": "Feature"}
{"dataset_attributes": {"@spider": "usps_collection_boxes", "spider:collection_time": "2023-10-01T08:22:44.298171"}, "geometry": {"coordinates": [-96.294970694, 43.2054], "type": "Point"}, "id": "m6D4fsKVtkvdlyZZpMh-jbLpI64=", "properties": {"@spider": "usps_collection_boxes", "addr:city": "ROCK VALLEY", "addr:country": "US", "addr:full": "1501 MAIN ST", "addr:postcode": "51247", "addr:state": "IA", "amenity": "post_box", "brand": "United States Postal Service", "brand:wikidata": "Q668687", "collection_times": "Mo-Sa 16:30", "name": "USPS COLLECTION BOX - BLUE BOX", "note": "ON 12/24 AND 12/31, THIS BOX MAY BE COLLECTED AS EARLY AS 12 NOON.", "nsi_id": "unitedstatespostalservice-a77078", "operator": "United States Postal Service", "operator:short": "USPS", "operator:type": "public", "operator:wikidata": "Q668687", "ref": "5124700001"}, "type": "Feature"}
{"dataset_attributes": {"@spider": "usps_collection_boxes", "spider:collection_time": "2023-10-01T08:22:44.298171"}, "geometry": {"coordinates": [-96.294970694, 43.2054], "type": "Point"}, "id": "BV9QQbQ4pEHqrrJBQns1How_fxg=", "properties": {"@spider": "usps_collection_boxes", "addr:city": "ROCK VALLEY", "addr:country": "US", "addr:full": "1501 MAIN ST", "addr:postcode": "51247", "addr:state": "IA", "amenity": "post_box", "brand": "United States Postal Service", "brand:wikidata": "Q668687", "collection_times": "Mo-Fr 16:30", "name": "USPS COLLECTION BOX - PO LOBBY", "note": "ON 12/24 AND 12/31, THIS BOX MAY BE COLLECTED AS EARLY AS 12 NOON.", "nsi_id": "unitedstatespostalservice-a77078", "operator": "United States Postal Service", "operator:short": "USPS", "operator:type": "public", "operator:wikidata": "Q668687", "ref": "5124700002"}, "type": "Feature"}
{"dataset_attributes": {"@spider": "usps_collection_boxes", "spider:collection_time": "2023-10-01T08:22:44.298171"}, "geometry": {"coordinates": [-96.294970694, 43.2054], "type": "Point"}, "id": "I95L0pjotHI1zjvXtZe9t30Mtuc=", "properties": {"@spider": "usps_collection_boxes", "addr:city": "ROCK VALLEY", "addr:country": "US", "addr:full": "1501 MAIN ST", "addr:postcode": "51247", "addr:state": "IA", "amenity": "post_box", "brand": "United States Postal Service", "brand:wikidata": "Q668687", "collection_times": "Mo-Fr 16:30; Sa 10:00", "name": "USPS COLLECTION BOX - PO LOBBY", "note": "ON 12/24 AND 12/31, THIS BOX MAY BE COLLECTED AS EARLY AS 12 NOON.", "nsi_id": "unitedstatespostalservice-a77078", "operator": "United States Postal Service", "operator:short": "USPS", "operator:type": "public", "operator:wikidata": "Q668687", "ref": "5124700005"}, "type": "Feature"}
{"dataset_attributes": {"@spider": "usps_collection_boxes", "spider:collection_time": "2023-10-01T08:22:44.298171"}, "geometry": {"coordinates": [-95.655706154, 43.18272195], "type": "Point"}, "id": "mEn7I4p6kgRsJlzmjMpbOSy7-2o=", "properties": {"@spider": "usps_collection_boxes", "addr:city": "SANBORN", "addr:country": "US", "addr:full": "312 MAIN ST", "addr:postcode": "51248", "addr:state": "IA", "amenity": "post_box", "brand": "United States Postal Service", "brand:wikidata": "Q668687", "collection_times": "Mo-Sa 16:30", "name": "USPS COLLECTION BOX - BLUE BOX", "note": "ON 12/24 AND 12/31, THIS BOX MAY BE COLLECTED AS EARLY AS 12 NOON.", "nsi_id": "unitedstatespostalservice-a77078", "operator": "United States Postal Service", "operator:short": "USPS", "operator:type": "public", "operator:wikidata": "Q668687", "ref": "5124800001"}, "type": "Feature"}
{"dataset_attributes": {"@spider": "usps_collection_boxes", "spider:collection_time": "2023-10-01T08:22:44.298171"}, "geometry": {"coordinates": [-95.655706154, 43.18272195], "type": "Point"}, "id": "fJx9CYpxF32_Qu4_A5AEYnk5s3o=", "properties": {"@spider": "usps_collection_boxes", "addr:city": "SANBORN", "addr:country": "US", "addr:full": "312 MAIN ST", "addr:postcode": "51248", "addr:state": "IA", "amenity": "post_box", "brand": "United States Postal Service", "brand:wikidata": "Q668687", "collection_times": "Mo-Fr 16:30", "name": "USPS COLLECTION BOX - PO LOBBY", "note": "ON 12/24 AND 12/31, THIS BOX MAY BE COLLECTED AS EARLY AS 12 NOON.", "nsi_id": "unitedstatespostalservice-a77078", "operator": "United States Postal Service", "operator:short": "USPS", "operator:type": "public", "operator:wikidata": "Q668687", "ref": "5124800002"}, "type": "Feature"}
{"dataset_attributes": {"@spider": "usps_collection_boxes", "spider:collection_time": "2023-10-01T08:22:44.298171"}, "geometry": {"coordinates": [-95.655706154, 43.18272195], "type": "Point"}, "id": "uLTGDZ45dazdZY0J7muQV5yRH1k=", "properties": {"@spider": "usps_collection_boxes", "addr:city": "SANBORN", "addr:country": "US", "addr:full": "312 MAIN ST", "addr:postcode": "51248", "addr:state": "IA", "amenity": "post_box", "brand": "United States Postal Service", "brand:wikidata": "Q668687", "collection_times": "Mo-Fr 16:30; Sa 10:00", "name": "USPS COLLECTION BOX - PO LOBBY", "note": "ON 12/24 AND 12/31, THIS BOX MAY BE COLLECTED AS EARLY AS 12 NOON.", "nsi_id": "unitedstatespostalservice-a77078", "operator": "United States Postal Service", "operator:short": "USPS", "operator:type": "public", "operator:wikidata": "Q668687", "ref": "5124800003"}, "type": "Feature"}
{"dataset_attributes": {"@spider": "usps_collection_boxes", "spider:collection_time": "2023-10-01T08:22:44.298171"}, "geometry": {"coordinates": [-95.748890496, 43.399189486], "type": "Point"}, "id": "vtnu154m7mrbo75fBbZnlPENFmo=", "properties": {"@spider": "usps_collection_boxes", "addr:city": "SIBLEY", "addr:country": "US", "addr:full": "412 9TH ST", "addr:postcode": "51249", "addr:state": "IA", "amenity": "post_box", "brand": "United States Postal Service", "brand:wikidata": "Q668687", "collection_times": "Mo-Sa 16:30", "name": "USPS COLLECTION BOX - BLUE BOX", "note": "ON 12/24 AND 12/31, THIS BOX MAY BE COLLECTED AS EARLY AS 12 NOON.", "nsi_id": "unitedstatespostalservice-a77078", "operator": "United States Postal Service", "operator:short": "USPS", "operator:type": "public", "operator:wikidata": "Q668687", "ref": "5124900004"}, "type": "Feature"}
{"dataset_attributes": {"@spider": "usps_collection_boxes", "spider:collection_time": "2023-10-01T08:22:44.298171"}, "geometry": {"coordinates": [-95.748890496, 43.399189486], "type": "Point"}, "id": "1q-mWcA-t6RhiEPsasI8q9ZpkBk=", "properties": {"@spider": "usps_collection_boxes", "addr:city": "SIBLEY", "addr:country": "US", "addr:full": "412 9TH ST", "addr:postcode": "51249", "addr:state": "IA", "amenity": "post_box", "brand": "United States Postal Service", "brand:wikidata": "Q668687", "collection_times": "Mo-Sa 16:30", "name": "USPS COLLECTION BOX - BLUE BOX", "note": "ON 12/24 AND 12/31, THIS BOX MAY BE COLLECTED AS EARLY AS 12 NOON.", "nsi_id": "unitedstatespostalservice-a77078", "operator": "United States Postal Service", "operator:short": "USPS", "operator:type": "public", "operator:wikidata": "Q668687", "ref": "5124900005"}, "type": "Feature"}
{"dataset_attributes": {"@spider": "usps_collection_boxes", "spider:collection_time": "2023-10-01T08:22:44.298171"}, "geometry": {"coordinates": [-95.748890496, 43.399189486], "type": "Point"}, "id": "hpNk-nTOS2zGbno9phEFBOIuNk0=", "properties": {"@spider": "usps_collection_boxes", "addr:city": "SIBLEY", "addr:country": "US", "addr:full": "412 9TH ST", "addr:postcode": "51249", "addr:state": "IA", "amenity": "post_box", "brand": "United States Postal Service", "brand:wikidata": "Q668687", "collection_times": "Mo-Fr 16:45; Sa 09:45", "name": "USPS COLLECTION BOX - PO LOBBY", "note": "ON 12/24 AND 12/31, THIS BOX MAY BE COLLECTED AS EARLY AS 12 NOON.", "nsi_id": "unitedstatespostalservice-a77078", "operator": "United States Postal Service", "operator:short": "USPS", "operator:type": "public", "operator:wikidata": "Q668687", "ref": "5124900007"}, "type": "Feature"}
{"dataset_attributes": {"@spider": "usps_collection_boxes", "spider:collection_time": "2023-10-01T08:22:44.298171"}, "geometry": {"coordinates": [-95.748890496, 43.399189486], "type": "Point"}, "id": "OTfkzChSriK9C4Ta2JVfyeaT1Qc=", "properties": {"@spider": "usps_collection_boxes", "addr:city": "SIBLEY", "addr:country": "US", "addr:full": "412 9TH ST", "addr:postcode": "51249", "addr:state": "IA", "amenity": "post_box", "brand": "United States Postal Service", "brand:wikidata": "Q668687", "collection_times": "Mo-Fr 16:30; Sa 09:30", "name": "USPS COLLECTION BOX - PO LOBBY", "note": "ON 12/24 AND 12/31, THIS BOX MAY BE COLLECTED AS EARLY AS 12 NOON.", "nsi_id": "unitedstatespostalservice-a77078", "operator": "United States Postal Service", "operator:short": "USPS", "operator:type": "public", "operator:wikidata": "Q668687", "ref": "5124900008"}, "type": "Feature"}
{"dataset_attributes": {"@spider": "usps_collection_boxes", "spider:collection_time": "2023-10-01T08:22:44.298171"}, "geometry": {"coordinates": [-96.175350625, 43.056162555], "type": "Point"}, "id": "xr9IEFaIdBWhF405ic_mZ8vmznY=", "properties": {"@spider": "usps_collection_boxes", "addr:city": "SIOUX CENTER", "addr:country": "US", "addr:full": "1951 S MAIN AVE", "addr:postcode": "51250", "addr:state": "IA", "amenity": "post_box", "brand": "United States Postal Service", "brand:wikidata": "Q668687", "collection_times": "Mo-Sa 12:00", "name": "USPS COLLECTION BOX - BLUE BOX", "nsi_id": "unitedstatespostalservice-a77078", "operator": "United States Postal Service", "operator:short": "USPS", "operator:type": "public", "operator:wikidata": "Q668687", "ref": "5125000001"}, "type": "Feature"}
{"dataset_attributes": {"@spider": "usps_collection_boxes", "spider:collection_time": "2023-10-01T08:22:44.298171"}, "geometry": {"coordinates": [-96.175444903, 43.077536057], "type": "Point"}, "id": "hiT6rGiyauwCtX-8aT_CNCZE5g8=", "properties": {"@spider": "usps_collection_boxes", "addr:city": "SIOUX CENTER", "addr:country": "US", "addr:full": "100 N MAIN AVE", "addr:postcode": "51250", "addr:state": "IA", "amenity": "post_box", "brand": "United States Postal Service", "brand:wikidata": "Q668687", "collection_times": "Mo-Sa 16:30", "name": "USPS COLLECTION BOX - BLUE BOX", "note": "ON 12/24 AND 12/31, THIS BOX MAY BE COLLECTED AS EARLY AS 12 NOON.", "nsi_id": "unitedstatespostalservice-a77078", "operator": "United States Postal Service", "operator:short": "USPS", "operator:type": "public", "operator:wikidata": "Q668687", "ref": "5125000005"}, "type": "Feature"}
{"dataset_attributes": {"@spider": "usps_collection_boxes", "spider:collection_time": "2023-10-01T08:22:44.298171"}, "geometry": {"coordinates": [-96.175444903, 43.077536057], "type": "Point"}, "id": "YieugXLVOXyg9VlPizcj0AvtAZw=", "properties": {"@spider": "usps_collection_boxes", "addr:city": "SIOUX CENTER", "addr:country": "US", "addr:full": "100 N MAIN AVE", "addr:postcode": "51250", "addr:state": "IA", "amenity": "post_box", "brand": "United States Postal Service", "brand:wikidata": "Q668687", "collection_times": "Mo-Sa 16:30", "name": "USPS COLLECTION BOX - BLUE BOX", "note": "ON 12/24 AND 12/31, THIS BOX MAY BE COLLECTED AS EARLY AS 12 NOON.", "nsi_id": "unitedstatespostalservice-a77078", "operator": "United States Postal Service", "operator:short": "USPS", "operator:type": "public", "operator:wikidata": "Q668687", "ref": "5125000006"}, "type": "Feature"}
{"dataset_attributes": {"@spider": "usps_collection_boxes", "spider:collection_time": "2023-10-01T08:22:44.298171"}, "geometry": {"coordinates": [-96.175444903, 43.077536057], "type": "Point"}, "id": "WRPDui4CLuorDRQ_nW3DMbS5Mg0=", "properties": {"@spider": "usps_collection_boxes", "addr:city": "SIOUX CENTER", "addr:country": "US", "addr:full": "100 N MAIN AVE", "addr:postcode": "51250", "addr:state": "IA", "amenity": "post_box", "brand": "United States Postal Service", "brand:wikidata": "Q668687", "collection_times": "Mo-Sa 16:30", "name": "USPS COLLECTION BOX - BLUE BOX", "note": "ON 12/24 AND 12/31, THIS BOX MAY BE COLLECTED AS EARLY AS 12 NOON.", "nsi_id": "unitedstatespostalservice-a77078", "operator": "United States Postal Service", "operator:short": "USPS", "operator:type": "public", "operator:wikidata": "Q668687", "ref": "5125000007"}, "type": "Feature"}
{"dataset_attributes": {"@spider": "usps_collection_boxes", "spider:collection_time": "2023-10-01T08:22:44.298171"}, "geometry": {"coordinates": [-96.175444903, 43.077536057], "type": "Point"}, "id": "7YlE4mn9q5-gskEUyu5N3xa2h3k=", "properties": {"@spider": "usps_collection_boxes", "addr:city": "SIOUX CENTER", "addr:country": "US", "addr:full": "100 N MAIN AVE", "addr:postcode": "51250", "addr:state": "IA", "amenity": "post_box", "brand": "United States Postal Service", "brand:wikidata": "Q668687", "collection_times": "Mo-Fr 16:30; Sa 11:00", "name": "USPS COLLECTION BOX - PO LOBBY", "note": "ON 12/24 AND 12/31, THIS BOX MAY BE COLLECTED AS EARLY AS 12 NOON.", "nsi_id": "unitedstatespostalservice-a77078", "operator": "United States Postal Service", "operator:short": "USPS", "operator:type": "public", "operator:wikidata": "Q668687", "ref": "5125000008"}, "type": "Feature"}
{"dataset_attributes": {"@spider": "usps_collection_boxes", "spider:collection_time": "2023-10-01T08:22:44.298171"}, "geometry": {"coordinates": [-96.175444903, 43.077536057], "type": "Point"}, "id": "ckpZInP-2CgqZaZSM22ioR6rGyg=", "properties": {"@spider": "usps_collection_boxes", "addr:city": "SIOUX CENTER", "addr:country": "US", "addr:full": "100 N MAIN AVE", "addr:postcode": "51250", "addr:state": "IA", "amenity": "post_box", "brand": "United States Postal Service", "brand:wikidata": "Q668687", "collection_times": "Mo-Fr 16:30; Sa 10:30", "name": "USPS COLLECTION BOX - PO LOBBY", "note": "ON 12/24 AND 12/31, THIS BOX MAY BE COLLECTED AS EARLY AS 12 NOON.", "nsi_id": "unitedstatespostalservice-a77078", "operator": "United States Postal Service", "operator:short": "USPS", "operator:type": "public", "operator:wikidata": "Q668687", "ref": "5125000009"}, "type": "Feature"}
