{"geometry": {"coordinates": [-95.149658892, 43.141117488], "type": "Point"}, "id": "64bDykt0YbY2HvWQDv5BMJpXgmo=", "properties": {"@source_uri": "https://tools.usps.com/UspsToolsRestServices/rest/POLocator/findLocations", "@spider": "usps_collection_boxes", "addr:city": "SPENCER", "addr:country": "US", "addr:postcode": "51301", "addr:state": "IA", "addr:street_address": "300 W 4TH ST", "amenity": "post_box", "collection_times": "Mo-Fr 14:30", "note": "ON 12/24 AND 12/31, THIS BOX MAY BE COLLECTED AS EARLY AS 12 NOON.", "nsi_id": "unitedstatespostalservice-a77078", "operator": "United States Postal Service", "operator:short": "USPS", "operator:type": "public", "operator:wikidata": "Q668687", "ref": "5130100000"}, "type": "Feature"}
{"geometry": {"coordinates": [-95.146873973, 43.141280446], "type": "Point"}, "id": "ujHE0yI-61WjeP_Sy5eCk86qdJ8=", "properties": {"@source_uri": "https://tools.usps.com/UspsToolsRestServices/rest/POLocator/findLocations", "@spider": "usps_collection_boxes", "addr:city": "SPENCER", "addr:country": "US", "addr:postcode": "51301", "addr:state": "IA", "addr:street_address": "125 W 4TH ST", "amenity": "post_box", "collection_times": "Mo-Fr 14:30", "note": "ON 12/24 AND 12/31, THIS BOX MAY BE COLLECTED AS EARLY AS 12 NOON.", "nsi_id": "unitedstatespostalservice-a77078", "operator": "United States Postal Service", "operator:short": "USPS", "operator:type": "public", "operator:wikidata": "Q668687", "ref": "5130100002"}, "type": "Feature"}
{"geometry": {"coordinates": [-95.1438135384, 43.1498845462], "type": "Point"}, "id": "p4uKi5ozWC-cCSmoIMtLnNU0ksY=", "properties": {"@source_uri": "https://tools.usps.com/UspsToolsRestServices/rest/POLocator/findLocations", "@spider": "usps_collection_boxes", "addr:city": "SPENCER", "addr:country": "US", "addr:postcode": "51301", "addr:state": "IA", "addr:street_address": "1200 1ST AVE E", "amenity": "post_box", "collection_times": "Mo-Fr 14:00", "note": "ON 12/24 AND 12/31, THIS BOX MAY BE COLLECTED AS EARLY AS 12 NOON.", "nsi_id": "unitedstatespostalservice-a77078", "operator": "United States Postal Service", "operator:short": "USPS", "operator:type": "public", "operator:wikidata": "Q668687", "ref": "5130100004"}, "type": "Feature"}
{"geometry": {"coordinates": [-95.144920638, 43.155774509], "type": "Point"}, "id": "MqIoXTplj11pkJH1lqeZ02X16eg=", "properties": {"@source_uri": "https://tools.usps.com/UspsToolsRestServices/rest/POLocator/findLocations", "@spider": "usps_collection_boxes", "addr:city": "SPENCER", "addr:country": "US", "addr:postcode": "51301", "addr:state": "IA", "addr:street_address": "11 E 18TH ST", "amenity": "post_box", "collection_times": "Mo-Sa 18:00", "note": "ON 12/24 AND 12/31, THIS BOX MAY BE COLLECTED AS EARLY AS 12 NOON.", "nsi_id": "unitedstatespostalservice-a77078", "operator": "United States Postal Service", "operator:short": "USPS", "operator:type": "public", "operator:wikidata": "Q668687", "ref": "5130100008"}, "type": "Feature"}
{"geometry": {"coordinates": [-95.144789936, 43.142543267], "type": "Point"}, "id": "eMuZz9UlckPp3FlcBrtRE7pitF4=", "properties": {"@source_uri": "https://tools.usps.com/UspsToolsRestServices/rest/POLocator/findLocations", "@spider": "usps_collection_boxes", "addr:city": "SPENCER", "addr:country": "US", "addr:postcode": "51301", "addr:state": "IA", "addr:street_address": "501 GRAND AVE", "amenity": "post_box", "collection_times": "Mo-Fr 14:30", "note": "ON 12/24 AND 12/31, THIS BOX MAY BE COLLECTED AS EARLY AS 12 NOON.", "nsi_id": "unitedstatespostalservice-a77078", "operator": "United States Postal Service", "operator:short": "USPS", "operator:type": "public", "operator:wikidata": "Q668687", "ref": "5130100017"}, "type": "Feature"}
{"geometry": {"coordinates": [-95.14449252, 43.139350478], "type": "Point"}, "id": "xNTutv4kzirWgrl0Nalf2EV6Fws=", "properties": {"@source_uri": "https://tools.usps.com/UspsToolsRestServices/rest/POLocator/findLocations", "@spider": "usps_collection_boxes", "addr:city": "SPENCER", "addr:country": "US", "addr:postcode": "51301", "addr:state": "IA", "addr:street_address": "126 GRAND AVE", "amenity": "post_box", "collection_times": "Mo-Fr 14:30", "note": "ON 12/24 AND 12/31, THIS BOX MAY BE COLLECTED AS EARLY AS 12 NOON.", "nsi_id": "unitedstatespostalservice-a77078", "operator": "United States Postal Service", "operator:short": "USPS", "operator:type": "public", "operator:wikidata": "Q668687", "ref": "5130100018"}, "type": "Feature"}
{"geometry": {"coordinates": [-95.144920638, 43.155774509], "type": "Point"}, "id": "FCBeT76a6rv4BFuNJBLZ2ELuB6A=", "properties": {"@source_uri": "https://tools.usps.com/UspsToolsRestServices/rest/POLocator/findLocations", "@spider": "usps_collection_boxes", "addr:city": "SPENCER", "addr:country": "US", "addr:postcode": "51301", "addr:state": "IA", "addr:street_address": "11 E 18TH ST", "amenity": "post_box", "collection_times": "Mo-Sa 18:00", "indoor": "yes", "note": "ON 12/24 AND 12/31, THIS BOX MAY BE COLLECTED AS EARLY AS 12 NOON.", "nsi_id": "unitedstatespostalservice-a77078", "operator": "United States Postal Service", "operator:short": "USPS", "operator:type": "public", "operator:wikidata": "Q668687", "ref": "5130100019"}, "type": "Feature"}
{"geometry": {"coordinates": [-95.152484849, 43.126787482], "type": "Point"}, "id": "4LPvgWVveJ2p9fzl6AgNYlhu5tc=", "properties": {"@source_uri": "https://tools.usps.com/UspsToolsRestServices/rest/POLocator/findLocations", "@spider": "usps_collection_boxes", "addr:city": "SPENCER", "addr:country": "US", "addr:postcode": "51301", "addr:state": "IA", "addr:street_address": "500 11TH ST SW", "amenity": "post_box", "collection_times": "Mo-Fr 10:30", "nsi_id": "unitedstatespostalservice-a77078", "operator": "United States Postal Service", "operator:short": "USPS", "operator:type": "public", "operator:wikidata": "Q668687", "ref": "5130100020"}, "type": "Feature"}
{"geometry": {"coordinates": [-95.1455799933, 43.1270060051], "type": "Point"}, "id": "dsuNNUIx0rn8LIcEKKnapEihLbg=", "properties": {"@source_uri": "https://tools.usps.com/UspsToolsRestServices/rest/POLocator/findLocations", "@spider": "usps_collection_boxes", "addr:city": "SPENCER", "addr:country": "US", "addr:postcode": "51301", "addr:state": "IA", "addr:street_address": "1019 S GRAND AVE", "amenity": "post_box", "collection_times": "Mo-Sa 11:00", "nsi_id": "unitedstatespostalservice-a77078", "operator": "United States Postal Service", "operator:short": "USPS", "operator:type": "public", "operator:wikidata": "Q668687", "ref": "5130100021"}, "type": "Feature"}
{"geometry": {"coordinates": [-95.144920638, 43.155774509], "type": "Point"}, "id": "Z4VKjTAFTnkuLNWJAPfvE3-FIsY=", "properties": {"@source_uri": "https://tools.usps.com/UspsToolsRestServices/rest/POLocator/findLocations", "@spider": "usps_collection_boxes", "addr:city": "SPENCER", "addr:country": "US", "addr:postcode": "51301", "addr:state": "IA", "addr:street_address": "11 E 18TH ST", "amenity": "post_box", "collection_times": "Mo-Fr 17:00; Sa 11:30", "indoor": "yes", "note": "ON 12/24 AND 12/31, THIS BOX MAY BE COLLECTED AS EARLY AS 12 NOON.", "nsi_id": "unitedstatespostalservice-a77078", "operator": "United States Postal Service", "operator:short": "USPS", "operator:type": "public", "operator:wikidata": "Q668687", "ref": "5130100022"}, "type": "Feature"}
{"geometry": {"coordinates": [-95.127508693, 43.368807227], "type": "Point"}, "id": "HvDfcxKUryYU_9ruFYbu-_cAceQ=", "properties": {"@source_uri": "https://tools.usps.com/UspsToolsRestServices/rest/POLocator/findLocations", "@spider": "usps_collection_boxes", "addr:city": "ARNOLDS PARK", "addr:country": "US", "addr:postcode": "51331", "addr:state": "IA", "addr:street_address": "50 N OKOBOJI GROVE RD", "amenity": "post_box", "collection_times": "Mo-Fr 16:15; Sa 17:00", "note": "ON 12/24 AND 12/31, THIS BOX MAY BE COLLECTED AS EARLY AS 12 NOON.", "nsi_id": "unitedstatespostalservice-a77078", "operator": "United States Postal Service", "operator:short": "USPS", "operator:type": "public", "operator:wikidata": "Q668687", "ref": "5133100000"}, "type": "Feature"}
{"geometry": {"coordinates": [-95.127508693, 43.368807227], "type": "Point"}, "id": "NGuwm575evP4MJCo7RuNyigYR7Q=", "properties": {"@source_uri": "https://tools.usps.com/UspsToolsRestServices/rest/POLocator/findLocations", "@spider": "usps_collection_boxes", "addr:city": "ARNOLDS PARK", "addr:country": "US", "addr:postcode": "51331", "addr:state": "IA", "addr:street_address": "50 N OKOBOJI GROVE RD", "amenity": "post_box", "collection_times": "Mo-Fr 16:30; Sa 09:30", "indoor": "yes", "note": "ON 12/24 AND 12/31, THIS BOX MAY BE COLLECTED AS EARLY AS 12 NOON.", "nsi_id": "unitedstatespostalservice-a77078", "operator": "United States Postal Service", "operator:short": "USPS", "operator:type": "public", "operator:wikidata": "Q668687", "ref": "5133100001"}, "type": "Feature"}
{"geometry": {"coordinates": [-95.127508693, 43.368807227], "type": "Point"}, "id": "M9vA1XP21LAXxAcpkpUUCFJh2h4=", "properties": {"@source_uri": "https://tools.usps.com/UspsToolsRestServices/rest/POLocator/findLocations", "@spider": "usps_collection_boxes", "addr:city": "ARNOLDS PARK", "addr:country": "US", "addr:postcode": "51331", "addr:state": "IA", "addr:street_address": "50 N OKOBOJI GROVE RD", "amenity": "post_box", "collection_times": "Mo-Fr 16:30; Sa 09:30", "indoor": "yes", "note": "ON 12/24 AND 12/31, THIS BOX MAY BE COLLECTED AS EARLY AS 12 NOON.", "nsi_id": "unitedstatespostalservice-a77078", "operator": "United States Postal Service", "operator:short": "USPS", "operator:type": "public", "operator:wikidata": "Q668687", "ref": "5133100003"}, "type": "Feature"}
{"geometry": {"coordinates": [-95.023602168, 43.132346475], "type": "Point"}, "id": "e8X8v_89KPqBYDf7VzxTAPBitIw=", "properties": {"@source_uri": "https://tools.usps.com/UspsToolsRestServices/rest/POLocator/findLocations", "@spider": "usps_collection_boxes", "addr:city": "DICKENS", "addr:country": "US", "addr:postcode": "51333", "addr:state": "IA", "addr:street_address": "201 2ND ST", "amenity": "post_box", "collection_times": "Mo-Fr 16:15; Sa 17:30", "note": "ON 12/24 AND 12/31, THIS BOX MAY BE COLLECTED AS EARLY AS 12 NOON.", "nsi_id": "unitedstatespostalservice-a77078", "operator": "United States Postal Service", "operator:short": "USPS", "operator:type": "public", "operator:wikidata": "Q668687", "ref": "5133300000"}, "type": "Feature"}
{"geometry": {"coordinates": [-95.023602168, 43.132346475], "type": "Point"}, "id": "fZvvipDJ-_RRugM-S9vdVDBiwJw=", "properties": {"@source_uri": "https://tools.usps.com/UspsToolsRestServices/rest/POLocator/findLocations", "@spider": "usps_collection_boxes", "addr:city": "DICKENS", "addr:country": "US", "addr:postcode": "51333", "addr:state": "IA", "addr:street_address": "201 2ND ST", "amenity": "post_box", "collection_times": "Mo-Fr 11:45", "indoor": "yes", "nsi_id": "unitedstatespostalservice-a77078", "operator": "United States Postal Service", "operator:short": "USPS", "operator:type": "public", "operator:wikidata": "Q668687", "ref": "5133300001"}, "type": "Feature"}
{"geometry": {"coordinates": [-95.023602168, 43.132346475], "type": "Point"}, "id": "1xyLFa87GnCvBbgspwAWFAOqTo0=", "properties": {"@source_uri": "https://tools.usps.com/UspsToolsRestServices/rest/POLocator/findLocations", "@spider": "usps_collection_boxes", "addr:city": "DICKENS", "addr:country": "US", "addr:postcode": "51333", "addr:state": "IA", "addr:street_address": "201 2ND ST", "amenity": "post_box", "collection_times": "Mo-Fr 12:00; Sa 09:15", "indoor": "yes", "nsi_id": "unitedstatespostalservice-a77078", "operator": "United States Postal Service", "operator:short": "USPS", "operator:type": "public", "operator:wikidata": "Q668687", "ref": "5133300002"}, "type": "Feature"}
{"geometry": {"coordinates": [-94.830396005, 43.402103938], "type": "Point"}, "id": "E0k5hYz9SG2NahMa5GKY7D1S3bg=", "properties": {"@source_uri": "https://tools.usps.com/UspsToolsRestServices/rest/POLocator/findLocations", "@spider": "usps_collection_boxes", "addr:city": "ESTHERVILLE", "addr:country": "US", "addr:postcode": "51334", "addr:state": "IA", "addr:street_address": "1101 CENTRAL AVE", "amenity": "post_box", "collection_times": "Mo-Sa 11:00", "nsi_id": "unitedstatespostalservice-a77078", "operator": "United States Postal Service", "operator:short": "USPS", "operator:type": "public", "operator:wikidata": "Q668687", "ref": "5133400001"}, "type": "Feature"}
{"geometry": {"coordinates": [-94.836730099, 43.403111267], "type": "Point"}, "id": "iT1L2KmuC3hZffgkJvjyLs46ot0=", "properties": {"@source_uri": "https://tools.usps.com/UspsToolsRestServices/rest/POLocator/findLocations", "@spider": "usps_collection_boxes", "addr:city": "ESTHERVILLE", "addr:country": "US", "addr:postcode": "51334", "addr:state": "IA", "addr:street_address": "101 N 6TH ST", "amenity": "post_box", "collection_times": "Mo-Sa 12:00", "nsi_id": "unitedstatespostalservice-a77078", "operator": "United States Postal Service", "operator:short": "USPS", "operator:type": "public", "operator:wikidata": "Q668687", "ref": "5133400002"}, "type": "Feature"}
{"geometry": {"coordinates": [-94.836627291, 43.403966344], "type": "Point"}, "id": "t7yS05pHIr5JDW2rBk-lrUHLwBI=", "properties": {"@source_uri": "https://tools.usps.com/UspsToolsRestServices/rest/POLocator/findLocations", "@spider": "usps_collection_boxes", "addr:city": "ESTHERVILLE", "addr:country": "US", "addr:postcode": "51334", "addr:state": "IA", "addr:street_address": "605 2ND AVE N", "amenity": "post_box", "collection_times": "Mo-Sa 16:30", "note": "ON 12/24 AND 12/31, THIS BOX MAY BE COLLECTED AS EARLY AS 12 NOON.", "nsi_id": "unitedstatespostalservice-a77078", "operator": "United States Postal Service", "operator:short": "USPS", "operator:type": "public", "operator:wikidata": "Q668687", "ref": "5133400003"}, "type": "Feature"}
{"geometry": {"coordinates": [-94.836893055, 43.401920481], "type": "Point"}, "id": "u80sphrPPBO_tWGM-fhhcJC98OY=", "properties": {"@source_uri": "https://tools.usps.com/UspsToolsRestServices/rest/POLocator/findLocations", "@spider": "usps_collection_boxes", "addr:city": "ESTHERVILLE", "addr:country": "US", "addr:postcode": "51334", "addr:state": "IA", "addr:street_address": "522 CENTRAL AVE", "amenity": "post_box", "collection_times": "Mo-Sa 12:00", "nsi_id": "unitedstatespostalservice-a77078", "operator": "United States Postal Service", "operator:short": "USPS", "operator:type": "public", "operator:wikidata": "Q668687", "ref": "5133400005"}, "type": "Feature"}
{"geometry": {"coordinates": [-94.809200333, 43.399127791], "type": "Point"}, "id": "odvMApNRMXHUzcKX7Avbd_vuAY0=", "properties": {"@source_uri": "https://tools.usps.com/UspsToolsRestServices/rest/POLocator/findLocations", "@spider": "usps_collection_boxes", "addr:city": "ESTHERVILLE", "addr:country": "US", "addr:postcode": "51334", "addr:state": "IA", "addr:street_address": "2620 CENTRAL AVE", "amenity": "post_box", "collection_times": "Mo-Sa 11:00", "nsi_id": "unitedstatespostalservice-a77078", "operator": "United States Postal Service", "operator:short": "USPS", "operator:type": "public", "operator:wikidata": "Q668687", "ref": "5133400006"}, "type": "Feature"}
{"geometry": {"coordinates": [-94.836627291, 43.403966344], "type": "Point"}, "id": "9MQV_FUEBQ6MJ6dbSuyprXTzVJg=", "properties": {"@source_uri": "https://tools.usps.com/UspsToolsRestServices/rest/POLocator/findLocations", "@spider": "usps_collection_boxes", "addr:city": "ESTHERVILLE", "addr:country": "US", "addr:postcode": "51334", "addr:state": "IA", "addr:street_address": "605 2ND AVE N", "amenity": "post_box", "collection_times": "Mo-Sa 16:30", "indoor": "yes", "note": "ON 12/24 AND 12/31, THIS BOX MAY BE COLLECTED AS EARLY AS 12 NOON.", "nsi_id": "unitedstatespostalservice-a77078", "operator": "United States Postal Service", "operator:short": "USPS", "operator:type": "public", "operator:wikidata": "Q668687", "ref": "5133400008"}, "type": "Feature"}
{"geometry": {"coordinates": [-94.836627291, 43.403966344], "type": "Point"}, "id": "aobVJ9NlibR_QZBEXYSZ1mE9-KE=", "properties": {"@source_uri": "https://tools.usps.com/UspsToolsRestServices/rest/POLocator/findLocations", "@spider": "usps_collection_boxes", "addr:city": "ESTHERVILLE", "addr:country": "US", "addr:postcode": "51334", "addr:state": "IA", "addr:street_address": "605 2ND AVE N", "amenity": "post_box", "collection_times": "Mo-Fr 16:00; Sa 11:00", "indoor": "yes", "note": "ON 12/24 AND 12/31, THIS BOX MAY BE COLLECTED AS EARLY AS 12 NOON.", "nsi_id": "unitedstatespostalservice-a77078", "operator": "United States Postal Service", "operator:short": "USPS", "operator:type": "public", "operator:wikidata": "Q668687", "ref": "5133400011"}, "type": "Feature"}
{"geometry": {"coordinates": [-95.327226339, 43.159590335], "type": "Point"}, "id": "XCsvnzBSjowPOO5RTYbUoWt_rhk=", "properties": {"@source_uri": "https://tools.usps.com/UspsToolsRestServices/rest/POLocator/findLocations", "@spider": "usps_collection_boxes", "addr:city": "EVERLY", "addr:country": "US", "addr:postcode": "51338", "addr:state": "IA", "addr:street_address": "206 N MAIN ST", "amenity": "post_box", "collection_times": "Mo-Fr 16:00; Sa 17:00", "note": "ON 12/24 AND 12/31, THIS BOX MAY BE COLLECTED AS EARLY AS 12 NOON.", "nsi_id": "unitedstatespostalservice-a77078", "operator": "United States Postal Service", "operator:short": "USPS", "operator:type": "public", "operator:wikidata": "Q668687", "ref": "5133800000"}, "type": "Feature"}
{"geometry": {"coordinates": [-95.327226339, 43.159590335], "type": "Point"}, "id": "Noe9nD_mg6aaMoIX8u6ggjq1zFk=", "properties": {"@source_uri": "https://tools.usps.com/UspsToolsRestServices/rest/POLocator/findLocations", "@spider": "usps_collection_boxes", "addr:city": "EVERLY", "addr:country": "US", "addr:postcode": "51338", "addr:state": "IA", "addr:street_address": "206 N MAIN ST", "amenity": "post_box", "collection_times": "Mo-Fr 13:45; Sa 09:15", "indoor": "yes", "note": "ON 12/24 AND 12/31, THIS BOX MAY BE COLLECTED AS EARLY AS 12 NOON.", "nsi_id": "unitedstatespostalservice-a77078", "operator": "United States Postal Service", "operator:short": "USPS", "operator:type": "public", "operator:wikidata": "Q668687", "ref": "5133800001"}, "type": "Feature"}
{"geometry": {"coordinates": [-95.327226339, 43.159590335], "type": "Point"}, "id": "oElOV1UhWKhM0-gF3EDtBC-4iIk=", "properties": {"@source_uri": "https://tools.usps.com/UspsToolsRestServices/rest/POLocator/findLocations", "@spider": "usps_collection_boxes", "addr:city": "EVERLY", "addr:country": "US", "addr:postcode": "51338", "addr:state": "IA", "addr:street_address": "206 N MAIN ST", "amenity": "post_box", "collection_times": "Mo-Fr 14:00; Sa 09:30", "indoor": "yes", "note": "ON 12/24 AND 12/31, THIS BOX MAY BE COLLECTED AS EARLY AS 12 NOON.", "nsi_id": "unitedstatespostalservice-a77078", "operator": "United States Postal Service", "operator:short": "USPS", "operator:type": "public", "operator:wikidata": "Q668687", "ref": "5133800002"}, "type": "Feature"}
{"geometry": {"coordinates": [-95.1544733623, 43.2418705795], "type": "Point"}, "id": "Tz_1QKLhFnu2I9hsWQNN5X72VqA=", "properties": {"@source_uri": "https://tools.usps.com/UspsToolsRestServices/rest/POLocator/findLocations", "@spider": "usps_collection_boxes", "addr:city": "FOSTORIA", "addr:country": "US", "addr:postcode": "51340", "addr:state": "IA", "addr:street_address": "206 MAIN ST", "amenity": "post_box", "collection_times": "Mo-Sa 16:15", "note": "ON 12/24 AND 12/31, THIS BOX MAY BE COLLECTED AS EARLY AS 12 NOON.", "nsi_id": "unitedstatespostalservice-a77078", "operator": "United States Postal Service", "operator:short": "USPS", "operator:type": "public", "operator:wikidata": "Q668687", "ref": "5134000000"}, "type": "Feature"}
{"geometry": {"coordinates": [-95.1544733623, 43.2418705795], "type": "Point"}, "id": "vglUq72qCcNvUvImvOGEqRASGpw=", "properties": {"@source_uri": "https://tools.usps.com/UspsToolsRestServices/rest/POLocator/findLocations", "@spider": "usps_collection_boxes", "addr:city": "FOSTORIA", "addr:country": "US", "addr:postcode": "51340", "addr:state": "IA", "addr:street_address": "206 MAIN ST", "amenity": "post_box", "collection_times": "Mo-Fr 13:45", "indoor": "yes", "note": "ON 12/24 AND 12/31, THIS BOX MAY BE COLLECTED AS EARLY AS 12 NOON.", "nsi_id": "unitedstatespostalservice-a77078", "operator": "United States Postal Service", "operator:short": "USPS", "operator:type": "public", "operator:wikidata": "Q668687", "ref": "5134000001"}, "type": "Feature"}
{"geometry": {"coordinates": [-95.1544733623, 43.2418705795], "type": "Point"}, "id": "e4bYdXgPO8fn1aSxb3yAvuTGQ3w=", "properties": {"@source_uri": "https://tools.usps.com/UspsToolsRestServices/rest/POLocator/findLocations", "@spider": "usps_collection_boxes", "addr:city": "FOSTORIA", "addr:country": "US", "addr:postcode": "51340", "addr:state": "IA", "addr:street_address": "206 MAIN ST", "amenity": "post_box", "collection_times": "Mo-Fr 14:00; Sa 09:45", "indoor": "yes", "note": "ON 12/24 AND 12/31, THIS BOX MAY BE COLLECTED AS EARLY AS 12 NOON.", "nsi_id": "unitedstatespostalservice-a77078", "operator": "United States Postal Service", "operator:short": "USPS", "operator:type": "public", "operator:wikidata": "Q668687", "ref": "5134000002"}, "type": "Feature"}
{"geometry": {"coordinates": [-95.036713587, 43.013820181], "type": "Point"}, "id": "vIietMn_7XXvOSWVOrSDVEGCnYI=", "properties": {"@source_uri": "https://tools.usps.com/UspsToolsRestServices/rest/POLocator/findLocations", "@spider": "usps_collection_boxes", "addr:city": "GILLETT GROVE", "addr:country": "US", "addr:postcode": "51341", "addr:state": "IA", "addr:street_address": "211 RAILWAY ST", "amenity": "post_box", "collection_times": "Mo-Fr 16:15; Sa 15:30", "note": "ON 12/24 AND 12/31, THIS BOX MAY BE COLLECTED AS EARLY AS 12 NOON.", "nsi_id": "unitedstatespostalservice-a77078", "operator": "United States Postal Service", "operator:short": "USPS", "operator:type": "public", "operator:wikidata": "Q668687", "ref": "5134100000"}, "type": "Feature"}
{"geometry": {"coordinates": [-95.036713587, 43.013820181], "type": "Point"}, "id": "HqvPATdtmgpu59ShVJZtQ6Hc_U8=", "properties": {"@source_uri": "https://tools.usps.com/UspsToolsRestServices/rest/POLocator/findLocations", "@spider": "usps_collection_boxes", "addr:city": "GILLETT GROVE", "addr:country": "US", "addr:postcode": "51341", "addr:state": "IA", "addr:street_address": "211 RAILWAY ST", "amenity": "post_box", "collection_times": "Mo-Fr 09:45; Sa 09:30", "indoor": "yes", "nsi_id": "unitedstatespostalservice-a77078", "operator": "United States Postal Service", "operator:short": "USPS", "operator:type": "public", "operator:wikidata": "Q668687", "ref": "5134100001"}, "type": "Feature"}
{"geometry": {"coordinates": [-95.036713587, 43.013820181], "type": "Point"}, "id": "95hlw495mCq6MXTVvEVJW4hAf6Q=", "properties": {"@source_uri": "https://tools.usps.com/UspsToolsRestServices/rest/POLocator/findLocations", "@spider": "usps_collection_boxes", "addr:city": "GILLETT GROVE", "addr:country": "US", "addr:postcode": "51341", "addr:state": "IA", "addr:street_address": "211 RAILWAY ST", "amenity": "post_box", "collection_times": "Mo-Fr 10:00; Sa 09:45", "indoor": "yes", "nsi_id": "unitedstatespostalservice-a77078", "operator": "United States Postal Service", "operator:short": "USPS", "operator:type": "public", "operator:wikidata": "Q668687", "ref": "5134100002"}, "type": "Feature"}
{"geometry": {"coordinates": [-94.751433304, 43.237791512], "type": "Point"}, "id": "61l-oPjhN5_LkpgRVIJNiXINF9E=", "properties": {"@source_uri": "https://tools.usps.com/UspsToolsRestServices/rest/POLocator/findLocations", "@spider": "usps_collection_boxes", "addr:city": "GRAETTINGER", "addr:country": "US", "addr:postcode": "51342", "addr:state": "IA", "addr:street_address": "111 W ROBINS ST", "amenity": "post_box", "collection_times": "Mo-Sa 16:00", "note": "ON 12/24 AND 12/31, THIS BOX MAY BE COLLECTED AS EARLY AS 12 NOON.", "nsi_id": "unitedstatespostalservice-a77078", "operator": "United States Postal Service", "operator:short": "USPS", "operator:type": "public", "operator:wikidata": "Q668687", "ref": "5134200000"}, "type": "Feature"}
{"geometry": {"coordinates": [-94.751433304, 43.237791512], "type": "Point"}, "id": "aBuiAOA809KQt18t_2zUpKHR6D8=", "properties": {"@source_uri": "https://tools.usps.com/UspsToolsRestServices/rest/POLocator/findLocations", "@spider": "usps_collection_boxes", "addr:city": "GRAETTINGER", "addr:country": "US", "addr:postcode": "51342", "addr:state": "IA", "addr:street_address": "111 W ROBINS ST", "amenity": "post_box", "collection_times": "Mo-Fr 13:45", "indoor": "yes", "note": "ON 12/24 AND 12/31, THIS BOX MAY BE COLLECTED AS EARLY AS 12 NOON.", "nsi_id": "unitedstatespostalservice-a77078", "operator": "United States Postal Service", "operator:short": "USPS", "operator:type": "public", "operator:wikidata": "Q668687", "ref": "5134200001"}, "type": "Feature"}
{"geometry": {"coordinates": [-94.751433304, 43.237791512], "type": "Point"}, "id": "sxaZ05YdRfyX7X6qDApBB3LMAgU=", "properties": {"@source_uri": "https://tools.usps.com/UspsToolsRestServices/rest/POLocator/findLocations", "@spider": "usps_collection_boxes", "addr:city": "GRAETTINGER", "addr:country": "US", "addr:postcode": "51342", "addr:state": "IA", "addr:street_address": "111 W ROBINS ST", "amenity": "post_box", "collection_times": "Mo-Fr 14:00; Sa 08:45", "indoor": "yes", "note": "ON 12/24 AND 12/31, THIS BOX MAY BE COLLECTED AS EARLY AS 12 NOON.", "nsi_id": "unitedstatespostalservice-a77078", "operator": "United States Postal Service", "operator:short": "USPS", "operator:type": "public", "operator:wikidata": "Q668687", "ref": "5134200002"}, "type": "Feature"}
{"geometry": {"coordinates": [-95.433806179, 43.447535665], "type": "Point"}, "id": "RAVbPzx_NJaYpMJGwzRQABNuxJQ=", "properties": {"@source_uri": "https://tools.usps.com/UspsToolsRestServices/rest/POLocator/findLocations", "@spider": "usps_collection_boxes", "addr:city": "HARRIS", "addr:country": "US", "addr:postcode": "51345", "addr:state": "IA", "addr:street_address": "312 MAIN ST N", "amenity": "post_box", "collection_times": "Mo-Fr 16:00; Sa 16:15", "note": "ON 12/24 AND 12/31, THIS BOX MAY BE COLLECTED AS EARLY AS 12 NOON.", "nsi_id": "unitedstatespostalservice-a77078", "operator": "United States Postal Service", "operator:short": "USPS", "operator:type": "public", "operator:wikidata": "Q668687", "ref": "5134500000"}, "type": "Feature"}
{"geometry": {"coordinates": [-95.433806179, 43.447535665], "type": "Point"}, "id": "Q3ACrzu1FCg7XpF-LOZAMs0n_xc=", "properties": {"@source_uri": "https://tools.usps.com/UspsToolsRestServices/rest/POLocator/findLocations", "@spider": "usps_collection_boxes", "addr:city": "HARRIS", "addr:country": "US", "addr:postcode": "51345", "addr:state": "IA", "addr:street_address": "312 MAIN ST N", "amenity": "post_box", "collection_times": "Mo-Fr 11:00", "indoor": "yes", "nsi_id": "unitedstatespostalservice-a77078", "operator": "United States Postal Service", "operator:short": "USPS", "operator:type": "public", "operator:wikidata": "Q668687", "ref": "5134500001"}, "type": "Feature"}
{"geometry": {"coordinates": [-95.433806179, 43.447535665], "type": "Point"}, "id": "gj8utg5FcOkVtqLVTNarYgVF9oo=", "properties": {"@source_uri": "https://tools.usps.com/UspsToolsRestServices/rest/POLocator/findLocations", "@spider": "usps_collection_boxes", "addr:city": "HARRIS", "addr:country": "US", "addr:postcode": "51345", "addr:state": "IA", "addr:street_address": "312 MAIN ST N", "amenity": "post_box", "collection_times": "Mo-Fr 11:15; Sa 09:15", "indoor": "yes", "nsi_id": "unitedstatespostalservice-a77078", "operator": "United States Postal Service", "operator:short": "USPS", "operator:type": "public", "operator:wikidata": "Q668687", "ref": "5134500002"}, "type": "Feature"}
{"geometry": {"coordinates": [-95.477061347, 43.180670508], "type": "Point"}, "id": "vTN18cyJDwtMBH8lsLQFdFz_hz4=", "properties": {"@source_uri": "https://tools.usps.com/UspsToolsRestServices/rest/POLocator/findLocations", "@spider": "usps_collection_boxes", "addr:city": "HARTLEY", "addr:country": "US", "addr:postcode": "51346", "addr:state": "IA", "addr:street_address": "41 S CENTRAL AVE", "amenity": "post_box", "collection_times": "Mo-Sa 16:15", "note": "ON 12/24 AND 12/31, THIS BOX MAY BE COLLECTED AS EARLY AS 12 NOON.", "nsi_id": "unitedstatespostalservice-a77078", "operator": "United States Postal Service", "operator:short": "USPS", "operator:type": "public", "operator:wikidata": "Q668687", "ref": "5134600003"}, "type": "Feature"}
{"geometry": {"coordinates": [-95.477061347, 43.180670508], "type": "Point"}, "id": "2vOTQNzDk52SrhSIAKQ8IPdKbkk=", "properties": {"@source_uri": "https://tools.usps.com/UspsToolsRestServices/rest/POLocator/findLocations", "@spider": "usps_collection_boxes", "addr:city": "HARTLEY", "addr:country": "US", "addr:postcode": "51346", "addr:state": "IA", "addr:street_address": "41 S CENTRAL AVE", "amenity": "post_box", "collection_times": "Mo-Fr 16:15; Sa 09:30", "indoor": "yes", "note": "ON 12/24 AND 12/31, THIS BOX MAY BE COLLECTED AS EARLY AS 12 NOON.", "nsi_id": "unitedstatespostalservice-a77078", "operator": "United States Postal Service", "operator:short": "USPS", "operator:type": "public", "operator:wikidata": "Q668687", "ref": "5134600004"}, "type": "Feature"}
{"geometry": {"coordinates": [-95.477061347, 43.180670508], "type": "Point"}, "id": "TAfUwBMxAlgFi0y96E0DRYBRR_A=", "properties": {"@source_uri": "https://tools.usps.com/UspsToolsRestServices/rest/POLocator/findLocations", "@spider": "usps_collection_boxes", "addr:city": "HARTLEY", "addr:country": "US", "addr:postcode": "51346", "addr:state": "IA", "addr:street_address": "41 S CENTRAL AVE", "amenity": "post_box", "collection_times": "Mo-Fr 16:30; Sa 09:30", "indoor": "yes", "note": "ON 12/24 AND 12/31, THIS BOX MAY BE COLLECTED AS EARLY AS 12 NOON.", "nsi_id": "unitedstatespostalservice-a77078", "operator": "United States Postal Service", "operator:short": "USPS", "operator:type": "public", "operator:wikidata": "Q668687", "ref": "5134600005"}, "type": "Feature"}
{"geometry": {"coordinates": [-95.321271339, 43.454862367], "type": "Point"}, "id": "wjUtADrTR-W2oWecGuyX08ePLn4=", "properties": {"@source_uri": "https://tools.usps.com/UspsToolsRestServices/rest/POLocator/findLocations", "@spider": "usps_collection_boxes", "addr:city": "LAKE PARK", "addr:country": "US", "addr:postcode": "51347", "addr:state": "IA", "addr:street_address": "202 N MARKET ST", "amenity": "post_box", "collection_times": "Mo-Fr 16:00; Sa 16:30", "note": "ON 12/24 AND 12/31, THIS BOX MAY BE COLLECTED AS EARLY AS 12 NOON.", "nsi_id": "unitedstatespostalservice-a77078", "operator": "United States Postal Service", "operator:short": "USPS", "operator:type": "public", "operator:wikidata": "Q668687", "ref": "5134700000"}, "type": "Feature"}
{"geometry": {"coordinates": [-95.321271339, 43.454862367], "type": "Point"}, "id": "4On-TQcvMbFBjkC_-qha7jNco3Y=", "properties": {"@source_uri": "https://tools.usps.com/UspsToolsRestServices/rest/POLocator/findLocations", "@spider": "usps_collection_boxes", "addr:city": "LAKE PARK", "addr:country": "US", "addr:postcode": "51347", "addr:state": "IA", "addr:street_address": "202 N MARKET ST", "amenity": "post_box", "collection_times": "Mo-Fr 16:00; Sa 10:30", "indoor": "yes", "note": "ON 12/24 AND 12/31, THIS BOX MAY BE COLLECTED AS EARLY AS 12 NOON.", "nsi_id": "unitedstatespostalservice-a77078", "operator": "United States Postal Service", "operator:short": "USPS", "operator:type": "public", "operator:wikidata": "Q668687", "ref": "5134700001"}, "type": "Feature"}
{"geometry": {"coordinates": [-95.321271339, 43.454862367], "type": "Point"}, "id": "uewSl3hQEJ_55hSKJ83EaKlKoMo=", "properties": {"@source_uri": "https://tools.usps.com/UspsToolsRestServices/rest/POLocator/findLocations", "@spider": "usps_collection_boxes", "addr:city": "LAKE PARK", "addr:country": "US", "addr:postcode": "51347", "addr:state": "IA", "addr:street_address": "202 N MARKET ST", "amenity": "post_box", "collection_times": "Mo-Fr 16:00; Sa 10:30", "indoor": "yes", "note": "ON 12/24 AND 12/31, THIS BOX MAY BE COLLECTED AS EARLY AS 12 NOON.", "nsi_id": "unitedstatespostalservice-a77078", "operator": "United States Postal Service", "operator:short": "USPS", "operator:type": "public", "operator:wikidata": "Q668687", "ref": "5134700002"}, "type": "Feature"}
{"geometry": {"coordinates": [-95.607800936, 43.287258694], "type": "Point"}, "id": "QeaRLazG6ZzCR1n1HVxJYIH13Kk=", "properties": {"@source_uri": "https://tools.usps.com/UspsToolsRestServices/rest/POLocator/findLocations", "@spider": "usps_collection_boxes", "addr:city": "MELVIN", "addr:country": "US", "addr:postcode": "51350", "addr:state": "IA", "addr:street_address": "246 MAIN ST", "amenity": "post_box", "collection_times": "Mo-Fr 16:00; Sa 15:45", "note": "ON 12/24 AND 12/31, THIS BOX MAY BE COLLECTED AS EARLY AS 12 NOON.", "nsi_id": "unitedstatespostalservice-a77078", "operator": "United States Postal Service", "operator:short": "USPS", "operator:type": "public", "operator:wikidata": "Q668687", "ref": "5135000000"}, "type": "Feature"}
{"geometry": {"coordinates": [-95.6078047714, 43.2872679061], "type": "Point"}, "id": "KqdiucqW259fyNRdWmA2VeOjYas=", "properties": {"@source_uri": "https://tools.usps.com/UspsToolsRestServices/rest/POLocator/findLocations", "@spider": "usps_collection_boxes", "addr:city": "MELVIN", "addr:country": "US", "addr:postcode": "51350", "addr:state": "IA", "addr:street_address": "246 MAIN ST", "amenity": "post_box", "collection_times": "Mo-Fr 11:15; Sa 09:15", "indoor": "yes", "nsi_id": "unitedstatespostalservice-a77078", "operator": "United States Postal Service", "operator:short": "USPS", "operator:type": "public", "operator:wikidata": "Q668687", "ref": "5135000001"}, "type": "Feature"}
{"geometry": {"coordinates": [-95.6078047714, 43.2872679061], "type": "Point"}, "id": "lkqx0oR4ou9UtuU6ZI60WB7xync=", "properties": {"@source_uri": "https://tools.usps.com/UspsToolsRestServices/rest/POLocator/findLocations", "@spider": "usps_collection_boxes", "addr:city": "MELVIN", "addr:country": "US", "addr:postcode": "51350", "addr:state": "IA", "addr:street_address": "246 MAIN ST", "amenity": "post_box", "collection_times": "Mo-Fr 11:30; Sa 09:30", "indoor": "yes", "nsi_id": "unitedstatespostalservice-a77078", "operator": "United States Postal Service", "operator:short": "USPS", "operator:type": "public", "operator:wikidata": "Q668687", "ref": "5135000002"}, "type": "Feature"}
{"geometry": {"coordinates": [-95.151312233, 43.324074335], "type": "Point"}, "id": "1hCkRyqJk-qVg4c1zAIJcCMacNk=", "properties": {"@source_uri": "https://tools.usps.com/UspsToolsRestServices/rest/POLocator/findLocations", "@spider": "usps_collection_boxes", "addr:city": "MILFORD", "addr:country": "US", "addr:postcode": "51351", "addr:state": "IA", "addr:street_address": "900 N AVE", "amenity": "post_box", "collection_times": "Mo-Fr 16:15; Sa 17:00", "note": "ON 12/24 AND 12/31, THIS BOX MAY BE COLLECTED AS EARLY AS 12 NOON.", "nsi_id": "unitedstatespostalservice-a77078", "operator": "United States Postal Service", "operator:short": "USPS", "operator:type": "public", "operator:wikidata": "Q668687", "ref": "5135100000"}, "type": "Feature"}
{"geometry": {"coordinates": [-95.151312233, 43.324074335], "type": "Point"}, "id": "hWExlibAS4HikNvcsZzNx18ZX34=", "properties": {"@source_uri": "https://tools.usps.com/UspsToolsRestServices/rest/POLocator/findLocations", "@spider": "usps_collection_boxes", "addr:city": "MILFORD", "addr:country": "US", "addr:postcode": "51351", "addr:state": "IA", "addr:street_address": "900 N AVE", "amenity": "post_box", "collection_times": "Mo-Fr 16:15; Sa 09:30", "indoor": "yes", "note": "ON 12/24 AND 12/31, THIS BOX MAY BE COLLECTED AS EARLY AS 12 NOON.", "nsi_id": "unitedstatespostalservice-a77078", "operator": "United States Postal Service", "operator:short": "USPS", "operator:type": "public", "operator:wikidata": "Q668687", "ref": "5135100001"}, "type": "Feature"}
{"geometry": {"coordinates": [-95.151312233, 43.324074335], "type": "Point"}, "id": "Emlu4IoYIvBSBHjqlzYN7zga0WQ=", "properties": {"@source_uri": "https://tools.usps.com/UspsToolsRestServices/rest/POLocator/findLocations", "@spider": "usps_collection_boxes", "addr:city": "MILFORD", "addr:country": "US", "addr:postcode": "51351", "addr:state": "IA", "addr:street_address": "900 N AVE", "amenity": "post_box", "collection_times": "Mo-Fr 16:00; Sa 09:30", "indoor": "yes", "note": "ON 12/24 AND 12/31, THIS BOX MAY BE COLLECTED AS EARLY AS 12 NOON.", "nsi_id": "unitedstatespostalservice-a77078", "operator": "United States Postal Service", "operator:short": "USPS", "operator:type": "public", "operator:wikidata": "Q668687", "ref": "5135100005"}, "type": "Feature"}
{"geometry": {"coordinates": [-95.534888741, 43.415830593], "type": "Point"}, "id": "32aFt4dDezWTUOlcrp8ZN7jHJSk=", "properties": {"@source_uri": "https://tools.usps.com/UspsToolsRestServices/rest/POLocator/findLocations", "@spider": "usps_collection_boxes", "addr:city": "OCHEYEDAN", "addr:country": "US", "addr:postcode": "51354", "addr:state": "IA", "addr:street_address": "851 MAIN ST", "amenity": "post_box", "collection_times": "Mo-Sa 16:15", "note": "ON 12/24 AND 12/31, THIS BOX MAY BE COLLECTED AS EARLY AS 12 NOON.", "nsi_id": "unitedstatespostalservice-a77078", "operator": "United States Postal Service", "operator:short": "USPS", "operator:type": "public", "operator:wikidata": "Q668687", "ref": "5135400000"}, "type": "Feature"}
{"geometry": {"coordinates": [-95.534888741, 43.415830593], "type": "Point"}, "id": "iXz435y8acnpewy-_QkIClDzBp8=", "properties": {"@source_uri": "https://tools.usps.com/UspsToolsRestServices/rest/POLocator/findLocations", "@spider": "usps_collection_boxes", "addr:city": "OCHEYEDAN", "addr:country": "US", "addr:postcode": "51354", "addr:state": "IA", "addr:street_address": "851 MAIN ST", "amenity": "post_box", "collection_times": "Mo-Fr 13:45", "indoor": "yes", "note": "ON 12/24 AND 12/31, THIS BOX MAY BE COLLECTED AS EARLY AS 12 NOON.", "nsi_id": "unitedstatespostalservice-a77078", "operator": "United States Postal Service", "operator:short": "USPS", "operator:type": "public", "operator:wikidata": "Q668687", "ref": "5135400001"}, "type": "Feature"}
{"geometry": {"coordinates": [-95.534888741, 43.415830593], "type": "Point"}, "id": "LvwuL5jyEajSgIDOEjgAeA2tDrM=", "properties": {"@source_uri": "https://tools.usps.com/UspsToolsRestServices/rest/POLocator/findLocations", "@spider": "usps_collection_boxes", "addr:city": "OCHEYEDAN", "addr:country": "US", "addr:postcode": "51354", "addr:state": "IA", "addr:street_address": "851 MAIN ST", "amenity": "post_box", "collection_times": "Mo-Fr 14:00; Sa 09:30", "indoor": "yes", "note": "ON 12/24 AND 12/31, THIS BOX MAY BE COLLECTED AS EARLY AS 12 NOON.", "nsi_id": "unitedstatespostalservice-a77078", "operator": "United States Postal Service", "operator:short": "USPS", "operator:type": "public", "operator:wikidata": "Q668687", "ref": "5135400002"}, "type": "Feature"}
{"geometry": {"coordinates": [-95.128515551, 43.38127623], "type": "Point"}, "id": "qn4SxzdLLpJVqO4qpv_Syq-cqRM=", "properties": {"@source_uri": "https://tools.usps.com/UspsToolsRestServices/rest/POLocator/findLocations", "@spider": "usps_collection_boxes", "addr:city": "OKOBOJI", "addr:country": "US", "addr:postcode": "51355", "addr:state": "IA", "addr:street_address": "1009 HIGHWAY 71 S", "amenity": "post_box", "collection_times": "Mo-Sa 16:30", "note": "ON 12/24 AND 12/31, THIS BOX MAY BE COLLECTED AS EARLY AS 12 NOON.", "nsi_id": "unitedstatespostalservice-a77078", "operator": "United States Postal Service", "operator:short": "USPS", "operator:type": "public", "operator:wikidata": "Q668687", "ref": "5135500000"}, "type": "Feature"}
{"geometry": {"coordinates": [-95.128515551, 43.38127623], "type": "Point"}, "id": "vMX4euNfwhwvDk6qqv0wZ9XBUDo=", "properties": {"@source_uri": "https://tools.usps.com/UspsToolsRestServices/rest/POLocator/findLocations", "@spider": "usps_collection_boxes", "addr:city": "OKOBOJI", "addr:country": "US", "addr:postcode": "51355", "addr:state": "IA", "addr:street_address": "1009 HIGHWAY 71 S", "amenity": "post_box", "collection_times": "Mo-Fr 16:30; Sa 10:30", "indoor": "yes", "note": "ON 12/24 AND 12/31, THIS BOX MAY BE COLLECTED AS EARLY AS 12 NOON.", "nsi_id": "unitedstatespostalservice-a77078", "operator": "United States Postal Service", "operator:short": "USPS", "operator:type": "public", "operator:wikidata": "Q668687", "ref": "5135500001"}, "type": "Feature"}
{"geometry": {"coordinates": [-95.188528117, 43.014491084], "type": "Point"}, "id": "LR4BcAmd0Ki5KDbG00MBJRK9Ig0=", "properties": {"@source_uri": "https://tools.usps.com/UspsToolsRestServices/rest/POLocator/findLocations", "@spider": "usps_collection_boxes", "addr:city": "ROYAL", "addr:country": "US", "addr:postcode": "51357", "addr:state": "IA", "addr:street_address": "308 MAIN ST", "amenity": "post_box", "collection_times": "Mo-Fr 16:00; Sa 16:15", "note": "ON 12/24 AND 12/31, THIS BOX MAY BE COLLECTED AS EARLY AS 12 NOON.", "nsi_id": "unitedstatespostalservice-a77078", "operator": "United States Postal Service", "operator:short": "USPS", "operator:type": "public", "operator:wikidata": "Q668687", "ref": "5135700000"}, "type": "Feature"}
{"geometry": {"coordinates": [-95.188528117, 43.014491084], "type": "Point"}, "id": "6-UuuKfl44BbVanWNlE1cBtPuZo=", "properties": {"@source_uri": "https://tools.usps.com/UspsToolsRestServices/rest/POLocator/findLocations", "@spider": "usps_collection_boxes", "addr:city": "ROYAL", "addr:country": "US", "addr:postcode": "51357", "addr:state": "IA", "addr:street_address": "308 MAIN ST", "amenity": "post_box", "collection_times": "Mo-Fr 13:45; Sa 09:45", "indoor": "yes", "note": "ON 12/24 AND 12/31, THIS BOX MAY BE COLLECTED AS EARLY AS 12 NOON.", "nsi_id": "unitedstatespostalservice-a77078", "operator": "United States Postal Service", "operator:short": "USPS", "operator:type": "public", "operator:wikidata": "Q668687", "ref": "5135700001"}, "type": "Feature"}
{"geometry": {"coordinates": [-95.188528117, 43.014491084], "type": "Point"}, "id": "5V5TTPN3MLlwHKVEtNOIBloxaGE=", "properties": {"@source_uri": "https://tools.usps.com/UspsToolsRestServices/rest/POLocator/findLocations", "@spider": "usps_collection_boxes", "addr:city": "ROYAL", "addr:country": "US", "addr:postcode": "51357", "addr:state": "IA", "addr:street_address": "308 MAIN ST", "amenity": "post_box", "collection_times": "Mo-Fr 14:00; Sa 10:00", "indoor": "yes", "note": "ON 12/24 AND 12/31, THIS BOX MAY BE COLLECTED AS EARLY AS 12 NOON.", "nsi_id": "unitedstatespostalservice-a77078", "operator": "United States Postal Service", "operator:short": "USPS", "operator:type": "public", "operator:wikidata": "Q668687", "ref": "5135700002"}, "type": "Feature"}
{"geometry": {"coordinates": [-94.89903535, 43.128567], "type": "Point"}, "id": "FGbGOj2-rhgUgASLhQxMttpCjSE=", "properties": {"@source_uri": "https://tools.usps.com/UspsToolsRestServices/rest/POLocator/findLocations", "@spider": "usps_collection_boxes", "addr:city": "RUTHVEN", "addr:country": "US", "addr:postcode": "51358", "addr:state": "IA", "addr:street_address": "1202 GOWRIE ST", "amenity": "post_box", "collection_times": "Mo-Fr 16:00; Sa 17:30", "note": "ON 12/24 AND 12/31, THIS BOX MAY BE COLLECTED AS EARLY AS 12 NOON.", "nsi_id": "unitedstatespostalservice-a77078", "operator": "United States Postal Service", "operator:short": "USPS", "operator:type": "public", "operator:wikidata": "Q668687", "ref": "5135800000"}, "type": "Feature"}
{"geometry": {"coordinates": [-94.89903535, 43.128567], "type": "Point"}, "id": "uctjk9fLPutUbaAxvu3oceTzA8g=", "properties": {"@source_uri": "https://tools.usps.com/UspsToolsRestServices/rest/POLocator/findLocations", "@spider": "usps_collection_boxes", "addr:city": "RUTHVEN", "addr:country": "US", "addr:postcode": "51358", "addr:state": "IA", "addr:street_address": "1202 GOWRIE ST", "amenity": "post_box", "collection_times": "Mo-Fr 13:45; Sa 08:45", "indoor": "yes", "note": "ON 12/24 AND 12/31, THIS BOX MAY BE COLLECTED AS EARLY AS 12 NOON.", "nsi_id": "unitedstatespostalservice-a77078", "operator": "United States Postal Service", "operator:short": "USPS", "operator:type": "public", "operator:wikidata": "Q668687", "ref": "5135800001"}, "type": "Feature"}
{"geometry": {"coordinates": [-94.89903535, 43.128567], "type": "Point"}, "id": "h5jXqqDf005AJqq5wT8OtPQUEiI=", "properties": {"@source_uri": "https://tools.usps.com/UspsToolsRestServices/rest/POLocator/findLocations", "@spider": "usps_collection_boxes", "addr:city": "RUTHVEN", "addr:country": "US", "addr:postcode": "51358", "addr:state": "IA", "addr:street_address": "1202 GOWRIE ST", "amenity": "post_box", "collection_times": "Mo-Fr 14:00; Sa 09:00", "indoor": "yes", "note": "ON 12/24 AND 12/31, THIS BOX MAY BE COLLECTED AS EARLY AS 12 NOON.", "nsi_id": "unitedstatespostalservice-a77078", "operator": "United States Postal Service", "operator:short": "USPS", "operator:type": "public", "operator:wikidata": "Q668687", "ref": "5135800002"}, "type": "Feature"}
{"geometry": {"coordinates": [-95.102222189, 43.424766], "type": "Point"}, "id": "Ai7KjBO33UeEIZbnS0C2CZHodQA=", "properties": {"@source_uri": "https://tools.usps.com/UspsToolsRestServices/rest/POLocator/findLocations", "@spider": "usps_collection_boxes", "addr:city": "SPIRIT LAKE", "addr:country": "US", "addr:postcode": "51360", "addr:state": "IA", "addr:street_address": "1513 HILL AVE", "amenity": "post_box", "collection_times": "Mo-Sa 16:30", "note": "ON 12/24 AND 12/31, THIS BOX MAY BE COLLECTED AS EARLY AS 12 NOON.", "nsi_id": "unitedstatespostalservice-a77078", "operator": "United States Postal Service", "operator:short": "USPS", "operator:type": "public", "operator:wikidata": "Q668687", "ref": "5136000000"}, "type": "Feature"}
{"geometry": {"coordinates": [-95.106932361, 43.422572539], "type": "Point"}, "id": "oSBNoeRRh-Ys-pJkqArMTKXmcw0=", "properties": {"@source_uri": "https://tools.usps.com/UspsToolsRestServices/rest/POLocator/findLocations", "@spider": "usps_collection_boxes", "addr:city": "SPIRIT LAKE", "addr:country": "US", "addr:postcode": "51360", "addr:state": "IA", "addr:street_address": "1109 18TH ST", "amenity": "post_box", "collection_times": "Mo-Sa 14:00", "note": "ON 12/24 AND 12/31, THIS BOX MAY BE COLLECTED AS EARLY AS 12 NOON.", "nsi_id": "unitedstatespostalservice-a77078", "operator": "United States Postal Service", "operator:short": "USPS", "operator:type": "public", "operator:wikidata": "Q668687", "ref": "5136000002"}, "type": "Feature"}
{"geometry": {"coordinates": [-95.102222189, 43.424766], "type": "Point"}, "id": "g-mCd7oEo2nzKcAETjqEDm3shjY=", "properties": {"@source_uri": "https://tools.usps.com/UspsToolsRestServices/rest/POLocator/findLocations", "@spider": "usps_collection_boxes", "addr:city": "SPIRIT LAKE", "addr:country": "US", "addr:postcode": "51360", "addr:state": "IA", "addr:street_address": "1513 HILL AVE", "amenity": "post_box", "collection_times": "Mo-Fr 11:15; Sa 16:30", "indoor": "yes", "note": "ON 12/24 AND 12/31, THIS BOX MAY BE COLLECTED AS EARLY AS 12 NOON.", "nsi_id": "unitedstatespostalservice-a77078", "operator": "United States Postal Service", "operator:short": "USPS", "operator:type": "public", "operator:wikidata": "Q668687", "ref": "5136000006"}, "type": "Feature"}
{"geometry": {"coordinates": [-95.124300496, 43.422879513], "type": "Point"}, "id": "w9a19f0R97sh-STlarA8us1FRRI=", "properties": {"@source_uri": "https://tools.usps.com/UspsToolsRestServices/rest/POLocator/findLocations", "@spider": "usps_collection_boxes", "addr:city": "SPIRIT LAKE", "addr:country": "US", "addr:postcode": "51360", "addr:state": "IA", "addr:street_address": "2200 17TH ST", "amenity": "post_box", "collection_times": "Mo-Sa 12:30", "note": "ON 12/24 AND 12/31, THIS BOX MAY BE COLLECTED AS EARLY AS 12 NOON.", "nsi_id": "unitedstatespostalservice-a77078", "operator": "United States Postal Service", "operator:short": "USPS", "operator:type": "public", "operator:wikidata": "Q668687", "ref": "5136000008"}, "type": "Feature"}
{"geometry": {"coordinates": [-95.102222189, 43.424766], "type": "Point"}, "id": "Kmi1dF95MB2QswRyIgVn2_jrgNA=", "properties": {"@source_uri": "https://tools.usps.com/UspsToolsRestServices/rest/POLocator/findLocations", "@spider": "usps_collection_boxes", "addr:city": "SPIRIT LAKE", "addr:country": "US", "addr:postcode": "51360", "addr:state": "IA", "addr:street_address": "1513 HILL AVE", "amenity": "post_box", "collection_times": "Mo-Fr 16:30; Sa 10:00", "indoor": "yes", "note": "ON 12/24 AND 12/31, THIS BOX MAY BE COLLECTED AS EARLY AS 12 NOON.", "nsi_id": "unitedstatespostalservice-a77078", "operator": "United States Postal Service", "operator:short": "USPS", "operator:type": "public", "operator:wikidata": "Q668687", "ref": "5136000009"}, "type": "Feature"}
{"geometry": {"coordinates": [-94.947584187, 43.431226827], "type": "Point"}, "id": "Q30r2B7e1wRBUcgAz3oUxIMmuoI=", "properties": {"@source_uri": "https://tools.usps.com/UspsToolsRestServices/rest/POLocator/findLocations", "@spider": "usps_collection_boxes", "addr:city": "SUPERIOR", "addr:country": "US", "addr:postcode": "51363", "addr:state": "IA", "addr:street_address": "110 7TH ST", "amenity": "post_box", "collection_times": "Mo-Fr 16:30; Sa 16:00", "note": "ON 12/24 AND 12/31, THIS BOX MAY BE COLLECTED AS EARLY AS 12 NOON.", "nsi_id": "unitedstatespostalservice-a77078", "operator": "United States Postal Service", "operator:short": "USPS", "operator:type": "public", "operator:wikidata": "Q668687", "ref": "5136300000"}, "type": "Feature"}
{"geometry": {"coordinates": [-94.947584187, 43.431226827], "type": "Point"}, "id": "BNPy5_llBiuRo8IeAL5nXZhjulI=", "properties": {"@source_uri": "https://tools.usps.com/UspsToolsRestServices/rest/POLocator/findLocations", "@spider": "usps_collection_boxes", "addr:city": "SUPERIOR", "addr:country": "US", "addr:postcode": "51363", "addr:state": "IA", "addr:street_address": "110 7TH ST", "amenity": "post_box", "collection_times": "Mo-Fr 11:45", "indoor": "yes", "nsi_id": "unitedstatespostalservice-a77078", "operator": "United States Postal Service", "operator:short": "USPS", "operator:type": "public", "operator:wikidata": "Q668687", "ref": "5136300001"}, "type": "Feature"}
{"geometry": {"coordinates": [-94.947584187, 43.431226827], "type": "Point"}, "id": "I7JL9J4iAgssnvJwRJSFBT234DM=", "properties": {"@source_uri": "https://tools.usps.com/UspsToolsRestServices/rest/POLocator/findLocations", "@spider": "usps_collection_boxes", "addr:city": "SUPERIOR", "addr:country": "US", "addr:postcode": "51363", "addr:state": "IA", "addr:street_address": "110 7TH ST", "amenity": "post_box", "collection_times": "Mo-Fr 12:00; Sa 08:30", "indoor": "yes", "nsi_id": "unitedstatespostalservice-a77078", "operator": "United States Postal Service", "operator:short": "USPS", "operator:type": "public", "operator:wikidata": "Q668687", "ref": "5136300002"}, "type": "Feature"}
{"geometry": {"coordinates": [-94.971231722, 43.305407329], "type": "Point"}, "id": "BGP9rdfExCCJyXbmTPNL3HY89LE=", "properties": {"@source_uri": "https://tools.usps.com/UspsToolsRestServices/rest/POLocator/findLocations", "@spider": "usps_collection_boxes", "addr:city": "TERRIL", "addr:country": "US", "addr:postcode": "51364", "addr:state": "IA", "addr:street_address": "109 S STATE ST", "amenity": "post_box", "collection_times": "Mo-Fr 16:00; Sa 17:00", "note": "ON 12/24 AND 12/31, THIS BOX MAY BE COLLECTED AS EARLY AS 12 NOON.", "nsi_id": "unitedstatespostalservice-a77078", "operator": "United States Postal Service", "operator:short": "USPS", "operator:type": "public", "operator:wikidata": "Q668687", "ref": "5136400000"}, "type": "Feature"}
{"geometry": {"coordinates": [-94.971231722, 43.305407329], "type": "Point"}, "id": "4zLp7xbsgPxecpG-rfC3wUfdxdE=", "properties": {"@source_uri": "https://tools.usps.com/UspsToolsRestServices/rest/POLocator/findLocations", "@spider": "usps_collection_boxes", "addr:city": "TERRIL", "addr:country": "US", "addr:postcode": "51364", "addr:state": "IA", "addr:street_address": "109 S STATE ST", "amenity": "post_box", "collection_times": "Mo-Fr 11:45", "indoor": "yes", "nsi_id": "unitedstatespostalservice-a77078", "operator": "United States Postal Service", "operator:short": "USPS", "operator:type": "public", "operator:wikidata": "Q668687", "ref": "5136400001"}, "type": "Feature"}
{"geometry": {"coordinates": [-94.971231722, 43.305407329], "type": "Point"}, "id": "PuQIp1xYVdtHOpZD8vkpb_MCicM=", "properties": {"@source_uri": "https://tools.usps.com/UspsToolsRestServices/rest/POLocator/findLocations", "@spider": "usps_collection_boxes", "addr:city": "TERRIL", "addr:country": "US", "addr:postcode": "51364", "addr:state": "IA", "addr:street_address": "109 S STATE ST", "amenity": "post_box", "collection_times": "Mo-Fr 12:00; Sa 09:30", "indoor": "yes", "nsi_id": "unitedstatespostalservice-a77078", "operator": "United States Postal Service", "operator:short": "USPS", "operator:type": "public", "operator:wikidata": "Q668687", "ref": "5136400002"}, "type": "Feature"}
{"geometry": {"coordinates": [-94.796018597, 43.319652746], "type": "Point"}, "id": "0rsQW7ZWcdakOCiefYC1U8NZAa0=", "properties": {"@source_uri": "https://tools.usps.com/UspsToolsRestServices/rest/POLocator/findLocations", "@spider": "usps_collection_boxes", "addr:city": "WALLINGFORD", "addr:country": "US", "addr:postcode": "51365", "addr:state": "IA", "addr:street_address": "18 SAINT JAMES AVE", "amenity": "post_box", "collection_times": "Mo-Sa 16:15", "note": "ON 12/24 AND 12/31, THIS BOX MAY BE COLLECTED AS EARLY AS 12 NOON.", "nsi_id": "unitedstatespostalservice-a77078", "operator": "United States Postal Service", "operator:short": "USPS", "operator:type": "public", "operator:wikidata": "Q668687", "ref": "5136500000"}, "type": "Feature"}
{"geometry": {"coordinates": [-94.796018597, 43.319652746], "type": "Point"}, "id": "dyMqyVfMjNUUYkd3XCHSQ7HSXvU=", "properties": {"@source_uri": "https://tools.usps.com/UspsToolsRestServices/rest/POLocator/findLocations", "@spider": "usps_collection_boxes", "addr:city": "WALLINGFORD", "addr:country": "US", "addr:postcode": "51365", "addr:state": "IA", "addr:street_address": "18 SAINT JAMES AVE", "amenity": "post_box", "collection_times": "Mo-Fr 16:15", "indoor": "yes", "note": "ON 12/24 AND 12/31, THIS BOX MAY BE COLLECTED AS EARLY AS 12 NOON.", "nsi_id": "unitedstatespostalservice-a77078", "operator": "United States Postal Service", "operator:short": "USPS", "operator:type": "public", "operator:wikidata": "Q668687", "ref": "5136500001"}, "type": "Feature"}
{"geometry": {"coordinates": [-94.796018597, 43.319652746], "type": "Point"}, "id": "zOWuB2E13ZArhUlqVnRq8qmHcig=", "properties": {"@source_uri": "https://tools.usps.com/UspsToolsRestServices/rest/POLocator/findLocations", "@spider": "usps_collection_boxes", "addr:city": "WALLINGFORD", "addr:country": "US", "addr:postcode": "51365", "addr:state": "IA", "addr:street_address": "18 SAINT JAMES AVE", "amenity": "post_box", "collection_times": "Mo-Fr 16:00; Sa 14:15", "indoor": "yes", "note": "ON 12/24 AND 12/31, THIS BOX MAY BE COLLECTED AS EARLY AS 12 NOON.", "nsi_id": "unitedstatespostalservice-a77078", "operator": "United States Postal Service", "operator:short": "USPS", "operator:type": "public", "operator:wikidata": "Q668687", "ref": "5136500002"}, "type": "Feature"}
{"geometry": {"coordinates": [-95.012841098, 42.950753965], "type": "Point"}, "id": "M_tqNSyl2j1W0y_M5Xb9NuzKDO4=", "properties": {"@source_uri": "https://tools.usps.com/UspsToolsRestServices/rest/POLocator/findLocations", "@spider": "usps_collection_boxes", "addr:city": "WEBB", "addr:country": "US", "addr:postcode": "51366", "addr:state": "IA", "addr:street_address": "104 2ND AVE", "amenity": "post_box", "collection_times": "Mo-Sa 16:15", "note": "ON 12/24 AND 12/31, THIS BOX MAY BE COLLECTED AS EARLY AS 12 NOON.", "nsi_id": "unitedstatespostalservice-a77078", "operator": "United States Postal Service", "operator:short": "USPS", "operator:type": "public", "operator:wikidata": "Q668687", "ref": "5136600000"}, "type": "Feature"}
{"geometry": {"coordinates": [-95.012841098, 42.950753965], "type": "Point"}, "id": "dWxrJioVODXz0CxaVuK96MU32gk=", "properties": {"@source_uri": "https://tools.usps.com/UspsToolsRestServices/rest/POLocator/findLocations", "@spider": "usps_collection_boxes", "addr:city": "WEBB", "addr:country": "US", "addr:postcode": "51366", "addr:state": "IA", "addr:street_address": "104 2ND ST", "amenity": "post_box", "collection_times": "Mo-Fr 14:15", "indoor": "yes", "note": "ON 12/24 AND 12/31, THIS BOX MAY BE COLLECTED AS EARLY AS 12 NOON.", "nsi_id": "unitedstatespostalservice-a77078", "operator": "United States Postal Service", "operator:short": "USPS", "operator:type": "public", "operator:wikidata": "Q668687", "ref": "5136600001"}, "type": "Feature"}
{"geometry": {"coordinates": [-95.012841098, 42.950753965], "type": "Point"}, "id": "BJ2VlqUZ1SHZLuyR-CUoOVamBrA=", "properties": {"@source_uri": "https://tools.usps.com/UspsToolsRestServices/rest/POLocator/findLocations", "@spider": "usps_collection_boxes", "addr:city": "WEBB", "addr:country": "US", "addr:postcode": "51366", "addr:state": "IA", "addr:street_address": "104 2ND AVE", "amenity": "post_box", "collection_times": "Mo-Fr 14:30; Sa 12:15", "indoor": "yes", "note": "ON 12/24 AND 12/31, THIS BOX MAY BE COLLECTED AS EARLY AS 12 NOON.", "nsi_id": "unitedstatespostalservice-a77078", "operator": "United States Postal Service", "operator:short": "USPS", "operator:type": "public", "operator:wikidata": "Q668687", "ref": "5136600002"}, "type": "Feature"}
