{"geometry": {"coordinates": [-94.86664156, 42.064227525], "type": "Point"}, "id": "sGUJOona58rr7axNM_b8LaLk0Kc=", "properties": {"@spider": "usps_collection_boxes", "addr:city": "CARROLL", "addr:country": "US", "addr:full": "118 E 5TH ST", "addr:postcode": "51401", "addr:state": "IA", "brand": "USPS", "brand:wikidata": "Q668687", "collection_times": "Mo-Fr 15:00", "name": "USPS COLLECTION BOX - BLUE BOX", "note": "ON 12/24 AND 12/31, THIS BOX MAY BE COLLECTED AS EARLY AS 12 NOON.", "ref": "5140100001"}, "type": "Feature"}
{"geometry": {"coordinates": [-94.876627521, 42.070541409], "type": "Point"}, "id": "LVwjPjHLpcsdqudnbv-vfSFZizk=", "properties": {"@spider": "usps_collection_boxes", "addr:city": "CARROLL", "addr:country": "US", "addr:full": "905 W US HIGHWAY 30", "addr:postcode": "51401", "addr:state": "IA", "brand": "USPS", "brand:wikidata": "Q668687", "collection_times": "Mo-Sa 15:00", "name": "USPS COLLECTION BOX - BLUE BOX", "note": "ON 12/24 AND 12/31, THIS BOX MAY BE COLLECTED AS EARLY AS 12 NOON.", "ref": "5140100002"}, "type": "Feature"}
{"geometry": {"coordinates": [-94.864010896, 42.06547163], "type": "Point"}, "id": "eXKr0fC6XDfyPJGINUK0U5IYfW4=", "properties": {"@spider": "usps_collection_boxes", "addr:city": "CARROLL", "addr:country": "US", "addr:full": "614 N CLARK ST", "addr:postcode": "51401", "addr:state": "IA", "brand": "USPS", "brand:wikidata": "Q668687", "collection_times": "Mo-Sa 17:30", "name": "USPS COLLECTION BOX - BLUE BOX", "note": "ON 12/24 AND 12/31, THIS BOX MAY BE COLLECTED AS EARLY AS 12 NOON.", "ref": "5140100013"}, "type": "Feature"}
{"geometry": {"coordinates": [-94.864010896, 42.06547163], "type": "Point"}, "id": "ABb8w-HM9pWDUvEAtVhiV6YnUhE=", "properties": {"@spider": "usps_collection_boxes", "addr:city": "CARROLL", "addr:country": "US", "addr:full": "614 N CLARK ST", "addr:postcode": "51401", "addr:state": "IA", "brand": "USPS", "brand:wikidata": "Q668687", "collection_times": "Mo-Sa 17:30", "name": "USPS COLLECTION BOX - BLUE BOX", "note": "ON 12/24 AND 12/31, THIS BOX MAY BE COLLECTED AS EARLY AS 12 NOON.", "ref": "5140100014"}, "type": "Feature"}
{"geometry": {"coordinates": [-94.864010896, 42.06547163], "type": "Point"}, "id": "VGKtDnZsrARDiuV1ly8xutAg8TI=", "properties": {"@spider": "usps_collection_boxes", "addr:city": "CARROLL", "addr:country": "US", "addr:full": "614 N CLARK ST", "addr:postcode": "51401", "addr:state": "IA", "brand": "USPS", "brand:wikidata": "Q668687", "collection_times": "Mo-Sa 17:30", "name": "USPS COLLECTION BOX - BLUE BOX", "note": "ON 12/24 AND 12/31, THIS BOX MAY BE COLLECTED AS EARLY AS 12 NOON.", "ref": "5140100015"}, "type": "Feature"}
{"geometry": {"coordinates": [-94.864010896, 42.06547163], "type": "Point"}, "id": "8SCoW8b7EbHE4c7K1TzUDc8hyAY=", "properties": {"@spider": "usps_collection_boxes", "addr:city": "CARROLL", "addr:country": "US", "addr:full": "614 N CLARK ST", "addr:postcode": "51401", "addr:state": "IA", "brand": "USPS", "brand:wikidata": "Q668687", "collection_times": "Mo-Sa 17:30", "name": "USPS COLLECTION BOX - PO LOBBY", "note": "ON 12/24 AND 12/31, THIS BOX MAY BE COLLECTED AS EARLY AS 12 NOON.", "ref": "5140100016"}, "type": "Feature"}
{"geometry": {"coordinates": [-94.864010896, 42.06547163], "type": "Point"}, "id": "sON9LtNv6hqEL194TXXtPwgaLJo=", "properties": {"@spider": "usps_collection_boxes", "addr:city": "CARROLL", "addr:country": "US", "addr:full": "614 N CLARK ST", "addr:postcode": "51401", "addr:state": "IA", "brand": "USPS", "brand:wikidata": "Q668687", "collection_times": "Mo-Fr 17:00; Sa 11:00", "name": "USPS COLLECTION BOX - PO LOBBY", "note": "ON 12/24 AND 12/31, THIS BOX MAY BE COLLECTED AS EARLY AS 12 NOON.", "ref": "5140100017"}, "type": "Feature"}
{"geometry": {"coordinates": [-95.046038056, 42.087383445], "type": "Point"}, "id": "ksMM9mZvDsVoGntP_7uFr1k49Mk=", "properties": {"@spider": "usps_collection_boxes", "addr:city": "ARCADIA", "addr:country": "US", "addr:full": "212 S GAULT ST", "addr:postcode": "51430", "addr:state": "IA", "brand": "USPS", "brand:wikidata": "Q668687", "collection_times": "Mo-Fr 16:15; Sa 17:30", "name": "USPS COLLECTION BOX - BLUE BOX", "note": "ON 12/24 AND 12/31, THIS BOX MAY BE COLLECTED AS EARLY AS 12 NOON.", "ref": "5143000000"}, "type": "Feature"}
{"geometry": {"coordinates": [-95.046038056, 42.087383445], "type": "Point"}, "id": "JYsDf5H2rnsuKF-Kvq053tKYV9A=", "properties": {"@spider": "usps_collection_boxes", "addr:city": "ARCADIA", "addr:country": "US", "addr:full": "212 S GAULT ST", "addr:postcode": "51430", "addr:state": "IA", "brand": "USPS", "brand:wikidata": "Q668687", "collection_times": "Mo-Fr 11:00", "name": "USPS COLLECTION BOX - PO LOBBY", "ref": "5143000001"}, "type": "Feature"}
{"geometry": {"coordinates": [-95.046038056, 42.087383445], "type": "Point"}, "id": "eJIM9FKuA14kigwFpS9phkwNok4=", "properties": {"@spider": "usps_collection_boxes", "addr:city": "ARCADIA", "addr:country": "US", "addr:full": "212 S GAULT ST", "addr:postcode": "51430", "addr:state": "IA", "brand": "USPS", "brand:wikidata": "Q668687", "collection_times": "Mo-Fr 11:15; Sa 09:15", "name": "USPS COLLECTION BOX - PO LOBBY", "ref": "5143000002"}, "type": "Feature"}
{"geometry": {"coordinates": [-95.347435302, 42.335379335], "type": "Point"}, "id": "VuI0zzaz47KxZKCJgkmf6kaQoAA=", "properties": {"@spider": "usps_collection_boxes", "addr:city": "ARTHUR", "addr:country": "US", "addr:full": "205 S MAIN ST", "addr:postcode": "51431", "addr:state": "IA", "brand": "USPS", "brand:wikidata": "Q668687", "collection_times": "Mo-Fr 15:45; Sa 16:15", "name": "USPS COLLECTION BOX - BLUE BOX", "note": "ON 12/24 AND 12/31, THIS BOX MAY BE COLLECTED AS EARLY AS 12 NOON.", "ref": "5143100000"}, "type": "Feature"}
{"geometry": {"coordinates": [-95.347435302, 42.335379335], "type": "Point"}, "id": "3WhU3KQP5f_l2uBdLhxueWUJ-_s=", "properties": {"@spider": "usps_collection_boxes", "addr:city": "ARTHUR", "addr:country": "US", "addr:full": "205 S MAIN ST", "addr:postcode": "51431", "addr:state": "IA", "brand": "USPS", "brand:wikidata": "Q668687", "collection_times": "Mo-Fr 11:45; Sa 09:30", "name": "USPS COLLECTION BOX - PO LOBBY", "ref": "5143100001"}, "type": "Feature"}
{"geometry": {"coordinates": [-95.347435302, 42.335379335], "type": "Point"}, "id": "oe27rxruVJjgNRcP-Yzdm2QocH8=", "properties": {"@spider": "usps_collection_boxes", "addr:city": "ARTHUR", "addr:country": "US", "addr:full": "205 S MAIN ST", "addr:postcode": "51431", "addr:state": "IA", "brand": "USPS", "brand:wikidata": "Q668687", "collection_times": "Mo-Fr 12:00; Sa 09:45", "name": "USPS COLLECTION BOX - PO LOBBY", "ref": "5143100002"}, "type": "Feature"}
{"geometry": {"coordinates": [-95.135597039, 41.912883], "type": "Point"}, "id": "0X8kTlnRQeWT7nT2HTQ-RWosWGY=", "properties": {"@spider": "usps_collection_boxes", "addr:city": "ASPINWALL", "addr:country": "US", "addr:full": "201 E MAIN ST", "addr:postcode": "51432", "addr:state": "IA", "brand": "USPS", "brand:wikidata": "Q668687", "collection_times": "Mo-Sa 16:15", "name": "USPS COLLECTION BOX - BLUE BOX", "note": "ON 12/24 AND 12/31, THIS BOX MAY BE COLLECTED AS EARLY AS 12 NOON.", "ref": "5143200000"}, "type": "Feature"}
{"geometry": {"coordinates": [-94.877729615, 42.249969], "type": "Point"}, "id": "eacKrT-LjkXZdWBCHGr85-zRmfk=", "properties": {"@spider": "usps_collection_boxes", "addr:city": "AUBURN", "addr:country": "US", "addr:full": "107 PINE ST", "addr:postcode": "51433", "addr:state": "IA", "brand": "USPS", "brand:wikidata": "Q668687", "collection_times": "Mo-Fr 15:45; Sa 16:45", "name": "USPS COLLECTION BOX - BLUE BOX", "note": "ON 12/24 AND 12/31, THIS BOX MAY BE COLLECTED AS EARLY AS 12 NOON.", "ref": "5143300000"}, "type": "Feature"}
{"geometry": {"coordinates": [-94.877729615, 42.249969], "type": "Point"}, "id": "Zdc1NDWdNZEnOqjFCKJVsZixJeM=", "properties": {"@spider": "usps_collection_boxes", "addr:city": "AUBURN", "addr:country": "US", "addr:full": "107 PINE ST", "addr:postcode": "51433", "addr:state": "IA", "brand": "USPS", "brand:wikidata": "Q668687", "collection_times": "Mo-Fr 11:15", "name": "USPS COLLECTION BOX - PO LOBBY", "ref": "5143300001"}, "type": "Feature"}
{"geometry": {"coordinates": [-94.877729615, 42.249969], "type": "Point"}, "id": "gnQ45o08JmWi6H3CBmYp00rjJao=", "properties": {"@spider": "usps_collection_boxes", "addr:city": "AUBURN", "addr:country": "US", "addr:full": "107 PINE ST", "addr:postcode": "51433", "addr:state": "IA", "brand": "USPS", "brand:wikidata": "Q668687", "collection_times": "Mo-Fr 11:30; Sa 09:30", "name": "USPS COLLECTION BOX - PO LOBBY", "ref": "5143300002"}, "type": "Feature"}
{"geometry": {"coordinates": [-94.976411223, 42.181569533], "type": "Point"}, "id": "iy5e54Y53zHS0IBZP8foMfVejg8=", "properties": {"@spider": "usps_collection_boxes", "addr:city": "BREDA", "addr:country": "US", "addr:full": "108 MAIN ST", "addr:postcode": "51436", "addr:state": "IA", "brand": "USPS", "brand:wikidata": "Q668687", "collection_times": "Mo-Fr 16:00; Sa 17:00", "name": "USPS COLLECTION BOX - BLUE BOX", "note": "ON 12/24 AND 12/31, THIS BOX MAY BE COLLECTED AS EARLY AS 12 NOON.", "ref": "5143600000"}, "type": "Feature"}
{"geometry": {"coordinates": [-94.976411223, 42.181569533], "type": "Point"}, "id": "UBt_RYFRQFvDC3YjBB2I2Dfbdv8=", "properties": {"@spider": "usps_collection_boxes", "addr:city": "BREDA", "addr:country": "US", "addr:full": "108 MAIN ST", "addr:postcode": "51436", "addr:state": "IA", "brand": "USPS", "brand:wikidata": "Q668687", "collection_times": "Mo-Fr 13:45", "name": "USPS COLLECTION BOX - PO LOBBY", "note": "ON 12/24 AND 12/31, THIS BOX MAY BE COLLECTED AS EARLY AS 12 NOON.", "ref": "5143600001"}, "type": "Feature"}
{"geometry": {"coordinates": [-94.976411223, 42.181569533], "type": "Point"}, "id": "4E9qFx_FTqog8f7uiZ6VyFq2uQU=", "properties": {"@spider": "usps_collection_boxes", "addr:city": "BREDA", "addr:country": "US", "addr:full": "108 MAIN ST", "addr:postcode": "51436", "addr:state": "IA", "brand": "USPS", "brand:wikidata": "Q668687", "collection_times": "Mo-Fr 14:00; Sa 09:15", "name": "USPS COLLECTION BOX - PO LOBBY", "note": "ON 12/24 AND 12/31, THIS BOX MAY BE COLLECTED AS EARLY AS 12 NOON.", "ref": "5143600002"}, "type": "Feature"}
{"geometry": {"coordinates": [-95.591230473, 42.068628], "type": "Point"}, "id": "zQfrf4Iu92I-fDLRga2uuoSOKBQ=", "properties": {"@spider": "usps_collection_boxes", "addr:city": "CHARTER OAK", "addr:country": "US", "addr:full": "82 MAIN ST", "addr:postcode": "51439", "addr:state": "IA", "brand": "USPS", "brand:wikidata": "Q668687", "collection_times": "Mo-Sa 16:00", "name": "USPS COLLECTION BOX - BLUE BOX", "note": "ON 12/24 AND 12/31, THIS BOX MAY BE COLLECTED AS EARLY AS 12 NOON.", "ref": "5143900000"}, "type": "Feature"}
{"geometry": {"coordinates": [-95.591230473, 42.068628], "type": "Point"}, "id": "KphZtrkL7RoNon1XOLx22KKJWho=", "properties": {"@spider": "usps_collection_boxes", "addr:city": "CHARTER OAK", "addr:country": "US", "addr:full": "82 MAIN ST", "addr:postcode": "51439", "addr:state": "IA", "brand": "USPS", "brand:wikidata": "Q668687", "collection_times": "Mo-Fr 11:15", "name": "USPS COLLECTION BOX - PO LOBBY", "ref": "5143900001"}, "type": "Feature"}
{"geometry": {"coordinates": [-95.591230473, 42.068628], "type": "Point"}, "id": "vacYF3O5xutoj3pvt2m97yv5sio=", "properties": {"@spider": "usps_collection_boxes", "addr:city": "CHARTER OAK", "addr:country": "US", "addr:full": "82 MAIN ST", "addr:postcode": "51439", "addr:state": "IA", "brand": "USPS", "brand:wikidata": "Q668687", "collection_times": "Mo-Fr 11:30; Sa 10:15", "name": "USPS COLLECTION BOX - PO LOBBY", "ref": "5143900002"}, "type": "Feature"}
{"geometry": {"coordinates": [-94.822920168, 41.907111464], "type": "Point"}, "id": "PfNlNBHGNdLIsN20K5joKnPMyB8=", "properties": {"@spider": "usps_collection_boxes", "addr:city": "DEDHAM", "addr:country": "US", "addr:full": "415 3RD ST", "addr:postcode": "51440", "addr:state": "IA", "brand": "USPS", "brand:wikidata": "Q668687", "collection_times": "Mo-Sa 16:45", "name": "USPS COLLECTION BOX - BLUE BOX", "note": "ON 12/24 AND 12/31, THIS BOX MAY BE COLLECTED AS EARLY AS 12 NOON.", "ref": "5144000000"}, "type": "Feature"}
{"geometry": {"coordinates": [-94.822920168, 41.907111464], "type": "Point"}, "id": "0P9QSYOTJTUhA4B37T3v4pb_IXQ=", "properties": {"@spider": "usps_collection_boxes", "addr:city": "DEDHAM", "addr:country": "US", "addr:full": "415 3RD ST", "addr:postcode": "51440", "addr:state": "IA", "brand": "USPS", "brand:wikidata": "Q668687", "collection_times": "Mo-Fr 11:45; Sa 09:15", "name": "USPS COLLECTION BOX - PO LOBBY", "ref": "5144000001"}, "type": "Feature"}
{"geometry": {"coordinates": [-94.822920168, 41.907111464], "type": "Point"}, "id": "PyaqFzy6xAdiBk17EtUvdOMOhvA=", "properties": {"@spider": "usps_collection_boxes", "addr:city": "DEDHAM", "addr:country": "US", "addr:full": "415 3RD ST", "addr:postcode": "51440", "addr:state": "IA", "brand": "USPS", "brand:wikidata": "Q668687", "collection_times": "Mo-Fr 12:00; Sa 09:30", "name": "USPS COLLECTION BOX - PO LOBBY", "ref": "5144000002"}, "type": "Feature"}
{"geometry": {"coordinates": [-95.31660195, 42.097787475], "type": "Point"}, "id": "hT0aHAn4d5McVOTnDyNazRXnhh4=", "properties": {"@spider": "usps_collection_boxes", "addr:city": "DELOIT", "addr:country": "US", "addr:full": "600 WOLF ST", "addr:postcode": "51441", "addr:state": "IA", "brand": "USPS", "brand:wikidata": "Q668687", "collection_times": "Mo-Sa 15:45", "name": "USPS COLLECTION BOX - BLUE BOX", "note": "ON 12/24 AND 12/31, THIS BOX MAY BE COLLECTED AS EARLY AS 12 NOON.", "ref": "5144100000"}, "type": "Feature"}
{"geometry": {"coordinates": [-95.31660195, 42.097787475], "type": "Point"}, "id": "Cr_2rHdO-kKOHL1AK577Xj9Qxu8=", "properties": {"@spider": "usps_collection_boxes", "addr:city": "DELOIT", "addr:country": "US", "addr:full": "600 WOLF ST", "addr:postcode": "51441", "addr:state": "IA", "brand": "USPS", "brand:wikidata": "Q668687", "collection_times": "Mo-Fr 11:45", "name": "USPS COLLECTION BOX - PO LOBBY", "ref": "5144100001"}, "type": "Feature"}
{"geometry": {"coordinates": [-95.31660195, 42.097787475], "type": "Point"}, "id": "OqqgjRCRS5Vj9jQrXumBpxkZ8Ws=", "properties": {"@spider": "usps_collection_boxes", "addr:city": "DELOIT", "addr:country": "US", "addr:full": "600 WOLF ST", "addr:postcode": "51441", "addr:state": "IA", "brand": "USPS", "brand:wikidata": "Q668687", "collection_times": "Mo-Fr 12:00; Sa 09:30", "name": "USPS COLLECTION BOX - PO LOBBY", "ref": "5144100002"}, "type": "Feature"}
{"geometry": {"coordinates": [-95.3568135, 42.016777498], "type": "Point"}, "id": "TIuru-00Es8xmjLbjM-0n2mSw4I=", "properties": {"@spider": "usps_collection_boxes", "addr:city": "DENISON", "addr:country": "US", "addr:full": "1202 BROADWAY", "addr:postcode": "51442", "addr:state": "IA", "brand": "USPS", "brand:wikidata": "Q668687", "collection_times": "Mo-Fr 09:00", "name": "USPS COLLECTION BOX - BLUE BOX", "ref": "5144200000"}, "type": "Feature"}
{"geometry": {"coordinates": [-95.353010916, 42.016773497], "type": "Point"}, "id": "cDJRDNBHVNkV1sBygF14WZogwBg=", "properties": {"@spider": "usps_collection_boxes", "addr:city": "DENISON", "addr:country": "US", "addr:full": "1426 BROADWAY", "addr:postcode": "51442", "addr:state": "IA", "brand": "USPS", "brand:wikidata": "Q668687", "collection_times": "Mo-Sa 09:00", "name": "USPS COLLECTION BOX - BLUE BOX", "ref": "5144200002"}, "type": "Feature"}
{"geometry": {"coordinates": [-95.3676702, 42.023073674], "type": "Point"}, "id": "STdze9azLkPaJP7EANRzIFuhe7U=", "properties": {"@spider": "usps_collection_boxes", "addr:city": "DENISON", "addr:country": "US", "addr:full": "529 HIGHWAY 39", "addr:postcode": "51442", "addr:state": "IA", "brand": "USPS", "brand:wikidata": "Q668687", "collection_times": "Mo-Sa 14:00", "name": "USPS COLLECTION BOX - BLUE BOX", "note": "ON 12/24 AND 12/31, THIS BOX MAY BE COLLECTED AS EARLY AS 12 NOON.", "ref": "5144200003"}, "type": "Feature"}
{"geometry": {"coordinates": [-95.355265535, 42.018075], "type": "Point"}, "id": "xVqJIWZawxTvKWUqX77Z4UCdMrU=", "properties": {"@spider": "usps_collection_boxes", "addr:city": "DENISON", "addr:country": "US", "addr:full": "102 N MAIN ST", "addr:postcode": "51442", "addr:state": "IA", "brand": "USPS", "brand:wikidata": "Q668687", "collection_times": "Mo-Sa 16:45", "name": "USPS COLLECTION BOX - BLUE BOX", "note": "ON 12/24 AND 12/31, THIS BOX MAY BE COLLECTED AS EARLY AS 12 NOON.", "ref": "5144200005"}, "type": "Feature"}
{"geometry": {"coordinates": [-95.355265535, 42.018075], "type": "Point"}, "id": "r4Fu-XrPCe7omGMXD2F1PIHcSoM=", "properties": {"@spider": "usps_collection_boxes", "addr:city": "DENISON", "addr:country": "US", "addr:full": "102 N MAIN ST", "addr:postcode": "51442", "addr:state": "IA", "brand": "USPS", "brand:wikidata": "Q668687", "collection_times": "Mo-Sa 16:45", "name": "USPS COLLECTION BOX - BLUE BOX", "note": "ON 12/24 AND 12/31, THIS BOX MAY BE COLLECTED AS EARLY AS 12 NOON.", "ref": "5144200006"}, "type": "Feature"}
{"geometry": {"coordinates": [-95.373571888, 42.021237552], "type": "Point"}, "id": "f3JSWGw0u7nGDHd6TzS2bQcCkcc=", "properties": {"@spider": "usps_collection_boxes", "addr:city": "DENISON", "addr:country": "US", "addr:full": "404 ARROWHEAD DR", "addr:postcode": "51442", "addr:state": "IA", "brand": "USPS", "brand:wikidata": "Q668687", "collection_times": "Mo-Sa 14:00", "name": "USPS COLLECTION BOX - BLUE BOX", "note": "ON 12/24 AND 12/31, THIS BOX MAY BE COLLECTED AS EARLY AS 12 NOON.", "ref": "5144200007"}, "type": "Feature"}
{"geometry": {"coordinates": [-95.355265535, 42.018075], "type": "Point"}, "id": "aIA62Mu7HFsAMmQqlrjoJHoUoYo=", "properties": {"@spider": "usps_collection_boxes", "addr:city": "DENISON", "addr:country": "US", "addr:full": "102 N MAIN ST", "addr:postcode": "51442", "addr:state": "IA", "brand": "USPS", "brand:wikidata": "Q668687", "collection_times": "Mo-Sa 16:45", "name": "USPS COLLECTION BOX - BLUE BOX", "note": "ON 12/24 AND 12/31, THIS BOX MAY BE COLLECTED AS EARLY AS 12 NOON.", "ref": "5144200008"}, "type": "Feature"}
{"geometry": {"coordinates": [-95.355265535, 42.018075], "type": "Point"}, "id": "UpXJv3y9bGW4Aj7zJZE_BU-lgsQ=", "properties": {"@spider": "usps_collection_boxes", "addr:city": "DENISON", "addr:country": "US", "addr:full": "102 N MAIN ST", "addr:postcode": "51442", "addr:state": "IA", "brand": "USPS", "brand:wikidata": "Q668687", "collection_times": "Mo-Sa 16:45", "name": "USPS COLLECTION BOX - BLUE BOX", "note": "ON 12/24 AND 12/31, THIS BOX MAY BE COLLECTED AS EARLY AS 12 NOON.", "ref": "5144200009"}, "type": "Feature"}
{"geometry": {"coordinates": [-95.355265535, 42.018075], "type": "Point"}, "id": "3Bb6IGF7hOih_aK_zm8uSVsED08=", "properties": {"@spider": "usps_collection_boxes", "addr:city": "DENISON", "addr:country": "US", "addr:full": "102 N MAIN ST", "addr:postcode": "51442", "addr:state": "IA", "brand": "USPS", "brand:wikidata": "Q668687", "collection_times": "Mo-Fr 16:45; Sa 11:00", "name": "USPS COLLECTION BOX - PO LOBBY", "note": "ON 12/24 AND 12/31, THIS BOX MAY BE COLLECTED AS EARLY AS 12 NOON.", "ref": "5144200010"}, "type": "Feature"}
{"geometry": {"coordinates": [-95.355265535, 42.018075], "type": "Point"}, "id": "fmFBZNRqxEpwX-dny8I0FxfeMTI=", "properties": {"@spider": "usps_collection_boxes", "addr:city": "DENISON", "addr:country": "US", "addr:full": "102 N MAIN ST", "addr:postcode": "51442", "addr:state": "IA", "brand": "USPS", "brand:wikidata": "Q668687", "collection_times": "Mo-Fr 16:45; Sa 11:00", "name": "USPS COLLECTION BOX - PO LOBBY", "note": "ON 12/24 AND 12/31, THIS BOX MAY BE COLLECTED AS EARLY AS 12 NOON.", "ref": "5144200011"}, "type": "Feature"}
{"geometry": {"coordinates": [-95.3568135, 42.016777498], "type": "Point"}, "id": "GUT1lkaqL-1QESZzFxcto2e7c8o=", "properties": {"@spider": "usps_collection_boxes", "addr:city": "DENISON", "addr:country": "US", "addr:full": "1202 BROADWAY", "addr:postcode": "51442", "addr:state": "IA", "brand": "USPS", "brand:wikidata": "Q668687", "collection_times": "Mo-Fr 09:00", "name": "USPS COLLECTION BOX - BLUE BOX", "ref": "5144200012"}, "type": "Feature"}
{"geometry": {"coordinates": [-95.355265535, 42.018075], "type": "Point"}, "id": "WhYOI68BuPW9Aik5Ekh5eHcUSKY=", "properties": {"@spider": "usps_collection_boxes", "addr:city": "DENISON", "addr:country": "US", "addr:full": "102 N MAIN ST", "addr:postcode": "51442", "addr:state": "IA", "brand": "USPS", "brand:wikidata": "Q668687", "collection_times": "Mo-Fr 16:30; Sa 11:00", "name": "USPS COLLECTION BOX - PO LOBBY", "note": "ON 12/24 AND 12/31, THIS BOX MAY BE COLLECTED AS EARLY AS 12 NOON.", "ref": "5144200014"}, "type": "Feature"}
{"geometry": {"coordinates": [-94.729662168, 42.056772526], "type": "Point"}, "id": "LCJQSKk7Nvh6yPOcBe-GHx-XUWs=", "properties": {"@spider": "usps_collection_boxes", "addr:city": "GLIDDEN", "addr:country": "US", "addr:full": "128 W 2ND ST", "addr:postcode": "51443", "addr:state": "IA", "brand": "USPS", "brand:wikidata": "Q668687", "collection_times": "Mo-Fr 16:15; Sa 17:30", "name": "USPS COLLECTION BOX - BLUE BOX", "note": "ON 12/24 AND 12/31, THIS BOX MAY BE COLLECTED AS EARLY AS 12 NOON.", "ref": "5144300000"}, "type": "Feature"}
{"geometry": {"coordinates": [-94.729662168, 42.056772526], "type": "Point"}, "id": "uAb5PEBV2pCU1Crmh5Q-6xBE1dM=", "properties": {"@spider": "usps_collection_boxes", "addr:city": "GLIDDEN", "addr:country": "US", "addr:full": "128 W 2ND ST", "addr:postcode": "51443", "addr:state": "IA", "brand": "USPS", "brand:wikidata": "Q668687", "collection_times": "Mo-Fr 13:45", "name": "USPS COLLECTION BOX - PO LOBBY", "note": "ON 12/24 AND 12/31, THIS BOX MAY BE COLLECTED AS EARLY AS 12 NOON.", "ref": "5144300001"}, "type": "Feature"}
{"geometry": {"coordinates": [-94.729662168, 42.056772526], "type": "Point"}, "id": "LD1uoujcZKy9DSjlIj2QWR93iT8=", "properties": {"@spider": "usps_collection_boxes", "addr:city": "GLIDDEN", "addr:country": "US", "addr:full": "128 W 2ND ST", "addr:postcode": "51443", "addr:state": "IA", "brand": "USPS", "brand:wikidata": "Q668687", "collection_times": "Mo-Fr 14:00; Sa 09:00", "name": "USPS COLLECTION BOX - PO LOBBY", "note": "ON 12/24 AND 12/31, THIS BOX MAY BE COLLECTED AS EARLY AS 12 NOON.", "ref": "5144300002"}, "type": "Feature"}
{"geometry": {"coordinates": [-94.972501925, 42.005766856], "type": "Point"}, "id": "BmlWbQWse1T_Chi3xGQCjC5yI80=", "properties": {"@spider": "usps_collection_boxes", "addr:city": "HALBUR", "addr:country": "US", "addr:full": "206 W 2ND ST", "addr:postcode": "51444", "addr:state": "IA", "brand": "USPS", "brand:wikidata": "Q668687", "collection_times": "Mo-Fr 16:45; Sa 17:30", "name": "USPS COLLECTION BOX - BLUE BOX", "note": "ON 12/24 AND 12/31, THIS BOX MAY BE COLLECTED AS EARLY AS 12 NOON.", "ref": "5144400000"}, "type": "Feature"}
{"geometry": {"coordinates": [-94.972501925, 42.005766856], "type": "Point"}, "id": "bwWjscbzGFJIZUT9ZWtOoIlVANU=", "properties": {"@spider": "usps_collection_boxes", "addr:city": "HALBUR", "addr:country": "US", "addr:full": "206 W 2ND ST", "addr:postcode": "51444", "addr:state": "IA", "brand": "USPS", "brand:wikidata": "Q668687", "collection_times": "Mo-Fr 11:45", "name": "USPS COLLECTION BOX - PO LOBBY", "ref": "5144400001"}, "type": "Feature"}
{"geometry": {"coordinates": [-94.972501925, 42.005766856], "type": "Point"}, "id": "uQpnmqMJIY3qlOw-Qfjn-7XUhsc=", "properties": {"@spider": "usps_collection_boxes", "addr:city": "HALBUR", "addr:country": "US", "addr:full": "206 W 2ND ST", "addr:postcode": "51444", "addr:state": "IA", "brand": "USPS", "brand:wikidata": "Q668687", "collection_times": "Mo-Fr 12:00; Sa 10:00", "name": "USPS COLLECTION BOX - PO LOBBY", "ref": "5144400002"}, "type": "Feature"}
{"geometry": {"coordinates": [-95.471309168, 42.343596], "type": "Point"}, "id": "ttSRAW8B-KyxUQLgfWUzBX0vnto=", "properties": {"@spider": "usps_collection_boxes", "addr:city": "IDA GROVE", "addr:country": "US", "addr:full": "300 MAIN ST", "addr:postcode": "51445", "addr:state": "IA", "brand": "USPS", "brand:wikidata": "Q668687", "collection_times": "Mo-Fr 16:30; Sa 16:00", "name": "USPS COLLECTION BOX - BLUE BOX", "note": "ON 12/24 AND 12/31, THIS BOX MAY BE COLLECTED AS EARLY AS 12 NOON.", "ref": "5144500000"}, "type": "Feature"}
{"geometry": {"coordinates": [-95.471309168, 42.343596], "type": "Point"}, "id": "GW3XJ5hyIGZMEuw9LUw3nl8UBDM=", "properties": {"@spider": "usps_collection_boxes", "addr:city": "IDA GROVE", "addr:country": "US", "addr:full": "300 MAIN ST", "addr:postcode": "51445", "addr:state": "IA", "brand": "USPS", "brand:wikidata": "Q668687", "collection_times": "Mo-Fr 16:30; Sa 16:00", "name": "USPS COLLECTION BOX - BLUE BOX", "note": "ON 12/24 AND 12/31, THIS BOX MAY BE COLLECTED AS EARLY AS 12 NOON.", "ref": "5144500003"}, "type": "Feature"}
{"geometry": {"coordinates": [-95.471309168, 42.343596], "type": "Point"}, "id": "_NmZ-zj2oAAWW1BGhszAp51EBUA=", "properties": {"@spider": "usps_collection_boxes", "addr:city": "IDA GROVE", "addr:country": "US", "addr:full": "300 MAIN ST", "addr:postcode": "51445", "addr:state": "IA", "brand": "USPS", "brand:wikidata": "Q668687", "collection_times": "Mo-Fr 16:30", "name": "USPS COLLECTION BOX - PO LOBBY", "note": "ON 12/24 AND 12/31, THIS BOX MAY BE COLLECTED AS EARLY AS 12 NOON.", "ref": "5144500004"}, "type": "Feature"}
{"geometry": {"coordinates": [-95.471742824, 42.350741581], "type": "Point"}, "id": "8rMOnwYEdKEnvlvljnwjYkgKp2U=", "properties": {"@spider": "usps_collection_boxes", "addr:city": "IDA GROVE", "addr:country": "US", "addr:full": "200 OAK GROVE DR", "addr:postcode": "51445", "addr:state": "IA", "brand": "USPS", "brand:wikidata": "Q668687", "collection_times": "Mo-Sa 09:30", "name": "USPS COLLECTION BOX - BLUE BOX", "ref": "5144500005"}, "type": "Feature"}
{"geometry": {"coordinates": [-95.471309168, 42.343596], "type": "Point"}, "id": "dgfhdS-No5QOybBIy-wJ4MczgfU=", "properties": {"@spider": "usps_collection_boxes", "addr:city": "IDA GROVE", "addr:country": "US", "addr:full": "300 MAIN ST", "addr:postcode": "51445", "addr:state": "IA", "brand": "USPS", "brand:wikidata": "Q668687", "collection_times": "Mo-Fr 16:30; Sa 10:30", "name": "USPS COLLECTION BOX - PO LOBBY", "note": "ON 12/24 AND 12/31, THIS BOX MAY BE COLLECTED AS EARLY AS 12 NOON.", "ref": "5144500007"}, "type": "Feature"}
{"geometry": {"coordinates": [-95.206179863, 41.789898], "type": "Point"}, "id": "4YDbGwDG-CxdaMljugJODMlr5Dc=", "properties": {"@spider": "usps_collection_boxes", "addr:city": "IRWIN", "addr:country": "US", "addr:full": "512 ANN ST", "addr:postcode": "51446", "addr:state": "IA", "brand": "USPS", "brand:wikidata": "Q668687", "collection_times": "Mo-Sa 15:45", "name": "USPS COLLECTION BOX - BLUE BOX", "note": "ON 12/24 AND 12/31, THIS BOX MAY BE COLLECTED AS EARLY AS 12 NOON.", "ref": "5144600000"}, "type": "Feature"}
{"geometry": {"coordinates": [-95.206179863, 41.789898], "type": "Point"}, "id": "7A8bb26G4vRS4ImyHtqBcH4CR9E=", "properties": {"@spider": "usps_collection_boxes", "addr:city": "IRWIN", "addr:country": "US", "addr:full": "512 ANN ST", "addr:postcode": "51446", "addr:state": "IA", "brand": "USPS", "brand:wikidata": "Q668687", "collection_times": "Mo-Fr 10:45", "name": "USPS COLLECTION BOX - PO LOBBY", "ref": "5144600001"}, "type": "Feature"}
{"geometry": {"coordinates": [-95.206179863, 41.789898], "type": "Point"}, "id": "11aBFMTM2lLo_KNeCEkxwCSmntA=", "properties": {"@spider": "usps_collection_boxes", "addr:city": "IRWIN", "addr:country": "US", "addr:full": "512 ANN ST", "addr:postcode": "51446", "addr:state": "IA", "brand": "USPS", "brand:wikidata": "Q668687", "collection_times": "Mo-Fr 11:15; Sa 09:30", "name": "USPS COLLECTION BOX - PO LOBBY", "ref": "5144600002"}, "type": "Feature"}
{"geometry": {"coordinates": [-95.326672668, 42.19466646], "type": "Point"}, "id": "t-rpDxtRYeELuiGS66XhftQgZUw=", "properties": {"@spider": "usps_collection_boxes", "addr:city": "KIRON", "addr:country": "US", "addr:full": "134 MAIN ST", "addr:postcode": "51448", "addr:state": "IA", "brand": "USPS", "brand:wikidata": "Q668687", "collection_times": "Mo-Sa 15:45", "name": "USPS COLLECTION BOX - BLUE BOX", "note": "ON 12/24 AND 12/31, THIS BOX MAY BE COLLECTED AS EARLY AS 12 NOON.", "ref": "5144800000"}, "type": "Feature"}
{"geometry": {"coordinates": [-95.326672668, 42.19466646], "type": "Point"}, "id": "f1V-PCv8B_unq4xaAsypXM2oPdc=", "properties": {"@spider": "usps_collection_boxes", "addr:city": "KIRON", "addr:country": "US", "addr:full": "134 MAIN ST", "addr:postcode": "51448", "addr:state": "IA", "brand": "USPS", "brand:wikidata": "Q668687", "collection_times": "Mo-Fr 11:15; Sa 09:00", "name": "USPS COLLECTION BOX - PO LOBBY", "ref": "5144800001"}, "type": "Feature"}
{"geometry": {"coordinates": [-95.326672668, 42.19466646], "type": "Point"}, "id": "9DB_ppCEYB3uYUyvjKWjveaKzYQ=", "properties": {"@spider": "usps_collection_boxes", "addr:city": "KIRON", "addr:country": "US", "addr:full": "134 MAIN ST", "addr:postcode": "51448", "addr:state": "IA", "brand": "USPS", "brand:wikidata": "Q668687", "collection_times": "Mo-Fr 11:30; Sa 09:15", "name": "USPS COLLECTION BOX - PO LOBBY", "ref": "5144800002"}, "type": "Feature"}
{"geometry": {"coordinates": [-94.732361528, 42.266425472], "type": "Point"}, "id": "kqmHh5N6_A7SdGp_MdbdBWe4qC4=", "properties": {"@spider": "usps_collection_boxes", "addr:city": "LAKE CITY", "addr:country": "US", "addr:full": "202 E JEFFERSON ST", "addr:postcode": "51449", "addr:state": "IA", "brand": "USPS", "brand:wikidata": "Q668687", "collection_times": "Mo-Fr 16:30; Sa 16:45", "name": "USPS COLLECTION BOX - BLUE BOX", "note": "ON 12/24 AND 12/31, THIS BOX MAY BE COLLECTED AS EARLY AS 12 NOON.", "ref": "5144900004"}, "type": "Feature"}
{"geometry": {"coordinates": [-94.732361528, 42.266425472], "type": "Point"}, "id": "2A8MBI5FrIWpwCHZIx5rfKu9d1I=", "properties": {"@spider": "usps_collection_boxes", "addr:city": "LAKE CITY", "addr:country": "US", "addr:full": "202 E JEFFERSON ST", "addr:postcode": "51449", "addr:state": "IA", "brand": "USPS", "brand:wikidata": "Q668687", "collection_times": "Mo-Fr 16:30; Sa 09:00", "name": "USPS COLLECTION BOX - PO LOBBY", "note": "ON 12/24 AND 12/31, THIS BOX MAY BE COLLECTED AS EARLY AS 12 NOON.", "ref": "5144900006"}, "type": "Feature"}
{"geometry": {"coordinates": [-94.732361528, 42.266425472], "type": "Point"}, "id": "AzwLQRkSQTQ5xslUtgZNlAlYqQg=", "properties": {"@spider": "usps_collection_boxes", "addr:city": "LAKE CITY", "addr:country": "US", "addr:full": "202 E JEFFERSON ST", "addr:postcode": "51449", "addr:state": "IA", "brand": "USPS", "brand:wikidata": "Q668687", "collection_times": "Mo-Fr 16:30; Sa 09:00", "name": "USPS COLLECTION BOX - PO LOBBY", "note": "ON 12/24 AND 12/31, THIS BOX MAY BE COLLECTED AS EARLY AS 12 NOON.", "ref": "5144900007"}, "type": "Feature"}
{"geometry": {"coordinates": [-95.051420618, 42.305795333], "type": "Point"}, "id": "i4qTh-v5BHqD2kCrYYiIZvkBMP8=", "properties": {"@spider": "usps_collection_boxes", "addr:city": "LAKE VIEW", "addr:country": "US", "addr:full": "521 3RD ST", "addr:postcode": "51450", "addr:state": "IA", "brand": "USPS", "brand:wikidata": "Q668687", "collection_times": "Mo-Fr 16:15; Sa 17:00", "name": "USPS COLLECTION BOX - BLUE BOX", "note": "ON 12/24 AND 12/31, THIS BOX MAY BE COLLECTED AS EARLY AS 12 NOON.", "ref": "5145000000"}, "type": "Feature"}
{"geometry": {"coordinates": [-95.051420618, 42.305795333], "type": "Point"}, "id": "17LUXGyU4Kiuo5RTz9CiSNvINzA=", "properties": {"@spider": "usps_collection_boxes", "addr:city": "LAKE VIEW", "addr:country": "US", "addr:full": "521 3RD ST", "addr:postcode": "51450", "addr:state": "IA", "brand": "USPS", "brand:wikidata": "Q668687", "collection_times": "Mo-Fr 16:15", "name": "USPS COLLECTION BOX - PO LOBBY", "note": "ON 12/24 AND 12/31, THIS BOX MAY BE COLLECTED AS EARLY AS 12 NOON.", "ref": "5145000001"}, "type": "Feature"}
{"geometry": {"coordinates": [-95.02238445, 42.253703077], "type": "Point"}, "id": "n3kWLyqR8g4hd9KCI75b49YoIrA=", "properties": {"@spider": "usps_collection_boxes", "addr:city": "LAKE VIEW", "addr:country": "US", "addr:full": "201 370TH ST", "addr:postcode": "51450", "addr:state": "IA", "brand": "USPS", "brand:wikidata": "Q668687", "collection_times": "Mo-Fr 17:45; Sa 17:00", "name": "USPS COLLECTION BOX - BLUE BOX", "note": "ON 12/24 AND 12/31, THIS BOX MAY BE COLLECTED AS EARLY AS 12 NOON.", "ref": "5145000002"}, "type": "Feature"}
{"geometry": {"coordinates": [-95.051420618, 42.305795333], "type": "Point"}, "id": "UDXzzhzIGscgl-5whvkFnL-ps6E=", "properties": {"@spider": "usps_collection_boxes", "addr:city": "LAKE VIEW", "addr:country": "US", "addr:full": "521 3RD ST", "addr:postcode": "51450", "addr:state": "IA", "brand": "USPS", "brand:wikidata": "Q668687", "collection_times": "Mo-Fr 16:15; Sa 10:00", "name": "USPS COLLECTION BOX - PO LOBBY", "note": "ON 12/24 AND 12/31, THIS BOX MAY BE COLLECTED AS EARLY AS 12 NOON.", "ref": "5145000003"}, "type": "Feature"}
{"geometry": {"coordinates": [-94.692032832, 42.183561532], "type": "Point"}, "id": "GreJ4u3Fm-FkQxOOCunKEX-U8Ig=", "properties": {"@spider": "usps_collection_boxes", "addr:city": "LANESBORO", "addr:country": "US", "addr:full": "117 MAIN ST", "addr:postcode": "51451", "addr:state": "IA", "brand": "USPS", "brand:wikidata": "Q668687", "collection_times": "Mo-Fr 15:45; Sa 16:00", "name": "USPS COLLECTION BOX - BLUE BOX", "note": "ON 12/24 AND 12/31, THIS BOX MAY BE COLLECTED AS EARLY AS 12 NOON.", "ref": "5145100000"}, "type": "Feature"}
{"geometry": {"coordinates": [-94.692032832, 42.183561532], "type": "Point"}, "id": "owrjS9PGBDWqkEyq3-eEU94XbhE=", "properties": {"@spider": "usps_collection_boxes", "addr:city": "LANESBORO", "addr:country": "US", "addr:full": "117 MAIN ST", "addr:postcode": "51451", "addr:state": "IA", "brand": "USPS", "brand:wikidata": "Q668687", "collection_times": "Mo-Fr 15:45", "name": "USPS COLLECTION BOX - PO LOBBY", "note": "ON 12/24 AND 12/31, THIS BOX MAY BE COLLECTED AS EARLY AS 12 NOON.", "ref": "5145100001"}, "type": "Feature"}
{"geometry": {"coordinates": [-94.692032832, 42.183561532], "type": "Point"}, "id": "Nvb5TJQpnrmzTIus6LigYXURJPE=", "properties": {"@spider": "usps_collection_boxes", "addr:city": "LANESBORO", "addr:country": "US", "addr:full": "117 MAIN ST", "addr:postcode": "51451", "addr:state": "IA", "brand": "USPS", "brand:wikidata": "Q668687", "collection_times": "Mo-Fr 16:00; Sa 12:15", "name": "USPS COLLECTION BOX - PO LOBBY", "note": "ON 12/24 AND 12/31, THIS BOX MAY BE COLLECTED AS EARLY AS 12 NOON.", "ref": "5145100002"}, "type": "Feature"}
{"geometry": {"coordinates": [-94.783638577, 42.123905413], "type": "Point"}, "id": "Gb37wjogr3emp4o2ffvUJyhiW_0=", "properties": {"@spider": "usps_collection_boxes", "addr:city": "LIDDERDALE", "addr:country": "US", "addr:full": "120 S MAIN ST", "addr:postcode": "51452", "addr:state": "IA", "brand": "USPS", "brand:wikidata": "Q668687", "collection_times": "Mo-Sa 15:30", "name": "USPS COLLECTION BOX - BLUE BOX", "note": "ON 12/24 AND 12/31, THIS BOX MAY BE COLLECTED AS EARLY AS 12 NOON.", "ref": "5145200000"}, "type": "Feature"}
{"geometry": {"coordinates": [-94.783638577, 42.123905413], "type": "Point"}, "id": "r1ajSW8a4sAnTJuCPAlXs99uclE=", "properties": {"@spider": "usps_collection_boxes", "addr:city": "LIDDERDALE", "addr:country": "US", "addr:full": "120 S MAIN ST", "addr:postcode": "51452", "addr:state": "IA", "brand": "USPS", "brand:wikidata": "Q668687", "collection_times": "Mo-Fr 11:45; Sa 09:45", "name": "USPS COLLECTION BOX - PO LOBBY", "ref": "5145200001"}, "type": "Feature"}
{"geometry": {"coordinates": [-94.783638577, 42.123905413], "type": "Point"}, "id": "8bH3WmFSjOwdfhuB1MyBA6t-eCQ=", "properties": {"@spider": "usps_collection_boxes", "addr:city": "LIDDERDALE", "addr:country": "US", "addr:full": "120 S MAIN ST", "addr:postcode": "51452", "addr:state": "IA", "brand": "USPS", "brand:wikidata": "Q668687", "collection_times": "Mo-Fr 12:00; Sa 10:00", "name": "USPS COLLECTION BOX - PO LOBBY", "ref": "5145200002"}, "type": "Feature"}
{"geometry": {"coordinates": [-94.548820668, 42.27022453], "type": "Point"}, "id": "PGr8Pj1BMQSiW8E22Fp65vD7oTg=", "properties": {"@spider": "usps_collection_boxes", "addr:city": "LOHRVILLE", "addr:country": "US", "addr:full": "416 2ND ST", "addr:postcode": "51453", "addr:state": "IA", "brand": "USPS", "brand:wikidata": "Q668687", "collection_times": "Mo-Sa 16:15", "name": "USPS COLLECTION BOX - BLUE BOX", "note": "ON 12/24 AND 12/31, THIS BOX MAY BE COLLECTED AS EARLY AS 12 NOON.", "ref": "5145300000"}, "type": "Feature"}
{"geometry": {"coordinates": [-94.548820668, 42.27022453], "type": "Point"}, "id": "pMxalsMMAZB1QOlwIoZni_2Pibc=", "properties": {"@spider": "usps_collection_boxes", "addr:city": "LOHRVILLE", "addr:country": "US", "addr:full": "416 2ND ST", "addr:postcode": "51453", "addr:state": "IA", "brand": "USPS", "brand:wikidata": "Q668687", "collection_times": "Mo-Fr 10:45; Sa 09:45", "name": "USPS COLLECTION BOX - PO LOBBY", "ref": "5145300001"}, "type": "Feature"}
{"geometry": {"coordinates": [-94.548820668, 42.27022453], "type": "Point"}, "id": "OBoucMbF__p9kPPQoDVywGrDlz4=", "properties": {"@spider": "usps_collection_boxes", "addr:city": "LOHRVILLE", "addr:country": "US", "addr:full": "416 2ND ST", "addr:postcode": "51453", "addr:state": "IA", "brand": "USPS", "brand:wikidata": "Q668687", "collection_times": "Mo-Fr 11:00; Sa 10:00", "name": "USPS COLLECTION BOX - PO LOBBY", "ref": "5145300002"}, "type": "Feature"}
{"geometry": {"coordinates": [-95.233435105, 41.889933335], "type": "Point"}, "id": "qOVoGvfrKcwD9ryPPcn6wXWnVzQ=", "properties": {"@spider": "usps_collection_boxes", "addr:city": "MANILLA", "addr:country": "US", "addr:full": "348 4TH ST", "addr:postcode": "51454", "addr:state": "IA", "brand": "USPS", "brand:wikidata": "Q668687", "collection_times": "Mo-Sa 16:00", "name": "USPS COLLECTION BOX - BLUE BOX", "note": "ON 12/24 AND 12/31, THIS BOX MAY BE COLLECTED AS EARLY AS 12 NOON.", "ref": "5145400000"}, "type": "Feature"}
{"geometry": {"coordinates": [-95.233435105, 41.889933335], "type": "Point"}, "id": "HOCxEOb37f-C_LRi_BjucuctXhg=", "properties": {"@spider": "usps_collection_boxes", "addr:city": "MANILLA", "addr:country": "US", "addr:full": "348 4TH ST", "addr:postcode": "51454", "addr:state": "IA", "brand": "USPS", "brand:wikidata": "Q668687", "collection_times": "Mo-Fr 13:45", "name": "USPS COLLECTION BOX - PO LOBBY", "note": "ON 12/24 AND 12/31, THIS BOX MAY BE COLLECTED AS EARLY AS 12 NOON.", "ref": "5145400001"}, "type": "Feature"}
{"geometry": {"coordinates": [-95.233435105, 41.889933335], "type": "Point"}, "id": "elTq2RKEdqWWNrXjl_OJdy36q7E=", "properties": {"@spider": "usps_collection_boxes", "addr:city": "MANILLA", "addr:country": "US", "addr:full": "348 4TH ST", "addr:postcode": "51454", "addr:state": "IA", "brand": "USPS", "brand:wikidata": "Q668687", "collection_times": "Mo-Fr 14:00; Sa 10:00", "name": "USPS COLLECTION BOX - PO LOBBY", "note": "ON 12/24 AND 12/31, THIS BOX MAY BE COLLECTED AS EARLY AS 12 NOON.", "ref": "5145400002"}, "type": "Feature"}
{"geometry": {"coordinates": [-95.0648429874, 41.9096120176], "type": "Point"}, "id": "SMa1l9g-Uff_WH0UqTmMUiuie6I=", "properties": {"@spider": "usps_collection_boxes", "addr:city": "MANNING", "addr:country": "US", "addr:full": "216 MAIN ST", "addr:postcode": "51455", "addr:state": "IA", "brand": "USPS", "brand:wikidata": "Q668687", "collection_times": "Mo-Sa 16:30", "name": "USPS COLLECTION BOX - BLUE BOX", "note": "ON 12/24 AND 12/31, THIS BOX MAY BE COLLECTED AS EARLY AS 12 NOON.", "ref": "5145500000"}, "type": "Feature"}
{"geometry": {"coordinates": [-95.06509305, 41.909625], "type": "Point"}, "id": "TeoUQXDWAhnAeydPyXwfCj-qE5w=", "properties": {"@spider": "usps_collection_boxes", "addr:city": "MANNING", "addr:country": "US", "addr:full": "216 MAIN ST", "addr:postcode": "51455", "addr:state": "IA", "brand": "USPS", "brand:wikidata": "Q668687", "collection_times": "Mo-Fr 16:30; Sa 09:30", "name": "USPS COLLECTION BOX - PO LOBBY", "note": "ON 12/24 AND 12/31, THIS BOX MAY BE COLLECTED AS EARLY AS 12 NOON.", "ref": "5145500006"}, "type": "Feature"}
{"geometry": {"coordinates": [-95.06509305, 41.909625], "type": "Point"}, "id": "UMRi09eh_2cqgsadRzvQRJRGgEM=", "properties": {"@spider": "usps_collection_boxes", "addr:city": "MANNING", "addr:country": "US", "addr:full": "216 MAIN ST", "addr:postcode": "51455", "addr:state": "IA", "brand": "USPS", "brand:wikidata": "Q668687", "collection_times": "Mo-Fr 16:30; Sa 09:30", "name": "USPS COLLECTION BOX - PO LOBBY", "note": "ON 12/24 AND 12/31, THIS BOX MAY BE COLLECTED AS EARLY AS 12 NOON.", "ref": "5145500007"}, "type": "Feature"}
{"geometry": {"coordinates": [-95.250649433, 42.310790181], "type": "Point"}, "id": "f__rS8cFH7mudn5We8NUcNQuayw=", "properties": {"@spider": "usps_collection_boxes", "addr:city": "ODEBOLT", "addr:country": "US", "addr:full": "315 S MAIN ST", "addr:postcode": "51458", "addr:state": "IA", "brand": "USPS", "brand:wikidata": "Q668687", "collection_times": "Mo-Fr 16:15; Sa 16:30", "name": "USPS COLLECTION BOX - BLUE BOX", "note": "ON 12/24 AND 12/31, THIS BOX MAY BE COLLECTED AS EARLY AS 12 NOON.", "ref": "5145800000"}, "type": "Feature"}
{"geometry": {"coordinates": [-95.250649433, 42.310790181], "type": "Point"}, "id": "prJXyXAAaU_Ge7ID1ksiZZ0gaYM=", "properties": {"@spider": "usps_collection_boxes", "addr:city": "ODEBOLT", "addr:country": "US", "addr:full": "315 S MAIN ST", "addr:postcode": "51458", "addr:state": "IA", "brand": "USPS", "brand:wikidata": "Q668687", "collection_times": "Mo-Fr 16:15", "name": "USPS COLLECTION BOX - PO LOBBY", "note": "ON 12/24 AND 12/31, THIS BOX MAY BE COLLECTED AS EARLY AS 12 NOON.", "ref": "5145800001"}, "type": "Feature"}
{"geometry": {"coordinates": [-95.250649433, 42.310790181], "type": "Point"}, "id": "NwzFUhy9-zG5-VXg2NWVh7On8hc=", "properties": {"@spider": "usps_collection_boxes", "addr:city": "ODEBOLT", "addr:country": "US", "addr:full": "315 S MAIN ST", "addr:postcode": "51458", "addr:state": "IA", "brand": "USPS", "brand:wikidata": "Q668687", "collection_times": "Mo-Fr 16:15; Sa 09:30", "name": "USPS COLLECTION BOX - PO LOBBY", "note": "ON 12/24 AND 12/31, THIS BOX MAY BE COLLECTED AS EARLY AS 12 NOON.", "ref": "5145800002"}, "type": "Feature"}
{"geometry": {"coordinates": [-94.6330009655, 42.041285011], "type": "Point"}, "id": "MPQFnaMyLNeyW-cLVdQsMil7r8U=", "properties": {"@spider": "usps_collection_boxes", "addr:city": "RALSTON", "addr:country": "US", "addr:full": "114 MAIN ST", "addr:postcode": "51459", "addr:state": "IA", "brand": "USPS", "brand:wikidata": "Q668687", "collection_times": "Mo-Sa 16:45", "name": "USPS COLLECTION BOX - BLUE BOX", "note": "ON 12/24 AND 12/31, THIS BOX MAY BE COLLECTED AS EARLY AS 12 NOON.", "ref": "5145900003"}, "type": "Feature"}
{"geometry": {"coordinates": [-95.57489643, 42.127767335], "type": "Point"}, "id": "vC6ZT6bvDbPGcumGcqBB8Lzp0Yw=", "properties": {"@spider": "usps_collection_boxes", "addr:city": "RICKETTS", "addr:country": "US", "addr:full": "40 MAPLE ST", "addr:postcode": "51460", "addr:state": "IA", "brand": "USPS", "brand:wikidata": "Q668687", "collection_times": "Mo-Fr 15:45; Sa 16:00", "name": "USPS COLLECTION BOX - BLUE BOX", "note": "ON 12/24 AND 12/31, THIS BOX MAY BE COLLECTED AS EARLY AS 12 NOON.", "ref": "5146000000"}, "type": "Feature"}
{"geometry": {"coordinates": [-95.5748919298, 42.1277673353], "type": "Point"}, "id": "C57IuYp6zGySygJ7nF1RkhlkZyk=", "properties": {"@spider": "usps_collection_boxes", "addr:city": "RICKETTS", "addr:country": "US", "addr:full": "40 MAPLE ST", "addr:postcode": "51460", "addr:state": "IA", "brand": "USPS", "brand:wikidata": "Q668687", "collection_times": "Mo-Fr 09:45", "name": "USPS COLLECTION BOX - PO LOBBY", "ref": "5146000001"}, "type": "Feature"}
{"geometry": {"coordinates": [-95.5748919298, 42.1277673353], "type": "Point"}, "id": "vT1YZpaXpzg_TsPU5AQlqfQbiwo=", "properties": {"@spider": "usps_collection_boxes", "addr:city": "RICKETTS", "addr:country": "US", "addr:full": "40 MAPLE ST", "addr:postcode": "51460", "addr:state": "IA", "brand": "USPS", "brand:wikidata": "Q668687", "collection_times": "Mo-Fr 15:00; Sa 13:00", "name": "USPS COLLECTION BOX - PO LOBBY", "note": "ON 12/24 AND 12/31, THIS BOX MAY BE COLLECTED AS EARLY AS 12 NOON.", "ref": "5146000002"}, "type": "Feature"}
{"geometry": {"coordinates": [-95.4364725, 42.165395453], "type": "Point"}, "id": "_a7aTfs615L8A2WQAOUUTSl8two=", "properties": {"@spider": "usps_collection_boxes", "addr:city": "SCHLESWIG", "addr:country": "US", "addr:full": "200 CEDAR ST", "addr:postcode": "51461", "addr:state": "IA", "brand": "USPS", "brand:wikidata": "Q668687", "collection_times": "Mo-Sa 16:00", "name": "USPS COLLECTION BOX - BLUE BOX", "note": "ON 12/24 AND 12/31, THIS BOX MAY BE COLLECTED AS EARLY AS 12 NOON.", "ref": "5146100000"}, "type": "Feature"}
{"geometry": {"coordinates": [-95.4364725, 42.165395453], "type": "Point"}, "id": "UZ3UB-OGak6yEaUq37O84kCGu5M=", "properties": {"@spider": "usps_collection_boxes", "addr:city": "SCHLESWIG", "addr:country": "US", "addr:full": "200 CEDAR ST", "addr:postcode": "51461", "addr:state": "IA", "brand": "USPS", "brand:wikidata": "Q668687", "collection_times": "Mo-Fr 14:15", "name": "USPS COLLECTION BOX - PO LOBBY", "note": "ON 12/24 AND 12/31, THIS BOX MAY BE COLLECTED AS EARLY AS 12 NOON.", "ref": "5146100001"}, "type": "Feature"}
{"geometry": {"coordinates": [-95.4364725, 42.165395453], "type": "Point"}, "id": "s1jgPYj9Jn4atny3B_uSYudpsG8=", "properties": {"@spider": "usps_collection_boxes", "addr:city": "SCHLESWIG", "addr:country": "US", "addr:full": "200 CEDAR ST", "addr:postcode": "51461", "addr:state": "IA", "brand": "USPS", "brand:wikidata": "Q668687", "collection_times": "Mo-Fr 14:30; Sa 09:30", "name": "USPS COLLECTION BOX - PO LOBBY", "note": "ON 12/24 AND 12/31, THIS BOX MAY BE COLLECTED AS EARLY AS 12 NOON.", "ref": "5146100002"}, "type": "Feature"}
{"geometry": {"coordinates": [-94.943067068, 41.918309329], "type": "Point"}, "id": "hQCTMTaAve80id2H3oqdnCbPa7E=", "properties": {"@spider": "usps_collection_boxes", "addr:city": "TEMPLETON", "addr:country": "US", "addr:full": "203 S MAIN ST", "addr:postcode": "51463", "addr:state": "IA", "brand": "USPS", "brand:wikidata": "Q668687", "collection_times": "Mo-Sa 17:15", "name": "USPS COLLECTION BOX - BLUE BOX", "note": "ON 12/24 AND 12/31, THIS BOX MAY BE COLLECTED AS EARLY AS 12 NOON.", "ref": "5146300000"}, "type": "Feature"}
{"geometry": {"coordinates": [-94.943067068, 41.918309329], "type": "Point"}, "id": "vvHjoTR6GskPLas8X2bEdcspAk0=", "properties": {"@spider": "usps_collection_boxes", "addr:city": "TEMPLETON", "addr:country": "US", "addr:full": "203 S MAIN ST", "addr:postcode": "51463", "addr:state": "IA", "brand": "USPS", "brand:wikidata": "Q668687", "collection_times": "Mo-Fr 15:15", "name": "USPS COLLECTION BOX - PO LOBBY", "note": "ON 12/24 AND 12/31, THIS BOX MAY BE COLLECTED AS EARLY AS 12 NOON.", "ref": "5146300001"}, "type": "Feature"}
{"geometry": {"coordinates": [-94.943067068, 41.918309329], "type": "Point"}, "id": "TgfkcRZd-fOATuHtcqn2IJkzhqI=", "properties": {"@spider": "usps_collection_boxes", "addr:city": "TEMPLETON", "addr:country": "US", "addr:full": "203 S MAIN ST", "addr:postcode": "51463", "addr:state": "IA", "brand": "USPS", "brand:wikidata": "Q668687", "collection_times": "Mo-Fr 15:30; Sa 09:00", "name": "USPS COLLECTION BOX - PO LOBBY", "note": "ON 12/24 AND 12/31, THIS BOX MAY BE COLLECTED AS EARLY AS 12 NOON.", "ref": "5146300002"}, "type": "Feature"}
{"geometry": {"coordinates": [-95.199639144, 42.05996453], "type": "Point"}, "id": "XG4fbo3nmml2te8jK---oAQ4U5o=", "properties": {"@spider": "usps_collection_boxes", "addr:city": "VAIL", "addr:country": "US", "addr:full": "117 HIGHWAY 30", "addr:postcode": "51465", "addr:state": "IA", "brand": "USPS", "brand:wikidata": "Q668687", "collection_times": "Mo-Fr 15:45; Sa 16:45", "name": "USPS COLLECTION BOX - BLUE BOX", "note": "ON 12/24 AND 12/31, THIS BOX MAY BE COLLECTED AS EARLY AS 12 NOON.", "ref": "5146500000"}, "type": "Feature"}
{"geometry": {"coordinates": [-95.199639144, 42.05996453], "type": "Point"}, "id": "A5rHP0ZHdPP4uyiY8-F4yv80zjY=", "properties": {"@spider": "usps_collection_boxes", "addr:city": "VAIL", "addr:country": "US", "addr:full": "117 HIGHWAY 30", "addr:postcode": "51465", "addr:state": "IA", "brand": "USPS", "brand:wikidata": "Q668687", "collection_times": "Mo-Fr 10:45", "name": "USPS COLLECTION BOX - PO LOBBY", "ref": "5146500001"}, "type": "Feature"}
{"geometry": {"coordinates": [-95.199639144, 42.05996453], "type": "Point"}, "id": "DbWWx0pOD8txNnuQsxhblcdRYrQ=", "properties": {"@spider": "usps_collection_boxes", "addr:city": "VAIL", "addr:country": "US", "addr:full": "117 HIGHWAY 30", "addr:postcode": "51465", "addr:state": "IA", "brand": "USPS", "brand:wikidata": "Q668687", "collection_times": "Mo-Fr 11:00; Sa 09:30", "name": "USPS COLLECTION BOX - PO LOBBY", "ref": "5146500002"}, "type": "Feature"}
{"geometry": {"coordinates": [-95.093522888, 42.269820155], "type": "Point"}, "id": "mr1cPu2VMoldKwvAt3m9vZNDbcs=", "properties": {"@spider": "usps_collection_boxes", "addr:city": "WALL LAKE", "addr:country": "US", "addr:full": "106 BOYER ST", "addr:postcode": "51466", "addr:state": "IA", "brand": "USPS", "brand:wikidata": "Q668687", "collection_times": "Mo-Fr 16:15; Sa 17:00", "name": "USPS COLLECTION BOX - BLUE BOX", "note": "ON 12/24 AND 12/31, THIS BOX MAY BE COLLECTED AS EARLY AS 12 NOON.", "ref": "5146600000"}, "type": "Feature"}
{"geometry": {"coordinates": [-95.093522888, 42.269820155], "type": "Point"}, "id": "5YqpprjF6vzsPCo12THzurvtIGk=", "properties": {"@spider": "usps_collection_boxes", "addr:city": "WALL LAKE", "addr:country": "US", "addr:full": "106 BOYER ST", "addr:postcode": "51466", "addr:state": "IA", "brand": "USPS", "brand:wikidata": "Q668687", "collection_times": "Mo-Fr 14:15", "name": "USPS COLLECTION BOX - PO LOBBY", "note": "ON 12/24 AND 12/31, THIS BOX MAY BE COLLECTED AS EARLY AS 12 NOON.", "ref": "5146600001"}, "type": "Feature"}
{"geometry": {"coordinates": [-95.093522888, 42.269820155], "type": "Point"}, "id": "nO5ZJjz_Fa3b42nb-twXt1CTDD4=", "properties": {"@spider": "usps_collection_boxes", "addr:city": "WALL LAKE", "addr:country": "US", "addr:full": "106 BOYER ST", "addr:postcode": "51466", "addr:state": "IA", "brand": "USPS", "brand:wikidata": "Q668687", "collection_times": "Mo-Fr 14:30; Sa 10:00", "name": "USPS COLLECTION BOX - PO LOBBY", "note": "ON 12/24 AND 12/31, THIS BOX MAY BE COLLECTED AS EARLY AS 12 NOON.", "ref": "5146600002"}, "type": "Feature"}
{"geometry": {"coordinates": [-95.098257486, 42.074837749], "type": "Point"}, "id": "WZczF0VYSlSbgfn3HzzhmvaXFf8=", "properties": {"@spider": "usps_collection_boxes", "addr:city": "WESTSIDE", "addr:country": "US", "addr:full": "130 MAIN ST", "addr:postcode": "51467", "addr:state": "IA", "brand": "USPS", "brand:wikidata": "Q668687", "collection_times": "Mo-Fr 16:00; Sa 16:30", "name": "USPS COLLECTION BOX - BLUE BOX", "note": "ON 12/24 AND 12/31, THIS BOX MAY BE COLLECTED AS EARLY AS 12 NOON.", "ref": "5146700000"}, "type": "Feature"}
{"geometry": {"coordinates": [-95.098257486, 42.074837749], "type": "Point"}, "id": "-F8rkQ0p2wUScvG9NDXt3ds5DjE=", "properties": {"@spider": "usps_collection_boxes", "addr:city": "WESTSIDE", "addr:country": "US", "addr:full": "130 MAIN ST", "addr:postcode": "51467", "addr:state": "IA", "brand": "USPS", "brand:wikidata": "Q668687", "collection_times": "Mo-Fr 11:15", "name": "USPS COLLECTION BOX - PO LOBBY", "ref": "5146700001"}, "type": "Feature"}
{"geometry": {"coordinates": [-95.098257486, 42.074837749], "type": "Point"}, "id": "q4LGxSVfKKC607sz5mUVssvNqCM=", "properties": {"@spider": "usps_collection_boxes", "addr:city": "WESTSIDE", "addr:country": "US", "addr:full": "130 MAIN ST", "addr:postcode": "51467", "addr:state": "IA", "brand": "USPS", "brand:wikidata": "Q668687", "collection_times": "Mo-Fr 11:30; Sa 10:00", "name": "USPS COLLECTION BOX - PO LOBBY", "ref": "5146700002"}, "type": "Feature"}
