{"geometry": {"coordinates": [-95.8524640258, 41.2573730067], "type": "Point"}, "id": "MQq4TtpBWSMN4HEW33HqxY5tW-M=", "properties": {"@source_uri": "https://tools.usps.com/UspsToolsRestServices/rest/POLocator/findLocations", "@spider": "usps_collection_boxes", "addr:city": "COUNCIL BLUFFS", "addr:country": "US", "addr:postcode": "51501", "addr:state": "IA", "addr:street_address": "227 S 6TH ST", "amenity": "post_box", "collection_times": "Mo-Sa 09:00", "nsi_id": "unitedstatespostalservice-a77078", "operator": "United States Postal Service", "operator:short": "USPS", "operator:type": "public", "operator:wikidata": "Q668687", "ref": "5150100006"}, "type": "Feature"}
{"geometry": {"coordinates": [-95.87213, 41.264105], "type": "Point"}, "id": "hWTXk694_CrQcypFBrklZIxjFDM=", "properties": {"@source_uri": "https://tools.usps.com/UspsToolsRestServices/rest/POLocator/findLocations", "@spider": "usps_collection_boxes", "addr:city": "COUNCIL BLUFFS", "addr:country": "US", "addr:postcode": "51501", "addr:state": "IA", "addr:street_address": "623 W BROADWAY", "amenity": "post_box", "collection_times": "Mo-Sa 09:30", "nsi_id": "unitedstatespostalservice-a77078", "operator": "United States Postal Service", "operator:short": "USPS", "operator:type": "public", "operator:wikidata": "Q668687", "ref": "5150100008"}, "type": "Feature"}
{"geometry": {"coordinates": [-95.9009209815, 41.2615140021], "type": "Point"}, "id": "g7Vbz-1-zBUpPU125F5O05sazMk=", "properties": {"@source_uri": "https://tools.usps.com/UspsToolsRestServices/rest/POLocator/findLocations", "@spider": "usps_collection_boxes", "addr:city": "COUNCIL BLUFFS", "addr:country": "US", "addr:postcode": "51501", "addr:state": "IA", "addr:street_address": "3435 W BROADWAY", "amenity": "post_box", "collection_times": "Mo-Sa 09:15", "nsi_id": "unitedstatespostalservice-a77078", "operator": "United States Postal Service", "operator:short": "USPS", "operator:type": "public", "operator:wikidata": "Q668687", "ref": "5150100016"}, "type": "Feature"}
{"geometry": {"coordinates": [-95.855030528, 41.246622525], "type": "Point"}, "id": "w-sACwa9mDWDRCi94xcG2389uuY=", "properties": {"@source_uri": "https://tools.usps.com/UspsToolsRestServices/rest/POLocator/findLocations", "@spider": "usps_collection_boxes", "addr:city": "COUNCIL BLUFFS", "addr:country": "US", "addr:postcode": "51501", "addr:state": "IA", "addr:street_address": "701 16TH AVE", "amenity": "post_box", "collection_times": "Mo-Sa 09:30", "nsi_id": "unitedstatespostalservice-a77078", "operator": "United States Postal Service", "operator:short": "USPS", "operator:type": "public", "operator:wikidata": "Q668687", "ref": "5150100020"}, "type": "Feature"}
{"geometry": {"coordinates": [-95.872118767, 41.227265024], "type": "Point"}, "id": "aY1NftPskicnCR7q8EGmbrq-4VI=", "properties": {"@source_uri": "https://tools.usps.com/UspsToolsRestServices/rest/POLocator/findLocations", "@spider": "usps_collection_boxes", "addr:city": "COUNCIL BLUFFS", "addr:country": "US", "addr:postcode": "51501", "addr:state": "IA", "addr:street_address": "3200 CHIPPEWA LN", "amenity": "post_box", "collection_times": "Mo-Sa 10:00", "nsi_id": "unitedstatespostalservice-a77078", "operator": "United States Postal Service", "operator:short": "USPS", "operator:type": "public", "operator:wikidata": "Q668687", "ref": "5150100026"}, "type": "Feature"}
{"geometry": {"coordinates": [-95.867497549, 41.279517], "type": "Point"}, "id": "C6VBK1QUka-5LLRljXJlVO2leyI=", "properties": {"@source_uri": "https://tools.usps.com/UspsToolsRestServices/rest/POLocator/findLocations", "@spider": "usps_collection_boxes", "addr:city": "COUNCIL BLUFFS", "addr:country": "US", "addr:postcode": "51501", "addr:state": "IA", "addr:street_address": "1800 N 16TH ST", "amenity": "post_box", "collection_times": "Mo-Sa 09:00", "nsi_id": "unitedstatespostalservice-a77078", "operator": "United States Postal Service", "operator:short": "USPS", "operator:type": "public", "operator:wikidata": "Q668687", "ref": "5150100032"}, "type": "Feature"}
{"geometry": {"coordinates": [-95.879115084, 41.236236021], "type": "Point"}, "id": "W0myEEBZC3FsIS0o38VsNqTrYdk=", "properties": {"@source_uri": "https://tools.usps.com/UspsToolsRestServices/rest/POLocator/findLocations", "@spider": "usps_collection_boxes", "addr:city": "COUNCIL BLUFFS", "addr:country": "US", "addr:postcode": "51501", "addr:state": "IA", "addr:street_address": "2647 S 24TH ST", "amenity": "post_box", "collection_times": "Mo-Sa 14:00", "note": "ON 12/24 AND 12/31, THIS BOX MAY BE COLLECTED AS EARLY AS 12 NOON.", "nsi_id": "unitedstatespostalservice-a77078", "operator": "United States Postal Service", "operator:short": "USPS", "operator:type": "public", "operator:wikidata": "Q668687", "ref": "5150100036"}, "type": "Feature"}
{"geometry": {"coordinates": [-95.88312, 41.261985471], "type": "Point"}, "id": "EJT0DSVCw7BVmLnIG54-J9wAqME=", "properties": {"@source_uri": "https://tools.usps.com/UspsToolsRestServices/rest/POLocator/findLocations", "@spider": "usps_collection_boxes", "addr:city": "COUNCIL BLUFFS", "addr:country": "US", "addr:postcode": "51501", "addr:state": "IA", "addr:street_address": "2508 W BROADWAY", "amenity": "post_box", "collection_times": "Mo-Sa 10:00", "nsi_id": "unitedstatespostalservice-a77078", "operator": "United States Postal Service", "operator:short": "USPS", "operator:type": "public", "operator:wikidata": "Q668687", "ref": "5150100047"}, "type": "Feature"}
{"geometry": {"coordinates": [-95.847453991, 41.228171916], "type": "Point"}, "id": "4xIm7kHoeSiV3Zr89s3g_TFCx2I=", "properties": {"@source_uri": "https://tools.usps.com/UspsToolsRestServices/rest/POLocator/findLocations", "@spider": "usps_collection_boxes", "addr:city": "COUNCIL BLUFFS", "addr:country": "US", "addr:postcode": "51501", "addr:state": "IA", "addr:street_address": "3201 MANAWA CENTRE DR", "amenity": "post_box", "collection_times": "Mo-Sa 10:00", "nsi_id": "unitedstatespostalservice-a77078", "operator": "United States Postal Service", "operator:short": "USPS", "operator:type": "public", "operator:wikidata": "Q668687", "ref": "5150100049"}, "type": "Feature"}
{"geometry": {"coordinates": [-95.852137229, 41.260878701], "type": "Point"}, "id": "FfqNUQq6iiBekloze2QvnuJV8IA=", "properties": {"@source_uri": "https://tools.usps.com/UspsToolsRestServices/rest/POLocator/findLocations", "@spider": "usps_collection_boxes", "addr:city": "COUNCIL BLUFFS", "addr:country": "US", "addr:postcode": "51501", "addr:state": "IA", "addr:street_address": "8 S 6TH ST", "amenity": "post_box", "collection_times": "Mo-Sa 17:00", "note": "ON 12/24 AND 12/31, THIS BOX MAY BE COLLECTED AS EARLY AS 12 NOON.", "nsi_id": "unitedstatespostalservice-a77078", "operator": "United States Postal Service", "operator:short": "USPS", "operator:type": "public", "operator:wikidata": "Q668687", "ref": "5150100050"}, "type": "Feature"}
{"geometry": {"coordinates": [-95.879544055, 41.261894491], "type": "Point"}, "id": "ScPC8_RwNcyuB_prgJsUsNzywh4=", "properties": {"@source_uri": "https://tools.usps.com/UspsToolsRestServices/rest/POLocator/findLocations", "@spider": "usps_collection_boxes", "addr:city": "COUNCIL BLUFFS", "addr:country": "US", "addr:postcode": "51501", "addr:state": "IA", "addr:street_address": "2323 W BROADWAY", "amenity": "post_box", "collection_times": "Mo-Fr 17:00; Sa 15:15", "indoor": "yes", "note": "ON 12/24 AND 12/31, THIS BOX MAY BE COLLECTED AS EARLY AS 12 NOON.", "nsi_id": "unitedstatespostalservice-a77078", "operator": "United States Postal Service", "operator:short": "USPS", "operator:type": "public", "operator:wikidata": "Q668687", "ref": "5150100055"}, "type": "Feature"}
{"geometry": {"coordinates": [-95.9050720352, 41.2534250045], "type": "Point"}, "id": "vK7R9vTwI-cseOl6T50QFshQoHc=", "properties": {"@source_uri": "https://tools.usps.com/UspsToolsRestServices/rest/POLocator/findLocations", "@spider": "usps_collection_boxes", "addr:city": "COUNCIL BLUFFS", "addr:country": "US", "addr:postcode": "51501", "addr:state": "IA", "addr:street_address": "3607 9TH AVE", "amenity": "post_box", "collection_times": "Mo-Sa 11:00", "nsi_id": "unitedstatespostalservice-a77078", "operator": "United States Postal Service", "operator:short": "USPS", "operator:type": "public", "operator:wikidata": "Q668687", "ref": "5150100056"}, "type": "Feature"}
{"geometry": {"coordinates": [-95.851085638, 41.258089645], "type": "Point"}, "id": "rhdWZ5oDjAbQpMorSq6-0JhOtuk=", "properties": {"@source_uri": "https://tools.usps.com/UspsToolsRestServices/rest/POLocator/findLocations", "@spider": "usps_collection_boxes", "addr:city": "COUNCIL BLUFFS", "addr:country": "US", "addr:postcode": "51503", "addr:state": "IA", "addr:street_address": "209 PEARL ST", "amenity": "post_box", "collection_times": "Mo-Sa 09:15", "nsi_id": "unitedstatespostalservice-a77078", "operator": "United States Postal Service", "operator:short": "USPS", "operator:type": "public", "operator:wikidata": "Q668687", "ref": "5150300005"}, "type": "Feature"}
{"geometry": {"coordinates": [-95.850708739, 41.257264401], "type": "Point"}, "id": "mQvNUkEGsqcEwLa56CtjxPJZV8A=", "properties": {"@source_uri": "https://tools.usps.com/UspsToolsRestServices/rest/POLocator/findLocations", "@spider": "usps_collection_boxes", "addr:city": "COUNCIL BLUFFS", "addr:country": "US", "addr:postcode": "51503", "addr:state": "IA", "addr:street_address": "229 S MAIN ST", "amenity": "post_box", "collection_times": "Mo-Sa 09:15", "nsi_id": "unitedstatespostalservice-a77078", "operator": "United States Postal Service", "operator:short": "USPS", "operator:type": "public", "operator:wikidata": "Q668687", "ref": "5150300006"}, "type": "Feature"}
{"geometry": {"coordinates": [-95.850738901, 41.258422256], "type": "Point"}, "id": "Z2kImk6tNvZh_-BpfzqTMtxd3kY=", "properties": {"@source_uri": "https://tools.usps.com/UspsToolsRestServices/rest/POLocator/findLocations", "@spider": "usps_collection_boxes", "addr:city": "COUNCIL BLUFFS", "addr:country": "US", "addr:postcode": "51503", "addr:state": "IA", "addr:street_address": "500 WILLOW AVE", "amenity": "post_box", "collection_times": "Mo-Sa 09:15", "nsi_id": "unitedstatespostalservice-a77078", "operator": "United States Postal Service", "operator:short": "USPS", "operator:type": "public", "operator:wikidata": "Q668687", "ref": "5150300008"}, "type": "Feature"}
{"geometry": {"coordinates": [-95.840641877, 41.266650837], "type": "Point"}, "id": "hXdKPG_ryr_0fDJbZhFw_vYiozk=", "properties": {"@source_uri": "https://tools.usps.com/UspsToolsRestServices/rest/POLocator/findLocations", "@spider": "usps_collection_boxes", "addr:city": "COUNCIL BLUFFS", "addr:country": "US", "addr:postcode": "51503", "addr:state": "IA", "addr:street_address": "427 E KANESVILLE BLVD", "amenity": "post_box", "collection_times": "Mo-Sa 09:30", "nsi_id": "unitedstatespostalservice-a77078", "operator": "United States Postal Service", "operator:short": "USPS", "operator:type": "public", "operator:wikidata": "Q668687", "ref": "5150300012"}, "type": "Feature"}
{"geometry": {"coordinates": [-95.849569454, 41.261386872], "type": "Point"}, "id": "37UPg50aXcry_Jm1bYcz7AHa8aM=", "properties": {"@source_uri": "https://tools.usps.com/UspsToolsRestServices/rest/POLocator/findLocations", "@spider": "usps_collection_boxes", "addr:city": "COUNCIL BLUFFS", "addr:country": "US", "addr:postcode": "51503", "addr:state": "IA", "addr:street_address": "25 MAIN PL", "amenity": "post_box", "collection_times": "Mo-Sa 09:15", "nsi_id": "unitedstatespostalservice-a77078", "operator": "United States Postal Service", "operator:short": "USPS", "operator:type": "public", "operator:wikidata": "Q668687", "ref": "5150300018"}, "type": "Feature"}
{"geometry": {"coordinates": [-95.836207554, 41.26831507], "type": "Point"}, "id": "e_UX4bv5PemuDa-v3_yr1KlQNK0=", "properties": {"@source_uri": "https://tools.usps.com/UspsToolsRestServices/rest/POLocator/findLocations", "@spider": "usps_collection_boxes", "addr:city": "COUNCIL BLUFFS", "addr:country": "US", "addr:postcode": "51503", "addr:state": "IA", "addr:street_address": "201 RIDGE ST", "amenity": "post_box", "collection_times": "Mo-Sa 09:00", "nsi_id": "unitedstatespostalservice-a77078", "operator": "United States Postal Service", "operator:short": "USPS", "operator:type": "public", "operator:wikidata": "Q668687", "ref": "5150300020"}, "type": "Feature"}
{"geometry": {"coordinates": [-95.841240858, 41.266358173], "type": "Point"}, "id": "r0st6ZS9b9eoExNvCoYxIYS3Rc8=", "properties": {"@source_uri": "https://tools.usps.com/UspsToolsRestServices/rest/POLocator/findLocations", "@spider": "usps_collection_boxes", "addr:city": "COUNCIL BLUFFS", "addr:country": "US", "addr:postcode": "51503", "addr:state": "IA", "addr:street_address": "417 E KANESVILLE BLVD", "amenity": "post_box", "collection_times": "Mo-Sa 09:45", "nsi_id": "unitedstatespostalservice-a77078", "operator": "United States Postal Service", "operator:short": "USPS", "operator:type": "public", "operator:wikidata": "Q668687", "ref": "5150300026"}, "type": "Feature"}
{"geometry": {"coordinates": [-95.809559822, 41.279272897], "type": "Point"}, "id": "xrbFZV5ofzZUZZNmcZLS3k4yPb8=", "properties": {"@source_uri": "https://tools.usps.com/UspsToolsRestServices/rest/POLocator/findLocations", "@spider": "usps_collection_boxes", "addr:city": "COUNCIL BLUFFS", "addr:country": "US", "addr:postcode": "51503", "addr:state": "IA", "addr:street_address": "2731 E KANESVILLE BLVD", "amenity": "post_box", "collection_times": "Mo-Sa 09:00", "nsi_id": "unitedstatespostalservice-a77078", "operator": "United States Postal Service", "operator:short": "USPS", "operator:type": "public", "operator:wikidata": "Q668687", "ref": "5150300027"}, "type": "Feature"}
{"geometry": {"coordinates": [-95.818755032, 41.243874695], "type": "Point"}, "id": "afbGbd7vn1-vBzczcH8lVonVt-M=", "properties": {"@source_uri": "https://tools.usps.com/UspsToolsRestServices/rest/POLocator/findLocations", "@spider": "usps_collection_boxes", "addr:city": "COUNCIL BLUFFS", "addr:country": "US", "addr:postcode": "51503", "addr:state": "IA", "addr:street_address": "1801 VALLEY VIEW DR", "amenity": "post_box", "collection_times": "Mo-Sa 10:00", "nsi_id": "unitedstatespostalservice-a77078", "operator": "United States Postal Service", "operator:short": "USPS", "operator:type": "public", "operator:wikidata": "Q668687", "ref": "5150300030"}, "type": "Feature"}
{"geometry": {"coordinates": [-95.836516992, 41.270817186], "type": "Point"}, "id": "eSz3eW_7UXPJ4ux2-BwA1hBy4BQ=", "properties": {"@source_uri": "https://tools.usps.com/UspsToolsRestServices/rest/POLocator/findLocations", "@spider": "usps_collection_boxes", "addr:city": "COUNCIL BLUFFS", "addr:country": "US", "addr:postcode": "51503", "addr:state": "IA", "addr:street_address": "1141 N BROADWAY", "amenity": "post_box", "collection_times": "Mo-Sa 14:00", "note": "ON 12/24 AND 12/31, THIS BOX MAY BE COLLECTED AS EARLY AS 12 NOON.", "nsi_id": "unitedstatespostalservice-a77078", "operator": "United States Postal Service", "operator:short": "USPS", "operator:type": "public", "operator:wikidata": "Q668687", "ref": "5150300032"}, "type": "Feature"}
{"geometry": {"coordinates": [-95.817958866, 41.220488021], "type": "Point"}, "id": "gkf8wgNtTBM1e3J-6wa8gAVA7DQ=", "properties": {"@source_uri": "https://tools.usps.com/UspsToolsRestServices/rest/POLocator/findLocations", "@spider": "usps_collection_boxes", "addr:city": "COUNCIL BLUFFS", "addr:country": "US", "addr:postcode": "51503", "addr:state": "IA", "addr:street_address": "14151 WABASH AVE", "amenity": "post_box", "collection_times": "Mo-Sa 09:00", "nsi_id": "unitedstatespostalservice-a77078", "operator": "United States Postal Service", "operator:short": "USPS", "operator:type": "public", "operator:wikidata": "Q668687", "ref": "5150300035"}, "type": "Feature"}
{"geometry": {"coordinates": [-95.844655, 41.262055], "type": "Point"}, "id": "rtMe0jkV70sMhMNo7EtSCBc8ldk=", "properties": {"@source_uri": "https://tools.usps.com/UspsToolsRestServices/rest/POLocator/findLocations", "@spider": "usps_collection_boxes", "addr:city": "COUNCIL BLUFFS", "addr:country": "US", "addr:postcode": "51503", "addr:state": "IA", "addr:street_address": "19900 VIRGINIA HILLS RD", "amenity": "post_box", "collection_times": "Mo-Sa 11:00", "nsi_id": "unitedstatespostalservice-a77078", "operator": "United States Postal Service", "operator:short": "USPS", "operator:type": "public", "operator:wikidata": "Q668687", "ref": "5150300042"}, "type": "Feature"}
{"geometry": {"coordinates": [-95.84948382, 41.26079458], "type": "Point"}, "id": "4OVgrf201jY0loH7ndlQfbDgU6I=", "properties": {"@source_uri": "https://tools.usps.com/UspsToolsRestServices/rest/POLocator/findLocations", "@spider": "usps_collection_boxes", "addr:city": "COUNCIL BLUFFS", "addr:country": "US", "addr:postcode": "51503", "addr:state": "IA", "addr:street_address": "421 W BROADWAY", "amenity": "post_box", "collection_times": "Mo-Sa 09:15", "nsi_id": "unitedstatespostalservice-a77078", "operator": "United States Postal Service", "operator:short": "USPS", "operator:type": "public", "operator:wikidata": "Q668687", "ref": "5150300043"}, "type": "Feature"}
{"geometry": {"coordinates": [-95.847876, 41.262012], "type": "Point"}, "id": "nMEyJ2XWirmy8X3WYblXw2jOUSE=", "properties": {"@source_uri": "https://tools.usps.com/UspsToolsRestServices/rest/POLocator/findLocations", "@spider": "usps_collection_boxes", "addr:city": "COUNCIL BLUFFS", "addr:country": "US", "addr:postcode": "51503", "addr:state": "IA", "addr:street_address": "300 W BROADWAY", "amenity": "post_box", "collection_times": "Mo-Sa 09:00", "nsi_id": "unitedstatespostalservice-a77078", "operator": "United States Postal Service", "operator:short": "USPS", "operator:type": "public", "operator:wikidata": "Q668687", "ref": "5150300047"}, "type": "Feature"}
{"geometry": {"coordinates": [-95.83983102, 41.265977995], "type": "Point"}, "id": "zo3ws16Hwiv8J8q1DxWBrUqxMUQ=", "properties": {"@source_uri": "https://tools.usps.com/UspsToolsRestServices/rest/POLocator/findLocations", "@spider": "usps_collection_boxes", "addr:city": "COUNCIL BLUFFS", "addr:country": "US", "addr:postcode": "51503", "addr:state": "IA", "addr:street_address": "535 E BROADWAY", "amenity": "post_box", "collection_times": "Mo-Sa 09:30", "nsi_id": "unitedstatespostalservice-a77078", "operator": "United States Postal Service", "operator:short": "USPS", "operator:type": "public", "operator:wikidata": "Q668687", "ref": "5150300048"}, "type": "Feature"}
{"geometry": {"coordinates": [-95.817977873, 41.280059022], "type": "Point"}, "id": "iT8bQ-S2-VVOJm8vHx4N2UkeX-o=", "properties": {"@source_uri": "https://tools.usps.com/UspsToolsRestServices/rest/POLocator/findLocations", "@spider": "usps_collection_boxes", "addr:city": "COUNCIL BLUFFS", "addr:country": "US", "addr:postcode": "51503", "addr:state": "IA", "addr:street_address": "310 MCKENZIE AVE", "amenity": "post_box", "collection_times": "Mo-Sa 14:00", "note": "ON 12/24 AND 12/31, THIS BOX MAY BE COLLECTED AS EARLY AS 12 NOON.", "nsi_id": "unitedstatespostalservice-a77078", "operator": "United States Postal Service", "operator:short": "USPS", "operator:type": "public", "operator:wikidata": "Q668687", "ref": "5150300055"}, "type": "Feature"}
{"geometry": {"coordinates": [-95.835241869, 41.237210407], "type": "Point"}, "id": "MvP0Z2hULLaa72EAHtphrJa_PG4=", "properties": {"@source_uri": "https://tools.usps.com/UspsToolsRestServices/rest/POLocator/findLocations", "@spider": "usps_collection_boxes", "addr:city": "COUNCIL BLUFFS", "addr:country": "US", "addr:postcode": "51503", "addr:state": "IA", "addr:street_address": "105 LANDMARK DR", "amenity": "post_box", "collection_times": "Mo-Sa 09:00", "nsi_id": "unitedstatespostalservice-a77078", "operator": "United States Postal Service", "operator:short": "USPS", "operator:type": "public", "operator:wikidata": "Q668687", "ref": "5150300056"}, "type": "Feature"}
{"geometry": {"coordinates": [-95.819814394, 41.248014882], "type": "Point"}, "id": "Waiuq3TQhUVcj9mQWRafUOLc8vM=", "properties": {"@source_uri": "https://tools.usps.com/UspsToolsRestServices/rest/POLocator/findLocations", "@spider": "usps_collection_boxes", "addr:city": "COUNCIL BLUFFS", "addr:country": "US", "addr:postcode": "51503", "addr:state": "IA", "addr:street_address": "1441 MALL DR", "amenity": "post_box", "collection_times": "Mo-Sa 17:00", "indoor": "yes", "note": "ON 12/24 AND 12/31, THIS BOX MAY BE COLLECTED AS EARLY AS 12 NOON.", "nsi_id": "unitedstatespostalservice-a77078", "operator": "United States Postal Service", "operator:short": "USPS", "operator:type": "public", "operator:wikidata": "Q668687", "ref": "5150300057"}, "type": "Feature"}
{"geometry": {"coordinates": [-95.819814394, 41.248014882], "type": "Point"}, "id": "uk6vWmtiuMq9FhfiIunJ-vRJDj8=", "properties": {"@source_uri": "https://tools.usps.com/UspsToolsRestServices/rest/POLocator/findLocations", "@spider": "usps_collection_boxes", "addr:city": "COUNCIL BLUFFS", "addr:country": "US", "addr:postcode": "51503", "addr:state": "IA", "addr:street_address": "1441 MALL DR", "amenity": "post_box", "collection_times": "Mo-Sa 17:00", "indoor": "yes", "note": "ON 12/24 AND 12/31, THIS BOX MAY BE COLLECTED AS EARLY AS 12 NOON.", "nsi_id": "unitedstatespostalservice-a77078", "operator": "United States Postal Service", "operator:short": "USPS", "operator:type": "public", "operator:wikidata": "Q668687", "ref": "5150300058"}, "type": "Feature"}
{"geometry": {"coordinates": [-95.819814394, 41.248014882], "type": "Point"}, "id": "ZvuYuvvzD1zLXhSGLd3l2STdcnw=", "properties": {"@source_uri": "https://tools.usps.com/UspsToolsRestServices/rest/POLocator/findLocations", "@spider": "usps_collection_boxes", "addr:city": "COUNCIL BLUFFS", "addr:country": "US", "addr:postcode": "51503", "addr:state": "IA", "addr:street_address": "1441 MALL DR", "amenity": "post_box", "collection_times": "Mo-Sa 17:00", "note": "ON 12/24 AND 12/31, THIS BOX MAY BE COLLECTED AS EARLY AS 12 NOON.", "nsi_id": "unitedstatespostalservice-a77078", "operator": "United States Postal Service", "operator:short": "USPS", "operator:type": "public", "operator:wikidata": "Q668687", "ref": "5150300059"}, "type": "Feature"}
{"geometry": {"coordinates": [-95.819814394, 41.248014882], "type": "Point"}, "id": "OF4bhpT5I0R8OuEAljGeHCyTsbg=", "properties": {"@source_uri": "https://tools.usps.com/UspsToolsRestServices/rest/POLocator/findLocations", "@spider": "usps_collection_boxes", "addr:city": "COUNCIL BLUFFS", "addr:country": "US", "addr:postcode": "51503", "addr:state": "IA", "addr:street_address": "1441 MALL DR", "amenity": "post_box", "collection_times": "Mo-Fr 17:00; Sa 12:00", "indoor": "yes", "note": "ON 12/24 AND 12/31, THIS BOX MAY BE COLLECTED AS EARLY AS 12 NOON.", "nsi_id": "unitedstatespostalservice-a77078", "operator": "United States Postal Service", "operator:short": "USPS", "operator:type": "public", "operator:wikidata": "Q668687", "ref": "5150300060"}, "type": "Feature"}
{"geometry": {"coordinates": [-95.927867799, 41.260189814], "type": "Point"}, "id": "H9y4NDHisz94_fRoghZQTLVAwSA=", "properties": {"@source_uri": "https://tools.usps.com/UspsToolsRestServices/rest/POLocator/findLocations", "@spider": "usps_collection_boxes", "addr:city": "OMAHA", "addr:country": "US", "addr:postcode": "51510", "addr:state": "NE", "addr:street_address": "2810 N 9TH ST", "amenity": "post_box", "collection_times": "Mo-Sa 09:30", "nsi_id": "unitedstatespostalservice-a77078", "operator": "United States Postal Service", "operator:short": "USPS", "operator:type": "public", "operator:wikidata": "Q668687", "ref": "5151000001"}, "type": "Feature"}
{"geometry": {"coordinates": [-95.938571015, 41.285108368], "type": "Point"}, "id": "mKokARuPkj2REFgsauMOlPU_Kp8=", "properties": {"@source_uri": "https://tools.usps.com/UspsToolsRestServices/rest/POLocator/findLocations", "@spider": "usps_collection_boxes", "addr:city": "OMAHA", "addr:country": "US", "addr:postcode": "51510", "addr:state": "NE", "addr:street_address": "950 LOCUST ST", "amenity": "post_box", "collection_times": "Mo-Fr 12:00; Sa 13:00", "note": "ON 12/24 AND 12/31, THIS BOX MAY BE COLLECTED AS EARLY AS 12 NOON.", "nsi_id": "unitedstatespostalservice-a77078", "operator": "United States Postal Service", "operator:short": "USPS", "operator:type": "public", "operator:wikidata": "Q668687", "ref": "5151000002"}, "type": "Feature"}
{"geometry": {"coordinates": [-95.339438673, 41.477769754], "type": "Point"}, "id": "vyyvvFsQWBkSoO0XuOtIo2StqBY=", "properties": {"@source_uri": "https://tools.usps.com/UspsToolsRestServices/rest/POLocator/findLocations", "@spider": "usps_collection_boxes", "addr:city": "AVOCA", "addr:country": "US", "addr:postcode": "51521", "addr:state": "IA", "addr:street_address": "202 N ELM ST", "amenity": "post_box", "collection_times": "Mo-Fr 15:45; Sa 09:00", "note": "ON 12/24 AND 12/31, THIS BOX MAY BE COLLECTED AS EARLY AS 12 NOON.", "nsi_id": "unitedstatespostalservice-a77078", "operator": "United States Postal Service", "operator:short": "USPS", "operator:type": "public", "operator:wikidata": "Q668687", "ref": "5152100001"}, "type": "Feature"}
{"geometry": {"coordinates": [-95.339438673, 41.477769754], "type": "Point"}, "id": "ca_iM-q-SDFlT0impBL7nQB41VE=", "properties": {"@source_uri": "https://tools.usps.com/UspsToolsRestServices/rest/POLocator/findLocations", "@spider": "usps_collection_boxes", "addr:city": "AVOCA", "addr:country": "US", "addr:postcode": "51521", "addr:state": "IA", "addr:street_address": "202 N ELM ST", "amenity": "post_box", "collection_times": "Mo-Fr 16:00; Sa 09:00", "indoor": "yes", "note": "ON 12/24 AND 12/31, THIS BOX MAY BE COLLECTED AS EARLY AS 12 NOON.", "nsi_id": "unitedstatespostalservice-a77078", "operator": "United States Postal Service", "operator:short": "USPS", "operator:type": "public", "operator:wikidata": "Q668687", "ref": "5152100002"}, "type": "Feature"}
{"geometry": {"coordinates": [-95.339438673, 41.477769754], "type": "Point"}, "id": "Q8mjxE3udJ97Hp_f-Qvgi8LkT7M=", "properties": {"@source_uri": "https://tools.usps.com/UspsToolsRestServices/rest/POLocator/findLocations", "@spider": "usps_collection_boxes", "addr:city": "AVOCA", "addr:country": "US", "addr:postcode": "51521", "addr:state": "IA", "addr:street_address": "202 N ELM ST", "amenity": "post_box", "collection_times": "Mo-Fr 16:00; Sa 09:00", "indoor": "yes", "note": "ON 12/24 AND 12/31, THIS BOX MAY BE COLLECTED AS EARLY AS 12 NOON.", "nsi_id": "unitedstatespostalservice-a77078", "operator": "United States Postal Service", "operator:short": "USPS", "operator:type": "public", "operator:wikidata": "Q668687", "ref": "5152100005"}, "type": "Feature"}
{"geometry": {"coordinates": [-96.0892842, 41.9160174], "type": "Point"}, "id": "R839YO10CCqZ5aA1rDVESvNUKuY=", "properties": {"@source_uri": "https://tools.usps.com/UspsToolsRestServices/rest/POLocator/findLocations", "@spider": "usps_collection_boxes", "addr:city": "BLENCOE", "addr:country": "US", "addr:postcode": "51523", "addr:state": "IA", "addr:street_address": "412 MAIN ST", "amenity": "post_box", "collection_times": "Mo-Fr 14:45; Sa 12:30", "indoor": "yes", "note": "ON 12/24 AND 12/31, THIS BOX MAY BE COLLECTED AS EARLY AS 12 NOON.", "nsi_id": "unitedstatespostalservice-a77078", "operator": "United States Postal Service", "operator:short": "USPS", "operator:type": "public", "operator:wikidata": "Q668687", "ref": "5152300003"}, "type": "Feature"}
{"geometry": {"coordinates": [-96.081352889, 41.93034054], "type": "Point"}, "id": "TiRjU90ON_yCR0J-G-6IaZtz_3o=", "properties": {"@source_uri": "https://tools.usps.com/UspsToolsRestServices/rest/POLocator/findLocations", "@spider": "usps_collection_boxes", "addr:city": "BLENCOE", "addr:country": "US", "addr:postcode": "51523", "addr:state": "IA", "addr:street_address": "412 MAIN ST", "amenity": "post_box", "collection_times": "Mo-Fr 15:00; Sa 12:45", "indoor": "yes", "note": "ON 12/24 AND 12/31, THIS BOX MAY BE COLLECTED AS EARLY AS 12 NOON.", "nsi_id": "unitedstatespostalservice-a77078", "operator": "United States Postal Service", "operator:short": "USPS", "operator:type": "public", "operator:wikidata": "Q668687", "ref": "5152300004"}, "type": "Feature"}
{"geometry": {"coordinates": [-96.081352889, 41.93034054], "type": "Point"}, "id": "nQDhasV6F5n5AnzaaucRYRCzKX4=", "properties": {"@source_uri": "https://tools.usps.com/UspsToolsRestServices/rest/POLocator/findLocations", "@spider": "usps_collection_boxes", "addr:city": "BLENCOE", "addr:country": "US", "addr:postcode": "51523", "addr:state": "IA", "addr:street_address": "412 MAIN ST", "amenity": "post_box", "collection_times": "Mo-Fr 15:00; Sa 12:45", "indoor": "yes", "note": "ON 12/24 AND 12/31, THIS BOX MAY BE COLLECTED AS EARLY AS 12 NOON.", "nsi_id": "unitedstatespostalservice-a77078", "operator": "United States Postal Service", "operator:short": "USPS", "operator:type": "public", "operator:wikidata": "Q668687", "ref": "5152300005"}, "type": "Feature"}
{"geometry": {"coordinates": [-95.421870168, 41.236408478], "type": "Point"}, "id": "zFVovagTISZ3ax2b-8HhQlCsRNM=", "properties": {"@source_uri": "https://tools.usps.com/UspsToolsRestServices/rest/POLocator/findLocations", "@spider": "usps_collection_boxes", "addr:city": "CARSON", "addr:country": "US", "addr:postcode": "51525", "addr:state": "IA", "addr:street_address": "115 BROADWAY ST", "amenity": "post_box", "collection_times": "Mo-Fr 14:15; Sa 09:45", "note": "ON 12/24 AND 12/31, THIS BOX MAY BE COLLECTED AS EARLY AS 12 NOON.", "nsi_id": "unitedstatespostalservice-a77078", "operator": "United States Postal Service", "operator:short": "USPS", "operator:type": "public", "operator:wikidata": "Q668687", "ref": "5152500001"}, "type": "Feature"}
{"geometry": {"coordinates": [-95.421870168, 41.236408478], "type": "Point"}, "id": "eH9eefsf9xSDOaW3xRAN4chf9Fs=", "properties": {"@source_uri": "https://tools.usps.com/UspsToolsRestServices/rest/POLocator/findLocations", "@spider": "usps_collection_boxes", "addr:city": "CARSON", "addr:country": "US", "addr:postcode": "51525", "addr:state": "IA", "addr:street_address": "115 BROADWAY ST", "amenity": "post_box", "collection_times": "Mo-Fr 14:30; Sa 10:00", "indoor": "yes", "note": "ON 12/24 AND 12/31, THIS BOX MAY BE COLLECTED AS EARLY AS 12 NOON.", "nsi_id": "unitedstatespostalservice-a77078", "operator": "United States Postal Service", "operator:short": "USPS", "operator:type": "public", "operator:wikidata": "Q668687", "ref": "5152500002"}, "type": "Feature"}
{"geometry": {"coordinates": [-95.421870168, 41.236408478], "type": "Point"}, "id": "5SI9yOrZtjxlOfTyHwGOjYLP9NY=", "properties": {"@source_uri": "https://tools.usps.com/UspsToolsRestServices/rest/POLocator/findLocations", "@spider": "usps_collection_boxes", "addr:city": "CARSON", "addr:country": "US", "addr:postcode": "51525", "addr:state": "IA", "addr:street_address": "115 BROADWAY ST", "amenity": "post_box", "collection_times": "Mo-Fr 14:30; Sa 10:00", "indoor": "yes", "note": "ON 12/24 AND 12/31, THIS BOX MAY BE COLLECTED AS EARLY AS 12 NOON.", "nsi_id": "unitedstatespostalservice-a77078", "operator": "United States Postal Service", "operator:short": "USPS", "operator:type": "public", "operator:wikidata": "Q668687", "ref": "5152500004"}, "type": "Feature"}
{"geometry": {"coordinates": [-95.858358619, 41.364234], "type": "Point"}, "id": "eqWZgHFbQXk7vKptEmPsKGVg2yM=", "properties": {"@source_uri": "https://tools.usps.com/UspsToolsRestServices/rest/POLocator/findLocations", "@spider": "usps_collection_boxes", "addr:city": "CRESCENT", "addr:country": "US", "addr:postcode": "51526", "addr:state": "IA", "addr:street_address": "718 OLD LINCOLN HWY", "amenity": "post_box", "collection_times": "Mo-Fr 16:30; Sa 17:55", "note": "ON 12/24 AND 12/31, THIS BOX MAY BE COLLECTED AS EARLY AS 12 NOON.", "nsi_id": "unitedstatespostalservice-a77078", "operator": "United States Postal Service", "operator:short": "USPS", "operator:type": "public", "operator:wikidata": "Q668687", "ref": "5152600001"}, "type": "Feature"}
{"geometry": {"coordinates": [-95.858358619, 41.364234], "type": "Point"}, "id": "R4WM9L-PXek-cvVX69a8Q086dYs=", "properties": {"@source_uri": "https://tools.usps.com/UspsToolsRestServices/rest/POLocator/findLocations", "@spider": "usps_collection_boxes", "addr:city": "CRESCENT", "addr:country": "US", "addr:postcode": "51526", "addr:state": "IA", "addr:street_address": "718 OLD LINCOLN HWY", "amenity": "post_box", "collection_times": "Mo-Fr 16:30; Sa 09:00", "indoor": "yes", "note": "ON 12/24 AND 12/31, THIS BOX MAY BE COLLECTED AS EARLY AS 12 NOON.", "nsi_id": "unitedstatespostalservice-a77078", "operator": "United States Postal Service", "operator:short": "USPS", "operator:type": "public", "operator:wikidata": "Q668687", "ref": "5152600002"}, "type": "Feature"}
{"geometry": {"coordinates": [-95.858358619, 41.364234], "type": "Point"}, "id": "5TJDeoTer87RGRMdM0Hois9AqMg=", "properties": {"@source_uri": "https://tools.usps.com/UspsToolsRestServices/rest/POLocator/findLocations", "@spider": "usps_collection_boxes", "addr:city": "CRESCENT", "addr:country": "US", "addr:postcode": "51526", "addr:state": "IA", "addr:street_address": "718 OLD LINCOLN HWY", "amenity": "post_box", "collection_times": "Mo-Fr 16:30; Sa 09:00", "indoor": "yes", "note": "ON 12/24 AND 12/31, THIS BOX MAY BE COLLECTED AS EARLY AS 12 NOON.", "nsi_id": "unitedstatespostalservice-a77078", "operator": "United States Postal Service", "operator:short": "USPS", "operator:type": "public", "operator:wikidata": "Q668687", "ref": "5152600005"}, "type": "Feature"}
{"geometry": {"coordinates": [-95.340812223, 41.823996477], "type": "Point"}, "id": "zi3mFy4UFVu0VPI6NSa56Cq5ZFY=", "properties": {"@source_uri": "https://tools.usps.com/UspsToolsRestServices/rest/POLocator/findLocations", "@spider": "usps_collection_boxes", "addr:city": "DEFIANCE", "addr:country": "US", "addr:postcode": "51527", "addr:state": "IA", "addr:street_address": "209 MAIN AVE", "amenity": "post_box", "collection_times": "Mo-Fr 11:45; Sa 10:45", "nsi_id": "unitedstatespostalservice-a77078", "operator": "United States Postal Service", "operator:short": "USPS", "operator:type": "public", "operator:wikidata": "Q668687", "ref": "5152700001"}, "type": "Feature"}
{"geometry": {"coordinates": [-95.340812223, 41.823996477], "type": "Point"}, "id": "J0V04eO5sIvQwx-KduAVdgrC2eA=", "properties": {"@source_uri": "https://tools.usps.com/UspsToolsRestServices/rest/POLocator/findLocations", "@spider": "usps_collection_boxes", "addr:city": "DEFIANCE", "addr:country": "US", "addr:postcode": "51527", "addr:state": "IA", "addr:street_address": "209 MAIN AVE", "amenity": "post_box", "collection_times": "Mo-Fr 12:00; Sa 11:00", "indoor": "yes", "nsi_id": "unitedstatespostalservice-a77078", "operator": "United States Postal Service", "operator:short": "USPS", "operator:type": "public", "operator:wikidata": "Q668687", "ref": "5152700002"}, "type": "Feature"}
{"geometry": {"coordinates": [-95.340812223, 41.823996477], "type": "Point"}, "id": "_ncxohF1ID2Vh_pa_zmVyQGFwKY=", "properties": {"@source_uri": "https://tools.usps.com/UspsToolsRestServices/rest/POLocator/findLocations", "@spider": "usps_collection_boxes", "addr:city": "DEFIANCE", "addr:country": "US", "addr:postcode": "51527", "addr:state": "IA", "addr:street_address": "209 MAIN ST", "amenity": "post_box", "collection_times": "Mo-Fr 12:00; Sa 11:00", "indoor": "yes", "nsi_id": "unitedstatespostalservice-a77078", "operator": "United States Postal Service", "operator:short": "USPS", "operator:type": "public", "operator:wikidata": "Q668687", "ref": "5152700005"}, "type": "Feature"}
{"geometry": {"coordinates": [-95.496196921, 41.929083283], "type": "Point"}, "id": "IBxl22Iuul5uP2evAIew0jU3Buo=", "properties": {"@source_uri": "https://tools.usps.com/UspsToolsRestServices/rest/POLocator/findLocations", "@spider": "usps_collection_boxes", "addr:city": "DOW CITY", "addr:country": "US", "addr:postcode": "51528", "addr:state": "IA", "addr:street_address": "105 N FRANKLIN ST", "amenity": "post_box", "collection_times": "Mo-Fr 13:55; Sa 09:15", "note": "ON 12/24 AND 12/31, THIS BOX MAY BE COLLECTED AS EARLY AS 12 NOON.", "nsi_id": "unitedstatespostalservice-a77078", "operator": "United States Postal Service", "operator:short": "USPS", "operator:type": "public", "operator:wikidata": "Q668687", "ref": "5152800001"}, "type": "Feature"}
{"geometry": {"coordinates": [-95.496196921, 41.929083283], "type": "Point"}, "id": "Ols6lLxPSq3CfgdeiI-dGq74qZE=", "properties": {"@source_uri": "https://tools.usps.com/UspsToolsRestServices/rest/POLocator/findLocations", "@spider": "usps_collection_boxes", "addr:city": "DOW CITY", "addr:country": "US", "addr:postcode": "51528", "addr:state": "IA", "addr:street_address": "105 N FRANKLIN ST", "amenity": "post_box", "collection_times": "Mo-Fr 14:00; Sa 09:30", "indoor": "yes", "note": "ON 12/24 AND 12/31, THIS BOX MAY BE COLLECTED AS EARLY AS 12 NOON.", "nsi_id": "unitedstatespostalservice-a77078", "operator": "United States Postal Service", "operator:short": "USPS", "operator:type": "public", "operator:wikidata": "Q668687", "ref": "5152800002"}, "type": "Feature"}
{"geometry": {"coordinates": [-95.496196921, 41.929083283], "type": "Point"}, "id": "o90TqGXFZB_T3E4JxAYVZhcWzV4=", "properties": {"@source_uri": "https://tools.usps.com/UspsToolsRestServices/rest/POLocator/findLocations", "@spider": "usps_collection_boxes", "addr:city": "DOW CITY", "addr:country": "US", "addr:postcode": "51528", "addr:state": "IA", "addr:street_address": "105 N FRANKLIN ST", "amenity": "post_box", "collection_times": "Mo-Fr 14:00; Sa 09:30", "indoor": "yes", "note": "ON 12/24 AND 12/31, THIS BOX MAY BE COLLECTED AS EARLY AS 12 NOON.", "nsi_id": "unitedstatespostalservice-a77078", "operator": "United States Postal Service", "operator:short": "USPS", "operator:type": "public", "operator:wikidata": "Q668687", "ref": "5152800004"}, "type": "Feature"}
{"geometry": {"coordinates": [-95.599421361, 41.854347512], "type": "Point"}, "id": "kSyPctjPjsczyNo3MkX63Buu6vo=", "properties": {"@source_uri": "https://tools.usps.com/UspsToolsRestServices/rest/POLocator/findLocations", "@spider": "usps_collection_boxes", "addr:city": "DUNLAP", "addr:country": "US", "addr:postcode": "51529", "addr:state": "IA", "addr:street_address": "719 IOWA AVE", "amenity": "post_box", "collection_times": "Mo-Fr 14:00; Sa 10:30", "indoor": "yes", "note": "ON 12/24 AND 12/31, THIS BOX MAY BE COLLECTED AS EARLY AS 12 NOON.", "nsi_id": "unitedstatespostalservice-a77078", "operator": "United States Postal Service", "operator:short": "USPS", "operator:type": "public", "operator:wikidata": "Q668687", "ref": "5152900001"}, "type": "Feature"}
{"geometry": {"coordinates": [-95.599421361, 41.854347512], "type": "Point"}, "id": "_6a8osTEQOXFNf3zpCp6jO7iuP4=", "properties": {"@source_uri": "https://tools.usps.com/UspsToolsRestServices/rest/POLocator/findLocations", "@spider": "usps_collection_boxes", "addr:city": "DUNLAP", "addr:country": "US", "addr:postcode": "51529", "addr:state": "IA", "addr:street_address": "719 IOWA AVE", "amenity": "post_box", "collection_times": "Mo-Fr 17:00; Sa 10:15", "note": "ON 12/24 AND 12/31, THIS BOX MAY BE COLLECTED AS EARLY AS 12 NOON.", "nsi_id": "unitedstatespostalservice-a77078", "operator": "United States Postal Service", "operator:short": "USPS", "operator:type": "public", "operator:wikidata": "Q668687", "ref": "5152900002"}, "type": "Feature"}
{"geometry": {"coordinates": [-95.599421361, 41.854347512], "type": "Point"}, "id": "iqqHMZK7cxoh2JLUTb2l5IxNUPI=", "properties": {"@source_uri": "https://tools.usps.com/UspsToolsRestServices/rest/POLocator/findLocations", "@spider": "usps_collection_boxes", "addr:city": "DUNLAP", "addr:country": "US", "addr:postcode": "51529", "addr:state": "IA", "addr:street_address": "719 IOWA AVE", "amenity": "post_box", "collection_times": "Mo-Fr 14:00; Sa 10:30", "indoor": "yes", "note": "ON 12/24 AND 12/31, THIS BOX MAY BE COLLECTED AS EARLY AS 12 NOON.", "nsi_id": "unitedstatespostalservice-a77078", "operator": "United States Postal Service", "operator:short": "USPS", "operator:type": "public", "operator:wikidata": "Q668687", "ref": "5152900005"}, "type": "Feature"}
{"geometry": {"coordinates": [-95.417653162, 41.775057671], "type": "Point"}, "id": "gEu8QyL9M4o7kmN33kukyZ5iPoQ=", "properties": {"@source_uri": "https://tools.usps.com/UspsToolsRestServices/rest/POLocator/findLocations", "@spider": "usps_collection_boxes", "addr:city": "EARLING", "addr:country": "US", "addr:postcode": "51530", "addr:state": "IA", "addr:street_address": "110 MAIN ST", "amenity": "post_box", "collection_times": "Mo-Fr 11:45; Sa 09:45", "nsi_id": "unitedstatespostalservice-a77078", "operator": "United States Postal Service", "operator:short": "USPS", "operator:type": "public", "operator:wikidata": "Q668687", "ref": "5153000001"}, "type": "Feature"}
{"geometry": {"coordinates": [-95.417653162, 41.775057671], "type": "Point"}, "id": "M0XfKH6uRPFF1gzQPVwDN8qrexU=", "properties": {"@source_uri": "https://tools.usps.com/UspsToolsRestServices/rest/POLocator/findLocations", "@spider": "usps_collection_boxes", "addr:city": "EARLING", "addr:country": "US", "addr:postcode": "51530", "addr:state": "IA", "addr:street_address": "110 MAIN ST", "amenity": "post_box", "collection_times": "Mo-Fr 12:00; Sa 10:00", "indoor": "yes", "nsi_id": "unitedstatespostalservice-a77078", "operator": "United States Postal Service", "operator:short": "USPS", "operator:type": "public", "operator:wikidata": "Q668687", "ref": "5153000002"}, "type": "Feature"}
{"geometry": {"coordinates": [-95.417653162, 41.775057671], "type": "Point"}, "id": "ZeDMr3IRozdYEDF4sB_e5iw3OCI=", "properties": {"@source_uri": "https://tools.usps.com/UspsToolsRestServices/rest/POLocator/findLocations", "@spider": "usps_collection_boxes", "addr:city": "EARLING", "addr:country": "US", "addr:postcode": "51530", "addr:state": "IA", "addr:street_address": "110 MAIN ST", "amenity": "post_box", "collection_times": "Mo-Fr 12:00; Sa 10:00", "indoor": "yes", "nsi_id": "unitedstatespostalservice-a77078", "operator": "United States Postal Service", "operator:short": "USPS", "operator:type": "public", "operator:wikidata": "Q668687", "ref": "5153000005"}, "type": "Feature"}
{"geometry": {"coordinates": [-95.060060217, 41.592419445], "type": "Point"}, "id": "-wMNfHLZdcaCss8hHNWu1HYdbJ4=", "properties": {"@source_uri": "https://tools.usps.com/UspsToolsRestServices/rest/POLocator/findLocations", "@spider": "usps_collection_boxes", "addr:city": "ELK HORN", "addr:country": "US", "addr:postcode": "51531", "addr:state": "IA", "addr:street_address": "4214 MAIN ST", "amenity": "post_box", "collection_times": "Mo-Fr 15:15; Sa 12:15", "note": "ON 12/24 AND 12/31, THIS BOX MAY BE COLLECTED AS EARLY AS 12 NOON.", "nsi_id": "unitedstatespostalservice-a77078", "operator": "United States Postal Service", "operator:short": "USPS", "operator:type": "public", "operator:wikidata": "Q668687", "ref": "5153100001"}, "type": "Feature"}
{"geometry": {"coordinates": [-95.060060217, 41.592419445], "type": "Point"}, "id": "IJXKklkdQsaDXBjS6zpvSxmtV7E=", "properties": {"@source_uri": "https://tools.usps.com/UspsToolsRestServices/rest/POLocator/findLocations", "@spider": "usps_collection_boxes", "addr:city": "ELK HORN", "addr:country": "US", "addr:postcode": "51531", "addr:state": "IA", "addr:street_address": "4214 MAIN ST", "amenity": "post_box", "collection_times": "Mo-Fr 15:30; Sa 12:30", "indoor": "yes", "note": "ON 12/24 AND 12/31, THIS BOX MAY BE COLLECTED AS EARLY AS 12 NOON.", "nsi_id": "unitedstatespostalservice-a77078", "operator": "United States Postal Service", "operator:short": "USPS", "operator:type": "public", "operator:wikidata": "Q668687", "ref": "5153100002"}, "type": "Feature"}
{"geometry": {"coordinates": [-95.060973, 41.59277], "type": "Point"}, "id": "4ivrfS1-_oQ2oKAwQJ_0keHWXH8=", "properties": {"@source_uri": "https://tools.usps.com/UspsToolsRestServices/rest/POLocator/findLocations", "@spider": "usps_collection_boxes", "addr:city": "ELK HORN", "addr:country": "US", "addr:postcode": "51531", "addr:state": "IA", "addr:street_address": "4214 MAIN ST", "amenity": "post_box", "collection_times": "Mo-Fr 15:15; Sa 12:15", "indoor": "yes", "note": "ON 12/24 AND 12/31, THIS BOX MAY BE COLLECTED AS EARLY AS 12 NOON.", "nsi_id": "unitedstatespostalservice-a77078", "operator": "United States Postal Service", "operator:short": "USPS", "operator:type": "public", "operator:wikidata": "Q668687", "ref": "5153100003"}, "type": "Feature"}
{"geometry": {"coordinates": [-95.060060217, 41.592419445], "type": "Point"}, "id": "DM28cVKscbEdKpGWtGjZksvpsh0=", "properties": {"@source_uri": "https://tools.usps.com/UspsToolsRestServices/rest/POLocator/findLocations", "@spider": "usps_collection_boxes", "addr:city": "ELK HORN", "addr:country": "US", "addr:postcode": "51531", "addr:state": "IA", "addr:street_address": "4214 MAIN ST", "amenity": "post_box", "collection_times": "Mo-Fr 15:30; Sa 12:30", "indoor": "yes", "note": "ON 12/24 AND 12/31, THIS BOX MAY BE COLLECTED AS EARLY AS 12 NOON.", "nsi_id": "unitedstatespostalservice-a77078", "operator": "United States Postal Service", "operator:short": "USPS", "operator:type": "public", "operator:wikidata": "Q668687", "ref": "5153100004"}, "type": "Feature"}
{"geometry": {"coordinates": [-95.1633405, 41.149226474], "type": "Point"}, "id": "0HyBiF8dL85KxCMvCxh9OCe2vLg=", "properties": {"@source_uri": "https://tools.usps.com/UspsToolsRestServices/rest/POLocator/findLocations", "@spider": "usps_collection_boxes", "addr:city": "ELLIOTT", "addr:country": "US", "addr:postcode": "51532", "addr:state": "IA", "addr:street_address": "308 MAIN ST", "amenity": "post_box", "collection_times": "Mo-Fr 12:45; Sa 11:15", "note": "ON 12/24 AND 12/31, THIS BOX MAY BE COLLECTED AS EARLY AS 12 NOON.", "nsi_id": "unitedstatespostalservice-a77078", "operator": "United States Postal Service", "operator:short": "USPS", "operator:type": "public", "operator:wikidata": "Q668687", "ref": "5153200001"}, "type": "Feature"}
{"geometry": {"coordinates": [-95.1633405, 41.149226474], "type": "Point"}, "id": "jj02T8fkc6dJGgLui1C9eC9ugWU=", "properties": {"@source_uri": "https://tools.usps.com/UspsToolsRestServices/rest/POLocator/findLocations", "@spider": "usps_collection_boxes", "addr:city": "ELLIOTT", "addr:country": "US", "addr:postcode": "51532", "addr:state": "IA", "addr:street_address": "308 MAIN ST", "amenity": "post_box", "collection_times": "Mo-Fr 13:00; Sa 11:30", "indoor": "yes", "note": "ON 12/24 AND 12/31, THIS BOX MAY BE COLLECTED AS EARLY AS 12 NOON.", "nsi_id": "unitedstatespostalservice-a77078", "operator": "United States Postal Service", "operator:short": "USPS", "operator:type": "public", "operator:wikidata": "Q668687", "ref": "5153200002"}, "type": "Feature"}
{"geometry": {"coordinates": [-95.1633405, 41.149226474], "type": "Point"}, "id": "AaT_YqltnGBq4SyPIro0DmeMlYc=", "properties": {"@source_uri": "https://tools.usps.com/UspsToolsRestServices/rest/POLocator/findLocations", "@spider": "usps_collection_boxes", "addr:city": "ELLIOTT", "addr:country": "US", "addr:postcode": "51532", "addr:state": "IA", "addr:street_address": "308 MAIN ST", "amenity": "post_box", "collection_times": "Mo-Fr 13:00; Sa 11:30", "indoor": "yes", "note": "ON 12/24 AND 12/31, THIS BOX MAY BE COLLECTED AS EARLY AS 12 NOON.", "nsi_id": "unitedstatespostalservice-a77078", "operator": "United States Postal Service", "operator:short": "USPS", "operator:type": "public", "operator:wikidata": "Q668687", "ref": "5153200005"}, "type": "Feature"}
{"geometry": {"coordinates": [-95.402142, 41.016982493], "type": "Point"}, "id": "f_FlaQheaY0zseJwZA3sOVegrPk=", "properties": {"@source_uri": "https://tools.usps.com/UspsToolsRestServices/rest/POLocator/findLocations", "@spider": "usps_collection_boxes", "addr:city": "EMERSON", "addr:country": "US", "addr:postcode": "51533", "addr:state": "IA", "addr:street_address": "707 MORTON AVE", "amenity": "post_box", "collection_times": "Mo-Fr 12:45; Sa 09:45", "note": "ON 12/24 AND 12/31, THIS BOX MAY BE COLLECTED AS EARLY AS 12 NOON.", "nsi_id": "unitedstatespostalservice-a77078", "operator": "United States Postal Service", "operator:short": "USPS", "operator:type": "public", "operator:wikidata": "Q668687", "ref": "5153300001"}, "type": "Feature"}
{"geometry": {"coordinates": [-95.402142, 41.016982493], "type": "Point"}, "id": "KJ32PGnLVOJ3mQQotf8UQHcaVmY=", "properties": {"@source_uri": "https://tools.usps.com/UspsToolsRestServices/rest/POLocator/findLocations", "@spider": "usps_collection_boxes", "addr:city": "EMERSON", "addr:country": "US", "addr:postcode": "51533", "addr:state": "IA", "addr:street_address": "707 MORTON AVE", "amenity": "post_box", "collection_times": "Mo-Fr 13:00; Sa 10:00", "indoor": "yes", "note": "ON 12/24 AND 12/31, THIS BOX MAY BE COLLECTED AS EARLY AS 12 NOON.", "nsi_id": "unitedstatespostalservice-a77078", "operator": "United States Postal Service", "operator:short": "USPS", "operator:type": "public", "operator:wikidata": "Q668687", "ref": "5153300002"}, "type": "Feature"}
{"geometry": {"coordinates": [-95.3991915, 41.0194178], "type": "Point"}, "id": "kOf14EC6fCbzxe0OxlFgQ_Vyhk8=", "properties": {"@source_uri": "https://tools.usps.com/UspsToolsRestServices/rest/POLocator/findLocations", "@spider": "usps_collection_boxes", "addr:city": "EMERSON", "addr:country": "US", "addr:postcode": "51533", "addr:state": "IA", "addr:street_address": "707 MORTON AVE", "amenity": "post_box", "collection_times": "Mo-Fr 12:45; Sa 09:45", "indoor": "yes", "note": "ON 12/24 AND 12/31, THIS BOX MAY BE COLLECTED AS EARLY AS 12 NOON.", "nsi_id": "unitedstatespostalservice-a77078", "operator": "United States Postal Service", "operator:short": "USPS", "operator:type": "public", "operator:wikidata": "Q668687", "ref": "5153300003"}, "type": "Feature"}
{"geometry": {"coordinates": [-95.402142, 41.016982493], "type": "Point"}, "id": "lrt1VpzCpqho_nfPHc-DTl_Yu3I=", "properties": {"@source_uri": "https://tools.usps.com/UspsToolsRestServices/rest/POLocator/findLocations", "@spider": "usps_collection_boxes", "addr:city": "EMERSON", "addr:country": "US", "addr:postcode": "51533", "addr:state": "IA", "addr:street_address": "707 MORTON AVE", "amenity": "post_box", "collection_times": "Mo-Fr 13:00; Sa 10:00", "indoor": "yes", "note": "ON 12/24 AND 12/31, THIS BOX MAY BE COLLECTED AS EARLY AS 12 NOON.", "nsi_id": "unitedstatespostalservice-a77078", "operator": "United States Postal Service", "operator:short": "USPS", "operator:type": "public", "operator:wikidata": "Q668687", "ref": "5153300004"}, "type": "Feature"}
{"geometry": {"coordinates": [-95.743257451, 41.046687], "type": "Point"}, "id": "A3405zUwbr0_mhOG1uPZOQmezKw=", "properties": {"@source_uri": "https://tools.usps.com/UspsToolsRestServices/rest/POLocator/findLocations", "@spider": "usps_collection_boxes", "addr:city": "GLENWOOD", "addr:country": "US", "addr:postcode": "51534", "addr:state": "IA", "addr:street_address": "14 N WALNUT ST", "amenity": "post_box", "collection_times": "Mo-Fr 15:00; Sa 13:00", "note": "ON 12/24 AND 12/31, THIS BOX MAY BE COLLECTED AS EARLY AS 12 NOON.", "nsi_id": "unitedstatespostalservice-a77078", "operator": "United States Postal Service", "operator:short": "USPS", "operator:type": "public", "operator:wikidata": "Q668687", "ref": "5153400001"}, "type": "Feature"}
{"geometry": {"coordinates": [-95.746134579, 41.038171287], "type": "Point"}, "id": "5oGDwcwuHCMYTIe8s8grwM4EGZQ=", "properties": {"@source_uri": "https://tools.usps.com/UspsToolsRestServices/rest/POLocator/findLocations", "@spider": "usps_collection_boxes", "addr:city": "GLENWOOD", "addr:country": "US", "addr:postcode": "51534", "addr:state": "IA", "addr:street_address": "902 S LOCUST ST", "amenity": "post_box", "collection_times": "Mo-Sa 10:30", "nsi_id": "unitedstatespostalservice-a77078", "operator": "United States Postal Service", "operator:short": "USPS", "operator:type": "public", "operator:wikidata": "Q668687", "ref": "5153400005"}, "type": "Feature"}
{"geometry": {"coordinates": [-95.742543473, 41.046355505], "type": "Point"}, "id": "_UB5Km3ipijkW1N-FAIzg1KiZfg=", "properties": {"@source_uri": "https://tools.usps.com/UspsToolsRestServices/rest/POLocator/findLocations", "@spider": "usps_collection_boxes", "addr:city": "GLENWOOD", "addr:country": "US", "addr:postcode": "51534", "addr:state": "IA", "addr:street_address": "418 SHARP ST", "amenity": "post_box", "collection_times": "Mo-Fr 15:00; Sa 13:00", "note": "ON 12/24 AND 12/31, THIS BOX MAY BE COLLECTED AS EARLY AS 12 NOON.", "nsi_id": "unitedstatespostalservice-a77078", "operator": "United States Postal Service", "operator:short": "USPS", "operator:type": "public", "operator:wikidata": "Q668687", "ref": "5153400007"}, "type": "Feature"}
{"geometry": {"coordinates": [-95.7413439619, 41.0461070114], "type": "Point"}, "id": "4NNg1lWuiYRrbUFRkt0H6sbnDVs=", "properties": {"@source_uri": "https://tools.usps.com/UspsToolsRestServices/rest/POLocator/findLocations", "@spider": "usps_collection_boxes", "addr:city": "GLENWOOD", "addr:country": "US", "addr:postcode": "51534", "addr:state": "IA", "addr:street_address": "101 S VINE ST", "amenity": "post_box", "collection_times": "Mo-Fr 17:00; Sa 16:15", "note": "ON 12/24 AND 12/31, THIS BOX MAY BE COLLECTED AS EARLY AS 12 NOON.", "nsi_id": "unitedstatespostalservice-a77078", "operator": "United States Postal Service", "operator:short": "USPS", "operator:type": "public", "operator:wikidata": "Q668687", "ref": "5153400008"}, "type": "Feature"}
{"geometry": {"coordinates": [-95.7413439619, 41.0461070114], "type": "Point"}, "id": "lrolDgec5EzwHcGSzUX-2pKAZ7U=", "properties": {"@source_uri": "https://tools.usps.com/UspsToolsRestServices/rest/POLocator/findLocations", "@spider": "usps_collection_boxes", "addr:city": "GLENWOOD", "addr:country": "US", "addr:postcode": "51534", "addr:state": "IA", "addr:street_address": "101 S VINE ST", "amenity": "post_box", "collection_times": "Mo-Fr 16:30; Sa 11:00", "indoor": "yes", "note": "ON 12/24 AND 12/31, THIS BOX MAY BE COLLECTED AS EARLY AS 12 NOON.", "nsi_id": "unitedstatespostalservice-a77078", "operator": "United States Postal Service", "operator:short": "USPS", "operator:type": "public", "operator:wikidata": "Q668687", "ref": "5153400009"}, "type": "Feature"}
{"geometry": {"coordinates": [-95.735699, 41.055879], "type": "Point"}, "id": "QW1vRlbLERsxB_BZ3ZNs_LPPPPU=", "properties": {"@source_uri": "https://tools.usps.com/UspsToolsRestServices/rest/POLocator/findLocations", "@spider": "usps_collection_boxes", "addr:city": "GLENWOOD", "addr:country": "US", "addr:postcode": "51534", "addr:state": "IA", "addr:street_address": "101 S VINE ST", "amenity": "post_box", "collection_times": "Mo-Fr 17:00; Sa 10:45", "indoor": "yes", "note": "ON 12/24 AND 12/31, THIS BOX MAY BE COLLECTED AS EARLY AS 12 NOON.", "nsi_id": "unitedstatespostalservice-a77078", "operator": "United States Postal Service", "operator:short": "USPS", "operator:type": "public", "operator:wikidata": "Q668687", "ref": "5153400010"}, "type": "Feature"}
{"geometry": {"coordinates": [-95.7413439619, 41.0461070114], "type": "Point"}, "id": "jrCfeOIWO8nspXEfc0kkgbHum6k=", "properties": {"@source_uri": "https://tools.usps.com/UspsToolsRestServices/rest/POLocator/findLocations", "@spider": "usps_collection_boxes", "addr:city": "GLENWOOD", "addr:country": "US", "addr:postcode": "51534", "addr:state": "IA", "addr:street_address": "101 S VINE ST", "amenity": "post_box", "collection_times": "Mo-Fr 16:30; Sa 11:00", "indoor": "yes", "note": "ON 12/24 AND 12/31, THIS BOX MAY BE COLLECTED AS EARLY AS 12 NOON.", "nsi_id": "unitedstatespostalservice-a77078", "operator": "United States Postal Service", "operator:short": "USPS", "operator:type": "public", "operator:wikidata": "Q668687", "ref": "5153400011"}, "type": "Feature"}
{"geometry": {"coordinates": [-95.140303669, 41.233724572], "type": "Point"}, "id": "PWv9IfvDGDuv_RGpuPZs6G35nYE=", "properties": {"@source_uri": "https://tools.usps.com/UspsToolsRestServices/rest/POLocator/findLocations", "@spider": "usps_collection_boxes", "addr:city": "GRISWOLD", "addr:country": "US", "addr:postcode": "51535", "addr:state": "IA", "addr:street_address": "608 4TH ST", "amenity": "post_box", "collection_times": "Mo-Fr 15:45; Sa 09:45", "note": "ON 12/24 AND 12/31, THIS BOX MAY BE COLLECTED AS EARLY AS 12 NOON.", "nsi_id": "unitedstatespostalservice-a77078", "operator": "United States Postal Service", "operator:short": "USPS", "operator:type": "public", "operator:wikidata": "Q668687", "ref": "5153500002"}, "type": "Feature"}
{"geometry": {"coordinates": [-95.140303669, 41.233724572], "type": "Point"}, "id": "FVen3O3DBX_ah4_qstcJJAt4BwM=", "properties": {"@source_uri": "https://tools.usps.com/UspsToolsRestServices/rest/POLocator/findLocations", "@spider": "usps_collection_boxes", "addr:city": "GRISWOLD", "addr:country": "US", "addr:postcode": "51535", "addr:state": "IA", "addr:street_address": "608 4TH ST", "amenity": "post_box", "collection_times": "Mo-Fr 15:00; Sa 10:00", "indoor": "yes", "note": "ON 12/24 AND 12/31, THIS BOX MAY BE COLLECTED AS EARLY AS 12 NOON.", "nsi_id": "unitedstatespostalservice-a77078", "operator": "United States Postal Service", "operator:short": "USPS", "operator:type": "public", "operator:wikidata": "Q668687", "ref": "5153500003"}, "type": "Feature"}
{"geometry": {"coordinates": [-95.14068, 41.23374], "type": "Point"}, "id": "z5KM6pvAXOs-kF4VAf6rMmmiAdA=", "properties": {"@source_uri": "https://tools.usps.com/UspsToolsRestServices/rest/POLocator/findLocations", "@spider": "usps_collection_boxes", "addr:city": "GRISWOLD", "addr:country": "US", "addr:postcode": "51535", "addr:state": "IA", "addr:street_address": "608 4TH ST", "amenity": "post_box", "collection_times": "Mo-Fr 15:45; Sa 09:45", "indoor": "yes", "note": "ON 12/24 AND 12/31, THIS BOX MAY BE COLLECTED AS EARLY AS 12 NOON.", "nsi_id": "unitedstatespostalservice-a77078", "operator": "United States Postal Service", "operator:short": "USPS", "operator:type": "public", "operator:wikidata": "Q668687", "ref": "5153500004"}, "type": "Feature"}
{"geometry": {"coordinates": [-95.140303669, 41.233724572], "type": "Point"}, "id": "DCQ1bNRgTixHpL_600lqBqcQfvs=", "properties": {"@source_uri": "https://tools.usps.com/UspsToolsRestServices/rest/POLocator/findLocations", "@spider": "usps_collection_boxes", "addr:city": "GRISWOLD", "addr:country": "US", "addr:postcode": "51535", "addr:state": "IA", "addr:street_address": "608 4TH ST", "amenity": "post_box", "collection_times": "Mo-Fr 15:00; Sa 10:00", "indoor": "yes", "note": "ON 12/24 AND 12/31, THIS BOX MAY BE COLLECTED AS EARLY AS 12 NOON.", "nsi_id": "unitedstatespostalservice-a77078", "operator": "United States Postal Service", "operator:short": "USPS", "operator:type": "public", "operator:wikidata": "Q668687", "ref": "5153500005"}, "type": "Feature"}
{"geometry": {"coordinates": [-95.362191003, 41.390578002], "type": "Point"}, "id": "BMbKl5uhLF38sP8RtqtPyyzXRvY=", "properties": {"@source_uri": "https://tools.usps.com/UspsToolsRestServices/rest/POLocator/findLocations", "@spider": "usps_collection_boxes", "addr:city": "HANCOCK", "addr:country": "US", "addr:postcode": "51536", "addr:state": "IA", "addr:street_address": "117 N MAIN ST", "amenity": "post_box", "collection_times": "Mo-Fr 13:45; Sa 12:15", "note": "ON 12/24 AND 12/31, THIS BOX MAY BE COLLECTED AS EARLY AS 12 NOON.", "nsi_id": "unitedstatespostalservice-a77078", "operator": "United States Postal Service", "operator:short": "USPS", "operator:type": "public", "operator:wikidata": "Q668687", "ref": "5153600001"}, "type": "Feature"}
{"geometry": {"coordinates": [-95.362416888, 41.390586115], "type": "Point"}, "id": "0UBEFfJ-gWvj2fGAh7e6yzlRJOM=", "properties": {"@source_uri": "https://tools.usps.com/UspsToolsRestServices/rest/POLocator/findLocations", "@spider": "usps_collection_boxes", "addr:city": "HANCOCK", "addr:country": "US", "addr:postcode": "51536", "addr:state": "IA", "addr:street_address": "117 N MAIN ST", "amenity": "post_box", "collection_times": "Mo-Fr 14:00; Sa 12:30", "indoor": "yes", "note": "ON 12/24 AND 12/31, THIS BOX MAY BE COLLECTED AS EARLY AS 12 NOON.", "nsi_id": "unitedstatespostalservice-a77078", "operator": "United States Postal Service", "operator:short": "USPS", "operator:type": "public", "operator:wikidata": "Q668687", "ref": "5153600002"}, "type": "Feature"}
{"geometry": {"coordinates": [-95.3624052, 41.390538], "type": "Point"}, "id": "wXo6j3UgiEvBZlEVcpn1aRK_sDU=", "properties": {"@source_uri": "https://tools.usps.com/UspsToolsRestServices/rest/POLocator/findLocations", "@spider": "usps_collection_boxes", "addr:city": "HANCOCK", "addr:country": "US", "addr:postcode": "51536", "addr:state": "IA", "addr:street_address": "117 N MAIN ST", "amenity": "post_box", "collection_times": "Mo-Fr 13:45; Sa 12:15", "indoor": "yes", "note": "ON 12/24 AND 12/31, THIS BOX MAY BE COLLECTED AS EARLY AS 12 NOON.", "nsi_id": "unitedstatespostalservice-a77078", "operator": "United States Postal Service", "operator:short": "USPS", "operator:type": "public", "operator:wikidata": "Q668687", "ref": "5153600003"}, "type": "Feature"}
{"geometry": {"coordinates": [-95.362416888, 41.390586115], "type": "Point"}, "id": "8OoHblxe_2jUQOlSzAzjGjtR67w=", "properties": {"@source_uri": "https://tools.usps.com/UspsToolsRestServices/rest/POLocator/findLocations", "@spider": "usps_collection_boxes", "addr:city": "HANCOCK", "addr:country": "US", "addr:postcode": "51536", "addr:state": "IA", "addr:street_address": "117 N MAIN ST", "amenity": "post_box", "collection_times": "Mo-Fr 14:00; Sa 12:30", "indoor": "yes", "note": "ON 12/24 AND 12/31, THIS BOX MAY BE COLLECTED AS EARLY AS 12 NOON.", "nsi_id": "unitedstatespostalservice-a77078", "operator": "United States Postal Service", "operator:short": "USPS", "operator:type": "public", "operator:wikidata": "Q668687", "ref": "5153600004"}, "type": "Feature"}
{"geometry": {"coordinates": [-95.324939832, 41.647171515], "type": "Point"}, "id": "antkjrt-1v92K2bnndS0D4jWqRE=", "properties": {"@source_uri": "https://tools.usps.com/UspsToolsRestServices/rest/POLocator/findLocations", "@spider": "usps_collection_boxes", "addr:city": "HARLAN", "addr:country": "US", "addr:postcode": "51537", "addr:state": "IA", "addr:street_address": "1116 MORNINGVIEW DR", "amenity": "post_box", "collection_times": "Mo-Fr 16:00", "note": "ON 12/24 AND 12/31, THIS BOX MAY BE COLLECTED AS EARLY AS 12 NOON.", "nsi_id": "unitedstatespostalservice-a77078", "operator": "United States Postal Service", "operator:short": "USPS", "operator:type": "public", "operator:wikidata": "Q668687", "ref": "5153700002"}, "type": "Feature"}
{"geometry": {"coordinates": [-95.339853394, 41.65055893], "type": "Point"}, "id": "rPWQZ_9O3DZUKhdkYM8gCMZaNLE=", "properties": {"@source_uri": "https://tools.usps.com/UspsToolsRestServices/rest/POLocator/findLocations", "@spider": "usps_collection_boxes", "addr:city": "HARLAN", "addr:country": "US", "addr:postcode": "51537", "addr:state": "IA", "addr:street_address": "1808 23RD ST", "amenity": "post_box", "collection_times": "Mo-Fr 16:10", "note": "ON 12/24 AND 12/31, THIS BOX MAY BE COLLECTED AS EARLY AS 12 NOON.", "nsi_id": "unitedstatespostalservice-a77078", "operator": "United States Postal Service", "operator:short": "USPS", "operator:type": "public", "operator:wikidata": "Q668687", "ref": "5153700003"}, "type": "Feature"}
{"geometry": {"coordinates": [-95.3183835, 41.657726501], "type": "Point"}, "id": "8E0cVRuMVnYIvdpfQmOfOiL397I=", "properties": {"@source_uri": "https://tools.usps.com/UspsToolsRestServices/rest/POLocator/findLocations", "@spider": "usps_collection_boxes", "addr:city": "HARLAN", "addr:country": "US", "addr:postcode": "51537", "addr:state": "IA", "addr:street_address": "612 COURT ST", "amenity": "post_box", "collection_times": "Mo-Fr 16:15", "note": "ON 12/24 AND 12/31, THIS BOX MAY BE COLLECTED AS EARLY AS 12 NOON.", "nsi_id": "unitedstatespostalservice-a77078", "operator": "United States Postal Service", "operator:short": "USPS", "operator:type": "public", "operator:wikidata": "Q668687", "ref": "5153700004"}, "type": "Feature"}
{"geometry": {"coordinates": [-95.3192279652, 41.6560850114], "type": "Point"}, "id": "j55hW-6geefjy-HUHw7qlVBksEo=", "properties": {"@source_uri": "https://tools.usps.com/UspsToolsRestServices/rest/POLocator/findLocations", "@spider": "usps_collection_boxes", "addr:city": "HARLAN", "addr:country": "US", "addr:postcode": "51537", "addr:state": "IA", "addr:street_address": "1209 7TH ST", "amenity": "post_box", "collection_times": "Mo-Sa 17:00", "note": "ON 12/24 AND 12/31, THIS BOX MAY BE COLLECTED AS EARLY AS 12 NOON.", "nsi_id": "unitedstatespostalservice-a77078", "operator": "United States Postal Service", "operator:short": "USPS", "operator:type": "public", "operator:wikidata": "Q668687", "ref": "5153700005"}, "type": "Feature"}
{"geometry": {"coordinates": [-95.318957287, 41.656148246], "type": "Point"}, "id": "kRaNH6pZ-v5L2QEFjfz7EW30is0=", "properties": {"@source_uri": "https://tools.usps.com/UspsToolsRestServices/rest/POLocator/findLocations", "@spider": "usps_collection_boxes", "addr:city": "HARLAN", "addr:country": "US", "addr:postcode": "51537", "addr:state": "IA", "addr:street_address": "1209 7TH ST", "amenity": "post_box", "collection_times": "Mo-Fr 16:30; Sa 15:45", "indoor": "yes", "note": "ON 12/24 AND 12/31, THIS BOX MAY BE COLLECTED AS EARLY AS 12 NOON.", "nsi_id": "unitedstatespostalservice-a77078", "operator": "United States Postal Service", "operator:short": "USPS", "operator:type": "public", "operator:wikidata": "Q668687", "ref": "5153700009"}, "type": "Feature"}
{"geometry": {"coordinates": [-95.315872, 41.657684], "type": "Point"}, "id": "EZrm1vPxE3XT7_jbCvGAJ3m4Tu4=", "properties": {"@source_uri": "https://tools.usps.com/UspsToolsRestServices/rest/POLocator/findLocations", "@spider": "usps_collection_boxes", "addr:city": "HARLAN", "addr:country": "US", "addr:postcode": "51537", "addr:state": "IA", "addr:street_address": "1209 7TH ST", "amenity": "post_box", "collection_times": "Mo-Fr 17:00; Sa 11:15", "indoor": "yes", "note": "ON 12/24 AND 12/31, THIS BOX MAY BE COLLECTED AS EARLY AS 12 NOON.", "nsi_id": "unitedstatespostalservice-a77078", "operator": "United States Postal Service", "operator:short": "USPS", "operator:type": "public", "operator:wikidata": "Q668687", "ref": "5153700010"}, "type": "Feature"}
{"geometry": {"coordinates": [-95.318957287, 41.656148246], "type": "Point"}, "id": "DjuYW8tVFhz_Y2r0rQ7zzeaxwwE=", "properties": {"@source_uri": "https://tools.usps.com/UspsToolsRestServices/rest/POLocator/findLocations", "@spider": "usps_collection_boxes", "addr:city": "HARLAN", "addr:country": "US", "addr:postcode": "51537", "addr:state": "IA", "addr:street_address": "1209 7TH ST", "amenity": "post_box", "collection_times": "Mo-Fr 16:30; Sa 11:30", "indoor": "yes", "note": "ON 12/24 AND 12/31, THIS BOX MAY BE COLLECTED AS EARLY AS 12 NOON.", "nsi_id": "unitedstatespostalservice-a77078", "operator": "United States Postal Service", "operator:short": "USPS", "operator:type": "public", "operator:wikidata": "Q668687", "ref": "5153700012"}, "type": "Feature"}
{"geometry": {"coordinates": [-95.499218926, 41.023458], "type": "Point"}, "id": "lUkAR3fQ5R_7950FFnJsxgwFPSY=", "properties": {"@source_uri": "https://tools.usps.com/UspsToolsRestServices/rest/POLocator/findLocations", "@spider": "usps_collection_boxes", "addr:city": "HASTINGS", "addr:country": "US", "addr:postcode": "51540", "addr:state": "IA", "addr:street_address": "427 INDIAN AVE", "amenity": "post_box", "collection_times": "Mo-Fr 11:45; Sa 09:00", "nsi_id": "unitedstatespostalservice-a77078", "operator": "United States Postal Service", "operator:short": "USPS", "operator:type": "public", "operator:wikidata": "Q668687", "ref": "5154000001"}, "type": "Feature"}
{"geometry": {"coordinates": [-95.49786, 41.02214], "type": "Point"}, "id": "_AsWO3R2BU1jIed9TIb0RiwHenk=", "properties": {"@source_uri": "https://tools.usps.com/UspsToolsRestServices/rest/POLocator/findLocations", "@spider": "usps_collection_boxes", "addr:city": "HASTINGS", "addr:country": "US", "addr:postcode": "51540", "addr:state": "IA", "addr:street_address": "427 INDIAN AVE", "amenity": "post_box", "collection_times": "Mo-Fr 12:00; Sa 09:00", "indoor": "yes", "nsi_id": "unitedstatespostalservice-a77078", "operator": "United States Postal Service", "operator:short": "USPS", "operator:type": "public", "operator:wikidata": "Q668687", "ref": "5154000002"}, "type": "Feature"}
{"geometry": {"coordinates": [-95.49786, 41.02214], "type": "Point"}, "id": "T1DRylsKm-5uD_zjNsJkTolfRbg=", "properties": {"@source_uri": "https://tools.usps.com/UspsToolsRestServices/rest/POLocator/findLocations", "@spider": "usps_collection_boxes", "addr:city": "HASTINGS", "addr:country": "US", "addr:postcode": "51540", "addr:state": "IA", "addr:street_address": "427 INDIAN AVE", "amenity": "post_box", "collection_times": "Mo-Fr 12:00; Sa 09:00", "indoor": "yes", "nsi_id": "unitedstatespostalservice-a77078", "operator": "United States Postal Service", "operator:short": "USPS", "operator:type": "public", "operator:wikidata": "Q668687", "ref": "5154000005"}, "type": "Feature"}
{"geometry": {"coordinates": [-95.072750301, 41.629193749], "type": "Point"}, "id": "0yfcLktyR4yg98EahEz4ny4q7ak=", "properties": {"@source_uri": "https://tools.usps.com/UspsToolsRestServices/rest/POLocator/findLocations", "@spider": "usps_collection_boxes", "addr:city": "KIMBALLTON", "addr:country": "US", "addr:postcode": "51543", "addr:state": "IA", "addr:street_address": "207 N MAIN ST", "amenity": "post_box", "collection_times": "Mo-Fr 13:15; Sa 10:45", "note": "ON 12/24 AND 12/31, THIS BOX MAY BE COLLECTED AS EARLY AS 12 NOON.", "nsi_id": "unitedstatespostalservice-a77078", "operator": "United States Postal Service", "operator:short": "USPS", "operator:type": "public", "operator:wikidata": "Q668687", "ref": "5154300001"}, "type": "Feature"}
{"geometry": {"coordinates": [-95.072750301, 41.629193749], "type": "Point"}, "id": "7chBKTpypQlQgp_3IIjh8mHz5Y0=", "properties": {"@source_uri": "https://tools.usps.com/UspsToolsRestServices/rest/POLocator/findLocations", "@spider": "usps_collection_boxes", "addr:city": "KIMBALLTON", "addr:country": "US", "addr:postcode": "51543", "addr:state": "IA", "addr:street_address": "207 N MAIN ST", "amenity": "post_box", "collection_times": "Mo-Fr 13:30; Sa 11:00", "indoor": "yes", "note": "ON 12/24 AND 12/31, THIS BOX MAY BE COLLECTED AS EARLY AS 12 NOON.", "nsi_id": "unitedstatespostalservice-a77078", "operator": "United States Postal Service", "operator:short": "USPS", "operator:type": "public", "operator:wikidata": "Q668687", "ref": "5154300002"}, "type": "Feature"}
{"geometry": {"coordinates": [-95.072750301, 41.629193749], "type": "Point"}, "id": "bijP7bDYdjSmc3fXsOwSv3zKrHw=", "properties": {"@source_uri": "https://tools.usps.com/UspsToolsRestServices/rest/POLocator/findLocations", "@spider": "usps_collection_boxes", "addr:city": "KIMBALLTON", "addr:country": "US", "addr:postcode": "51543", "addr:state": "IA", "addr:street_address": "207 N MAIN ST", "amenity": "post_box", "collection_times": "Mo-Fr 13:30; Sa 11:00", "indoor": "yes", "note": "ON 12/24 AND 12/31, THIS BOX MAY BE COLLECTED AS EARLY AS 12 NOON.", "nsi_id": "unitedstatespostalservice-a77078", "operator": "United States Postal Service", "operator:short": "USPS", "operator:type": "public", "operator:wikidata": "Q668687", "ref": "5154300005"}, "type": "Feature"}
{"geometry": {"coordinates": [-95.072750301, 41.629193749], "type": "Point"}, "id": "vYtQuPdQV00vQpowXdr62n2uB_0=", "properties": {"@source_uri": "https://tools.usps.com/UspsToolsRestServices/rest/POLocator/findLocations", "@spider": "usps_collection_boxes", "addr:city": "KIMBALLTON", "addr:country": "US", "addr:postcode": "51543", "addr:state": "IA", "addr:street_address": "207 N MAIN ST", "amenity": "post_box", "collection_times": "Mo-Fr 13:30; Sa 11:00", "indoor": "yes", "note": "ON 12/24 AND 12/31, THIS BOX MAY BE COLLECTED AS EARLY AS 12 NOON.", "nsi_id": "unitedstatespostalservice-a77078", "operator": "United States Postal Service", "operator:short": "USPS", "operator:type": "public", "operator:wikidata": "Q668687", "ref": "5154300006"}, "type": "Feature"}
{"geometry": {"coordinates": [-95.090103, 41.3057955], "type": "Point"}, "id": "WUVYpEr1YqafggqyZUfdJERFSiU=", "properties": {"@source_uri": "https://tools.usps.com/UspsToolsRestServices/rest/POLocator/findLocations", "@spider": "usps_collection_boxes", "addr:city": "LEWIS", "addr:country": "US", "addr:postcode": "51544", "addr:state": "IA", "addr:street_address": "501 W MAIN ST", "amenity": "post_box", "collection_times": "Mo-Fr 13:45; Sa 11:45", "note": "ON 12/24 AND 12/31, THIS BOX MAY BE COLLECTED AS EARLY AS 12 NOON.", "nsi_id": "unitedstatespostalservice-a77078", "operator": "United States Postal Service", "operator:short": "USPS", "operator:type": "public", "operator:wikidata": "Q668687", "ref": "5154400001"}, "type": "Feature"}
{"geometry": {"coordinates": [-95.090103, 41.3057955], "type": "Point"}, "id": "eAEOn8Cn2Rc_M14ZT6DL8opTnco=", "properties": {"@source_uri": "https://tools.usps.com/UspsToolsRestServices/rest/POLocator/findLocations", "@spider": "usps_collection_boxes", "addr:city": "LEWIS", "addr:country": "US", "addr:postcode": "51544", "addr:state": "IA", "addr:street_address": "501 W MAIN ST", "amenity": "post_box", "collection_times": "Mo-Fr 14:00; Sa 12:00", "indoor": "yes", "note": "ON 12/24 AND 12/31, THIS BOX MAY BE COLLECTED AS EARLY AS 12 NOON.", "nsi_id": "unitedstatespostalservice-a77078", "operator": "United States Postal Service", "operator:short": "USPS", "operator:type": "public", "operator:wikidata": "Q668687", "ref": "5154400002"}, "type": "Feature"}
{"geometry": {"coordinates": [-95.090103, 41.3057955], "type": "Point"}, "id": "2vPmfxsjZDW_m0zCmKwFOcJndIA=", "properties": {"@source_uri": "https://tools.usps.com/UspsToolsRestServices/rest/POLocator/findLocations", "@spider": "usps_collection_boxes", "addr:city": "LEWIS", "addr:country": "US", "addr:postcode": "51544", "addr:state": "IA", "addr:street_address": "501 W MAIN ST", "amenity": "post_box", "collection_times": "Mo-Fr 14:00; Sa 12:00", "indoor": "yes", "note": "ON 12/24 AND 12/31, THIS BOX MAY BE COLLECTED AS EARLY AS 12 NOON.", "nsi_id": "unitedstatespostalservice-a77078", "operator": "United States Postal Service", "operator:short": "USPS", "operator:type": "public", "operator:wikidata": "Q668687", "ref": "5154400004"}, "type": "Feature"}
{"geometry": {"coordinates": [-95.787, 41.644087479], "type": "Point"}, "id": "XNLNmCM7eNJBqEE4wYonP-AmKH4=", "properties": {"@source_uri": "https://tools.usps.com/UspsToolsRestServices/rest/POLocator/findLocations", "@spider": "usps_collection_boxes", "addr:city": "LOGAN", "addr:country": "US", "addr:postcode": "51546", "addr:state": "IA", "addr:street_address": "315 E 6TH ST", "amenity": "post_box", "collection_times": "Mo-Fr 17:00; Sa 09:15", "note": "ON 12/24 AND 12/31, THIS BOX MAY BE COLLECTED AS EARLY AS 12 NOON.", "nsi_id": "unitedstatespostalservice-a77078", "operator": "United States Postal Service", "operator:short": "USPS", "operator:type": "public", "operator:wikidata": "Q668687", "ref": "5154600001"}, "type": "Feature"}
{"geometry": {"coordinates": [-95.787, 41.644087479], "type": "Point"}, "id": "5OkBm8fLiGbwbSE1e8YC7q1GKZM=", "properties": {"@source_uri": "https://tools.usps.com/UspsToolsRestServices/rest/POLocator/findLocations", "@spider": "usps_collection_boxes", "addr:city": "LOGAN", "addr:country": "US", "addr:postcode": "51546", "addr:state": "IA", "addr:street_address": "315 E 6TH ST", "amenity": "post_box", "collection_times": "Mo-Fr 16:35; Sa 10:00", "indoor": "yes", "note": "ON 12/24 AND 12/31, THIS BOX MAY BE COLLECTED AS EARLY AS 12 NOON.", "nsi_id": "unitedstatespostalservice-a77078", "operator": "United States Postal Service", "operator:short": "USPS", "operator:type": "public", "operator:wikidata": "Q668687", "ref": "5154600004"}, "type": "Feature"}
{"geometry": {"coordinates": [-95.787, 41.644087479], "type": "Point"}, "id": "zrermR8bvwvwEVFTH5C3L8CfkDo=", "properties": {"@source_uri": "https://tools.usps.com/UspsToolsRestServices/rest/POLocator/findLocations", "@spider": "usps_collection_boxes", "addr:city": "LOGAN", "addr:country": "US", "addr:postcode": "51546", "addr:state": "IA", "addr:street_address": "315 E 6TH ST", "amenity": "post_box", "collection_times": "Mo-Fr 16:35; Sa 10:00", "indoor": "yes", "note": "ON 12/24 AND 12/31, THIS BOX MAY BE COLLECTED AS EARLY AS 12 NOON.", "nsi_id": "unitedstatespostalservice-a77078", "operator": "United States Postal Service", "operator:short": "USPS", "operator:type": "public", "operator:wikidata": "Q668687", "ref": "5154600007"}, "type": "Feature"}
{"geometry": {"coordinates": [-95.425321668, 41.192842485], "type": "Point"}, "id": "VkpnoGQN3AasvgJpJ_UJ0tBpA3k=", "properties": {"@source_uri": "https://tools.usps.com/UspsToolsRestServices/rest/POLocator/findLocations", "@spider": "usps_collection_boxes", "addr:city": "MACEDONIA", "addr:country": "US", "addr:postcode": "51549", "addr:state": "IA", "addr:street_address": "319 MAIN ST", "amenity": "post_box", "collection_times": "Mo-Fr 11:45; Sa 10:30", "nsi_id": "unitedstatespostalservice-a77078", "operator": "United States Postal Service", "operator:short": "USPS", "operator:type": "public", "operator:wikidata": "Q668687", "ref": "5154900001"}, "type": "Feature"}
{"geometry": {"coordinates": [-95.425321668, 41.192842485], "type": "Point"}, "id": "UNdLqTBgqPJzf26M3IxrSFhvWAU=", "properties": {"@source_uri": "https://tools.usps.com/UspsToolsRestServices/rest/POLocator/findLocations", "@spider": "usps_collection_boxes", "addr:city": "MACEDONIA", "addr:country": "US", "addr:postcode": "51549", "addr:state": "IA", "addr:street_address": "319 MAIN ST", "amenity": "post_box", "collection_times": "Mo-Fr 12:00; Sa 10:45", "indoor": "yes", "nsi_id": "unitedstatespostalservice-a77078", "operator": "United States Postal Service", "operator:short": "USPS", "operator:type": "public", "operator:wikidata": "Q668687", "ref": "5154900002"}, "type": "Feature"}
{"geometry": {"coordinates": [-95.425321668, 41.192842485], "type": "Point"}, "id": "Dvw4onUeFg70U-d-H-Gm7P0dkGM=", "properties": {"@source_uri": "https://tools.usps.com/UspsToolsRestServices/rest/POLocator/findLocations", "@spider": "usps_collection_boxes", "addr:city": "MACEDONIA", "addr:country": "US", "addr:postcode": "51549", "addr:state": "IA", "addr:street_address": "319 MAIN ST", "amenity": "post_box", "collection_times": "Mo-Fr 12:00; Sa 10:45", "indoor": "yes", "nsi_id": "unitedstatespostalservice-a77078", "operator": "United States Postal Service", "operator:short": "USPS", "operator:type": "public", "operator:wikidata": "Q668687", "ref": "5154900004"}, "type": "Feature"}
{"geometry": {"coordinates": [-95.5866822485, 41.0023934932], "type": "Point"}, "id": "9OX8rD41Xj-6S5clCE7SY-mDHgI=", "properties": {"@source_uri": "https://tools.usps.com/UspsToolsRestServices/rest/POLocator/findLocations", "@spider": "usps_collection_boxes", "addr:city": "MALVERN", "addr:country": "US", "addr:postcode": "51551", "addr:state": "IA", "addr:street_address": "202 W 4TH ST", "amenity": "post_box", "collection_times": "Mo-Fr 16:15; Sa 10:15", "note": "ON 12/24 AND 12/31, THIS BOX MAY BE COLLECTED AS EARLY AS 12 NOON.", "nsi_id": "unitedstatespostalservice-a77078", "operator": "United States Postal Service", "operator:short": "USPS", "operator:type": "public", "operator:wikidata": "Q668687", "ref": "5155100001"}, "type": "Feature"}
{"geometry": {"coordinates": [-95.586682249, 41.002393493], "type": "Point"}, "id": "ZFkhRywB9ivxEsmXee0BuXns4YI=", "properties": {"@source_uri": "https://tools.usps.com/UspsToolsRestServices/rest/POLocator/findLocations", "@spider": "usps_collection_boxes", "addr:city": "MALVERN", "addr:country": "US", "addr:postcode": "51551", "addr:state": "IA", "addr:street_address": "202 W 4TH ST", "amenity": "post_box", "collection_times": "Mo-Fr 16:00; Sa 09:00", "indoor": "yes", "note": "ON 12/24 AND 12/31, THIS BOX MAY BE COLLECTED AS EARLY AS 12 NOON.", "nsi_id": "unitedstatespostalservice-a77078", "operator": "United States Postal Service", "operator:short": "USPS", "operator:type": "public", "operator:wikidata": "Q668687", "ref": "5155100002"}, "type": "Feature"}
{"geometry": {"coordinates": [-95.586682249, 41.002393493], "type": "Point"}, "id": "tR4R_Gn_JaqGfxI-HQpPcgPb9PQ=", "properties": {"@source_uri": "https://tools.usps.com/UspsToolsRestServices/rest/POLocator/findLocations", "@spider": "usps_collection_boxes", "addr:city": "MALVERN", "addr:country": "US", "addr:postcode": "51551", "addr:state": "IA", "addr:street_address": "202 W 4TH ST", "amenity": "post_box", "collection_times": "Mo-Fr 16:00; Sa 09:00", "indoor": "yes", "note": "ON 12/24 AND 12/31, THIS BOX MAY BE COLLECTED AS EARLY AS 12 NOON.", "nsi_id": "unitedstatespostalservice-a77078", "operator": "United States Postal Service", "operator:short": "USPS", "operator:type": "public", "operator:wikidata": "Q668687", "ref": "5155100004"}, "type": "Feature"}
{"geometry": {"coordinates": [-95.111398166, 41.449167], "type": "Point"}, "id": "BvTtGDlsaHuyNhj0O_RwKCxrGc4=", "properties": {"@source_uri": "https://tools.usps.com/UspsToolsRestServices/rest/POLocator/findLocations", "@spider": "usps_collection_boxes", "addr:city": "MARNE", "addr:country": "US", "addr:postcode": "51552", "addr:state": "IA", "addr:street_address": "202 WASHINGTON ST", "amenity": "post_box", "collection_times": "Mo-Fr 16:15; Sa 14:00", "note": "ON 12/24 AND 12/31, THIS BOX MAY BE COLLECTED AS EARLY AS 12 NOON.", "nsi_id": "unitedstatespostalservice-a77078", "operator": "United States Postal Service", "operator:short": "USPS", "operator:type": "public", "operator:wikidata": "Q668687", "ref": "5155200001"}, "type": "Feature"}
{"geometry": {"coordinates": [-95.111398166, 41.449167], "type": "Point"}, "id": "BArzrt8AWke1lJk3KqHzWw4ZVPk=", "properties": {"@source_uri": "https://tools.usps.com/UspsToolsRestServices/rest/POLocator/findLocations", "@spider": "usps_collection_boxes", "addr:city": "MARNE", "addr:country": "US", "addr:postcode": "51552", "addr:state": "IA", "addr:street_address": "202 WASHINGTON ST", "amenity": "post_box", "collection_times": "Mo-Fr 15:30; Sa 14:15", "indoor": "yes", "note": "ON 12/24 AND 12/31, THIS BOX MAY BE COLLECTED AS EARLY AS 12 NOON.", "nsi_id": "unitedstatespostalservice-a77078", "operator": "United States Postal Service", "operator:short": "USPS", "operator:type": "public", "operator:wikidata": "Q668687", "ref": "5155200002"}, "type": "Feature"}
{"geometry": {"coordinates": [-95.111398166, 41.449167], "type": "Point"}, "id": "l_3Wtn1XVFfNr7fIXEM05A-MmHQ=", "properties": {"@source_uri": "https://tools.usps.com/UspsToolsRestServices/rest/POLocator/findLocations", "@spider": "usps_collection_boxes", "addr:city": "MARNE", "addr:country": "US", "addr:postcode": "51552", "addr:state": "IA", "addr:street_address": "202 WASHINGTON ST", "amenity": "post_box", "collection_times": "Mo-Fr 15:30; Sa 14:15", "indoor": "yes", "note": "ON 12/24 AND 12/31, THIS BOX MAY BE COLLECTED AS EARLY AS 12 NOON.", "nsi_id": "unitedstatespostalservice-a77078", "operator": "United States Postal Service", "operator:short": "USPS", "operator:type": "public", "operator:wikidata": "Q668687", "ref": "5155200004"}, "type": "Feature"}
{"geometry": {"coordinates": [-95.542914364, 41.466524628], "type": "Point"}, "id": "qxruDM4wwk5Ow9t1MooOGsZp9a0=", "properties": {"@source_uri": "https://tools.usps.com/UspsToolsRestServices/rest/POLocator/findLocations", "@spider": "usps_collection_boxes", "addr:city": "MINDEN", "addr:country": "US", "addr:postcode": "51553", "addr:state": "IA", "addr:street_address": "207 BROADWAY ST", "amenity": "post_box", "collection_times": "Mo-Fr 11:15; Sa 09:15", "nsi_id": "unitedstatespostalservice-a77078", "operator": "United States Postal Service", "operator:short": "USPS", "operator:type": "public", "operator:wikidata": "Q668687", "ref": "5155300001"}, "type": "Feature"}
{"geometry": {"coordinates": [-95.542914364, 41.466524628], "type": "Point"}, "id": "w0H48vVWMNB1OsSZcDjG8M8bvXc=", "properties": {"@source_uri": "https://tools.usps.com/UspsToolsRestServices/rest/POLocator/findLocations", "@spider": "usps_collection_boxes", "addr:city": "MINDEN", "addr:country": "US", "addr:postcode": "51553", "addr:state": "IA", "addr:street_address": "207 BROADWAY ST", "amenity": "post_box", "collection_times": "Mo-Fr 11:30; Sa 09:30", "indoor": "yes", "nsi_id": "unitedstatespostalservice-a77078", "operator": "United States Postal Service", "operator:short": "USPS", "operator:type": "public", "operator:wikidata": "Q668687", "ref": "5155300004"}, "type": "Feature"}
{"geometry": {"coordinates": [-95.542914364, 41.466524628], "type": "Point"}, "id": "CfhTuip9lcFpvi_nk5HkrMjprMg=", "properties": {"@source_uri": "https://tools.usps.com/UspsToolsRestServices/rest/POLocator/findLocations", "@spider": "usps_collection_boxes", "addr:city": "MINDEN", "addr:country": "US", "addr:postcode": "51553", "addr:state": "IA", "addr:street_address": "207 BROADWAY ST", "amenity": "post_box", "collection_times": "Mo-Fr 11:30; Sa 09:30", "indoor": "yes", "nsi_id": "unitedstatespostalservice-a77078", "operator": "United States Postal Service", "operator:short": "USPS", "operator:type": "public", "operator:wikidata": "Q668687", "ref": "5155300006"}, "type": "Feature"}
{"geometry": {"coordinates": [-95.694649972, 41.14333998], "type": "Point"}, "id": "kuPMiACIwmiXt3GtpOh41gSZVZI=", "properties": {"@source_uri": "https://tools.usps.com/UspsToolsRestServices/rest/POLocator/findLocations", "@spider": "usps_collection_boxes", "addr:city": "MINEOLA", "addr:country": "US", "addr:postcode": "51554", "addr:state": "IA", "addr:street_address": "410 MAIN ST", "amenity": "post_box", "collection_times": "Mo-Fr 11:45; Sa 10:15", "nsi_id": "unitedstatespostalservice-a77078", "operator": "United States Postal Service", "operator:short": "USPS", "operator:type": "public", "operator:wikidata": "Q668687", "ref": "5155400001"}, "type": "Feature"}
{"geometry": {"coordinates": [-95.694649972, 41.14333998], "type": "Point"}, "id": "5-ncQTg779-TUtKEWs6rf2qHubY=", "properties": {"@source_uri": "https://tools.usps.com/UspsToolsRestServices/rest/POLocator/findLocations", "@spider": "usps_collection_boxes", "addr:city": "MINEOLA", "addr:country": "US", "addr:postcode": "51554", "addr:state": "IA", "addr:street_address": "410 MAIN ST", "amenity": "post_box", "collection_times": "Mo-Fr 12:00; Sa 10:30", "indoor": "yes", "nsi_id": "unitedstatespostalservice-a77078", "operator": "United States Postal Service", "operator:short": "USPS", "operator:type": "public", "operator:wikidata": "Q668687", "ref": "5155400002"}, "type": "Feature"}
{"geometry": {"coordinates": [-95.694649972, 41.14333998], "type": "Point"}, "id": "dnlQzg4k5oORlrd-yhDBPyFBayU=", "properties": {"@source_uri": "https://tools.usps.com/UspsToolsRestServices/rest/POLocator/findLocations", "@spider": "usps_collection_boxes", "addr:city": "MINEOLA", "addr:country": "US", "addr:postcode": "51554", "addr:state": "IA", "addr:street_address": "410 MAIN ST", "amenity": "post_box", "collection_times": "Mo-Fr 12:00; Sa 10:30", "indoor": "yes", "nsi_id": "unitedstatespostalservice-a77078", "operator": "United States Postal Service", "operator:short": "USPS", "operator:type": "public", "operator:wikidata": "Q668687", "ref": "5155400004"}, "type": "Feature"}
{"geometry": {"coordinates": [-95.889014312, 41.55698722], "type": "Point"}, "id": "-SlxGmbDZcSGDS6FYN5SmPqp8jg=", "properties": {"@source_uri": "https://tools.usps.com/UspsToolsRestServices/rest/POLocator/findLocations", "@spider": "usps_collection_boxes", "addr:city": "MISSOURI VALLEY", "addr:country": "US", "addr:postcode": "51555", "addr:state": "IA", "addr:street_address": "116 N 5TH ST", "amenity": "post_box", "collection_times": "Mo-Fr 16:30; Sa 17:30", "note": "ON 12/24 AND 12/31, THIS BOX MAY BE COLLECTED AS EARLY AS 12 NOON.", "nsi_id": "unitedstatespostalservice-a77078", "operator": "United States Postal Service", "operator:short": "USPS", "operator:type": "public", "operator:wikidata": "Q668687", "ref": "5155500004"}, "type": "Feature"}
{"geometry": {"coordinates": [-95.889014312, 41.55698722], "type": "Point"}, "id": "pa-HCJW1-Hjnj0zToAzA1jCGvxc=", "properties": {"@source_uri": "https://tools.usps.com/UspsToolsRestServices/rest/POLocator/findLocations", "@spider": "usps_collection_boxes", "addr:city": "MISSOURI VALLEY", "addr:country": "US", "addr:postcode": "51555", "addr:state": "IA", "addr:street_address": "116 N 5TH ST", "amenity": "post_box", "collection_times": "Mo-Fr 16:30; Sa 10:30", "indoor": "yes", "note": "ON 12/24 AND 12/31, THIS BOX MAY BE COLLECTED AS EARLY AS 12 NOON.", "nsi_id": "unitedstatespostalservice-a77078", "operator": "United States Postal Service", "operator:short": "USPS", "operator:type": "public", "operator:wikidata": "Q668687", "ref": "5155500007"}, "type": "Feature"}
{"geometry": {"coordinates": [-95.889014312, 41.55698722], "type": "Point"}, "id": "kO9wc4zTAMcBcr0J3sdXj-u3PNM=", "properties": {"@source_uri": "https://tools.usps.com/UspsToolsRestServices/rest/POLocator/findLocations", "@spider": "usps_collection_boxes", "addr:city": "MISSOURI VALLEY", "addr:country": "US", "addr:postcode": "51555", "addr:state": "IA", "addr:street_address": "116 N 5TH ST", "amenity": "post_box", "collection_times": "Mo-Fr 16:30; Sa 10:30", "indoor": "yes", "note": "ON 12/24 AND 12/31, THIS BOX MAY BE COLLECTED AS EARLY AS 12 NOON.", "nsi_id": "unitedstatespostalservice-a77078", "operator": "United States Postal Service", "operator:short": "USPS", "operator:type": "public", "operator:wikidata": "Q668687", "ref": "5155500009"}, "type": "Feature"}
{"geometry": {"coordinates": [-96.011833287, 41.621354497], "type": "Point"}, "id": "5pTY4CcZRP7XV6-oM4ACdA3JNqA=", "properties": {"@source_uri": "https://tools.usps.com/UspsToolsRestServices/rest/POLocator/findLocations", "@spider": "usps_collection_boxes", "addr:city": "MODALE", "addr:country": "US", "addr:postcode": "51556", "addr:state": "IA", "addr:street_address": "204 N MAIN ST", "amenity": "post_box", "collection_times": "Mo-Fr 11:45; Sa 10:45", "nsi_id": "unitedstatespostalservice-a77078", "operator": "United States Postal Service", "operator:short": "USPS", "operator:type": "public", "operator:wikidata": "Q668687", "ref": "5155600001"}, "type": "Feature"}
{"geometry": {"coordinates": [-96.011833287, 41.621354497], "type": "Point"}, "id": "i2Ag9f2zldh_fF3-4gK9WTmNUSA=", "properties": {"@source_uri": "https://tools.usps.com/UspsToolsRestServices/rest/POLocator/findLocations", "@spider": "usps_collection_boxes", "addr:city": "MODALE", "addr:country": "US", "addr:postcode": "51556", "addr:state": "IA", "addr:street_address": "204 N MAIN ST", "amenity": "post_box", "collection_times": "Mo-Fr 11:45; Sa 10:45", "indoor": "yes", "nsi_id": "unitedstatespostalservice-a77078", "operator": "United States Postal Service", "operator:short": "USPS", "operator:type": "public", "operator:wikidata": "Q668687", "ref": "5155600002"}, "type": "Feature"}
{"geometry": {"coordinates": [-96.011833287, 41.621354497], "type": "Point"}, "id": "FdneV_od6N5RG01GnftjzbKPPQ0=", "properties": {"@source_uri": "https://tools.usps.com/UspsToolsRestServices/rest/POLocator/findLocations", "@spider": "usps_collection_boxes", "addr:city": "MODALE", "addr:country": "US", "addr:postcode": "51556", "addr:state": "IA", "addr:street_address": "204 N MAIN ST", "amenity": "post_box", "collection_times": "Mo-Fr 11:45; Sa 10:45", "indoor": "yes", "nsi_id": "unitedstatespostalservice-a77078", "operator": "United States Postal Service", "operator:short": "USPS", "operator:type": "public", "operator:wikidata": "Q668687", "ref": "5155600005"}, "type": "Feature"}
{"geometry": {"coordinates": [-96.022779891, 41.710288449], "type": "Point"}, "id": "55itJtLq3Cd9js_0rYj5jycErVc=", "properties": {"@source_uri": "https://tools.usps.com/UspsToolsRestServices/rest/POLocator/findLocations", "@spider": "usps_collection_boxes", "addr:city": "MONDAMIN", "addr:country": "US", "addr:postcode": "51557", "addr:state": "IA", "addr:street_address": "106 MAPLE ST", "amenity": "post_box", "collection_times": "Mo-Fr 11:15; Sa 08:45", "nsi_id": "unitedstatespostalservice-a77078", "operator": "United States Postal Service", "operator:short": "USPS", "operator:type": "public", "operator:wikidata": "Q668687", "ref": "5155700001"}, "type": "Feature"}
{"geometry": {"coordinates": [-96.022779891, 41.710288449], "type": "Point"}, "id": "Itiykg6thdAVO0wUFNFNTqGvT_8=", "properties": {"@source_uri": "https://tools.usps.com/UspsToolsRestServices/rest/POLocator/findLocations", "@spider": "usps_collection_boxes", "addr:city": "MONDAMIN", "addr:country": "US", "addr:postcode": "51557", "addr:state": "IA", "addr:street_address": "106 MAPLE ST", "amenity": "post_box", "collection_times": "Mo-Fr 11:30; Sa 09:00", "indoor": "yes", "nsi_id": "unitedstatespostalservice-a77078", "operator": "United States Postal Service", "operator:short": "USPS", "operator:type": "public", "operator:wikidata": "Q668687", "ref": "5155700002"}, "type": "Feature"}
{"geometry": {"coordinates": [-96.022779891, 41.710288449], "type": "Point"}, "id": "URHUINupkavQszA5BnRyKL1LQR0=", "properties": {"@source_uri": "https://tools.usps.com/UspsToolsRestServices/rest/POLocator/findLocations", "@spider": "usps_collection_boxes", "addr:city": "MONDAMIN", "addr:country": "US", "addr:postcode": "51557", "addr:state": "IA", "addr:street_address": "106 MAPLE ST", "amenity": "post_box", "collection_times": "Mo-Fr 11:30; Sa 09:00", "indoor": "yes", "nsi_id": "unitedstatespostalservice-a77078", "operator": "United States Postal Service", "operator:short": "USPS", "operator:type": "public", "operator:wikidata": "Q668687", "ref": "5155700004"}, "type": "Feature"}
{"geometry": {"coordinates": [-95.850961, 41.920273], "type": "Point"}, "id": "kJlmbk5ovPDi4daFC6QP4wdugnw=", "properties": {"@source_uri": "https://tools.usps.com/UspsToolsRestServices/rest/POLocator/findLocations", "@spider": "usps_collection_boxes", "addr:city": "MOORHEAD", "addr:country": "US", "addr:postcode": "51558", "addr:state": "IA", "addr:street_address": "106 1ST ST", "amenity": "post_box", "collection_times": "Mo-Fr 11:15; Sa 10:45", "nsi_id": "unitedstatespostalservice-a77078", "operator": "United States Postal Service", "operator:short": "USPS", "operator:type": "public", "operator:wikidata": "Q668687", "ref": "5155800001"}, "type": "Feature"}
{"geometry": {"coordinates": [-95.616702025, 41.448551353], "type": "Point"}, "id": "_FyVaa95CpfrCkQYmnRiDeeSuDg=", "properties": {"@source_uri": "https://tools.usps.com/UspsToolsRestServices/rest/POLocator/findLocations", "@spider": "usps_collection_boxes", "addr:city": "NEOLA", "addr:country": "US", "addr:postcode": "51559", "addr:state": "IA", "addr:street_address": "314 FRONT ST", "amenity": "post_box", "collection_times": "Mo-Fr 13:45; Sa 09:15", "note": "ON 12/24 AND 12/31, THIS BOX MAY BE COLLECTED AS EARLY AS 12 NOON.", "nsi_id": "unitedstatespostalservice-a77078", "operator": "United States Postal Service", "operator:short": "USPS", "operator:type": "public", "operator:wikidata": "Q668687", "ref": "5155900001"}, "type": "Feature"}
{"geometry": {"coordinates": [-95.616702025, 41.448551353], "type": "Point"}, "id": "9CKQBgxSfoC69gWftcpn186CIxI=", "properties": {"@source_uri": "https://tools.usps.com/UspsToolsRestServices/rest/POLocator/findLocations", "@spider": "usps_collection_boxes", "addr:city": "NEOLA", "addr:country": "US", "addr:postcode": "51559", "addr:state": "IA", "addr:street_address": "314 FRONT ST", "amenity": "post_box", "collection_times": "Mo-Fr 14:00; Sa 09:30", "indoor": "yes", "note": "ON 12/24 AND 12/31, THIS BOX MAY BE COLLECTED AS EARLY AS 12 NOON.", "nsi_id": "unitedstatespostalservice-a77078", "operator": "United States Postal Service", "operator:short": "USPS", "operator:type": "public", "operator:wikidata": "Q668687", "ref": "5155900002"}, "type": "Feature"}
{"geometry": {"coordinates": [-95.616702025, 41.448551353], "type": "Point"}, "id": "hTeaUalR9kvuf7uZkTSUFE2NhoY=", "properties": {"@source_uri": "https://tools.usps.com/UspsToolsRestServices/rest/POLocator/findLocations", "@spider": "usps_collection_boxes", "addr:city": "NEOLA", "addr:country": "US", "addr:postcode": "51559", "addr:state": "IA", "addr:street_address": "314 FRONT ST", "amenity": "post_box", "collection_times": "Mo-Fr 14:00; Sa 09:30", "indoor": "yes", "note": "ON 12/24 AND 12/31, THIS BOX MAY BE COLLECTED AS EARLY AS 12 NOON.", "nsi_id": "unitedstatespostalservice-a77078", "operator": "United States Postal Service", "operator:short": "USPS", "operator:type": "public", "operator:wikidata": "Q668687", "ref": "5155900004"}, "type": "Feature"}
{"geometry": {"coordinates": [-95.401610151, 41.301939186], "type": "Point"}, "id": "gkntgd9JGM_QTiSsHyn3i8UaybM=", "properties": {"@source_uri": "https://tools.usps.com/UspsToolsRestServices/rest/POLocator/findLocations", "@spider": "usps_collection_boxes", "addr:city": "OAKLAND", "addr:country": "US", "addr:postcode": "51560", "addr:state": "IA", "addr:street_address": "503 PIONEER AVE", "amenity": "post_box", "collection_times": "Mo-Fr 14:15; Sa 08:45", "note": "ON 12/24 AND 12/31, THIS BOX MAY BE COLLECTED AS EARLY AS 12 NOON.", "nsi_id": "unitedstatespostalservice-a77078", "operator": "United States Postal Service", "operator:short": "USPS", "operator:type": "public", "operator:wikidata": "Q668687", "ref": "5156000001"}, "type": "Feature"}
{"geometry": {"coordinates": [-95.401610151, 41.301939186], "type": "Point"}, "id": "o7yNzepKPRTqdRvqTSoU7vMAkzg=", "properties": {"@source_uri": "https://tools.usps.com/UspsToolsRestServices/rest/POLocator/findLocations", "@spider": "usps_collection_boxes", "addr:city": "OAKLAND", "addr:country": "US", "addr:postcode": "51560", "addr:state": "IA", "addr:street_address": "503 PIONEER AVE", "amenity": "post_box", "collection_times": "Mo-Fr 14:30; Sa 09:00", "indoor": "yes", "note": "ON 12/24 AND 12/31, THIS BOX MAY BE COLLECTED AS EARLY AS 12 NOON.", "nsi_id": "unitedstatespostalservice-a77078", "operator": "United States Postal Service", "operator:short": "USPS", "operator:type": "public", "operator:wikidata": "Q668687", "ref": "5156000002"}, "type": "Feature"}
{"geometry": {"coordinates": [-95.401610151, 41.301939186], "type": "Point"}, "id": "aBquavoHE-P4wvpLHsKxshN_0AQ=", "properties": {"@source_uri": "https://tools.usps.com/UspsToolsRestServices/rest/POLocator/findLocations", "@spider": "usps_collection_boxes", "addr:city": "OAKLAND", "addr:country": "US", "addr:postcode": "51560", "addr:state": "IA", "addr:street_address": "503 PIONEER AVE", "amenity": "post_box", "collection_times": "Mo-Fr 14:30; Sa 09:00", "indoor": "yes", "note": "ON 12/24 AND 12/31, THIS BOX MAY BE COLLECTED AS EARLY AS 12 NOON.", "nsi_id": "unitedstatespostalservice-a77078", "operator": "United States Postal Service", "operator:short": "USPS", "operator:type": "public", "operator:wikidata": "Q668687", "ref": "5156000004"}, "type": "Feature"}
{"geometry": {"coordinates": [-95.473182945, 41.726195453], "type": "Point"}, "id": "y-0XDrJ1jF3Ro3UmWavJvKsSjn8=", "properties": {"@source_uri": "https://tools.usps.com/UspsToolsRestServices/rest/POLocator/findLocations", "@spider": "usps_collection_boxes", "addr:city": "PANAMA", "addr:country": "US", "addr:postcode": "51562", "addr:state": "IA", "addr:street_address": "118 MAIN ST", "amenity": "post_box", "collection_times": "Mo-Fr 16:15; Sa 11:45", "note": "ON 12/24 AND 12/31, THIS BOX MAY BE COLLECTED AS EARLY AS 12 NOON.", "nsi_id": "unitedstatespostalservice-a77078", "operator": "United States Postal Service", "operator:short": "USPS", "operator:type": "public", "operator:wikidata": "Q668687", "ref": "5156200001"}, "type": "Feature"}
{"geometry": {"coordinates": [-95.473182945, 41.726195453], "type": "Point"}, "id": "mugnaFnWEgyxEDA9oaiJJhXyHh0=", "properties": {"@source_uri": "https://tools.usps.com/UspsToolsRestServices/rest/POLocator/findLocations", "@spider": "usps_collection_boxes", "addr:city": "PANAMA", "addr:country": "US", "addr:postcode": "51562", "addr:state": "IA", "addr:street_address": "118 MAIN ST", "amenity": "post_box", "collection_times": "Mo-Fr 16:30; Sa 12:00", "indoor": "yes", "note": "ON 12/24 AND 12/31, THIS BOX MAY BE COLLECTED AS EARLY AS 12 NOON.", "nsi_id": "unitedstatespostalservice-a77078", "operator": "United States Postal Service", "operator:short": "USPS", "operator:type": "public", "operator:wikidata": "Q668687", "ref": "5156200002"}, "type": "Feature"}
{"geometry": {"coordinates": [-95.473182945, 41.726195453], "type": "Point"}, "id": "IjxOS0N1gNw-Xrc-S_V498ZZugg=", "properties": {"@source_uri": "https://tools.usps.com/UspsToolsRestServices/rest/POLocator/findLocations", "@spider": "usps_collection_boxes", "addr:city": "PANAMA", "addr:country": "US", "addr:postcode": "51562", "addr:state": "IA", "addr:street_address": "118 MAIN ST", "amenity": "post_box", "collection_times": "Mo-Fr 16:30; Sa 12:00", "indoor": "yes", "note": "ON 12/24 AND 12/31, THIS BOX MAY BE COLLECTED AS EARLY AS 12 NOON.", "nsi_id": "unitedstatespostalservice-a77078", "operator": "United States Postal Service", "operator:short": "USPS", "operator:type": "public", "operator:wikidata": "Q668687", "ref": "5156200004"}, "type": "Feature"}
{"geometry": {"coordinates": [-95.568620055, 41.579590472], "type": "Point"}, "id": "VDcyEMZpiWAazM2VmD2SmMJgU28=", "properties": {"@source_uri": "https://tools.usps.com/UspsToolsRestServices/rest/POLocator/findLocations", "@spider": "usps_collection_boxes", "addr:city": "PERSIA", "addr:country": "US", "addr:postcode": "51563", "addr:state": "IA", "addr:street_address": "105 MAIN ST", "amenity": "post_box", "collection_times": "Mo-Fr 11:15; Sa 09:15", "nsi_id": "unitedstatespostalservice-a77078", "operator": "United States Postal Service", "operator:short": "USPS", "operator:type": "public", "operator:wikidata": "Q668687", "ref": "5156300001"}, "type": "Feature"}
{"geometry": {"coordinates": [-95.568620055, 41.579590472], "type": "Point"}, "id": "FEBJC_XW86fKFnavICbVcVYUklE=", "properties": {"@source_uri": "https://tools.usps.com/UspsToolsRestServices/rest/POLocator/findLocations", "@spider": "usps_collection_boxes", "addr:city": "PERSIA", "addr:country": "US", "addr:postcode": "51563", "addr:state": "IA", "addr:street_address": "105 MAIN ST", "amenity": "post_box", "collection_times": "Mo-Fr 11:30; Sa 09:30", "indoor": "yes", "nsi_id": "unitedstatespostalservice-a77078", "operator": "United States Postal Service", "operator:short": "USPS", "operator:type": "public", "operator:wikidata": "Q668687", "ref": "5156300002"}, "type": "Feature"}
{"geometry": {"coordinates": [-95.568620055, 41.579590472], "type": "Point"}, "id": "HtRZ_Z6Z36yjv6Lw6l-9TjZzzpk=", "properties": {"@source_uri": "https://tools.usps.com/UspsToolsRestServices/rest/POLocator/findLocations", "@spider": "usps_collection_boxes", "addr:city": "PERSIA", "addr:country": "US", "addr:postcode": "51563", "addr:state": "IA", "addr:street_address": "105 MAIN ST", "amenity": "post_box", "collection_times": "Mo-Fr 11:30; Sa 09:30", "indoor": "yes", "nsi_id": "unitedstatespostalservice-a77078", "operator": "United States Postal Service", "operator:short": "USPS", "operator:type": "public", "operator:wikidata": "Q668687", "ref": "5156300004"}, "type": "Feature"}
{"geometry": {"coordinates": [-95.926771105, 41.83153753], "type": "Point"}, "id": "rc4HWT7Cvd4m4P718L2tf7cvo_Y=", "properties": {"@source_uri": "https://tools.usps.com/UspsToolsRestServices/rest/POLocator/findLocations", "@spider": "usps_collection_boxes", "addr:city": "PISGAH", "addr:country": "US", "addr:postcode": "51564", "addr:state": "IA", "addr:street_address": "105 W MAIN ST", "amenity": "post_box", "collection_times": "Mo-Fr 16:15; Sa 14:15", "note": "ON 12/24 AND 12/31, THIS BOX MAY BE COLLECTED AS EARLY AS 12 NOON.", "nsi_id": "unitedstatespostalservice-a77078", "operator": "United States Postal Service", "operator:short": "USPS", "operator:type": "public", "operator:wikidata": "Q668687", "ref": "5156400001"}, "type": "Feature"}
{"geometry": {"coordinates": [-95.926771105, 41.83153753], "type": "Point"}, "id": "gIAgXbAXfaNy-GbfkWxQzuFUeAk=", "properties": {"@source_uri": "https://tools.usps.com/UspsToolsRestServices/rest/POLocator/findLocations", "@spider": "usps_collection_boxes", "addr:city": "PISGAH", "addr:country": "US", "addr:postcode": "51564", "addr:state": "IA", "addr:street_address": "105 W MAIN ST", "amenity": "post_box", "collection_times": "Mo-Fr 16:20; Sa 14:30", "indoor": "yes", "note": "ON 12/24 AND 12/31, THIS BOX MAY BE COLLECTED AS EARLY AS 12 NOON.", "nsi_id": "unitedstatespostalservice-a77078", "operator": "United States Postal Service", "operator:short": "USPS", "operator:type": "public", "operator:wikidata": "Q668687", "ref": "5156400002"}, "type": "Feature"}
{"geometry": {"coordinates": [-95.926771105, 41.83153753], "type": "Point"}, "id": "Pmg9RBAfwDVE4K3hwTkgRJnUA8A=", "properties": {"@source_uri": "https://tools.usps.com/UspsToolsRestServices/rest/POLocator/findLocations", "@spider": "usps_collection_boxes", "addr:city": "PISGAH", "addr:country": "US", "addr:postcode": "51564", "addr:state": "IA", "addr:street_address": "105 W MAIN ST", "amenity": "post_box", "collection_times": "Mo-Fr 16:20; Sa 14:30", "indoor": "yes", "note": "ON 12/24 AND 12/31, THIS BOX MAY BE COLLECTED AS EARLY AS 12 NOON.", "nsi_id": "unitedstatespostalservice-a77078", "operator": "United States Postal Service", "operator:short": "USPS", "operator:type": "public", "operator:wikidata": "Q668687", "ref": "5156400004"}, "type": "Feature"}
{"geometry": {"coordinates": [-95.519290668, 41.650092512], "type": "Point"}, "id": "OPG6BQtAxHA8sF33QD7HDeikjCA=", "properties": {"@source_uri": "https://tools.usps.com/UspsToolsRestServices/rest/POLocator/findLocations", "@spider": "usps_collection_boxes", "addr:city": "PORTSMOUTH", "addr:country": "US", "addr:postcode": "51565", "addr:state": "IA", "addr:street_address": "207 MAIN ST", "amenity": "post_box", "collection_times": "Mo-Fr 11:45; Sa 09:30", "nsi_id": "unitedstatespostalservice-a77078", "operator": "United States Postal Service", "operator:short": "USPS", "operator:type": "public", "operator:wikidata": "Q668687", "ref": "5156500001"}, "type": "Feature"}
{"geometry": {"coordinates": [-95.519290668, 41.650092512], "type": "Point"}, "id": "6dM3MRQ6bH4SIXci0ButvPrlMIU=", "properties": {"@source_uri": "https://tools.usps.com/UspsToolsRestServices/rest/POLocator/findLocations", "@spider": "usps_collection_boxes", "addr:city": "PORTSMOUTH", "addr:country": "US", "addr:postcode": "51565", "addr:state": "IA", "addr:street_address": "207 MAIN ST", "amenity": "post_box", "collection_times": "Mo-Fr 12:00; Sa 09:45", "indoor": "yes", "nsi_id": "unitedstatespostalservice-a77078", "operator": "United States Postal Service", "operator:short": "USPS", "operator:type": "public", "operator:wikidata": "Q668687", "ref": "5156500002"}, "type": "Feature"}
{"geometry": {"coordinates": [-95.519290668, 41.650092512], "type": "Point"}, "id": "N4U42rYVztr3nm_h8InInYaaEXQ=", "properties": {"@source_uri": "https://tools.usps.com/UspsToolsRestServices/rest/POLocator/findLocations", "@spider": "usps_collection_boxes", "addr:city": "PORTSMOUTH", "addr:country": "US", "addr:postcode": "51565", "addr:state": "IA", "addr:street_address": "207 MAIN ST", "amenity": "post_box", "collection_times": "Mo-Fr 12:00; Sa 09:45", "indoor": "yes", "nsi_id": "unitedstatespostalservice-a77078", "operator": "United States Postal Service", "operator:short": "USPS", "operator:type": "public", "operator:wikidata": "Q668687", "ref": "5156500004"}, "type": "Feature"}
{"geometry": {"coordinates": [-95.232838241, 41.018553336], "type": "Point"}, "id": "u8k_1WnYtsP-SNNPisnRrsfpFnM=", "properties": {"@source_uri": "https://tools.usps.com/UspsToolsRestServices/rest/POLocator/findLocations", "@spider": "usps_collection_boxes", "addr:city": "RED OAK", "addr:country": "US", "addr:postcode": "51566", "addr:state": "IA", "addr:street_address": "1605A N BROADWAY ST", "amenity": "post_box", "collection_times": "Mo-Fr 15:00; Sa 13:00", "note": "ON 12/24 AND 12/31, THIS BOX MAY BE COLLECTED AS EARLY AS 12 NOON.", "nsi_id": "unitedstatespostalservice-a77078", "operator": "United States Postal Service", "operator:short": "USPS", "operator:type": "public", "operator:wikidata": "Q668687", "ref": "5156600002"}, "type": "Feature"}
{"geometry": {"coordinates": [-95.2341399972, 41.0273900121], "type": "Point"}, "id": "_T6yGJ3iaRyezHeSYLBU60aVn_w=", "properties": {"@source_uri": "https://tools.usps.com/UspsToolsRestServices/rest/POLocator/findLocations", "@spider": "usps_collection_boxes", "addr:city": "RED OAK", "addr:country": "US", "addr:postcode": "51566", "addr:state": "IA", "addr:street_address": "2405 N BROADWAY ST", "amenity": "post_box", "collection_times": "Mo-Sa 12:00", "nsi_id": "unitedstatespostalservice-a77078", "operator": "United States Postal Service", "operator:short": "USPS", "operator:type": "public", "operator:wikidata": "Q668687", "ref": "5156600003"}, "type": "Feature"}
{"geometry": {"coordinates": [-95.231002332, 41.008945453], "type": "Point"}, "id": "qvVoQJF9HeJmaV22VEt0Vr1XoBU=", "properties": {"@source_uri": "https://tools.usps.com/UspsToolsRestServices/rest/POLocator/findLocations", "@spider": "usps_collection_boxes", "addr:city": "RED OAK", "addr:country": "US", "addr:postcode": "51566", "addr:state": "IA", "addr:street_address": "105 E COOLBAUGH ST", "amenity": "post_box", "collection_times": "Mo-Fr 15:00; Sa 13:00", "note": "ON 12/24 AND 12/31, THIS BOX MAY BE COLLECTED AS EARLY AS 12 NOON.", "nsi_id": "unitedstatespostalservice-a77078", "operator": "United States Postal Service", "operator:short": "USPS", "operator:type": "public", "operator:wikidata": "Q668687", "ref": "5156600004"}, "type": "Feature"}
{"geometry": {"coordinates": [-95.2264035, 41.00891646], "type": "Point"}, "id": "L9N7ATPzJk62NNv7aJxpYw3HcXc=", "properties": {"@source_uri": "https://tools.usps.com/UspsToolsRestServices/rest/POLocator/findLocations", "@spider": "usps_collection_boxes", "addr:city": "RED OAK", "addr:country": "US", "addr:postcode": "51566", "addr:state": "IA", "addr:street_address": "503 E COOLBAUGH ST", "amenity": "post_box", "collection_times": "Mo-Fr 17:00; Sa 11:15", "note": "ON 12/24 AND 12/31, THIS BOX MAY BE COLLECTED AS EARLY AS 12 NOON.", "nsi_id": "unitedstatespostalservice-a77078", "operator": "United States Postal Service", "operator:short": "USPS", "operator:type": "public", "operator:wikidata": "Q668687", "ref": "5156600007"}, "type": "Feature"}
{"geometry": {"coordinates": [-95.2264035, 41.00891646], "type": "Point"}, "id": "OVFbA25z0VR0oxIoax55wTKASVU=", "properties": {"@source_uri": "https://tools.usps.com/UspsToolsRestServices/rest/POLocator/findLocations", "@spider": "usps_collection_boxes", "addr:city": "RED OAK", "addr:country": "US", "addr:postcode": "51566", "addr:state": "IA", "addr:street_address": "503 E COOLBAUGH ST", "amenity": "post_box", "collection_times": "Mo-Fr 16:00; Sa 11:00", "indoor": "yes", "note": "ON 12/24 AND 12/31, THIS BOX MAY BE COLLECTED AS EARLY AS 12 NOON.", "nsi_id": "unitedstatespostalservice-a77078", "operator": "United States Postal Service", "operator:short": "USPS", "operator:type": "public", "operator:wikidata": "Q668687", "ref": "5156600011"}, "type": "Feature"}
{"geometry": {"coordinates": [-95.2264035, 41.00891646], "type": "Point"}, "id": "85pvFijnwMUwbPdQsPweoIHA78Y=", "properties": {"@source_uri": "https://tools.usps.com/UspsToolsRestServices/rest/POLocator/findLocations", "@spider": "usps_collection_boxes", "addr:city": "RED OAK", "addr:country": "US", "addr:postcode": "51566", "addr:state": "IA", "addr:street_address": "503 E COOLBAUGH ST", "amenity": "post_box", "collection_times": "Mo-Fr 16:00; Sa 11:00", "indoor": "yes", "note": "ON 12/24 AND 12/31, THIS BOX MAY BE COLLECTED AS EARLY AS 12 NOON.", "nsi_id": "unitedstatespostalservice-a77078", "operator": "United States Postal Service", "operator:short": "USPS", "operator:type": "public", "operator:wikidata": "Q668687", "ref": "5156600014"}, "type": "Feature"}
{"geometry": {"coordinates": [-95.4499200245, 41.5154600197], "type": "Point"}, "id": "k-2DWF4cNLscsCrj_Xy8GzxHVdI=", "properties": {"@source_uri": "https://tools.usps.com/UspsToolsRestServices/rest/POLocator/findLocations", "@spider": "usps_collection_boxes", "addr:city": "SHELBY", "addr:country": "US", "addr:postcode": "51570", "addr:state": "IA", "addr:street_address": "415 EAST ST", "amenity": "post_box", "collection_times": "Mo-Fr 15:45; Sa 09:00", "note": "ON 12/24 AND 12/31, THIS BOX MAY BE COLLECTED AS EARLY AS 12 NOON.", "nsi_id": "unitedstatespostalservice-a77078", "operator": "United States Postal Service", "operator:short": "USPS", "operator:type": "public", "operator:wikidata": "Q668687", "ref": "5157000001"}, "type": "Feature"}
{"geometry": {"coordinates": [-95.450300521, 41.515529197], "type": "Point"}, "id": "ojOBGfi09syHtlfAxkDmlw4Va3w=", "properties": {"@source_uri": "https://tools.usps.com/UspsToolsRestServices/rest/POLocator/findLocations", "@spider": "usps_collection_boxes", "addr:city": "SHELBY", "addr:country": "US", "addr:postcode": "51570", "addr:state": "IA", "addr:street_address": "415 EAST ST", "amenity": "post_box", "collection_times": "Mo-Fr 11:30; Sa 09:30", "indoor": "yes", "nsi_id": "unitedstatespostalservice-a77078", "operator": "United States Postal Service", "operator:short": "USPS", "operator:type": "public", "operator:wikidata": "Q668687", "ref": "5157000002"}, "type": "Feature"}
{"geometry": {"coordinates": [-95.450300521, 41.515529197], "type": "Point"}, "id": "r_OT5RzpB7HE9WEdAykypeeKY6s=", "properties": {"@source_uri": "https://tools.usps.com/UspsToolsRestServices/rest/POLocator/findLocations", "@spider": "usps_collection_boxes", "addr:city": "SHELBY", "addr:country": "US", "addr:postcode": "51570", "addr:state": "IA", "addr:street_address": "415 EAST ST", "amenity": "post_box", "collection_times": "Mo-Fr 11:30; Sa 09:30", "indoor": "yes", "nsi_id": "unitedstatespostalservice-a77078", "operator": "United States Postal Service", "operator:short": "USPS", "operator:type": "public", "operator:wikidata": "Q668687", "ref": "5157000004"}, "type": "Feature"}
{"geometry": {"coordinates": [-95.637394509, 41.112917665], "type": "Point"}, "id": "OuIDdffcYnIhg0zp7UbI3NRB4hI=", "properties": {"@source_uri": "https://tools.usps.com/UspsToolsRestServices/rest/POLocator/findLocations", "@spider": "usps_collection_boxes", "addr:city": "SILVER CITY", "addr:country": "US", "addr:postcode": "51571", "addr:state": "IA", "addr:street_address": "413 MAIN ST", "amenity": "post_box", "collection_times": "Mo-Fr 12:45; Sa 12:00", "note": "ON 12/24 AND 12/31, THIS BOX MAY BE COLLECTED AS EARLY AS 12 NOON.", "nsi_id": "unitedstatespostalservice-a77078", "operator": "United States Postal Service", "operator:short": "USPS", "operator:type": "public", "operator:wikidata": "Q668687", "ref": "5157100001"}, "type": "Feature"}
{"geometry": {"coordinates": [-95.637394509, 41.112917665], "type": "Point"}, "id": "cO7WQeI-cdiX6IWJSqi5NhyzqTw=", "properties": {"@source_uri": "https://tools.usps.com/UspsToolsRestServices/rest/POLocator/findLocations", "@spider": "usps_collection_boxes", "addr:city": "SILVER CITY", "addr:country": "US", "addr:postcode": "51571", "addr:state": "IA", "addr:street_address": "413 MAIN ST", "amenity": "post_box", "collection_times": "Mo-Fr 13:00; Sa 12:15", "indoor": "yes", "note": "ON 12/24 AND 12/31, THIS BOX MAY BE COLLECTED AS EARLY AS 12 NOON.", "nsi_id": "unitedstatespostalservice-a77078", "operator": "United States Postal Service", "operator:short": "USPS", "operator:type": "public", "operator:wikidata": "Q668687", "ref": "5157100002"}, "type": "Feature"}
{"geometry": {"coordinates": [-95.637394509, 41.112917665], "type": "Point"}, "id": "NnzMMCcmUBfCCgdTXIbyXVep19U=", "properties": {"@source_uri": "https://tools.usps.com/UspsToolsRestServices/rest/POLocator/findLocations", "@spider": "usps_collection_boxes", "addr:city": "SILVER CITY", "addr:country": "US", "addr:postcode": "51571", "addr:state": "IA", "addr:street_address": "413 MAIN ST", "amenity": "post_box", "collection_times": "Mo-Fr 13:00; Sa 12:15", "indoor": "yes", "note": "ON 12/24 AND 12/31, THIS BOX MAY BE COLLECTED AS EARLY AS 12 NOON.", "nsi_id": "unitedstatespostalservice-a77078", "operator": "United States Postal Service", "operator:short": "USPS", "operator:type": "public", "operator:wikidata": "Q668687", "ref": "5157100005"}, "type": "Feature"}
{"geometry": {"coordinates": [-95.781392832, 41.984111496], "type": "Point"}, "id": "DZk-0V4KjWZ9ahLyPvevTn3t7fM=", "properties": {"@source_uri": "https://tools.usps.com/UspsToolsRestServices/rest/POLocator/findLocations", "@spider": "usps_collection_boxes", "addr:city": "SOLDIER", "addr:country": "US", "addr:postcode": "51572", "addr:state": "IA", "addr:street_address": "200 ELM ST", "amenity": "post_box", "collection_times": "Mo-Fr 11:15; Sa 09:00", "nsi_id": "unitedstatespostalservice-a77078", "operator": "United States Postal Service", "operator:short": "USPS", "operator:type": "public", "operator:wikidata": "Q668687", "ref": "5157200001"}, "type": "Feature"}
{"geometry": {"coordinates": [-95.781392832, 41.984111496], "type": "Point"}, "id": "g9GQx85etTjqFozIw4JwqSywDRQ=", "properties": {"@source_uri": "https://tools.usps.com/UspsToolsRestServices/rest/POLocator/findLocations", "@spider": "usps_collection_boxes", "addr:city": "SOLDIER", "addr:country": "US", "addr:postcode": "51572", "addr:state": "IA", "addr:street_address": "200 ELM ST", "amenity": "post_box", "collection_times": "Mo-Fr 11:30; Sa 09:15", "indoor": "yes", "nsi_id": "unitedstatespostalservice-a77078", "operator": "United States Postal Service", "operator:short": "USPS", "operator:type": "public", "operator:wikidata": "Q668687", "ref": "5157200002"}, "type": "Feature"}
{"geometry": {"coordinates": [-95.781392832, 41.984111496], "type": "Point"}, "id": "9K9bDB2kEd6I-xg9liWFS3jH2ss=", "properties": {"@source_uri": "https://tools.usps.com/UspsToolsRestServices/rest/POLocator/findLocations", "@spider": "usps_collection_boxes", "addr:city": "SOLDIER", "addr:country": "US", "addr:postcode": "51572", "addr:state": "IA", "addr:street_address": "200 ELM ST", "amenity": "post_box", "collection_times": "Mo-Fr 11:30; Sa 09:15", "indoor": "yes", "nsi_id": "unitedstatespostalservice-a77078", "operator": "United States Postal Service", "operator:short": "USPS", "operator:type": "public", "operator:wikidata": "Q668687", "ref": "5157200005"}, "type": "Feature"}
{"geometry": {"coordinates": [-95.104023387, 40.980568066], "type": "Point"}, "id": "WuolbTfAQroWBB3lKTTYmiOthFI=", "properties": {"@source_uri": "https://tools.usps.com/UspsToolsRestServices/rest/POLocator/findLocations", "@spider": "usps_collection_boxes", "addr:city": "STANTON", "addr:country": "US", "addr:postcode": "51573", "addr:state": "IA", "addr:street_address": "304 BROAD AVE", "amenity": "post_box", "collection_times": "Mo-Fr 15:15; Sa 10:15", "note": "ON 12/24 AND 12/31, THIS BOX MAY BE COLLECTED AS EARLY AS 12 NOON.", "nsi_id": "unitedstatespostalservice-a77078", "operator": "United States Postal Service", "operator:short": "USPS", "operator:type": "public", "operator:wikidata": "Q668687", "ref": "5157300001"}, "type": "Feature"}
{"geometry": {"coordinates": [-95.104023387, 40.980568066], "type": "Point"}, "id": "Ek8PxGCwQS-2_D_795DHpH7ppzw=", "properties": {"@source_uri": "https://tools.usps.com/UspsToolsRestServices/rest/POLocator/findLocations", "@spider": "usps_collection_boxes", "addr:city": "STANTON", "addr:country": "US", "addr:postcode": "51573", "addr:state": "IA", "addr:street_address": "304 BROAD AVE", "amenity": "post_box", "collection_times": "Mo-Fr 15:30; Sa 10:30", "indoor": "yes", "note": "ON 12/24 AND 12/31, THIS BOX MAY BE COLLECTED AS EARLY AS 12 NOON.", "nsi_id": "unitedstatespostalservice-a77078", "operator": "United States Postal Service", "operator:short": "USPS", "operator:type": "public", "operator:wikidata": "Q668687", "ref": "5157300002"}, "type": "Feature"}
{"geometry": {"coordinates": [-95.104023387, 40.980568066], "type": "Point"}, "id": "o9cFH_e09SRq1eTRMmWPLHwX5SA=", "properties": {"@source_uri": "https://tools.usps.com/UspsToolsRestServices/rest/POLocator/findLocations", "@spider": "usps_collection_boxes", "addr:city": "STANTON", "addr:country": "US", "addr:postcode": "51573", "addr:state": "IA", "addr:street_address": "304 BROAD AVE", "amenity": "post_box", "collection_times": "Mo-Fr 15:30; Sa 10:30", "indoor": "yes", "note": "ON 12/24 AND 12/31, THIS BOX MAY BE COLLECTED AS EARLY AS 12 NOON.", "nsi_id": "unitedstatespostalservice-a77078", "operator": "United States Postal Service", "operator:short": "USPS", "operator:type": "public", "operator:wikidata": "Q668687", "ref": "5157300005"}, "type": "Feature"}
{"geometry": {"coordinates": [-95.613036557, 41.232824329], "type": "Point"}, "id": "5wzugQGXjYc17sTvf4SCzCJkX3U=", "properties": {"@source_uri": "https://tools.usps.com/UspsToolsRestServices/rest/POLocator/findLocations", "@spider": "usps_collection_boxes", "addr:city": "TREYNOR", "addr:country": "US", "addr:postcode": "51575", "addr:state": "IA", "addr:street_address": "5 N EYBERG ST", "amenity": "post_box", "collection_times": "Mo-Fr 15:45; Sa 10:15", "note": "ON 12/24 AND 12/31, THIS BOX MAY BE COLLECTED AS EARLY AS 12 NOON.", "nsi_id": "unitedstatespostalservice-a77078", "operator": "United States Postal Service", "operator:short": "USPS", "operator:type": "public", "operator:wikidata": "Q668687", "ref": "5157500001"}, "type": "Feature"}
{"geometry": {"coordinates": [-95.613036557, 41.232824329], "type": "Point"}, "id": "76lDHUOgoU-L-cHLtgdd7MEWIgg=", "properties": {"@source_uri": "https://tools.usps.com/UspsToolsRestServices/rest/POLocator/findLocations", "@spider": "usps_collection_boxes", "addr:city": "TREYNOR", "addr:country": "US", "addr:postcode": "51575", "addr:state": "IA", "addr:street_address": "5 N EYBERG ST", "amenity": "post_box", "collection_times": "Mo-Fr 16:00; Sa 10:30", "indoor": "yes", "note": "ON 12/24 AND 12/31, THIS BOX MAY BE COLLECTED AS EARLY AS 12 NOON.", "nsi_id": "unitedstatespostalservice-a77078", "operator": "United States Postal Service", "operator:short": "USPS", "operator:type": "public", "operator:wikidata": "Q668687", "ref": "5157500003"}, "type": "Feature"}
{"geometry": {"coordinates": [-95.613036557, 41.232824329], "type": "Point"}, "id": "rWQj3ULPW7rxI4FEqrST3WlKG94=", "properties": {"@source_uri": "https://tools.usps.com/UspsToolsRestServices/rest/POLocator/findLocations", "@spider": "usps_collection_boxes", "addr:city": "TREYNOR", "addr:country": "US", "addr:postcode": "51575", "addr:state": "IA", "addr:street_address": "5 N EYBERG ST", "amenity": "post_box", "collection_times": "Mo-Fr 16:00; Sa 10:30", "indoor": "yes", "note": "ON 12/24 AND 12/31, THIS BOX MAY BE COLLECTED AS EARLY AS 12 NOON.", "nsi_id": "unitedstatespostalservice-a77078", "operator": "United States Postal Service", "operator:short": "USPS", "operator:type": "public", "operator:wikidata": "Q668687", "ref": "5157500005"}, "type": "Feature"}
{"geometry": {"coordinates": [-95.678811, 41.3870955], "type": "Point"}, "id": "_mTzbG-PTsc27aaS6pFGo07FgZU=", "properties": {"@source_uri": "https://tools.usps.com/UspsToolsRestServices/rest/POLocator/findLocations", "@spider": "usps_collection_boxes", "addr:city": "UNDERWOOD", "addr:country": "US", "addr:postcode": "51576", "addr:state": "IA", "addr:street_address": "313 3RD ST", "amenity": "post_box", "collection_times": "Mo-Fr 14:15; Sa 09:45", "note": "ON 12/24 AND 12/31, THIS BOX MAY BE COLLECTED AS EARLY AS 12 NOON.", "nsi_id": "unitedstatespostalservice-a77078", "operator": "United States Postal Service", "operator:short": "USPS", "operator:type": "public", "operator:wikidata": "Q668687", "ref": "5157600001"}, "type": "Feature"}
{"geometry": {"coordinates": [-95.678811, 41.3870955], "type": "Point"}, "id": "-mQrWdwKJhHV4Qw-opzIfd8WBhA=", "properties": {"@source_uri": "https://tools.usps.com/UspsToolsRestServices/rest/POLocator/findLocations", "@spider": "usps_collection_boxes", "addr:city": "UNDERWOOD", "addr:country": "US", "addr:postcode": "51576", "addr:state": "IA", "addr:street_address": "313 3RD ST", "amenity": "post_box", "collection_times": "Mo-Fr 14:30; Sa 10:00", "indoor": "yes", "note": "ON 12/24 AND 12/31, THIS BOX MAY BE COLLECTED AS EARLY AS 12 NOON.", "nsi_id": "unitedstatespostalservice-a77078", "operator": "United States Postal Service", "operator:short": "USPS", "operator:type": "public", "operator:wikidata": "Q668687", "ref": "5157600002"}, "type": "Feature"}
{"geometry": {"coordinates": [-95.678811, 41.3870955], "type": "Point"}, "id": "IEJCEOfHX3csHx_OLwACPRi8xyQ=", "properties": {"@source_uri": "https://tools.usps.com/UspsToolsRestServices/rest/POLocator/findLocations", "@spider": "usps_collection_boxes", "addr:city": "UNDERWOOD", "addr:country": "US", "addr:postcode": "51576", "addr:state": "IA", "addr:street_address": "313 3RD ST", "amenity": "post_box", "collection_times": "Mo-Fr 14:30; Sa 10:00", "indoor": "yes", "note": "ON 12/24 AND 12/31, THIS BOX MAY BE COLLECTED AS EARLY AS 12 NOON.", "nsi_id": "unitedstatespostalservice-a77078", "operator": "United States Postal Service", "operator:short": "USPS", "operator:type": "public", "operator:wikidata": "Q668687", "ref": "5157600004"}, "type": "Feature"}
{"geometry": {"coordinates": [-95.222106804, 41.476661749], "type": "Point"}, "id": "_l2bIB0flKWRquu6ONpLBdiIZL0=", "properties": {"@source_uri": "https://tools.usps.com/UspsToolsRestServices/rest/POLocator/findLocations", "@spider": "usps_collection_boxes", "addr:city": "WALNUT", "addr:country": "US", "addr:postcode": "51577", "addr:state": "IA", "addr:street_address": "217 ANTIQUE CITY DR", "amenity": "post_box", "collection_times": "Mo-Fr 14:15; Sa 11:00", "note": "ON 12/24 AND 12/31, THIS BOX MAY BE COLLECTED AS EARLY AS 12 NOON.", "nsi_id": "unitedstatespostalservice-a77078", "operator": "United States Postal Service", "operator:short": "USPS", "operator:type": "public", "operator:wikidata": "Q668687", "ref": "5157700000"}, "type": "Feature"}
{"geometry": {"coordinates": [-95.222106804, 41.476661749], "type": "Point"}, "id": "_lwRqil2WpjOeHwJMchdt17Avjo=", "properties": {"@source_uri": "https://tools.usps.com/UspsToolsRestServices/rest/POLocator/findLocations", "@spider": "usps_collection_boxes", "addr:city": "WALNUT", "addr:country": "US", "addr:postcode": "51577", "addr:state": "IA", "addr:street_address": "217 ANTIQUE CITY DR", "amenity": "post_box", "collection_times": "Mo-Fr 14:30; Sa 09:45", "indoor": "yes", "note": "ON 12/24 AND 12/31, THIS BOX MAY BE COLLECTED AS EARLY AS 12 NOON.", "nsi_id": "unitedstatespostalservice-a77078", "operator": "United States Postal Service", "operator:short": "USPS", "operator:type": "public", "operator:wikidata": "Q668687", "ref": "5157700001"}, "type": "Feature"}
{"geometry": {"coordinates": [-95.222106804, 41.476661749], "type": "Point"}, "id": "f82bmV_MQC8B6MrYtM9DmwDSqUs=", "properties": {"@source_uri": "https://tools.usps.com/UspsToolsRestServices/rest/POLocator/findLocations", "@spider": "usps_collection_boxes", "addr:city": "WALNUT", "addr:country": "US", "addr:postcode": "51577", "addr:state": "IA", "addr:street_address": "217 ANTIQUE CITY DR", "amenity": "post_box", "collection_times": "Mo-Fr 14:30; Sa 09:45", "indoor": "yes", "note": "ON 12/24 AND 12/31, THIS BOX MAY BE COLLECTED AS EARLY AS 12 NOON.", "nsi_id": "unitedstatespostalservice-a77078", "operator": "United States Postal Service", "operator:short": "USPS", "operator:type": "public", "operator:wikidata": "Q668687", "ref": "5157700003"}, "type": "Feature"}
{"geometry": {"coordinates": [-95.396369285, 41.718953694], "type": "Point"}, "id": "5bkLqUEtqZif-d4Q1b-f9krr6bM=", "properties": {"@source_uri": "https://tools.usps.com/UspsToolsRestServices/rest/POLocator/findLocations", "@spider": "usps_collection_boxes", "addr:city": "WESTPHALIA", "addr:country": "US", "addr:postcode": "51578", "addr:state": "IA", "addr:street_address": "205 4TH ST", "amenity": "post_box", "collection_times": "Mo-Sa 11:30", "nsi_id": "unitedstatespostalservice-a77078", "operator": "United States Postal Service", "operator:short": "USPS", "operator:type": "public", "operator:wikidata": "Q668687", "ref": "5157800001"}, "type": "Feature"}
{"geometry": {"coordinates": [-95.70317979, 41.736555335], "type": "Point"}, "id": "cH0Q-8EfC9CYHZBxfGlAQzArL6w=", "properties": {"@source_uri": "https://tools.usps.com/UspsToolsRestServices/rest/POLocator/findLocations", "@spider": "usps_collection_boxes", "addr:city": "WOODBINE", "addr:country": "US", "addr:postcode": "51579", "addr:state": "IA", "addr:street_address": "405 LINCOLNWAY ST", "amenity": "post_box", "collection_times": "Mo-Fr 17:00; Sa 09:15", "note": "ON 12/24 AND 12/31, THIS BOX MAY BE COLLECTED AS EARLY AS 12 NOON.", "nsi_id": "unitedstatespostalservice-a77078", "operator": "United States Postal Service", "operator:short": "USPS", "operator:type": "public", "operator:wikidata": "Q668687", "ref": "5157900003"}, "type": "Feature"}
{"geometry": {"coordinates": [-95.70317979, 41.736555335], "type": "Point"}, "id": "DaFGqNXLCylVJRZ1TiBG5qHTGZA=", "properties": {"@source_uri": "https://tools.usps.com/UspsToolsRestServices/rest/POLocator/findLocations", "@spider": "usps_collection_boxes", "addr:city": "WOODBINE", "addr:country": "US", "addr:postcode": "51579", "addr:state": "IA", "addr:street_address": "405 LINCOLNWAY ST", "amenity": "post_box", "collection_times": "Mo-Fr 16:30; Sa 09:00", "indoor": "yes", "note": "ON 12/24 AND 12/31, THIS BOX MAY BE COLLECTED AS EARLY AS 12 NOON.", "nsi_id": "unitedstatespostalservice-a77078", "operator": "United States Postal Service", "operator:short": "USPS", "operator:type": "public", "operator:wikidata": "Q668687", "ref": "5157900006"}, "type": "Feature"}
{"geometry": {"coordinates": [-95.70317979, 41.736555335], "type": "Point"}, "id": "rK0JaIiRLObL7Adq6bX-cUzeXIg=", "properties": {"@source_uri": "https://tools.usps.com/UspsToolsRestServices/rest/POLocator/findLocations", "@spider": "usps_collection_boxes", "addr:city": "WOODBINE", "addr:country": "US", "addr:postcode": "51579", "addr:state": "IA", "addr:street_address": "405 LINCOLNWAY ST", "amenity": "post_box", "collection_times": "Mo-Fr 16:30; Sa 09:00", "indoor": "yes", "note": "ON 12/24 AND 12/31, THIS BOX MAY BE COLLECTED AS EARLY AS 12 NOON.", "nsi_id": "unitedstatespostalservice-a77078", "operator": "United States Postal Service", "operator:short": "USPS", "operator:type": "public", "operator:wikidata": "Q668687", "ref": "5157900008"}, "type": "Feature"}
