{"geometry": {"coordinates": [-95.367995, 40.76175], "type": "Point"}, "id": "yUmJ1tiR9aUJPQ-I8OM38Adv_HE=", "properties": {"@source_uri": "https://tools.usps.com/UspsToolsRestServices/rest/POLocator/findLocations", "@spider": "usps_collection_boxes", "addr:city": "SHENANDOAH", "addr:country": "US", "addr:postcode": "51601", "addr:state": "IA", "addr:street_address": "501 W LOWELL AVE", "amenity": "post_box", "collection_times": "Mo-Fr 16:45; Sa 16:35", "note": "ON 12/24 AND 12/31, THIS BOX MAY BE COLLECTED AS EARLY AS 12 NOON.", "nsi_id": "unitedstatespostalservice-a77078", "operator": "United States Postal Service", "operator:short": "USPS", "operator:type": "public", "operator:wikidata": "Q668687", "ref": "5160100001"}, "type": "Feature"}
{"geometry": {"coordinates": [-95.385157871, 40.761935478], "type": "Point"}, "id": "cH-_tU8D66DN_T4OTfSTDEIqFV0=", "properties": {"@source_uri": "https://tools.usps.com/UspsToolsRestServices/rest/POLocator/findLocations", "@spider": "usps_collection_boxes", "addr:city": "SHENANDOAH", "addr:country": "US", "addr:postcode": "51601", "addr:state": "IA", "addr:street_address": "500 S FREMONT ST", "amenity": "post_box", "collection_times": "Mo-Sa 15:00", "note": "ON 12/24 AND 12/31, THIS BOX MAY BE COLLECTED AS EARLY AS 12 NOON.", "nsi_id": "unitedstatespostalservice-a77078", "operator": "United States Postal Service", "operator:short": "USPS", "operator:type": "public", "operator:wikidata": "Q668687", "ref": "5160100003"}, "type": "Feature"}
{"geometry": {"coordinates": [-95.371641, 40.766897501], "type": "Point"}, "id": "_yiHLp_D1bKouECCxSka1mBvhA0=", "properties": {"@source_uri": "https://tools.usps.com/UspsToolsRestServices/rest/POLocator/findLocations", "@spider": "usps_collection_boxes", "addr:city": "SHENANDOAH", "addr:country": "US", "addr:postcode": "51601", "addr:state": "IA", "addr:street_address": "501 W LOWELL AVE", "amenity": "post_box", "collection_times": "Mo-Fr 16:45; Sa 16:35", "indoor": "yes", "note": "ON 12/24 AND 12/31, THIS BOX MAY BE COLLECTED AS EARLY AS 12 NOON.", "nsi_id": "unitedstatespostalservice-a77078", "operator": "United States Postal Service", "operator:short": "USPS", "operator:type": "public", "operator:wikidata": "Q668687", "ref": "5160100012"}, "type": "Feature"}
{"geometry": {"coordinates": [-95.385094179, 40.756329], "type": "Point"}, "id": "stQSPYkfsVlJNEtyFTLvLmYmuGs=", "properties": {"@source_uri": "https://tools.usps.com/UspsToolsRestServices/rest/POLocator/findLocations", "@spider": "usps_collection_boxes", "addr:city": "SHENANDOAH", "addr:country": "US", "addr:postcode": "51601", "addr:state": "IA", "addr:street_address": "1007 S FREMONT ST", "amenity": "post_box", "collection_times": "Mo-Sa 15:00", "note": "ON 12/24 AND 12/31, THIS BOX MAY BE COLLECTED AS EARLY AS 12 NOON.", "nsi_id": "unitedstatespostalservice-a77078", "operator": "United States Postal Service", "operator:short": "USPS", "operator:type": "public", "operator:wikidata": "Q668687", "ref": "5160100013"}, "type": "Feature"}
{"geometry": {"coordinates": [-95.371641, 40.766897501], "type": "Point"}, "id": "-9PQD0zR3qB5bXh-g1XkHQQ5EiU=", "properties": {"@source_uri": "https://tools.usps.com/UspsToolsRestServices/rest/POLocator/findLocations", "@spider": "usps_collection_boxes", "addr:city": "SHENANDOAH", "addr:country": "US", "addr:postcode": "51601", "addr:state": "IA", "addr:street_address": "501 W LOWELL AVE", "amenity": "post_box", "collection_times": "Mo-Fr 16:30; Sa 12:30", "indoor": "yes", "note": "ON 12/24 AND 12/31, THIS BOX MAY BE COLLECTED AS EARLY AS 12 NOON.", "nsi_id": "unitedstatespostalservice-a77078", "operator": "United States Postal Service", "operator:short": "USPS", "operator:type": "public", "operator:wikidata": "Q668687", "ref": "5160100015"}, "type": "Feature"}
{"geometry": {"coordinates": [-95.222330193, 40.579241503], "type": "Point"}, "id": "O1zxwqtPuEXYNJsPrlSWu-krHB8=", "properties": {"@source_uri": "https://tools.usps.com/UspsToolsRestServices/rest/POLocator/findLocations", "@spider": "usps_collection_boxes", "addr:city": "BLANCHARD", "addr:country": "US", "addr:postcode": "51630", "addr:state": "IA", "addr:street_address": "106 MAIN ST", "amenity": "post_box", "collection_times": "Mo-Fr 15:35; Sa 15:30", "note": "ON 12/24 AND 12/31, THIS BOX MAY BE COLLECTED AS EARLY AS 12 NOON.", "nsi_id": "unitedstatespostalservice-a77078", "operator": "United States Postal Service", "operator:short": "USPS", "operator:type": "public", "operator:wikidata": "Q668687", "ref": "5163000000"}, "type": "Feature"}
{"geometry": {"coordinates": [-95.222330193, 40.579241503], "type": "Point"}, "id": "pNUudyjQ-AwbWQ_plOqYJGrbqnU=", "properties": {"@source_uri": "https://tools.usps.com/UspsToolsRestServices/rest/POLocator/findLocations", "@spider": "usps_collection_boxes", "addr:city": "BLANCHARD", "addr:country": "US", "addr:postcode": "51630", "addr:state": "IA", "addr:street_address": "106 MAIN ST", "amenity": "post_box", "collection_times": "Mo-Fr 09:30; Sa 09:15", "indoor": "yes", "nsi_id": "unitedstatespostalservice-a77078", "operator": "United States Postal Service", "operator:short": "USPS", "operator:type": "public", "operator:wikidata": "Q668687", "ref": "5163000001"}, "type": "Feature"}
{"geometry": {"coordinates": [-95.222330193, 40.579241503], "type": "Point"}, "id": "oLZK4Sg3Aw-bbunwnutBRPuBYy8=", "properties": {"@source_uri": "https://tools.usps.com/UspsToolsRestServices/rest/POLocator/findLocations", "@spider": "usps_collection_boxes", "addr:city": "BLANCHARD", "addr:country": "US", "addr:postcode": "51630", "addr:state": "IA", "addr:street_address": "106 MAIN ST", "amenity": "post_box", "collection_times": "Mo-Fr 09:30; Sa 09:15", "indoor": "yes", "nsi_id": "unitedstatespostalservice-a77078", "operator": "United States Postal Service", "operator:short": "USPS", "operator:type": "public", "operator:wikidata": "Q668687", "ref": "5163000003"}, "type": "Feature"}
{"geometry": {"coordinates": [-95.03019, 40.578497453], "type": "Point"}, "id": "bEk7Crzy8ww3qtS99k_iLcaYF8A=", "properties": {"@source_uri": "https://tools.usps.com/UspsToolsRestServices/rest/POLocator/findLocations", "@spider": "usps_collection_boxes", "addr:city": "BRADDYVILLE", "addr:country": "US", "addr:postcode": "51631", "addr:state": "IA", "addr:street_address": "700 MULBERRY ST", "amenity": "post_box", "collection_times": "Mo-Fr 14:55; Sa 14:40", "note": "ON 12/24 AND 12/31, THIS BOX MAY BE COLLECTED AS EARLY AS 12 NOON.", "nsi_id": "unitedstatespostalservice-a77078", "operator": "United States Postal Service", "operator:short": "USPS", "operator:type": "public", "operator:wikidata": "Q668687", "ref": "5163100001"}, "type": "Feature"}
{"geometry": {"coordinates": [-95.037781362, 40.726982088], "type": "Point"}, "id": "NHz9A9HercBrB1R2vLkZD_j9FHg=", "properties": {"@source_uri": "https://tools.usps.com/UspsToolsRestServices/rest/POLocator/findLocations", "@spider": "usps_collection_boxes", "addr:city": "CLARINDA", "addr:country": "US", "addr:postcode": "51632", "addr:state": "IA", "addr:street_address": "1200 S 16TH ST", "amenity": "post_box", "collection_times": "Mo-Sa 12:30", "note": "ON 12/24 AND 12/31, THIS BOX MAY BE COLLECTED AS EARLY AS 12 NOON.", "nsi_id": "unitedstatespostalservice-a77078", "operator": "United States Postal Service", "operator:short": "USPS", "operator:type": "public", "operator:wikidata": "Q668687", "ref": "5163200007"}, "type": "Feature"}
{"geometry": {"coordinates": [-95.037911378, 40.738173138], "type": "Point"}, "id": "6cTIcfWXj7CLmPnOPnQIv2aUsYA=", "properties": {"@source_uri": "https://tools.usps.com/UspsToolsRestServices/rest/POLocator/findLocations", "@spider": "usps_collection_boxes", "addr:city": "CLARINDA", "addr:country": "US", "addr:postcode": "51632", "addr:state": "IA", "addr:street_address": "101 S 16TH ST", "amenity": "post_box", "collection_times": "Mo-Sa 16:00", "note": "ON 12/24 AND 12/31, THIS BOX MAY BE COLLECTED AS EARLY AS 12 NOON.", "nsi_id": "unitedstatespostalservice-a77078", "operator": "United States Postal Service", "operator:short": "USPS", "operator:type": "public", "operator:wikidata": "Q668687", "ref": "5163200010"}, "type": "Feature"}
{"geometry": {"coordinates": [-95.037911378, 40.738173138], "type": "Point"}, "id": "jB5TlJtumGLH6q4t_y6pm_do2cI=", "properties": {"@source_uri": "https://tools.usps.com/UspsToolsRestServices/rest/POLocator/findLocations", "@spider": "usps_collection_boxes", "addr:city": "CLARINDA", "addr:country": "US", "addr:postcode": "51632", "addr:state": "IA", "addr:street_address": "101 S 16TH ST", "amenity": "post_box", "collection_times": "Mo-Sa 16:00", "indoor": "yes", "note": "ON 12/24 AND 12/31, THIS BOX MAY BE COLLECTED AS EARLY AS 12 NOON.", "nsi_id": "unitedstatespostalservice-a77078", "operator": "United States Postal Service", "operator:short": "USPS", "operator:type": "public", "operator:wikidata": "Q668687", "ref": "5163200012"}, "type": "Feature"}
{"geometry": {"coordinates": [-95.037911378, 40.738173138], "type": "Point"}, "id": "rPW7kFI3KcK_uixvCMJaIm7yEXo=", "properties": {"@source_uri": "https://tools.usps.com/UspsToolsRestServices/rest/POLocator/findLocations", "@spider": "usps_collection_boxes", "addr:city": "CLARINDA", "addr:country": "US", "addr:postcode": "51632", "addr:state": "IA", "addr:street_address": "101 S 16TH ST", "amenity": "post_box", "collection_times": "Mo-Fr 16:00; Sa 12:00", "indoor": "yes", "note": "ON 12/24 AND 12/31, THIS BOX MAY BE COLLECTED AS EARLY AS 12 NOON.", "nsi_id": "unitedstatespostalservice-a77078", "operator": "United States Postal Service", "operator:short": "USPS", "operator:type": "public", "operator:wikidata": "Q668687", "ref": "5163200015"}, "type": "Feature"}
{"geometry": {"coordinates": [-95.232990777, 40.655461528], "type": "Point"}, "id": "ouaUUD0buQFfw1VlI8CeEo5hIcM=", "properties": {"@source_uri": "https://tools.usps.com/UspsToolsRestServices/rest/POLocator/findLocations", "@spider": "usps_collection_boxes", "addr:city": "COIN", "addr:country": "US", "addr:postcode": "51636", "addr:state": "IA", "addr:street_address": "112 MAIN ST", "amenity": "post_box", "collection_times": "Mo-Fr 15:50; Sa 15:45", "note": "ON 12/24 AND 12/31, THIS BOX MAY BE COLLECTED AS EARLY AS 12 NOON.", "nsi_id": "unitedstatespostalservice-a77078", "operator": "United States Postal Service", "operator:short": "USPS", "operator:type": "public", "operator:wikidata": "Q668687", "ref": "5163600001"}, "type": "Feature"}
{"geometry": {"coordinates": [-95.232990777, 40.655461528], "type": "Point"}, "id": "gVO7nGhqXGFzRlwykeG19Rkao0U=", "properties": {"@source_uri": "https://tools.usps.com/UspsToolsRestServices/rest/POLocator/findLocations", "@spider": "usps_collection_boxes", "addr:city": "COIN", "addr:country": "US", "addr:postcode": "51636", "addr:state": "IA", "addr:street_address": "112 MAIN ST", "amenity": "post_box", "collection_times": "Mo-Fr 12:00; Sa 09:00", "indoor": "yes", "nsi_id": "unitedstatespostalservice-a77078", "operator": "United States Postal Service", "operator:short": "USPS", "operator:type": "public", "operator:wikidata": "Q668687", "ref": "5163600002"}, "type": "Feature"}
{"geometry": {"coordinates": [-95.232990777, 40.655461528], "type": "Point"}, "id": "0nWMwKO9nEdNn6KDCZCqnOzaCM0=", "properties": {"@source_uri": "https://tools.usps.com/UspsToolsRestServices/rest/POLocator/findLocations", "@spider": "usps_collection_boxes", "addr:city": "COIN", "addr:country": "US", "addr:postcode": "51636", "addr:state": "IA", "addr:street_address": "112 MAIN ST", "amenity": "post_box", "collection_times": "Mo-Fr 12:00", "indoor": "yes", "nsi_id": "unitedstatespostalservice-a77078", "operator": "United States Postal Service", "operator:short": "USPS", "operator:type": "public", "operator:wikidata": "Q668687", "ref": "5163600004"}, "type": "Feature"}
{"geometry": {"coordinates": [-95.120969682, 40.619313251], "type": "Point"}, "id": "Bmbkns_4OEaBKsJdN9q-dLdZcZo=", "properties": {"@source_uri": "https://tools.usps.com/UspsToolsRestServices/rest/POLocator/findLocations", "@spider": "usps_collection_boxes", "addr:city": "COLLEGE SPRINGS", "addr:country": "US", "addr:postcode": "51637", "addr:state": "IA", "addr:street_address": "504 MISSOURI AVE", "amenity": "post_box", "collection_times": "Mo-Sa 15:15", "note": "ON 12/24 AND 12/31, THIS BOX MAY BE COLLECTED AS EARLY AS 12 NOON.", "nsi_id": "unitedstatespostalservice-a77078", "operator": "United States Postal Service", "operator:short": "USPS", "operator:type": "public", "operator:wikidata": "Q668687", "ref": "5163700001"}, "type": "Feature"}
{"geometry": {"coordinates": [-95.120969682, 40.619313251], "type": "Point"}, "id": "RPXi4RvCUwn6YB4OoOEyot770Nk=", "properties": {"@source_uri": "https://tools.usps.com/UspsToolsRestServices/rest/POLocator/findLocations", "@spider": "usps_collection_boxes", "addr:city": "COLLEGE SPRINGS", "addr:country": "US", "addr:postcode": "51637", "addr:state": "IA", "addr:street_address": "504 MISSOURI AVE", "amenity": "post_box", "collection_times": "Mo-Fr 10:00; Sa 09:45", "indoor": "yes", "nsi_id": "unitedstatespostalservice-a77078", "operator": "United States Postal Service", "operator:short": "USPS", "operator:type": "public", "operator:wikidata": "Q668687", "ref": "5163700002"}, "type": "Feature"}
{"geometry": {"coordinates": [-95.120969682, 40.619313251], "type": "Point"}, "id": "oPD6dNQBC82uenc0mHPC5ojz9Wc=", "properties": {"@source_uri": "https://tools.usps.com/UspsToolsRestServices/rest/POLocator/findLocations", "@spider": "usps_collection_boxes", "addr:city": "COLLEGE SPRINGS", "addr:country": "US", "addr:postcode": "51637", "addr:state": "IA", "addr:street_address": "504 MISSOURI AVE", "amenity": "post_box", "collection_times": "Mo-Fr 10:00; Sa 09:45", "indoor": "yes", "nsi_id": "unitedstatespostalservice-a77078", "operator": "United States Postal Service", "operator:short": "USPS", "operator:type": "public", "operator:wikidata": "Q668687", "ref": "5163700004"}, "type": "Feature"}
{"geometry": {"coordinates": [-95.3047035, 40.833440488], "type": "Point"}, "id": "RuS5CInf9MzCaXM376PAUqvc_d0=", "properties": {"@source_uri": "https://tools.usps.com/UspsToolsRestServices/rest/POLocator/findLocations", "@spider": "usps_collection_boxes", "addr:city": "ESSEX", "addr:country": "US", "addr:postcode": "51638", "addr:state": "IA", "addr:street_address": "610 IOWA AVE", "amenity": "post_box", "collection_times": "Mo-Sa 16:10", "note": "ON 12/24 AND 12/31, THIS BOX MAY BE COLLECTED AS EARLY AS 12 NOON.", "nsi_id": "unitedstatespostalservice-a77078", "operator": "United States Postal Service", "operator:short": "USPS", "operator:type": "public", "operator:wikidata": "Q668687", "ref": "5163800001"}, "type": "Feature"}
{"geometry": {"coordinates": [-95.3047035, 40.833440488], "type": "Point"}, "id": "k27kruu4JQQo5HDE7X4hI_lv1hs=", "properties": {"@source_uri": "https://tools.usps.com/UspsToolsRestServices/rest/POLocator/findLocations", "@spider": "usps_collection_boxes", "addr:city": "ESSEX", "addr:country": "US", "addr:postcode": "51638", "addr:state": "IA", "addr:street_address": "610 IOWA AVE", "amenity": "post_box", "collection_times": "Mo-Fr 14:30; Sa 10:00", "indoor": "yes", "note": "ON 12/24 AND 12/31, THIS BOX MAY BE COLLECTED AS EARLY AS 12 NOON.", "nsi_id": "unitedstatespostalservice-a77078", "operator": "United States Postal Service", "operator:short": "USPS", "operator:type": "public", "operator:wikidata": "Q668687", "ref": "5163800002"}, "type": "Feature"}
{"geometry": {"coordinates": [-95.3047035, 40.833440488], "type": "Point"}, "id": "c6qBU9rDrcvFsIc9QJMng_GeTKA=", "properties": {"@source_uri": "https://tools.usps.com/UspsToolsRestServices/rest/POLocator/findLocations", "@spider": "usps_collection_boxes", "addr:city": "ESSEX", "addr:country": "US", "addr:postcode": "51638", "addr:state": "IA", "addr:street_address": "610 IOWA AVE", "amenity": "post_box", "collection_times": "Mo-Fr 14:30; Sa 10:00", "indoor": "yes", "note": "ON 12/24 AND 12/31, THIS BOX MAY BE COLLECTED AS EARLY AS 12 NOON.", "nsi_id": "unitedstatespostalservice-a77078", "operator": "United States Postal Service", "operator:short": "USPS", "operator:type": "public", "operator:wikidata": "Q668687", "ref": "5163800004"}, "type": "Feature"}
{"geometry": {"coordinates": [-95.480993196, 40.719437441], "type": "Point"}, "id": "ChZyn-PYfN5ERYxr6bm23Uj6Sjk=", "properties": {"@source_uri": "https://tools.usps.com/UspsToolsRestServices/rest/POLocator/findLocations", "@spider": "usps_collection_boxes", "addr:city": "FARRAGUT", "addr:country": "US", "addr:postcode": "51639", "addr:state": "IA", "addr:street_address": "604 HARTFORD AVE", "amenity": "post_box", "collection_times": "Mo-Sa 16:20", "note": "ON 12/24 AND 12/31, THIS BOX MAY BE COLLECTED AS EARLY AS 12 NOON.", "nsi_id": "unitedstatespostalservice-a77078", "operator": "United States Postal Service", "operator:short": "USPS", "operator:type": "public", "operator:wikidata": "Q668687", "ref": "5163900001"}, "type": "Feature"}
{"geometry": {"coordinates": [-95.480993196, 40.719437441], "type": "Point"}, "id": "63VmcJKsRPpwTOW-Fyqgmsbtf0Q=", "properties": {"@source_uri": "https://tools.usps.com/UspsToolsRestServices/rest/POLocator/findLocations", "@spider": "usps_collection_boxes", "addr:city": "FARRAGUT", "addr:country": "US", "addr:postcode": "51639", "addr:state": "IA", "addr:street_address": "604 HARTFORD AVE", "amenity": "post_box", "collection_times": "Mo-Fr 16:00; Sa 13:00", "indoor": "yes", "note": "ON 12/24 AND 12/31, THIS BOX MAY BE COLLECTED AS EARLY AS 12 NOON.", "nsi_id": "unitedstatespostalservice-a77078", "operator": "United States Postal Service", "operator:short": "USPS", "operator:type": "public", "operator:wikidata": "Q668687", "ref": "5163900002"}, "type": "Feature"}
{"geometry": {"coordinates": [-95.480993196, 40.719437441], "type": "Point"}, "id": "f_U0ra3xuTwC-T8Cl9vYQ3G0CSc=", "properties": {"@source_uri": "https://tools.usps.com/UspsToolsRestServices/rest/POLocator/findLocations", "@spider": "usps_collection_boxes", "addr:city": "FARRAGUT", "addr:country": "US", "addr:postcode": "51639", "addr:state": "IA", "addr:street_address": "604 HARTFORD AVE", "amenity": "post_box", "collection_times": "Mo-Fr 16:00; Sa 13:00", "indoor": "yes", "note": "ON 12/24 AND 12/31, THIS BOX MAY BE COLLECTED AS EARLY AS 12 NOON.", "nsi_id": "unitedstatespostalservice-a77078", "operator": "United States Postal Service", "operator:short": "USPS", "operator:type": "public", "operator:wikidata": "Q668687", "ref": "5163900004"}, "type": "Feature"}
{"geometry": {"coordinates": [-95.65619731, 40.604874813], "type": "Point"}, "id": "tz_pJEpcO1jZstz-9IcM0WWwD08=", "properties": {"@source_uri": "https://tools.usps.com/UspsToolsRestServices/rest/POLocator/findLocations", "@spider": "usps_collection_boxes", "addr:city": "HAMBURG", "addr:country": "US", "addr:postcode": "51640", "addr:state": "IA", "addr:street_address": "308 F ST", "amenity": "post_box", "collection_times": "Mo-Sa 15:35", "note": "ON 12/24 AND 12/31, THIS BOX MAY BE COLLECTED AS EARLY AS 12 NOON.", "nsi_id": "unitedstatespostalservice-a77078", "operator": "United States Postal Service", "operator:short": "USPS", "operator:type": "public", "operator:wikidata": "Q668687", "ref": "5164000004"}, "type": "Feature"}
{"geometry": {"coordinates": [-95.65619731, 40.604874813], "type": "Point"}, "id": "hwBHaZvxzZiM5Do2nmIJxtzCfRc=", "properties": {"@source_uri": "https://tools.usps.com/UspsToolsRestServices/rest/POLocator/findLocations", "@spider": "usps_collection_boxes", "addr:city": "HAMBURG", "addr:country": "US", "addr:postcode": "51640", "addr:state": "IA", "addr:street_address": "308 F ST", "amenity": "post_box", "collection_times": "Mo-Fr 15:00; Sa 10:45", "indoor": "yes", "note": "ON 12/24 AND 12/31, THIS BOX MAY BE COLLECTED AS EARLY AS 12 NOON.", "nsi_id": "unitedstatespostalservice-a77078", "operator": "United States Postal Service", "operator:short": "USPS", "operator:type": "public", "operator:wikidata": "Q668687", "ref": "5164000009"}, "type": "Feature"}
{"geometry": {"coordinates": [-95.65619731, 40.604874813], "type": "Point"}, "id": "-mU1vKlVzDFchLiqJn2-i2r_jGI=", "properties": {"@source_uri": "https://tools.usps.com/UspsToolsRestServices/rest/POLocator/findLocations", "@spider": "usps_collection_boxes", "addr:city": "HAMBURG", "addr:country": "US", "addr:postcode": "51640", "addr:state": "IA", "addr:street_address": "308 F ST", "amenity": "post_box", "collection_times": "Mo-Fr 15:00; Sa 10:45", "indoor": "yes", "note": "ON 12/24 AND 12/31, THIS BOX MAY BE COLLECTED AS EARLY AS 12 NOON.", "nsi_id": "unitedstatespostalservice-a77078", "operator": "United States Postal Service", "operator:short": "USPS", "operator:type": "public", "operator:wikidata": "Q668687", "ref": "5164000010"}, "type": "Feature"}
{"geometry": {"coordinates": [-94.899432316, 40.73020632], "type": "Point"}, "id": "3IRJqNLVZzGgJ6EyBx85HZ8AAFE=", "properties": {"@source_uri": "https://tools.usps.com/UspsToolsRestServices/rest/POLocator/findLocations", "@spider": "usps_collection_boxes", "addr:city": "NEW MARKET", "addr:country": "US", "addr:postcode": "51646", "addr:state": "IA", "addr:street_address": "412 MAIN ST", "amenity": "post_box", "collection_times": "Mo-Fr 15:45; Sa 09:30", "note": "ON 12/24 AND 12/31, THIS BOX MAY BE COLLECTED AS EARLY AS 12 NOON.", "nsi_id": "unitedstatespostalservice-a77078", "operator": "United States Postal Service", "operator:short": "USPS", "operator:type": "public", "operator:wikidata": "Q668687", "ref": "5164600001"}, "type": "Feature"}
{"geometry": {"coordinates": [-94.899465539, 40.731215783], "type": "Point"}, "id": "EssYdOGTBLT2EOfy13k-AIywN4Y=", "properties": {"@source_uri": "https://tools.usps.com/UspsToolsRestServices/rest/POLocator/findLocations", "@spider": "usps_collection_boxes", "addr:city": "NEW MARKET", "addr:country": "US", "addr:postcode": "51646", "addr:state": "IA", "addr:street_address": "512 MAIN ST", "amenity": "post_box", "collection_times": "Mo-Sa 13:00", "note": "ON 12/24 AND 12/31, THIS BOX MAY BE COLLECTED AS EARLY AS 12 NOON.", "nsi_id": "unitedstatespostalservice-a77078", "operator": "United States Postal Service", "operator:short": "USPS", "operator:type": "public", "operator:wikidata": "Q668687", "ref": "5164600005"}, "type": "Feature"}
{"geometry": {"coordinates": [-94.899432316, 40.73020632], "type": "Point"}, "id": "yzUjEIg7QO-8Qu6sDDOiccMr7uU=", "properties": {"@source_uri": "https://tools.usps.com/UspsToolsRestServices/rest/POLocator/findLocations", "@spider": "usps_collection_boxes", "addr:city": "NEW MARKET", "addr:country": "US", "addr:postcode": "51646", "addr:state": "IA", "addr:street_address": "412 MAIN ST", "amenity": "post_box", "collection_times": "Mo-Fr 15:00; Sa 09:45", "indoor": "yes", "note": "ON 12/24 AND 12/31, THIS BOX MAY BE COLLECTED AS EARLY AS 12 NOON.", "nsi_id": "unitedstatespostalservice-a77078", "operator": "United States Postal Service", "operator:short": "USPS", "operator:type": "public", "operator:wikidata": "Q668687", "ref": "5164600007"}, "type": "Feature"}
{"geometry": {"coordinates": [-95.566076126, 40.872852], "type": "Point"}, "id": "BMlKIYtoYIx_1RPe_OuRsTSFmak=", "properties": {"@source_uri": "https://tools.usps.com/UspsToolsRestServices/rest/POLocator/findLocations", "@spider": "usps_collection_boxes", "addr:city": "RANDOLPH", "addr:country": "US", "addr:postcode": "51649", "addr:state": "IA", "addr:street_address": "105 S MAIN ST", "amenity": "post_box", "collection_times": "Mo-Sa 15:35", "note": "ON 12/24 AND 12/31, THIS BOX MAY BE COLLECTED AS EARLY AS 12 NOON.", "nsi_id": "unitedstatespostalservice-a77078", "operator": "United States Postal Service", "operator:short": "USPS", "operator:type": "public", "operator:wikidata": "Q668687", "ref": "5164900000"}, "type": "Feature"}
{"geometry": {"coordinates": [-95.5660716259, 40.872861], "type": "Point"}, "id": "epYmdHnTCyZAQgNjZbVgyXpUKuE=", "properties": {"@source_uri": "https://tools.usps.com/UspsToolsRestServices/rest/POLocator/findLocations", "@spider": "usps_collection_boxes", "addr:city": "RANDOLPH", "addr:country": "US", "addr:postcode": "51649", "addr:state": "IA", "addr:street_address": "105 S MAIN ST", "amenity": "post_box", "collection_times": "Mo-Fr 15:00; Sa 12:45", "indoor": "yes", "note": "ON 12/24 AND 12/31, THIS BOX MAY BE COLLECTED AS EARLY AS 12 NOON.", "nsi_id": "unitedstatespostalservice-a77078", "operator": "United States Postal Service", "operator:short": "USPS", "operator:type": "public", "operator:wikidata": "Q668687", "ref": "5164900001"}, "type": "Feature"}
{"geometry": {"coordinates": [-95.5660716259, 40.872861], "type": "Point"}, "id": "aE1K8gEdRcwm9m1F7sswJ_Iohk8=", "properties": {"@source_uri": "https://tools.usps.com/UspsToolsRestServices/rest/POLocator/findLocations", "@spider": "usps_collection_boxes", "addr:city": "RANDOLPH", "addr:country": "US", "addr:postcode": "51649", "addr:state": "IA", "addr:street_address": "105 S MAIN ST", "amenity": "post_box", "collection_times": "Mo-Fr 15:00; Sa 12:45", "indoor": "yes", "note": "ON 12/24 AND 12/31, THIS BOX MAY BE COLLECTED AS EARLY AS 12 NOON.", "nsi_id": "unitedstatespostalservice-a77078", "operator": "United States Postal Service", "operator:short": "USPS", "operator:type": "public", "operator:wikidata": "Q668687", "ref": "5164900003"}, "type": "Feature"}
{"geometry": {"coordinates": [-95.568469155, 40.687453844], "type": "Point"}, "id": "dJRV90bC3VuqxlMdMA-_zsoLMl0=", "properties": {"@source_uri": "https://tools.usps.com/UspsToolsRestServices/rest/POLocator/findLocations", "@spider": "usps_collection_boxes", "addr:city": "RIVERTON", "addr:country": "US", "addr:postcode": "51650", "addr:state": "IA", "addr:street_address": "909 SUMMER AVE", "amenity": "post_box", "collection_times": "Mo-Sa 15:10", "note": "ON 12/24 AND 12/31, THIS BOX MAY BE COLLECTED AS EARLY AS 12 NOON.", "nsi_id": "unitedstatespostalservice-a77078", "operator": "United States Postal Service", "operator:short": "USPS", "operator:type": "public", "operator:wikidata": "Q668687", "ref": "5165000001"}, "type": "Feature"}
{"geometry": {"coordinates": [-95.568469155, 40.687453844], "type": "Point"}, "id": "h6QH8ooUUhQTs5EwMfGcuCdvgmY=", "properties": {"@source_uri": "https://tools.usps.com/UspsToolsRestServices/rest/POLocator/findLocations", "@spider": "usps_collection_boxes", "addr:city": "RIVERTON", "addr:country": "US", "addr:postcode": "51650", "addr:state": "IA", "addr:street_address": "909 SUMMER AVE", "amenity": "post_box", "collection_times": "Mo-Fr 12:00; Sa 10:00", "indoor": "yes", "nsi_id": "unitedstatespostalservice-a77078", "operator": "United States Postal Service", "operator:short": "USPS", "operator:type": "public", "operator:wikidata": "Q668687", "ref": "5165000002"}, "type": "Feature"}
{"geometry": {"coordinates": [-95.568469155, 40.687453844], "type": "Point"}, "id": "NrC5Z-c-cb0JMLr4ujCJh3hQFLE=", "properties": {"@source_uri": "https://tools.usps.com/UspsToolsRestServices/rest/POLocator/findLocations", "@spider": "usps_collection_boxes", "addr:city": "RIVERTON", "addr:country": "US", "addr:postcode": "51650", "addr:state": "IA", "addr:street_address": "909 SUMMER AVE", "amenity": "post_box", "collection_times": "Mo-Fr 12:00; Sa 10:00", "indoor": "yes", "nsi_id": "unitedstatespostalservice-a77078", "operator": "United States Postal Service", "operator:short": "USPS", "operator:type": "public", "operator:wikidata": "Q668687", "ref": "5165000004"}, "type": "Feature"}
{"geometry": {"coordinates": [-95.033965293, 40.658012162], "type": "Point"}, "id": "uwqnZzFhd4gpS7StSZXEBabpmLM=", "properties": {"@source_uri": "https://tools.usps.com/UspsToolsRestServices/rest/POLocator/findLocations", "@spider": "usps_collection_boxes", "addr:city": "SHAMBAUGH", "addr:country": "US", "addr:postcode": "51651", "addr:state": "IA", "addr:street_address": "309 MAIN ST", "amenity": "post_box", "collection_times": "Mo-Sa 15:05", "note": "ON 12/24 AND 12/31, THIS BOX MAY BE COLLECTED AS EARLY AS 12 NOON.", "nsi_id": "unitedstatespostalservice-a77078", "operator": "United States Postal Service", "operator:short": "USPS", "operator:type": "public", "operator:wikidata": "Q668687", "ref": "5165100001"}, "type": "Feature"}
{"geometry": {"coordinates": [-95.033965293, 40.658012162], "type": "Point"}, "id": "qkNYQrQ-bpTqBVfTtQIZ-780d7c=", "properties": {"@source_uri": "https://tools.usps.com/UspsToolsRestServices/rest/POLocator/findLocations", "@spider": "usps_collection_boxes", "addr:city": "SHAMBAUGH", "addr:country": "US", "addr:postcode": "51651", "addr:state": "IA", "addr:street_address": "309 MAIN ST", "amenity": "post_box", "collection_times": "Mo-Fr 11:50; Sa 12:30", "indoor": "yes", "note": "ON 12/24 AND 12/31, THIS BOX MAY BE COLLECTED AS EARLY AS 12 NOON.", "nsi_id": "unitedstatespostalservice-a77078", "operator": "United States Postal Service", "operator:short": "USPS", "operator:type": "public", "operator:wikidata": "Q668687", "ref": "5165100002"}, "type": "Feature"}
{"geometry": {"coordinates": [-95.033965293, 40.658012162], "type": "Point"}, "id": "5ItoizPORbQECe7EziQkvYqIp2o=", "properties": {"@source_uri": "https://tools.usps.com/UspsToolsRestServices/rest/POLocator/findLocations", "@spider": "usps_collection_boxes", "addr:city": "SHAMBAUGH", "addr:country": "US", "addr:postcode": "51651", "addr:state": "IA", "addr:street_address": "309 MAIN ST", "amenity": "post_box", "collection_times": "Mo-Fr 11:50; Sa 12:30", "indoor": "yes", "note": "ON 12/24 AND 12/31, THIS BOX MAY BE COLLECTED AS EARLY AS 12 NOON.", "nsi_id": "unitedstatespostalservice-a77078", "operator": "United States Postal Service", "operator:short": "USPS", "operator:type": "public", "operator:wikidata": "Q668687", "ref": "5165100004"}, "type": "Feature"}
{"geometry": {"coordinates": [-95.6467069945, 40.7484999954], "type": "Point"}, "id": "v2Zy7dA3nh21ASqSJgZuZsABdv4=", "properties": {"@source_uri": "https://tools.usps.com/UspsToolsRestServices/rest/POLocator/findLocations", "@spider": "usps_collection_boxes", "addr:city": "SIDNEY", "addr:country": "US", "addr:postcode": "51652", "addr:state": "IA", "addr:street_address": "509 FILMORE ST", "amenity": "post_box", "collection_times": "Mo-Fr 15:55; Sa 15:30", "note": "ON 12/24 AND 12/31, THIS BOX MAY BE COLLECTED AS EARLY AS 12 NOON.", "nsi_id": "unitedstatespostalservice-a77078", "operator": "United States Postal Service", "operator:short": "USPS", "operator:type": "public", "operator:wikidata": "Q668687", "ref": "5165200001"}, "type": "Feature"}
{"geometry": {"coordinates": [-95.6467035, 40.748346471], "type": "Point"}, "id": "ksAf5FyznLWiq1Z8KYqWyqGZU14=", "properties": {"@source_uri": "https://tools.usps.com/UspsToolsRestServices/rest/POLocator/findLocations", "@spider": "usps_collection_boxes", "addr:city": "SIDNEY", "addr:country": "US", "addr:postcode": "51652", "addr:state": "IA", "addr:street_address": "509 FILMORE ST", "amenity": "post_box", "collection_times": "Mo-Fr 15:35; Sa 10:30", "indoor": "yes", "note": "ON 12/24 AND 12/31, THIS BOX MAY BE COLLECTED AS EARLY AS 12 NOON.", "nsi_id": "unitedstatespostalservice-a77078", "operator": "United States Postal Service", "operator:short": "USPS", "operator:type": "public", "operator:wikidata": "Q668687", "ref": "5165200002"}, "type": "Feature"}
{"geometry": {"coordinates": [-95.6467035, 40.748346471], "type": "Point"}, "id": "Ej2AApHqdRhzFH0ZQ4wrp9XMKvk=", "properties": {"@source_uri": "https://tools.usps.com/UspsToolsRestServices/rest/POLocator/findLocations", "@spider": "usps_collection_boxes", "addr:city": "SIDNEY", "addr:country": "US", "addr:postcode": "51652", "addr:state": "IA", "addr:street_address": "509 FILMORE ST", "amenity": "post_box", "collection_times": "Mo-Fr 15:35; Sa 10:30", "indoor": "yes", "note": "ON 12/24 AND 12/31, THIS BOX MAY BE COLLECTED AS EARLY AS 12 NOON.", "nsi_id": "unitedstatespostalservice-a77078", "operator": "United States Postal Service", "operator:short": "USPS", "operator:type": "public", "operator:wikidata": "Q668687", "ref": "5165200004"}, "type": "Feature"}
{"geometry": {"coordinates": [-95.670701916, 40.898281547], "type": "Point"}, "id": "E1xLbqFKNMO-gdLen721DMjaSrg=", "properties": {"@source_uri": "https://tools.usps.com/UspsToolsRestServices/rest/POLocator/findLocations", "@spider": "usps_collection_boxes", "addr:city": "TABOR", "addr:country": "US", "addr:postcode": "51653", "addr:state": "IA", "addr:street_address": "502 ORANGE ST", "amenity": "post_box", "collection_times": "Mo-Sa 15:25", "note": "ON 12/24 AND 12/31, THIS BOX MAY BE COLLECTED AS EARLY AS 12 NOON.", "nsi_id": "unitedstatespostalservice-a77078", "operator": "United States Postal Service", "operator:short": "USPS", "operator:type": "public", "operator:wikidata": "Q668687", "ref": "5165300001"}, "type": "Feature"}
{"geometry": {"coordinates": [-95.670701916, 40.898281547], "type": "Point"}, "id": "norf-S3BH86bW7Du9GiM0yHkW3s=", "properties": {"@source_uri": "https://tools.usps.com/UspsToolsRestServices/rest/POLocator/findLocations", "@spider": "usps_collection_boxes", "addr:city": "TABOR", "addr:country": "US", "addr:postcode": "51653", "addr:state": "IA", "addr:street_address": "502 ORANGE ST", "amenity": "post_box", "collection_times": "Mo-Fr 14:30; Sa 10:00", "indoor": "yes", "note": "ON 12/24 AND 12/31, THIS BOX MAY BE COLLECTED AS EARLY AS 12 NOON.", "nsi_id": "unitedstatespostalservice-a77078", "operator": "United States Postal Service", "operator:short": "USPS", "operator:type": "public", "operator:wikidata": "Q668687", "ref": "5165300002"}, "type": "Feature"}
{"geometry": {"coordinates": [-95.670701916, 40.898281547], "type": "Point"}, "id": "yhjpWbnMWmVuagUI2xgqxLl3_fU=", "properties": {"@source_uri": "https://tools.usps.com/UspsToolsRestServices/rest/POLocator/findLocations", "@spider": "usps_collection_boxes", "addr:city": "TABOR", "addr:country": "US", "addr:postcode": "51653", "addr:state": "IA", "addr:street_address": "502 ORANGE ST", "amenity": "post_box", "collection_times": "Mo-Fr 14:30; Sa 10:00", "indoor": "yes", "note": "ON 12/24 AND 12/31, THIS BOX MAY BE COLLECTED AS EARLY AS 12 NOON.", "nsi_id": "unitedstatespostalservice-a77078", "operator": "United States Postal Service", "operator:short": "USPS", "operator:type": "public", "operator:wikidata": "Q668687", "ref": "5165300004"}, "type": "Feature"}
{"geometry": {"coordinates": [-95.7539048236, 40.8219117485], "type": "Point"}, "id": "AFbiuD7nyGVwYSR16H-6zsVKtho=", "properties": {"@source_uri": "https://tools.usps.com/UspsToolsRestServices/rest/POLocator/findLocations", "@spider": "usps_collection_boxes", "addr:city": "THURMAN", "addr:country": "US", "addr:postcode": "51654", "addr:state": "IA", "addr:street_address": "611 WEST ST", "amenity": "post_box", "collection_times": "Mo-Fr 11:45; Sa 10:45", "indoor": "yes", "nsi_id": "unitedstatespostalservice-a77078", "operator": "United States Postal Service", "operator:short": "USPS", "operator:type": "public", "operator:wikidata": "Q668687", "ref": "5165400004"}, "type": "Feature"}
{"geometry": {"coordinates": [-95.7539048236, 40.8219117485], "type": "Point"}, "id": "4ylws2WMPTo4NazQJhmJFQN1cpM=", "properties": {"@source_uri": "https://tools.usps.com/UspsToolsRestServices/rest/POLocator/findLocations", "@spider": "usps_collection_boxes", "addr:city": "THURMAN", "addr:country": "US", "addr:postcode": "51654", "addr:state": "IA", "addr:street_address": "611 WEST ST", "amenity": "post_box", "collection_times": "Mo-Sa 15:15", "note": "ON 12/24 AND 12/31, THIS BOX MAY BE COLLECTED AS EARLY AS 12 NOON.", "nsi_id": "unitedstatespostalservice-a77078", "operator": "United States Postal Service", "operator:short": "USPS", "operator:type": "public", "operator:wikidata": "Q668687", "ref": "5165400005"}, "type": "Feature"}
{"geometry": {"coordinates": [-95.7539048236, 40.8219117485], "type": "Point"}, "id": "MCUNuqiosR_VUklt2xoewGLDky8=", "properties": {"@source_uri": "https://tools.usps.com/UspsToolsRestServices/rest/POLocator/findLocations", "@spider": "usps_collection_boxes", "addr:city": "THURMAN", "addr:country": "US", "addr:postcode": "51654", "addr:state": "IA", "addr:street_address": "611 WEST ST", "amenity": "post_box", "collection_times": "Mo-Fr 11:45; Sa 10:45", "indoor": "yes", "nsi_id": "unitedstatespostalservice-a77078", "operator": "United States Postal Service", "operator:short": "USPS", "operator:type": "public", "operator:wikidata": "Q668687", "ref": "5165400007"}, "type": "Feature"}
{"geometry": {"coordinates": [-95.15421, 40.734397486], "type": "Point"}, "id": "4oA8sr-2uDYwnv5Ch0DDlP07rNY=", "properties": {"@source_uri": "https://tools.usps.com/UspsToolsRestServices/rest/POLocator/findLocations", "@spider": "usps_collection_boxes", "addr:city": "YORKTOWN", "addr:country": "US", "addr:postcode": "51656", "addr:state": "IA", "addr:street_address": "303 ADAMS ST", "amenity": "post_box", "collection_times": "Mo-Sa 12:45", "note": "ON 12/24 AND 12/31, THIS BOX MAY BE COLLECTED AS EARLY AS 12 NOON.", "nsi_id": "unitedstatespostalservice-a77078", "operator": "United States Postal Service", "operator:short": "USPS", "operator:type": "public", "operator:wikidata": "Q668687", "ref": "5165600000"}, "type": "Feature"}
{"geometry": {"coordinates": [-95.15421, 40.734397486], "type": "Point"}, "id": "NM--xd5W7dY9zyvAcnFrfEKvDr8=", "properties": {"@source_uri": "https://tools.usps.com/UspsToolsRestServices/rest/POLocator/findLocations", "@spider": "usps_collection_boxes", "addr:city": "YORKTOWN", "addr:country": "US", "addr:postcode": "51656", "addr:state": "IA", "addr:street_address": "303 ADAMS ST", "amenity": "post_box", "collection_times": "Mo-Sa 12:50", "indoor": "yes", "note": "ON 12/24 AND 12/31, THIS BOX MAY BE COLLECTED AS EARLY AS 12 NOON.", "nsi_id": "unitedstatespostalservice-a77078", "operator": "United States Postal Service", "operator:short": "USPS", "operator:type": "public", "operator:wikidata": "Q668687", "ref": "5165600002"}, "type": "Feature"}
