{"dataset_attributes": {"@spider": "usps_collection_boxes", "spider:collection_time": "2023-10-28T08:22:24.083666"}, "geometry": {"coordinates": [-90.6940755271, 42.4970634243], "type": "Point"}, "id": "hGHWVTTPhajUBy-nIl89ydTjyZY=", "properties": {"@spider": "usps_collection_boxes", "addr:city": "DUBUQUE", "addr:country": "US", "addr:full": "2201 GRACE ST", "addr:postcode": "52001", "addr:state": "IA", "amenity": "post_box", "brand": "United States Postal Service", "brand:wikidata": "Q668687", "collection_times": "Mo-Sa 15:00", "name": "USPS COLLECTION BOX - BLUE BOX", "note": "ON 12/24 AND 12/31, THIS BOX MAY BE COLLECTED AS EARLY AS 12 NOON.", "nsi_id": "unitedstatespostalservice-a77078", "operator": "United States Postal Service", "operator:short": "USPS", "operator:type": "public", "operator:wikidata": "Q668687", "ref": "5200100000"}, "type": "Feature"}
{"dataset_attributes": {"@spider": "usps_collection_boxes", "spider:collection_time": "2023-10-28T08:22:24.083666"}, "geometry": {"coordinates": [-90.711799711, 42.509069824], "type": "Point"}, "id": "2_mv2da-Euli2Wj5L8tMsQ0CKVw=", "properties": {"@spider": "usps_collection_boxes", "addr:city": "DUBUQUE", "addr:country": "US", "addr:full": "3003 ASBURY RD", "addr:postcode": "52001", "addr:state": "IA", "amenity": "post_box", "brand": "United States Postal Service", "brand:wikidata": "Q668687", "collection_times": "Mo-Sa 09:30", "name": "USPS COLLECTION BOX - BLUE BOX", "nsi_id": "unitedstatespostalservice-a77078", "operator": "United States Postal Service", "operator:short": "USPS", "operator:type": "public", "operator:wikidata": "Q668687", "ref": "5200100006"}, "type": "Feature"}
{"dataset_attributes": {"@spider": "usps_collection_boxes", "spider:collection_time": "2023-10-28T08:22:24.083666"}, "geometry": {"coordinates": [-90.662035461, 42.519255726], "type": "Point"}, "id": "FiNClQQtUyc_NZhbgKHF4imtLis=", "properties": {"@spider": "usps_collection_boxes", "addr:city": "DUBUQUE", "addr:country": "US", "addr:full": "1005 LINCOLN AVE", "addr:postcode": "52001", "addr:state": "IA", "amenity": "post_box", "brand": "United States Postal Service", "brand:wikidata": "Q668687", "collection_times": "Mo-Sa 13:00", "name": "USPS COLLECTION BOX - BLUE BOX", "note": "ON 12/24 AND 12/31, THIS BOX MAY BE COLLECTED AS EARLY AS 12 NOON.", "nsi_id": "unitedstatespostalservice-a77078", "operator": "United States Postal Service", "operator:short": "USPS", "operator:type": "public", "operator:wikidata": "Q668687", "ref": "5200100013"}, "type": "Feature"}
{"dataset_attributes": {"@spider": "usps_collection_boxes", "spider:collection_time": "2023-10-28T08:22:24.083666"}, "geometry": {"coordinates": [-90.66821485, 42.498190554], "type": "Point"}, "id": "DrpYxBn8im7QUng0c8xFAdHL0XQ=", "properties": {"@spider": "usps_collection_boxes", "addr:city": "DUBUQUE", "addr:country": "US", "addr:full": "550 BLUFF ST", "addr:postcode": "52001", "addr:state": "IA", "amenity": "post_box", "brand": "United States Postal Service", "brand:wikidata": "Q668687", "collection_times": "Mo-Fr 17:00; Sa 17:30", "name": "USPS COLLECTION BOX - BLUE BOX", "note": "ON 12/24 AND 12/31, THIS BOX MAY BE COLLECTED AS EARLY AS 12 NOON.", "nsi_id": "unitedstatespostalservice-a77078", "operator": "United States Postal Service", "operator:short": "USPS", "operator:type": "public", "operator:wikidata": "Q668687", "ref": "5200100015"}, "type": "Feature"}
{"dataset_attributes": {"@spider": "usps_collection_boxes", "spider:collection_time": "2023-10-28T08:22:24.083666"}, "geometry": {"coordinates": [-90.66821485, 42.498190554], "type": "Point"}, "id": "-xELkFpfnfk_Dcagr3Xw2hAO7i0=", "properties": {"@spider": "usps_collection_boxes", "addr:city": "DUBUQUE", "addr:country": "US", "addr:full": "550 BLUFF ST", "addr:postcode": "52001", "addr:state": "IA", "amenity": "post_box", "brand": "United States Postal Service", "brand:wikidata": "Q668687", "collection_times": "Mo-Fr 17:00; Sa 17:30", "name": "USPS COLLECTION BOX - BLUE BOX", "note": "ON 12/24 AND 12/31, THIS BOX MAY BE COLLECTED AS EARLY AS 12 NOON.", "nsi_id": "unitedstatespostalservice-a77078", "operator": "United States Postal Service", "operator:short": "USPS", "operator:type": "public", "operator:wikidata": "Q668687", "ref": "5200100016"}, "type": "Feature"}
{"dataset_attributes": {"@spider": "usps_collection_boxes", "spider:collection_time": "2023-10-28T08:22:24.083666"}, "geometry": {"coordinates": [-90.718295646, 42.499348329], "type": "Point"}, "id": "y26S0jpciYjp8pS_hw9zg5m2_9w=", "properties": {"@spider": "usps_collection_boxes", "addr:city": "DUBUQUE", "addr:country": "US", "addr:full": "1600 BUTTERFIELD DR", "addr:postcode": "52001", "addr:state": "IA", "amenity": "post_box", "brand": "United States Postal Service", "brand:wikidata": "Q668687", "collection_times": "Mo-Sa 09:00", "name": "USPS COLLECTION BOX - BLUE BOX", "nsi_id": "unitedstatespostalservice-a77078", "operator": "United States Postal Service", "operator:short": "USPS", "operator:type": "public", "operator:wikidata": "Q668687", "ref": "5200100022"}, "type": "Feature"}
{"dataset_attributes": {"@spider": "usps_collection_boxes", "spider:collection_time": "2023-10-28T08:22:24.083666"}, "geometry": {"coordinates": [-90.671358332, 42.513473053], "type": "Point"}, "id": "0RtkPmQXj33PkcNyIqteuSAqaeY=", "properties": {"@spider": "usps_collection_boxes", "addr:city": "DUBUQUE", "addr:country": "US", "addr:full": "2201 CENTRAL AVE", "addr:postcode": "52001", "addr:state": "IA", "amenity": "post_box", "brand": "United States Postal Service", "brand:wikidata": "Q668687", "collection_times": "Mo-Sa 16:30", "name": "USPS COLLECTION BOX - BLUE BOX", "note": "ON 12/24 AND 12/31, THIS BOX MAY BE COLLECTED AS EARLY AS 12 NOON.", "nsi_id": "unitedstatespostalservice-a77078", "operator": "United States Postal Service", "operator:short": "USPS", "operator:type": "public", "operator:wikidata": "Q668687", "ref": "5200100032"}, "type": "Feature"}
{"dataset_attributes": {"@spider": "usps_collection_boxes", "spider:collection_time": "2023-10-28T08:22:24.083666"}, "geometry": {"coordinates": [-90.671358332, 42.513473053], "type": "Point"}, "id": "VhTcXWngbMVPPUl5VcPn6u0W-kY=", "properties": {"@spider": "usps_collection_boxes", "addr:city": "DUBUQUE", "addr:country": "US", "addr:full": "2201 CENTRAL AVE", "addr:postcode": "52001", "addr:state": "IA", "amenity": "post_box", "brand": "United States Postal Service", "brand:wikidata": "Q668687", "collection_times": "Mo-Sa 16:30", "name": "USPS COLLECTION BOX - BLUE BOX", "note": "ON 12/24 AND 12/31, THIS BOX MAY BE COLLECTED AS EARLY AS 12 NOON.", "nsi_id": "unitedstatespostalservice-a77078", "operator": "United States Postal Service", "operator:short": "USPS", "operator:type": "public", "operator:wikidata": "Q668687", "ref": "5200100033"}, "type": "Feature"}
{"dataset_attributes": {"@spider": "usps_collection_boxes", "spider:collection_time": "2023-10-28T08:22:24.083666"}, "geometry": {"coordinates": [-90.679423985, 42.523713378], "type": "Point"}, "id": "c37eZR9XKe9AAOInJv-k1aS-La0=", "properties": {"@spider": "usps_collection_boxes", "addr:city": "DUBUQUE", "addr:country": "US", "addr:full": "2887 CENTRAL AVE", "addr:postcode": "52001", "addr:state": "IA", "amenity": "post_box", "brand": "United States Postal Service", "brand:wikidata": "Q668687", "collection_times": "Mo-Sa 10:00", "name": "USPS COLLECTION BOX - BLUE BOX", "nsi_id": "unitedstatespostalservice-a77078", "operator": "United States Postal Service", "operator:short": "USPS", "operator:type": "public", "operator:wikidata": "Q668687", "ref": "5200100037"}, "type": "Feature"}
{"dataset_attributes": {"@spider": "usps_collection_boxes", "spider:collection_time": "2023-10-28T08:22:24.083666"}, "geometry": {"coordinates": [-90.692097455, 42.509125282], "type": "Point"}, "id": "bUZl3uOPsIkb3dYeQdL1sVkMZlc=", "properties": {"@spider": "usps_collection_boxes", "addr:city": "DUBUQUE", "addr:country": "US", "addr:full": "1551 CLARKE DR", "addr:postcode": "52001", "addr:state": "IA", "amenity": "post_box", "brand": "United States Postal Service", "brand:wikidata": "Q668687", "collection_times": "Mo-Fr 14:30; Sa 12:00", "name": "USPS COLLECTION BOX - BLUE BOX", "note": "ON 12/24 AND 12/31, THIS BOX MAY BE COLLECTED AS EARLY AS 12 NOON.", "nsi_id": "unitedstatespostalservice-a77078", "operator": "United States Postal Service", "operator:short": "USPS", "operator:type": "public", "operator:wikidata": "Q668687", "ref": "5200100044"}, "type": "Feature"}
{"dataset_attributes": {"@spider": "usps_collection_boxes", "spider:collection_time": "2023-10-28T08:22:24.083666"}, "geometry": {"coordinates": [-90.667194969, 42.500724138], "type": "Point"}, "id": "znRcCruBOYPK7KimUPPJzFy7nXY=", "properties": {"@spider": "usps_collection_boxes", "addr:city": "DUBUQUE", "addr:country": "US", "addr:full": "200 W 8TH ST", "addr:postcode": "52001", "addr:state": "IA", "amenity": "post_box", "brand": "United States Postal Service", "brand:wikidata": "Q668687", "collection_times": "Mo-Fr 16:45; Sa 14:00", "name": "USPS COLLECTION BOX - BLUE BOX", "note": "ON 12/24 AND 12/31, THIS BOX MAY BE COLLECTED AS EARLY AS 12 NOON.", "nsi_id": "unitedstatespostalservice-a77078", "operator": "United States Postal Service", "operator:short": "USPS", "operator:type": "public", "operator:wikidata": "Q668687", "ref": "5200100048"}, "type": "Feature"}
{"dataset_attributes": {"@spider": "usps_collection_boxes", "spider:collection_time": "2023-10-28T08:22:24.083666"}, "geometry": {"coordinates": [-90.667194969, 42.500724138], "type": "Point"}, "id": "M205weWw8ZU94lYVcz0OdxgpjYM=", "properties": {"@spider": "usps_collection_boxes", "addr:city": "DUBUQUE", "addr:country": "US", "addr:full": "200 W 8TH ST", "addr:postcode": "52001", "addr:state": "IA", "amenity": "post_box", "brand": "United States Postal Service", "brand:wikidata": "Q668687", "collection_times": "Mo-Fr 16:45; Sa 14:00", "name": "USPS COLLECTION BOX - BLUE BOX", "note": "ON 12/24 AND 12/31, THIS BOX MAY BE COLLECTED AS EARLY AS 12 NOON.", "nsi_id": "unitedstatespostalservice-a77078", "operator": "United States Postal Service", "operator:short": "USPS", "operator:type": "public", "operator:wikidata": "Q668687", "ref": "5200100049"}, "type": "Feature"}
{"dataset_attributes": {"@spider": "usps_collection_boxes", "spider:collection_time": "2023-10-28T08:22:24.083666"}, "geometry": {"coordinates": [-90.668897674, 42.529747802], "type": "Point"}, "id": "8iEEi6aNlgmBnu1AfPBbLUHHl44=", "properties": {"@spider": "usps_collection_boxes", "addr:city": "DUBUQUE", "addr:country": "US", "addr:full": "899 DAVIS ST", "addr:postcode": "52001", "addr:state": "IA", "amenity": "post_box", "brand": "United States Postal Service", "brand:wikidata": "Q668687", "collection_times": "Mo-Sa 12:00", "name": "USPS COLLECTION BOX - BLUE BOX", "nsi_id": "unitedstatespostalservice-a77078", "operator": "United States Postal Service", "operator:short": "USPS", "operator:type": "public", "operator:wikidata": "Q668687", "ref": "5200100053"}, "type": "Feature"}
{"dataset_attributes": {"@spider": "usps_collection_boxes", "spider:collection_time": "2023-10-28T08:22:24.083666"}, "geometry": {"coordinates": [-90.666438018, 42.512364273], "type": "Point"}, "id": "cydngALUKmBq9AVe_C51dD3aojE=", "properties": {"@spider": "usps_collection_boxes", "addr:city": "DUBUQUE", "addr:country": "US", "addr:full": "401 RHOMBERG AVE", "addr:postcode": "52001", "addr:state": "IA", "amenity": "post_box", "brand": "United States Postal Service", "brand:wikidata": "Q668687", "collection_times": "Mo-Sa 11:30", "name": "USPS COLLECTION BOX - BLUE BOX", "nsi_id": "unitedstatespostalservice-a77078", "operator": "United States Postal Service", "operator:short": "USPS", "operator:type": "public", "operator:wikidata": "Q668687", "ref": "5200100065"}, "type": "Feature"}
{"dataset_attributes": {"@spider": "usps_collection_boxes", "spider:collection_time": "2023-10-28T08:22:24.083666"}, "geometry": {"coordinates": [-90.667835986, 42.501694131], "type": "Point"}, "id": "HKdGxS88cVd6vAYXOo36ktUIoSY=", "properties": {"@spider": "usps_collection_boxes", "addr:city": "DUBUQUE", "addr:country": "US", "addr:full": "215 W 9TH ST", "addr:postcode": "52001", "addr:state": "IA", "amenity": "post_box", "brand": "United States Postal Service", "brand:wikidata": "Q668687", "collection_times": "Mo-Fr 16:45; Sa 14:00", "name": "USPS COLLECTION BOX - BLUE BOX", "note": "ON 12/24 AND 12/31, THIS BOX MAY BE COLLECTED AS EARLY AS 12 NOON.", "nsi_id": "unitedstatespostalservice-a77078", "operator": "United States Postal Service", "operator:short": "USPS", "operator:type": "public", "operator:wikidata": "Q668687", "ref": "5200100070"}, "type": "Feature"}
{"dataset_attributes": {"@spider": "usps_collection_boxes", "spider:collection_time": "2023-10-28T08:22:24.083666"}, "geometry": {"coordinates": [-90.667835986, 42.501694131], "type": "Point"}, "id": "MEolI0oqkZdk5RKnMcIDkJGGsHo=", "properties": {"@spider": "usps_collection_boxes", "addr:city": "DUBUQUE", "addr:country": "US", "addr:full": "215 W 9TH ST", "addr:postcode": "52001", "addr:state": "IA", "amenity": "post_box", "brand": "United States Postal Service", "brand:wikidata": "Q668687", "collection_times": "Mo-Fr 16:45; Sa 14:00", "name": "USPS COLLECTION BOX - BLUE BOX", "note": "ON 12/24 AND 12/31, THIS BOX MAY BE COLLECTED AS EARLY AS 12 NOON.", "nsi_id": "unitedstatespostalservice-a77078", "operator": "United States Postal Service", "operator:short": "USPS", "operator:type": "public", "operator:wikidata": "Q668687", "ref": "5200100071"}, "type": "Feature"}
{"dataset_attributes": {"@spider": "usps_collection_boxes", "spider:collection_time": "2023-10-28T08:22:24.083666"}, "geometry": {"coordinates": [-90.66712979, 42.498513282], "type": "Point"}, "id": "mGe26M2sj1U6mUJn3JtlrzRtU5s=", "properties": {"@spider": "usps_collection_boxes", "addr:city": "DUBUQUE", "addr:country": "US", "addr:full": "550 LOCUST ST", "addr:postcode": "52001", "addr:state": "IA", "amenity": "post_box", "brand": "United States Postal Service", "brand:wikidata": "Q668687", "collection_times": "Mo-Fr 17:00; Sa 17:30", "name": "USPS COLLECTION BOX - BLUE BOX", "note": "ON 12/24 AND 12/31, THIS BOX MAY BE COLLECTED AS EARLY AS 12 NOON.", "nsi_id": "unitedstatespostalservice-a77078", "operator": "United States Postal Service", "operator:short": "USPS", "operator:type": "public", "operator:wikidata": "Q668687", "ref": "5200100094"}, "type": "Feature"}
{"dataset_attributes": {"@spider": "usps_collection_boxes", "spider:collection_time": "2023-10-28T08:22:24.083666"}, "geometry": {"coordinates": [-90.66712979, 42.498513282], "type": "Point"}, "id": "zNEeMu1S-3gaGRKe_u5TbLNeeDs=", "properties": {"@spider": "usps_collection_boxes", "addr:city": "DUBUQUE", "addr:country": "US", "addr:full": "550 LOCUST ST", "addr:postcode": "52001", "addr:state": "IA", "amenity": "post_box", "brand": "United States Postal Service", "brand:wikidata": "Q668687", "collection_times": "Mo-Fr 17:00; Sa 17:30", "name": "USPS COLLECTION BOX - BLUE BOX", "note": "ON 12/24 AND 12/31, THIS BOX MAY BE COLLECTED AS EARLY AS 12 NOON.", "nsi_id": "unitedstatespostalservice-a77078", "operator": "United States Postal Service", "operator:short": "USPS", "operator:type": "public", "operator:wikidata": "Q668687", "ref": "5200100095"}, "type": "Feature"}
{"dataset_attributes": {"@spider": "usps_collection_boxes", "spider:collection_time": "2023-10-28T08:22:24.083666"}, "geometry": {"coordinates": [-90.671100012, 42.50560871], "type": "Point"}, "id": "QbFgdpDIH5jde_AC1yAZwsgbGh4=", "properties": {"@spider": "usps_collection_boxes", "addr:city": "DUBUQUE", "addr:country": "US", "addr:full": "1415 LOCUST ST", "addr:postcode": "52001", "addr:state": "IA", "amenity": "post_box", "brand": "United States Postal Service", "brand:wikidata": "Q668687", "collection_times": "Mo-Fr 14:30; Sa 14:00", "name": "USPS COLLECTION BOX - BLUE BOX", "note": "ON 12/24 AND 12/31, THIS BOX MAY BE COLLECTED AS EARLY AS 12 NOON.", "nsi_id": "unitedstatespostalservice-a77078", "operator": "United States Postal Service", "operator:short": "USPS", "operator:type": "public", "operator:wikidata": "Q668687", "ref": "5200100098"}, "type": "Feature"}
{"dataset_attributes": {"@spider": "usps_collection_boxes", "spider:collection_time": "2023-10-28T08:22:24.083666"}, "geometry": {"coordinates": [-90.687252846, 42.50070501], "type": "Point"}, "id": "jzIAdoleG6CjmRnXOn__5NC9VWY=", "properties": {"@spider": "usps_collection_boxes", "addr:city": "DUBUQUE", "addr:country": "US", "addr:full": "1450 LORAS BLVD", "addr:postcode": "52001", "addr:state": "IA", "amenity": "post_box", "brand": "United States Postal Service", "brand:wikidata": "Q668687", "collection_times": "Mo-Sa 09:30", "name": "USPS COLLECTION BOX - BLUE BOX", "nsi_id": "unitedstatespostalservice-a77078", "operator": "United States Postal Service", "operator:short": "USPS", "operator:type": "public", "operator:wikidata": "Q668687", "ref": "5200100099"}, "type": "Feature"}
{"dataset_attributes": {"@spider": "usps_collection_boxes", "spider:collection_time": "2023-10-28T08:22:24.083666"}, "geometry": {"coordinates": [-90.681560288, 42.5030209], "type": "Point"}, "id": "9nN2ZEPWUubNVN0uY09Gxt-9Oy4=", "properties": {"@spider": "usps_collection_boxes", "addr:city": "DUBUQUE", "addr:country": "US", "addr:full": "1450 ALTA VISTA ST", "addr:postcode": "52001", "addr:state": "IA", "amenity": "post_box", "brand": "United States Postal Service", "brand:wikidata": "Q668687", "collection_times": "Mo-Sa 14:15", "name": "USPS COLLECTION BOX - BLUE BOX", "note": "ON 12/24 AND 12/31, THIS BOX MAY BE COLLECTED AS EARLY AS 12 NOON.", "nsi_id": "unitedstatespostalservice-a77078", "operator": "United States Postal Service", "operator:short": "USPS", "operator:type": "public", "operator:wikidata": "Q668687", "ref": "5200100100"}, "type": "Feature"}
{"dataset_attributes": {"@spider": "usps_collection_boxes", "spider:collection_time": "2023-10-28T08:22:24.083666"}, "geometry": {"coordinates": [-90.667910951, 42.502334793], "type": "Point"}, "id": "oH4T_Oy686633oUf98mYFZUCQKw=", "properties": {"@spider": "usps_collection_boxes", "addr:city": "DUBUQUE", "addr:country": "US", "addr:full": "980 MAIN ST", "addr:postcode": "52001", "addr:state": "IA", "amenity": "post_box", "brand": "United States Postal Service", "brand:wikidata": "Q668687", "collection_times": "Mo-Sa 09:30", "name": "USPS COLLECTION BOX - BLUE BOX", "nsi_id": "unitedstatespostalservice-a77078", "operator": "United States Postal Service", "operator:short": "USPS", "operator:type": "public", "operator:wikidata": "Q668687", "ref": "5200100102"}, "type": "Feature"}
{"dataset_attributes": {"@spider": "usps_collection_boxes", "spider:collection_time": "2023-10-28T08:22:24.083666"}, "geometry": {"coordinates": [-90.6691260313, 42.5051800173], "type": "Point"}, "id": "DH_FQ5KRuH-s7seWuJkvnUA1iAg=", "properties": {"@spider": "usps_collection_boxes", "addr:city": "DUBUQUE", "addr:country": "US", "addr:full": "1300 MAIN ST", "addr:postcode": "52001", "addr:state": "IA", "amenity": "post_box", "brand": "United States Postal Service", "brand:wikidata": "Q668687", "collection_times": "Mo-Sa 10:00", "name": "USPS COLLECTION BOX - BLUE BOX", "nsi_id": "unitedstatespostalservice-a77078", "operator": "United States Postal Service", "operator:short": "USPS", "operator:type": "public", "operator:wikidata": "Q668687", "ref": "5200100103"}, "type": "Feature"}
{"dataset_attributes": {"@spider": "usps_collection_boxes", "spider:collection_time": "2023-10-28T08:22:24.083666"}, "geometry": {"coordinates": [-90.671689223, 42.509093952], "type": "Point"}, "id": "03BUM-gFP57daez040o2byiHTRg=", "properties": {"@spider": "usps_collection_boxes", "addr:city": "DUBUQUE", "addr:country": "US", "addr:full": "1701 N MAIN ST", "addr:postcode": "52001", "addr:state": "IA", "amenity": "post_box", "brand": "United States Postal Service", "brand:wikidata": "Q668687", "collection_times": "Mo-Fr 13:30; Sa 13:00", "name": "USPS COLLECTION BOX - BLUE BOX", "note": "ON 12/24 AND 12/31, THIS BOX MAY BE COLLECTED AS EARLY AS 12 NOON.", "nsi_id": "unitedstatespostalservice-a77078", "operator": "United States Postal Service", "operator:short": "USPS", "operator:type": "public", "operator:wikidata": "Q668687", "ref": "5200100104"}, "type": "Feature"}
{"dataset_attributes": {"@spider": "usps_collection_boxes", "spider:collection_time": "2023-10-28T08:22:24.083666"}, "geometry": {"coordinates": [-90.672853063, 42.491883883], "type": "Point"}, "id": "qaMbT-GEkC5q2hxc9qCPIjVnr7k=", "properties": {"@spider": "usps_collection_boxes", "addr:city": "DUBUQUE", "addr:country": "US", "addr:full": "250 MERCY DR", "addr:postcode": "52001", "addr:state": "IA", "amenity": "post_box", "brand": "United States Postal Service", "brand:wikidata": "Q668687", "collection_times": "Mo-Fr 14:45; Sa 16:15", "name": "USPS COLLECTION BOX - BLUE BOX", "note": "ON 12/24 AND 12/31, THIS BOX MAY BE COLLECTED AS EARLY AS 12 NOON.", "nsi_id": "unitedstatespostalservice-a77078", "operator": "United States Postal Service", "operator:short": "USPS", "operator:type": "public", "operator:wikidata": "Q668687", "ref": "5200100106"}, "type": "Feature"}
{"dataset_attributes": {"@spider": "usps_collection_boxes", "spider:collection_time": "2023-10-28T08:22:24.083666"}, "geometry": {"coordinates": [-90.668295737, 42.5199275], "type": "Point"}, "id": "DMaHZaxPh-RnUhlyf3pWoNXQwwA=", "properties": {"@spider": "usps_collection_boxes", "addr:city": "DUBUQUE", "addr:country": "US", "addr:full": "2513 WINDSOR AVE", "addr:postcode": "52001", "addr:state": "IA", "amenity": "post_box", "brand": "United States Postal Service", "brand:wikidata": "Q668687", "collection_times": "Mo-Sa 12:00", "name": "USPS COLLECTION BOX - BLUE BOX", "nsi_id": "unitedstatespostalservice-a77078", "operator": "United States Postal Service", "operator:short": "USPS", "operator:type": "public", "operator:wikidata": "Q668687", "ref": "5200100107"}, "type": "Feature"}
{"dataset_attributes": {"@spider": "usps_collection_boxes", "spider:collection_time": "2023-10-28T08:22:24.083666"}, "geometry": {"coordinates": [-90.650301502, 42.530249692], "type": "Point"}, "id": "_Vv3WKhFOTxr-UkJwypJnM3HtZY=", "properties": {"@spider": "usps_collection_boxes", "addr:city": "DUBUQUE", "addr:country": "US", "addr:full": "2001 SHIRAS AVE", "addr:postcode": "52001", "addr:state": "IA", "amenity": "post_box", "brand": "United States Postal Service", "brand:wikidata": "Q668687", "collection_times": "Mo-Sa 10:00", "name": "USPS COLLECTION BOX - BLUE BOX", "nsi_id": "unitedstatespostalservice-a77078", "operator": "United States Postal Service", "operator:short": "USPS", "operator:type": "public", "operator:wikidata": "Q668687", "ref": "5200100112"}, "type": "Feature"}
{"dataset_attributes": {"@spider": "usps_collection_boxes", "spider:collection_time": "2023-10-28T08:22:24.083666"}, "geometry": {"coordinates": [-90.697271163, 42.50385573], "type": "Point"}, "id": "l3kjNyB9s3f6GkVf3qpXCQKAZOM=", "properties": {"@spider": "usps_collection_boxes", "addr:city": "DUBUQUE", "addr:country": "US", "addr:full": "2190 ROSEDALE AVE", "addr:postcode": "52001", "addr:state": "IA", "amenity": "post_box", "brand": "United States Postal Service", "brand:wikidata": "Q668687", "collection_times": "Mo-Sa 10:00", "name": "USPS COLLECTION BOX - BLUE BOX", "nsi_id": "unitedstatespostalservice-a77078", "operator": "United States Postal Service", "operator:short": "USPS", "operator:type": "public", "operator:wikidata": "Q668687", "ref": "5200100117"}, "type": "Feature"}
{"dataset_attributes": {"@spider": "usps_collection_boxes", "spider:collection_time": "2023-10-28T08:22:24.083666"}, "geometry": {"coordinates": [-90.676039176, 42.538843507], "type": "Point"}, "id": "zPeVbmqJcHfQpWMOfUAMJOUG3v0=", "properties": {"@spider": "usps_collection_boxes", "addr:city": "DUBUQUE", "addr:country": "US", "addr:full": "4001 PERU RD", "addr:postcode": "52001", "addr:state": "IA", "amenity": "post_box", "brand": "United States Postal Service", "brand:wikidata": "Q668687", "collection_times": "Mo-Sa 11:00", "name": "USPS COLLECTION BOX - BLUE BOX", "nsi_id": "unitedstatespostalservice-a77078", "operator": "United States Postal Service", "operator:short": "USPS", "operator:type": "public", "operator:wikidata": "Q668687", "ref": "5200100121"}, "type": "Feature"}
{"dataset_attributes": {"@spider": "usps_collection_boxes", "spider:collection_time": "2023-10-28T08:22:24.083666"}, "geometry": {"coordinates": [-90.663860529, 42.501340864], "type": "Point"}, "id": "hFpWAGWxwY-ZZXZMkFlDcYO1F64=", "properties": {"@spider": "usps_collection_boxes", "addr:city": "DUBUQUE", "addr:country": "US", "addr:full": "750 WHITE ST", "addr:postcode": "52001", "addr:state": "IA", "amenity": "post_box", "brand": "United States Postal Service", "brand:wikidata": "Q668687", "collection_times": "Mo-Sa 17:15", "name": "USPS COLLECTION BOX - BLUE BOX", "note": "ON 12/24 AND 12/31, THIS BOX MAY BE COLLECTED AS EARLY AS 12 NOON.", "nsi_id": "unitedstatespostalservice-a77078", "operator": "United States Postal Service", "operator:short": "USPS", "operator:type": "public", "operator:wikidata": "Q668687", "ref": "5200100127"}, "type": "Feature"}
{"dataset_attributes": {"@spider": "usps_collection_boxes", "spider:collection_time": "2023-10-28T08:22:24.083666"}, "geometry": {"coordinates": [-90.663860529, 42.501340864], "type": "Point"}, "id": "rakH5uj6heL3ivNIq7BjPtx86HQ=", "properties": {"@spider": "usps_collection_boxes", "addr:city": "DUBUQUE", "addr:country": "US", "addr:full": "750 WHITE ST", "addr:postcode": "52001", "addr:state": "IA", "amenity": "post_box", "brand": "United States Postal Service", "brand:wikidata": "Q668687", "collection_times": "Mo-Sa 17:15", "name": "USPS COLLECTION BOX - BLUE BOX", "note": "ON 12/24 AND 12/31, THIS BOX MAY BE COLLECTED AS EARLY AS 12 NOON.", "nsi_id": "unitedstatespostalservice-a77078", "operator": "United States Postal Service", "operator:short": "USPS", "operator:type": "public", "operator:wikidata": "Q668687", "ref": "5200100128"}, "type": "Feature"}
{"dataset_attributes": {"@spider": "usps_collection_boxes", "spider:collection_time": "2023-10-28T08:22:24.083666"}, "geometry": {"coordinates": [-90.675497053, 42.494594692], "type": "Point"}, "id": "nJRsPoNcMuHmcrEP4XkpAI53o5U=", "properties": {"@spider": "usps_collection_boxes", "addr:city": "DUBUQUE", "addr:country": "US", "addr:full": "988 W 3RD ST", "addr:postcode": "52001", "addr:state": "IA", "amenity": "post_box", "brand": "United States Postal Service", "brand:wikidata": "Q668687", "collection_times": "Mo-Sa 15:00", "name": "USPS COLLECTION BOX - BLUE BOX", "note": "ON 12/24 AND 12/31, THIS BOX MAY BE COLLECTED AS EARLY AS 12 NOON.", "nsi_id": "unitedstatespostalservice-a77078", "operator": "United States Postal Service", "operator:short": "USPS", "operator:type": "public", "operator:wikidata": "Q668687", "ref": "5200100129"}, "type": "Feature"}
{"dataset_attributes": {"@spider": "usps_collection_boxes", "spider:collection_time": "2023-10-28T08:22:24.083666"}, "geometry": {"coordinates": [-90.68749448, 42.49521132], "type": "Point"}, "id": "TsR8KqVpUDaMZIGfeQJ_EWRbcMM=", "properties": {"@spider": "usps_collection_boxes", "addr:city": "DUBUQUE", "addr:country": "US", "addr:full": "300 N GRANDVIEW AVE", "addr:postcode": "52001", "addr:state": "IA", "amenity": "post_box", "brand": "United States Postal Service", "brand:wikidata": "Q668687", "collection_times": "Mo-Sa 15:00", "name": "USPS COLLECTION BOX - BLUE BOX", "note": "ON 12/24 AND 12/31, THIS BOX MAY BE COLLECTED AS EARLY AS 12 NOON.", "nsi_id": "unitedstatespostalservice-a77078", "operator": "United States Postal Service", "operator:short": "USPS", "operator:type": "public", "operator:wikidata": "Q668687", "ref": "5200100131"}, "type": "Feature"}
{"dataset_attributes": {"@spider": "usps_collection_boxes", "spider:collection_time": "2023-10-28T08:22:24.083666"}, "geometry": {"coordinates": [-90.706181152, 42.511203647], "type": "Point"}, "id": "DuYlaUWwlFd40zUN4Ih6_rkyQSw=", "properties": {"@spider": "usps_collection_boxes", "addr:city": "DUBUQUE", "addr:country": "US", "addr:full": "2300 CHANEY RD", "addr:postcode": "52001", "addr:state": "IA", "amenity": "post_box", "brand": "United States Postal Service", "brand:wikidata": "Q668687", "collection_times": "Mo-Fr 16:30; Sa 09:00", "name": "USPS COLLECTION BOX - BLUE BOX", "note": "ON 12/24 AND 12/31, THIS BOX MAY BE COLLECTED AS EARLY AS 12 NOON.", "nsi_id": "unitedstatespostalservice-a77078", "operator": "United States Postal Service", "operator:short": "USPS", "operator:type": "public", "operator:wikidata": "Q668687", "ref": "5200100139"}, "type": "Feature"}
{"dataset_attributes": {"@spider": "usps_collection_boxes", "spider:collection_time": "2023-10-28T08:22:24.083666"}, "geometry": {"coordinates": [-90.663860529, 42.501340864], "type": "Point"}, "id": "mcHyWxt7LWiSnNI0WLTnHfKFGQ0=", "properties": {"@spider": "usps_collection_boxes", "addr:city": "DUBUQUE", "addr:country": "US", "addr:full": "750 WHITE ST", "addr:postcode": "52001", "addr:state": "IA", "amenity": "post_box", "brand": "United States Postal Service", "brand:wikidata": "Q668687", "collection_times": "Mo-Sa 17:15", "name": "USPS COLLECTION BOX - BLUE BOX", "note": "ON 12/24 AND 12/31, THIS BOX MAY BE COLLECTED AS EARLY AS 12 NOON.", "nsi_id": "unitedstatespostalservice-a77078", "operator": "United States Postal Service", "operator:short": "USPS", "operator:type": "public", "operator:wikidata": "Q668687", "ref": "5200100140"}, "type": "Feature"}
{"dataset_attributes": {"@spider": "usps_collection_boxes", "spider:collection_time": "2023-10-28T08:22:24.083666"}, "geometry": {"coordinates": [-90.683006765, 42.527648473], "type": "Point"}, "id": "IIVOKeuXrtWMT1GUarU_UjhHZQw=", "properties": {"@spider": "usps_collection_boxes", "addr:city": "DUBUQUE", "addr:country": "US", "addr:full": "3201 CENTRAL AVE", "addr:postcode": "52001", "addr:state": "IA", "amenity": "post_box", "brand": "United States Postal Service", "brand:wikidata": "Q668687", "collection_times": "Mo-Sa 11:00", "name": "USPS COLLECTION BOX - BLUE BOX", "nsi_id": "unitedstatespostalservice-a77078", "operator": "United States Postal Service", "operator:short": "USPS", "operator:type": "public", "operator:wikidata": "Q668687", "ref": "5200100141"}, "type": "Feature"}
{"dataset_attributes": {"@spider": "usps_collection_boxes", "spider:collection_time": "2023-10-28T08:22:24.083666"}, "geometry": {"coordinates": [-90.667944578, 42.498699257], "type": "Point"}, "id": "cUN1Z4jPRoBBK-fyWJCaqd23v9g=", "properties": {"@spider": "usps_collection_boxes", "addr:city": "DUBUQUE", "addr:country": "US", "addr:full": "350 W 6TH ST", "addr:postcode": "52001", "addr:state": "IA", "amenity": "post_box", "brand": "United States Postal Service", "brand:wikidata": "Q668687", "collection_times": "Mo-Fr 16:30; Sa 12:30", "name": "USPS COLLECTION BOX - PO LOBBY", "note": "ON 12/24 AND 12/31, THIS BOX MAY BE COLLECTED AS EARLY AS 12 NOON.", "nsi_id": "unitedstatespostalservice-a77078", "operator": "United States Postal Service", "operator:short": "USPS", "operator:type": "public", "operator:wikidata": "Q668687", "ref": "5200100142"}, "type": "Feature"}
{"dataset_attributes": {"@spider": "usps_collection_boxes", "spider:collection_time": "2023-10-28T08:22:24.083666"}, "geometry": {"coordinates": [-90.667194969, 42.500724138], "type": "Point"}, "id": "_QVdQ399NKv1Ykjypb52ysuxXQM=", "properties": {"@spider": "usps_collection_boxes", "addr:city": "DUBUQUE", "addr:country": "US", "addr:full": "200 W 8TH ST", "addr:postcode": "52001", "addr:state": "IA", "amenity": "post_box", "brand": "United States Postal Service", "brand:wikidata": "Q668687", "collection_times": "Mo-Fr 16:45; Sa 14:00", "name": "USPS COLLECTION BOX - BLUE BOX", "note": "ON 12/24 AND 12/31, THIS BOX MAY BE COLLECTED AS EARLY AS 12 NOON.", "nsi_id": "unitedstatespostalservice-a77078", "operator": "United States Postal Service", "operator:short": "USPS", "operator:type": "public", "operator:wikidata": "Q668687", "ref": "5200100145"}, "type": "Feature"}
{"dataset_attributes": {"@spider": "usps_collection_boxes", "spider:collection_time": "2023-10-28T08:22:24.083666"}, "geometry": {"coordinates": [-90.665013507, 42.496944349], "type": "Point"}, "id": "bh2heVp_xpDk3o32a49mrLwI5R0=", "properties": {"@spider": "usps_collection_boxes", "addr:city": "DUBUQUE", "addr:country": "US", "addr:full": "300 MAIN ST", "addr:postcode": "52001", "addr:state": "IA", "amenity": "post_box", "brand": "United States Postal Service", "brand:wikidata": "Q668687", "collection_times": "Mo-Fr 11:30; Sa 11:00", "name": "USPS COLLECTION BOX - BLUE BOX", "nsi_id": "unitedstatespostalservice-a77078", "operator": "United States Postal Service", "operator:short": "USPS", "operator:type": "public", "operator:wikidata": "Q668687", "ref": "5200100146"}, "type": "Feature"}
{"dataset_attributes": {"@spider": "usps_collection_boxes", "spider:collection_time": "2023-10-28T08:22:24.083666"}, "geometry": {"coordinates": [-90.687718677, 42.498328656], "type": "Point"}, "id": "cEQ0Om662IvCJj_llEW6soZfTeM=", "properties": {"@spider": "usps_collection_boxes", "addr:city": "DUBUQUE", "addr:country": "US", "addr:full": "1600 UNIVERSITY AVE", "addr:postcode": "52001", "addr:state": "IA", "amenity": "post_box", "brand": "United States Postal Service", "brand:wikidata": "Q668687", "collection_times": "Mo-Sa 16:15", "name": "USPS COLLECTION BOX - BLUE BOX", "note": "ON 12/24 AND 12/31, THIS BOX MAY BE COLLECTED AS EARLY AS 12 NOON.", "nsi_id": "unitedstatespostalservice-a77078", "operator": "United States Postal Service", "operator:short": "USPS", "operator:type": "public", "operator:wikidata": "Q668687", "ref": "5200100147"}, "type": "Feature"}
{"dataset_attributes": {"@spider": "usps_collection_boxes", "spider:collection_time": "2023-10-28T08:22:24.083666"}, "geometry": {"coordinates": [-90.687718677, 42.498328656], "type": "Point"}, "id": "UDLjX-nuEdALeugcvW36Ubvv-HM=", "properties": {"@spider": "usps_collection_boxes", "addr:city": "DUBUQUE", "addr:country": "US", "addr:full": "1600 UNIVERSITY AVE", "addr:postcode": "52001", "addr:state": "IA", "amenity": "post_box", "brand": "United States Postal Service", "brand:wikidata": "Q668687", "collection_times": "Mo-Sa 16:15", "name": "USPS COLLECTION BOX - BLUE BOX", "note": "ON 12/24 AND 12/31, THIS BOX MAY BE COLLECTED AS EARLY AS 12 NOON.", "nsi_id": "unitedstatespostalservice-a77078", "operator": "United States Postal Service", "operator:short": "USPS", "operator:type": "public", "operator:wikidata": "Q668687", "ref": "5200100148"}, "type": "Feature"}
{"dataset_attributes": {"@spider": "usps_collection_boxes", "spider:collection_time": "2023-10-28T08:22:24.083666"}, "geometry": {"coordinates": [-90.667944578, 42.498699257], "type": "Point"}, "id": "7jM_wpQ2vdVQTxMEbP-KhIo_wCU=", "properties": {"@spider": "usps_collection_boxes", "addr:city": "DUBUQUE", "addr:country": "US", "addr:full": "350 W 6TH ST", "addr:postcode": "52001", "addr:state": "IA", "amenity": "post_box", "brand": "United States Postal Service", "brand:wikidata": "Q668687", "collection_times": "Mo-Fr 17:00; Sa 12:00", "name": "USPS COLLECTION BOX - PO LOBBY", "note": "ON 12/24 AND 12/31, THIS BOX MAY BE COLLECTED AS EARLY AS 12 NOON.", "nsi_id": "unitedstatespostalservice-a77078", "operator": "United States Postal Service", "operator:short": "USPS", "operator:type": "public", "operator:wikidata": "Q668687", "ref": "5200100150"}, "type": "Feature"}
{"dataset_attributes": {"@spider": "usps_collection_boxes", "spider:collection_time": "2023-10-28T08:22:24.083666"}, "geometry": {"coordinates": [-90.738386729, 42.495929832], "type": "Point"}, "id": "dIMybscZah0yHxu4ppbZQycTfzs=", "properties": {"@spider": "usps_collection_boxes", "addr:city": "DUBUQUE", "addr:country": "US", "addr:full": "1500 ASSOCIATES DR", "addr:postcode": "52002", "addr:state": "IA", "amenity": "post_box", "brand": "United States Postal Service", "brand:wikidata": "Q668687", "collection_times": "Mo-Fr 12:30; Sa 09:30", "name": "USPS COLLECTION BOX - BLUE BOX", "note": "ON 12/24 AND 12/31, THIS BOX MAY BE COLLECTED AS EARLY AS 12 NOON.", "nsi_id": "unitedstatespostalservice-a77078", "operator": "United States Postal Service", "operator:short": "USPS", "operator:type": "public", "operator:wikidata": "Q668687", "ref": "5200200001"}, "type": "Feature"}
{"dataset_attributes": {"@spider": "usps_collection_boxes", "spider:collection_time": "2023-10-28T08:22:24.083666"}, "geometry": {"coordinates": [-90.747013721, 42.493321529], "type": "Point"}, "id": "u4bNoi-xs6yoJO23JLxMe4lpt-w=", "properties": {"@spider": "usps_collection_boxes", "addr:city": "DUBUQUE", "addr:country": "US", "addr:full": "4555 FUTURO CT", "addr:postcode": "52002", "addr:state": "IA", "amenity": "post_box", "brand": "United States Postal Service", "brand:wikidata": "Q668687", "collection_times": "Mo-Sa 17:00", "name": "USPS COLLECTION BOX - BLUE BOX", "note": "ON 12/24 AND 12/31, THIS BOX MAY BE COLLECTED AS EARLY AS 12 NOON.", "nsi_id": "unitedstatespostalservice-a77078", "operator": "United States Postal Service", "operator:short": "USPS", "operator:type": "public", "operator:wikidata": "Q668687", "ref": "5200200002"}, "type": "Feature"}
{"dataset_attributes": {"@spider": "usps_collection_boxes", "spider:collection_time": "2023-10-28T08:22:24.083666"}, "geometry": {"coordinates": [-90.747013721, 42.493321529], "type": "Point"}, "id": "pGRWBgUMSOdCb1UXqvxMhzyXgXM=", "properties": {"@spider": "usps_collection_boxes", "addr:city": "DUBUQUE", "addr:country": "US", "addr:full": "4555 FUTURO CT", "addr:postcode": "52002", "addr:state": "IA", "amenity": "post_box", "brand": "United States Postal Service", "brand:wikidata": "Q668687", "collection_times": "Mo-Sa 17:00", "name": "USPS COLLECTION BOX - BLUE BOX", "note": "ON 12/24 AND 12/31, THIS BOX MAY BE COLLECTED AS EARLY AS 12 NOON.", "nsi_id": "unitedstatespostalservice-a77078", "operator": "United States Postal Service", "operator:short": "USPS", "operator:type": "public", "operator:wikidata": "Q668687", "ref": "5200200003"}, "type": "Feature"}
{"dataset_attributes": {"@spider": "usps_collection_boxes", "spider:collection_time": "2023-10-28T08:22:24.083666"}, "geometry": {"coordinates": [-90.722963337, 42.505491473], "type": "Point"}, "id": "Te-Rpu94KwjeEWEeFjH4IkudbF4=", "properties": {"@spider": "usps_collection_boxes", "addr:city": "DUBUQUE", "addr:country": "US", "addr:full": "3355 KENNEDY CIR", "addr:postcode": "52002", "addr:state": "IA", "amenity": "post_box", "brand": "United States Postal Service", "brand:wikidata": "Q668687", "collection_times": "Mo-Sa 15:00", "name": "USPS COLLECTION BOX - BLUE BOX", "note": "ON 12/24 AND 12/31, THIS BOX MAY BE COLLECTED AS EARLY AS 12 NOON.", "nsi_id": "unitedstatespostalservice-a77078", "operator": "United States Postal Service", "operator:short": "USPS", "operator:type": "public", "operator:wikidata": "Q668687", "ref": "5200200004"}, "type": "Feature"}
{"dataset_attributes": {"@spider": "usps_collection_boxes", "spider:collection_time": "2023-10-28T08:22:24.083666"}, "geometry": {"coordinates": [-90.722963337, 42.505491473], "type": "Point"}, "id": "HtbHC7w590dIER7POvc63UZ5VKA=", "properties": {"@spider": "usps_collection_boxes", "addr:city": "DUBUQUE", "addr:country": "US", "addr:full": "3355 KENNEDY CIR", "addr:postcode": "52002", "addr:state": "IA", "amenity": "post_box", "brand": "United States Postal Service", "brand:wikidata": "Q668687", "collection_times": "Mo-Sa 15:00", "name": "USPS COLLECTION BOX - BLUE BOX", "note": "ON 12/24 AND 12/31, THIS BOX MAY BE COLLECTED AS EARLY AS 12 NOON.", "nsi_id": "unitedstatespostalservice-a77078", "operator": "United States Postal Service", "operator:short": "USPS", "operator:type": "public", "operator:wikidata": "Q668687", "ref": "5200200005"}, "type": "Feature"}
{"dataset_attributes": {"@spider": "usps_collection_boxes", "spider:collection_time": "2023-10-28T08:22:24.083666"}, "geometry": {"coordinates": [-90.719675666, 42.495545947], "type": "Point"}, "id": "nV4eIGLG5_jwxTH9s66ZueBr8R4=", "properties": {"@spider": "usps_collection_boxes", "addr:city": "DUBUQUE", "addr:country": "US", "addr:full": "555 JOHN F KENNEDY RD", "addr:postcode": "52002", "addr:state": "IA", "amenity": "post_box", "brand": "United States Postal Service", "brand:wikidata": "Q668687", "collection_times": "Mo-Fr 16:30; Sa 17:00", "name": "USPS COLLECTION BOX - BLUE BOX", "note": "ON 12/24 AND 12/31, THIS BOX MAY BE COLLECTED AS EARLY AS 12 NOON.", "nsi_id": "unitedstatespostalservice-a77078", "operator": "United States Postal Service", "operator:short": "USPS", "operator:type": "public", "operator:wikidata": "Q668687", "ref": "5200200006"}, "type": "Feature"}
{"dataset_attributes": {"@spider": "usps_collection_boxes", "spider:collection_time": "2023-10-28T08:22:24.083666"}, "geometry": {"coordinates": [-90.719675666, 42.495545947], "type": "Point"}, "id": "pZIoqdcXQpuy8XwSJuiy0Svl5s4=", "properties": {"@spider": "usps_collection_boxes", "addr:city": "DUBUQUE", "addr:country": "US", "addr:full": "555 JOHN F KENNEDY RD", "addr:postcode": "52002", "addr:state": "IA", "amenity": "post_box", "brand": "United States Postal Service", "brand:wikidata": "Q668687", "collection_times": "Mo-Fr 16:30; Sa 17:00", "name": "USPS COLLECTION BOX - BLUE BOX", "note": "ON 12/24 AND 12/31, THIS BOX MAY BE COLLECTED AS EARLY AS 12 NOON.", "nsi_id": "unitedstatespostalservice-a77078", "operator": "United States Postal Service", "operator:short": "USPS", "operator:type": "public", "operator:wikidata": "Q668687", "ref": "5200200007"}, "type": "Feature"}
{"dataset_attributes": {"@spider": "usps_collection_boxes", "spider:collection_time": "2023-10-28T08:22:24.083666"}, "geometry": {"coordinates": [-90.720519809, 42.511338335], "type": "Point"}, "id": "kcb-W0wJKgUZLFxHCWe8-dPUjHU=", "properties": {"@spider": "usps_collection_boxes", "addr:city": "DUBUQUE", "addr:country": "US", "addr:full": "2255 JOHN F KENNEDY RD", "addr:postcode": "52002", "addr:state": "IA", "amenity": "post_box", "brand": "United States Postal Service", "brand:wikidata": "Q668687", "collection_times": "Mo-Fr 17:00; Sa 16:45", "name": "USPS COLLECTION BOX - BLUE BOX", "note": "ON 12/24 AND 12/31, THIS BOX MAY BE COLLECTED AS EARLY AS 12 NOON.", "nsi_id": "unitedstatespostalservice-a77078", "operator": "United States Postal Service", "operator:short": "USPS", "operator:type": "public", "operator:wikidata": "Q668687", "ref": "5200200008"}, "type": "Feature"}
{"dataset_attributes": {"@spider": "usps_collection_boxes", "spider:collection_time": "2023-10-28T08:22:24.083666"}, "geometry": {"coordinates": [-90.732173059, 42.500505476], "type": "Point"}, "id": "ZXCMN2Z1A7wAIfu-x_HD4ZQKQyg=", "properties": {"@spider": "usps_collection_boxes", "addr:city": "DUBUQUE", "addr:country": "US", "addr:full": "3700 PENNSYLVANIA AVE", "addr:postcode": "52002", "addr:state": "IA", "amenity": "post_box", "brand": "United States Postal Service", "brand:wikidata": "Q668687", "collection_times": "Mo-Sa 13:00", "name": "USPS COLLECTION BOX - BLUE BOX", "note": "ON 12/24 AND 12/31, THIS BOX MAY BE COLLECTED AS EARLY AS 12 NOON.", "nsi_id": "unitedstatespostalservice-a77078", "operator": "United States Postal Service", "operator:short": "USPS", "operator:type": "public", "operator:wikidata": "Q668687", "ref": "5200200013"}, "type": "Feature"}
{"dataset_attributes": {"@spider": "usps_collection_boxes", "spider:collection_time": "2023-10-28T08:22:24.083666"}, "geometry": {"coordinates": [-90.7465162844, 42.4994314253], "type": "Point"}, "id": "x0h9pZhN4_SBcW0YoqabfQl6IgA=", "properties": {"@spider": "usps_collection_boxes", "addr:city": "DUBUQUE", "addr:country": "US", "addr:full": "4110 WESTMARK DR", "addr:postcode": "52002", "addr:state": "IA", "amenity": "post_box", "brand": "United States Postal Service", "brand:wikidata": "Q668687", "collection_times": "Mo-Fr 16:15; Sa 10:00", "name": "USPS COLLECTION BOX - BLUE BOX", "note": "ON 12/24 AND 12/31, THIS BOX MAY BE COLLECTED AS EARLY AS 12 NOON.", "nsi_id": "unitedstatespostalservice-a77078", "operator": "United States Postal Service", "operator:short": "USPS", "operator:type": "public", "operator:wikidata": "Q668687", "ref": "5200200014"}, "type": "Feature"}
{"dataset_attributes": {"@spider": "usps_collection_boxes", "spider:collection_time": "2023-10-28T08:22:24.083666"}, "geometry": {"coordinates": [-90.7585419951, 42.5089840184], "type": "Point"}, "id": "BX3NFhYf4q3BJEDbk9dUMgQbuSg=", "properties": {"@spider": "usps_collection_boxes", "addr:city": "DUBUQUE", "addr:country": "US", "addr:full": "5900 SARATOGA", "addr:postcode": "52002", "addr:state": "IA", "amenity": "post_box", "brand": "United States Postal Service", "brand:wikidata": "Q668687", "collection_times": "Mo-Fr 16:15; Sa 10:30", "name": "USPS COLLECTION BOX - BLUE BOX", "note": "ON 12/24 AND 12/31, THIS BOX MAY BE COLLECTED AS EARLY AS 12 NOON.", "nsi_id": "unitedstatespostalservice-a77078", "operator": "United States Postal Service", "operator:short": "USPS", "operator:type": "public", "operator:wikidata": "Q668687", "ref": "5200200015"}, "type": "Feature"}
{"dataset_attributes": {"@spider": "usps_collection_boxes", "spider:collection_time": "2023-10-28T08:22:24.083666"}, "geometry": {"coordinates": [-90.7585419951, 42.5089840184], "type": "Point"}, "id": "o_IMM2ipUbz8LfiNOrJ_RLO86NY=", "properties": {"@spider": "usps_collection_boxes", "addr:city": "DUBUQUE", "addr:country": "US", "addr:full": "5900 SARATOGA", "addr:postcode": "52002", "addr:state": "IA", "amenity": "post_box", "brand": "United States Postal Service", "brand:wikidata": "Q668687", "collection_times": "Mo-Fr 16:15; Sa 10:30", "name": "USPS COLLECTION BOX - BLUE BOX", "note": "ON 12/24 AND 12/31, THIS BOX MAY BE COLLECTED AS EARLY AS 12 NOON.", "nsi_id": "unitedstatespostalservice-a77078", "operator": "United States Postal Service", "operator:short": "USPS", "operator:type": "public", "operator:wikidata": "Q668687", "ref": "5200200018"}, "type": "Feature"}
{"dataset_attributes": {"@spider": "usps_collection_boxes", "spider:collection_time": "2023-10-28T08:22:24.083666"}, "geometry": {"coordinates": [-90.747013721, 42.493321529], "type": "Point"}, "id": "3wC6IWDTchQZYv6DxE_m41C9mXc=", "properties": {"@spider": "usps_collection_boxes", "addr:city": "DUBUQUE", "addr:country": "US", "addr:full": "4555 FUTURO CT", "addr:postcode": "52002", "addr:state": "IA", "amenity": "post_box", "brand": "United States Postal Service", "brand:wikidata": "Q668687", "collection_times": "Mo-Fr 16:00", "name": "USPS COLLECTION BOX - PO LOBBY", "note": "ON 12/24 AND 12/31, THIS BOX MAY BE COLLECTED AS EARLY AS 12 NOON.", "nsi_id": "unitedstatespostalservice-a77078", "operator": "United States Postal Service", "operator:short": "USPS", "operator:type": "public", "operator:wikidata": "Q668687", "ref": "5200200021"}, "type": "Feature"}
{"dataset_attributes": {"@spider": "usps_collection_boxes", "spider:collection_time": "2023-10-28T08:22:24.083666"}, "geometry": {"coordinates": [-90.708117845, 42.478574122], "type": "Point"}, "id": "1u7nz6Jd22X4G736XqCXFTgxDpo=", "properties": {"@spider": "usps_collection_boxes", "addr:city": "DUBUQUE", "addr:country": "US", "addr:full": "1072 CEDAR CROSS RD", "addr:postcode": "52003", "addr:state": "IA", "amenity": "post_box", "brand": "United States Postal Service", "brand:wikidata": "Q668687", "collection_times": "Mo-Sa 13:30", "name": "USPS COLLECTION BOX - BLUE BOX", "note": "ON 12/24 AND 12/31, THIS BOX MAY BE COLLECTED AS EARLY AS 12 NOON.", "nsi_id": "unitedstatespostalservice-a77078", "operator": "United States Postal Service", "operator:short": "USPS", "operator:type": "public", "operator:wikidata": "Q668687", "ref": "5200300002"}, "type": "Feature"}
{"dataset_attributes": {"@spider": "usps_collection_boxes", "spider:collection_time": "2023-10-28T08:22:24.083666"}, "geometry": {"coordinates": [-90.7006161754, 42.4911866207], "type": "Point"}, "id": "M4M-lSpbMyV9xfc6OXdo3fEpEts=", "properties": {"@spider": "usps_collection_boxes", "addr:city": "DUBUQUE", "addr:country": "US", "addr:full": "2600 DODGE ST", "addr:postcode": "52003", "addr:state": "IA", "amenity": "post_box", "brand": "United States Postal Service", "brand:wikidata": "Q668687", "collection_times": "Mo-Sa 15:30", "name": "USPS COLLECTION BOX - BLUE BOX", "note": "ON 12/24 AND 12/31, THIS BOX MAY BE COLLECTED AS EARLY AS 12 NOON.", "nsi_id": "unitedstatespostalservice-a77078", "operator": "United States Postal Service", "operator:short": "USPS", "operator:type": "public", "operator:wikidata": "Q668687", "ref": "5200300003"}, "type": "Feature"}
{"dataset_attributes": {"@spider": "usps_collection_boxes", "spider:collection_time": "2023-10-28T08:22:24.083666"}, "geometry": {"coordinates": [-90.7006161754, 42.4911866207], "type": "Point"}, "id": "2Rhwhdgg_ir3jH0rUR3fqcOshQc=", "properties": {"@spider": "usps_collection_boxes", "addr:city": "DUBUQUE", "addr:country": "US", "addr:full": "2600 DODGE ST", "addr:postcode": "52003", "addr:state": "IA", "amenity": "post_box", "brand": "United States Postal Service", "brand:wikidata": "Q668687", "collection_times": "Mo-Sa 15:30", "name": "USPS COLLECTION BOX - BLUE BOX", "note": "ON 12/24 AND 12/31, THIS BOX MAY BE COLLECTED AS EARLY AS 12 NOON.", "nsi_id": "unitedstatespostalservice-a77078", "operator": "United States Postal Service", "operator:short": "USPS", "operator:type": "public", "operator:wikidata": "Q668687", "ref": "5200300004"}, "type": "Feature"}
{"dataset_attributes": {"@spider": "usps_collection_boxes", "spider:collection_time": "2023-10-28T08:22:24.083666"}, "geometry": {"coordinates": [-90.717912304, 42.491850477], "type": "Point"}, "id": "9yNTfY1tEhZNOV1oTU-Shz4TpRw=", "properties": {"@spider": "usps_collection_boxes", "addr:city": "DUBUQUE", "addr:country": "US", "addr:full": "3430 DODGE ST", "addr:postcode": "52003", "addr:state": "IA", "amenity": "post_box", "brand": "United States Postal Service", "brand:wikidata": "Q668687", "collection_times": "Mo-Sa 15:00", "name": "USPS COLLECTION BOX - BLUE BOX", "note": "ON 12/24 AND 12/31, THIS BOX MAY BE COLLECTED AS EARLY AS 12 NOON.", "nsi_id": "unitedstatespostalservice-a77078", "operator": "United States Postal Service", "operator:short": "USPS", "operator:type": "public", "operator:wikidata": "Q668687", "ref": "5200300005"}, "type": "Feature"}
{"dataset_attributes": {"@spider": "usps_collection_boxes", "spider:collection_time": "2023-10-28T08:22:24.083666"}, "geometry": {"coordinates": [-90.723675216, 42.491792712], "type": "Point"}, "id": "Psz63DTibp_2WuxVNIR4Xf5BKIA=", "properties": {"@spider": "usps_collection_boxes", "addr:city": "DUBUQUE", "addr:country": "US", "addr:full": "3500 DODGE ST", "addr:postcode": "52003", "addr:state": "IA", "amenity": "post_box", "brand": "United States Postal Service", "brand:wikidata": "Q668687", "collection_times": "Mo-Sa 14:30", "name": "USPS COLLECTION BOX - BLUE BOX", "note": "ON 12/24 AND 12/31, THIS BOX MAY BE COLLECTED AS EARLY AS 12 NOON.", "nsi_id": "unitedstatespostalservice-a77078", "operator": "United States Postal Service", "operator:short": "USPS", "operator:type": "public", "operator:wikidata": "Q668687", "ref": "5200300007"}, "type": "Feature"}
{"dataset_attributes": {"@spider": "usps_collection_boxes", "spider:collection_time": "2023-10-28T08:22:24.083666"}, "geometry": {"coordinates": [-90.672493512, 42.458703845], "type": "Point"}, "id": "ECrNYQ8A7qAp4gO5f8aVrvElffc=", "properties": {"@spider": "usps_collection_boxes", "addr:city": "DUBUQUE", "addr:country": "US", "addr:full": "2320 GATEWAY DR", "addr:postcode": "52003", "addr:state": "IA", "amenity": "post_box", "brand": "United States Postal Service", "brand:wikidata": "Q668687", "collection_times": "Mo-Fr 15:15; Sa 13:00", "name": "USPS COLLECTION BOX - BLUE BOX", "note": "ON 12/24 AND 12/31, THIS BOX MAY BE COLLECTED AS EARLY AS 12 NOON.", "nsi_id": "unitedstatespostalservice-a77078", "operator": "United States Postal Service", "operator:short": "USPS", "operator:type": "public", "operator:wikidata": "Q668687", "ref": "5200300008"}, "type": "Feature"}
{"dataset_attributes": {"@spider": "usps_collection_boxes", "spider:collection_time": "2023-10-28T08:22:24.083666"}, "geometry": {"coordinates": [-90.672493512, 42.458703845], "type": "Point"}, "id": "blNzDMWzVVTgiFi2sjFICrg1sGc=", "properties": {"@spider": "usps_collection_boxes", "addr:city": "DUBUQUE", "addr:country": "US", "addr:full": "2320 GATEWAY DR", "addr:postcode": "52003", "addr:state": "IA", "amenity": "post_box", "brand": "United States Postal Service", "brand:wikidata": "Q668687", "collection_times": "Mo-Fr 15:15; Sa 13:00", "name": "USPS COLLECTION BOX - BLUE BOX", "note": "ON 12/24 AND 12/31, THIS BOX MAY BE COLLECTED AS EARLY AS 12 NOON.", "nsi_id": "unitedstatespostalservice-a77078", "operator": "United States Postal Service", "operator:short": "USPS", "operator:type": "public", "operator:wikidata": "Q668687", "ref": "5200300009"}, "type": "Feature"}
{"dataset_attributes": {"@spider": "usps_collection_boxes", "spider:collection_time": "2023-10-28T08:22:24.083666"}, "geometry": {"coordinates": [-90.723675216, 42.491792712], "type": "Point"}, "id": "HIvXdmqBM3r-aUE5LJB2nYY_X2U=", "properties": {"@spider": "usps_collection_boxes", "addr:city": "DUBUQUE", "addr:country": "US", "addr:full": "3500 DODGE ST", "addr:postcode": "52003", "addr:state": "IA", "amenity": "post_box", "brand": "United States Postal Service", "brand:wikidata": "Q668687", "collection_times": "Mo-Sa 14:30", "name": "USPS COLLECTION BOX - BLUE BOX", "note": "ON 12/24 AND 12/31, THIS BOX MAY BE COLLECTED AS EARLY AS 12 NOON.", "nsi_id": "unitedstatespostalservice-a77078", "operator": "United States Postal Service", "operator:short": "USPS", "operator:type": "public", "operator:wikidata": "Q668687", "ref": "5200300011"}, "type": "Feature"}
{"dataset_attributes": {"@spider": "usps_collection_boxes", "spider:collection_time": "2023-10-28T08:22:24.083666"}, "geometry": {"coordinates": [-90.679213112, 42.486048523], "type": "Point"}, "id": "aeOtLC2piAkFFX9ErC7ug5Hmy88=", "properties": {"@spider": "usps_collection_boxes", "addr:city": "DUBUQUE", "addr:country": "US", "addr:full": "560 S GRANDVIEW AVE", "addr:postcode": "52003", "addr:state": "IA", "amenity": "post_box", "brand": "United States Postal Service", "brand:wikidata": "Q668687", "collection_times": "Mo-Sa 12:30", "name": "USPS COLLECTION BOX - BLUE BOX", "note": "ON 12/24 AND 12/31, THIS BOX MAY BE COLLECTED AS EARLY AS 12 NOON.", "nsi_id": "unitedstatespostalservice-a77078", "operator": "United States Postal Service", "operator:short": "USPS", "operator:type": "public", "operator:wikidata": "Q668687", "ref": "5200300013"}, "type": "Feature"}
{"dataset_attributes": {"@spider": "usps_collection_boxes", "spider:collection_time": "2023-10-28T08:22:24.083666"}, "geometry": {"coordinates": [-90.661158593, 42.478686732], "type": "Point"}, "id": "zPgHo9qX4bAyOp9tubl0QjpSUdY=", "properties": {"@spider": "usps_collection_boxes", "addr:city": "DUBUQUE", "addr:country": "US", "addr:full": "925 S GRANDVIEW AVE", "addr:postcode": "52003", "addr:state": "IA", "amenity": "post_box", "brand": "United States Postal Service", "brand:wikidata": "Q668687", "collection_times": "Mo-Sa 12:00", "name": "USPS COLLECTION BOX - BLUE BOX", "nsi_id": "unitedstatespostalservice-a77078", "operator": "United States Postal Service", "operator:short": "USPS", "operator:type": "public", "operator:wikidata": "Q668687", "ref": "5200300014"}, "type": "Feature"}
{"dataset_attributes": {"@spider": "usps_collection_boxes", "spider:collection_time": "2023-10-28T08:22:24.083666"}, "geometry": {"coordinates": [-90.675782122, 42.484860688], "type": "Point"}, "id": "ISyVuNKB-7SvsArK_8iXR3on9dc=", "properties": {"@spider": "usps_collection_boxes", "addr:city": "DUBUQUE", "addr:country": "US", "addr:full": "1229 MOUNT LORETTA AVE", "addr:postcode": "52003", "addr:state": "IA", "amenity": "post_box", "brand": "United States Postal Service", "brand:wikidata": "Q668687", "collection_times": "Mo-Sa 14:00", "name": "USPS COLLECTION BOX - BLUE BOX", "note": "ON 12/24 AND 12/31, THIS BOX MAY BE COLLECTED AS EARLY AS 12 NOON.", "nsi_id": "unitedstatespostalservice-a77078", "operator": "United States Postal Service", "operator:short": "USPS", "operator:type": "public", "operator:wikidata": "Q668687", "ref": "5200300017"}, "type": "Feature"}
{"dataset_attributes": {"@spider": "usps_collection_boxes", "spider:collection_time": "2023-10-28T08:22:24.083666"}, "geometry": {"coordinates": [-90.675916835, 42.486332825], "type": "Point"}, "id": "-Ne63q6Jw-naIjs7SM_pl_bW8HY=", "properties": {"@spider": "usps_collection_boxes", "addr:city": "DUBUQUE", "addr:country": "US", "addr:full": "1220 RUSH ST", "addr:postcode": "52003", "addr:state": "IA", "amenity": "post_box", "brand": "United States Postal Service", "brand:wikidata": "Q668687", "collection_times": "Mo-Sa 09:00", "name": "USPS COLLECTION BOX - BLUE BOX", "nsi_id": "unitedstatespostalservice-a77078", "operator": "United States Postal Service", "operator:short": "USPS", "operator:type": "public", "operator:wikidata": "Q668687", "ref": "5200300018"}, "type": "Feature"}
{"dataset_attributes": {"@spider": "usps_collection_boxes", "spider:collection_time": "2023-10-28T08:22:24.083666"}, "geometry": {"coordinates": [-90.690750214, 42.485039246], "type": "Point"}, "id": "HbU9oewBE5dMXo94IjWh9bWw2kY=", "properties": {"@spider": "usps_collection_boxes", "addr:city": "DUBUQUE", "addr:country": "US", "addr:full": "333 WARTBURG PL", "addr:postcode": "52003", "addr:state": "IA", "amenity": "post_box", "brand": "United States Postal Service", "brand:wikidata": "Q668687", "collection_times": "Mo-Sa 12:00", "name": "USPS COLLECTION BOX - BLUE BOX", "nsi_id": "unitedstatespostalservice-a77078", "operator": "United States Postal Service", "operator:short": "USPS", "operator:type": "public", "operator:wikidata": "Q668687", "ref": "5200300019"}, "type": "Feature"}
{"dataset_attributes": {"@spider": "usps_collection_boxes", "spider:collection_time": "2023-10-28T08:22:24.083666"}, "geometry": {"coordinates": [-90.659651971, 42.478337719], "type": "Point"}, "id": "sC-k2qrQVlcJBrX4hQf_nSst5HA=", "properties": {"@spider": "usps_collection_boxes", "addr:city": "DUBUQUE", "addr:country": "US", "addr:full": "1514 S GRANDVIEW AVE", "addr:postcode": "52003", "addr:state": "IA", "amenity": "post_box", "brand": "United States Postal Service", "brand:wikidata": "Q668687", "collection_times": "Mo-Sa 13:30", "name": "USPS COLLECTION BOX - BLUE BOX", "note": "ON 12/24 AND 12/31, THIS BOX MAY BE COLLECTED AS EARLY AS 12 NOON.", "nsi_id": "unitedstatespostalservice-a77078", "operator": "United States Postal Service", "operator:short": "USPS", "operator:type": "public", "operator:wikidata": "Q668687", "ref": "5200300021"}, "type": "Feature"}
{"dataset_attributes": {"@spider": "usps_collection_boxes", "spider:collection_time": "2023-10-28T08:22:24.083666"}, "geometry": {"coordinates": [-90.592559543, 42.154496766], "type": "Point"}, "id": "9X_G8rae-o7N6cwqhGif8RSHEx0=", "properties": {"@spider": "usps_collection_boxes", "addr:city": "ANDREW", "addr:country": "US", "addr:full": "13 W BENTON ST", "addr:postcode": "52030", "addr:state": "IA", "amenity": "post_box", "brand": "United States Postal Service", "brand:wikidata": "Q668687", "collection_times": "Mo-Fr 15:45; Sa 16:00", "name": "USPS COLLECTION BOX - BLUE BOX", "note": "ON 12/24 AND 12/31, THIS BOX MAY BE COLLECTED AS EARLY AS 12 NOON.", "nsi_id": "unitedstatespostalservice-a77078", "operator": "United States Postal Service", "operator:short": "USPS", "operator:type": "public", "operator:wikidata": "Q668687", "ref": "5203000000"}, "type": "Feature"}
{"dataset_attributes": {"@spider": "usps_collection_boxes", "spider:collection_time": "2023-10-28T08:22:24.083666"}, "geometry": {"coordinates": [-90.592559543, 42.154496766], "type": "Point"}, "id": "VN6_6HgbPcDlGthDdaJRk9v6LTI=", "properties": {"@spider": "usps_collection_boxes", "addr:city": "ANDREW", "addr:country": "US", "addr:full": "13 W BENTON ST", "addr:postcode": "52030", "addr:state": "IA", "amenity": "post_box", "brand": "United States Postal Service", "brand:wikidata": "Q668687", "collection_times": "Mo-Fr 11:45", "name": "USPS COLLECTION BOX - PO LOBBY", "nsi_id": "unitedstatespostalservice-a77078", "operator": "United States Postal Service", "operator:short": "USPS", "operator:type": "public", "operator:wikidata": "Q668687", "ref": "5203000001"}, "type": "Feature"}
{"dataset_attributes": {"@spider": "usps_collection_boxes", "spider:collection_time": "2023-10-28T08:22:24.083666"}, "geometry": {"coordinates": [-90.592559543, 42.154496766], "type": "Point"}, "id": "y2w1m68pGRe9I1IMgaPALdlOcgI=", "properties": {"@spider": "usps_collection_boxes", "addr:city": "ANDREW", "addr:country": "US", "addr:full": "13 W BENTON ST", "addr:postcode": "52030", "addr:state": "IA", "amenity": "post_box", "brand": "United States Postal Service", "brand:wikidata": "Q668687", "collection_times": "Mo-Fr 12:00; Sa 09:45", "name": "USPS COLLECTION BOX - PO LOBBY", "nsi_id": "unitedstatespostalservice-a77078", "operator": "United States Postal Service", "operator:short": "USPS", "operator:type": "public", "operator:wikidata": "Q668687", "ref": "5203000002"}, "type": "Feature"}
{"dataset_attributes": {"@spider": "usps_collection_boxes", "spider:collection_time": "2023-10-28T08:22:24.083666"}, "geometry": {"coordinates": [-90.425441444, 42.261222247], "type": "Point"}, "id": "d279g2tspLEZX-YCa5K4hklzNpY=", "properties": {"@spider": "usps_collection_boxes", "addr:city": "BELLEVUE", "addr:country": "US", "addr:full": "401 N 2ND ST", "addr:postcode": "52031", "addr:state": "IA", "amenity": "post_box", "brand": "United States Postal Service", "brand:wikidata": "Q668687", "collection_times": "Mo-Fr 16:00; Sa 15:00", "name": "USPS COLLECTION BOX - BLUE BOX", "note": "ON 12/24 AND 12/31, THIS BOX MAY BE COLLECTED AS EARLY AS 12 NOON.", "nsi_id": "unitedstatespostalservice-a77078", "operator": "United States Postal Service", "operator:short": "USPS", "operator:type": "public", "operator:wikidata": "Q668687", "ref": "5203100000"}, "type": "Feature"}
{"dataset_attributes": {"@spider": "usps_collection_boxes", "spider:collection_time": "2023-10-28T08:22:24.083666"}, "geometry": {"coordinates": [-90.425441444, 42.261222247], "type": "Point"}, "id": "lsQGDwmyEpm0gL_O6x1N0fdKxM0=", "properties": {"@spider": "usps_collection_boxes", "addr:city": "BELLEVUE", "addr:country": "US", "addr:full": "401 N 2ND ST", "addr:postcode": "52031", "addr:state": "IA", "amenity": "post_box", "brand": "United States Postal Service", "brand:wikidata": "Q668687", "collection_times": "Mo-Fr 16:00; Sa 15:00", "name": "USPS COLLECTION BOX - PO LOBBY", "note": "ON 12/24 AND 12/31, THIS BOX MAY BE COLLECTED AS EARLY AS 12 NOON.", "nsi_id": "unitedstatespostalservice-a77078", "operator": "United States Postal Service", "operator:short": "USPS", "operator:type": "public", "operator:wikidata": "Q668687", "ref": "5203100001"}, "type": "Feature"}
{"dataset_attributes": {"@spider": "usps_collection_boxes", "spider:collection_time": "2023-10-28T08:22:24.083666"}, "geometry": {"coordinates": [-90.4244179607, 42.2582279855], "type": "Point"}, "id": "1j3lGtaTKqSvC9LWUnqNBC-WXUc=", "properties": {"@spider": "usps_collection_boxes", "addr:city": "BELLEVUE", "addr:country": "US", "addr:full": "100 S 2ND ST", "addr:postcode": "52031", "addr:state": "IA", "amenity": "post_box", "brand": "United States Postal Service", "brand:wikidata": "Q668687", "collection_times": "Mo-Sa 13:30", "name": "USPS COLLECTION BOX - BLUE BOX", "note": "ON 12/24 AND 12/31, THIS BOX MAY BE COLLECTED AS EARLY AS 12 NOON.", "nsi_id": "unitedstatespostalservice-a77078", "operator": "United States Postal Service", "operator:short": "USPS", "operator:type": "public", "operator:wikidata": "Q668687", "ref": "5203100002"}, "type": "Feature"}
{"dataset_attributes": {"@spider": "usps_collection_boxes", "spider:collection_time": "2023-10-28T08:22:24.083666"}, "geometry": {"coordinates": [-90.425441444, 42.261222247], "type": "Point"}, "id": "rkUZDaacrZE-1bCMoxiVAch57YM=", "properties": {"@spider": "usps_collection_boxes", "addr:city": "BELLEVUE", "addr:country": "US", "addr:full": "401 N 2ND ST", "addr:postcode": "52031", "addr:state": "IA", "amenity": "post_box", "brand": "United States Postal Service", "brand:wikidata": "Q668687", "collection_times": "Mo-Fr 16:00; Sa 10:00", "name": "USPS COLLECTION BOX - PO LOBBY", "note": "ON 12/24 AND 12/31, THIS BOX MAY BE COLLECTED AS EARLY AS 12 NOON.", "nsi_id": "unitedstatespostalservice-a77078", "operator": "United States Postal Service", "operator:short": "USPS", "operator:type": "public", "operator:wikidata": "Q668687", "ref": "5203100003"}, "type": "Feature"}
{"dataset_attributes": {"@spider": "usps_collection_boxes", "spider:collection_time": "2023-10-28T08:22:24.083666"}, "geometry": {"coordinates": [-90.831550136, 42.311709115], "type": "Point"}, "id": "Zi081TJ6kGAG5MSTdvBpriLTvCg=", "properties": {"@spider": "usps_collection_boxes", "addr:city": "BERNARD", "addr:country": "US", "addr:full": "157 JESS ST", "addr:postcode": "52032", "addr:state": "IA", "amenity": "post_box", "brand": "United States Postal Service", "brand:wikidata": "Q668687", "collection_times": "Mo-Fr 16:00; Sa 17:00", "name": "USPS COLLECTION BOX - BLUE BOX", "note": "ON 12/24 AND 12/31, THIS BOX MAY BE COLLECTED AS EARLY AS 12 NOON.", "nsi_id": "unitedstatespostalservice-a77078", "operator": "United States Postal Service", "operator:short": "USPS", "operator:type": "public", "operator:wikidata": "Q668687", "ref": "5203200000"}, "type": "Feature"}
{"dataset_attributes": {"@spider": "usps_collection_boxes", "spider:collection_time": "2023-10-28T08:22:24.083666"}, "geometry": {"coordinates": [-90.831550136, 42.311709115], "type": "Point"}, "id": "XS21YqOO8DEJyS2SjO1ZC3Ur5Lk=", "properties": {"@spider": "usps_collection_boxes", "addr:city": "BERNARD", "addr:country": "US", "addr:full": "157 JESS ST", "addr:postcode": "52032", "addr:state": "IA", "amenity": "post_box", "brand": "United States Postal Service", "brand:wikidata": "Q668687", "collection_times": "Mo-Fr 15:15", "name": "USPS COLLECTION BOX - PO LOBBY", "note": "ON 12/24 AND 12/31, THIS BOX MAY BE COLLECTED AS EARLY AS 12 NOON.", "nsi_id": "unitedstatespostalservice-a77078", "operator": "United States Postal Service", "operator:short": "USPS", "operator:type": "public", "operator:wikidata": "Q668687", "ref": "5203200001"}, "type": "Feature"}
{"dataset_attributes": {"@spider": "usps_collection_boxes", "spider:collection_time": "2023-10-28T08:22:24.083666"}, "geometry": {"coordinates": [-90.769060104, 42.233819364], "type": "Point"}, "id": "k1U1fAKmgizVFQdVLAi8bzXG1Os=", "properties": {"@spider": "usps_collection_boxes", "addr:city": "BERNARD", "addr:country": "US", "addr:full": "21504 LAKE SHORE DR", "addr:postcode": "52032", "addr:state": "IA", "amenity": "post_box", "brand": "United States Postal Service", "brand:wikidata": "Q668687", "collection_times": "Mo-Sa 09:30", "name": "USPS COLLECTION BOX - BLUE BOX", "nsi_id": "unitedstatespostalservice-a77078", "operator": "United States Postal Service", "operator:short": "USPS", "operator:type": "public", "operator:wikidata": "Q668687", "ref": "5203200002"}, "type": "Feature"}
{"dataset_attributes": {"@spider": "usps_collection_boxes", "spider:collection_time": "2023-10-28T08:22:24.083666"}, "geometry": {"coordinates": [-90.831550136, 42.311709115], "type": "Point"}, "id": "3-ZmNxKa5XQSu01MewTcGNQx7cY=", "properties": {"@spider": "usps_collection_boxes", "addr:city": "BERNARD", "addr:country": "US", "addr:full": "157 JESS ST", "addr:postcode": "52032", "addr:state": "IA", "amenity": "post_box", "brand": "United States Postal Service", "brand:wikidata": "Q668687", "collection_times": "Mo-Fr 15:30; Sa 09:45", "name": "USPS COLLECTION BOX - PO LOBBY", "note": "ON 12/24 AND 12/31, THIS BOX MAY BE COLLECTED AS EARLY AS 12 NOON.", "nsi_id": "unitedstatespostalservice-a77078", "operator": "United States Postal Service", "operator:short": "USPS", "operator:type": "public", "operator:wikidata": "Q668687", "ref": "5203200003"}, "type": "Feature"}
{"dataset_attributes": {"@spider": "usps_collection_boxes", "spider:collection_time": "2023-10-28T08:22:24.083666"}, "geometry": {"coordinates": [-91.015969307, 42.299112647], "type": "Point"}, "id": "SGjYYj4NL3ZcQyt841lLL-4Hx1w=", "properties": {"@spider": "usps_collection_boxes", "addr:city": "CASCADE", "addr:country": "US", "addr:full": "305 2ND AVE NW", "addr:postcode": "52033", "addr:state": "IA", "amenity": "post_box", "brand": "United States Postal Service", "brand:wikidata": "Q668687", "collection_times": "Mo-Fr 16:00; Sa 16:45", "name": "USPS COLLECTION BOX - BLUE BOX", "note": "ON 12/24 AND 12/31, THIS BOX MAY BE COLLECTED AS EARLY AS 12 NOON.", "nsi_id": "unitedstatespostalservice-a77078", "operator": "United States Postal Service", "operator:short": "USPS", "operator:type": "public", "operator:wikidata": "Q668687", "ref": "5203300001"}, "type": "Feature"}
{"dataset_attributes": {"@spider": "usps_collection_boxes", "spider:collection_time": "2023-10-28T08:22:24.083666"}, "geometry": {"coordinates": [-91.015969307, 42.299112647], "type": "Point"}, "id": "j3vNNIKZ32_xVRDxeq5mjFXtUmA=", "properties": {"@spider": "usps_collection_boxes", "addr:city": "CASCADE", "addr:country": "US", "addr:full": "305 2ND AVE NW", "addr:postcode": "52033", "addr:state": "IA", "amenity": "post_box", "brand": "United States Postal Service", "brand:wikidata": "Q668687", "collection_times": "Mo-Fr 16:00; Sa 10:30", "name": "USPS COLLECTION BOX - PO LOBBY", "note": "ON 12/24 AND 12/31, THIS BOX MAY BE COLLECTED AS EARLY AS 12 NOON.", "nsi_id": "unitedstatespostalservice-a77078", "operator": "United States Postal Service", "operator:short": "USPS", "operator:type": "public", "operator:wikidata": "Q668687", "ref": "5203300002"}, "type": "Feature"}
{"dataset_attributes": {"@spider": "usps_collection_boxes", "spider:collection_time": "2023-10-28T08:22:24.083666"}, "geometry": {"coordinates": [-91.015969307, 42.299112647], "type": "Point"}, "id": "IF85Q2sY_4ZV_tB_2Ev4Zra4Epo=", "properties": {"@spider": "usps_collection_boxes", "addr:city": "CASCADE", "addr:country": "US", "addr:full": "305 2ND AVE NW", "addr:postcode": "52033", "addr:state": "IA", "amenity": "post_box", "brand": "United States Postal Service", "brand:wikidata": "Q668687", "collection_times": "Mo-Fr 16:00; Sa 10:30", "name": "USPS COLLECTION BOX - PO LOBBY", "note": "ON 12/24 AND 12/31, THIS BOX MAY BE COLLECTED AS EARLY AS 12 NOON.", "nsi_id": "unitedstatespostalservice-a77078", "operator": "United States Postal Service", "operator:short": "USPS", "operator:type": "public", "operator:wikidata": "Q668687", "ref": "5203300003"}, "type": "Feature"}
{"dataset_attributes": {"@spider": "usps_collection_boxes", "spider:collection_time": "2023-10-28T08:22:24.083666"}, "geometry": {"coordinates": [-91.202295717, 42.637006938], "type": "Point"}, "id": "UZ3zrIM09hJGBKwjLyEfgqFkOC4=", "properties": {"@spider": "usps_collection_boxes", "addr:city": "COLESBURG", "addr:country": "US", "addr:full": "204 MAIN ST", "addr:postcode": "52035", "addr:state": "IA", "amenity": "post_box", "brand": "United States Postal Service", "brand:wikidata": "Q668687", "collection_times": "Mo-Sa 16:30", "name": "USPS COLLECTION BOX - BLUE BOX", "note": "ON 12/24 AND 12/31, THIS BOX MAY BE COLLECTED AS EARLY AS 12 NOON.", "nsi_id": "unitedstatespostalservice-a77078", "operator": "United States Postal Service", "operator:short": "USPS", "operator:type": "public", "operator:wikidata": "Q668687", "ref": "5203500000"}, "type": "Feature"}
{"dataset_attributes": {"@spider": "usps_collection_boxes", "spider:collection_time": "2023-10-28T08:22:24.083666"}, "geometry": {"coordinates": [-91.202295717, 42.637006938], "type": "Point"}, "id": "BrUIe5ru_pbuLnw-SJDiJ7eosQg=", "properties": {"@spider": "usps_collection_boxes", "addr:city": "COLESBURG", "addr:country": "US", "addr:full": "204 MAIN ST", "addr:postcode": "52035", "addr:state": "IA", "amenity": "post_box", "brand": "United States Postal Service", "brand:wikidata": "Q668687", "collection_times": "Mo-Fr 15:45; Sa 09:00", "name": "USPS COLLECTION BOX - PO LOBBY", "note": "ON 12/24 AND 12/31, THIS BOX MAY BE COLLECTED AS EARLY AS 12 NOON.", "nsi_id": "unitedstatespostalservice-a77078", "operator": "United States Postal Service", "operator:short": "USPS", "operator:type": "public", "operator:wikidata": "Q668687", "ref": "5203500003"}, "type": "Feature"}
{"dataset_attributes": {"@spider": "usps_collection_boxes", "spider:collection_time": "2023-10-28T08:22:24.083666"}, "geometry": {"coordinates": [-91.202295717, 42.637006938], "type": "Point"}, "id": "lVdViZdoanSzskjXfENchSxOHTs=", "properties": {"@spider": "usps_collection_boxes", "addr:city": "COLESBURG", "addr:country": "US", "addr:full": "204 MAIN ST", "addr:postcode": "52035", "addr:state": "IA", "amenity": "post_box", "brand": "United States Postal Service", "brand:wikidata": "Q668687", "collection_times": "Mo-Fr 16:00; Sa 09:15", "name": "USPS COLLECTION BOX - PO LOBBY", "note": "ON 12/24 AND 12/31, THIS BOX MAY BE COLLECTED AS EARLY AS 12 NOON.", "nsi_id": "unitedstatespostalservice-a77078", "operator": "United States Postal Service", "operator:short": "USPS", "operator:type": "public", "operator:wikidata": "Q668687", "ref": "5203500004"}, "type": "Feature"}
{"dataset_attributes": {"@spider": "usps_collection_boxes", "spider:collection_time": "2023-10-28T08:22:24.083666"}, "geometry": {"coordinates": [-90.605690528, 41.999170472], "type": "Point"}, "id": "atRRFIUImJ6P5y_wmfbctm8obK0=", "properties": {"@spider": "usps_collection_boxes", "addr:city": "DELMAR", "addr:country": "US", "addr:full": "604 VANE ST", "addr:postcode": "52037", "addr:state": "IA", "amenity": "post_box", "brand": "United States Postal Service", "brand:wikidata": "Q668687", "collection_times": "Mo-Sa 16:00", "name": "USPS COLLECTION BOX - BLUE BOX", "note": "ON 12/24 AND 12/31, THIS BOX MAY BE COLLECTED AS EARLY AS 12 NOON.", "nsi_id": "unitedstatespostalservice-a77078", "operator": "United States Postal Service", "operator:short": "USPS", "operator:type": "public", "operator:wikidata": "Q668687", "ref": "5203700000"}, "type": "Feature"}
{"dataset_attributes": {"@spider": "usps_collection_boxes", "spider:collection_time": "2023-10-28T08:22:24.083666"}, "geometry": {"coordinates": [-90.605690528, 41.999170472], "type": "Point"}, "id": "rgQkbKeOom3C9-dA_j0Fj3WZWbE=", "properties": {"@spider": "usps_collection_boxes", "addr:city": "DELMAR", "addr:country": "US", "addr:full": "604 VANE ST", "addr:postcode": "52037", "addr:state": "IA", "amenity": "post_box", "brand": "United States Postal Service", "brand:wikidata": "Q668687", "collection_times": "Mo-Fr 11:15", "name": "USPS COLLECTION BOX - PO LOBBY", "nsi_id": "unitedstatespostalservice-a77078", "operator": "United States Postal Service", "operator:short": "USPS", "operator:type": "public", "operator:wikidata": "Q668687", "ref": "5203700001"}, "type": "Feature"}
{"dataset_attributes": {"@spider": "usps_collection_boxes", "spider:collection_time": "2023-10-28T08:22:24.083666"}, "geometry": {"coordinates": [-90.605690528, 41.999170472], "type": "Point"}, "id": "tgKSnkgd5IHFRkH-plBpYHLWTzI=", "properties": {"@spider": "usps_collection_boxes", "addr:city": "DELMAR", "addr:country": "US", "addr:full": "604 VANE ST", "addr:postcode": "52037", "addr:state": "IA", "amenity": "post_box", "brand": "United States Postal Service", "brand:wikidata": "Q668687", "collection_times": "Mo-Fr 11:30; Sa 09:45", "name": "USPS COLLECTION BOX - PO LOBBY", "nsi_id": "unitedstatespostalservice-a77078", "operator": "United States Postal Service", "operator:short": "USPS", "operator:type": "public", "operator:wikidata": "Q668687", "ref": "5203700002"}, "type": "Feature"}
{"dataset_attributes": {"@spider": "usps_collection_boxes", "spider:collection_time": "2023-10-28T08:22:24.083666"}, "geometry": {"coordinates": [-91.546752678, 42.578684581], "type": "Point"}, "id": "ddaNA8P9atTZDC9hYYtcybYySOs=", "properties": {"@spider": "usps_collection_boxes", "addr:city": "DUNDEE", "addr:country": "US", "addr:full": "106 N CENTER ST", "addr:postcode": "52038", "addr:state": "IA", "amenity": "post_box", "brand": "United States Postal Service", "brand:wikidata": "Q668687", "collection_times": "Mo-Fr 15:45; Sa 16:00", "name": "USPS COLLECTION BOX - BLUE BOX", "note": "ON 12/24 AND 12/31, THIS BOX MAY BE COLLECTED AS EARLY AS 12 NOON.", "nsi_id": "unitedstatespostalservice-a77078", "operator": "United States Postal Service", "operator:short": "USPS", "operator:type": "public", "operator:wikidata": "Q668687", "ref": "5203800000"}, "type": "Feature"}
{"dataset_attributes": {"@spider": "usps_collection_boxes", "spider:collection_time": "2023-10-28T08:22:24.083666"}, "geometry": {"coordinates": [-91.546752678, 42.578684581], "type": "Point"}, "id": "IGNgzu_L2qq21hunn_Ca33n-WFY=", "properties": {"@spider": "usps_collection_boxes", "addr:city": "DUNDEE", "addr:country": "US", "addr:full": "106 N CENTER ST", "addr:postcode": "52038", "addr:state": "IA", "amenity": "post_box", "brand": "United States Postal Service", "brand:wikidata": "Q668687", "collection_times": "Mo-Fr 11:45", "name": "USPS COLLECTION BOX - PO LOBBY", "nsi_id": "unitedstatespostalservice-a77078", "operator": "United States Postal Service", "operator:short": "USPS", "operator:type": "public", "operator:wikidata": "Q668687", "ref": "5203800001"}, "type": "Feature"}
{"dataset_attributes": {"@spider": "usps_collection_boxes", "spider:collection_time": "2023-10-28T08:22:24.083666"}, "geometry": {"coordinates": [-91.546752678, 42.578684581], "type": "Point"}, "id": "w2Jb6R1EwKcwSJuRDZCjRiWM9aQ=", "properties": {"@spider": "usps_collection_boxes", "addr:city": "DUNDEE", "addr:country": "US", "addr:full": "106 N CENTER ST", "addr:postcode": "52038", "addr:state": "IA", "amenity": "post_box", "brand": "United States Postal Service", "brand:wikidata": "Q668687", "collection_times": "Mo-Fr 12:00; Sa 09:30", "name": "USPS COLLECTION BOX - PO LOBBY", "nsi_id": "unitedstatespostalservice-a77078", "operator": "United States Postal Service", "operator:short": "USPS", "operator:type": "public", "operator:wikidata": "Q668687", "ref": "5203800002"}, "type": "Feature"}
{"dataset_attributes": {"@spider": "usps_collection_boxes", "spider:collection_time": "2023-10-28T08:22:24.083666"}, "geometry": {"coordinates": [-91.116575837, 42.470300994], "type": "Point"}, "id": "-dwAbG-Ej_MjCAknf94sb0ec1_Q=", "properties": {"@spider": "usps_collection_boxes", "addr:city": "DYERSVILLE", "addr:country": "US", "addr:full": "711 16TH AVE SE", "addr:postcode": "52040", "addr:state": "IA", "amenity": "post_box", "brand": "United States Postal Service", "brand:wikidata": "Q668687", "collection_times": "Mo-Sa 14:30", "name": "USPS COLLECTION BOX - BLUE BOX", "note": "ON 12/24 AND 12/31, THIS BOX MAY BE COLLECTED AS EARLY AS 12 NOON.", "nsi_id": "unitedstatespostalservice-a77078", "operator": "United States Postal Service", "operator:short": "USPS", "operator:type": "public", "operator:wikidata": "Q668687", "ref": "5204000000"}, "type": "Feature"}
{"dataset_attributes": {"@spider": "usps_collection_boxes", "spider:collection_time": "2023-10-28T08:22:24.083666"}, "geometry": {"coordinates": [-91.121133526, 42.482741481], "type": "Point"}, "id": "iNlhPZnOP3iVY2Vp4KFOuOPH7z8=", "properties": {"@spider": "usps_collection_boxes", "addr:city": "DYERSVILLE", "addr:country": "US", "addr:full": "315 3RD AVE SE", "addr:postcode": "52040", "addr:state": "IA", "amenity": "post_box", "brand": "United States Postal Service", "brand:wikidata": "Q668687", "collection_times": "Mo-Fr 16:45; Sa 14:45", "name": "USPS COLLECTION BOX - BLUE BOX", "note": "ON 12/24 AND 12/31, THIS BOX MAY BE COLLECTED AS EARLY AS 12 NOON.", "nsi_id": "unitedstatespostalservice-a77078", "operator": "United States Postal Service", "operator:short": "USPS", "operator:type": "public", "operator:wikidata": "Q668687", "ref": "5204000002"}, "type": "Feature"}
{"dataset_attributes": {"@spider": "usps_collection_boxes", "spider:collection_time": "2023-10-28T08:22:24.083666"}, "geometry": {"coordinates": [-91.121133526, 42.482741481], "type": "Point"}, "id": "_9BJvmqLhfw_1fawZKOLrfeiDN4=", "properties": {"@spider": "usps_collection_boxes", "addr:city": "DYERSVILLE", "addr:country": "US", "addr:full": "315 3RD AVE SE", "addr:postcode": "52040", "addr:state": "IA", "amenity": "post_box", "brand": "United States Postal Service", "brand:wikidata": "Q668687", "collection_times": "Mo-Fr 16:45; Sa 14:45", "name": "USPS COLLECTION BOX - PO LOBBY", "note": "ON 12/24 AND 12/31, THIS BOX MAY BE COLLECTED AS EARLY AS 12 NOON.", "nsi_id": "unitedstatespostalservice-a77078", "operator": "United States Postal Service", "operator:short": "USPS", "operator:type": "public", "operator:wikidata": "Q668687", "ref": "5204000004"}, "type": "Feature"}
{"dataset_attributes": {"@spider": "usps_collection_boxes", "spider:collection_time": "2023-10-28T08:22:24.083666"}, "geometry": {"coordinates": [-91.112832, 42.475240521], "type": "Point"}, "id": "2lDIUhE6neFAyTr3WbmZGMi7EU4=", "properties": {"@spider": "usps_collection_boxes", "addr:city": "DYERSVILLE", "addr:country": "US", "addr:full": "1211 12TH AVE SE", "addr:postcode": "52040", "addr:state": "IA", "amenity": "post_box", "brand": "United States Postal Service", "brand:wikidata": "Q668687", "collection_times": "Mo-Sa 14:30", "name": "USPS COLLECTION BOX - BLUE BOX", "note": "ON 12/24 AND 12/31, THIS BOX MAY BE COLLECTED AS EARLY AS 12 NOON.", "nsi_id": "unitedstatespostalservice-a77078", "operator": "United States Postal Service", "operator:short": "USPS", "operator:type": "public", "operator:wikidata": "Q668687", "ref": "5204000005"}, "type": "Feature"}
{"dataset_attributes": {"@spider": "usps_collection_boxes", "spider:collection_time": "2023-10-28T08:22:24.083666"}, "geometry": {"coordinates": [-91.121133526, 42.482741481], "type": "Point"}, "id": "7snFBLnnlwsLjXBgZDMpWHGpUHo=", "properties": {"@spider": "usps_collection_boxes", "addr:city": "DYERSVILLE", "addr:country": "US", "addr:full": "315 3RD AVE SE", "addr:postcode": "52040", "addr:state": "IA", "amenity": "post_box", "brand": "United States Postal Service", "brand:wikidata": "Q668687", "collection_times": "Mo-Fr 16:30; Sa 09:30", "name": "USPS COLLECTION BOX - PO LOBBY", "note": "ON 12/24 AND 12/31, THIS BOX MAY BE COLLECTED AS EARLY AS 12 NOON.", "nsi_id": "unitedstatespostalservice-a77078", "operator": "United States Postal Service", "operator:short": "USPS", "operator:type": "public", "operator:wikidata": "Q668687", "ref": "5204000007"}, "type": "Feature"}
{"dataset_attributes": {"@spider": "usps_collection_boxes", "spider:collection_time": "2023-10-28T08:22:24.083666"}, "geometry": {"coordinates": [-91.272461951, 42.481600585], "type": "Point"}, "id": "h-dI5ETxBqFXxFICdq7xO1D32zk=", "properties": {"@spider": "usps_collection_boxes", "addr:city": "EARLVILLE", "addr:country": "US", "addr:full": "19 NORTHERN AVE", "addr:postcode": "52041", "addr:state": "IA", "amenity": "post_box", "brand": "United States Postal Service", "brand:wikidata": "Q668687", "collection_times": "Mo-Sa 13:30", "name": "USPS COLLECTION BOX - BLUE BOX", "note": "ON 12/24 AND 12/31, THIS BOX MAY BE COLLECTED AS EARLY AS 12 NOON.", "nsi_id": "unitedstatespostalservice-a77078", "operator": "United States Postal Service", "operator:short": "USPS", "operator:type": "public", "operator:wikidata": "Q668687", "ref": "5204100002"}, "type": "Feature"}
{"dataset_attributes": {"@spider": "usps_collection_boxes", "spider:collection_time": "2023-10-28T08:22:24.083666"}, "geometry": {"coordinates": [-91.399521383, 42.6445055188], "type": "Point"}, "id": "HG_HYPSTTfhpUApWzW1UP3rgPeU=", "properties": {"@spider": "usps_collection_boxes", "addr:city": "EDGEWOOD", "addr:country": "US", "addr:full": "200 E UNION ST", "addr:postcode": "52042", "addr:state": "IA", "amenity": "post_box", "brand": "United States Postal Service", "brand:wikidata": "Q668687", "collection_times": "Mo-Fr 15:45; Sa 16:00", "name": "USPS COLLECTION BOX - BLUE BOX", "note": "ON 12/24 AND 12/31, THIS BOX MAY BE COLLECTED AS EARLY AS 12 NOON.", "nsi_id": "unitedstatespostalservice-a77078", "operator": "United States Postal Service", "operator:short": "USPS", "operator:type": "public", "operator:wikidata": "Q668687", "ref": "5204200000"}, "type": "Feature"}
{"dataset_attributes": {"@spider": "usps_collection_boxes", "spider:collection_time": "2023-10-28T08:22:24.083666"}, "geometry": {"coordinates": [-91.399521383, 42.644505519], "type": "Point"}, "id": "3H3jWTYbhQidAGDkN-N0-1oQLDQ=", "properties": {"@spider": "usps_collection_boxes", "addr:city": "EDGEWOOD", "addr:country": "US", "addr:full": "200 E UNION ST", "addr:postcode": "52042", "addr:state": "IA", "amenity": "post_box", "brand": "United States Postal Service", "brand:wikidata": "Q668687", "collection_times": "Mo-Fr 15:45; Sa 10:30", "name": "USPS COLLECTION BOX - PO LOBBY", "note": "ON 12/24 AND 12/31, THIS BOX MAY BE COLLECTED AS EARLY AS 12 NOON.", "nsi_id": "unitedstatespostalservice-a77078", "operator": "United States Postal Service", "operator:short": "USPS", "operator:type": "public", "operator:wikidata": "Q668687", "ref": "5204200001"}, "type": "Feature"}
{"dataset_attributes": {"@spider": "usps_collection_boxes", "spider:collection_time": "2023-10-28T08:22:24.083666"}, "geometry": {"coordinates": [-91.399521383, 42.644505519], "type": "Point"}, "id": "m9FGwdMYVDa1mqSWlkiyfkxzFI0=", "properties": {"@spider": "usps_collection_boxes", "addr:city": "EDGEWOOD", "addr:country": "US", "addr:full": "200 E UNION ST", "addr:postcode": "52042", "addr:state": "IA", "amenity": "post_box", "brand": "United States Postal Service", "brand:wikidata": "Q668687", "collection_times": "Mo-Fr 16:00; Sa 10:30", "name": "USPS COLLECTION BOX - PO LOBBY", "note": "ON 12/24 AND 12/31, THIS BOX MAY BE COLLECTED AS EARLY AS 12 NOON.", "nsi_id": "unitedstatespostalservice-a77078", "operator": "United States Postal Service", "operator:short": "USPS", "operator:type": "public", "operator:wikidata": "Q668687", "ref": "5204200002"}, "type": "Feature"}
{"dataset_attributes": {"@spider": "usps_collection_boxes", "spider:collection_time": "2023-10-28T08:22:24.083666"}, "geometry": {"coordinates": [-91.404429187, 42.853364256], "type": "Point"}, "id": "xUrmAIEV8waE7shyOWhKHECD2TM=", "properties": {"@spider": "usps_collection_boxes", "addr:city": "ELKADER", "addr:country": "US", "addr:full": "105 MULBERRY ST", "addr:postcode": "52043", "addr:state": "IA", "amenity": "post_box", "brand": "United States Postal Service", "brand:wikidata": "Q668687", "collection_times": "Mo-Sa 16:00", "name": "USPS COLLECTION BOX - BLUE BOX", "note": "ON 12/24 AND 12/31, THIS BOX MAY BE COLLECTED AS EARLY AS 12 NOON.", "nsi_id": "unitedstatespostalservice-a77078", "operator": "United States Postal Service", "operator:short": "USPS", "operator:type": "public", "operator:wikidata": "Q668687", "ref": "5204300000"}, "type": "Feature"}
{"dataset_attributes": {"@spider": "usps_collection_boxes", "spider:collection_time": "2023-10-28T08:22:24.083666"}, "geometry": {"coordinates": [-91.404429187, 42.853364256], "type": "Point"}, "id": "YiQQ9ghKoiUxk7-TUYK3RoSntvQ=", "properties": {"@spider": "usps_collection_boxes", "addr:city": "ELKADER", "addr:country": "US", "addr:full": "105 MULBERRY ST", "addr:postcode": "52043", "addr:state": "IA", "amenity": "post_box", "brand": "United States Postal Service", "brand:wikidata": "Q668687", "collection_times": "Mo-Fr 16:00; Sa 11:30", "name": "USPS COLLECTION BOX - PO LOBBY", "note": "ON 12/24 AND 12/31, THIS BOX MAY BE COLLECTED AS EARLY AS 12 NOON.", "nsi_id": "unitedstatespostalservice-a77078", "operator": "United States Postal Service", "operator:short": "USPS", "operator:type": "public", "operator:wikidata": "Q668687", "ref": "5204300002"}, "type": "Feature"}
{"dataset_attributes": {"@spider": "usps_collection_boxes", "spider:collection_time": "2023-10-28T08:22:24.083666"}, "geometry": {"coordinates": [-91.404429187, 42.853364256], "type": "Point"}, "id": "UY_j6MCe9YaXr7pQTdY_YvgR8xU=", "properties": {"@spider": "usps_collection_boxes", "addr:city": "ELKADER", "addr:country": "US", "addr:full": "105 MULBERRY ST", "addr:postcode": "52043", "addr:state": "IA", "amenity": "post_box", "brand": "United States Postal Service", "brand:wikidata": "Q668687", "collection_times": "Mo-Fr 16:00; Sa 11:30", "name": "USPS COLLECTION BOX - PO LOBBY", "note": "ON 12/24 AND 12/31, THIS BOX MAY BE COLLECTED AS EARLY AS 12 NOON.", "nsi_id": "unitedstatespostalservice-a77078", "operator": "United States Postal Service", "operator:short": "USPS", "operator:type": "public", "operator:wikidata": "Q668687", "ref": "5204300003"}, "type": "Feature"}
{"dataset_attributes": {"@spider": "usps_collection_boxes", "spider:collection_time": "2023-10-28T08:22:24.083666"}, "geometry": {"coordinates": [-91.404429187, 42.853364256], "type": "Point"}, "id": "85cuWzSSStlmt0xUOpXwNgT2BMs=", "properties": {"@spider": "usps_collection_boxes", "addr:city": "ELKADER", "addr:country": "US", "addr:full": "105 MULBERRY ST", "addr:postcode": "52043", "addr:state": "IA", "amenity": "post_box", "brand": "United States Postal Service", "brand:wikidata": "Q668687", "collection_times": "Mo-Fr 16:00; Sa 11:00", "name": "USPS COLLECTION BOX - PO LOBBY", "note": "ON 12/24 AND 12/31, THIS BOX MAY BE COLLECTED AS EARLY AS 12 NOON.", "nsi_id": "unitedstatespostalservice-a77078", "operator": "United States Postal Service", "operator:short": "USPS", "operator:type": "public", "operator:wikidata": "Q668687", "ref": "5204300004"}, "type": "Feature"}
{"dataset_attributes": {"@spider": "usps_collection_boxes", "spider:collection_time": "2023-10-28T08:22:24.083666"}, "geometry": {"coordinates": [-90.931919278, 42.445807051], "type": "Point"}, "id": "_f84cR5XimiYXKloWHg-TQkABso=", "properties": {"@spider": "usps_collection_boxes", "addr:city": "EPWORTH", "addr:country": "US", "addr:full": "103 N CENTER AVE", "addr:postcode": "52045", "addr:state": "IA", "amenity": "post_box", "brand": "United States Postal Service", "brand:wikidata": "Q668687", "collection_times": "Mo-Fr 15:30; Sa 16:00", "name": "USPS COLLECTION BOX - BLUE BOX", "note": "ON 12/24 AND 12/31, THIS BOX MAY BE COLLECTED AS EARLY AS 12 NOON.", "nsi_id": "unitedstatespostalservice-a77078", "operator": "United States Postal Service", "operator:short": "USPS", "operator:type": "public", "operator:wikidata": "Q668687", "ref": "5204500000"}, "type": "Feature"}
{"dataset_attributes": {"@spider": "usps_collection_boxes", "spider:collection_time": "2023-10-28T08:22:24.083666"}, "geometry": {"coordinates": [-90.931919278, 42.445807051], "type": "Point"}, "id": "eXOBAUgQqMrCwNEUPd55sI9A01Y=", "properties": {"@spider": "usps_collection_boxes", "addr:city": "EPWORTH", "addr:country": "US", "addr:full": "103 N CENTER ST", "addr:postcode": "52045", "addr:state": "IA", "amenity": "post_box", "brand": "United States Postal Service", "brand:wikidata": "Q668687", "collection_times": "Mo-Fr 15:30", "name": "USPS COLLECTION BOX - PO LOBBY", "note": "ON 12/24 AND 12/31, THIS BOX MAY BE COLLECTED AS EARLY AS 12 NOON.", "nsi_id": "unitedstatespostalservice-a77078", "operator": "United States Postal Service", "operator:short": "USPS", "operator:type": "public", "operator:wikidata": "Q668687", "ref": "5204500001"}, "type": "Feature"}
{"dataset_attributes": {"@spider": "usps_collection_boxes", "spider:collection_time": "2023-10-28T08:22:24.083666"}, "geometry": {"coordinates": [-90.931919278, 42.445807051], "type": "Point"}, "id": "UnxQ81Rslp4St9bcJeEElYHU0nM=", "properties": {"@spider": "usps_collection_boxes", "addr:city": "EPWORTH", "addr:country": "US", "addr:full": "103 N CENTER AVE", "addr:postcode": "52045", "addr:state": "IA", "amenity": "post_box", "brand": "United States Postal Service", "brand:wikidata": "Q668687", "collection_times": "Mo-Fr 15:45; Sa 10:00", "name": "USPS COLLECTION BOX - PO LOBBY", "note": "ON 12/24 AND 12/31, THIS BOX MAY BE COLLECTED AS EARLY AS 12 NOON.", "nsi_id": "unitedstatespostalservice-a77078", "operator": "United States Postal Service", "operator:short": "USPS", "operator:type": "public", "operator:wikidata": "Q668687", "ref": "5204500002"}, "type": "Feature"}
{"dataset_attributes": {"@spider": "usps_collection_boxes", "spider:collection_time": "2023-10-28T08:22:24.083666"}, "geometry": {"coordinates": [-91.0064409724, 42.4432830151], "type": "Point"}, "id": "4ExKiBNGv8MdlpNa8R1-4juSPsk=", "properties": {"@spider": "usps_collection_boxes", "addr:city": "FARLEY", "addr:country": "US", "addr:full": "108 1ST ST N", "addr:postcode": "52046", "addr:state": "IA", "amenity": "post_box", "brand": "United States Postal Service", "brand:wikidata": "Q668687", "collection_times": "Mo-Fr 15:45; Sa 16:00", "name": "USPS COLLECTION BOX - BLUE BOX", "note": "ON 12/24 AND 12/31, THIS BOX MAY BE COLLECTED AS EARLY AS 12 NOON.", "nsi_id": "unitedstatespostalservice-a77078", "operator": "United States Postal Service", "operator:short": "USPS", "operator:type": "public", "operator:wikidata": "Q668687", "ref": "5204600000"}, "type": "Feature"}
{"dataset_attributes": {"@spider": "usps_collection_boxes", "spider:collection_time": "2023-10-28T08:22:24.083666"}, "geometry": {"coordinates": [-91.0064409724, 42.4432830151], "type": "Point"}, "id": "GHUlN2AXn7MGxiCI5mfgDmg7DdM=", "properties": {"@spider": "usps_collection_boxes", "addr:city": "FARLEY", "addr:country": "US", "addr:full": "108 1ST ST N", "addr:postcode": "52046", "addr:state": "IA", "amenity": "post_box", "brand": "United States Postal Service", "brand:wikidata": "Q668687", "collection_times": "Mo-Fr 15:00", "name": "USPS COLLECTION BOX - PO LOBBY", "note": "ON 12/24 AND 12/31, THIS BOX MAY BE COLLECTED AS EARLY AS 12 NOON.", "nsi_id": "unitedstatespostalservice-a77078", "operator": "United States Postal Service", "operator:short": "USPS", "operator:type": "public", "operator:wikidata": "Q668687", "ref": "5204600001"}, "type": "Feature"}
{"dataset_attributes": {"@spider": "usps_collection_boxes", "spider:collection_time": "2023-10-28T08:22:24.083666"}, "geometry": {"coordinates": [-91.0064409724, 42.4432830151], "type": "Point"}, "id": "3us23_3G4HD9jQREMbRn3SiFZi8=", "properties": {"@spider": "usps_collection_boxes", "addr:city": "FARLEY", "addr:country": "US", "addr:full": "108 1ST ST N", "addr:postcode": "52046", "addr:state": "IA", "amenity": "post_box", "brand": "United States Postal Service", "brand:wikidata": "Q668687", "collection_times": "Mo-Fr 15:15; Sa 10:00", "name": "USPS COLLECTION BOX - PO LOBBY", "note": "ON 12/24 AND 12/31, THIS BOX MAY BE COLLECTED AS EARLY AS 12 NOON.", "nsi_id": "unitedstatespostalservice-a77078", "operator": "United States Postal Service", "operator:short": "USPS", "operator:type": "public", "operator:wikidata": "Q668687", "ref": "5204600002"}, "type": "Feature"}
{"dataset_attributes": {"@spider": "usps_collection_boxes", "spider:collection_time": "2023-10-28T08:22:24.083666"}, "geometry": {"coordinates": [-91.368023959, 42.958575], "type": "Point"}, "id": "Uhz8E2hHKjK1MvGTkF9rPE64f7U=", "properties": {"@spider": "usps_collection_boxes", "addr:city": "FARMERSBURG", "addr:country": "US", "addr:full": "207 S MAIN ST", "addr:postcode": "52047", "addr:state": "IA", "amenity": "post_box", "brand": "United States Postal Service", "brand:wikidata": "Q668687", "collection_times": "Mo-Fr 11:00; Sa 10:00", "name": "USPS COLLECTION BOX - BLUE BOX", "nsi_id": "unitedstatespostalservice-a77078", "operator": "United States Postal Service", "operator:short": "USPS", "operator:type": "public", "operator:wikidata": "Q668687", "ref": "5204700000"}, "type": "Feature"}
{"dataset_attributes": {"@spider": "usps_collection_boxes", "spider:collection_time": "2023-10-28T08:22:24.083666"}, "geometry": {"coordinates": [-91.368023959, 42.958575], "type": "Point"}, "id": "2o9-v6oqK2Eki34x4IGb_tta1QQ=", "properties": {"@spider": "usps_collection_boxes", "addr:city": "FARMERSBURG", "addr:country": "US", "addr:full": "207 S MAIN ST", "addr:postcode": "52047", "addr:state": "IA", "amenity": "post_box", "brand": "United States Postal Service", "brand:wikidata": "Q668687", "collection_times": "Mo-Fr 11:00", "name": "USPS COLLECTION BOX - PO LOBBY", "nsi_id": "unitedstatespostalservice-a77078", "operator": "United States Postal Service", "operator:short": "USPS", "operator:type": "public", "operator:wikidata": "Q668687", "ref": "5204700001"}, "type": "Feature"}
{"dataset_attributes": {"@spider": "usps_collection_boxes", "spider:collection_time": "2023-10-28T08:22:24.083666"}, "geometry": {"coordinates": [-91.368023959, 42.958575], "type": "Point"}, "id": "DeXD5O2ewl_bR5FKLRL3MvYbTZk=", "properties": {"@spider": "usps_collection_boxes", "addr:city": "FARMERSBURG", "addr:country": "US", "addr:full": "207 S MAIN ST", "addr:postcode": "52047", "addr:state": "IA", "amenity": "post_box", "brand": "United States Postal Service", "brand:wikidata": "Q668687", "collection_times": "Mo-Sa 11:00", "name": "USPS COLLECTION BOX - PO LOBBY", "nsi_id": "unitedstatespostalservice-a77078", "operator": "United States Postal Service", "operator:short": "USPS", "operator:type": "public", "operator:wikidata": "Q668687", "ref": "5204700002"}, "type": "Feature"}
{"dataset_attributes": {"@spider": "usps_collection_boxes", "spider:collection_time": "2023-10-28T08:22:24.083666"}, "geometry": {"coordinates": [-91.235400688, 42.867497704], "type": "Point"}, "id": "YMkrUT2y_u9s_y7IVaJCTIMjeIc=", "properties": {"@spider": "usps_collection_boxes", "addr:city": "GARNAVILLO", "addr:country": "US", "addr:full": "102 S MAIN ST", "addr:postcode": "52049", "addr:state": "IA", "amenity": "post_box", "brand": "United States Postal Service", "brand:wikidata": "Q668687", "collection_times": "Mo-Fr 16:00; Sa 16:30", "name": "USPS COLLECTION BOX - BLUE BOX", "note": "ON 12/24 AND 12/31, THIS BOX MAY BE COLLECTED AS EARLY AS 12 NOON.", "nsi_id": "unitedstatespostalservice-a77078", "operator": "United States Postal Service", "operator:short": "USPS", "operator:type": "public", "operator:wikidata": "Q668687", "ref": "5204900000"}, "type": "Feature"}
{"dataset_attributes": {"@spider": "usps_collection_boxes", "spider:collection_time": "2023-10-28T08:22:24.083666"}, "geometry": {"coordinates": [-91.235400688, 42.867497704], "type": "Point"}, "id": "5K6aOaMGCgJANx7OXb1wMeRHaP8=", "properties": {"@spider": "usps_collection_boxes", "addr:city": "GARNAVILLO", "addr:country": "US", "addr:full": "102 S MAIN ST", "addr:postcode": "52049", "addr:state": "IA", "amenity": "post_box", "brand": "United States Postal Service", "brand:wikidata": "Q668687", "collection_times": "Mo-Fr 14:45", "name": "USPS COLLECTION BOX - PO LOBBY", "note": "ON 12/24 AND 12/31, THIS BOX MAY BE COLLECTED AS EARLY AS 12 NOON.", "nsi_id": "unitedstatespostalservice-a77078", "operator": "United States Postal Service", "operator:short": "USPS", "operator:type": "public", "operator:wikidata": "Q668687", "ref": "5204900001"}, "type": "Feature"}
{"dataset_attributes": {"@spider": "usps_collection_boxes", "spider:collection_time": "2023-10-28T08:22:24.083666"}, "geometry": {"coordinates": [-91.235400688, 42.867497704], "type": "Point"}, "id": "KOZDGBbPATZ_W2uvXKqMZngTYPk=", "properties": {"@spider": "usps_collection_boxes", "addr:city": "GARNAVILLO", "addr:country": "US", "addr:full": "102 S MAIN ST", "addr:postcode": "52049", "addr:state": "IA", "amenity": "post_box", "brand": "United States Postal Service", "brand:wikidata": "Q668687", "collection_times": "Mo-Fr 15:00; Sa 10:30", "name": "USPS COLLECTION BOX - PO LOBBY", "note": "ON 12/24 AND 12/31, THIS BOX MAY BE COLLECTED AS EARLY AS 12 NOON.", "nsi_id": "unitedstatespostalservice-a77078", "operator": "United States Postal Service", "operator:short": "USPS", "operator:type": "public", "operator:wikidata": "Q668687", "ref": "5204900002"}, "type": "Feature"}
{"dataset_attributes": {"@spider": "usps_collection_boxes", "spider:collection_time": "2023-10-28T08:22:24.083666"}, "geometry": {"coordinates": [-91.340334, 42.584727478], "type": "Point"}, "id": "ZtHzK3Usm6IJWFeGGWepuGYccuQ=", "properties": {"@spider": "usps_collection_boxes", "addr:city": "GREELEY", "addr:country": "US", "addr:full": "108 E 3RD ST", "addr:postcode": "52050", "addr:state": "IA", "amenity": "post_box", "brand": "United States Postal Service", "brand:wikidata": "Q668687", "collection_times": "Mo-Fr 15:45; Sa 16:00", "name": "USPS COLLECTION BOX - BLUE BOX", "note": "ON 12/24 AND 12/31, THIS BOX MAY BE COLLECTED AS EARLY AS 12 NOON.", "nsi_id": "unitedstatespostalservice-a77078", "operator": "United States Postal Service", "operator:short": "USPS", "operator:type": "public", "operator:wikidata": "Q668687", "ref": "5205000000"}, "type": "Feature"}
{"dataset_attributes": {"@spider": "usps_collection_boxes", "spider:collection_time": "2023-10-28T08:22:24.083666"}, "geometry": {"coordinates": [-91.340334, 42.584727478], "type": "Point"}, "id": "cCwFOp0_-MJ0w0iRZNpaDd_kusE=", "properties": {"@spider": "usps_collection_boxes", "addr:city": "GREELEY", "addr:country": "US", "addr:full": "108 E 3RD ST", "addr:postcode": "52050", "addr:state": "IA", "amenity": "post_box", "brand": "United States Postal Service", "brand:wikidata": "Q668687", "collection_times": "Mo-Fr 11:45", "name": "USPS COLLECTION BOX - PO LOBBY", "nsi_id": "unitedstatespostalservice-a77078", "operator": "United States Postal Service", "operator:short": "USPS", "operator:type": "public", "operator:wikidata": "Q668687", "ref": "5205000001"}, "type": "Feature"}
{"dataset_attributes": {"@spider": "usps_collection_boxes", "spider:collection_time": "2023-10-28T08:22:24.083666"}, "geometry": {"coordinates": [-91.340334, 42.584727478], "type": "Point"}, "id": "CoGo_phzlAH6PRh1yGT_2BCzvFo=", "properties": {"@spider": "usps_collection_boxes", "addr:city": "GREELEY", "addr:country": "US", "addr:full": "108 E 3RD ST", "addr:postcode": "52050", "addr:state": "IA", "amenity": "post_box", "brand": "United States Postal Service", "brand:wikidata": "Q668687", "collection_times": "Mo-Fr 12:00; Sa 09:15", "name": "USPS COLLECTION BOX - PO LOBBY", "nsi_id": "unitedstatespostalservice-a77078", "operator": "United States Postal Service", "operator:short": "USPS", "operator:type": "public", "operator:wikidata": "Q668687", "ref": "5205000002"}, "type": "Feature"}
{"dataset_attributes": {"@spider": "usps_collection_boxes", "spider:collection_time": "2023-10-28T08:22:24.083666"}, "geometry": {"coordinates": [-91.096235572, 42.780994994], "type": "Point"}, "id": "T6PttViLuY_NK9KP-vgJrUF7Xpw=", "properties": {"@spider": "usps_collection_boxes", "addr:city": "GUTTENBERG", "addr:country": "US", "addr:full": "519 S 1ST ST", "addr:postcode": "52052", "addr:state": "IA", "amenity": "post_box", "brand": "United States Postal Service", "brand:wikidata": "Q668687", "collection_times": "Mo-Fr 16:30; Sa 16:45", "name": "USPS COLLECTION BOX - BLUE BOX", "note": "ON 12/24 AND 12/31, THIS BOX MAY BE COLLECTED AS EARLY AS 12 NOON.", "nsi_id": "unitedstatespostalservice-a77078", "operator": "United States Postal Service", "operator:short": "USPS", "operator:type": "public", "operator:wikidata": "Q668687", "ref": "5205200000"}, "type": "Feature"}
{"dataset_attributes": {"@spider": "usps_collection_boxes", "spider:collection_time": "2023-10-28T08:22:24.083666"}, "geometry": {"coordinates": [-91.096235572, 42.780994994], "type": "Point"}, "id": "ciEGcIdWaf-7mhm4DfbArnM6Ryc=", "properties": {"@spider": "usps_collection_boxes", "addr:city": "GUTTENBERG", "addr:country": "US", "addr:full": "519 S 1ST ST", "addr:postcode": "52052", "addr:state": "IA", "amenity": "post_box", "brand": "United States Postal Service", "brand:wikidata": "Q668687", "collection_times": "Mo-Fr 16:30; Sa 16:45", "name": "USPS COLLECTION BOX - BLUE BOX", "note": "ON 12/24 AND 12/31, THIS BOX MAY BE COLLECTED AS EARLY AS 12 NOON.", "nsi_id": "unitedstatespostalservice-a77078", "operator": "United States Postal Service", "operator:short": "USPS", "operator:type": "public", "operator:wikidata": "Q668687", "ref": "5205200001"}, "type": "Feature"}
{"dataset_attributes": {"@spider": "usps_collection_boxes", "spider:collection_time": "2023-10-28T08:22:24.083666"}, "geometry": {"coordinates": [-91.096235572, 42.780994994], "type": "Point"}, "id": "QQZwb3CtYzz3dN9pqAWG1yG_G_g=", "properties": {"@spider": "usps_collection_boxes", "addr:city": "GUTTENBERG", "addr:country": "US", "addr:full": "519 S 1ST ST", "addr:postcode": "52052", "addr:state": "IA", "amenity": "post_box", "brand": "United States Postal Service", "brand:wikidata": "Q668687", "collection_times": "Mo-Fr 16:30; Sa 11:30", "name": "USPS COLLECTION BOX - PO LOBBY", "note": "ON 12/24 AND 12/31, THIS BOX MAY BE COLLECTED AS EARLY AS 12 NOON.", "nsi_id": "unitedstatespostalservice-a77078", "operator": "United States Postal Service", "operator:short": "USPS", "operator:type": "public", "operator:wikidata": "Q668687", "ref": "5205200003"}, "type": "Feature"}
{"dataset_attributes": {"@spider": "usps_collection_boxes", "spider:collection_time": "2023-10-28T08:22:24.083666"}, "geometry": {"coordinates": [-91.096235572, 42.780994994], "type": "Point"}, "id": "c3v-AIM9ckbgsWpcHGgJqtGcDaA=", "properties": {"@spider": "usps_collection_boxes", "addr:city": "GUTTENBERG", "addr:country": "US", "addr:full": "519 S 1ST ST", "addr:postcode": "52052", "addr:state": "IA", "amenity": "post_box", "brand": "United States Postal Service", "brand:wikidata": "Q668687", "collection_times": "Mo-Fr 16:30; Sa 11:30", "name": "USPS COLLECTION BOX - PO LOBBY", "note": "ON 12/24 AND 12/31, THIS BOX MAY BE COLLECTED AS EARLY AS 12 NOON.", "nsi_id": "unitedstatespostalservice-a77078", "operator": "United States Postal Service", "operator:short": "USPS", "operator:type": "public", "operator:wikidata": "Q668687", "ref": "5205200004"}, "type": "Feature"}
{"dataset_attributes": {"@spider": "usps_collection_boxes", "spider:collection_time": "2023-10-28T08:22:24.083666"}, "geometry": {"coordinates": [-90.995451899, 42.6004314], "type": "Point"}, "id": "ffFftaWnzLhkD1vNYqSPqB4-ym0=", "properties": {"@spider": "usps_collection_boxes", "addr:city": "HOLY CROSS", "addr:country": "US", "addr:full": "5952 MAPLE RD", "addr:postcode": "52053", "addr:state": "IA", "amenity": "post_box", "brand": "United States Postal Service", "brand:wikidata": "Q668687", "collection_times": "Mo-Fr 15:45; Sa 17:00", "name": "USPS COLLECTION BOX - BLUE BOX", "note": "ON 12/24 AND 12/31, THIS BOX MAY BE COLLECTED AS EARLY AS 12 NOON.", "nsi_id": "unitedstatespostalservice-a77078", "operator": "United States Postal Service", "operator:short": "USPS", "operator:type": "public", "operator:wikidata": "Q668687", "ref": "5205300000"}, "type": "Feature"}
{"dataset_attributes": {"@spider": "usps_collection_boxes", "spider:collection_time": "2023-10-28T08:22:24.083666"}, "geometry": {"coordinates": [-90.995451899, 42.6004314], "type": "Point"}, "id": "Gy4_UnIdoD1_MoubAy-VuKcDg_U=", "properties": {"@spider": "usps_collection_boxes", "addr:city": "HOLY CROSS", "addr:country": "US", "addr:full": "5952 MAPLE RD", "addr:postcode": "52053", "addr:state": "IA", "amenity": "post_box", "brand": "United States Postal Service", "brand:wikidata": "Q668687", "collection_times": "Mo-Fr 11:00", "name": "USPS COLLECTION BOX - PO LOBBY", "nsi_id": "unitedstatespostalservice-a77078", "operator": "United States Postal Service", "operator:short": "USPS", "operator:type": "public", "operator:wikidata": "Q668687", "ref": "5205300001"}, "type": "Feature"}
{"dataset_attributes": {"@spider": "usps_collection_boxes", "spider:collection_time": "2023-10-28T08:22:24.083666"}, "geometry": {"coordinates": [-90.995451899, 42.6004314], "type": "Point"}, "id": "lp2Bfd6mWXfpyDCjjDp_w7Wib_c=", "properties": {"@spider": "usps_collection_boxes", "addr:city": "HOLY CROSS", "addr:country": "US", "addr:full": "5952 MAPLE RD", "addr:postcode": "52053", "addr:state": "IA", "amenity": "post_box", "brand": "United States Postal Service", "brand:wikidata": "Q668687", "collection_times": "Mo-Fr 11:15; Sa 09:15", "name": "USPS COLLECTION BOX - PO LOBBY", "nsi_id": "unitedstatespostalservice-a77078", "operator": "United States Postal Service", "operator:short": "USPS", "operator:type": "public", "operator:wikidata": "Q668687", "ref": "5205300002"}, "type": "Feature"}
{"dataset_attributes": {"@spider": "usps_collection_boxes", "spider:collection_time": "2023-10-28T08:22:24.083666"}, "geometry": {"coordinates": [-90.620947493, 42.294469309], "type": "Point"}, "id": "ZeWmYsAZUQC1Q4CZ-aPxuZRLq0I=", "properties": {"@spider": "usps_collection_boxes", "addr:city": "LAMOTTE", "addr:country": "US", "addr:full": "800 PLEASANT ST", "addr:postcode": "52054", "addr:state": "IA", "amenity": "post_box", "brand": "United States Postal Service", "brand:wikidata": "Q668687", "collection_times": "Mo-Fr 16:00; Sa 17:15", "name": "USPS COLLECTION BOX - BLUE BOX", "note": "ON 12/24 AND 12/31, THIS BOX MAY BE COLLECTED AS EARLY AS 12 NOON.", "nsi_id": "unitedstatespostalservice-a77078", "operator": "United States Postal Service", "operator:short": "USPS", "operator:type": "public", "operator:wikidata": "Q668687", "ref": "5205400000"}, "type": "Feature"}
{"dataset_attributes": {"@spider": "usps_collection_boxes", "spider:collection_time": "2023-10-28T08:22:24.083666"}, "geometry": {"coordinates": [-90.620947493, 42.294469309], "type": "Point"}, "id": "HAvr-9jqY7b9vD4lgkqZyZBb4OQ=", "properties": {"@spider": "usps_collection_boxes", "addr:city": "LAMOTTE", "addr:country": "US", "addr:full": "800 PLEASANT ST", "addr:postcode": "52054", "addr:state": "IA", "amenity": "post_box", "brand": "United States Postal Service", "brand:wikidata": "Q668687", "collection_times": "Mo-Fr 11:15; Sa 09:00", "name": "USPS COLLECTION BOX - PO LOBBY", "nsi_id": "unitedstatespostalservice-a77078", "operator": "United States Postal Service", "operator:short": "USPS", "operator:type": "public", "operator:wikidata": "Q668687", "ref": "5205400001"}, "type": "Feature"}
{"dataset_attributes": {"@spider": "usps_collection_boxes", "spider:collection_time": "2023-10-28T08:22:24.083666"}, "geometry": {"coordinates": [-90.620947493, 42.294469309], "type": "Point"}, "id": "VH__2mhQk5eeLdmuOZjudHwOYdQ=", "properties": {"@spider": "usps_collection_boxes", "addr:city": "LAMOTTE", "addr:country": "US", "addr:full": "800 PLEASANT ST", "addr:postcode": "52054", "addr:state": "IA", "amenity": "post_box", "brand": "United States Postal Service", "brand:wikidata": "Q668687", "collection_times": "Mo-Fr 11:30; Sa 09:15", "name": "USPS COLLECTION BOX - PO LOBBY", "nsi_id": "unitedstatespostalservice-a77078", "operator": "United States Postal Service", "operator:short": "USPS", "operator:type": "public", "operator:wikidata": "Q668687", "ref": "5205400002"}, "type": "Feature"}
{"dataset_attributes": {"@spider": "usps_collection_boxes", "spider:collection_time": "2023-10-28T08:22:24.083666"}, "geometry": {"coordinates": [-91.073681916, 42.602521528], "type": "Point"}, "id": "vb5m_oZohfQGuIVicK-XFkYho3Q=", "properties": {"@spider": "usps_collection_boxes", "addr:city": "LUXEMBURG", "addr:country": "US", "addr:full": "100 E MAIN ST", "addr:postcode": "52056", "addr:state": "IA", "amenity": "post_box", "brand": "United States Postal Service", "brand:wikidata": "Q668687", "collection_times": "Mo-Fr 16:15; Sa 16:45", "name": "USPS COLLECTION BOX - BLUE BOX", "note": "ON 12/24 AND 12/31, THIS BOX MAY BE COLLECTED AS EARLY AS 12 NOON.", "nsi_id": "unitedstatespostalservice-a77078", "operator": "United States Postal Service", "operator:short": "USPS", "operator:type": "public", "operator:wikidata": "Q668687", "ref": "5205600000"}, "type": "Feature"}
{"dataset_attributes": {"@spider": "usps_collection_boxes", "spider:collection_time": "2023-10-28T08:22:24.083666"}, "geometry": {"coordinates": [-91.073681916, 42.602521528], "type": "Point"}, "id": "bMsQDJmdWNuiRwVWr6MSmm7jCU4=", "properties": {"@spider": "usps_collection_boxes", "addr:city": "LUXEMBURG", "addr:country": "US", "addr:full": "100 E MAIN ST", "addr:postcode": "52056", "addr:state": "IA", "amenity": "post_box", "brand": "United States Postal Service", "brand:wikidata": "Q668687", "collection_times": "Mo-Fr 16:15", "name": "USPS COLLECTION BOX - PO LOBBY", "note": "ON 12/24 AND 12/31, THIS BOX MAY BE COLLECTED AS EARLY AS 12 NOON.", "nsi_id": "unitedstatespostalservice-a77078", "operator": "United States Postal Service", "operator:short": "USPS", "operator:type": "public", "operator:wikidata": "Q668687", "ref": "5205600001"}, "type": "Feature"}
{"dataset_attributes": {"@spider": "usps_collection_boxes", "spider:collection_time": "2023-10-28T08:22:24.083666"}, "geometry": {"coordinates": [-91.073681916, 42.602521528], "type": "Point"}, "id": "nst_xeCJ1pc4GoexqZU-rCqVdHI=", "properties": {"@spider": "usps_collection_boxes", "addr:city": "LUXEMBURG", "addr:country": "US", "addr:full": "100 E MAIN ST", "addr:postcode": "52056", "addr:state": "IA", "amenity": "post_box", "brand": "United States Postal Service", "brand:wikidata": "Q668687", "collection_times": "Mo-Fr 16:30; Sa 09:15", "name": "USPS COLLECTION BOX - PO LOBBY", "note": "ON 12/24 AND 12/31, THIS BOX MAY BE COLLECTED AS EARLY AS 12 NOON.", "nsi_id": "unitedstatespostalservice-a77078", "operator": "United States Postal Service", "operator:short": "USPS", "operator:type": "public", "operator:wikidata": "Q668687", "ref": "5205600002"}, "type": "Feature"}
{"dataset_attributes": {"@spider": "usps_collection_boxes", "spider:collection_time": "2023-10-28T08:22:24.083666"}, "geometry": {"coordinates": [-91.456697147, 42.48386351], "type": "Point"}, "id": "1o4CdPVYGz2cuJSs5SAi7V--_uo=", "properties": {"@spider": "usps_collection_boxes", "addr:city": "MANCHESTER", "addr:country": "US", "addr:full": "109 S MADISON ST", "addr:postcode": "52057", "addr:state": "IA", "amenity": "post_box", "brand": "United States Postal Service", "brand:wikidata": "Q668687", "collection_times": "Mo-Fr 16:15; Sa 15:15", "name": "USPS COLLECTION BOX - BLUE BOX", "note": "ON 12/24 AND 12/31, THIS BOX MAY BE COLLECTED AS EARLY AS 12 NOON.", "nsi_id": "unitedstatespostalservice-a77078", "operator": "United States Postal Service", "operator:short": "USPS", "operator:type": "public", "operator:wikidata": "Q668687", "ref": "5205700004"}, "type": "Feature"}
{"dataset_attributes": {"@spider": "usps_collection_boxes", "spider:collection_time": "2023-10-28T08:22:24.083666"}, "geometry": {"coordinates": [-91.4781735, 42.483828519], "type": "Point"}, "id": "lELoAPhOBA8DDFj_3m7OZ08fKk0=", "properties": {"@spider": "usps_collection_boxes", "addr:city": "MANCHESTER", "addr:country": "US", "addr:full": "1220 W MAIN ST", "addr:postcode": "52057", "addr:state": "IA", "amenity": "post_box", "brand": "United States Postal Service", "brand:wikidata": "Q668687", "collection_times": "Mo-Sa 10:00", "name": "USPS COLLECTION BOX - BLUE BOX", "nsi_id": "unitedstatespostalservice-a77078", "operator": "United States Postal Service", "operator:short": "USPS", "operator:type": "public", "operator:wikidata": "Q668687", "ref": "5205700007"}, "type": "Feature"}
{"dataset_attributes": {"@spider": "usps_collection_boxes", "spider:collection_time": "2023-10-28T08:22:24.083666"}, "geometry": {"coordinates": [-91.456697147, 42.48386351], "type": "Point"}, "id": "j6emqH3z5W_SrCa84bPvKR_1Tdw=", "properties": {"@spider": "usps_collection_boxes", "addr:city": "MANCHESTER", "addr:country": "US", "addr:full": "109 S MADISON ST", "addr:postcode": "52057", "addr:state": "IA", "amenity": "post_box", "brand": "United States Postal Service", "brand:wikidata": "Q668687", "collection_times": "Mo-Fr 16:15; Sa 15:15", "name": "USPS COLLECTION BOX - PO LOBBY", "note": "ON 12/24 AND 12/31, THIS BOX MAY BE COLLECTED AS EARLY AS 12 NOON.", "nsi_id": "unitedstatespostalservice-a77078", "operator": "United States Postal Service", "operator:short": "USPS", "operator:type": "public", "operator:wikidata": "Q668687", "ref": "5205700009"}, "type": "Feature"}
{"dataset_attributes": {"@spider": "usps_collection_boxes", "spider:collection_time": "2023-10-28T08:22:24.083666"}, "geometry": {"coordinates": [-91.456697147, 42.48386351], "type": "Point"}, "id": "q17Jsu9s8c8gh30U7QWm30g6dQE=", "properties": {"@spider": "usps_collection_boxes", "addr:city": "MANCHESTER", "addr:country": "US", "addr:full": "109 S MADISON ST", "addr:postcode": "52057", "addr:state": "IA", "amenity": "post_box", "brand": "United States Postal Service", "brand:wikidata": "Q668687", "collection_times": "Mo-Fr 16:30; Sa 12:00", "name": "USPS COLLECTION BOX - PO LOBBY", "note": "ON 12/24 AND 12/31, THIS BOX MAY BE COLLECTED AS EARLY AS 12 NOON.", "nsi_id": "unitedstatespostalservice-a77078", "operator": "United States Postal Service", "operator:short": "USPS", "operator:type": "public", "operator:wikidata": "Q668687", "ref": "5205700012"}, "type": "Feature"}
{"dataset_attributes": {"@spider": "usps_collection_boxes", "spider:collection_time": "2023-10-28T08:22:24.083666"}, "geometry": {"coordinates": [-90.665646952, 42.07017903], "type": "Point"}, "id": "o6azaR4owan4NRG9wTwuQZwXDZo=", "properties": {"@spider": "usps_collection_boxes", "addr:city": "MAQUOKETA", "addr:country": "US", "addr:full": "105 W JAMES ST", "addr:postcode": "52060", "addr:state": "IA", "amenity": "post_box", "brand": "United States Postal Service", "brand:wikidata": "Q668687", "collection_times": "Mo-Fr 16:30; Sa 15:00", "name": "USPS COLLECTION BOX - BLUE BOX", "note": "ON 12/24 AND 12/31, THIS BOX MAY BE COLLECTED AS EARLY AS 12 NOON.", "nsi_id": "unitedstatespostalservice-a77078", "operator": "United States Postal Service", "operator:short": "USPS", "operator:type": "public", "operator:wikidata": "Q668687", "ref": "5206000003"}, "type": "Feature"}
{"dataset_attributes": {"@spider": "usps_collection_boxes", "spider:collection_time": "2023-10-28T08:22:24.083666"}, "geometry": {"coordinates": [-90.679059388, 42.068935481], "type": "Point"}, "id": "rTYTN2EYKCo4WuB0iEOY8BmK_V4=", "properties": {"@spider": "usps_collection_boxes", "addr:city": "MAQUOKETA", "addr:country": "US", "addr:full": "1019 W PLATT ST", "addr:postcode": "52060", "addr:state": "IA", "amenity": "post_box", "brand": "United States Postal Service", "brand:wikidata": "Q668687", "collection_times": "Mo-Sa 11:00", "name": "USPS COLLECTION BOX - BLUE BOX", "nsi_id": "unitedstatespostalservice-a77078", "operator": "United States Postal Service", "operator:short": "USPS", "operator:type": "public", "operator:wikidata": "Q668687", "ref": "5206000009"}, "type": "Feature"}
{"dataset_attributes": {"@spider": "usps_collection_boxes", "spider:collection_time": "2023-10-28T08:22:24.083666"}, "geometry": {"coordinates": [-90.66555706, 42.070617], "type": "Point"}, "id": "haIad6R1ov-twVrZe-PKAwhOBZc=", "properties": {"@spider": "usps_collection_boxes", "addr:city": "MAQUOKETA", "addr:country": "US", "addr:full": "208 N MAIN ST", "addr:postcode": "52060", "addr:state": "IA", "amenity": "post_box", "brand": "United States Postal Service", "brand:wikidata": "Q668687", "collection_times": "Mo-Fr 16:30; Sa 15:00", "name": "USPS COLLECTION BOX - PO LOBBY", "note": "ON 12/24 AND 12/31, THIS BOX MAY BE COLLECTED AS EARLY AS 12 NOON.", "nsi_id": "unitedstatespostalservice-a77078", "operator": "United States Postal Service", "operator:short": "USPS", "operator:type": "public", "operator:wikidata": "Q668687", "ref": "5206000015"}, "type": "Feature"}
{"dataset_attributes": {"@spider": "usps_collection_boxes", "spider:collection_time": "2023-10-28T08:22:24.083666"}, "geometry": {"coordinates": [-90.66555706, 42.070617], "type": "Point"}, "id": "-lrfXE8uo5S_Chohtm2X25XzPfE=", "properties": {"@spider": "usps_collection_boxes", "addr:city": "MAQUOKETA", "addr:country": "US", "addr:full": "208 N MAIN ST", "addr:postcode": "52060", "addr:state": "IA", "amenity": "post_box", "brand": "United States Postal Service", "brand:wikidata": "Q668687", "collection_times": "Mo-Fr 16:45; Sa 12:00", "name": "USPS COLLECTION BOX - PO LOBBY", "note": "ON 12/24 AND 12/31, THIS BOX MAY BE COLLECTED AS EARLY AS 12 NOON.", "nsi_id": "unitedstatespostalservice-a77078", "operator": "United States Postal Service", "operator:short": "USPS", "operator:type": "public", "operator:wikidata": "Q668687", "ref": "5206000016"}, "type": "Feature"}
{"dataset_attributes": {"@spider": "usps_collection_boxes", "spider:collection_time": "2023-10-28T08:22:24.083666"}, "geometry": {"coordinates": [-90.315707031, 42.04532591], "type": "Point"}, "id": "Cj7cB6uy78pUdO_ni5JCxmi_NaQ=", "properties": {"@spider": "usps_collection_boxes", "addr:city": "MILES", "addr:country": "US", "addr:full": "323 FERRY RD", "addr:postcode": "52064", "addr:state": "IA", "amenity": "post_box", "brand": "United States Postal Service", "brand:wikidata": "Q668687", "collection_times": "Mo-Fr 15:45; Sa 16:00", "name": "USPS COLLECTION BOX - BLUE BOX", "note": "ON 12/24 AND 12/31, THIS BOX MAY BE COLLECTED AS EARLY AS 12 NOON.", "nsi_id": "unitedstatespostalservice-a77078", "operator": "United States Postal Service", "operator:short": "USPS", "operator:type": "public", "operator:wikidata": "Q668687", "ref": "5206400000"}, "type": "Feature"}
{"dataset_attributes": {"@spider": "usps_collection_boxes", "spider:collection_time": "2023-10-28T08:22:24.083666"}, "geometry": {"coordinates": [-90.315707031, 42.04532591], "type": "Point"}, "id": "hbPI41c0m9gqK1GMiUZCqLylq4I=", "properties": {"@spider": "usps_collection_boxes", "addr:city": "MILES", "addr:country": "US", "addr:full": "323 FERRY RD", "addr:postcode": "52064", "addr:state": "IA", "amenity": "post_box", "brand": "United States Postal Service", "brand:wikidata": "Q668687", "collection_times": "Mo-Fr 11:45", "name": "USPS COLLECTION BOX - PO LOBBY", "nsi_id": "unitedstatespostalservice-a77078", "operator": "United States Postal Service", "operator:short": "USPS", "operator:type": "public", "operator:wikidata": "Q668687", "ref": "5206400001"}, "type": "Feature"}
{"dataset_attributes": {"@spider": "usps_collection_boxes", "spider:collection_time": "2023-10-28T08:22:24.083666"}, "geometry": {"coordinates": [-90.315707031, 42.04532591], "type": "Point"}, "id": "N9RbuJv0ijUmjB302CnEWc2kpVE=", "properties": {"@spider": "usps_collection_boxes", "addr:city": "MILES", "addr:country": "US", "addr:full": "323 FERRY RD", "addr:postcode": "52064", "addr:state": "IA", "amenity": "post_box", "brand": "United States Postal Service", "brand:wikidata": "Q668687", "collection_times": "Mo-Fr 12:00; Sa 09:30", "name": "USPS COLLECTION BOX - PO LOBBY", "nsi_id": "unitedstatespostalservice-a77078", "operator": "United States Postal Service", "operator:short": "USPS", "operator:type": "public", "operator:wikidata": "Q668687", "ref": "5206400002"}, "type": "Feature"}
{"dataset_attributes": {"@spider": "usps_collection_boxes", "spider:collection_time": "2023-10-28T08:22:24.083666"}, "geometry": {"coordinates": [-91.117632054, 42.5481434716], "type": "Point"}, "id": "vsr2jVLN3-0rgs7cj-LkbZBJVpw=", "properties": {"@spider": "usps_collection_boxes", "addr:city": "NEW VIENNA", "addr:country": "US", "addr:full": "2177 MAIN ST", "addr:postcode": "52065", "addr:state": "IA", "amenity": "post_box", "brand": "United States Postal Service", "brand:wikidata": "Q668687", "collection_times": "Mo-Sa 15:30", "name": "USPS COLLECTION BOX - BLUE BOX", "note": "ON 12/24 AND 12/31, THIS BOX MAY BE COLLECTED AS EARLY AS 12 NOON.", "nsi_id": "unitedstatespostalservice-a77078", "operator": "United States Postal Service", "operator:short": "USPS", "operator:type": "public", "operator:wikidata": "Q668687", "ref": "5206500000"}, "type": "Feature"}
{"dataset_attributes": {"@spider": "usps_collection_boxes", "spider:collection_time": "2023-10-28T08:22:24.083666"}, "geometry": {"coordinates": [-91.117632054, 42.548143472], "type": "Point"}, "id": "mUBlE14wKhgjPFlkvaNE6fTPhLM=", "properties": {"@spider": "usps_collection_boxes", "addr:city": "NEW VIENNA", "addr:country": "US", "addr:full": "2177 MAIN ST", "addr:postcode": "52065", "addr:state": "IA", "amenity": "post_box", "brand": "United States Postal Service", "brand:wikidata": "Q668687", "collection_times": "Mo-Fr 11:45", "name": "USPS COLLECTION BOX - PO LOBBY", "nsi_id": "unitedstatespostalservice-a77078", "operator": "United States Postal Service", "operator:short": "USPS", "operator:type": "public", "operator:wikidata": "Q668687", "ref": "5206500001"}, "type": "Feature"}
{"dataset_attributes": {"@spider": "usps_collection_boxes", "spider:collection_time": "2023-10-28T08:22:24.083666"}, "geometry": {"coordinates": [-91.117632054, 42.548143472], "type": "Point"}, "id": "RK4yPLHPDvqbYrRlDPRsDgeR9-0=", "properties": {"@spider": "usps_collection_boxes", "addr:city": "NEW VIENNA", "addr:country": "US", "addr:full": "2177 MAIN ST", "addr:postcode": "52065", "addr:state": "IA", "amenity": "post_box", "brand": "United States Postal Service", "brand:wikidata": "Q668687", "collection_times": "Mo-Fr 12:00; Sa 10:15", "name": "USPS COLLECTION BOX - PO LOBBY", "nsi_id": "unitedstatespostalservice-a77078", "operator": "United States Postal Service", "operator:short": "USPS", "operator:type": "public", "operator:wikidata": "Q668687", "ref": "5206500002"}, "type": "Feature"}
{"dataset_attributes": {"@spider": "usps_collection_boxes", "spider:collection_time": "2023-10-28T08:22:24.083666"}, "geometry": {"coordinates": [-90.851350249, 42.445716499], "type": "Point"}, "id": "DwcMU8xnbTbauxHexQ_1H7KRKy4=", "properties": {"@spider": "usps_collection_boxes", "addr:city": "PEOSTA", "addr:country": "US", "addr:full": "8554 KAPP DR", "addr:postcode": "52068", "addr:state": "IA", "amenity": "post_box", "brand": "United States Postal Service", "brand:wikidata": "Q668687", "collection_times": "Mo-Fr 16:00; Sa 17:00", "name": "USPS COLLECTION BOX - BLUE BOX", "note": "ON 12/24 AND 12/31, THIS BOX MAY BE COLLECTED AS EARLY AS 12 NOON.", "nsi_id": "unitedstatespostalservice-a77078", "operator": "United States Postal Service", "operator:short": "USPS", "operator:type": "public", "operator:wikidata": "Q668687", "ref": "5206800000"}, "type": "Feature"}
{"dataset_attributes": {"@spider": "usps_collection_boxes", "spider:collection_time": "2023-10-28T08:22:24.083666"}, "geometry": {"coordinates": [-90.851350249, 42.445716499], "type": "Point"}, "id": "w5zk7-qObFqnzNW1dX4x8RJZ6HM=", "properties": {"@spider": "usps_collection_boxes", "addr:city": "PEOSTA", "addr:country": "US", "addr:full": "8554 KAPP DR", "addr:postcode": "52068", "addr:state": "IA", "amenity": "post_box", "brand": "United States Postal Service", "brand:wikidata": "Q668687", "collection_times": "Mo-Fr 16:00; Sa 10:00", "name": "USPS COLLECTION BOX - PO LOBBY", "note": "ON 12/24 AND 12/31, THIS BOX MAY BE COLLECTED AS EARLY AS 12 NOON.", "nsi_id": "unitedstatespostalservice-a77078", "operator": "United States Postal Service", "operator:short": "USPS", "operator:type": "public", "operator:wikidata": "Q668687", "ref": "5206800001"}, "type": "Feature"}
{"dataset_attributes": {"@spider": "usps_collection_boxes", "spider:collection_time": "2023-10-28T08:22:24.083666"}, "geometry": {"coordinates": [-90.851350249, 42.445716499], "type": "Point"}, "id": "F5lUv4DS4YP8wV8uAJm6pOuyxIE=", "properties": {"@spider": "usps_collection_boxes", "addr:city": "PEOSTA", "addr:country": "US", "addr:full": "8554 KAPP DR", "addr:postcode": "52068", "addr:state": "IA", "amenity": "post_box", "brand": "United States Postal Service", "brand:wikidata": "Q668687", "collection_times": "Mo-Fr 16:00; Sa 09:30", "name": "USPS COLLECTION BOX - PO LOBBY", "note": "ON 12/24 AND 12/31, THIS BOX MAY BE COLLECTED AS EARLY AS 12 NOON.", "nsi_id": "unitedstatespostalservice-a77078", "operator": "United States Postal Service", "operator:short": "USPS", "operator:type": "public", "operator:wikidata": "Q668687", "ref": "5206800004"}, "type": "Feature"}
{"dataset_attributes": {"@spider": "usps_collection_boxes", "spider:collection_time": "2023-10-28T08:22:24.083666"}, "geometry": {"coordinates": [-90.395968856, 42.050253121], "type": "Point"}, "id": "oJcorsWNa7VesJrY-C0LxIRng24=", "properties": {"@spider": "usps_collection_boxes", "addr:city": "PRESTON", "addr:country": "US", "addr:full": "172 W GILLET ST", "addr:postcode": "52069", "addr:state": "IA", "amenity": "post_box", "brand": "United States Postal Service", "brand:wikidata": "Q668687", "collection_times": "Mo-Fr 16:00; Sa 16:15", "name": "USPS COLLECTION BOX - BLUE BOX", "note": "ON 12/24 AND 12/31, THIS BOX MAY BE COLLECTED AS EARLY AS 12 NOON.", "nsi_id": "unitedstatespostalservice-a77078", "operator": "United States Postal Service", "operator:short": "USPS", "operator:type": "public", "operator:wikidata": "Q668687", "ref": "5206900000"}, "type": "Feature"}
{"dataset_attributes": {"@spider": "usps_collection_boxes", "spider:collection_time": "2023-10-28T08:22:24.083666"}, "geometry": {"coordinates": [-90.395968856, 42.050253121], "type": "Point"}, "id": "VQwp6hlqPP8hjHZ4TOIYs508pGE=", "properties": {"@spider": "usps_collection_boxes", "addr:city": "PRESTON", "addr:country": "US", "addr:full": "172 W GILLET ST", "addr:postcode": "52069", "addr:state": "IA", "amenity": "post_box", "brand": "United States Postal Service", "brand:wikidata": "Q668687", "collection_times": "Mo-Fr 16:00", "name": "USPS COLLECTION BOX - PO LOBBY", "note": "ON 12/24 AND 12/31, THIS BOX MAY BE COLLECTED AS EARLY AS 12 NOON.", "nsi_id": "unitedstatespostalservice-a77078", "operator": "United States Postal Service", "operator:short": "USPS", "operator:type": "public", "operator:wikidata": "Q668687", "ref": "5206900001"}, "type": "Feature"}
{"dataset_attributes": {"@spider": "usps_collection_boxes", "spider:collection_time": "2023-10-28T08:22:24.083666"}, "geometry": {"coordinates": [-90.395968856, 42.050253121], "type": "Point"}, "id": "2qxGNhBqAXFshqMFGWNP0z45WDg=", "properties": {"@spider": "usps_collection_boxes", "addr:city": "PRESTON", "addr:country": "US", "addr:full": "172 W GILLET ST", "addr:postcode": "52069", "addr:state": "IA", "amenity": "post_box", "brand": "United States Postal Service", "brand:wikidata": "Q668687", "collection_times": "Mo-Fr 16:00; Sa 10:30", "name": "USPS COLLECTION BOX - PO LOBBY", "note": "ON 12/24 AND 12/31, THIS BOX MAY BE COLLECTED AS EARLY AS 12 NOON.", "nsi_id": "unitedstatespostalservice-a77078", "operator": "United States Postal Service", "operator:short": "USPS", "operator:type": "public", "operator:wikidata": "Q668687", "ref": "5206900002"}, "type": "Feature"}
{"dataset_attributes": {"@spider": "usps_collection_boxes", "spider:collection_time": "2023-10-28T08:22:24.083666"}, "geometry": {"coordinates": [-90.173922026, 42.071642099], "type": "Point"}, "id": "ZXbIZ7bjJtXRxC96Cp3XKfeoYzE=", "properties": {"@spider": "usps_collection_boxes", "addr:city": "SABULA", "addr:country": "US", "addr:full": "411 BROAD ST", "addr:postcode": "52070", "addr:state": "IA", "amenity": "post_box", "brand": "United States Postal Service", "brand:wikidata": "Q668687", "collection_times": "Mo-Sa 15:45", "name": "USPS COLLECTION BOX - BLUE BOX", "note": "ON 12/24 AND 12/31, THIS BOX MAY BE COLLECTED AS EARLY AS 12 NOON.", "nsi_id": "unitedstatespostalservice-a77078", "operator": "United States Postal Service", "operator:short": "USPS", "operator:type": "public", "operator:wikidata": "Q668687", "ref": "5207000000"}, "type": "Feature"}
{"dataset_attributes": {"@spider": "usps_collection_boxes", "spider:collection_time": "2023-10-28T08:22:24.083666"}, "geometry": {"coordinates": [-90.173922026, 42.071642099], "type": "Point"}, "id": "xwHZNsVBI7R4NLQPK32ln8EDyns=", "properties": {"@spider": "usps_collection_boxes", "addr:city": "SABULA", "addr:country": "US", "addr:full": "411 BROAD ST", "addr:postcode": "52070", "addr:state": "IA", "amenity": "post_box", "brand": "United States Postal Service", "brand:wikidata": "Q668687", "collection_times": "Mo-Fr 15:30", "name": "USPS COLLECTION BOX - PO LOBBY", "note": "ON 12/24 AND 12/31, THIS BOX MAY BE COLLECTED AS EARLY AS 12 NOON.", "nsi_id": "unitedstatespostalservice-a77078", "operator": "United States Postal Service", "operator:short": "USPS", "operator:type": "public", "operator:wikidata": "Q668687", "ref": "5207000001"}, "type": "Feature"}
{"dataset_attributes": {"@spider": "usps_collection_boxes", "spider:collection_time": "2023-10-28T08:22:24.083666"}, "geometry": {"coordinates": [-90.173922026, 42.071642099], "type": "Point"}, "id": "7oufHM838acP2Dhm-_VSGFqdRHY=", "properties": {"@spider": "usps_collection_boxes", "addr:city": "SABULA", "addr:country": "US", "addr:full": "411 BROAD ST", "addr:postcode": "52070", "addr:state": "IA", "amenity": "post_box", "brand": "United States Postal Service", "brand:wikidata": "Q668687", "collection_times": "Mo-Fr 15:30", "name": "USPS COLLECTION BOX - PO LOBBY", "note": "ON 12/24 AND 12/31, THIS BOX MAY BE COLLECTED AS EARLY AS 12 NOON.", "nsi_id": "unitedstatespostalservice-a77078", "operator": "United States Postal Service", "operator:short": "USPS", "operator:type": "public", "operator:wikidata": "Q668687", "ref": "5207000002"}, "type": "Feature"}
{"dataset_attributes": {"@spider": "usps_collection_boxes", "spider:collection_time": "2023-10-28T08:22:24.083666"}, "geometry": {"coordinates": [-90.536736978, 42.360696801], "type": "Point"}, "id": "HZgIlobd6hyew7RXL_76g0WVlrM=", "properties": {"@spider": "usps_collection_boxes", "addr:city": "ST DONATUS", "addr:country": "US", "addr:full": "114 E 2ND ST", "addr:postcode": "52071", "addr:state": "IA", "amenity": "post_box", "brand": "United States Postal Service", "brand:wikidata": "Q668687", "collection_times": "Mo-Sa 10:00", "name": "USPS COLLECTION BOX - BLUE BOX", "nsi_id": "unitedstatespostalservice-a77078", "operator": "United States Postal Service", "operator:short": "USPS", "operator:type": "public", "operator:wikidata": "Q668687", "ref": "5207100000"}, "type": "Feature"}
{"dataset_attributes": {"@spider": "usps_collection_boxes", "spider:collection_time": "2023-10-28T08:22:24.083666"}, "geometry": {"coordinates": [-91.386551098, 42.927688864], "type": "Point"}, "id": "jgr3FgUkHhZezNcuH3dpwCev8sc=", "properties": {"@spider": "usps_collection_boxes", "addr:city": "SAINT OLAF", "addr:country": "US", "addr:full": "111 S MAIN ST", "addr:postcode": "52072", "addr:state": "IA", "amenity": "post_box", "brand": "United States Postal Service", "brand:wikidata": "Q668687", "collection_times": "Mo-Fr 10:15; Sa 09:00", "name": "USPS COLLECTION BOX - BLUE BOX", "nsi_id": "unitedstatespostalservice-a77078", "operator": "United States Postal Service", "operator:short": "USPS", "operator:type": "public", "operator:wikidata": "Q668687", "ref": "5207200000"}, "type": "Feature"}
{"dataset_attributes": {"@spider": "usps_collection_boxes", "spider:collection_time": "2023-10-28T08:22:24.083666"}, "geometry": {"coordinates": [-91.386551098, 42.927688864], "type": "Point"}, "id": "2PIpS_uBGxKh6SwFFHCgjsbdir4=", "properties": {"@spider": "usps_collection_boxes", "addr:city": "SAINT OLAF", "addr:country": "US", "addr:full": "111 S MAIN ST", "addr:postcode": "52072", "addr:state": "IA", "amenity": "post_box", "brand": "United States Postal Service", "brand:wikidata": "Q668687", "collection_times": "Mo-Fr 10:15", "name": "USPS COLLECTION BOX - PO LOBBY", "nsi_id": "unitedstatespostalservice-a77078", "operator": "United States Postal Service", "operator:short": "USPS", "operator:type": "public", "operator:wikidata": "Q668687", "ref": "5207200001"}, "type": "Feature"}
{"dataset_attributes": {"@spider": "usps_collection_boxes", "spider:collection_time": "2023-10-28T08:22:24.083666"}, "geometry": {"coordinates": [-91.386551098, 42.927688864], "type": "Point"}, "id": "Dm6B-ClNe1wJeegfOehGmW5rnY4=", "properties": {"@spider": "usps_collection_boxes", "addr:city": "SAINT OLAF", "addr:country": "US", "addr:full": "111 S MAIN ST", "addr:postcode": "52072", "addr:state": "IA", "amenity": "post_box", "brand": "United States Postal Service", "brand:wikidata": "Q668687", "collection_times": "Mo-Sa 10:15", "name": "USPS COLLECTION BOX - PO LOBBY", "nsi_id": "unitedstatespostalservice-a77078", "operator": "United States Postal Service", "operator:short": "USPS", "operator:type": "public", "operator:wikidata": "Q668687", "ref": "5207200002"}, "type": "Feature"}
{"dataset_attributes": {"@spider": "usps_collection_boxes", "spider:collection_time": "2023-10-28T08:22:24.083666"}, "geometry": {"coordinates": [-90.775939356, 42.598128434], "type": "Point"}, "id": "2PQY5e7IWBFpwzpP1UXLV1GXEik=", "properties": {"@spider": "usps_collection_boxes", "addr:city": "SHERRILL", "addr:country": "US", "addr:full": "14857 SHERRILL RD", "addr:postcode": "52073", "addr:state": "IA", "amenity": "post_box", "brand": "United States Postal Service", "brand:wikidata": "Q668687", "collection_times": "Mo-Sa 11:45", "name": "USPS COLLECTION BOX - PO LOBBY", "nsi_id": "unitedstatespostalservice-a77078", "operator": "United States Postal Service", "operator:short": "USPS", "operator:type": "public", "operator:wikidata": "Q668687", "ref": "5207300001"}, "type": "Feature"}
{"dataset_attributes": {"@spider": "usps_collection_boxes", "spider:collection_time": "2023-10-28T08:22:24.083666"}, "geometry": {"coordinates": [-90.775939356, 42.598128434], "type": "Point"}, "id": "pxn9ck1jD56RzJMCdPqop7BSdJI=", "properties": {"@spider": "usps_collection_boxes", "addr:city": "SHERRILL", "addr:country": "US", "addr:full": "14857 SHERRILL RD", "addr:postcode": "52073", "addr:state": "IA", "amenity": "post_box", "brand": "United States Postal Service", "brand:wikidata": "Q668687", "collection_times": "Mo-Sa 14:00", "name": "USPS COLLECTION BOX - BLUE BOX", "note": "ON 12/24 AND 12/31, THIS BOX MAY BE COLLECTED AS EARLY AS 12 NOON.", "nsi_id": "unitedstatespostalservice-a77078", "operator": "United States Postal Service", "operator:short": "USPS", "operator:type": "public", "operator:wikidata": "Q668687", "ref": "5207300002"}, "type": "Feature"}
{"dataset_attributes": {"@spider": "usps_collection_boxes", "spider:collection_time": "2023-10-28T08:22:24.083666"}, "geometry": {"coordinates": [-90.775939356, 42.598128434], "type": "Point"}, "id": "tp-AVCfFRMDflMkpGfoREb814Vo=", "properties": {"@spider": "usps_collection_boxes", "addr:city": "SHERRILL", "addr:country": "US", "addr:full": "14857 SHERRILL RD", "addr:postcode": "52073", "addr:state": "IA", "amenity": "post_box", "brand": "United States Postal Service", "brand:wikidata": "Q668687", "collection_times": "Mo-Sa 12:00", "name": "USPS COLLECTION BOX - PO LOBBY", "nsi_id": "unitedstatespostalservice-a77078", "operator": "United States Postal Service", "operator:short": "USPS", "operator:type": "public", "operator:wikidata": "Q668687", "ref": "5207300003"}, "type": "Feature"}
{"dataset_attributes": {"@spider": "usps_collection_boxes", "spider:collection_time": "2023-10-28T08:22:24.083666"}, "geometry": {"coordinates": [-90.476973, 42.163878904], "type": "Point"}, "id": "QPKWk8OPOTI_JBB7ah3i9D0FCU0=", "properties": {"@spider": "usps_collection_boxes", "addr:city": "SPRINGBROOK", "addr:country": "US", "addr:full": "101 E MAIN ST", "addr:postcode": "52075", "addr:state": "IA", "amenity": "post_box", "brand": "United States Postal Service", "brand:wikidata": "Q668687", "collection_times": "Mo-Sa 10:30", "name": "USPS COLLECTION BOX - BLUE BOX", "nsi_id": "unitedstatespostalservice-a77078", "operator": "United States Postal Service", "operator:short": "USPS", "operator:type": "public", "operator:wikidata": "Q668687", "ref": "5207500000"}, "type": "Feature"}
{"dataset_attributes": {"@spider": "usps_collection_boxes", "spider:collection_time": "2023-10-28T08:22:24.083666"}, "geometry": {"coordinates": [-90.476973, 42.163878904], "type": "Point"}, "id": "5iwEPaGtDtT3ussFgfRxSScLNr0=", "properties": {"@spider": "usps_collection_boxes", "addr:city": "SPRINGBROOK", "addr:country": "US", "addr:full": "101 E MAIN ST", "addr:postcode": "52075", "addr:state": "IA", "amenity": "post_box", "brand": "United States Postal Service", "brand:wikidata": "Q668687", "collection_times": "Mo-Sa 10:30", "name": "USPS COLLECTION BOX - PO LOBBY", "nsi_id": "unitedstatespostalservice-a77078", "operator": "United States Postal Service", "operator:short": "USPS", "operator:type": "public", "operator:wikidata": "Q668687", "ref": "5207500001"}, "type": "Feature"}
{"dataset_attributes": {"@spider": "usps_collection_boxes", "spider:collection_time": "2023-10-28T08:22:24.083666"}, "geometry": {"coordinates": [-90.476973, 42.163878904], "type": "Point"}, "id": "XBOKk4TiA5nnO6D7YRTQ3BssWwg=", "properties": {"@spider": "usps_collection_boxes", "addr:city": "SPRINGBROOK", "addr:country": "US", "addr:full": "101 E MAIN ST", "addr:postcode": "52075", "addr:state": "IA", "amenity": "post_box", "brand": "United States Postal Service", "brand:wikidata": "Q668687", "collection_times": "Mo-Sa 12:00", "name": "USPS COLLECTION BOX - PO LOBBY", "nsi_id": "unitedstatespostalservice-a77078", "operator": "United States Postal Service", "operator:short": "USPS", "operator:type": "public", "operator:wikidata": "Q668687", "ref": "5207500002"}, "type": "Feature"}
{"dataset_attributes": {"@spider": "usps_collection_boxes", "spider:collection_time": "2023-10-28T08:22:24.083666"}, "geometry": {"coordinates": [-91.535133267, 42.683530786], "type": "Point"}, "id": "uGPne4RZk56vdx8Ly18N33rLr9s=", "properties": {"@spider": "usps_collection_boxes", "addr:city": "STRAWBERRY POINT", "addr:country": "US", "addr:full": "132 W MISSION ST", "addr:postcode": "52076", "addr:state": "IA", "amenity": "post_box", "brand": "United States Postal Service", "brand:wikidata": "Q668687", "collection_times": "Mo-Sa 15:45", "name": "USPS COLLECTION BOX - BLUE BOX", "note": "ON 12/24 AND 12/31, THIS BOX MAY BE COLLECTED AS EARLY AS 12 NOON.", "nsi_id": "unitedstatespostalservice-a77078", "operator": "United States Postal Service", "operator:short": "USPS", "operator:type": "public", "operator:wikidata": "Q668687", "ref": "5207600000"}, "type": "Feature"}
{"dataset_attributes": {"@spider": "usps_collection_boxes", "spider:collection_time": "2023-10-28T08:22:24.083666"}, "geometry": {"coordinates": [-91.535133267, 42.683530786], "type": "Point"}, "id": "XN1q5PFDT9x1c2BgAkNACGnXsVM=", "properties": {"@spider": "usps_collection_boxes", "addr:city": "STRAWBERRY POINT", "addr:country": "US", "addr:full": "132 W MISSION ST", "addr:postcode": "52076", "addr:state": "IA", "amenity": "post_box", "brand": "United States Postal Service", "brand:wikidata": "Q668687", "collection_times": "Mo-Fr 15:45; Sa 10:00", "name": "USPS COLLECTION BOX - PO LOBBY", "note": "ON 12/24 AND 12/31, THIS BOX MAY BE COLLECTED AS EARLY AS 12 NOON.", "nsi_id": "unitedstatespostalservice-a77078", "operator": "United States Postal Service", "operator:short": "USPS", "operator:type": "public", "operator:wikidata": "Q668687", "ref": "5207600001"}, "type": "Feature"}
{"dataset_attributes": {"@spider": "usps_collection_boxes", "spider:collection_time": "2023-10-28T08:22:24.083666"}, "geometry": {"coordinates": [-91.535133267, 42.683530786], "type": "Point"}, "id": "z7AO88A7iB3PZhsDxiJoG8-EIqM=", "properties": {"@spider": "usps_collection_boxes", "addr:city": "STRAWBERRY POINT", "addr:country": "US", "addr:full": "132 W MISSION ST", "addr:postcode": "52076", "addr:state": "IA", "amenity": "post_box", "brand": "United States Postal Service", "brand:wikidata": "Q668687", "collection_times": "Mo-Fr 15:45; Sa 10:00", "name": "USPS COLLECTION BOX - PO LOBBY", "note": "ON 12/24 AND 12/31, THIS BOX MAY BE COLLECTED AS EARLY AS 12 NOON.", "nsi_id": "unitedstatespostalservice-a77078", "operator": "United States Postal Service", "operator:short": "USPS", "operator:type": "public", "operator:wikidata": "Q668687", "ref": "5207600002"}, "type": "Feature"}
{"dataset_attributes": {"@spider": "usps_collection_boxes", "spider:collection_time": "2023-10-28T08:22:24.083666"}, "geometry": {"coordinates": [-91.540994587, 42.802992], "type": "Point"}, "id": "PdiO5DJMZbJhG0sC74Od9g8kl2g=", "properties": {"@spider": "usps_collection_boxes", "addr:city": "VOLGA", "addr:country": "US", "addr:full": "501 WASHINGTON ST", "addr:postcode": "52077", "addr:state": "IA", "amenity": "post_box", "brand": "United States Postal Service", "brand:wikidata": "Q668687", "collection_times": "Mo-Fr 14:45", "name": "USPS COLLECTION BOX - PO LOBBY", "note": "ON 12/24 AND 12/31, THIS BOX MAY BE COLLECTED AS EARLY AS 12 NOON.", "nsi_id": "unitedstatespostalservice-a77078", "operator": "United States Postal Service", "operator:short": "USPS", "operator:type": "public", "operator:wikidata": "Q668687", "ref": "5207700002"}, "type": "Feature"}
{"dataset_attributes": {"@spider": "usps_collection_boxes", "spider:collection_time": "2023-10-28T08:22:24.083666"}, "geometry": {"coordinates": [-91.540994587, 42.802992], "type": "Point"}, "id": "LrvKfaKD9CfSUyvXW1wG2bbxyPw=", "properties": {"@spider": "usps_collection_boxes", "addr:city": "VOLGA", "addr:country": "US", "addr:full": "501 WASHINGTON ST", "addr:postcode": "52077", "addr:state": "IA", "amenity": "post_box", "brand": "United States Postal Service", "brand:wikidata": "Q668687", "collection_times": "Mo-Sa 14:45", "name": "USPS COLLECTION BOX - BLUE BOX", "note": "ON 12/24 AND 12/31, THIS BOX MAY BE COLLECTED AS EARLY AS 12 NOON.", "nsi_id": "unitedstatespostalservice-a77078", "operator": "United States Postal Service", "operator:short": "USPS", "operator:type": "public", "operator:wikidata": "Q668687", "ref": "5207700003"}, "type": "Feature"}
{"dataset_attributes": {"@spider": "usps_collection_boxes", "spider:collection_time": "2023-10-28T08:22:24.083666"}, "geometry": {"coordinates": [-91.540994587, 42.802992], "type": "Point"}, "id": "xoqKOqSadDR3RGBHH_S3r9GgDZs=", "properties": {"@spider": "usps_collection_boxes", "addr:city": "VOLGA", "addr:country": "US", "addr:full": "501 WASHINGTON ST", "addr:postcode": "52077", "addr:state": "IA", "amenity": "post_box", "brand": "United States Postal Service", "brand:wikidata": "Q668687", "collection_times": "Mo-Fr 14:30; Sa 12:30", "name": "USPS COLLECTION BOX - PO LOBBY", "note": "ON 12/24 AND 12/31, THIS BOX MAY BE COLLECTED AS EARLY AS 12 NOON.", "nsi_id": "unitedstatespostalservice-a77078", "operator": "United States Postal Service", "operator:short": "USPS", "operator:type": "public", "operator:wikidata": "Q668687", "ref": "5207700004"}, "type": "Feature"}
{"dataset_attributes": {"@spider": "usps_collection_boxes", "spider:collection_time": "2023-10-28T08:22:24.083666"}, "geometry": {"coordinates": [-91.118898206, 42.396630809], "type": "Point"}, "id": "m-k_P2pSuKuGa2fez0X5NvYJ7k4=", "properties": {"@spider": "usps_collection_boxes", "addr:city": "WORTHINGTON", "addr:country": "US", "addr:full": "203 1ST ST S", "addr:postcode": "52078", "addr:state": "IA", "amenity": "post_box", "brand": "United States Postal Service", "brand:wikidata": "Q668687", "collection_times": "Mo-Fr 16:15; Sa 16:30", "name": "USPS COLLECTION BOX - BLUE BOX", "note": "ON 12/24 AND 12/31, THIS BOX MAY BE COLLECTED AS EARLY AS 12 NOON.", "nsi_id": "unitedstatespostalservice-a77078", "operator": "United States Postal Service", "operator:short": "USPS", "operator:type": "public", "operator:wikidata": "Q668687", "ref": "5207800000"}, "type": "Feature"}
{"dataset_attributes": {"@spider": "usps_collection_boxes", "spider:collection_time": "2023-10-28T08:22:24.083666"}, "geometry": {"coordinates": [-91.118898206, 42.396630809], "type": "Point"}, "id": "U7OBAxudaVvSDuNyLJ8MQWXRZNU=", "properties": {"@spider": "usps_collection_boxes", "addr:city": "WORTHINGTON", "addr:country": "US", "addr:full": "203 1ST ST S", "addr:postcode": "52078", "addr:state": "IA", "amenity": "post_box", "brand": "United States Postal Service", "brand:wikidata": "Q668687", "collection_times": "Mo-Fr 11:45", "name": "USPS COLLECTION BOX - PO LOBBY", "nsi_id": "unitedstatespostalservice-a77078", "operator": "United States Postal Service", "operator:short": "USPS", "operator:type": "public", "operator:wikidata": "Q668687", "ref": "5207800001"}, "type": "Feature"}
{"dataset_attributes": {"@spider": "usps_collection_boxes", "spider:collection_time": "2023-10-28T08:22:24.083666"}, "geometry": {"coordinates": [-91.118898206, 42.396630809], "type": "Point"}, "id": "UlzK4cCg7WhMs5u4oilrDav7O1U=", "properties": {"@spider": "usps_collection_boxes", "addr:city": "WORTHINGTON", "addr:country": "US", "addr:full": "203 1ST ST S", "addr:postcode": "52078", "addr:state": "IA", "amenity": "post_box", "brand": "United States Postal Service", "brand:wikidata": "Q668687", "collection_times": "Mo-Fr 12:00; Sa 09:30", "name": "USPS COLLECTION BOX - PO LOBBY", "nsi_id": "unitedstatespostalservice-a77078", "operator": "United States Postal Service", "operator:short": "USPS", "operator:type": "public", "operator:wikidata": "Q668687", "ref": "5207800002"}, "type": "Feature"}
{"dataset_attributes": {"@spider": "usps_collection_boxes", "spider:collection_time": "2023-10-28T08:22:24.083666"}, "geometry": {"coordinates": [-90.687558674, 42.297200151], "type": "Point"}, "id": "dApBwck_J_Yam_9-QZh4_I6Ooo0=", "properties": {"@spider": "usps_collection_boxes", "addr:city": "ZWINGLE", "addr:country": "US", "addr:full": "168 N MAIN ST", "addr:postcode": "52079", "addr:state": "IA", "amenity": "post_box", "brand": "United States Postal Service", "brand:wikidata": "Q668687", "collection_times": "Mo-Fr 16:15; Sa 16:45", "name": "USPS COLLECTION BOX - BLUE BOX", "note": "ON 12/24 AND 12/31, THIS BOX MAY BE COLLECTED AS EARLY AS 12 NOON.", "nsi_id": "unitedstatespostalservice-a77078", "operator": "United States Postal Service", "operator:short": "USPS", "operator:type": "public", "operator:wikidata": "Q668687", "ref": "5207900000"}, "type": "Feature"}
{"dataset_attributes": {"@spider": "usps_collection_boxes", "spider:collection_time": "2023-10-28T08:22:24.083666"}, "geometry": {"coordinates": [-90.687558674, 42.297200151], "type": "Point"}, "id": "rE86mvy72l942Z8BXlsIITisxX8=", "properties": {"@spider": "usps_collection_boxes", "addr:city": "ZWINGLE", "addr:country": "US", "addr:full": "168 N MAIN ST", "addr:postcode": "52079", "addr:state": "IA", "amenity": "post_box", "brand": "United States Postal Service", "brand:wikidata": "Q668687", "collection_times": "Mo-Fr 10:45", "name": "USPS COLLECTION BOX - PO LOBBY", "nsi_id": "unitedstatespostalservice-a77078", "operator": "United States Postal Service", "operator:short": "USPS", "operator:type": "public", "operator:wikidata": "Q668687", "ref": "5207900001"}, "type": "Feature"}
{"dataset_attributes": {"@spider": "usps_collection_boxes", "spider:collection_time": "2023-10-28T08:22:24.083666"}, "geometry": {"coordinates": [-90.687558674, 42.297200151], "type": "Point"}, "id": "9ffnsrWDCpNYl4QIpirU5fLZ7d4=", "properties": {"@spider": "usps_collection_boxes", "addr:city": "ZWINGLE", "addr:country": "US", "addr:full": "168 N MAIN ST", "addr:postcode": "52079", "addr:state": "IA", "amenity": "post_box", "brand": "United States Postal Service", "brand:wikidata": "Q668687", "collection_times": "Mo-Fr 11:00; Sa 08:15", "name": "USPS COLLECTION BOX - PO LOBBY", "nsi_id": "unitedstatespostalservice-a77078", "operator": "United States Postal Service", "operator:short": "USPS", "operator:type": "public", "operator:wikidata": "Q668687", "ref": "5207900002"}, "type": "Feature"}
