{"dataset_attributes": {"@spider": "usps_collection_boxes", "spider:collection_time": "2023-10-22T08:22:45.367372"}, "geometry": {"coordinates": [-91.790118996, 43.304970992], "type": "Point"}, "id": "yIOHjYJQ4ZYTEnf1tYhu1Hjrl-4=", "properties": {"@spider": "usps_collection_boxes", "addr:city": "DECORAH", "addr:country": "US", "addr:full": "401 HEIVLY ST", "addr:postcode": "52101", "addr:state": "IA", "amenity": "post_box", "brand": "United States Postal Service", "brand:wikidata": "Q668687", "collection_times": "Mo-Sa 18:00", "name": "USPS COLLECTION BOX - BLUE BOX", "note": "ON 12/24 AND 12/31, THIS BOX MAY BE COLLECTED AS EARLY AS 12 NOON.", "nsi_id": "unitedstatespostalservice-a77078", "operator": "United States Postal Service", "operator:short": "USPS", "operator:type": "public", "operator:wikidata": "Q668687", "ref": "5210100000"}, "type": "Feature"}
{"dataset_attributes": {"@spider": "usps_collection_boxes", "spider:collection_time": "2023-10-22T08:22:45.367372"}, "geometry": {"coordinates": [-91.790020591, 43.305257108], "type": "Point"}, "id": "wH6EeDem5A063y-5WeWDJNPCfWk=", "properties": {"@spider": "usps_collection_boxes", "addr:city": "DECORAH", "addr:country": "US", "addr:full": "401 HEIVLY ST", "addr:postcode": "52101", "addr:state": "IA", "amenity": "post_box", "brand": "United States Postal Service", "brand:wikidata": "Q668687", "collection_times": "Mo-Sa 18:00", "name": "USPS COLLECTION BOX - PO LOBBY", "note": "ON 12/24 AND 12/31, THIS BOX MAY BE COLLECTED AS EARLY AS 12 NOON.", "nsi_id": "unitedstatespostalservice-a77078", "operator": "United States Postal Service", "operator:short": "USPS", "operator:type": "public", "operator:wikidata": "Q668687", "ref": "5210100001"}, "type": "Feature"}
{"dataset_attributes": {"@spider": "usps_collection_boxes", "spider:collection_time": "2023-10-22T08:22:45.367372"}, "geometry": {"coordinates": [-91.797296106, 43.291129036], "type": "Point"}, "id": "_qAynQ6msVaKVdQhghuBqysfWdI=", "properties": {"@spider": "usps_collection_boxes", "addr:city": "DECORAH", "addr:country": "US", "addr:full": "915 SHORT ST", "addr:postcode": "52101", "addr:state": "IA", "amenity": "post_box", "brand": "United States Postal Service", "brand:wikidata": "Q668687", "collection_times": "Mo-Sa 17:00", "name": "USPS COLLECTION BOX - BLUE BOX", "note": "ON 12/24 AND 12/31, THIS BOX MAY BE COLLECTED AS EARLY AS 12 NOON.", "nsi_id": "unitedstatespostalservice-a77078", "operator": "United States Postal Service", "operator:short": "USPS", "operator:type": "public", "operator:wikidata": "Q668687", "ref": "5210100006"}, "type": "Feature"}
{"dataset_attributes": {"@spider": "usps_collection_boxes", "spider:collection_time": "2023-10-22T08:22:45.367372"}, "geometry": {"coordinates": [-91.7878849673, 43.3027880095], "type": "Point"}, "id": "SShk7PZhY1lqaSZ_Gvwz0g3FAUQ=", "properties": {"@spider": "usps_collection_boxes", "addr:city": "DECORAH", "addr:country": "US", "addr:full": "201 W MAIN ST", "addr:postcode": "52101", "addr:state": "IA", "amenity": "post_box", "brand": "United States Postal Service", "brand:wikidata": "Q668687", "collection_times": "Mo-Fr 17:00", "name": "USPS COLLECTION BOX - BLUE BOX", "note": "ON 12/24 AND 12/31, THIS BOX MAY BE COLLECTED AS EARLY AS 12 NOON.", "nsi_id": "unitedstatespostalservice-a77078", "operator": "United States Postal Service", "operator:short": "USPS", "operator:type": "public", "operator:wikidata": "Q668687", "ref": "5210100007"}, "type": "Feature"}
{"dataset_attributes": {"@spider": "usps_collection_boxes", "spider:collection_time": "2023-10-22T08:22:45.367372"}, "geometry": {"coordinates": [-91.786830021, 43.3030260137], "type": "Point"}, "id": "dS4wVp-5dTtlNl9gn75lFmHvBYk=", "properties": {"@spider": "usps_collection_boxes", "addr:city": "DECORAH", "addr:country": "US", "addr:full": "202 WINNEBAGO ST", "addr:postcode": "52101", "addr:state": "IA", "amenity": "post_box", "brand": "United States Postal Service", "brand:wikidata": "Q668687", "collection_times": "Mo-Sa 17:15", "name": "USPS COLLECTION BOX - BLUE BOX", "note": "ON 12/24 AND 12/31, THIS BOX MAY BE COLLECTED AS EARLY AS 12 NOON.", "nsi_id": "unitedstatespostalservice-a77078", "operator": "United States Postal Service", "operator:short": "USPS", "operator:type": "public", "operator:wikidata": "Q668687", "ref": "5210100008"}, "type": "Feature"}
{"dataset_attributes": {"@spider": "usps_collection_boxes", "spider:collection_time": "2023-10-22T08:22:45.367372"}, "geometry": {"coordinates": [-91.78713, 43.30099], "type": "Point"}, "id": "y6V6ZVvIKCvUar0aUqzJUxLhazI=", "properties": {"@spider": "usps_collection_boxes", "addr:city": "DECORAH", "addr:country": "US", "addr:full": "104 E WATER ST", "addr:postcode": "52101", "addr:state": "IA", "amenity": "post_box", "brand": "United States Postal Service", "brand:wikidata": "Q668687", "collection_times": "Mo-Sa 17:15", "name": "USPS COLLECTION BOX - BLUE BOX", "note": "ON 12/24 AND 12/31, THIS BOX MAY BE COLLECTED AS EARLY AS 12 NOON.", "nsi_id": "unitedstatespostalservice-a77078", "operator": "United States Postal Service", "operator:short": "USPS", "operator:type": "public", "operator:wikidata": "Q668687", "ref": "5210100009"}, "type": "Feature"}
{"dataset_attributes": {"@spider": "usps_collection_boxes", "spider:collection_time": "2023-10-22T08:22:45.367372"}, "geometry": {"coordinates": [-91.78713, 43.30099], "type": "Point"}, "id": "lKdpCzB2Jhy_o0szI8GbGuH3Iow=", "properties": {"@spider": "usps_collection_boxes", "addr:city": "DECORAH", "addr:country": "US", "addr:full": "120 W WATER ST", "addr:postcode": "52101", "addr:state": "IA", "amenity": "post_box", "brand": "United States Postal Service", "brand:wikidata": "Q668687", "collection_times": "Mo-Sa 17:15", "name": "USPS COLLECTION BOX - BLUE BOX", "note": "ON 12/24 AND 12/31, THIS BOX MAY BE COLLECTED AS EARLY AS 12 NOON.", "nsi_id": "unitedstatespostalservice-a77078", "operator": "United States Postal Service", "operator:short": "USPS", "operator:type": "public", "operator:wikidata": "Q668687", "ref": "5210100010"}, "type": "Feature"}
{"dataset_attributes": {"@spider": "usps_collection_boxes", "spider:collection_time": "2023-10-22T08:22:45.367372"}, "geometry": {"coordinates": [-91.78713, 43.30099], "type": "Point"}, "id": "q6L2FlCB6ICnuExFOwB8eIYYdJw=", "properties": {"@spider": "usps_collection_boxes", "addr:city": "DECORAH", "addr:country": "US", "addr:full": "300 W WATER ST", "addr:postcode": "52101", "addr:state": "IA", "amenity": "post_box", "brand": "United States Postal Service", "brand:wikidata": "Q668687", "collection_times": "Mo-Sa 17:15", "name": "USPS COLLECTION BOX - BLUE BOX", "note": "ON 12/24 AND 12/31, THIS BOX MAY BE COLLECTED AS EARLY AS 12 NOON.", "nsi_id": "unitedstatespostalservice-a77078", "operator": "United States Postal Service", "operator:short": "USPS", "operator:type": "public", "operator:wikidata": "Q668687", "ref": "5210100011"}, "type": "Feature"}
{"dataset_attributes": {"@spider": "usps_collection_boxes", "spider:collection_time": "2023-10-22T08:22:45.367372"}, "geometry": {"coordinates": [-91.790118996, 43.304970992], "type": "Point"}, "id": "kcEwDHEBn9ReMmE-p_cuAeRRqO0=", "properties": {"@spider": "usps_collection_boxes", "addr:city": "DECORAH", "addr:country": "US", "addr:full": "401 HEIVLY ST", "addr:postcode": "52101", "addr:state": "IA", "amenity": "post_box", "brand": "United States Postal Service", "brand:wikidata": "Q668687", "collection_times": "Mo-Sa 18:00", "name": "USPS COLLECTION BOX - BLUE BOX", "note": "ON 12/24 AND 12/31, THIS BOX MAY BE COLLECTED AS EARLY AS 12 NOON.", "nsi_id": "unitedstatespostalservice-a77078", "operator": "United States Postal Service", "operator:short": "USPS", "operator:type": "public", "operator:wikidata": "Q668687", "ref": "5210100012"}, "type": "Feature"}
{"dataset_attributes": {"@spider": "usps_collection_boxes", "spider:collection_time": "2023-10-22T08:22:45.367372"}, "geometry": {"coordinates": [-91.790118996, 43.304970992], "type": "Point"}, "id": "VxuU5b20d4d6qcvfYDIO9yO8FZA=", "properties": {"@spider": "usps_collection_boxes", "addr:city": "DECORAH", "addr:country": "US", "addr:full": "401 HEIVLY ST", "addr:postcode": "52101", "addr:state": "IA", "amenity": "post_box", "brand": "United States Postal Service", "brand:wikidata": "Q668687", "collection_times": "Mo-Sa 18:00", "name": "USPS COLLECTION BOX - BLUE BOX", "note": "ON 12/24 AND 12/31, THIS BOX MAY BE COLLECTED AS EARLY AS 12 NOON.", "nsi_id": "unitedstatespostalservice-a77078", "operator": "United States Postal Service", "operator:short": "USPS", "operator:type": "public", "operator:wikidata": "Q668687", "ref": "5210100013"}, "type": "Feature"}
{"dataset_attributes": {"@spider": "usps_collection_boxes", "spider:collection_time": "2023-10-22T08:22:45.367372"}, "geometry": {"coordinates": [-91.7858003028, 43.3032233924], "type": "Point"}, "id": "Csl9eqZ8rtBbgtjItLb5ukdo9uc=", "properties": {"@spider": "usps_collection_boxes", "addr:city": "DECORAH", "addr:country": "US", "addr:full": "101 E MAIN ST", "addr:postcode": "52101", "addr:state": "IA", "amenity": "post_box", "brand": "United States Postal Service", "brand:wikidata": "Q668687", "collection_times": "Mo-Sa 17:15", "name": "USPS COLLECTION BOX - BLUE BOX", "note": "ON 12/24 AND 12/31, THIS BOX MAY BE COLLECTED AS EARLY AS 12 NOON.", "nsi_id": "unitedstatespostalservice-a77078", "operator": "United States Postal Service", "operator:short": "USPS", "operator:type": "public", "operator:wikidata": "Q668687", "ref": "5210100016"}, "type": "Feature"}
{"dataset_attributes": {"@spider": "usps_collection_boxes", "spider:collection_time": "2023-10-22T08:22:45.367372"}, "geometry": {"coordinates": [-91.752908202, 43.290208678], "type": "Point"}, "id": "5LjJAf3Aa-IQUOmu0ZAB1abtUTo=", "properties": {"@spider": "usps_collection_boxes", "addr:city": "DECORAH", "addr:country": "US", "addr:full": "1798 OLD STAGE RD", "addr:postcode": "52101", "addr:state": "IA", "amenity": "post_box", "brand": "United States Postal Service", "brand:wikidata": "Q668687", "collection_times": "Mo-Sa 13:00", "name": "USPS COLLECTION BOX - BLUE BOX", "note": "ON 12/24 AND 12/31, THIS BOX MAY BE COLLECTED AS EARLY AS 12 NOON.", "nsi_id": "unitedstatespostalservice-a77078", "operator": "United States Postal Service", "operator:short": "USPS", "operator:type": "public", "operator:wikidata": "Q668687", "ref": "5210100018"}, "type": "Feature"}
{"dataset_attributes": {"@spider": "usps_collection_boxes", "spider:collection_time": "2023-10-22T08:22:45.367372"}, "geometry": {"coordinates": [-91.790020591, 43.305257108], "type": "Point"}, "id": "ZydJWWFytbpXpGtqdKglKQ7tTYM=", "properties": {"@spider": "usps_collection_boxes", "addr:city": "DECORAH", "addr:country": "US", "addr:full": "401 HEIVLY ST", "addr:postcode": "52101", "addr:state": "IA", "amenity": "post_box", "brand": "United States Postal Service", "brand:wikidata": "Q668687", "collection_times": "Mo-Fr 16:30; Sa 13:00", "name": "USPS COLLECTION BOX - PO LOBBY", "note": "ON 12/24 AND 12/31, THIS BOX MAY BE COLLECTED AS EARLY AS 12 NOON.", "nsi_id": "unitedstatespostalservice-a77078", "operator": "United States Postal Service", "operator:short": "USPS", "operator:type": "public", "operator:wikidata": "Q668687", "ref": "5210100019"}, "type": "Feature"}
{"dataset_attributes": {"@spider": "usps_collection_boxes", "spider:collection_time": "2023-10-22T08:22:45.367372"}, "geometry": {"coordinates": [-91.864760812, 43.182055886], "type": "Point"}, "id": "m9k9uXG8CIYqZ-ilXGDy7xtG4bI=", "properties": {"@spider": "usps_collection_boxes", "addr:city": "CALMAR", "addr:country": "US", "addr:full": "107 S MARYVILLE ST", "addr:postcode": "52132", "addr:state": "IA", "amenity": "post_box", "brand": "United States Postal Service", "brand:wikidata": "Q668687", "collection_times": "Mo-Fr 15:45; Sa 16:45", "name": "USPS COLLECTION BOX - BLUE BOX", "note": "ON 12/24 AND 12/31, THIS BOX MAY BE COLLECTED AS EARLY AS 12 NOON.", "nsi_id": "unitedstatespostalservice-a77078", "operator": "United States Postal Service", "operator:short": "USPS", "operator:type": "public", "operator:wikidata": "Q668687", "ref": "5213200000"}, "type": "Feature"}
{"dataset_attributes": {"@spider": "usps_collection_boxes", "spider:collection_time": "2023-10-22T08:22:45.367372"}, "geometry": {"coordinates": [-91.864760812, 43.182055886], "type": "Point"}, "id": "Ms5205sUDRQYPBx6GmDcSAl85z4=", "properties": {"@spider": "usps_collection_boxes", "addr:city": "CALMAR", "addr:country": "US", "addr:full": "107 S MARYVILLE ST", "addr:postcode": "52132", "addr:state": "IA", "amenity": "post_box", "brand": "United States Postal Service", "brand:wikidata": "Q668687", "collection_times": "Mo-Fr 15:45", "name": "USPS COLLECTION BOX - PO LOBBY", "note": "ON 12/24 AND 12/31, THIS BOX MAY BE COLLECTED AS EARLY AS 12 NOON.", "nsi_id": "unitedstatespostalservice-a77078", "operator": "United States Postal Service", "operator:short": "USPS", "operator:type": "public", "operator:wikidata": "Q668687", "ref": "5213200001"}, "type": "Feature"}
{"dataset_attributes": {"@spider": "usps_collection_boxes", "spider:collection_time": "2023-10-22T08:22:45.367372"}, "geometry": {"coordinates": [-91.864760812, 43.182055886], "type": "Point"}, "id": "oISbkZ7UoSzdGwThpQYsozVaws4=", "properties": {"@spider": "usps_collection_boxes", "addr:city": "CALMAR", "addr:country": "US", "addr:full": "107 S MARYVILLE ST", "addr:postcode": "52132", "addr:state": "IA", "amenity": "post_box", "brand": "United States Postal Service", "brand:wikidata": "Q668687", "collection_times": "Mo-Fr 15:45; Sa 09:30", "name": "USPS COLLECTION BOX - PO LOBBY", "note": "ON 12/24 AND 12/31, THIS BOX MAY BE COLLECTED AS EARLY AS 12 NOON.", "nsi_id": "unitedstatespostalservice-a77078", "operator": "United States Postal Service", "operator:short": "USPS", "operator:type": "public", "operator:wikidata": "Q668687", "ref": "5213200002"}, "type": "Feature"}
{"dataset_attributes": {"@spider": "usps_collection_boxes", "spider:collection_time": "2023-10-22T08:22:45.367372"}, "geometry": {"coordinates": [-91.673961881, 43.110146427], "type": "Point"}, "id": "jD27hM-PwvsPn6EGwCaAcb_vTXk=", "properties": {"@spider": "usps_collection_boxes", "addr:city": "CASTALIA", "addr:country": "US", "addr:full": "206 E GREENE ST", "addr:postcode": "52133", "addr:state": "IA", "amenity": "post_box", "brand": "United States Postal Service", "brand:wikidata": "Q668687", "collection_times": "Mo-Fr 16:00; Sa 16:15", "name": "USPS COLLECTION BOX - BLUE BOX", "note": "ON 12/24 AND 12/31, THIS BOX MAY BE COLLECTED AS EARLY AS 12 NOON.", "nsi_id": "unitedstatespostalservice-a77078", "operator": "United States Postal Service", "operator:short": "USPS", "operator:type": "public", "operator:wikidata": "Q668687", "ref": "5213300000"}, "type": "Feature"}
{"dataset_attributes": {"@spider": "usps_collection_boxes", "spider:collection_time": "2023-10-22T08:22:45.367372"}, "geometry": {"coordinates": [-91.673961881, 43.110146427], "type": "Point"}, "id": "qRi1NdNYRvdp9KaFNbffEDalw-k=", "properties": {"@spider": "usps_collection_boxes", "addr:city": "CASTALIA", "addr:country": "US", "addr:full": "206 E GREENE ST", "addr:postcode": "52133", "addr:state": "IA", "amenity": "post_box", "brand": "United States Postal Service", "brand:wikidata": "Q668687", "collection_times": "Mo-Fr 13:45; Sa 11:45", "name": "USPS COLLECTION BOX - PO LOBBY", "note": "ON 12/24 AND 12/31, THIS BOX MAY BE COLLECTED AS EARLY AS 12 NOON.", "nsi_id": "unitedstatespostalservice-a77078", "operator": "United States Postal Service", "operator:short": "USPS", "operator:type": "public", "operator:wikidata": "Q668687", "ref": "5213300001"}, "type": "Feature"}
{"dataset_attributes": {"@spider": "usps_collection_boxes", "spider:collection_time": "2023-10-22T08:22:45.367372"}, "geometry": {"coordinates": [-91.673961881, 43.110146427], "type": "Point"}, "id": "DseP-kr0JLzwg-PIfKfOWmjA4rA=", "properties": {"@spider": "usps_collection_boxes", "addr:city": "CASTALIA", "addr:country": "US", "addr:full": "206 E GREENE ST", "addr:postcode": "52133", "addr:state": "IA", "amenity": "post_box", "brand": "United States Postal Service", "brand:wikidata": "Q668687", "collection_times": "Mo-Fr 14:00; Sa 11:45", "name": "USPS COLLECTION BOX - PO LOBBY", "note": "ON 12/24 AND 12/31, THIS BOX MAY BE COLLECTED AS EARLY AS 12 NOON.", "nsi_id": "unitedstatespostalservice-a77078", "operator": "United States Postal Service", "operator:short": "USPS", "operator:type": "public", "operator:wikidata": "Q668687", "ref": "5213300002"}, "type": "Feature"}
{"dataset_attributes": {"@spider": "usps_collection_boxes", "spider:collection_time": "2023-10-22T08:22:45.367372"}, "geometry": {"coordinates": [-92.360920956, 43.491095549], "type": "Point"}, "id": "js0jasCS4H31uIwfBPS_y3jYje8=", "properties": {"@spider": "usps_collection_boxes", "addr:city": "CHESTER", "addr:country": "US", "addr:full": "205 MAIN ST", "addr:postcode": "52134", "addr:state": "IA", "amenity": "post_box", "brand": "United States Postal Service", "brand:wikidata": "Q668687", "collection_times": "Mo-Fr 16:00; Sa 16:15", "name": "USPS COLLECTION BOX - BLUE BOX", "note": "ON 12/24 AND 12/31, THIS BOX MAY BE COLLECTED AS EARLY AS 12 NOON.", "nsi_id": "unitedstatespostalservice-a77078", "operator": "United States Postal Service", "operator:short": "USPS", "operator:type": "public", "operator:wikidata": "Q668687", "ref": "5213400000"}, "type": "Feature"}
{"dataset_attributes": {"@spider": "usps_collection_boxes", "spider:collection_time": "2023-10-22T08:22:45.367372"}, "geometry": {"coordinates": [-92.360870024, 43.49116001], "type": "Point"}, "id": "L-P0Ob5VQ4kjFfQCwzNwANj70lg=", "properties": {"@spider": "usps_collection_boxes", "addr:city": "CHESTER", "addr:country": "US", "addr:full": "205 MAIN ST", "addr:postcode": "52134", "addr:state": "IA", "amenity": "post_box", "brand": "United States Postal Service", "brand:wikidata": "Q668687", "collection_times": "Mo-Fr 15:45", "name": "USPS COLLECTION BOX - PO LOBBY", "note": "ON 12/24 AND 12/31, THIS BOX MAY BE COLLECTED AS EARLY AS 12 NOON.", "nsi_id": "unitedstatespostalservice-a77078", "operator": "United States Postal Service", "operator:short": "USPS", "operator:type": "public", "operator:wikidata": "Q668687", "ref": "5213400001"}, "type": "Feature"}
{"dataset_attributes": {"@spider": "usps_collection_boxes", "spider:collection_time": "2023-10-22T08:22:45.367372"}, "geometry": {"coordinates": [-92.360870024, 43.49116001], "type": "Point"}, "id": "aJZ1CA2sw9972a2iVxJRYdg_6hw=", "properties": {"@spider": "usps_collection_boxes", "addr:city": "CHESTER", "addr:country": "US", "addr:full": "205 MAIN ST", "addr:postcode": "52134", "addr:state": "IA", "amenity": "post_box", "brand": "United States Postal Service", "brand:wikidata": "Q668687", "collection_times": "Mo-Fr 16:00; Sa 11:45", "name": "USPS COLLECTION BOX - PO LOBBY", "note": "ON 12/24 AND 12/31, THIS BOX MAY BE COLLECTED AS EARLY AS 12 NOON.", "nsi_id": "unitedstatespostalservice-a77078", "operator": "United States Postal Service", "operator:short": "USPS", "operator:type": "public", "operator:wikidata": "Q668687", "ref": "5213400002"}, "type": "Feature"}
{"dataset_attributes": {"@spider": "usps_collection_boxes", "spider:collection_time": "2023-10-22T08:22:45.367372"}, "geometry": {"coordinates": [-91.655587547, 43.000391243], "type": "Point"}, "id": "Ufjg34Q2-miN0kxjy7SPI5XBTkk=", "properties": {"@spider": "usps_collection_boxes", "addr:city": "CLERMONT", "addr:country": "US", "addr:full": "319 MILL ST", "addr:postcode": "52135", "addr:state": "IA", "amenity": "post_box", "brand": "United States Postal Service", "brand:wikidata": "Q668687", "collection_times": "Mo-Sa 16:00", "name": "USPS COLLECTION BOX - BLUE BOX", "note": "ON 12/24 AND 12/31, THIS BOX MAY BE COLLECTED AS EARLY AS 12 NOON.", "nsi_id": "unitedstatespostalservice-a77078", "operator": "United States Postal Service", "operator:short": "USPS", "operator:type": "public", "operator:wikidata": "Q668687", "ref": "5213500000"}, "type": "Feature"}
{"dataset_attributes": {"@spider": "usps_collection_boxes", "spider:collection_time": "2023-10-22T08:22:45.367372"}, "geometry": {"coordinates": [-91.655587547, 43.000391243], "type": "Point"}, "id": "vHYutkuZp1GkwKIQL9ut5UvLO4A=", "properties": {"@spider": "usps_collection_boxes", "addr:city": "CLERMONT", "addr:country": "US", "addr:full": "319 MILL ST", "addr:postcode": "52135", "addr:state": "IA", "amenity": "post_box", "brand": "United States Postal Service", "brand:wikidata": "Q668687", "collection_times": "Mo-Fr 12:15; Sa 10:00", "name": "USPS COLLECTION BOX - PO LOBBY", "note": "ON 12/24 AND 12/31, THIS BOX MAY BE COLLECTED AS EARLY AS 12 NOON.", "nsi_id": "unitedstatespostalservice-a77078", "operator": "United States Postal Service", "operator:short": "USPS", "operator:type": "public", "operator:wikidata": "Q668687", "ref": "5213500001"}, "type": "Feature"}
{"dataset_attributes": {"@spider": "usps_collection_boxes", "spider:collection_time": "2023-10-22T08:22:45.367372"}, "geometry": {"coordinates": [-91.655587547, 43.000391243], "type": "Point"}, "id": "YE5owStQTFFpcLkvl94MP5YV_HI=", "properties": {"@spider": "usps_collection_boxes", "addr:city": "CLERMONT", "addr:country": "US", "addr:full": "319 MILL ST", "addr:postcode": "52135", "addr:state": "IA", "amenity": "post_box", "brand": "United States Postal Service", "brand:wikidata": "Q668687", "collection_times": "Mo-Fr 12:30; Sa 10:15", "name": "USPS COLLECTION BOX - PO LOBBY", "note": "ON 12/24 AND 12/31, THIS BOX MAY BE COLLECTED AS EARLY AS 12 NOON.", "nsi_id": "unitedstatespostalservice-a77078", "operator": "United States Postal Service", "operator:short": "USPS", "operator:type": "public", "operator:wikidata": "Q668687", "ref": "5213500002"}, "type": "Feature"}
{"dataset_attributes": {"@spider": "usps_collection_boxes", "spider:collection_time": "2023-10-22T08:22:45.367372"}, "geometry": {"coordinates": [-92.115848441, 43.375769581], "type": "Point"}, "id": "3XbvoTl8JlZedMZLIqIJ71-5IpY=", "properties": {"@spider": "usps_collection_boxes", "addr:city": "CRESCO", "addr:country": "US", "addr:full": "320 N ELM ST", "addr:postcode": "52136", "addr:state": "IA", "amenity": "post_box", "brand": "United States Postal Service", "brand:wikidata": "Q668687", "collection_times": "Mo-Sa 10:00", "name": "USPS COLLECTION BOX - BLUE BOX", "nsi_id": "unitedstatespostalservice-a77078", "operator": "United States Postal Service", "operator:short": "USPS", "operator:type": "public", "operator:wikidata": "Q668687", "ref": "5213600000"}, "type": "Feature"}
{"dataset_attributes": {"@spider": "usps_collection_boxes", "spider:collection_time": "2023-10-22T08:22:45.367372"}, "geometry": {"coordinates": [-92.126763, 43.375475504], "type": "Point"}, "id": "chJH_s4sqJ9ljKhJ8Ql3wM5JTiA=", "properties": {"@spider": "usps_collection_boxes", "addr:city": "CRESCO", "addr:country": "US", "addr:full": "630 3RD AVE W", "addr:postcode": "52136", "addr:state": "IA", "amenity": "post_box", "brand": "United States Postal Service", "brand:wikidata": "Q668687", "collection_times": "Mo-Sa 09:00", "name": "USPS COLLECTION BOX - BLUE BOX", "nsi_id": "unitedstatespostalservice-a77078", "operator": "United States Postal Service", "operator:short": "USPS", "operator:type": "public", "operator:wikidata": "Q668687", "ref": "5213600001"}, "type": "Feature"}
{"dataset_attributes": {"@spider": "usps_collection_boxes", "spider:collection_time": "2023-10-22T08:22:45.367372"}, "geometry": {"coordinates": [-92.117779177, 43.373763387], "type": "Point"}, "id": "vVKFFIGQ7_7HS-XlPQHmt1q79w4=", "properties": {"@spider": "usps_collection_boxes", "addr:city": "CRESCO", "addr:country": "US", "addr:full": "128 2ND AVE W", "addr:postcode": "52136", "addr:state": "IA", "amenity": "post_box", "brand": "United States Postal Service", "brand:wikidata": "Q668687", "collection_times": "Mo-Sa 16:30", "name": "USPS COLLECTION BOX - BLUE BOX", "note": "ON 12/24 AND 12/31, THIS BOX MAY BE COLLECTED AS EARLY AS 12 NOON.", "nsi_id": "unitedstatespostalservice-a77078", "operator": "United States Postal Service", "operator:short": "USPS", "operator:type": "public", "operator:wikidata": "Q668687", "ref": "5213600002"}, "type": "Feature"}
{"dataset_attributes": {"@spider": "usps_collection_boxes", "spider:collection_time": "2023-10-22T08:22:45.367372"}, "geometry": {"coordinates": [-92.117779177, 43.373763387], "type": "Point"}, "id": "woR1KnVl-gBBRkAV7T3wqwXwr2s=", "properties": {"@spider": "usps_collection_boxes", "addr:city": "CRESCO", "addr:country": "US", "addr:full": "128 2ND AVE W", "addr:postcode": "52136", "addr:state": "IA", "amenity": "post_box", "brand": "United States Postal Service", "brand:wikidata": "Q668687", "collection_times": "Mo-Sa 16:30", "name": "USPS COLLECTION BOX - BLUE BOX", "note": "ON 12/24 AND 12/31, THIS BOX MAY BE COLLECTED AS EARLY AS 12 NOON.", "nsi_id": "unitedstatespostalservice-a77078", "operator": "United States Postal Service", "operator:short": "USPS", "operator:type": "public", "operator:wikidata": "Q668687", "ref": "5213600003"}, "type": "Feature"}
{"dataset_attributes": {"@spider": "usps_collection_boxes", "spider:collection_time": "2023-10-22T08:22:45.367372"}, "geometry": {"coordinates": [-92.117779177, 43.373763387], "type": "Point"}, "id": "8bLUP1DlYWFLE7uvtFUFV299F7U=", "properties": {"@spider": "usps_collection_boxes", "addr:city": "CRESCO", "addr:country": "US", "addr:full": "128 2ND AVE W", "addr:postcode": "52136", "addr:state": "IA", "amenity": "post_box", "brand": "United States Postal Service", "brand:wikidata": "Q668687", "collection_times": "Mo-Fr 16:30; Sa 10:00", "name": "USPS COLLECTION BOX - PO LOBBY", "note": "ON 12/24 AND 12/31, THIS BOX MAY BE COLLECTED AS EARLY AS 12 NOON.", "nsi_id": "unitedstatespostalservice-a77078", "operator": "United States Postal Service", "operator:short": "USPS", "operator:type": "public", "operator:wikidata": "Q668687", "ref": "5213600004"}, "type": "Feature"}
{"dataset_attributes": {"@spider": "usps_collection_boxes", "spider:collection_time": "2023-10-22T08:22:45.367372"}, "geometry": {"coordinates": [-92.117779177, 43.373763387], "type": "Point"}, "id": "FEp8g_IyvMWQaTdQjQnpEpBvmyE=", "properties": {"@spider": "usps_collection_boxes", "addr:city": "CRESCO", "addr:country": "US", "addr:full": "128 2ND AVE W", "addr:postcode": "52136", "addr:state": "IA", "amenity": "post_box", "brand": "United States Postal Service", "brand:wikidata": "Q668687", "collection_times": "Mo-Fr 16:30; Sa 08:00", "name": "USPS COLLECTION BOX - PO LOBBY", "note": "ON 12/24 AND 12/31, THIS BOX MAY BE COLLECTED AS EARLY AS 12 NOON.", "nsi_id": "unitedstatespostalservice-a77078", "operator": "United States Postal Service", "operator:short": "USPS", "operator:type": "public", "operator:wikidata": "Q668687", "ref": "5213600005"}, "type": "Feature"}
{"dataset_attributes": {"@spider": "usps_collection_boxes", "spider:collection_time": "2023-10-22T08:22:45.367372"}, "geometry": {"coordinates": [-91.629963, 42.95736949], "type": "Point"}, "id": "0E5vHNUmH5Ju_1ITpxJZhKSJU28=", "properties": {"@spider": "usps_collection_boxes", "addr:city": "ELGIN", "addr:country": "US", "addr:full": "238 CENTER ST", "addr:postcode": "52141", "addr:state": "IA", "amenity": "post_box", "brand": "United States Postal Service", "brand:wikidata": "Q668687", "collection_times": "Mo-Fr 16:00; Sa 16:15", "name": "USPS COLLECTION BOX - BLUE BOX", "note": "ON 12/24 AND 12/31, THIS BOX MAY BE COLLECTED AS EARLY AS 12 NOON.", "nsi_id": "unitedstatespostalservice-a77078", "operator": "United States Postal Service", "operator:short": "USPS", "operator:type": "public", "operator:wikidata": "Q668687", "ref": "5214100000"}, "type": "Feature"}
{"dataset_attributes": {"@spider": "usps_collection_boxes", "spider:collection_time": "2023-10-22T08:22:45.367372"}, "geometry": {"coordinates": [-91.629963, 42.95736949], "type": "Point"}, "id": "siomqP09Ah9WJQEbcxTJWUPfDcI=", "properties": {"@spider": "usps_collection_boxes", "addr:city": "ELGIN", "addr:country": "US", "addr:full": "238 CENTER ST", "addr:postcode": "52141", "addr:state": "IA", "amenity": "post_box", "brand": "United States Postal Service", "brand:wikidata": "Q668687", "collection_times": "Mo-Fr 14:45; Sa 10:00", "name": "USPS COLLECTION BOX - PO LOBBY", "note": "ON 12/24 AND 12/31, THIS BOX MAY BE COLLECTED AS EARLY AS 12 NOON.", "nsi_id": "unitedstatespostalservice-a77078", "operator": "United States Postal Service", "operator:short": "USPS", "operator:type": "public", "operator:wikidata": "Q668687", "ref": "5214100001"}, "type": "Feature"}
{"dataset_attributes": {"@spider": "usps_collection_boxes", "spider:collection_time": "2023-10-22T08:22:45.367372"}, "geometry": {"coordinates": [-91.629963, 42.95736949], "type": "Point"}, "id": "u34xV8OEc4WrRpV8v47rB6sNlJY=", "properties": {"@spider": "usps_collection_boxes", "addr:city": "ELGIN", "addr:country": "US", "addr:full": "238 CENTER ST", "addr:postcode": "52141", "addr:state": "IA", "amenity": "post_box", "brand": "United States Postal Service", "brand:wikidata": "Q668687", "collection_times": "Mo-Fr 15:00; Sa 10:15", "name": "USPS COLLECTION BOX - PO LOBBY", "note": "ON 12/24 AND 12/31, THIS BOX MAY BE COLLECTED AS EARLY AS 12 NOON.", "nsi_id": "unitedstatespostalservice-a77078", "operator": "United States Postal Service", "operator:short": "USPS", "operator:type": "public", "operator:wikidata": "Q668687", "ref": "5214100002"}, "type": "Feature"}
{"dataset_attributes": {"@spider": "usps_collection_boxes", "spider:collection_time": "2023-10-22T08:22:45.367372"}, "geometry": {"coordinates": [-91.800702838, 42.844584497], "type": "Point"}, "id": "Firz6wb0vgWemlJ-IJ5r71beD1A=", "properties": {"@spider": "usps_collection_boxes", "addr:city": "FAYETTE", "addr:country": "US", "addr:full": "201 E WATER ST", "addr:postcode": "52142", "addr:state": "IA", "amenity": "post_box", "brand": "United States Postal Service", "brand:wikidata": "Q668687", "collection_times": "Mo-Fr 16:00; Sa 16:30", "name": "USPS COLLECTION BOX - BLUE BOX", "note": "ON 12/24 AND 12/31, THIS BOX MAY BE COLLECTED AS EARLY AS 12 NOON.", "nsi_id": "unitedstatespostalservice-a77078", "operator": "United States Postal Service", "operator:short": "USPS", "operator:type": "public", "operator:wikidata": "Q668687", "ref": "5214200000"}, "type": "Feature"}
{"dataset_attributes": {"@spider": "usps_collection_boxes", "spider:collection_time": "2023-10-22T08:22:45.367372"}, "geometry": {"coordinates": [-91.800702838, 42.844584497], "type": "Point"}, "id": "ED_6aD63FLGkXY2mME34pwze5SY=", "properties": {"@spider": "usps_collection_boxes", "addr:city": "FAYETTE", "addr:country": "US", "addr:full": "201 E WATER ST", "addr:postcode": "52142", "addr:state": "IA", "amenity": "post_box", "brand": "United States Postal Service", "brand:wikidata": "Q668687", "collection_times": "Mo-Fr 16:00; Sa 09:00", "name": "USPS COLLECTION BOX - PO LOBBY", "note": "ON 12/24 AND 12/31, THIS BOX MAY BE COLLECTED AS EARLY AS 12 NOON.", "nsi_id": "unitedstatespostalservice-a77078", "operator": "United States Postal Service", "operator:short": "USPS", "operator:type": "public", "operator:wikidata": "Q668687", "ref": "5214200001"}, "type": "Feature"}
{"dataset_attributes": {"@spider": "usps_collection_boxes", "spider:collection_time": "2023-10-22T08:22:45.367372"}, "geometry": {"coordinates": [-91.800702838, 42.844584497], "type": "Point"}, "id": "TesJSSAeTW3uhR6NDaFVqcd_aYI=", "properties": {"@spider": "usps_collection_boxes", "addr:city": "FAYETTE", "addr:country": "US", "addr:full": "201 E WATER ST", "addr:postcode": "52142", "addr:state": "IA", "amenity": "post_box", "brand": "United States Postal Service", "brand:wikidata": "Q668687", "collection_times": "Mo-Fr 16:00", "name": "USPS COLLECTION BOX - PO LOBBY", "note": "ON 12/24 AND 12/31, THIS BOX MAY BE COLLECTED AS EARLY AS 12 NOON.", "nsi_id": "unitedstatespostalservice-a77078", "operator": "United States Postal Service", "operator:short": "USPS", "operator:type": "public", "operator:wikidata": "Q668687", "ref": "5214200002"}, "type": "Feature"}
{"dataset_attributes": {"@spider": "usps_collection_boxes", "spider:collection_time": "2023-10-22T08:22:45.367372"}, "geometry": {"coordinates": [-91.933271361, 43.143354547], "type": "Point"}, "id": "l_tMxUv0S2uxucRgLOlVbQCoBR8=", "properties": {"@spider": "usps_collection_boxes", "addr:city": "FORT ATKINSON", "addr:country": "US", "addr:full": "107 MAIN ST", "addr:postcode": "52144", "addr:state": "IA", "amenity": "post_box", "brand": "United States Postal Service", "brand:wikidata": "Q668687", "collection_times": "Mo-Fr 16:00; Sa 16:45", "name": "USPS COLLECTION BOX - BLUE BOX", "note": "ON 12/24 AND 12/31, THIS BOX MAY BE COLLECTED AS EARLY AS 12 NOON.", "nsi_id": "unitedstatespostalservice-a77078", "operator": "United States Postal Service", "operator:short": "USPS", "operator:type": "public", "operator:wikidata": "Q668687", "ref": "5214400000"}, "type": "Feature"}
{"dataset_attributes": {"@spider": "usps_collection_boxes", "spider:collection_time": "2023-10-22T08:22:45.367372"}, "geometry": {"coordinates": [-91.933271361, 43.143354547], "type": "Point"}, "id": "NJwZFd6Z_tai-BZitfp-b1mORrk=", "properties": {"@spider": "usps_collection_boxes", "addr:city": "FORT ATKINSON", "addr:country": "US", "addr:full": "107 MAIN ST", "addr:postcode": "52144", "addr:state": "IA", "amenity": "post_box", "brand": "United States Postal Service", "brand:wikidata": "Q668687", "collection_times": "Mo-Fr 14:15; Sa 09:15", "name": "USPS COLLECTION BOX - PO LOBBY", "note": "ON 12/24 AND 12/31, THIS BOX MAY BE COLLECTED AS EARLY AS 12 NOON.", "nsi_id": "unitedstatespostalservice-a77078", "operator": "United States Postal Service", "operator:short": "USPS", "operator:type": "public", "operator:wikidata": "Q668687", "ref": "5214400002"}, "type": "Feature"}
{"dataset_attributes": {"@spider": "usps_collection_boxes", "spider:collection_time": "2023-10-22T08:22:45.367372"}, "geometry": {"coordinates": [-91.933271361, 43.143354547], "type": "Point"}, "id": "UBD9KHeqzWNwwKWd8HKaXHw4Ca8=", "properties": {"@spider": "usps_collection_boxes", "addr:city": "FORT ATKINSON", "addr:country": "US", "addr:full": "107 MAIN ST", "addr:postcode": "52144", "addr:state": "IA", "amenity": "post_box", "brand": "United States Postal Service", "brand:wikidata": "Q668687", "collection_times": "Mo-Fr 14:30; Sa 09:30", "name": "USPS COLLECTION BOX - PO LOBBY", "note": "ON 12/24 AND 12/31, THIS BOX MAY BE COLLECTED AS EARLY AS 12 NOON.", "nsi_id": "unitedstatespostalservice-a77078", "operator": "United States Postal Service", "operator:short": "USPS", "operator:type": "public", "operator:wikidata": "Q668687", "ref": "5214400003"}, "type": "Feature"}
{"dataset_attributes": {"@spider": "usps_collection_boxes", "spider:collection_time": "2023-10-22T08:22:45.367372"}, "geometry": {"coordinates": [-91.152570475, 43.201726178], "type": "Point"}, "id": "_ZcDZU0AbpaZW7VrU2VLvKa6xj0=", "properties": {"@spider": "usps_collection_boxes", "addr:city": "HARPERS FERRY", "addr:country": "US", "addr:full": "131 N GREELEY AVE", "addr:postcode": "52146", "addr:state": "IA", "amenity": "post_box", "brand": "United States Postal Service", "brand:wikidata": "Q668687", "collection_times": "Mo-Sa 16:00", "name": "USPS COLLECTION BOX - BLUE BOX", "note": "ON 12/24 AND 12/31, THIS BOX MAY BE COLLECTED AS EARLY AS 12 NOON.", "nsi_id": "unitedstatespostalservice-a77078", "operator": "United States Postal Service", "operator:short": "USPS", "operator:type": "public", "operator:wikidata": "Q668687", "ref": "5214600000"}, "type": "Feature"}
{"dataset_attributes": {"@spider": "usps_collection_boxes", "spider:collection_time": "2023-10-22T08:22:45.367372"}, "geometry": {"coordinates": [-91.152570475, 43.201726178], "type": "Point"}, "id": "e4bAHl11aD4KkbIew_AlFkYCys8=", "properties": {"@spider": "usps_collection_boxes", "addr:city": "HARPERS FERRY", "addr:country": "US", "addr:full": "131 N GREELEY AVE", "addr:postcode": "52146", "addr:state": "IA", "amenity": "post_box", "brand": "United States Postal Service", "brand:wikidata": "Q668687", "collection_times": "Mo-Fr 11:45; Sa 09:45", "name": "USPS COLLECTION BOX - PO LOBBY", "nsi_id": "unitedstatespostalservice-a77078", "operator": "United States Postal Service", "operator:short": "USPS", "operator:type": "public", "operator:wikidata": "Q668687", "ref": "5214600001"}, "type": "Feature"}
{"dataset_attributes": {"@spider": "usps_collection_boxes", "spider:collection_time": "2023-10-22T08:22:45.367372"}, "geometry": {"coordinates": [-91.152570475, 43.201726178], "type": "Point"}, "id": "rugPEClrM5_E9HwL5GybcHpEoU4=", "properties": {"@spider": "usps_collection_boxes", "addr:city": "HARPERS FERRY", "addr:country": "US", "addr:full": "131 N GREELEY AVE", "addr:postcode": "52146", "addr:state": "IA", "amenity": "post_box", "brand": "United States Postal Service", "brand:wikidata": "Q668687", "collection_times": "Mo-Fr 12:00; Sa 10:00", "name": "USPS COLLECTION BOX - PO LOBBY", "nsi_id": "unitedstatespostalservice-a77078", "operator": "United States Postal Service", "operator:short": "USPS", "operator:type": "public", "operator:wikidata": "Q668687", "ref": "5214600002"}, "type": "Feature"}
{"dataset_attributes": {"@spider": "usps_collection_boxes", "spider:collection_time": "2023-10-22T08:22:45.367372"}, "geometry": {"coordinates": [-91.952103526, 42.93848946], "type": "Point"}, "id": "lT8pKCNhqvoiaSzGncXVIMsfjkM=", "properties": {"@spider": "usps_collection_boxes", "addr:city": "HAWKEYE", "addr:country": "US", "addr:full": "101 W MAIN ST", "addr:postcode": "52147", "addr:state": "IA", "amenity": "post_box", "brand": "United States Postal Service", "brand:wikidata": "Q668687", "collection_times": "Mo-Sa 16:00", "name": "USPS COLLECTION BOX - BLUE BOX", "note": "ON 12/24 AND 12/31, THIS BOX MAY BE COLLECTED AS EARLY AS 12 NOON.", "nsi_id": "unitedstatespostalservice-a77078", "operator": "United States Postal Service", "operator:short": "USPS", "operator:type": "public", "operator:wikidata": "Q668687", "ref": "5214700000"}, "type": "Feature"}
{"dataset_attributes": {"@spider": "usps_collection_boxes", "spider:collection_time": "2023-10-22T08:22:45.367372"}, "geometry": {"coordinates": [-91.952103526, 42.93848946], "type": "Point"}, "id": "e3gHmpRPKciaKMb3v1OkCCiyi04=", "properties": {"@spider": "usps_collection_boxes", "addr:city": "HAWKEYE", "addr:country": "US", "addr:full": "101 W MAIN ST", "addr:postcode": "52147", "addr:state": "IA", "amenity": "post_box", "brand": "United States Postal Service", "brand:wikidata": "Q668687", "collection_times": "Mo-Fr 11:45", "name": "USPS COLLECTION BOX - PO LOBBY", "nsi_id": "unitedstatespostalservice-a77078", "operator": "United States Postal Service", "operator:short": "USPS", "operator:type": "public", "operator:wikidata": "Q668687", "ref": "5214700001"}, "type": "Feature"}
{"dataset_attributes": {"@spider": "usps_collection_boxes", "spider:collection_time": "2023-10-22T08:22:45.367372"}, "geometry": {"coordinates": [-91.952103526, 42.93848946], "type": "Point"}, "id": "zVPkRKBqFav2_Kcgxzy5ydR6vVE=", "properties": {"@spider": "usps_collection_boxes", "addr:city": "HAWKEYE", "addr:country": "US", "addr:full": "101 W MAIN ST", "addr:postcode": "52147", "addr:state": "IA", "amenity": "post_box", "brand": "United States Postal Service", "brand:wikidata": "Q668687", "collection_times": "Mo-Fr 12:00; Sa 09:00", "name": "USPS COLLECTION BOX - PO LOBBY", "nsi_id": "unitedstatespostalservice-a77078", "operator": "United States Postal Service", "operator:short": "USPS", "operator:type": "public", "operator:wikidata": "Q668687", "ref": "5214700002"}, "type": "Feature"}
{"dataset_attributes": {"@spider": "usps_collection_boxes", "spider:collection_time": "2023-10-22T08:22:45.367372"}, "geometry": {"coordinates": [-91.218402136, 43.361785521], "type": "Point"}, "id": "MODIOsm4SZV1gUWjBR1DBUxuTQQ=", "properties": {"@spider": "usps_collection_boxes", "addr:city": "LANSING", "addr:country": "US", "addr:full": "383 MAIN ST", "addr:postcode": "52151", "addr:state": "IA", "amenity": "post_box", "brand": "United States Postal Service", "brand:wikidata": "Q668687", "collection_times": "Mo-Sa 16:30", "name": "USPS COLLECTION BOX - BLUE BOX", "note": "ON 12/24 AND 12/31, THIS BOX MAY BE COLLECTED AS EARLY AS 12 NOON.", "nsi_id": "unitedstatespostalservice-a77078", "operator": "United States Postal Service", "operator:short": "USPS", "operator:type": "public", "operator:wikidata": "Q668687", "ref": "5215100000"}, "type": "Feature"}
{"dataset_attributes": {"@spider": "usps_collection_boxes", "spider:collection_time": "2023-10-22T08:22:45.367372"}, "geometry": {"coordinates": [-91.218402136, 43.361785521], "type": "Point"}, "id": "7Azbm5XWAnCgPdPacit9Mzxn0Sw=", "properties": {"@spider": "usps_collection_boxes", "addr:city": "LANSING", "addr:country": "US", "addr:full": "383 MAIN ST", "addr:postcode": "52151", "addr:state": "IA", "amenity": "post_box", "brand": "United States Postal Service", "brand:wikidata": "Q668687", "collection_times": "Mo-Fr 16:30; Sa 10:00", "name": "USPS COLLECTION BOX - PO LOBBY", "note": "ON 12/24 AND 12/31, THIS BOX MAY BE COLLECTED AS EARLY AS 12 NOON.", "nsi_id": "unitedstatespostalservice-a77078", "operator": "United States Postal Service", "operator:short": "USPS", "operator:type": "public", "operator:wikidata": "Q668687", "ref": "5215100001"}, "type": "Feature"}
{"dataset_attributes": {"@spider": "usps_collection_boxes", "spider:collection_time": "2023-10-22T08:22:45.367372"}, "geometry": {"coordinates": [-91.218402136, 43.361785521], "type": "Point"}, "id": "tUeknwPKamm-woPA8vCJ3J5fXTQ=", "properties": {"@spider": "usps_collection_boxes", "addr:city": "LANSING", "addr:country": "US", "addr:full": "383 MAIN ST", "addr:postcode": "52151", "addr:state": "IA", "amenity": "post_box", "brand": "United States Postal Service", "brand:wikidata": "Q668687", "collection_times": "Mo-Fr 16:30", "name": "USPS COLLECTION BOX - PO LOBBY", "note": "ON 12/24 AND 12/31, THIS BOX MAY BE COLLECTED AS EARLY AS 12 NOON.", "nsi_id": "unitedstatespostalservice-a77078", "operator": "United States Postal Service", "operator:short": "USPS", "operator:type": "public", "operator:wikidata": "Q668687", "ref": "5215100002"}, "type": "Feature"}
{"dataset_attributes": {"@spider": "usps_collection_boxes", "spider:collection_time": "2023-10-22T08:22:45.367372"}, "geometry": {"coordinates": [-92.1510315, 43.069525514], "type": "Point"}, "id": "nFxcatcjHXXf2DXS55aypV-j92E=", "properties": {"@spider": "usps_collection_boxes", "addr:city": "LAWLER", "addr:country": "US", "addr:full": "316 E GROVE ST", "addr:postcode": "52154", "addr:state": "IA", "amenity": "post_box", "brand": "United States Postal Service", "brand:wikidata": "Q668687", "collection_times": "Mo-Fr 15:45; Sa 16:00", "name": "USPS COLLECTION BOX - BLUE BOX", "note": "ON 12/24 AND 12/31, THIS BOX MAY BE COLLECTED AS EARLY AS 12 NOON.", "nsi_id": "unitedstatespostalservice-a77078", "operator": "United States Postal Service", "operator:short": "USPS", "operator:type": "public", "operator:wikidata": "Q668687", "ref": "5215400000"}, "type": "Feature"}
{"dataset_attributes": {"@spider": "usps_collection_boxes", "spider:collection_time": "2023-10-22T08:22:45.367372"}, "geometry": {"coordinates": [-92.1510315, 43.069525514], "type": "Point"}, "id": "uwE-Xj2No_pWOsGHc8W0WrdjiUI=", "properties": {"@spider": "usps_collection_boxes", "addr:city": "LAWLER", "addr:country": "US", "addr:full": "316 E GROVE ST", "addr:postcode": "52154", "addr:state": "IA", "amenity": "post_box", "brand": "United States Postal Service", "brand:wikidata": "Q668687", "collection_times": "Mo-Fr 11:30; Sa 08:45", "name": "USPS COLLECTION BOX - PO LOBBY", "nsi_id": "unitedstatespostalservice-a77078", "operator": "United States Postal Service", "operator:short": "USPS", "operator:type": "public", "operator:wikidata": "Q668687", "ref": "5215400001"}, "type": "Feature"}
{"dataset_attributes": {"@spider": "usps_collection_boxes", "spider:collection_time": "2023-10-22T08:22:45.367372"}, "geometry": {"coordinates": [-92.1510315, 43.069525514], "type": "Point"}, "id": "etRVevFZ7AXabjsKWfpXmAD2B_E=", "properties": {"@spider": "usps_collection_boxes", "addr:city": "LAWLER", "addr:country": "US", "addr:full": "316 E GROVE ST", "addr:postcode": "52154", "addr:state": "IA", "amenity": "post_box", "brand": "United States Postal Service", "brand:wikidata": "Q668687", "collection_times": "Mo-Fr 11:30; Sa 08:45", "name": "USPS COLLECTION BOX - PO LOBBY", "nsi_id": "unitedstatespostalservice-a77078", "operator": "United States Postal Service", "operator:short": "USPS", "operator:type": "public", "operator:wikidata": "Q668687", "ref": "5215400002"}, "type": "Feature"}
{"dataset_attributes": {"@spider": "usps_collection_boxes", "spider:collection_time": "2023-10-22T08:22:45.367372"}, "geometry": {"coordinates": [-92.280931879, 43.448963061], "type": "Point"}, "id": "d3E74yBZRDSkcPwzgtgNvylkPNo=", "properties": {"@spider": "usps_collection_boxes", "addr:city": "LIME SPRINGS", "addr:country": "US", "addr:full": "108 W MAIN ST", "addr:postcode": "52155", "addr:state": "IA", "amenity": "post_box", "brand": "United States Postal Service", "brand:wikidata": "Q668687", "collection_times": "Mo-Fr 15:30; Sa 16:00", "name": "USPS COLLECTION BOX - BLUE BOX", "note": "ON 12/24 AND 12/31, THIS BOX MAY BE COLLECTED AS EARLY AS 12 NOON.", "nsi_id": "unitedstatespostalservice-a77078", "operator": "United States Postal Service", "operator:short": "USPS", "operator:type": "public", "operator:wikidata": "Q668687", "ref": "5215500000"}, "type": "Feature"}
{"dataset_attributes": {"@spider": "usps_collection_boxes", "spider:collection_time": "2023-10-22T08:22:45.367372"}, "geometry": {"coordinates": [-92.280931879, 43.448963061], "type": "Point"}, "id": "Gz-U2aNDDvN5ge5fKr5vb3Y3Bww=", "properties": {"@spider": "usps_collection_boxes", "addr:city": "LIME SPRINGS", "addr:country": "US", "addr:full": "108 W MAIN ST", "addr:postcode": "52155", "addr:state": "IA", "amenity": "post_box", "brand": "United States Postal Service", "brand:wikidata": "Q668687", "collection_times": "Mo-Fr 14:45", "name": "USPS COLLECTION BOX - PO LOBBY", "note": "ON 12/24 AND 12/31, THIS BOX MAY BE COLLECTED AS EARLY AS 12 NOON.", "nsi_id": "unitedstatespostalservice-a77078", "operator": "United States Postal Service", "operator:short": "USPS", "operator:type": "public", "operator:wikidata": "Q668687", "ref": "5215500001"}, "type": "Feature"}
{"dataset_attributes": {"@spider": "usps_collection_boxes", "spider:collection_time": "2023-10-22T08:22:45.367372"}, "geometry": {"coordinates": [-92.280931879, 43.448963061], "type": "Point"}, "id": "RTW6Tc-YgBVn0dR8AWN4QkVZXsk=", "properties": {"@spider": "usps_collection_boxes", "addr:city": "LIME SPRINGS", "addr:country": "US", "addr:full": "108 W MAIN ST", "addr:postcode": "52155", "addr:state": "IA", "amenity": "post_box", "brand": "United States Postal Service", "brand:wikidata": "Q668687", "collection_times": "Mo-Fr 15:00; Sa 08:00", "name": "USPS COLLECTION BOX - PO LOBBY", "note": "ON 12/24 AND 12/31, THIS BOX MAY BE COLLECTED AS EARLY AS 12 NOON.", "nsi_id": "unitedstatespostalservice-a77078", "operator": "United States Postal Service", "operator:short": "USPS", "operator:type": "public", "operator:wikidata": "Q668687", "ref": "5215500002"}, "type": "Feature"}
{"dataset_attributes": {"@spider": "usps_collection_boxes", "spider:collection_time": "2023-10-22T08:22:45.367372"}, "geometry": {"coordinates": [-91.452420778, 43.059930203], "type": "Point"}, "id": "lZ7Ntmp2iNwylXYQLILuBCKU0Xk=", "properties": {"@spider": "usps_collection_boxes", "addr:city": "LUANA", "addr:country": "US", "addr:full": "105 BURGES ST", "addr:postcode": "52156", "addr:state": "IA", "amenity": "post_box", "brand": "United States Postal Service", "brand:wikidata": "Q668687", "collection_times": "Mo-Fr 16:15; Sa 17:00", "name": "USPS COLLECTION BOX - BLUE BOX", "note": "ON 12/24 AND 12/31, THIS BOX MAY BE COLLECTED AS EARLY AS 12 NOON.", "nsi_id": "unitedstatespostalservice-a77078", "operator": "United States Postal Service", "operator:short": "USPS", "operator:type": "public", "operator:wikidata": "Q668687", "ref": "5215600000"}, "type": "Feature"}
{"dataset_attributes": {"@spider": "usps_collection_boxes", "spider:collection_time": "2023-10-22T08:22:45.367372"}, "geometry": {"coordinates": [-91.452420778, 43.059930203], "type": "Point"}, "id": "hPo0EsdfvFytYcUJ-L-1pdXWM1c=", "properties": {"@spider": "usps_collection_boxes", "addr:city": "LUANA", "addr:country": "US", "addr:full": "105 BURGES ST", "addr:postcode": "52156", "addr:state": "IA", "amenity": "post_box", "brand": "United States Postal Service", "brand:wikidata": "Q668687", "collection_times": "Mo-Fr 11:45", "name": "USPS COLLECTION BOX - PO LOBBY", "nsi_id": "unitedstatespostalservice-a77078", "operator": "United States Postal Service", "operator:short": "USPS", "operator:type": "public", "operator:wikidata": "Q668687", "ref": "5215600001"}, "type": "Feature"}
{"dataset_attributes": {"@spider": "usps_collection_boxes", "spider:collection_time": "2023-10-22T08:22:45.367372"}, "geometry": {"coordinates": [-91.452420778, 43.059930203], "type": "Point"}, "id": "NMZTXR1i5edGFcOMIbBRRn-vK8w=", "properties": {"@spider": "usps_collection_boxes", "addr:city": "LUANA", "addr:country": "US", "addr:full": "105 BURGES ST", "addr:postcode": "52156", "addr:state": "IA", "amenity": "post_box", "brand": "United States Postal Service", "brand:wikidata": "Q668687", "collection_times": "Mo-Fr 12:00; Sa 09:15", "name": "USPS COLLECTION BOX - PO LOBBY", "nsi_id": "unitedstatespostalservice-a77078", "operator": "United States Postal Service", "operator:short": "USPS", "operator:type": "public", "operator:wikidata": "Q668687", "ref": "5215600002"}, "type": "Feature"}
{"dataset_attributes": {"@spider": "usps_collection_boxes", "spider:collection_time": "2023-10-22T08:22:45.367372"}, "geometry": {"coordinates": [-91.175693937, 43.024112246], "type": "Point"}, "id": "Ed-zuDbOlw1E-Lyx-gRmQdDzFEU=", "properties": {"@spider": "usps_collection_boxes", "addr:city": "MC GREGOR", "addr:country": "US", "addr:full": "107 2ND ST", "addr:postcode": "52157", "addr:state": "IA", "amenity": "post_box", "brand": "United States Postal Service", "brand:wikidata": "Q668687", "collection_times": "Mo-Sa 16:15", "name": "USPS COLLECTION BOX - BLUE BOX", "note": "ON 12/24 AND 12/31, THIS BOX MAY BE COLLECTED AS EARLY AS 12 NOON.", "nsi_id": "unitedstatespostalservice-a77078", "operator": "United States Postal Service", "operator:short": "USPS", "operator:type": "public", "operator:wikidata": "Q668687", "ref": "5215700000"}, "type": "Feature"}
{"dataset_attributes": {"@spider": "usps_collection_boxes", "spider:collection_time": "2023-10-22T08:22:45.367372"}, "geometry": {"coordinates": [-91.175693937, 43.024112246], "type": "Point"}, "id": "-Wa7qUqib1A0tPq9VqUGwMlIhhE=", "properties": {"@spider": "usps_collection_boxes", "addr:city": "MC GREGOR", "addr:country": "US", "addr:full": "107 2ND ST", "addr:postcode": "52157", "addr:state": "IA", "amenity": "post_box", "brand": "United States Postal Service", "brand:wikidata": "Q668687", "collection_times": "Mo-Fr 15:15; Sa 08:45", "name": "USPS COLLECTION BOX - PO LOBBY", "note": "ON 12/24 AND 12/31, THIS BOX MAY BE COLLECTED AS EARLY AS 12 NOON.", "nsi_id": "unitedstatespostalservice-a77078", "operator": "United States Postal Service", "operator:short": "USPS", "operator:type": "public", "operator:wikidata": "Q668687", "ref": "5215700001"}, "type": "Feature"}
{"dataset_attributes": {"@spider": "usps_collection_boxes", "spider:collection_time": "2023-10-22T08:22:45.367372"}, "geometry": {"coordinates": [-91.175693937, 43.024112246], "type": "Point"}, "id": "0FBG3jMvLENWq6C0xBS6uv5pgcc=", "properties": {"@spider": "usps_collection_boxes", "addr:city": "MC GREGOR", "addr:country": "US", "addr:full": "107 2ND ST", "addr:postcode": "52157", "addr:state": "IA", "amenity": "post_box", "brand": "United States Postal Service", "brand:wikidata": "Q668687", "collection_times": "Mo-Fr 15:30; Sa 09:00", "name": "USPS COLLECTION BOX - PO LOBBY", "note": "ON 12/24 AND 12/31, THIS BOX MAY BE COLLECTED AS EARLY AS 12 NOON.", "nsi_id": "unitedstatespostalservice-a77078", "operator": "United States Postal Service", "operator:short": "USPS", "operator:type": "public", "operator:wikidata": "Q668687", "ref": "5215700002"}, "type": "Feature"}
{"dataset_attributes": {"@spider": "usps_collection_boxes", "spider:collection_time": "2023-10-22T08:22:45.367372"}, "geometry": {"coordinates": [-91.178863889, 43.045077519], "type": "Point"}, "id": "kWR1cEB9j8Y5rvUzuz-LwgwfQhY=", "properties": {"@spider": "usps_collection_boxes", "addr:city": "MARQUETTE", "addr:country": "US", "addr:full": "112 NORTH ST", "addr:postcode": "52158", "addr:state": "IA", "amenity": "post_box", "brand": "United States Postal Service", "brand:wikidata": "Q668687", "collection_times": "Mo-Sa 16:15", "name": "USPS COLLECTION BOX - BLUE BOX", "note": "ON 12/24 AND 12/31, THIS BOX MAY BE COLLECTED AS EARLY AS 12 NOON.", "nsi_id": "unitedstatespostalservice-a77078", "operator": "United States Postal Service", "operator:short": "USPS", "operator:type": "public", "operator:wikidata": "Q668687", "ref": "5215800000"}, "type": "Feature"}
{"dataset_attributes": {"@spider": "usps_collection_boxes", "spider:collection_time": "2023-10-22T08:22:45.367372"}, "geometry": {"coordinates": [-91.178863889, 43.045077519], "type": "Point"}, "id": "q2QHk4Vc7TxhMlz4hABXwetyH5A=", "properties": {"@spider": "usps_collection_boxes", "addr:city": "MARQUETTE", "addr:country": "US", "addr:full": "112 NORTH ST", "addr:postcode": "52158", "addr:state": "IA", "amenity": "post_box", "brand": "United States Postal Service", "brand:wikidata": "Q668687", "collection_times": "Mo-Fr 12:45", "name": "USPS COLLECTION BOX - PO LOBBY", "note": "ON 12/24 AND 12/31, THIS BOX MAY BE COLLECTED AS EARLY AS 12 NOON.", "nsi_id": "unitedstatespostalservice-a77078", "operator": "United States Postal Service", "operator:short": "USPS", "operator:type": "public", "operator:wikidata": "Q668687", "ref": "5215800001"}, "type": "Feature"}
{"dataset_attributes": {"@spider": "usps_collection_boxes", "spider:collection_time": "2023-10-22T08:22:45.367372"}, "geometry": {"coordinates": [-91.178863889, 43.045077519], "type": "Point"}, "id": "iJ6IA3vxsRDdwRPL7nvBOq0Irnk=", "properties": {"@spider": "usps_collection_boxes", "addr:city": "MARQUETTE", "addr:country": "US", "addr:full": "112 NORTH ST", "addr:postcode": "52158", "addr:state": "IA", "amenity": "post_box", "brand": "United States Postal Service", "brand:wikidata": "Q668687", "collection_times": "Mo-Fr 13:00; Sa 09:15", "name": "USPS COLLECTION BOX - PO LOBBY", "note": "ON 12/24 AND 12/31, THIS BOX MAY BE COLLECTED AS EARLY AS 12 NOON.", "nsi_id": "unitedstatespostalservice-a77078", "operator": "United States Postal Service", "operator:short": "USPS", "operator:type": "public", "operator:wikidata": "Q668687", "ref": "5215800002"}, "type": "Feature"}
{"dataset_attributes": {"@spider": "usps_collection_boxes", "spider:collection_time": "2023-10-22T08:22:45.367372"}, "geometry": {"coordinates": [-91.389843941, 43.052129329], "type": "Point"}, "id": "6-wnB4k3_-95_vG3lCqLFuVamlg=", "properties": {"@spider": "usps_collection_boxes", "addr:city": "MONONA", "addr:country": "US", "addr:full": "109 S MAIN ST", "addr:postcode": "52159", "addr:state": "IA", "amenity": "post_box", "brand": "United States Postal Service", "brand:wikidata": "Q668687", "collection_times": "Mo-Fr 16:00; Sa 16:45", "name": "USPS COLLECTION BOX - BLUE BOX", "note": "ON 12/24 AND 12/31, THIS BOX MAY BE COLLECTED AS EARLY AS 12 NOON.", "nsi_id": "unitedstatespostalservice-a77078", "operator": "United States Postal Service", "operator:short": "USPS", "operator:type": "public", "operator:wikidata": "Q668687", "ref": "5215900000"}, "type": "Feature"}
{"dataset_attributes": {"@spider": "usps_collection_boxes", "spider:collection_time": "2023-10-22T08:22:45.367372"}, "geometry": {"coordinates": [-91.389843941, 43.052129329], "type": "Point"}, "id": "6ZQ1AL9-BoDpZcShNocy5LAhcWA=", "properties": {"@spider": "usps_collection_boxes", "addr:city": "MONONA", "addr:country": "US", "addr:full": "109 S MAIN ST", "addr:postcode": "52159", "addr:state": "IA", "amenity": "post_box", "brand": "United States Postal Service", "brand:wikidata": "Q668687", "collection_times": "Mo-Fr 16:00; Sa 10:30", "name": "USPS COLLECTION BOX - PO LOBBY", "note": "ON 12/24 AND 12/31, THIS BOX MAY BE COLLECTED AS EARLY AS 12 NOON.", "nsi_id": "unitedstatespostalservice-a77078", "operator": "United States Postal Service", "operator:short": "USPS", "operator:type": "public", "operator:wikidata": "Q668687", "ref": "5215900001"}, "type": "Feature"}
{"dataset_attributes": {"@spider": "usps_collection_boxes", "spider:collection_time": "2023-10-22T08:22:45.367372"}, "geometry": {"coordinates": [-91.389843941, 43.052129329], "type": "Point"}, "id": "jzwV9rgLZc6MYcvvjsezfSZeppY=", "properties": {"@spider": "usps_collection_boxes", "addr:city": "MONONA", "addr:country": "US", "addr:full": "109 S MAIN ST", "addr:postcode": "52159", "addr:state": "IA", "amenity": "post_box", "brand": "United States Postal Service", "brand:wikidata": "Q668687", "collection_times": "Mo-Fr 16:30; Sa 10:30", "name": "USPS COLLECTION BOX - PO LOBBY", "note": "ON 12/24 AND 12/31, THIS BOX MAY BE COLLECTED AS EARLY AS 12 NOON.", "nsi_id": "unitedstatespostalservice-a77078", "operator": "United States Postal Service", "operator:short": "USPS", "operator:type": "public", "operator:wikidata": "Q668687", "ref": "5215900002"}, "type": "Feature"}
{"dataset_attributes": {"@spider": "usps_collection_boxes", "spider:collection_time": "2023-10-22T08:22:45.367372"}, "geometry": {"coordinates": [-91.288296054, 43.496843712], "type": "Point"}, "id": "7wFpIUVFdXRAWzO5tFFt_KBX1AI=", "properties": {"@spider": "usps_collection_boxes", "addr:city": "NEW ALBIN", "addr:country": "US", "addr:full": "190 MAIN ST NE", "addr:postcode": "52160", "addr:state": "IA", "amenity": "post_box", "brand": "United States Postal Service", "brand:wikidata": "Q668687", "collection_times": "Mo-Sa 16:00", "name": "USPS COLLECTION BOX - BLUE BOX", "note": "ON 12/24 AND 12/31, THIS BOX MAY BE COLLECTED AS EARLY AS 12 NOON.", "nsi_id": "unitedstatespostalservice-a77078", "operator": "United States Postal Service", "operator:short": "USPS", "operator:type": "public", "operator:wikidata": "Q668687", "ref": "5216000000"}, "type": "Feature"}
{"dataset_attributes": {"@spider": "usps_collection_boxes", "spider:collection_time": "2023-10-22T08:22:45.367372"}, "geometry": {"coordinates": [-91.288296054, 43.496843712], "type": "Point"}, "id": "rGLrpU8V9awDwhnYHCM0aXpfKvI=", "properties": {"@spider": "usps_collection_boxes", "addr:city": "NEW ALBIN", "addr:country": "US", "addr:full": "190 MAIN ST NE", "addr:postcode": "52160", "addr:state": "IA", "amenity": "post_box", "brand": "United States Postal Service", "brand:wikidata": "Q668687", "collection_times": "Mo-Fr 14:45; Sa 09:45", "name": "USPS COLLECTION BOX - PO LOBBY", "note": "ON 12/24 AND 12/31, THIS BOX MAY BE COLLECTED AS EARLY AS 12 NOON.", "nsi_id": "unitedstatespostalservice-a77078", "operator": "United States Postal Service", "operator:short": "USPS", "operator:type": "public", "operator:wikidata": "Q668687", "ref": "5216000001"}, "type": "Feature"}
{"dataset_attributes": {"@spider": "usps_collection_boxes", "spider:collection_time": "2023-10-22T08:22:45.367372"}, "geometry": {"coordinates": [-91.288296054, 43.496843712], "type": "Point"}, "id": "CwcPAcyQtHb9tLNq1wbsOng2POM=", "properties": {"@spider": "usps_collection_boxes", "addr:city": "NEW ALBIN", "addr:country": "US", "addr:full": "190 MAIN ST NE", "addr:postcode": "52160", "addr:state": "IA", "amenity": "post_box", "brand": "United States Postal Service", "brand:wikidata": "Q668687", "collection_times": "Mo-Fr 15:00; Sa 10:00", "name": "USPS COLLECTION BOX - PO LOBBY", "note": "ON 12/24 AND 12/31, THIS BOX MAY BE COLLECTED AS EARLY AS 12 NOON.", "nsi_id": "unitedstatespostalservice-a77078", "operator": "United States Postal Service", "operator:short": "USPS", "operator:type": "public", "operator:wikidata": "Q668687", "ref": "5216000002"}, "type": "Feature"}
{"dataset_attributes": {"@spider": "usps_collection_boxes", "spider:collection_time": "2023-10-22T08:22:45.367372"}, "geometry": {"coordinates": [-91.762869535, 43.144967276], "type": "Point"}, "id": "Gg_lkKLc3bXXk_z2IvWXgaE3otA=", "properties": {"@spider": "usps_collection_boxes", "addr:city": "OSSIAN", "addr:country": "US", "addr:full": "200 E MAIN ST", "addr:postcode": "52161", "addr:state": "IA", "amenity": "post_box", "brand": "United States Postal Service", "brand:wikidata": "Q668687", "collection_times": "Mo-Fr 16:00; Sa 16:30", "name": "USPS COLLECTION BOX - BLUE BOX", "note": "ON 12/24 AND 12/31, THIS BOX MAY BE COLLECTED AS EARLY AS 12 NOON.", "nsi_id": "unitedstatespostalservice-a77078", "operator": "United States Postal Service", "operator:short": "USPS", "operator:type": "public", "operator:wikidata": "Q668687", "ref": "5216100000"}, "type": "Feature"}
{"dataset_attributes": {"@spider": "usps_collection_boxes", "spider:collection_time": "2023-10-22T08:22:45.367372"}, "geometry": {"coordinates": [-91.762869535, 43.144967276], "type": "Point"}, "id": "qEH3dG84W1wWr3uxGZrUgfScNqQ=", "properties": {"@spider": "usps_collection_boxes", "addr:city": "OSSIAN", "addr:country": "US", "addr:full": "200 E MAIN ST", "addr:postcode": "52161", "addr:state": "IA", "amenity": "post_box", "brand": "United States Postal Service", "brand:wikidata": "Q668687", "collection_times": "Mo-Fr 14:45; Sa 09:30", "name": "USPS COLLECTION BOX - PO LOBBY", "note": "ON 12/24 AND 12/31, THIS BOX MAY BE COLLECTED AS EARLY AS 12 NOON.", "nsi_id": "unitedstatespostalservice-a77078", "operator": "United States Postal Service", "operator:short": "USPS", "operator:type": "public", "operator:wikidata": "Q668687", "ref": "5216100001"}, "type": "Feature"}
{"dataset_attributes": {"@spider": "usps_collection_boxes", "spider:collection_time": "2023-10-22T08:22:45.367372"}, "geometry": {"coordinates": [-91.762869535, 43.144967276], "type": "Point"}, "id": "okLa7zqt6fd9NVs6lzHLg9kdpaI=", "properties": {"@spider": "usps_collection_boxes", "addr:city": "OSSIAN", "addr:country": "US", "addr:full": "200 E MAIN ST", "addr:postcode": "52161", "addr:state": "IA", "amenity": "post_box", "brand": "United States Postal Service", "brand:wikidata": "Q668687", "collection_times": "Mo-Fr 15:00; Sa 09:45", "name": "USPS COLLECTION BOX - PO LOBBY", "note": "ON 12/24 AND 12/31, THIS BOX MAY BE COLLECTED AS EARLY AS 12 NOON.", "nsi_id": "unitedstatespostalservice-a77078", "operator": "United States Postal Service", "operator:short": "USPS", "operator:type": "public", "operator:wikidata": "Q668687", "ref": "5216100002"}, "type": "Feature"}
{"dataset_attributes": {"@spider": "usps_collection_boxes", "spider:collection_time": "2023-10-22T08:22:45.367372"}, "geometry": {"coordinates": [-91.569672, 43.084521547], "type": "Point"}, "id": "q3D2hP4U2I01eP9gABXf-lE3bks=", "properties": {"@spider": "usps_collection_boxes", "addr:city": "POSTVILLE", "addr:country": "US", "addr:full": "146 W TILDEN ST", "addr:postcode": "52162", "addr:state": "IA", "amenity": "post_box", "brand": "United States Postal Service", "brand:wikidata": "Q668687", "collection_times": "Mo-Fr 16:30; Sa 17:00", "name": "USPS COLLECTION BOX - BLUE BOX", "note": "ON 12/24 AND 12/31, THIS BOX MAY BE COLLECTED AS EARLY AS 12 NOON.", "nsi_id": "unitedstatespostalservice-a77078", "operator": "United States Postal Service", "operator:short": "USPS", "operator:type": "public", "operator:wikidata": "Q668687", "ref": "5216200000"}, "type": "Feature"}
{"dataset_attributes": {"@spider": "usps_collection_boxes", "spider:collection_time": "2023-10-22T08:22:45.367372"}, "geometry": {"coordinates": [-91.569672, 43.084521547], "type": "Point"}, "id": "2Uos8enYs0OQPqJjDL4RW-yqYdw=", "properties": {"@spider": "usps_collection_boxes", "addr:city": "POSTVILLE", "addr:country": "US", "addr:full": "146 W TILDEN ST", "addr:postcode": "52162", "addr:state": "IA", "amenity": "post_box", "brand": "United States Postal Service", "brand:wikidata": "Q668687", "collection_times": "Mo-Fr 16:30; Sa 10:00", "name": "USPS COLLECTION BOX - PO LOBBY", "note": "ON 12/24 AND 12/31, THIS BOX MAY BE COLLECTED AS EARLY AS 12 NOON.", "nsi_id": "unitedstatespostalservice-a77078", "operator": "United States Postal Service", "operator:short": "USPS", "operator:type": "public", "operator:wikidata": "Q668687", "ref": "5216200002"}, "type": "Feature"}
{"dataset_attributes": {"@spider": "usps_collection_boxes", "spider:collection_time": "2023-10-22T08:22:45.367372"}, "geometry": {"coordinates": [-91.569672, 43.084521547], "type": "Point"}, "id": "DUXmnXAr2TbhN6rOgzsClS0GxTE=", "properties": {"@spider": "usps_collection_boxes", "addr:city": "POSTVILLE", "addr:country": "US", "addr:full": "146 W TILDEN ST", "addr:postcode": "52162", "addr:state": "IA", "amenity": "post_box", "brand": "United States Postal Service", "brand:wikidata": "Q668687", "collection_times": "Mo-Fr 16:45; Sa 10:00", "name": "USPS COLLECTION BOX - PO LOBBY", "note": "ON 12/24 AND 12/31, THIS BOX MAY BE COLLECTED AS EARLY AS 12 NOON.", "nsi_id": "unitedstatespostalservice-a77078", "operator": "United States Postal Service", "operator:short": "USPS", "operator:type": "public", "operator:wikidata": "Q668687", "ref": "5216200003"}, "type": "Feature"}
{"dataset_attributes": {"@spider": "usps_collection_boxes", "spider:collection_time": "2023-10-22T08:22:45.367372"}, "geometry": {"coordinates": [-92.090826398, 43.215398832], "type": "Point"}, "id": "hIrbHce21lQ0glal7tzvOXCGhfU=", "properties": {"@spider": "usps_collection_boxes", "addr:city": "PROTIVIN", "addr:country": "US", "addr:full": "221 S MAIN ST", "addr:postcode": "52163", "addr:state": "IA", "amenity": "post_box", "brand": "United States Postal Service", "brand:wikidata": "Q668687", "collection_times": "Mo-Sa 16:15", "name": "USPS COLLECTION BOX - BLUE BOX", "note": "ON 12/24 AND 12/31, THIS BOX MAY BE COLLECTED AS EARLY AS 12 NOON.", "nsi_id": "unitedstatespostalservice-a77078", "operator": "United States Postal Service", "operator:short": "USPS", "operator:type": "public", "operator:wikidata": "Q668687", "ref": "5216300000"}, "type": "Feature"}
{"dataset_attributes": {"@spider": "usps_collection_boxes", "spider:collection_time": "2023-10-22T08:22:45.367372"}, "geometry": {"coordinates": [-92.090826398, 43.215398832], "type": "Point"}, "id": "CT9GMGeT0Z5RZUTZImJFnYUdktU=", "properties": {"@spider": "usps_collection_boxes", "addr:city": "PROTIVIN", "addr:country": "US", "addr:full": "221 S MAIN ST", "addr:postcode": "52163", "addr:state": "IA", "amenity": "post_box", "brand": "United States Postal Service", "brand:wikidata": "Q668687", "collection_times": "Mo-Fr 12:45", "name": "USPS COLLECTION BOX - PO LOBBY", "note": "ON 12/24 AND 12/31, THIS BOX MAY BE COLLECTED AS EARLY AS 12 NOON.", "nsi_id": "unitedstatespostalservice-a77078", "operator": "United States Postal Service", "operator:short": "USPS", "operator:type": "public", "operator:wikidata": "Q668687", "ref": "5216300001"}, "type": "Feature"}
{"dataset_attributes": {"@spider": "usps_collection_boxes", "spider:collection_time": "2023-10-22T08:22:45.367372"}, "geometry": {"coordinates": [-92.090826398, 43.215398832], "type": "Point"}, "id": "qMd8uY-PWGBVQxhWu-gPl2BYaAg=", "properties": {"@spider": "usps_collection_boxes", "addr:city": "PROTIVIN", "addr:country": "US", "addr:full": "221 S MAIN ST", "addr:postcode": "52163", "addr:state": "IA", "amenity": "post_box", "brand": "United States Postal Service", "brand:wikidata": "Q668687", "collection_times": "Mo-Fr 13:00; Sa 09:45", "name": "USPS COLLECTION BOX - PO LOBBY", "note": "ON 12/24 AND 12/31, THIS BOX MAY BE COLLECTED AS EARLY AS 12 NOON.", "nsi_id": "unitedstatespostalservice-a77078", "operator": "United States Postal Service", "operator:short": "USPS", "operator:type": "public", "operator:wikidata": "Q668687", "ref": "5216300002"}, "type": "Feature"}
{"dataset_attributes": {"@spider": "usps_collection_boxes", "spider:collection_time": "2023-10-22T08:22:45.367372"}, "geometry": {"coordinates": [-91.98938695, 43.296593684], "type": "Point"}, "id": "G0ffAuEmty7b1ULJROYhNwrI65I=", "properties": {"@spider": "usps_collection_boxes", "addr:city": "RIDGEWAY", "addr:country": "US", "addr:full": "635 RAILROAD ST", "addr:postcode": "52165", "addr:state": "IA", "amenity": "post_box", "brand": "United States Postal Service", "brand:wikidata": "Q668687", "collection_times": "Mo-Fr 12:15; Sa 10:00", "name": "USPS COLLECTION BOX - PO LOBBY", "note": "ON 12/24 AND 12/31, THIS BOX MAY BE COLLECTED AS EARLY AS 12 NOON.", "nsi_id": "unitedstatespostalservice-a77078", "operator": "United States Postal Service", "operator:short": "USPS", "operator:type": "public", "operator:wikidata": "Q668687", "ref": "5216500001"}, "type": "Feature"}
{"dataset_attributes": {"@spider": "usps_collection_boxes", "spider:collection_time": "2023-10-22T08:22:45.367372"}, "geometry": {"coordinates": [-91.98938695, 43.296593684], "type": "Point"}, "id": "6IBSBocoCS89ui6nkmu6WZuWfp4=", "properties": {"@spider": "usps_collection_boxes", "addr:city": "RIDGEWAY", "addr:country": "US", "addr:full": "635 RAILROAD ST", "addr:postcode": "52165", "addr:state": "IA", "amenity": "post_box", "brand": "United States Postal Service", "brand:wikidata": "Q668687", "collection_times": "Mo-Fr 15:45; Sa 16:00", "name": "USPS COLLECTION BOX - BLUE BOX", "note": "ON 12/24 AND 12/31, THIS BOX MAY BE COLLECTED AS EARLY AS 12 NOON.", "nsi_id": "unitedstatespostalservice-a77078", "operator": "United States Postal Service", "operator:short": "USPS", "operator:type": "public", "operator:wikidata": "Q668687", "ref": "5216500002"}, "type": "Feature"}
{"dataset_attributes": {"@spider": "usps_collection_boxes", "spider:collection_time": "2023-10-22T08:22:45.367372"}, "geometry": {"coordinates": [-91.98938695, 43.296593684], "type": "Point"}, "id": "kJ1ynmJIRARMK54OiWsB5DPhgr0=", "properties": {"@spider": "usps_collection_boxes", "addr:city": "RIDGEWAY", "addr:country": "US", "addr:full": "635 RAILROAD ST", "addr:postcode": "52165", "addr:state": "IA", "amenity": "post_box", "brand": "United States Postal Service", "brand:wikidata": "Q668687", "collection_times": "Mo-Fr 12:30; Sa 10:15", "name": "USPS COLLECTION BOX - PO LOBBY", "note": "ON 12/24 AND 12/31, THIS BOX MAY BE COLLECTED AS EARLY AS 12 NOON.", "nsi_id": "unitedstatespostalservice-a77078", "operator": "United States Postal Service", "operator:short": "USPS", "operator:type": "public", "operator:wikidata": "Q668687", "ref": "5216500003"}, "type": "Feature"}
{"dataset_attributes": {"@spider": "usps_collection_boxes", "spider:collection_time": "2023-10-22T08:22:45.367372"}, "geometry": {"coordinates": [-91.933233372, 43.065972974], "type": "Point"}, "id": "sZrjZE2lEgqMr6zVfoMp2ci1hWA=", "properties": {"@spider": "usps_collection_boxes", "addr:city": "ST LUCAS", "addr:country": "US", "addr:full": "106 S MAIN ST", "addr:postcode": "52166", "addr:state": "IA", "amenity": "post_box", "brand": "United States Postal Service", "brand:wikidata": "Q668687", "collection_times": "Mo-Fr 16:15; Sa 16:00", "name": "USPS COLLECTION BOX - BLUE BOX", "note": "ON 12/24 AND 12/31, THIS BOX MAY BE COLLECTED AS EARLY AS 12 NOON.", "nsi_id": "unitedstatespostalservice-a77078", "operator": "United States Postal Service", "operator:short": "USPS", "operator:type": "public", "operator:wikidata": "Q668687", "ref": "5216600000"}, "type": "Feature"}
{"dataset_attributes": {"@spider": "usps_collection_boxes", "spider:collection_time": "2023-10-22T08:22:45.367372"}, "geometry": {"coordinates": [-91.933233372, 43.065972974], "type": "Point"}, "id": "EboUajCDT4pLkaRyxbk06kc10ns=", "properties": {"@spider": "usps_collection_boxes", "addr:city": "ST LUCAS", "addr:country": "US", "addr:full": "106 S MAIN ST", "addr:postcode": "52166", "addr:state": "IA", "amenity": "post_box", "brand": "United States Postal Service", "brand:wikidata": "Q668687", "collection_times": "Mo-Fr 16:15", "name": "USPS COLLECTION BOX - PO LOBBY", "note": "ON 12/24 AND 12/31, THIS BOX MAY BE COLLECTED AS EARLY AS 12 NOON.", "nsi_id": "unitedstatespostalservice-a77078", "operator": "United States Postal Service", "operator:short": "USPS", "operator:type": "public", "operator:wikidata": "Q668687", "ref": "5216600001"}, "type": "Feature"}
{"dataset_attributes": {"@spider": "usps_collection_boxes", "spider:collection_time": "2023-10-22T08:22:45.367372"}, "geometry": {"coordinates": [-91.933233372, 43.065972974], "type": "Point"}, "id": "VJnAUtUYbmATXBKrwHIwKdlmAx4=", "properties": {"@spider": "usps_collection_boxes", "addr:city": "ST LUCAS", "addr:country": "US", "addr:full": "106 S MAIN ST", "addr:postcode": "52166", "addr:state": "IA", "amenity": "post_box", "brand": "United States Postal Service", "brand:wikidata": "Q668687", "collection_times": "Mo-Fr 16:15; Sa 10:15", "name": "USPS COLLECTION BOX - PO LOBBY", "note": "ON 12/24 AND 12/31, THIS BOX MAY BE COLLECTED AS EARLY AS 12 NOON.", "nsi_id": "unitedstatespostalservice-a77078", "operator": "United States Postal Service", "operator:short": "USPS", "operator:type": "public", "operator:wikidata": "Q668687", "ref": "5216600002"}, "type": "Feature"}
{"dataset_attributes": {"@spider": "usps_collection_boxes", "spider:collection_time": "2023-10-22T08:22:45.367372"}, "geometry": {"coordinates": [-91.951068346, 43.203083231], "type": "Point"}, "id": "r87Y3GcFJnymq4f1M5zLhZ1hOhQ=", "properties": {"@spider": "usps_collection_boxes", "addr:city": "SPILLVILLE", "addr:country": "US", "addr:full": "211 S MAIN ST", "addr:postcode": "52168", "addr:state": "IA", "amenity": "post_box", "brand": "United States Postal Service", "brand:wikidata": "Q668687", "collection_times": "Mo-Fr 15:30; Sa 17:00", "name": "USPS COLLECTION BOX - BLUE BOX", "note": "ON 12/24 AND 12/31, THIS BOX MAY BE COLLECTED AS EARLY AS 12 NOON.", "nsi_id": "unitedstatespostalservice-a77078", "operator": "United States Postal Service", "operator:short": "USPS", "operator:type": "public", "operator:wikidata": "Q668687", "ref": "5216800000"}, "type": "Feature"}
{"dataset_attributes": {"@spider": "usps_collection_boxes", "spider:collection_time": "2023-10-22T08:22:45.367372"}, "geometry": {"coordinates": [-91.951068346, 43.203083231], "type": "Point"}, "id": "wK8sw0bznMNaPSKhjrLGJvwmBds=", "properties": {"@spider": "usps_collection_boxes", "addr:city": "SPILLVILLE", "addr:country": "US", "addr:full": "211 S MAIN ST", "addr:postcode": "52168", "addr:state": "IA", "amenity": "post_box", "brand": "United States Postal Service", "brand:wikidata": "Q668687", "collection_times": "Mo-Fr 11:15; Sa 08:15", "name": "USPS COLLECTION BOX - PO LOBBY", "nsi_id": "unitedstatespostalservice-a77078", "operator": "United States Postal Service", "operator:short": "USPS", "operator:type": "public", "operator:wikidata": "Q668687", "ref": "5216800001"}, "type": "Feature"}
{"dataset_attributes": {"@spider": "usps_collection_boxes", "spider:collection_time": "2023-10-22T08:22:45.367372"}, "geometry": {"coordinates": [-91.951068346, 43.203083231], "type": "Point"}, "id": "ofaV8IagUeBTuC3ZgWCsL-9ooo0=", "properties": {"@spider": "usps_collection_boxes", "addr:city": "SPILLVILLE", "addr:country": "US", "addr:full": "211 S MAIN ST", "addr:postcode": "52168", "addr:state": "IA", "amenity": "post_box", "brand": "United States Postal Service", "brand:wikidata": "Q668687", "collection_times": "Mo-Fr 11:30; Sa 08:30", "name": "USPS COLLECTION BOX - PO LOBBY", "nsi_id": "unitedstatespostalservice-a77078", "operator": "United States Postal Service", "operator:short": "USPS", "operator:type": "public", "operator:wikidata": "Q668687", "ref": "5216800002"}, "type": "Feature"}
{"dataset_attributes": {"@spider": "usps_collection_boxes", "spider:collection_time": "2023-10-22T08:22:45.367372"}, "geometry": {"coordinates": [-91.656612388, 42.839680515], "type": "Point"}, "id": "PYErpTPJ9nP60YlF3p4jYVWm6l0=", "properties": {"@spider": "usps_collection_boxes", "addr:city": "WADENA", "addr:country": "US", "addr:full": "124 E 2ND AVE", "addr:postcode": "52169", "addr:state": "IA", "amenity": "post_box", "brand": "United States Postal Service", "brand:wikidata": "Q668687", "collection_times": "Mo-Sa 16:30", "name": "USPS COLLECTION BOX - BLUE BOX", "note": "ON 12/24 AND 12/31, THIS BOX MAY BE COLLECTED AS EARLY AS 12 NOON.", "nsi_id": "unitedstatespostalservice-a77078", "operator": "United States Postal Service", "operator:short": "USPS", "operator:type": "public", "operator:wikidata": "Q668687", "ref": "5216900000"}, "type": "Feature"}
{"dataset_attributes": {"@spider": "usps_collection_boxes", "spider:collection_time": "2023-10-22T08:22:45.367372"}, "geometry": {"coordinates": [-91.656612388, 42.839680515], "type": "Point"}, "id": "5xrqMVNZ1UTCcGmm9FobZtLFGr8=", "properties": {"@spider": "usps_collection_boxes", "addr:city": "WADENA", "addr:country": "US", "addr:full": "124 E 2ND AVE", "addr:postcode": "52169", "addr:state": "IA", "amenity": "post_box", "brand": "United States Postal Service", "brand:wikidata": "Q668687", "collection_times": "Mo-Fr 12:45", "name": "USPS COLLECTION BOX - PO LOBBY", "note": "ON 12/24 AND 12/31, THIS BOX MAY BE COLLECTED AS EARLY AS 12 NOON.", "nsi_id": "unitedstatespostalservice-a77078", "operator": "United States Postal Service", "operator:short": "USPS", "operator:type": "public", "operator:wikidata": "Q668687", "ref": "5216900001"}, "type": "Feature"}
{"dataset_attributes": {"@spider": "usps_collection_boxes", "spider:collection_time": "2023-10-22T08:22:45.367372"}, "geometry": {"coordinates": [-91.656612388, 42.839680515], "type": "Point"}, "id": "2_HXkYN0SCiurZWPwuoMfgDgqlE=", "properties": {"@spider": "usps_collection_boxes", "addr:city": "WADENA", "addr:country": "US", "addr:full": "124 E 2ND AVE", "addr:postcode": "52169", "addr:state": "IA", "amenity": "post_box", "brand": "United States Postal Service", "brand:wikidata": "Q668687", "collection_times": "Mo-Fr 13:00; Sa 10:15", "name": "USPS COLLECTION BOX - PO LOBBY", "note": "ON 12/24 AND 12/31, THIS BOX MAY BE COLLECTED AS EARLY AS 12 NOON.", "nsi_id": "unitedstatespostalservice-a77078", "operator": "United States Postal Service", "operator:short": "USPS", "operator:type": "public", "operator:wikidata": "Q668687", "ref": "5216900002"}, "type": "Feature"}
{"dataset_attributes": {"@spider": "usps_collection_boxes", "spider:collection_time": "2023-10-22T08:22:45.367372"}, "geometry": {"coordinates": [-92.035521762, 43.055893876], "type": "Point"}, "id": "YGdWvGFmWi5qzqsh9dOPqQEdntY=", "properties": {"@spider": "usps_collection_boxes", "addr:city": "WAUCOMA", "addr:country": "US", "addr:full": "106 RIVERVIEW DR", "addr:postcode": "52171", "addr:state": "IA", "amenity": "post_box", "brand": "United States Postal Service", "brand:wikidata": "Q668687", "collection_times": "Mo-Sa 16:00", "name": "USPS COLLECTION BOX - BLUE BOX", "note": "ON 12/24 AND 12/31, THIS BOX MAY BE COLLECTED AS EARLY AS 12 NOON.", "nsi_id": "unitedstatespostalservice-a77078", "operator": "United States Postal Service", "operator:short": "USPS", "operator:type": "public", "operator:wikidata": "Q668687", "ref": "5217100000"}, "type": "Feature"}
{"dataset_attributes": {"@spider": "usps_collection_boxes", "spider:collection_time": "2023-10-22T08:22:45.367372"}, "geometry": {"coordinates": [-92.035521762, 43.055893876], "type": "Point"}, "id": "KoDmFY_cykTYwP3vyy6BCS5EoMA=", "properties": {"@spider": "usps_collection_boxes", "addr:city": "WAUCOMA", "addr:country": "US", "addr:full": "106 RIVERVIEW DR", "addr:postcode": "52171", "addr:state": "IA", "amenity": "post_box", "brand": "United States Postal Service", "brand:wikidata": "Q668687", "collection_times": "Mo-Fr 11:15", "name": "USPS COLLECTION BOX - PO LOBBY", "nsi_id": "unitedstatespostalservice-a77078", "operator": "United States Postal Service", "operator:short": "USPS", "operator:type": "public", "operator:wikidata": "Q668687", "ref": "5217100001"}, "type": "Feature"}
{"dataset_attributes": {"@spider": "usps_collection_boxes", "spider:collection_time": "2023-10-22T08:22:45.367372"}, "geometry": {"coordinates": [-92.035521762, 43.055893876], "type": "Point"}, "id": "IJ89tZRvnx48jv6TlIw_sQn8OIE=", "properties": {"@spider": "usps_collection_boxes", "addr:city": "WAUCOMA", "addr:country": "US", "addr:full": "106 RIVERVIEW DR", "addr:postcode": "52171", "addr:state": "IA", "amenity": "post_box", "brand": "United States Postal Service", "brand:wikidata": "Q668687", "collection_times": "Mo-Fr 11:30; Sa 08:45", "name": "USPS COLLECTION BOX - PO LOBBY", "nsi_id": "unitedstatespostalservice-a77078", "operator": "United States Postal Service", "operator:short": "USPS", "operator:type": "public", "operator:wikidata": "Q668687", "ref": "5217100002"}, "type": "Feature"}
{"dataset_attributes": {"@spider": "usps_collection_boxes", "spider:collection_time": "2023-10-22T08:22:45.367372"}, "geometry": {"coordinates": [-91.478421, 43.269303519], "type": "Point"}, "id": "G9rpgWjXlJI6-wEtdV-KsfBv_-Q=", "properties": {"@spider": "usps_collection_boxes", "addr:city": "WAUKON", "addr:country": "US", "addr:full": "113 W MAIN ST", "addr:postcode": "52172", "addr:state": "IA", "amenity": "post_box", "brand": "United States Postal Service", "brand:wikidata": "Q668687", "collection_times": "Mo-Fr 16:30; Sa 10:00", "name": "USPS COLLECTION BOX - PO LOBBY", "note": "ON 12/24 AND 12/31, THIS BOX MAY BE COLLECTED AS EARLY AS 12 NOON.", "nsi_id": "unitedstatespostalservice-a77078", "operator": "United States Postal Service", "operator:short": "USPS", "operator:type": "public", "operator:wikidata": "Q668687", "ref": "5217200000"}, "type": "Feature"}
{"dataset_attributes": {"@spider": "usps_collection_boxes", "spider:collection_time": "2023-10-22T08:22:45.367372"}, "geometry": {"coordinates": [-91.478707055, 43.26940649], "type": "Point"}, "id": "rb0FxqJ8V6yDVgNAWqE2Eq5fpm8=", "properties": {"@spider": "usps_collection_boxes", "addr:city": "WAUKON", "addr:country": "US", "addr:full": "11 2ND ST NW", "addr:postcode": "52172", "addr:state": "IA", "amenity": "post_box", "brand": "United States Postal Service", "brand:wikidata": "Q668687", "collection_times": "Mo-Fr 16:30; Sa 17:15", "name": "USPS COLLECTION BOX - BLUE BOX", "note": "ON 12/24 AND 12/31, THIS BOX MAY BE COLLECTED AS EARLY AS 12 NOON.", "nsi_id": "unitedstatespostalservice-a77078", "operator": "United States Postal Service", "operator:short": "USPS", "operator:type": "public", "operator:wikidata": "Q668687", "ref": "5217200001"}, "type": "Feature"}
{"dataset_attributes": {"@spider": "usps_collection_boxes", "spider:collection_time": "2023-10-22T08:22:45.367372"}, "geometry": {"coordinates": [-91.475619235, 43.270587], "type": "Point"}, "id": "U-2K8Yqu8_HXHRMkbEXnyeylBC4=", "properties": {"@spider": "usps_collection_boxes", "addr:city": "WAUKON", "addr:country": "US", "addr:full": "110 ALLAMAKEE ST", "addr:postcode": "52172", "addr:state": "IA", "amenity": "post_box", "brand": "United States Postal Service", "brand:wikidata": "Q668687", "collection_times": "Mo-Fr 14:00", "name": "USPS COLLECTION BOX - BLUE BOX", "note": "ON 12/24 AND 12/31, THIS BOX MAY BE COLLECTED AS EARLY AS 12 NOON.", "nsi_id": "unitedstatespostalservice-a77078", "operator": "United States Postal Service", "operator:short": "USPS", "operator:type": "public", "operator:wikidata": "Q668687", "ref": "5217200002"}, "type": "Feature"}
{"dataset_attributes": {"@spider": "usps_collection_boxes", "spider:collection_time": "2023-10-22T08:22:45.367372"}, "geometry": {"coordinates": [-91.478707055, 43.26940649], "type": "Point"}, "id": "z_5UZDQ0LbJD2N_BV6K82KFLJ88=", "properties": {"@spider": "usps_collection_boxes", "addr:city": "WAUKON", "addr:country": "US", "addr:full": "11 2ND ST NW", "addr:postcode": "52172", "addr:state": "IA", "amenity": "post_box", "brand": "United States Postal Service", "brand:wikidata": "Q668687", "collection_times": "Mo-Fr 16:30; Sa 17:15", "name": "USPS COLLECTION BOX - BLUE BOX", "note": "ON 12/24 AND 12/31, THIS BOX MAY BE COLLECTED AS EARLY AS 12 NOON.", "nsi_id": "unitedstatespostalservice-a77078", "operator": "United States Postal Service", "operator:short": "USPS", "operator:type": "public", "operator:wikidata": "Q668687", "ref": "5217200004"}, "type": "Feature"}
{"dataset_attributes": {"@spider": "usps_collection_boxes", "spider:collection_time": "2023-10-22T08:22:45.367372"}, "geometry": {"coordinates": [-91.478421, 43.269303519], "type": "Point"}, "id": "amNtmhqAR-xkQX23-SXaOL-rOhI=", "properties": {"@spider": "usps_collection_boxes", "addr:city": "WAUKON", "addr:country": "US", "addr:full": "113 W MAIN ST", "addr:postcode": "52172", "addr:state": "IA", "amenity": "post_box", "brand": "United States Postal Service", "brand:wikidata": "Q668687", "collection_times": "Mo-Fr 16:30", "name": "USPS COLLECTION BOX - PO LOBBY", "note": "ON 12/24 AND 12/31, THIS BOX MAY BE COLLECTED AS EARLY AS 12 NOON.", "nsi_id": "unitedstatespostalservice-a77078", "operator": "United States Postal Service", "operator:short": "USPS", "operator:type": "public", "operator:wikidata": "Q668687", "ref": "5217200005"}, "type": "Feature"}
{"dataset_attributes": {"@spider": "usps_collection_boxes", "spider:collection_time": "2023-10-22T08:22:45.367372"}, "geometry": {"coordinates": [-91.814423993, 42.964308395], "type": "Point"}, "id": "1_29hNsx_CPERGp0MKl038FtoJ0=", "properties": {"@spider": "usps_collection_boxes", "addr:city": "WEST UNION", "addr:country": "US", "addr:full": "303 HIGHWAY 150 N", "addr:postcode": "52175", "addr:state": "IA", "amenity": "post_box", "brand": "United States Postal Service", "brand:wikidata": "Q668687", "collection_times": "Mo-Sa 11:00", "name": "USPS COLLECTION BOX - BLUE BOX", "nsi_id": "unitedstatespostalservice-a77078", "operator": "United States Postal Service", "operator:short": "USPS", "operator:type": "public", "operator:wikidata": "Q668687", "ref": "5217500001"}, "type": "Feature"}
{"dataset_attributes": {"@spider": "usps_collection_boxes", "spider:collection_time": "2023-10-22T08:22:45.367372"}, "geometry": {"coordinates": [-91.808122941, 42.961463864], "type": "Point"}, "id": "D18estGH6-GTYxwi-78KODiNpSI=", "properties": {"@spider": "usps_collection_boxes", "addr:city": "WEST UNION", "addr:country": "US", "addr:full": "114 N VINE ST", "addr:postcode": "52175", "addr:state": "IA", "amenity": "post_box", "brand": "United States Postal Service", "brand:wikidata": "Q668687", "collection_times": "Mo-Fr 14:00", "name": "USPS COLLECTION BOX - BLUE BOX", "note": "ON 12/24 AND 12/31, THIS BOX MAY BE COLLECTED AS EARLY AS 12 NOON.", "nsi_id": "unitedstatespostalservice-a77078", "operator": "United States Postal Service", "operator:short": "USPS", "operator:type": "public", "operator:wikidata": "Q668687", "ref": "5217500002"}, "type": "Feature"}
{"dataset_attributes": {"@spider": "usps_collection_boxes", "spider:collection_time": "2023-10-22T08:22:45.367372"}, "geometry": {"coordinates": [-91.808238559, 42.963471639], "type": "Point"}, "id": "fqp0YYn0haLKKqmHYuaTeK-llxk=", "properties": {"@spider": "usps_collection_boxes", "addr:city": "WEST UNION", "addr:country": "US", "addr:full": "211 N VINE ST", "addr:postcode": "52175", "addr:state": "IA", "amenity": "post_box", "brand": "United States Postal Service", "brand:wikidata": "Q668687", "collection_times": "Mo-Sa 16:45", "name": "USPS COLLECTION BOX - BLUE BOX", "note": "ON 12/24 AND 12/31, THIS BOX MAY BE COLLECTED AS EARLY AS 12 NOON.", "nsi_id": "unitedstatespostalservice-a77078", "operator": "United States Postal Service", "operator:short": "USPS", "operator:type": "public", "operator:wikidata": "Q668687", "ref": "5217500004"}, "type": "Feature"}
{"dataset_attributes": {"@spider": "usps_collection_boxes", "spider:collection_time": "2023-10-22T08:22:45.367372"}, "geometry": {"coordinates": [-91.808238559, 42.963471639], "type": "Point"}, "id": "YEYwCdpDyesB6WuwAidJtQtyQdY=", "properties": {"@spider": "usps_collection_boxes", "addr:city": "WEST UNION", "addr:country": "US", "addr:full": "211 N VINE ST", "addr:postcode": "52175", "addr:state": "IA", "amenity": "post_box", "brand": "United States Postal Service", "brand:wikidata": "Q668687", "collection_times": "Mo-Sa 16:45", "name": "USPS COLLECTION BOX - BLUE BOX", "note": "ON 12/24 AND 12/31, THIS BOX MAY BE COLLECTED AS EARLY AS 12 NOON.", "nsi_id": "unitedstatespostalservice-a77078", "operator": "United States Postal Service", "operator:short": "USPS", "operator:type": "public", "operator:wikidata": "Q668687", "ref": "5217500005"}, "type": "Feature"}
{"dataset_attributes": {"@spider": "usps_collection_boxes", "spider:collection_time": "2023-10-22T08:22:45.367372"}, "geometry": {"coordinates": [-91.808238559, 42.963471639], "type": "Point"}, "id": "G98mFY_WDvEdDphhhrxUYdvmQzI=", "properties": {"@spider": "usps_collection_boxes", "addr:city": "WEST UNION", "addr:country": "US", "addr:full": "211 N VINE ST", "addr:postcode": "52175", "addr:state": "IA", "amenity": "post_box", "brand": "United States Postal Service", "brand:wikidata": "Q668687", "collection_times": "Mo-Fr 16:45; Sa 10:30", "name": "USPS COLLECTION BOX - PO LOBBY", "note": "ON 12/24 AND 12/31, THIS BOX MAY BE COLLECTED AS EARLY AS 12 NOON.", "nsi_id": "unitedstatespostalservice-a77078", "operator": "United States Postal Service", "operator:short": "USPS", "operator:type": "public", "operator:wikidata": "Q668687", "ref": "5217500006"}, "type": "Feature"}
{"dataset_attributes": {"@spider": "usps_collection_boxes", "spider:collection_time": "2023-10-22T08:22:45.367372"}, "geometry": {"coordinates": [-91.808238559, 42.963471639], "type": "Point"}, "id": "vu4nnufj9F4Fk2C31ZdQ6lMghKA=", "properties": {"@spider": "usps_collection_boxes", "addr:city": "WEST UNION", "addr:country": "US", "addr:full": "211 N VINE ST", "addr:postcode": "52175", "addr:state": "IA", "amenity": "post_box", "brand": "United States Postal Service", "brand:wikidata": "Q668687", "collection_times": "Mo-Fr 17:00; Sa 10:30", "name": "USPS COLLECTION BOX - PO LOBBY", "note": "ON 12/24 AND 12/31, THIS BOX MAY BE COLLECTED AS EARLY AS 12 NOON.", "nsi_id": "unitedstatespostalservice-a77078", "operator": "United States Postal Service", "operator:short": "USPS", "operator:type": "public", "operator:wikidata": "Q668687", "ref": "5217500007"}, "type": "Feature"}
