{"geometry": {"coordinates": [-91.550447036, 41.288732391], "type": "Point"}, "id": "d6qtnY1apZEuejinKSKy2PT5n1M=", "properties": {"@spider": "usps_collection_boxes", "addr:city": "AINSWORTH", "addr:country": "US", "addr:full": "150 N RAILROAD ST", "addr:postcode": "52201", "addr:state": "IA", "amenity": "post_box", "brand": "United States Postal Service", "brand:wikidata": "Q668687", "collection_times": "Mo-Sa 16:00", "name": "USPS COLLECTION BOX - BLUE BOX", "note": "ON 12/24 AND 12/31, THIS BOX MAY BE COLLECTED AS EARLY AS 12 NOON.", "nsi_id": "unitedstatespostalservice-a77078", "operator": "United States Postal Service", "operator:short": "USPS", "operator:type": "public", "operator:wikidata": "Q668687", "ref": "5220100000"}, "type": "Feature"}
{"geometry": {"coordinates": [-91.550447036, 41.288732391], "type": "Point"}, "id": "L_ck7dTDADPyFhl4WcoQ2xe8rs8=", "properties": {"@spider": "usps_collection_boxes", "addr:city": "AINSWORTH", "addr:country": "US", "addr:full": "150 N RAILROAD ST", "addr:postcode": "52201", "addr:state": "IA", "amenity": "post_box", "brand": "United States Postal Service", "brand:wikidata": "Q668687", "collection_times": "Mo-Fr 10:45", "name": "USPS COLLECTION BOX - PO LOBBY", "nsi_id": "unitedstatespostalservice-a77078", "operator": "United States Postal Service", "operator:short": "USPS", "operator:type": "public", "operator:wikidata": "Q668687", "ref": "5220100001"}, "type": "Feature"}
{"geometry": {"coordinates": [-91.537827612, 41.290397895], "type": "Point"}, "id": "nn9fKA4C2T0Wk6HC9BF0_IYvKj0=", "properties": {"@spider": "usps_collection_boxes", "addr:city": "AINSWORTH", "addr:country": "US", "addr:full": "3118 HIGHWAY 92", "addr:postcode": "52201", "addr:state": "IA", "amenity": "post_box", "brand": "United States Postal Service", "brand:wikidata": "Q668687", "collection_times": "Mo-Sa 11:00", "name": "USPS COLLECTION BOX - BLUE BOX", "nsi_id": "unitedstatespostalservice-a77078", "operator": "United States Postal Service", "operator:short": "USPS", "operator:type": "public", "operator:wikidata": "Q668687", "ref": "5220100002"}, "type": "Feature"}
{"geometry": {"coordinates": [-91.550447036, 41.288732391], "type": "Point"}, "id": "4kxWU5JafQTRp-vEcdG_MaWovvQ=", "properties": {"@spider": "usps_collection_boxes", "addr:city": "AINSWORTH", "addr:country": "US", "addr:full": "150 N RAILROAD ST", "addr:postcode": "52201", "addr:state": "IA", "amenity": "post_box", "brand": "United States Postal Service", "brand:wikidata": "Q668687", "collection_times": "Mo-Fr 11:00; Sa 09:00", "name": "USPS COLLECTION BOX - PO LOBBY", "nsi_id": "unitedstatespostalservice-a77078", "operator": "United States Postal Service", "operator:short": "USPS", "operator:type": "public", "operator:wikidata": "Q668687", "ref": "5220100003"}, "type": "Feature"}
{"geometry": {"coordinates": [-91.618539665, 42.1483913644], "type": "Point"}, "id": "UvPU6CBkJ8aNQM7txZEx0Xe5QT8=", "properties": {"@spider": "usps_collection_boxes", "addr:city": "ALBURNETT", "addr:country": "US", "addr:full": "101 N MAIN AVE", "addr:postcode": "52202", "addr:state": "IA", "amenity": "post_box", "brand": "United States Postal Service", "brand:wikidata": "Q668687", "collection_times": "Mo-Sa 16:30", "name": "USPS COLLECTION BOX - BLUE BOX", "note": "ON 12/24 AND 12/31, THIS BOX MAY BE COLLECTED AS EARLY AS 12 NOON.", "nsi_id": "unitedstatespostalservice-a77078", "operator": "United States Postal Service", "operator:short": "USPS", "operator:type": "public", "operator:wikidata": "Q668687", "ref": "5220200000"}, "type": "Feature"}
{"geometry": {"coordinates": [-91.61852648, 42.148403885], "type": "Point"}, "id": "JXBeJDswuEWs2B5jSIShBOb62I4=", "properties": {"@spider": "usps_collection_boxes", "addr:city": "ALBURNETT", "addr:country": "US", "addr:full": "101 N MAIN AVE", "addr:postcode": "52202", "addr:state": "IA", "amenity": "post_box", "brand": "United States Postal Service", "brand:wikidata": "Q668687", "collection_times": "Mo-Fr 15:45", "name": "USPS COLLECTION BOX - PO LOBBY", "note": "ON 12/24 AND 12/31, THIS BOX MAY BE COLLECTED AS EARLY AS 12 NOON.", "nsi_id": "unitedstatespostalservice-a77078", "operator": "United States Postal Service", "operator:short": "USPS", "operator:type": "public", "operator:wikidata": "Q668687", "ref": "5220200001"}, "type": "Feature"}
{"geometry": {"coordinates": [-91.61852648, 42.148403885], "type": "Point"}, "id": "NBnet3VSEU_BdpYqZZhh_QpKTXw=", "properties": {"@spider": "usps_collection_boxes", "addr:city": "ALBURNETT", "addr:country": "US", "addr:full": "101 N MAIN AVE", "addr:postcode": "52202", "addr:state": "IA", "amenity": "post_box", "brand": "United States Postal Service", "brand:wikidata": "Q668687", "collection_times": "Mo-Fr 16:00; Sa 13:45", "name": "USPS COLLECTION BOX - PO LOBBY", "note": "ON 12/24 AND 12/31, THIS BOX MAY BE COLLECTED AS EARLY AS 12 NOON.", "nsi_id": "unitedstatespostalservice-a77078", "operator": "United States Postal Service", "operator:short": "USPS", "operator:type": "public", "operator:wikidata": "Q668687", "ref": "5220200002"}, "type": "Feature"}
{"geometry": {"coordinates": [-91.876621165, 41.800405515], "type": "Point"}, "id": "Mp2viNh5p5SNZsziW8EGpWFo4B8=", "properties": {"@spider": "usps_collection_boxes", "addr:city": "AMANA", "addr:country": "US", "addr:full": "4015 G ST", "addr:postcode": "52203", "addr:state": "IA", "amenity": "post_box", "brand": "United States Postal Service", "brand:wikidata": "Q668687", "collection_times": "Mo-Sa 16:00", "name": "USPS COLLECTION BOX - BLUE BOX", "note": "ON 12/24 AND 12/31, THIS BOX MAY BE COLLECTED AS EARLY AS 12 NOON.", "nsi_id": "unitedstatespostalservice-a77078", "operator": "United States Postal Service", "operator:short": "USPS", "operator:type": "public", "operator:wikidata": "Q668687", "ref": "5220300000"}, "type": "Feature"}
{"geometry": {"coordinates": [-91.876621165, 41.800405515], "type": "Point"}, "id": "BCnzcGArTTjUofITBfA8TTRIB9s=", "properties": {"@spider": "usps_collection_boxes", "addr:city": "AMANA", "addr:country": "US", "addr:full": "4015 G ST", "addr:postcode": "52203", "addr:state": "IA", "amenity": "post_box", "brand": "United States Postal Service", "brand:wikidata": "Q668687", "collection_times": "Mo-Fr 16:00; Sa 09:45", "name": "USPS COLLECTION BOX - PO LOBBY", "note": "ON 12/24 AND 12/31, THIS BOX MAY BE COLLECTED AS EARLY AS 12 NOON.", "nsi_id": "unitedstatespostalservice-a77078", "operator": "United States Postal Service", "operator:short": "USPS", "operator:type": "public", "operator:wikidata": "Q668687", "ref": "5220300002"}, "type": "Feature"}
{"geometry": {"coordinates": [-91.876621165, 41.800405515], "type": "Point"}, "id": "1aXIEPXv7SmBn2vXgtKukE8P0MU=", "properties": {"@spider": "usps_collection_boxes", "addr:city": "AMANA", "addr:country": "US", "addr:full": "4015 G ST", "addr:postcode": "52203", "addr:state": "IA", "amenity": "post_box", "brand": "United States Postal Service", "brand:wikidata": "Q668687", "collection_times": "Mo-Fr 16:00; Sa 10:00", "name": "USPS COLLECTION BOX - PO LOBBY", "note": "ON 12/24 AND 12/31, THIS BOX MAY BE COLLECTED AS EARLY AS 12 NOON.", "nsi_id": "unitedstatespostalservice-a77078", "operator": "United States Postal Service", "operator:short": "USPS", "operator:type": "public", "operator:wikidata": "Q668687", "ref": "5220300003"}, "type": "Feature"}
{"geometry": {"coordinates": [-91.28882773, 42.10828723], "type": "Point"}, "id": "f-r5NvcR6q9ET9IgSWDlUIlHS2M=", "properties": {"@spider": "usps_collection_boxes", "addr:city": "ANAMOSA", "addr:country": "US", "addr:full": "500 W MAIN ST", "addr:postcode": "52205", "addr:state": "IA", "amenity": "post_box", "brand": "United States Postal Service", "brand:wikidata": "Q668687", "collection_times": "Mo-Fr 14:45", "name": "USPS COLLECTION BOX - BLUE BOX", "note": "ON 12/24 AND 12/31, THIS BOX MAY BE COLLECTED AS EARLY AS 12 NOON.", "nsi_id": "unitedstatespostalservice-a77078", "operator": "United States Postal Service", "operator:short": "USPS", "operator:type": "public", "operator:wikidata": "Q668687", "ref": "5220500000"}, "type": "Feature"}
{"geometry": {"coordinates": [-91.285641513, 42.107894486], "type": "Point"}, "id": "KbgYtNrr9u61ns4I-b3UOvz4Hfw=", "properties": {"@spider": "usps_collection_boxes", "addr:city": "ANAMOSA", "addr:country": "US", "addr:full": "116 S FORD ST", "addr:postcode": "52205", "addr:state": "IA", "amenity": "post_box", "brand": "United States Postal Service", "brand:wikidata": "Q668687", "collection_times": "Mo-Sa 17:00", "name": "USPS COLLECTION BOX - BLUE BOX", "note": "ON 12/24 AND 12/31, THIS BOX MAY BE COLLECTED AS EARLY AS 12 NOON.", "nsi_id": "unitedstatespostalservice-a77078", "operator": "United States Postal Service", "operator:short": "USPS", "operator:type": "public", "operator:wikidata": "Q668687", "ref": "5220500016"}, "type": "Feature"}
{"geometry": {"coordinates": [-91.285641513, 42.107894486], "type": "Point"}, "id": "u67NM9MUIqowGaLnZp0HhufaSl4=", "properties": {"@spider": "usps_collection_boxes", "addr:city": "ANAMOSA", "addr:country": "US", "addr:full": "116 S FORD ST", "addr:postcode": "52205", "addr:state": "IA", "amenity": "post_box", "brand": "United States Postal Service", "brand:wikidata": "Q668687", "collection_times": "Mo-Sa 17:00", "name": "USPS COLLECTION BOX - BLUE BOX", "note": "ON 12/24 AND 12/31, THIS BOX MAY BE COLLECTED AS EARLY AS 12 NOON.", "nsi_id": "unitedstatespostalservice-a77078", "operator": "United States Postal Service", "operator:short": "USPS", "operator:type": "public", "operator:wikidata": "Q668687", "ref": "5220500017"}, "type": "Feature"}
{"geometry": {"coordinates": [-91.28882773, 42.10828723], "type": "Point"}, "id": "9F1CfwKCZWBetSjSgdl-9jB3I1c=", "properties": {"@spider": "usps_collection_boxes", "addr:city": "ANAMOSA", "addr:country": "US", "addr:full": "500 W MAIN ST", "addr:postcode": "52205", "addr:state": "IA", "amenity": "post_box", "brand": "United States Postal Service", "brand:wikidata": "Q668687", "collection_times": "Mo-Fr 14:45", "name": "USPS COLLECTION BOX - BLUE BOX", "note": "ON 12/24 AND 12/31, THIS BOX MAY BE COLLECTED AS EARLY AS 12 NOON.", "nsi_id": "unitedstatespostalservice-a77078", "operator": "United States Postal Service", "operator:short": "USPS", "operator:type": "public", "operator:wikidata": "Q668687", "ref": "5220500018"}, "type": "Feature"}
{"geometry": {"coordinates": [-91.285641513, 42.107894486], "type": "Point"}, "id": "u3VSkk1gBy3E312jV1mer4zKxs4=", "properties": {"@spider": "usps_collection_boxes", "addr:city": "ANAMOSA", "addr:country": "US", "addr:full": "116 S FORD ST", "addr:postcode": "52205", "addr:state": "IA", "amenity": "post_box", "brand": "United States Postal Service", "brand:wikidata": "Q668687", "collection_times": "Mo-Fr 17:00; Sa 10:30", "name": "USPS COLLECTION BOX - PO LOBBY", "note": "ON 12/24 AND 12/31, THIS BOX MAY BE COLLECTED AS EARLY AS 12 NOON.", "nsi_id": "unitedstatespostalservice-a77078", "operator": "United States Postal Service", "operator:short": "USPS", "operator:type": "public", "operator:wikidata": "Q668687", "ref": "5220500020"}, "type": "Feature"}
{"geometry": {"coordinates": [-91.285641513, 42.107894486], "type": "Point"}, "id": "1HENctoNKRXMW-3eYQVsft3-3lM=", "properties": {"@spider": "usps_collection_boxes", "addr:city": "ANAMOSA", "addr:country": "US", "addr:full": "116 S FORD ST", "addr:postcode": "52205", "addr:state": "IA", "amenity": "post_box", "brand": "United States Postal Service", "brand:wikidata": "Q668687", "collection_times": "Mo-Fr 17:00; Sa 10:00", "name": "USPS COLLECTION BOX - PO LOBBY", "note": "ON 12/24 AND 12/31, THIS BOX MAY BE COLLECTED AS EARLY AS 12 NOON.", "nsi_id": "unitedstatespostalservice-a77078", "operator": "United States Postal Service", "operator:short": "USPS", "operator:type": "public", "operator:wikidata": "Q668687", "ref": "5220500021"}, "type": "Feature"}
{"geometry": {"coordinates": [-91.862409977, 41.996610012], "type": "Point"}, "id": "-RzyTUbZKx7m2CYjbTvNVBmA130=", "properties": {"@spider": "usps_collection_boxes", "addr:city": "ATKINS", "addr:country": "US", "addr:full": "87 MAIN AVE", "addr:postcode": "52206", "addr:state": "IA", "amenity": "post_box", "brand": "United States Postal Service", "brand:wikidata": "Q668687", "collection_times": "Mo-Fr 16:45; Sa 16:00", "name": "USPS COLLECTION BOX - BLUE BOX", "note": "ON 12/24 AND 12/31, THIS BOX MAY BE COLLECTED AS EARLY AS 12 NOON.", "nsi_id": "unitedstatespostalservice-a77078", "operator": "United States Postal Service", "operator:short": "USPS", "operator:type": "public", "operator:wikidata": "Q668687", "ref": "5220600000"}, "type": "Feature"}
{"geometry": {"coordinates": [-91.862409977, 41.996610012], "type": "Point"}, "id": "CMB1GNmSKLaR0oSj53_sKaT0oxo=", "properties": {"@spider": "usps_collection_boxes", "addr:city": "ATKINS", "addr:country": "US", "addr:full": "87 MAIN AVE", "addr:postcode": "52206", "addr:state": "IA", "amenity": "post_box", "brand": "United States Postal Service", "brand:wikidata": "Q668687", "collection_times": "Mo-Fr 16:45", "name": "USPS COLLECTION BOX - PO LOBBY", "note": "ON 12/24 AND 12/31, THIS BOX MAY BE COLLECTED AS EARLY AS 12 NOON.", "nsi_id": "unitedstatespostalservice-a77078", "operator": "United States Postal Service", "operator:short": "USPS", "operator:type": "public", "operator:wikidata": "Q668687", "ref": "5220600002"}, "type": "Feature"}
{"geometry": {"coordinates": [-91.862409977, 41.996610012], "type": "Point"}, "id": "OQfNyFACFBrq2r4xA8hHGpJOzmc=", "properties": {"@spider": "usps_collection_boxes", "addr:city": "ATKINS", "addr:country": "US", "addr:full": "87 MAIN AVE", "addr:postcode": "52206", "addr:state": "IA", "amenity": "post_box", "brand": "United States Postal Service", "brand:wikidata": "Q668687", "collection_times": "Mo-Fr 16:45; Sa 10:00", "name": "USPS COLLECTION BOX - PO LOBBY", "note": "ON 12/24 AND 12/31, THIS BOX MAY BE COLLECTED AS EARLY AS 12 NOON.", "nsi_id": "unitedstatespostalservice-a77078", "operator": "United States Postal Service", "operator:short": "USPS", "operator:type": "public", "operator:wikidata": "Q668687", "ref": "5220600003"}, "type": "Feature"}
{"geometry": {"coordinates": [-90.842052945, 42.073199453], "type": "Point"}, "id": "e2h2cRGGJAED65ZntFQpDZZ-ld0=", "properties": {"@spider": "usps_collection_boxes", "addr:city": "BALDWIN", "addr:country": "US", "addr:full": "4932 HIGHWAY 64", "addr:postcode": "52207", "addr:state": "IA", "amenity": "post_box", "brand": "United States Postal Service", "brand:wikidata": "Q668687", "collection_times": "Mo-Fr 15:30; Sa 15:45", "name": "USPS COLLECTION BOX - BLUE BOX", "note": "ON 12/24 AND 12/31, THIS BOX MAY BE COLLECTED AS EARLY AS 12 NOON.", "nsi_id": "unitedstatespostalservice-a77078", "operator": "United States Postal Service", "operator:short": "USPS", "operator:type": "public", "operator:wikidata": "Q668687", "ref": "5220700000"}, "type": "Feature"}
{"geometry": {"coordinates": [-90.842052945, 42.073199453], "type": "Point"}, "id": "igDQeWUiyEGTiJLIdoKEcTcV_RQ=", "properties": {"@spider": "usps_collection_boxes", "addr:city": "BALDWIN", "addr:country": "US", "addr:full": "4932 HIGHWAY 64", "addr:postcode": "52207", "addr:state": "IA", "amenity": "post_box", "brand": "United States Postal Service", "brand:wikidata": "Q668687", "collection_times": "Mo-Fr 11:15", "name": "USPS COLLECTION BOX - PO LOBBY", "nsi_id": "unitedstatespostalservice-a77078", "operator": "United States Postal Service", "operator:short": "USPS", "operator:type": "public", "operator:wikidata": "Q668687", "ref": "5220700001"}, "type": "Feature"}
{"geometry": {"coordinates": [-90.842052945, 42.073199453], "type": "Point"}, "id": "7m607ADq8LeAKG6Q289FxhGAqdU=", "properties": {"@spider": "usps_collection_boxes", "addr:city": "BALDWIN", "addr:country": "US", "addr:full": "4932 HIGHWAY 64", "addr:postcode": "52207", "addr:state": "IA", "amenity": "post_box", "brand": "United States Postal Service", "brand:wikidata": "Q668687", "collection_times": "Mo-Fr 11:30; Sa 08:45", "name": "USPS COLLECTION BOX - PO LOBBY", "nsi_id": "unitedstatespostalservice-a77078", "operator": "United States Postal Service", "operator:short": "USPS", "operator:type": "public", "operator:wikidata": "Q668687", "ref": "5220700002"}, "type": "Feature"}
{"geometry": {"coordinates": [-92.27829837, 41.896637969], "type": "Point"}, "id": "QK7oAkPGlaS3sbqvYBSnNePnkeg=", "properties": {"@spider": "usps_collection_boxes", "addr:city": "BELLE PLAINE", "addr:country": "US", "addr:full": "1206 7TH AVE", "addr:postcode": "52208", "addr:state": "IA", "amenity": "post_box", "brand": "United States Postal Service", "brand:wikidata": "Q668687", "collection_times": "Mo-Sa 14:00", "name": "USPS COLLECTION BOX - BLUE BOX", "note": "ON 12/24 AND 12/31, THIS BOX MAY BE COLLECTED AS EARLY AS 12 NOON.", "nsi_id": "unitedstatespostalservice-a77078", "operator": "United States Postal Service", "operator:short": "USPS", "operator:type": "public", "operator:wikidata": "Q668687", "ref": "5220800000"}, "type": "Feature"}
{"geometry": {"coordinates": [-92.272284, 41.897114453], "type": "Point"}, "id": "a7-igo-jYtQbNLCaq1kxsypsoLc=", "properties": {"@spider": "usps_collection_boxes", "addr:city": "BELLE PLAINE", "addr:country": "US", "addr:full": "1008 13TH ST", "addr:postcode": "52208", "addr:state": "IA", "amenity": "post_box", "brand": "United States Postal Service", "brand:wikidata": "Q668687", "collection_times": "Mo-Fr 16:00; Sa 15:45", "name": "USPS COLLECTION BOX - BLUE BOX", "note": "ON 12/24 AND 12/31, THIS BOX MAY BE COLLECTED AS EARLY AS 12 NOON.", "nsi_id": "unitedstatespostalservice-a77078", "operator": "United States Postal Service", "operator:short": "USPS", "operator:type": "public", "operator:wikidata": "Q668687", "ref": "5220800003"}, "type": "Feature"}
{"geometry": {"coordinates": [-92.272284, 41.897114453], "type": "Point"}, "id": "CHwOGvmJxZgmV5hifDMVPPoavXc=", "properties": {"@spider": "usps_collection_boxes", "addr:city": "BELLE PLAINE", "addr:country": "US", "addr:full": "1008 13TH ST", "addr:postcode": "52208", "addr:state": "IA", "amenity": "post_box", "brand": "United States Postal Service", "brand:wikidata": "Q668687", "collection_times": "Mo-Fr 16:00; Sa 10:30", "name": "USPS COLLECTION BOX - PO LOBBY", "note": "ON 12/24 AND 12/31, THIS BOX MAY BE COLLECTED AS EARLY AS 12 NOON.", "nsi_id": "unitedstatespostalservice-a77078", "operator": "United States Postal Service", "operator:short": "USPS", "operator:type": "public", "operator:wikidata": "Q668687", "ref": "5220800006"}, "type": "Feature"}
{"geometry": {"coordinates": [-92.272284, 41.897114453], "type": "Point"}, "id": "iqs-xOMcuTj52AOw89d80CZDhaw=", "properties": {"@spider": "usps_collection_boxes", "addr:city": "BELLE PLAINE", "addr:country": "US", "addr:full": "1008 13TH ST", "addr:postcode": "52208", "addr:state": "IA", "amenity": "post_box", "brand": "United States Postal Service", "brand:wikidata": "Q668687", "collection_times": "Mo-Fr 16:00; Sa 10:30", "name": "USPS COLLECTION BOX - PO LOBBY", "note": "ON 12/24 AND 12/31, THIS BOX MAY BE COLLECTED AS EARLY AS 12 NOON.", "nsi_id": "unitedstatespostalservice-a77078", "operator": "United States Postal Service", "operator:short": "USPS", "operator:type": "public", "operator:wikidata": "Q668687", "ref": "5220800007"}, "type": "Feature"}
{"geometry": {"coordinates": [-92.084459958, 41.909085], "type": "Point"}, "id": "LBxViGgG0VagktfOZ-tw5Ytd3uA=", "properties": {"@spider": "usps_collection_boxes", "addr:city": "BLAIRSTOWN", "addr:country": "US", "addr:full": "311 LOCUST ST NW", "addr:postcode": "52209", "addr:state": "IA", "amenity": "post_box", "brand": "United States Postal Service", "brand:wikidata": "Q668687", "collection_times": "Mo-Fr 16:15; Sa 17:15", "name": "USPS COLLECTION BOX - BLUE BOX", "note": "ON 12/24 AND 12/31, THIS BOX MAY BE COLLECTED AS EARLY AS 12 NOON.", "nsi_id": "unitedstatespostalservice-a77078", "operator": "United States Postal Service", "operator:short": "USPS", "operator:type": "public", "operator:wikidata": "Q668687", "ref": "5220900000"}, "type": "Feature"}
{"geometry": {"coordinates": [-92.084459958, 41.909085], "type": "Point"}, "id": "euUXbdgiE944d6Aj9dN1GO4L0Vc=", "properties": {"@spider": "usps_collection_boxes", "addr:city": "BLAIRSTOWN", "addr:country": "US", "addr:full": "311 LOCUST ST NW", "addr:postcode": "52209", "addr:state": "IA", "amenity": "post_box", "brand": "United States Postal Service", "brand:wikidata": "Q668687", "collection_times": "Mo-Fr 14:45", "name": "USPS COLLECTION BOX - PO LOBBY", "note": "ON 12/24 AND 12/31, THIS BOX MAY BE COLLECTED AS EARLY AS 12 NOON.", "nsi_id": "unitedstatespostalservice-a77078", "operator": "United States Postal Service", "operator:short": "USPS", "operator:type": "public", "operator:wikidata": "Q668687", "ref": "5220900001"}, "type": "Feature"}
{"geometry": {"coordinates": [-92.084459958, 41.909085], "type": "Point"}, "id": "XpAa88yISFpFapKtlfRLHhOBE6s=", "properties": {"@spider": "usps_collection_boxes", "addr:city": "BLAIRSTOWN", "addr:country": "US", "addr:full": "311 LOCUST ST NW", "addr:postcode": "52209", "addr:state": "IA", "amenity": "post_box", "brand": "United States Postal Service", "brand:wikidata": "Q668687", "collection_times": "Mo-Fr 15:00; Sa 08:45", "name": "USPS COLLECTION BOX - PO LOBBY", "note": "ON 12/24 AND 12/31, THIS BOX MAY BE COLLECTED AS EARLY AS 12 NOON.", "nsi_id": "unitedstatespostalservice-a77078", "operator": "United States Postal Service", "operator:short": "USPS", "operator:type": "public", "operator:wikidata": "Q668687", "ref": "5220900002"}, "type": "Feature"}
{"geometry": {"coordinates": [-92.005582165, 42.314511478], "type": "Point"}, "id": "xdS11VeXgf-IAGb6WUCaQw5fJsE=", "properties": {"@spider": "usps_collection_boxes", "addr:city": "BRANDON", "addr:country": "US", "addr:full": "704 MAIN ST", "addr:postcode": "52210", "addr:state": "IA", "amenity": "post_box", "brand": "United States Postal Service", "brand:wikidata": "Q668687", "collection_times": "Mo-Fr 15:30; Sa 15:00", "name": "USPS COLLECTION BOX - BLUE BOX", "note": "ON 12/24 AND 12/31, THIS BOX MAY BE COLLECTED AS EARLY AS 12 NOON.", "nsi_id": "unitedstatespostalservice-a77078", "operator": "United States Postal Service", "operator:short": "USPS", "operator:type": "public", "operator:wikidata": "Q668687", "ref": "5221000000"}, "type": "Feature"}
{"geometry": {"coordinates": [-92.005582165, 42.314511478], "type": "Point"}, "id": "8jdL4h_GvBY_daWhlXsT0P5iXXU=", "properties": {"@spider": "usps_collection_boxes", "addr:city": "BRANDON", "addr:country": "US", "addr:full": "704 MAIN ST", "addr:postcode": "52210", "addr:state": "IA", "amenity": "post_box", "brand": "United States Postal Service", "brand:wikidata": "Q668687", "collection_times": "Mo-Fr 11:00", "name": "USPS COLLECTION BOX - PO LOBBY", "nsi_id": "unitedstatespostalservice-a77078", "operator": "United States Postal Service", "operator:short": "USPS", "operator:type": "public", "operator:wikidata": "Q668687", "ref": "5221000001"}, "type": "Feature"}
{"geometry": {"coordinates": [-92.005582165, 42.314511478], "type": "Point"}, "id": "nujxZQelPWtAhXIpKNduWWqPFlc=", "properties": {"@spider": "usps_collection_boxes", "addr:city": "BRANDON", "addr:country": "US", "addr:full": "704 MAIN ST", "addr:postcode": "52210", "addr:state": "IA", "amenity": "post_box", "brand": "United States Postal Service", "brand:wikidata": "Q668687", "collection_times": "Mo-Fr 11:15; Sa 12:00", "name": "USPS COLLECTION BOX - PO LOBBY", "nsi_id": "unitedstatespostalservice-a77078", "operator": "United States Postal Service", "operator:short": "USPS", "operator:type": "public", "operator:wikidata": "Q668687", "ref": "5221000002"}, "type": "Feature"}
{"geometry": {"coordinates": [-92.446198046, 41.728365714], "type": "Point"}, "id": "ug3eQJj42NwbO-LG8EPXKqDp8s4=", "properties": {"@spider": "usps_collection_boxes", "addr:city": "BROOKLYN", "addr:country": "US", "addr:full": "127 W FRONT ST", "addr:postcode": "52211", "addr:state": "IA", "amenity": "post_box", "brand": "United States Postal Service", "brand:wikidata": "Q668687", "collection_times": "Mo-Fr 16:00; Sa 15:30", "name": "USPS COLLECTION BOX - BLUE BOX", "note": "ON 12/24 AND 12/31, THIS BOX MAY BE COLLECTED AS EARLY AS 12 NOON.", "nsi_id": "unitedstatespostalservice-a77078", "operator": "United States Postal Service", "operator:short": "USPS", "operator:type": "public", "operator:wikidata": "Q668687", "ref": "5221100000"}, "type": "Feature"}
{"geometry": {"coordinates": [-92.446198046, 41.728365714], "type": "Point"}, "id": "I4mYnk3JB3JQyaX-RypF5HvkbeM=", "properties": {"@spider": "usps_collection_boxes", "addr:city": "BROOKLYN", "addr:country": "US", "addr:full": "127 W FRONT ST", "addr:postcode": "52211", "addr:state": "IA", "amenity": "post_box", "brand": "United States Postal Service", "brand:wikidata": "Q668687", "collection_times": "Mo-Fr 16:00", "name": "USPS COLLECTION BOX - PO LOBBY", "note": "ON 12/24 AND 12/31, THIS BOX MAY BE COLLECTED AS EARLY AS 12 NOON.", "nsi_id": "unitedstatespostalservice-a77078", "operator": "United States Postal Service", "operator:short": "USPS", "operator:type": "public", "operator:wikidata": "Q668687", "ref": "5221100001"}, "type": "Feature"}
{"geometry": {"coordinates": [-92.357828803, 41.698233335], "type": "Point"}, "id": "MD5ZpmpHkWo-nfmYtF4tCfGguvk=", "properties": {"@spider": "usps_collection_boxes", "addr:city": "BROOKLYN", "addr:country": "US", "addr:full": "4126 HIGHWAY 21", "addr:postcode": "52211", "addr:state": "IA", "amenity": "post_box", "brand": "United States Postal Service", "brand:wikidata": "Q668687", "collection_times": "Mo-Sa 10:30", "name": "USPS COLLECTION BOX - BLUE BOX", "nsi_id": "unitedstatespostalservice-a77078", "operator": "United States Postal Service", "operator:short": "USPS", "operator:type": "public", "operator:wikidata": "Q668687", "ref": "5221100002"}, "type": "Feature"}
{"geometry": {"coordinates": [-92.445319825, 41.698224], "type": "Point"}, "id": "YHZYG0Gb15psO8MlYLMjP-r7cro=", "properties": {"@spider": "usps_collection_boxes", "addr:city": "BROOKLYN", "addr:country": "US", "addr:full": "4124 V18 RD", "addr:postcode": "52211", "addr:state": "IA", "amenity": "post_box", "brand": "United States Postal Service", "brand:wikidata": "Q668687", "collection_times": "Mo-Sa 11:00", "name": "USPS COLLECTION BOX - BLUE BOX", "nsi_id": "unitedstatespostalservice-a77078", "operator": "United States Postal Service", "operator:short": "USPS", "operator:type": "public", "operator:wikidata": "Q668687", "ref": "5221100003"}, "type": "Feature"}
{"geometry": {"coordinates": [-92.446198046, 41.728365714], "type": "Point"}, "id": "on92d3pIPhJi9FB8q47EX2jM0oQ=", "properties": {"@spider": "usps_collection_boxes", "addr:city": "BROOKLYN", "addr:country": "US", "addr:full": "127 W FRONT ST", "addr:postcode": "52211", "addr:state": "IA", "amenity": "post_box", "brand": "United States Postal Service", "brand:wikidata": "Q668687", "collection_times": "Mo-Fr 16:00; Sa 11:00", "name": "USPS COLLECTION BOX - PO LOBBY", "note": "ON 12/24 AND 12/31, THIS BOX MAY BE COLLECTED AS EARLY AS 12 NOON.", "nsi_id": "unitedstatespostalservice-a77078", "operator": "United States Postal Service", "operator:short": "USPS", "operator:type": "public", "operator:wikidata": "Q668687", "ref": "5221100004"}, "type": "Feature"}
{"geometry": {"coordinates": [-91.093264312, 42.11493014], "type": "Point"}, "id": "MQ15IlI_ihJtRVIe1YVZHanw5jk=", "properties": {"@spider": "usps_collection_boxes", "addr:city": "CENTER JUNCTION", "addr:country": "US", "addr:full": "10612 MAIN ST", "addr:postcode": "52212", "addr:state": "IA", "amenity": "post_box", "brand": "United States Postal Service", "brand:wikidata": "Q668687", "collection_times": "Mo-Sa 16:00", "name": "USPS COLLECTION BOX - BLUE BOX", "note": "ON 12/24 AND 12/31, THIS BOX MAY BE COLLECTED AS EARLY AS 12 NOON.", "nsi_id": "unitedstatespostalservice-a77078", "operator": "United States Postal Service", "operator:short": "USPS", "operator:type": "public", "operator:wikidata": "Q668687", "ref": "5221200000"}, "type": "Feature"}
{"geometry": {"coordinates": [-91.093264312, 42.11493014], "type": "Point"}, "id": "I8OdtXLb5oxQPSstfiyPJIrLjQQ=", "properties": {"@spider": "usps_collection_boxes", "addr:city": "CENTER JUNCTION", "addr:country": "US", "addr:full": "10612 MAIN ST.", "addr:postcode": "52212", "addr:state": "IA", "amenity": "post_box", "brand": "United States Postal Service", "brand:wikidata": "Q668687", "collection_times": "Mo-Fr 11:15", "name": "USPS COLLECTION BOX - PO LOBBY", "nsi_id": "unitedstatespostalservice-a77078", "operator": "United States Postal Service", "operator:short": "USPS", "operator:type": "public", "operator:wikidata": "Q668687", "ref": "5221200001"}, "type": "Feature"}
{"geometry": {"coordinates": [-91.093264312, 42.11493014], "type": "Point"}, "id": "90eCFLmMfPrAdJ4lORuxjatQlh4=", "properties": {"@spider": "usps_collection_boxes", "addr:city": "CENTER JUNCTION", "addr:country": "US", "addr:full": "10612 MAIN ST.", "addr:postcode": "52212", "addr:state": "IA", "amenity": "post_box", "brand": "United States Postal Service", "brand:wikidata": "Q668687", "collection_times": "Mo-Fr 11:30; Sa 08:45", "name": "USPS COLLECTION BOX - PO LOBBY", "nsi_id": "unitedstatespostalservice-a77078", "operator": "United States Postal Service", "operator:short": "USPS", "operator:type": "public", "operator:wikidata": "Q668687", "ref": "5221200002"}, "type": "Feature"}
{"geometry": {"coordinates": [-91.785026779, 42.190320886], "type": "Point"}, "id": "wSFrVqQ1yRxqfV6oz8OiWnetxLg=", "properties": {"@spider": "usps_collection_boxes", "addr:city": "CENTER POINT", "addr:country": "US", "addr:full": "708 MAIN ST", "addr:postcode": "52213", "addr:state": "IA", "amenity": "post_box", "brand": "United States Postal Service", "brand:wikidata": "Q668687", "collection_times": "Mo-Fr 16:15; Sa 16:00", "name": "USPS COLLECTION BOX - BLUE BOX", "note": "ON 12/24 AND 12/31, THIS BOX MAY BE COLLECTED AS EARLY AS 12 NOON.", "nsi_id": "unitedstatespostalservice-a77078", "operator": "United States Postal Service", "operator:short": "USPS", "operator:type": "public", "operator:wikidata": "Q668687", "ref": "5221300000"}, "type": "Feature"}
{"geometry": {"coordinates": [-91.785026779, 42.190320886], "type": "Point"}, "id": "CBEF4VnBNcaN_vDukn26PGgFr5s=", "properties": {"@spider": "usps_collection_boxes", "addr:city": "CENTER POINT", "addr:country": "US", "addr:full": "708 MAIN ST", "addr:postcode": "52213", "addr:state": "IA", "amenity": "post_box", "brand": "United States Postal Service", "brand:wikidata": "Q668687", "collection_times": "Mo-Fr 16:15; Sa 10:00", "name": "USPS COLLECTION BOX - PO LOBBY", "note": "ON 12/24 AND 12/31, THIS BOX MAY BE COLLECTED AS EARLY AS 12 NOON.", "nsi_id": "unitedstatespostalservice-a77078", "operator": "United States Postal Service", "operator:short": "USPS", "operator:type": "public", "operator:wikidata": "Q668687", "ref": "5221300002"}, "type": "Feature"}
{"geometry": {"coordinates": [-91.785026779, 42.190320886], "type": "Point"}, "id": "z2RL9cHUKxrYddWADdEXre81-M4=", "properties": {"@spider": "usps_collection_boxes", "addr:city": "CENTER POINT", "addr:country": "US", "addr:full": "708 MAIN ST", "addr:postcode": "52213", "addr:state": "IA", "amenity": "post_box", "brand": "United States Postal Service", "brand:wikidata": "Q668687", "collection_times": "Mo-Fr 16:15; Sa 10:00", "name": "USPS COLLECTION BOX - PO LOBBY", "note": "ON 12/24 AND 12/31, THIS BOX MAY BE COLLECTED AS EARLY AS 12 NOON.", "nsi_id": "unitedstatespostalservice-a77078", "operator": "United States Postal Service", "operator:short": "USPS", "operator:type": "public", "operator:wikidata": "Q668687", "ref": "5221300004"}, "type": "Feature"}
{"geometry": {"coordinates": [-91.524620104, 42.203187671], "type": "Point"}, "id": "LkuGXydhhBwUpzlQc-XfJSeIYBo=", "properties": {"@spider": "usps_collection_boxes", "addr:city": "CENTRAL CITY", "addr:country": "US", "addr:full": "55 4TH ST S", "addr:postcode": "52214", "addr:state": "IA", "amenity": "post_box", "brand": "United States Postal Service", "brand:wikidata": "Q668687", "collection_times": "Mo-Fr 16:15; Sa 16:00", "name": "USPS COLLECTION BOX - BLUE BOX", "note": "ON 12/24 AND 12/31, THIS BOX MAY BE COLLECTED AS EARLY AS 12 NOON.", "nsi_id": "unitedstatespostalservice-a77078", "operator": "United States Postal Service", "operator:short": "USPS", "operator:type": "public", "operator:wikidata": "Q668687", "ref": "5221400000"}, "type": "Feature"}
{"geometry": {"coordinates": [-91.524620104, 42.203187671], "type": "Point"}, "id": "1pxol5yxH-3qLuWCWG9xPNI2hpo=", "properties": {"@spider": "usps_collection_boxes", "addr:city": "CENTRAL CITY", "addr:country": "US", "addr:full": "55 4TH ST S", "addr:postcode": "52214", "addr:state": "IA", "amenity": "post_box", "brand": "United States Postal Service", "brand:wikidata": "Q668687", "collection_times": "Mo-Fr 16:15", "name": "USPS COLLECTION BOX - PO LOBBY", "note": "ON 12/24 AND 12/31, THIS BOX MAY BE COLLECTED AS EARLY AS 12 NOON.", "nsi_id": "unitedstatespostalservice-a77078", "operator": "United States Postal Service", "operator:short": "USPS", "operator:type": "public", "operator:wikidata": "Q668687", "ref": "5221400002"}, "type": "Feature"}
{"geometry": {"coordinates": [-91.524620104, 42.203187671], "type": "Point"}, "id": "zECxgBEPuBhKtbdHIeiMDDsIjZk=", "properties": {"@spider": "usps_collection_boxes", "addr:city": "CENTRAL CITY", "addr:country": "US", "addr:full": "55 4TH ST S", "addr:postcode": "52214", "addr:state": "IA", "amenity": "post_box", "brand": "United States Postal Service", "brand:wikidata": "Q668687", "collection_times": "Mo-Fr 16:00; Sa 10:00", "name": "USPS COLLECTION BOX - PO LOBBY", "note": "ON 12/24 AND 12/31, THIS BOX MAY BE COLLECTED AS EARLY AS 12 NOON.", "nsi_id": "unitedstatespostalservice-a77078", "operator": "United States Postal Service", "operator:short": "USPS", "operator:type": "public", "operator:wikidata": "Q668687", "ref": "5221400004"}, "type": "Feature"}
{"geometry": {"coordinates": [-92.394936488, 41.92815302], "type": "Point"}, "id": "8XUSnCqeSnpBBfE64WGH7I3UMEo=", "properties": {"@spider": "usps_collection_boxes", "addr:city": "CHELSEA", "addr:country": "US", "addr:full": "2899 HIGHWAY E66", "addr:postcode": "52215", "addr:state": "IA", "amenity": "post_box", "brand": "United States Postal Service", "brand:wikidata": "Q668687", "collection_times": "Mo-Fr 16:30; Sa 15:45", "name": "USPS COLLECTION BOX - BLUE BOX", "note": "ON 12/24 AND 12/31, THIS BOX MAY BE COLLECTED AS EARLY AS 12 NOON.", "nsi_id": "unitedstatespostalservice-a77078", "operator": "United States Postal Service", "operator:short": "USPS", "operator:type": "public", "operator:wikidata": "Q668687", "ref": "5221500000"}, "type": "Feature"}
{"geometry": {"coordinates": [-92.394936488, 41.92815302], "type": "Point"}, "id": "Z-qjNUcYVvN8RVnUpTD4Fkzz8TE=", "properties": {"@spider": "usps_collection_boxes", "addr:city": "CHELSEA", "addr:country": "US", "addr:full": "2899 HIGHWAY E66", "addr:postcode": "52215", "addr:state": "IA", "amenity": "post_box", "brand": "United States Postal Service", "brand:wikidata": "Q668687", "collection_times": "Mo-Fr 11:45", "name": "USPS COLLECTION BOX - PO LOBBY", "nsi_id": "unitedstatespostalservice-a77078", "operator": "United States Postal Service", "operator:short": "USPS", "operator:type": "public", "operator:wikidata": "Q668687", "ref": "5221500002"}, "type": "Feature"}
{"geometry": {"coordinates": [-92.394936488, 41.92815302], "type": "Point"}, "id": "35VtqSdsONCJUrQvbgYElYlcgD0=", "properties": {"@spider": "usps_collection_boxes", "addr:city": "CHELSEA", "addr:country": "US", "addr:full": "2899 HIGHWAY E66", "addr:postcode": "52215", "addr:state": "IA", "amenity": "post_box", "brand": "United States Postal Service", "brand:wikidata": "Q668687", "collection_times": "Mo-Fr 12:00", "name": "USPS COLLECTION BOX - PO LOBBY", "nsi_id": "unitedstatespostalservice-a77078", "operator": "United States Postal Service", "operator:short": "USPS", "operator:type": "public", "operator:wikidata": "Q668687", "ref": "5221500003"}, "type": "Feature"}
{"geometry": {"coordinates": [-91.0563709, 41.887824244], "type": "Point"}, "id": "eJJv-n3rwDnzw6hHJy50MyWZ6qs=", "properties": {"@spider": "usps_collection_boxes", "addr:city": "CLARENCE", "addr:country": "US", "addr:full": "310 6TH AVE", "addr:postcode": "52216", "addr:state": "IA", "amenity": "post_box", "brand": "United States Postal Service", "brand:wikidata": "Q668687", "collection_times": "Mo-Sa 16:30", "name": "USPS COLLECTION BOX - BLUE BOX", "note": "ON 12/24 AND 12/31, THIS BOX MAY BE COLLECTED AS EARLY AS 12 NOON.", "nsi_id": "unitedstatespostalservice-a77078", "operator": "United States Postal Service", "operator:short": "USPS", "operator:type": "public", "operator:wikidata": "Q668687", "ref": "5221600000"}, "type": "Feature"}
{"geometry": {"coordinates": [-91.0563709, 41.887824244], "type": "Point"}, "id": "1qcfgJ08A8-1aQIjXhJAxnWRskw=", "properties": {"@spider": "usps_collection_boxes", "addr:city": "CLARENCE", "addr:country": "US", "addr:full": "310 6TH AVE", "addr:postcode": "52216", "addr:state": "IA", "amenity": "post_box", "brand": "United States Postal Service", "brand:wikidata": "Q668687", "collection_times": "Mo-Fr 16:00", "name": "USPS COLLECTION BOX - PO LOBBY", "note": "ON 12/24 AND 12/31, THIS BOX MAY BE COLLECTED AS EARLY AS 12 NOON.", "nsi_id": "unitedstatespostalservice-a77078", "operator": "United States Postal Service", "operator:short": "USPS", "operator:type": "public", "operator:wikidata": "Q668687", "ref": "5221600001"}, "type": "Feature"}
{"geometry": {"coordinates": [-91.0563709, 41.887824244], "type": "Point"}, "id": "j4QKSyZtI2cXGWZ8HUYMU5DVMJk=", "properties": {"@spider": "usps_collection_boxes", "addr:city": "CLARENCE", "addr:country": "US", "addr:full": "310 6TH AVE", "addr:postcode": "52216", "addr:state": "IA", "amenity": "post_box", "brand": "United States Postal Service", "brand:wikidata": "Q668687", "collection_times": "Mo-Fr 16:15; Sa 10:00", "name": "USPS COLLECTION BOX - PO LOBBY", "note": "ON 12/24 AND 12/31, THIS BOX MAY BE COLLECTED AS EARLY AS 12 NOON.", "nsi_id": "unitedstatespostalservice-a77078", "operator": "United States Postal Service", "operator:short": "USPS", "operator:type": "public", "operator:wikidata": "Q668687", "ref": "5221600002"}, "type": "Feature"}
{"geometry": {"coordinates": [-91.531413555, 42.281034504], "type": "Point"}, "id": "ZuQikpVgquZnEOFTKC9fogpph-M=", "properties": {"@spider": "usps_collection_boxes", "addr:city": "COGGON", "addr:country": "US", "addr:full": "112 E MAIN ST", "addr:postcode": "52218", "addr:state": "IA", "amenity": "post_box", "brand": "United States Postal Service", "brand:wikidata": "Q668687", "collection_times": "Mo-Sa 16:00", "name": "USPS COLLECTION BOX - BLUE BOX", "note": "ON 12/24 AND 12/31, THIS BOX MAY BE COLLECTED AS EARLY AS 12 NOON.", "nsi_id": "unitedstatespostalservice-a77078", "operator": "United States Postal Service", "operator:short": "USPS", "operator:type": "public", "operator:wikidata": "Q668687", "ref": "5221800000"}, "type": "Feature"}
{"geometry": {"coordinates": [-91.531413555, 42.281034504], "type": "Point"}, "id": "rSej-P9K4UPnR7p4Qx4Pmb8fcNU=", "properties": {"@spider": "usps_collection_boxes", "addr:city": "COGGON", "addr:country": "US", "addr:full": "112 E MAIN ST", "addr:postcode": "52218", "addr:state": "IA", "amenity": "post_box", "brand": "United States Postal Service", "brand:wikidata": "Q668687", "collection_times": "Mo-Fr 11:00", "name": "USPS COLLECTION BOX - PO LOBBY", "nsi_id": "unitedstatespostalservice-a77078", "operator": "United States Postal Service", "operator:short": "USPS", "operator:type": "public", "operator:wikidata": "Q668687", "ref": "5221800001"}, "type": "Feature"}
{"geometry": {"coordinates": [-91.531413555, 42.281034504], "type": "Point"}, "id": "LePh9W_Xh1W7rJDM7WhjOzsg4KM=", "properties": {"@spider": "usps_collection_boxes", "addr:city": "COGGON", "addr:country": "US", "addr:full": "112 E MAIN ST", "addr:postcode": "52218", "addr:state": "IA", "amenity": "post_box", "brand": "United States Postal Service", "brand:wikidata": "Q668687", "collection_times": "Mo-Fr 11:15; Sa 10:00", "name": "USPS COLLECTION BOX - PO LOBBY", "nsi_id": "unitedstatespostalservice-a77078", "operator": "United States Postal Service", "operator:short": "USPS", "operator:type": "public", "operator:wikidata": "Q668687", "ref": "5221800002"}, "type": "Feature"}
{"geometry": {"coordinates": [-91.997976188, 41.728878031], "type": "Point"}, "id": "Z28xXyVThYS_wA2HENuT070gOCg=", "properties": {"@spider": "usps_collection_boxes", "addr:city": "CONROY", "addr:country": "US", "addr:full": "572 7TH AVE", "addr:postcode": "52220", "addr:state": "IA", "amenity": "post_box", "brand": "United States Postal Service", "brand:wikidata": "Q668687", "collection_times": "Mo-Fr 16:45; Sa 16:15", "name": "USPS COLLECTION BOX - BLUE BOX", "note": "ON 12/24 AND 12/31, THIS BOX MAY BE COLLECTED AS EARLY AS 12 NOON.", "nsi_id": "unitedstatespostalservice-a77078", "operator": "United States Postal Service", "operator:short": "USPS", "operator:type": "public", "operator:wikidata": "Q668687", "ref": "5222000000"}, "type": "Feature"}
{"geometry": {"coordinates": [-91.997976188, 41.728878031], "type": "Point"}, "id": "pPemG7KOkPjmOnjiWvau_OkNFvk=", "properties": {"@spider": "usps_collection_boxes", "addr:city": "CONROY", "addr:country": "US", "addr:full": "572 7TH AVE", "addr:postcode": "52220", "addr:state": "IA", "amenity": "post_box", "brand": "United States Postal Service", "brand:wikidata": "Q668687", "collection_times": "Mo-Fr 16:45", "name": "USPS COLLECTION BOX - PO LOBBY", "note": "ON 12/24 AND 12/31, THIS BOX MAY BE COLLECTED AS EARLY AS 12 NOON.", "nsi_id": "unitedstatespostalservice-a77078", "operator": "United States Postal Service", "operator:short": "USPS", "operator:type": "public", "operator:wikidata": "Q668687", "ref": "5222000001"}, "type": "Feature"}
{"geometry": {"coordinates": [-91.997976188, 41.728878031], "type": "Point"}, "id": "m6aivQQPxoomhVFI36qYB3Ytv-g=", "properties": {"@spider": "usps_collection_boxes", "addr:city": "CONROY", "addr:country": "US", "addr:full": "572 7TH AVE", "addr:postcode": "52220", "addr:state": "IA", "amenity": "post_box", "brand": "United States Postal Service", "brand:wikidata": "Q668687", "collection_times": "Mo-Fr 17:00; Sa 09:45", "name": "USPS COLLECTION BOX - PO LOBBY", "note": "ON 12/24 AND 12/31, THIS BOX MAY BE COLLECTED AS EARLY AS 12 NOON.", "nsi_id": "unitedstatespostalservice-a77078", "operator": "United States Postal Service", "operator:short": "USPS", "operator:type": "public", "operator:wikidata": "Q668687", "ref": "5222000002"}, "type": "Feature"}
{"geometry": {"coordinates": [-92.373282199, 41.579999551], "type": "Point"}, "id": "u1Qo_pJbIaToM7xchHgZ5q9mmUA=", "properties": {"@spider": "usps_collection_boxes", "addr:city": "DEEP RIVER", "addr:country": "US", "addr:full": "400 MAIN ST", "addr:postcode": "52222", "addr:state": "IA", "amenity": "post_box", "brand": "United States Postal Service", "brand:wikidata": "Q668687", "collection_times": "Mo-Sa 15:45", "name": "USPS COLLECTION BOX - BLUE BOX", "note": "ON 12/24 AND 12/31, THIS BOX MAY BE COLLECTED AS EARLY AS 12 NOON.", "nsi_id": "unitedstatespostalservice-a77078", "operator": "United States Postal Service", "operator:short": "USPS", "operator:type": "public", "operator:wikidata": "Q668687", "ref": "5222200000"}, "type": "Feature"}
{"geometry": {"coordinates": [-92.373282199, 41.579999551], "type": "Point"}, "id": "HsfaWNZqXdxfcdUG8RHt8KleFa8=", "properties": {"@spider": "usps_collection_boxes", "addr:city": "DEEP RIVER", "addr:country": "US", "addr:full": "400 MAIN ST", "addr:postcode": "52222", "addr:state": "IA", "amenity": "post_box", "brand": "United States Postal Service", "brand:wikidata": "Q668687", "collection_times": "Mo-Fr 10:45", "name": "USPS COLLECTION BOX - PO LOBBY", "nsi_id": "unitedstatespostalservice-a77078", "operator": "United States Postal Service", "operator:short": "USPS", "operator:type": "public", "operator:wikidata": "Q668687", "ref": "5222200001"}, "type": "Feature"}
{"geometry": {"coordinates": [-92.373282199, 41.579999551], "type": "Point"}, "id": "q-k_W-YMRVYzY5OlCBWmyEJNXF8=", "properties": {"@spider": "usps_collection_boxes", "addr:city": "DEEP RIVER", "addr:country": "US", "addr:full": "400 MAIN ST", "addr:postcode": "52222", "addr:state": "IA", "amenity": "post_box", "brand": "United States Postal Service", "brand:wikidata": "Q668687", "collection_times": "Mo-Fr 11:00; Sa 09:30", "name": "USPS COLLECTION BOX - PO LOBBY", "nsi_id": "unitedstatespostalservice-a77078", "operator": "United States Postal Service", "operator:short": "USPS", "operator:type": "public", "operator:wikidata": "Q668687", "ref": "5222200002"}, "type": "Feature"}
{"geometry": {"coordinates": [-91.331032249, 42.429670479], "type": "Point"}, "id": "qpc0pG-26YtJT0229LqjOf6ktrI=", "properties": {"@spider": "usps_collection_boxes", "addr:city": "DELHI", "addr:country": "US", "addr:full": "300 FRANKLIN ST", "addr:postcode": "52223", "addr:state": "IA", "amenity": "post_box", "brand": "United States Postal Service", "brand:wikidata": "Q668687", "collection_times": "Mo-Sa 16:00", "name": "USPS COLLECTION BOX - BLUE BOX", "note": "ON 12/24 AND 12/31, THIS BOX MAY BE COLLECTED AS EARLY AS 12 NOON.", "nsi_id": "unitedstatespostalservice-a77078", "operator": "United States Postal Service", "operator:short": "USPS", "operator:type": "public", "operator:wikidata": "Q668687", "ref": "5222300000"}, "type": "Feature"}
{"geometry": {"coordinates": [-91.331032249, 42.429670479], "type": "Point"}, "id": "51ClFtNoS2IE6E7LkAHfjrN3zW8=", "properties": {"@spider": "usps_collection_boxes", "addr:city": "DELHI", "addr:country": "US", "addr:full": "300 FRANKLIN ST", "addr:postcode": "52223", "addr:state": "IA", "amenity": "post_box", "brand": "United States Postal Service", "brand:wikidata": "Q668687", "collection_times": "Mo-Fr 15:00", "name": "USPS COLLECTION BOX - PO LOBBY", "note": "ON 12/24 AND 12/31, THIS BOX MAY BE COLLECTED AS EARLY AS 12 NOON.", "nsi_id": "unitedstatespostalservice-a77078", "operator": "United States Postal Service", "operator:short": "USPS", "operator:type": "public", "operator:wikidata": "Q668687", "ref": "5222300001"}, "type": "Feature"}
{"geometry": {"coordinates": [-91.331032249, 42.429670479], "type": "Point"}, "id": "B8_2wbpvP9XTn3NtuEMzpwLAQZU=", "properties": {"@spider": "usps_collection_boxes", "addr:city": "DELHI", "addr:country": "US", "addr:full": "300 FRANKLIN ST", "addr:postcode": "52223", "addr:state": "IA", "amenity": "post_box", "brand": "United States Postal Service", "brand:wikidata": "Q668687", "collection_times": "Mo-Fr 15:15; Sa 10:00", "name": "USPS COLLECTION BOX - PO LOBBY", "note": "ON 12/24 AND 12/31, THIS BOX MAY BE COLLECTED AS EARLY AS 12 NOON.", "nsi_id": "unitedstatespostalservice-a77078", "operator": "United States Postal Service", "operator:short": "USPS", "operator:type": "public", "operator:wikidata": "Q668687", "ref": "5222300002"}, "type": "Feature"}
{"geometry": {"coordinates": [-92.304876995, 42.171182801], "type": "Point"}, "id": "F2FE_HD9g_84lgJU96yPo-6T8LU=", "properties": {"@spider": "usps_collection_boxes", "addr:city": "DYSART", "addr:country": "US", "addr:full": "306 JEFFERSON ST", "addr:postcode": "52224", "addr:state": "IA", "amenity": "post_box", "brand": "United States Postal Service", "brand:wikidata": "Q668687", "collection_times": "Mo-Fr 16:00; Sa 15:00", "name": "USPS COLLECTION BOX - BLUE BOX", "note": "ON 12/24 AND 12/31, THIS BOX MAY BE COLLECTED AS EARLY AS 12 NOON.", "nsi_id": "unitedstatespostalservice-a77078", "operator": "United States Postal Service", "operator:short": "USPS", "operator:type": "public", "operator:wikidata": "Q668687", "ref": "5222400000"}, "type": "Feature"}
{"geometry": {"coordinates": [-92.304876995, 42.171182801], "type": "Point"}, "id": "9wxFDtorHG-_CNl4ZAC6c_kXcRA=", "properties": {"@spider": "usps_collection_boxes", "addr:city": "DYSART", "addr:country": "US", "addr:full": "306 JEFFERSON ST", "addr:postcode": "52224", "addr:state": "IA", "amenity": "post_box", "brand": "United States Postal Service", "brand:wikidata": "Q668687", "collection_times": "Mo-Fr 16:00", "name": "USPS COLLECTION BOX - PO LOBBY", "note": "ON 12/24 AND 12/31, THIS BOX MAY BE COLLECTED AS EARLY AS 12 NOON.", "nsi_id": "unitedstatespostalservice-a77078", "operator": "United States Postal Service", "operator:short": "USPS", "operator:type": "public", "operator:wikidata": "Q668687", "ref": "5222400001"}, "type": "Feature"}
{"geometry": {"coordinates": [-92.304876995, 42.171182801], "type": "Point"}, "id": "KeTPS5C9DR4fiAelj-6fk6F4xJk=", "properties": {"@spider": "usps_collection_boxes", "addr:city": "DYSART", "addr:country": "US", "addr:full": "306 JEFFERSON ST", "addr:postcode": "52224", "addr:state": "IA", "amenity": "post_box", "brand": "United States Postal Service", "brand:wikidata": "Q668687", "collection_times": "Mo-Fr 16:00; Sa 11:30", "name": "USPS COLLECTION BOX - PO LOBBY", "note": "ON 12/24 AND 12/31, THIS BOX MAY BE COLLECTED AS EARLY AS 12 NOON.", "nsi_id": "unitedstatespostalservice-a77078", "operator": "United States Postal Service", "operator:short": "USPS", "operator:type": "public", "operator:wikidata": "Q668687", "ref": "5222400002"}, "type": "Feature"}
{"geometry": {"coordinates": [-92.316868929, 42.005129322], "type": "Point"}, "id": "CmSeyfva-REvun-CnQHEieHBfXQ=", "properties": {"@spider": "usps_collection_boxes", "addr:city": "ELBERON", "addr:country": "US", "addr:full": "112 MAIN ST", "addr:postcode": "52225", "addr:state": "IA", "amenity": "post_box", "brand": "United States Postal Service", "brand:wikidata": "Q668687", "collection_times": "Mo-Sa 15:45", "name": "USPS COLLECTION BOX - BLUE BOX", "note": "ON 12/24 AND 12/31, THIS BOX MAY BE COLLECTED AS EARLY AS 12 NOON.", "nsi_id": "unitedstatespostalservice-a77078", "operator": "United States Postal Service", "operator:short": "USPS", "operator:type": "public", "operator:wikidata": "Q668687", "ref": "5222500000"}, "type": "Feature"}
{"geometry": {"coordinates": [-92.316868929, 42.005129322], "type": "Point"}, "id": "mBLW39vKInRYhrn05x3_ajaktXk=", "properties": {"@spider": "usps_collection_boxes", "addr:city": "ELBERON", "addr:country": "US", "addr:full": "112 MAIN ST", "addr:postcode": "52225", "addr:state": "IA", "amenity": "post_box", "brand": "United States Postal Service", "brand:wikidata": "Q668687", "collection_times": "Mo-Fr 11:15", "name": "USPS COLLECTION BOX - PO LOBBY", "nsi_id": "unitedstatespostalservice-a77078", "operator": "United States Postal Service", "operator:short": "USPS", "operator:type": "public", "operator:wikidata": "Q668687", "ref": "5222500001"}, "type": "Feature"}
{"geometry": {"coordinates": [-92.316868929, 42.005129322], "type": "Point"}, "id": "ChBb69MuxKGJSzS2Rtjb3ybnmQs=", "properties": {"@spider": "usps_collection_boxes", "addr:city": "ELBERON", "addr:country": "US", "addr:full": "112 MAIN ST", "addr:postcode": "52225", "addr:state": "IA", "amenity": "post_box", "brand": "United States Postal Service", "brand:wikidata": "Q668687", "collection_times": "Mo-Fr 11:30; Sa 11:00", "name": "USPS COLLECTION BOX - PO LOBBY", "nsi_id": "unitedstatespostalservice-a77078", "operator": "United States Postal Service", "operator:short": "USPS", "operator:type": "public", "operator:wikidata": "Q668687", "ref": "5222500002"}, "type": "Feature"}
{"geometry": {"coordinates": [-91.585109546, 41.87363969], "type": "Point"}, "id": "igsR8JNtrupsOkpUz4TOLOtA-yw=", "properties": {"@spider": "usps_collection_boxes", "addr:city": "ELY", "addr:country": "US", "addr:full": "1690 DOWS ST", "addr:postcode": "52227", "addr:state": "IA", "amenity": "post_box", "brand": "United States Postal Service", "brand:wikidata": "Q668687", "collection_times": "Mo-Fr 16:00; Sa 16:45", "name": "USPS COLLECTION BOX - BLUE BOX", "note": "ON 12/24 AND 12/31, THIS BOX MAY BE COLLECTED AS EARLY AS 12 NOON.", "nsi_id": "unitedstatespostalservice-a77078", "operator": "United States Postal Service", "operator:short": "USPS", "operator:type": "public", "operator:wikidata": "Q668687", "ref": "5222700000"}, "type": "Feature"}
{"geometry": {"coordinates": [-91.585109546, 41.87363969], "type": "Point"}, "id": "gao8CQ-AClsEhokE-IviQFayQI0=", "properties": {"@spider": "usps_collection_boxes", "addr:city": "ELY", "addr:country": "US", "addr:full": "1690 DOWS ST", "addr:postcode": "52227", "addr:state": "IA", "amenity": "post_box", "brand": "United States Postal Service", "brand:wikidata": "Q668687", "collection_times": "Mo-Fr 14:45", "name": "USPS COLLECTION BOX - PO LOBBY", "note": "ON 12/24 AND 12/31, THIS BOX MAY BE COLLECTED AS EARLY AS 12 NOON.", "nsi_id": "unitedstatespostalservice-a77078", "operator": "United States Postal Service", "operator:short": "USPS", "operator:type": "public", "operator:wikidata": "Q668687", "ref": "5222700003"}, "type": "Feature"}
{"geometry": {"coordinates": [-91.585109546, 41.87363969], "type": "Point"}, "id": "7EMbwtTu7QfiQqZYWw_oOXg1wYI=", "properties": {"@spider": "usps_collection_boxes", "addr:city": "ELY", "addr:country": "US", "addr:full": "1690 DOWS ST", "addr:postcode": "52227", "addr:state": "IA", "amenity": "post_box", "brand": "United States Postal Service", "brand:wikidata": "Q668687", "collection_times": "Mo-Fr 15:00; Sa 08:00", "name": "USPS COLLECTION BOX - PO LOBBY", "note": "ON 12/24 AND 12/31, THIS BOX MAY BE COLLECTED AS EARLY AS 12 NOON.", "nsi_id": "unitedstatespostalservice-a77078", "operator": "United States Postal Service", "operator:short": "USPS", "operator:type": "public", "operator:wikidata": "Q668687", "ref": "5222700004"}, "type": "Feature"}
{"geometry": {"coordinates": [-91.780751968, 41.918594987], "type": "Point"}, "id": "tF2Jz64cPqY4tlDU16jIoWOgdEg=", "properties": {"@spider": "usps_collection_boxes", "addr:city": "FAIRFAX", "addr:country": "US", "addr:full": "418 VANDERBILT ST", "addr:postcode": "52228", "addr:state": "IA", "amenity": "post_box", "brand": "United States Postal Service", "brand:wikidata": "Q668687", "collection_times": "Mo-Fr 16:45; Sa 17:00", "name": "USPS COLLECTION BOX - BLUE BOX", "note": "ON 12/24 AND 12/31, THIS BOX MAY BE COLLECTED AS EARLY AS 12 NOON.", "nsi_id": "unitedstatespostalservice-a77078", "operator": "United States Postal Service", "operator:short": "USPS", "operator:type": "public", "operator:wikidata": "Q668687", "ref": "5222800000"}, "type": "Feature"}
{"geometry": {"coordinates": [-91.780751968, 41.918594987], "type": "Point"}, "id": "amYj0-4AtlB0D8sNcK2zqvnQWOo=", "properties": {"@spider": "usps_collection_boxes", "addr:city": "FAIRFAX", "addr:country": "US", "addr:full": "418 VANDERBILT ST", "addr:postcode": "52228", "addr:state": "IA", "amenity": "post_box", "brand": "United States Postal Service", "brand:wikidata": "Q668687", "collection_times": "Mo-Fr 16:45", "name": "USPS COLLECTION BOX - PO LOBBY", "note": "ON 12/24 AND 12/31, THIS BOX MAY BE COLLECTED AS EARLY AS 12 NOON.", "nsi_id": "unitedstatespostalservice-a77078", "operator": "United States Postal Service", "operator:short": "USPS", "operator:type": "public", "operator:wikidata": "Q668687", "ref": "5222800001"}, "type": "Feature"}
{"geometry": {"coordinates": [-91.780751968, 41.918594987], "type": "Point"}, "id": "DqkKKEIaik3_vXFfvLJah049bEg=", "properties": {"@spider": "usps_collection_boxes", "addr:city": "FAIRFAX", "addr:country": "US", "addr:full": "418 VANDERBILT ST", "addr:postcode": "52228", "addr:state": "IA", "amenity": "post_box", "brand": "United States Postal Service", "brand:wikidata": "Q668687", "collection_times": "Mo-Fr 15:00; Sa 12:00", "name": "USPS COLLECTION BOX - PO LOBBY", "note": "ON 12/24 AND 12/31, THIS BOX MAY BE COLLECTED AS EARLY AS 12 NOON.", "nsi_id": "unitedstatespostalservice-a77078", "operator": "United States Postal Service", "operator:short": "USPS", "operator:type": "public", "operator:wikidata": "Q668687", "ref": "5222800002"}, "type": "Feature"}
{"geometry": {"coordinates": [-92.142859636, 42.142255479], "type": "Point"}, "id": "1RyWPOVUfS6Z_oNVN__I2qVJyhw=", "properties": {"@spider": "usps_collection_boxes", "addr:city": "GARRISON", "addr:country": "US", "addr:full": "102 PINE ST", "addr:postcode": "52229", "addr:state": "IA", "amenity": "post_box", "brand": "United States Postal Service", "brand:wikidata": "Q668687", "collection_times": "Mo-Fr 16:00; Sa 15:00", "name": "USPS COLLECTION BOX - BLUE BOX", "note": "ON 12/24 AND 12/31, THIS BOX MAY BE COLLECTED AS EARLY AS 12 NOON.", "nsi_id": "unitedstatespostalservice-a77078", "operator": "United States Postal Service", "operator:short": "USPS", "operator:type": "public", "operator:wikidata": "Q668687", "ref": "5222900000"}, "type": "Feature"}
{"geometry": {"coordinates": [-92.142859636, 42.142255479], "type": "Point"}, "id": "ljIcc_003TLAydCX8EuilZy2yHY=", "properties": {"@spider": "usps_collection_boxes", "addr:city": "GARRISON", "addr:country": "US", "addr:full": "102 PINE ST", "addr:postcode": "52229", "addr:state": "IA", "amenity": "post_box", "brand": "United States Postal Service", "brand:wikidata": "Q668687", "collection_times": "Mo-Fr 12:45", "name": "USPS COLLECTION BOX - PO LOBBY", "note": "ON 12/24 AND 12/31, THIS BOX MAY BE COLLECTED AS EARLY AS 12 NOON.", "nsi_id": "unitedstatespostalservice-a77078", "operator": "United States Postal Service", "operator:short": "USPS", "operator:type": "public", "operator:wikidata": "Q668687", "ref": "5222900001"}, "type": "Feature"}
{"geometry": {"coordinates": [-92.142859636, 42.142255479], "type": "Point"}, "id": "8dhu7cj4vDUDZVhc1LiqH1zd3t0=", "properties": {"@spider": "usps_collection_boxes", "addr:city": "GARRISON", "addr:country": "US", "addr:full": "102 PINE ST", "addr:postcode": "52229", "addr:state": "IA", "amenity": "post_box", "brand": "United States Postal Service", "brand:wikidata": "Q668687", "collection_times": "Mo-Fr 13:00; Sa 11:30", "name": "USPS COLLECTION BOX - PO LOBBY", "note": "ON 12/24 AND 12/31, THIS BOX MAY BE COLLECTED AS EARLY AS 12 NOON.", "nsi_id": "unitedstatespostalservice-a77078", "operator": "United States Postal Service", "operator:short": "USPS", "operator:type": "public", "operator:wikidata": "Q668687", "ref": "5222900002"}, "type": "Feature"}
{"geometry": {"coordinates": [-92.344511756, 41.784895486], "type": "Point"}, "id": "9e5MHHhxt4dCubZTD_EkdeCjufI=", "properties": {"@spider": "usps_collection_boxes", "addr:city": "HARTWICK", "addr:country": "US", "addr:full": "209 MAIN ST", "addr:postcode": "52232", "addr:state": "IA", "amenity": "post_box", "brand": "United States Postal Service", "brand:wikidata": "Q668687", "collection_times": "Mo-Sa 16:15", "name": "USPS COLLECTION BOX - BLUE BOX", "note": "ON 12/24 AND 12/31, THIS BOX MAY BE COLLECTED AS EARLY AS 12 NOON.", "nsi_id": "unitedstatespostalservice-a77078", "operator": "United States Postal Service", "operator:short": "USPS", "operator:type": "public", "operator:wikidata": "Q668687", "ref": "5223200000"}, "type": "Feature"}
{"geometry": {"coordinates": [-91.6708770356, 42.0374730053], "type": "Point"}, "id": "iGjhZDs5s56gWpeGc_JEAT9q43g=", "properties": {"@spider": "usps_collection_boxes", "addr:city": "HIAWATHA", "addr:country": "US", "addr:full": "99 E WILLMAN ST", "addr:postcode": "52233", "addr:state": "IA", "amenity": "post_box", "brand": "United States Postal Service", "brand:wikidata": "Q668687", "collection_times": "Mo-Sa 16:45", "name": "USPS COLLECTION BOX - BLUE BOX", "note": "ON 12/24 AND 12/31, THIS BOX MAY BE COLLECTED AS EARLY AS 12 NOON.", "nsi_id": "unitedstatespostalservice-a77078", "operator": "United States Postal Service", "operator:short": "USPS", "operator:type": "public", "operator:wikidata": "Q668687", "ref": "5223300000"}, "type": "Feature"}
{"geometry": {"coordinates": [-91.670763389, 42.037246486], "type": "Point"}, "id": "9TbvEsF4hOZT2rI1isdwUy8XvYY=", "properties": {"@spider": "usps_collection_boxes", "addr:city": "HIAWATHA", "addr:country": "US", "addr:full": "99 E WILLMAN ST", "addr:postcode": "52233", "addr:state": "IA", "amenity": "post_box", "brand": "United States Postal Service", "brand:wikidata": "Q668687", "collection_times": "Mo-Fr 16:45; Sa 11:00", "name": "USPS COLLECTION BOX - PO LOBBY", "note": "ON 12/24 AND 12/31, THIS BOX MAY BE COLLECTED AS EARLY AS 12 NOON.", "nsi_id": "unitedstatespostalservice-a77078", "operator": "United States Postal Service", "operator:short": "USPS", "operator:type": "public", "operator:wikidata": "Q668687", "ref": "5223300001"}, "type": "Feature"}
{"geometry": {"coordinates": [-91.675241026, 42.03872447], "type": "Point"}, "id": "kbyo3Eio-rU8P02bl91cumJhJuU=", "properties": {"@spider": "usps_collection_boxes", "addr:city": "HIAWATHA", "addr:country": "US", "addr:full": "101 EMMONS ST", "addr:postcode": "52233", "addr:state": "IA", "amenity": "post_box", "brand": "United States Postal Service", "brand:wikidata": "Q668687", "collection_times": "Mo-Sa 13:00", "name": "USPS COLLECTION BOX - BLUE BOX", "note": "ON 12/24 AND 12/31, THIS BOX MAY BE COLLECTED AS EARLY AS 12 NOON.", "nsi_id": "unitedstatespostalservice-a77078", "operator": "United States Postal Service", "operator:short": "USPS", "operator:type": "public", "operator:wikidata": "Q668687", "ref": "5223300002"}, "type": "Feature"}
{"geometry": {"coordinates": [-91.692934805, 42.034730508], "type": "Point"}, "id": "k0uzkqDX1MciuMr8DLwh91iwGUQ=", "properties": {"@spider": "usps_collection_boxes", "addr:city": "HIAWATHA", "addr:country": "US", "addr:full": "1440 BLAIRS FERRY RD", "addr:postcode": "52233", "addr:state": "IA", "amenity": "post_box", "brand": "United States Postal Service", "brand:wikidata": "Q668687", "collection_times": "Mo-Sa 12:00", "name": "USPS COLLECTION BOX - BLUE BOX", "nsi_id": "unitedstatespostalservice-a77078", "operator": "United States Postal Service", "operator:short": "USPS", "operator:type": "public", "operator:wikidata": "Q668687", "ref": "5223300003"}, "type": "Feature"}
{"geometry": {"coordinates": [-91.691504972, 42.045660084], "type": "Point"}, "id": "VSldi-u8yilI4z1VUQMd4JUECYQ=", "properties": {"@spider": "usps_collection_boxes", "addr:city": "HIAWATHA", "addr:country": "US", "addr:full": "805 N COMPTON DR", "addr:postcode": "52233", "addr:state": "IA", "amenity": "post_box", "brand": "United States Postal Service", "brand:wikidata": "Q668687", "collection_times": "Mo-Fr 14:30; Sa 11:30", "name": "USPS COLLECTION BOX - BLUE BOX", "note": "ON 12/24 AND 12/31, THIS BOX MAY BE COLLECTED AS EARLY AS 12 NOON.", "nsi_id": "unitedstatespostalservice-a77078", "operator": "United States Postal Service", "operator:short": "USPS", "operator:type": "public", "operator:wikidata": "Q668687", "ref": "5223300005"}, "type": "Feature"}
{"geometry": {"coordinates": [-91.697376359, 42.04365066], "type": "Point"}, "id": "wB70l0HtS0eerwXyNXU_CBR3oLo=", "properties": {"@spider": "usps_collection_boxes", "addr:city": "HIAWATHA", "addr:country": "US", "addr:full": "460 N 18TH AVE", "addr:postcode": "52233", "addr:state": "IA", "amenity": "post_box", "brand": "United States Postal Service", "brand:wikidata": "Q668687", "collection_times": "Mo-Fr 12:00; Sa 10:30", "name": "USPS COLLECTION BOX - BLUE BOX", "nsi_id": "unitedstatespostalservice-a77078", "operator": "United States Postal Service", "operator:short": "USPS", "operator:type": "public", "operator:wikidata": "Q668687", "ref": "5223300007"}, "type": "Feature"}
{"geometry": {"coordinates": [-91.670763389, 42.037246486], "type": "Point"}, "id": "S9oiFPvsLEvb8awW5rQUAF67Y10=", "properties": {"@spider": "usps_collection_boxes", "addr:city": "HIAWATHA", "addr:country": "US", "addr:full": "99 E WILLMAN ST", "addr:postcode": "52233", "addr:state": "IA", "amenity": "post_box", "brand": "United States Postal Service", "brand:wikidata": "Q668687", "collection_times": "Mo-Fr 16:45; Sa 11:00", "name": "USPS COLLECTION BOX - PO LOBBY", "note": "ON 12/24 AND 12/31, THIS BOX MAY BE COLLECTED AS EARLY AS 12 NOON.", "nsi_id": "unitedstatespostalservice-a77078", "operator": "United States Postal Service", "operator:short": "USPS", "operator:type": "public", "operator:wikidata": "Q668687", "ref": "5223300009"}, "type": "Feature"}
{"geometry": {"coordinates": [-91.534266961, 41.554099495], "type": "Point"}, "id": "RIe0WJDf8MSap4q4mt3T9CFhNHg=", "properties": {"@spider": "usps_collection_boxes", "addr:city": "HILLS", "addr:country": "US", "addr:full": "14 EAST AVE", "addr:postcode": "52235", "addr:state": "IA", "amenity": "post_box", "brand": "United States Postal Service", "brand:wikidata": "Q668687", "collection_times": "Mo-Fr 16:00; Sa 16:45", "name": "USPS COLLECTION BOX - BLUE BOX", "note": "ON 12/24 AND 12/31, THIS BOX MAY BE COLLECTED AS EARLY AS 12 NOON.", "nsi_id": "unitedstatespostalservice-a77078", "operator": "United States Postal Service", "operator:short": "USPS", "operator:type": "public", "operator:wikidata": "Q668687", "ref": "5223500000"}, "type": "Feature"}
{"geometry": {"coordinates": [-91.534266961, 41.554099495], "type": "Point"}, "id": "YeK4NVhC5GYDT0gmss-Y-jUc_sQ=", "properties": {"@spider": "usps_collection_boxes", "addr:city": "HILLS", "addr:country": "US", "addr:full": "14 EAST AVE", "addr:postcode": "52235", "addr:state": "IA", "amenity": "post_box", "brand": "United States Postal Service", "brand:wikidata": "Q668687", "collection_times": "Mo-Fr 16:00", "name": "USPS COLLECTION BOX - PO LOBBY", "note": "ON 12/24 AND 12/31, THIS BOX MAY BE COLLECTED AS EARLY AS 12 NOON.", "nsi_id": "unitedstatespostalservice-a77078", "operator": "United States Postal Service", "operator:short": "USPS", "operator:type": "public", "operator:wikidata": "Q668687", "ref": "5223500001"}, "type": "Feature"}
{"geometry": {"coordinates": [-91.534266961, 41.554099495], "type": "Point"}, "id": "cDtKGEZls-vZ96DXug1DAV5UTd8=", "properties": {"@spider": "usps_collection_boxes", "addr:city": "HILLS", "addr:country": "US", "addr:full": "14 EAST AVE", "addr:postcode": "52235", "addr:state": "IA", "amenity": "post_box", "brand": "United States Postal Service", "brand:wikidata": "Q668687", "collection_times": "Mo-Fr 16:00; Sa 09:30", "name": "USPS COLLECTION BOX - PO LOBBY", "note": "ON 12/24 AND 12/31, THIS BOX MAY BE COLLECTED AS EARLY AS 12 NOON.", "nsi_id": "unitedstatespostalservice-a77078", "operator": "United States Postal Service", "operator:short": "USPS", "operator:type": "public", "operator:wikidata": "Q668687", "ref": "5223500002"}, "type": "Feature"}
{"geometry": {"coordinates": [-91.248551606, 42.343799513], "type": "Point"}, "id": "RThfz9SDS5wifCNUUftGNIJyMw0=", "properties": {"@spider": "usps_collection_boxes", "addr:city": "HOPKINTON", "addr:country": "US", "addr:full": "104 1ST ST SW", "addr:postcode": "52237", "addr:state": "IA", "amenity": "post_box", "brand": "United States Postal Service", "brand:wikidata": "Q668687", "collection_times": "Mo-Sa 16:00", "name": "USPS COLLECTION BOX - BLUE BOX", "note": "ON 12/24 AND 12/31, THIS BOX MAY BE COLLECTED AS EARLY AS 12 NOON.", "nsi_id": "unitedstatespostalservice-a77078", "operator": "United States Postal Service", "operator:short": "USPS", "operator:type": "public", "operator:wikidata": "Q668687", "ref": "5223700000"}, "type": "Feature"}
{"geometry": {"coordinates": [-91.248551606, 42.343799513], "type": "Point"}, "id": "e-fyOnvyQZLgaUuWERkkxVO29VI=", "properties": {"@spider": "usps_collection_boxes", "addr:city": "HOPKINTON", "addr:country": "US", "addr:full": "104 1ST ST SW", "addr:postcode": "52237", "addr:state": "IA", "amenity": "post_box", "brand": "United States Postal Service", "brand:wikidata": "Q668687", "collection_times": "Mo-Fr 11:45", "name": "USPS COLLECTION BOX - PO LOBBY", "nsi_id": "unitedstatespostalservice-a77078", "operator": "United States Postal Service", "operator:short": "USPS", "operator:type": "public", "operator:wikidata": "Q668687", "ref": "5223700001"}, "type": "Feature"}
{"geometry": {"coordinates": [-91.248551606, 42.343799513], "type": "Point"}, "id": "_bnOevnx5v2hn4sSvjpwD6jJI3U=", "properties": {"@spider": "usps_collection_boxes", "addr:city": "HOPKINTON", "addr:country": "US", "addr:full": "104 1ST ST SW", "addr:postcode": "52237", "addr:state": "IA", "amenity": "post_box", "brand": "United States Postal Service", "brand:wikidata": "Q668687", "collection_times": "Mo-Fr 12:00; Sa 09:30", "name": "USPS COLLECTION BOX - PO LOBBY", "nsi_id": "unitedstatespostalservice-a77078", "operator": "United States Postal Service", "operator:short": "USPS", "operator:type": "public", "operator:wikidata": "Q668687", "ref": "5223700002"}, "type": "Feature"}
{"geometry": {"coordinates": [-91.521144721, 41.654213916], "type": "Point"}, "id": "V890-CZY-7XWrpmBh7OzPnxbhS8=", "properties": {"@spider": "usps_collection_boxes", "addr:city": "IOWA CITY", "addr:country": "US", "addr:full": "540 S SUMMIT ST", "addr:postcode": "52240", "addr:state": "IA", "amenity": "post_box", "brand": "United States Postal Service", "brand:wikidata": "Q668687", "collection_times": "Mo-Sa 09:00", "name": "USPS COLLECTION BOX - BLUE BOX", "nsi_id": "unitedstatespostalservice-a77078", "operator": "United States Postal Service", "operator:short": "USPS", "operator:type": "public", "operator:wikidata": "Q668687", "ref": "5224000003"}, "type": "Feature"}
{"geometry": {"coordinates": [-91.500808236, 41.648130199], "type": "Point"}, "id": "W0PX4asGSYIulBRKOjHWV-QL0Og=", "properties": {"@spider": "usps_collection_boxes", "addr:city": "IOWA CITY", "addr:country": "US", "addr:full": "1035 WADE ST", "addr:postcode": "52240", "addr:state": "IA", "amenity": "post_box", "brand": "United States Postal Service", "brand:wikidata": "Q668687", "collection_times": "Mo-Sa 15:00", "name": "USPS COLLECTION BOX - BLUE BOX", "note": "ON 12/24 AND 12/31, THIS BOX MAY BE COLLECTED AS EARLY AS 12 NOON.", "nsi_id": "unitedstatespostalservice-a77078", "operator": "United States Postal Service", "operator:short": "USPS", "operator:type": "public", "operator:wikidata": "Q668687", "ref": "5224000004"}, "type": "Feature"}
{"geometry": {"coordinates": [-91.498668181, 41.648315098], "type": "Point"}, "id": "EhQeo8ueLrUcugpgJiMq7bthyXI=", "properties": {"@spider": "usps_collection_boxes", "addr:city": "IOWA CITY", "addr:country": "US", "addr:full": "1040 WILLIAM ST", "addr:postcode": "52240", "addr:state": "IA", "amenity": "post_box", "brand": "United States Postal Service", "brand:wikidata": "Q668687", "collection_times": "Mo-Sa 15:00", "name": "USPS COLLECTION BOX - BLUE BOX", "note": "ON 12/24 AND 12/31, THIS BOX MAY BE COLLECTED AS EARLY AS 12 NOON.", "nsi_id": "unitedstatespostalservice-a77078", "operator": "United States Postal Service", "operator:short": "USPS", "operator:type": "public", "operator:wikidata": "Q668687", "ref": "5224000005"}, "type": "Feature"}
{"geometry": {"coordinates": [-91.529848579, 41.648149664], "type": "Point"}, "id": "UBaErg6dNstZ2IWFmPfwnRt6z00=", "properties": {"@spider": "usps_collection_boxes", "addr:city": "IOWA CITY", "addr:country": "US", "addr:full": "1105 GILBERT CT", "addr:postcode": "52240", "addr:state": "IA", "amenity": "post_box", "brand": "United States Postal Service", "brand:wikidata": "Q668687", "collection_times": "Mo-Sa 09:30", "name": "USPS COLLECTION BOX - BLUE BOX", "nsi_id": "unitedstatespostalservice-a77078", "operator": "United States Postal Service", "operator:short": "USPS", "operator:type": "public", "operator:wikidata": "Q668687", "ref": "5224000016"}, "type": "Feature"}
{"geometry": {"coordinates": [-91.515437757, 41.656499413], "type": "Point"}, "id": "eAphG2a2VNNGoHEycgQcST175Go=", "properties": {"@spider": "usps_collection_boxes", "addr:city": "IOWA CITY", "addr:country": "US", "addr:full": "409 GRANT ST", "addr:postcode": "52240", "addr:state": "IA", "amenity": "post_box", "brand": "United States Postal Service", "brand:wikidata": "Q668687", "collection_times": "Mo-Sa 09:30", "name": "USPS COLLECTION BOX - BLUE BOX", "nsi_id": "unitedstatespostalservice-a77078", "operator": "United States Postal Service", "operator:short": "USPS", "operator:type": "public", "operator:wikidata": "Q668687", "ref": "5224000021"}, "type": "Feature"}
{"geometry": {"coordinates": [-91.53017898, 41.640366426], "type": "Point"}, "id": "IOlnz8IsBDSph3kRFP_DMygT_ao=", "properties": {"@spider": "usps_collection_boxes", "addr:city": "IOWA CITY", "addr:country": "US", "addr:full": "2018 WATERFRONT DR", "addr:postcode": "52240", "addr:state": "IA", "amenity": "post_box", "brand": "United States Postal Service", "brand:wikidata": "Q668687", "collection_times": "Mo-Sa 12:00", "name": "USPS COLLECTION BOX - BLUE BOX", "nsi_id": "unitedstatespostalservice-a77078", "operator": "United States Postal Service", "operator:short": "USPS", "operator:type": "public", "operator:wikidata": "Q668687", "ref": "5224000039"}, "type": "Feature"}
{"geometry": {"coordinates": [-91.494357641, 41.633153976], "type": "Point"}, "id": "O7k78nxXwFhqAyyb7UZTiEbRisM=", "properties": {"@spider": "usps_collection_boxes", "addr:city": "IOWA CITY", "addr:country": "US", "addr:full": "2801 HIGHWAY 6 E", "addr:postcode": "52240", "addr:state": "IA", "amenity": "post_box", "brand": "United States Postal Service", "brand:wikidata": "Q668687", "collection_times": "Mo-Sa 10:00", "name": "USPS COLLECTION BOX - BLUE BOX", "nsi_id": "unitedstatespostalservice-a77078", "operator": "United States Postal Service", "operator:short": "USPS", "operator:type": "public", "operator:wikidata": "Q668687", "ref": "5224000044"}, "type": "Feature"}
{"geometry": {"coordinates": [-91.534590112, 41.660274185], "type": "Point"}, "id": "ftfb1dTkWQyyuwuYKkMT34HJanI=", "properties": {"@spider": "usps_collection_boxes", "addr:city": "IOWA CITY", "addr:country": "US", "addr:full": "32 S. CLINTON ST.", "addr:postcode": "52240", "addr:state": "IA", "amenity": "post_box", "brand": "United States Postal Service", "brand:wikidata": "Q668687", "collection_times": "Mo-Fr 17:00; Sa 14:00", "name": "USPS COLLECTION BOX - BLUE BOX", "note": "ON 12/24 AND 12/31, THIS BOX MAY BE COLLECTED AS EARLY AS 12 NOON.", "nsi_id": "unitedstatespostalservice-a77078", "operator": "United States Postal Service", "operator:short": "USPS", "operator:type": "public", "operator:wikidata": "Q668687", "ref": "5224000080"}, "type": "Feature"}
{"geometry": {"coordinates": [-91.531632979, 41.660424], "type": "Point"}, "id": "8eFujOOs8nuBBA1kzggweScePsY=", "properties": {"@spider": "usps_collection_boxes", "addr:city": "IOWA CITY", "addr:country": "US", "addr:full": "28 S LINN ST", "addr:postcode": "52240", "addr:state": "IA", "amenity": "post_box", "brand": "United States Postal Service", "brand:wikidata": "Q668687", "collection_times": "Mo-Sa 15:00", "name": "USPS COLLECTION BOX - BLUE BOX", "note": "ON 12/24 AND 12/31, THIS BOX MAY BE COLLECTED AS EARLY AS 12 NOON.", "nsi_id": "unitedstatespostalservice-a77078", "operator": "United States Postal Service", "operator:short": "USPS", "operator:type": "public", "operator:wikidata": "Q668687", "ref": "5224000081"}, "type": "Feature"}
{"geometry": {"coordinates": [-91.533250226, 41.650712696], "type": "Point"}, "id": "IfVO17kjq_CtTN9zzzHhUdT5aC8=", "properties": {"@spider": "usps_collection_boxes", "addr:city": "IOWA CITY", "addr:country": "US", "addr:full": "913 S DUBUQUE ST", "addr:postcode": "52240", "addr:state": "IA", "amenity": "post_box", "brand": "United States Postal Service", "brand:wikidata": "Q668687", "collection_times": "Mo-Fr 15:00", "name": "USPS COLLECTION BOX - BLUE BOX", "note": "ON 12/24 AND 12/31, THIS BOX MAY BE COLLECTED AS EARLY AS 12 NOON.", "nsi_id": "unitedstatespostalservice-a77078", "operator": "United States Postal Service", "operator:short": "USPS", "operator:type": "public", "operator:wikidata": "Q668687", "ref": "5224000082"}, "type": "Feature"}
{"geometry": {"coordinates": [-91.504906135, 41.642435148], "type": "Point"}, "id": "dpAs1yVCIVm9ZMHN4Yg81lWtcjg=", "properties": {"@spider": "usps_collection_boxes", "addr:city": "IOWA CITY", "addr:country": "US", "addr:full": "1700 S 1ST AVE", "addr:postcode": "52240", "addr:state": "IA", "amenity": "post_box", "brand": "United States Postal Service", "brand:wikidata": "Q668687", "collection_times": "Mo-Sa 14:30", "name": "USPS COLLECTION BOX - BLUE BOX", "note": "ON 12/24 AND 12/31, THIS BOX MAY BE COLLECTED AS EARLY AS 12 NOON.", "nsi_id": "unitedstatespostalservice-a77078", "operator": "United States Postal Service", "operator:short": "USPS", "operator:type": "public", "operator:wikidata": "Q668687", "ref": "5224000086"}, "type": "Feature"}
{"geometry": {"coordinates": [-91.534617267, 41.656166329], "type": "Point"}, "id": "BlaTeuqhzaEAoiEVwqhKknI4F1Q=", "properties": {"@spider": "usps_collection_boxes", "addr:city": "IOWA CITY", "addr:country": "US", "addr:full": "400 S CLINTON ST", "addr:postcode": "52240", "addr:state": "IA", "amenity": "post_box", "brand": "United States Postal Service", "brand:wikidata": "Q668687", "collection_times": "Mo-Fr 17:00", "name": "USPS COLLECTION BOX - BLUE BOX", "note": "ON 12/24 AND 12/31, THIS BOX MAY BE COLLECTED AS EARLY AS 12 NOON.", "nsi_id": "unitedstatespostalservice-a77078", "operator": "United States Postal Service", "operator:short": "USPS", "operator:type": "public", "operator:wikidata": "Q668687", "ref": "5224000101"}, "type": "Feature"}
{"geometry": {"coordinates": [-91.504906135, 41.642435148], "type": "Point"}, "id": "LKfSKdBBOmuTbS5fgCKoayC8y6U=", "properties": {"@spider": "usps_collection_boxes", "addr:city": "IOWA CITY", "addr:country": "US", "addr:full": "1700 S 1ST AVE", "addr:postcode": "52240", "addr:state": "IA", "amenity": "post_box", "brand": "United States Postal Service", "brand:wikidata": "Q668687", "collection_times": "Mo-Sa 14:30", "name": "USPS COLLECTION BOX - BLUE BOX", "note": "ON 12/24 AND 12/31, THIS BOX MAY BE COLLECTED AS EARLY AS 12 NOON.", "nsi_id": "unitedstatespostalservice-a77078", "operator": "United States Postal Service", "operator:short": "USPS", "operator:type": "public", "operator:wikidata": "Q668687", "ref": "5224000104"}, "type": "Feature"}
{"geometry": {"coordinates": [-91.511569977, 41.64286103], "type": "Point"}, "id": "0xSSUX8HHCm1EX1kyzSSwNmiL18=", "properties": {"@spider": "usps_collection_boxes", "addr:city": "IOWA CITY", "addr:country": "US", "addr:full": "1620 SYCAMORE ST", "addr:postcode": "52240", "addr:state": "IA", "amenity": "post_box", "brand": "United States Postal Service", "brand:wikidata": "Q668687", "collection_times": "Mo-Fr 14:00; Sa 10:00", "name": "USPS COLLECTION BOX - BLUE BOX", "note": "ON 12/24 AND 12/31, THIS BOX MAY BE COLLECTED AS EARLY AS 12 NOON.", "nsi_id": "unitedstatespostalservice-a77078", "operator": "United States Postal Service", "operator:short": "USPS", "operator:type": "public", "operator:wikidata": "Q668687", "ref": "5224000105"}, "type": "Feature"}
{"geometry": {"coordinates": [-91.520772276, 41.642032241], "type": "Point"}, "id": "nrKGzKnQQLyClV8Hj_TdXqaDi_E=", "properties": {"@spider": "usps_collection_boxes", "addr:city": "IOWA CITY", "addr:country": "US", "addr:full": "925 HIGHWAY 6 E", "addr:postcode": "52240", "addr:state": "IA", "amenity": "post_box", "brand": "United States Postal Service", "brand:wikidata": "Q668687", "collection_times": "Mo-Sa 17:30", "name": "USPS COLLECTION BOX - PO LOBBY", "note": "ON 12/24 AND 12/31, THIS BOX MAY BE COLLECTED AS EARLY AS 12 NOON.", "nsi_id": "unitedstatespostalservice-a77078", "operator": "United States Postal Service", "operator:short": "USPS", "operator:type": "public", "operator:wikidata": "Q668687", "ref": "5224000128"}, "type": "Feature"}
{"geometry": {"coordinates": [-91.53468826, 41.65884], "type": "Point"}, "id": "UrhXUiOF7x3FywEaAmL__e9QeSQ=", "properties": {"@spider": "usps_collection_boxes", "addr:city": "IOWA CITY", "addr:country": "US", "addr:full": "201 S CLINTON ST", "addr:postcode": "52240", "addr:state": "IA", "amenity": "post_box", "brand": "United States Postal Service", "brand:wikidata": "Q668687", "collection_times": "Mo-Fr 14:00; Sa 10:00", "name": "USPS COLLECTION BOX - BLUE BOX", "note": "ON 12/24 AND 12/31, THIS BOX MAY BE COLLECTED AS EARLY AS 12 NOON.", "nsi_id": "unitedstatespostalservice-a77078", "operator": "United States Postal Service", "operator:short": "USPS", "operator:type": "public", "operator:wikidata": "Q668687", "ref": "5224000129"}, "type": "Feature"}
{"geometry": {"coordinates": [-91.511598801, 41.652063], "type": "Point"}, "id": "ykPLqzoi-hbiNqtbSP-xiaBpkbY=", "properties": {"@spider": "usps_collection_boxes", "addr:city": "IOWA CITY", "addr:country": "US", "addr:full": "801 S 7TH AVE", "addr:postcode": "52240", "addr:state": "IA", "amenity": "post_box", "brand": "United States Postal Service", "brand:wikidata": "Q668687", "collection_times": "Mo-Sa 11:00", "name": "USPS COLLECTION BOX - BLUE BOX", "nsi_id": "unitedstatespostalservice-a77078", "operator": "United States Postal Service", "operator:short": "USPS", "operator:type": "public", "operator:wikidata": "Q668687", "ref": "5224000131"}, "type": "Feature"}
{"geometry": {"coordinates": [-91.520772276, 41.642032241], "type": "Point"}, "id": "VPVoW_vXup_GRfkOHqeTRaCcJBA=", "properties": {"@spider": "usps_collection_boxes", "addr:city": "IOWA CITY", "addr:country": "US", "addr:full": "925 HIGHWAY 6 E", "addr:postcode": "52240", "addr:state": "IA", "amenity": "post_box", "brand": "United States Postal Service", "brand:wikidata": "Q668687", "collection_times": "Mo-Sa 17:30", "name": "USPS COLLECTION BOX - APC", "note": "ON 12/24 AND 12/31, THIS BOX MAY BE COLLECTED AS EARLY AS 12 NOON.", "nsi_id": "unitedstatespostalservice-a77078", "operator": "United States Postal Service", "operator:short": "USPS", "operator:type": "public", "operator:wikidata": "Q668687", "ref": "5224000132"}, "type": "Feature"}
{"geometry": {"coordinates": [-91.520772276, 41.642032241], "type": "Point"}, "id": "_04gYxYN3_HHz9n4QEcI6vNrmBU=", "properties": {"@spider": "usps_collection_boxes", "addr:city": "IOWA CITY", "addr:country": "US", "addr:full": "925 HIGHWAY 6 E", "addr:postcode": "52240", "addr:state": "IA", "amenity": "post_box", "brand": "United States Postal Service", "brand:wikidata": "Q668687", "collection_times": "Mo-Sa 17:30", "name": "USPS COLLECTION BOX - BLUE BOX", "note": "ON 12/24 AND 12/31, THIS BOX MAY BE COLLECTED AS EARLY AS 12 NOON.", "nsi_id": "unitedstatespostalservice-a77078", "operator": "United States Postal Service", "operator:short": "USPS", "operator:type": "public", "operator:wikidata": "Q668687", "ref": "5224000133"}, "type": "Feature"}
{"geometry": {"coordinates": [-91.520772276, 41.642032241], "type": "Point"}, "id": "Q6PKmUF4rXjDnxKMbUoqpzliMFk=", "properties": {"@spider": "usps_collection_boxes", "addr:city": "IOWA CITY", "addr:country": "US", "addr:full": "925 HIGHWAY 6 E", "addr:postcode": "52240", "addr:state": "IA", "amenity": "post_box", "brand": "United States Postal Service", "brand:wikidata": "Q668687", "collection_times": "Mo-Fr 17:00; Sa 12:00", "name": "USPS COLLECTION BOX - PO LOBBY", "note": "ON 12/24 AND 12/31, THIS BOX MAY BE COLLECTED AS EARLY AS 12 NOON.", "nsi_id": "unitedstatespostalservice-a77078", "operator": "United States Postal Service", "operator:short": "USPS", "operator:type": "public", "operator:wikidata": "Q668687", "ref": "5224000139"}, "type": "Feature"}
{"geometry": {"coordinates": [-91.596234008, 41.679748004], "type": "Point"}, "id": "d86wA92hV5vP0p9izsvhXVw79IE=", "properties": {"@spider": "usps_collection_boxes", "addr:city": "IOWA CITY", "addr:country": "US", "addr:full": "2150 JAMES ST", "addr:postcode": "52241", "addr:state": "IA", "amenity": "post_box", "brand": "United States Postal Service", "brand:wikidata": "Q668687", "collection_times": "Mo-Fr 17:15; Sa 16:00", "name": "USPS COLLECTION BOX - BLUE BOX", "note": "ON 12/24 AND 12/31, THIS BOX MAY BE COLLECTED AS EARLY AS 12 NOON.", "nsi_id": "unitedstatespostalservice-a77078", "operator": "United States Postal Service", "operator:short": "USPS", "operator:type": "public", "operator:wikidata": "Q668687", "ref": "5224100000"}, "type": "Feature"}
{"geometry": {"coordinates": [-91.633572129, 41.70277272], "type": "Point"}, "id": "IkJsM-s10B6oeheZyBde86IR_y8=", "properties": {"@spider": "usps_collection_boxes", "addr:city": "IOWA CITY", "addr:country": "US", "addr:full": "3701 2ND ST", "addr:postcode": "52241", "addr:state": "IA", "amenity": "post_box", "brand": "United States Postal Service", "brand:wikidata": "Q668687", "collection_times": "Mo-Sa 09:00", "name": "USPS COLLECTION BOX - BLUE BOX", "nsi_id": "unitedstatespostalservice-a77078", "operator": "United States Postal Service", "operator:short": "USPS", "operator:type": "public", "operator:wikidata": "Q668687", "ref": "5224100002"}, "type": "Feature"}
{"geometry": {"coordinates": [-91.612286296, 41.695717463], "type": "Point"}, "id": "kTOQDr-7iPiYfWV41vF1FyIi6dQ=", "properties": {"@spider": "usps_collection_boxes", "addr:city": "IOWA CITY", "addr:country": "US", "addr:full": "2801 COMMERCE DR", "addr:postcode": "52241", "addr:state": "IA", "amenity": "post_box", "brand": "United States Postal Service", "brand:wikidata": "Q668687", "collection_times": "Mo-Sa 09:30", "name": "USPS COLLECTION BOX - BLUE BOX", "nsi_id": "unitedstatespostalservice-a77078", "operator": "United States Postal Service", "operator:short": "USPS", "operator:type": "public", "operator:wikidata": "Q668687", "ref": "5224100003"}, "type": "Feature"}
{"geometry": {"coordinates": [-91.605544237, 41.699540378], "type": "Point"}, "id": "lg2IB3xIy-B-WLmfhPpHjjXvn4w=", "properties": {"@spider": "usps_collection_boxes", "addr:city": "IOWA CITY", "addr:country": "US", "addr:full": "2551 HOLIDAY RD", "addr:postcode": "52241", "addr:state": "IA", "amenity": "post_box", "brand": "United States Postal Service", "brand:wikidata": "Q668687", "collection_times": "Mo-Sa 09:30", "name": "USPS COLLECTION BOX - BLUE BOX", "nsi_id": "unitedstatespostalservice-a77078", "operator": "United States Postal Service", "operator:short": "USPS", "operator:type": "public", "operator:wikidata": "Q668687", "ref": "5224100008"}, "type": "Feature"}
{"geometry": {"coordinates": [-91.561953048, 41.701482447], "type": "Point"}, "id": "V3QnmBppWZvv3Ycg8wCh8qLhVmY=", "properties": {"@spider": "usps_collection_boxes", "addr:city": "IOWA CITY", "addr:country": "US", "addr:full": "100 E OAKDALE BLVD", "addr:postcode": "52241", "addr:state": "IA", "amenity": "post_box", "brand": "United States Postal Service", "brand:wikidata": "Q668687", "collection_times": "Mo-Sa 11:00", "name": "USPS COLLECTION BOX - BLUE BOX", "nsi_id": "unitedstatespostalservice-a77078", "operator": "United States Postal Service", "operator:short": "USPS", "operator:type": "public", "operator:wikidata": "Q668687", "ref": "5224100010"}, "type": "Feature"}
{"geometry": {"coordinates": [-91.595917911, 41.680020352], "type": "Point"}, "id": "3a3mGReeaqQ9_SmlVS11Ka_pRS4=", "properties": {"@spider": "usps_collection_boxes", "addr:city": "IOWA CITY", "addr:country": "US", "addr:full": "2150 JAMES ST", "addr:postcode": "52241", "addr:state": "IA", "amenity": "post_box", "brand": "United States Postal Service", "brand:wikidata": "Q668687", "collection_times": "Mo-Fr 17:15; Sa 16:00", "name": "USPS COLLECTION BOX - PO LOBBY", "note": "ON 12/24 AND 12/31, THIS BOX MAY BE COLLECTED AS EARLY AS 12 NOON.", "nsi_id": "unitedstatespostalservice-a77078", "operator": "United States Postal Service", "operator:short": "USPS", "operator:type": "public", "operator:wikidata": "Q668687", "ref": "5224100013"}, "type": "Feature"}
{"geometry": {"coordinates": [-91.578493465, 41.673452384], "type": "Point"}, "id": "xhagal3x90Bs_I_3pSaPyoerXTA=", "properties": {"@spider": "usps_collection_boxes", "addr:city": "IOWA CITY", "addr:country": "US", "addr:full": "420 10TH AVE", "addr:postcode": "52241", "addr:state": "IA", "amenity": "post_box", "brand": "United States Postal Service", "brand:wikidata": "Q668687", "collection_times": "Mo-Sa 14:00", "name": "USPS COLLECTION BOX - BLUE BOX", "note": "ON 12/24 AND 12/31, THIS BOX MAY BE COLLECTED AS EARLY AS 12 NOON.", "nsi_id": "unitedstatespostalservice-a77078", "operator": "United States Postal Service", "operator:short": "USPS", "operator:type": "public", "operator:wikidata": "Q668687", "ref": "5224100014"}, "type": "Feature"}
{"geometry": {"coordinates": [-91.595917911, 41.680020352], "type": "Point"}, "id": "1F7EbHUsSrdH0voSwW5XStF3cUI=", "properties": {"@spider": "usps_collection_boxes", "addr:city": "IOWA CITY", "addr:country": "US", "addr:full": "2150 JAMES ST", "addr:postcode": "52241", "addr:state": "IA", "amenity": "post_box", "brand": "United States Postal Service", "brand:wikidata": "Q668687", "collection_times": "Mo-Fr 17:00; Sa 12:00", "name": "USPS COLLECTION BOX - PO LOBBY", "note": "ON 12/24 AND 12/31, THIS BOX MAY BE COLLECTED AS EARLY AS 12 NOON.", "nsi_id": "unitedstatespostalservice-a77078", "operator": "United States Postal Service", "operator:short": "USPS", "operator:type": "public", "operator:wikidata": "Q668687", "ref": "5224100019"}, "type": "Feature"}
{"geometry": {"coordinates": [-91.536454997, 41.662420227], "type": "Point"}, "id": "TeRO_JbQfxsC3kfVU7NLqwZddo8=", "properties": {"@spider": "usps_collection_boxes", "addr:city": "IOWA CITY", "addr:country": "US", "addr:full": "100 MACBRIDE HALL", "addr:postcode": "52242", "addr:state": "IA", "amenity": "post_box", "brand": "United States Postal Service", "brand:wikidata": "Q668687", "collection_times": "Mo-Sa 14:00", "name": "USPS COLLECTION BOX - BLUE BOX", "note": "ON 12/24 AND 12/31, THIS BOX MAY BE COLLECTED AS EARLY AS 12 NOON.", "nsi_id": "unitedstatespostalservice-a77078", "operator": "United States Postal Service", "operator:short": "USPS", "operator:type": "public", "operator:wikidata": "Q668687", "ref": "5224200004"}, "type": "Feature"}
{"geometry": {"coordinates": [-91.537780492, 41.660221492], "type": "Point"}, "id": "BdBkRaJcPODRu7eHIM-RgnF-wgQ=", "properties": {"@spider": "usps_collection_boxes", "addr:city": "IOWA CITY", "addr:country": "US", "addr:full": "100 MAIN LIBRARY", "addr:postcode": "52242", "addr:state": "IA", "amenity": "post_box", "brand": "United States Postal Service", "brand:wikidata": "Q668687", "collection_times": "Mo-Sa 14:00", "name": "USPS COLLECTION BOX - BLUE BOX", "note": "ON 12/24 AND 12/31, THIS BOX MAY BE COLLECTED AS EARLY AS 12 NOON.", "nsi_id": "unitedstatespostalservice-a77078", "operator": "United States Postal Service", "operator:short": "USPS", "operator:type": "public", "operator:wikidata": "Q668687", "ref": "5224200005"}, "type": "Feature"}
{"geometry": {"coordinates": [-91.502064183, 41.665887], "type": "Point"}, "id": "5FBr_Vitt5Kd7qTFFKDJg64DsRE=", "properties": {"@spider": "usps_collection_boxes", "addr:city": "IOWA CITY", "addr:country": "US", "addr:full": "310 N 1ST AVE", "addr:postcode": "52245", "addr:state": "IA", "amenity": "post_box", "brand": "United States Postal Service", "brand:wikidata": "Q668687", "collection_times": "Mo-Sa 14:00", "name": "USPS COLLECTION BOX - BLUE BOX", "note": "ON 12/24 AND 12/31, THIS BOX MAY BE COLLECTED AS EARLY AS 12 NOON.", "nsi_id": "unitedstatespostalservice-a77078", "operator": "United States Postal Service", "operator:short": "USPS", "operator:type": "public", "operator:wikidata": "Q668687", "ref": "5224500000"}, "type": "Feature"}
{"geometry": {"coordinates": [-91.525900332, 41.670145486], "type": "Point"}, "id": "yskuaFOz7LsYXcHTUF3aMv_VQ9o=", "properties": {"@spider": "usps_collection_boxes", "addr:city": "IOWA CITY", "addr:country": "US", "addr:full": "632 BROWN ST", "addr:postcode": "52245", "addr:state": "IA", "amenity": "post_box", "brand": "United States Postal Service", "brand:wikidata": "Q668687", "collection_times": "Mo-Sa 10:30", "name": "USPS COLLECTION BOX - BLUE BOX", "nsi_id": "unitedstatespostalservice-a77078", "operator": "United States Postal Service", "operator:short": "USPS", "operator:type": "public", "operator:wikidata": "Q668687", "ref": "5224500002"}, "type": "Feature"}
{"geometry": {"coordinates": [-91.534194, 41.666013], "type": "Point"}, "id": "llUnJRrK_CpJ8QNVHq53seJviBw=", "properties": {"@spider": "usps_collection_boxes", "addr:city": "IOWA CITY", "addr:country": "US", "addr:full": "400 N CLINTON ST", "addr:postcode": "52245", "addr:state": "IA", "amenity": "post_box", "brand": "United States Postal Service", "brand:wikidata": "Q668687", "collection_times": "Mo-Sa 13:00", "name": "USPS COLLECTION BOX - BLUE BOX", "note": "ON 12/24 AND 12/31, THIS BOX MAY BE COLLECTED AS EARLY AS 12 NOON.", "nsi_id": "unitedstatespostalservice-a77078", "operator": "United States Postal Service", "operator:short": "USPS", "operator:type": "public", "operator:wikidata": "Q668687", "ref": "5224500003"}, "type": "Feature"}
{"geometry": {"coordinates": [-91.525491335, 41.6657175], "type": "Point"}, "id": "1eLxWGoi3TmwEAScHhyI29IW6_s=", "properties": {"@spider": "usps_collection_boxes", "addr:city": "IOWA CITY", "addr:country": "US", "addr:full": "701 E DAVENPORT ST", "addr:postcode": "52245", "addr:state": "IA", "amenity": "post_box", "brand": "United States Postal Service", "brand:wikidata": "Q668687", "collection_times": "Mo-Sa 11:30", "name": "USPS COLLECTION BOX - BLUE BOX", "nsi_id": "unitedstatespostalservice-a77078", "operator": "United States Postal Service", "operator:short": "USPS", "operator:type": "public", "operator:wikidata": "Q668687", "ref": "5224500004"}, "type": "Feature"}
{"geometry": {"coordinates": [-91.532952028, 41.668227], "type": "Point"}, "id": "IwSpUBPbXMWRCsPSWS1zX32pUwE=", "properties": {"@spider": "usps_collection_boxes", "addr:city": "IOWA CITY", "addr:country": "US", "addr:full": "602 N DUBUQUE ST", "addr:postcode": "52245", "addr:state": "IA", "amenity": "post_box", "brand": "United States Postal Service", "brand:wikidata": "Q668687", "collection_times": "Mo-Sa 10:00", "name": "USPS COLLECTION BOX - BLUE BOX", "nsi_id": "unitedstatespostalservice-a77078", "operator": "United States Postal Service", "operator:short": "USPS", "operator:type": "public", "operator:wikidata": "Q668687", "ref": "5224500006"}, "type": "Feature"}
{"geometry": {"coordinates": [-91.528109665, 41.661310472], "type": "Point"}, "id": "iuYaqkywsGQMZkRW5lqIDK_ruxU=", "properties": {"@spider": "usps_collection_boxes", "addr:city": "IOWA CITY", "addr:country": "US", "addr:full": "500 IOWA AVE", "addr:postcode": "52245", "addr:state": "IA", "amenity": "post_box", "brand": "United States Postal Service", "brand:wikidata": "Q668687", "collection_times": "Mo-Sa 15:00", "name": "USPS COLLECTION BOX - BLUE BOX", "note": "ON 12/24 AND 12/31, THIS BOX MAY BE COLLECTED AS EARLY AS 12 NOON.", "nsi_id": "unitedstatespostalservice-a77078", "operator": "United States Postal Service", "operator:short": "USPS", "operator:type": "public", "operator:wikidata": "Q668687", "ref": "5224500010"}, "type": "Feature"}
{"geometry": {"coordinates": [-91.500894973, 41.651404012], "type": "Point"}, "id": "TP7UBpI1Q3fKJtmG3k_Z4BRkgLU=", "properties": {"@spider": "usps_collection_boxes", "addr:city": "IOWA CITY", "addr:country": "US", "addr:full": "812 S 1ST AVE", "addr:postcode": "52245", "addr:state": "IA", "amenity": "post_box", "brand": "United States Postal Service", "brand:wikidata": "Q668687", "collection_times": "Mo-Sa 14:30", "name": "USPS COLLECTION BOX - BLUE BOX", "note": "ON 12/24 AND 12/31, THIS BOX MAY BE COLLECTED AS EARLY AS 12 NOON.", "nsi_id": "unitedstatespostalservice-a77078", "operator": "United States Postal Service", "operator:short": "USPS", "operator:type": "public", "operator:wikidata": "Q668687", "ref": "5224500018"}, "type": "Feature"}
{"geometry": {"coordinates": [-91.576327671, 41.653590873], "type": "Point"}, "id": "WKMToFzko0mKiec1aWECByQinXw=", "properties": {"@spider": "usps_collection_boxes", "addr:city": "IOWA CITY", "addr:country": "US", "addr:full": "2626 BARTELT RD", "addr:postcode": "52246", "addr:state": "IA", "amenity": "post_box", "brand": "United States Postal Service", "brand:wikidata": "Q668687", "collection_times": "Mo-Sa 10:00", "name": "USPS COLLECTION BOX - BLUE BOX", "nsi_id": "unitedstatespostalservice-a77078", "operator": "United States Postal Service", "operator:short": "USPS", "operator:type": "public", "operator:wikidata": "Q668687", "ref": "5224600000"}, "type": "Feature"}
{"geometry": {"coordinates": [-91.554563781, 41.65044647], "type": "Point"}, "id": "7i4N6B2V8P3YHStCi6CVQdctBuU=", "properties": {"@spider": "usps_collection_boxes", "addr:city": "IOWA CITY", "addr:country": "US", "addr:full": "1101 W BENTON ST", "addr:postcode": "52246", "addr:state": "IA", "amenity": "post_box", "brand": "United States Postal Service", "brand:wikidata": "Q668687", "collection_times": "Mo-Sa 09:00", "name": "USPS COLLECTION BOX - BLUE BOX", "nsi_id": "unitedstatespostalservice-a77078", "operator": "United States Postal Service", "operator:short": "USPS", "operator:type": "public", "operator:wikidata": "Q668687", "ref": "5224600001"}, "type": "Feature"}
{"geometry": {"coordinates": [-91.572482449, 41.656331482], "type": "Point"}, "id": "UK6qZ1JukLaGdhsUz9-TaVjk5xM=", "properties": {"@spider": "usps_collection_boxes", "addr:city": "IOWA CITY", "addr:country": "US", "addr:full": "303 FINKBINE LN", "addr:postcode": "52246", "addr:state": "IA", "amenity": "post_box", "brand": "United States Postal Service", "brand:wikidata": "Q668687", "collection_times": "Mo-Sa 09:30", "name": "USPS COLLECTION BOX - BLUE BOX", "nsi_id": "unitedstatespostalservice-a77078", "operator": "United States Postal Service", "operator:short": "USPS", "operator:type": "public", "operator:wikidata": "Q668687", "ref": "5224600002"}, "type": "Feature"}
{"geometry": {"coordinates": [-91.55349507, 41.656985955], "type": "Point"}, "id": "1qd8YwV6twx7cM5FXdfIkYoX5v8=", "properties": {"@spider": "usps_collection_boxes", "addr:city": "IOWA CITY", "addr:country": "US", "addr:full": "1006 MELROSE AVE", "addr:postcode": "52246", "addr:state": "IA", "amenity": "post_box", "brand": "United States Postal Service", "brand:wikidata": "Q668687", "collection_times": "Mo-Sa 10:00", "name": "USPS COLLECTION BOX - BLUE BOX", "nsi_id": "unitedstatespostalservice-a77078", "operator": "United States Postal Service", "operator:short": "USPS", "operator:type": "public", "operator:wikidata": "Q668687", "ref": "5224600008"}, "type": "Feature"}
{"geometry": {"coordinates": [-91.574089774, 41.651980973], "type": "Point"}, "id": "F_fSLnRDLFwBnCrJls4byT42ReE=", "properties": {"@spider": "usps_collection_boxes", "addr:city": "IOWA CITY", "addr:country": "US", "addr:full": "701 MORMON TREK BLVD", "addr:postcode": "52246", "addr:state": "IA", "amenity": "post_box", "brand": "United States Postal Service", "brand:wikidata": "Q668687", "collection_times": "Mo-Sa 14:00", "name": "USPS COLLECTION BOX - BLUE BOX", "note": "ON 12/24 AND 12/31, THIS BOX MAY BE COLLECTED AS EARLY AS 12 NOON.", "nsi_id": "unitedstatespostalservice-a77078", "operator": "United States Postal Service", "operator:short": "USPS", "operator:type": "public", "operator:wikidata": "Q668687", "ref": "5224600009"}, "type": "Feature"}
{"geometry": {"coordinates": [-91.554188222, 41.65205426], "type": "Point"}, "id": "_4IiE4WgximZOvkwPSP42SuM0zs=", "properties": {"@spider": "usps_collection_boxes", "addr:city": "IOWA CITY", "addr:country": "US", "addr:full": "1014 OAKCREST ST", "addr:postcode": "52246", "addr:state": "IA", "amenity": "post_box", "brand": "United States Postal Service", "brand:wikidata": "Q668687", "collection_times": "Mo-Sa 09:00", "name": "USPS COLLECTION BOX - BLUE BOX", "nsi_id": "unitedstatespostalservice-a77078", "operator": "United States Postal Service", "operator:short": "USPS", "operator:type": "public", "operator:wikidata": "Q668687", "ref": "5224600011"}, "type": "Feature"}
{"geometry": {"coordinates": [-91.54422, 41.6675445], "type": "Point"}, "id": "jCHyCPTUmQsonTZg1WgarwB_6Uk=", "properties": {"@spider": "usps_collection_boxes", "addr:city": "IOWA CITY", "addr:country": "US", "addr:full": "329 RIVER ST", "addr:postcode": "52246", "addr:state": "IA", "amenity": "post_box", "brand": "United States Postal Service", "brand:wikidata": "Q668687", "collection_times": "Mo-Sa 10:00", "name": "USPS COLLECTION BOX - BLUE BOX", "nsi_id": "unitedstatespostalservice-a77078", "operator": "United States Postal Service", "operator:short": "USPS", "operator:type": "public", "operator:wikidata": "Q668687", "ref": "5224600013"}, "type": "Feature"}
{"geometry": {"coordinates": [-91.525818362, 41.660781105], "type": "Point"}, "id": "BZ1AYWb8Faz5ldZWtP66PMarNMg=", "properties": {"@spider": "usps_collection_boxes", "addr:city": "IOWA CITY", "addr:country": "US", "addr:full": "31 HWY 1 S", "addr:postcode": "52246", "addr:state": "IA", "amenity": "post_box", "brand": "United States Postal Service", "brand:wikidata": "Q668687", "collection_times": "Mo-Sa 10:00", "name": "USPS COLLECTION BOX - BLUE BOX", "nsi_id": "unitedstatespostalservice-a77078", "operator": "United States Postal Service", "operator:short": "USPS", "operator:type": "public", "operator:wikidata": "Q668687", "ref": "5224600015"}, "type": "Feature"}
{"geometry": {"coordinates": [-91.542564207, 41.629073167], "type": "Point"}, "id": "uvDfoPfpuIrwonLBbZEHBsUysto=", "properties": {"@spider": "usps_collection_boxes", "addr:city": "IOWA CITY", "addr:country": "US", "addr:full": "2527 S RIVERSIDE DR", "addr:postcode": "52246", "addr:state": "IA", "amenity": "post_box", "brand": "United States Postal Service", "brand:wikidata": "Q668687", "collection_times": "Mo-Sa 11:30", "name": "USPS COLLECTION BOX - BLUE BOX", "nsi_id": "unitedstatespostalservice-a77078", "operator": "United States Postal Service", "operator:short": "USPS", "operator:type": "public", "operator:wikidata": "Q668687", "ref": "5224600019"}, "type": "Feature"}
{"geometry": {"coordinates": [-91.567441446, 41.636971527], "type": "Point"}, "id": "FSLU_ROxSSSWCBgIWDkkcHROFuc=", "properties": {"@spider": "usps_collection_boxes", "addr:city": "IOWA CITY", "addr:country": "US", "addr:full": "2312 MORMON TREK BLVD", "addr:postcode": "52246", "addr:state": "IA", "amenity": "post_box", "brand": "United States Postal Service", "brand:wikidata": "Q668687", "collection_times": "Mo-Sa 10:00", "name": "USPS COLLECTION BOX - BLUE BOX", "nsi_id": "unitedstatespostalservice-a77078", "operator": "United States Postal Service", "operator:short": "USPS", "operator:type": "public", "operator:wikidata": "Q668687", "ref": "5224600020"}, "type": "Feature"}
{"geometry": {"coordinates": [-91.54628, 41.66252], "type": "Point"}, "id": "P5xFbke-2VE9fCHDZPi0wLa7YOw=", "properties": {"@spider": "usps_collection_boxes", "addr:city": "IOWA CITY", "addr:country": "US", "addr:full": "100 MEDICAL EDUCATION BLDG", "addr:postcode": "52246", "addr:state": "IA", "amenity": "post_box", "brand": "United States Postal Service", "brand:wikidata": "Q668687", "collection_times": "Mo-Fr 13:00; Sa 09:00", "name": "USPS COLLECTION BOX - BLUE BOX", "note": "ON 12/24 AND 12/31, THIS BOX MAY BE COLLECTED AS EARLY AS 12 NOON.", "nsi_id": "unitedstatespostalservice-a77078", "operator": "United States Postal Service", "operator:short": "USPS", "operator:type": "public", "operator:wikidata": "Q668687", "ref": "5224600021"}, "type": "Feature"}
{"geometry": {"coordinates": [-91.706074483, 41.484221434], "type": "Point"}, "id": "zJ4iMgI_xiCZf_C2H9oZLY1YmA8=", "properties": {"@spider": "usps_collection_boxes", "addr:city": "KALONA", "addr:country": "US", "addr:full": "302 5TH ST", "addr:postcode": "52247", "addr:state": "IA", "amenity": "post_box", "brand": "United States Postal Service", "brand:wikidata": "Q668687", "collection_times": "Mo-Sa 17:00", "name": "USPS COLLECTION BOX - BLUE BOX", "note": "ON 12/24 AND 12/31, THIS BOX MAY BE COLLECTED AS EARLY AS 12 NOON.", "nsi_id": "unitedstatespostalservice-a77078", "operator": "United States Postal Service", "operator:short": "USPS", "operator:type": "public", "operator:wikidata": "Q668687", "ref": "5224700001"}, "type": "Feature"}
{"geometry": {"coordinates": [-91.706074483, 41.484221434], "type": "Point"}, "id": "vYrpDdjq5QTQGhT5YNYY4GCSQSE=", "properties": {"@spider": "usps_collection_boxes", "addr:city": "KALONA", "addr:country": "US", "addr:full": "302 5TH ST", "addr:postcode": "52247", "addr:state": "IA", "amenity": "post_box", "brand": "United States Postal Service", "brand:wikidata": "Q668687", "collection_times": "Mo-Fr 17:00; Sa 11:00", "name": "USPS COLLECTION BOX - PO LOBBY", "note": "ON 12/24 AND 12/31, THIS BOX MAY BE COLLECTED AS EARLY AS 12 NOON.", "nsi_id": "unitedstatespostalservice-a77078", "operator": "United States Postal Service", "operator:short": "USPS", "operator:type": "public", "operator:wikidata": "Q668687", "ref": "5224700003"}, "type": "Feature"}
{"geometry": {"coordinates": [-91.706074483, 41.484221434], "type": "Point"}, "id": "f3MBjplfdrxVuTF024w_V0dyPg8=", "properties": {"@spider": "usps_collection_boxes", "addr:city": "KALONA", "addr:country": "US", "addr:full": "302 5TH ST", "addr:postcode": "52247", "addr:state": "IA", "amenity": "post_box", "brand": "United States Postal Service", "brand:wikidata": "Q668687", "collection_times": "Mo-Fr 16:30; Sa 11:00", "name": "USPS COLLECTION BOX - PO LOBBY", "note": "ON 12/24 AND 12/31, THIS BOX MAY BE COLLECTED AS EARLY AS 12 NOON.", "nsi_id": "unitedstatespostalservice-a77078", "operator": "United States Postal Service", "operator:short": "USPS", "operator:type": "public", "operator:wikidata": "Q668687", "ref": "5224700004"}, "type": "Feature"}
{"geometry": {"coordinates": [-91.951572526, 41.363892512], "type": "Point"}, "id": "AEPb55bFkuyHS5E09xwKJVHZAEo=", "properties": {"@spider": "usps_collection_boxes", "addr:city": "KEOTA", "addr:country": "US", "addr:full": "307 E BROADWAY AVE", "addr:postcode": "52248", "addr:state": "IA", "amenity": "post_box", "brand": "United States Postal Service", "brand:wikidata": "Q668687", "collection_times": "Mo-Fr 16:00; Sa 15:45", "name": "USPS COLLECTION BOX - BLUE BOX", "note": "ON 12/24 AND 12/31, THIS BOX MAY BE COLLECTED AS EARLY AS 12 NOON.", "nsi_id": "unitedstatespostalservice-a77078", "operator": "United States Postal Service", "operator:short": "USPS", "operator:type": "public", "operator:wikidata": "Q668687", "ref": "5224800000"}, "type": "Feature"}
{"geometry": {"coordinates": [-91.951572526, 41.363892512], "type": "Point"}, "id": "CIIXEj0pvK2iwZhSyJajV9jgT_Y=", "properties": {"@spider": "usps_collection_boxes", "addr:city": "KEOTA", "addr:country": "US", "addr:full": "307 E BROADWAY AVE", "addr:postcode": "52248", "addr:state": "IA", "amenity": "post_box", "brand": "United States Postal Service", "brand:wikidata": "Q668687", "collection_times": "Mo-Fr 16:00; Sa 10:15", "name": "USPS COLLECTION BOX - PO LOBBY", "note": "ON 12/24 AND 12/31, THIS BOX MAY BE COLLECTED AS EARLY AS 12 NOON.", "nsi_id": "unitedstatespostalservice-a77078", "operator": "United States Postal Service", "operator:short": "USPS", "operator:type": "public", "operator:wikidata": "Q668687", "ref": "5224800001"}, "type": "Feature"}
{"geometry": {"coordinates": [-91.8158357617, 41.3378488808], "type": "Point"}, "id": "xLlUisZA17fLZBXRQvNYq4VLWdU=", "properties": {"@spider": "usps_collection_boxes", "addr:city": "KEOTA", "addr:country": "US", "addr:full": "208 MAIN ST", "addr:postcode": "52248", "addr:state": "IA", "amenity": "post_box", "brand": "United States Postal Service", "brand:wikidata": "Q668687", "collection_times": "Mo-Fr 16:15; Sa 15:45", "name": "USPS COLLECTION BOX - BLUE BOX", "note": "ON 12/24 AND 12/31, THIS BOX MAY BE COLLECTED AS EARLY AS 12 NOON.", "nsi_id": "unitedstatespostalservice-a77078", "operator": "United States Postal Service", "operator:short": "USPS", "operator:type": "public", "operator:wikidata": "Q668687", "ref": "5224800002"}, "type": "Feature"}
{"geometry": {"coordinates": [-91.951572526, 41.363892512], "type": "Point"}, "id": "12gumdLj6zXBP-D2PDUvUvcyLT8=", "properties": {"@spider": "usps_collection_boxes", "addr:city": "KEOTA", "addr:country": "US", "addr:full": "307 E BROADWAY AVE", "addr:postcode": "52248", "addr:state": "IA", "amenity": "post_box", "brand": "United States Postal Service", "brand:wikidata": "Q668687", "collection_times": "Mo-Fr 16:00; Sa 10:30", "name": "USPS COLLECTION BOX - PO LOBBY", "note": "ON 12/24 AND 12/31, THIS BOX MAY BE COLLECTED AS EARLY AS 12 NOON.", "nsi_id": "unitedstatespostalservice-a77078", "operator": "United States Postal Service", "operator:short": "USPS", "operator:type": "public", "operator:wikidata": "Q668687", "ref": "5224800003"}, "type": "Feature"}
{"geometry": {"coordinates": [-92.198086994, 41.998544665], "type": "Point"}, "id": "2OQ7hBW_KprxZICaQHg_wekGTGA=", "properties": {"@spider": "usps_collection_boxes", "addr:city": "KEYSTONE", "addr:country": "US", "addr:full": "87 MAIN ST", "addr:postcode": "52249", "addr:state": "IA", "amenity": "post_box", "brand": "United States Postal Service", "brand:wikidata": "Q668687", "collection_times": "Mo-Fr 16:15; Sa 15:45", "name": "USPS COLLECTION BOX - BLUE BOX", "note": "ON 12/24 AND 12/31, THIS BOX MAY BE COLLECTED AS EARLY AS 12 NOON.", "nsi_id": "unitedstatespostalservice-a77078", "operator": "United States Postal Service", "operator:short": "USPS", "operator:type": "public", "operator:wikidata": "Q668687", "ref": "5224900000"}, "type": "Feature"}
{"geometry": {"coordinates": [-92.198086994, 41.998544665], "type": "Point"}, "id": "Ku9V2_6H72ZfuX5Q-4yCOftq_x8=", "properties": {"@spider": "usps_collection_boxes", "addr:city": "KEYSTONE", "addr:country": "US", "addr:full": "87 MAIN ST", "addr:postcode": "52249", "addr:state": "IA", "amenity": "post_box", "brand": "United States Postal Service", "brand:wikidata": "Q668687", "collection_times": "Mo-Fr 15:45", "name": "USPS COLLECTION BOX - PO LOBBY", "note": "ON 12/24 AND 12/31, THIS BOX MAY BE COLLECTED AS EARLY AS 12 NOON.", "nsi_id": "unitedstatespostalservice-a77078", "operator": "United States Postal Service", "operator:short": "USPS", "operator:type": "public", "operator:wikidata": "Q668687", "ref": "5224900001"}, "type": "Feature"}
{"geometry": {"coordinates": [-92.198086994, 41.998544665], "type": "Point"}, "id": "uvj_P06wTPOex5HPiPqzv3033oU=", "properties": {"@spider": "usps_collection_boxes", "addr:city": "KEYSTONE", "addr:country": "US", "addr:full": "87 MAIN ST", "addr:postcode": "52249", "addr:state": "IA", "amenity": "post_box", "brand": "United States Postal Service", "brand:wikidata": "Q668687", "collection_times": "Mo-Fr 16:00; Sa 13:00", "name": "USPS COLLECTION BOX - PO LOBBY", "note": "ON 12/24 AND 12/31, THIS BOX MAY BE COLLECTED AS EARLY AS 12 NOON.", "nsi_id": "unitedstatespostalservice-a77078", "operator": "United States Postal Service", "operator:short": "USPS", "operator:type": "public", "operator:wikidata": "Q668687", "ref": "5224900002"}, "type": "Feature"}
{"geometry": {"coordinates": [-92.1860110351, 41.7544979843], "type": "Point"}, "id": "pis-2hxC52D7zh5aLeWYYVwlr-g=", "properties": {"@spider": "usps_collection_boxes", "addr:city": "LADORA", "addr:country": "US", "addr:full": "605 PACIFIC ST", "addr:postcode": "52251", "addr:state": "IA", "amenity": "post_box", "brand": "United States Postal Service", "brand:wikidata": "Q668687", "collection_times": "Mo-Fr 16:30; Sa 15:45", "name": "USPS COLLECTION BOX - BLUE BOX", "note": "ON 12/24 AND 12/31, THIS BOX MAY BE COLLECTED AS EARLY AS 12 NOON.", "nsi_id": "unitedstatespostalservice-a77078", "operator": "United States Postal Service", "operator:short": "USPS", "operator:type": "public", "operator:wikidata": "Q668687", "ref": "5225100001"}, "type": "Feature"}
{"geometry": {"coordinates": [-92.185999239, 41.75436514], "type": "Point"}, "id": "bnV8YCV_lwBK2CFYVqRF98SzMd8=", "properties": {"@spider": "usps_collection_boxes", "addr:city": "LADORA", "addr:country": "US", "addr:full": "605 PACIFIC ST", "addr:postcode": "52251", "addr:state": "IA", "amenity": "post_box", "brand": "United States Postal Service", "brand:wikidata": "Q668687", "collection_times": "Mo-Fr 13:45", "name": "USPS COLLECTION BOX - PO LOBBY", "note": "ON 12/24 AND 12/31, THIS BOX MAY BE COLLECTED AS EARLY AS 12 NOON.", "nsi_id": "unitedstatespostalservice-a77078", "operator": "United States Postal Service", "operator:short": "USPS", "operator:type": "public", "operator:wikidata": "Q668687", "ref": "5225100002"}, "type": "Feature"}
{"geometry": {"coordinates": [-92.185999239, 41.75436514], "type": "Point"}, "id": "v6xOx7KU4amIQas2N4L1bWN04-Q=", "properties": {"@spider": "usps_collection_boxes", "addr:city": "LADORA", "addr:country": "US", "addr:full": "605 PACIFIC ST", "addr:postcode": "52251", "addr:state": "IA", "amenity": "post_box", "brand": "United States Postal Service", "brand:wikidata": "Q668687", "collection_times": "Mo-Fr 14:00; Sa 12:00", "name": "USPS COLLECTION BOX - PO LOBBY", "note": "ON 12/24 AND 12/31, THIS BOX MAY BE COLLECTED AS EARLY AS 12 NOON.", "nsi_id": "unitedstatespostalservice-a77078", "operator": "United States Postal Service", "operator:short": "USPS", "operator:type": "public", "operator:wikidata": "Q668687", "ref": "5225100003"}, "type": "Feature"}
{"geometry": {"coordinates": [-91.3862749615, 41.9210699955], "type": "Point"}, "id": "L-KrNiEDnQEdpriNa-gol5v2BrQ=", "properties": {"@spider": "usps_collection_boxes", "addr:city": "LISBON", "addr:country": "US", "addr:full": "129 W MAIN ST", "addr:postcode": "52253", "addr:state": "IA", "amenity": "post_box", "brand": "United States Postal Service", "brand:wikidata": "Q668687", "collection_times": "Mo-Fr 16:00; Sa 16:30", "name": "USPS COLLECTION BOX - BLUE BOX", "note": "ON 12/24 AND 12/31, THIS BOX MAY BE COLLECTED AS EARLY AS 12 NOON.", "nsi_id": "unitedstatespostalservice-a77078", "operator": "United States Postal Service", "operator:short": "USPS", "operator:type": "public", "operator:wikidata": "Q668687", "ref": "5225300000"}, "type": "Feature"}
{"geometry": {"coordinates": [-91.386354305, 41.921254521], "type": "Point"}, "id": "cjPxFOhIldT1I3zhurRSd9Ce0Vc=", "properties": {"@spider": "usps_collection_boxes", "addr:city": "LISBON", "addr:country": "US", "addr:full": "129 W MAIN ST", "addr:postcode": "52253", "addr:state": "IA", "amenity": "post_box", "brand": "United States Postal Service", "brand:wikidata": "Q668687", "collection_times": "Mo-Fr 16:00; Sa 11:00", "name": "USPS COLLECTION BOX - PO LOBBY", "note": "ON 12/24 AND 12/31, THIS BOX MAY BE COLLECTED AS EARLY AS 12 NOON.", "nsi_id": "unitedstatespostalservice-a77078", "operator": "United States Postal Service", "operator:short": "USPS", "operator:type": "public", "operator:wikidata": "Q668687", "ref": "5225300001"}, "type": "Feature"}
{"geometry": {"coordinates": [-91.386354305, 41.921254521], "type": "Point"}, "id": "e2n1seHvS_uXQYgVUgRRKhmu-p8=", "properties": {"@spider": "usps_collection_boxes", "addr:city": "LISBON", "addr:country": "US", "addr:full": "129 W MAIN ST", "addr:postcode": "52253", "addr:state": "IA", "amenity": "post_box", "brand": "United States Postal Service", "brand:wikidata": "Q668687", "collection_times": "Mo-Fr 16:00; Sa 11:00", "name": "USPS COLLECTION BOX - PO LOBBY", "note": "ON 12/24 AND 12/31, THIS BOX MAY BE COLLECTED AS EARLY AS 12 NOON.", "nsi_id": "unitedstatespostalservice-a77078", "operator": "United States Postal Service", "operator:short": "USPS", "operator:type": "public", "operator:wikidata": "Q668687", "ref": "5225300002"}, "type": "Feature"}
{"geometry": {"coordinates": [-90.818280465, 41.963877], "type": "Point"}, "id": "1LozeKw0L7LNeLZY1VhTXn3Of6s=", "properties": {"@spider": "usps_collection_boxes", "addr:city": "LOST NATION", "addr:country": "US", "addr:full": "415 MAIN ST", "addr:postcode": "52254", "addr:state": "IA", "amenity": "post_box", "brand": "United States Postal Service", "brand:wikidata": "Q668687", "collection_times": "Mo-Fr 15:45; Sa 15:00", "name": "USPS COLLECTION BOX - BLUE BOX", "note": "ON 12/24 AND 12/31, THIS BOX MAY BE COLLECTED AS EARLY AS 12 NOON.", "nsi_id": "unitedstatespostalservice-a77078", "operator": "United States Postal Service", "operator:short": "USPS", "operator:type": "public", "operator:wikidata": "Q668687", "ref": "5225400000"}, "type": "Feature"}
{"geometry": {"coordinates": [-90.818280465, 41.963877], "type": "Point"}, "id": "ewr0O70PmfD2k_tZd0pr_V2T4r8=", "properties": {"@spider": "usps_collection_boxes", "addr:city": "LOST NATION", "addr:country": "US", "addr:full": "415 MAIN ST", "addr:postcode": "52254", "addr:state": "IA", "amenity": "post_box", "brand": "United States Postal Service", "brand:wikidata": "Q668687", "collection_times": "Mo-Fr 11:00; Sa 08:15", "name": "USPS COLLECTION BOX - PO LOBBY", "nsi_id": "unitedstatespostalservice-a77078", "operator": "United States Postal Service", "operator:short": "USPS", "operator:type": "public", "operator:wikidata": "Q668687", "ref": "5225400001"}, "type": "Feature"}
{"geometry": {"coordinates": [-90.818280465, 41.963877], "type": "Point"}, "id": "OidZeLbyGDKFq_H63vtV-Wxq4Gs=", "properties": {"@spider": "usps_collection_boxes", "addr:city": "LOST NATION", "addr:country": "US", "addr:full": "415 MAIN ST", "addr:postcode": "52254", "addr:state": "IA", "amenity": "post_box", "brand": "United States Postal Service", "brand:wikidata": "Q668687", "collection_times": "Mo-Fr 11:00; Sa 08:00", "name": "USPS COLLECTION BOX - PO LOBBY", "nsi_id": "unitedstatespostalservice-a77078", "operator": "United States Postal Service", "operator:short": "USPS", "operator:type": "public", "operator:wikidata": "Q668687", "ref": "5225400003"}, "type": "Feature"}
{"geometry": {"coordinates": [-90.926703637, 41.858019], "type": "Point"}, "id": "eZLqs_ZnbU62o0jCcwVmft2LFrM=", "properties": {"@spider": "usps_collection_boxes", "addr:city": "LOWDEN", "addr:country": "US", "addr:full": "308 WASHINGTON AVE", "addr:postcode": "52255", "addr:state": "IA", "amenity": "post_box", "brand": "United States Postal Service", "brand:wikidata": "Q668687", "collection_times": "Mo-Fr 16:00; Sa 15:45", "name": "USPS COLLECTION BOX - BLUE BOX", "note": "ON 12/24 AND 12/31, THIS BOX MAY BE COLLECTED AS EARLY AS 12 NOON.", "nsi_id": "unitedstatespostalservice-a77078", "operator": "United States Postal Service", "operator:short": "USPS", "operator:type": "public", "operator:wikidata": "Q668687", "ref": "5225500000"}, "type": "Feature"}
{"geometry": {"coordinates": [-90.926703637, 41.858019], "type": "Point"}, "id": "ZPgolSxRCicMyIOQaqFVl-SHDcY=", "properties": {"@spider": "usps_collection_boxes", "addr:city": "LOWDEN", "addr:country": "US", "addr:full": "308 WASHINGTON AVE", "addr:postcode": "52255", "addr:state": "IA", "amenity": "post_box", "brand": "United States Postal Service", "brand:wikidata": "Q668687", "collection_times": "Mo-Fr 15:15", "name": "USPS COLLECTION BOX - PO LOBBY", "note": "ON 12/24 AND 12/31, THIS BOX MAY BE COLLECTED AS EARLY AS 12 NOON.", "nsi_id": "unitedstatespostalservice-a77078", "operator": "United States Postal Service", "operator:short": "USPS", "operator:type": "public", "operator:wikidata": "Q668687", "ref": "5225500001"}, "type": "Feature"}
{"geometry": {"coordinates": [-90.926703637, 41.858019], "type": "Point"}, "id": "OgJX_ZPRYGMwHQrke6vR8-2Yz50=", "properties": {"@spider": "usps_collection_boxes", "addr:city": "LOWDEN", "addr:country": "US", "addr:full": "308 WASHINGTON AVE", "addr:postcode": "52255", "addr:state": "IA", "amenity": "post_box", "brand": "United States Postal Service", "brand:wikidata": "Q668687", "collection_times": "Mo-Fr 15:30; Sa 08:45", "name": "USPS COLLECTION BOX - PO LOBBY", "note": "ON 12/24 AND 12/31, THIS BOX MAY BE COLLECTED AS EARLY AS 12 NOON.", "nsi_id": "unitedstatespostalservice-a77078", "operator": "United States Postal Service", "operator:short": "USPS", "operator:type": "public", "operator:wikidata": "Q668687", "ref": "5225500002"}, "type": "Feature"}
{"geometry": {"coordinates": [-92.180150276, 41.906263797], "type": "Point"}, "id": "TnkXVM1QsZoooCl8P-jlL1V9OuY=", "properties": {"@spider": "usps_collection_boxes", "addr:city": "LUZERNE", "addr:country": "US", "addr:full": "112 E IOWA ST", "addr:postcode": "52257", "addr:state": "IA", "amenity": "post_box", "brand": "United States Postal Service", "brand:wikidata": "Q668687", "collection_times": "Mo-Sa 08:00", "name": "USPS COLLECTION BOX - BLUE BOX", "nsi_id": "unitedstatespostalservice-a77078", "operator": "United States Postal Service", "operator:short": "USPS", "operator:type": "public", "operator:wikidata": "Q668687", "ref": "5225700000"}, "type": "Feature"}
