{"geometry": {"coordinates": [-92.07300303, 41.79071952], "type": "Point"}, "id": "mR8jOmhH5_iqh4i2ZNtuYc5o1cs=", "properties": {"@source_uri": "https://tools.usps.com/UspsToolsRestServices/rest/POLocator/findLocations", "@spider": "usps_collection_boxes", "addr:city": "MARENGO", "addr:country": "US", "addr:postcode": "52301", "addr:state": "IA", "addr:street_address": "310 W DILLON ST", "amenity": "post_box", "collection_times": "Mo-Sa 12:30", "note": "ON 12/24 AND 12/31, THIS BOX MAY BE COLLECTED AS EARLY AS 12 NOON.", "nsi_id": "unitedstatespostalservice-a77078", "operator": "United States Postal Service", "operator:short": "USPS", "operator:type": "public", "operator:wikidata": "Q668687", "ref": "5230100002"}, "type": "Feature"}
{"geometry": {"coordinates": [-92.071362823, 41.799757131], "type": "Point"}, "id": "y48CZT9ZxsMx7nx3OwuHAKNIljU=", "properties": {"@source_uri": "https://tools.usps.com/UspsToolsRestServices/rest/POLocator/findLocations", "@spider": "usps_collection_boxes", "addr:city": "MARENGO", "addr:country": "US", "addr:postcode": "52301", "addr:state": "IA", "addr:street_address": "198 W WASHINGTON ST", "amenity": "post_box", "collection_times": "Mo-Sa 16:30", "note": "ON 12/24 AND 12/31, THIS BOX MAY BE COLLECTED AS EARLY AS 12 NOON.", "nsi_id": "unitedstatespostalservice-a77078", "operator": "United States Postal Service", "operator:short": "USPS", "operator:type": "public", "operator:wikidata": "Q668687", "ref": "5230100004"}, "type": "Feature"}
{"geometry": {"coordinates": [-92.071362823, 41.799757131], "type": "Point"}, "id": "Vj07D40rW-q1jGq-q5Zp3bUug_g=", "properties": {"@source_uri": "https://tools.usps.com/UspsToolsRestServices/rest/POLocator/findLocations", "@spider": "usps_collection_boxes", "addr:city": "MARENGO", "addr:country": "US", "addr:postcode": "52301", "addr:state": "IA", "addr:street_address": "198 W WASHINGTON ST", "amenity": "post_box", "collection_times": "Mo-Fr 16:30; Sa 09:45", "indoor": "yes", "note": "ON 12/24 AND 12/31, THIS BOX MAY BE COLLECTED AS EARLY AS 12 NOON.", "nsi_id": "unitedstatespostalservice-a77078", "operator": "United States Postal Service", "operator:short": "USPS", "operator:type": "public", "operator:wikidata": "Q668687", "ref": "5230100005"}, "type": "Feature"}
{"geometry": {"coordinates": [-92.070201361, 41.797731361], "type": "Point"}, "id": "oCKiaxBvRIa_xOxYT8K5gZY018o=", "properties": {"@source_uri": "https://tools.usps.com/UspsToolsRestServices/rest/POLocator/findLocations", "@spider": "usps_collection_boxes", "addr:city": "MARENGO", "addr:country": "US", "addr:postcode": "52301", "addr:state": "IA", "addr:street_address": "901 COURT AVE", "amenity": "post_box", "collection_times": "Mo-Fr 14:00; Sa 12:00", "note": "ON 12/24 AND 12/31, THIS BOX MAY BE COLLECTED AS EARLY AS 12 NOON.", "nsi_id": "unitedstatespostalservice-a77078", "operator": "United States Postal Service", "operator:short": "USPS", "operator:type": "public", "operator:wikidata": "Q668687", "ref": "5230100006"}, "type": "Feature"}
{"geometry": {"coordinates": [-92.071362823, 41.799757131], "type": "Point"}, "id": "YRRREgTN_h9XdoCdDUvSYWPJzIY=", "properties": {"@source_uri": "https://tools.usps.com/UspsToolsRestServices/rest/POLocator/findLocations", "@spider": "usps_collection_boxes", "addr:city": "MARENGO", "addr:country": "US", "addr:postcode": "52301", "addr:state": "IA", "addr:street_address": "198 W WASHINGTON ST", "amenity": "post_box", "collection_times": "Mo-Fr 16:30; Sa 09:45", "indoor": "yes", "note": "ON 12/24 AND 12/31, THIS BOX MAY BE COLLECTED AS EARLY AS 12 NOON.", "nsi_id": "unitedstatespostalservice-a77078", "operator": "United States Postal Service", "operator:short": "USPS", "operator:type": "public", "operator:wikidata": "Q668687", "ref": "5230100008"}, "type": "Feature"}
{"geometry": {"coordinates": [-91.596872756, 42.020511547], "type": "Point"}, "id": "I7yNf-La87fjORUTW1KEEmVLTMA=", "properties": {"@source_uri": "https://tools.usps.com/UspsToolsRestServices/rest/POLocator/findLocations", "@spider": "usps_collection_boxes", "addr:city": "MARION", "addr:country": "US", "addr:postcode": "52302", "addr:state": "IA", "addr:street_address": "1199 GRAND AVE", "amenity": "post_box", "collection_times": "Mo-Sa 13:00", "note": "ON 12/24 AND 12/31, THIS BOX MAY BE COLLECTED AS EARLY AS 12 NOON.", "nsi_id": "unitedstatespostalservice-a77078", "operator": "United States Postal Service", "operator:short": "USPS", "operator:type": "public", "operator:wikidata": "Q668687", "ref": "5230200002"}, "type": "Feature"}
{"geometry": {"coordinates": [-91.590151332, 42.03332346], "type": "Point"}, "id": "Zx9gj12UXxWlSKjmoL4ch-jsEFE=", "properties": {"@source_uri": "https://tools.usps.com/UspsToolsRestServices/rest/POLocator/findLocations", "@spider": "usps_collection_boxes", "addr:city": "MARION", "addr:country": "US", "addr:postcode": "52302", "addr:state": "IA", "addr:street_address": "2020 7TH AVE", "amenity": "post_box", "collection_times": "Mo-Sa 10:00", "nsi_id": "unitedstatespostalservice-a77078", "operator": "United States Postal Service", "operator:short": "USPS", "operator:type": "public", "operator:wikidata": "Q668687", "ref": "5230200004"}, "type": "Feature"}
{"geometry": {"coordinates": [-91.562895202, 42.036390901], "type": "Point"}, "id": "3f8oBf7mnkcWM5Dk2HOigCS5M2k=", "properties": {"@source_uri": "https://tools.usps.com/UspsToolsRestServices/rest/POLocator/findLocations", "@spider": "usps_collection_boxes", "addr:city": "MARION", "addr:country": "US", "addr:postcode": "52302", "addr:state": "IA", "addr:street_address": "1005 44TH ST", "amenity": "post_box", "collection_times": "Mo-Sa 12:30", "note": "ON 12/24 AND 12/31, THIS BOX MAY BE COLLECTED AS EARLY AS 12 NOON.", "nsi_id": "unitedstatespostalservice-a77078", "operator": "United States Postal Service", "operator:short": "USPS", "operator:type": "public", "operator:wikidata": "Q668687", "ref": "5230200006"}, "type": "Feature"}
{"geometry": {"coordinates": [-91.585382139, 42.036121486], "type": "Point"}, "id": "g2W56_YY5HkQ8VjOn_APxsN8_X0=", "properties": {"@source_uri": "https://tools.usps.com/UspsToolsRestServices/rest/POLocator/findLocations", "@spider": "usps_collection_boxes", "addr:city": "MARION", "addr:country": "US", "addr:postcode": "52302", "addr:state": "IA", "addr:street_address": "2550 10TH AVE", "amenity": "post_box", "collection_times": "Mo-Sa 12:30", "note": "ON 12/24 AND 12/31, THIS BOX MAY BE COLLECTED AS EARLY AS 12 NOON.", "nsi_id": "unitedstatespostalservice-a77078", "operator": "United States Postal Service", "operator:short": "USPS", "operator:type": "public", "operator:wikidata": "Q668687", "ref": "5230200010"}, "type": "Feature"}
{"geometry": {"coordinates": [-91.62406433, 42.027975336], "type": "Point"}, "id": "TLB8rbRvVCnuzBnSFMTf4a0HXh4=", "properties": {"@source_uri": "https://tools.usps.com/UspsToolsRestServices/rest/POLocator/findLocations", "@spider": "usps_collection_boxes", "addr:city": "MARION", "addr:country": "US", "addr:postcode": "52302", "addr:state": "IA", "addr:street_address": "1400 TWIXT TOWN RD", "amenity": "post_box", "collection_times": "Mo-Sa 11:00", "nsi_id": "unitedstatespostalservice-a77078", "operator": "United States Postal Service", "operator:short": "USPS", "operator:type": "public", "operator:wikidata": "Q668687", "ref": "5230200015"}, "type": "Feature"}
{"geometry": {"coordinates": [-91.604132445, 42.03330054], "type": "Point"}, "id": "KT2qGnV-LkUBknxSzCVM28KKdwQ=", "properties": {"@source_uri": "https://tools.usps.com/UspsToolsRestServices/rest/POLocator/findLocations", "@spider": "usps_collection_boxes", "addr:city": "MARION", "addr:country": "US", "addr:postcode": "52302", "addr:state": "IA", "addr:street_address": "601 7TH AVE", "amenity": "post_box", "collection_times": "Mo-Sa 09:00", "nsi_id": "unitedstatespostalservice-a77078", "operator": "United States Postal Service", "operator:short": "USPS", "operator:type": "public", "operator:wikidata": "Q668687", "ref": "5230200016"}, "type": "Feature"}
{"geometry": {"coordinates": [-91.5976935, 42.034225493], "type": "Point"}, "id": "owGyyrl8fF1gMAKLFPBQnsswhUo=", "properties": {"@source_uri": "https://tools.usps.com/UspsToolsRestServices/rest/POLocator/findLocations", "@spider": "usps_collection_boxes", "addr:city": "MARION", "addr:country": "US", "addr:postcode": "52302", "addr:state": "IA", "addr:street_address": "1100 8TH AVE", "amenity": "post_box", "collection_times": "Mo-Fr 15:00; Sa 13:00", "note": "ON 12/24 AND 12/31, THIS BOX MAY BE COLLECTED AS EARLY AS 12 NOON.", "nsi_id": "unitedstatespostalservice-a77078", "operator": "United States Postal Service", "operator:short": "USPS", "operator:type": "public", "operator:wikidata": "Q668687", "ref": "5230200017"}, "type": "Feature"}
{"geometry": {"coordinates": [-91.569620963, 42.03684298], "type": "Point"}, "id": "-V3MUeQfkwaqMHQgqG3Ne-hPjos=", "properties": {"@source_uri": "https://tools.usps.com/UspsToolsRestServices/rest/POLocator/findLocations", "@spider": "usps_collection_boxes", "addr:city": "MARION", "addr:country": "US", "addr:postcode": "52302", "addr:state": "IA", "addr:street_address": "3800 HIGHWAY 151", "amenity": "post_box", "collection_times": "Mo-Fr 17:00; Sa 15:00", "note": "ON 12/24 AND 12/31, THIS BOX MAY BE COLLECTED AS EARLY AS 12 NOON.", "nsi_id": "unitedstatespostalservice-a77078", "operator": "United States Postal Service", "operator:short": "USPS", "operator:type": "public", "operator:wikidata": "Q668687", "ref": "5230200020"}, "type": "Feature"}
{"geometry": {"coordinates": [-91.596377004, 42.03213499], "type": "Point"}, "id": "2ChiURubc4BEtGKuJBncLnD_YBk=", "properties": {"@source_uri": "https://tools.usps.com/UspsToolsRestServices/rest/POLocator/findLocations", "@spider": "usps_collection_boxes", "addr:city": "MARION", "addr:country": "US", "addr:postcode": "52302", "addr:state": "IA", "addr:street_address": "1225 6TH AVE", "amenity": "post_box", "collection_times": "Mo-Fr 15:00; Sa 13:00", "note": "ON 12/24 AND 12/31, THIS BOX MAY BE COLLECTED AS EARLY AS 12 NOON.", "nsi_id": "unitedstatespostalservice-a77078", "operator": "United States Postal Service", "operator:short": "USPS", "operator:type": "public", "operator:wikidata": "Q668687", "ref": "5230200023"}, "type": "Feature"}
{"geometry": {"coordinates": [-91.601393526, 42.05065268], "type": "Point"}, "id": "V6RuviE-G2jV0s9q70xIuWXu6EM=", "properties": {"@source_uri": "https://tools.usps.com/UspsToolsRestServices/rest/POLocator/findLocations", "@spider": "usps_collection_boxes", "addr:city": "MARION", "addr:country": "US", "addr:postcode": "52302", "addr:state": "IA", "addr:street_address": "805 29TH AVE", "amenity": "post_box", "collection_times": "Mo-Sa 13:00", "note": "ON 12/24 AND 12/31, THIS BOX MAY BE COLLECTED AS EARLY AS 12 NOON.", "nsi_id": "unitedstatespostalservice-a77078", "operator": "United States Postal Service", "operator:short": "USPS", "operator:type": "public", "operator:wikidata": "Q668687", "ref": "5230200027"}, "type": "Feature"}
{"geometry": {"coordinates": [-91.5694515, 42.036102487], "type": "Point"}, "id": "nUekhhl80EkSryPdPoZm-MwaZWE=", "properties": {"@source_uri": "https://tools.usps.com/UspsToolsRestServices/rest/POLocator/findLocations", "@spider": "usps_collection_boxes", "addr:city": "MARION", "addr:country": "US", "addr:postcode": "52302", "addr:state": "IA", "addr:street_address": "3800 HIGHWAY 151", "amenity": "post_box", "collection_times": "Mo-Fr 17:15; Sa 15:00", "indoor": "yes", "note": "ON 12/24 AND 12/31, THIS BOX MAY BE COLLECTED AS EARLY AS 12 NOON.", "nsi_id": "unitedstatespostalservice-a77078", "operator": "United States Postal Service", "operator:short": "USPS", "operator:type": "public", "operator:wikidata": "Q668687", "ref": "5230200030"}, "type": "Feature"}
{"geometry": {"coordinates": [-91.5694515, 42.036102487], "type": "Point"}, "id": "c3o_CeNIJwD-xgfE-zyLHw42wTI=", "properties": {"@source_uri": "https://tools.usps.com/UspsToolsRestServices/rest/POLocator/findLocations", "@spider": "usps_collection_boxes", "addr:city": "MARION", "addr:country": "US", "addr:postcode": "52302", "addr:state": "IA", "addr:street_address": "3800 HIGHWAY 151", "amenity": "post_box", "collection_times": "Mo-Fr 17:00; Sa 10:00", "indoor": "yes", "note": "ON 12/24 AND 12/31, THIS BOX MAY BE COLLECTED AS EARLY AS 12 NOON.", "nsi_id": "unitedstatespostalservice-a77078", "operator": "United States Postal Service", "operator:short": "USPS", "operator:type": "public", "operator:wikidata": "Q668687", "ref": "5230200035"}, "type": "Feature"}
{"geometry": {"coordinates": [-91.360957358, 42.020091566], "type": "Point"}, "id": "Y7OJmOYtOqVMVhOPjyX8crBJ7AE=", "properties": {"@source_uri": "https://tools.usps.com/UspsToolsRestServices/rest/POLocator/findLocations", "@spider": "usps_collection_boxes", "addr:city": "MARTELLE", "addr:country": "US", "addr:postcode": "52305", "addr:state": "IA", "addr:street_address": "204 S MILITARY ST", "amenity": "post_box", "collection_times": "Mo-Sa 16:30", "note": "ON 12/24 AND 12/31, THIS BOX MAY BE COLLECTED AS EARLY AS 12 NOON.", "nsi_id": "unitedstatespostalservice-a77078", "operator": "United States Postal Service", "operator:short": "USPS", "operator:type": "public", "operator:wikidata": "Q668687", "ref": "5230500000"}, "type": "Feature"}
{"geometry": {"coordinates": [-91.360957358, 42.020091566], "type": "Point"}, "id": "yOuqc133Jm_-UqiysJ3C1v9AuUU=", "properties": {"@source_uri": "https://tools.usps.com/UspsToolsRestServices/rest/POLocator/findLocations", "@spider": "usps_collection_boxes", "addr:city": "MARTELLE", "addr:country": "US", "addr:postcode": "52305", "addr:state": "IA", "addr:street_address": "204 S MILITARY ST", "amenity": "post_box", "collection_times": "Mo-Sa 11:45", "indoor": "yes", "nsi_id": "unitedstatespostalservice-a77078", "operator": "United States Postal Service", "operator:short": "USPS", "operator:type": "public", "operator:wikidata": "Q668687", "ref": "5230500001"}, "type": "Feature"}
{"geometry": {"coordinates": [-91.360957358, 42.020091566], "type": "Point"}, "id": "87Jd1OhlV1XfDbbEVawobVg5WB4=", "properties": {"@source_uri": "https://tools.usps.com/UspsToolsRestServices/rest/POLocator/findLocations", "@spider": "usps_collection_boxes", "addr:city": "MARTELLE", "addr:country": "US", "addr:postcode": "52305", "addr:state": "IA", "addr:street_address": "204 S MILITARY ST", "amenity": "post_box", "collection_times": "Mo-Sa 12:00", "indoor": "yes", "nsi_id": "unitedstatespostalservice-a77078", "operator": "United States Postal Service", "operator:short": "USPS", "operator:type": "public", "operator:wikidata": "Q668687", "ref": "5230500002"}, "type": "Feature"}
{"geometry": {"coordinates": [-91.256724121, 41.905285783], "type": "Point"}, "id": "HStrpmh-7PyqktNPDV9Ip5Ih_Uk=", "properties": {"@source_uri": "https://tools.usps.com/UspsToolsRestServices/rest/POLocator/findLocations", "@spider": "usps_collection_boxes", "addr:city": "MECHANICSVILLE", "addr:country": "US", "addr:postcode": "52306", "addr:state": "IA", "addr:street_address": "200 E 1ST ST", "amenity": "post_box", "collection_times": "Mo-Sa 16:00", "note": "ON 12/24 AND 12/31, THIS BOX MAY BE COLLECTED AS EARLY AS 12 NOON.", "nsi_id": "unitedstatespostalservice-a77078", "operator": "United States Postal Service", "operator:short": "USPS", "operator:type": "public", "operator:wikidata": "Q668687", "ref": "5230600000"}, "type": "Feature"}
{"geometry": {"coordinates": [-91.256724121, 41.905285783], "type": "Point"}, "id": "SqXSXNiebo3gdyT0Pd3TCNmwWxs=", "properties": {"@source_uri": "https://tools.usps.com/UspsToolsRestServices/rest/POLocator/findLocations", "@spider": "usps_collection_boxes", "addr:city": "MECHANICSVILLE", "addr:country": "US", "addr:postcode": "52306", "addr:state": "IA", "addr:street_address": "200 E 1ST ST", "amenity": "post_box", "collection_times": "Mo-Fr 14:45", "indoor": "yes", "note": "ON 12/24 AND 12/31, THIS BOX MAY BE COLLECTED AS EARLY AS 12 NOON.", "nsi_id": "unitedstatespostalservice-a77078", "operator": "United States Postal Service", "operator:short": "USPS", "operator:type": "public", "operator:wikidata": "Q668687", "ref": "5230600001"}, "type": "Feature"}
{"geometry": {"coordinates": [-91.256724121, 41.905285783], "type": "Point"}, "id": "QuVpU5Tj9oHE_TzwEyWgCGVQVK4=", "properties": {"@source_uri": "https://tools.usps.com/UspsToolsRestServices/rest/POLocator/findLocations", "@spider": "usps_collection_boxes", "addr:city": "MECHANICSVILLE", "addr:country": "US", "addr:postcode": "52306", "addr:state": "IA", "addr:street_address": "200 E 1ST ST", "amenity": "post_box", "collection_times": "Mo-Fr 15:00; Sa 09:00", "indoor": "yes", "note": "ON 12/24 AND 12/31, THIS BOX MAY BE COLLECTED AS EARLY AS 12 NOON.", "nsi_id": "unitedstatespostalservice-a77078", "operator": "United States Postal Service", "operator:short": "USPS", "operator:type": "public", "operator:wikidata": "Q668687", "ref": "5230600002"}, "type": "Feature"}
{"geometry": {"coordinates": [-91.903047087, 41.794246605], "type": "Point"}, "id": "sC3YRNMiCys2bZ2QhwTYKUCyJQI=", "properties": {"@source_uri": "https://tools.usps.com/UspsToolsRestServices/rest/POLocator/findLocations", "@spider": "usps_collection_boxes", "addr:city": "MIDDLE AMANA", "addr:country": "US", "addr:postcode": "52307", "addr:state": "IA", "addr:street_address": "2516 220TH TRL", "amenity": "post_box", "collection_times": "Mo-Fr 16:45; Sa 16:00", "note": "ON 12/24 AND 12/31, THIS BOX MAY BE COLLECTED AS EARLY AS 12 NOON.", "nsi_id": "unitedstatespostalservice-a77078", "operator": "United States Postal Service", "operator:short": "USPS", "operator:type": "public", "operator:wikidata": "Q668687", "ref": "5230700002"}, "type": "Feature"}
{"geometry": {"coordinates": [-91.903047087, 41.794246605], "type": "Point"}, "id": "admy8zDRtE7e3JmF0L89EEKUUcA=", "properties": {"@source_uri": "https://tools.usps.com/UspsToolsRestServices/rest/POLocator/findLocations", "@spider": "usps_collection_boxes", "addr:city": "MIDDLE AMANA", "addr:country": "US", "addr:postcode": "52307", "addr:state": "IA", "addr:street_address": "2516 220TH TRL", "amenity": "post_box", "collection_times": "Mo-Fr 13:00; Sa 10:15", "indoor": "yes", "note": "ON 12/24 AND 12/31, THIS BOX MAY BE COLLECTED AS EARLY AS 12 NOON.", "nsi_id": "unitedstatespostalservice-a77078", "operator": "United States Postal Service", "operator:short": "USPS", "operator:type": "public", "operator:wikidata": "Q668687", "ref": "5230700003"}, "type": "Feature"}
{"geometry": {"coordinates": [-91.903047087, 41.794246605], "type": "Point"}, "id": "OFh-w1yfi1E9MuV04Ji3-OoFKcc=", "properties": {"@source_uri": "https://tools.usps.com/UspsToolsRestServices/rest/POLocator/findLocations", "@spider": "usps_collection_boxes", "addr:city": "MIDDLE AMANA", "addr:country": "US", "addr:postcode": "52307", "addr:state": "IA", "addr:street_address": "2516 220TH TRL", "amenity": "post_box", "collection_times": "Mo-Fr 13:15; Sa 10:30", "indoor": "yes", "note": "ON 12/24 AND 12/31, THIS BOX MAY BE COLLECTED AS EARLY AS 12 NOON.", "nsi_id": "unitedstatespostalservice-a77078", "operator": "United States Postal Service", "operator:short": "USPS", "operator:type": "public", "operator:wikidata": "Q668687", "ref": "5230700004"}, "type": "Feature"}
{"geometry": {"coordinates": [-92.16012529, 41.572844665], "type": "Point"}, "id": "wGdK1IBlV1RHSYYeWelzCraNcMg=", "properties": {"@source_uri": "https://tools.usps.com/UspsToolsRestServices/rest/POLocator/findLocations", "@spider": "usps_collection_boxes", "addr:city": "MILLERSBURG", "addr:country": "US", "addr:postcode": "52308", "addr:state": "IA", "addr:street_address": "692 WASHINGTON ST", "amenity": "post_box", "collection_times": "Mo-Fr 16:30; Sa 15:30", "note": "ON 12/24 AND 12/31, THIS BOX MAY BE COLLECTED AS EARLY AS 12 NOON.", "nsi_id": "unitedstatespostalservice-a77078", "operator": "United States Postal Service", "operator:short": "USPS", "operator:type": "public", "operator:wikidata": "Q668687", "ref": "5230800000"}, "type": "Feature"}
{"geometry": {"coordinates": [-92.16012529, 41.572844665], "type": "Point"}, "id": "mOIXntJDJNwEc1e-u3Gd6_XFnSM=", "properties": {"@source_uri": "https://tools.usps.com/UspsToolsRestServices/rest/POLocator/findLocations", "@spider": "usps_collection_boxes", "addr:city": "MILLERSBURG", "addr:country": "US", "addr:postcode": "52308", "addr:state": "IA", "addr:street_address": "692 WASHINGTON ST", "amenity": "post_box", "collection_times": "Mo-Fr 12:45", "indoor": "yes", "note": "ON 12/24 AND 12/31, THIS BOX MAY BE COLLECTED AS EARLY AS 12 NOON.", "nsi_id": "unitedstatespostalservice-a77078", "operator": "United States Postal Service", "operator:short": "USPS", "operator:type": "public", "operator:wikidata": "Q668687", "ref": "5230800001"}, "type": "Feature"}
{"geometry": {"coordinates": [-92.16012529, 41.572844665], "type": "Point"}, "id": "1YIQR3qsGsJv4bbDQt5Noe8lITI=", "properties": {"@source_uri": "https://tools.usps.com/UspsToolsRestServices/rest/POLocator/findLocations", "@spider": "usps_collection_boxes", "addr:city": "MILLERSBURG", "addr:country": "US", "addr:postcode": "52308", "addr:state": "IA", "addr:street_address": "692 WASHINGTON ST", "amenity": "post_box", "collection_times": "Mo-Fr 13:00; Sa 11:15", "indoor": "yes", "note": "ON 12/24 AND 12/31, THIS BOX MAY BE COLLECTED AS EARLY AS 12 NOON.", "nsi_id": "unitedstatespostalservice-a77078", "operator": "United States Postal Service", "operator:short": "USPS", "operator:type": "public", "operator:wikidata": "Q668687", "ref": "5230800002"}, "type": "Feature"}
{"geometry": {"coordinates": [-90.879850024, 42.075666472], "type": "Point"}, "id": "VKMAlHNwO6ZIaW9pZVqX6AqbprY=", "properties": {"@source_uri": "https://tools.usps.com/UspsToolsRestServices/rest/POLocator/findLocations", "@spider": "usps_collection_boxes", "addr:city": "MONMOUTH", "addr:country": "US", "addr:postcode": "52309", "addr:state": "IA", "addr:street_address": "306 N DIVISION ST", "amenity": "post_box", "collection_times": "Mo-Fr 15:45; Sa 16:00", "note": "ON 12/24 AND 12/31, THIS BOX MAY BE COLLECTED AS EARLY AS 12 NOON.", "nsi_id": "unitedstatespostalservice-a77078", "operator": "United States Postal Service", "operator:short": "USPS", "operator:type": "public", "operator:wikidata": "Q668687", "ref": "5230900000"}, "type": "Feature"}
{"geometry": {"coordinates": [-90.879850024, 42.075666472], "type": "Point"}, "id": "tcjxR410XK46YQQtFWDAUHtZSi0=", "properties": {"@source_uri": "https://tools.usps.com/UspsToolsRestServices/rest/POLocator/findLocations", "@spider": "usps_collection_boxes", "addr:city": "MONMOUTH", "addr:country": "US", "addr:postcode": "52309", "addr:state": "IA", "addr:street_address": "306 N DIVISION ST", "amenity": "post_box", "collection_times": "Mo-Fr 13:45", "indoor": "yes", "note": "ON 12/24 AND 12/31, THIS BOX MAY BE COLLECTED AS EARLY AS 12 NOON.", "nsi_id": "unitedstatespostalservice-a77078", "operator": "United States Postal Service", "operator:short": "USPS", "operator:type": "public", "operator:wikidata": "Q668687", "ref": "5230900001"}, "type": "Feature"}
{"geometry": {"coordinates": [-90.879850024, 42.075666472], "type": "Point"}, "id": "XctEtEsOToNoaUEpSoUwqbfA6i8=", "properties": {"@source_uri": "https://tools.usps.com/UspsToolsRestServices/rest/POLocator/findLocations", "@spider": "usps_collection_boxes", "addr:city": "MONMOUTH", "addr:country": "US", "addr:postcode": "52309", "addr:state": "IA", "addr:street_address": "306 N DIVISION ST", "amenity": "post_box", "collection_times": "Mo-Fr 14:00; Sa 11:45", "indoor": "yes", "note": "ON 12/24 AND 12/31, THIS BOX MAY BE COLLECTED AS EARLY AS 12 NOON.", "nsi_id": "unitedstatespostalservice-a77078", "operator": "United States Postal Service", "operator:short": "USPS", "operator:type": "public", "operator:wikidata": "Q668687", "ref": "5230900002"}, "type": "Feature"}
{"geometry": {"coordinates": [-91.188194227, 42.238064447], "type": "Point"}, "id": "onHbvDGomL9U5iUA7zEEYXYsEnw=", "properties": {"@source_uri": "https://tools.usps.com/UspsToolsRestServices/rest/POLocator/findLocations", "@spider": "usps_collection_boxes", "addr:city": "MONTICELLO", "addr:country": "US", "addr:postcode": "52310", "addr:state": "IA", "addr:street_address": "200 E 1ST ST", "amenity": "post_box", "collection_times": "Mo-Sa 14:30", "note": "ON 12/24 AND 12/31, THIS BOX MAY BE COLLECTED AS EARLY AS 12 NOON.", "nsi_id": "unitedstatespostalservice-a77078", "operator": "United States Postal Service", "operator:short": "USPS", "operator:type": "public", "operator:wikidata": "Q668687", "ref": "5231000000"}, "type": "Feature"}
{"geometry": {"coordinates": [-91.190398763, 42.238294136], "type": "Point"}, "id": "h_SS4dN_phCWjOUfKiGamNuObwk=", "properties": {"@source_uri": "https://tools.usps.com/UspsToolsRestServices/rest/POLocator/findLocations", "@spider": "usps_collection_boxes", "addr:city": "MONTICELLO", "addr:country": "US", "addr:postcode": "52310", "addr:state": "IA", "addr:street_address": "119 N FARLEY ST", "amenity": "post_box", "collection_times": "Mo-Sa 17:00", "note": "ON 12/24 AND 12/31, THIS BOX MAY BE COLLECTED AS EARLY AS 12 NOON.", "nsi_id": "unitedstatespostalservice-a77078", "operator": "United States Postal Service", "operator:short": "USPS", "operator:type": "public", "operator:wikidata": "Q668687", "ref": "5231000005"}, "type": "Feature"}
{"geometry": {"coordinates": [-91.18977798, 42.23873173], "type": "Point"}, "id": "GrnbL6kUt4ShBjist_YeekF2R9M=", "properties": {"@source_uri": "https://tools.usps.com/UspsToolsRestServices/rest/POLocator/findLocations", "@spider": "usps_collection_boxes", "addr:city": "MONTICELLO", "addr:country": "US", "addr:postcode": "52310", "addr:state": "IA", "addr:street_address": "119 N CEDAR ST", "amenity": "post_box", "collection_times": "Mo-Fr 17:00; Sa 15:30", "indoor": "yes", "note": "ON 12/24 AND 12/31, THIS BOX MAY BE COLLECTED AS EARLY AS 12 NOON.", "nsi_id": "unitedstatespostalservice-a77078", "operator": "United States Postal Service", "operator:short": "USPS", "operator:type": "public", "operator:wikidata": "Q668687", "ref": "5231000009"}, "type": "Feature"}
{"geometry": {"coordinates": [-91.18977798, 42.23873173], "type": "Point"}, "id": "YXG5P_Wtyeq07TcDo7gwsqudais=", "properties": {"@source_uri": "https://tools.usps.com/UspsToolsRestServices/rest/POLocator/findLocations", "@spider": "usps_collection_boxes", "addr:city": "MONTICELLO", "addr:country": "US", "addr:postcode": "52310", "addr:state": "IA", "addr:street_address": "119 N CEDAR ST", "amenity": "post_box", "collection_times": "Mo-Fr 16:30; Sa 11:30", "indoor": "yes", "note": "ON 12/24 AND 12/31, THIS BOX MAY BE COLLECTED AS EARLY AS 12 NOON.", "nsi_id": "unitedstatespostalservice-a77078", "operator": "United States Postal Service", "operator:short": "USPS", "operator:type": "public", "operator:wikidata": "Q668687", "ref": "5231000012"}, "type": "Feature"}
{"geometry": {"coordinates": [-92.092288225, 42.255186991], "type": "Point"}, "id": "Lh85d1TcPUkVyz1i092MzZ45kUs=", "properties": {"@source_uri": "https://tools.usps.com/UspsToolsRestServices/rest/POLocator/findLocations", "@spider": "usps_collection_boxes", "addr:city": "MOUNT AUBURN", "addr:country": "US", "addr:postcode": "52313", "addr:state": "IA", "addr:street_address": "211 2ND ST", "amenity": "post_box", "collection_times": "Mo-Sa 16:00", "note": "ON 12/24 AND 12/31, THIS BOX MAY BE COLLECTED AS EARLY AS 12 NOON.", "nsi_id": "unitedstatespostalservice-a77078", "operator": "United States Postal Service", "operator:short": "USPS", "operator:type": "public", "operator:wikidata": "Q668687", "ref": "5231300000"}, "type": "Feature"}
{"geometry": {"coordinates": [-92.092293429, 42.255160626], "type": "Point"}, "id": "GRcNiwYAFk01rwOGg7CCmhlrYlc=", "properties": {"@source_uri": "https://tools.usps.com/UspsToolsRestServices/rest/POLocator/findLocations", "@spider": "usps_collection_boxes", "addr:city": "MOUNT AUBURN", "addr:country": "US", "addr:postcode": "52313", "addr:state": "IA", "addr:street_address": "211 2ND ST", "amenity": "post_box", "collection_times": "Mo-Fr 10:45", "indoor": "yes", "nsi_id": "unitedstatespostalservice-a77078", "operator": "United States Postal Service", "operator:short": "USPS", "operator:type": "public", "operator:wikidata": "Q668687", "ref": "5231300001"}, "type": "Feature"}
{"geometry": {"coordinates": [-92.092293429, 42.255160626], "type": "Point"}, "id": "XxEg2r4UqtnzZh-5hdZvi0c9VT8=", "properties": {"@source_uri": "https://tools.usps.com/UspsToolsRestServices/rest/POLocator/findLocations", "@spider": "usps_collection_boxes", "addr:city": "MOUNT AUBURN", "addr:country": "US", "addr:postcode": "52313", "addr:state": "IA", "addr:street_address": "211 2ND ST", "amenity": "post_box", "collection_times": "Mo-Fr 11:00; Sa 08:30", "indoor": "yes", "nsi_id": "unitedstatespostalservice-a77078", "operator": "United States Postal Service", "operator:short": "USPS", "operator:type": "public", "operator:wikidata": "Q668687", "ref": "5231300002"}, "type": "Feature"}
{"geometry": {"coordinates": [-91.418478801, 41.923094405], "type": "Point"}, "id": "gFHGaMPuyajYSNdd7RM3jTl94xs=", "properties": {"@source_uri": "https://tools.usps.com/UspsToolsRestServices/rest/POLocator/findLocations", "@spider": "usps_collection_boxes", "addr:city": "MOUNT VERNON", "addr:country": "US", "addr:postcode": "52314", "addr:state": "IA", "addr:street_address": "213 1ST ST NW", "amenity": "post_box", "collection_times": "Mo-Fr 14:30; Sa 13:30", "note": "ON 12/24 AND 12/31, THIS BOX MAY BE COLLECTED AS EARLY AS 12 NOON.", "nsi_id": "unitedstatespostalservice-a77078", "operator": "United States Postal Service", "operator:short": "USPS", "operator:type": "public", "operator:wikidata": "Q668687", "ref": "5231400000"}, "type": "Feature"}
{"geometry": {"coordinates": [-91.424834761, 41.923152804], "type": "Point"}, "id": "KZ5_GkauJUg35q0flFge-VJRUSY=", "properties": {"@source_uri": "https://tools.usps.com/UspsToolsRestServices/rest/POLocator/findLocations", "@spider": "usps_collection_boxes", "addr:city": "MOUNT VERNON", "addr:country": "US", "addr:postcode": "52314", "addr:state": "IA", "addr:street_address": "100 1ST ST SW", "amenity": "post_box", "collection_times": "Mo-Fr 14:30; Sa 13:30", "note": "ON 12/24 AND 12/31, THIS BOX MAY BE COLLECTED AS EARLY AS 12 NOON.", "nsi_id": "unitedstatespostalservice-a77078", "operator": "United States Postal Service", "operator:short": "USPS", "operator:type": "public", "operator:wikidata": "Q668687", "ref": "5231400001"}, "type": "Feature"}
{"geometry": {"coordinates": [-91.418483937, 41.921864384], "type": "Point"}, "id": "ao-AmPFNhU-PWcuHw70uZl1HcB8=", "properties": {"@source_uri": "https://tools.usps.com/UspsToolsRestServices/rest/POLocator/findLocations", "@spider": "usps_collection_boxes", "addr:city": "MOUNT VERNON", "addr:country": "US", "addr:postcode": "52314", "addr:state": "IA", "addr:street_address": "124 2ND ST SW", "amenity": "post_box", "collection_times": "Mo-Fr 16:15; Sa 16:45", "note": "ON 12/24 AND 12/31, THIS BOX MAY BE COLLECTED AS EARLY AS 12 NOON.", "nsi_id": "unitedstatespostalservice-a77078", "operator": "United States Postal Service", "operator:short": "USPS", "operator:type": "public", "operator:wikidata": "Q668687", "ref": "5231400002"}, "type": "Feature"}
{"geometry": {"coordinates": [-91.41587119, 41.921538335], "type": "Point"}, "id": "1rJpr9zXcuWpgPanobUbZogcQsA=", "properties": {"@source_uri": "https://tools.usps.com/UspsToolsRestServices/rest/POLocator/findLocations", "@spider": "usps_collection_boxes", "addr:city": "MOUNT VERNON", "addr:country": "US", "addr:postcode": "52314", "addr:state": "IA", "addr:street_address": "222 1ST AVE SE", "amenity": "post_box", "collection_times": "Mo-Fr 13:00; Sa 12:00", "note": "ON 12/24 AND 12/31, THIS BOX MAY BE COLLECTED AS EARLY AS 12 NOON.", "nsi_id": "unitedstatespostalservice-a77078", "operator": "United States Postal Service", "operator:short": "USPS", "operator:type": "public", "operator:wikidata": "Q668687", "ref": "5231400003"}, "type": "Feature"}
{"geometry": {"coordinates": [-91.418483937, 41.921864384], "type": "Point"}, "id": "UB1J2sQ7LC2k-gc_PZqGZmDu3GI=", "properties": {"@source_uri": "https://tools.usps.com/UspsToolsRestServices/rest/POLocator/findLocations", "@spider": "usps_collection_boxes", "addr:city": "MOUNT VERNON", "addr:country": "US", "addr:postcode": "52314", "addr:state": "IA", "addr:street_address": "124 2ND ST SW", "amenity": "post_box", "collection_times": "Mo-Fr 16:15; Sa 10:30", "indoor": "yes", "note": "ON 12/24 AND 12/31, THIS BOX MAY BE COLLECTED AS EARLY AS 12 NOON.", "nsi_id": "unitedstatespostalservice-a77078", "operator": "United States Postal Service", "operator:short": "USPS", "operator:type": "public", "operator:wikidata": "Q668687", "ref": "5231400004"}, "type": "Feature"}
{"geometry": {"coordinates": [-91.422290207, 41.916899481], "type": "Point"}, "id": "DtWpdOQ9gxA8hEYyG-FCi_V6Hv8=", "properties": {"@source_uri": "https://tools.usps.com/UspsToolsRestServices/rest/POLocator/findLocations", "@spider": "usps_collection_boxes", "addr:city": "MOUNT VERNON", "addr:country": "US", "addr:postcode": "52314", "addr:state": "IA", "addr:street_address": "715 1ST AVE SW", "amenity": "post_box", "collection_times": "Mo-Sa 12:00", "nsi_id": "unitedstatespostalservice-a77078", "operator": "United States Postal Service", "operator:short": "USPS", "operator:type": "public", "operator:wikidata": "Q668687", "ref": "5231400005"}, "type": "Feature"}
{"geometry": {"coordinates": [-91.418483937, 41.921864384], "type": "Point"}, "id": "WdxdVRLqumnsXi7B99T7n13GZm8=", "properties": {"@source_uri": "https://tools.usps.com/UspsToolsRestServices/rest/POLocator/findLocations", "@spider": "usps_collection_boxes", "addr:city": "MOUNT VERNON", "addr:country": "US", "addr:postcode": "52314", "addr:state": "IA", "addr:street_address": "124 2ND ST SW", "amenity": "post_box", "collection_times": "Mo-Fr 16:30; Sa 10:30", "indoor": "yes", "note": "ON 12/24 AND 12/31, THIS BOX MAY BE COLLECTED AS EARLY AS 12 NOON.", "nsi_id": "unitedstatespostalservice-a77078", "operator": "United States Postal Service", "operator:short": "USPS", "operator:type": "public", "operator:wikidata": "Q668687", "ref": "5231400007"}, "type": "Feature"}
{"geometry": {"coordinates": [-91.967380859, 41.995337408], "type": "Point"}, "id": "0aev3H8Z10Qu5UHdJbxVMbSURWg=", "properties": {"@source_uri": "https://tools.usps.com/UspsToolsRestServices/rest/POLocator/findLocations", "@spider": "usps_collection_boxes", "addr:city": "NEWHALL", "addr:country": "US", "addr:postcode": "52315", "addr:state": "IA", "addr:street_address": "11 MAIN ST", "amenity": "post_box", "collection_times": "Mo-Sa 16:00", "note": "ON 12/24 AND 12/31, THIS BOX MAY BE COLLECTED AS EARLY AS 12 NOON.", "nsi_id": "unitedstatespostalservice-a77078", "operator": "United States Postal Service", "operator:short": "USPS", "operator:type": "public", "operator:wikidata": "Q668687", "ref": "5231500000"}, "type": "Feature"}
{"geometry": {"coordinates": [-91.967380859, 41.995337408], "type": "Point"}, "id": "F3F7NR5coAdH44tCUzvJOlWwvbs=", "properties": {"@source_uri": "https://tools.usps.com/UspsToolsRestServices/rest/POLocator/findLocations", "@spider": "usps_collection_boxes", "addr:city": "NEWHALL", "addr:country": "US", "addr:postcode": "52315", "addr:state": "IA", "addr:street_address": "11 MAIN ST", "amenity": "post_box", "collection_times": "Mo-Fr 15:45; Sa 09:00", "indoor": "yes", "note": "ON 12/24 AND 12/31, THIS BOX MAY BE COLLECTED AS EARLY AS 12 NOON.", "nsi_id": "unitedstatespostalservice-a77078", "operator": "United States Postal Service", "operator:short": "USPS", "operator:type": "public", "operator:wikidata": "Q668687", "ref": "5231500002"}, "type": "Feature"}
{"geometry": {"coordinates": [-91.967380859, 41.995337408], "type": "Point"}, "id": "DLXif8YJEvQrFVtrBETrf3Yqzoc=", "properties": {"@source_uri": "https://tools.usps.com/UspsToolsRestServices/rest/POLocator/findLocations", "@spider": "usps_collection_boxes", "addr:city": "NEWHALL", "addr:country": "US", "addr:postcode": "52315", "addr:state": "IA", "addr:street_address": "11 MAIN ST", "amenity": "post_box", "collection_times": "Mo-Fr 16:00; Sa 09:15", "indoor": "yes", "note": "ON 12/24 AND 12/31, THIS BOX MAY BE COLLECTED AS EARLY AS 12 NOON.", "nsi_id": "unitedstatespostalservice-a77078", "operator": "United States Postal Service", "operator:short": "USPS", "operator:type": "public", "operator:wikidata": "Q668687", "ref": "5231500003"}, "type": "Feature"}
{"geometry": {"coordinates": [-92.076933693, 41.515056512], "type": "Point"}, "id": "qwAQDJAjXnWkwnLL8U709_rsfv8=", "properties": {"@source_uri": "https://tools.usps.com/UspsToolsRestServices/rest/POLocator/findLocations", "@spider": "usps_collection_boxes", "addr:city": "NORTH ENGLISH", "addr:country": "US", "addr:postcode": "52316", "addr:state": "IA", "addr:street_address": "108 W OAK ST", "amenity": "post_box", "collection_times": "Mo-Sa 16:00", "note": "ON 12/24 AND 12/31, THIS BOX MAY BE COLLECTED AS EARLY AS 12 NOON.", "nsi_id": "unitedstatespostalservice-a77078", "operator": "United States Postal Service", "operator:short": "USPS", "operator:type": "public", "operator:wikidata": "Q668687", "ref": "5231600000"}, "type": "Feature"}
{"geometry": {"coordinates": [-92.076933693, 41.515056512], "type": "Point"}, "id": "k4A2UAuPnyg9uazcxBETi_H84OU=", "properties": {"@source_uri": "https://tools.usps.com/UspsToolsRestServices/rest/POLocator/findLocations", "@spider": "usps_collection_boxes", "addr:city": "NORTH ENGLISH", "addr:country": "US", "addr:postcode": "52316", "addr:state": "IA", "addr:street_address": "108 W OAK ST", "amenity": "post_box", "collection_times": "Mo-Fr 16:00", "indoor": "yes", "note": "ON 12/24 AND 12/31, THIS BOX MAY BE COLLECTED AS EARLY AS 12 NOON.", "nsi_id": "unitedstatespostalservice-a77078", "operator": "United States Postal Service", "operator:short": "USPS", "operator:type": "public", "operator:wikidata": "Q668687", "ref": "5231600001"}, "type": "Feature"}
{"geometry": {"coordinates": [-92.076933693, 41.515056512], "type": "Point"}, "id": "wClxdZFkHnSnguP2UT_F541qn4I=", "properties": {"@source_uri": "https://tools.usps.com/UspsToolsRestServices/rest/POLocator/findLocations", "@spider": "usps_collection_boxes", "addr:city": "NORTH ENGLISH", "addr:country": "US", "addr:postcode": "52316", "addr:state": "IA", "addr:street_address": "108 W OAK ST", "amenity": "post_box", "collection_times": "Mo-Fr 16:00; Sa 09:30", "indoor": "yes", "note": "ON 12/24 AND 12/31, THIS BOX MAY BE COLLECTED AS EARLY AS 12 NOON.", "nsi_id": "unitedstatespostalservice-a77078", "operator": "United States Postal Service", "operator:short": "USPS", "operator:type": "public", "operator:wikidata": "Q668687", "ref": "5231600002"}, "type": "Feature"}
{"geometry": {"coordinates": [-91.606910726, 41.746316503], "type": "Point"}, "id": "CRLbaBdyq2BnkMsOKjfawt6zIMQ=", "properties": {"@source_uri": "https://tools.usps.com/UspsToolsRestServices/rest/POLocator/findLocations", "@spider": "usps_collection_boxes", "addr:city": "NORTH LIBERTY", "addr:country": "US", "addr:postcode": "52317", "addr:state": "IA", "addr:street_address": "75 COMMERCIAL DR", "amenity": "post_box", "collection_times": "Mo-Sa 17:00", "note": "ON 12/24 AND 12/31, THIS BOX MAY BE COLLECTED AS EARLY AS 12 NOON.", "nsi_id": "unitedstatespostalservice-a77078", "operator": "United States Postal Service", "operator:short": "USPS", "operator:type": "public", "operator:wikidata": "Q668687", "ref": "5231700000"}, "type": "Feature"}
{"geometry": {"coordinates": [-91.606910726, 41.746316503], "type": "Point"}, "id": "Q0nUrwPcPezpUAGpioiJksxFbCg=", "properties": {"@source_uri": "https://tools.usps.com/UspsToolsRestServices/rest/POLocator/findLocations", "@spider": "usps_collection_boxes", "addr:city": "NORTH LIBERTY", "addr:country": "US", "addr:postcode": "52317", "addr:state": "IA", "addr:street_address": "75 COMMERCIAL DR", "amenity": "post_box", "collection_times": "Mo-Fr 17:00", "indoor": "yes", "note": "ON 12/24 AND 12/31, THIS BOX MAY BE COLLECTED AS EARLY AS 12 NOON.", "nsi_id": "unitedstatespostalservice-a77078", "operator": "United States Postal Service", "operator:short": "USPS", "operator:type": "public", "operator:wikidata": "Q668687", "ref": "5231700008"}, "type": "Feature"}
{"geometry": {"coordinates": [-91.59218294, 41.744416676], "type": "Point"}, "id": "vhi-2s-S_GInAy01R-cX6W7BgO4=", "properties": {"@source_uri": "https://tools.usps.com/UspsToolsRestServices/rest/POLocator/findLocations", "@spider": "usps_collection_boxes", "addr:city": "NORTH LIBERTY", "addr:country": "US", "addr:postcode": "52317", "addr:state": "IA", "addr:street_address": "55 S DUBUQUE ST", "amenity": "post_box", "collection_times": "Mo-Sa 10:00", "nsi_id": "unitedstatespostalservice-a77078", "operator": "United States Postal Service", "operator:short": "USPS", "operator:type": "public", "operator:wikidata": "Q668687", "ref": "5231700009"}, "type": "Feature"}
{"geometry": {"coordinates": [-91.606910726, 41.746316503], "type": "Point"}, "id": "ZHDpGd3rbV-XBus58EaG993UF8w=", "properties": {"@source_uri": "https://tools.usps.com/UspsToolsRestServices/rest/POLocator/findLocations", "@spider": "usps_collection_boxes", "addr:city": "NORTH LIBERTY", "addr:country": "US", "addr:postcode": "52317", "addr:state": "IA", "addr:street_address": "75 COMMERCIAL DR", "amenity": "post_box", "collection_times": "Mo-Fr 16:30; Sa 11:00", "indoor": "yes", "note": "ON 12/24 AND 12/31, THIS BOX MAY BE COLLECTED AS EARLY AS 12 NOON.", "nsi_id": "unitedstatespostalservice-a77078", "operator": "United States Postal Service", "operator:short": "USPS", "operator:type": "public", "operator:wikidata": "Q668687", "ref": "5231700010"}, "type": "Feature"}
{"geometry": {"coordinates": [-91.922608817, 41.902296191], "type": "Point"}, "id": "mJ7WZaubmr2Yo8fM4_HPAX022-w=", "properties": {"@source_uri": "https://tools.usps.com/UspsToolsRestServices/rest/POLocator/findLocations", "@spider": "usps_collection_boxes", "addr:city": "NORWAY", "addr:country": "US", "addr:postcode": "52318", "addr:state": "IA", "addr:street_address": "202 W RAILROAD ST", "amenity": "post_box", "collection_times": "Mo-Fr 16:00; Sa 16:30", "note": "ON 12/24 AND 12/31, THIS BOX MAY BE COLLECTED AS EARLY AS 12 NOON.", "nsi_id": "unitedstatespostalservice-a77078", "operator": "United States Postal Service", "operator:short": "USPS", "operator:type": "public", "operator:wikidata": "Q668687", "ref": "5231800000"}, "type": "Feature"}
{"geometry": {"coordinates": [-91.922608817, 41.902296191], "type": "Point"}, "id": "lgfeSTKoCJ9FcykKS146gBT2zVc=", "properties": {"@source_uri": "https://tools.usps.com/UspsToolsRestServices/rest/POLocator/findLocations", "@spider": "usps_collection_boxes", "addr:city": "NORWAY", "addr:country": "US", "addr:postcode": "52318", "addr:state": "IA", "addr:street_address": "202 W RAILROAD ST", "amenity": "post_box", "collection_times": "Mo-Fr 13:45; Sa 08:00", "indoor": "yes", "note": "ON 12/24 AND 12/31, THIS BOX MAY BE COLLECTED AS EARLY AS 12 NOON.", "nsi_id": "unitedstatespostalservice-a77078", "operator": "United States Postal Service", "operator:short": "USPS", "operator:type": "public", "operator:wikidata": "Q668687", "ref": "5231800002"}, "type": "Feature"}
{"geometry": {"coordinates": [-91.922608817, 41.902296191], "type": "Point"}, "id": "GywD02Qnvqzy8Bu5CSTmnHCgzjM=", "properties": {"@source_uri": "https://tools.usps.com/UspsToolsRestServices/rest/POLocator/findLocations", "@spider": "usps_collection_boxes", "addr:city": "NORWAY", "addr:country": "US", "addr:postcode": "52318", "addr:state": "IA", "addr:street_address": "202 W RAILROAD ST", "amenity": "post_box", "collection_times": "Mo-Fr 14:00; Sa 08:15", "indoor": "yes", "note": "ON 12/24 AND 12/31, THIS BOX MAY BE COLLECTED AS EARLY AS 12 NOON.", "nsi_id": "unitedstatespostalservice-a77078", "operator": "United States Postal Service", "operator:short": "USPS", "operator:type": "public", "operator:wikidata": "Q668687", "ref": "5231800003"}, "type": "Feature"}
{"geometry": {"coordinates": [-91.142639665, 41.998842512], "type": "Point"}, "id": "WYE7wf4qSamztqjI-IjHfSYRrGc=", "properties": {"@source_uri": "https://tools.usps.com/UspsToolsRestServices/rest/POLocator/findLocations", "@spider": "usps_collection_boxes", "addr:city": "OLIN", "addr:country": "US", "addr:postcode": "52320", "addr:state": "IA", "addr:street_address": "106 W LOCUST ST", "amenity": "post_box", "collection_times": "Mo-Fr 16:00; Sa 17:00", "note": "ON 12/24 AND 12/31, THIS BOX MAY BE COLLECTED AS EARLY AS 12 NOON.", "nsi_id": "unitedstatespostalservice-a77078", "operator": "United States Postal Service", "operator:short": "USPS", "operator:type": "public", "operator:wikidata": "Q668687", "ref": "5232000000"}, "type": "Feature"}
{"geometry": {"coordinates": [-91.142640026, 41.999090008], "type": "Point"}, "id": "1Qxy5l9wvKBN-s3T05t3w76LlVk=", "properties": {"@source_uri": "https://tools.usps.com/UspsToolsRestServices/rest/POLocator/findLocations", "@spider": "usps_collection_boxes", "addr:city": "OLIN", "addr:country": "US", "addr:postcode": "52320", "addr:state": "IA", "addr:street_address": "106 W LOCUST ST", "amenity": "post_box", "collection_times": "Mo-Fr 11:15", "indoor": "yes", "nsi_id": "unitedstatespostalservice-a77078", "operator": "United States Postal Service", "operator:short": "USPS", "operator:type": "public", "operator:wikidata": "Q668687", "ref": "5232000001"}, "type": "Feature"}
{"geometry": {"coordinates": [-91.142640026, 41.999090008], "type": "Point"}, "id": "60IFVP_XBmIcEIlEtcon6enItU0=", "properties": {"@source_uri": "https://tools.usps.com/UspsToolsRestServices/rest/POLocator/findLocations", "@spider": "usps_collection_boxes", "addr:city": "OLIN", "addr:country": "US", "addr:postcode": "52320", "addr:state": "IA", "addr:street_address": "106 W LOCUST ST", "amenity": "post_box", "collection_times": "Mo-Fr 11:30; Sa 09:00", "indoor": "yes", "nsi_id": "unitedstatespostalservice-a77078", "operator": "United States Postal Service", "operator:short": "USPS", "operator:type": "public", "operator:wikidata": "Q668687", "ref": "5232000002"}, "type": "Feature"}
{"geometry": {"coordinates": [-91.014479056, 42.106932], "type": "Point"}, "id": "fiZouIxty8cFo0ZqcfFYOzD-SVM=", "properties": {"@source_uri": "https://tools.usps.com/UspsToolsRestServices/rest/POLocator/findLocations", "@spider": "usps_collection_boxes", "addr:city": "ONSLOW", "addr:country": "US", "addr:postcode": "52321", "addr:state": "IA", "addr:street_address": "101 N MAIN ST", "amenity": "post_box", "collection_times": "Mo-Sa 16:00", "note": "ON 12/24 AND 12/31, THIS BOX MAY BE COLLECTED AS EARLY AS 12 NOON.", "nsi_id": "unitedstatespostalservice-a77078", "operator": "United States Postal Service", "operator:short": "USPS", "operator:type": "public", "operator:wikidata": "Q668687", "ref": "5232100000"}, "type": "Feature"}
{"geometry": {"coordinates": [-91.014479056, 42.106932], "type": "Point"}, "id": "f4-6k6YjPgYbM62NCbBMv0VAYRU=", "properties": {"@source_uri": "https://tools.usps.com/UspsToolsRestServices/rest/POLocator/findLocations", "@spider": "usps_collection_boxes", "addr:city": "ONSLOW", "addr:country": "US", "addr:postcode": "52321", "addr:state": "IA", "addr:street_address": "101 N MAIN ST", "amenity": "post_box", "collection_times": "Mo-Fr 12:45", "indoor": "yes", "note": "ON 12/24 AND 12/31, THIS BOX MAY BE COLLECTED AS EARLY AS 12 NOON.", "nsi_id": "unitedstatespostalservice-a77078", "operator": "United States Postal Service", "operator:short": "USPS", "operator:type": "public", "operator:wikidata": "Q668687", "ref": "5232100001"}, "type": "Feature"}
{"geometry": {"coordinates": [-91.014479056, 42.106932], "type": "Point"}, "id": "k2Ngd23effV0Hm-iFJBZOJQdLaM=", "properties": {"@source_uri": "https://tools.usps.com/UspsToolsRestServices/rest/POLocator/findLocations", "@spider": "usps_collection_boxes", "addr:city": "ONSLOW", "addr:country": "US", "addr:postcode": "52321", "addr:state": "IA", "addr:street_address": "101 N MAIN ST", "amenity": "post_box", "collection_times": "Mo-Fr 13:00; Sa 10:30", "indoor": "yes", "note": "ON 12/24 AND 12/31, THIS BOX MAY BE COLLECTED AS EARLY AS 12 NOON.", "nsi_id": "unitedstatespostalservice-a77078", "operator": "United States Postal Service", "operator:short": "USPS", "operator:type": "public", "operator:wikidata": "Q668687", "ref": "5232100002"}, "type": "Feature"}
{"geometry": {"coordinates": [-91.790594548, 41.723221823], "type": "Point"}, "id": "jgKdT7CWEiu4qVk-xX8UoTl57Lo=", "properties": {"@source_uri": "https://tools.usps.com/UspsToolsRestServices/rest/POLocator/findLocations", "@spider": "usps_collection_boxes", "addr:city": "OXFORD", "addr:country": "US", "addr:postcode": "52322", "addr:state": "IA", "addr:street_address": "101 E MAIN ST", "amenity": "post_box", "collection_times": "Mo-Fr 15:45", "indoor": "yes", "note": "ON 12/24 AND 12/31, THIS BOX MAY BE COLLECTED AS EARLY AS 12 NOON.", "nsi_id": "unitedstatespostalservice-a77078", "operator": "United States Postal Service", "operator:short": "USPS", "operator:type": "public", "operator:wikidata": "Q668687", "ref": "5232200002"}, "type": "Feature"}
{"geometry": {"coordinates": [-91.790594548, 41.723221823], "type": "Point"}, "id": "SqRUytMcOXu1OSRkHJXQ-toXMfY=", "properties": {"@source_uri": "https://tools.usps.com/UspsToolsRestServices/rest/POLocator/findLocations", "@spider": "usps_collection_boxes", "addr:city": "OXFORD", "addr:country": "US", "addr:postcode": "52322", "addr:state": "IA", "addr:street_address": "101 E MAIN ST", "amenity": "post_box", "collection_times": "Mo-Fr 16:00; Sa 13:00", "indoor": "yes", "note": "ON 12/24 AND 12/31, THIS BOX MAY BE COLLECTED AS EARLY AS 12 NOON.", "nsi_id": "unitedstatespostalservice-a77078", "operator": "United States Postal Service", "operator:short": "USPS", "operator:type": "public", "operator:wikidata": "Q668687", "ref": "5232200003"}, "type": "Feature"}
{"geometry": {"coordinates": [-90.954612, 41.983705521], "type": "Point"}, "id": "Ho7boDUX8RiglQn6U2VE4jgmVms=", "properties": {"@source_uri": "https://tools.usps.com/UspsToolsRestServices/rest/POLocator/findLocations", "@spider": "usps_collection_boxes", "addr:city": "OXFORD JUNCTION", "addr:country": "US", "addr:postcode": "52323", "addr:state": "IA", "addr:street_address": "214 BROADWAY ST", "amenity": "post_box", "collection_times": "Mo-Fr 16:00; Sa 15:30", "note": "ON 12/24 AND 12/31, THIS BOX MAY BE COLLECTED AS EARLY AS 12 NOON.", "nsi_id": "unitedstatespostalservice-a77078", "operator": "United States Postal Service", "operator:short": "USPS", "operator:type": "public", "operator:wikidata": "Q668687", "ref": "5232300000"}, "type": "Feature"}
{"geometry": {"coordinates": [-90.954612, 41.983705521], "type": "Point"}, "id": "WeJ_Pex9zyB6md5iVO8lPX0tCic=", "properties": {"@source_uri": "https://tools.usps.com/UspsToolsRestServices/rest/POLocator/findLocations", "@spider": "usps_collection_boxes", "addr:city": "OXFORD JUNCTION", "addr:country": "US", "addr:postcode": "52323", "addr:state": "IA", "addr:street_address": "214 BROADWAY ST", "amenity": "post_box", "collection_times": "Mo-Fr 11:15", "indoor": "yes", "nsi_id": "unitedstatespostalservice-a77078", "operator": "United States Postal Service", "operator:short": "USPS", "operator:type": "public", "operator:wikidata": "Q668687", "ref": "5232300001"}, "type": "Feature"}
{"geometry": {"coordinates": [-90.954612, 41.983705521], "type": "Point"}, "id": "JWjP2Dc8R1nx2MnOXZuGxECnbnE=", "properties": {"@source_uri": "https://tools.usps.com/UspsToolsRestServices/rest/POLocator/findLocations", "@spider": "usps_collection_boxes", "addr:city": "OXFORD JUNCTION", "addr:country": "US", "addr:postcode": "52323", "addr:state": "IA", "addr:street_address": "214 BROADWAY ST", "amenity": "post_box", "collection_times": "Mo-Fr 11:30; Sa 08:30", "indoor": "yes", "nsi_id": "unitedstatespostalservice-a77078", "operator": "United States Postal Service", "operator:short": "USPS", "operator:type": "public", "operator:wikidata": "Q668687", "ref": "5232300002"}, "type": "Feature"}
{"geometry": {"coordinates": [-91.795744962, 42.065559], "type": "Point"}, "id": "3I0Phheu5vcSANtg885C0Ny_nIM=", "properties": {"@source_uri": "https://tools.usps.com/UspsToolsRestServices/rest/POLocator/findLocations", "@spider": "usps_collection_boxes", "addr:city": "PALO", "addr:country": "US", "addr:postcode": "52324", "addr:state": "IA", "addr:street_address": "700 1ST ST", "amenity": "post_box", "collection_times": "Mo-Fr 15:15; Sa 16:30", "note": "ON 12/24 AND 12/31, THIS BOX MAY BE COLLECTED AS EARLY AS 12 NOON.", "nsi_id": "unitedstatespostalservice-a77078", "operator": "United States Postal Service", "operator:short": "USPS", "operator:type": "public", "operator:wikidata": "Q668687", "ref": "5232400000"}, "type": "Feature"}
{"geometry": {"coordinates": [-91.795744962, 42.065559], "type": "Point"}, "id": "Rw_G-6-MRG4mRY04qCLtnMIz70U=", "properties": {"@source_uri": "https://tools.usps.com/UspsToolsRestServices/rest/POLocator/findLocations", "@spider": "usps_collection_boxes", "addr:city": "PALO", "addr:country": "US", "addr:postcode": "52324", "addr:state": "IA", "addr:street_address": "700 1ST ST", "amenity": "post_box", "collection_times": "Mo-Fr 15:15", "indoor": "yes", "note": "ON 12/24 AND 12/31, THIS BOX MAY BE COLLECTED AS EARLY AS 12 NOON.", "nsi_id": "unitedstatespostalservice-a77078", "operator": "United States Postal Service", "operator:short": "USPS", "operator:type": "public", "operator:wikidata": "Q668687", "ref": "5232400001"}, "type": "Feature"}
{"geometry": {"coordinates": [-91.795744962, 42.065559], "type": "Point"}, "id": "_qeZXrHeIbequrtyok0DUXxjzq0=", "properties": {"@source_uri": "https://tools.usps.com/UspsToolsRestServices/rest/POLocator/findLocations", "@spider": "usps_collection_boxes", "addr:city": "PALO", "addr:country": "US", "addr:postcode": "52324", "addr:state": "IA", "addr:street_address": "700 1ST ST", "amenity": "post_box", "collection_times": "Mo-Fr 15:30; Sa 08:30", "indoor": "yes", "note": "ON 12/24 AND 12/31, THIS BOX MAY BE COLLECTED AS EARLY AS 12 NOON.", "nsi_id": "unitedstatespostalservice-a77078", "operator": "United States Postal Service", "operator:short": "USPS", "operator:type": "public", "operator:wikidata": "Q668687", "ref": "5232400002"}, "type": "Feature"}
{"geometry": {"coordinates": [-92.003212498, 41.583036497], "type": "Point"}, "id": "R5MZG0TWk_3owbUK_aZnR_GpzUU=", "properties": {"@source_uri": "https://tools.usps.com/UspsToolsRestServices/rest/POLocator/findLocations", "@spider": "usps_collection_boxes", "addr:city": "PARNELL", "addr:country": "US", "addr:postcode": "52325", "addr:state": "IA", "addr:street_address": "691 CLEVELAND ST", "amenity": "post_box", "collection_times": "Mo-Fr 16:15; Sa 15:30", "note": "ON 12/24 AND 12/31, THIS BOX MAY BE COLLECTED AS EARLY AS 12 NOON.", "nsi_id": "unitedstatespostalservice-a77078", "operator": "United States Postal Service", "operator:short": "USPS", "operator:type": "public", "operator:wikidata": "Q668687", "ref": "5232500000"}, "type": "Feature"}
{"geometry": {"coordinates": [-92.003212498, 41.583036497], "type": "Point"}, "id": "A4SCgXu4sHiPOCrwBjmNG8rGPBI=", "properties": {"@source_uri": "https://tools.usps.com/UspsToolsRestServices/rest/POLocator/findLocations", "@spider": "usps_collection_boxes", "addr:city": "PARNELL", "addr:country": "US", "addr:postcode": "52325", "addr:state": "IA", "addr:street_address": "691 CLEVELAND ST", "amenity": "post_box", "collection_times": "Mo-Fr 16:15", "indoor": "yes", "note": "ON 12/24 AND 12/31, THIS BOX MAY BE COLLECTED AS EARLY AS 12 NOON.", "nsi_id": "unitedstatespostalservice-a77078", "operator": "United States Postal Service", "operator:short": "USPS", "operator:type": "public", "operator:wikidata": "Q668687", "ref": "5232500001"}, "type": "Feature"}
{"geometry": {"coordinates": [-92.003212498, 41.583036497], "type": "Point"}, "id": "TaNeF1esultDC_05FXGAapBn-Hs=", "properties": {"@source_uri": "https://tools.usps.com/UspsToolsRestServices/rest/POLocator/findLocations", "@spider": "usps_collection_boxes", "addr:city": "PARNELL", "addr:country": "US", "addr:postcode": "52325", "addr:state": "IA", "addr:street_address": "691 CLEVELAND ST", "amenity": "post_box", "collection_times": "Mo-Fr 16:30; Sa 14:15", "indoor": "yes", "note": "ON 12/24 AND 12/31, THIS BOX MAY BE COLLECTED AS EARLY AS 12 NOON.", "nsi_id": "unitedstatespostalservice-a77078", "operator": "United States Postal Service", "operator:short": "USPS", "operator:type": "public", "operator:wikidata": "Q668687", "ref": "5232500002"}, "type": "Feature"}
{"geometry": {"coordinates": [-91.760319555, 42.394450493], "type": "Point"}, "id": "Le3h-qV4HkMvmvLq8-0tS6eeoN8=", "properties": {"@source_uri": "https://tools.usps.com/UspsToolsRestServices/rest/POLocator/findLocations", "@spider": "usps_collection_boxes", "addr:city": "QUASQUETON", "addr:country": "US", "addr:postcode": "52326", "addr:state": "IA", "addr:street_address": "113 E DUBUQUE ST", "amenity": "post_box", "collection_times": "Mo-Sa 16:00", "note": "ON 12/24 AND 12/31, THIS BOX MAY BE COLLECTED AS EARLY AS 12 NOON.", "nsi_id": "unitedstatespostalservice-a77078", "operator": "United States Postal Service", "operator:short": "USPS", "operator:type": "public", "operator:wikidata": "Q668687", "ref": "5232600000"}, "type": "Feature"}
{"geometry": {"coordinates": [-91.760319555, 42.394450493], "type": "Point"}, "id": "SQhPM7bx54vLV2vcUfo-Us3miM8=", "properties": {"@source_uri": "https://tools.usps.com/UspsToolsRestServices/rest/POLocator/findLocations", "@spider": "usps_collection_boxes", "addr:city": "QUASQUETON", "addr:country": "US", "addr:postcode": "52326", "addr:state": "IA", "addr:street_address": "113 E DUBUQUE ST", "amenity": "post_box", "collection_times": "Mo-Fr 11:45", "indoor": "yes", "nsi_id": "unitedstatespostalservice-a77078", "operator": "United States Postal Service", "operator:short": "USPS", "operator:type": "public", "operator:wikidata": "Q668687", "ref": "5232600001"}, "type": "Feature"}
{"geometry": {"coordinates": [-91.760319555, 42.394450493], "type": "Point"}, "id": "FV3pWNrfxE5cxP0M00pcOkX_Trg=", "properties": {"@source_uri": "https://tools.usps.com/UspsToolsRestServices/rest/POLocator/findLocations", "@spider": "usps_collection_boxes", "addr:city": "QUASQUETON", "addr:country": "US", "addr:postcode": "52326", "addr:state": "IA", "addr:street_address": "113 E DUBUQUE ST", "amenity": "post_box", "collection_times": "Mo-Sa 12:00", "indoor": "yes", "nsi_id": "unitedstatespostalservice-a77078", "operator": "United States Postal Service", "operator:short": "USPS", "operator:type": "public", "operator:wikidata": "Q668687", "ref": "5232600002"}, "type": "Feature"}
{"geometry": {"coordinates": [-91.579993316, 41.480109], "type": "Point"}, "id": "Pbd94RT2ibchPHDwgXyQVxUfFKI=", "properties": {"@source_uri": "https://tools.usps.com/UspsToolsRestServices/rest/POLocator/findLocations", "@spider": "usps_collection_boxes", "addr:city": "RIVERSIDE", "addr:country": "US", "addr:postcode": "52327", "addr:state": "IA", "addr:street_address": "81 GREENE ST", "amenity": "post_box", "collection_times": "Mo-Fr 16:00; Sa 16:30", "note": "ON 12/24 AND 12/31, THIS BOX MAY BE COLLECTED AS EARLY AS 12 NOON.", "nsi_id": "unitedstatespostalservice-a77078", "operator": "United States Postal Service", "operator:short": "USPS", "operator:type": "public", "operator:wikidata": "Q668687", "ref": "5232700000"}, "type": "Feature"}
{"geometry": {"coordinates": [-91.579993316, 41.480109], "type": "Point"}, "id": "thCIXVmxlzxTtL6LaorbKL8v55Q=", "properties": {"@source_uri": "https://tools.usps.com/UspsToolsRestServices/rest/POLocator/findLocations", "@spider": "usps_collection_boxes", "addr:city": "RIVERSIDE", "addr:country": "US", "addr:postcode": "52327", "addr:state": "IA", "addr:street_address": "81 GREENE ST", "amenity": "post_box", "collection_times": "Mo-Fr 16:00; Sa 10:30", "indoor": "yes", "note": "ON 12/24 AND 12/31, THIS BOX MAY BE COLLECTED AS EARLY AS 12 NOON.", "nsi_id": "unitedstatespostalservice-a77078", "operator": "United States Postal Service", "operator:short": "USPS", "operator:type": "public", "operator:wikidata": "Q668687", "ref": "5232700001"}, "type": "Feature"}
{"geometry": {"coordinates": [-91.579993316, 41.480109], "type": "Point"}, "id": "Jm0FEGLCD2epGyy1eNu1bQ29_Ps=", "properties": {"@source_uri": "https://tools.usps.com/UspsToolsRestServices/rest/POLocator/findLocations", "@spider": "usps_collection_boxes", "addr:city": "RIVERSIDE", "addr:country": "US", "addr:postcode": "52327", "addr:state": "IA", "addr:street_address": "81 GREENE ST", "amenity": "post_box", "collection_times": "Mo-Fr 16:00; Sa 10:30", "indoor": "yes", "note": "ON 12/24 AND 12/31, THIS BOX MAY BE COLLECTED AS EARLY AS 12 NOON.", "nsi_id": "unitedstatespostalservice-a77078", "operator": "United States Postal Service", "operator:short": "USPS", "operator:type": "public", "operator:wikidata": "Q668687", "ref": "5232700002"}, "type": "Feature"}
{"geometry": {"coordinates": [-91.843573332, 42.369982479], "type": "Point"}, "id": "fE-un7vswIabpI2D9YHskUe6ri4=", "properties": {"@source_uri": "https://tools.usps.com/UspsToolsRestServices/rest/POLocator/findLocations", "@spider": "usps_collection_boxes", "addr:city": "ROWLEY", "addr:country": "US", "addr:postcode": "52329", "addr:state": "IA", "addr:street_address": "111 ELY ST", "amenity": "post_box", "collection_times": "Mo-Fr 15:45; Sa 15:00", "note": "ON 12/24 AND 12/31, THIS BOX MAY BE COLLECTED AS EARLY AS 12 NOON.", "nsi_id": "unitedstatespostalservice-a77078", "operator": "United States Postal Service", "operator:short": "USPS", "operator:type": "public", "operator:wikidata": "Q668687", "ref": "5232900000"}, "type": "Feature"}
{"geometry": {"coordinates": [-91.843573332, 42.369982479], "type": "Point"}, "id": "avvvoxK7y8Lw3H2Cauac-x852a4=", "properties": {"@source_uri": "https://tools.usps.com/UspsToolsRestServices/rest/POLocator/findLocations", "@spider": "usps_collection_boxes", "addr:city": "ROWLEY", "addr:country": "US", "addr:postcode": "52329", "addr:state": "IA", "addr:street_address": "111 ELY ST", "amenity": "post_box", "collection_times": "Mo-Fr 11:15", "indoor": "yes", "nsi_id": "unitedstatespostalservice-a77078", "operator": "United States Postal Service", "operator:short": "USPS", "operator:type": "public", "operator:wikidata": "Q668687", "ref": "5232900001"}, "type": "Feature"}
{"geometry": {"coordinates": [-91.843573332, 42.369982479], "type": "Point"}, "id": "uNAQHzH4xyawLHRNJdsmCqL0Vt4=", "properties": {"@source_uri": "https://tools.usps.com/UspsToolsRestServices/rest/POLocator/findLocations", "@spider": "usps_collection_boxes", "addr:city": "ROWLEY", "addr:country": "US", "addr:postcode": "52329", "addr:state": "IA", "addr:street_address": "111 ELY ST", "amenity": "post_box", "collection_times": "Mo-Fr 11:30; Sa 08:45", "indoor": "yes", "nsi_id": "unitedstatespostalservice-a77078", "operator": "United States Postal Service", "operator:short": "USPS", "operator:type": "public", "operator:wikidata": "Q668687", "ref": "5232900002"}, "type": "Feature"}
{"geometry": {"coordinates": [-91.481804277, 42.35135646], "type": "Point"}, "id": "kF2S-gYUXwxs7wXz_eV9stnS_Dk=", "properties": {"@source_uri": "https://tools.usps.com/UspsToolsRestServices/rest/POLocator/findLocations", "@spider": "usps_collection_boxes", "addr:city": "RYAN", "addr:country": "US", "addr:postcode": "52330", "addr:state": "IA", "addr:street_address": "202 MAIN ST", "amenity": "post_box", "collection_times": "Mo-Sa 16:15", "note": "ON 12/24 AND 12/31, THIS BOX MAY BE COLLECTED AS EARLY AS 12 NOON.", "nsi_id": "unitedstatespostalservice-a77078", "operator": "United States Postal Service", "operator:short": "USPS", "operator:type": "public", "operator:wikidata": "Q668687", "ref": "5233000000"}, "type": "Feature"}
{"geometry": {"coordinates": [-91.481804277, 42.35135646], "type": "Point"}, "id": "FqY0XZ52GCq0R5FSyP9c5cNnga0=", "properties": {"@source_uri": "https://tools.usps.com/UspsToolsRestServices/rest/POLocator/findLocations", "@spider": "usps_collection_boxes", "addr:city": "RYAN", "addr:country": "US", "addr:postcode": "52330", "addr:state": "IA", "addr:street_address": "202 MAIN ST", "amenity": "post_box", "collection_times": "Mo-Fr 11:00", "indoor": "yes", "nsi_id": "unitedstatespostalservice-a77078", "operator": "United States Postal Service", "operator:short": "USPS", "operator:type": "public", "operator:wikidata": "Q668687", "ref": "5233000001"}, "type": "Feature"}
{"geometry": {"coordinates": [-91.481804277, 42.35135646], "type": "Point"}, "id": "45CXqWGKr1gAnbSMj1auaRYloho=", "properties": {"@source_uri": "https://tools.usps.com/UspsToolsRestServices/rest/POLocator/findLocations", "@spider": "usps_collection_boxes", "addr:city": "RYAN", "addr:country": "US", "addr:postcode": "52330", "addr:state": "IA", "addr:street_address": "202 MAIN ST", "amenity": "post_box", "collection_times": "Mo-Fr 11:15; Sa 09:00", "indoor": "yes", "nsi_id": "unitedstatespostalservice-a77078", "operator": "United States Postal Service", "operator:short": "USPS", "operator:type": "public", "operator:wikidata": "Q668687", "ref": "5233000002"}, "type": "Feature"}
{"geometry": {"coordinates": [-91.869228048, 42.094403486], "type": "Point"}, "id": "oAx_oCbCj4ePEoNIuYp831L5RAo=", "properties": {"@source_uri": "https://tools.usps.com/UspsToolsRestServices/rest/POLocator/findLocations", "@spider": "usps_collection_boxes", "addr:city": "SHELLSBURG", "addr:country": "US", "addr:postcode": "52332", "addr:state": "IA", "addr:street_address": "103 PEARL ST SE", "amenity": "post_box", "collection_times": "Mo-Sa 16:00", "note": "ON 12/24 AND 12/31, THIS BOX MAY BE COLLECTED AS EARLY AS 12 NOON.", "nsi_id": "unitedstatespostalservice-a77078", "operator": "United States Postal Service", "operator:short": "USPS", "operator:type": "public", "operator:wikidata": "Q668687", "ref": "5233200000"}, "type": "Feature"}
{"geometry": {"coordinates": [-91.869228048, 42.094403486], "type": "Point"}, "id": "nKlgSvyV-LnvFaEFfd6V_0ZtJ54=", "properties": {"@source_uri": "https://tools.usps.com/UspsToolsRestServices/rest/POLocator/findLocations", "@spider": "usps_collection_boxes", "addr:city": "SHELLSBURG", "addr:country": "US", "addr:postcode": "52332", "addr:state": "IA", "addr:street_address": "103 PEARL ST SE", "amenity": "post_box", "collection_times": "Mo-Fr 16:00", "indoor": "yes", "note": "ON 12/24 AND 12/31, THIS BOX MAY BE COLLECTED AS EARLY AS 12 NOON.", "nsi_id": "unitedstatespostalservice-a77078", "operator": "United States Postal Service", "operator:short": "USPS", "operator:type": "public", "operator:wikidata": "Q668687", "ref": "5233200002"}, "type": "Feature"}
{"geometry": {"coordinates": [-91.869228048, 42.094403486], "type": "Point"}, "id": "shmFgIWDAXayhNG9F54DuA6nOck=", "properties": {"@source_uri": "https://tools.usps.com/UspsToolsRestServices/rest/POLocator/findLocations", "@spider": "usps_collection_boxes", "addr:city": "SHELLSBURG", "addr:country": "US", "addr:postcode": "52332", "addr:state": "IA", "addr:street_address": "103 PEARL ST SE", "amenity": "post_box", "collection_times": "Mo-Fr 16:00; Sa 09:30", "indoor": "yes", "note": "ON 12/24 AND 12/31, THIS BOX MAY BE COLLECTED AS EARLY AS 12 NOON.", "nsi_id": "unitedstatespostalservice-a77078", "operator": "United States Postal Service", "operator:short": "USPS", "operator:type": "public", "operator:wikidata": "Q668687", "ref": "5233200003"}, "type": "Feature"}
{"geometry": {"coordinates": [-91.4907332889, 41.7979407824], "type": "Point"}, "id": "V5qX35weCtqkvnI9M7tEO85Mz1Q=", "properties": {"@source_uri": "https://tools.usps.com/UspsToolsRestServices/rest/POLocator/findLocations", "@spider": "usps_collection_boxes", "addr:city": "SOLON", "addr:country": "US", "addr:postcode": "52333", "addr:state": "IA", "addr:street_address": "1100 S MARKET ST", "amenity": "post_box", "collection_times": "Mo-Fr 16:30; Sa 16:45", "note": "ON 12/24 AND 12/31, THIS BOX MAY BE COLLECTED AS EARLY AS 12 NOON.", "nsi_id": "unitedstatespostalservice-a77078", "operator": "United States Postal Service", "operator:short": "USPS", "operator:type": "public", "operator:wikidata": "Q668687", "ref": "5233300000"}, "type": "Feature"}
{"geometry": {"coordinates": [-91.490744164, 41.798042381], "type": "Point"}, "id": "s_i-jiBgIeKE_DBWwH2bMZNkJ-4=", "properties": {"@source_uri": "https://tools.usps.com/UspsToolsRestServices/rest/POLocator/findLocations", "@spider": "usps_collection_boxes", "addr:city": "SOLON", "addr:country": "US", "addr:postcode": "52333", "addr:state": "IA", "addr:street_address": "1100 S MARKET ST", "amenity": "post_box", "collection_times": "Mo-Fr 16:30; Sa 10:30", "indoor": "yes", "note": "ON 12/24 AND 12/31, THIS BOX MAY BE COLLECTED AS EARLY AS 12 NOON.", "nsi_id": "unitedstatespostalservice-a77078", "operator": "United States Postal Service", "operator:short": "USPS", "operator:type": "public", "operator:wikidata": "Q668687", "ref": "5233300001"}, "type": "Feature"}
{"geometry": {"coordinates": [-91.494611665, 41.807159488], "type": "Point"}, "id": "iqzCkZES015mTkTnwOKCmtYcvks=", "properties": {"@source_uri": "https://tools.usps.com/UspsToolsRestServices/rest/POLocator/findLocations", "@spider": "usps_collection_boxes", "addr:city": "SOLON", "addr:country": "US", "addr:postcode": "52333", "addr:state": "IA", "addr:street_address": "123 E MAIN ST", "amenity": "post_box", "collection_times": "Mo-Fr 12:00", "nsi_id": "unitedstatespostalservice-a77078", "operator": "United States Postal Service", "operator:short": "USPS", "operator:type": "public", "operator:wikidata": "Q668687", "ref": "5233300004"}, "type": "Feature"}
{"geometry": {"coordinates": [-91.490744164, 41.798042381], "type": "Point"}, "id": "1KT45Fw9AdCB6XpC5qbU453gIKg=", "properties": {"@source_uri": "https://tools.usps.com/UspsToolsRestServices/rest/POLocator/findLocations", "@spider": "usps_collection_boxes", "addr:city": "SOLON", "addr:country": "US", "addr:postcode": "52333", "addr:state": "IA", "addr:street_address": "1100 S MARKET ST", "amenity": "post_box", "collection_times": "Mo-Fr 16:30; Sa 10:30", "indoor": "yes", "note": "ON 12/24 AND 12/31, THIS BOX MAY BE COLLECTED AS EARLY AS 12 NOON.", "nsi_id": "unitedstatespostalservice-a77078", "operator": "United States Postal Service", "operator:short": "USPS", "operator:type": "public", "operator:wikidata": "Q668687", "ref": "5233300005"}, "type": "Feature"}
{"geometry": {"coordinates": [-91.96627663, 41.777334], "type": "Point"}, "id": "Yc35CSN7OJGYkgFbfKe4NQ0UXSk=", "properties": {"@source_uri": "https://tools.usps.com/UspsToolsRestServices/rest/POLocator/findLocations", "@spider": "usps_collection_boxes", "addr:city": "SOUTH AMANA", "addr:country": "US", "addr:postcode": "52334", "addr:state": "IA", "addr:street_address": "515 P ST", "amenity": "post_box", "collection_times": "Mo-Fr 15:45; Sa 15:15", "note": "ON 12/24 AND 12/31, THIS BOX MAY BE COLLECTED AS EARLY AS 12 NOON.", "nsi_id": "unitedstatespostalservice-a77078", "operator": "United States Postal Service", "operator:short": "USPS", "operator:type": "public", "operator:wikidata": "Q668687", "ref": "5233400000"}, "type": "Feature"}
{"geometry": {"coordinates": [-91.96627663, 41.777334], "type": "Point"}, "id": "jB54miGmU2K5TXlBa_D_G_bgBzU=", "properties": {"@source_uri": "https://tools.usps.com/UspsToolsRestServices/rest/POLocator/findLocations", "@spider": "usps_collection_boxes", "addr:city": "SOUTH AMANA", "addr:country": "US", "addr:postcode": "52334", "addr:state": "IA", "addr:street_address": "515 P ST", "amenity": "post_box", "collection_times": "Mo-Fr 15:45", "indoor": "yes", "note": "ON 12/24 AND 12/31, THIS BOX MAY BE COLLECTED AS EARLY AS 12 NOON.", "nsi_id": "unitedstatespostalservice-a77078", "operator": "United States Postal Service", "operator:short": "USPS", "operator:type": "public", "operator:wikidata": "Q668687", "ref": "5233400001"}, "type": "Feature"}
{"geometry": {"coordinates": [-91.96627663, 41.777334], "type": "Point"}, "id": "4pshZHsuBpypKepsMnPyJAumuV4=", "properties": {"@source_uri": "https://tools.usps.com/UspsToolsRestServices/rest/POLocator/findLocations", "@spider": "usps_collection_boxes", "addr:city": "SOUTH AMANA", "addr:country": "US", "addr:postcode": "52334", "addr:state": "IA", "addr:street_address": "515 P ST", "amenity": "post_box", "collection_times": "Mo-Fr 15:30; Sa 14:15", "indoor": "yes", "note": "ON 12/24 AND 12/31, THIS BOX MAY BE COLLECTED AS EARLY AS 12 NOON.", "nsi_id": "unitedstatespostalservice-a77078", "operator": "United States Postal Service", "operator:short": "USPS", "operator:type": "public", "operator:wikidata": "Q668687", "ref": "5233400002"}, "type": "Feature"}
{"geometry": {"coordinates": [-92.090492026, 41.452011547], "type": "Point"}, "id": "u_z0mE0xkvxjsXpey3i00wUAWeA=", "properties": {"@source_uri": "https://tools.usps.com/UspsToolsRestServices/rest/POLocator/findLocations", "@spider": "usps_collection_boxes", "addr:city": "SOUTH ENGLISH", "addr:country": "US", "addr:postcode": "52335", "addr:state": "IA", "addr:street_address": "210 IVES ST", "amenity": "post_box", "collection_times": "Mo-Sa 16:00", "note": "ON 12/24 AND 12/31, THIS BOX MAY BE COLLECTED AS EARLY AS 12 NOON.", "nsi_id": "unitedstatespostalservice-a77078", "operator": "United States Postal Service", "operator:short": "USPS", "operator:type": "public", "operator:wikidata": "Q668687", "ref": "5233500000"}, "type": "Feature"}
{"geometry": {"coordinates": [-92.090492026, 41.452011547], "type": "Point"}, "id": "Uwe5-nBb238cE2jWD7rOc44ooYs=", "properties": {"@source_uri": "https://tools.usps.com/UspsToolsRestServices/rest/POLocator/findLocations", "@spider": "usps_collection_boxes", "addr:city": "SOUTH ENGLISH", "addr:country": "US", "addr:postcode": "52335", "addr:state": "IA", "addr:street_address": "210 IVES ST", "amenity": "post_box", "collection_times": "Mo-Fr 10:45", "indoor": "yes", "nsi_id": "unitedstatespostalservice-a77078", "operator": "United States Postal Service", "operator:short": "USPS", "operator:type": "public", "operator:wikidata": "Q668687", "ref": "5233500001"}, "type": "Feature"}
{"geometry": {"coordinates": [-92.090492026, 41.452011547], "type": "Point"}, "id": "RxEXgO6ImsLx1_9BVhMX0eJnAM0=", "properties": {"@source_uri": "https://tools.usps.com/UspsToolsRestServices/rest/POLocator/findLocations", "@spider": "usps_collection_boxes", "addr:city": "SOUTH ENGLISH", "addr:country": "US", "addr:postcode": "52335", "addr:state": "IA", "addr:street_address": "210 IVES ST", "amenity": "post_box", "collection_times": "Mo-Fr 11:00; Sa 08:15", "indoor": "yes", "nsi_id": "unitedstatespostalservice-a77078", "operator": "United States Postal Service", "operator:short": "USPS", "operator:type": "public", "operator:wikidata": "Q668687", "ref": "5233500002"}, "type": "Feature"}
{"geometry": {"coordinates": [-91.443405539, 42.059808838], "type": "Point"}, "id": "AtPYYrKcEhEEnJAXtOYYXPK-3cA=", "properties": {"@source_uri": "https://tools.usps.com/UspsToolsRestServices/rest/POLocator/findLocations", "@spider": "usps_collection_boxes", "addr:city": "SPRINGVILLE", "addr:country": "US", "addr:postcode": "52336", "addr:state": "IA", "addr:street_address": "262 BROADWAY ST", "amenity": "post_box", "collection_times": "Mo-Fr 17:15; Sa 16:00", "note": "ON 12/24 AND 12/31, THIS BOX MAY BE COLLECTED AS EARLY AS 12 NOON.", "nsi_id": "unitedstatespostalservice-a77078", "operator": "United States Postal Service", "operator:short": "USPS", "operator:type": "public", "operator:wikidata": "Q668687", "ref": "5233600002"}, "type": "Feature"}
{"geometry": {"coordinates": [-91.443405539, 42.059808838], "type": "Point"}, "id": "iLGAdHJiBl_PoZ3ZtJ6HXGXyO8I=", "properties": {"@source_uri": "https://tools.usps.com/UspsToolsRestServices/rest/POLocator/findLocations", "@spider": "usps_collection_boxes", "addr:city": "SPRINGVILLE", "addr:country": "US", "addr:postcode": "52336", "addr:state": "IA", "addr:street_address": "262 BROADWAY ST", "amenity": "post_box", "collection_times": "Mo-Fr 17:15", "indoor": "yes", "note": "ON 12/24 AND 12/31, THIS BOX MAY BE COLLECTED AS EARLY AS 12 NOON.", "nsi_id": "unitedstatespostalservice-a77078", "operator": "United States Postal Service", "operator:short": "USPS", "operator:type": "public", "operator:wikidata": "Q668687", "ref": "5233600003"}, "type": "Feature"}
{"geometry": {"coordinates": [-91.443405539, 42.059808838], "type": "Point"}, "id": "-H1ogi5JGN2bHgC6XLMoZKUB3tw=", "properties": {"@source_uri": "https://tools.usps.com/UspsToolsRestServices/rest/POLocator/findLocations", "@spider": "usps_collection_boxes", "addr:city": "SPRINGVILLE", "addr:country": "US", "addr:postcode": "52336", "addr:state": "IA", "addr:street_address": "262 BROADWAY ST", "amenity": "post_box", "collection_times": "Mo-Fr 17:30; Sa 11:00", "indoor": "yes", "note": "ON 12/24 AND 12/31, THIS BOX MAY BE COLLECTED AS EARLY AS 12 NOON.", "nsi_id": "unitedstatespostalservice-a77078", "operator": "United States Postal Service", "operator:short": "USPS", "operator:type": "public", "operator:wikidata": "Q668687", "ref": "5233600004"}, "type": "Feature"}
{"geometry": {"coordinates": [-91.150392945, 41.892865479], "type": "Point"}, "id": "xhtMR6zHCS8woBz1u7JZgzagWww=", "properties": {"@source_uri": "https://tools.usps.com/UspsToolsRestServices/rest/POLocator/findLocations", "@spider": "usps_collection_boxes", "addr:city": "STANWOOD", "addr:country": "US", "addr:postcode": "52337", "addr:state": "IA", "addr:street_address": "206 E BROADWAY ST", "amenity": "post_box", "collection_times": "Mo-Sa 16:00", "note": "ON 12/24 AND 12/31, THIS BOX MAY BE COLLECTED AS EARLY AS 12 NOON.", "nsi_id": "unitedstatespostalservice-a77078", "operator": "United States Postal Service", "operator:short": "USPS", "operator:type": "public", "operator:wikidata": "Q668687", "ref": "5233700000"}, "type": "Feature"}
{"geometry": {"coordinates": [-91.150392945, 41.892865479], "type": "Point"}, "id": "0quhvtbLFapdhKJpYPGdkMd27co=", "properties": {"@source_uri": "https://tools.usps.com/UspsToolsRestServices/rest/POLocator/findLocations", "@spider": "usps_collection_boxes", "addr:city": "STANWOOD", "addr:country": "US", "addr:postcode": "52337", "addr:state": "IA", "addr:street_address": "206 E BROADWAY ST", "amenity": "post_box", "collection_times": "Mo-Fr 11:45", "indoor": "yes", "nsi_id": "unitedstatespostalservice-a77078", "operator": "United States Postal Service", "operator:short": "USPS", "operator:type": "public", "operator:wikidata": "Q668687", "ref": "5233700001"}, "type": "Feature"}
{"geometry": {"coordinates": [-91.150392945, 41.892865479], "type": "Point"}, "id": "9tr5PytekLvjtmBsUnksti5RLIo=", "properties": {"@source_uri": "https://tools.usps.com/UspsToolsRestServices/rest/POLocator/findLocations", "@spider": "usps_collection_boxes", "addr:city": "STANWOOD", "addr:country": "US", "addr:postcode": "52337", "addr:state": "IA", "addr:street_address": "206 E BROADWAY ST", "amenity": "post_box", "collection_times": "Mo-Fr 12:00; Sa 08:45", "indoor": "yes", "nsi_id": "unitedstatespostalservice-a77078", "operator": "United States Postal Service", "operator:short": "USPS", "operator:type": "public", "operator:wikidata": "Q668687", "ref": "5233700002"}, "type": "Feature"}
{"geometry": {"coordinates": [-91.700612026, 41.847498506], "type": "Point"}, "id": "eKJK8liWc0PfKTx4EJlvEfz1f78=", "properties": {"@source_uri": "https://tools.usps.com/UspsToolsRestServices/rest/POLocator/findLocations", "@spider": "usps_collection_boxes", "addr:city": "SWISHER", "addr:country": "US", "addr:postcode": "52338", "addr:state": "IA", "addr:street_address": "401 DIVISION ST SW", "amenity": "post_box", "collection_times": "Mo-Fr 16:00; Sa 16:30", "note": "ON 12/24 AND 12/31, THIS BOX MAY BE COLLECTED AS EARLY AS 12 NOON.", "nsi_id": "unitedstatespostalservice-a77078", "operator": "United States Postal Service", "operator:short": "USPS", "operator:type": "public", "operator:wikidata": "Q668687", "ref": "5233800000"}, "type": "Feature"}
{"geometry": {"coordinates": [-91.700612026, 41.847498506], "type": "Point"}, "id": "9XsI8x01HD87Brw3_h2emthVhfY=", "properties": {"@source_uri": "https://tools.usps.com/UspsToolsRestServices/rest/POLocator/findLocations", "@spider": "usps_collection_boxes", "addr:city": "SWISHER", "addr:country": "US", "addr:postcode": "52338", "addr:state": "IA", "addr:street_address": "401 DIVISION ST SW", "amenity": "post_box", "collection_times": "Mo-Fr 16:00; Sa 10:45", "indoor": "yes", "note": "ON 12/24 AND 12/31, THIS BOX MAY BE COLLECTED AS EARLY AS 12 NOON.", "nsi_id": "unitedstatespostalservice-a77078", "operator": "United States Postal Service", "operator:short": "USPS", "operator:type": "public", "operator:wikidata": "Q668687", "ref": "5233800001"}, "type": "Feature"}
{"geometry": {"coordinates": [-91.663023526, 41.847876539], "type": "Point"}, "id": "cFO8ensobeTnDQ_QxXYis1Aizlk=", "properties": {"@source_uri": "https://tools.usps.com/UspsToolsRestServices/rest/POLocator/findLocations", "@spider": "usps_collection_boxes", "addr:city": "SWISHER", "addr:country": "US", "addr:postcode": "52338", "addr:state": "IA", "addr:street_address": "2721 120TH ST NE", "amenity": "post_box", "collection_times": "Mo-Sa 11:00", "nsi_id": "unitedstatespostalservice-a77078", "operator": "United States Postal Service", "operator:short": "USPS", "operator:type": "public", "operator:wikidata": "Q668687", "ref": "5233800002"}, "type": "Feature"}
{"geometry": {"coordinates": [-91.700612026, 41.847498506], "type": "Point"}, "id": "53FKZzJ30BumrNeoOR6VngcI-xs=", "properties": {"@source_uri": "https://tools.usps.com/UspsToolsRestServices/rest/POLocator/findLocations", "@spider": "usps_collection_boxes", "addr:city": "SWISHER", "addr:country": "US", "addr:postcode": "52338", "addr:state": "IA", "addr:street_address": "401 DIVISION ST SW", "amenity": "post_box", "collection_times": "Mo-Fr 16:00; Sa 10:45", "indoor": "yes", "note": "ON 12/24 AND 12/31, THIS BOX MAY BE COLLECTED AS EARLY AS 12 NOON.", "nsi_id": "unitedstatespostalservice-a77078", "operator": "United States Postal Service", "operator:short": "USPS", "operator:type": "public", "operator:wikidata": "Q668687", "ref": "5233800003"}, "type": "Feature"}
{"geometry": {"coordinates": [-92.57682452, 41.962959], "type": "Point"}, "id": "ipn_c3CpZFHbVlyVFos4rqmGGVA=", "properties": {"@source_uri": "https://tools.usps.com/UspsToolsRestServices/rest/POLocator/findLocations", "@spider": "usps_collection_boxes", "addr:city": "TAMA", "addr:country": "US", "addr:postcode": "52339", "addr:state": "IA", "addr:street_address": "412 STATE ST", "amenity": "post_box", "collection_times": "Mo-Sa 16:30", "note": "ON 12/24 AND 12/31, THIS BOX MAY BE COLLECTED AS EARLY AS 12 NOON.", "nsi_id": "unitedstatespostalservice-a77078", "operator": "United States Postal Service", "operator:short": "USPS", "operator:type": "public", "operator:wikidata": "Q668687", "ref": "5233900004"}, "type": "Feature"}
{"geometry": {"coordinates": [-92.57682452, 41.962959], "type": "Point"}, "id": "7BP_hIE3UkNAtjMOkSYx_de5_8A=", "properties": {"@source_uri": "https://tools.usps.com/UspsToolsRestServices/rest/POLocator/findLocations", "@spider": "usps_collection_boxes", "addr:city": "TAMA", "addr:country": "US", "addr:postcode": "52339", "addr:state": "IA", "addr:street_address": "412 STATE ST", "amenity": "post_box", "collection_times": "Mo-Fr 16:30", "indoor": "yes", "note": "ON 12/24 AND 12/31, THIS BOX MAY BE COLLECTED AS EARLY AS 12 NOON.", "nsi_id": "unitedstatespostalservice-a77078", "operator": "United States Postal Service", "operator:short": "USPS", "operator:type": "public", "operator:wikidata": "Q668687", "ref": "5233900005"}, "type": "Feature"}
{"geometry": {"coordinates": [-92.57682452, 41.962959], "type": "Point"}, "id": "TWbuLmWIQ9ksrjddj3IGlRkevms=", "properties": {"@source_uri": "https://tools.usps.com/UspsToolsRestServices/rest/POLocator/findLocations", "@spider": "usps_collection_boxes", "addr:city": "TAMA", "addr:country": "US", "addr:postcode": "52339", "addr:state": "IA", "addr:street_address": "412 STATE ST", "amenity": "post_box", "collection_times": "Mo-Fr 16:30", "indoor": "yes", "note": "ON 12/24 AND 12/31, THIS BOX MAY BE COLLECTED AS EARLY AS 12 NOON.", "nsi_id": "unitedstatespostalservice-a77078", "operator": "United States Postal Service", "operator:short": "USPS", "operator:type": "public", "operator:wikidata": "Q668687", "ref": "5233900006"}, "type": "Feature"}
{"geometry": {"coordinates": [-91.659771273, 41.707656428], "type": "Point"}, "id": "gNSGYO5NeGCNCuyeuEjpHUEqDdU=", "properties": {"@source_uri": "https://tools.usps.com/UspsToolsRestServices/rest/POLocator/findLocations", "@spider": "usps_collection_boxes", "addr:city": "TIFFIN", "addr:country": "US", "addr:postcode": "52340", "addr:state": "IA", "addr:street_address": "484 STATE ST", "amenity": "post_box", "collection_times": "Mo-Sa 16:00", "note": "ON 12/24 AND 12/31, THIS BOX MAY BE COLLECTED AS EARLY AS 12 NOON.", "nsi_id": "unitedstatespostalservice-a77078", "operator": "United States Postal Service", "operator:short": "USPS", "operator:type": "public", "operator:wikidata": "Q668687", "ref": "5234000000"}, "type": "Feature"}
{"geometry": {"coordinates": [-91.659771273, 41.707656428], "type": "Point"}, "id": "egMZN8mmW8C23YJOxQ1Wp6II19g=", "properties": {"@source_uri": "https://tools.usps.com/UspsToolsRestServices/rest/POLocator/findLocations", "@spider": "usps_collection_boxes", "addr:city": "TIFFIN", "addr:country": "US", "addr:postcode": "52340", "addr:state": "IA", "addr:street_address": "484 STATE ST", "amenity": "post_box", "collection_times": "Mo-Fr 16:00; Sa 09:30", "indoor": "yes", "note": "ON 12/24 AND 12/31, THIS BOX MAY BE COLLECTED AS EARLY AS 12 NOON.", "nsi_id": "unitedstatespostalservice-a77078", "operator": "United States Postal Service", "operator:short": "USPS", "operator:type": "public", "operator:wikidata": "Q668687", "ref": "5234000001"}, "type": "Feature"}
{"geometry": {"coordinates": [-91.659771273, 41.707656428], "type": "Point"}, "id": "NLjSRKc6y2h7lxBZWCb7FYtp4z8=", "properties": {"@source_uri": "https://tools.usps.com/UspsToolsRestServices/rest/POLocator/findLocations", "@spider": "usps_collection_boxes", "addr:city": "TIFFIN", "addr:country": "US", "addr:postcode": "52340", "addr:state": "IA", "addr:street_address": "484 STATE ST", "amenity": "post_box", "collection_times": "Mo-Fr 16:00; Sa 10:00", "indoor": "yes", "note": "ON 12/24 AND 12/31, THIS BOX MAY BE COLLECTED AS EARLY AS 12 NOON.", "nsi_id": "unitedstatespostalservice-a77078", "operator": "United States Postal Service", "operator:short": "USPS", "operator:type": "public", "operator:wikidata": "Q668687", "ref": "5234000002"}, "type": "Feature"}
{"geometry": {"coordinates": [-92.580170032, 41.99587999], "type": "Point"}, "id": "xTrLvNKtUgT7EKYNwlBDi-QB2Zg=", "properties": {"@source_uri": "https://tools.usps.com/UspsToolsRestServices/rest/POLocator/findLocations", "@spider": "usps_collection_boxes", "addr:city": "TOLEDO", "addr:country": "US", "addr:postcode": "52342", "addr:state": "IA", "addr:street_address": "200 W HIGH ST", "amenity": "post_box", "collection_times": "Mo-Sa 16:00", "note": "ON 12/24 AND 12/31, THIS BOX MAY BE COLLECTED AS EARLY AS 12 NOON.", "nsi_id": "unitedstatespostalservice-a77078", "operator": "United States Postal Service", "operator:short": "USPS", "operator:type": "public", "operator:wikidata": "Q668687", "ref": "5234200007"}, "type": "Feature"}
{"geometry": {"coordinates": [-92.580170032, 41.99587999], "type": "Point"}, "id": "iNbcMh9Md8ZhpWY3rx6BNjpfTe0=", "properties": {"@source_uri": "https://tools.usps.com/UspsToolsRestServices/rest/POLocator/findLocations", "@spider": "usps_collection_boxes", "addr:city": "TOLEDO", "addr:country": "US", "addr:postcode": "52342", "addr:state": "IA", "addr:street_address": "200 W HIGH ST", "amenity": "post_box", "collection_times": "Mo-Fr 16:00; Sa 09:30", "indoor": "yes", "note": "ON 12/24 AND 12/31, THIS BOX MAY BE COLLECTED AS EARLY AS 12 NOON.", "nsi_id": "unitedstatespostalservice-a77078", "operator": "United States Postal Service", "operator:short": "USPS", "operator:type": "public", "operator:wikidata": "Q668687", "ref": "5234200008"}, "type": "Feature"}
{"geometry": {"coordinates": [-92.580170032, 41.99587999], "type": "Point"}, "id": "7CHZ4RC1S55teEsEUXfj5oMJ320=", "properties": {"@source_uri": "https://tools.usps.com/UspsToolsRestServices/rest/POLocator/findLocations", "@spider": "usps_collection_boxes", "addr:city": "TOLEDO", "addr:country": "US", "addr:postcode": "52342", "addr:state": "IA", "addr:street_address": "200 W HIGH ST", "amenity": "post_box", "collection_times": "Mo-Fr 16:30", "indoor": "yes", "note": "ON 12/24 AND 12/31, THIS BOX MAY BE COLLECTED AS EARLY AS 12 NOON.", "nsi_id": "unitedstatespostalservice-a77078", "operator": "United States Postal Service", "operator:short": "USPS", "operator:type": "public", "operator:wikidata": "Q668687", "ref": "5234200009"}, "type": "Feature"}
{"geometry": {"coordinates": [-91.6825159, 42.291260948], "type": "Point"}, "id": "USuNEfx8J90-cvfQYSGrmOxPQCA=", "properties": {"@source_uri": "https://tools.usps.com/UspsToolsRestServices/rest/POLocator/findLocations", "@spider": "usps_collection_boxes", "addr:city": "TROY MILLS", "addr:country": "US", "addr:postcode": "52344", "addr:state": "IA", "addr:street_address": "5923 MAIN ST", "amenity": "post_box", "collection_times": "Mo-Fr 09:45; Sa 09:00", "nsi_id": "unitedstatespostalservice-a77078", "operator": "United States Postal Service", "operator:short": "USPS", "operator:type": "public", "operator:wikidata": "Q668687", "ref": "5234400000"}, "type": "Feature"}
{"geometry": {"coordinates": [-91.6825159, 42.291260948], "type": "Point"}, "id": "XiE8Gwzxhb7B1beI2yvVo0UkPw4=", "properties": {"@source_uri": "https://tools.usps.com/UspsToolsRestServices/rest/POLocator/findLocations", "@spider": "usps_collection_boxes", "addr:city": "TROY MILLS", "addr:country": "US", "addr:postcode": "52344", "addr:state": "IA", "addr:street_address": "5923 MAIN ST", "amenity": "post_box", "collection_times": "Mo-Fr 09:45", "indoor": "yes", "nsi_id": "unitedstatespostalservice-a77078", "operator": "United States Postal Service", "operator:short": "USPS", "operator:type": "public", "operator:wikidata": "Q668687", "ref": "5234400001"}, "type": "Feature"}
{"geometry": {"coordinates": [-91.6825159, 42.291260948], "type": "Point"}, "id": "Q4Q7h6cRE4J3ltJkN9WyTbJeVmU=", "properties": {"@source_uri": "https://tools.usps.com/UspsToolsRestServices/rest/POLocator/findLocations", "@spider": "usps_collection_boxes", "addr:city": "TROY MILLS", "addr:country": "US", "addr:postcode": "52344", "addr:state": "IA", "addr:street_address": "5923 MAIN ST", "amenity": "post_box", "collection_times": "Mo-Sa 10:15", "indoor": "yes", "nsi_id": "unitedstatespostalservice-a77078", "operator": "United States Postal Service", "operator:short": "USPS", "operator:type": "public", "operator:wikidata": "Q668687", "ref": "5234400002"}, "type": "Feature"}
{"geometry": {"coordinates": [-91.874911028, 42.223986512], "type": "Point"}, "id": "jggY-NpwVK29oWTumjXuTewr34M=", "properties": {"@source_uri": "https://tools.usps.com/UspsToolsRestServices/rest/POLocator/findLocations", "@spider": "usps_collection_boxes", "addr:city": "URBANA", "addr:country": "US", "addr:postcode": "52345", "addr:state": "IA", "addr:street_address": "304 W WOOD ST", "amenity": "post_box", "collection_times": "Mo-Fr 16:30; Sa 15:00", "note": "ON 12/24 AND 12/31, THIS BOX MAY BE COLLECTED AS EARLY AS 12 NOON.", "nsi_id": "unitedstatespostalservice-a77078", "operator": "United States Postal Service", "operator:short": "USPS", "operator:type": "public", "operator:wikidata": "Q668687", "ref": "5234500000"}, "type": "Feature"}
{"geometry": {"coordinates": [-91.874911028, 42.223986512], "type": "Point"}, "id": "oIjFBKvHe8qzd1WBRQhODWf_RYE=", "properties": {"@source_uri": "https://tools.usps.com/UspsToolsRestServices/rest/POLocator/findLocations", "@spider": "usps_collection_boxes", "addr:city": "URBANA", "addr:country": "US", "addr:postcode": "52345", "addr:state": "IA", "addr:street_address": "304 W WOOD ST", "amenity": "post_box", "collection_times": "Mo-Fr 16:00", "indoor": "yes", "note": "ON 12/24 AND 12/31, THIS BOX MAY BE COLLECTED AS EARLY AS 12 NOON.", "nsi_id": "unitedstatespostalservice-a77078", "operator": "United States Postal Service", "operator:short": "USPS", "operator:type": "public", "operator:wikidata": "Q668687", "ref": "5234500001"}, "type": "Feature"}
{"geometry": {"coordinates": [-91.874911028, 42.223986512], "type": "Point"}, "id": "rL49LZq2VAfKTiiPUKv3howVoZU=", "properties": {"@source_uri": "https://tools.usps.com/UspsToolsRestServices/rest/POLocator/findLocations", "@spider": "usps_collection_boxes", "addr:city": "URBANA", "addr:country": "US", "addr:postcode": "52345", "addr:state": "IA", "addr:street_address": "304 W WOOD ST", "amenity": "post_box", "collection_times": "Mo-Fr 16:15; Sa 09:30", "indoor": "yes", "note": "ON 12/24 AND 12/31, THIS BOX MAY BE COLLECTED AS EARLY AS 12 NOON.", "nsi_id": "unitedstatespostalservice-a77078", "operator": "United States Postal Service", "operator:short": "USPS", "operator:type": "public", "operator:wikidata": "Q668687", "ref": "5234500002"}, "type": "Feature"}
{"geometry": {"coordinates": [-92.091180513, 42.008202], "type": "Point"}, "id": "_ACN1h1NoG6E3iVSfY3nBAlfSWE=", "properties": {"@source_uri": "https://tools.usps.com/UspsToolsRestServices/rest/POLocator/findLocations", "@spider": "usps_collection_boxes", "addr:city": "VAN HORNE", "addr:country": "US", "addr:postcode": "52346", "addr:state": "IA", "addr:street_address": "118 MAIN ST", "amenity": "post_box", "collection_times": "Mo-Fr 16:15; Sa 16:00", "note": "ON 12/24 AND 12/31, THIS BOX MAY BE COLLECTED AS EARLY AS 12 NOON.", "nsi_id": "unitedstatespostalservice-a77078", "operator": "United States Postal Service", "operator:short": "USPS", "operator:type": "public", "operator:wikidata": "Q668687", "ref": "5234600000"}, "type": "Feature"}
{"geometry": {"coordinates": [-92.091180513, 42.008202], "type": "Point"}, "id": "gSVTXyt5-TNimfc8Om_Z0XjBpwU=", "properties": {"@source_uri": "https://tools.usps.com/UspsToolsRestServices/rest/POLocator/findLocations", "@spider": "usps_collection_boxes", "addr:city": "VAN HORNE", "addr:country": "US", "addr:postcode": "52346", "addr:state": "IA", "addr:street_address": "118 MAIN ST", "amenity": "post_box", "collection_times": "Mo-Fr 14:45", "indoor": "yes", "note": "ON 12/24 AND 12/31, THIS BOX MAY BE COLLECTED AS EARLY AS 12 NOON.", "nsi_id": "unitedstatespostalservice-a77078", "operator": "United States Postal Service", "operator:short": "USPS", "operator:type": "public", "operator:wikidata": "Q668687", "ref": "5234600001"}, "type": "Feature"}
{"geometry": {"coordinates": [-92.091180513, 42.008202], "type": "Point"}, "id": "CIy_59oXJUf44952M9TwDGnLoHA=", "properties": {"@source_uri": "https://tools.usps.com/UspsToolsRestServices/rest/POLocator/findLocations", "@spider": "usps_collection_boxes", "addr:city": "VAN HORNE", "addr:country": "US", "addr:postcode": "52346", "addr:state": "IA", "addr:street_address": "118 MAIN ST", "amenity": "post_box", "collection_times": "Mo-Fr 15:00; Sa 08:15", "indoor": "yes", "note": "ON 12/24 AND 12/31, THIS BOX MAY BE COLLECTED AS EARLY AS 12 NOON.", "nsi_id": "unitedstatespostalservice-a77078", "operator": "United States Postal Service", "operator:short": "USPS", "operator:type": "public", "operator:wikidata": "Q668687", "ref": "5234600003"}, "type": "Feature"}
{"geometry": {"coordinates": [-92.297886686, 41.731843788], "type": "Point"}, "id": "feghpqt_1KKuhwjFX71muAI-4ZU=", "properties": {"@source_uri": "https://tools.usps.com/UspsToolsRestServices/rest/POLocator/findLocations", "@spider": "usps_collection_boxes", "addr:city": "VICTOR", "addr:country": "US", "addr:postcode": "52347", "addr:state": "IA", "addr:street_address": "108 WASHINGTON ST", "amenity": "post_box", "collection_times": "Mo-Fr 16:30; Sa 15:30", "note": "ON 12/24 AND 12/31, THIS BOX MAY BE COLLECTED AS EARLY AS 12 NOON.", "nsi_id": "unitedstatespostalservice-a77078", "operator": "United States Postal Service", "operator:short": "USPS", "operator:type": "public", "operator:wikidata": "Q668687", "ref": "5234700000"}, "type": "Feature"}
{"geometry": {"coordinates": [-92.297886686, 41.731843788], "type": "Point"}, "id": "DxOsa9xIYLdlHsZjX3W_r3eLNcA=", "properties": {"@source_uri": "https://tools.usps.com/UspsToolsRestServices/rest/POLocator/findLocations", "@spider": "usps_collection_boxes", "addr:city": "VICTOR", "addr:country": "US", "addr:postcode": "52347", "addr:state": "IA", "addr:street_address": "108 WASHINGTON ST", "amenity": "post_box", "collection_times": "Mo-Fr 16:30", "indoor": "yes", "note": "ON 12/24 AND 12/31, THIS BOX MAY BE COLLECTED AS EARLY AS 12 NOON.", "nsi_id": "unitedstatespostalservice-a77078", "operator": "United States Postal Service", "operator:short": "USPS", "operator:type": "public", "operator:wikidata": "Q668687", "ref": "5234700001"}, "type": "Feature"}
{"geometry": {"coordinates": [-92.297886686, 41.731843788], "type": "Point"}, "id": "ObE_Movv5VAwOuTfGrC3GiOtYwc=", "properties": {"@source_uri": "https://tools.usps.com/UspsToolsRestServices/rest/POLocator/findLocations", "@spider": "usps_collection_boxes", "addr:city": "VICTOR", "addr:country": "US", "addr:postcode": "52347", "addr:state": "IA", "addr:street_address": "108 WASHINGTON ST", "amenity": "post_box", "collection_times": "Mo-Fr 16:30; Sa 10:30", "indoor": "yes", "note": "ON 12/24 AND 12/31, THIS BOX MAY BE COLLECTED AS EARLY AS 12 NOON.", "nsi_id": "unitedstatespostalservice-a77078", "operator": "United States Postal Service", "operator:short": "USPS", "operator:type": "public", "operator:wikidata": "Q668687", "ref": "5234700002"}, "type": "Feature"}
{"geometry": {"coordinates": [-92.383840318, 41.989695123], "type": "Point"}, "id": "p7l_XB-6NE0J2R_gEKcRXqb-Sh4=", "properties": {"@source_uri": "https://tools.usps.com/UspsToolsRestServices/rest/POLocator/findLocations", "@spider": "usps_collection_boxes", "addr:city": "VINING", "addr:country": "US", "addr:postcode": "52348", "addr:state": "IA", "addr:street_address": "306 1ST ST", "amenity": "post_box", "collection_times": "Mo-Fr 15:15; Sa 15:30", "note": "ON 12/24 AND 12/31, THIS BOX MAY BE COLLECTED AS EARLY AS 12 NOON.", "nsi_id": "unitedstatespostalservice-a77078", "operator": "United States Postal Service", "operator:short": "USPS", "operator:type": "public", "operator:wikidata": "Q668687", "ref": "5234800000"}, "type": "Feature"}
{"geometry": {"coordinates": [-92.383840318, 41.989695123], "type": "Point"}, "id": "d2liiRCT5C1tYXanrMRVie3bGLs=", "properties": {"@source_uri": "https://tools.usps.com/UspsToolsRestServices/rest/POLocator/findLocations", "@spider": "usps_collection_boxes", "addr:city": "VINING", "addr:country": "US", "addr:postcode": "52348", "addr:state": "IA", "addr:street_address": "306 1ST ST", "amenity": "post_box", "collection_times": "Mo-Fr 09:45; Sa 09:15", "indoor": "yes", "nsi_id": "unitedstatespostalservice-a77078", "operator": "United States Postal Service", "operator:short": "USPS", "operator:type": "public", "operator:wikidata": "Q668687", "ref": "5234800001"}, "type": "Feature"}
{"geometry": {"coordinates": [-92.383840318, 41.989695123], "type": "Point"}, "id": "8LcwBKvRGsCECgSASkBch7TuTeM=", "properties": {"@source_uri": "https://tools.usps.com/UspsToolsRestServices/rest/POLocator/findLocations", "@spider": "usps_collection_boxes", "addr:city": "VINING", "addr:country": "US", "addr:postcode": "52348", "addr:state": "IA", "addr:street_address": "306 1ST ST", "amenity": "post_box", "collection_times": "Mo-Fr 10:00; Sa 09:30", "indoor": "yes", "nsi_id": "unitedstatespostalservice-a77078", "operator": "United States Postal Service", "operator:short": "USPS", "operator:type": "public", "operator:wikidata": "Q668687", "ref": "5234800002"}, "type": "Feature"}
{"geometry": {"coordinates": [-92.024295918, 42.165972555], "type": "Point"}, "id": "ztPirRKYq5zXMNd3lpWbIV8kYys=", "properties": {"@source_uri": "https://tools.usps.com/UspsToolsRestServices/rest/POLocator/findLocations", "@spider": "usps_collection_boxes", "addr:city": "VINTON", "addr:country": "US", "addr:postcode": "52349", "addr:state": "IA", "addr:street_address": "516 1ST AVE", "amenity": "post_box", "collection_times": "Mo-Fr 17:00; Sa 16:00", "note": "ON 12/24 AND 12/31, THIS BOX MAY BE COLLECTED AS EARLY AS 12 NOON.", "nsi_id": "unitedstatespostalservice-a77078", "operator": "United States Postal Service", "operator:short": "USPS", "operator:type": "public", "operator:wikidata": "Q668687", "ref": "5234900000"}, "type": "Feature"}
{"geometry": {"coordinates": [-92.024295918, 42.165972555], "type": "Point"}, "id": "gpom3xyZWmX7i5DwlxzncLQvEbo=", "properties": {"@source_uri": "https://tools.usps.com/UspsToolsRestServices/rest/POLocator/findLocations", "@spider": "usps_collection_boxes", "addr:city": "VINTON", "addr:country": "US", "addr:postcode": "52349", "addr:state": "IA", "addr:street_address": "516 1ST AVE", "amenity": "post_box", "collection_times": "Mo-Fr 17:00; Sa 16:00", "note": "ON 12/24 AND 12/31, THIS BOX MAY BE COLLECTED AS EARLY AS 12 NOON.", "nsi_id": "unitedstatespostalservice-a77078", "operator": "United States Postal Service", "operator:short": "USPS", "operator:type": "public", "operator:wikidata": "Q668687", "ref": "5234900016"}, "type": "Feature"}
{"geometry": {"coordinates": [-92.024295918, 42.165972555], "type": "Point"}, "id": "kTDS-zZGvTdBRPY18tM-8V1YM-w=", "properties": {"@source_uri": "https://tools.usps.com/UspsToolsRestServices/rest/POLocator/findLocations", "@spider": "usps_collection_boxes", "addr:city": "VINTON", "addr:country": "US", "addr:postcode": "52349", "addr:state": "IA", "addr:street_address": "516 1ST AVE", "amenity": "post_box", "collection_times": "Mo-Fr 17:00; Sa 16:00", "indoor": "yes", "note": "ON 12/24 AND 12/31, THIS BOX MAY BE COLLECTED AS EARLY AS 12 NOON.", "nsi_id": "unitedstatespostalservice-a77078", "operator": "United States Postal Service", "operator:short": "USPS", "operator:type": "public", "operator:wikidata": "Q668687", "ref": "5234900018"}, "type": "Feature"}
{"geometry": {"coordinates": [-92.024295918, 42.165972555], "type": "Point"}, "id": "xzfroK9-n0oQ6tOVWJuyujq8TD4=", "properties": {"@source_uri": "https://tools.usps.com/UspsToolsRestServices/rest/POLocator/findLocations", "@spider": "usps_collection_boxes", "addr:city": "VINTON", "addr:country": "US", "addr:postcode": "52349", "addr:state": "IA", "addr:street_address": "516 1ST AVE", "amenity": "post_box", "collection_times": "Mo-Fr 16:30; Sa 11:30", "indoor": "yes", "note": "ON 12/24 AND 12/31, THIS BOX MAY BE COLLECTED AS EARLY AS 12 NOON.", "nsi_id": "unitedstatespostalservice-a77078", "operator": "United States Postal Service", "operator:short": "USPS", "operator:type": "public", "operator:wikidata": "Q668687", "ref": "5234900019"}, "type": "Feature"}
{"geometry": {"coordinates": [-91.831887698, 41.879523092], "type": "Point"}, "id": "Ld8SUs2aAitdjEn84cYxQHCubxg=", "properties": {"@source_uri": "https://tools.usps.com/UspsToolsRestServices/rest/POLocator/findLocations", "@spider": "usps_collection_boxes", "addr:city": "WALFORD", "addr:country": "US", "addr:postcode": "52351", "addr:state": "IA", "addr:street_address": "100 HIGHWAY 151 E", "amenity": "post_box", "collection_times": "Mo-Sa 16:30", "note": "ON 12/24 AND 12/31, THIS BOX MAY BE COLLECTED AS EARLY AS 12 NOON.", "nsi_id": "unitedstatespostalservice-a77078", "operator": "United States Postal Service", "operator:short": "USPS", "operator:type": "public", "operator:wikidata": "Q668687", "ref": "5235100000"}, "type": "Feature"}
{"geometry": {"coordinates": [-91.831887698, 41.879523092], "type": "Point"}, "id": "BqAs68sA9Yn1MFUf4K1AcJ3NwXY=", "properties": {"@source_uri": "https://tools.usps.com/UspsToolsRestServices/rest/POLocator/findLocations", "@spider": "usps_collection_boxes", "addr:city": "WALFORD", "addr:country": "US", "addr:postcode": "52351", "addr:state": "IA", "addr:street_address": "100 HIGHWAY 151 E", "amenity": "post_box", "collection_times": "Mo-Fr 15:45", "indoor": "yes", "note": "ON 12/24 AND 12/31, THIS BOX MAY BE COLLECTED AS EARLY AS 12 NOON.", "nsi_id": "unitedstatespostalservice-a77078", "operator": "United States Postal Service", "operator:short": "USPS", "operator:type": "public", "operator:wikidata": "Q668687", "ref": "5235100001"}, "type": "Feature"}
{"geometry": {"coordinates": [-91.831887698, 41.879523092], "type": "Point"}, "id": "5oayEGLdDroDWRlpSpfEvH7vb8o=", "properties": {"@source_uri": "https://tools.usps.com/UspsToolsRestServices/rest/POLocator/findLocations", "@spider": "usps_collection_boxes", "addr:city": "WALFORD", "addr:country": "US", "addr:postcode": "52351", "addr:state": "IA", "addr:street_address": "100 HIGHWAY 151 E", "amenity": "post_box", "collection_times": "Mo-Fr 16:00; Sa 10:00", "indoor": "yes", "note": "ON 12/24 AND 12/31, THIS BOX MAY BE COLLECTED AS EARLY AS 12 NOON.", "nsi_id": "unitedstatespostalservice-a77078", "operator": "United States Postal Service", "operator:short": "USPS", "operator:type": "public", "operator:wikidata": "Q668687", "ref": "5235100002"}, "type": "Feature"}
{"geometry": {"coordinates": [-91.780823853, 42.285977078], "type": "Point"}, "id": "0IBCxW808Uww8SLe8SMpfCdc_I8=", "properties": {"@source_uri": "https://tools.usps.com/UspsToolsRestServices/rest/POLocator/findLocations", "@spider": "usps_collection_boxes", "addr:city": "WALKER", "addr:country": "US", "addr:postcode": "52352", "addr:state": "IA", "addr:street_address": "117 GREENE ST", "amenity": "post_box", "collection_times": "Mo-Sa 16:00", "note": "ON 12/24 AND 12/31, THIS BOX MAY BE COLLECTED AS EARLY AS 12 NOON.", "nsi_id": "unitedstatespostalservice-a77078", "operator": "United States Postal Service", "operator:short": "USPS", "operator:type": "public", "operator:wikidata": "Q668687", "ref": "5235200000"}, "type": "Feature"}
{"geometry": {"coordinates": [-91.780823853, 42.285977078], "type": "Point"}, "id": "AEvzDkBtVEi6rXKo5fMkPnVHAXM=", "properties": {"@source_uri": "https://tools.usps.com/UspsToolsRestServices/rest/POLocator/findLocations", "@spider": "usps_collection_boxes", "addr:city": "WALKER", "addr:country": "US", "addr:postcode": "52352", "addr:state": "IA", "addr:street_address": "117 GREENE ST", "amenity": "post_box", "collection_times": "Mo-Fr 14:45", "indoor": "yes", "note": "ON 12/24 AND 12/31, THIS BOX MAY BE COLLECTED AS EARLY AS 12 NOON.", "nsi_id": "unitedstatespostalservice-a77078", "operator": "United States Postal Service", "operator:short": "USPS", "operator:type": "public", "operator:wikidata": "Q668687", "ref": "5235200001"}, "type": "Feature"}
{"geometry": {"coordinates": [-91.780823853, 42.285977078], "type": "Point"}, "id": "8YZmQJNy2HbZuCw9z5oViV82y9k=", "properties": {"@source_uri": "https://tools.usps.com/UspsToolsRestServices/rest/POLocator/findLocations", "@spider": "usps_collection_boxes", "addr:city": "WALKER", "addr:country": "US", "addr:postcode": "52352", "addr:state": "IA", "addr:street_address": "117 GREENE ST", "amenity": "post_box", "collection_times": "Mo-Fr 15:00; Sa 09:00", "indoor": "yes", "note": "ON 12/24 AND 12/31, THIS BOX MAY BE COLLECTED AS EARLY AS 12 NOON.", "nsi_id": "unitedstatespostalservice-a77078", "operator": "United States Postal Service", "operator:short": "USPS", "operator:type": "public", "operator:wikidata": "Q668687", "ref": "5235200002"}, "type": "Feature"}
{"geometry": {"coordinates": [-91.7166241, 41.302255134], "type": "Point"}, "id": "djOZ2Pxq5FH45Fg4PwUfPwJ64rA=", "properties": {"@source_uri": "https://tools.usps.com/UspsToolsRestServices/rest/POLocator/findLocations", "@spider": "usps_collection_boxes", "addr:city": "WASHINGTON", "addr:country": "US", "addr:postcode": "52353", "addr:state": "IA", "addr:street_address": "528 HIGHWAY 1 S", "amenity": "post_box", "collection_times": "Mo-Sa 12:00", "nsi_id": "unitedstatespostalservice-a77078", "operator": "United States Postal Service", "operator:short": "USPS", "operator:type": "public", "operator:wikidata": "Q668687", "ref": "5235300002"}, "type": "Feature"}
{"geometry": {"coordinates": [-91.6933738413, 41.2995519503], "type": "Point"}, "id": "c0_vWwXq2k51AH5Kef1mX-Hrdd4=", "properties": {"@source_uri": "https://tools.usps.com/UspsToolsRestServices/rest/POLocator/findLocations", "@spider": "usps_collection_boxes", "addr:city": "WASHINGTON", "addr:country": "US", "addr:postcode": "52353", "addr:state": "IA", "addr:street_address": "224 W MAIN ST", "amenity": "post_box", "collection_times": "Mo-Sa 15:00", "note": "ON 12/24 AND 12/31, THIS BOX MAY BE COLLECTED AS EARLY AS 12 NOON.", "nsi_id": "unitedstatespostalservice-a77078", "operator": "United States Postal Service", "operator:short": "USPS", "operator:type": "public", "operator:wikidata": "Q668687", "ref": "5235300006"}, "type": "Feature"}
{"geometry": {"coordinates": [-91.691744388, 41.298246], "type": "Point"}, "id": "ZwBsz7YvX4Q82IX9-HURnpbirYk=", "properties": {"@source_uri": "https://tools.usps.com/UspsToolsRestServices/rest/POLocator/findLocations", "@spider": "usps_collection_boxes", "addr:city": "WASHINGTON", "addr:country": "US", "addr:postcode": "52353", "addr:state": "IA", "addr:street_address": "200 S IOWA AVE", "amenity": "post_box", "collection_times": "Mo-Sa 15:00", "note": "ON 12/24 AND 12/31, THIS BOX MAY BE COLLECTED AS EARLY AS 12 NOON.", "nsi_id": "unitedstatespostalservice-a77078", "operator": "United States Postal Service", "operator:short": "USPS", "operator:type": "public", "operator:wikidata": "Q668687", "ref": "5235300008"}, "type": "Feature"}
{"geometry": {"coordinates": [-91.691410972, 41.299475468], "type": "Point"}, "id": "5c3VWPgr9d_RT1DM3D8rKL80HMI=", "properties": {"@source_uri": "https://tools.usps.com/UspsToolsRestServices/rest/POLocator/findLocations", "@spider": "usps_collection_boxes", "addr:city": "WASHINGTON", "addr:country": "US", "addr:postcode": "52353", "addr:state": "IA", "addr:street_address": "102 E MAIN ST", "amenity": "post_box", "collection_times": "Mo-Sa 15:00", "note": "ON 12/24 AND 12/31, THIS BOX MAY BE COLLECTED AS EARLY AS 12 NOON.", "nsi_id": "unitedstatespostalservice-a77078", "operator": "United States Postal Service", "operator:short": "USPS", "operator:type": "public", "operator:wikidata": "Q668687", "ref": "5235300009"}, "type": "Feature"}
{"geometry": {"coordinates": [-91.693048586, 41.300154335], "type": "Point"}, "id": "hn7OyndpFqCTuZpNj0pyDOTejDs=", "properties": {"@source_uri": "https://tools.usps.com/UspsToolsRestServices/rest/POLocator/findLocations", "@spider": "usps_collection_boxes", "addr:city": "WASHINGTON", "addr:country": "US", "addr:postcode": "52353", "addr:state": "IA", "addr:street_address": "115 N MARION AVE", "amenity": "post_box", "collection_times": "Mo-Fr 16:45; Sa 15:15", "indoor": "yes", "note": "ON 12/24 AND 12/31, THIS BOX MAY BE COLLECTED AS EARLY AS 12 NOON.", "nsi_id": "unitedstatespostalservice-a77078", "operator": "United States Postal Service", "operator:short": "USPS", "operator:type": "public", "operator:wikidata": "Q668687", "ref": "5235300018"}, "type": "Feature"}
{"geometry": {"coordinates": [-91.693048586, 41.300154335], "type": "Point"}, "id": "Xq9FhGx63giOQ820ZVJK-ji-th8=", "properties": {"@source_uri": "https://tools.usps.com/UspsToolsRestServices/rest/POLocator/findLocations", "@spider": "usps_collection_boxes", "addr:city": "WASHINGTON", "addr:country": "US", "addr:postcode": "52353", "addr:state": "IA", "addr:street_address": "115 N MARION AVE", "amenity": "post_box", "collection_times": "Mo-Fr 16:45; Sa 15:15", "note": "ON 12/24 AND 12/31, THIS BOX MAY BE COLLECTED AS EARLY AS 12 NOON.", "nsi_id": "unitedstatespostalservice-a77078", "operator": "United States Postal Service", "operator:short": "USPS", "operator:type": "public", "operator:wikidata": "Q668687", "ref": "5235300019"}, "type": "Feature"}
{"geometry": {"coordinates": [-91.693048586, 41.300154335], "type": "Point"}, "id": "EUrR6Ikwi5rcnsWRVyErQN8q2BA=", "properties": {"@source_uri": "https://tools.usps.com/UspsToolsRestServices/rest/POLocator/findLocations", "@spider": "usps_collection_boxes", "addr:city": "WASHINGTON", "addr:country": "US", "addr:postcode": "52353", "addr:state": "IA", "addr:street_address": "115 N MARION AVE", "amenity": "post_box", "collection_times": "Mo-Fr 16:30; Sa 10:00", "indoor": "yes", "note": "ON 12/24 AND 12/31, THIS BOX MAY BE COLLECTED AS EARLY AS 12 NOON.", "nsi_id": "unitedstatespostalservice-a77078", "operator": "United States Postal Service", "operator:short": "USPS", "operator:type": "public", "operator:wikidata": "Q668687", "ref": "5235300020"}, "type": "Feature"}
{"geometry": {"coordinates": [-91.986200891, 41.891432746], "type": "Point"}, "id": "mhT-00eorzGcQk3TWfneuXOTm3U=", "properties": {"@source_uri": "https://tools.usps.com/UspsToolsRestServices/rest/POLocator/findLocations", "@spider": "usps_collection_boxes", "addr:city": "WATKINS", "addr:country": "US", "addr:postcode": "52354", "addr:state": "IA", "addr:street_address": "206 1ST ST", "amenity": "post_box", "collection_times": "Mo-Fr 15:45; Sa 16:30", "note": "ON 12/24 AND 12/31, THIS BOX MAY BE COLLECTED AS EARLY AS 12 NOON.", "nsi_id": "unitedstatespostalservice-a77078", "operator": "United States Postal Service", "operator:short": "USPS", "operator:type": "public", "operator:wikidata": "Q668687", "ref": "5235400000"}, "type": "Feature"}
{"geometry": {"coordinates": [-91.986200891, 41.891432746], "type": "Point"}, "id": "RCjUInYDlNENqN2VmSDBbXoKFSM=", "properties": {"@source_uri": "https://tools.usps.com/UspsToolsRestServices/rest/POLocator/findLocations", "@spider": "usps_collection_boxes", "addr:city": "WATKINS", "addr:country": "US", "addr:postcode": "52354", "addr:state": "IA", "addr:street_address": "206 1ST ST", "amenity": "post_box", "collection_times": "Mo-Fr 11:45", "indoor": "yes", "nsi_id": "unitedstatespostalservice-a77078", "operator": "United States Postal Service", "operator:short": "USPS", "operator:type": "public", "operator:wikidata": "Q668687", "ref": "5235400001"}, "type": "Feature"}
{"geometry": {"coordinates": [-91.986200891, 41.891432746], "type": "Point"}, "id": "tQeqGe_dNKE61XBQmPwZeHpNZqs=", "properties": {"@source_uri": "https://tools.usps.com/UspsToolsRestServices/rest/POLocator/findLocations", "@spider": "usps_collection_boxes", "addr:city": "WATKINS", "addr:country": "US", "addr:postcode": "52354", "addr:state": "IA", "addr:street_address": "206 1ST ST", "amenity": "post_box", "collection_times": "Mo-Fr 12:00; Sa 10:45", "indoor": "yes", "nsi_id": "unitedstatespostalservice-a77078", "operator": "United States Postal Service", "operator:short": "USPS", "operator:type": "public", "operator:wikidata": "Q668687", "ref": "5235400002"}, "type": "Feature"}
{"geometry": {"coordinates": [-91.839036334, 41.465438329], "type": "Point"}, "id": "TndmaoXaBVQa9aZrO5MrVnbuhxU=", "properties": {"@source_uri": "https://tools.usps.com/UspsToolsRestServices/rest/POLocator/findLocations", "@spider": "usps_collection_boxes", "addr:city": "WELLMAN", "addr:country": "US", "addr:postcode": "52356", "addr:state": "IA", "addr:street_address": "310 9TH AVE", "amenity": "post_box", "collection_times": "Mo-Fr 16:00; Sa 16:30", "note": "ON 12/24 AND 12/31, THIS BOX MAY BE COLLECTED AS EARLY AS 12 NOON.", "nsi_id": "unitedstatespostalservice-a77078", "operator": "United States Postal Service", "operator:short": "USPS", "operator:type": "public", "operator:wikidata": "Q668687", "ref": "5235600000"}, "type": "Feature"}
{"geometry": {"coordinates": [-91.839036334, 41.465438329], "type": "Point"}, "id": "jsNKAqnBD9JCWZoqDYdCR5swVlg=", "properties": {"@source_uri": "https://tools.usps.com/UspsToolsRestServices/rest/POLocator/findLocations", "@spider": "usps_collection_boxes", "addr:city": "WELLMAN", "addr:country": "US", "addr:postcode": "52356", "addr:state": "IA", "addr:street_address": "310 9TH AVE", "amenity": "post_box", "collection_times": "Mo-Fr 16:00", "indoor": "yes", "note": "ON 12/24 AND 12/31, THIS BOX MAY BE COLLECTED AS EARLY AS 12 NOON.", "nsi_id": "unitedstatespostalservice-a77078", "operator": "United States Postal Service", "operator:short": "USPS", "operator:type": "public", "operator:wikidata": "Q668687", "ref": "5235600001"}, "type": "Feature"}
{"geometry": {"coordinates": [-91.839036334, 41.465438329], "type": "Point"}, "id": "OBt3H39KfjmrQzAfjXbRz401yjk=", "properties": {"@source_uri": "https://tools.usps.com/UspsToolsRestServices/rest/POLocator/findLocations", "@spider": "usps_collection_boxes", "addr:city": "WELLMAN", "addr:country": "US", "addr:postcode": "52356", "addr:state": "IA", "addr:street_address": "310 9TH AVE", "amenity": "post_box", "collection_times": "Mo-Fr 16:00; Sa 10:30", "indoor": "yes", "note": "ON 12/24 AND 12/31, THIS BOX MAY BE COLLECTED AS EARLY AS 12 NOON.", "nsi_id": "unitedstatespostalservice-a77078", "operator": "United States Postal Service", "operator:short": "USPS", "operator:type": "public", "operator:wikidata": "Q668687", "ref": "5235600002"}, "type": "Feature"}
{"geometry": {"coordinates": [-91.346700022, 41.671337868], "type": "Point"}, "id": "S6YHYds4T5DyRSfluYR8B6lAC-Y=", "properties": {"@source_uri": "https://tools.usps.com/UspsToolsRestServices/rest/POLocator/findLocations", "@spider": "usps_collection_boxes", "addr:city": "WEST BRANCH", "addr:country": "US", "addr:postcode": "52358", "addr:state": "IA", "addr:street_address": "104 PARKSIDE DR", "amenity": "post_box", "collection_times": "Mo-Fr 16:30; Sa 10:30", "indoor": "yes", "note": "ON 12/24 AND 12/31, THIS BOX MAY BE COLLECTED AS EARLY AS 12 NOON.", "nsi_id": "unitedstatespostalservice-a77078", "operator": "United States Postal Service", "operator:short": "USPS", "operator:type": "public", "operator:wikidata": "Q668687", "ref": "5235800002"}, "type": "Feature"}
{"geometry": {"coordinates": [-91.346700022, 41.671337868], "type": "Point"}, "id": "6e9JqY_4uAc-tu1NWp-A1VctMGg=", "properties": {"@source_uri": "https://tools.usps.com/UspsToolsRestServices/rest/POLocator/findLocations", "@spider": "usps_collection_boxes", "addr:city": "WEST BRANCH", "addr:country": "US", "addr:postcode": "52358", "addr:state": "IA", "addr:street_address": "104 PARKSIDE DR", "amenity": "post_box", "collection_times": "Mo-Fr 16:30; Sa 10:30", "indoor": "yes", "note": "ON 12/24 AND 12/31, THIS BOX MAY BE COLLECTED AS EARLY AS 12 NOON.", "nsi_id": "unitedstatespostalservice-a77078", "operator": "United States Postal Service", "operator:short": "USPS", "operator:type": "public", "operator:wikidata": "Q668687", "ref": "5235800004"}, "type": "Feature"}
{"geometry": {"coordinates": [-92.008795743, 41.66038755], "type": "Point"}, "id": "o4kjzNaj8GvfyLflBYhRsCKIMTk=", "properties": {"@source_uri": "https://tools.usps.com/UspsToolsRestServices/rest/POLocator/findLocations", "@spider": "usps_collection_boxes", "addr:city": "WILLIAMSBURG", "addr:country": "US", "addr:postcode": "52361", "addr:state": "IA", "addr:street_address": "601 COURT ST", "amenity": "post_box", "collection_times": "Mo-Fr 16:30; Sa 17:00", "note": "ON 12/24 AND 12/31, THIS BOX MAY BE COLLECTED AS EARLY AS 12 NOON.", "nsi_id": "unitedstatespostalservice-a77078", "operator": "United States Postal Service", "operator:short": "USPS", "operator:type": "public", "operator:wikidata": "Q668687", "ref": "5236100000"}, "type": "Feature"}
{"geometry": {"coordinates": [-92.006966478, 41.69187022], "type": "Point"}, "id": "nqG_OKy3zxyEdyTmYnkkVFYl6Ro=", "properties": {"@source_uri": "https://tools.usps.com/UspsToolsRestServices/rest/POLocator/findLocations", "@spider": "usps_collection_boxes", "addr:city": "WILLIAMSBURG", "addr:country": "US", "addr:postcode": "52361", "addr:state": "IA", "addr:street_address": "150 TANGER DR", "amenity": "post_box", "collection_times": "Mo-Sa 17:15", "note": "ON 12/24 AND 12/31, THIS BOX MAY BE COLLECTED AS EARLY AS 12 NOON.", "nsi_id": "unitedstatespostalservice-a77078", "operator": "United States Postal Service", "operator:short": "USPS", "operator:type": "public", "operator:wikidata": "Q668687", "ref": "5236100001"}, "type": "Feature"}
{"geometry": {"coordinates": [-92.008795743, 41.66038755], "type": "Point"}, "id": "8kHCBsSfW6Bq_VxW26NpHwEQPq0=", "properties": {"@source_uri": "https://tools.usps.com/UspsToolsRestServices/rest/POLocator/findLocations", "@spider": "usps_collection_boxes", "addr:city": "WILLIAMSBURG", "addr:country": "US", "addr:postcode": "52361", "addr:state": "IA", "addr:street_address": "601 COURT ST", "amenity": "post_box", "collection_times": "Mo-Fr 16:30", "indoor": "yes", "note": "ON 12/24 AND 12/31, THIS BOX MAY BE COLLECTED AS EARLY AS 12 NOON.", "nsi_id": "unitedstatespostalservice-a77078", "operator": "United States Postal Service", "operator:short": "USPS", "operator:type": "public", "operator:wikidata": "Q668687", "ref": "5236100003"}, "type": "Feature"}
{"geometry": {"coordinates": [-92.008795743, 41.66038755], "type": "Point"}, "id": "OHxd3YQ7oG6IwO1WhojCcPywaNg=", "properties": {"@source_uri": "https://tools.usps.com/UspsToolsRestServices/rest/POLocator/findLocations", "@spider": "usps_collection_boxes", "addr:city": "WILLIAMSBURG", "addr:country": "US", "addr:postcode": "52361", "addr:state": "IA", "addr:street_address": "601 COURT ST", "amenity": "post_box", "collection_times": "Mo-Fr 16:45; Sa 10:00", "indoor": "yes", "note": "ON 12/24 AND 12/31, THIS BOX MAY BE COLLECTED AS EARLY AS 12 NOON.", "nsi_id": "unitedstatespostalservice-a77078", "operator": "United States Postal Service", "operator:short": "USPS", "operator:type": "public", "operator:wikidata": "Q668687", "ref": "5236100004"}, "type": "Feature"}
{"geometry": {"coordinates": [-91.005412668, 42.058916453], "type": "Point"}, "id": "tvrlVt0-nxpNxLWsi6KwK7j2p0A=", "properties": {"@source_uri": "https://tools.usps.com/UspsToolsRestServices/rest/POLocator/findLocations", "@spider": "usps_collection_boxes", "addr:city": "WYOMING", "addr:country": "US", "addr:postcode": "52362", "addr:state": "IA", "addr:street_address": "101 E MAIN ST", "amenity": "post_box", "collection_times": "Mo-Sa 16:00", "note": "ON 12/24 AND 12/31, THIS BOX MAY BE COLLECTED AS EARLY AS 12 NOON.", "nsi_id": "unitedstatespostalservice-a77078", "operator": "United States Postal Service", "operator:short": "USPS", "operator:type": "public", "operator:wikidata": "Q668687", "ref": "5236200000"}, "type": "Feature"}
{"geometry": {"coordinates": [-91.005412668, 42.058916453], "type": "Point"}, "id": "37rdOLMA8-bCl9-rzDtqytBDmrs=", "properties": {"@source_uri": "https://tools.usps.com/UspsToolsRestServices/rest/POLocator/findLocations", "@spider": "usps_collection_boxes", "addr:city": "WYOMING", "addr:country": "US", "addr:postcode": "52362", "addr:state": "IA", "addr:street_address": "101 E MAIN ST", "amenity": "post_box", "collection_times": "Mo-Fr 15:00; Sa 08:15", "indoor": "yes", "note": "ON 12/24 AND 12/31, THIS BOX MAY BE COLLECTED AS EARLY AS 12 NOON.", "nsi_id": "unitedstatespostalservice-a77078", "operator": "United States Postal Service", "operator:short": "USPS", "operator:type": "public", "operator:wikidata": "Q668687", "ref": "5236200001"}, "type": "Feature"}
{"geometry": {"coordinates": [-91.005412668, 42.058916453], "type": "Point"}, "id": "G5fRDgoJe0Kxqa8acP8vB2I3IXg=", "properties": {"@source_uri": "https://tools.usps.com/UspsToolsRestServices/rest/POLocator/findLocations", "@spider": "usps_collection_boxes", "addr:city": "WYOMING", "addr:country": "US", "addr:postcode": "52362", "addr:state": "IA", "addr:street_address": "101 E MAIN ST", "amenity": "post_box", "collection_times": "Mo-Fr 15:15; Sa 08:30", "indoor": "yes", "note": "ON 12/24 AND 12/31, THIS BOX MAY BE COLLECTED AS EARLY AS 12 NOON.", "nsi_id": "unitedstatespostalservice-a77078", "operator": "United States Postal Service", "operator:short": "USPS", "operator:type": "public", "operator:wikidata": "Q668687", "ref": "5236200002"}, "type": "Feature"}
