{"geometry": {"coordinates": [-91.66905556, 41.978583322], "type": "Point"}, "id": "jyxYuLbYPb2grt-tl4b_qWIa03Y=", "properties": {"@source_uri": "https://tools.usps.com/UspsToolsRestServices/rest/POLocator/findLocations", "@spider": "usps_collection_boxes", "addr:city": "CEDAR RAPIDS", "addr:country": "US", "addr:full": "150 1ST AVE NE", "addr:postcode": "52401", "addr:state": "IA", "amenity": "post_box", "brand": "United States Postal Service", "brand:wikidata": "Q668687", "collection_times": "Mo-Fr 13:30; Sa 10:00", "note": "ON 12/24 AND 12/31, THIS BOX MAY BE COLLECTED AS EARLY AS 12 NOON.", "nsi_id": "unitedstatespostalservice-a77078", "operator": "United States Postal Service", "operator:short": "USPS", "operator:type": "public", "operator:wikidata": "Q668687", "ref": "5240100001"}, "type": "Feature"}
{"geometry": {"coordinates": [-91.665913021, 41.980806436], "type": "Point"}, "id": "j7oPNitQdzt7ObmzX0m3wocTZWM=", "properties": {"@source_uri": "https://tools.usps.com/UspsToolsRestServices/rest/POLocator/findLocations", "@spider": "usps_collection_boxes", "addr:city": "CEDAR RAPIDS", "addr:country": "US", "addr:full": "424 1ST AVE NE", "addr:postcode": "52401", "addr:state": "IA", "amenity": "post_box", "brand": "United States Postal Service", "brand:wikidata": "Q668687", "collection_times": "Mo-Fr 12:00; Sa 09:30", "nsi_id": "unitedstatespostalservice-a77078", "operator": "United States Postal Service", "operator:short": "USPS", "operator:type": "public", "operator:wikidata": "Q668687", "ref": "5240100004"}, "type": "Feature"}
{"geometry": {"coordinates": [-91.660445, 41.97675], "type": "Point"}, "id": "fWtANxgv5n3mKLo7eIgwGN0ZJbM=", "properties": {"@source_uri": "https://tools.usps.com/UspsToolsRestServices/rest/POLocator/findLocations", "@spider": "usps_collection_boxes", "addr:city": "CEDAR RAPIDS", "addr:country": "US", "addr:full": "145 TRANSIT WAY SE", "addr:postcode": "52401", "addr:state": "IA", "amenity": "post_box", "brand": "United States Postal Service", "brand:wikidata": "Q668687", "collection_times": "Mo-Fr 11:30; Sa 09:00", "nsi_id": "unitedstatespostalservice-a77078", "operator": "United States Postal Service", "operator:short": "USPS", "operator:type": "public", "operator:wikidata": "Q668687", "ref": "5240100005"}, "type": "Feature"}
{"geometry": {"coordinates": [-91.661347021, 41.980253905], "type": "Point"}, "id": "_JRyURIyHvpbW60zTamvnyKUK1U=", "properties": {"@source_uri": "https://tools.usps.com/UspsToolsRestServices/rest/POLocator/findLocations", "@spider": "usps_collection_boxes", "addr:city": "CEDAR RAPIDS", "addr:country": "US", "addr:full": "700 3RD AVE SE", "addr:postcode": "52401", "addr:state": "IA", "amenity": "post_box", "brand": "United States Postal Service", "brand:wikidata": "Q668687", "collection_times": "Mo-Fr 13:00; Sa 09:00", "note": "ON 12/24 AND 12/31, THIS BOX MAY BE COLLECTED AS EARLY AS 12 NOON.", "nsi_id": "unitedstatespostalservice-a77078", "operator": "United States Postal Service", "operator:short": "USPS", "operator:type": "public", "operator:wikidata": "Q668687", "ref": "5240100012"}, "type": "Feature"}
{"geometry": {"coordinates": [-91.669580994, 41.975513669], "type": "Point"}, "id": "VGWGRWz4Foy-qkDcaIBwOgrldGI=", "properties": {"@source_uri": "https://tools.usps.com/UspsToolsRestServices/rest/POLocator/findLocations", "@spider": "usps_collection_boxes", "addr:city": "CEDAR RAPIDS", "addr:country": "US", "addr:full": "51 3RD AVENUE BRG", "addr:postcode": "52401", "addr:state": "IA", "amenity": "post_box", "brand": "United States Postal Service", "brand:wikidata": "Q668687", "collection_times": "Mo-Fr 12:00; Sa 10:00", "nsi_id": "unitedstatespostalservice-a77078", "operator": "United States Postal Service", "operator:short": "USPS", "operator:type": "public", "operator:wikidata": "Q668687", "ref": "5240100016"}, "type": "Feature"}
{"geometry": {"coordinates": [-91.6657868995, 41.9803215839], "type": "Point"}, "id": "H40d4ND7GK2-4u5imci_anUZP2w=", "properties": {"@source_uri": "https://tools.usps.com/UspsToolsRestServices/rest/POLocator/findLocations", "@spider": "usps_collection_boxes", "addr:city": "CEDAR RAPIDS", "addr:country": "US", "addr:full": "417 1ST AVE SE", "addr:postcode": "52401", "addr:state": "IA", "amenity": "post_box", "brand": "United States Postal Service", "brand:wikidata": "Q668687", "collection_times": "Mo-Fr 11:30", "nsi_id": "unitedstatespostalservice-a77078", "operator": "United States Postal Service", "operator:short": "USPS", "operator:type": "public", "operator:wikidata": "Q668687", "ref": "5240100037"}, "type": "Feature"}
{"geometry": {"coordinates": [-91.667421955, 41.977576099], "type": "Point"}, "id": "iOg58dWDDqTXlO8lCQO__evJVe8=", "properties": {"@source_uri": "https://tools.usps.com/UspsToolsRestServices/rest/POLocator/findLocations", "@spider": "usps_collection_boxes", "addr:city": "CEDAR RAPIDS", "addr:country": "US", "addr:full": "210 2ND ST SE", "addr:postcode": "52401", "addr:state": "IA", "amenity": "post_box", "brand": "United States Postal Service", "brand:wikidata": "Q668687", "collection_times": "Mo-Fr 12:30; Sa 09:00", "note": "ON 12/24 AND 12/31, THIS BOX MAY BE COLLECTED AS EARLY AS 12 NOON.", "nsi_id": "unitedstatespostalservice-a77078", "operator": "United States Postal Service", "operator:short": "USPS", "operator:type": "public", "operator:wikidata": "Q668687", "ref": "5240100056"}, "type": "Feature"}
{"geometry": {"coordinates": [-91.65934676, 41.977336637], "type": "Point"}, "id": "PVaeKFQwBt5wwneQI00jiBG2QOA=", "properties": {"@source_uri": "https://tools.usps.com/UspsToolsRestServices/rest/POLocator/findLocations", "@spider": "usps_collection_boxes", "addr:city": "CEDAR RAPIDS", "addr:country": "US", "addr:full": "615 6TH AVE SE", "addr:postcode": "52401", "addr:state": "IA", "amenity": "post_box", "brand": "United States Postal Service", "brand:wikidata": "Q668687", "collection_times": "Mo-Sa 19:00", "note": "ON 12/24 AND 12/31, THIS BOX MAY BE COLLECTED AS EARLY AS 12 NOON.", "nsi_id": "unitedstatespostalservice-a77078", "operator": "United States Postal Service", "operator:short": "USPS", "operator:type": "public", "operator:wikidata": "Q668687", "ref": "5240100058"}, "type": "Feature"}
{"geometry": {"coordinates": [-91.65934676, 41.977336637], "type": "Point"}, "id": "zhpeLlW6NkSk1qg0uJWc9ppKdiU=", "properties": {"@source_uri": "https://tools.usps.com/UspsToolsRestServices/rest/POLocator/findLocations", "@spider": "usps_collection_boxes", "addr:city": "CEDAR RAPIDS", "addr:country": "US", "addr:full": "615 6TH AVE SE", "addr:postcode": "52401", "addr:state": "IA", "amenity": "post_box", "brand": "United States Postal Service", "brand:wikidata": "Q668687", "collection_times": "Mo-Sa 19:00", "note": "ON 12/24 AND 12/31, THIS BOX MAY BE COLLECTED AS EARLY AS 12 NOON.", "nsi_id": "unitedstatespostalservice-a77078", "operator": "United States Postal Service", "operator:short": "USPS", "operator:type": "public", "operator:wikidata": "Q668687", "ref": "5240100059"}, "type": "Feature"}
{"geometry": {"coordinates": [-91.65934676, 41.977336637], "type": "Point"}, "id": "TtVGp1oJa0vsvuPNPWVjmz_WCn8=", "properties": {"@source_uri": "https://tools.usps.com/UspsToolsRestServices/rest/POLocator/findLocations", "@spider": "usps_collection_boxes", "addr:city": "CEDAR RAPIDS", "addr:country": "US", "addr:full": "615 6TH AVE SE", "addr:postcode": "52401", "addr:state": "IA", "amenity": "post_box", "brand": "United States Postal Service", "brand:wikidata": "Q668687", "collection_times": "Mo-Sa 19:00", "note": "ON 12/24 AND 12/31, THIS BOX MAY BE COLLECTED AS EARLY AS 12 NOON.", "nsi_id": "unitedstatespostalservice-a77078", "operator": "United States Postal Service", "operator:short": "USPS", "operator:type": "public", "operator:wikidata": "Q668687", "ref": "5240100062"}, "type": "Feature"}
{"geometry": {"coordinates": [-91.667395895, 41.976707153], "type": "Point"}, "id": "hWDipV7CWi92fpAOU9qvdClBnEw=", "properties": {"@source_uri": "https://tools.usps.com/UspsToolsRestServices/rest/POLocator/findLocations", "@spider": "usps_collection_boxes", "addr:city": "CEDAR RAPIDS", "addr:country": "US", "addr:full": "116 3RD AVE SE", "addr:postcode": "52401", "addr:state": "IA", "amenity": "post_box", "brand": "United States Postal Service", "brand:wikidata": "Q668687", "collection_times": "Mo-Fr 12:00; Sa 09:00", "nsi_id": "unitedstatespostalservice-a77078", "operator": "United States Postal Service", "operator:short": "USPS", "operator:type": "public", "operator:wikidata": "Q668687", "ref": "5240100065"}, "type": "Feature"}
{"geometry": {"coordinates": [-91.65934676, 41.977336637], "type": "Point"}, "id": "Ut2fPHaIGxAq0UKyLbucFL1cGCM=", "properties": {"@source_uri": "https://tools.usps.com/UspsToolsRestServices/rest/POLocator/findLocations", "@spider": "usps_collection_boxes", "addr:city": "CEDAR RAPIDS", "addr:country": "US", "addr:full": "615 6TH AVE SE", "addr:postcode": "52401", "addr:state": "IA", "amenity": "post_box", "brand": "United States Postal Service", "brand:wikidata": "Q668687", "collection_times": "Mo-Sa 19:00", "indoor": "yes", "note": "ON 12/24 AND 12/31, THIS BOX MAY BE COLLECTED AS EARLY AS 12 NOON.", "nsi_id": "unitedstatespostalservice-a77078", "operator": "United States Postal Service", "operator:short": "USPS", "operator:type": "public", "operator:wikidata": "Q668687", "ref": "5240100066"}, "type": "Feature"}
{"geometry": {"coordinates": [-91.663617692, 41.980285423], "type": "Point"}, "id": "1M1PlpgxL8D0t-Yws4fzUr79OpA=", "properties": {"@source_uri": "https://tools.usps.com/UspsToolsRestServices/rest/POLocator/findLocations", "@spider": "usps_collection_boxes", "addr:city": "CEDAR RAPIDS", "addr:country": "US", "addr:full": "526 2ND AVE SE", "addr:postcode": "52401", "addr:state": "IA", "amenity": "post_box", "brand": "United States Postal Service", "brand:wikidata": "Q668687", "collection_times": "Mo-Fr 14:00; Sa 10:00", "note": "ON 12/24 AND 12/31, THIS BOX MAY BE COLLECTED AS EARLY AS 12 NOON.", "nsi_id": "unitedstatespostalservice-a77078", "operator": "United States Postal Service", "operator:short": "USPS", "operator:type": "public", "operator:wikidata": "Q668687", "ref": "5240100070"}, "type": "Feature"}
{"geometry": {"coordinates": [-91.665083564, 41.973424671], "type": "Point"}, "id": "5L1nOOWm0NH-I8e-2KBMGIzd4Ww=", "properties": {"@source_uri": "https://tools.usps.com/UspsToolsRestServices/rest/POLocator/findLocations", "@spider": "usps_collection_boxes", "addr:city": "CEDAR RAPIDS", "addr:country": "US", "addr:full": "625 1ST ST SE", "addr:postcode": "52401", "addr:state": "IA", "amenity": "post_box", "brand": "United States Postal Service", "brand:wikidata": "Q668687", "collection_times": "Mo-Sa 09:30", "nsi_id": "unitedstatespostalservice-a77078", "operator": "United States Postal Service", "operator:short": "USPS", "operator:type": "public", "operator:wikidata": "Q668687", "ref": "5240100077"}, "type": "Feature"}
{"geometry": {"coordinates": [-91.65934676, 41.977336637], "type": "Point"}, "id": "27sy3TzWLx82lxVetqlNtnbUunI=", "properties": {"@source_uri": "https://tools.usps.com/UspsToolsRestServices/rest/POLocator/findLocations", "@spider": "usps_collection_boxes", "addr:city": "CEDAR RAPIDS", "addr:country": "US", "addr:full": "615 6TH AVE SE", "addr:postcode": "52401", "addr:state": "IA", "amenity": "post_box", "brand": "United States Postal Service", "brand:wikidata": "Q668687", "collection_times": "Mo-Sa 19:00", "name": "USPS COLLECTION BOX - APC", "note": "ON 12/24 AND 12/31, THIS BOX MAY BE COLLECTED AS EARLY AS 12 NOON.", "nsi_id": "unitedstatespostalservice-a77078", "operator": "United States Postal Service", "operator:short": "USPS", "operator:type": "public", "operator:wikidata": "Q668687", "ref": "5240100080"}, "type": "Feature"}
{"geometry": {"coordinates": [-91.664732356, 41.976510507], "type": "Point"}, "id": "p--RL3YdOoYf8MP-pzgHLU_fOXI=", "properties": {"@source_uri": "https://tools.usps.com/UspsToolsRestServices/rest/POLocator/findLocations", "@spider": "usps_collection_boxes", "addr:city": "CEDAR RAPIDS", "addr:country": "US", "addr:full": "411 3RD ST SE", "addr:postcode": "52401", "addr:state": "IA", "amenity": "post_box", "brand": "United States Postal Service", "brand:wikidata": "Q668687", "collection_times": "Mo-Fr 11:30; Sa 09:00", "nsi_id": "unitedstatespostalservice-a77078", "operator": "United States Postal Service", "operator:short": "USPS", "operator:type": "public", "operator:wikidata": "Q668687", "ref": "5240100083"}, "type": "Feature"}
{"geometry": {"coordinates": [-91.665712004, 41.97776968], "type": "Point"}, "id": "LiXgTcr-BuGle6G8ZKVmq2hgiWI=", "properties": {"@source_uri": "https://tools.usps.com/UspsToolsRestServices/rest/POLocator/findLocations", "@spider": "usps_collection_boxes", "addr:city": "CEDAR RAPIDS", "addr:country": "US", "addr:full": "310 3RD AVE SE", "addr:postcode": "52401", "addr:state": "IA", "amenity": "post_box", "brand": "United States Postal Service", "brand:wikidata": "Q668687", "collection_times": "Mo-Fr 09:30", "nsi_id": "unitedstatespostalservice-a77078", "operator": "United States Postal Service", "operator:short": "USPS", "operator:type": "public", "operator:wikidata": "Q668687", "ref": "5240100084"}, "type": "Feature"}
{"geometry": {"coordinates": [-91.65934676, 41.977336637], "type": "Point"}, "id": "1Esn0UCbyGvjORo4aI-MjLSZm4U=", "properties": {"@source_uri": "https://tools.usps.com/UspsToolsRestServices/rest/POLocator/findLocations", "@spider": "usps_collection_boxes", "addr:city": "CEDAR RAPIDS", "addr:country": "US", "addr:full": "615 6TH AVE SE", "addr:postcode": "52401", "addr:state": "IA", "amenity": "post_box", "brand": "United States Postal Service", "brand:wikidata": "Q668687", "collection_times": "Mo-Fr 17:00; Sa 12:00", "indoor": "yes", "note": "ON 12/24 AND 12/31, THIS BOX MAY BE COLLECTED AS EARLY AS 12 NOON.", "nsi_id": "unitedstatespostalservice-a77078", "operator": "United States Postal Service", "operator:short": "USPS", "operator:type": "public", "operator:wikidata": "Q668687", "ref": "5240100086"}, "type": "Feature"}
{"geometry": {"coordinates": [-91.668924, 42.034768473], "type": "Point"}, "id": "NbRca2lMipV_0-TZKaXWlPMKHhU=", "properties": {"@source_uri": "https://tools.usps.com/UspsToolsRestServices/rest/POLocator/findLocations", "@spider": "usps_collection_boxes", "addr:city": "CEDAR RAPIDS", "addr:country": "US", "addr:full": "2001 BLAIRS FERRY RD NE", "addr:postcode": "52402", "addr:state": "IA", "amenity": "post_box", "brand": "United States Postal Service", "brand:wikidata": "Q668687", "collection_times": "Mo-Sa 10:30", "nsi_id": "unitedstatespostalservice-a77078", "operator": "United States Postal Service", "operator:short": "USPS", "operator:type": "public", "operator:wikidata": "Q668687", "ref": "5240200005"}, "type": "Feature"}
{"geometry": {"coordinates": [-91.68192243, 42.03468753], "type": "Point"}, "id": "RM5h3GsRPVYdRJVEEh8KrmThXUw=", "properties": {"@source_uri": "https://tools.usps.com/UspsToolsRestServices/rest/POLocator/findLocations", "@spider": "usps_collection_boxes", "addr:city": "CEDAR RAPIDS", "addr:country": "US", "addr:full": "2645 BLAIRS FERRY RD NE", "addr:postcode": "52402", "addr:state": "IA", "amenity": "post_box", "brand": "United States Postal Service", "brand:wikidata": "Q668687", "collection_times": "Mo-Sa 09:30", "nsi_id": "unitedstatespostalservice-a77078", "operator": "United States Postal Service", "operator:short": "USPS", "operator:type": "public", "operator:wikidata": "Q668687", "ref": "5240200006"}, "type": "Feature"}
{"geometry": {"coordinates": [-91.639123386, 42.046675495], "type": "Point"}, "id": "LdzqRoFE1K2gq1RwmZMGI5CgZ48=", "properties": {"@source_uri": "https://tools.usps.com/UspsToolsRestServices/rest/POLocator/findLocations", "@spider": "usps_collection_boxes", "addr:city": "CEDAR RAPIDS", "addr:country": "US", "addr:full": "505 BOYSON RD NE", "addr:postcode": "52402", "addr:state": "IA", "amenity": "post_box", "brand": "United States Postal Service", "brand:wikidata": "Q668687", "collection_times": "Mo-Sa 14:00", "note": "ON 12/24 AND 12/31, THIS BOX MAY BE COLLECTED AS EARLY AS 12 NOON.", "nsi_id": "unitedstatespostalservice-a77078", "operator": "United States Postal Service", "operator:short": "USPS", "operator:type": "public", "operator:wikidata": "Q668687", "ref": "5240200008"}, "type": "Feature"}
{"geometry": {"coordinates": [-91.665176693, 42.020928041], "type": "Point"}, "id": "BIM1EhdBEr3rPo7PFsF6Gu86YuA=", "properties": {"@source_uri": "https://tools.usps.com/UspsToolsRestServices/rest/POLocator/findLocations", "@spider": "usps_collection_boxes", "addr:city": "CEDAR RAPIDS", "addr:country": "US", "addr:full": "4116 CENTER POINT RD NE", "addr:postcode": "52402", "addr:state": "IA", "amenity": "post_box", "brand": "United States Postal Service", "brand:wikidata": "Q668687", "collection_times": "Mo-Sa 13:30", "note": "ON 12/24 AND 12/31, THIS BOX MAY BE COLLECTED AS EARLY AS 12 NOON.", "nsi_id": "unitedstatespostalservice-a77078", "operator": "United States Postal Service", "operator:short": "USPS", "operator:type": "public", "operator:wikidata": "Q668687", "ref": "5240200010"}, "type": "Feature"}
{"geometry": {"coordinates": [-91.629389516, 42.028533639], "type": "Point"}, "id": "60uKkW3K-yylv4xd-FN_gzTfIa4=", "properties": {"@source_uri": "https://tools.usps.com/UspsToolsRestServices/rest/POLocator/findLocations", "@spider": "usps_collection_boxes", "addr:city": "CEDAR RAPIDS", "addr:country": "US", "addr:full": "208 COLLINS RD NE", "addr:postcode": "52402", "addr:state": "IA", "amenity": "post_box", "brand": "United States Postal Service", "brand:wikidata": "Q668687", "collection_times": "Mo-Sa 13:30", "note": "ON 12/24 AND 12/31, THIS BOX MAY BE COLLECTED AS EARLY AS 12 NOON.", "nsi_id": "unitedstatespostalservice-a77078", "operator": "United States Postal Service", "operator:short": "USPS", "operator:type": "public", "operator:wikidata": "Q668687", "ref": "5240200016"}, "type": "Feature"}
{"geometry": {"coordinates": [-91.637690689, 42.027976546], "type": "Point"}, "id": "VRhEmRxAar0noxG1SfVLGgsdyVM=", "properties": {"@source_uri": "https://tools.usps.com/UspsToolsRestServices/rest/POLocator/findLocations", "@spider": "usps_collection_boxes", "addr:city": "CEDAR RAPIDS", "addr:country": "US", "addr:full": "385 COLLINS RD NE", "addr:postcode": "52402", "addr:state": "IA", "amenity": "post_box", "brand": "United States Postal Service", "brand:wikidata": "Q668687", "collection_times": "Mo-Fr 13:30; Sa 10:00", "note": "ON 12/24 AND 12/31, THIS BOX MAY BE COLLECTED AS EARLY AS 12 NOON.", "nsi_id": "unitedstatespostalservice-a77078", "operator": "United States Postal Service", "operator:short": "USPS", "operator:type": "public", "operator:wikidata": "Q668687", "ref": "5240200017"}, "type": "Feature"}
{"geometry": {"coordinates": [-91.656960663, 42.038149469], "type": "Point"}, "id": "7y-ql9ZuGJK1BB-yry0wWrkFQW0=", "properties": {"@source_uri": "https://tools.usps.com/UspsToolsRestServices/rest/POLocator/findLocations", "@spider": "usps_collection_boxes", "addr:city": "CEDAR RAPIDS", "addr:country": "US", "addr:full": "1380 60TH ST NE", "addr:postcode": "52402", "addr:state": "IA", "amenity": "post_box", "brand": "United States Postal Service", "brand:wikidata": "Q668687", "collection_times": "Mo-Fr 17:30; Sa 17:00", "note": "ON 12/24 AND 12/31, THIS BOX MAY BE COLLECTED AS EARLY AS 12 NOON.", "nsi_id": "unitedstatespostalservice-a77078", "operator": "United States Postal Service", "operator:short": "USPS", "operator:type": "public", "operator:wikidata": "Q668687", "ref": "5240200019"}, "type": "Feature"}
{"geometry": {"coordinates": [-91.64073128, 42.0135315], "type": "Point"}, "id": "y5hED5JUfgSfRyYeQy4zxyph8pY=", "properties": {"@source_uri": "https://tools.usps.com/UspsToolsRestServices/rest/POLocator/findLocations", "@spider": "usps_collection_boxes", "addr:city": "CEDAR RAPIDS", "addr:country": "US", "addr:full": "521 35TH ST NE", "addr:postcode": "52402", "addr:state": "IA", "amenity": "post_box", "brand": "United States Postal Service", "brand:wikidata": "Q668687", "collection_times": "Mo-Sa 09:30", "nsi_id": "unitedstatespostalservice-a77078", "operator": "United States Postal Service", "operator:short": "USPS", "operator:type": "public", "operator:wikidata": "Q668687", "ref": "5240200030"}, "type": "Feature"}
{"geometry": {"coordinates": [-91.6429823132, 42.0038593523], "type": "Point"}, "id": "xVLcsmlFY5rxt0bkFP360kBUipQ=", "properties": {"@source_uri": "https://tools.usps.com/UspsToolsRestServices/rest/POLocator/findLocations", "@spider": "usps_collection_boxes", "addr:city": "CEDAR RAPIDS", "addr:country": "US", "addr:full": "2500 FRANKLIN AVE NE", "addr:postcode": "52402", "addr:state": "IA", "amenity": "post_box", "brand": "United States Postal Service", "brand:wikidata": "Q668687", "collection_times": "Mo-Sa 09:30", "nsi_id": "unitedstatespostalservice-a77078", "operator": "United States Postal Service", "operator:short": "USPS", "operator:type": "public", "operator:wikidata": "Q668687", "ref": "5240200033"}, "type": "Feature"}
{"geometry": {"coordinates": [-91.65972837, 41.995916047], "type": "Point"}, "id": "B8d8jdFknvvX3WDPopHyMNF0Ga8=", "properties": {"@source_uri": "https://tools.usps.com/UspsToolsRestServices/rest/POLocator/findLocations", "@spider": "usps_collection_boxes", "addr:city": "CEDAR RAPIDS", "addr:country": "US", "addr:full": "901 OAKLAND RD NE", "addr:postcode": "52402", "addr:state": "IA", "amenity": "post_box", "brand": "United States Postal Service", "brand:wikidata": "Q668687", "collection_times": "Mo-Fr 10:30; Sa 10:00", "nsi_id": "unitedstatespostalservice-a77078", "operator": "United States Postal Service", "operator:short": "USPS", "operator:type": "public", "operator:wikidata": "Q668687", "ref": "5240200036"}, "type": "Feature"}
{"geometry": {"coordinates": [-91.674919606, 42.02554504], "type": "Point"}, "id": "2WE3hW7Ukp8ivCA9G1YTRstDT24=", "properties": {"@source_uri": "https://tools.usps.com/UspsToolsRestServices/rest/POLocator/findLocations", "@spider": "usps_collection_boxes", "addr:city": "CEDAR RAPIDS", "addr:country": "US", "addr:full": "4600 NORTHWOOD DR NE", "addr:postcode": "52402", "addr:state": "IA", "amenity": "post_box", "brand": "United States Postal Service", "brand:wikidata": "Q668687", "collection_times": "Mo-Sa 12:00", "nsi_id": "unitedstatespostalservice-a77078", "operator": "United States Postal Service", "operator:short": "USPS", "operator:type": "public", "operator:wikidata": "Q668687", "ref": "5240200041"}, "type": "Feature"}
{"geometry": {"coordinates": [-91.656214722, 42.030244481], "type": "Point"}, "id": "XFlG6cJv9hkR667O1qmGwQIoKy8=", "properties": {"@source_uri": "https://tools.usps.com/UspsToolsRestServices/rest/POLocator/findLocations", "@spider": "usps_collection_boxes", "addr:city": "CEDAR RAPIDS", "addr:country": "US", "addr:full": "1241 PARK PL NE", "addr:postcode": "52402", "addr:state": "IA", "amenity": "post_box", "brand": "United States Postal Service", "brand:wikidata": "Q668687", "collection_times": "Mo-Fr 13:30; Sa 10:30", "note": "ON 12/24 AND 12/31, THIS BOX MAY BE COLLECTED AS EARLY AS 12 NOON.", "nsi_id": "unitedstatespostalservice-a77078", "operator": "United States Postal Service", "operator:short": "USPS", "operator:type": "public", "operator:wikidata": "Q668687", "ref": "5240200046"}, "type": "Feature"}
{"geometry": {"coordinates": [-91.6993365305, 42.0206236197], "type": "Point"}, "id": "72H5HktGBzoDfuw6kzSkbohvAws=", "properties": {"@source_uri": "https://tools.usps.com/UspsToolsRestServices/rest/POLocator/findLocations", "@spider": "usps_collection_boxes", "addr:city": "CEDAR RAPIDS", "addr:country": "US", "addr:full": "4050 RIVER RIDGE DR NE", "addr:postcode": "52402", "addr:state": "IA", "amenity": "post_box", "brand": "United States Postal Service", "brand:wikidata": "Q668687", "collection_times": "Mo-Fr 11:30; Sa 09:30", "nsi_id": "unitedstatespostalservice-a77078", "operator": "United States Postal Service", "operator:short": "USPS", "operator:type": "public", "operator:wikidata": "Q668687", "ref": "5240200050"}, "type": "Feature"}
{"geometry": {"coordinates": [-91.652105429, 41.988262325], "type": "Point"}, "id": "xmFjreX7g-Bvh2fyZXRGyMPupRM=", "properties": {"@source_uri": "https://tools.usps.com/UspsToolsRestServices/rest/POLocator/findLocations", "@spider": "usps_collection_boxes", "addr:city": "CEDAR RAPIDS", "addr:country": "US", "addr:full": "1500 1ST AVE NE", "addr:postcode": "52402", "addr:state": "IA", "amenity": "post_box", "brand": "United States Postal Service", "brand:wikidata": "Q668687", "collection_times": "Mo-Sa 11:00", "nsi_id": "unitedstatespostalservice-a77078", "operator": "United States Postal Service", "operator:short": "USPS", "operator:type": "public", "operator:wikidata": "Q668687", "ref": "5240200062"}, "type": "Feature"}
{"geometry": {"coordinates": [-91.636338429, 42.004061078], "type": "Point"}, "id": "Tl9zafqWkl_a3KqVGGRznzPRa90=", "properties": {"@source_uri": "https://tools.usps.com/UspsToolsRestServices/rest/POLocator/findLocations", "@spider": "usps_collection_boxes", "addr:city": "CEDAR RAPIDS", "addr:country": "US", "addr:full": "2720 A AVE NE", "addr:postcode": "52402", "addr:state": "IA", "amenity": "post_box", "brand": "United States Postal Service", "brand:wikidata": "Q668687", "collection_times": "Mo-Fr 15:30; Sa 12:00", "note": "ON 12/24 AND 12/31, THIS BOX MAY BE COLLECTED AS EARLY AS 12 NOON.", "nsi_id": "unitedstatespostalservice-a77078", "operator": "United States Postal Service", "operator:short": "USPS", "operator:type": "public", "operator:wikidata": "Q668687", "ref": "5240200067"}, "type": "Feature"}
{"geometry": {"coordinates": [-91.634926487, 42.015772448], "type": "Point"}, "id": "990h5KQmrkdVXj8W2ezBSQ2jv6g=", "properties": {"@source_uri": "https://tools.usps.com/UspsToolsRestServices/rest/POLocator/findLocations", "@spider": "usps_collection_boxes", "addr:city": "CEDAR RAPIDS", "addr:country": "US", "addr:full": "3649 1ST AVE SE", "addr:postcode": "52402", "addr:state": "IA", "amenity": "post_box", "brand": "United States Postal Service", "brand:wikidata": "Q668687", "collection_times": "Mo-Fr 13:30; Sa 10:00", "note": "ON 12/24 AND 12/31, THIS BOX MAY BE COLLECTED AS EARLY AS 12 NOON.", "nsi_id": "unitedstatespostalservice-a77078", "operator": "United States Postal Service", "operator:short": "USPS", "operator:type": "public", "operator:wikidata": "Q668687", "ref": "5240200071"}, "type": "Feature"}
{"geometry": {"coordinates": [-91.627054939, 42.02294891], "type": "Point"}, "id": "4_xEF-RIW3PFj_uxiImvRAFpaz8=", "properties": {"@source_uri": "https://tools.usps.com/UspsToolsRestServices/rest/POLocator/findLocations", "@spider": "usps_collection_boxes", "addr:city": "CEDAR RAPIDS", "addr:country": "US", "addr:full": "4403 1ST AVE SE", "addr:postcode": "52402", "addr:state": "IA", "amenity": "post_box", "brand": "United States Postal Service", "brand:wikidata": "Q668687", "collection_times": "Mo-Fr 12:00; Sa 11:00", "nsi_id": "unitedstatespostalservice-a77078", "operator": "United States Postal Service", "operator:short": "USPS", "operator:type": "public", "operator:wikidata": "Q668687", "ref": "5240200072"}, "type": "Feature"}
{"geometry": {"coordinates": [-91.656960663, 42.038149469], "type": "Point"}, "id": "6BeZADxCKY1Uuh7zeaGiNrTFn8c=", "properties": {"@source_uri": "https://tools.usps.com/UspsToolsRestServices/rest/POLocator/findLocations", "@spider": "usps_collection_boxes", "addr:city": "CEDAR RAPIDS", "addr:country": "US", "addr:full": "1380 60TH ST NE", "addr:postcode": "52402", "addr:state": "IA", "amenity": "post_box", "brand": "United States Postal Service", "brand:wikidata": "Q668687", "collection_times": "Mo-Fr 17:30; Sa 16:00", "indoor": "yes", "note": "ON 12/24 AND 12/31, THIS BOX MAY BE COLLECTED AS EARLY AS 12 NOON.", "nsi_id": "unitedstatespostalservice-a77078", "operator": "United States Postal Service", "operator:short": "USPS", "operator:type": "public", "operator:wikidata": "Q668687", "ref": "5240200089"}, "type": "Feature"}
{"geometry": {"coordinates": [-91.657580778, 42.010392454], "type": "Point"}, "id": "Z5AmW3SPxeRsGUUEFTIXELJEMTw=", "properties": {"@source_uri": "https://tools.usps.com/UspsToolsRestServices/rest/POLocator/findLocations", "@spider": "usps_collection_boxes", "addr:city": "CEDAR RAPIDS", "addr:country": "US", "addr:full": "1440 32ND ST NE", "addr:postcode": "52402", "addr:state": "IA", "amenity": "post_box", "brand": "United States Postal Service", "brand:wikidata": "Q668687", "collection_times": "Mo-Sa 14:00", "note": "ON 12/24 AND 12/31, THIS BOX MAY BE COLLECTED AS EARLY AS 12 NOON.", "nsi_id": "unitedstatespostalservice-a77078", "operator": "United States Postal Service", "operator:short": "USPS", "operator:type": "public", "operator:wikidata": "Q668687", "ref": "5240200097"}, "type": "Feature"}
{"geometry": {"coordinates": [-91.645229313, 41.992262508], "type": "Point"}, "id": "cPt0HlXRmO6zwnX4hK5lxHNcuJo=", "properties": {"@source_uri": "https://tools.usps.com/UspsToolsRestServices/rest/POLocator/findLocations", "@spider": "usps_collection_boxes", "addr:city": "CEDAR RAPIDS", "addr:country": "US", "addr:full": "1840 1ST AVE NE", "addr:postcode": "52402", "addr:state": "IA", "amenity": "post_box", "brand": "United States Postal Service", "brand:wikidata": "Q668687", "collection_times": "Mo-Fr 14:30; Sa 10:30", "note": "ON 12/24 AND 12/31, THIS BOX MAY BE COLLECTED AS EARLY AS 12 NOON.", "nsi_id": "unitedstatespostalservice-a77078", "operator": "United States Postal Service", "operator:short": "USPS", "operator:type": "public", "operator:wikidata": "Q668687", "ref": "5240200099"}, "type": "Feature"}
{"geometry": {"coordinates": [-91.634763603, 42.005609392], "type": "Point"}, "id": "_wp3W4lYNK7yCt8bg7DEqVEuipE=", "properties": {"@source_uri": "https://tools.usps.com/UspsToolsRestServices/rest/POLocator/findLocations", "@spider": "usps_collection_boxes", "addr:city": "CEDAR RAPIDS", "addr:country": "US", "addr:full": "2821 1ST AVE SE", "addr:postcode": "52402", "addr:state": "IA", "amenity": "post_box", "brand": "United States Postal Service", "brand:wikidata": "Q668687", "collection_times": "Mo-Fr 15:00; Sa 10:00", "note": "ON 12/24 AND 12/31, THIS BOX MAY BE COLLECTED AS EARLY AS 12 NOON.", "nsi_id": "unitedstatespostalservice-a77078", "operator": "United States Postal Service", "operator:short": "USPS", "operator:type": "public", "operator:wikidata": "Q668687", "ref": "5240200100"}, "type": "Feature"}
{"geometry": {"coordinates": [-91.655686113, 42.069329181], "type": "Point"}, "id": "Ax0k679ft1usqrzrUWuMTo0aVxI=", "properties": {"@source_uri": "https://tools.usps.com/UspsToolsRestServices/rest/POLocator/findLocations", "@spider": "usps_collection_boxes", "addr:city": "CEDAR RAPIDS", "addr:country": "US", "addr:full": "101 ROBINS SQUARE CT", "addr:postcode": "52402", "addr:state": "IA", "amenity": "post_box", "brand": "United States Postal Service", "brand:wikidata": "Q668687", "collection_times": "Mo-Sa 12:00", "nsi_id": "unitedstatespostalservice-a77078", "operator": "United States Postal Service", "operator:short": "USPS", "operator:type": "public", "operator:wikidata": "Q668687", "ref": "5240200108"}, "type": "Feature"}
{"geometry": {"coordinates": [-91.656960663, 42.038149469], "type": "Point"}, "id": "DXcWR4dmSm-mgrxGFoDoQd026Jw=", "properties": {"@source_uri": "https://tools.usps.com/UspsToolsRestServices/rest/POLocator/findLocations", "@spider": "usps_collection_boxes", "addr:city": "CEDAR RAPIDS", "addr:country": "US", "addr:full": "1380 60TH ST NE", "addr:postcode": "52402", "addr:state": "IA", "amenity": "post_box", "brand": "United States Postal Service", "brand:wikidata": "Q668687", "collection_times": "Mo-Fr 17:30; Sa 16:00", "name": "USPS COLLECTION BOX - APC", "note": "ON 12/24 AND 12/31, THIS BOX MAY BE COLLECTED AS EARLY AS 12 NOON.", "nsi_id": "unitedstatespostalservice-a77078", "operator": "United States Postal Service", "operator:short": "USPS", "operator:type": "public", "operator:wikidata": "Q668687", "ref": "5240200112"}, "type": "Feature"}
{"geometry": {"coordinates": [-91.656960663, 42.038149469], "type": "Point"}, "id": "Yqfw24B4cZT2-idaQLKf6x0iAY0=", "properties": {"@source_uri": "https://tools.usps.com/UspsToolsRestServices/rest/POLocator/findLocations", "@spider": "usps_collection_boxes", "addr:city": "CEDAR RAPIDS", "addr:country": "US", "addr:full": "1380 60TH ST NE", "addr:postcode": "52402", "addr:state": "IA", "amenity": "post_box", "brand": "United States Postal Service", "brand:wikidata": "Q668687", "collection_times": "Mo-Fr 17:00; Sa 12:00", "indoor": "yes", "note": "ON 12/24 AND 12/31, THIS BOX MAY BE COLLECTED AS EARLY AS 12 NOON.", "nsi_id": "unitedstatespostalservice-a77078", "operator": "United States Postal Service", "operator:short": "USPS", "operator:type": "public", "operator:wikidata": "Q668687", "ref": "5240200122"}, "type": "Feature"}
{"geometry": {"coordinates": [-91.625413453, 41.984206533], "type": "Point"}, "id": "yYiYCCHgv31pBW49lYUs4Wb2tzE=", "properties": {"@source_uri": "https://tools.usps.com/UspsToolsRestServices/rest/POLocator/findLocations", "@spider": "usps_collection_boxes", "addr:city": "CEDAR RAPIDS", "addr:country": "US", "addr:full": "2750 BEVER AVE SE", "addr:postcode": "52403", "addr:state": "IA", "amenity": "post_box", "brand": "United States Postal Service", "brand:wikidata": "Q668687", "collection_times": "Mo-Sa 14:00", "note": "ON 12/24 AND 12/31, THIS BOX MAY BE COLLECTED AS EARLY AS 12 NOON.", "nsi_id": "unitedstatespostalservice-a77078", "operator": "United States Postal Service", "operator:short": "USPS", "operator:type": "public", "operator:wikidata": "Q668687", "ref": "5240300001"}, "type": "Feature"}
{"geometry": {"coordinates": [-91.606977713, 41.986248555], "type": "Point"}, "id": "EraxOqdLd9Hf97jFWF3w3U07fQY=", "properties": {"@source_uri": "https://tools.usps.com/UspsToolsRestServices/rest/POLocator/findLocations", "@spider": "usps_collection_boxes", "addr:city": "CEDAR RAPIDS", "addr:country": "US", "addr:full": "4230 TRAILRIDGE RD SE", "addr:postcode": "52403", "addr:state": "IA", "amenity": "post_box", "brand": "United States Postal Service", "brand:wikidata": "Q668687", "collection_times": "Mo-Sa 13:00", "note": "ON 12/24 AND 12/31, THIS BOX MAY BE COLLECTED AS EARLY AS 12 NOON.", "nsi_id": "unitedstatespostalservice-a77078", "operator": "United States Postal Service", "operator:short": "USPS", "operator:type": "public", "operator:wikidata": "Q668687", "ref": "5240300002"}, "type": "Feature"}
{"geometry": {"coordinates": [-91.629266646, 41.971029233], "type": "Point"}, "id": "DwWdJHPZCPMlLbv5Odu4s2N-AuA=", "properties": {"@source_uri": "https://tools.usps.com/UspsToolsRestServices/rest/POLocator/findLocations", "@spider": "usps_collection_boxes", "addr:city": "CEDAR RAPIDS", "addr:country": "US", "addr:full": "1449 MEMORIAL DR SE", "addr:postcode": "52403", "addr:state": "IA", "amenity": "post_box", "brand": "United States Postal Service", "brand:wikidata": "Q668687", "collection_times": "Mo-Sa 11:00", "nsi_id": "unitedstatespostalservice-a77078", "operator": "United States Postal Service", "operator:short": "USPS", "operator:type": "public", "operator:wikidata": "Q668687", "ref": "5240300008"}, "type": "Feature"}
{"geometry": {"coordinates": [-91.633230251, 41.976938517], "type": "Point"}, "id": "fNTyqprzuC-lNrB8FG234HdehZY=", "properties": {"@source_uri": "https://tools.usps.com/UspsToolsRestServices/rest/POLocator/findLocations", "@spider": "usps_collection_boxes", "addr:city": "CEDAR RAPIDS", "addr:country": "US", "addr:full": "2325 MOUNT VERNON RD SE", "addr:postcode": "52403", "addr:state": "IA", "amenity": "post_box", "brand": "United States Postal Service", "brand:wikidata": "Q668687", "collection_times": "Mo-Sa 13:00", "note": "ON 12/24 AND 12/31, THIS BOX MAY BE COLLECTED AS EARLY AS 12 NOON.", "nsi_id": "unitedstatespostalservice-a77078", "operator": "United States Postal Service", "operator:short": "USPS", "operator:type": "public", "operator:wikidata": "Q668687", "ref": "5240300009"}, "type": "Feature"}
{"geometry": {"coordinates": [-91.618391626, 41.976782747], "type": "Point"}, "id": "ZBSJK8ikePm7MfmdEeS8mx9qyFQ=", "properties": {"@source_uri": "https://tools.usps.com/UspsToolsRestServices/rest/POLocator/findLocations", "@spider": "usps_collection_boxes", "addr:city": "CEDAR RAPIDS", "addr:country": "US", "addr:full": "900 34TH STREET SE", "addr:postcode": "52403", "addr:state": "IA", "amenity": "post_box", "brand": "United States Postal Service", "brand:wikidata": "Q668687", "collection_times": "Mo-Sa 14:30", "note": "ON 12/24 AND 12/31, THIS BOX MAY BE COLLECTED AS EARLY AS 12 NOON.", "nsi_id": "unitedstatespostalservice-a77078", "operator": "United States Postal Service", "operator:short": "USPS", "operator:type": "public", "operator:wikidata": "Q668687", "ref": "5240300010"}, "type": "Feature"}
{"geometry": {"coordinates": [-91.652137993, 41.985581764], "type": "Point"}, "id": "lbnI7TWKY7CZqsJJWg-Vaf-7KK0=", "properties": {"@source_uri": "https://tools.usps.com/UspsToolsRestServices/rest/POLocator/findLocations", "@spider": "usps_collection_boxes", "addr:city": "CEDAR RAPIDS", "addr:country": "US", "addr:full": "1400 3RD AVE SE", "addr:postcode": "52403", "addr:state": "IA", "amenity": "post_box", "brand": "United States Postal Service", "brand:wikidata": "Q668687", "collection_times": "Mo-Sa 12:30", "note": "ON 12/24 AND 12/31, THIS BOX MAY BE COLLECTED AS EARLY AS 12 NOON.", "nsi_id": "unitedstatespostalservice-a77078", "operator": "United States Postal Service", "operator:short": "USPS", "operator:type": "public", "operator:wikidata": "Q668687", "ref": "5240300020"}, "type": "Feature"}
{"geometry": {"coordinates": [-91.656681497, 41.980322419], "type": "Point"}, "id": "CD_j6gXjvrnuGNHgY1M_PyV3h1I=", "properties": {"@source_uri": "https://tools.usps.com/UspsToolsRestServices/rest/POLocator/findLocations", "@spider": "usps_collection_boxes", "addr:city": "CEDAR RAPIDS", "addr:country": "US", "addr:full": "900 5TH AVE SE", "addr:postcode": "52403", "addr:state": "IA", "amenity": "post_box", "brand": "United States Postal Service", "brand:wikidata": "Q668687", "collection_times": "Mo-Fr 13:00; Sa 12:00", "note": "ON 12/24 AND 12/31, THIS BOX MAY BE COLLECTED AS EARLY AS 12 NOON.", "nsi_id": "unitedstatespostalservice-a77078", "operator": "United States Postal Service", "operator:short": "USPS", "operator:type": "public", "operator:wikidata": "Q668687", "ref": "5240300027"}, "type": "Feature"}
{"geometry": {"coordinates": [-91.660949331, 41.981773737], "type": "Point"}, "id": "kZ_Kk0MoaOEwKAHztkLWBfan0tw=", "properties": {"@source_uri": "https://tools.usps.com/UspsToolsRestServices/rest/POLocator/findLocations", "@spider": "usps_collection_boxes", "addr:city": "CEDAR RAPIDS", "addr:country": "US", "addr:full": "803 2ND AVE SE", "addr:postcode": "52403", "addr:state": "IA", "amenity": "post_box", "brand": "United States Postal Service", "brand:wikidata": "Q668687", "collection_times": "Mo-Fr 12:00; Sa 10:00", "nsi_id": "unitedstatespostalservice-a77078", "operator": "United States Postal Service", "operator:short": "USPS", "operator:type": "public", "operator:wikidata": "Q668687", "ref": "5240300042"}, "type": "Feature"}
{"geometry": {"coordinates": [-91.65857103, 41.955880488], "type": "Point"}, "id": "9ipIvXldX6GTztFD6WRe_kYzPbY=", "properties": {"@source_uri": "https://tools.usps.com/UspsToolsRestServices/rest/POLocator/findLocations", "@spider": "usps_collection_boxes", "addr:city": "CEDAR RAPIDS", "addr:country": "US", "addr:full": "20 WILSON AVE SW", "addr:postcode": "52404", "addr:state": "IA", "amenity": "post_box", "brand": "United States Postal Service", "brand:wikidata": "Q668687", "collection_times": "Mo-Sa 13:00", "note": "ON 12/24 AND 12/31, THIS BOX MAY BE COLLECTED AS EARLY AS 12 NOON.", "nsi_id": "unitedstatespostalservice-a77078", "operator": "United States Postal Service", "operator:short": "USPS", "operator:type": "public", "operator:wikidata": "Q668687", "ref": "5240400017"}, "type": "Feature"}
{"geometry": {"coordinates": [-91.662738644, 41.963072848], "type": "Point"}, "id": "-adkaFWC1ESM1AeOcpu5du6Z-lU=", "properties": {"@source_uri": "https://tools.usps.com/UspsToolsRestServices/rest/POLocator/findLocations", "@spider": "usps_collection_boxes", "addr:city": "CEDAR RAPIDS", "addr:country": "US", "addr:full": "129 16TH AVE SW", "addr:postcode": "52404", "addr:state": "IA", "amenity": "post_box", "brand": "United States Postal Service", "brand:wikidata": "Q668687", "collection_times": "Mo-Sa 14:30", "note": "ON 12/24 AND 12/31, THIS BOX MAY BE COLLECTED AS EARLY AS 12 NOON.", "nsi_id": "unitedstatespostalservice-a77078", "operator": "United States Postal Service", "operator:short": "USPS", "operator:type": "public", "operator:wikidata": "Q668687", "ref": "5240400034"}, "type": "Feature"}
{"geometry": {"coordinates": [-91.673879188, 41.945074596], "type": "Point"}, "id": "FBKDGB1M4FwTLTo5WcIctAc_8So=", "properties": {"@source_uri": "https://tools.usps.com/UspsToolsRestServices/rest/POLocator/findLocations", "@spider": "usps_collection_boxes", "addr:city": "CEDAR RAPIDS", "addr:country": "US", "addr:full": "3260 SOUTHGATE PL SW", "addr:postcode": "52404", "addr:state": "IA", "amenity": "post_box", "brand": "United States Postal Service", "brand:wikidata": "Q668687", "collection_times": "Mo-Fr 11:00; Sa 10:00", "nsi_id": "unitedstatespostalservice-a77078", "operator": "United States Postal Service", "operator:short": "USPS", "operator:type": "public", "operator:wikidata": "Q668687", "ref": "5240400040"}, "type": "Feature"}
{"geometry": {"coordinates": [-91.676722129, 41.948491284], "type": "Point"}, "id": "fkAECIWG92ehaa17rhEaYuTVgIE=", "properties": {"@source_uri": "https://tools.usps.com/UspsToolsRestServices/rest/POLocator/findLocations", "@spider": "usps_collection_boxes", "addr:city": "CEDAR RAPIDS", "addr:country": "US", "addr:full": "2981 6TH ST SW", "addr:postcode": "52404", "addr:state": "IA", "amenity": "post_box", "brand": "United States Postal Service", "brand:wikidata": "Q668687", "collection_times": "Mo-Sa 12:00", "nsi_id": "unitedstatespostalservice-a77078", "operator": "United States Postal Service", "operator:short": "USPS", "operator:type": "public", "operator:wikidata": "Q668687", "ref": "5240400047"}, "type": "Feature"}
{"geometry": {"coordinates": [-91.663095, 41.95957], "type": "Point"}, "id": "7SXBqdjWG4aaBrIKYlsLWZSGV9U=", "properties": {"@source_uri": "https://tools.usps.com/UspsToolsRestServices/rest/POLocator/findLocations", "@spider": "usps_collection_boxes", "addr:city": "CEDAR RAPIDS", "addr:country": "US", "addr:full": "1930 WILEY BLVD SW", "addr:postcode": "52404", "addr:state": "IA", "amenity": "post_box", "brand": "United States Postal Service", "brand:wikidata": "Q668687", "collection_times": "Mo-Fr 17:30; Sa 17:00", "note": "ON 12/24 AND 12/31, THIS BOX MAY BE COLLECTED AS EARLY AS 12 NOON.", "nsi_id": "unitedstatespostalservice-a77078", "operator": "United States Postal Service", "operator:short": "USPS", "operator:type": "public", "operator:wikidata": "Q668687", "ref": "5240400061"}, "type": "Feature"}
{"geometry": {"coordinates": [-91.725889938, 41.960853388], "type": "Point"}, "id": "O8mPjaEe-4cgQRjRx4AsEONeSb0=", "properties": {"@source_uri": "https://tools.usps.com/UspsToolsRestServices/rest/POLocator/findLocations", "@spider": "usps_collection_boxes", "addr:city": "CEDAR RAPIDS", "addr:country": "US", "addr:full": "1930 WILEY BLVD SW", "addr:postcode": "52404", "addr:state": "IA", "amenity": "post_box", "brand": "United States Postal Service", "brand:wikidata": "Q668687", "collection_times": "Mo-Fr 17:30; Sa 15:15", "indoor": "yes", "note": "ON 12/24 AND 12/31, THIS BOX MAY BE COLLECTED AS EARLY AS 12 NOON.", "nsi_id": "unitedstatespostalservice-a77078", "operator": "United States Postal Service", "operator:short": "USPS", "operator:type": "public", "operator:wikidata": "Q668687", "ref": "5240400066"}, "type": "Feature"}
{"geometry": {"coordinates": [-91.663095, 41.95957], "type": "Point"}, "id": "Buy1OW0f4epDHLR8evO5HDmXJRw=", "properties": {"@source_uri": "https://tools.usps.com/UspsToolsRestServices/rest/POLocator/findLocations", "@spider": "usps_collection_boxes", "addr:city": "CEDAR RAPIDS", "addr:country": "US", "addr:full": "1899 1ST AVE SW", "addr:postcode": "52404", "addr:state": "IA", "amenity": "post_box", "brand": "United States Postal Service", "brand:wikidata": "Q668687", "collection_times": "Mo-Sa 09:00", "nsi_id": "unitedstatespostalservice-a77078", "operator": "United States Postal Service", "operator:short": "USPS", "operator:type": "public", "operator:wikidata": "Q668687", "ref": "5240400069"}, "type": "Feature"}
{"geometry": {"coordinates": [-91.676367397, 41.914035], "type": "Point"}, "id": "rFTJ4ZK5eM1WDlmjRmAUZ5A_v04=", "properties": {"@source_uri": "https://tools.usps.com/UspsToolsRestServices/rest/POLocator/findLocations", "@spider": "usps_collection_boxes", "addr:city": "CEDAR RAPIDS", "addr:country": "US", "addr:full": "6622 6TH ST SW", "addr:postcode": "52404", "addr:state": "IA", "amenity": "post_box", "brand": "United States Postal Service", "brand:wikidata": "Q668687", "collection_times": "Mo-Fr 10:00", "nsi_id": "unitedstatespostalservice-a77078", "operator": "United States Postal Service", "operator:short": "USPS", "operator:type": "public", "operator:wikidata": "Q668687", "ref": "5240400070"}, "type": "Feature"}
{"geometry": {"coordinates": [-91.748457874, 41.960193685], "type": "Point"}, "id": "gPu-j-yZ-x81xsjH7QPHh7TBr0s=", "properties": {"@source_uri": "https://tools.usps.com/UspsToolsRestServices/rest/POLocator/findLocations", "@spider": "usps_collection_boxes", "addr:city": "CEDAR RAPIDS", "addr:country": "US", "addr:full": "1834 GRETCHEN DR SW", "addr:postcode": "52404", "addr:state": "IA", "amenity": "post_box", "brand": "United States Postal Service", "brand:wikidata": "Q668687", "collection_times": "Mo-Sa 09:30", "nsi_id": "unitedstatespostalservice-a77078", "operator": "United States Postal Service", "operator:short": "USPS", "operator:type": "public", "operator:wikidata": "Q668687", "ref": "5240400072"}, "type": "Feature"}
{"geometry": {"coordinates": [-91.718241123, 41.949192503], "type": "Point"}, "id": "HdStko71e1VpCw44G79mvQXoSRM=", "properties": {"@source_uri": "https://tools.usps.com/UspsToolsRestServices/rest/POLocator/findLocations", "@spider": "usps_collection_boxes", "addr:city": "CEDAR RAPIDS", "addr:country": "US", "addr:full": "3601 29TH AVE SW", "addr:postcode": "52404", "addr:state": "IA", "amenity": "post_box", "brand": "United States Postal Service", "brand:wikidata": "Q668687", "collection_times": "Mo-Sa 10:00", "nsi_id": "unitedstatespostalservice-a77078", "operator": "United States Postal Service", "operator:short": "USPS", "operator:type": "public", "operator:wikidata": "Q668687", "ref": "5240400075"}, "type": "Feature"}
{"geometry": {"coordinates": [-91.677109773, 41.962328591], "type": "Point"}, "id": "FuNEEeD6xoeThuABzig8gWmnPHQ=", "properties": {"@source_uri": "https://tools.usps.com/UspsToolsRestServices/rest/POLocator/findLocations", "@spider": "usps_collection_boxes", "addr:city": "CEDAR RAPIDS", "addr:country": "US", "addr:full": "1520 6TH ST SW", "addr:postcode": "52404", "addr:state": "IA", "amenity": "post_box", "brand": "United States Postal Service", "brand:wikidata": "Q668687", "collection_times": "Mo-Sa 09:00", "nsi_id": "unitedstatespostalservice-a77078", "operator": "United States Postal Service", "operator:short": "USPS", "operator:type": "public", "operator:wikidata": "Q668687", "ref": "5240400077"}, "type": "Feature"}
{"geometry": {"coordinates": [-91.725889938, 41.960853388], "type": "Point"}, "id": "F4S11J702VwAl6DK6MWWjbg3opc=", "properties": {"@source_uri": "https://tools.usps.com/UspsToolsRestServices/rest/POLocator/findLocations", "@spider": "usps_collection_boxes", "addr:city": "CEDAR RAPIDS", "addr:country": "US", "addr:full": "1930 WILEY BLVD SW", "addr:postcode": "52404", "addr:state": "IA", "amenity": "post_box", "brand": "United States Postal Service", "brand:wikidata": "Q668687", "collection_times": "Mo-Fr 17:00; Sa 12:00", "indoor": "yes", "note": "ON 12/24 AND 12/31, THIS BOX MAY BE COLLECTED AS EARLY AS 12 NOON.", "nsi_id": "unitedstatespostalservice-a77078", "operator": "United States Postal Service", "operator:short": "USPS", "operator:type": "public", "operator:wikidata": "Q668687", "ref": "5240400085"}, "type": "Feature"}
{"geometry": {"coordinates": [-91.699999335, 42.004535257], "type": "Point"}, "id": "4qzegnnA0yZqnRirBRrwaaWZSfA=", "properties": {"@source_uri": "https://tools.usps.com/UspsToolsRestServices/rest/POLocator/findLocations", "@spider": "usps_collection_boxes", "addr:city": "CEDAR RAPIDS", "addr:country": "US", "addr:full": "2200 BUCKINGHAM DR NW", "addr:postcode": "52405", "addr:state": "IA", "amenity": "post_box", "brand": "United States Postal Service", "brand:wikidata": "Q668687", "collection_times": "Mo-Sa 10:30", "nsi_id": "unitedstatespostalservice-a77078", "operator": "United States Postal Service", "operator:short": "USPS", "operator:type": "public", "operator:wikidata": "Q668687", "ref": "5240500003"}, "type": "Feature"}
{"geometry": {"coordinates": [-91.716069359, 41.974572359], "type": "Point"}, "id": "2h5k9jgUvnt6Dx7yq4bKqwCxZTU=", "properties": {"@source_uri": "https://tools.usps.com/UspsToolsRestServices/rest/POLocator/findLocations", "@spider": "usps_collection_boxes", "addr:city": "CEDAR RAPIDS", "addr:country": "US", "addr:full": "300 EDGEWOOD RD NW", "addr:postcode": "52405", "addr:state": "IA", "amenity": "post_box", "brand": "United States Postal Service", "brand:wikidata": "Q668687", "collection_times": "Mo-Sa 13:00", "note": "ON 12/24 AND 12/31, THIS BOX MAY BE COLLECTED AS EARLY AS 12 NOON.", "nsi_id": "unitedstatespostalservice-a77078", "operator": "United States Postal Service", "operator:short": "USPS", "operator:type": "public", "operator:wikidata": "Q668687", "ref": "5240500006"}, "type": "Feature"}
{"geometry": {"coordinates": [-91.733391093, 41.968348424], "type": "Point"}, "id": "9eKn4o6HFctde4m-CrpjkH1hBFk=", "properties": {"@source_uri": "https://tools.usps.com/UspsToolsRestServices/rest/POLocator/findLocations", "@spider": "usps_collection_boxes", "addr:city": "CEDAR RAPIDS", "addr:country": "US", "addr:full": "4825 JOHNSON AVE NW", "addr:postcode": "52405", "addr:state": "IA", "amenity": "post_box", "brand": "United States Postal Service", "brand:wikidata": "Q668687", "collection_times": "Mo-Sa 09:00", "nsi_id": "unitedstatespostalservice-a77078", "operator": "United States Postal Service", "operator:short": "USPS", "operator:type": "public", "operator:wikidata": "Q668687", "ref": "5240500041"}, "type": "Feature"}
{"geometry": {"coordinates": [-91.697943861, 41.974446473], "type": "Point"}, "id": "y9nQ6Ilqdo7P824i9zL984ZLRVs=", "properties": {"@source_uri": "https://tools.usps.com/UspsToolsRestServices/rest/POLocator/findLocations", "@spider": "usps_collection_boxes", "addr:city": "CEDAR RAPIDS", "addr:country": "US", "addr:full": "1843 JOHNSON AVE NW", "addr:postcode": "52405", "addr:state": "IA", "amenity": "post_box", "brand": "United States Postal Service", "brand:wikidata": "Q668687", "collection_times": "Mo-Sa 10:00", "nsi_id": "unitedstatespostalservice-a77078", "operator": "United States Postal Service", "operator:short": "USPS", "operator:type": "public", "operator:wikidata": "Q668687", "ref": "5240500042"}, "type": "Feature"}
