{"geometry": {"coordinates": [-92.411733118, 41.018610352], "type": "Point"}, "id": "oowm6JNbYex8pA_l_ztivJGY9g8=", "properties": {"@source_uri": "https://tools.usps.com/UspsToolsRestServices/rest/POLocator/findLocations", "@spider": "usps_collection_boxes", "addr:city": "OTTUMWA", "addr:country": "US", "addr:postcode": "52501", "addr:state": "IA", "addr:street_address": "107 E 2ND ST", "amenity": "post_box", "collection_times": "Mo-Fr 11:00; Sa 14:30", "note": "ON 12/24 AND 12/31, THIS BOX MAY BE COLLECTED AS EARLY AS 12 NOON.", "nsi_id": "unitedstatespostalservice-a77078", "operator": "United States Postal Service", "operator:short": "USPS", "operator:type": "public", "operator:wikidata": "Q668687", "ref": "5250100000"}, "type": "Feature"}
{"geometry": {"coordinates": [-92.410152561, 41.017417133], "type": "Point"}, "id": "plF_jes98p_jik-lEx-U_dpwOGc=", "properties": {"@source_uri": "https://tools.usps.com/UspsToolsRestServices/rest/POLocator/findLocations", "@spider": "usps_collection_boxes", "addr:city": "OTTUMWA", "addr:country": "US", "addr:postcode": "52501", "addr:state": "IA", "addr:street_address": "213 E 2ND ST", "amenity": "post_box", "collection_times": "Mo-Fr 11:00; Sa 14:30", "note": "ON 12/24 AND 12/31, THIS BOX MAY BE COLLECTED AS EARLY AS 12 NOON.", "nsi_id": "unitedstatespostalservice-a77078", "operator": "United States Postal Service", "operator:short": "USPS", "operator:type": "public", "operator:wikidata": "Q668687", "ref": "5250100001"}, "type": "Feature"}
{"geometry": {"coordinates": [-92.411343488, 41.01905833], "type": "Point"}, "id": "X1lEyvtALt9QoeBzGQCmMK_HekQ=", "properties": {"@source_uri": "https://tools.usps.com/UspsToolsRestServices/rest/POLocator/findLocations", "@spider": "usps_collection_boxes", "addr:city": "OTTUMWA", "addr:country": "US", "addr:postcode": "52501", "addr:state": "IA", "addr:street_address": "105 E 3RD ST", "amenity": "post_box", "collection_times": "Mo-Fr 11:00; Sa 09:00", "nsi_id": "unitedstatespostalservice-a77078", "operator": "United States Postal Service", "operator:short": "USPS", "operator:type": "public", "operator:wikidata": "Q668687", "ref": "5250100002"}, "type": "Feature"}
{"geometry": {"coordinates": [-92.410826419, 41.019749108], "type": "Point"}, "id": "97_i8591Dby2zTrnGs8C2i3KDiU=", "properties": {"@source_uri": "https://tools.usps.com/UspsToolsRestServices/rest/POLocator/findLocations", "@spider": "usps_collection_boxes", "addr:city": "OTTUMWA", "addr:country": "US", "addr:postcode": "52501", "addr:state": "IA", "addr:street_address": "101 W 4TH ST", "amenity": "post_box", "collection_times": "Mo-Fr 14:30; Sa 09:00", "note": "ON 12/24 AND 12/31, THIS BOX MAY BE COLLECTED AS EARLY AS 12 NOON.", "nsi_id": "unitedstatespostalservice-a77078", "operator": "United States Postal Service", "operator:short": "USPS", "operator:type": "public", "operator:wikidata": "Q668687", "ref": "5250100004"}, "type": "Feature"}
{"geometry": {"coordinates": [-92.429271, 40.994734488], "type": "Point"}, "id": "HLzH8NBTmZyNvsox55KmJOcJV9c=", "properties": {"@source_uri": "https://tools.usps.com/UspsToolsRestServices/rest/POLocator/findLocations", "@spider": "usps_collection_boxes", "addr:city": "OTTUMWA", "addr:country": "US", "addr:postcode": "52501", "addr:state": "IA", "addr:street_address": "504 W MARY ST", "amenity": "post_box", "collection_times": "Mo-Sa 14:30", "note": "ON 12/24 AND 12/31, THIS BOX MAY BE COLLECTED AS EARLY AS 12 NOON.", "nsi_id": "unitedstatespostalservice-a77078", "operator": "United States Postal Service", "operator:short": "USPS", "operator:type": "public", "operator:wikidata": "Q668687", "ref": "5250100007"}, "type": "Feature"}
{"geometry": {"coordinates": [-92.42064804, 41.007963111], "type": "Point"}, "id": "UMSy_Zk50GPQp_4aQ7JsMkFVUX0=", "properties": {"@source_uri": "https://tools.usps.com/UspsToolsRestServices/rest/POLocator/findLocations", "@spider": "usps_collection_boxes", "addr:city": "OTTUMWA", "addr:country": "US", "addr:postcode": "52501", "addr:state": "IA", "addr:street_address": "619 CHURCH ST", "amenity": "post_box", "collection_times": "Mo-Sa 14:30", "note": "ON 12/24 AND 12/31, THIS BOX MAY BE COLLECTED AS EARLY AS 12 NOON.", "nsi_id": "unitedstatespostalservice-a77078", "operator": "United States Postal Service", "operator:short": "USPS", "operator:type": "public", "operator:wikidata": "Q668687", "ref": "5250100008"}, "type": "Feature"}
{"geometry": {"coordinates": [-92.408147916, 41.049711524], "type": "Point"}, "id": "rZX-LdKidTk0Gbr6UC7GVKtgWlE=", "properties": {"@source_uri": "https://tools.usps.com/UspsToolsRestServices/rest/POLocator/findLocations", "@spider": "usps_collection_boxes", "addr:city": "OTTUMWA", "addr:country": "US", "addr:postcode": "52501", "addr:state": "IA", "addr:street_address": "2453 N COURT ST", "amenity": "post_box", "collection_times": "Mo-Sa 14:30", "note": "ON 12/24 AND 12/31, THIS BOX MAY BE COLLECTED AS EARLY AS 12 NOON.", "nsi_id": "unitedstatespostalservice-a77078", "operator": "United States Postal Service", "operator:short": "USPS", "operator:type": "public", "operator:wikidata": "Q668687", "ref": "5250100011"}, "type": "Feature"}
{"geometry": {"coordinates": [-92.4240825, 41.00213052], "type": "Point"}, "id": "m-oEUkErg30xeocY2dI5h2UtsRk=", "properties": {"@source_uri": "https://tools.usps.com/UspsToolsRestServices/rest/POLocator/findLocations", "@spider": "usps_collection_boxes", "addr:city": "OTTUMWA", "addr:country": "US", "addr:postcode": "52501", "addr:state": "IA", "addr:street_address": "102 W FINLEY AVE", "amenity": "post_box", "collection_times": "Mo-Sa 09:00", "nsi_id": "unitedstatespostalservice-a77078", "operator": "United States Postal Service", "operator:short": "USPS", "operator:type": "public", "operator:wikidata": "Q668687", "ref": "5250100013"}, "type": "Feature"}
{"geometry": {"coordinates": [-92.401495548, 41.026743419], "type": "Point"}, "id": "3g_jLU7czpSt0yWf5h7pwk8K-tc=", "properties": {"@source_uri": "https://tools.usps.com/UspsToolsRestServices/rest/POLocator/findLocations", "@spider": "usps_collection_boxes", "addr:city": "OTTUMWA", "addr:country": "US", "addr:postcode": "52501", "addr:state": "IA", "addr:street_address": "1140 N JEFFERSON ST", "amenity": "post_box", "collection_times": "Mo-Sa 14:30", "note": "ON 12/24 AND 12/31, THIS BOX MAY BE COLLECTED AS EARLY AS 12 NOON.", "nsi_id": "unitedstatespostalservice-a77078", "operator": "United States Postal Service", "operator:short": "USPS", "operator:type": "public", "operator:wikidata": "Q668687", "ref": "5250100015"}, "type": "Feature"}
{"geometry": {"coordinates": [-92.410466908, 40.999003659], "type": "Point"}, "id": "jbFH_gfdnyu3J9xBx6bXmMH59b8=", "properties": {"@source_uri": "https://tools.usps.com/UspsToolsRestServices/rest/POLocator/findLocations", "@spider": "usps_collection_boxes", "addr:city": "OTTUMWA", "addr:country": "US", "addr:postcode": "52501", "addr:state": "IA", "addr:street_address": "405 S MADISON AVE", "amenity": "post_box", "collection_times": "Mo-Sa 08:15", "nsi_id": "unitedstatespostalservice-a77078", "operator": "United States Postal Service", "operator:short": "USPS", "operator:type": "public", "operator:wikidata": "Q668687", "ref": "5250100016"}, "type": "Feature"}
{"geometry": {"coordinates": [-92.412115357, 41.017406122], "type": "Point"}, "id": "5G2Zdu-9THeHVMJUH7AR1GT2GYc=", "properties": {"@source_uri": "https://tools.usps.com/UspsToolsRestServices/rest/POLocator/findLocations", "@spider": "usps_collection_boxes", "addr:city": "OTTUMWA", "addr:country": "US", "addr:postcode": "52501", "addr:state": "IA", "addr:street_address": "120 E MAIN ST", "amenity": "post_box", "collection_times": "Mo-Fr 14:30", "note": "ON 12/24 AND 12/31, THIS BOX MAY BE COLLECTED AS EARLY AS 12 NOON.", "nsi_id": "unitedstatespostalservice-a77078", "operator": "United States Postal Service", "operator:short": "USPS", "operator:type": "public", "operator:wikidata": "Q668687", "ref": "5250100017"}, "type": "Feature"}
{"geometry": {"coordinates": [-92.405412398, 40.994742594], "type": "Point"}, "id": "_LHukeKQgjR_7sYHIETC1do65NE=", "properties": {"@source_uri": "https://tools.usps.com/UspsToolsRestServices/rest/POLocator/findLocations", "@spider": "usps_collection_boxes", "addr:city": "OTTUMWA", "addr:country": "US", "addr:postcode": "52501", "addr:state": "IA", "addr:street_address": "1316 E MARY ST", "amenity": "post_box", "collection_times": "Mo-Fr 09:30", "nsi_id": "unitedstatespostalservice-a77078", "operator": "United States Postal Service", "operator:short": "USPS", "operator:type": "public", "operator:wikidata": "Q668687", "ref": "5250100023"}, "type": "Feature"}
{"geometry": {"coordinates": [-92.398803047, 41.027534493], "type": "Point"}, "id": "v4L4kao_2ZRQzZkkrRZi70L2JDI=", "properties": {"@source_uri": "https://tools.usps.com/UspsToolsRestServices/rest/POLocator/findLocations", "@spider": "usps_collection_boxes", "addr:city": "OTTUMWA", "addr:country": "US", "addr:postcode": "52501", "addr:state": "IA", "addr:street_address": "641 PENNSYLVANIA AVE", "amenity": "post_box", "collection_times": "Mo-Fr 14:30; Sa 09:30", "note": "ON 12/24 AND 12/31, THIS BOX MAY BE COLLECTED AS EARLY AS 12 NOON.", "nsi_id": "unitedstatespostalservice-a77078", "operator": "United States Postal Service", "operator:short": "USPS", "operator:type": "public", "operator:wikidata": "Q668687", "ref": "5250100025"}, "type": "Feature"}
{"geometry": {"coordinates": [-92.3899399733, 41.027629986], "type": "Point"}, "id": "mB9r_G1PQustH23_SZRSYFLqeBg=", "properties": {"@source_uri": "https://tools.usps.com/UspsToolsRestServices/rest/POLocator/findLocations", "@spider": "usps_collection_boxes", "addr:city": "OTTUMWA", "addr:country": "US", "addr:postcode": "52501", "addr:state": "IA", "addr:street_address": "1001 PENNSYLVANIA AVE", "amenity": "post_box", "collection_times": "Mo-Sa 11:00", "nsi_id": "unitedstatespostalservice-a77078", "operator": "United States Postal Service", "operator:short": "USPS", "operator:type": "public", "operator:wikidata": "Q668687", "ref": "5250100026"}, "type": "Feature"}
{"geometry": {"coordinates": [-92.389810668, 41.027522489], "type": "Point"}, "id": "F2WTE58_7NA2g4RbX5ANEDNgwXA=", "properties": {"@source_uri": "https://tools.usps.com/UspsToolsRestServices/rest/POLocator/findLocations", "@spider": "usps_collection_boxes", "addr:city": "OTTUMWA", "addr:country": "US", "addr:postcode": "52501", "addr:state": "IA", "addr:street_address": "1005 PENNSYLVANIA AVE", "amenity": "post_box", "collection_times": "Mo-Fr 11:00", "nsi_id": "unitedstatespostalservice-a77078", "operator": "United States Postal Service", "operator:short": "USPS", "operator:type": "public", "operator:wikidata": "Q668687", "ref": "5250100027"}, "type": "Feature"}
{"geometry": {"coordinates": [-92.438488446, 41.0158075], "type": "Point"}, "id": "jFgRHJb4qxpGg36RVL6Ctpfwo38=", "properties": {"@source_uri": "https://tools.usps.com/UspsToolsRestServices/rest/POLocator/findLocations", "@spider": "usps_collection_boxes", "addr:city": "OTTUMWA", "addr:country": "US", "addr:postcode": "52501", "addr:state": "IA", "addr:street_address": "1025 N QUINCY AVE", "amenity": "post_box", "collection_times": "Mo-Sa 14:30", "note": "ON 12/24 AND 12/31, THIS BOX MAY BE COLLECTED AS EARLY AS 12 NOON.", "nsi_id": "unitedstatespostalservice-a77078", "operator": "United States Postal Service", "operator:short": "USPS", "operator:type": "public", "operator:wikidata": "Q668687", "ref": "5250100028"}, "type": "Feature"}
{"geometry": {"coordinates": [-92.413714802, 41.021828275], "type": "Point"}, "id": "l1-wXfgbDiHR5rbzmjnoMI390f8=", "properties": {"@source_uri": "https://tools.usps.com/UspsToolsRestServices/rest/POLocator/findLocations", "@spider": "usps_collection_boxes", "addr:city": "OTTUMWA", "addr:country": "US", "addr:postcode": "52501", "addr:state": "IA", "addr:street_address": "327 W 4TH ST", "amenity": "post_box", "collection_times": "Mo-Fr 14:30; Sa 11:00", "note": "ON 12/24 AND 12/31, THIS BOX MAY BE COLLECTED AS EARLY AS 12 NOON.", "nsi_id": "unitedstatespostalservice-a77078", "operator": "United States Postal Service", "operator:short": "USPS", "operator:type": "public", "operator:wikidata": "Q668687", "ref": "5250100030"}, "type": "Feature"}
{"geometry": {"coordinates": [-92.3829837347, 40.9872878183], "type": "Point"}, "id": "7ZAdv4J49ItCalTIEm8ULQ7onuI=", "properties": {"@source_uri": "https://tools.usps.com/UspsToolsRestServices/rest/POLocator/findLocations", "@spider": "usps_collection_boxes", "addr:city": "OTTUMWA", "addr:country": "US", "addr:postcode": "52501", "addr:state": "IA", "addr:street_address": "11620 RABBIT RUN RD", "amenity": "post_box", "collection_times": "Mo-Fr 09:30", "nsi_id": "unitedstatespostalservice-a77078", "operator": "United States Postal Service", "operator:short": "USPS", "operator:type": "public", "operator:wikidata": "Q668687", "ref": "5250100031"}, "type": "Feature"}
{"geometry": {"coordinates": [-92.412908649, 41.005572884], "type": "Point"}, "id": "gSFT5iPbSMYRexhywKsr4C9UEGU=", "properties": {"@source_uri": "https://tools.usps.com/UspsToolsRestServices/rest/POLocator/findLocations", "@spider": "usps_collection_boxes", "addr:city": "OTTUMWA", "addr:country": "US", "addr:postcode": "52501", "addr:state": "IA", "addr:street_address": "928 E VINE ST", "amenity": "post_box", "collection_times": "Mo-Sa 14:30", "note": "ON 12/24 AND 12/31, THIS BOX MAY BE COLLECTED AS EARLY AS 12 NOON.", "nsi_id": "unitedstatespostalservice-a77078", "operator": "United States Postal Service", "operator:short": "USPS", "operator:type": "public", "operator:wikidata": "Q668687", "ref": "5250100032"}, "type": "Feature"}
{"geometry": {"coordinates": [-92.438496906, 41.017095], "type": "Point"}, "id": "QasFf7-xgvzsjtSSNSKsU10nhc0=", "properties": {"@source_uri": "https://tools.usps.com/UspsToolsRestServices/rest/POLocator/findLocations", "@spider": "usps_collection_boxes", "addr:city": "OTTUMWA", "addr:country": "US", "addr:postcode": "52501", "addr:state": "IA", "addr:street_address": "1111 N QUINCY AVE", "amenity": "post_box", "collection_times": "Mo-Sa 14:30", "note": "ON 12/24 AND 12/31, THIS BOX MAY BE COLLECTED AS EARLY AS 12 NOON.", "nsi_id": "unitedstatespostalservice-a77078", "operator": "United States Postal Service", "operator:short": "USPS", "operator:type": "public", "operator:wikidata": "Q668687", "ref": "5250100036"}, "type": "Feature"}
{"geometry": {"coordinates": [-92.394415808, 41.04439236], "type": "Point"}, "id": "9q1qr0FWn6-lHIaux3wk3fpEJr8=", "properties": {"@source_uri": "https://tools.usps.com/UspsToolsRestServices/rest/POLocator/findLocations", "@spider": "usps_collection_boxes", "addr:city": "OTTUMWA", "addr:country": "US", "addr:postcode": "52501", "addr:state": "IA", "addr:street_address": "525 GRANDVIEW AVE", "amenity": "post_box", "collection_times": "Mo-Sa 09:30", "nsi_id": "unitedstatespostalservice-a77078", "operator": "United States Postal Service", "operator:short": "USPS", "operator:type": "public", "operator:wikidata": "Q668687", "ref": "5250100045"}, "type": "Feature"}
{"geometry": {"coordinates": [-92.418349779, 41.023342783], "type": "Point"}, "id": "jYiiqM-cqky16yk_Uo4AsqUT-38=", "properties": {"@source_uri": "https://tools.usps.com/UspsToolsRestServices/rest/POLocator/findLocations", "@spider": "usps_collection_boxes", "addr:city": "OTTUMWA", "addr:country": "US", "addr:postcode": "52501", "addr:state": "IA", "addr:street_address": "616 W 2ND ST", "amenity": "post_box", "collection_times": "Mo-Sa 17:00", "note": "ON 12/24 AND 12/31, THIS BOX MAY BE COLLECTED AS EARLY AS 12 NOON.", "nsi_id": "unitedstatespostalservice-a77078", "operator": "United States Postal Service", "operator:short": "USPS", "operator:type": "public", "operator:wikidata": "Q668687", "ref": "5250100046"}, "type": "Feature"}
{"geometry": {"coordinates": [-92.418349779, 41.023342783], "type": "Point"}, "id": "vuq1BFTue-1kzYrlCqyV9SNT8S4=", "properties": {"@source_uri": "https://tools.usps.com/UspsToolsRestServices/rest/POLocator/findLocations", "@spider": "usps_collection_boxes", "addr:city": "OTTUMWA", "addr:country": "US", "addr:postcode": "52501", "addr:state": "IA", "addr:street_address": "616 W 2ND ST", "amenity": "post_box", "collection_times": "Mo-Sa 17:00", "indoor": "yes", "note": "ON 12/24 AND 12/31, THIS BOX MAY BE COLLECTED AS EARLY AS 12 NOON.", "nsi_id": "unitedstatespostalservice-a77078", "operator": "United States Postal Service", "operator:short": "USPS", "operator:type": "public", "operator:wikidata": "Q668687", "ref": "5250100048"}, "type": "Feature"}
{"geometry": {"coordinates": [-92.411132512, 41.038286543], "type": "Point"}, "id": "3qm4gGp_GKtmFn-WYYNOgtw2DbM=", "properties": {"@source_uri": "https://tools.usps.com/UspsToolsRestServices/rest/POLocator/findLocations", "@spider": "usps_collection_boxes", "addr:city": "OTTUMWA", "addr:country": "US", "addr:postcode": "52501", "addr:state": "IA", "addr:street_address": "700 W ALTA VISTA AVE", "amenity": "post_box", "collection_times": "Mo-Sa 11:00", "nsi_id": "unitedstatespostalservice-a77078", "operator": "United States Postal Service", "operator:short": "USPS", "operator:type": "public", "operator:wikidata": "Q668687", "ref": "5250100050"}, "type": "Feature"}
{"geometry": {"coordinates": [-92.401608422, 41.010737706], "type": "Point"}, "id": "OO8bCom5bFnuMitjdyFTSYL-VLY=", "properties": {"@source_uri": "https://tools.usps.com/UspsToolsRestServices/rest/POLocator/findLocations", "@spider": "usps_collection_boxes", "addr:city": "OTTUMWA", "addr:country": "US", "addr:postcode": "52501", "addr:state": "IA", "addr:street_address": "1001 E MAIN ST", "amenity": "post_box", "collection_times": "Mo-Sa 14:30", "note": "ON 12/24 AND 12/31, THIS BOX MAY BE COLLECTED AS EARLY AS 12 NOON.", "nsi_id": "unitedstatespostalservice-a77078", "operator": "United States Postal Service", "operator:short": "USPS", "operator:type": "public", "operator:wikidata": "Q668687", "ref": "5250100052"}, "type": "Feature"}
{"geometry": {"coordinates": [-92.456483546, 41.014595057], "type": "Point"}, "id": "iwQNNMscF5P_o8NaMh3K9df8oHI=", "properties": {"@source_uri": "https://tools.usps.com/UspsToolsRestServices/rest/POLocator/findLocations", "@spider": "usps_collection_boxes", "addr:city": "OTTUMWA", "addr:country": "US", "addr:postcode": "52501", "addr:state": "IA", "addr:street_address": "1940 VENTURE DR", "amenity": "post_box", "collection_times": "Mo-Sa 12:30", "note": "ON 12/24 AND 12/31, THIS BOX MAY BE COLLECTED AS EARLY AS 12 NOON.", "nsi_id": "unitedstatespostalservice-a77078", "operator": "United States Postal Service", "operator:short": "USPS", "operator:type": "public", "operator:wikidata": "Q668687", "ref": "5250100053"}, "type": "Feature"}
{"geometry": {"coordinates": [-92.411570383, 41.060041476], "type": "Point"}, "id": "YY0dYkJhT5zZX0vFi-49OFvkbDM=", "properties": {"@source_uri": "https://tools.usps.com/UspsToolsRestServices/rest/POLocator/findLocations", "@spider": "usps_collection_boxes", "addr:city": "OTTUMWA", "addr:country": "US", "addr:postcode": "52501", "addr:state": "IA", "addr:street_address": "117 W ROCHESTER RD", "amenity": "post_box", "collection_times": "Mo-Sa 10:00", "nsi_id": "unitedstatespostalservice-a77078", "operator": "United States Postal Service", "operator:short": "USPS", "operator:type": "public", "operator:wikidata": "Q668687", "ref": "5250100055"}, "type": "Feature"}
{"geometry": {"coordinates": [-92.418349779, 41.023342783], "type": "Point"}, "id": "9yGtgIW3PD1UmKSKjG-QZbU2f8k=", "properties": {"@source_uri": "https://tools.usps.com/UspsToolsRestServices/rest/POLocator/findLocations", "@spider": "usps_collection_boxes", "addr:city": "OTTUMWA", "addr:country": "US", "addr:postcode": "52501", "addr:state": "IA", "addr:street_address": "616 W 2ND ST", "amenity": "post_box", "collection_times": "Mo-Fr 17:00; Sa 14:30", "indoor": "yes", "note": "ON 12/24 AND 12/31, THIS BOX MAY BE COLLECTED AS EARLY AS 12 NOON.", "nsi_id": "unitedstatespostalservice-a77078", "operator": "United States Postal Service", "operator:short": "USPS", "operator:type": "public", "operator:wikidata": "Q668687", "ref": "5250100056"}, "type": "Feature"}
{"geometry": {"coordinates": [-92.30652, 40.994896507], "type": "Point"}, "id": "btdjuus_ArLIfhHx0M3yoHrc2vM=", "properties": {"@source_uri": "https://tools.usps.com/UspsToolsRestServices/rest/POLocator/findLocations", "@spider": "usps_collection_boxes", "addr:city": "AGENCY", "addr:country": "US", "addr:postcode": "52530", "addr:state": "IA", "addr:street_address": "102 E MAIN ST", "amenity": "post_box", "collection_times": "Mo-Fr 16:45; Sa 13:45", "note": "ON 12/24 AND 12/31, THIS BOX MAY BE COLLECTED AS EARLY AS 12 NOON.", "nsi_id": "unitedstatespostalservice-a77078", "operator": "United States Postal Service", "operator:short": "USPS", "operator:type": "public", "operator:wikidata": "Q668687", "ref": "5253000000"}, "type": "Feature"}
{"geometry": {"coordinates": [-92.30652, 40.994896507], "type": "Point"}, "id": "apXt4W4-2dTMfF3bacyXNFs1Aa0=", "properties": {"@source_uri": "https://tools.usps.com/UspsToolsRestServices/rest/POLocator/findLocations", "@spider": "usps_collection_boxes", "addr:city": "AGENCY", "addr:country": "US", "addr:postcode": "52530", "addr:state": "IA", "addr:street_address": "102 E MAIN ST", "amenity": "post_box", "collection_times": "Mo-Fr 16:45; Sa 13:45", "indoor": "yes", "note": "ON 12/24 AND 12/31, THIS BOX MAY BE COLLECTED AS EARLY AS 12 NOON.", "nsi_id": "unitedstatespostalservice-a77078", "operator": "United States Postal Service", "operator:short": "USPS", "operator:type": "public", "operator:wikidata": "Q668687", "ref": "5253000001"}, "type": "Feature"}
{"geometry": {"coordinates": [-92.30652, 40.994896507], "type": "Point"}, "id": "5XSybialr4N_sJoyxEV6j3IfXbg=", "properties": {"@source_uri": "https://tools.usps.com/UspsToolsRestServices/rest/POLocator/findLocations", "@spider": "usps_collection_boxes", "addr:city": "AGENCY", "addr:country": "US", "addr:postcode": "52530", "addr:state": "IA", "addr:street_address": "102 E MAIN ST", "amenity": "post_box", "collection_times": "Mo-Fr 17:00; Sa 14:00", "indoor": "yes", "note": "ON 12/24 AND 12/31, THIS BOX MAY BE COLLECTED AS EARLY AS 12 NOON.", "nsi_id": "unitedstatespostalservice-a77078", "operator": "United States Postal Service", "operator:short": "USPS", "operator:type": "public", "operator:wikidata": "Q668687", "ref": "5253000002"}, "type": "Feature"}
{"geometry": {"coordinates": [-92.8076535, 41.027150504], "type": "Point"}, "id": "PwtnZ1heb8H5HOvbNiYcJtuKjzs=", "properties": {"@source_uri": "https://tools.usps.com/UspsToolsRestServices/rest/POLocator/findLocations", "@spider": "usps_collection_boxes", "addr:city": "ALBIA", "addr:country": "US", "addr:postcode": "52531", "addr:state": "IA", "addr:street_address": "13 BENTON AVE E", "amenity": "post_box", "collection_times": "Mo-Sa 14:00", "note": "ON 12/24 AND 12/31, THIS BOX MAY BE COLLECTED AS EARLY AS 12 NOON.", "nsi_id": "unitedstatespostalservice-a77078", "operator": "United States Postal Service", "operator:short": "USPS", "operator:type": "public", "operator:wikidata": "Q668687", "ref": "5253100004"}, "type": "Feature"}
{"geometry": {"coordinates": [-92.807590332, 41.026176503], "type": "Point"}, "id": "xMnyp9NBaQyHzF5ofMZdJzXRvEc=", "properties": {"@source_uri": "https://tools.usps.com/UspsToolsRestServices/rest/POLocator/findLocations", "@spider": "usps_collection_boxes", "addr:city": "ALBIA", "addr:country": "US", "addr:postcode": "52531", "addr:state": "IA", "addr:street_address": "14 WASHINGTON AVE E", "amenity": "post_box", "collection_times": "Mo-Sa 14:00", "note": "ON 12/24 AND 12/31, THIS BOX MAY BE COLLECTED AS EARLY AS 12 NOON.", "nsi_id": "unitedstatespostalservice-a77078", "operator": "United States Postal Service", "operator:short": "USPS", "operator:type": "public", "operator:wikidata": "Q668687", "ref": "5253100005"}, "type": "Feature"}
{"geometry": {"coordinates": [-92.809569926, 41.026945735], "type": "Point"}, "id": "wXmYOJWQKwBmk27e489tRSqmLgk=", "properties": {"@source_uri": "https://tools.usps.com/UspsToolsRestServices/rest/POLocator/findLocations", "@spider": "usps_collection_boxes", "addr:city": "ALBIA", "addr:country": "US", "addr:postcode": "52531", "addr:state": "IA", "addr:street_address": "16 S A ST", "amenity": "post_box", "collection_times": "Mo-Sa 17:00", "note": "ON 12/24 AND 12/31, THIS BOX MAY BE COLLECTED AS EARLY AS 12 NOON.", "nsi_id": "unitedstatespostalservice-a77078", "operator": "United States Postal Service", "operator:short": "USPS", "operator:type": "public", "operator:wikidata": "Q668687", "ref": "5253100007"}, "type": "Feature"}
{"geometry": {"coordinates": [-92.809750274, 41.027054246], "type": "Point"}, "id": "olNLXEU4X6YuoXUpNd1yNjbVa2M=", "properties": {"@source_uri": "https://tools.usps.com/UspsToolsRestServices/rest/POLocator/findLocations", "@spider": "usps_collection_boxes", "addr:city": "ALBIA", "addr:country": "US", "addr:postcode": "52531", "addr:state": "IA", "addr:street_address": "104 BENTON AVE W", "amenity": "post_box", "collection_times": "Mo-Fr 17:15; Sa 15:15", "indoor": "yes", "note": "ON 12/24 AND 12/31, THIS BOX MAY BE COLLECTED AS EARLY AS 12 NOON.", "nsi_id": "unitedstatespostalservice-a77078", "operator": "United States Postal Service", "operator:short": "USPS", "operator:type": "public", "operator:wikidata": "Q668687", "ref": "5253100011"}, "type": "Feature"}
{"geometry": {"coordinates": [-92.809684683, 41.026947038], "type": "Point"}, "id": "5GRC6jdcTASNpz4eATXNErqhvHM=", "properties": {"@source_uri": "https://tools.usps.com/UspsToolsRestServices/rest/POLocator/findLocations", "@spider": "usps_collection_boxes", "addr:city": "ALBIA", "addr:country": "US", "addr:postcode": "52531", "addr:state": "IA", "addr:street_address": "15 S A ST", "amenity": "post_box", "collection_times": "Mo-Fr 17:00; Sa 11:00", "indoor": "yes", "note": "ON 12/24 AND 12/31, THIS BOX MAY BE COLLECTED AS EARLY AS 12 NOON.", "nsi_id": "unitedstatespostalservice-a77078", "operator": "United States Postal Service", "operator:short": "USPS", "operator:type": "public", "operator:wikidata": "Q668687", "ref": "5253100012"}, "type": "Feature"}
{"geometry": {"coordinates": [-92.167273131, 40.994056693], "type": "Point"}, "id": "2uSUvwVPzT4eF0K5KPaLV-OSiMc=", "properties": {"@source_uri": "https://tools.usps.com/UspsToolsRestServices/rest/POLocator/findLocations", "@spider": "usps_collection_boxes", "addr:city": "BATAVIA", "addr:country": "US", "addr:postcode": "52533", "addr:state": "IA", "addr:street_address": "1009 3RD ST", "amenity": "post_box", "collection_times": "Mo-Fr 10:45; Sa 08:30", "nsi_id": "unitedstatespostalservice-a77078", "operator": "United States Postal Service", "operator:short": "USPS", "operator:type": "public", "operator:wikidata": "Q668687", "ref": "5253300000"}, "type": "Feature"}
{"geometry": {"coordinates": [-92.167273131, 40.994056693], "type": "Point"}, "id": "JOnpf34FQO86i9KVPQrS2BYawQ0=", "properties": {"@source_uri": "https://tools.usps.com/UspsToolsRestServices/rest/POLocator/findLocations", "@spider": "usps_collection_boxes", "addr:city": "BATAVIA", "addr:country": "US", "addr:postcode": "52533", "addr:state": "IA", "addr:street_address": "1009 3RD ST", "amenity": "post_box", "collection_times": "Mo-Fr 10:45; Sa 08:30", "indoor": "yes", "nsi_id": "unitedstatespostalservice-a77078", "operator": "United States Postal Service", "operator:short": "USPS", "operator:type": "public", "operator:wikidata": "Q668687", "ref": "5253300001"}, "type": "Feature"}
{"geometry": {"coordinates": [-92.167273131, 40.994056693], "type": "Point"}, "id": "lknkYb1REpL58c2E5JldkQWu0m8=", "properties": {"@source_uri": "https://tools.usps.com/UspsToolsRestServices/rest/POLocator/findLocations", "@spider": "usps_collection_boxes", "addr:city": "BATAVIA", "addr:country": "US", "addr:postcode": "52533", "addr:state": "IA", "addr:street_address": "1009 3RD ST", "amenity": "post_box", "collection_times": "Mo-Fr 11:00; Sa 08:45", "indoor": "yes", "nsi_id": "unitedstatespostalservice-a77078", "operator": "United States Postal Service", "operator:short": "USPS", "operator:type": "public", "operator:wikidata": "Q668687", "ref": "5253300002"}, "type": "Feature"}
{"geometry": {"coordinates": [-92.681783519, 41.276243276], "type": "Point"}, "id": "9uj0fADONPk6yKN5Hl-rWqe90x8=", "properties": {"@source_uri": "https://tools.usps.com/UspsToolsRestServices/rest/POLocator/findLocations", "@spider": "usps_collection_boxes", "addr:city": "BEACON", "addr:country": "US", "addr:postcode": "52534", "addr:state": "IA", "addr:street_address": "320 KILBOURN ST", "amenity": "post_box", "collection_times": "Mo-Fr 16:30; Sa 13:15", "note": "ON 12/24 AND 12/31, THIS BOX MAY BE COLLECTED AS EARLY AS 12 NOON.", "nsi_id": "unitedstatespostalservice-a77078", "operator": "United States Postal Service", "operator:short": "USPS", "operator:type": "public", "operator:wikidata": "Q668687", "ref": "5253400000"}, "type": "Feature"}
{"geometry": {"coordinates": [-92.6816300362, 41.2760620105], "type": "Point"}, "id": "KjCNDl2qj8SZC14hBA6P0qAzbS8=", "properties": {"@source_uri": "https://tools.usps.com/UspsToolsRestServices/rest/POLocator/findLocations", "@spider": "usps_collection_boxes", "addr:city": "BEACON", "addr:country": "US", "addr:postcode": "52534", "addr:state": "IA", "addr:street_address": "320 KILBOURN ST", "amenity": "post_box", "collection_times": "Mo-Fr 16:30; Sa 13:00", "indoor": "yes", "note": "ON 12/24 AND 12/31, THIS BOX MAY BE COLLECTED AS EARLY AS 12 NOON.", "nsi_id": "unitedstatespostalservice-a77078", "operator": "United States Postal Service", "operator:short": "USPS", "operator:type": "public", "operator:wikidata": "Q668687", "ref": "5253400001"}, "type": "Feature"}
{"geometry": {"coordinates": [-92.6816300362, 41.2760620105], "type": "Point"}, "id": "SiiY6ckgOk9Q1VvQPYVUPt1vras=", "properties": {"@source_uri": "https://tools.usps.com/UspsToolsRestServices/rest/POLocator/findLocations", "@spider": "usps_collection_boxes", "addr:city": "BEACON", "addr:country": "US", "addr:postcode": "52534", "addr:state": "IA", "addr:street_address": "320 KILBOURN ST", "amenity": "post_box", "collection_times": "Mo-Fr 16:30; Sa 13:00", "indoor": "yes", "note": "ON 12/24 AND 12/31, THIS BOX MAY BE COLLECTED AS EARLY AS 12 NOON.", "nsi_id": "unitedstatespostalservice-a77078", "operator": "United States Postal Service", "operator:short": "USPS", "operator:type": "public", "operator:wikidata": "Q668687", "ref": "5253400002"}, "type": "Feature"}
{"geometry": {"coordinates": [-91.946610168, 40.87892454], "type": "Point"}, "id": "Uxv2p_xHNQ42SQ5yv-T3N_FmRgs=", "properties": {"@source_uri": "https://tools.usps.com/UspsToolsRestServices/rest/POLocator/findLocations", "@spider": "usps_collection_boxes", "addr:city": "BIRMINGHAM", "addr:country": "US", "addr:postcode": "52535", "addr:state": "IA", "addr:street_address": "221 E CEDAR ST", "amenity": "post_box", "collection_times": "Mo-Fr 12:45; Sa 10:45", "note": "ON 12/24 AND 12/31, THIS BOX MAY BE COLLECTED AS EARLY AS 12 NOON.", "nsi_id": "unitedstatespostalservice-a77078", "operator": "United States Postal Service", "operator:short": "USPS", "operator:type": "public", "operator:wikidata": "Q668687", "ref": "5253500000"}, "type": "Feature"}
{"geometry": {"coordinates": [-91.946610168, 40.87892454], "type": "Point"}, "id": "RTW7v56G6zA2uaYJAxWTBbFgYsE=", "properties": {"@source_uri": "https://tools.usps.com/UspsToolsRestServices/rest/POLocator/findLocations", "@spider": "usps_collection_boxes", "addr:city": "BIRMINGHAM", "addr:country": "US", "addr:postcode": "52535", "addr:state": "IA", "addr:street_address": "221 E CEDAR ST", "amenity": "post_box", "collection_times": "Mo-Fr 12:45", "indoor": "yes", "note": "ON 12/24 AND 12/31, THIS BOX MAY BE COLLECTED AS EARLY AS 12 NOON.", "nsi_id": "unitedstatespostalservice-a77078", "operator": "United States Postal Service", "operator:short": "USPS", "operator:type": "public", "operator:wikidata": "Q668687", "ref": "5253500001"}, "type": "Feature"}
{"geometry": {"coordinates": [-91.946610168, 40.87892454], "type": "Point"}, "id": "4P5E0csPZFzPvo84I41FJ1zkKqQ=", "properties": {"@source_uri": "https://tools.usps.com/UspsToolsRestServices/rest/POLocator/findLocations", "@spider": "usps_collection_boxes", "addr:city": "BIRMINGHAM", "addr:country": "US", "addr:postcode": "52535", "addr:state": "IA", "addr:street_address": "221 E CEDAR ST", "amenity": "post_box", "collection_times": "Mo-Fr 12:45; Sa 10:45", "indoor": "yes", "note": "ON 12/24 AND 12/31, THIS BOX MAY BE COLLECTED AS EARLY AS 12 NOON.", "nsi_id": "unitedstatespostalservice-a77078", "operator": "United States Postal Service", "operator:short": "USPS", "operator:type": "public", "operator:wikidata": "Q668687", "ref": "5253500002"}, "type": "Feature"}
{"geometry": {"coordinates": [-92.6369319446, 40.9641305115], "type": "Point"}, "id": "HLNJsYwd_V8FGRskEIKPG-_pFWM=", "properties": {"@source_uri": "https://tools.usps.com/UspsToolsRestServices/rest/POLocator/findLocations", "@spider": "usps_collection_boxes", "addr:city": "BLAKESBURG", "addr:country": "US", "addr:postcode": "52536", "addr:state": "IA", "addr:street_address": "104 W. STATE STREET", "amenity": "post_box", "collection_times": "Mo-Fr 10:45; Sa 07:45", "nsi_id": "unitedstatespostalservice-a77078", "operator": "United States Postal Service", "operator:short": "USPS", "operator:type": "public", "operator:wikidata": "Q668687", "ref": "5253600000"}, "type": "Feature"}
{"geometry": {"coordinates": [-92.6369319446, 40.9641305115], "type": "Point"}, "id": "0NY8iOuZ7dEzLYaUQgmQauZg8zg=", "properties": {"@source_uri": "https://tools.usps.com/UspsToolsRestServices/rest/POLocator/findLocations", "@spider": "usps_collection_boxes", "addr:city": "BLAKESBURG", "addr:country": "US", "addr:postcode": "52536", "addr:state": "IA", "addr:street_address": "104 W STATE STREET", "amenity": "post_box", "collection_times": "Mo-Fr 10:45; Sa 07:45", "indoor": "yes", "nsi_id": "unitedstatespostalservice-a77078", "operator": "United States Postal Service", "operator:short": "USPS", "operator:type": "public", "operator:wikidata": "Q668687", "ref": "5253600001"}, "type": "Feature"}
{"geometry": {"coordinates": [-92.636931945, 40.964121512], "type": "Point"}, "id": "b_ImAKjwbovkVV5lYGBg11YNed0=", "properties": {"@source_uri": "https://tools.usps.com/UspsToolsRestServices/rest/POLocator/findLocations", "@spider": "usps_collection_boxes", "addr:city": "BLAKESBURG", "addr:country": "US", "addr:postcode": "52536", "addr:state": "IA", "addr:street_address": "104 W STATE ST", "amenity": "post_box", "collection_times": "Mo-Fr 10:45; Sa 07:45", "indoor": "yes", "nsi_id": "unitedstatespostalservice-a77078", "operator": "United States Postal Service", "operator:short": "USPS", "operator:type": "public", "operator:wikidata": "Q668687", "ref": "5253600002"}, "type": "Feature"}
{"geometry": {"coordinates": [-92.416471029, 40.75173672], "type": "Point"}, "id": "Y5TXDYESstA5jLN8LNAsJmA4XD4=", "properties": {"@source_uri": "https://tools.usps.com/UspsToolsRestServices/rest/POLocator/findLocations", "@spider": "usps_collection_boxes", "addr:city": "BLOOMFIELD", "addr:country": "US", "addr:postcode": "52537", "addr:state": "IA", "addr:street_address": "202 W JEFFERSON ST", "amenity": "post_box", "collection_times": "Mo-Sa 17:00", "note": "ON 12/24 AND 12/31, THIS BOX MAY BE COLLECTED AS EARLY AS 12 NOON.", "nsi_id": "unitedstatespostalservice-a77078", "operator": "United States Postal Service", "operator:short": "USPS", "operator:type": "public", "operator:wikidata": "Q668687", "ref": "5253700000"}, "type": "Feature"}
{"geometry": {"coordinates": [-92.416471029, 40.75173672], "type": "Point"}, "id": "7Kv2c2VBD0R45sFNxMRjrNV0SV4=", "properties": {"@source_uri": "https://tools.usps.com/UspsToolsRestServices/rest/POLocator/findLocations", "@spider": "usps_collection_boxes", "addr:city": "BLOOMFIELD", "addr:country": "US", "addr:postcode": "52537", "addr:state": "IA", "addr:street_address": "202 W JEFFERSON ST", "amenity": "post_box", "collection_times": "Mo-Fr 17:00; Sa 10:00", "indoor": "yes", "note": "ON 12/24 AND 12/31, THIS BOX MAY BE COLLECTED AS EARLY AS 12 NOON.", "nsi_id": "unitedstatespostalservice-a77078", "operator": "United States Postal Service", "operator:short": "USPS", "operator:type": "public", "operator:wikidata": "Q668687", "ref": "5253700012"}, "type": "Feature"}
{"geometry": {"coordinates": [-92.415087229, 40.750444006], "type": "Point"}, "id": "N3KOW1tPVQE6KV45ohR_rFdlD6o=", "properties": {"@source_uri": "https://tools.usps.com/UspsToolsRestServices/rest/POLocator/findLocations", "@spider": "usps_collection_boxes", "addr:city": "BLOOMFIELD", "addr:country": "US", "addr:postcode": "52537", "addr:state": "IA", "addr:street_address": "202 S MADISON ST", "amenity": "post_box", "collection_times": "Mo-Sa 13:30", "note": "ON 12/24 AND 12/31, THIS BOX MAY BE COLLECTED AS EARLY AS 12 NOON.", "nsi_id": "unitedstatespostalservice-a77078", "operator": "United States Postal Service", "operator:short": "USPS", "operator:type": "public", "operator:wikidata": "Q668687", "ref": "5253700013"}, "type": "Feature"}
{"geometry": {"coordinates": [-92.416471029, 40.75173672], "type": "Point"}, "id": "MuhizV7PSA0Yu_ajzouZ5GyE7KE=", "properties": {"@source_uri": "https://tools.usps.com/UspsToolsRestServices/rest/POLocator/findLocations", "@spider": "usps_collection_boxes", "addr:city": "BLOOMFIELD", "addr:country": "US", "addr:postcode": "52537", "addr:state": "IA", "addr:street_address": "202 W JEFFERSON ST", "amenity": "post_box", "collection_times": "Mo-Fr 16:30; Sa 10:00", "indoor": "yes", "note": "ON 12/24 AND 12/31, THIS BOX MAY BE COLLECTED AS EARLY AS 12 NOON.", "nsi_id": "unitedstatespostalservice-a77078", "operator": "United States Postal Service", "operator:short": "USPS", "operator:type": "public", "operator:wikidata": "Q668687", "ref": "5253700015"}, "type": "Feature"}
{"geometry": {"coordinates": [-91.819965958, 41.174280335], "type": "Point"}, "id": "ykVIQfOKKolPVF8a_ReiWLFDM0c=", "properties": {"@source_uri": "https://tools.usps.com/UspsToolsRestServices/rest/POLocator/findLocations", "@spider": "usps_collection_boxes", "addr:city": "BRIGHTON", "addr:country": "US", "addr:postcode": "52540", "addr:state": "IA", "addr:street_address": "102 N VAN BUREN ST", "amenity": "post_box", "collection_times": "Mo-Fr 13:45", "indoor": "yes", "note": "ON 12/24 AND 12/31, THIS BOX MAY BE COLLECTED AS EARLY AS 12 NOON.", "nsi_id": "unitedstatespostalservice-a77078", "operator": "United States Postal Service", "operator:short": "USPS", "operator:type": "public", "operator:wikidata": "Q668687", "ref": "5254000001"}, "type": "Feature"}
{"geometry": {"coordinates": [-91.819965958, 41.174280335], "type": "Point"}, "id": "H_MyRoB1lYL24qODnD1Ke6FNUnI=", "properties": {"@source_uri": "https://tools.usps.com/UspsToolsRestServices/rest/POLocator/findLocations", "@spider": "usps_collection_boxes", "addr:city": "BRIGHTON", "addr:country": "US", "addr:postcode": "52540", "addr:state": "IA", "addr:street_address": "102 N VAN BUREN ST", "amenity": "post_box", "collection_times": "Mo-Fr 13:45; Sa 09:45", "note": "ON 12/24 AND 12/31, THIS BOX MAY BE COLLECTED AS EARLY AS 12 NOON.", "nsi_id": "unitedstatespostalservice-a77078", "operator": "United States Postal Service", "operator:short": "USPS", "operator:type": "public", "operator:wikidata": "Q668687", "ref": "5254000002"}, "type": "Feature"}
{"geometry": {"coordinates": [-91.819965958, 41.174280335], "type": "Point"}, "id": "TXN7ZmNQOg4iFJAmKYSEwAF__pA=", "properties": {"@source_uri": "https://tools.usps.com/UspsToolsRestServices/rest/POLocator/findLocations", "@spider": "usps_collection_boxes", "addr:city": "BRIGHTON", "addr:country": "US", "addr:postcode": "52540", "addr:state": "IA", "addr:street_address": "102 N VAN BUREN ST", "amenity": "post_box", "collection_times": "Mo-Fr 14:00; Sa 10:00", "indoor": "yes", "note": "ON 12/24 AND 12/31, THIS BOX MAY BE COLLECTED AS EARLY AS 12 NOON.", "nsi_id": "unitedstatespostalservice-a77078", "operator": "United States Postal Service", "operator:short": "USPS", "operator:type": "public", "operator:wikidata": "Q668687", "ref": "5254000003"}, "type": "Feature"}
{"geometry": {"coordinates": [-92.069758722, 40.644459], "type": "Point"}, "id": "A4zSaXRuNSTJ-8o5cYigtvDTugM=", "properties": {"@source_uri": "https://tools.usps.com/UspsToolsRestServices/rest/POLocator/findLocations", "@spider": "usps_collection_boxes", "addr:city": "CANTRIL", "addr:country": "US", "addr:postcode": "52542", "addr:state": "IA", "addr:street_address": "124 DIVISION ST", "amenity": "post_box", "collection_times": "Mo-Fr 13:45; Sa 11:45", "note": "ON 12/24 AND 12/31, THIS BOX MAY BE COLLECTED AS EARLY AS 12 NOON.", "nsi_id": "unitedstatespostalservice-a77078", "operator": "United States Postal Service", "operator:short": "USPS", "operator:type": "public", "operator:wikidata": "Q668687", "ref": "5254200000"}, "type": "Feature"}
{"geometry": {"coordinates": [-92.069758722, 40.644459], "type": "Point"}, "id": "ILSaIn_9Y10ZTJhYrn4BKh9KP7s=", "properties": {"@source_uri": "https://tools.usps.com/UspsToolsRestServices/rest/POLocator/findLocations", "@spider": "usps_collection_boxes", "addr:city": "CANTRIL", "addr:country": "US", "addr:postcode": "52542", "addr:state": "IA", "addr:street_address": "124 DIVISION ST", "amenity": "post_box", "collection_times": "Mo-Fr 13:45", "indoor": "yes", "note": "ON 12/24 AND 12/31, THIS BOX MAY BE COLLECTED AS EARLY AS 12 NOON.", "nsi_id": "unitedstatespostalservice-a77078", "operator": "United States Postal Service", "operator:short": "USPS", "operator:type": "public", "operator:wikidata": "Q668687", "ref": "5254200002"}, "type": "Feature"}
{"geometry": {"coordinates": [-92.069758722, 40.644459], "type": "Point"}, "id": "ifqG-8-YrTagcGyeR9dKjTxiPHk=", "properties": {"@source_uri": "https://tools.usps.com/UspsToolsRestServices/rest/POLocator/findLocations", "@spider": "usps_collection_boxes", "addr:city": "CANTRIL", "addr:country": "US", "addr:postcode": "52542", "addr:state": "IA", "addr:street_address": "124 DIVISION ST", "amenity": "post_box", "collection_times": "Mo-Fr 14:00; Sa 12:00", "indoor": "yes", "note": "ON 12/24 AND 12/31, THIS BOX MAY BE COLLECTED AS EARLY AS 12 NOON.", "nsi_id": "unitedstatespostalservice-a77078", "operator": "United States Postal Service", "operator:short": "USPS", "operator:type": "public", "operator:wikidata": "Q668687", "ref": "5254200003"}, "type": "Feature"}
{"geometry": {"coordinates": [-92.524698417, 41.213168017], "type": "Point"}, "id": "SxvwQr73wiH9SJTQCD4atPYEXiM=", "properties": {"@source_uri": "https://tools.usps.com/UspsToolsRestServices/rest/POLocator/findLocations", "@spider": "usps_collection_boxes", "addr:city": "CEDAR", "addr:country": "US", "addr:postcode": "52543", "addr:state": "IA", "addr:street_address": "2804 HIGHWAY 23", "amenity": "post_box", "collection_times": "Mo-Fr 16:00; Sa 15:00", "note": "ON 12/24 AND 12/31, THIS BOX MAY BE COLLECTED AS EARLY AS 12 NOON.", "nsi_id": "unitedstatespostalservice-a77078", "operator": "United States Postal Service", "operator:short": "USPS", "operator:type": "public", "operator:wikidata": "Q668687", "ref": "5254300000"}, "type": "Feature"}
{"geometry": {"coordinates": [-92.524698417, 41.213168017], "type": "Point"}, "id": "SjDdFEQswE2HezjqS3AwUxNcCT0=", "properties": {"@source_uri": "https://tools.usps.com/UspsToolsRestServices/rest/POLocator/findLocations", "@spider": "usps_collection_boxes", "addr:city": "CEDAR", "addr:country": "US", "addr:postcode": "52543", "addr:state": "IA", "addr:street_address": "2804 HIGHWAY 23", "amenity": "post_box", "collection_times": "Mo-Fr 15:30; Sa 15:00", "indoor": "yes", "note": "ON 12/24 AND 12/31, THIS BOX MAY BE COLLECTED AS EARLY AS 12 NOON.", "nsi_id": "unitedstatespostalservice-a77078", "operator": "United States Postal Service", "operator:short": "USPS", "operator:type": "public", "operator:wikidata": "Q668687", "ref": "5254300001"}, "type": "Feature"}
{"geometry": {"coordinates": [-92.524698417, 41.213168017], "type": "Point"}, "id": "z6xCH7w6AyctDKfEeyfsp0a0AtE=", "properties": {"@source_uri": "https://tools.usps.com/UspsToolsRestServices/rest/POLocator/findLocations", "@spider": "usps_collection_boxes", "addr:city": "CEDAR", "addr:country": "US", "addr:postcode": "52543", "addr:state": "IA", "addr:street_address": "2804 HIGHWAY 23", "amenity": "post_box", "collection_times": "Mo-Fr 15:45; Sa 15:15", "indoor": "yes", "note": "ON 12/24 AND 12/31, THIS BOX MAY BE COLLECTED AS EARLY AS 12 NOON.", "nsi_id": "unitedstatespostalservice-a77078", "operator": "United States Postal Service", "operator:short": "USPS", "operator:type": "public", "operator:wikidata": "Q668687", "ref": "5254300002"}, "type": "Feature"}
{"geometry": {"coordinates": [-92.867946261, 40.737780251], "type": "Point"}, "id": "zTc4qAuVFZ09_9p90ad-zhtheuM=", "properties": {"@source_uri": "https://tools.usps.com/UspsToolsRestServices/rest/POLocator/findLocations", "@spider": "usps_collection_boxes", "addr:city": "CENTERVILLE", "addr:country": "US", "addr:postcode": "52544", "addr:state": "IA", "addr:street_address": "609 N 18TH ST", "amenity": "post_box", "collection_times": "Mo-Sa 12:00", "nsi_id": "unitedstatespostalservice-a77078", "operator": "United States Postal Service", "operator:short": "USPS", "operator:type": "public", "operator:wikidata": "Q668687", "ref": "5254400006"}, "type": "Feature"}
{"geometry": {"coordinates": [-92.876489613, 40.734290623], "type": "Point"}, "id": "lRifxxPvLOoQpTsJLe4ZnErqCZM=", "properties": {"@source_uri": "https://tools.usps.com/UspsToolsRestServices/rest/POLocator/findLocations", "@spider": "usps_collection_boxes", "addr:city": "CENTERVILLE", "addr:country": "US", "addr:postcode": "52544", "addr:state": "IA", "addr:street_address": "300 N 10TH ST", "amenity": "post_box", "collection_times": "Mo-Fr 16:45; Sa 16:00", "note": "ON 12/24 AND 12/31, THIS BOX MAY BE COLLECTED AS EARLY AS 12 NOON.", "nsi_id": "unitedstatespostalservice-a77078", "operator": "United States Postal Service", "operator:short": "USPS", "operator:type": "public", "operator:wikidata": "Q668687", "ref": "5254400008"}, "type": "Feature"}
{"geometry": {"coordinates": [-92.876489613, 40.734290623], "type": "Point"}, "id": "mRwg4npZ3VetevPmE96N5n9IK_U=", "properties": {"@source_uri": "https://tools.usps.com/UspsToolsRestServices/rest/POLocator/findLocations", "@spider": "usps_collection_boxes", "addr:city": "CENTERVILLE", "addr:country": "US", "addr:postcode": "52544", "addr:state": "IA", "addr:street_address": "300 N 10TH ST", "amenity": "post_box", "collection_times": "Mo-Fr 16:45; Sa 16:00", "indoor": "yes", "note": "ON 12/24 AND 12/31, THIS BOX MAY BE COLLECTED AS EARLY AS 12 NOON.", "nsi_id": "unitedstatespostalservice-a77078", "operator": "United States Postal Service", "operator:short": "USPS", "operator:type": "public", "operator:wikidata": "Q668687", "ref": "5254400016"}, "type": "Feature"}
{"geometry": {"coordinates": [-92.876489613, 40.734290623], "type": "Point"}, "id": "MZgb7qFpHrK0Y22YycjaAqwkf-4=", "properties": {"@source_uri": "https://tools.usps.com/UspsToolsRestServices/rest/POLocator/findLocations", "@spider": "usps_collection_boxes", "addr:city": "CENTERVILLE", "addr:country": "US", "addr:postcode": "52544", "addr:state": "IA", "addr:street_address": "300 N 10TH ST", "amenity": "post_box", "collection_times": "Mo-Fr 16:30; Sa 12:00", "indoor": "yes", "note": "ON 12/24 AND 12/31, THIS BOX MAY BE COLLECTED AS EARLY AS 12 NOON.", "nsi_id": "unitedstatespostalservice-a77078", "operator": "United States Postal Service", "operator:short": "USPS", "operator:type": "public", "operator:wikidata": "Q668687", "ref": "5254400019"}, "type": "Feature"}
{"geometry": {"coordinates": [-92.529021025, 41.086367666], "type": "Point"}, "id": "RdjU8DQK-QbgZiCpcpIEGtO6cQA=", "properties": {"@source_uri": "https://tools.usps.com/UspsToolsRestServices/rest/POLocator/findLocations", "@spider": "usps_collection_boxes", "addr:city": "CHILLICOTHE", "addr:country": "US", "addr:postcode": "52548", "addr:state": "IA", "addr:street_address": "318 MARKET ST", "amenity": "post_box", "collection_times": "Mo-Sa 14:15", "note": "ON 12/24 AND 12/31, THIS BOX MAY BE COLLECTED AS EARLY AS 12 NOON.", "nsi_id": "unitedstatespostalservice-a77078", "operator": "United States Postal Service", "operator:short": "USPS", "operator:type": "public", "operator:wikidata": "Q668687", "ref": "5254800000"}, "type": "Feature"}
{"geometry": {"coordinates": [-92.529021025, 41.086367666], "type": "Point"}, "id": "k-6NnAvwsoLQBAUaMX4_afo9Zmg=", "properties": {"@source_uri": "https://tools.usps.com/UspsToolsRestServices/rest/POLocator/findLocations", "@spider": "usps_collection_boxes", "addr:city": "CHILLICOTHE", "addr:country": "US", "addr:postcode": "52548", "addr:state": "IA", "addr:street_address": "318 MARKET ST", "amenity": "post_box", "collection_times": "Mo-Fr 14:15", "indoor": "yes", "note": "ON 12/24 AND 12/31, THIS BOX MAY BE COLLECTED AS EARLY AS 12 NOON.", "nsi_id": "unitedstatespostalservice-a77078", "operator": "United States Postal Service", "operator:short": "USPS", "operator:type": "public", "operator:wikidata": "Q668687", "ref": "5254800001"}, "type": "Feature"}
{"geometry": {"coordinates": [-92.529021025, 41.086367666], "type": "Point"}, "id": "TrergEEe9FkJfikLw2h27rNAzkw=", "properties": {"@source_uri": "https://tools.usps.com/UspsToolsRestServices/rest/POLocator/findLocations", "@spider": "usps_collection_boxes", "addr:city": "CHILLICOTHE", "addr:country": "US", "addr:postcode": "52548", "addr:state": "IA", "addr:street_address": "318 MARKET ST", "amenity": "post_box", "collection_times": "Mo-Sa 14:30", "indoor": "yes", "note": "ON 12/24 AND 12/31, THIS BOX MAY BE COLLECTED AS EARLY AS 12 NOON.", "nsi_id": "unitedstatespostalservice-a77078", "operator": "United States Postal Service", "operator:short": "USPS", "operator:type": "public", "operator:wikidata": "Q668687", "ref": "5254800002"}, "type": "Feature"}
{"geometry": {"coordinates": [-92.924199967, 40.632629991], "type": "Point"}, "id": "qGudmV4pnhsZVR2gd8aaeGUA9wI=", "properties": {"@source_uri": "https://tools.usps.com/UspsToolsRestServices/rest/POLocator/findLocations", "@spider": "usps_collection_boxes", "addr:city": "CINCINNATI", "addr:country": "US", "addr:postcode": "52549", "addr:state": "IA", "addr:street_address": "101 ALPINE STE 1", "amenity": "post_box", "collection_times": "Mo-Sa 10:45", "nsi_id": "unitedstatespostalservice-a77078", "operator": "United States Postal Service", "operator:short": "USPS", "operator:type": "public", "operator:wikidata": "Q668687", "ref": "5254900000"}, "type": "Feature"}
{"geometry": {"coordinates": [-92.924199967, 40.632629991], "type": "Point"}, "id": "eiC8pGFHqV6XoWes0YnLzN30nuo=", "properties": {"@source_uri": "https://tools.usps.com/UspsToolsRestServices/rest/POLocator/findLocations", "@spider": "usps_collection_boxes", "addr:city": "CINCINNATI", "addr:country": "US", "addr:postcode": "52549", "addr:state": "IA", "addr:street_address": "101 ALPINE STE 1", "amenity": "post_box", "collection_times": "Mo-Sa 10:45", "indoor": "yes", "nsi_id": "unitedstatespostalservice-a77078", "operator": "United States Postal Service", "operator:short": "USPS", "operator:type": "public", "operator:wikidata": "Q668687", "ref": "5254900003"}, "type": "Feature"}
{"geometry": {"coordinates": [-92.924199967, 40.632629991], "type": "Point"}, "id": "7C2kY3MK8R_SIO8rFo58Ja7T9U8=", "properties": {"@source_uri": "https://tools.usps.com/UspsToolsRestServices/rest/POLocator/findLocations", "@spider": "usps_collection_boxes", "addr:city": "CINCINNATI", "addr:country": "US", "addr:postcode": "52549", "addr:state": "IA", "addr:street_address": "101 ALPINE STE 1", "amenity": "post_box", "collection_times": "Mo-Sa 11:00", "indoor": "yes", "nsi_id": "unitedstatespostalservice-a77078", "operator": "United States Postal Service", "operator:short": "USPS", "operator:type": "public", "operator:wikidata": "Q668687", "ref": "5254900004"}, "type": "Feature"}
{"geometry": {"coordinates": [-92.086322142, 40.839845406], "type": "Point"}, "id": "y1QC1BoHVLaU2m_kwQYXTK1H5QI=", "properties": {"@source_uri": "https://tools.usps.com/UspsToolsRestServices/rest/POLocator/findLocations", "@spider": "usps_collection_boxes", "addr:city": "DOUDS", "addr:country": "US", "addr:postcode": "52551", "addr:state": "IA", "addr:street_address": "14173 HIGHWAY 98", "amenity": "post_box", "collection_times": "Mo-Fr 13:45; Sa 12:15", "note": "ON 12/24 AND 12/31, THIS BOX MAY BE COLLECTED AS EARLY AS 12 NOON.", "nsi_id": "unitedstatespostalservice-a77078", "operator": "United States Postal Service", "operator:short": "USPS", "operator:type": "public", "operator:wikidata": "Q668687", "ref": "5255100000"}, "type": "Feature"}
{"geometry": {"coordinates": [-92.086322142, 40.839845406], "type": "Point"}, "id": "-K7VrZzOppYLxD8thshmCaR_hKc=", "properties": {"@source_uri": "https://tools.usps.com/UspsToolsRestServices/rest/POLocator/findLocations", "@spider": "usps_collection_boxes", "addr:city": "DOUDS", "addr:country": "US", "addr:postcode": "52551", "addr:state": "IA", "addr:street_address": "14173 HIGHWAY 98", "amenity": "post_box", "collection_times": "Mo-Fr 13:45", "indoor": "yes", "note": "ON 12/24 AND 12/31, THIS BOX MAY BE COLLECTED AS EARLY AS 12 NOON.", "nsi_id": "unitedstatespostalservice-a77078", "operator": "United States Postal Service", "operator:short": "USPS", "operator:type": "public", "operator:wikidata": "Q668687", "ref": "5255100001"}, "type": "Feature"}
{"geometry": {"coordinates": [-92.086322142, 40.839845406], "type": "Point"}, "id": "jQ3t3aMT4RAqGolqNh8kS9SqDhk=", "properties": {"@source_uri": "https://tools.usps.com/UspsToolsRestServices/rest/POLocator/findLocations", "@spider": "usps_collection_boxes", "addr:city": "DOUDS", "addr:country": "US", "addr:postcode": "52551", "addr:state": "IA", "addr:street_address": "14173 ROUTE V64", "amenity": "post_box", "collection_times": "Mo-Fr 14:00; Sa 12:30", "indoor": "yes", "note": "ON 12/24 AND 12/31, THIS BOX MAY BE COLLECTED AS EARLY AS 12 NOON.", "nsi_id": "unitedstatespostalservice-a77078", "operator": "United States Postal Service", "operator:short": "USPS", "operator:type": "public", "operator:wikidata": "Q668687", "ref": "5255100002"}, "type": "Feature"}
{"geometry": {"coordinates": [-92.482461, 40.798751487], "type": "Point"}, "id": "Nal_6qIFTlNphjYJ94ZyJExAbfI=", "properties": {"@source_uri": "https://tools.usps.com/UspsToolsRestServices/rest/POLocator/findLocations", "@spider": "usps_collection_boxes", "addr:city": "DRAKESVILLE", "addr:country": "US", "addr:postcode": "52552", "addr:state": "IA", "addr:street_address": "108 W MAIN ST", "amenity": "post_box", "collection_times": "Mo-Fr 15:45; Sa 13:30", "indoor": "yes", "note": "ON 12/24 AND 12/31, THIS BOX MAY BE COLLECTED AS EARLY AS 12 NOON.", "nsi_id": "unitedstatespostalservice-a77078", "operator": "United States Postal Service", "operator:short": "USPS", "operator:type": "public", "operator:wikidata": "Q668687", "ref": "5255200001"}, "type": "Feature"}
{"geometry": {"coordinates": [-92.482461, 40.798751487], "type": "Point"}, "id": "7MdHx1Rodf7JAJ4r2sHLjo4C1iM=", "properties": {"@source_uri": "https://tools.usps.com/UspsToolsRestServices/rest/POLocator/findLocations", "@spider": "usps_collection_boxes", "addr:city": "DRAKESVILLE", "addr:country": "US", "addr:postcode": "52552", "addr:state": "IA", "addr:street_address": "108 W MAIN ST", "amenity": "post_box", "collection_times": "Mo-Fr 16:00; Sa 13:45", "indoor": "yes", "note": "ON 12/24 AND 12/31, THIS BOX MAY BE COLLECTED AS EARLY AS 12 NOON.", "nsi_id": "unitedstatespostalservice-a77078", "operator": "United States Postal Service", "operator:short": "USPS", "operator:type": "public", "operator:wikidata": "Q668687", "ref": "5255200002"}, "type": "Feature"}
{"geometry": {"coordinates": [-92.482461, 40.7987604866], "type": "Point"}, "id": "ns5f3ZqEhEV46DJaXflczGr14s0=", "properties": {"@source_uri": "https://tools.usps.com/UspsToolsRestServices/rest/POLocator/findLocations", "@spider": "usps_collection_boxes", "addr:city": "DRAKESVILLE", "addr:country": "US", "addr:postcode": "52552", "addr:state": "IA", "addr:street_address": "108 W MAIN ST", "amenity": "post_box", "collection_times": "Mo-Fr 17:00; Sa 13:30", "note": "ON 12/24 AND 12/31, THIS BOX MAY BE COLLECTED AS EARLY AS 12 NOON.", "nsi_id": "unitedstatespostalservice-a77078", "operator": "United States Postal Service", "operator:short": "USPS", "operator:type": "public", "operator:wikidata": "Q668687", "ref": "5255200003"}, "type": "Feature"}
{"geometry": {"coordinates": [-92.638283345, 41.156282958], "type": "Point"}, "id": "TTeVNACgIgivEM-yinO0tAyZ5_U=", "properties": {"@source_uri": "https://tools.usps.com/UspsToolsRestServices/rest/POLocator/findLocations", "@spider": "usps_collection_boxes", "addr:city": "EDDYVILLE", "addr:country": "US", "addr:postcode": "52553", "addr:state": "IA", "addr:street_address": "102 WALNUT ST", "amenity": "post_box", "collection_times": "Mo-Fr 15:30; Sa 09:45", "note": "ON 12/24 AND 12/31, THIS BOX MAY BE COLLECTED AS EARLY AS 12 NOON.", "nsi_id": "unitedstatespostalservice-a77078", "operator": "United States Postal Service", "operator:short": "USPS", "operator:type": "public", "operator:wikidata": "Q668687", "ref": "5255300000"}, "type": "Feature"}
{"geometry": {"coordinates": [-92.638283345, 41.156282958], "type": "Point"}, "id": "8sJ-e5ZXeUO-_EN-chsg6bGIfXs=", "properties": {"@source_uri": "https://tools.usps.com/UspsToolsRestServices/rest/POLocator/findLocations", "@spider": "usps_collection_boxes", "addr:city": "EDDYVILLE", "addr:country": "US", "addr:postcode": "52553", "addr:state": "IA", "addr:street_address": "102 WALNUT ST", "amenity": "post_box", "collection_times": "Mo-Fr 16:00; Sa 10:00", "indoor": "yes", "note": "ON 12/24 AND 12/31, THIS BOX MAY BE COLLECTED AS EARLY AS 12 NOON.", "nsi_id": "unitedstatespostalservice-a77078", "operator": "United States Postal Service", "operator:short": "USPS", "operator:type": "public", "operator:wikidata": "Q668687", "ref": "5255300001"}, "type": "Feature"}
{"geometry": {"coordinates": [-92.638283345, 41.156282958], "type": "Point"}, "id": "jD1n_EygpMLIFdOiuMm49HAHvWw=", "properties": {"@source_uri": "https://tools.usps.com/UspsToolsRestServices/rest/POLocator/findLocations", "@spider": "usps_collection_boxes", "addr:city": "EDDYVILLE", "addr:country": "US", "addr:postcode": "52553", "addr:state": "IA", "addr:street_address": "102 WALNUT ST", "amenity": "post_box", "collection_times": "Mo-Fr 15:45; Sa 10:00", "indoor": "yes", "note": "ON 12/24 AND 12/31, THIS BOX MAY BE COLLECTED AS EARLY AS 12 NOON.", "nsi_id": "unitedstatespostalservice-a77078", "operator": "United States Postal Service", "operator:short": "USPS", "operator:type": "public", "operator:wikidata": "Q668687", "ref": "5255300002"}, "type": "Feature"}
{"geometry": {"coordinates": [-92.222241973, 40.918001782], "type": "Point"}, "id": "XKhm7OQGDVq9gsL3c95aY2WBD9Q=", "properties": {"@source_uri": "https://tools.usps.com/UspsToolsRestServices/rest/POLocator/findLocations", "@spider": "usps_collection_boxes", "addr:city": "ELDON", "addr:country": "US", "addr:postcode": "52554", "addr:state": "IA", "addr:street_address": "402 ELM ST", "amenity": "post_box", "collection_times": "Mo-Fr 13:15; Sa 09:30", "note": "ON 12/24 AND 12/31, THIS BOX MAY BE COLLECTED AS EARLY AS 12 NOON.", "nsi_id": "unitedstatespostalservice-a77078", "operator": "United States Postal Service", "operator:short": "USPS", "operator:type": "public", "operator:wikidata": "Q668687", "ref": "5255400000"}, "type": "Feature"}
{"geometry": {"coordinates": [-92.222241973, 40.918001782], "type": "Point"}, "id": "0qzFYw8i9xe_NqzbQIf6Q341PM4=", "properties": {"@source_uri": "https://tools.usps.com/UspsToolsRestServices/rest/POLocator/findLocations", "@spider": "usps_collection_boxes", "addr:city": "ELDON", "addr:country": "US", "addr:postcode": "52554", "addr:state": "IA", "addr:street_address": "402 ELM ST", "amenity": "post_box", "collection_times": "Mo-Fr 13:15; Sa 09:30", "indoor": "yes", "note": "ON 12/24 AND 12/31, THIS BOX MAY BE COLLECTED AS EARLY AS 12 NOON.", "nsi_id": "unitedstatespostalservice-a77078", "operator": "United States Postal Service", "operator:short": "USPS", "operator:type": "public", "operator:wikidata": "Q668687", "ref": "5255400001"}, "type": "Feature"}
{"geometry": {"coordinates": [-92.222241973, 40.918001782], "type": "Point"}, "id": "cs6BE5_EcAS4Wj0VCqIHTdBANiE=", "properties": {"@source_uri": "https://tools.usps.com/UspsToolsRestServices/rest/POLocator/findLocations", "@spider": "usps_collection_boxes", "addr:city": "ELDON", "addr:country": "US", "addr:postcode": "52554", "addr:state": "IA", "addr:street_address": "402 ELM ST", "amenity": "post_box", "collection_times": "Mo-Fr 13:15; Sa 09:30", "indoor": "yes", "note": "ON 12/24 AND 12/31, THIS BOX MAY BE COLLECTED AS EARLY AS 12 NOON.", "nsi_id": "unitedstatespostalservice-a77078", "operator": "United States Postal Service", "operator:short": "USPS", "operator:type": "public", "operator:wikidata": "Q668687", "ref": "5255400002"}, "type": "Feature"}
{"geometry": {"coordinates": [-92.840912832, 40.648224519], "type": "Point"}, "id": "RJ8fISSWaf6lg1eM1hBBSoTAWdw=", "properties": {"@source_uri": "https://tools.usps.com/UspsToolsRestServices/rest/POLocator/findLocations", "@spider": "usps_collection_boxes", "addr:city": "EXLINE", "addr:country": "US", "addr:postcode": "52555", "addr:state": "IA", "addr:street_address": "101 W MAIN ST", "amenity": "post_box", "collection_times": "Mo-Sa 14:45", "note": "ON 12/24 AND 12/31, THIS BOX MAY BE COLLECTED AS EARLY AS 12 NOON.", "nsi_id": "unitedstatespostalservice-a77078", "operator": "United States Postal Service", "operator:short": "USPS", "operator:type": "public", "operator:wikidata": "Q668687", "ref": "5255500000"}, "type": "Feature"}
{"geometry": {"coordinates": [-92.840912832, 40.648224519], "type": "Point"}, "id": "APnhiiWvWQA5ToM-EIR93BjNct0=", "properties": {"@source_uri": "https://tools.usps.com/UspsToolsRestServices/rest/POLocator/findLocations", "@spider": "usps_collection_boxes", "addr:city": "EXLINE", "addr:country": "US", "addr:postcode": "52555", "addr:state": "IA", "addr:street_address": "101 W MAIN ST", "amenity": "post_box", "collection_times": "Mo-Fr 14:45; Sa 15:00", "indoor": "yes", "note": "ON 12/24 AND 12/31, THIS BOX MAY BE COLLECTED AS EARLY AS 12 NOON.", "nsi_id": "unitedstatespostalservice-a77078", "operator": "United States Postal Service", "operator:short": "USPS", "operator:type": "public", "operator:wikidata": "Q668687", "ref": "5255500001"}, "type": "Feature"}
{"geometry": {"coordinates": [-92.840912832, 40.648224519], "type": "Point"}, "id": "VilcmZGK3T-fIhKgbapgIX6BHQo=", "properties": {"@source_uri": "https://tools.usps.com/UspsToolsRestServices/rest/POLocator/findLocations", "@spider": "usps_collection_boxes", "addr:city": "EXLINE", "addr:country": "US", "addr:postcode": "52555", "addr:state": "IA", "addr:street_address": "101 W MAIN ST", "amenity": "post_box", "collection_times": "Mo-Sa 15:00", "indoor": "yes", "note": "ON 12/24 AND 12/31, THIS BOX MAY BE COLLECTED AS EARLY AS 12 NOON.", "nsi_id": "unitedstatespostalservice-a77078", "operator": "United States Postal Service", "operator:short": "USPS", "operator:type": "public", "operator:wikidata": "Q668687", "ref": "5255500002"}, "type": "Feature"}
{"geometry": {"coordinates": [-91.979590305, 41.006381851], "type": "Point"}, "id": "XHXYRvq8vOCFzlKWsloJW4Shtu8=", "properties": {"@source_uri": "https://tools.usps.com/UspsToolsRestServices/rest/POLocator/findLocations", "@spider": "usps_collection_boxes", "addr:city": "FAIRFIELD", "addr:country": "US", "addr:postcode": "52556", "addr:state": "IA", "addr:street_address": "1300 W BURLINGTON AVE", "amenity": "post_box", "collection_times": "Mo-Sa 15:00", "note": "ON 12/24 AND 12/31, THIS BOX MAY BE COLLECTED AS EARLY AS 12 NOON.", "nsi_id": "unitedstatespostalservice-a77078", "operator": "United States Postal Service", "operator:short": "USPS", "operator:type": "public", "operator:wikidata": "Q668687", "ref": "5255600003"}, "type": "Feature"}
{"geometry": {"coordinates": [-91.993422693, 41.006406513], "type": "Point"}, "id": "rwnjUlDDIMAr03Y0s3ZNDzCBPIc=", "properties": {"@source_uri": "https://tools.usps.com/UspsToolsRestServices/rest/POLocator/findLocations", "@spider": "usps_collection_boxes", "addr:city": "FAIRFIELD", "addr:country": "US", "addr:postcode": "52556", "addr:state": "IA", "addr:street_address": "2701 W BURLINGTON AVE", "amenity": "post_box", "collection_times": "Mo-Sa 09:00", "nsi_id": "unitedstatespostalservice-a77078", "operator": "United States Postal Service", "operator:short": "USPS", "operator:type": "public", "operator:wikidata": "Q668687", "ref": "5255600004"}, "type": "Feature"}
{"geometry": {"coordinates": [-91.962484828, 41.015005634], "type": "Point"}, "id": "nl7wJqRtTZIV93-mnow_2_Qe-2w=", "properties": {"@source_uri": "https://tools.usps.com/UspsToolsRestServices/rest/POLocator/findLocations", "@spider": "usps_collection_boxes", "addr:city": "FAIRFIELD", "addr:country": "US", "addr:postcode": "52556", "addr:state": "IA", "addr:street_address": "2000 N COURT ST", "amenity": "post_box", "collection_times": "Mo-Sa 09:00", "nsi_id": "unitedstatespostalservice-a77078", "operator": "United States Postal Service", "operator:short": "USPS", "operator:type": "public", "operator:wikidata": "Q668687", "ref": "5255600008"}, "type": "Feature"}
{"geometry": {"coordinates": [-91.964161419, 41.00867079], "type": "Point"}, "id": "lF2kYjdZaOPJ7jRKwEfC43CatwU=", "properties": {"@source_uri": "https://tools.usps.com/UspsToolsRestServices/rest/POLocator/findLocations", "@spider": "usps_collection_boxes", "addr:city": "FAIRFIELD", "addr:country": "US", "addr:postcode": "52556", "addr:state": "IA", "addr:street_address": "51 W BRIGGS AVE", "amenity": "post_box", "collection_times": "Mo-Fr 11:00", "nsi_id": "unitedstatespostalservice-a77078", "operator": "United States Postal Service", "operator:short": "USPS", "operator:type": "public", "operator:wikidata": "Q668687", "ref": "5255600021"}, "type": "Feature"}
{"geometry": {"coordinates": [-91.965410277, 41.007600547], "type": "Point"}, "id": "YwOSNV-qA-pu4cUstBiN9_Pi6OA=", "properties": {"@source_uri": "https://tools.usps.com/UspsToolsRestServices/rest/POLocator/findLocations", "@spider": "usps_collection_boxes", "addr:city": "FAIRFIELD", "addr:country": "US", "addr:postcode": "52556", "addr:state": "IA", "addr:street_address": "200 W BROADWAY AVE", "amenity": "post_box", "collection_times": "Mo-Fr 17:00; Sa 15:00", "note": "ON 12/24 AND 12/31, THIS BOX MAY BE COLLECTED AS EARLY AS 12 NOON.", "nsi_id": "unitedstatespostalservice-a77078", "operator": "United States Postal Service", "operator:short": "USPS", "operator:type": "public", "operator:wikidata": "Q668687", "ref": "5255600030"}, "type": "Feature"}
{"geometry": {"coordinates": [-91.962684251, 41.006612474], "type": "Point"}, "id": "JpI-X-2jXk-dtCB1bslHuU_U3rs=", "properties": {"@source_uri": "https://tools.usps.com/UspsToolsRestServices/rest/POLocator/findLocations", "@spider": "usps_collection_boxes", "addr:city": "FAIRFIELD", "addr:country": "US", "addr:postcode": "52556", "addr:state": "IA", "addr:street_address": "58 E BURLINGTON AVE", "amenity": "post_box", "collection_times": "Mo-Sa 14:15", "note": "ON 12/24 AND 12/31, THIS BOX MAY BE COLLECTED AS EARLY AS 12 NOON.", "nsi_id": "unitedstatespostalservice-a77078", "operator": "United States Postal Service", "operator:short": "USPS", "operator:type": "public", "operator:wikidata": "Q668687", "ref": "5255600033"}, "type": "Feature"}
{"geometry": {"coordinates": [-91.987515076, 41.005347032], "type": "Point"}, "id": "sibi8RNgImQYMfSaLSc5b3jtBmE=", "properties": {"@source_uri": "https://tools.usps.com/UspsToolsRestServices/rest/POLocator/findLocations", "@spider": "usps_collection_boxes", "addr:city": "FAIRFIELD", "addr:country": "US", "addr:postcode": "52556", "addr:state": "IA", "addr:street_address": "203 S 23RD ST", "amenity": "post_box", "collection_times": "Mo-Sa 17:00", "note": "ON 12/24 AND 12/31, THIS BOX MAY BE COLLECTED AS EARLY AS 12 NOON.", "nsi_id": "unitedstatespostalservice-a77078", "operator": "United States Postal Service", "operator:short": "USPS", "operator:type": "public", "operator:wikidata": "Q668687", "ref": "5255600036"}, "type": "Feature"}
{"geometry": {"coordinates": [-91.9675035, 41.006680479], "type": "Point"}, "id": "DgY0R5JBBYtFCq56qQYKIsIv2ZY=", "properties": {"@source_uri": "https://tools.usps.com/UspsToolsRestServices/rest/POLocator/findLocations", "@spider": "usps_collection_boxes", "addr:city": "FAIRFIELD", "addr:country": "US", "addr:postcode": "52556", "addr:state": "IA", "addr:street_address": "311 W BURLINGTON AVE", "amenity": "post_box", "collection_times": "Mo-Sa 11:00", "nsi_id": "unitedstatespostalservice-a77078", "operator": "United States Postal Service", "operator:short": "USPS", "operator:type": "public", "operator:wikidata": "Q668687", "ref": "5255600038"}, "type": "Feature"}
{"geometry": {"coordinates": [-91.965410277, 41.007600547], "type": "Point"}, "id": "hJC47itew4dGXwh-8cyrNfJHRiQ=", "properties": {"@source_uri": "https://tools.usps.com/UspsToolsRestServices/rest/POLocator/findLocations", "@spider": "usps_collection_boxes", "addr:city": "FAIRFIELD", "addr:country": "US", "addr:postcode": "52556", "addr:state": "IA", "addr:street_address": "200 W BROADWAY AVE", "amenity": "post_box", "collection_times": "Mo-Fr 17:00; Sa 11:00", "indoor": "yes", "note": "ON 12/24 AND 12/31, THIS BOX MAY BE COLLECTED AS EARLY AS 12 NOON.", "nsi_id": "unitedstatespostalservice-a77078", "operator": "United States Postal Service", "operator:short": "USPS", "operator:type": "public", "operator:wikidata": "Q668687", "ref": "5255600041"}, "type": "Feature"}
{"geometry": {"coordinates": [-91.965410277, 41.007600547], "type": "Point"}, "id": "SYw-Qt7-KnE-rD7GvuuPDeg-vAM=", "properties": {"@source_uri": "https://tools.usps.com/UspsToolsRestServices/rest/POLocator/findLocations", "@spider": "usps_collection_boxes", "addr:city": "FAIRFIELD", "addr:country": "US", "addr:postcode": "52556", "addr:state": "IA", "addr:street_address": "200 W BROADWAY AVE", "amenity": "post_box", "collection_times": "Mo-Fr 16:30; Sa 11:00", "indoor": "yes", "note": "ON 12/24 AND 12/31, THIS BOX MAY BE COLLECTED AS EARLY AS 12 NOON.", "nsi_id": "unitedstatespostalservice-a77078", "operator": "United States Postal Service", "operator:short": "USPS", "operator:type": "public", "operator:wikidata": "Q668687", "ref": "5255600044"}, "type": "Feature"}
{"geometry": {"coordinates": [-92.332699322, 40.864936696], "type": "Point"}, "id": "tk6tItK7GzFa9AFAsbNP8uc13yU=", "properties": {"@source_uri": "https://tools.usps.com/UspsToolsRestServices/rest/POLocator/findLocations", "@spider": "usps_collection_boxes", "addr:city": "FLORIS", "addr:country": "US", "addr:postcode": "52560", "addr:state": "IA", "addr:street_address": "101 W MAIN ST", "amenity": "post_box", "collection_times": "Mo-Fr 13:45; Sa 13:30", "indoor": "yes", "note": "ON 12/24 AND 12/31, THIS BOX MAY BE COLLECTED AS EARLY AS 12 NOON.", "nsi_id": "unitedstatespostalservice-a77078", "operator": "United States Postal Service", "operator:short": "USPS", "operator:type": "public", "operator:wikidata": "Q668687", "ref": "5256000001"}, "type": "Feature"}
{"geometry": {"coordinates": [-92.332699322, 40.864936696], "type": "Point"}, "id": "3vO85Nit2nU0D5FP8sniQ-nFdf8=", "properties": {"@source_uri": "https://tools.usps.com/UspsToolsRestServices/rest/POLocator/findLocations", "@spider": "usps_collection_boxes", "addr:city": "FLORIS", "addr:country": "US", "addr:postcode": "52560", "addr:state": "IA", "addr:street_address": "101 W MAIN ST", "amenity": "post_box", "collection_times": "Mo-Fr 14:00; Sa 13:45", "indoor": "yes", "note": "ON 12/24 AND 12/31, THIS BOX MAY BE COLLECTED AS EARLY AS 12 NOON.", "nsi_id": "unitedstatespostalservice-a77078", "operator": "United States Postal Service", "operator:short": "USPS", "operator:type": "public", "operator:wikidata": "Q668687", "ref": "5256000002"}, "type": "Feature"}
{"geometry": {"coordinates": [-92.3326950135, 40.8649455011], "type": "Point"}, "id": "ufiKK7n907L2BPafimEPRnULBak=", "properties": {"@source_uri": "https://tools.usps.com/UspsToolsRestServices/rest/POLocator/findLocations", "@spider": "usps_collection_boxes", "addr:city": "FLORIS", "addr:country": "US", "addr:postcode": "52560", "addr:state": "IA", "addr:street_address": "101 W MAIN ST", "amenity": "post_box", "collection_times": "Mo-Fr 16:15; Sa 09:45", "note": "ON 12/24 AND 12/31, THIS BOX MAY BE COLLECTED AS EARLY AS 12 NOON.", "nsi_id": "unitedstatespostalservice-a77078", "operator": "United States Postal Service", "operator:short": "USPS", "operator:type": "public", "operator:wikidata": "Q668687", "ref": "5256000003"}, "type": "Feature"}
{"geometry": {"coordinates": [-92.4367914071, 41.2129455144], "type": "Point"}, "id": "akSIWch1E8RJcGsOfAZm9BnyAyY=", "properties": {"@source_uri": "https://tools.usps.com/UspsToolsRestServices/rest/POLocator/findLocations", "@spider": "usps_collection_boxes", "addr:city": "FREMONT", "addr:country": "US", "addr:postcode": "52561", "addr:state": "IA", "addr:street_address": "106 N WALNUT ST", "amenity": "post_box", "collection_times": "Mo-Fr 12:15; Sa 10:15", "note": "ON 12/24 AND 12/31, THIS BOX MAY BE COLLECTED AS EARLY AS 12 NOON.", "nsi_id": "unitedstatespostalservice-a77078", "operator": "United States Postal Service", "operator:short": "USPS", "operator:type": "public", "operator:wikidata": "Q668687", "ref": "5256100000"}, "type": "Feature"}
{"geometry": {"coordinates": [-92.4367914071, 41.2129455144], "type": "Point"}, "id": "FkmOUTMD_x3NQlY9auMV2bP3CUc=", "properties": {"@source_uri": "https://tools.usps.com/UspsToolsRestServices/rest/POLocator/findLocations", "@spider": "usps_collection_boxes", "addr:city": "FREMONT", "addr:country": "US", "addr:postcode": "52561", "addr:state": "IA", "addr:street_address": "106 N WALNUT ST", "amenity": "post_box", "collection_times": "Mo-Fr 12:15; Sa 10:15", "indoor": "yes", "note": "ON 12/24 AND 12/31, THIS BOX MAY BE COLLECTED AS EARLY AS 12 NOON.", "nsi_id": "unitedstatespostalservice-a77078", "operator": "United States Postal Service", "operator:short": "USPS", "operator:type": "public", "operator:wikidata": "Q668687", "ref": "5256100002"}, "type": "Feature"}
{"geometry": {"coordinates": [-92.4367914071, 41.2129455144], "type": "Point"}, "id": "8YwlGEkXkBr3NymaZrThy-TNh_8=", "properties": {"@source_uri": "https://tools.usps.com/UspsToolsRestServices/rest/POLocator/findLocations", "@spider": "usps_collection_boxes", "addr:city": "FREMONT", "addr:country": "US", "addr:postcode": "52561", "addr:state": "IA", "addr:street_address": "106 N WALNUT ST", "amenity": "post_box", "collection_times": "Mo-Fr 11:00; Sa 08:45", "indoor": "yes", "nsi_id": "unitedstatespostalservice-a77078", "operator": "United States Postal Service", "operator:short": "USPS", "operator:type": "public", "operator:wikidata": "Q668687", "ref": "5256100003"}, "type": "Feature"}
{"geometry": {"coordinates": [-92.308955016, 41.171147581], "type": "Point"}, "id": "ktcNMYHlqBNl2dFpuoglCvEoKgQ=", "properties": {"@source_uri": "https://tools.usps.com/UspsToolsRestServices/rest/POLocator/findLocations", "@spider": "usps_collection_boxes", "addr:city": "HEDRICK", "addr:country": "US", "addr:postcode": "52563", "addr:state": "IA", "addr:street_address": "102 S MAIN ST", "amenity": "post_box", "collection_times": "Mo-Fr 13:45; Sa 08:15", "note": "ON 12/24 AND 12/31, THIS BOX MAY BE COLLECTED AS EARLY AS 12 NOON.", "nsi_id": "unitedstatespostalservice-a77078", "operator": "United States Postal Service", "operator:short": "USPS", "operator:type": "public", "operator:wikidata": "Q668687", "ref": "5256300000"}, "type": "Feature"}
{"geometry": {"coordinates": [-92.308955016, 41.171147581], "type": "Point"}, "id": "N1PY8B24jBteUzD-rToHSYZWLDQ=", "properties": {"@source_uri": "https://tools.usps.com/UspsToolsRestServices/rest/POLocator/findLocations", "@spider": "usps_collection_boxes", "addr:city": "HEDRICK", "addr:country": "US", "addr:postcode": "52563", "addr:state": "IA", "addr:street_address": "102 S MAIN ST", "amenity": "post_box", "collection_times": "Mo-Fr 13:45", "indoor": "yes", "note": "ON 12/24 AND 12/31, THIS BOX MAY BE COLLECTED AS EARLY AS 12 NOON.", "nsi_id": "unitedstatespostalservice-a77078", "operator": "United States Postal Service", "operator:short": "USPS", "operator:type": "public", "operator:wikidata": "Q668687", "ref": "5256300001"}, "type": "Feature"}
{"geometry": {"coordinates": [-92.308955016, 41.171147581], "type": "Point"}, "id": "ngpkJKMbtPVmjAW0zwPC1UfL6ms=", "properties": {"@source_uri": "https://tools.usps.com/UspsToolsRestServices/rest/POLocator/findLocations", "@spider": "usps_collection_boxes", "addr:city": "HEDRICK", "addr:country": "US", "addr:postcode": "52563", "addr:state": "IA", "addr:street_address": "102 S MAIN ST", "amenity": "post_box", "collection_times": "Mo-Fr 14:00; Sa 08:30", "indoor": "yes", "note": "ON 12/24 AND 12/31, THIS BOX MAY BE COLLECTED AS EARLY AS 12 NOON.", "nsi_id": "unitedstatespostalservice-a77078", "operator": "United States Postal Service", "operator:short": "USPS", "operator:type": "public", "operator:wikidata": "Q668687", "ref": "5256300002"}, "type": "Feature"}
{"geometry": {"coordinates": [-91.969632427, 40.734525421], "type": "Point"}, "id": "5DpVCEyj9RdCCzwiOuyLMozqu8A=", "properties": {"@source_uri": "https://tools.usps.com/UspsToolsRestServices/rest/POLocator/findLocations", "@spider": "usps_collection_boxes", "addr:city": "KEOSAUQUA", "addr:country": "US", "addr:postcode": "52565", "addr:state": "IA", "addr:street_address": "916 COUNTRY LANE DR", "amenity": "post_box", "collection_times": "Mo-Sa 08:30", "nsi_id": "unitedstatespostalservice-a77078", "operator": "United States Postal Service", "operator:short": "USPS", "operator:type": "public", "operator:wikidata": "Q668687", "ref": "5256500000"}, "type": "Feature"}
{"geometry": {"coordinates": [-91.962295421, 40.731853892], "type": "Point"}, "id": "md7HV2HI2oGdZbOyEioDEI7gSDE=", "properties": {"@source_uri": "https://tools.usps.com/UspsToolsRestServices/rest/POLocator/findLocations", "@spider": "usps_collection_boxes", "addr:city": "KEOSAUQUA", "addr:country": "US", "addr:postcode": "52565", "addr:state": "IA", "addr:street_address": "807 2ND ST", "amenity": "post_box", "collection_times": "Mo-Sa 15:30", "note": "ON 12/24 AND 12/31, THIS BOX MAY BE COLLECTED AS EARLY AS 12 NOON.", "nsi_id": "unitedstatespostalservice-a77078", "operator": "United States Postal Service", "operator:short": "USPS", "operator:type": "public", "operator:wikidata": "Q668687", "ref": "5256500001"}, "type": "Feature"}
{"geometry": {"coordinates": [-91.962295421, 40.731853892], "type": "Point"}, "id": "FOVMCRdWr8cv6ujehRhnh69YkPM=", "properties": {"@source_uri": "https://tools.usps.com/UspsToolsRestServices/rest/POLocator/findLocations", "@spider": "usps_collection_boxes", "addr:city": "KEOSAUQUA", "addr:country": "US", "addr:postcode": "52565", "addr:state": "IA", "addr:street_address": "807 2ND ST", "amenity": "post_box", "collection_times": "Mo-Fr 15:30; Sa 10:00", "indoor": "yes", "note": "ON 12/24 AND 12/31, THIS BOX MAY BE COLLECTED AS EARLY AS 12 NOON.", "nsi_id": "unitedstatespostalservice-a77078", "operator": "United States Postal Service", "operator:short": "USPS", "operator:type": "public", "operator:wikidata": "Q668687", "ref": "5256500003"}, "type": "Feature"}
{"geometry": {"coordinates": [-91.962295421, 40.731853892], "type": "Point"}, "id": "JhqIfNqX3dyO3A_OGcpak-vr-Ek=", "properties": {"@source_uri": "https://tools.usps.com/UspsToolsRestServices/rest/POLocator/findLocations", "@spider": "usps_collection_boxes", "addr:city": "KEOSAUQUA", "addr:country": "US", "addr:postcode": "52565", "addr:state": "IA", "addr:street_address": "807 2ND ST", "amenity": "post_box", "collection_times": "Mo-Fr 15:45; Sa 10:00", "indoor": "yes", "note": "ON 12/24 AND 12/31, THIS BOX MAY BE COLLECTED AS EARLY AS 12 NOON.", "nsi_id": "unitedstatespostalservice-a77078", "operator": "United States Postal Service", "operator:short": "USPS", "operator:type": "public", "operator:wikidata": "Q668687", "ref": "5256500004"}, "type": "Feature"}
{"geometry": {"coordinates": [-92.503941911, 41.14530481], "type": "Point"}, "id": "WP8Gf7EBIhxdZaSO8k8SvN0sY84=", "properties": {"@source_uri": "https://tools.usps.com/UspsToolsRestServices/rest/POLocator/findLocations", "@spider": "usps_collection_boxes", "addr:city": "KIRKVILLE", "addr:country": "US", "addr:postcode": "52566", "addr:state": "IA", "addr:street_address": "100 S CEDAR ST", "amenity": "post_box", "collection_times": "Mo-Sa 14:45", "note": "ON 12/24 AND 12/31, THIS BOX MAY BE COLLECTED AS EARLY AS 12 NOON.", "nsi_id": "unitedstatespostalservice-a77078", "operator": "United States Postal Service", "operator:short": "USPS", "operator:type": "public", "operator:wikidata": "Q668687", "ref": "5256600000"}, "type": "Feature"}
{"geometry": {"coordinates": [-92.503941911, 41.14530481], "type": "Point"}, "id": "a_MlMeQ_x65IlK0grMINdEcpZv4=", "properties": {"@source_uri": "https://tools.usps.com/UspsToolsRestServices/rest/POLocator/findLocations", "@spider": "usps_collection_boxes", "addr:city": "KIRKVILLE", "addr:country": "US", "addr:postcode": "52566", "addr:state": "IA", "addr:street_address": "100 S CEDAR ST", "amenity": "post_box", "collection_times": "Mo-Fr 14:45", "indoor": "yes", "note": "ON 12/24 AND 12/31, THIS BOX MAY BE COLLECTED AS EARLY AS 12 NOON.", "nsi_id": "unitedstatespostalservice-a77078", "operator": "United States Postal Service", "operator:short": "USPS", "operator:type": "public", "operator:wikidata": "Q668687", "ref": "5256600001"}, "type": "Feature"}
{"geometry": {"coordinates": [-92.503941911, 41.14530481], "type": "Point"}, "id": "GdRnU87hdR-86ZSNTo9AH2KX12c=", "properties": {"@source_uri": "https://tools.usps.com/UspsToolsRestServices/rest/POLocator/findLocations", "@spider": "usps_collection_boxes", "addr:city": "KIRKVILLE", "addr:country": "US", "addr:postcode": "52566", "addr:state": "IA", "addr:street_address": "100 S CEDAR ST", "amenity": "post_box", "collection_times": "Mo-Sa 15:00", "indoor": "yes", "note": "ON 12/24 AND 12/31, THIS BOX MAY BE COLLECTED AS EARLY AS 12 NOON.", "nsi_id": "unitedstatespostalservice-a77078", "operator": "United States Postal Service", "operator:short": "USPS", "operator:type": "public", "operator:wikidata": "Q668687", "ref": "5256600002"}, "type": "Feature"}
{"geometry": {"coordinates": [-92.051329208, 40.9575016], "type": "Point"}, "id": "8TzUl2_fw1CHgPpsrbSImRlLEwE=", "properties": {"@source_uri": "https://tools.usps.com/UspsToolsRestServices/rest/POLocator/findLocations", "@spider": "usps_collection_boxes", "addr:city": "LIBERTYVILLE", "addr:country": "US", "addr:postcode": "52567", "addr:state": "IA", "addr:street_address": "106 N MAIN ST", "amenity": "post_box", "collection_times": "Mo-Fr 11:45; Sa 11:00", "nsi_id": "unitedstatespostalservice-a77078", "operator": "United States Postal Service", "operator:short": "USPS", "operator:type": "public", "operator:wikidata": "Q668687", "ref": "5256700000"}, "type": "Feature"}
{"geometry": {"coordinates": [-92.051329208, 40.9575016], "type": "Point"}, "id": "Y6a6DD6JTAJQzrsuIWrgLFcgHEI=", "properties": {"@source_uri": "https://tools.usps.com/UspsToolsRestServices/rest/POLocator/findLocations", "@spider": "usps_collection_boxes", "addr:city": "LIBERTYVILLE", "addr:country": "US", "addr:postcode": "52567", "addr:state": "IA", "addr:street_address": "106 N MAIN ST", "amenity": "post_box", "collection_times": "Mo-Fr 11:45", "indoor": "yes", "nsi_id": "unitedstatespostalservice-a77078", "operator": "United States Postal Service", "operator:short": "USPS", "operator:type": "public", "operator:wikidata": "Q668687", "ref": "5256700001"}, "type": "Feature"}
{"geometry": {"coordinates": [-92.051329208, 40.9575016], "type": "Point"}, "id": "HwawZL47xm8FZ9yBf7AKtE5AGUQ=", "properties": {"@source_uri": "https://tools.usps.com/UspsToolsRestServices/rest/POLocator/findLocations", "@spider": "usps_collection_boxes", "addr:city": "LIBERTYVILLE", "addr:country": "US", "addr:postcode": "52567", "addr:state": "IA", "addr:street_address": "106 N MAIN ST", "amenity": "post_box", "collection_times": "Mo-Fr 12:00; Sa 11:15", "indoor": "yes", "nsi_id": "unitedstatespostalservice-a77078", "operator": "United States Postal Service", "operator:short": "USPS", "operator:type": "public", "operator:wikidata": "Q668687", "ref": "5256700002"}, "type": "Feature"}
{"geometry": {"coordinates": [-92.24819842, 41.177060637], "type": "Point"}, "id": "0SqRpEq2SjEIbxY2B801RF76RNI=", "properties": {"@source_uri": "https://tools.usps.com/UspsToolsRestServices/rest/POLocator/findLocations", "@spider": "usps_collection_boxes", "addr:city": "MARTINSBURG", "addr:country": "US", "addr:postcode": "52568", "addr:state": "IA", "addr:street_address": "605 MAIN ST", "amenity": "post_box", "collection_times": "Mo-Sa 12:45", "note": "ON 12/24 AND 12/31, THIS BOX MAY BE COLLECTED AS EARLY AS 12 NOON.", "nsi_id": "unitedstatespostalservice-a77078", "operator": "United States Postal Service", "operator:short": "USPS", "operator:type": "public", "operator:wikidata": "Q668687", "ref": "5256800002"}, "type": "Feature"}
{"geometry": {"coordinates": [-93.047362562, 40.975050528], "type": "Point"}, "id": "GvkPpKOSVKb61gwPgv1m-6DpXic=", "properties": {"@source_uri": "https://tools.usps.com/UspsToolsRestServices/rest/POLocator/findLocations", "@spider": "usps_collection_boxes", "addr:city": "MELROSE", "addr:country": "US", "addr:postcode": "52569", "addr:state": "IA", "addr:street_address": "103 ERIN AVE", "amenity": "post_box", "collection_times": "Mo-Fr 11:15; Sa 09:00", "nsi_id": "unitedstatespostalservice-a77078", "operator": "United States Postal Service", "operator:short": "USPS", "operator:type": "public", "operator:wikidata": "Q668687", "ref": "5256900000"}, "type": "Feature"}
{"geometry": {"coordinates": [-93.047362562, 40.975050528], "type": "Point"}, "id": "naKkQ2ekGQ6ENfvL6-bMKfBLyyM=", "properties": {"@source_uri": "https://tools.usps.com/UspsToolsRestServices/rest/POLocator/findLocations", "@spider": "usps_collection_boxes", "addr:city": "MELROSE", "addr:country": "US", "addr:postcode": "52569", "addr:state": "IA", "addr:street_address": "103 ERIN AVE", "amenity": "post_box", "collection_times": "Mo-Fr 11:15; Sa 09:00", "indoor": "yes", "nsi_id": "unitedstatespostalservice-a77078", "operator": "United States Postal Service", "operator:short": "USPS", "operator:type": "public", "operator:wikidata": "Q668687", "ref": "5256900001"}, "type": "Feature"}
{"geometry": {"coordinates": [-93.047362562, 40.975050528], "type": "Point"}, "id": "vgaNNnZWP5I2yDy37oCspeubdiI=", "properties": {"@source_uri": "https://tools.usps.com/UspsToolsRestServices/rest/POLocator/findLocations", "@spider": "usps_collection_boxes", "addr:city": "MELROSE", "addr:country": "US", "addr:postcode": "52569", "addr:state": "IA", "addr:street_address": "103 ERIN AVE", "amenity": "post_box", "collection_times": "Mo-Fr 11:15; Sa 09:00", "indoor": "yes", "nsi_id": "unitedstatespostalservice-a77078", "operator": "United States Postal Service", "operator:short": "USPS", "operator:type": "public", "operator:wikidata": "Q668687", "ref": "5256900002"}, "type": "Feature"}
{"geometry": {"coordinates": [-92.161881047, 40.673531182], "type": "Point"}, "id": "OGFRChn-gvOv5ABxLgBXBMW4D3Q=", "properties": {"@source_uri": "https://tools.usps.com/UspsToolsRestServices/rest/POLocator/findLocations", "@spider": "usps_collection_boxes", "addr:city": "MILTON", "addr:country": "US", "addr:postcode": "52570", "addr:state": "IA", "addr:street_address": "401 N MAIN ST", "amenity": "post_box", "collection_times": "Mo-Fr 14:45; Sa 11:45", "note": "ON 12/24 AND 12/31, THIS BOX MAY BE COLLECTED AS EARLY AS 12 NOON.", "nsi_id": "unitedstatespostalservice-a77078", "operator": "United States Postal Service", "operator:short": "USPS", "operator:type": "public", "operator:wikidata": "Q668687", "ref": "5257000000"}, "type": "Feature"}
{"geometry": {"coordinates": [-92.161881047, 40.673531182], "type": "Point"}, "id": "ODGCqIOdgYV3otOqkNGYBwKFLCA=", "properties": {"@source_uri": "https://tools.usps.com/UspsToolsRestServices/rest/POLocator/findLocations", "@spider": "usps_collection_boxes", "addr:city": "MILTON", "addr:country": "US", "addr:postcode": "52570", "addr:state": "IA", "addr:street_address": "401 N MAIN ST", "amenity": "post_box", "collection_times": "Mo-Fr 14:45", "indoor": "yes", "note": "ON 12/24 AND 12/31, THIS BOX MAY BE COLLECTED AS EARLY AS 12 NOON.", "nsi_id": "unitedstatespostalservice-a77078", "operator": "United States Postal Service", "operator:short": "USPS", "operator:type": "public", "operator:wikidata": "Q668687", "ref": "5257000001"}, "type": "Feature"}
{"geometry": {"coordinates": [-92.161881047, 40.673531182], "type": "Point"}, "id": "EMV0fpxwKMuieBZHelifhF1c9oU=", "properties": {"@source_uri": "https://tools.usps.com/UspsToolsRestServices/rest/POLocator/findLocations", "@spider": "usps_collection_boxes", "addr:city": "MILTON", "addr:country": "US", "addr:postcode": "52570", "addr:state": "IA", "addr:street_address": "401 N MAIN ST", "amenity": "post_box", "collection_times": "Mo-Fr 15:00; Sa 12:00", "indoor": "yes", "note": "ON 12/24 AND 12/31, THIS BOX MAY BE COLLECTED AS EARLY AS 12 NOON.", "nsi_id": "unitedstatespostalservice-a77078", "operator": "United States Postal Service", "operator:short": "USPS", "operator:type": "public", "operator:wikidata": "Q668687", "ref": "5257000002"}, "type": "Feature"}
{"geometry": {"coordinates": [-92.814520858, 40.891583296], "type": "Point"}, "id": "Llz0VU_lgT8qs1obMd_IyiwWYzA=", "properties": {"@source_uri": "https://tools.usps.com/UspsToolsRestServices/rest/POLocator/findLocations", "@spider": "usps_collection_boxes", "addr:city": "MORAVIA", "addr:country": "US", "addr:postcode": "52571", "addr:state": "IA", "addr:street_address": "107 N WILLIAM ST", "amenity": "post_box", "collection_times": "Mo-Fr 13:15; Sa 08:15", "note": "ON 12/24 AND 12/31, THIS BOX MAY BE COLLECTED AS EARLY AS 12 NOON.", "nsi_id": "unitedstatespostalservice-a77078", "operator": "United States Postal Service", "operator:short": "USPS", "operator:type": "public", "operator:wikidata": "Q668687", "ref": "5257100000"}, "type": "Feature"}
{"geometry": {"coordinates": [-92.814520858, 40.891583296], "type": "Point"}, "id": "KAKZgNlArcnXsnnAa0Z33YJLC-8=", "properties": {"@source_uri": "https://tools.usps.com/UspsToolsRestServices/rest/POLocator/findLocations", "@spider": "usps_collection_boxes", "addr:city": "MORAVIA", "addr:country": "US", "addr:postcode": "52571", "addr:state": "IA", "addr:street_address": "107 N WILLIAM ST", "amenity": "post_box", "collection_times": "Mo-Fr 13:15; Sa 08:15", "indoor": "yes", "note": "ON 12/24 AND 12/31, THIS BOX MAY BE COLLECTED AS EARLY AS 12 NOON.", "nsi_id": "unitedstatespostalservice-a77078", "operator": "United States Postal Service", "operator:short": "USPS", "operator:type": "public", "operator:wikidata": "Q668687", "ref": "5257100001"}, "type": "Feature"}
{"geometry": {"coordinates": [-92.814520858, 40.891583296], "type": "Point"}, "id": "OWC_M-3TIfka31dTSgaxTx3pDxU=", "properties": {"@source_uri": "https://tools.usps.com/UspsToolsRestServices/rest/POLocator/findLocations", "@spider": "usps_collection_boxes", "addr:city": "MORAVIA", "addr:country": "US", "addr:postcode": "52571", "addr:state": "IA", "addr:street_address": "107 N WILLIAM ST", "amenity": "post_box", "collection_times": "Mo-Fr 13:15; Sa 08:15", "indoor": "yes", "note": "ON 12/24 AND 12/31, THIS BOX MAY BE COLLECTED AS EARLY AS 12 NOON.", "nsi_id": "unitedstatespostalservice-a77078", "operator": "United States Postal Service", "operator:short": "USPS", "operator:type": "public", "operator:wikidata": "Q668687", "ref": "5257100002"}, "type": "Feature"}
{"geometry": {"coordinates": [-92.6770606018, 40.6849480607], "type": "Point"}, "id": "mEVN-TtYL9NYFzvCavWqI0Rr2eg=", "properties": {"@source_uri": "https://tools.usps.com/UspsToolsRestServices/rest/POLocator/findLocations", "@spider": "usps_collection_boxes", "addr:city": "MOULTON", "addr:country": "US", "addr:postcode": "52572", "addr:state": "IA", "addr:street_address": "103 E 4TH ST", "amenity": "post_box", "collection_times": "Mo-Fr 13:45; Sa 09:15", "note": "ON 12/24 AND 12/31, THIS BOX MAY BE COLLECTED AS EARLY AS 12 NOON.", "nsi_id": "unitedstatespostalservice-a77078", "operator": "United States Postal Service", "operator:short": "USPS", "operator:type": "public", "operator:wikidata": "Q668687", "ref": "5257200004"}, "type": "Feature"}
{"geometry": {"coordinates": [-92.946271751, 40.777662478], "type": "Point"}, "id": "vDfqyWY2155qGkg1LxllRRur_0E=", "properties": {"@source_uri": "https://tools.usps.com/UspsToolsRestServices/rest/POLocator/findLocations", "@spider": "usps_collection_boxes", "addr:city": "MYSTIC", "addr:country": "US", "addr:postcode": "52574", "addr:state": "IA", "addr:street_address": "312 W MAIN ST", "amenity": "post_box", "collection_times": "Mo-Fr 15:45; Sa 13:30", "note": "ON 12/24 AND 12/31, THIS BOX MAY BE COLLECTED AS EARLY AS 12 NOON.", "nsi_id": "unitedstatespostalservice-a77078", "operator": "United States Postal Service", "operator:short": "USPS", "operator:type": "public", "operator:wikidata": "Q668687", "ref": "5257400000"}, "type": "Feature"}
{"geometry": {"coordinates": [-92.946271751, 40.777662478], "type": "Point"}, "id": "g1-vEIaBUH7-jP9A9ekiH4GfKEI=", "properties": {"@source_uri": "https://tools.usps.com/UspsToolsRestServices/rest/POLocator/findLocations", "@spider": "usps_collection_boxes", "addr:city": "MYSTIC", "addr:country": "US", "addr:postcode": "52574", "addr:state": "IA", "addr:street_address": "312 W MAIN ST", "amenity": "post_box", "collection_times": "Mo-Fr 15:45; Sa 13:30", "indoor": "yes", "note": "ON 12/24 AND 12/31, THIS BOX MAY BE COLLECTED AS EARLY AS 12 NOON.", "nsi_id": "unitedstatespostalservice-a77078", "operator": "United States Postal Service", "operator:short": "USPS", "operator:type": "public", "operator:wikidata": "Q668687", "ref": "5257400001"}, "type": "Feature"}
{"geometry": {"coordinates": [-92.946271751, 40.777662478], "type": "Point"}, "id": "3c4Kh3znFyUkxONe9ZHz4A4qbD0=", "properties": {"@source_uri": "https://tools.usps.com/UspsToolsRestServices/rest/POLocator/findLocations", "@spider": "usps_collection_boxes", "addr:city": "MYSTIC", "addr:country": "US", "addr:postcode": "52574", "addr:state": "IA", "addr:street_address": "312 W MAIN ST", "amenity": "post_box", "collection_times": "Mo-Fr 15:45; Sa 13:30", "indoor": "yes", "note": "ON 12/24 AND 12/31, THIS BOX MAY BE COLLECTED AS EARLY AS 12 NOON.", "nsi_id": "unitedstatespostalservice-a77078", "operator": "United States Postal Service", "operator:short": "USPS", "operator:type": "public", "operator:wikidata": "Q668687", "ref": "5257400002"}, "type": "Feature"}
{"geometry": {"coordinates": [-92.095927428, 41.199264559], "type": "Point"}, "id": "Ztt0it9i2RZJSJwxKJPoZETEU3A=", "properties": {"@source_uri": "https://tools.usps.com/UspsToolsRestServices/rest/POLocator/findLocations", "@spider": "usps_collection_boxes", "addr:city": "OLLIE", "addr:country": "US", "addr:postcode": "52576", "addr:state": "IA", "addr:street_address": "204 N 4TH ST", "amenity": "post_box", "collection_times": "Mo-Fr 15:15; Sa 12:15", "note": "ON 12/24 AND 12/31, THIS BOX MAY BE COLLECTED AS EARLY AS 12 NOON.", "nsi_id": "unitedstatespostalservice-a77078", "operator": "United States Postal Service", "operator:short": "USPS", "operator:type": "public", "operator:wikidata": "Q668687", "ref": "5257600000"}, "type": "Feature"}
{"geometry": {"coordinates": [-92.095927428, 41.199264559], "type": "Point"}, "id": "9eMr5KrLA8r6EGvea9jli8rQEMs=", "properties": {"@source_uri": "https://tools.usps.com/UspsToolsRestServices/rest/POLocator/findLocations", "@spider": "usps_collection_boxes", "addr:city": "OLLIE", "addr:country": "US", "addr:postcode": "52576", "addr:state": "IA", "addr:street_address": "204 N 4TH ST", "amenity": "post_box", "collection_times": "Mo-Fr 15:30; Sa 12:30", "indoor": "yes", "note": "ON 12/24 AND 12/31, THIS BOX MAY BE COLLECTED AS EARLY AS 12 NOON.", "nsi_id": "unitedstatespostalservice-a77078", "operator": "United States Postal Service", "operator:short": "USPS", "operator:type": "public", "operator:wikidata": "Q668687", "ref": "5257600002"}, "type": "Feature"}
{"geometry": {"coordinates": [-92.631843394, 41.286168], "type": "Point"}, "id": "2JwwBn6opMsRf_i_I6fBWcrCCwc=", "properties": {"@source_uri": "https://tools.usps.com/UspsToolsRestServices/rest/POLocator/findLocations", "@spider": "usps_collection_boxes", "addr:city": "OSKALOOSA", "addr:country": "US", "addr:postcode": "52577", "addr:state": "IA", "addr:street_address": "1102 S 11TH ST", "amenity": "post_box", "collection_times": "Mo-Sa 10:30", "nsi_id": "unitedstatespostalservice-a77078", "operator": "United States Postal Service", "operator:short": "USPS", "operator:type": "public", "operator:wikidata": "Q668687", "ref": "5257700005"}, "type": "Feature"}
{"geometry": {"coordinates": [-92.643763928, 41.294374238], "type": "Point"}, "id": "OGXBFQ8nHZyHW3FCMeV4rH1nPAg=", "properties": {"@source_uri": "https://tools.usps.com/UspsToolsRestServices/rest/POLocator/findLocations", "@spider": "usps_collection_boxes", "addr:city": "OSKALOOSA", "addr:country": "US", "addr:postcode": "52577", "addr:state": "IA", "addr:street_address": "202 S 1ST ST", "amenity": "post_box", "collection_times": "Mo-Sa 16:30", "note": "ON 12/24 AND 12/31, THIS BOX MAY BE COLLECTED AS EARLY AS 12 NOON.", "nsi_id": "unitedstatespostalservice-a77078", "operator": "United States Postal Service", "operator:short": "USPS", "operator:type": "public", "operator:wikidata": "Q668687", "ref": "5257700007"}, "type": "Feature"}
{"geometry": {"coordinates": [-92.643772879, 41.295248942], "type": "Point"}, "id": "FqvpM2X0uA_M38vxyi4L8H7lnS8=", "properties": {"@source_uri": "https://tools.usps.com/UspsToolsRestServices/rest/POLocator/findLocations", "@spider": "usps_collection_boxes", "addr:city": "OSKALOOSA", "addr:country": "US", "addr:postcode": "52577", "addr:state": "IA", "addr:street_address": "102 S 1ST ST", "amenity": "post_box", "collection_times": "Mo-Sa 16:30", "note": "ON 12/24 AND 12/31, THIS BOX MAY BE COLLECTED AS EARLY AS 12 NOON.", "nsi_id": "unitedstatespostalservice-a77078", "operator": "United States Postal Service", "operator:short": "USPS", "operator:type": "public", "operator:wikidata": "Q668687", "ref": "5257700008"}, "type": "Feature"}
{"geometry": {"coordinates": [-92.670354, 41.296206454], "type": "Point"}, "id": "Tta6sWu7LtCyRcvMmZANA0VdUfw=", "properties": {"@source_uri": "https://tools.usps.com/UspsToolsRestServices/rest/POLocator/findLocations", "@spider": "usps_collection_boxes", "addr:city": "OSKALOOSA", "addr:country": "US", "addr:postcode": "52577", "addr:state": "IA", "addr:street_address": "2203 A AVE W", "amenity": "post_box", "collection_times": "Mo-Sa 09:30", "nsi_id": "unitedstatespostalservice-a77078", "operator": "United States Postal Service", "operator:short": "USPS", "operator:type": "public", "operator:wikidata": "Q668687", "ref": "5257700012"}, "type": "Feature"}
{"geometry": {"coordinates": [-92.6460135, 41.295284488], "type": "Point"}, "id": "GKxxq5bM9EL-48bOjNFH5QTKmC8=", "properties": {"@source_uri": "https://tools.usps.com/UspsToolsRestServices/rest/POLocator/findLocations", "@spider": "usps_collection_boxes", "addr:city": "OSKALOOSA", "addr:country": "US", "addr:postcode": "52577", "addr:state": "IA", "addr:street_address": "200 HIGH AVE W", "amenity": "post_box", "collection_times": "Mo-Sa 16:30", "note": "ON 12/24 AND 12/31, THIS BOX MAY BE COLLECTED AS EARLY AS 12 NOON.", "nsi_id": "unitedstatespostalservice-a77078", "operator": "United States Postal Service", "operator:short": "USPS", "operator:type": "public", "operator:wikidata": "Q668687", "ref": "5257700019"}, "type": "Feature"}
{"geometry": {"coordinates": [-92.644392777, 41.289980508], "type": "Point"}, "id": "gRgmV7hWLHW2i-TM3Fipv5WyOJo=", "properties": {"@source_uri": "https://tools.usps.com/UspsToolsRestServices/rest/POLocator/findLocations", "@spider": "usps_collection_boxes", "addr:city": "OSKALOOSA", "addr:country": "US", "addr:postcode": "52577", "addr:state": "IA", "addr:street_address": "113 6TH AVE E", "amenity": "post_box", "collection_times": "Mo-Sa 17:00", "note": "ON 12/24 AND 12/31, THIS BOX MAY BE COLLECTED AS EARLY AS 12 NOON.", "nsi_id": "unitedstatespostalservice-a77078", "operator": "United States Postal Service", "operator:short": "USPS", "operator:type": "public", "operator:wikidata": "Q668687", "ref": "5257700020"}, "type": "Feature"}
{"geometry": {"coordinates": [-92.644392777, 41.289980508], "type": "Point"}, "id": "VTZ3TPapA6_WJ-K5pmovcL13jjg=", "properties": {"@source_uri": "https://tools.usps.com/UspsToolsRestServices/rest/POLocator/findLocations", "@spider": "usps_collection_boxes", "addr:city": "OSKALOOSA", "addr:country": "US", "addr:postcode": "52577", "addr:state": "IA", "addr:street_address": "113 6TH AVE E", "amenity": "post_box", "collection_times": "Mo-Sa 17:00", "note": "ON 12/24 AND 12/31, THIS BOX MAY BE COLLECTED AS EARLY AS 12 NOON.", "nsi_id": "unitedstatespostalservice-a77078", "operator": "United States Postal Service", "operator:short": "USPS", "operator:type": "public", "operator:wikidata": "Q668687", "ref": "5257700021"}, "type": "Feature"}
{"geometry": {"coordinates": [-92.644392777, 41.289980508], "type": "Point"}, "id": "4K152I8KCVpmJPZz1h42in8QiIk=", "properties": {"@source_uri": "https://tools.usps.com/UspsToolsRestServices/rest/POLocator/findLocations", "@spider": "usps_collection_boxes", "addr:city": "OSKALOOSA", "addr:country": "US", "addr:postcode": "52577", "addr:state": "IA", "addr:street_address": "113 6TH AVE E", "amenity": "post_box", "collection_times": "Mo-Sa 17:00", "indoor": "yes", "note": "ON 12/24 AND 12/31, THIS BOX MAY BE COLLECTED AS EARLY AS 12 NOON.", "nsi_id": "unitedstatespostalservice-a77078", "operator": "United States Postal Service", "operator:short": "USPS", "operator:type": "public", "operator:wikidata": "Q668687", "ref": "5257700025"}, "type": "Feature"}
{"geometry": {"coordinates": [-92.649697011, 41.295155933], "type": "Point"}, "id": "zMUHVJ_2QPKZICHOCzeyefKyQLA=", "properties": {"@source_uri": "https://tools.usps.com/UspsToolsRestServices/rest/POLocator/findLocations", "@spider": "usps_collection_boxes", "addr:city": "OSKALOOSA", "addr:country": "US", "addr:postcode": "52577", "addr:state": "IA", "addr:street_address": "110 S D ST", "amenity": "post_box", "collection_times": "Mo-Sa 09:15", "nsi_id": "unitedstatespostalservice-a77078", "operator": "United States Postal Service", "operator:short": "USPS", "operator:type": "public", "operator:wikidata": "Q668687", "ref": "5257700028"}, "type": "Feature"}
{"geometry": {"coordinates": [-92.644392777, 41.289980508], "type": "Point"}, "id": "U28m0xUW1ynlBw2pg_71YbHhO7g=", "properties": {"@source_uri": "https://tools.usps.com/UspsToolsRestServices/rest/POLocator/findLocations", "@spider": "usps_collection_boxes", "addr:city": "OSKALOOSA", "addr:country": "US", "addr:postcode": "52577", "addr:state": "IA", "addr:street_address": "113 6TH AVE E", "amenity": "post_box", "collection_times": "Mo-Fr 16:30; Sa 12:00", "indoor": "yes", "note": "ON 12/24 AND 12/31, THIS BOX MAY BE COLLECTED AS EARLY AS 12 NOON.", "nsi_id": "unitedstatespostalservice-a77078", "operator": "United States Postal Service", "operator:short": "USPS", "operator:type": "public", "operator:wikidata": "Q668687", "ref": "5257700029"}, "type": "Feature"}
{"geometry": {"coordinates": [-92.084521668, 41.132964457], "type": "Point"}, "id": "CJZqe3WfYXoGSPZD3bQWXXzQydY=", "properties": {"@source_uri": "https://tools.usps.com/UspsToolsRestServices/rest/POLocator/findLocations", "@spider": "usps_collection_boxes", "addr:city": "PACKWOOD", "addr:country": "US", "addr:postcode": "52580", "addr:state": "IA", "addr:street_address": "204 W 2ND ST", "amenity": "post_box", "collection_times": "Mo-Fr 11:45; Sa 09:00", "nsi_id": "unitedstatespostalservice-a77078", "operator": "United States Postal Service", "operator:short": "USPS", "operator:type": "public", "operator:wikidata": "Q668687", "ref": "5258000000"}, "type": "Feature"}
{"geometry": {"coordinates": [-92.084521668, 41.132964457], "type": "Point"}, "id": "KUP1trrz0PArEvcW1pcASRPh-es=", "properties": {"@source_uri": "https://tools.usps.com/UspsToolsRestServices/rest/POLocator/findLocations", "@spider": "usps_collection_boxes", "addr:city": "PACKWOOD", "addr:country": "US", "addr:postcode": "52580", "addr:state": "IA", "addr:street_address": "204 W 2ND ST", "amenity": "post_box", "collection_times": "Mo-Fr 11:45; Sa 08:45", "indoor": "yes", "nsi_id": "unitedstatespostalservice-a77078", "operator": "United States Postal Service", "operator:short": "USPS", "operator:type": "public", "operator:wikidata": "Q668687", "ref": "5258000001"}, "type": "Feature"}
{"geometry": {"coordinates": [-92.084521668, 41.132964457], "type": "Point"}, "id": "758TtuIBPK5Zv3hcyF7_rQeX5fc=", "properties": {"@source_uri": "https://tools.usps.com/UspsToolsRestServices/rest/POLocator/findLocations", "@spider": "usps_collection_boxes", "addr:city": "PACKWOOD", "addr:country": "US", "addr:postcode": "52580", "addr:state": "IA", "addr:street_address": "204 W 2ND ST", "amenity": "post_box", "collection_times": "Mo-Fr 12:00; Sa 09:15", "indoor": "yes", "nsi_id": "unitedstatespostalservice-a77078", "operator": "United States Postal Service", "operator:short": "USPS", "operator:type": "public", "operator:wikidata": "Q668687", "ref": "5258000002"}, "type": "Feature"}
{"geometry": {"coordinates": [-93.046464, 40.756427488], "type": "Point"}, "id": "GOxmJTLE6MWEBHDPdiEwtZGSbhg=", "properties": {"@source_uri": "https://tools.usps.com/UspsToolsRestServices/rest/POLocator/findLocations", "@spider": "usps_collection_boxes", "addr:city": "PLANO", "addr:country": "US", "addr:postcode": "52581", "addr:state": "IA", "addr:street_address": "403 FRONT ST", "amenity": "post_box", "collection_times": "Mo-Fr 12:30; Sa 12:15", "note": "ON 12/24 AND 12/31, THIS BOX MAY BE COLLECTED AS EARLY AS 12 NOON.", "nsi_id": "unitedstatespostalservice-a77078", "operator": "United States Postal Service", "operator:short": "USPS", "operator:type": "public", "operator:wikidata": "Q668687", "ref": "5258100000"}, "type": "Feature"}
{"geometry": {"coordinates": [-93.046464, 40.756427488], "type": "Point"}, "id": "-e5A2H81PwI5cndTcn10QdcZr6g=", "properties": {"@source_uri": "https://tools.usps.com/UspsToolsRestServices/rest/POLocator/findLocations", "@spider": "usps_collection_boxes", "addr:city": "PLANO", "addr:country": "US", "addr:postcode": "52581", "addr:state": "IA", "addr:street_address": "403 FRONT ST", "amenity": "post_box", "collection_times": "Mo-Sa 10:45", "indoor": "yes", "nsi_id": "unitedstatespostalservice-a77078", "operator": "United States Postal Service", "operator:short": "USPS", "operator:type": "public", "operator:wikidata": "Q668687", "ref": "5258100002"}, "type": "Feature"}
{"geometry": {"coordinates": [-93.046464, 40.7564274885], "type": "Point"}, "id": "-QBzAe20jzXjpd6eZ293uCOuPtI=", "properties": {"@source_uri": "https://tools.usps.com/UspsToolsRestServices/rest/POLocator/findLocations", "@spider": "usps_collection_boxes", "addr:city": "PLANO", "addr:country": "US", "addr:postcode": "52581", "addr:state": "IA", "addr:street_address": "403 FRONT ST", "amenity": "post_box", "collection_times": "Mo-Sa 11:00", "indoor": "yes", "nsi_id": "unitedstatespostalservice-a77078", "operator": "United States Postal Service", "operator:short": "USPS", "operator:type": "public", "operator:wikidata": "Q668687", "ref": "5258100003"}, "type": "Feature"}
{"geometry": {"coordinates": [-93.149837754, 40.745429162], "type": "Point"}, "id": "6tEs2l1xRmB_ZDe5Sf0KQtsg6eI=", "properties": {"@source_uri": "https://tools.usps.com/UspsToolsRestServices/rest/POLocator/findLocations", "@spider": "usps_collection_boxes", "addr:city": "PROMISE CITY", "addr:country": "US", "addr:postcode": "52583", "addr:state": "IA", "addr:street_address": "105 CENTER ST", "amenity": "post_box", "collection_times": "Mo-Fr 15:45; Sa 13:45", "note": "ON 12/24 AND 12/31, THIS BOX MAY BE COLLECTED AS EARLY AS 12 NOON.", "nsi_id": "unitedstatespostalservice-a77078", "operator": "United States Postal Service", "operator:short": "USPS", "operator:type": "public", "operator:wikidata": "Q668687", "ref": "5258300000"}, "type": "Feature"}
{"geometry": {"coordinates": [-93.149837754, 40.745429162], "type": "Point"}, "id": "hwH3d4ug4wVsDhBJyjojcuwjpg4=", "properties": {"@source_uri": "https://tools.usps.com/UspsToolsRestServices/rest/POLocator/findLocations", "@spider": "usps_collection_boxes", "addr:city": "PROMISE CITY", "addr:country": "US", "addr:postcode": "52583", "addr:state": "IA", "addr:street_address": "105 CENTER ST", "amenity": "post_box", "collection_times": "Mo-Fr 15:45", "indoor": "yes", "note": "ON 12/24 AND 12/31, THIS BOX MAY BE COLLECTED AS EARLY AS 12 NOON.", "nsi_id": "unitedstatespostalservice-a77078", "operator": "United States Postal Service", "operator:short": "USPS", "operator:type": "public", "operator:wikidata": "Q668687", "ref": "5258300001"}, "type": "Feature"}
{"geometry": {"coordinates": [-93.149837754, 40.745429162], "type": "Point"}, "id": "BaST-g0svcmyUULW-GfwWiD_XCA=", "properties": {"@source_uri": "https://tools.usps.com/UspsToolsRestServices/rest/POLocator/findLocations", "@spider": "usps_collection_boxes", "addr:city": "PROMISE CITY", "addr:country": "US", "addr:postcode": "52583", "addr:state": "IA", "addr:street_address": "105 CENTER ST", "amenity": "post_box", "collection_times": "Mo-Fr 15:30; Sa 14:00", "indoor": "yes", "note": "ON 12/24 AND 12/31, THIS BOX MAY BE COLLECTED AS EARLY AS 12 NOON.", "nsi_id": "unitedstatespostalservice-a77078", "operator": "United States Postal Service", "operator:short": "USPS", "operator:type": "public", "operator:wikidata": "Q668687", "ref": "5258300002"}, "type": "Feature"}
{"geometry": {"coordinates": [-92.271925902, 40.697058379], "type": "Point"}, "id": "rxiec382qdBAaeFuvk2SwUTBWx0=", "properties": {"@source_uri": "https://tools.usps.com/UspsToolsRestServices/rest/POLocator/findLocations", "@spider": "usps_collection_boxes", "addr:city": "PULASKI", "addr:country": "US", "addr:postcode": "52584", "addr:state": "IA", "addr:street_address": "111 W MAIN ST", "amenity": "post_box", "collection_times": "Mo-Fr 14:45; Sa 12:00", "note": "ON 12/24 AND 12/31, THIS BOX MAY BE COLLECTED AS EARLY AS 12 NOON.", "nsi_id": "unitedstatespostalservice-a77078", "operator": "United States Postal Service", "operator:short": "USPS", "operator:type": "public", "operator:wikidata": "Q668687", "ref": "5258400000"}, "type": "Feature"}
{"geometry": {"coordinates": [-92.271925902, 40.697058379], "type": "Point"}, "id": "-j7PDeatA7QXn29JIw4EtEl8z8Q=", "properties": {"@source_uri": "https://tools.usps.com/UspsToolsRestServices/rest/POLocator/findLocations", "@spider": "usps_collection_boxes", "addr:city": "PULASKI", "addr:country": "US", "addr:postcode": "52584", "addr:state": "IA", "addr:street_address": "111 W MAIN ST", "amenity": "post_box", "collection_times": "Mo-Fr 14:45; Sa 12:00", "indoor": "yes", "note": "ON 12/24 AND 12/31, THIS BOX MAY BE COLLECTED AS EARLY AS 12 NOON.", "nsi_id": "unitedstatespostalservice-a77078", "operator": "United States Postal Service", "operator:short": "USPS", "operator:type": "public", "operator:wikidata": "Q668687", "ref": "5258400001"}, "type": "Feature"}
{"geometry": {"coordinates": [-92.271925902, 40.697058379], "type": "Point"}, "id": "CwTvkuZfGJF10awkSOfio9nsBYw=", "properties": {"@source_uri": "https://tools.usps.com/UspsToolsRestServices/rest/POLocator/findLocations", "@spider": "usps_collection_boxes", "addr:city": "PULASKI", "addr:country": "US", "addr:postcode": "52584", "addr:state": "IA", "addr:street_address": "111 W MAIN ST", "amenity": "post_box", "collection_times": "Mo-Fr 14:45; Sa 12:00", "indoor": "yes", "note": "ON 12/24 AND 12/31, THIS BOX MAY BE COLLECTED AS EARLY AS 12 NOON.", "nsi_id": "unitedstatespostalservice-a77078", "operator": "United States Postal Service", "operator:short": "USPS", "operator:type": "public", "operator:wikidata": "Q668687", "ref": "5258400002"}, "type": "Feature"}
{"geometry": {"coordinates": [-91.994559991, 41.184899445], "type": "Point"}, "id": "A3A005IcqUkJchyUFyLezGj8gVc=", "properties": {"@source_uri": "https://tools.usps.com/UspsToolsRestServices/rest/POLocator/findLocations", "@spider": "usps_collection_boxes", "addr:city": "RICHLAND", "addr:country": "US", "addr:postcode": "52585", "addr:state": "IA", "addr:street_address": "111 N RICHLAND ST", "amenity": "post_box", "collection_times": "Mo-Fr 11:45; Sa 09:45", "nsi_id": "unitedstatespostalservice-a77078", "operator": "United States Postal Service", "operator:short": "USPS", "operator:type": "public", "operator:wikidata": "Q668687", "ref": "5258500000"}, "type": "Feature"}
{"geometry": {"coordinates": [-91.994559991, 41.184899445], "type": "Point"}, "id": "2CAMzMSpNMCnH4PU8gidpPzClAY=", "properties": {"@source_uri": "https://tools.usps.com/UspsToolsRestServices/rest/POLocator/findLocations", "@spider": "usps_collection_boxes", "addr:city": "RICHLAND", "addr:country": "US", "addr:postcode": "52585", "addr:state": "IA", "addr:street_address": "111 N RICHLAND ST", "amenity": "post_box", "collection_times": "Mo-Fr 11:45", "indoor": "yes", "nsi_id": "unitedstatespostalservice-a77078", "operator": "United States Postal Service", "operator:short": "USPS", "operator:type": "public", "operator:wikidata": "Q668687", "ref": "5258500001"}, "type": "Feature"}
{"geometry": {"coordinates": [-91.994559991, 41.184899445], "type": "Point"}, "id": "aeeR8gfQhJZD-MhLVC45YKetLts=", "properties": {"@source_uri": "https://tools.usps.com/UspsToolsRestServices/rest/POLocator/findLocations", "@spider": "usps_collection_boxes", "addr:city": "RICHLAND", "addr:country": "US", "addr:postcode": "52585", "addr:state": "IA", "addr:street_address": "111 N RICHLAND ST", "amenity": "post_box", "collection_times": "Mo-Fr 12:00; Sa 10:00", "indoor": "yes", "nsi_id": "unitedstatespostalservice-a77078", "operator": "United States Postal Service", "operator:short": "USPS", "operator:type": "public", "operator:wikidata": "Q668687", "ref": "5258500002"}, "type": "Feature"}
{"geometry": {"coordinates": [-92.464164251, 41.32097346], "type": "Point"}, "id": "0rEbykenzdCrDw2DiLIrWL1y_EY=", "properties": {"@source_uri": "https://tools.usps.com/UspsToolsRestServices/rest/POLocator/findLocations", "@spider": "usps_collection_boxes", "addr:city": "ROSE HILL", "addr:country": "US", "addr:postcode": "52586", "addr:state": "IA", "addr:street_address": "339 MAIN ST", "amenity": "post_box", "collection_times": "Mo-Fr 14:45; Sa 14:00", "note": "ON 12/24 AND 12/31, THIS BOX MAY BE COLLECTED AS EARLY AS 12 NOON.", "nsi_id": "unitedstatespostalservice-a77078", "operator": "United States Postal Service", "operator:short": "USPS", "operator:type": "public", "operator:wikidata": "Q668687", "ref": "5258600000"}, "type": "Feature"}
{"geometry": {"coordinates": [-92.464164251, 41.32097346], "type": "Point"}, "id": "JrXZteZkiPmmr1tCNyO_erOEmh0=", "properties": {"@source_uri": "https://tools.usps.com/UspsToolsRestServices/rest/POLocator/findLocations", "@spider": "usps_collection_boxes", "addr:city": "ROSE HILL", "addr:country": "US", "addr:postcode": "52586", "addr:state": "IA", "addr:street_address": "339 MAIN ST", "amenity": "post_box", "collection_times": "Mo-Fr 14:45", "indoor": "yes", "note": "ON 12/24 AND 12/31, THIS BOX MAY BE COLLECTED AS EARLY AS 12 NOON.", "nsi_id": "unitedstatespostalservice-a77078", "operator": "United States Postal Service", "operator:short": "USPS", "operator:type": "public", "operator:wikidata": "Q668687", "ref": "5258600001"}, "type": "Feature"}
{"geometry": {"coordinates": [-92.464164251, 41.32097346], "type": "Point"}, "id": "vgrfsdLCVTbdgqZBwdqunQjUfq4=", "properties": {"@source_uri": "https://tools.usps.com/UspsToolsRestServices/rest/POLocator/findLocations", "@spider": "usps_collection_boxes", "addr:city": "ROSE HILL", "addr:country": "US", "addr:postcode": "52586", "addr:state": "IA", "addr:street_address": "339 MAIN ST", "amenity": "post_box", "collection_times": "Mo-Fr 15:00; Sa 14:15", "indoor": "yes", "note": "ON 12/24 AND 12/31, THIS BOX MAY BE COLLECTED AS EARLY AS 12 NOON.", "nsi_id": "unitedstatespostalservice-a77078", "operator": "United States Postal Service", "operator:short": "USPS", "operator:type": "public", "operator:wikidata": "Q668687", "ref": "5258600002"}, "type": "Feature"}
{"geometry": {"coordinates": [-93.1197943, 40.682798889], "type": "Point"}, "id": "RKtOoUJTdEMFgFW93KgXX_Jp1Xk=", "properties": {"@source_uri": "https://tools.usps.com/UspsToolsRestServices/rest/POLocator/findLocations", "@spider": "usps_collection_boxes", "addr:city": "SEYMOUR", "addr:country": "US", "addr:postcode": "52590", "addr:state": "IA", "addr:street_address": "230 N 4TH ST", "amenity": "post_box", "collection_times": "Mo-Fr 14:45; Sa 09:45", "note": "ON 12/24 AND 12/31, THIS BOX MAY BE COLLECTED AS EARLY AS 12 NOON.", "nsi_id": "unitedstatespostalservice-a77078", "operator": "United States Postal Service", "operator:short": "USPS", "operator:type": "public", "operator:wikidata": "Q668687", "ref": "5259000000"}, "type": "Feature"}
{"geometry": {"coordinates": [-93.1197943, 40.682798889], "type": "Point"}, "id": "5vVWW-IWxoW5twxgDnyupS3GJRM=", "properties": {"@source_uri": "https://tools.usps.com/UspsToolsRestServices/rest/POLocator/findLocations", "@spider": "usps_collection_boxes", "addr:city": "SEYMOUR", "addr:country": "US", "addr:postcode": "52590", "addr:state": "IA", "addr:street_address": "230 N 4TH ST", "amenity": "post_box", "collection_times": "Mo-Fr 14:45; Sa 09:45", "indoor": "yes", "note": "ON 12/24 AND 12/31, THIS BOX MAY BE COLLECTED AS EARLY AS 12 NOON.", "nsi_id": "unitedstatespostalservice-a77078", "operator": "United States Postal Service", "operator:short": "USPS", "operator:type": "public", "operator:wikidata": "Q668687", "ref": "5259000002"}, "type": "Feature"}
{"geometry": {"coordinates": [-93.1197943, 40.682798889], "type": "Point"}, "id": "6MV7L8AQDqDpHb0YyLZ668GHYrE=", "properties": {"@source_uri": "https://tools.usps.com/UspsToolsRestServices/rest/POLocator/findLocations", "@spider": "usps_collection_boxes", "addr:city": "SEYMOUR", "addr:country": "US", "addr:postcode": "52590", "addr:state": "IA", "addr:street_address": "230 N 4TH ST", "amenity": "post_box", "collection_times": "Mo-Fr 15:00; Sa 10:00", "indoor": "yes", "note": "ON 12/24 AND 12/31, THIS BOX MAY BE COLLECTED AS EARLY AS 12 NOON.", "nsi_id": "unitedstatespostalservice-a77078", "operator": "United States Postal Service", "operator:short": "USPS", "operator:type": "public", "operator:wikidata": "Q668687", "ref": "5259000003"}, "type": "Feature"}
{"geometry": {"coordinates": [-92.206042889, 41.333708496], "type": "Point"}, "id": "ObEsfzZCaVa_EiCKdENw8Zz2JHY=", "properties": {"@source_uri": "https://tools.usps.com/UspsToolsRestServices/rest/POLocator/findLocations", "@spider": "usps_collection_boxes", "addr:city": "SIGOURNEY", "addr:country": "US", "addr:postcode": "52591", "addr:state": "IA", "addr:street_address": "115 W WASHINGTON ST", "amenity": "post_box", "collection_times": "Mo-Fr 17:00; Sa 09:45", "note": "ON 12/24 AND 12/31, THIS BOX MAY BE COLLECTED AS EARLY AS 12 NOON.", "nsi_id": "unitedstatespostalservice-a77078", "operator": "United States Postal Service", "operator:short": "USPS", "operator:type": "public", "operator:wikidata": "Q668687", "ref": "5259100002"}, "type": "Feature"}
{"geometry": {"coordinates": [-92.206042889, 41.333708496], "type": "Point"}, "id": "0R0ZdTYRmLuAqwCzkofB9_2CviI=", "properties": {"@source_uri": "https://tools.usps.com/UspsToolsRestServices/rest/POLocator/findLocations", "@spider": "usps_collection_boxes", "addr:city": "SIGOURNEY", "addr:country": "US", "addr:postcode": "52591", "addr:state": "IA", "addr:street_address": "115 W WASHINGTON ST", "amenity": "post_box", "collection_times": "Mo-Fr 16:30; Sa 10:00", "indoor": "yes", "note": "ON 12/24 AND 12/31, THIS BOX MAY BE COLLECTED AS EARLY AS 12 NOON.", "nsi_id": "unitedstatespostalservice-a77078", "operator": "United States Postal Service", "operator:short": "USPS", "operator:type": "public", "operator:wikidata": "Q668687", "ref": "5259100005"}, "type": "Feature"}
{"geometry": {"coordinates": [-92.206042889, 41.333708496], "type": "Point"}, "id": "z41aH-jQj5kXG011NuEy1jYEIJs=", "properties": {"@source_uri": "https://tools.usps.com/UspsToolsRestServices/rest/POLocator/findLocations", "@spider": "usps_collection_boxes", "addr:city": "SIGOURNEY", "addr:country": "US", "addr:postcode": "52591", "addr:state": "IA", "addr:street_address": "115 W WASHINGTON ST", "amenity": "post_box", "collection_times": "Mo-Fr 16:00; Sa 10:00", "indoor": "yes", "note": "ON 12/24 AND 12/31, THIS BOX MAY BE COLLECTED AS EARLY AS 12 NOON.", "nsi_id": "unitedstatespostalservice-a77078", "operator": "United States Postal Service", "operator:short": "USPS", "operator:type": "public", "operator:wikidata": "Q668687", "ref": "5259100006"}, "type": "Feature"}
{"geometry": {"coordinates": [-92.696448043, 40.819510835], "type": "Point"}, "id": "Gc1q_dGc7INEkJbXB4QUCuZyx00=", "properties": {"@source_uri": "https://tools.usps.com/UspsToolsRestServices/rest/POLocator/findLocations", "@spider": "usps_collection_boxes", "addr:city": "UNIONVILLE", "addr:country": "US", "addr:postcode": "52594", "addr:state": "IA", "addr:street_address": "105 W UNION ST", "amenity": "post_box", "collection_times": "Mo-Fr 13:30; Sa 13:00", "note": "ON 12/24 AND 12/31, THIS BOX MAY BE COLLECTED AS EARLY AS 12 NOON.", "nsi_id": "unitedstatespostalservice-a77078", "operator": "United States Postal Service", "operator:short": "USPS", "operator:type": "public", "operator:wikidata": "Q668687", "ref": "5259400000"}, "type": "Feature"}
{"geometry": {"coordinates": [-92.696448043, 40.819510835], "type": "Point"}, "id": "rGHpZOfM6xUcV1ifoLzqkhxPVkE=", "properties": {"@source_uri": "https://tools.usps.com/UspsToolsRestServices/rest/POLocator/findLocations", "@spider": "usps_collection_boxes", "addr:city": "UNIONVILLE", "addr:country": "US", "addr:postcode": "52594", "addr:state": "IA", "addr:street_address": "105 W UNION ST", "amenity": "post_box", "collection_times": "Mo-Fr 13:30", "indoor": "yes", "note": "ON 12/24 AND 12/31, THIS BOX MAY BE COLLECTED AS EARLY AS 12 NOON.", "nsi_id": "unitedstatespostalservice-a77078", "operator": "United States Postal Service", "operator:short": "USPS", "operator:type": "public", "operator:wikidata": "Q668687", "ref": "5259400001"}, "type": "Feature"}
{"geometry": {"coordinates": [-92.696448043, 40.819510835], "type": "Point"}, "id": "0RI8a34mhi1CMuzE7jn7h2cjnpQ=", "properties": {"@source_uri": "https://tools.usps.com/UspsToolsRestServices/rest/POLocator/findLocations", "@spider": "usps_collection_boxes", "addr:city": "UNIONVILLE", "addr:country": "US", "addr:postcode": "52594", "addr:state": "IA", "addr:street_address": "105 W UNION ST", "amenity": "post_box", "collection_times": "Mo-Sa 13:15", "indoor": "yes", "note": "ON 12/24 AND 12/31, THIS BOX MAY BE COLLECTED AS EARLY AS 12 NOON.", "nsi_id": "unitedstatespostalservice-a77078", "operator": "United States Postal Service", "operator:short": "USPS", "operator:type": "public", "operator:wikidata": "Q668687", "ref": "5259400002"}, "type": "Feature"}
{"geometry": {"coordinates": [-92.618824943, 41.286567437], "type": "Point"}, "id": "3xFNqsOP5SELZ0NAEr2s1NqHY5g=", "properties": {"@source_uri": "https://tools.usps.com/UspsToolsRestServices/rest/POLocator/findLocations", "@spider": "usps_collection_boxes", "addr:city": "UNIVERSITY PARK", "addr:country": "US", "addr:postcode": "52595", "addr:state": "IA", "addr:street_address": "2204 9TH AVE E", "amenity": "post_box", "collection_times": "Mo-Fr 11:45; Sa 10:15", "nsi_id": "unitedstatespostalservice-a77078", "operator": "United States Postal Service", "operator:short": "USPS", "operator:type": "public", "operator:wikidata": "Q668687", "ref": "5259500000"}, "type": "Feature"}
{"geometry": {"coordinates": [-92.618824943, 41.286567437], "type": "Point"}, "id": "o1XV535nVTBiG8TeRhz8b8CIMvA=", "properties": {"@source_uri": "https://tools.usps.com/UspsToolsRestServices/rest/POLocator/findLocations", "@spider": "usps_collection_boxes", "addr:city": "UNIVERSITY PARK", "addr:country": "US", "addr:postcode": "52595", "addr:state": "IA", "addr:street_address": "2204 9TH AVE E", "amenity": "post_box", "collection_times": "Mo-Fr 11:45; Sa 10:15", "indoor": "yes", "nsi_id": "unitedstatespostalservice-a77078", "operator": "United States Postal Service", "operator:short": "USPS", "operator:type": "public", "operator:wikidata": "Q668687", "ref": "5259500001"}, "type": "Feature"}
{"geometry": {"coordinates": [-92.618824943, 41.286567437], "type": "Point"}, "id": "mIHK9J_cIK0h5IDrAqV6BvfybFs=", "properties": {"@source_uri": "https://tools.usps.com/UspsToolsRestServices/rest/POLocator/findLocations", "@spider": "usps_collection_boxes", "addr:city": "UNIVERSITY PARK", "addr:country": "US", "addr:postcode": "52595", "addr:state": "IA", "addr:street_address": "2204 9TH AVE E", "amenity": "post_box", "collection_times": "Mo-Fr 12:00; Sa 10:30", "indoor": "yes", "nsi_id": "unitedstatespostalservice-a77078", "operator": "United States Postal Service", "operator:short": "USPS", "operator:type": "public", "operator:wikidata": "Q668687", "ref": "5259500002"}, "type": "Feature"}
