{"geometry": {"coordinates": [-91.141415175, 40.818914581], "type": "Point"}, "id": "8HdIUa2bhu6khsJyeUXpm7LCePU=", "properties": {"@source_uri": "https://tools.usps.com/UspsToolsRestServices/rest/POLocator/findLocations", "@spider": "usps_collection_boxes", "addr:city": "BURLINGTON", "addr:country": "US", "addr:postcode": "52601", "addr:state": "IA", "addr:street_address": "1000 N ROOSEVELT AVE", "amenity": "post_box", "collection_times": "Mo-Sa 08:30", "nsi_id": "unitedstatespostalservice-a77078", "operator": "United States Postal Service", "operator:short": "USPS", "operator:type": "public", "operator:wikidata": "Q668687", "ref": "5260100002"}, "type": "Feature"}
{"geometry": {"coordinates": [-91.102848603, 40.813051202], "type": "Point"}, "id": "hhzQ1ExoG30q5ic61gL1X5DOSq0=", "properties": {"@source_uri": "https://tools.usps.com/UspsToolsRestServices/rest/POLocator/findLocations", "@spider": "usps_collection_boxes", "addr:city": "BURLINGTON", "addr:country": "US", "addr:postcode": "52601", "addr:state": "IA", "addr:street_address": "610 N 4TH ST", "amenity": "post_box", "collection_times": "Mo-Fr 12:00", "nsi_id": "unitedstatespostalservice-a77078", "operator": "United States Postal Service", "operator:short": "USPS", "operator:type": "public", "operator:wikidata": "Q668687", "ref": "5260100003"}, "type": "Feature"}
{"geometry": {"coordinates": [-91.140663526, 40.807594546], "type": "Point"}, "id": "JMq3gg3c25eCwyxo4qh6x79FbAk=", "properties": {"@source_uri": "https://tools.usps.com/UspsToolsRestServices/rest/POLocator/findLocations", "@spider": "usps_collection_boxes", "addr:city": "BURLINGTON", "addr:country": "US", "addr:postcode": "52601", "addr:state": "IA", "addr:street_address": "3225 DIVISION ST", "amenity": "post_box", "collection_times": "Mo-Sa 10:00", "nsi_id": "unitedstatespostalservice-a77078", "operator": "United States Postal Service", "operator:short": "USPS", "operator:type": "public", "operator:wikidata": "Q668687", "ref": "5260100005"}, "type": "Feature"}
{"geometry": {"coordinates": [-91.138412338, 40.822763685], "type": "Point"}, "id": "L1rgMQjS-6MZ3_BnTXyilexAwCU=", "properties": {"@source_uri": "https://tools.usps.com/UspsToolsRestServices/rest/POLocator/findLocations", "@spider": "usps_collection_boxes", "addr:city": "BURLINGTON", "addr:country": "US", "addr:postcode": "52601", "addr:state": "IA", "addr:street_address": "2830 WINEGARD DR", "amenity": "post_box", "collection_times": "Mo-Sa 09:00", "nsi_id": "unitedstatespostalservice-a77078", "operator": "United States Postal Service", "operator:short": "USPS", "operator:type": "public", "operator:wikidata": "Q668687", "ref": "5260100010"}, "type": "Feature"}
{"geometry": {"coordinates": [-91.100839501, 40.811947709], "type": "Point"}, "id": "DUBxGpPV-CeUcfIY6Ml8wKUBfuY=", "properties": {"@source_uri": "https://tools.usps.com/UspsToolsRestServices/rest/POLocator/findLocations", "@spider": "usps_collection_boxes", "addr:city": "BURLINGTON", "addr:country": "US", "addr:postcode": "52601", "addr:state": "IA", "addr:street_address": "513 N MAIN ST", "amenity": "post_box", "collection_times": "Mo-Sa 14:30", "note": "ON 12/24 AND 12/31, THIS BOX MAY BE COLLECTED AS EARLY AS 12 NOON.", "nsi_id": "unitedstatespostalservice-a77078", "operator": "United States Postal Service", "operator:short": "USPS", "operator:type": "public", "operator:wikidata": "Q668687", "ref": "5260100011"}, "type": "Feature"}
{"geometry": {"coordinates": [-91.136763243, 40.825737431], "type": "Point"}, "id": "QOeRjP3RwnQfofRX35lxdDu-1o8=", "properties": {"@source_uri": "https://tools.usps.com/UspsToolsRestServices/rest/POLocator/findLocations", "@spider": "usps_collection_boxes", "addr:city": "BURLINGTON", "addr:country": "US", "addr:postcode": "52601", "addr:state": "IA", "addr:street_address": "2712 MOUNT PLEASANT ST", "amenity": "post_box", "collection_times": "Mo-Sa 09:30", "nsi_id": "unitedstatespostalservice-a77078", "operator": "United States Postal Service", "operator:short": "USPS", "operator:type": "public", "operator:wikidata": "Q668687", "ref": "5260100016"}, "type": "Feature"}
{"geometry": {"coordinates": [-91.141968795, 40.801014671], "type": "Point"}, "id": "OZLxyXukIdH-ejP0d7nmEoziGOU=", "properties": {"@source_uri": "https://tools.usps.com/UspsToolsRestServices/rest/POLocator/findLocations", "@spider": "usps_collection_boxes", "addr:city": "BURLINGTON", "addr:country": "US", "addr:postcode": "52601", "addr:state": "IA", "addr:street_address": "909 S ROOSEVELT AVE", "amenity": "post_box", "collection_times": "Mo-Sa 10:00", "nsi_id": "unitedstatespostalservice-a77078", "operator": "United States Postal Service", "operator:short": "USPS", "operator:type": "public", "operator:wikidata": "Q668687", "ref": "5260100018"}, "type": "Feature"}
{"geometry": {"coordinates": [-91.140007752, 40.799141717], "type": "Point"}, "id": "ZC22up7XIJ28pomcGV3T9XgXlew=", "properties": {"@source_uri": "https://tools.usps.com/UspsToolsRestServices/rest/POLocator/findLocations", "@spider": "usps_collection_boxes", "addr:city": "BURLINGTON", "addr:country": "US", "addr:postcode": "52601", "addr:state": "IA", "addr:street_address": "920 LAWRENCE ST", "amenity": "post_box", "collection_times": "Mo-Sa 09:30", "nsi_id": "unitedstatespostalservice-a77078", "operator": "United States Postal Service", "operator:short": "USPS", "operator:type": "public", "operator:wikidata": "Q668687", "ref": "5260100019"}, "type": "Feature"}
{"geometry": {"coordinates": [-91.103886734, 40.811130198], "type": "Point"}, "id": "MtafQ1eudWUiGVVeY5OaTqDm2us=", "properties": {"@source_uri": "https://tools.usps.com/UspsToolsRestServices/rest/POLocator/findLocations", "@spider": "usps_collection_boxes", "addr:city": "BURLINGTON", "addr:country": "US", "addr:postcode": "52601", "addr:state": "IA", "addr:street_address": "400 WASHINGTON ST", "amenity": "post_box", "collection_times": "Mo-Sa 14:30", "note": "ON 12/24 AND 12/31, THIS BOX MAY BE COLLECTED AS EARLY AS 12 NOON.", "nsi_id": "unitedstatespostalservice-a77078", "operator": "United States Postal Service", "operator:short": "USPS", "operator:type": "public", "operator:wikidata": "Q668687", "ref": "5260100021"}, "type": "Feature"}
{"geometry": {"coordinates": [-91.104382072, 40.816399611], "type": "Point"}, "id": "b_Y_RJxxDLVpae4dmLEuWgDEbog=", "properties": {"@source_uri": "https://tools.usps.com/UspsToolsRestServices/rest/POLocator/findLocations", "@spider": "usps_collection_boxes", "addr:city": "BURLINGTON", "addr:country": "US", "addr:postcode": "52601", "addr:state": "IA", "addr:street_address": "611 SPRING ST", "amenity": "post_box", "collection_times": "Mo-Sa 14:30", "note": "ON 12/24 AND 12/31, THIS BOX MAY BE COLLECTED AS EARLY AS 12 NOON.", "nsi_id": "unitedstatespostalservice-a77078", "operator": "United States Postal Service", "operator:short": "USPS", "operator:type": "public", "operator:wikidata": "Q668687", "ref": "5260100025"}, "type": "Feature"}
{"geometry": {"coordinates": [-91.104987329, 40.813880732], "type": "Point"}, "id": "tbAZSnuAsgSCB-5M9-h8lLv5xGo=", "properties": {"@source_uri": "https://tools.usps.com/UspsToolsRestServices/rest/POLocator/findLocations", "@spider": "usps_collection_boxes", "addr:city": "BURLINGTON", "addr:country": "US", "addr:postcode": "52601", "addr:state": "IA", "addr:street_address": "630 N 6TH ST", "amenity": "post_box", "collection_times": "Mo-Sa 13:30", "note": "ON 12/24 AND 12/31, THIS BOX MAY BE COLLECTED AS EARLY AS 12 NOON.", "nsi_id": "unitedstatespostalservice-a77078", "operator": "United States Postal Service", "operator:short": "USPS", "operator:type": "public", "operator:wikidata": "Q668687", "ref": "5260100028"}, "type": "Feature"}
{"geometry": {"coordinates": [-91.099021332, 40.78908953], "type": "Point"}, "id": "AYSg-xdfm1g6VQua9bEOmu1bR7o=", "properties": {"@source_uri": "https://tools.usps.com/UspsToolsRestServices/rest/POLocator/findLocations", "@spider": "usps_collection_boxes", "addr:city": "BURLINGTON", "addr:country": "US", "addr:postcode": "52601", "addr:state": "IA", "addr:street_address": "208 HARRISON AVE", "amenity": "post_box", "collection_times": "Mo-Sa 14:30", "note": "ON 12/24 AND 12/31, THIS BOX MAY BE COLLECTED AS EARLY AS 12 NOON.", "nsi_id": "unitedstatespostalservice-a77078", "operator": "United States Postal Service", "operator:short": "USPS", "operator:type": "public", "operator:wikidata": "Q668687", "ref": "5260100035"}, "type": "Feature"}
{"geometry": {"coordinates": [-91.101279427, 40.814271011], "type": "Point"}, "id": "GzgsPTT4YXz9_isjjPet2B9pbVw=", "properties": {"@source_uri": "https://tools.usps.com/UspsToolsRestServices/rest/POLocator/findLocations", "@spider": "usps_collection_boxes", "addr:city": "BURLINGTON", "addr:country": "US", "addr:postcode": "52601", "addr:state": "IA", "addr:street_address": "725 N 3RD ST", "amenity": "post_box", "collection_times": "Mo-Sa 14:30", "note": "ON 12/24 AND 12/31, THIS BOX MAY BE COLLECTED AS EARLY AS 12 NOON.", "nsi_id": "unitedstatespostalservice-a77078", "operator": "United States Postal Service", "operator:short": "USPS", "operator:type": "public", "operator:wikidata": "Q668687", "ref": "5260100036"}, "type": "Feature"}
{"geometry": {"coordinates": [-91.136642009, 40.814695521], "type": "Point"}, "id": "j8FfL-fMPXOI7QQXVaVJ5Kivc9U=", "properties": {"@source_uri": "https://tools.usps.com/UspsToolsRestServices/rest/POLocator/findLocations", "@spider": "usps_collection_boxes", "addr:city": "BURLINGTON", "addr:country": "US", "addr:postcode": "52601", "addr:state": "IA", "addr:street_address": "3140 AGENCY ST", "amenity": "post_box", "collection_times": "Mo-Sa 10:30", "nsi_id": "unitedstatespostalservice-a77078", "operator": "United States Postal Service", "operator:short": "USPS", "operator:type": "public", "operator:wikidata": "Q668687", "ref": "5260100040"}, "type": "Feature"}
{"geometry": {"coordinates": [-91.102552406, 40.810542391], "type": "Point"}, "id": "ekkq_A37YoilS9HIGx9Y7ntBm00=", "properties": {"@source_uri": "https://tools.usps.com/UspsToolsRestServices/rest/POLocator/findLocations", "@spider": "usps_collection_boxes", "addr:city": "BURLINGTON", "addr:country": "US", "addr:postcode": "52601", "addr:state": "IA", "addr:street_address": "321 N 3RD ST", "amenity": "post_box", "collection_times": "Mo-Sa 14:30", "note": "ON 12/24 AND 12/31, THIS BOX MAY BE COLLECTED AS EARLY AS 12 NOON.", "nsi_id": "unitedstatespostalservice-a77078", "operator": "United States Postal Service", "operator:short": "USPS", "operator:type": "public", "operator:wikidata": "Q668687", "ref": "5260100044"}, "type": "Feature"}
{"geometry": {"coordinates": [-91.108687756, 40.811094714], "type": "Point"}, "id": "NaiKmZJ0T_X9xV063Bm7UAcJ_Dk=", "properties": {"@source_uri": "https://tools.usps.com/UspsToolsRestServices/rest/POLocator/findLocations", "@spider": "usps_collection_boxes", "addr:city": "BURLINGTON", "addr:country": "US", "addr:postcode": "52601", "addr:state": "IA", "addr:street_address": "801 JEFFERSON ST", "amenity": "post_box", "collection_times": "Mo-Sa 14:30", "note": "ON 12/24 AND 12/31, THIS BOX MAY BE COLLECTED AS EARLY AS 12 NOON.", "nsi_id": "unitedstatespostalservice-a77078", "operator": "United States Postal Service", "operator:short": "USPS", "operator:type": "public", "operator:wikidata": "Q668687", "ref": "5260100046"}, "type": "Feature"}
{"geometry": {"coordinates": [-91.102910514, 40.809301752], "type": "Point"}, "id": "OR2a6F0sxxB3Bt3U06Bnz7-GhOA=", "properties": {"@source_uri": "https://tools.usps.com/UspsToolsRestServices/rest/POLocator/findLocations", "@spider": "usps_collection_boxes", "addr:city": "BURLINGTON", "addr:country": "US", "addr:postcode": "52601", "addr:state": "IA", "addr:street_address": "218 N 3RD ST", "amenity": "post_box", "collection_times": "Mo-Fr 14:30; Sa 10:30", "note": "ON 12/24 AND 12/31, THIS BOX MAY BE COLLECTED AS EARLY AS 12 NOON.", "nsi_id": "unitedstatespostalservice-a77078", "operator": "United States Postal Service", "operator:short": "USPS", "operator:type": "public", "operator:wikidata": "Q668687", "ref": "5260100048"}, "type": "Feature"}
{"geometry": {"coordinates": [-91.141859013, 40.813967856], "type": "Point"}, "id": "mSqljC68irADApDsPpTuXDn-6yw=", "properties": {"@source_uri": "https://tools.usps.com/UspsToolsRestServices/rest/POLocator/findLocations", "@spider": "usps_collection_boxes", "addr:city": "BURLINGTON", "addr:country": "US", "addr:postcode": "52601", "addr:state": "IA", "addr:street_address": "321 N ROOSEVELT AVE", "amenity": "post_box", "collection_times": "Mo-Sa 12:30", "note": "ON 12/24 AND 12/31, THIS BOX MAY BE COLLECTED AS EARLY AS 12 NOON.", "nsi_id": "unitedstatespostalservice-a77078", "operator": "United States Postal Service", "operator:short": "USPS", "operator:type": "public", "operator:wikidata": "Q668687", "ref": "5260100051"}, "type": "Feature"}
{"geometry": {"coordinates": [-91.140544692, 40.814831539], "type": "Point"}, "id": "ZSAKpI7gsFI5bXd7-ymWahQbrAg=", "properties": {"@source_uri": "https://tools.usps.com/UspsToolsRestServices/rest/POLocator/findLocations", "@spider": "usps_collection_boxes", "addr:city": "BURLINGTON", "addr:country": "US", "addr:postcode": "52601", "addr:state": "IA", "addr:street_address": "3245 AGENCY ST", "amenity": "post_box", "collection_times": "Mo-Sa 10:30", "nsi_id": "unitedstatespostalservice-a77078", "operator": "United States Postal Service", "operator:short": "USPS", "operator:type": "public", "operator:wikidata": "Q668687", "ref": "5260100052"}, "type": "Feature"}
{"geometry": {"coordinates": [-91.110365, 40.79294], "type": "Point"}, "id": "4jVVVR_Bbdm5HsZ-ToTSGLtN8o0=", "properties": {"@source_uri": "https://tools.usps.com/UspsToolsRestServices/rest/POLocator/findLocations", "@spider": "usps_collection_boxes", "addr:city": "BURLINGTON", "addr:country": "US", "addr:postcode": "52601", "addr:state": "IA", "addr:street_address": "300 N FRONT ST", "amenity": "post_box", "collection_times": "Mo-Sa 17:00", "note": "ON 12/24 AND 12/31, THIS BOX MAY BE COLLECTED AS EARLY AS 12 NOON.", "nsi_id": "unitedstatespostalservice-a77078", "operator": "United States Postal Service", "operator:short": "USPS", "operator:type": "public", "operator:wikidata": "Q668687", "ref": "5260100056"}, "type": "Feature"}
{"geometry": {"coordinates": [-91.15281004, 40.806849986], "type": "Point"}, "id": "ZVDR0UUbO3IQf9TUR6-WymXJwN0=", "properties": {"@source_uri": "https://tools.usps.com/UspsToolsRestServices/rest/POLocator/findLocations", "@spider": "usps_collection_boxes", "addr:city": "BURLINGTON", "addr:country": "US", "addr:postcode": "52601", "addr:state": "IA", "addr:street_address": "485 WEST BURLINGTON AVE", "amenity": "post_box", "collection_times": "Mo-Sa 12:00", "nsi_id": "unitedstatespostalservice-a77078", "operator": "United States Postal Service", "operator:short": "USPS", "operator:type": "public", "operator:wikidata": "Q668687", "ref": "5260100060"}, "type": "Feature"}
{"geometry": {"coordinates": [-91.10146787, 40.809763685], "type": "Point"}, "id": "FNV73ASmf5j1TvW7dARTG4YcXDc=", "properties": {"@source_uri": "https://tools.usps.com/UspsToolsRestServices/rest/POLocator/findLocations", "@spider": "usps_collection_boxes", "addr:city": "BURLINGTON", "addr:country": "US", "addr:postcode": "52601", "addr:state": "IA", "addr:street_address": "300 N MAIN ST", "amenity": "post_box", "collection_times": "Mo-Sa 17:00", "note": "ON 12/24 AND 12/31, THIS BOX MAY BE COLLECTED AS EARLY AS 12 NOON.", "nsi_id": "unitedstatespostalservice-a77078", "operator": "United States Postal Service", "operator:short": "USPS", "operator:type": "public", "operator:wikidata": "Q668687", "ref": "5260100062"}, "type": "Feature"}
{"geometry": {"coordinates": [-91.10146787, 40.809763685], "type": "Point"}, "id": "koSSeTb_f5igDM_ExSkn4CpK9ms=", "properties": {"@source_uri": "https://tools.usps.com/UspsToolsRestServices/rest/POLocator/findLocations", "@spider": "usps_collection_boxes", "addr:city": "BURLINGTON", "addr:country": "US", "addr:postcode": "52601", "addr:state": "IA", "addr:street_address": "300 N MAIN ST", "amenity": "post_box", "collection_times": "Mo-Fr 17:00; Sa 12:00", "indoor": "yes", "note": "ON 12/24 AND 12/31, THIS BOX MAY BE COLLECTED AS EARLY AS 12 NOON.", "nsi_id": "unitedstatespostalservice-a77078", "operator": "United States Postal Service", "operator:short": "USPS", "operator:type": "public", "operator:wikidata": "Q668687", "ref": "5260100068"}, "type": "Feature"}
{"geometry": {"coordinates": [-91.10944767, 40.853895734], "type": "Point"}, "id": "QKij45iUB52j_2Om6EdXi7jr8Sw=", "properties": {"@source_uri": "https://tools.usps.com/UspsToolsRestServices/rest/POLocator/findLocations", "@spider": "usps_collection_boxes", "addr:city": "BURLINGTON", "addr:country": "US", "addr:postcode": "52601", "addr:state": "IA", "addr:street_address": "11912 DMC HIGHWAY 99", "amenity": "post_box", "collection_times": "Mo-Sa 08:30", "nsi_id": "unitedstatespostalservice-a77078", "operator": "United States Postal Service", "operator:short": "USPS", "operator:type": "public", "operator:wikidata": "Q668687", "ref": "5260100069"}, "type": "Feature"}
{"geometry": {"coordinates": [-91.110645641, 40.801881684], "type": "Point"}, "id": "hpdOcLQ0L_s1Egwky7Riiz9mTnA=", "properties": {"@source_uri": "https://tools.usps.com/UspsToolsRestServices/rest/POLocator/findLocations", "@spider": "usps_collection_boxes", "addr:city": "BURLINGTON", "addr:country": "US", "addr:postcode": "52601", "addr:state": "IA", "addr:street_address": "939 ANGULAR ST", "amenity": "post_box", "collection_times": "Mo-Sa 10:30", "nsi_id": "unitedstatespostalservice-a77078", "operator": "United States Postal Service", "operator:short": "USPS", "operator:type": "public", "operator:wikidata": "Q668687", "ref": "5260100071"}, "type": "Feature"}
{"geometry": {"coordinates": [-91.110365, 40.79294], "type": "Point"}, "id": "Cbny6UxIL_qbrY8rAJa39mpsLXc=", "properties": {"@source_uri": "https://tools.usps.com/UspsToolsRestServices/rest/POLocator/findLocations", "@spider": "usps_collection_boxes", "addr:city": "BURLINGTON", "addr:country": "US", "addr:postcode": "52601", "addr:state": "IA", "addr:street_address": "323 JEFFERSON ST", "amenity": "post_box", "collection_times": "Mo-Sa 14:30", "note": "ON 12/24 AND 12/31, THIS BOX MAY BE COLLECTED AS EARLY AS 12 NOON.", "nsi_id": "unitedstatespostalservice-a77078", "operator": "United States Postal Service", "operator:short": "USPS", "operator:type": "public", "operator:wikidata": "Q668687", "ref": "5260100072"}, "type": "Feature"}
{"geometry": {"coordinates": [-91.117497309, 40.780076134], "type": "Point"}, "id": "1CiqZU7XBqN2RvlXWP5qM0I71Bg=", "properties": {"@source_uri": "https://tools.usps.com/UspsToolsRestServices/rest/POLocator/findLocations", "@spider": "usps_collection_boxes", "addr:city": "BURLINGTON", "addr:country": "US", "addr:postcode": "52601", "addr:state": "IA", "addr:street_address": "2630 SUMMER ST", "amenity": "post_box", "collection_times": "Mo-Sa 12:00", "nsi_id": "unitedstatespostalservice-a77078", "operator": "United States Postal Service", "operator:short": "USPS", "operator:type": "public", "operator:wikidata": "Q668687", "ref": "5260100073"}, "type": "Feature"}
{"geometry": {"coordinates": [-91.106479536, 40.807299411], "type": "Point"}, "id": "Y1FrK2e1LtddjLcoNU2Mqo0OOHs=", "properties": {"@source_uri": "https://tools.usps.com/UspsToolsRestServices/rest/POLocator/findLocations", "@spider": "usps_collection_boxes", "addr:city": "BURLINGTON", "addr:country": "US", "addr:postcode": "52601", "addr:state": "IA", "addr:street_address": "550 DIVISION ST", "amenity": "post_box", "collection_times": "Mo-Fr 14:30; Sa 13:30", "note": "ON 12/24 AND 12/31, THIS BOX MAY BE COLLECTED AS EARLY AS 12 NOON.", "nsi_id": "unitedstatespostalservice-a77078", "operator": "United States Postal Service", "operator:short": "USPS", "operator:type": "public", "operator:wikidata": "Q668687", "ref": "5260100074"}, "type": "Feature"}
{"geometry": {"coordinates": [-91.140689698, 40.833116577], "type": "Point"}, "id": "VrRmt8fFxDgF9d_xhwHcagMQXSc=", "properties": {"@source_uri": "https://tools.usps.com/UspsToolsRestServices/rest/POLocator/findLocations", "@spider": "usps_collection_boxes", "addr:city": "BURLINGTON", "addr:country": "US", "addr:postcode": "52601", "addr:state": "IA", "addr:street_address": "3131 SUNNYSIDE AVE", "amenity": "post_box", "collection_times": "Mo-Sa 09:30", "nsi_id": "unitedstatespostalservice-a77078", "operator": "United States Postal Service", "operator:short": "USPS", "operator:type": "public", "operator:wikidata": "Q668687", "ref": "5260100075"}, "type": "Feature"}
{"geometry": {"coordinates": [-91.112938314, 40.807079372], "type": "Point"}, "id": "LFWw_CVMs66Lf81rtfL66dDuSQU=", "properties": {"@source_uri": "https://tools.usps.com/UspsToolsRestServices/rest/POLocator/findLocations", "@spider": "usps_collection_boxes", "addr:city": "BURLINGTON", "addr:country": "US", "addr:postcode": "52601", "addr:state": "IA", "addr:street_address": "201 S CENTRAL AVE", "amenity": "post_box", "collection_times": "Mo-Sa 09:30", "nsi_id": "unitedstatespostalservice-a77078", "operator": "United States Postal Service", "operator:short": "USPS", "operator:type": "public", "operator:wikidata": "Q668687", "ref": "5260100076"}, "type": "Feature"}
{"geometry": {"coordinates": [-91.147710337, 40.822336502], "type": "Point"}, "id": "VIKq4oQRablFI5QA6csJZMZ-XqY=", "properties": {"@source_uri": "https://tools.usps.com/UspsToolsRestServices/rest/POLocator/findLocations", "@spider": "usps_collection_boxes", "addr:city": "BURLINGTON", "addr:country": "US", "addr:postcode": "52601", "addr:state": "IA", "addr:street_address": "701 E PENNINGTON ST", "amenity": "post_box", "collection_times": "Mo-Sa 10:00", "nsi_id": "unitedstatespostalservice-a77078", "operator": "United States Postal Service", "operator:short": "USPS", "operator:type": "public", "operator:wikidata": "Q668687", "ref": "5260100078"}, "type": "Feature"}
{"geometry": {"coordinates": [-91.10146787, 40.809763685], "type": "Point"}, "id": "5Zl6FBv86cwTGyT4SQzBi4iBLrI=", "properties": {"@source_uri": "https://tools.usps.com/UspsToolsRestServices/rest/POLocator/findLocations", "@spider": "usps_collection_boxes", "addr:city": "BURLINGTON", "addr:country": "US", "addr:postcode": "52601", "addr:state": "IA", "addr:street_address": "300 N MAIN ST", "amenity": "post_box", "collection_times": "Mo-Fr 17:00; Sa 12:00", "indoor": "yes", "note": "ON 12/24 AND 12/31, THIS BOX MAY BE COLLECTED AS EARLY AS 12 NOON.", "nsi_id": "unitedstatespostalservice-a77078", "operator": "United States Postal Service", "operator:short": "USPS", "operator:type": "public", "operator:wikidata": "Q668687", "ref": "5260100079"}, "type": "Feature"}
{"geometry": {"coordinates": [-91.566267678, 40.531779419], "type": "Point"}, "id": "oPsj7TbpHjRVQzQ_BmJxuc_Qp3M=", "properties": {"@source_uri": "https://tools.usps.com/UspsToolsRestServices/rest/POLocator/findLocations", "@spider": "usps_collection_boxes", "addr:city": "ARGYLE", "addr:country": "US", "addr:postcode": "52619", "addr:state": "IA", "addr:street_address": "2951 180TH AVE", "amenity": "post_box", "collection_times": "Mo-Sa 12:30", "note": "ON 12/24 AND 12/31, THIS BOX MAY BE COLLECTED AS EARLY AS 12 NOON.", "nsi_id": "unitedstatespostalservice-a77078", "operator": "United States Postal Service", "operator:short": "USPS", "operator:type": "public", "operator:wikidata": "Q668687", "ref": "5261900000"}, "type": "Feature"}
{"geometry": {"coordinates": [-91.566267678, 40.531779419], "type": "Point"}, "id": "jl2N1REFu2WlEX8l6lvpscKI8nI=", "properties": {"@source_uri": "https://tools.usps.com/UspsToolsRestServices/rest/POLocator/findLocations", "@spider": "usps_collection_boxes", "addr:city": "ARGYLE", "addr:country": "US", "addr:postcode": "52619", "addr:state": "IA", "addr:street_address": "2951 180TH AVE", "amenity": "post_box", "collection_times": "Mo-Sa 12:30", "indoor": "yes", "note": "ON 12/24 AND 12/31, THIS BOX MAY BE COLLECTED AS EARLY AS 12 NOON.", "nsi_id": "unitedstatespostalservice-a77078", "operator": "United States Postal Service", "operator:short": "USPS", "operator:type": "public", "operator:wikidata": "Q668687", "ref": "5261900001"}, "type": "Feature"}
{"geometry": {"coordinates": [-91.566267678, 40.531779419], "type": "Point"}, "id": "9FBQcEJfNBpUfTb6THndwa4yG78=", "properties": {"@source_uri": "https://tools.usps.com/UspsToolsRestServices/rest/POLocator/findLocations", "@spider": "usps_collection_boxes", "addr:city": "ARGYLE", "addr:country": "US", "addr:postcode": "52619", "addr:state": "IA", "addr:street_address": "2951 180TH AVE", "amenity": "post_box", "collection_times": "Mo-Sa 14:00", "indoor": "yes", "note": "ON 12/24 AND 12/31, THIS BOX MAY BE COLLECTED AS EARLY AS 12 NOON.", "nsi_id": "unitedstatespostalservice-a77078", "operator": "United States Postal Service", "operator:short": "USPS", "operator:type": "public", "operator:wikidata": "Q668687", "ref": "5261900002"}, "type": "Feature"}
{"geometry": {"coordinates": [-91.802948967, 40.698041384], "type": "Point"}, "id": "dxpdNU4L8UDtXFMOCQ6vwaDH0zQ=", "properties": {"@source_uri": "https://tools.usps.com/UspsToolsRestServices/rest/POLocator/findLocations", "@spider": "usps_collection_boxes", "addr:city": "BONAPARTE", "addr:country": "US", "addr:postcode": "52620", "addr:state": "IA", "addr:street_address": "626 1ST ST", "amenity": "post_box", "collection_times": "Mo-Fr 11:45; Sa 08:30", "nsi_id": "unitedstatespostalservice-a77078", "operator": "United States Postal Service", "operator:short": "USPS", "operator:type": "public", "operator:wikidata": "Q668687", "ref": "5262000000"}, "type": "Feature"}
{"geometry": {"coordinates": [-91.802948967, 40.698041384], "type": "Point"}, "id": "8bceQZMozVSQUd5WNZpzMwPy76s=", "properties": {"@source_uri": "https://tools.usps.com/UspsToolsRestServices/rest/POLocator/findLocations", "@spider": "usps_collection_boxes", "addr:city": "BONAPARTE", "addr:country": "US", "addr:postcode": "52620", "addr:state": "IA", "addr:street_address": "626 1ST ST", "amenity": "post_box", "collection_times": "Mo-Fr 11:45", "indoor": "yes", "nsi_id": "unitedstatespostalservice-a77078", "operator": "United States Postal Service", "operator:short": "USPS", "operator:type": "public", "operator:wikidata": "Q668687", "ref": "5262000001"}, "type": "Feature"}
{"geometry": {"coordinates": [-91.802171822, 40.69787009], "type": "Point"}, "id": "zQRk19qpkGC3-47KiwnRV_v9RPU=", "properties": {"@source_uri": "https://tools.usps.com/UspsToolsRestServices/rest/POLocator/findLocations", "@spider": "usps_collection_boxes", "addr:city": "BONAPARTE", "addr:country": "US", "addr:postcode": "52620", "addr:state": "IA", "addr:street_address": "621 1ST ST", "amenity": "post_box", "collection_times": "Mo-Fr 12:00; Sa 08:45", "indoor": "yes", "nsi_id": "unitedstatespostalservice-a77078", "operator": "United States Postal Service", "operator:short": "USPS", "operator:type": "public", "operator:wikidata": "Q668687", "ref": "5262000002"}, "type": "Feature"}
{"geometry": {"coordinates": [-91.5378615, 41.214996533], "type": "Point"}, "id": "YDpEyRxuAwQwRdH3X68lPB_LJyg=", "properties": {"@source_uri": "https://tools.usps.com/UspsToolsRestServices/rest/POLocator/findLocations", "@spider": "usps_collection_boxes", "addr:city": "CRAWFORDSVILLE", "addr:country": "US", "addr:postcode": "52621", "addr:state": "IA", "addr:street_address": "111 E VINE ST", "amenity": "post_box", "collection_times": "Mo-Fr 11:45; Sa 09:30", "nsi_id": "unitedstatespostalservice-a77078", "operator": "United States Postal Service", "operator:short": "USPS", "operator:type": "public", "operator:wikidata": "Q668687", "ref": "5262100000"}, "type": "Feature"}
{"geometry": {"coordinates": [-91.5378615, 41.214996533], "type": "Point"}, "id": "96UPBn1xHhWGGkjbvg0JUERdz6s=", "properties": {"@source_uri": "https://tools.usps.com/UspsToolsRestServices/rest/POLocator/findLocations", "@spider": "usps_collection_boxes", "addr:city": "CRAWFORDSVILLE", "addr:country": "US", "addr:postcode": "52621", "addr:state": "IA", "addr:street_address": "111 E VINE ST", "amenity": "post_box", "collection_times": "Mo-Fr 11:45; Sa 09:30", "indoor": "yes", "nsi_id": "unitedstatespostalservice-a77078", "operator": "United States Postal Service", "operator:short": "USPS", "operator:type": "public", "operator:wikidata": "Q668687", "ref": "5262100001"}, "type": "Feature"}
{"geometry": {"coordinates": [-91.5378615, 41.214996533], "type": "Point"}, "id": "7m_1fDLEbDExQI20lSgn49RIrHQ=", "properties": {"@source_uri": "https://tools.usps.com/UspsToolsRestServices/rest/POLocator/findLocations", "@spider": "usps_collection_boxes", "addr:city": "CRAWFORDSVILLE", "addr:country": "US", "addr:postcode": "52621", "addr:state": "IA", "addr:street_address": "111 E VINE ST", "amenity": "post_box", "collection_times": "Mo-Fr 12:00; Sa 09:45", "indoor": "yes", "nsi_id": "unitedstatespostalservice-a77078", "operator": "United States Postal Service", "operator:short": "USPS", "operator:type": "public", "operator:wikidata": "Q668687", "ref": "5262100002"}, "type": "Feature"}
{"geometry": {"coordinates": [-91.315894622, 40.865985], "type": "Point"}, "id": "cxqDN07N4YM5WcNvjIw363Q3lt4=", "properties": {"@source_uri": "https://tools.usps.com/UspsToolsRestServices/rest/POLocator/findLocations", "@spider": "usps_collection_boxes", "addr:city": "DANVILLE", "addr:country": "US", "addr:postcode": "52623", "addr:state": "IA", "addr:street_address": "104 N ELM ST", "amenity": "post_box", "collection_times": "Mo-Fr 14:15; Sa 11:30", "note": "ON 12/24 AND 12/31, THIS BOX MAY BE COLLECTED AS EARLY AS 12 NOON.", "nsi_id": "unitedstatespostalservice-a77078", "operator": "United States Postal Service", "operator:short": "USPS", "operator:type": "public", "operator:wikidata": "Q668687", "ref": "5262300000"}, "type": "Feature"}
{"geometry": {"coordinates": [-91.315894622, 40.865985], "type": "Point"}, "id": "aWT4yFUmL5B23bmI_o7PLyslY4Q=", "properties": {"@source_uri": "https://tools.usps.com/UspsToolsRestServices/rest/POLocator/findLocations", "@spider": "usps_collection_boxes", "addr:city": "DANVILLE", "addr:country": "US", "addr:postcode": "52623", "addr:state": "IA", "addr:street_address": "104 N ELM ST", "amenity": "post_box", "collection_times": "Mo-Fr 14:15", "indoor": "yes", "note": "ON 12/24 AND 12/31, THIS BOX MAY BE COLLECTED AS EARLY AS 12 NOON.", "nsi_id": "unitedstatespostalservice-a77078", "operator": "United States Postal Service", "operator:short": "USPS", "operator:type": "public", "operator:wikidata": "Q668687", "ref": "5262300001"}, "type": "Feature"}
{"geometry": {"coordinates": [-91.315894622, 40.865985], "type": "Point"}, "id": "sXssVLs0oAa79FB1Vfwq8hstEiQ=", "properties": {"@source_uri": "https://tools.usps.com/UspsToolsRestServices/rest/POLocator/findLocations", "@spider": "usps_collection_boxes", "addr:city": "DANVILLE", "addr:country": "US", "addr:postcode": "52623", "addr:state": "IA", "addr:street_address": "104 N ELM ST", "amenity": "post_box", "collection_times": "Mo-Fr 14:30; Sa 11:45", "indoor": "yes", "note": "ON 12/24 AND 12/31, THIS BOX MAY BE COLLECTED AS EARLY AS 12 NOON.", "nsi_id": "unitedstatespostalservice-a77078", "operator": "United States Postal Service", "operator:short": "USPS", "operator:type": "public", "operator:wikidata": "Q668687", "ref": "5262300002"}, "type": "Feature"}
{"geometry": {"coordinates": [-91.32958125, 40.741655378], "type": "Point"}, "id": "8nFKuCuqD4xQJ1h7XYAPhvHW034=", "properties": {"@source_uri": "https://tools.usps.com/UspsToolsRestServices/rest/POLocator/findLocations", "@spider": "usps_collection_boxes", "addr:city": "DENMARK", "addr:country": "US", "addr:postcode": "52624", "addr:state": "IA", "addr:street_address": "104 ACADEMY AVE", "amenity": "post_box", "collection_times": "Mo-Fr 11:45; Sa 09:00", "nsi_id": "unitedstatespostalservice-a77078", "operator": "United States Postal Service", "operator:short": "USPS", "operator:type": "public", "operator:wikidata": "Q668687", "ref": "5262400000"}, "type": "Feature"}
{"geometry": {"coordinates": [-91.3295835, 40.74164657], "type": "Point"}, "id": "12praqj4MQNV5P_LoQattuo0KV4=", "properties": {"@source_uri": "https://tools.usps.com/UspsToolsRestServices/rest/POLocator/findLocations", "@spider": "usps_collection_boxes", "addr:city": "DENMARK", "addr:country": "US", "addr:postcode": "52624", "addr:state": "IA", "addr:street_address": "104 ACADEMY AVE", "amenity": "post_box", "collection_times": "Mo-Fr 11:45; Sa 09:00", "indoor": "yes", "nsi_id": "unitedstatespostalservice-a77078", "operator": "United States Postal Service", "operator:short": "USPS", "operator:type": "public", "operator:wikidata": "Q668687", "ref": "5262400001"}, "type": "Feature"}
{"geometry": {"coordinates": [-91.3295835, 40.74164657], "type": "Point"}, "id": "20UlBUfbdGHLSHbHD1mPcGoB_1c=", "properties": {"@source_uri": "https://tools.usps.com/UspsToolsRestServices/rest/POLocator/findLocations", "@spider": "usps_collection_boxes", "addr:city": "DENMARK", "addr:country": "US", "addr:postcode": "52624", "addr:state": "IA", "addr:street_address": "104 ACADEMY AVE", "amenity": "post_box", "collection_times": "Mo-Fr 12:00; Sa 09:15", "indoor": "yes", "nsi_id": "unitedstatespostalservice-a77078", "operator": "United States Postal Service", "operator:short": "USPS", "operator:type": "public", "operator:wikidata": "Q668687", "ref": "5262400002"}, "type": "Feature"}
{"geometry": {"coordinates": [-91.564766317, 40.641537862], "type": "Point"}, "id": "krDEpJvhR_cqCfbypUMbv6Jo2WM=", "properties": {"@source_uri": "https://tools.usps.com/UspsToolsRestServices/rest/POLocator/findLocations", "@spider": "usps_collection_boxes", "addr:city": "DONNELLSON", "addr:country": "US", "addr:postcode": "52625", "addr:state": "IA", "addr:street_address": "516 CHESTNUT ST", "amenity": "post_box", "collection_times": "Mo-Fr 16:15; Sa 09:45", "note": "ON 12/24 AND 12/31, THIS BOX MAY BE COLLECTED AS EARLY AS 12 NOON.", "nsi_id": "unitedstatespostalservice-a77078", "operator": "United States Postal Service", "operator:short": "USPS", "operator:type": "public", "operator:wikidata": "Q668687", "ref": "5262500000"}, "type": "Feature"}
{"geometry": {"coordinates": [-91.564766317, 40.641537862], "type": "Point"}, "id": "qQpa2qb2_60ksArp11P-J5BrJyA=", "properties": {"@source_uri": "https://tools.usps.com/UspsToolsRestServices/rest/POLocator/findLocations", "@spider": "usps_collection_boxes", "addr:city": "DONNELLSON", "addr:country": "US", "addr:postcode": "52625", "addr:state": "IA", "addr:street_address": "516 CHESTNUT ST", "amenity": "post_box", "collection_times": "Mo-Fr 16:00; Sa 10:15", "indoor": "yes", "note": "ON 12/24 AND 12/31, THIS BOX MAY BE COLLECTED AS EARLY AS 12 NOON.", "nsi_id": "unitedstatespostalservice-a77078", "operator": "United States Postal Service", "operator:short": "USPS", "operator:type": "public", "operator:wikidata": "Q668687", "ref": "5262500001"}, "type": "Feature"}
{"geometry": {"coordinates": [-91.564766317, 40.641537862], "type": "Point"}, "id": "c3Q2H5UxcZGbDh7aNlcVfSuinQc=", "properties": {"@source_uri": "https://tools.usps.com/UspsToolsRestServices/rest/POLocator/findLocations", "@spider": "usps_collection_boxes", "addr:city": "DONNELLSON", "addr:country": "US", "addr:postcode": "52625", "addr:state": "IA", "addr:street_address": "516 CHESTNUT ST", "amenity": "post_box", "collection_times": "Mo-Fr 16:30; Sa 10:00", "indoor": "yes", "note": "ON 12/24 AND 12/31, THIS BOX MAY BE COLLECTED AS EARLY AS 12 NOON.", "nsi_id": "unitedstatespostalservice-a77078", "operator": "United States Postal Service", "operator:short": "USPS", "operator:type": "public", "operator:wikidata": "Q668687", "ref": "5262500002"}, "type": "Feature"}
{"geometry": {"coordinates": [-91.743942758, 40.639794736], "type": "Point"}, "id": "_u55CRgugYuzMSo5-g0HeGruNaw=", "properties": {"@source_uri": "https://tools.usps.com/UspsToolsRestServices/rest/POLocator/findLocations", "@spider": "usps_collection_boxes", "addr:city": "FARMINGTON", "addr:country": "US", "addr:postcode": "52626", "addr:state": "IA", "addr:street_address": "101 S FRONT ST", "amenity": "post_box", "collection_times": "Mo-Fr 14:15; Sa 10:15", "note": "ON 12/24 AND 12/31, THIS BOX MAY BE COLLECTED AS EARLY AS 12 NOON.", "nsi_id": "unitedstatespostalservice-a77078", "operator": "United States Postal Service", "operator:short": "USPS", "operator:type": "public", "operator:wikidata": "Q668687", "ref": "5262600000"}, "type": "Feature"}
{"geometry": {"coordinates": [-91.743942758, 40.639794736], "type": "Point"}, "id": "f85Q60Q1nshDZcIUkZrJLvg_kA4=", "properties": {"@source_uri": "https://tools.usps.com/UspsToolsRestServices/rest/POLocator/findLocations", "@spider": "usps_collection_boxes", "addr:city": "FARMINGTON", "addr:country": "US", "addr:postcode": "52626", "addr:state": "IA", "addr:street_address": "101 S FRONT ST", "amenity": "post_box", "collection_times": "Mo-Fr 14:15", "indoor": "yes", "note": "ON 12/24 AND 12/31, THIS BOX MAY BE COLLECTED AS EARLY AS 12 NOON.", "nsi_id": "unitedstatespostalservice-a77078", "operator": "United States Postal Service", "operator:short": "USPS", "operator:type": "public", "operator:wikidata": "Q668687", "ref": "5262600001"}, "type": "Feature"}
{"geometry": {"coordinates": [-91.743942758, 40.639794736], "type": "Point"}, "id": "PTYBsvsl5ar4oopcdiQD2hse0GQ=", "properties": {"@source_uri": "https://tools.usps.com/UspsToolsRestServices/rest/POLocator/findLocations", "@spider": "usps_collection_boxes", "addr:city": "FARMINGTON", "addr:country": "US", "addr:postcode": "52626", "addr:state": "IA", "addr:street_address": "101 S FRONT ST", "amenity": "post_box", "collection_times": "Mo-Fr 14:30; Sa 10:30", "indoor": "yes", "note": "ON 12/24 AND 12/31, THIS BOX MAY BE COLLECTED AS EARLY AS 12 NOON.", "nsi_id": "unitedstatespostalservice-a77078", "operator": "United States Postal Service", "operator:short": "USPS", "operator:type": "public", "operator:wikidata": "Q668687", "ref": "5262600002"}, "type": "Feature"}
{"geometry": {"coordinates": [-91.332076396, 40.630165999], "type": "Point"}, "id": "kpIuIVsi5z05gtdVcFpcfxDEROg=", "properties": {"@source_uri": "https://tools.usps.com/UspsToolsRestServices/rest/POLocator/findLocations", "@spider": "usps_collection_boxes", "addr:city": "FORT MADISON", "addr:country": "US", "addr:postcode": "52627", "addr:state": "IA", "addr:street_address": "1904 AVENUE H", "amenity": "post_box", "collection_times": "Mo-Sa 11:00", "nsi_id": "unitedstatespostalservice-a77078", "operator": "United States Postal Service", "operator:short": "USPS", "operator:type": "public", "operator:wikidata": "Q668687", "ref": "5262700002"}, "type": "Feature"}
{"geometry": {"coordinates": [-91.311805356, 40.633069508], "type": "Point"}, "id": "hUeDXjnFQ0JXhj_Vme5aWYK6syo=", "properties": {"@source_uri": "https://tools.usps.com/UspsToolsRestServices/rest/POLocator/findLocations", "@spider": "usps_collection_boxes", "addr:city": "FORT MADISON", "addr:country": "US", "addr:postcode": "52627", "addr:state": "IA", "addr:street_address": "811 AVENUE E", "amenity": "post_box", "collection_times": "Mo-Sa 13:00", "note": "ON 12/24 AND 12/31, THIS BOX MAY BE COLLECTED AS EARLY AS 12 NOON.", "nsi_id": "unitedstatespostalservice-a77078", "operator": "United States Postal Service", "operator:short": "USPS", "operator:type": "public", "operator:wikidata": "Q668687", "ref": "5262700006"}, "type": "Feature"}
{"geometry": {"coordinates": [-91.3099060167, 40.6311129921], "type": "Point"}, "id": "VNrfYmFlcsNrdGKN6zvqbaSN_kU=", "properties": {"@source_uri": "https://tools.usps.com/UspsToolsRestServices/rest/POLocator/findLocations", "@spider": "usps_collection_boxes", "addr:city": "FORT MADISON", "addr:country": "US", "addr:postcode": "52627", "addr:state": "IA", "addr:street_address": "701 AVENUE G", "amenity": "post_box", "collection_times": "Mo-Sa 14:00", "note": "ON 12/24 AND 12/31, THIS BOX MAY BE COLLECTED AS EARLY AS 12 NOON.", "nsi_id": "unitedstatespostalservice-a77078", "operator": "United States Postal Service", "operator:short": "USPS", "operator:type": "public", "operator:wikidata": "Q668687", "ref": "5262700009"}, "type": "Feature"}
{"geometry": {"coordinates": [-91.314031081, 40.630984479], "type": "Point"}, "id": "nwAiwE8JgMWwlgXP8DnIio8fe4E=", "properties": {"@source_uri": "https://tools.usps.com/UspsToolsRestServices/rest/POLocator/findLocations", "@spider": "usps_collection_boxes", "addr:city": "FORT MADISON", "addr:country": "US", "addr:postcode": "52627", "addr:state": "IA", "addr:street_address": "911 AVENUE G", "amenity": "post_box", "collection_times": "Mo-Sa 14:00", "note": "ON 12/24 AND 12/31, THIS BOX MAY BE COLLECTED AS EARLY AS 12 NOON.", "nsi_id": "unitedstatespostalservice-a77078", "operator": "United States Postal Service", "operator:short": "USPS", "operator:type": "public", "operator:wikidata": "Q668687", "ref": "5262700011"}, "type": "Feature"}
{"geometry": {"coordinates": [-91.343519963, 40.6259999893], "type": "Point"}, "id": "ePmTjW-7a7xj5HLSIKeY5kfqtdo=", "properties": {"@source_uri": "https://tools.usps.com/UspsToolsRestServices/rest/POLocator/findLocations", "@spider": "usps_collection_boxes", "addr:city": "FORT MADISON", "addr:country": "US", "addr:postcode": "52627", "addr:state": "IA", "addr:street_address": "2606 AVENUE L", "amenity": "post_box", "collection_times": "Mo-Sa 13:30", "note": "ON 12/24 AND 12/31, THIS BOX MAY BE COLLECTED AS EARLY AS 12 NOON.", "nsi_id": "unitedstatespostalservice-a77078", "operator": "United States Postal Service", "operator:short": "USPS", "operator:type": "public", "operator:wikidata": "Q668687", "ref": "5262700013"}, "type": "Feature"}
{"geometry": {"coordinates": [-91.383598567, 40.624274086], "type": "Point"}, "id": "Bit_aG6jTGsGbZ4mRrV3DLlG9d8=", "properties": {"@source_uri": "https://tools.usps.com/UspsToolsRestServices/rest/POLocator/findLocations", "@spider": "usps_collection_boxes", "addr:city": "FORT MADISON", "addr:country": "US", "addr:postcode": "52627", "addr:state": "IA", "addr:street_address": "5445 AVENUE O", "amenity": "post_box", "collection_times": "Mo-Sa 10:00", "nsi_id": "unitedstatespostalservice-a77078", "operator": "United States Postal Service", "operator:short": "USPS", "operator:type": "public", "operator:wikidata": "Q668687", "ref": "5262700015"}, "type": "Feature"}
{"geometry": {"coordinates": [-91.316249749, 40.630095512], "type": "Point"}, "id": "gduPzRWiRMTlvFU-mml3cj9boxg=", "properties": {"@source_uri": "https://tools.usps.com/UspsToolsRestServices/rest/POLocator/findLocations", "@spider": "usps_collection_boxes", "addr:city": "FORT MADISON", "addr:country": "US", "addr:postcode": "52627", "addr:state": "IA", "addr:street_address": "1019 AVENUE H", "amenity": "post_box", "collection_times": "Mo-Fr 17:00; Sa 16:00", "note": "ON 12/24 AND 12/31, THIS BOX MAY BE COLLECTED AS EARLY AS 12 NOON.", "nsi_id": "unitedstatespostalservice-a77078", "operator": "United States Postal Service", "operator:short": "USPS", "operator:type": "public", "operator:wikidata": "Q668687", "ref": "5262700019"}, "type": "Feature"}
{"geometry": {"coordinates": [-91.373232518, 40.625085401], "type": "Point"}, "id": "MgYgGKc6BkIzLwB0Y_1fZlYwj4c=", "properties": {"@source_uri": "https://tools.usps.com/UspsToolsRestServices/rest/POLocator/findLocations", "@spider": "usps_collection_boxes", "addr:city": "FORT MADISON", "addr:country": "US", "addr:postcode": "52627", "addr:state": "IA", "addr:street_address": "1301 48TH ST", "amenity": "post_box", "collection_times": "Mo-Sa 10:00", "nsi_id": "unitedstatespostalservice-a77078", "operator": "United States Postal Service", "operator:short": "USPS", "operator:type": "public", "operator:wikidata": "Q668687", "ref": "5262700024"}, "type": "Feature"}
{"geometry": {"coordinates": [-91.316249749, 40.630095512], "type": "Point"}, "id": "XcTusBP2LBqNuMJFeYBEIMiF1Qw=", "properties": {"@source_uri": "https://tools.usps.com/UspsToolsRestServices/rest/POLocator/findLocations", "@spider": "usps_collection_boxes", "addr:city": "FORT MADISON", "addr:country": "US", "addr:postcode": "52627", "addr:state": "IA", "addr:street_address": "1019 AVENUE H", "amenity": "post_box", "collection_times": "Mo-Fr 17:00; Sa 16:00", "indoor": "yes", "note": "ON 12/24 AND 12/31, THIS BOX MAY BE COLLECTED AS EARLY AS 12 NOON.", "nsi_id": "unitedstatespostalservice-a77078", "operator": "United States Postal Service", "operator:short": "USPS", "operator:type": "public", "operator:wikidata": "Q668687", "ref": "5262700026"}, "type": "Feature"}
{"geometry": {"coordinates": [-91.316249749, 40.630095512], "type": "Point"}, "id": "8MxaTG0JSW14ditqV2O97jZuCPQ=", "properties": {"@source_uri": "https://tools.usps.com/UspsToolsRestServices/rest/POLocator/findLocations", "@spider": "usps_collection_boxes", "addr:city": "FORT MADISON", "addr:country": "US", "addr:postcode": "52627", "addr:state": "IA", "addr:street_address": "1019 AVENUE H", "amenity": "post_box", "collection_times": "Mo-Fr 16:30; Sa 12:00", "indoor": "yes", "note": "ON 12/24 AND 12/31, THIS BOX MAY BE COLLECTED AS EARLY AS 12 NOON.", "nsi_id": "unitedstatespostalservice-a77078", "operator": "United States Postal Service", "operator:short": "USPS", "operator:type": "public", "operator:wikidata": "Q668687", "ref": "5262700027"}, "type": "Feature"}
{"geometry": {"coordinates": [-91.714261668, 40.835420475], "type": "Point"}, "id": "b7ANJPaNDYLfB4i3sZbKhThavxc=", "properties": {"@source_uri": "https://tools.usps.com/UspsToolsRestServices/rest/POLocator/findLocations", "@spider": "usps_collection_boxes", "addr:city": "HILLSBORO", "addr:country": "US", "addr:postcode": "52630", "addr:state": "IA", "addr:street_address": "101 W COMMERCIAL ST", "amenity": "post_box", "collection_times": "Mo-Sa 10:00", "nsi_id": "unitedstatespostalservice-a77078", "operator": "United States Postal Service", "operator:short": "USPS", "operator:type": "public", "operator:wikidata": "Q668687", "ref": "5263000000"}, "type": "Feature"}
{"geometry": {"coordinates": [-91.6125913368, 40.7846514912], "type": "Point"}, "id": "oD9gyNKICKAV9YYfrm5gQYHZKIM=", "properties": {"@source_uri": "https://tools.usps.com/UspsToolsRestServices/rest/POLocator/findLocations", "@spider": "usps_collection_boxes", "addr:city": "HOUGTON", "addr:country": "US", "addr:postcode": "52631", "addr:state": "IA", "addr:street_address": "525 MAIN ST", "amenity": "post_box", "collection_times": "Mo-Fr 11:45; Sa 09:00", "nsi_id": "unitedstatespostalservice-a77078", "operator": "United States Postal Service", "operator:short": "USPS", "operator:type": "public", "operator:wikidata": "Q668687", "ref": "5263100000"}, "type": "Feature"}
{"geometry": {"coordinates": [-91.612591337, 40.784651491], "type": "Point"}, "id": "4hf11Ue02WzK3Cl4ZBcPX2yA9Bg=", "properties": {"@source_uri": "https://tools.usps.com/UspsToolsRestServices/rest/POLocator/findLocations", "@spider": "usps_collection_boxes", "addr:city": "HOUGTON", "addr:country": "US", "addr:postcode": "52631", "addr:state": "IA", "addr:street_address": "525 MAIN ST", "amenity": "post_box", "collection_times": "Mo-Fr 11:45", "indoor": "yes", "nsi_id": "unitedstatespostalservice-a77078", "operator": "United States Postal Service", "operator:short": "USPS", "operator:type": "public", "operator:wikidata": "Q668687", "ref": "5263100001"}, "type": "Feature"}
{"geometry": {"coordinates": [-91.612591337, 40.784651491], "type": "Point"}, "id": "_rRI6bPvwFY0VgwPfW50MoCNtjk=", "properties": {"@source_uri": "https://tools.usps.com/UspsToolsRestServices/rest/POLocator/findLocations", "@spider": "usps_collection_boxes", "addr:city": "HOUGTON", "addr:country": "US", "addr:postcode": "52631", "addr:state": "IA", "addr:street_address": "525 MAIN ST", "amenity": "post_box", "collection_times": "Mo-Fr 12:00; Sa 09:15", "indoor": "yes", "nsi_id": "unitedstatespostalservice-a77078", "operator": "United States Postal Service", "operator:short": "USPS", "operator:type": "public", "operator:wikidata": "Q668687", "ref": "5263100002"}, "type": "Feature"}
{"geometry": {"coordinates": [-91.401102335, 40.416087511], "type": "Point"}, "id": "sHHbyOymFK5F9-SoRavMA1Pb_N0=", "properties": {"@source_uri": "https://tools.usps.com/UspsToolsRestServices/rest/POLocator/findLocations", "@spider": "usps_collection_boxes", "addr:city": "KEOKUK", "addr:country": "US", "addr:postcode": "52632", "addr:state": "IA", "addr:street_address": "201 BOULEVARD RD", "amenity": "post_box", "collection_times": "Mo-Sa 12:00", "nsi_id": "unitedstatespostalservice-a77078", "operator": "United States Postal Service", "operator:short": "USPS", "operator:type": "public", "operator:wikidata": "Q668687", "ref": "5263200001"}, "type": "Feature"}
{"geometry": {"coordinates": [-91.383235329, 40.397295337], "type": "Point"}, "id": "UpU3Xte3Xj4lm930FahM23Lx8u4=", "properties": {"@source_uri": "https://tools.usps.com/UspsToolsRestServices/rest/POLocator/findLocations", "@spider": "usps_collection_boxes", "addr:city": "KEOKUK", "addr:country": "US", "addr:postcode": "52632", "addr:state": "IA", "addr:street_address": "610 BLONDEAU ST", "amenity": "post_box", "collection_times": "Mo-Fr 14:00; Sa 12:00", "note": "ON 12/24 AND 12/31, THIS BOX MAY BE COLLECTED AS EARLY AS 12 NOON.", "nsi_id": "unitedstatespostalservice-a77078", "operator": "United States Postal Service", "operator:short": "USPS", "operator:type": "public", "operator:wikidata": "Q668687", "ref": "5263200007"}, "type": "Feature"}
{"geometry": {"coordinates": [-91.383176691, 40.392073839], "type": "Point"}, "id": "j-1j1TnBk0gDU8FVVV6IzIceX9g=", "properties": {"@source_uri": "https://tools.usps.com/UspsToolsRestServices/rest/POLocator/findLocations", "@spider": "usps_collection_boxes", "addr:city": "KEOKUK", "addr:country": "US", "addr:postcode": "52632", "addr:state": "IA", "addr:street_address": "214 S 2ND ST", "amenity": "post_box", "collection_times": "Mo-Fr 16:45; Sa 16:15", "note": "ON 12/24 AND 12/31, THIS BOX MAY BE COLLECTED AS EARLY AS 12 NOON.", "nsi_id": "unitedstatespostalservice-a77078", "operator": "United States Postal Service", "operator:short": "USPS", "operator:type": "public", "operator:wikidata": "Q668687", "ref": "5263200016"}, "type": "Feature"}
{"geometry": {"coordinates": [-91.407655007, 40.41909085], "type": "Point"}, "id": "f4kt-CVWzDwjEctV3ivXnpg9vMg=", "properties": {"@source_uri": "https://tools.usps.com/UspsToolsRestServices/rest/POLocator/findLocations", "@spider": "usps_collection_boxes", "addr:city": "KEOKUK", "addr:country": "US", "addr:postcode": "52632", "addr:state": "IA", "addr:street_address": "3360 MAIN ST", "amenity": "post_box", "collection_times": "Mo-Sa 10:00", "nsi_id": "unitedstatespostalservice-a77078", "operator": "United States Postal Service", "operator:short": "USPS", "operator:type": "public", "operator:wikidata": "Q668687", "ref": "5263200020"}, "type": "Feature"}
{"geometry": {"coordinates": [-91.383176691, 40.392073839], "type": "Point"}, "id": "ZpHCFnQbbtq7zkUih5owcnlZk4w=", "properties": {"@source_uri": "https://tools.usps.com/UspsToolsRestServices/rest/POLocator/findLocations", "@spider": "usps_collection_boxes", "addr:city": "KEOKUK", "addr:country": "US", "addr:postcode": "52632", "addr:state": "IA", "addr:street_address": "214 S 2ND ST", "amenity": "post_box", "collection_times": "Mo-Fr 16:45; Sa 16:15", "indoor": "yes", "note": "ON 12/24 AND 12/31, THIS BOX MAY BE COLLECTED AS EARLY AS 12 NOON.", "nsi_id": "unitedstatespostalservice-a77078", "operator": "United States Postal Service", "operator:short": "USPS", "operator:type": "public", "operator:wikidata": "Q668687", "ref": "5263200022"}, "type": "Feature"}
{"geometry": {"coordinates": [-91.383176691, 40.392073839], "type": "Point"}, "id": "ggKrDDqlwJfS-c_Vr2EVqI6cm0A=", "properties": {"@source_uri": "https://tools.usps.com/UspsToolsRestServices/rest/POLocator/findLocations", "@spider": "usps_collection_boxes", "addr:city": "KEOKUK", "addr:country": "US", "addr:postcode": "52632", "addr:state": "IA", "addr:street_address": "214 S 2ND ST", "amenity": "post_box", "collection_times": "Mo-Fr 16:45; Sa 16:15", "indoor": "yes", "note": "ON 12/24 AND 12/31, THIS BOX MAY BE COLLECTED AS EARLY AS 12 NOON.", "nsi_id": "unitedstatespostalservice-a77078", "operator": "United States Postal Service", "operator:short": "USPS", "operator:type": "public", "operator:wikidata": "Q668687", "ref": "5263200023"}, "type": "Feature"}
{"geometry": {"coordinates": [-91.389441807, 40.4017093], "type": "Point"}, "id": "MKE1ohu4omxc5mYGj6dWsg3Z4fg=", "properties": {"@source_uri": "https://tools.usps.com/UspsToolsRestServices/rest/POLocator/findLocations", "@spider": "usps_collection_boxes", "addr:city": "KEOKUK", "addr:country": "US", "addr:postcode": "52632", "addr:state": "IA", "addr:street_address": "1215 MAIN ST", "amenity": "post_box", "collection_times": "Mo-Fr 14:00; Sa 12:00", "note": "ON 12/24 AND 12/31, THIS BOX MAY BE COLLECTED AS EARLY AS 12 NOON.", "nsi_id": "unitedstatespostalservice-a77078", "operator": "United States Postal Service", "operator:short": "USPS", "operator:type": "public", "operator:wikidata": "Q668687", "ref": "5263200028"}, "type": "Feature"}
{"geometry": {"coordinates": [-91.383176691, 40.392073839], "type": "Point"}, "id": "UhgIIXG-tBp2uHeEfRv2rTeBrjY=", "properties": {"@source_uri": "https://tools.usps.com/UspsToolsRestServices/rest/POLocator/findLocations", "@spider": "usps_collection_boxes", "addr:city": "KEOKUK", "addr:country": "US", "addr:postcode": "52632", "addr:state": "IA", "addr:street_address": "214 S 2ND ST", "amenity": "post_box", "collection_times": "Mo-Fr 16:30; Sa 12:00", "indoor": "yes", "note": "ON 12/24 AND 12/31, THIS BOX MAY BE COLLECTED AS EARLY AS 12 NOON.", "nsi_id": "unitedstatespostalservice-a77078", "operator": "United States Postal Service", "operator:short": "USPS", "operator:type": "public", "operator:wikidata": "Q668687", "ref": "5263200030"}, "type": "Feature"}
{"geometry": {"coordinates": [-91.746948369, 40.992915573], "type": "Point"}, "id": "5vV0epHv4GMu7N97ndKro_x59HE=", "properties": {"@source_uri": "https://tools.usps.com/UspsToolsRestServices/rest/POLocator/findLocations", "@spider": "usps_collection_boxes", "addr:city": "LOCKRIDGE", "addr:country": "US", "addr:postcode": "52635", "addr:state": "IA", "addr:street_address": "103 S CENTER ST", "amenity": "post_box", "collection_times": "Mo-Fr 12:45; Sa 10:30", "note": "ON 12/24 AND 12/31, THIS BOX MAY BE COLLECTED AS EARLY AS 12 NOON.", "nsi_id": "unitedstatespostalservice-a77078", "operator": "United States Postal Service", "operator:short": "USPS", "operator:type": "public", "operator:wikidata": "Q668687", "ref": "5263500000"}, "type": "Feature"}
{"geometry": {"coordinates": [-91.746948369, 40.992915573], "type": "Point"}, "id": "oYETUzvYF9NfPq28RLsG5ShRlP4=", "properties": {"@source_uri": "https://tools.usps.com/UspsToolsRestServices/rest/POLocator/findLocations", "@spider": "usps_collection_boxes", "addr:city": "LOCKRIDGE", "addr:country": "US", "addr:postcode": "52635", "addr:state": "IA", "addr:street_address": "103 S CENTER ST", "amenity": "post_box", "collection_times": "Mo-Fr 12:45; Sa 10:30", "indoor": "yes", "note": "ON 12/24 AND 12/31, THIS BOX MAY BE COLLECTED AS EARLY AS 12 NOON.", "nsi_id": "unitedstatespostalservice-a77078", "operator": "United States Postal Service", "operator:short": "USPS", "operator:type": "public", "operator:wikidata": "Q668687", "ref": "5263500001"}, "type": "Feature"}
{"geometry": {"coordinates": [-91.746948369, 40.992915573], "type": "Point"}, "id": "DjXaGs4tTJ8S4AXBGbqZ6Vr4j7g=", "properties": {"@source_uri": "https://tools.usps.com/UspsToolsRestServices/rest/POLocator/findLocations", "@spider": "usps_collection_boxes", "addr:city": "LOCKRIDGE", "addr:country": "US", "addr:postcode": "52635", "addr:state": "IA", "addr:street_address": "103 S CENTER ST", "amenity": "post_box", "collection_times": "Mo-Fr 13:00; Sa 10:45", "indoor": "yes", "note": "ON 12/24 AND 12/31, THIS BOX MAY BE COLLECTED AS EARLY AS 12 NOON.", "nsi_id": "unitedstatespostalservice-a77078", "operator": "United States Postal Service", "operator:short": "USPS", "operator:type": "public", "operator:wikidata": "Q668687", "ref": "5263500002"}, "type": "Feature"}
{"geometry": {"coordinates": [-91.162512168, 41.007894477], "type": "Point"}, "id": "4RzCUrDEuOzaVDg4JLV-fAl_QUo=", "properties": {"@source_uri": "https://tools.usps.com/UspsToolsRestServices/rest/POLocator/findLocations", "@spider": "usps_collection_boxes", "addr:city": "MEDIAPOLIS", "addr:country": "US", "addr:postcode": "52637", "addr:state": "IA", "addr:street_address": "706 MAIN ST", "amenity": "post_box", "collection_times": "Mo-Fr 16:45; Sa 10:45", "note": "ON 12/24 AND 12/31, THIS BOX MAY BE COLLECTED AS EARLY AS 12 NOON.", "nsi_id": "unitedstatespostalservice-a77078", "operator": "United States Postal Service", "operator:short": "USPS", "operator:type": "public", "operator:wikidata": "Q668687", "ref": "5263700000"}, "type": "Feature"}
{"geometry": {"coordinates": [-91.162512168, 41.007894477], "type": "Point"}, "id": "EURV3RbugbCac8uZ1HlkpO2ARKs=", "properties": {"@source_uri": "https://tools.usps.com/UspsToolsRestServices/rest/POLocator/findLocations", "@spider": "usps_collection_boxes", "addr:city": "MEDIAPOLIS", "addr:country": "US", "addr:postcode": "52637", "addr:state": "IA", "addr:street_address": "706 MAIN ST", "amenity": "post_box", "collection_times": "Mo-Fr 17:15", "indoor": "yes", "note": "ON 12/24 AND 12/31, THIS BOX MAY BE COLLECTED AS EARLY AS 12 NOON.", "nsi_id": "unitedstatespostalservice-a77078", "operator": "United States Postal Service", "operator:short": "USPS", "operator:type": "public", "operator:wikidata": "Q668687", "ref": "5263700001"}, "type": "Feature"}
{"geometry": {"coordinates": [-91.16316, 41.00739], "type": "Point"}, "id": "qKMOCtmRpTTSIJASvZ8iVYnY3_c=", "properties": {"@source_uri": "https://tools.usps.com/UspsToolsRestServices/rest/POLocator/findLocations", "@spider": "usps_collection_boxes", "addr:city": "MEDIAPOLIS", "addr:country": "US", "addr:postcode": "52637", "addr:state": "IA", "addr:street_address": "11745 SPERRY (SPERRY IA) RD", "amenity": "post_box", "collection_times": "Mo-Sa 12:00", "nsi_id": "unitedstatespostalservice-a77078", "operator": "United States Postal Service", "operator:short": "USPS", "operator:type": "public", "operator:wikidata": "Q668687", "ref": "5263700002"}, "type": "Feature"}
{"geometry": {"coordinates": [-91.162512168, 41.007894477], "type": "Point"}, "id": "XFUwuR0sl-jRW37H7QQOPIAcCik=", "properties": {"@source_uri": "https://tools.usps.com/UspsToolsRestServices/rest/POLocator/findLocations", "@spider": "usps_collection_boxes", "addr:city": "MEDIAPOLIS", "addr:country": "US", "addr:postcode": "52637", "addr:state": "IA", "addr:street_address": "706 MAIN ST", "amenity": "post_box", "collection_times": "Mo-Fr 17:00; Sa 11:00", "indoor": "yes", "note": "ON 12/24 AND 12/31, THIS BOX MAY BE COLLECTED AS EARLY AS 12 NOON.", "nsi_id": "unitedstatespostalservice-a77078", "operator": "United States Postal Service", "operator:short": "USPS", "operator:type": "public", "operator:wikidata": "Q668687", "ref": "5263700003"}, "type": "Feature"}
{"geometry": {"coordinates": [-91.261101805, 40.827207526], "type": "Point"}, "id": "5HHx2YHESM9S5XOdVe4TNzn7zBg=", "properties": {"@source_uri": "https://tools.usps.com/UspsToolsRestServices/rest/POLocator/findLocations", "@spider": "usps_collection_boxes", "addr:city": "MIDDLETOWN", "addr:country": "US", "addr:postcode": "52638", "addr:state": "IA", "addr:street_address": "250 MAIN ST", "amenity": "post_box", "collection_times": "Mo-Fr 15:45; Sa 13:45", "note": "ON 12/24 AND 12/31, THIS BOX MAY BE COLLECTED AS EARLY AS 12 NOON.", "nsi_id": "unitedstatespostalservice-a77078", "operator": "United States Postal Service", "operator:short": "USPS", "operator:type": "public", "operator:wikidata": "Q668687", "ref": "5263800000"}, "type": "Feature"}
{"geometry": {"coordinates": [-91.261101805, 40.827207526], "type": "Point"}, "id": "rmsmVyD67AzydCFLv9sAv3ijs9Q=", "properties": {"@source_uri": "https://tools.usps.com/UspsToolsRestServices/rest/POLocator/findLocations", "@spider": "usps_collection_boxes", "addr:city": "MIDDLETOWN", "addr:country": "US", "addr:postcode": "52638", "addr:state": "IA", "addr:street_address": "250 MAIN ST", "amenity": "post_box", "collection_times": "Mo-Fr 15:45", "indoor": "yes", "note": "ON 12/24 AND 12/31, THIS BOX MAY BE COLLECTED AS EARLY AS 12 NOON.", "nsi_id": "unitedstatespostalservice-a77078", "operator": "United States Postal Service", "operator:short": "USPS", "operator:type": "public", "operator:wikidata": "Q668687", "ref": "5263800001"}, "type": "Feature"}
{"geometry": {"coordinates": [-91.261101805, 40.827207526], "type": "Point"}, "id": "zrRVFM3W8JKjRKg98hQxq7rj1Bo=", "properties": {"@source_uri": "https://tools.usps.com/UspsToolsRestServices/rest/POLocator/findLocations", "@spider": "usps_collection_boxes", "addr:city": "MIDDLETOWN", "addr:country": "US", "addr:postcode": "52638", "addr:state": "IA", "addr:street_address": "250 MAIN ST", "amenity": "post_box", "collection_times": "Mo-Fr 16:00; Sa 14:00", "indoor": "yes", "note": "ON 12/24 AND 12/31, THIS BOX MAY BE COLLECTED AS EARLY AS 12 NOON.", "nsi_id": "unitedstatespostalservice-a77078", "operator": "United States Postal Service", "operator:short": "USPS", "operator:type": "public", "operator:wikidata": "Q668687", "ref": "5263800002"}, "type": "Feature"}
{"geometry": {"coordinates": [-91.417905828, 40.530406435], "type": "Point"}, "id": "DW2sWp8-fx7y3AFNK7s5paES13s=", "properties": {"@source_uri": "https://tools.usps.com/UspsToolsRestServices/rest/POLocator/findLocations", "@spider": "usps_collection_boxes", "addr:city": "MONTROSE", "addr:country": "US", "addr:postcode": "52639", "addr:state": "IA", "addr:street_address": "400 MAIN ST", "amenity": "post_box", "collection_times": "Mo-Sa 17:00", "note": "ON 12/24 AND 12/31, THIS BOX MAY BE COLLECTED AS EARLY AS 12 NOON.", "nsi_id": "unitedstatespostalservice-a77078", "operator": "United States Postal Service", "operator:short": "USPS", "operator:type": "public", "operator:wikidata": "Q668687", "ref": "5263900000"}, "type": "Feature"}
{"geometry": {"coordinates": [-91.417905828, 40.530406435], "type": "Point"}, "id": "NP3WbPRo4LbStQ3kSi-3L9pgFzM=", "properties": {"@source_uri": "https://tools.usps.com/UspsToolsRestServices/rest/POLocator/findLocations", "@spider": "usps_collection_boxes", "addr:city": "MONTROSE", "addr:country": "US", "addr:postcode": "52639", "addr:state": "IA", "addr:street_address": "400 MAIN ST", "amenity": "post_box", "collection_times": "Mo-Fr 14:15", "indoor": "yes", "note": "ON 12/24 AND 12/31, THIS BOX MAY BE COLLECTED AS EARLY AS 12 NOON.", "nsi_id": "unitedstatespostalservice-a77078", "operator": "United States Postal Service", "operator:short": "USPS", "operator:type": "public", "operator:wikidata": "Q668687", "ref": "5263900001"}, "type": "Feature"}
{"geometry": {"coordinates": [-91.417905828, 40.530406435], "type": "Point"}, "id": "C27kb9Zs4m1Jp2dTLLfRtLI1_KI=", "properties": {"@source_uri": "https://tools.usps.com/UspsToolsRestServices/rest/POLocator/findLocations", "@spider": "usps_collection_boxes", "addr:city": "MONTROSE", "addr:country": "US", "addr:postcode": "52639", "addr:state": "IA", "addr:street_address": "400 MAIN ST", "amenity": "post_box", "collection_times": "Mo-Fr 14:30; Sa 09:30", "indoor": "yes", "note": "ON 12/24 AND 12/31, THIS BOX MAY BE COLLECTED AS EARLY AS 12 NOON.", "nsi_id": "unitedstatespostalservice-a77078", "operator": "United States Postal Service", "operator:short": "USPS", "operator:type": "public", "operator:wikidata": "Q668687", "ref": "5263900002"}, "type": "Feature"}
{"geometry": {"coordinates": [-91.255507868, 41.097091528], "type": "Point"}, "id": "zw5qMHrdq332T7VG7e45I-uu6ho=", "properties": {"@source_uri": "https://tools.usps.com/UspsToolsRestServices/rest/POLocator/findLocations", "@spider": "usps_collection_boxes", "addr:city": "MORNING SUN", "addr:country": "US", "addr:postcode": "52640", "addr:state": "IA", "addr:street_address": "19 N MAIN ST", "amenity": "post_box", "collection_times": "Mo-Fr 15:15; Sa 10:45", "note": "ON 12/24 AND 12/31, THIS BOX MAY BE COLLECTED AS EARLY AS 12 NOON.", "nsi_id": "unitedstatespostalservice-a77078", "operator": "United States Postal Service", "operator:short": "USPS", "operator:type": "public", "operator:wikidata": "Q668687", "ref": "5264000000"}, "type": "Feature"}
{"geometry": {"coordinates": [-91.255507868, 41.097091528], "type": "Point"}, "id": "VP91qDp8CRw_d3odyS1i5JRgvb0=", "properties": {"@source_uri": "https://tools.usps.com/UspsToolsRestServices/rest/POLocator/findLocations", "@spider": "usps_collection_boxes", "addr:city": "MORNING SUN", "addr:country": "US", "addr:postcode": "52640", "addr:state": "IA", "addr:street_address": "19 N MAIN ST", "amenity": "post_box", "collection_times": "Mo-Fr 15:15", "indoor": "yes", "note": "ON 12/24 AND 12/31, THIS BOX MAY BE COLLECTED AS EARLY AS 12 NOON.", "nsi_id": "unitedstatespostalservice-a77078", "operator": "United States Postal Service", "operator:short": "USPS", "operator:type": "public", "operator:wikidata": "Q668687", "ref": "5264000002"}, "type": "Feature"}
{"geometry": {"coordinates": [-91.255507868, 41.097091528], "type": "Point"}, "id": "OVNsYwbrEA65VJoVCe6rlC4wai0=", "properties": {"@source_uri": "https://tools.usps.com/UspsToolsRestServices/rest/POLocator/findLocations", "@spider": "usps_collection_boxes", "addr:city": "MORNING SUN", "addr:country": "US", "addr:postcode": "52640", "addr:state": "IA", "addr:street_address": "19 N MAIN ST", "amenity": "post_box", "collection_times": "Mo-Fr 15:30; Sa 11:00", "indoor": "yes", "note": "ON 12/24 AND 12/31, THIS BOX MAY BE COLLECTED AS EARLY AS 12 NOON.", "nsi_id": "unitedstatespostalservice-a77078", "operator": "United States Postal Service", "operator:short": "USPS", "operator:type": "public", "operator:wikidata": "Q668687", "ref": "5264000003"}, "type": "Feature"}
{"geometry": {"coordinates": [-91.528753134, 40.962278365], "type": "Point"}, "id": "-q-XgxIl_ehPRASHngFwtYJmU4k=", "properties": {"@source_uri": "https://tools.usps.com/UspsToolsRestServices/rest/POLocator/findLocations", "@spider": "usps_collection_boxes", "addr:city": "MOUNT PLEASANT", "addr:country": "US", "addr:postcode": "52641", "addr:state": "IA", "addr:street_address": "1700 E WASHINGTON ST", "amenity": "post_box", "collection_times": "Mo-Sa 09:00", "nsi_id": "unitedstatespostalservice-a77078", "operator": "United States Postal Service", "operator:short": "USPS", "operator:type": "public", "operator:wikidata": "Q668687", "ref": "5264100000"}, "type": "Feature"}
{"geometry": {"coordinates": [-91.53953229, 40.979534588], "type": "Point"}, "id": "fxOIVL25KrI0K8IOwYyBCwBMA1Y=", "properties": {"@source_uri": "https://tools.usps.com/UspsToolsRestServices/rest/POLocator/findLocations", "@spider": "usps_collection_boxes", "addr:city": "MOUNT PLEASANT", "addr:country": "US", "addr:postcode": "52641", "addr:state": "IA", "addr:street_address": "1045 N GRAND AVE", "amenity": "post_box", "collection_times": "Mo-Sa 08:30", "nsi_id": "unitedstatespostalservice-a77078", "operator": "United States Postal Service", "operator:short": "USPS", "operator:type": "public", "operator:wikidata": "Q668687", "ref": "5264100008"}, "type": "Feature"}
{"geometry": {"coordinates": [-91.554366036, 40.967935754], "type": "Point"}, "id": "nhbOx01kOvAcoNLg1w2FKR7yT8k=", "properties": {"@source_uri": "https://tools.usps.com/UspsToolsRestServices/rest/POLocator/findLocations", "@spider": "usps_collection_boxes", "addr:city": "MOUNT PLEASANT", "addr:country": "US", "addr:postcode": "52641", "addr:state": "IA", "addr:street_address": "200 N JEFFERSON ST", "amenity": "post_box", "collection_times": "Mo-Fr 16:45; Sa 16:00", "note": "ON 12/24 AND 12/31, THIS BOX MAY BE COLLECTED AS EARLY AS 12 NOON.", "nsi_id": "unitedstatespostalservice-a77078", "operator": "United States Postal Service", "operator:short": "USPS", "operator:type": "public", "operator:wikidata": "Q668687", "ref": "5264100009"}, "type": "Feature"}
{"geometry": {"coordinates": [-91.554366036, 40.967935754], "type": "Point"}, "id": "c4dRV4hvUCEzfTmWlYgVOgqMhLI=", "properties": {"@source_uri": "https://tools.usps.com/UspsToolsRestServices/rest/POLocator/findLocations", "@spider": "usps_collection_boxes", "addr:city": "MOUNT PLEASANT", "addr:country": "US", "addr:postcode": "52641", "addr:state": "IA", "addr:street_address": "200 N JEFFERSON ST", "amenity": "post_box", "collection_times": "Mo-Fr 16:45; Sa 16:00", "note": "ON 12/24 AND 12/31, THIS BOX MAY BE COLLECTED AS EARLY AS 12 NOON.", "nsi_id": "unitedstatespostalservice-a77078", "operator": "United States Postal Service", "operator:short": "USPS", "operator:type": "public", "operator:wikidata": "Q668687", "ref": "5264100010"}, "type": "Feature"}
{"geometry": {"coordinates": [-91.554366036, 40.967935754], "type": "Point"}, "id": "0rc9wsx4ob2owdZ-RxqsX5Rt2MI=", "properties": {"@source_uri": "https://tools.usps.com/UspsToolsRestServices/rest/POLocator/findLocations", "@spider": "usps_collection_boxes", "addr:city": "MOUNT PLEASANT", "addr:country": "US", "addr:postcode": "52641", "addr:state": "IA", "addr:street_address": "200 N JEFFERSON ST", "amenity": "post_box", "collection_times": "Mo-Fr 16:45; Sa 16:00", "indoor": "yes", "note": "ON 12/24 AND 12/31, THIS BOX MAY BE COLLECTED AS EARLY AS 12 NOON.", "nsi_id": "unitedstatespostalservice-a77078", "operator": "United States Postal Service", "operator:short": "USPS", "operator:type": "public", "operator:wikidata": "Q668687", "ref": "5264100014"}, "type": "Feature"}
{"geometry": {"coordinates": [-91.554366036, 40.967935754], "type": "Point"}, "id": "OPm1QNaA2x5rO8c3fsjOel6c43U=", "properties": {"@source_uri": "https://tools.usps.com/UspsToolsRestServices/rest/POLocator/findLocations", "@spider": "usps_collection_boxes", "addr:city": "MOUNT PLEASANT", "addr:country": "US", "addr:postcode": "52641", "addr:state": "IA", "addr:street_address": "200 N JEFFERSON ST", "amenity": "post_box", "collection_times": "Mo-Fr 16:30; Sa 11:30", "indoor": "yes", "note": "ON 12/24 AND 12/31, THIS BOX MAY BE COLLECTED AS EARLY AS 12 NOON.", "nsi_id": "unitedstatespostalservice-a77078", "operator": "United States Postal Service", "operator:short": "USPS", "operator:type": "public", "operator:wikidata": "Q668687", "ref": "5264100015"}, "type": "Feature"}
{"geometry": {"coordinates": [-91.391993832, 41.057064512], "type": "Point"}, "id": "3jyh9fkpKyJLGAH1EY2GhU6NDVY=", "properties": {"@source_uri": "https://tools.usps.com/UspsToolsRestServices/rest/POLocator/findLocations", "@spider": "usps_collection_boxes", "addr:city": "MOUNT UNION", "addr:country": "US", "addr:postcode": "52644", "addr:state": "IA", "addr:street_address": "206 W RAILROAD ST", "amenity": "post_box", "collection_times": "Mo-Fr 11:15; Sa 08:30", "nsi_id": "unitedstatespostalservice-a77078", "operator": "United States Postal Service", "operator:short": "USPS", "operator:type": "public", "operator:wikidata": "Q668687", "ref": "5264400000"}, "type": "Feature"}
{"geometry": {"coordinates": [-91.391993832, 41.057064512], "type": "Point"}, "id": "AkxWrhtH3taFbEaKZle5aRxjA78=", "properties": {"@source_uri": "https://tools.usps.com/UspsToolsRestServices/rest/POLocator/findLocations", "@spider": "usps_collection_boxes", "addr:city": "MOUNT UNION", "addr:country": "US", "addr:postcode": "52644", "addr:state": "IA", "addr:street_address": "206 W RAILROAD ST", "amenity": "post_box", "collection_times": "Mo-Fr 11:15; Sa 08:30", "indoor": "yes", "nsi_id": "unitedstatespostalservice-a77078", "operator": "United States Postal Service", "operator:short": "USPS", "operator:type": "public", "operator:wikidata": "Q668687", "ref": "5264400001"}, "type": "Feature"}
{"geometry": {"coordinates": [-91.391993832, 41.057064512], "type": "Point"}, "id": "nkW4yFtTAT6ChjMzmYAVDprKgYk=", "properties": {"@source_uri": "https://tools.usps.com/UspsToolsRestServices/rest/POLocator/findLocations", "@spider": "usps_collection_boxes", "addr:city": "MOUNT UNION", "addr:country": "US", "addr:postcode": "52644", "addr:state": "IA", "addr:street_address": "206 W RAILROAD ST", "amenity": "post_box", "collection_times": "Mo-Fr 11:30; Sa 08:45", "indoor": "yes", "nsi_id": "unitedstatespostalservice-a77078", "operator": "United States Postal Service", "operator:short": "USPS", "operator:type": "public", "operator:wikidata": "Q668687", "ref": "5264400002"}, "type": "Feature"}
{"geometry": {"coordinates": [-91.403146453, 40.925256538], "type": "Point"}, "id": "F2iu-Ng6-PlOEmdkKsuEG5VWM98=", "properties": {"@source_uri": "https://tools.usps.com/UspsToolsRestServices/rest/POLocator/findLocations", "@spider": "usps_collection_boxes", "addr:city": "NEW LONDON", "addr:country": "US", "addr:postcode": "52645", "addr:state": "IA", "addr:street_address": "107 S WALNUT ST", "amenity": "post_box", "collection_times": "Mo-Fr 13:45; Sa 10:15", "note": "ON 12/24 AND 12/31, THIS BOX MAY BE COLLECTED AS EARLY AS 12 NOON.", "nsi_id": "unitedstatespostalservice-a77078", "operator": "United States Postal Service", "operator:short": "USPS", "operator:type": "public", "operator:wikidata": "Q668687", "ref": "5264500000"}, "type": "Feature"}
{"geometry": {"coordinates": [-91.403146453, 40.925256538], "type": "Point"}, "id": "13zk5Y6NpvpuKhqY0Zo9bTsSCy0=", "properties": {"@source_uri": "https://tools.usps.com/UspsToolsRestServices/rest/POLocator/findLocations", "@spider": "usps_collection_boxes", "addr:city": "NEW LONDON", "addr:country": "US", "addr:postcode": "52645", "addr:state": "IA", "addr:street_address": "107 S WALNUT ST", "amenity": "post_box", "collection_times": "Mo-Fr 13:45", "indoor": "yes", "note": "ON 12/24 AND 12/31, THIS BOX MAY BE COLLECTED AS EARLY AS 12 NOON.", "nsi_id": "unitedstatespostalservice-a77078", "operator": "United States Postal Service", "operator:short": "USPS", "operator:type": "public", "operator:wikidata": "Q668687", "ref": "5264500004"}, "type": "Feature"}
{"geometry": {"coordinates": [-91.403146453, 40.925256538], "type": "Point"}, "id": "4UVg-L3226zxUPi64w4MUpnlpl8=", "properties": {"@source_uri": "https://tools.usps.com/UspsToolsRestServices/rest/POLocator/findLocations", "@spider": "usps_collection_boxes", "addr:city": "NEW LONDON", "addr:country": "US", "addr:postcode": "52645", "addr:state": "IA", "addr:street_address": "107 S WALNUT ST", "amenity": "post_box", "collection_times": "Mo-Fr 14:00; Sa 10:30", "indoor": "yes", "note": "ON 12/24 AND 12/31, THIS BOX MAY BE COLLECTED AS EARLY AS 12 NOON.", "nsi_id": "unitedstatespostalservice-a77078", "operator": "United States Postal Service", "operator:short": "USPS", "operator:type": "public", "operator:wikidata": "Q668687", "ref": "5264500005"}, "type": "Feature"}
{"geometry": {"coordinates": [-91.044389491, 41.099157503], "type": "Point"}, "id": "YdQceKjXhibEHOyvoOY5lDwJh9c=", "properties": {"@source_uri": "https://tools.usps.com/UspsToolsRestServices/rest/POLocator/findLocations", "@spider": "usps_collection_boxes", "addr:city": "OAKVILLE", "addr:country": "US", "addr:postcode": "52646", "addr:state": "IA", "addr:street_address": "505 RUSSELL ST", "amenity": "post_box", "collection_times": "Mo-Fr 13:15; Sa 10:15", "note": "ON 12/24 AND 12/31, THIS BOX MAY BE COLLECTED AS EARLY AS 12 NOON.", "nsi_id": "unitedstatespostalservice-a77078", "operator": "United States Postal Service", "operator:short": "USPS", "operator:type": "public", "operator:wikidata": "Q668687", "ref": "5264600000"}, "type": "Feature"}
{"geometry": {"coordinates": [-91.044389491, 41.099157503], "type": "Point"}, "id": "xs_avumSpfDfqsJr1-wnGqEphIw=", "properties": {"@source_uri": "https://tools.usps.com/UspsToolsRestServices/rest/POLocator/findLocations", "@spider": "usps_collection_boxes", "addr:city": "OAKVILLE", "addr:country": "US", "addr:postcode": "52646", "addr:state": "IA", "addr:street_address": "505 RUSSELL ST", "amenity": "post_box", "collection_times": "Mo-Fr 13:15", "indoor": "yes", "note": "ON 12/24 AND 12/31, THIS BOX MAY BE COLLECTED AS EARLY AS 12 NOON.", "nsi_id": "unitedstatespostalservice-a77078", "operator": "United States Postal Service", "operator:short": "USPS", "operator:type": "public", "operator:wikidata": "Q668687", "ref": "5264600001"}, "type": "Feature"}
{"geometry": {"coordinates": [-91.044389491, 41.099157503], "type": "Point"}, "id": "sIA7cFgQaskAeFCTlv1lYDC__wk=", "properties": {"@source_uri": "https://tools.usps.com/UspsToolsRestServices/rest/POLocator/findLocations", "@spider": "usps_collection_boxes", "addr:city": "OAKVILLE", "addr:country": "US", "addr:postcode": "52646", "addr:state": "IA", "addr:street_address": "505 RUSSELL ST", "amenity": "post_box", "collection_times": "Mo-Fr 13:30; Sa 10:30", "indoor": "yes", "note": "ON 12/24 AND 12/31, THIS BOX MAY BE COLLECTED AS EARLY AS 12 NOON.", "nsi_id": "unitedstatespostalservice-a77078", "operator": "United States Postal Service", "operator:short": "USPS", "operator:type": "public", "operator:wikidata": "Q668687", "ref": "5264600002"}, "type": "Feature"}
{"geometry": {"coordinates": [-91.544893483, 41.133141555], "type": "Point"}, "id": "13v5nz3mNuOuksEmEgTHdP0_CvE=", "properties": {"@source_uri": "https://tools.usps.com/UspsToolsRestServices/rest/POLocator/findLocations", "@spider": "usps_collection_boxes", "addr:city": "OLDS", "addr:country": "US", "addr:postcode": "52647", "addr:state": "IA", "addr:street_address": "110 S MAIN ST", "amenity": "post_box", "collection_times": "Mo-Fr 13:45; Sa 11:30", "note": "ON 12/24 AND 12/31, THIS BOX MAY BE COLLECTED AS EARLY AS 12 NOON.", "nsi_id": "unitedstatespostalservice-a77078", "operator": "United States Postal Service", "operator:short": "USPS", "operator:type": "public", "operator:wikidata": "Q668687", "ref": "5264700000"}, "type": "Feature"}
{"geometry": {"coordinates": [-91.544893483, 41.133141555], "type": "Point"}, "id": "zZTN67hOUYImDtTkpTlAAVcebl8=", "properties": {"@source_uri": "https://tools.usps.com/UspsToolsRestServices/rest/POLocator/findLocations", "@spider": "usps_collection_boxes", "addr:city": "OLDS", "addr:country": "US", "addr:postcode": "52647", "addr:state": "IA", "addr:street_address": "110 S MAIN ST", "amenity": "post_box", "collection_times": "Mo-Fr 13:45; Sa 11:30", "indoor": "yes", "note": "ON 12/24 AND 12/31, THIS BOX MAY BE COLLECTED AS EARLY AS 12 NOON.", "nsi_id": "unitedstatespostalservice-a77078", "operator": "United States Postal Service", "operator:short": "USPS", "operator:type": "public", "operator:wikidata": "Q668687", "ref": "5264700001"}, "type": "Feature"}
{"geometry": {"coordinates": [-91.544893483, 41.133141555], "type": "Point"}, "id": "R67qohlsASAD4rJH-fBwaeh_V6g=", "properties": {"@source_uri": "https://tools.usps.com/UspsToolsRestServices/rest/POLocator/findLocations", "@spider": "usps_collection_boxes", "addr:city": "OLDS", "addr:country": "US", "addr:postcode": "52647", "addr:state": "IA", "addr:street_address": "110 S MAIN ST", "amenity": "post_box", "collection_times": "Mo-Fr 14:00; Sa 11:45", "indoor": "yes", "note": "ON 12/24 AND 12/31, THIS BOX MAY BE COLLECTED AS EARLY AS 12 NOON.", "nsi_id": "unitedstatespostalservice-a77078", "operator": "United States Postal Service", "operator:short": "USPS", "operator:type": "public", "operator:wikidata": "Q668687", "ref": "5264700002"}, "type": "Feature"}
{"geometry": {"coordinates": [-91.535437784, 40.764042453], "type": "Point"}, "id": "Rg2bbiNwOKuJUljBaNQE5XhJPXI=", "properties": {"@source_uri": "https://tools.usps.com/UspsToolsRestServices/rest/POLocator/findLocations", "@spider": "usps_collection_boxes", "addr:city": "PILOT GROVE", "addr:country": "US", "addr:postcode": "52648", "addr:state": "IA", "addr:street_address": "1341 PILOT GROVE RD", "amenity": "post_box", "collection_times": "Mo-Sa 10:30", "nsi_id": "unitedstatespostalservice-a77078", "operator": "United States Postal Service", "operator:short": "USPS", "operator:type": "public", "operator:wikidata": "Q668687", "ref": "5264800000"}, "type": "Feature"}
{"geometry": {"coordinates": [-91.6214163603, 40.8544916647], "type": "Point"}, "id": "fpU3-UyCODrrYNP68kodSMdp5Co=", "properties": {"@source_uri": "https://tools.usps.com/UspsToolsRestServices/rest/POLocator/findLocations", "@spider": "usps_collection_boxes", "addr:city": "SALEM", "addr:country": "US", "addr:postcode": "52649", "addr:state": "IA", "addr:street_address": "103 S MAIN ST", "amenity": "post_box", "collection_times": "Mo-Fr 11:45; Sa 08:30", "nsi_id": "unitedstatespostalservice-a77078", "operator": "United States Postal Service", "operator:short": "USPS", "operator:type": "public", "operator:wikidata": "Q668687", "ref": "5264900000"}, "type": "Feature"}
{"geometry": {"coordinates": [-91.62141636, 40.854482665], "type": "Point"}, "id": "O3pVVcsxoCBskDPyl_AM2AD5OU0=", "properties": {"@source_uri": "https://tools.usps.com/UspsToolsRestServices/rest/POLocator/findLocations", "@spider": "usps_collection_boxes", "addr:city": "SALEM", "addr:country": "US", "addr:postcode": "52649", "addr:state": "IA", "addr:street_address": "103 S MAIN ST", "amenity": "post_box", "collection_times": "Mo-Fr 11:45", "indoor": "yes", "nsi_id": "unitedstatespostalservice-a77078", "operator": "United States Postal Service", "operator:short": "USPS", "operator:type": "public", "operator:wikidata": "Q668687", "ref": "5264900001"}, "type": "Feature"}
{"geometry": {"coordinates": [-91.62141636, 40.854482665], "type": "Point"}, "id": "rwl5U4jDmFnzEC1lOxWI0kfR0FQ=", "properties": {"@source_uri": "https://tools.usps.com/UspsToolsRestServices/rest/POLocator/findLocations", "@spider": "usps_collection_boxes", "addr:city": "SALEM", "addr:country": "US", "addr:postcode": "52649", "addr:state": "IA", "addr:street_address": "103 S MAIN ST", "amenity": "post_box", "collection_times": "Mo-Fr 12:00; Sa 08:45", "indoor": "yes", "nsi_id": "unitedstatespostalservice-a77078", "operator": "United States Postal Service", "operator:short": "USPS", "operator:type": "public", "operator:wikidata": "Q668687", "ref": "5264900002"}, "type": "Feature"}
{"geometry": {"coordinates": [-91.83359288, 40.856499355], "type": "Point"}, "id": "U3bgaMW0xAjZ5ZfMHOUeihySCVY=", "properties": {"@source_uri": "https://tools.usps.com/UspsToolsRestServices/rest/POLocator/findLocations", "@spider": "usps_collection_boxes", "addr:city": "STOCKPORT", "addr:country": "US", "addr:postcode": "52651", "addr:state": "IA", "addr:street_address": "121 S MAIN ST", "amenity": "post_box", "collection_times": "Mo-Fr 12:45; Sa 10:00", "note": "ON 12/24 AND 12/31, THIS BOX MAY BE COLLECTED AS EARLY AS 12 NOON.", "nsi_id": "unitedstatespostalservice-a77078", "operator": "United States Postal Service", "operator:short": "USPS", "operator:type": "public", "operator:wikidata": "Q668687", "ref": "5265100000"}, "type": "Feature"}
{"geometry": {"coordinates": [-91.83359288, 40.856499355], "type": "Point"}, "id": "cTqoKFzHqjmemgvU7VMrK0zSynE=", "properties": {"@source_uri": "https://tools.usps.com/UspsToolsRestServices/rest/POLocator/findLocations", "@spider": "usps_collection_boxes", "addr:city": "STOCKPORT", "addr:country": "US", "addr:postcode": "52651", "addr:state": "IA", "addr:street_address": "121 S MAIN ST", "amenity": "post_box", "collection_times": "Mo-Fr 12:45", "indoor": "yes", "note": "ON 12/24 AND 12/31, THIS BOX MAY BE COLLECTED AS EARLY AS 12 NOON.", "nsi_id": "unitedstatespostalservice-a77078", "operator": "United States Postal Service", "operator:short": "USPS", "operator:type": "public", "operator:wikidata": "Q668687", "ref": "5265100001"}, "type": "Feature"}
{"geometry": {"coordinates": [-91.83359288, 40.856499355], "type": "Point"}, "id": "c9hej6dPfM7td0lJKJ8HFI4aPe4=", "properties": {"@source_uri": "https://tools.usps.com/UspsToolsRestServices/rest/POLocator/findLocations", "@spider": "usps_collection_boxes", "addr:city": "STOCKPORT", "addr:country": "US", "addr:postcode": "52651", "addr:state": "IA", "addr:street_address": "121 S MAIN ST", "amenity": "post_box", "collection_times": "Mo-Fr 13:00; Sa 10:15", "indoor": "yes", "note": "ON 12/24 AND 12/31, THIS BOX MAY BE COLLECTED AS EARLY AS 12 NOON.", "nsi_id": "unitedstatespostalservice-a77078", "operator": "United States Postal Service", "operator:short": "USPS", "operator:type": "public", "operator:wikidata": "Q668687", "ref": "5265100002"}, "type": "Feature"}
{"geometry": {"coordinates": [-91.544778936, 41.105079136], "type": "Point"}, "id": "t7DyXFoQVb7JImY3lTcq0TH8BSg=", "properties": {"@source_uri": "https://tools.usps.com/UspsToolsRestServices/rest/POLocator/findLocations", "@spider": "usps_collection_boxes", "addr:city": "SWEDESBURG", "addr:country": "US", "addr:postcode": "52652", "addr:state": "IA", "addr:street_address": "101 JAMES AVE", "amenity": "post_box", "collection_times": "Mo-Fr 14:45; Sa 09:15", "note": "ON 12/24 AND 12/31, THIS BOX MAY BE COLLECTED AS EARLY AS 12 NOON.", "nsi_id": "unitedstatespostalservice-a77078", "operator": "United States Postal Service", "operator:short": "USPS", "operator:type": "public", "operator:wikidata": "Q668687", "ref": "5265200000"}, "type": "Feature"}
{"geometry": {"coordinates": [-91.544778936, 41.105079136], "type": "Point"}, "id": "c7bFoRYkJJ4az4VwYBPMk4rk0mA=", "properties": {"@source_uri": "https://tools.usps.com/UspsToolsRestServices/rest/POLocator/findLocations", "@spider": "usps_collection_boxes", "addr:city": "SWEDESBURG", "addr:country": "US", "addr:postcode": "52652", "addr:state": "IA", "addr:street_address": "101 JAMES AVE", "amenity": "post_box", "collection_times": "Mo-Fr 14:45; Sa 09:15", "indoor": "yes", "note": "ON 12/24 AND 12/31, THIS BOX MAY BE COLLECTED AS EARLY AS 12 NOON.", "nsi_id": "unitedstatespostalservice-a77078", "operator": "United States Postal Service", "operator:short": "USPS", "operator:type": "public", "operator:wikidata": "Q668687", "ref": "5265200001"}, "type": "Feature"}
{"geometry": {"coordinates": [-91.544778936, 41.105079136], "type": "Point"}, "id": "GUlpLJzVI5kXKa-zEQ8dS_ciZPY=", "properties": {"@source_uri": "https://tools.usps.com/UspsToolsRestServices/rest/POLocator/findLocations", "@spider": "usps_collection_boxes", "addr:city": "SWEDESBURG", "addr:country": "US", "addr:postcode": "52652", "addr:state": "IA", "addr:street_address": "101 JAMES AVE", "amenity": "post_box", "collection_times": "Mo-Fr 15:00; Sa 09:30", "indoor": "yes", "note": "ON 12/24 AND 12/31, THIS BOX MAY BE COLLECTED AS EARLY AS 12 NOON.", "nsi_id": "unitedstatespostalservice-a77078", "operator": "United States Postal Service", "operator:short": "USPS", "operator:type": "public", "operator:wikidata": "Q668687", "ref": "5265200002"}, "type": "Feature"}
{"geometry": {"coordinates": [-91.188626867, 41.172859195], "type": "Point"}, "id": "0qt1iWtRR7UVNRY1Pb8zFrZubM4=", "properties": {"@source_uri": "https://tools.usps.com/UspsToolsRestServices/rest/POLocator/findLocations", "@spider": "usps_collection_boxes", "addr:city": "WAPELLO", "addr:country": "US", "addr:postcode": "52653", "addr:state": "IA", "addr:street_address": "503 HIGHWAY 61 S", "amenity": "post_box", "collection_times": "Mo-Sa 11:00", "nsi_id": "unitedstatespostalservice-a77078", "operator": "United States Postal Service", "operator:short": "USPS", "operator:type": "public", "operator:wikidata": "Q668687", "ref": "5265300000"}, "type": "Feature"}
{"geometry": {"coordinates": [-91.186301826, 41.18062875], "type": "Point"}, "id": "QN7pfrQ7p_DJIdleJYpo0pdbHEI=", "properties": {"@source_uri": "https://tools.usps.com/UspsToolsRestServices/rest/POLocator/findLocations", "@spider": "usps_collection_boxes", "addr:city": "WAPELLO", "addr:country": "US", "addr:postcode": "52653", "addr:state": "IA", "addr:street_address": "206 N MAIN ST", "amenity": "post_box", "collection_times": "Mo-Fr 17:00; Sa 10:45", "note": "ON 12/24 AND 12/31, THIS BOX MAY BE COLLECTED AS EARLY AS 12 NOON.", "nsi_id": "unitedstatespostalservice-a77078", "operator": "United States Postal Service", "operator:short": "USPS", "operator:type": "public", "operator:wikidata": "Q668687", "ref": "5265300003"}, "type": "Feature"}
{"geometry": {"coordinates": [-91.186301826, 41.18062875], "type": "Point"}, "id": "IIXLdfUiJfBzaCBQo2EqdGZnNAE=", "properties": {"@source_uri": "https://tools.usps.com/UspsToolsRestServices/rest/POLocator/findLocations", "@spider": "usps_collection_boxes", "addr:city": "WAPELLO", "addr:country": "US", "addr:postcode": "52653", "addr:state": "IA", "addr:street_address": "206 N MAIN ST", "amenity": "post_box", "collection_times": "Mo-Fr 16:45; Sa 11:00", "indoor": "yes", "note": "ON 12/24 AND 12/31, THIS BOX MAY BE COLLECTED AS EARLY AS 12 NOON.", "nsi_id": "unitedstatespostalservice-a77078", "operator": "United States Postal Service", "operator:short": "USPS", "operator:type": "public", "operator:wikidata": "Q668687", "ref": "5265300005"}, "type": "Feature"}
{"geometry": {"coordinates": [-91.184540717, 41.087827483], "type": "Point"}, "id": "q3AyDq6s1Rb39SKJuiOzx66N_Z8=", "properties": {"@source_uri": "https://tools.usps.com/UspsToolsRestServices/rest/POLocator/findLocations", "@spider": "usps_collection_boxes", "addr:city": "WAPELLO", "addr:country": "US", "addr:postcode": "52653", "addr:state": "IA", "addr:street_address": "13410 HIGHWAY 78", "amenity": "post_box", "collection_times": "Mo-Sa 11:00", "nsi_id": "unitedstatespostalservice-a77078", "operator": "United States Postal Service", "operator:short": "USPS", "operator:type": "public", "operator:wikidata": "Q668687", "ref": "5265300006"}, "type": "Feature"}
{"geometry": {"coordinates": [-91.186301826, 41.18062875], "type": "Point"}, "id": "15NWXlFi4qcLEqam62yvrxeUtnM=", "properties": {"@source_uri": "https://tools.usps.com/UspsToolsRestServices/rest/POLocator/findLocations", "@spider": "usps_collection_boxes", "addr:city": "WAPELLO", "addr:country": "US", "addr:postcode": "52653", "addr:state": "IA", "addr:street_address": "206 N MAIN ST", "amenity": "post_box", "collection_times": "Mo-Fr 16:30; Sa 11:00", "indoor": "yes", "note": "ON 12/24 AND 12/31, THIS BOX MAY BE COLLECTED AS EARLY AS 12 NOON.", "nsi_id": "unitedstatespostalservice-a77078", "operator": "United States Postal Service", "operator:short": "USPS", "operator:type": "public", "operator:wikidata": "Q668687", "ref": "5265300007"}, "type": "Feature"}
{"geometry": {"coordinates": [-91.661251249, 41.147062514], "type": "Point"}, "id": "Da-kvwlVyOOoGS5lu6C-kfGfrpI=", "properties": {"@source_uri": "https://tools.usps.com/UspsToolsRestServices/rest/POLocator/findLocations", "@spider": "usps_collection_boxes", "addr:city": "WAYLAND", "addr:country": "US", "addr:postcode": "52654", "addr:state": "IA", "addr:street_address": "209 W MAIN ST", "amenity": "post_box", "collection_times": "Mo-Fr 13:45; Sa 09:15", "note": "ON 12/24 AND 12/31, THIS BOX MAY BE COLLECTED AS EARLY AS 12 NOON.", "nsi_id": "unitedstatespostalservice-a77078", "operator": "United States Postal Service", "operator:short": "USPS", "operator:type": "public", "operator:wikidata": "Q668687", "ref": "5265400000"}, "type": "Feature"}
{"geometry": {"coordinates": [-91.661251249, 41.147062514], "type": "Point"}, "id": "BM1iv_8w-ZfWQHiDqPmEs1gKAoc=", "properties": {"@source_uri": "https://tools.usps.com/UspsToolsRestServices/rest/POLocator/findLocations", "@spider": "usps_collection_boxes", "addr:city": "WAYLAND", "addr:country": "US", "addr:postcode": "52654", "addr:state": "IA", "addr:street_address": "209 W MAIN ST", "amenity": "post_box", "collection_times": "Mo-Fr 13:45", "indoor": "yes", "note": "ON 12/24 AND 12/31, THIS BOX MAY BE COLLECTED AS EARLY AS 12 NOON.", "nsi_id": "unitedstatespostalservice-a77078", "operator": "United States Postal Service", "operator:short": "USPS", "operator:type": "public", "operator:wikidata": "Q668687", "ref": "5265400001"}, "type": "Feature"}
{"geometry": {"coordinates": [-91.661251249, 41.147062514], "type": "Point"}, "id": "mXY1hmzvWACrff6vnJtjldULdpo=", "properties": {"@source_uri": "https://tools.usps.com/UspsToolsRestServices/rest/POLocator/findLocations", "@spider": "usps_collection_boxes", "addr:city": "WAYLAND", "addr:country": "US", "addr:postcode": "52654", "addr:state": "IA", "addr:street_address": "209 W MAIN ST", "amenity": "post_box", "collection_times": "Mo-Fr 14:00; Sa 09:30", "indoor": "yes", "note": "ON 12/24 AND 12/31, THIS BOX MAY BE COLLECTED AS EARLY AS 12 NOON.", "nsi_id": "unitedstatespostalservice-a77078", "operator": "United States Postal Service", "operator:short": "USPS", "operator:type": "public", "operator:wikidata": "Q668687", "ref": "5265400002"}, "type": "Feature"}
{"geometry": {"coordinates": [-91.207953, 40.826537532], "type": "Point"}, "id": "bL1n0UtLI-OGdO5wNMEK78CfzPc=", "properties": {"@source_uri": "https://tools.usps.com/UspsToolsRestServices/rest/POLocator/findLocations", "@spider": "usps_collection_boxes", "addr:city": "WEST BURLINGTON", "addr:country": "US", "addr:postcode": "52655", "addr:state": "IA", "addr:street_address": "4305 W MOUNT PLEASANT ST", "amenity": "post_box", "collection_times": "Mo-Sa 09:45", "nsi_id": "unitedstatespostalservice-a77078", "operator": "United States Postal Service", "operator:short": "USPS", "operator:type": "public", "operator:wikidata": "Q668687", "ref": "5265500001"}, "type": "Feature"}
{"geometry": {"coordinates": [-91.209639378, 40.839534301], "type": "Point"}, "id": "YzTEkZR08SA3T1XcK5-t_kI0H7w=", "properties": {"@source_uri": "https://tools.usps.com/UspsToolsRestServices/rest/POLocator/findLocations", "@spider": "usps_collection_boxes", "addr:city": "WEST BURLINGTON", "addr:country": "US", "addr:postcode": "52655", "addr:state": "IA", "addr:street_address": "14562 WASHINGTON RD", "amenity": "post_box", "collection_times": "Mo-Sa 12:00", "nsi_id": "unitedstatespostalservice-a77078", "operator": "United States Postal Service", "operator:short": "USPS", "operator:type": "public", "operator:wikidata": "Q668687", "ref": "5265500003"}, "type": "Feature"}
{"geometry": {"coordinates": [-91.169926656, 40.821536249], "type": "Point"}, "id": "z58n-mK4Yaq2MikZXyIjX1r2C80=", "properties": {"@source_uri": "https://tools.usps.com/UspsToolsRestServices/rest/POLocator/findLocations", "@spider": "usps_collection_boxes", "addr:city": "WEST BURLINGTON", "addr:country": "US", "addr:postcode": "52655", "addr:state": "IA", "addr:street_address": "550 S GEAR AVE", "amenity": "post_box", "collection_times": "Mo-Sa 10:00", "nsi_id": "unitedstatespostalservice-a77078", "operator": "United States Postal Service", "operator:short": "USPS", "operator:type": "public", "operator:wikidata": "Q668687", "ref": "5265500005"}, "type": "Feature"}
{"geometry": {"coordinates": [-91.156638298, 40.82481878], "type": "Point"}, "id": "lKYLc3Qem-SeMUfTo0xkkt8aujU=", "properties": {"@source_uri": "https://tools.usps.com/UspsToolsRestServices/rest/POLocator/findLocations", "@spider": "usps_collection_boxes", "addr:city": "WEST BURLINGTON", "addr:country": "US", "addr:postcode": "52655", "addr:state": "IA", "addr:street_address": "201 BROADWAY ST", "amenity": "post_box", "collection_times": "Mo-Fr 16:45; Sa 10:45", "note": "ON 12/24 AND 12/31, THIS BOX MAY BE COLLECTED AS EARLY AS 12 NOON.", "nsi_id": "unitedstatespostalservice-a77078", "operator": "United States Postal Service", "operator:short": "USPS", "operator:type": "public", "operator:wikidata": "Q668687", "ref": "5265500007"}, "type": "Feature"}
{"geometry": {"coordinates": [-91.156638298, 40.82481878], "type": "Point"}, "id": "pKfVdm6K7DXXpxw2O0Vht9KeSxM=", "properties": {"@source_uri": "https://tools.usps.com/UspsToolsRestServices/rest/POLocator/findLocations", "@spider": "usps_collection_boxes", "addr:city": "WEST BURLINGTON", "addr:country": "US", "addr:postcode": "52655", "addr:state": "IA", "addr:street_address": "201 BROADWAY ST", "amenity": "post_box", "collection_times": "Mo-Fr 17:00; Sa 11:00", "indoor": "yes", "note": "ON 12/24 AND 12/31, THIS BOX MAY BE COLLECTED AS EARLY AS 12 NOON.", "nsi_id": "unitedstatespostalservice-a77078", "operator": "United States Postal Service", "operator:short": "USPS", "operator:type": "public", "operator:wikidata": "Q668687", "ref": "5265500008"}, "type": "Feature"}
{"geometry": {"coordinates": [-91.15715351, 40.813290403], "type": "Point"}, "id": "4Xaj0k72PDmg3bZIDxZoMVbCNzc=", "properties": {"@source_uri": "https://tools.usps.com/UspsToolsRestServices/rest/POLocator/findLocations", "@spider": "usps_collection_boxes", "addr:city": "WEST BURLINGTON", "addr:country": "US", "addr:postcode": "52655", "addr:state": "IA", "addr:street_address": "104 W AGENCY RD", "amenity": "post_box", "collection_times": "Mo-Sa 09:30", "nsi_id": "unitedstatespostalservice-a77078", "operator": "United States Postal Service", "operator:short": "USPS", "operator:type": "public", "operator:wikidata": "Q668687", "ref": "5265500009"}, "type": "Feature"}
{"geometry": {"coordinates": [-91.169514879, 40.811846381], "type": "Point"}, "id": "0t4undw96E_QT3s-YZGW51QIG7w=", "properties": {"@source_uri": "https://tools.usps.com/UspsToolsRestServices/rest/POLocator/findLocations", "@spider": "usps_collection_boxes", "addr:city": "WEST BURLINGTON", "addr:country": "US", "addr:postcode": "52655", "addr:state": "IA", "addr:street_address": "1108 W AGENCY RD", "amenity": "post_box", "collection_times": "Mo-Sa 09:30", "nsi_id": "unitedstatespostalservice-a77078", "operator": "United States Postal Service", "operator:short": "USPS", "operator:type": "public", "operator:wikidata": "Q668687", "ref": "5265500010"}, "type": "Feature"}
{"geometry": {"coordinates": [-91.171182013, 40.811622564], "type": "Point"}, "id": "j2tuBw4f49h--10QfJGtyKClhJc=", "properties": {"@source_uri": "https://tools.usps.com/UspsToolsRestServices/rest/POLocator/findLocations", "@spider": "usps_collection_boxes", "addr:city": "WEST BURLINGTON", "addr:country": "US", "addr:postcode": "52655", "addr:state": "IA", "addr:street_address": "1201 W AGENCY RD", "amenity": "post_box", "collection_times": "Mo-Sa 09:30", "nsi_id": "unitedstatespostalservice-a77078", "operator": "United States Postal Service", "operator:short": "USPS", "operator:type": "public", "operator:wikidata": "Q668687", "ref": "5265500012"}, "type": "Feature"}
{"geometry": {"coordinates": [-91.156638298, 40.82481878], "type": "Point"}, "id": "W4FDsOtCvt6pyfVpDZgJ6ZvhwCo=", "properties": {"@source_uri": "https://tools.usps.com/UspsToolsRestServices/rest/POLocator/findLocations", "@spider": "usps_collection_boxes", "addr:city": "WEST BURLINGTON", "addr:country": "US", "addr:postcode": "52655", "addr:state": "IA", "addr:street_address": "201 BROADWAY ST", "amenity": "post_box", "collection_times": "Mo-Fr 17:00; Sa 11:00", "indoor": "yes", "note": "ON 12/24 AND 12/31, THIS BOX MAY BE COLLECTED AS EARLY AS 12 NOON.", "nsi_id": "unitedstatespostalservice-a77078", "operator": "United States Postal Service", "operator:short": "USPS", "operator:type": "public", "operator:wikidata": "Q668687", "ref": "5265500015"}, "type": "Feature"}
{"geometry": {"coordinates": [-91.453830284, 40.717593], "type": "Point"}, "id": "BvbwYpOoRnSpeXuwVbDNwxfjA_k=", "properties": {"@source_uri": "https://tools.usps.com/UspsToolsRestServices/rest/POLocator/findLocations", "@spider": "usps_collection_boxes", "addr:city": "WEST POINT", "addr:country": "US", "addr:postcode": "52656", "addr:state": "IA", "addr:street_address": "326 4TH ST", "amenity": "post_box", "collection_times": "Mo-Fr 13:45; Sa 09:15", "note": "ON 12/24 AND 12/31, THIS BOX MAY BE COLLECTED AS EARLY AS 12 NOON.", "nsi_id": "unitedstatespostalservice-a77078", "operator": "United States Postal Service", "operator:short": "USPS", "operator:type": "public", "operator:wikidata": "Q668687", "ref": "5265600000"}, "type": "Feature"}
{"geometry": {"coordinates": [-91.453830284, 40.717593], "type": "Point"}, "id": "i1ttz7VC2gl41Jcra6KLEPO3b1Q=", "properties": {"@source_uri": "https://tools.usps.com/UspsToolsRestServices/rest/POLocator/findLocations", "@spider": "usps_collection_boxes", "addr:city": "WEST POINT", "addr:country": "US", "addr:postcode": "52656", "addr:state": "IA", "addr:street_address": "326 4TH ST", "amenity": "post_box", "collection_times": "Mo-Fr 13:45; Sa 09:15", "indoor": "yes", "note": "ON 12/24 AND 12/31, THIS BOX MAY BE COLLECTED AS EARLY AS 12 NOON.", "nsi_id": "unitedstatespostalservice-a77078", "operator": "United States Postal Service", "operator:short": "USPS", "operator:type": "public", "operator:wikidata": "Q668687", "ref": "5265600003"}, "type": "Feature"}
{"geometry": {"coordinates": [-91.453830284, 40.717593], "type": "Point"}, "id": "XUoLDqa5c8kVbNxGQmqdOAKrX80=", "properties": {"@source_uri": "https://tools.usps.com/UspsToolsRestServices/rest/POLocator/findLocations", "@spider": "usps_collection_boxes", "addr:city": "WEST POINT", "addr:country": "US", "addr:postcode": "52656", "addr:state": "IA", "addr:street_address": "326 4TH ST", "amenity": "post_box", "collection_times": "Mo-Fr 14:00; Sa 09:30", "indoor": "yes", "note": "ON 12/24 AND 12/31, THIS BOX MAY BE COLLECTED AS EARLY AS 12 NOON.", "nsi_id": "unitedstatespostalservice-a77078", "operator": "United States Postal Service", "operator:short": "USPS", "operator:type": "public", "operator:wikidata": "Q668687", "ref": "5265600004"}, "type": "Feature"}
{"geometry": {"coordinates": [-91.230464512, 40.711039241], "type": "Point"}, "id": "hiHAeRwgDllXe0EjHtrBFfxSB2s=", "properties": {"@source_uri": "https://tools.usps.com/UspsToolsRestServices/rest/POLocator/findLocations", "@spider": "usps_collection_boxes", "addr:city": "WEVER", "addr:country": "US", "addr:postcode": "52658", "addr:state": "IA", "addr:street_address": "1694 354TH AVE", "amenity": "post_box", "collection_times": "Mo-Fr 15:15; Sa 12:45", "note": "ON 12/24 AND 12/31, THIS BOX MAY BE COLLECTED AS EARLY AS 12 NOON.", "nsi_id": "unitedstatespostalservice-a77078", "operator": "United States Postal Service", "operator:short": "USPS", "operator:type": "public", "operator:wikidata": "Q668687", "ref": "5265800000"}, "type": "Feature"}
{"geometry": {"coordinates": [-91.230464512, 40.711039241], "type": "Point"}, "id": "rxDB5j6b3Pfzr-X0LXxDmZWpqng=", "properties": {"@source_uri": "https://tools.usps.com/UspsToolsRestServices/rest/POLocator/findLocations", "@spider": "usps_collection_boxes", "addr:city": "WEVER", "addr:country": "US", "addr:postcode": "52658", "addr:state": "IA", "addr:street_address": "1694 354TH AVE", "amenity": "post_box", "collection_times": "Mo-Fr 15:15; Sa 12:45", "indoor": "yes", "note": "ON 12/24 AND 12/31, THIS BOX MAY BE COLLECTED AS EARLY AS 12 NOON.", "nsi_id": "unitedstatespostalservice-a77078", "operator": "United States Postal Service", "operator:short": "USPS", "operator:type": "public", "operator:wikidata": "Q668687", "ref": "5265800001"}, "type": "Feature"}
{"geometry": {"coordinates": [-91.230464512, 40.711039241], "type": "Point"}, "id": "toF-ioPsCZ0D_opsMSTgLgaesAI=", "properties": {"@source_uri": "https://tools.usps.com/UspsToolsRestServices/rest/POLocator/findLocations", "@spider": "usps_collection_boxes", "addr:city": "WEVER", "addr:country": "US", "addr:postcode": "52658", "addr:state": "IA", "addr:street_address": "1694 354TH AVE", "amenity": "post_box", "collection_times": "Mo-Fr 15:30; Sa 13:00", "indoor": "yes", "note": "ON 12/24 AND 12/31, THIS BOX MAY BE COLLECTED AS EARLY AS 12 NOON.", "nsi_id": "unitedstatespostalservice-a77078", "operator": "United States Postal Service", "operator:short": "USPS", "operator:type": "public", "operator:wikidata": "Q668687", "ref": "5265800002"}, "type": "Feature"}
{"geometry": {"coordinates": [-91.438901832, 41.127605467], "type": "Point"}, "id": "_cH-pWu6fO_iE6wQMN7UCdLkVls=", "properties": {"@source_uri": "https://tools.usps.com/UspsToolsRestServices/rest/POLocator/findLocations", "@spider": "usps_collection_boxes", "addr:city": "WINFIELD", "addr:country": "US", "addr:postcode": "52659", "addr:state": "IA", "addr:street_address": "107 W PINE ST", "amenity": "post_box", "collection_times": "Mo-Fr 14:15; Sa 09:45", "note": "ON 12/24 AND 12/31, THIS BOX MAY BE COLLECTED AS EARLY AS 12 NOON.", "nsi_id": "unitedstatespostalservice-a77078", "operator": "United States Postal Service", "operator:short": "USPS", "operator:type": "public", "operator:wikidata": "Q668687", "ref": "5265900000"}, "type": "Feature"}
{"geometry": {"coordinates": [-91.438901832, 41.127605467], "type": "Point"}, "id": "uzQIjGQtOb8eA7Fg9oScwCCNOvA=", "properties": {"@source_uri": "https://tools.usps.com/UspsToolsRestServices/rest/POLocator/findLocations", "@spider": "usps_collection_boxes", "addr:city": "WINFIELD", "addr:country": "US", "addr:postcode": "52659", "addr:state": "IA", "addr:street_address": "107 W PINE ST", "amenity": "post_box", "collection_times": "Mo-Fr 14:15; Sa 09:45", "indoor": "yes", "note": "ON 12/24 AND 12/31, THIS BOX MAY BE COLLECTED AS EARLY AS 12 NOON.", "nsi_id": "unitedstatespostalservice-a77078", "operator": "United States Postal Service", "operator:short": "USPS", "operator:type": "public", "operator:wikidata": "Q668687", "ref": "5265900001"}, "type": "Feature"}
{"geometry": {"coordinates": [-91.438901832, 41.127605467], "type": "Point"}, "id": "zkAhYrF9NhV8gxLXODNJeNtA8jI=", "properties": {"@source_uri": "https://tools.usps.com/UspsToolsRestServices/rest/POLocator/findLocations", "@spider": "usps_collection_boxes", "addr:city": "WINFIELD", "addr:country": "US", "addr:postcode": "52659", "addr:state": "IA", "addr:street_address": "107 W PINE ST", "amenity": "post_box", "collection_times": "Mo-Fr 14:30; Sa 10:00", "indoor": "yes", "note": "ON 12/24 AND 12/31, THIS BOX MAY BE COLLECTED AS EARLY AS 12 NOON.", "nsi_id": "unitedstatespostalservice-a77078", "operator": "United States Postal Service", "operator:short": "USPS", "operator:type": "public", "operator:wikidata": "Q668687", "ref": "5265900002"}, "type": "Feature"}
