{"dataset_attributes": {"@spider": "usps_collection_boxes", "spider:collection_time": "2023-11-13T08:26:09.210319"}, "geometry": {"coordinates": [-90.251048165, 41.979226872], "type": "Point"}, "id": "2w2azusJtKl--_ZAoQ4c1hbi3l8=", "properties": {"@spider": "usps_collection_boxes", "addr:city": "ANDOVER", "addr:country": "US", "addr:full": "4326 MAIN ST", "addr:postcode": "52701", "addr:state": "IA", "amenity": "post_box", "brand": "United States Postal Service", "brand:wikidata": "Q668687", "collection_times": "Mo-Fr 15:45; Sa 15:00", "name": "USPS COLLECTION BOX - BLUE BOX", "note": "ON 12/24 AND 12/31, THIS BOX MAY BE COLLECTED AS EARLY AS 12 NOON.", "nsi_id": "unitedstatespostalservice-a77078", "operator": "United States Postal Service", "operator:short": "USPS", "operator:type": "public", "operator:wikidata": "Q668687", "ref": "5270100000"}, "type": "Feature"}
{"dataset_attributes": {"@spider": "usps_collection_boxes", "spider:collection_time": "2023-11-13T08:26:09.210319"}, "geometry": {"coordinates": [-90.251048165, 41.979226872], "type": "Point"}, "id": "rvdciXlwWuvw1CJ7Xp-tmhFXge4=", "properties": {"@spider": "usps_collection_boxes", "addr:city": "ANDOVER", "addr:country": "US", "addr:full": "4326 MAIN ST", "addr:postcode": "52701", "addr:state": "IA", "amenity": "post_box", "brand": "United States Postal Service", "brand:wikidata": "Q668687", "collection_times": "Mo-Fr 14:45; Sa 15:00", "name": "USPS COLLECTION BOX - PO LOBBY", "note": "ON 12/24 AND 12/31, THIS BOX MAY BE COLLECTED AS EARLY AS 12 NOON.", "nsi_id": "unitedstatespostalservice-a77078", "operator": "United States Postal Service", "operator:short": "USPS", "operator:type": "public", "operator:wikidata": "Q668687", "ref": "5270100001"}, "type": "Feature"}
{"dataset_attributes": {"@spider": "usps_collection_boxes", "spider:collection_time": "2023-11-13T08:26:09.210319"}, "geometry": {"coordinates": [-90.251048165, 41.979226872], "type": "Point"}, "id": "LFzPCM0K3zKnhU9RfkBscHP3u50=", "properties": {"@spider": "usps_collection_boxes", "addr:city": "ANDOVER", "addr:country": "US", "addr:full": "4326 MAIN ST", "addr:postcode": "52701", "addr:state": "IA", "amenity": "post_box", "brand": "United States Postal Service", "brand:wikidata": "Q668687", "collection_times": "Mo-Sa 15:00", "name": "USPS COLLECTION BOX - PO LOBBY", "note": "ON 12/24 AND 12/31, THIS BOX MAY BE COLLECTED AS EARLY AS 12 NOON.", "nsi_id": "unitedstatespostalservice-a77078", "operator": "United States Postal Service", "operator:short": "USPS", "operator:type": "public", "operator:wikidata": "Q668687", "ref": "5270100002"}, "type": "Feature"}
{"dataset_attributes": {"@spider": "usps_collection_boxes", "spider:collection_time": "2023-11-13T08:26:09.210319"}, "geometry": {"coordinates": [-91.165904787, 41.571126], "type": "Point"}, "id": "Klxtn_FzG8eINbdKo7ytSpZP8Bg=", "properties": {"@spider": "usps_collection_boxes", "addr:city": "ATALISSA", "addr:country": "US", "addr:full": "212 CHERRY ST", "addr:postcode": "52720", "addr:state": "IA", "amenity": "post_box", "brand": "United States Postal Service", "brand:wikidata": "Q668687", "collection_times": "Mo-Sa 16:00", "name": "USPS COLLECTION BOX - BLUE BOX", "note": "ON 12/24 AND 12/31, THIS BOX MAY BE COLLECTED AS EARLY AS 12 NOON.", "nsi_id": "unitedstatespostalservice-a77078", "operator": "United States Postal Service", "operator:short": "USPS", "operator:type": "public", "operator:wikidata": "Q668687", "ref": "5272000000"}, "type": "Feature"}
{"dataset_attributes": {"@spider": "usps_collection_boxes", "spider:collection_time": "2023-11-13T08:26:09.210319"}, "geometry": {"coordinates": [-91.165904787, 41.571126], "type": "Point"}, "id": "j9QOh6ja5dsyeKnb6W-JOsUluKM=", "properties": {"@spider": "usps_collection_boxes", "addr:city": "ATALISSA", "addr:country": "US", "addr:full": "212 CHERRY ST", "addr:postcode": "52720", "addr:state": "IA", "amenity": "post_box", "brand": "United States Postal Service", "brand:wikidata": "Q668687", "collection_times": "Mo-Fr 10:45", "name": "USPS COLLECTION BOX - PO LOBBY", "nsi_id": "unitedstatespostalservice-a77078", "operator": "United States Postal Service", "operator:short": "USPS", "operator:type": "public", "operator:wikidata": "Q668687", "ref": "5272000001"}, "type": "Feature"}
{"dataset_attributes": {"@spider": "usps_collection_boxes", "spider:collection_time": "2023-11-13T08:26:09.210319"}, "geometry": {"coordinates": [-91.15186476, 41.644403361], "type": "Point"}, "id": "encftxjyxxgJpOu9KhEVcmFzOkM=", "properties": {"@spider": "usps_collection_boxes", "addr:city": "ATALISSA", "addr:country": "US", "addr:full": "2086 ATALISSA RD", "addr:postcode": "52720", "addr:state": "IA", "amenity": "post_box", "brand": "United States Postal Service", "brand:wikidata": "Q668687", "collection_times": "Mo-Sa 12:00", "name": "USPS COLLECTION BOX - BLUE BOX", "nsi_id": "unitedstatespostalservice-a77078", "operator": "United States Postal Service", "operator:short": "USPS", "operator:type": "public", "operator:wikidata": "Q668687", "ref": "5272000002"}, "type": "Feature"}
{"dataset_attributes": {"@spider": "usps_collection_boxes", "spider:collection_time": "2023-11-13T08:26:09.210319"}, "geometry": {"coordinates": [-91.165904787, 41.571126], "type": "Point"}, "id": "8QKv8TX42K4r8EKWACnrtKzx96U=", "properties": {"@spider": "usps_collection_boxes", "addr:city": "ATALISSA", "addr:country": "US", "addr:full": "212 CHERRY ST", "addr:postcode": "52720", "addr:state": "IA", "amenity": "post_box", "brand": "United States Postal Service", "brand:wikidata": "Q668687", "collection_times": "Mo-Fr 11:00; Sa 09:15", "name": "USPS COLLECTION BOX - PO LOBBY", "nsi_id": "unitedstatespostalservice-a77078", "operator": "United States Postal Service", "operator:short": "USPS", "operator:type": "public", "operator:wikidata": "Q668687", "ref": "5272000003"}, "type": "Feature"}
{"dataset_attributes": {"@spider": "usps_collection_boxes", "spider:collection_time": "2023-11-13T08:26:09.210319"}, "geometry": {"coordinates": [-90.973796823, 41.740945795], "type": "Point"}, "id": "81pV-GqDRn3Pa86DtoLufpPQKNQ=", "properties": {"@spider": "usps_collection_boxes", "addr:city": "BENNETT", "addr:country": "US", "addr:full": "341 MAIN ST", "addr:postcode": "52721", "addr:state": "IA", "amenity": "post_box", "brand": "United States Postal Service", "brand:wikidata": "Q668687", "collection_times": "Mo-Sa 16:00", "name": "USPS COLLECTION BOX - BLUE BOX", "note": "ON 12/24 AND 12/31, THIS BOX MAY BE COLLECTED AS EARLY AS 12 NOON.", "nsi_id": "unitedstatespostalservice-a77078", "operator": "United States Postal Service", "operator:short": "USPS", "operator:type": "public", "operator:wikidata": "Q668687", "ref": "5272100000"}, "type": "Feature"}
{"dataset_attributes": {"@spider": "usps_collection_boxes", "spider:collection_time": "2023-11-13T08:26:09.210319"}, "geometry": {"coordinates": [-90.973796823, 41.740945795], "type": "Point"}, "id": "bIFkhN414JNkHpahYGN5sxfLYTQ=", "properties": {"@spider": "usps_collection_boxes", "addr:city": "BENNETT", "addr:country": "US", "addr:full": "341 MAIN ST", "addr:postcode": "52721", "addr:state": "IA", "amenity": "post_box", "brand": "United States Postal Service", "brand:wikidata": "Q668687", "collection_times": "Mo-Fr 10:45; Sa 09:15", "name": "USPS COLLECTION BOX - PO LOBBY", "nsi_id": "unitedstatespostalservice-a77078", "operator": "United States Postal Service", "operator:short": "USPS", "operator:type": "public", "operator:wikidata": "Q668687", "ref": "5272100001"}, "type": "Feature"}
{"dataset_attributes": {"@spider": "usps_collection_boxes", "spider:collection_time": "2023-11-13T08:26:09.210319"}, "geometry": {"coordinates": [-90.973796823, 41.740945795], "type": "Point"}, "id": "e5xRpXdwMHt2XzQ9yN_69yqWEUw=", "properties": {"@spider": "usps_collection_boxes", "addr:city": "BENNETT", "addr:country": "US", "addr:full": "341 MAIN ST", "addr:postcode": "52721", "addr:state": "IA", "amenity": "post_box", "brand": "United States Postal Service", "brand:wikidata": "Q668687", "collection_times": "Mo-Fr 11:00; Sa 09:30", "name": "USPS COLLECTION BOX - PO LOBBY", "nsi_id": "unitedstatespostalservice-a77078", "operator": "United States Postal Service", "operator:short": "USPS", "operator:type": "public", "operator:wikidata": "Q668687", "ref": "5272100002"}, "type": "Feature"}
{"dataset_attributes": {"@spider": "usps_collection_boxes", "spider:collection_time": "2023-11-13T08:26:09.210319"}, "geometry": {"coordinates": [-90.5096273897, 41.5251746109], "type": "Point"}, "id": "LUChUiJKMk2lLXuxucpccf6sCac=", "properties": {"@spider": "usps_collection_boxes", "addr:city": "BETTENDORF", "addr:country": "US", "addr:full": "1609 STATE ST", "addr:postcode": "52722", "addr:state": "IA", "amenity": "post_box", "brand": "United States Postal Service", "brand:wikidata": "Q668687", "collection_times": "Mo-Fr 16:45", "name": "USPS COLLECTION BOX - BLUE BOX", "note": "ON 12/24 AND 12/31, THIS BOX MAY BE COLLECTED AS EARLY AS 12 NOON.", "nsi_id": "unitedstatespostalservice-a77078", "operator": "United States Postal Service", "operator:short": "USPS", "operator:type": "public", "operator:wikidata": "Q668687", "ref": "5272200000"}, "type": "Feature"}
{"dataset_attributes": {"@spider": "usps_collection_boxes", "spider:collection_time": "2023-11-13T08:26:09.210319"}, "geometry": {"coordinates": [-90.483781481, 41.551994232], "type": "Point"}, "id": "Fgkaeqk8hzcYn-QPOewIn9Gqirs=", "properties": {"@spider": "usps_collection_boxes", "addr:city": "BETTENDORF", "addr:country": "US", "addr:full": "2900 DEVILS GLEN RD", "addr:postcode": "52722", "addr:state": "IA", "amenity": "post_box", "brand": "United States Postal Service", "brand:wikidata": "Q668687", "collection_times": "Mo-Sa 17:00", "name": "USPS COLLECTION BOX - BLUE BOX", "note": "ON 12/24 AND 12/31, THIS BOX MAY BE COLLECTED AS EARLY AS 12 NOON.", "nsi_id": "unitedstatespostalservice-a77078", "operator": "United States Postal Service", "operator:short": "USPS", "operator:type": "public", "operator:wikidata": "Q668687", "ref": "5272200001"}, "type": "Feature"}
{"dataset_attributes": {"@spider": "usps_collection_boxes", "spider:collection_time": "2023-11-13T08:26:09.210319"}, "geometry": {"coordinates": [-90.483781481, 41.551994232], "type": "Point"}, "id": "dJi12U-FdHlUELowe_AubTiiQe8=", "properties": {"@spider": "usps_collection_boxes", "addr:city": "BETTENDORF", "addr:country": "US", "addr:full": "2900 DEVILS GLEN RD", "addr:postcode": "52722", "addr:state": "IA", "amenity": "post_box", "brand": "United States Postal Service", "brand:wikidata": "Q668687", "collection_times": "Mo-Sa 17:00", "name": "USPS COLLECTION BOX - BLUE BOX", "note": "ON 12/24 AND 12/31, THIS BOX MAY BE COLLECTED AS EARLY AS 12 NOON.", "nsi_id": "unitedstatespostalservice-a77078", "operator": "United States Postal Service", "operator:short": "USPS", "operator:type": "public", "operator:wikidata": "Q668687", "ref": "5272200002"}, "type": "Feature"}
{"dataset_attributes": {"@spider": "usps_collection_boxes", "spider:collection_time": "2023-11-13T08:26:09.210319"}, "geometry": {"coordinates": [-90.4959880144, 41.5317510029], "type": "Point"}, "id": "nGDcNETVPI0ZFB6wnUWkbRqbTEc=", "properties": {"@spider": "usps_collection_boxes", "addr:city": "BETTENDORF", "addr:country": "US", "addr:full": "2620 CENTRAL AVE", "addr:postcode": "52722", "addr:state": "IA", "amenity": "post_box", "brand": "United States Postal Service", "brand:wikidata": "Q668687", "collection_times": "Mo-Sa 16:30", "name": "USPS COLLECTION BOX - BLUE BOX", "note": "ON 12/24 AND 12/31, THIS BOX MAY BE COLLECTED AS EARLY AS 12 NOON.", "nsi_id": "unitedstatespostalservice-a77078", "operator": "United States Postal Service", "operator:short": "USPS", "operator:type": "public", "operator:wikidata": "Q668687", "ref": "5272200004"}, "type": "Feature"}
{"dataset_attributes": {"@spider": "usps_collection_boxes", "spider:collection_time": "2023-11-13T08:26:09.210319"}, "geometry": {"coordinates": [-90.519261454, 41.539986009], "type": "Point"}, "id": "CgeopMJZxZtiCsDf56iDioSkTP4=", "properties": {"@spider": "usps_collection_boxes", "addr:city": "BETTENDORF", "addr:country": "US", "addr:full": "852 MIDDLE RD", "addr:postcode": "52722", "addr:state": "IA", "amenity": "post_box", "brand": "United States Postal Service", "brand:wikidata": "Q668687", "collection_times": "Mo-Sa 17:00", "name": "USPS COLLECTION BOX - BLUE BOX", "note": "ON 12/24 AND 12/31, THIS BOX MAY BE COLLECTED AS EARLY AS 12 NOON.", "nsi_id": "unitedstatespostalservice-a77078", "operator": "United States Postal Service", "operator:short": "USPS", "operator:type": "public", "operator:wikidata": "Q668687", "ref": "5272200006"}, "type": "Feature"}
{"dataset_attributes": {"@spider": "usps_collection_boxes", "spider:collection_time": "2023-11-13T08:26:09.210319"}, "geometry": {"coordinates": [-90.522375822, 41.548314556], "type": "Point"}, "id": "1a4_3OKilSwNkOagZ9zrNNysfiQ=", "properties": {"@spider": "usps_collection_boxes", "addr:city": "BETTENDORF", "addr:country": "US", "addr:full": "2435 KIMBERLY RD", "addr:postcode": "52722", "addr:state": "IA", "amenity": "post_box", "brand": "United States Postal Service", "brand:wikidata": "Q668687", "collection_times": "Mo-Fr 17:00; Sa 09:30", "name": "USPS COLLECTION BOX - BLUE BOX", "note": "ON 12/24 AND 12/31, THIS BOX MAY BE COLLECTED AS EARLY AS 12 NOON.", "nsi_id": "unitedstatespostalservice-a77078", "operator": "United States Postal Service", "operator:short": "USPS", "operator:type": "public", "operator:wikidata": "Q668687", "ref": "5272200008"}, "type": "Feature"}
{"dataset_attributes": {"@spider": "usps_collection_boxes", "spider:collection_time": "2023-11-13T08:26:09.210319"}, "geometry": {"coordinates": [-90.5001730148, 41.5497739807], "type": "Point"}, "id": "8mnDlRTeGwzC-iW1D5IEByNY5og=", "properties": {"@spider": "usps_collection_boxes", "addr:city": "BETTENDORF", "addr:country": "US", "addr:full": "2334 SPRUCE HILLS DR", "addr:postcode": "52722", "addr:state": "IA", "amenity": "post_box", "brand": "United States Postal Service", "brand:wikidata": "Q668687", "collection_times": "Mo-Sa 17:00", "name": "USPS COLLECTION BOX - BLUE BOX", "note": "ON 12/24 AND 12/31, THIS BOX MAY BE COLLECTED AS EARLY AS 12 NOON.", "nsi_id": "unitedstatespostalservice-a77078", "operator": "United States Postal Service", "operator:short": "USPS", "operator:type": "public", "operator:wikidata": "Q668687", "ref": "5272200016"}, "type": "Feature"}
{"dataset_attributes": {"@spider": "usps_collection_boxes", "spider:collection_time": "2023-11-13T08:26:09.210319"}, "geometry": {"coordinates": [-90.5001730148, 41.5497739807], "type": "Point"}, "id": "-yU8AGFEwmx_22REMoWRZ8N1SwM=", "properties": {"@spider": "usps_collection_boxes", "addr:city": "BETTENDORF", "addr:country": "US", "addr:full": "2334 SPRUCE HILLS DR", "addr:postcode": "52722", "addr:state": "IA", "amenity": "post_box", "brand": "United States Postal Service", "brand:wikidata": "Q668687", "collection_times": "Mo-Sa 17:00", "name": "USPS COLLECTION BOX - BLUE BOX", "note": "ON 12/24 AND 12/31, THIS BOX MAY BE COLLECTED AS EARLY AS 12 NOON.", "nsi_id": "unitedstatespostalservice-a77078", "operator": "United States Postal Service", "operator:short": "USPS", "operator:type": "public", "operator:wikidata": "Q668687", "ref": "5272200017"}, "type": "Feature"}
{"dataset_attributes": {"@spider": "usps_collection_boxes", "spider:collection_time": "2023-11-13T08:26:09.210319"}, "geometry": {"coordinates": [-90.5001730148, 41.5497739807], "type": "Point"}, "id": "k7LkUmko-ZbbEWAFBqOfsFXA2xQ=", "properties": {"@spider": "usps_collection_boxes", "addr:city": "BETTENDORF", "addr:country": "US", "addr:full": "2334 SPRUCE HILLS DR", "addr:postcode": "52722", "addr:state": "IA", "amenity": "post_box", "brand": "United States Postal Service", "brand:wikidata": "Q668687", "collection_times": "Mo-Sa 17:00", "name": "USPS COLLECTION BOX - BLUE BOX", "note": "ON 12/24 AND 12/31, THIS BOX MAY BE COLLECTED AS EARLY AS 12 NOON.", "nsi_id": "unitedstatespostalservice-a77078", "operator": "United States Postal Service", "operator:short": "USPS", "operator:type": "public", "operator:wikidata": "Q668687", "ref": "5272200018"}, "type": "Feature"}
{"dataset_attributes": {"@spider": "usps_collection_boxes", "spider:collection_time": "2023-11-13T08:26:09.210319"}, "geometry": {"coordinates": [-90.5001730148, 41.5497739807], "type": "Point"}, "id": "7-hVFUId-rDth8jYwM81dhwoVus=", "properties": {"@spider": "usps_collection_boxes", "addr:city": "BETTENDORF", "addr:country": "US", "addr:full": "2334 SPRUCE HILLS DR", "addr:postcode": "52722", "addr:state": "IA", "amenity": "post_box", "brand": "United States Postal Service", "brand:wikidata": "Q668687", "collection_times": "Mo-Sa 17:00", "name": "USPS COLLECTION BOX - BLUE BOX", "note": "ON 12/24 AND 12/31, THIS BOX MAY BE COLLECTED AS EARLY AS 12 NOON.", "nsi_id": "unitedstatespostalservice-a77078", "operator": "United States Postal Service", "operator:short": "USPS", "operator:type": "public", "operator:wikidata": "Q668687", "ref": "5272200019"}, "type": "Feature"}
{"dataset_attributes": {"@spider": "usps_collection_boxes", "spider:collection_time": "2023-11-13T08:26:09.210319"}, "geometry": {"coordinates": [-90.4972595, 41.547279777], "type": "Point"}, "id": "GLCwME1mVbcVvhhct4feL-V2u1Y=", "properties": {"@spider": "usps_collection_boxes", "addr:city": "BETTENDORF", "addr:country": "US", "addr:full": "2550 MIDDLE RD", "addr:postcode": "52722", "addr:state": "IA", "amenity": "post_box", "brand": "United States Postal Service", "brand:wikidata": "Q668687", "collection_times": "Mo-Fr 17:00", "name": "USPS COLLECTION BOX - BLUE BOX", "note": "ON 12/24 AND 12/31, THIS BOX MAY BE COLLECTED AS EARLY AS 12 NOON.", "nsi_id": "unitedstatespostalservice-a77078", "operator": "United States Postal Service", "operator:short": "USPS", "operator:type": "public", "operator:wikidata": "Q668687", "ref": "5272200021"}, "type": "Feature"}
{"dataset_attributes": {"@spider": "usps_collection_boxes", "spider:collection_time": "2023-11-13T08:26:09.210319"}, "geometry": {"coordinates": [-90.496159314, 41.552189824], "type": "Point"}, "id": "Kxt6SMF4969ZMINtrwPQ2x3b4B0=", "properties": {"@spider": "usps_collection_boxes", "addr:city": "BETTENDORF", "addr:country": "US", "addr:full": "2535 TECH DR", "addr:postcode": "52722", "addr:state": "IA", "amenity": "post_box", "brand": "United States Postal Service", "brand:wikidata": "Q668687", "collection_times": "Mo-Fr 17:00; Sa 11:00", "name": "USPS COLLECTION BOX - BLUE BOX", "note": "ON 12/24 AND 12/31, THIS BOX MAY BE COLLECTED AS EARLY AS 12 NOON.", "nsi_id": "unitedstatespostalservice-a77078", "operator": "United States Postal Service", "operator:short": "USPS", "operator:type": "public", "operator:wikidata": "Q668687", "ref": "5272200027"}, "type": "Feature"}
{"dataset_attributes": {"@spider": "usps_collection_boxes", "spider:collection_time": "2023-11-13T08:26:09.210319"}, "geometry": {"coordinates": [-90.482607982, 41.566888989], "type": "Point"}, "id": "D-39lwpceOdMircY6aduDhaZY0E=", "properties": {"@spider": "usps_collection_boxes", "addr:city": "BETTENDORF", "addr:country": "US", "addr:full": "4439 DEVILS GLEN RD", "addr:postcode": "52722", "addr:state": "IA", "amenity": "post_box", "brand": "United States Postal Service", "brand:wikidata": "Q668687", "collection_times": "Mo-Sa 17:30", "name": "USPS COLLECTION BOX - BLUE BOX", "note": "ON 12/24 AND 12/31, THIS BOX MAY BE COLLECTED AS EARLY AS 12 NOON.", "nsi_id": "unitedstatespostalservice-a77078", "operator": "United States Postal Service", "operator:short": "USPS", "operator:type": "public", "operator:wikidata": "Q668687", "ref": "5272200030"}, "type": "Feature"}
{"dataset_attributes": {"@spider": "usps_collection_boxes", "spider:collection_time": "2023-11-13T08:26:09.210319"}, "geometry": {"coordinates": [-90.483386807, 41.566787581], "type": "Point"}, "id": "99-oAFDkbHUhzKotV3i_MhfOwY0=", "properties": {"@spider": "usps_collection_boxes", "addr:city": "BETTENDORF", "addr:country": "US", "addr:full": "4439 DEVILS GLEN RD", "addr:postcode": "52722", "addr:state": "IA", "amenity": "post_box", "brand": "United States Postal Service", "brand:wikidata": "Q668687", "collection_times": "Mo-Sa 17:30", "name": "USPS COLLECTION BOX - BLUE BOX", "note": "ON 12/24 AND 12/31, THIS BOX MAY BE COLLECTED AS EARLY AS 12 NOON.", "nsi_id": "unitedstatespostalservice-a77078", "operator": "United States Postal Service", "operator:short": "USPS", "operator:type": "public", "operator:wikidata": "Q668687", "ref": "5272200031"}, "type": "Feature"}
{"dataset_attributes": {"@spider": "usps_collection_boxes", "spider:collection_time": "2023-11-13T08:26:09.210319"}, "geometry": {"coordinates": [-90.483386807, 41.566787581], "type": "Point"}, "id": "E0srCN6Eq5ACNkWfPMdiXOlQ0Hw=", "properties": {"@spider": "usps_collection_boxes", "addr:city": "BETTENDORF", "addr:country": "US", "addr:full": "4439 DEVILS GLEN RD", "addr:postcode": "52722", "addr:state": "IA", "amenity": "post_box", "brand": "United States Postal Service", "brand:wikidata": "Q668687", "collection_times": "Mo-Sa 17:30", "name": "USPS COLLECTION BOX - PO LOBBY", "note": "ON 12/24 AND 12/31, THIS BOX MAY BE COLLECTED AS EARLY AS 12 NOON.", "nsi_id": "unitedstatespostalservice-a77078", "operator": "United States Postal Service", "operator:short": "USPS", "operator:type": "public", "operator:wikidata": "Q668687", "ref": "5272200037"}, "type": "Feature"}
{"dataset_attributes": {"@spider": "usps_collection_boxes", "spider:collection_time": "2023-11-13T08:26:09.210319"}, "geometry": {"coordinates": [-90.504383247, 41.525244354], "type": "Point"}, "id": "Zx5r2K5qGpci1A42c9EZiM2SRr0=", "properties": {"@spider": "usps_collection_boxes", "addr:city": "BETTENDORF", "addr:country": "US", "addr:full": "2021 STATE ST", "addr:postcode": "52722", "addr:state": "IA", "amenity": "post_box", "brand": "United States Postal Service", "brand:wikidata": "Q668687", "collection_times": "Mo-Sa 17:00", "name": "USPS COLLECTION BOX - BLUE BOX", "note": "ON 12/24 AND 12/31, THIS BOX MAY BE COLLECTED AS EARLY AS 12 NOON.", "nsi_id": "unitedstatespostalservice-a77078", "operator": "United States Postal Service", "operator:short": "USPS", "operator:type": "public", "operator:wikidata": "Q668687", "ref": "5272200038"}, "type": "Feature"}
{"dataset_attributes": {"@spider": "usps_collection_boxes", "spider:collection_time": "2023-11-13T08:26:09.210319"}, "geometry": {"coordinates": [-90.504383247, 41.525244354], "type": "Point"}, "id": "XBaS_D_NG4yLC_jZCexvSA3ZJDM=", "properties": {"@spider": "usps_collection_boxes", "addr:city": "BETTENDORF", "addr:country": "US", "addr:full": "2021 STATE ST", "addr:postcode": "52722", "addr:state": "IA", "amenity": "post_box", "brand": "United States Postal Service", "brand:wikidata": "Q668687", "collection_times": "Mo-Sa 17:00", "name": "USPS COLLECTION BOX - BLUE BOX", "note": "ON 12/24 AND 12/31, THIS BOX MAY BE COLLECTED AS EARLY AS 12 NOON.", "nsi_id": "unitedstatespostalservice-a77078", "operator": "United States Postal Service", "operator:short": "USPS", "operator:type": "public", "operator:wikidata": "Q668687", "ref": "5272200039"}, "type": "Feature"}
{"dataset_attributes": {"@spider": "usps_collection_boxes", "spider:collection_time": "2023-11-13T08:26:09.210319"}, "geometry": {"coordinates": [-90.517380211, 41.566097926], "type": "Point"}, "id": "LAd72kSTXdq5GRf4t8f0mnq4kTI=", "properties": {"@spider": "usps_collection_boxes", "addr:city": "BETTENDORF", "addr:country": "US", "addr:full": "4500 UTICA RIDGE RD", "addr:postcode": "52722", "addr:state": "IA", "amenity": "post_box", "brand": "United States Postal Service", "brand:wikidata": "Q668687", "collection_times": "Mo-Sa 17:00", "name": "USPS COLLECTION BOX - BLUE BOX", "note": "ON 12/24 AND 12/31, THIS BOX MAY BE COLLECTED AS EARLY AS 12 NOON.", "nsi_id": "unitedstatespostalservice-a77078", "operator": "United States Postal Service", "operator:short": "USPS", "operator:type": "public", "operator:wikidata": "Q668687", "ref": "5272200047"}, "type": "Feature"}
{"dataset_attributes": {"@spider": "usps_collection_boxes", "spider:collection_time": "2023-11-13T08:26:09.210319"}, "geometry": {"coordinates": [-90.483386807, 41.566787581], "type": "Point"}, "id": "heG7CnbYYm0ceIX7gUHeH0m1UzM=", "properties": {"@spider": "usps_collection_boxes", "addr:city": "BETTENDORF", "addr:country": "US", "addr:full": "4439 DEVILS GLEN RD", "addr:postcode": "52722", "addr:state": "IA", "amenity": "post_box", "brand": "United States Postal Service", "brand:wikidata": "Q668687", "collection_times": "Mo-Sa 17:30", "name": "USPS COLLECTION BOX - APC", "note": "ON 12/24 AND 12/31, THIS BOX MAY BE COLLECTED AS EARLY AS 12 NOON.", "nsi_id": "unitedstatespostalservice-a77078", "operator": "United States Postal Service", "operator:short": "USPS", "operator:type": "public", "operator:wikidata": "Q668687", "ref": "5272200048"}, "type": "Feature"}
{"dataset_attributes": {"@spider": "usps_collection_boxes", "spider:collection_time": "2023-11-13T08:26:09.210319"}, "geometry": {"coordinates": [-90.483386807, 41.566787581], "type": "Point"}, "id": "pU-wqufX0bKdp6PPe4xZH2xzcUI=", "properties": {"@spider": "usps_collection_boxes", "addr:city": "BETTENDORF", "addr:country": "US", "addr:full": "4439 DEVILS GLEN RD", "addr:postcode": "52722", "addr:state": "IA", "amenity": "post_box", "brand": "United States Postal Service", "brand:wikidata": "Q668687", "collection_times": "Mo-Fr 17:00; Sa 12:00", "name": "USPS COLLECTION BOX - PO LOBBY", "note": "ON 12/24 AND 12/31, THIS BOX MAY BE COLLECTED AS EARLY AS 12 NOON.", "nsi_id": "unitedstatespostalservice-a77078", "operator": "United States Postal Service", "operator:short": "USPS", "operator:type": "public", "operator:wikidata": "Q668687", "ref": "5272200050"}, "type": "Feature"}
{"dataset_attributes": {"@spider": "usps_collection_boxes", "spider:collection_time": "2023-11-13T08:26:09.210319"}, "geometry": {"coordinates": [-90.7603880254, 41.5087220173], "type": "Point"}, "id": "OPh5j8wl2xyhWpIvT1F6OHPA6BE=", "properties": {"@spider": "usps_collection_boxes", "addr:city": "BLUE GRASS", "addr:country": "US", "addr:full": "102 TERRACE DR", "addr:postcode": "52726", "addr:state": "IA", "amenity": "post_box", "brand": "United States Postal Service", "brand:wikidata": "Q668687", "collection_times": "Mo-Fr 16:15; Sa 16:30", "name": "USPS COLLECTION BOX - BLUE BOX", "note": "ON 12/24 AND 12/31, THIS BOX MAY BE COLLECTED AS EARLY AS 12 NOON.", "nsi_id": "unitedstatespostalservice-a77078", "operator": "United States Postal Service", "operator:short": "USPS", "operator:type": "public", "operator:wikidata": "Q668687", "ref": "5272600000"}, "type": "Feature"}
{"dataset_attributes": {"@spider": "usps_collection_boxes", "spider:collection_time": "2023-11-13T08:26:09.210319"}, "geometry": {"coordinates": [-90.7603880254, 41.5087220173], "type": "Point"}, "id": "Rl4swKrMh9OeI5y-69ZGBz8xqIw=", "properties": {"@spider": "usps_collection_boxes", "addr:city": "BLUE GRASS", "addr:country": "US", "addr:full": "102 TERRACE DR", "addr:postcode": "52726", "addr:state": "IA", "amenity": "post_box", "brand": "United States Postal Service", "brand:wikidata": "Q668687", "collection_times": "Mo-Fr 16:15; Sa 10:45", "name": "USPS COLLECTION BOX - PO LOBBY", "note": "ON 12/24 AND 12/31, THIS BOX MAY BE COLLECTED AS EARLY AS 12 NOON.", "nsi_id": "unitedstatespostalservice-a77078", "operator": "United States Postal Service", "operator:short": "USPS", "operator:type": "public", "operator:wikidata": "Q668687", "ref": "5272600002"}, "type": "Feature"}
{"dataset_attributes": {"@spider": "usps_collection_boxes", "spider:collection_time": "2023-11-13T08:26:09.210319"}, "geometry": {"coordinates": [-90.760148196, 41.508533073], "type": "Point"}, "id": "BqHGclTVJlf7lta6bxJbF7wm4Cs=", "properties": {"@spider": "usps_collection_boxes", "addr:city": "BLUE GRASS", "addr:country": "US", "addr:full": "102 TERRACE DR", "addr:postcode": "52726", "addr:state": "IA", "amenity": "post_box", "brand": "United States Postal Service", "brand:wikidata": "Q668687", "collection_times": "Mo-Fr 16:30; Sa 10:30", "name": "USPS COLLECTION BOX - PO LOBBY", "note": "ON 12/24 AND 12/31, THIS BOX MAY BE COLLECTED AS EARLY AS 12 NOON.", "nsi_id": "unitedstatespostalservice-a77078", "operator": "United States Postal Service", "operator:short": "USPS", "operator:type": "public", "operator:wikidata": "Q668687", "ref": "5272600003"}, "type": "Feature"}
{"dataset_attributes": {"@spider": "usps_collection_boxes", "spider:collection_time": "2023-11-13T08:26:09.210319"}, "geometry": {"coordinates": [-90.717365864, 41.458032], "type": "Point"}, "id": "qzDwEiJgK3b8RfnJbTsvGnIhrVE=", "properties": {"@spider": "usps_collection_boxes", "addr:city": "BUFFALO", "addr:country": "US", "addr:full": "329 DODGE ST", "addr:postcode": "52728", "addr:state": "IA", "amenity": "post_box", "brand": "United States Postal Service", "brand:wikidata": "Q668687", "collection_times": "Mo-Fr 16:15; Sa 15:45", "name": "USPS COLLECTION BOX - BLUE BOX", "note": "ON 12/24 AND 12/31, THIS BOX MAY BE COLLECTED AS EARLY AS 12 NOON.", "nsi_id": "unitedstatespostalservice-a77078", "operator": "United States Postal Service", "operator:short": "USPS", "operator:type": "public", "operator:wikidata": "Q668687", "ref": "5272800000"}, "type": "Feature"}
{"dataset_attributes": {"@spider": "usps_collection_boxes", "spider:collection_time": "2023-11-13T08:26:09.210319"}, "geometry": {"coordinates": [-90.717365864, 41.458032], "type": "Point"}, "id": "F-T5VCnpi8B16ZqqhgVvnsXT3B4=", "properties": {"@spider": "usps_collection_boxes", "addr:city": "BUFFALO", "addr:country": "US", "addr:full": "329 DODGE ST", "addr:postcode": "52728", "addr:state": "IA", "amenity": "post_box", "brand": "United States Postal Service", "brand:wikidata": "Q668687", "collection_times": "Mo-Fr 16:15; Sa 10:45", "name": "USPS COLLECTION BOX - PO LOBBY", "note": "ON 12/24 AND 12/31, THIS BOX MAY BE COLLECTED AS EARLY AS 12 NOON.", "nsi_id": "unitedstatespostalservice-a77078", "operator": "United States Postal Service", "operator:short": "USPS", "operator:type": "public", "operator:wikidata": "Q668687", "ref": "5272800001"}, "type": "Feature"}
{"dataset_attributes": {"@spider": "usps_collection_boxes", "spider:collection_time": "2023-11-13T08:26:09.210319"}, "geometry": {"coordinates": [-90.717365864, 41.458032], "type": "Point"}, "id": "rLd3W7X8CFATJqaJkEgkCkWxOoA=", "properties": {"@spider": "usps_collection_boxes", "addr:city": "BUFFALO", "addr:country": "US", "addr:full": "329 DODGE ST", "addr:postcode": "52728", "addr:state": "IA", "amenity": "post_box", "brand": "United States Postal Service", "brand:wikidata": "Q668687", "collection_times": "Mo-Fr 16:30; Sa 10:30", "name": "USPS COLLECTION BOX - PO LOBBY", "note": "ON 12/24 AND 12/31, THIS BOX MAY BE COLLECTED AS EARLY AS 12 NOON.", "nsi_id": "unitedstatespostalservice-a77078", "operator": "United States Postal Service", "operator:short": "USPS", "operator:type": "public", "operator:wikidata": "Q668687", "ref": "5272800002"}, "type": "Feature"}
{"dataset_attributes": {"@spider": "usps_collection_boxes", "spider:collection_time": "2023-11-13T08:26:09.210319"}, "geometry": {"coordinates": [-90.758774626, 41.825745], "type": "Point"}, "id": "u0kFsuBKwWnOAy48KIg7CFPWxkE=", "properties": {"@spider": "usps_collection_boxes", "addr:city": "CALAMUS", "addr:country": "US", "addr:full": "200 2ND ST", "addr:postcode": "52729", "addr:state": "IA", "amenity": "post_box", "brand": "United States Postal Service", "brand:wikidata": "Q668687", "collection_times": "Mo-Sa 16:00", "name": "USPS COLLECTION BOX - BLUE BOX", "note": "ON 12/24 AND 12/31, THIS BOX MAY BE COLLECTED AS EARLY AS 12 NOON.", "nsi_id": "unitedstatespostalservice-a77078", "operator": "United States Postal Service", "operator:short": "USPS", "operator:type": "public", "operator:wikidata": "Q668687", "ref": "5272900000"}, "type": "Feature"}
{"dataset_attributes": {"@spider": "usps_collection_boxes", "spider:collection_time": "2023-11-13T08:26:09.210319"}, "geometry": {"coordinates": [-90.758774626, 41.825745], "type": "Point"}, "id": "XCuwRttNR9ZIpemhb_7ldEDGbXc=", "properties": {"@spider": "usps_collection_boxes", "addr:city": "CALAMUS", "addr:country": "US", "addr:full": "200 2ND ST", "addr:postcode": "52729", "addr:state": "IA", "amenity": "post_box", "brand": "United States Postal Service", "brand:wikidata": "Q668687", "collection_times": "Mo-Fr 14:45", "name": "USPS COLLECTION BOX - PO LOBBY", "note": "ON 12/24 AND 12/31, THIS BOX MAY BE COLLECTED AS EARLY AS 12 NOON.", "nsi_id": "unitedstatespostalservice-a77078", "operator": "United States Postal Service", "operator:short": "USPS", "operator:type": "public", "operator:wikidata": "Q668687", "ref": "5272900001"}, "type": "Feature"}
{"dataset_attributes": {"@spider": "usps_collection_boxes", "spider:collection_time": "2023-11-13T08:26:09.210319"}, "geometry": {"coordinates": [-90.758774626, 41.825745], "type": "Point"}, "id": "q_FFm9XFfyBDdGz_ua8Ak79WTW8=", "properties": {"@spider": "usps_collection_boxes", "addr:city": "CALAMUS", "addr:country": "US", "addr:full": "200 2ND ST", "addr:postcode": "52729", "addr:state": "IA", "amenity": "post_box", "brand": "United States Postal Service", "brand:wikidata": "Q668687", "collection_times": "Mo-Fr 15:00; Sa 13:00", "name": "USPS COLLECTION BOX - PO LOBBY", "note": "ON 12/24 AND 12/31, THIS BOX MAY BE COLLECTED AS EARLY AS 12 NOON.", "nsi_id": "unitedstatespostalservice-a77078", "operator": "United States Postal Service", "operator:short": "USPS", "operator:type": "public", "operator:wikidata": "Q668687", "ref": "5272900002"}, "type": "Feature"}
{"dataset_attributes": {"@spider": "usps_collection_boxes", "spider:collection_time": "2023-11-13T08:26:09.210319"}, "geometry": {"coordinates": [-90.257903554, 41.787005678], "type": "Point"}, "id": "PjuAkntnpCiPPga8CbpNYh8eQ60=", "properties": {"@spider": "usps_collection_boxes", "addr:city": "CAMANCHE", "addr:country": "US", "addr:full": "820 S WASHINGTON BLVD", "addr:postcode": "52730", "addr:state": "IA", "amenity": "post_box", "brand": "United States Postal Service", "brand:wikidata": "Q668687", "collection_times": "Mo-Sa 16:30", "name": "USPS COLLECTION BOX - BLUE BOX", "note": "ON 12/24 AND 12/31, THIS BOX MAY BE COLLECTED AS EARLY AS 12 NOON.", "nsi_id": "unitedstatespostalservice-a77078", "operator": "United States Postal Service", "operator:short": "USPS", "operator:type": "public", "operator:wikidata": "Q668687", "ref": "5273000003"}, "type": "Feature"}
{"dataset_attributes": {"@spider": "usps_collection_boxes", "spider:collection_time": "2023-11-13T08:26:09.210319"}, "geometry": {"coordinates": [-90.257903554, 41.787005678], "type": "Point"}, "id": "uzfPplC-wuypv9bBdRNMDF-dh9Y=", "properties": {"@spider": "usps_collection_boxes", "addr:city": "CAMANCHE", "addr:country": "US", "addr:full": "820 S WASHINGTON BLVD", "addr:postcode": "52730", "addr:state": "IA", "amenity": "post_box", "brand": "United States Postal Service", "brand:wikidata": "Q668687", "collection_times": "Mo-Fr 16:30; Sa 12:00", "name": "USPS COLLECTION BOX - PO LOBBY", "note": "ON 12/24 AND 12/31, THIS BOX MAY BE COLLECTED AS EARLY AS 12 NOON.", "nsi_id": "unitedstatespostalservice-a77078", "operator": "United States Postal Service", "operator:short": "USPS", "operator:type": "public", "operator:wikidata": "Q668687", "ref": "5273000005"}, "type": "Feature"}
{"dataset_attributes": {"@spider": "usps_collection_boxes", "spider:collection_time": "2023-11-13T08:26:09.210319"}, "geometry": {"coordinates": [-90.247135981, 41.80164055], "type": "Point"}, "id": "o0AAWFWRUp1wFLBdSABcEf5I-ZQ=", "properties": {"@spider": "usps_collection_boxes", "addr:city": "CAMANCHE", "addr:country": "US", "addr:full": "820 N. WASHINGTON BLVD.", "addr:postcode": "52730", "addr:state": "IA", "amenity": "post_box", "brand": "United States Postal Service", "brand:wikidata": "Q668687", "collection_times": "Mo-Fr 16:30; Sa 12:00", "name": "USPS COLLECTION BOX - PO LOBBY", "note": "ON 12/24 AND 12/31, THIS BOX MAY BE COLLECTED AS EARLY AS 12 NOON.", "nsi_id": "unitedstatespostalservice-a77078", "operator": "United States Postal Service", "operator:short": "USPS", "operator:type": "public", "operator:wikidata": "Q668687", "ref": "5273000006"}, "type": "Feature"}
{"dataset_attributes": {"@spider": "usps_collection_boxes", "spider:collection_time": "2023-11-13T08:26:09.210319"}, "geometry": {"coordinates": [-90.4689840369, 41.9638200067], "type": "Point"}, "id": "ij0eCeewPDBw2jLx6wL7jWJ9HiM=", "properties": {"@spider": "usps_collection_boxes", "addr:city": "CHARLOTTE", "addr:country": "US", "addr:full": "125 BROADWAY ST", "addr:postcode": "52731", "addr:state": "IA", "amenity": "post_box", "brand": "United States Postal Service", "brand:wikidata": "Q668687", "collection_times": "Mo-Sa 16:00", "name": "USPS COLLECTION BOX - BLUE BOX", "note": "ON 12/24 AND 12/31, THIS BOX MAY BE COLLECTED AS EARLY AS 12 NOON.", "nsi_id": "unitedstatespostalservice-a77078", "operator": "United States Postal Service", "operator:short": "USPS", "operator:type": "public", "operator:wikidata": "Q668687", "ref": "5273100000"}, "type": "Feature"}
{"dataset_attributes": {"@spider": "usps_collection_boxes", "spider:collection_time": "2023-11-13T08:26:09.210319"}, "geometry": {"coordinates": [-90.468800736, 41.963830931], "type": "Point"}, "id": "Qkoh6hxNm2vplmo9VkwHunEEeIM=", "properties": {"@spider": "usps_collection_boxes", "addr:city": "CHARLOTTE", "addr:country": "US", "addr:full": "125 BROADWAY ST", "addr:postcode": "52731", "addr:state": "IA", "amenity": "post_box", "brand": "United States Postal Service", "brand:wikidata": "Q668687", "collection_times": "Mo-Fr 10:45; Sa 09:30", "name": "USPS COLLECTION BOX - PO LOBBY", "nsi_id": "unitedstatespostalservice-a77078", "operator": "United States Postal Service", "operator:short": "USPS", "operator:type": "public", "operator:wikidata": "Q668687", "ref": "5273100001"}, "type": "Feature"}
{"dataset_attributes": {"@spider": "usps_collection_boxes", "spider:collection_time": "2023-11-13T08:26:09.210319"}, "geometry": {"coordinates": [-90.468800736, 41.963830931], "type": "Point"}, "id": "Sss8B4LToE0YD_4S7uGeD1nNSy4=", "properties": {"@spider": "usps_collection_boxes", "addr:city": "CHARLOTTE", "addr:country": "US", "addr:full": "125 BROADWAY ST", "addr:postcode": "52731", "addr:state": "IA", "amenity": "post_box", "brand": "United States Postal Service", "brand:wikidata": "Q668687", "collection_times": "Mo-Fr 11:00; Sa 09:45", "name": "USPS COLLECTION BOX - PO LOBBY", "nsi_id": "unitedstatespostalservice-a77078", "operator": "United States Postal Service", "operator:short": "USPS", "operator:type": "public", "operator:wikidata": "Q668687", "ref": "5273100002"}, "type": "Feature"}
{"dataset_attributes": {"@spider": "usps_collection_boxes", "spider:collection_time": "2023-11-13T08:26:09.210319"}, "geometry": {"coordinates": [-90.190829423, 41.842345288], "type": "Point"}, "id": "x8y4QLanDecvTo8KrVQDpTBnF3k=", "properties": {"@spider": "usps_collection_boxes", "addr:city": "CLINTON", "addr:country": "US", "addr:full": "398 S 3RD ST", "addr:postcode": "52732", "addr:state": "IA", "amenity": "post_box", "brand": "United States Postal Service", "brand:wikidata": "Q668687", "collection_times": "Mo-Fr 16:45; Sa 09:00", "name": "USPS COLLECTION BOX - BLUE BOX", "note": "ON 12/24 AND 12/31, THIS BOX MAY BE COLLECTED AS EARLY AS 12 NOON.", "nsi_id": "unitedstatespostalservice-a77078", "operator": "United States Postal Service", "operator:short": "USPS", "operator:type": "public", "operator:wikidata": "Q668687", "ref": "5273200004"}, "type": "Feature"}
{"dataset_attributes": {"@spider": "usps_collection_boxes", "spider:collection_time": "2023-11-13T08:26:09.210319"}, "geometry": {"coordinates": [-90.2235373, 41.816820037], "type": "Point"}, "id": "hL3LQFVIzPTTHN-6svPCLB32bs4=", "properties": {"@spider": "usps_collection_boxes", "addr:city": "CLINTON", "addr:country": "US", "addr:full": "1600 LINCOLN WAY", "addr:postcode": "52732", "addr:state": "IA", "amenity": "post_box", "brand": "United States Postal Service", "brand:wikidata": "Q668687", "collection_times": "Mo-Fr 17:00; Sa 09:00", "name": "USPS COLLECTION BOX - BLUE BOX", "note": "ON 12/24 AND 12/31, THIS BOX MAY BE COLLECTED AS EARLY AS 12 NOON.", "nsi_id": "unitedstatespostalservice-a77078", "operator": "United States Postal Service", "operator:short": "USPS", "operator:type": "public", "operator:wikidata": "Q668687", "ref": "5273200006"}, "type": "Feature"}
{"dataset_attributes": {"@spider": "usps_collection_boxes", "spider:collection_time": "2023-11-13T08:26:09.210319"}, "geometry": {"coordinates": [-90.185582467, 41.856309868], "type": "Point"}, "id": "LcKokpC9_P4pYcgkjwunQ9yPxHs=", "properties": {"@spider": "usps_collection_boxes", "addr:city": "CLINTON", "addr:country": "US", "addr:full": "1121 N 2ND ST", "addr:postcode": "52732", "addr:state": "IA", "amenity": "post_box", "brand": "United States Postal Service", "brand:wikidata": "Q668687", "collection_times": "Mo-Fr 17:00; Sa 09:00", "name": "USPS COLLECTION BOX - BLUE BOX", "note": "ON 12/24 AND 12/31, THIS BOX MAY BE COLLECTED AS EARLY AS 12 NOON.", "nsi_id": "unitedstatespostalservice-a77078", "operator": "United States Postal Service", "operator:short": "USPS", "operator:type": "public", "operator:wikidata": "Q668687", "ref": "5273200010"}, "type": "Feature"}
{"dataset_attributes": {"@spider": "usps_collection_boxes", "spider:collection_time": "2023-11-13T08:26:09.210319"}, "geometry": {"coordinates": [-90.187533695, 41.850182138], "type": "Point"}, "id": "Qe0k5AnrAW977mRe7kC3cEo2amQ=", "properties": {"@spider": "usps_collection_boxes", "addr:city": "CLINTON", "addr:country": "US", "addr:full": "612 N 2ND ST", "addr:postcode": "52732", "addr:state": "IA", "amenity": "post_box", "brand": "United States Postal Service", "brand:wikidata": "Q668687", "collection_times": "Mo-Fr 17:00; Sa 09:00", "name": "USPS COLLECTION BOX - BLUE BOX", "note": "ON 12/24 AND 12/31, THIS BOX MAY BE COLLECTED AS EARLY AS 12 NOON.", "nsi_id": "unitedstatespostalservice-a77078", "operator": "United States Postal Service", "operator:short": "USPS", "operator:type": "public", "operator:wikidata": "Q668687", "ref": "5273200012"}, "type": "Feature"}
{"dataset_attributes": {"@spider": "usps_collection_boxes", "spider:collection_time": "2023-11-13T08:26:09.210319"}, "geometry": {"coordinates": [-90.187965399, 41.860818608], "type": "Point"}, "id": "VacpA3R0bk9ki-3nY70AQJd73q0=", "properties": {"@spider": "usps_collection_boxes", "addr:city": "CLINTON", "addr:country": "US", "addr:full": "1423 N 4TH ST", "addr:postcode": "52732", "addr:state": "IA", "amenity": "post_box", "brand": "United States Postal Service", "brand:wikidata": "Q668687", "collection_times": "Mo-Fr 17:00; Sa 09:00", "name": "USPS COLLECTION BOX - BLUE BOX", "note": "ON 12/24 AND 12/31, THIS BOX MAY BE COLLECTED AS EARLY AS 12 NOON.", "nsi_id": "unitedstatespostalservice-a77078", "operator": "United States Postal Service", "operator:short": "USPS", "operator:type": "public", "operator:wikidata": "Q668687", "ref": "5273200016"}, "type": "Feature"}
{"dataset_attributes": {"@spider": "usps_collection_boxes", "spider:collection_time": "2023-11-13T08:26:09.210319"}, "geometry": {"coordinates": [-90.181178038, 41.880126234], "type": "Point"}, "id": "By8hotAOaNto1JTjhSAjRzM1rpQ=", "properties": {"@spider": "usps_collection_boxes", "addr:city": "CLINTON", "addr:country": "US", "addr:full": "2928 N 3RD ST", "addr:postcode": "52732", "addr:state": "IA", "amenity": "post_box", "brand": "United States Postal Service", "brand:wikidata": "Q668687", "collection_times": "Mo-Sa 12:00", "name": "USPS COLLECTION BOX - BLUE BOX", "nsi_id": "unitedstatespostalservice-a77078", "operator": "United States Postal Service", "operator:short": "USPS", "operator:type": "public", "operator:wikidata": "Q668687", "ref": "5273200017"}, "type": "Feature"}
{"dataset_attributes": {"@spider": "usps_collection_boxes", "spider:collection_time": "2023-11-13T08:26:09.210319"}, "geometry": {"coordinates": [-90.207196307, 41.843330871], "type": "Point"}, "id": "-EU9HaLfqglkTlP8UCbWIp7WFB0=", "properties": {"@spider": "usps_collection_boxes", "addr:city": "CLINTON", "addr:country": "US", "addr:full": "308 S BLUFF BLVD", "addr:postcode": "52732", "addr:state": "IA", "amenity": "post_box", "brand": "United States Postal Service", "brand:wikidata": "Q668687", "collection_times": "Mo-Sa 08:30", "name": "USPS COLLECTION BOX - BLUE BOX", "nsi_id": "unitedstatespostalservice-a77078", "operator": "United States Postal Service", "operator:short": "USPS", "operator:type": "public", "operator:wikidata": "Q668687", "ref": "5273200020"}, "type": "Feature"}
{"dataset_attributes": {"@spider": "usps_collection_boxes", "spider:collection_time": "2023-11-13T08:26:09.210319"}, "geometry": {"coordinates": [-90.187965399, 41.860818608], "type": "Point"}, "id": "I7yriDOVceU-3__xBrWBPVQ5LmU=", "properties": {"@spider": "usps_collection_boxes", "addr:city": "CLINTON", "addr:country": "US", "addr:full": "1423 N 4TH ST", "addr:postcode": "52732", "addr:state": "IA", "amenity": "post_box", "brand": "United States Postal Service", "brand:wikidata": "Q668687", "collection_times": "Mo-Fr 17:00; Sa 09:00", "name": "USPS COLLECTION BOX - BLUE BOX", "note": "ON 12/24 AND 12/31, THIS BOX MAY BE COLLECTED AS EARLY AS 12 NOON.", "nsi_id": "unitedstatespostalservice-a77078", "operator": "United States Postal Service", "operator:short": "USPS", "operator:type": "public", "operator:wikidata": "Q668687", "ref": "5273200024"}, "type": "Feature"}
{"dataset_attributes": {"@spider": "usps_collection_boxes", "spider:collection_time": "2023-11-13T08:26:09.210319"}, "geometry": {"coordinates": [-90.1857521477, 41.8433396151], "type": "Point"}, "id": "uIixrLMOjp_6plwBoRWYQpLPdSY=", "properties": {"@spider": "usps_collection_boxes", "addr:city": "CLINTON", "addr:country": "US", "addr:full": "300 S 1ST ST", "addr:postcode": "52732", "addr:state": "IA", "amenity": "post_box", "brand": "United States Postal Service", "brand:wikidata": "Q668687", "collection_times": "Mo-Fr 17:30; Sa 17:00", "name": "USPS COLLECTION BOX - BLUE BOX", "note": "ON 12/24 AND 12/31, THIS BOX MAY BE COLLECTED AS EARLY AS 12 NOON.", "nsi_id": "unitedstatespostalservice-a77078", "operator": "United States Postal Service", "operator:short": "USPS", "operator:type": "public", "operator:wikidata": "Q668687", "ref": "5273200037"}, "type": "Feature"}
{"dataset_attributes": {"@spider": "usps_collection_boxes", "spider:collection_time": "2023-11-13T08:26:09.210319"}, "geometry": {"coordinates": [-90.2189910087, 41.8333470085], "type": "Point"}, "id": "j4aHLCWwtPh33WGfFiR7MC5Z8N4=", "properties": {"@spider": "usps_collection_boxes", "addr:city": "CLINTON", "addr:country": "US", "addr:full": "1104 S 14TH ST", "addr:postcode": "52732", "addr:state": "IA", "amenity": "post_box", "brand": "United States Postal Service", "brand:wikidata": "Q668687", "collection_times": "Mo-Fr 17:00; Sa 09:00", "name": "USPS COLLECTION BOX - BLUE BOX", "note": "ON 12/24 AND 12/31, THIS BOX MAY BE COLLECTED AS EARLY AS 12 NOON.", "nsi_id": "unitedstatespostalservice-a77078", "operator": "United States Postal Service", "operator:short": "USPS", "operator:type": "public", "operator:wikidata": "Q668687", "ref": "5273200040"}, "type": "Feature"}
{"dataset_attributes": {"@spider": "usps_collection_boxes", "spider:collection_time": "2023-11-13T08:26:09.210319"}, "geometry": {"coordinates": [-90.23939891, 41.815605511], "type": "Point"}, "id": "LgTjQEoO9smPhtYAgz_uOSUAdW8=", "properties": {"@spider": "usps_collection_boxes", "addr:city": "CLINTON", "addr:country": "US", "addr:full": "2321 LINCOLN WAY", "addr:postcode": "52732", "addr:state": "IA", "amenity": "post_box", "brand": "United States Postal Service", "brand:wikidata": "Q668687", "collection_times": "Mo-Fr 17:00; Sa 09:00", "name": "USPS COLLECTION BOX - BLUE BOX", "note": "ON 12/24 AND 12/31, THIS BOX MAY BE COLLECTED AS EARLY AS 12 NOON.", "nsi_id": "unitedstatespostalservice-a77078", "operator": "United States Postal Service", "operator:short": "USPS", "operator:type": "public", "operator:wikidata": "Q668687", "ref": "5273200041"}, "type": "Feature"}
{"dataset_attributes": {"@spider": "usps_collection_boxes", "spider:collection_time": "2023-11-13T08:26:09.210319"}, "geometry": {"coordinates": [-90.185814552, 41.843340699], "type": "Point"}, "id": "NacT1T3aGHuwPv8OL1jC-sZPfFA=", "properties": {"@spider": "usps_collection_boxes", "addr:city": "CLINTON", "addr:country": "US", "addr:full": "300 S 1ST ST", "addr:postcode": "52732", "addr:state": "IA", "amenity": "post_box", "brand": "United States Postal Service", "brand:wikidata": "Q668687", "collection_times": "Mo-Fr 17:30; Sa 17:00", "name": "USPS COLLECTION BOX - PO LOBBY", "note": "ON 12/24 AND 12/31, THIS BOX MAY BE COLLECTED AS EARLY AS 12 NOON.", "nsi_id": "unitedstatespostalservice-a77078", "operator": "United States Postal Service", "operator:short": "USPS", "operator:type": "public", "operator:wikidata": "Q668687", "ref": "5273200043"}, "type": "Feature"}
{"dataset_attributes": {"@spider": "usps_collection_boxes", "spider:collection_time": "2023-11-13T08:26:09.210319"}, "geometry": {"coordinates": [-90.20827115, 41.859247862], "type": "Point"}, "id": "wjB4e1EPJLVAk3Dok3wQXa0UHbQ=", "properties": {"@spider": "usps_collection_boxes", "addr:city": "CLINTON", "addr:country": "US", "addr:full": "1015 13TH AVE N", "addr:postcode": "52732", "addr:state": "IA", "amenity": "post_box", "brand": "United States Postal Service", "brand:wikidata": "Q668687", "collection_times": "Mo-Sa 12:00", "name": "USPS COLLECTION BOX - BLUE BOX", "nsi_id": "unitedstatespostalservice-a77078", "operator": "United States Postal Service", "operator:short": "USPS", "operator:type": "public", "operator:wikidata": "Q668687", "ref": "5273200045"}, "type": "Feature"}
{"dataset_attributes": {"@spider": "usps_collection_boxes", "spider:collection_time": "2023-11-13T08:26:09.210319"}, "geometry": {"coordinates": [-90.188227112, 41.842125587], "type": "Point"}, "id": "hZpls8_JwWbYcHWl-BGwkRsHCHE=", "properties": {"@spider": "usps_collection_boxes", "addr:city": "CLINTON", "addr:country": "US", "addr:full": "419 S 2ND ST", "addr:postcode": "52732", "addr:state": "IA", "amenity": "post_box", "brand": "United States Postal Service", "brand:wikidata": "Q668687", "collection_times": "Mo-Fr 17:00; Sa 09:00", "name": "USPS COLLECTION BOX - BLUE BOX", "note": "ON 12/24 AND 12/31, THIS BOX MAY BE COLLECTED AS EARLY AS 12 NOON.", "nsi_id": "unitedstatespostalservice-a77078", "operator": "United States Postal Service", "operator:short": "USPS", "operator:type": "public", "operator:wikidata": "Q668687", "ref": "5273200046"}, "type": "Feature"}
{"dataset_attributes": {"@spider": "usps_collection_boxes", "spider:collection_time": "2023-11-13T08:26:09.210319"}, "geometry": {"coordinates": [-90.191763084, 41.841201457], "type": "Point"}, "id": "nll3M6G15_OIVli377AOiDHg4wE=", "properties": {"@spider": "usps_collection_boxes", "addr:city": "CLINTON", "addr:country": "US", "addr:full": "340 5TH AVE S", "addr:postcode": "52732", "addr:state": "IA", "amenity": "post_box", "brand": "United States Postal Service", "brand:wikidata": "Q668687", "collection_times": "Mo-Fr 16:45; Sa 09:00", "name": "USPS COLLECTION BOX - BLUE BOX", "note": "ON 12/24 AND 12/31, THIS BOX MAY BE COLLECTED AS EARLY AS 12 NOON.", "nsi_id": "unitedstatespostalservice-a77078", "operator": "United States Postal Service", "operator:short": "USPS", "operator:type": "public", "operator:wikidata": "Q668687", "ref": "5273200047"}, "type": "Feature"}
{"dataset_attributes": {"@spider": "usps_collection_boxes", "spider:collection_time": "2023-11-13T08:26:09.210319"}, "geometry": {"coordinates": [-90.189130561, 41.839984088], "type": "Point"}, "id": "QKyP1QAnbZrNp4SgZF2eyZBIV5Q=", "properties": {"@spider": "usps_collection_boxes", "addr:city": "CLINTON", "addr:country": "US", "addr:full": "235 6TH AVE S", "addr:postcode": "52732", "addr:state": "IA", "amenity": "post_box", "brand": "United States Postal Service", "brand:wikidata": "Q668687", "collection_times": "Mo-Fr 16:45; Sa 09:00", "name": "USPS COLLECTION BOX - BLUE BOX", "note": "ON 12/24 AND 12/31, THIS BOX MAY BE COLLECTED AS EARLY AS 12 NOON.", "nsi_id": "unitedstatespostalservice-a77078", "operator": "United States Postal Service", "operator:short": "USPS", "operator:type": "public", "operator:wikidata": "Q668687", "ref": "5273200048"}, "type": "Feature"}
{"dataset_attributes": {"@spider": "usps_collection_boxes", "spider:collection_time": "2023-11-13T08:26:09.210319"}, "geometry": {"coordinates": [-90.17838714, 41.872338923], "type": "Point"}, "id": "EFNMWO5e7qyRjrCeBbHFNtnOw7g=", "properties": {"@spider": "usps_collection_boxes", "addr:city": "CLINTON", "addr:country": "US", "addr:full": "97 MAIN AVE", "addr:postcode": "52732", "addr:state": "IA", "amenity": "post_box", "brand": "United States Postal Service", "brand:wikidata": "Q668687", "collection_times": "Mo-Fr 17:00; Sa 13:00", "name": "USPS COLLECTION BOX - BLUE BOX", "note": "ON 12/24 AND 12/31, THIS BOX MAY BE COLLECTED AS EARLY AS 12 NOON.", "nsi_id": "unitedstatespostalservice-a77078", "operator": "United States Postal Service", "operator:short": "USPS", "operator:type": "public", "operator:wikidata": "Q668687", "ref": "5273200050"}, "type": "Feature"}
{"dataset_attributes": {"@spider": "usps_collection_boxes", "spider:collection_time": "2023-11-13T08:26:09.210319"}, "geometry": {"coordinates": [-90.185814552, 41.843340699], "type": "Point"}, "id": "7Mbc6p33aWQDQz9QVQ-G_UP_URA=", "properties": {"@spider": "usps_collection_boxes", "addr:city": "CLINTON", "addr:country": "US", "addr:full": "300 S 1ST ST", "addr:postcode": "52732", "addr:state": "IA", "amenity": "post_box", "brand": "United States Postal Service", "brand:wikidata": "Q668687", "collection_times": "Mo-Fr 17:00; Sa 12:00", "name": "USPS COLLECTION BOX - PO LOBBY", "note": "ON 12/24 AND 12/31, THIS BOX MAY BE COLLECTED AS EARLY AS 12 NOON.", "nsi_id": "unitedstatespostalservice-a77078", "operator": "United States Postal Service", "operator:short": "USPS", "operator:type": "public", "operator:wikidata": "Q668687", "ref": "5273200051"}, "type": "Feature"}
{"dataset_attributes": {"@spider": "usps_collection_boxes", "spider:collection_time": "2023-11-13T08:26:09.210319"}, "geometry": {"coordinates": [-90.17838714, 41.872338923], "type": "Point"}, "id": "YXXFH__RG5EXd3dDPr7YTxXnJuA=", "properties": {"@spider": "usps_collection_boxes", "addr:city": "CLINTON", "addr:country": "US", "addr:full": "97 MAIN AVE", "addr:postcode": "52732", "addr:state": "IA", "amenity": "post_box", "brand": "United States Postal Service", "brand:wikidata": "Q668687", "collection_times": "Mo-Fr 17:00", "name": "USPS COLLECTION BOX - PO LOBBY", "note": "ON 12/24 AND 12/31, THIS BOX MAY BE COLLECTED AS EARLY AS 12 NOON.", "nsi_id": "unitedstatespostalservice-a77078", "operator": "United States Postal Service", "operator:short": "USPS", "operator:type": "public", "operator:wikidata": "Q668687", "ref": "5273200052"}, "type": "Feature"}
{"dataset_attributes": {"@spider": "usps_collection_boxes", "spider:collection_time": "2023-11-13T08:26:09.210319"}, "geometry": {"coordinates": [-90.17838714, 41.8723389226], "type": "Point"}, "id": "waAriqsbxRQmxz9OFkhrJqRxr2A=", "properties": {"@spider": "usps_collection_boxes", "addr:city": "CLINTON", "addr:country": "US", "addr:full": "97 MAIN AVE", "addr:postcode": "52732", "addr:state": "IA", "amenity": "post_box", "brand": "United States Postal Service", "brand:wikidata": "Q668687", "collection_times": "Mo-Fr 17:00", "name": "USPS COLLECTION BOX - PO LOBBY", "note": "ON 12/24 AND 12/31, THIS BOX MAY BE COLLECTED AS EARLY AS 12 NOON.", "nsi_id": "unitedstatespostalservice-a77078", "operator": "United States Postal Service", "operator:short": "USPS", "operator:type": "public", "operator:wikidata": "Q668687", "ref": "5273200053"}, "type": "Feature"}
{"dataset_attributes": {"@spider": "usps_collection_boxes", "spider:collection_time": "2023-11-13T08:26:09.210319"}, "geometry": {"coordinates": [-91.361707065, 41.279968032], "type": "Point"}, "id": "XYuC4WLNTp-6l7Dosnx1EQJx1xc=", "properties": {"@spider": "usps_collection_boxes", "addr:city": "COLUMBUS JCT", "addr:country": "US", "addr:full": "204 2ND ST", "addr:postcode": "52738", "addr:state": "IA", "amenity": "post_box", "brand": "United States Postal Service", "brand:wikidata": "Q668687", "collection_times": "Mo-Fr 16:15; Sa 11:00", "name": "USPS COLLECTION BOX - PO LOBBY", "note": "ON 12/24 AND 12/31, THIS BOX MAY BE COLLECTED AS EARLY AS 12 NOON.", "nsi_id": "unitedstatespostalservice-a77078", "operator": "United States Postal Service", "operator:short": "USPS", "operator:type": "public", "operator:wikidata": "Q668687", "ref": "5273800000"}, "type": "Feature"}
{"dataset_attributes": {"@spider": "usps_collection_boxes", "spider:collection_time": "2023-11-13T08:26:09.210319"}, "geometry": {"coordinates": [-91.361707065, 41.279968032], "type": "Point"}, "id": "W9xmEmv00Um_KnEZOklISyDSP8A=", "properties": {"@spider": "usps_collection_boxes", "addr:city": "COLUMBUS JCT", "addr:country": "US", "addr:full": "204 2ND ST", "addr:postcode": "52738", "addr:state": "IA", "amenity": "post_box", "brand": "United States Postal Service", "brand:wikidata": "Q668687", "collection_times": "Mo-Fr 16:15; Sa 11:00", "name": "USPS COLLECTION BOX - BLUE BOX", "note": "ON 12/24 AND 12/31, THIS BOX MAY BE COLLECTED AS EARLY AS 12 NOON.", "nsi_id": "unitedstatespostalservice-a77078", "operator": "United States Postal Service", "operator:short": "USPS", "operator:type": "public", "operator:wikidata": "Q668687", "ref": "5273800002"}, "type": "Feature"}
{"dataset_attributes": {"@spider": "usps_collection_boxes", "spider:collection_time": "2023-11-13T08:26:09.210319"}, "geometry": {"coordinates": [-91.361707065, 41.279968032], "type": "Point"}, "id": "zn1vFX0-2up7Ghd6ei8RpkOsb2M=", "properties": {"@spider": "usps_collection_boxes", "addr:city": "COLUMBUS JCT", "addr:country": "US", "addr:full": "204 2ND ST", "addr:postcode": "52738", "addr:state": "IA", "amenity": "post_box", "brand": "United States Postal Service", "brand:wikidata": "Q668687", "collection_times": "Mo-Fr 16:15; Sa 11:00", "name": "USPS COLLECTION BOX - BLUE BOX", "note": "ON 12/24 AND 12/31, THIS BOX MAY BE COLLECTED AS EARLY AS 12 NOON.", "nsi_id": "unitedstatespostalservice-a77078", "operator": "United States Postal Service", "operator:short": "USPS", "operator:type": "public", "operator:wikidata": "Q668687", "ref": "5273800003"}, "type": "Feature"}
{"dataset_attributes": {"@spider": "usps_collection_boxes", "spider:collection_time": "2023-11-13T08:26:09.210319"}, "geometry": {"coordinates": [-91.3766715, 41.258745485], "type": "Point"}, "id": "X_lyBNDZzw0VQJ6dIrK-LpAOqn0=", "properties": {"@spider": "usps_collection_boxes", "addr:city": "COLUMBUS JCT", "addr:country": "US", "addr:full": "2703 COLUMBUS ST.", "addr:postcode": "52738", "addr:state": "IA", "amenity": "post_box", "brand": "United States Postal Service", "brand:wikidata": "Q668687", "collection_times": "Mo-Sa 11:00", "name": "USPS COLLECTION BOX - BLUE BOX", "nsi_id": "unitedstatespostalservice-a77078", "operator": "United States Postal Service", "operator:short": "USPS", "operator:type": "public", "operator:wikidata": "Q668687", "ref": "5273800004"}, "type": "Feature"}
{"dataset_attributes": {"@spider": "usps_collection_boxes", "spider:collection_time": "2023-11-13T08:26:09.210319"}, "geometry": {"coordinates": [-91.361707065, 41.279968032], "type": "Point"}, "id": "oSMdvzGrlthSJrdDrD8XNIRdKZ0=", "properties": {"@spider": "usps_collection_boxes", "addr:city": "COLUMBUS JCT", "addr:country": "US", "addr:full": "204 2ND ST", "addr:postcode": "52738", "addr:state": "IA", "amenity": "post_box", "brand": "United States Postal Service", "brand:wikidata": "Q668687", "collection_times": "Mo-Fr 16:15; Sa 10:00", "name": "USPS COLLECTION BOX - PO LOBBY", "note": "ON 12/24 AND 12/31, THIS BOX MAY BE COLLECTED AS EARLY AS 12 NOON.", "nsi_id": "unitedstatespostalservice-a77078", "operator": "United States Postal Service", "operator:short": "USPS", "operator:type": "public", "operator:wikidata": "Q668687", "ref": "5273800005"}, "type": "Feature"}
{"dataset_attributes": {"@spider": "usps_collection_boxes", "spider:collection_time": "2023-11-13T08:26:09.210319"}, "geometry": {"coordinates": [-91.349990155, 41.381190251], "type": "Point"}, "id": "Rr31JNSpqFzpr30nLARtT0SBaII=", "properties": {"@spider": "usps_collection_boxes", "addr:city": "CONESVILLE", "addr:country": "US", "addr:full": "205 N TODDS FERRY RD", "addr:postcode": "52739", "addr:state": "IA", "amenity": "post_box", "brand": "United States Postal Service", "brand:wikidata": "Q668687", "collection_times": "Mo-Sa 16:00", "name": "USPS COLLECTION BOX - BLUE BOX", "note": "ON 12/24 AND 12/31, THIS BOX MAY BE COLLECTED AS EARLY AS 12 NOON.", "nsi_id": "unitedstatespostalservice-a77078", "operator": "United States Postal Service", "operator:short": "USPS", "operator:type": "public", "operator:wikidata": "Q668687", "ref": "5273900000"}, "type": "Feature"}
{"dataset_attributes": {"@spider": "usps_collection_boxes", "spider:collection_time": "2023-11-13T08:26:09.210319"}, "geometry": {"coordinates": [-91.349990155, 41.381190251], "type": "Point"}, "id": "EicQ3nTbxuXwi9AbiZyi9V-FYiU=", "properties": {"@spider": "usps_collection_boxes", "addr:city": "CONESVILLE", "addr:country": "US", "addr:full": "205 N TODDS FERRY RD", "addr:postcode": "52739", "addr:state": "IA", "amenity": "post_box", "brand": "United States Postal Service", "brand:wikidata": "Q668687", "collection_times": "Mo-Fr 11:45", "name": "USPS COLLECTION BOX - PO LOBBY", "nsi_id": "unitedstatespostalservice-a77078", "operator": "United States Postal Service", "operator:short": "USPS", "operator:type": "public", "operator:wikidata": "Q668687", "ref": "5273900001"}, "type": "Feature"}
{"dataset_attributes": {"@spider": "usps_collection_boxes", "spider:collection_time": "2023-11-13T08:26:09.210319"}, "geometry": {"coordinates": [-91.349990155, 41.381190251], "type": "Point"}, "id": "uXGKlc5LtIiArjy5rDXVZruVNzE=", "properties": {"@spider": "usps_collection_boxes", "addr:city": "CONESVILLE", "addr:country": "US", "addr:full": "205 N TODDS FERRY RD", "addr:postcode": "52739", "addr:state": "IA", "amenity": "post_box", "brand": "United States Postal Service", "brand:wikidata": "Q668687", "collection_times": "Mo-Fr 12:00; Sa 11:00", "name": "USPS COLLECTION BOX - PO LOBBY", "nsi_id": "unitedstatespostalservice-a77078", "operator": "United States Postal Service", "operator:short": "USPS", "operator:type": "public", "operator:wikidata": "Q668687", "ref": "5273900002"}, "type": "Feature"}
{"dataset_attributes": {"@spider": "usps_collection_boxes", "spider:collection_time": "2023-11-13T08:26:09.210319"}, "geometry": {"coordinates": [-90.540012641, 41.824214453], "type": "Point"}, "id": "IRFLLoM9Wb8xA7ivrOhlbbqR0gk=", "properties": {"@spider": "usps_collection_boxes", "addr:city": "DE WITT", "addr:country": "US", "addr:full": "618 9TH ST", "addr:postcode": "52742", "addr:state": "IA", "amenity": "post_box", "brand": "United States Postal Service", "brand:wikidata": "Q668687", "collection_times": "Mo-Sa 17:00", "name": "USPS COLLECTION BOX - BLUE BOX", "note": "ON 12/24 AND 12/31, THIS BOX MAY BE COLLECTED AS EARLY AS 12 NOON.", "nsi_id": "unitedstatespostalservice-a77078", "operator": "United States Postal Service", "operator:short": "USPS", "operator:type": "public", "operator:wikidata": "Q668687", "ref": "5274200007"}, "type": "Feature"}
{"dataset_attributes": {"@spider": "usps_collection_boxes", "spider:collection_time": "2023-11-13T08:26:09.210319"}, "geometry": {"coordinates": [-90.540012641, 41.824214453], "type": "Point"}, "id": "1y2ZZII2_5NTnIMn9tjUxCbjOwk=", "properties": {"@spider": "usps_collection_boxes", "addr:city": "DE WITT", "addr:country": "US", "addr:full": "618 9TH ST", "addr:postcode": "52742", "addr:state": "IA", "amenity": "post_box", "brand": "United States Postal Service", "brand:wikidata": "Q668687", "collection_times": "Mo-Fr 17:00; Sa 11:30", "name": "USPS COLLECTION BOX - PO LOBBY", "note": "ON 12/24 AND 12/31, THIS BOX MAY BE COLLECTED AS EARLY AS 12 NOON.", "nsi_id": "unitedstatespostalservice-a77078", "operator": "United States Postal Service", "operator:short": "USPS", "operator:type": "public", "operator:wikidata": "Q668687", "ref": "5274200012"}, "type": "Feature"}
{"dataset_attributes": {"@spider": "usps_collection_boxes", "spider:collection_time": "2023-11-13T08:26:09.210319"}, "geometry": {"coordinates": [-90.540012641, 41.824214453], "type": "Point"}, "id": "_04yOFCYmNjgQY7lqYVhfdN2nps=", "properties": {"@spider": "usps_collection_boxes", "addr:city": "DE WITT", "addr:country": "US", "addr:full": "618 9TH ST", "addr:postcode": "52742", "addr:state": "IA", "amenity": "post_box", "brand": "United States Postal Service", "brand:wikidata": "Q668687", "collection_times": "Mo-Fr 16:30; Sa 11:30", "name": "USPS COLLECTION BOX - PO LOBBY", "note": "ON 12/24 AND 12/31, THIS BOX MAY BE COLLECTED AS EARLY AS 12 NOON.", "nsi_id": "unitedstatespostalservice-a77078", "operator": "United States Postal Service", "operator:short": "USPS", "operator:type": "public", "operator:wikidata": "Q668687", "ref": "5274200013"}, "type": "Feature"}
{"dataset_attributes": {"@spider": "usps_collection_boxes", "spider:collection_time": "2023-11-13T08:26:09.210319"}, "geometry": {"coordinates": [-90.780832797, 41.742720691], "type": "Point"}, "id": "vC8W6GxMdndGyp-2HBsBj9aJNfM=", "properties": {"@spider": "usps_collection_boxes", "addr:city": "DIXON", "addr:country": "US", "addr:full": "502 RAILROAD ST", "addr:postcode": "52745", "addr:state": "IA", "amenity": "post_box", "brand": "United States Postal Service", "brand:wikidata": "Q668687", "collection_times": "Mo-Sa 16:30", "name": "USPS COLLECTION BOX - BLUE BOX", "note": "ON 12/24 AND 12/31, THIS BOX MAY BE COLLECTED AS EARLY AS 12 NOON.", "nsi_id": "unitedstatespostalservice-a77078", "operator": "United States Postal Service", "operator:short": "USPS", "operator:type": "public", "operator:wikidata": "Q668687", "ref": "5274500000"}, "type": "Feature"}
{"dataset_attributes": {"@spider": "usps_collection_boxes", "spider:collection_time": "2023-11-13T08:26:09.210319"}, "geometry": {"coordinates": [-90.780832797, 41.742720691], "type": "Point"}, "id": "X_h-r_b5nZCfNICwpPCyOHDHjZc=", "properties": {"@spider": "usps_collection_boxes", "addr:city": "DIXON", "addr:country": "US", "addr:full": "502 RAILROAD ST", "addr:postcode": "52745", "addr:state": "IA", "amenity": "post_box", "brand": "United States Postal Service", "brand:wikidata": "Q668687", "collection_times": "Mo-Fr 12:45; Sa 11:30", "name": "USPS COLLECTION BOX - PO LOBBY", "note": "ON 12/24 AND 12/31, THIS BOX MAY BE COLLECTED AS EARLY AS 12 NOON.", "nsi_id": "unitedstatespostalservice-a77078", "operator": "United States Postal Service", "operator:short": "USPS", "operator:type": "public", "operator:wikidata": "Q668687", "ref": "5274500001"}, "type": "Feature"}
{"dataset_attributes": {"@spider": "usps_collection_boxes", "spider:collection_time": "2023-11-13T08:26:09.210319"}, "geometry": {"coordinates": [-90.780832797, 41.742720691], "type": "Point"}, "id": "Xy468lDWkP5pW04dBrFcDJUzuGg=", "properties": {"@spider": "usps_collection_boxes", "addr:city": "DIXON", "addr:country": "US", "addr:full": "502 RAILROAD ST", "addr:postcode": "52745", "addr:state": "IA", "amenity": "post_box", "brand": "United States Postal Service", "brand:wikidata": "Q668687", "collection_times": "Mo-Fr 13:00; Sa 11:45", "name": "USPS COLLECTION BOX - PO LOBBY", "note": "ON 12/24 AND 12/31, THIS BOX MAY BE COLLECTED AS EARLY AS 12 NOON.", "nsi_id": "unitedstatespostalservice-a77078", "operator": "United States Postal Service", "operator:short": "USPS", "operator:type": "public", "operator:wikidata": "Q668687", "ref": "5274500002"}, "type": "Feature"}
{"dataset_attributes": {"@spider": "usps_collection_boxes", "spider:collection_time": "2023-11-13T08:26:09.210319"}, "geometry": {"coordinates": [-90.675393713, 41.696649], "type": "Point"}, "id": "nAHgXnGUIYrNRx2yZk03iNmkx5I=", "properties": {"@spider": "usps_collection_boxes", "addr:city": "DONAHUE", "addr:country": "US", "addr:full": "303 N MAIN ST", "addr:postcode": "52746", "addr:state": "IA", "amenity": "post_box", "brand": "United States Postal Service", "brand:wikidata": "Q668687", "collection_times": "Mo-Sa 15:45", "name": "USPS COLLECTION BOX - BLUE BOX", "note": "ON 12/24 AND 12/31, THIS BOX MAY BE COLLECTED AS EARLY AS 12 NOON.", "nsi_id": "unitedstatespostalservice-a77078", "operator": "United States Postal Service", "operator:short": "USPS", "operator:type": "public", "operator:wikidata": "Q668687", "ref": "5274600000"}, "type": "Feature"}
{"dataset_attributes": {"@spider": "usps_collection_boxes", "spider:collection_time": "2023-11-13T08:26:09.210319"}, "geometry": {"coordinates": [-90.675393713, 41.696649], "type": "Point"}, "id": "4YHOeYifTKBfmE5vvw-brB2I6BI=", "properties": {"@spider": "usps_collection_boxes", "addr:city": "DONAHUE", "addr:country": "US", "addr:full": "303 N MAIN ST", "addr:postcode": "52746", "addr:state": "IA", "amenity": "post_box", "brand": "United States Postal Service", "brand:wikidata": "Q668687", "collection_times": "Mo-Fr 10:45; Sa 08:45", "name": "USPS COLLECTION BOX - PO LOBBY", "nsi_id": "unitedstatespostalservice-a77078", "operator": "United States Postal Service", "operator:short": "USPS", "operator:type": "public", "operator:wikidata": "Q668687", "ref": "5274600001"}, "type": "Feature"}
{"dataset_attributes": {"@spider": "usps_collection_boxes", "spider:collection_time": "2023-11-13T08:26:09.210319"}, "geometry": {"coordinates": [-90.675393713, 41.696649], "type": "Point"}, "id": "--pwX7xUCoKmUmUmfjfuPDIgpXE=", "properties": {"@spider": "usps_collection_boxes", "addr:city": "DONAHUE", "addr:country": "US", "addr:full": "303 N MAIN ST", "addr:postcode": "52746", "addr:state": "IA", "amenity": "post_box", "brand": "United States Postal Service", "brand:wikidata": "Q668687", "collection_times": "Mo-Fr 11:00; Sa 09:00", "name": "USPS COLLECTION BOX - PO LOBBY", "nsi_id": "unitedstatespostalservice-a77078", "operator": "United States Postal Service", "operator:short": "USPS", "operator:type": "public", "operator:wikidata": "Q668687", "ref": "5274600003"}, "type": "Feature"}
{"dataset_attributes": {"@spider": "usps_collection_boxes", "spider:collection_time": "2023-11-13T08:26:09.210319"}, "geometry": {"coordinates": [-90.907626269, 41.600183278], "type": "Point"}, "id": "ycwRT00UsseYl-CFsdbOYVr_oas=", "properties": {"@spider": "usps_collection_boxes", "addr:city": "DURANT", "addr:country": "US", "addr:full": "822 5TH ST", "addr:postcode": "52747", "addr:state": "IA", "amenity": "post_box", "brand": "United States Postal Service", "brand:wikidata": "Q668687", "collection_times": "Mo-Fr 15:45; Sa 16:00", "name": "USPS COLLECTION BOX - BLUE BOX", "note": "ON 12/24 AND 12/31, THIS BOX MAY BE COLLECTED AS EARLY AS 12 NOON.", "nsi_id": "unitedstatespostalservice-a77078", "operator": "United States Postal Service", "operator:short": "USPS", "operator:type": "public", "operator:wikidata": "Q668687", "ref": "5274700000"}, "type": "Feature"}
{"dataset_attributes": {"@spider": "usps_collection_boxes", "spider:collection_time": "2023-11-13T08:26:09.210319"}, "geometry": {"coordinates": [-90.907626269, 41.600183278], "type": "Point"}, "id": "UThNondVzXPa7cf8rH8CcmpLoSc=", "properties": {"@spider": "usps_collection_boxes", "addr:city": "DURANT", "addr:country": "US", "addr:full": "822 5TH ST", "addr:postcode": "52747", "addr:state": "IA", "amenity": "post_box", "brand": "United States Postal Service", "brand:wikidata": "Q668687", "collection_times": "Mo-Fr 15:45; Sa 10:30", "name": "USPS COLLECTION BOX - PO LOBBY", "note": "ON 12/24 AND 12/31, THIS BOX MAY BE COLLECTED AS EARLY AS 12 NOON.", "nsi_id": "unitedstatespostalservice-a77078", "operator": "United States Postal Service", "operator:short": "USPS", "operator:type": "public", "operator:wikidata": "Q668687", "ref": "5274700001"}, "type": "Feature"}
{"dataset_attributes": {"@spider": "usps_collection_boxes", "spider:collection_time": "2023-11-13T08:26:09.210319"}, "geometry": {"coordinates": [-90.907626269, 41.600183278], "type": "Point"}, "id": "dBLZEY6lLBofmEESlyAVkmRNRR4=", "properties": {"@spider": "usps_collection_boxes", "addr:city": "DURANT", "addr:country": "US", "addr:full": "822 5TH ST", "addr:postcode": "52747", "addr:state": "IA", "amenity": "post_box", "brand": "United States Postal Service", "brand:wikidata": "Q668687", "collection_times": "Mo-Fr 16:00; Sa 10:30", "name": "USPS COLLECTION BOX - PO LOBBY", "note": "ON 12/24 AND 12/31, THIS BOX MAY BE COLLECTED AS EARLY AS 12 NOON.", "nsi_id": "unitedstatespostalservice-a77078", "operator": "United States Postal Service", "operator:short": "USPS", "operator:type": "public", "operator:wikidata": "Q668687", "ref": "5274700002"}, "type": "Feature"}
{"dataset_attributes": {"@spider": "usps_collection_boxes", "spider:collection_time": "2023-11-13T08:26:09.210319"}, "geometry": {"coordinates": [-90.548031815, 41.694861557], "type": "Point"}, "id": "ICgLIoz8QeVTxzemOE4QiPp0VfQ=", "properties": {"@spider": "usps_collection_boxes", "addr:city": "ELDRIDGE", "addr:country": "US", "addr:full": "7 GROVE RD", "addr:postcode": "52748", "addr:state": "IA", "amenity": "post_box", "brand": "United States Postal Service", "brand:wikidata": "Q668687", "collection_times": "Mo-Fr 13:30; Sa 12:00", "name": "USPS COLLECTION BOX - BLUE BOX", "note": "ON 12/24 AND 12/31, THIS BOX MAY BE COLLECTED AS EARLY AS 12 NOON.", "nsi_id": "unitedstatespostalservice-a77078", "operator": "United States Postal Service", "operator:short": "USPS", "operator:type": "public", "operator:wikidata": "Q668687", "ref": "5274800000"}, "type": "Feature"}
{"dataset_attributes": {"@spider": "usps_collection_boxes", "spider:collection_time": "2023-11-13T08:26:09.210319"}, "geometry": {"coordinates": [-90.5839099877, 41.6549480062], "type": "Point"}, "id": "T8xPwBsTuUC1-z9K-4EPc31GyXk=", "properties": {"@spider": "usps_collection_boxes", "addr:city": "ELDRIDGE", "addr:country": "US", "addr:full": "120 W LE CLAIRE RD", "addr:postcode": "52748", "addr:state": "IA", "amenity": "post_box", "brand": "United States Postal Service", "brand:wikidata": "Q668687", "collection_times": "Mo-Fr 16:15; Sa 17:00", "name": "USPS COLLECTION BOX - BLUE BOX", "note": "ON 12/24 AND 12/31, THIS BOX MAY BE COLLECTED AS EARLY AS 12 NOON.", "nsi_id": "unitedstatespostalservice-a77078", "operator": "United States Postal Service", "operator:short": "USPS", "operator:type": "public", "operator:wikidata": "Q668687", "ref": "5274800003"}, "type": "Feature"}
{"dataset_attributes": {"@spider": "usps_collection_boxes", "spider:collection_time": "2023-11-13T08:26:09.210319"}, "geometry": {"coordinates": [-90.583933751, 41.65470246], "type": "Point"}, "id": "vNqSeVsQk5JqPVJFZq0EGIfwyPY=", "properties": {"@spider": "usps_collection_boxes", "addr:city": "ELDRIDGE", "addr:country": "US", "addr:full": "120 W LE CLAIRE RD", "addr:postcode": "52748", "addr:state": "IA", "amenity": "post_box", "brand": "United States Postal Service", "brand:wikidata": "Q668687", "collection_times": "Mo-Fr 16:15; Sa 10:45", "name": "USPS COLLECTION BOX - PO LOBBY", "note": "ON 12/24 AND 12/31, THIS BOX MAY BE COLLECTED AS EARLY AS 12 NOON.", "nsi_id": "unitedstatespostalservice-a77078", "operator": "United States Postal Service", "operator:short": "USPS", "operator:type": "public", "operator:wikidata": "Q668687", "ref": "5274800005"}, "type": "Feature"}
{"dataset_attributes": {"@spider": "usps_collection_boxes", "spider:collection_time": "2023-11-13T08:26:09.210319"}, "geometry": {"coordinates": [-90.583933751, 41.65470246], "type": "Point"}, "id": "tM_2Zkfl1yzm9bB5qvXY-F14sXA=", "properties": {"@spider": "usps_collection_boxes", "addr:city": "ELDRIDGE", "addr:country": "US", "addr:full": "120 W LE CLAIRE RD", "addr:postcode": "52748", "addr:state": "IA", "amenity": "post_box", "brand": "United States Postal Service", "brand:wikidata": "Q668687", "collection_times": "Mo-Fr 16:30; Sa 10:30", "name": "USPS COLLECTION BOX - PO LOBBY", "note": "ON 12/24 AND 12/31, THIS BOX MAY BE COLLECTED AS EARLY AS 12 NOON.", "nsi_id": "unitedstatespostalservice-a77078", "operator": "United States Postal Service", "operator:short": "USPS", "operator:type": "public", "operator:wikidata": "Q668687", "ref": "5274800006"}, "type": "Feature"}
{"dataset_attributes": {"@spider": "usps_collection_boxes", "spider:collection_time": "2023-11-13T08:26:09.210319"}, "geometry": {"coordinates": [-91.126750249, 41.356116533], "type": "Point"}, "id": "xgAvWDAS1EqMdkcX-4hOOHn7rec=", "properties": {"@spider": "usps_collection_boxes", "addr:city": "FRUITLAND", "addr:country": "US", "addr:full": "136 NORTH ST", "addr:postcode": "52749", "addr:state": "IA", "amenity": "post_box", "brand": "United States Postal Service", "brand:wikidata": "Q668687", "collection_times": "Mo-Fr 15:30; Sa 15:00", "name": "USPS COLLECTION BOX - BLUE BOX", "note": "ON 12/24 AND 12/31, THIS BOX MAY BE COLLECTED AS EARLY AS 12 NOON.", "nsi_id": "unitedstatespostalservice-a77078", "operator": "United States Postal Service", "operator:short": "USPS", "operator:type": "public", "operator:wikidata": "Q668687", "ref": "5274900002"}, "type": "Feature"}
{"dataset_attributes": {"@spider": "usps_collection_boxes", "spider:collection_time": "2023-11-13T08:26:09.210319"}, "geometry": {"coordinates": [-91.126750249, 41.356116533], "type": "Point"}, "id": "UcT1igig9kGlvRJglR5kbZX4cJA=", "properties": {"@spider": "usps_collection_boxes", "addr:city": "FRUITLAND", "addr:country": "US", "addr:full": "136 NORTH ST", "addr:postcode": "52749", "addr:state": "IA", "amenity": "post_box", "brand": "United States Postal Service", "brand:wikidata": "Q668687", "collection_times": "Mo-Fr 15:30", "name": "USPS COLLECTION BOX - PO LOBBY", "note": "ON 12/24 AND 12/31, THIS BOX MAY BE COLLECTED AS EARLY AS 12 NOON.", "nsi_id": "unitedstatespostalservice-a77078", "operator": "United States Postal Service", "operator:short": "USPS", "operator:type": "public", "operator:wikidata": "Q668687", "ref": "5274900003"}, "type": "Feature"}
{"dataset_attributes": {"@spider": "usps_collection_boxes", "spider:collection_time": "2023-11-13T08:26:09.210319"}, "geometry": {"coordinates": [-91.126750249, 41.356116533], "type": "Point"}, "id": "T5KvcUFv1DbDVounDMmvjwOl9qc=", "properties": {"@spider": "usps_collection_boxes", "addr:city": "FRUITLAND", "addr:country": "US", "addr:full": "136 NORTH ST", "addr:postcode": "52749", "addr:state": "IA", "amenity": "post_box", "brand": "United States Postal Service", "brand:wikidata": "Q668687", "collection_times": "Mo-Fr 16:00; Sa 12:00", "name": "USPS COLLECTION BOX - PO LOBBY", "note": "ON 12/24 AND 12/31, THIS BOX MAY BE COLLECTED AS EARLY AS 12 NOON.", "nsi_id": "unitedstatespostalservice-a77078", "operator": "United States Postal Service", "operator:short": "USPS", "operator:type": "public", "operator:wikidata": "Q668687", "ref": "5274900004"}, "type": "Feature"}
{"dataset_attributes": {"@spider": "usps_collection_boxes", "spider:collection_time": "2023-11-13T08:26:09.210319"}, "geometry": {"coordinates": [-90.38332749, 41.968359419], "type": "Point"}, "id": "5xEBfMGcv-N3isFT3tbNFCRMnH4=", "properties": {"@spider": "usps_collection_boxes", "addr:city": "GOOSE LAKE", "addr:country": "US", "addr:full": "228 MAIN ST", "addr:postcode": "52750", "addr:state": "IA", "amenity": "post_box", "brand": "United States Postal Service", "brand:wikidata": "Q668687", "collection_times": "Mo-Sa 16:00", "name": "USPS COLLECTION BOX - BLUE BOX", "note": "ON 12/24 AND 12/31, THIS BOX MAY BE COLLECTED AS EARLY AS 12 NOON.", "nsi_id": "unitedstatespostalservice-a77078", "operator": "United States Postal Service", "operator:short": "USPS", "operator:type": "public", "operator:wikidata": "Q668687", "ref": "5275000000"}, "type": "Feature"}
{"dataset_attributes": {"@spider": "usps_collection_boxes", "spider:collection_time": "2023-11-13T08:26:09.210319"}, "geometry": {"coordinates": [-90.38332749, 41.968359419], "type": "Point"}, "id": "oZimYgmYJ0s-xv3atMaD2WfYQPk=", "properties": {"@spider": "usps_collection_boxes", "addr:city": "GOOSE LAKE", "addr:country": "US", "addr:full": "228 MAIN ST", "addr:postcode": "52750", "addr:state": "IA", "amenity": "post_box", "brand": "United States Postal Service", "brand:wikidata": "Q668687", "collection_times": "Mo-Fr 13:45; Sa 12:00", "name": "USPS COLLECTION BOX - PO LOBBY", "note": "ON 12/24 AND 12/31, THIS BOX MAY BE COLLECTED AS EARLY AS 12 NOON.", "nsi_id": "unitedstatespostalservice-a77078", "operator": "United States Postal Service", "operator:short": "USPS", "operator:type": "public", "operator:wikidata": "Q668687", "ref": "5275000001"}, "type": "Feature"}
{"dataset_attributes": {"@spider": "usps_collection_boxes", "spider:collection_time": "2023-11-13T08:26:09.210319"}, "geometry": {"coordinates": [-90.38332749, 41.968359419], "type": "Point"}, "id": "i-Vpwmxhbs4cgvmw769ma26-3Gg=", "properties": {"@spider": "usps_collection_boxes", "addr:city": "GOOSE LAKE", "addr:country": "US", "addr:full": "228 MAIN ST", "addr:postcode": "52750", "addr:state": "IA", "amenity": "post_box", "brand": "United States Postal Service", "brand:wikidata": "Q668687", "collection_times": "Mo-Fr 14:00; Sa 12:15", "name": "USPS COLLECTION BOX - PO LOBBY", "note": "ON 12/24 AND 12/31, THIS BOX MAY BE COLLECTED AS EARLY AS 12 NOON.", "nsi_id": "unitedstatespostalservice-a77078", "operator": "United States Postal Service", "operator:short": "USPS", "operator:type": "public", "operator:wikidata": "Q668687", "ref": "5275000002"}, "type": "Feature"}
{"dataset_attributes": {"@spider": "usps_collection_boxes", "spider:collection_time": "2023-11-13T08:26:09.210319"}, "geometry": {"coordinates": [-90.645826119, 41.823323329], "type": "Point"}, "id": "xI5YUZ7JFSZN96eGRg_fYb-am94=", "properties": {"@spider": "usps_collection_boxes", "addr:city": "GRAND MOUND", "addr:country": "US", "addr:full": "501 EAST ST", "addr:postcode": "52751", "addr:state": "IA", "amenity": "post_box", "brand": "United States Postal Service", "brand:wikidata": "Q668687", "collection_times": "Mo-Sa 16:00", "name": "USPS COLLECTION BOX - BLUE BOX", "note": "ON 12/24 AND 12/31, THIS BOX MAY BE COLLECTED AS EARLY AS 12 NOON.", "nsi_id": "unitedstatespostalservice-a77078", "operator": "United States Postal Service", "operator:short": "USPS", "operator:type": "public", "operator:wikidata": "Q668687", "ref": "5275100000"}, "type": "Feature"}
{"dataset_attributes": {"@spider": "usps_collection_boxes", "spider:collection_time": "2023-11-13T08:26:09.210319"}, "geometry": {"coordinates": [-90.645826119, 41.823323329], "type": "Point"}, "id": "sXDGxFGAvn-PlMLhoUEjJ3EVEVc=", "properties": {"@spider": "usps_collection_boxes", "addr:city": "GRAND MOUND", "addr:country": "US", "addr:full": "501 EAST ST", "addr:postcode": "52751", "addr:state": "IA", "amenity": "post_box", "brand": "United States Postal Service", "brand:wikidata": "Q668687", "collection_times": "Mo-Fr 11:15", "name": "USPS COLLECTION BOX - PO LOBBY", "nsi_id": "unitedstatespostalservice-a77078", "operator": "United States Postal Service", "operator:short": "USPS", "operator:type": "public", "operator:wikidata": "Q668687", "ref": "5275100001"}, "type": "Feature"}
{"dataset_attributes": {"@spider": "usps_collection_boxes", "spider:collection_time": "2023-11-13T08:26:09.210319"}, "geometry": {"coordinates": [-90.645826119, 41.823323329], "type": "Point"}, "id": "11GgIowJzACxbakdrfwC0DkJIN4=", "properties": {"@spider": "usps_collection_boxes", "addr:city": "GRAND MOUND", "addr:country": "US", "addr:full": "501 EAST ST", "addr:postcode": "52751", "addr:state": "IA", "amenity": "post_box", "brand": "United States Postal Service", "brand:wikidata": "Q668687", "collection_times": "Mo-Fr 11:30; Sa 09:00", "name": "USPS COLLECTION BOX - PO LOBBY", "nsi_id": "unitedstatespostalservice-a77078", "operator": "United States Postal Service", "operator:short": "USPS", "operator:type": "public", "operator:wikidata": "Q668687", "ref": "5275100002"}, "type": "Feature"}
{"dataset_attributes": {"@spider": "usps_collection_boxes", "spider:collection_time": "2023-11-13T08:26:09.210319"}, "geometry": {"coordinates": [-91.1882621303, 41.2766610327], "type": "Point"}, "id": "LToOM0lte0CaoUCE15CgabUixpE=", "properties": {"@spider": "usps_collection_boxes", "addr:city": "WAPELLO", "addr:country": "US", "addr:full": "112 S MAIN ST", "addr:postcode": "52752", "addr:state": "IA", "amenity": "post_box", "brand": "United States Postal Service", "brand:wikidata": "Q668687", "collection_times": "Mo-Sa 15:30", "name": "USPS COLLECTION BOX - BLUE BOX", "note": "ON 12/24 AND 12/31, THIS BOX MAY BE COLLECTED AS EARLY AS 12 NOON.", "nsi_id": "unitedstatespostalservice-a77078", "operator": "United States Postal Service", "operator:short": "USPS", "operator:type": "public", "operator:wikidata": "Q668687", "ref": "5275200000"}, "type": "Feature"}
{"dataset_attributes": {"@spider": "usps_collection_boxes", "spider:collection_time": "2023-11-13T08:26:09.210319"}, "geometry": {"coordinates": [-90.346612028, 41.598547514], "type": "Point"}, "id": "-r7xOrkxeZ77J1Uf-mWyXz0Yfgk=", "properties": {"@spider": "usps_collection_boxes", "addr:city": "LECLAIRE", "addr:country": "US", "addr:full": "310 JONES ST", "addr:postcode": "52753", "addr:state": "IA", "amenity": "post_box", "brand": "United States Postal Service", "brand:wikidata": "Q668687", "collection_times": "Mo-Sa 16:30", "name": "USPS COLLECTION BOX - BLUE BOX", "note": "ON 12/24 AND 12/31, THIS BOX MAY BE COLLECTED AS EARLY AS 12 NOON.", "nsi_id": "unitedstatespostalservice-a77078", "operator": "United States Postal Service", "operator:short": "USPS", "operator:type": "public", "operator:wikidata": "Q668687", "ref": "5275300000"}, "type": "Feature"}
{"dataset_attributes": {"@spider": "usps_collection_boxes", "spider:collection_time": "2023-11-13T08:26:09.210319"}, "geometry": {"coordinates": [-90.346612028, 41.598547514], "type": "Point"}, "id": "MVPrjeICPTXhYFVhNe85T4dHaLE=", "properties": {"@spider": "usps_collection_boxes", "addr:city": "LECLAIRE", "addr:country": "US", "addr:full": "310 JONES ST", "addr:postcode": "52753", "addr:state": "IA", "amenity": "post_box", "brand": "United States Postal Service", "brand:wikidata": "Q668687", "collection_times": "Mo-Fr 16:45; Sa 11:45", "name": "USPS COLLECTION BOX - PO LOBBY", "note": "ON 12/24 AND 12/31, THIS BOX MAY BE COLLECTED AS EARLY AS 12 NOON.", "nsi_id": "unitedstatespostalservice-a77078", "operator": "United States Postal Service", "operator:short": "USPS", "operator:type": "public", "operator:wikidata": "Q668687", "ref": "5275300001"}, "type": "Feature"}
{"dataset_attributes": {"@spider": "usps_collection_boxes", "spider:collection_time": "2023-11-13T08:26:09.210319"}, "geometry": {"coordinates": [-90.346612028, 41.598547514], "type": "Point"}, "id": "Xfyb_j5o2ni03VdSo_k4hNI-Lzg=", "properties": {"@spider": "usps_collection_boxes", "addr:city": "LECLAIRE", "addr:country": "US", "addr:full": "310 JONES ST", "addr:postcode": "52753", "addr:state": "IA", "amenity": "post_box", "brand": "United States Postal Service", "brand:wikidata": "Q668687", "collection_times": "Mo-Fr 16:45; Sa 11:30", "name": "USPS COLLECTION BOX - PO LOBBY", "note": "ON 12/24 AND 12/31, THIS BOX MAY BE COLLECTED AS EARLY AS 12 NOON.", "nsi_id": "unitedstatespostalservice-a77078", "operator": "United States Postal Service", "operator:short": "USPS", "operator:type": "public", "operator:wikidata": "Q668687", "ref": "5275300002"}, "type": "Feature"}
{"dataset_attributes": {"@spider": "usps_collection_boxes", "spider:collection_time": "2023-11-13T08:26:09.210319"}, "geometry": {"coordinates": [-91.2367579859, 41.3281080133], "type": "Point"}, "id": "OoWOuEPrgfLnih7c58MWk3S9FRM=", "properties": {"@spider": "usps_collection_boxes", "addr:city": "LETTS", "addr:country": "US", "addr:full": "105 S CHERRY ST", "addr:postcode": "52754", "addr:state": "IA", "amenity": "post_box", "brand": "United States Postal Service", "brand:wikidata": "Q668687", "collection_times": "Mo-Sa 15:30", "name": "USPS COLLECTION BOX - BLUE BOX", "note": "ON 12/24 AND 12/31, THIS BOX MAY BE COLLECTED AS EARLY AS 12 NOON.", "nsi_id": "unitedstatespostalservice-a77078", "operator": "United States Postal Service", "operator:short": "USPS", "operator:type": "public", "operator:wikidata": "Q668687", "ref": "5275400000"}, "type": "Feature"}
{"dataset_attributes": {"@spider": "usps_collection_boxes", "spider:collection_time": "2023-11-13T08:26:09.210319"}, "geometry": {"coordinates": [-91.236953878, 41.328108], "type": "Point"}, "id": "DzD3W4hG3jCzOguUwvqA-jcDwoY=", "properties": {"@spider": "usps_collection_boxes", "addr:city": "LETTS", "addr:country": "US", "addr:full": "105 S CHERRY ST", "addr:postcode": "52754", "addr:state": "IA", "amenity": "post_box", "brand": "United States Postal Service", "brand:wikidata": "Q668687", "collection_times": "Mo-Fr 10:45; Sa 08:00", "name": "USPS COLLECTION BOX - PO LOBBY", "nsi_id": "unitedstatespostalservice-a77078", "operator": "United States Postal Service", "operator:short": "USPS", "operator:type": "public", "operator:wikidata": "Q668687", "ref": "5275400001"}, "type": "Feature"}
{"dataset_attributes": {"@spider": "usps_collection_boxes", "spider:collection_time": "2023-11-13T08:26:09.210319"}, "geometry": {"coordinates": [-91.236953878, 41.328108], "type": "Point"}, "id": "BKX74eYRCfOFUyVEj962oJzNUJo=", "properties": {"@spider": "usps_collection_boxes", "addr:city": "LETTS", "addr:country": "US", "addr:full": "105 S CHERRY ST", "addr:postcode": "52754", "addr:state": "IA", "amenity": "post_box", "brand": "United States Postal Service", "brand:wikidata": "Q668687", "collection_times": "Mo-Fr 11:00; Sa 08:15", "name": "USPS COLLECTION BOX - PO LOBBY", "nsi_id": "unitedstatespostalservice-a77078", "operator": "United States Postal Service", "operator:short": "USPS", "operator:type": "public", "operator:wikidata": "Q668687", "ref": "5275400002"}, "type": "Feature"}
{"dataset_attributes": {"@spider": "usps_collection_boxes", "spider:collection_time": "2023-11-13T08:26:09.210319"}, "geometry": {"coordinates": [-91.425665837, 41.487525974], "type": "Point"}, "id": "ztVPfgWTclzn-zGv1pidt1dpyu8=", "properties": {"@spider": "usps_collection_boxes", "addr:city": "LONE TREE", "addr:country": "US", "addr:full": "104 N DEVOE ST", "addr:postcode": "52755", "addr:state": "IA", "amenity": "post_box", "brand": "United States Postal Service", "brand:wikidata": "Q668687", "collection_times": "Mo-Sa 16:30", "name": "USPS COLLECTION BOX - BLUE BOX", "note": "ON 12/24 AND 12/31, THIS BOX MAY BE COLLECTED AS EARLY AS 12 NOON.", "nsi_id": "unitedstatespostalservice-a77078", "operator": "United States Postal Service", "operator:short": "USPS", "operator:type": "public", "operator:wikidata": "Q668687", "ref": "5275500000"}, "type": "Feature"}
{"dataset_attributes": {"@spider": "usps_collection_boxes", "spider:collection_time": "2023-11-13T08:26:09.210319"}, "geometry": {"coordinates": [-91.425665837, 41.487525974], "type": "Point"}, "id": "WFxUMAIB_P9EBNigHkiKdDWc9q4=", "properties": {"@spider": "usps_collection_boxes", "addr:city": "LONE TREE", "addr:country": "US", "addr:full": "104 N DEVOE ST", "addr:postcode": "52755", "addr:state": "IA", "amenity": "post_box", "brand": "United States Postal Service", "brand:wikidata": "Q668687", "collection_times": "Mo-Fr 16:30; Sa 10:00", "name": "USPS COLLECTION BOX - PO LOBBY", "note": "ON 12/24 AND 12/31, THIS BOX MAY BE COLLECTED AS EARLY AS 12 NOON.", "nsi_id": "unitedstatespostalservice-a77078", "operator": "United States Postal Service", "operator:short": "USPS", "operator:type": "public", "operator:wikidata": "Q668687", "ref": "5275500001"}, "type": "Feature"}
{"dataset_attributes": {"@spider": "usps_collection_boxes", "spider:collection_time": "2023-11-13T08:26:09.210319"}, "geometry": {"coordinates": [-91.425665837, 41.487525974], "type": "Point"}, "id": "aAWP6epcdVe7VSCo-Q_ckthjxKQ=", "properties": {"@spider": "usps_collection_boxes", "addr:city": "LONE TREE", "addr:country": "US", "addr:full": "104 N DEVOE ST", "addr:postcode": "52755", "addr:state": "IA", "amenity": "post_box", "brand": "United States Postal Service", "brand:wikidata": "Q668687", "collection_times": "Mo-Fr 16:30; Sa 10:00", "name": "USPS COLLECTION BOX - PO LOBBY", "note": "ON 12/24 AND 12/31, THIS BOX MAY BE COLLECTED AS EARLY AS 12 NOON.", "nsi_id": "unitedstatespostalservice-a77078", "operator": "United States Postal Service", "operator:short": "USPS", "operator:type": "public", "operator:wikidata": "Q668687", "ref": "5275500002"}, "type": "Feature"}
{"dataset_attributes": {"@spider": "usps_collection_boxes", "spider:collection_time": "2023-11-13T08:26:09.210319"}, "geometry": {"coordinates": [-90.582869972, 41.696623341], "type": "Point"}, "id": "VgbdSKcUo9pybG-5n4I9bklsIWw=", "properties": {"@spider": "usps_collection_boxes", "addr:city": "LONG GROVE", "addr:country": "US", "addr:full": "123 S 1ST ST", "addr:postcode": "52756", "addr:state": "IA", "amenity": "post_box", "brand": "United States Postal Service", "brand:wikidata": "Q668687", "collection_times": "Mo-Fr 15:30; Sa 16:00", "name": "USPS COLLECTION BOX - BLUE BOX", "note": "ON 12/24 AND 12/31, THIS BOX MAY BE COLLECTED AS EARLY AS 12 NOON.", "nsi_id": "unitedstatespostalservice-a77078", "operator": "United States Postal Service", "operator:short": "USPS", "operator:type": "public", "operator:wikidata": "Q668687", "ref": "5275600000"}, "type": "Feature"}
{"dataset_attributes": {"@spider": "usps_collection_boxes", "spider:collection_time": "2023-11-13T08:26:09.210319"}, "geometry": {"coordinates": [-90.582869972, 41.696623341], "type": "Point"}, "id": "MMUfJBmLheofkCAca3-BUc8mexU=", "properties": {"@spider": "usps_collection_boxes", "addr:city": "LONG GROVE", "addr:country": "US", "addr:full": "123 S 1ST ST", "addr:postcode": "52756", "addr:state": "IA", "amenity": "post_box", "brand": "United States Postal Service", "brand:wikidata": "Q668687", "collection_times": "Mo-Fr 13:45", "name": "USPS COLLECTION BOX - PO LOBBY", "note": "ON 12/24 AND 12/31, THIS BOX MAY BE COLLECTED AS EARLY AS 12 NOON.", "nsi_id": "unitedstatespostalservice-a77078", "operator": "United States Postal Service", "operator:short": "USPS", "operator:type": "public", "operator:wikidata": "Q668687", "ref": "5275600001"}, "type": "Feature"}
{"dataset_attributes": {"@spider": "usps_collection_boxes", "spider:collection_time": "2023-11-13T08:26:09.210319"}, "geometry": {"coordinates": [-90.582869972, 41.696623341], "type": "Point"}, "id": "4TcKI7AHjecXRNeKnuvIqQ1zKp4=", "properties": {"@spider": "usps_collection_boxes", "addr:city": "LONG GROVE", "addr:country": "US", "addr:full": "123 S 1ST ST", "addr:postcode": "52756", "addr:state": "IA", "amenity": "post_box", "brand": "United States Postal Service", "brand:wikidata": "Q668687", "collection_times": "Mo-Fr 14:00; Sa 09:00", "name": "USPS COLLECTION BOX - PO LOBBY", "note": "ON 12/24 AND 12/31, THIS BOX MAY BE COLLECTED AS EARLY AS 12 NOON.", "nsi_id": "unitedstatespostalservice-a77078", "operator": "United States Postal Service", "operator:short": "USPS", "operator:type": "public", "operator:wikidata": "Q668687", "ref": "5275600002"}, "type": "Feature"}
{"dataset_attributes": {"@spider": "usps_collection_boxes", "spider:collection_time": "2023-11-13T08:26:09.210319"}, "geometry": {"coordinates": [-90.354893177, 41.801308994], "type": "Point"}, "id": "3aRj1dEBONrUqePNgjvhB2pbccE=", "properties": {"@spider": "usps_collection_boxes", "addr:city": "LOW MOOR", "addr:country": "US", "addr:full": "207 3RD ST", "addr:postcode": "52757", "addr:state": "IA", "amenity": "post_box", "brand": "United States Postal Service", "brand:wikidata": "Q668687", "collection_times": "Mo-Sa 16:30", "name": "USPS COLLECTION BOX - BLUE BOX", "note": "ON 12/24 AND 12/31, THIS BOX MAY BE COLLECTED AS EARLY AS 12 NOON.", "nsi_id": "unitedstatespostalservice-a77078", "operator": "United States Postal Service", "operator:short": "USPS", "operator:type": "public", "operator:wikidata": "Q668687", "ref": "5275700000"}, "type": "Feature"}
{"dataset_attributes": {"@spider": "usps_collection_boxes", "spider:collection_time": "2023-11-13T08:26:09.210319"}, "geometry": {"coordinates": [-90.354893177, 41.801308994], "type": "Point"}, "id": "tk41edh8AfGQH8vaZGzJ3G7E308=", "properties": {"@spider": "usps_collection_boxes", "addr:city": "LOW MOOR", "addr:country": "US", "addr:full": "207 3RD ST", "addr:postcode": "52757", "addr:state": "IA", "amenity": "post_box", "brand": "United States Postal Service", "brand:wikidata": "Q668687", "collection_times": "Mo-Fr 12:45; Sa 10:45", "name": "USPS COLLECTION BOX - PO LOBBY", "note": "ON 12/24 AND 12/31, THIS BOX MAY BE COLLECTED AS EARLY AS 12 NOON.", "nsi_id": "unitedstatespostalservice-a77078", "operator": "United States Postal Service", "operator:short": "USPS", "operator:type": "public", "operator:wikidata": "Q668687", "ref": "5275700001"}, "type": "Feature"}
{"dataset_attributes": {"@spider": "usps_collection_boxes", "spider:collection_time": "2023-11-13T08:26:09.210319"}, "geometry": {"coordinates": [-90.354893177, 41.801308994], "type": "Point"}, "id": "fOK2JVkqcoZKvxxbwLhvTF5JeOk=", "properties": {"@spider": "usps_collection_boxes", "addr:city": "LOW MOOR", "addr:country": "US", "addr:full": "207 3RD ST", "addr:postcode": "52757", "addr:state": "IA", "amenity": "post_box", "brand": "United States Postal Service", "brand:wikidata": "Q668687", "collection_times": "Mo-Fr 13:00; Sa 10:45", "name": "USPS COLLECTION BOX - PO LOBBY", "note": "ON 12/24 AND 12/31, THIS BOX MAY BE COLLECTED AS EARLY AS 12 NOON.", "nsi_id": "unitedstatespostalservice-a77078", "operator": "United States Postal Service", "operator:short": "USPS", "operator:type": "public", "operator:wikidata": "Q668687", "ref": "5275700002"}, "type": "Feature"}
{"dataset_attributes": {"@spider": "usps_collection_boxes", "spider:collection_time": "2023-11-13T08:26:09.210319"}, "geometry": {"coordinates": [-90.444916812, 41.745393838], "type": "Point"}, "id": "YvXYgag2ts9t5gg6kTp0eNHBweY=", "properties": {"@spider": "usps_collection_boxes", "addr:city": "MCCAUSLAND", "addr:country": "US", "addr:full": "304 N SALINA ST", "addr:postcode": "52758", "addr:state": "IA", "amenity": "post_box", "brand": "United States Postal Service", "brand:wikidata": "Q668687", "collection_times": "Mo-Sa 16:00", "name": "USPS COLLECTION BOX - BLUE BOX", "note": "ON 12/24 AND 12/31, THIS BOX MAY BE COLLECTED AS EARLY AS 12 NOON.", "nsi_id": "unitedstatespostalservice-a77078", "operator": "United States Postal Service", "operator:short": "USPS", "operator:type": "public", "operator:wikidata": "Q668687", "ref": "5275800000"}, "type": "Feature"}
{"dataset_attributes": {"@spider": "usps_collection_boxes", "spider:collection_time": "2023-11-13T08:26:09.210319"}, "geometry": {"coordinates": [-90.444916812, 41.745393838], "type": "Point"}, "id": "Pqjst178P2IpFrVsTxIJzoyQ880=", "properties": {"@spider": "usps_collection_boxes", "addr:city": "MCCAUSLAND", "addr:country": "US", "addr:full": "304 N SALINA ST", "addr:postcode": "52758", "addr:state": "IA", "amenity": "post_box", "brand": "United States Postal Service", "brand:wikidata": "Q668687", "collection_times": "Mo-Fr 11:45; Sa 09:45", "name": "USPS COLLECTION BOX - PO LOBBY", "nsi_id": "unitedstatespostalservice-a77078", "operator": "United States Postal Service", "operator:short": "USPS", "operator:type": "public", "operator:wikidata": "Q668687", "ref": "5275800002"}, "type": "Feature"}
{"dataset_attributes": {"@spider": "usps_collection_boxes", "spider:collection_time": "2023-11-13T08:26:09.210319"}, "geometry": {"coordinates": [-90.444916812, 41.745393838], "type": "Point"}, "id": "hvvHZOriui7PgMk8Pmo3qjHPnB4=", "properties": {"@spider": "usps_collection_boxes", "addr:city": "MCCAUSLAND", "addr:country": "US", "addr:full": "304 N SALINA ST", "addr:postcode": "52758", "addr:state": "IA", "amenity": "post_box", "brand": "United States Postal Service", "brand:wikidata": "Q668687", "collection_times": "Mo-Fr 12:00; Sa 10:00", "name": "USPS COLLECTION BOX - PO LOBBY", "nsi_id": "unitedstatespostalservice-a77078", "operator": "United States Postal Service", "operator:short": "USPS", "operator:type": "public", "operator:wikidata": "Q668687", "ref": "5275800003"}, "type": "Feature"}
{"dataset_attributes": {"@spider": "usps_collection_boxes", "spider:collection_time": "2023-11-13T08:26:09.210319"}, "geometry": {"coordinates": [-91.076090524, 41.574005805], "type": "Point"}, "id": "yTMyiKPIHaBMJThOwZ8-8tEaZ3U=", "properties": {"@spider": "usps_collection_boxes", "addr:city": "MOSCOW", "addr:country": "US", "addr:full": "2476 112TH ST", "addr:postcode": "52760", "addr:state": "IA", "amenity": "post_box", "brand": "United States Postal Service", "brand:wikidata": "Q668687", "collection_times": "Mo-Sa 16:15", "name": "USPS COLLECTION BOX - BLUE BOX", "note": "ON 12/24 AND 12/31, THIS BOX MAY BE COLLECTED AS EARLY AS 12 NOON.", "nsi_id": "unitedstatespostalservice-a77078", "operator": "United States Postal Service", "operator:short": "USPS", "operator:type": "public", "operator:wikidata": "Q668687", "ref": "5276000000"}, "type": "Feature"}
{"dataset_attributes": {"@spider": "usps_collection_boxes", "spider:collection_time": "2023-11-13T08:26:09.210319"}, "geometry": {"coordinates": [-91.076090524, 41.574005805], "type": "Point"}, "id": "5dVNnBnBlEZ9klVohVFJaAW6JtY=", "properties": {"@spider": "usps_collection_boxes", "addr:city": "MOSCOW", "addr:country": "US", "addr:full": "2476 112TH ST", "addr:postcode": "52760", "addr:state": "IA", "amenity": "post_box", "brand": "United States Postal Service", "brand:wikidata": "Q668687", "collection_times": "Mo-Fr 10:45", "name": "USPS COLLECTION BOX - PO LOBBY", "nsi_id": "unitedstatespostalservice-a77078", "operator": "United States Postal Service", "operator:short": "USPS", "operator:type": "public", "operator:wikidata": "Q668687", "ref": "5276000001"}, "type": "Feature"}
{"dataset_attributes": {"@spider": "usps_collection_boxes", "spider:collection_time": "2023-11-13T08:26:09.210319"}, "geometry": {"coordinates": [-91.076090524, 41.574005805], "type": "Point"}, "id": "eQo_kcw2-cJ1P5WlNXBjEC64JN4=", "properties": {"@spider": "usps_collection_boxes", "addr:city": "MOSCOW", "addr:country": "US", "addr:full": "2476 112TH ST", "addr:postcode": "52760", "addr:state": "IA", "amenity": "post_box", "brand": "United States Postal Service", "brand:wikidata": "Q668687", "collection_times": "Mo-Fr 11:00; Sa 10:15", "name": "USPS COLLECTION BOX - PO LOBBY", "nsi_id": "unitedstatespostalservice-a77078", "operator": "United States Postal Service", "operator:short": "USPS", "operator:type": "public", "operator:wikidata": "Q668687", "ref": "5276000002"}, "type": "Feature"}
{"dataset_attributes": {"@spider": "usps_collection_boxes", "spider:collection_time": "2023-11-13T08:26:09.210319"}, "geometry": {"coordinates": [-91.030291856, 41.445737633], "type": "Point"}, "id": "83aYSiY-ug1_oA7N3hwH6pSIod0=", "properties": {"@spider": "usps_collection_boxes", "addr:city": "MUSCATINE", "addr:country": "US", "addr:full": "1903 PARK AVE", "addr:postcode": "52761", "addr:state": "IA", "amenity": "post_box", "brand": "United States Postal Service", "brand:wikidata": "Q668687", "collection_times": "Mo-Sa 11:00", "name": "USPS COLLECTION BOX - BLUE BOX", "nsi_id": "unitedstatespostalservice-a77078", "operator": "United States Postal Service", "operator:short": "USPS", "operator:type": "public", "operator:wikidata": "Q668687", "ref": "5276100000"}, "type": "Feature"}
{"dataset_attributes": {"@spider": "usps_collection_boxes", "spider:collection_time": "2023-11-13T08:26:09.210319"}, "geometry": {"coordinates": [-91.030291856, 41.445737633], "type": "Point"}, "id": "PS33l66jne1Rob8s3-QWHbjFd7o=", "properties": {"@spider": "usps_collection_boxes", "addr:city": "MUSCATINE", "addr:country": "US", "addr:full": "1903 PARK AVE", "addr:postcode": "52761", "addr:state": "IA", "amenity": "post_box", "brand": "United States Postal Service", "brand:wikidata": "Q668687", "collection_times": "Mo-Sa 11:00", "name": "USPS COLLECTION BOX - BLUE BOX", "nsi_id": "unitedstatespostalservice-a77078", "operator": "United States Postal Service", "operator:short": "USPS", "operator:type": "public", "operator:wikidata": "Q668687", "ref": "5276100001"}, "type": "Feature"}
{"dataset_attributes": {"@spider": "usps_collection_boxes", "spider:collection_time": "2023-11-13T08:26:09.210319"}, "geometry": {"coordinates": [-91.035528616, 41.450143383], "type": "Point"}, "id": "qqYqkiDFz9dzve86vvL-7dbtCO8=", "properties": {"@spider": "usps_collection_boxes", "addr:city": "MUSCATINE", "addr:country": "US", "addr:full": "2400 2ND AVE", "addr:postcode": "52761", "addr:state": "IA", "amenity": "post_box", "brand": "United States Postal Service", "brand:wikidata": "Q668687", "collection_times": "Mo-Sa 11:00", "name": "USPS COLLECTION BOX - BLUE BOX", "nsi_id": "unitedstatespostalservice-a77078", "operator": "United States Postal Service", "operator:short": "USPS", "operator:type": "public", "operator:wikidata": "Q668687", "ref": "5276100002"}, "type": "Feature"}
{"dataset_attributes": {"@spider": "usps_collection_boxes", "spider:collection_time": "2023-11-13T08:26:09.210319"}, "geometry": {"coordinates": [-91.043401208, 41.439307555], "type": "Point"}, "id": "LKEZQ0dhW5AgzEF6VgPrAyOxJAs=", "properties": {"@spider": "usps_collection_boxes", "addr:city": "MUSCATINE", "addr:country": "US", "addr:full": "1514 ISETT AVE", "addr:postcode": "52761", "addr:state": "IA", "amenity": "post_box", "brand": "United States Postal Service", "brand:wikidata": "Q668687", "collection_times": "Mo-Sa 15:30", "name": "USPS COLLECTION BOX - BLUE BOX", "note": "ON 12/24 AND 12/31, THIS BOX MAY BE COLLECTED AS EARLY AS 12 NOON.", "nsi_id": "unitedstatespostalservice-a77078", "operator": "United States Postal Service", "operator:short": "USPS", "operator:type": "public", "operator:wikidata": "Q668687", "ref": "5276100006"}, "type": "Feature"}
{"dataset_attributes": {"@spider": "usps_collection_boxes", "spider:collection_time": "2023-11-13T08:26:09.210319"}, "geometry": {"coordinates": [-91.064142568, 41.408455514], "type": "Point"}, "id": "nzaNHBjKEZxR1R3T7kzjFObwtBg=", "properties": {"@spider": "usps_collection_boxes", "addr:city": "MUSCATINE", "addr:country": "US", "addr:full": "807 GRANDVIEW AVE", "addr:postcode": "52761", "addr:state": "IA", "amenity": "post_box", "brand": "United States Postal Service", "brand:wikidata": "Q668687", "collection_times": "Mo-Sa 10:00", "name": "USPS COLLECTION BOX - BLUE BOX", "nsi_id": "unitedstatespostalservice-a77078", "operator": "United States Postal Service", "operator:short": "USPS", "operator:type": "public", "operator:wikidata": "Q668687", "ref": "5276100013"}, "type": "Feature"}
{"dataset_attributes": {"@spider": "usps_collection_boxes", "spider:collection_time": "2023-11-13T08:26:09.210319"}, "geometry": {"coordinates": [-91.052480413, 41.433976882], "type": "Point"}, "id": "Y3JOewBurKE0_e6vjHh0-nB-qks=", "properties": {"@spider": "usps_collection_boxes", "addr:city": "MUSCATINE", "addr:country": "US", "addr:full": "1518 MULBERRY AVE", "addr:postcode": "52761", "addr:state": "IA", "amenity": "post_box", "brand": "United States Postal Service", "brand:wikidata": "Q668687", "collection_times": "Mo-Sa 15:30", "name": "USPS COLLECTION BOX - BLUE BOX", "note": "ON 12/24 AND 12/31, THIS BOX MAY BE COLLECTED AS EARLY AS 12 NOON.", "nsi_id": "unitedstatespostalservice-a77078", "operator": "United States Postal Service", "operator:short": "USPS", "operator:type": "public", "operator:wikidata": "Q668687", "ref": "5276100018"}, "type": "Feature"}
{"dataset_attributes": {"@spider": "usps_collection_boxes", "spider:collection_time": "2023-11-13T08:26:09.210319"}, "geometry": {"coordinates": [-91.042677756, 41.424237358], "type": "Point"}, "id": "N0e9GfwHXZnC7qGwokpJ4rvES8I=", "properties": {"@spider": "usps_collection_boxes", "addr:city": "MUSCATINE", "addr:country": "US", "addr:full": "414 E 3RD ST", "addr:postcode": "52761", "addr:state": "IA", "amenity": "post_box", "brand": "United States Postal Service", "brand:wikidata": "Q668687", "collection_times": "Mo-Fr 11:00", "name": "USPS COLLECTION BOX - BLUE BOX", "nsi_id": "unitedstatespostalservice-a77078", "operator": "United States Postal Service", "operator:short": "USPS", "operator:type": "public", "operator:wikidata": "Q668687", "ref": "5276100023"}, "type": "Feature"}
{"dataset_attributes": {"@spider": "usps_collection_boxes", "spider:collection_time": "2023-11-13T08:26:09.210319"}, "geometry": {"coordinates": [-91.045140535, 41.422521027], "type": "Point"}, "id": "Ex6_dAXXsU3FhQCpobTiI4Pzfsk=", "properties": {"@spider": "usps_collection_boxes", "addr:city": "MUSCATINE", "addr:country": "US", "addr:full": "215 SYCAMORE ST", "addr:postcode": "52761", "addr:state": "IA", "amenity": "post_box", "brand": "United States Postal Service", "brand:wikidata": "Q668687", "collection_times": "Mo-Fr 11:00", "name": "USPS COLLECTION BOX - BLUE BOX", "nsi_id": "unitedstatespostalservice-a77078", "operator": "United States Postal Service", "operator:short": "USPS", "operator:type": "public", "operator:wikidata": "Q668687", "ref": "5276100024"}, "type": "Feature"}
{"dataset_attributes": {"@spider": "usps_collection_boxes", "spider:collection_time": "2023-11-13T08:26:09.210319"}, "geometry": {"coordinates": [-91.043987575, 41.422206679], "type": "Point"}, "id": "7Eq_PpJA1_AmZufkgBk1sHvhgSY=", "properties": {"@spider": "usps_collection_boxes", "addr:city": "MUSCATINE", "addr:country": "US", "addr:full": "226 E 2ND ST", "addr:postcode": "52761", "addr:state": "IA", "amenity": "post_box", "brand": "United States Postal Service", "brand:wikidata": "Q668687", "collection_times": "Mo-Sa 11:00", "name": "USPS COLLECTION BOX - BLUE BOX", "nsi_id": "unitedstatespostalservice-a77078", "operator": "United States Postal Service", "operator:short": "USPS", "operator:type": "public", "operator:wikidata": "Q668687", "ref": "5276100030"}, "type": "Feature"}
{"dataset_attributes": {"@spider": "usps_collection_boxes", "spider:collection_time": "2023-11-13T08:26:09.210319"}, "geometry": {"coordinates": [-91.044025788, 41.423550044], "type": "Point"}, "id": "hXbNj7CZunAmlFT_a__zKSSbgK8=", "properties": {"@spider": "usps_collection_boxes", "addr:city": "MUSCATINE", "addr:country": "US", "addr:full": "301 E 3RD ST", "addr:postcode": "52761", "addr:state": "IA", "amenity": "post_box", "brand": "United States Postal Service", "brand:wikidata": "Q668687", "collection_times": "Mo-Sa 11:00", "name": "USPS COLLECTION BOX - BLUE BOX", "nsi_id": "unitedstatespostalservice-a77078", "operator": "United States Postal Service", "operator:short": "USPS", "operator:type": "public", "operator:wikidata": "Q668687", "ref": "5276100035"}, "type": "Feature"}
{"dataset_attributes": {"@spider": "usps_collection_boxes", "spider:collection_time": "2023-11-13T08:26:09.210319"}, "geometry": {"coordinates": [-91.080202835, 41.435965543], "type": "Point"}, "id": "BzSYCeCd-Ku3Z7inv96k81a_qMI=", "properties": {"@spider": "usps_collection_boxes", "addr:city": "MUSCATINE", "addr:country": "US", "addr:full": "3100 CEDAR ST", "addr:postcode": "52761", "addr:state": "IA", "amenity": "post_box", "brand": "United States Postal Service", "brand:wikidata": "Q668687", "collection_times": "Mo-Fr 17:15; Sa 16:00", "name": "USPS COLLECTION BOX - BLUE BOX", "note": "ON 12/24 AND 12/31, THIS BOX MAY BE COLLECTED AS EARLY AS 12 NOON.", "nsi_id": "unitedstatespostalservice-a77078", "operator": "United States Postal Service", "operator:short": "USPS", "operator:type": "public", "operator:wikidata": "Q668687", "ref": "5276100036"}, "type": "Feature"}
{"dataset_attributes": {"@spider": "usps_collection_boxes", "spider:collection_time": "2023-11-13T08:26:09.210319"}, "geometry": {"coordinates": [-91.088436164, 41.392196163], "type": "Point"}, "id": "zWFScXD3Q5a8ndrPV9ZDgRwpOLc=", "properties": {"@spider": "usps_collection_boxes", "addr:city": "MUSCATINE", "addr:country": "US", "addr:full": "4804 S HIGHWAY 61", "addr:postcode": "52761", "addr:state": "IA", "amenity": "post_box", "brand": "United States Postal Service", "brand:wikidata": "Q668687", "collection_times": "Mo-Sa 10:00", "name": "USPS COLLECTION BOX - BLUE BOX", "nsi_id": "unitedstatespostalservice-a77078", "operator": "United States Postal Service", "operator:short": "USPS", "operator:type": "public", "operator:wikidata": "Q668687", "ref": "5276100045"}, "type": "Feature"}
{"dataset_attributes": {"@spider": "usps_collection_boxes", "spider:collection_time": "2023-11-13T08:26:09.210319"}, "geometry": {"coordinates": [-91.080202835, 41.435965543], "type": "Point"}, "id": "7UxMntS8wnnY9cv5IVzOhwSTQJk=", "properties": {"@spider": "usps_collection_boxes", "addr:city": "MUSCATINE", "addr:country": "US", "addr:full": "3100 CEDAR ST", "addr:postcode": "52761", "addr:state": "IA", "amenity": "post_box", "brand": "United States Postal Service", "brand:wikidata": "Q668687", "collection_times": "Mo-Fr 17:00; Sa 16:00", "name": "USPS COLLECTION BOX - PO LOBBY", "note": "ON 12/24 AND 12/31, THIS BOX MAY BE COLLECTED AS EARLY AS 12 NOON.", "nsi_id": "unitedstatespostalservice-a77078", "operator": "United States Postal Service", "operator:short": "USPS", "operator:type": "public", "operator:wikidata": "Q668687", "ref": "5276100046"}, "type": "Feature"}
{"dataset_attributes": {"@spider": "usps_collection_boxes", "spider:collection_time": "2023-11-13T08:26:09.210319"}, "geometry": {"coordinates": [-91.023844341, 41.456339615], "type": "Point"}, "id": "RXoZjQ7fa9w_5xs_AWmCOraf8f0=", "properties": {"@spider": "usps_collection_boxes", "addr:city": "MUSCATINE", "addr:country": "US", "addr:full": "3003 N HIGHWAY 61", "addr:postcode": "52761", "addr:state": "IA", "amenity": "post_box", "brand": "United States Postal Service", "brand:wikidata": "Q668687", "collection_times": "Mo-Sa 09:45", "name": "USPS COLLECTION BOX - BLUE BOX", "nsi_id": "unitedstatespostalservice-a77078", "operator": "United States Postal Service", "operator:short": "USPS", "operator:type": "public", "operator:wikidata": "Q668687", "ref": "5276100049"}, "type": "Feature"}
{"dataset_attributes": {"@spider": "usps_collection_boxes", "spider:collection_time": "2023-11-13T08:26:09.210319"}, "geometry": {"coordinates": [-91.042677756, 41.424237358], "type": "Point"}, "id": "KrPMc1kc15wRnVjutmRffs2n9qs=", "properties": {"@spider": "usps_collection_boxes", "addr:city": "MUSCATINE", "addr:country": "US", "addr:full": "414 E 3RD ST", "addr:postcode": "52761", "addr:state": "IA", "amenity": "post_box", "brand": "United States Postal Service", "brand:wikidata": "Q668687", "collection_times": "Mo-Fr 11:00", "name": "USPS COLLECTION BOX - BLUE BOX", "nsi_id": "unitedstatespostalservice-a77078", "operator": "United States Postal Service", "operator:short": "USPS", "operator:type": "public", "operator:wikidata": "Q668687", "ref": "5276100050"}, "type": "Feature"}
{"dataset_attributes": {"@spider": "usps_collection_boxes", "spider:collection_time": "2023-11-13T08:26:09.210319"}, "geometry": {"coordinates": [-91.072543573, 41.391065061], "type": "Point"}, "id": "i2mDcbIwaVQtDUYensjQ5rtW6fc=", "properties": {"@spider": "usps_collection_boxes", "addr:city": "MUSCATINE", "addr:country": "US", "addr:full": "2418 STEWART RD", "addr:postcode": "52761", "addr:state": "IA", "amenity": "post_box", "brand": "United States Postal Service", "brand:wikidata": "Q668687", "collection_times": "Mo-Sa 09:30", "name": "USPS COLLECTION BOX - BLUE BOX", "nsi_id": "unitedstatespostalservice-a77078", "operator": "United States Postal Service", "operator:short": "USPS", "operator:type": "public", "operator:wikidata": "Q668687", "ref": "5276100051"}, "type": "Feature"}
{"dataset_attributes": {"@spider": "usps_collection_boxes", "spider:collection_time": "2023-11-13T08:26:09.210319"}, "geometry": {"coordinates": [-91.045140535, 41.422521027], "type": "Point"}, "id": "IHeOzR6Gd1sZ2XpS0RdcOdfp_Lw=", "properties": {"@spider": "usps_collection_boxes", "addr:city": "MUSCATINE", "addr:country": "US", "addr:full": "215 SYCAMORE ST", "addr:postcode": "52761", "addr:state": "IA", "amenity": "post_box", "brand": "United States Postal Service", "brand:wikidata": "Q668687", "collection_times": "Mo-Fr 11:00", "name": "USPS COLLECTION BOX - BLUE BOX", "nsi_id": "unitedstatespostalservice-a77078", "operator": "United States Postal Service", "operator:short": "USPS", "operator:type": "public", "operator:wikidata": "Q668687", "ref": "5276100053"}, "type": "Feature"}
{"dataset_attributes": {"@spider": "usps_collection_boxes", "spider:collection_time": "2023-11-13T08:26:09.210319"}, "geometry": {"coordinates": [-91.080202835, 41.435965543], "type": "Point"}, "id": "kFadWkUwWHuz1223PwBU2INPJpg=", "properties": {"@spider": "usps_collection_boxes", "addr:city": "MUSCATINE", "addr:country": "US", "addr:full": "3100 CEDAR ST", "addr:postcode": "52761", "addr:state": "IA", "amenity": "post_box", "brand": "United States Postal Service", "brand:wikidata": "Q668687", "collection_times": "Mo-Fr 17:00; Sa 12:00", "name": "USPS COLLECTION BOX - PO LOBBY", "note": "ON 12/24 AND 12/31, THIS BOX MAY BE COLLECTED AS EARLY AS 12 NOON.", "nsi_id": "unitedstatespostalservice-a77078", "operator": "United States Postal Service", "operator:short": "USPS", "operator:type": "public", "operator:wikidata": "Q668687", "ref": "5276100057"}, "type": "Feature"}
{"dataset_attributes": {"@spider": "usps_collection_boxes", "spider:collection_time": "2023-11-13T08:26:09.210319"}, "geometry": {"coordinates": [-90.878159963, 41.716757987], "type": "Point"}, "id": "cVJW8cZi7YEZ_hKtCDdGNUlT3e4=", "properties": {"@spider": "usps_collection_boxes", "addr:city": "NEW LIBERTY", "addr:country": "US", "addr:full": "655 MAIN ST", "addr:postcode": "52765", "addr:state": "IA", "amenity": "post_box", "brand": "United States Postal Service", "brand:wikidata": "Q668687", "collection_times": "Mo-Fr 11:15; Sa 15:45", "name": "USPS COLLECTION BOX - BLUE BOX", "note": "ON 12/24 AND 12/31, THIS BOX MAY BE COLLECTED AS EARLY AS 12 NOON.", "nsi_id": "unitedstatespostalservice-a77078", "operator": "United States Postal Service", "operator:short": "USPS", "operator:type": "public", "operator:wikidata": "Q668687", "ref": "5276500000"}, "type": "Feature"}
{"dataset_attributes": {"@spider": "usps_collection_boxes", "spider:collection_time": "2023-11-13T08:26:09.210319"}, "geometry": {"coordinates": [-90.878159963, 41.716757987], "type": "Point"}, "id": "cjsyKzZEqBdh1P0cyJeXR5FgFhk=", "properties": {"@spider": "usps_collection_boxes", "addr:city": "NEW LIBERTY", "addr:country": "US", "addr:full": "655 MAIN ST", "addr:postcode": "52765", "addr:state": "IA", "amenity": "post_box", "brand": "United States Postal Service", "brand:wikidata": "Q668687", "collection_times": "Mo-Fr 11:15; Sa 09:00", "name": "USPS COLLECTION BOX - PO LOBBY", "nsi_id": "unitedstatespostalservice-a77078", "operator": "United States Postal Service", "operator:short": "USPS", "operator:type": "public", "operator:wikidata": "Q668687", "ref": "5276500002"}, "type": "Feature"}
{"dataset_attributes": {"@spider": "usps_collection_boxes", "spider:collection_time": "2023-11-13T08:26:09.210319"}, "geometry": {"coordinates": [-90.878159963, 41.716757987], "type": "Point"}, "id": "F-GogN0ASGCq5E4BHZey0p_5mXQ=", "properties": {"@spider": "usps_collection_boxes", "addr:city": "NEW LIBERTY", "addr:country": "US", "addr:full": "655 MAIN ST", "addr:postcode": "52765", "addr:state": "IA", "amenity": "post_box", "brand": "United States Postal Service", "brand:wikidata": "Q668687", "collection_times": "Mo-Fr 11:30; Sa 09:15", "name": "USPS COLLECTION BOX - PO LOBBY", "nsi_id": "unitedstatespostalservice-a77078", "operator": "United States Postal Service", "operator:short": "USPS", "operator:type": "public", "operator:wikidata": "Q668687", "ref": "5276500003"}, "type": "Feature"}
{"dataset_attributes": {"@spider": "usps_collection_boxes", "spider:collection_time": "2023-11-13T08:26:09.210319"}, "geometry": {"coordinates": [-91.308411168, 41.481116467], "type": "Point"}, "id": "T51GgxGtUzyJ2WEQRYMA7bNIOAQ=", "properties": {"@spider": "usps_collection_boxes", "addr:city": "NICHOLS", "addr:country": "US", "addr:full": "410 IJEM AVE", "addr:postcode": "52766", "addr:state": "IA", "amenity": "post_box", "brand": "United States Postal Service", "brand:wikidata": "Q668687", "collection_times": "Mo-Sa 16:00", "name": "USPS COLLECTION BOX - BLUE BOX", "note": "ON 12/24 AND 12/31, THIS BOX MAY BE COLLECTED AS EARLY AS 12 NOON.", "nsi_id": "unitedstatespostalservice-a77078", "operator": "United States Postal Service", "operator:short": "USPS", "operator:type": "public", "operator:wikidata": "Q668687", "ref": "5276600000"}, "type": "Feature"}
{"dataset_attributes": {"@spider": "usps_collection_boxes", "spider:collection_time": "2023-11-13T08:26:09.210319"}, "geometry": {"coordinates": [-91.308411168, 41.481116467], "type": "Point"}, "id": "lHWWQVSjB5_MoteYBeeqZ0KLGVc=", "properties": {"@spider": "usps_collection_boxes", "addr:city": "NICHOLS", "addr:country": "US", "addr:full": "410 IJEM AVE", "addr:postcode": "52766", "addr:state": "IA", "amenity": "post_box", "brand": "United States Postal Service", "brand:wikidata": "Q668687", "collection_times": "Mo-Fr 13:00; Sa 10:15", "name": "USPS COLLECTION BOX - PO LOBBY", "note": "ON 12/24 AND 12/31, THIS BOX MAY BE COLLECTED AS EARLY AS 12 NOON.", "nsi_id": "unitedstatespostalservice-a77078", "operator": "United States Postal Service", "operator:short": "USPS", "operator:type": "public", "operator:wikidata": "Q668687", "ref": "5276600001"}, "type": "Feature"}
{"dataset_attributes": {"@spider": "usps_collection_boxes", "spider:collection_time": "2023-11-13T08:26:09.210319"}, "geometry": {"coordinates": [-91.308411168, 41.481116467], "type": "Point"}, "id": "zUnEQzVuiPNOzWsUDcLKvoCcX8Y=", "properties": {"@spider": "usps_collection_boxes", "addr:city": "NICHOLS", "addr:country": "US", "addr:full": "410 IJEM AVE", "addr:postcode": "52766", "addr:state": "IA", "amenity": "post_box", "brand": "United States Postal Service", "brand:wikidata": "Q668687", "collection_times": "Mo-Fr 13:00; Sa 10:15", "name": "USPS COLLECTION BOX - PO LOBBY", "note": "ON 12/24 AND 12/31, THIS BOX MAY BE COLLECTED AS EARLY AS 12 NOON.", "nsi_id": "unitedstatespostalservice-a77078", "operator": "United States Postal Service", "operator:short": "USPS", "operator:type": "public", "operator:wikidata": "Q668687", "ref": "5276600002"}, "type": "Feature"}
{"dataset_attributes": {"@spider": "usps_collection_boxes", "spider:collection_time": "2023-11-13T08:26:09.210319"}, "geometry": {"coordinates": [-90.422301522, 41.569663987], "type": "Point"}, "id": "cFLg-lZfHWjoDGuG8RF_29YcYO0=", "properties": {"@spider": "usps_collection_boxes", "addr:city": "PLEASANT VALLEY", "addr:country": "US", "addr:full": "24641 VALLEY DR", "addr:postcode": "52767", "addr:state": "IA", "amenity": "post_box", "brand": "United States Postal Service", "brand:wikidata": "Q668687", "collection_times": "Mo-Sa 16:00", "name": "USPS COLLECTION BOX - BLUE BOX", "note": "ON 12/24 AND 12/31, THIS BOX MAY BE COLLECTED AS EARLY AS 12 NOON.", "nsi_id": "unitedstatespostalservice-a77078", "operator": "United States Postal Service", "operator:short": "USPS", "operator:type": "public", "operator:wikidata": "Q668687", "ref": "5276700000"}, "type": "Feature"}
{"dataset_attributes": {"@spider": "usps_collection_boxes", "spider:collection_time": "2023-11-13T08:26:09.210319"}, "geometry": {"coordinates": [-90.422301522, 41.569663987], "type": "Point"}, "id": "pv2or7kY35W2k575nbSsIzMh2Tk=", "properties": {"@spider": "usps_collection_boxes", "addr:city": "PLEASANT VALLEY", "addr:country": "US", "addr:full": "24641 VALLEY DR", "addr:postcode": "52767", "addr:state": "IA", "amenity": "post_box", "brand": "United States Postal Service", "brand:wikidata": "Q668687", "collection_times": "Mo-Fr 13:45", "name": "USPS COLLECTION BOX - PO LOBBY", "note": "ON 12/24 AND 12/31, THIS BOX MAY BE COLLECTED AS EARLY AS 12 NOON.", "nsi_id": "unitedstatespostalservice-a77078", "operator": "United States Postal Service", "operator:short": "USPS", "operator:type": "public", "operator:wikidata": "Q668687", "ref": "5276700001"}, "type": "Feature"}
{"dataset_attributes": {"@spider": "usps_collection_boxes", "spider:collection_time": "2023-11-13T08:26:09.210319"}, "geometry": {"coordinates": [-90.422301522, 41.569663987], "type": "Point"}, "id": "fufdGpEZFXvSbrS-dsgdE1TDoXM=", "properties": {"@spider": "usps_collection_boxes", "addr:city": "PLEASANT VALLEY", "addr:country": "US", "addr:full": "24641 VALLEY DR", "addr:postcode": "52767", "addr:state": "IA", "amenity": "post_box", "brand": "United States Postal Service", "brand:wikidata": "Q668687", "collection_times": "Mo-Fr 14:00; Sa 11:30", "name": "USPS COLLECTION BOX - PO LOBBY", "note": "ON 12/24 AND 12/31, THIS BOX MAY BE COLLECTED AS EARLY AS 12 NOON.", "nsi_id": "unitedstatespostalservice-a77078", "operator": "United States Postal Service", "operator:short": "USPS", "operator:type": "public", "operator:wikidata": "Q668687", "ref": "5276700002"}, "type": "Feature"}
{"dataset_attributes": {"@spider": "usps_collection_boxes", "spider:collection_time": "2023-11-13T08:26:09.210319"}, "geometry": {"coordinates": [-90.341007787, 41.671655528], "type": "Point"}, "id": "ynWj-zqjrS_KxpcEjj79jt_xQlo=", "properties": {"@spider": "usps_collection_boxes", "addr:city": "PRINCETON", "addr:country": "US", "addr:full": "634 HIGHWAY 67", "addr:postcode": "52768", "addr:state": "IA", "amenity": "post_box", "brand": "United States Postal Service", "brand:wikidata": "Q668687", "collection_times": "Mo-Sa 16:15", "name": "USPS COLLECTION BOX - BLUE BOX", "note": "ON 12/24 AND 12/31, THIS BOX MAY BE COLLECTED AS EARLY AS 12 NOON.", "nsi_id": "unitedstatespostalservice-a77078", "operator": "United States Postal Service", "operator:short": "USPS", "operator:type": "public", "operator:wikidata": "Q668687", "ref": "5276800000"}, "type": "Feature"}
{"dataset_attributes": {"@spider": "usps_collection_boxes", "spider:collection_time": "2023-11-13T08:26:09.210319"}, "geometry": {"coordinates": [-90.341007787, 41.671655528], "type": "Point"}, "id": "JKC2oIaw_hzfmR4mNYbhzTIwln8=", "properties": {"@spider": "usps_collection_boxes", "addr:city": "PRINCETON", "addr:country": "US", "addr:full": "634 HIGHWAY 67", "addr:postcode": "52768", "addr:state": "IA", "amenity": "post_box", "brand": "United States Postal Service", "brand:wikidata": "Q668687", "collection_times": "Mo-Fr 14:45", "name": "USPS COLLECTION BOX - PO LOBBY", "note": "ON 12/24 AND 12/31, THIS BOX MAY BE COLLECTED AS EARLY AS 12 NOON.", "nsi_id": "unitedstatespostalservice-a77078", "operator": "United States Postal Service", "operator:short": "USPS", "operator:type": "public", "operator:wikidata": "Q668687", "ref": "5276800001"}, "type": "Feature"}
{"dataset_attributes": {"@spider": "usps_collection_boxes", "spider:collection_time": "2023-11-13T08:26:09.210319"}, "geometry": {"coordinates": [-90.341007787, 41.671655528], "type": "Point"}, "id": "VVnl086gJeELFrUdyeTkDcYsCWU=", "properties": {"@spider": "usps_collection_boxes", "addr:city": "PRINCETON", "addr:country": "US", "addr:full": "634 HIGHWAY 67", "addr:postcode": "52768", "addr:state": "IA", "amenity": "post_box", "brand": "United States Postal Service", "brand:wikidata": "Q668687", "collection_times": "Mo-Fr 15:00; Sa 10:00", "name": "USPS COLLECTION BOX - PO LOBBY", "note": "ON 12/24 AND 12/31, THIS BOX MAY BE COLLECTED AS EARLY AS 12 NOON.", "nsi_id": "unitedstatespostalservice-a77078", "operator": "United States Postal Service", "operator:short": "USPS", "operator:type": "public", "operator:wikidata": "Q668687", "ref": "5276800002"}, "type": "Feature"}
{"dataset_attributes": {"@spider": "usps_collection_boxes", "spider:collection_time": "2023-11-13T08:26:09.210319"}, "geometry": {"coordinates": [-90.85437197, 41.590915479], "type": "Point"}, "id": "p0P_h-wBE3zZNjIMeAtxKzyd8tA=", "properties": {"@spider": "usps_collection_boxes", "addr:city": "STOCKTON", "addr:country": "US", "addr:full": "318 COMMERCE ST", "addr:postcode": "52769", "addr:state": "IA", "amenity": "post_box", "brand": "United States Postal Service", "brand:wikidata": "Q668687", "collection_times": "Mo-Fr 15:45", "name": "USPS COLLECTION BOX - BLUE BOX", "note": "ON 12/24 AND 12/31, THIS BOX MAY BE COLLECTED AS EARLY AS 12 NOON.", "nsi_id": "unitedstatespostalservice-a77078", "operator": "United States Postal Service", "operator:short": "USPS", "operator:type": "public", "operator:wikidata": "Q668687", "ref": "5276900000"}, "type": "Feature"}
{"dataset_attributes": {"@spider": "usps_collection_boxes", "spider:collection_time": "2023-11-13T08:26:09.210319"}, "geometry": {"coordinates": [-90.85437197, 41.590915479], "type": "Point"}, "id": "s6DHIScxn9z6GJFzqeSyH1AmCQ8=", "properties": {"@spider": "usps_collection_boxes", "addr:city": "STOCKTON", "addr:country": "US", "addr:full": "318 COMMERCE ST", "addr:postcode": "52769", "addr:state": "IA", "amenity": "post_box", "brand": "United States Postal Service", "brand:wikidata": "Q668687", "collection_times": "Mo-Fr 11:15; Sa 09:00", "name": "USPS COLLECTION BOX - PO LOBBY", "nsi_id": "unitedstatespostalservice-a77078", "operator": "United States Postal Service", "operator:short": "USPS", "operator:type": "public", "operator:wikidata": "Q668687", "ref": "5276900001"}, "type": "Feature"}
{"dataset_attributes": {"@spider": "usps_collection_boxes", "spider:collection_time": "2023-11-13T08:26:09.210319"}, "geometry": {"coordinates": [-90.85437197, 41.590915479], "type": "Point"}, "id": "zNq-zFrZ6OmW_gDbqHyX7LyGUJk=", "properties": {"@spider": "usps_collection_boxes", "addr:city": "STOCKTON", "addr:country": "US", "addr:full": "318 COMMERCE ST", "addr:postcode": "52769", "addr:state": "IA", "amenity": "post_box", "brand": "United States Postal Service", "brand:wikidata": "Q668687", "collection_times": "Mo-Fr 11:30; Sa 09:15", "name": "USPS COLLECTION BOX - PO LOBBY", "nsi_id": "unitedstatespostalservice-a77078", "operator": "United States Postal Service", "operator:short": "USPS", "operator:type": "public", "operator:wikidata": "Q668687", "ref": "5276900002"}, "type": "Feature"}
{"dataset_attributes": {"@spider": "usps_collection_boxes", "spider:collection_time": "2023-11-13T08:26:09.210319"}, "geometry": {"coordinates": [-91.128171563, 41.774202512], "type": "Point"}, "id": "WBupHPCN2EO1rSaxsxP9Vvf_8ak=", "properties": {"@spider": "usps_collection_boxes", "addr:city": "TIPTON", "addr:country": "US", "addr:full": "100 E 9TH ST", "addr:postcode": "52772", "addr:state": "IA", "amenity": "post_box", "brand": "United States Postal Service", "brand:wikidata": "Q668687", "collection_times": "Mo-Sa 14:30", "name": "USPS COLLECTION BOX - BLUE BOX", "note": "ON 12/24 AND 12/31, THIS BOX MAY BE COLLECTED AS EARLY AS 12 NOON.", "nsi_id": "unitedstatespostalservice-a77078", "operator": "United States Postal Service", "operator:short": "USPS", "operator:type": "public", "operator:wikidata": "Q668687", "ref": "5277200000"}, "type": "Feature"}
{"dataset_attributes": {"@spider": "usps_collection_boxes", "spider:collection_time": "2023-11-13T08:26:09.210319"}, "geometry": {"coordinates": [-91.128365643, 41.769477335], "type": "Point"}, "id": "wrtDe_Lw2n9RePAykFzPygBv72k=", "properties": {"@spider": "usps_collection_boxes", "addr:city": "TIPTON", "addr:country": "US", "addr:full": "400 CEDAR ST", "addr:postcode": "52772", "addr:state": "IA", "amenity": "post_box", "brand": "United States Postal Service", "brand:wikidata": "Q668687", "collection_times": "Mo-Sa 14:30", "name": "USPS COLLECTION BOX - BLUE BOX", "note": "ON 12/24 AND 12/31, THIS BOX MAY BE COLLECTED AS EARLY AS 12 NOON.", "nsi_id": "unitedstatespostalservice-a77078", "operator": "United States Postal Service", "operator:short": "USPS", "operator:type": "public", "operator:wikidata": "Q668687", "ref": "5277200001"}, "type": "Feature"}
{"dataset_attributes": {"@spider": "usps_collection_boxes", "spider:collection_time": "2023-11-13T08:26:09.210319"}, "geometry": {"coordinates": [-91.129826805, 41.770709665], "type": "Point"}, "id": "1pKD4srCMJ1kA6f2v-hk6yHUqDg=", "properties": {"@spider": "usps_collection_boxes", "addr:city": "TIPTON", "addr:country": "US", "addr:full": "509 LYNN ST", "addr:postcode": "52772", "addr:state": "IA", "amenity": "post_box", "brand": "United States Postal Service", "brand:wikidata": "Q668687", "collection_times": "Mo-Sa 16:30", "name": "USPS COLLECTION BOX - BLUE BOX", "note": "ON 12/24 AND 12/31, THIS BOX MAY BE COLLECTED AS EARLY AS 12 NOON.", "nsi_id": "unitedstatespostalservice-a77078", "operator": "United States Postal Service", "operator:short": "USPS", "operator:type": "public", "operator:wikidata": "Q668687", "ref": "5277200003"}, "type": "Feature"}
{"dataset_attributes": {"@spider": "usps_collection_boxes", "spider:collection_time": "2023-11-13T08:26:09.210319"}, "geometry": {"coordinates": [-91.12975413, 41.770809335], "type": "Point"}, "id": "JJMjKFkemFH23LaTgzeinJo1TFg=", "properties": {"@spider": "usps_collection_boxes", "addr:city": "TIPTON", "addr:country": "US", "addr:full": "512 LYNN ST", "addr:postcode": "52772", "addr:state": "IA", "amenity": "post_box", "brand": "United States Postal Service", "brand:wikidata": "Q668687", "collection_times": "Mo-Sa 16:45", "name": "USPS COLLECTION BOX - PO LOBBY", "note": "ON 12/24 AND 12/31, THIS BOX MAY BE COLLECTED AS EARLY AS 12 NOON.", "nsi_id": "unitedstatespostalservice-a77078", "operator": "United States Postal Service", "operator:short": "USPS", "operator:type": "public", "operator:wikidata": "Q668687", "ref": "5277200004"}, "type": "Feature"}
{"dataset_attributes": {"@spider": "usps_collection_boxes", "spider:collection_time": "2023-11-13T08:26:09.210319"}, "geometry": {"coordinates": [-91.12975413, 41.770809335], "type": "Point"}, "id": "CFz6fYH_VKGVT3n01y2Q8UKkanw=", "properties": {"@spider": "usps_collection_boxes", "addr:city": "TIPTON", "addr:country": "US", "addr:full": "512 LYNN ST", "addr:postcode": "52772", "addr:state": "IA", "amenity": "post_box", "brand": "United States Postal Service", "brand:wikidata": "Q668687", "collection_times": "Mo-Fr 16:30; Sa 12:00", "name": "USPS COLLECTION BOX - PO LOBBY", "note": "ON 12/24 AND 12/31, THIS BOX MAY BE COLLECTED AS EARLY AS 12 NOON.", "nsi_id": "unitedstatespostalservice-a77078", "operator": "United States Postal Service", "operator:short": "USPS", "operator:type": "public", "operator:wikidata": "Q668687", "ref": "5277200005"}, "type": "Feature"}
{"dataset_attributes": {"@spider": "usps_collection_boxes", "spider:collection_time": "2023-11-13T08:26:09.210319"}, "geometry": {"coordinates": [-90.774323727, 41.5847265], "type": "Point"}, "id": "9WbtVMlpF4oe492T2tmCOJ1vnMc=", "properties": {"@spider": "usps_collection_boxes", "addr:city": "WALCOTT", "addr:country": "US", "addr:full": "117 E BRYANT ST", "addr:postcode": "52773", "addr:state": "IA", "amenity": "post_box", "brand": "United States Postal Service", "brand:wikidata": "Q668687", "collection_times": "Mo-Sa 16:15", "name": "USPS COLLECTION BOX - BLUE BOX", "note": "ON 12/24 AND 12/31, THIS BOX MAY BE COLLECTED AS EARLY AS 12 NOON.", "nsi_id": "unitedstatespostalservice-a77078", "operator": "United States Postal Service", "operator:short": "USPS", "operator:type": "public", "operator:wikidata": "Q668687", "ref": "5277300000"}, "type": "Feature"}
{"dataset_attributes": {"@spider": "usps_collection_boxes", "spider:collection_time": "2023-11-13T08:26:09.210319"}, "geometry": {"coordinates": [-90.774323727, 41.5847265], "type": "Point"}, "id": "rWAOenGRRLJeNP-ZL7Ougs406RY=", "properties": {"@spider": "usps_collection_boxes", "addr:city": "WALCOTT", "addr:country": "US", "addr:full": "117 E BRYANT ST", "addr:postcode": "52773", "addr:state": "IA", "amenity": "post_box", "brand": "United States Postal Service", "brand:wikidata": "Q668687", "collection_times": "Mo-Fr 16:15", "name": "USPS COLLECTION BOX - PO LOBBY", "note": "ON 12/24 AND 12/31, THIS BOX MAY BE COLLECTED AS EARLY AS 12 NOON.", "nsi_id": "unitedstatespostalservice-a77078", "operator": "United States Postal Service", "operator:short": "USPS", "operator:type": "public", "operator:wikidata": "Q668687", "ref": "5277300001"}, "type": "Feature"}
{"dataset_attributes": {"@spider": "usps_collection_boxes", "spider:collection_time": "2023-11-13T08:26:09.210319"}, "geometry": {"coordinates": [-90.780624, 41.59649651], "type": "Point"}, "id": "W7WrOZjQyV2HIDSjUGPlcy6F6nA=", "properties": {"@spider": "usps_collection_boxes", "addr:city": "WALCOTT", "addr:country": "US", "addr:full": "781 W WALCOTT RD", "addr:postcode": "52773", "addr:state": "IA", "amenity": "post_box", "brand": "United States Postal Service", "brand:wikidata": "Q668687", "collection_times": "Mo-Sa 12:00", "name": "USPS COLLECTION BOX - BLUE BOX", "nsi_id": "unitedstatespostalservice-a77078", "operator": "United States Postal Service", "operator:short": "USPS", "operator:type": "public", "operator:wikidata": "Q668687", "ref": "5277300002"}, "type": "Feature"}
{"dataset_attributes": {"@spider": "usps_collection_boxes", "spider:collection_time": "2023-11-13T08:26:09.210319"}, "geometry": {"coordinates": [-90.781027421, 41.617223505], "type": "Point"}, "id": "JbXQD9bFkkn_V709YHFZ1Gjp6EY=", "properties": {"@spider": "usps_collection_boxes", "addr:city": "WALCOTT", "addr:country": "US", "addr:full": "755 W IOWA 80 RD", "addr:postcode": "52773", "addr:state": "IA", "amenity": "post_box", "brand": "United States Postal Service", "brand:wikidata": "Q668687", "collection_times": "Mo-Sa 12:00", "name": "USPS COLLECTION BOX - BLUE BOX", "nsi_id": "unitedstatespostalservice-a77078", "operator": "United States Postal Service", "operator:short": "USPS", "operator:type": "public", "operator:wikidata": "Q668687", "ref": "5277300003"}, "type": "Feature"}
{"dataset_attributes": {"@spider": "usps_collection_boxes", "spider:collection_time": "2023-11-13T08:26:09.210319"}, "geometry": {"coordinates": [-90.783111362, 41.6190645], "type": "Point"}, "id": "6J20ZrCdXsi5jLRFUzYqzr0dPNo=", "properties": {"@spider": "usps_collection_boxes", "addr:city": "WALCOTT", "addr:country": "US", "addr:full": "3500 N PLAINVIEW RD", "addr:postcode": "52773", "addr:state": "IA", "amenity": "post_box", "brand": "United States Postal Service", "brand:wikidata": "Q668687", "collection_times": "Mo-Sa 12:00", "name": "USPS COLLECTION BOX - BLUE BOX", "nsi_id": "unitedstatespostalservice-a77078", "operator": "United States Postal Service", "operator:short": "USPS", "operator:type": "public", "operator:wikidata": "Q668687", "ref": "5277300004"}, "type": "Feature"}
{"dataset_attributes": {"@spider": "usps_collection_boxes", "spider:collection_time": "2023-11-13T08:26:09.210319"}, "geometry": {"coordinates": [-90.774323727, 41.5847265], "type": "Point"}, "id": "cpk458I73gTGzvRjqwAfG1E3tbU=", "properties": {"@spider": "usps_collection_boxes", "addr:city": "WALCOTT", "addr:country": "US", "addr:full": "117 E BRYANT ST", "addr:postcode": "52773", "addr:state": "IA", "amenity": "post_box", "brand": "United States Postal Service", "brand:wikidata": "Q668687", "collection_times": "Mo-Fr 16:30; Sa 11:00", "name": "USPS COLLECTION BOX - PO LOBBY", "note": "ON 12/24 AND 12/31, THIS BOX MAY BE COLLECTED AS EARLY AS 12 NOON.", "nsi_id": "unitedstatespostalservice-a77078", "operator": "United States Postal Service", "operator:short": "USPS", "operator:type": "public", "operator:wikidata": "Q668687", "ref": "5277300005"}, "type": "Feature"}
{"dataset_attributes": {"@spider": "usps_collection_boxes", "spider:collection_time": "2023-11-13T08:26:09.210319"}, "geometry": {"coordinates": [-90.593810277, 41.909624453], "type": "Point"}, "id": "k6pqQQasiAknXZwPcMaqGdRBw1U=", "properties": {"@spider": "usps_collection_boxes", "addr:city": "WELTON", "addr:country": "US", "addr:full": "333 WELTON AVE", "addr:postcode": "52774", "addr:state": "IA", "amenity": "post_box", "brand": "United States Postal Service", "brand:wikidata": "Q668687", "collection_times": "Mo-Sa 16:30", "name": "USPS COLLECTION BOX - BLUE BOX", "note": "ON 12/24 AND 12/31, THIS BOX MAY BE COLLECTED AS EARLY AS 12 NOON.", "nsi_id": "unitedstatespostalservice-a77078", "operator": "United States Postal Service", "operator:short": "USPS", "operator:type": "public", "operator:wikidata": "Q668687", "ref": "5277400000"}, "type": "Feature"}
{"dataset_attributes": {"@spider": "usps_collection_boxes", "spider:collection_time": "2023-11-13T08:26:09.210319"}, "geometry": {"coordinates": [-91.2663870078, 41.583022015], "type": "Point"}, "id": "Il0ss6Kebs17m5uE-hTIgjSivTU=", "properties": {"@spider": "usps_collection_boxes", "addr:city": "WEST LIBERTY", "addr:country": "US", "addr:full": "402 W 15TH ST", "addr:postcode": "52776", "addr:state": "IA", "amenity": "post_box", "brand": "United States Postal Service", "brand:wikidata": "Q668687", "collection_times": "Mo-Sa 09:00", "name": "USPS COLLECTION BOX - BLUE BOX", "nsi_id": "unitedstatespostalservice-a77078", "operator": "United States Postal Service", "operator:short": "USPS", "operator:type": "public", "operator:wikidata": "Q668687", "ref": "5277600000"}, "type": "Feature"}
{"dataset_attributes": {"@spider": "usps_collection_boxes", "spider:collection_time": "2023-11-13T08:26:09.210319"}, "geometry": {"coordinates": [-91.263440441, 41.571130276], "type": "Point"}, "id": "ByoDzQEUBAo5mwpH4Dl56kdLlFg=", "properties": {"@spider": "usps_collection_boxes", "addr:city": "WEST LIBERTY", "addr:country": "US", "addr:full": "401 N CALHOUN ST", "addr:postcode": "52776", "addr:state": "IA", "amenity": "post_box", "brand": "United States Postal Service", "brand:wikidata": "Q668687", "collection_times": "Mo-Sa 13:15", "name": "USPS COLLECTION BOX - BLUE BOX", "note": "ON 12/24 AND 12/31, THIS BOX MAY BE COLLECTED AS EARLY AS 12 NOON.", "nsi_id": "unitedstatespostalservice-a77078", "operator": "United States Postal Service", "operator:short": "USPS", "operator:type": "public", "operator:wikidata": "Q668687", "ref": "5277600002"}, "type": "Feature"}
{"dataset_attributes": {"@spider": "usps_collection_boxes", "spider:collection_time": "2023-11-13T08:26:09.210319"}, "geometry": {"coordinates": [-91.26082871, 41.569163361], "type": "Point"}, "id": "wpd-qmHeaDMdS12BwVPuaAhM8_I=", "properties": {"@spider": "usps_collection_boxes", "addr:city": "WEST LIBERTY", "addr:country": "US", "addr:full": "203 N COLUMBUS ST", "addr:postcode": "52776", "addr:state": "IA", "amenity": "post_box", "brand": "United States Postal Service", "brand:wikidata": "Q668687", "collection_times": "Mo-Sa 16:00", "name": "USPS COLLECTION BOX - BLUE BOX", "note": "ON 12/24 AND 12/31, THIS BOX MAY BE COLLECTED AS EARLY AS 12 NOON.", "nsi_id": "unitedstatespostalservice-a77078", "operator": "United States Postal Service", "operator:short": "USPS", "operator:type": "public", "operator:wikidata": "Q668687", "ref": "5277600004"}, "type": "Feature"}
{"dataset_attributes": {"@spider": "usps_collection_boxes", "spider:collection_time": "2023-11-13T08:26:09.210319"}, "geometry": {"coordinates": [-91.26082871, 41.569163361], "type": "Point"}, "id": "BFb39SkRGKiHk5oOhMFDfKOVFoE=", "properties": {"@spider": "usps_collection_boxes", "addr:city": "WEST LIBERTY", "addr:country": "US", "addr:full": "203 N COLUMBUS ST", "addr:postcode": "52776", "addr:state": "IA", "amenity": "post_box", "brand": "United States Postal Service", "brand:wikidata": "Q668687", "collection_times": "Mo-Fr 16:00; Sa 11:00", "name": "USPS COLLECTION BOX - PO LOBBY", "note": "ON 12/24 AND 12/31, THIS BOX MAY BE COLLECTED AS EARLY AS 12 NOON.", "nsi_id": "unitedstatespostalservice-a77078", "operator": "United States Postal Service", "operator:short": "USPS", "operator:type": "public", "operator:wikidata": "Q668687", "ref": "5277600006"}, "type": "Feature"}
{"dataset_attributes": {"@spider": "usps_collection_boxes", "spider:collection_time": "2023-11-13T08:26:09.210319"}, "geometry": {"coordinates": [-91.26082871, 41.569163361], "type": "Point"}, "id": "kZdkv9yEcjlltlrtBjYaC2algzI=", "properties": {"@spider": "usps_collection_boxes", "addr:city": "WEST LIBERTY", "addr:country": "US", "addr:full": "203 N COLUMBUS ST", "addr:postcode": "52776", "addr:state": "IA", "amenity": "post_box", "brand": "United States Postal Service", "brand:wikidata": "Q668687", "collection_times": "Mo-Fr 16:00; Sa 11:00", "name": "USPS COLLECTION BOX - PO LOBBY", "note": "ON 12/24 AND 12/31, THIS BOX MAY BE COLLECTED AS EARLY AS 12 NOON.", "nsi_id": "unitedstatespostalservice-a77078", "operator": "United States Postal Service", "operator:short": "USPS", "operator:type": "public", "operator:wikidata": "Q668687", "ref": "5277600007"}, "type": "Feature"}
{"dataset_attributes": {"@spider": "usps_collection_boxes", "spider:collection_time": "2023-11-13T08:26:09.210319"}, "geometry": {"coordinates": [-90.838633914, 41.832315202], "type": "Point"}, "id": "yjlKjnUSCBXA6Gx0fcWpYJPJ9Ck=", "properties": {"@spider": "usps_collection_boxes", "addr:city": "WHEATLAND", "addr:country": "US", "addr:full": "104 S MAIN ST", "addr:postcode": "52777", "addr:state": "IA", "amenity": "post_box", "brand": "United States Postal Service", "brand:wikidata": "Q668687", "collection_times": "Mo-Sa 16:00", "name": "USPS COLLECTION BOX - BLUE BOX", "note": "ON 12/24 AND 12/31, THIS BOX MAY BE COLLECTED AS EARLY AS 12 NOON.", "nsi_id": "unitedstatespostalservice-a77078", "operator": "United States Postal Service", "operator:short": "USPS", "operator:type": "public", "operator:wikidata": "Q668687", "ref": "5277700000"}, "type": "Feature"}
{"dataset_attributes": {"@spider": "usps_collection_boxes", "spider:collection_time": "2023-11-13T08:26:09.210319"}, "geometry": {"coordinates": [-90.838633914, 41.832315202], "type": "Point"}, "id": "1xYquUsRKlpeqepUT1OUBPrsaCM=", "properties": {"@spider": "usps_collection_boxes", "addr:city": "WHEATLAND", "addr:country": "US", "addr:full": "104 S MAIN ST", "addr:postcode": "52777", "addr:state": "IA", "amenity": "post_box", "brand": "United States Postal Service", "brand:wikidata": "Q668687", "collection_times": "Mo-Fr 13:45; Sa 08:00", "name": "USPS COLLECTION BOX - PO LOBBY", "note": "ON 12/24 AND 12/31, THIS BOX MAY BE COLLECTED AS EARLY AS 12 NOON.", "nsi_id": "unitedstatespostalservice-a77078", "operator": "United States Postal Service", "operator:short": "USPS", "operator:type": "public", "operator:wikidata": "Q668687", "ref": "5277700001"}, "type": "Feature"}
{"dataset_attributes": {"@spider": "usps_collection_boxes", "spider:collection_time": "2023-11-13T08:26:09.210319"}, "geometry": {"coordinates": [-90.838633914, 41.832315202], "type": "Point"}, "id": "tM1H8Q5_YUcs9zaZW5wk35L3u0A=", "properties": {"@spider": "usps_collection_boxes", "addr:city": "WHEATLAND", "addr:country": "US", "addr:full": "104 S MAIN ST", "addr:postcode": "52777", "addr:state": "IA", "amenity": "post_box", "brand": "United States Postal Service", "brand:wikidata": "Q668687", "collection_times": "Mo-Fr 14:00; Sa 09:45", "name": "USPS COLLECTION BOX - PO LOBBY", "note": "ON 12/24 AND 12/31, THIS BOX MAY BE COLLECTED AS EARLY AS 12 NOON.", "nsi_id": "unitedstatespostalservice-a77078", "operator": "United States Postal Service", "operator:short": "USPS", "operator:type": "public", "operator:wikidata": "Q668687", "ref": "5277700002"}, "type": "Feature"}
{"dataset_attributes": {"@spider": "usps_collection_boxes", "spider:collection_time": "2023-11-13T08:26:09.210319"}, "geometry": {"coordinates": [-91.0157805, 41.588705496], "type": "Point"}, "id": "Mx4dtJZC0ThoQIaj-o5al8QN-2w=", "properties": {"@spider": "usps_collection_boxes", "addr:city": "WILTON", "addr:country": "US", "addr:full": "118 E 4TH ST", "addr:postcode": "52778", "addr:state": "IA", "amenity": "post_box", "brand": "United States Postal Service", "brand:wikidata": "Q668687", "collection_times": "Mo-Sa 16:30", "name": "USPS COLLECTION BOX - BLUE BOX", "note": "ON 12/24 AND 12/31, THIS BOX MAY BE COLLECTED AS EARLY AS 12 NOON.", "nsi_id": "unitedstatespostalservice-a77078", "operator": "United States Postal Service", "operator:short": "USPS", "operator:type": "public", "operator:wikidata": "Q668687", "ref": "5277800001"}, "type": "Feature"}
{"dataset_attributes": {"@spider": "usps_collection_boxes", "spider:collection_time": "2023-11-13T08:26:09.210319"}, "geometry": {"coordinates": [-91.0157805, 41.588705496], "type": "Point"}, "id": "vjq-vGGllRHh_npu9Amfe8bFGUU=", "properties": {"@spider": "usps_collection_boxes", "addr:city": "WILTON", "addr:country": "US", "addr:full": "118 E 4TH ST", "addr:postcode": "52778", "addr:state": "IA", "amenity": "post_box", "brand": "United States Postal Service", "brand:wikidata": "Q668687", "collection_times": "Mo-Fr 16:30; Sa 12:00", "name": "USPS COLLECTION BOX - PO LOBBY", "note": "ON 12/24 AND 12/31, THIS BOX MAY BE COLLECTED AS EARLY AS 12 NOON.", "nsi_id": "unitedstatespostalservice-a77078", "operator": "United States Postal Service", "operator:short": "USPS", "operator:type": "public", "operator:wikidata": "Q668687", "ref": "5277800002"}, "type": "Feature"}
{"dataset_attributes": {"@spider": "usps_collection_boxes", "spider:collection_time": "2023-11-13T08:26:09.210319"}, "geometry": {"coordinates": [-91.0157805, 41.588705496], "type": "Point"}, "id": "draXISgqRbhHzaUQSSqBss12C_U=", "properties": {"@spider": "usps_collection_boxes", "addr:city": "WILTON", "addr:country": "US", "addr:full": "118 E 4TH ST", "addr:postcode": "52778", "addr:state": "IA", "amenity": "post_box", "brand": "United States Postal Service", "brand:wikidata": "Q668687", "collection_times": "Mo-Fr 17:00; Sa 12:00", "name": "USPS COLLECTION BOX - PO LOBBY", "note": "ON 12/24 AND 12/31, THIS BOX MAY BE COLLECTED AS EARLY AS 12 NOON.", "nsi_id": "unitedstatespostalservice-a77078", "operator": "United States Postal Service", "operator:short": "USPS", "operator:type": "public", "operator:wikidata": "Q668687", "ref": "5277800003"}, "type": "Feature"}
