{"dataset_attributes": {"@spider": "usps_collection_boxes", "spider:collection_time": "2023-12-25T08:25:18.404837"}, "geometry": {"coordinates": [-90.577651332, 41.523480503], "type": "Point"}, "id": "g886_Vw9VyvvM_YwNaa_7Khtk7c=", "properties": {"@spider": "usps_collection_boxes", "addr:city": "DAVENPORT", "addr:country": "US", "addr:full": "317 W 4TH ST", "addr:postcode": "52801", "addr:state": "IA", "amenity": "post_box", "brand": "United States Postal Service", "brand:wikidata": "Q668687", "collection_times": "Mo-Fr 17:00", "name": "USPS COLLECTION BOX - BLUE BOX", "note": "ON 12/24 AND 12/31, THIS BOX MAY BE COLLECTED AS EARLY AS 12 NOON.", "nsi_id": "unitedstatespostalservice-a77078", "operator": "United States Postal Service", "operator:short": "USPS", "operator:type": "public", "operator:wikidata": "Q668687", "ref": "5280100006"}, "type": "Feature"}
{"dataset_attributes": {"@spider": "usps_collection_boxes", "spider:collection_time": "2023-12-25T08:25:18.404837"}, "geometry": {"coordinates": [-90.57561006, 41.522122037], "type": "Point"}, "id": "DQ7c0z0kxvcF0XS9iN5_XOReQRI=", "properties": {"@spider": "usps_collection_boxes", "addr:city": "DAVENPORT", "addr:country": "US", "addr:full": "220 N MAIN ST", "addr:postcode": "52801", "addr:state": "IA", "amenity": "post_box", "brand": "United States Postal Service", "brand:wikidata": "Q668687", "collection_times": "Mo-Fr 17:00", "name": "USPS COLLECTION BOX - BLUE BOX", "note": "ON 12/24 AND 12/31, THIS BOX MAY BE COLLECTED AS EARLY AS 12 NOON.", "nsi_id": "unitedstatespostalservice-a77078", "operator": "United States Postal Service", "operator:short": "USPS", "operator:type": "public", "operator:wikidata": "Q668687", "ref": "5280100008"}, "type": "Feature"}
{"dataset_attributes": {"@spider": "usps_collection_boxes", "spider:collection_time": "2023-12-25T08:25:18.404837"}, "geometry": {"coordinates": [-90.577480668, 41.522432543], "type": "Point"}, "id": "iU8y8Ge0zllJpzdWs2XWpDD-rp4=", "properties": {"@spider": "usps_collection_boxes", "addr:city": "DAVENPORT", "addr:country": "US", "addr:full": "331 W 3RD ST", "addr:postcode": "52801", "addr:state": "IA", "amenity": "post_box", "brand": "United States Postal Service", "brand:wikidata": "Q668687", "collection_times": "Mo-Fr 17:00", "name": "USPS COLLECTION BOX - BLUE BOX", "note": "ON 12/24 AND 12/31, THIS BOX MAY BE COLLECTED AS EARLY AS 12 NOON.", "nsi_id": "unitedstatespostalservice-a77078", "operator": "United States Postal Service", "operator:short": "USPS", "operator:type": "public", "operator:wikidata": "Q668687", "ref": "5280100018"}, "type": "Feature"}
{"dataset_attributes": {"@spider": "usps_collection_boxes", "spider:collection_time": "2023-12-25T08:25:18.404837"}, "geometry": {"coordinates": [-90.576652112, 41.521316484], "type": "Point"}, "id": "yPl1J5BYBlax0T4Wleky-TPSGDI=", "properties": {"@spider": "usps_collection_boxes", "addr:city": "DAVENPORT", "addr:country": "US", "addr:full": "225 W 2ND ST", "addr:postcode": "52801", "addr:state": "IA", "amenity": "post_box", "brand": "United States Postal Service", "brand:wikidata": "Q668687", "collection_times": "Mo-Fr 17:00", "name": "USPS COLLECTION BOX - BLUE BOX", "note": "ON 12/24 AND 12/31, THIS BOX MAY BE COLLECTED AS EARLY AS 12 NOON.", "nsi_id": "unitedstatespostalservice-a77078", "operator": "United States Postal Service", "operator:short": "USPS", "operator:type": "public", "operator:wikidata": "Q668687", "ref": "5280100020"}, "type": "Feature"}
{"dataset_attributes": {"@spider": "usps_collection_boxes", "spider:collection_time": "2023-12-25T08:25:18.404837"}, "geometry": {"coordinates": [-90.5741621563, 41.5205877172], "type": "Point"}, "id": "0060uYIuKuX0OReISS4DUJgtUHg=", "properties": {"@spider": "usps_collection_boxes", "addr:city": "DAVENPORT", "addr:country": "US", "addr:full": "130 BRADY ST", "addr:postcode": "52801", "addr:state": "IA", "amenity": "post_box", "brand": "United States Postal Service", "brand:wikidata": "Q668687", "collection_times": "Mo-Fr 15:00", "name": "USPS COLLECTION BOX - BLUE BOX", "note": "ON 12/24 AND 12/31, THIS BOX MAY BE COLLECTED AS EARLY AS 12 NOON.", "nsi_id": "unitedstatespostalservice-a77078", "operator": "United States Postal Service", "operator:short": "USPS", "operator:type": "public", "operator:wikidata": "Q668687", "ref": "5280100023"}, "type": "Feature"}
{"dataset_attributes": {"@spider": "usps_collection_boxes", "spider:collection_time": "2023-12-25T08:25:18.404837"}, "geometry": {"coordinates": [-90.5873210032, 41.5208010103], "type": "Point"}, "id": "C8etakMbB-QNrGm4c23LO5-ArRA=", "properties": {"@spider": "usps_collection_boxes", "addr:city": "DAVENPORT", "addr:country": "US", "addr:full": "933 W. 2ND ST.", "addr:postcode": "52801", "addr:state": "IA", "amenity": "post_box", "brand": "United States Postal Service", "brand:wikidata": "Q668687", "collection_times": "Mo-Fr 17:00; Sa 13:00", "name": "USPS COLLECTION BOX - PO LOBBY", "note": "ON 12/24 AND 12/31, THIS BOX MAY BE COLLECTED AS EARLY AS 12 NOON.", "nsi_id": "unitedstatespostalservice-a77078", "operator": "United States Postal Service", "operator:short": "USPS", "operator:type": "public", "operator:wikidata": "Q668687", "ref": "5280100041"}, "type": "Feature"}
{"dataset_attributes": {"@spider": "usps_collection_boxes", "spider:collection_time": "2023-12-25T08:25:18.404837"}, "geometry": {"coordinates": [-90.620756297, 41.510471609], "type": "Point"}, "id": "QpdH777uvI8P09rCHBCTIzT8UQo=", "properties": {"@spider": "usps_collection_boxes", "addr:city": "DAVENPORT", "addr:country": "US", "addr:full": "3019 ROCKINGHAM RD", "addr:postcode": "52802", "addr:state": "IA", "amenity": "post_box", "brand": "United States Postal Service", "brand:wikidata": "Q668687", "collection_times": "Mo-Sa 14:00", "name": "USPS COLLECTION BOX - BLUE BOX", "note": "ON 12/24 AND 12/31, THIS BOX MAY BE COLLECTED AS EARLY AS 12 NOON.", "nsi_id": "unitedstatespostalservice-a77078", "operator": "United States Postal Service", "operator:short": "USPS", "operator:type": "public", "operator:wikidata": "Q668687", "ref": "5280200004"}, "type": "Feature"}
{"dataset_attributes": {"@spider": "usps_collection_boxes", "spider:collection_time": "2023-12-25T08:25:18.404837"}, "geometry": {"coordinates": [-90.5873210032, 41.5208010103], "type": "Point"}, "id": "R7RjFeVfsuWpR07Az1WuAMeoXbA=", "properties": {"@spider": "usps_collection_boxes", "addr:city": "DAVENPORT", "addr:country": "US", "addr:full": "933 W 2ND ST", "addr:postcode": "52802", "addr:state": "IA", "amenity": "post_box", "brand": "United States Postal Service", "brand:wikidata": "Q668687", "collection_times": "Mo-Sa 17:30", "name": "USPS COLLECTION BOX - BLUE BOX", "note": "ON 12/24 AND 12/31, THIS BOX MAY BE COLLECTED AS EARLY AS 12 NOON.", "nsi_id": "unitedstatespostalservice-a77078", "operator": "United States Postal Service", "operator:short": "USPS", "operator:type": "public", "operator:wikidata": "Q668687", "ref": "5280200011"}, "type": "Feature"}
{"dataset_attributes": {"@spider": "usps_collection_boxes", "spider:collection_time": "2023-12-25T08:25:18.404837"}, "geometry": {"coordinates": [-90.5873210032, 41.5208010103], "type": "Point"}, "id": "kxsoIO7HDPS5fEM26WzTwJ6P-TM=", "properties": {"@spider": "usps_collection_boxes", "addr:city": "DAVENPORT", "addr:country": "US", "addr:full": "933 W 2ND ST", "addr:postcode": "52802", "addr:state": "IA", "amenity": "post_box", "brand": "United States Postal Service", "brand:wikidata": "Q668687", "collection_times": "Mo-Sa 17:30", "name": "USPS COLLECTION BOX - PO LOBBY", "note": "ON 12/24 AND 12/31, THIS BOX MAY BE COLLECTED AS EARLY AS 12 NOON.", "nsi_id": "unitedstatespostalservice-a77078", "operator": "United States Postal Service", "operator:short": "USPS", "operator:type": "public", "operator:wikidata": "Q668687", "ref": "5280200017"}, "type": "Feature"}
{"dataset_attributes": {"@spider": "usps_collection_boxes", "spider:collection_time": "2023-12-25T08:25:18.404837"}, "geometry": {"coordinates": [-90.5873210032, 41.5208010103], "type": "Point"}, "id": "u8r2KoPWNg4Rmea3XptXslfMDT8=", "properties": {"@spider": "usps_collection_boxes", "addr:city": "DAVENPORT", "addr:country": "US", "addr:full": "933 W 2ND ST", "addr:postcode": "52802", "addr:state": "IA", "amenity": "post_box", "brand": "United States Postal Service", "brand:wikidata": "Q668687", "collection_times": "Mo-Sa 17:30", "name": "USPS COLLECTION BOX - BLUE BOX", "note": "ON 12/24 AND 12/31, THIS BOX MAY BE COLLECTED AS EARLY AS 12 NOON.", "nsi_id": "unitedstatespostalservice-a77078", "operator": "United States Postal Service", "operator:short": "USPS", "operator:type": "public", "operator:wikidata": "Q668687", "ref": "5280200019"}, "type": "Feature"}
{"dataset_attributes": {"@spider": "usps_collection_boxes", "spider:collection_time": "2023-12-25T08:25:18.404837"}, "geometry": {"coordinates": [-90.5873210032, 41.5208010103], "type": "Point"}, "id": "D3AGmXKNpdkT4cMjEp1J59pBrR8=", "properties": {"@spider": "usps_collection_boxes", "addr:city": "DAVENPORT", "addr:country": "US", "addr:full": "933 W 2ND ST", "addr:postcode": "52802", "addr:state": "IA", "amenity": "post_box", "brand": "United States Postal Service", "brand:wikidata": "Q668687", "collection_times": "Mo-Sa 17:30", "name": "USPS COLLECTION BOX - BLUE BOX", "note": "ON 12/24 AND 12/31, THIS BOX MAY BE COLLECTED AS EARLY AS 12 NOON.", "nsi_id": "unitedstatespostalservice-a77078", "operator": "United States Postal Service", "operator:short": "USPS", "operator:type": "public", "operator:wikidata": "Q668687", "ref": "5280200020"}, "type": "Feature"}
{"dataset_attributes": {"@spider": "usps_collection_boxes", "spider:collection_time": "2023-12-25T08:25:18.404837"}, "geometry": {"coordinates": [-90.5634930127, 41.525298991], "type": "Point"}, "id": "K_oio5cZCLBVBtnN8rtfqmtI1zU=", "properties": {"@spider": "usps_collection_boxes", "addr:city": "DAVENPORT", "addr:country": "US", "addr:full": "736 FEDERAL ST", "addr:postcode": "52803", "addr:state": "IA", "amenity": "post_box", "brand": "United States Postal Service", "brand:wikidata": "Q668687", "collection_times": "Mo-Fr 15:00; Sa 15:30", "name": "USPS COLLECTION BOX - BLUE BOX", "note": "ON 12/24 AND 12/31, THIS BOX MAY BE COLLECTED AS EARLY AS 12 NOON.", "nsi_id": "unitedstatespostalservice-a77078", "operator": "United States Postal Service", "operator:short": "USPS", "operator:type": "public", "operator:wikidata": "Q668687", "ref": "5280300000"}, "type": "Feature"}
{"dataset_attributes": {"@spider": "usps_collection_boxes", "spider:collection_time": "2023-12-25T08:25:18.404837"}, "geometry": {"coordinates": [-90.5461200096, 41.53066299], "type": "Point"}, "id": "kaebTVXk8BBJwUk0qtrBcOTaZrg=", "properties": {"@spider": "usps_collection_boxes", "addr:city": "DAVENPORT", "addr:country": "US", "addr:full": "1019 MOUND ST", "addr:postcode": "52803", "addr:state": "IA", "amenity": "post_box", "brand": "United States Postal Service", "brand:wikidata": "Q668687", "collection_times": "Mo-Sa 14:30", "name": "USPS COLLECTION BOX - BLUE BOX", "note": "ON 12/24 AND 12/31, THIS BOX MAY BE COLLECTED AS EARLY AS 12 NOON.", "nsi_id": "unitedstatespostalservice-a77078", "operator": "United States Postal Service", "operator:short": "USPS", "operator:type": "public", "operator:wikidata": "Q668687", "ref": "5280300002"}, "type": "Feature"}
{"dataset_attributes": {"@spider": "usps_collection_boxes", "spider:collection_time": "2023-12-25T08:25:18.404837"}, "geometry": {"coordinates": [-90.557541084, 41.542851457], "type": "Point"}, "id": "ANpg8gUPYaW05KacN4v92TpBp8s=", "properties": {"@spider": "usps_collection_boxes", "addr:city": "DAVENPORT", "addr:country": "US", "addr:full": "1228 E RUSHOLME ST", "addr:postcode": "52803", "addr:state": "IA", "amenity": "post_box", "brand": "United States Postal Service", "brand:wikidata": "Q668687", "collection_times": "Mo-Fr 17:00", "name": "USPS COLLECTION BOX - BLUE BOX", "note": "ON 12/24 AND 12/31, THIS BOX MAY BE COLLECTED AS EARLY AS 12 NOON.", "nsi_id": "unitedstatespostalservice-a77078", "operator": "United States Postal Service", "operator:short": "USPS", "operator:type": "public", "operator:wikidata": "Q668687", "ref": "5280300006"}, "type": "Feature"}
{"dataset_attributes": {"@spider": "usps_collection_boxes", "spider:collection_time": "2023-12-25T08:25:18.404837"}, "geometry": {"coordinates": [-90.5730400004, 41.5359030205], "type": "Point"}, "id": "WhLB_lUA3W87Cx6hx70fMOGsshw=", "properties": {"@spider": "usps_collection_boxes", "addr:city": "DAVENPORT", "addr:country": "US", "addr:full": "125 KIRKWOOD BLVD", "addr:postcode": "52803", "addr:state": "IA", "amenity": "post_box", "brand": "United States Postal Service", "brand:wikidata": "Q668687", "collection_times": "Mo-Fr 15:00", "name": "USPS COLLECTION BOX - BLUE BOX", "note": "ON 12/24 AND 12/31, THIS BOX MAY BE COLLECTED AS EARLY AS 12 NOON.", "nsi_id": "unitedstatespostalservice-a77078", "operator": "United States Postal Service", "operator:short": "USPS", "operator:type": "public", "operator:wikidata": "Q668687", "ref": "5280300009"}, "type": "Feature"}
{"dataset_attributes": {"@spider": "usps_collection_boxes", "spider:collection_time": "2023-12-25T08:25:18.404837"}, "geometry": {"coordinates": [-90.551520686, 41.546582445], "type": "Point"}, "id": "TaAXYtUMG3OwiEXgSs3BUbZVkU8=", "properties": {"@spider": "usps_collection_boxes", "addr:city": "DAVENPORT", "addr:country": "US", "addr:full": "2804 EASTERN AVE", "addr:postcode": "52803", "addr:state": "IA", "amenity": "post_box", "brand": "United States Postal Service", "brand:wikidata": "Q668687", "collection_times": "Mo-Fr 15:00", "name": "USPS COLLECTION BOX - BLUE BOX", "note": "ON 12/24 AND 12/31, THIS BOX MAY BE COLLECTED AS EARLY AS 12 NOON.", "nsi_id": "unitedstatespostalservice-a77078", "operator": "United States Postal Service", "operator:short": "USPS", "operator:type": "public", "operator:wikidata": "Q668687", "ref": "5280300014"}, "type": "Feature"}
{"dataset_attributes": {"@spider": "usps_collection_boxes", "spider:collection_time": "2023-12-25T08:25:18.404837"}, "geometry": {"coordinates": [-90.564619068, 41.549042515], "type": "Point"}, "id": "W00i4VbuCeTDciSurlHh9QpVQ74=", "properties": {"@spider": "usps_collection_boxes", "addr:city": "DAVENPORT", "addr:country": "US", "addr:full": "2830 GRAND AVE", "addr:postcode": "52803", "addr:state": "IA", "amenity": "post_box", "brand": "United States Postal Service", "brand:wikidata": "Q668687", "collection_times": "Mo-Sa 10:00", "name": "USPS COLLECTION BOX - BLUE BOX", "nsi_id": "unitedstatespostalservice-a77078", "operator": "United States Postal Service", "operator:short": "USPS", "operator:type": "public", "operator:wikidata": "Q668687", "ref": "5280300016"}, "type": "Feature"}
{"dataset_attributes": {"@spider": "usps_collection_boxes", "spider:collection_time": "2023-12-25T08:25:18.404837"}, "geometry": {"coordinates": [-90.542874402, 41.542624651], "type": "Point"}, "id": "p049QpNpVfp-9tZ0-k-zXWnU-ts=", "properties": {"@spider": "usps_collection_boxes", "addr:city": "DAVENPORT", "addr:country": "US", "addr:full": "2356 E LOMBARD ST", "addr:postcode": "52803", "addr:state": "IA", "amenity": "post_box", "brand": "United States Postal Service", "brand:wikidata": "Q668687", "collection_times": "Mo-Sa 14:00", "name": "USPS COLLECTION BOX - BLUE BOX", "note": "ON 12/24 AND 12/31, THIS BOX MAY BE COLLECTED AS EARLY AS 12 NOON.", "nsi_id": "unitedstatespostalservice-a77078", "operator": "United States Postal Service", "operator:short": "USPS", "operator:type": "public", "operator:wikidata": "Q668687", "ref": "5280300018"}, "type": "Feature"}
{"dataset_attributes": {"@spider": "usps_collection_boxes", "spider:collection_time": "2023-12-25T08:25:18.404837"}, "geometry": {"coordinates": [-90.570947489, 41.548975901], "type": "Point"}, "id": "nBrv-SncNu2wUgN4M5mCCHdHG5U=", "properties": {"@spider": "usps_collection_boxes", "addr:city": "DAVENPORT", "addr:country": "US", "addr:full": "2829 BRADY ST", "addr:postcode": "52803", "addr:state": "IA", "amenity": "post_box", "brand": "United States Postal Service", "brand:wikidata": "Q668687", "collection_times": "Mo-Fr 16:30", "name": "USPS COLLECTION BOX - BLUE BOX", "note": "ON 12/24 AND 12/31, THIS BOX MAY BE COLLECTED AS EARLY AS 12 NOON.", "nsi_id": "unitedstatespostalservice-a77078", "operator": "United States Postal Service", "operator:short": "USPS", "operator:type": "public", "operator:wikidata": "Q668687", "ref": "5280300026"}, "type": "Feature"}
{"dataset_attributes": {"@spider": "usps_collection_boxes", "spider:collection_time": "2023-12-25T08:25:18.404837"}, "geometry": {"coordinates": [-90.557541084, 41.542851457], "type": "Point"}, "id": "Wcg1aFTPflnwUSHGuDsrHbP963Y=", "properties": {"@spider": "usps_collection_boxes", "addr:city": "DAVENPORT", "addr:country": "US", "addr:full": "1228 E RUSHOLME ST", "addr:postcode": "52803", "addr:state": "IA", "amenity": "post_box", "brand": "United States Postal Service", "brand:wikidata": "Q668687", "collection_times": "Mo-Fr 17:00", "name": "USPS COLLECTION BOX - BLUE BOX", "note": "ON 12/24 AND 12/31, THIS BOX MAY BE COLLECTED AS EARLY AS 12 NOON.", "nsi_id": "unitedstatespostalservice-a77078", "operator": "United States Postal Service", "operator:short": "USPS", "operator:type": "public", "operator:wikidata": "Q668687", "ref": "5280300037"}, "type": "Feature"}
{"dataset_attributes": {"@spider": "usps_collection_boxes", "spider:collection_time": "2023-12-25T08:25:18.404837"}, "geometry": {"coordinates": [-90.592740807, 41.545466478], "type": "Point"}, "id": "iADK7jE99uBVJ2p_d5fCRZdB16U=", "properties": {"@spider": "usps_collection_boxes", "addr:city": "DAVENPORT", "addr:country": "US", "addr:full": "1351 W CENTRAL PARK AVE", "addr:postcode": "52804", "addr:state": "IA", "amenity": "post_box", "brand": "United States Postal Service", "brand:wikidata": "Q668687", "collection_times": "Mo-Fr 15:00", "name": "USPS COLLECTION BOX - BLUE BOX", "note": "ON 12/24 AND 12/31, THIS BOX MAY BE COLLECTED AS EARLY AS 12 NOON.", "nsi_id": "unitedstatespostalservice-a77078", "operator": "United States Postal Service", "operator:short": "USPS", "operator:type": "public", "operator:wikidata": "Q668687", "ref": "5280400001"}, "type": "Feature"}
{"dataset_attributes": {"@spider": "usps_collection_boxes", "spider:collection_time": "2023-12-25T08:25:18.404837"}, "geometry": {"coordinates": [-90.6314659727, 41.551683001], "type": "Point"}, "id": "nYZOqOhaFVcvRfJ7eAZ2tdwjuJs=", "properties": {"@spider": "usps_collection_boxes", "addr:city": "DAVENPORT", "addr:country": "US", "addr:full": "3000 N FAIRMOUNT ST", "addr:postcode": "52804", "addr:state": "IA", "amenity": "post_box", "brand": "United States Postal Service", "brand:wikidata": "Q668687", "collection_times": "Mo-Sa 14:00", "name": "USPS COLLECTION BOX - BLUE BOX", "note": "ON 12/24 AND 12/31, THIS BOX MAY BE COLLECTED AS EARLY AS 12 NOON.", "nsi_id": "unitedstatespostalservice-a77078", "operator": "United States Postal Service", "operator:short": "USPS", "operator:type": "public", "operator:wikidata": "Q668687", "ref": "5280400002"}, "type": "Feature"}
{"dataset_attributes": {"@spider": "usps_collection_boxes", "spider:collection_time": "2023-12-25T08:25:18.404837"}, "geometry": {"coordinates": [-90.6215380275, 41.5186989966], "type": "Point"}, "id": "zLEEuYPYJ4z_J_0K7uGqGOvCjHY=", "properties": {"@spider": "usps_collection_boxes", "addr:city": "DAVENPORT", "addr:country": "US", "addr:full": "2805 TELEGRAPH RD", "addr:postcode": "52804", "addr:state": "IA", "amenity": "post_box", "brand": "United States Postal Service", "brand:wikidata": "Q668687", "collection_times": "Mo-Sa 11:45", "name": "USPS COLLECTION BOX - BLUE BOX", "nsi_id": "unitedstatespostalservice-a77078", "operator": "United States Postal Service", "operator:short": "USPS", "operator:type": "public", "operator:wikidata": "Q668687", "ref": "5280400009"}, "type": "Feature"}
{"dataset_attributes": {"@spider": "usps_collection_boxes", "spider:collection_time": "2023-12-25T08:25:18.404837"}, "geometry": {"coordinates": [-90.617262098, 41.538211476], "type": "Point"}, "id": "S8_EzSFCX9j01_JikybGP7PcwMc=", "properties": {"@spider": "usps_collection_boxes", "addr:city": "DAVENPORT", "addr:country": "US", "addr:full": "2720 W LOCUST ST", "addr:postcode": "52804", "addr:state": "IA", "amenity": "post_box", "brand": "United States Postal Service", "brand:wikidata": "Q668687", "collection_times": "Mo-Fr 15:00", "name": "USPS COLLECTION BOX - BLUE BOX", "note": "ON 12/24 AND 12/31, THIS BOX MAY BE COLLECTED AS EARLY AS 12 NOON.", "nsi_id": "unitedstatespostalservice-a77078", "operator": "United States Postal Service", "operator:short": "USPS", "operator:type": "public", "operator:wikidata": "Q668687", "ref": "5280400015"}, "type": "Feature"}
{"dataset_attributes": {"@spider": "usps_collection_boxes", "spider:collection_time": "2023-12-25T08:25:18.404837"}, "geometry": {"coordinates": [-90.617262098, 41.538211476], "type": "Point"}, "id": "kuHrBqBfbnuB6Z3AZmmpXvC2O5E=", "properties": {"@spider": "usps_collection_boxes", "addr:city": "DAVENPORT", "addr:country": "US", "addr:full": "2720 W LOCUST ST", "addr:postcode": "52804", "addr:state": "IA", "amenity": "post_box", "brand": "United States Postal Service", "brand:wikidata": "Q668687", "collection_times": "Mo-Fr 15:00", "name": "USPS COLLECTION BOX - BLUE BOX", "note": "ON 12/24 AND 12/31, THIS BOX MAY BE COLLECTED AS EARLY AS 12 NOON.", "nsi_id": "unitedstatespostalservice-a77078", "operator": "United States Postal Service", "operator:short": "USPS", "operator:type": "public", "operator:wikidata": "Q668687", "ref": "5280400021"}, "type": "Feature"}
{"dataset_attributes": {"@spider": "usps_collection_boxes", "spider:collection_time": "2023-12-25T08:25:18.404837"}, "geometry": {"coordinates": [-90.6314659727, 41.551683001], "type": "Point"}, "id": "Yib-GlHWNm0AvBp2WtXrrAZG6HM=", "properties": {"@spider": "usps_collection_boxes", "addr:city": "DAVENPORT", "addr:country": "US", "addr:full": "3000 N FAIRMOUNT ST", "addr:postcode": "52804", "addr:state": "IA", "amenity": "post_box", "brand": "United States Postal Service", "brand:wikidata": "Q668687", "collection_times": "Mo-Sa 14:00", "name": "USPS COLLECTION BOX - BLUE BOX", "note": "ON 12/24 AND 12/31, THIS BOX MAY BE COLLECTED AS EARLY AS 12 NOON.", "nsi_id": "unitedstatespostalservice-a77078", "operator": "United States Postal Service", "operator:short": "USPS", "operator:type": "public", "operator:wikidata": "Q668687", "ref": "5280400022"}, "type": "Feature"}
{"dataset_attributes": {"@spider": "usps_collection_boxes", "spider:collection_time": "2023-12-25T08:25:18.404837"}, "geometry": {"coordinates": [-90.627070332, 41.541789457], "type": "Point"}, "id": "ZEgIAiTG0cbMJqHVRK7OxFprQ3w=", "properties": {"@spider": "usps_collection_boxes", "addr:city": "DAVENPORT", "addr:country": "US", "addr:full": "3422 W LOMBARD ST", "addr:postcode": "52804", "addr:state": "IA", "amenity": "post_box", "brand": "United States Postal Service", "brand:wikidata": "Q668687", "collection_times": "Mo-Sa 11:00", "name": "USPS COLLECTION BOX - BLUE BOX", "nsi_id": "unitedstatespostalservice-a77078", "operator": "United States Postal Service", "operator:short": "USPS", "operator:type": "public", "operator:wikidata": "Q668687", "ref": "5280400024"}, "type": "Feature"}
{"dataset_attributes": {"@spider": "usps_collection_boxes", "spider:collection_time": "2023-12-25T08:25:18.404837"}, "geometry": {"coordinates": [-90.595731305, 41.538256457], "type": "Point"}, "id": "VR90--RlqpTYuTjjaIjBC8l3_Lo=", "properties": {"@spider": "usps_collection_boxes", "addr:city": "DAVENPORT", "addr:country": "US", "addr:full": "1454 W LOCUST ST", "addr:postcode": "52804", "addr:state": "IA", "amenity": "post_box", "brand": "United States Postal Service", "brand:wikidata": "Q668687", "collection_times": "Mo-Fr 16:30", "name": "USPS COLLECTION BOX - BLUE BOX", "note": "ON 12/24 AND 12/31, THIS BOX MAY BE COLLECTED AS EARLY AS 12 NOON.", "nsi_id": "unitedstatespostalservice-a77078", "operator": "United States Postal Service", "operator:short": "USPS", "operator:type": "public", "operator:wikidata": "Q668687", "ref": "5280400026"}, "type": "Feature"}
{"dataset_attributes": {"@spider": "usps_collection_boxes", "spider:collection_time": "2023-12-25T08:25:18.404837"}, "geometry": {"coordinates": [-90.6005400189, 41.53895001], "type": "Point"}, "id": "WYfjjSKZAkkQWU1GG3PT1CH-2fw=", "properties": {"@spider": "usps_collection_boxes", "addr:city": "DAVENPORT", "addr:country": "US", "addr:full": "1660 W LOCUST ST", "addr:postcode": "52804", "addr:state": "IA", "amenity": "post_box", "brand": "United States Postal Service", "brand:wikidata": "Q668687", "collection_times": "Mo-Sa 10:00", "name": "USPS COLLECTION BOX - BLUE BOX", "nsi_id": "unitedstatespostalservice-a77078", "operator": "United States Postal Service", "operator:short": "USPS", "operator:type": "public", "operator:wikidata": "Q668687", "ref": "5280400027"}, "type": "Feature"}
{"dataset_attributes": {"@spider": "usps_collection_boxes", "spider:collection_time": "2023-12-25T08:25:18.404837"}, "geometry": {"coordinates": [-90.591040682, 41.562359193], "type": "Point"}, "id": "oeMN6RFRZVLZP3QnKGjLm9Lkv1Q=", "properties": {"@spider": "usps_collection_boxes", "addr:city": "DAVENPORT", "addr:country": "US", "addr:full": "4018 MARQUETTE ST", "addr:postcode": "52806", "addr:state": "IA", "amenity": "post_box", "brand": "United States Postal Service", "brand:wikidata": "Q668687", "collection_times": "Mo-Sa 17:00", "name": "USPS COLLECTION BOX - BLUE BOX", "note": "ON 12/24 AND 12/31, THIS BOX MAY BE COLLECTED AS EARLY AS 12 NOON.", "nsi_id": "unitedstatespostalservice-a77078", "operator": "United States Postal Service", "operator:short": "USPS", "operator:type": "public", "operator:wikidata": "Q668687", "ref": "5280600007"}, "type": "Feature"}
{"dataset_attributes": {"@spider": "usps_collection_boxes", "spider:collection_time": "2023-12-25T08:25:18.404837"}, "geometry": {"coordinates": [-90.609826257, 41.589600443], "type": "Point"}, "id": "oBVuLv84Fjn3xu5bkj6Jf-EHOHA=", "properties": {"@spider": "usps_collection_boxes", "addr:city": "DAVENPORT", "addr:country": "US", "addr:full": "6723 NORTHWEST BLVD", "addr:postcode": "52806", "addr:state": "IA", "amenity": "post_box", "brand": "United States Postal Service", "brand:wikidata": "Q668687", "collection_times": "Mo-Sa 09:30", "name": "USPS COLLECTION BOX - BLUE BOX", "nsi_id": "unitedstatespostalservice-a77078", "operator": "United States Postal Service", "operator:short": "USPS", "operator:type": "public", "operator:wikidata": "Q668687", "ref": "5280600011"}, "type": "Feature"}
{"dataset_attributes": {"@spider": "usps_collection_boxes", "spider:collection_time": "2023-12-25T08:25:18.404837"}, "geometry": {"coordinates": [-90.575721417, 41.560281468], "type": "Point"}, "id": "IVGqn1qPGyrrj3SbmL8LYNP09Ns=", "properties": {"@spider": "usps_collection_boxes", "addr:city": "DAVENPORT", "addr:country": "US", "addr:full": "320 W KIMBERLY RD", "addr:postcode": "52806", "addr:state": "IA", "amenity": "post_box", "brand": "United States Postal Service", "brand:wikidata": "Q668687", "collection_times": "Mo-Fr 15:00", "name": "USPS COLLECTION BOX - BLUE BOX", "note": "ON 12/24 AND 12/31, THIS BOX MAY BE COLLECTED AS EARLY AS 12 NOON.", "nsi_id": "unitedstatespostalservice-a77078", "operator": "United States Postal Service", "operator:short": "USPS", "operator:type": "public", "operator:wikidata": "Q668687", "ref": "5280600017"}, "type": "Feature"}
{"dataset_attributes": {"@spider": "usps_collection_boxes", "spider:collection_time": "2023-12-25T08:25:18.404837"}, "geometry": {"coordinates": [-90.571432671, 41.560401451], "type": "Point"}, "id": "Lfy06uRJYzDZiblyVHK67ub_gQM=", "properties": {"@spider": "usps_collection_boxes", "addr:city": "DAVENPORT", "addr:country": "US", "addr:full": "100 E KIMBERLY RD", "addr:postcode": "52806", "addr:state": "IA", "amenity": "post_box", "brand": "United States Postal Service", "brand:wikidata": "Q668687", "collection_times": "Mo-Fr 15:30", "name": "USPS COLLECTION BOX - BLUE BOX", "note": "ON 12/24 AND 12/31, THIS BOX MAY BE COLLECTED AS EARLY AS 12 NOON.", "nsi_id": "unitedstatespostalservice-a77078", "operator": "United States Postal Service", "operator:short": "USPS", "operator:type": "public", "operator:wikidata": "Q668687", "ref": "5280600027"}, "type": "Feature"}
{"dataset_attributes": {"@spider": "usps_collection_boxes", "spider:collection_time": "2023-12-25T08:25:18.404837"}, "geometry": {"coordinates": [-90.568254011, 41.569139361], "type": "Point"}, "id": "zmfHi8m0NLA-RRgAQlCOfY25KZU=", "properties": {"@spider": "usps_collection_boxes", "addr:city": "DAVENPORT", "addr:country": "US", "addr:full": "4711 N BRADY ST", "addr:postcode": "52806", "addr:state": "IA", "amenity": "post_box", "brand": "United States Postal Service", "brand:wikidata": "Q668687", "collection_times": "Mo-Fr 14:45", "name": "USPS COLLECTION BOX - BLUE BOX", "note": "ON 12/24 AND 12/31, THIS BOX MAY BE COLLECTED AS EARLY AS 12 NOON.", "nsi_id": "unitedstatespostalservice-a77078", "operator": "United States Postal Service", "operator:short": "USPS", "operator:type": "public", "operator:wikidata": "Q668687", "ref": "5280600029"}, "type": "Feature"}
{"dataset_attributes": {"@spider": "usps_collection_boxes", "spider:collection_time": "2023-12-25T08:25:18.404837"}, "geometry": {"coordinates": [-90.601370277, 41.560117519], "type": "Point"}, "id": "zg29KXMatsq3raSHttu5-uzM5J0=", "properties": {"@spider": "usps_collection_boxes", "addr:city": "DAVENPORT", "addr:country": "US", "addr:full": "1720 W KIMBERLY RD", "addr:postcode": "52806", "addr:state": "IA", "amenity": "post_box", "brand": "United States Postal Service", "brand:wikidata": "Q668687", "collection_times": "Mo-Sa 09:00", "name": "USPS COLLECTION BOX - BLUE BOX", "nsi_id": "unitedstatespostalservice-a77078", "operator": "United States Postal Service", "operator:short": "USPS", "operator:type": "public", "operator:wikidata": "Q668687", "ref": "5280600032"}, "type": "Feature"}
{"dataset_attributes": {"@spider": "usps_collection_boxes", "spider:collection_time": "2023-12-25T08:25:18.404837"}, "geometry": {"coordinates": [-90.567935509, 41.567317691], "type": "Point"}, "id": "3pmHnWTYPUi43O7KQ9TfY-x8xI4=", "properties": {"@spider": "usps_collection_boxes", "addr:city": "DAVENPORT", "addr:country": "US", "addr:full": "4540 N BRADY ST", "addr:postcode": "52806", "addr:state": "IA", "amenity": "post_box", "brand": "United States Postal Service", "brand:wikidata": "Q668687", "collection_times": "Mo-Fr 14:30", "name": "USPS COLLECTION BOX - BLUE BOX", "note": "ON 12/24 AND 12/31, THIS BOX MAY BE COLLECTED AS EARLY AS 12 NOON.", "nsi_id": "unitedstatespostalservice-a77078", "operator": "United States Postal Service", "operator:short": "USPS", "operator:type": "public", "operator:wikidata": "Q668687", "ref": "5280600034"}, "type": "Feature"}
{"dataset_attributes": {"@spider": "usps_collection_boxes", "spider:collection_time": "2023-12-25T08:25:18.404837"}, "geometry": {"coordinates": [-90.581530897, 41.596020389], "type": "Point"}, "id": "sXTiTyURBqxM87Fa7QmrMy1e06k=", "properties": {"@spider": "usps_collection_boxes", "addr:city": "DAVENPORT", "addr:country": "US", "addr:full": "7575 GAINES STREET CT", "addr:postcode": "52806", "addr:state": "IA", "amenity": "post_box", "brand": "United States Postal Service", "brand:wikidata": "Q668687", "collection_times": "Mo-Fr 10:00", "name": "USPS COLLECTION BOX - BLUE BOX", "nsi_id": "unitedstatespostalservice-a77078", "operator": "United States Postal Service", "operator:short": "USPS", "operator:type": "public", "operator:wikidata": "Q668687", "ref": "5280600035"}, "type": "Feature"}
{"dataset_attributes": {"@spider": "usps_collection_boxes", "spider:collection_time": "2023-12-25T08:25:18.404837"}, "geometry": {"coordinates": [-90.628967931, 41.556884901], "type": "Point"}, "id": "iIPhDySJX-zDarABow0NfOhwpNw=", "properties": {"@spider": "usps_collection_boxes", "addr:city": "DAVENPORT", "addr:country": "US", "addr:full": "3622 HICKORY GROVE RD", "addr:postcode": "52806", "addr:state": "IA", "amenity": "post_box", "brand": "United States Postal Service", "brand:wikidata": "Q668687", "collection_times": "Mo-Sa 10:00", "name": "USPS COLLECTION BOX - BLUE BOX", "nsi_id": "unitedstatespostalservice-a77078", "operator": "United States Postal Service", "operator:short": "USPS", "operator:type": "public", "operator:wikidata": "Q668687", "ref": "5280600036"}, "type": "Feature"}
{"dataset_attributes": {"@spider": "usps_collection_boxes", "spider:collection_time": "2023-12-25T08:25:18.404837"}, "geometry": {"coordinates": [-90.568254011, 41.569139361], "type": "Point"}, "id": "VZWPe5QYaT4XS0SUmg70YRdO6cA=", "properties": {"@spider": "usps_collection_boxes", "addr:city": "DAVENPORT", "addr:country": "US", "addr:full": "4711 N BRADY ST", "addr:postcode": "52806", "addr:state": "IA", "amenity": "post_box", "brand": "United States Postal Service", "brand:wikidata": "Q668687", "collection_times": "Mo-Fr 14:45", "name": "USPS COLLECTION BOX - BLUE BOX", "note": "ON 12/24 AND 12/31, THIS BOX MAY BE COLLECTED AS EARLY AS 12 NOON.", "nsi_id": "unitedstatespostalservice-a77078", "operator": "United States Postal Service", "operator:short": "USPS", "operator:type": "public", "operator:wikidata": "Q668687", "ref": "5280600037"}, "type": "Feature"}
{"dataset_attributes": {"@spider": "usps_collection_boxes", "spider:collection_time": "2023-12-25T08:25:18.404837"}, "geometry": {"coordinates": [-90.591040682, 41.562359193], "type": "Point"}, "id": "br3xMSnzsN6E9PqaH1R4oab-eL0=", "properties": {"@spider": "usps_collection_boxes", "addr:city": "DAVENPORT", "addr:country": "US", "addr:full": "4018 MARQUETTE ST", "addr:postcode": "52806", "addr:state": "IA", "amenity": "post_box", "brand": "United States Postal Service", "brand:wikidata": "Q668687", "collection_times": "Mo-Sa 17:00", "name": "USPS COLLECTION BOX - PO LOBBY", "note": "ON 12/24 AND 12/31, THIS BOX MAY BE COLLECTED AS EARLY AS 12 NOON.", "nsi_id": "unitedstatespostalservice-a77078", "operator": "United States Postal Service", "operator:short": "USPS", "operator:type": "public", "operator:wikidata": "Q668687", "ref": "5280600038"}, "type": "Feature"}
{"dataset_attributes": {"@spider": "usps_collection_boxes", "spider:collection_time": "2023-12-25T08:25:18.404837"}, "geometry": {"coordinates": [-90.624431421, 41.603778947], "type": "Point"}, "id": "IuEJ_pTzfSDUqinnOdcph8d125I=", "properties": {"@spider": "usps_collection_boxes", "addr:city": "DAVENPORT", "addr:country": "US", "addr:full": "8200 NORTHWEST BLVD", "addr:postcode": "52806", "addr:state": "IA", "amenity": "post_box", "brand": "United States Postal Service", "brand:wikidata": "Q668687", "collection_times": "Mo-Sa 10:00", "name": "USPS COLLECTION BOX - BLUE BOX", "nsi_id": "unitedstatespostalservice-a77078", "operator": "United States Postal Service", "operator:short": "USPS", "operator:type": "public", "operator:wikidata": "Q668687", "ref": "5280600039"}, "type": "Feature"}
{"dataset_attributes": {"@spider": "usps_collection_boxes", "spider:collection_time": "2023-12-25T08:25:18.404837"}, "geometry": {"coordinates": [-90.591040682, 41.562359193], "type": "Point"}, "id": "EwX60HKfDFys9OdklGtWIdKoIgg=", "properties": {"@spider": "usps_collection_boxes", "addr:city": "DAVENPORT", "addr:country": "US", "addr:full": "4018 MARQUETTE ST", "addr:postcode": "52806", "addr:state": "IA", "amenity": "post_box", "brand": "United States Postal Service", "brand:wikidata": "Q668687", "collection_times": "Mo-Sa 17:00", "name": "USPS COLLECTION BOX - BLUE BOX", "note": "ON 12/24 AND 12/31, THIS BOX MAY BE COLLECTED AS EARLY AS 12 NOON.", "nsi_id": "unitedstatespostalservice-a77078", "operator": "United States Postal Service", "operator:short": "USPS", "operator:type": "public", "operator:wikidata": "Q668687", "ref": "5280600041"}, "type": "Feature"}
{"dataset_attributes": {"@spider": "usps_collection_boxes", "spider:collection_time": "2023-12-25T08:25:18.404837"}, "geometry": {"coordinates": [-90.567935509, 41.567317691], "type": "Point"}, "id": "kmuEA8jNFYZe5lydMdPqCWxfDDQ=", "properties": {"@spider": "usps_collection_boxes", "addr:city": "DAVENPORT", "addr:country": "US", "addr:full": "4540 N BRADY ST", "addr:postcode": "52806", "addr:state": "IA", "amenity": "post_box", "brand": "United States Postal Service", "brand:wikidata": "Q668687", "collection_times": "Mo-Fr 14:30", "name": "USPS COLLECTION BOX - BLUE BOX", "note": "ON 12/24 AND 12/31, THIS BOX MAY BE COLLECTED AS EARLY AS 12 NOON.", "nsi_id": "unitedstatespostalservice-a77078", "operator": "United States Postal Service", "operator:short": "USPS", "operator:type": "public", "operator:wikidata": "Q668687", "ref": "5280600044"}, "type": "Feature"}
{"dataset_attributes": {"@spider": "usps_collection_boxes", "spider:collection_time": "2023-12-25T08:25:18.404837"}, "geometry": {"coordinates": [-90.591040682, 41.562359193], "type": "Point"}, "id": "eLnWLNjzNVy0kCWyyAygESOPJIc=", "properties": {"@spider": "usps_collection_boxes", "addr:city": "DAVENPORT", "addr:country": "US", "addr:full": "4018 MARQUETTE ST", "addr:postcode": "52806", "addr:state": "IA", "amenity": "post_box", "brand": "United States Postal Service", "brand:wikidata": "Q668687", "collection_times": "Mo-Sa 17:00", "name": "USPS COLLECTION BOX - APC", "note": "ON 12/24 AND 12/31, THIS BOX MAY BE COLLECTED AS EARLY AS 12 NOON.", "nsi_id": "unitedstatespostalservice-a77078", "operator": "United States Postal Service", "operator:short": "USPS", "operator:type": "public", "operator:wikidata": "Q668687", "ref": "5280600045"}, "type": "Feature"}
{"dataset_attributes": {"@spider": "usps_collection_boxes", "spider:collection_time": "2023-12-25T08:25:18.404837"}, "geometry": {"coordinates": [-90.591040682, 41.562359193], "type": "Point"}, "id": "2peibL64fx5a6umf2p5wHKa02Gs=", "properties": {"@spider": "usps_collection_boxes", "addr:city": "DAVENPORT", "addr:country": "US", "addr:full": "4018 MARQUETTE ST", "addr:postcode": "52806", "addr:state": "IA", "amenity": "post_box", "brand": "United States Postal Service", "brand:wikidata": "Q668687", "collection_times": "Mo-Sa 17:00", "name": "USPS COLLECTION BOX - BLUE BOX", "note": "ON 12/24 AND 12/31, THIS BOX MAY BE COLLECTED AS EARLY AS 12 NOON.", "nsi_id": "unitedstatespostalservice-a77078", "operator": "United States Postal Service", "operator:short": "USPS", "operator:type": "public", "operator:wikidata": "Q668687", "ref": "5280600046"}, "type": "Feature"}
{"dataset_attributes": {"@spider": "usps_collection_boxes", "spider:collection_time": "2023-12-25T08:25:18.404837"}, "geometry": {"coordinates": [-90.568787652, 41.556223916], "type": "Point"}, "id": "dnSu6kzseUqdRMC32M7P6Cvn-3k=", "properties": {"@spider": "usps_collection_boxes", "addr:city": "DAVENPORT", "addr:country": "US", "addr:full": "3562 N BRADY ST", "addr:postcode": "52806", "addr:state": "IA", "amenity": "post_box", "brand": "United States Postal Service", "brand:wikidata": "Q668687", "collection_times": "Mo-Sa 10:30", "name": "USPS COLLECTION BOX - BLUE BOX", "nsi_id": "unitedstatespostalservice-a77078", "operator": "United States Postal Service", "operator:short": "USPS", "operator:type": "public", "operator:wikidata": "Q668687", "ref": "5280600047"}, "type": "Feature"}
{"dataset_attributes": {"@spider": "usps_collection_boxes", "spider:collection_time": "2023-12-25T08:25:18.404837"}, "geometry": {"coordinates": [-90.569664021, 41.611608999], "type": "Point"}, "id": "V-B7r5wFaow9DFfnEBiAaWkUJw0=", "properties": {"@spider": "usps_collection_boxes", "addr:city": "DAVENPORT", "addr:country": "US", "addr:full": "21037 HOLDEN DR", "addr:postcode": "52806", "addr:state": "IA", "amenity": "post_box", "brand": "United States Postal Service", "brand:wikidata": "Q668687", "collection_times": "Mo-Sa 09:00", "name": "USPS COLLECTION BOX - BLUE BOX", "nsi_id": "unitedstatespostalservice-a77078", "operator": "United States Postal Service", "operator:short": "USPS", "operator:type": "public", "operator:wikidata": "Q668687", "ref": "5280600049"}, "type": "Feature"}
{"dataset_attributes": {"@spider": "usps_collection_boxes", "spider:collection_time": "2023-12-25T08:25:18.404837"}, "geometry": {"coordinates": [-90.591040682, 41.562359193], "type": "Point"}, "id": "2x8Un0Cg2YLxFqghULAqs7Z5ceM=", "properties": {"@spider": "usps_collection_boxes", "addr:city": "DAVENPORT", "addr:country": "US", "addr:full": "4018 MARQUETTE ST", "addr:postcode": "52806", "addr:state": "IA", "amenity": "post_box", "brand": "United States Postal Service", "brand:wikidata": "Q668687", "collection_times": "Mo-Fr 17:00", "name": "USPS COLLECTION BOX - PO LOBBY", "note": "ON 12/24 AND 12/31, THIS BOX MAY BE COLLECTED AS EARLY AS 12 NOON.", "nsi_id": "unitedstatespostalservice-a77078", "operator": "United States Postal Service", "operator:short": "USPS", "operator:type": "public", "operator:wikidata": "Q668687", "ref": "5280600053"}, "type": "Feature"}
{"dataset_attributes": {"@spider": "usps_collection_boxes", "spider:collection_time": "2023-12-25T08:25:18.404837"}, "geometry": {"coordinates": [-90.511574828, 41.575090372], "type": "Point"}, "id": "qNZasX65Un2wObKoykneA9G3gEo=", "properties": {"@spider": "usps_collection_boxes", "addr:city": "DAVENPORT", "addr:country": "US", "addr:full": "5306 VICTORIA AVE", "addr:postcode": "52807", "addr:state": "IA", "amenity": "post_box", "brand": "United States Postal Service", "brand:wikidata": "Q668687", "collection_times": "Mo-Fr 11:00", "name": "USPS COLLECTION BOX - BLUE BOX", "nsi_id": "unitedstatespostalservice-a77078", "operator": "United States Postal Service", "operator:short": "USPS", "operator:type": "public", "operator:wikidata": "Q668687", "ref": "5280700000"}, "type": "Feature"}
{"dataset_attributes": {"@spider": "usps_collection_boxes", "spider:collection_time": "2023-12-25T08:25:18.404837"}, "geometry": {"coordinates": [-90.549303579, 41.562212496], "type": "Point"}, "id": "IFLHNlqXK4FBC3Cn99AImJk_3LU=", "properties": {"@spider": "usps_collection_boxes", "addr:city": "DAVENPORT", "addr:country": "US", "addr:full": "1825 WINDING HILL RD", "addr:postcode": "52807", "addr:state": "IA", "amenity": "post_box", "brand": "United States Postal Service", "brand:wikidata": "Q668687", "collection_times": "Mo-Sa 14:30", "name": "USPS COLLECTION BOX - BLUE BOX", "note": "ON 12/24 AND 12/31, THIS BOX MAY BE COLLECTED AS EARLY AS 12 NOON.", "nsi_id": "unitedstatespostalservice-a77078", "operator": "United States Postal Service", "operator:short": "USPS", "operator:type": "public", "operator:wikidata": "Q668687", "ref": "5280700002"}, "type": "Feature"}
{"dataset_attributes": {"@spider": "usps_collection_boxes", "spider:collection_time": "2023-12-25T08:25:18.404837"}, "geometry": {"coordinates": [-90.547674917, 41.558012783], "type": "Point"}, "id": "vUc2GX9dNJl8__YXmF-A7v8yHko=", "properties": {"@spider": "usps_collection_boxes", "addr:city": "DAVENPORT", "addr:country": "US", "addr:full": "3715 SPRING ST", "addr:postcode": "52807", "addr:state": "IA", "amenity": "post_box", "brand": "United States Postal Service", "brand:wikidata": "Q668687", "collection_times": "Mo-Fr 16:45", "name": "USPS COLLECTION BOX - BLUE BOX", "note": "ON 12/24 AND 12/31, THIS BOX MAY BE COLLECTED AS EARLY AS 12 NOON.", "nsi_id": "unitedstatespostalservice-a77078", "operator": "United States Postal Service", "operator:short": "USPS", "operator:type": "public", "operator:wikidata": "Q668687", "ref": "5280700004"}, "type": "Feature"}
{"dataset_attributes": {"@spider": "usps_collection_boxes", "spider:collection_time": "2023-12-25T08:25:18.404837"}, "geometry": {"coordinates": [-90.524946269, 41.552177406], "type": "Point"}, "id": "FeJeVTOEJW0vKGN4BTwtANXp_N4=", "properties": {"@spider": "usps_collection_boxes", "addr:city": "DAVENPORT", "addr:country": "US", "addr:full": "3300 E KIMBERLY RD", "addr:postcode": "52807", "addr:state": "IA", "amenity": "post_box", "brand": "United States Postal Service", "brand:wikidata": "Q668687", "collection_times": "Mo-Sa 11:00", "name": "USPS COLLECTION BOX - BLUE BOX", "nsi_id": "unitedstatespostalservice-a77078", "operator": "United States Postal Service", "operator:short": "USPS", "operator:type": "public", "operator:wikidata": "Q668687", "ref": "5280700008"}, "type": "Feature"}
{"dataset_attributes": {"@spider": "usps_collection_boxes", "spider:collection_time": "2023-12-25T08:25:18.404837"}, "geometry": {"coordinates": [-90.541676287, 41.554535056], "type": "Point"}, "id": "Y3XX7mZBnd__PeNDIxV8Efnst4w=", "properties": {"@spider": "usps_collection_boxes", "addr:city": "DAVENPORT", "addr:country": "US", "addr:full": "3403 JERSEY RIDGE RD", "addr:postcode": "52807", "addr:state": "IA", "amenity": "post_box", "brand": "United States Postal Service", "brand:wikidata": "Q668687", "collection_times": "Mo-Sa 13:00", "name": "USPS COLLECTION BOX - BLUE BOX", "note": "ON 12/24 AND 12/31, THIS BOX MAY BE COLLECTED AS EARLY AS 12 NOON.", "nsi_id": "unitedstatespostalservice-a77078", "operator": "United States Postal Service", "operator:short": "USPS", "operator:type": "public", "operator:wikidata": "Q668687", "ref": "5280700009"}, "type": "Feature"}
{"dataset_attributes": {"@spider": "usps_collection_boxes", "spider:collection_time": "2023-12-25T08:25:18.404837"}, "geometry": {"coordinates": [-90.541540571, 41.572954117], "type": "Point"}, "id": "4TqZ0YjFaHpDjorV1Asp6fCDYuk=", "properties": {"@spider": "usps_collection_boxes", "addr:city": "DAVENPORT", "addr:country": "US", "addr:full": "2400 E 51ST ST", "addr:postcode": "52807", "addr:state": "IA", "amenity": "post_box", "brand": "United States Postal Service", "brand:wikidata": "Q668687", "collection_times": "Mo-Sa 14:15", "name": "USPS COLLECTION BOX - BLUE BOX", "note": "ON 12/24 AND 12/31, THIS BOX MAY BE COLLECTED AS EARLY AS 12 NOON.", "nsi_id": "unitedstatespostalservice-a77078", "operator": "United States Postal Service", "operator:short": "USPS", "operator:type": "public", "operator:wikidata": "Q668687", "ref": "5280700010"}, "type": "Feature"}
{"dataset_attributes": {"@spider": "usps_collection_boxes", "spider:collection_time": "2023-12-25T08:25:18.404837"}, "geometry": {"coordinates": [-90.5617638117, 41.5576066177], "type": "Point"}, "id": "0KpzIL3mv7vLmV6KEi2sfyHgrtE=", "properties": {"@spider": "usps_collection_boxes", "addr:city": "DAVENPORT", "addr:country": "US", "addr:full": "933 E KIMBERLY RD", "addr:postcode": "52807", "addr:state": "IA", "amenity": "post_box", "brand": "United States Postal Service", "brand:wikidata": "Q668687", "collection_times": "Mo-Fr 11:00", "name": "USPS COLLECTION BOX - BLUE BOX", "nsi_id": "unitedstatespostalservice-a77078", "operator": "United States Postal Service", "operator:short": "USPS", "operator:type": "public", "operator:wikidata": "Q668687", "ref": "5280700012"}, "type": "Feature"}
{"dataset_attributes": {"@spider": "usps_collection_boxes", "spider:collection_time": "2023-12-25T08:25:18.404837"}, "geometry": {"coordinates": [-90.5523525, 41.556751498], "type": "Point"}, "id": "FM0fVRwsgnJMOTJ8E0zV2ZxBlVw=", "properties": {"@spider": "usps_collection_boxes", "addr:city": "DAVENPORT", "addr:country": "US", "addr:full": "1525 E KIMBERLY RD", "addr:postcode": "52807", "addr:state": "IA", "amenity": "post_box", "brand": "United States Postal Service", "brand:wikidata": "Q668687", "collection_times": "Mo-Fr 16:30", "name": "USPS COLLECTION BOX - BLUE BOX", "note": "ON 12/24 AND 12/31, THIS BOX MAY BE COLLECTED AS EARLY AS 12 NOON.", "nsi_id": "unitedstatespostalservice-a77078", "operator": "United States Postal Service", "operator:short": "USPS", "operator:type": "public", "operator:wikidata": "Q668687", "ref": "5280700013"}, "type": "Feature"}
{"dataset_attributes": {"@spider": "usps_collection_boxes", "spider:collection_time": "2023-12-25T08:25:18.404837"}, "geometry": {"coordinates": [-90.511574828, 41.575090372], "type": "Point"}, "id": "ywZsC9T56JjWPfm2sHP8aYCEDMk=", "properties": {"@spider": "usps_collection_boxes", "addr:city": "DAVENPORT", "addr:country": "US", "addr:full": "5306 VICTORIA AVE", "addr:postcode": "52807", "addr:state": "IA", "amenity": "post_box", "brand": "United States Postal Service", "brand:wikidata": "Q668687", "collection_times": "Mo-Fr 11:00", "name": "USPS COLLECTION BOX - BLUE BOX", "nsi_id": "unitedstatespostalservice-a77078", "operator": "United States Postal Service", "operator:short": "USPS", "operator:type": "public", "operator:wikidata": "Q668687", "ref": "5280700016"}, "type": "Feature"}
{"dataset_attributes": {"@spider": "usps_collection_boxes", "spider:collection_time": "2023-12-25T08:25:18.404837"}, "geometry": {"coordinates": [-90.527217257, 41.557877445], "type": "Point"}, "id": "IBY3RC1M2M5va1lyS5NHNQ6oRuQ=", "properties": {"@spider": "usps_collection_boxes", "addr:city": "DAVENPORT", "addr:country": "US", "addr:full": "3860 ELMORE AVE", "addr:postcode": "52807", "addr:state": "IA", "amenity": "post_box", "brand": "United States Postal Service", "brand:wikidata": "Q668687", "collection_times": "Mo-Fr 15:00", "name": "USPS COLLECTION BOX - BLUE BOX", "note": "ON 12/24 AND 12/31, THIS BOX MAY BE COLLECTED AS EARLY AS 12 NOON.", "nsi_id": "unitedstatespostalservice-a77078", "operator": "United States Postal Service", "operator:short": "USPS", "operator:type": "public", "operator:wikidata": "Q668687", "ref": "5280700017"}, "type": "Feature"}
{"dataset_attributes": {"@spider": "usps_collection_boxes", "spider:collection_time": "2023-12-25T08:25:18.404837"}, "geometry": {"coordinates": [-90.566639916, 41.579934518], "type": "Point"}, "id": "0VP7cq2_nfRYnfpDrjAQHICfEhA=", "properties": {"@spider": "usps_collection_boxes", "addr:city": "DAVENPORT", "addr:country": "US", "addr:full": "611 E 59TH ST", "addr:postcode": "52807", "addr:state": "IA", "amenity": "post_box", "brand": "United States Postal Service", "brand:wikidata": "Q668687", "collection_times": "Mo-Fr 15:30", "name": "USPS COLLECTION BOX - BLUE BOX", "note": "ON 12/24 AND 12/31, THIS BOX MAY BE COLLECTED AS EARLY AS 12 NOON.", "nsi_id": "unitedstatespostalservice-a77078", "operator": "United States Postal Service", "operator:short": "USPS", "operator:type": "public", "operator:wikidata": "Q668687", "ref": "5280700020"}, "type": "Feature"}
{"dataset_attributes": {"@spider": "usps_collection_boxes", "spider:collection_time": "2023-12-25T08:25:18.404837"}, "geometry": {"coordinates": [-90.560819222, 41.572034581], "type": "Point"}, "id": "3FkalbUTjY4yTWeGswdCA3RgxJg=", "properties": {"@spider": "usps_collection_boxes", "addr:city": "DAVENPORT", "addr:country": "US", "addr:full": "5008 TREMONT AVE", "addr:postcode": "52807", "addr:state": "IA", "amenity": "post_box", "brand": "United States Postal Service", "brand:wikidata": "Q668687", "collection_times": "Mo-Fr 15:00", "name": "USPS COLLECTION BOX - BLUE BOX", "note": "ON 12/24 AND 12/31, THIS BOX MAY BE COLLECTED AS EARLY AS 12 NOON.", "nsi_id": "unitedstatespostalservice-a77078", "operator": "United States Postal Service", "operator:short": "USPS", "operator:type": "public", "operator:wikidata": "Q668687", "ref": "5280700022"}, "type": "Feature"}
{"dataset_attributes": {"@spider": "usps_collection_boxes", "spider:collection_time": "2023-12-25T08:25:18.404837"}, "geometry": {"coordinates": [-90.560819222, 41.572034581], "type": "Point"}, "id": "8s1Hcq9R7lNOpUsjnxEOYe-RxWM=", "properties": {"@spider": "usps_collection_boxes", "addr:city": "DAVENPORT", "addr:country": "US", "addr:full": "5008 TREMONT AVE", "addr:postcode": "52807", "addr:state": "IA", "amenity": "post_box", "brand": "United States Postal Service", "brand:wikidata": "Q668687", "collection_times": "Mo-Fr 15:00", "name": "USPS COLLECTION BOX - BLUE BOX", "note": "ON 12/24 AND 12/31, THIS BOX MAY BE COLLECTED AS EARLY AS 12 NOON.", "nsi_id": "unitedstatespostalservice-a77078", "operator": "United States Postal Service", "operator:short": "USPS", "operator:type": "public", "operator:wikidata": "Q668687", "ref": "5280700023"}, "type": "Feature"}
{"dataset_attributes": {"@spider": "usps_collection_boxes", "spider:collection_time": "2023-12-25T08:25:18.404837"}, "geometry": {"coordinates": [-90.5613699605, 41.5719190108], "type": "Point"}, "id": "Md0b6togfJtLgBrjCGZQWv8RkYo=", "properties": {"@spider": "usps_collection_boxes", "addr:city": "DAVENPORT", "addr:country": "US", "addr:full": "5008 TREMONT AVE", "addr:postcode": "52807", "addr:state": "IA", "amenity": "post_box", "brand": "United States Postal Service", "brand:wikidata": "Q668687", "collection_times": "Mo-Fr 15:00", "name": "USPS COLLECTION BOX - BLUE BOX", "note": "ON 12/24 AND 12/31, THIS BOX MAY BE COLLECTED AS EARLY AS 12 NOON.", "nsi_id": "unitedstatespostalservice-a77078", "operator": "United States Postal Service", "operator:short": "USPS", "operator:type": "public", "operator:wikidata": "Q668687", "ref": "5280700024"}, "type": "Feature"}
{"dataset_attributes": {"@spider": "usps_collection_boxes", "spider:collection_time": "2023-12-25T08:25:18.404837"}, "geometry": {"coordinates": [-90.5483925, 41.556996525], "type": "Point"}, "id": "tICcU0sLjYphGTAweh7-Swhzxd4=", "properties": {"@spider": "usps_collection_boxes", "addr:city": "DAVENPORT", "addr:country": "US", "addr:full": "1910 E KIMBERLY RD", "addr:postcode": "52807", "addr:state": "IA", "amenity": "post_box", "brand": "United States Postal Service", "brand:wikidata": "Q668687", "collection_times": "Mo-Fr 11:00", "name": "USPS COLLECTION BOX - BLUE BOX", "nsi_id": "unitedstatespostalservice-a77078", "operator": "United States Postal Service", "operator:short": "USPS", "operator:type": "public", "operator:wikidata": "Q668687", "ref": "5280700025"}, "type": "Feature"}
{"dataset_attributes": {"@spider": "usps_collection_boxes", "spider:collection_time": "2023-12-25T08:25:18.404837"}, "geometry": {"coordinates": [-90.527217257, 41.557877445], "type": "Point"}, "id": "VNM8S2i2W-CWbkdV6yatIRonSP8=", "properties": {"@spider": "usps_collection_boxes", "addr:city": "DAVENPORT", "addr:country": "US", "addr:full": "3860 ELMORE AVE", "addr:postcode": "52807", "addr:state": "IA", "amenity": "post_box", "brand": "United States Postal Service", "brand:wikidata": "Q668687", "collection_times": "Mo-Fr 15:00", "name": "USPS COLLECTION BOX - BLUE BOX", "note": "ON 12/24 AND 12/31, THIS BOX MAY BE COLLECTED AS EARLY AS 12 NOON.", "nsi_id": "unitedstatespostalservice-a77078", "operator": "United States Postal Service", "operator:short": "USPS", "operator:type": "public", "operator:wikidata": "Q668687", "ref": "5280700026"}, "type": "Feature"}
{"dataset_attributes": {"@spider": "usps_collection_boxes", "spider:collection_time": "2023-12-25T08:25:18.404837"}, "geometry": {"coordinates": [-90.5491069847, 41.5770520044], "type": "Point"}, "id": "0aMp-8oRN9xTvtgJbiymQTO2DQA=", "properties": {"@spider": "usps_collection_boxes", "addr:city": "DAVENPORT", "addr:country": "US", "addr:full": "1842 E 54TH ST", "addr:postcode": "52807", "addr:state": "IA", "amenity": "post_box", "brand": "United States Postal Service", "brand:wikidata": "Q668687", "collection_times": "Mo-Fr 15:00", "name": "USPS COLLECTION BOX - BLUE BOX", "note": "ON 12/24 AND 12/31, THIS BOX MAY BE COLLECTED AS EARLY AS 12 NOON.", "nsi_id": "unitedstatespostalservice-a77078", "operator": "United States Postal Service", "operator:short": "USPS", "operator:type": "public", "operator:wikidata": "Q668687", "ref": "5280700030"}, "type": "Feature"}
{"dataset_attributes": {"@spider": "usps_collection_boxes", "spider:collection_time": "2023-12-25T08:25:18.404837"}, "geometry": {"coordinates": [-90.517260736, 41.575454916], "type": "Point"}, "id": "Ytb9DhMGPVbTAtfowa-bDyRRXE8=", "properties": {"@spider": "usps_collection_boxes", "addr:city": "DAVENPORT", "addr:country": "US", "addr:full": "5310 CORPORATE PARK DR", "addr:postcode": "52807", "addr:state": "IA", "amenity": "post_box", "brand": "United States Postal Service", "brand:wikidata": "Q668687", "collection_times": "Mo-Sa 12:00", "name": "USPS COLLECTION BOX - BLUE BOX", "nsi_id": "unitedstatespostalservice-a77078", "operator": "United States Postal Service", "operator:short": "USPS", "operator:type": "public", "operator:wikidata": "Q668687", "ref": "5280700033"}, "type": "Feature"}
{"dataset_attributes": {"@spider": "usps_collection_boxes", "spider:collection_time": "2023-12-25T08:25:18.404837"}, "geometry": {"coordinates": [-90.514242, 41.574809539], "type": "Point"}, "id": "wiyxWfXJjugass78MWCIM4kJ6ms=", "properties": {"@spider": "usps_collection_boxes", "addr:city": "DAVENPORT", "addr:country": "US", "addr:full": "4011 E 53RD ST", "addr:postcode": "52807", "addr:state": "IA", "amenity": "post_box", "brand": "United States Postal Service", "brand:wikidata": "Q668687", "collection_times": "Mo-Sa 10:30", "name": "USPS COLLECTION BOX - BLUE BOX", "nsi_id": "unitedstatespostalservice-a77078", "operator": "United States Postal Service", "operator:short": "USPS", "operator:type": "public", "operator:wikidata": "Q668687", "ref": "5280700034"}, "type": "Feature"}
{"dataset_attributes": {"@spider": "usps_collection_boxes", "spider:collection_time": "2023-12-25T08:25:18.404837"}, "geometry": {"coordinates": [-90.5491069847, 41.5770520044], "type": "Point"}, "id": "P-x7mEQPt2uywcINcIDqrvmbQaI=", "properties": {"@spider": "usps_collection_boxes", "addr:city": "DAVENPORT", "addr:country": "US", "addr:full": "1842 E 54TH ST", "addr:postcode": "52807", "addr:state": "IA", "amenity": "post_box", "brand": "United States Postal Service", "brand:wikidata": "Q668687", "collection_times": "Mo-Fr 15:00", "name": "USPS COLLECTION BOX - BLUE BOX", "note": "ON 12/24 AND 12/31, THIS BOX MAY BE COLLECTED AS EARLY AS 12 NOON.", "nsi_id": "unitedstatespostalservice-a77078", "operator": "United States Postal Service", "operator:short": "USPS", "operator:type": "public", "operator:wikidata": "Q668687", "ref": "5280700036"}, "type": "Feature"}
