{"geometry": {"coordinates": [-87.7870795, 42.769072], "type": "Point"}, "id": "uowls8F1bS9G8GKB8f6szZcQgg8=", "properties": {"@source_uri": "https://tools.usps.com/UspsToolsRestServices/rest/POLocator/findLocations", "@spider": "usps_collection_boxes", "addr:city": "RACINE", "addr:country": "US", "addr:postcode": "53402", "addr:state": "WI", "addr:street_address": "3900 ERIE ST", "amenity": "post_box", "brand": "United States Postal Service", "brand:wikidata": "Q668687", "collection_times": "Mo-Sa 12:00", "nsi_id": "unitedstatespostalservice-a77078", "operator": "United States Postal Service", "operator:short": "USPS", "operator:type": "public", "operator:wikidata": "Q668687", "ref": "5340200004"}, "type": "Feature"}
{"geometry": {"coordinates": [-87.7849349, 42.738343], "type": "Point"}, "id": "a2fgN7ZbRgqaD9-LvFHdHyb0QwU=", "properties": {"@source_uri": "https://tools.usps.com/UspsToolsRestServices/rest/POLocator/findLocations", "@spider": "usps_collection_boxes", "addr:city": "RACINE", "addr:country": "US", "addr:postcode": "53402", "addr:state": "WI", "addr:street_address": "1400 MAIN ST", "amenity": "post_box", "brand": "United States Postal Service", "brand:wikidata": "Q668687", "collection_times": "Mo-Sa 12:00", "nsi_id": "unitedstatespostalservice-a77078", "operator": "United States Postal Service", "operator:short": "USPS", "operator:type": "public", "operator:wikidata": "Q668687", "ref": "5340200006"}, "type": "Feature"}
{"geometry": {"coordinates": [-87.7944674, 42.751239], "type": "Point"}, "id": "pvZXd2TkXKa2psQ5WoeFAIVVFM0=", "properties": {"@source_uri": "https://tools.usps.com/UspsToolsRestServices/rest/POLocator/findLocations", "@spider": "usps_collection_boxes", "addr:city": "RACINE", "addr:country": "US", "addr:postcode": "53402", "addr:state": "WI", "addr:street_address": "2426 GENEVA ST", "amenity": "post_box", "brand": "United States Postal Service", "brand:wikidata": "Q668687", "collection_times": "Mo-Sa 10:00", "nsi_id": "unitedstatespostalservice-a77078", "operator": "United States Postal Service", "operator:short": "USPS", "operator:type": "public", "operator:wikidata": "Q668687", "ref": "5340200009"}, "type": "Feature"}
{"geometry": {"coordinates": [-87.7809344, 42.77028], "type": "Point"}, "id": "ESGFap6yMLXG2f3i8GSmvzQ_fLk=", "properties": {"@source_uri": "https://tools.usps.com/UspsToolsRestServices/rest/POLocator/findLocations", "@spider": "usps_collection_boxes", "addr:city": "RACINE", "addr:country": "US", "addr:postcode": "53402", "addr:state": "WI", "addr:street_address": "4001 N MAIN ST", "amenity": "post_box", "brand": "United States Postal Service", "brand:wikidata": "Q668687", "collection_times": "Mo-Sa 12:00", "nsi_id": "unitedstatespostalservice-a77078", "operator": "United States Postal Service", "operator:short": "USPS", "operator:type": "public", "operator:wikidata": "Q668687", "ref": "5340200011"}, "type": "Feature"}
{"geometry": {"coordinates": [-87.7839189, 42.725035], "type": "Point"}, "id": "6eIYZdCL-1hYSJdYot77KK6_ePc=", "properties": {"@source_uri": "https://tools.usps.com/UspsToolsRestServices/rest/POLocator/findLocations", "@spider": "usps_collection_boxes", "addr:city": "MOUNT PLEASANT", "addr:country": "US", "addr:postcode": "53403", "addr:state": "WI", "addr:street_address": "730 WISCONSIN AVE", "amenity": "post_box", "brand": "United States Postal Service", "brand:wikidata": "Q668687", "collection_times": "Mo-Fr 12:00", "nsi_id": "unitedstatespostalservice-a77078", "operator": "United States Postal Service", "operator:short": "USPS", "operator:type": "public", "operator:wikidata": "Q668687", "ref": "5340300005"}, "type": "Feature"}
{"geometry": {"coordinates": [-87.7967829, 42.712477], "type": "Point"}, "id": "sxapdBJ4tC-8GtxC31IBSN8RaFI=", "properties": {"@source_uri": "https://tools.usps.com/UspsToolsRestServices/rest/POLocator/findLocations", "@spider": "usps_collection_boxes", "addr:city": "MOUNT PLEASANT", "addr:country": "US", "addr:postcode": "53403", "addr:state": "WI", "addr:street_address": "1405 16TH ST", "amenity": "post_box", "brand": "United States Postal Service", "brand:wikidata": "Q668687", "collection_times": "Mo-Sa 12:00", "nsi_id": "unitedstatespostalservice-a77078", "operator": "United States Postal Service", "operator:short": "USPS", "operator:type": "public", "operator:wikidata": "Q668687", "ref": "5340300010"}, "type": "Feature"}
{"geometry": {"coordinates": [-87.781659, 42.726928], "type": "Point"}, "id": "_E-ikeYydaupCkfPyknmYdyr_dE=", "properties": {"@source_uri": "https://tools.usps.com/UspsToolsRestServices/rest/POLocator/findLocations", "@spider": "usps_collection_boxes", "addr:city": "MOUNT PLEASANT", "addr:country": "US", "addr:postcode": "53403", "addr:state": "WI", "addr:street_address": "600 LAKE AVE", "amenity": "post_box", "brand": "United States Postal Service", "brand:wikidata": "Q668687", "collection_times": "Mo-Fr 17:00; Sa 10:00", "note": "ON 12/24 AND 12/31, THIS BOX MAY BE COLLECTED AS EARLY AS 12 NOON.", "nsi_id": "unitedstatespostalservice-a77078", "operator": "United States Postal Service", "operator:short": "USPS", "operator:type": "public", "operator:wikidata": "Q668687", "ref": "5340300012"}, "type": "Feature"}
{"geometry": {"coordinates": [-87.8575642, 42.677201], "type": "Point"}, "id": "rPepfMv0H9d6qKtvL3pPDn5V56I=", "properties": {"@source_uri": "https://tools.usps.com/UspsToolsRestServices/rest/POLocator/findLocations", "@spider": "usps_collection_boxes", "addr:city": "MOUNT PLEASANT", "addr:country": "US", "addr:postcode": "53403", "addr:state": "WI", "addr:street_address": "6233 BANKERS RD", "amenity": "post_box", "brand": "United States Postal Service", "brand:wikidata": "Q668687", "collection_times": "Mo-Sa 10:00", "nsi_id": "unitedstatespostalservice-a77078", "operator": "United States Postal Service", "operator:short": "USPS", "operator:type": "public", "operator:wikidata": "Q668687", "ref": "5340300022"}, "type": "Feature"}
{"geometry": {"coordinates": [-87.830716768, 42.6816962394], "type": "Point"}, "id": "NgITdM2rlD8MTT0m_9O_RKT-rgw=", "properties": {"@source_uri": "https://tools.usps.com/UspsToolsRestServices/rest/POLocator/findLocations", "@spider": "usps_collection_boxes", "addr:city": "MOUNT PLEASANT", "addr:country": "US", "addr:postcode": "53403", "addr:state": "WI", "addr:street_address": "603 MAIN ST", "amenity": "post_box", "brand": "United States Postal Service", "brand:wikidata": "Q668687", "collection_times": "Mo-Fr 17:00; Sa 10:00", "indoor": "yes", "note": "ON 12/24 AND 12/31, THIS BOX MAY BE COLLECTED AS EARLY AS 12 NOON.", "nsi_id": "unitedstatespostalservice-a77078", "operator": "United States Postal Service", "operator:short": "USPS", "operator:type": "public", "operator:wikidata": "Q668687", "ref": "5340300023"}, "type": "Feature"}
{"geometry": {"coordinates": [-87.782696, 42.726785], "type": "Point"}, "id": "fLkUA-G_QeWxIqBJFDuoKgIPzuQ=", "properties": {"@source_uri": "https://tools.usps.com/UspsToolsRestServices/rest/POLocator/findLocations", "@spider": "usps_collection_boxes", "addr:city": "MOUNT PLEASANT", "addr:country": "US", "addr:postcode": "53403", "addr:state": "WI", "addr:street_address": "603 MAIN ST", "amenity": "post_box", "brand": "United States Postal Service", "brand:wikidata": "Q668687", "collection_times": "Mo-Fr 17:00; Sa 10:00", "note": "ON 12/24 AND 12/31, THIS BOX MAY BE COLLECTED AS EARLY AS 12 NOON.", "nsi_id": "unitedstatespostalservice-a77078", "operator": "United States Postal Service", "operator:short": "USPS", "operator:type": "public", "operator:wikidata": "Q668687", "ref": "5340300027"}, "type": "Feature"}
{"geometry": {"coordinates": [-87.7904723, 42.725749], "type": "Point"}, "id": "LMP5t9nmcnhnLzi7Aws9p5JNeiU=", "properties": {"@source_uri": "https://tools.usps.com/UspsToolsRestServices/rest/POLocator/findLocations", "@spider": "usps_collection_boxes", "addr:city": "MOUNT PLEASANT", "addr:country": "US", "addr:postcode": "53403", "addr:state": "WI", "addr:street_address": "730 WASHINGTON AVE", "amenity": "post_box", "brand": "United States Postal Service", "brand:wikidata": "Q668687", "collection_times": "Mo-Fr 12:00", "nsi_id": "unitedstatespostalservice-a77078", "operator": "United States Postal Service", "operator:short": "USPS", "operator:type": "public", "operator:wikidata": "Q668687", "ref": "5340300028"}, "type": "Feature"}
{"geometry": {"coordinates": [-87.830716768, 42.6816962394], "type": "Point"}, "id": "SlHAWWLx-QhZmd4ANeEap2ea6jw=", "properties": {"@source_uri": "https://tools.usps.com/UspsToolsRestServices/rest/POLocator/findLocations", "@spider": "usps_collection_boxes", "addr:city": "MOUNT PLEASANT", "addr:country": "US", "addr:postcode": "53403", "addr:state": "WI", "addr:street_address": "603 MAIN ST", "amenity": "post_box", "brand": "United States Postal Service", "brand:wikidata": "Q668687", "collection_times": "Mo-Fr 17:00; Sa 10:00", "indoor": "yes", "note": "ON 12/24 AND 12/31, THIS BOX MAY BE COLLECTED AS EARLY AS 12 NOON.", "nsi_id": "unitedstatespostalservice-a77078", "operator": "United States Postal Service", "operator:short": "USPS", "operator:type": "public", "operator:wikidata": "Q668687", "ref": "5340300029"}, "type": "Feature"}
{"geometry": {"coordinates": [-87.808114005, 42.749351018], "type": "Point"}, "id": "3E7rPK2jm0wMi6wUCs8BLxtN9aE=", "properties": {"@source_uri": "https://tools.usps.com/UspsToolsRestServices/rest/POLocator/findLocations", "@spider": "usps_collection_boxes", "addr:city": "RACINE", "addr:country": "US", "addr:postcode": "53404", "addr:state": "WI", "addr:street_address": "2210 RAPIDS DR", "amenity": "post_box", "brand": "United States Postal Service", "brand:wikidata": "Q668687", "collection_times": "Mo-Sa 12:00", "nsi_id": "unitedstatespostalservice-a77078", "operator": "United States Postal Service", "operator:short": "USPS", "operator:type": "public", "operator:wikidata": "Q668687", "ref": "5340400004"}, "type": "Feature"}
{"geometry": {"coordinates": [-87.81032, 42.784604], "type": "Point"}, "id": "nCw7mD8Ka7eGYW0l84KJpHrLooI=", "properties": {"@source_uri": "https://tools.usps.com/UspsToolsRestServices/rest/POLocator/findLocations", "@spider": "usps_collection_boxes", "addr:city": "RACINE", "addr:country": "US", "addr:postcode": "53404", "addr:state": "WI", "addr:street_address": "2635 4 MILE RD", "amenity": "post_box", "brand": "United States Postal Service", "brand:wikidata": "Q668687", "collection_times": "Mo-Fr 17:00; Sa 15:00", "note": "ON 12/24 AND 12/31, THIS BOX MAY BE COLLECTED AS EARLY AS 12 NOON.", "nsi_id": "unitedstatespostalservice-a77078", "operator": "United States Postal Service", "operator:short": "USPS", "operator:type": "public", "operator:wikidata": "Q668687", "ref": "5340400017"}, "type": "Feature"}
{"geometry": {"coordinates": [-87.81032, 42.784604], "type": "Point"}, "id": "U_GJYCQm2xuodJpfAgzejvlw9RE=", "properties": {"@source_uri": "https://tools.usps.com/UspsToolsRestServices/rest/POLocator/findLocations", "@spider": "usps_collection_boxes", "addr:city": "RACINE", "addr:country": "US", "addr:postcode": "53404", "addr:state": "WI", "addr:street_address": "2635 4 MILE RD", "amenity": "post_box", "brand": "United States Postal Service", "brand:wikidata": "Q668687", "collection_times": "Mo-Fr 17:00; Sa 15:00", "note": "ON 12/24 AND 12/31, THIS BOX MAY BE COLLECTED AS EARLY AS 12 NOON.", "nsi_id": "unitedstatespostalservice-a77078", "operator": "United States Postal Service", "operator:short": "USPS", "operator:type": "public", "operator:wikidata": "Q668687", "ref": "5340400018"}, "type": "Feature"}
{"geometry": {"coordinates": [-87.81032, 42.784604], "type": "Point"}, "id": "HWU2NbLJrJVEMfTeCN-IKQaEFwg=", "properties": {"@source_uri": "https://tools.usps.com/UspsToolsRestServices/rest/POLocator/findLocations", "@spider": "usps_collection_boxes", "addr:city": "RACINE", "addr:country": "US", "addr:postcode": "53404", "addr:state": "WI", "addr:street_address": "2635 4 MILE RD", "amenity": "post_box", "brand": "United States Postal Service", "brand:wikidata": "Q668687", "collection_times": "Mo-Fr 17:00; Sa 15:00", "indoor": "yes", "note": "ON 12/24 AND 12/31, THIS BOX MAY BE COLLECTED AS EARLY AS 12 NOON.", "nsi_id": "unitedstatespostalservice-a77078", "operator": "United States Postal Service", "operator:short": "USPS", "operator:type": "public", "operator:wikidata": "Q668687", "ref": "5340400019"}, "type": "Feature"}
{"geometry": {"coordinates": [-87.81032, 42.784604], "type": "Point"}, "id": "VxDz2lMTPsgZbqXkP9jnzhUtfHk=", "properties": {"@source_uri": "https://tools.usps.com/UspsToolsRestServices/rest/POLocator/findLocations", "@spider": "usps_collection_boxes", "addr:city": "RACINE", "addr:country": "US", "addr:postcode": "53404", "addr:state": "WI", "addr:street_address": "2635 4 MILE RD", "amenity": "post_box", "brand": "United States Postal Service", "brand:wikidata": "Q668687", "collection_times": "Mo-Fr 17:00; Sa 15:00", "indoor": "yes", "note": "ON 12/24 AND 12/31, THIS BOX MAY BE COLLECTED AS EARLY AS 12 NOON.", "nsi_id": "unitedstatespostalservice-a77078", "operator": "United States Postal Service", "operator:short": "USPS", "operator:type": "public", "operator:wikidata": "Q668687", "ref": "5340400020"}, "type": "Feature"}
{"geometry": {"coordinates": [-87.81032, 42.784604], "type": "Point"}, "id": "apGnR9dU9NIh1auPpPo_0D0gxLQ=", "properties": {"@source_uri": "https://tools.usps.com/UspsToolsRestServices/rest/POLocator/findLocations", "@spider": "usps_collection_boxes", "addr:city": "RACINE", "addr:country": "US", "addr:postcode": "53404", "addr:state": "WI", "addr:street_address": "2635 4 MILE RD", "amenity": "post_box", "brand": "United States Postal Service", "brand:wikidata": "Q668687", "collection_times": "Mo-Fr 17:00; Sa 15:00", "indoor": "yes", "note": "ON 12/24 AND 12/31, THIS BOX MAY BE COLLECTED AS EARLY AS 12 NOON.", "nsi_id": "unitedstatespostalservice-a77078", "operator": "United States Postal Service", "operator:short": "USPS", "operator:type": "public", "operator:wikidata": "Q668687", "ref": "5340400021"}, "type": "Feature"}
{"geometry": {"coordinates": [-87.7995440121, 42.743230007], "type": "Point"}, "id": "cvBol5FEvHfDBAN6FQXDBJxAu_I=", "properties": {"@source_uri": "https://tools.usps.com/UspsToolsRestServices/rest/POLocator/findLocations", "@spider": "usps_collection_boxes", "addr:city": "RACINE", "addr:country": "US", "addr:postcode": "53404", "addr:state": "WI", "addr:street_address": "1509 RAPIDS DR", "amenity": "post_box", "brand": "United States Postal Service", "brand:wikidata": "Q668687", "collection_times": "Mo-Sa 12:00", "nsi_id": "unitedstatespostalservice-a77078", "operator": "United States Postal Service", "operator:short": "USPS", "operator:type": "public", "operator:wikidata": "Q668687", "ref": "5340400022"}, "type": "Feature"}
{"geometry": {"coordinates": [-87.81032, 42.784604], "type": "Point"}, "id": "1nb_NKPRGQAq7SRxTyYjKu6xKv4=", "properties": {"@source_uri": "https://tools.usps.com/UspsToolsRestServices/rest/POLocator/findLocations", "@spider": "usps_collection_boxes", "addr:city": "RACINE", "addr:country": "US", "addr:postcode": "53404", "addr:state": "WI", "addr:street_address": "2635 4 MILE RD", "amenity": "post_box", "brand": "United States Postal Service", "brand:wikidata": "Q668687", "collection_times": "Mo-Fr 17:00; Sa 15:00", "name": "USPS COLLECTION BOX - APC", "note": "ON 12/24 AND 12/31, THIS BOX MAY BE COLLECTED AS EARLY AS 12 NOON.", "nsi_id": "unitedstatespostalservice-a77078", "operator": "United States Postal Service", "operator:short": "USPS", "operator:type": "public", "operator:wikidata": "Q668687", "ref": "5340400024"}, "type": "Feature"}
{"geometry": {"coordinates": [-87.810285501, 42.784545139], "type": "Point"}, "id": "UolYt54oMMFxwsySnsyyj2kd54U=", "properties": {"@source_uri": "https://tools.usps.com/UspsToolsRestServices/rest/POLocator/findLocations", "@spider": "usps_collection_boxes", "addr:city": "RACINE", "addr:country": "US", "addr:postcode": "53404", "addr:state": "WI", "addr:street_address": "2635 4 MILE RD", "amenity": "post_box", "brand": "United States Postal Service", "brand:wikidata": "Q668687", "collection_times": "Mo-Fr 17:00; Sa 15:00", "indoor": "yes", "note": "ON 12/24 AND 12/31, THIS BOX MAY BE COLLECTED AS EARLY AS 12 NOON.", "nsi_id": "unitedstatespostalservice-a77078", "operator": "United States Postal Service", "operator:short": "USPS", "operator:type": "public", "operator:wikidata": "Q668687", "ref": "5340400025"}, "type": "Feature"}
{"geometry": {"coordinates": [-87.8165987, 42.719592], "type": "Point"}, "id": "ZcPce7Gqftt-pIQP5j7mAca_yeE=", "properties": {"@source_uri": "https://tools.usps.com/UspsToolsRestServices/rest/POLocator/findLocations", "@spider": "usps_collection_boxes", "addr:city": "RACINE", "addr:country": "US", "addr:postcode": "53405", "addr:state": "WI", "addr:street_address": "1122 WEST BLVD", "amenity": "post_box", "brand": "United States Postal Service", "brand:wikidata": "Q668687", "collection_times": "Mo-Sa 10:00", "nsi_id": "unitedstatespostalservice-a77078", "operator": "United States Postal Service", "operator:short": "USPS", "operator:type": "public", "operator:wikidata": "Q668687", "ref": "5340500007"}, "type": "Feature"}
{"geometry": {"coordinates": [-87.8263550381, 42.6991129912], "type": "Point"}, "id": "f8E3XCqPe4Zp_Pgwkj2oF0jABz8=", "properties": {"@source_uri": "https://tools.usps.com/UspsToolsRestServices/rest/POLocator/findLocations", "@spider": "usps_collection_boxes", "addr:city": "RACINE", "addr:country": "US", "addr:postcode": "53405", "addr:state": "WI", "addr:street_address": "2704 LATHROP AVE", "amenity": "post_box", "brand": "United States Postal Service", "brand:wikidata": "Q668687", "collection_times": "Mo-Sa 10:00", "nsi_id": "unitedstatespostalservice-a77078", "operator": "United States Postal Service", "operator:short": "USPS", "operator:type": "public", "operator:wikidata": "Q668687", "ref": "5340500010"}, "type": "Feature"}
{"geometry": {"coordinates": [-87.8256591, 42.696301], "type": "Point"}, "id": "7eiggAJ9Fs61U3kkR4PQ326kiSw=", "properties": {"@source_uri": "https://tools.usps.com/UspsToolsRestServices/rest/POLocator/findLocations", "@spider": "usps_collection_boxes", "addr:city": "RACINE", "addr:country": "US", "addr:postcode": "53405", "addr:state": "WI", "addr:street_address": "3825 DURAND AVE", "amenity": "post_box", "brand": "United States Postal Service", "brand:wikidata": "Q668687", "collection_times": "Mo-Sa 10:00", "nsi_id": "unitedstatespostalservice-a77078", "operator": "United States Postal Service", "operator:short": "USPS", "operator:type": "public", "operator:wikidata": "Q668687", "ref": "5340500012"}, "type": "Feature"}
{"geometry": {"coordinates": [-87.839378, 42.716059], "type": "Point"}, "id": "jcmTtAsHouoJP2NWIMK25mX6Bbc=", "properties": {"@source_uri": "https://tools.usps.com/UspsToolsRestServices/rest/POLocator/findLocations", "@spider": "usps_collection_boxes", "addr:city": "MOUNT PLEASANT", "addr:country": "US", "addr:postcode": "53406", "addr:state": "WI", "addr:street_address": "1300 PERRY AVE", "amenity": "post_box", "brand": "United States Postal Service", "brand:wikidata": "Q668687", "collection_times": "Mo-Fr 17:00; Sa 16:30", "name": "USPS COLLECTION BOX - APC", "note": "ON 12/24 AND 12/31, THIS BOX MAY BE COLLECTED AS EARLY AS 12 NOON.", "nsi_id": "unitedstatespostalservice-a77078", "operator": "United States Postal Service", "operator:short": "USPS", "operator:type": "public", "operator:wikidata": "Q668687", "ref": "5340600006"}, "type": "Feature"}
{"geometry": {"coordinates": [-87.8562299, 42.720154], "type": "Point"}, "id": "kAGWzL8xLCCj2XpFHbcrDWsNV2w=", "properties": {"@source_uri": "https://tools.usps.com/UspsToolsRestServices/rest/POLocator/findLocations", "@spider": "usps_collection_boxes", "addr:city": "MOUNT PLEASANT", "addr:country": "US", "addr:postcode": "53406", "addr:state": "WI", "addr:street_address": "6218 WASHINGTON AVE", "amenity": "post_box", "brand": "United States Postal Service", "brand:wikidata": "Q668687", "collection_times": "Mo-Sa 10:00", "nsi_id": "unitedstatespostalservice-a77078", "operator": "United States Postal Service", "operator:short": "USPS", "operator:type": "public", "operator:wikidata": "Q668687", "ref": "5340600010"}, "type": "Feature"}
{"geometry": {"coordinates": [-87.839378, 42.716059], "type": "Point"}, "id": "T7rIitDgsVHgcV846GOEalx6KfU=", "properties": {"@source_uri": "https://tools.usps.com/UspsToolsRestServices/rest/POLocator/findLocations", "@spider": "usps_collection_boxes", "addr:city": "MOUNT PLEASANT", "addr:country": "US", "addr:postcode": "53406", "addr:state": "WI", "addr:street_address": "1300 PERRY AVE", "amenity": "post_box", "brand": "United States Postal Service", "brand:wikidata": "Q668687", "collection_times": "Mo-Fr 17:00; Sa 16:30", "indoor": "yes", "note": "ON 12/24 AND 12/31, THIS BOX MAY BE COLLECTED AS EARLY AS 12 NOON.", "nsi_id": "unitedstatespostalservice-a77078", "operator": "United States Postal Service", "operator:short": "USPS", "operator:type": "public", "operator:wikidata": "Q668687", "ref": "5340600020"}, "type": "Feature"}
{"geometry": {"coordinates": [-87.839378, 42.716059], "type": "Point"}, "id": "uIA6K76P3ovLvVtMEOu7xjQxucw=", "properties": {"@source_uri": "https://tools.usps.com/UspsToolsRestServices/rest/POLocator/findLocations", "@spider": "usps_collection_boxes", "addr:city": "MOUNT PLEASANT", "addr:country": "US", "addr:postcode": "53406", "addr:state": "WI", "addr:street_address": "1300 PERRY AVE", "amenity": "post_box", "brand": "United States Postal Service", "brand:wikidata": "Q668687", "collection_times": "Mo-Fr 17:00; Sa 16:30", "note": "ON 12/24 AND 12/31, THIS BOX MAY BE COLLECTED AS EARLY AS 12 NOON.", "nsi_id": "unitedstatespostalservice-a77078", "operator": "United States Postal Service", "operator:short": "USPS", "operator:type": "public", "operator:wikidata": "Q668687", "ref": "5340600021"}, "type": "Feature"}
{"geometry": {"coordinates": [-87.839378, 42.716059], "type": "Point"}, "id": "yYxit6TBCu5EUqwKCfUmQ5WpMUY=", "properties": {"@source_uri": "https://tools.usps.com/UspsToolsRestServices/rest/POLocator/findLocations", "@spider": "usps_collection_boxes", "addr:city": "MOUNT PLEASANT", "addr:country": "US", "addr:postcode": "53406", "addr:state": "WI", "addr:street_address": "1300 PERRY AVE", "amenity": "post_box", "brand": "United States Postal Service", "brand:wikidata": "Q668687", "collection_times": "Mo-Fr 17:00; Sa 16:30", "note": "ON 12/24 AND 12/31, THIS BOX MAY BE COLLECTED AS EARLY AS 12 NOON.", "nsi_id": "unitedstatespostalservice-a77078", "operator": "United States Postal Service", "operator:short": "USPS", "operator:type": "public", "operator:wikidata": "Q668687", "ref": "5340600022"}, "type": "Feature"}
{"geometry": {"coordinates": [-87.8393788634, 42.7160523877], "type": "Point"}, "id": "_wEVUjco9eEtKBqRJ5P9In99_YI=", "properties": {"@source_uri": "https://tools.usps.com/UspsToolsRestServices/rest/POLocator/findLocations", "@spider": "usps_collection_boxes", "addr:city": "MOUNT PLEASANT", "addr:country": "US", "addr:postcode": "53406", "addr:state": "WI", "addr:street_address": "1300 PERRY AVE", "amenity": "post_box", "brand": "United States Postal Service", "brand:wikidata": "Q668687", "collection_times": "Mo-Fr 17:00; Sa 16:30", "note": "ON 12/24 AND 12/31, THIS BOX MAY BE COLLECTED AS EARLY AS 12 NOON.", "nsi_id": "unitedstatespostalservice-a77078", "operator": "United States Postal Service", "operator:short": "USPS", "operator:type": "public", "operator:wikidata": "Q668687", "ref": "5340600023"}, "type": "Feature"}
{"geometry": {"coordinates": [-87.839378, 42.716059], "type": "Point"}, "id": "g5JtzX5NsFXLQWHW49n_zWdzDvk=", "properties": {"@source_uri": "https://tools.usps.com/UspsToolsRestServices/rest/POLocator/findLocations", "@spider": "usps_collection_boxes", "addr:city": "MOUNT PLEASANT", "addr:country": "US", "addr:postcode": "53406", "addr:state": "WI", "addr:street_address": "1300 PERRY AVE", "amenity": "post_box", "brand": "United States Postal Service", "brand:wikidata": "Q668687", "collection_times": "Mo-Fr 17:00; Sa 16:30", "indoor": "yes", "note": "ON 12/24 AND 12/31, THIS BOX MAY BE COLLECTED AS EARLY AS 12 NOON.", "nsi_id": "unitedstatespostalservice-a77078", "operator": "United States Postal Service", "operator:short": "USPS", "operator:type": "public", "operator:wikidata": "Q668687", "ref": "5340600024"}, "type": "Feature"}
{"geometry": {"coordinates": [-87.8530369829, 42.6968349995], "type": "Point"}, "id": "90utKNDiBVqqcoS-rLfpye0Od_8=", "properties": {"@source_uri": "https://tools.usps.com/UspsToolsRestServices/rest/POLocator/findLocations", "@spider": "usps_collection_boxes", "addr:city": "MOUNT PLEASANT", "addr:country": "US", "addr:postcode": "53406", "addr:state": "WI", "addr:street_address": "6021 DURAND AVE", "amenity": "post_box", "brand": "United States Postal Service", "brand:wikidata": "Q668687", "collection_times": "Mo-Sa 10:00", "nsi_id": "unitedstatespostalservice-a77078", "operator": "United States Postal Service", "operator:short": "USPS", "operator:type": "public", "operator:wikidata": "Q668687", "ref": "5340600026"}, "type": "Feature"}
{"geometry": {"coordinates": [-87.8667904, 42.723391], "type": "Point"}, "id": "nj5Ov57PEu6PnzKln85yj2p2jPw=", "properties": {"@source_uri": "https://tools.usps.com/UspsToolsRestServices/rest/POLocator/findLocations", "@spider": "usps_collection_boxes", "addr:city": "MOUNT PLEASANT", "addr:country": "US", "addr:postcode": "53406", "addr:state": "WI", "addr:street_address": "6949 MARINER DR", "amenity": "post_box", "brand": "United States Postal Service", "brand:wikidata": "Q668687", "collection_times": "Mo-Sa 10:00", "nsi_id": "unitedstatespostalservice-a77078", "operator": "United States Postal Service", "operator:short": "USPS", "operator:type": "public", "operator:wikidata": "Q668687", "ref": "5340600028"}, "type": "Feature"}
{"geometry": {"coordinates": [-87.8479268, 42.73778], "type": "Point"}, "id": "44YDLBGwKt1YNThgQixk0VCtKFk=", "properties": {"@source_uri": "https://tools.usps.com/UspsToolsRestServices/rest/POLocator/findLocations", "@spider": "usps_collection_boxes", "addr:city": "MOUNT PLEASANT", "addr:country": "US", "addr:postcode": "53406", "addr:state": "WI", "addr:street_address": "5600 SPRING ST", "amenity": "post_box", "brand": "United States Postal Service", "brand:wikidata": "Q668687", "collection_times": "Mo-Sa 10:00", "nsi_id": "unitedstatespostalservice-a77078", "operator": "United States Postal Service", "operator:short": "USPS", "operator:type": "public", "operator:wikidata": "Q668687", "ref": "5340600030"}, "type": "Feature"}
{"geometry": {"coordinates": [-87.839378863, 42.716052388], "type": "Point"}, "id": "0UDqgKrZCwOMDf40Dri7bHB4iTE=", "properties": {"@source_uri": "https://tools.usps.com/UspsToolsRestServices/rest/POLocator/findLocations", "@spider": "usps_collection_boxes", "addr:city": "MOUNT PLEASANT", "addr:country": "US", "addr:postcode": "53406", "addr:state": "WI", "addr:street_address": "1300 PERRY AVE", "amenity": "post_box", "brand": "United States Postal Service", "brand:wikidata": "Q668687", "collection_times": "Mo-Fr 17:00; Sa 16:30", "indoor": "yes", "note": "ON 12/24 AND 12/31, THIS BOX MAY BE COLLECTED AS EARLY AS 12 NOON.", "nsi_id": "unitedstatespostalservice-a77078", "operator": "United States Postal Service", "operator:short": "USPS", "operator:type": "public", "operator:wikidata": "Q668687", "ref": "5340600038"}, "type": "Feature"}
