{"geometry": {"coordinates": [-89.386985665, 43.075066349], "type": "Point"}, "id": "yidwJpuWEY2DlpxV5YLvUQv13j8=", "properties": {"@source_uri": "https://tools.usps.com/UspsToolsRestServices/rest/POLocator/findLocations", "@spider": "usps_collection_boxes", "addr:city": "MADISON", "addr:country": "US", "addr:postcode": "53703", "addr:state": "WI", "addr:street_address": "100 N CARROLL ST", "amenity": "post_box", "brand": "United States Postal Service", "brand:wikidata": "Q668687", "collection_times": "Mo-Fr 14:00; Sa 13:00", "note": "ON 12/24 AND 12/31, THIS BOX MAY BE COLLECTED AS EARLY AS 12 NOON.", "nsi_id": "unitedstatespostalservice-a77078", "operator": "United States Postal Service", "operator:short": "USPS", "operator:type": "public", "operator:wikidata": "Q668687", "ref": "5370300001"}, "type": "Feature"}
{"geometry": {"coordinates": [-89.384165048, 43.072827016], "type": "Point"}, "id": "qGiFXcya1LrX6HlF-MLlJUq11Q4=", "properties": {"@source_uri": "https://tools.usps.com/UspsToolsRestServices/rest/POLocator/findLocations", "@spider": "usps_collection_boxes", "addr:city": "MADISON", "addr:country": "US", "addr:postcode": "53703", "addr:state": "WI", "addr:street_address": "100 S CARROLL ST", "amenity": "post_box", "brand": "United States Postal Service", "brand:wikidata": "Q668687", "collection_times": "Mo-Fr 14:30; Sa 13:00", "note": "ON 12/24 AND 12/31, THIS BOX MAY BE COLLECTED AS EARLY AS 12 NOON.", "nsi_id": "unitedstatespostalservice-a77078", "operator": "United States Postal Service", "operator:short": "USPS", "operator:type": "public", "operator:wikidata": "Q668687", "ref": "5370300003"}, "type": "Feature"}
{"geometry": {"coordinates": [-89.3870103, 43.069733], "type": "Point"}, "id": "kRhHPqLaQIVuAQcIdI8mbf9sb4Y=", "properties": {"@source_uri": "https://tools.usps.com/UspsToolsRestServices/rest/POLocator/findLocations", "@spider": "usps_collection_boxes", "addr:city": "MADISON", "addr:country": "US", "addr:postcode": "53703", "addr:state": "WI", "addr:street_address": "401 W DOTY ST", "amenity": "post_box", "brand": "United States Postal Service", "brand:wikidata": "Q668687", "collection_times": "Mo-Sa 13:00", "note": "ON 12/24 AND 12/31, THIS BOX MAY BE COLLECTED AS EARLY AS 12 NOON.", "nsi_id": "unitedstatespostalservice-a77078", "operator": "United States Postal Service", "operator:short": "USPS", "operator:type": "public", "operator:wikidata": "Q668687", "ref": "5370300012"}, "type": "Feature"}
{"geometry": {"coordinates": [-89.3617837, 43.081401], "type": "Point"}, "id": "CGNSUFbEznFljs7La6ao1nOfxQA=", "properties": {"@source_uri": "https://tools.usps.com/UspsToolsRestServices/rest/POLocator/findLocations", "@spider": "usps_collection_boxes", "addr:city": "MADISON", "addr:country": "US", "addr:postcode": "53703", "addr:state": "WI", "addr:street_address": "1204 RUTLEDGE ST", "amenity": "post_box", "brand": "United States Postal Service", "brand:wikidata": "Q668687", "collection_times": "Mo-Sa 13:00", "note": "ON 12/24 AND 12/31, THIS BOX MAY BE COLLECTED AS EARLY AS 12 NOON.", "nsi_id": "unitedstatespostalservice-a77078", "operator": "United States Postal Service", "operator:short": "USPS", "operator:type": "public", "operator:wikidata": "Q668687", "ref": "5370300021"}, "type": "Feature"}
{"geometry": {"coordinates": [-89.3840049, 43.076636], "type": "Point"}, "id": "H9oE4wsfS6ujZS-BIIt2CIA3aZM=", "properties": {"@source_uri": "https://tools.usps.com/UspsToolsRestServices/rest/POLocator/findLocations", "@spider": "usps_collection_boxes", "addr:city": "MADISON", "addr:country": "US", "addr:postcode": "53703", "addr:state": "WI", "addr:street_address": "100 N HAMILTON ST", "amenity": "post_box", "brand": "United States Postal Service", "brand:wikidata": "Q668687", "collection_times": "Mo-Fr 14:00; Sa 13:00", "note": "ON 12/24 AND 12/31, THIS BOX MAY BE COLLECTED AS EARLY AS 12 NOON.", "nsi_id": "unitedstatespostalservice-a77078", "operator": "United States Postal Service", "operator:short": "USPS", "operator:type": "public", "operator:wikidata": "Q668687", "ref": "5370300029"}, "type": "Feature"}
{"geometry": {"coordinates": [-89.392423656, 43.076713061], "type": "Point"}, "id": "OHl88W7F5Gw98dBmenPgPHJW_Zw=", "properties": {"@source_uri": "https://tools.usps.com/UspsToolsRestServices/rest/POLocator/findLocations", "@spider": "usps_collection_boxes", "addr:city": "MADISON", "addr:country": "US", "addr:postcode": "53703", "addr:state": "WI", "addr:street_address": "199 LANGDON ST", "amenity": "post_box", "brand": "United States Postal Service", "brand:wikidata": "Q668687", "collection_times": "Mo-Sa 13:00", "note": "ON 12/24 AND 12/31, THIS BOX MAY BE COLLECTED AS EARLY AS 12 NOON.", "nsi_id": "unitedstatespostalservice-a77078", "operator": "United States Postal Service", "operator:short": "USPS", "operator:type": "public", "operator:wikidata": "Q668687", "ref": "5370300031"}, "type": "Feature"}
{"geometry": {"coordinates": [-89.385275035, 43.073581012], "type": "Point"}, "id": "adJWtp210s0ZUYabm7Ehx3QFPY8=", "properties": {"@source_uri": "https://tools.usps.com/UspsToolsRestServices/rest/POLocator/findLocations", "@spider": "usps_collection_boxes", "addr:city": "MADISON", "addr:country": "US", "addr:postcode": "53703", "addr:state": "WI", "addr:street_address": "2 S CARROLL ST", "amenity": "post_box", "brand": "United States Postal Service", "brand:wikidata": "Q668687", "collection_times": "Mo-Fr 15:00", "note": "ON 12/24 AND 12/31, THIS BOX MAY BE COLLECTED AS EARLY AS 12 NOON.", "nsi_id": "unitedstatespostalservice-a77078", "operator": "United States Postal Service", "operator:short": "USPS", "operator:type": "public", "operator:wikidata": "Q668687", "ref": "5370300032"}, "type": "Feature"}
{"geometry": {"coordinates": [-89.385275035, 43.073581012], "type": "Point"}, "id": "aJFq3gmnL9pWaTR_6x2Jx4HHYBk=", "properties": {"@source_uri": "https://tools.usps.com/UspsToolsRestServices/rest/POLocator/findLocations", "@spider": "usps_collection_boxes", "addr:city": "MADISON", "addr:country": "US", "addr:postcode": "53703", "addr:state": "WI", "addr:street_address": "2 S CARROLL ST", "amenity": "post_box", "brand": "United States Postal Service", "brand:wikidata": "Q668687", "collection_times": "Mo-Fr 15:00", "note": "ON 12/24 AND 12/31, THIS BOX MAY BE COLLECTED AS EARLY AS 12 NOON.", "nsi_id": "unitedstatespostalservice-a77078", "operator": "United States Postal Service", "operator:short": "USPS", "operator:type": "public", "operator:wikidata": "Q668687", "ref": "5370300033"}, "type": "Feature"}
{"geometry": {"coordinates": [-89.3840836, 43.079187], "type": "Point"}, "id": "g2KWdRt4rDqwnbnEwPUfvp9zIts=", "properties": {"@source_uri": "https://tools.usps.com/UspsToolsRestServices/rest/POLocator/findLocations", "@spider": "usps_collection_boxes", "addr:city": "MADISON", "addr:country": "US", "addr:postcode": "53703", "addr:state": "WI", "addr:street_address": "301 E JOHNSON ST", "amenity": "post_box", "brand": "United States Postal Service", "brand:wikidata": "Q668687", "collection_times": "Mo-Sa 13:00", "note": "ON 12/24 AND 12/31, THIS BOX MAY BE COLLECTED AS EARLY AS 12 NOON.", "nsi_id": "unitedstatespostalservice-a77078", "operator": "United States Postal Service", "operator:short": "USPS", "operator:type": "public", "operator:wikidata": "Q668687", "ref": "5370300037"}, "type": "Feature"}
{"geometry": {"coordinates": [-89.3760394, 43.084406], "type": "Point"}, "id": "OearI8gNja2JhVv_ZqkKUJclHWw=", "properties": {"@source_uri": "https://tools.usps.com/UspsToolsRestServices/rest/POLocator/findLocations", "@spider": "usps_collection_boxes", "addr:city": "MADISON", "addr:country": "US", "addr:postcode": "53703", "addr:state": "WI", "addr:street_address": "901 E JOHNSON ST", "amenity": "post_box", "brand": "United States Postal Service", "brand:wikidata": "Q668687", "collection_times": "Mo-Sa 13:00", "note": "ON 12/24 AND 12/31, THIS BOX MAY BE COLLECTED AS EARLY AS 12 NOON.", "nsi_id": "unitedstatespostalservice-a77078", "operator": "United States Postal Service", "operator:short": "USPS", "operator:type": "public", "operator:wikidata": "Q668687", "ref": "5370300039"}, "type": "Feature"}
{"geometry": {"coordinates": [-89.3850141, 43.072456], "type": "Point"}, "id": "UV5mMEk8_m3iFP12fGy2ZJfO_vY=", "properties": {"@source_uri": "https://tools.usps.com/UspsToolsRestServices/rest/POLocator/findLocations", "@spider": "usps_collection_boxes", "addr:city": "MADISON", "addr:country": "US", "addr:postcode": "53703", "addr:state": "WI", "addr:street_address": "123 W MAIN ST", "amenity": "post_box", "brand": "United States Postal Service", "brand:wikidata": "Q668687", "collection_times": "Mo-Fr 15:00", "note": "ON 12/24 AND 12/31, THIS BOX MAY BE COLLECTED AS EARLY AS 12 NOON.", "nsi_id": "unitedstatespostalservice-a77078", "operator": "United States Postal Service", "operator:short": "USPS", "operator:type": "public", "operator:wikidata": "Q668687", "ref": "5370300048"}, "type": "Feature"}
{"geometry": {"coordinates": [-89.3889, 43.072985], "type": "Point"}, "id": "ALsdBczhtfefceWS-YJb4EYr-08=", "properties": {"@source_uri": "https://tools.usps.com/UspsToolsRestServices/rest/POLocator/findLocations", "@spider": "usps_collection_boxes", "addr:city": "MADISON", "addr:country": "US", "addr:postcode": "53703", "addr:state": "WI", "addr:street_address": "110 E MAIN ST", "amenity": "post_box", "brand": "United States Postal Service", "brand:wikidata": "Q668687", "collection_times": "Mo-Fr 15:00; Sa 13:00", "note": "ON 12/24 AND 12/31, THIS BOX MAY BE COLLECTED AS EARLY AS 12 NOON.", "nsi_id": "unitedstatespostalservice-a77078", "operator": "United States Postal Service", "operator:short": "USPS", "operator:type": "public", "operator:wikidata": "Q668687", "ref": "5370300049"}, "type": "Feature"}
{"geometry": {"coordinates": [-89.387440405, 43.075151095], "type": "Point"}, "id": "084qBIEylkGkQ9GAo54irzfyGxo=", "properties": {"@source_uri": "https://tools.usps.com/UspsToolsRestServices/rest/POLocator/findLocations", "@spider": "usps_collection_boxes", "addr:city": "MADISON", "addr:country": "US", "addr:postcode": "53703", "addr:state": "WI", "addr:street_address": "121 W DAYTON ST", "amenity": "post_box", "brand": "United States Postal Service", "brand:wikidata": "Q668687", "collection_times": "Mo-Fr 15:00; Sa 13:00", "note": "ON 12/24 AND 12/31, THIS BOX MAY BE COLLECTED AS EARLY AS 12 NOON.", "nsi_id": "unitedstatespostalservice-a77078", "operator": "United States Postal Service", "operator:short": "USPS", "operator:type": "public", "operator:wikidata": "Q668687", "ref": "5370300065"}, "type": "Feature"}
{"geometry": {"coordinates": [-89.391841284, 43.074794627], "type": "Point"}, "id": "SWE37iRkICYX9q4rdHWdxj8rRqo=", "properties": {"@source_uri": "https://tools.usps.com/UspsToolsRestServices/rest/POLocator/findLocations", "@spider": "usps_collection_boxes", "addr:city": "MADISON", "addr:country": "US", "addr:postcode": "53703", "addr:state": "WI", "addr:street_address": "302 W GORHAM ST", "amenity": "post_box", "brand": "United States Postal Service", "brand:wikidata": "Q668687", "collection_times": "Mo-Fr 15:00; Sa 13:00", "note": "ON 12/24 AND 12/31, THIS BOX MAY BE COLLECTED AS EARLY AS 12 NOON.", "nsi_id": "unitedstatespostalservice-a77078", "operator": "United States Postal Service", "operator:short": "USPS", "operator:type": "public", "operator:wikidata": "Q668687", "ref": "5370300066"}, "type": "Feature"}
{"geometry": {"coordinates": [-89.3889, 43.072985], "type": "Point"}, "id": "FZ6PcrNWxprMU-_3FzSwLdr5iY4=", "properties": {"@source_uri": "https://tools.usps.com/UspsToolsRestServices/rest/POLocator/findLocations", "@spider": "usps_collection_boxes", "addr:city": "MADISON", "addr:country": "US", "addr:postcode": "53703", "addr:state": "WI", "addr:street_address": "409 W GILMAN ST", "amenity": "post_box", "brand": "United States Postal Service", "brand:wikidata": "Q668687", "collection_times": "Mo-Fr 15:00; Sa 13:00", "note": "ON 12/24 AND 12/31, THIS BOX MAY BE COLLECTED AS EARLY AS 12 NOON.", "nsi_id": "unitedstatespostalservice-a77078", "operator": "United States Postal Service", "operator:short": "USPS", "operator:type": "public", "operator:wikidata": "Q668687", "ref": "5370300067"}, "type": "Feature"}
{"geometry": {"coordinates": [-89.3889, 43.072985], "type": "Point"}, "id": "nT4US8pynEWPGQcsmWghPGvIxCA=", "properties": {"@source_uri": "https://tools.usps.com/UspsToolsRestServices/rest/POLocator/findLocations", "@spider": "usps_collection_boxes", "addr:city": "MADISON", "addr:country": "US", "addr:postcode": "53703", "addr:state": "WI", "addr:street_address": "201 E WASHINGTON AVE", "amenity": "post_box", "brand": "United States Postal Service", "brand:wikidata": "Q668687", "collection_times": "Mo-Fr 14:30", "note": "ON 12/24 AND 12/31, THIS BOX MAY BE COLLECTED AS EARLY AS 12 NOON.", "nsi_id": "unitedstatespostalservice-a77078", "operator": "United States Postal Service", "operator:short": "USPS", "operator:type": "public", "operator:wikidata": "Q668687", "ref": "5370300071"}, "type": "Feature"}
{"geometry": {"coordinates": [-89.385345, 43.076124], "type": "Point"}, "id": "7gsKuh8zPjFCIx3o8qjoEljc69U=", "properties": {"@source_uri": "https://tools.usps.com/UspsToolsRestServices/rest/POLocator/findLocations", "@spider": "usps_collection_boxes", "addr:city": "MADISON", "addr:country": "US", "addr:postcode": "53703", "addr:state": "WI", "addr:street_address": "2 E MIFFLIN ST", "amenity": "post_box", "brand": "United States Postal Service", "brand:wikidata": "Q668687", "collection_times": "Mo-Fr 17:00; Sa 11:00", "indoor": "yes", "note": "ON 12/24 AND 12/31, THIS BOX MAY BE COLLECTED AS EARLY AS 12 NOON.", "nsi_id": "unitedstatespostalservice-a77078", "operator": "United States Postal Service", "operator:short": "USPS", "operator:type": "public", "operator:wikidata": "Q668687", "ref": "5370300076"}, "type": "Feature"}
{"geometry": {"coordinates": [-89.385345, 43.076124], "type": "Point"}, "id": "a1XFvoTCnPIsqeAeDPB9BumuvS8=", "properties": {"@source_uri": "https://tools.usps.com/UspsToolsRestServices/rest/POLocator/findLocations", "@spider": "usps_collection_boxes", "addr:city": "MADISON", "addr:country": "US", "addr:postcode": "53703", "addr:state": "WI", "addr:street_address": "2 E MIFFLIN ST", "amenity": "post_box", "brand": "United States Postal Service", "brand:wikidata": "Q668687", "collection_times": "Mo-Fr 17:00; Sa 11:00", "indoor": "yes", "note": "ON 12/24 AND 12/31, THIS BOX MAY BE COLLECTED AS EARLY AS 12 NOON.", "nsi_id": "unitedstatespostalservice-a77078", "operator": "United States Postal Service", "operator:short": "USPS", "operator:type": "public", "operator:wikidata": "Q668687", "ref": "5370300077"}, "type": "Feature"}
{"geometry": {"coordinates": [-89.3954429, 43.067629], "type": "Point"}, "id": "6R56qNns0vhYn0RbIjn7O2hAhKU=", "properties": {"@source_uri": "https://tools.usps.com/UspsToolsRestServices/rest/POLocator/findLocations", "@spider": "usps_collection_boxes", "addr:city": "MADISON", "addr:country": "US", "addr:postcode": "53703", "addr:state": "WI", "addr:street_address": "660 W WASHINGTON AVE", "amenity": "post_box", "brand": "United States Postal Service", "brand:wikidata": "Q668687", "collection_times": "Mo-Fr 15:00; Sa 13:00", "note": "ON 12/24 AND 12/31, THIS BOX MAY BE COLLECTED AS EARLY AS 12 NOON.", "nsi_id": "unitedstatespostalservice-a77078", "operator": "United States Postal Service", "operator:short": "USPS", "operator:type": "public", "operator:wikidata": "Q668687", "ref": "5370300087"}, "type": "Feature"}
{"geometry": {"coordinates": [-89.3626285, 43.084418], "type": "Point"}, "id": "CCfPbLI_mxpan5J_bOyn4FFeQlc=", "properties": {"@source_uri": "https://tools.usps.com/UspsToolsRestServices/rest/POLocator/findLocations", "@spider": "usps_collection_boxes", "addr:city": "MADISON", "addr:country": "US", "addr:postcode": "53703", "addr:state": "WI", "addr:street_address": "1255 WILLIAMSON ST", "amenity": "post_box", "brand": "United States Postal Service", "brand:wikidata": "Q668687", "collection_times": "Mo-Sa 13:00", "note": "ON 12/24 AND 12/31, THIS BOX MAY BE COLLECTED AS EARLY AS 12 NOON.", "nsi_id": "unitedstatespostalservice-a77078", "operator": "United States Postal Service", "operator:short": "USPS", "operator:type": "public", "operator:wikidata": "Q668687", "ref": "5370300089"}, "type": "Feature"}
{"geometry": {"coordinates": [-89.3889, 43.072985], "type": "Point"}, "id": "KH_t_NWbjU0gAz3pBXCreWtsogk=", "properties": {"@source_uri": "https://tools.usps.com/UspsToolsRestServices/rest/POLocator/findLocations", "@spider": "usps_collection_boxes", "addr:city": "MADISON", "addr:country": "US", "addr:postcode": "53703", "addr:state": "WI", "addr:street_address": "131 W WILSON ST", "amenity": "post_box", "brand": "United States Postal Service", "brand:wikidata": "Q668687", "collection_times": "Mo-Fr 15:00; Sa 13:00", "note": "ON 12/24 AND 12/31, THIS BOX MAY BE COLLECTED AS EARLY AS 12 NOON.", "nsi_id": "unitedstatespostalservice-a77078", "operator": "United States Postal Service", "operator:short": "USPS", "operator:type": "public", "operator:wikidata": "Q668687", "ref": "5370300095"}, "type": "Feature"}
{"geometry": {"coordinates": [-89.3786819, 43.07437], "type": "Point"}, "id": "eIT1G0xtgpqYmbSsVnk7Tw0a0p8=", "properties": {"@source_uri": "https://tools.usps.com/UspsToolsRestServices/rest/POLocator/findLocations", "@spider": "usps_collection_boxes", "addr:city": "MADISON", "addr:country": "US", "addr:postcode": "53703", "addr:state": "WI", "addr:street_address": "149 E WILSON ST", "amenity": "post_box", "brand": "United States Postal Service", "brand:wikidata": "Q668687", "collection_times": "Mo-Fr 14:00", "note": "ON 12/24 AND 12/31, THIS BOX MAY BE COLLECTED AS EARLY AS 12 NOON.", "nsi_id": "unitedstatespostalservice-a77078", "operator": "United States Postal Service", "operator:short": "USPS", "operator:type": "public", "operator:wikidata": "Q668687", "ref": "5370300100"}, "type": "Feature"}
{"geometry": {"coordinates": [-89.381488265, 43.072319336], "type": "Point"}, "id": "OXp8pQ3KLyIrB7pfHUGZ2D3m7ts=", "properties": {"@source_uri": "https://tools.usps.com/UspsToolsRestServices/rest/POLocator/findLocations", "@spider": "usps_collection_boxes", "addr:city": "MADISON", "addr:country": "US", "addr:postcode": "53703", "addr:state": "WI", "addr:street_address": "17 W WILSON ST", "amenity": "post_box", "brand": "United States Postal Service", "brand:wikidata": "Q668687", "collection_times": "Mo-Fr 16:00; Sa 13:00", "note": "ON 12/24 AND 12/31, THIS BOX MAY BE COLLECTED AS EARLY AS 12 NOON.", "nsi_id": "unitedstatespostalservice-a77078", "operator": "United States Postal Service", "operator:short": "USPS", "operator:type": "public", "operator:wikidata": "Q668687", "ref": "5370300103"}, "type": "Feature"}
{"geometry": {"coordinates": [-89.383076965, 43.072980993], "type": "Point"}, "id": "vJy1zdEYBPsPwjb0deYGcfbh9MI=", "properties": {"@source_uri": "https://tools.usps.com/UspsToolsRestServices/rest/POLocator/findLocations", "@spider": "usps_collection_boxes", "addr:city": "MADISON", "addr:country": "US", "addr:postcode": "53703", "addr:state": "WI", "addr:street_address": "10 W DOTY ST", "amenity": "post_box", "brand": "United States Postal Service", "brand:wikidata": "Q668687", "collection_times": "Mo-Fr 16:00; Sa 13:00", "note": "ON 12/24 AND 12/31, THIS BOX MAY BE COLLECTED AS EARLY AS 12 NOON.", "nsi_id": "unitedstatespostalservice-a77078", "operator": "United States Postal Service", "operator:short": "USPS", "operator:type": "public", "operator:wikidata": "Q668687", "ref": "5370300106"}, "type": "Feature"}
{"geometry": {"coordinates": [-89.383076965, 43.072980993], "type": "Point"}, "id": "j0cKm_GQcCc4d8JbwSCr7Xt1raM=", "properties": {"@source_uri": "https://tools.usps.com/UspsToolsRestServices/rest/POLocator/findLocations", "@spider": "usps_collection_boxes", "addr:city": "MADISON", "addr:country": "US", "addr:postcode": "53703", "addr:state": "WI", "addr:street_address": "10 W DOTY ST", "amenity": "post_box", "brand": "United States Postal Service", "brand:wikidata": "Q668687", "collection_times": "Mo-Fr 16:00; Sa 13:00", "note": "ON 12/24 AND 12/31, THIS BOX MAY BE COLLECTED AS EARLY AS 12 NOON.", "nsi_id": "unitedstatespostalservice-a77078", "operator": "United States Postal Service", "operator:short": "USPS", "operator:type": "public", "operator:wikidata": "Q668687", "ref": "5370300110"}, "type": "Feature"}
{"geometry": {"coordinates": [-89.383076965, 43.072980993], "type": "Point"}, "id": "A_bGt-1HZJ18RvNH5B2DYs_Xjso=", "properties": {"@source_uri": "https://tools.usps.com/UspsToolsRestServices/rest/POLocator/findLocations", "@spider": "usps_collection_boxes", "addr:city": "MADISON", "addr:country": "US", "addr:postcode": "53703", "addr:state": "WI", "addr:street_address": "10 W DOTY ST", "amenity": "post_box", "brand": "United States Postal Service", "brand:wikidata": "Q668687", "collection_times": "Mo-Fr 16:00; Sa 13:00", "note": "ON 12/24 AND 12/31, THIS BOX MAY BE COLLECTED AS EARLY AS 12 NOON.", "nsi_id": "unitedstatespostalservice-a77078", "operator": "United States Postal Service", "operator:short": "USPS", "operator:type": "public", "operator:wikidata": "Q668687", "ref": "5370300111"}, "type": "Feature"}
{"geometry": {"coordinates": [-89.3861273, 43.080045], "type": "Point"}, "id": "EWHTIwFLcIlrWV2FL0tv-zSUkNg=", "properties": {"@source_uri": "https://tools.usps.com/UspsToolsRestServices/rest/POLocator/findLocations", "@spider": "usps_collection_boxes", "addr:city": "MADISON", "addr:country": "US", "addr:postcode": "53703", "addr:state": "WI", "addr:street_address": "150 E GILMAN ST", "amenity": "post_box", "brand": "United States Postal Service", "brand:wikidata": "Q668687", "collection_times": "Mo-Fr 14:00", "note": "ON 12/24 AND 12/31, THIS BOX MAY BE COLLECTED AS EARLY AS 12 NOON.", "nsi_id": "unitedstatespostalservice-a77078", "operator": "United States Postal Service", "operator:short": "USPS", "operator:type": "public", "operator:wikidata": "Q668687", "ref": "5370300116"}, "type": "Feature"}
{"geometry": {"coordinates": [-89.3941884, 43.066774], "type": "Point"}, "id": "5N6HQjNxXCm2GhIneDiPz18xSws=", "properties": {"@source_uri": "https://tools.usps.com/UspsToolsRestServices/rest/POLocator/findLocations", "@spider": "usps_collection_boxes", "addr:city": "MADISON", "addr:country": "US", "addr:postcode": "53703", "addr:state": "WI", "addr:street_address": "675 W WASHINGTON AVE", "amenity": "post_box", "brand": "United States Postal Service", "brand:wikidata": "Q668687", "collection_times": "Mo-Fr 15:00", "note": "ON 12/24 AND 12/31, THIS BOX MAY BE COLLECTED AS EARLY AS 12 NOON.", "nsi_id": "unitedstatespostalservice-a77078", "operator": "United States Postal Service", "operator:short": "USPS", "operator:type": "public", "operator:wikidata": "Q668687", "ref": "5370300118"}, "type": "Feature"}
{"geometry": {"coordinates": [-89.3882655, 43.073293], "type": "Point"}, "id": "4AE7ncZQIPCDhe3P79L-bjppO04=", "properties": {"@source_uri": "https://tools.usps.com/UspsToolsRestServices/rest/POLocator/findLocations", "@spider": "usps_collection_boxes", "addr:city": "MADISON", "addr:country": "US", "addr:postcode": "53703", "addr:state": "WI", "addr:street_address": "301 W MIFFLIN ST", "amenity": "post_box", "brand": "United States Postal Service", "brand:wikidata": "Q668687", "collection_times": "Mo-Fr 15:00; Sa 13:00", "note": "ON 12/24 AND 12/31, THIS BOX MAY BE COLLECTED AS EARLY AS 12 NOON.", "nsi_id": "unitedstatespostalservice-a77078", "operator": "United States Postal Service", "operator:short": "USPS", "operator:type": "public", "operator:wikidata": "Q668687", "ref": "5370300122"}, "type": "Feature"}
{"geometry": {"coordinates": [-89.3808949, 43.078738], "type": "Point"}, "id": "pmv1VmQTKV1AS95dLDEuV43ijzY=", "properties": {"@source_uri": "https://tools.usps.com/UspsToolsRestServices/rest/POLocator/findLocations", "@spider": "usps_collection_boxes", "addr:city": "MADISON", "addr:country": "US", "addr:postcode": "53703", "addr:state": "WI", "addr:street_address": "100 N FRANKLIN ST", "amenity": "post_box", "brand": "United States Postal Service", "brand:wikidata": "Q668687", "collection_times": "Mo-Fr 14:00", "note": "ON 12/24 AND 12/31, THIS BOX MAY BE COLLECTED AS EARLY AS 12 NOON.", "nsi_id": "unitedstatespostalservice-a77078", "operator": "United States Postal Service", "operator:short": "USPS", "operator:type": "public", "operator:wikidata": "Q668687", "ref": "5370300123"}, "type": "Feature"}
{"geometry": {"coordinates": [-89.3823919955, 43.0724220039], "type": "Point"}, "id": "5bNizbVYZFlsPtg6TXOsXo9wRAE=", "properties": {"@source_uri": "https://tools.usps.com/UspsToolsRestServices/rest/POLocator/findLocations", "@spider": "usps_collection_boxes", "addr:city": "MADISON", "addr:country": "US", "addr:postcode": "53703", "addr:state": "WI", "addr:street_address": "210 MARTIN LUTHER KING JR BLVD", "amenity": "post_box", "brand": "United States Postal Service", "brand:wikidata": "Q668687", "collection_times": "Mo-Fr 13:00", "note": "ON 12/24 AND 12/31, THIS BOX MAY BE COLLECTED AS EARLY AS 12 NOON.", "nsi_id": "unitedstatespostalservice-a77078", "operator": "United States Postal Service", "operator:short": "USPS", "operator:type": "public", "operator:wikidata": "Q668687", "ref": "5370300127"}, "type": "Feature"}
{"geometry": {"coordinates": [-89.3716728, 43.088986], "type": "Point"}, "id": "_GMtGkhFU0mzxqSNMlvXAd3V9IQ=", "properties": {"@source_uri": "https://tools.usps.com/UspsToolsRestServices/rest/POLocator/findLocations", "@spider": "usps_collection_boxes", "addr:city": "MADISON", "addr:country": "US", "addr:postcode": "53703", "addr:state": "WI", "addr:street_address": "1200 E GORHAM ST", "amenity": "post_box", "brand": "United States Postal Service", "brand:wikidata": "Q668687", "collection_times": "Mo-Sa 13:00", "note": "ON 12/24 AND 12/31, THIS BOX MAY BE COLLECTED AS EARLY AS 12 NOON.", "nsi_id": "unitedstatespostalservice-a77078", "operator": "United States Postal Service", "operator:short": "USPS", "operator:type": "public", "operator:wikidata": "Q668687", "ref": "5370300134"}, "type": "Feature"}
{"geometry": {"coordinates": [-89.3954255, 43.06764], "type": "Point"}, "id": "DpnTqGjFKjVgIIwpt5aPuwtcZJw=", "properties": {"@source_uri": "https://tools.usps.com/UspsToolsRestServices/rest/POLocator/findLocations", "@spider": "usps_collection_boxes", "addr:city": "MADISON", "addr:country": "US", "addr:postcode": "53703", "addr:state": "WI", "addr:street_address": "660 W WASHINGTON AVE", "amenity": "post_box", "brand": "United States Postal Service", "brand:wikidata": "Q668687", "collection_times": "Mo-Fr 15:00; Sa 13:00", "note": "ON 12/24 AND 12/31, THIS BOX MAY BE COLLECTED AS EARLY AS 12 NOON.", "nsi_id": "unitedstatespostalservice-a77078", "operator": "United States Postal Service", "operator:short": "USPS", "operator:type": "public", "operator:wikidata": "Q668687", "ref": "5370300136"}, "type": "Feature"}
{"geometry": {"coordinates": [-89.37676, 43.080617], "type": "Point"}, "id": "M4Q0ISlpGZUney__kwJXHbBm4I8=", "properties": {"@source_uri": "https://tools.usps.com/UspsToolsRestServices/rest/POLocator/findLocations", "@spider": "usps_collection_boxes", "addr:city": "MADISON", "addr:country": "US", "addr:postcode": "53703", "addr:state": "WI", "addr:street_address": "702 E WASHINGTON AVE", "amenity": "post_box", "brand": "United States Postal Service", "brand:wikidata": "Q668687", "collection_times": "Mo-Fr 17:00; Sa 13:00", "indoor": "yes", "note": "ON 12/24 AND 12/31, THIS BOX MAY BE COLLECTED AS EARLY AS 12 NOON.", "nsi_id": "unitedstatespostalservice-a77078", "operator": "United States Postal Service", "operator:short": "USPS", "operator:type": "public", "operator:wikidata": "Q668687", "ref": "5370300138"}, "type": "Feature"}
{"geometry": {"coordinates": [-89.3833695, 43.07098], "type": "Point"}, "id": "ivIZmrOvpZWKXgezIiVp05bMKV4=", "properties": {"@source_uri": "https://tools.usps.com/UspsToolsRestServices/rest/POLocator/findLocations", "@spider": "usps_collection_boxes", "addr:city": "MADISON", "addr:country": "US", "addr:postcode": "53703", "addr:state": "WI", "addr:street_address": "131 W WILSON ST", "amenity": "post_box", "brand": "United States Postal Service", "brand:wikidata": "Q668687", "collection_times": "Mo-Fr 15:00; Sa 13:00", "note": "ON 12/24 AND 12/31, THIS BOX MAY BE COLLECTED AS EARLY AS 12 NOON.", "nsi_id": "unitedstatespostalservice-a77078", "operator": "United States Postal Service", "operator:short": "USPS", "operator:type": "public", "operator:wikidata": "Q668687", "ref": "5370300139"}, "type": "Feature"}
{"geometry": {"coordinates": [-89.385275035, 43.073581012], "type": "Point"}, "id": "x-maHKOGFHjwfltiEEk7n0Ctj8Q=", "properties": {"@source_uri": "https://tools.usps.com/UspsToolsRestServices/rest/POLocator/findLocations", "@spider": "usps_collection_boxes", "addr:city": "MADISON", "addr:country": "US", "addr:postcode": "53703", "addr:state": "WI", "addr:street_address": "2 S CARROLL ST", "amenity": "post_box", "brand": "United States Postal Service", "brand:wikidata": "Q668687", "collection_times": "Mo-Fr 15:00", "note": "ON 12/24 AND 12/31, THIS BOX MAY BE COLLECTED AS EARLY AS 12 NOON.", "nsi_id": "unitedstatespostalservice-a77078", "operator": "United States Postal Service", "operator:short": "USPS", "operator:type": "public", "operator:wikidata": "Q668687", "ref": "5370300143"}, "type": "Feature"}
{"geometry": {"coordinates": [-89.3815237, 43.075702], "type": "Point"}, "id": "RG79DPATPIbCJKOwdYiAuHqrazQ=", "properties": {"@source_uri": "https://tools.usps.com/UspsToolsRestServices/rest/POLocator/findLocations", "@spider": "usps_collection_boxes", "addr:city": "MADISON", "addr:country": "US", "addr:postcode": "53703", "addr:state": "WI", "addr:street_address": "2 S WEBSTER ST", "amenity": "post_box", "brand": "United States Postal Service", "brand:wikidata": "Q668687", "collection_times": "Mo-Fr 15:00", "note": "ON 12/24 AND 12/31, THIS BOX MAY BE COLLECTED AS EARLY AS 12 NOON.", "nsi_id": "unitedstatespostalservice-a77078", "operator": "United States Postal Service", "operator:short": "USPS", "operator:type": "public", "operator:wikidata": "Q668687", "ref": "5370300152"}, "type": "Feature"}
{"geometry": {"coordinates": [-89.3815336, 43.075706], "type": "Point"}, "id": "Cm2Ga_bv5LYd1bIaaqcnCoCsYg4=", "properties": {"@source_uri": "https://tools.usps.com/UspsToolsRestServices/rest/POLocator/findLocations", "@spider": "usps_collection_boxes", "addr:city": "MADISON", "addr:country": "US", "addr:postcode": "53703", "addr:state": "WI", "addr:street_address": "2 S WEBSTER ST", "amenity": "post_box", "brand": "United States Postal Service", "brand:wikidata": "Q668687", "collection_times": "Mo-Fr 15:00", "note": "ON 12/24 AND 12/31, THIS BOX MAY BE COLLECTED AS EARLY AS 12 NOON.", "nsi_id": "unitedstatespostalservice-a77078", "operator": "United States Postal Service", "operator:short": "USPS", "operator:type": "public", "operator:wikidata": "Q668687", "ref": "5370300153"}, "type": "Feature"}
{"geometry": {"coordinates": [-89.3704605, 43.082597], "type": "Point"}, "id": "2AShMN1xSqPUPuePyptSS7IL7rU=", "properties": {"@source_uri": "https://tools.usps.com/UspsToolsRestServices/rest/POLocator/findLocations", "@spider": "usps_collection_boxes", "addr:city": "MADISON", "addr:country": "US", "addr:postcode": "53703", "addr:state": "WI", "addr:street_address": "100 S BREARLY ST", "amenity": "post_box", "brand": "United States Postal Service", "brand:wikidata": "Q668687", "collection_times": "Mo-Sa 13:00", "note": "ON 12/24 AND 12/31, THIS BOX MAY BE COLLECTED AS EARLY AS 12 NOON.", "nsi_id": "unitedstatespostalservice-a77078", "operator": "United States Postal Service", "operator:short": "USPS", "operator:type": "public", "operator:wikidata": "Q668687", "ref": "5370300154"}, "type": "Feature"}
{"geometry": {"coordinates": [-89.3882939, 43.073345], "type": "Point"}, "id": "pGkrggU4eyyXV7MLgVYNe9Gryv8=", "properties": {"@source_uri": "https://tools.usps.com/UspsToolsRestServices/rest/POLocator/findLocations", "@spider": "usps_collection_boxes", "addr:city": "MADISON", "addr:country": "US", "addr:postcode": "53703", "addr:state": "WI", "addr:street_address": "301 W MIFFLIN ST", "amenity": "post_box", "brand": "United States Postal Service", "brand:wikidata": "Q668687", "collection_times": "Mo-Fr 15:00; Sa 13:00", "note": "ON 12/24 AND 12/31, THIS BOX MAY BE COLLECTED AS EARLY AS 12 NOON.", "nsi_id": "unitedstatespostalservice-a77078", "operator": "United States Postal Service", "operator:short": "USPS", "operator:type": "public", "operator:wikidata": "Q668687", "ref": "5370300155"}, "type": "Feature"}
{"geometry": {"coordinates": [-89.37676, 43.080617], "type": "Point"}, "id": "9pXocYa1ovURQI_A7Tsf6x_oyzg=", "properties": {"@source_uri": "https://tools.usps.com/UspsToolsRestServices/rest/POLocator/findLocations", "@spider": "usps_collection_boxes", "addr:city": "MADISON", "addr:country": "US", "addr:postcode": "53703", "addr:state": "WI", "addr:street_address": "702 E WASHINGTON AVE", "amenity": "post_box", "brand": "United States Postal Service", "brand:wikidata": "Q668687", "collection_times": "Mo-Fr 17:00; Sa 13:00", "note": "ON 12/24 AND 12/31, THIS BOX MAY BE COLLECTED AS EARLY AS 12 NOON.", "nsi_id": "unitedstatespostalservice-a77078", "operator": "United States Postal Service", "operator:short": "USPS", "operator:type": "public", "operator:wikidata": "Q668687", "ref": "5370300157"}, "type": "Feature"}
{"geometry": {"coordinates": [-89.385345, 43.076124], "type": "Point"}, "id": "Y8eVXOwQn57Rb3rlmaU644EUxmU=", "properties": {"@source_uri": "https://tools.usps.com/UspsToolsRestServices/rest/POLocator/findLocations", "@spider": "usps_collection_boxes", "addr:city": "MADISON", "addr:country": "US", "addr:postcode": "53703", "addr:state": "WI", "addr:street_address": "2 E MIFFLIN ST", "amenity": "post_box", "brand": "United States Postal Service", "brand:wikidata": "Q668687", "collection_times": "Mo-Fr 17:00; Sa 11:00", "indoor": "yes", "note": "ON 12/24 AND 12/31, THIS BOX MAY BE COLLECTED AS EARLY AS 12 NOON.", "nsi_id": "unitedstatespostalservice-a77078", "operator": "United States Postal Service", "operator:short": "USPS", "operator:type": "public", "operator:wikidata": "Q668687", "ref": "5370300160"}, "type": "Feature"}
{"geometry": {"coordinates": [-89.3643454, 43.113358], "type": "Point"}, "id": "UKUzQ3wnup5IGZ8Yjuqo0496RW0=", "properties": {"@source_uri": "https://tools.usps.com/UspsToolsRestServices/rest/POLocator/findLocations", "@spider": "usps_collection_boxes", "addr:city": "MADISON", "addr:country": "US", "addr:postcode": "53704", "addr:state": "WI", "addr:street_address": "1202 N SHERMAN AVE", "amenity": "post_box", "brand": "United States Postal Service", "brand:wikidata": "Q668687", "collection_times": "Mo-Fr 15:00; Sa 14:00", "note": "ON 12/24 AND 12/31, THIS BOX MAY BE COLLECTED AS EARLY AS 12 NOON.", "nsi_id": "unitedstatespostalservice-a77078", "operator": "United States Postal Service", "operator:short": "USPS", "operator:type": "public", "operator:wikidata": "Q668687", "ref": "5370400005"}, "type": "Feature"}
{"geometry": {"coordinates": [-89.346418, 43.136367], "type": "Point"}, "id": "brj9nGzQTqeUhZpwqiuprCrCnsM=", "properties": {"@source_uri": "https://tools.usps.com/UspsToolsRestServices/rest/POLocator/findLocations", "@spider": "usps_collection_boxes", "addr:city": "MADISON", "addr:country": "US", "addr:postcode": "53704", "addr:state": "WI", "addr:street_address": "4000 INTERNATIONAL LN", "amenity": "post_box", "brand": "United States Postal Service", "brand:wikidata": "Q668687", "collection_times": "Mo-Sa 13:00", "note": "ON 12/24 AND 12/31, THIS BOX MAY BE COLLECTED AS EARLY AS 12 NOON.", "nsi_id": "unitedstatespostalservice-a77078", "operator": "United States Postal Service", "operator:short": "USPS", "operator:type": "public", "operator:wikidata": "Q668687", "ref": "5370400008"}, "type": "Feature"}
{"geometry": {"coordinates": [-89.3300033, 43.121167], "type": "Point"}, "id": "2ka91vwgVhcJOnsNcZ9zYcq7Xq4=", "properties": {"@source_uri": "https://tools.usps.com/UspsToolsRestServices/rest/POLocator/findLocations", "@spider": "usps_collection_boxes", "addr:city": "MADISON", "addr:country": "US", "addr:postcode": "53704", "addr:state": "WI", "addr:street_address": "1701 WRIGHT ST", "amenity": "post_box", "brand": "United States Postal Service", "brand:wikidata": "Q668687", "collection_times": "Mo-Fr 13:00; Sa 12:00", "note": "ON 12/24 AND 12/31, THIS BOX MAY BE COLLECTED AS EARLY AS 12 NOON.", "nsi_id": "unitedstatespostalservice-a77078", "operator": "United States Postal Service", "operator:short": "USPS", "operator:type": "public", "operator:wikidata": "Q668687", "ref": "5370400011"}, "type": "Feature"}
{"geometry": {"coordinates": [-89.3527830063, 43.0920489845], "type": "Point"}, "id": "uEsL-vJm7IU9NzsaDYm2rt4-nec=", "properties": {"@source_uri": "https://tools.usps.com/UspsToolsRestServices/rest/POLocator/findLocations", "@spider": "usps_collection_boxes", "addr:city": "MADISON", "addr:country": "US", "addr:postcode": "53704", "addr:state": "WI", "addr:street_address": "2059 ATWOOD AVE", "amenity": "post_box", "brand": "United States Postal Service", "brand:wikidata": "Q668687", "collection_times": "Mo-Sa 13:00", "note": "ON 12/24 AND 12/31, THIS BOX MAY BE COLLECTED AS EARLY AS 12 NOON.", "nsi_id": "unitedstatespostalservice-a77078", "operator": "United States Postal Service", "operator:short": "USPS", "operator:type": "public", "operator:wikidata": "Q668687", "ref": "5370400014"}, "type": "Feature"}
{"geometry": {"coordinates": [-89.3511537, 43.090336], "type": "Point"}, "id": "cKzMevMG2KEbYzEjhJjSLSx2mpE=", "properties": {"@source_uri": "https://tools.usps.com/UspsToolsRestServices/rest/POLocator/findLocations", "@spider": "usps_collection_boxes", "addr:city": "MADISON", "addr:country": "US", "addr:postcode": "53704", "addr:state": "WI", "addr:street_address": "2038 JENIFER ST", "amenity": "post_box", "brand": "United States Postal Service", "brand:wikidata": "Q668687", "collection_times": "Mo-Sa 13:00", "note": "ON 12/24 AND 12/31, THIS BOX MAY BE COLLECTED AS EARLY AS 12 NOON.", "nsi_id": "unitedstatespostalservice-a77078", "operator": "United States Postal Service", "operator:short": "USPS", "operator:type": "public", "operator:wikidata": "Q668687", "ref": "5370400020"}, "type": "Feature"}
{"geometry": {"coordinates": [-89.3064899, 43.125366], "type": "Point"}, "id": "slvQZYf9gwQ_GsMSvZPkgD8Mx6A=", "properties": {"@source_uri": "https://tools.usps.com/UspsToolsRestServices/rest/POLocator/findLocations", "@spider": "usps_collection_boxes", "addr:city": "MADISON", "addr:country": "US", "addr:postcode": "53704", "addr:state": "WI", "addr:street_address": "1 EAST TOWNE MALL", "amenity": "post_box", "brand": "United States Postal Service", "brand:wikidata": "Q668687", "collection_times": "Mo-Fr 15:00; Sa 13:00", "note": "ON 12/24 AND 12/31, THIS BOX MAY BE COLLECTED AS EARLY AS 12 NOON.", "nsi_id": "unitedstatespostalservice-a77078", "operator": "United States Postal Service", "operator:short": "USPS", "operator:type": "public", "operator:wikidata": "Q668687", "ref": "5370400024"}, "type": "Feature"}
{"geometry": {"coordinates": [-89.3084633, 43.127193], "type": "Point"}, "id": "E3oRR3VtFFh8qQqYt7-kRykngHQ=", "properties": {"@source_uri": "https://tools.usps.com/UspsToolsRestServices/rest/POLocator/findLocations", "@spider": "usps_collection_boxes", "addr:city": "MADISON", "addr:country": "US", "addr:postcode": "53704", "addr:state": "WI", "addr:street_address": "4402 E TOWNE", "amenity": "post_box", "brand": "United States Postal Service", "brand:wikidata": "Q668687", "collection_times": "Mo-Fr 15:00; Sa 13:00", "note": "ON 12/24 AND 12/31, THIS BOX MAY BE COLLECTED AS EARLY AS 12 NOON.", "nsi_id": "unitedstatespostalservice-a77078", "operator": "United States Postal Service", "operator:short": "USPS", "operator:type": "public", "operator:wikidata": "Q668687", "ref": "5370400026"}, "type": "Feature"}
{"geometry": {"coordinates": [-89.3640288, 43.094491], "type": "Point"}, "id": "6RoVeHPa7xLBsN-N48tJX3NgHJ4=", "properties": {"@source_uri": "https://tools.usps.com/UspsToolsRestServices/rest/POLocator/findLocations", "@spider": "usps_collection_boxes", "addr:city": "MADISON", "addr:country": "US", "addr:postcode": "53704", "addr:state": "WI", "addr:street_address": "1722 FORDEM AVE", "amenity": "post_box", "brand": "United States Postal Service", "brand:wikidata": "Q668687", "collection_times": "Mo-Sa 13:00", "note": "ON 12/24 AND 12/31, THIS BOX MAY BE COLLECTED AS EARLY AS 12 NOON.", "nsi_id": "unitedstatespostalservice-a77078", "operator": "United States Postal Service", "operator:short": "USPS", "operator:type": "public", "operator:wikidata": "Q668687", "ref": "5370400028"}, "type": "Feature"}
{"geometry": {"coordinates": [-89.350403, 43.103053], "type": "Point"}, "id": "--sbc0elcxj92GnRPshrcZnL_8c=", "properties": {"@source_uri": "https://tools.usps.com/UspsToolsRestServices/rest/POLocator/findLocations", "@spider": "usps_collection_boxes", "addr:city": "MADISON", "addr:country": "US", "addr:postcode": "53704", "addr:state": "WI", "addr:street_address": "2565 E JOHNSON ST", "amenity": "post_box", "brand": "United States Postal Service", "brand:wikidata": "Q668687", "collection_times": "Mo-Sa 13:00", "note": "ON 12/24 AND 12/31, THIS BOX MAY BE COLLECTED AS EARLY AS 12 NOON.", "nsi_id": "unitedstatespostalservice-a77078", "operator": "United States Postal Service", "operator:short": "USPS", "operator:type": "public", "operator:wikidata": "Q668687", "ref": "5370400037"}, "type": "Feature"}
{"geometry": {"coordinates": [-89.3699831, 43.133918], "type": "Point"}, "id": "X6LQlsG1ClhpAsfa0DAQXW4fdNs=", "properties": {"@source_uri": "https://tools.usps.com/UspsToolsRestServices/rest/POLocator/findLocations", "@spider": "usps_collection_boxes", "addr:city": "MADISON", "addr:country": "US", "addr:postcode": "53704", "addr:state": "WI", "addr:street_address": "1438 NORTHPORT DR", "amenity": "post_box", "brand": "United States Postal Service", "brand:wikidata": "Q668687", "collection_times": "Mo-Sa 14:00", "note": "ON 12/24 AND 12/31, THIS BOX MAY BE COLLECTED AS EARLY AS 12 NOON.", "nsi_id": "unitedstatespostalservice-a77078", "operator": "United States Postal Service", "operator:short": "USPS", "operator:type": "public", "operator:wikidata": "Q668687", "ref": "5370400042"}, "type": "Feature"}
{"geometry": {"coordinates": [-89.3611847, 43.129546], "type": "Point"}, "id": "qY9IIeGiCTAdIZeqwfUDYdpsdww=", "properties": {"@source_uri": "https://tools.usps.com/UspsToolsRestServices/rest/POLocator/findLocations", "@spider": "usps_collection_boxes", "addr:city": "MADISON", "addr:country": "US", "addr:postcode": "53704", "addr:state": "WI", "addr:street_address": "2929 N SHERMAN AVE", "amenity": "post_box", "brand": "United States Postal Service", "brand:wikidata": "Q668687", "collection_times": "Mo-Fr 15:00; Sa 13:00", "note": "ON 12/24 AND 12/31, THIS BOX MAY BE COLLECTED AS EARLY AS 12 NOON.", "nsi_id": "unitedstatespostalservice-a77078", "operator": "United States Postal Service", "operator:short": "USPS", "operator:type": "public", "operator:wikidata": "Q668687", "ref": "5370400051"}, "type": "Feature"}
{"geometry": {"coordinates": [-89.3460083, 43.101768], "type": "Point"}, "id": "iSzOsr1PoSGXr4Ja92BCFWPncMY=", "properties": {"@source_uri": "https://tools.usps.com/UspsToolsRestServices/rest/POLocator/findLocations", "@spider": "usps_collection_boxes", "addr:city": "MADISON", "addr:country": "US", "addr:postcode": "53704", "addr:state": "WI", "addr:street_address": "2801 E WASHINGTON AVE", "amenity": "post_box", "brand": "United States Postal Service", "brand:wikidata": "Q668687", "collection_times": "Mo-Sa 12:00", "nsi_id": "unitedstatespostalservice-a77078", "operator": "United States Postal Service", "operator:short": "USPS", "operator:type": "public", "operator:wikidata": "Q668687", "ref": "5370400089"}, "type": "Feature"}
{"geometry": {"coordinates": [-89.3091399, 43.13095], "type": "Point"}, "id": "VcQLrAJO0wnWoFhv9JpDQb78x8o=", "properties": {"@source_uri": "https://tools.usps.com/UspsToolsRestServices/rest/POLocator/findLocations", "@spider": "usps_collection_boxes", "addr:city": "MADISON", "addr:country": "US", "addr:postcode": "53704", "addr:state": "WI", "addr:street_address": "2502 INDEPENDENCE LN", "amenity": "post_box", "brand": "United States Postal Service", "brand:wikidata": "Q668687", "collection_times": "Mo-Sa 13:00", "note": "ON 12/24 AND 12/31, THIS BOX MAY BE COLLECTED AS EARLY AS 12 NOON.", "nsi_id": "unitedstatespostalservice-a77078", "operator": "United States Postal Service", "operator:short": "USPS", "operator:type": "public", "operator:wikidata": "Q668687", "ref": "5370400095"}, "type": "Feature"}
{"geometry": {"coordinates": [-89.3985547, 43.132357], "type": "Point"}, "id": "PWDEG9l5bDcTz0s5AePWVtFuT4I=", "properties": {"@source_uri": "https://tools.usps.com/UspsToolsRestServices/rest/POLocator/findLocations", "@spider": "usps_collection_boxes", "addr:city": "MADISON", "addr:country": "US", "addr:postcode": "53704", "addr:state": "WI", "addr:street_address": "301 TROY DR", "amenity": "post_box", "brand": "United States Postal Service", "brand:wikidata": "Q668687", "collection_times": "Mo-Fr 15:00", "note": "ON 12/24 AND 12/31, THIS BOX MAY BE COLLECTED AS EARLY AS 12 NOON.", "nsi_id": "unitedstatespostalservice-a77078", "operator": "United States Postal Service", "operator:short": "USPS", "operator:type": "public", "operator:wikidata": "Q668687", "ref": "5370400096"}, "type": "Feature"}
{"geometry": {"coordinates": [-89.4560562559, 43.0723509764], "type": "Point"}, "id": "_yXu3C_qUC4VF2Fwz0Fz9Fe2Xvg=", "properties": {"@source_uri": "https://tools.usps.com/UspsToolsRestServices/rest/POLocator/findLocations", "@spider": "usps_collection_boxes", "addr:city": "MADISON", "addr:country": "US", "addr:postcode": "53705", "addr:state": "WI", "addr:street_address": "600 SAWYER TER", "amenity": "post_box", "brand": "United States Postal Service", "brand:wikidata": "Q668687", "collection_times": "Mo-Fr 17:00; Sa 15:45", "note": "ON 12/24 AND 12/31, THIS BOX MAY BE COLLECTED AS EARLY AS 12 NOON.", "nsi_id": "unitedstatespostalservice-a77078", "operator": "United States Postal Service", "operator:short": "USPS", "operator:type": "public", "operator:wikidata": "Q668687", "ref": "5370500001"}, "type": "Feature"}
{"geometry": {"coordinates": [-89.4364344, 43.068067], "type": "Point"}, "id": "FYvaEegd5kSh7xqnBKEZ6bhtxTs=", "properties": {"@source_uri": "https://tools.usps.com/UspsToolsRestServices/rest/POLocator/findLocations", "@spider": "usps_collection_boxes", "addr:city": "MADISON", "addr:country": "US", "addr:postcode": "53705", "addr:state": "WI", "addr:street_address": "2801 REGENT ST", "amenity": "post_box", "brand": "United States Postal Service", "brand:wikidata": "Q668687", "collection_times": "Mo-Sa 13:00", "note": "ON 12/24 AND 12/31, THIS BOX MAY BE COLLECTED AS EARLY AS 12 NOON.", "nsi_id": "unitedstatespostalservice-a77078", "operator": "United States Postal Service", "operator:short": "USPS", "operator:type": "public", "operator:wikidata": "Q668687", "ref": "5370500019"}, "type": "Feature"}
{"geometry": {"coordinates": [-89.430943, 43.07596], "type": "Point"}, "id": "oqJyu_8VJ7HlZeb_BaZUcW2pfKs=", "properties": {"@source_uri": "https://tools.usps.com/UspsToolsRestServices/rest/POLocator/findLocations", "@spider": "usps_collection_boxes", "addr:city": "MADISON", "addr:country": "US", "addr:postcode": "53705", "addr:state": "WI", "addr:street_address": "600 HIGHLAND AVE", "amenity": "post_box", "brand": "United States Postal Service", "brand:wikidata": "Q668687", "collection_times": "Mo-Fr 14:30; Sa 13:00", "note": "ON 12/24 AND 12/31, THIS BOX MAY BE COLLECTED AS EARLY AS 12 NOON.", "nsi_id": "unitedstatespostalservice-a77078", "operator": "United States Postal Service", "operator:short": "USPS", "operator:type": "public", "operator:wikidata": "Q668687", "ref": "5370500021"}, "type": "Feature"}
{"geometry": {"coordinates": [-89.4409223, 43.077196], "type": "Point"}, "id": "JeNyfevj5-FfDDScEzDJQAjXU1Q=", "properties": {"@source_uri": "https://tools.usps.com/UspsToolsRestServices/rest/POLocator/findLocations", "@spider": "usps_collection_boxes", "addr:city": "MADISON", "addr:country": "US", "addr:postcode": "53705", "addr:state": "WI", "addr:street_address": "702 N MIDVALE BLVD", "amenity": "post_box", "brand": "United States Postal Service", "brand:wikidata": "Q668687", "collection_times": "Mo-Fr 15:00; Sa 13:00", "note": "ON 12/24 AND 12/31, THIS BOX MAY BE COLLECTED AS EARLY AS 12 NOON.", "nsi_id": "unitedstatespostalservice-a77078", "operator": "United States Postal Service", "operator:short": "USPS", "operator:type": "public", "operator:wikidata": "Q668687", "ref": "5370500024"}, "type": "Feature"}
{"geometry": {"coordinates": [-89.4513466, 43.068592], "type": "Point"}, "id": "-p2EvOmC4qvfrzFKUWWjbD923eE=", "properties": {"@source_uri": "https://tools.usps.com/UspsToolsRestServices/rest/POLocator/findLocations", "@spider": "usps_collection_boxes", "addr:city": "MADISON", "addr:country": "US", "addr:postcode": "53705", "addr:state": "WI", "addr:street_address": "202 N MIDVALE BLVD", "amenity": "post_box", "brand": "United States Postal Service", "brand:wikidata": "Q668687", "collection_times": "Mo-Sa 13:00", "note": "ON 12/24 AND 12/31, THIS BOX MAY BE COLLECTED AS EARLY AS 12 NOON.", "nsi_id": "unitedstatespostalservice-a77078", "operator": "United States Postal Service", "operator:short": "USPS", "operator:type": "public", "operator:wikidata": "Q668687", "ref": "5370500033"}, "type": "Feature"}
{"geometry": {"coordinates": [-89.4449424, 43.060867], "type": "Point"}, "id": "WmNRth2yxGwzjbieqZuphJNZILc=", "properties": {"@source_uri": "https://tools.usps.com/UspsToolsRestServices/rest/POLocator/findLocations", "@spider": "usps_collection_boxes", "addr:city": "MADISON", "addr:country": "US", "addr:postcode": "53705", "addr:state": "WI", "addr:street_address": "4120 MINERAL POINT RD", "amenity": "post_box", "brand": "United States Postal Service", "brand:wikidata": "Q668687", "collection_times": "Mo-Sa 13:00", "note": "ON 12/24 AND 12/31, THIS BOX MAY BE COLLECTED AS EARLY AS 12 NOON.", "nsi_id": "unitedstatespostalservice-a77078", "operator": "United States Postal Service", "operator:short": "USPS", "operator:type": "public", "operator:wikidata": "Q668687", "ref": "5370500036"}, "type": "Feature"}
{"geometry": {"coordinates": [-89.4729721, 43.074326], "type": "Point"}, "id": "hhFIySmOpxdKOSLR9-pPO4-6X7k=", "properties": {"@source_uri": "https://tools.usps.com/UspsToolsRestServices/rest/POLocator/findLocations", "@spider": "usps_collection_boxes", "addr:city": "MADISON", "addr:country": "US", "addr:postcode": "53705", "addr:state": "WI", "addr:street_address": "5372 OLD MIDDLETON RD", "amenity": "post_box", "brand": "United States Postal Service", "brand:wikidata": "Q668687", "collection_times": "Mo-Sa 13:00", "note": "ON 12/24 AND 12/31, THIS BOX MAY BE COLLECTED AS EARLY AS 12 NOON.", "nsi_id": "unitedstatespostalservice-a77078", "operator": "United States Postal Service", "operator:short": "USPS", "operator:type": "public", "operator:wikidata": "Q668687", "ref": "5370500038"}, "type": "Feature"}
{"geometry": {"coordinates": [-89.4627858, 43.069264], "type": "Point"}, "id": "UmLlVeB_IHxvI8gjo-GLRsIg4-Q=", "properties": {"@source_uri": "https://tools.usps.com/UspsToolsRestServices/rest/POLocator/findLocations", "@spider": "usps_collection_boxes", "addr:city": "MADISON", "addr:country": "US", "addr:postcode": "53705", "addr:state": "WI", "addr:street_address": "4914 REGENT ST", "amenity": "post_box", "brand": "United States Postal Service", "brand:wikidata": "Q668687", "collection_times": "Mo-Sa 13:00", "note": "ON 12/24 AND 12/31, THIS BOX MAY BE COLLECTED AS EARLY AS 12 NOON.", "nsi_id": "unitedstatespostalservice-a77078", "operator": "United States Postal Service", "operator:short": "USPS", "operator:type": "public", "operator:wikidata": "Q668687", "ref": "5370500042"}, "type": "Feature"}
{"geometry": {"coordinates": [-89.4305219, 43.074881], "type": "Point"}, "id": "2AHCjzPV7cvxu-fWZmFXMdh0rJc=", "properties": {"@source_uri": "https://tools.usps.com/UspsToolsRestServices/rest/POLocator/findLocations", "@spider": "usps_collection_boxes", "addr:city": "MADISON", "addr:country": "US", "addr:postcode": "53705", "addr:state": "WI", "addr:street_address": "2500 OVERLOOK TER", "amenity": "post_box", "brand": "United States Postal Service", "brand:wikidata": "Q668687", "collection_times": "Mo-Fr 15:00; Sa 13:00", "note": "ON 12/24 AND 12/31, THIS BOX MAY BE COLLECTED AS EARLY AS 12 NOON.", "nsi_id": "unitedstatespostalservice-a77078", "operator": "United States Postal Service", "operator:short": "USPS", "operator:type": "public", "operator:wikidata": "Q668687", "ref": "5370500051"}, "type": "Feature"}
{"geometry": {"coordinates": [-89.4409223, 43.077196], "type": "Point"}, "id": "RntMkYZjJGbWWkZDugK55QMsAXY=", "properties": {"@source_uri": "https://tools.usps.com/UspsToolsRestServices/rest/POLocator/findLocations", "@spider": "usps_collection_boxes", "addr:city": "MADISON", "addr:country": "US", "addr:postcode": "53705", "addr:state": "WI", "addr:street_address": "601 SAWYER TER", "amenity": "post_box", "brand": "United States Postal Service", "brand:wikidata": "Q668687", "collection_times": "Mo-Fr 17:00; Sa 15:30", "note": "ON 12/24 AND 12/31, THIS BOX MAY BE COLLECTED AS EARLY AS 12 NOON.", "nsi_id": "unitedstatespostalservice-a77078", "operator": "United States Postal Service", "operator:short": "USPS", "operator:type": "public", "operator:wikidata": "Q668687", "ref": "5370500064"}, "type": "Feature"}
{"geometry": {"coordinates": [-89.4757478, 43.08238], "type": "Point"}, "id": "3-d0lbuoz0vUNBUtPtf7A7epp8g=", "properties": {"@source_uri": "https://tools.usps.com/UspsToolsRestServices/rest/POLocator/findLocations", "@spider": "usps_collection_boxes", "addr:city": "MADISON", "addr:country": "US", "addr:postcode": "53705", "addr:state": "WI", "addr:street_address": "5445 UNIVERSITY AVE", "amenity": "post_box", "brand": "United States Postal Service", "brand:wikidata": "Q668687", "collection_times": "Mo-Fr 15:00; Sa 13:00", "note": "ON 12/24 AND 12/31, THIS BOX MAY BE COLLECTED AS EARLY AS 12 NOON.", "nsi_id": "unitedstatespostalservice-a77078", "operator": "United States Postal Service", "operator:short": "USPS", "operator:type": "public", "operator:wikidata": "Q668687", "ref": "5370500077"}, "type": "Feature"}
{"geometry": {"coordinates": [-89.4530295, 43.072866], "type": "Point"}, "id": "9VDp0hyGMl6dOgnr7mLN2rKNCAc=", "properties": {"@source_uri": "https://tools.usps.com/UspsToolsRestServices/rest/POLocator/findLocations", "@spider": "usps_collection_boxes", "addr:city": "MADISON", "addr:country": "US", "addr:postcode": "53705", "addr:state": "WI", "addr:street_address": "601 SAWYER TER", "amenity": "post_box", "brand": "United States Postal Service", "brand:wikidata": "Q668687", "collection_times": "Mo-Fr 17:00; Sa 15:30", "name": "USPS COLLECTION BOX - APC", "note": "ON 12/24 AND 12/31, THIS BOX MAY BE COLLECTED AS EARLY AS 12 NOON.", "nsi_id": "unitedstatespostalservice-a77078", "operator": "United States Postal Service", "operator:short": "USPS", "operator:type": "public", "operator:wikidata": "Q668687", "ref": "5370500080"}, "type": "Feature"}
{"geometry": {"coordinates": [-89.4363823, 43.07514], "type": "Point"}, "id": "FhF73M7JdksCboW4nvOtWGk_6RI=", "properties": {"@source_uri": "https://tools.usps.com/UspsToolsRestServices/rest/POLocator/findLocations", "@spider": "usps_collection_boxes", "addr:city": "MADISON", "addr:country": "US", "addr:postcode": "53705", "addr:state": "WI", "addr:street_address": "2716 MARSHALL CT", "amenity": "post_box", "brand": "United States Postal Service", "brand:wikidata": "Q668687", "collection_times": "Mo-Fr 15:00; Sa 12:00", "note": "ON 12/24 AND 12/31, THIS BOX MAY BE COLLECTED AS EARLY AS 12 NOON.", "nsi_id": "unitedstatespostalservice-a77078", "operator": "United States Postal Service", "operator:short": "USPS", "operator:type": "public", "operator:wikidata": "Q668687", "ref": "5370500083"}, "type": "Feature"}
{"geometry": {"coordinates": [-89.4466694, 43.075623], "type": "Point"}, "id": "UC9ZvkjoG3qJuZirwb9UhO4soIQ=", "properties": {"@source_uri": "https://tools.usps.com/UspsToolsRestServices/rest/POLocator/findLocations", "@spider": "usps_collection_boxes", "addr:city": "MADISON", "addr:country": "US", "addr:postcode": "53705", "addr:state": "WI", "addr:street_address": "800 JOYCE ERDMAN PL", "amenity": "post_box", "brand": "United States Postal Service", "brand:wikidata": "Q668687", "collection_times": "Mo-Fr 15:00; Sa 13:00", "note": "ON 12/24 AND 12/31, THIS BOX MAY BE COLLECTED AS EARLY AS 12 NOON.", "nsi_id": "unitedstatespostalservice-a77078", "operator": "United States Postal Service", "operator:short": "USPS", "operator:type": "public", "operator:wikidata": "Q668687", "ref": "5370500085"}, "type": "Feature"}
{"geometry": {"coordinates": [-89.4367731, 43.087873], "type": "Point"}, "id": "tVEPCc1snu9VjzStL8Y1IdrwR0Q=", "properties": {"@source_uri": "https://tools.usps.com/UspsToolsRestServices/rest/POLocator/findLocations", "@spider": "usps_collection_boxes", "addr:city": "MADISON", "addr:country": "US", "addr:postcode": "53705", "addr:state": "WI", "addr:street_address": "611 EAGLE HTS", "amenity": "post_box", "brand": "United States Postal Service", "brand:wikidata": "Q668687", "collection_times": "Mo-Sa 13:00", "note": "ON 12/24 AND 12/31, THIS BOX MAY BE COLLECTED AS EARLY AS 12 NOON.", "nsi_id": "unitedstatespostalservice-a77078", "operator": "United States Postal Service", "operator:short": "USPS", "operator:type": "public", "operator:wikidata": "Q668687", "ref": "5370500086"}, "type": "Feature"}
{"geometry": {"coordinates": [-89.4409223, 43.077196], "type": "Point"}, "id": "HXrJRusCk3KKvUXS1qUwHw67ReA=", "properties": {"@source_uri": "https://tools.usps.com/UspsToolsRestServices/rest/POLocator/findLocations", "@spider": "usps_collection_boxes", "addr:city": "MADISON", "addr:country": "US", "addr:postcode": "53705", "addr:state": "WI", "addr:street_address": "600 SAWYER TER", "amenity": "post_box", "brand": "United States Postal Service", "brand:wikidata": "Q668687", "collection_times": "Mo-Fr 18:00; Sa 14:00", "indoor": "yes", "note": "ON 12/24 AND 12/31, THIS BOX MAY BE COLLECTED AS EARLY AS 12 NOON.", "nsi_id": "unitedstatespostalservice-a77078", "operator": "United States Postal Service", "operator:short": "USPS", "operator:type": "public", "operator:wikidata": "Q668687", "ref": "5370500092"}, "type": "Feature"}
{"geometry": {"coordinates": [-89.4113027, 43.077713], "type": "Point"}, "id": "mKQsnOfef1wm-ifhjVyVIL-9yVI=", "properties": {"@source_uri": "https://tools.usps.com/UspsToolsRestServices/rest/POLocator/findLocations", "@spider": "usps_collection_boxes", "addr:city": "MADISON", "addr:country": "US", "addr:postcode": "53706", "addr:state": "WI", "addr:street_address": "1510 TRIPP CIR", "amenity": "post_box", "brand": "United States Postal Service", "brand:wikidata": "Q668687", "collection_times": "Mo-Fr 14:00; Sa 13:00", "note": "ON 12/24 AND 12/31, THIS BOX MAY BE COLLECTED AS EARLY AS 12 NOON.", "nsi_id": "unitedstatespostalservice-a77078", "operator": "United States Postal Service", "operator:short": "USPS", "operator:type": "public", "operator:wikidata": "Q668687", "ref": "5370600000"}, "type": "Feature"}
{"geometry": {"coordinates": [-89.4062934, 43.074827], "type": "Point"}, "id": "0DNUxvQRJNH4CAl_xic5mjfpTeM=", "properties": {"@source_uri": "https://tools.usps.com/UspsToolsRestServices/rest/POLocator/findLocations", "@spider": "usps_collection_boxes", "addr:city": "MADISON", "addr:country": "US", "addr:postcode": "53706", "addr:state": "WI", "addr:street_address": "475 N CHARTER ST", "amenity": "post_box", "brand": "United States Postal Service", "brand:wikidata": "Q668687", "collection_times": "Mo-Fr 14:00; Sa 13:00", "note": "ON 12/24 AND 12/31, THIS BOX MAY BE COLLECTED AS EARLY AS 12 NOON.", "nsi_id": "unitedstatespostalservice-a77078", "operator": "United States Postal Service", "operator:short": "USPS", "operator:type": "public", "operator:wikidata": "Q668687", "ref": "5370600001"}, "type": "Feature"}
{"geometry": {"coordinates": [-89.4038589, 43.07578], "type": "Point"}, "id": "9UxZ2Ab_4phDU-ka9ZivJuD3No8=", "properties": {"@source_uri": "https://tools.usps.com/UspsToolsRestServices/rest/POLocator/findLocations", "@spider": "usps_collection_boxes", "addr:city": "MADISON", "addr:country": "US", "addr:postcode": "53706", "addr:state": "WI", "addr:street_address": "1065 OBSERVATORY DR", "amenity": "post_box", "brand": "United States Postal Service", "brand:wikidata": "Q668687", "collection_times": "Mo-Fr 14:00; Sa 13:00", "note": "ON 12/24 AND 12/31, THIS BOX MAY BE COLLECTED AS EARLY AS 12 NOON.", "nsi_id": "unitedstatespostalservice-a77078", "operator": "United States Postal Service", "operator:short": "USPS", "operator:type": "public", "operator:wikidata": "Q668687", "ref": "5370600004"}, "type": "Feature"}
{"geometry": {"coordinates": [-89.4070561, 43.076623], "type": "Point"}, "id": "OUv1G2iL2XU5FH5Oo8zvv0mgFgU=", "properties": {"@source_uri": "https://tools.usps.com/UspsToolsRestServices/rest/POLocator/findLocations", "@spider": "usps_collection_boxes", "addr:city": "MADISON", "addr:country": "US", "addr:postcode": "53706", "addr:state": "WI", "addr:street_address": "1200 OBSERVATORY DR", "amenity": "post_box", "brand": "United States Postal Service", "brand:wikidata": "Q668687", "collection_times": "Mo-Fr 14:00; Sa 13:00", "note": "ON 12/24 AND 12/31, THIS BOX MAY BE COLLECTED AS EARLY AS 12 NOON.", "nsi_id": "unitedstatespostalservice-a77078", "operator": "United States Postal Service", "operator:short": "USPS", "operator:type": "public", "operator:wikidata": "Q668687", "ref": "5370600006"}, "type": "Feature"}
{"geometry": {"coordinates": [-89.4143537, 43.075093], "type": "Point"}, "id": "Td2rM4bDKqGxx_ORCYDb72nwHHA=", "properties": {"@source_uri": "https://tools.usps.com/UspsToolsRestServices/rest/POLocator/findLocations", "@spider": "usps_collection_boxes", "addr:city": "MADISON", "addr:country": "US", "addr:postcode": "53706", "addr:state": "WI", "addr:street_address": "1645 LINDEN DR", "amenity": "post_box", "brand": "United States Postal Service", "brand:wikidata": "Q668687", "collection_times": "Mo-Fr 14:00; Sa 13:00", "note": "ON 12/24 AND 12/31, THIS BOX MAY BE COLLECTED AS EARLY AS 12 NOON.", "nsi_id": "unitedstatespostalservice-a77078", "operator": "United States Postal Service", "operator:short": "USPS", "operator:type": "public", "operator:wikidata": "Q668687", "ref": "5370600007"}, "type": "Feature"}
{"geometry": {"coordinates": [-89.4007329, 43.076142], "type": "Point"}, "id": "QAR-2p3yciUCYFIDRWXTscdMZzQ=", "properties": {"@source_uri": "https://tools.usps.com/UspsToolsRestServices/rest/POLocator/findLocations", "@spider": "usps_collection_boxes", "addr:city": "MADISON", "addr:country": "US", "addr:postcode": "53706", "addr:state": "WI", "addr:street_address": "800 LANGDON ST", "amenity": "post_box", "brand": "United States Postal Service", "brand:wikidata": "Q668687", "collection_times": "Mo-Fr 14:00; Sa 13:00", "note": "ON 12/24 AND 12/31, THIS BOX MAY BE COLLECTED AS EARLY AS 12 NOON.", "nsi_id": "unitedstatespostalservice-a77078", "operator": "United States Postal Service", "operator:short": "USPS", "operator:type": "public", "operator:wikidata": "Q668687", "ref": "5370600014"}, "type": "Feature"}
{"geometry": {"coordinates": [-89.4086177, 43.073445], "type": "Point"}, "id": "ka0lorlO0v5AANa81n-VjQv4h2s=", "properties": {"@source_uri": "https://tools.usps.com/UspsToolsRestServices/rest/POLocator/findLocations", "@spider": "usps_collection_boxes", "addr:city": "MADISON", "addr:country": "US", "addr:postcode": "53706", "addr:state": "WI", "addr:street_address": "1300 UNIVERSITY AVE", "amenity": "post_box", "brand": "United States Postal Service", "brand:wikidata": "Q668687", "collection_times": "Mo-Fr 14:00", "note": "ON 12/24 AND 12/31, THIS BOX MAY BE COLLECTED AS EARLY AS 12 NOON.", "nsi_id": "unitedstatespostalservice-a77078", "operator": "United States Postal Service", "operator:short": "USPS", "operator:type": "public", "operator:wikidata": "Q668687", "ref": "5370600017"}, "type": "Feature"}
{"geometry": {"coordinates": [-89.4011121, 43.074169], "type": "Point"}, "id": "6ljv62WsNYAyRnkwcDBYlI6llCg=", "properties": {"@source_uri": "https://tools.usps.com/UspsToolsRestServices/rest/POLocator/findLocations", "@spider": "usps_collection_boxes", "addr:city": "MADISON", "addr:country": "US", "addr:postcode": "53706", "addr:state": "WI", "addr:street_address": "420 N PARK ST", "amenity": "post_box", "brand": "United States Postal Service", "brand:wikidata": "Q668687", "collection_times": "Mo-Fr 14:00; Sa 13:00", "note": "ON 12/24 AND 12/31, THIS BOX MAY BE COLLECTED AS EARLY AS 12 NOON.", "nsi_id": "unitedstatespostalservice-a77078", "operator": "United States Postal Service", "operator:short": "USPS", "operator:type": "public", "operator:wikidata": "Q668687", "ref": "5370600019"}, "type": "Feature"}
{"geometry": {"coordinates": [-89.4957528, 43.048433], "type": "Point"}, "id": "1YWI4HYr0xM5ATq7G7UoyjI18e0=", "properties": {"@source_uri": "https://tools.usps.com/UspsToolsRestServices/rest/POLocator/findLocations", "@spider": "usps_collection_boxes", "addr:city": "FITCHBURG", "addr:country": "US", "addr:postcode": "53711", "addr:state": "WI", "addr:street_address": "733 STRUCK ST", "amenity": "post_box", "brand": "United States Postal Service", "brand:wikidata": "Q668687", "collection_times": "Mo-Fr 17:00; Sa 16:30", "note": "ON 12/24 AND 12/31, THIS BOX MAY BE COLLECTED AS EARLY AS 12 NOON.", "nsi_id": "unitedstatespostalservice-a77078", "operator": "United States Postal Service", "operator:short": "USPS", "operator:type": "public", "operator:wikidata": "Q668687", "ref": "5371100003"}, "type": "Feature"}
{"geometry": {"coordinates": [-89.4957711, 43.048426], "type": "Point"}, "id": "MaeahG8vXsl6hMbl-Ccd-GdRUrk=", "properties": {"@source_uri": "https://tools.usps.com/UspsToolsRestServices/rest/POLocator/findLocations", "@spider": "usps_collection_boxes", "addr:city": "FITCHBURG", "addr:country": "US", "addr:postcode": "53711", "addr:state": "WI", "addr:street_address": "733 STRUCK ST", "amenity": "post_box", "brand": "United States Postal Service", "brand:wikidata": "Q668687", "collection_times": "Mo-Fr 17:00; Sa 16:30", "note": "ON 12/24 AND 12/31, THIS BOX MAY BE COLLECTED AS EARLY AS 12 NOON.", "nsi_id": "unitedstatespostalservice-a77078", "operator": "United States Postal Service", "operator:short": "USPS", "operator:type": "public", "operator:wikidata": "Q668687", "ref": "5371100004"}, "type": "Feature"}
{"geometry": {"coordinates": [-89.4174309, 43.06463], "type": "Point"}, "id": "pPVfCJqMJJfpjjLQvJ4ffEvuMiI=", "properties": {"@source_uri": "https://tools.usps.com/UspsToolsRestServices/rest/POLocator/findLocations", "@spider": "usps_collection_boxes", "addr:city": "FITCHBURG", "addr:country": "US", "addr:postcode": "53711", "addr:state": "WI", "addr:street_address": "1875 MONROE ST", "amenity": "post_box", "brand": "United States Postal Service", "brand:wikidata": "Q668687", "collection_times": "Mo-Fr 14:00; Sa 13:00", "note": "ON 12/24 AND 12/31, THIS BOX MAY BE COLLECTED AS EARLY AS 12 NOON.", "nsi_id": "unitedstatespostalservice-a77078", "operator": "United States Postal Service", "operator:short": "USPS", "operator:type": "public", "operator:wikidata": "Q668687", "ref": "5371100007"}, "type": "Feature"}
{"geometry": {"coordinates": [-89.4359231, 43.052607], "type": "Point"}, "id": "ws-p72hZMudb-8GPA6ftb_iCpio=", "properties": {"@source_uri": "https://tools.usps.com/UspsToolsRestServices/rest/POLocator/findLocations", "@spider": "usps_collection_boxes", "addr:city": "FITCHBURG", "addr:country": "US", "addr:postcode": "53711", "addr:state": "WI", "addr:street_address": "3506 MONROE ST", "amenity": "post_box", "brand": "United States Postal Service", "brand:wikidata": "Q668687", "collection_times": "Mo-Fr 15:00; Sa 13:00", "note": "ON 12/24 AND 12/31, THIS BOX MAY BE COLLECTED AS EARLY AS 12 NOON.", "nsi_id": "unitedstatespostalservice-a77078", "operator": "United States Postal Service", "operator:short": "USPS", "operator:type": "public", "operator:wikidata": "Q668687", "ref": "5371100009"}, "type": "Feature"}
{"geometry": {"coordinates": [-89.4556911, 43.039111], "type": "Point"}, "id": "vyqNJDBhNw8OXBEeVEZfFvnMKk0=", "properties": {"@source_uri": "https://tools.usps.com/UspsToolsRestServices/rest/POLocator/findLocations", "@spider": "usps_collection_boxes", "addr:city": "FITCHBURG", "addr:country": "US", "addr:postcode": "53711", "addr:state": "WI", "addr:street_address": "4604 HAMMERSLEY RD", "amenity": "post_box", "brand": "United States Postal Service", "brand:wikidata": "Q668687", "collection_times": "Mo-Sa 13:00", "note": "ON 12/24 AND 12/31, THIS BOX MAY BE COLLECTED AS EARLY AS 12 NOON.", "nsi_id": "unitedstatespostalservice-a77078", "operator": "United States Postal Service", "operator:short": "USPS", "operator:type": "public", "operator:wikidata": "Q668687", "ref": "5371100016"}, "type": "Feature"}
{"geometry": {"coordinates": [-89.4587791421, 43.0537414657], "type": "Point"}, "id": "sT5k5nKU3LAtpq831wZIQn4Lo5g=", "properties": {"@source_uri": "https://tools.usps.com/UspsToolsRestServices/rest/POLocator/findLocations", "@spider": "usps_collection_boxes", "addr:city": "FITCHBURG", "addr:country": "US", "addr:postcode": "53711", "addr:state": "WI", "addr:street_address": "4802 TOKAY BLVD", "amenity": "post_box", "brand": "United States Postal Service", "brand:wikidata": "Q668687", "collection_times": "Mo-Sa 13:00", "note": "ON 12/24 AND 12/31, THIS BOX MAY BE COLLECTED AS EARLY AS 12 NOON.", "nsi_id": "unitedstatespostalservice-a77078", "operator": "United States Postal Service", "operator:short": "USPS", "operator:type": "public", "operator:wikidata": "Q668687", "ref": "5371100017"}, "type": "Feature"}
{"geometry": {"coordinates": [-89.4509811, 43.045862], "type": "Point"}, "id": "541ql_7kqTW01tBvUSPasHKPnZA=", "properties": {"@source_uri": "https://tools.usps.com/UspsToolsRestServices/rest/POLocator/findLocations", "@spider": "usps_collection_boxes", "addr:city": "FITCHBURG", "addr:country": "US", "addr:postcode": "53711", "addr:state": "WI", "addr:street_address": "901 S MIDVALE BLVD", "amenity": "post_box", "brand": "United States Postal Service", "brand:wikidata": "Q668687", "collection_times": "Mo-Sa 13:00", "note": "ON 12/24 AND 12/31, THIS BOX MAY BE COLLECTED AS EARLY AS 12 NOON.", "nsi_id": "unitedstatespostalservice-a77078", "operator": "United States Postal Service", "operator:short": "USPS", "operator:type": "public", "operator:wikidata": "Q668687", "ref": "5371100023"}, "type": "Feature"}
{"geometry": {"coordinates": [-89.4977627, 43.03216], "type": "Point"}, "id": "0dI8dB-Xq9YIb8YYTf0MQdn1wJI=", "properties": {"@source_uri": "https://tools.usps.com/UspsToolsRestServices/rest/POLocator/findLocations", "@spider": "usps_collection_boxes", "addr:city": "FITCHBURG", "addr:country": "US", "addr:postcode": "53711", "addr:state": "WI", "addr:street_address": "6706 RAYMOND RD", "amenity": "post_box", "brand": "United States Postal Service", "brand:wikidata": "Q668687", "collection_times": "Mo-Fr 15:00; Sa 13:00", "note": "ON 12/24 AND 12/31, THIS BOX MAY BE COLLECTED AS EARLY AS 12 NOON.", "nsi_id": "unitedstatespostalservice-a77078", "operator": "United States Postal Service", "operator:short": "USPS", "operator:type": "public", "operator:wikidata": "Q668687", "ref": "5371100035"}, "type": "Feature"}
{"geometry": {"coordinates": [-89.4682711, 43.058448], "type": "Point"}, "id": "iNZS0u14ErYaV6pgIQ1jPoxwVrE=", "properties": {"@source_uri": "https://tools.usps.com/UspsToolsRestServices/rest/POLocator/findLocations", "@spider": "usps_collection_boxes", "addr:city": "FITCHBURG", "addr:country": "US", "addr:postcode": "53711", "addr:state": "WI", "addr:street_address": "455 SCIENCE DR", "amenity": "post_box", "brand": "United States Postal Service", "brand:wikidata": "Q668687", "collection_times": "Mo-Fr 14:00; Sa 12:00", "note": "ON 12/24 AND 12/31, THIS BOX MAY BE COLLECTED AS EARLY AS 12 NOON.", "nsi_id": "unitedstatespostalservice-a77078", "operator": "United States Postal Service", "operator:short": "USPS", "operator:type": "public", "operator:wikidata": "Q668687", "ref": "5371100037"}, "type": "Feature"}
{"geometry": {"coordinates": [-89.4552119, 43.03316], "type": "Point"}, "id": "UBLH6aIdYqYGkv1oNmPeSSnyFjQ=", "properties": {"@source_uri": "https://tools.usps.com/UspsToolsRestServices/rest/POLocator/findLocations", "@spider": "usps_collection_boxes", "addr:city": "FITCHBURG", "addr:country": "US", "addr:postcode": "53711", "addr:state": "WI", "addr:street_address": "4641 VERONA RD", "amenity": "post_box", "brand": "United States Postal Service", "brand:wikidata": "Q668687", "collection_times": "Mo-Fr 15:00; Sa 13:00", "note": "ON 12/24 AND 12/31, THIS BOX MAY BE COLLECTED AS EARLY AS 12 NOON.", "nsi_id": "unitedstatespostalservice-a77078", "operator": "United States Postal Service", "operator:short": "USPS", "operator:type": "public", "operator:wikidata": "Q668687", "ref": "5371100042"}, "type": "Feature"}
{"geometry": {"coordinates": [-89.475523, 43.05236], "type": "Point"}, "id": "bZbhUcttlP-Xy8yxl_4Uars8zVA=", "properties": {"@source_uri": "https://tools.usps.com/UspsToolsRestServices/rest/POLocator/findLocations", "@spider": "usps_collection_boxes", "addr:city": "FITCHBURG", "addr:country": "US", "addr:postcode": "53711", "addr:state": "WI", "addr:street_address": "606 S WHITNEY WAY", "amenity": "post_box", "brand": "United States Postal Service", "brand:wikidata": "Q668687", "collection_times": "Mo-Fr 14:00; Sa 12:00", "note": "ON 12/24 AND 12/31, THIS BOX MAY BE COLLECTED AS EARLY AS 12 NOON.", "nsi_id": "unitedstatespostalservice-a77078", "operator": "United States Postal Service", "operator:short": "USPS", "operator:type": "public", "operator:wikidata": "Q668687", "ref": "5371100047"}, "type": "Feature"}
{"geometry": {"coordinates": [-89.4110053, 43.068821], "type": "Point"}, "id": "yCGsHmOeeH6aYjN4a-3nQ4i8VK0=", "properties": {"@source_uri": "https://tools.usps.com/UspsToolsRestServices/rest/POLocator/findLocations", "@spider": "usps_collection_boxes", "addr:city": "FITCHBURG", "addr:country": "US", "addr:postcode": "53711", "addr:state": "WI", "addr:street_address": "1433 MONROE ST", "amenity": "post_box", "brand": "United States Postal Service", "brand:wikidata": "Q668687", "collection_times": "Mo-Fr 13:00", "note": "ON 12/24 AND 12/31, THIS BOX MAY BE COLLECTED AS EARLY AS 12 NOON.", "nsi_id": "unitedstatespostalservice-a77078", "operator": "United States Postal Service", "operator:short": "USPS", "operator:type": "public", "operator:wikidata": "Q668687", "ref": "5371100049"}, "type": "Feature"}
{"geometry": {"coordinates": [-89.4271529, 43.014719], "type": "Point"}, "id": "jPZvkhtk3TzLjMnJcD29JStjt6Q=", "properties": {"@source_uri": "https://tools.usps.com/UspsToolsRestServices/rest/POLocator/findLocations", "@spider": "usps_collection_boxes", "addr:city": "FITCHBURG", "addr:country": "US", "addr:postcode": "53711", "addr:state": "WI", "addr:street_address": "2937 S FISH HATCHERY RD", "amenity": "post_box", "brand": "United States Postal Service", "brand:wikidata": "Q668687", "collection_times": "Mo-Fr 12:30; Sa 12:00", "note": "ON 12/24 AND 12/31, THIS BOX MAY BE COLLECTED AS EARLY AS 12 NOON.", "nsi_id": "unitedstatespostalservice-a77078", "operator": "United States Postal Service", "operator:short": "USPS", "operator:type": "public", "operator:wikidata": "Q668687", "ref": "5371100054"}, "type": "Feature"}
{"geometry": {"coordinates": [-89.4717941, 43.056055], "type": "Point"}, "id": "tJjEvfiv3Q8hdbl3qDtucJIRzi0=", "properties": {"@source_uri": "https://tools.usps.com/UspsToolsRestServices/rest/POLocator/findLocations", "@spider": "usps_collection_boxes", "addr:city": "FITCHBURG", "addr:country": "US", "addr:postcode": "53711", "addr:state": "WI", "addr:street_address": "644 SCIENCE DR", "amenity": "post_box", "brand": "United States Postal Service", "brand:wikidata": "Q668687", "collection_times": "Mo-Fr 14:00; Sa 12:00", "note": "ON 12/24 AND 12/31, THIS BOX MAY BE COLLECTED AS EARLY AS 12 NOON.", "nsi_id": "unitedstatespostalservice-a77078", "operator": "United States Postal Service", "operator:short": "USPS", "operator:type": "public", "operator:wikidata": "Q668687", "ref": "5371100058"}, "type": "Feature"}
{"geometry": {"coordinates": [-89.4551623, 43.014288], "type": "Point"}, "id": "JO3uliM8I3kMjav4rPwGoUy54B4=", "properties": {"@source_uri": "https://tools.usps.com/UspsToolsRestServices/rest/POLocator/findLocations", "@spider": "usps_collection_boxes", "addr:city": "FITCHBURG", "addr:country": "US", "addr:postcode": "53711", "addr:state": "WI", "addr:street_address": "5950 SEMINOLE CENTRE CT", "amenity": "post_box", "brand": "United States Postal Service", "brand:wikidata": "Q668687", "collection_times": "Mo-Fr 13:00; Sa 12:00", "note": "ON 12/24 AND 12/31, THIS BOX MAY BE COLLECTED AS EARLY AS 12 NOON.", "nsi_id": "unitedstatespostalservice-a77078", "operator": "United States Postal Service", "operator:short": "USPS", "operator:type": "public", "operator:wikidata": "Q668687", "ref": "5371100061"}, "type": "Feature"}
{"geometry": {"coordinates": [-89.495959, 43.049438], "type": "Point"}, "id": "CeJt8T1moLUdj95PqX71NIvCCao=", "properties": {"@source_uri": "https://tools.usps.com/UspsToolsRestServices/rest/POLocator/findLocations", "@spider": "usps_collection_boxes", "addr:city": "FITCHBURG", "addr:country": "US", "addr:postcode": "53711", "addr:state": "WI", "addr:street_address": "733 STRUCK ST", "amenity": "post_box", "brand": "United States Postal Service", "brand:wikidata": "Q668687", "collection_times": "Mo-Fr 18:00; Sa 16:30", "indoor": "yes", "note": "ON 12/24 AND 12/31, THIS BOX MAY BE COLLECTED AS EARLY AS 12 NOON.", "nsi_id": "unitedstatespostalservice-a77078", "operator": "United States Postal Service", "operator:short": "USPS", "operator:type": "public", "operator:wikidata": "Q668687", "ref": "5371100064"}, "type": "Feature"}
{"geometry": {"coordinates": [-89.4551554, 43.014291], "type": "Point"}, "id": "DtudI2phPagaWYXPyx7_i1d1ZLw=", "properties": {"@source_uri": "https://tools.usps.com/UspsToolsRestServices/rest/POLocator/findLocations", "@spider": "usps_collection_boxes", "addr:city": "FITCHBURG", "addr:country": "US", "addr:postcode": "53711", "addr:state": "WI", "addr:street_address": "5950 SEMINOLE CENTRE CT", "amenity": "post_box", "brand": "United States Postal Service", "brand:wikidata": "Q668687", "collection_times": "Mo-Fr 13:00; Sa 12:00", "note": "ON 12/24 AND 12/31, THIS BOX MAY BE COLLECTED AS EARLY AS 12 NOON.", "nsi_id": "unitedstatespostalservice-a77078", "operator": "United States Postal Service", "operator:short": "USPS", "operator:type": "public", "operator:wikidata": "Q668687", "ref": "5371100068"}, "type": "Feature"}
{"geometry": {"coordinates": [-89.4782699, 43.032296], "type": "Point"}, "id": "D23VZ7kjMm7cEtD-Rle0FQ9Wyzc=", "properties": {"@source_uri": "https://tools.usps.com/UspsToolsRestServices/rest/POLocator/findLocations", "@spider": "usps_collection_boxes", "addr:city": "FITCHBURG", "addr:country": "US", "addr:postcode": "53711", "addr:state": "WI", "addr:street_address": "5718 RAYMOND RD", "amenity": "post_box", "brand": "United States Postal Service", "brand:wikidata": "Q668687", "collection_times": "Mo-Fr 15:00; Sa 13:00", "note": "ON 12/24 AND 12/31, THIS BOX MAY BE COLLECTED AS EARLY AS 12 NOON.", "nsi_id": "unitedstatespostalservice-a77078", "operator": "United States Postal Service", "operator:short": "USPS", "operator:type": "public", "operator:wikidata": "Q668687", "ref": "5371100069"}, "type": "Feature"}
{"geometry": {"coordinates": [-89.4090833, 43.06797], "type": "Point"}, "id": "0FJNuAwsVzjKxkepGxsrJglzzfM=", "properties": {"@source_uri": "https://tools.usps.com/UspsToolsRestServices/rest/POLocator/findLocations", "@spider": "usps_collection_boxes", "addr:city": "FITCHBURG", "addr:country": "US", "addr:postcode": "53711", "addr:state": "WI", "addr:street_address": "1400 REGENT ST", "amenity": "post_box", "brand": "United States Postal Service", "brand:wikidata": "Q668687", "collection_times": "Mo-Fr 13:00; Sa 12:00", "note": "ON 12/24 AND 12/31, THIS BOX MAY BE COLLECTED AS EARLY AS 12 NOON.", "nsi_id": "unitedstatespostalservice-a77078", "operator": "United States Postal Service", "operator:short": "USPS", "operator:type": "public", "operator:wikidata": "Q668687", "ref": "5371100070"}, "type": "Feature"}
{"geometry": {"coordinates": [-89.4224475, 43.018281], "type": "Point"}, "id": "-HZomGYLOGd6pm4A_RNAQr8uvaA=", "properties": {"@source_uri": "https://tools.usps.com/UspsToolsRestServices/rest/POLocator/findLocations", "@spider": "usps_collection_boxes", "addr:city": "FITCHBURG", "addr:country": "US", "addr:postcode": "53711", "addr:state": "WI", "addr:street_address": "3000 CAHILL MAIN", "amenity": "post_box", "brand": "United States Postal Service", "brand:wikidata": "Q668687", "collection_times": "Sa 14:30", "note": "ON 12/24 AND 12/31, THIS BOX MAY BE COLLECTED AS EARLY AS 12 NOON.", "nsi_id": "unitedstatespostalservice-a77078", "operator": "United States Postal Service", "operator:short": "USPS", "operator:type": "public", "operator:wikidata": "Q668687", "ref": "5371100072"}, "type": "Feature"}
{"geometry": {"coordinates": [-89.4271473, 43.014717], "type": "Point"}, "id": "czH5OS8TYgT5p1E2bjqbhn0aXso=", "properties": {"@source_uri": "https://tools.usps.com/UspsToolsRestServices/rest/POLocator/findLocations", "@spider": "usps_collection_boxes", "addr:city": "FITCHBURG", "addr:country": "US", "addr:postcode": "53711", "addr:state": "WI", "addr:street_address": "2937 S FISH HATCHERY RD", "amenity": "post_box", "brand": "United States Postal Service", "brand:wikidata": "Q668687", "collection_times": "Mo-Fr 12:30; Sa 12:00", "note": "ON 12/24 AND 12/31, THIS BOX MAY BE COLLECTED AS EARLY AS 12 NOON.", "nsi_id": "unitedstatespostalservice-a77078", "operator": "United States Postal Service", "operator:short": "USPS", "operator:type": "public", "operator:wikidata": "Q668687", "ref": "5371100076"}, "type": "Feature"}
{"geometry": {"coordinates": [-89.4224475, 43.018281], "type": "Point"}, "id": "9bvEiMHjV5Awc2tQlRqqNZMwZo0=", "properties": {"@source_uri": "https://tools.usps.com/UspsToolsRestServices/rest/POLocator/findLocations", "@spider": "usps_collection_boxes", "addr:city": "FITCHBURG", "addr:country": "US", "addr:postcode": "53711", "addr:state": "WI", "addr:street_address": "3000 CAHILL MAIN", "amenity": "post_box", "brand": "United States Postal Service", "brand:wikidata": "Q668687", "collection_times": "Sa 14:30", "note": "ON 12/24 AND 12/31, THIS BOX MAY BE COLLECTED AS EARLY AS 12 NOON.", "nsi_id": "unitedstatespostalservice-a77078", "operator": "United States Postal Service", "operator:short": "USPS", "operator:type": "public", "operator:wikidata": "Q668687", "ref": "5371100078"}, "type": "Feature"}
{"geometry": {"coordinates": [-89.45389139, 43.0275844883], "type": "Point"}, "id": "sFRmuXLzP7_LV2811yhqLQ1V260=", "properties": {"@source_uri": "https://tools.usps.com/UspsToolsRestServices/rest/POLocator/findLocations", "@spider": "usps_collection_boxes", "addr:city": "FITCHBURG", "addr:country": "US", "addr:postcode": "53711", "addr:state": "WI", "addr:street_address": "733 STRUCK ST", "amenity": "post_box", "brand": "United States Postal Service", "brand:wikidata": "Q668687", "collection_times": "Mo-Fr 18:00; Sa 16:30", "indoor": "yes", "note": "ON 12/24 AND 12/31, THIS BOX MAY BE COLLECTED AS EARLY AS 12 NOON.", "nsi_id": "unitedstatespostalservice-a77078", "operator": "United States Postal Service", "operator:short": "USPS", "operator:type": "public", "operator:wikidata": "Q668687", "ref": "5371100081"}, "type": "Feature"}
{"geometry": {"coordinates": [-89.351739, 43.04763], "type": "Point"}, "id": "Q_C5wwqMP_z7fd6jbX_bX2_W3ro=", "properties": {"@source_uri": "https://tools.usps.com/UspsToolsRestServices/rest/POLocator/findLocations", "@spider": "usps_collection_boxes", "addr:city": "MONONA", "addr:country": "US", "addr:postcode": "53713", "addr:state": "WI", "addr:street_address": "2402 W BROADWAY", "amenity": "post_box", "brand": "United States Postal Service", "brand:wikidata": "Q668687", "collection_times": "Mo-Fr 15:00; Sa 12:00", "note": "ON 12/24 AND 12/31, THIS BOX MAY BE COLLECTED AS EARLY AS 12 NOON.", "nsi_id": "unitedstatespostalservice-a77078", "operator": "United States Postal Service", "operator:short": "USPS", "operator:type": "public", "operator:wikidata": "Q668687", "ref": "5371300004"}, "type": "Feature"}
{"geometry": {"coordinates": [-89.4114751, 43.036158], "type": "Point"}, "id": "SKCBeJvI8PPrAFV2pI7RcAA1be8=", "properties": {"@source_uri": "https://tools.usps.com/UspsToolsRestServices/rest/POLocator/findLocations", "@spider": "usps_collection_boxes", "addr:city": "MONONA", "addr:country": "US", "addr:postcode": "53713", "addr:state": "WI", "addr:street_address": "1806 W BELTLINE HWY", "amenity": "post_box", "brand": "United States Postal Service", "brand:wikidata": "Q668687", "collection_times": "Mo-Fr 13:00; Sa 12:00", "note": "ON 12/24 AND 12/31, THIS BOX MAY BE COLLECTED AS EARLY AS 12 NOON.", "nsi_id": "unitedstatespostalservice-a77078", "operator": "United States Postal Service", "operator:short": "USPS", "operator:type": "public", "operator:wikidata": "Q668687", "ref": "5371300005"}, "type": "Feature"}
{"geometry": {"coordinates": [-89.3480228309, 43.044615885], "type": "Point"}, "id": "LVurdpNvWnjcuB-pNJIZiHwAt1o=", "properties": {"@source_uri": "https://tools.usps.com/UspsToolsRestServices/rest/POLocator/findLocations", "@spider": "usps_collection_boxes", "addr:city": "MONONA", "addr:country": "US", "addr:postcode": "53713", "addr:state": "WI", "addr:street_address": "2301 W BROADWAY", "amenity": "post_box", "brand": "United States Postal Service", "brand:wikidata": "Q668687", "collection_times": "Mo-Fr 15:00; Sa 12:00", "note": "ON 12/24 AND 12/31, THIS BOX MAY BE COLLECTED AS EARLY AS 12 NOON.", "nsi_id": "unitedstatespostalservice-a77078", "operator": "United States Postal Service", "operator:short": "USPS", "operator:type": "public", "operator:wikidata": "Q668687", "ref": "5371300013"}, "type": "Feature"}
{"geometry": {"coordinates": [-89.4111363911, 43.0312024479], "type": "Point"}, "id": "DYRbPvDWrIKqjhCf3vJnzzEpgXc=", "properties": {"@source_uri": "https://tools.usps.com/UspsToolsRestServices/rest/POLocator/findLocations", "@spider": "usps_collection_boxes", "addr:city": "MONONA", "addr:country": "US", "addr:postcode": "53713", "addr:state": "WI", "addr:street_address": "1802 GREENWAY CROSS", "amenity": "post_box", "brand": "United States Postal Service", "brand:wikidata": "Q668687", "collection_times": "Mo-Fr 13:00; Sa 12:00", "note": "ON 12/24 AND 12/31, THIS BOX MAY BE COLLECTED AS EARLY AS 12 NOON.", "nsi_id": "unitedstatespostalservice-a77078", "operator": "United States Postal Service", "operator:short": "USPS", "operator:type": "public", "operator:wikidata": "Q668687", "ref": "5371300017"}, "type": "Feature"}
{"geometry": {"coordinates": [-89.4126199, 43.027732], "type": "Point"}, "id": "nCFdixOEw_g3nz7fKVS-ifG41GI=", "properties": {"@source_uri": "https://tools.usps.com/UspsToolsRestServices/rest/POLocator/findLocations", "@spider": "usps_collection_boxes", "addr:city": "MONONA", "addr:country": "US", "addr:postcode": "53713", "addr:state": "WI", "addr:street_address": "2934 FISH HATCHERY RD", "amenity": "post_box", "brand": "United States Postal Service", "brand:wikidata": "Q668687", "collection_times": "Mo-Fr 15:00; Sa 12:00", "note": "ON 12/24 AND 12/31, THIS BOX MAY BE COLLECTED AS EARLY AS 12 NOON.", "nsi_id": "unitedstatespostalservice-a77078", "operator": "United States Postal Service", "operator:short": "USPS", "operator:type": "public", "operator:wikidata": "Q668687", "ref": "5371300018"}, "type": "Feature"}
{"geometry": {"coordinates": [-89.3582349, 43.031913], "type": "Point"}, "id": "9iei4ndIFTY2VGyrVCOkdPlp8PM=", "properties": {"@source_uri": "https://tools.usps.com/UspsToolsRestServices/rest/POLocator/findLocations", "@spider": "usps_collection_boxes", "addr:city": "MONONA", "addr:country": "US", "addr:postcode": "53713", "addr:state": "WI", "addr:street_address": "9 MANOR DR", "amenity": "post_box", "brand": "United States Postal Service", "brand:wikidata": "Q668687", "collection_times": "Mo-Fr 13:00; Sa 12:00", "note": "ON 12/24 AND 12/31, THIS BOX MAY BE COLLECTED AS EARLY AS 12 NOON.", "nsi_id": "unitedstatespostalservice-a77078", "operator": "United States Postal Service", "operator:short": "USPS", "operator:type": "public", "operator:wikidata": "Q668687", "ref": "5371300023"}, "type": "Feature"}
{"geometry": {"coordinates": [-89.3729407, 43.046687], "type": "Point"}, "id": "X-z1E9gTRmVuCO9p6NnAuvqH2pM=", "properties": {"@source_uri": "https://tools.usps.com/UspsToolsRestServices/rest/POLocator/findLocations", "@spider": "usps_collection_boxes", "addr:city": "MONONA", "addr:country": "US", "addr:postcode": "53713", "addr:state": "WI", "addr:street_address": "722 JOHN NOLEN DR", "amenity": "post_box", "brand": "United States Postal Service", "brand:wikidata": "Q668687", "collection_times": "Mo-Fr 15:00", "note": "ON 12/24 AND 12/31, THIS BOX MAY BE COLLECTED AS EARLY AS 12 NOON.", "nsi_id": "unitedstatespostalservice-a77078", "operator": "United States Postal Service", "operator:short": "USPS", "operator:type": "public", "operator:wikidata": "Q668687", "ref": "5371300026"}, "type": "Feature"}
{"geometry": {"coordinates": [-89.3576470247, 43.0418459946], "type": "Point"}, "id": "hadSm5PdjZjWFFsjVAwimWzcjSo=", "properties": {"@source_uri": "https://tools.usps.com/UspsToolsRestServices/rest/POLocator/findLocations", "@spider": "usps_collection_boxes", "addr:city": "MONONA", "addr:country": "US", "addr:postcode": "53713", "addr:state": "WI", "addr:street_address": "6901 MANGROVE LN", "amenity": "post_box", "brand": "United States Postal Service", "brand:wikidata": "Q668687", "collection_times": "Mo-Fr 15:00; Sa 12:00", "note": "ON 12/24 AND 12/31, THIS BOX MAY BE COLLECTED AS EARLY AS 12 NOON.", "nsi_id": "unitedstatespostalservice-a77078", "operator": "United States Postal Service", "operator:short": "USPS", "operator:type": "public", "operator:wikidata": "Q668687", "ref": "5371300027"}, "type": "Feature"}
{"geometry": {"coordinates": [-89.3815622, 43.053216], "type": "Point"}, "id": "Calufm0FkXezluFoklAjI6SwZGw=", "properties": {"@source_uri": "https://tools.usps.com/UspsToolsRestServices/rest/POLocator/findLocations", "@spider": "usps_collection_boxes", "addr:city": "MONONA", "addr:country": "US", "addr:postcode": "53713", "addr:state": "WI", "addr:street_address": "128 E OLIN AVE", "amenity": "post_box", "brand": "United States Postal Service", "brand:wikidata": "Q668687", "collection_times": "Mo-Fr 15:00", "note": "ON 12/24 AND 12/31, THIS BOX MAY BE COLLECTED AS EARLY AS 12 NOON.", "nsi_id": "unitedstatespostalservice-a77078", "operator": "United States Postal Service", "operator:short": "USPS", "operator:type": "public", "operator:wikidata": "Q668687", "ref": "5371300029"}, "type": "Feature"}
{"geometry": {"coordinates": [-89.3937469, 43.042114], "type": "Point"}, "id": "PvqJ5TSAZ1mhFoCXtqlBtSyrvNc=", "properties": {"@source_uri": "https://tools.usps.com/UspsToolsRestServices/rest/POLocator/findLocations", "@spider": "usps_collection_boxes", "addr:city": "MONONA", "addr:country": "US", "addr:postcode": "53713", "addr:state": "WI", "addr:street_address": "2121 S PARK ST", "amenity": "post_box", "brand": "United States Postal Service", "brand:wikidata": "Q668687", "collection_times": "Mo-Fr 13:00; Sa 12:00", "note": "ON 12/24 AND 12/31, THIS BOX MAY BE COLLECTED AS EARLY AS 12 NOON.", "nsi_id": "unitedstatespostalservice-a77078", "operator": "United States Postal Service", "operator:short": "USPS", "operator:type": "public", "operator:wikidata": "Q668687", "ref": "5371300030"}, "type": "Feature"}
{"geometry": {"coordinates": [-89.4066809907, 43.0322260005], "type": "Point"}, "id": "ss6EZ6B3nRX84np2PZSjpy81Rp4=", "properties": {"@source_uri": "https://tools.usps.com/UspsToolsRestServices/rest/POLocator/findLocations", "@spider": "usps_collection_boxes", "addr:city": "MONONA", "addr:country": "US", "addr:postcode": "53713", "addr:state": "WI", "addr:street_address": "1334 APPLEGATE RD", "amenity": "post_box", "brand": "United States Postal Service", "brand:wikidata": "Q668687", "collection_times": "Mo-Fr 15:00", "note": "ON 12/24 AND 12/31, THIS BOX MAY BE COLLECTED AS EARLY AS 12 NOON.", "nsi_id": "unitedstatespostalservice-a77078", "operator": "United States Postal Service", "operator:short": "USPS", "operator:type": "public", "operator:wikidata": "Q668687", "ref": "5371300051"}, "type": "Feature"}
{"geometry": {"coordinates": [-89.4150755, 43.034051], "type": "Point"}, "id": "PKEegaBdLcsp3_BRXpjZcJJi0D4=", "properties": {"@source_uri": "https://tools.usps.com/UspsToolsRestServices/rest/POLocator/findLocations", "@spider": "usps_collection_boxes", "addr:city": "MONONA", "addr:country": "US", "addr:postcode": "53713", "addr:state": "WI", "addr:street_address": "2101 W BELTLINE HWY", "amenity": "post_box", "brand": "United States Postal Service", "brand:wikidata": "Q668687", "collection_times": "Mo-Fr 15:00; Sa 12:00", "note": "ON 12/24 AND 12/31, THIS BOX MAY BE COLLECTED AS EARLY AS 12 NOON.", "nsi_id": "unitedstatespostalservice-a77078", "operator": "United States Postal Service", "operator:short": "USPS", "operator:type": "public", "operator:wikidata": "Q668687", "ref": "5371300054"}, "type": "Feature"}
{"geometry": {"coordinates": [-89.3482842043, 43.0454298546], "type": "Point"}, "id": "xsjWHU4-6lrlY88GoLpemmmXZ2M=", "properties": {"@source_uri": "https://tools.usps.com/UspsToolsRestServices/rest/POLocator/findLocations", "@spider": "usps_collection_boxes", "addr:city": "MONONA", "addr:country": "US", "addr:postcode": "53713", "addr:state": "WI", "addr:street_address": "6000 GISHOLT DR", "amenity": "post_box", "brand": "United States Postal Service", "brand:wikidata": "Q668687", "collection_times": "Mo-Fr 15:00", "note": "ON 12/24 AND 12/31, THIS BOX MAY BE COLLECTED AS EARLY AS 12 NOON.", "nsi_id": "unitedstatespostalservice-a77078", "operator": "United States Postal Service", "operator:short": "USPS", "operator:type": "public", "operator:wikidata": "Q668687", "ref": "5371300055"}, "type": "Feature"}
{"geometry": {"coordinates": [-89.3093161, 43.088278], "type": "Point"}, "id": "z6dbVdgutYhosZzWpYXp5hNGFUg=", "properties": {"@source_uri": "https://tools.usps.com/UspsToolsRestServices/rest/POLocator/findLocations", "@spider": "usps_collection_boxes", "addr:city": "MADISON", "addr:country": "US", "addr:postcode": "53714", "addr:state": "WI", "addr:street_address": "4229 ARGOSY CT", "amenity": "post_box", "brand": "United States Postal Service", "brand:wikidata": "Q668687", "collection_times": "Mo-Sa 13:00", "note": "ON 12/24 AND 12/31, THIS BOX MAY BE COLLECTED AS EARLY AS 12 NOON.", "nsi_id": "unitedstatespostalservice-a77078", "operator": "United States Postal Service", "operator:short": "USPS", "operator:type": "public", "operator:wikidata": "Q668687", "ref": "5371400005"}, "type": "Feature"}
{"geometry": {"coordinates": [-89.3135199, 43.099107], "type": "Point"}, "id": "zroVtyQKKl_faPE9KNBlAICR-L8=", "properties": {"@source_uri": "https://tools.usps.com/UspsToolsRestServices/rest/POLocator/findLocations", "@spider": "usps_collection_boxes", "addr:city": "MADISON", "addr:country": "US", "addr:postcode": "53714", "addr:state": "WI", "addr:street_address": "4112 MILWAUKEE ST", "amenity": "post_box", "brand": "United States Postal Service", "brand:wikidata": "Q668687", "collection_times": "Mo-Sa 13:00", "note": "ON 12/24 AND 12/31, THIS BOX MAY BE COLLECTED AS EARLY AS 12 NOON.", "nsi_id": "unitedstatespostalservice-a77078", "operator": "United States Postal Service", "operator:short": "USPS", "operator:type": "public", "operator:wikidata": "Q668687", "ref": "5371400011"}, "type": "Feature"}
{"geometry": {"coordinates": [-89.3134005, 43.11065], "type": "Point"}, "id": "5Gn_PpgZ0jARgNE7DaU3h8vUl_k=", "properties": {"@source_uri": "https://tools.usps.com/UspsToolsRestServices/rest/POLocator/findLocations", "@spider": "usps_collection_boxes", "addr:city": "MADISON", "addr:country": "US", "addr:postcode": "53714", "addr:state": "WI", "addr:street_address": "4198 NAKOOSA TRL", "amenity": "post_box", "brand": "United States Postal Service", "brand:wikidata": "Q668687", "collection_times": "Mo-Sa 11:00", "nsi_id": "unitedstatespostalservice-a77078", "operator": "United States Postal Service", "operator:short": "USPS", "operator:type": "public", "operator:wikidata": "Q668687", "ref": "5371400012"}, "type": "Feature"}
{"geometry": {"coordinates": [-89.319531, 43.102116], "type": "Point"}, "id": "wjklLeYP0r5VlITXw9cKB61fHVQ=", "properties": {"@source_uri": "https://tools.usps.com/UspsToolsRestServices/rest/POLocator/findLocations", "@spider": "usps_collection_boxes", "addr:city": "MADISON", "addr:country": "US", "addr:postcode": "53714", "addr:state": "WI", "addr:street_address": "205 CORPORATE DR", "amenity": "post_box", "brand": "United States Postal Service", "brand:wikidata": "Q668687", "collection_times": "Mo-Sa 17:00", "note": "ON 12/24 AND 12/31, THIS BOX MAY BE COLLECTED AS EARLY AS 12 NOON.", "nsi_id": "unitedstatespostalservice-a77078", "operator": "United States Postal Service", "operator:short": "USPS", "operator:type": "public", "operator:wikidata": "Q668687", "ref": "5371400017"}, "type": "Feature"}
{"geometry": {"coordinates": [-89.319531, 43.102116], "type": "Point"}, "id": "SReVLTPQbkl1TyPqVxnwxNyLl70=", "properties": {"@source_uri": "https://tools.usps.com/UspsToolsRestServices/rest/POLocator/findLocations", "@spider": "usps_collection_boxes", "addr:city": "MADISON", "addr:country": "US", "addr:postcode": "53714", "addr:state": "WI", "addr:street_address": "205 CORPORATE DR", "amenity": "post_box", "brand": "United States Postal Service", "brand:wikidata": "Q668687", "collection_times": "Mo-Sa 17:00", "note": "ON 12/24 AND 12/31, THIS BOX MAY BE COLLECTED AS EARLY AS 12 NOON.", "nsi_id": "unitedstatespostalservice-a77078", "operator": "United States Postal Service", "operator:short": "USPS", "operator:type": "public", "operator:wikidata": "Q668687", "ref": "5371400020"}, "type": "Feature"}
{"geometry": {"coordinates": [-89.318241, 43.098326], "type": "Point"}, "id": "SbtEpcAe71ZjxW6zkOgZYDnHPdY=", "properties": {"@source_uri": "https://tools.usps.com/UspsToolsRestServices/rest/POLocator/findLocations", "@spider": "usps_collection_boxes", "addr:city": "MADISON", "addr:country": "US", "addr:postcode": "53714", "addr:state": "WI", "addr:street_address": "3902 MILWAUKEE ST", "amenity": "post_box", "brand": "United States Postal Service", "brand:wikidata": "Q668687", "collection_times": "Mo-Fr 19:00; Sa 16:00", "indoor": "yes", "note": "ON 12/24 AND 12/31, THIS BOX MAY BE COLLECTED AS EARLY AS 12 NOON.", "nsi_id": "unitedstatespostalservice-a77078", "operator": "United States Postal Service", "operator:short": "USPS", "operator:type": "public", "operator:wikidata": "Q668687", "ref": "5371400028"}, "type": "Feature"}
{"geometry": {"coordinates": [-89.318241, 43.098326], "type": "Point"}, "id": "DBUc15UVswEBbXJEBSSMj2d_nZo=", "properties": {"@source_uri": "https://tools.usps.com/UspsToolsRestServices/rest/POLocator/findLocations", "@spider": "usps_collection_boxes", "addr:city": "MADISON", "addr:country": "US", "addr:postcode": "53714", "addr:state": "WI", "addr:street_address": "3902 MILWAUKEE ST", "amenity": "post_box", "brand": "United States Postal Service", "brand:wikidata": "Q668687", "collection_times": "Mo-Fr 19:00; Sa 16:00", "indoor": "yes", "note": "ON 12/24 AND 12/31, THIS BOX MAY BE COLLECTED AS EARLY AS 12 NOON.", "nsi_id": "unitedstatespostalservice-a77078", "operator": "United States Postal Service", "operator:short": "USPS", "operator:type": "public", "operator:wikidata": "Q668687", "ref": "5371400029"}, "type": "Feature"}
{"geometry": {"coordinates": [-89.319531, 43.102116], "type": "Point"}, "id": "gRwhkH1gSzRYaEEokY1W6O1dJfM=", "properties": {"@source_uri": "https://tools.usps.com/UspsToolsRestServices/rest/POLocator/findLocations", "@spider": "usps_collection_boxes", "addr:city": "MADISON", "addr:country": "US", "addr:postcode": "53714", "addr:state": "WI", "addr:street_address": "205 CORPORATE DR", "amenity": "post_box", "brand": "United States Postal Service", "brand:wikidata": "Q668687", "collection_times": "Mo-Fr 16:00; Sa 14:00", "indoor": "yes", "note": "ON 12/24 AND 12/31, THIS BOX MAY BE COLLECTED AS EARLY AS 12 NOON.", "nsi_id": "unitedstatespostalservice-a77078", "operator": "United States Postal Service", "operator:short": "USPS", "operator:type": "public", "operator:wikidata": "Q668687", "ref": "5371400031"}, "type": "Feature"}
{"geometry": {"coordinates": [-89.318241, 43.098326], "type": "Point"}, "id": "2_4bD8f_TocYZ9zVTsBcr9CrhpY=", "properties": {"@source_uri": "https://tools.usps.com/UspsToolsRestServices/rest/POLocator/findLocations", "@spider": "usps_collection_boxes", "addr:city": "MADISON", "addr:country": "US", "addr:postcode": "53714", "addr:state": "WI", "addr:street_address": "3902 MILWAUKEE ST", "amenity": "post_box", "brand": "United States Postal Service", "brand:wikidata": "Q668687", "collection_times": "Mo-Fr 19:00; Sa 16:00", "name": "USPS COLLECTION BOX - APC", "note": "ON 12/24 AND 12/31, THIS BOX MAY BE COLLECTED AS EARLY AS 12 NOON.", "nsi_id": "unitedstatespostalservice-a77078", "operator": "United States Postal Service", "operator:short": "USPS", "operator:type": "public", "operator:wikidata": "Q668687", "ref": "5371400035"}, "type": "Feature"}
{"geometry": {"coordinates": [-89.32255, 43.091965], "type": "Point"}, "id": "iV6vO_SL1y2ZXVtHBDlErTnJqng=", "properties": {"@source_uri": "https://tools.usps.com/UspsToolsRestServices/rest/POLocator/findLocations", "@spider": "usps_collection_boxes", "addr:city": "MADISON", "addr:country": "US", "addr:postcode": "53714", "addr:state": "WI", "addr:street_address": "3902 MILWAUKEE ST", "amenity": "post_box", "brand": "United States Postal Service", "brand:wikidata": "Q668687", "collection_times": "Mo-Fr 19:00; Sa 16:00", "indoor": "yes", "note": "ON 12/24 AND 12/31, THIS BOX MAY BE COLLECTED AS EARLY AS 12 NOON.", "nsi_id": "unitedstatespostalservice-a77078", "operator": "United States Postal Service", "operator:short": "USPS", "operator:type": "public", "operator:wikidata": "Q668687", "ref": "5371400038"}, "type": "Feature"}
{"geometry": {"coordinates": [-89.3960983, 43.04962], "type": "Point"}, "id": "TD1KvoGtn0oldEl5Ej_rjgSD6ms=", "properties": {"@source_uri": "https://tools.usps.com/UspsToolsRestServices/rest/POLocator/findLocations", "@spider": "usps_collection_boxes", "addr:city": "MADISON", "addr:country": "US", "addr:postcode": "53715", "addr:state": "WI", "addr:street_address": "820 W WINGRA DR", "amenity": "post_box", "brand": "United States Postal Service", "brand:wikidata": "Q668687", "collection_times": "Mo-Fr 17:00; Sa 15:45", "note": "ON 12/24 AND 12/31, THIS BOX MAY BE COLLECTED AS EARLY AS 12 NOON.", "nsi_id": "unitedstatespostalservice-a77078", "operator": "United States Postal Service", "operator:short": "USPS", "operator:type": "public", "operator:wikidata": "Q668687", "ref": "5371500000"}, "type": "Feature"}
{"geometry": {"coordinates": [-89.3960949, 43.049625], "type": "Point"}, "id": "Mx5o6paBtl5a-Xshb7V_ub_pLDA=", "properties": {"@source_uri": "https://tools.usps.com/UspsToolsRestServices/rest/POLocator/findLocations", "@spider": "usps_collection_boxes", "addr:city": "MADISON", "addr:country": "US", "addr:postcode": "53715", "addr:state": "WI", "addr:street_address": "820 W WINGRA DR", "amenity": "post_box", "brand": "United States Postal Service", "brand:wikidata": "Q668687", "collection_times": "Mo-Fr 17:00; Sa 15:45", "note": "ON 12/24 AND 12/31, THIS BOX MAY BE COLLECTED AS EARLY AS 12 NOON.", "nsi_id": "unitedstatespostalservice-a77078", "operator": "United States Postal Service", "operator:short": "USPS", "operator:type": "public", "operator:wikidata": "Q668687", "ref": "5371500001"}, "type": "Feature"}
{"geometry": {"coordinates": [-89.3961083, 43.049621], "type": "Point"}, "id": "iCBEiD8g4MHQQVHmBw66boHYJP8=", "properties": {"@source_uri": "https://tools.usps.com/UspsToolsRestServices/rest/POLocator/findLocations", "@spider": "usps_collection_boxes", "addr:city": "MADISON", "addr:country": "US", "addr:postcode": "53715", "addr:state": "WI", "addr:street_address": "820 W WINGRA DR", "amenity": "post_box", "brand": "United States Postal Service", "brand:wikidata": "Q668687", "collection_times": "Mo-Fr 17:00; Sa 15:45", "note": "ON 12/24 AND 12/31, THIS BOX MAY BE COLLECTED AS EARLY AS 12 NOON.", "nsi_id": "unitedstatespostalservice-a77078", "operator": "United States Postal Service", "operator:short": "USPS", "operator:type": "public", "operator:wikidata": "Q668687", "ref": "5371500002"}, "type": "Feature"}
{"geometry": {"coordinates": [-89.3961419, 43.049624], "type": "Point"}, "id": "DcGQ-re_jA_-639mJyx6495Rryw=", "properties": {"@source_uri": "https://tools.usps.com/UspsToolsRestServices/rest/POLocator/findLocations", "@spider": "usps_collection_boxes", "addr:city": "MADISON", "addr:country": "US", "addr:postcode": "53715", "addr:state": "WI", "addr:street_address": "820 W WINGRA DR", "amenity": "post_box", "brand": "United States Postal Service", "brand:wikidata": "Q668687", "collection_times": "Mo-Fr 17:00; Sa 15:45", "note": "ON 12/24 AND 12/31, THIS BOX MAY BE COLLECTED AS EARLY AS 12 NOON.", "nsi_id": "unitedstatespostalservice-a77078", "operator": "United States Postal Service", "operator:short": "USPS", "operator:type": "public", "operator:wikidata": "Q668687", "ref": "5371500003"}, "type": "Feature"}
{"geometry": {"coordinates": [-89.4039645, 43.064148], "type": "Point"}, "id": "hV-Brq6MciKorMUUXrynMC6CqTM=", "properties": {"@source_uri": "https://tools.usps.com/UspsToolsRestServices/rest/POLocator/findLocations", "@spider": "usps_collection_boxes", "addr:city": "MADISON", "addr:country": "US", "addr:postcode": "53715", "addr:state": "WI", "addr:street_address": "301 S MILLS ST", "amenity": "post_box", "brand": "United States Postal Service", "brand:wikidata": "Q668687", "collection_times": "Mo-Fr 13:00; Sa 12:00", "note": "ON 12/24 AND 12/31, THIS BOX MAY BE COLLECTED AS EARLY AS 12 NOON.", "nsi_id": "unitedstatespostalservice-a77078", "operator": "United States Postal Service", "operator:short": "USPS", "operator:type": "public", "operator:wikidata": "Q668687", "ref": "5371500009"}, "type": "Feature"}
{"geometry": {"coordinates": [-89.4088962, 43.062157], "type": "Point"}, "id": "vucU64P00VLBZLGAJFW1KuT0WPs=", "properties": {"@source_uri": "https://tools.usps.com/UspsToolsRestServices/rest/POLocator/findLocations", "@spider": "usps_collection_boxes", "addr:city": "MADISON", "addr:country": "US", "addr:postcode": "53715", "addr:state": "WI", "addr:street_address": "1330 DRAKE ST", "amenity": "post_box", "brand": "United States Postal Service", "brand:wikidata": "Q668687", "collection_times": "Mo-Fr 13:00; Sa 12:00", "note": "ON 12/24 AND 12/31, THIS BOX MAY BE COLLECTED AS EARLY AS 12 NOON.", "nsi_id": "unitedstatespostalservice-a77078", "operator": "United States Postal Service", "operator:short": "USPS", "operator:type": "public", "operator:wikidata": "Q668687", "ref": "5371500013"}, "type": "Feature"}
{"geometry": {"coordinates": [-89.4016763, 43.06695], "type": "Point"}, "id": "dzoEKD_zJpCK37oHFD6Rqn5Wrck=", "properties": {"@source_uri": "https://tools.usps.com/UspsToolsRestServices/rest/POLocator/findLocations", "@spider": "usps_collection_boxes", "addr:city": "MADISON", "addr:country": "US", "addr:postcode": "53715", "addr:state": "WI", "addr:street_address": "20 S PARK ST", "amenity": "post_box", "brand": "United States Postal Service", "brand:wikidata": "Q668687", "collection_times": "Mo-Fr 15:00", "note": "ON 12/24 AND 12/31, THIS BOX MAY BE COLLECTED AS EARLY AS 12 NOON.", "nsi_id": "unitedstatespostalservice-a77078", "operator": "United States Postal Service", "operator:short": "USPS", "operator:type": "public", "operator:wikidata": "Q668687", "ref": "5371500019"}, "type": "Feature"}
{"geometry": {"coordinates": [-89.3997909, 43.06749], "type": "Point"}, "id": "MHYzR5oz-mJ10EdIB9oAWHfIMKw=", "properties": {"@source_uri": "https://tools.usps.com/UspsToolsRestServices/rest/POLocator/findLocations", "@spider": "usps_collection_boxes", "addr:city": "MADISON", "addr:country": "US", "addr:postcode": "53715", "addr:state": "WI", "addr:street_address": "1 S PARK ST", "amenity": "post_box", "brand": "United States Postal Service", "brand:wikidata": "Q668687", "collection_times": "Mo-Fr 15:00", "note": "ON 12/24 AND 12/31, THIS BOX MAY BE COLLECTED AS EARLY AS 12 NOON.", "nsi_id": "unitedstatespostalservice-a77078", "operator": "United States Postal Service", "operator:short": "USPS", "operator:type": "public", "operator:wikidata": "Q668687", "ref": "5371500026"}, "type": "Feature"}
{"geometry": {"coordinates": [-89.39661803, 43.049526399], "type": "Point"}, "id": "dMOsTWDznMRUmrDnwObGzTrIUyc=", "properties": {"@source_uri": "https://tools.usps.com/UspsToolsRestServices/rest/POLocator/findLocations", "@spider": "usps_collection_boxes", "addr:city": "MADISON", "addr:country": "US", "addr:postcode": "53715", "addr:state": "WI", "addr:street_address": "820 W WINGRA DR", "amenity": "post_box", "brand": "United States Postal Service", "brand:wikidata": "Q668687", "collection_times": "Mo-Fr 17:30; Sa 14:00", "indoor": "yes", "note": "ON 12/24 AND 12/31, THIS BOX MAY BE COLLECTED AS EARLY AS 12 NOON.", "nsi_id": "unitedstatespostalservice-a77078", "operator": "United States Postal Service", "operator:short": "USPS", "operator:type": "public", "operator:wikidata": "Q668687", "ref": "5371500047"}, "type": "Feature"}
{"geometry": {"coordinates": [-89.394874, 43.049357], "type": "Point"}, "id": "H_rogCcz8W80aKskEGmYRmPeZew=", "properties": {"@source_uri": "https://tools.usps.com/UspsToolsRestServices/rest/POLocator/findLocations", "@spider": "usps_collection_boxes", "addr:city": "MADISON", "addr:country": "US", "addr:postcode": "53715", "addr:state": "WI", "addr:street_address": "820 W WINGRA DR", "amenity": "post_box", "brand": "United States Postal Service", "brand:wikidata": "Q668687", "collection_times": "Mo-Fr 17:30; Sa 14:00", "indoor": "yes", "note": "ON 12/24 AND 12/31, THIS BOX MAY BE COLLECTED AS EARLY AS 12 NOON.", "nsi_id": "unitedstatespostalservice-a77078", "operator": "United States Postal Service", "operator:short": "USPS", "operator:type": "public", "operator:wikidata": "Q668687", "ref": "5371500048"}, "type": "Feature"}
{"geometry": {"coordinates": [-89.4073113, 43.070914], "type": "Point"}, "id": "wTuE6iyTjGyjiBYFT5JXVSwJiyA=", "properties": {"@source_uri": "https://tools.usps.com/UspsToolsRestServices/rest/POLocator/findLocations", "@spider": "usps_collection_boxes", "addr:city": "MADISON", "addr:country": "US", "addr:postcode": "53715", "addr:state": "WI", "addr:street_address": "136 N ORCHARD ST", "amenity": "post_box", "brand": "United States Postal Service", "brand:wikidata": "Q668687", "collection_times": "Mo-Fr 13:00; Sa 12:00", "note": "ON 12/24 AND 12/31, THIS BOX MAY BE COLLECTED AS EARLY AS 12 NOON.", "nsi_id": "unitedstatespostalservice-a77078", "operator": "United States Postal Service", "operator:short": "USPS", "operator:type": "public", "operator:wikidata": "Q668687", "ref": "5371500049"}, "type": "Feature"}
{"geometry": {"coordinates": [-89.3973475548, 43.0745216334], "type": "Point"}, "id": "bbxWvo4h6ikQ91IPfBXPjvx1_u4=", "properties": {"@source_uri": "https://tools.usps.com/UspsToolsRestServices/rest/POLocator/findLocations", "@spider": "usps_collection_boxes", "addr:city": "MADISON", "addr:country": "US", "addr:postcode": "53715", "addr:state": "WI", "addr:street_address": "441 N LAKE ST", "amenity": "post_box", "brand": "United States Postal Service", "brand:wikidata": "Q668687", "collection_times": "Mo-Fr 17:00; Sa 16:00", "indoor": "yes", "note": "ON 12/24 AND 12/31, THIS BOX MAY BE COLLECTED AS EARLY AS 12 NOON.", "nsi_id": "unitedstatespostalservice-a77078", "operator": "United States Postal Service", "operator:short": "USPS", "operator:type": "public", "operator:wikidata": "Q668687", "ref": "5371500054"}, "type": "Feature"}
{"geometry": {"coordinates": [-89.3973475548, 43.0745216334], "type": "Point"}, "id": "0szZQK3p2PAF-XHOCOy9FcACeUY=", "properties": {"@source_uri": "https://tools.usps.com/UspsToolsRestServices/rest/POLocator/findLocations", "@spider": "usps_collection_boxes", "addr:city": "MADISON", "addr:country": "US", "addr:postcode": "53715", "addr:state": "WI", "addr:street_address": "441 N LAKE ST", "amenity": "post_box", "brand": "United States Postal Service", "brand:wikidata": "Q668687", "collection_times": "Mo-Fr 17:00; Sa 16:00", "indoor": "yes", "note": "ON 12/24 AND 12/31, THIS BOX MAY BE COLLECTED AS EARLY AS 12 NOON.", "nsi_id": "unitedstatespostalservice-a77078", "operator": "United States Postal Service", "operator:short": "USPS", "operator:type": "public", "operator:wikidata": "Q668687", "ref": "5371500055"}, "type": "Feature"}
{"geometry": {"coordinates": [-89.4019487, 43.05884], "type": "Point"}, "id": "c7388typ12VEjIBBrAVFDkEo3x8=", "properties": {"@source_uri": "https://tools.usps.com/UspsToolsRestServices/rest/POLocator/findLocations", "@spider": "usps_collection_boxes", "addr:city": "MADISON", "addr:country": "US", "addr:postcode": "53715", "addr:state": "WI", "addr:street_address": "700 S BROOKS ST", "amenity": "post_box", "brand": "United States Postal Service", "brand:wikidata": "Q668687", "collection_times": "Mo-Fr 15:00; Sa 12:00", "note": "ON 12/24 AND 12/31, THIS BOX MAY BE COLLECTED AS EARLY AS 12 NOON.", "nsi_id": "unitedstatespostalservice-a77078", "operator": "United States Postal Service", "operator:short": "USPS", "operator:type": "public", "operator:wikidata": "Q668687", "ref": "5371500056"}, "type": "Feature"}
{"geometry": {"coordinates": [-89.40327, 43.06528], "type": "Point"}, "id": "YnBs31RL0Qj1Uvhs8UW-5HWJKQE=", "properties": {"@source_uri": "https://tools.usps.com/UspsToolsRestServices/rest/POLocator/findLocations", "@spider": "usps_collection_boxes", "addr:city": "MADISON", "addr:country": "US", "addr:postcode": "53715", "addr:state": "WI", "addr:street_address": "441 N LAKE ST", "amenity": "post_box", "brand": "United States Postal Service", "brand:wikidata": "Q668687", "collection_times": "Mo-Fr 17:00; Sa 13:00", "note": "ON 12/24 AND 12/31, THIS BOX MAY BE COLLECTED AS EARLY AS 12 NOON.", "nsi_id": "unitedstatespostalservice-a77078", "operator": "United States Postal Service", "operator:short": "USPS", "operator:type": "public", "operator:wikidata": "Q668687", "ref": "5371500058"}, "type": "Feature"}
{"geometry": {"coordinates": [-89.397347555, 43.074521633], "type": "Point"}, "id": "Dsv2nCsrknkJH_y39wZKUOew0JY=", "properties": {"@source_uri": "https://tools.usps.com/UspsToolsRestServices/rest/POLocator/findLocations", "@spider": "usps_collection_boxes", "addr:city": "MADISON", "addr:country": "US", "addr:postcode": "53715", "addr:state": "WI", "addr:street_address": "441 N LAKE ST", "amenity": "post_box", "brand": "United States Postal Service", "brand:wikidata": "Q668687", "collection_times": "Mo-Fr 17:00; Sa 16:00", "name": "USPS COLLECTION BOX - APC", "note": "ON 12/24 AND 12/31, THIS BOX MAY BE COLLECTED AS EARLY AS 12 NOON.", "nsi_id": "unitedstatespostalservice-a77078", "operator": "United States Postal Service", "operator:short": "USPS", "operator:type": "public", "operator:wikidata": "Q668687", "ref": "5371500060"}, "type": "Feature"}
{"geometry": {"coordinates": [-89.39661803, 43.049526399], "type": "Point"}, "id": "Nu-pvJdeMhDLcB4KkPIMN_EicPw=", "properties": {"@source_uri": "https://tools.usps.com/UspsToolsRestServices/rest/POLocator/findLocations", "@spider": "usps_collection_boxes", "addr:city": "MADISON", "addr:country": "US", "addr:postcode": "53715", "addr:state": "WI", "addr:street_address": "820 W WINGRA DR", "amenity": "post_box", "brand": "United States Postal Service", "brand:wikidata": "Q668687", "collection_times": "Mo-Fr 17:30; Sa 16:00", "indoor": "yes", "note": "ON 12/24 AND 12/31, THIS BOX MAY BE COLLECTED AS EARLY AS 12 NOON.", "nsi_id": "unitedstatespostalservice-a77078", "operator": "United States Postal Service", "operator:short": "USPS", "operator:type": "public", "operator:wikidata": "Q668687", "ref": "5371500063"}, "type": "Feature"}
{"geometry": {"coordinates": [-89.40327, 43.06528], "type": "Point"}, "id": "MlMQTjSoNgbmX6E_zpSFQuipfc0=", "properties": {"@source_uri": "https://tools.usps.com/UspsToolsRestServices/rest/POLocator/findLocations", "@spider": "usps_collection_boxes", "addr:city": "MADISON", "addr:country": "US", "addr:postcode": "53715", "addr:state": "WI", "addr:street_address": "441 N LAKE ST", "amenity": "post_box", "brand": "United States Postal Service", "brand:wikidata": "Q668687", "collection_times": "Mo-Fr 18:00; Sa 16:00", "indoor": "yes", "note": "ON 12/24 AND 12/31, THIS BOX MAY BE COLLECTED AS EARLY AS 12 NOON.", "nsi_id": "unitedstatespostalservice-a77078", "operator": "United States Postal Service", "operator:short": "USPS", "operator:type": "public", "operator:wikidata": "Q668687", "ref": "5371500064"}, "type": "Feature"}
{"geometry": {"coordinates": [-89.327184205, 43.056920795], "type": "Point"}, "id": "UylMEKw4C4IBSr4XAAaOMxOXKsI=", "properties": {"@source_uri": "https://tools.usps.com/UspsToolsRestServices/rest/POLocator/findLocations", "@spider": "usps_collection_boxes", "addr:city": "MONONA", "addr:country": "US", "addr:postcode": "53716", "addr:state": "WI", "addr:street_address": "112 OWEN RD", "amenity": "post_box", "brand": "United States Postal Service", "brand:wikidata": "Q668687", "collection_times": "Mo-Fr 17:30; Sa 12:45", "note": "ON 12/24 AND 12/31, THIS BOX MAY BE COLLECTED AS EARLY AS 12 NOON.", "nsi_id": "unitedstatespostalservice-a77078", "operator": "United States Postal Service", "operator:short": "USPS", "operator:type": "public", "operator:wikidata": "Q668687", "ref": "5371600001"}, "type": "Feature"}
{"geometry": {"coordinates": [-89.327219, 43.056986], "type": "Point"}, "id": "PlI4MQraqMcKbfPIibtPaDnUE0M=", "properties": {"@source_uri": "https://tools.usps.com/UspsToolsRestServices/rest/POLocator/findLocations", "@spider": "usps_collection_boxes", "addr:city": "MONONA", "addr:country": "US", "addr:postcode": "53716", "addr:state": "WI", "addr:street_address": "112 OWEN RD", "amenity": "post_box", "brand": "United States Postal Service", "brand:wikidata": "Q668687", "collection_times": "Mo-Fr 17:30; Sa 12:45", "note": "ON 12/24 AND 12/31, THIS BOX MAY BE COLLECTED AS EARLY AS 12 NOON.", "nsi_id": "unitedstatespostalservice-a77078", "operator": "United States Postal Service", "operator:short": "USPS", "operator:type": "public", "operator:wikidata": "Q668687", "ref": "5371600002"}, "type": "Feature"}
{"geometry": {"coordinates": [-89.327219, 43.056986], "type": "Point"}, "id": "GPnloIUXDHUpXOZbmCmSq2TjAII=", "properties": {"@source_uri": "https://tools.usps.com/UspsToolsRestServices/rest/POLocator/findLocations", "@spider": "usps_collection_boxes", "addr:city": "MONONA", "addr:country": "US", "addr:postcode": "53716", "addr:state": "WI", "addr:street_address": "112 OWEN RD", "amenity": "post_box", "brand": "United States Postal Service", "brand:wikidata": "Q668687", "collection_times": "Mo-Fr 17:30; Sa 12:45", "note": "ON 12/24 AND 12/31, THIS BOX MAY BE COLLECTED AS EARLY AS 12 NOON.", "nsi_id": "unitedstatespostalservice-a77078", "operator": "United States Postal Service", "operator:short": "USPS", "operator:type": "public", "operator:wikidata": "Q668687", "ref": "5371600003"}, "type": "Feature"}
{"geometry": {"coordinates": [-89.3086037, 43.073612], "type": "Point"}, "id": "Uhtq0LQyoYFBjtZ4WrT5kv0-tMM=", "properties": {"@source_uri": "https://tools.usps.com/UspsToolsRestServices/rest/POLocator/findLocations", "@spider": "usps_collection_boxes", "addr:city": "MONONA", "addr:country": "US", "addr:postcode": "53716", "addr:state": "WI", "addr:street_address": "4402 E BUCKEYE RD", "amenity": "post_box", "brand": "United States Postal Service", "brand:wikidata": "Q668687", "collection_times": "Mo-Sa 13:00", "note": "ON 12/24 AND 12/31, THIS BOX MAY BE COLLECTED AS EARLY AS 12 NOON.", "nsi_id": "unitedstatespostalservice-a77078", "operator": "United States Postal Service", "operator:short": "USPS", "operator:type": "public", "operator:wikidata": "Q668687", "ref": "5371600005"}, "type": "Feature"}
{"geometry": {"coordinates": [-89.3237688, 43.079086], "type": "Point"}, "id": "T4LDUhIrw13rLc0e6sR1hx-gwY0=", "properties": {"@source_uri": "https://tools.usps.com/UspsToolsRestServices/rest/POLocator/findLocations", "@spider": "usps_collection_boxes", "addr:city": "MONONA", "addr:country": "US", "addr:postcode": "53716", "addr:state": "WI", "addr:street_address": "4112 MONONA DR", "amenity": "post_box", "brand": "United States Postal Service", "brand:wikidata": "Q668687", "collection_times": "Mo-Sa 13:00", "note": "ON 12/24 AND 12/31, THIS BOX MAY BE COLLECTED AS EARLY AS 12 NOON.", "nsi_id": "unitedstatespostalservice-a77078", "operator": "United States Postal Service", "operator:short": "USPS", "operator:type": "public", "operator:wikidata": "Q668687", "ref": "5371600011"}, "type": "Feature"}
{"geometry": {"coordinates": [-89.3269769, 43.046862], "type": "Point"}, "id": "qTL2TRSE-cSXGPcoHKcjPowfSE8=", "properties": {"@source_uri": "https://tools.usps.com/UspsToolsRestServices/rest/POLocator/findLocations", "@spider": "usps_collection_boxes", "addr:city": "MONONA", "addr:country": "US", "addr:postcode": "53716", "addr:state": "WI", "addr:street_address": "100 RIVER PL", "amenity": "post_box", "brand": "United States Postal Service", "brand:wikidata": "Q668687", "collection_times": "Mo-Fr 15:00", "note": "ON 12/24 AND 12/31, THIS BOX MAY BE COLLECTED AS EARLY AS 12 NOON.", "nsi_id": "unitedstatespostalservice-a77078", "operator": "United States Postal Service", "operator:short": "USPS", "operator:type": "public", "operator:wikidata": "Q668687", "ref": "5371600022"}, "type": "Feature"}
{"geometry": {"coordinates": [-89.3006347, 43.084886], "type": "Point"}, "id": "X4pO05-YMeVAK1pxcb7ReODJens=", "properties": {"@source_uri": "https://tools.usps.com/UspsToolsRestServices/rest/POLocator/findLocations", "@spider": "usps_collection_boxes", "addr:city": "MONONA", "addr:country": "US", "addr:postcode": "53716", "addr:state": "WI", "addr:street_address": "4706 COTTAGE GROVE RD", "amenity": "post_box", "brand": "United States Postal Service", "brand:wikidata": "Q668687", "collection_times": "Mo-Sa 13:00", "note": "ON 12/24 AND 12/31, THIS BOX MAY BE COLLECTED AS EARLY AS 12 NOON.", "nsi_id": "unitedstatespostalservice-a77078", "operator": "United States Postal Service", "operator:short": "USPS", "operator:type": "public", "operator:wikidata": "Q668687", "ref": "5371600025"}, "type": "Feature"}
{"geometry": {"coordinates": [-89.3232927, 43.047362], "type": "Point"}, "id": "nu5jFt_saZDBXQKeBJ30m8w3Abc=", "properties": {"@source_uri": "https://tools.usps.com/UspsToolsRestServices/rest/POLocator/findLocations", "@spider": "usps_collection_boxes", "addr:city": "MONONA", "addr:country": "US", "addr:postcode": "53716", "addr:state": "WI", "addr:street_address": "6508 MONONA DR", "amenity": "post_box", "brand": "United States Postal Service", "brand:wikidata": "Q668687", "collection_times": "Mo-Fr 15:00; Sa 13:30", "note": "ON 12/24 AND 12/31, THIS BOX MAY BE COLLECTED AS EARLY AS 12 NOON.", "nsi_id": "unitedstatespostalservice-a77078", "operator": "United States Postal Service", "operator:short": "USPS", "operator:type": "public", "operator:wikidata": "Q668687", "ref": "5371600026"}, "type": "Feature"}
{"geometry": {"coordinates": [-89.327175415, 43.056938585], "type": "Point"}, "id": "5kjUN-sWtD91l0Pu0zo5zo8UVN4=", "properties": {"@source_uri": "https://tools.usps.com/UspsToolsRestServices/rest/POLocator/findLocations", "@spider": "usps_collection_boxes", "addr:city": "MONONA", "addr:country": "US", "addr:postcode": "53716", "addr:state": "WI", "addr:street_address": "112 OWEN RD", "amenity": "post_box", "brand": "United States Postal Service", "brand:wikidata": "Q668687", "collection_times": "Mo-Fr 17:30; Sa 12:00", "indoor": "yes", "note": "ON 12/24 AND 12/31, THIS BOX MAY BE COLLECTED AS EARLY AS 12 NOON.", "nsi_id": "unitedstatespostalservice-a77078", "operator": "United States Postal Service", "operator:short": "USPS", "operator:type": "public", "operator:wikidata": "Q668687", "ref": "5371600029"}, "type": "Feature"}
{"geometry": {"coordinates": [-89.327175415, 43.056938585], "type": "Point"}, "id": "i4jgpoRn65Aglsey4L_yMsgo1V0=", "properties": {"@source_uri": "https://tools.usps.com/UspsToolsRestServices/rest/POLocator/findLocations", "@spider": "usps_collection_boxes", "addr:city": "MONONA", "addr:country": "US", "addr:postcode": "53716", "addr:state": "WI", "addr:street_address": "112 OWEN RD", "amenity": "post_box", "brand": "United States Postal Service", "brand:wikidata": "Q668687", "collection_times": "Mo-Fr 17:30; Sa 12:00", "indoor": "yes", "note": "ON 12/24 AND 12/31, THIS BOX MAY BE COLLECTED AS EARLY AS 12 NOON.", "nsi_id": "unitedstatespostalservice-a77078", "operator": "United States Postal Service", "operator:short": "USPS", "operator:type": "public", "operator:wikidata": "Q668687", "ref": "5371600030"}, "type": "Feature"}
{"geometry": {"coordinates": [-89.3258092, 43.061527], "type": "Point"}, "id": "WfGdBysH5XrhlG_QwcigfZ4VyJY=", "properties": {"@source_uri": "https://tools.usps.com/UspsToolsRestServices/rest/POLocator/findLocations", "@spider": "usps_collection_boxes", "addr:city": "MONONA", "addr:country": "US", "addr:postcode": "53716", "addr:state": "WI", "addr:street_address": "5300 MONONA DR", "amenity": "post_box", "brand": "United States Postal Service", "brand:wikidata": "Q668687", "collection_times": "Mo-Fr 15:00; Sa 13:00", "note": "ON 12/24 AND 12/31, THIS BOX MAY BE COLLECTED AS EARLY AS 12 NOON.", "nsi_id": "unitedstatespostalservice-a77078", "operator": "United States Postal Service", "operator:short": "USPS", "operator:type": "public", "operator:wikidata": "Q668687", "ref": "5371600031"}, "type": "Feature"}
{"geometry": {"coordinates": [-89.3237261, 43.084202], "type": "Point"}, "id": "U-xEaJvXn7sYbB40GFKxwQPIJT0=", "properties": {"@source_uri": "https://tools.usps.com/UspsToolsRestServices/rest/POLocator/findLocations", "@spider": "usps_collection_boxes", "addr:city": "MONONA", "addr:country": "US", "addr:postcode": "53716", "addr:state": "WI", "addr:street_address": "204 COTTAGE GROVE RD", "amenity": "post_box", "brand": "United States Postal Service", "brand:wikidata": "Q668687", "collection_times": "Mo-Sa 13:00", "note": "ON 12/24 AND 12/31, THIS BOX MAY BE COLLECTED AS EARLY AS 12 NOON.", "nsi_id": "unitedstatespostalservice-a77078", "operator": "United States Postal Service", "operator:short": "USPS", "operator:type": "public", "operator:wikidata": "Q668687", "ref": "5371600032"}, "type": "Feature"}
{"geometry": {"coordinates": [-89.3271754148, 43.0569385852], "type": "Point"}, "id": "qrVpByN1KvyRWLf79bkdcugItDg=", "properties": {"@source_uri": "https://tools.usps.com/UspsToolsRestServices/rest/POLocator/findLocations", "@spider": "usps_collection_boxes", "addr:city": "MONONA", "addr:country": "US", "addr:postcode": "53716", "addr:state": "WI", "addr:street_address": "112 OWEN RD", "amenity": "post_box", "brand": "United States Postal Service", "brand:wikidata": "Q668687", "collection_times": "Mo-Fr 17:30; Sa 12:00", "indoor": "yes", "note": "ON 12/24 AND 12/31, THIS BOX MAY BE COLLECTED AS EARLY AS 12 NOON.", "nsi_id": "unitedstatespostalservice-a77078", "operator": "United States Postal Service", "operator:short": "USPS", "operator:type": "public", "operator:wikidata": "Q668687", "ref": "5371600036"}, "type": "Feature"}
{"geometry": {"coordinates": [-89.5251321, 43.076243], "type": "Point"}, "id": "DgHNEc5Vw1HHp8oNvlPI0Wkpd-s=", "properties": {"@source_uri": "https://tools.usps.com/UspsToolsRestServices/rest/POLocator/findLocations", "@spider": "usps_collection_boxes", "addr:city": "MADISON", "addr:country": "US", "addr:postcode": "53717", "addr:state": "WI", "addr:street_address": "8007 EXCELSIOR DR", "amenity": "post_box", "brand": "United States Postal Service", "brand:wikidata": "Q668687", "collection_times": "Mo-Fr 14:00; Sa 12:00", "note": "ON 12/24 AND 12/31, THIS BOX MAY BE COLLECTED AS EARLY AS 12 NOON.", "nsi_id": "unitedstatespostalservice-a77078", "operator": "United States Postal Service", "operator:short": "USPS", "operator:type": "public", "operator:wikidata": "Q668687", "ref": "5371700000"}, "type": "Feature"}
{"geometry": {"coordinates": [-89.5251385, 43.07623], "type": "Point"}, "id": "vP_Mfu4CytxXkHOTyGKRojqShIY=", "properties": {"@source_uri": "https://tools.usps.com/UspsToolsRestServices/rest/POLocator/findLocations", "@spider": "usps_collection_boxes", "addr:city": "MADISON", "addr:country": "US", "addr:postcode": "53717", "addr:state": "WI", "addr:street_address": "8007 EXCELSIOR DR", "amenity": "post_box", "brand": "United States Postal Service", "brand:wikidata": "Q668687", "collection_times": "Mo-Fr 14:00; Sa 12:00", "note": "ON 12/24 AND 12/31, THIS BOX MAY BE COLLECTED AS EARLY AS 12 NOON.", "nsi_id": "unitedstatespostalservice-a77078", "operator": "United States Postal Service", "operator:short": "USPS", "operator:type": "public", "operator:wikidata": "Q668687", "ref": "5371700001"}, "type": "Feature"}
{"geometry": {"coordinates": [-89.5106277, 43.058226], "type": "Point"}, "id": "jxGmapEp9Nv4PoTqko6XUNToVdU=", "properties": {"@source_uri": "https://tools.usps.com/UspsToolsRestServices/rest/POLocator/findLocations", "@spider": "usps_collection_boxes", "addr:city": "MADISON", "addr:country": "US", "addr:postcode": "53717", "addr:state": "WI", "addr:street_address": "7455 MINERAL POINT RD", "amenity": "post_box", "brand": "United States Postal Service", "brand:wikidata": "Q668687", "collection_times": "Mo-Sa 13:00", "note": "ON 12/24 AND 12/31, THIS BOX MAY BE COLLECTED AS EARLY AS 12 NOON.", "nsi_id": "unitedstatespostalservice-a77078", "operator": "United States Postal Service", "operator:short": "USPS", "operator:type": "public", "operator:wikidata": "Q668687", "ref": "5371700003"}, "type": "Feature"}
{"geometry": {"coordinates": [-89.5195621, 43.063736], "type": "Point"}, "id": "crUIVWuphbPqN8BxGT5dTU0VOtM=", "properties": {"@source_uri": "https://tools.usps.com/UspsToolsRestServices/rest/POLocator/findLocations", "@spider": "usps_collection_boxes", "addr:city": "MADISON", "addr:country": "US", "addr:postcode": "53717", "addr:state": "WI", "addr:street_address": "7901 TREE LN", "amenity": "post_box", "brand": "United States Postal Service", "brand:wikidata": "Q668687", "collection_times": "Mo-Fr 13:00; Sa 12:00", "note": "ON 12/24 AND 12/31, THIS BOX MAY BE COLLECTED AS EARLY AS 12 NOON.", "nsi_id": "unitedstatespostalservice-a77078", "operator": "United States Postal Service", "operator:short": "USPS", "operator:type": "public", "operator:wikidata": "Q668687", "ref": "5371700006"}, "type": "Feature"}
{"geometry": {"coordinates": [-89.5246699, 43.07203], "type": "Point"}, "id": "y46OWjzDC_8xB1dfaztVSzRZENc=", "properties": {"@source_uri": "https://tools.usps.com/UspsToolsRestServices/rest/POLocator/findLocations", "@spider": "usps_collection_boxes", "addr:city": "MADISON", "addr:country": "US", "addr:postcode": "53717", "addr:state": "WI", "addr:street_address": "525 JUNCTION RD", "amenity": "post_box", "brand": "United States Postal Service", "brand:wikidata": "Q668687", "collection_times": "Mo-Sa 12:00", "nsi_id": "unitedstatespostalservice-a77078", "operator": "United States Postal Service", "operator:short": "USPS", "operator:type": "public", "operator:wikidata": "Q668687", "ref": "5371700008"}, "type": "Feature"}
{"geometry": {"coordinates": [-89.5179987, 43.061132], "type": "Point"}, "id": "moQlYP2xZ-H8P9OICngEO-3ig1A=", "properties": {"@source_uri": "https://tools.usps.com/UspsToolsRestServices/rest/POLocator/findLocations", "@spider": "usps_collection_boxes", "addr:city": "MADISON", "addr:country": "US", "addr:postcode": "53717", "addr:state": "WI", "addr:street_address": "7810 MINERAL POINT RD", "amenity": "post_box", "brand": "United States Postal Service", "brand:wikidata": "Q668687", "collection_times": "Mo-Fr 14:00; Sa 13:00", "note": "ON 12/24 AND 12/31, THIS BOX MAY BE COLLECTED AS EARLY AS 12 NOON.", "nsi_id": "unitedstatespostalservice-a77078", "operator": "United States Postal Service", "operator:short": "USPS", "operator:type": "public", "operator:wikidata": "Q668687", "ref": "5371700009"}, "type": "Feature"}
{"geometry": {"coordinates": [-89.5073084, 43.06384], "type": "Point"}, "id": "j42m6Tkx2Ucz57MANGReOioLoAg=", "properties": {"@source_uri": "https://tools.usps.com/UspsToolsRestServices/rest/POLocator/findLocations", "@spider": "usps_collection_boxes", "addr:city": "MADISON", "addr:country": "US", "addr:postcode": "53717", "addr:state": "WI", "addr:street_address": "7201 TREE LN", "amenity": "post_box", "brand": "United States Postal Service", "brand:wikidata": "Q668687", "collection_times": "Mo-Sa 13:00", "note": "ON 12/24 AND 12/31, THIS BOX MAY BE COLLECTED AS EARLY AS 12 NOON.", "nsi_id": "unitedstatespostalservice-a77078", "operator": "United States Postal Service", "operator:short": "USPS", "operator:type": "public", "operator:wikidata": "Q668687", "ref": "5371700010"}, "type": "Feature"}
{"geometry": {"coordinates": [-89.5251342, 43.076246], "type": "Point"}, "id": "cg8s9E6pk3KW3kiI9yh-ZVfespE=", "properties": {"@source_uri": "https://tools.usps.com/UspsToolsRestServices/rest/POLocator/findLocations", "@spider": "usps_collection_boxes", "addr:city": "MADISON", "addr:country": "US", "addr:postcode": "53717", "addr:state": "WI", "addr:street_address": "8007 EXCELSIOR DR", "amenity": "post_box", "brand": "United States Postal Service", "brand:wikidata": "Q668687", "collection_times": "Mo-Fr 14:00; Sa 12:00", "note": "ON 12/24 AND 12/31, THIS BOX MAY BE COLLECTED AS EARLY AS 12 NOON.", "nsi_id": "unitedstatespostalservice-a77078", "operator": "United States Postal Service", "operator:short": "USPS", "operator:type": "public", "operator:wikidata": "Q668687", "ref": "5371700011"}, "type": "Feature"}
{"geometry": {"coordinates": [-89.5189295, 43.074507], "type": "Point"}, "id": "sAIonVFQSVLIqgVEoXpxl6n_0hI=", "properties": {"@source_uri": "https://tools.usps.com/UspsToolsRestServices/rest/POLocator/findLocations", "@spider": "usps_collection_boxes", "addr:city": "MADISON", "addr:country": "US", "addr:postcode": "53717", "addr:state": "WI", "addr:street_address": "670 N HIGH POINT RD", "amenity": "post_box", "brand": "United States Postal Service", "brand:wikidata": "Q668687", "collection_times": "Mo-Sa 13:00", "note": "ON 12/24 AND 12/31, THIS BOX MAY BE COLLECTED AS EARLY AS 12 NOON.", "nsi_id": "unitedstatespostalservice-a77078", "operator": "United States Postal Service", "operator:short": "USPS", "operator:type": "public", "operator:wikidata": "Q668687", "ref": "5371700012"}, "type": "Feature"}
{"geometry": {"coordinates": [-89.2902064, 43.134299], "type": "Point"}, "id": "bdF2hvsCpQbmvRY947PVCHgwy3s=", "properties": {"@source_uri": "https://tools.usps.com/UspsToolsRestServices/rest/POLocator/findLocations", "@spider": "usps_collection_boxes", "addr:city": "MADISON", "addr:country": "US", "addr:postcode": "53718", "addr:state": "WI", "addr:street_address": "2601 CROSSROADS DR", "amenity": "post_box", "brand": "United States Postal Service", "brand:wikidata": "Q668687", "collection_times": "Mo-Sa 13:00", "note": "ON 12/24 AND 12/31, THIS BOX MAY BE COLLECTED AS EARLY AS 12 NOON.", "nsi_id": "unitedstatespostalservice-a77078", "operator": "United States Postal Service", "operator:short": "USPS", "operator:type": "public", "operator:wikidata": "Q668687", "ref": "5371800000"}, "type": "Feature"}
{"geometry": {"coordinates": [-89.2907069, 43.056425], "type": "Point"}, "id": "2dk7Jic7OZ0DXNkba-IzvDPgwiY=", "properties": {"@source_uri": "https://tools.usps.com/UspsToolsRestServices/rest/POLocator/findLocations", "@spider": "usps_collection_boxes", "addr:city": "MADISON", "addr:country": "US", "addr:postcode": "53718", "addr:state": "WI", "addr:street_address": "5201 WORLD DAIRY DR", "amenity": "post_box", "brand": "United States Postal Service", "brand:wikidata": "Q668687", "collection_times": "Mo-Fr 15:00", "note": "ON 12/24 AND 12/31, THIS BOX MAY BE COLLECTED AS EARLY AS 12 NOON.", "nsi_id": "unitedstatespostalservice-a77078", "operator": "United States Postal Service", "operator:short": "USPS", "operator:type": "public", "operator:wikidata": "Q668687", "ref": "5371800009"}, "type": "Feature"}
{"geometry": {"coordinates": [-89.2907047, 43.056447], "type": "Point"}, "id": "oDLMkaFwDphql7F8sC3sh6lnAoc=", "properties": {"@source_uri": "https://tools.usps.com/UspsToolsRestServices/rest/POLocator/findLocations", "@spider": "usps_collection_boxes", "addr:city": "MADISON", "addr:country": "US", "addr:postcode": "53718", "addr:state": "WI", "addr:street_address": "5201 WORLD DAIRY DR", "amenity": "post_box", "brand": "United States Postal Service", "brand:wikidata": "Q668687", "collection_times": "Mo-Fr 15:00", "note": "ON 12/24 AND 12/31, THIS BOX MAY BE COLLECTED AS EARLY AS 12 NOON.", "nsi_id": "unitedstatespostalservice-a77078", "operator": "United States Postal Service", "operator:short": "USPS", "operator:type": "public", "operator:wikidata": "Q668687", "ref": "5371800012"}, "type": "Feature"}
{"geometry": {"coordinates": [-89.5025499, 43.048622], "type": "Point"}, "id": "iTj4otSYj1Lut8DKnnvipwqJ-5w=", "properties": {"@source_uri": "https://tools.usps.com/UspsToolsRestServices/rest/POLocator/findLocations", "@spider": "usps_collection_boxes", "addr:city": "FITCHBURG", "addr:country": "US", "addr:postcode": "53719", "addr:state": "WI", "addr:street_address": "711 S GAMMON RD", "amenity": "post_box", "brand": "United States Postal Service", "brand:wikidata": "Q668687", "collection_times": "Mo-Fr 15:00; Sa 13:00", "note": "ON 12/24 AND 12/31, THIS BOX MAY BE COLLECTED AS EARLY AS 12 NOON.", "nsi_id": "unitedstatespostalservice-a77078", "operator": "United States Postal Service", "operator:short": "USPS", "operator:type": "public", "operator:wikidata": "Q668687", "ref": "5371900003"}, "type": "Feature"}
{"geometry": {"coordinates": [-89.5145064, 43.059542], "type": "Point"}, "id": "HnDpXC6TQWXd2ZlpnzdjdG6wNXs=", "properties": {"@source_uri": "https://tools.usps.com/UspsToolsRestServices/rest/POLocator/findLocations", "@spider": "usps_collection_boxes", "addr:city": "FITCHBURG", "addr:country": "US", "addr:postcode": "53719", "addr:state": "WI", "addr:street_address": "7601 GANSER WAY", "amenity": "post_box", "brand": "United States Postal Service", "brand:wikidata": "Q668687", "collection_times": "Mo-Fr 13:00", "note": "ON 12/24 AND 12/31, THIS BOX MAY BE COLLECTED AS EARLY AS 12 NOON.", "nsi_id": "unitedstatespostalservice-a77078", "operator": "United States Postal Service", "operator:short": "USPS", "operator:type": "public", "operator:wikidata": "Q668687", "ref": "5371900005"}, "type": "Feature"}
{"geometry": {"coordinates": [-89.4915319, 43.055255], "type": "Point"}, "id": "QLCT5KkoJsnmtT2kDJvHezkB_1Y=", "properties": {"@source_uri": "https://tools.usps.com/UspsToolsRestServices/rest/POLocator/findLocations", "@spider": "usps_collection_boxes", "addr:city": "FITCHBURG", "addr:country": "US", "addr:postcode": "53719", "addr:state": "WI", "addr:street_address": "6502 ODANA RD", "amenity": "post_box", "brand": "United States Postal Service", "brand:wikidata": "Q668687", "collection_times": "Mo-Fr 14:00; Sa 12:00", "note": "ON 12/24 AND 12/31, THIS BOX MAY BE COLLECTED AS EARLY AS 12 NOON.", "nsi_id": "unitedstatespostalservice-a77078", "operator": "United States Postal Service", "operator:short": "USPS", "operator:type": "public", "operator:wikidata": "Q668687", "ref": "5371900013"}, "type": "Feature"}
{"geometry": {"coordinates": [-89.4915411, 43.055238], "type": "Point"}, "id": "SHVo1IYnSd7GvoK3S0_tkxRxywQ=", "properties": {"@source_uri": "https://tools.usps.com/UspsToolsRestServices/rest/POLocator/findLocations", "@spider": "usps_collection_boxes", "addr:city": "FITCHBURG", "addr:country": "US", "addr:postcode": "53719", "addr:state": "WI", "addr:street_address": "6502 ODANA RD", "amenity": "post_box", "brand": "United States Postal Service", "brand:wikidata": "Q668687", "collection_times": "Mo-Fr 14:00; Sa 12:00", "note": "ON 12/24 AND 12/31, THIS BOX MAY BE COLLECTED AS EARLY AS 12 NOON.", "nsi_id": "unitedstatespostalservice-a77078", "operator": "United States Postal Service", "operator:short": "USPS", "operator:type": "public", "operator:wikidata": "Q668687", "ref": "5371900014"}, "type": "Feature"}
{"geometry": {"coordinates": [-89.5047473, 43.057141], "type": "Point"}, "id": "eWMbYwp-_vUB9FrFatwz1RO0M_M=", "properties": {"@source_uri": "https://tools.usps.com/UspsToolsRestServices/rest/POLocator/findLocations", "@spider": "usps_collection_boxes", "addr:city": "FITCHBURG", "addr:country": "US", "addr:postcode": "53719", "addr:state": "WI", "addr:street_address": "1 W TOWNE MALL", "amenity": "post_box", "brand": "United States Postal Service", "brand:wikidata": "Q668687", "collection_times": "Mo-Fr 14:00; Sa 13:00", "note": "ON 12/24 AND 12/31, THIS BOX MAY BE COLLECTED AS EARLY AS 12 NOON.", "nsi_id": "unitedstatespostalservice-a77078", "operator": "United States Postal Service", "operator:short": "USPS", "operator:type": "public", "operator:wikidata": "Q668687", "ref": "5371900017"}, "type": "Feature"}
{"geometry": {"coordinates": [-89.4921579, 43.059081], "type": "Point"}, "id": "bHFup66ywl-ss81syhomnnCEYPs=", "properties": {"@source_uri": "https://tools.usps.com/UspsToolsRestServices/rest/POLocator/findLocations", "@spider": "usps_collection_boxes", "addr:city": "FITCHBURG", "addr:country": "US", "addr:postcode": "53719", "addr:state": "WI", "addr:street_address": "426 S YELLOWSTONE DR", "amenity": "post_box", "brand": "United States Postal Service", "brand:wikidata": "Q668687", "collection_times": "Mo-Fr 14:00; Sa 12:00", "note": "ON 12/24 AND 12/31, THIS BOX MAY BE COLLECTED AS EARLY AS 12 NOON.", "nsi_id": "unitedstatespostalservice-a77078", "operator": "United States Postal Service", "operator:short": "USPS", "operator:type": "public", "operator:wikidata": "Q668687", "ref": "5371900019"}, "type": "Feature"}
{"geometry": {"coordinates": [-89.4921326, 43.059094], "type": "Point"}, "id": "VWXMdMJ3oXm0xZaloKD0XmMTBOE=", "properties": {"@source_uri": "https://tools.usps.com/UspsToolsRestServices/rest/POLocator/findLocations", "@spider": "usps_collection_boxes", "addr:city": "FITCHBURG", "addr:country": "US", "addr:postcode": "53719", "addr:state": "WI", "addr:street_address": "426 S YELLOWSTONE DR", "amenity": "post_box", "brand": "United States Postal Service", "brand:wikidata": "Q668687", "collection_times": "Mo-Fr 14:00; Sa 12:00", "note": "ON 12/24 AND 12/31, THIS BOX MAY BE COLLECTED AS EARLY AS 12 NOON.", "nsi_id": "unitedstatespostalservice-a77078", "operator": "United States Postal Service", "operator:short": "USPS", "operator:type": "public", "operator:wikidata": "Q668687", "ref": "5371900020"}, "type": "Feature"}
{"geometry": {"coordinates": [-89.4921119, 43.059091], "type": "Point"}, "id": "f4ojCDnepNqazSxYzvbzm0wj4rI=", "properties": {"@source_uri": "https://tools.usps.com/UspsToolsRestServices/rest/POLocator/findLocations", "@spider": "usps_collection_boxes", "addr:city": "FITCHBURG", "addr:country": "US", "addr:postcode": "53719", "addr:state": "WI", "addr:street_address": "426 S YELLOWSTONE DR", "amenity": "post_box", "brand": "United States Postal Service", "brand:wikidata": "Q668687", "collection_times": "Mo-Fr 14:00; Sa 12:00", "note": "ON 12/24 AND 12/31, THIS BOX MAY BE COLLECTED AS EARLY AS 12 NOON.", "nsi_id": "unitedstatespostalservice-a77078", "operator": "United States Postal Service", "operator:short": "USPS", "operator:type": "public", "operator:wikidata": "Q668687", "ref": "5371900022"}, "type": "Feature"}
{"geometry": {"coordinates": [-89.4981638, 43.016247], "type": "Point"}, "id": "9XAipbUXI5hLx1IhsGS8GFnycJU=", "properties": {"@source_uri": "https://tools.usps.com/UspsToolsRestServices/rest/POLocator/findLocations", "@spider": "usps_collection_boxes", "addr:city": "FITCHBURG", "addr:country": "US", "addr:postcode": "53719", "addr:state": "WI", "addr:street_address": "3153 MAPLE GROVE DR", "amenity": "post_box", "brand": "United States Postal Service", "brand:wikidata": "Q668687", "collection_times": "Mo-Sa 12:00", "nsi_id": "unitedstatespostalservice-a77078", "operator": "United States Postal Service", "operator:short": "USPS", "operator:type": "public", "operator:wikidata": "Q668687", "ref": "5371900024"}, "type": "Feature"}
{"geometry": {"coordinates": [-89.5020254, 43.060044], "type": "Point"}, "id": "Un4xnscc4AWCG3UTPgibIZWGGaA=", "properties": {"@source_uri": "https://tools.usps.com/UspsToolsRestServices/rest/POLocator/findLocations", "@spider": "usps_collection_boxes", "addr:city": "FITCHBURG", "addr:country": "US", "addr:postcode": "53719", "addr:state": "WI", "addr:street_address": "402 GAMMON PL", "amenity": "post_box", "brand": "United States Postal Service", "brand:wikidata": "Q668687", "collection_times": "Mo-Fr 14:00; Sa 12:00", "note": "ON 12/24 AND 12/31, THIS BOX MAY BE COLLECTED AS EARLY AS 12 NOON.", "nsi_id": "unitedstatespostalservice-a77078", "operator": "United States Postal Service", "operator:short": "USPS", "operator:type": "public", "operator:wikidata": "Q668687", "ref": "5371900025"}, "type": "Feature"}
{"geometry": {"coordinates": [-89.4744405, 43.0483], "type": "Point"}, "id": "RbFtAmkypsLDJx7EEW_ITsJfgeo=", "properties": {"@source_uri": "https://tools.usps.com/UspsToolsRestServices/rest/POLocator/findLocations", "@spider": "usps_collection_boxes", "addr:city": "FITCHBURG", "addr:country": "US", "addr:postcode": "53719", "addr:state": "WI", "addr:street_address": "5520 MEDICAL CIR", "amenity": "post_box", "brand": "United States Postal Service", "brand:wikidata": "Q668687", "collection_times": "Mo-Fr 14:00; Sa 12:00", "note": "ON 12/24 AND 12/31, THIS BOX MAY BE COLLECTED AS EARLY AS 12 NOON.", "nsi_id": "unitedstatespostalservice-a77078", "operator": "United States Postal Service", "operator:short": "USPS", "operator:type": "public", "operator:wikidata": "Q668687", "ref": "5371900026"}, "type": "Feature"}
{"geometry": {"coordinates": [-89.4701063, 43.024678], "type": "Point"}, "id": "sPmgKl6FepBpmCPL8aPWbVO5g5M=", "properties": {"@source_uri": "https://tools.usps.com/UspsToolsRestServices/rest/POLocator/findLocations", "@spider": "usps_collection_boxes", "addr:city": "FITCHBURG", "addr:country": "US", "addr:postcode": "53719", "addr:state": "WI", "addr:street_address": "5280 WILLIAMSBURG WAY", "amenity": "post_box", "brand": "United States Postal Service", "brand:wikidata": "Q668687", "collection_times": "Mo-Fr 13:00; Sa 12:00", "note": "ON 12/24 AND 12/31, THIS BOX MAY BE COLLECTED AS EARLY AS 12 NOON.", "nsi_id": "unitedstatespostalservice-a77078", "operator": "United States Postal Service", "operator:short": "USPS", "operator:type": "public", "operator:wikidata": "Q668687", "ref": "5371900032"}, "type": "Feature"}
{"geometry": {"coordinates": [-89.4745799, 43.056302], "type": "Point"}, "id": "If86x2lbW4iluQj_m30NniA2154=", "properties": {"@source_uri": "https://tools.usps.com/UspsToolsRestServices/rest/POLocator/findLocations", "@spider": "usps_collection_boxes", "addr:city": "FITCHBURG", "addr:country": "US", "addr:postcode": "53719", "addr:state": "WI", "addr:street_address": "5501 RESEARCH PARK BLVD", "amenity": "post_box", "brand": "United States Postal Service", "brand:wikidata": "Q668687", "collection_times": "Mo-Fr 14:00; Sa 12:00", "note": "ON 12/24 AND 12/31, THIS BOX MAY BE COLLECTED AS EARLY AS 12 NOON.", "nsi_id": "unitedstatespostalservice-a77078", "operator": "United States Postal Service", "operator:short": "USPS", "operator:type": "public", "operator:wikidata": "Q668687", "ref": "5371900034"}, "type": "Feature"}
{"geometry": {"coordinates": [-89.4697437, 43.015071], "type": "Point"}, "id": "XbSkr_G4pAtGpAakzK4DGyePpYI=", "properties": {"@source_uri": "https://tools.usps.com/UspsToolsRestServices/rest/POLocator/findLocations", "@spider": "usps_collection_boxes", "addr:city": "FITCHBURG", "addr:country": "US", "addr:postcode": "53719", "addr:state": "WI", "addr:street_address": "6133 MCKEE RD", "amenity": "post_box", "brand": "United States Postal Service", "brand:wikidata": "Q668687", "collection_times": "Mo-Fr 13:00; Sa 12:00", "note": "ON 12/24 AND 12/31, THIS BOX MAY BE COLLECTED AS EARLY AS 12 NOON.", "nsi_id": "unitedstatespostalservice-a77078", "operator": "United States Postal Service", "operator:short": "USPS", "operator:type": "public", "operator:wikidata": "Q668687", "ref": "5371900035"}, "type": "Feature"}
{"geometry": {"coordinates": [-89.4234086, 43.067846], "type": "Point"}, "id": "YHvBJMRgRff6iDXaBhy8DUCCGVM=", "properties": {"@source_uri": "https://tools.usps.com/UspsToolsRestServices/rest/POLocator/findLocations", "@spider": "usps_collection_boxes", "addr:city": "MADISON", "addr:country": "US", "addr:postcode": "53726", "addr:state": "WI", "addr:street_address": "2143 REGENT ST", "amenity": "post_box", "brand": "United States Postal Service", "brand:wikidata": "Q668687", "collection_times": "Mo-Fr 11:45; Sa 13:00", "note": "ON 12/24 AND 12/31, THIS BOX MAY BE COLLECTED AS EARLY AS 12 NOON.", "nsi_id": "unitedstatespostalservice-a77078", "operator": "United States Postal Service", "operator:short": "USPS", "operator:type": "public", "operator:wikidata": "Q668687", "ref": "5372600001"}, "type": "Feature"}
{"geometry": {"coordinates": [-89.4284968, 43.072037], "type": "Point"}, "id": "DSDUoXXdvPo992blLH9ucUoffLs=", "properties": {"@source_uri": "https://tools.usps.com/UspsToolsRestServices/rest/POLocator/findLocations", "@spider": "usps_collection_boxes", "addr:city": "MADISON", "addr:country": "US", "addr:postcode": "53726", "addr:state": "WI", "addr:street_address": "2433 UNIVERSITY AVE", "amenity": "post_box", "brand": "United States Postal Service", "brand:wikidata": "Q668687", "collection_times": "Mo-Sa 13:00", "note": "ON 12/24 AND 12/31, THIS BOX MAY BE COLLECTED AS EARLY AS 12 NOON.", "nsi_id": "unitedstatespostalservice-a77078", "operator": "United States Postal Service", "operator:short": "USPS", "operator:type": "public", "operator:wikidata": "Q668687", "ref": "5372600003"}, "type": "Feature"}
