{"geometry": {"coordinates": [-91.102733, 42.905009], "type": "Point"}, "id": "YC6gc2HBFaRuWOD9FuNbpzpTpjw=", "properties": {"@source_uri": "https://tools.usps.com/UspsToolsRestServices/rest/POLocator/findLocations", "@spider": "usps_collection_boxes", "addr:city": "BAGLEY", "addr:country": "US", "addr:postcode": "53801", "addr:state": "WI", "addr:street_address": "140 S BAGLEY AVE", "amenity": "post_box", "brand": "United States Postal Service", "brand:wikidata": "Q668687", "collection_times": "Mo-Sa 11:00", "nsi_id": "unitedstatespostalservice-a77078", "operator": "United States Postal Service", "operator:short": "USPS", "operator:type": "public", "operator:wikidata": "Q668687", "ref": "5380100000"}, "type": "Feature"}
{"geometry": {"coordinates": [-91.102733, 42.905009], "type": "Point"}, "id": "OEGIa7pKiUvZzxca9NzMt2XqiWw=", "properties": {"@source_uri": "https://tools.usps.com/UspsToolsRestServices/rest/POLocator/findLocations", "@spider": "usps_collection_boxes", "addr:city": "BAGLEY", "addr:country": "US", "addr:postcode": "53801", "addr:state": "WI", "addr:street_address": "140 S BAGLEY AVE", "amenity": "post_box", "brand": "United States Postal Service", "brand:wikidata": "Q668687", "collection_times": "Mo-Fr 11:30; Sa 10:30", "indoor": "yes", "nsi_id": "unitedstatespostalservice-a77078", "operator": "United States Postal Service", "operator:short": "USPS", "operator:type": "public", "operator:wikidata": "Q668687", "ref": "5380100001"}, "type": "Feature"}
{"geometry": {"coordinates": [-91.102735459, 42.905001982], "type": "Point"}, "id": "LuBjosftpgfCBTyHqcoBQ3SspEY=", "properties": {"@source_uri": "https://tools.usps.com/UspsToolsRestServices/rest/POLocator/findLocations", "@spider": "usps_collection_boxes", "addr:city": "BAGLEY", "addr:country": "US", "addr:postcode": "53801", "addr:state": "WI", "addr:street_address": "140 S BAGLEY AVE", "amenity": "post_box", "brand": "United States Postal Service", "brand:wikidata": "Q668687", "collection_times": "Mo-Fr 11:30; Sa 10:30", "indoor": "yes", "nsi_id": "unitedstatespostalservice-a77078", "operator": "United States Postal Service", "operator:short": "USPS", "operator:type": "public", "operator:wikidata": "Q668687", "ref": "5380100002"}, "type": "Feature"}
{"geometry": {"coordinates": [-90.9060426683, 42.7953083227], "type": "Point"}, "id": "Huac-ginXJZ7KjfM5bJZkv4y0dA=", "properties": {"@source_uri": "https://tools.usps.com/UspsToolsRestServices/rest/POLocator/findLocations", "@spider": "usps_collection_boxes", "addr:city": "BEETOWN", "addr:country": "US", "addr:postcode": "53802", "addr:state": "WI", "addr:street_address": "9502 MUSCALLOUNGE RD", "amenity": "post_box", "brand": "United States Postal Service", "brand:wikidata": "Q668687", "collection_times": "Mo-Fr 16:30; Sa 13:00", "note": "ON 12/24 AND 12/31, THIS BOX MAY BE COLLECTED AS EARLY AS 12 NOON.", "nsi_id": "unitedstatespostalservice-a77078", "operator": "United States Postal Service", "operator:short": "USPS", "operator:type": "public", "operator:wikidata": "Q668687", "ref": "5380200000"}, "type": "Feature"}
{"geometry": {"coordinates": [-90.9060426683, 42.7953083227], "type": "Point"}, "id": "tfQmIbIs0ya3MoG2r7qeVP9o4ZE=", "properties": {"@source_uri": "https://tools.usps.com/UspsToolsRestServices/rest/POLocator/findLocations", "@spider": "usps_collection_boxes", "addr:city": "BEETOWN", "addr:country": "US", "addr:postcode": "53802", "addr:state": "WI", "addr:street_address": "9502 MUSCALLOUNGE RD", "amenity": "post_box", "brand": "United States Postal Service", "brand:wikidata": "Q668687", "collection_times": "Mo-Fr 16:30; Sa 13:00", "indoor": "yes", "note": "ON 12/24 AND 12/31, THIS BOX MAY BE COLLECTED AS EARLY AS 12 NOON.", "nsi_id": "unitedstatespostalservice-a77078", "operator": "United States Postal Service", "operator:short": "USPS", "operator:type": "public", "operator:wikidata": "Q668687", "ref": "5380200001"}, "type": "Feature"}
{"geometry": {"coordinates": [-90.888569023, 42.796731454], "type": "Point"}, "id": "rkspK1za85n5HAgIMXFc0qzdKCY=", "properties": {"@source_uri": "https://tools.usps.com/UspsToolsRestServices/rest/POLocator/findLocations", "@spider": "usps_collection_boxes", "addr:city": "BEETOWN", "addr:country": "US", "addr:postcode": "53802", "addr:state": "WI", "addr:street_address": "9502 MUSCALLOUNGE RD", "amenity": "post_box", "brand": "United States Postal Service", "brand:wikidata": "Q668687", "collection_times": "Mo-Fr 16:30; Sa 13:00", "indoor": "yes", "note": "ON 12/24 AND 12/31, THIS BOX MAY BE COLLECTED AS EARLY AS 12 NOON.", "nsi_id": "unitedstatespostalservice-a77078", "operator": "United States Postal Service", "operator:short": "USPS", "operator:type": "public", "operator:wikidata": "Q668687", "ref": "5380200002"}, "type": "Feature"}
{"geometry": {"coordinates": [-90.38082, 42.568142], "type": "Point"}, "id": "zcq7Vpg8mC-Moo_sJOit6Uns0MA=", "properties": {"@source_uri": "https://tools.usps.com/UspsToolsRestServices/rest/POLocator/findLocations", "@spider": "usps_collection_boxes", "addr:city": "BENTON", "addr:country": "US", "addr:postcode": "53803", "addr:state": "WI", "addr:street_address": "33 BEAN ST", "amenity": "post_box", "brand": "United States Postal Service", "brand:wikidata": "Q668687", "collection_times": "Mo-Fr 16:15; Sa 12:00", "note": "ON 12/24 AND 12/31, THIS BOX MAY BE COLLECTED AS EARLY AS 12 NOON.", "nsi_id": "unitedstatespostalservice-a77078", "operator": "United States Postal Service", "operator:short": "USPS", "operator:type": "public", "operator:wikidata": "Q668687", "ref": "5380300000"}, "type": "Feature"}
{"geometry": {"coordinates": [-90.38072, 42.56844], "type": "Point"}, "id": "rUceVPlYqI-eCK3Of4YE01rw2eQ=", "properties": {"@source_uri": "https://tools.usps.com/UspsToolsRestServices/rest/POLocator/findLocations", "@spider": "usps_collection_boxes", "addr:city": "BENTON", "addr:country": "US", "addr:postcode": "53803", "addr:state": "WI", "addr:street_address": "33 BEAN ST", "amenity": "post_box", "brand": "United States Postal Service", "brand:wikidata": "Q668687", "collection_times": "Mo-Fr 16:15; Sa 12:00", "indoor": "yes", "note": "ON 12/24 AND 12/31, THIS BOX MAY BE COLLECTED AS EARLY AS 12 NOON.", "nsi_id": "unitedstatespostalservice-a77078", "operator": "United States Postal Service", "operator:short": "USPS", "operator:type": "public", "operator:wikidata": "Q668687", "ref": "5380300001"}, "type": "Feature"}
{"geometry": {"coordinates": [-90.38072, 42.56844], "type": "Point"}, "id": "tFaIrflbk452-8n6jv0URZMYXcc=", "properties": {"@source_uri": "https://tools.usps.com/UspsToolsRestServices/rest/POLocator/findLocations", "@spider": "usps_collection_boxes", "addr:city": "BENTON", "addr:country": "US", "addr:postcode": "53803", "addr:state": "WI", "addr:street_address": "33 BEAN ST", "amenity": "post_box", "brand": "United States Postal Service", "brand:wikidata": "Q668687", "collection_times": "Mo-Fr 16:15; Sa 12:00", "indoor": "yes", "note": "ON 12/24 AND 12/31, THIS BOX MAY BE COLLECTED AS EARLY AS 12 NOON.", "nsi_id": "unitedstatespostalservice-a77078", "operator": "United States Postal Service", "operator:short": "USPS", "operator:type": "public", "operator:wikidata": "Q668687", "ref": "5380300002"}, "type": "Feature"}
{"geometry": {"coordinates": [-90.380591113, 42.568341956], "type": "Point"}, "id": "j3pKzBwpMqoNPp3JoywHrSUymCY=", "properties": {"@source_uri": "https://tools.usps.com/UspsToolsRestServices/rest/POLocator/findLocations", "@spider": "usps_collection_boxes", "addr:city": "BENTON", "addr:country": "US", "addr:postcode": "53803", "addr:state": "WI", "addr:street_address": "33 BEAN ST", "amenity": "post_box", "brand": "United States Postal Service", "brand:wikidata": "Q668687", "collection_times": "Mo-Fr 16:15; Sa 12:00", "indoor": "yes", "note": "ON 12/24 AND 12/31, THIS BOX MAY BE COLLECTED AS EARLY AS 12 NOON.", "nsi_id": "unitedstatespostalservice-a77078", "operator": "United States Postal Service", "operator:short": "USPS", "operator:type": "public", "operator:wikidata": "Q668687", "ref": "5380300003"}, "type": "Feature"}
{"geometry": {"coordinates": [-90.926182, 42.883626], "type": "Point"}, "id": "jc_8Pnu3Tl4Jk_5H3tdr7cjQFQk=", "properties": {"@source_uri": "https://tools.usps.com/UspsToolsRestServices/rest/POLocator/findLocations", "@spider": "usps_collection_boxes", "addr:city": "BLOOMINGTON", "addr:country": "US", "addr:postcode": "53804", "addr:state": "WI", "addr:street_address": "472 CANAL ST", "amenity": "post_box", "brand": "United States Postal Service", "brand:wikidata": "Q668687", "collection_times": "Mo-Fr 14:45; Sa 09:45", "note": "ON 12/24 AND 12/31, THIS BOX MAY BE COLLECTED AS EARLY AS 12 NOON.", "nsi_id": "unitedstatespostalservice-a77078", "operator": "United States Postal Service", "operator:short": "USPS", "operator:type": "public", "operator:wikidata": "Q668687", "ref": "5380400000"}, "type": "Feature"}
{"geometry": {"coordinates": [-90.926182, 42.883626], "type": "Point"}, "id": "XCA2y_v7V1_iCQjJxVyIIrnOdXU=", "properties": {"@source_uri": "https://tools.usps.com/UspsToolsRestServices/rest/POLocator/findLocations", "@spider": "usps_collection_boxes", "addr:city": "BLOOMINGTON", "addr:country": "US", "addr:postcode": "53804", "addr:state": "WI", "addr:street_address": "472 CANAL ST", "amenity": "post_box", "brand": "United States Postal Service", "brand:wikidata": "Q668687", "collection_times": "Mo-Fr 14:45; Sa 09:45", "indoor": "yes", "note": "ON 12/24 AND 12/31, THIS BOX MAY BE COLLECTED AS EARLY AS 12 NOON.", "nsi_id": "unitedstatespostalservice-a77078", "operator": "United States Postal Service", "operator:short": "USPS", "operator:type": "public", "operator:wikidata": "Q668687", "ref": "5380400001"}, "type": "Feature"}
{"geometry": {"coordinates": [-90.926255337, 42.883640779], "type": "Point"}, "id": "LbHyEqtpXb_fWch3nAhzdjgsMU4=", "properties": {"@source_uri": "https://tools.usps.com/UspsToolsRestServices/rest/POLocator/findLocations", "@spider": "usps_collection_boxes", "addr:city": "BLOOMINGTON", "addr:country": "US", "addr:postcode": "53804", "addr:state": "WI", "addr:street_address": "472 CANAL ST", "amenity": "post_box", "brand": "United States Postal Service", "brand:wikidata": "Q668687", "collection_times": "Mo-Fr 14:45; Sa 09:45", "indoor": "yes", "note": "ON 12/24 AND 12/31, THIS BOX MAY BE COLLECTED AS EARLY AS 12 NOON.", "nsi_id": "unitedstatespostalservice-a77078", "operator": "United States Postal Service", "operator:short": "USPS", "operator:type": "public", "operator:wikidata": "Q668687", "ref": "5380400003"}, "type": "Feature"}
{"geometry": {"coordinates": [-90.704661, 43.136536], "type": "Point"}, "id": "Ku63JAu00MJ2esPWlhHmVCqdVsQ=", "properties": {"@source_uri": "https://tools.usps.com/UspsToolsRestServices/rest/POLocator/findLocations", "@spider": "usps_collection_boxes", "addr:city": "BOSCOBEL", "addr:country": "US", "addr:postcode": "53805", "addr:state": "WI", "addr:street_address": "105 SUPERIOR ST", "amenity": "post_box", "brand": "United States Postal Service", "brand:wikidata": "Q668687", "collection_times": "Mo-Fr 17:00; Sa 11:00", "indoor": "yes", "note": "ON 12/24 AND 12/31, THIS BOX MAY BE COLLECTED AS EARLY AS 12 NOON.", "nsi_id": "unitedstatespostalservice-a77078", "operator": "United States Postal Service", "operator:short": "USPS", "operator:type": "public", "operator:wikidata": "Q668687", "ref": "5380500007"}, "type": "Feature"}
{"geometry": {"coordinates": [-90.704661, 43.136536], "type": "Point"}, "id": "KxqvKv48AtYlTKkhZB3QYwUXjfk=", "properties": {"@source_uri": "https://tools.usps.com/UspsToolsRestServices/rest/POLocator/findLocations", "@spider": "usps_collection_boxes", "addr:city": "BOSCOBEL", "addr:country": "US", "addr:postcode": "53805", "addr:state": "WI", "addr:street_address": "105 SUPERIOR ST", "amenity": "post_box", "brand": "United States Postal Service", "brand:wikidata": "Q668687", "collection_times": "Mo-Fr 17:00; Sa 11:00", "note": "ON 12/24 AND 12/31, THIS BOX MAY BE COLLECTED AS EARLY AS 12 NOON.", "nsi_id": "unitedstatespostalservice-a77078", "operator": "United States Postal Service", "operator:short": "USPS", "operator:type": "public", "operator:wikidata": "Q668687", "ref": "5380500010"}, "type": "Feature"}
{"geometry": {"coordinates": [-90.706591, 43.134712], "type": "Point"}, "id": "81ZJBEoaq7SEQAgvh7XHcwzVf9E=", "properties": {"@source_uri": "https://tools.usps.com/UspsToolsRestServices/rest/POLocator/findLocations", "@spider": "usps_collection_boxes", "addr:city": "BOSCOBEL", "addr:country": "US", "addr:postcode": "53805", "addr:state": "WI", "addr:street_address": "106 W OAK ST", "amenity": "post_box", "brand": "United States Postal Service", "brand:wikidata": "Q668687", "collection_times": "Mo-Sa 13:00", "note": "ON 12/24 AND 12/31, THIS BOX MAY BE COLLECTED AS EARLY AS 12 NOON.", "nsi_id": "unitedstatespostalservice-a77078", "operator": "United States Postal Service", "operator:short": "USPS", "operator:type": "public", "operator:wikidata": "Q668687", "ref": "5380500011"}, "type": "Feature"}
{"geometry": {"coordinates": [-90.704661, 43.136536], "type": "Point"}, "id": "9PQSJE93VmCtM4m-Kcnp8OeJwqo=", "properties": {"@source_uri": "https://tools.usps.com/UspsToolsRestServices/rest/POLocator/findLocations", "@spider": "usps_collection_boxes", "addr:city": "BOSCOBEL", "addr:country": "US", "addr:postcode": "53805", "addr:state": "WI", "addr:street_address": "105 SUPERIOR ST", "amenity": "post_box", "brand": "United States Postal Service", "brand:wikidata": "Q668687", "collection_times": "Mo-Fr 17:00; Sa 11:00", "note": "ON 12/24 AND 12/31, THIS BOX MAY BE COLLECTED AS EARLY AS 12 NOON.", "nsi_id": "unitedstatespostalservice-a77078", "operator": "United States Postal Service", "operator:short": "USPS", "operator:type": "public", "operator:wikidata": "Q668687", "ref": "5380500015"}, "type": "Feature"}
{"geometry": {"coordinates": [-90.704479888, 43.136536472], "type": "Point"}, "id": "KrtAlVI1uL7NNoxBH0hoMc9oOXs=", "properties": {"@source_uri": "https://tools.usps.com/UspsToolsRestServices/rest/POLocator/findLocations", "@spider": "usps_collection_boxes", "addr:city": "BOSCOBEL", "addr:country": "US", "addr:postcode": "53805", "addr:state": "WI", "addr:street_address": "105 SUPERIOR ST", "amenity": "post_box", "brand": "United States Postal Service", "brand:wikidata": "Q668687", "collection_times": "Mo-Fr 17:00; Sa 11:00", "indoor": "yes", "note": "ON 12/24 AND 12/31, THIS BOX MAY BE COLLECTED AS EARLY AS 12 NOON.", "nsi_id": "unitedstatespostalservice-a77078", "operator": "United States Postal Service", "operator:short": "USPS", "operator:type": "public", "operator:wikidata": "Q668687", "ref": "5380500017"}, "type": "Feature"}
{"geometry": {"coordinates": [-90.989116, 42.713554], "type": "Point"}, "id": "MxsKsxDBzAkvb9l9g5EG753PSoA=", "properties": {"@source_uri": "https://tools.usps.com/UspsToolsRestServices/rest/POLocator/findLocations", "@spider": "usps_collection_boxes", "addr:city": "CASSVILLE", "addr:country": "US", "addr:postcode": "53806", "addr:state": "WI", "addr:street_address": "205 E AMELIA ST", "amenity": "post_box", "brand": "United States Postal Service", "brand:wikidata": "Q668687", "collection_times": "Mo-Fr 14:45; Sa 10:30", "note": "ON 12/24 AND 12/31, THIS BOX MAY BE COLLECTED AS EARLY AS 12 NOON.", "nsi_id": "unitedstatespostalservice-a77078", "operator": "United States Postal Service", "operator:short": "USPS", "operator:type": "public", "operator:wikidata": "Q668687", "ref": "5380600000"}, "type": "Feature"}
{"geometry": {"coordinates": [-90.989116, 42.713554], "type": "Point"}, "id": "aUgOZfu8dSaXtfkeHATJPUQdiCA=", "properties": {"@source_uri": "https://tools.usps.com/UspsToolsRestServices/rest/POLocator/findLocations", "@spider": "usps_collection_boxes", "addr:city": "CASSVILLE", "addr:country": "US", "addr:postcode": "53806", "addr:state": "WI", "addr:street_address": "205 E AMELIA ST", "amenity": "post_box", "brand": "United States Postal Service", "brand:wikidata": "Q668687", "collection_times": "Mo-Fr 14:45; Sa 10:30", "indoor": "yes", "note": "ON 12/24 AND 12/31, THIS BOX MAY BE COLLECTED AS EARLY AS 12 NOON.", "nsi_id": "unitedstatespostalservice-a77078", "operator": "United States Postal Service", "operator:short": "USPS", "operator:type": "public", "operator:wikidata": "Q668687", "ref": "5380600003"}, "type": "Feature"}
{"geometry": {"coordinates": [-90.98911632, 42.713553456], "type": "Point"}, "id": "0gqlx6wXukBz8bO5Ghzp0DibhgI=", "properties": {"@source_uri": "https://tools.usps.com/UspsToolsRestServices/rest/POLocator/findLocations", "@spider": "usps_collection_boxes", "addr:city": "CASSVILLE", "addr:country": "US", "addr:postcode": "53806", "addr:state": "WI", "addr:street_address": "205 E AMELIA ST", "amenity": "post_box", "brand": "United States Postal Service", "brand:wikidata": "Q668687", "collection_times": "Mo-Fr 14:45; Sa 10:30", "indoor": "yes", "note": "ON 12/24 AND 12/31, THIS BOX MAY BE COLLECTED AS EARLY AS 12 NOON.", "nsi_id": "unitedstatespostalservice-a77078", "operator": "United States Postal Service", "operator:short": "USPS", "operator:type": "public", "operator:wikidata": "Q668687", "ref": "5380600004"}, "type": "Feature"}
{"geometry": {"coordinates": [-90.432015, 42.605331], "type": "Point"}, "id": "YNd9W4DzXXghMCTZG9Xu7ID7Pwc=", "properties": {"@source_uri": "https://tools.usps.com/UspsToolsRestServices/rest/POLocator/findLocations", "@spider": "usps_collection_boxes", "addr:city": "CUBA CITY", "addr:country": "US", "addr:postcode": "53807", "addr:state": "WI", "addr:street_address": "101 S MADISON ST", "amenity": "post_box", "brand": "United States Postal Service", "brand:wikidata": "Q668687", "collection_times": "Mo-Fr 16:30; Sa 10:30", "note": "ON 12/24 AND 12/31, THIS BOX MAY BE COLLECTED AS EARLY AS 12 NOON.", "nsi_id": "unitedstatespostalservice-a77078", "operator": "United States Postal Service", "operator:short": "USPS", "operator:type": "public", "operator:wikidata": "Q668687", "ref": "5380700000"}, "type": "Feature"}
{"geometry": {"coordinates": [-90.432015, 42.605331], "type": "Point"}, "id": "qjZUHvifjgt9b6JQOWa4O1V_rxU=", "properties": {"@source_uri": "https://tools.usps.com/UspsToolsRestServices/rest/POLocator/findLocations", "@spider": "usps_collection_boxes", "addr:city": "CUBA CITY", "addr:country": "US", "addr:postcode": "53807", "addr:state": "WI", "addr:street_address": "101 S MADISON ST", "amenity": "post_box", "brand": "United States Postal Service", "brand:wikidata": "Q668687", "collection_times": "Mo-Fr 16:30; Sa 10:30", "indoor": "yes", "note": "ON 12/24 AND 12/31, THIS BOX MAY BE COLLECTED AS EARLY AS 12 NOON.", "nsi_id": "unitedstatespostalservice-a77078", "operator": "United States Postal Service", "operator:short": "USPS", "operator:type": "public", "operator:wikidata": "Q668687", "ref": "5380700003"}, "type": "Feature"}
{"geometry": {"coordinates": [-90.432039352, 42.606347648], "type": "Point"}, "id": "GaO9hKdTFvevYO4HY8PlPI-gjso=", "properties": {"@source_uri": "https://tools.usps.com/UspsToolsRestServices/rest/POLocator/findLocations", "@spider": "usps_collection_boxes", "addr:city": "CUBA CITY", "addr:country": "US", "addr:postcode": "53807", "addr:state": "WI", "addr:street_address": "101 S MADISON ST", "amenity": "post_box", "brand": "United States Postal Service", "brand:wikidata": "Q668687", "collection_times": "Mo-Fr 16:30; Sa 10:30", "indoor": "yes", "note": "ON 12/24 AND 12/31, THIS BOX MAY BE COLLECTED AS EARLY AS 12 NOON.", "nsi_id": "unitedstatespostalservice-a77078", "operator": "United States Postal Service", "operator:short": "USPS", "operator:type": "public", "operator:wikidata": "Q668687", "ref": "5380700005"}, "type": "Feature"}
{"geometry": {"coordinates": [-90.593627, 42.627327], "type": "Point"}, "id": "WZ8bN1mZxhVnGrarwlptau80b-c=", "properties": {"@source_uri": "https://tools.usps.com/UspsToolsRestServices/rest/POLocator/findLocations", "@spider": "usps_collection_boxes", "addr:city": "DICKEYVILLE", "addr:country": "US", "addr:postcode": "53808", "addr:state": "WI", "addr:street_address": "200 W MAIN ST", "amenity": "post_box", "brand": "United States Postal Service", "brand:wikidata": "Q668687", "collection_times": "Mo-Fr 16:15; Sa 10:15", "note": "ON 12/24 AND 12/31, THIS BOX MAY BE COLLECTED AS EARLY AS 12 NOON.", "nsi_id": "unitedstatespostalservice-a77078", "operator": "United States Postal Service", "operator:short": "USPS", "operator:type": "public", "operator:wikidata": "Q668687", "ref": "5380800000"}, "type": "Feature"}
{"geometry": {"coordinates": [-90.593627, 42.627327], "type": "Point"}, "id": "NcxB_yPF7JZW_jRH__T0H75SmUQ=", "properties": {"@source_uri": "https://tools.usps.com/UspsToolsRestServices/rest/POLocator/findLocations", "@spider": "usps_collection_boxes", "addr:city": "DICKEYVILLE", "addr:country": "US", "addr:postcode": "53808", "addr:state": "WI", "addr:street_address": "200 W MAIN ST", "amenity": "post_box", "brand": "United States Postal Service", "brand:wikidata": "Q668687", "collection_times": "Mo-Fr 16:15; Sa 10:15", "indoor": "yes", "note": "ON 12/24 AND 12/31, THIS BOX MAY BE COLLECTED AS EARLY AS 12 NOON.", "nsi_id": "unitedstatespostalservice-a77078", "operator": "United States Postal Service", "operator:short": "USPS", "operator:type": "public", "operator:wikidata": "Q668687", "ref": "5380800001"}, "type": "Feature"}
{"geometry": {"coordinates": [-90.593627, 42.627327], "type": "Point"}, "id": "jtuwq3BOf0pE5nMWMXRDcNnKrKw=", "properties": {"@source_uri": "https://tools.usps.com/UspsToolsRestServices/rest/POLocator/findLocations", "@spider": "usps_collection_boxes", "addr:city": "DICKEYVILLE", "addr:country": "US", "addr:postcode": "53808", "addr:state": "WI", "addr:street_address": "200 W MAIN ST", "amenity": "post_box", "brand": "United States Postal Service", "brand:wikidata": "Q668687", "collection_times": "Mo-Fr 16:15; Sa 10:15", "indoor": "yes", "note": "ON 12/24 AND 12/31, THIS BOX MAY BE COLLECTED AS EARLY AS 12 NOON.", "nsi_id": "unitedstatespostalservice-a77078", "operator": "United States Postal Service", "operator:short": "USPS", "operator:type": "public", "operator:wikidata": "Q668687", "ref": "5380800002"}, "type": "Feature"}
{"geometry": {"coordinates": [-90.593421744, 42.62727055], "type": "Point"}, "id": "NGEi9UA2KuOUzzxxLeG1ItV2WUs=", "properties": {"@source_uri": "https://tools.usps.com/UspsToolsRestServices/rest/POLocator/findLocations", "@spider": "usps_collection_boxes", "addr:city": "DICKEYVILLE", "addr:country": "US", "addr:postcode": "53808", "addr:state": "WI", "addr:street_address": "200 W MAIN ST", "amenity": "post_box", "brand": "United States Postal Service", "brand:wikidata": "Q668687", "collection_times": "Mo-Fr 16:15; Sa 10:15", "indoor": "yes", "note": "ON 12/24 AND 12/31, THIS BOX MAY BE COLLECTED AS EARLY AS 12 NOON.", "nsi_id": "unitedstatespostalservice-a77078", "operator": "United States Postal Service", "operator:short": "USPS", "operator:type": "public", "operator:wikidata": "Q668687", "ref": "5380800003"}, "type": "Feature"}
{"geometry": {"coordinates": [-90.6543837, 42.981563], "type": "Point"}, "id": "3c2qZiST5LtyrOhIEjlZAuqeUt0=", "properties": {"@source_uri": "https://tools.usps.com/UspsToolsRestServices/rest/POLocator/findLocations", "@spider": "usps_collection_boxes", "addr:city": "FENNIMORE", "addr:country": "US", "addr:postcode": "53809", "addr:state": "WI", "addr:street_address": "1090 12TH ST", "amenity": "post_box", "brand": "United States Postal Service", "brand:wikidata": "Q668687", "collection_times": "Mo-Fr 17:00; Sa 10:30", "note": "ON 12/24 AND 12/31, THIS BOX MAY BE COLLECTED AS EARLY AS 12 NOON.", "nsi_id": "unitedstatespostalservice-a77078", "operator": "United States Postal Service", "operator:short": "USPS", "operator:type": "public", "operator:wikidata": "Q668687", "ref": "5380900000"}, "type": "Feature"}
{"geometry": {"coordinates": [-90.655538761, 42.989093888], "type": "Point"}, "id": "5f6zsXY9vFxRkYdNIdqh2Cd3CIo=", "properties": {"@source_uri": "https://tools.usps.com/UspsToolsRestServices/rest/POLocator/findLocations", "@spider": "usps_collection_boxes", "addr:city": "FENNIMORE", "addr:country": "US", "addr:postcode": "53809", "addr:state": "WI", "addr:street_address": "325 LINCOLN AVE", "amenity": "post_box", "brand": "United States Postal Service", "brand:wikidata": "Q668687", "collection_times": "Mo-Sa 09:00", "nsi_id": "unitedstatespostalservice-a77078", "operator": "United States Postal Service", "operator:short": "USPS", "operator:type": "public", "operator:wikidata": "Q668687", "ref": "5380900004"}, "type": "Feature"}
{"geometry": {"coordinates": [-90.6542616, 42.981186], "type": "Point"}, "id": "A2l3xW1AUxEIQVRPHrrp0lBEOFQ=", "properties": {"@source_uri": "https://tools.usps.com/UspsToolsRestServices/rest/POLocator/findLocations", "@spider": "usps_collection_boxes", "addr:city": "FENNIMORE", "addr:country": "US", "addr:postcode": "53809", "addr:state": "WI", "addr:street_address": "1090 12TH ST", "amenity": "post_box", "brand": "United States Postal Service", "brand:wikidata": "Q668687", "collection_times": "Mo-Fr 17:00; Sa 10:30", "indoor": "yes", "note": "ON 12/24 AND 12/31, THIS BOX MAY BE COLLECTED AS EARLY AS 12 NOON.", "nsi_id": "unitedstatespostalservice-a77078", "operator": "United States Postal Service", "operator:short": "USPS", "operator:type": "public", "operator:wikidata": "Q668687", "ref": "5380900006"}, "type": "Feature"}
{"geometry": {"coordinates": [-90.65421, 42.981159519], "type": "Point"}, "id": "kOv2nMb8VN0NdnCYFS6QjDILbpQ=", "properties": {"@source_uri": "https://tools.usps.com/UspsToolsRestServices/rest/POLocator/findLocations", "@spider": "usps_collection_boxes", "addr:city": "FENNIMORE", "addr:country": "US", "addr:postcode": "53809", "addr:state": "WI", "addr:street_address": "1090 12TH ST", "amenity": "post_box", "brand": "United States Postal Service", "brand:wikidata": "Q668687", "collection_times": "Mo-Fr 17:00; Sa 10:30", "indoor": "yes", "note": "ON 12/24 AND 12/31, THIS BOX MAY BE COLLECTED AS EARLY AS 12 NOON.", "nsi_id": "unitedstatespostalservice-a77078", "operator": "United States Postal Service", "operator:short": "USPS", "operator:type": "public", "operator:wikidata": "Q668687", "ref": "5380900007"}, "type": "Feature"}
{"geometry": {"coordinates": [-91.072271, 42.82677], "type": "Point"}, "id": "eUVy22kjTEBD6ouKKEQvnPEEPqE=", "properties": {"@source_uri": "https://tools.usps.com/UspsToolsRestServices/rest/POLocator/findLocations", "@spider": "usps_collection_boxes", "addr:city": "GLEN HAVEN", "addr:country": "US", "addr:postcode": "53810", "addr:state": "WI", "addr:street_address": "13211 MAIN ST", "amenity": "post_box", "brand": "United States Postal Service", "brand:wikidata": "Q668687", "collection_times": "Mo-Fr 15:45; Sa 09:15", "note": "ON 12/24 AND 12/31, THIS BOX MAY BE COLLECTED AS EARLY AS 12 NOON.", "nsi_id": "unitedstatespostalservice-a77078", "operator": "United States Postal Service", "operator:short": "USPS", "operator:type": "public", "operator:wikidata": "Q668687", "ref": "5381000000"}, "type": "Feature"}
{"geometry": {"coordinates": [-91.072271, 42.82677], "type": "Point"}, "id": "ejxB5yQL_AWL5qaP-mPBwc-D-Rc=", "properties": {"@source_uri": "https://tools.usps.com/UspsToolsRestServices/rest/POLocator/findLocations", "@spider": "usps_collection_boxes", "addr:city": "GLEN HAVEN", "addr:country": "US", "addr:postcode": "53810", "addr:state": "WI", "addr:street_address": "13211 MAIN ST", "amenity": "post_box", "brand": "United States Postal Service", "brand:wikidata": "Q668687", "collection_times": "Mo-Fr 15:45; Sa 09:15", "indoor": "yes", "note": "ON 12/24 AND 12/31, THIS BOX MAY BE COLLECTED AS EARLY AS 12 NOON.", "nsi_id": "unitedstatespostalservice-a77078", "operator": "United States Postal Service", "operator:short": "USPS", "operator:type": "public", "operator:wikidata": "Q668687", "ref": "5381000001"}, "type": "Feature"}
{"geometry": {"coordinates": [-91.072142994, 42.826963371], "type": "Point"}, "id": "zm56F6AAma9KJvT0pVZJ3ngXoI0=", "properties": {"@source_uri": "https://tools.usps.com/UspsToolsRestServices/rest/POLocator/findLocations", "@spider": "usps_collection_boxes", "addr:city": "GLEN HAVEN", "addr:country": "US", "addr:postcode": "53810", "addr:state": "WI", "addr:street_address": "13211 MAIN ST", "amenity": "post_box", "brand": "United States Postal Service", "brand:wikidata": "Q668687", "collection_times": "Mo-Fr 15:45; Sa 09:15", "indoor": "yes", "note": "ON 12/24 AND 12/31, THIS BOX MAY BE COLLECTED AS EARLY AS 12 NOON.", "nsi_id": "unitedstatespostalservice-a77078", "operator": "United States Postal Service", "operator:short": "USPS", "operator:type": "public", "operator:wikidata": "Q668687", "ref": "5381000002"}, "type": "Feature"}
{"geometry": {"coordinates": [-90.436661, 42.537725], "type": "Point"}, "id": "yWe9SdxBE--6kppob5HmE9U7Yn0=", "properties": {"@source_uri": "https://tools.usps.com/UspsToolsRestServices/rest/POLocator/findLocations", "@spider": "usps_collection_boxes", "addr:city": "HAZEL GREEN", "addr:country": "US", "addr:postcode": "53811", "addr:state": "WI", "addr:street_address": "2130 N PERCIVAL ST", "amenity": "post_box", "brand": "United States Postal Service", "brand:wikidata": "Q668687", "collection_times": "Mo-Fr 16:00; Sa 10:45", "indoor": "yes", "note": "ON 12/24 AND 12/31, THIS BOX MAY BE COLLECTED AS EARLY AS 12 NOON.", "nsi_id": "unitedstatespostalservice-a77078", "operator": "United States Postal Service", "operator:short": "USPS", "operator:type": "public", "operator:wikidata": "Q668687", "ref": "5381100000"}, "type": "Feature"}
{"geometry": {"coordinates": [-90.436661, 42.537725], "type": "Point"}, "id": "fwNVwk3Fbj845epXAXMnsEcpVNo=", "properties": {"@source_uri": "https://tools.usps.com/UspsToolsRestServices/rest/POLocator/findLocations", "@spider": "usps_collection_boxes", "addr:city": "HAZEL GREEN", "addr:country": "US", "addr:postcode": "53811", "addr:state": "WI", "addr:street_address": "2130 N PERCIVAL ST", "amenity": "post_box", "brand": "United States Postal Service", "brand:wikidata": "Q668687", "collection_times": "Mo-Fr 16:00; Sa 10:45", "note": "ON 12/24 AND 12/31, THIS BOX MAY BE COLLECTED AS EARLY AS 12 NOON.", "nsi_id": "unitedstatespostalservice-a77078", "operator": "United States Postal Service", "operator:short": "USPS", "operator:type": "public", "operator:wikidata": "Q668687", "ref": "5381100001"}, "type": "Feature"}
{"geometry": {"coordinates": [-90.4379489, 42.540593], "type": "Point"}, "id": "Zd319lVl0K_RU2NLRcIRbsPdcEA=", "properties": {"@source_uri": "https://tools.usps.com/UspsToolsRestServices/rest/POLocator/findLocations", "@spider": "usps_collection_boxes", "addr:city": "HAZEL GREEN", "addr:country": "US", "addr:postcode": "53811", "addr:state": "WI", "addr:street_address": "3515 N PERCIVAL ST", "amenity": "post_box", "brand": "United States Postal Service", "brand:wikidata": "Q668687", "collection_times": "Mo-Sa 11:30", "nsi_id": "unitedstatespostalservice-a77078", "operator": "United States Postal Service", "operator:short": "USPS", "operator:type": "public", "operator:wikidata": "Q668687", "ref": "5381100002"}, "type": "Feature"}
{"geometry": {"coordinates": [-90.436661, 42.537725], "type": "Point"}, "id": "sOpj7mzIA1NeAIU3kDYSMYp8zh4=", "properties": {"@source_uri": "https://tools.usps.com/UspsToolsRestServices/rest/POLocator/findLocations", "@spider": "usps_collection_boxes", "addr:city": "HAZEL GREEN", "addr:country": "US", "addr:postcode": "53811", "addr:state": "WI", "addr:street_address": "2130 N PERCIVAL ST", "amenity": "post_box", "brand": "United States Postal Service", "brand:wikidata": "Q668687", "collection_times": "Mo-Fr 16:00; Sa 10:45", "indoor": "yes", "note": "ON 12/24 AND 12/31, THIS BOX MAY BE COLLECTED AS EARLY AS 12 NOON.", "nsi_id": "unitedstatespostalservice-a77078", "operator": "United States Postal Service", "operator:short": "USPS", "operator:type": "public", "operator:wikidata": "Q668687", "ref": "5381100003"}, "type": "Feature"}
{"geometry": {"coordinates": [-90.436634194, 42.537701468], "type": "Point"}, "id": "MYKuuxUI0w2Fs6Sz8J5g152Y0M8=", "properties": {"@source_uri": "https://tools.usps.com/UspsToolsRestServices/rest/POLocator/findLocations", "@spider": "usps_collection_boxes", "addr:city": "HAZEL GREEN", "addr:country": "US", "addr:postcode": "53811", "addr:state": "WI", "addr:street_address": "2130 N PERCIVAL ST", "amenity": "post_box", "brand": "United States Postal Service", "brand:wikidata": "Q668687", "collection_times": "Mo-Fr 16:00; Sa 10:45", "indoor": "yes", "note": "ON 12/24 AND 12/31, THIS BOX MAY BE COLLECTED AS EARLY AS 12 NOON.", "nsi_id": "unitedstatespostalservice-a77078", "operator": "United States Postal Service", "operator:short": "USPS", "operator:type": "public", "operator:wikidata": "Q668687", "ref": "5381100004"}, "type": "Feature"}
{"geometry": {"coordinates": [-90.601491, 42.58068], "type": "Point"}, "id": "2AU02K-Hq9ffrJb0v9-MPq7fEI4=", "properties": {"@source_uri": "https://tools.usps.com/UspsToolsRestServices/rest/POLocator/findLocations", "@spider": "usps_collection_boxes", "addr:city": "KIELER", "addr:country": "US", "addr:postcode": "53812", "addr:state": "WI", "addr:street_address": "3664 COUNTRY ROAD HHH", "amenity": "post_box", "brand": "United States Postal Service", "brand:wikidata": "Q668687", "collection_times": "Mo-Fr 16:00; Sa 09:15", "note": "ON 12/24 AND 12/31, THIS BOX MAY BE COLLECTED AS EARLY AS 12 NOON.", "nsi_id": "unitedstatespostalservice-a77078", "operator": "United States Postal Service", "operator:short": "USPS", "operator:type": "public", "operator:wikidata": "Q668687", "ref": "5381200000"}, "type": "Feature"}
{"geometry": {"coordinates": [-90.601491, 42.58068], "type": "Point"}, "id": "wBdqD-NEIrVQammL5johe_0gwiU=", "properties": {"@source_uri": "https://tools.usps.com/UspsToolsRestServices/rest/POLocator/findLocations", "@spider": "usps_collection_boxes", "addr:city": "KIELER", "addr:country": "US", "addr:postcode": "53812", "addr:state": "WI", "addr:street_address": "3664 COUNTY ROAD HHH", "amenity": "post_box", "brand": "United States Postal Service", "brand:wikidata": "Q668687", "collection_times": "Mo-Fr 16:00; Sa 09:15", "indoor": "yes", "note": "ON 12/24 AND 12/31, THIS BOX MAY BE COLLECTED AS EARLY AS 12 NOON.", "nsi_id": "unitedstatespostalservice-a77078", "operator": "United States Postal Service", "operator:short": "USPS", "operator:type": "public", "operator:wikidata": "Q668687", "ref": "5381200001"}, "type": "Feature"}
{"geometry": {"coordinates": [-90.601553, 42.580657], "type": "Point"}, "id": "z-kA9fc3JEkM0D5rDqokSO-mIe4=", "properties": {"@source_uri": "https://tools.usps.com/UspsToolsRestServices/rest/POLocator/findLocations", "@spider": "usps_collection_boxes", "addr:city": "KIELER", "addr:country": "US", "addr:postcode": "53812", "addr:state": "WI", "addr:street_address": "3664 COUNTY ROAD HHH", "amenity": "post_box", "brand": "United States Postal Service", "brand:wikidata": "Q668687", "collection_times": "Mo-Fr 16:00; Sa 09:15", "indoor": "yes", "note": "ON 12/24 AND 12/31, THIS BOX MAY BE COLLECTED AS EARLY AS 12 NOON.", "nsi_id": "unitedstatespostalservice-a77078", "operator": "United States Postal Service", "operator:short": "USPS", "operator:type": "public", "operator:wikidata": "Q668687", "ref": "5381200002"}, "type": "Feature"}
{"geometry": {"coordinates": [-90.601370801, 42.580679468], "type": "Point"}, "id": "sou3yI0Dzr8hqJsOvEKZRDaDEfo=", "properties": {"@source_uri": "https://tools.usps.com/UspsToolsRestServices/rest/POLocator/findLocations", "@spider": "usps_collection_boxes", "addr:city": "KIELER", "addr:country": "US", "addr:postcode": "53812", "addr:state": "WI", "addr:street_address": "3664 COUNTY ROAD HHH", "amenity": "post_box", "brand": "United States Postal Service", "brand:wikidata": "Q668687", "collection_times": "Mo-Fr 16:00; Sa 09:15", "indoor": "yes", "note": "ON 12/24 AND 12/31, THIS BOX MAY BE COLLECTED AS EARLY AS 12 NOON.", "nsi_id": "unitedstatespostalservice-a77078", "operator": "United States Postal Service", "operator:short": "USPS", "operator:type": "public", "operator:wikidata": "Q668687", "ref": "5381200003"}, "type": "Feature"}
{"geometry": {"coordinates": [-90.7125378, 42.848349], "type": "Point"}, "id": "uF4CGU3pAoc95-2stMDbDG3ZMqE=", "properties": {"@source_uri": "https://tools.usps.com/UspsToolsRestServices/rest/POLocator/findLocations", "@spider": "usps_collection_boxes", "addr:city": "LANCASTER", "addr:country": "US", "addr:postcode": "53813", "addr:state": "WI", "addr:street_address": "100 N WASHINGTON ST", "amenity": "post_box", "brand": "United States Postal Service", "brand:wikidata": "Q668687", "collection_times": "Mo-Fr 14:00; Sa 12:00", "note": "ON 12/24 AND 12/31, THIS BOX MAY BE COLLECTED AS EARLY AS 12 NOON.", "nsi_id": "unitedstatespostalservice-a77078", "operator": "United States Postal Service", "operator:short": "USPS", "operator:type": "public", "operator:wikidata": "Q668687", "ref": "5381300002"}, "type": "Feature"}
{"geometry": {"coordinates": [-90.7114899, 42.847924], "type": "Point"}, "id": "XR03DWwIQnXdpH1nFm3D_wtqL_8=", "properties": {"@source_uri": "https://tools.usps.com/UspsToolsRestServices/rest/POLocator/findLocations", "@spider": "usps_collection_boxes", "addr:city": "LANCASTER", "addr:country": "US", "addr:postcode": "53813", "addr:state": "WI", "addr:street_address": "236 W MAPLE ST", "amenity": "post_box", "brand": "United States Postal Service", "brand:wikidata": "Q668687", "collection_times": "Mo-Fr 17:00; Sa 14:00", "note": "ON 12/24 AND 12/31, THIS BOX MAY BE COLLECTED AS EARLY AS 12 NOON.", "nsi_id": "unitedstatespostalservice-a77078", "operator": "United States Postal Service", "operator:short": "USPS", "operator:type": "public", "operator:wikidata": "Q668687", "ref": "5381300004"}, "type": "Feature"}
{"geometry": {"coordinates": [-90.711691, 42.847921], "type": "Point"}, "id": "X4qHLor1tBHxlPbeEiIZks9z1zA=", "properties": {"@source_uri": "https://tools.usps.com/UspsToolsRestServices/rest/POLocator/findLocations", "@spider": "usps_collection_boxes", "addr:city": "LANCASTER", "addr:country": "US", "addr:postcode": "53813", "addr:state": "WI", "addr:street_address": "236 W MAPLE ST", "amenity": "post_box", "brand": "United States Postal Service", "brand:wikidata": "Q668687", "collection_times": "Mo-Fr 17:00; Sa 11:00", "indoor": "yes", "note": "ON 12/24 AND 12/31, THIS BOX MAY BE COLLECTED AS EARLY AS 12 NOON.", "nsi_id": "unitedstatespostalservice-a77078", "operator": "United States Postal Service", "operator:short": "USPS", "operator:type": "public", "operator:wikidata": "Q668687", "ref": "5381300007"}, "type": "Feature"}
{"geometry": {"coordinates": [-90.711692162, 42.847914554], "type": "Point"}, "id": "Xj6idDxQTyLUWoWndx8pxYl7bT8=", "properties": {"@source_uri": "https://tools.usps.com/UspsToolsRestServices/rest/POLocator/findLocations", "@spider": "usps_collection_boxes", "addr:city": "LANCASTER", "addr:country": "US", "addr:postcode": "53813", "addr:state": "WI", "addr:street_address": "236 W MAPLE ST", "amenity": "post_box", "brand": "United States Postal Service", "brand:wikidata": "Q668687", "collection_times": "Mo-Fr 17:00; Sa 11:00", "indoor": "yes", "note": "ON 12/24 AND 12/31, THIS BOX MAY BE COLLECTED AS EARLY AS 12 NOON.", "nsi_id": "unitedstatespostalservice-a77078", "operator": "United States Postal Service", "operator:short": "USPS", "operator:type": "public", "operator:wikidata": "Q668687", "ref": "5381300011"}, "type": "Feature"}
{"geometry": {"coordinates": [-90.858789, 42.966988], "type": "Point"}, "id": "LKRopv3XfHy51upzbAA-bV6BW8Y=", "properties": {"@source_uri": "https://tools.usps.com/UspsToolsRestServices/rest/POLocator/findLocations", "@spider": "usps_collection_boxes", "addr:city": "MOUNT HOPE", "addr:country": "US", "addr:postcode": "53816", "addr:state": "WI", "addr:street_address": "110 E MAIN ST", "amenity": "post_box", "brand": "United States Postal Service", "brand:wikidata": "Q668687", "collection_times": "Mo-Fr 11:30; Sa 10:00", "nsi_id": "unitedstatespostalservice-a77078", "operator": "United States Postal Service", "operator:short": "USPS", "operator:type": "public", "operator:wikidata": "Q668687", "ref": "5381600000"}, "type": "Feature"}
{"geometry": {"coordinates": [-90.858789, 42.966988], "type": "Point"}, "id": "yZJwbuGHH_ULvEkXu7mCXAgZuL0=", "properties": {"@source_uri": "https://tools.usps.com/UspsToolsRestServices/rest/POLocator/findLocations", "@spider": "usps_collection_boxes", "addr:city": "MOUNT HOPE", "addr:country": "US", "addr:postcode": "53816", "addr:state": "WI", "addr:street_address": "110 E MAIN ST", "amenity": "post_box", "brand": "United States Postal Service", "brand:wikidata": "Q668687", "collection_times": "Mo-Fr 11:30; Sa 10:00", "indoor": "yes", "nsi_id": "unitedstatespostalservice-a77078", "operator": "United States Postal Service", "operator:short": "USPS", "operator:type": "public", "operator:wikidata": "Q668687", "ref": "5381600001"}, "type": "Feature"}
{"geometry": {"coordinates": [-90.858827591, 42.967032091], "type": "Point"}, "id": "co43SM3LfolzT3DhNdvN6mVfUhE=", "properties": {"@source_uri": "https://tools.usps.com/UspsToolsRestServices/rest/POLocator/findLocations", "@spider": "usps_collection_boxes", "addr:city": "MOUNT HOPE", "addr:country": "US", "addr:postcode": "53816", "addr:state": "WI", "addr:street_address": "110 E MAIN ST", "amenity": "post_box", "brand": "United States Postal Service", "brand:wikidata": "Q668687", "collection_times": "Mo-Fr 11:30; Sa 10:00", "indoor": "yes", "nsi_id": "unitedstatespostalservice-a77078", "operator": "United States Postal Service", "operator:short": "USPS", "operator:type": "public", "operator:wikidata": "Q668687", "ref": "5381600003"}, "type": "Feature"}
{"geometry": {"coordinates": [-90.972344, 42.940305], "type": "Point"}, "id": "Lwx36QhcVCzmzR9eLwgczr7PTDw=", "properties": {"@source_uri": "https://tools.usps.com/UspsToolsRestServices/rest/POLocator/findLocations", "@spider": "usps_collection_boxes", "addr:city": "PATCH GROVE", "addr:country": "US", "addr:postcode": "53817", "addr:state": "WI", "addr:street_address": "306 MAIN ST", "amenity": "post_box", "brand": "United States Postal Service", "brand:wikidata": "Q668687", "collection_times": "Mo-Fr 15:45; Sa 09:00", "note": "ON 12/24 AND 12/31, THIS BOX MAY BE COLLECTED AS EARLY AS 12 NOON.", "nsi_id": "unitedstatespostalservice-a77078", "operator": "United States Postal Service", "operator:short": "USPS", "operator:type": "public", "operator:wikidata": "Q668687", "ref": "5381700000"}, "type": "Feature"}
{"geometry": {"coordinates": [-90.972344, 42.940305], "type": "Point"}, "id": "NetFXvaC76RCwCXkWCu8pWk90Jo=", "properties": {"@source_uri": "https://tools.usps.com/UspsToolsRestServices/rest/POLocator/findLocations", "@spider": "usps_collection_boxes", "addr:city": "PATCH GROVE", "addr:country": "US", "addr:postcode": "53817", "addr:state": "WI", "addr:street_address": "306 MAIN ST", "amenity": "post_box", "brand": "United States Postal Service", "brand:wikidata": "Q668687", "collection_times": "Mo-Fr 15:45; Sa 09:00", "indoor": "yes", "note": "ON 12/24 AND 12/31, THIS BOX MAY BE COLLECTED AS EARLY AS 12 NOON.", "nsi_id": "unitedstatespostalservice-a77078", "operator": "United States Postal Service", "operator:short": "USPS", "operator:type": "public", "operator:wikidata": "Q668687", "ref": "5381700002"}, "type": "Feature"}
{"geometry": {"coordinates": [-90.972294472, 42.940351958], "type": "Point"}, "id": "0nPFRTxxWpAZtLGT4mdoMSuNmYQ=", "properties": {"@source_uri": "https://tools.usps.com/UspsToolsRestServices/rest/POLocator/findLocations", "@spider": "usps_collection_boxes", "addr:city": "PATCH GROVE", "addr:country": "US", "addr:postcode": "53817", "addr:state": "WI", "addr:street_address": "306 MAIN ST", "amenity": "post_box", "brand": "United States Postal Service", "brand:wikidata": "Q668687", "collection_times": "Mo-Fr 15:45; Sa 09:00", "indoor": "yes", "note": "ON 12/24 AND 12/31, THIS BOX MAY BE COLLECTED AS EARLY AS 12 NOON.", "nsi_id": "unitedstatespostalservice-a77078", "operator": "United States Postal Service", "operator:short": "USPS", "operator:type": "public", "operator:wikidata": "Q668687", "ref": "5381700003"}, "type": "Feature"}
{"geometry": {"coordinates": [-90.475354, 42.732287], "type": "Point"}, "id": "kgTswVSHQxlJ03tC0Jn1kO8M1cw=", "properties": {"@source_uri": "https://tools.usps.com/UspsToolsRestServices/rest/POLocator/findLocations", "@spider": "usps_collection_boxes", "addr:city": "PLATTEVILLE", "addr:country": "US", "addr:postcode": "53818", "addr:state": "WI", "addr:street_address": "255 E PINE ST", "amenity": "post_box", "brand": "United States Postal Service", "brand:wikidata": "Q668687", "collection_times": "Mo-Sa 14:00", "note": "ON 12/24 AND 12/31, THIS BOX MAY BE COLLECTED AS EARLY AS 12 NOON.", "nsi_id": "unitedstatespostalservice-a77078", "operator": "United States Postal Service", "operator:short": "USPS", "operator:type": "public", "operator:wikidata": "Q668687", "ref": "5381800000"}, "type": "Feature"}
{"geometry": {"coordinates": [-90.4792264, 42.736927], "type": "Point"}, "id": "d9sY2NRe1uD6nMA_E6FrZ4417YE=", "properties": {"@source_uri": "https://tools.usps.com/UspsToolsRestServices/rest/POLocator/findLocations", "@spider": "usps_collection_boxes", "addr:city": "PLATTEVILLE", "addr:country": "US", "addr:postcode": "53818", "addr:state": "WI", "addr:street_address": "295 N CHESTNUT ST", "amenity": "post_box", "brand": "United States Postal Service", "brand:wikidata": "Q668687", "collection_times": "Mo-Sa 14:30", "note": "ON 12/24 AND 12/31, THIS BOX MAY BE COLLECTED AS EARLY AS 12 NOON.", "nsi_id": "unitedstatespostalservice-a77078", "operator": "United States Postal Service", "operator:short": "USPS", "operator:type": "public", "operator:wikidata": "Q668687", "ref": "5381800008"}, "type": "Feature"}
{"geometry": {"coordinates": [-90.4844478, 42.737657], "type": "Point"}, "id": "aM5E8l3Q6y_qqdgkr4tVoPe7yY8=", "properties": {"@source_uri": "https://tools.usps.com/UspsToolsRestServices/rest/POLocator/findLocations", "@spider": "usps_collection_boxes", "addr:city": "PLATTEVILLE", "addr:country": "US", "addr:postcode": "53818", "addr:state": "WI", "addr:street_address": "330 N HICKORY ST", "amenity": "post_box", "brand": "United States Postal Service", "brand:wikidata": "Q668687", "collection_times": "Mo-Sa 12:00", "nsi_id": "unitedstatespostalservice-a77078", "operator": "United States Postal Service", "operator:short": "USPS", "operator:type": "public", "operator:wikidata": "Q668687", "ref": "5381800010"}, "type": "Feature"}
{"geometry": {"coordinates": [-90.478658, 42.734805], "type": "Point"}, "id": "Ha8JfP46jzrGONdVgUdg3efBQzE=", "properties": {"@source_uri": "https://tools.usps.com/UspsToolsRestServices/rest/POLocator/findLocations", "@spider": "usps_collection_boxes", "addr:city": "PLATTEVILLE", "addr:country": "US", "addr:postcode": "53818", "addr:state": "WI", "addr:street_address": "75 N BONSON ST", "amenity": "post_box", "brand": "United States Postal Service", "brand:wikidata": "Q668687", "collection_times": "Mo-Sa 12:00", "nsi_id": "unitedstatespostalservice-a77078", "operator": "United States Postal Service", "operator:short": "USPS", "operator:type": "public", "operator:wikidata": "Q668687", "ref": "5381800012"}, "type": "Feature"}
{"geometry": {"coordinates": [-90.477956, 42.734037], "type": "Point"}, "id": "PEXe8CYOYMBbDjze9cip0EKofjg=", "properties": {"@source_uri": "https://tools.usps.com/UspsToolsRestServices/rest/POLocator/findLocations", "@spider": "usps_collection_boxes", "addr:city": "PLATTEVILLE", "addr:country": "US", "addr:postcode": "53818", "addr:state": "WI", "addr:street_address": "40 E MAIN ST", "amenity": "post_box", "brand": "United States Postal Service", "brand:wikidata": "Q668687", "collection_times": "Mo-Sa 14:00", "note": "ON 12/24 AND 12/31, THIS BOX MAY BE COLLECTED AS EARLY AS 12 NOON.", "nsi_id": "unitedstatespostalservice-a77078", "operator": "United States Postal Service", "operator:short": "USPS", "operator:type": "public", "operator:wikidata": "Q668687", "ref": "5381800014"}, "type": "Feature"}
{"geometry": {"coordinates": [-90.476456, 42.733849], "type": "Point"}, "id": "L3Z-vklBakWBuEvoiYIyaAnKzWo=", "properties": {"@source_uri": "https://tools.usps.com/UspsToolsRestServices/rest/POLocator/findLocations", "@spider": "usps_collection_boxes", "addr:city": "PLATTEVILLE", "addr:country": "US", "addr:postcode": "53818", "addr:state": "WI", "addr:street_address": "10 N OAK ST", "amenity": "post_box", "brand": "United States Postal Service", "brand:wikidata": "Q668687", "collection_times": "Mo-Sa 11:00", "nsi_id": "unitedstatespostalservice-a77078", "operator": "United States Postal Service", "operator:short": "USPS", "operator:type": "public", "operator:wikidata": "Q668687", "ref": "5381800015"}, "type": "Feature"}
{"geometry": {"coordinates": [-90.479268, 42.733346], "type": "Point"}, "id": "PfWom0cnYKjzYbXiT8aYN4g7yj8=", "properties": {"@source_uri": "https://tools.usps.com/UspsToolsRestServices/rest/POLocator/findLocations", "@spider": "usps_collection_boxes", "addr:city": "PLATTEVILLE", "addr:country": "US", "addr:postcode": "53818", "addr:state": "WI", "addr:street_address": "90 S BONSON ST", "amenity": "post_box", "brand": "United States Postal Service", "brand:wikidata": "Q668687", "collection_times": "Mo-Sa 15:00", "note": "ON 12/24 AND 12/31, THIS BOX MAY BE COLLECTED AS EARLY AS 12 NOON.", "nsi_id": "unitedstatespostalservice-a77078", "operator": "United States Postal Service", "operator:short": "USPS", "operator:type": "public", "operator:wikidata": "Q668687", "ref": "5381800016"}, "type": "Feature"}
{"geometry": {"coordinates": [-90.479268, 42.733346], "type": "Point"}, "id": "8usYijb0JuE4a7wVIum7w1k-6MU=", "properties": {"@source_uri": "https://tools.usps.com/UspsToolsRestServices/rest/POLocator/findLocations", "@spider": "usps_collection_boxes", "addr:city": "PLATTEVILLE", "addr:country": "US", "addr:postcode": "53818", "addr:state": "WI", "addr:street_address": "90 S BONSON ST", "amenity": "post_box", "brand": "United States Postal Service", "brand:wikidata": "Q668687", "collection_times": "Mo-Sa 15:00", "note": "ON 12/24 AND 12/31, THIS BOX MAY BE COLLECTED AS EARLY AS 12 NOON.", "nsi_id": "unitedstatespostalservice-a77078", "operator": "United States Postal Service", "operator:short": "USPS", "operator:type": "public", "operator:wikidata": "Q668687", "ref": "5381800017"}, "type": "Feature"}
{"geometry": {"coordinates": [-90.480705, 42.73464], "type": "Point"}, "id": "nJA-iGj-33-n8fzhIUI5IM9NOGE=", "properties": {"@source_uri": "https://tools.usps.com/UspsToolsRestServices/rest/POLocator/findLocations", "@spider": "usps_collection_boxes", "addr:city": "PLATTEVILLE", "addr:country": "US", "addr:postcode": "53818", "addr:state": "WI", "addr:street_address": "300 W MAIN ST", "amenity": "post_box", "brand": "United States Postal Service", "brand:wikidata": "Q668687", "collection_times": "Mo-Sa 11:00", "nsi_id": "unitedstatespostalservice-a77078", "operator": "United States Postal Service", "operator:short": "USPS", "operator:type": "public", "operator:wikidata": "Q668687", "ref": "5381800020"}, "type": "Feature"}
{"geometry": {"coordinates": [-90.479589, 42.733516], "type": "Point"}, "id": "w17uzq4MUmJSZmv-3PkXGOxQ0ZI=", "properties": {"@source_uri": "https://tools.usps.com/UspsToolsRestServices/rest/POLocator/findLocations", "@spider": "usps_collection_boxes", "addr:city": "PLATTEVILLE", "addr:country": "US", "addr:postcode": "53818", "addr:state": "WI", "addr:street_address": "85 S COURT ST", "amenity": "post_box", "brand": "United States Postal Service", "brand:wikidata": "Q668687", "collection_times": "Mo-Fr 17:00; Sa 16:45", "indoor": "yes", "note": "ON 12/24 AND 12/31, THIS BOX MAY BE COLLECTED AS EARLY AS 12 NOON.", "nsi_id": "unitedstatespostalservice-a77078", "operator": "United States Postal Service", "operator:short": "USPS", "operator:type": "public", "operator:wikidata": "Q668687", "ref": "5381800025"}, "type": "Feature"}
{"geometry": {"coordinates": [-90.479589, 42.733516], "type": "Point"}, "id": "rjgYg96puBbZBhL8-35tPww6iqM=", "properties": {"@source_uri": "https://tools.usps.com/UspsToolsRestServices/rest/POLocator/findLocations", "@spider": "usps_collection_boxes", "addr:city": "PLATTEVILLE", "addr:country": "US", "addr:postcode": "53818", "addr:state": "WI", "addr:street_address": "85 S COURT ST", "amenity": "post_box", "brand": "United States Postal Service", "brand:wikidata": "Q668687", "collection_times": "Mo-Fr 17:00; Sa 16:45", "indoor": "yes", "note": "ON 12/24 AND 12/31, THIS BOX MAY BE COLLECTED AS EARLY AS 12 NOON.", "nsi_id": "unitedstatespostalservice-a77078", "operator": "United States Postal Service", "operator:short": "USPS", "operator:type": "public", "operator:wikidata": "Q668687", "ref": "5381800026"}, "type": "Feature"}
{"geometry": {"coordinates": [-90.4378696, 42.735605], "type": "Point"}, "id": "eGnt6qehAQYXvHtIsfUCSvdPbH8=", "properties": {"@source_uri": "https://tools.usps.com/UspsToolsRestServices/rest/POLocator/findLocations", "@spider": "usps_collection_boxes", "addr:city": "PLATTEVILLE", "addr:country": "US", "addr:postcode": "53818", "addr:state": "WI", "addr:street_address": "1800 PROGRESSIVE PKWY", "amenity": "post_box", "brand": "United States Postal Service", "brand:wikidata": "Q668687", "collection_times": "Mo-Sa 10:15", "nsi_id": "unitedstatespostalservice-a77078", "operator": "United States Postal Service", "operator:short": "USPS", "operator:type": "public", "operator:wikidata": "Q668687", "ref": "5381800027"}, "type": "Feature"}
{"geometry": {"coordinates": [-90.479588387, 42.733511571], "type": "Point"}, "id": "7DmN7CTkF7F29E3-tG-deviQ4os=", "properties": {"@source_uri": "https://tools.usps.com/UspsToolsRestServices/rest/POLocator/findLocations", "@spider": "usps_collection_boxes", "addr:city": "PLATTEVILLE", "addr:country": "US", "addr:postcode": "53818", "addr:state": "WI", "addr:street_address": "85 S COURT ST", "amenity": "post_box", "brand": "United States Postal Service", "brand:wikidata": "Q668687", "collection_times": "Mo-Fr 17:00; Sa 16:45", "indoor": "yes", "note": "ON 12/24 AND 12/31, THIS BOX MAY BE COLLECTED AS EARLY AS 12 NOON.", "nsi_id": "unitedstatespostalservice-a77078", "operator": "United States Postal Service", "operator:short": "USPS", "operator:type": "public", "operator:wikidata": "Q668687", "ref": "5381800029"}, "type": "Feature"}
{"geometry": {"coordinates": [-90.711635, 42.689672], "type": "Point"}, "id": "Rqag8_-dEFsPhoYg1Z0vvPpIpUQ=", "properties": {"@source_uri": "https://tools.usps.com/UspsToolsRestServices/rest/POLocator/findLocations", "@spider": "usps_collection_boxes", "addr:city": "POTOSI", "addr:country": "US", "addr:postcode": "53820", "addr:state": "WI", "addr:street_address": "101 EAST ST", "amenity": "post_box", "brand": "United States Postal Service", "brand:wikidata": "Q668687", "collection_times": "Mo-Fr 14:45; Sa 10:45", "note": "ON 12/24 AND 12/31, THIS BOX MAY BE COLLECTED AS EARLY AS 12 NOON.", "nsi_id": "unitedstatespostalservice-a77078", "operator": "United States Postal Service", "operator:short": "USPS", "operator:type": "public", "operator:wikidata": "Q668687", "ref": "5382000000"}, "type": "Feature"}
{"geometry": {"coordinates": [-90.711635, 42.689672], "type": "Point"}, "id": "9El_3D4OG7PflXIzzPVT8uyU3aw=", "properties": {"@source_uri": "https://tools.usps.com/UspsToolsRestServices/rest/POLocator/findLocations", "@spider": "usps_collection_boxes", "addr:city": "POTOSI", "addr:country": "US", "addr:postcode": "53820", "addr:state": "WI", "addr:street_address": "101 EAST ST", "amenity": "post_box", "brand": "United States Postal Service", "brand:wikidata": "Q668687", "collection_times": "Mo-Fr 14:45; Sa 10:45", "indoor": "yes", "note": "ON 12/24 AND 12/31, THIS BOX MAY BE COLLECTED AS EARLY AS 12 NOON.", "nsi_id": "unitedstatespostalservice-a77078", "operator": "United States Postal Service", "operator:short": "USPS", "operator:type": "public", "operator:wikidata": "Q668687", "ref": "5382000003"}, "type": "Feature"}
{"geometry": {"coordinates": [-90.711576503, 42.689689021], "type": "Point"}, "id": "9JCL8wFsfFOcJ_8DABvjHCT4eSs=", "properties": {"@source_uri": "https://tools.usps.com/UspsToolsRestServices/rest/POLocator/findLocations", "@spider": "usps_collection_boxes", "addr:city": "POTOSI", "addr:country": "US", "addr:postcode": "53820", "addr:state": "WI", "addr:street_address": "101 EAST ST", "amenity": "post_box", "brand": "United States Postal Service", "brand:wikidata": "Q668687", "collection_times": "Mo-Fr 14:45; Sa 10:45", "indoor": "yes", "note": "ON 12/24 AND 12/31, THIS BOX MAY BE COLLECTED AS EARLY AS 12 NOON.", "nsi_id": "unitedstatespostalservice-a77078", "operator": "United States Postal Service", "operator:short": "USPS", "operator:type": "public", "operator:wikidata": "Q668687", "ref": "5382000004"}, "type": "Feature"}
{"geometry": {"coordinates": [-91.146422, 43.051347], "type": "Point"}, "id": "hz2XW6EyvxyUXm-YnHTKrPgtKgA=", "properties": {"@source_uri": "https://tools.usps.com/UspsToolsRestServices/rest/POLocator/findLocations", "@spider": "usps_collection_boxes", "addr:city": "PR DU CHIEN", "addr:country": "US", "addr:postcode": "53821", "addr:state": "WI", "addr:street_address": "120 S BEAUMONT RD", "amenity": "post_box", "brand": "United States Postal Service", "brand:wikidata": "Q668687", "collection_times": "Mo-Fr 17:00; Sa 16:00", "note": "ON 12/24 AND 12/31, THIS BOX MAY BE COLLECTED AS EARLY AS 12 NOON.", "nsi_id": "unitedstatespostalservice-a77078", "operator": "United States Postal Service", "operator:short": "USPS", "operator:type": "public", "operator:wikidata": "Q668687", "ref": "5382100000"}, "type": "Feature"}
{"geometry": {"coordinates": [-91.1395622, 43.052151], "type": "Point"}, "id": "PbmZwX1Rmr1r5kob6IhQ6Tp-WbY=", "properties": {"@source_uri": "https://tools.usps.com/UspsToolsRestServices/rest/POLocator/findLocations", "@spider": "usps_collection_boxes", "addr:city": "PR DU CHIEN", "addr:country": "US", "addr:postcode": "53821", "addr:state": "WI", "addr:street_address": "600 E BLACKHAWK AVE", "amenity": "post_box", "brand": "United States Postal Service", "brand:wikidata": "Q668687", "collection_times": "Mo-Sa 09:30", "nsi_id": "unitedstatespostalservice-a77078", "operator": "United States Postal Service", "operator:short": "USPS", "operator:type": "public", "operator:wikidata": "Q668687", "ref": "5382100002"}, "type": "Feature"}
{"geometry": {"coordinates": [-91.1269949, 43.026417], "type": "Point"}, "id": "fArlXxE1xKO0_Mb99CKudJukaxQ=", "properties": {"@source_uri": "https://tools.usps.com/UspsToolsRestServices/rest/POLocator/findLocations", "@spider": "usps_collection_boxes", "addr:city": "PR DU CHIEN", "addr:country": "US", "addr:postcode": "53821", "addr:state": "WI", "addr:street_address": "20 RIVERSIDE SQ", "amenity": "post_box", "brand": "United States Postal Service", "brand:wikidata": "Q668687", "collection_times": "Mo-Sa 12:00", "nsi_id": "unitedstatespostalservice-a77078", "operator": "United States Postal Service", "operator:short": "USPS", "operator:type": "public", "operator:wikidata": "Q668687", "ref": "5382100009"}, "type": "Feature"}
{"geometry": {"coordinates": [-91.146422, 43.051347], "type": "Point"}, "id": "_QJ8IlF9_39j3prwNyEpokwlkPo=", "properties": {"@source_uri": "https://tools.usps.com/UspsToolsRestServices/rest/POLocator/findLocations", "@spider": "usps_collection_boxes", "addr:city": "PR DU CHIEN", "addr:country": "US", "addr:postcode": "53821", "addr:state": "WI", "addr:street_address": "120 S BEAUMONT RD", "amenity": "post_box", "brand": "United States Postal Service", "brand:wikidata": "Q668687", "collection_times": "Mo-Fr 17:00; Sa 16:00", "indoor": "yes", "note": "ON 12/24 AND 12/31, THIS BOX MAY BE COLLECTED AS EARLY AS 12 NOON.", "nsi_id": "unitedstatespostalservice-a77078", "operator": "United States Postal Service", "operator:short": "USPS", "operator:type": "public", "operator:wikidata": "Q668687", "ref": "5382100014"}, "type": "Feature"}
{"geometry": {"coordinates": [-91.139435, 43.04366], "type": "Point"}, "id": "YFsA2S3v4sDl4haD3o7qQE4hrSQ=", "properties": {"@source_uri": "https://tools.usps.com/UspsToolsRestServices/rest/POLocator/findLocations", "@spider": "usps_collection_boxes", "addr:city": "PR DU CHIEN", "addr:country": "US", "addr:postcode": "53821", "addr:state": "WI", "addr:street_address": "120 S BEAUMONT RD", "amenity": "post_box", "brand": "United States Postal Service", "brand:wikidata": "Q668687", "collection_times": "Mo-Fr 17:00; Sa 16:00", "note": "ON 12/24 AND 12/31, THIS BOX MAY BE COLLECTED AS EARLY AS 12 NOON.", "nsi_id": "unitedstatespostalservice-a77078", "operator": "United States Postal Service", "operator:short": "USPS", "operator:type": "public", "operator:wikidata": "Q668687", "ref": "5382100015"}, "type": "Feature"}
{"geometry": {"coordinates": [-91.1361666, 43.067773], "type": "Point"}, "id": "MyQ-ZXG-ZLUb6Mudwelh45aGSV4=", "properties": {"@source_uri": "https://tools.usps.com/UspsToolsRestServices/rest/POLocator/findLocations", "@spider": "usps_collection_boxes", "addr:city": "PR DU CHIEN", "addr:country": "US", "addr:postcode": "53821", "addr:state": "WI", "addr:street_address": "34487 STATE HWY 35", "amenity": "post_box", "brand": "United States Postal Service", "brand:wikidata": "Q668687", "collection_times": "Mo-Sa 12:00", "nsi_id": "unitedstatespostalservice-a77078", "operator": "United States Postal Service", "operator:short": "USPS", "operator:type": "public", "operator:wikidata": "Q668687", "ref": "5382100016"}, "type": "Feature"}
{"geometry": {"coordinates": [-91.1089981, 43.017791], "type": "Point"}, "id": "ABo7CKsQsxkfmQ7YIvyVz1tbre4=", "properties": {"@source_uri": "https://tools.usps.com/UspsToolsRestServices/rest/POLocator/findLocations", "@spider": "usps_collection_boxes", "addr:city": "PR DU CHIEN", "addr:country": "US", "addr:postcode": "53821", "addr:state": "WI", "addr:street_address": "38020 US HIGHWAY 18", "amenity": "post_box", "brand": "United States Postal Service", "brand:wikidata": "Q668687", "collection_times": "Mo-Sa 09:30", "nsi_id": "unitedstatespostalservice-a77078", "operator": "United States Postal Service", "operator:short": "USPS", "operator:type": "public", "operator:wikidata": "Q668687", "ref": "5382100017"}, "type": "Feature"}
{"geometry": {"coordinates": [-91.1360571, 43.052333], "type": "Point"}, "id": "OoZ0XqTtzKMUDIQqRTBLg4tOilQ=", "properties": {"@source_uri": "https://tools.usps.com/UspsToolsRestServices/rest/POLocator/findLocations", "@spider": "usps_collection_boxes", "addr:city": "PR DU CHIEN", "addr:country": "US", "addr:postcode": "53821", "addr:state": "WI", "addr:street_address": "695 E BLACKHAWK AVE", "amenity": "post_box", "brand": "United States Postal Service", "brand:wikidata": "Q668687", "collection_times": "Mo-Sa 10:00", "nsi_id": "unitedstatespostalservice-a77078", "operator": "United States Postal Service", "operator:short": "USPS", "operator:type": "public", "operator:wikidata": "Q668687", "ref": "5382100018"}, "type": "Feature"}
{"geometry": {"coordinates": [-91.146403928, 43.051357544], "type": "Point"}, "id": "2tog0pe_dytKh5-yh2IvEN6Q36E=", "properties": {"@source_uri": "https://tools.usps.com/UspsToolsRestServices/rest/POLocator/findLocations", "@spider": "usps_collection_boxes", "addr:city": "PR DU CHIEN", "addr:country": "US", "addr:postcode": "53821", "addr:state": "WI", "addr:street_address": "120 S BEAUMONT RD", "amenity": "post_box", "brand": "United States Postal Service", "brand:wikidata": "Q668687", "collection_times": "Mo-Fr 17:00; Sa 16:00", "indoor": "yes", "note": "ON 12/24 AND 12/31, THIS BOX MAY BE COLLECTED AS EARLY AS 12 NOON.", "nsi_id": "unitedstatespostalservice-a77078", "operator": "United States Postal Service", "operator:short": "USPS", "operator:type": "public", "operator:wikidata": "Q668687", "ref": "5382100019"}, "type": "Feature"}
{"geometry": {"coordinates": [-90.542805, 42.522432], "type": "Point"}, "id": "CoYtLTN1pr9SWXr1m-beaM8ioP8=", "properties": {"@source_uri": "https://tools.usps.com/UspsToolsRestServices/rest/POLocator/findLocations", "@spider": "usps_collection_boxes", "addr:city": "SINSINAWA", "addr:country": "US", "addr:postcode": "53824", "addr:state": "WI", "addr:street_address": "519 COUNTY ROAD Z", "amenity": "post_box", "brand": "United States Postal Service", "brand:wikidata": "Q668687", "collection_times": "Mo-Fr 15:30; Sa 10:30", "note": "ON 12/24 AND 12/31, THIS BOX MAY BE COLLECTED AS EARLY AS 12 NOON.", "nsi_id": "unitedstatespostalservice-a77078", "operator": "United States Postal Service", "operator:short": "USPS", "operator:type": "public", "operator:wikidata": "Q668687", "ref": "5382400000"}, "type": "Feature"}
{"geometry": {"coordinates": [-90.622997, 42.926313], "type": "Point"}, "id": "VCg0_3iVUaaJIcLlZ4xAWwUwfE0=", "properties": {"@source_uri": "https://tools.usps.com/UspsToolsRestServices/rest/POLocator/findLocations", "@spider": "usps_collection_boxes", "addr:city": "STITZER", "addr:country": "US", "addr:postcode": "53825", "addr:state": "WI", "addr:street_address": "4011 COMMERCIAL ST", "amenity": "post_box", "brand": "United States Postal Service", "brand:wikidata": "Q668687", "collection_times": "Mo-Fr 11:30; Sa 10:00", "nsi_id": "unitedstatespostalservice-a77078", "operator": "United States Postal Service", "operator:short": "USPS", "operator:type": "public", "operator:wikidata": "Q668687", "ref": "5382500000"}, "type": "Feature"}
{"geometry": {"coordinates": [-90.622997, 42.926313], "type": "Point"}, "id": "9FxwwfgnMCkK1TqwIFtDHkejcqg=", "properties": {"@source_uri": "https://tools.usps.com/UspsToolsRestServices/rest/POLocator/findLocations", "@spider": "usps_collection_boxes", "addr:city": "STITZER", "addr:country": "US", "addr:postcode": "53825", "addr:state": "WI", "addr:street_address": "4011 COMMERCIAL ST", "amenity": "post_box", "brand": "United States Postal Service", "brand:wikidata": "Q668687", "collection_times": "Mo-Fr 11:30; Sa 10:00", "indoor": "yes", "nsi_id": "unitedstatespostalservice-a77078", "operator": "United States Postal Service", "operator:short": "USPS", "operator:type": "public", "operator:wikidata": "Q668687", "ref": "5382500001"}, "type": "Feature"}
{"geometry": {"coordinates": [-90.62304239, 42.926250309], "type": "Point"}, "id": "7eOYZWvqcHlCdq9iMb6ofxHctqw=", "properties": {"@source_uri": "https://tools.usps.com/UspsToolsRestServices/rest/POLocator/findLocations", "@spider": "usps_collection_boxes", "addr:city": "STITZER", "addr:country": "US", "addr:postcode": "53825", "addr:state": "WI", "addr:street_address": "4011 COMMERCIAL ST", "amenity": "post_box", "brand": "United States Postal Service", "brand:wikidata": "Q668687", "collection_times": "Mo-Fr 11:30; Sa 10:00", "indoor": "yes", "nsi_id": "unitedstatespostalservice-a77078", "operator": "United States Postal Service", "operator:short": "USPS", "operator:type": "public", "operator:wikidata": "Q668687", "ref": "5382500002"}, "type": "Feature"}
{"geometry": {"coordinates": [-90.882275, 43.084111], "type": "Point"}, "id": "yRJ101uFNdZKKyWZrt_SYaw6lBU=", "properties": {"@source_uri": "https://tools.usps.com/UspsToolsRestServices/rest/POLocator/findLocations", "@spider": "usps_collection_boxes", "addr:city": "WAUZEKA", "addr:country": "US", "addr:postcode": "53826", "addr:state": "WI", "addr:street_address": "213C E FRONT ST", "amenity": "post_box", "brand": "United States Postal Service", "brand:wikidata": "Q668687", "collection_times": "Mo-Fr 11:30; Sa 09:30", "nsi_id": "unitedstatespostalservice-a77078", "operator": "United States Postal Service", "operator:short": "USPS", "operator:type": "public", "operator:wikidata": "Q668687", "ref": "5382600000"}, "type": "Feature"}
{"geometry": {"coordinates": [-90.882275, 43.084111], "type": "Point"}, "id": "CdkLGh8ggqimdUA8wpxzC_5mCBU=", "properties": {"@source_uri": "https://tools.usps.com/UspsToolsRestServices/rest/POLocator/findLocations", "@spider": "usps_collection_boxes", "addr:city": "WAUZEKA", "addr:country": "US", "addr:postcode": "53826", "addr:state": "WI", "addr:street_address": "213C E FRONT ST", "amenity": "post_box", "brand": "United States Postal Service", "brand:wikidata": "Q668687", "collection_times": "Mo-Fr 11:30; Sa 09:30", "indoor": "yes", "nsi_id": "unitedstatespostalservice-a77078", "operator": "United States Postal Service", "operator:short": "USPS", "operator:type": "public", "operator:wikidata": "Q668687", "ref": "5382600001"}, "type": "Feature"}
{"geometry": {"coordinates": [-90.882275, 43.084111], "type": "Point"}, "id": "G4Zh3gGW5lXn3srVl1BqRYdAISI=", "properties": {"@source_uri": "https://tools.usps.com/UspsToolsRestServices/rest/POLocator/findLocations", "@spider": "usps_collection_boxes", "addr:city": "WAUZEKA", "addr:country": "US", "addr:postcode": "53826", "addr:state": "WI", "addr:street_address": "213C E FRONT ST", "amenity": "post_box", "brand": "United States Postal Service", "brand:wikidata": "Q668687", "collection_times": "Mo-Fr 11:30; Sa 09:30", "indoor": "yes", "nsi_id": "unitedstatespostalservice-a77078", "operator": "United States Postal Service", "operator:short": "USPS", "operator:type": "public", "operator:wikidata": "Q668687", "ref": "5382600002"}, "type": "Feature"}
{"geometry": {"coordinates": [-90.882317533, 43.084143481], "type": "Point"}, "id": "Kys_-dnj1OB8Hslv0abdrgFgYf8=", "properties": {"@source_uri": "https://tools.usps.com/UspsToolsRestServices/rest/POLocator/findLocations", "@spider": "usps_collection_boxes", "addr:city": "WAUZEKA", "addr:country": "US", "addr:postcode": "53826", "addr:state": "WI", "addr:street_address": "213C E FRONT ST", "amenity": "post_box", "brand": "United States Postal Service", "brand:wikidata": "Q668687", "collection_times": "Mo-Fr 11:30; Sa 09:30", "indoor": "yes", "nsi_id": "unitedstatespostalservice-a77078", "operator": "United States Postal Service", "operator:short": "USPS", "operator:type": "public", "operator:wikidata": "Q668687", "ref": "5382600003"}, "type": "Feature"}
