{"geometry": {"coordinates": [-89.456254, 43.538261], "type": "Point"}, "id": "DwGGsQStJJ4Qhw3yQtzqSyQ5_kY=", "properties": {"@source_uri": "https://tools.usps.com/UspsToolsRestServices/rest/POLocator/findLocations", "@spider": "usps_collection_boxes", "addr:city": "PORTAGE", "addr:country": "US", "addr:postcode": "53901", "addr:state": "WI", "addr:street_address": "311 E WISCONSIN ST", "amenity": "post_box", "collection_times": "Mo-Sa 14:30", "note": "ON 12/24 AND 12/31, THIS BOX MAY BE COLLECTED AS EARLY AS 12 NOON.", "nsi_id": "unitedstatespostalservice-a77078", "operator": "United States Postal Service", "operator:short": "USPS", "operator:type": "public", "operator:wikidata": "Q668687", "ref": "5390100015"}, "type": "Feature"}
{"geometry": {"coordinates": [-89.4982647, 43.486348], "type": "Point"}, "id": "Mfus8ZwFAhDW2PM23Ls6gvwZF8w=", "properties": {"@source_uri": "https://tools.usps.com/UspsToolsRestServices/rest/POLocator/findLocations", "@spider": "usps_collection_boxes", "addr:city": "PORTAGE", "addr:country": "US", "addr:postcode": "53901", "addr:state": "WI", "addr:street_address": "5800 N STATE ROAD 78", "amenity": "post_box", "collection_times": "Mo-Sa 10:00", "nsi_id": "unitedstatespostalservice-a77078", "operator": "United States Postal Service", "operator:short": "USPS", "operator:type": "public", "operator:wikidata": "Q668687", "ref": "5390100024"}, "type": "Feature"}
{"geometry": {"coordinates": [-89.462388, 43.540076], "type": "Point"}, "id": "_xYSFZlkq-c5t-JVe7c-OnRqQj4=", "properties": {"@source_uri": "https://tools.usps.com/UspsToolsRestServices/rest/POLocator/findLocations", "@spider": "usps_collection_boxes", "addr:city": "PORTAGE", "addr:country": "US", "addr:postcode": "53901", "addr:state": "WI", "addr:street_address": "215 W CONANT ST", "amenity": "post_box", "collection_times": "Mo-Sa 17:00", "note": "ON 12/24 AND 12/31, THIS BOX MAY BE COLLECTED AS EARLY AS 12 NOON.", "nsi_id": "unitedstatespostalservice-a77078", "operator": "United States Postal Service", "operator:short": "USPS", "operator:type": "public", "operator:wikidata": "Q668687", "ref": "5390100026"}, "type": "Feature"}
{"geometry": {"coordinates": [-89.462388, 43.540076], "type": "Point"}, "id": "h4ldEVFWWG5qbWnVXdgRO3eFuOk=", "properties": {"@source_uri": "https://tools.usps.com/UspsToolsRestServices/rest/POLocator/findLocations", "@spider": "usps_collection_boxes", "addr:city": "PORTAGE", "addr:country": "US", "addr:postcode": "53901", "addr:state": "WI", "addr:street_address": "215 W CONANT ST", "amenity": "post_box", "collection_times": "Mo-Sa 17:00", "note": "ON 12/24 AND 12/31, THIS BOX MAY BE COLLECTED AS EARLY AS 12 NOON.", "nsi_id": "unitedstatespostalservice-a77078", "operator": "United States Postal Service", "operator:short": "USPS", "operator:type": "public", "operator:wikidata": "Q668687", "ref": "5390100027"}, "type": "Feature"}
{"geometry": {"coordinates": [-89.462388, 43.540076], "type": "Point"}, "id": "DUqAlgneBRG6-tVDDHdl1rgMGYg=", "properties": {"@source_uri": "https://tools.usps.com/UspsToolsRestServices/rest/POLocator/findLocations", "@spider": "usps_collection_boxes", "addr:city": "PORTAGE", "addr:country": "US", "addr:postcode": "53901", "addr:state": "WI", "addr:street_address": "215 W CONANT ST", "amenity": "post_box", "collection_times": "Mo-Sa 17:00", "indoor": "yes", "note": "ON 12/24 AND 12/31, THIS BOX MAY BE COLLECTED AS EARLY AS 12 NOON.", "nsi_id": "unitedstatespostalservice-a77078", "operator": "United States Postal Service", "operator:short": "USPS", "operator:type": "public", "operator:wikidata": "Q668687", "ref": "5390100030"}, "type": "Feature"}
{"geometry": {"coordinates": [-89.469645, 43.567072], "type": "Point"}, "id": "WASgASrZRvDc6FzOrnOk_o4-dBo=", "properties": {"@source_uri": "https://tools.usps.com/UspsToolsRestServices/rest/POLocator/findLocations", "@spider": "usps_collection_boxes", "addr:city": "PORTAGE", "addr:country": "US", "addr:postcode": "53901", "addr:state": "WI", "addr:street_address": "2800 NEW PINERY RD", "amenity": "post_box", "collection_times": "Mo-Fr 14:30", "note": "ON 12/24 AND 12/31, THIS BOX MAY BE COLLECTED AS EARLY AS 12 NOON.", "nsi_id": "unitedstatespostalservice-a77078", "operator": "United States Postal Service", "operator:short": "USPS", "operator:type": "public", "operator:wikidata": "Q668687", "ref": "5390100032"}, "type": "Feature"}
{"geometry": {"coordinates": [-89.462387907, 43.540075089], "type": "Point"}, "id": "2EN-7rfB3pYvd0_mbq6B_r-pviU=", "properties": {"@source_uri": "https://tools.usps.com/UspsToolsRestServices/rest/POLocator/findLocations", "@spider": "usps_collection_boxes", "addr:city": "PORTAGE", "addr:country": "US", "addr:postcode": "53901", "addr:state": "WI", "addr:street_address": "215 W CONANT ST", "amenity": "post_box", "collection_times": "Mo-Sa 17:00", "indoor": "yes", "note": "ON 12/24 AND 12/31, THIS BOX MAY BE COLLECTED AS EARLY AS 12 NOON.", "nsi_id": "unitedstatespostalservice-a77078", "operator": "United States Postal Service", "operator:short": "USPS", "operator:type": "public", "operator:wikidata": "Q668687", "ref": "5390100036"}, "type": "Feature"}
{"geometry": {"coordinates": [-89.816239, 43.956569], "type": "Point"}, "id": "Iheb568T8eDYnzCwomNK99JRNNc=", "properties": {"@source_uri": "https://tools.usps.com/UspsToolsRestServices/rest/POLocator/findLocations", "@spider": "usps_collection_boxes", "addr:city": "ADAMS", "addr:country": "US", "addr:postcode": "53910", "addr:state": "WI", "addr:street_address": "151 S GRANT ST", "amenity": "post_box", "collection_times": "Mo-Fr 16:00; Sa 10:45", "note": "ON 12/24 AND 12/31, THIS BOX MAY BE COLLECTED AS EARLY AS 12 NOON.", "nsi_id": "unitedstatespostalservice-a77078", "operator": "United States Postal Service", "operator:short": "USPS", "operator:type": "public", "operator:wikidata": "Q668687", "ref": "5391000000"}, "type": "Feature"}
{"geometry": {"coordinates": [-89.816239, 43.956569], "type": "Point"}, "id": "JLhETSnDtZ_nOgkr13SqsnYYoaE=", "properties": {"@source_uri": "https://tools.usps.com/UspsToolsRestServices/rest/POLocator/findLocations", "@spider": "usps_collection_boxes", "addr:city": "ADAMS", "addr:country": "US", "addr:postcode": "53910", "addr:state": "WI", "addr:street_address": "151 S GRANT ST", "amenity": "post_box", "collection_times": "Mo-Fr 16:00; Sa 10:45", "indoor": "yes", "note": "ON 12/24 AND 12/31, THIS BOX MAY BE COLLECTED AS EARLY AS 12 NOON.", "nsi_id": "unitedstatespostalservice-a77078", "operator": "United States Postal Service", "operator:short": "USPS", "operator:type": "public", "operator:wikidata": "Q668687", "ref": "5391000002"}, "type": "Feature"}
{"geometry": {"coordinates": [-89.816242146, 43.956566801], "type": "Point"}, "id": "64odErkGsV77JUXEepJG_hUweg4=", "properties": {"@source_uri": "https://tools.usps.com/UspsToolsRestServices/rest/POLocator/findLocations", "@spider": "usps_collection_boxes", "addr:city": "ADAMS", "addr:country": "US", "addr:postcode": "53910", "addr:state": "WI", "addr:street_address": "151 S GRANT ST", "amenity": "post_box", "collection_times": "Mo-Fr 16:00; Sa 10:45", "indoor": "yes", "note": "ON 12/24 AND 12/31, THIS BOX MAY BE COLLECTED AS EARLY AS 12 NOON.", "nsi_id": "unitedstatespostalservice-a77078", "operator": "United States Postal Service", "operator:short": "USPS", "operator:type": "public", "operator:wikidata": "Q668687", "ref": "5391000004"}, "type": "Feature"}
{"geometry": {"coordinates": [-89.8201860068, 43.9663930069], "type": "Point"}, "id": "rDuKgcQGTY_BCFtTaERy54Z34FE=", "properties": {"@source_uri": "https://tools.usps.com/UspsToolsRestServices/rest/POLocator/findLocations", "@spider": "usps_collection_boxes", "addr:city": "ADAMS", "addr:country": "US", "addr:postcode": "53910", "addr:state": "WI", "addr:street_address": "215 W NORTH ST", "amenity": "post_box", "collection_times": "Mo-Sa 09:30", "nsi_id": "unitedstatespostalservice-a77078", "operator": "United States Postal Service", "operator:short": "USPS", "operator:type": "public", "operator:wikidata": "Q668687", "ref": "5391000005"}, "type": "Feature"}
{"geometry": {"coordinates": [-89.38024, 43.337626], "type": "Point"}, "id": "HLlKFz9jk1WQIT6fdFwBm14Tmb0=", "properties": {"@source_uri": "https://tools.usps.com/UspsToolsRestServices/rest/POLocator/findLocations", "@spider": "usps_collection_boxes", "addr:city": "ARLINGTON", "addr:country": "US", "addr:postcode": "53911", "addr:state": "WI", "addr:street_address": "205 MAIN ST", "amenity": "post_box", "collection_times": "Mo-Fr 14:45; Sa 13:30", "note": "ON 12/24 AND 12/31, THIS BOX MAY BE COLLECTED AS EARLY AS 12 NOON.", "nsi_id": "unitedstatespostalservice-a77078", "operator": "United States Postal Service", "operator:short": "USPS", "operator:type": "public", "operator:wikidata": "Q668687", "ref": "5391100000"}, "type": "Feature"}
{"geometry": {"coordinates": [-89.38024, 43.337626], "type": "Point"}, "id": "UzIDLZ3VAaG_1nocz1jvFBKm7es=", "properties": {"@source_uri": "https://tools.usps.com/UspsToolsRestServices/rest/POLocator/findLocations", "@spider": "usps_collection_boxes", "addr:city": "ARLINGTON", "addr:country": "US", "addr:postcode": "53911", "addr:state": "WI", "addr:street_address": "205 MAIN ST", "amenity": "post_box", "collection_times": "Mo-Fr 15:00; Sa 13:45", "indoor": "yes", "note": "ON 12/24 AND 12/31, THIS BOX MAY BE COLLECTED AS EARLY AS 12 NOON.", "nsi_id": "unitedstatespostalservice-a77078", "operator": "United States Postal Service", "operator:short": "USPS", "operator:type": "public", "operator:wikidata": "Q668687", "ref": "5391100001"}, "type": "Feature"}
{"geometry": {"coordinates": [-89.38024, 43.337626], "type": "Point"}, "id": "KmkOAblwmm8-HMNWhcdiW2BSxW8=", "properties": {"@source_uri": "https://tools.usps.com/UspsToolsRestServices/rest/POLocator/findLocations", "@spider": "usps_collection_boxes", "addr:city": "ARLINGTON", "addr:country": "US", "addr:postcode": "53911", "addr:state": "WI", "addr:street_address": "205 MAIN ST", "amenity": "post_box", "collection_times": "Mo-Fr 15:00; Sa 13:45", "indoor": "yes", "note": "ON 12/24 AND 12/31, THIS BOX MAY BE COLLECTED AS EARLY AS 12 NOON.", "nsi_id": "unitedstatespostalservice-a77078", "operator": "United States Postal Service", "operator:short": "USPS", "operator:type": "public", "operator:wikidata": "Q668687", "ref": "5391100004"}, "type": "Feature"}
{"geometry": {"coordinates": [-89.380241497, 43.3376175], "type": "Point"}, "id": "hkgEjFLQEhCPvt6eF_Y9Ifhn5hs=", "properties": {"@source_uri": "https://tools.usps.com/UspsToolsRestServices/rest/POLocator/findLocations", "@spider": "usps_collection_boxes", "addr:city": "ARLINGTON", "addr:country": "US", "addr:postcode": "53911", "addr:state": "WI", "addr:street_address": "205 MAIN ST", "amenity": "post_box", "collection_times": "Mo-Fr 15:00; Sa 13:45", "indoor": "yes", "note": "ON 12/24 AND 12/31, THIS BOX MAY BE COLLECTED AS EARLY AS 12 NOON.", "nsi_id": "unitedstatespostalservice-a77078", "operator": "United States Postal Service", "operator:short": "USPS", "operator:type": "public", "operator:wikidata": "Q668687", "ref": "5391100005"}, "type": "Feature"}
{"geometry": {"coordinates": [-89.744349, 43.468251], "type": "Point"}, "id": "HajKMjfR6O8lN2tXj4wMXNJU_zU=", "properties": {"@source_uri": "https://tools.usps.com/UspsToolsRestServices/rest/POLocator/findLocations", "@spider": "usps_collection_boxes", "addr:city": "BARABOO", "addr:country": "US", "addr:postcode": "53913", "addr:state": "WI", "addr:street_address": "303 BROADWAY ST", "amenity": "post_box", "collection_times": "Mo-Fr 17:00; Sa 13:00", "note": "ON 12/24 AND 12/31, THIS BOX MAY BE COLLECTED AS EARLY AS 12 NOON.", "nsi_id": "unitedstatespostalservice-a77078", "operator": "United States Postal Service", "operator:short": "USPS", "operator:type": "public", "operator:wikidata": "Q668687", "ref": "5391300000"}, "type": "Feature"}
{"geometry": {"coordinates": [-89.772954316, 43.474683333], "type": "Point"}, "id": "Dd8Lp5DWLnHnXOpxTmZvjgEqSOc=", "properties": {"@source_uri": "https://tools.usps.com/UspsToolsRestServices/rest/POLocator/findLocations", "@spider": "usps_collection_boxes", "addr:city": "BARABOO", "addr:country": "US", "addr:postcode": "53913", "addr:state": "WI", "addr:street_address": "617 LINN ST", "amenity": "post_box", "collection_times": "Mo-Sa 10:00", "nsi_id": "unitedstatespostalservice-a77078", "operator": "United States Postal Service", "operator:short": "USPS", "operator:type": "public", "operator:wikidata": "Q668687", "ref": "5391300003"}, "type": "Feature"}
{"geometry": {"coordinates": [-89.7250899, 43.474385], "type": "Point"}, "id": "qyqqyVxpjeS7vjRt0-JhTUzxFmk=", "properties": {"@source_uri": "https://tools.usps.com/UspsToolsRestServices/rest/POLocator/findLocations", "@spider": "usps_collection_boxes", "addr:city": "BARABOO", "addr:country": "US", "addr:postcode": "53913", "addr:state": "WI", "addr:street_address": "1120 8TH ST", "amenity": "post_box", "collection_times": "Mo-Sa 13:30", "note": "ON 12/24 AND 12/31, THIS BOX MAY BE COLLECTED AS EARLY AS 12 NOON.", "nsi_id": "unitedstatespostalservice-a77078", "operator": "United States Postal Service", "operator:short": "USPS", "operator:type": "public", "operator:wikidata": "Q668687", "ref": "5391300006"}, "type": "Feature"}
{"geometry": {"coordinates": [-89.7276733, 43.475086], "type": "Point"}, "id": "1cBoe35qQiYd6HCHbuTLODU0Vjs=", "properties": {"@source_uri": "https://tools.usps.com/UspsToolsRestServices/rest/POLocator/findLocations", "@spider": "usps_collection_boxes", "addr:city": "BARABOO", "addr:country": "US", "addr:postcode": "53913", "addr:state": "WI", "addr:street_address": "935 8TH ST", "amenity": "post_box", "collection_times": "Mo-Sa 12:00", "nsi_id": "unitedstatespostalservice-a77078", "operator": "United States Postal Service", "operator:short": "USPS", "operator:type": "public", "operator:wikidata": "Q668687", "ref": "5391300007"}, "type": "Feature"}
{"geometry": {"coordinates": [-89.7458213, 43.463353], "type": "Point"}, "id": "0yaA2IWfrY2zpbfJd-QaIELB8K4=", "properties": {"@source_uri": "https://tools.usps.com/UspsToolsRestServices/rest/POLocator/findLocations", "@spider": "usps_collection_boxes", "addr:city": "BARABOO", "addr:country": "US", "addr:postcode": "53913", "addr:state": "WI", "addr:street_address": "325 SOUTH BLVD", "amenity": "post_box", "collection_times": "Mo-Sa 13:30", "note": "ON 12/24 AND 12/31, THIS BOX MAY BE COLLECTED AS EARLY AS 12 NOON.", "nsi_id": "unitedstatespostalservice-a77078", "operator": "United States Postal Service", "operator:short": "USPS", "operator:type": "public", "operator:wikidata": "Q668687", "ref": "5391300008"}, "type": "Feature"}
{"geometry": {"coordinates": [-89.7425747, 43.469795], "type": "Point"}, "id": "Z_tI2EXlk3NqH6o8Svyd-F6u75U=", "properties": {"@source_uri": "https://tools.usps.com/UspsToolsRestServices/rest/POLocator/findLocations", "@spider": "usps_collection_boxes", "addr:city": "BARABOO", "addr:country": "US", "addr:postcode": "53913", "addr:state": "WI", "addr:street_address": "101 3RD AVE", "amenity": "post_box", "collection_times": "Mo-Sa 13:30", "note": "ON 12/24 AND 12/31, THIS BOX MAY BE COLLECTED AS EARLY AS 12 NOON.", "nsi_id": "unitedstatespostalservice-a77078", "operator": "United States Postal Service", "operator:short": "USPS", "operator:type": "public", "operator:wikidata": "Q668687", "ref": "5391300010"}, "type": "Feature"}
{"geometry": {"coordinates": [-89.7423722, 43.471015], "type": "Point"}, "id": "965aVGRbPztfTkC5-0mql8HdlNI=", "properties": {"@source_uri": "https://tools.usps.com/UspsToolsRestServices/rest/POLocator/findLocations", "@spider": "usps_collection_boxes", "addr:city": "BARABOO", "addr:country": "US", "addr:postcode": "53913", "addr:state": "WI", "addr:street_address": "101 4TH ST", "amenity": "post_box", "collection_times": "Mo-Sa 13:00", "note": "ON 12/24 AND 12/31, THIS BOX MAY BE COLLECTED AS EARLY AS 12 NOON.", "nsi_id": "unitedstatespostalservice-a77078", "operator": "United States Postal Service", "operator:short": "USPS", "operator:type": "public", "operator:wikidata": "Q668687", "ref": "5391300014"}, "type": "Feature"}
{"geometry": {"coordinates": [-89.744349, 43.468251], "type": "Point"}, "id": "xr9KId9JnGlA0JSfbEBaNwgjx_A=", "properties": {"@source_uri": "https://tools.usps.com/UspsToolsRestServices/rest/POLocator/findLocations", "@spider": "usps_collection_boxes", "addr:city": "BARABOO", "addr:country": "US", "addr:postcode": "53913", "addr:state": "WI", "addr:street_address": "303 BROADWAY ST", "amenity": "post_box", "collection_times": "Mo-Fr 17:00; Sa 13:00", "note": "ON 12/24 AND 12/31, THIS BOX MAY BE COLLECTED AS EARLY AS 12 NOON.", "nsi_id": "unitedstatespostalservice-a77078", "operator": "United States Postal Service", "operator:short": "USPS", "operator:type": "public", "operator:wikidata": "Q668687", "ref": "5391300015"}, "type": "Feature"}
{"geometry": {"coordinates": [-89.7717472, 43.458031], "type": "Point"}, "id": "vi8esEmSF3ArhNsSwa4bJed0POE=", "properties": {"@source_uri": "https://tools.usps.com/UspsToolsRestServices/rest/POLocator/findLocations", "@spider": "usps_collection_boxes", "addr:city": "BARABOO", "addr:country": "US", "addr:postcode": "53913", "addr:state": "WI", "addr:street_address": "920 US HIGHWAY 12", "amenity": "post_box", "collection_times": "Mo-Sa 12:00", "nsi_id": "unitedstatespostalservice-a77078", "operator": "United States Postal Service", "operator:short": "USPS", "operator:type": "public", "operator:wikidata": "Q668687", "ref": "5391300022"}, "type": "Feature"}
{"geometry": {"coordinates": [-89.7692269, 43.47516], "type": "Point"}, "id": "gjrK8qUWqaqTOHi-imu4jIOzcS4=", "properties": {"@source_uri": "https://tools.usps.com/UspsToolsRestServices/rest/POLocator/findLocations", "@spider": "usps_collection_boxes", "addr:city": "BARABOO", "addr:country": "US", "addr:postcode": "53913", "addr:state": "WI", "addr:street_address": "603 W PINE ST", "amenity": "post_box", "collection_times": "Mo-Sa 10:00", "nsi_id": "unitedstatespostalservice-a77078", "operator": "United States Postal Service", "operator:short": "USPS", "operator:type": "public", "operator:wikidata": "Q668687", "ref": "5391300023"}, "type": "Feature"}
{"geometry": {"coordinates": [-89.7866995, 43.574702], "type": "Point"}, "id": "ArNs3fG4JQuWCO8SqNmpaHWs3zM=", "properties": {"@source_uri": "https://tools.usps.com/UspsToolsRestServices/rest/POLocator/findLocations", "@spider": "usps_collection_boxes", "addr:city": "BARABOO", "addr:country": "US", "addr:postcode": "53913", "addr:state": "WI", "addr:street_address": "210 N GASSER RD", "amenity": "post_box", "collection_times": "Mo-Sa 10:00", "nsi_id": "unitedstatespostalservice-a77078", "operator": "United States Postal Service", "operator:short": "USPS", "operator:type": "public", "operator:wikidata": "Q668687", "ref": "5391300024"}, "type": "Feature"}
{"geometry": {"coordinates": [-89.73806, 43.474735], "type": "Point"}, "id": "Cd26Q0HVIhuIkxHgyNtOYtEVcko=", "properties": {"@source_uri": "https://tools.usps.com/UspsToolsRestServices/rest/POLocator/findLocations", "@spider": "usps_collection_boxes", "addr:city": "BARABOO", "addr:country": "US", "addr:postcode": "53913", "addr:state": "WI", "addr:street_address": "303 BROADWAY ST", "amenity": "post_box", "collection_times": "Mo-Fr 17:00; Sa 13:00", "indoor": "yes", "note": "ON 12/24 AND 12/31, THIS BOX MAY BE COLLECTED AS EARLY AS 12 NOON.", "nsi_id": "unitedstatespostalservice-a77078", "operator": "United States Postal Service", "operator:short": "USPS", "operator:type": "public", "operator:wikidata": "Q668687", "ref": "5391300027"}, "type": "Feature"}
{"geometry": {"coordinates": [-88.8345965, 43.462009], "type": "Point"}, "id": "yVTmoSFMvBNEVsba5OepMXhWX0M=", "properties": {"@source_uri": "https://tools.usps.com/UspsToolsRestServices/rest/POLocator/findLocations", "@spider": "usps_collection_boxes", "addr:city": "BEAVER DAM", "addr:country": "US", "addr:postcode": "53916", "addr:state": "WI", "addr:street_address": "609 N SPRING ST", "amenity": "post_box", "collection_times": "Mo-Sa 14:00", "note": "ON 12/24 AND 12/31, THIS BOX MAY BE COLLECTED AS EARLY AS 12 NOON.", "nsi_id": "unitedstatespostalservice-a77078", "operator": "United States Postal Service", "operator:short": "USPS", "operator:type": "public", "operator:wikidata": "Q668687", "ref": "5391600005"}, "type": "Feature"}
{"geometry": {"coordinates": [-88.8187191335, 43.4564864905], "type": "Point"}, "id": "q8_PBgTlBVhxU74Rsp5mAJ8hw6s=", "properties": {"@source_uri": "https://tools.usps.com/UspsToolsRestServices/rest/POLocator/findLocations", "@spider": "usps_collection_boxes", "addr:city": "BEAVER DAM", "addr:country": "US", "addr:postcode": "53916", "addr:state": "WI", "addr:street_address": "810 PARK AVE", "amenity": "post_box", "collection_times": "Mo-Sa 14:00", "note": "ON 12/24 AND 12/31, THIS BOX MAY BE COLLECTED AS EARLY AS 12 NOON.", "nsi_id": "unitedstatespostalservice-a77078", "operator": "United States Postal Service", "operator:short": "USPS", "operator:type": "public", "operator:wikidata": "Q668687", "ref": "5391600008"}, "type": "Feature"}
{"geometry": {"coordinates": [-88.836952, 43.460296], "type": "Point"}, "id": "qQUw_5wV4YukH9E0g5SvG0a-RyE=", "properties": {"@source_uri": "https://tools.usps.com/UspsToolsRestServices/rest/POLocator/findLocations", "@spider": "usps_collection_boxes", "addr:city": "BEAVER DAM", "addr:country": "US", "addr:postcode": "53916", "addr:state": "WI", "addr:street_address": "411 N SPRING ST", "amenity": "post_box", "collection_times": "Mo-Fr 17:00; Sa 16:30", "note": "ON 12/24 AND 12/31, THIS BOX MAY BE COLLECTED AS EARLY AS 12 NOON.", "nsi_id": "unitedstatespostalservice-a77078", "operator": "United States Postal Service", "operator:short": "USPS", "operator:type": "public", "operator:wikidata": "Q668687", "ref": "5391600024"}, "type": "Feature"}
{"geometry": {"coordinates": [-88.836952, 43.460296], "type": "Point"}, "id": "vkfYI8sQbmsZyN0rIhxHGozfh8Y=", "properties": {"@source_uri": "https://tools.usps.com/UspsToolsRestServices/rest/POLocator/findLocations", "@spider": "usps_collection_boxes", "addr:city": "BEAVER DAM", "addr:country": "US", "addr:postcode": "53916", "addr:state": "WI", "addr:street_address": "411 N SPRING ST", "amenity": "post_box", "collection_times": "Mo-Fr 17:00; Sa 16:30", "indoor": "yes", "note": "ON 12/24 AND 12/31, THIS BOX MAY BE COLLECTED AS EARLY AS 12 NOON.", "nsi_id": "unitedstatespostalservice-a77078", "operator": "United States Postal Service", "operator:short": "USPS", "operator:type": "public", "operator:wikidata": "Q668687", "ref": "5391600034"}, "type": "Feature"}
{"geometry": {"coordinates": [-88.8257276, 43.449546], "type": "Point"}, "id": "cXOuWxZAsqhPSImoa5TyfXvZoQE=", "properties": {"@source_uri": "https://tools.usps.com/UspsToolsRestServices/rest/POLocator/findLocations", "@spider": "usps_collection_boxes", "addr:city": "BEAVER DAM", "addr:country": "US", "addr:postcode": "53916", "addr:state": "WI", "addr:street_address": "705 S UNIVERSITY AVE", "amenity": "post_box", "collection_times": "Mo-Fr 14:00; Sa 09:00", "note": "ON 12/24 AND 12/31, THIS BOX MAY BE COLLECTED AS EARLY AS 12 NOON.", "nsi_id": "unitedstatespostalservice-a77078", "operator": "United States Postal Service", "operator:short": "USPS", "operator:type": "public", "operator:wikidata": "Q668687", "ref": "5391600039"}, "type": "Feature"}
{"geometry": {"coordinates": [-88.8206850406, 43.4748660091], "type": "Point"}, "id": "3bDCaZ0PIYUBz2HI5Xg5VDoDvuI=", "properties": {"@source_uri": "https://tools.usps.com/UspsToolsRestServices/rest/POLocator/findLocations", "@spider": "usps_collection_boxes", "addr:city": "BEAVER DAM", "addr:country": "US", "addr:postcode": "53916", "addr:state": "WI", "addr:street_address": "1645 N SPRING ST", "amenity": "post_box", "collection_times": "Mo-Sa 10:30", "nsi_id": "unitedstatespostalservice-a77078", "operator": "United States Postal Service", "operator:short": "USPS", "operator:type": "public", "operator:wikidata": "Q668687", "ref": "5391600040"}, "type": "Feature"}
{"geometry": {"coordinates": [-88.8230435, 43.455921], "type": "Point"}, "id": "LvBVf_k9NdxaC7upsjwXTOK1Ctw=", "properties": {"@source_uri": "https://tools.usps.com/UspsToolsRestServices/rest/POLocator/findLocations", "@spider": "usps_collection_boxes", "addr:city": "BEAVER DAM", "addr:country": "US", "addr:postcode": "53916", "addr:state": "WI", "addr:street_address": "607 PARK AVE", "amenity": "post_box", "collection_times": "Mo-Sa 14:00", "note": "ON 12/24 AND 12/31, THIS BOX MAY BE COLLECTED AS EARLY AS 12 NOON.", "nsi_id": "unitedstatespostalservice-a77078", "operator": "United States Postal Service", "operator:short": "USPS", "operator:type": "public", "operator:wikidata": "Q668687", "ref": "5391600041"}, "type": "Feature"}
{"geometry": {"coordinates": [-88.83695228, 43.460297602], "type": "Point"}, "id": "-SI33YKsuK_DO1Eawd-Oll2KYrY=", "properties": {"@source_uri": "https://tools.usps.com/UspsToolsRestServices/rest/POLocator/findLocations", "@spider": "usps_collection_boxes", "addr:city": "BEAVER DAM", "addr:country": "US", "addr:postcode": "53916", "addr:state": "WI", "addr:street_address": "411 N SPRING ST", "amenity": "post_box", "collection_times": "Mo-Fr 17:00; Sa 16:30", "indoor": "yes", "note": "ON 12/24 AND 12/31, THIS BOX MAY BE COLLECTED AS EARLY AS 12 NOON.", "nsi_id": "unitedstatespostalservice-a77078", "operator": "United States Postal Service", "operator:short": "USPS", "operator:type": "public", "operator:wikidata": "Q668687", "ref": "5391600042"}, "type": "Feature"}
{"geometry": {"coordinates": [-88.781509, 43.73537], "type": "Point"}, "id": "m5P2QdT4FKd9kHnwc7u3flQ2sb0=", "properties": {"@source_uri": "https://tools.usps.com/UspsToolsRestServices/rest/POLocator/findLocations", "@spider": "usps_collection_boxes", "addr:city": "BRANDON", "addr:country": "US", "addr:postcode": "53919", "addr:state": "WI", "addr:street_address": "120 N COMMERCIAL ST", "amenity": "post_box", "collection_times": "Mo-Fr 13:00; Sa 11:00", "note": "ON 12/24 AND 12/31, THIS BOX MAY BE COLLECTED AS EARLY AS 12 NOON.", "nsi_id": "unitedstatespostalservice-a77078", "operator": "United States Postal Service", "operator:short": "USPS", "operator:type": "public", "operator:wikidata": "Q668687", "ref": "5391900000"}, "type": "Feature"}
{"geometry": {"coordinates": [-88.781509, 43.73537], "type": "Point"}, "id": "k2WjS93S9cclPm1XJVy_j7AU_fA=", "properties": {"@source_uri": "https://tools.usps.com/UspsToolsRestServices/rest/POLocator/findLocations", "@spider": "usps_collection_boxes", "addr:city": "BRANDON", "addr:country": "US", "addr:postcode": "53919", "addr:state": "WI", "addr:street_address": "120 N COMMERCIAL ST", "amenity": "post_box", "collection_times": "Mo-Fr 13:00; Sa 11:00", "indoor": "yes", "note": "ON 12/24 AND 12/31, THIS BOX MAY BE COLLECTED AS EARLY AS 12 NOON.", "nsi_id": "unitedstatespostalservice-a77078", "operator": "United States Postal Service", "operator:short": "USPS", "operator:type": "public", "operator:wikidata": "Q668687", "ref": "5391900001"}, "type": "Feature"}
{"geometry": {"coordinates": [-88.781510486, 43.735401618], "type": "Point"}, "id": "VehL1qwxbxuojyNsGMbuwPagh6o=", "properties": {"@source_uri": "https://tools.usps.com/UspsToolsRestServices/rest/POLocator/findLocations", "@spider": "usps_collection_boxes", "addr:city": "BRANDON", "addr:country": "US", "addr:postcode": "53919", "addr:state": "WI", "addr:street_address": "120 N COMMERCIAL ST", "amenity": "post_box", "collection_times": "Mo-Fr 13:00; Sa 11:00", "indoor": "yes", "note": "ON 12/24 AND 12/31, THIS BOX MAY BE COLLECTED AS EARLY AS 12 NOON.", "nsi_id": "unitedstatespostalservice-a77078", "operator": "United States Postal Service", "operator:short": "USPS", "operator:type": "public", "operator:wikidata": "Q668687", "ref": "5391900003"}, "type": "Feature"}
{"geometry": {"coordinates": [-89.587254, 43.666873], "type": "Point"}, "id": "CWV0dC5GpOpWFf4n33vcSAs6bks=", "properties": {"@source_uri": "https://tools.usps.com/UspsToolsRestServices/rest/POLocator/findLocations", "@spider": "usps_collection_boxes", "addr:city": "BRIGGSVILLE", "addr:country": "US", "addr:postcode": "53920", "addr:state": "WI", "addr:street_address": "N433 COUNTY ROAD A", "amenity": "post_box", "collection_times": "Mo-Fr 11:45; Sa 09:15", "nsi_id": "unitedstatespostalservice-a77078", "operator": "United States Postal Service", "operator:short": "USPS", "operator:type": "public", "operator:wikidata": "Q668687", "ref": "5392000000"}, "type": "Feature"}
{"geometry": {"coordinates": [-89.587254, 43.666873], "type": "Point"}, "id": "mo-TiQKuiHTn6mRniEpDB9UcBQo=", "properties": {"@source_uri": "https://tools.usps.com/UspsToolsRestServices/rest/POLocator/findLocations", "@spider": "usps_collection_boxes", "addr:city": "BRIGGSVILLE", "addr:country": "US", "addr:postcode": "53920", "addr:state": "WI", "addr:street_address": "N433 COUNTY ROAD A", "amenity": "post_box", "collection_times": "Mo-Fr 11:45; Sa 09:30", "indoor": "yes", "nsi_id": "unitedstatespostalservice-a77078", "operator": "United States Postal Service", "operator:short": "USPS", "operator:type": "public", "operator:wikidata": "Q668687", "ref": "5392000001"}, "type": "Feature"}
{"geometry": {"coordinates": [-89.587248067, 43.666823141], "type": "Point"}, "id": "bcMz92fA4ceCsdqlbadPot-maEQ=", "properties": {"@source_uri": "https://tools.usps.com/UspsToolsRestServices/rest/POLocator/findLocations", "@spider": "usps_collection_boxes", "addr:city": "BRIGGSVILLE", "addr:country": "US", "addr:postcode": "53920", "addr:state": "WI", "addr:street_address": "N433 COUNTY ROAD A", "amenity": "post_box", "collection_times": "Mo-Fr 11:45; Sa 09:30", "indoor": "yes", "nsi_id": "unitedstatespostalservice-a77078", "operator": "United States Postal Service", "operator:short": "USPS", "operator:type": "public", "operator:wikidata": "Q668687", "ref": "5392000002"}, "type": "Feature"}
{"geometry": {"coordinates": [-88.707154, 43.50383], "type": "Point"}, "id": "MEs9HjxCpno3sR3GeNeHkix9hoY=", "properties": {"@source_uri": "https://tools.usps.com/UspsToolsRestServices/rest/POLocator/findLocations", "@spider": "usps_collection_boxes", "addr:city": "BURNETT", "addr:country": "US", "addr:postcode": "53922", "addr:state": "WI", "addr:street_address": "N8528 2ND ST", "amenity": "post_box", "collection_times": "Sa 09:30", "nsi_id": "unitedstatespostalservice-a77078", "operator": "United States Postal Service", "operator:short": "USPS", "operator:type": "public", "operator:wikidata": "Q668687", "ref": "5392200000"}, "type": "Feature"}
{"geometry": {"coordinates": [-88.707154, 43.50383], "type": "Point"}, "id": "cwEATimTQQsdaGIZrmi-XDqkz0Y=", "properties": {"@source_uri": "https://tools.usps.com/UspsToolsRestServices/rest/POLocator/findLocations", "@spider": "usps_collection_boxes", "addr:city": "BURNETT", "addr:country": "US", "addr:postcode": "53922", "addr:state": "WI", "addr:street_address": "N8528 2ND ST", "amenity": "post_box", "collection_times": "Mo-Fr 11:30; Sa 09:30", "indoor": "yes", "nsi_id": "unitedstatespostalservice-a77078", "operator": "United States Postal Service", "operator:short": "USPS", "operator:type": "public", "operator:wikidata": "Q668687", "ref": "5392200001"}, "type": "Feature"}
{"geometry": {"coordinates": [-88.707152098, 43.503830612], "type": "Point"}, "id": "C12ey6AafNCWUD1v3UaZtK_kjoQ=", "properties": {"@source_uri": "https://tools.usps.com/UspsToolsRestServices/rest/POLocator/findLocations", "@spider": "usps_collection_boxes", "addr:city": "BURNETT", "addr:country": "US", "addr:postcode": "53922", "addr:state": "WI", "addr:street_address": "N8528 2ND ST", "amenity": "post_box", "collection_times": "Mo-Fr 11:30; Sa 09:30", "indoor": "yes", "nsi_id": "unitedstatespostalservice-a77078", "operator": "United States Postal Service", "operator:short": "USPS", "operator:type": "public", "operator:wikidata": "Q668687", "ref": "5392200003"}, "type": "Feature"}
{"geometry": {"coordinates": [-89.107781, 43.543191], "type": "Point"}, "id": "GVxOOSPwh9lNXOTNby3MkYwdIBE=", "properties": {"@source_uri": "https://tools.usps.com/UspsToolsRestServices/rest/POLocator/findLocations", "@spider": "usps_collection_boxes", "addr:city": "CAMBRIA", "addr:country": "US", "addr:postcode": "53923", "addr:state": "WI", "addr:street_address": "102 E EDGEWATER ST", "amenity": "post_box", "collection_times": "Mo-Fr 16:15; Sa 12:00", "note": "ON 12/24 AND 12/31, THIS BOX MAY BE COLLECTED AS EARLY AS 12 NOON.", "nsi_id": "unitedstatespostalservice-a77078", "operator": "United States Postal Service", "operator:short": "USPS", "operator:type": "public", "operator:wikidata": "Q668687", "ref": "5392300000"}, "type": "Feature"}
{"geometry": {"coordinates": [-89.107781, 43.543191], "type": "Point"}, "id": "XSS_Ou5H5XCQwhRauEPQw1eRAg0=", "properties": {"@source_uri": "https://tools.usps.com/UspsToolsRestServices/rest/POLocator/findLocations", "@spider": "usps_collection_boxes", "addr:city": "CAMBRIA", "addr:country": "US", "addr:postcode": "53923", "addr:state": "WI", "addr:street_address": "102 E EDGEWATER ST", "amenity": "post_box", "collection_times": "Mo-Fr 16:15; Sa 12:00", "indoor": "yes", "note": "ON 12/24 AND 12/31, THIS BOX MAY BE COLLECTED AS EARLY AS 12 NOON.", "nsi_id": "unitedstatespostalservice-a77078", "operator": "United States Postal Service", "operator:short": "USPS", "operator:type": "public", "operator:wikidata": "Q668687", "ref": "5392300001"}, "type": "Feature"}
{"geometry": {"coordinates": [-89.107579918, 43.543194499], "type": "Point"}, "id": "IfX_cUXeNDb83OqgHqFnX842XPA=", "properties": {"@source_uri": "https://tools.usps.com/UspsToolsRestServices/rest/POLocator/findLocations", "@spider": "usps_collection_boxes", "addr:city": "CAMBRIA", "addr:country": "US", "addr:postcode": "53923", "addr:state": "WI", "addr:street_address": "102 E EDGEWATER ST", "amenity": "post_box", "collection_times": "Mo-Fr 16:15; Sa 12:00", "indoor": "yes", "note": "ON 12/24 AND 12/31, THIS BOX MAY BE COLLECTED AS EARLY AS 12 NOON.", "nsi_id": "unitedstatespostalservice-a77078", "operator": "United States Postal Service", "operator:short": "USPS", "operator:type": "public", "operator:wikidata": "Q668687", "ref": "5392300003"}, "type": "Feature"}
{"geometry": {"coordinates": [-90.195741, 43.52308], "type": "Point"}, "id": "QkXK-W1gefRmbqLBLe933_L1o5U=", "properties": {"@source_uri": "https://tools.usps.com/UspsToolsRestServices/rest/POLocator/findLocations", "@spider": "usps_collection_boxes", "addr:city": "CAZENOVIA", "addr:country": "US", "addr:postcode": "53924", "addr:state": "WI", "addr:street_address": "104 E MAIN ST", "amenity": "post_box", "collection_times": "Mo-Fr 10:45; Sa 09:15", "nsi_id": "unitedstatespostalservice-a77078", "operator": "United States Postal Service", "operator:short": "USPS", "operator:type": "public", "operator:wikidata": "Q668687", "ref": "5392400000"}, "type": "Feature"}
{"geometry": {"coordinates": [-90.195741, 43.52308], "type": "Point"}, "id": "xSbBqUtdeBt780M9SyX-kligYqo=", "properties": {"@source_uri": "https://tools.usps.com/UspsToolsRestServices/rest/POLocator/findLocations", "@spider": "usps_collection_boxes", "addr:city": "CAZENOVIA", "addr:country": "US", "addr:postcode": "53924", "addr:state": "WI", "addr:street_address": "104 E MAIN ST", "amenity": "post_box", "collection_times": "Mo-Fr 10:45; Sa 09:15", "indoor": "yes", "nsi_id": "unitedstatespostalservice-a77078", "operator": "United States Postal Service", "operator:short": "USPS", "operator:type": "public", "operator:wikidata": "Q668687", "ref": "5392400002"}, "type": "Feature"}
{"geometry": {"coordinates": [-90.1967191, 43.5256924], "type": "Point"}, "id": "yBMd_Hql3aVnVkNW91vKhSFGUkc=", "properties": {"@source_uri": "https://tools.usps.com/UspsToolsRestServices/rest/POLocator/findLocations", "@spider": "usps_collection_boxes", "addr:city": "CAZENOVIA", "addr:country": "US", "addr:postcode": "53924", "addr:state": "WI", "addr:street_address": "104 E MAIN ST", "amenity": "post_box", "collection_times": "Mo-Fr 10:45; Sa 09:15", "indoor": "yes", "nsi_id": "unitedstatespostalservice-a77078", "operator": "United States Postal Service", "operator:short": "USPS", "operator:type": "public", "operator:wikidata": "Q668687", "ref": "5392400003"}, "type": "Feature"}
{"geometry": {"coordinates": [-89.0317991, 43.34524], "type": "Point"}, "id": "w6YlR0VluWrmDZy3eNHAgVXuYu4=", "properties": {"@source_uri": "https://tools.usps.com/UspsToolsRestServices/rest/POLocator/findLocations", "@spider": "usps_collection_boxes", "addr:city": "COLUMBUS", "addr:country": "US", "addr:postcode": "53925", "addr:state": "WI", "addr:street_address": "210 DIX ST", "amenity": "post_box", "collection_times": "Mo-Sa 10:00", "nsi_id": "unitedstatespostalservice-a77078", "operator": "United States Postal Service", "operator:short": "USPS", "operator:type": "public", "operator:wikidata": "Q668687", "ref": "5392500006"}, "type": "Feature"}
{"geometry": {"coordinates": [-89.0144573, 43.338396], "type": "Point"}, "id": "l7M_3nUlN-hxG7_oFYJTn1wj2I0=", "properties": {"@source_uri": "https://tools.usps.com/UspsToolsRestServices/rest/POLocator/findLocations", "@spider": "usps_collection_boxes", "addr:city": "COLUMBUS", "addr:country": "US", "addr:postcode": "53925", "addr:state": "WI", "addr:street_address": "114 N LUDINGTON ST", "amenity": "post_box", "collection_times": "Mo-Fr 14:45; Sa 09:15", "note": "ON 12/24 AND 12/31, THIS BOX MAY BE COLLECTED AS EARLY AS 12 NOON.", "nsi_id": "unitedstatespostalservice-a77078", "operator": "United States Postal Service", "operator:short": "USPS", "operator:type": "public", "operator:wikidata": "Q668687", "ref": "5392500008"}, "type": "Feature"}
{"geometry": {"coordinates": [-89.016773, 43.338045], "type": "Point"}, "id": "tq3DKMX8najp_b8aZ5jK0t__w1g=", "properties": {"@source_uri": "https://tools.usps.com/UspsToolsRestServices/rest/POLocator/findLocations", "@spider": "usps_collection_boxes", "addr:city": "COLUMBUS", "addr:country": "US", "addr:postcode": "53925", "addr:state": "WI", "addr:street_address": "211 S DICKASON BLVD", "amenity": "post_box", "collection_times": "Mo-Fr 16:45; Sa 11:00", "note": "ON 12/24 AND 12/31, THIS BOX MAY BE COLLECTED AS EARLY AS 12 NOON.", "nsi_id": "unitedstatespostalservice-a77078", "operator": "United States Postal Service", "operator:short": "USPS", "operator:type": "public", "operator:wikidata": "Q668687", "ref": "5392500012"}, "type": "Feature"}
{"geometry": {"coordinates": [-89.016773, 43.338045], "type": "Point"}, "id": "-Cu6_iZtSvJNdqslXoGFyZGRU_o=", "properties": {"@source_uri": "https://tools.usps.com/UspsToolsRestServices/rest/POLocator/findLocations", "@spider": "usps_collection_boxes", "addr:city": "COLUMBUS", "addr:country": "US", "addr:postcode": "53925", "addr:state": "WI", "addr:street_address": "211 S DICKASON BLVD", "amenity": "post_box", "collection_times": "Mo-Fr 16:45; Sa 11:00", "note": "ON 12/24 AND 12/31, THIS BOX MAY BE COLLECTED AS EARLY AS 12 NOON.", "nsi_id": "unitedstatespostalservice-a77078", "operator": "United States Postal Service", "operator:short": "USPS", "operator:type": "public", "operator:wikidata": "Q668687", "ref": "5392500013"}, "type": "Feature"}
{"geometry": {"coordinates": [-89.016773, 43.338045], "type": "Point"}, "id": "aSmAxOz74Fe1vaUk4Z8D47E488g=", "properties": {"@source_uri": "https://tools.usps.com/UspsToolsRestServices/rest/POLocator/findLocations", "@spider": "usps_collection_boxes", "addr:city": "COLUMBUS", "addr:country": "US", "addr:postcode": "53925", "addr:state": "WI", "addr:street_address": "211 S DICKASON BLVD", "amenity": "post_box", "collection_times": "Mo-Fr 17:00; Sa 11:00", "indoor": "yes", "note": "ON 12/24 AND 12/31, THIS BOX MAY BE COLLECTED AS EARLY AS 12 NOON.", "nsi_id": "unitedstatespostalservice-a77078", "operator": "United States Postal Service", "operator:short": "USPS", "operator:type": "public", "operator:wikidata": "Q668687", "ref": "5392500014"}, "type": "Feature"}
{"geometry": {"coordinates": [-89.0283604, 43.345939], "type": "Point"}, "id": "qLJtkS4Prga-HmZpBkhdyWJgP7Y=", "properties": {"@source_uri": "https://tools.usps.com/UspsToolsRestServices/rest/POLocator/findLocations", "@spider": "usps_collection_boxes", "addr:city": "COLUMBUS", "addr:country": "US", "addr:postcode": "53925", "addr:state": "WI", "addr:street_address": "104 INDUSTRIAL DR", "amenity": "post_box", "collection_times": "Mo-Sa 13:00", "note": "ON 12/24 AND 12/31, THIS BOX MAY BE COLLECTED AS EARLY AS 12 NOON.", "nsi_id": "unitedstatespostalservice-a77078", "operator": "United States Postal Service", "operator:short": "USPS", "operator:type": "public", "operator:wikidata": "Q668687", "ref": "5392500019"}, "type": "Feature"}
{"geometry": {"coordinates": [-89.023055, 43.337765], "type": "Point"}, "id": "FTlypFsiLF8AscPWy6ipfP2lK8k=", "properties": {"@source_uri": "https://tools.usps.com/UspsToolsRestServices/rest/POLocator/findLocations", "@spider": "usps_collection_boxes", "addr:city": "COLUMBUS", "addr:country": "US", "addr:postcode": "53925", "addr:state": "WI", "addr:street_address": "211 S DICKASON BLVD", "amenity": "post_box", "collection_times": "Mo-Fr 17:00; Sa 11:00", "indoor": "yes", "note": "ON 12/24 AND 12/31, THIS BOX MAY BE COLLECTED AS EARLY AS 12 NOON.", "nsi_id": "unitedstatespostalservice-a77078", "operator": "United States Postal Service", "operator:short": "USPS", "operator:type": "public", "operator:wikidata": "Q668687", "ref": "5392500020"}, "type": "Feature"}
{"geometry": {"coordinates": [-89.206511, 43.656067], "type": "Point"}, "id": "pagg5HPpKZ_LTUIQ7ZunY6qoXgY=", "properties": {"@source_uri": "https://tools.usps.com/UspsToolsRestServices/rest/POLocator/findLocations", "@spider": "usps_collection_boxes", "addr:city": "DALTON", "addr:country": "US", "addr:postcode": "53926", "addr:state": "WI", "addr:street_address": "N755 COUNTY ROAD FF", "amenity": "post_box", "collection_times": "Mo-Fr 11:30; Sa 09:30", "nsi_id": "unitedstatespostalservice-a77078", "operator": "United States Postal Service", "operator:short": "USPS", "operator:type": "public", "operator:wikidata": "Q668687", "ref": "5392600000"}, "type": "Feature"}
{"geometry": {"coordinates": [-89.206511, 43.656067], "type": "Point"}, "id": "YQYvJnBM9ZbNP2NGfYImZtC-8WM=", "properties": {"@source_uri": "https://tools.usps.com/UspsToolsRestServices/rest/POLocator/findLocations", "@spider": "usps_collection_boxes", "addr:city": "DALTON", "addr:country": "US", "addr:postcode": "53926", "addr:state": "WI", "addr:street_address": "N755 COUNTY ROAD FF", "amenity": "post_box", "collection_times": "Mo-Fr 11:30; Sa 09:45", "indoor": "yes", "nsi_id": "unitedstatespostalservice-a77078", "operator": "United States Postal Service", "operator:short": "USPS", "operator:type": "public", "operator:wikidata": "Q668687", "ref": "5392600001"}, "type": "Feature"}
{"geometry": {"coordinates": [-89.2039378, 43.6545004], "type": "Point"}, "id": "1lkTQK1oN949eQUUzHh_m6QpdWk=", "properties": {"@source_uri": "https://tools.usps.com/UspsToolsRestServices/rest/POLocator/findLocations", "@spider": "usps_collection_boxes", "addr:city": "DALTON", "addr:country": "US", "addr:postcode": "53926", "addr:state": "WI", "addr:street_address": "N755 COUNTY ROAD FF", "amenity": "post_box", "collection_times": "Mo-Fr 11:30; Sa 09:45", "indoor": "yes", "nsi_id": "unitedstatespostalservice-a77078", "operator": "United States Postal Service", "operator:short": "USPS", "operator:type": "public", "operator:wikidata": "Q668687", "ref": "5392600002"}, "type": "Feature"}
{"geometry": {"coordinates": [-89.149581, 43.427613], "type": "Point"}, "id": "Lao8X986Iqb8WozPkoQFLg572-w=", "properties": {"@source_uri": "https://tools.usps.com/UspsToolsRestServices/rest/POLocator/findLocations", "@spider": "usps_collection_boxes", "addr:city": "DOYLESTOWN", "addr:country": "US", "addr:postcode": "53928", "addr:state": "WI", "addr:street_address": "W2979 RAILROAD ST", "amenity": "post_box", "collection_times": "Mo-Fr 10:45; Sa 12:15", "note": "ON 12/24 AND 12/31, THIS BOX MAY BE COLLECTED AS EARLY AS 12 NOON.", "nsi_id": "unitedstatespostalservice-a77078", "operator": "United States Postal Service", "operator:short": "USPS", "operator:type": "public", "operator:wikidata": "Q668687", "ref": "5392800000"}, "type": "Feature"}
{"geometry": {"coordinates": [-89.149387, 43.427573], "type": "Point"}, "id": "9dGRMzWkyFhXaJT3oiv3l1xqG5M=", "properties": {"@source_uri": "https://tools.usps.com/UspsToolsRestServices/rest/POLocator/findLocations", "@spider": "usps_collection_boxes", "addr:city": "DOYLESTOWN", "addr:country": "US", "addr:postcode": "53928", "addr:state": "WI", "addr:street_address": "W2979 RAILROAD ST", "amenity": "post_box", "collection_times": "Mo-Fr 11:00; Sa 09:45", "indoor": "yes", "nsi_id": "unitedstatespostalservice-a77078", "operator": "United States Postal Service", "operator:short": "USPS", "operator:type": "public", "operator:wikidata": "Q668687", "ref": "5392800001"}, "type": "Feature"}
{"geometry": {"coordinates": [-89.149388967, 43.427565777], "type": "Point"}, "id": "KxTbekLTQzuinjyTLFrzHux39T0=", "properties": {"@source_uri": "https://tools.usps.com/UspsToolsRestServices/rest/POLocator/findLocations", "@spider": "usps_collection_boxes", "addr:city": "DOYLESTOWN", "addr:country": "US", "addr:postcode": "53928", "addr:state": "WI", "addr:street_address": "W2979 RAILROAD ST", "amenity": "post_box", "collection_times": "Mo-Fr 11:00; Sa 09:45", "indoor": "yes", "nsi_id": "unitedstatespostalservice-a77078", "operator": "United States Postal Service", "operator:short": "USPS", "operator:type": "public", "operator:wikidata": "Q668687", "ref": "5392800003"}, "type": "Feature"}
{"geometry": {"coordinates": [-90.27089348, 43.739327389], "type": "Point"}, "id": "7bjo0Q7XdnPO_d_A15UBt6lSIw4=", "properties": {"@source_uri": "https://tools.usps.com/UspsToolsRestServices/rest/POLocator/findLocations", "@spider": "usps_collection_boxes", "addr:city": "ELROY", "addr:country": "US", "addr:postcode": "53929", "addr:state": "WI", "addr:street_address": "266 MAIN ST", "amenity": "post_box", "collection_times": "Mo-Fr 16:00; Sa 10:00", "note": "ON 12/24 AND 12/31, THIS BOX MAY BE COLLECTED AS EARLY AS 12 NOON.", "nsi_id": "unitedstatespostalservice-a77078", "operator": "United States Postal Service", "operator:short": "USPS", "operator:type": "public", "operator:wikidata": "Q668687", "ref": "5392900000"}, "type": "Feature"}
{"geometry": {"coordinates": [-90.27089348, 43.739327389], "type": "Point"}, "id": "6LJNiQ5uMZeuxAjIP7ytLBTTSG4=", "properties": {"@source_uri": "https://tools.usps.com/UspsToolsRestServices/rest/POLocator/findLocations", "@spider": "usps_collection_boxes", "addr:city": "ELROY", "addr:country": "US", "addr:postcode": "53929", "addr:state": "WI", "addr:street_address": "266 MAIN ST", "amenity": "post_box", "collection_times": "Mo-Fr 16:00; Sa 10:00", "indoor": "yes", "note": "ON 12/24 AND 12/31, THIS BOX MAY BE COLLECTED AS EARLY AS 12 NOON.", "nsi_id": "unitedstatespostalservice-a77078", "operator": "United States Postal Service", "operator:short": "USPS", "operator:type": "public", "operator:wikidata": "Q668687", "ref": "5392900005"}, "type": "Feature"}
{"geometry": {"coordinates": [-90.27089348, 43.739327389], "type": "Point"}, "id": "1xgFx1LiycG5YYLySvLCeq_gfcI=", "properties": {"@source_uri": "https://tools.usps.com/UspsToolsRestServices/rest/POLocator/findLocations", "@spider": "usps_collection_boxes", "addr:city": "ELROY", "addr:country": "US", "addr:postcode": "53929", "addr:state": "WI", "addr:street_address": "266 MAIN ST", "amenity": "post_box", "collection_times": "Mo-Fr 16:00; Sa 10:00", "indoor": "yes", "note": "ON 12/24 AND 12/31, THIS BOX MAY BE COLLECTED AS EARLY AS 12 NOON.", "nsi_id": "unitedstatespostalservice-a77078", "operator": "United States Postal Service", "operator:short": "USPS", "operator:type": "public", "operator:wikidata": "Q668687", "ref": "5392900007"}, "type": "Feature"}
{"geometry": {"coordinates": [-89.466178, 43.715483], "type": "Point"}, "id": "lmlskPf1NiRWu7IwVwhQ12DJCv8=", "properties": {"@source_uri": "https://tools.usps.com/UspsToolsRestServices/rest/POLocator/findLocations", "@spider": "usps_collection_boxes", "addr:city": "ENDEAVOR", "addr:country": "US", "addr:postcode": "53930", "addr:state": "WI", "addr:street_address": "121 PARK ST", "amenity": "post_box", "collection_times": "Mo-Fr 11:00; Sa 09:30", "nsi_id": "unitedstatespostalservice-a77078", "operator": "United States Postal Service", "operator:short": "USPS", "operator:type": "public", "operator:wikidata": "Q668687", "ref": "5393000001"}, "type": "Feature"}
{"geometry": {"coordinates": [-89.466178, 43.715483], "type": "Point"}, "id": "LOAeFqyLVvU2BeAvP2FEM2t2cSQ=", "properties": {"@source_uri": "https://tools.usps.com/UspsToolsRestServices/rest/POLocator/findLocations", "@spider": "usps_collection_boxes", "addr:city": "ENDEAVOR", "addr:country": "US", "addr:postcode": "53930", "addr:state": "WI", "addr:street_address": "121 PARK ST", "amenity": "post_box", "collection_times": "Mo-Fr 11:00; Sa 09:30", "indoor": "yes", "nsi_id": "unitedstatespostalservice-a77078", "operator": "United States Postal Service", "operator:short": "USPS", "operator:type": "public", "operator:wikidata": "Q668687", "ref": "5393000002"}, "type": "Feature"}
{"geometry": {"coordinates": [-89.466178, 43.715483], "type": "Point"}, "id": "RrRvU1ygb8kK6RcPsNfMerl-A_k=", "properties": {"@source_uri": "https://tools.usps.com/UspsToolsRestServices/rest/POLocator/findLocations", "@spider": "usps_collection_boxes", "addr:city": "ENDEAVOR", "addr:country": "US", "addr:postcode": "53930", "addr:state": "WI", "addr:street_address": "121 PARK ST", "amenity": "post_box", "collection_times": "Mo-Fr 11:00; Sa 09:30", "indoor": "yes", "nsi_id": "unitedstatespostalservice-a77078", "operator": "United States Postal Service", "operator:short": "USPS", "operator:type": "public", "operator:wikidata": "Q668687", "ref": "5393000003"}, "type": "Feature"}
{"geometry": {"coordinates": [-89.4662029, 43.70272], "type": "Point"}, "id": "qqVPLdysnA43vuB71lWuIDOX2RA=", "properties": {"@source_uri": "https://tools.usps.com/UspsToolsRestServices/rest/POLocator/findLocations", "@spider": "usps_collection_boxes", "addr:city": "ENDEAVOR", "addr:country": "US", "addr:postcode": "53930", "addr:state": "WI", "addr:street_address": "N1777 COUNTY ROAD CX", "amenity": "post_box", "collection_times": "Mo-Sa 11:00", "nsi_id": "unitedstatespostalservice-a77078", "operator": "United States Postal Service", "operator:short": "USPS", "operator:type": "public", "operator:wikidata": "Q668687", "ref": "5393000004"}, "type": "Feature"}
{"geometry": {"coordinates": [-89.466183577, 43.715472549], "type": "Point"}, "id": "F1Xu0SUPqBASHkUM636y3vQe4Yk=", "properties": {"@source_uri": "https://tools.usps.com/UspsToolsRestServices/rest/POLocator/findLocations", "@spider": "usps_collection_boxes", "addr:city": "ENDEAVOR", "addr:country": "US", "addr:postcode": "53930", "addr:state": "WI", "addr:street_address": "121 PARK ST", "amenity": "post_box", "collection_times": "Mo-Fr 11:00; Sa 09:30", "indoor": "yes", "nsi_id": "unitedstatespostalservice-a77078", "operator": "United States Postal Service", "operator:short": "USPS", "operator:type": "public", "operator:wikidata": "Q668687", "ref": "5393000005"}, "type": "Feature"}
{"geometry": {"coordinates": [-88.865604, 43.743065], "type": "Point"}, "id": "bPGXe5FBltO63ZVTfuEAO0QMp5g=", "properties": {"@source_uri": "https://tools.usps.com/UspsToolsRestServices/rest/POLocator/findLocations", "@spider": "usps_collection_boxes", "addr:city": "FAIRWATER", "addr:country": "US", "addr:postcode": "53931", "addr:state": "WI", "addr:street_address": "409 MAIN ST", "amenity": "post_box", "collection_times": "Mo-Fr 16:00; Sa 08:30", "note": "ON 12/24 AND 12/31, THIS BOX MAY BE COLLECTED AS EARLY AS 12 NOON.", "nsi_id": "unitedstatespostalservice-a77078", "operator": "United States Postal Service", "operator:short": "USPS", "operator:type": "public", "operator:wikidata": "Q668687", "ref": "5393100000"}, "type": "Feature"}
{"geometry": {"coordinates": [-88.865567, 43.742992], "type": "Point"}, "id": "v45onraQ4qnfXvxz25lG5CIq_Ek=", "properties": {"@source_uri": "https://tools.usps.com/UspsToolsRestServices/rest/POLocator/findLocations", "@spider": "usps_collection_boxes", "addr:city": "FAIRWATER", "addr:country": "US", "addr:postcode": "53931", "addr:state": "WI", "addr:street_address": "409 MAIN ST", "amenity": "post_box", "collection_times": "Mo-Fr 16:00; Sa 08:30", "indoor": "yes", "note": "ON 12/24 AND 12/31, THIS BOX MAY BE COLLECTED AS EARLY AS 12 NOON.", "nsi_id": "unitedstatespostalservice-a77078", "operator": "United States Postal Service", "operator:short": "USPS", "operator:type": "public", "operator:wikidata": "Q668687", "ref": "5393100001"}, "type": "Feature"}
{"geometry": {"coordinates": [-88.865608562, 43.743096], "type": "Point"}, "id": "Dtp3AZfjXuFW1w9YIK-8bi5h4PM=", "properties": {"@source_uri": "https://tools.usps.com/UspsToolsRestServices/rest/POLocator/findLocations", "@spider": "usps_collection_boxes", "addr:city": "FAIRWATER", "addr:country": "US", "addr:postcode": "53931", "addr:state": "WI", "addr:street_address": "409 MAIN ST", "amenity": "post_box", "collection_times": "Mo-Fr 16:00; Sa 08:30", "indoor": "yes", "note": "ON 12/24 AND 12/31, THIS BOX MAY BE COLLECTED AS EARLY AS 12 NOON.", "nsi_id": "unitedstatespostalservice-a77078", "operator": "United States Postal Service", "operator:short": "USPS", "operator:type": "public", "operator:wikidata": "Q668687", "ref": "5393100002"}, "type": "Feature"}
{"geometry": {"coordinates": [-89.067127, 43.380895], "type": "Point"}, "id": "tuA3gHb1zabyZXQm9786ScBqvRQ=", "properties": {"@source_uri": "https://tools.usps.com/UspsToolsRestServices/rest/POLocator/findLocations", "@spider": "usps_collection_boxes", "addr:city": "FALL RIVER", "addr:country": "US", "addr:postcode": "53932", "addr:state": "WI", "addr:street_address": "203 STEEL RD", "amenity": "post_box", "collection_times": "Mo-Fr 15:00; Sa 10:00", "note": "ON 12/24 AND 12/31, THIS BOX MAY BE COLLECTED AS EARLY AS 12 NOON.", "nsi_id": "unitedstatespostalservice-a77078", "operator": "United States Postal Service", "operator:short": "USPS", "operator:type": "public", "operator:wikidata": "Q668687", "ref": "5393200002"}, "type": "Feature"}
{"geometry": {"coordinates": [-89.067127, 43.380895], "type": "Point"}, "id": "qK956FJQnYXuMXytfdCcZ6la9WM=", "properties": {"@source_uri": "https://tools.usps.com/UspsToolsRestServices/rest/POLocator/findLocations", "@spider": "usps_collection_boxes", "addr:city": "FALL RIVER", "addr:country": "US", "addr:postcode": "53932", "addr:state": "WI", "addr:street_address": "203 STEEL RD", "amenity": "post_box", "collection_times": "Mo-Fr 15:00; Sa 10:00", "indoor": "yes", "note": "ON 12/24 AND 12/31, THIS BOX MAY BE COLLECTED AS EARLY AS 12 NOON.", "nsi_id": "unitedstatespostalservice-a77078", "operator": "United States Postal Service", "operator:short": "USPS", "operator:type": "public", "operator:wikidata": "Q668687", "ref": "5393200003"}, "type": "Feature"}
{"geometry": {"coordinates": [-89.0577595, 43.380857], "type": "Point"}, "id": "PzEMeD71Hh8N0SAYoA5QekJPeQQ=", "properties": {"@source_uri": "https://tools.usps.com/UspsToolsRestServices/rest/POLocator/findLocations", "@spider": "usps_collection_boxes", "addr:city": "FALL RIVER", "addr:country": "US", "addr:postcode": "53932", "addr:state": "WI", "addr:street_address": "637 S MAIN ST", "amenity": "post_box", "collection_times": "Mo-Sa 11:30", "nsi_id": "unitedstatespostalservice-a77078", "operator": "United States Postal Service", "operator:short": "USPS", "operator:type": "public", "operator:wikidata": "Q668687", "ref": "5393200004"}, "type": "Feature"}
{"geometry": {"coordinates": [-89.066695322, 43.380805758], "type": "Point"}, "id": "93yQwB24dEPrr8Q5SttPjRiE7oc=", "properties": {"@source_uri": "https://tools.usps.com/UspsToolsRestServices/rest/POLocator/findLocations", "@spider": "usps_collection_boxes", "addr:city": "FALL RIVER", "addr:country": "US", "addr:postcode": "53932", "addr:state": "WI", "addr:street_address": "203 STEEL RD", "amenity": "post_box", "collection_times": "Mo-Fr 15:00; Sa 10:00", "indoor": "yes", "note": "ON 12/24 AND 12/31, THIS BOX MAY BE COLLECTED AS EARLY AS 12 NOON.", "nsi_id": "unitedstatespostalservice-a77078", "operator": "United States Postal Service", "operator:short": "USPS", "operator:type": "public", "operator:wikidata": "Q668687", "ref": "5393200005"}, "type": "Feature"}
{"geometry": {"coordinates": [-88.909891, 43.565961], "type": "Point"}, "id": "loLPME_n4uvs00dXkgHEgdVZ6jU=", "properties": {"@source_uri": "https://tools.usps.com/UspsToolsRestServices/rest/POLocator/findLocations", "@spider": "usps_collection_boxes", "addr:city": "FOX LAKE", "addr:country": "US", "addr:postcode": "53933", "addr:state": "WI", "addr:street_address": "310 W STATE ST", "amenity": "post_box", "collection_times": "Mo-Fr 15:45; Sa 11:00", "note": "ON 12/24 AND 12/31, THIS BOX MAY BE COLLECTED AS EARLY AS 12 NOON.", "nsi_id": "unitedstatespostalservice-a77078", "operator": "United States Postal Service", "operator:short": "USPS", "operator:type": "public", "operator:wikidata": "Q668687", "ref": "5393300000"}, "type": "Feature"}
{"geometry": {"coordinates": [-88.909891, 43.565961], "type": "Point"}, "id": "K0IiEVdn2VrC8ct6bAAZvj_5vyk=", "properties": {"@source_uri": "https://tools.usps.com/UspsToolsRestServices/rest/POLocator/findLocations", "@spider": "usps_collection_boxes", "addr:city": "FOX LAKE", "addr:country": "US", "addr:postcode": "53933", "addr:state": "WI", "addr:street_address": "310 W STATE ST", "amenity": "post_box", "collection_times": "Mo-Fr 15:45; Sa 11:00", "indoor": "yes", "note": "ON 12/24 AND 12/31, THIS BOX MAY BE COLLECTED AS EARLY AS 12 NOON.", "nsi_id": "unitedstatespostalservice-a77078", "operator": "United States Postal Service", "operator:short": "USPS", "operator:type": "public", "operator:wikidata": "Q668687", "ref": "5393300002"}, "type": "Feature"}
{"geometry": {"coordinates": [-88.909891, 43.565961], "type": "Point"}, "id": "tFl27O-f1AjfVrmaDB_kGs357Gk=", "properties": {"@source_uri": "https://tools.usps.com/UspsToolsRestServices/rest/POLocator/findLocations", "@spider": "usps_collection_boxes", "addr:city": "FOX LAKE", "addr:country": "US", "addr:postcode": "53933", "addr:state": "WI", "addr:street_address": "310 W STATE ST", "amenity": "post_box", "collection_times": "Mo-Fr 15:45; Sa 11:00", "indoor": "yes", "note": "ON 12/24 AND 12/31, THIS BOX MAY BE COLLECTED AS EARLY AS 12 NOON.", "nsi_id": "unitedstatespostalservice-a77078", "operator": "United States Postal Service", "operator:short": "USPS", "operator:type": "public", "operator:wikidata": "Q668687", "ref": "5393300003"}, "type": "Feature"}
{"geometry": {"coordinates": [-88.909892749, 43.56596147], "type": "Point"}, "id": "MkJGDnyvClfL712nw-pjZvyGhQM=", "properties": {"@source_uri": "https://tools.usps.com/UspsToolsRestServices/rest/POLocator/findLocations", "@spider": "usps_collection_boxes", "addr:city": "FOX LAKE", "addr:country": "US", "addr:postcode": "53933", "addr:state": "WI", "addr:street_address": "310 W STATE ST", "amenity": "post_box", "collection_times": "Mo-Fr 15:45; Sa 11:00", "indoor": "yes", "note": "ON 12/24 AND 12/31, THIS BOX MAY BE COLLECTED AS EARLY AS 12 NOON.", "nsi_id": "unitedstatespostalservice-a77078", "operator": "United States Postal Service", "operator:short": "USPS", "operator:type": "public", "operator:wikidata": "Q668687", "ref": "5393300004"}, "type": "Feature"}
{"geometry": {"coordinates": [-89.816239, 43.971398], "type": "Point"}, "id": "KfuGDtlRJmSOZKCvMVYtPAvoKhU=", "properties": {"@source_uri": "https://tools.usps.com/UspsToolsRestServices/rest/POLocator/findLocations", "@spider": "usps_collection_boxes", "addr:city": "FRIENDSHIP", "addr:country": "US", "addr:postcode": "53934", "addr:state": "WI", "addr:street_address": "315 MAIN ST", "amenity": "post_box", "collection_times": "Mo-Fr 15:45; Sa 10:45", "note": "ON 12/24 AND 12/31, THIS BOX MAY BE COLLECTED AS EARLY AS 12 NOON.", "nsi_id": "unitedstatespostalservice-a77078", "operator": "United States Postal Service", "operator:short": "USPS", "operator:type": "public", "operator:wikidata": "Q668687", "ref": "5393400000"}, "type": "Feature"}
{"geometry": {"coordinates": [-89.816239, 43.971398], "type": "Point"}, "id": "dreP5A2PxGc4ddJHmQcvOZqcCH0=", "properties": {"@source_uri": "https://tools.usps.com/UspsToolsRestServices/rest/POLocator/findLocations", "@spider": "usps_collection_boxes", "addr:city": "FRIENDSHIP", "addr:country": "US", "addr:postcode": "53934", "addr:state": "WI", "addr:street_address": "315 MAIN ST", "amenity": "post_box", "collection_times": "Mo-Fr 15:45; Sa 10:45", "indoor": "yes", "note": "ON 12/24 AND 12/31, THIS BOX MAY BE COLLECTED AS EARLY AS 12 NOON.", "nsi_id": "unitedstatespostalservice-a77078", "operator": "United States Postal Service", "operator:short": "USPS", "operator:type": "public", "operator:wikidata": "Q668687", "ref": "5393400001"}, "type": "Feature"}
{"geometry": {"coordinates": [-89.81623916, 43.971397743], "type": "Point"}, "id": "l69pqSIUvtpppBTdBDTpU6U3_hI=", "properties": {"@source_uri": "https://tools.usps.com/UspsToolsRestServices/rest/POLocator/findLocations", "@spider": "usps_collection_boxes", "addr:city": "FRIENDSHIP", "addr:country": "US", "addr:postcode": "53934", "addr:state": "WI", "addr:street_address": "315 MAIN ST", "amenity": "post_box", "collection_times": "Mo-Fr 15:45; Sa 10:45", "indoor": "yes", "note": "ON 12/24 AND 12/31, THIS BOX MAY BE COLLECTED AS EARLY AS 12 NOON.", "nsi_id": "unitedstatespostalservice-a77078", "operator": "United States Postal Service", "operator:short": "USPS", "operator:type": "public", "operator:wikidata": "Q668687", "ref": "5393400003"}, "type": "Feature"}
{"geometry": {"coordinates": [-89.067144, 43.587243], "type": "Point"}, "id": "iFKzBoFXBiD-dJ6701LxiF_iEOw=", "properties": {"@source_uri": "https://tools.usps.com/UspsToolsRestServices/rest/POLocator/findLocations", "@spider": "usps_collection_boxes", "addr:city": "FRIESLAND", "addr:country": "US", "addr:postcode": "53935", "addr:state": "WI", "addr:street_address": "113 S MADISON ST", "amenity": "post_box", "collection_times": "Mo-Fr 11:15; Sa 08:45", "nsi_id": "unitedstatespostalservice-a77078", "operator": "United States Postal Service", "operator:short": "USPS", "operator:type": "public", "operator:wikidata": "Q668687", "ref": "5393500000"}, "type": "Feature"}
{"geometry": {"coordinates": [-89.067109, 43.587153], "type": "Point"}, "id": "c3KR_vIrYF34HIXzveojqk5K5i4=", "properties": {"@source_uri": "https://tools.usps.com/UspsToolsRestServices/rest/POLocator/findLocations", "@spider": "usps_collection_boxes", "addr:city": "FRIESLAND", "addr:country": "US", "addr:postcode": "53935", "addr:state": "WI", "addr:street_address": "113 S MADISON ST", "amenity": "post_box", "collection_times": "Mo-Fr 11:15; Sa 09:00", "indoor": "yes", "nsi_id": "unitedstatespostalservice-a77078", "operator": "United States Postal Service", "operator:short": "USPS", "operator:type": "public", "operator:wikidata": "Q668687", "ref": "5393500001"}, "type": "Feature"}
{"geometry": {"coordinates": [-89.0676838, 43.588683], "type": "Point"}, "id": "lmwmbxiRaBtFranoN5OIiVRrXsU=", "properties": {"@source_uri": "https://tools.usps.com/UspsToolsRestServices/rest/POLocator/findLocations", "@spider": "usps_collection_boxes", "addr:city": "FRIESLAND", "addr:country": "US", "addr:postcode": "53935", "addr:state": "WI", "addr:street_address": "114 W WINNEBAGO ST", "amenity": "post_box", "collection_times": "Mo-Sa 12:30", "note": "ON 12/24 AND 12/31, THIS BOX MAY BE COLLECTED AS EARLY AS 12 NOON.", "nsi_id": "unitedstatespostalservice-a77078", "operator": "United States Postal Service", "operator:short": "USPS", "operator:type": "public", "operator:wikidata": "Q668687", "ref": "5393500003"}, "type": "Feature"}
{"geometry": {"coordinates": [-89.067148377, 43.587225031], "type": "Point"}, "id": "qTLAgQkkgTFKarB8shUk4ogee8A=", "properties": {"@source_uri": "https://tools.usps.com/UspsToolsRestServices/rest/POLocator/findLocations", "@spider": "usps_collection_boxes", "addr:city": "FRIESLAND", "addr:country": "US", "addr:postcode": "53935", "addr:state": "WI", "addr:street_address": "113 S MADISON ST", "amenity": "post_box", "collection_times": "Mo-Fr 11:15; Sa 09:00", "indoor": "yes", "nsi_id": "unitedstatespostalservice-a77078", "operator": "United States Postal Service", "operator:short": "USPS", "operator:type": "public", "operator:wikidata": "Q668687", "ref": "5393500004"}, "type": "Feature"}
{"geometry": {"coordinates": [-89.7063689817, 43.8871550206], "type": "Point"}, "id": "aD3LrLiIKnU5UOg4icI4igLMXFA=", "properties": {"@source_uri": "https://tools.usps.com/UspsToolsRestServices/rest/POLocator/findLocations", "@spider": "usps_collection_boxes", "addr:city": "GRAND MARSH", "addr:country": "US", "addr:postcode": "53936", "addr:state": "WI", "addr:street_address": "644 COUNTY ROAD E", "amenity": "post_box", "collection_times": "Mo-Fr 13:45; Sa 10:30", "note": "ON 12/24 AND 12/31, THIS BOX MAY BE COLLECTED AS EARLY AS 12 NOON.", "nsi_id": "unitedstatespostalservice-a77078", "operator": "United States Postal Service", "operator:short": "USPS", "operator:type": "public", "operator:wikidata": "Q668687", "ref": "5393600000"}, "type": "Feature"}
{"geometry": {"coordinates": [-89.7063689817, 43.8871550206], "type": "Point"}, "id": "NBWspehOc5mMGNG3mG63K9N26MI=", "properties": {"@source_uri": "https://tools.usps.com/UspsToolsRestServices/rest/POLocator/findLocations", "@spider": "usps_collection_boxes", "addr:city": "GRAND MARSH", "addr:country": "US", "addr:postcode": "53936", "addr:state": "WI", "addr:street_address": "644 COUNTY ROAD E", "amenity": "post_box", "collection_times": "Mo-Fr 13:45; Sa 10:30", "indoor": "yes", "note": "ON 12/24 AND 12/31, THIS BOX MAY BE COLLECTED AS EARLY AS 12 NOON.", "nsi_id": "unitedstatespostalservice-a77078", "operator": "United States Postal Service", "operator:short": "USPS", "operator:type": "public", "operator:wikidata": "Q668687", "ref": "5393600001"}, "type": "Feature"}
{"geometry": {"coordinates": [-89.7063689817, 43.8871550206], "type": "Point"}, "id": "WVljzyOrDieZoBQzGhoqKVniiio=", "properties": {"@source_uri": "https://tools.usps.com/UspsToolsRestServices/rest/POLocator/findLocations", "@spider": "usps_collection_boxes", "addr:city": "GRAND MARSH", "addr:country": "US", "addr:postcode": "53936", "addr:state": "WI", "addr:street_address": "644 COUNTY ROAD E", "amenity": "post_box", "collection_times": "Mo-Fr 13:45; Sa 10:30", "indoor": "yes", "note": "ON 12/24 AND 12/31, THIS BOX MAY BE COLLECTED AS EARLY AS 12 NOON.", "nsi_id": "unitedstatespostalservice-a77078", "operator": "United States Postal Service", "operator:short": "USPS", "operator:type": "public", "operator:wikidata": "Q668687", "ref": "5393600002"}, "type": "Feature"}
{"geometry": {"coordinates": [-89.7063689817, 43.8871550206], "type": "Point"}, "id": "VeEmDnlGRoDW-7ftMNln4KD4TDg=", "properties": {"@source_uri": "https://tools.usps.com/UspsToolsRestServices/rest/POLocator/findLocations", "@spider": "usps_collection_boxes", "addr:city": "GRAND MARSH", "addr:country": "US", "addr:postcode": "53936", "addr:state": "WI", "addr:street_address": "644 COUNTY ROAD E", "amenity": "post_box", "collection_times": "Mo-Fr 13:45; Sa 10:30", "indoor": "yes", "note": "ON 12/24 AND 12/31, THIS BOX MAY BE COLLECTED AS EARLY AS 12 NOON.", "nsi_id": "unitedstatespostalservice-a77078", "operator": "United States Postal Service", "operator:short": "USPS", "operator:type": "public", "operator:wikidata": "Q668687", "ref": "5393600004"}, "type": "Feature"}
{"geometry": {"coordinates": [-90.112409, 43.424539], "type": "Point"}, "id": "BqpM9iJezbntBy6-TmUJNabAk3U=", "properties": {"@source_uri": "https://tools.usps.com/UspsToolsRestServices/rest/POLocator/findLocations", "@spider": "usps_collection_boxes", "addr:city": "HILLPOINT", "addr:country": "US", "addr:postcode": "53937", "addr:state": "WI", "addr:street_address": "S6071 STATE ROAD 154", "amenity": "post_box", "collection_times": "Mo-Fr 11:15; Sa 09:30", "nsi_id": "unitedstatespostalservice-a77078", "operator": "United States Postal Service", "operator:short": "USPS", "operator:type": "public", "operator:wikidata": "Q668687", "ref": "5393700000"}, "type": "Feature"}
{"geometry": {"coordinates": [-90.112409, 43.424539], "type": "Point"}, "id": "Vlogw5wMdxHvx1qWwR3SQ-5968I=", "properties": {"@source_uri": "https://tools.usps.com/UspsToolsRestServices/rest/POLocator/findLocations", "@spider": "usps_collection_boxes", "addr:city": "HILLPOINT", "addr:country": "US", "addr:postcode": "53937", "addr:state": "WI", "addr:street_address": "S6071 STATE ROAD 154", "amenity": "post_box", "collection_times": "Mo-Fr 11:15; Sa 09:30", "indoor": "yes", "nsi_id": "unitedstatespostalservice-a77078", "operator": "United States Postal Service", "operator:short": "USPS", "operator:type": "public", "operator:wikidata": "Q668687", "ref": "5393700001"}, "type": "Feature"}
{"geometry": {"coordinates": [-90.112408814, 43.424486832], "type": "Point"}, "id": "Maw9e6ph7ICAuCIVL5VTQz2UH28=", "properties": {"@source_uri": "https://tools.usps.com/UspsToolsRestServices/rest/POLocator/findLocations", "@spider": "usps_collection_boxes", "addr:city": "HILLPOINT", "addr:country": "US", "addr:postcode": "53937", "addr:state": "WI", "addr:street_address": "S6071 STATE ROAD 154", "amenity": "post_box", "collection_times": "Mo-Fr 11:15; Sa 09:30", "indoor": "yes", "nsi_id": "unitedstatespostalservice-a77078", "operator": "United States Postal Service", "operator:short": "USPS", "operator:type": "public", "operator:wikidata": "Q668687", "ref": "5393700002"}, "type": "Feature"}
{"geometry": {"coordinates": [-89.127785, 43.694748], "type": "Point"}, "id": "qPHw0yUKle-Y6RT5yNql69qnhlc=", "properties": {"@source_uri": "https://tools.usps.com/UspsToolsRestServices/rest/POLocator/findLocations", "@spider": "usps_collection_boxes", "addr:city": "KINGSTON", "addr:country": "US", "addr:postcode": "53939", "addr:state": "WI", "addr:street_address": "150 N SOUTH ST", "amenity": "post_box", "collection_times": "Mo-Fr 16:00; Sa 09:30", "note": "ON 12/24 AND 12/31, THIS BOX MAY BE COLLECTED AS EARLY AS 12 NOON.", "nsi_id": "unitedstatespostalservice-a77078", "operator": "United States Postal Service", "operator:short": "USPS", "operator:type": "public", "operator:wikidata": "Q668687", "ref": "5393900000"}, "type": "Feature"}
{"geometry": {"coordinates": [-89.127747, 43.694807], "type": "Point"}, "id": "ZbemhmFFY5EHYprV4vyGRqRX1jQ=", "properties": {"@source_uri": "https://tools.usps.com/UspsToolsRestServices/rest/POLocator/findLocations", "@spider": "usps_collection_boxes", "addr:city": "KINGSTON", "addr:country": "US", "addr:postcode": "53939", "addr:state": "WI", "addr:street_address": "150 N SOUTH ST", "amenity": "post_box", "collection_times": "Mo-Fr 16:15; Sa 09:45", "indoor": "yes", "note": "ON 12/24 AND 12/31, THIS BOX MAY BE COLLECTED AS EARLY AS 12 NOON.", "nsi_id": "unitedstatespostalservice-a77078", "operator": "United States Postal Service", "operator:short": "USPS", "operator:type": "public", "operator:wikidata": "Q668687", "ref": "5393900001"}, "type": "Feature"}
{"geometry": {"coordinates": [-89.127790504, 43.69473], "type": "Point"}, "id": "vlfycXJ8fcFGcy2SE4iQ9YiAdmM=", "properties": {"@source_uri": "https://tools.usps.com/UspsToolsRestServices/rest/POLocator/findLocations", "@spider": "usps_collection_boxes", "addr:city": "KINGSTON", "addr:country": "US", "addr:postcode": "53939", "addr:state": "WI", "addr:street_address": "150 N SOUTH ST", "amenity": "post_box", "collection_times": "Mo-Fr 16:15; Sa 09:45", "indoor": "yes", "note": "ON 12/24 AND 12/31, THIS BOX MAY BE COLLECTED AS EARLY AS 12 NOON.", "nsi_id": "unitedstatespostalservice-a77078", "operator": "United States Postal Service", "operator:short": "USPS", "operator:type": "public", "operator:wikidata": "Q668687", "ref": "5393900003"}, "type": "Feature"}
{"geometry": {"coordinates": [-89.793062, 43.590196], "type": "Point"}, "id": "G23tMnL_Hvi7fsJBvbrU5koJxqU=", "properties": {"@source_uri": "https://tools.usps.com/UspsToolsRestServices/rest/POLocator/findLocations", "@spider": "usps_collection_boxes", "addr:city": "LAKE DELTON", "addr:country": "US", "addr:postcode": "53940", "addr:state": "WI", "addr:street_address": "49 E ADAMS ST", "amenity": "post_box", "collection_times": "Mo-Fr 17:00; Sa 11:30", "note": "ON 12/24 AND 12/31, THIS BOX MAY BE COLLECTED AS EARLY AS 12 NOON.", "nsi_id": "unitedstatespostalservice-a77078", "operator": "United States Postal Service", "operator:short": "USPS", "operator:type": "public", "operator:wikidata": "Q668687", "ref": "5394000001"}, "type": "Feature"}
{"geometry": {"coordinates": [-89.793067, 43.590169], "type": "Point"}, "id": "OIb8X5FemjW08-xIdF8-8YOsIrc=", "properties": {"@source_uri": "https://tools.usps.com/UspsToolsRestServices/rest/POLocator/findLocations", "@spider": "usps_collection_boxes", "addr:city": "LAKE DELTON", "addr:country": "US", "addr:postcode": "53940", "addr:state": "WI", "addr:street_address": "49 E ADAMS ST", "amenity": "post_box", "collection_times": "Mo-Fr 17:00; Sa 11:30", "indoor": "yes", "note": "ON 12/24 AND 12/31, THIS BOX MAY BE COLLECTED AS EARLY AS 12 NOON.", "nsi_id": "unitedstatespostalservice-a77078", "operator": "United States Postal Service", "operator:short": "USPS", "operator:type": "public", "operator:wikidata": "Q668687", "ref": "5394000002"}, "type": "Feature"}
{"geometry": {"coordinates": [-89.793067, 43.590169], "type": "Point"}, "id": "2OTQ0S1ZCsaKiYZCvxhshxvLZSI=", "properties": {"@source_uri": "https://tools.usps.com/UspsToolsRestServices/rest/POLocator/findLocations", "@spider": "usps_collection_boxes", "addr:city": "LAKE DELTON", "addr:country": "US", "addr:postcode": "53940", "addr:state": "WI", "addr:street_address": "49 E ADAMS ST", "amenity": "post_box", "collection_times": "Mo-Fr 16:45; Sa 11:30", "indoor": "yes", "note": "ON 12/24 AND 12/31, THIS BOX MAY BE COLLECTED AS EARLY AS 12 NOON.", "nsi_id": "unitedstatespostalservice-a77078", "operator": "United States Postal Service", "operator:short": "USPS", "operator:type": "public", "operator:wikidata": "Q668687", "ref": "5394000003"}, "type": "Feature"}
{"geometry": {"coordinates": [-89.793067, 43.590169], "type": "Point"}, "id": "dyhW5WNgOYST-VjgfunJGr6dI0g=", "properties": {"@source_uri": "https://tools.usps.com/UspsToolsRestServices/rest/POLocator/findLocations", "@spider": "usps_collection_boxes", "addr:city": "LAKE DELTON", "addr:country": "US", "addr:postcode": "53940", "addr:state": "WI", "addr:street_address": "49 E ADAMS ST", "amenity": "post_box", "collection_times": "Mo-Fr 16:45; Sa 11:30", "indoor": "yes", "note": "ON 12/24 AND 12/31, THIS BOX MAY BE COLLECTED AS EARLY AS 12 NOON.", "nsi_id": "unitedstatespostalservice-a77078", "operator": "United States Postal Service", "operator:short": "USPS", "operator:type": "public", "operator:wikidata": "Q668687", "ref": "5394000004"}, "type": "Feature"}
{"geometry": {"coordinates": [-89.792402359, 43.590162519], "type": "Point"}, "id": "rgMJk3t4_cPicO95fGz3kiK-nts=", "properties": {"@source_uri": "https://tools.usps.com/UspsToolsRestServices/rest/POLocator/findLocations", "@spider": "usps_collection_boxes", "addr:city": "LAKE DELTON", "addr:country": "US", "addr:postcode": "53940", "addr:state": "WI", "addr:street_address": "49 E ADAMS ST", "amenity": "post_box", "collection_times": "Mo-Fr 17:00; Sa 11:30", "indoor": "yes", "note": "ON 12/24 AND 12/31, THIS BOX MAY BE COLLECTED AS EARLY AS 12 NOON.", "nsi_id": "unitedstatespostalservice-a77078", "operator": "United States Postal Service", "operator:short": "USPS", "operator:type": "public", "operator:wikidata": "Q668687", "ref": "5394000005"}, "type": "Feature"}
{"geometry": {"coordinates": [-90.129457907, 43.5821903], "type": "Point"}, "id": "xMaX3pITTSVTpjfhLhR-_D0yPTA=", "properties": {"@source_uri": "https://tools.usps.com/UspsToolsRestServices/rest/POLocator/findLocations", "@spider": "usps_collection_boxes", "addr:city": "LA VALLE", "addr:country": "US", "addr:postcode": "53941", "addr:state": "WI", "addr:street_address": "106 E MAIN ST", "amenity": "post_box", "collection_times": "Mo-Fr 12:15; Sa 10:15", "note": "ON 12/24 AND 12/31, THIS BOX MAY BE COLLECTED AS EARLY AS 12 NOON.", "nsi_id": "unitedstatespostalservice-a77078", "operator": "United States Postal Service", "operator:short": "USPS", "operator:type": "public", "operator:wikidata": "Q668687", "ref": "5394100000"}, "type": "Feature"}
{"geometry": {"coordinates": [-90.129457907, 43.5821903], "type": "Point"}, "id": "umgKbBmOblVo5WBUctkg4_XnORM=", "properties": {"@source_uri": "https://tools.usps.com/UspsToolsRestServices/rest/POLocator/findLocations", "@spider": "usps_collection_boxes", "addr:city": "LA VALLE", "addr:country": "US", "addr:postcode": "53941", "addr:state": "WI", "addr:street_address": "106 E MAIN ST", "amenity": "post_box", "collection_times": "Mo-Fr 12:15; Sa 10:30", "indoor": "yes", "note": "ON 12/24 AND 12/31, THIS BOX MAY BE COLLECTED AS EARLY AS 12 NOON.", "nsi_id": "unitedstatespostalservice-a77078", "operator": "United States Postal Service", "operator:short": "USPS", "operator:type": "public", "operator:wikidata": "Q668687", "ref": "5394100002"}, "type": "Feature"}
{"geometry": {"coordinates": [-90.126195561, 43.590803136], "type": "Point"}, "id": "pdecfbT4ugCz1cB6q9733JscHC0=", "properties": {"@source_uri": "https://tools.usps.com/UspsToolsRestServices/rest/POLocator/findLocations", "@spider": "usps_collection_boxes", "addr:city": "LA VALLE", "addr:country": "US", "addr:postcode": "53941", "addr:state": "WI", "addr:street_address": "S1428A STATE ROAD 33", "amenity": "post_box", "collection_times": "Mo-Sa 12:00", "nsi_id": "unitedstatespostalservice-a77078", "operator": "United States Postal Service", "operator:short": "USPS", "operator:type": "public", "operator:wikidata": "Q668687", "ref": "5394100003"}, "type": "Feature"}
{"geometry": {"coordinates": [-90.129457907, 43.5821903], "type": "Point"}, "id": "NPK_PmEz0T01WCfchERMT3cnZ14=", "properties": {"@source_uri": "https://tools.usps.com/UspsToolsRestServices/rest/POLocator/findLocations", "@spider": "usps_collection_boxes", "addr:city": "LA VALLE", "addr:country": "US", "addr:postcode": "53941", "addr:state": "WI", "addr:street_address": "106 E MAIN ST", "amenity": "post_box", "collection_times": "Mo-Fr 12:15; Sa 10:30", "indoor": "yes", "note": "ON 12/24 AND 12/31, THIS BOX MAY BE COLLECTED AS EARLY AS 12 NOON.", "nsi_id": "unitedstatespostalservice-a77078", "operator": "United States Postal Service", "operator:short": "USPS", "operator:type": "public", "operator:wikidata": "Q668687", "ref": "5394100004"}, "type": "Feature"}
{"geometry": {"coordinates": [-90.155465, 43.467888], "type": "Point"}, "id": "m4XarMgeuGd6W-KW8navtUpMQr0=", "properties": {"@source_uri": "https://tools.usps.com/UspsToolsRestServices/rest/POLocator/findLocations", "@spider": "usps_collection_boxes", "addr:city": "LIMERIDGE", "addr:country": "US", "addr:postcode": "53942", "addr:state": "WI", "addr:street_address": "104 N MAIN ST", "amenity": "post_box", "collection_times": "Mo-Fr 16:00; Sa 09:00", "note": "ON 12/24 AND 12/31, THIS BOX MAY BE COLLECTED AS EARLY AS 12 NOON.", "nsi_id": "unitedstatespostalservice-a77078", "operator": "United States Postal Service", "operator:short": "USPS", "operator:type": "public", "operator:wikidata": "Q668687", "ref": "5394200000"}, "type": "Feature"}
{"geometry": {"coordinates": [-90.155465, 43.467888], "type": "Point"}, "id": "Y6ifUpH9z52Pu9r_UnxhYJ4kqDM=", "properties": {"@source_uri": "https://tools.usps.com/UspsToolsRestServices/rest/POLocator/findLocations", "@spider": "usps_collection_boxes", "addr:city": "LIMERIDGE", "addr:country": "US", "addr:postcode": "53942", "addr:state": "WI", "addr:street_address": "104 N MAIN ST", "amenity": "post_box", "collection_times": "Mo-Fr 16:00; Sa 09:00", "indoor": "yes", "note": "ON 12/24 AND 12/31, THIS BOX MAY BE COLLECTED AS EARLY AS 12 NOON.", "nsi_id": "unitedstatespostalservice-a77078", "operator": "United States Postal Service", "operator:short": "USPS", "operator:type": "public", "operator:wikidata": "Q668687", "ref": "5394200001"}, "type": "Feature"}
{"geometry": {"coordinates": [-90.15547, 43.46806], "type": "Point"}, "id": "xiOp4xNyrC2buZvSyrFrjZKqmEE=", "properties": {"@source_uri": "https://tools.usps.com/UspsToolsRestServices/rest/POLocator/findLocations", "@spider": "usps_collection_boxes", "addr:city": "LIMERIDGE", "addr:country": "US", "addr:postcode": "53942", "addr:state": "WI", "addr:street_address": "104 N MAIN ST", "amenity": "post_box", "collection_times": "Mo-Fr 16:00; Sa 09:00", "indoor": "yes", "note": "ON 12/24 AND 12/31, THIS BOX MAY BE COLLECTED AS EARLY AS 12 NOON.", "nsi_id": "unitedstatespostalservice-a77078", "operator": "United States Postal Service", "operator:short": "USPS", "operator:type": "public", "operator:wikidata": "Q668687", "ref": "5394200002"}, "type": "Feature"}
{"geometry": {"coordinates": [-90.037671, 43.440406], "type": "Point"}, "id": "gk5UUaDfyxGpCssD6UF_6c1rWac=", "properties": {"@source_uri": "https://tools.usps.com/UspsToolsRestServices/rest/POLocator/findLocations", "@spider": "usps_collection_boxes", "addr:city": "LOGANVILLE", "addr:country": "US", "addr:postcode": "53943", "addr:state": "WI", "addr:street_address": "245 WALNUT ST", "amenity": "post_box", "collection_times": "Mo-Fr 11:15; Sa 09:30", "nsi_id": "unitedstatespostalservice-a77078", "operator": "United States Postal Service", "operator:short": "USPS", "operator:type": "public", "operator:wikidata": "Q668687", "ref": "5394300000"}, "type": "Feature"}
{"geometry": {"coordinates": [-90.037671, 43.440406], "type": "Point"}, "id": "qmoSB3fdjcdad4Jbye0-TW3bXn8=", "properties": {"@source_uri": "https://tools.usps.com/UspsToolsRestServices/rest/POLocator/findLocations", "@spider": "usps_collection_boxes", "addr:city": "LOGANVILLE", "addr:country": "US", "addr:postcode": "53943", "addr:state": "WI", "addr:street_address": "245 WALNUT ST", "amenity": "post_box", "collection_times": "Mo-Fr 11:15; Sa 09:45", "indoor": "yes", "nsi_id": "unitedstatespostalservice-a77078", "operator": "United States Postal Service", "operator:short": "USPS", "operator:type": "public", "operator:wikidata": "Q668687", "ref": "5394300001"}, "type": "Feature"}
{"geometry": {"coordinates": [-90.0376515, 43.4404065], "type": "Point"}, "id": "rWg57v9fZYNjkvDNP5tqFZjHetQ=", "properties": {"@source_uri": "https://tools.usps.com/UspsToolsRestServices/rest/POLocator/findLocations", "@spider": "usps_collection_boxes", "addr:city": "LOGANVILLE", "addr:country": "US", "addr:postcode": "53943", "addr:state": "WI", "addr:street_address": "245 WALNUT ST", "amenity": "post_box", "collection_times": "Mo-Fr 11:15; Sa 09:45", "indoor": "yes", "nsi_id": "unitedstatespostalservice-a77078", "operator": "United States Postal Service", "operator:short": "USPS", "operator:type": "public", "operator:wikidata": "Q668687", "ref": "5394300003"}, "type": "Feature"}
{"geometry": {"coordinates": [-89.898383, 43.709868], "type": "Point"}, "id": "UaOYtuH7iZNZ-DoBNK2xMScH9MM=", "properties": {"@source_uri": "https://tools.usps.com/UspsToolsRestServices/rest/POLocator/findLocations", "@spider": "usps_collection_boxes", "addr:city": "LYNDON STATION", "addr:country": "US", "addr:postcode": "53944", "addr:state": "WI", "addr:street_address": "107 N WASHINGTON ST", "amenity": "post_box", "collection_times": "Mo-Fr 12:00; Sa 09:45", "nsi_id": "unitedstatespostalservice-a77078", "operator": "United States Postal Service", "operator:short": "USPS", "operator:type": "public", "operator:wikidata": "Q668687", "ref": "5394400000"}, "type": "Feature"}
{"geometry": {"coordinates": [-89.897576, 43.709231], "type": "Point"}, "id": "OoUTW1LwgFZ64cbZz-VSAXTga0k=", "properties": {"@source_uri": "https://tools.usps.com/UspsToolsRestServices/rest/POLocator/findLocations", "@spider": "usps_collection_boxes", "addr:city": "LYNDON STATION", "addr:country": "US", "addr:postcode": "53944", "addr:state": "WI", "addr:street_address": "300 E FLINT ST", "amenity": "post_box", "collection_times": "Mo-Fr 12:00; Sa 10:00", "indoor": "yes", "nsi_id": "unitedstatespostalservice-a77078", "operator": "United States Postal Service", "operator:short": "USPS", "operator:type": "public", "operator:wikidata": "Q668687", "ref": "5394400001"}, "type": "Feature"}
{"geometry": {"coordinates": [-89.9001625571, 43.71197469], "type": "Point"}, "id": "x3ZIP2BZfiK-r8GZHL4NypU_ITc=", "properties": {"@source_uri": "https://tools.usps.com/UspsToolsRestServices/rest/POLocator/findLocations", "@spider": "usps_collection_boxes", "addr:city": "LYNDON STATION", "addr:country": "US", "addr:postcode": "53944", "addr:state": "WI", "addr:street_address": "166 N WISCONSIN ST", "amenity": "post_box", "collection_times": "Mo-Sa 11:00", "nsi_id": "unitedstatespostalservice-a77078", "operator": "United States Postal Service", "operator:short": "USPS", "operator:type": "public", "operator:wikidata": "Q668687", "ref": "5394400003"}, "type": "Feature"}
{"geometry": {"coordinates": [-89.897568727, 43.709260544], "type": "Point"}, "id": "KVgTx3EjJ6GmFBaOykb2vCKN__E=", "properties": {"@source_uri": "https://tools.usps.com/UspsToolsRestServices/rest/POLocator/findLocations", "@spider": "usps_collection_boxes", "addr:city": "LYNDON STATION", "addr:country": "US", "addr:postcode": "53944", "addr:state": "WI", "addr:street_address": "300 E FLINT ST", "amenity": "post_box", "collection_times": "Mo-Fr 12:00; Sa 10:00", "indoor": "yes", "nsi_id": "unitedstatespostalservice-a77078", "operator": "United States Postal Service", "operator:short": "USPS", "operator:type": "public", "operator:wikidata": "Q668687", "ref": "5394400004"}, "type": "Feature"}
{"geometry": {"coordinates": [-88.990649, 43.71499], "type": "Point"}, "id": "wN82fvmlqT_mp15qa2FhN6X6Cao=", "properties": {"@source_uri": "https://tools.usps.com/UspsToolsRestServices/rest/POLocator/findLocations", "@spider": "usps_collection_boxes", "addr:city": "MARKESAN", "addr:country": "US", "addr:postcode": "53946", "addr:state": "WI", "addr:street_address": "735 N MARGARET ST", "amenity": "post_box", "collection_times": "Mo-Fr 16:15; Sa 11:00", "note": "ON 12/24 AND 12/31, THIS BOX MAY BE COLLECTED AS EARLY AS 12 NOON.", "nsi_id": "unitedstatespostalservice-a77078", "operator": "United States Postal Service", "operator:short": "USPS", "operator:type": "public", "operator:wikidata": "Q668687", "ref": "5394600000"}, "type": "Feature"}
{"geometry": {"coordinates": [-88.990649, 43.71499], "type": "Point"}, "id": "8ObySgR6DLi_ik667WQqS9FWcdQ=", "properties": {"@source_uri": "https://tools.usps.com/UspsToolsRestServices/rest/POLocator/findLocations", "@spider": "usps_collection_boxes", "addr:city": "MARKESAN", "addr:country": "US", "addr:postcode": "53946", "addr:state": "WI", "addr:street_address": "735 N MARGARET ST", "amenity": "post_box", "collection_times": "Mo-Fr 16:15; Sa 11:00", "indoor": "yes", "note": "ON 12/24 AND 12/31, THIS BOX MAY BE COLLECTED AS EARLY AS 12 NOON.", "nsi_id": "unitedstatespostalservice-a77078", "operator": "United States Postal Service", "operator:short": "USPS", "operator:type": "public", "operator:wikidata": "Q668687", "ref": "5394600003"}, "type": "Feature"}
{"geometry": {"coordinates": [-88.990659531, 43.714853696], "type": "Point"}, "id": "UJ7lyXYMgqNNxQPAXtEIF9eU6ys=", "properties": {"@source_uri": "https://tools.usps.com/UspsToolsRestServices/rest/POLocator/findLocations", "@spider": "usps_collection_boxes", "addr:city": "MARKESAN", "addr:country": "US", "addr:postcode": "53946", "addr:state": "WI", "addr:street_address": "735 N MARGARET ST", "amenity": "post_box", "collection_times": "Mo-Fr 16:15; Sa 11:00", "indoor": "yes", "note": "ON 12/24 AND 12/31, THIS BOX MAY BE COLLECTED AS EARLY AS 12 NOON.", "nsi_id": "unitedstatespostalservice-a77078", "operator": "United States Postal Service", "operator:short": "USPS", "operator:type": "public", "operator:wikidata": "Q668687", "ref": "5394600005"}, "type": "Feature"}
{"geometry": {"coordinates": [-89.139537, 43.747894], "type": "Point"}, "id": "Ks3f-Va85CyAlqIanHXRjEP9hnw=", "properties": {"@source_uri": "https://tools.usps.com/UspsToolsRestServices/rest/POLocator/findLocations", "@spider": "usps_collection_boxes", "addr:city": "MARQUETTE", "addr:country": "US", "addr:postcode": "53947", "addr:state": "WI", "addr:street_address": "126 S LYON ST", "amenity": "post_box", "collection_times": "Mo-Fr 10:30; Sa 09:45", "nsi_id": "unitedstatespostalservice-a77078", "operator": "United States Postal Service", "operator:short": "USPS", "operator:type": "public", "operator:wikidata": "Q668687", "ref": "5394700000"}, "type": "Feature"}
{"geometry": {"coordinates": [-89.139501, 43.747936], "type": "Point"}, "id": "Br2a8LZx8nzpgwQu2nU_LYmwUzs=", "properties": {"@source_uri": "https://tools.usps.com/UspsToolsRestServices/rest/POLocator/findLocations", "@spider": "usps_collection_boxes", "addr:city": "MARQUETTE", "addr:country": "US", "addr:postcode": "53947", "addr:state": "WI", "addr:street_address": "126 S LYON ST", "amenity": "post_box", "collection_times": "Mo-Fr 10:30; Sa 11:15", "indoor": "yes", "nsi_id": "unitedstatespostalservice-a77078", "operator": "United States Postal Service", "operator:short": "USPS", "operator:type": "public", "operator:wikidata": "Q668687", "ref": "5394700001"}, "type": "Feature"}
{"geometry": {"coordinates": [-89.13957808, 43.747767], "type": "Point"}, "id": "ijAdF_H6gREiskbf8KNcU8ewMno=", "properties": {"@source_uri": "https://tools.usps.com/UspsToolsRestServices/rest/POLocator/findLocations", "@spider": "usps_collection_boxes", "addr:city": "MARQUETTE", "addr:country": "US", "addr:postcode": "53947", "addr:state": "WI", "addr:street_address": "126 S LYON ST", "amenity": "post_box", "collection_times": "Mo-Fr 10:30; Sa 11:15", "indoor": "yes", "nsi_id": "unitedstatespostalservice-a77078", "operator": "United States Postal Service", "operator:short": "USPS", "operator:type": "public", "operator:wikidata": "Q668687", "ref": "5394700002"}, "type": "Feature"}
{"geometry": {"coordinates": [-90.067306417, 43.79773418], "type": "Point"}, "id": "rNsL7rEIsQPAsIKaF9zpOgpGmTU=", "properties": {"@source_uri": "https://tools.usps.com/UspsToolsRestServices/rest/POLocator/findLocations", "@spider": "usps_collection_boxes", "addr:city": "MAUSTON", "addr:country": "US", "addr:postcode": "53948", "addr:state": "WI", "addr:street_address": "503 GATEWAY AVE", "amenity": "post_box", "collection_times": "Mo-Sa 13:00", "note": "ON 12/24 AND 12/31, THIS BOX MAY BE COLLECTED AS EARLY AS 12 NOON.", "nsi_id": "unitedstatespostalservice-a77078", "operator": "United States Postal Service", "operator:short": "USPS", "operator:type": "public", "operator:wikidata": "Q668687", "ref": "5394800000"}, "type": "Feature"}
{"geometry": {"coordinates": [-90.0602594499, 43.7966064189], "type": "Point"}, "id": "LpYJV0z894KpJu4iL35DNyeJZsw=", "properties": {"@source_uri": "https://tools.usps.com/UspsToolsRestServices/rest/POLocator/findLocations", "@spider": "usps_collection_boxes", "addr:city": "MAUSTON", "addr:country": "US", "addr:postcode": "53948", "addr:state": "WI", "addr:street_address": "611 GATEWAY AVE", "amenity": "post_box", "collection_times": "Mo-Sa 13:00", "note": "ON 12/24 AND 12/31, THIS BOX MAY BE COLLECTED AS EARLY AS 12 NOON.", "nsi_id": "unitedstatespostalservice-a77078", "operator": "United States Postal Service", "operator:short": "USPS", "operator:type": "public", "operator:wikidata": "Q668687", "ref": "5394800002"}, "type": "Feature"}
{"geometry": {"coordinates": [-90.0701362058, 43.8058956611], "type": "Point"}, "id": "nqpWcY2vCaYZV9PvLGsBZumjU3o=", "properties": {"@source_uri": "https://tools.usps.com/UspsToolsRestServices/rest/POLocator/findLocations", "@spider": "usps_collection_boxes", "addr:city": "MAUSTON", "addr:country": "US", "addr:postcode": "53948", "addr:state": "WI", "addr:street_address": "750 N UNION ST", "amenity": "post_box", "collection_times": "Mo-Sa 14:00", "note": "ON 12/24 AND 12/31, THIS BOX MAY BE COLLECTED AS EARLY AS 12 NOON.", "nsi_id": "unitedstatespostalservice-a77078", "operator": "United States Postal Service", "operator:short": "USPS", "operator:type": "public", "operator:wikidata": "Q668687", "ref": "5394800003"}, "type": "Feature"}
{"geometry": {"coordinates": [-90.087003323, 43.802427334], "type": "Point"}, "id": "E2scbZRc3t2uDbiJHeJLG4Oh_Cg=", "properties": {"@source_uri": "https://tools.usps.com/UspsToolsRestServices/rest/POLocator/findLocations", "@spider": "usps_collection_boxes", "addr:city": "MAUSTON", "addr:country": "US", "addr:postcode": "53948", "addr:state": "WI", "addr:street_address": "904 W STATE ST", "amenity": "post_box", "collection_times": "Mo-Sa 11:00", "nsi_id": "unitedstatespostalservice-a77078", "operator": "United States Postal Service", "operator:short": "USPS", "operator:type": "public", "operator:wikidata": "Q668687", "ref": "5394800008"}, "type": "Feature"}
{"geometry": {"coordinates": [-90.071189786, 43.794415344], "type": "Point"}, "id": "B7K7bwAAoCnL24WLQL87abRzvBE=", "properties": {"@source_uri": "https://tools.usps.com/UspsToolsRestServices/rest/POLocator/findLocations", "@spider": "usps_collection_boxes", "addr:city": "MAUSTON", "addr:country": "US", "addr:postcode": "53948", "addr:state": "WI", "addr:street_address": "536 LA CROSSE ST", "amenity": "post_box", "collection_times": "Mo-Fr 16:30; Sa 11:30", "note": "ON 12/24 AND 12/31, THIS BOX MAY BE COLLECTED AS EARLY AS 12 NOON.", "nsi_id": "unitedstatespostalservice-a77078", "operator": "United States Postal Service", "operator:short": "USPS", "operator:type": "public", "operator:wikidata": "Q668687", "ref": "5394800012"}, "type": "Feature"}
{"geometry": {"coordinates": [-90.071189786, 43.794415344], "type": "Point"}, "id": "wKMuypsbsvnkomkr7-lmtTsUSJQ=", "properties": {"@source_uri": "https://tools.usps.com/UspsToolsRestServices/rest/POLocator/findLocations", "@spider": "usps_collection_boxes", "addr:city": "MAUSTON", "addr:country": "US", "addr:postcode": "53948", "addr:state": "WI", "addr:street_address": "536 LA CROSSE ST", "amenity": "post_box", "collection_times": "Mo-Fr 16:30; Sa 11:30", "indoor": "yes", "note": "ON 12/24 AND 12/31, THIS BOX MAY BE COLLECTED AS EARLY AS 12 NOON.", "nsi_id": "unitedstatespostalservice-a77078", "operator": "United States Postal Service", "operator:short": "USPS", "operator:type": "public", "operator:wikidata": "Q668687", "ref": "5394800020"}, "type": "Feature"}
{"geometry": {"coordinates": [-90.071189786, 43.794415344], "type": "Point"}, "id": "zPDOS6EiSgKWWq-O4fuwV_M5Q2M=", "properties": {"@source_uri": "https://tools.usps.com/UspsToolsRestServices/rest/POLocator/findLocations", "@spider": "usps_collection_boxes", "addr:city": "MAUSTON", "addr:country": "US", "addr:postcode": "53948", "addr:state": "WI", "addr:street_address": "536 LA CROSSE ST", "amenity": "post_box", "collection_times": "Mo-Fr 16:30; Sa 11:30", "indoor": "yes", "note": "ON 12/24 AND 12/31, THIS BOX MAY BE COLLECTED AS EARLY AS 12 NOON.", "nsi_id": "unitedstatespostalservice-a77078", "operator": "United States Postal Service", "operator:short": "USPS", "operator:type": "public", "operator:wikidata": "Q668687", "ref": "5394800021"}, "type": "Feature"}
{"geometry": {"coordinates": [-89.325349, 43.791947], "type": "Point"}, "id": "6hVlEeRUZYYJ0IAn_vnajTYG9rg=", "properties": {"@source_uri": "https://tools.usps.com/UspsToolsRestServices/rest/POLocator/findLocations", "@spider": "usps_collection_boxes", "addr:city": "MONTELLO", "addr:country": "US", "addr:postcode": "53949", "addr:state": "WI", "addr:street_address": "109 E MONTELLO ST", "amenity": "post_box", "collection_times": "Mo-Fr 16:45; Sa 11:00", "note": "ON 12/24 AND 12/31, THIS BOX MAY BE COLLECTED AS EARLY AS 12 NOON.", "nsi_id": "unitedstatespostalservice-a77078", "operator": "United States Postal Service", "operator:short": "USPS", "operator:type": "public", "operator:wikidata": "Q668687", "ref": "5394900000"}, "type": "Feature"}
{"geometry": {"coordinates": [-89.325349, 43.791947], "type": "Point"}, "id": "-MOzz7W1b81hjBqE1DpazzCLIbA=", "properties": {"@source_uri": "https://tools.usps.com/UspsToolsRestServices/rest/POLocator/findLocations", "@spider": "usps_collection_boxes", "addr:city": "MONTELLO", "addr:country": "US", "addr:postcode": "53949", "addr:state": "WI", "addr:street_address": "109 E MONTELLO ST", "amenity": "post_box", "collection_times": "Mo-Fr 16:45; Sa 11:00", "indoor": "yes", "note": "ON 12/24 AND 12/31, THIS BOX MAY BE COLLECTED AS EARLY AS 12 NOON.", "nsi_id": "unitedstatespostalservice-a77078", "operator": "United States Postal Service", "operator:short": "USPS", "operator:type": "public", "operator:wikidata": "Q668687", "ref": "5394900003"}, "type": "Feature"}
{"geometry": {"coordinates": [-89.3255817, 43.783738], "type": "Point"}, "id": "KEcmZiLSyuBAmFNtSfFw6H1IhZU=", "properties": {"@source_uri": "https://tools.usps.com/UspsToolsRestServices/rest/POLocator/findLocations", "@spider": "usps_collection_boxes", "addr:city": "MONTELLO", "addr:country": "US", "addr:postcode": "53949", "addr:state": "WI", "addr:street_address": "326 MAIN ST", "amenity": "post_box", "collection_times": "Mo-Sa 13:15", "note": "ON 12/24 AND 12/31, THIS BOX MAY BE COLLECTED AS EARLY AS 12 NOON.", "nsi_id": "unitedstatespostalservice-a77078", "operator": "United States Postal Service", "operator:short": "USPS", "operator:type": "public", "operator:wikidata": "Q668687", "ref": "5394900004"}, "type": "Feature"}
{"geometry": {"coordinates": [-89.324679987, 43.791853347], "type": "Point"}, "id": "b44WBKektHSlOB7KijOjpEx7WOg=", "properties": {"@source_uri": "https://tools.usps.com/UspsToolsRestServices/rest/POLocator/findLocations", "@spider": "usps_collection_boxes", "addr:city": "MONTELLO", "addr:country": "US", "addr:postcode": "53949", "addr:state": "WI", "addr:street_address": "109 E MONTELLO ST", "amenity": "post_box", "collection_times": "Mo-Fr 16:45; Sa 11:00", "indoor": "yes", "note": "ON 12/24 AND 12/31, THIS BOX MAY BE COLLECTED AS EARLY AS 12 NOON.", "nsi_id": "unitedstatespostalservice-a77078", "operator": "United States Postal Service", "operator:short": "USPS", "operator:type": "public", "operator:wikidata": "Q668687", "ref": "5394900005"}, "type": "Feature"}
{"geometry": {"coordinates": [-90.166263, 43.879818], "type": "Point"}, "id": "JWFVJAEIZG-dpviegmcXNcUsRrw=", "properties": {"@source_uri": "https://tools.usps.com/UspsToolsRestServices/rest/POLocator/findLocations", "@spider": "usps_collection_boxes", "addr:city": "NEW LISBON", "addr:country": "US", "addr:postcode": "53950", "addr:state": "WI", "addr:street_address": "100 N ADAMS ST", "amenity": "post_box", "collection_times": "Mo-Fr 16:15; Sa 10:00", "note": "ON 12/24 AND 12/31, THIS BOX MAY BE COLLECTED AS EARLY AS 12 NOON.", "nsi_id": "unitedstatespostalservice-a77078", "operator": "United States Postal Service", "operator:short": "USPS", "operator:type": "public", "operator:wikidata": "Q668687", "ref": "5395000000"}, "type": "Feature"}
{"geometry": {"coordinates": [-90.0729989, 43.897707], "type": "Point"}, "id": "tpSmeS84VCaTLjXlgUjVYbkf6gU=", "properties": {"@source_uri": "https://tools.usps.com/UspsToolsRestServices/rest/POLocator/findLocations", "@spider": "usps_collection_boxes", "addr:city": "NEW LISBON", "addr:country": "US", "addr:postcode": "53950", "addr:state": "WI", "addr:street_address": "N7001 STATE HWY 58", "amenity": "post_box", "collection_times": "Mo-Sa 09:00", "nsi_id": "unitedstatespostalservice-a77078", "operator": "United States Postal Service", "operator:short": "USPS", "operator:type": "public", "operator:wikidata": "Q668687", "ref": "5395000005"}, "type": "Feature"}
{"geometry": {"coordinates": [-90.144048, 43.884746], "type": "Point"}, "id": "Z4Y9Z0J1yuzDECwIGtQ47JwAIZA=", "properties": {"@source_uri": "https://tools.usps.com/UspsToolsRestServices/rest/POLocator/findLocations", "@spider": "usps_collection_boxes", "addr:city": "NEW LISBON", "addr:country": "US", "addr:postcode": "53950", "addr:state": "WI", "addr:street_address": "1703 E BRIDGE ST", "amenity": "post_box", "collection_times": "Mo-Sa 09:00", "nsi_id": "unitedstatespostalservice-a77078", "operator": "United States Postal Service", "operator:short": "USPS", "operator:type": "public", "operator:wikidata": "Q668687", "ref": "5395000006"}, "type": "Feature"}
{"geometry": {"coordinates": [-90.0328347, 43.913836], "type": "Point"}, "id": "5gxQFiGNpkgznnXyFeYg4zSXJi0=", "properties": {"@source_uri": "https://tools.usps.com/UspsToolsRestServices/rest/POLocator/findLocations", "@spider": "usps_collection_boxes", "addr:city": "NEW LISBON", "addr:country": "US", "addr:postcode": "53950", "addr:state": "WI", "addr:street_address": "5240 N OSPREY DR", "amenity": "post_box", "collection_times": "Mo-Sa 09:00", "nsi_id": "unitedstatespostalservice-a77078", "operator": "United States Postal Service", "operator:short": "USPS", "operator:type": "public", "operator:wikidata": "Q668687", "ref": "5395000008"}, "type": "Feature"}
{"geometry": {"coordinates": [-90.1831417, 43.882754], "type": "Point"}, "id": "l0BhhIh-hE6J5uMU0MWgPC3pVRM=", "properties": {"@source_uri": "https://tools.usps.com/UspsToolsRestServices/rest/POLocator/findLocations", "@spider": "usps_collection_boxes", "addr:city": "NEW LISBON", "addr:country": "US", "addr:postcode": "53950", "addr:state": "WI", "addr:street_address": "201 LEER ST", "amenity": "post_box", "collection_times": "Mo-Sa 09:00", "nsi_id": "unitedstatespostalservice-a77078", "operator": "United States Postal Service", "operator:short": "USPS", "operator:type": "public", "operator:wikidata": "Q668687", "ref": "5395000011"}, "type": "Feature"}
{"geometry": {"coordinates": [-90.166263, 43.879818], "type": "Point"}, "id": "XRIQCHegdTrtyAtOp9P7wQXMTdA=", "properties": {"@source_uri": "https://tools.usps.com/UspsToolsRestServices/rest/POLocator/findLocations", "@spider": "usps_collection_boxes", "addr:city": "NEW LISBON", "addr:country": "US", "addr:postcode": "53950", "addr:state": "WI", "addr:street_address": "100 N ADAMS ST", "amenity": "post_box", "collection_times": "Mo-Fr 16:00; Sa 10:00", "indoor": "yes", "note": "ON 12/24 AND 12/31, THIS BOX MAY BE COLLECTED AS EARLY AS 12 NOON.", "nsi_id": "unitedstatespostalservice-a77078", "operator": "United States Postal Service", "operator:short": "USPS", "operator:type": "public", "operator:wikidata": "Q668687", "ref": "5395000012"}, "type": "Feature"}
{"geometry": {"coordinates": [-90.166263, 43.879818], "type": "Point"}, "id": "n5yBGsF0bPdx3Yn7U0cR2VVjjoQ=", "properties": {"@source_uri": "https://tools.usps.com/UspsToolsRestServices/rest/POLocator/findLocations", "@spider": "usps_collection_boxes", "addr:city": "NEW LISBON", "addr:country": "US", "addr:postcode": "53950", "addr:state": "WI", "addr:street_address": "100 N ADAMS ST", "amenity": "post_box", "collection_times": "Mo-Fr 16:00; Sa 10:00", "indoor": "yes", "note": "ON 12/24 AND 12/31, THIS BOX MAY BE COLLECTED AS EARLY AS 12 NOON.", "nsi_id": "unitedstatespostalservice-a77078", "operator": "United States Postal Service", "operator:short": "USPS", "operator:type": "public", "operator:wikidata": "Q668687", "ref": "5395000013"}, "type": "Feature"}
{"geometry": {"coordinates": [-90.1464223, 43.885619], "type": "Point"}, "id": "3WGTO5D_jr4Pb87W_jJpp956Fqc=", "properties": {"@source_uri": "https://tools.usps.com/UspsToolsRestServices/rest/POLocator/findLocations", "@spider": "usps_collection_boxes", "addr:city": "NEW LISBON", "addr:country": "US", "addr:postcode": "53950", "addr:state": "WI", "addr:street_address": "903 S ADAMS ST", "amenity": "post_box", "collection_times": "Mo-Sa 09:00", "nsi_id": "unitedstatespostalservice-a77078", "operator": "United States Postal Service", "operator:short": "USPS", "operator:type": "public", "operator:wikidata": "Q668687", "ref": "5395000014"}, "type": "Feature"}
{"geometry": {"coordinates": [-90.166264446, 43.879813659], "type": "Point"}, "id": "pcLHQrY-mXbhh9wckvE3QNoKqeQ=", "properties": {"@source_uri": "https://tools.usps.com/UspsToolsRestServices/rest/POLocator/findLocations", "@spider": "usps_collection_boxes", "addr:city": "NEW LISBON", "addr:country": "US", "addr:postcode": "53950", "addr:state": "WI", "addr:street_address": "100 N ADAMS ST", "amenity": "post_box", "collection_times": "Mo-Fr 16:00; Sa 10:00", "indoor": "yes", "note": "ON 12/24 AND 12/31, THIS BOX MAY BE COLLECTED AS EARLY AS 12 NOON.", "nsi_id": "unitedstatespostalservice-a77078", "operator": "United States Postal Service", "operator:short": "USPS", "operator:type": "public", "operator:wikidata": "Q668687", "ref": "5395000015"}, "type": "Feature"}
{"geometry": {"coordinates": [-89.8662630049, 43.4604560088], "type": "Point"}, "id": "lahc_CWuiKuj64vgFidWHj8LgXQ=", "properties": {"@source_uri": "https://tools.usps.com/UspsToolsRestServices/rest/POLocator/findLocations", "@spider": "usps_collection_boxes", "addr:city": "NORTH FREEDOM", "addr:country": "US", "addr:postcode": "53951", "addr:state": "WI", "addr:street_address": "102 E WALNUT ST", "amenity": "post_box", "collection_times": "Mo-Fr 11:30; Sa 09:45", "nsi_id": "unitedstatespostalservice-a77078", "operator": "United States Postal Service", "operator:short": "USPS", "operator:type": "public", "operator:wikidata": "Q668687", "ref": "5395100000"}, "type": "Feature"}
{"geometry": {"coordinates": [-89.86627, 43.460296], "type": "Point"}, "id": "mENdy74z6E8zh-20snAYGUyC3Rg=", "properties": {"@source_uri": "https://tools.usps.com/UspsToolsRestServices/rest/POLocator/findLocations", "@spider": "usps_collection_boxes", "addr:city": "NORTH FREEDOM", "addr:country": "US", "addr:postcode": "53951", "addr:state": "WI", "addr:street_address": "102 E WALNUT ST", "amenity": "post_box", "collection_times": "Mo-Fr 11:30; Sa 10:00", "indoor": "yes", "nsi_id": "unitedstatespostalservice-a77078", "operator": "United States Postal Service", "operator:short": "USPS", "operator:type": "public", "operator:wikidata": "Q668687", "ref": "5395100001"}, "type": "Feature"}
{"geometry": {"coordinates": [-89.8662735, 43.460294468], "type": "Point"}, "id": "56S79lq-KyfF6B_LFk8sB2UZoxY=", "properties": {"@source_uri": "https://tools.usps.com/UspsToolsRestServices/rest/POLocator/findLocations", "@spider": "usps_collection_boxes", "addr:city": "NORTH FREEDOM", "addr:country": "US", "addr:postcode": "53951", "addr:state": "WI", "addr:street_address": "102 E WALNUT ST", "amenity": "post_box", "collection_times": "Mo-Fr 11:30; Sa 10:00", "indoor": "yes", "nsi_id": "unitedstatespostalservice-a77078", "operator": "United States Postal Service", "operator:short": "USPS", "operator:type": "public", "operator:wikidata": "Q668687", "ref": "5395100003"}, "type": "Feature"}
{"geometry": {"coordinates": [-89.57221, 43.781497], "type": "Point"}, "id": "0osplLv6UUgwaYWZKvvBsV5ow0E=", "properties": {"@source_uri": "https://tools.usps.com/UspsToolsRestServices/rest/POLocator/findLocations", "@spider": "usps_collection_boxes", "addr:city": "OXFORD", "addr:country": "US", "addr:postcode": "53952", "addr:state": "WI", "addr:street_address": "119 E ORMSBY ST", "amenity": "post_box", "collection_times": "Mo-Fr 16:15; Sa 10:45", "note": "ON 12/24 AND 12/31, THIS BOX MAY BE COLLECTED AS EARLY AS 12 NOON.", "nsi_id": "unitedstatespostalservice-a77078", "operator": "United States Postal Service", "operator:short": "USPS", "operator:type": "public", "operator:wikidata": "Q668687", "ref": "5395200001"}, "type": "Feature"}
{"geometry": {"coordinates": [-89.57221, 43.781497], "type": "Point"}, "id": "sN5LQDVsrI7LUHbfV52ibKyW34s=", "properties": {"@source_uri": "https://tools.usps.com/UspsToolsRestServices/rest/POLocator/findLocations", "@spider": "usps_collection_boxes", "addr:city": "OXFORD", "addr:country": "US", "addr:postcode": "53952", "addr:state": "WI", "addr:street_address": "119 E ORMSBY ST", "amenity": "post_box", "collection_times": "Mo-Fr 16:15; Sa 11:00", "indoor": "yes", "note": "ON 12/24 AND 12/31, THIS BOX MAY BE COLLECTED AS EARLY AS 12 NOON.", "nsi_id": "unitedstatespostalservice-a77078", "operator": "United States Postal Service", "operator:short": "USPS", "operator:type": "public", "operator:wikidata": "Q668687", "ref": "5395200002"}, "type": "Feature"}
{"geometry": {"coordinates": [-89.572240398, 43.781440614], "type": "Point"}, "id": "WIMrOZcfHudoq_Nxq1w9qtS_QL8=", "properties": {"@source_uri": "https://tools.usps.com/UspsToolsRestServices/rest/POLocator/findLocations", "@spider": "usps_collection_boxes", "addr:city": "OXFORD", "addr:country": "US", "addr:postcode": "53952", "addr:state": "WI", "addr:street_address": "119 E ORMSBY ST", "amenity": "post_box", "collection_times": "Mo-Fr 16:15; Sa 11:00", "indoor": "yes", "note": "ON 12/24 AND 12/31, THIS BOX MAY BE COLLECTED AS EARLY AS 12 NOON.", "nsi_id": "unitedstatespostalservice-a77078", "operator": "United States Postal Service", "operator:short": "USPS", "operator:type": "public", "operator:wikidata": "Q668687", "ref": "5395200004"}, "type": "Feature"}
{"geometry": {"coordinates": [-89.4590037483, 43.7631342234], "type": "Point"}, "id": "a0wza6g_NZes84opsURQApneyvc=", "properties": {"@source_uri": "https://tools.usps.com/UspsToolsRestServices/rest/POLocator/findLocations", "@spider": "usps_collection_boxes", "addr:city": "PACKWAUKEE", "addr:country": "US", "addr:postcode": "53953", "addr:state": "WI", "addr:street_address": "W5981 MAIN ST", "amenity": "post_box", "collection_times": "Mo-Fr 16:00; Sa 09:00", "note": "ON 12/24 AND 12/31, THIS BOX MAY BE COLLECTED AS EARLY AS 12 NOON.", "nsi_id": "unitedstatespostalservice-a77078", "operator": "United States Postal Service", "operator:short": "USPS", "operator:type": "public", "operator:wikidata": "Q668687", "ref": "5395300000"}, "type": "Feature"}
{"geometry": {"coordinates": [-89.4590037483, 43.7631342234], "type": "Point"}, "id": "E8rHOUX8vmuTa_oEYDY2hdd8ZdY=", "properties": {"@source_uri": "https://tools.usps.com/UspsToolsRestServices/rest/POLocator/findLocations", "@spider": "usps_collection_boxes", "addr:city": "PACKWAUKEE", "addr:country": "US", "addr:postcode": "53953", "addr:state": "WI", "addr:street_address": "W5981 MAIN ST", "amenity": "post_box", "collection_times": "Mo-Fr 16:00; Sa 09:30", "indoor": "yes", "note": "ON 12/24 AND 12/31, THIS BOX MAY BE COLLECTED AS EARLY AS 12 NOON.", "nsi_id": "unitedstatespostalservice-a77078", "operator": "United States Postal Service", "operator:short": "USPS", "operator:type": "public", "operator:wikidata": "Q668687", "ref": "5395300001"}, "type": "Feature"}
{"geometry": {"coordinates": [-89.4590037483, 43.7631342234], "type": "Point"}, "id": "ziBYtpTCu3u4UevLRH86jriMHto=", "properties": {"@source_uri": "https://tools.usps.com/UspsToolsRestServices/rest/POLocator/findLocations", "@spider": "usps_collection_boxes", "addr:city": "PACKWAUKEE", "addr:country": "US", "addr:postcode": "53953", "addr:state": "WI", "addr:street_address": "W5981 MAIN ST", "amenity": "post_box", "collection_times": "Mo-Fr 16:00; Sa 09:30", "indoor": "yes", "note": "ON 12/24 AND 12/31, THIS BOX MAY BE COLLECTED AS EARLY AS 12 NOON.", "nsi_id": "unitedstatespostalservice-a77078", "operator": "United States Postal Service", "operator:short": "USPS", "operator:type": "public", "operator:wikidata": "Q668687", "ref": "5395300002"}, "type": "Feature"}
{"geometry": {"coordinates": [-89.2985421, 43.538164], "type": "Point"}, "id": "CgXXMLbw7crHkA4q1mM_T0facms=", "properties": {"@source_uri": "https://tools.usps.com/UspsToolsRestServices/rest/POLocator/findLocations", "@spider": "usps_collection_boxes", "addr:city": "PARDEEVILLE", "addr:country": "US", "addr:postcode": "53954", "addr:state": "WI", "addr:street_address": "116 LAKE ST", "amenity": "post_box", "collection_times": "Mo-Fr 12:00; Sa 11:00", "nsi_id": "unitedstatespostalservice-a77078", "operator": "United States Postal Service", "operator:short": "USPS", "operator:type": "public", "operator:wikidata": "Q668687", "ref": "5395400000"}, "type": "Feature"}
{"geometry": {"coordinates": [-89.30534, 43.527422], "type": "Point"}, "id": "OJcZrTwLmz2A1ZhcIe6caYPj68w=", "properties": {"@source_uri": "https://tools.usps.com/UspsToolsRestServices/rest/POLocator/findLocations", "@spider": "usps_collection_boxes", "addr:city": "PARDEEVILLE", "addr:country": "US", "addr:postcode": "53954", "addr:state": "WI", "addr:street_address": "107 INDUSTRIAL DR", "amenity": "post_box", "collection_times": "Mo-Fr 16:15; Sa 11:00", "note": "ON 12/24 AND 12/31, THIS BOX MAY BE COLLECTED AS EARLY AS 12 NOON.", "nsi_id": "unitedstatespostalservice-a77078", "operator": "United States Postal Service", "operator:short": "USPS", "operator:type": "public", "operator:wikidata": "Q668687", "ref": "5395400003"}, "type": "Feature"}
{"geometry": {"coordinates": [-89.30534, 43.527422], "type": "Point"}, "id": "e-Zv5GzApQpCgy9o0IDSfwYoCAQ=", "properties": {"@source_uri": "https://tools.usps.com/UspsToolsRestServices/rest/POLocator/findLocations", "@spider": "usps_collection_boxes", "addr:city": "PARDEEVILLE", "addr:country": "US", "addr:postcode": "53954", "addr:state": "WI", "addr:street_address": "107 INDUSTRIAL DR", "amenity": "post_box", "collection_times": "Mo-Fr 16:30; Sa 11:00", "indoor": "yes", "note": "ON 12/24 AND 12/31, THIS BOX MAY BE COLLECTED AS EARLY AS 12 NOON.", "nsi_id": "unitedstatespostalservice-a77078", "operator": "United States Postal Service", "operator:short": "USPS", "operator:type": "public", "operator:wikidata": "Q668687", "ref": "5395400004"}, "type": "Feature"}
{"geometry": {"coordinates": [-89.30534, 43.527422], "type": "Point"}, "id": "syxRgvZIrNr_SPwFvHNzvySjfzU=", "properties": {"@source_uri": "https://tools.usps.com/UspsToolsRestServices/rest/POLocator/findLocations", "@spider": "usps_collection_boxes", "addr:city": "PARDEEVILLE", "addr:country": "US", "addr:postcode": "53954", "addr:state": "WI", "addr:street_address": "107 INDUSTRIAL DR", "amenity": "post_box", "collection_times": "Mo-Fr 16:30; Sa 11:00", "indoor": "yes", "note": "ON 12/24 AND 12/31, THIS BOX MAY BE COLLECTED AS EARLY AS 12 NOON.", "nsi_id": "unitedstatespostalservice-a77078", "operator": "United States Postal Service", "operator:short": "USPS", "operator:type": "public", "operator:wikidata": "Q668687", "ref": "5395400005"}, "type": "Feature"}
{"geometry": {"coordinates": [-89.305453278, 43.527417521], "type": "Point"}, "id": "WTMFFhHGLPQL0604zPBoeK2cWP0=", "properties": {"@source_uri": "https://tools.usps.com/UspsToolsRestServices/rest/POLocator/findLocations", "@spider": "usps_collection_boxes", "addr:city": "PARDEEVILLE", "addr:country": "US", "addr:postcode": "53954", "addr:state": "WI", "addr:street_address": "107 INDUSTRIAL DR", "amenity": "post_box", "collection_times": "Mo-Fr 16:30; Sa 11:00", "indoor": "yes", "note": "ON 12/24 AND 12/31, THIS BOX MAY BE COLLECTED AS EARLY AS 12 NOON.", "nsi_id": "unitedstatespostalservice-a77078", "operator": "United States Postal Service", "operator:short": "USPS", "operator:type": "public", "operator:wikidata": "Q668687", "ref": "5395400006"}, "type": "Feature"}
{"geometry": {"coordinates": [-89.4019, 43.391632], "type": "Point"}, "id": "PWKMVtiWDzxZaC7vWWb5GUOXTf4=", "properties": {"@source_uri": "https://tools.usps.com/UspsToolsRestServices/rest/POLocator/findLocations", "@spider": "usps_collection_boxes", "addr:city": "POYNETTE", "addr:country": "US", "addr:postcode": "53955", "addr:state": "WI", "addr:street_address": "128 E SEWARD ST", "amenity": "post_box", "collection_times": "Mo-Fr 16:45; Sa 11:15", "note": "ON 12/24 AND 12/31, THIS BOX MAY BE COLLECTED AS EARLY AS 12 NOON.", "nsi_id": "unitedstatespostalservice-a77078", "operator": "United States Postal Service", "operator:short": "USPS", "operator:type": "public", "operator:wikidata": "Q668687", "ref": "5395500000"}, "type": "Feature"}
{"geometry": {"coordinates": [-89.4019, 43.391632], "type": "Point"}, "id": "Dl_JSHMsV9zCFRm18FrDGLYZ1Og=", "properties": {"@source_uri": "https://tools.usps.com/UspsToolsRestServices/rest/POLocator/findLocations", "@spider": "usps_collection_boxes", "addr:city": "POYNETTE", "addr:country": "US", "addr:postcode": "53955", "addr:state": "WI", "addr:street_address": "128 E SEWARD ST", "amenity": "post_box", "collection_times": "Mo-Fr 16:45; Sa 11:15", "indoor": "yes", "note": "ON 12/24 AND 12/31, THIS BOX MAY BE COLLECTED AS EARLY AS 12 NOON.", "nsi_id": "unitedstatespostalservice-a77078", "operator": "United States Postal Service", "operator:short": "USPS", "operator:type": "public", "operator:wikidata": "Q668687", "ref": "5395500004"}, "type": "Feature"}
{"geometry": {"coordinates": [-89.4019, 43.391632], "type": "Point"}, "id": "Qq5JryEw2hKQ15YdH8GfZCBw0qA=", "properties": {"@source_uri": "https://tools.usps.com/UspsToolsRestServices/rest/POLocator/findLocations", "@spider": "usps_collection_boxes", "addr:city": "POYNETTE", "addr:country": "US", "addr:postcode": "53955", "addr:state": "WI", "addr:street_address": "128 E SEWARD ST", "amenity": "post_box", "collection_times": "Mo-Fr 16:45; Sa 11:15", "indoor": "yes", "note": "ON 12/24 AND 12/31, THIS BOX MAY BE COLLECTED AS EARLY AS 12 NOON.", "nsi_id": "unitedstatespostalservice-a77078", "operator": "United States Postal Service", "operator:short": "USPS", "operator:type": "public", "operator:wikidata": "Q668687", "ref": "5395500005"}, "type": "Feature"}
{"geometry": {"coordinates": [-89.401900081, 43.391630474], "type": "Point"}, "id": "pj-9D821PS6HBvPHDXhQoHadgZI=", "properties": {"@source_uri": "https://tools.usps.com/UspsToolsRestServices/rest/POLocator/findLocations", "@spider": "usps_collection_boxes", "addr:city": "POYNETTE", "addr:country": "US", "addr:postcode": "53955", "addr:state": "WI", "addr:street_address": "128 E SEWARD ST", "amenity": "post_box", "collection_times": "Mo-Fr 16:45; Sa 11:15", "indoor": "yes", "note": "ON 12/24 AND 12/31, THIS BOX MAY BE COLLECTED AS EARLY AS 12 NOON.", "nsi_id": "unitedstatespostalservice-a77078", "operator": "United States Postal Service", "operator:short": "USPS", "operator:type": "public", "operator:wikidata": "Q668687", "ref": "5395500007"}, "type": "Feature"}
{"geometry": {"coordinates": [-89.008071, 43.538682], "type": "Point"}, "id": "FstUd7Ux4XbI1YX9ND1ULm38d8c=", "properties": {"@source_uri": "https://tools.usps.com/UspsToolsRestServices/rest/POLocator/findLocations", "@spider": "usps_collection_boxes", "addr:city": "RANDOLPH", "addr:country": "US", "addr:postcode": "53956", "addr:state": "WI", "addr:street_address": "126 W STROUD ST", "amenity": "post_box", "collection_times": "Mo-Fr 16:00; Sa 10:15", "note": "ON 12/24 AND 12/31, THIS BOX MAY BE COLLECTED AS EARLY AS 12 NOON.", "nsi_id": "unitedstatespostalservice-a77078", "operator": "United States Postal Service", "operator:short": "USPS", "operator:type": "public", "operator:wikidata": "Q668687", "ref": "5395600001"}, "type": "Feature"}
{"geometry": {"coordinates": [-89.0044936, 43.536862], "type": "Point"}, "id": "H58yxAky37JUOKwM6L3H6QoxPPs=", "properties": {"@source_uri": "https://tools.usps.com/UspsToolsRestServices/rest/POLocator/findLocations", "@spider": "usps_collection_boxes", "addr:city": "RANDOLPH", "addr:country": "US", "addr:postcode": "53956", "addr:state": "WI", "addr:street_address": "154 CENTER ST", "amenity": "post_box", "collection_times": "Mo-Sa 09:15", "nsi_id": "unitedstatespostalservice-a77078", "operator": "United States Postal Service", "operator:short": "USPS", "operator:type": "public", "operator:wikidata": "Q668687", "ref": "5395600002"}, "type": "Feature"}
{"geometry": {"coordinates": [-89.0054976, 43.531281], "type": "Point"}, "id": "iFoxjNwqVz2JDIWpexV700LzKzM=", "properties": {"@source_uri": "https://tools.usps.com/UspsToolsRestServices/rest/POLocator/findLocations", "@spider": "usps_collection_boxes", "addr:city": "RANDOLPH", "addr:country": "US", "addr:postcode": "53956", "addr:state": "WI", "addr:street_address": "154 KIENOW DR", "amenity": "post_box", "collection_times": "Mo-Sa 14:30", "note": "ON 12/24 AND 12/31, THIS BOX MAY BE COLLECTED AS EARLY AS 12 NOON.", "nsi_id": "unitedstatespostalservice-a77078", "operator": "United States Postal Service", "operator:short": "USPS", "operator:type": "public", "operator:wikidata": "Q668687", "ref": "5395600006"}, "type": "Feature"}
{"geometry": {"coordinates": [-89.0068168, 43.538042], "type": "Point"}, "id": "XtnxkAqS4hVgXejcDoLXjgbkT7c=", "properties": {"@source_uri": "https://tools.usps.com/UspsToolsRestServices/rest/POLocator/findLocations", "@spider": "usps_collection_boxes", "addr:city": "RANDOLPH", "addr:country": "US", "addr:postcode": "53956", "addr:state": "WI", "addr:street_address": "101 STARK ST", "amenity": "post_box", "collection_times": "Mo-Sa 14:30", "note": "ON 12/24 AND 12/31, THIS BOX MAY BE COLLECTED AS EARLY AS 12 NOON.", "nsi_id": "unitedstatespostalservice-a77078", "operator": "United States Postal Service", "operator:short": "USPS", "operator:type": "public", "operator:wikidata": "Q668687", "ref": "5395600007"}, "type": "Feature"}
{"geometry": {"coordinates": [-89.0098754, 43.538572], "type": "Point"}, "id": "NP8lPu3fMSvUULmHi072rvgHVpk=", "properties": {"@source_uri": "https://tools.usps.com/UspsToolsRestServices/rest/POLocator/findLocations", "@spider": "usps_collection_boxes", "addr:city": "RANDOLPH", "addr:country": "US", "addr:postcode": "53956", "addr:state": "WI", "addr:street_address": "248 W STROUD ST", "amenity": "post_box", "collection_times": "Mo-Sa 14:30", "note": "ON 12/24 AND 12/31, THIS BOX MAY BE COLLECTED AS EARLY AS 12 NOON.", "nsi_id": "unitedstatespostalservice-a77078", "operator": "United States Postal Service", "operator:short": "USPS", "operator:type": "public", "operator:wikidata": "Q668687", "ref": "5395600009"}, "type": "Feature"}
{"geometry": {"coordinates": [-89.008071, 43.538682], "type": "Point"}, "id": "hScWtAT-x6k7cJsynN-73DKMeXw=", "properties": {"@source_uri": "https://tools.usps.com/UspsToolsRestServices/rest/POLocator/findLocations", "@spider": "usps_collection_boxes", "addr:city": "RANDOLPH", "addr:country": "US", "addr:postcode": "53956", "addr:state": "WI", "addr:street_address": "126 W STROUD ST", "amenity": "post_box", "collection_times": "Mo-Fr 16:00; Sa 10:15", "indoor": "yes", "note": "ON 12/24 AND 12/31, THIS BOX MAY BE COLLECTED AS EARLY AS 12 NOON.", "nsi_id": "unitedstatespostalservice-a77078", "operator": "United States Postal Service", "operator:short": "USPS", "operator:type": "public", "operator:wikidata": "Q668687", "ref": "5395600010"}, "type": "Feature"}
{"geometry": {"coordinates": [-89.008071, 43.538682], "type": "Point"}, "id": "ofqVnyK2FHS_fk50rqv4fKEJ97A=", "properties": {"@source_uri": "https://tools.usps.com/UspsToolsRestServices/rest/POLocator/findLocations", "@spider": "usps_collection_boxes", "addr:city": "RANDOLPH", "addr:country": "US", "addr:postcode": "53956", "addr:state": "WI", "addr:street_address": "126 W STROUD ST", "amenity": "post_box", "collection_times": "Mo-Fr 16:00; Sa 10:15", "indoor": "yes", "note": "ON 12/24 AND 12/31, THIS BOX MAY BE COLLECTED AS EARLY AS 12 NOON.", "nsi_id": "unitedstatespostalservice-a77078", "operator": "United States Postal Service", "operator:short": "USPS", "operator:type": "public", "operator:wikidata": "Q668687", "ref": "5395600011"}, "type": "Feature"}
{"geometry": {"coordinates": [-89.00784153, 43.53868747], "type": "Point"}, "id": "FtuotFN_6wfX8ZdGnXlK-eRi-WM=", "properties": {"@source_uri": "https://tools.usps.com/UspsToolsRestServices/rest/POLocator/findLocations", "@spider": "usps_collection_boxes", "addr:city": "RANDOLPH", "addr:country": "US", "addr:postcode": "53956", "addr:state": "WI", "addr:street_address": "126 W STROUD ST", "amenity": "post_box", "collection_times": "Mo-Fr 16:00; Sa 10:15", "indoor": "yes", "note": "ON 12/24 AND 12/31, THIS BOX MAY BE COLLECTED AS EARLY AS 12 NOON.", "nsi_id": "unitedstatespostalservice-a77078", "operator": "United States Postal Service", "operator:short": "USPS", "operator:type": "public", "operator:wikidata": "Q668687", "ref": "5395600012"}, "type": "Feature"}
{"geometry": {"coordinates": [-90.0163442, 43.532404], "type": "Point"}, "id": "WRqebhs0uB7noj1CksHSuiM1gZE=", "properties": {"@source_uri": "https://tools.usps.com/UspsToolsRestServices/rest/POLocator/findLocations", "@spider": "usps_collection_boxes", "addr:city": "REEDSBURG", "addr:country": "US", "addr:postcode": "53959", "addr:state": "WI", "addr:street_address": "101 S ALBERT AVE", "amenity": "post_box", "collection_times": "Mo-Sa 12:00", "nsi_id": "unitedstatespostalservice-a77078", "operator": "United States Postal Service", "operator:short": "USPS", "operator:type": "public", "operator:wikidata": "Q668687", "ref": "5395900001"}, "type": "Feature"}
{"geometry": {"coordinates": [-90.008064, 43.533709], "type": "Point"}, "id": "SmJt6phIgT2PiKG5fcVHzo1NWQk=", "properties": {"@source_uri": "https://tools.usps.com/UspsToolsRestServices/rest/POLocator/findLocations", "@spider": "usps_collection_boxes", "addr:city": "REEDSBURG", "addr:country": "US", "addr:postcode": "53959", "addr:state": "WI", "addr:street_address": "212 N WALNUT ST", "amenity": "post_box", "collection_times": "Mo-Fr 17:00; Sa 15:45", "note": "ON 12/24 AND 12/31, THIS BOX MAY BE COLLECTED AS EARLY AS 12 NOON.", "nsi_id": "unitedstatespostalservice-a77078", "operator": "United States Postal Service", "operator:short": "USPS", "operator:type": "public", "operator:wikidata": "Q668687", "ref": "5395900003"}, "type": "Feature"}
{"geometry": {"coordinates": [-90.008139, 43.53376], "type": "Point"}, "id": "MzNTFcocXr6Qv3f-ZxtgFdxPFJE=", "properties": {"@source_uri": "https://tools.usps.com/UspsToolsRestServices/rest/POLocator/findLocations", "@spider": "usps_collection_boxes", "addr:city": "REEDSBURG", "addr:country": "US", "addr:postcode": "53959", "addr:state": "WI", "addr:street_address": "215 N WALNUT ST", "amenity": "post_box", "collection_times": "Mo-Fr 17:00; Sa 15:45", "note": "ON 12/24 AND 12/31, THIS BOX MAY BE COLLECTED AS EARLY AS 12 NOON.", "nsi_id": "unitedstatespostalservice-a77078", "operator": "United States Postal Service", "operator:short": "USPS", "operator:type": "public", "operator:wikidata": "Q668687", "ref": "5395900006"}, "type": "Feature"}
{"geometry": {"coordinates": [-90.008139, 43.53376], "type": "Point"}, "id": "fpdPapdge9P4n2sptcMVmIK4cGQ=", "properties": {"@source_uri": "https://tools.usps.com/UspsToolsRestServices/rest/POLocator/findLocations", "@spider": "usps_collection_boxes", "addr:city": "REEDSBURG", "addr:country": "US", "addr:postcode": "53959", "addr:state": "WI", "addr:street_address": "215 N WALNUT ST", "amenity": "post_box", "collection_times": "Mo-Fr 17:00; Sa 15:45", "note": "ON 12/24 AND 12/31, THIS BOX MAY BE COLLECTED AS EARLY AS 12 NOON.", "nsi_id": "unitedstatespostalservice-a77078", "operator": "United States Postal Service", "operator:short": "USPS", "operator:type": "public", "operator:wikidata": "Q668687", "ref": "5395900011"}, "type": "Feature"}
{"geometry": {"coordinates": [-90.008139, 43.53376], "type": "Point"}, "id": "nMdVZZchCw5DUrEXDgonkBMQ1TY=", "properties": {"@source_uri": "https://tools.usps.com/UspsToolsRestServices/rest/POLocator/findLocations", "@spider": "usps_collection_boxes", "addr:city": "REEDSBURG", "addr:country": "US", "addr:postcode": "53959", "addr:state": "WI", "addr:street_address": "215 N WALNUT ST", "amenity": "post_box", "collection_times": "Mo-Fr 17:00; Sa 16:00", "indoor": "yes", "note": "ON 12/24 AND 12/31, THIS BOX MAY BE COLLECTED AS EARLY AS 12 NOON.", "nsi_id": "unitedstatespostalservice-a77078", "operator": "United States Postal Service", "operator:short": "USPS", "operator:type": "public", "operator:wikidata": "Q668687", "ref": "5395900014"}, "type": "Feature"}
{"geometry": {"coordinates": [-89.9820791, 43.534431], "type": "Point"}, "id": "ODZicEot3dce08pDPgOL9ex1IVg=", "properties": {"@source_uri": "https://tools.usps.com/UspsToolsRestServices/rest/POLocator/findLocations", "@spider": "usps_collection_boxes", "addr:city": "REEDSBURG", "addr:country": "US", "addr:postcode": "53959", "addr:state": "WI", "addr:street_address": "150 VIKING DR", "amenity": "post_box", "collection_times": "Mo-Sa 12:00", "nsi_id": "unitedstatespostalservice-a77078", "operator": "United States Postal Service", "operator:short": "USPS", "operator:type": "public", "operator:wikidata": "Q668687", "ref": "5395900016"}, "type": "Feature"}
{"geometry": {"coordinates": [-89.9940692, 43.532256], "type": "Point"}, "id": "a0x1oDSBaK4gijiIQyiopfsGaNs=", "properties": {"@source_uri": "https://tools.usps.com/UspsToolsRestServices/rest/POLocator/findLocations", "@spider": "usps_collection_boxes", "addr:city": "REEDSBURG", "addr:country": "US", "addr:postcode": "53959", "addr:state": "WI", "addr:street_address": "1100 E MAIN ST", "amenity": "post_box", "collection_times": "Mo-Sa 13:00", "note": "ON 12/24 AND 12/31, THIS BOX MAY BE COLLECTED AS EARLY AS 12 NOON.", "nsi_id": "unitedstatespostalservice-a77078", "operator": "United States Postal Service", "operator:short": "USPS", "operator:type": "public", "operator:wikidata": "Q668687", "ref": "5395900017"}, "type": "Feature"}
{"geometry": {"coordinates": [-90.008139938, 43.533747], "type": "Point"}, "id": "XWt1IXWOkvUowgAxvZ-8qc2ZQOQ=", "properties": {"@source_uri": "https://tools.usps.com/UspsToolsRestServices/rest/POLocator/findLocations", "@spider": "usps_collection_boxes", "addr:city": "REEDSBURG", "addr:country": "US", "addr:postcode": "53959", "addr:state": "WI", "addr:street_address": "215 N WALNUT ST", "amenity": "post_box", "collection_times": "Mo-Fr 17:00; Sa 16:00", "indoor": "yes", "note": "ON 12/24 AND 12/31, THIS BOX MAY BE COLLECTED AS EARLY AS 12 NOON.", "nsi_id": "unitedstatespostalservice-a77078", "operator": "United States Postal Service", "operator:short": "USPS", "operator:type": "public", "operator:wikidata": "Q668687", "ref": "5395900018"}, "type": "Feature"}
{"geometry": {"coordinates": [-89.23926, 43.449227], "type": "Point"}, "id": "i291aDJSetdu-6lMW9yHhgspQAA=", "properties": {"@source_uri": "https://tools.usps.com/UspsToolsRestServices/rest/POLocator/findLocations", "@spider": "usps_collection_boxes", "addr:city": "RIO", "addr:country": "US", "addr:postcode": "53960", "addr:state": "WI", "addr:street_address": "103 LINCOLN AVE", "amenity": "post_box", "collection_times": "Sa 11:00", "nsi_id": "unitedstatespostalservice-a77078", "operator": "United States Postal Service", "operator:short": "USPS", "operator:type": "public", "operator:wikidata": "Q668687", "ref": "5396000000"}, "type": "Feature"}
{"geometry": {"coordinates": [-89.23926, 43.449227], "type": "Point"}, "id": "RPMoIYYnv-k_F42HR1ltyTGOaus=", "properties": {"@source_uri": "https://tools.usps.com/UspsToolsRestServices/rest/POLocator/findLocations", "@spider": "usps_collection_boxes", "addr:city": "RIO", "addr:country": "US", "addr:postcode": "53960", "addr:state": "WI", "addr:street_address": "103 LINCOLN AVE", "amenity": "post_box", "collection_times": "Mo-Fr 15:00; Sa 11:00", "indoor": "yes", "note": "ON 12/24 AND 12/31, THIS BOX MAY BE COLLECTED AS EARLY AS 12 NOON.", "nsi_id": "unitedstatespostalservice-a77078", "operator": "United States Postal Service", "operator:short": "USPS", "operator:type": "public", "operator:wikidata": "Q668687", "ref": "5396000001"}, "type": "Feature"}
{"geometry": {"coordinates": [-89.23926, 43.449227], "type": "Point"}, "id": "pbhHMJJm-bDTq-H92dRgIlJAbS8=", "properties": {"@source_uri": "https://tools.usps.com/UspsToolsRestServices/rest/POLocator/findLocations", "@spider": "usps_collection_boxes", "addr:city": "RIO", "addr:country": "US", "addr:postcode": "53960", "addr:state": "WI", "addr:street_address": "103 LINCOLN AVE", "amenity": "post_box", "collection_times": "Mo-Fr 15:00; Sa 11:00", "indoor": "yes", "note": "ON 12/24 AND 12/31, THIS BOX MAY BE COLLECTED AS EARLY AS 12 NOON.", "nsi_id": "unitedstatespostalservice-a77078", "operator": "United States Postal Service", "operator:short": "USPS", "operator:type": "public", "operator:wikidata": "Q668687", "ref": "5396000002"}, "type": "Feature"}
{"geometry": {"coordinates": [-89.2449705, 43.443473], "type": "Point"}, "id": "9ahbG0vfsTkA_n1XqzFOITMnnr4=", "properties": {"@source_uri": "https://tools.usps.com/UspsToolsRestServices/rest/POLocator/findLocations", "@spider": "usps_collection_boxes", "addr:city": "RIO", "addr:country": "US", "addr:postcode": "53960", "addr:state": "WI", "addr:street_address": "575 S LOWVILLE RD", "amenity": "post_box", "collection_times": "Mo-Sa 10:30", "nsi_id": "unitedstatespostalservice-a77078", "operator": "United States Postal Service", "operator:short": "USPS", "operator:type": "public", "operator:wikidata": "Q668687", "ref": "5396000003"}, "type": "Feature"}
{"geometry": {"coordinates": [-89.239257868, 43.449227246], "type": "Point"}, "id": "rz8k3hKK-gF87Zo2RUwj3gURlk8=", "properties": {"@source_uri": "https://tools.usps.com/UspsToolsRestServices/rest/POLocator/findLocations", "@spider": "usps_collection_boxes", "addr:city": "RIO", "addr:country": "US", "addr:postcode": "53960", "addr:state": "WI", "addr:street_address": "103 LINCOLN AVE", "amenity": "post_box", "collection_times": "Mo-Fr 15:00; Sa 11:00", "indoor": "yes", "note": "ON 12/24 AND 12/31, THIS BOX MAY BE COLLECTED AS EARLY AS 12 NOON.", "nsi_id": "unitedstatespostalservice-a77078", "operator": "United States Postal Service", "operator:short": "USPS", "operator:type": "public", "operator:wikidata": "Q668687", "ref": "5396000004"}, "type": "Feature"}
{"geometry": {"coordinates": [-89.916993, 43.477857525], "type": "Point"}, "id": "IGzNpXuypgGlKGxdNakv8GQqrTc=", "properties": {"@source_uri": "https://tools.usps.com/UspsToolsRestServices/rest/POLocator/findLocations", "@spider": "usps_collection_boxes", "addr:city": "ROCK SPRINGS", "addr:country": "US", "addr:postcode": "53961", "addr:state": "WI", "addr:street_address": "107 W BROADWAY", "amenity": "post_box", "collection_times": "Mo-Fr 16:15; Sa 12:15", "note": "ON 12/24 AND 12/31, THIS BOX MAY BE COLLECTED AS EARLY AS 12 NOON.", "nsi_id": "unitedstatespostalservice-a77078", "operator": "United States Postal Service", "operator:short": "USPS", "operator:type": "public", "operator:wikidata": "Q668687", "ref": "5396100000"}, "type": "Feature"}
{"geometry": {"coordinates": [-89.916993, 43.477857525], "type": "Point"}, "id": "5mzj3x5POOj9E0mv1OiMUG6YLHc=", "properties": {"@source_uri": "https://tools.usps.com/UspsToolsRestServices/rest/POLocator/findLocations", "@spider": "usps_collection_boxes", "addr:city": "ROCK SPRINGS", "addr:country": "US", "addr:postcode": "53961", "addr:state": "WI", "addr:street_address": "107 W BROADWAY", "amenity": "post_box", "collection_times": "Mo-Fr 16:15; Sa 12:15", "indoor": "yes", "note": "ON 12/24 AND 12/31, THIS BOX MAY BE COLLECTED AS EARLY AS 12 NOON.", "nsi_id": "unitedstatespostalservice-a77078", "operator": "United States Postal Service", "operator:short": "USPS", "operator:type": "public", "operator:wikidata": "Q668687", "ref": "5396100002"}, "type": "Feature"}
{"geometry": {"coordinates": [-89.916993, 43.477857525], "type": "Point"}, "id": "O75l3dUxX56JO3ykpaO-19YSQMU=", "properties": {"@source_uri": "https://tools.usps.com/UspsToolsRestServices/rest/POLocator/findLocations", "@spider": "usps_collection_boxes", "addr:city": "ROCK SPRINGS", "addr:country": "US", "addr:postcode": "53961", "addr:state": "WI", "addr:street_address": "107 W BROADWAY", "amenity": "post_box", "collection_times": "Mo-Fr 16:15; Sa 12:15", "indoor": "yes", "note": "ON 12/24 AND 12/31, THIS BOX MAY BE COLLECTED AS EARLY AS 12 NOON.", "nsi_id": "unitedstatespostalservice-a77078", "operator": "United States Postal Service", "operator:short": "USPS", "operator:type": "public", "operator:wikidata": "Q668687", "ref": "5396100004"}, "type": "Feature"}
{"geometry": {"coordinates": [-90.263572007, 43.68429], "type": "Point"}, "id": "QvGGJD3g6jCcbTt04_E8b6dSkeo=", "properties": {"@source_uri": "https://tools.usps.com/UspsToolsRestServices/rest/POLocator/findLocations", "@spider": "usps_collection_boxes", "addr:city": "UNION CENTER", "addr:country": "US", "addr:postcode": "53962", "addr:state": "WI", "addr:street_address": "335 HIGH ST", "amenity": "post_box", "collection_times": "Mo-Fr 16:15; Sa 08:45", "note": "ON 12/24 AND 12/31, THIS BOX MAY BE COLLECTED AS EARLY AS 12 NOON.", "nsi_id": "unitedstatespostalservice-a77078", "operator": "United States Postal Service", "operator:short": "USPS", "operator:type": "public", "operator:wikidata": "Q668687", "ref": "5396200000"}, "type": "Feature"}
{"geometry": {"coordinates": [-90.263572007, 43.68429], "type": "Point"}, "id": "7Y4tO9OajKZ7zhr-zwc0xX8p1CM=", "properties": {"@source_uri": "https://tools.usps.com/UspsToolsRestServices/rest/POLocator/findLocations", "@spider": "usps_collection_boxes", "addr:city": "UNION CENTER", "addr:country": "US", "addr:postcode": "53962", "addr:state": "WI", "addr:street_address": "335 HIGH ST", "amenity": "post_box", "collection_times": "Mo-Fr 16:15; Sa 09:10", "indoor": "yes", "note": "ON 12/24 AND 12/31, THIS BOX MAY BE COLLECTED AS EARLY AS 12 NOON.", "nsi_id": "unitedstatespostalservice-a77078", "operator": "United States Postal Service", "operator:short": "USPS", "operator:type": "public", "operator:wikidata": "Q668687", "ref": "5396200001"}, "type": "Feature"}
{"geometry": {"coordinates": [-90.263572007, 43.68429], "type": "Point"}, "id": "xhg8w4q1LhIKJs8QdSSVHvnuoU4=", "properties": {"@source_uri": "https://tools.usps.com/UspsToolsRestServices/rest/POLocator/findLocations", "@spider": "usps_collection_boxes", "addr:city": "UNION CENTER", "addr:country": "US", "addr:postcode": "53962", "addr:state": "WI", "addr:street_address": "335 HIGH ST", "amenity": "post_box", "collection_times": "Mo-Fr 16:15; Sa 09:00", "indoor": "yes", "note": "ON 12/24 AND 12/31, THIS BOX MAY BE COLLECTED AS EARLY AS 12 NOON.", "nsi_id": "unitedstatespostalservice-a77078", "operator": "United States Postal Service", "operator:short": "USPS", "operator:type": "public", "operator:wikidata": "Q668687", "ref": "5396200002"}, "type": "Feature"}
{"geometry": {"coordinates": [-88.7289114, 43.634153], "type": "Point"}, "id": "D-ZDun7uG8kNctzUKksnzp9PkFI=", "properties": {"@source_uri": "https://tools.usps.com/UspsToolsRestServices/rest/POLocator/findLocations", "@spider": "usps_collection_boxes", "addr:city": "WAUPUN", "addr:country": "US", "addr:postcode": "53963", "addr:state": "WI", "addr:street_address": "419 E FRANKLIN ST", "amenity": "post_box", "collection_times": "Mo-Fr 17:00; Sa 15:30", "note": "ON 12/24 AND 12/31, THIS BOX MAY BE COLLECTED AS EARLY AS 12 NOON.", "nsi_id": "unitedstatespostalservice-a77078", "operator": "United States Postal Service", "operator:short": "USPS", "operator:type": "public", "operator:wikidata": "Q668687", "ref": "5396300001"}, "type": "Feature"}
{"geometry": {"coordinates": [-88.7299574, 43.632157], "type": "Point"}, "id": "_OA5QQYD3mn3Js7vDCdRjCsZMSk=", "properties": {"@source_uri": "https://tools.usps.com/UspsToolsRestServices/rest/POLocator/findLocations", "@spider": "usps_collection_boxes", "addr:city": "WAUPUN", "addr:country": "US", "addr:postcode": "53963", "addr:state": "WI", "addr:street_address": "22 S MADISON ST", "amenity": "post_box", "collection_times": "Mo-Sa 13:00", "note": "ON 12/24 AND 12/31, THIS BOX MAY BE COLLECTED AS EARLY AS 12 NOON.", "nsi_id": "unitedstatespostalservice-a77078", "operator": "United States Postal Service", "operator:short": "USPS", "operator:type": "public", "operator:wikidata": "Q668687", "ref": "5396300005"}, "type": "Feature"}
{"geometry": {"coordinates": [-88.7164637, 43.6349], "type": "Point"}, "id": "Aa-Mf4BUrIj-cqQnc_pQd6_d2SE=", "properties": {"@source_uri": "https://tools.usps.com/UspsToolsRestServices/rest/POLocator/findLocations", "@spider": "usps_collection_boxes", "addr:city": "WAUPUN", "addr:country": "US", "addr:postcode": "53963", "addr:state": "WI", "addr:street_address": "100 GATEWAY DR", "amenity": "post_box", "collection_times": "Mo-Fr 13:00; Sa 12:45", "note": "ON 12/24 AND 12/31, THIS BOX MAY BE COLLECTED AS EARLY AS 12 NOON.", "nsi_id": "unitedstatespostalservice-a77078", "operator": "United States Postal Service", "operator:short": "USPS", "operator:type": "public", "operator:wikidata": "Q668687", "ref": "5396300007"}, "type": "Feature"}
{"geometry": {"coordinates": [-88.7320839, 43.633082], "type": "Point"}, "id": "VyPoKuT8bsHNBMb7TpQd-S2aXQE=", "properties": {"@source_uri": "https://tools.usps.com/UspsToolsRestServices/rest/POLocator/findLocations", "@spider": "usps_collection_boxes", "addr:city": "WAUPUN", "addr:country": "US", "addr:postcode": "53963", "addr:state": "WI", "addr:street_address": "201 E MAIN ST", "amenity": "post_box", "collection_times": "Mo-Sa 13:00", "note": "ON 12/24 AND 12/31, THIS BOX MAY BE COLLECTED AS EARLY AS 12 NOON.", "nsi_id": "unitedstatespostalservice-a77078", "operator": "United States Postal Service", "operator:short": "USPS", "operator:type": "public", "operator:wikidata": "Q668687", "ref": "5396300009"}, "type": "Feature"}
{"geometry": {"coordinates": [-88.7381319, 43.633071], "type": "Point"}, "id": "ozX98AQfQyu3zWqXhtxtxgGj41U=", "properties": {"@source_uri": "https://tools.usps.com/UspsToolsRestServices/rest/POLocator/findLocations", "@spider": "usps_collection_boxes", "addr:city": "WAUPUN", "addr:country": "US", "addr:postcode": "53963", "addr:state": "WI", "addr:street_address": "129 W MAIN ST", "amenity": "post_box", "collection_times": "Mo-Sa 12:00", "nsi_id": "unitedstatespostalservice-a77078", "operator": "United States Postal Service", "operator:short": "USPS", "operator:type": "public", "operator:wikidata": "Q668687", "ref": "5396300010"}, "type": "Feature"}
{"geometry": {"coordinates": [-88.7450747, 43.630021], "type": "Point"}, "id": "9rQlFe_6AQOU8OUsnnYUlt5FB28=", "properties": {"@source_uri": "https://tools.usps.com/UspsToolsRestServices/rest/POLocator/findLocations", "@spider": "usps_collection_boxes", "addr:city": "WAUPUN", "addr:country": "US", "addr:postcode": "53963", "addr:state": "WI", "addr:street_address": "310 BEAVER DAM ST", "amenity": "post_box", "collection_times": "Mo-Sa 12:00", "nsi_id": "unitedstatespostalservice-a77078", "operator": "United States Postal Service", "operator:short": "USPS", "operator:type": "public", "operator:wikidata": "Q668687", "ref": "5396300011"}, "type": "Feature"}
{"geometry": {"coordinates": [-88.7619004, 43.633885], "type": "Point"}, "id": "UAawTCSVUfYT5BqUO1E49pc0Hpc=", "properties": {"@source_uri": "https://tools.usps.com/UspsToolsRestServices/rest/POLocator/findLocations", "@spider": "usps_collection_boxes", "addr:city": "WAUPUN", "addr:country": "US", "addr:postcode": "53963", "addr:state": "WI", "addr:street_address": "1120 W MAIN ST", "amenity": "post_box", "collection_times": "Mo-Sa 12:00", "nsi_id": "unitedstatespostalservice-a77078", "operator": "United States Postal Service", "operator:short": "USPS", "operator:type": "public", "operator:wikidata": "Q668687", "ref": "5396300026"}, "type": "Feature"}
{"geometry": {"coordinates": [-88.7497666, 43.62593], "type": "Point"}, "id": "NUACYgQqbxPAD4k_M1y9J9p6q1Y=", "properties": {"@source_uri": "https://tools.usps.com/UspsToolsRestServices/rest/POLocator/findLocations", "@spider": "usps_collection_boxes", "addr:city": "WAUPUN", "addr:country": "US", "addr:postcode": "53963", "addr:state": "WI", "addr:street_address": "727 W LINCOLN ST", "amenity": "post_box", "collection_times": "Mo-Fr 11:30; Sa 11:00", "nsi_id": "unitedstatespostalservice-a77078", "operator": "United States Postal Service", "operator:short": "USPS", "operator:type": "public", "operator:wikidata": "Q668687", "ref": "5396300027"}, "type": "Feature"}
{"geometry": {"coordinates": [-88.7295287, 43.634444], "type": "Point"}, "id": "atoD0WaamYtYmZeCdPQhSSpQq5U=", "properties": {"@source_uri": "https://tools.usps.com/UspsToolsRestServices/rest/POLocator/findLocations", "@spider": "usps_collection_boxes", "addr:city": "WAUPUN", "addr:country": "US", "addr:postcode": "53963", "addr:state": "WI", "addr:street_address": "400 E FRANKLIN ST", "amenity": "post_box", "collection_times": "Mo-Fr 17:00; Sa 15:30", "indoor": "yes", "note": "ON 12/24 AND 12/31, THIS BOX MAY BE COLLECTED AS EARLY AS 12 NOON.", "nsi_id": "unitedstatespostalservice-a77078", "operator": "United States Postal Service", "operator:short": "USPS", "operator:type": "public", "operator:wikidata": "Q668687", "ref": "5396300030"}, "type": "Feature"}
{"geometry": {"coordinates": [-88.729443168, 43.634265504], "type": "Point"}, "id": "Gj1QWIgMmeZjOEIQtRNSnR1Y7Dc=", "properties": {"@source_uri": "https://tools.usps.com/UspsToolsRestServices/rest/POLocator/findLocations", "@spider": "usps_collection_boxes", "addr:city": "WAUPUN", "addr:country": "US", "addr:postcode": "53963", "addr:state": "WI", "addr:street_address": "400 E FRANKLIN ST", "amenity": "post_box", "collection_times": "Mo-Fr 17:00; Sa 15:30", "indoor": "yes", "note": "ON 12/24 AND 12/31, THIS BOX MAY BE COLLECTED AS EARLY AS 12 NOON.", "nsi_id": "unitedstatespostalservice-a77078", "operator": "United States Postal Service", "operator:short": "USPS", "operator:type": "public", "operator:wikidata": "Q668687", "ref": "5396300031"}, "type": "Feature"}
{"geometry": {"coordinates": [-89.493127, 43.885708], "type": "Point"}, "id": "MSAwrutbhQodJLNWOhevZuMNCLY=", "properties": {"@source_uri": "https://tools.usps.com/UspsToolsRestServices/rest/POLocator/findLocations", "@spider": "usps_collection_boxes", "addr:city": "WESTFIELD", "addr:country": "US", "addr:postcode": "53964", "addr:state": "WI", "addr:street_address": "108 E 2ND ST", "amenity": "post_box", "collection_times": "Mo-Fr 16:15; Sa 10:30", "note": "ON 12/24 AND 12/31, THIS BOX MAY BE COLLECTED AS EARLY AS 12 NOON.", "nsi_id": "unitedstatespostalservice-a77078", "operator": "United States Postal Service", "operator:short": "USPS", "operator:type": "public", "operator:wikidata": "Q668687", "ref": "5396400000"}, "type": "Feature"}
{"geometry": {"coordinates": [-89.4863899, 43.886106], "type": "Point"}, "id": "Uyg4Z_K3Jzp0JM6wXlYHdyISrFc=", "properties": {"@source_uri": "https://tools.usps.com/UspsToolsRestServices/rest/POLocator/findLocations", "@spider": "usps_collection_boxes", "addr:city": "WESTFIELD", "addr:country": "US", "addr:postcode": "53964", "addr:state": "WI", "addr:street_address": "326 E 2ND ST", "amenity": "post_box", "collection_times": "Mo-Sa 12:15", "note": "ON 12/24 AND 12/31, THIS BOX MAY BE COLLECTED AS EARLY AS 12 NOON.", "nsi_id": "unitedstatespostalservice-a77078", "operator": "United States Postal Service", "operator:short": "USPS", "operator:type": "public", "operator:wikidata": "Q668687", "ref": "5396400001"}, "type": "Feature"}
{"geometry": {"coordinates": [-89.493127, 43.885708], "type": "Point"}, "id": "yAV8WCv3SwZQ84n8ksi2jpxDsL8=", "properties": {"@source_uri": "https://tools.usps.com/UspsToolsRestServices/rest/POLocator/findLocations", "@spider": "usps_collection_boxes", "addr:city": "WESTFIELD", "addr:country": "US", "addr:postcode": "53964", "addr:state": "WI", "addr:street_address": "108 E 2ND ST", "amenity": "post_box", "collection_times": "Mo-Fr 16:15; Sa 10:30", "indoor": "yes", "note": "ON 12/24 AND 12/31, THIS BOX MAY BE COLLECTED AS EARLY AS 12 NOON.", "nsi_id": "unitedstatespostalservice-a77078", "operator": "United States Postal Service", "operator:short": "USPS", "operator:type": "public", "operator:wikidata": "Q668687", "ref": "5396400004"}, "type": "Feature"}
{"geometry": {"coordinates": [-89.493127, 43.885708], "type": "Point"}, "id": "aSR9VU666cVGhQVvju-azpsNoX8=", "properties": {"@source_uri": "https://tools.usps.com/UspsToolsRestServices/rest/POLocator/findLocations", "@spider": "usps_collection_boxes", "addr:city": "WESTFIELD", "addr:country": "US", "addr:postcode": "53964", "addr:state": "WI", "addr:street_address": "108 E 2ND ST", "amenity": "post_box", "collection_times": "Mo-Fr 16:15; Sa 10:30", "indoor": "yes", "note": "ON 12/24 AND 12/31, THIS BOX MAY BE COLLECTED AS EARLY AS 12 NOON.", "nsi_id": "unitedstatespostalservice-a77078", "operator": "United States Postal Service", "operator:short": "USPS", "operator:type": "public", "operator:wikidata": "Q668687", "ref": "5396400005"}, "type": "Feature"}
{"geometry": {"coordinates": [-89.49312, 43.885702508], "type": "Point"}, "id": "IJFKa_wivon5JjaXGlCdEgC7Gmw=", "properties": {"@source_uri": "https://tools.usps.com/UspsToolsRestServices/rest/POLocator/findLocations", "@spider": "usps_collection_boxes", "addr:city": "WESTFIELD", "addr:country": "US", "addr:postcode": "53964", "addr:state": "WI", "addr:street_address": "108 E 2ND ST", "amenity": "post_box", "collection_times": "Mo-Fr 16:15; Sa 10:30", "indoor": "yes", "note": "ON 12/24 AND 12/31, THIS BOX MAY BE COLLECTED AS EARLY AS 12 NOON.", "nsi_id": "unitedstatespostalservice-a77078", "operator": "United States Postal Service", "operator:short": "USPS", "operator:type": "public", "operator:wikidata": "Q668687", "ref": "5396400006"}, "type": "Feature"}
{"geometry": {"coordinates": [-89.7742922, 43.624488], "type": "Point"}, "id": "ANAB6j1tgrjZRjzv6BK6aUlW_ns=", "properties": {"@source_uri": "https://tools.usps.com/UspsToolsRestServices/rest/POLocator/findLocations", "@spider": "usps_collection_boxes", "addr:city": "WISCONSIN DELLS", "addr:country": "US", "addr:postcode": "53965", "addr:state": "WI", "addr:street_address": "310 MINNESOTA AVE", "amenity": "post_box", "collection_times": "Mo-Fr 16:45; Sa 15:00", "note": "ON 12/24 AND 12/31, THIS BOX MAY BE COLLECTED AS EARLY AS 12 NOON.", "nsi_id": "unitedstatespostalservice-a77078", "operator": "United States Postal Service", "operator:short": "USPS", "operator:type": "public", "operator:wikidata": "Q668687", "ref": "5396500000"}, "type": "Feature"}
{"geometry": {"coordinates": [-89.7743188, 43.624481], "type": "Point"}, "id": "qcRvEUg5LgP1JXLEjmig9YHegKw=", "properties": {"@source_uri": "https://tools.usps.com/UspsToolsRestServices/rest/POLocator/findLocations", "@spider": "usps_collection_boxes", "addr:city": "WISCONSIN DELLS", "addr:country": "US", "addr:postcode": "53965", "addr:state": "WI", "addr:street_address": "310 MINNESOTA AVE", "amenity": "post_box", "collection_times": "Mo-Fr 16:45; Sa 15:00", "note": "ON 12/24 AND 12/31, THIS BOX MAY BE COLLECTED AS EARLY AS 12 NOON.", "nsi_id": "unitedstatespostalservice-a77078", "operator": "United States Postal Service", "operator:short": "USPS", "operator:type": "public", "operator:wikidata": "Q668687", "ref": "5396500001"}, "type": "Feature"}
{"geometry": {"coordinates": [-89.7659559, 43.627226], "type": "Point"}, "id": "KoMc1ws0ES3NQy9MluIHn-oQ_i0=", "properties": {"@source_uri": "https://tools.usps.com/UspsToolsRestServices/rest/POLocator/findLocations", "@spider": "usps_collection_boxes", "addr:city": "WISCONSIN DELLS", "addr:country": "US", "addr:postcode": "53965", "addr:state": "WI", "addr:street_address": "802 BROADWAY", "amenity": "post_box", "collection_times": "Mo-Sa 12:00", "nsi_id": "unitedstatespostalservice-a77078", "operator": "United States Postal Service", "operator:short": "USPS", "operator:type": "public", "operator:wikidata": "Q668687", "ref": "5396500004"}, "type": "Feature"}
{"geometry": {"coordinates": [-89.8405661, 43.7456], "type": "Point"}, "id": "yDJuVwI8dTUFvJ8chpB4xxW79kM=", "properties": {"@source_uri": "https://tools.usps.com/UspsToolsRestServices/rest/POLocator/findLocations", "@spider": "usps_collection_boxes", "addr:city": "WISCONSIN DELLS", "addr:country": "US", "addr:postcode": "53965", "addr:state": "WI", "addr:street_address": "3495 STATE RD 13", "amenity": "post_box", "collection_times": "Mo-Sa 10:00", "nsi_id": "unitedstatespostalservice-a77078", "operator": "United States Postal Service", "operator:short": "USPS", "operator:type": "public", "operator:wikidata": "Q668687", "ref": "5396500005"}, "type": "Feature"}
{"geometry": {"coordinates": [-89.7865956, 43.625175], "type": "Point"}, "id": "BeGn7zI7RAEh298bgjxTp1jyjQE=", "properties": {"@source_uri": "https://tools.usps.com/UspsToolsRestServices/rest/POLocator/findLocations", "@spider": "usps_collection_boxes", "addr:city": "WISCONSIN DELLS", "addr:country": "US", "addr:postcode": "53965", "addr:state": "WI", "addr:street_address": "300 STATE RD 13", "amenity": "post_box", "collection_times": "Mo-Sa 09:00", "nsi_id": "unitedstatespostalservice-a77078", "operator": "United States Postal Service", "operator:short": "USPS", "operator:type": "public", "operator:wikidata": "Q668687", "ref": "5396500013"}, "type": "Feature"}
{"geometry": {"coordinates": [-89.774033, 43.624642], "type": "Point"}, "id": "Hy6F35SiG6w_Ozp7J4ld1xnTm5c=", "properties": {"@source_uri": "https://tools.usps.com/UspsToolsRestServices/rest/POLocator/findLocations", "@spider": "usps_collection_boxes", "addr:city": "WISCONSIN DELLS", "addr:country": "US", "addr:postcode": "53965", "addr:state": "WI", "addr:street_address": "310 MINNESOTA AVE", "amenity": "post_box", "collection_times": "Mo-Fr 17:00; Sa 15:00", "indoor": "yes", "note": "ON 12/24 AND 12/31, THIS BOX MAY BE COLLECTED AS EARLY AS 12 NOON.", "nsi_id": "unitedstatespostalservice-a77078", "operator": "United States Postal Service", "operator:short": "USPS", "operator:type": "public", "operator:wikidata": "Q668687", "ref": "5396500016"}, "type": "Feature"}
{"geometry": {"coordinates": [-89.7740222, 43.624513], "type": "Point"}, "id": "pznvRG0OmOKRg-SUrOdFVkzWAJs=", "properties": {"@source_uri": "https://tools.usps.com/UspsToolsRestServices/rest/POLocator/findLocations", "@spider": "usps_collection_boxes", "addr:city": "WISCONSIN DELLS", "addr:country": "US", "addr:postcode": "53965", "addr:state": "WI", "addr:street_address": "310 MINNESOTA AVE", "amenity": "post_box", "collection_times": "Mo-Fr 17:00; Sa 15:00", "indoor": "yes", "note": "ON 12/24 AND 12/31, THIS BOX MAY BE COLLECTED AS EARLY AS 12 NOON.", "nsi_id": "unitedstatespostalservice-a77078", "operator": "United States Postal Service", "operator:short": "USPS", "operator:type": "public", "operator:wikidata": "Q668687", "ref": "5396500017"}, "type": "Feature"}
{"geometry": {"coordinates": [-89.8125358, 43.585404], "type": "Point"}, "id": "sSgCKescMREh4SWaMSIOs0P9A84=", "properties": {"@source_uri": "https://tools.usps.com/UspsToolsRestServices/rest/POLocator/findLocations", "@spider": "usps_collection_boxes", "addr:city": "WISCONSIN DELLS", "addr:country": "US", "addr:postcode": "53965", "addr:state": "WI", "addr:street_address": "130 COMMERCE ST", "amenity": "post_box", "collection_times": "Mo-Sa 11:00", "nsi_id": "unitedstatespostalservice-a77078", "operator": "United States Postal Service", "operator:short": "USPS", "operator:type": "public", "operator:wikidata": "Q668687", "ref": "5396500019"}, "type": "Feature"}
{"geometry": {"coordinates": [-89.774056714, 43.624627933], "type": "Point"}, "id": "GbIWC1ssUP2e9Q_iVEjI-SiMA0k=", "properties": {"@source_uri": "https://tools.usps.com/UspsToolsRestServices/rest/POLocator/findLocations", "@spider": "usps_collection_boxes", "addr:city": "WISCONSIN DELLS", "addr:country": "US", "addr:postcode": "53965", "addr:state": "WI", "addr:street_address": "310 MINNESOTA AVE", "amenity": "post_box", "collection_times": "Mo-Fr 17:00; Sa 15:00", "indoor": "yes", "note": "ON 12/24 AND 12/31, THIS BOX MAY BE COLLECTED AS EARLY AS 12 NOON.", "nsi_id": "unitedstatespostalservice-a77078", "operator": "United States Postal Service", "operator:short": "USPS", "operator:type": "public", "operator:wikidata": "Q668687", "ref": "5396500020"}, "type": "Feature"}
{"geometry": {"coordinates": [-90.223290825, 43.654039628], "type": "Point"}, "id": "JTNUTQXTjDckpc0SsqVjc7eDOhQ=", "properties": {"@source_uri": "https://tools.usps.com/UspsToolsRestServices/rest/POLocator/findLocations", "@spider": "usps_collection_boxes", "addr:city": "WONEWOC", "addr:country": "US", "addr:postcode": "53968", "addr:state": "WI", "addr:street_address": "227 CENTER ST", "amenity": "post_box", "collection_times": "Mo-Fr 16:00; Sa 10:15", "note": "ON 12/24 AND 12/31, THIS BOX MAY BE COLLECTED AS EARLY AS 12 NOON.", "nsi_id": "unitedstatespostalservice-a77078", "operator": "United States Postal Service", "operator:short": "USPS", "operator:type": "public", "operator:wikidata": "Q668687", "ref": "5396800000"}, "type": "Feature"}
{"geometry": {"coordinates": [-90.223290825, 43.654039628], "type": "Point"}, "id": "r7W0fv_jdee5ectpl7Vigl2CW38=", "properties": {"@source_uri": "https://tools.usps.com/UspsToolsRestServices/rest/POLocator/findLocations", "@spider": "usps_collection_boxes", "addr:city": "WONEWOC", "addr:country": "US", "addr:postcode": "53968", "addr:state": "WI", "addr:street_address": "227 CENTER ST", "amenity": "post_box", "collection_times": "Mo-Fr 15:45; Sa 10:00", "indoor": "yes", "note": "ON 12/24 AND 12/31, THIS BOX MAY BE COLLECTED AS EARLY AS 12 NOON.", "nsi_id": "unitedstatespostalservice-a77078", "operator": "United States Postal Service", "operator:short": "USPS", "operator:type": "public", "operator:wikidata": "Q668687", "ref": "5396800001"}, "type": "Feature"}
{"geometry": {"coordinates": [-90.223290825, 43.654039628], "type": "Point"}, "id": "6ybgrR3yEi6rOMku0gu2YDCI-ks=", "properties": {"@source_uri": "https://tools.usps.com/UspsToolsRestServices/rest/POLocator/findLocations", "@spider": "usps_collection_boxes", "addr:city": "WONEWOC", "addr:country": "US", "addr:postcode": "53968", "addr:state": "WI", "addr:street_address": "227 CENTER ST", "amenity": "post_box", "collection_times": "Mo-Fr 15:45; Sa 10:00", "indoor": "yes", "note": "ON 12/24 AND 12/31, THIS BOX MAY BE COLLECTED AS EARLY AS 12 NOON.", "nsi_id": "unitedstatespostalservice-a77078", "operator": "United States Postal Service", "operator:short": "USPS", "operator:type": "public", "operator:wikidata": "Q668687", "ref": "5396800003"}, "type": "Feature"}
{"geometry": {"coordinates": [-89.309614, 43.494676], "type": "Point"}, "id": "12tKbbYjTW4tKpigo_jIt38_OWE=", "properties": {"@source_uri": "https://tools.usps.com/UspsToolsRestServices/rest/POLocator/findLocations", "@spider": "usps_collection_boxes", "addr:city": "WYOCENA", "addr:country": "US", "addr:postcode": "53969", "addr:state": "WI", "addr:street_address": "230 S WASHINGTON ST", "amenity": "post_box", "collection_times": "Mo-Fr 16:15; Sa 08:15", "note": "ON 12/24 AND 12/31, THIS BOX MAY BE COLLECTED AS EARLY AS 12 NOON.", "nsi_id": "unitedstatespostalservice-a77078", "operator": "United States Postal Service", "operator:short": "USPS", "operator:type": "public", "operator:wikidata": "Q668687", "ref": "5396900000"}, "type": "Feature"}
{"geometry": {"coordinates": [-89.309632, 43.494718], "type": "Point"}, "id": "pp7PpGXMuw2PKSDx7NuopgEiYWI=", "properties": {"@source_uri": "https://tools.usps.com/UspsToolsRestServices/rest/POLocator/findLocations", "@spider": "usps_collection_boxes", "addr:city": "WYOCENA", "addr:country": "US", "addr:postcode": "53969", "addr:state": "WI", "addr:street_address": "230 S WASHINGTON ST", "amenity": "post_box", "collection_times": "Mo-Fr 16:30; Sa 08:30", "indoor": "yes", "note": "ON 12/24 AND 12/31, THIS BOX MAY BE COLLECTED AS EARLY AS 12 NOON.", "nsi_id": "unitedstatespostalservice-a77078", "operator": "United States Postal Service", "operator:short": "USPS", "operator:type": "public", "operator:wikidata": "Q668687", "ref": "5396900001"}, "type": "Feature"}
{"geometry": {"coordinates": [-89.309588163, 43.494727579], "type": "Point"}, "id": "4J6xqK0pp09O3V1WDvFUjD2WFD8=", "properties": {"@source_uri": "https://tools.usps.com/UspsToolsRestServices/rest/POLocator/findLocations", "@spider": "usps_collection_boxes", "addr:city": "WYOCENA", "addr:country": "US", "addr:postcode": "53969", "addr:state": "WI", "addr:street_address": "230 S WASHINGTON ST", "amenity": "post_box", "collection_times": "Mo-Fr 16:30; Sa 08:30", "indoor": "yes", "note": "ON 12/24 AND 12/31, THIS BOX MAY BE COLLECTED AS EARLY AS 12 NOON.", "nsi_id": "unitedstatespostalservice-a77078", "operator": "United States Postal Service", "operator:short": "USPS", "operator:type": "public", "operator:wikidata": "Q668687", "ref": "5396900003"}, "type": "Feature"}
