{"dataset_attributes": {"@spider": "usps_collection_boxes", "spider:collection_time": "2023-12-25T08:25:18.404837"}, "geometry": {"coordinates": [-92.365352916, 45.293859503], "type": "Point"}, "id": "BGT1kOA-L510kpd3VAXNEakHjQk=", "properties": {"@spider": "usps_collection_boxes", "addr:city": "AMERY", "addr:country": "US", "addr:full": "1024 RIVERPLACE DR", "addr:postcode": "54001", "addr:state": "WI", "amenity": "post_box", "brand": "United States Postal Service", "brand:wikidata": "Q668687", "collection_times": "Mo-Fr 15:15; Sa 11:00", "name": "USPS COLLECTION BOX - BLUE BOX", "note": "ON 12/24 AND 12/31, THIS BOX MAY BE COLLECTED AS EARLY AS 12 NOON.", "nsi_id": "unitedstatespostalservice-a77078", "operator": "United States Postal Service", "operator:short": "USPS", "operator:type": "public", "operator:wikidata": "Q668687", "ref": "5400100003"}, "type": "Feature"}
{"dataset_attributes": {"@spider": "usps_collection_boxes", "spider:collection_time": "2023-12-25T08:25:18.404837"}, "geometry": {"coordinates": [-92.362159607, 45.309852], "type": "Point"}, "id": "lnFehvnwhe5q4byA8yLJyUlStwk=", "properties": {"@spider": "usps_collection_boxes", "addr:city": "AMERY", "addr:country": "US", "addr:full": "210 KELLER AVE S", "addr:postcode": "54001", "addr:state": "WI", "amenity": "post_box", "brand": "United States Postal Service", "brand:wikidata": "Q668687", "collection_times": "Mo-Sa 14:00", "name": "USPS COLLECTION BOX - BLUE BOX", "note": "ON 12/24 AND 12/31, THIS BOX MAY BE COLLECTED AS EARLY AS 12 NOON.", "nsi_id": "unitedstatespostalservice-a77078", "operator": "United States Postal Service", "operator:short": "USPS", "operator:type": "public", "operator:wikidata": "Q668687", "ref": "5400100004"}, "type": "Feature"}
{"dataset_attributes": {"@spider": "usps_collection_boxes", "spider:collection_time": "2023-12-25T08:25:18.404837"}, "geometry": {"coordinates": [-92.365352916, 45.293859503], "type": "Point"}, "id": "Hi6GY-7smnO-oJ19xcjdX2csupk=", "properties": {"@spider": "usps_collection_boxes", "addr:city": "AMERY", "addr:country": "US", "addr:full": "1024 RIVERPLACE DR", "addr:postcode": "54001", "addr:state": "WI", "amenity": "post_box", "brand": "United States Postal Service", "brand:wikidata": "Q668687", "collection_times": "Mo-Fr 15:15; Sa 11:00", "name": "USPS COLLECTION BOX - PO LOBBY", "note": "ON 12/24 AND 12/31, THIS BOX MAY BE COLLECTED AS EARLY AS 12 NOON.", "nsi_id": "unitedstatespostalservice-a77078", "operator": "United States Postal Service", "operator:short": "USPS", "operator:type": "public", "operator:wikidata": "Q668687", "ref": "5400100005"}, "type": "Feature"}
{"dataset_attributes": {"@spider": "usps_collection_boxes", "spider:collection_time": "2023-12-25T08:25:18.404837"}, "geometry": {"coordinates": [-92.365352916, 45.293859503], "type": "Point"}, "id": "TmkpP5FByqo8N9Bvn7wfYLDD6xA=", "properties": {"@spider": "usps_collection_boxes", "addr:city": "AMERY", "addr:country": "US", "addr:full": "1024 RIVERPLACE DR", "addr:postcode": "54001", "addr:state": "WI", "amenity": "post_box", "brand": "United States Postal Service", "brand:wikidata": "Q668687", "collection_times": "Mo-Fr 15:15; Sa 11:00", "name": "USPS COLLECTION BOX - PO LOBBY", "note": "ON 12/24 AND 12/31, THIS BOX MAY BE COLLECTED AS EARLY AS 12 NOON.", "nsi_id": "unitedstatespostalservice-a77078", "operator": "United States Postal Service", "operator:short": "USPS", "operator:type": "public", "operator:wikidata": "Q668687", "ref": "5400100006"}, "type": "Feature"}
{"dataset_attributes": {"@spider": "usps_collection_boxes", "spider:collection_time": "2023-12-25T08:25:18.404837"}, "geometry": {"coordinates": [-92.362201973, 45.314794593], "type": "Point"}, "id": "1E1AVQAgLfxTdhbSda3gNUOnrkQ=", "properties": {"@spider": "usps_collection_boxes", "addr:city": "AMERY", "addr:country": "US", "addr:full": "325 KELLER AVE N", "addr:postcode": "54001", "addr:state": "WI", "amenity": "post_box", "brand": "United States Postal Service", "brand:wikidata": "Q668687", "collection_times": "Mo-Sa 14:00", "name": "USPS COLLECTION BOX - BLUE BOX", "note": "ON 12/24 AND 12/31, THIS BOX MAY BE COLLECTED AS EARLY AS 12 NOON.", "nsi_id": "unitedstatespostalservice-a77078", "operator": "United States Postal Service", "operator:short": "USPS", "operator:type": "public", "operator:wikidata": "Q668687", "ref": "5400100007"}, "type": "Feature"}
{"dataset_attributes": {"@spider": "usps_collection_boxes", "spider:collection_time": "2023-12-25T08:25:18.404837"}, "geometry": {"coordinates": [-92.365352916, 45.293859503], "type": "Point"}, "id": "i3fa7hCIsw9ln7TWc2WT4DDKMj8=", "properties": {"@spider": "usps_collection_boxes", "addr:city": "AMERY", "addr:country": "US", "addr:full": "1024 RIVERPLACE DR", "addr:postcode": "54001", "addr:state": "WI", "amenity": "post_box", "brand": "United States Postal Service", "brand:wikidata": "Q668687", "collection_times": "Mo-Fr 15:15; Sa 11:00", "name": "USPS COLLECTION BOX - PO LOBBY", "note": "ON 12/24 AND 12/31, THIS BOX MAY BE COLLECTED AS EARLY AS 12 NOON.", "nsi_id": "unitedstatespostalservice-a77078", "operator": "United States Postal Service", "operator:short": "USPS", "operator:type": "public", "operator:wikidata": "Q668687", "ref": "5400100015"}, "type": "Feature"}
{"dataset_attributes": {"@spider": "usps_collection_boxes", "spider:collection_time": "2023-12-25T08:25:18.404837"}, "geometry": {"coordinates": [-92.372681349, 44.956286361], "type": "Point"}, "id": "kPrJb3xZpJy9nmSfZ4VFyFrHIE4=", "properties": {"@spider": "usps_collection_boxes", "addr:city": "BALDWIN", "addr:country": "US", "addr:full": "1640 8TH AVE", "addr:postcode": "54002", "addr:state": "WI", "amenity": "post_box", "brand": "United States Postal Service", "brand:wikidata": "Q668687", "collection_times": "Mo-Fr 15:45; Sa 12:00", "name": "USPS COLLECTION BOX - BLUE BOX", "note": "ON 12/24 AND 12/31, THIS BOX MAY BE COLLECTED AS EARLY AS 12 NOON.", "nsi_id": "unitedstatespostalservice-a77078", "operator": "United States Postal Service", "operator:short": "USPS", "operator:type": "public", "operator:wikidata": "Q668687", "ref": "5400200001"}, "type": "Feature"}
{"dataset_attributes": {"@spider": "usps_collection_boxes", "spider:collection_time": "2023-12-25T08:25:18.404837"}, "geometry": {"coordinates": [-92.372681349, 44.956286361], "type": "Point"}, "id": "7VEk_YIq_AsNYnzKLG6ZeyndsZ0=", "properties": {"@spider": "usps_collection_boxes", "addr:city": "BALDWIN", "addr:country": "US", "addr:full": "1640 8TH AVE", "addr:postcode": "54002", "addr:state": "WI", "amenity": "post_box", "brand": "United States Postal Service", "brand:wikidata": "Q668687", "collection_times": "Mo-Fr 15:45; Sa 10:00", "name": "USPS COLLECTION BOX - PO LOBBY", "note": "ON 12/24 AND 12/31, THIS BOX MAY BE COLLECTED AS EARLY AS 12 NOON.", "nsi_id": "unitedstatespostalservice-a77078", "operator": "United States Postal Service", "operator:short": "USPS", "operator:type": "public", "operator:wikidata": "Q668687", "ref": "5400200002"}, "type": "Feature"}
{"dataset_attributes": {"@spider": "usps_collection_boxes", "spider:collection_time": "2023-12-25T08:25:18.404837"}, "geometry": {"coordinates": [-92.372916965, 44.941204017], "type": "Point"}, "id": "nlPoBkwHHIeQ4OiVsttNp0TliQA=", "properties": {"@spider": "usps_collection_boxes", "addr:city": "BALDWIN", "addr:country": "US", "addr:full": "940 BALDWIN PLAZA DR", "addr:postcode": "54002", "addr:state": "WI", "amenity": "post_box", "brand": "United States Postal Service", "brand:wikidata": "Q668687", "collection_times": "Mo-Sa 11:30", "name": "USPS COLLECTION BOX - BLUE BOX", "nsi_id": "unitedstatespostalservice-a77078", "operator": "United States Postal Service", "operator:short": "USPS", "operator:type": "public", "operator:wikidata": "Q668687", "ref": "5400200003"}, "type": "Feature"}
{"dataset_attributes": {"@spider": "usps_collection_boxes", "spider:collection_time": "2023-12-25T08:25:18.404837"}, "geometry": {"coordinates": [-92.374141295, 44.966729501], "type": "Point"}, "id": "8Ga5r_5jDWSzsMbf5k9n2kBAJ2E=", "properties": {"@spider": "usps_collection_boxes", "addr:city": "BALDWIN", "addr:country": "US", "addr:full": "990 MAIN ST", "addr:postcode": "54002", "addr:state": "WI", "amenity": "post_box", "brand": "United States Postal Service", "brand:wikidata": "Q668687", "collection_times": "Mo-Sa 10:00", "name": "USPS COLLECTION BOX - BLUE BOX", "nsi_id": "unitedstatespostalservice-a77078", "operator": "United States Postal Service", "operator:short": "USPS", "operator:type": "public", "operator:wikidata": "Q668687", "ref": "5400200004"}, "type": "Feature"}
{"dataset_attributes": {"@spider": "usps_collection_boxes", "spider:collection_time": "2023-12-25T08:25:18.404837"}, "geometry": {"coordinates": [-92.372681349, 44.956286361], "type": "Point"}, "id": "Fb8CRqv6N3MPhvvBvhlUKu6iPLo=", "properties": {"@spider": "usps_collection_boxes", "addr:city": "BALDWIN", "addr:country": "US", "addr:full": "1640 8TH AVE", "addr:postcode": "54002", "addr:state": "WI", "amenity": "post_box", "brand": "United States Postal Service", "brand:wikidata": "Q668687", "collection_times": "Mo-Fr 15:45; Sa 11:00", "name": "USPS COLLECTION BOX - PO LOBBY", "note": "ON 12/24 AND 12/31, THIS BOX MAY BE COLLECTED AS EARLY AS 12 NOON.", "nsi_id": "unitedstatespostalservice-a77078", "operator": "United States Postal Service", "operator:short": "USPS", "operator:type": "public", "operator:wikidata": "Q668687", "ref": "5400200006"}, "type": "Feature"}
{"dataset_attributes": {"@spider": "usps_collection_boxes", "spider:collection_time": "2023-12-25T08:25:18.404837"}, "geometry": {"coordinates": [-92.507239264, 44.773459735], "type": "Point"}, "id": "XsAJy30bAO0JSgT0q8RT4oYfsHw=", "properties": {"@spider": "usps_collection_boxes", "addr:city": "BELDENVILLE", "addr:country": "US", "addr:full": "W7497 STATE ROAD 65", "addr:postcode": "54003", "addr:state": "WI", "amenity": "post_box", "brand": "United States Postal Service", "brand:wikidata": "Q668687", "collection_times": "Mo-Fr 16:00; Sa 11:30", "name": "USPS COLLECTION BOX - BLUE BOX", "note": "ON 12/24 AND 12/31, THIS BOX MAY BE COLLECTED AS EARLY AS 12 NOON.", "nsi_id": "unitedstatespostalservice-a77078", "operator": "United States Postal Service", "operator:short": "USPS", "operator:type": "public", "operator:wikidata": "Q668687", "ref": "5400300001"}, "type": "Feature"}
{"dataset_attributes": {"@spider": "usps_collection_boxes", "spider:collection_time": "2023-12-25T08:25:18.404837"}, "geometry": {"coordinates": [-92.507239264, 44.773459735], "type": "Point"}, "id": "1WlRZ1JiCg4JmlLl_Y0-939L4Y4=", "properties": {"@spider": "usps_collection_boxes", "addr:city": "BELDENVILLE", "addr:country": "US", "addr:full": "W7497 STATE ROAD 65", "addr:postcode": "54003", "addr:state": "WI", "amenity": "post_box", "brand": "United States Postal Service", "brand:wikidata": "Q668687", "collection_times": "Mo-Fr 16:00; Sa 11:30", "name": "USPS COLLECTION BOX - PO LOBBY", "note": "ON 12/24 AND 12/31, THIS BOX MAY BE COLLECTED AS EARLY AS 12 NOON.", "nsi_id": "unitedstatespostalservice-a77078", "operator": "United States Postal Service", "operator:short": "USPS", "operator:type": "public", "operator:wikidata": "Q668687", "ref": "5400300002"}, "type": "Feature"}
{"dataset_attributes": {"@spider": "usps_collection_boxes", "spider:collection_time": "2023-12-25T08:25:18.404837"}, "geometry": {"coordinates": [-92.507239264, 44.773459735], "type": "Point"}, "id": "dUASSrBUcnMFFMhf3DIB2kqZF80=", "properties": {"@spider": "usps_collection_boxes", "addr:city": "BELDENVILLE", "addr:country": "US", "addr:full": "W7497 STATE ROAD 65", "addr:postcode": "54003", "addr:state": "WI", "amenity": "post_box", "brand": "United States Postal Service", "brand:wikidata": "Q668687", "collection_times": "Mo-Fr 15:45; Sa 11:30", "name": "USPS COLLECTION BOX - PO LOBBY", "note": "ON 12/24 AND 12/31, THIS BOX MAY BE COLLECTED AS EARLY AS 12 NOON.", "nsi_id": "unitedstatespostalservice-a77078", "operator": "United States Postal Service", "operator:short": "USPS", "operator:type": "public", "operator:wikidata": "Q668687", "ref": "5400300003"}, "type": "Feature"}
{"dataset_attributes": {"@spider": "usps_collection_boxes", "spider:collection_time": "2023-12-25T08:25:18.404837"}, "geometry": {"coordinates": [-92.172194849, 45.33236869], "type": "Point"}, "id": "eK-9F_51ZligpfxVphNFTHcpDJ4=", "properties": {"@spider": "usps_collection_boxes", "addr:city": "CLAYTON", "addr:country": "US", "addr:full": "200 N PRENTICE ST", "addr:postcode": "54004", "addr:state": "WI", "amenity": "post_box", "brand": "United States Postal Service", "brand:wikidata": "Q668687", "collection_times": "Mo-Fr 14:45; Sa 10:30", "name": "USPS COLLECTION BOX - BLUE BOX", "note": "ON 12/24 AND 12/31, THIS BOX MAY BE COLLECTED AS EARLY AS 12 NOON.", "nsi_id": "unitedstatespostalservice-a77078", "operator": "United States Postal Service", "operator:short": "USPS", "operator:type": "public", "operator:wikidata": "Q668687", "ref": "5400400001"}, "type": "Feature"}
{"dataset_attributes": {"@spider": "usps_collection_boxes", "spider:collection_time": "2023-12-25T08:25:18.404837"}, "geometry": {"coordinates": [-92.172194849, 45.33236869], "type": "Point"}, "id": "aZjPeyw7D7N1a6D1TE8IniKZcGA=", "properties": {"@spider": "usps_collection_boxes", "addr:city": "CLAYTON", "addr:country": "US", "addr:full": "200 N PRENTICE ST", "addr:postcode": "54004", "addr:state": "WI", "amenity": "post_box", "brand": "United States Postal Service", "brand:wikidata": "Q668687", "collection_times": "Mo-Fr 14:15; Sa 09:45", "name": "USPS COLLECTION BOX - PO LOBBY", "note": "ON 12/24 AND 12/31, THIS BOX MAY BE COLLECTED AS EARLY AS 12 NOON.", "nsi_id": "unitedstatespostalservice-a77078", "operator": "United States Postal Service", "operator:short": "USPS", "operator:type": "public", "operator:wikidata": "Q668687", "ref": "5400400002"}, "type": "Feature"}
{"dataset_attributes": {"@spider": "usps_collection_boxes", "spider:collection_time": "2023-12-25T08:25:18.404837"}, "geometry": {"coordinates": [-92.172194849, 45.33236869], "type": "Point"}, "id": "kZVqObrwYRWZYjTyJkANIJK91OE=", "properties": {"@spider": "usps_collection_boxes", "addr:city": "CLAYTON", "addr:country": "US", "addr:full": "200 N PRENTICE ST", "addr:postcode": "54004", "addr:state": "WI", "amenity": "post_box", "brand": "United States Postal Service", "brand:wikidata": "Q668687", "collection_times": "Mo-Fr 14:30; Sa 10:00", "name": "USPS COLLECTION BOX - PO LOBBY", "note": "ON 12/24 AND 12/31, THIS BOX MAY BE COLLECTED AS EARLY AS 12 NOON.", "nsi_id": "unitedstatespostalservice-a77078", "operator": "United States Postal Service", "operator:short": "USPS", "operator:type": "public", "operator:wikidata": "Q668687", "ref": "5400400003"}, "type": "Feature"}
{"dataset_attributes": {"@spider": "usps_collection_boxes", "spider:collection_time": "2023-12-25T08:25:18.404837"}, "geometry": {"coordinates": [-92.270614913, 45.251530837], "type": "Point"}, "id": "gvm3t7RFtDv9xhrXVF1yLLkwLis=", "properties": {"@spider": "usps_collection_boxes", "addr:city": "CLEAR LAKE", "addr:country": "US", "addr:full": "438 3RD AVE", "addr:postcode": "54005", "addr:state": "WI", "amenity": "post_box", "brand": "United States Postal Service", "brand:wikidata": "Q668687", "collection_times": "Mo-Fr 15:00; Sa 10:30", "name": "USPS COLLECTION BOX - BLUE BOX", "note": "ON 12/24 AND 12/31, THIS BOX MAY BE COLLECTED AS EARLY AS 12 NOON.", "nsi_id": "unitedstatespostalservice-a77078", "operator": "United States Postal Service", "operator:short": "USPS", "operator:type": "public", "operator:wikidata": "Q668687", "ref": "5400500001"}, "type": "Feature"}
{"dataset_attributes": {"@spider": "usps_collection_boxes", "spider:collection_time": "2023-12-25T08:25:18.404837"}, "geometry": {"coordinates": [-92.270614913, 45.251530837], "type": "Point"}, "id": "7zhtZyhV3XlKqrygw2X89OKxyyQ=", "properties": {"@spider": "usps_collection_boxes", "addr:city": "CLEAR LAKE", "addr:country": "US", "addr:full": "438 3RD AVE", "addr:postcode": "54005", "addr:state": "WI", "amenity": "post_box", "brand": "United States Postal Service", "brand:wikidata": "Q668687", "collection_times": "Mo-Fr 15:00; Sa 10:30", "name": "USPS COLLECTION BOX - PO LOBBY", "note": "ON 12/24 AND 12/31, THIS BOX MAY BE COLLECTED AS EARLY AS 12 NOON.", "nsi_id": "unitedstatespostalservice-a77078", "operator": "United States Postal Service", "operator:short": "USPS", "operator:type": "public", "operator:wikidata": "Q668687", "ref": "5400500002"}, "type": "Feature"}
{"dataset_attributes": {"@spider": "usps_collection_boxes", "spider:collection_time": "2023-12-25T08:25:18.404837"}, "geometry": {"coordinates": [-92.270275837, 45.254458448], "type": "Point"}, "id": "_E_-lVUj5CZCCgnD9WYqzgUMa3M=", "properties": {"@spider": "usps_collection_boxes", "addr:city": "CLEAR LAKE", "addr:country": "US", "addr:full": "265 5TH ST NW", "addr:postcode": "54005", "addr:state": "WI", "amenity": "post_box", "brand": "United States Postal Service", "brand:wikidata": "Q668687", "collection_times": "Mo-Sa 12:00", "name": "USPS COLLECTION BOX - BLUE BOX", "nsi_id": "unitedstatespostalservice-a77078", "operator": "United States Postal Service", "operator:short": "USPS", "operator:type": "public", "operator:wikidata": "Q668687", "ref": "5400500003"}, "type": "Feature"}
{"dataset_attributes": {"@spider": "usps_collection_boxes", "spider:collection_time": "2023-12-25T08:25:18.404837"}, "geometry": {"coordinates": [-92.270614913, 45.251530837], "type": "Point"}, "id": "kclFFez1O0xvigodQqY_5GIkmB8=", "properties": {"@spider": "usps_collection_boxes", "addr:city": "CLEAR LAKE", "addr:country": "US", "addr:full": "438 3RD AVE", "addr:postcode": "54005", "addr:state": "WI", "amenity": "post_box", "brand": "United States Postal Service", "brand:wikidata": "Q668687", "collection_times": "Mo-Fr 14:45; Sa 10:30", "name": "USPS COLLECTION BOX - PO LOBBY", "note": "ON 12/24 AND 12/31, THIS BOX MAY BE COLLECTED AS EARLY AS 12 NOON.", "nsi_id": "unitedstatespostalservice-a77078", "operator": "United States Postal Service", "operator:short": "USPS", "operator:type": "public", "operator:wikidata": "Q668687", "ref": "5400500005"}, "type": "Feature"}
{"dataset_attributes": {"@spider": "usps_collection_boxes", "spider:collection_time": "2023-12-25T08:25:18.404837"}, "geometry": {"coordinates": [-92.650964276, 45.569466587], "type": "Point"}, "id": "sNyC8L29RNA7_wYQ_AzgNC4yIOw=", "properties": {"@spider": "usps_collection_boxes", "addr:city": "CUSHING", "addr:country": "US", "addr:full": "2492 240TH ST", "addr:postcode": "54006", "addr:state": "WI", "amenity": "post_box", "brand": "United States Postal Service", "brand:wikidata": "Q668687", "collection_times": "Mo-Fr 12:30; Sa 10:00", "name": "USPS COLLECTION BOX - BLUE BOX", "note": "ON 12/24 AND 12/31, THIS BOX MAY BE COLLECTED AS EARLY AS 12 NOON.", "nsi_id": "unitedstatespostalservice-a77078", "operator": "United States Postal Service", "operator:short": "USPS", "operator:type": "public", "operator:wikidata": "Q668687", "ref": "5400600001"}, "type": "Feature"}
{"dataset_attributes": {"@spider": "usps_collection_boxes", "spider:collection_time": "2023-12-25T08:25:18.404837"}, "geometry": {"coordinates": [-92.650964276, 45.569466587], "type": "Point"}, "id": "2hHcO18ZhR-3UByrDItVRS_-O-8=", "properties": {"@spider": "usps_collection_boxes", "addr:city": "CUSHING", "addr:country": "US", "addr:full": "2492 240TH ST", "addr:postcode": "54006", "addr:state": "WI", "amenity": "post_box", "brand": "United States Postal Service", "brand:wikidata": "Q668687", "collection_times": "Mo-Fr 12:30; Sa 10:00", "name": "USPS COLLECTION BOX - PO LOBBY", "note": "ON 12/24 AND 12/31, THIS BOX MAY BE COLLECTED AS EARLY AS 12 NOON.", "nsi_id": "unitedstatespostalservice-a77078", "operator": "United States Postal Service", "operator:short": "USPS", "operator:type": "public", "operator:wikidata": "Q668687", "ref": "5400600002"}, "type": "Feature"}
{"dataset_attributes": {"@spider": "usps_collection_boxes", "spider:collection_time": "2023-12-25T08:25:18.404837"}, "geometry": {"coordinates": [-92.650964276, 45.569466587], "type": "Point"}, "id": "83OoTJm_LoWFk_Y4pCzMBJnFeE8=", "properties": {"@spider": "usps_collection_boxes", "addr:city": "CUSHING", "addr:country": "US", "addr:full": "2492 240TH ST", "addr:postcode": "54006", "addr:state": "WI", "amenity": "post_box", "brand": "United States Postal Service", "brand:wikidata": "Q668687", "collection_times": "Mo-Fr 12:30; Sa 10:00", "name": "USPS COLLECTION BOX - PO LOBBY", "note": "ON 12/24 AND 12/31, THIS BOX MAY BE COLLECTED AS EARLY AS 12 NOON.", "nsi_id": "unitedstatespostalservice-a77078", "operator": "United States Postal Service", "operator:short": "USPS", "operator:type": "public", "operator:wikidata": "Q668687", "ref": "5400600003"}, "type": "Feature"}
{"dataset_attributes": {"@spider": "usps_collection_boxes", "spider:collection_time": "2023-12-25T08:25:18.404837"}, "geometry": {"coordinates": [-92.385455529, 45.187938917], "type": "Point"}, "id": "ut6CFcImKL833KG4JmVrqRFST1k=", "properties": {"@spider": "usps_collection_boxes", "addr:city": "DEER PARK", "addr:country": "US", "addr:full": "100 FRONT ST W", "addr:postcode": "54007", "addr:state": "WI", "amenity": "post_box", "brand": "United States Postal Service", "brand:wikidata": "Q668687", "collection_times": "Mo-Fr 10:45; Sa 09:30", "name": "USPS COLLECTION BOX - BLUE BOX", "nsi_id": "unitedstatespostalservice-a77078", "operator": "United States Postal Service", "operator:short": "USPS", "operator:type": "public", "operator:wikidata": "Q668687", "ref": "5400700001"}, "type": "Feature"}
{"dataset_attributes": {"@spider": "usps_collection_boxes", "spider:collection_time": "2023-12-25T08:25:18.404837"}, "geometry": {"coordinates": [-92.385455529, 45.187938917], "type": "Point"}, "id": "rxMCmONbZiDZ4hXP5platpuhZLM=", "properties": {"@spider": "usps_collection_boxes", "addr:city": "DEER PARK", "addr:country": "US", "addr:full": "100 FRONT ST W", "addr:postcode": "54007", "addr:state": "WI", "amenity": "post_box", "brand": "United States Postal Service", "brand:wikidata": "Q668687", "collection_times": "Mo-Fr 10:45; Sa 09:15", "name": "USPS COLLECTION BOX - PO LOBBY", "nsi_id": "unitedstatespostalservice-a77078", "operator": "United States Postal Service", "operator:short": "USPS", "operator:type": "public", "operator:wikidata": "Q668687", "ref": "5400700002"}, "type": "Feature"}
{"dataset_attributes": {"@spider": "usps_collection_boxes", "spider:collection_time": "2023-12-25T08:25:18.404837"}, "geometry": {"coordinates": [-92.385455529, 45.187938917], "type": "Point"}, "id": "YbD3-2wwfx-al64Sryzr3dz4QBY=", "properties": {"@spider": "usps_collection_boxes", "addr:city": "DEER PARK", "addr:country": "US", "addr:full": "100 FRONT ST W", "addr:postcode": "54007", "addr:state": "WI", "amenity": "post_box", "brand": "United States Postal Service", "brand:wikidata": "Q668687", "collection_times": "Mo-Fr 11:00; Sa 09:30", "name": "USPS COLLECTION BOX - PO LOBBY", "nsi_id": "unitedstatespostalservice-a77078", "operator": "United States Postal Service", "operator:short": "USPS", "operator:type": "public", "operator:wikidata": "Q668687", "ref": "5400700003"}, "type": "Feature"}
{"dataset_attributes": {"@spider": "usps_collection_boxes", "spider:collection_time": "2023-12-25T08:25:18.404837"}, "geometry": {"coordinates": [-92.633742168, 45.355632518], "type": "Point"}, "id": "1Y1tnttfYmSCmCpNIOlpek6Yh6w=", "properties": {"@spider": "usps_collection_boxes", "addr:city": "DRESSER", "addr:country": "US", "addr:full": "104 W MAIN ST", "addr:postcode": "54009", "addr:state": "WI", "amenity": "post_box", "brand": "United States Postal Service", "brand:wikidata": "Q668687", "collection_times": "Mo-Fr 15:15; Sa 12:45", "name": "USPS COLLECTION BOX - BLUE BOX", "note": "ON 12/24 AND 12/31, THIS BOX MAY BE COLLECTED AS EARLY AS 12 NOON.", "nsi_id": "unitedstatespostalservice-a77078", "operator": "United States Postal Service", "operator:short": "USPS", "operator:type": "public", "operator:wikidata": "Q668687", "ref": "5400900001"}, "type": "Feature"}
{"dataset_attributes": {"@spider": "usps_collection_boxes", "spider:collection_time": "2023-12-25T08:25:18.404837"}, "geometry": {"coordinates": [-92.633742168, 45.355632518], "type": "Point"}, "id": "wMhn2xuzrhr26QwgK2qzImn0lvo=", "properties": {"@spider": "usps_collection_boxes", "addr:city": "DRESSER", "addr:country": "US", "addr:full": "104 W MAIN ST", "addr:postcode": "54009", "addr:state": "WI", "amenity": "post_box", "brand": "United States Postal Service", "brand:wikidata": "Q668687", "collection_times": "Mo-Fr 15:15; Sa 12:45", "name": "USPS COLLECTION BOX - PO LOBBY", "note": "ON 12/24 AND 12/31, THIS BOX MAY BE COLLECTED AS EARLY AS 12 NOON.", "nsi_id": "unitedstatespostalservice-a77078", "operator": "United States Postal Service", "operator:short": "USPS", "operator:type": "public", "operator:wikidata": "Q668687", "ref": "5400900002"}, "type": "Feature"}
{"dataset_attributes": {"@spider": "usps_collection_boxes", "spider:collection_time": "2023-12-25T08:25:18.404837"}, "geometry": {"coordinates": [-92.633742168, 45.355632518], "type": "Point"}, "id": "KNOi6LX88HcGlIYIdrdPTrwfDVc=", "properties": {"@spider": "usps_collection_boxes", "addr:city": "DRESSER", "addr:country": "US", "addr:full": "104 W MAIN ST", "addr:postcode": "54009", "addr:state": "WI", "amenity": "post_box", "brand": "United States Postal Service", "brand:wikidata": "Q668687", "collection_times": "Mo-Fr 15:15", "name": "USPS COLLECTION BOX - PO LOBBY", "note": "ON 12/24 AND 12/31, THIS BOX MAY BE COLLECTED AS EARLY AS 12 NOON.", "nsi_id": "unitedstatespostalservice-a77078", "operator": "United States Postal Service", "operator:short": "USPS", "operator:type": "public", "operator:wikidata": "Q668687", "ref": "5400900003"}, "type": "Feature"}
{"dataset_attributes": {"@spider": "usps_collection_boxes", "spider:collection_time": "2023-12-25T08:25:18.404837"}, "geometry": {"coordinates": [-92.486882818, 44.735346503], "type": "Point"}, "id": "vjfGqD-wu4GzH6LWcOMgloX1Hqk=", "properties": {"@spider": "usps_collection_boxes", "addr:city": "ELLSWORTH", "addr:country": "US", "addr:full": "270 N MAPLE ST", "addr:postcode": "54011", "addr:state": "WI", "amenity": "post_box", "brand": "United States Postal Service", "brand:wikidata": "Q668687", "collection_times": "Mo-Fr 15:45; Sa 10:30", "name": "USPS COLLECTION BOX - BLUE BOX", "note": "ON 12/24 AND 12/31, THIS BOX MAY BE COLLECTED AS EARLY AS 12 NOON.", "nsi_id": "unitedstatespostalservice-a77078", "operator": "United States Postal Service", "operator:short": "USPS", "operator:type": "public", "operator:wikidata": "Q668687", "ref": "5401100001"}, "type": "Feature"}
{"dataset_attributes": {"@spider": "usps_collection_boxes", "spider:collection_time": "2023-12-25T08:25:18.404837"}, "geometry": {"coordinates": [-92.476332, 44.732052531], "type": "Point"}, "id": "A6ToVcURdurHHoZ7fZSOo4TFIM4=", "properties": {"@spider": "usps_collection_boxes", "addr:city": "ELLSWORTH", "addr:country": "US", "addr:full": "157 E MAIN ST", "addr:postcode": "54011", "addr:state": "WI", "amenity": "post_box", "brand": "United States Postal Service", "brand:wikidata": "Q668687", "collection_times": "Mo-Sa 12:00", "name": "USPS COLLECTION BOX - BLUE BOX", "nsi_id": "unitedstatespostalservice-a77078", "operator": "United States Postal Service", "operator:short": "USPS", "operator:type": "public", "operator:wikidata": "Q668687", "ref": "5401100002"}, "type": "Feature"}
{"dataset_attributes": {"@spider": "usps_collection_boxes", "spider:collection_time": "2023-12-25T08:25:18.404837"}, "geometry": {"coordinates": [-92.483011862, 44.732718419], "type": "Point"}, "id": "T50T4d2ooC_XdYPoj-s6v4ufeEk=", "properties": {"@spider": "usps_collection_boxes", "addr:city": "ELLSWORTH", "addr:country": "US", "addr:full": "130 N CHESTNUT ST", "addr:postcode": "54011", "addr:state": "WI", "amenity": "post_box", "brand": "United States Postal Service", "brand:wikidata": "Q668687", "collection_times": "Mo-Sa 12:00", "name": "USPS COLLECTION BOX - BLUE BOX", "nsi_id": "unitedstatespostalservice-a77078", "operator": "United States Postal Service", "operator:short": "USPS", "operator:type": "public", "operator:wikidata": "Q668687", "ref": "5401100004"}, "type": "Feature"}
{"dataset_attributes": {"@spider": "usps_collection_boxes", "spider:collection_time": "2023-12-25T08:25:18.404837"}, "geometry": {"coordinates": [-92.486882818, 44.735346503], "type": "Point"}, "id": "GMHyt_sdb9Lr52FEumB6Gw62bEM=", "properties": {"@spider": "usps_collection_boxes", "addr:city": "ELLSWORTH", "addr:country": "US", "addr:full": "270 N MAPLE ST", "addr:postcode": "54011", "addr:state": "WI", "amenity": "post_box", "brand": "United States Postal Service", "brand:wikidata": "Q668687", "collection_times": "Mo-Fr 15:45; Sa 10:30", "name": "USPS COLLECTION BOX - PO LOBBY", "note": "ON 12/24 AND 12/31, THIS BOX MAY BE COLLECTED AS EARLY AS 12 NOON.", "nsi_id": "unitedstatespostalservice-a77078", "operator": "United States Postal Service", "operator:short": "USPS", "operator:type": "public", "operator:wikidata": "Q668687", "ref": "5401100006"}, "type": "Feature"}
{"dataset_attributes": {"@spider": "usps_collection_boxes", "spider:collection_time": "2023-12-25T08:25:18.404837"}, "geometry": {"coordinates": [-92.486882818, 44.735346503], "type": "Point"}, "id": "rnJJY-u-Uh3DQ9K2H8667J3TIyk=", "properties": {"@spider": "usps_collection_boxes", "addr:city": "ELLSWORTH", "addr:country": "US", "addr:full": "270 N MAPLE ST", "addr:postcode": "54011", "addr:state": "WI", "amenity": "post_box", "brand": "United States Postal Service", "brand:wikidata": "Q668687", "collection_times": "Mo-Fr 15:45; Sa 10:30", "name": "USPS COLLECTION BOX - PO LOBBY", "note": "ON 12/24 AND 12/31, THIS BOX MAY BE COLLECTED AS EARLY AS 12 NOON.", "nsi_id": "unitedstatespostalservice-a77078", "operator": "United States Postal Service", "operator:short": "USPS", "operator:type": "public", "operator:wikidata": "Q668687", "ref": "5401100008"}, "type": "Feature"}
{"dataset_attributes": {"@spider": "usps_collection_boxes", "spider:collection_time": "2023-12-25T08:25:18.404837"}, "geometry": {"coordinates": [-92.174794538, 45.058617115], "type": "Point"}, "id": "z6jSldgi2JjtRkp4-AZ-0OndfUQ=", "properties": {"@spider": "usps_collection_boxes", "addr:city": "GLENWOOD CITY", "addr:country": "US", "addr:full": "220 W OAK ST", "addr:postcode": "54013", "addr:state": "WI", "amenity": "post_box", "brand": "United States Postal Service", "brand:wikidata": "Q668687", "collection_times": "Mo-Fr 14:45; Sa 10:15", "name": "USPS COLLECTION BOX - BLUE BOX", "note": "ON 12/24 AND 12/31, THIS BOX MAY BE COLLECTED AS EARLY AS 12 NOON.", "nsi_id": "unitedstatespostalservice-a77078", "operator": "United States Postal Service", "operator:short": "USPS", "operator:type": "public", "operator:wikidata": "Q668687", "ref": "5401300001"}, "type": "Feature"}
{"dataset_attributes": {"@spider": "usps_collection_boxes", "spider:collection_time": "2023-12-25T08:25:18.404837"}, "geometry": {"coordinates": [-92.174794538, 45.058617115], "type": "Point"}, "id": "V76JTrA4mvgsAxfRUA6y4kWCVEI=", "properties": {"@spider": "usps_collection_boxes", "addr:city": "GLENWOOD CITY", "addr:country": "US", "addr:full": "220 W OAK ST", "addr:postcode": "54013", "addr:state": "WI", "amenity": "post_box", "brand": "United States Postal Service", "brand:wikidata": "Q668687", "collection_times": "Mo-Fr 14:45; Sa 10:15", "name": "USPS COLLECTION BOX - PO LOBBY", "note": "ON 12/24 AND 12/31, THIS BOX MAY BE COLLECTED AS EARLY AS 12 NOON.", "nsi_id": "unitedstatespostalservice-a77078", "operator": "United States Postal Service", "operator:short": "USPS", "operator:type": "public", "operator:wikidata": "Q668687", "ref": "5401300002"}, "type": "Feature"}
{"dataset_attributes": {"@spider": "usps_collection_boxes", "spider:collection_time": "2023-12-25T08:25:18.404837"}, "geometry": {"coordinates": [-92.175281077, 45.058617115], "type": "Point"}, "id": "XzTPI7JADs9osG1dt5a3vZ4a5g4=", "properties": {"@spider": "usps_collection_boxes", "addr:city": "GLENWOOD CITY", "addr:country": "US", "addr:full": "244 W OAK ST", "addr:postcode": "54013", "addr:state": "WI", "amenity": "post_box", "brand": "United States Postal Service", "brand:wikidata": "Q668687", "collection_times": "Mo-Sa 12:00", "name": "USPS COLLECTION BOX - BLUE BOX", "nsi_id": "unitedstatespostalservice-a77078", "operator": "United States Postal Service", "operator:short": "USPS", "operator:type": "public", "operator:wikidata": "Q668687", "ref": "5401300003"}, "type": "Feature"}
{"dataset_attributes": {"@spider": "usps_collection_boxes", "spider:collection_time": "2023-12-25T08:25:18.404837"}, "geometry": {"coordinates": [-92.174794538, 45.058617115], "type": "Point"}, "id": "39Ya8ukrHsdXw1gv0tY44oyMTS8=", "properties": {"@spider": "usps_collection_boxes", "addr:city": "GLENWOOD CITY", "addr:country": "US", "addr:full": "220 W OAK ST", "addr:postcode": "54013", "addr:state": "WI", "amenity": "post_box", "brand": "United States Postal Service", "brand:wikidata": "Q668687", "collection_times": "Mo-Fr 14:30; Sa 10:00", "name": "USPS COLLECTION BOX - PO LOBBY", "note": "ON 12/24 AND 12/31, THIS BOX MAY BE COLLECTED AS EARLY AS 12 NOON.", "nsi_id": "unitedstatespostalservice-a77078", "operator": "United States Postal Service", "operator:short": "USPS", "operator:type": "public", "operator:wikidata": "Q668687", "ref": "5401300005"}, "type": "Feature"}
{"dataset_attributes": {"@spider": "usps_collection_boxes", "spider:collection_time": "2023-12-25T08:25:18.404837"}, "geometry": {"coordinates": [-92.5395615, 44.600172477], "type": "Point"}, "id": "alGxRQmcpz5KE1DqXbR5tTtyfoM=", "properties": {"@spider": "usps_collection_boxes", "addr:city": "HAGER CITY", "addr:country": "US", "addr:full": "W8123 165TH AVE", "addr:postcode": "54014", "addr:state": "WI", "amenity": "post_box", "brand": "United States Postal Service", "brand:wikidata": "Q668687", "collection_times": "Mo-Fr 15:30; Sa 10:00", "name": "USPS COLLECTION BOX - BLUE BOX", "note": "ON 12/24 AND 12/31, THIS BOX MAY BE COLLECTED AS EARLY AS 12 NOON.", "nsi_id": "unitedstatespostalservice-a77078", "operator": "United States Postal Service", "operator:short": "USPS", "operator:type": "public", "operator:wikidata": "Q668687", "ref": "5401400001"}, "type": "Feature"}
{"dataset_attributes": {"@spider": "usps_collection_boxes", "spider:collection_time": "2023-12-25T08:25:18.404837"}, "geometry": {"coordinates": [-92.5395615, 44.600172477], "type": "Point"}, "id": "UhoZQKDTKP7AcU5A8wT8dp5NdSU=", "properties": {"@spider": "usps_collection_boxes", "addr:city": "HAGER CITY", "addr:country": "US", "addr:full": "W8123 165TH AVE", "addr:postcode": "54014", "addr:state": "WI", "amenity": "post_box", "brand": "United States Postal Service", "brand:wikidata": "Q668687", "collection_times": "Mo-Fr 14:30; Sa 10:00", "name": "USPS COLLECTION BOX - PO LOBBY", "note": "ON 12/24 AND 12/31, THIS BOX MAY BE COLLECTED AS EARLY AS 12 NOON.", "nsi_id": "unitedstatespostalservice-a77078", "operator": "United States Postal Service", "operator:short": "USPS", "operator:type": "public", "operator:wikidata": "Q668687", "ref": "5401400003"}, "type": "Feature"}
{"dataset_attributes": {"@spider": "usps_collection_boxes", "spider:collection_time": "2023-12-25T08:25:18.404837"}, "geometry": {"coordinates": [-92.5395615, 44.600172477], "type": "Point"}, "id": "JS-r2Z02cmYIZAR1SueklkpZd3c=", "properties": {"@spider": "usps_collection_boxes", "addr:city": "HAGER CITY", "addr:country": "US", "addr:full": "W8123 165TH AVE", "addr:postcode": "54014", "addr:state": "WI", "amenity": "post_box", "brand": "United States Postal Service", "brand:wikidata": "Q668687", "collection_times": "Mo-Fr 14:30; Sa 10:00", "name": "USPS COLLECTION BOX - PO LOBBY", "note": "ON 12/24 AND 12/31, THIS BOX MAY BE COLLECTED AS EARLY AS 12 NOON.", "nsi_id": "unitedstatespostalservice-a77078", "operator": "United States Postal Service", "operator:short": "USPS", "operator:type": "public", "operator:wikidata": "Q668687", "ref": "5401400004"}, "type": "Feature"}
{"dataset_attributes": {"@spider": "usps_collection_boxes", "spider:collection_time": "2023-12-25T08:25:18.404837"}, "geometry": {"coordinates": [-92.436042727, 44.975860994], "type": "Point"}, "id": "NoOeb3rYLjP1TLKMzxzXBXNGckA=", "properties": {"@spider": "usps_collection_boxes", "addr:city": "HAMMOND", "addr:country": "US", "addr:full": "1010 DAVIS ST", "addr:postcode": "54015", "addr:state": "WI", "amenity": "post_box", "brand": "United States Postal Service", "brand:wikidata": "Q668687", "collection_times": "Mo-Fr 16:00; Sa 10:15", "name": "USPS COLLECTION BOX - BLUE BOX", "note": "ON 12/24 AND 12/31, THIS BOX MAY BE COLLECTED AS EARLY AS 12 NOON.", "nsi_id": "unitedstatespostalservice-a77078", "operator": "United States Postal Service", "operator:short": "USPS", "operator:type": "public", "operator:wikidata": "Q668687", "ref": "5401500001"}, "type": "Feature"}
{"dataset_attributes": {"@spider": "usps_collection_boxes", "spider:collection_time": "2023-12-25T08:25:18.404837"}, "geometry": {"coordinates": [-92.436042727, 44.975860994], "type": "Point"}, "id": "bIB9QjFyn9KW2OUcS9gmyqZ1fEU=", "properties": {"@spider": "usps_collection_boxes", "addr:city": "HAMMOND", "addr:country": "US", "addr:full": "1010 DAVIS ST", "addr:postcode": "54015", "addr:state": "WI", "amenity": "post_box", "brand": "United States Postal Service", "brand:wikidata": "Q668687", "collection_times": "Mo-Fr 16:00; Sa 10:15", "name": "USPS COLLECTION BOX - PO LOBBY", "note": "ON 12/24 AND 12/31, THIS BOX MAY BE COLLECTED AS EARLY AS 12 NOON.", "nsi_id": "unitedstatespostalservice-a77078", "operator": "United States Postal Service", "operator:short": "USPS", "operator:type": "public", "operator:wikidata": "Q668687", "ref": "5401500002"}, "type": "Feature"}
{"dataset_attributes": {"@spider": "usps_collection_boxes", "spider:collection_time": "2023-12-25T08:25:18.404837"}, "geometry": {"coordinates": [-92.436042727, 44.975860994], "type": "Point"}, "id": "hy9L54TxgWJLhdg9WKo8wn8Lf7Y=", "properties": {"@spider": "usps_collection_boxes", "addr:city": "HAMMOND", "addr:country": "US", "addr:full": "1010 DAVIS ST", "addr:postcode": "54015", "addr:state": "WI", "amenity": "post_box", "brand": "United States Postal Service", "brand:wikidata": "Q668687", "collection_times": "Mo-Fr 14:30; Sa 10:15", "name": "USPS COLLECTION BOX - PO LOBBY", "note": "ON 12/24 AND 12/31, THIS BOX MAY BE COLLECTED AS EARLY AS 12 NOON.", "nsi_id": "unitedstatespostalservice-a77078", "operator": "United States Postal Service", "operator:short": "USPS", "operator:type": "public", "operator:wikidata": "Q668687", "ref": "5401500004"}, "type": "Feature"}
{"dataset_attributes": {"@spider": "usps_collection_boxes", "spider:collection_time": "2023-12-25T08:25:18.404837"}, "geometry": {"coordinates": [-92.754748916, 45.001726199], "type": "Point"}, "id": "P_HRgIwSAE4QIDU7098z_2hn48U=", "properties": {"@spider": "usps_collection_boxes", "addr:city": "HUDSON", "addr:country": "US", "addr:full": "702 6TH ST N", "addr:postcode": "54016", "addr:state": "WI", "amenity": "post_box", "brand": "United States Postal Service", "brand:wikidata": "Q668687", "collection_times": "Mo-Sa 12:00", "name": "USPS COLLECTION BOX - BLUE BOX", "nsi_id": "unitedstatespostalservice-a77078", "operator": "United States Postal Service", "operator:short": "USPS", "operator:type": "public", "operator:wikidata": "Q668687", "ref": "5401600013"}, "type": "Feature"}
{"dataset_attributes": {"@spider": "usps_collection_boxes", "spider:collection_time": "2023-12-25T08:25:18.404837"}, "geometry": {"coordinates": [-92.743093152, 44.9603746], "type": "Point"}, "id": "hWGnGYH5eIlxYTNnE0XBYtseOv0=", "properties": {"@spider": "usps_collection_boxes", "addr:city": "HUDSON", "addr:country": "US", "addr:full": "808 HEGGEN ST", "addr:postcode": "54016", "addr:state": "WI", "amenity": "post_box", "brand": "United States Postal Service", "brand:wikidata": "Q668687", "collection_times": "Mo-Fr 17:00; Sa 12:00", "name": "USPS COLLECTION BOX - BLUE BOX", "note": "ON 12/24 AND 12/31, THIS BOX MAY BE COLLECTED AS EARLY AS 12 NOON.", "nsi_id": "unitedstatespostalservice-a77078", "operator": "United States Postal Service", "operator:short": "USPS", "operator:type": "public", "operator:wikidata": "Q668687", "ref": "5401600019"}, "type": "Feature"}
{"dataset_attributes": {"@spider": "usps_collection_boxes", "spider:collection_time": "2023-12-25T08:25:18.404837"}, "geometry": {"coordinates": [-92.743093152, 44.9603746], "type": "Point"}, "id": "pv8P3-nhnyYbqXJqqaPh41K5z_E=", "properties": {"@spider": "usps_collection_boxes", "addr:city": "HUDSON", "addr:country": "US", "addr:full": "808 HEGGEN ST", "addr:postcode": "54016", "addr:state": "WI", "amenity": "post_box", "brand": "United States Postal Service", "brand:wikidata": "Q668687", "collection_times": "Mo-Fr 17:00; Sa 12:00", "name": "USPS COLLECTION BOX - BLUE BOX", "note": "ON 12/24 AND 12/31, THIS BOX MAY BE COLLECTED AS EARLY AS 12 NOON.", "nsi_id": "unitedstatespostalservice-a77078", "operator": "United States Postal Service", "operator:short": "USPS", "operator:type": "public", "operator:wikidata": "Q668687", "ref": "5401600020"}, "type": "Feature"}
{"dataset_attributes": {"@spider": "usps_collection_boxes", "spider:collection_time": "2023-12-25T08:25:18.404837"}, "geometry": {"coordinates": [-92.743093152, 44.9603746], "type": "Point"}, "id": "XKNjnILUWKmifFKmA4aMWvqjxX0=", "properties": {"@spider": "usps_collection_boxes", "addr:city": "HUDSON", "addr:country": "US", "addr:full": "808 HEGGEN ST", "addr:postcode": "54016", "addr:state": "WI", "amenity": "post_box", "brand": "United States Postal Service", "brand:wikidata": "Q668687", "collection_times": "Mo-Fr 17:00; Sa 15:00", "name": "USPS COLLECTION BOX - PO LOBBY", "note": "ON 12/24 AND 12/31, THIS BOX MAY BE COLLECTED AS EARLY AS 12 NOON.", "nsi_id": "unitedstatespostalservice-a77078", "operator": "United States Postal Service", "operator:short": "USPS", "operator:type": "public", "operator:wikidata": "Q668687", "ref": "5401600023"}, "type": "Feature"}
{"dataset_attributes": {"@spider": "usps_collection_boxes", "spider:collection_time": "2023-12-25T08:25:18.404837"}, "geometry": {"coordinates": [-92.755341655, 44.96662467], "type": "Point"}, "id": "yWbf561ThQXXJoCYGc_47PdS2_E=", "properties": {"@spider": "usps_collection_boxes", "addr:city": "HUDSON", "addr:country": "US", "addr:full": "400 2ND ST S", "addr:postcode": "54016", "addr:state": "WI", "amenity": "post_box", "brand": "United States Postal Service", "brand:wikidata": "Q668687", "collection_times": "Mo-Fr 15:00; Sa 10:00", "name": "USPS COLLECTION BOX - BLUE BOX", "note": "ON 12/24 AND 12/31, THIS BOX MAY BE COLLECTED AS EARLY AS 12 NOON.", "nsi_id": "unitedstatespostalservice-a77078", "operator": "United States Postal Service", "operator:short": "USPS", "operator:type": "public", "operator:wikidata": "Q668687", "ref": "5401600024"}, "type": "Feature"}
{"dataset_attributes": {"@spider": "usps_collection_boxes", "spider:collection_time": "2023-12-25T08:25:18.404837"}, "geometry": {"coordinates": [-92.756924302, 44.97690623], "type": "Point"}, "id": "kQf8jo77vibCYmDTAqwSNl8NEas=", "properties": {"@spider": "usps_collection_boxes", "addr:city": "HUDSON", "addr:country": "US", "addr:full": "202 VINE ST", "addr:postcode": "54016", "addr:state": "WI", "amenity": "post_box", "brand": "United States Postal Service", "brand:wikidata": "Q668687", "collection_times": "Mo-Fr 15:00; Sa 14:00", "name": "USPS COLLECTION BOX - BLUE BOX", "note": "ON 12/24 AND 12/31, THIS BOX MAY BE COLLECTED AS EARLY AS 12 NOON.", "nsi_id": "unitedstatespostalservice-a77078", "operator": "United States Postal Service", "operator:short": "USPS", "operator:type": "public", "operator:wikidata": "Q668687", "ref": "5401600027"}, "type": "Feature"}
{"dataset_attributes": {"@spider": "usps_collection_boxes", "spider:collection_time": "2023-12-25T08:25:18.404837"}, "geometry": {"coordinates": [-92.755481791, 44.975464994], "type": "Point"}, "id": "bMlt8JDyT-Lf8oRUgsUPTB9iu-U=", "properties": {"@spider": "usps_collection_boxes", "addr:city": "HUDSON", "addr:country": "US", "addr:full": "509 3RD ST", "addr:postcode": "54016", "addr:state": "WI", "amenity": "post_box", "brand": "United States Postal Service", "brand:wikidata": "Q668687", "collection_times": "Mo-Fr 15:00; Sa 14:00", "name": "USPS COLLECTION BOX - BLUE BOX", "note": "ON 12/24 AND 12/31, THIS BOX MAY BE COLLECTED AS EARLY AS 12 NOON.", "nsi_id": "unitedstatespostalservice-a77078", "operator": "United States Postal Service", "operator:short": "USPS", "operator:type": "public", "operator:wikidata": "Q668687", "ref": "5401600033"}, "type": "Feature"}
{"dataset_attributes": {"@spider": "usps_collection_boxes", "spider:collection_time": "2023-12-25T08:25:18.404837"}, "geometry": {"coordinates": [-92.743093152, 44.9603746], "type": "Point"}, "id": "BExdbDMj4pfTcwdqBBBRJFKySeg=", "properties": {"@spider": "usps_collection_boxes", "addr:city": "HUDSON", "addr:country": "US", "addr:full": "808 HEGGEN ST", "addr:postcode": "54016", "addr:state": "WI", "amenity": "post_box", "brand": "United States Postal Service", "brand:wikidata": "Q668687", "collection_times": "Mo-Fr 17:00; Sa 15:00", "name": "USPS COLLECTION BOX - APC", "note": "ON 12/24 AND 12/31, THIS BOX MAY BE COLLECTED AS EARLY AS 12 NOON.", "nsi_id": "unitedstatespostalservice-a77078", "operator": "United States Postal Service", "operator:short": "USPS", "operator:type": "public", "operator:wikidata": "Q668687", "ref": "5401600034"}, "type": "Feature"}
{"dataset_attributes": {"@spider": "usps_collection_boxes", "spider:collection_time": "2023-12-25T08:25:18.404837"}, "geometry": {"coordinates": [-92.678736323, 44.970044868], "type": "Point"}, "id": "6rG04RcwZZ5bVE-zkKXNbmvI9Cc=", "properties": {"@spider": "usps_collection_boxes", "addr:city": "HUDSON", "addr:country": "US", "addr:full": "744 RYAN DR", "addr:postcode": "54016", "addr:state": "WI", "amenity": "post_box", "brand": "United States Postal Service", "brand:wikidata": "Q668687", "collection_times": "Mo-Fr 14:30; Sa 09:00", "name": "USPS COLLECTION BOX - BLUE BOX", "note": "ON 12/24 AND 12/31, THIS BOX MAY BE COLLECTED AS EARLY AS 12 NOON.", "nsi_id": "unitedstatespostalservice-a77078", "operator": "United States Postal Service", "operator:short": "USPS", "operator:type": "public", "operator:wikidata": "Q668687", "ref": "5401600037"}, "type": "Feature"}
{"dataset_attributes": {"@spider": "usps_collection_boxes", "spider:collection_time": "2023-12-25T08:25:18.404837"}, "geometry": {"coordinates": [-92.7267019603, 44.964253006], "type": "Point"}, "id": "tJXUXjzxJy4df5Gprr8MHKoCBh8=", "properties": {"@spider": "usps_collection_boxes", "addr:city": "HUDSON", "addr:country": "US", "addr:full": "2351 COULEE RD", "addr:postcode": "54016", "addr:state": "WI", "amenity": "post_box", "brand": "United States Postal Service", "brand:wikidata": "Q668687", "collection_times": "Mo-Sa 14:30", "name": "USPS COLLECTION BOX - BLUE BOX", "note": "ON 12/24 AND 12/31, THIS BOX MAY BE COLLECTED AS EARLY AS 12 NOON.", "nsi_id": "unitedstatespostalservice-a77078", "operator": "United States Postal Service", "operator:short": "USPS", "operator:type": "public", "operator:wikidata": "Q668687", "ref": "5401600039"}, "type": "Feature"}
{"dataset_attributes": {"@spider": "usps_collection_boxes", "spider:collection_time": "2023-12-25T08:25:18.404837"}, "geometry": {"coordinates": [-92.743093152, 44.9603746], "type": "Point"}, "id": "ktDClFXstQKbIg8R2ZIUvzLz8TQ=", "properties": {"@spider": "usps_collection_boxes", "addr:city": "HUDSON", "addr:country": "US", "addr:full": "808 HEGGEN ST", "addr:postcode": "54016", "addr:state": "WI", "amenity": "post_box", "brand": "United States Postal Service", "brand:wikidata": "Q668687", "collection_times": "Mo-Fr 17:00; Sa 12:00", "name": "USPS COLLECTION BOX - PO LOBBY", "note": "ON 12/24 AND 12/31, THIS BOX MAY BE COLLECTED AS EARLY AS 12 NOON.", "nsi_id": "unitedstatespostalservice-a77078", "operator": "United States Postal Service", "operator:short": "USPS", "operator:type": "public", "operator:wikidata": "Q668687", "ref": "5401600041"}, "type": "Feature"}
{"dataset_attributes": {"@spider": "usps_collection_boxes", "spider:collection_time": "2023-12-25T08:25:18.404837"}, "geometry": {"coordinates": [-92.537555096, 45.118844969], "type": "Point"}, "id": "O3MZU_4z9spwlGMQkK7HfyZsXRM=", "properties": {"@spider": "usps_collection_boxes", "addr:city": "NEW RICHMOND", "addr:country": "US", "addr:full": "430 S KNOWLES AVE", "addr:postcode": "54017", "addr:state": "WI", "amenity": "post_box", "brand": "United States Postal Service", "brand:wikidata": "Q668687", "collection_times": "Mo-Fr 17:00; Sa 12:00", "name": "USPS COLLECTION BOX - PO LOBBY", "note": "ON 12/24 AND 12/31, THIS BOX MAY BE COLLECTED AS EARLY AS 12 NOON.", "nsi_id": "unitedstatespostalservice-a77078", "operator": "United States Postal Service", "operator:short": "USPS", "operator:type": "public", "operator:wikidata": "Q668687", "ref": "5401700011"}, "type": "Feature"}
{"dataset_attributes": {"@spider": "usps_collection_boxes", "spider:collection_time": "2023-12-25T08:25:18.404837"}, "geometry": {"coordinates": [-92.537555096, 45.118844969], "type": "Point"}, "id": "YZIqecJRBIqgsrxg3Po5V-884oU=", "properties": {"@spider": "usps_collection_boxes", "addr:city": "NEW RICHMOND", "addr:country": "US", "addr:full": "430 S KNOWLES AVE", "addr:postcode": "54017", "addr:state": "WI", "amenity": "post_box", "brand": "United States Postal Service", "brand:wikidata": "Q668687", "collection_times": "Mo-Fr 17:00; Sa 12:00", "name": "USPS COLLECTION BOX - BLUE BOX", "note": "ON 12/24 AND 12/31, THIS BOX MAY BE COLLECTED AS EARLY AS 12 NOON.", "nsi_id": "unitedstatespostalservice-a77078", "operator": "United States Postal Service", "operator:short": "USPS", "operator:type": "public", "operator:wikidata": "Q668687", "ref": "5401700014"}, "type": "Feature"}
{"dataset_attributes": {"@spider": "usps_collection_boxes", "spider:collection_time": "2023-12-25T08:25:18.404837"}, "geometry": {"coordinates": [-92.537555096, 45.118844969], "type": "Point"}, "id": "Ys-Szeqj9VNSA-AzCLsCf7BfyzM=", "properties": {"@spider": "usps_collection_boxes", "addr:city": "NEW RICHMOND", "addr:country": "US", "addr:full": "430 S KNOWLES AVE", "addr:postcode": "54017", "addr:state": "WI", "amenity": "post_box", "brand": "United States Postal Service", "brand:wikidata": "Q668687", "collection_times": "Mo-Fr 17:00; Sa 12:00", "name": "USPS COLLECTION BOX - BLUE BOX", "note": "ON 12/24 AND 12/31, THIS BOX MAY BE COLLECTED AS EARLY AS 12 NOON.", "nsi_id": "unitedstatespostalservice-a77078", "operator": "United States Postal Service", "operator:short": "USPS", "operator:type": "public", "operator:wikidata": "Q668687", "ref": "5401700015"}, "type": "Feature"}
{"dataset_attributes": {"@spider": "usps_collection_boxes", "spider:collection_time": "2023-12-25T08:25:18.404837"}, "geometry": {"coordinates": [-92.537605763, 45.100818056], "type": "Point"}, "id": "sZxtjI6xs1tO9QHJQTnyVh5BWlw=", "properties": {"@spider": "usps_collection_boxes", "addr:city": "NEW RICHMOND", "addr:country": "US", "addr:full": "250 RICHMOND WAY", "addr:postcode": "54017", "addr:state": "WI", "amenity": "post_box", "brand": "United States Postal Service", "brand:wikidata": "Q668687", "collection_times": "Mo-Sa 13:00", "name": "USPS COLLECTION BOX - BLUE BOX", "note": "ON 12/24 AND 12/31, THIS BOX MAY BE COLLECTED AS EARLY AS 12 NOON.", "nsi_id": "unitedstatespostalservice-a77078", "operator": "United States Postal Service", "operator:short": "USPS", "operator:type": "public", "operator:wikidata": "Q668687", "ref": "5401700016"}, "type": "Feature"}
{"dataset_attributes": {"@spider": "usps_collection_boxes", "spider:collection_time": "2023-12-25T08:25:18.404837"}, "geometry": {"coordinates": [-92.537555096, 45.118844969], "type": "Point"}, "id": "vPKFX1ku-nUtVxRQDSTcqABr2Ko=", "properties": {"@spider": "usps_collection_boxes", "addr:city": "NEW RICHMOND", "addr:country": "US", "addr:full": "430 S KNOWLES AVE", "addr:postcode": "54017", "addr:state": "WI", "amenity": "post_box", "brand": "United States Postal Service", "brand:wikidata": "Q668687", "collection_times": "Mo-Fr 17:00; Sa 11:45", "name": "USPS COLLECTION BOX - PO LOBBY", "note": "ON 12/24 AND 12/31, THIS BOX MAY BE COLLECTED AS EARLY AS 12 NOON.", "nsi_id": "unitedstatespostalservice-a77078", "operator": "United States Postal Service", "operator:short": "USPS", "operator:type": "public", "operator:wikidata": "Q668687", "ref": "5401700018"}, "type": "Feature"}
{"dataset_attributes": {"@spider": "usps_collection_boxes", "spider:collection_time": "2023-12-25T08:25:18.404837"}, "geometry": {"coordinates": [-92.705786633, 45.320507581], "type": "Point"}, "id": "Sce2j8zGTPB_l_MAunFMYNTDNXE=", "properties": {"@spider": "usps_collection_boxes", "addr:city": "OSCEOLA", "addr:country": "US", "addr:full": "119 N CASCADE ST", "addr:postcode": "54020", "addr:state": "WI", "amenity": "post_box", "brand": "United States Postal Service", "brand:wikidata": "Q668687", "collection_times": "Mo-Fr 15:15; Sa 11:00", "name": "USPS COLLECTION BOX - BLUE BOX", "note": "ON 12/24 AND 12/31, THIS BOX MAY BE COLLECTED AS EARLY AS 12 NOON.", "nsi_id": "unitedstatespostalservice-a77078", "operator": "United States Postal Service", "operator:short": "USPS", "operator:type": "public", "operator:wikidata": "Q668687", "ref": "5402000001"}, "type": "Feature"}
{"dataset_attributes": {"@spider": "usps_collection_boxes", "spider:collection_time": "2023-12-25T08:25:18.404837"}, "geometry": {"coordinates": [-92.705786633, 45.320507581], "type": "Point"}, "id": "rIPm9FrXsLVTeNCSocuvlZzWTV4=", "properties": {"@spider": "usps_collection_boxes", "addr:city": "OSCEOLA", "addr:country": "US", "addr:full": "119 N CASCADE ST", "addr:postcode": "54020", "addr:state": "WI", "amenity": "post_box", "brand": "United States Postal Service", "brand:wikidata": "Q668687", "collection_times": "Mo-Fr 15:15; Sa 11:00", "name": "USPS COLLECTION BOX - BLUE BOX", "note": "ON 12/24 AND 12/31, THIS BOX MAY BE COLLECTED AS EARLY AS 12 NOON.", "nsi_id": "unitedstatespostalservice-a77078", "operator": "United States Postal Service", "operator:short": "USPS", "operator:type": "public", "operator:wikidata": "Q668687", "ref": "5402000002"}, "type": "Feature"}
{"dataset_attributes": {"@spider": "usps_collection_boxes", "spider:collection_time": "2023-12-25T08:25:18.404837"}, "geometry": {"coordinates": [-92.705786633, 45.320507581], "type": "Point"}, "id": "1eZ8TR5Cx907gNUEwOfYHtBXaW4=", "properties": {"@spider": "usps_collection_boxes", "addr:city": "OSCEOLA", "addr:country": "US", "addr:full": "119 N CASCADE ST", "addr:postcode": "54020", "addr:state": "WI", "amenity": "post_box", "brand": "United States Postal Service", "brand:wikidata": "Q668687", "collection_times": "Mo-Fr 15:15; Sa 11:00", "name": "USPS COLLECTION BOX - PO LOBBY", "note": "ON 12/24 AND 12/31, THIS BOX MAY BE COLLECTED AS EARLY AS 12 NOON.", "nsi_id": "unitedstatespostalservice-a77078", "operator": "United States Postal Service", "operator:short": "USPS", "operator:type": "public", "operator:wikidata": "Q668687", "ref": "5402000004"}, "type": "Feature"}
{"dataset_attributes": {"@spider": "usps_collection_boxes", "spider:collection_time": "2023-12-25T08:25:18.404837"}, "geometry": {"coordinates": [-92.705786633, 45.320507581], "type": "Point"}, "id": "eoc_o33s6j5Uer5791wxWQ1ITUM=", "properties": {"@spider": "usps_collection_boxes", "addr:city": "OSCEOLA", "addr:country": "US", "addr:full": "119 N CASCADE ST", "addr:postcode": "54020", "addr:state": "WI", "amenity": "post_box", "brand": "United States Postal Service", "brand:wikidata": "Q668687", "collection_times": "Mo-Fr 15:15; Sa 11:00", "name": "USPS COLLECTION BOX - PO LOBBY", "note": "ON 12/24 AND 12/31, THIS BOX MAY BE COLLECTED AS EARLY AS 12 NOON.", "nsi_id": "unitedstatespostalservice-a77078", "operator": "United States Postal Service", "operator:short": "USPS", "operator:type": "public", "operator:wikidata": "Q668687", "ref": "5402000006"}, "type": "Feature"}
{"dataset_attributes": {"@spider": "usps_collection_boxes", "spider:collection_time": "2023-12-25T08:25:18.404837"}, "geometry": {"coordinates": [-92.7923450027, 44.7593399904], "type": "Point"}, "id": "1N51TEUZlvQpr3IMrCPcTF0vcO0=", "properties": {"@spider": "usps_collection_boxes", "addr:city": "PRESCOTT", "addr:country": "US", "addr:full": "1001 CAMPBELL ST N", "addr:postcode": "54021", "addr:state": "WI", "amenity": "post_box", "brand": "United States Postal Service", "brand:wikidata": "Q668687", "collection_times": "Mo-Fr 16:30; Sa 10:30", "name": "USPS COLLECTION BOX - BLUE BOX", "note": "ON 12/24 AND 12/31, THIS BOX MAY BE COLLECTED AS EARLY AS 12 NOON.", "nsi_id": "unitedstatespostalservice-a77078", "operator": "United States Postal Service", "operator:short": "USPS", "operator:type": "public", "operator:wikidata": "Q668687", "ref": "5402100001"}, "type": "Feature"}
{"dataset_attributes": {"@spider": "usps_collection_boxes", "spider:collection_time": "2023-12-25T08:25:18.404837"}, "geometry": {"coordinates": [-92.802278088, 44.749003517], "type": "Point"}, "id": "efwFrGTh3vZCSxtEWUmftR6FjG8=", "properties": {"@spider": "usps_collection_boxes", "addr:city": "PRESCOTT", "addr:country": "US", "addr:full": "215 BROAD ST N", "addr:postcode": "54021", "addr:state": "WI", "amenity": "post_box", "brand": "United States Postal Service", "brand:wikidata": "Q668687", "collection_times": "Mo-Sa 14:45", "name": "USPS COLLECTION BOX - BLUE BOX", "note": "ON 12/24 AND 12/31, THIS BOX MAY BE COLLECTED AS EARLY AS 12 NOON.", "nsi_id": "unitedstatespostalservice-a77078", "operator": "United States Postal Service", "operator:short": "USPS", "operator:type": "public", "operator:wikidata": "Q668687", "ref": "5402100002"}, "type": "Feature"}
{"dataset_attributes": {"@spider": "usps_collection_boxes", "spider:collection_time": "2023-12-25T08:25:18.404837"}, "geometry": {"coordinates": [-92.792036968, 44.75934], "type": "Point"}, "id": "l5UOJv5I3bMYP-IKQw4DHKwCIOM=", "properties": {"@spider": "usps_collection_boxes", "addr:city": "PRESCOTT", "addr:country": "US", "addr:full": "1001 CAMPBELL ST N", "addr:postcode": "54021", "addr:state": "WI", "amenity": "post_box", "brand": "United States Postal Service", "brand:wikidata": "Q668687", "collection_times": "Mo-Fr 16:30; Sa 10:30", "name": "USPS COLLECTION BOX - BLUE BOX", "note": "ON 12/24 AND 12/31, THIS BOX MAY BE COLLECTED AS EARLY AS 12 NOON.", "nsi_id": "unitedstatespostalservice-a77078", "operator": "United States Postal Service", "operator:short": "USPS", "operator:type": "public", "operator:wikidata": "Q668687", "ref": "5402100003"}, "type": "Feature"}
{"dataset_attributes": {"@spider": "usps_collection_boxes", "spider:collection_time": "2023-12-25T08:25:18.404837"}, "geometry": {"coordinates": [-92.792073063, 44.76012908], "type": "Point"}, "id": "8mDDYkyha4djV75K57-aql-i6MQ=", "properties": {"@spider": "usps_collection_boxes", "addr:city": "PRESCOTT", "addr:country": "US", "addr:full": "1001 CAMPBELL ST N", "addr:postcode": "54021", "addr:state": "WI", "amenity": "post_box", "brand": "United States Postal Service", "brand:wikidata": "Q668687", "collection_times": "Mo-Fr 16:30; Sa 10:30", "name": "USPS COLLECTION BOX - PO LOBBY", "note": "ON 12/24 AND 12/31, THIS BOX MAY BE COLLECTED AS EARLY AS 12 NOON.", "nsi_id": "unitedstatespostalservice-a77078", "operator": "United States Postal Service", "operator:short": "USPS", "operator:type": "public", "operator:wikidata": "Q668687", "ref": "5402100004"}, "type": "Feature"}
{"dataset_attributes": {"@spider": "usps_collection_boxes", "spider:collection_time": "2023-12-25T08:25:18.404837"}, "geometry": {"coordinates": [-92.787568831, 44.761493466], "type": "Point"}, "id": "oldu9BBZCRi-UU9TIu9bWzjJCTc=", "properties": {"@spider": "usps_collection_boxes", "addr:city": "PRESCOTT", "addr:country": "US", "addr:full": "1005 EAGLE RIDGE DR", "addr:postcode": "54021", "addr:state": "WI", "amenity": "post_box", "brand": "United States Postal Service", "brand:wikidata": "Q668687", "collection_times": "Mo-Sa 14:30", "name": "USPS COLLECTION BOX - BLUE BOX", "note": "ON 12/24 AND 12/31, THIS BOX MAY BE COLLECTED AS EARLY AS 12 NOON.", "nsi_id": "unitedstatespostalservice-a77078", "operator": "United States Postal Service", "operator:short": "USPS", "operator:type": "public", "operator:wikidata": "Q668687", "ref": "5402100005"}, "type": "Feature"}
{"dataset_attributes": {"@spider": "usps_collection_boxes", "spider:collection_time": "2023-12-25T08:25:18.404837"}, "geometry": {"coordinates": [-92.792073063, 44.76012908], "type": "Point"}, "id": "4GkCARgFeFwmVl2QC9VLYmg8idA=", "properties": {"@spider": "usps_collection_boxes", "addr:city": "PRESCOTT", "addr:country": "US", "addr:full": "1001 CAMPBELL ST N", "addr:postcode": "54021", "addr:state": "WI", "amenity": "post_box", "brand": "United States Postal Service", "brand:wikidata": "Q668687", "collection_times": "Mo-Fr 16:30; Sa 10:30", "name": "USPS COLLECTION BOX - PO LOBBY", "note": "ON 12/24 AND 12/31, THIS BOX MAY BE COLLECTED AS EARLY AS 12 NOON.", "nsi_id": "unitedstatespostalservice-a77078", "operator": "United States Postal Service", "operator:short": "USPS", "operator:type": "public", "operator:wikidata": "Q668687", "ref": "5402100007"}, "type": "Feature"}
{"dataset_attributes": {"@spider": "usps_collection_boxes", "spider:collection_time": "2023-12-25T08:25:18.404837"}, "geometry": {"coordinates": [-92.623662191, 44.859786245], "type": "Point"}, "id": "MiR1Sd9DU10dNRbGg3828qLzlN0=", "properties": {"@spider": "usps_collection_boxes", "addr:city": "RIVER FALLS", "addr:country": "US", "addr:full": "208 N 2ND ST", "addr:postcode": "54022", "addr:state": "WI", "amenity": "post_box", "brand": "United States Postal Service", "brand:wikidata": "Q668687", "collection_times": "Mo-Fr 17:00; Sa 15:00", "name": "USPS COLLECTION BOX - BLUE BOX", "note": "ON 12/24 AND 12/31, THIS BOX MAY BE COLLECTED AS EARLY AS 12 NOON.", "nsi_id": "unitedstatespostalservice-a77078", "operator": "United States Postal Service", "operator:short": "USPS", "operator:type": "public", "operator:wikidata": "Q668687", "ref": "5402200001"}, "type": "Feature"}
{"dataset_attributes": {"@spider": "usps_collection_boxes", "spider:collection_time": "2023-12-25T08:25:18.404837"}, "geometry": {"coordinates": [-92.626110335, 44.858654828], "type": "Point"}, "id": "U8qAnsbTyeRWo6CY6NanijZ4VBY=", "properties": {"@spider": "usps_collection_boxes", "addr:city": "RIVER FALLS", "addr:country": "US", "addr:full": "101 N MAIN ST", "addr:postcode": "54022", "addr:state": "WI", "amenity": "post_box", "brand": "United States Postal Service", "brand:wikidata": "Q668687", "collection_times": "Mo-Fr 14:15; Sa 14:00", "name": "USPS COLLECTION BOX - BLUE BOX", "note": "ON 12/24 AND 12/31, THIS BOX MAY BE COLLECTED AS EARLY AS 12 NOON.", "nsi_id": "unitedstatespostalservice-a77078", "operator": "United States Postal Service", "operator:short": "USPS", "operator:type": "public", "operator:wikidata": "Q668687", "ref": "5402200002"}, "type": "Feature"}
{"dataset_attributes": {"@spider": "usps_collection_boxes", "spider:collection_time": "2023-12-25T08:25:18.404837"}, "geometry": {"coordinates": [-92.627244219, 44.856208842], "type": "Point"}, "id": "23FRYKxC5-ylunEE3GPEUhU9Tcw=", "properties": {"@spider": "usps_collection_boxes", "addr:city": "RIVER FALLS", "addr:country": "US", "addr:full": "303 S MAIN ST", "addr:postcode": "54022", "addr:state": "WI", "amenity": "post_box", "brand": "United States Postal Service", "brand:wikidata": "Q668687", "collection_times": "Mo-Fr 14:15; Sa 14:00", "name": "USPS COLLECTION BOX - BLUE BOX", "note": "ON 12/24 AND 12/31, THIS BOX MAY BE COLLECTED AS EARLY AS 12 NOON.", "nsi_id": "unitedstatespostalservice-a77078", "operator": "United States Postal Service", "operator:short": "USPS", "operator:type": "public", "operator:wikidata": "Q668687", "ref": "5402200007"}, "type": "Feature"}
{"dataset_attributes": {"@spider": "usps_collection_boxes", "spider:collection_time": "2023-12-25T08:25:18.404837"}, "geometry": {"coordinates": [-92.629418726, 44.846036696], "type": "Point"}, "id": "O0ST7zsdiL8fBmnCXnyk43D9NSQ=", "properties": {"@spider": "usps_collection_boxes", "addr:city": "RIVER FALLS", "addr:country": "US", "addr:full": "1121 S MAIN ST", "addr:postcode": "54022", "addr:state": "WI", "amenity": "post_box", "brand": "United States Postal Service", "brand:wikidata": "Q668687", "collection_times": "Mo-Fr 14:15; Sa 13:30", "name": "USPS COLLECTION BOX - BLUE BOX", "note": "ON 12/24 AND 12/31, THIS BOX MAY BE COLLECTED AS EARLY AS 12 NOON.", "nsi_id": "unitedstatespostalservice-a77078", "operator": "United States Postal Service", "operator:short": "USPS", "operator:type": "public", "operator:wikidata": "Q668687", "ref": "5402200010"}, "type": "Feature"}
{"dataset_attributes": {"@spider": "usps_collection_boxes", "spider:collection_time": "2023-12-25T08:25:18.404837"}, "geometry": {"coordinates": [-92.62183833, 44.871080329], "type": "Point"}, "id": "NLDF0uidOomQ7BObwe632niDcZU=", "properties": {"@spider": "usps_collection_boxes", "addr:city": "RIVER FALLS", "addr:country": "US", "addr:full": "1047 N MAIN ST", "addr:postcode": "54022", "addr:state": "WI", "amenity": "post_box", "brand": "United States Postal Service", "brand:wikidata": "Q668687", "collection_times": "Mo-Fr 14:15; Sa 14:00", "name": "USPS COLLECTION BOX - BLUE BOX", "note": "ON 12/24 AND 12/31, THIS BOX MAY BE COLLECTED AS EARLY AS 12 NOON.", "nsi_id": "unitedstatespostalservice-a77078", "operator": "United States Postal Service", "operator:short": "USPS", "operator:type": "public", "operator:wikidata": "Q668687", "ref": "5402200012"}, "type": "Feature"}
{"dataset_attributes": {"@spider": "usps_collection_boxes", "spider:collection_time": "2023-12-25T08:25:18.404837"}, "geometry": {"coordinates": [-92.623662191, 44.859786245], "type": "Point"}, "id": "wyIpUlyi6m92FKiU1Ay1iCAsUDU=", "properties": {"@spider": "usps_collection_boxes", "addr:city": "RIVER FALLS", "addr:country": "US", "addr:full": "208 N 2ND ST", "addr:postcode": "54022", "addr:state": "WI", "amenity": "post_box", "brand": "United States Postal Service", "brand:wikidata": "Q668687", "collection_times": "Mo-Fr 17:00; Sa 15:00", "name": "USPS COLLECTION BOX - PO LOBBY", "note": "ON 12/24 AND 12/31, THIS BOX MAY BE COLLECTED AS EARLY AS 12 NOON.", "nsi_id": "unitedstatespostalservice-a77078", "operator": "United States Postal Service", "operator:short": "USPS", "operator:type": "public", "operator:wikidata": "Q668687", "ref": "5402200015"}, "type": "Feature"}
{"dataset_attributes": {"@spider": "usps_collection_boxes", "spider:collection_time": "2023-12-25T08:25:18.404837"}, "geometry": {"coordinates": [-92.623989556, 44.878484107], "type": "Point"}, "id": "e0_iivSbLxQ7WdRWvBXibaFf_C4=", "properties": {"@spider": "usps_collection_boxes", "addr:city": "RIVER FALLS", "addr:country": "US", "addr:full": "1777 PAULSON RD", "addr:postcode": "54022", "addr:state": "WI", "amenity": "post_box", "brand": "United States Postal Service", "brand:wikidata": "Q668687", "collection_times": "Mo-Sa 13:00", "name": "USPS COLLECTION BOX - BLUE BOX", "note": "ON 12/24 AND 12/31, THIS BOX MAY BE COLLECTED AS EARLY AS 12 NOON.", "nsi_id": "unitedstatespostalservice-a77078", "operator": "United States Postal Service", "operator:short": "USPS", "operator:type": "public", "operator:wikidata": "Q668687", "ref": "5402200016"}, "type": "Feature"}
{"dataset_attributes": {"@spider": "usps_collection_boxes", "spider:collection_time": "2023-12-25T08:25:18.404837"}, "geometry": {"coordinates": [-92.623662191, 44.859786245], "type": "Point"}, "id": "E3lWbPl7404l7oOXniSr9fDfvYg=", "properties": {"@spider": "usps_collection_boxes", "addr:city": "RIVER FALLS", "addr:country": "US", "addr:full": "208 N 2ND ST", "addr:postcode": "54022", "addr:state": "WI", "amenity": "post_box", "brand": "United States Postal Service", "brand:wikidata": "Q668687", "collection_times": "Mo-Fr 17:00; Sa 11:30", "name": "USPS COLLECTION BOX - PO LOBBY", "note": "ON 12/24 AND 12/31, THIS BOX MAY BE COLLECTED AS EARLY AS 12 NOON.", "nsi_id": "unitedstatespostalservice-a77078", "operator": "United States Postal Service", "operator:short": "USPS", "operator:type": "public", "operator:wikidata": "Q668687", "ref": "5402200019"}, "type": "Feature"}
{"dataset_attributes": {"@spider": "usps_collection_boxes", "spider:collection_time": "2023-12-25T08:25:18.404837"}, "geometry": {"coordinates": [-92.551422687, 44.983629], "type": "Point"}, "id": "kXsVpvyO9LIY1U5LHxoO4iZCj6k=", "properties": {"@spider": "usps_collection_boxes", "addr:city": "ROBERTS", "addr:country": "US", "addr:full": "300 N PARK ST", "addr:postcode": "54023", "addr:state": "WI", "amenity": "post_box", "brand": "United States Postal Service", "brand:wikidata": "Q668687", "collection_times": "Mo-Fr 16:15; Sa 10:30", "name": "USPS COLLECTION BOX - BLUE BOX", "note": "ON 12/24 AND 12/31, THIS BOX MAY BE COLLECTED AS EARLY AS 12 NOON.", "nsi_id": "unitedstatespostalservice-a77078", "operator": "United States Postal Service", "operator:short": "USPS", "operator:type": "public", "operator:wikidata": "Q668687", "ref": "5402300001"}, "type": "Feature"}
{"dataset_attributes": {"@spider": "usps_collection_boxes", "spider:collection_time": "2023-12-25T08:25:18.404837"}, "geometry": {"coordinates": [-92.551422687, 44.983629], "type": "Point"}, "id": "l_XLLGiPGmd-oXYAubMrYlxFG4M=", "properties": {"@spider": "usps_collection_boxes", "addr:city": "ROBERTS", "addr:country": "US", "addr:full": "300 N PARK ST", "addr:postcode": "54023", "addr:state": "WI", "amenity": "post_box", "brand": "United States Postal Service", "brand:wikidata": "Q668687", "collection_times": "Mo-Fr 16:15; Sa 10:30", "name": "USPS COLLECTION BOX - PO LOBBY", "note": "ON 12/24 AND 12/31, THIS BOX MAY BE COLLECTED AS EARLY AS 12 NOON.", "nsi_id": "unitedstatespostalservice-a77078", "operator": "United States Postal Service", "operator:short": "USPS", "operator:type": "public", "operator:wikidata": "Q668687", "ref": "5402300002"}, "type": "Feature"}
{"dataset_attributes": {"@spider": "usps_collection_boxes", "spider:collection_time": "2023-12-25T08:25:18.404837"}, "geometry": {"coordinates": [-92.552893107, 44.992215], "type": "Point"}, "id": "sWmO4LkQIi7a4rGOrcHnR8ibIwA=", "properties": {"@spider": "usps_collection_boxes", "addr:city": "ROBERTS", "addr:country": "US", "addr:full": "900 N DIVISION ST", "addr:postcode": "54023", "addr:state": "WI", "amenity": "post_box", "brand": "United States Postal Service", "brand:wikidata": "Q668687", "collection_times": "Mo-Sa 10:30", "name": "USPS COLLECTION BOX - BLUE BOX", "nsi_id": "unitedstatespostalservice-a77078", "operator": "United States Postal Service", "operator:short": "USPS", "operator:type": "public", "operator:wikidata": "Q668687", "ref": "5402300003"}, "type": "Feature"}
{"dataset_attributes": {"@spider": "usps_collection_boxes", "spider:collection_time": "2023-12-25T08:25:18.404837"}, "geometry": {"coordinates": [-92.551422687, 44.983629], "type": "Point"}, "id": "ek0g_e0pbOPcb5Vinv3s4XyXCXQ=", "properties": {"@spider": "usps_collection_boxes", "addr:city": "ROBERTS", "addr:country": "US", "addr:full": "300 N PARK ST", "addr:postcode": "54023", "addr:state": "WI", "amenity": "post_box", "brand": "United States Postal Service", "brand:wikidata": "Q668687", "collection_times": "Mo-Fr 16:15; Sa 10:30", "name": "USPS COLLECTION BOX - PO LOBBY", "note": "ON 12/24 AND 12/31, THIS BOX MAY BE COLLECTED AS EARLY AS 12 NOON.", "nsi_id": "unitedstatespostalservice-a77078", "operator": "United States Postal Service", "operator:short": "USPS", "operator:type": "public", "operator:wikidata": "Q668687", "ref": "5402300004"}, "type": "Feature"}
{"dataset_attributes": {"@spider": "usps_collection_boxes", "spider:collection_time": "2023-12-25T08:25:18.404837"}, "geometry": {"coordinates": [-92.551422687, 44.983629], "type": "Point"}, "id": "p602KUwf9HUTxflmUhp5AHkQQ9A=", "properties": {"@spider": "usps_collection_boxes", "addr:city": "ROBERTS", "addr:country": "US", "addr:full": "300 N PARK ST", "addr:postcode": "54023", "addr:state": "WI", "amenity": "post_box", "brand": "United States Postal Service", "brand:wikidata": "Q668687", "collection_times": "Mo-Fr 14:15; Sa 10:30", "name": "USPS COLLECTION BOX - PO LOBBY", "note": "ON 12/24 AND 12/31, THIS BOX MAY BE COLLECTED AS EARLY AS 12 NOON.", "nsi_id": "unitedstatespostalservice-a77078", "operator": "United States Postal Service", "operator:short": "USPS", "operator:type": "public", "operator:wikidata": "Q668687", "ref": "5402300006"}, "type": "Feature"}
{"dataset_attributes": {"@spider": "usps_collection_boxes", "spider:collection_time": "2023-12-25T08:25:18.404837"}, "geometry": {"coordinates": [-92.644902115, 45.409662168], "type": "Point"}, "id": "qPyeJpBfmwp6XK0WN2rZCzzZm_I=", "properties": {"@spider": "usps_collection_boxes", "addr:city": "ST CROIX FLS", "addr:country": "US", "addr:full": "113 S WASHINGTON ST", "addr:postcode": "54024", "addr:state": "WI", "amenity": "post_box", "brand": "United States Postal Service", "brand:wikidata": "Q668687", "collection_times": "Mo-Fr 15:00; Sa 10:00", "name": "USPS COLLECTION BOX - BLUE BOX", "note": "ON 12/24 AND 12/31, THIS BOX MAY BE COLLECTED AS EARLY AS 12 NOON.", "nsi_id": "unitedstatespostalservice-a77078", "operator": "United States Postal Service", "operator:short": "USPS", "operator:type": "public", "operator:wikidata": "Q668687", "ref": "5402400001"}, "type": "Feature"}
{"dataset_attributes": {"@spider": "usps_collection_boxes", "spider:collection_time": "2023-12-25T08:25:18.404837"}, "geometry": {"coordinates": [-92.644918824, 45.411074053], "type": "Point"}, "id": "SfPaBDKG9TOnYpcXvyzp990tXJ4=", "properties": {"@spider": "usps_collection_boxes", "addr:city": "ST CROIX FLS", "addr:country": "US", "addr:full": "145 N WASHINGTON ST", "addr:postcode": "54024", "addr:state": "WI", "amenity": "post_box", "brand": "United States Postal Service", "brand:wikidata": "Q668687", "collection_times": "Mo-Sa 12:00", "name": "USPS COLLECTION BOX - BLUE BOX", "nsi_id": "unitedstatespostalservice-a77078", "operator": "United States Postal Service", "operator:short": "USPS", "operator:type": "public", "operator:wikidata": "Q668687", "ref": "5402400002"}, "type": "Feature"}
{"dataset_attributes": {"@spider": "usps_collection_boxes", "spider:collection_time": "2023-12-25T08:25:18.404837"}, "geometry": {"coordinates": [-92.560954028, 45.397534507], "type": "Point"}, "id": "PaNLvDskw6_Bs88-rHMuAGNeQy8=", "properties": {"@spider": "usps_collection_boxes", "addr:city": "ST CROIX FLS", "addr:country": "US", "addr:full": "1960 US HIGHWAY 8", "addr:postcode": "54024", "addr:state": "WI", "amenity": "post_box", "brand": "United States Postal Service", "brand:wikidata": "Q668687", "collection_times": "Mo-Sa 09:30", "name": "USPS COLLECTION BOX - BLUE BOX", "nsi_id": "unitedstatespostalservice-a77078", "operator": "United States Postal Service", "operator:short": "USPS", "operator:type": "public", "operator:wikidata": "Q668687", "ref": "5402400004"}, "type": "Feature"}
{"dataset_attributes": {"@spider": "usps_collection_boxes", "spider:collection_time": "2023-12-25T08:25:18.404837"}, "geometry": {"coordinates": [-92.644902115, 45.409662168], "type": "Point"}, "id": "Dko27OBPuHsAZ-pUAFGToaL4-S0=", "properties": {"@spider": "usps_collection_boxes", "addr:city": "ST CROIX FLS", "addr:country": "US", "addr:full": "113 S WASHINGTON ST", "addr:postcode": "54024", "addr:state": "WI", "amenity": "post_box", "brand": "United States Postal Service", "brand:wikidata": "Q668687", "collection_times": "Mo-Fr 15:00; Sa 10:00", "name": "USPS COLLECTION BOX - PO LOBBY", "note": "ON 12/24 AND 12/31, THIS BOX MAY BE COLLECTED AS EARLY AS 12 NOON.", "nsi_id": "unitedstatespostalservice-a77078", "operator": "United States Postal Service", "operator:short": "USPS", "operator:type": "public", "operator:wikidata": "Q668687", "ref": "5402400005"}, "type": "Feature"}
{"dataset_attributes": {"@spider": "usps_collection_boxes", "spider:collection_time": "2023-12-25T08:25:18.404837"}, "geometry": {"coordinates": [-92.60574386, 45.399545916], "type": "Point"}, "id": "Cjg7CMshcR_kRR_ZOnWVTVchl8M=", "properties": {"@spider": "usps_collection_boxes", "addr:city": "ST CROIX FLS", "addr:country": "US", "addr:full": "2212 GLACIER DR", "addr:postcode": "54024", "addr:state": "WI", "amenity": "post_box", "brand": "United States Postal Service", "brand:wikidata": "Q668687", "collection_times": "Mo-Sa 11:00", "name": "USPS COLLECTION BOX - BLUE BOX", "nsi_id": "unitedstatespostalservice-a77078", "operator": "United States Postal Service", "operator:short": "USPS", "operator:type": "public", "operator:wikidata": "Q668687", "ref": "5402400006"}, "type": "Feature"}
{"dataset_attributes": {"@spider": "usps_collection_boxes", "spider:collection_time": "2023-12-25T08:25:18.404837"}, "geometry": {"coordinates": [-92.644902115, 45.409662168], "type": "Point"}, "id": "xsAnJINNZ4nqWHqYusSTFyihbJY=", "properties": {"@spider": "usps_collection_boxes", "addr:city": "ST CROIX FLS", "addr:country": "US", "addr:full": "113 S WASHINGTON ST", "addr:postcode": "54024", "addr:state": "WI", "amenity": "post_box", "brand": "United States Postal Service", "brand:wikidata": "Q668687", "collection_times": "Mo-Fr 15:00; Sa 10:00", "name": "USPS COLLECTION BOX - PO LOBBY", "note": "ON 12/24 AND 12/31, THIS BOX MAY BE COLLECTED AS EARLY AS 12 NOON.", "nsi_id": "unitedstatespostalservice-a77078", "operator": "United States Postal Service", "operator:short": "USPS", "operator:type": "public", "operator:wikidata": "Q668687", "ref": "5402400008"}, "type": "Feature"}
{"dataset_attributes": {"@spider": "usps_collection_boxes", "spider:collection_time": "2023-12-25T08:25:18.404837"}, "geometry": {"coordinates": [-92.657642307, 45.123934488], "type": "Point"}, "id": "FMeRxzYal0e2xwIAGOc8LHZS2LY=", "properties": {"@spider": "usps_collection_boxes", "addr:city": "SOMERSET", "addr:country": "US", "addr:full": "750 RIVARD ST", "addr:postcode": "54025", "addr:state": "WI", "amenity": "post_box", "brand": "United States Postal Service", "brand:wikidata": "Q668687", "collection_times": "Mo-Fr 16:30; Sa 09:30", "name": "USPS COLLECTION BOX - BLUE BOX", "note": "ON 12/24 AND 12/31, THIS BOX MAY BE COLLECTED AS EARLY AS 12 NOON.", "nsi_id": "unitedstatespostalservice-a77078", "operator": "United States Postal Service", "operator:short": "USPS", "operator:type": "public", "operator:wikidata": "Q668687", "ref": "5402500001"}, "type": "Feature"}
{"dataset_attributes": {"@spider": "usps_collection_boxes", "spider:collection_time": "2023-12-25T08:25:18.404837"}, "geometry": {"coordinates": [-92.657642307, 45.123934488], "type": "Point"}, "id": "uv4oUip19Rdjj5EMv5xTQWowYjM=", "properties": {"@spider": "usps_collection_boxes", "addr:city": "SOMERSET", "addr:country": "US", "addr:full": "750 RIVARD ST", "addr:postcode": "54025", "addr:state": "WI", "amenity": "post_box", "brand": "United States Postal Service", "brand:wikidata": "Q668687", "collection_times": "Mo-Fr 16:30; Sa 09:30", "name": "USPS COLLECTION BOX - PO LOBBY", "note": "ON 12/24 AND 12/31, THIS BOX MAY BE COLLECTED AS EARLY AS 12 NOON.", "nsi_id": "unitedstatespostalservice-a77078", "operator": "United States Postal Service", "operator:short": "USPS", "operator:type": "public", "operator:wikidata": "Q668687", "ref": "5402500002"}, "type": "Feature"}
{"dataset_attributes": {"@spider": "usps_collection_boxes", "spider:collection_time": "2023-12-25T08:25:18.404837"}, "geometry": {"coordinates": [-92.67195681, 45.125267958], "type": "Point"}, "id": "cP-8y6gPVMVEXbn40hLkxLLDspA=", "properties": {"@spider": "usps_collection_boxes", "addr:city": "SOMERSET", "addr:country": "US", "addr:full": "107 PARENT ST", "addr:postcode": "54025", "addr:state": "WI", "amenity": "post_box", "brand": "United States Postal Service", "brand:wikidata": "Q668687", "collection_times": "Mo-Sa 10:00", "name": "USPS COLLECTION BOX - BLUE BOX", "nsi_id": "unitedstatespostalservice-a77078", "operator": "United States Postal Service", "operator:short": "USPS", "operator:type": "public", "operator:wikidata": "Q668687", "ref": "5402500003"}, "type": "Feature"}
{"dataset_attributes": {"@spider": "usps_collection_boxes", "spider:collection_time": "2023-12-25T08:25:18.404837"}, "geometry": {"coordinates": [-92.679771526, 45.123052488], "type": "Point"}, "id": "9X-luEr0CjRB4Utn-ZeDPOgbatE=", "properties": {"@spider": "usps_collection_boxes", "addr:city": "SOMERSET", "addr:country": "US", "addr:full": "410 MAIN ST", "addr:postcode": "54025", "addr:state": "WI", "amenity": "post_box", "brand": "United States Postal Service", "brand:wikidata": "Q668687", "collection_times": "Mo-Sa 11:00", "name": "USPS COLLECTION BOX - BLUE BOX", "nsi_id": "unitedstatespostalservice-a77078", "operator": "United States Postal Service", "operator:short": "USPS", "operator:type": "public", "operator:wikidata": "Q668687", "ref": "5402500004"}, "type": "Feature"}
{"dataset_attributes": {"@spider": "usps_collection_boxes", "spider:collection_time": "2023-12-25T08:25:18.404837"}, "geometry": {"coordinates": [-92.657642307, 45.123934488], "type": "Point"}, "id": "SvmHp-CZTS4Gf7eAaiPpJU2iwRs=", "properties": {"@spider": "usps_collection_boxes", "addr:city": "SOMERSET", "addr:country": "US", "addr:full": "750 RIVARD ST", "addr:postcode": "54025", "addr:state": "WI", "amenity": "post_box", "brand": "United States Postal Service", "brand:wikidata": "Q668687", "collection_times": "Mo-Fr 16:30; Sa 10:00", "name": "USPS COLLECTION BOX - PO LOBBY", "note": "ON 12/24 AND 12/31, THIS BOX MAY BE COLLECTED AS EARLY AS 12 NOON.", "nsi_id": "unitedstatespostalservice-a77078", "operator": "United States Postal Service", "operator:short": "USPS", "operator:type": "public", "operator:wikidata": "Q668687", "ref": "5402500006"}, "type": "Feature"}
{"dataset_attributes": {"@spider": "usps_collection_boxes", "spider:collection_time": "2023-12-25T08:25:18.404837"}, "geometry": {"coordinates": [-92.530992538, 45.196992754], "type": "Point"}, "id": "_DOpQJ03OrbK-enBEjnJImmP_rM=", "properties": {"@spider": "usps_collection_boxes", "addr:city": "STAR PRAIRIE", "addr:country": "US", "addr:full": "300 MAIN ST", "addr:postcode": "54026", "addr:state": "WI", "amenity": "post_box", "brand": "United States Postal Service", "brand:wikidata": "Q668687", "collection_times": "Mo-Fr 14:15; Sa 10:00", "name": "USPS COLLECTION BOX - BLUE BOX", "note": "ON 12/24 AND 12/31, THIS BOX MAY BE COLLECTED AS EARLY AS 12 NOON.", "nsi_id": "unitedstatespostalservice-a77078", "operator": "United States Postal Service", "operator:short": "USPS", "operator:type": "public", "operator:wikidata": "Q668687", "ref": "5402600001"}, "type": "Feature"}
{"dataset_attributes": {"@spider": "usps_collection_boxes", "spider:collection_time": "2023-12-25T08:25:18.404837"}, "geometry": {"coordinates": [-92.530992538, 45.196992754], "type": "Point"}, "id": "lqVRQhP7OFRacSYa-bI-5iIYM9A=", "properties": {"@spider": "usps_collection_boxes", "addr:city": "STAR PRAIRIE", "addr:country": "US", "addr:full": "300 MAIN ST", "addr:postcode": "54026", "addr:state": "WI", "amenity": "post_box", "brand": "United States Postal Service", "brand:wikidata": "Q668687", "collection_times": "Mo-Fr 14:15; Sa 10:00", "name": "USPS COLLECTION BOX - PO LOBBY", "note": "ON 12/24 AND 12/31, THIS BOX MAY BE COLLECTED AS EARLY AS 12 NOON.", "nsi_id": "unitedstatespostalservice-a77078", "operator": "United States Postal Service", "operator:short": "USPS", "operator:type": "public", "operator:wikidata": "Q668687", "ref": "5402600002"}, "type": "Feature"}
{"dataset_attributes": {"@spider": "usps_collection_boxes", "spider:collection_time": "2023-12-25T08:25:18.404837"}, "geometry": {"coordinates": [-92.530992538, 45.196992754], "type": "Point"}, "id": "Vt4PuTLfgjHDarXW-oqmd8ErFxU=", "properties": {"@spider": "usps_collection_boxes", "addr:city": "STAR PRAIRIE", "addr:country": "US", "addr:full": "300 MAIN ST", "addr:postcode": "54026", "addr:state": "WI", "amenity": "post_box", "brand": "United States Postal Service", "brand:wikidata": "Q668687", "collection_times": "Mo-Fr 14:30; Sa 10:00", "name": "USPS COLLECTION BOX - PO LOBBY", "note": "ON 12/24 AND 12/31, THIS BOX MAY BE COLLECTED AS EARLY AS 12 NOON.", "nsi_id": "unitedstatespostalservice-a77078", "operator": "United States Postal Service", "operator:short": "USPS", "operator:type": "public", "operator:wikidata": "Q668687", "ref": "5402600003"}, "type": "Feature"}
{"dataset_attributes": {"@spider": "usps_collection_boxes", "spider:collection_time": "2023-12-25T08:25:18.404837"}, "geometry": {"coordinates": [-92.173585901, 44.953160404], "type": "Point"}, "id": "b-NRj18G-kkdRmlEMR7eS-hZiS4=", "properties": {"@spider": "usps_collection_boxes", "addr:city": "WILSON", "addr:country": "US", "addr:full": "120 LAPOINTE RD S", "addr:postcode": "54027", "addr:state": "WI", "amenity": "post_box", "brand": "United States Postal Service", "brand:wikidata": "Q668687", "collection_times": "Mo-Fr 15:15; Sa 10:00", "name": "USPS COLLECTION BOX - BLUE BOX", "note": "ON 12/24 AND 12/31, THIS BOX MAY BE COLLECTED AS EARLY AS 12 NOON.", "nsi_id": "unitedstatespostalservice-a77078", "operator": "United States Postal Service", "operator:short": "USPS", "operator:type": "public", "operator:wikidata": "Q668687", "ref": "5402700001"}, "type": "Feature"}
{"dataset_attributes": {"@spider": "usps_collection_boxes", "spider:collection_time": "2023-12-25T08:25:18.404837"}, "geometry": {"coordinates": [-92.196493785, 44.935166715], "type": "Point"}, "id": "yGHx0CxSvEqETcGUV9LhEaIszVw=", "properties": {"@spider": "usps_collection_boxes", "addr:city": "WILSON", "addr:country": "US", "addr:full": "531 STATE ROAD 128", "addr:postcode": "54027", "addr:state": "WI", "amenity": "post_box", "brand": "United States Postal Service", "brand:wikidata": "Q668687", "collection_times": "Mo-Sa 10:00", "name": "USPS COLLECTION BOX - BLUE BOX", "nsi_id": "unitedstatespostalservice-a77078", "operator": "United States Postal Service", "operator:short": "USPS", "operator:type": "public", "operator:wikidata": "Q668687", "ref": "5402700002"}, "type": "Feature"}
{"dataset_attributes": {"@spider": "usps_collection_boxes", "spider:collection_time": "2023-12-25T08:25:18.404837"}, "geometry": {"coordinates": [-92.173585901, 44.953160404], "type": "Point"}, "id": "kxq53TnGBHr4XtE0KmEMMUCqBWU=", "properties": {"@spider": "usps_collection_boxes", "addr:city": "WILSON", "addr:country": "US", "addr:full": "120 LAPOINTE RD S", "addr:postcode": "54027", "addr:state": "WI", "amenity": "post_box", "brand": "United States Postal Service", "brand:wikidata": "Q668687", "collection_times": "Mo-Fr 11:45; Sa 10:00", "name": "USPS COLLECTION BOX - PO LOBBY", "nsi_id": "unitedstatespostalservice-a77078", "operator": "United States Postal Service", "operator:short": "USPS", "operator:type": "public", "operator:wikidata": "Q668687", "ref": "5402700003"}, "type": "Feature"}
{"dataset_attributes": {"@spider": "usps_collection_boxes", "spider:collection_time": "2023-12-25T08:25:18.404837"}, "geometry": {"coordinates": [-92.173585901, 44.953160404], "type": "Point"}, "id": "ISsT7t7lrMEpjpr_-q-f6x0iuhk=", "properties": {"@spider": "usps_collection_boxes", "addr:city": "WILSON", "addr:country": "US", "addr:full": "120 LAPOINTE RD S", "addr:postcode": "54027", "addr:state": "WI", "amenity": "post_box", "brand": "United States Postal Service", "brand:wikidata": "Q668687", "collection_times": "Mo-Fr 12:00; Sa 10:00", "name": "USPS COLLECTION BOX - PO LOBBY", "nsi_id": "unitedstatespostalservice-a77078", "operator": "United States Postal Service", "operator:short": "USPS", "operator:type": "public", "operator:wikidata": "Q668687", "ref": "5402700005"}, "type": "Feature"}
{"dataset_attributes": {"@spider": "usps_collection_boxes", "spider:collection_time": "2023-12-25T08:25:18.404837"}, "geometry": {"coordinates": [-92.291334221, 44.952922456], "type": "Point"}, "id": "RLtuSARuWJ6n1PDyX9sq6Y9TE-g=", "properties": {"@spider": "usps_collection_boxes", "addr:city": "WOODVILLE", "addr:country": "US", "addr:full": "102 S MAIN ST", "addr:postcode": "54028", "addr:state": "WI", "amenity": "post_box", "brand": "United States Postal Service", "brand:wikidata": "Q668687", "collection_times": "Mo-Fr 15:30; Sa 10:00", "name": "USPS COLLECTION BOX - BLUE BOX", "note": "ON 12/24 AND 12/31, THIS BOX MAY BE COLLECTED AS EARLY AS 12 NOON.", "nsi_id": "unitedstatespostalservice-a77078", "operator": "United States Postal Service", "operator:short": "USPS", "operator:type": "public", "operator:wikidata": "Q668687", "ref": "5402800001"}, "type": "Feature"}
{"dataset_attributes": {"@spider": "usps_collection_boxes", "spider:collection_time": "2023-12-25T08:25:18.404837"}, "geometry": {"coordinates": [-92.291334221, 44.952922456], "type": "Point"}, "id": "5TK-mQoHr6ZQMXxYGyvy9G86-ss=", "properties": {"@spider": "usps_collection_boxes", "addr:city": "WOODVILLE", "addr:country": "US", "addr:full": "102 S MAIN ST", "addr:postcode": "54028", "addr:state": "WI", "amenity": "post_box", "brand": "United States Postal Service", "brand:wikidata": "Q668687", "collection_times": "Mo-Fr 15:30; Sa 10:00", "name": "USPS COLLECTION BOX - PO LOBBY", "note": "ON 12/24 AND 12/31, THIS BOX MAY BE COLLECTED AS EARLY AS 12 NOON.", "nsi_id": "unitedstatespostalservice-a77078", "operator": "United States Postal Service", "operator:short": "USPS", "operator:type": "public", "operator:wikidata": "Q668687", "ref": "5402800002"}, "type": "Feature"}
{"dataset_attributes": {"@spider": "usps_collection_boxes", "spider:collection_time": "2023-12-25T08:25:18.404837"}, "geometry": {"coordinates": [-92.291334221, 44.952922456], "type": "Point"}, "id": "ZrrsNjbrxLKbfhwPjSWL6bbGQXQ=", "properties": {"@spider": "usps_collection_boxes", "addr:city": "WOODVILLE", "addr:country": "US", "addr:full": "102 S MAIN ST", "addr:postcode": "54028", "addr:state": "WI", "amenity": "post_box", "brand": "United States Postal Service", "brand:wikidata": "Q668687", "collection_times": "Mo-Fr 15:30; Sa 10:00", "name": "USPS COLLECTION BOX - PO LOBBY", "note": "ON 12/24 AND 12/31, THIS BOX MAY BE COLLECTED AS EARLY AS 12 NOON.", "nsi_id": "unitedstatespostalservice-a77078", "operator": "United States Postal Service", "operator:short": "USPS", "operator:type": "public", "operator:wikidata": "Q668687", "ref": "5402800003"}, "type": "Feature"}
