{"geometry": {"coordinates": [-88.059156, 44.779665], "type": "Point"}, "id": "IGiUReFfH3V1l2UzqzYGOPdkr-Y=", "properties": {"@spider": "usps_collection_boxes", "addr:city": "ABRAMS", "addr:country": "US", "addr:full": "5886 MAIN ST", "addr:postcode": "54101", "addr:state": "WI", "brand": "USPS", "collection_times": "Mo-Fr 15:45; Sa 09:45", "name": "USPS COLLECTION BOX - BLUE BOX", "note": "ON 12/24 AND 12/31, THIS BOX MAY BE COLLECTED AS EARLY AS 12 NOON.", "ref": "5410100000"}, "type": "Feature"}
{"geometry": {"coordinates": [-88.059156, 44.779665], "type": "Point"}, "id": "sMYJgeXNqPQ6Z2S3rkMVtSXMCrc=", "properties": {"@spider": "usps_collection_boxes", "addr:city": "ABRAMS", "addr:country": "US", "addr:full": "5886 MAIN ST", "addr:postcode": "54101", "addr:state": "WI", "brand": "USPS", "collection_times": "Mo-Fr 13:45; Sa 09:45", "name": "USPS COLLECTION BOX - PO LOBBY", "note": "ON 12/24 AND 12/31, THIS BOX MAY BE COLLECTED AS EARLY AS 12 NOON.", "ref": "5410100002"}, "type": "Feature"}
{"geometry": {"coordinates": [-88.059155374, 44.779662554], "type": "Point"}, "id": "LpGZjxsPYErcjRlPUPXbW2U6F5A=", "properties": {"@spider": "usps_collection_boxes", "addr:city": "ABRAMS", "addr:country": "US", "addr:full": "5886 MAIN ST", "addr:postcode": "54101", "addr:state": "WI", "brand": "USPS", "collection_times": "Mo-Fr 13:45; Sa 09:45", "name": "USPS COLLECTION BOX - PO LOBBY", "note": "ON 12/24 AND 12/31, THIS BOX MAY BE COLLECTED AS EARLY AS 12 NOON.", "ref": "5410100003"}, "type": "Feature"}
{"geometry": {"coordinates": [-88.4469224, 45.659657], "type": "Point"}, "id": "RQARCTbL7C5nVWio7fqBjQwNW1k=", "properties": {"@spider": "usps_collection_boxes", "addr:city": "ARMSTRONG CREEK", "addr:country": "US", "addr:full": "7943 STATE HIGHWAY 101", "addr:postcode": "54103", "addr:state": "WI", "brand": "USPS", "collection_times": "Mo-Fr 13:15; Sa 10:15", "name": "USPS COLLECTION BOX - BLUE BOX", "note": "ON 12/24 AND 12/31, THIS BOX MAY BE COLLECTED AS EARLY AS 12 NOON.", "ref": "5410300000"}, "type": "Feature"}
{"geometry": {"coordinates": [-88.446639, 45.659752], "type": "Point"}, "id": "1FEZCUCz_CvUiox5sw2ePAeZU2s=", "properties": {"@spider": "usps_collection_boxes", "addr:city": "ARMSTRONG CREEK", "addr:country": "US", "addr:full": "7943 STATE HIGHWAY 101", "addr:postcode": "54103", "addr:state": "WI", "brand": "USPS", "collection_times": "Mo-Fr 11:45; Sa 10:15", "name": "USPS COLLECTION BOX - PO LOBBY", "ref": "5410300001"}, "type": "Feature"}
{"geometry": {"coordinates": [-88.446639, 45.659752], "type": "Point"}, "id": "Y_enL7ifz9CNNIQS9cEPKFG9Edo=", "properties": {"@spider": "usps_collection_boxes", "addr:city": "ARMSTRONG CREEK", "addr:country": "US", "addr:full": "7943 STATE HIGHWAY 101", "addr:postcode": "54103", "addr:state": "WI", "brand": "USPS", "collection_times": "Mo-Fr 11:45; Sa 10:15", "name": "USPS COLLECTION BOX - PO LOBBY", "ref": "5410300002"}, "type": "Feature"}
{"geometry": {"coordinates": [-88.4466282, 45.662722], "type": "Point"}, "id": "sI2uFnS8rp9RwR8HGUz2xhJjAsg=", "properties": {"@spider": "usps_collection_boxes", "addr:city": "ARMSTRONG CREEK", "addr:country": "US", "addr:full": "8017 STATE HIGHWAY 101", "addr:postcode": "54103", "addr:state": "WI", "brand": "USPS", "collection_times": "Mo-Sa 11:30", "name": "USPS COLLECTION BOX - BLUE BOX", "ref": "5410300003"}, "type": "Feature"}
{"geometry": {"coordinates": [-88.446697338, 45.659789881], "type": "Point"}, "id": "pomTwOwJ-7OO82p9BtCiMarcOG0=", "properties": {"@spider": "usps_collection_boxes", "addr:city": "ARMSTRONG CREEK", "addr:country": "US", "addr:full": "7943 STATE HIGHWAY 101", "addr:postcode": "54103", "addr:state": "WI", "brand": "USPS", "collection_times": "Mo-Fr 11:45; Sa 10:15", "name": "USPS COLLECTION BOX - PO LOBBY", "ref": "5410300004"}, "type": "Feature"}
{"geometry": {"coordinates": [-88.062691, 44.175927], "type": "Point"}, "id": "pnpIpJsAp4DXuUlNdGFzLLhkcN8=", "properties": {"@spider": "usps_collection_boxes", "addr:city": "BRILLION", "addr:country": "US", "addr:full": "210 E WATER ST", "addr:postcode": "54110", "addr:state": "WI", "brand": "USPS", "collection_times": "Mo-Fr 16:30; Sa 12:00", "name": "USPS COLLECTION BOX - BLUE BOX", "note": "ON 12/24 AND 12/31, THIS BOX MAY BE COLLECTED AS EARLY AS 12 NOON.", "ref": "5411000000"}, "type": "Feature"}
{"geometry": {"coordinates": [-88.0640805, 44.174371], "type": "Point"}, "id": "hRdp8vJaor6MQR7TYwvSaZKYvKQ=", "properties": {"@spider": "usps_collection_boxes", "addr:city": "BRILLION", "addr:country": "US", "addr:full": "306 S MAIN ST", "addr:postcode": "54110", "addr:state": "WI", "brand": "USPS", "collection_times": "Mo-Fr 13:00; Sa 10:30", "name": "USPS COLLECTION BOX - BLUE BOX", "note": "ON 12/24 AND 12/31, THIS BOX MAY BE COLLECTED AS EARLY AS 12 NOON.", "ref": "5411000002"}, "type": "Feature"}
{"geometry": {"coordinates": [-88.0594036, 44.170731], "type": "Point"}, "id": "sXnXUSvl6DWGjhCDP61TVBmw12k=", "properties": {"@spider": "usps_collection_boxes", "addr:city": "BRILLION", "addr:country": "US", "addr:full": "244 MACARTHUR AVE", "addr:postcode": "54110", "addr:state": "WI", "brand": "USPS", "collection_times": "Mo-Fr 13:00; Sa 10:30", "name": "USPS COLLECTION BOX - BLUE BOX", "note": "ON 12/24 AND 12/31, THIS BOX MAY BE COLLECTED AS EARLY AS 12 NOON.", "ref": "5411000003"}, "type": "Feature"}
{"geometry": {"coordinates": [-88.062691, 44.175927], "type": "Point"}, "id": "HfxOam5fvqI5TRHhYtus4egxFE0=", "properties": {"@spider": "usps_collection_boxes", "addr:city": "BRILLION", "addr:country": "US", "addr:full": "210 E WATER ST", "addr:postcode": "54110", "addr:state": "WI", "brand": "USPS", "collection_times": "Mo-Fr 16:30; Sa 12:00", "name": "USPS COLLECTION BOX - PO LOBBY", "note": "ON 12/24 AND 12/31, THIS BOX MAY BE COLLECTED AS EARLY AS 12 NOON.", "ref": "5411000008"}, "type": "Feature"}
{"geometry": {"coordinates": [-88.062691, 44.175927], "type": "Point"}, "id": "POwECiqb8bfQ5_WGGMbscimALQk=", "properties": {"@spider": "usps_collection_boxes", "addr:city": "BRILLION", "addr:country": "US", "addr:full": "210 E WATER ST", "addr:postcode": "54110", "addr:state": "WI", "brand": "USPS", "collection_times": "Mo-Fr 16:30; Sa 12:00", "name": "USPS COLLECTION BOX - PO LOBBY", "note": "ON 12/24 AND 12/31, THIS BOX MAY BE COLLECTED AS EARLY AS 12 NOON.", "ref": "5411000011"}, "type": "Feature"}
{"geometry": {"coordinates": [-88.0521223, 44.454062], "type": "Point"}, "id": "tKCXnGRJl2R0lh97mIqvT6NYpWA=", "properties": {"@spider": "usps_collection_boxes", "addr:city": "DEPERE", "addr:country": "US", "addr:full": "822 RIDGEWAY BLVD", "addr:postcode": "54115", "addr:state": "WI", "brand": "USPS", "collection_times": "Mo-Fr 12:00; Sa 10:00", "name": "USPS COLLECTION BOX - BLUE BOX", "ref": "5411500000"}, "type": "Feature"}
{"geometry": {"coordinates": [-88.016074974, 44.431850987], "type": "Point"}, "id": "RU4tPc9MdOxByMWCLEUpb6gzpe0=", "properties": {"@spider": "usps_collection_boxes", "addr:city": "DEPERE", "addr:country": "US", "addr:full": "3705 MONROE RD", "addr:postcode": "54115", "addr:state": "WI", "brand": "USPS", "collection_times": "Mo-Fr 09:30; Sa 09:45", "name": "USPS COLLECTION BOX - BLUE BOX", "ref": "5411500003"}, "type": "Feature"}
{"geometry": {"coordinates": [-88.0597724, 44.448962], "type": "Point"}, "id": "MKED5LA77AesH0Zci56Q8re9-AA=", "properties": {"@spider": "usps_collection_boxes", "addr:city": "DEPERE", "addr:country": "US", "addr:full": "415 GEORGE ST", "addr:postcode": "54115", "addr:state": "WI", "brand": "USPS", "collection_times": "Mo-Sa 10:00", "name": "USPS COLLECTION BOX - BLUE BOX", "ref": "5411500009"}, "type": "Feature"}
{"geometry": {"coordinates": [-88.0591255, 44.450109], "type": "Point"}, "id": "79j-RTXOdd-SAlDjql-rxYv1Ezk=", "properties": {"@spider": "usps_collection_boxes", "addr:city": "DEPERE", "addr:country": "US", "addr:full": "206 N WISCONSIN ST", "addr:postcode": "54115", "addr:state": "WI", "brand": "USPS", "collection_times": "Mo-Sa 10:00", "name": "USPS COLLECTION BOX - BLUE BOX", "ref": "5411500012"}, "type": "Feature"}
{"geometry": {"coordinates": [-88.0531306, 44.44873], "type": "Point"}, "id": "LYWcYfHfoOjwRY3WyLdQw1K5FaM=", "properties": {"@spider": "usps_collection_boxes", "addr:city": "DEPERE", "addr:country": "US", "addr:full": "1002 GEORGE ST", "addr:postcode": "54115", "addr:state": "WI", "brand": "USPS", "collection_times": "Mo-Sa 14:00", "name": "USPS COLLECTION BOX - BLUE BOX", "note": "ON 12/24 AND 12/31, THIS BOX MAY BE COLLECTED AS EARLY AS 12 NOON.", "ref": "5411500013"}, "type": "Feature"}
{"geometry": {"coordinates": [-88.084153, 44.449359], "type": "Point"}, "id": "xR8nOCIwOmXFoaaJt-qoqs6Amiw=", "properties": {"@spider": "usps_collection_boxes", "addr:city": "DEPERE", "addr:country": "US", "addr:full": "123 S 9TH ST", "addr:postcode": "54115", "addr:state": "WI", "brand": "USPS", "collection_times": "Mo-Fr 17:30; Sa 17:00", "name": "USPS COLLECTION BOX - BLUE BOX", "note": "ON 12/24 AND 12/31, THIS BOX MAY BE COLLECTED AS EARLY AS 12 NOON.", "ref": "5411500017"}, "type": "Feature"}
{"geometry": {"coordinates": [-87.992893983, 44.45405402], "type": "Point"}, "id": "Ydhz-ncBq9M5FLpRiNceKPqlxdA=", "properties": {"@spider": "usps_collection_boxes", "addr:city": "DEPERE", "addr:country": "US", "addr:full": "2601 MONROE RD", "addr:postcode": "54115", "addr:state": "WI", "brand": "USPS", "collection_times": "Mo-Sa 09:30", "name": "USPS COLLECTION BOX - BLUE BOX", "ref": "5411500023"}, "type": "Feature"}
{"geometry": {"coordinates": [-88.084153, 44.449359], "type": "Point"}, "id": "hNVAtda3C1oukLZUP63ttc2aCAk=", "properties": {"@spider": "usps_collection_boxes", "addr:city": "DEPERE", "addr:country": "US", "addr:full": "123 S 9TH ST", "addr:postcode": "54115", "addr:state": "WI", "brand": "USPS", "collection_times": "Mo-Fr 17:30; Sa 17:00", "name": "USPS COLLECTION BOX - PO LOBBY", "note": "ON 12/24 AND 12/31, THIS BOX MAY BE COLLECTED AS EARLY AS 12 NOON.", "ref": "5411500024"}, "type": "Feature"}
{"geometry": {"coordinates": [-88.0869103, 44.450365], "type": "Point"}, "id": "HbO8xY5ddxHip4SJS0QVA1Y9kTg=", "properties": {"@spider": "usps_collection_boxes", "addr:city": "DEPERE", "addr:country": "US", "addr:full": "1001 MAIN AVE", "addr:postcode": "54115", "addr:state": "WI", "brand": "USPS", "collection_times": "Mo-Sa 14:30", "name": "USPS COLLECTION BOX - BLUE BOX", "note": "ON 12/24 AND 12/31, THIS BOX MAY BE COLLECTED AS EARLY AS 12 NOON.", "ref": "5411500027"}, "type": "Feature"}
{"geometry": {"coordinates": [-88.0597637, 44.448929], "type": "Point"}, "id": "u9v_nYMer09VpxzFTI9T33PeIAs=", "properties": {"@spider": "usps_collection_boxes", "addr:city": "DEPERE", "addr:country": "US", "addr:full": "415 GEORGE ST", "addr:postcode": "54115", "addr:state": "WI", "brand": "USPS", "collection_times": "Mo-Sa 10:00", "name": "USPS COLLECTION BOX - BLUE BOX", "ref": "5411500029"}, "type": "Feature"}
{"geometry": {"coordinates": [-88.0685019, 44.446989], "type": "Point"}, "id": "KQrFEx-2fCWFH3Ci97TKV1Of0Ow=", "properties": {"@spider": "usps_collection_boxes", "addr:city": "DEPERE", "addr:country": "US", "addr:full": "301 MAIN AVE", "addr:postcode": "54115", "addr:state": "WI", "brand": "USPS", "collection_times": "Mo-Sa 10:00", "name": "USPS COLLECTION BOX - BLUE BOX", "ref": "5411500030"}, "type": "Feature"}
{"geometry": {"coordinates": [-88.0351295, 44.436979], "type": "Point"}, "id": "yPtBBCvdtcKYpsYBoYTKT5oKrCQ=", "properties": {"@spider": "usps_collection_boxes", "addr:city": "DEPERE", "addr:country": "US", "addr:full": "575 SWAN RD", "addr:postcode": "54115", "addr:state": "WI", "brand": "USPS", "collection_times": "Mo-Fr 16:30; Sa 14:45", "name": "USPS COLLECTION BOX - BLUE BOX", "note": "ON 12/24 AND 12/31, THIS BOX MAY BE COLLECTED AS EARLY AS 12 NOON.", "ref": "5411500032"}, "type": "Feature"}
{"geometry": {"coordinates": [-88.084153, 44.449359], "type": "Point"}, "id": "XzEYvdxXSncxXPCRAwHF00fKCEo=", "properties": {"@spider": "usps_collection_boxes", "addr:city": "DEPERE", "addr:country": "US", "addr:full": "123 S 9TH ST", "addr:postcode": "54115", "addr:state": "WI", "brand": "USPS", "collection_times": "Mo-Fr 17:30; Sa 17:00", "name": "USPS COLLECTION BOX - APC", "note": "ON 12/24 AND 12/31, THIS BOX MAY BE COLLECTED AS EARLY AS 12 NOON.", "ref": "5411500033"}, "type": "Feature"}
{"geometry": {"coordinates": [-88.084176983, 44.449323393], "type": "Point"}, "id": "pV-I32UxTYK0gAbcc38DBZVhk_M=", "properties": {"@spider": "usps_collection_boxes", "addr:city": "DEPERE", "addr:country": "US", "addr:full": "123 S 9TH ST", "addr:postcode": "54115", "addr:state": "WI", "brand": "USPS", "collection_times": "Mo-Fr 17:30; Sa 17:00", "name": "USPS COLLECTION BOX - PO LOBBY", "note": "ON 12/24 AND 12/31, THIS BOX MAY BE COLLECTED AS EARLY AS 12 NOON.", "ref": "5411500035"}, "type": "Feature"}
{"geometry": {"coordinates": [-88.425463, 45.744859], "type": "Point"}, "id": "25gwcxqVeGEqgPTEcK00Jc4pieo=", "properties": {"@spider": "usps_collection_boxes", "addr:city": "FENCE", "addr:country": "US", "addr:full": "603 MEMORY LN", "addr:postcode": "54120", "addr:state": "WI", "brand": "USPS", "collection_times": "Mo-Sa 12:00", "name": "USPS COLLECTION BOX - BLUE BOX", "ref": "5412000002"}, "type": "Feature"}
{"geometry": {"coordinates": [-88.24973, 45.92243], "type": "Point"}, "id": "s5igWGn4pJq6fGumLAzSG3Nx4VI=", "properties": {"@spider": "usps_collection_boxes", "addr:city": "FLORENCE", "addr:country": "US", "addr:full": "540 CENTRAL AVE", "addr:postcode": "54121", "addr:state": "WI", "brand": "USPS", "collection_times": "Mo-Fr 15:45; Sa 11:30", "name": "USPS COLLECTION BOX - BLUE BOX", "note": "ON 12/24 AND 12/31, THIS BOX MAY BE COLLECTED AS EARLY AS 12 NOON.", "ref": "5412100001"}, "type": "Feature"}
{"geometry": {"coordinates": [-88.249707, 45.922402], "type": "Point"}, "id": "zERj-jOH8fp4xml_ErMgZmUrdlo=", "properties": {"@spider": "usps_collection_boxes", "addr:city": "FLORENCE", "addr:country": "US", "addr:full": "540 CENTRAL AVE", "addr:postcode": "54121", "addr:state": "WI", "brand": "USPS", "collection_times": "Mo-Fr 15:45; Sa 11:30", "name": "USPS COLLECTION BOX - PO LOBBY", "note": "ON 12/24 AND 12/31, THIS BOX MAY BE COLLECTED AS EARLY AS 12 NOON.", "ref": "5412100003"}, "type": "Feature"}
{"geometry": {"coordinates": [-88.249707, 45.922402], "type": "Point"}, "id": "sirhl22yEaUTjM97ZQ7mr64rqRI=", "properties": {"@spider": "usps_collection_boxes", "addr:city": "FLORENCE", "addr:country": "US", "addr:full": "540 CENTRAL AVE", "addr:postcode": "54121", "addr:state": "WI", "brand": "USPS", "collection_times": "Mo-Fr 15:45; Sa 11:30", "name": "USPS COLLECTION BOX - PO LOBBY", "note": "ON 12/24 AND 12/31, THIS BOX MAY BE COLLECTED AS EARLY AS 12 NOON.", "ref": "5412100004"}, "type": "Feature"}
{"geometry": {"coordinates": [-88.250210832, 45.922437512], "type": "Point"}, "id": "JTc5kX3aQ0ptVUoai4XuQ-N__7A=", "properties": {"@spider": "usps_collection_boxes", "addr:city": "FLORENCE", "addr:country": "US", "addr:full": "540 CENTRAL AVE", "addr:postcode": "54121", "addr:state": "WI", "brand": "USPS", "collection_times": "Mo-Fr 15:45; Sa 11:30", "name": "USPS COLLECTION BOX - PO LOBBY", "note": "ON 12/24 AND 12/31, THIS BOX MAY BE COLLECTED AS EARLY AS 12 NOON.", "ref": "5412100005"}, "type": "Feature"}
{"geometry": {"coordinates": [-88.146819, 44.212302], "type": "Point"}, "id": "CYmACFvDYxRco0zc8RNcpklDOMg=", "properties": {"@spider": "usps_collection_boxes", "addr:city": "FOREST JUNCTION", "addr:country": "US", "addr:full": "W2137 US HIGHWAY 10", "addr:postcode": "54123", "addr:state": "WI", "brand": "USPS", "collection_times": "Mo-Fr 17:00; Sa 10:00", "name": "USPS COLLECTION BOX - BLUE BOX", "note": "ON 12/24 AND 12/31, THIS BOX MAY BE COLLECTED AS EARLY AS 12 NOON.", "ref": "5412300001"}, "type": "Feature"}
{"geometry": {"coordinates": [-88.146785, 44.212328], "type": "Point"}, "id": "0fcX0X8O8C3YndJLI-VD6vENZVM=", "properties": {"@spider": "usps_collection_boxes", "addr:city": "FOREST JUNCTION", "addr:country": "US", "addr:full": "W2137 US HIGHWAY 10", "addr:postcode": "54123", "addr:state": "WI", "brand": "USPS", "collection_times": "Mo-Fr 14:00; Sa 10:00", "name": "USPS COLLECTION BOX - PO LOBBY", "note": "ON 12/24 AND 12/31, THIS BOX MAY BE COLLECTED AS EARLY AS 12 NOON.", "ref": "5412300002"}, "type": "Feature"}
{"geometry": {"coordinates": [-88.146071612, 44.212282492], "type": "Point"}, "id": "yUr6pjIdhAgs4xrlUenxTTRyRhw=", "properties": {"@spider": "usps_collection_boxes", "addr:city": "FOREST JUNCTION", "addr:country": "US", "addr:full": "W2137 HIGHWAY 10", "addr:postcode": "54123", "addr:state": "WI", "brand": "USPS", "collection_times": "Mo-Fr 14:00; Sa 10:00", "name": "USPS COLLECTION BOX - PO LOBBY", "note": "ON 12/24 AND 12/31, THIS BOX MAY BE COLLECTED AS EARLY AS 12 NOON.", "ref": "5412300003"}, "type": "Feature"}
{"geometry": {"coordinates": [-88.3554334, 45.631607], "type": "Point"}, "id": "xBMIqm2gPEUcdi9xCOE3RrOpQ-c=", "properties": {"@spider": "usps_collection_boxes", "addr:city": "GOODMAN", "addr:country": "US", "addr:full": "200 A ST", "addr:postcode": "54125", "addr:state": "WI", "brand": "USPS", "collection_times": "Mo-Fr 13:15; Sa 10:45", "name": "USPS COLLECTION BOX - BLUE BOX", "note": "ON 12/24 AND 12/31, THIS BOX MAY BE COLLECTED AS EARLY AS 12 NOON.", "ref": "5412500000"}, "type": "Feature"}
{"geometry": {"coordinates": [-88.35527, 45.63183], "type": "Point"}, "id": "HMvi79MeeAvgUtuedz-kJArGMmQ=", "properties": {"@spider": "usps_collection_boxes", "addr:city": "GOODMAN", "addr:country": "US", "addr:full": "200 A ST", "addr:postcode": "54125", "addr:state": "WI", "brand": "USPS", "collection_times": "Mo-Fr 11:45; Sa 10:30", "name": "USPS COLLECTION BOX - PO LOBBY", "ref": "5412500001"}, "type": "Feature"}
{"geometry": {"coordinates": [-88.333628373, 45.634239013], "type": "Point"}, "id": "XDZSsrA9NCP-urPkkYRd4iuhRDg=", "properties": {"@spider": "usps_collection_boxes", "addr:city": "GOODMAN", "addr:country": "US", "addr:full": "W14681 US HIGHWAY 8", "addr:postcode": "54125", "addr:state": "WI", "brand": "USPS", "collection_times": "Mo-Sa 10:30", "name": "USPS COLLECTION BOX - BLUE BOX", "ref": "5412500003"}, "type": "Feature"}
{"geometry": {"coordinates": [-88.355330906, 45.631834676], "type": "Point"}, "id": "Vj67XBAZgV9Li7pxgFUbDmLoXLY=", "properties": {"@spider": "usps_collection_boxes", "addr:city": "GOODMAN", "addr:country": "US", "addr:full": "200 A ST", "addr:postcode": "54125", "addr:state": "WI", "brand": "USPS", "collection_times": "Mo-Fr 11:45; Sa 10:30", "name": "USPS COLLECTION BOX - PO LOBBY", "ref": "5412500004"}, "type": "Feature"}
{"geometry": {"coordinates": [-88.096059, 44.312851], "type": "Point"}, "id": "Za3ykfQC8fOJvRtOPQ7zAZ67om0=", "properties": {"@spider": "usps_collection_boxes", "addr:city": "GREENLEAF", "addr:country": "US", "addr:full": "6814 STATE RD 57", "addr:postcode": "54126", "addr:state": "WI", "brand": "USPS", "collection_times": "Mo-Fr 16:30; Sa 10:00", "name": "USPS COLLECTION BOX - BLUE BOX", "note": "ON 12/24 AND 12/31, THIS BOX MAY BE COLLECTED AS EARLY AS 12 NOON.", "ref": "5412600000"}, "type": "Feature"}
{"geometry": {"coordinates": [-88.096059, 44.312851], "type": "Point"}, "id": "cHzD2UBB4rDd9L6IVyisli_66Ok=", "properties": {"@spider": "usps_collection_boxes", "addr:city": "GREENLEAF", "addr:country": "US", "addr:full": "6814 STATE RD 57", "addr:postcode": "54126", "addr:state": "WI", "brand": "USPS", "collection_times": "Mo-Fr 16:30; Sa 10:00", "name": "USPS COLLECTION BOX - PO LOBBY", "note": "ON 12/24 AND 12/31, THIS BOX MAY BE COLLECTED AS EARLY AS 12 NOON.", "ref": "5412600001"}, "type": "Feature"}
{"geometry": {"coordinates": [-88.096059, 44.312851], "type": "Point"}, "id": "gHZRWuSG5DIAAv7uI5iOkBOySUM=", "properties": {"@spider": "usps_collection_boxes", "addr:city": "GREENLEAF", "addr:country": "US", "addr:full": "6814 STATE RD 57", "addr:postcode": "54126", "addr:state": "WI", "brand": "USPS", "collection_times": "Mo-Fr 16:30; Sa 10:00", "name": "USPS COLLECTION BOX - PO LOBBY", "note": "ON 12/24 AND 12/31, THIS BOX MAY BE COLLECTED AS EARLY AS 12 NOON.", "ref": "5412600002"}, "type": "Feature"}
{"geometry": {"coordinates": [-88.096059, 44.312851], "type": "Point"}, "id": "fcUsq93-5izgvD-xI7vM8yMXvn0=", "properties": {"@spider": "usps_collection_boxes", "addr:city": "GREENLEAF", "addr:country": "US", "addr:full": "6814 STATE RD 57", "addr:postcode": "54126", "addr:state": "WI", "brand": "USPS", "collection_times": "Mo-Fr 16:30; Sa 10:00", "name": "USPS COLLECTION BOX - PO LOBBY", "note": "ON 12/24 AND 12/31, THIS BOX MAY BE COLLECTED AS EARLY AS 12 NOON.", "ref": "5412600003"}, "type": "Feature"}
{"geometry": {"coordinates": [-88.096059872, 44.312850922], "type": "Point"}, "id": "fH0O9K7QmFFtZYJ_6z1iK2uTiPs=", "properties": {"@spider": "usps_collection_boxes", "addr:city": "GREENLEAF", "addr:country": "US", "addr:full": "6814 STATE RD 57", "addr:postcode": "54126", "addr:state": "WI", "brand": "USPS", "collection_times": "Mo-Fr 16:30; Sa 10:00", "name": "USPS COLLECTION BOX - PO LOBBY", "note": "ON 12/24 AND 12/31, THIS BOX MAY BE COLLECTED AS EARLY AS 12 NOON.", "ref": "5412600004"}, "type": "Feature"}
{"geometry": {"coordinates": [-88.787051, 44.851669], "type": "Point"}, "id": "EqqYVOMTGkRXcmbzLoBBpM2qmlY=", "properties": {"@spider": "usps_collection_boxes", "addr:city": "GRESHAM", "addr:country": "US", "addr:full": "1201 MAIN ST", "addr:postcode": "54128", "addr:state": "WI", "brand": "USPS", "collection_times": "Mo-Fr 15:45; Sa 10:15", "name": "USPS COLLECTION BOX - BLUE BOX", "note": "ON 12/24 AND 12/31, THIS BOX MAY BE COLLECTED AS EARLY AS 12 NOON.", "ref": "5412800000"}, "type": "Feature"}
{"geometry": {"coordinates": [-88.787051, 44.851669], "type": "Point"}, "id": "VpP2jxLNDPN8jQZ4gQkT5SMBPPE=", "properties": {"@spider": "usps_collection_boxes", "addr:city": "GRESHAM", "addr:country": "US", "addr:full": "1201 MAIN ST", "addr:postcode": "54128", "addr:state": "WI", "brand": "USPS", "collection_times": "Mo-Fr 15:45; Sa 10:15", "name": "USPS COLLECTION BOX - PO LOBBY", "note": "ON 12/24 AND 12/31, THIS BOX MAY BE COLLECTED AS EARLY AS 12 NOON.", "ref": "5412800001"}, "type": "Feature"}
{"geometry": {"coordinates": [-88.787051, 44.851669], "type": "Point"}, "id": "MUWRX_wH2O22wE_N2a4QT5xzYyc=", "properties": {"@spider": "usps_collection_boxes", "addr:city": "GRESHAM", "addr:country": "US", "addr:full": "1201 MAIN ST", "addr:postcode": "54128", "addr:state": "WI", "brand": "USPS", "collection_times": "Mo-Fr 15:45; Sa 10:15", "name": "USPS COLLECTION BOX - PO LOBBY", "note": "ON 12/24 AND 12/31, THIS BOX MAY BE COLLECTED AS EARLY AS 12 NOON.", "ref": "5412800002"}, "type": "Feature"}
{"geometry": {"coordinates": [-88.78705128, 44.851662], "type": "Point"}, "id": "706AKuNhytjmWtoObreIjKtsSqY=", "properties": {"@spider": "usps_collection_boxes", "addr:city": "GRESHAM", "addr:country": "US", "addr:full": "1201 MAIN ST", "addr:postcode": "54128", "addr:state": "WI", "brand": "USPS", "collection_times": "Mo-Fr 15:45; Sa 10:15", "name": "USPS COLLECTION BOX - PO LOBBY", "note": "ON 12/24 AND 12/31, THIS BOX MAY BE COLLECTED AS EARLY AS 12 NOON.", "ref": "5412800003"}, "type": "Feature"}
{"geometry": {"coordinates": [-88.157875, 44.139395], "type": "Point"}, "id": "2UGkr-AzYpkVNNeodXEXB1CaDmU=", "properties": {"@spider": "usps_collection_boxes", "addr:city": "HILBERT", "addr:country": "US", "addr:full": "305 W MAIN ST", "addr:postcode": "54129", "addr:state": "WI", "brand": "USPS", "collection_times": "Mo-Fr 16:00; Sa 10:00", "name": "USPS COLLECTION BOX - BLUE BOX", "note": "ON 12/24 AND 12/31, THIS BOX MAY BE COLLECTED AS EARLY AS 12 NOON.", "ref": "5412900000"}, "type": "Feature"}
{"geometry": {"coordinates": [-88.157875, 44.139395], "type": "Point"}, "id": "-AuOCOaTmZRqhhcHPaxjHOZDlIs=", "properties": {"@spider": "usps_collection_boxes", "addr:city": "HILBERT", "addr:country": "US", "addr:full": "305 W MAIN ST", "addr:postcode": "54129", "addr:state": "WI", "brand": "USPS", "collection_times": "Mo-Fr 16:00; Sa 10:00", "name": "USPS COLLECTION BOX - PO LOBBY", "note": "ON 12/24 AND 12/31, THIS BOX MAY BE COLLECTED AS EARLY AS 12 NOON.", "ref": "5412900001"}, "type": "Feature"}
{"geometry": {"coordinates": [-88.157875, 44.139395], "type": "Point"}, "id": "lTXGwMqzY7E_K1aaoz30Sij_f_M=", "properties": {"@spider": "usps_collection_boxes", "addr:city": "HILBERT", "addr:country": "US", "addr:full": "305 W MAIN ST", "addr:postcode": "54129", "addr:state": "WI", "brand": "USPS", "collection_times": "Mo-Fr 16:00; Sa 10:00", "name": "USPS COLLECTION BOX - PO LOBBY", "note": "ON 12/24 AND 12/31, THIS BOX MAY BE COLLECTED AS EARLY AS 12 NOON.", "ref": "5412900002"}, "type": "Feature"}
{"geometry": {"coordinates": [-88.157952168, 44.139356488], "type": "Point"}, "id": "qzffc2haem5OCv-_wYLPPSU44Dc=", "properties": {"@spider": "usps_collection_boxes", "addr:city": "HILBERT", "addr:country": "US", "addr:full": "305 W MAIN ST", "addr:postcode": "54129", "addr:state": "WI", "brand": "USPS", "collection_times": "Mo-Fr 16:00; Sa 10:00", "name": "USPS COLLECTION BOX - PO LOBBY", "note": "ON 12/24 AND 12/31, THIS BOX MAY BE COLLECTED AS EARLY AS 12 NOON.", "ref": "5412900003"}, "type": "Feature"}
{"geometry": {"coordinates": [-88.647812, 44.885488], "type": "Point"}, "id": "PxZoZTORFiLSs04UdwVfIrtJpCU=", "properties": {"@spider": "usps_collection_boxes", "addr:city": "KESHENA", "addr:country": "US", "addr:full": "W3210 WOLF RIVER RD", "addr:postcode": "54135", "addr:state": "WI", "brand": "USPS", "collection_times": "Mo-Fr 16:15; Sa 11:00", "name": "USPS COLLECTION BOX - BLUE BOX", "note": "ON 12/24 AND 12/31, THIS BOX MAY BE COLLECTED AS EARLY AS 12 NOON.", "ref": "5413500000"}, "type": "Feature"}
{"geometry": {"coordinates": [-88.647795, 44.885513], "type": "Point"}, "id": "KrgrKph2LOeBojc16Y7FxBiDpRU=", "properties": {"@spider": "usps_collection_boxes", "addr:city": "KESHENA", "addr:country": "US", "addr:full": "W3210 WOLF RIVER RD", "addr:postcode": "54135", "addr:state": "WI", "brand": "USPS", "collection_times": "Mo-Fr 16:15; Sa 11:00", "name": "USPS COLLECTION BOX - PO LOBBY", "note": "ON 12/24 AND 12/31, THIS BOX MAY BE COLLECTED AS EARLY AS 12 NOON.", "ref": "5413500001"}, "type": "Feature"}
{"geometry": {"coordinates": [-88.647795, 44.885513], "type": "Point"}, "id": "oLtYe-6GF1HfacbqQB8ZJk5s3xU=", "properties": {"@spider": "usps_collection_boxes", "addr:city": "KESHENA", "addr:country": "US", "addr:full": "W3210 WOLF RIVER RD", "addr:postcode": "54135", "addr:state": "WI", "brand": "USPS", "collection_times": "Mo-Fr 16:15; Sa 11:00", "name": "USPS COLLECTION BOX - PO LOBBY", "note": "ON 12/24 AND 12/31, THIS BOX MAY BE COLLECTED AS EARLY AS 12 NOON.", "ref": "5413500002"}, "type": "Feature"}
{"geometry": {"coordinates": [-88.647936852, 44.885569244], "type": "Point"}, "id": "XvkQ1s_S3VrVTqKna-0Uh4ifFYQ=", "properties": {"@spider": "usps_collection_boxes", "addr:city": "KESHENA", "addr:country": "US", "addr:full": "W3210 WOLF RIVER RD", "addr:postcode": "54135", "addr:state": "WI", "brand": "USPS", "collection_times": "Mo-Fr 16:15; Sa 11:00", "name": "USPS COLLECTION BOX - PO LOBBY", "note": "ON 12/24 AND 12/31, THIS BOX MAY BE COLLECTED AS EARLY AS 12 NOON.", "ref": "5413500003"}, "type": "Feature"}
{"geometry": {"coordinates": [-88.250675, 44.756636], "type": "Point"}, "id": "ZU4mUl9FyiWEip6shff45PP4Q3E=", "properties": {"@spider": "usps_collection_boxes", "addr:city": "KRAKOW", "addr:country": "US", "addr:full": "N4805 STATE HIGHWAY 32", "addr:postcode": "54137", "addr:state": "WI", "brand": "USPS", "collection_times": "Mo-Fr 16:00; Sa 10:00", "name": "USPS COLLECTION BOX - BLUE BOX", "note": "ON 12/24 AND 12/31, THIS BOX MAY BE COLLECTED AS EARLY AS 12 NOON.", "ref": "5413700000"}, "type": "Feature"}
{"geometry": {"coordinates": [-88.251259, 44.756423], "type": "Point"}, "id": "3GC7AdZTePxGUuelHI824ukSQJ4=", "properties": {"@spider": "usps_collection_boxes", "addr:city": "KRAKOW", "addr:country": "US", "addr:full": "N4805 STATE HIGHWAY 32", "addr:postcode": "54137", "addr:state": "WI", "brand": "USPS", "collection_times": "Mo-Fr 14:15; Sa 09:15", "name": "USPS COLLECTION BOX - PO LOBBY", "note": "ON 12/24 AND 12/31, THIS BOX MAY BE COLLECTED AS EARLY AS 12 NOON.", "ref": "5413700001"}, "type": "Feature"}
{"geometry": {"coordinates": [-88.251259, 44.756423], "type": "Point"}, "id": "qowshwSXjN6KrX-bboggN5HXHjQ=", "properties": {"@spider": "usps_collection_boxes", "addr:city": "KRAKOW", "addr:country": "US", "addr:full": "N4805 STATE HIGHWAY 32", "addr:postcode": "54137", "addr:state": "WI", "brand": "USPS", "collection_times": "Mo-Fr 14:15; Sa 09:15", "name": "USPS COLLECTION BOX - PO LOBBY", "note": "ON 12/24 AND 12/31, THIS BOX MAY BE COLLECTED AS EARLY AS 12 NOON.", "ref": "5413700002"}, "type": "Feature"}
{"geometry": {"coordinates": [-88.1565035, 44.718404], "type": "Point"}, "id": "CtCIjY7CzX7fU1ejbjajS-ISv54=", "properties": {"@spider": "usps_collection_boxes", "addr:city": "KRAKOW", "addr:country": "US", "addr:full": "7786 COUNTY RD S", "addr:postcode": "54137", "addr:state": "WI", "brand": "USPS", "collection_times": "Mo-Sa 12:30", "name": "USPS COLLECTION BOX - BLUE BOX", "note": "ON 12/24 AND 12/31, THIS BOX MAY BE COLLECTED AS EARLY AS 12 NOON.", "ref": "5413700003"}, "type": "Feature"}
{"geometry": {"coordinates": [-88.250657673, 44.75648656], "type": "Point"}, "id": "xsr6ccMMFAGSmIK2aY1nqKRfKwo=", "properties": {"@spider": "usps_collection_boxes", "addr:city": "KRAKOW", "addr:country": "US", "addr:full": "N4805 STATE HIGHWAY 32", "addr:postcode": "54137", "addr:state": "WI", "brand": "USPS", "collection_times": "Mo-Fr 14:15; Sa 09:15", "name": "USPS COLLECTION BOX - PO LOBBY", "note": "ON 12/24 AND 12/31, THIS BOX MAY BE COLLECTED AS EARLY AS 12 NOON.", "ref": "5413700004"}, "type": "Feature"}
{"geometry": {"coordinates": [-88.521651, 45.300196], "type": "Point"}, "id": "d6we4chsmT4ivUTfW4nAxxR7DCM=", "properties": {"@spider": "usps_collection_boxes", "addr:city": "LAKEWOOD", "addr:country": "US", "addr:full": "15283 STATE RD 32", "addr:postcode": "54138", "addr:state": "WI", "brand": "USPS", "collection_times": "Mo-Fr 16:00; Sa 10:30", "name": "USPS COLLECTION BOX - BLUE BOX", "note": "ON 12/24 AND 12/31, THIS BOX MAY BE COLLECTED AS EARLY AS 12 NOON.", "ref": "5413800000"}, "type": "Feature"}
{"geometry": {"coordinates": [-88.521651, 45.300196], "type": "Point"}, "id": "fy21wbSwIo8yDZq4yKMcnkm2jqc=", "properties": {"@spider": "usps_collection_boxes", "addr:city": "LAKEWOOD", "addr:country": "US", "addr:full": "15283 STATE HIGHWAY 32", "addr:postcode": "54138", "addr:state": "WI", "brand": "USPS", "collection_times": "Mo-Fr 16:00; Sa 10:30", "name": "USPS COLLECTION BOX - PO LOBBY", "note": "ON 12/24 AND 12/31, THIS BOX MAY BE COLLECTED AS EARLY AS 12 NOON.", "ref": "5413800001"}, "type": "Feature"}
{"geometry": {"coordinates": [-88.521651, 45.300193], "type": "Point"}, "id": "qi-owsD0hZlpx7ZJc3xrmEDKk3E=", "properties": {"@spider": "usps_collection_boxes", "addr:city": "LAKEWOOD", "addr:country": "US", "addr:full": "15283 STATE RD 32", "addr:postcode": "54138", "addr:state": "WI", "brand": "USPS", "collection_times": "Mo-Fr 16:00; Sa 10:30", "name": "USPS COLLECTION BOX - PO LOBBY", "note": "ON 12/24 AND 12/31, THIS BOX MAY BE COLLECTED AS EARLY AS 12 NOON.", "ref": "5413800002"}, "type": "Feature"}
{"geometry": {"coordinates": [-88.521341484, 45.30008521], "type": "Point"}, "id": "WJyXlA2rYZ8MEGvTOLyaWwqYNTo=", "properties": {"@spider": "usps_collection_boxes", "addr:city": "LAKEWOOD", "addr:country": "US", "addr:full": "15283 STATE HIGHWAY 32", "addr:postcode": "54138", "addr:state": "WI", "brand": "USPS", "collection_times": "Mo-Fr 16:00; Sa 10:30", "name": "USPS COLLECTION BOX - PO LOBBY", "note": "ON 12/24 AND 12/31, THIS BOX MAY BE COLLECTED AS EARLY AS 12 NOON.", "ref": "5413800003"}, "type": "Feature"}
{"geometry": {"coordinates": [-88.048715, 44.951481], "type": "Point"}, "id": "dGnUfbDzghe6obBmHM51HosW3aY=", "properties": {"@spider": "usps_collection_boxes", "addr:city": "LENA", "addr:country": "US", "addr:full": "133 E RAILROAD ST", "addr:postcode": "54139", "addr:state": "WI", "brand": "USPS", "collection_times": "Mo-Fr 15:30; Sa 10:00", "name": "USPS COLLECTION BOX - BLUE BOX", "note": "ON 12/24 AND 12/31, THIS BOX MAY BE COLLECTED AS EARLY AS 12 NOON.", "ref": "5413900000"}, "type": "Feature"}
{"geometry": {"coordinates": [-88.048715, 44.951481], "type": "Point"}, "id": "c6kT9AkdDSyel1oq4faK1ASYUL0=", "properties": {"@spider": "usps_collection_boxes", "addr:city": "LENA", "addr:country": "US", "addr:full": "133 E RAILROAD ST", "addr:postcode": "54139", "addr:state": "WI", "brand": "USPS", "collection_times": "Mo-Fr 15:30; Sa 09:00", "name": "USPS COLLECTION BOX - PO LOBBY", "note": "ON 12/24 AND 12/31, THIS BOX MAY BE COLLECTED AS EARLY AS 12 NOON.", "ref": "5413900001"}, "type": "Feature"}
{"geometry": {"coordinates": [-88.048715, 44.951481], "type": "Point"}, "id": "aq4Ke_m2oU17jdbDYUb4IvEVsM0=", "properties": {"@spider": "usps_collection_boxes", "addr:city": "LENA", "addr:country": "US", "addr:full": "133 E RAILROAD ST", "addr:postcode": "54139", "addr:state": "WI", "brand": "USPS", "collection_times": "Mo-Fr 15:30; Sa 09:00", "name": "USPS COLLECTION BOX - PO LOBBY", "note": "ON 12/24 AND 12/31, THIS BOX MAY BE COLLECTED AS EARLY AS 12 NOON.", "ref": "5413900002"}, "type": "Feature"}
{"geometry": {"coordinates": [-88.0328863, 44.951408], "type": "Point"}, "id": "6IieYBsj_xvEy4C77IJ_gs14YVc=", "properties": {"@spider": "usps_collection_boxes", "addr:city": "LENA", "addr:country": "US", "addr:full": "5430 COUNTY ROAD A", "addr:postcode": "54139", "addr:state": "WI", "brand": "USPS", "collection_times": "Mo-Sa 09:30", "name": "USPS COLLECTION BOX - BLUE BOX", "ref": "5413900003"}, "type": "Feature"}
{"geometry": {"coordinates": [-88.0487384376, 44.9514618992], "type": "Point"}, "id": "mWEEW0BlSFZYGUGF4Q4MoIdvA24=", "properties": {"@spider": "usps_collection_boxes", "addr:city": "LENA", "addr:country": "US", "addr:full": "133 E RAILROAD ST", "addr:postcode": "54139", "addr:state": "WI", "brand": "USPS", "collection_times": "Mo-Fr 15:30; Sa 09:00", "name": "USPS COLLECTION BOX - PO LOBBY", "note": "ON 12/24 AND 12/31, THIS BOX MAY BE COLLECTED AS EARLY AS 12 NOON.", "ref": "5413900004"}, "type": "Feature"}
{"geometry": {"coordinates": [-88.00919, 44.715648], "type": "Point"}, "id": "CzoTwVjlJLewR0B_Xvb0_Lm4tHI=", "properties": {"@spider": "usps_collection_boxes", "addr:city": "LITTLE SUAMICO", "addr:country": "US", "addr:full": "1145 GROSSE RD", "addr:postcode": "54141", "addr:state": "WI", "brand": "USPS", "collection_times": "Mo-Fr 16:15; Sa 09:30", "name": "USPS COLLECTION BOX - BLUE BOX", "note": "ON 12/24 AND 12/31, THIS BOX MAY BE COLLECTED AS EARLY AS 12 NOON.", "ref": "5414100000"}, "type": "Feature"}
{"geometry": {"coordinates": [-88.00919, 44.715648], "type": "Point"}, "id": "nrAYnWeS9p1bIPncLYC7mMGUEOY=", "properties": {"@spider": "usps_collection_boxes", "addr:city": "LITTLE SUAMICO", "addr:country": "US", "addr:full": "1145 GROSSE RD", "addr:postcode": "54141", "addr:state": "WI", "brand": "USPS", "collection_times": "Mo-Fr 13:45; Sa 09:00", "name": "USPS COLLECTION BOX - PO LOBBY", "note": "ON 12/24 AND 12/31, THIS BOX MAY BE COLLECTED AS EARLY AS 12 NOON.", "ref": "5414100003"}, "type": "Feature"}
{"geometry": {"coordinates": [-88.009189159, 44.715647923], "type": "Point"}, "id": "iZR17CvFFrc5KZ9pETGd9U2IK-U=", "properties": {"@spider": "usps_collection_boxes", "addr:city": "LITTLE SUAMICO", "addr:country": "US", "addr:full": "1145 GROSSE RD", "addr:postcode": "54141", "addr:state": "WI", "brand": "USPS", "collection_times": "Mo-Fr 13:45; Sa 09:00", "name": "USPS COLLECTION BOX - PO LOBBY", "note": "ON 12/24 AND 12/31, THIS BOX MAY BE COLLECTED AS EARLY AS 12 NOON.", "ref": "5414100004"}, "type": "Feature"}
{"geometry": {"coordinates": [-87.6265303, 45.084795], "type": "Point"}, "id": "i_waeDH52PGhUMkRRWFEYvPHoFc=", "properties": {"@spider": "usps_collection_boxes", "addr:city": "MARINETTE", "addr:country": "US", "addr:full": "1507 CLEVELAND AVE", "addr:postcode": "54143", "addr:state": "WI", "brand": "USPS", "collection_times": "Mo-Sa 13:00", "name": "USPS COLLECTION BOX - BLUE BOX", "note": "ON 12/24 AND 12/31, THIS BOX MAY BE COLLECTED AS EARLY AS 12 NOON.", "ref": "5414300000"}, "type": "Feature"}
{"geometry": {"coordinates": [-87.618207, 45.0718], "type": "Point"}, "id": "oSazeTQIHpLqcaOAAMQAeyTJ3Ac=", "properties": {"@spider": "usps_collection_boxes", "addr:city": "MARINETTE", "addr:country": "US", "addr:full": "3100 SHORE DR", "addr:postcode": "54143", "addr:state": "WI", "brand": "USPS", "collection_times": "Mo-Sa 12:00", "name": "USPS COLLECTION BOX - BLUE BOX", "ref": "5414300001"}, "type": "Feature"}
{"geometry": {"coordinates": [-87.6584587, 45.078906], "type": "Point"}, "id": "FJ-O9Ot76G6tWXWQ7AlmEf9tYiU=", "properties": {"@spider": "usps_collection_boxes", "addr:city": "MARINETTE", "addr:country": "US", "addr:full": "2500 ROOSEVELT RD", "addr:postcode": "54143", "addr:state": "WI", "brand": "USPS", "collection_times": "Mo-Sa 11:00", "name": "USPS COLLECTION BOX - BLUE BOX", "ref": "5414300002"}, "type": "Feature"}
{"geometry": {"coordinates": [-87.6616847, 45.079282], "type": "Point"}, "id": "JcU18ibbx0Nmli3tSl5vl9XwUtY=", "properties": {"@spider": "usps_collection_boxes", "addr:city": "MARINETTE", "addr:country": "US", "addr:full": "2301 ROOSEVELT RD", "addr:postcode": "54143", "addr:state": "WI", "brand": "USPS", "collection_times": "Mo-Sa 10:00", "name": "USPS COLLECTION BOX - BLUE BOX", "ref": "5414300003"}, "type": "Feature"}
{"geometry": {"coordinates": [-87.633501, 45.098796], "type": "Point"}, "id": "sYsQ-A_8wtT1deWI9OLJ6ndCanE=", "properties": {"@spider": "usps_collection_boxes", "addr:city": "MARINETTE", "addr:country": "US", "addr:full": "2016 MAPLE AVE", "addr:postcode": "54143", "addr:state": "WI", "brand": "USPS", "collection_times": "Mo-Fr 17:00; Sa 16:00", "name": "USPS COLLECTION BOX - BLUE BOX", "note": "ON 12/24 AND 12/31, THIS BOX MAY BE COLLECTED AS EARLY AS 12 NOON.", "ref": "5414300004"}, "type": "Feature"}
{"geometry": {"coordinates": [-87.6176844, 45.093092], "type": "Point"}, "id": "BX9v65gMRyNfwikyqnvSCBeXcbw=", "properties": {"@spider": "usps_collection_boxes", "addr:city": "MARINETTE", "addr:country": "US", "addr:full": "1010 MAIN ST", "addr:postcode": "54143", "addr:state": "WI", "brand": "USPS", "collection_times": "Mo-Sa 11:00", "name": "USPS COLLECTION BOX - BLUE BOX", "ref": "5414300008"}, "type": "Feature"}
{"geometry": {"coordinates": [-87.6440656, 45.09575], "type": "Point"}, "id": "JiUZK9j20qjFYAizriey9G6YMRY=", "properties": {"@spider": "usps_collection_boxes", "addr:city": "MARINETTE", "addr:country": "US", "addr:full": "1011 MARINETTE AVE", "addr:postcode": "54143", "addr:state": "WI", "brand": "USPS", "collection_times": "Mo-Sa 10:00", "name": "USPS COLLECTION BOX - BLUE BOX", "ref": "5414300021"}, "type": "Feature"}
{"geometry": {"coordinates": [-87.6310447, 45.070151], "type": "Point"}, "id": "gLMY92qvdb-eZ5dth9Bf7LSeKFY=", "properties": {"@spider": "usps_collection_boxes", "addr:city": "MARINETTE", "addr:country": "US", "addr:full": "W716 COUNTY B", "addr:postcode": "54143", "addr:state": "WI", "brand": "USPS", "collection_times": "Mo-Sa 13:00", "name": "USPS COLLECTION BOX - BLUE BOX", "note": "ON 12/24 AND 12/31, THIS BOX MAY BE COLLECTED AS EARLY AS 12 NOON.", "ref": "5414300023"}, "type": "Feature"}
{"geometry": {"coordinates": [-87.6446031, 45.099568], "type": "Point"}, "id": "X5pbjb7pYVb-C8MAKZ6q-ROpuos=", "properties": {"@spider": "usps_collection_boxes", "addr:city": "MARINETTE", "addr:country": "US", "addr:full": "2732 HALL AVE", "addr:postcode": "54143", "addr:state": "WI", "brand": "USPS", "collection_times": "Mo-Sa 13:00", "name": "USPS COLLECTION BOX - BLUE BOX", "note": "ON 12/24 AND 12/31, THIS BOX MAY BE COLLECTED AS EARLY AS 12 NOON.", "ref": "5414300025"}, "type": "Feature"}
{"geometry": {"coordinates": [-87.6555329, 45.099793], "type": "Point"}, "id": "-IgqXi1LcRVFkzhhClVdS7AoeVk=", "properties": {"@spider": "usps_collection_boxes", "addr:city": "MARINETTE", "addr:country": "US", "addr:full": "3900 HALL AVE", "addr:postcode": "54143", "addr:state": "WI", "brand": "USPS", "collection_times": "Mo-Sa 10:00", "name": "USPS COLLECTION BOX - BLUE BOX", "ref": "5414300027"}, "type": "Feature"}
{"geometry": {"coordinates": [-87.6338462, 45.099971], "type": "Point"}, "id": "fXEgevt1LW9svB20XxfOPMwYzhM=", "properties": {"@spider": "usps_collection_boxes", "addr:city": "MARINETTE", "addr:country": "US", "addr:full": "1926 HALL AVE", "addr:postcode": "54143", "addr:state": "WI", "brand": "USPS", "collection_times": "Mo-Sa 10:00", "name": "USPS COLLECTION BOX - BLUE BOX", "ref": "5414300028"}, "type": "Feature"}
{"geometry": {"coordinates": [-87.5971658, 45.085222], "type": "Point"}, "id": "pS-ThPg-8z4bZaseEqEcinkZAIM=", "properties": {"@spider": "usps_collection_boxes", "addr:city": "MARINETTE", "addr:country": "US", "addr:full": "56 E BAY SHORE ST", "addr:postcode": "54143", "addr:state": "WI", "brand": "USPS", "collection_times": "Mo-Sa 11:00", "name": "USPS COLLECTION BOX - BLUE BOX", "ref": "5414300031"}, "type": "Feature"}
{"geometry": {"coordinates": [-87.6467009, 45.091125], "type": "Point"}, "id": "U0tMMoBocVxfakstgyEMLONhFVs=", "properties": {"@spider": "usps_collection_boxes", "addr:city": "MARINETTE", "addr:country": "US", "addr:full": "1450 MYRTLE ST", "addr:postcode": "54143", "addr:state": "WI", "brand": "USPS", "collection_times": "Mo-Sa 10:00", "name": "USPS COLLECTION BOX - BLUE BOX", "ref": "5414300032"}, "type": "Feature"}
{"geometry": {"coordinates": [-87.633501, 45.098796], "type": "Point"}, "id": "nW1fnU4xXdysu3xsSn5fGTKXXVQ=", "properties": {"@spider": "usps_collection_boxes", "addr:city": "MARINETTE", "addr:country": "US", "addr:full": "2016 MAPLE AVE", "addr:postcode": "54143", "addr:state": "WI", "brand": "USPS", "collection_times": "Mo-Fr 17:00; Sa 16:00", "name": "USPS COLLECTION BOX - BLUE BOX", "note": "ON 12/24 AND 12/31, THIS BOX MAY BE COLLECTED AS EARLY AS 12 NOON.", "ref": "5414300033"}, "type": "Feature"}
{"geometry": {"coordinates": [-87.633501, 45.098796], "type": "Point"}, "id": "1MDWzH_LyW6QbwIH0rz3tRB219M=", "properties": {"@spider": "usps_collection_boxes", "addr:city": "MARINETTE", "addr:country": "US", "addr:full": "2016 MAPLE AVE", "addr:postcode": "54143", "addr:state": "WI", "brand": "USPS", "collection_times": "Mo-Fr 17:00; Sa 16:00", "name": "USPS COLLECTION BOX - PO LOBBY", "note": "ON 12/24 AND 12/31, THIS BOX MAY BE COLLECTED AS EARLY AS 12 NOON.", "ref": "5414300035"}, "type": "Feature"}
{"geometry": {"coordinates": [-87.633501, 45.098796], "type": "Point"}, "id": "6_xMp0XIw_zCUhOgNh-gF0aMUM8=", "properties": {"@spider": "usps_collection_boxes", "addr:city": "MARINETTE", "addr:country": "US", "addr:full": "2016 MAPLE AVE", "addr:postcode": "54143", "addr:state": "WI", "brand": "USPS", "collection_times": "Mo-Fr 17:00; Sa 16:00", "name": "USPS COLLECTION BOX - PO LOBBY", "note": "ON 12/24 AND 12/31, THIS BOX MAY BE COLLECTED AS EARLY AS 12 NOON.", "ref": "5414300038"}, "type": "Feature"}
{"geometry": {"coordinates": [-87.6568378, 45.074133], "type": "Point"}, "id": "9GspDAmsFdjdW1ZRAwqcl3Entg8=", "properties": {"@spider": "usps_collection_boxes", "addr:city": "MARINETTE", "addr:country": "US", "addr:full": "2900 ROOSEVELT RD", "addr:postcode": "54143", "addr:state": "WI", "brand": "USPS", "collection_times": "Mo-Sa 11:00", "name": "USPS COLLECTION BOX - BLUE BOX", "ref": "5414300040"}, "type": "Feature"}
{"geometry": {"coordinates": [-87.633732557, 45.098793512], "type": "Point"}, "id": "OSksq6HQsZr8e8Y5YoXXmKtThNI=", "properties": {"@spider": "usps_collection_boxes", "addr:city": "MARINETTE", "addr:country": "US", "addr:full": "2016 MAPLE AVE", "addr:postcode": "54143", "addr:state": "WI", "brand": "USPS", "collection_times": "Mo-Fr 17:00; Sa 16:00", "name": "USPS COLLECTION BOX - PO LOBBY", "note": "ON 12/24 AND 12/31, THIS BOX MAY BE COLLECTED AS EARLY AS 12 NOON.", "ref": "5414300041"}, "type": "Feature"}
{"geometry": {"coordinates": [-88.476856, 45.186774], "type": "Point"}, "id": "e_IyzBScbfcTidyjhid4kvusXGg=", "properties": {"@spider": "usps_collection_boxes", "addr:city": "MOUNTAIN", "addr:country": "US", "addr:full": "14092 STATE HIGHWAY 32 64", "addr:postcode": "54149", "addr:state": "WI", "brand": "USPS", "collection_times": "Mo-Fr 16:00; Sa 10:00", "name": "USPS COLLECTION BOX - BLUE BOX", "note": "ON 12/24 AND 12/31, THIS BOX MAY BE COLLECTED AS EARLY AS 12 NOON.", "ref": "5414900000"}, "type": "Feature"}
{"geometry": {"coordinates": [-88.476856, 45.186774], "type": "Point"}, "id": "WbUcojg_Wn3t20kVktRM_ntgtHU=", "properties": {"@spider": "usps_collection_boxes", "addr:city": "MOUNTAIN", "addr:country": "US", "addr:full": "14092 STATE HIGHWAY 32 64", "addr:postcode": "54149", "addr:state": "WI", "brand": "USPS", "collection_times": "Mo-Fr 16:00; Sa 10:00", "name": "USPS COLLECTION BOX - PO LOBBY", "note": "ON 12/24 AND 12/31, THIS BOX MAY BE COLLECTED AS EARLY AS 12 NOON.", "ref": "5414900001"}, "type": "Feature"}
{"geometry": {"coordinates": [-88.4877571766, 45.208586968], "type": "Point"}, "id": "u_aasqOq6yk96X1TdUbpMdQx54M=", "properties": {"@spider": "usps_collection_boxes", "addr:city": "MOUNTAIN", "addr:country": "US", "addr:full": "14092 STATE RD 32/64", "addr:postcode": "54149", "addr:state": "WI", "brand": "USPS", "collection_times": "Mo-Fr 16:00; Sa 10:00", "name": "USPS COLLECTION BOX - PO LOBBY", "note": "ON 12/24 AND 12/31, THIS BOX MAY BE COLLECTED AS EARLY AS 12 NOON.", "ref": "5414900002"}, "type": "Feature"}
{"geometry": {"coordinates": [-88.476905276, 45.186789434], "type": "Point"}, "id": "VElLuyewF3GJdaFEUOkP-a4qJ_I=", "properties": {"@spider": "usps_collection_boxes", "addr:city": "MOUNTAIN", "addr:country": "US", "addr:full": "14092 STATE HIGHWAY 32 64", "addr:postcode": "54149", "addr:state": "WI", "brand": "USPS", "collection_times": "Mo-Fr 16:00; Sa 10:00", "name": "USPS COLLECTION BOX - PO LOBBY", "note": "ON 12/24 AND 12/31, THIS BOX MAY BE COLLECTED AS EARLY AS 12 NOON.", "ref": "5414900003"}, "type": "Feature"}
{"geometry": {"coordinates": [-88.831971, 44.979622], "type": "Point"}, "id": "daGz_frUunLFzcsNVkn_2nRq4Pw=", "properties": {"@spider": "usps_collection_boxes", "addr:city": "NEOPIT", "addr:country": "US", "addr:full": "W6786 CHURCH ST", "addr:postcode": "54150", "addr:state": "WI", "brand": "USPS", "collection_times": "Mo-Fr 16:00; Sa 09:30", "name": "USPS COLLECTION BOX - BLUE BOX", "note": "ON 12/24 AND 12/31, THIS BOX MAY BE COLLECTED AS EARLY AS 12 NOON.", "ref": "5415000000"}, "type": "Feature"}
{"geometry": {"coordinates": [-88.831966, 44.979549], "type": "Point"}, "id": "62S8ngcr9y3BWWZ-tpnNPkPlPcg=", "properties": {"@spider": "usps_collection_boxes", "addr:city": "NEOPIT", "addr:country": "US", "addr:full": "W6786 CHURCH ST", "addr:postcode": "54150", "addr:state": "WI", "brand": "USPS", "collection_times": "Mo-Fr 16:00; Sa 09:30", "name": "USPS COLLECTION BOX - PO LOBBY", "note": "ON 12/24 AND 12/31, THIS BOX MAY BE COLLECTED AS EARLY AS 12 NOON.", "ref": "5415000001"}, "type": "Feature"}
{"geometry": {"coordinates": [-88.832003556, 44.979560518], "type": "Point"}, "id": "5OvIkda6nkWpOlZlzj1i2QGUMZQ=", "properties": {"@spider": "usps_collection_boxes", "addr:city": "NEOPIT", "addr:country": "US", "addr:full": "W6786 CHURCH ST", "addr:postcode": "54150", "addr:state": "WI", "brand": "USPS", "collection_times": "Mo-Fr 16:00; Sa 09:30", "name": "USPS COLLECTION BOX - PO LOBBY", "note": "ON 12/24 AND 12/31, THIS BOX MAY BE COLLECTED AS EARLY AS 12 NOON.", "ref": "5415000002"}, "type": "Feature"}
{"geometry": {"coordinates": [-88.003822, 45.783847], "type": "Point"}, "id": "w7s7ouFQEbNEspeDzUoe4hfY9Ds=", "properties": {"@spider": "usps_collection_boxes", "addr:city": "NIAGARA", "addr:country": "US", "addr:full": "617 WASHINGTON AVE", "addr:postcode": "54151", "addr:state": "WI", "brand": "USPS", "collection_times": "Mo-Fr 16:00; Sa 10:45", "name": "USPS COLLECTION BOX - BLUE BOX", "note": "ON 12/24 AND 12/31, THIS BOX MAY BE COLLECTED AS EARLY AS 12 NOON.", "ref": "5415100000"}, "type": "Feature"}
{"geometry": {"coordinates": [-88.0070768, 45.784441], "type": "Point"}, "id": "xrNIfsyn8ZzHqx4EnIlIuMyOV5k=", "properties": {"@spider": "usps_collection_boxes", "addr:city": "NIAGARA", "addr:country": "US", "addr:full": "1250 ROOSEVELT RD", "addr:postcode": "54151", "addr:state": "WI", "brand": "USPS", "collection_times": "Mo-Sa 14:30", "name": "USPS COLLECTION BOX - BLUE BOX", "note": "ON 12/24 AND 12/31, THIS BOX MAY BE COLLECTED AS EARLY AS 12 NOON.", "ref": "5415100003"}, "type": "Feature"}
{"geometry": {"coordinates": [-88.0821659, 45.784328], "type": "Point"}, "id": "1nUbp0wS20JGPIdgpGk9U-C8XD4=", "properties": {"@spider": "usps_collection_boxes", "addr:city": "NIAGARA", "addr:country": "US", "addr:full": "W582 COUNTY RD N", "addr:postcode": "54151", "addr:state": "WI", "brand": "USPS", "collection_times": "Mo-Sa 09:30", "name": "USPS COLLECTION BOX - BLUE BOX", "ref": "5415100004"}, "type": "Feature"}
{"geometry": {"coordinates": [-88.003822, 45.783847], "type": "Point"}, "id": "0ck2aIyrCw-WMcg8FOzqmQufjPo=", "properties": {"@spider": "usps_collection_boxes", "addr:city": "NIAGARA", "addr:country": "US", "addr:full": "617 WASHINGTON AVE", "addr:postcode": "54151", "addr:state": "WI", "brand": "USPS", "collection_times": "Mo-Fr 16:00; Sa 10:45", "name": "USPS COLLECTION BOX - PO LOBBY", "note": "ON 12/24 AND 12/31, THIS BOX MAY BE COLLECTED AS EARLY AS 12 NOON.", "ref": "5415100008"}, "type": "Feature"}
{"geometry": {"coordinates": [-88.003822416, 45.783840475], "type": "Point"}, "id": "v8trPDC2Fh-VxXfN0IyA_wCKPkQ=", "properties": {"@spider": "usps_collection_boxes", "addr:city": "NIAGARA", "addr:country": "US", "addr:full": "617 WASHINGTON AVE", "addr:postcode": "54151", "addr:state": "WI", "brand": "USPS", "collection_times": "Mo-Fr 16:00; Sa 10:45", "name": "USPS COLLECTION BOX - PO LOBBY", "note": "ON 12/24 AND 12/31, THIS BOX MAY BE COLLECTED AS EARLY AS 12 NOON.", "ref": "5415100010"}, "type": "Feature"}
{"geometry": {"coordinates": [-87.8679539, 44.888206], "type": "Point"}, "id": "04w1WxE8hiTHai0RkvDxnbzJLfs=", "properties": {"@spider": "usps_collection_boxes", "addr:city": "OCONTO", "addr:country": "US", "addr:full": "141 CONGRESS ST", "addr:postcode": "54153", "addr:state": "WI", "brand": "USPS", "collection_times": "Mo-Fr 16:45; Sa 10:00", "name": "USPS COLLECTION BOX - BLUE BOX", "note": "ON 12/24 AND 12/31, THIS BOX MAY BE COLLECTED AS EARLY AS 12 NOON.", "ref": "5415300000"}, "type": "Feature"}
{"geometry": {"coordinates": [-87.8848842, 44.88291], "type": "Point"}, "id": "0eKx2kJtRclY3LYxk-TlLhjHjxk=", "properties": {"@spider": "usps_collection_boxes", "addr:city": "OCONTO", "addr:country": "US", "addr:full": "798 MCDONALD ST", "addr:postcode": "54153", "addr:state": "WI", "brand": "USPS", "collection_times": "Mo-Sa 12:00", "name": "USPS COLLECTION BOX - BLUE BOX", "ref": "5415300008"}, "type": "Feature"}
{"geometry": {"coordinates": [-87.8837929, 44.893151], "type": "Point"}, "id": "ILyuZEEQjyD7fPDhdpM_vbIyZlE=", "properties": {"@spider": "usps_collection_boxes", "addr:city": "OCONTO", "addr:country": "US", "addr:full": "202 MAIN ST", "addr:postcode": "54153", "addr:state": "WI", "brand": "USPS", "collection_times": "Mo-Sa 09:30", "name": "USPS COLLECTION BOX - BLUE BOX", "ref": "5415300010"}, "type": "Feature"}
{"geometry": {"coordinates": [-87.8679079, 44.888332], "type": "Point"}, "id": "NwGEO7qV6e44toQj_SMfztvID8o=", "properties": {"@spider": "usps_collection_boxes", "addr:city": "OCONTO", "addr:country": "US", "addr:full": "141 CONGRESS ST", "addr:postcode": "54153", "addr:state": "WI", "brand": "USPS", "collection_times": "Mo-Fr 16:45; Sa 10:00", "name": "USPS COLLECTION BOX - PO LOBBY", "note": "ON 12/24 AND 12/31, THIS BOX MAY BE COLLECTED AS EARLY AS 12 NOON.", "ref": "5415300018"}, "type": "Feature"}
{"geometry": {"coordinates": [-87.8679433, 44.888325], "type": "Point"}, "id": "TdqW58RA9GAOYp-uUXqZUYF96M8=", "properties": {"@spider": "usps_collection_boxes", "addr:city": "OCONTO", "addr:country": "US", "addr:full": "141 CONGRESS ST", "addr:postcode": "54153", "addr:state": "WI", "brand": "USPS", "collection_times": "Mo-Fr 16:45; Sa 10:00", "name": "USPS COLLECTION BOX - PO LOBBY", "note": "ON 12/24 AND 12/31, THIS BOX MAY BE COLLECTED AS EARLY AS 12 NOON.", "ref": "5415300019"}, "type": "Feature"}
{"geometry": {"coordinates": [-87.868122, 44.888187], "type": "Point"}, "id": "ag5KIstewJrNVB5tbg7OqKuqm98=", "properties": {"@spider": "usps_collection_boxes", "addr:city": "OCONTO", "addr:country": "US", "addr:full": "141 CONGRESS ST", "addr:postcode": "54153", "addr:state": "WI", "brand": "USPS", "collection_times": "Mo-Fr 16:45; Sa 10:00", "name": "USPS COLLECTION BOX - BLUE BOX", "note": "ON 12/24 AND 12/31, THIS BOX MAY BE COLLECTED AS EARLY AS 12 NOON.", "ref": "5415300020"}, "type": "Feature"}
{"geometry": {"coordinates": [-87.868120332, 44.888185486], "type": "Point"}, "id": "5ql1DpC1QLCpe5F4mO0EZwCNrt0=", "properties": {"@spider": "usps_collection_boxes", "addr:city": "OCONTO", "addr:country": "US", "addr:full": "141 CONGRESS ST", "addr:postcode": "54153", "addr:state": "WI", "brand": "USPS", "collection_times": "Mo-Fr 16:45; Sa 10:00", "name": "USPS COLLECTION BOX - PO LOBBY", "note": "ON 12/24 AND 12/31, THIS BOX MAY BE COLLECTED AS EARLY AS 12 NOON.", "ref": "5415300022"}, "type": "Feature"}
{"geometry": {"coordinates": [-88.142444, 44.875377], "type": "Point"}, "id": "D9sILZnXKRKGQhrS40xM5prcYew=", "properties": {"@spider": "usps_collection_boxes", "addr:city": "OCONTO FALLS", "addr:country": "US", "addr:full": "145 N FRANKLIN ST", "addr:postcode": "54154", "addr:state": "WI", "brand": "USPS", "collection_times": "Mo-Fr 16:45; Sa 11:45", "name": "USPS COLLECTION BOX - BLUE BOX", "note": "ON 12/24 AND 12/31, THIS BOX MAY BE COLLECTED AS EARLY AS 12 NOON.", "ref": "5415400000"}, "type": "Feature"}
{"geometry": {"coordinates": [-88.142444, 44.875377], "type": "Point"}, "id": "BNZZh1BHi0o3MXdcwFlAUrnxuTk=", "properties": {"@spider": "usps_collection_boxes", "addr:city": "OCONTO FALLS", "addr:country": "US", "addr:full": "145 N FRANKLIN ST", "addr:postcode": "54154", "addr:state": "WI", "brand": "USPS", "collection_times": "Mo-Fr 16:45; Sa 11:45", "name": "USPS COLLECTION BOX - BLUE BOX", "note": "ON 12/24 AND 12/31, THIS BOX MAY BE COLLECTED AS EARLY AS 12 NOON.", "ref": "5415400002"}, "type": "Feature"}
{"geometry": {"coordinates": [-88.1557711, 44.885947], "type": "Point"}, "id": "OCRPBo8uq8o3zc0EqLHflN4t6Vw=", "properties": {"@spider": "usps_collection_boxes", "addr:city": "OCONTO FALLS", "addr:country": "US", "addr:full": "855 S MAIN ST", "addr:postcode": "54154", "addr:state": "WI", "brand": "USPS", "collection_times": "Mo-Sa 11:30", "name": "USPS COLLECTION BOX - BLUE BOX", "ref": "5415400003"}, "type": "Feature"}
{"geometry": {"coordinates": [-88.1373056, 44.883392], "type": "Point"}, "id": "CknHz3buChtefLvqIL1QBt6qwiI=", "properties": {"@spider": "usps_collection_boxes", "addr:city": "OCONTO FALLS", "addr:country": "US", "addr:full": "409 E HIGHLAND DR", "addr:postcode": "54154", "addr:state": "WI", "brand": "USPS", "collection_times": "Mo-Sa 11:30", "name": "USPS COLLECTION BOX - BLUE BOX", "ref": "5415400004"}, "type": "Feature"}
{"geometry": {"coordinates": [-88.142444, 44.875377], "type": "Point"}, "id": "AK2hZ1EtajN7FPaKg7cHQXfvhRc=", "properties": {"@spider": "usps_collection_boxes", "addr:city": "OCONTO FALLS", "addr:country": "US", "addr:full": "145 N FRANKLIN ST", "addr:postcode": "54154", "addr:state": "WI", "brand": "USPS", "collection_times": "Mo-Fr 16:45; Sa 11:45", "name": "USPS COLLECTION BOX - PO LOBBY", "note": "ON 12/24 AND 12/31, THIS BOX MAY BE COLLECTED AS EARLY AS 12 NOON.", "ref": "5415400008"}, "type": "Feature"}
{"geometry": {"coordinates": [-88.142446491, 44.875370411], "type": "Point"}, "id": "OHQ30oqPbepzn0EXtvF1tLyQS2c=", "properties": {"@spider": "usps_collection_boxes", "addr:city": "OCONTO FALLS", "addr:country": "US", "addr:full": "145 N FRANKLIN ST", "addr:postcode": "54154", "addr:state": "WI", "brand": "USPS", "collection_times": "Mo-Fr 16:45; Sa 11:45", "name": "USPS COLLECTION BOX - PO LOBBY", "note": "ON 12/24 AND 12/31, THIS BOX MAY BE COLLECTED AS EARLY AS 12 NOON.", "ref": "5415400010"}, "type": "Feature"}
{"geometry": {"coordinates": [-88.201239, 44.502465], "type": "Point"}, "id": "aqax5TtcCvWh6rMxbICjVwA5pAM=", "properties": {"@spider": "usps_collection_boxes", "addr:city": "ONEIDA", "addr:country": "US", "addr:full": "N7310 RED WILLOW PKWY", "addr:postcode": "54155", "addr:state": "WI", "brand": "USPS", "collection_times": "Mo-Fr 16:30; Sa 11:00", "name": "USPS COLLECTION BOX - BLUE BOX", "note": "ON 12/24 AND 12/31, THIS BOX MAY BE COLLECTED AS EARLY AS 12 NOON.", "ref": "5415500000"}, "type": "Feature"}
{"geometry": {"coordinates": [-88.201239, 44.502465], "type": "Point"}, "id": "5GADJzrB4f0ADPuF69X0Th_no4Q=", "properties": {"@spider": "usps_collection_boxes", "addr:city": "ONEIDA", "addr:country": "US", "addr:full": "N7310 RED WILLOW PKWY", "addr:postcode": "54155", "addr:state": "WI", "brand": "USPS", "collection_times": "Mo-Fr 16:30; Sa 11:00", "name": "USPS COLLECTION BOX - PO LOBBY", "note": "ON 12/24 AND 12/31, THIS BOX MAY BE COLLECTED AS EARLY AS 12 NOON.", "ref": "5415500002"}, "type": "Feature"}
{"geometry": {"coordinates": [-88.201241357, 44.502463131], "type": "Point"}, "id": "U2ukn9oW9lwx2ZchdoX0xf-Hnz0=", "properties": {"@spider": "usps_collection_boxes", "addr:city": "ONEIDA", "addr:country": "US", "addr:full": "N7310 RED WILLOW PKWY", "addr:postcode": "54155", "addr:state": "WI", "brand": "USPS", "collection_times": "Mo-Fr 16:30; Sa 11:00", "name": "USPS COLLECTION BOX - PO LOBBY", "note": "ON 12/24 AND 12/31, THIS BOX MAY BE COLLECTED AS EARLY AS 12 NOON.", "ref": "5415500005"}, "type": "Feature"}
{"geometry": {"coordinates": [-87.991551716, 45.633711396], "type": "Point"}, "id": "W9obNRObyZTUV3-lT5hN0Yln_UY=", "properties": {"@spider": "usps_collection_boxes", "addr:city": "PEMBINE", "addr:country": "US", "addr:full": "N18656 US HIGHWAY 141", "addr:postcode": "54156", "addr:state": "WI", "brand": "USPS", "collection_times": "Mo-Fr 16:00; Sa 11:00", "name": "USPS COLLECTION BOX - BLUE BOX", "note": "ON 12/24 AND 12/31, THIS BOX MAY BE COLLECTED AS EARLY AS 12 NOON.", "ref": "5415600000"}, "type": "Feature"}
{"geometry": {"coordinates": [-87.991623, 45.633638], "type": "Point"}, "id": "ZAQfhVi0tmW0omY5ldWWoQUhUrk=", "properties": {"@spider": "usps_collection_boxes", "addr:city": "PEMBINE", "addr:country": "US", "addr:full": "N18656 US HIGHWAY 141", "addr:postcode": "54156", "addr:state": "WI", "brand": "USPS", "collection_times": "Mo-Fr 16:30; Sa 11:00", "name": "USPS COLLECTION BOX - PO LOBBY", "note": "ON 12/24 AND 12/31, THIS BOX MAY BE COLLECTED AS EARLY AS 12 NOON.", "ref": "5415600002"}, "type": "Feature"}
{"geometry": {"coordinates": [-88.1688047, 45.650054], "type": "Point"}, "id": "E47pF5qrwz3a0zRq2LGc9R18PZU=", "properties": {"@spider": "usps_collection_boxes", "addr:city": "PEMBINE", "addr:country": "US", "addr:full": "W11468 US HIGHWAY 8", "addr:postcode": "54156", "addr:state": "WI", "brand": "USPS", "collection_times": "Mo-Fr 13:15; Sa 10:30", "name": "USPS COLLECTION BOX - BLUE BOX", "note": "ON 12/24 AND 12/31, THIS BOX MAY BE COLLECTED AS EARLY AS 12 NOON.", "ref": "5415600003"}, "type": "Feature"}
{"geometry": {"coordinates": [-87.991551716, 45.633711396], "type": "Point"}, "id": "gmuDiYRzawdxkSdy3PLX1q977JI=", "properties": {"@spider": "usps_collection_boxes", "addr:city": "PEMBINE", "addr:country": "US", "addr:full": "N18656 US HIGHWAY 141", "addr:postcode": "54156", "addr:state": "WI", "brand": "USPS", "collection_times": "Mo-Fr 16:30; Sa 11:00", "name": "USPS COLLECTION BOX - PO LOBBY", "note": "ON 12/24 AND 12/31, THIS BOX MAY BE COLLECTED AS EARLY AS 12 NOON.", "ref": "5415600004"}, "type": "Feature"}
{"geometry": {"coordinates": [-87.74914, 45.052537], "type": "Point"}, "id": "t3uYVmpVTuDHb48ZOau0_0xAOmg=", "properties": {"@spider": "usps_collection_boxes", "addr:city": "PESHTIGO", "addr:country": "US", "addr:full": "201 W FRONT ST", "addr:postcode": "54157", "addr:state": "WI", "brand": "USPS", "collection_times": "Mo-Fr 16:30; Sa 11:00", "name": "USPS COLLECTION BOX - BLUE BOX", "note": "ON 12/24 AND 12/31, THIS BOX MAY BE COLLECTED AS EARLY AS 12 NOON.", "ref": "5415700007"}, "type": "Feature"}
{"geometry": {"coordinates": [-87.74914, 45.052537], "type": "Point"}, "id": "dN56Cuz_ddIAtJR8zcunSfkt0jQ=", "properties": {"@spider": "usps_collection_boxes", "addr:city": "PESHTIGO", "addr:country": "US", "addr:full": "201 W FRONT ST", "addr:postcode": "54157", "addr:state": "WI", "brand": "USPS", "collection_times": "Mo-Fr 16:30; Sa 11:00", "name": "USPS COLLECTION BOX - PO LOBBY", "note": "ON 12/24 AND 12/31, THIS BOX MAY BE COLLECTED AS EARLY AS 12 NOON.", "ref": "5415700010"}, "type": "Feature"}
{"geometry": {"coordinates": [-87.74914, 45.052537], "type": "Point"}, "id": "-IC2bYM8GcOVsR7V7pP3SeYvagM=", "properties": {"@spider": "usps_collection_boxes", "addr:city": "PESHTIGO", "addr:country": "US", "addr:full": "201 W FRONT ST", "addr:postcode": "54157", "addr:state": "WI", "brand": "USPS", "collection_times": "Mo-Fr 16:30; Sa 11:00", "name": "USPS COLLECTION BOX - BLUE BOX", "note": "ON 12/24 AND 12/31, THIS BOX MAY BE COLLECTED AS EARLY AS 12 NOON.", "ref": "5415700013"}, "type": "Feature"}
{"geometry": {"coordinates": [-87.749139324, 45.052531575], "type": "Point"}, "id": "FiyPN3iqn6TFXECzEsWFK4UEDBw=", "properties": {"@spider": "usps_collection_boxes", "addr:city": "PESHTIGO", "addr:country": "US", "addr:full": "201 W FRONT ST", "addr:postcode": "54157", "addr:state": "WI", "brand": "USPS", "collection_times": "Mo-Fr 16:30; Sa 11:00", "name": "USPS COLLECTION BOX - PO LOBBY", "note": "ON 12/24 AND 12/31, THIS BOX MAY BE COLLECTED AS EARLY AS 12 NOON.", "ref": "5415700015"}, "type": "Feature"}
{"geometry": {"coordinates": [-88.098769, 44.12056], "type": "Point"}, "id": "DqkbGenyiCAExRoxCg08NrqhVTc=", "properties": {"@spider": "usps_collection_boxes", "addr:city": "POTTER", "addr:country": "US", "addr:full": "198 MAIN ST", "addr:postcode": "54160", "addr:state": "WI", "brand": "USPS", "collection_times": "Mo-Fr 16:30; Sa 09:30", "name": "USPS COLLECTION BOX - BLUE BOX", "note": "ON 12/24 AND 12/31, THIS BOX MAY BE COLLECTED AS EARLY AS 12 NOON.", "ref": "5416000000"}, "type": "Feature"}
{"geometry": {"coordinates": [-88.098769, 44.12056], "type": "Point"}, "id": "J9GDSFhMHNT2lEIFbAT3IyGZu18=", "properties": {"@spider": "usps_collection_boxes", "addr:city": "POTTER", "addr:country": "US", "addr:full": "198 MAIN ST", "addr:postcode": "54160", "addr:state": "WI", "brand": "USPS", "collection_times": "Mo-Fr 11:45; Sa 08:45", "name": "USPS COLLECTION BOX - PO LOBBY", "ref": "5416000001"}, "type": "Feature"}
{"geometry": {"coordinates": [-88.0992135, 44.120584486], "type": "Point"}, "id": "gWLqao2I8srKPXOjYLHszSOaOUQ=", "properties": {"@spider": "usps_collection_boxes", "addr:city": "POTTER", "addr:country": "US", "addr:full": "198 MAIN ST", "addr:postcode": "54160", "addr:state": "WI", "brand": "USPS", "collection_times": "Mo-Fr 11:45; Sa 08:45", "name": "USPS COLLECTION BOX - PO LOBBY", "ref": "5416000002"}, "type": "Feature"}
{"geometry": {"coordinates": [-88.2418675, 44.670099], "type": "Point"}, "id": "BO8XWXmIl05VKCqWmeQtlFCyhEw=", "properties": {"@spider": "usps_collection_boxes", "addr:city": "PULASKI", "addr:country": "US", "addr:full": "306 S SAINT AUGUSTINE ST", "addr:postcode": "54162", "addr:state": "WI", "brand": "USPS", "collection_times": "Mo-Fr 16:30; Sa 10:00", "name": "USPS COLLECTION BOX - BLUE BOX", "note": "ON 12/24 AND 12/31, THIS BOX MAY BE COLLECTED AS EARLY AS 12 NOON.", "ref": "5416200000"}, "type": "Feature"}
{"geometry": {"coordinates": [-88.2187461, 44.656768], "type": "Point"}, "id": "MK-Ns15pDS0xgLzPKPHosKj8cP0=", "properties": {"@spider": "usps_collection_boxes", "addr:city": "PULASKI", "addr:country": "US", "addr:full": "960 COUNTY ROAD B", "addr:postcode": "54162", "addr:state": "WI", "brand": "USPS", "collection_times": "Mo-Sa 12:00", "name": "USPS COLLECTION BOX - BLUE BOX", "ref": "5416200001"}, "type": "Feature"}
{"geometry": {"coordinates": [-88.2419955, 44.66999], "type": "Point"}, "id": "rYB1g9Xey6I2X_PCqRlmxIPc0tA=", "properties": {"@spider": "usps_collection_boxes", "addr:city": "PULASKI", "addr:country": "US", "addr:full": "306 S SAINT AUGUSTINE ST", "addr:postcode": "54162", "addr:state": "WI", "brand": "USPS", "collection_times": "Mo-Fr 16:30; Sa 10:00", "name": "USPS COLLECTION BOX - PO LOBBY", "note": "ON 12/24 AND 12/31, THIS BOX MAY BE COLLECTED AS EARLY AS 12 NOON.", "ref": "5416200003"}, "type": "Feature"}
{"geometry": {"coordinates": [-88.241856, 44.67011], "type": "Point"}, "id": "Bbm8uZSNl1znA5VkMTaTE4-3L98=", "properties": {"@spider": "usps_collection_boxes", "addr:city": "PULASKI", "addr:country": "US", "addr:full": "306 S SAINT AUGUSTINE ST", "addr:postcode": "54162", "addr:state": "WI", "brand": "USPS", "collection_times": "Mo-Fr 16:30; Sa 10:00", "name": "USPS COLLECTION BOX - BLUE BOX", "note": "ON 12/24 AND 12/31, THIS BOX MAY BE COLLECTED AS EARLY AS 12 NOON.", "ref": "5416200004"}, "type": "Feature"}
{"geometry": {"coordinates": [-88.242364989, 44.669960602], "type": "Point"}, "id": "DcSxSSZ1Lce4UwrDe6uZcNOzdtQ=", "properties": {"@spider": "usps_collection_boxes", "addr:city": "PULASKI", "addr:country": "US", "addr:full": "306 S SAINT AUGUSTINE ST", "addr:postcode": "54162", "addr:state": "WI", "brand": "USPS", "collection_times": "Mo-Fr 16:30; Sa 10:00", "name": "USPS COLLECTION BOX - PO LOBBY", "note": "ON 12/24 AND 12/31, THIS BOX MAY BE COLLECTED AS EARLY AS 12 NOON.", "ref": "5416200005"}, "type": "Feature"}
{"geometry": {"coordinates": [-88.05453, 44.630755], "type": "Point"}, "id": "nU6aYfGrCOxj90wyt5H1zsbIGKI=", "properties": {"@spider": "usps_collection_boxes", "addr:city": "SUAMICO", "addr:country": "US", "addr:full": "1815 RIVERSIDE DR", "addr:postcode": "54173", "addr:state": "WI", "brand": "USPS", "collection_times": "Mo-Fr 16:15; Sa 10:45", "name": "USPS COLLECTION BOX - BLUE BOX", "note": "ON 12/24 AND 12/31, THIS BOX MAY BE COLLECTED AS EARLY AS 12 NOON.", "ref": "5417300000"}, "type": "Feature"}
{"geometry": {"coordinates": [-88.054449, 44.630829], "type": "Point"}, "id": "vUlHno6guYaQmkCgT5rbN2UZaPU=", "properties": {"@spider": "usps_collection_boxes", "addr:city": "SUAMICO", "addr:country": "US", "addr:full": "1815 RIVERSIDE DR", "addr:postcode": "54173", "addr:state": "WI", "brand": "USPS", "collection_times": "Mo-Fr 16:30; Sa 11:00", "name": "USPS COLLECTION BOX - PO LOBBY", "note": "ON 12/24 AND 12/31, THIS BOX MAY BE COLLECTED AS EARLY AS 12 NOON.", "ref": "5417300001"}, "type": "Feature"}
{"geometry": {"coordinates": [-88.0434378, 44.634768], "type": "Point"}, "id": "ewxo7hLKEfUKpiifiP-P-pqSBaA=", "properties": {"@spider": "usps_collection_boxes", "addr:city": "SUAMICO", "addr:country": "US", "addr:full": "1535 SUNSET BEACH RD", "addr:postcode": "54173", "addr:state": "WI", "brand": "USPS", "collection_times": "Mo-Sa 12:00", "name": "USPS COLLECTION BOX - BLUE BOX", "ref": "5417300003"}, "type": "Feature"}
{"geometry": {"coordinates": [-88.05447754, 44.630784107], "type": "Point"}, "id": "tDwKEXyd4X68csOXD8BeyDK_MGU=", "properties": {"@spider": "usps_collection_boxes", "addr:city": "SUAMICO", "addr:country": "US", "addr:full": "1815 RIVERSIDE DR", "addr:postcode": "54173", "addr:state": "WI", "brand": "USPS", "collection_times": "Mo-Fr 16:30; Sa 11:00", "name": "USPS COLLECTION BOX - PO LOBBY", "note": "ON 12/24 AND 12/31, THIS BOX MAY BE COLLECTED AS EARLY AS 12 NOON.", "ref": "5417300004"}, "type": "Feature"}
{"geometry": {"coordinates": [-88.588525, 45.328356], "type": "Point"}, "id": "yphgWRo8teccbNXJuuipx-br1mY=", "properties": {"@spider": "usps_collection_boxes", "addr:city": "TOWNSEND", "addr:country": "US", "addr:full": "17912 FRONT ST", "addr:postcode": "54175", "addr:state": "WI", "brand": "USPS", "collection_times": "Mo-Fr 16:00; Sa 10:00", "name": "USPS COLLECTION BOX - BLUE BOX", "note": "ON 12/24 AND 12/31, THIS BOX MAY BE COLLECTED AS EARLY AS 12 NOON.", "ref": "5417500000"}, "type": "Feature"}
{"geometry": {"coordinates": [-88.588609, 45.328429], "type": "Point"}, "id": "yttxxVwUWjn_uXm9_5Tb4x5JJXE=", "properties": {"@spider": "usps_collection_boxes", "addr:city": "TOWNSEND", "addr:country": "US", "addr:full": "17912 FRONT ST", "addr:postcode": "54175", "addr:state": "WI", "brand": "USPS", "collection_times": "Mo-Fr 15:00; Sa 09:30", "name": "USPS COLLECTION BOX - PO LOBBY", "note": "ON 12/24 AND 12/31, THIS BOX MAY BE COLLECTED AS EARLY AS 12 NOON.", "ref": "5417500001"}, "type": "Feature"}
{"geometry": {"coordinates": [-88.588609, 45.328429], "type": "Point"}, "id": "H0jm0XXDpwyPRMDIunFKMw1FwjA=", "properties": {"@spider": "usps_collection_boxes", "addr:city": "TOWNSEND", "addr:country": "US", "addr:full": "17912 FRONT ST", "addr:postcode": "54175", "addr:state": "WI", "brand": "USPS", "collection_times": "Mo-Fr 15:00; Sa 09:30", "name": "USPS COLLECTION BOX - PO LOBBY", "note": "ON 12/24 AND 12/31, THIS BOX MAY BE COLLECTED AS EARLY AS 12 NOON.", "ref": "5417500002"}, "type": "Feature"}
{"geometry": {"coordinates": [-88.5865424, 45.320811], "type": "Point"}, "id": "aG_vIJnoXXOq8SH7RPwPnEIt0WU=", "properties": {"@spider": "usps_collection_boxes", "addr:city": "TOWNSEND", "addr:country": "US", "addr:full": "17757 STATE HIGHWAY 32", "addr:postcode": "54175", "addr:state": "WI", "brand": "USPS", "collection_times": "Mo-Sa 14:00", "name": "USPS COLLECTION BOX - BLUE BOX", "note": "ON 12/24 AND 12/31, THIS BOX MAY BE COLLECTED AS EARLY AS 12 NOON.", "ref": "5417500003"}, "type": "Feature"}
{"geometry": {"coordinates": [-88.588483923, 45.328266639], "type": "Point"}, "id": "2_921FRyJpOrjnZCcnM8Ws1Nq7s=", "properties": {"@spider": "usps_collection_boxes", "addr:city": "TOWNSEND", "addr:country": "US", "addr:full": "17912 FRONT ST", "addr:postcode": "54175", "addr:state": "WI", "brand": "USPS", "collection_times": "Mo-Fr 15:00; Sa 09:30", "name": "USPS COLLECTION BOX - PO LOBBY", "note": "ON 12/24 AND 12/31, THIS BOX MAY BE COLLECTED AS EARLY AS 12 NOON.", "ref": "5417500004"}, "type": "Feature"}
{"geometry": {"coordinates": [-88.167143, 44.327786], "type": "Point"}, "id": "SDA9JutqM3o_G2Yqy2_J703yCvo=", "properties": {"@spider": "usps_collection_boxes", "addr:city": "WRIGHTSTOWN", "addr:country": "US", "addr:full": "518 MAIN ST", "addr:postcode": "54180", "addr:state": "WI", "brand": "USPS", "collection_times": "Mo-Fr 16:15; Sa 10:45", "name": "USPS COLLECTION BOX - BLUE BOX", "note": "ON 12/24 AND 12/31, THIS BOX MAY BE COLLECTED AS EARLY AS 12 NOON.", "ref": "5418000000"}, "type": "Feature"}
{"geometry": {"coordinates": [-88.167143, 44.327786], "type": "Point"}, "id": "PBa3D9cXXTELGi7q5Ttjh3Mm8Eo=", "properties": {"@spider": "usps_collection_boxes", "addr:city": "WRIGHTSTOWN", "addr:country": "US", "addr:full": "518 MAIN ST", "addr:postcode": "54180", "addr:state": "WI", "brand": "USPS", "collection_times": "Mo-Fr 16:30; Sa 11:00", "name": "USPS COLLECTION BOX - PO LOBBY", "note": "ON 12/24 AND 12/31, THIS BOX MAY BE COLLECTED AS EARLY AS 12 NOON.", "ref": "5418000002"}, "type": "Feature"}
{"geometry": {"coordinates": [-88.167076406, 44.327809036], "type": "Point"}, "id": "SHVnz76pX0QXuMYTx2tCaqALCl0=", "properties": {"@spider": "usps_collection_boxes", "addr:city": "WRIGHTSTOWN", "addr:country": "US", "addr:full": "518 MAIN ST", "addr:postcode": "54180", "addr:state": "WI", "brand": "USPS", "collection_times": "Mo-Fr 16:30; Sa 11:00", "name": "USPS COLLECTION BOX - PO LOBBY", "note": "ON 12/24 AND 12/31, THIS BOX MAY BE COLLECTED AS EARLY AS 12 NOON.", "ref": "5418000004"}, "type": "Feature"}
