{"geometry": {"coordinates": [-87.4365889968, 44.608287995], "type": "Point"}, "id": "nZqdeXTsGWRqwsITdGPpO6-1GPY=", "properties": {"@source_uri": "https://tools.usps.com/UspsToolsRestServices/rest/POLocator/findLocations", "@spider": "usps_collection_boxes", "addr:city": "ALGOMA", "addr:country": "US", "addr:postcode": "54201", "addr:state": "WI", "addr:street_address": "208 STEELE ST", "amenity": "post_box", "collection_times": "Mo-Sa 11:00", "nsi_id": "unitedstatespostalservice-a77078", "operator": "United States Postal Service", "operator:short": "USPS", "operator:type": "public", "operator:wikidata": "Q668687", "ref": "5420100004"}, "type": "Feature"}
{"geometry": {"coordinates": [-87.4385395, 44.608866], "type": "Point"}, "id": "IgmC2bEcdbcNby5ficfQWiu-9RE=", "properties": {"@source_uri": "https://tools.usps.com/UspsToolsRestServices/rest/POLocator/findLocations", "@spider": "usps_collection_boxes", "addr:city": "ALGOMA", "addr:country": "US", "addr:postcode": "54201", "addr:state": "WI", "addr:street_address": "329 4TH ST", "amenity": "post_box", "collection_times": "Mo-Sa 11:00", "nsi_id": "unitedstatespostalservice-a77078", "operator": "United States Postal Service", "operator:short": "USPS", "operator:type": "public", "operator:wikidata": "Q668687", "ref": "5420100008"}, "type": "Feature"}
{"geometry": {"coordinates": [-87.44896, 44.602012], "type": "Point"}, "id": "JLBsDB73U_-WS-aGZN5YpS_JB_4=", "properties": {"@source_uri": "https://tools.usps.com/UspsToolsRestServices/rest/POLocator/findLocations", "@spider": "usps_collection_boxes", "addr:city": "ALGOMA", "addr:country": "US", "addr:postcode": "54201", "addr:state": "WI", "addr:street_address": "1121 FLORA AVE", "amenity": "post_box", "collection_times": "Mo-Fr 16:30; Sa 11:30", "indoor": "yes", "note": "ON 12/24 AND 12/31, THIS BOX MAY BE COLLECTED AS EARLY AS 12 NOON.", "nsi_id": "unitedstatespostalservice-a77078", "operator": "United States Postal Service", "operator:short": "USPS", "operator:type": "public", "operator:wikidata": "Q668687", "ref": "5420100013"}, "type": "Feature"}
{"geometry": {"coordinates": [-87.44896, 44.602012], "type": "Point"}, "id": "-yPoK0tN6oEY5-KCPDkZjJJZz3Q=", "properties": {"@source_uri": "https://tools.usps.com/UspsToolsRestServices/rest/POLocator/findLocations", "@spider": "usps_collection_boxes", "addr:city": "ALGOMA", "addr:country": "US", "addr:postcode": "54201", "addr:state": "WI", "addr:street_address": "1121 FLORA AVE", "amenity": "post_box", "collection_times": "Mo-Fr 16:30; Sa 14:30", "note": "ON 12/24 AND 12/31, THIS BOX MAY BE COLLECTED AS EARLY AS 12 NOON.", "nsi_id": "unitedstatespostalservice-a77078", "operator": "United States Postal Service", "operator:short": "USPS", "operator:type": "public", "operator:wikidata": "Q668687", "ref": "5420100014"}, "type": "Feature"}
{"geometry": {"coordinates": [-87.44895846, 44.602011566], "type": "Point"}, "id": "wVdx1YQoenmHJetF8FFI0vyoxDY=", "properties": {"@source_uri": "https://tools.usps.com/UspsToolsRestServices/rest/POLocator/findLocations", "@spider": "usps_collection_boxes", "addr:city": "ALGOMA", "addr:country": "US", "addr:postcode": "54201", "addr:state": "WI", "addr:street_address": "1121 FLORA AVE", "amenity": "post_box", "collection_times": "Mo-Fr 16:30; Sa 11:30", "indoor": "yes", "note": "ON 12/24 AND 12/31, THIS BOX MAY BE COLLECTED AS EARLY AS 12 NOON.", "nsi_id": "unitedstatespostalservice-a77078", "operator": "United States Postal Service", "operator:short": "USPS", "operator:type": "public", "operator:wikidata": "Q668687", "ref": "5420100017"}, "type": "Feature"}
{"geometry": {"coordinates": [-87.124842, 45.062145], "type": "Point"}, "id": "VKXFiXGoc-ffTaRhnUTB7My9Qqw=", "properties": {"@source_uri": "https://tools.usps.com/UspsToolsRestServices/rest/POLocator/findLocations", "@spider": "usps_collection_boxes", "addr:city": "BAILEYS HARBOR", "addr:country": "US", "addr:postcode": "54202", "addr:state": "WI", "addr:street_address": "2398 BLUFF RD", "amenity": "post_box", "collection_times": "Mo-Fr 15:30; Sa 11:00", "note": "ON 12/24 AND 12/31, THIS BOX MAY BE COLLECTED AS EARLY AS 12 NOON.", "nsi_id": "unitedstatespostalservice-a77078", "operator": "United States Postal Service", "operator:short": "USPS", "operator:type": "public", "operator:wikidata": "Q668687", "ref": "5420200000"}, "type": "Feature"}
{"geometry": {"coordinates": [-87.124968, 45.062117], "type": "Point"}, "id": "qTnh_l1FgWmKJ_fCj6MawTD2vKQ=", "properties": {"@source_uri": "https://tools.usps.com/UspsToolsRestServices/rest/POLocator/findLocations", "@spider": "usps_collection_boxes", "addr:city": "BAILEYS HARBOR", "addr:country": "US", "addr:postcode": "54202", "addr:state": "WI", "addr:street_address": "2398 BLUFF RD", "amenity": "post_box", "collection_times": "Mo-Fr 15:30; Sa 11:00", "indoor": "yes", "note": "ON 12/24 AND 12/31, THIS BOX MAY BE COLLECTED AS EARLY AS 12 NOON.", "nsi_id": "unitedstatespostalservice-a77078", "operator": "United States Postal Service", "operator:short": "USPS", "operator:type": "public", "operator:wikidata": "Q668687", "ref": "5420200001"}, "type": "Feature"}
{"geometry": {"coordinates": [-87.124968, 45.062117], "type": "Point"}, "id": "MP0JY8bCqjMAJhQ29ZZ6jC7AQJI=", "properties": {"@source_uri": "https://tools.usps.com/UspsToolsRestServices/rest/POLocator/findLocations", "@spider": "usps_collection_boxes", "addr:city": "BAILEYS HARBOR", "addr:country": "US", "addr:postcode": "54202", "addr:state": "WI", "addr:street_address": "2398 BLUFF RD", "amenity": "post_box", "collection_times": "Mo-Fr 15:30; Sa 11:00", "indoor": "yes", "note": "ON 12/24 AND 12/31, THIS BOX MAY BE COLLECTED AS EARLY AS 12 NOON.", "nsi_id": "unitedstatespostalservice-a77078", "operator": "United States Postal Service", "operator:short": "USPS", "operator:type": "public", "operator:wikidata": "Q668687", "ref": "5420200002"}, "type": "Feature"}
{"geometry": {"coordinates": [-87.12485122, 45.062176493], "type": "Point"}, "id": "23e7BiGrygqqUTHOHqoj2FK3Cr0=", "properties": {"@source_uri": "https://tools.usps.com/UspsToolsRestServices/rest/POLocator/findLocations", "@spider": "usps_collection_boxes", "addr:city": "BAILEYS HARBOR", "addr:country": "US", "addr:postcode": "54202", "addr:state": "WI", "addr:street_address": "2398 BLUFF RD", "amenity": "post_box", "collection_times": "Mo-Fr 15:30; Sa 11:00", "indoor": "yes", "note": "ON 12/24 AND 12/31, THIS BOX MAY BE COLLECTED AS EARLY AS 12 NOON.", "nsi_id": "unitedstatespostalservice-a77078", "operator": "United States Postal Service", "operator:short": "USPS", "operator:type": "public", "operator:wikidata": "Q668687", "ref": "5420200003"}, "type": "Feature"}
{"geometry": {"coordinates": [-87.619487, 44.736623], "type": "Point"}, "id": "QpDV9b8-vR0fc_zJpYd1Rr8Wv3o=", "properties": {"@source_uri": "https://tools.usps.com/UspsToolsRestServices/rest/POLocator/findLocations", "@spider": "usps_collection_boxes", "addr:city": "BRUSSELS", "addr:country": "US", "addr:postcode": "54204", "addr:state": "WI", "addr:street_address": "1366 COUNTY ROAD DK", "amenity": "post_box", "collection_times": "Mo-Fr 14:15; Sa 09:15", "note": "ON 12/24 AND 12/31, THIS BOX MAY BE COLLECTED AS EARLY AS 12 NOON.", "nsi_id": "unitedstatespostalservice-a77078", "operator": "United States Postal Service", "operator:short": "USPS", "operator:type": "public", "operator:wikidata": "Q668687", "ref": "5420400000"}, "type": "Feature"}
{"geometry": {"coordinates": [-87.619487, 44.736623], "type": "Point"}, "id": "r7tWUAj0OWDFglB7YUmYDvbuuP8=", "properties": {"@source_uri": "https://tools.usps.com/UspsToolsRestServices/rest/POLocator/findLocations", "@spider": "usps_collection_boxes", "addr:city": "BRUSSELS", "addr:country": "US", "addr:postcode": "54204", "addr:state": "WI", "addr:street_address": "1366 COUNTY ROAD DK", "amenity": "post_box", "collection_times": "Mo-Fr 14:15; Sa 09:15", "indoor": "yes", "note": "ON 12/24 AND 12/31, THIS BOX MAY BE COLLECTED AS EARLY AS 12 NOON.", "nsi_id": "unitedstatespostalservice-a77078", "operator": "United States Postal Service", "operator:short": "USPS", "operator:type": "public", "operator:wikidata": "Q668687", "ref": "5420400001"}, "type": "Feature"}
{"geometry": {"coordinates": [-87.619487, 44.736623], "type": "Point"}, "id": "blHIP0Id1i1XdnsYeY3rD5De9X0=", "properties": {"@source_uri": "https://tools.usps.com/UspsToolsRestServices/rest/POLocator/findLocations", "@spider": "usps_collection_boxes", "addr:city": "BRUSSELS", "addr:country": "US", "addr:postcode": "54204", "addr:state": "WI", "addr:street_address": "1366 COUNTY ROAD DK", "amenity": "post_box", "collection_times": "Mo-Fr 14:15; Sa 09:15", "indoor": "yes", "note": "ON 12/24 AND 12/31, THIS BOX MAY BE COLLECTED AS EARLY AS 12 NOON.", "nsi_id": "unitedstatespostalservice-a77078", "operator": "United States Postal Service", "operator:short": "USPS", "operator:type": "public", "operator:wikidata": "Q668687", "ref": "5420400002"}, "type": "Feature"}
{"geometry": {"coordinates": [-87.619488488, 44.736624526], "type": "Point"}, "id": "4Szg-itZHjWmVQ985qA5cpT9FWQ=", "properties": {"@source_uri": "https://tools.usps.com/UspsToolsRestServices/rest/POLocator/findLocations", "@spider": "usps_collection_boxes", "addr:city": "BRUSSELS", "addr:country": "US", "addr:postcode": "54204", "addr:state": "WI", "addr:street_address": "1366 COUNTY ROAD DK", "amenity": "post_box", "collection_times": "Mo-Fr 14:15; Sa 09:15", "indoor": "yes", "note": "ON 12/24 AND 12/31, THIS BOX MAY BE COLLECTED AS EARLY AS 12 NOON.", "nsi_id": "unitedstatespostalservice-a77078", "operator": "United States Postal Service", "operator:short": "USPS", "operator:type": "public", "operator:wikidata": "Q668687", "ref": "5420400003"}, "type": "Feature"}
{"geometry": {"coordinates": [-87.61838, 44.557769], "type": "Point"}, "id": "jkYk6BDox9JwmAw7qYdHbyDXRvI=", "properties": {"@source_uri": "https://tools.usps.com/UspsToolsRestServices/rest/POLocator/findLocations", "@spider": "usps_collection_boxes", "addr:city": "CASCO", "addr:country": "US", "addr:postcode": "54205", "addr:state": "WI", "addr:street_address": "307 MAIN ST", "amenity": "post_box", "collection_times": "Mo-Fr 14:15; Sa 08:45", "indoor": "yes", "note": "ON 12/24 AND 12/31, THIS BOX MAY BE COLLECTED AS EARLY AS 12 NOON.", "nsi_id": "unitedstatespostalservice-a77078", "operator": "United States Postal Service", "operator:short": "USPS", "operator:type": "public", "operator:wikidata": "Q668687", "ref": "5420500001"}, "type": "Feature"}
{"geometry": {"coordinates": [-87.61838, 44.557769], "type": "Point"}, "id": "EvVyVYyjDt262FwXleANRylbQ7k=", "properties": {"@source_uri": "https://tools.usps.com/UspsToolsRestServices/rest/POLocator/findLocations", "@spider": "usps_collection_boxes", "addr:city": "CASCO", "addr:country": "US", "addr:postcode": "54205", "addr:state": "WI", "addr:street_address": "307 MAIN ST", "amenity": "post_box", "collection_times": "Mo-Fr 14:15; Sa 08:45", "note": "ON 12/24 AND 12/31, THIS BOX MAY BE COLLECTED AS EARLY AS 12 NOON.", "nsi_id": "unitedstatespostalservice-a77078", "operator": "United States Postal Service", "operator:short": "USPS", "operator:type": "public", "operator:wikidata": "Q668687", "ref": "5420500002"}, "type": "Feature"}
{"geometry": {"coordinates": [-87.61838, 44.557769], "type": "Point"}, "id": "vPyt6of2qUQuwoVIB5FuAH5YbEc=", "properties": {"@source_uri": "https://tools.usps.com/UspsToolsRestServices/rest/POLocator/findLocations", "@spider": "usps_collection_boxes", "addr:city": "CASCO", "addr:country": "US", "addr:postcode": "54205", "addr:state": "WI", "addr:street_address": "307 MAIN ST", "amenity": "post_box", "collection_times": "Mo-Fr 14:15; Sa 08:45", "indoor": "yes", "note": "ON 12/24 AND 12/31, THIS BOX MAY BE COLLECTED AS EARLY AS 12 NOON.", "nsi_id": "unitedstatespostalservice-a77078", "operator": "United States Postal Service", "operator:short": "USPS", "operator:type": "public", "operator:wikidata": "Q668687", "ref": "5420500003"}, "type": "Feature"}
{"geometry": {"coordinates": [-87.61824, 44.557765457], "type": "Point"}, "id": "Y1p8_cfM5e_Nt_ArxjvA1r2dmsk=", "properties": {"@source_uri": "https://tools.usps.com/UspsToolsRestServices/rest/POLocator/findLocations", "@spider": "usps_collection_boxes", "addr:city": "CASCO", "addr:country": "US", "addr:postcode": "54205", "addr:state": "WI", "addr:street_address": "307 MAIN ST", "amenity": "post_box", "collection_times": "Mo-Fr 14:15; Sa 08:45", "indoor": "yes", "note": "ON 12/24 AND 12/31, THIS BOX MAY BE COLLECTED AS EARLY AS 12 NOON.", "nsi_id": "unitedstatespostalservice-a77078", "operator": "United States Postal Service", "operator:short": "USPS", "operator:type": "public", "operator:wikidata": "Q668687", "ref": "5420500005"}, "type": "Feature"}
{"geometry": {"coordinates": [-87.980462, 44.084351], "type": "Point"}, "id": "7Lv5_UO4u8wDLk4V06NYNtCSAPU=", "properties": {"@source_uri": "https://tools.usps.com/UspsToolsRestServices/rest/POLocator/findLocations", "@spider": "usps_collection_boxes", "addr:city": "COLLINS", "addr:country": "US", "addr:postcode": "54207", "addr:state": "WI", "addr:street_address": "20841 COUNTY ROAD JJ", "amenity": "post_box", "collection_times": "Mo-Fr 15:15; Sa 12:30", "note": "ON 12/24 AND 12/31, THIS BOX MAY BE COLLECTED AS EARLY AS 12 NOON.", "nsi_id": "unitedstatespostalservice-a77078", "operator": "United States Postal Service", "operator:short": "USPS", "operator:type": "public", "operator:wikidata": "Q668687", "ref": "5420700000"}, "type": "Feature"}
{"geometry": {"coordinates": [-87.9798409731, 44.0843194774], "type": "Point"}, "id": "wAJT2Vsr4OMgKT5KWWL9Jg0TAmk=", "properties": {"@source_uri": "https://tools.usps.com/UspsToolsRestServices/rest/POLocator/findLocations", "@spider": "usps_collection_boxes", "addr:city": "COLLINS", "addr:country": "US", "addr:postcode": "54207", "addr:state": "WI", "addr:street_address": "20841 COUNTY ROAD JJ", "amenity": "post_box", "collection_times": "Mo-Fr 15:15; Sa 12:30", "indoor": "yes", "note": "ON 12/24 AND 12/31, THIS BOX MAY BE COLLECTED AS EARLY AS 12 NOON.", "nsi_id": "unitedstatespostalservice-a77078", "operator": "United States Postal Service", "operator:short": "USPS", "operator:type": "public", "operator:wikidata": "Q668687", "ref": "5420700001"}, "type": "Feature"}
{"geometry": {"coordinates": [-87.979840973, 44.084319477], "type": "Point"}, "id": "BUcNS8mCnPElxFQR_sSJkAJEr6U=", "properties": {"@source_uri": "https://tools.usps.com/UspsToolsRestServices/rest/POLocator/findLocations", "@spider": "usps_collection_boxes", "addr:city": "COLLINS", "addr:country": "US", "addr:postcode": "54207", "addr:state": "WI", "addr:street_address": "20841 COUNTY ROAD JJ", "amenity": "post_box", "collection_times": "Mo-Fr 15:15; Sa 12:30", "indoor": "yes", "note": "ON 12/24 AND 12/31, THIS BOX MAY BE COLLECTED AS EARLY AS 12 NOON.", "nsi_id": "unitedstatespostalservice-a77078", "operator": "United States Postal Service", "operator:short": "USPS", "operator:type": "public", "operator:wikidata": "Q668687", "ref": "5420700002"}, "type": "Feature"}
{"geometry": {"coordinates": [-87.826042, 44.347186], "type": "Point"}, "id": "CwSeX5rDJdUwY6FNyEZlIcHqm4o=", "properties": {"@source_uri": "https://tools.usps.com/UspsToolsRestServices/rest/POLocator/findLocations", "@spider": "usps_collection_boxes", "addr:city": "DENMARK", "addr:country": "US", "addr:postcode": "54208", "addr:state": "WI", "addr:street_address": "135 WISCONSIN AVE", "amenity": "post_box", "collection_times": "Mo-Fr 17:00; Sa 10:15", "note": "ON 12/24 AND 12/31, THIS BOX MAY BE COLLECTED AS EARLY AS 12 NOON.", "nsi_id": "unitedstatespostalservice-a77078", "operator": "United States Postal Service", "operator:short": "USPS", "operator:type": "public", "operator:wikidata": "Q668687", "ref": "5420800001"}, "type": "Feature"}
{"geometry": {"coordinates": [-87.826042, 44.347186], "type": "Point"}, "id": "F69HQFs5SX8-0FfbWDfjhNCe7gc=", "properties": {"@source_uri": "https://tools.usps.com/UspsToolsRestServices/rest/POLocator/findLocations", "@spider": "usps_collection_boxes", "addr:city": "DENMARK", "addr:country": "US", "addr:postcode": "54208", "addr:state": "WI", "addr:street_address": "135 WISCONSIN AVE", "amenity": "post_box", "collection_times": "Mo-Fr 17:00; Sa 10:15", "indoor": "yes", "note": "ON 12/24 AND 12/31, THIS BOX MAY BE COLLECTED AS EARLY AS 12 NOON.", "nsi_id": "unitedstatespostalservice-a77078", "operator": "United States Postal Service", "operator:short": "USPS", "operator:type": "public", "operator:wikidata": "Q668687", "ref": "5420800003"}, "type": "Feature"}
{"geometry": {"coordinates": [-87.826042, 44.347186], "type": "Point"}, "id": "LJtwF8znCJuGut098DSdhNVdSAk=", "properties": {"@source_uri": "https://tools.usps.com/UspsToolsRestServices/rest/POLocator/findLocations", "@spider": "usps_collection_boxes", "addr:city": "DENMARK", "addr:country": "US", "addr:postcode": "54208", "addr:state": "WI", "addr:street_address": "135 WISCONSIN AVE", "amenity": "post_box", "collection_times": "Mo-Fr 17:00; Sa 10:15", "indoor": "yes", "note": "ON 12/24 AND 12/31, THIS BOX MAY BE COLLECTED AS EARLY AS 12 NOON.", "nsi_id": "unitedstatespostalservice-a77078", "operator": "United States Postal Service", "operator:short": "USPS", "operator:type": "public", "operator:wikidata": "Q668687", "ref": "5420800004"}, "type": "Feature"}
{"geometry": {"coordinates": [-87.826042956, 44.347178956], "type": "Point"}, "id": "nrtnzwNIt8ksYcSfwiKbNvdglMo=", "properties": {"@source_uri": "https://tools.usps.com/UspsToolsRestServices/rest/POLocator/findLocations", "@spider": "usps_collection_boxes", "addr:city": "DENMARK", "addr:country": "US", "addr:postcode": "54208", "addr:state": "WI", "addr:street_address": "135 WISCONSIN AVE", "amenity": "post_box", "collection_times": "Mo-Fr 17:00; Sa 10:15", "indoor": "yes", "note": "ON 12/24 AND 12/31, THIS BOX MAY BE COLLECTED AS EARLY AS 12 NOON.", "nsi_id": "unitedstatespostalservice-a77078", "operator": "United States Postal Service", "operator:short": "USPS", "operator:type": "public", "operator:wikidata": "Q668687", "ref": "5420800005"}, "type": "Feature"}
{"geometry": {"coordinates": [-87.280552, 45.052728], "type": "Point"}, "id": "SP6EyLv6mZ_Lynx7itRnd2BJEW8=", "properties": {"@source_uri": "https://tools.usps.com/UspsToolsRestServices/rest/POLocator/findLocations", "@spider": "usps_collection_boxes", "addr:city": "EGG HARBOR", "addr:country": "US", "addr:postcode": "54209", "addr:state": "WI", "addr:street_address": "7858 STATE HIGHWAY 42", "amenity": "post_box", "collection_times": "Mo-Fr 15:00; Sa 11:00", "note": "ON 12/24 AND 12/31, THIS BOX MAY BE COLLECTED AS EARLY AS 12 NOON.", "nsi_id": "unitedstatespostalservice-a77078", "operator": "United States Postal Service", "operator:short": "USPS", "operator:type": "public", "operator:wikidata": "Q668687", "ref": "5420900000"}, "type": "Feature"}
{"geometry": {"coordinates": [-87.280562672, 45.052550466], "type": "Point"}, "id": "pXwk5Fe-uGDwkyH0MAZiKvYeeBg=", "properties": {"@source_uri": "https://tools.usps.com/UspsToolsRestServices/rest/POLocator/findLocations", "@spider": "usps_collection_boxes", "addr:city": "EGG HARBOR", "addr:country": "US", "addr:postcode": "54209", "addr:state": "WI", "addr:street_address": "7858 STATE HIGHWAY 42", "amenity": "post_box", "collection_times": "Mo-Fr 15:45; Sa 11:00", "indoor": "yes", "note": "ON 12/24 AND 12/31, THIS BOX MAY BE COLLECTED AS EARLY AS 12 NOON.", "nsi_id": "unitedstatespostalservice-a77078", "operator": "United States Postal Service", "operator:short": "USPS", "operator:type": "public", "operator:wikidata": "Q668687", "ref": "5420900002"}, "type": "Feature"}
{"geometry": {"coordinates": [-87.280552, 45.052728], "type": "Point"}, "id": "7ceia1XV-N7mSc5ayVfxlAnnxZk=", "properties": {"@source_uri": "https://tools.usps.com/UspsToolsRestServices/rest/POLocator/findLocations", "@spider": "usps_collection_boxes", "addr:city": "EGG HARBOR", "addr:country": "US", "addr:postcode": "54209", "addr:state": "WI", "addr:street_address": "7858 STATE HIGHWAY 42", "amenity": "post_box", "collection_times": "Mo-Fr 15:45; Sa 11:00", "indoor": "yes", "note": "ON 12/24 AND 12/31, THIS BOX MAY BE COLLECTED AS EARLY AS 12 NOON.", "nsi_id": "unitedstatespostalservice-a77078", "operator": "United States Postal Service", "operator:short": "USPS", "operator:type": "public", "operator:wikidata": "Q668687", "ref": "5420900003"}, "type": "Feature"}
{"geometry": {"coordinates": [-87.280562672, 45.052550466], "type": "Point"}, "id": "eyt8oAUhnZ9pBNWPC6gu86H6pcI=", "properties": {"@source_uri": "https://tools.usps.com/UspsToolsRestServices/rest/POLocator/findLocations", "@spider": "usps_collection_boxes", "addr:city": "EGG HARBOR", "addr:country": "US", "addr:postcode": "54209", "addr:state": "WI", "addr:street_address": "7858 STATE HIGHWAY 42", "amenity": "post_box", "collection_times": "Mo-Fr 15:45; Sa 11:00", "indoor": "yes", "note": "ON 12/24 AND 12/31, THIS BOX MAY BE COLLECTED AS EARLY AS 12 NOON.", "nsi_id": "unitedstatespostalservice-a77078", "operator": "United States Postal Service", "operator:short": "USPS", "operator:type": "public", "operator:wikidata": "Q668687", "ref": "5420900006"}, "type": "Feature"}
{"geometry": {"coordinates": [-87.07149, 45.256869], "type": "Point"}, "id": "ys3ueVtC-6T-q3VPt-6fISpKwmk=", "properties": {"@source_uri": "https://tools.usps.com/UspsToolsRestServices/rest/POLocator/findLocations", "@spider": "usps_collection_boxes", "addr:city": "ELLISON BAY", "addr:country": "US", "addr:postcode": "54210", "addr:state": "WI", "addr:street_address": "12055 GARRETT BAY RD", "amenity": "post_box", "collection_times": "Mo-Fr 14:15; Sa 09:00", "note": "ON 12/24 AND 12/31, THIS BOX MAY BE COLLECTED AS EARLY AS 12 NOON.", "nsi_id": "unitedstatespostalservice-a77078", "operator": "United States Postal Service", "operator:short": "USPS", "operator:type": "public", "operator:wikidata": "Q668687", "ref": "5421000000"}, "type": "Feature"}
{"geometry": {"coordinates": [-87.07149, 45.256869], "type": "Point"}, "id": "W6YwTUTWmn65yHr02a58lr_-IkA=", "properties": {"@source_uri": "https://tools.usps.com/UspsToolsRestServices/rest/POLocator/findLocations", "@spider": "usps_collection_boxes", "addr:city": "ELLISON BAY", "addr:country": "US", "addr:postcode": "54210", "addr:state": "WI", "addr:street_address": "12055 GARRETT BAY RD", "amenity": "post_box", "collection_times": "Mo-Fr 15:15; Sa 10:00", "indoor": "yes", "note": "ON 12/24 AND 12/31, THIS BOX MAY BE COLLECTED AS EARLY AS 12 NOON.", "nsi_id": "unitedstatespostalservice-a77078", "operator": "United States Postal Service", "operator:short": "USPS", "operator:type": "public", "operator:wikidata": "Q668687", "ref": "5421000002"}, "type": "Feature"}
{"geometry": {"coordinates": [-87.07149, 45.256869], "type": "Point"}, "id": "2GgR4Q-AsFKcwZlGaAnyBrUUoaE=", "properties": {"@source_uri": "https://tools.usps.com/UspsToolsRestServices/rest/POLocator/findLocations", "@spider": "usps_collection_boxes", "addr:city": "ELLISON BAY", "addr:country": "US", "addr:postcode": "54210", "addr:state": "WI", "addr:street_address": "12055 GARRETT BAY RD", "amenity": "post_box", "collection_times": "Mo-Fr 15:15; Sa 10:00", "indoor": "yes", "note": "ON 12/24 AND 12/31, THIS BOX MAY BE COLLECTED AS EARLY AS 12 NOON.", "nsi_id": "unitedstatespostalservice-a77078", "operator": "United States Postal Service", "operator:short": "USPS", "operator:type": "public", "operator:wikidata": "Q668687", "ref": "5421000003"}, "type": "Feature"}
{"geometry": {"coordinates": [-87.071499544, 45.25682378], "type": "Point"}, "id": "qFFhAw8qARdeb5dbv8UoCv98SfA=", "properties": {"@source_uri": "https://tools.usps.com/UspsToolsRestServices/rest/POLocator/findLocations", "@spider": "usps_collection_boxes", "addr:city": "ELLISON BAY", "addr:country": "US", "addr:postcode": "54210", "addr:state": "WI", "addr:street_address": "12055 GARRETT BAY RD", "amenity": "post_box", "collection_times": "Mo-Fr 15:15; Sa 10:00", "indoor": "yes", "note": "ON 12/24 AND 12/31, THIS BOX MAY BE COLLECTED AS EARLY AS 12 NOON.", "nsi_id": "unitedstatespostalservice-a77078", "operator": "United States Postal Service", "operator:short": "USPS", "operator:type": "public", "operator:wikidata": "Q668687", "ref": "5421000005"}, "type": "Feature"}
{"geometry": {"coordinates": [-87.167175, 45.156605], "type": "Point"}, "id": "h293oe2YpLs-ggSe1T6LJuQOpwY=", "properties": {"@source_uri": "https://tools.usps.com/UspsToolsRestServices/rest/POLocator/findLocations", "@spider": "usps_collection_boxes", "addr:city": "EPHRAIM", "addr:country": "US", "addr:postcode": "54211", "addr:state": "WI", "addr:street_address": "3043 CEDAR ST", "amenity": "post_box", "collection_times": "Mo-Fr 14:15; Sa 09:45", "note": "ON 12/24 AND 12/31, THIS BOX MAY BE COLLECTED AS EARLY AS 12 NOON.", "nsi_id": "unitedstatespostalservice-a77078", "operator": "United States Postal Service", "operator:short": "USPS", "operator:type": "public", "operator:wikidata": "Q668687", "ref": "5421100000"}, "type": "Feature"}
{"geometry": {"coordinates": [-87.170236, 45.157844], "type": "Point"}, "id": "MVKB5uuQP84Nv4ICpk8e7UnPkCc=", "properties": {"@source_uri": "https://tools.usps.com/UspsToolsRestServices/rest/POLocator/findLocations", "@spider": "usps_collection_boxes", "addr:city": "EPHRAIM", "addr:country": "US", "addr:postcode": "54211", "addr:state": "WI", "addr:street_address": "3043 CEDAR ST", "amenity": "post_box", "collection_times": "Mo-Fr 14:15; Sa 09:45", "indoor": "yes", "note": "ON 12/24 AND 12/31, THIS BOX MAY BE COLLECTED AS EARLY AS 12 NOON.", "nsi_id": "unitedstatespostalservice-a77078", "operator": "United States Postal Service", "operator:short": "USPS", "operator:type": "public", "operator:wikidata": "Q668687", "ref": "5421100001"}, "type": "Feature"}
{"geometry": {"coordinates": [-87.170236, 45.157844], "type": "Point"}, "id": "fVBsHvMWRLt_Pi2IWhHBLqV2EqY=", "properties": {"@source_uri": "https://tools.usps.com/UspsToolsRestServices/rest/POLocator/findLocations", "@spider": "usps_collection_boxes", "addr:city": "EPHRAIM", "addr:country": "US", "addr:postcode": "54211", "addr:state": "WI", "addr:street_address": "3043 CEDAR ST", "amenity": "post_box", "collection_times": "Mo-Fr 14:15; Sa 09:45", "indoor": "yes", "note": "ON 12/24 AND 12/31, THIS BOX MAY BE COLLECTED AS EARLY AS 12 NOON.", "nsi_id": "unitedstatespostalservice-a77078", "operator": "United States Postal Service", "operator:short": "USPS", "operator:type": "public", "operator:wikidata": "Q668687", "ref": "5421100002"}, "type": "Feature"}
{"geometry": {"coordinates": [-87.169611945, 45.157811481], "type": "Point"}, "id": "VFrleD6MmMCnNTijAOjKEG4_Vgg=", "properties": {"@source_uri": "https://tools.usps.com/UspsToolsRestServices/rest/POLocator/findLocations", "@spider": "usps_collection_boxes", "addr:city": "EPHRAIM", "addr:country": "US", "addr:postcode": "54211", "addr:state": "WI", "addr:street_address": "3043 CEDAR ST", "amenity": "post_box", "collection_times": "Mo-Fr 14:15; Sa 09:45", "indoor": "yes", "note": "ON 12/24 AND 12/31, THIS BOX MAY BE COLLECTED AS EARLY AS 12 NOON.", "nsi_id": "unitedstatespostalservice-a77078", "operator": "United States Postal Service", "operator:short": "USPS", "operator:type": "public", "operator:wikidata": "Q668687", "ref": "5421100003"}, "type": "Feature"}
{"geometry": {"coordinates": [-87.241725, 45.126782], "type": "Point"}, "id": "tSSx6Lb1b0kNeF9sToxLbpPWvxI=", "properties": {"@source_uri": "https://tools.usps.com/UspsToolsRestServices/rest/POLocator/findLocations", "@spider": "usps_collection_boxes", "addr:city": "FISH CREEK", "addr:country": "US", "addr:postcode": "54212", "addr:state": "WI", "addr:street_address": "4097 MAIN ST UNIT 2", "amenity": "post_box", "collection_times": "Mo-Fr 15:30; Sa 12:00", "note": "ON 12/24 AND 12/31, THIS BOX MAY BE COLLECTED AS EARLY AS 12 NOON.", "nsi_id": "unitedstatespostalservice-a77078", "operator": "United States Postal Service", "operator:short": "USPS", "operator:type": "public", "operator:wikidata": "Q668687", "ref": "5421200000"}, "type": "Feature"}
{"geometry": {"coordinates": [-87.2417081781, 45.126779776], "type": "Point"}, "id": "JdrfLkrQssGgVNFXWwxlLzHHTzw=", "properties": {"@source_uri": "https://tools.usps.com/UspsToolsRestServices/rest/POLocator/findLocations", "@spider": "usps_collection_boxes", "addr:city": "FISH CREEK", "addr:country": "US", "addr:postcode": "54212", "addr:state": "WI", "addr:street_address": "4097 MAIN ST UNIT 2", "amenity": "post_box", "collection_times": "Mo-Fr 16:00; Sa 12:00", "indoor": "yes", "note": "ON 12/24 AND 12/31, THIS BOX MAY BE COLLECTED AS EARLY AS 12 NOON.", "nsi_id": "unitedstatespostalservice-a77078", "operator": "United States Postal Service", "operator:short": "USPS", "operator:type": "public", "operator:wikidata": "Q668687", "ref": "5421200001"}, "type": "Feature"}
{"geometry": {"coordinates": [-87.241723, 45.126786], "type": "Point"}, "id": "ZjOGlb_FSqM9qMsBjOaiMC4Sxds=", "properties": {"@source_uri": "https://tools.usps.com/UspsToolsRestServices/rest/POLocator/findLocations", "@spider": "usps_collection_boxes", "addr:city": "FISH CREEK", "addr:country": "US", "addr:postcode": "54212", "addr:state": "WI", "addr:street_address": "4097 MAIN ST UNIT 2", "amenity": "post_box", "collection_times": "Mo-Fr 16:00; Sa 12:00", "indoor": "yes", "note": "ON 12/24 AND 12/31, THIS BOX MAY BE COLLECTED AS EARLY AS 12 NOON.", "nsi_id": "unitedstatespostalservice-a77078", "operator": "United States Postal Service", "operator:short": "USPS", "operator:type": "public", "operator:wikidata": "Q668687", "ref": "5421200002"}, "type": "Feature"}
{"geometry": {"coordinates": [-87.241708178, 45.126779776], "type": "Point"}, "id": "joFEG49xg3Q0fX-wffu62XQuNYU=", "properties": {"@source_uri": "https://tools.usps.com/UspsToolsRestServices/rest/POLocator/findLocations", "@spider": "usps_collection_boxes", "addr:city": "FISH CREEK", "addr:country": "US", "addr:postcode": "54212", "addr:state": "WI", "addr:street_address": "4097 MAIN ST UNIT 2", "amenity": "post_box", "collection_times": "Mo-Fr 16:00; Sa 12:00", "indoor": "yes", "note": "ON 12/24 AND 12/31, THIS BOX MAY BE COLLECTED AS EARLY AS 12 NOON.", "nsi_id": "unitedstatespostalservice-a77078", "operator": "United States Postal Service", "operator:short": "USPS", "operator:type": "public", "operator:wikidata": "Q668687", "ref": "5421200003"}, "type": "Feature"}
{"geometry": {"coordinates": [-87.480992, 44.689931], "type": "Point"}, "id": "QP8Q8-hM1RFYWtLpFqq3b0Zvu5Y=", "properties": {"@source_uri": "https://tools.usps.com/UspsToolsRestServices/rest/POLocator/findLocations", "@spider": "usps_collection_boxes", "addr:city": "FORESTVILLE", "addr:country": "US", "addr:postcode": "54213", "addr:state": "WI", "addr:street_address": "137 W MAIN ST", "amenity": "post_box", "collection_times": "Mo-Fr 11:45; Sa 09:30", "nsi_id": "unitedstatespostalservice-a77078", "operator": "United States Postal Service", "operator:short": "USPS", "operator:type": "public", "operator:wikidata": "Q668687", "ref": "5421300000"}, "type": "Feature"}
{"geometry": {"coordinates": [-87.480992, 44.689931], "type": "Point"}, "id": "qXsld8KbBk-Zb59ohiJ_7wqdDqA=", "properties": {"@source_uri": "https://tools.usps.com/UspsToolsRestServices/rest/POLocator/findLocations", "@spider": "usps_collection_boxes", "addr:city": "FORESTVILLE", "addr:country": "US", "addr:postcode": "54213", "addr:state": "WI", "addr:street_address": "137 W MAIN ST", "amenity": "post_box", "collection_times": "Mo-Fr 11:45; Sa 09:30", "indoor": "yes", "nsi_id": "unitedstatespostalservice-a77078", "operator": "United States Postal Service", "operator:short": "USPS", "operator:type": "public", "operator:wikidata": "Q668687", "ref": "5421300001"}, "type": "Feature"}
{"geometry": {"coordinates": [-87.48099, 44.689925474], "type": "Point"}, "id": "cQZWBJ5HiMHRhjEubw-57EQdYWU=", "properties": {"@source_uri": "https://tools.usps.com/UspsToolsRestServices/rest/POLocator/findLocations", "@spider": "usps_collection_boxes", "addr:city": "FORESTVILLE", "addr:country": "US", "addr:postcode": "54213", "addr:state": "WI", "addr:street_address": "137 W MAIN ST", "amenity": "post_box", "collection_times": "Mo-Fr 11:45; Sa 09:30", "indoor": "yes", "nsi_id": "unitedstatespostalservice-a77078", "operator": "United States Postal Service", "operator:short": "USPS", "operator:type": "public", "operator:wikidata": "Q668687", "ref": "5421300002"}, "type": "Feature"}
{"geometry": {"coordinates": [-87.716711, 44.199399], "type": "Point"}, "id": "cQRb1iKsR0rk9LIFjU8LNDAoYZs=", "properties": {"@source_uri": "https://tools.usps.com/UspsToolsRestServices/rest/POLocator/findLocations", "@spider": "usps_collection_boxes", "addr:city": "FRANCIS CREEK", "addr:country": "US", "addr:postcode": "54214", "addr:state": "WI", "addr:street_address": "516 FOREST HOME DR", "amenity": "post_box", "collection_times": "Mo-Fr 11:45; Sa 12:00", "nsi_id": "unitedstatespostalservice-a77078", "operator": "United States Postal Service", "operator:short": "USPS", "operator:type": "public", "operator:wikidata": "Q668687", "ref": "5421400000"}, "type": "Feature"}
{"geometry": {"coordinates": [-87.716635, 44.199376], "type": "Point"}, "id": "W2oC2DxV1jStpVRgmOuD2dqaY50=", "properties": {"@source_uri": "https://tools.usps.com/UspsToolsRestServices/rest/POLocator/findLocations", "@spider": "usps_collection_boxes", "addr:city": "FRANCIS CREEK", "addr:country": "US", "addr:postcode": "54214", "addr:state": "WI", "addr:street_address": "516 FOREST HOME DR", "amenity": "post_box", "collection_times": "Mo-Fr 11:45; Sa 12:00", "indoor": "yes", "nsi_id": "unitedstatespostalservice-a77078", "operator": "United States Postal Service", "operator:short": "USPS", "operator:type": "public", "operator:wikidata": "Q668687", "ref": "5421400001"}, "type": "Feature"}
{"geometry": {"coordinates": [-87.716635, 44.199376], "type": "Point"}, "id": "wPeQ5OvHjLpdKnhkVl4mznEcxys=", "properties": {"@source_uri": "https://tools.usps.com/UspsToolsRestServices/rest/POLocator/findLocations", "@spider": "usps_collection_boxes", "addr:city": "FRANCIS CREEK", "addr:country": "US", "addr:postcode": "54214", "addr:state": "WI", "addr:street_address": "516 FOREST HOME DR", "amenity": "post_box", "collection_times": "Mo-Fr 11:45; Sa 12:00", "indoor": "yes", "nsi_id": "unitedstatespostalservice-a77078", "operator": "United States Postal Service", "operator:short": "USPS", "operator:type": "public", "operator:wikidata": "Q668687", "ref": "5421400002"}, "type": "Feature"}
{"geometry": {"coordinates": [-87.716505955, 44.199405366], "type": "Point"}, "id": "EU3WKFWkZNI6S7kBKAJk7Vmgreg=", "properties": {"@source_uri": "https://tools.usps.com/UspsToolsRestServices/rest/POLocator/findLocations", "@spider": "usps_collection_boxes", "addr:city": "FRANCIS CREEK", "addr:country": "US", "addr:postcode": "54214", "addr:state": "WI", "addr:street_address": "516 FOREST HOME DR", "amenity": "post_box", "collection_times": "Mo-Sa 11:45", "indoor": "yes", "nsi_id": "unitedstatespostalservice-a77078", "operator": "United States Postal Service", "operator:short": "USPS", "operator:type": "public", "operator:wikidata": "Q668687", "ref": "5421400003"}, "type": "Feature"}
{"geometry": {"coordinates": [-87.802758, 44.225655], "type": "Point"}, "id": "9G2uvq0R6FWP5mD9PSpZYWOMhv8=", "properties": {"@source_uri": "https://tools.usps.com/UspsToolsRestServices/rest/POLocator/findLocations", "@spider": "usps_collection_boxes", "addr:city": "KELLNERSVILLE", "addr:country": "US", "addr:postcode": "54215", "addr:state": "WI", "addr:street_address": "1216 MAIN ST", "amenity": "post_box", "collection_times": "Mo-Fr 11:45; Sa 10:15", "nsi_id": "unitedstatespostalservice-a77078", "operator": "United States Postal Service", "operator:short": "USPS", "operator:type": "public", "operator:wikidata": "Q668687", "ref": "5421500000"}, "type": "Feature"}
{"geometry": {"coordinates": [-87.802773, 44.225627], "type": "Point"}, "id": "OjfyG72f7zgBmAgVsycErxFQvuM=", "properties": {"@source_uri": "https://tools.usps.com/UspsToolsRestServices/rest/POLocator/findLocations", "@spider": "usps_collection_boxes", "addr:city": "KELLNERSVILLE", "addr:country": "US", "addr:postcode": "54215", "addr:state": "WI", "addr:street_address": "1216 MAIN ST", "amenity": "post_box", "collection_times": "Mo-Fr 11:45; Sa 10:15", "indoor": "yes", "nsi_id": "unitedstatespostalservice-a77078", "operator": "United States Postal Service", "operator:short": "USPS", "operator:type": "public", "operator:wikidata": "Q668687", "ref": "5421500001"}, "type": "Feature"}
{"geometry": {"coordinates": [-87.802767978, 44.225698531], "type": "Point"}, "id": "q4oPTbroVQn071IYcGGVDEoAxQY=", "properties": {"@source_uri": "https://tools.usps.com/UspsToolsRestServices/rest/POLocator/findLocations", "@spider": "usps_collection_boxes", "addr:city": "KELLNERSVILLE", "addr:country": "US", "addr:postcode": "54215", "addr:state": "WI", "addr:street_address": "1216 MAIN ST", "amenity": "post_box", "collection_times": "Mo-Fr 11:45; Sa 10:15", "indoor": "yes", "nsi_id": "unitedstatespostalservice-a77078", "operator": "United States Postal Service", "operator:short": "USPS", "operator:type": "public", "operator:wikidata": "Q668687", "ref": "5421500002"}, "type": "Feature"}
{"geometry": {"coordinates": [-87.500626, 44.458329], "type": "Point"}, "id": "yEaEEorcqya1cyX-kG3L3VpmHgA=", "properties": {"@source_uri": "https://tools.usps.com/UspsToolsRestServices/rest/POLocator/findLocations", "@spider": "usps_collection_boxes", "addr:city": "KEWAUNEE", "addr:country": "US", "addr:postcode": "54216", "addr:state": "WI", "addr:street_address": "119 ELLIS ST", "amenity": "post_box", "collection_times": "Mo-Fr 17:00; Sa 11:00", "note": "ON 12/24 AND 12/31, THIS BOX MAY BE COLLECTED AS EARLY AS 12 NOON.", "nsi_id": "unitedstatespostalservice-a77078", "operator": "United States Postal Service", "operator:short": "USPS", "operator:type": "public", "operator:wikidata": "Q668687", "ref": "5421600001"}, "type": "Feature"}
{"geometry": {"coordinates": [-87.5257116, 44.455118], "type": "Point"}, "id": "mnuo0X9XWJAg1C7YRixmk-oddkA=", "properties": {"@source_uri": "https://tools.usps.com/UspsToolsRestServices/rest/POLocator/findLocations", "@spider": "usps_collection_boxes", "addr:city": "KEWAUNEE", "addr:country": "US", "addr:postcode": "54216", "addr:state": "WI", "addr:street_address": "1614 CENTER ST", "amenity": "post_box", "collection_times": "Mo-Sa 12:00", "nsi_id": "unitedstatespostalservice-a77078", "operator": "United States Postal Service", "operator:short": "USPS", "operator:type": "public", "operator:wikidata": "Q668687", "ref": "5421600010"}, "type": "Feature"}
{"geometry": {"coordinates": [-87.5279433, 44.454703], "type": "Point"}, "id": "esu81BJqdfGcqk-6uTxfik4aKOA=", "properties": {"@source_uri": "https://tools.usps.com/UspsToolsRestServices/rest/POLocator/findLocations", "@spider": "usps_collection_boxes", "addr:city": "KEWAUNEE", "addr:country": "US", "addr:postcode": "54216", "addr:state": "WI", "addr:street_address": "931 MARQUETTE DR", "amenity": "post_box", "collection_times": "Mo-Sa 12:00", "nsi_id": "unitedstatespostalservice-a77078", "operator": "United States Postal Service", "operator:short": "USPS", "operator:type": "public", "operator:wikidata": "Q668687", "ref": "5421600012"}, "type": "Feature"}
{"geometry": {"coordinates": [-87.500626, 44.458329], "type": "Point"}, "id": "VAz4diVU4qDH5rHdJoPR1skwkTM=", "properties": {"@source_uri": "https://tools.usps.com/UspsToolsRestServices/rest/POLocator/findLocations", "@spider": "usps_collection_boxes", "addr:city": "KEWAUNEE", "addr:country": "US", "addr:postcode": "54216", "addr:state": "WI", "addr:street_address": "119 ELLIS ST", "amenity": "post_box", "collection_times": "Mo-Fr 17:00; Sa 11:00", "indoor": "yes", "note": "ON 12/24 AND 12/31, THIS BOX MAY BE COLLECTED AS EARLY AS 12 NOON.", "nsi_id": "unitedstatespostalservice-a77078", "operator": "United States Postal Service", "operator:short": "USPS", "operator:type": "public", "operator:wikidata": "Q668687", "ref": "5421600013"}, "type": "Feature"}
{"geometry": {"coordinates": [-87.500626, 44.458329], "type": "Point"}, "id": "eOf-OuyPDfEqBeXRYqF2pKyVWYs=", "properties": {"@source_uri": "https://tools.usps.com/UspsToolsRestServices/rest/POLocator/findLocations", "@spider": "usps_collection_boxes", "addr:city": "KEWAUNEE", "addr:country": "US", "addr:postcode": "54216", "addr:state": "WI", "addr:street_address": "119 ELLIS ST", "amenity": "post_box", "collection_times": "Mo-Fr 17:00; Sa 11:00", "indoor": "yes", "note": "ON 12/24 AND 12/31, THIS BOX MAY BE COLLECTED AS EARLY AS 12 NOON.", "nsi_id": "unitedstatespostalservice-a77078", "operator": "United States Postal Service", "operator:short": "USPS", "operator:type": "public", "operator:wikidata": "Q668687", "ref": "5421600014"}, "type": "Feature"}
{"geometry": {"coordinates": [-87.500626, 44.458329], "type": "Point"}, "id": "UHAqtR6weltjLScJgGzqCfB9DhE=", "properties": {"@source_uri": "https://tools.usps.com/UspsToolsRestServices/rest/POLocator/findLocations", "@spider": "usps_collection_boxes", "addr:city": "KEWAUNEE", "addr:country": "US", "addr:postcode": "54216", "addr:state": "WI", "addr:street_address": "119 ELLIS ST", "amenity": "post_box", "collection_times": "Mo-Fr 17:00; Sa 11:00", "indoor": "yes", "note": "ON 12/24 AND 12/31, THIS BOX MAY BE COLLECTED AS EARLY AS 12 NOON.", "nsi_id": "unitedstatespostalservice-a77078", "operator": "United States Postal Service", "operator:short": "USPS", "operator:type": "public", "operator:wikidata": "Q668687", "ref": "5421600015"}, "type": "Feature"}
{"geometry": {"coordinates": [-87.500606094, 44.458379052], "type": "Point"}, "id": "OwR9CJxcyMGaJDZVuviNDFXp9rg=", "properties": {"@source_uri": "https://tools.usps.com/UspsToolsRestServices/rest/POLocator/findLocations", "@spider": "usps_collection_boxes", "addr:city": "KEWAUNEE", "addr:country": "US", "addr:postcode": "54216", "addr:state": "WI", "addr:street_address": "119 ELLIS ST", "amenity": "post_box", "collection_times": "Mo-Fr 17:00; Sa 11:00", "indoor": "yes", "note": "ON 12/24 AND 12/31, THIS BOX MAY BE COLLECTED AS EARLY AS 12 NOON.", "nsi_id": "unitedstatespostalservice-a77078", "operator": "United States Postal Service", "operator:short": "USPS", "operator:type": "public", "operator:wikidata": "Q668687", "ref": "5421600016"}, "type": "Feature"}
{"geometry": {"coordinates": [-87.703452, 44.541998], "type": "Point"}, "id": "m1_RGhN9vqWCDkcY36PY3k-kwK8=", "properties": {"@source_uri": "https://tools.usps.com/UspsToolsRestServices/rest/POLocator/findLocations", "@spider": "usps_collection_boxes", "addr:city": "LUXEMBURG", "addr:country": "US", "addr:postcode": "54217", "addr:state": "WI", "addr:street_address": "406 MAIN ST", "amenity": "post_box", "collection_times": "Mo-Fr 17:00; Sa 10:45", "note": "ON 12/24 AND 12/31, THIS BOX MAY BE COLLECTED AS EARLY AS 12 NOON.", "nsi_id": "unitedstatespostalservice-a77078", "operator": "United States Postal Service", "operator:short": "USPS", "operator:type": "public", "operator:wikidata": "Q668687", "ref": "5421700000"}, "type": "Feature"}
{"geometry": {"coordinates": [-87.703452, 44.541998], "type": "Point"}, "id": "gJMDSaHMhf1SN8u8Lgl_nGtmfwI=", "properties": {"@source_uri": "https://tools.usps.com/UspsToolsRestServices/rest/POLocator/findLocations", "@spider": "usps_collection_boxes", "addr:city": "LUXEMBURG", "addr:country": "US", "addr:postcode": "54217", "addr:state": "WI", "addr:street_address": "406 MAIN ST", "amenity": "post_box", "collection_times": "Mo-Fr 17:00; Sa 10:45", "indoor": "yes", "note": "ON 12/24 AND 12/31, THIS BOX MAY BE COLLECTED AS EARLY AS 12 NOON.", "nsi_id": "unitedstatespostalservice-a77078", "operator": "United States Postal Service", "operator:short": "USPS", "operator:type": "public", "operator:wikidata": "Q668687", "ref": "5421700002"}, "type": "Feature"}
{"geometry": {"coordinates": [-87.703452, 44.541998], "type": "Point"}, "id": "T_0e-kZln_Xm0x-9jC6WrvZLHzA=", "properties": {"@source_uri": "https://tools.usps.com/UspsToolsRestServices/rest/POLocator/findLocations", "@spider": "usps_collection_boxes", "addr:city": "LUXEMBURG", "addr:country": "US", "addr:postcode": "54217", "addr:state": "WI", "addr:street_address": "406 MAIN ST", "amenity": "post_box", "collection_times": "Mo-Fr 17:00; Sa 10:45", "indoor": "yes", "note": "ON 12/24 AND 12/31, THIS BOX MAY BE COLLECTED AS EARLY AS 12 NOON.", "nsi_id": "unitedstatespostalservice-a77078", "operator": "United States Postal Service", "operator:short": "USPS", "operator:type": "public", "operator:wikidata": "Q668687", "ref": "5421700005"}, "type": "Feature"}
{"geometry": {"coordinates": [-87.703451479, 44.541998717], "type": "Point"}, "id": "mNZJMtXKHzy2RBsajlZbXSWAUMI=", "properties": {"@source_uri": "https://tools.usps.com/UspsToolsRestServices/rest/POLocator/findLocations", "@spider": "usps_collection_boxes", "addr:city": "LUXEMBURG", "addr:country": "US", "addr:postcode": "54217", "addr:state": "WI", "addr:street_address": "406 MAIN ST", "amenity": "post_box", "collection_times": "Mo-Fr 17:00; Sa 10:45", "indoor": "yes", "note": "ON 12/24 AND 12/31, THIS BOX MAY BE COLLECTED AS EARLY AS 12 NOON.", "nsi_id": "unitedstatespostalservice-a77078", "operator": "United States Postal Service", "operator:short": "USPS", "operator:type": "public", "operator:wikidata": "Q668687", "ref": "5421700006"}, "type": "Feature"}
{"geometry": {"coordinates": [-87.6569759, 44.113457], "type": "Point"}, "id": "iMGUtkhrLyLTJiV6AxVWSfAcY8M=", "properties": {"@source_uri": "https://tools.usps.com/UspsToolsRestServices/rest/POLocator/findLocations", "@spider": "usps_collection_boxes", "addr:city": "MANITOWOC", "addr:country": "US", "addr:postcode": "54220", "addr:state": "WI", "addr:street_address": "1339 N 8TH ST", "amenity": "post_box", "collection_times": "Mo-Sa 15:00", "note": "ON 12/24 AND 12/31, THIS BOX MAY BE COLLECTED AS EARLY AS 12 NOON.", "nsi_id": "unitedstatespostalservice-a77078", "operator": "United States Postal Service", "operator:short": "USPS", "operator:type": "public", "operator:wikidata": "Q668687", "ref": "5422000037"}, "type": "Feature"}
{"geometry": {"coordinates": [-87.6802947, 44.116007], "type": "Point"}, "id": "Tucjmve8_TWm5sc6_oVUQdvXoQo=", "properties": {"@source_uri": "https://tools.usps.com/UspsToolsRestServices/rest/POLocator/findLocations", "@spider": "usps_collection_boxes", "addr:city": "MANITOWOC", "addr:country": "US", "addr:postcode": "54220", "addr:state": "WI", "addr:street_address": "2330 MENASHA AVE", "amenity": "post_box", "collection_times": "Mo-Sa 15:00", "note": "ON 12/24 AND 12/31, THIS BOX MAY BE COLLECTED AS EARLY AS 12 NOON.", "nsi_id": "unitedstatespostalservice-a77078", "operator": "United States Postal Service", "operator:short": "USPS", "operator:type": "public", "operator:wikidata": "Q668687", "ref": "5422000038"}, "type": "Feature"}
{"geometry": {"coordinates": [-87.7005461, 44.098245], "type": "Point"}, "id": "KYDTlLjzlTiPFPTTIGdNnm-FJX8=", "properties": {"@source_uri": "https://tools.usps.com/UspsToolsRestServices/rest/POLocator/findLocations", "@spider": "usps_collection_boxes", "addr:city": "MANITOWOC", "addr:country": "US", "addr:postcode": "54220", "addr:state": "WI", "addr:street_address": "311 N RAPIDS RD", "amenity": "post_box", "collection_times": "Mo-Sa 15:00", "note": "ON 12/24 AND 12/31, THIS BOX MAY BE COLLECTED AS EARLY AS 12 NOON.", "nsi_id": "unitedstatespostalservice-a77078", "operator": "United States Postal Service", "operator:short": "USPS", "operator:type": "public", "operator:wikidata": "Q668687", "ref": "5422000059"}, "type": "Feature"}
{"geometry": {"coordinates": [-87.663982, 44.090626], "type": "Point"}, "id": "2dvP_JWtvq9Nq_RwenHcd4B14To=", "properties": {"@source_uri": "https://tools.usps.com/UspsToolsRestServices/rest/POLocator/findLocations", "@spider": "usps_collection_boxes", "addr:city": "MANITOWOC", "addr:country": "US", "addr:postcode": "54220", "addr:state": "WI", "addr:street_address": "1202 FRANKLIN ST", "amenity": "post_box", "collection_times": "Mo-Sa 17:00", "note": "ON 12/24 AND 12/31, THIS BOX MAY BE COLLECTED AS EARLY AS 12 NOON.", "nsi_id": "unitedstatespostalservice-a77078", "operator": "United States Postal Service", "operator:short": "USPS", "operator:type": "public", "operator:wikidata": "Q668687", "ref": "5422000066"}, "type": "Feature"}
{"geometry": {"coordinates": [-87.6577645, 44.100671], "type": "Point"}, "id": "9jmQg927XU952RGAMe-cdcI2UVA=", "properties": {"@source_uri": "https://tools.usps.com/UspsToolsRestServices/rest/POLocator/findLocations", "@spider": "usps_collection_boxes", "addr:city": "MANITOWOC", "addr:country": "US", "addr:postcode": "54220", "addr:state": "WI", "addr:street_address": "706 N 8TH ST", "amenity": "post_box", "collection_times": "Mo-Sa 13:00", "note": "ON 12/24 AND 12/31, THIS BOX MAY BE COLLECTED AS EARLY AS 12 NOON.", "nsi_id": "unitedstatespostalservice-a77078", "operator": "United States Postal Service", "operator:short": "USPS", "operator:type": "public", "operator:wikidata": "Q668687", "ref": "5422000097"}, "type": "Feature"}
{"geometry": {"coordinates": [-87.7065613, 44.08071], "type": "Point"}, "id": "moxFCwLvCQEh1NlAEGbP7H1JPkw=", "properties": {"@source_uri": "https://tools.usps.com/UspsToolsRestServices/rest/POLocator/findLocations", "@spider": "usps_collection_boxes", "addr:city": "MANITOWOC", "addr:country": "US", "addr:postcode": "54220", "addr:state": "WI", "addr:street_address": "4611 EXPO DR", "amenity": "post_box", "collection_times": "Mo-Sa 15:00", "note": "ON 12/24 AND 12/31, THIS BOX MAY BE COLLECTED AS EARLY AS 12 NOON.", "nsi_id": "unitedstatespostalservice-a77078", "operator": "United States Postal Service", "operator:short": "USPS", "operator:type": "public", "operator:wikidata": "Q668687", "ref": "5422000100"}, "type": "Feature"}
{"geometry": {"coordinates": [-87.663982, 44.090626], "type": "Point"}, "id": "oHyX4xKru01IRQGYOpyykBFAi6Q=", "properties": {"@source_uri": "https://tools.usps.com/UspsToolsRestServices/rest/POLocator/findLocations", "@spider": "usps_collection_boxes", "addr:city": "MANITOWOC", "addr:country": "US", "addr:postcode": "54220", "addr:state": "WI", "addr:street_address": "1202 FRANKLIN ST", "amenity": "post_box", "collection_times": "Mo-Sa 17:00", "indoor": "yes", "note": "ON 12/24 AND 12/31, THIS BOX MAY BE COLLECTED AS EARLY AS 12 NOON.", "nsi_id": "unitedstatespostalservice-a77078", "operator": "United States Postal Service", "operator:short": "USPS", "operator:type": "public", "operator:wikidata": "Q668687", "ref": "5422000108"}, "type": "Feature"}
{"geometry": {"coordinates": [-87.663982, 44.090626], "type": "Point"}, "id": "Y5kj4YmVfHgfjTDphyCtKXk5lEQ=", "properties": {"@source_uri": "https://tools.usps.com/UspsToolsRestServices/rest/POLocator/findLocations", "@spider": "usps_collection_boxes", "addr:city": "MANITOWOC", "addr:country": "US", "addr:postcode": "54220", "addr:state": "WI", "addr:street_address": "1202 FRANKLIN ST", "amenity": "post_box", "collection_times": "Mo-Sa 17:00", "name": "USPS COLLECTION BOX - APC", "note": "ON 12/24 AND 12/31, THIS BOX MAY BE COLLECTED AS EARLY AS 12 NOON.", "nsi_id": "unitedstatespostalservice-a77078", "operator": "United States Postal Service", "operator:short": "USPS", "operator:type": "public", "operator:wikidata": "Q668687", "ref": "5422000110"}, "type": "Feature"}
{"geometry": {"coordinates": [-87.663982, 44.090626], "type": "Point"}, "id": "knoE666dpJMuDyyknAdFtKyU9Fg=", "properties": {"@source_uri": "https://tools.usps.com/UspsToolsRestServices/rest/POLocator/findLocations", "@spider": "usps_collection_boxes", "addr:city": "MANITOWOC", "addr:country": "US", "addr:postcode": "54220", "addr:state": "WI", "addr:street_address": "1202 FRANKLIN ST", "amenity": "post_box", "collection_times": "Mo-Sa 17:00", "indoor": "yes", "note": "ON 12/24 AND 12/31, THIS BOX MAY BE COLLECTED AS EARLY AS 12 NOON.", "nsi_id": "unitedstatespostalservice-a77078", "operator": "United States Postal Service", "operator:short": "USPS", "operator:type": "public", "operator:wikidata": "Q668687", "ref": "5422000111"}, "type": "Feature"}
{"geometry": {"coordinates": [-87.6976538, 44.079988], "type": "Point"}, "id": "QBNWDGH-FLAp1ubQTQZYIuNio_c=", "properties": {"@source_uri": "https://tools.usps.com/UspsToolsRestServices/rest/POLocator/findLocations", "@spider": "usps_collection_boxes", "addr:city": "MANITOWOC", "addr:country": "US", "addr:postcode": "54220", "addr:state": "WI", "addr:street_address": "3930 CALUMET AVE", "amenity": "post_box", "collection_times": "Mo-Sa 15:00", "note": "ON 12/24 AND 12/31, THIS BOX MAY BE COLLECTED AS EARLY AS 12 NOON.", "nsi_id": "unitedstatespostalservice-a77078", "operator": "United States Postal Service", "operator:short": "USPS", "operator:type": "public", "operator:wikidata": "Q668687", "ref": "5422000113"}, "type": "Feature"}
{"geometry": {"coordinates": [-87.663982332, 44.090621494], "type": "Point"}, "id": "IXIclDfMQ6wky7hdALJtj7Xgsjw=", "properties": {"@source_uri": "https://tools.usps.com/UspsToolsRestServices/rest/POLocator/findLocations", "@spider": "usps_collection_boxes", "addr:city": "MANITOWOC", "addr:country": "US", "addr:postcode": "54220", "addr:state": "WI", "addr:street_address": "1202 FRANKLIN ST", "amenity": "post_box", "collection_times": "Mo-Sa 17:00", "indoor": "yes", "note": "ON 12/24 AND 12/31, THIS BOX MAY BE COLLECTED AS EARLY AS 12 NOON.", "nsi_id": "unitedstatespostalservice-a77078", "operator": "United States Postal Service", "operator:short": "USPS", "operator:type": "public", "operator:wikidata": "Q668687", "ref": "5422000115"}, "type": "Feature"}
{"geometry": {"coordinates": [-87.80717, 44.27752], "type": "Point"}, "id": "j1bw03zo3qfNdSk6M-e9swBXAuU=", "properties": {"@source_uri": "https://tools.usps.com/UspsToolsRestServices/rest/POLocator/findLocations", "@spider": "usps_collection_boxes", "addr:city": "MARIBEL", "addr:country": "US", "addr:postcode": "54227", "addr:state": "WI", "addr:street_address": "14902 MARIBEL RD", "amenity": "post_box", "collection_times": "Mo-Fr 14:45; Sa 09:30", "note": "ON 12/24 AND 12/31, THIS BOX MAY BE COLLECTED AS EARLY AS 12 NOON.", "nsi_id": "unitedstatespostalservice-a77078", "operator": "United States Postal Service", "operator:short": "USPS", "operator:type": "public", "operator:wikidata": "Q668687", "ref": "5422700000"}, "type": "Feature"}
{"geometry": {"coordinates": [-87.80717, 44.27752], "type": "Point"}, "id": "Xs8lV1ushN1tnzvD4eLbXuVN6U0=", "properties": {"@source_uri": "https://tools.usps.com/UspsToolsRestServices/rest/POLocator/findLocations", "@spider": "usps_collection_boxes", "addr:city": "MARIBEL", "addr:country": "US", "addr:postcode": "54227", "addr:state": "WI", "addr:street_address": "14902 MARIBEL RD", "amenity": "post_box", "collection_times": "Mo-Fr 14:45; Sa 09:30", "indoor": "yes", "note": "ON 12/24 AND 12/31, THIS BOX MAY BE COLLECTED AS EARLY AS 12 NOON.", "nsi_id": "unitedstatespostalservice-a77078", "operator": "United States Postal Service", "operator:short": "USPS", "operator:type": "public", "operator:wikidata": "Q668687", "ref": "5422700001"}, "type": "Feature"}
{"geometry": {"coordinates": [-87.807192008, 44.277551278], "type": "Point"}, "id": "7T5-vrV8tEQGHedoIKR9Z1JeHsw=", "properties": {"@source_uri": "https://tools.usps.com/UspsToolsRestServices/rest/POLocator/findLocations", "@spider": "usps_collection_boxes", "addr:city": "MARIBEL", "addr:country": "US", "addr:postcode": "54227", "addr:state": "WI", "addr:street_address": "14902 MARIBEL RD", "amenity": "post_box", "collection_times": "Mo-Fr 14:45; Sa 09:30", "indoor": "yes", "note": "ON 12/24 AND 12/31, THIS BOX MAY BE COLLECTED AS EARLY AS 12 NOON.", "nsi_id": "unitedstatespostalservice-a77078", "operator": "United States Postal Service", "operator:short": "USPS", "operator:type": "public", "operator:wikidata": "Q668687", "ref": "5422700003"}, "type": "Feature"}
{"geometry": {"coordinates": [-87.641874, 44.239819], "type": "Point"}, "id": "5IYXftem29DX4ePTs6-y6QOHNV0=", "properties": {"@source_uri": "https://tools.usps.com/UspsToolsRestServices/rest/POLocator/findLocations", "@spider": "usps_collection_boxes", "addr:city": "MISHICOT", "addr:country": "US", "addr:postcode": "54228", "addr:state": "WI", "addr:street_address": "320 SPRUCE ST", "amenity": "post_box", "collection_times": "Mo-Fr 16:00; Sa 11:15", "note": "ON 12/24 AND 12/31, THIS BOX MAY BE COLLECTED AS EARLY AS 12 NOON.", "nsi_id": "unitedstatespostalservice-a77078", "operator": "United States Postal Service", "operator:short": "USPS", "operator:type": "public", "operator:wikidata": "Q668687", "ref": "5422800001"}, "type": "Feature"}
{"geometry": {"coordinates": [-87.641874, 44.239819], "type": "Point"}, "id": "NYqY3_O5zG54PKmuB4hGeWYN-V8=", "properties": {"@source_uri": "https://tools.usps.com/UspsToolsRestServices/rest/POLocator/findLocations", "@spider": "usps_collection_boxes", "addr:city": "MISHICOT", "addr:country": "US", "addr:postcode": "54228", "addr:state": "WI", "addr:street_address": "320 SPRUCE ST", "amenity": "post_box", "collection_times": "Mo-Fr 16:00; Sa 11:15", "indoor": "yes", "note": "ON 12/24 AND 12/31, THIS BOX MAY BE COLLECTED AS EARLY AS 12 NOON.", "nsi_id": "unitedstatespostalservice-a77078", "operator": "United States Postal Service", "operator:short": "USPS", "operator:type": "public", "operator:wikidata": "Q668687", "ref": "5422800002"}, "type": "Feature"}
{"geometry": {"coordinates": [-87.641874, 44.239819], "type": "Point"}, "id": "BYd4M_oKjoaMUUrXmF2s1sugLck=", "properties": {"@source_uri": "https://tools.usps.com/UspsToolsRestServices/rest/POLocator/findLocations", "@spider": "usps_collection_boxes", "addr:city": "MISHICOT", "addr:country": "US", "addr:postcode": "54228", "addr:state": "WI", "addr:street_address": "320 SPRUCE ST", "amenity": "post_box", "collection_times": "Mo-Fr 16:00; Sa 11:15", "indoor": "yes", "note": "ON 12/24 AND 12/31, THIS BOX MAY BE COLLECTED AS EARLY AS 12 NOON.", "nsi_id": "unitedstatespostalservice-a77078", "operator": "United States Postal Service", "operator:short": "USPS", "operator:type": "public", "operator:wikidata": "Q668687", "ref": "5422800003"}, "type": "Feature"}
{"geometry": {"coordinates": [-87.641801376, 44.239780246], "type": "Point"}, "id": "h1Z6k0nEkC0uRNbfC15DjDDD7uw=", "properties": {"@source_uri": "https://tools.usps.com/UspsToolsRestServices/rest/POLocator/findLocations", "@spider": "usps_collection_boxes", "addr:city": "MISHICOT", "addr:country": "US", "addr:postcode": "54228", "addr:state": "WI", "addr:street_address": "320 SPRUCE ST", "amenity": "post_box", "collection_times": "Mo-Fr 16:00; Sa 11:15", "indoor": "yes", "note": "ON 12/24 AND 12/31, THIS BOX MAY BE COLLECTED AS EARLY AS 12 NOON.", "nsi_id": "unitedstatespostalservice-a77078", "operator": "United States Postal Service", "operator:short": "USPS", "operator:type": "public", "operator:wikidata": "Q668687", "ref": "5422800004"}, "type": "Feature"}
{"geometry": {"coordinates": [-87.825833, 44.531219], "type": "Point"}, "id": "Kg09MeHZTips2lA891GL8QYO3C0=", "properties": {"@source_uri": "https://tools.usps.com/UspsToolsRestServices/rest/POLocator/findLocations", "@spider": "usps_collection_boxes", "addr:city": "NEW FRANKEN", "addr:country": "US", "addr:postcode": "54229", "addr:state": "WI", "addr:street_address": "2406 N NEW FRANKEN RD", "amenity": "post_box", "collection_times": "Mo-Fr 15:30; Sa 09:00", "note": "ON 12/24 AND 12/31, THIS BOX MAY BE COLLECTED AS EARLY AS 12 NOON.", "nsi_id": "unitedstatespostalservice-a77078", "operator": "United States Postal Service", "operator:short": "USPS", "operator:type": "public", "operator:wikidata": "Q668687", "ref": "5422900000"}, "type": "Feature"}
{"geometry": {"coordinates": [-87.825833, 44.531219], "type": "Point"}, "id": "lyEbNN5xYR2II676V9hPgX8DuGM=", "properties": {"@source_uri": "https://tools.usps.com/UspsToolsRestServices/rest/POLocator/findLocations", "@spider": "usps_collection_boxes", "addr:city": "NEW FRANKEN", "addr:country": "US", "addr:postcode": "54229", "addr:state": "WI", "addr:street_address": "2406 N NEW FRANKEN RD", "amenity": "post_box", "collection_times": "Mo-Fr 15:30; Sa 09:00", "indoor": "yes", "note": "ON 12/24 AND 12/31, THIS BOX MAY BE COLLECTED AS EARLY AS 12 NOON.", "nsi_id": "unitedstatespostalservice-a77078", "operator": "United States Postal Service", "operator:short": "USPS", "operator:type": "public", "operator:wikidata": "Q668687", "ref": "5422900001"}, "type": "Feature"}
{"geometry": {"coordinates": [-87.825833935, 44.531153749], "type": "Point"}, "id": "N-gcQTtk3iZ7100t990GXBj3aoE=", "properties": {"@source_uri": "https://tools.usps.com/UspsToolsRestServices/rest/POLocator/findLocations", "@spider": "usps_collection_boxes", "addr:city": "NEW FRANKEN", "addr:country": "US", "addr:postcode": "54229", "addr:state": "WI", "addr:street_address": "2406 N NEW FRANKEN RD", "amenity": "post_box", "collection_times": "Mo-Fr 15:30; Sa 09:00", "indoor": "yes", "note": "ON 12/24 AND 12/31, THIS BOX MAY BE COLLECTED AS EARLY AS 12 NOON.", "nsi_id": "unitedstatespostalservice-a77078", "operator": "United States Postal Service", "operator:short": "USPS", "operator:type": "public", "operator:wikidata": "Q668687", "ref": "5422900002"}, "type": "Feature"}
{"geometry": {"coordinates": [-87.945167, 44.153945], "type": "Point"}, "id": "FomCTB1bttJZ8fj0MBm1Ifh4Y4w=", "properties": {"@source_uri": "https://tools.usps.com/UspsToolsRestServices/rest/POLocator/findLocations", "@spider": "usps_collection_boxes", "addr:city": "REEDSVILLE", "addr:country": "US", "addr:postcode": "54230", "addr:state": "WI", "addr:street_address": "104 MILL ST", "amenity": "post_box", "collection_times": "Mo-Fr 16:00; Sa 10:00", "note": "ON 12/24 AND 12/31, THIS BOX MAY BE COLLECTED AS EARLY AS 12 NOON.", "nsi_id": "unitedstatespostalservice-a77078", "operator": "United States Postal Service", "operator:short": "USPS", "operator:type": "public", "operator:wikidata": "Q668687", "ref": "5423000000"}, "type": "Feature"}
{"geometry": {"coordinates": [-87.9597297694, 44.156547], "type": "Point"}, "id": "U6YXzn0x6VYodY_5HfNFEMI-X90=", "properties": {"@source_uri": "https://tools.usps.com/UspsToolsRestServices/rest/POLocator/findLocations", "@spider": "usps_collection_boxes", "addr:city": "REEDSVILLE", "addr:country": "US", "addr:postcode": "54230", "addr:state": "WI", "addr:street_address": "305 N 6TH ST", "amenity": "post_box", "collection_times": "Mo-Sa 09:00", "nsi_id": "unitedstatespostalservice-a77078", "operator": "United States Postal Service", "operator:short": "USPS", "operator:type": "public", "operator:wikidata": "Q668687", "ref": "5423000001"}, "type": "Feature"}
{"geometry": {"coordinates": [-87.945167, 44.153945], "type": "Point"}, "id": "M2LGMZqp1wpzWp2IRYMKdJjglEo=", "properties": {"@source_uri": "https://tools.usps.com/UspsToolsRestServices/rest/POLocator/findLocations", "@spider": "usps_collection_boxes", "addr:city": "REEDSVILLE", "addr:country": "US", "addr:postcode": "54230", "addr:state": "WI", "addr:street_address": "104 MILL ST", "amenity": "post_box", "collection_times": "Mo-Fr 16:30; Sa 10:00", "indoor": "yes", "note": "ON 12/24 AND 12/31, THIS BOX MAY BE COLLECTED AS EARLY AS 12 NOON.", "nsi_id": "unitedstatespostalservice-a77078", "operator": "United States Postal Service", "operator:short": "USPS", "operator:type": "public", "operator:wikidata": "Q668687", "ref": "5423000002"}, "type": "Feature"}
{"geometry": {"coordinates": [-87.945167, 44.153945], "type": "Point"}, "id": "OtRdqAF9PftfChaTbdI2g1o-TvU=", "properties": {"@source_uri": "https://tools.usps.com/UspsToolsRestServices/rest/POLocator/findLocations", "@spider": "usps_collection_boxes", "addr:city": "REEDSVILLE", "addr:country": "US", "addr:postcode": "54230", "addr:state": "WI", "addr:street_address": "104 MILL ST", "amenity": "post_box", "collection_times": "Mo-Fr 16:30; Sa 10:00", "indoor": "yes", "note": "ON 12/24 AND 12/31, THIS BOX MAY BE COLLECTED AS EARLY AS 12 NOON.", "nsi_id": "unitedstatespostalservice-a77078", "operator": "United States Postal Service", "operator:short": "USPS", "operator:type": "public", "operator:wikidata": "Q668687", "ref": "5423000003"}, "type": "Feature"}
{"geometry": {"coordinates": [-87.945167124, 44.153943755], "type": "Point"}, "id": "cFT-Zbfo18eBBNMx8KNczRFazh8=", "properties": {"@source_uri": "https://tools.usps.com/UspsToolsRestServices/rest/POLocator/findLocations", "@spider": "usps_collection_boxes", "addr:city": "REEDSVILLE", "addr:country": "US", "addr:postcode": "54230", "addr:state": "WI", "addr:street_address": "104 MILL ST", "amenity": "post_box", "collection_times": "Mo-Fr 16:30; Sa 10:00", "indoor": "yes", "note": "ON 12/24 AND 12/31, THIS BOX MAY BE COLLECTED AS EARLY AS 12 NOON.", "nsi_id": "unitedstatespostalservice-a77078", "operator": "United States Postal Service", "operator:short": "USPS", "operator:type": "public", "operator:wikidata": "Q668687", "ref": "5423000004"}, "type": "Feature"}
{"geometry": {"coordinates": [-87.923519, 44.006028], "type": "Point"}, "id": "IjRbLLVLuUvw86Pw-sPITx7fkwI=", "properties": {"@source_uri": "https://tools.usps.com/UspsToolsRestServices/rest/POLocator/findLocations", "@spider": "usps_collection_boxes", "addr:city": "SAINT NAZIANZ", "addr:country": "US", "addr:postcode": "54232", "addr:state": "WI", "addr:street_address": "106 E BIRCH ST", "amenity": "post_box", "collection_times": "Mo-Fr 16:00; Sa 10:30", "note": "ON 12/24 AND 12/31, THIS BOX MAY BE COLLECTED AS EARLY AS 12 NOON.", "nsi_id": "unitedstatespostalservice-a77078", "operator": "United States Postal Service", "operator:short": "USPS", "operator:type": "public", "operator:wikidata": "Q668687", "ref": "5423200000"}, "type": "Feature"}
{"geometry": {"coordinates": [-87.923647, 44.00601], "type": "Point"}, "id": "zI6eBcf2O2mzAAFge25tToFReLc=", "properties": {"@source_uri": "https://tools.usps.com/UspsToolsRestServices/rest/POLocator/findLocations", "@spider": "usps_collection_boxes", "addr:city": "SAINT NAZIANZ", "addr:country": "US", "addr:postcode": "54232", "addr:state": "WI", "addr:street_address": "106 E BIRCH ST", "amenity": "post_box", "collection_times": "Mo-Fr 16:00; Sa 10:30", "indoor": "yes", "note": "ON 12/24 AND 12/31, THIS BOX MAY BE COLLECTED AS EARLY AS 12 NOON.", "nsi_id": "unitedstatespostalservice-a77078", "operator": "United States Postal Service", "operator:short": "USPS", "operator:type": "public", "operator:wikidata": "Q668687", "ref": "5423200001"}, "type": "Feature"}
{"geometry": {"coordinates": [-87.9213825, 44.005913475], "type": "Point"}, "id": "eBpwDLP3eN1QWtw_oSeR2P6ZAjE=", "properties": {"@source_uri": "https://tools.usps.com/UspsToolsRestServices/rest/POLocator/findLocations", "@spider": "usps_collection_boxes", "addr:city": "SAINT NAZIANZ", "addr:country": "US", "addr:postcode": "54232", "addr:state": "WI", "addr:street_address": "106 E BIRCH ST", "amenity": "post_box", "collection_times": "Mo-Fr 16:00; Sa 10:30", "indoor": "yes", "note": "ON 12/24 AND 12/31, THIS BOX MAY BE COLLECTED AS EARLY AS 12 NOON.", "nsi_id": "unitedstatespostalservice-a77078", "operator": "United States Postal Service", "operator:short": "USPS", "operator:type": "public", "operator:wikidata": "Q668687", "ref": "5423200002"}, "type": "Feature"}
{"geometry": {"coordinates": [-87.120804, 45.18956], "type": "Point"}, "id": "WPlitRZkwLYLFOUAEGqDYfsbGJI=", "properties": {"@source_uri": "https://tools.usps.com/UspsToolsRestServices/rest/POLocator/findLocations", "@spider": "usps_collection_boxes", "addr:city": "SISTER BAY", "addr:country": "US", "addr:postcode": "54234", "addr:state": "WI", "addr:street_address": "10685 N BAY SHORE DR", "amenity": "post_box", "collection_times": "Mo-Fr 15:30; Sa 12:00", "note": "ON 12/24 AND 12/31, THIS BOX MAY BE COLLECTED AS EARLY AS 12 NOON.", "nsi_id": "unitedstatespostalservice-a77078", "operator": "United States Postal Service", "operator:short": "USPS", "operator:type": "public", "operator:wikidata": "Q668687", "ref": "5423400000"}, "type": "Feature"}
{"geometry": {"coordinates": [-87.120804, 45.18956], "type": "Point"}, "id": "9mpl1h7Ne7ipFY1duk9s0HoIgno=", "properties": {"@source_uri": "https://tools.usps.com/UspsToolsRestServices/rest/POLocator/findLocations", "@spider": "usps_collection_boxes", "addr:city": "SISTER BAY", "addr:country": "US", "addr:postcode": "54234", "addr:state": "WI", "addr:street_address": "10685 N BAY SHORE DR", "amenity": "post_box", "collection_times": "Mo-Fr 15:45; Sa 12:00", "indoor": "yes", "note": "ON 12/24 AND 12/31, THIS BOX MAY BE COLLECTED AS EARLY AS 12 NOON.", "nsi_id": "unitedstatespostalservice-a77078", "operator": "United States Postal Service", "operator:short": "USPS", "operator:type": "public", "operator:wikidata": "Q668687", "ref": "5423400003"}, "type": "Feature"}
{"geometry": {"coordinates": [-87.120804, 45.18956], "type": "Point"}, "id": "4aIeIjf8NDAh9ZUBUojHsrvt5rE=", "properties": {"@source_uri": "https://tools.usps.com/UspsToolsRestServices/rest/POLocator/findLocations", "@spider": "usps_collection_boxes", "addr:city": "SISTER BAY", "addr:country": "US", "addr:postcode": "54234", "addr:state": "WI", "addr:street_address": "10685 N BAY SHORE DR", "amenity": "post_box", "collection_times": "Mo-Fr 15:45; Sa 12:00", "indoor": "yes", "note": "ON 12/24 AND 12/31, THIS BOX MAY BE COLLECTED AS EARLY AS 12 NOON.", "nsi_id": "unitedstatespostalservice-a77078", "operator": "United States Postal Service", "operator:short": "USPS", "operator:type": "public", "operator:wikidata": "Q668687", "ref": "5423400004"}, "type": "Feature"}
{"geometry": {"coordinates": [-87.120806417, 45.189554227], "type": "Point"}, "id": "GI5oYhrNMj2jSC-ha-RcRtUZ8To=", "properties": {"@source_uri": "https://tools.usps.com/UspsToolsRestServices/rest/POLocator/findLocations", "@spider": "usps_collection_boxes", "addr:city": "SISTER BAY", "addr:country": "US", "addr:postcode": "54234", "addr:state": "WI", "addr:street_address": "10685 N BAY SHORE DR", "amenity": "post_box", "collection_times": "Mo-Fr 15:45; Sa 12:00", "indoor": "yes", "note": "ON 12/24 AND 12/31, THIS BOX MAY BE COLLECTED AS EARLY AS 12 NOON.", "nsi_id": "unitedstatespostalservice-a77078", "operator": "United States Postal Service", "operator:short": "USPS", "operator:type": "public", "operator:wikidata": "Q668687", "ref": "5423400005"}, "type": "Feature"}
{"geometry": {"coordinates": [-87.381767, 44.827797], "type": "Point"}, "id": "ezPVQSkW5g0g5DwPW-JPK9RNxCg=", "properties": {"@source_uri": "https://tools.usps.com/UspsToolsRestServices/rest/POLocator/findLocations", "@spider": "usps_collection_boxes", "addr:city": "STURGEON BAY", "addr:country": "US", "addr:postcode": "54235", "addr:state": "WI", "addr:street_address": "110 S NEENAH AVE", "amenity": "post_box", "collection_times": "Mo-Sa 15:00", "note": "ON 12/24 AND 12/31, THIS BOX MAY BE COLLECTED AS EARLY AS 12 NOON.", "nsi_id": "unitedstatespostalservice-a77078", "operator": "United States Postal Service", "operator:short": "USPS", "operator:type": "public", "operator:wikidata": "Q668687", "ref": "5423500001"}, "type": "Feature"}
{"geometry": {"coordinates": [-87.3605211, 44.850326], "type": "Point"}, "id": "M_LbHn5iO8vPRmTZh-xXZYo7O_o=", "properties": {"@source_uri": "https://tools.usps.com/UspsToolsRestServices/rest/POLocator/findLocations", "@spider": "usps_collection_boxes", "addr:city": "STURGEON BAY", "addr:country": "US", "addr:postcode": "54235", "addr:state": "WI", "addr:street_address": "1250 N 14TH AVE", "amenity": "post_box", "collection_times": "Mo-Sa 15:00", "note": "ON 12/24 AND 12/31, THIS BOX MAY BE COLLECTED AS EARLY AS 12 NOON.", "nsi_id": "unitedstatespostalservice-a77078", "operator": "United States Postal Service", "operator:short": "USPS", "operator:type": "public", "operator:wikidata": "Q668687", "ref": "5423500002"}, "type": "Feature"}
{"geometry": {"coordinates": [-87.376148, 44.835493], "type": "Point"}, "id": "yUgP4mByCoZx7EPvhJNRddvfIso=", "properties": {"@source_uri": "https://tools.usps.com/UspsToolsRestServices/rest/POLocator/findLocations", "@spider": "usps_collection_boxes", "addr:city": "STURGEON BAY", "addr:country": "US", "addr:postcode": "54235", "addr:state": "WI", "addr:street_address": "359 LOUISIANA ST", "amenity": "post_box", "collection_times": "Mo-Fr 17:30; Sa 16:00", "note": "ON 12/24 AND 12/31, THIS BOX MAY BE COLLECTED AS EARLY AS 12 NOON.", "nsi_id": "unitedstatespostalservice-a77078", "operator": "United States Postal Service", "operator:short": "USPS", "operator:type": "public", "operator:wikidata": "Q668687", "ref": "5423500010"}, "type": "Feature"}
{"geometry": {"coordinates": [-87.3513810977, 44.8354569814], "type": "Point"}, "id": "TvqUNtd7rTj4ECd9fiA4kprqUso=", "properties": {"@source_uri": "https://tools.usps.com/UspsToolsRestServices/rest/POLocator/findLocations", "@spider": "usps_collection_boxes", "addr:city": "STURGEON BAY", "addr:country": "US", "addr:postcode": "54235", "addr:state": "WI", "addr:street_address": "30 N 18TH AVE", "amenity": "post_box", "collection_times": "Mo-Fr 13:00", "note": "ON 12/24 AND 12/31, THIS BOX MAY BE COLLECTED AS EARLY AS 12 NOON.", "nsi_id": "unitedstatespostalservice-a77078", "operator": "United States Postal Service", "operator:short": "USPS", "operator:type": "public", "operator:wikidata": "Q668687", "ref": "5423500012"}, "type": "Feature"}
{"geometry": {"coordinates": [-87.3853561, 44.829064], "type": "Point"}, "id": "2EKcq9xBcqhqdC8iOjfLJDwxCWg=", "properties": {"@source_uri": "https://tools.usps.com/UspsToolsRestServices/rest/POLocator/findLocations", "@spider": "usps_collection_boxes", "addr:city": "STURGEON BAY", "addr:country": "US", "addr:postcode": "54235", "addr:state": "WI", "addr:street_address": "34 W MAPLE ST", "amenity": "post_box", "collection_times": "Mo-Sa 15:00", "note": "ON 12/24 AND 12/31, THIS BOX MAY BE COLLECTED AS EARLY AS 12 NOON.", "nsi_id": "unitedstatespostalservice-a77078", "operator": "United States Postal Service", "operator:short": "USPS", "operator:type": "public", "operator:wikidata": "Q668687", "ref": "5423500013"}, "type": "Feature"}
{"geometry": {"coordinates": [-87.3780003, 44.835842], "type": "Point"}, "id": "-sVffF8bwRimPZDg5S0OuAzdwjQ=", "properties": {"@source_uri": "https://tools.usps.com/UspsToolsRestServices/rest/POLocator/findLocations", "@spider": "usps_collection_boxes", "addr:city": "STURGEON BAY", "addr:country": "US", "addr:postcode": "54235", "addr:state": "WI", "addr:street_address": "165 N 3RD AVE", "amenity": "post_box", "collection_times": "Mo-Sa 15:00", "note": "ON 12/24 AND 12/31, THIS BOX MAY BE COLLECTED AS EARLY AS 12 NOON.", "nsi_id": "unitedstatespostalservice-a77078", "operator": "United States Postal Service", "operator:short": "USPS", "operator:type": "public", "operator:wikidata": "Q668687", "ref": "5423500017"}, "type": "Feature"}
{"geometry": {"coordinates": [-87.3778234, 44.837029], "type": "Point"}, "id": "_OrpILacM2EZSYs1AnkDP-i2xxA=", "properties": {"@source_uri": "https://tools.usps.com/UspsToolsRestServices/rest/POLocator/findLocations", "@spider": "usps_collection_boxes", "addr:city": "STURGEON BAY", "addr:country": "US", "addr:postcode": "54235", "addr:state": "WI", "addr:street_address": "361 JEFFERSON ST", "amenity": "post_box", "collection_times": "Mo-Sa 15:00", "note": "ON 12/24 AND 12/31, THIS BOX MAY BE COLLECTED AS EARLY AS 12 NOON.", "nsi_id": "unitedstatespostalservice-a77078", "operator": "United States Postal Service", "operator:short": "USPS", "operator:type": "public", "operator:wikidata": "Q668687", "ref": "5423500030"}, "type": "Feature"}
{"geometry": {"coordinates": [-87.376148, 44.835493], "type": "Point"}, "id": "cpzTpjcEYgX1zQiM5bjuQGc6CTs=", "properties": {"@source_uri": "https://tools.usps.com/UspsToolsRestServices/rest/POLocator/findLocations", "@spider": "usps_collection_boxes", "addr:city": "STURGEON BAY", "addr:country": "US", "addr:postcode": "54235", "addr:state": "WI", "addr:street_address": "359 LOUISIANA ST", "amenity": "post_box", "collection_times": "Mo-Fr 17:30; Sa 16:00", "indoor": "yes", "note": "ON 12/24 AND 12/31, THIS BOX MAY BE COLLECTED AS EARLY AS 12 NOON.", "nsi_id": "unitedstatespostalservice-a77078", "operator": "United States Postal Service", "operator:short": "USPS", "operator:type": "public", "operator:wikidata": "Q668687", "ref": "5423500032"}, "type": "Feature"}
{"geometry": {"coordinates": [-87.376148, 44.835493], "type": "Point"}, "id": "zujSMTFet8jBClX5uLcpd3cLqFg=", "properties": {"@source_uri": "https://tools.usps.com/UspsToolsRestServices/rest/POLocator/findLocations", "@spider": "usps_collection_boxes", "addr:city": "STURGEON BAY", "addr:country": "US", "addr:postcode": "54235", "addr:state": "WI", "addr:street_address": "359 LOUISIANA ST", "amenity": "post_box", "collection_times": "Mo-Fr 17:30; Sa 16:00", "indoor": "yes", "note": "ON 12/24 AND 12/31, THIS BOX MAY BE COLLECTED AS EARLY AS 12 NOON.", "nsi_id": "unitedstatespostalservice-a77078", "operator": "United States Postal Service", "operator:short": "USPS", "operator:type": "public", "operator:wikidata": "Q668687", "ref": "5423500036"}, "type": "Feature"}
{"geometry": {"coordinates": [-87.4033813, 44.821469], "type": "Point"}, "id": "HwiRMup9ZC6r0SOg9Kzdr_hbUo8=", "properties": {"@source_uri": "https://tools.usps.com/UspsToolsRestServices/rest/POLocator/findLocations", "@spider": "usps_collection_boxes", "addr:city": "STURGEON BAY", "addr:country": "US", "addr:postcode": "54235", "addr:state": "WI", "addr:street_address": "1130 GREEN BAY RD", "amenity": "post_box", "collection_times": "Mo-Sa 13:00", "note": "ON 12/24 AND 12/31, THIS BOX MAY BE COLLECTED AS EARLY AS 12 NOON.", "nsi_id": "unitedstatespostalservice-a77078", "operator": "United States Postal Service", "operator:short": "USPS", "operator:type": "public", "operator:wikidata": "Q668687", "ref": "5423500038"}, "type": "Feature"}
{"geometry": {"coordinates": [-87.376207555, 44.835458063], "type": "Point"}, "id": "jkihl3JjXphy3tA0KtfZ3tAqDbo=", "properties": {"@source_uri": "https://tools.usps.com/UspsToolsRestServices/rest/POLocator/findLocations", "@spider": "usps_collection_boxes", "addr:city": "STURGEON BAY", "addr:country": "US", "addr:postcode": "54235", "addr:state": "WI", "addr:street_address": "359 LOUISIANA ST", "amenity": "post_box", "collection_times": "Mo-Fr 17:30; Sa 16:00", "indoor": "yes", "note": "ON 12/24 AND 12/31, THIS BOX MAY BE COLLECTED AS EARLY AS 12 NOON.", "nsi_id": "unitedstatespostalservice-a77078", "operator": "United States Postal Service", "operator:short": "USPS", "operator:type": "public", "operator:wikidata": "Q668687", "ref": "5423500042"}, "type": "Feature"}
{"geometry": {"coordinates": [-87.6852665443, 44.3274061578], "type": "Point"}, "id": "RJQuUzzoxa8D45ou8hxWVU9oZkY=", "properties": {"@source_uri": "https://tools.usps.com/UspsToolsRestServices/rest/POLocator/findLocations", "@spider": "usps_collection_boxes", "addr:city": "TISCH MILLS", "addr:country": "US", "addr:postcode": "54240", "addr:state": "WI", "addr:street_address": "E1707 COUNTY ROAD BB", "amenity": "post_box", "collection_times": "Mo-Fr 14:45; Sa 09:30", "note": "ON 12/24 AND 12/31, THIS BOX MAY BE COLLECTED AS EARLY AS 12 NOON.", "nsi_id": "unitedstatespostalservice-a77078", "operator": "United States Postal Service", "operator:short": "USPS", "operator:type": "public", "operator:wikidata": "Q668687", "ref": "5424000000"}, "type": "Feature"}
{"geometry": {"coordinates": [-87.6852665443, 44.3274061578], "type": "Point"}, "id": "dnWKh9zuW8jjeVTNGPM56UOZJH8=", "properties": {"@source_uri": "https://tools.usps.com/UspsToolsRestServices/rest/POLocator/findLocations", "@spider": "usps_collection_boxes", "addr:city": "TISCH MILLS", "addr:country": "US", "addr:postcode": "54240", "addr:state": "WI", "addr:street_address": "E1707 COUNTY ROAD BB", "amenity": "post_box", "collection_times": "Mo-Fr 14:45; Sa 09:30", "indoor": "yes", "note": "ON 12/24 AND 12/31, THIS BOX MAY BE COLLECTED AS EARLY AS 12 NOON.", "nsi_id": "unitedstatespostalservice-a77078", "operator": "United States Postal Service", "operator:short": "USPS", "operator:type": "public", "operator:wikidata": "Q668687", "ref": "5424000001"}, "type": "Feature"}
{"geometry": {"coordinates": [-87.684415852, 44.363931378], "type": "Point"}, "id": "gbDWIjL5ry0YQghlTp8ST60SAP8=", "properties": {"@source_uri": "https://tools.usps.com/UspsToolsRestServices/rest/POLocator/findLocations", "@spider": "usps_collection_boxes", "addr:city": "TISCH MILLS", "addr:country": "US", "addr:postcode": "54240", "addr:state": "WI", "addr:street_address": "E1707 COUNTY ROAD BB", "amenity": "post_box", "collection_times": "Mo-Fr 14:45; Sa 09:30", "indoor": "yes", "note": "ON 12/24 AND 12/31, THIS BOX MAY BE COLLECTED AS EARLY AS 12 NOON.", "nsi_id": "unitedstatespostalservice-a77078", "operator": "United States Postal Service", "operator:short": "USPS", "operator:type": "public", "operator:wikidata": "Q668687", "ref": "5424000002"}, "type": "Feature"}
{"geometry": {"coordinates": [-87.568944, 44.149709], "type": "Point"}, "id": "TlkHXt8E2f3PUKmBygO4_0feIV4=", "properties": {"@source_uri": "https://tools.usps.com/UspsToolsRestServices/rest/POLocator/findLocations", "@spider": "usps_collection_boxes", "addr:city": "TWO RIVERS", "addr:country": "US", "addr:postcode": "54241", "addr:state": "WI", "addr:street_address": "1516 18TH ST", "amenity": "post_box", "collection_times": "Mo-Fr 17:00; Sa 12:00", "note": "ON 12/24 AND 12/31, THIS BOX MAY BE COLLECTED AS EARLY AS 12 NOON.", "nsi_id": "unitedstatespostalservice-a77078", "operator": "United States Postal Service", "operator:short": "USPS", "operator:type": "public", "operator:wikidata": "Q668687", "ref": "5424100000"}, "type": "Feature"}
{"geometry": {"coordinates": [-87.5680078, 44.147606], "type": "Point"}, "id": "Ip_5okwDsSguG4DuPAWfXkF0HMg=", "properties": {"@source_uri": "https://tools.usps.com/UspsToolsRestServices/rest/POLocator/findLocations", "@spider": "usps_collection_boxes", "addr:city": "TWO RIVERS", "addr:country": "US", "addr:postcode": "54241", "addr:state": "WI", "addr:street_address": "1523 WASHINGTON ST", "amenity": "post_box", "collection_times": "Mo-Sa 15:00", "note": "ON 12/24 AND 12/31, THIS BOX MAY BE COLLECTED AS EARLY AS 12 NOON.", "nsi_id": "unitedstatespostalservice-a77078", "operator": "United States Postal Service", "operator:short": "USPS", "operator:type": "public", "operator:wikidata": "Q668687", "ref": "5424100004"}, "type": "Feature"}
{"geometry": {"coordinates": [-87.5728349, 44.154418], "type": "Point"}, "id": "mYz1_D_lMdhch7zkfOokZoPYods=", "properties": {"@source_uri": "https://tools.usps.com/UspsToolsRestServices/rest/POLocator/findLocations", "@spider": "usps_collection_boxes", "addr:city": "TWO RIVERS", "addr:country": "US", "addr:postcode": "54241", "addr:state": "WI", "addr:street_address": "2300 FOREST AVE", "amenity": "post_box", "collection_times": "Mo-Sa 15:00", "note": "ON 12/24 AND 12/31, THIS BOX MAY BE COLLECTED AS EARLY AS 12 NOON.", "nsi_id": "unitedstatespostalservice-a77078", "operator": "United States Postal Service", "operator:short": "USPS", "operator:type": "public", "operator:wikidata": "Q668687", "ref": "5424100009"}, "type": "Feature"}
{"geometry": {"coordinates": [-87.5799271, 44.164875], "type": "Point"}, "id": "8j6LxHWoNDPgPp1agyeLjf2mIWU=", "properties": {"@source_uri": "https://tools.usps.com/UspsToolsRestServices/rest/POLocator/findLocations", "@spider": "usps_collection_boxes", "addr:city": "TWO RIVERS", "addr:country": "US", "addr:postcode": "54241", "addr:state": "WI", "addr:street_address": "2143 34TH ST", "amenity": "post_box", "collection_times": "Mo-Sa 13:00", "note": "ON 12/24 AND 12/31, THIS BOX MAY BE COLLECTED AS EARLY AS 12 NOON.", "nsi_id": "unitedstatespostalservice-a77078", "operator": "United States Postal Service", "operator:short": "USPS", "operator:type": "public", "operator:wikidata": "Q668687", "ref": "5424100014"}, "type": "Feature"}
{"geometry": {"coordinates": [-87.5803856, 44.162433], "type": "Point"}, "id": "wvWDRXtFyF_iywKXKibGwwn1axA=", "properties": {"@source_uri": "https://tools.usps.com/UspsToolsRestServices/rest/POLocator/findLocations", "@spider": "usps_collection_boxes", "addr:city": "TWO RIVERS", "addr:country": "US", "addr:postcode": "54241", "addr:state": "WI", "addr:street_address": "3131 MISHICOT RD", "amenity": "post_box", "collection_times": "Mo-Sa 15:00", "note": "ON 12/24 AND 12/31, THIS BOX MAY BE COLLECTED AS EARLY AS 12 NOON.", "nsi_id": "unitedstatespostalservice-a77078", "operator": "United States Postal Service", "operator:short": "USPS", "operator:type": "public", "operator:wikidata": "Q668687", "ref": "5424100015"}, "type": "Feature"}
{"geometry": {"coordinates": [-87.5611463, 44.15416], "type": "Point"}, "id": "IfDiPSDI-XT3YTDoP-GmGj1-qrE=", "properties": {"@source_uri": "https://tools.usps.com/UspsToolsRestServices/rest/POLocator/findLocations", "@spider": "usps_collection_boxes", "addr:city": "TWO RIVERS", "addr:country": "US", "addr:postcode": "54241", "addr:state": "WI", "addr:street_address": "1010 22ND ST", "amenity": "post_box", "collection_times": "Mo-Sa 15:00", "note": "ON 12/24 AND 12/31, THIS BOX MAY BE COLLECTED AS EARLY AS 12 NOON.", "nsi_id": "unitedstatespostalservice-a77078", "operator": "United States Postal Service", "operator:short": "USPS", "operator:type": "public", "operator:wikidata": "Q668687", "ref": "5424100016"}, "type": "Feature"}
{"geometry": {"coordinates": [-87.5822327, 44.144296], "type": "Point"}, "id": "VEsvk3AVgkpRx725aIPNznyjqhU=", "properties": {"@source_uri": "https://tools.usps.com/UspsToolsRestServices/rest/POLocator/findLocations", "@spider": "usps_collection_boxes", "addr:city": "TWO RIVERS", "addr:country": "US", "addr:postcode": "54241", "addr:state": "WI", "addr:street_address": "2421 12TH ST", "amenity": "post_box", "collection_times": "Mo-Sa 13:00", "note": "ON 12/24 AND 12/31, THIS BOX MAY BE COLLECTED AS EARLY AS 12 NOON.", "nsi_id": "unitedstatespostalservice-a77078", "operator": "United States Postal Service", "operator:short": "USPS", "operator:type": "public", "operator:wikidata": "Q668687", "ref": "5424100023"}, "type": "Feature"}
{"geometry": {"coordinates": [-87.568944, 44.149709], "type": "Point"}, "id": "nTepjNDBe_5m6TUJPDvVpTaArOw=", "properties": {"@source_uri": "https://tools.usps.com/UspsToolsRestServices/rest/POLocator/findLocations", "@spider": "usps_collection_boxes", "addr:city": "TWO RIVERS", "addr:country": "US", "addr:postcode": "54241", "addr:state": "WI", "addr:street_address": "1516 18TH ST", "amenity": "post_box", "collection_times": "Mo-Fr 17:00; Sa 12:00", "indoor": "yes", "note": "ON 12/24 AND 12/31, THIS BOX MAY BE COLLECTED AS EARLY AS 12 NOON.", "nsi_id": "unitedstatespostalservice-a77078", "operator": "United States Postal Service", "operator:short": "USPS", "operator:type": "public", "operator:wikidata": "Q668687", "ref": "5424100025"}, "type": "Feature"}
{"geometry": {"coordinates": [-87.569271, 44.149704504], "type": "Point"}, "id": "jQrCW4c7Y-N7rM0UtjfwAP6nHzE=", "properties": {"@source_uri": "https://tools.usps.com/UspsToolsRestServices/rest/POLocator/findLocations", "@spider": "usps_collection_boxes", "addr:city": "TWO RIVERS", "addr:country": "US", "addr:postcode": "54241", "addr:state": "WI", "addr:street_address": "1516 18TH ST", "amenity": "post_box", "collection_times": "Mo-Fr 17:00; Sa 12:00", "indoor": "yes", "note": "ON 12/24 AND 12/31, THIS BOX MAY BE COLLECTED AS EARLY AS 12 NOON.", "nsi_id": "unitedstatespostalservice-a77078", "operator": "United States Postal Service", "operator:short": "USPS", "operator:type": "public", "operator:wikidata": "Q668687", "ref": "5424100026"}, "type": "Feature"}
{"geometry": {"coordinates": [-87.885959, 44.062359], "type": "Point"}, "id": "Xkv0-aoOnBqCwaFlU5HSUlGAEx8=", "properties": {"@source_uri": "https://tools.usps.com/UspsToolsRestServices/rest/POLocator/findLocations", "@spider": "usps_collection_boxes", "addr:city": "VALDERS", "addr:country": "US", "addr:postcode": "54245", "addr:state": "WI", "addr:street_address": "505 CHRISTEL DR", "amenity": "post_box", "collection_times": "Mo-Fr 16:30; Sa 10:00", "note": "ON 12/24 AND 12/31, THIS BOX MAY BE COLLECTED AS EARLY AS 12 NOON.", "nsi_id": "unitedstatespostalservice-a77078", "operator": "United States Postal Service", "operator:short": "USPS", "operator:type": "public", "operator:wikidata": "Q668687", "ref": "5424500000"}, "type": "Feature"}
{"geometry": {"coordinates": [-87.88599, 44.062375], "type": "Point"}, "id": "GuuaZ3zH-O5B7RydJXKTEXcWkJo=", "properties": {"@source_uri": "https://tools.usps.com/UspsToolsRestServices/rest/POLocator/findLocations", "@spider": "usps_collection_boxes", "addr:city": "VALDERS", "addr:country": "US", "addr:postcode": "54245", "addr:state": "WI", "addr:street_address": "505 CHRISTEL DR", "amenity": "post_box", "collection_times": "Mo-Fr 16:30; Sa 10:00", "indoor": "yes", "note": "ON 12/24 AND 12/31, THIS BOX MAY BE COLLECTED AS EARLY AS 12 NOON.", "nsi_id": "unitedstatespostalservice-a77078", "operator": "United States Postal Service", "operator:short": "USPS", "operator:type": "public", "operator:wikidata": "Q668687", "ref": "5424500001"}, "type": "Feature"}
{"geometry": {"coordinates": [-87.88599, 44.062375], "type": "Point"}, "id": "W8ytXmZNWN2EiReiO7e2Uh0ekUg=", "properties": {"@source_uri": "https://tools.usps.com/UspsToolsRestServices/rest/POLocator/findLocations", "@spider": "usps_collection_boxes", "addr:city": "VALDERS", "addr:country": "US", "addr:postcode": "54245", "addr:state": "WI", "addr:street_address": "505 CHRISTEL DR", "amenity": "post_box", "collection_times": "Mo-Fr 16:30; Sa 10:00", "indoor": "yes", "note": "ON 12/24 AND 12/31, THIS BOX MAY BE COLLECTED AS EARLY AS 12 NOON.", "nsi_id": "unitedstatespostalservice-a77078", "operator": "United States Postal Service", "operator:short": "USPS", "operator:type": "public", "operator:wikidata": "Q668687", "ref": "5424500002"}, "type": "Feature"}
{"geometry": {"coordinates": [-87.885521709, 44.062682827], "type": "Point"}, "id": "sUjJdu0SPu4_7Ct2qzt1SuN-FTc=", "properties": {"@source_uri": "https://tools.usps.com/UspsToolsRestServices/rest/POLocator/findLocations", "@spider": "usps_collection_boxes", "addr:city": "VALDERS", "addr:country": "US", "addr:postcode": "54245", "addr:state": "WI", "addr:street_address": "505 CHRISTEL DR", "amenity": "post_box", "collection_times": "Mo-Fr 16:30; Sa 10:00", "indoor": "yes", "note": "ON 12/24 AND 12/31, THIS BOX MAY BE COLLECTED AS EARLY AS 12 NOON.", "nsi_id": "unitedstatespostalservice-a77078", "operator": "United States Postal Service", "operator:short": "USPS", "operator:type": "public", "operator:wikidata": "Q668687", "ref": "5424500003"}, "type": "Feature"}
{"geometry": {"coordinates": [-86.929541, 45.356921], "type": "Point"}, "id": "eIqdA5hqIorJotaIYL1uTN8b8Gk=", "properties": {"@source_uri": "https://tools.usps.com/UspsToolsRestServices/rest/POLocator/findLocations", "@spider": "usps_collection_boxes", "addr:city": "WASHINGTON IS", "addr:country": "US", "addr:postcode": "54246", "addr:state": "WI", "addr:street_address": "1889 DETROIT HARBOR RD", "amenity": "post_box", "collection_times": "Mo-Fr 12:00; Sa 09:45", "nsi_id": "unitedstatespostalservice-a77078", "operator": "United States Postal Service", "operator:short": "USPS", "operator:type": "public", "operator:wikidata": "Q668687", "ref": "5424600000"}, "type": "Feature"}
{"geometry": {"coordinates": [-86.929643, 45.356948], "type": "Point"}, "id": "gAkOK5CLlKBKeeZ9G_QwHbqreRo=", "properties": {"@source_uri": "https://tools.usps.com/UspsToolsRestServices/rest/POLocator/findLocations", "@spider": "usps_collection_boxes", "addr:city": "WASHINGTON IS", "addr:country": "US", "addr:postcode": "54246", "addr:state": "WI", "addr:street_address": "1889 DETROIT HARBOR RD", "amenity": "post_box", "collection_times": "Mo-Fr 12:00; Sa 09:45", "indoor": "yes", "nsi_id": "unitedstatespostalservice-a77078", "operator": "United States Postal Service", "operator:short": "USPS", "operator:type": "public", "operator:wikidata": "Q668687", "ref": "5424600001"}, "type": "Feature"}
{"geometry": {"coordinates": [-86.929643, 45.356948], "type": "Point"}, "id": "AOpFZfyEl7-gbNH3AjyM8GAEoC4=", "properties": {"@source_uri": "https://tools.usps.com/UspsToolsRestServices/rest/POLocator/findLocations", "@spider": "usps_collection_boxes", "addr:city": "WASHINGTON IS", "addr:country": "US", "addr:postcode": "54246", "addr:state": "WI", "addr:street_address": "1889 DETROIT HARBOR RD", "amenity": "post_box", "collection_times": "Mo-Fr 12:00; Sa 09:45", "indoor": "yes", "nsi_id": "unitedstatespostalservice-a77078", "operator": "United States Postal Service", "operator:short": "USPS", "operator:type": "public", "operator:wikidata": "Q668687", "ref": "5424600002"}, "type": "Feature"}
{"geometry": {"coordinates": [-86.9297625, 45.356914481], "type": "Point"}, "id": "fIn4_Wyq9f4J_teTrRUcPpGzFhU=", "properties": {"@source_uri": "https://tools.usps.com/UspsToolsRestServices/rest/POLocator/findLocations", "@spider": "usps_collection_boxes", "addr:city": "WASHINGTON IS", "addr:country": "US", "addr:postcode": "54246", "addr:state": "WI", "addr:street_address": "1889 DETROIT HARBOR RD", "amenity": "post_box", "collection_times": "Mo-Fr 12:00; Sa 09:45", "indoor": "yes", "nsi_id": "unitedstatespostalservice-a77078", "operator": "United States Postal Service", "operator:short": "USPS", "operator:type": "public", "operator:wikidata": "Q668687", "ref": "5424600003"}, "type": "Feature"}
{"geometry": {"coordinates": [-87.82444, 44.144666], "type": "Point"}, "id": "fk43-eG6ffzPf6fxirt_3aCq1Q4=", "properties": {"@source_uri": "https://tools.usps.com/UspsToolsRestServices/rest/POLocator/findLocations", "@spider": "usps_collection_boxes", "addr:city": "WHITELAW", "addr:country": "US", "addr:postcode": "54247", "addr:state": "WI", "addr:street_address": "128 E MENASHA AVE", "amenity": "post_box", "collection_times": "Mo-Fr 14:45; Sa 10:15", "note": "ON 12/24 AND 12/31, THIS BOX MAY BE COLLECTED AS EARLY AS 12 NOON.", "nsi_id": "unitedstatespostalservice-a77078", "operator": "United States Postal Service", "operator:short": "USPS", "operator:type": "public", "operator:wikidata": "Q668687", "ref": "5424700000"}, "type": "Feature"}
{"geometry": {"coordinates": [-87.7678559, 44.144803], "type": "Point"}, "id": "ols2SXeYcA_3coog18iUaQVEwEE=", "properties": {"@source_uri": "https://tools.usps.com/UspsToolsRestServices/rest/POLocator/findLocations", "@spider": "usps_collection_boxes", "addr:city": "WHITELAW", "addr:country": "US", "addr:postcode": "54247", "addr:state": "WI", "addr:street_address": "8133 US HIGHWAY 10", "amenity": "post_box", "collection_times": "Mo-Sa 09:30", "nsi_id": "unitedstatespostalservice-a77078", "operator": "United States Postal Service", "operator:short": "USPS", "operator:type": "public", "operator:wikidata": "Q668687", "ref": "5424700001"}, "type": "Feature"}
{"geometry": {"coordinates": [-87.82444, 44.144666], "type": "Point"}, "id": "wR6BJfWo2sfzd9DWwYED_FN_iRI=", "properties": {"@source_uri": "https://tools.usps.com/UspsToolsRestServices/rest/POLocator/findLocations", "@spider": "usps_collection_boxes", "addr:city": "WHITELAW", "addr:country": "US", "addr:postcode": "54247", "addr:state": "WI", "addr:street_address": "128 E MENASHA AVE", "amenity": "post_box", "collection_times": "Mo-Fr 14:45; Sa 10:15", "indoor": "yes", "note": "ON 12/24 AND 12/31, THIS BOX MAY BE COLLECTED AS EARLY AS 12 NOON.", "nsi_id": "unitedstatespostalservice-a77078", "operator": "United States Postal Service", "operator:short": "USPS", "operator:type": "public", "operator:wikidata": "Q668687", "ref": "5424700002"}, "type": "Feature"}
{"geometry": {"coordinates": [-87.824443249, 44.14466353], "type": "Point"}, "id": "dLVyWG3hPDEj1hqoxJW45ZO72eA=", "properties": {"@source_uri": "https://tools.usps.com/UspsToolsRestServices/rest/POLocator/findLocations", "@spider": "usps_collection_boxes", "addr:city": "WHITELAW", "addr:country": "US", "addr:postcode": "54247", "addr:state": "WI", "addr:street_address": "128 E MENASHA AVE", "amenity": "post_box", "collection_times": "Mo-Fr 14:45; Sa 10:15", "indoor": "yes", "note": "ON 12/24 AND 12/31, THIS BOX MAY BE COLLECTED AS EARLY AS 12 NOON.", "nsi_id": "unitedstatespostalservice-a77078", "operator": "United States Postal Service", "operator:short": "USPS", "operator:type": "public", "operator:wikidata": "Q668687", "ref": "5424700003"}, "type": "Feature"}
