{"geometry": {"coordinates": [-88.0300584, 44.482623], "type": "Point"}, "id": "Rd9iH-BQmAEPdTz6i2HDvaztp8A=", "properties": {"@spider": "usps_collection_boxes", "addr:city": "GREEN BAY", "addr:country": "US", "addr:full": "344 W ALLOUEZ AVE", "addr:postcode": "54301", "addr:state": "WI", "amenity": "post_box", "brand": "United States Postal Service", "brand:wikidata": "Q668687", "collection_times": "Mo-Sa 12:00", "name": "USPS COLLECTION BOX - BLUE BOX", "nsi_id": "unitedstatespostalservice-a77078", "operator": "United States Postal Service", "operator:short": "USPS", "operator:type": "public", "operator:wikidata": "Q668687", "ref": "5430100004"}, "type": "Feature"}
{"geometry": {"coordinates": [-88.0412465, 44.455733], "type": "Point"}, "id": "3amdfGBSpYs1zojjPvb4IcqQy-o=", "properties": {"@spider": "usps_collection_boxes", "addr:city": "GREEN BAY", "addr:country": "US", "addr:full": "3823 S WEBSTER AVE", "addr:postcode": "54301", "addr:state": "WI", "amenity": "post_box", "brand": "United States Postal Service", "brand:wikidata": "Q668687", "collection_times": "Mo-Sa 12:00", "name": "USPS COLLECTION BOX - BLUE BOX", "nsi_id": "unitedstatespostalservice-a77078", "operator": "United States Postal Service", "operator:short": "USPS", "operator:type": "public", "operator:wikidata": "Q668687", "ref": "5430100007"}, "type": "Feature"}
{"geometry": {"coordinates": [-88.0319022, 44.46742], "type": "Point"}, "id": "ABnp0ab1U2-pHTFglI-cfHgMJts=", "properties": {"@spider": "usps_collection_boxes", "addr:city": "GREEN BAY", "addr:country": "US", "addr:full": "121 BROADVIEW DR", "addr:postcode": "54301", "addr:state": "WI", "amenity": "post_box", "brand": "United States Postal Service", "brand:wikidata": "Q668687", "collection_times": "Mo-Fr 14:00; Sa 13:30", "name": "USPS COLLECTION BOX - BLUE BOX", "note": "ON 12/24 AND 12/31, THIS BOX MAY BE COLLECTED AS EARLY AS 12 NOON.", "nsi_id": "unitedstatespostalservice-a77078", "operator": "United States Postal Service", "operator:short": "USPS", "operator:type": "public", "operator:wikidata": "Q668687", "ref": "5430100013"}, "type": "Feature"}
{"geometry": {"coordinates": [-88.0190367, 44.509225], "type": "Point"}, "id": "ivG5Bh72mpsMGxcL87a5cybDB48=", "properties": {"@spider": "usps_collection_boxes", "addr:city": "GREEN BAY", "addr:country": "US", "addr:full": "500 S WASHINGTON ST", "addr:postcode": "54301", "addr:state": "WI", "amenity": "post_box", "brand": "United States Postal Service", "brand:wikidata": "Q668687", "collection_times": "Sa 11:00", "name": "USPS COLLECTION BOX - BLUE BOX", "nsi_id": "unitedstatespostalservice-a77078", "operator": "United States Postal Service", "operator:short": "USPS", "operator:type": "public", "operator:wikidata": "Q668687", "ref": "5430100015"}, "type": "Feature"}
{"geometry": {"coordinates": [-88.00884399, 44.512748003], "type": "Point"}, "id": "MRDGIfobjX7osHlImEkxqLK0iEs=", "properties": {"@spider": "usps_collection_boxes", "addr:city": "GREEN BAY", "addr:country": "US", "addr:full": "630 CHERRY ST", "addr:postcode": "54301", "addr:state": "WI", "amenity": "post_box", "brand": "United States Postal Service", "brand:wikidata": "Q668687", "collection_times": "Mo-Sa 10:00", "name": "USPS COLLECTION BOX - BLUE BOX", "nsi_id": "unitedstatespostalservice-a77078", "operator": "United States Postal Service", "operator:short": "USPS", "operator:type": "public", "operator:wikidata": "Q668687", "ref": "5430100022"}, "type": "Feature"}
{"geometry": {"coordinates": [-88.00884399, 44.512748003], "type": "Point"}, "id": "--WCeGCkXHFA1Vm6lWlrHHJXJyI=", "properties": {"@spider": "usps_collection_boxes", "addr:city": "GREEN BAY", "addr:country": "US", "addr:full": "630 CHERRY ST", "addr:postcode": "54301", "addr:state": "WI", "amenity": "post_box", "brand": "United States Postal Service", "brand:wikidata": "Q668687", "collection_times": "Mo-Sa 10:00", "name": "USPS COLLECTION BOX - BLUE BOX", "nsi_id": "unitedstatespostalservice-a77078", "operator": "United States Postal Service", "operator:short": "USPS", "operator:type": "public", "operator:wikidata": "Q668687", "ref": "5430100023"}, "type": "Feature"}
{"geometry": {"coordinates": [-88.012797985, 44.513371994], "type": "Point"}, "id": "lVOPz981ezVKgyAGJwo05tSIRu8=", "properties": {"@spider": "usps_collection_boxes", "addr:city": "GREEN BAY", "addr:country": "US", "addr:full": "100 N JEFFERSON ST", "addr:postcode": "54301", "addr:state": "WI", "amenity": "post_box", "brand": "United States Postal Service", "brand:wikidata": "Q668687", "collection_times": "Mo-Sa 09:00", "name": "USPS COLLECTION BOX - BLUE BOX", "nsi_id": "unitedstatespostalservice-a77078", "operator": "United States Postal Service", "operator:short": "USPS", "operator:type": "public", "operator:wikidata": "Q668687", "ref": "5430100026"}, "type": "Feature"}
{"geometry": {"coordinates": [-88.012797985, 44.513371994], "type": "Point"}, "id": "TsDTxQ7jR6Y4veS-SeHzJ7WJJRI=", "properties": {"@spider": "usps_collection_boxes", "addr:city": "GREEN BAY", "addr:country": "US", "addr:full": "100 N JEFFERSON ST", "addr:postcode": "54301", "addr:state": "WI", "amenity": "post_box", "brand": "United States Postal Service", "brand:wikidata": "Q668687", "collection_times": "Mo-Sa 09:00", "name": "USPS COLLECTION BOX - BLUE BOX", "nsi_id": "unitedstatespostalservice-a77078", "operator": "United States Postal Service", "operator:short": "USPS", "operator:type": "public", "operator:wikidata": "Q668687", "ref": "5430100027"}, "type": "Feature"}
{"geometry": {"coordinates": [-88.015896091, 44.509702611], "type": "Point"}, "id": "USeKjoxW7xxb7cjg_TEvpRFDkPo=", "properties": {"@spider": "usps_collection_boxes", "addr:city": "GREEN BAY", "addr:country": "US", "addr:full": "400 S JEFFERSON ST", "addr:postcode": "54301", "addr:state": "WI", "amenity": "post_box", "brand": "United States Postal Service", "brand:wikidata": "Q668687", "collection_times": "Mo-Sa 09:00", "name": "USPS COLLECTION BOX - BLUE BOX", "nsi_id": "unitedstatespostalservice-a77078", "operator": "United States Postal Service", "operator:short": "USPS", "operator:type": "public", "operator:wikidata": "Q668687", "ref": "5430100030"}, "type": "Feature"}
{"geometry": {"coordinates": [-88.013301148, 44.513176069], "type": "Point"}, "id": "tN6-YuNUQVVin7d-89lqjOwc2kk=", "properties": {"@spider": "usps_collection_boxes", "addr:city": "GREEN BAY", "addr:country": "US", "addr:full": "105 S JEFFERSON ST", "addr:postcode": "54301", "addr:state": "WI", "amenity": "post_box", "brand": "United States Postal Service", "brand:wikidata": "Q668687", "collection_times": "Mo-Sa 09:00", "name": "USPS COLLECTION BOX - BLUE BOX", "nsi_id": "unitedstatespostalservice-a77078", "operator": "United States Postal Service", "operator:short": "USPS", "operator:type": "public", "operator:wikidata": "Q668687", "ref": "5430100043"}, "type": "Feature"}
{"geometry": {"coordinates": [-88.010705024, 44.514999005], "type": "Point"}, "id": "VyR8vtWzAxNhpmYOc7m5aS6FTrk=", "properties": {"@spider": "usps_collection_boxes", "addr:city": "GREEN BAY", "addr:country": "US", "addr:full": "425 PINE ST", "addr:postcode": "54301", "addr:state": "WI", "amenity": "post_box", "brand": "United States Postal Service", "brand:wikidata": "Q668687", "collection_times": "Mo-Sa 14:00", "name": "USPS COLLECTION BOX - BLUE BOX", "note": "ON 12/24 AND 12/31, THIS BOX MAY BE COLLECTED AS EARLY AS 12 NOON.", "nsi_id": "unitedstatespostalservice-a77078", "operator": "United States Postal Service", "operator:short": "USPS", "operator:type": "public", "operator:wikidata": "Q668687", "ref": "5430100045"}, "type": "Feature"}
{"geometry": {"coordinates": [-88.0135068, 44.510671], "type": "Point"}, "id": "iBqOWw35hD5JsjAzdOQPl6M0S_Q=", "properties": {"@spider": "usps_collection_boxes", "addr:city": "GREEN BAY", "addr:country": "US", "addr:full": "230 S MADISON ST", "addr:postcode": "54301", "addr:state": "WI", "amenity": "post_box", "brand": "United States Postal Service", "brand:wikidata": "Q668687", "collection_times": "Mo-Sa 11:00", "name": "USPS COLLECTION BOX - BLUE BOX", "nsi_id": "unitedstatespostalservice-a77078", "operator": "United States Postal Service", "operator:short": "USPS", "operator:type": "public", "operator:wikidata": "Q668687", "ref": "5430100046"}, "type": "Feature"}
{"geometry": {"coordinates": [-88.0174386, 44.512629], "type": "Point"}, "id": "GXbFP632iC03NhDITOwEwDA9VRA=", "properties": {"@spider": "usps_collection_boxes", "addr:city": "GREEN BAY", "addr:country": "US", "addr:full": "200 S WASHINGTON ST", "addr:postcode": "54301", "addr:state": "WI", "amenity": "post_box", "brand": "United States Postal Service", "brand:wikidata": "Q668687", "collection_times": "Mo-Sa 10:00", "name": "USPS COLLECTION BOX - BLUE BOX", "nsi_id": "unitedstatespostalservice-a77078", "operator": "United States Postal Service", "operator:short": "USPS", "operator:type": "public", "operator:wikidata": "Q668687", "ref": "5430100047"}, "type": "Feature"}
{"geometry": {"coordinates": [-88.0160433, 44.49513], "type": "Point"}, "id": "ugyaloqgJV_5eU6AIOl6SmEQmNo=", "properties": {"@spider": "usps_collection_boxes", "addr:city": "GREEN BAY", "addr:country": "US", "addr:full": "1220 S WEBSTER AVE", "addr:postcode": "54301", "addr:state": "WI", "amenity": "post_box", "brand": "United States Postal Service", "brand:wikidata": "Q668687", "collection_times": "Mo-Sa 12:45", "name": "USPS COLLECTION BOX - BLUE BOX", "note": "ON 12/24 AND 12/31, THIS BOX MAY BE COLLECTED AS EARLY AS 12 NOON.", "nsi_id": "unitedstatespostalservice-a77078", "operator": "United States Postal Service", "operator:short": "USPS", "operator:type": "public", "operator:wikidata": "Q668687", "ref": "5430100056"}, "type": "Feature"}
{"geometry": {"coordinates": [-88.0162014, 44.514185], "type": "Point"}, "id": "IfDXfR9zp_qVm_UMOVmzOiHSFfU=", "properties": {"@spider": "usps_collection_boxes", "addr:city": "GREEN BAY", "addr:country": "US", "addr:full": "130 E WALNUT ST", "addr:postcode": "54301", "addr:state": "WI", "amenity": "post_box", "brand": "United States Postal Service", "brand:wikidata": "Q668687", "collection_times": "Sa 10:00", "name": "USPS COLLECTION BOX - BLUE BOX", "nsi_id": "unitedstatespostalservice-a77078", "operator": "United States Postal Service", "operator:short": "USPS", "operator:type": "public", "operator:wikidata": "Q668687", "ref": "5430100057"}, "type": "Feature"}
{"geometry": {"coordinates": [-88.010064, 44.512869], "type": "Point"}, "id": "3LJamRlreKvzn_7tgw7WOsy_XuQ=", "properties": {"@spider": "usps_collection_boxes", "addr:city": "GREEN BAY", "addr:country": "US", "addr:full": "118 N MONROE AVE", "addr:postcode": "54301", "addr:state": "WI", "amenity": "post_box", "brand": "United States Postal Service", "brand:wikidata": "Q668687", "collection_times": "Mo-Fr 17:45; Sa 12:00", "name": "USPS COLLECTION BOX - PO LOBBY", "note": "ON 12/24 AND 12/31, THIS BOX MAY BE COLLECTED AS EARLY AS 12 NOON.", "nsi_id": "unitedstatespostalservice-a77078", "operator": "United States Postal Service", "operator:short": "USPS", "operator:type": "public", "operator:wikidata": "Q668687", "ref": "5430100058"}, "type": "Feature"}
{"geometry": {"coordinates": [-88.01063, 44.510825], "type": "Point"}, "id": "5D-wr1OP5cQ7apVqlTeo8J059Eo=", "properties": {"@spider": "usps_collection_boxes", "addr:city": "GREEN BAY", "addr:country": "US", "addr:full": "1920 LIBAL ST", "addr:postcode": "54301", "addr:state": "WI", "amenity": "post_box", "brand": "United States Postal Service", "brand:wikidata": "Q668687", "collection_times": "Sa 10:00", "name": "USPS COLLECTION BOX - BLUE BOX", "nsi_id": "unitedstatespostalservice-a77078", "operator": "United States Postal Service", "operator:short": "USPS", "operator:type": "public", "operator:wikidata": "Q668687", "ref": "5430100062"}, "type": "Feature"}
{"geometry": {"coordinates": [-88.0092865, 44.517972], "type": "Point"}, "id": "59KcSvbz_s-XiTuGsM9Y9RzP6L4=", "properties": {"@spider": "usps_collection_boxes", "addr:city": "GREEN BAY", "addr:country": "US", "addr:full": "333 MAIN ST", "addr:postcode": "54301", "addr:state": "WI", "amenity": "post_box", "brand": "United States Postal Service", "brand:wikidata": "Q668687", "collection_times": "Mo-Sa 09:00", "name": "USPS COLLECTION BOX - BLUE BOX", "nsi_id": "unitedstatespostalservice-a77078", "operator": "United States Postal Service", "operator:short": "USPS", "operator:type": "public", "operator:wikidata": "Q668687", "ref": "5430100065"}, "type": "Feature"}
{"geometry": {"coordinates": [-87.9988752, 44.500634], "type": "Point"}, "id": "o6p9trh7xwQ6WrzLnxOJGGJ3GJU=", "properties": {"@spider": "usps_collection_boxes", "addr:city": "GREEN BAY", "addr:country": "US", "addr:full": "1401 E MASON ST", "addr:postcode": "54301", "addr:state": "WI", "amenity": "post_box", "brand": "United States Postal Service", "brand:wikidata": "Q668687", "collection_times": "Mo-Sa 11:00", "name": "USPS COLLECTION BOX - BLUE BOX", "nsi_id": "unitedstatespostalservice-a77078", "operator": "United States Postal Service", "operator:short": "USPS", "operator:type": "public", "operator:wikidata": "Q668687", "ref": "5430100066"}, "type": "Feature"}
{"geometry": {"coordinates": [-88.010064, 44.512869], "type": "Point"}, "id": "1WOD28zZTNFLSSKVV5YshrOfi20=", "properties": {"@spider": "usps_collection_boxes", "addr:city": "GREEN BAY", "addr:country": "US", "addr:full": "118 N MONROE AVE", "addr:postcode": "54301", "addr:state": "WI", "amenity": "post_box", "brand": "United States Postal Service", "brand:wikidata": "Q668687", "collection_times": "Mo-Fr 17:45; Sa 12:00", "name": "USPS COLLECTION BOX - PO LOBBY", "note": "ON 12/24 AND 12/31, THIS BOX MAY BE COLLECTED AS EARLY AS 12 NOON.", "nsi_id": "unitedstatespostalservice-a77078", "operator": "United States Postal Service", "operator:short": "USPS", "operator:type": "public", "operator:wikidata": "Q668687", "ref": "5430100070"}, "type": "Feature"}
{"geometry": {"coordinates": [-88.015896091, 44.509702611], "type": "Point"}, "id": "t7Pff0XdL7Jplv51T0lpVHFmEyo=", "properties": {"@spider": "usps_collection_boxes", "addr:city": "GREEN BAY", "addr:country": "US", "addr:full": "400 S JEFFERSON ST", "addr:postcode": "54301", "addr:state": "WI", "amenity": "post_box", "brand": "United States Postal Service", "brand:wikidata": "Q668687", "collection_times": "Mo-Sa 09:00", "name": "USPS COLLECTION BOX - BLUE BOX", "nsi_id": "unitedstatespostalservice-a77078", "operator": "United States Postal Service", "operator:short": "USPS", "operator:type": "public", "operator:wikidata": "Q668687", "ref": "5430100072"}, "type": "Feature"}
{"geometry": {"coordinates": [-88.010113382, 44.512797783], "type": "Point"}, "id": "Aoi0uA6g92fhV27LT6I-Jmm_ZJE=", "properties": {"@spider": "usps_collection_boxes", "addr:city": "GREEN BAY", "addr:country": "US", "addr:full": "118 N MONROE AVE", "addr:postcode": "54301", "addr:state": "WI", "amenity": "post_box", "brand": "United States Postal Service", "brand:wikidata": "Q668687", "collection_times": "Mo-Fr 17:45; Sa 12:00", "name": "USPS COLLECTION BOX - PO LOBBY", "note": "ON 12/24 AND 12/31, THIS BOX MAY BE COLLECTED AS EARLY AS 12 NOON.", "nsi_id": "unitedstatespostalservice-a77078", "operator": "United States Postal Service", "operator:short": "USPS", "operator:type": "public", "operator:wikidata": "Q668687", "ref": "5430100076"}, "type": "Feature"}
{"geometry": {"coordinates": [-87.9964486, 44.480781], "type": "Point"}, "id": "PS5xzBvPwnqu5ELLqMG43SZyY5w=", "properties": {"@spider": "usps_collection_boxes", "addr:city": "GREEN BAY", "addr:country": "US", "addr:full": "1331 BELLEVUE ST", "addr:postcode": "54302", "addr:state": "WI", "amenity": "post_box", "brand": "United States Postal Service", "brand:wikidata": "Q668687", "collection_times": "Mo-Sa 10:30", "name": "USPS COLLECTION BOX - BLUE BOX", "nsi_id": "unitedstatespostalservice-a77078", "operator": "United States Postal Service", "operator:short": "USPS", "operator:type": "public", "operator:wikidata": "Q668687", "ref": "5430200001"}, "type": "Feature"}
{"geometry": {"coordinates": [-87.9957910199, 44.487742984], "type": "Point"}, "id": "jqx8MpyR40H5I6i6yvO2Yr4OLt8=", "properties": {"@spider": "usps_collection_boxes", "addr:city": "GREEN BAY", "addr:country": "US", "addr:full": "1234 BELLEVUE ST", "addr:postcode": "54302", "addr:state": "WI", "amenity": "post_box", "brand": "United States Postal Service", "brand:wikidata": "Q668687", "collection_times": "Mo-Fr 14:00; Sa 11:00", "name": "USPS COLLECTION BOX - BLUE BOX", "note": "ON 12/24 AND 12/31, THIS BOX MAY BE COLLECTED AS EARLY AS 12 NOON.", "nsi_id": "unitedstatespostalservice-a77078", "operator": "United States Postal Service", "operator:short": "USPS", "operator:type": "public", "operator:wikidata": "Q668687", "ref": "5430200006"}, "type": "Feature"}
{"geometry": {"coordinates": [-87.9734293, 44.519032], "type": "Point"}, "id": "zwTSYY9HgFFiyd3vRcYls_8TV14=", "properties": {"@spider": "usps_collection_boxes", "addr:city": "GREEN BAY", "addr:country": "US", "addr:full": "1950 COFRIN DR", "addr:postcode": "54302", "addr:state": "WI", "amenity": "post_box", "brand": "United States Postal Service", "brand:wikidata": "Q668687", "collection_times": "Mo-Fr 17:45; Sa 16:45", "name": "USPS COLLECTION BOX - BLUE BOX", "note": "ON 12/24 AND 12/31, THIS BOX MAY BE COLLECTED AS EARLY AS 12 NOON.", "nsi_id": "unitedstatespostalservice-a77078", "operator": "United States Postal Service", "operator:short": "USPS", "operator:type": "public", "operator:wikidata": "Q668687", "ref": "5430200007"}, "type": "Feature"}
{"geometry": {"coordinates": [-87.9766751, 44.495284], "type": "Point"}, "id": "VCKreq6Sjguc1JVkPN960R5kJRw=", "properties": {"@spider": "usps_collection_boxes", "addr:city": "GREEN BAY", "addr:country": "US", "addr:full": "1819 MAIN ST", "addr:postcode": "54302", "addr:state": "WI", "amenity": "post_box", "brand": "United States Postal Service", "brand:wikidata": "Q668687", "collection_times": "Mo-Sa 09:00", "name": "USPS COLLECTION BOX - BLUE BOX", "nsi_id": "unitedstatespostalservice-a77078", "operator": "United States Postal Service", "operator:short": "USPS", "operator:type": "public", "operator:wikidata": "Q668687", "ref": "5430200008"}, "type": "Feature"}
{"geometry": {"coordinates": [-87.9704199, 44.512337], "type": "Point"}, "id": "6Ouv80LtoCViVz_vTKlg2gQm3Sg=", "properties": {"@spider": "usps_collection_boxes", "addr:city": "GREEN BAY", "addr:country": "US", "addr:full": "2080 UNIVERSITY AVE", "addr:postcode": "54302", "addr:state": "WI", "amenity": "post_box", "brand": "United States Postal Service", "brand:wikidata": "Q668687", "collection_times": "Mo-Sa 10:30", "name": "USPS COLLECTION BOX - BLUE BOX", "nsi_id": "unitedstatespostalservice-a77078", "operator": "United States Postal Service", "operator:short": "USPS", "operator:type": "public", "operator:wikidata": "Q668687", "ref": "5430200026"}, "type": "Feature"}
{"geometry": {"coordinates": [-87.9705422, 44.485338], "type": "Point"}, "id": "1sn7Qx0N_kCrQY4ZqTMc4TiuEww=", "properties": {"@spider": "usps_collection_boxes", "addr:city": "GREEN BAY", "addr:country": "US", "addr:full": "2223 MAIN ST", "addr:postcode": "54302", "addr:state": "WI", "amenity": "post_box", "brand": "United States Postal Service", "brand:wikidata": "Q668687", "collection_times": "Mo-Sa 13:30", "name": "USPS COLLECTION BOX - BLUE BOX", "note": "ON 12/24 AND 12/31, THIS BOX MAY BE COLLECTED AS EARLY AS 12 NOON.", "nsi_id": "unitedstatespostalservice-a77078", "operator": "United States Postal Service", "operator:short": "USPS", "operator:type": "public", "operator:wikidata": "Q668687", "ref": "5430200030"}, "type": "Feature"}
{"geometry": {"coordinates": [-87.9705278, 44.485315], "type": "Point"}, "id": "xAozccFt68Evl-iC1ywl4vmuEgQ=", "properties": {"@spider": "usps_collection_boxes", "addr:city": "GREEN BAY", "addr:country": "US", "addr:full": "2223 MAIN ST", "addr:postcode": "54302", "addr:state": "WI", "amenity": "post_box", "brand": "United States Postal Service", "brand:wikidata": "Q668687", "collection_times": "Mo-Sa 13:30", "name": "USPS COLLECTION BOX - BLUE BOX", "note": "ON 12/24 AND 12/31, THIS BOX MAY BE COLLECTED AS EARLY AS 12 NOON.", "nsi_id": "unitedstatespostalservice-a77078", "operator": "United States Postal Service", "operator:short": "USPS", "operator:type": "public", "operator:wikidata": "Q668687", "ref": "5430200031"}, "type": "Feature"}
{"geometry": {"coordinates": [-87.9705264, 44.485305], "type": "Point"}, "id": "RJuyttP70hZji8-xDzidJ06DYsw=", "properties": {"@spider": "usps_collection_boxes", "addr:city": "GREEN BAY", "addr:country": "US", "addr:full": "2223 MAIN ST", "addr:postcode": "54302", "addr:state": "WI", "amenity": "post_box", "brand": "United States Postal Service", "brand:wikidata": "Q668687", "collection_times": "Mo-Sa 13:30", "name": "USPS COLLECTION BOX - BLUE BOX", "note": "ON 12/24 AND 12/31, THIS BOX MAY BE COLLECTED AS EARLY AS 12 NOON.", "nsi_id": "unitedstatespostalservice-a77078", "operator": "United States Postal Service", "operator:short": "USPS", "operator:type": "public", "operator:wikidata": "Q668687", "ref": "5430200036"}, "type": "Feature"}
{"geometry": {"coordinates": [-87.9731999, 44.51883], "type": "Point"}, "id": "gEKA-rKYoJQSMFDuvJR_fWgRvn8=", "properties": {"@spider": "usps_collection_boxes", "addr:city": "GREEN BAY", "addr:country": "US", "addr:full": "1950 COFRIN DR", "addr:postcode": "54302", "addr:state": "WI", "amenity": "post_box", "brand": "United States Postal Service", "brand:wikidata": "Q668687", "collection_times": "Mo-Fr 17:30; Sa 16:45", "name": "USPS COLLECTION BOX - PO LOBBY", "note": "ON 12/24 AND 12/31, THIS BOX MAY BE COLLECTED AS EARLY AS 12 NOON.", "nsi_id": "unitedstatespostalservice-a77078", "operator": "United States Postal Service", "operator:short": "USPS", "operator:type": "public", "operator:wikidata": "Q668687", "ref": "5430200040"}, "type": "Feature"}
{"geometry": {"coordinates": [-87.9614364171, 44.5131009712], "type": "Point"}, "id": "MdrnckQ9V9mtqegAydbA7Vkr4ww=", "properties": {"@spider": "usps_collection_boxes", "addr:city": "GREEN BAY", "addr:country": "US", "addr:full": "2430 UNIVERSITY AVE", "addr:postcode": "54302", "addr:state": "WI", "amenity": "post_box", "brand": "United States Postal Service", "brand:wikidata": "Q668687", "collection_times": "Mo-Sa 15:00", "name": "USPS COLLECTION BOX - BLUE BOX", "note": "ON 12/24 AND 12/31, THIS BOX MAY BE COLLECTED AS EARLY AS 12 NOON.", "nsi_id": "unitedstatespostalservice-a77078", "operator": "United States Postal Service", "operator:short": "USPS", "operator:type": "public", "operator:wikidata": "Q668687", "ref": "5430200041"}, "type": "Feature"}
{"geometry": {"coordinates": [-87.973272891, 44.519268495], "type": "Point"}, "id": "VuQlzUWzl9x_of-wjgv3HfUEP2o=", "properties": {"@spider": "usps_collection_boxes", "addr:city": "GREEN BAY", "addr:country": "US", "addr:full": "1950 COFRIN DR", "addr:postcode": "54302", "addr:state": "WI", "amenity": "post_box", "brand": "United States Postal Service", "brand:wikidata": "Q668687", "collection_times": "Mo-Fr 17:30; Sa 16:45", "name": "USPS COLLECTION BOX - PO LOBBY", "note": "ON 12/24 AND 12/31, THIS BOX MAY BE COLLECTED AS EARLY AS 12 NOON.", "nsi_id": "unitedstatespostalservice-a77078", "operator": "United States Postal Service", "operator:short": "USPS", "operator:type": "public", "operator:wikidata": "Q668687", "ref": "5430200042"}, "type": "Feature"}
{"geometry": {"coordinates": [-88.0628394, 44.52507], "type": "Point"}, "id": "c7WL3WH0UrI2ZCC-d0xaQHl5gGQ=", "properties": {"@spider": "usps_collection_boxes", "addr:city": "GREEN BAY", "addr:country": "US", "addr:full": "503 S MILITARY AVE", "addr:postcode": "54303", "addr:state": "WI", "amenity": "post_box", "brand": "United States Postal Service", "brand:wikidata": "Q668687", "collection_times": "Mo-Sa 10:30", "name": "USPS COLLECTION BOX - BLUE BOX", "nsi_id": "unitedstatespostalservice-a77078", "operator": "United States Postal Service", "operator:short": "USPS", "operator:type": "public", "operator:wikidata": "Q668687", "ref": "5430300003"}, "type": "Feature"}
{"geometry": {"coordinates": [-88.0726509, 44.534156], "type": "Point"}, "id": "IiwuZX_ZDqorsa_Ck8SmcgXXix8=", "properties": {"@spider": "usps_collection_boxes", "addr:city": "GREEN BAY", "addr:country": "US", "addr:full": "1871 SHAWANO AVE", "addr:postcode": "54303", "addr:state": "WI", "amenity": "post_box", "brand": "United States Postal Service", "brand:wikidata": "Q668687", "collection_times": "Mo-Sa 14:00", "name": "USPS COLLECTION BOX - BLUE BOX", "note": "ON 12/24 AND 12/31, THIS BOX MAY BE COLLECTED AS EARLY AS 12 NOON.", "nsi_id": "unitedstatespostalservice-a77078", "operator": "United States Postal Service", "operator:short": "USPS", "operator:type": "public", "operator:wikidata": "Q668687", "ref": "5430300013"}, "type": "Feature"}
{"geometry": {"coordinates": [-88.032903083, 44.529878702], "type": "Point"}, "id": "63Y4pbRo3WrIUSmHjXSC_q5NDbg=", "properties": {"@spider": "usps_collection_boxes", "addr:city": "GREEN BAY", "addr:country": "US", "addr:full": "1066 MATHER ST", "addr:postcode": "54303", "addr:state": "WI", "amenity": "post_box", "brand": "United States Postal Service", "brand:wikidata": "Q668687", "collection_times": "Mo-Sa 14:30", "name": "USPS COLLECTION BOX - BLUE BOX", "note": "ON 12/24 AND 12/31, THIS BOX MAY BE COLLECTED AS EARLY AS 12 NOON.", "nsi_id": "unitedstatespostalservice-a77078", "operator": "United States Postal Service", "operator:short": "USPS", "operator:type": "public", "operator:wikidata": "Q668687", "ref": "5430300014"}, "type": "Feature"}
{"geometry": {"coordinates": [-88.062031, 44.528369], "type": "Point"}, "id": "doJuF16PI3UNyx3V21egP9KDxac=", "properties": {"@spider": "usps_collection_boxes", "addr:city": "GREEN BAY", "addr:country": "US", "addr:full": "216 S MILITARY AVE", "addr:postcode": "54303", "addr:state": "WI", "amenity": "post_box", "brand": "United States Postal Service", "brand:wikidata": "Q668687", "collection_times": "Mo-Sa 13:00", "name": "USPS COLLECTION BOX - BLUE BOX", "note": "ON 12/24 AND 12/31, THIS BOX MAY BE COLLECTED AS EARLY AS 12 NOON.", "nsi_id": "unitedstatespostalservice-a77078", "operator": "United States Postal Service", "operator:short": "USPS", "operator:type": "public", "operator:wikidata": "Q668687", "ref": "5430300024"}, "type": "Feature"}
{"geometry": {"coordinates": [-88.0215418, 44.516656], "type": "Point"}, "id": "FxggNvBYMt0IggbfhU-uxHjX-zY=", "properties": {"@spider": "usps_collection_boxes", "addr:city": "GREEN BAY", "addr:country": "US", "addr:full": "310 W WALNUT ST", "addr:postcode": "54303", "addr:state": "WI", "amenity": "post_box", "brand": "United States Postal Service", "brand:wikidata": "Q668687", "collection_times": "Mo-Sa 13:30", "name": "USPS COLLECTION BOX - BLUE BOX", "note": "ON 12/24 AND 12/31, THIS BOX MAY BE COLLECTED AS EARLY AS 12 NOON.", "nsi_id": "unitedstatespostalservice-a77078", "operator": "United States Postal Service", "operator:short": "USPS", "operator:type": "public", "operator:wikidata": "Q668687", "ref": "5430300025"}, "type": "Feature"}
{"geometry": {"coordinates": [-88.0598776, 44.52777], "type": "Point"}, "id": "dT56iENs2QCGLfm12hEQmlqpSgQ=", "properties": {"@spider": "usps_collection_boxes", "addr:city": "GREEN BAY", "addr:country": "US", "addr:full": "201 S MILITARY AVE", "addr:postcode": "54303", "addr:state": "WI", "amenity": "post_box", "brand": "United States Postal Service", "brand:wikidata": "Q668687", "collection_times": "Mo-Sa 11:30", "name": "USPS COLLECTION BOX - BLUE BOX", "nsi_id": "unitedstatespostalservice-a77078", "operator": "United States Postal Service", "operator:short": "USPS", "operator:type": "public", "operator:wikidata": "Q668687", "ref": "5430300029"}, "type": "Feature"}
{"geometry": {"coordinates": [-88.0598974, 44.527804], "type": "Point"}, "id": "JzNrhmfjF8tV95zrLG8V7pmS0Mc=", "properties": {"@spider": "usps_collection_boxes", "addr:city": "GREEN BAY", "addr:country": "US", "addr:full": "201 S MILITARY AVE", "addr:postcode": "54303", "addr:state": "WI", "amenity": "post_box", "brand": "United States Postal Service", "brand:wikidata": "Q668687", "collection_times": "Mo-Sa 13:00", "name": "USPS COLLECTION BOX - BLUE BOX", "note": "ON 12/24 AND 12/31, THIS BOX MAY BE COLLECTED AS EARLY AS 12 NOON.", "nsi_id": "unitedstatespostalservice-a77078", "operator": "United States Postal Service", "operator:short": "USPS", "operator:type": "public", "operator:wikidata": "Q668687", "ref": "5430300030"}, "type": "Feature"}
{"geometry": {"coordinates": [-88.0599287, 44.527804], "type": "Point"}, "id": "8VF6b53j4OjnwZl5qRPSVhXTQS4=", "properties": {"@spider": "usps_collection_boxes", "addr:city": "GREEN BAY", "addr:country": "US", "addr:full": "201 S MILITARY AVE", "addr:postcode": "54303", "addr:state": "WI", "amenity": "post_box", "brand": "United States Postal Service", "brand:wikidata": "Q668687", "collection_times": "Mo-Sa 13:00", "name": "USPS COLLECTION BOX - BLUE BOX", "note": "ON 12/24 AND 12/31, THIS BOX MAY BE COLLECTED AS EARLY AS 12 NOON.", "nsi_id": "unitedstatespostalservice-a77078", "operator": "United States Postal Service", "operator:short": "USPS", "operator:type": "public", "operator:wikidata": "Q668687", "ref": "5430300031"}, "type": "Feature"}
{"geometry": {"coordinates": [-88.071201, 44.560305], "type": "Point"}, "id": "YhIF7b5Y2XhnhUriF8eKfUDDeGw=", "properties": {"@spider": "usps_collection_boxes", "addr:city": "GREEN BAY", "addr:country": "US", "addr:full": "2223 VELP AVE", "addr:postcode": "54303", "addr:state": "WI", "amenity": "post_box", "brand": "United States Postal Service", "brand:wikidata": "Q668687", "collection_times": "Mo-Fr 14:00; Sa 11:00", "name": "USPS COLLECTION BOX - BLUE BOX", "note": "ON 12/24 AND 12/31, THIS BOX MAY BE COLLECTED AS EARLY AS 12 NOON.", "nsi_id": "unitedstatespostalservice-a77078", "operator": "United States Postal Service", "operator:short": "USPS", "operator:type": "public", "operator:wikidata": "Q668687", "ref": "5430300034"}, "type": "Feature"}
{"geometry": {"coordinates": [-88.094485491, 44.534294675], "type": "Point"}, "id": "bA85_izMtn9NIIEyr5XqryETHUA=", "properties": {"@spider": "usps_collection_boxes", "addr:city": "GREEN BAY", "addr:country": "US", "addr:full": "300 PACKERLAND DR", "addr:postcode": "54303", "addr:state": "WI", "amenity": "post_box", "brand": "United States Postal Service", "brand:wikidata": "Q668687", "collection_times": "Mo-Sa 19:30", "name": "USPS COLLECTION BOX - BLUE BOX", "note": "ON 12/24 AND 12/31, THIS BOX MAY BE COLLECTED AS EARLY AS 12 NOON.", "nsi_id": "unitedstatespostalservice-a77078", "operator": "United States Postal Service", "operator:short": "USPS", "operator:type": "public", "operator:wikidata": "Q668687", "ref": "5430300040"}, "type": "Feature"}
{"geometry": {"coordinates": [-88.0945, 44.534188], "type": "Point"}, "id": "V1SNBqL4eAQyH0eRhALVj2ITZx0=", "properties": {"@spider": "usps_collection_boxes", "addr:city": "GREEN BAY", "addr:country": "US", "addr:full": "300 PACKERLAND DR", "addr:postcode": "54303", "addr:state": "WI", "amenity": "post_box", "brand": "United States Postal Service", "brand:wikidata": "Q668687", "collection_times": "Mo-Sa 19:30", "name": "USPS COLLECTION BOX - BLUE BOX", "note": "ON 12/24 AND 12/31, THIS BOX MAY BE COLLECTED AS EARLY AS 12 NOON.", "nsi_id": "unitedstatespostalservice-a77078", "operator": "United States Postal Service", "operator:short": "USPS", "operator:type": "public", "operator:wikidata": "Q668687", "ref": "5430300041"}, "type": "Feature"}
{"geometry": {"coordinates": [-88.0915943, 44.524948], "type": "Point"}, "id": "8roBYzXzjsORCG4IVURJW_qusE8=", "properties": {"@spider": "usps_collection_boxes", "addr:city": "GREEN BAY", "addr:country": "US", "addr:full": "2450 W MASON ST", "addr:postcode": "54303", "addr:state": "WI", "amenity": "post_box", "brand": "United States Postal Service", "brand:wikidata": "Q668687", "collection_times": "Mo-Fr 14:00; Sa 09:30", "name": "USPS COLLECTION BOX - BLUE BOX", "note": "ON 12/24 AND 12/31, THIS BOX MAY BE COLLECTED AS EARLY AS 12 NOON.", "nsi_id": "unitedstatespostalservice-a77078", "operator": "United States Postal Service", "operator:short": "USPS", "operator:type": "public", "operator:wikidata": "Q668687", "ref": "5430300044"}, "type": "Feature"}
{"geometry": {"coordinates": [-88.0544472, 44.520107], "type": "Point"}, "id": "hGQODMarw_DYfON1oABULaQ9Tyk=", "properties": {"@spider": "usps_collection_boxes", "addr:city": "GREEN BAY", "addr:country": "US", "addr:full": "1345 W MASON ST", "addr:postcode": "54303", "addr:state": "WI", "amenity": "post_box", "brand": "United States Postal Service", "brand:wikidata": "Q668687", "collection_times": "Mo-Sa 10:30", "name": "USPS COLLECTION BOX - BLUE BOX", "nsi_id": "unitedstatespostalservice-a77078", "operator": "United States Postal Service", "operator:short": "USPS", "operator:type": "public", "operator:wikidata": "Q668687", "ref": "5430300049"}, "type": "Feature"}
{"geometry": {"coordinates": [-88.0861127, 44.52517], "type": "Point"}, "id": "YTjAQWn6COjFrj1VrMN-19w8_rk=", "properties": {"@spider": "usps_collection_boxes", "addr:city": "GREEN BAY", "addr:country": "US", "addr:full": "2250 W MASON ST", "addr:postcode": "54303", "addr:state": "WI", "amenity": "post_box", "brand": "United States Postal Service", "brand:wikidata": "Q668687", "collection_times": "Mo-Fr 14:00; Sa 09:30", "name": "USPS COLLECTION BOX - BLUE BOX", "note": "ON 12/24 AND 12/31, THIS BOX MAY BE COLLECTED AS EARLY AS 12 NOON.", "nsi_id": "unitedstatespostalservice-a77078", "operator": "United States Postal Service", "operator:short": "USPS", "operator:type": "public", "operator:wikidata": "Q668687", "ref": "5430300050"}, "type": "Feature"}
{"geometry": {"coordinates": [-88.0945, 44.534188], "type": "Point"}, "id": "caDZbNivRkEJc139I3VEko3-nFA=", "properties": {"@spider": "usps_collection_boxes", "addr:city": "GREEN BAY", "addr:country": "US", "addr:full": "300 PACKERLAND DR", "addr:postcode": "54303", "addr:state": "WI", "amenity": "post_box", "brand": "United States Postal Service", "brand:wikidata": "Q668687", "collection_times": "Mo-Sa 19:30", "name": "USPS COLLECTION BOX - PO LOBBY", "note": "ON 12/24 AND 12/31, THIS BOX MAY BE COLLECTED AS EARLY AS 12 NOON.", "nsi_id": "unitedstatespostalservice-a77078", "operator": "United States Postal Service", "operator:short": "USPS", "operator:type": "public", "operator:wikidata": "Q668687", "ref": "5430300052"}, "type": "Feature"}
{"geometry": {"coordinates": [-88.0945, 44.534188], "type": "Point"}, "id": "CHKBjflJa09C1--ToWA0IZ9P53c=", "properties": {"@spider": "usps_collection_boxes", "addr:city": "GREEN BAY", "addr:country": "US", "addr:full": "300 PACKERLAND DR", "addr:postcode": "54303", "addr:state": "WI", "amenity": "post_box", "brand": "United States Postal Service", "brand:wikidata": "Q668687", "collection_times": "Mo-Sa 19:30", "name": "USPS COLLECTION BOX - APC", "note": "ON 12/24 AND 12/31, THIS BOX MAY BE COLLECTED AS EARLY AS 12 NOON.", "nsi_id": "unitedstatespostalservice-a77078", "operator": "United States Postal Service", "operator:short": "USPS", "operator:type": "public", "operator:wikidata": "Q668687", "ref": "5430300055"}, "type": "Feature"}
{"geometry": {"coordinates": [-88.0988557, 44.556815], "type": "Point"}, "id": "EeLEUOFsZ6dnR2eZHv8pZ9zIENc=", "properties": {"@spider": "usps_collection_boxes", "addr:city": "GREEN BAY", "addr:country": "US", "addr:full": "2984 SHAWANO AVE", "addr:postcode": "54303", "addr:state": "WI", "amenity": "post_box", "brand": "United States Postal Service", "brand:wikidata": "Q668687", "collection_times": "Mo-Fr 14:00", "name": "USPS COLLECTION BOX - BLUE BOX", "note": "ON 12/24 AND 12/31, THIS BOX MAY BE COLLECTED AS EARLY AS 12 NOON.", "nsi_id": "unitedstatespostalservice-a77078", "operator": "United States Postal Service", "operator:short": "USPS", "operator:type": "public", "operator:wikidata": "Q668687", "ref": "5430300056"}, "type": "Feature"}
{"geometry": {"coordinates": [-88.094502065, 44.534186329], "type": "Point"}, "id": "Ql6z19y6pKqHJ28KRq_pqxSFeuc=", "properties": {"@spider": "usps_collection_boxes", "addr:city": "GREEN BAY", "addr:country": "US", "addr:full": "300 PACKERLAND DR", "addr:postcode": "54303", "addr:state": "WI", "amenity": "post_box", "brand": "United States Postal Service", "brand:wikidata": "Q668687", "collection_times": "Mo-Sa 19:30", "name": "USPS COLLECTION BOX - PO LOBBY", "note": "ON 12/24 AND 12/31, THIS BOX MAY BE COLLECTED AS EARLY AS 12 NOON.", "nsi_id": "unitedstatespostalservice-a77078", "operator": "United States Postal Service", "operator:short": "USPS", "operator:type": "public", "operator:wikidata": "Q668687", "ref": "5430300061"}, "type": "Feature"}
{"geometry": {"coordinates": [-88.0753618, 44.506882], "type": "Point"}, "id": "9A5BxkVabzvmmqSFFC6RFxGiQng=", "properties": {"@spider": "usps_collection_boxes", "addr:city": "GREEN BAY", "addr:country": "US", "addr:full": "1291 LOMBARDI ACCESS RD", "addr:postcode": "54304", "addr:state": "WI", "amenity": "post_box", "brand": "United States Postal Service", "brand:wikidata": "Q668687", "collection_times": "Mo-Fr 15:45; Sa 14:30", "name": "USPS COLLECTION BOX - BLUE BOX", "note": "ON 12/24 AND 12/31, THIS BOX MAY BE COLLECTED AS EARLY AS 12 NOON.", "nsi_id": "unitedstatespostalservice-a77078", "operator": "United States Postal Service", "operator:short": "USPS", "operator:type": "public", "operator:wikidata": "Q668687", "ref": "5430400005"}, "type": "Feature"}
{"geometry": {"coordinates": [-88.0625565, 44.519589], "type": "Point"}, "id": "_SqYANPwUSlftpILGRfZJdziu4c=", "properties": {"@spider": "usps_collection_boxes", "addr:city": "GREEN BAY", "addr:country": "US", "addr:full": "908 S FISK ST", "addr:postcode": "54304", "addr:state": "WI", "amenity": "post_box", "brand": "United States Postal Service", "brand:wikidata": "Q668687", "collection_times": "Mo-Sa 11:00", "name": "USPS COLLECTION BOX - BLUE BOX", "nsi_id": "unitedstatespostalservice-a77078", "operator": "United States Postal Service", "operator:short": "USPS", "operator:type": "public", "operator:wikidata": "Q668687", "ref": "5430400007"}, "type": "Feature"}
{"geometry": {"coordinates": [-88.04722, 44.498193], "type": "Point"}, "id": "q3GNnqms9RtYwgEZ-KHWkylpLis=", "properties": {"@spider": "usps_collection_boxes", "addr:city": "GREEN BAY", "addr:country": "US", "addr:full": "935 LOMBARDI AVE", "addr:postcode": "54304", "addr:state": "WI", "amenity": "post_box", "brand": "United States Postal Service", "brand:wikidata": "Q668687", "collection_times": "Mo-Fr 11:30", "name": "USPS COLLECTION BOX - BLUE BOX", "nsi_id": "unitedstatespostalservice-a77078", "operator": "United States Postal Service", "operator:short": "USPS", "operator:type": "public", "operator:wikidata": "Q668687", "ref": "5430400009"}, "type": "Feature"}
{"geometry": {"coordinates": [-88.0575423, 44.491477], "type": "Point"}, "id": "MsoZOE9ZRoSuKt1dqP9zp60JgYA=", "properties": {"@spider": "usps_collection_boxes", "addr:city": "GREEN BAY", "addr:country": "US", "addr:full": "2155 HOLMGREN WAY", "addr:postcode": "54304", "addr:state": "WI", "amenity": "post_box", "brand": "United States Postal Service", "brand:wikidata": "Q668687", "collection_times": "Mo-Sa 11:00", "name": "USPS COLLECTION BOX - BLUE BOX", "nsi_id": "unitedstatespostalservice-a77078", "operator": "United States Postal Service", "operator:short": "USPS", "operator:type": "public", "operator:wikidata": "Q668687", "ref": "5430400013"}, "type": "Feature"}
{"geometry": {"coordinates": [-88.0617279, 44.521982], "type": "Point"}, "id": "k63D7CUuo5yONiNpCr1pqbby40Y=", "properties": {"@spider": "usps_collection_boxes", "addr:city": "GREEN BAY", "addr:country": "US", "addr:full": "713 GREEN BAY PLZ", "addr:postcode": "54304", "addr:state": "WI", "amenity": "post_box", "brand": "United States Postal Service", "brand:wikidata": "Q668687", "collection_times": "Mo-Sa 11:00", "name": "USPS COLLECTION BOX - BLUE BOX", "nsi_id": "unitedstatespostalservice-a77078", "operator": "United States Postal Service", "operator:short": "USPS", "operator:type": "public", "operator:wikidata": "Q668687", "ref": "5430400015"}, "type": "Feature"}
{"geometry": {"coordinates": [-88.0685381, 44.51616], "type": "Point"}, "id": "M_ugbjbMoSX0v1Tt6VX9aFaRhPA=", "properties": {"@spider": "usps_collection_boxes", "addr:city": "GREEN BAY", "addr:country": "US", "addr:full": "1231 S MILITARY AVE", "addr:postcode": "54304", "addr:state": "WI", "amenity": "post_box", "brand": "United States Postal Service", "brand:wikidata": "Q668687", "collection_times": "Mo-Sa 14:00", "name": "USPS COLLECTION BOX - BLUE BOX", "note": "ON 12/24 AND 12/31, THIS BOX MAY BE COLLECTED AS EARLY AS 12 NOON.", "nsi_id": "unitedstatespostalservice-a77078", "operator": "United States Postal Service", "operator:short": "USPS", "operator:type": "public", "operator:wikidata": "Q668687", "ref": "5430400026"}, "type": "Feature"}
{"geometry": {"coordinates": [-88.0605804, 44.495414], "type": "Point"}, "id": "iDAe6ZgfjHfW79PvOAl3O4J-4H8=", "properties": {"@spider": "usps_collection_boxes", "addr:city": "GREEN BAY", "addr:country": "US", "addr:full": "2099 S ONEIDA ST", "addr:postcode": "54304", "addr:state": "WI", "amenity": "post_box", "brand": "United States Postal Service", "brand:wikidata": "Q668687", "collection_times": "Mo-Sa 13:00", "name": "USPS COLLECTION BOX - BLUE BOX", "note": "ON 12/24 AND 12/31, THIS BOX MAY BE COLLECTED AS EARLY AS 12 NOON.", "nsi_id": "unitedstatespostalservice-a77078", "operator": "United States Postal Service", "operator:short": "USPS", "operator:type": "public", "operator:wikidata": "Q668687", "ref": "5430400027"}, "type": "Feature"}
{"geometry": {"coordinates": [-88.0405914846, 44.5070064538], "type": "Point"}, "id": "A-0nNvWwrrekQPG9Q8vyu_H2Gjw=", "properties": {"@spider": "usps_collection_boxes", "addr:city": "GREEN BAY", "addr:country": "US", "addr:full": "1224 12TH AVE", "addr:postcode": "54304", "addr:state": "WI", "amenity": "post_box", "brand": "United States Postal Service", "brand:wikidata": "Q668687", "collection_times": "Mo-Sa 12:00", "name": "USPS COLLECTION BOX - BLUE BOX", "nsi_id": "unitedstatespostalservice-a77078", "operator": "United States Postal Service", "operator:short": "USPS", "operator:type": "public", "operator:wikidata": "Q668687", "ref": "5430400033"}, "type": "Feature"}
{"geometry": {"coordinates": [-88.0884479, 44.509076], "type": "Point"}, "id": "0QEAcBZDG7YgqaWfO1sXFkLRsHA=", "properties": {"@spider": "usps_collection_boxes", "addr:city": "GREEN BAY", "addr:country": "US", "addr:full": "1551 PARK PL", "addr:postcode": "54304", "addr:state": "WI", "amenity": "post_box", "brand": "United States Postal Service", "brand:wikidata": "Q668687", "collection_times": "Mo-Fr 14:45; Sa 14:30", "name": "USPS COLLECTION BOX - BLUE BOX", "note": "ON 12/24 AND 12/31, THIS BOX MAY BE COLLECTED AS EARLY AS 12 NOON.", "nsi_id": "unitedstatespostalservice-a77078", "operator": "United States Postal Service", "operator:short": "USPS", "operator:type": "public", "operator:wikidata": "Q668687", "ref": "5430400036"}, "type": "Feature"}
{"geometry": {"coordinates": [-88.0884759, 44.509073], "type": "Point"}, "id": "X_WyrzlzJtgjyxDCzbySNRw9FFw=", "properties": {"@spider": "usps_collection_boxes", "addr:city": "GREEN BAY", "addr:country": "US", "addr:full": "1551 PARK PL", "addr:postcode": "54304", "addr:state": "WI", "amenity": "post_box", "brand": "United States Postal Service", "brand:wikidata": "Q668687", "collection_times": "Mo-Fr 14:45; Sa 14:30", "name": "USPS COLLECTION BOX - BLUE BOX", "note": "ON 12/24 AND 12/31, THIS BOX MAY BE COLLECTED AS EARLY AS 12 NOON.", "nsi_id": "unitedstatespostalservice-a77078", "operator": "United States Postal Service", "operator:short": "USPS", "operator:type": "public", "operator:wikidata": "Q668687", "ref": "5430400038"}, "type": "Feature"}
{"geometry": {"coordinates": [-88.0829491, 44.477903], "type": "Point"}, "id": "Nd5uNxDNlU7Ej8O4al9ch6VGNrI=", "properties": {"@spider": "usps_collection_boxes", "addr:city": "GREEN BAY", "addr:country": "US", "addr:full": "2777 S RIDGE RD", "addr:postcode": "54304", "addr:state": "WI", "amenity": "post_box", "brand": "United States Postal Service", "brand:wikidata": "Q668687", "collection_times": "Mo-Sa 10:30", "name": "USPS COLLECTION BOX - BLUE BOX", "nsi_id": "unitedstatespostalservice-a77078", "operator": "United States Postal Service", "operator:short": "USPS", "operator:type": "public", "operator:wikidata": "Q668687", "ref": "5430400045"}, "type": "Feature"}
{"geometry": {"coordinates": [-88.0709189, 44.474843], "type": "Point"}, "id": "gCcIbr-MGMiu5c73CWI1tKMgO9U=", "properties": {"@spider": "usps_collection_boxes", "addr:city": "GREEN BAY", "addr:country": "US", "addr:full": "790 HANSEN RD", "addr:postcode": "54304", "addr:state": "WI", "amenity": "post_box", "brand": "United States Postal Service", "brand:wikidata": "Q668687", "collection_times": "Mo-Fr 17:30; Sa 14:30", "name": "USPS COLLECTION BOX - BLUE BOX", "note": "ON 12/24 AND 12/31, THIS BOX MAY BE COLLECTED AS EARLY AS 12 NOON.", "nsi_id": "unitedstatespostalservice-a77078", "operator": "United States Postal Service", "operator:short": "USPS", "operator:type": "public", "operator:wikidata": "Q668687", "ref": "5430400054"}, "type": "Feature"}
{"geometry": {"coordinates": [-88.070482, 44.474587], "type": "Point"}, "id": "F8Fs3ahsDnClaKwlvUgNxFSuhE4=", "properties": {"@spider": "usps_collection_boxes", "addr:city": "GREEN BAY", "addr:country": "US", "addr:full": "790 HANSEN RD", "addr:postcode": "54304", "addr:state": "WI", "amenity": "post_box", "brand": "United States Postal Service", "brand:wikidata": "Q668687", "collection_times": "Mo-Fr 17:30; Sa 12:00", "name": "USPS COLLECTION BOX - PO LOBBY", "note": "ON 12/24 AND 12/31, THIS BOX MAY BE COLLECTED AS EARLY AS 12 NOON.", "nsi_id": "unitedstatespostalservice-a77078", "operator": "United States Postal Service", "operator:short": "USPS", "operator:type": "public", "operator:wikidata": "Q668687", "ref": "5430400061"}, "type": "Feature"}
{"geometry": {"coordinates": [-88.070482, 44.474587], "type": "Point"}, "id": "3hWnsYtcT9nyuoAWq9Luxj9DKoY=", "properties": {"@spider": "usps_collection_boxes", "addr:city": "GREEN BAY", "addr:country": "US", "addr:full": "790 HANSEN RD", "addr:postcode": "54304", "addr:state": "WI", "amenity": "post_box", "brand": "United States Postal Service", "brand:wikidata": "Q668687", "collection_times": "Mo-Fr 17:30; Sa 12:00", "name": "USPS COLLECTION BOX - PO LOBBY", "note": "ON 12/24 AND 12/31, THIS BOX MAY BE COLLECTED AS EARLY AS 12 NOON.", "nsi_id": "unitedstatespostalservice-a77078", "operator": "United States Postal Service", "operator:short": "USPS", "operator:type": "public", "operator:wikidata": "Q668687", "ref": "5430400062"}, "type": "Feature"}
{"geometry": {"coordinates": [-88.0834408, 44.480547], "type": "Point"}, "id": "We8Oxia_Ydpt6mdTkoX0_kUUYno=", "properties": {"@spider": "usps_collection_boxes", "addr:city": "GREEN BAY", "addr:country": "US", "addr:full": "1088 SPRINGHURST DR", "addr:postcode": "54304", "addr:state": "WI", "amenity": "post_box", "brand": "United States Postal Service", "brand:wikidata": "Q668687", "collection_times": "Mo-Fr 14:00", "name": "USPS COLLECTION BOX - BLUE BOX", "note": "ON 12/24 AND 12/31, THIS BOX MAY BE COLLECTED AS EARLY AS 12 NOON.", "nsi_id": "unitedstatespostalservice-a77078", "operator": "United States Postal Service", "operator:short": "USPS", "operator:type": "public", "operator:wikidata": "Q668687", "ref": "5430400068"}, "type": "Feature"}
{"geometry": {"coordinates": [-88.0610861677, 44.4952205563], "type": "Point"}, "id": "F5zAv7JpYsIJV0cpjnrR7OoOMas=", "properties": {"@spider": "usps_collection_boxes", "addr:city": "GREEN BAY", "addr:country": "US", "addr:full": "2099 S ONEIDA ST", "addr:postcode": "54304", "addr:state": "WI", "amenity": "post_box", "brand": "United States Postal Service", "brand:wikidata": "Q668687", "collection_times": "Mo-Fr 13:00; Sa 14:30", "name": "USPS COLLECTION BOX - BLUE BOX", "note": "ON 12/24 AND 12/31, THIS BOX MAY BE COLLECTED AS EARLY AS 12 NOON.", "nsi_id": "unitedstatespostalservice-a77078", "operator": "United States Postal Service", "operator:short": "USPS", "operator:type": "public", "operator:wikidata": "Q668687", "ref": "5430400075"}, "type": "Feature"}
{"geometry": {"coordinates": [-88.070812703, 44.474703703], "type": "Point"}, "id": "mlgzJK4XiuSeMYoyVq3ecz-Dkfo=", "properties": {"@spider": "usps_collection_boxes", "addr:city": "GREEN BAY", "addr:country": "US", "addr:full": "790 HANSEN RD", "addr:postcode": "54304", "addr:state": "WI", "amenity": "post_box", "brand": "United States Postal Service", "brand:wikidata": "Q668687", "collection_times": "Mo-Fr 17:30; Sa 12:00", "name": "USPS COLLECTION BOX - PO LOBBY", "note": "ON 12/24 AND 12/31, THIS BOX MAY BE COLLECTED AS EARLY AS 12 NOON.", "nsi_id": "unitedstatespostalservice-a77078", "operator": "United States Postal Service", "operator:short": "USPS", "operator:type": "public", "operator:wikidata": "Q668687", "ref": "5430400076"}, "type": "Feature"}
{"geometry": {"coordinates": [-87.9972334, 44.481167], "type": "Point"}, "id": "DMw9sv5-EpjOdqRhPn-zOJf4CUE=", "properties": {"@spider": "usps_collection_boxes", "addr:city": "GREEN BAY", "addr:country": "US", "addr:full": "1356 BELLEVUE ST", "addr:postcode": "54311", "addr:state": "WI", "amenity": "post_box", "brand": "United States Postal Service", "brand:wikidata": "Q668687", "collection_times": "Mo-Sa 11:00", "name": "USPS COLLECTION BOX - BLUE BOX", "nsi_id": "unitedstatespostalservice-a77078", "operator": "United States Postal Service", "operator:short": "USPS", "operator:type": "public", "operator:wikidata": "Q668687", "ref": "5431100002"}, "type": "Feature"}
{"geometry": {"coordinates": [-87.9513371, 44.479904], "type": "Point"}, "id": "L7QLLT9tclwbw3K6wrncOkIPgrg=", "properties": {"@spider": "usps_collection_boxes", "addr:city": "GREEN BAY", "addr:country": "US", "addr:full": "2828 ALLOUEZ AVE", "addr:postcode": "54311", "addr:state": "WI", "amenity": "post_box", "brand": "United States Postal Service", "brand:wikidata": "Q668687", "collection_times": "Mo-Fr 12:00", "name": "USPS COLLECTION BOX - BLUE BOX", "nsi_id": "unitedstatespostalservice-a77078", "operator": "United States Postal Service", "operator:short": "USPS", "operator:type": "public", "operator:wikidata": "Q668687", "ref": "5431100004"}, "type": "Feature"}
{"geometry": {"coordinates": [-87.9221954, 44.443563], "type": "Point"}, "id": "LiqRaeTTk62yO05U1j7WeYnpyuw=", "properties": {"@spider": "usps_collection_boxes", "addr:city": "GREEN BAY", "addr:country": "US", "addr:full": "3223 MAIN ST", "addr:postcode": "54311", "addr:state": "WI", "amenity": "post_box", "brand": "United States Postal Service", "brand:wikidata": "Q668687", "collection_times": "Mo-Fr 10:30", "name": "USPS COLLECTION BOX - BLUE BOX", "nsi_id": "unitedstatespostalservice-a77078", "operator": "United States Postal Service", "operator:short": "USPS", "operator:type": "public", "operator:wikidata": "Q668687", "ref": "5431100006"}, "type": "Feature"}
{"geometry": {"coordinates": [-88.00475798, 44.473942013], "type": "Point"}, "id": "1gNr_3-92OJG7teBCjSuD8g_I3U=", "properties": {"@spider": "usps_collection_boxes", "addr:city": "GREEN BAY", "addr:country": "US", "addr:full": "1595 ALLOUEZ AVE", "addr:postcode": "54311", "addr:state": "WI", "amenity": "post_box", "brand": "United States Postal Service", "brand:wikidata": "Q668687", "collection_times": "Mo-Sa 10:30", "name": "USPS COLLECTION BOX - BLUE BOX", "nsi_id": "unitedstatespostalservice-a77078", "operator": "United States Postal Service", "operator:short": "USPS", "operator:type": "public", "operator:wikidata": "Q668687", "ref": "5431100007"}, "type": "Feature"}
{"geometry": {"coordinates": [-87.9341265, 44.480612], "type": "Point"}, "id": "f2JMd_AdvxG35BBZW9m5-rxlp2w=", "properties": {"@spider": "usps_collection_boxes", "addr:city": "GREEN BAY", "addr:country": "US", "addr:full": "1015 CHALLENGER CT", "addr:postcode": "54311", "addr:state": "WI", "amenity": "post_box", "brand": "United States Postal Service", "brand:wikidata": "Q668687", "collection_times": "Mo-Sa 11:30", "name": "USPS COLLECTION BOX - BLUE BOX", "nsi_id": "unitedstatespostalservice-a77078", "operator": "United States Postal Service", "operator:short": "USPS", "operator:type": "public", "operator:wikidata": "Q668687", "ref": "5431100008"}, "type": "Feature"}
{"geometry": {"coordinates": [-87.9341419, 44.480616], "type": "Point"}, "id": "VlxK6lFL16vNOTsuoDIOUDLbcME=", "properties": {"@spider": "usps_collection_boxes", "addr:city": "GREEN BAY", "addr:country": "US", "addr:full": "1015 CHALLENGER CT", "addr:postcode": "54311", "addr:state": "WI", "amenity": "post_box", "brand": "United States Postal Service", "brand:wikidata": "Q668687", "collection_times": "Mo-Sa 11:30", "name": "USPS COLLECTION BOX - BLUE BOX", "nsi_id": "unitedstatespostalservice-a77078", "operator": "United States Postal Service", "operator:short": "USPS", "operator:type": "public", "operator:wikidata": "Q668687", "ref": "5431100009"}, "type": "Feature"}
{"geometry": {"coordinates": [-87.9569189, 44.46788], "type": "Point"}, "id": "dgkD7UNcHAZ5w1Ep5yNc40ftZqY=", "properties": {"@spider": "usps_collection_boxes", "addr:city": "GREEN BAY", "addr:country": "US", "addr:full": "2534 STEFFENS CT", "addr:postcode": "54311", "addr:state": "WI", "amenity": "post_box", "brand": "United States Postal Service", "brand:wikidata": "Q668687", "collection_times": "Mo-Fr 10:30", "name": "USPS COLLECTION BOX - BLUE BOX", "nsi_id": "unitedstatespostalservice-a77078", "operator": "United States Postal Service", "operator:short": "USPS", "operator:type": "public", "operator:wikidata": "Q668687", "ref": "5431100010"}, "type": "Feature"}
{"geometry": {"coordinates": [-87.9341274, 44.480622], "type": "Point"}, "id": "IfVm_ufJu508-ku2fd3aHX1nCd4=", "properties": {"@spider": "usps_collection_boxes", "addr:city": "GREEN BAY", "addr:country": "US", "addr:full": "1015 CHALLENGER CT", "addr:postcode": "54311", "addr:state": "WI", "amenity": "post_box", "brand": "United States Postal Service", "brand:wikidata": "Q668687", "collection_times": "Mo-Sa 11:30", "name": "USPS COLLECTION BOX - BLUE BOX", "nsi_id": "unitedstatespostalservice-a77078", "operator": "United States Postal Service", "operator:short": "USPS", "operator:type": "public", "operator:wikidata": "Q668687", "ref": "5431100014"}, "type": "Feature"}
{"geometry": {"coordinates": [-87.9341242, 44.480612], "type": "Point"}, "id": "oN14OAewHKJaCLyBymZViMnWswk=", "properties": {"@spider": "usps_collection_boxes", "addr:city": "GREEN BAY", "addr:country": "US", "addr:full": "1015 CHALLENGER CT", "addr:postcode": "54311", "addr:state": "WI", "amenity": "post_box", "brand": "United States Postal Service", "brand:wikidata": "Q668687", "collection_times": "Mo-Sa 11:30", "name": "USPS COLLECTION BOX - BLUE BOX", "nsi_id": "unitedstatespostalservice-a77078", "operator": "United States Postal Service", "operator:short": "USPS", "operator:type": "public", "operator:wikidata": "Q668687", "ref": "5431100015"}, "type": "Feature"}
{"geometry": {"coordinates": [-87.9842488, 44.464271], "type": "Point"}, "id": "LNUKSqOy24ONbvESWxddKsXzuZQ=", "properties": {"@spider": "usps_collection_boxes", "addr:city": "GREEN BAY", "addr:country": "US", "addr:full": "2042 LIME KILN RD", "addr:postcode": "54311", "addr:state": "WI", "amenity": "post_box", "brand": "United States Postal Service", "brand:wikidata": "Q668687", "collection_times": "Mo-Sa 11:30", "name": "USPS COLLECTION BOX - BLUE BOX", "nsi_id": "unitedstatespostalservice-a77078", "operator": "United States Postal Service", "operator:short": "USPS", "operator:type": "public", "operator:wikidata": "Q668687", "ref": "5431100020"}, "type": "Feature"}
{"geometry": {"coordinates": [-88.1241345, 44.49141], "type": "Point"}, "id": "CLEokYmVRbjt4jrklGFRE8nvgPw=", "properties": {"@spider": "usps_collection_boxes", "addr:city": "GREEN BAY", "addr:country": "US", "addr:full": "2077 AIRPORT DR", "addr:postcode": "54313", "addr:state": "WI", "amenity": "post_box", "brand": "United States Postal Service", "brand:wikidata": "Q668687", "collection_times": "Mo-Sa 10:00", "name": "USPS COLLECTION BOX - BLUE BOX", "nsi_id": "unitedstatespostalservice-a77078", "operator": "United States Postal Service", "operator:short": "USPS", "operator:type": "public", "operator:wikidata": "Q668687", "ref": "5431300000"}, "type": "Feature"}
{"geometry": {"coordinates": [-88.0975446, 44.493269], "type": "Point"}, "id": "avSPhUZetJUb1cWLcEvVHaG9mZc=", "properties": {"@spider": "usps_collection_boxes", "addr:city": "GREEN BAY", "addr:country": "US", "addr:full": "2486 BABCOCK RD", "addr:postcode": "54313", "addr:state": "WI", "amenity": "post_box", "brand": "United States Postal Service", "brand:wikidata": "Q668687", "collection_times": "Mo-Sa 11:00", "name": "USPS COLLECTION BOX - BLUE BOX", "nsi_id": "unitedstatespostalservice-a77078", "operator": "United States Postal Service", "operator:short": "USPS", "operator:type": "public", "operator:wikidata": "Q668687", "ref": "5431300001"}, "type": "Feature"}
{"geometry": {"coordinates": [-88.076521, 44.562198], "type": "Point"}, "id": "bmTyjeo0i0abM77UvOEpPrGkWpM=", "properties": {"@spider": "usps_collection_boxes", "addr:city": "GREEN BAY", "addr:country": "US", "addr:full": "2456 GLENDALE AVE", "addr:postcode": "54313", "addr:state": "WI", "amenity": "post_box", "brand": "United States Postal Service", "brand:wikidata": "Q668687", "collection_times": "Mo-Fr 14:00", "name": "USPS COLLECTION BOX - BLUE BOX", "note": "ON 12/24 AND 12/31, THIS BOX MAY BE COLLECTED AS EARLY AS 12 NOON.", "nsi_id": "unitedstatespostalservice-a77078", "operator": "United States Postal Service", "operator:short": "USPS", "operator:type": "public", "operator:wikidata": "Q668687", "ref": "5431300004"}, "type": "Feature"}
{"geometry": {"coordinates": [-88.1050699, 44.492988], "type": "Point"}, "id": "wYay1EJKdxdBWK72XBI-3lB7C8s=", "properties": {"@spider": "usps_collection_boxes", "addr:city": "GREEN BAY", "addr:country": "US", "addr:full": "2555 PACKERLAND DR", "addr:postcode": "54313", "addr:state": "WI", "amenity": "post_box", "brand": "United States Postal Service", "brand:wikidata": "Q668687", "collection_times": "Mo-Sa 10:00", "name": "USPS COLLECTION BOX - BLUE BOX", "nsi_id": "unitedstatespostalservice-a77078", "operator": "United States Postal Service", "operator:short": "USPS", "operator:type": "public", "operator:wikidata": "Q668687", "ref": "5431300005"}, "type": "Feature"}
{"geometry": {"coordinates": [-88.0802694, 44.589571], "type": "Point"}, "id": "okKYjT5RjgcZxjphyr8TlWPsWYY=", "properties": {"@spider": "usps_collection_boxes", "addr:city": "GREEN BAY", "addr:country": "US", "addr:full": "2465 LINEVILLE RD", "addr:postcode": "54313", "addr:state": "WI", "amenity": "post_box", "brand": "United States Postal Service", "brand:wikidata": "Q668687", "collection_times": "Mo-Sa 11:00", "name": "USPS COLLECTION BOX - BLUE BOX", "nsi_id": "unitedstatespostalservice-a77078", "operator": "United States Postal Service", "operator:short": "USPS", "operator:type": "public", "operator:wikidata": "Q668687", "ref": "5431300007"}, "type": "Feature"}
