{"geometry": {"coordinates": [-89.3834976, 45.635358], "type": "Point"}, "id": "Ngu9JHuZTfol1seunpvoglfY1u4=", "properties": {"@source_uri": "https://tools.usps.com/UspsToolsRestServices/rest/POLocator/findLocations", "@spider": "usps_collection_boxes", "addr:city": "RHINELANDER", "addr:country": "US", "addr:postcode": "54501", "addr:state": "WI", "addr:street_address": "2121 LINCOLN ST", "amenity": "post_box", "collection_times": "Mo-Sa 09:00", "nsi_id": "unitedstatespostalservice-a77078", "operator": "United States Postal Service", "operator:short": "USPS", "operator:type": "public", "operator:wikidata": "Q668687", "ref": "5450100001"}, "type": "Feature"}
{"geometry": {"coordinates": [-89.414126, 45.636308], "type": "Point"}, "id": "pt_kMvse5OlVp1DqGfFdltVa1YM=", "properties": {"@source_uri": "https://tools.usps.com/UspsToolsRestServices/rest/POLocator/findLocations", "@spider": "usps_collection_boxes", "addr:city": "RHINELANDER", "addr:country": "US", "addr:postcode": "54501", "addr:state": "WI", "addr:street_address": "156 S COURTNEY ST", "amenity": "post_box", "collection_times": "Mo-Sa 17:30", "note": "ON 12/24 AND 12/31, THIS BOX MAY BE COLLECTED AS EARLY AS 12 NOON.", "nsi_id": "unitedstatespostalservice-a77078", "operator": "United States Postal Service", "operator:short": "USPS", "operator:type": "public", "operator:wikidata": "Q668687", "ref": "5450100010"}, "type": "Feature"}
{"geometry": {"coordinates": [-89.4128603, 45.637868], "type": "Point"}, "id": "IS7ftUBPLyPc2B0IDstOZfh5KXI=", "properties": {"@source_uri": "https://tools.usps.com/UspsToolsRestServices/rest/POLocator/findLocations", "@spider": "usps_collection_boxes", "addr:city": "RHINELANDER", "addr:country": "US", "addr:postcode": "54501", "addr:state": "WI", "addr:street_address": "7 N BROWN ST", "amenity": "post_box", "collection_times": "Mo-Sa 15:00", "note": "ON 12/24 AND 12/31, THIS BOX MAY BE COLLECTED AS EARLY AS 12 NOON.", "nsi_id": "unitedstatespostalservice-a77078", "operator": "United States Postal Service", "operator:short": "USPS", "operator:type": "public", "operator:wikidata": "Q668687", "ref": "5450100020"}, "type": "Feature"}
{"geometry": {"coordinates": [-89.4084309, 45.63771], "type": "Point"}, "id": "l-hlmJWDD5i_hgv0ugpLPc96Uss=", "properties": {"@source_uri": "https://tools.usps.com/UspsToolsRestServices/rest/POLocator/findLocations", "@spider": "usps_collection_boxes", "addr:city": "RHINELANDER", "addr:country": "US", "addr:postcode": "54501", "addr:state": "WI", "addr:street_address": "1 S ONEIDA AVE", "amenity": "post_box", "collection_times": "Mo-Sa 15:00", "note": "ON 12/24 AND 12/31, THIS BOX MAY BE COLLECTED AS EARLY AS 12 NOON.", "nsi_id": "unitedstatespostalservice-a77078", "operator": "United States Postal Service", "operator:short": "USPS", "operator:type": "public", "operator:wikidata": "Q668687", "ref": "5450100023"}, "type": "Feature"}
{"geometry": {"coordinates": [-89.414126, 45.636308], "type": "Point"}, "id": "mgAGez0buhZsXuku1poYiOGGOaY=", "properties": {"@source_uri": "https://tools.usps.com/UspsToolsRestServices/rest/POLocator/findLocations", "@spider": "usps_collection_boxes", "addr:city": "RHINELANDER", "addr:country": "US", "addr:postcode": "54501", "addr:state": "WI", "addr:street_address": "156 S COURTNEY ST", "amenity": "post_box", "collection_times": "Mo-Sa 17:30", "indoor": "yes", "note": "ON 12/24 AND 12/31, THIS BOX MAY BE COLLECTED AS EARLY AS 12 NOON.", "nsi_id": "unitedstatespostalservice-a77078", "operator": "United States Postal Service", "operator:short": "USPS", "operator:type": "public", "operator:wikidata": "Q668687", "ref": "5450100028"}, "type": "Feature"}
{"geometry": {"coordinates": [-89.414126, 45.636308], "type": "Point"}, "id": "LnH93A68ckNFksUQwiKLyhlLozY=", "properties": {"@source_uri": "https://tools.usps.com/UspsToolsRestServices/rest/POLocator/findLocations", "@spider": "usps_collection_boxes", "addr:city": "RHINELANDER", "addr:country": "US", "addr:postcode": "54501", "addr:state": "WI", "addr:street_address": "156 S COURTNEY ST", "amenity": "post_box", "collection_times": "Mo-Sa 17:30", "name": "USPS COLLECTION BOX - APC", "note": "ON 12/24 AND 12/31, THIS BOX MAY BE COLLECTED AS EARLY AS 12 NOON.", "nsi_id": "unitedstatespostalservice-a77078", "operator": "United States Postal Service", "operator:short": "USPS", "operator:type": "public", "operator:wikidata": "Q668687", "ref": "5450100030"}, "type": "Feature"}
{"geometry": {"coordinates": [-89.408984, 45.633319], "type": "Point"}, "id": "iD5DtVZYOvowVTAgBm7AuYAzlMI=", "properties": {"@source_uri": "https://tools.usps.com/UspsToolsRestServices/rest/POLocator/findLocations", "@spider": "usps_collection_boxes", "addr:city": "RHINELANDER", "addr:country": "US", "addr:postcode": "54501", "addr:state": "WI", "addr:street_address": "255 E COURTNEY ST", "amenity": "post_box", "collection_times": "Mo-Sa 14:00", "note": "ON 12/24 AND 12/31, THIS BOX MAY BE COLLECTED AS EARLY AS 12 NOON.", "nsi_id": "unitedstatespostalservice-a77078", "operator": "United States Postal Service", "operator:short": "USPS", "operator:type": "public", "operator:wikidata": "Q668687", "ref": "5450100031"}, "type": "Feature"}
{"geometry": {"coordinates": [-89.414167176, 45.636354881], "type": "Point"}, "id": "FwY_jLkV-lZW8Hy769ZkWRm6CSk=", "properties": {"@source_uri": "https://tools.usps.com/UspsToolsRestServices/rest/POLocator/findLocations", "@spider": "usps_collection_boxes", "addr:city": "RHINELANDER", "addr:country": "US", "addr:postcode": "54501", "addr:state": "WI", "addr:street_address": "156 S COURTNEY ST", "amenity": "post_box", "collection_times": "Mo-Sa 17:30", "indoor": "yes", "note": "ON 12/24 AND 12/31, THIS BOX MAY BE COLLECTED AS EARLY AS 12 NOON.", "nsi_id": "unitedstatespostalservice-a77078", "operator": "United States Postal Service", "operator:short": "USPS", "operator:type": "public", "operator:wikidata": "Q668687", "ref": "5450100032"}, "type": "Feature"}
{"geometry": {"coordinates": [-88.882758, 45.658636], "type": "Point"}, "id": "X2hQ-7pzC0lQIQc350WgTRovIkM=", "properties": {"@source_uri": "https://tools.usps.com/UspsToolsRestServices/rest/POLocator/findLocations", "@spider": "usps_collection_boxes", "addr:city": "ARGONNE", "addr:country": "US", "addr:postcode": "54511", "addr:state": "WI", "addr:street_address": "7894 STATE HIGHWAY 32 55", "amenity": "post_box", "collection_times": "Mo-Fr 16:30; Sa 12:00", "note": "ON 12/24 AND 12/31, THIS BOX MAY BE COLLECTED AS EARLY AS 12 NOON.", "nsi_id": "unitedstatespostalservice-a77078", "operator": "United States Postal Service", "operator:short": "USPS", "operator:type": "public", "operator:wikidata": "Q668687", "ref": "5451100000"}, "type": "Feature"}
{"geometry": {"coordinates": [-88.882758, 45.658636], "type": "Point"}, "id": "J9WnTSi2ZGNkw5ED7C04iTMOHbQ=", "properties": {"@source_uri": "https://tools.usps.com/UspsToolsRestServices/rest/POLocator/findLocations", "@spider": "usps_collection_boxes", "addr:city": "ARGONNE", "addr:country": "US", "addr:postcode": "54511", "addr:state": "WI", "addr:street_address": "7894 STATE HIGHWAY 32 55", "amenity": "post_box", "collection_times": "Mo-Fr 16:30; Sa 12:00", "indoor": "yes", "note": "ON 12/24 AND 12/31, THIS BOX MAY BE COLLECTED AS EARLY AS 12 NOON.", "nsi_id": "unitedstatespostalservice-a77078", "operator": "United States Postal Service", "operator:short": "USPS", "operator:type": "public", "operator:wikidata": "Q668687", "ref": "5451100002"}, "type": "Feature"}
{"geometry": {"coordinates": [-88.882764688, 45.658630394], "type": "Point"}, "id": "HhgNOkEgOm1KqQXzKE7ck8U67ak=", "properties": {"@source_uri": "https://tools.usps.com/UspsToolsRestServices/rest/POLocator/findLocations", "@spider": "usps_collection_boxes", "addr:city": "ARGONNE", "addr:country": "US", "addr:postcode": "54511", "addr:state": "WI", "addr:street_address": "7894 STATE HIGHWAY 32 55", "amenity": "post_box", "collection_times": "Mo-Fr 12:15; Sa 10:30", "indoor": "yes", "note": "ON 12/24 AND 12/31, THIS BOX MAY BE COLLECTED AS EARLY AS 12 NOON.", "nsi_id": "unitedstatespostalservice-a77078", "operator": "United States Postal Service", "operator:short": "USPS", "operator:type": "public", "operator:wikidata": "Q668687", "ref": "5451100003"}, "type": "Feature"}
{"geometry": {"coordinates": [-89.640432, 46.111636], "type": "Point"}, "id": "40lC32m9-ATA05HfQNfr98bOAZI=", "properties": {"@source_uri": "https://tools.usps.com/UspsToolsRestServices/rest/POLocator/findLocations", "@spider": "usps_collection_boxes", "addr:city": "BOULDER JCT", "addr:country": "US", "addr:postcode": "54512", "addr:state": "WI", "addr:street_address": "10328 MAIN ST", "amenity": "post_box", "collection_times": "Mo-Fr 15:30; Sa 10:30", "note": "ON 12/24 AND 12/31, THIS BOX MAY BE COLLECTED AS EARLY AS 12 NOON.", "nsi_id": "unitedstatespostalservice-a77078", "operator": "United States Postal Service", "operator:short": "USPS", "operator:type": "public", "operator:wikidata": "Q668687", "ref": "5451200000"}, "type": "Feature"}
{"geometry": {"coordinates": [-89.640567, 46.111648], "type": "Point"}, "id": "Fx7bTOzQN35sb-tn_fcvtVXfsFI=", "properties": {"@source_uri": "https://tools.usps.com/UspsToolsRestServices/rest/POLocator/findLocations", "@spider": "usps_collection_boxes", "addr:city": "BOULDER JCT", "addr:country": "US", "addr:postcode": "54512", "addr:state": "WI", "addr:street_address": "10328 MAIN ST", "amenity": "post_box", "collection_times": "Mo-Fr 15:30; Sa 10:30", "indoor": "yes", "note": "ON 12/24 AND 12/31, THIS BOX MAY BE COLLECTED AS EARLY AS 12 NOON.", "nsi_id": "unitedstatespostalservice-a77078", "operator": "United States Postal Service", "operator:short": "USPS", "operator:type": "public", "operator:wikidata": "Q668687", "ref": "5451200001"}, "type": "Feature"}
{"geometry": {"coordinates": [-89.639824811, 46.111455878], "type": "Point"}, "id": "ORW3fHEIMd13ScvmxE7VDDOqy9A=", "properties": {"@source_uri": "https://tools.usps.com/UspsToolsRestServices/rest/POLocator/findLocations", "@spider": "usps_collection_boxes", "addr:city": "BOULDER JCT", "addr:country": "US", "addr:postcode": "54512", "addr:state": "WI", "addr:street_address": "10328 MAIN ST", "amenity": "post_box", "collection_times": "Mo-Fr 15:30; Sa 10:30", "indoor": "yes", "note": "ON 12/24 AND 12/31, THIS BOX MAY BE COLLECTED AS EARLY AS 12 NOON.", "nsi_id": "unitedstatespostalservice-a77078", "operator": "United States Postal Service", "operator:short": "USPS", "operator:type": "public", "operator:wikidata": "Q668687", "ref": "5451200002"}, "type": "Feature"}
{"geometry": {"coordinates": [-90.115873, 45.553622], "type": "Point"}, "id": "2dxlj_IAnI9cH5CnNHWkgjw6A8g=", "properties": {"@source_uri": "https://tools.usps.com/UspsToolsRestServices/rest/POLocator/findLocations", "@spider": "usps_collection_boxes", "addr:city": "BRANTWOOD", "addr:country": "US", "addr:postcode": "54513", "addr:state": "WI", "addr:street_address": "W1511 US HIGHWAY 8", "amenity": "post_box", "collection_times": "Mo-Fr 11:45; Sa 10:00", "nsi_id": "unitedstatespostalservice-a77078", "operator": "United States Postal Service", "operator:short": "USPS", "operator:type": "public", "operator:wikidata": "Q668687", "ref": "5451300000"}, "type": "Feature"}
{"geometry": {"coordinates": [-90.115757, 45.553649], "type": "Point"}, "id": "K90gAXVWJHn_8qFJGnstIfoAQqs=", "properties": {"@source_uri": "https://tools.usps.com/UspsToolsRestServices/rest/POLocator/findLocations", "@spider": "usps_collection_boxes", "addr:city": "BRANTWOOD", "addr:country": "US", "addr:postcode": "54513", "addr:state": "WI", "addr:street_address": "W1511 US HIGHWAY 8", "amenity": "post_box", "collection_times": "Mo-Fr 11:45; Sa 09:30", "indoor": "yes", "nsi_id": "unitedstatespostalservice-a77078", "operator": "United States Postal Service", "operator:short": "USPS", "operator:type": "public", "operator:wikidata": "Q668687", "ref": "5451300001"}, "type": "Feature"}
{"geometry": {"coordinates": [-90.116162749, 45.553607532], "type": "Point"}, "id": "8lLpdljhHr6joFdtOUyDTaW4A_I=", "properties": {"@source_uri": "https://tools.usps.com/UspsToolsRestServices/rest/POLocator/findLocations", "@spider": "usps_collection_boxes", "addr:city": "BRANTWOOD", "addr:country": "US", "addr:postcode": "54513", "addr:state": "WI", "addr:street_address": "W1511 US HIGHWAY 8", "amenity": "post_box", "collection_times": "Mo-Fr 11:45; Sa 09:30", "indoor": "yes", "nsi_id": "unitedstatespostalservice-a77078", "operator": "United States Postal Service", "operator:short": "USPS", "operator:type": "public", "operator:wikidata": "Q668687", "ref": "5451300002"}, "type": "Feature"}
{"geometry": {"coordinates": [-90.492608, 46.013536], "type": "Point"}, "id": "Yn4h8kGvu_TS11OraoA72fMNo5Q=", "properties": {"@source_uri": "https://tools.usps.com/UspsToolsRestServices/rest/POLocator/findLocations", "@spider": "usps_collection_boxes", "addr:city": "BUTTERNUT", "addr:country": "US", "addr:postcode": "54514", "addr:state": "WI", "addr:street_address": "101 E MAIN ST", "amenity": "post_box", "collection_times": "Mo-Fr 15:30; Sa 09:00", "note": "ON 12/24 AND 12/31, THIS BOX MAY BE COLLECTED AS EARLY AS 12 NOON.", "nsi_id": "unitedstatespostalservice-a77078", "operator": "United States Postal Service", "operator:short": "USPS", "operator:type": "public", "operator:wikidata": "Q668687", "ref": "5451400000"}, "type": "Feature"}
{"geometry": {"coordinates": [-90.4923198, 46.013329], "type": "Point"}, "id": "x1SdmanNHklAUe4oIysBRZvwh_s=", "properties": {"@source_uri": "https://tools.usps.com/UspsToolsRestServices/rest/POLocator/findLocations", "@spider": "usps_collection_boxes", "addr:city": "BUTTERNUT", "addr:country": "US", "addr:postcode": "54514", "addr:state": "WI", "addr:street_address": "101 E MAIN ST", "amenity": "post_box", "collection_times": "Mo-Fr 15:30; Sa 09:00", "indoor": "yes", "note": "ON 12/24 AND 12/31, THIS BOX MAY BE COLLECTED AS EARLY AS 12 NOON.", "nsi_id": "unitedstatespostalservice-a77078", "operator": "United States Postal Service", "operator:short": "USPS", "operator:type": "public", "operator:wikidata": "Q668687", "ref": "5451400001"}, "type": "Feature"}
{"geometry": {"coordinates": [-90.492532908, 46.013357535], "type": "Point"}, "id": "rjI0LtMUy9P7RW5xZ5ouSEGmqqk=", "properties": {"@source_uri": "https://tools.usps.com/UspsToolsRestServices/rest/POLocator/findLocations", "@spider": "usps_collection_boxes", "addr:city": "BUTTERNUT", "addr:country": "US", "addr:postcode": "54514", "addr:state": "WI", "addr:street_address": "101 E MAIN ST", "amenity": "post_box", "collection_times": "Mo-Fr 15:45; Sa 09:15", "indoor": "yes", "note": "ON 12/24 AND 12/31, THIS BOX MAY BE COLLECTED AS EARLY AS 12 NOON.", "nsi_id": "unitedstatespostalservice-a77078", "operator": "United States Postal Service", "operator:short": "USPS", "operator:type": "public", "operator:wikidata": "Q668687", "ref": "5451400002"}, "type": "Feature"}
{"geometry": {"coordinates": [-90.921397, 46.148463], "type": "Point"}, "id": "Uvi5dp7NTtu5uAVJPdPpbRSeGkE=", "properties": {"@source_uri": "https://tools.usps.com/UspsToolsRestServices/rest/POLocator/findLocations", "@spider": "usps_collection_boxes", "addr:city": "CLAM LAKE", "addr:country": "US", "addr:postcode": "54517", "addr:state": "WI", "addr:street_address": "60967 STATE HIGHWAY 77", "amenity": "post_box", "collection_times": "Mo-Sa 10:45", "nsi_id": "unitedstatespostalservice-a77078", "operator": "United States Postal Service", "operator:short": "USPS", "operator:type": "public", "operator:wikidata": "Q668687", "ref": "5451700000"}, "type": "Feature"}
{"geometry": {"coordinates": [-90.904329, 46.164364], "type": "Point"}, "id": "1x4QqeAZInY5VPACJRDMpVOwEeA=", "properties": {"@source_uri": "https://tools.usps.com/UspsToolsRestServices/rest/POLocator/findLocations", "@spider": "usps_collection_boxes", "addr:city": "CLAM LAKE", "addr:country": "US", "addr:postcode": "54517", "addr:state": "WI", "addr:street_address": "60967 STATE HIGHWAY 77", "amenity": "post_box", "collection_times": "Mo-Sa 10:45", "indoor": "yes", "nsi_id": "unitedstatespostalservice-a77078", "operator": "United States Postal Service", "operator:short": "USPS", "operator:type": "public", "operator:wikidata": "Q668687", "ref": "5451700001"}, "type": "Feature"}
{"geometry": {"coordinates": [-90.904365664, 46.16431927], "type": "Point"}, "id": "q-58F_OkoXtuci1HOg6RQPvA0QU=", "properties": {"@source_uri": "https://tools.usps.com/UspsToolsRestServices/rest/POLocator/findLocations", "@spider": "usps_collection_boxes", "addr:city": "CLAM LAKE", "addr:country": "US", "addr:postcode": "54517", "addr:state": "WI", "addr:street_address": "60967 STATE HIGHWAY 77", "amenity": "post_box", "collection_times": "Mo-Sa 10:45", "indoor": "yes", "nsi_id": "unitedstatespostalservice-a77078", "operator": "United States Postal Service", "operator:short": "USPS", "operator:type": "public", "operator:wikidata": "Q668687", "ref": "5451700002"}, "type": "Feature"}
{"geometry": {"coordinates": [-89.25116, 46.051077], "type": "Point"}, "id": "o5EymASyTw8RbKaIo4j_O7J9vD0=", "properties": {"@source_uri": "https://tools.usps.com/UspsToolsRestServices/rest/POLocator/findLocations", "@spider": "usps_collection_boxes", "addr:city": "CONOVER", "addr:country": "US", "addr:postcode": "54519", "addr:state": "WI", "addr:street_address": "4665 COUNTY ROAD K E", "amenity": "post_box", "collection_times": "Mo-Fr 16:00; Sa 11:00", "note": "ON 12/24 AND 12/31, THIS BOX MAY BE COLLECTED AS EARLY AS 12 NOON.", "nsi_id": "unitedstatespostalservice-a77078", "operator": "United States Postal Service", "operator:short": "USPS", "operator:type": "public", "operator:wikidata": "Q668687", "ref": "5451900000"}, "type": "Feature"}
{"geometry": {"coordinates": [-89.25116, 46.051077], "type": "Point"}, "id": "w85nYbczMymHqpd0L-3A9KxhLfI=", "properties": {"@source_uri": "https://tools.usps.com/UspsToolsRestServices/rest/POLocator/findLocations", "@spider": "usps_collection_boxes", "addr:city": "CONOVER", "addr:country": "US", "addr:postcode": "54519", "addr:state": "WI", "addr:street_address": "4665 COUNTY ROAD K E", "amenity": "post_box", "collection_times": "Mo-Fr 15:45; Sa 10:45", "indoor": "yes", "note": "ON 12/24 AND 12/31, THIS BOX MAY BE COLLECTED AS EARLY AS 12 NOON.", "nsi_id": "unitedstatespostalservice-a77078", "operator": "United States Postal Service", "operator:short": "USPS", "operator:type": "public", "operator:wikidata": "Q668687", "ref": "5451900002"}, "type": "Feature"}
{"geometry": {"coordinates": [-89.25116, 46.051077], "type": "Point"}, "id": "S6yqhu4Cd1tldRyjnx672yRCAtQ=", "properties": {"@source_uri": "https://tools.usps.com/UspsToolsRestServices/rest/POLocator/findLocations", "@spider": "usps_collection_boxes", "addr:city": "CONOVER", "addr:country": "US", "addr:postcode": "54519", "addr:state": "WI", "addr:street_address": "4665 COUNTY ROAD K E", "amenity": "post_box", "collection_times": "Mo-Fr 15:45; Sa 10:45", "indoor": "yes", "note": "ON 12/24 AND 12/31, THIS BOX MAY BE COLLECTED AS EARLY AS 12 NOON.", "nsi_id": "unitedstatespostalservice-a77078", "operator": "United States Postal Service", "operator:short": "USPS", "operator:type": "public", "operator:wikidata": "Q668687", "ref": "5451900003"}, "type": "Feature"}
{"geometry": {"coordinates": [-89.250600861, 46.051072495], "type": "Point"}, "id": "UeGnYF4XjJfmMGoMhPxzMYELC5I=", "properties": {"@source_uri": "https://tools.usps.com/UspsToolsRestServices/rest/POLocator/findLocations", "@spider": "usps_collection_boxes", "addr:city": "CONOVER", "addr:country": "US", "addr:postcode": "54519", "addr:state": "WI", "addr:street_address": "4665 COUNTY ROAD K E", "amenity": "post_box", "collection_times": "Mo-Fr 15:45; Sa 10:45", "indoor": "yes", "note": "ON 12/24 AND 12/31, THIS BOX MAY BE COLLECTED AS EARLY AS 12 NOON.", "nsi_id": "unitedstatespostalservice-a77078", "operator": "United States Postal Service", "operator:short": "USPS", "operator:type": "public", "operator:wikidata": "Q668687", "ref": "5451900004"}, "type": "Feature"}
{"geometry": {"coordinates": [-88.904171, 45.570101], "type": "Point"}, "id": "UMtxdTE0Fy95otJBVATo_rwJOMU=", "properties": {"@source_uri": "https://tools.usps.com/UspsToolsRestServices/rest/POLocator/findLocations", "@spider": "usps_collection_boxes", "addr:city": "CRANDON", "addr:country": "US", "addr:postcode": "54520", "addr:state": "WI", "addr:street_address": "111 W WASHINGTON ST", "amenity": "post_box", "collection_times": "Mo-Fr 16:30; Sa 11:30", "note": "ON 12/24 AND 12/31, THIS BOX MAY BE COLLECTED AS EARLY AS 12 NOON.", "nsi_id": "unitedstatespostalservice-a77078", "operator": "United States Postal Service", "operator:short": "USPS", "operator:type": "public", "operator:wikidata": "Q668687", "ref": "5452000001"}, "type": "Feature"}
{"geometry": {"coordinates": [-88.904171, 45.570101], "type": "Point"}, "id": "7kh0_MjUGzocTEfq3nZ9F8jMZY4=", "properties": {"@source_uri": "https://tools.usps.com/UspsToolsRestServices/rest/POLocator/findLocations", "@spider": "usps_collection_boxes", "addr:city": "CRANDON", "addr:country": "US", "addr:postcode": "54520", "addr:state": "WI", "addr:street_address": "111 W WASHINGTON ST", "amenity": "post_box", "collection_times": "Mo-Fr 16:30; Sa 11:30", "indoor": "yes", "note": "ON 12/24 AND 12/31, THIS BOX MAY BE COLLECTED AS EARLY AS 12 NOON.", "nsi_id": "unitedstatespostalservice-a77078", "operator": "United States Postal Service", "operator:short": "USPS", "operator:type": "public", "operator:wikidata": "Q668687", "ref": "5452000005"}, "type": "Feature"}
{"geometry": {"coordinates": [-88.896139, 45.564243], "type": "Point"}, "id": "9XNFHGv4i1hqeo8MCjs5uQ7uGgs=", "properties": {"@source_uri": "https://tools.usps.com/UspsToolsRestServices/rest/POLocator/findLocations", "@spider": "usps_collection_boxes", "addr:city": "CRANDON", "addr:country": "US", "addr:postcode": "54520", "addr:state": "WI", "addr:street_address": "600 E PIONEER ST", "amenity": "post_box", "collection_times": "Mo-Sa 13:00", "note": "ON 12/24 AND 12/31, THIS BOX MAY BE COLLECTED AS EARLY AS 12 NOON.", "nsi_id": "unitedstatespostalservice-a77078", "operator": "United States Postal Service", "operator:short": "USPS", "operator:type": "public", "operator:wikidata": "Q668687", "ref": "5452000006"}, "type": "Feature"}
{"geometry": {"coordinates": [-88.904170362, 45.570097521], "type": "Point"}, "id": "cND429Zwv0pSsNql9PiqmQEEonw=", "properties": {"@source_uri": "https://tools.usps.com/UspsToolsRestServices/rest/POLocator/findLocations", "@spider": "usps_collection_boxes", "addr:city": "CRANDON", "addr:country": "US", "addr:postcode": "54520", "addr:state": "WI", "addr:street_address": "111 W WASHINGTON ST", "amenity": "post_box", "collection_times": "Mo-Fr 16:30; Sa 11:30", "indoor": "yes", "note": "ON 12/24 AND 12/31, THIS BOX MAY BE COLLECTED AS EARLY AS 12 NOON.", "nsi_id": "unitedstatespostalservice-a77078", "operator": "United States Postal Service", "operator:short": "USPS", "operator:type": "public", "operator:wikidata": "Q668687", "ref": "5452000007"}, "type": "Feature"}
{"geometry": {"coordinates": [-89.247768, 45.915309], "type": "Point"}, "id": "vkxMMch-jB9bJw8Tj7vZwx5P4HM=", "properties": {"@source_uri": "https://tools.usps.com/UspsToolsRestServices/rest/POLocator/findLocations", "@spider": "usps_collection_boxes", "addr:city": "EAGLE RIVER", "addr:country": "US", "addr:postcode": "54521", "addr:state": "WI", "addr:street_address": "401 E WALL ST", "amenity": "post_box", "collection_times": "Mo-Sa 17:00", "note": "ON 12/24 AND 12/31, THIS BOX MAY BE COLLECTED AS EARLY AS 12 NOON.", "nsi_id": "unitedstatespostalservice-a77078", "operator": "United States Postal Service", "operator:short": "USPS", "operator:type": "public", "operator:wikidata": "Q668687", "ref": "5452100000"}, "type": "Feature"}
{"geometry": {"coordinates": [-89.247899, 45.915287], "type": "Point"}, "id": "tny6zqk-GLwqn4O1qFk9WbNRsG0=", "properties": {"@source_uri": "https://tools.usps.com/UspsToolsRestServices/rest/POLocator/findLocations", "@spider": "usps_collection_boxes", "addr:city": "EAGLE RIVER", "addr:country": "US", "addr:postcode": "54521", "addr:state": "WI", "addr:street_address": "401 E WALL ST", "amenity": "post_box", "collection_times": "Mo-Sa 17:00", "note": "ON 12/24 AND 12/31, THIS BOX MAY BE COLLECTED AS EARLY AS 12 NOON.", "nsi_id": "unitedstatespostalservice-a77078", "operator": "United States Postal Service", "operator:short": "USPS", "operator:type": "public", "operator:wikidata": "Q668687", "ref": "5452100001"}, "type": "Feature"}
{"geometry": {"coordinates": [-89.2546021, 45.925099], "type": "Point"}, "id": "D_KCRttCg0WxpzTARuX6-8HCh60=", "properties": {"@source_uri": "https://tools.usps.com/UspsToolsRestServices/rest/POLocator/findLocations", "@spider": "usps_collection_boxes", "addr:city": "EAGLE RIVER", "addr:country": "US", "addr:postcode": "54521", "addr:state": "WI", "addr:street_address": "711 US HIGHWAY 45 N", "amenity": "post_box", "collection_times": "Mo-Sa 12:30", "note": "ON 12/24 AND 12/31, THIS BOX MAY BE COLLECTED AS EARLY AS 12 NOON.", "nsi_id": "unitedstatespostalservice-a77078", "operator": "United States Postal Service", "operator:short": "USPS", "operator:type": "public", "operator:wikidata": "Q668687", "ref": "5452100004"}, "type": "Feature"}
{"geometry": {"coordinates": [-89.247899, 45.915287], "type": "Point"}, "id": "uMucAaWjdvUBH7D4f8o_K3lrk1M=", "properties": {"@source_uri": "https://tools.usps.com/UspsToolsRestServices/rest/POLocator/findLocations", "@spider": "usps_collection_boxes", "addr:city": "EAGLE RIVER", "addr:country": "US", "addr:postcode": "54521", "addr:state": "WI", "addr:street_address": "401 E WALL ST", "amenity": "post_box", "collection_times": "Mo-Sa 17:00", "indoor": "yes", "note": "ON 12/24 AND 12/31, THIS BOX MAY BE COLLECTED AS EARLY AS 12 NOON.", "nsi_id": "unitedstatespostalservice-a77078", "operator": "United States Postal Service", "operator:short": "USPS", "operator:type": "public", "operator:wikidata": "Q668687", "ref": "5452100008"}, "type": "Feature"}
{"geometry": {"coordinates": [-89.247493195, 45.915313472], "type": "Point"}, "id": "hk53BPgYOTsWgBMkmY7Vajw6oAg=", "properties": {"@source_uri": "https://tools.usps.com/UspsToolsRestServices/rest/POLocator/findLocations", "@spider": "usps_collection_boxes", "addr:city": "EAGLE RIVER", "addr:country": "US", "addr:postcode": "54521", "addr:state": "WI", "addr:street_address": "401 E WALL ST", "amenity": "post_box", "collection_times": "Mo-Sa 17:00", "indoor": "yes", "note": "ON 12/24 AND 12/31, THIS BOX MAY BE COLLECTED AS EARLY AS 12 NOON.", "nsi_id": "unitedstatespostalservice-a77078", "operator": "United States Postal Service", "operator:short": "USPS", "operator:type": "public", "operator:wikidata": "Q668687", "ref": "5452100009"}, "type": "Feature"}
{"geometry": {"coordinates": [-90.421463, 45.877777], "type": "Point"}, "id": "oThPzo2tK5Qtmxd36rNK1KoWHvE=", "properties": {"@source_uri": "https://tools.usps.com/UspsToolsRestServices/rest/POLocator/findLocations", "@spider": "usps_collection_boxes", "addr:city": "FIFIELD", "addr:country": "US", "addr:postcode": "54524", "addr:state": "WI", "addr:street_address": "N14007 FLAMBEAU AVE", "amenity": "post_box", "collection_times": "Mo-Fr 12:45; Sa 09:45", "note": "ON 12/24 AND 12/31, THIS BOX MAY BE COLLECTED AS EARLY AS 12 NOON.", "nsi_id": "unitedstatespostalservice-a77078", "operator": "United States Postal Service", "operator:short": "USPS", "operator:type": "public", "operator:wikidata": "Q668687", "ref": "5452400000"}, "type": "Feature"}
{"geometry": {"coordinates": [-90.421441, 45.877697], "type": "Point"}, "id": "DGjhqaK0FBnzdUs6ApatOeAlTXA=", "properties": {"@source_uri": "https://tools.usps.com/UspsToolsRestServices/rest/POLocator/findLocations", "@spider": "usps_collection_boxes", "addr:city": "FIFIELD", "addr:country": "US", "addr:postcode": "54524", "addr:state": "WI", "addr:street_address": "N14007 FLAMBEAU AVE", "amenity": "post_box", "collection_times": "Mo-Fr 13:00; Sa 10:00", "indoor": "yes", "note": "ON 12/24 AND 12/31, THIS BOX MAY BE COLLECTED AS EARLY AS 12 NOON.", "nsi_id": "unitedstatespostalservice-a77078", "operator": "United States Postal Service", "operator:short": "USPS", "operator:type": "public", "operator:wikidata": "Q668687", "ref": "5452400001"}, "type": "Feature"}
{"geometry": {"coordinates": [-90.421222, 45.878458], "type": "Point"}, "id": "TJEh7x9T5LDVoN8ilXl9rtA0utE=", "properties": {"@source_uri": "https://tools.usps.com/UspsToolsRestServices/rest/POLocator/findLocations", "@spider": "usps_collection_boxes", "addr:city": "FIFIELD", "addr:country": "US", "addr:postcode": "54524", "addr:state": "WI", "addr:street_address": "N14030 FLAMBEAU AVE", "amenity": "post_box", "collection_times": "Mo-Sa 10:00", "nsi_id": "unitedstatespostalservice-a77078", "operator": "United States Postal Service", "operator:short": "USPS", "operator:type": "public", "operator:wikidata": "Q668687", "ref": "5452400002"}, "type": "Feature"}
{"geometry": {"coordinates": [-90.421471198, 45.877711149], "type": "Point"}, "id": "jshMngHGDzRc_Z7cEs1kIEo2ZTc=", "properties": {"@source_uri": "https://tools.usps.com/UspsToolsRestServices/rest/POLocator/findLocations", "@spider": "usps_collection_boxes", "addr:city": "FIFIELD", "addr:country": "US", "addr:postcode": "54524", "addr:state": "WI", "addr:street_address": "N14007 FLAMBEAU AVE", "amenity": "post_box", "collection_times": "Mo-Fr 13:00; Sa 10:00", "indoor": "yes", "note": "ON 12/24 AND 12/31, THIS BOX MAY BE COLLECTED AS EARLY AS 12 NOON.", "nsi_id": "unitedstatespostalservice-a77078", "operator": "United States Postal Service", "operator:short": "USPS", "operator:type": "public", "operator:wikidata": "Q668687", "ref": "5452400003"}, "type": "Feature"}
{"geometry": {"coordinates": [-90.8886693413, 45.4996039219], "type": "Point"}, "id": "rbtJmYcYaKUo7UmFRFHOC8umPuc=", "properties": {"@source_uri": "https://tools.usps.com/UspsToolsRestServices/rest/POLocator/findLocations", "@spider": "usps_collection_boxes", "addr:city": "GLEN FLORA", "addr:country": "US", "addr:postcode": "54526", "addr:state": "WI", "addr:street_address": "N5796 WHITE ST", "amenity": "post_box", "collection_times": "Mo-Fr 15:45; Sa 10:30", "note": "ON 12/24 AND 12/31, THIS BOX MAY BE COLLECTED AS EARLY AS 12 NOON.", "nsi_id": "unitedstatespostalservice-a77078", "operator": "United States Postal Service", "operator:short": "USPS", "operator:type": "public", "operator:wikidata": "Q668687", "ref": "5452600000"}, "type": "Feature"}
{"geometry": {"coordinates": [-90.8886693413, 45.4996039219], "type": "Point"}, "id": "7sXohbnL17arc1wyFuYVqxcqLi8=", "properties": {"@source_uri": "https://tools.usps.com/UspsToolsRestServices/rest/POLocator/findLocations", "@spider": "usps_collection_boxes", "addr:city": "GLEN FLORA", "addr:country": "US", "addr:postcode": "54526", "addr:state": "WI", "addr:street_address": "N5796 WHITE ST.", "amenity": "post_box", "collection_times": "Mo-Fr 15:45", "indoor": "yes", "note": "ON 12/24 AND 12/31, THIS BOX MAY BE COLLECTED AS EARLY AS 12 NOON.", "nsi_id": "unitedstatespostalservice-a77078", "operator": "United States Postal Service", "operator:short": "USPS", "operator:type": "public", "operator:wikidata": "Q668687", "ref": "5452600004"}, "type": "Feature"}
{"geometry": {"coordinates": [-90.8886693413, 45.4996039219], "type": "Point"}, "id": "Dg3guoYbEV7FOBUqxVhPFnr8jL8=", "properties": {"@source_uri": "https://tools.usps.com/UspsToolsRestServices/rest/POLocator/findLocations", "@spider": "usps_collection_boxes", "addr:city": "GLEN FLORA", "addr:country": "US", "addr:postcode": "54526", "addr:state": "WI", "addr:street_address": "N5796 WHITE ST.", "amenity": "post_box", "collection_times": "Mo-Fr 15:45; Sa 10:30", "indoor": "yes", "note": "ON 12/24 AND 12/31, THIS BOX MAY BE COLLECTED AS EARLY AS 12 NOON.", "nsi_id": "unitedstatespostalservice-a77078", "operator": "United States Postal Service", "operator:short": "USPS", "operator:type": "public", "operator:wikidata": "Q668687", "ref": "5452600005"}, "type": "Feature"}
{"geometry": {"coordinates": [-90.5743902, 46.138595], "type": "Point"}, "id": "wUbqT0cM7CSgJgC-ZNgTUkW_T0E=", "properties": {"@source_uri": "https://tools.usps.com/UspsToolsRestServices/rest/POLocator/findLocations", "@spider": "usps_collection_boxes", "addr:city": "GLIDDEN", "addr:country": "US", "addr:postcode": "54527", "addr:state": "WI", "addr:street_address": "41 N GRANT ST", "amenity": "post_box", "collection_times": "Mo-Fr 15:00; Sa 09:00", "note": "ON 12/24 AND 12/31, THIS BOX MAY BE COLLECTED AS EARLY AS 12 NOON.", "nsi_id": "unitedstatespostalservice-a77078", "operator": "United States Postal Service", "operator:short": "USPS", "operator:type": "public", "operator:wikidata": "Q668687", "ref": "5452700000"}, "type": "Feature"}
{"geometry": {"coordinates": [-90.5764056, 46.135726], "type": "Point"}, "id": "uRwRhI8tXEJ0Oq9DXympsJhO6QQ=", "properties": {"@source_uri": "https://tools.usps.com/UspsToolsRestServices/rest/POLocator/findLocations", "@spider": "usps_collection_boxes", "addr:city": "GLIDDEN", "addr:country": "US", "addr:postcode": "54527", "addr:state": "WI", "addr:street_address": "237 GRANT ST", "amenity": "post_box", "collection_times": "Mo-Fr 15:15; Sa 09:00", "indoor": "yes", "note": "ON 12/24 AND 12/31, THIS BOX MAY BE COLLECTED AS EARLY AS 12 NOON.", "nsi_id": "unitedstatespostalservice-a77078", "operator": "United States Postal Service", "operator:short": "USPS", "operator:type": "public", "operator:wikidata": "Q668687", "ref": "5452700001"}, "type": "Feature"}
{"geometry": {"coordinates": [-90.575558332, 46.136949192], "type": "Point"}, "id": "5z0z1TQHHasFze0_aRpvdEhyWHw=", "properties": {"@source_uri": "https://tools.usps.com/UspsToolsRestServices/rest/POLocator/findLocations", "@spider": "usps_collection_boxes", "addr:city": "GLIDDEN", "addr:country": "US", "addr:postcode": "54527", "addr:state": "WI", "addr:street_address": "41 N GRANT ST", "amenity": "post_box", "collection_times": "Mo-Fr 15:15; Sa 09:00", "indoor": "yes", "note": "ON 12/24 AND 12/31, THIS BOX MAY BE COLLECTED AS EARLY AS 12 NOON.", "nsi_id": "unitedstatespostalservice-a77078", "operator": "United States Postal Service", "operator:short": "USPS", "operator:type": "public", "operator:wikidata": "Q668687", "ref": "5452700002"}, "type": "Feature"}
{"geometry": {"coordinates": [-89.6693038245, 45.7219078718], "type": "Point"}, "id": "jJdu1xIF0HkQyCXBeD6SYhQOKuw=", "properties": {"@source_uri": "https://tools.usps.com/UspsToolsRestServices/rest/POLocator/findLocations", "@spider": "usps_collection_boxes", "addr:city": "HARSHAW", "addr:country": "US", "addr:postcode": "54529", "addr:state": "WI", "addr:street_address": "5289 LAKEWOOD RD", "amenity": "post_box", "collection_times": "Mo-Fr 11:45; Sa 09:45", "nsi_id": "unitedstatespostalservice-a77078", "operator": "United States Postal Service", "operator:short": "USPS", "operator:type": "public", "operator:wikidata": "Q668687", "ref": "5452900000"}, "type": "Feature"}
{"geometry": {"coordinates": [-89.669303824, 45.721907872], "type": "Point"}, "id": "Ibf-jjdj82RTuY5gImFkrd8JsMw=", "properties": {"@source_uri": "https://tools.usps.com/UspsToolsRestServices/rest/POLocator/findLocations", "@spider": "usps_collection_boxes", "addr:city": "HARSHAW", "addr:country": "US", "addr:postcode": "54529", "addr:state": "WI", "addr:street_address": "5289 LAKEWOOD RD", "amenity": "post_box", "collection_times": "Mo-Fr 11:45; Sa 09:00", "indoor": "yes", "nsi_id": "unitedstatespostalservice-a77078", "operator": "United States Postal Service", "operator:short": "USPS", "operator:type": "public", "operator:wikidata": "Q668687", "ref": "5452900001"}, "type": "Feature"}
{"geometry": {"coordinates": [-89.669303824, 45.721907872], "type": "Point"}, "id": "zX5I4gCLdYhvkbF5jNfAtkahRKA=", "properties": {"@source_uri": "https://tools.usps.com/UspsToolsRestServices/rest/POLocator/findLocations", "@spider": "usps_collection_boxes", "addr:city": "HARSHAW", "addr:country": "US", "addr:postcode": "54529", "addr:state": "WI", "addr:street_address": "5289 LAKEWOOD RD", "amenity": "post_box", "collection_times": "Mo-Fr 11:45; Sa 10:00", "indoor": "yes", "nsi_id": "unitedstatespostalservice-a77078", "operator": "United States Postal Service", "operator:short": "USPS", "operator:type": "public", "operator:wikidata": "Q668687", "ref": "5452900002"}, "type": "Feature"}
{"geometry": {"coordinates": [-90.714602, 45.515115], "type": "Point"}, "id": "yUKAQy7mlX1Unkrp5XBV9OJt-xk=", "properties": {"@source_uri": "https://tools.usps.com/UspsToolsRestServices/rest/POLocator/findLocations", "@spider": "usps_collection_boxes", "addr:city": "HAWKINS", "addr:country": "US", "addr:postcode": "54530", "addr:state": "WI", "addr:street_address": "1016 MAIN ST", "amenity": "post_box", "collection_times": "Mo-Fr 12:00; Sa 10:15", "nsi_id": "unitedstatespostalservice-a77078", "operator": "United States Postal Service", "operator:short": "USPS", "operator:type": "public", "operator:wikidata": "Q668687", "ref": "5453000000"}, "type": "Feature"}
{"geometry": {"coordinates": [-90.714602, 45.515115], "type": "Point"}, "id": "nJvhAIzjmwrutBkAhI_PFfxBmr0=", "properties": {"@source_uri": "https://tools.usps.com/UspsToolsRestServices/rest/POLocator/findLocations", "@spider": "usps_collection_boxes", "addr:city": "HAWKINS", "addr:country": "US", "addr:postcode": "54530", "addr:state": "WI", "addr:street_address": "1016 MAIN ST", "amenity": "post_box", "collection_times": "Mo-Fr 12:00; Sa 10:15", "indoor": "yes", "nsi_id": "unitedstatespostalservice-a77078", "operator": "United States Postal Service", "operator:short": "USPS", "operator:type": "public", "operator:wikidata": "Q668687", "ref": "5453000001"}, "type": "Feature"}
{"geometry": {"coordinates": [-90.71460514, 45.515110809], "type": "Point"}, "id": "cedOiMO4HcjMZHTh25rfJCA30Z4=", "properties": {"@source_uri": "https://tools.usps.com/UspsToolsRestServices/rest/POLocator/findLocations", "@spider": "usps_collection_boxes", "addr:city": "HAWKINS", "addr:country": "US", "addr:postcode": "54530", "addr:state": "WI", "addr:street_address": "1016 MAIN ST", "amenity": "post_box", "collection_times": "Mo-Fr 12:00; Sa 10:15", "indoor": "yes", "nsi_id": "unitedstatespostalservice-a77078", "operator": "United States Postal Service", "operator:short": "USPS", "operator:type": "public", "operator:wikidata": "Q668687", "ref": "5453000002"}, "type": "Feature"}
{"geometry": {"coordinates": [-89.724461, 45.806929], "type": "Point"}, "id": "SfLGDUNnnwQibN1J1_zIY8oGEi4=", "properties": {"@source_uri": "https://tools.usps.com/UspsToolsRestServices/rest/POLocator/findLocations", "@spider": "usps_collection_boxes", "addr:city": "HAZELHURST", "addr:country": "US", "addr:postcode": "54531", "addr:state": "WI", "addr:street_address": "7057 US HIGHWAY 51", "amenity": "post_box", "collection_times": "Mo-Fr 15:45; Sa 10:45", "note": "ON 12/24 AND 12/31, THIS BOX MAY BE COLLECTED AS EARLY AS 12 NOON.", "nsi_id": "unitedstatespostalservice-a77078", "operator": "United States Postal Service", "operator:short": "USPS", "operator:type": "public", "operator:wikidata": "Q668687", "ref": "5453100001"}, "type": "Feature"}
{"geometry": {"coordinates": [-89.72442, 45.80693], "type": "Point"}, "id": "k-IwmcnuzVo_eeMMmb8wcNOSPnk=", "properties": {"@source_uri": "https://tools.usps.com/UspsToolsRestServices/rest/POLocator/findLocations", "@spider": "usps_collection_boxes", "addr:city": "HAZELHURST", "addr:country": "US", "addr:postcode": "54531", "addr:state": "WI", "addr:street_address": "7057 US HIGHWAY 51", "amenity": "post_box", "collection_times": "Mo-Fr 15:45; Sa 10:45", "indoor": "yes", "note": "ON 12/24 AND 12/31, THIS BOX MAY BE COLLECTED AS EARLY AS 12 NOON.", "nsi_id": "unitedstatespostalservice-a77078", "operator": "United States Postal Service", "operator:short": "USPS", "operator:type": "public", "operator:wikidata": "Q668687", "ref": "5453100002"}, "type": "Feature"}
{"geometry": {"coordinates": [-89.724905639, 45.807722645], "type": "Point"}, "id": "1f3wklNklwlnoCBssRy7lk4ZZs0=", "properties": {"@source_uri": "https://tools.usps.com/UspsToolsRestServices/rest/POLocator/findLocations", "@spider": "usps_collection_boxes", "addr:city": "HAZELHURST", "addr:country": "US", "addr:postcode": "54531", "addr:state": "WI", "addr:street_address": "7057 US HIGHWAY 51", "amenity": "post_box", "collection_times": "Mo-Fr 15:45; Sa 10:45", "indoor": "yes", "note": "ON 12/24 AND 12/31, THIS BOX MAY BE COLLECTED AS EARLY AS 12 NOON.", "nsi_id": "unitedstatespostalservice-a77078", "operator": "United States Postal Service", "operator:short": "USPS", "operator:type": "public", "operator:wikidata": "Q668687", "ref": "5453100003"}, "type": "Feature"}
{"geometry": {"coordinates": [-90.18574, 46.449792], "type": "Point"}, "id": "cw7VYqS2ec6J4xv27XgNsC56v9w=", "properties": {"@source_uri": "https://tools.usps.com/UspsToolsRestServices/rest/POLocator/findLocations", "@spider": "usps_collection_boxes", "addr:city": "HURLEY", "addr:country": "US", "addr:postcode": "54534", "addr:state": "WI", "addr:street_address": "417 SILVER ST", "amenity": "post_box", "collection_times": "Mo-Sa 16:00", "note": "ON 12/24 AND 12/31, THIS BOX MAY BE COLLECTED AS EARLY AS 12 NOON.", "nsi_id": "unitedstatespostalservice-a77078", "operator": "United States Postal Service", "operator:short": "USPS", "operator:type": "public", "operator:wikidata": "Q668687", "ref": "5453400000"}, "type": "Feature"}
{"geometry": {"coordinates": [-90.18574, 46.449792], "type": "Point"}, "id": "xQGQYQAScdhiqLNc9lzI-HJLaL0=", "properties": {"@source_uri": "https://tools.usps.com/UspsToolsRestServices/rest/POLocator/findLocations", "@spider": "usps_collection_boxes", "addr:city": "HURLEY", "addr:country": "US", "addr:postcode": "54534", "addr:state": "WI", "addr:street_address": "417 SILVER ST", "amenity": "post_box", "collection_times": "Mo-Sa 16:00", "indoor": "yes", "note": "ON 12/24 AND 12/31, THIS BOX MAY BE COLLECTED AS EARLY AS 12 NOON.", "nsi_id": "unitedstatespostalservice-a77078", "operator": "United States Postal Service", "operator:short": "USPS", "operator:type": "public", "operator:wikidata": "Q668687", "ref": "5453400002"}, "type": "Feature"}
{"geometry": {"coordinates": [-90.18574, 46.449792], "type": "Point"}, "id": "OHWzYt4EoS5yWTDc5nnro0nVdgE=", "properties": {"@source_uri": "https://tools.usps.com/UspsToolsRestServices/rest/POLocator/findLocations", "@spider": "usps_collection_boxes", "addr:city": "HURLEY", "addr:country": "US", "addr:postcode": "54534", "addr:state": "WI", "addr:street_address": "417 SILVER ST", "amenity": "post_box", "collection_times": "Mo-Sa 16:00", "indoor": "yes", "note": "ON 12/24 AND 12/31, THIS BOX MAY BE COLLECTED AS EARLY AS 12 NOON.", "nsi_id": "unitedstatespostalservice-a77078", "operator": "United States Postal Service", "operator:short": "USPS", "operator:type": "public", "operator:wikidata": "Q668687", "ref": "5453400003"}, "type": "Feature"}
{"geometry": {"coordinates": [-90.185742, 46.449788481], "type": "Point"}, "id": "8lnmol9sVv1mH4MKU4K3LwpABKI=", "properties": {"@source_uri": "https://tools.usps.com/UspsToolsRestServices/rest/POLocator/findLocations", "@spider": "usps_collection_boxes", "addr:city": "HURLEY", "addr:country": "US", "addr:postcode": "54534", "addr:state": "WI", "addr:street_address": "417 SILVER ST", "amenity": "post_box", "collection_times": "Mo-Sa 16:00", "indoor": "yes", "note": "ON 12/24 AND 12/31, THIS BOX MAY BE COLLECTED AS EARLY AS 12 NOON.", "nsi_id": "unitedstatespostalservice-a77078", "operator": "United States Postal Service", "operator:short": "USPS", "operator:type": "public", "operator:wikidata": "Q668687", "ref": "5453400004"}, "type": "Feature"}
{"geometry": {"coordinates": [-90.3299958, 46.4013833], "type": "Point"}, "id": "NFJBj7N0MA_xGutMiVN-yPZP-a4=", "properties": {"@source_uri": "https://tools.usps.com/UspsToolsRestServices/rest/POLocator/findLocations", "@spider": "usps_collection_boxes", "addr:city": "IRON BELT", "addr:country": "US", "addr:postcode": "54536", "addr:state": "WI", "addr:street_address": "11715N MACKINNON ST", "amenity": "post_box", "collection_times": "Mo-Fr 12:15; Sa 10:00", "note": "ON 12/24 AND 12/31, THIS BOX MAY BE COLLECTED AS EARLY AS 12 NOON.", "nsi_id": "unitedstatespostalservice-a77078", "operator": "United States Postal Service", "operator:short": "USPS", "operator:type": "public", "operator:wikidata": "Q668687", "ref": "5453600000"}, "type": "Feature"}
{"geometry": {"coordinates": [-90.334938, 46.390647], "type": "Point"}, "id": "kOFTGBIsATS4CPKkFuHrfyzOCWs=", "properties": {"@source_uri": "https://tools.usps.com/UspsToolsRestServices/rest/POLocator/findLocations", "@spider": "usps_collection_boxes", "addr:city": "IRON BELT", "addr:country": "US", "addr:postcode": "54536", "addr:state": "WI", "addr:street_address": "11715 MCKINNAN ST", "amenity": "post_box", "collection_times": "Mo-Fr 12:00; Sa 09:30", "indoor": "yes", "nsi_id": "unitedstatespostalservice-a77078", "operator": "United States Postal Service", "operator:short": "USPS", "operator:type": "public", "operator:wikidata": "Q668687", "ref": "5453600001"}, "type": "Feature"}
{"geometry": {"coordinates": [-90.324549533, 46.400018997], "type": "Point"}, "id": "5EEMbv3hCmNhpd9_OTfL8YC2o-o=", "properties": {"@source_uri": "https://tools.usps.com/UspsToolsRestServices/rest/POLocator/findLocations", "@spider": "usps_collection_boxes", "addr:city": "IRON BELT", "addr:country": "US", "addr:postcode": "54536", "addr:state": "WI", "addr:street_address": "11715N MACKINNON ST", "amenity": "post_box", "collection_times": "Mo-Fr 12:00; Sa 09:30", "indoor": "yes", "nsi_id": "unitedstatespostalservice-a77078", "operator": "United States Postal Service", "operator:short": "USPS", "operator:type": "public", "operator:wikidata": "Q668687", "ref": "5453600002"}, "type": "Feature"}
{"geometry": {"coordinates": [-90.593301, 45.531151], "type": "Point"}, "id": "itHLBTbhDbykXbfOEVLYpaJPfA4=", "properties": {"@source_uri": "https://tools.usps.com/UspsToolsRestServices/rest/POLocator/findLocations", "@spider": "usps_collection_boxes", "addr:city": "KENNAN", "addr:country": "US", "addr:postcode": "54537", "addr:state": "WI", "addr:street_address": "W10419 MAIN ST", "amenity": "post_box", "collection_times": "Mo-Fr 11:45; Sa 10:00", "nsi_id": "unitedstatespostalservice-a77078", "operator": "United States Postal Service", "operator:short": "USPS", "operator:type": "public", "operator:wikidata": "Q668687", "ref": "5453700000"}, "type": "Feature"}
{"geometry": {"coordinates": [-90.593301, 45.531151], "type": "Point"}, "id": "aDepbya13IJpArAvz99JojmyLf4=", "properties": {"@source_uri": "https://tools.usps.com/UspsToolsRestServices/rest/POLocator/findLocations", "@spider": "usps_collection_boxes", "addr:city": "KENNAN", "addr:country": "US", "addr:postcode": "54537", "addr:state": "WI", "addr:street_address": "W10419 MAIN ST", "amenity": "post_box", "collection_times": "Mo-Fr 11:45; Sa 09:45", "indoor": "yes", "nsi_id": "unitedstatespostalservice-a77078", "operator": "United States Postal Service", "operator:short": "USPS", "operator:type": "public", "operator:wikidata": "Q668687", "ref": "5453700001"}, "type": "Feature"}
{"geometry": {"coordinates": [-90.5933025, 45.531149503], "type": "Point"}, "id": "hVM9TsN9JMifu7jSJUpmLvuXigM=", "properties": {"@source_uri": "https://tools.usps.com/UspsToolsRestServices/rest/POLocator/findLocations", "@spider": "usps_collection_boxes", "addr:city": "KENNAN", "addr:country": "US", "addr:postcode": "54537", "addr:state": "WI", "addr:street_address": "W10419 MAIN ST", "amenity": "post_box", "collection_times": "Mo-Fr 11:45; Sa 09:45", "indoor": "yes", "nsi_id": "unitedstatespostalservice-a77078", "operator": "United States Postal Service", "operator:short": "USPS", "operator:type": "public", "operator:wikidata": "Q668687", "ref": "5453700002"}, "type": "Feature"}
{"geometry": {"coordinates": [-89.893042, 45.970096], "type": "Point"}, "id": "UXREJMI3WNiLfWquwV0c4AoHAe8=", "properties": {"@source_uri": "https://tools.usps.com/UspsToolsRestServices/rest/POLocator/findLocations", "@spider": "usps_collection_boxes", "addr:city": "LAC DU FLAMBEAU", "addr:country": "US", "addr:postcode": "54538", "addr:state": "WI", "addr:street_address": "614 PEACE PIPE RD", "amenity": "post_box", "collection_times": "Mo-Fr 16:00; Sa 10:45", "note": "ON 12/24 AND 12/31, THIS BOX MAY BE COLLECTED AS EARLY AS 12 NOON.", "nsi_id": "unitedstatespostalservice-a77078", "operator": "United States Postal Service", "operator:short": "USPS", "operator:type": "public", "operator:wikidata": "Q668687", "ref": "5453800000"}, "type": "Feature"}
{"geometry": {"coordinates": [-89.892951, 45.970122], "type": "Point"}, "id": "h2KJ_7ApTKIsaXHg5gEFACgSNUE=", "properties": {"@source_uri": "https://tools.usps.com/UspsToolsRestServices/rest/POLocator/findLocations", "@spider": "usps_collection_boxes", "addr:city": "LAC DU FLAMBEAU", "addr:country": "US", "addr:postcode": "54538", "addr:state": "WI", "addr:street_address": "614 PEACE PIPE RD", "amenity": "post_box", "collection_times": "Mo-Fr 16:00; Sa 10:45", "indoor": "yes", "note": "ON 12/24 AND 12/31, THIS BOX MAY BE COLLECTED AS EARLY AS 12 NOON.", "nsi_id": "unitedstatespostalservice-a77078", "operator": "United States Postal Service", "operator:short": "USPS", "operator:type": "public", "operator:wikidata": "Q668687", "ref": "5453800001"}, "type": "Feature"}
{"geometry": {"coordinates": [-89.892951, 45.970122], "type": "Point"}, "id": "n9L0XIxoxwcW4bDl45E3opGu7og=", "properties": {"@source_uri": "https://tools.usps.com/UspsToolsRestServices/rest/POLocator/findLocations", "@spider": "usps_collection_boxes", "addr:city": "LAC DU FLAMBEAU", "addr:country": "US", "addr:postcode": "54538", "addr:state": "WI", "addr:street_address": "614 PEACE PIPE RD", "amenity": "post_box", "collection_times": "Mo-Fr 16:00; Sa 10:45", "indoor": "yes", "note": "ON 12/24 AND 12/31, THIS BOX MAY BE COLLECTED AS EARLY AS 12 NOON.", "nsi_id": "unitedstatespostalservice-a77078", "operator": "United States Postal Service", "operator:short": "USPS", "operator:type": "public", "operator:wikidata": "Q668687", "ref": "5453800002"}, "type": "Feature"}
{"geometry": {"coordinates": [-89.893583551, 45.969628328], "type": "Point"}, "id": "TUu418mwnbblzsgU1v1Nz-8_n6s=", "properties": {"@source_uri": "https://tools.usps.com/UspsToolsRestServices/rest/POLocator/findLocations", "@spider": "usps_collection_boxes", "addr:city": "LAC DU FLAMBEAU", "addr:country": "US", "addr:postcode": "54538", "addr:state": "WI", "addr:street_address": "614 PEACE PIPE RD", "amenity": "post_box", "collection_times": "Mo-Fr 16:15; Sa 11:00", "indoor": "yes", "note": "ON 12/24 AND 12/31, THIS BOX MAY BE COLLECTED AS EARLY AS 12 NOON.", "nsi_id": "unitedstatespostalservice-a77078", "operator": "United States Postal Service", "operator:short": "USPS", "operator:type": "public", "operator:wikidata": "Q668687", "ref": "5453800003"}, "type": "Feature"}
{"geometry": {"coordinates": [-89.593494, 45.814697], "type": "Point"}, "id": "FaO6s8YLI4NEgHsR2Yt18VWo_A4=", "properties": {"@source_uri": "https://tools.usps.com/UspsToolsRestServices/rest/POLocator/findLocations", "@spider": "usps_collection_boxes", "addr:city": "LAKE TOMAHAWK", "addr:country": "US", "addr:postcode": "54539", "addr:state": "WI", "addr:street_address": "7229 BRADLEY ST", "amenity": "post_box", "collection_times": "Mo-Fr 15:45; Sa 09:45", "note": "ON 12/24 AND 12/31, THIS BOX MAY BE COLLECTED AS EARLY AS 12 NOON.", "nsi_id": "unitedstatespostalservice-a77078", "operator": "United States Postal Service", "operator:short": "USPS", "operator:type": "public", "operator:wikidata": "Q668687", "ref": "5453900000"}, "type": "Feature"}
{"geometry": {"coordinates": [-89.593494, 45.814697], "type": "Point"}, "id": "qHKyU2wuHH8CQTei_IXCPU4rBI4=", "properties": {"@source_uri": "https://tools.usps.com/UspsToolsRestServices/rest/POLocator/findLocations", "@spider": "usps_collection_boxes", "addr:city": "LAKE TOMAHAWK", "addr:country": "US", "addr:postcode": "54539", "addr:state": "WI", "addr:street_address": "7229 BRADLEY ST", "amenity": "post_box", "collection_times": "Mo-Fr 16:00; Sa 10:00", "indoor": "yes", "note": "ON 12/24 AND 12/31, THIS BOX MAY BE COLLECTED AS EARLY AS 12 NOON.", "nsi_id": "unitedstatespostalservice-a77078", "operator": "United States Postal Service", "operator:short": "USPS", "operator:type": "public", "operator:wikidata": "Q668687", "ref": "5453900001"}, "type": "Feature"}
{"geometry": {"coordinates": [-89.593486595, 45.814683416], "type": "Point"}, "id": "kGD4W2DU_8odSzipNdN2sLWcPhk=", "properties": {"@source_uri": "https://tools.usps.com/UspsToolsRestServices/rest/POLocator/findLocations", "@spider": "usps_collection_boxes", "addr:city": "LAKE TOMAHAWK", "addr:country": "US", "addr:postcode": "54539", "addr:state": "WI", "addr:street_address": "7229 BRADLEY ST", "amenity": "post_box", "collection_times": "Mo-Fr 16:00; Sa 10:00", "indoor": "yes", "note": "ON 12/24 AND 12/31, THIS BOX MAY BE COLLECTED AS EARLY AS 12 NOON.", "nsi_id": "unitedstatespostalservice-a77078", "operator": "United States Postal Service", "operator:short": "USPS", "operator:type": "public", "operator:wikidata": "Q668687", "ref": "5453900003"}, "type": "Feature"}
{"geometry": {"coordinates": [-89.219013, 46.161999], "type": "Point"}, "id": "B2_kFPuJCQyfnGFvcYrbwKngZFs=", "properties": {"@source_uri": "https://tools.usps.com/UspsToolsRestServices/rest/POLocator/findLocations", "@spider": "usps_collection_boxes", "addr:city": "LAND O LAKES", "addr:country": "US", "addr:postcode": "54540", "addr:state": "WI", "addr:street_address": "4272 COUNTY ROAD B", "amenity": "post_box", "collection_times": "Mo-Fr 16:00; Sa 11:00", "note": "ON 12/24 AND 12/31, THIS BOX MAY BE COLLECTED AS EARLY AS 12 NOON.", "nsi_id": "unitedstatespostalservice-a77078", "operator": "United States Postal Service", "operator:short": "USPS", "operator:type": "public", "operator:wikidata": "Q668687", "ref": "5454000000"}, "type": "Feature"}
{"geometry": {"coordinates": [-89.219141, 46.161968], "type": "Point"}, "id": "ZwYsQv_fBDl8yDIcjHjNA5tL2O4=", "properties": {"@source_uri": "https://tools.usps.com/UspsToolsRestServices/rest/POLocator/findLocations", "@spider": "usps_collection_boxes", "addr:city": "LAND O LAKES", "addr:country": "US", "addr:postcode": "54540", "addr:state": "WI", "addr:street_address": "4272 COUNTY ROAD B", "amenity": "post_box", "collection_times": "Mo-Fr 16:00; Sa 11:00", "indoor": "yes", "note": "ON 12/24 AND 12/31, THIS BOX MAY BE COLLECTED AS EARLY AS 12 NOON.", "nsi_id": "unitedstatespostalservice-a77078", "operator": "United States Postal Service", "operator:short": "USPS", "operator:type": "public", "operator:wikidata": "Q668687", "ref": "5454000001"}, "type": "Feature"}
{"geometry": {"coordinates": [-89.219141, 46.161968], "type": "Point"}, "id": "xT7u-621By64vCVgTPo9QdZd5ww=", "properties": {"@source_uri": "https://tools.usps.com/UspsToolsRestServices/rest/POLocator/findLocations", "@spider": "usps_collection_boxes", "addr:city": "LAND O LAKES", "addr:country": "US", "addr:postcode": "54540", "addr:state": "WI", "addr:street_address": "4272 COUNTY ROAD B", "amenity": "post_box", "collection_times": "Mo-Fr 16:00; Sa 11:00", "indoor": "yes", "note": "ON 12/24 AND 12/31, THIS BOX MAY BE COLLECTED AS EARLY AS 12 NOON.", "nsi_id": "unitedstatespostalservice-a77078", "operator": "United States Postal Service", "operator:short": "USPS", "operator:type": "public", "operator:wikidata": "Q668687", "ref": "5454000002"}, "type": "Feature"}
{"geometry": {"coordinates": [-89.219690696, 46.161980453], "type": "Point"}, "id": "3p7K0KK_Heasz-CDIQtMW6NJlC4=", "properties": {"@source_uri": "https://tools.usps.com/UspsToolsRestServices/rest/POLocator/findLocations", "@spider": "usps_collection_boxes", "addr:city": "LAND O LAKES", "addr:country": "US", "addr:postcode": "54540", "addr:state": "WI", "addr:street_address": "4272 COUNTY ROAD B", "amenity": "post_box", "collection_times": "Mo-Fr 16:00; Sa 11:00", "indoor": "yes", "note": "ON 12/24 AND 12/31, THIS BOX MAY BE COLLECTED AS EARLY AS 12 NOON.", "nsi_id": "unitedstatespostalservice-a77078", "operator": "United States Postal Service", "operator:short": "USPS", "operator:type": "public", "operator:wikidata": "Q668687", "ref": "5454000003"}, "type": "Feature"}
{"geometry": {"coordinates": [-88.674138, 45.565405], "type": "Point"}, "id": "I2jN44WLyYTZTk1hrB_AYIOBNDI=", "properties": {"@source_uri": "https://tools.usps.com/UspsToolsRestServices/rest/POLocator/findLocations", "@spider": "usps_collection_boxes", "addr:city": "LAONA", "addr:country": "US", "addr:postcode": "54541", "addr:state": "WI", "addr:street_address": "5324 LINDEN ST", "amenity": "post_box", "collection_times": "Mo-Sa 11:15", "nsi_id": "unitedstatespostalservice-a77078", "operator": "United States Postal Service", "operator:short": "USPS", "operator:type": "public", "operator:wikidata": "Q668687", "ref": "5454100000"}, "type": "Feature"}
{"geometry": {"coordinates": [-88.674175, 45.56543], "type": "Point"}, "id": "xF3kA1lslTw04x6fyme1xEP8MUk=", "properties": {"@source_uri": "https://tools.usps.com/UspsToolsRestServices/rest/POLocator/findLocations", "@spider": "usps_collection_boxes", "addr:city": "LAONA", "addr:country": "US", "addr:postcode": "54541", "addr:state": "WI", "addr:street_address": "5324 LINDEN ST", "amenity": "post_box", "collection_times": "Mo-Sa 11:15", "indoor": "yes", "nsi_id": "unitedstatespostalservice-a77078", "operator": "United States Postal Service", "operator:short": "USPS", "operator:type": "public", "operator:wikidata": "Q668687", "ref": "5454100001"}, "type": "Feature"}
{"geometry": {"coordinates": [-88.674175, 45.56543], "type": "Point"}, "id": "mvkGz8FZFBIVYaxcWqr29QPK33o=", "properties": {"@source_uri": "https://tools.usps.com/UspsToolsRestServices/rest/POLocator/findLocations", "@spider": "usps_collection_boxes", "addr:city": "LAONA", "addr:country": "US", "addr:postcode": "54541", "addr:state": "WI", "addr:street_address": "5324 LINDEN ST", "amenity": "post_box", "collection_times": "Mo-Sa 11:15", "indoor": "yes", "nsi_id": "unitedstatespostalservice-a77078", "operator": "United States Postal Service", "operator:short": "USPS", "operator:type": "public", "operator:wikidata": "Q668687", "ref": "5454100002"}, "type": "Feature"}
{"geometry": {"coordinates": [-88.674143319, 45.565397047], "type": "Point"}, "id": "0MToLtZzkvl9Y-1IEn7oznTnZoA=", "properties": {"@source_uri": "https://tools.usps.com/UspsToolsRestServices/rest/POLocator/findLocations", "@spider": "usps_collection_boxes", "addr:city": "LAONA", "addr:country": "US", "addr:postcode": "54541", "addr:state": "WI", "addr:street_address": "5324 LINDEN ST", "amenity": "post_box", "collection_times": "Mo-Fr 11:15; Sa 10:00", "indoor": "yes", "nsi_id": "unitedstatespostalservice-a77078", "operator": "United States Postal Service", "operator:short": "USPS", "operator:type": "public", "operator:wikidata": "Q668687", "ref": "5454100004"}, "type": "Feature"}
{"geometry": {"coordinates": [-88.668418, 45.845205], "type": "Point"}, "id": "gG2pvbbrFRNEcHFe45l77vhWdM4=", "properties": {"@source_uri": "https://tools.usps.com/UspsToolsRestServices/rest/POLocator/findLocations", "@spider": "usps_collection_boxes", "addr:city": "LONG LAKE", "addr:country": "US", "addr:postcode": "54542", "addr:state": "WI", "addr:street_address": "3357 STATE HIGHWAY 139", "amenity": "post_box", "collection_times": "Mo-Fr 15:45; Sa 09:15", "note": "ON 12/24 AND 12/31, THIS BOX MAY BE COLLECTED AS EARLY AS 12 NOON.", "nsi_id": "unitedstatespostalservice-a77078", "operator": "United States Postal Service", "operator:short": "USPS", "operator:type": "public", "operator:wikidata": "Q668687", "ref": "5454200000"}, "type": "Feature"}
{"geometry": {"coordinates": [-88.668418, 45.845204], "type": "Point"}, "id": "8j-CbjmfijGTrtPzbLoSHjDUECY=", "properties": {"@source_uri": "https://tools.usps.com/UspsToolsRestServices/rest/POLocator/findLocations", "@spider": "usps_collection_boxes", "addr:city": "LONG LAKE", "addr:country": "US", "addr:postcode": "54542", "addr:state": "WI", "addr:street_address": "3357 N STATE ROAD 139", "amenity": "post_box", "collection_times": "Mo-Fr 14:45; Sa 09:15", "indoor": "yes", "note": "ON 12/24 AND 12/31, THIS BOX MAY BE COLLECTED AS EARLY AS 12 NOON.", "nsi_id": "unitedstatespostalservice-a77078", "operator": "United States Postal Service", "operator:short": "USPS", "operator:type": "public", "operator:wikidata": "Q668687", "ref": "5454200001"}, "type": "Feature"}
{"geometry": {"coordinates": [-88.668462531, 45.845201958], "type": "Point"}, "id": "32mjI8OnN4ovFMESGHH-W5zyi1Y=", "properties": {"@source_uri": "https://tools.usps.com/UspsToolsRestServices/rest/POLocator/findLocations", "@spider": "usps_collection_boxes", "addr:city": "LONG LAKE", "addr:country": "US", "addr:postcode": "54542", "addr:state": "WI", "addr:street_address": "3357 STATE HIGHWAY 139", "amenity": "post_box", "collection_times": "Mo-Fr 14:45; Sa 09:15", "indoor": "yes", "note": "ON 12/24 AND 12/31, THIS BOX MAY BE COLLECTED AS EARLY AS 12 NOON.", "nsi_id": "unitedstatespostalservice-a77078", "operator": "United States Postal Service", "operator:short": "USPS", "operator:type": "public", "operator:wikidata": "Q668687", "ref": "5454200002"}, "type": "Feature"}
{"geometry": {"coordinates": [-89.8823319526, 46.153296072], "type": "Point"}, "id": "MW9qWrAdvx7PHhViaQLpNrUGgLM=", "properties": {"@source_uri": "https://tools.usps.com/UspsToolsRestServices/rest/POLocator/findLocations", "@spider": "usps_collection_boxes", "addr:city": "MANITOWISH WATER", "addr:country": "US", "addr:postcode": "54545", "addr:state": "WI", "addr:street_address": "5971 COUNTY RD W", "amenity": "post_box", "collection_times": "Mo-Fr 15:45; Sa 10:45", "note": "ON 12/24 AND 12/31, THIS BOX MAY BE COLLECTED AS EARLY AS 12 NOON.", "nsi_id": "unitedstatespostalservice-a77078", "operator": "United States Postal Service", "operator:short": "USPS", "operator:type": "public", "operator:wikidata": "Q668687", "ref": "5454500000"}, "type": "Feature"}
{"geometry": {"coordinates": [-89.8823237261, 46.1533105543], "type": "Point"}, "id": "QwAW59m3e0dToTfs5vtp3uKP7x8=", "properties": {"@source_uri": "https://tools.usps.com/UspsToolsRestServices/rest/POLocator/findLocations", "@spider": "usps_collection_boxes", "addr:city": "MANITOWISH WATER", "addr:country": "US", "addr:postcode": "54545", "addr:state": "WI", "addr:street_address": "5971 COUNTY RD W", "amenity": "post_box", "collection_times": "Mo-Fr 15:45; Sa 10:45", "indoor": "yes", "note": "ON 12/24 AND 12/31, THIS BOX MAY BE COLLECTED AS EARLY AS 12 NOON.", "nsi_id": "unitedstatespostalservice-a77078", "operator": "United States Postal Service", "operator:short": "USPS", "operator:type": "public", "operator:wikidata": "Q668687", "ref": "5454500002"}, "type": "Feature"}
{"geometry": {"coordinates": [-89.8760623, 46.124646], "type": "Point"}, "id": "8oGgsUXlVy_z5tnWnsm6MmOWep8=", "properties": {"@source_uri": "https://tools.usps.com/UspsToolsRestServices/rest/POLocator/findLocations", "@spider": "usps_collection_boxes", "addr:city": "MANITOWISH WATER", "addr:country": "US", "addr:postcode": "54545", "addr:state": "WI", "addr:street_address": "522 US HIGHWAY 51", "amenity": "post_box", "collection_times": "Mo-Sa 09:30", "nsi_id": "unitedstatespostalservice-a77078", "operator": "United States Postal Service", "operator:short": "USPS", "operator:type": "public", "operator:wikidata": "Q668687", "ref": "5454500003"}, "type": "Feature"}
{"geometry": {"coordinates": [-89.882323726, 46.153310554], "type": "Point"}, "id": "nSQNhsBgYVrdN65zoFGD0MRxgfU=", "properties": {"@source_uri": "https://tools.usps.com/UspsToolsRestServices/rest/POLocator/findLocations", "@spider": "usps_collection_boxes", "addr:city": "MANITOWISH WATER", "addr:country": "US", "addr:postcode": "54545", "addr:state": "WI", "addr:street_address": "5971 COUNTY RD W", "amenity": "post_box", "collection_times": "Mo-Fr 15:45; Sa 10:45", "indoor": "yes", "note": "ON 12/24 AND 12/31, THIS BOX MAY BE COLLECTED AS EARLY AS 12 NOON.", "nsi_id": "unitedstatespostalservice-a77078", "operator": "United States Postal Service", "operator:short": "USPS", "operator:type": "public", "operator:wikidata": "Q668687", "ref": "5454500004"}, "type": "Feature"}
{"geometry": {"coordinates": [-90.659751, 46.326681], "type": "Point"}, "id": "yPdJJ4ifA-WIfhV19BFpmtLB4XQ=", "properties": {"@source_uri": "https://tools.usps.com/UspsToolsRestServices/rest/POLocator/findLocations", "@spider": "usps_collection_boxes", "addr:city": "MELLEN", "addr:country": "US", "addr:postcode": "54546", "addr:state": "WI", "addr:street_address": "121 E BENNETT AVE", "amenity": "post_box", "collection_times": "Mo-Fr 15:00; Sa 09:30", "note": "ON 12/24 AND 12/31, THIS BOX MAY BE COLLECTED AS EARLY AS 12 NOON.", "nsi_id": "unitedstatespostalservice-a77078", "operator": "United States Postal Service", "operator:short": "USPS", "operator:type": "public", "operator:wikidata": "Q668687", "ref": "5454600000"}, "type": "Feature"}
{"geometry": {"coordinates": [-90.659751, 46.326681], "type": "Point"}, "id": "UVtintJO1dPpbHXbAaKknWaow5E=", "properties": {"@source_uri": "https://tools.usps.com/UspsToolsRestServices/rest/POLocator/findLocations", "@spider": "usps_collection_boxes", "addr:city": "MELLEN", "addr:country": "US", "addr:postcode": "54546", "addr:state": "WI", "addr:street_address": "121 E BENNETT AVE", "amenity": "post_box", "collection_times": "Mo-Fr 15:15; Sa 09:30", "indoor": "yes", "note": "ON 12/24 AND 12/31, THIS BOX MAY BE COLLECTED AS EARLY AS 12 NOON.", "nsi_id": "unitedstatespostalservice-a77078", "operator": "United States Postal Service", "operator:short": "USPS", "operator:type": "public", "operator:wikidata": "Q668687", "ref": "5454600001"}, "type": "Feature"}
{"geometry": {"coordinates": [-90.659751, 46.326681], "type": "Point"}, "id": "ACZvkOEMTkEP5kWjVawJKjLKGDU=", "properties": {"@source_uri": "https://tools.usps.com/UspsToolsRestServices/rest/POLocator/findLocations", "@spider": "usps_collection_boxes", "addr:city": "MELLEN", "addr:country": "US", "addr:postcode": "54546", "addr:state": "WI", "addr:street_address": "121 E BENNETT AVE", "amenity": "post_box", "collection_times": "Mo-Fr 15:15; Sa 09:30", "indoor": "yes", "note": "ON 12/24 AND 12/31, THIS BOX MAY BE COLLECTED AS EARLY AS 12 NOON.", "nsi_id": "unitedstatespostalservice-a77078", "operator": "United States Postal Service", "operator:short": "USPS", "operator:type": "public", "operator:wikidata": "Q668687", "ref": "5454600002"}, "type": "Feature"}
{"geometry": {"coordinates": [-90.659752905, 46.326675532], "type": "Point"}, "id": "lk5_UKqhX8Qj0LT0-cwwFBHZSzU=", "properties": {"@source_uri": "https://tools.usps.com/UspsToolsRestServices/rest/POLocator/findLocations", "@spider": "usps_collection_boxes", "addr:city": "MELLEN", "addr:country": "US", "addr:postcode": "54546", "addr:state": "WI", "addr:street_address": "121 E BENNETT AVE", "amenity": "post_box", "collection_times": "Mo-Fr 15:15; Sa 09:30", "indoor": "yes", "note": "ON 12/24 AND 12/31, THIS BOX MAY BE COLLECTED AS EARLY AS 12 NOON.", "nsi_id": "unitedstatespostalservice-a77078", "operator": "United States Postal Service", "operator:short": "USPS", "operator:type": "public", "operator:wikidata": "Q668687", "ref": "5454600003"}, "type": "Feature"}
{"geometry": {"coordinates": [-90.063327, 46.165424], "type": "Point"}, "id": "dMsX2O4bcd3VcYGyyhVfHvGDOus=", "properties": {"@source_uri": "https://tools.usps.com/UspsToolsRestServices/rest/POLocator/findLocations", "@spider": "usps_collection_boxes", "addr:city": "MERCER", "addr:country": "US", "addr:postcode": "54547", "addr:state": "WI", "addr:street_address": "5245 N LAKEVIEW AVE", "amenity": "post_box", "collection_times": "Mo-Fr 15:30; Sa 10:30", "note": "ON 12/24 AND 12/31, THIS BOX MAY BE COLLECTED AS EARLY AS 12 NOON.", "nsi_id": "unitedstatespostalservice-a77078", "operator": "United States Postal Service", "operator:short": "USPS", "operator:type": "public", "operator:wikidata": "Q668687", "ref": "5454700000"}, "type": "Feature"}
{"geometry": {"coordinates": [-90.06325, 46.165466], "type": "Point"}, "id": "C_2Jsdjo8sm3O9U7Zyq4JhY3FXY=", "properties": {"@source_uri": "https://tools.usps.com/UspsToolsRestServices/rest/POLocator/findLocations", "@spider": "usps_collection_boxes", "addr:city": "MERCER", "addr:country": "US", "addr:postcode": "54547", "addr:state": "WI", "addr:street_address": "5245 N LAKEVIEW AVE", "amenity": "post_box", "collection_times": "Mo-Fr 15:30; Sa 10:30", "indoor": "yes", "note": "ON 12/24 AND 12/31, THIS BOX MAY BE COLLECTED AS EARLY AS 12 NOON.", "nsi_id": "unitedstatespostalservice-a77078", "operator": "United States Postal Service", "operator:short": "USPS", "operator:type": "public", "operator:wikidata": "Q668687", "ref": "5454700002"}, "type": "Feature"}
{"geometry": {"coordinates": [-90.063331536, 46.16546231], "type": "Point"}, "id": "esvXWz2rH-tKd40ItkNq46BBM9A=", "properties": {"@source_uri": "https://tools.usps.com/UspsToolsRestServices/rest/POLocator/findLocations", "@spider": "usps_collection_boxes", "addr:city": "MERCER", "addr:country": "US", "addr:postcode": "54547", "addr:state": "WI", "addr:street_address": "5245N LAKEVIEW AVE", "amenity": "post_box", "collection_times": "Mo-Fr 15:30; Sa 10:30", "indoor": "yes", "note": "ON 12/24 AND 12/31, THIS BOX MAY BE COLLECTED AS EARLY AS 12 NOON.", "nsi_id": "unitedstatespostalservice-a77078", "operator": "United States Postal Service", "operator:short": "USPS", "operator:type": "public", "operator:wikidata": "Q668687", "ref": "5454700003"}, "type": "Feature"}
{"geometry": {"coordinates": [-89.712583, 45.871186], "type": "Point"}, "id": "5AGRxXmkYAIjrkzJOeqJ-fvyb2s=", "properties": {"@source_uri": "https://tools.usps.com/UspsToolsRestServices/rest/POLocator/findLocations", "@spider": "usps_collection_boxes", "addr:city": "MINOCQUA", "addr:country": "US", "addr:postcode": "54548", "addr:state": "WI", "addr:street_address": "126 W FRONT ST", "amenity": "post_box", "collection_times": "Mo-Fr 16:15; Sa 12:00", "note": "ON 12/24 AND 12/31, THIS BOX MAY BE COLLECTED AS EARLY AS 12 NOON.", "nsi_id": "unitedstatespostalservice-a77078", "operator": "United States Postal Service", "operator:short": "USPS", "operator:type": "public", "operator:wikidata": "Q668687", "ref": "5454800000"}, "type": "Feature"}
{"geometry": {"coordinates": [-89.7039627, 45.876398], "type": "Point"}, "id": "VxZJrVSqX33PjKN-Xp7VeBgKsfo=", "properties": {"@source_uri": "https://tools.usps.com/UspsToolsRestServices/rest/POLocator/findLocations", "@spider": "usps_collection_boxes", "addr:city": "MINOCQUA", "addr:country": "US", "addr:postcode": "54548", "addr:state": "WI", "addr:street_address": "8518 US HIGHWAY 51 N", "amenity": "post_box", "collection_times": "Mo-Fr 13:00; Sa 11:00", "note": "ON 12/24 AND 12/31, THIS BOX MAY BE COLLECTED AS EARLY AS 12 NOON.", "nsi_id": "unitedstatespostalservice-a77078", "operator": "United States Postal Service", "operator:short": "USPS", "operator:type": "public", "operator:wikidata": "Q668687", "ref": "5454800001"}, "type": "Feature"}
{"geometry": {"coordinates": [-89.718749, 45.88753], "type": "Point"}, "id": "HKlGppNvDzTBQH9QfT0mR1gOno8=", "properties": {"@source_uri": "https://tools.usps.com/UspsToolsRestServices/rest/POLocator/findLocations", "@spider": "usps_collection_boxes", "addr:city": "MINOCQUA", "addr:country": "US", "addr:postcode": "54548", "addr:state": "WI", "addr:street_address": "9670 STATE HIGHWAY 70", "amenity": "post_box", "collection_times": "Mo-Fr 13:00; Sa 11:00", "note": "ON 12/24 AND 12/31, THIS BOX MAY BE COLLECTED AS EARLY AS 12 NOON.", "nsi_id": "unitedstatespostalservice-a77078", "operator": "United States Postal Service", "operator:short": "USPS", "operator:type": "public", "operator:wikidata": "Q668687", "ref": "5454800002"}, "type": "Feature"}
{"geometry": {"coordinates": [-89.712639, 45.871154], "type": "Point"}, "id": "a4o91j-wUIN7KN7oHFW2rar9O2E=", "properties": {"@source_uri": "https://tools.usps.com/UspsToolsRestServices/rest/POLocator/findLocations", "@spider": "usps_collection_boxes", "addr:city": "MINOCQUA", "addr:country": "US", "addr:postcode": "54548", "addr:state": "WI", "addr:street_address": "126 W FRONT ST", "amenity": "post_box", "collection_times": "Mo-Fr 16:30; Sa 12:00", "indoor": "yes", "note": "ON 12/24 AND 12/31, THIS BOX MAY BE COLLECTED AS EARLY AS 12 NOON.", "nsi_id": "unitedstatespostalservice-a77078", "operator": "United States Postal Service", "operator:short": "USPS", "operator:type": "public", "operator:wikidata": "Q668687", "ref": "5454800004"}, "type": "Feature"}
{"geometry": {"coordinates": [-89.712639, 45.871154], "type": "Point"}, "id": "KCgYb6XGXEsWpRiuKCyjVm_PNu8=", "properties": {"@source_uri": "https://tools.usps.com/UspsToolsRestServices/rest/POLocator/findLocations", "@spider": "usps_collection_boxes", "addr:city": "MINOCQUA", "addr:country": "US", "addr:postcode": "54548", "addr:state": "WI", "addr:street_address": "126 W FRONT ST", "amenity": "post_box", "collection_times": "Mo-Fr 16:30; Sa 12:00", "indoor": "yes", "note": "ON 12/24 AND 12/31, THIS BOX MAY BE COLLECTED AS EARLY AS 12 NOON.", "nsi_id": "unitedstatespostalservice-a77078", "operator": "United States Postal Service", "operator:short": "USPS", "operator:type": "public", "operator:wikidata": "Q668687", "ref": "5454800006"}, "type": "Feature"}
{"geometry": {"coordinates": [-89.712152172, 45.871226475], "type": "Point"}, "id": "Q9MLzqt8siJa_ic-5oOo8Di9mus=", "properties": {"@source_uri": "https://tools.usps.com/UspsToolsRestServices/rest/POLocator/findLocations", "@spider": "usps_collection_boxes", "addr:city": "MINOCQUA", "addr:country": "US", "addr:postcode": "54548", "addr:state": "WI", "addr:street_address": "126 W FRONT ST", "amenity": "post_box", "collection_times": "Mo-Fr 16:30; Sa 12:00", "indoor": "yes", "note": "ON 12/24 AND 12/31, THIS BOX MAY BE COLLECTED AS EARLY AS 12 NOON.", "nsi_id": "unitedstatespostalservice-a77078", "operator": "United States Postal Service", "operator:short": "USPS", "operator:type": "public", "operator:wikidata": "Q668687", "ref": "5454800007"}, "type": "Feature"}
{"geometry": {"coordinates": [-90.250871, 46.427496], "type": "Point"}, "id": "7-31Q-kk6arNCel8FkWtFJfGHaM=", "properties": {"@source_uri": "https://tools.usps.com/UspsToolsRestServices/rest/POLocator/findLocations", "@spider": "usps_collection_boxes", "addr:city": "MONTREAL", "addr:country": "US", "addr:postcode": "54550", "addr:state": "WI", "addr:street_address": "138 WISCONSIN AVE", "amenity": "post_box", "collection_times": "Mo-Sa 11:45", "nsi_id": "unitedstatespostalservice-a77078", "operator": "United States Postal Service", "operator:short": "USPS", "operator:type": "public", "operator:wikidata": "Q668687", "ref": "5455000000"}, "type": "Feature"}
{"geometry": {"coordinates": [-90.250741, 46.427469], "type": "Point"}, "id": "WA2bs2WqWOiGCEOEF3nu8Y714Fo=", "properties": {"@source_uri": "https://tools.usps.com/UspsToolsRestServices/rest/POLocator/findLocations", "@spider": "usps_collection_boxes", "addr:city": "MONTREAL", "addr:country": "US", "addr:postcode": "54550", "addr:state": "WI", "addr:street_address": "138 WISCONSIN AVE", "amenity": "post_box", "collection_times": "Mo-Fr 11:45; Sa 10:00", "indoor": "yes", "nsi_id": "unitedstatespostalservice-a77078", "operator": "United States Postal Service", "operator:short": "USPS", "operator:type": "public", "operator:wikidata": "Q668687", "ref": "5455000001"}, "type": "Feature"}
{"geometry": {"coordinates": [-90.2250933, 46.430021], "type": "Point"}, "id": "G-rEm4lw1_rDbQEJjjXgYYtVOWg=", "properties": {"@source_uri": "https://tools.usps.com/UspsToolsRestServices/rest/POLocator/findLocations", "@spider": "usps_collection_boxes", "addr:city": "MONTREAL", "addr:country": "US", "addr:postcode": "54550", "addr:state": "WI", "addr:street_address": "12 NIMIKON ST", "amenity": "post_box", "collection_times": "Mo-Sa 11:15", "nsi_id": "unitedstatespostalservice-a77078", "operator": "United States Postal Service", "operator:short": "USPS", "operator:type": "public", "operator:wikidata": "Q668687", "ref": "5455000002"}, "type": "Feature"}
{"geometry": {"coordinates": [-90.250992, 46.427495508], "type": "Point"}, "id": "Q56DHinkPkyyxSELMctACmrFPIA=", "properties": {"@source_uri": "https://tools.usps.com/UspsToolsRestServices/rest/POLocator/findLocations", "@spider": "usps_collection_boxes", "addr:city": "MONTREAL", "addr:country": "US", "addr:postcode": "54550", "addr:state": "WI", "addr:street_address": "138 WISCONSIN AVE", "amenity": "post_box", "collection_times": "Mo-Fr 11:45; Sa 10:00", "indoor": "yes", "nsi_id": "unitedstatespostalservice-a77078", "operator": "United States Postal Service", "operator:short": "USPS", "operator:type": "public", "operator:wikidata": "Q668687", "ref": "5455000003"}, "type": "Feature"}
{"geometry": {"coordinates": [-90.448132, 45.936112], "type": "Point"}, "id": "KjlIU7w2LtLw1aRLRjdU2dxz1HQ=", "properties": {"@source_uri": "https://tools.usps.com/UspsToolsRestServices/rest/POLocator/findLocations", "@spider": "usps_collection_boxes", "addr:city": "PARK FALLS", "addr:country": "US", "addr:postcode": "54552", "addr:state": "WI", "addr:street_address": "109 1ST ST N", "amenity": "post_box", "collection_times": "Mo-Fr 17:00; Sa 12:00", "note": "ON 12/24 AND 12/31, THIS BOX MAY BE COLLECTED AS EARLY AS 12 NOON.", "nsi_id": "unitedstatespostalservice-a77078", "operator": "United States Postal Service", "operator:short": "USPS", "operator:type": "public", "operator:wikidata": "Q668687", "ref": "5455200000"}, "type": "Feature"}
{"geometry": {"coordinates": [-90.4516399, 45.917443], "type": "Point"}, "id": "0QA2MYoEmrsgdTZgBrz9wzmGJTs=", "properties": {"@source_uri": "https://tools.usps.com/UspsToolsRestServices/rest/POLocator/findLocations", "@spider": "usps_collection_boxes", "addr:city": "PARK FALLS", "addr:country": "US", "addr:postcode": "54552", "addr:state": "WI", "addr:street_address": "1224 4TH AVE S", "amenity": "post_box", "collection_times": "Mo-Fr 10:00", "nsi_id": "unitedstatespostalservice-a77078", "operator": "United States Postal Service", "operator:short": "USPS", "operator:type": "public", "operator:wikidata": "Q668687", "ref": "5455200003"}, "type": "Feature"}
{"geometry": {"coordinates": [-90.449159998, 45.915670011], "type": "Point"}, "id": "z4lrONMBGxbAtJD_iNLw0nPRYxM=", "properties": {"@source_uri": "https://tools.usps.com/UspsToolsRestServices/rest/POLocator/findLocations", "@spider": "usps_collection_boxes", "addr:city": "PARK FALLS", "addr:country": "US", "addr:postcode": "54552", "addr:state": "WI", "addr:street_address": "1347 4TH AVE S", "amenity": "post_box", "collection_times": "Mo-Fr 10:00", "nsi_id": "unitedstatespostalservice-a77078", "operator": "United States Postal Service", "operator:short": "USPS", "operator:type": "public", "operator:wikidata": "Q668687", "ref": "5455200006"}, "type": "Feature"}
{"geometry": {"coordinates": [-90.448132, 45.936112], "type": "Point"}, "id": "9Zaqa-9lwmujIyXYpJGDYWlFvXM=", "properties": {"@source_uri": "https://tools.usps.com/UspsToolsRestServices/rest/POLocator/findLocations", "@spider": "usps_collection_boxes", "addr:city": "PARK FALLS", "addr:country": "US", "addr:postcode": "54552", "addr:state": "WI", "addr:street_address": "109 1ST ST N", "amenity": "post_box", "collection_times": "Mo-Fr 16:30; Sa 12:00", "indoor": "yes", "note": "ON 12/24 AND 12/31, THIS BOX MAY BE COLLECTED AS EARLY AS 12 NOON.", "nsi_id": "unitedstatespostalservice-a77078", "operator": "United States Postal Service", "operator:short": "USPS", "operator:type": "public", "operator:wikidata": "Q668687", "ref": "5455200007"}, "type": "Feature"}
{"geometry": {"coordinates": [-90.448132, 45.936112], "type": "Point"}, "id": "q_aRXpwOBGq4FbuSxXMIBjOAY3U=", "properties": {"@source_uri": "https://tools.usps.com/UspsToolsRestServices/rest/POLocator/findLocations", "@spider": "usps_collection_boxes", "addr:city": "PARK FALLS", "addr:country": "US", "addr:postcode": "54552", "addr:state": "WI", "addr:street_address": "109 1ST ST N", "amenity": "post_box", "collection_times": "Mo-Fr 16:30; Sa 12:00", "indoor": "yes", "note": "ON 12/24 AND 12/31, THIS BOX MAY BE COLLECTED AS EARLY AS 12 NOON.", "nsi_id": "unitedstatespostalservice-a77078", "operator": "United States Postal Service", "operator:short": "USPS", "operator:type": "public", "operator:wikidata": "Q668687", "ref": "5455200009"}, "type": "Feature"}
{"geometry": {"coordinates": [-90.448132835, 45.936112528], "type": "Point"}, "id": "pIYF2nnOvMUlMNeynXd7KIdWWLY=", "properties": {"@source_uri": "https://tools.usps.com/UspsToolsRestServices/rest/POLocator/findLocations", "@spider": "usps_collection_boxes", "addr:city": "PARK FALLS", "addr:country": "US", "addr:postcode": "54552", "addr:state": "WI", "addr:street_address": "109 1ST ST N", "amenity": "post_box", "collection_times": "Mo-Fr 16:30; Sa 12:00", "indoor": "yes", "note": "ON 12/24 AND 12/31, THIS BOX MAY BE COLLECTED AS EARLY AS 12 NOON.", "nsi_id": "unitedstatespostalservice-a77078", "operator": "United States Postal Service", "operator:short": "USPS", "operator:type": "public", "operator:wikidata": "Q668687", "ref": "5455200010"}, "type": "Feature"}
{"geometry": {"coordinates": [-89.086655, 46.067457], "type": "Point"}, "id": "3oKlDV5OgqKBBxgwdhVRg26eftY=", "properties": {"@source_uri": "https://tools.usps.com/UspsToolsRestServices/rest/POLocator/findLocations", "@spider": "usps_collection_boxes", "addr:city": "PHELPS", "addr:country": "US", "addr:postcode": "54554", "addr:state": "WI", "addr:street_address": "4530 COUNTY RD E", "amenity": "post_box", "collection_times": "Mo-Fr 16:15; Sa 11:00", "note": "ON 12/24 AND 12/31, THIS BOX MAY BE COLLECTED AS EARLY AS 12 NOON.", "nsi_id": "unitedstatespostalservice-a77078", "operator": "United States Postal Service", "operator:short": "USPS", "operator:type": "public", "operator:wikidata": "Q668687", "ref": "5455400000"}, "type": "Feature"}
{"geometry": {"coordinates": [-89.086692, 46.067482], "type": "Point"}, "id": "N-KM4mbOjNr2tKVtouHXjYTtmu4=", "properties": {"@source_uri": "https://tools.usps.com/UspsToolsRestServices/rest/POLocator/findLocations", "@spider": "usps_collection_boxes", "addr:city": "PHELPS", "addr:country": "US", "addr:postcode": "54554", "addr:state": "WI", "addr:street_address": "4530 COUNTY RD E", "amenity": "post_box", "collection_times": "Mo-Fr 16:15; Sa 11:00", "indoor": "yes", "note": "ON 12/24 AND 12/31, THIS BOX MAY BE COLLECTED AS EARLY AS 12 NOON.", "nsi_id": "unitedstatespostalservice-a77078", "operator": "United States Postal Service", "operator:short": "USPS", "operator:type": "public", "operator:wikidata": "Q668687", "ref": "5455400001"}, "type": "Feature"}
{"geometry": {"coordinates": [-89.086692, 46.067482], "type": "Point"}, "id": "aFRlLNPQRtRtN6imDSxXnXdco0w=", "properties": {"@source_uri": "https://tools.usps.com/UspsToolsRestServices/rest/POLocator/findLocations", "@spider": "usps_collection_boxes", "addr:city": "PHELPS", "addr:country": "US", "addr:postcode": "54554", "addr:state": "WI", "addr:street_address": "4530 COUNTY RD E", "amenity": "post_box", "collection_times": "Mo-Fr 16:15; Sa 11:00", "indoor": "yes", "note": "ON 12/24 AND 12/31, THIS BOX MAY BE COLLECTED AS EARLY AS 12 NOON.", "nsi_id": "unitedstatespostalservice-a77078", "operator": "United States Postal Service", "operator:short": "USPS", "operator:type": "public", "operator:wikidata": "Q668687", "ref": "5455400002"}, "type": "Feature"}
{"geometry": {"coordinates": [-89.086620947, 46.067192885], "type": "Point"}, "id": "sp_1SJMsYsMYcSLublUex3wjYyE=", "properties": {"@source_uri": "https://tools.usps.com/UspsToolsRestServices/rest/POLocator/findLocations", "@spider": "usps_collection_boxes", "addr:city": "PHELPS", "addr:country": "US", "addr:postcode": "54554", "addr:state": "WI", "addr:street_address": "4530 COUNTY RD E", "amenity": "post_box", "collection_times": "Mo-Fr 16:15; Sa 11:00", "indoor": "yes", "note": "ON 12/24 AND 12/31, THIS BOX MAY BE COLLECTED AS EARLY AS 12 NOON.", "nsi_id": "unitedstatespostalservice-a77078", "operator": "United States Postal Service", "operator:short": "USPS", "operator:type": "public", "operator:wikidata": "Q668687", "ref": "5455400003"}, "type": "Feature"}
{"geometry": {"coordinates": [-90.3950287, 45.687523], "type": "Point"}, "id": "8Nz20q6NEGdSMR3jtd2u1h1A8OQ=", "properties": {"@source_uri": "https://tools.usps.com/UspsToolsRestServices/rest/POLocator/findLocations", "@spider": "usps_collection_boxes", "addr:city": "PHILLIPS", "addr:country": "US", "addr:postcode": "54555", "addr:state": "WI", "addr:street_address": "256 S LAKE AVE", "amenity": "post_box", "collection_times": "Mo-Sa 15:00", "note": "ON 12/24 AND 12/31, THIS BOX MAY BE COLLECTED AS EARLY AS 12 NOON.", "nsi_id": "unitedstatespostalservice-a77078", "operator": "United States Postal Service", "operator:short": "USPS", "operator:type": "public", "operator:wikidata": "Q668687", "ref": "5455500001"}, "type": "Feature"}
{"geometry": {"coordinates": [-90.39878, 45.689695], "type": "Point"}, "id": "y9mBUSUmejTqXRxKWXe_KByhUk0=", "properties": {"@source_uri": "https://tools.usps.com/UspsToolsRestServices/rest/POLocator/findLocations", "@spider": "usps_collection_boxes", "addr:city": "PHILLIPS", "addr:country": "US", "addr:postcode": "54555", "addr:state": "WI", "addr:street_address": "194 N AVON AVE", "amenity": "post_box", "collection_times": "Mo-Fr 17:00; Sa 12:00", "note": "ON 12/24 AND 12/31, THIS BOX MAY BE COLLECTED AS EARLY AS 12 NOON.", "nsi_id": "unitedstatespostalservice-a77078", "operator": "United States Postal Service", "operator:short": "USPS", "operator:type": "public", "operator:wikidata": "Q668687", "ref": "5455500003"}, "type": "Feature"}
{"geometry": {"coordinates": [-90.39878, 45.689695], "type": "Point"}, "id": "ril6DGCBeiEmrTBWQqpPOEzXrlM=", "properties": {"@source_uri": "https://tools.usps.com/UspsToolsRestServices/rest/POLocator/findLocations", "@spider": "usps_collection_boxes", "addr:city": "PHILLIPS", "addr:country": "US", "addr:postcode": "54555", "addr:state": "WI", "addr:street_address": "194 N AVON AVE", "amenity": "post_box", "collection_times": "Mo-Fr 17:00; Sa 12:00", "indoor": "yes", "note": "ON 12/24 AND 12/31, THIS BOX MAY BE COLLECTED AS EARLY AS 12 NOON.", "nsi_id": "unitedstatespostalservice-a77078", "operator": "United States Postal Service", "operator:short": "USPS", "operator:type": "public", "operator:wikidata": "Q668687", "ref": "5455500004"}, "type": "Feature"}
{"geometry": {"coordinates": [-90.39878086, 45.6896919], "type": "Point"}, "id": "ieZg1_wOUKegiJMFbFq-edm__G4=", "properties": {"@source_uri": "https://tools.usps.com/UspsToolsRestServices/rest/POLocator/findLocations", "@spider": "usps_collection_boxes", "addr:city": "PHILLIPS", "addr:country": "US", "addr:postcode": "54555", "addr:state": "WI", "addr:street_address": "194 N AVON AVE", "amenity": "post_box", "collection_times": "Mo-Fr 17:00; Sa 12:00", "indoor": "yes", "note": "ON 12/24 AND 12/31, THIS BOX MAY BE COLLECTED AS EARLY AS 12 NOON.", "nsi_id": "unitedstatespostalservice-a77078", "operator": "United States Postal Service", "operator:short": "USPS", "operator:type": "public", "operator:wikidata": "Q668687", "ref": "5455500005"}, "type": "Feature"}
{"geometry": {"coordinates": [-90.284891, 45.545786], "type": "Point"}, "id": "wgnhwGvMjJEIPPoCNmyhE-mCpVo=", "properties": {"@source_uri": "https://tools.usps.com/UspsToolsRestServices/rest/POLocator/findLocations", "@spider": "usps_collection_boxes", "addr:city": "PRENTICE", "addr:country": "US", "addr:postcode": "54556", "addr:state": "WI", "addr:street_address": "428 CENTER ST", "amenity": "post_box", "collection_times": "Mo-Fr 14:45; Sa 09:00", "note": "ON 12/24 AND 12/31, THIS BOX MAY BE COLLECTED AS EARLY AS 12 NOON.", "nsi_id": "unitedstatespostalservice-a77078", "operator": "United States Postal Service", "operator:short": "USPS", "operator:type": "public", "operator:wikidata": "Q668687", "ref": "5455600000"}, "type": "Feature"}
{"geometry": {"coordinates": [-90.284891, 45.545786], "type": "Point"}, "id": "EDM49ZJ1fsMXZ2TyZ-PoD-5QnXQ=", "properties": {"@source_uri": "https://tools.usps.com/UspsToolsRestServices/rest/POLocator/findLocations", "@spider": "usps_collection_boxes", "addr:city": "PRENTICE", "addr:country": "US", "addr:postcode": "54556", "addr:state": "WI", "addr:street_address": "428 CENTER ST", "amenity": "post_box", "collection_times": "Mo-Fr 15:00; Sa 09:00", "indoor": "yes", "note": "ON 12/24 AND 12/31, THIS BOX MAY BE COLLECTED AS EARLY AS 12 NOON.", "nsi_id": "unitedstatespostalservice-a77078", "operator": "United States Postal Service", "operator:short": "USPS", "operator:type": "public", "operator:wikidata": "Q668687", "ref": "5455600001"}, "type": "Feature"}
{"geometry": {"coordinates": [-90.284890888, 45.545770486], "type": "Point"}, "id": "zUiOgBjA09WQ4FBradg_yrzgjIg=", "properties": {"@source_uri": "https://tools.usps.com/UspsToolsRestServices/rest/POLocator/findLocations", "@spider": "usps_collection_boxes", "addr:city": "PRENTICE", "addr:country": "US", "addr:postcode": "54556", "addr:state": "WI", "addr:street_address": "428 CENTER ST", "amenity": "post_box", "collection_times": "Mo-Fr 15:00; Sa 09:00", "indoor": "yes", "note": "ON 12/24 AND 12/31, THIS BOX MAY BE COLLECTED AS EARLY AS 12 NOON.", "nsi_id": "unitedstatespostalservice-a77078", "operator": "United States Postal Service", "operator:short": "USPS", "operator:type": "public", "operator:wikidata": "Q668687", "ref": "5455600003"}, "type": "Feature"}
{"geometry": {"coordinates": [-89.7284914, 46.247898], "type": "Point"}, "id": "qdpVq7ffNL4Pgjlw4fwcKopV-mA=", "properties": {"@source_uri": "https://tools.usps.com/UspsToolsRestServices/rest/POLocator/findLocations", "@spider": "usps_collection_boxes", "addr:city": "PRESQUE ISLE", "addr:country": "US", "addr:postcode": "54557", "addr:state": "WI", "addr:street_address": "8302 MAIN ST", "amenity": "post_box", "collection_times": "Mo-Sa 12:15", "note": "ON 12/24 AND 12/31, THIS BOX MAY BE COLLECTED AS EARLY AS 12 NOON.", "nsi_id": "unitedstatespostalservice-a77078", "operator": "United States Postal Service", "operator:short": "USPS", "operator:type": "public", "operator:wikidata": "Q668687", "ref": "5455700000"}, "type": "Feature"}
{"geometry": {"coordinates": [-89.7283852, 46.247892], "type": "Point"}, "id": "i0SfsFpkGT_GmT_d4zNitNFvZG8=", "properties": {"@source_uri": "https://tools.usps.com/UspsToolsRestServices/rest/POLocator/findLocations", "@spider": "usps_collection_boxes", "addr:city": "PRESQUE ISLE", "addr:country": "US", "addr:postcode": "54557", "addr:state": "WI", "addr:street_address": "8302 MAIN ST", "amenity": "post_box", "collection_times": "Mo-Sa 12:15", "indoor": "yes", "note": "ON 12/24 AND 12/31, THIS BOX MAY BE COLLECTED AS EARLY AS 12 NOON.", "nsi_id": "unitedstatespostalservice-a77078", "operator": "United States Postal Service", "operator:short": "USPS", "operator:type": "public", "operator:wikidata": "Q668687", "ref": "5455700001"}, "type": "Feature"}
{"geometry": {"coordinates": [-89.728690633, 46.247928286], "type": "Point"}, "id": "GDk9Cq5b5KOsuyCFbGszeDHEUqc=", "properties": {"@source_uri": "https://tools.usps.com/UspsToolsRestServices/rest/POLocator/findLocations", "@spider": "usps_collection_boxes", "addr:city": "PRESQUE ISLE", "addr:country": "US", "addr:postcode": "54557", "addr:state": "WI", "addr:street_address": "8302 MAIN ST", "amenity": "post_box", "collection_times": "Mo-Sa 12:15", "indoor": "yes", "note": "ON 12/24 AND 12/31, THIS BOX MAY BE COLLECTED AS EARLY AS 12 NOON.", "nsi_id": "unitedstatespostalservice-a77078", "operator": "United States Postal Service", "operator:short": "USPS", "operator:type": "public", "operator:wikidata": "Q668687", "ref": "5455700002"}, "type": "Feature"}
{"geometry": {"coordinates": [-89.488943, 45.910705], "type": "Point"}, "id": "QtDzXSCnppHlgpKDvfq6FXxLMVI=", "properties": {"@source_uri": "https://tools.usps.com/UspsToolsRestServices/rest/POLocator/findLocations", "@spider": "usps_collection_boxes", "addr:city": "SAINT GERMAIN", "addr:country": "US", "addr:postcode": "54558", "addr:state": "WI", "addr:street_address": "415 SUNRISE LN", "amenity": "post_box", "collection_times": "Mo-Fr 16:30; Sa 11:00", "note": "ON 12/24 AND 12/31, THIS BOX MAY BE COLLECTED AS EARLY AS 12 NOON.", "nsi_id": "unitedstatespostalservice-a77078", "operator": "United States Postal Service", "operator:short": "USPS", "operator:type": "public", "operator:wikidata": "Q668687", "ref": "5455800000"}, "type": "Feature"}
{"geometry": {"coordinates": [-89.48886, 45.910667], "type": "Point"}, "id": "2bZDs7Qm-mhWZrHcMP8Up74-QSQ=", "properties": {"@source_uri": "https://tools.usps.com/UspsToolsRestServices/rest/POLocator/findLocations", "@spider": "usps_collection_boxes", "addr:city": "SAINT GERMAIN", "addr:country": "US", "addr:postcode": "54558", "addr:state": "WI", "addr:street_address": "415 SUNRISE LN", "amenity": "post_box", "collection_times": "Mo-Fr 16:30; Sa 11:00", "indoor": "yes", "note": "ON 12/24 AND 12/31, THIS BOX MAY BE COLLECTED AS EARLY AS 12 NOON.", "nsi_id": "unitedstatespostalservice-a77078", "operator": "United States Postal Service", "operator:short": "USPS", "operator:type": "public", "operator:wikidata": "Q668687", "ref": "5455800002"}, "type": "Feature"}
{"geometry": {"coordinates": [-89.48886, 45.910667], "type": "Point"}, "id": "59eN7S6MxRSoCOKjbWzSZGYzvjQ=", "properties": {"@source_uri": "https://tools.usps.com/UspsToolsRestServices/rest/POLocator/findLocations", "@spider": "usps_collection_boxes", "addr:city": "SAINT GERMAIN", "addr:country": "US", "addr:postcode": "54558", "addr:state": "WI", "addr:street_address": "415 SUNRISE LN", "amenity": "post_box", "collection_times": "Mo-Fr 16:30; Sa 11:00", "indoor": "yes", "note": "ON 12/24 AND 12/31, THIS BOX MAY BE COLLECTED AS EARLY AS 12 NOON.", "nsi_id": "unitedstatespostalservice-a77078", "operator": "United States Postal Service", "operator:short": "USPS", "operator:type": "public", "operator:wikidata": "Q668687", "ref": "5455800003"}, "type": "Feature"}
{"geometry": {"coordinates": [-89.488610478, 45.910398616], "type": "Point"}, "id": "3xLIbXXHIZTxrovVHZzejAUyZqo=", "properties": {"@source_uri": "https://tools.usps.com/UspsToolsRestServices/rest/POLocator/findLocations", "@spider": "usps_collection_boxes", "addr:city": "SAINT GERMAIN", "addr:country": "US", "addr:postcode": "54558", "addr:state": "WI", "addr:street_address": "415 SUNRISE LN", "amenity": "post_box", "collection_times": "Mo-Fr 16:30; Sa 11:00", "indoor": "yes", "note": "ON 12/24 AND 12/31, THIS BOX MAY BE COLLECTED AS EARLY AS 12 NOON.", "nsi_id": "unitedstatespostalservice-a77078", "operator": "United States Postal Service", "operator:short": "USPS", "operator:type": "public", "operator:wikidata": "Q668687", "ref": "5455800004"}, "type": "Feature"}
{"geometry": {"coordinates": [-90.451948412, 46.4903495879], "type": "Point"}, "id": "eGkaz_UBblZMcoQ2l0TcbinyR0M=", "properties": {"@source_uri": "https://tools.usps.com/UspsToolsRestServices/rest/POLocator/findLocations", "@spider": "usps_collection_boxes", "addr:city": "SAXON", "addr:country": "US", "addr:postcode": "54559", "addr:state": "WI", "addr:street_address": "14277 N STATE HIGHWAY 122", "amenity": "post_box", "collection_times": "Mo-Fr 12:00; Sa 09:45", "nsi_id": "unitedstatespostalservice-a77078", "operator": "United States Postal Service", "operator:short": "USPS", "operator:type": "public", "operator:wikidata": "Q668687", "ref": "5455900000"}, "type": "Feature"}
{"geometry": {"coordinates": [-90.451948412, 46.4903495879], "type": "Point"}, "id": "yLMe0b1ruJewBhnbHT8qhIzJr-M=", "properties": {"@source_uri": "https://tools.usps.com/UspsToolsRestServices/rest/POLocator/findLocations", "@spider": "usps_collection_boxes", "addr:city": "SAXON", "addr:country": "US", "addr:postcode": "54559", "addr:state": "WI", "addr:street_address": "14277 N STATE HIGHWAY 122", "amenity": "post_box", "collection_times": "Mo-Fr 11:30; Sa 09:30", "indoor": "yes", "nsi_id": "unitedstatespostalservice-a77078", "operator": "United States Postal Service", "operator:short": "USPS", "operator:type": "public", "operator:wikidata": "Q668687", "ref": "5455900001"}, "type": "Feature"}
{"geometry": {"coordinates": [-90.412755486, 46.493017014], "type": "Point"}, "id": "HWb-56jhHV0oNJCZxYikfQFbLMU=", "properties": {"@source_uri": "https://tools.usps.com/UspsToolsRestServices/rest/POLocator/findLocations", "@spider": "usps_collection_boxes", "addr:city": "SAXON", "addr:country": "US", "addr:postcode": "54559", "addr:state": "WI", "addr:street_address": "14277N STATE HIGHWAY 122", "amenity": "post_box", "collection_times": "Mo-Fr 11:30; Sa 09:30", "indoor": "yes", "nsi_id": "unitedstatespostalservice-a77078", "operator": "United States Postal Service", "operator:short": "USPS", "operator:type": "public", "operator:wikidata": "Q668687", "ref": "5455900002"}, "type": "Feature"}
{"geometry": {"coordinates": [-89.527851, 45.994377], "type": "Point"}, "id": "Nhh8cNxuEbeyzuULXWUD8gbwP-o=", "properties": {"@source_uri": "https://tools.usps.com/UspsToolsRestServices/rest/POLocator/findLocations", "@spider": "usps_collection_boxes", "addr:city": "SAYNER", "addr:country": "US", "addr:postcode": "54560", "addr:state": "WI", "addr:street_address": "8726 SAYNER ST", "amenity": "post_box", "collection_times": "Mo-Fr 16:00; Sa 10:00", "note": "ON 12/24 AND 12/31, THIS BOX MAY BE COLLECTED AS EARLY AS 12 NOON.", "nsi_id": "unitedstatespostalservice-a77078", "operator": "United States Postal Service", "operator:short": "USPS", "operator:type": "public", "operator:wikidata": "Q668687", "ref": "5456000000"}, "type": "Feature"}
{"geometry": {"coordinates": [-89.527851, 45.994377], "type": "Point"}, "id": "9DfnRpWqRpB_obyHyrl7lORGPps=", "properties": {"@source_uri": "https://tools.usps.com/UspsToolsRestServices/rest/POLocator/findLocations", "@spider": "usps_collection_boxes", "addr:city": "SAYNER", "addr:country": "US", "addr:postcode": "54560", "addr:state": "WI", "addr:street_address": "8726 SAYNER ST", "amenity": "post_box", "collection_times": "Mo-Fr 16:00; Sa 10:00", "indoor": "yes", "note": "ON 12/24 AND 12/31, THIS BOX MAY BE COLLECTED AS EARLY AS 12 NOON.", "nsi_id": "unitedstatespostalservice-a77078", "operator": "United States Postal Service", "operator:short": "USPS", "operator:type": "public", "operator:wikidata": "Q668687", "ref": "5456000001"}, "type": "Feature"}
{"geometry": {"coordinates": [-89.527851, 45.994377], "type": "Point"}, "id": "P38J7gbmHI5Wuc11V9wsQPNzhN0=", "properties": {"@source_uri": "https://tools.usps.com/UspsToolsRestServices/rest/POLocator/findLocations", "@spider": "usps_collection_boxes", "addr:city": "SAYNER", "addr:country": "US", "addr:postcode": "54560", "addr:state": "WI", "addr:street_address": "8726 SAYNER ST", "amenity": "post_box", "collection_times": "Mo-Fr 16:00; Sa 10:00", "indoor": "yes", "note": "ON 12/24 AND 12/31, THIS BOX MAY BE COLLECTED AS EARLY AS 12 NOON.", "nsi_id": "unitedstatespostalservice-a77078", "operator": "United States Postal Service", "operator:short": "USPS", "operator:type": "public", "operator:wikidata": "Q668687", "ref": "5456000002"}, "type": "Feature"}
{"geometry": {"coordinates": [-89.527851503, 45.994375508], "type": "Point"}, "id": "z4tc3DuE6p2la0OhBXwHX-kNfwE=", "properties": {"@source_uri": "https://tools.usps.com/UspsToolsRestServices/rest/POLocator/findLocations", "@spider": "usps_collection_boxes", "addr:city": "SAYNER", "addr:country": "US", "addr:postcode": "54560", "addr:state": "WI", "addr:street_address": "8726 SAYNER ST", "amenity": "post_box", "collection_times": "Mo-Fr 16:00; Sa 10:00", "indoor": "yes", "note": "ON 12/24 AND 12/31, THIS BOX MAY BE COLLECTED AS EARLY AS 12 NOON.", "nsi_id": "unitedstatespostalservice-a77078", "operator": "United States Postal Service", "operator:short": "USPS", "operator:type": "public", "operator:wikidata": "Q668687", "ref": "5456000003"}, "type": "Feature"}
{"geometry": {"coordinates": [-89.169037, 45.797063], "type": "Point"}, "id": "njJ0oyolA8ShWl105EVP_2xirpc=", "properties": {"@source_uri": "https://tools.usps.com/UspsToolsRestServices/rest/POLocator/findLocations", "@spider": "usps_collection_boxes", "addr:city": "THREE LAKES", "addr:country": "US", "addr:postcode": "54562", "addr:state": "WI", "addr:street_address": "6970 W SCHOOL ST", "amenity": "post_box", "collection_times": "Mo-Fr 16:30; Sa 11:30", "note": "ON 12/24 AND 12/31, THIS BOX MAY BE COLLECTED AS EARLY AS 12 NOON.", "nsi_id": "unitedstatespostalservice-a77078", "operator": "United States Postal Service", "operator:short": "USPS", "operator:type": "public", "operator:wikidata": "Q668687", "ref": "5456200000"}, "type": "Feature"}
{"geometry": {"coordinates": [-89.169029, 45.796969], "type": "Point"}, "id": "yigjYEnQoBN-Nyixf4jiICdj7e8=", "properties": {"@source_uri": "https://tools.usps.com/UspsToolsRestServices/rest/POLocator/findLocations", "@spider": "usps_collection_boxes", "addr:city": "THREE LAKES", "addr:country": "US", "addr:postcode": "54562", "addr:state": "WI", "addr:street_address": "6970 W SCHOOL ST", "amenity": "post_box", "collection_times": "Mo-Fr 16:30; Sa 11:30", "indoor": "yes", "note": "ON 12/24 AND 12/31, THIS BOX MAY BE COLLECTED AS EARLY AS 12 NOON.", "nsi_id": "unitedstatespostalservice-a77078", "operator": "United States Postal Service", "operator:short": "USPS", "operator:type": "public", "operator:wikidata": "Q668687", "ref": "5456200001"}, "type": "Feature"}
{"geometry": {"coordinates": [-89.169029, 45.796969], "type": "Point"}, "id": "NKhONBYAaxn0xjiBeFw56t1ixFA=", "properties": {"@source_uri": "https://tools.usps.com/UspsToolsRestServices/rest/POLocator/findLocations", "@spider": "usps_collection_boxes", "addr:city": "THREE LAKES", "addr:country": "US", "addr:postcode": "54562", "addr:state": "WI", "addr:street_address": "6970 W SCHOOL ST", "amenity": "post_box", "collection_times": "Mo-Fr 16:30; Sa 11:30", "indoor": "yes", "note": "ON 12/24 AND 12/31, THIS BOX MAY BE COLLECTED AS EARLY AS 12 NOON.", "nsi_id": "unitedstatespostalservice-a77078", "operator": "United States Postal Service", "operator:short": "USPS", "operator:type": "public", "operator:wikidata": "Q668687", "ref": "5456200002"}, "type": "Feature"}
{"geometry": {"coordinates": [-89.16908044, 45.797146491], "type": "Point"}, "id": "Pvo79Du1BxZogewbu4hZpH1LU28=", "properties": {"@source_uri": "https://tools.usps.com/UspsToolsRestServices/rest/POLocator/findLocations", "@spider": "usps_collection_boxes", "addr:city": "THREE LAKES", "addr:country": "US", "addr:postcode": "54562", "addr:state": "WI", "addr:street_address": "6970 W SCHOOL ST", "amenity": "post_box", "collection_times": "Mo-Fr 16:30; Sa 11:30", "indoor": "yes", "note": "ON 12/24 AND 12/31, THIS BOX MAY BE COLLECTED AS EARLY AS 12 NOON.", "nsi_id": "unitedstatespostalservice-a77078", "operator": "United States Postal Service", "operator:short": "USPS", "operator:type": "public", "operator:wikidata": "Q668687", "ref": "5456200003"}, "type": "Feature"}
{"geometry": {"coordinates": [-90.991825, 45.481026], "type": "Point"}, "id": "m6DUJ_xE2ewPEyPUwgvPkqvncN4=", "properties": {"@source_uri": "https://tools.usps.com/UspsToolsRestServices/rest/POLocator/findLocations", "@spider": "usps_collection_boxes", "addr:city": "TONY", "addr:country": "US", "addr:postcode": "54563", "addr:state": "WI", "addr:street_address": "N5331 COUNTY ROAD I", "amenity": "post_box", "collection_times": "Mo-Fr 15:45; Sa 10:30", "note": "ON 12/24 AND 12/31, THIS BOX MAY BE COLLECTED AS EARLY AS 12 NOON.", "nsi_id": "unitedstatespostalservice-a77078", "operator": "United States Postal Service", "operator:short": "USPS", "operator:type": "public", "operator:wikidata": "Q668687", "ref": "5456300000"}, "type": "Feature"}
{"geometry": {"coordinates": [-90.991825, 45.481026], "type": "Point"}, "id": "RZNRcJ7A0sUuud1yEKXdp0tktQA=", "properties": {"@source_uri": "https://tools.usps.com/UspsToolsRestServices/rest/POLocator/findLocations", "@spider": "usps_collection_boxes", "addr:city": "TONY", "addr:country": "US", "addr:postcode": "54563", "addr:state": "WI", "addr:street_address": "N5331 COUNTY ROAD I", "amenity": "post_box", "collection_times": "Mo-Fr 15:45; Sa 10:30", "indoor": "yes", "note": "ON 12/24 AND 12/31, THIS BOX MAY BE COLLECTED AS EARLY AS 12 NOON.", "nsi_id": "unitedstatespostalservice-a77078", "operator": "United States Postal Service", "operator:short": "USPS", "operator:type": "public", "operator:wikidata": "Q668687", "ref": "5456300001"}, "type": "Feature"}
{"geometry": {"coordinates": [-90.991844758, 45.481018586], "type": "Point"}, "id": "4sukLD1LtWpQ1wDUnA0EkxSofL8=", "properties": {"@source_uri": "https://tools.usps.com/UspsToolsRestServices/rest/POLocator/findLocations", "@spider": "usps_collection_boxes", "addr:city": "TONY", "addr:country": "US", "addr:postcode": "54563", "addr:state": "WI", "addr:street_address": "N5331 COUNTY ROAD I", "amenity": "post_box", "collection_times": "Mo-Fr 15:45; Sa 10:30", "indoor": "yes", "note": "ON 12/24 AND 12/31, THIS BOX MAY BE COLLECTED AS EARLY AS 12 NOON.", "nsi_id": "unitedstatespostalservice-a77078", "operator": "United States Postal Service", "operator:short": "USPS", "operator:type": "public", "operator:wikidata": "Q668687", "ref": "5456300002"}, "type": "Feature"}
{"geometry": {"coordinates": [-89.993456961, 45.555192016], "type": "Point"}, "id": "6nSf_6abodDD_D1z4DUOhbSW-Oc=", "properties": {"@source_uri": "https://tools.usps.com/UspsToolsRestServices/rest/POLocator/findLocations", "@spider": "usps_collection_boxes", "addr:city": "TRIPOLI", "addr:country": "US", "addr:postcode": "54564", "addr:state": "WI", "addr:street_address": "13758 US HIGHWAY 8", "amenity": "post_box", "collection_times": "Mo-Fr 15:45; Sa 12:00", "note": "ON 12/24 AND 12/31, THIS BOX MAY BE COLLECTED AS EARLY AS 12 NOON.", "nsi_id": "unitedstatespostalservice-a77078", "operator": "United States Postal Service", "operator:short": "USPS", "operator:type": "public", "operator:wikidata": "Q668687", "ref": "5456400000"}, "type": "Feature"}
{"geometry": {"coordinates": [-89.993456961, 45.555192016], "type": "Point"}, "id": "pgaM0GhTNWVOZghOS1-NXrOFAh0=", "properties": {"@source_uri": "https://tools.usps.com/UspsToolsRestServices/rest/POLocator/findLocations", "@spider": "usps_collection_boxes", "addr:city": "TRIPOLI", "addr:country": "US", "addr:postcode": "54564", "addr:state": "WI", "addr:street_address": "13758 US HIGHWAY 8", "amenity": "post_box", "collection_times": "Mo-Fr 15:45; Sa 12:00", "indoor": "yes", "note": "ON 12/24 AND 12/31, THIS BOX MAY BE COLLECTED AS EARLY AS 12 NOON.", "nsi_id": "unitedstatespostalservice-a77078", "operator": "United States Postal Service", "operator:short": "USPS", "operator:type": "public", "operator:wikidata": "Q668687", "ref": "5456400001"}, "type": "Feature"}
{"geometry": {"coordinates": [-89.993456961, 45.555192016], "type": "Point"}, "id": "bihLIGQJIYcNV6N0euNr_gyc6a4=", "properties": {"@source_uri": "https://tools.usps.com/UspsToolsRestServices/rest/POLocator/findLocations", "@spider": "usps_collection_boxes", "addr:city": "TRIPOLI", "addr:country": "US", "addr:postcode": "54564", "addr:state": "WI", "addr:street_address": "13758 US HIGHWAY 8", "amenity": "post_box", "collection_times": "Mo-Fr 15:45; Sa 12:00", "indoor": "yes", "note": "ON 12/24 AND 12/31, THIS BOX MAY BE COLLECTED AS EARLY AS 12 NOON.", "nsi_id": "unitedstatespostalservice-a77078", "operator": "United States Postal Service", "operator:short": "USPS", "operator:type": "public", "operator:wikidata": "Q668687", "ref": "5456400002"}, "type": "Feature"}
{"geometry": {"coordinates": [-88.661074, 45.43885], "type": "Point"}, "id": "AOdcSV85o7ALJBpNj5V5TBgUOGc=", "properties": {"@source_uri": "https://tools.usps.com/UspsToolsRestServices/rest/POLocator/findLocations", "@spider": "usps_collection_boxes", "addr:city": "WABENO", "addr:country": "US", "addr:postcode": "54566", "addr:state": "WI", "addr:street_address": "4553 N BRANCH ST", "amenity": "post_box", "collection_times": "Mo-Fr 15:30; Sa 09:30", "note": "ON 12/24 AND 12/31, THIS BOX MAY BE COLLECTED AS EARLY AS 12 NOON.", "nsi_id": "unitedstatespostalservice-a77078", "operator": "United States Postal Service", "operator:short": "USPS", "operator:type": "public", "operator:wikidata": "Q668687", "ref": "5456600000"}, "type": "Feature"}
{"geometry": {"coordinates": [-88.661074, 45.43885], "type": "Point"}, "id": "ZAsbvMXcgvXcSfGgSR6hqb9PLkA=", "properties": {"@source_uri": "https://tools.usps.com/UspsToolsRestServices/rest/POLocator/findLocations", "@spider": "usps_collection_boxes", "addr:city": "WABENO", "addr:country": "US", "addr:postcode": "54566", "addr:state": "WI", "addr:street_address": "4553 N BRANCH ST", "amenity": "post_box", "collection_times": "Mo-Fr 15:30; Sa 09:30", "indoor": "yes", "note": "ON 12/24 AND 12/31, THIS BOX MAY BE COLLECTED AS EARLY AS 12 NOON.", "nsi_id": "unitedstatespostalservice-a77078", "operator": "United States Postal Service", "operator:short": "USPS", "operator:type": "public", "operator:wikidata": "Q668687", "ref": "5456600001"}, "type": "Feature"}
{"geometry": {"coordinates": [-88.661191, 45.438853], "type": "Point"}, "id": "3oaDLu-bLVOLE9jONaNzA-xoK-4=", "properties": {"@source_uri": "https://tools.usps.com/UspsToolsRestServices/rest/POLocator/findLocations", "@spider": "usps_collection_boxes", "addr:city": "WABENO", "addr:country": "US", "addr:postcode": "54566", "addr:state": "WI", "addr:street_address": "4553 N BRANCH ST", "amenity": "post_box", "collection_times": "Mo-Fr 15:30; Sa 09:30", "indoor": "yes", "note": "ON 12/24 AND 12/31, THIS BOX MAY BE COLLECTED AS EARLY AS 12 NOON.", "nsi_id": "unitedstatespostalservice-a77078", "operator": "United States Postal Service", "operator:short": "USPS", "operator:type": "public", "operator:wikidata": "Q668687", "ref": "5456600002"}, "type": "Feature"}
{"geometry": {"coordinates": [-88.661209559, 45.43879597], "type": "Point"}, "id": "vMpNUixkv3DG1hssnYqAjHslpbE=", "properties": {"@source_uri": "https://tools.usps.com/UspsToolsRestServices/rest/POLocator/findLocations", "@spider": "usps_collection_boxes", "addr:city": "WABENO", "addr:country": "US", "addr:postcode": "54566", "addr:state": "WI", "addr:street_address": "4553 N BRANCH ST", "amenity": "post_box", "collection_times": "Mo-Fr 15:30; Sa 09:30", "indoor": "yes", "note": "ON 12/24 AND 12/31, THIS BOX MAY BE COLLECTED AS EARLY AS 12 NOON.", "nsi_id": "unitedstatespostalservice-a77078", "operator": "United States Postal Service", "operator:short": "USPS", "operator:type": "public", "operator:wikidata": "Q668687", "ref": "5456600003"}, "type": "Feature"}
{"geometry": {"coordinates": [-89.6898774182, 45.8952204457], "type": "Point"}, "id": "yOzC-ZWd2P3PKtHgdVJ6mzMCwDU=", "properties": {"@source_uri": "https://tools.usps.com/UspsToolsRestServices/rest/POLocator/findLocations", "@spider": "usps_collection_boxes", "addr:city": "WOODRUFF", "addr:country": "US", "addr:postcode": "54568", "addr:state": "WI", "addr:street_address": "610 VETERANS PKWY", "amenity": "post_box", "collection_times": "Mo-Fr 16:30; Sa 12:00", "note": "ON 12/24 AND 12/31, THIS BOX MAY BE COLLECTED AS EARLY AS 12 NOON.", "nsi_id": "unitedstatespostalservice-a77078", "operator": "United States Postal Service", "operator:short": "USPS", "operator:type": "public", "operator:wikidata": "Q668687", "ref": "5456800004"}, "type": "Feature"}
{"geometry": {"coordinates": [-89.6898774182, 45.8952204457], "type": "Point"}, "id": "Eb11WO2EZkw436Ar7v7tua_vd8I=", "properties": {"@source_uri": "https://tools.usps.com/UspsToolsRestServices/rest/POLocator/findLocations", "@spider": "usps_collection_boxes", "addr:city": "WOODRUFF", "addr:country": "US", "addr:postcode": "54568", "addr:state": "WI", "addr:street_address": "610 VETERANS PKWY", "amenity": "post_box", "collection_times": "Mo-Fr 16:30; Sa 12:00", "note": "ON 12/24 AND 12/31, THIS BOX MAY BE COLLECTED AS EARLY AS 12 NOON.", "nsi_id": "unitedstatespostalservice-a77078", "operator": "United States Postal Service", "operator:short": "USPS", "operator:type": "public", "operator:wikidata": "Q668687", "ref": "5456800005"}, "type": "Feature"}
{"geometry": {"coordinates": [-89.689886, 45.894719], "type": "Point"}, "id": "2prja1TgvkGbmPTqvblqHHoUBDc=", "properties": {"@source_uri": "https://tools.usps.com/UspsToolsRestServices/rest/POLocator/findLocations", "@spider": "usps_collection_boxes", "addr:city": "WOODRUFF", "addr:country": "US", "addr:postcode": "54568", "addr:state": "WI", "addr:street_address": "610 VETERANS PKWY", "amenity": "post_box", "collection_times": "Mo-Fr 16:30; Sa 12:00", "indoor": "yes", "note": "ON 12/24 AND 12/31, THIS BOX MAY BE COLLECTED AS EARLY AS 12 NOON.", "nsi_id": "unitedstatespostalservice-a77078", "operator": "United States Postal Service", "operator:short": "USPS", "operator:type": "public", "operator:wikidata": "Q668687", "ref": "5456800007"}, "type": "Feature"}
{"geometry": {"coordinates": [-89.689886, 45.894719], "type": "Point"}, "id": "aOfHR53xtTbEMvVTP9itpqb8XwU=", "properties": {"@source_uri": "https://tools.usps.com/UspsToolsRestServices/rest/POLocator/findLocations", "@spider": "usps_collection_boxes", "addr:city": "WOODRUFF", "addr:country": "US", "addr:postcode": "54568", "addr:state": "WI", "addr:street_address": "610 VETERANS PKWY", "amenity": "post_box", "collection_times": "Mo-Fr 16:30; Sa 12:00", "indoor": "yes", "note": "ON 12/24 AND 12/31, THIS BOX MAY BE COLLECTED AS EARLY AS 12 NOON.", "nsi_id": "unitedstatespostalservice-a77078", "operator": "United States Postal Service", "operator:short": "USPS", "operator:type": "public", "operator:wikidata": "Q668687", "ref": "5456800008"}, "type": "Feature"}
{"geometry": {"coordinates": [-89.689877418, 45.895220446], "type": "Point"}, "id": "RqNkbTzRLFqjxGn0xfK8vHReqPM=", "properties": {"@source_uri": "https://tools.usps.com/UspsToolsRestServices/rest/POLocator/findLocations", "@spider": "usps_collection_boxes", "addr:city": "WOODRUFF", "addr:country": "US", "addr:postcode": "54568", "addr:state": "WI", "addr:street_address": "610 VETERANS PKWY", "amenity": "post_box", "collection_times": "Mo-Fr 16:30; Sa 12:00", "indoor": "yes", "note": "ON 12/24 AND 12/31, THIS BOX MAY BE COLLECTED AS EARLY AS 12 NOON.", "nsi_id": "unitedstatespostalservice-a77078", "operator": "United States Postal Service", "operator:short": "USPS", "operator:type": "public", "operator:wikidata": "Q668687", "ref": "5456800010"}, "type": "Feature"}
