{"geometry": {"coordinates": [-91.246245, 43.80875], "type": "Point"}, "id": "OYZJnVawP8GtyoQN7qRAe7A2soE=", "properties": {"@source_uri": "https://tools.usps.com/UspsToolsRestServices/rest/POLocator/findLocations", "@spider": "usps_collection_boxes", "addr:city": "LA CROSSE", "addr:country": "US", "addr:postcode": "54601", "addr:state": "WI", "addr:street_address": "400 LACROSSE ST", "amenity": "post_box", "collection_times": "Mo-Fr 11:00", "nsi_id": "unitedstatespostalservice-a77078", "operator": "United States Postal Service", "operator:short": "USPS", "operator:type": "public", "operator:wikidata": "Q668687", "ref": "5460100015"}, "type": "Feature"}
{"geometry": {"coordinates": [-91.250143467, 43.806491665], "type": "Point"}, "id": "tbrMP33yKkp0iKNODAk1EkdgB60=", "properties": {"@source_uri": "https://tools.usps.com/UspsToolsRestServices/rest/POLocator/findLocations", "@spider": "usps_collection_boxes", "addr:city": "LA CROSSE", "addr:country": "US", "addr:postcode": "54601", "addr:state": "WI", "addr:street_address": "601 5TH AVE S", "amenity": "post_box", "collection_times": "Mo-Sa 11:00", "nsi_id": "unitedstatespostalservice-a77078", "operator": "United States Postal Service", "operator:short": "USPS", "operator:type": "public", "operator:wikidata": "Q668687", "ref": "5460100023"}, "type": "Feature"}
{"geometry": {"coordinates": [-91.236303807, 43.7942145], "type": "Point"}, "id": "h3trnKZy75rm5iksz7DAR2T0n3Y=", "properties": {"@source_uri": "https://tools.usps.com/UspsToolsRestServices/rest/POLocator/findLocations", "@spider": "usps_collection_boxes", "addr:city": "LA CROSSE", "addr:country": "US", "addr:postcode": "54601", "addr:state": "WI", "addr:street_address": "1329 GREEN BAY ST", "amenity": "post_box", "collection_times": "Mo-Sa 10:00", "nsi_id": "unitedstatespostalservice-a77078", "operator": "United States Postal Service", "operator:short": "USPS", "operator:type": "public", "operator:wikidata": "Q668687", "ref": "5460100033"}, "type": "Feature"}
{"geometry": {"coordinates": [-91.239649005, 43.802243811], "type": "Point"}, "id": "MvL1bEu97Tz_JZwjAlYFfqWBSBw=", "properties": {"@source_uri": "https://tools.usps.com/UspsToolsRestServices/rest/POLocator/findLocations", "@spider": "usps_collection_boxes", "addr:city": "LA CROSSE", "addr:country": "US", "addr:postcode": "54601", "addr:state": "WI", "addr:street_address": "900 WEST AVE S", "amenity": "post_box", "collection_times": "Mo-Sa 10:30", "nsi_id": "unitedstatespostalservice-a77078", "operator": "United States Postal Service", "operator:short": "USPS", "operator:type": "public", "operator:wikidata": "Q668687", "ref": "5460100036"}, "type": "Feature"}
{"geometry": {"coordinates": [-91.229143118, 43.801449502], "type": "Point"}, "id": "Bvu9iX0z_5AXp8_0gV7tVERpBZs=", "properties": {"@source_uri": "https://tools.usps.com/UspsToolsRestServices/rest/POLocator/findLocations", "@spider": "usps_collection_boxes", "addr:city": "LA CROSSE", "addr:country": "US", "addr:postcode": "54601", "addr:state": "WI", "addr:street_address": "1820 JACKSON ST", "amenity": "post_box", "collection_times": "Mo-Sa 10:00", "nsi_id": "unitedstatespostalservice-a77078", "operator": "United States Postal Service", "operator:short": "USPS", "operator:type": "public", "operator:wikidata": "Q668687", "ref": "5460100039"}, "type": "Feature"}
{"geometry": {"coordinates": [-91.246245, 43.80875], "type": "Point"}, "id": "Jn9ci3Yz0g8bCNfkjv5XOicn-xU=", "properties": {"@source_uri": "https://tools.usps.com/UspsToolsRestServices/rest/POLocator/findLocations", "@spider": "usps_collection_boxes", "addr:city": "LA CROSSE", "addr:country": "US", "addr:postcode": "54601", "addr:state": "WI", "addr:street_address": "921 LOSEY BLVD S", "amenity": "post_box", "collection_times": "Mo-Sa 10:00", "nsi_id": "unitedstatespostalservice-a77078", "operator": "United States Postal Service", "operator:short": "USPS", "operator:type": "public", "operator:wikidata": "Q668687", "ref": "5460100042"}, "type": "Feature"}
{"geometry": {"coordinates": [-91.250113438, 43.809966], "type": "Point"}, "id": "A4CMo49UyZc46bxqYHu8qH-zvpo=", "properties": {"@source_uri": "https://tools.usps.com/UspsToolsRestServices/rest/POLocator/findLocations", "@spider": "usps_collection_boxes", "addr:city": "LA CROSSE", "addr:country": "US", "addr:postcode": "54601", "addr:state": "WI", "addr:street_address": "305 5TH AVE S", "amenity": "post_box", "collection_times": "Mo-Sa 11:00", "nsi_id": "unitedstatespostalservice-a77078", "operator": "United States Postal Service", "operator:short": "USPS", "operator:type": "public", "operator:wikidata": "Q668687", "ref": "5460100043"}, "type": "Feature"}
{"geometry": {"coordinates": [-91.246691989, 43.809856743], "type": "Point"}, "id": "fSD8R3mz-mW4yFt8DKsRniGbW40=", "properties": {"@source_uri": "https://tools.usps.com/UspsToolsRestServices/rest/POLocator/findLocations", "@spider": "usps_collection_boxes", "addr:city": "LA CROSSE", "addr:country": "US", "addr:postcode": "54601", "addr:state": "WI", "addr:street_address": "201 7TH ST S", "amenity": "post_box", "collection_times": "Mo-Sa 12:30", "note": "ON 12/24 AND 12/31, THIS BOX MAY BE COLLECTED AS EARLY AS 12 NOON.", "nsi_id": "unitedstatespostalservice-a77078", "operator": "United States Postal Service", "operator:short": "USPS", "operator:type": "public", "operator:wikidata": "Q668687", "ref": "5460100045"}, "type": "Feature"}
{"geometry": {"coordinates": [-91.234560526, 43.804650519], "type": "Point"}, "id": "7CywKogv91LlBqngMUbSu6q3cZM=", "properties": {"@source_uri": "https://tools.usps.com/UspsToolsRestServices/rest/POLocator/findLocations", "@spider": "usps_collection_boxes", "addr:city": "LA CROSSE", "addr:country": "US", "addr:postcode": "54601", "addr:state": "WI", "addr:street_address": "1437 MARKET ST", "amenity": "post_box", "collection_times": "Mo-Sa 10:00", "nsi_id": "unitedstatespostalservice-a77078", "operator": "United States Postal Service", "operator:short": "USPS", "operator:type": "public", "operator:wikidata": "Q668687", "ref": "5460100062"}, "type": "Feature"}
{"geometry": {"coordinates": [-91.235623165, 43.814991532], "type": "Point"}, "id": "awsL3tHriU2PVaJUw3-yJU8ZSnE=", "properties": {"@source_uri": "https://tools.usps.com/UspsToolsRestServices/rest/POLocator/findLocations", "@spider": "usps_collection_boxes", "addr:city": "LA CROSSE", "addr:country": "US", "addr:postcode": "54601", "addr:state": "WI", "addr:street_address": "1400 PINE ST", "amenity": "post_box", "collection_times": "Mo-Sa 10:00", "nsi_id": "unitedstatespostalservice-a77078", "operator": "United States Postal Service", "operator:short": "USPS", "operator:type": "public", "operator:wikidata": "Q668687", "ref": "5460100070"}, "type": "Feature"}
{"geometry": {"coordinates": [-91.23021, 43.811743472], "type": "Point"}, "id": "sd8m71X_oy0FVd0HdXscM-E60Fg=", "properties": {"@source_uri": "https://tools.usps.com/UspsToolsRestServices/rest/POLocator/findLocations", "@spider": "usps_collection_boxes", "addr:city": "LA CROSSE", "addr:country": "US", "addr:postcode": "54601", "addr:state": "WI", "addr:street_address": "1707 MAIN ST", "amenity": "post_box", "collection_times": "Mo-Sa 12:00", "nsi_id": "unitedstatespostalservice-a77078", "operator": "United States Postal Service", "operator:short": "USPS", "operator:type": "public", "operator:wikidata": "Q668687", "ref": "5460100099"}, "type": "Feature"}
{"geometry": {"coordinates": [-91.217376281, 43.795509335], "type": "Point"}, "id": "XQUGhOWe0hAR2Pjv2o8gMU4OnCM=", "properties": {"@source_uri": "https://tools.usps.com/UspsToolsRestServices/rest/POLocator/findLocations", "@spider": "usps_collection_boxes", "addr:city": "LA CROSSE", "addr:country": "US", "addr:postcode": "54601", "addr:state": "WI", "addr:street_address": "2442 STATE RD", "amenity": "post_box", "collection_times": "Mo-Sa 10:00", "nsi_id": "unitedstatespostalservice-a77078", "operator": "United States Postal Service", "operator:short": "USPS", "operator:type": "public", "operator:wikidata": "Q668687", "ref": "5460100112"}, "type": "Feature"}
{"geometry": {"coordinates": [-91.211808743, 43.767114082], "type": "Point"}, "id": "Dk6tnw7Adyz_JAeDHAm-G7qgzVQ=", "properties": {"@source_uri": "https://tools.usps.com/UspsToolsRestServices/rest/POLocator/findLocations", "@spider": "usps_collection_boxes", "addr:city": "LA CROSSE", "addr:country": "US", "addr:postcode": "54601", "addr:state": "WI", "addr:street_address": "4622 MORMON COULEE RD", "amenity": "post_box", "collection_times": "Mo-Sa 12:00", "nsi_id": "unitedstatespostalservice-a77078", "operator": "United States Postal Service", "operator:short": "USPS", "operator:type": "public", "operator:wikidata": "Q668687", "ref": "5460100113"}, "type": "Feature"}
{"geometry": {"coordinates": [-91.250262053, 43.81319176], "type": "Point"}, "id": "P3EihzWWx-bys2r7uvGKLOk3WUY=", "properties": {"@source_uri": "https://tools.usps.com/UspsToolsRestServices/rest/POLocator/findLocations", "@spider": "usps_collection_boxes", "addr:city": "LA CROSSE", "addr:country": "US", "addr:postcode": "54601", "addr:state": "WI", "addr:street_address": "425 STATE ST", "amenity": "post_box", "collection_times": "Mo-Sa 15:45", "note": "ON 12/24 AND 12/31, THIS BOX MAY BE COLLECTED AS EARLY AS 12 NOON.", "nsi_id": "unitedstatespostalservice-a77078", "operator": "United States Postal Service", "operator:short": "USPS", "operator:type": "public", "operator:wikidata": "Q668687", "ref": "5460100118"}, "type": "Feature"}
{"geometry": {"coordinates": [-91.250561191, 43.814423762], "type": "Point"}, "id": "5ukagQPJsgou3V5BEL4OQYsLuk8=", "properties": {"@source_uri": "https://tools.usps.com/UspsToolsRestServices/rest/POLocator/findLocations", "@spider": "usps_collection_boxes", "addr:city": "LA CROSSE", "addr:country": "US", "addr:postcode": "54601", "addr:state": "WI", "addr:street_address": "333 VINE ST", "amenity": "post_box", "collection_times": "Mo-Sa 15:45", "note": "ON 12/24 AND 12/31, THIS BOX MAY BE COLLECTED AS EARLY AS 12 NOON.", "nsi_id": "unitedstatespostalservice-a77078", "operator": "United States Postal Service", "operator:short": "USPS", "operator:type": "public", "operator:wikidata": "Q668687", "ref": "5460100124"}, "type": "Feature"}
{"geometry": {"coordinates": [-91.230001184, 43.812871184], "type": "Point"}, "id": "DHragO9CvLRsDGixfm4LwGOrMU0=", "properties": {"@source_uri": "https://tools.usps.com/UspsToolsRestServices/rest/POLocator/findLocations", "@spider": "usps_collection_boxes", "addr:city": "LA CROSSE", "addr:country": "US", "addr:postcode": "54601", "addr:state": "WI", "addr:street_address": "1725 STATE ST", "amenity": "post_box", "collection_times": "Mo-Fr 10:00", "nsi_id": "unitedstatespostalservice-a77078", "operator": "United States Postal Service", "operator:short": "USPS", "operator:type": "public", "operator:wikidata": "Q668687", "ref": "5460100127"}, "type": "Feature"}
{"geometry": {"coordinates": [-91.250262053, 43.81319176], "type": "Point"}, "id": "Lt1fVpNRdbcVYfemSo2n_rDhAyI=", "properties": {"@source_uri": "https://tools.usps.com/UspsToolsRestServices/rest/POLocator/findLocations", "@spider": "usps_collection_boxes", "addr:city": "LA CROSSE", "addr:country": "US", "addr:postcode": "54601", "addr:state": "WI", "addr:street_address": "425 STATE ST", "amenity": "post_box", "collection_times": "Mo-Sa 15:45", "indoor": "yes", "note": "ON 12/24 AND 12/31, THIS BOX MAY BE COLLECTED AS EARLY AS 12 NOON.", "nsi_id": "unitedstatespostalservice-a77078", "operator": "United States Postal Service", "operator:short": "USPS", "operator:type": "public", "operator:wikidata": "Q668687", "ref": "5460100128"}, "type": "Feature"}
{"geometry": {"coordinates": [-91.196991814, 43.872107852], "type": "Point"}, "id": "YYd94bXfqLr3xnIC0wKe3Fok90M=", "properties": {"@source_uri": "https://tools.usps.com/UspsToolsRestServices/rest/POLocator/findLocations", "@spider": "usps_collection_boxes", "addr:city": "LA CROSSE", "addr:country": "US", "addr:postcode": "54601", "addr:state": "WI", "addr:street_address": "1290 COUNTY RD PH", "amenity": "post_box", "collection_times": "Mo-Sa 09:00", "nsi_id": "unitedstatespostalservice-a77078", "operator": "United States Postal Service", "operator:short": "USPS", "operator:type": "public", "operator:wikidata": "Q668687", "ref": "5460100135"}, "type": "Feature"}
{"geometry": {"coordinates": [-91.250262053, 43.81319176], "type": "Point"}, "id": "MAlJmhIbsPrugDWA-gs8hmnk0NQ=", "properties": {"@source_uri": "https://tools.usps.com/UspsToolsRestServices/rest/POLocator/findLocations", "@spider": "usps_collection_boxes", "addr:city": "LA CROSSE", "addr:country": "US", "addr:postcode": "54601", "addr:state": "WI", "addr:street_address": "425 STATE ST", "amenity": "post_box", "collection_times": "Mo-Sa 15:45", "note": "ON 12/24 AND 12/31, THIS BOX MAY BE COLLECTED AS EARLY AS 12 NOON.", "nsi_id": "unitedstatespostalservice-a77078", "operator": "United States Postal Service", "operator:short": "USPS", "operator:type": "public", "operator:wikidata": "Q668687", "ref": "5460100136"}, "type": "Feature"}
{"geometry": {"coordinates": [-91.250262053, 43.81319176], "type": "Point"}, "id": "EEQlRG3GYH8otSMC6lyXlfYcl7s=", "properties": {"@source_uri": "https://tools.usps.com/UspsToolsRestServices/rest/POLocator/findLocations", "@spider": "usps_collection_boxes", "addr:city": "LA CROSSE", "addr:country": "US", "addr:postcode": "54601", "addr:state": "WI", "addr:street_address": "425 STATE ST", "amenity": "post_box", "collection_times": "Mo-Sa 15:45", "note": "ON 12/24 AND 12/31, THIS BOX MAY BE COLLECTED AS EARLY AS 12 NOON.", "nsi_id": "unitedstatespostalservice-a77078", "operator": "United States Postal Service", "operator:short": "USPS", "operator:type": "public", "operator:wikidata": "Q668687", "ref": "5460100140"}, "type": "Feature"}
{"geometry": {"coordinates": [-91.250064, 43.810062464], "type": "Point"}, "id": "sa1umFHm5QdkT3i5_GQnogdoKfA=", "properties": {"@source_uri": "https://tools.usps.com/UspsToolsRestServices/rest/POLocator/findLocations", "@spider": "usps_collection_boxes", "addr:city": "LA CROSSE", "addr:country": "US", "addr:postcode": "54601", "addr:state": "WI", "addr:street_address": "505 KING ST", "amenity": "post_box", "collection_times": "Mo-Fr 11:00", "nsi_id": "unitedstatespostalservice-a77078", "operator": "United States Postal Service", "operator:short": "USPS", "operator:type": "public", "operator:wikidata": "Q668687", "ref": "5460100141"}, "type": "Feature"}
{"geometry": {"coordinates": [-91.253503301, 43.813174775], "type": "Point"}, "id": "5TkGrpxR0-tYteZ6Y6kzGHW2S-0=", "properties": {"@source_uri": "https://tools.usps.com/UspsToolsRestServices/rest/POLocator/findLocations", "@spider": "usps_collection_boxes", "addr:city": "LA CROSSE", "addr:country": "US", "addr:postcode": "54601", "addr:state": "WI", "addr:street_address": "201 MAIN ST", "amenity": "post_box", "collection_times": "Mo-Sa 12:00", "nsi_id": "unitedstatespostalservice-a77078", "operator": "United States Postal Service", "operator:short": "USPS", "operator:type": "public", "operator:wikidata": "Q668687", "ref": "5460100143"}, "type": "Feature"}
{"geometry": {"coordinates": [-91.244889388, 43.811609481], "type": "Point"}, "id": "XNaLq0jJCGz4CQ2dlBmHMEFVVVM=", "properties": {"@source_uri": "https://tools.usps.com/UspsToolsRestServices/rest/POLocator/findLocations", "@spider": "usps_collection_boxes", "addr:city": "LA CROSSE", "addr:country": "US", "addr:postcode": "54601", "addr:state": "WI", "addr:street_address": "800 MAIN ST", "amenity": "post_box", "collection_times": "Mo-Fr 10:00", "nsi_id": "unitedstatespostalservice-a77078", "operator": "United States Postal Service", "operator:short": "USPS", "operator:type": "public", "operator:wikidata": "Q668687", "ref": "5460100150"}, "type": "Feature"}
{"geometry": {"coordinates": [-91.2500505, 43.808742525], "type": "Point"}, "id": "eeqSvp3KdHavDMju2Yg_BHuZjrw=", "properties": {"@source_uri": "https://tools.usps.com/UspsToolsRestServices/rest/POLocator/findLocations", "@spider": "usps_collection_boxes", "addr:city": "LA CROSSE", "addr:country": "US", "addr:postcode": "54601", "addr:state": "WI", "addr:street_address": "506 CASS ST", "amenity": "post_box", "collection_times": "Mo-Sa 11:30", "nsi_id": "unitedstatespostalservice-a77078", "operator": "United States Postal Service", "operator:short": "USPS", "operator:type": "public", "operator:wikidata": "Q668687", "ref": "5460100151"}, "type": "Feature"}
{"geometry": {"coordinates": [-91.250262053, 43.81319176], "type": "Point"}, "id": "txldML40x49dQDzorKhC3QPjjtQ=", "properties": {"@source_uri": "https://tools.usps.com/UspsToolsRestServices/rest/POLocator/findLocations", "@spider": "usps_collection_boxes", "addr:city": "LA CROSSE", "addr:country": "US", "addr:postcode": "54601", "addr:state": "WI", "addr:street_address": "425 STATE ST", "amenity": "post_box", "collection_times": "Mo-Sa 15:45", "name": "USPS COLLECTION BOX - APC", "note": "ON 12/24 AND 12/31, THIS BOX MAY BE COLLECTED AS EARLY AS 12 NOON.", "nsi_id": "unitedstatespostalservice-a77078", "operator": "United States Postal Service", "operator:short": "USPS", "operator:type": "public", "operator:wikidata": "Q668687", "ref": "5460100156"}, "type": "Feature"}
{"geometry": {"coordinates": [-91.250262053, 43.81319176], "type": "Point"}, "id": "bnLpNi8m09ndyXqxEj40qb-HdME=", "properties": {"@source_uri": "https://tools.usps.com/UspsToolsRestServices/rest/POLocator/findLocations", "@spider": "usps_collection_boxes", "addr:city": "LA CROSSE", "addr:country": "US", "addr:postcode": "54601", "addr:state": "WI", "addr:street_address": "425 STATE ST STE 100", "amenity": "post_box", "collection_times": "Mo-Fr 16:00; Sa 12:00", "indoor": "yes", "note": "ON 12/24 AND 12/31, THIS BOX MAY BE COLLECTED AS EARLY AS 12 NOON.", "nsi_id": "unitedstatespostalservice-a77078", "operator": "United States Postal Service", "operator:short": "USPS", "operator:type": "public", "operator:wikidata": "Q668687", "ref": "5460100158"}, "type": "Feature"}
{"geometry": {"coordinates": [-91.266690669, 43.875772909], "type": "Point"}, "id": "CpTBLFTNfwgkyBMv7qopGv-rwLA=", "properties": {"@source_uri": "https://tools.usps.com/UspsToolsRestServices/rest/POLocator/findLocations", "@spider": "usps_collection_boxes", "addr:city": "LA CROSSE", "addr:country": "US", "addr:postcode": "54603", "addr:state": "WI", "addr:street_address": "2975 AIRPORT RD", "amenity": "post_box", "collection_times": "Mo-Fr 10:00", "nsi_id": "unitedstatespostalservice-a77078", "operator": "United States Postal Service", "operator:short": "USPS", "operator:type": "public", "operator:wikidata": "Q668687", "ref": "5460300001"}, "type": "Feature"}
{"geometry": {"coordinates": [-91.246810084, 43.841231749], "type": "Point"}, "id": "gnImhbRuZAansRXfqUOynL1mLZE=", "properties": {"@source_uri": "https://tools.usps.com/UspsToolsRestServices/rest/POLocator/findLocations", "@spider": "usps_collection_boxes", "addr:city": "LA CROSSE", "addr:country": "US", "addr:postcode": "54603", "addr:state": "WI", "addr:street_address": "1233 CALEDONIA ST", "amenity": "post_box", "collection_times": "Mo-Sa 11:00", "nsi_id": "unitedstatespostalservice-a77078", "operator": "United States Postal Service", "operator:short": "USPS", "operator:type": "public", "operator:wikidata": "Q668687", "ref": "5460300007"}, "type": "Feature"}
{"geometry": {"coordinates": [-91.239749044, 43.846783827], "type": "Point"}, "id": "sToUujIBGooemJM2ayl5T3fLzf0=", "properties": {"@source_uri": "https://tools.usps.com/UspsToolsRestServices/rest/POLocator/findLocations", "@spider": "usps_collection_boxes", "addr:city": "LA CROSSE", "addr:country": "US", "addr:postcode": "54603", "addr:state": "WI", "addr:street_address": "1607 GEORGE ST", "amenity": "post_box", "collection_times": "Mo-Sa 13:00", "note": "ON 12/24 AND 12/31, THIS BOX MAY BE COLLECTED AS EARLY AS 12 NOON.", "nsi_id": "unitedstatespostalservice-a77078", "operator": "United States Postal Service", "operator:short": "USPS", "operator:type": "public", "operator:wikidata": "Q668687", "ref": "5460300012"}, "type": "Feature"}
{"geometry": {"coordinates": [-91.239591628, 43.832817], "type": "Point"}, "id": "zDqVwKnJW7EdrwKQSOoqpy9h3c0=", "properties": {"@source_uri": "https://tools.usps.com/UspsToolsRestServices/rest/POLocator/findLocations", "@spider": "usps_collection_boxes", "addr:city": "LA CROSSE", "addr:country": "US", "addr:postcode": "54603", "addr:state": "WI", "addr:street_address": "507 LANG DR", "amenity": "post_box", "collection_times": "Mo-Sa 10:00", "nsi_id": "unitedstatespostalservice-a77078", "operator": "United States Postal Service", "operator:short": "USPS", "operator:type": "public", "operator:wikidata": "Q668687", "ref": "5460300014"}, "type": "Feature"}
{"geometry": {"coordinates": [-91.263103768, 43.859273484], "type": "Point"}, "id": "JXmON4PgkIYDPEs4takuCTLDnTQ=", "properties": {"@source_uri": "https://tools.usps.com/UspsToolsRestServices/rest/POLocator/findLocations", "@spider": "usps_collection_boxes", "addr:city": "LA CROSSE", "addr:country": "US", "addr:postcode": "54603", "addr:state": "WI", "addr:street_address": "201 SKY HARBOUR DR", "amenity": "post_box", "collection_times": "Mo-Sa 10:00", "nsi_id": "unitedstatespostalservice-a77078", "operator": "United States Postal Service", "operator:short": "USPS", "operator:type": "public", "operator:wikidata": "Q668687", "ref": "5460300020"}, "type": "Feature"}
{"geometry": {"coordinates": [-91.245249638, 43.855797739], "type": "Point"}, "id": "idEE5U7YLqbYVBmpjWogcIM831s=", "properties": {"@source_uri": "https://tools.usps.com/UspsToolsRestServices/rest/POLocator/findLocations", "@spider": "usps_collection_boxes", "addr:city": "LA CROSSE", "addr:country": "US", "addr:postcode": "54603", "addr:state": "WI", "addr:street_address": "2330 ROSE ST", "amenity": "post_box", "collection_times": "Mo-Sa 10:00", "nsi_id": "unitedstatespostalservice-a77078", "operator": "United States Postal Service", "operator:short": "USPS", "operator:type": "public", "operator:wikidata": "Q668687", "ref": "5460300023"}, "type": "Feature"}
{"geometry": {"coordinates": [-91.249124502, 43.822177669], "type": "Point"}, "id": "0HFJiRNMY88B-yQpptBcny23kZo=", "properties": {"@source_uri": "https://tools.usps.com/UspsToolsRestServices/rest/POLocator/findLocations", "@spider": "usps_collection_boxes", "addr:city": "LA CROSSE", "addr:country": "US", "addr:postcode": "54603", "addr:state": "WI", "addr:street_address": "30 COPELAND AVE", "amenity": "post_box", "collection_times": "Mo-Sa 10:00", "nsi_id": "unitedstatespostalservice-a77078", "operator": "United States Postal Service", "operator:short": "USPS", "operator:type": "public", "operator:wikidata": "Q668687", "ref": "5460300025"}, "type": "Feature"}
{"geometry": {"coordinates": [-91.91545902, 44.321844351], "type": "Point"}, "id": "EJVI2N6bk3_Crcy3dXh2oZsmXog=", "properties": {"@source_uri": "https://tools.usps.com/UspsToolsRestServices/rest/POLocator/findLocations", "@spider": "usps_collection_boxes", "addr:city": "ALMA", "addr:country": "US", "addr:postcode": "54610", "addr:state": "WI", "addr:street_address": "205 S MAIN ST", "amenity": "post_box", "collection_times": "Mo-Fr 12:00; Sa 11:00", "nsi_id": "unitedstatespostalservice-a77078", "operator": "United States Postal Service", "operator:short": "USPS", "operator:type": "public", "operator:wikidata": "Q668687", "ref": "5461000001"}, "type": "Feature"}
{"geometry": {"coordinates": [-91.91545902, 44.321844351], "type": "Point"}, "id": "pGbh-EaWaWWLn5ca6YlXJpXbScw=", "properties": {"@source_uri": "https://tools.usps.com/UspsToolsRestServices/rest/POLocator/findLocations", "@spider": "usps_collection_boxes", "addr:city": "ALMA", "addr:country": "US", "addr:postcode": "54610", "addr:state": "WI", "addr:street_address": "205 S MAIN ST", "amenity": "post_box", "collection_times": "Mo-Fr 12:00; Sa 11:00", "indoor": "yes", "nsi_id": "unitedstatespostalservice-a77078", "operator": "United States Postal Service", "operator:short": "USPS", "operator:type": "public", "operator:wikidata": "Q668687", "ref": "5461000002"}, "type": "Feature"}
{"geometry": {"coordinates": [-91.91545902, 44.321844351], "type": "Point"}, "id": "UivTZHzL_HiS_aZb1lmwYjI-eWQ=", "properties": {"@source_uri": "https://tools.usps.com/UspsToolsRestServices/rest/POLocator/findLocations", "@spider": "usps_collection_boxes", "addr:city": "ALMA", "addr:country": "US", "addr:postcode": "54610", "addr:state": "WI", "addr:street_address": "205 S MAIN ST", "amenity": "post_box", "collection_times": "Mo-Fr 12:00; Sa 11:00", "indoor": "yes", "nsi_id": "unitedstatespostalservice-a77078", "operator": "United States Postal Service", "operator:short": "USPS", "operator:type": "public", "operator:wikidata": "Q668687", "ref": "5461000003"}, "type": "Feature"}
{"geometry": {"coordinates": [-90.91328081, 44.437014525], "type": "Point"}, "id": "ywsi5Ly8qx1tpvXuTYyeBxB0kXw=", "properties": {"@source_uri": "https://tools.usps.com/UspsToolsRestServices/rest/POLocator/findLocations", "@spider": "usps_collection_boxes", "addr:city": "ALMA CENTER", "addr:country": "US", "addr:postcode": "54611", "addr:state": "WI", "addr:street_address": "105 W MAIN ST", "amenity": "post_box", "collection_times": "Mo-Fr 12:15; Sa 09:00", "note": "ON 12/24 AND 12/31, THIS BOX MAY BE COLLECTED AS EARLY AS 12 NOON.", "nsi_id": "unitedstatespostalservice-a77078", "operator": "United States Postal Service", "operator:short": "USPS", "operator:type": "public", "operator:wikidata": "Q668687", "ref": "5461100001"}, "type": "Feature"}
{"geometry": {"coordinates": [-90.91328081, 44.437014525], "type": "Point"}, "id": "kVsm78sgvY2iNsnv55apBYvT01o=", "properties": {"@source_uri": "https://tools.usps.com/UspsToolsRestServices/rest/POLocator/findLocations", "@spider": "usps_collection_boxes", "addr:city": "ALMA CENTER", "addr:country": "US", "addr:postcode": "54611", "addr:state": "WI", "addr:street_address": "105 W MAIN ST", "amenity": "post_box", "collection_times": "Mo-Fr 12:15; Sa 09:00", "indoor": "yes", "note": "ON 12/24 AND 12/31, THIS BOX MAY BE COLLECTED AS EARLY AS 12 NOON.", "nsi_id": "unitedstatespostalservice-a77078", "operator": "United States Postal Service", "operator:short": "USPS", "operator:type": "public", "operator:wikidata": "Q668687", "ref": "5461100002"}, "type": "Feature"}
{"geometry": {"coordinates": [-90.91328081, 44.437014525], "type": "Point"}, "id": "lW40-foGT4LmYj6bnxQrYdmjmT4=", "properties": {"@source_uri": "https://tools.usps.com/UspsToolsRestServices/rest/POLocator/findLocations", "@spider": "usps_collection_boxes", "addr:city": "ALMA CENTER", "addr:country": "US", "addr:postcode": "54611", "addr:state": "WI", "addr:street_address": "105 W MAIN ST", "amenity": "post_box", "collection_times": "Mo-Fr 12:00; Sa 09:45", "indoor": "yes", "nsi_id": "unitedstatespostalservice-a77078", "operator": "United States Postal Service", "operator:short": "USPS", "operator:type": "public", "operator:wikidata": "Q668687", "ref": "5461100003"}, "type": "Feature"}
{"geometry": {"coordinates": [-91.475001472, 44.245998485], "type": "Point"}, "id": "c9e7oC--VJW_hkRQUgZRu0MnYUc=", "properties": {"@source_uri": "https://tools.usps.com/UspsToolsRestServices/rest/POLocator/findLocations", "@spider": "usps_collection_boxes", "addr:city": "ARCADIA", "addr:country": "US", "addr:postcode": "54612", "addr:state": "WI", "addr:street_address": "1495 E WILSON AVE", "amenity": "post_box", "collection_times": "Mo-Fr 12:30; Sa 11:00", "note": "ON 12/24 AND 12/31, THIS BOX MAY BE COLLECTED AS EARLY AS 12 NOON.", "nsi_id": "unitedstatespostalservice-a77078", "operator": "United States Postal Service", "operator:short": "USPS", "operator:type": "public", "operator:wikidata": "Q668687", "ref": "5461200009"}, "type": "Feature"}
{"geometry": {"coordinates": [-91.475001472, 44.245998485], "type": "Point"}, "id": "2UBY0RJl8f7xkYXN98D3TcB6yvY=", "properties": {"@source_uri": "https://tools.usps.com/UspsToolsRestServices/rest/POLocator/findLocations", "@spider": "usps_collection_boxes", "addr:city": "ARCADIA", "addr:country": "US", "addr:postcode": "54612", "addr:state": "WI", "addr:street_address": "1495 E WILSON AVE", "amenity": "post_box", "collection_times": "Mo-Fr 12:30; Sa 11:00", "indoor": "yes", "note": "ON 12/24 AND 12/31, THIS BOX MAY BE COLLECTED AS EARLY AS 12 NOON.", "nsi_id": "unitedstatespostalservice-a77078", "operator": "United States Postal Service", "operator:short": "USPS", "operator:type": "public", "operator:wikidata": "Q668687", "ref": "5461200011"}, "type": "Feature"}
{"geometry": {"coordinates": [-91.475001472, 44.245998485], "type": "Point"}, "id": "U61LFXcHX4wHcbf9Et6nxSe3m6U=", "properties": {"@source_uri": "https://tools.usps.com/UspsToolsRestServices/rest/POLocator/findLocations", "@spider": "usps_collection_boxes", "addr:city": "ARCADIA", "addr:country": "US", "addr:postcode": "54612", "addr:state": "WI", "addr:street_address": "1495 E WILSON AVE", "amenity": "post_box", "collection_times": "Mo-Fr 13:00; Sa 11:00", "indoor": "yes", "note": "ON 12/24 AND 12/31, THIS BOX MAY BE COLLECTED AS EARLY AS 12 NOON.", "nsi_id": "unitedstatespostalservice-a77078", "operator": "United States Postal Service", "operator:short": "USPS", "operator:type": "public", "operator:wikidata": "Q668687", "ref": "5461200012"}, "type": "Feature"}
{"geometry": {"coordinates": [-89.871621617, 44.024801524], "type": "Point"}, "id": "TSadwFZMRZyBMeBWX58XWCT9AuA=", "properties": {"@source_uri": "https://tools.usps.com/UspsToolsRestServices/rest/POLocator/findLocations", "@spider": "usps_collection_boxes", "addr:city": "ARKDALE", "addr:country": "US", "addr:postcode": "54613", "addr:state": "WI", "addr:street_address": "1568 STATE ROAD 21", "amenity": "post_box", "collection_times": "Mo-Fr 12:15; Sa 09:30", "note": "ON 12/24 AND 12/31, THIS BOX MAY BE COLLECTED AS EARLY AS 12 NOON.", "nsi_id": "unitedstatespostalservice-a77078", "operator": "United States Postal Service", "operator:short": "USPS", "operator:type": "public", "operator:wikidata": "Q668687", "ref": "5461300001"}, "type": "Feature"}
{"geometry": {"coordinates": [-89.871621617, 44.024801524], "type": "Point"}, "id": "oz_hzrA4iH9_irZtWHC2GK8TLkg=", "properties": {"@source_uri": "https://tools.usps.com/UspsToolsRestServices/rest/POLocator/findLocations", "@spider": "usps_collection_boxes", "addr:city": "ARKDALE", "addr:country": "US", "addr:postcode": "54613", "addr:state": "WI", "addr:street_address": "1568 STATE ROAD 21", "amenity": "post_box", "collection_times": "Mo-Fr 12:15; Sa 09:30", "indoor": "yes", "note": "ON 12/24 AND 12/31, THIS BOX MAY BE COLLECTED AS EARLY AS 12 NOON.", "nsi_id": "unitedstatespostalservice-a77078", "operator": "United States Postal Service", "operator:short": "USPS", "operator:type": "public", "operator:wikidata": "Q668687", "ref": "5461300002"}, "type": "Feature"}
{"geometry": {"coordinates": [-89.871621617, 44.024801524], "type": "Point"}, "id": "Blvv98tLOSavMUcZYiwYrmgWbRc=", "properties": {"@source_uri": "https://tools.usps.com/UspsToolsRestServices/rest/POLocator/findLocations", "@spider": "usps_collection_boxes", "addr:city": "ARKDALE", "addr:country": "US", "addr:postcode": "54613", "addr:state": "WI", "addr:street_address": "1568 STATE ROAD 21", "amenity": "post_box", "collection_times": "Mo-Fr 12:30; Sa 10:00", "indoor": "yes", "note": "ON 12/24 AND 12/31, THIS BOX MAY BE COLLECTED AS EARLY AS 12 NOON.", "nsi_id": "unitedstatespostalservice-a77078", "operator": "United States Postal Service", "operator:short": "USPS", "operator:type": "public", "operator:wikidata": "Q668687", "ref": "5461300003"}, "type": "Feature"}
{"geometry": {"coordinates": [-90.987350055, 43.892874547], "type": "Point"}, "id": "-D9UzuI9RkBVoStrXena-Pbh6YE=", "properties": {"@source_uri": "https://tools.usps.com/UspsToolsRestServices/rest/POLocator/findLocations", "@spider": "usps_collection_boxes", "addr:city": "BANGOR", "addr:country": "US", "addr:postcode": "54614", "addr:state": "WI", "addr:street_address": "1415 PEARL ST", "amenity": "post_box", "collection_times": "Mo-Fr 14:00; Sa 11:00", "note": "ON 12/24 AND 12/31, THIS BOX MAY BE COLLECTED AS EARLY AS 12 NOON.", "nsi_id": "unitedstatespostalservice-a77078", "operator": "United States Postal Service", "operator:short": "USPS", "operator:type": "public", "operator:wikidata": "Q668687", "ref": "5461400000"}, "type": "Feature"}
{"geometry": {"coordinates": [-90.987350055, 43.892874547], "type": "Point"}, "id": "DLjXLj7fh8UxwcKZbTCmnmX-Ts0=", "properties": {"@source_uri": "https://tools.usps.com/UspsToolsRestServices/rest/POLocator/findLocations", "@spider": "usps_collection_boxes", "addr:city": "BANGOR", "addr:country": "US", "addr:postcode": "54614", "addr:state": "WI", "addr:street_address": "1415 PEARL ST", "amenity": "post_box", "collection_times": "Mo-Fr 14:00; Sa 10:30", "indoor": "yes", "note": "ON 12/24 AND 12/31, THIS BOX MAY BE COLLECTED AS EARLY AS 12 NOON.", "nsi_id": "unitedstatespostalservice-a77078", "operator": "United States Postal Service", "operator:short": "USPS", "operator:type": "public", "operator:wikidata": "Q668687", "ref": "5461400002"}, "type": "Feature"}
{"geometry": {"coordinates": [-90.987350055, 43.892874547], "type": "Point"}, "id": "dZd17ElXsgaznJcJmT2GMS_IyHY=", "properties": {"@source_uri": "https://tools.usps.com/UspsToolsRestServices/rest/POLocator/findLocations", "@spider": "usps_collection_boxes", "addr:city": "BANGOR", "addr:country": "US", "addr:postcode": "54614", "addr:state": "WI", "addr:street_address": "1415 PEARL ST", "amenity": "post_box", "collection_times": "Mo-Fr 14:00; Sa 10:30", "indoor": "yes", "note": "ON 12/24 AND 12/31, THIS BOX MAY BE COLLECTED AS EARLY AS 12 NOON.", "nsi_id": "unitedstatespostalservice-a77078", "operator": "United States Postal Service", "operator:short": "USPS", "operator:type": "public", "operator:wikidata": "Q668687", "ref": "5461400003"}, "type": "Feature"}
{"geometry": {"coordinates": [-90.820393772, 44.29501166], "type": "Point"}, "id": "OwUH8IvRbmbYlcSy_n7lW329kAg=", "properties": {"@source_uri": "https://tools.usps.com/UspsToolsRestServices/rest/POLocator/findLocations", "@spider": "usps_collection_boxes", "addr:city": "BLK RIVER FLS", "addr:country": "US", "addr:postcode": "54615", "addr:state": "WI", "addr:street_address": "400 OASIS RD", "amenity": "post_box", "collection_times": "Mo-Sa 08:30", "nsi_id": "unitedstatespostalservice-a77078", "operator": "United States Postal Service", "operator:short": "USPS", "operator:type": "public", "operator:wikidata": "Q668687", "ref": "5461500001"}, "type": "Feature"}
{"geometry": {"coordinates": [-90.853599793, 44.295515602], "type": "Point"}, "id": "y_2GsoZKWZ48dXaeeYkRV9E8v8k=", "properties": {"@source_uri": "https://tools.usps.com/UspsToolsRestServices/rest/POLocator/findLocations", "@spider": "usps_collection_boxes", "addr:city": "BLK RIVER FLS", "addr:country": "US", "addr:postcode": "54615", "addr:state": "WI", "addr:street_address": "106 N 5TH ST", "amenity": "post_box", "collection_times": "Mo-Sa 12:00", "nsi_id": "unitedstatespostalservice-a77078", "operator": "United States Postal Service", "operator:short": "USPS", "operator:type": "public", "operator:wikidata": "Q668687", "ref": "5461500004"}, "type": "Feature"}
{"geometry": {"coordinates": [-90.844203606, 44.302275], "type": "Point"}, "id": "CS9eOMFLayyTjWj2jNXLtgSrMdk=", "properties": {"@source_uri": "https://tools.usps.com/UspsToolsRestServices/rest/POLocator/findLocations", "@spider": "usps_collection_boxes", "addr:city": "BLK RIVER FLS", "addr:country": "US", "addr:postcode": "54615", "addr:state": "WI", "addr:street_address": "445 N WATER ST", "amenity": "post_box", "collection_times": "Mo-Sa 12:00", "nsi_id": "unitedstatespostalservice-a77078", "operator": "United States Postal Service", "operator:short": "USPS", "operator:type": "public", "operator:wikidata": "Q668687", "ref": "5461500008"}, "type": "Feature"}
{"geometry": {"coordinates": [-90.842138792, 44.284850979], "type": "Point"}, "id": "joWmAn0rFtgsvW5gnuxSXvGdK-4=", "properties": {"@source_uri": "https://tools.usps.com/UspsToolsRestServices/rest/POLocator/findLocations", "@spider": "usps_collection_boxes", "addr:city": "BLK RIVER FLS", "addr:country": "US", "addr:postcode": "54615", "addr:state": "WI", "addr:street_address": "236 GEBHARDT RD", "amenity": "post_box", "collection_times": "Mo-Sa 10:00", "nsi_id": "unitedstatespostalservice-a77078", "operator": "United States Postal Service", "operator:short": "USPS", "operator:type": "public", "operator:wikidata": "Q668687", "ref": "5461500011"}, "type": "Feature"}
{"geometry": {"coordinates": [-90.84888, 44.294142511], "type": "Point"}, "id": "1cpm_gL1vCKVaYqKZshLVKhtXTU=", "properties": {"@source_uri": "https://tools.usps.com/UspsToolsRestServices/rest/POLocator/findLocations", "@spider": "usps_collection_boxes", "addr:city": "BLK RIVER FLS", "addr:country": "US", "addr:postcode": "54615", "addr:state": "WI", "addr:street_address": "108 FILLMORE ST", "amenity": "post_box", "collection_times": "Mo-Sa 12:45", "note": "ON 12/24 AND 12/31, THIS BOX MAY BE COLLECTED AS EARLY AS 12 NOON.", "nsi_id": "unitedstatespostalservice-a77078", "operator": "United States Postal Service", "operator:short": "USPS", "operator:type": "public", "operator:wikidata": "Q668687", "ref": "5461500013"}, "type": "Feature"}
{"geometry": {"coordinates": [-90.867549336, 44.283770612], "type": "Point"}, "id": "5NPe05y0Vs3qqN1k0v3ldO9k60g=", "properties": {"@source_uri": "https://tools.usps.com/UspsToolsRestServices/rest/POLocator/findLocations", "@spider": "usps_collection_boxes", "addr:city": "BLK RIVER FLS", "addr:country": "US", "addr:postcode": "54615", "addr:state": "WI", "addr:street_address": "N5885 HWY 54 W", "amenity": "post_box", "collection_times": "Mo-Sa 09:30", "nsi_id": "unitedstatespostalservice-a77078", "operator": "United States Postal Service", "operator:short": "USPS", "operator:type": "public", "operator:wikidata": "Q668687", "ref": "5461500015"}, "type": "Feature"}
{"geometry": {"coordinates": [-90.84888, 44.294142511], "type": "Point"}, "id": "UbHYfMpSGc6hA8jekQoesEXokZY=", "properties": {"@source_uri": "https://tools.usps.com/UspsToolsRestServices/rest/POLocator/findLocations", "@spider": "usps_collection_boxes", "addr:city": "BLK RIVER FLS", "addr:country": "US", "addr:postcode": "54615", "addr:state": "WI", "addr:street_address": "108 FILLMORE ST", "amenity": "post_box", "collection_times": "Mo-Sa 12:45", "indoor": "yes", "note": "ON 12/24 AND 12/31, THIS BOX MAY BE COLLECTED AS EARLY AS 12 NOON.", "nsi_id": "unitedstatespostalservice-a77078", "operator": "United States Postal Service", "operator:short": "USPS", "operator:type": "public", "operator:wikidata": "Q668687", "ref": "5461500016"}, "type": "Feature"}
{"geometry": {"coordinates": [-90.84888, 44.294142511], "type": "Point"}, "id": "sPq_tBNgOpiiXO1_tdJ5IIB3oGA=", "properties": {"@source_uri": "https://tools.usps.com/UspsToolsRestServices/rest/POLocator/findLocations", "@spider": "usps_collection_boxes", "addr:city": "BLK RIVER FLS", "addr:country": "US", "addr:postcode": "54615", "addr:state": "WI", "addr:street_address": "108 FILLMORE ST", "amenity": "post_box", "collection_times": "Mo-Fr 13:00; Sa 12:00", "indoor": "yes", "note": "ON 12/24 AND 12/31, THIS BOX MAY BE COLLECTED AS EARLY AS 12 NOON.", "nsi_id": "unitedstatespostalservice-a77078", "operator": "United States Postal Service", "operator:short": "USPS", "operator:type": "public", "operator:wikidata": "Q668687", "ref": "5461500018"}, "type": "Feature"}
{"geometry": {"coordinates": [-91.233297487, 44.294396872], "type": "Point"}, "id": "jdFvka_Fu52vN7WIWVhgNgoqpFA=", "properties": {"@source_uri": "https://tools.usps.com/UspsToolsRestServices/rest/POLocator/findLocations", "@spider": "usps_collection_boxes", "addr:city": "BLAIR", "addr:country": "US", "addr:postcode": "54616", "addr:state": "WI", "addr:street_address": "118 URBERG ST", "amenity": "post_box", "collection_times": "Mo-Fr 13:00; Sa 10:00", "note": "ON 12/24 AND 12/31, THIS BOX MAY BE COLLECTED AS EARLY AS 12 NOON.", "nsi_id": "unitedstatespostalservice-a77078", "operator": "United States Postal Service", "operator:short": "USPS", "operator:type": "public", "operator:wikidata": "Q668687", "ref": "5461600001"}, "type": "Feature"}
{"geometry": {"coordinates": [-91.233297487, 44.294396872], "type": "Point"}, "id": "t37yWpLKTDrevQ2RuJ9rDgX8Mp4=", "properties": {"@source_uri": "https://tools.usps.com/UspsToolsRestServices/rest/POLocator/findLocations", "@spider": "usps_collection_boxes", "addr:city": "BLAIR", "addr:country": "US", "addr:postcode": "54616", "addr:state": "WI", "addr:street_address": "118 URBERG ST", "amenity": "post_box", "collection_times": "Mo-Fr 13:00; Sa 10:00", "indoor": "yes", "note": "ON 12/24 AND 12/31, THIS BOX MAY BE COLLECTED AS EARLY AS 12 NOON.", "nsi_id": "unitedstatespostalservice-a77078", "operator": "United States Postal Service", "operator:short": "USPS", "operator:type": "public", "operator:wikidata": "Q668687", "ref": "5461600002"}, "type": "Feature"}
{"geometry": {"coordinates": [-91.228815907, 44.294303728], "type": "Point"}, "id": "yzmyOnB9RZFTINq3v6qYEqN5xdo=", "properties": {"@source_uri": "https://tools.usps.com/UspsToolsRestServices/rest/POLocator/findLocations", "@spider": "usps_collection_boxes", "addr:city": "BLAIR", "addr:country": "US", "addr:postcode": "54616", "addr:state": "WI", "addr:street_address": "119 S MAIN ST", "amenity": "post_box", "collection_times": "Mo-Fr 13:00; Sa 10:00", "indoor": "yes", "note": "ON 12/24 AND 12/31, THIS BOX MAY BE COLLECTED AS EARLY AS 12 NOON.", "nsi_id": "unitedstatespostalservice-a77078", "operator": "United States Postal Service", "operator:short": "USPS", "operator:type": "public", "operator:wikidata": "Q668687", "ref": "5461600003"}, "type": "Feature"}
{"geometry": {"coordinates": [-90.268322319, 43.919791878], "type": "Point"}, "id": "tjrv6EF65AP_M9015TNsS2uSN18=", "properties": {"@source_uri": "https://tools.usps.com/UspsToolsRestServices/rest/POLocator/findLocations", "@spider": "usps_collection_boxes", "addr:city": "CAMP DOUGLAS", "addr:country": "US", "addr:postcode": "54618", "addr:state": "WI", "addr:street_address": "119 MAIN ST", "amenity": "post_box", "collection_times": "Mo-Fr 13:00; Sa 09:30", "note": "ON 12/24 AND 12/31, THIS BOX MAY BE COLLECTED AS EARLY AS 12 NOON.", "nsi_id": "unitedstatespostalservice-a77078", "operator": "United States Postal Service", "operator:short": "USPS", "operator:type": "public", "operator:wikidata": "Q668687", "ref": "5461800000"}, "type": "Feature"}
{"geometry": {"coordinates": [-90.271442389, 43.879639493], "type": "Point"}, "id": "OYQUGPJUP7LrmU1gss0Z2xEWw88=", "properties": {"@source_uri": "https://tools.usps.com/UspsToolsRestServices/rest/POLocator/findLocations", "@spider": "usps_collection_boxes", "addr:city": "CAMP DOUGLAS", "addr:country": "US", "addr:postcode": "54618", "addr:state": "WI", "addr:street_address": "111 E MAIN ST", "amenity": "post_box", "collection_times": "Mo-Sa 09:00", "nsi_id": "unitedstatespostalservice-a77078", "operator": "United States Postal Service", "operator:short": "USPS", "operator:type": "public", "operator:wikidata": "Q668687", "ref": "5461800001"}, "type": "Feature"}
{"geometry": {"coordinates": [-90.268322319, 43.919791878], "type": "Point"}, "id": "3KtHhNfShELnxvchpFE_h2BeO1E=", "properties": {"@source_uri": "https://tools.usps.com/UspsToolsRestServices/rest/POLocator/findLocations", "@spider": "usps_collection_boxes", "addr:city": "CAMP DOUGLAS", "addr:country": "US", "addr:postcode": "54618", "addr:state": "WI", "addr:street_address": "119 MAIN ST", "amenity": "post_box", "collection_times": "Mo-Fr 13:00; Sa 09:30", "indoor": "yes", "note": "ON 12/24 AND 12/31, THIS BOX MAY BE COLLECTED AS EARLY AS 12 NOON.", "nsi_id": "unitedstatespostalservice-a77078", "operator": "United States Postal Service", "operator:short": "USPS", "operator:type": "public", "operator:wikidata": "Q668687", "ref": "5461800002"}, "type": "Feature"}
{"geometry": {"coordinates": [-90.268322319, 43.919791878], "type": "Point"}, "id": "_KgD4Mjn7ruR6yOb3lICbYqFVlI=", "properties": {"@source_uri": "https://tools.usps.com/UspsToolsRestServices/rest/POLocator/findLocations", "@spider": "usps_collection_boxes", "addr:city": "CAMP DOUGLAS", "addr:country": "US", "addr:postcode": "54618", "addr:state": "WI", "addr:street_address": "119 MAIN ST", "amenity": "post_box", "collection_times": "Mo-Fr 12:45; Sa 10:00", "indoor": "yes", "note": "ON 12/24 AND 12/31, THIS BOX MAY BE COLLECTED AS EARLY AS 12 NOON.", "nsi_id": "unitedstatespostalservice-a77078", "operator": "United States Postal Service", "operator:short": "USPS", "operator:type": "public", "operator:wikidata": "Q668687", "ref": "5461800004"}, "type": "Feature"}
{"geometry": {"coordinates": [-90.778005234, 43.744058067], "type": "Point"}, "id": "daJZJppmk3HmzRgCLGa_s1jxiGk=", "properties": {"@source_uri": "https://tools.usps.com/UspsToolsRestServices/rest/POLocator/findLocations", "@spider": "usps_collection_boxes", "addr:city": "CASHTON", "addr:country": "US", "addr:postcode": "54619", "addr:state": "WI", "addr:street_address": "911 FRONT ST", "amenity": "post_box", "collection_times": "Mo-Fr 13:30; Sa 10:30", "note": "ON 12/24 AND 12/31, THIS BOX MAY BE COLLECTED AS EARLY AS 12 NOON.", "nsi_id": "unitedstatespostalservice-a77078", "operator": "United States Postal Service", "operator:short": "USPS", "operator:type": "public", "operator:wikidata": "Q668687", "ref": "5461900001"}, "type": "Feature"}
{"geometry": {"coordinates": [-90.778005234, 43.744058067], "type": "Point"}, "id": "0sHbN5fHGvcA6i5ajh3zFIRBo3c=", "properties": {"@source_uri": "https://tools.usps.com/UspsToolsRestServices/rest/POLocator/findLocations", "@spider": "usps_collection_boxes", "addr:city": "CASHTON", "addr:country": "US", "addr:postcode": "54619", "addr:state": "WI", "addr:street_address": "911 FRONT ST", "amenity": "post_box", "collection_times": "Mo-Fr 13:30; Sa 10:30", "indoor": "yes", "note": "ON 12/24 AND 12/31, THIS BOX MAY BE COLLECTED AS EARLY AS 12 NOON.", "nsi_id": "unitedstatespostalservice-a77078", "operator": "United States Postal Service", "operator:short": "USPS", "operator:type": "public", "operator:wikidata": "Q668687", "ref": "5461900002"}, "type": "Feature"}
{"geometry": {"coordinates": [-90.778005234, 43.744058067], "type": "Point"}, "id": "Btyc4av7o8Ar2rU8zCL_57sAQys=", "properties": {"@source_uri": "https://tools.usps.com/UspsToolsRestServices/rest/POLocator/findLocations", "@spider": "usps_collection_boxes", "addr:city": "CASHTON", "addr:country": "US", "addr:postcode": "54619", "addr:state": "WI", "addr:street_address": "911 FRONT ST", "amenity": "post_box", "collection_times": "Mo-Fr 13:30; Sa 10:30", "indoor": "yes", "note": "ON 12/24 AND 12/31, THIS BOX MAY BE COLLECTED AS EARLY AS 12 NOON.", "nsi_id": "unitedstatespostalservice-a77078", "operator": "United States Postal Service", "operator:short": "USPS", "operator:type": "public", "operator:wikidata": "Q668687", "ref": "5461900003"}, "type": "Feature"}
{"geometry": {"coordinates": [-91.096455, 43.65938], "type": "Point"}, "id": "VL8xJCjvw3960FYpxYV1oG9ThtI=", "properties": {"@source_uri": "https://tools.usps.com/UspsToolsRestServices/rest/POLocator/findLocations", "@spider": "usps_collection_boxes", "addr:city": "CHASEBURG", "addr:country": "US", "addr:postcode": "54621", "addr:state": "WI", "addr:street_address": "303 DEPOT ST", "amenity": "post_box", "collection_times": "Mo-Fr 12:00; Sa 10:00", "nsi_id": "unitedstatespostalservice-a77078", "operator": "United States Postal Service", "operator:short": "USPS", "operator:type": "public", "operator:wikidata": "Q668687", "ref": "5462100000"}, "type": "Feature"}
{"geometry": {"coordinates": [-91.096455, 43.65938], "type": "Point"}, "id": "QhA1sRh8jYuh9xwCRHNjYaw8nbw=", "properties": {"@source_uri": "https://tools.usps.com/UspsToolsRestServices/rest/POLocator/findLocations", "@spider": "usps_collection_boxes", "addr:city": "CHASEBURG", "addr:country": "US", "addr:postcode": "54621", "addr:state": "WI", "addr:street_address": "303 DEPOT ST", "amenity": "post_box", "collection_times": "Mo-Fr 12:00; Sa 10:00", "indoor": "yes", "nsi_id": "unitedstatespostalservice-a77078", "operator": "United States Postal Service", "operator:short": "USPS", "operator:type": "public", "operator:wikidata": "Q668687", "ref": "5462100001"}, "type": "Feature"}
{"geometry": {"coordinates": [-91.096455, 43.65938], "type": "Point"}, "id": "f02mefJrhEWrE9hpJlAkyEtPRwU=", "properties": {"@source_uri": "https://tools.usps.com/UspsToolsRestServices/rest/POLocator/findLocations", "@spider": "usps_collection_boxes", "addr:city": "CHASEBURG", "addr:country": "US", "addr:postcode": "54621", "addr:state": "WI", "addr:street_address": "303 DEPOT ST", "amenity": "post_box", "collection_times": "Mo-Fr 12:00; Sa 09:45", "indoor": "yes", "nsi_id": "unitedstatespostalservice-a77078", "operator": "United States Postal Service", "operator:short": "USPS", "operator:type": "public", "operator:wikidata": "Q668687", "ref": "5462100002"}, "type": "Feature"}
{"geometry": {"coordinates": [-91.836377645, 44.227954351], "type": "Point"}, "id": "tnDdGAf5U8Le7DELVVLfUB_yE6A=", "properties": {"@source_uri": "https://tools.usps.com/UspsToolsRestServices/rest/POLocator/findLocations", "@spider": "usps_collection_boxes", "addr:city": "COCHRANE", "addr:country": "US", "addr:postcode": "54622", "addr:state": "WI", "addr:street_address": "108 N MAIN ST", "amenity": "post_box", "collection_times": "Mo-Fr 12:30; Sa 10:30", "note": "ON 12/24 AND 12/31, THIS BOX MAY BE COLLECTED AS EARLY AS 12 NOON.", "nsi_id": "unitedstatespostalservice-a77078", "operator": "United States Postal Service", "operator:short": "USPS", "operator:type": "public", "operator:wikidata": "Q668687", "ref": "5462200001"}, "type": "Feature"}
{"geometry": {"coordinates": [-91.836377645, 44.227954351], "type": "Point"}, "id": "37As5i0_H587fKUOlSsrYP_Br-I=", "properties": {"@source_uri": "https://tools.usps.com/UspsToolsRestServices/rest/POLocator/findLocations", "@spider": "usps_collection_boxes", "addr:city": "COCHRANE", "addr:country": "US", "addr:postcode": "54622", "addr:state": "WI", "addr:street_address": "108 N MAIN ST", "amenity": "post_box", "collection_times": "Mo-Fr 12:30; Sa 10:30", "indoor": "yes", "note": "ON 12/24 AND 12/31, THIS BOX MAY BE COLLECTED AS EARLY AS 12 NOON.", "nsi_id": "unitedstatespostalservice-a77078", "operator": "United States Postal Service", "operator:short": "USPS", "operator:type": "public", "operator:wikidata": "Q668687", "ref": "5462200003"}, "type": "Feature"}
{"geometry": {"coordinates": [-91.836377645, 44.227954351], "type": "Point"}, "id": "mWBpKsJYzO71yeN66gS-ZrXV2-Y=", "properties": {"@source_uri": "https://tools.usps.com/UspsToolsRestServices/rest/POLocator/findLocations", "@spider": "usps_collection_boxes", "addr:city": "COCHRANE", "addr:country": "US", "addr:postcode": "54622", "addr:state": "WI", "addr:street_address": "108 N MAIN ST", "amenity": "post_box", "collection_times": "Mo-Fr 12:30; Sa 10:30", "indoor": "yes", "note": "ON 12/24 AND 12/31, THIS BOX MAY BE COLLECTED AS EARLY AS 12 NOON.", "nsi_id": "unitedstatespostalservice-a77078", "operator": "United States Postal Service", "operator:short": "USPS", "operator:type": "public", "operator:wikidata": "Q668687", "ref": "5462200006"}, "type": "Feature"}
{"geometry": {"coordinates": [-91.012374, 43.702404504], "type": "Point"}, "id": "j8hcODrQmvCwrtOVw2BDm_xzfvE=", "properties": {"@source_uri": "https://tools.usps.com/UspsToolsRestServices/rest/POLocator/findLocations", "@spider": "usps_collection_boxes", "addr:city": "COON VALLEY", "addr:country": "US", "addr:postcode": "54623", "addr:state": "WI", "addr:street_address": "507 CENTRAL AVE", "amenity": "post_box", "collection_times": "Mo-Fr 14:00; Sa 10:00", "note": "ON 12/24 AND 12/31, THIS BOX MAY BE COLLECTED AS EARLY AS 12 NOON.", "nsi_id": "unitedstatespostalservice-a77078", "operator": "United States Postal Service", "operator:short": "USPS", "operator:type": "public", "operator:wikidata": "Q668687", "ref": "5462300001"}, "type": "Feature"}
{"geometry": {"coordinates": [-91.012374, 43.702404504], "type": "Point"}, "id": "Ga6YREvW18qjqBb2R6dga7fq0lA=", "properties": {"@source_uri": "https://tools.usps.com/UspsToolsRestServices/rest/POLocator/findLocations", "@spider": "usps_collection_boxes", "addr:city": "COON VALLEY", "addr:country": "US", "addr:postcode": "54623", "addr:state": "WI", "addr:street_address": "507 CENTRAL AVE", "amenity": "post_box", "collection_times": "Mo-Fr 14:00; Sa 10:00", "indoor": "yes", "note": "ON 12/24 AND 12/31, THIS BOX MAY BE COLLECTED AS EARLY AS 12 NOON.", "nsi_id": "unitedstatespostalservice-a77078", "operator": "United States Postal Service", "operator:short": "USPS", "operator:type": "public", "operator:wikidata": "Q668687", "ref": "5462300002"}, "type": "Feature"}
{"geometry": {"coordinates": [-91.012374, 43.702404504], "type": "Point"}, "id": "d8KxxecGEJQ-nTCT-yHwmOmZ7n4=", "properties": {"@source_uri": "https://tools.usps.com/UspsToolsRestServices/rest/POLocator/findLocations", "@spider": "usps_collection_boxes", "addr:city": "COON VALLEY", "addr:country": "US", "addr:postcode": "54623", "addr:state": "WI", "addr:street_address": "507 CENTRAL AVE", "amenity": "post_box", "collection_times": "Mo-Fr 14:00; Sa 10:00", "indoor": "yes", "note": "ON 12/24 AND 12/31, THIS BOX MAY BE COLLECTED AS EARLY AS 12 NOON.", "nsi_id": "unitedstatespostalservice-a77078", "operator": "United States Postal Service", "operator:short": "USPS", "operator:type": "public", "operator:wikidata": "Q668687", "ref": "5462300003"}, "type": "Feature"}
{"geometry": {"coordinates": [-91.198008797, 43.423032071], "type": "Point"}, "id": "zTTqRxYRVBObT8Kym-ilNKYtPjU=", "properties": {"@source_uri": "https://tools.usps.com/UspsToolsRestServices/rest/POLocator/findLocations", "@spider": "usps_collection_boxes", "addr:city": "DE SOTO", "addr:country": "US", "addr:postcode": "54624", "addr:state": "WI", "addr:street_address": "207 HOUGHTON ST", "amenity": "post_box", "collection_times": "Mo-Fr 13:00; Sa 09:00", "note": "ON 12/24 AND 12/31, THIS BOX MAY BE COLLECTED AS EARLY AS 12 NOON.", "nsi_id": "unitedstatespostalservice-a77078", "operator": "United States Postal Service", "operator:short": "USPS", "operator:type": "public", "operator:wikidata": "Q668687", "ref": "5462400000"}, "type": "Feature"}
{"geometry": {"coordinates": [-91.198008797, 43.423032071], "type": "Point"}, "id": "pdPLkJVoE-S30ra-A9VGQDOy2rg=", "properties": {"@source_uri": "https://tools.usps.com/UspsToolsRestServices/rest/POLocator/findLocations", "@spider": "usps_collection_boxes", "addr:city": "DE SOTO", "addr:country": "US", "addr:postcode": "54624", "addr:state": "WI", "addr:street_address": "207 HOUGHTON ST", "amenity": "post_box", "collection_times": "Mo-Fr 13:00; Sa 09:00", "indoor": "yes", "note": "ON 12/24 AND 12/31, THIS BOX MAY BE COLLECTED AS EARLY AS 12 NOON.", "nsi_id": "unitedstatespostalservice-a77078", "operator": "United States Postal Service", "operator:short": "USPS", "operator:type": "public", "operator:wikidata": "Q668687", "ref": "5462400001"}, "type": "Feature"}
{"geometry": {"coordinates": [-91.198008797, 43.423032071], "type": "Point"}, "id": "Tu7ZgujAeI0sftJLYZJfFFRkpvE=", "properties": {"@source_uri": "https://tools.usps.com/UspsToolsRestServices/rest/POLocator/findLocations", "@spider": "usps_collection_boxes", "addr:city": "DE SOTO", "addr:country": "US", "addr:postcode": "54624", "addr:state": "WI", "addr:street_address": "207 HOUGHTON ST", "amenity": "post_box", "collection_times": "Mo-Fr 13:00; Sa 09:15", "indoor": "yes", "note": "ON 12/24 AND 12/31, THIS BOX MAY BE COLLECTED AS EARLY AS 12 NOON.", "nsi_id": "unitedstatespostalservice-a77078", "operator": "United States Postal Service", "operator:short": "USPS", "operator:type": "public", "operator:wikidata": "Q668687", "ref": "5462400002"}, "type": "Feature"}
{"geometry": {"coordinates": [-91.551464092, 44.130339648], "type": "Point"}, "id": "a--98-dVWqg0YjU6Su2-LesN4F8=", "properties": {"@source_uri": "https://tools.usps.com/UspsToolsRestServices/rest/POLocator/findLocations", "@spider": "usps_collection_boxes", "addr:city": "DODGE", "addr:country": "US", "addr:postcode": "54625", "addr:state": "WI", "addr:street_address": "N20224 COUNTY ROAD J", "amenity": "post_box", "collection_times": "Mo-Fr 13:15; Sa 09:15", "note": "ON 12/24 AND 12/31, THIS BOX MAY BE COLLECTED AS EARLY AS 12 NOON.", "nsi_id": "unitedstatespostalservice-a77078", "operator": "United States Postal Service", "operator:short": "USPS", "operator:type": "public", "operator:wikidata": "Q668687", "ref": "5462500001"}, "type": "Feature"}
{"geometry": {"coordinates": [-91.551464092, 44.130339648], "type": "Point"}, "id": "rf9emkUidUOq2FB_eCkNSFnmzOw=", "properties": {"@source_uri": "https://tools.usps.com/UspsToolsRestServices/rest/POLocator/findLocations", "@spider": "usps_collection_boxes", "addr:city": "DODGE", "addr:country": "US", "addr:postcode": "54625", "addr:state": "WI", "addr:street_address": "N20224 COUNTY ROAD J", "amenity": "post_box", "collection_times": "Mo-Fr 13:15; Sa 09:30", "indoor": "yes", "note": "ON 12/24 AND 12/31, THIS BOX MAY BE COLLECTED AS EARLY AS 12 NOON.", "nsi_id": "unitedstatespostalservice-a77078", "operator": "United States Postal Service", "operator:short": "USPS", "operator:type": "public", "operator:wikidata": "Q668687", "ref": "5462500002"}, "type": "Feature"}
{"geometry": {"coordinates": [-91.551464092, 44.130339648], "type": "Point"}, "id": "xzPxZsDlB1oBisfwwbIVK5AB7BQ=", "properties": {"@source_uri": "https://tools.usps.com/UspsToolsRestServices/rest/POLocator/findLocations", "@spider": "usps_collection_boxes", "addr:city": "DODGE", "addr:country": "US", "addr:postcode": "54625", "addr:state": "WI", "addr:street_address": "N20224 COUNTY ROAD J", "amenity": "post_box", "collection_times": "Mo-Fr 13:15; Sa 09:30", "indoor": "yes", "note": "ON 12/24 AND 12/31, THIS BOX MAY BE COLLECTED AS EARLY AS 12 NOON.", "nsi_id": "unitedstatespostalservice-a77078", "operator": "United States Postal Service", "operator:short": "USPS", "operator:type": "public", "operator:wikidata": "Q668687", "ref": "5462500003"}, "type": "Feature"}
{"geometry": {"coordinates": [-91.016693177, 43.166724452], "type": "Point"}, "id": "9MNgsnPNbWsoSIHW83bLGvQ8wJ0=", "properties": {"@source_uri": "https://tools.usps.com/UspsToolsRestServices/rest/POLocator/findLocations", "@spider": "usps_collection_boxes", "addr:city": "EASTMAN", "addr:country": "US", "addr:postcode": "54626", "addr:state": "WI", "addr:street_address": "106 N MAIN ST STE C", "amenity": "post_box", "collection_times": "Mo-Fr 12:00; Sa 09:00", "nsi_id": "unitedstatespostalservice-a77078", "operator": "United States Postal Service", "operator:short": "USPS", "operator:type": "public", "operator:wikidata": "Q668687", "ref": "5462600001"}, "type": "Feature"}
{"geometry": {"coordinates": [-91.016693177, 43.166724452], "type": "Point"}, "id": "yWS2i20KFar0HWIl9QsbNsBjsB0=", "properties": {"@source_uri": "https://tools.usps.com/UspsToolsRestServices/rest/POLocator/findLocations", "@spider": "usps_collection_boxes", "addr:city": "EASTMAN", "addr:country": "US", "addr:postcode": "54626", "addr:state": "WI", "addr:street_address": "106 N MAIN ST STE C", "amenity": "post_box", "collection_times": "Mo-Fr 12:00; Sa 09:00", "indoor": "yes", "nsi_id": "unitedstatespostalservice-a77078", "operator": "United States Postal Service", "operator:short": "USPS", "operator:type": "public", "operator:wikidata": "Q668687", "ref": "5462600002"}, "type": "Feature"}
{"geometry": {"coordinates": [-91.016693177, 43.166724452], "type": "Point"}, "id": "Bhksj49ErP5qggVbbZAI3Erb68E=", "properties": {"@source_uri": "https://tools.usps.com/UspsToolsRestServices/rest/POLocator/findLocations", "@spider": "usps_collection_boxes", "addr:city": "EASTMAN", "addr:country": "US", "addr:postcode": "54626", "addr:state": "WI", "addr:street_address": "106 N MAIN ST STE C", "amenity": "post_box", "collection_times": "Mo-Fr 12:15; Sa 09:00", "indoor": "yes", "note": "ON 12/24 AND 12/31, THIS BOX MAY BE COLLECTED AS EARLY AS 12 NOON.", "nsi_id": "unitedstatespostalservice-a77078", "operator": "United States Postal Service", "operator:short": "USPS", "operator:type": "public", "operator:wikidata": "Q668687", "ref": "5462600004"}, "type": "Feature"}
{"geometry": {"coordinates": [-91.268062706, 44.170249586], "type": "Point"}, "id": "Jv9AjZZrfA_gNppFLkgaSmzHZwc=", "properties": {"@source_uri": "https://tools.usps.com/UspsToolsRestServices/rest/POLocator/findLocations", "@spider": "usps_collection_boxes", "addr:city": "ETTRICK", "addr:country": "US", "addr:postcode": "54627", "addr:state": "WI", "addr:street_address": "22900 N MAIN ST", "amenity": "post_box", "collection_times": "Mo-Fr 13:30; Sa 10:00", "indoor": "yes", "note": "ON 12/24 AND 12/31, THIS BOX MAY BE COLLECTED AS EARLY AS 12 NOON.", "nsi_id": "unitedstatespostalservice-a77078", "operator": "United States Postal Service", "operator:short": "USPS", "operator:type": "public", "operator:wikidata": "Q668687", "ref": "5462700003"}, "type": "Feature"}
{"geometry": {"coordinates": [-91.268062706, 44.170249586], "type": "Point"}, "id": "21x9gCtWQi6GmMXpqae4kBhb92Q=", "properties": {"@source_uri": "https://tools.usps.com/UspsToolsRestServices/rest/POLocator/findLocations", "@spider": "usps_collection_boxes", "addr:city": "ETTRICK", "addr:country": "US", "addr:postcode": "54627", "addr:state": "WI", "addr:street_address": "22900 N MAIN ST", "amenity": "post_box", "collection_times": "Mo-Fr 13:30; Sa 10:00", "note": "ON 12/24 AND 12/31, THIS BOX MAY BE COLLECTED AS EARLY AS 12 NOON.", "nsi_id": "unitedstatespostalservice-a77078", "operator": "United States Postal Service", "operator:short": "USPS", "operator:type": "public", "operator:wikidata": "Q668687", "ref": "5462700005"}, "type": "Feature"}
{"geometry": {"coordinates": [-91.268062706, 44.170249586], "type": "Point"}, "id": "k-T1ME-lCh5ItnWxA9y_C8Rnvyc=", "properties": {"@source_uri": "https://tools.usps.com/UspsToolsRestServices/rest/POLocator/findLocations", "@spider": "usps_collection_boxes", "addr:city": "ETTRICK", "addr:country": "US", "addr:postcode": "54627", "addr:state": "WI", "addr:street_address": "22900 N MAIN ST", "amenity": "post_box", "collection_times": "Mo-Fr 13:30; Sa 10:00", "indoor": "yes", "note": "ON 12/24 AND 12/31, THIS BOX MAY BE COLLECTED AS EARLY AS 12 NOON.", "nsi_id": "unitedstatespostalservice-a77078", "operator": "United States Postal Service", "operator:short": "USPS", "operator:type": "public", "operator:wikidata": "Q668687", "ref": "5462700006"}, "type": "Feature"}
{"geometry": {"coordinates": [-91.098225652, 43.348387591], "type": "Point"}, "id": "psywAwiCb7qgqtvUZhtqzcYce6g=", "properties": {"@source_uri": "https://tools.usps.com/UspsToolsRestServices/rest/POLocator/findLocations", "@spider": "usps_collection_boxes", "addr:city": "FERRYVILLE", "addr:country": "US", "addr:postcode": "54628", "addr:state": "WI", "addr:street_address": "158 MAIN ST", "amenity": "post_box", "collection_times": "Mo-Fr 12:30; Sa 09:30", "note": "ON 12/24 AND 12/31, THIS BOX MAY BE COLLECTED AS EARLY AS 12 NOON.", "nsi_id": "unitedstatespostalservice-a77078", "operator": "United States Postal Service", "operator:short": "USPS", "operator:type": "public", "operator:wikidata": "Q668687", "ref": "5462800001"}, "type": "Feature"}
{"geometry": {"coordinates": [-91.098225652, 43.348387591], "type": "Point"}, "id": "DQ377qsZrPxpCihhafwk7NKyu7k=", "properties": {"@source_uri": "https://tools.usps.com/UspsToolsRestServices/rest/POLocator/findLocations", "@spider": "usps_collection_boxes", "addr:city": "FERRYVILLE", "addr:country": "US", "addr:postcode": "54628", "addr:state": "WI", "addr:street_address": "158 MAIN ST", "amenity": "post_box", "collection_times": "Mo-Fr 12:30; Sa 09:30", "indoor": "yes", "note": "ON 12/24 AND 12/31, THIS BOX MAY BE COLLECTED AS EARLY AS 12 NOON.", "nsi_id": "unitedstatespostalservice-a77078", "operator": "United States Postal Service", "operator:short": "USPS", "operator:type": "public", "operator:wikidata": "Q668687", "ref": "5462800002"}, "type": "Feature"}
{"geometry": {"coordinates": [-91.098225652, 43.348387591], "type": "Point"}, "id": "ZRU5F_ei4UK3BF3Z3C3wd9vdqQA=", "properties": {"@source_uri": "https://tools.usps.com/UspsToolsRestServices/rest/POLocator/findLocations", "@spider": "usps_collection_boxes", "addr:city": "FERRYVILLE", "addr:country": "US", "addr:postcode": "54628", "addr:state": "WI", "addr:street_address": "158 MAIN ST", "amenity": "post_box", "collection_times": "Mo-Fr 12:30; Sa 09:00", "indoor": "yes", "note": "ON 12/24 AND 12/31, THIS BOX MAY BE COLLECTED AS EARLY AS 12 NOON.", "nsi_id": "unitedstatespostalservice-a77078", "operator": "United States Postal Service", "operator:short": "USPS", "operator:type": "public", "operator:wikidata": "Q668687", "ref": "5462800003"}, "type": "Feature"}
{"geometry": {"coordinates": [-91.717079189, 44.130960474], "type": "Point"}, "id": "QDu4-oTB8yG0DMCiSIij_iveO6g=", "properties": {"@source_uri": "https://tools.usps.com/UspsToolsRestServices/rest/POLocator/findLocations", "@spider": "usps_collection_boxes", "addr:city": "FOUNTAIN CITY", "addr:country": "US", "addr:postcode": "54629", "addr:state": "WI", "addr:street_address": "1 S MAIN ST", "amenity": "post_box", "collection_times": "Mo-Fr 12:45; Sa 09:30", "note": "ON 12/24 AND 12/31, THIS BOX MAY BE COLLECTED AS EARLY AS 12 NOON.", "nsi_id": "unitedstatespostalservice-a77078", "operator": "United States Postal Service", "operator:short": "USPS", "operator:type": "public", "operator:wikidata": "Q668687", "ref": "5462900001"}, "type": "Feature"}
{"geometry": {"coordinates": [-91.717079189, 44.130960474], "type": "Point"}, "id": "C67iWqFfqxHKya4mi6MoETmnnPE=", "properties": {"@source_uri": "https://tools.usps.com/UspsToolsRestServices/rest/POLocator/findLocations", "@spider": "usps_collection_boxes", "addr:city": "FOUNTAIN CITY", "addr:country": "US", "addr:postcode": "54629", "addr:state": "WI", "addr:street_address": "1 S MAIN ST", "amenity": "post_box", "collection_times": "Mo-Fr 12:45; Sa 09:30", "indoor": "yes", "note": "ON 12/24 AND 12/31, THIS BOX MAY BE COLLECTED AS EARLY AS 12 NOON.", "nsi_id": "unitedstatespostalservice-a77078", "operator": "United States Postal Service", "operator:short": "USPS", "operator:type": "public", "operator:wikidata": "Q668687", "ref": "5462900002"}, "type": "Feature"}
{"geometry": {"coordinates": [-91.717079189, 44.130960474], "type": "Point"}, "id": "myY_DzXW4ZLQVou-t5dDf4Fyl7w=", "properties": {"@source_uri": "https://tools.usps.com/UspsToolsRestServices/rest/POLocator/findLocations", "@spider": "usps_collection_boxes", "addr:city": "FOUNTAIN CITY", "addr:country": "US", "addr:postcode": "54629", "addr:state": "WI", "addr:street_address": "1 S MAIN ST", "amenity": "post_box", "collection_times": "Mo-Fr 12:45; Sa 10:00", "indoor": "yes", "note": "ON 12/24 AND 12/31, THIS BOX MAY BE COLLECTED AS EARLY AS 12 NOON.", "nsi_id": "unitedstatespostalservice-a77078", "operator": "United States Postal Service", "operator:short": "USPS", "operator:type": "public", "operator:wikidata": "Q668687", "ref": "5462900003"}, "type": "Feature"}
{"geometry": {"coordinates": [-91.342116264, 44.092666677], "type": "Point"}, "id": "f8kn6okSkeCkgP0Y9zJP0ntqQyM=", "properties": {"@source_uri": "https://tools.usps.com/UspsToolsRestServices/rest/POLocator/findLocations", "@spider": "usps_collection_boxes", "addr:city": "GALESVILLE", "addr:country": "US", "addr:postcode": "54630", "addr:state": "WI", "addr:street_address": "17512 N MAIN ST", "amenity": "post_box", "collection_times": "Mo-Sa 11:30", "nsi_id": "unitedstatespostalservice-a77078", "operator": "United States Postal Service", "operator:short": "USPS", "operator:type": "public", "operator:wikidata": "Q668687", "ref": "5463000001"}, "type": "Feature"}
{"geometry": {"coordinates": [-91.349058997, 44.08156339], "type": "Point"}, "id": "Jb3rYNFpnt1Y-IIaUHMFMfstmdI=", "properties": {"@source_uri": "https://tools.usps.com/UspsToolsRestServices/rest/POLocator/findLocations", "@spider": "usps_collection_boxes", "addr:city": "GALESVILLE", "addr:country": "US", "addr:postcode": "54630", "addr:state": "WI", "addr:street_address": "16771 S MAIN ST", "amenity": "post_box", "collection_times": "Mo-Fr 14:00; Sa 10:00", "note": "ON 12/24 AND 12/31, THIS BOX MAY BE COLLECTED AS EARLY AS 12 NOON.", "nsi_id": "unitedstatespostalservice-a77078", "operator": "United States Postal Service", "operator:short": "USPS", "operator:type": "public", "operator:wikidata": "Q668687", "ref": "5463000002"}, "type": "Feature"}
{"geometry": {"coordinates": [-91.349058997, 44.08156339], "type": "Point"}, "id": "WPvSAP1TtfCPLh34Wo0ejWNLCw8=", "properties": {"@source_uri": "https://tools.usps.com/UspsToolsRestServices/rest/POLocator/findLocations", "@spider": "usps_collection_boxes", "addr:city": "GALESVILLE", "addr:country": "US", "addr:postcode": "54630", "addr:state": "WI", "addr:street_address": "16771 S MAIN ST", "amenity": "post_box", "collection_times": "Mo-Fr 14:00; Sa 10:00", "indoor": "yes", "note": "ON 12/24 AND 12/31, THIS BOX MAY BE COLLECTED AS EARLY AS 12 NOON.", "nsi_id": "unitedstatespostalservice-a77078", "operator": "United States Postal Service", "operator:short": "USPS", "operator:type": "public", "operator:wikidata": "Q668687", "ref": "5463000003"}, "type": "Feature"}
{"geometry": {"coordinates": [-91.349058997, 44.08156339], "type": "Point"}, "id": "i_7oAjwEH8Sb09rXN2B2LGG3JUo=", "properties": {"@source_uri": "https://tools.usps.com/UspsToolsRestServices/rest/POLocator/findLocations", "@spider": "usps_collection_boxes", "addr:city": "GALESVILLE", "addr:country": "US", "addr:postcode": "54630", "addr:state": "WI", "addr:street_address": "16771 S MAIN ST", "amenity": "post_box", "collection_times": "Mo-Fr 14:00; Sa 10:00", "indoor": "yes", "note": "ON 12/24 AND 12/31, THIS BOX MAY BE COLLECTED AS EARLY AS 12 NOON.", "nsi_id": "unitedstatespostalservice-a77078", "operator": "United States Postal Service", "operator:short": "USPS", "operator:type": "public", "operator:wikidata": "Q668687", "ref": "5463000005"}, "type": "Feature"}
{"geometry": {"coordinates": [-90.8454963817, 43.3165387646], "type": "Point"}, "id": "t-TAPbGgIKXiadkuAm06YDJGaBI=", "properties": {"@source_uri": "https://tools.usps.com/UspsToolsRestServices/rest/POLocator/findLocations", "@spider": "usps_collection_boxes", "addr:city": "GAYS MILLS", "addr:country": "US", "addr:postcode": "54631", "addr:state": "WI", "addr:street_address": "225 ORIN ST", "amenity": "post_box", "collection_times": "Mo-Fr 12:00; Sa 10:00", "nsi_id": "unitedstatespostalservice-a77078", "operator": "United States Postal Service", "operator:short": "USPS", "operator:type": "public", "operator:wikidata": "Q668687", "ref": "5463100002"}, "type": "Feature"}
{"geometry": {"coordinates": [-90.8454082, 43.316535123], "type": "Point"}, "id": "IaQZ9TvtqGG9VspteR-B3scZfp0=", "properties": {"@source_uri": "https://tools.usps.com/UspsToolsRestServices/rest/POLocator/findLocations", "@spider": "usps_collection_boxes", "addr:city": "GAYS MILLS", "addr:country": "US", "addr:postcode": "54631", "addr:state": "WI", "addr:street_address": "225 ORIN ST", "amenity": "post_box", "collection_times": "Mo-Fr 12:00; Sa 10:00", "indoor": "yes", "nsi_id": "unitedstatespostalservice-a77078", "operator": "United States Postal Service", "operator:short": "USPS", "operator:type": "public", "operator:wikidata": "Q668687", "ref": "5463100003"}, "type": "Feature"}
{"geometry": {"coordinates": [-90.8454082, 43.316535123], "type": "Point"}, "id": "k7n3nPpeTbdTGl2dfOwHOFS7oEY=", "properties": {"@source_uri": "https://tools.usps.com/UspsToolsRestServices/rest/POLocator/findLocations", "@spider": "usps_collection_boxes", "addr:city": "GAYS MILLS", "addr:country": "US", "addr:postcode": "54631", "addr:state": "WI", "addr:street_address": "225 ORIN ST", "amenity": "post_box", "collection_times": "Mo-Fr 12:00; Sa 10:00", "indoor": "yes", "nsi_id": "unitedstatespostalservice-a77078", "operator": "United States Postal Service", "operator:short": "USPS", "operator:type": "public", "operator:wikidata": "Q668687", "ref": "5463100004"}, "type": "Feature"}
{"geometry": {"coordinates": [-91.225620919, 43.57493978], "type": "Point"}, "id": "3VQ3vnk8IzuEE27m2Hojci8Mj2k=", "properties": {"@source_uri": "https://tools.usps.com/UspsToolsRestServices/rest/POLocator/findLocations", "@spider": "usps_collection_boxes", "addr:city": "GENOA", "addr:country": "US", "addr:postcode": "54632", "addr:state": "WI", "addr:street_address": "501 MAIN ST", "amenity": "post_box", "collection_times": "Mo-Fr 13:15; Sa 10:00", "note": "ON 12/24 AND 12/31, THIS BOX MAY BE COLLECTED AS EARLY AS 12 NOON.", "nsi_id": "unitedstatespostalservice-a77078", "operator": "United States Postal Service", "operator:short": "USPS", "operator:type": "public", "operator:wikidata": "Q668687", "ref": "5463200000"}, "type": "Feature"}
{"geometry": {"coordinates": [-91.225620919, 43.57493978], "type": "Point"}, "id": "iN8kyOhNMtebWd3CSl8VbgZkX64=", "properties": {"@source_uri": "https://tools.usps.com/UspsToolsRestServices/rest/POLocator/findLocations", "@spider": "usps_collection_boxes", "addr:city": "GENOA", "addr:country": "US", "addr:postcode": "54632", "addr:state": "WI", "addr:street_address": "501 MAIN ST", "amenity": "post_box", "collection_times": "Mo-Fr 13:15; Sa 10:00", "indoor": "yes", "note": "ON 12/24 AND 12/31, THIS BOX MAY BE COLLECTED AS EARLY AS 12 NOON.", "nsi_id": "unitedstatespostalservice-a77078", "operator": "United States Postal Service", "operator:short": "USPS", "operator:type": "public", "operator:wikidata": "Q668687", "ref": "5463200001"}, "type": "Feature"}
{"geometry": {"coordinates": [-91.225620919, 43.57493978], "type": "Point"}, "id": "mNt7Sw8gk-fHMQjVfrAI8vyZeCw=", "properties": {"@source_uri": "https://tools.usps.com/UspsToolsRestServices/rest/POLocator/findLocations", "@spider": "usps_collection_boxes", "addr:city": "GENOA", "addr:country": "US", "addr:postcode": "54632", "addr:state": "WI", "addr:street_address": "501 MAIN ST", "amenity": "post_box", "collection_times": "Mo-Fr 13:00; Sa 09:30", "indoor": "yes", "note": "ON 12/24 AND 12/31, THIS BOX MAY BE COLLECTED AS EARLY AS 12 NOON.", "nsi_id": "unitedstatespostalservice-a77078", "operator": "United States Postal Service", "operator:short": "USPS", "operator:type": "public", "operator:wikidata": "Q668687", "ref": "5463200002"}, "type": "Feature"}
{"geometry": {"coordinates": [-90.340669968, 43.650133375], "type": "Point"}, "id": "4YwxV4r00iQhAz3OHGvtWcjBnms=", "properties": {"@source_uri": "https://tools.usps.com/UspsToolsRestServices/rest/POLocator/findLocations", "@spider": "usps_collection_boxes", "addr:city": "HILLSBORO", "addr:country": "US", "addr:postcode": "54634", "addr:state": "WI", "addr:street_address": "713 WATER AVE", "amenity": "post_box", "collection_times": "Mo-Fr 12:30; Sa 10:30", "note": "ON 12/24 AND 12/31, THIS BOX MAY BE COLLECTED AS EARLY AS 12 NOON.", "nsi_id": "unitedstatespostalservice-a77078", "operator": "United States Postal Service", "operator:short": "USPS", "operator:type": "public", "operator:wikidata": "Q668687", "ref": "5463400002"}, "type": "Feature"}
{"geometry": {"coordinates": [-90.340669968, 43.650133375], "type": "Point"}, "id": "mTvd0w01NGEq8qY9fMMg8Ji0mAM=", "properties": {"@source_uri": "https://tools.usps.com/UspsToolsRestServices/rest/POLocator/findLocations", "@spider": "usps_collection_boxes", "addr:city": "HILLSBORO", "addr:country": "US", "addr:postcode": "54634", "addr:state": "WI", "addr:street_address": "713 WATER AVE", "amenity": "post_box", "collection_times": "Mo-Fr 12:30; Sa 10:30", "note": "ON 12/24 AND 12/31, THIS BOX MAY BE COLLECTED AS EARLY AS 12 NOON.", "nsi_id": "unitedstatespostalservice-a77078", "operator": "United States Postal Service", "operator:short": "USPS", "operator:type": "public", "operator:wikidata": "Q668687", "ref": "5463400005"}, "type": "Feature"}
{"geometry": {"coordinates": [-90.340669968, 43.650133375], "type": "Point"}, "id": "WgFEJcYn508tF7WNzV-gpunBOOc=", "properties": {"@source_uri": "https://tools.usps.com/UspsToolsRestServices/rest/POLocator/findLocations", "@spider": "usps_collection_boxes", "addr:city": "HILLSBORO", "addr:country": "US", "addr:postcode": "54634", "addr:state": "WI", "addr:street_address": "713 WATER AVE", "amenity": "post_box", "collection_times": "Mo-Fr 12:30; Sa 10:30", "indoor": "yes", "note": "ON 12/24 AND 12/31, THIS BOX MAY BE COLLECTED AS EARLY AS 12 NOON.", "nsi_id": "unitedstatespostalservice-a77078", "operator": "United States Postal Service", "operator:short": "USPS", "operator:type": "public", "operator:wikidata": "Q668687", "ref": "5463400006"}, "type": "Feature"}
{"geometry": {"coordinates": [-90.340669968, 43.650133375], "type": "Point"}, "id": "assiYTUaYQ_m9xlzjUoGjHGGYGE=", "properties": {"@source_uri": "https://tools.usps.com/UspsToolsRestServices/rest/POLocator/findLocations", "@spider": "usps_collection_boxes", "addr:city": "HILLSBORO", "addr:country": "US", "addr:postcode": "54634", "addr:state": "WI", "addr:street_address": "713 WATER AVE", "amenity": "post_box", "collection_times": "Mo-Fr 12:30; Sa 11:15", "indoor": "yes", "note": "ON 12/24 AND 12/31, THIS BOX MAY BE COLLECTED AS EARLY AS 12 NOON.", "nsi_id": "unitedstatespostalservice-a77078", "operator": "United States Postal Service", "operator:short": "USPS", "operator:type": "public", "operator:wikidata": "Q668687", "ref": "5463400007"}, "type": "Feature"}
{"geometry": {"coordinates": [-91.015058224, 44.385662822], "type": "Point"}, "id": "WBa0d1Jf59qn1nN0n5Eg_ELAung=", "properties": {"@source_uri": "https://tools.usps.com/UspsToolsRestServices/rest/POLocator/findLocations", "@spider": "usps_collection_boxes", "addr:city": "HIXTON", "addr:country": "US", "addr:postcode": "54635", "addr:state": "WI", "addr:street_address": "127 W MAIN ST", "amenity": "post_box", "collection_times": "Mo-Fr 12:00; Sa 09:45", "nsi_id": "unitedstatespostalservice-a77078", "operator": "United States Postal Service", "operator:short": "USPS", "operator:type": "public", "operator:wikidata": "Q668687", "ref": "5463500002"}, "type": "Feature"}
{"geometry": {"coordinates": [-91.015058224, 44.385662822], "type": "Point"}, "id": "gDlMZA6d2NVlqvt9DM_pT-mQkms=", "properties": {"@source_uri": "https://tools.usps.com/UspsToolsRestServices/rest/POLocator/findLocations", "@spider": "usps_collection_boxes", "addr:city": "HIXTON", "addr:country": "US", "addr:postcode": "54635", "addr:state": "WI", "addr:street_address": "127 W MAIN ST", "amenity": "post_box", "collection_times": "Mo-Fr 12:00; Sa 09:45", "indoor": "yes", "nsi_id": "unitedstatespostalservice-a77078", "operator": "United States Postal Service", "operator:short": "USPS", "operator:type": "public", "operator:wikidata": "Q668687", "ref": "5463500003"}, "type": "Feature"}
{"geometry": {"coordinates": [-91.015058224, 44.385662822], "type": "Point"}, "id": "9jJyULUISqI1vWgDMP2HBSBh_JI=", "properties": {"@source_uri": "https://tools.usps.com/UspsToolsRestServices/rest/POLocator/findLocations", "@spider": "usps_collection_boxes", "addr:city": "HIXTON", "addr:country": "US", "addr:postcode": "54635", "addr:state": "WI", "addr:street_address": "127 W MAIN ST", "amenity": "post_box", "collection_times": "Mo-Fr 12:00; Sa 10:00", "indoor": "yes", "nsi_id": "unitedstatespostalservice-a77078", "operator": "United States Postal Service", "operator:short": "USPS", "operator:type": "public", "operator:wikidata": "Q668687", "ref": "5463500004"}, "type": "Feature"}
{"geometry": {"coordinates": [-91.259014132, 43.952207784], "type": "Point"}, "id": "o3oClEOmeUQPTtEK2yZ5FsJXsGk=", "properties": {"@source_uri": "https://tools.usps.com/UspsToolsRestServices/rest/POLocator/findLocations", "@spider": "usps_collection_boxes", "addr:city": "HOLMEN", "addr:country": "US", "addr:postcode": "54636", "addr:state": "WI", "addr:street_address": "123 HALE DR", "amenity": "post_box", "collection_times": "Mo-Sa 11:30", "nsi_id": "unitedstatespostalservice-a77078", "operator": "United States Postal Service", "operator:short": "USPS", "operator:type": "public", "operator:wikidata": "Q668687", "ref": "5463600001"}, "type": "Feature"}
{"geometry": {"coordinates": [-91.259642036, 43.956142701], "type": "Point"}, "id": "LfGwTDcFH6gX6ve99UEQj4g4FZw=", "properties": {"@source_uri": "https://tools.usps.com/UspsToolsRestServices/rest/POLocator/findLocations", "@spider": "usps_collection_boxes", "addr:city": "HOLMEN", "addr:country": "US", "addr:postcode": "54636", "addr:state": "WI", "addr:street_address": "1111 LINDEN DR", "amenity": "post_box", "collection_times": "Mo-Fr 13:45; Sa 11:30", "note": "ON 12/24 AND 12/31, THIS BOX MAY BE COLLECTED AS EARLY AS 12 NOON.", "nsi_id": "unitedstatespostalservice-a77078", "operator": "United States Postal Service", "operator:short": "USPS", "operator:type": "public", "operator:wikidata": "Q668687", "ref": "5463600003"}, "type": "Feature"}
{"geometry": {"coordinates": [-91.259642036, 43.956142701], "type": "Point"}, "id": "3G6sVi7uxs5SCTo-xpHkffdQhv0=", "properties": {"@source_uri": "https://tools.usps.com/UspsToolsRestServices/rest/POLocator/findLocations", "@spider": "usps_collection_boxes", "addr:city": "HOLMEN", "addr:country": "US", "addr:postcode": "54636", "addr:state": "WI", "addr:street_address": "1111 LINDEN DR", "amenity": "post_box", "collection_times": "Mo-Fr 13:45; Sa 11:30", "indoor": "yes", "note": "ON 12/24 AND 12/31, THIS BOX MAY BE COLLECTED AS EARLY AS 12 NOON.", "nsi_id": "unitedstatespostalservice-a77078", "operator": "United States Postal Service", "operator:short": "USPS", "operator:type": "public", "operator:wikidata": "Q668687", "ref": "5463600005"}, "type": "Feature"}
{"geometry": {"coordinates": [-91.259642036, 43.956142701], "type": "Point"}, "id": "FlReiYmjY1t9BV5caCFUD22gTD0=", "properties": {"@source_uri": "https://tools.usps.com/UspsToolsRestServices/rest/POLocator/findLocations", "@spider": "usps_collection_boxes", "addr:city": "HOLMEN", "addr:country": "US", "addr:postcode": "54636", "addr:state": "WI", "addr:street_address": "1111 LINDEN DR", "amenity": "post_box", "collection_times": "Mo-Fr 14:00; Sa 11:30", "indoor": "yes", "note": "ON 12/24 AND 12/31, THIS BOX MAY BE COLLECTED AS EARLY AS 12 NOON.", "nsi_id": "unitedstatespostalservice-a77078", "operator": "United States Postal Service", "operator:short": "USPS", "operator:type": "public", "operator:wikidata": "Q668687", "ref": "5463600007"}, "type": "Feature"}
{"geometry": {"coordinates": [-90.368971277, 43.792795079], "type": "Point"}, "id": "Ps2rnYNrbrKuMlXU9WgnHMEENT4=", "properties": {"@source_uri": "https://tools.usps.com/UspsToolsRestServices/rest/POLocator/findLocations", "@spider": "usps_collection_boxes", "addr:city": "KENDALL", "addr:country": "US", "addr:postcode": "54638", "addr:state": "WI", "addr:street_address": "109 S RAILROAD ST", "amenity": "post_box", "collection_times": "Mo-Fr 12:15; Sa 08:30", "note": "ON 12/24 AND 12/31, THIS BOX MAY BE COLLECTED AS EARLY AS 12 NOON.", "nsi_id": "unitedstatespostalservice-a77078", "operator": "United States Postal Service", "operator:short": "USPS", "operator:type": "public", "operator:wikidata": "Q668687", "ref": "5463800001"}, "type": "Feature"}
{"geometry": {"coordinates": [-90.368971277, 43.792795079], "type": "Point"}, "id": "Ab4FBUxm4PSUV31bFaILC7c3jVE=", "properties": {"@source_uri": "https://tools.usps.com/UspsToolsRestServices/rest/POLocator/findLocations", "@spider": "usps_collection_boxes", "addr:city": "KENDALL", "addr:country": "US", "addr:postcode": "54638", "addr:state": "WI", "addr:street_address": "109 S RAILROAD ST", "amenity": "post_box", "collection_times": "Mo-Fr 12:15; Sa 08:30", "indoor": "yes", "note": "ON 12/24 AND 12/31, THIS BOX MAY BE COLLECTED AS EARLY AS 12 NOON.", "nsi_id": "unitedstatespostalservice-a77078", "operator": "United States Postal Service", "operator:short": "USPS", "operator:type": "public", "operator:wikidata": "Q668687", "ref": "5463800002"}, "type": "Feature"}
{"geometry": {"coordinates": [-90.368971277, 43.792795079], "type": "Point"}, "id": "oFkaQnZ55wOz3E7NAvfAEcQT63g=", "properties": {"@source_uri": "https://tools.usps.com/UspsToolsRestServices/rest/POLocator/findLocations", "@spider": "usps_collection_boxes", "addr:city": "KENDALL", "addr:country": "US", "addr:postcode": "54638", "addr:state": "WI", "addr:street_address": "109 S RAILROAD ST", "amenity": "post_box", "collection_times": "Mo-Fr 12:15; Sa 08:30", "indoor": "yes", "note": "ON 12/24 AND 12/31, THIS BOX MAY BE COLLECTED AS EARLY AS 12 NOON.", "nsi_id": "unitedstatespostalservice-a77078", "operator": "United States Postal Service", "operator:short": "USPS", "operator:type": "public", "operator:wikidata": "Q668687", "ref": "5463800003"}, "type": "Feature"}
{"geometry": {"coordinates": [-90.637753699, 43.574367511], "type": "Point"}, "id": "SetYgRwq7dGxLaWwIXN5Ohqhrq4=", "properties": {"@source_uri": "https://tools.usps.com/UspsToolsRestServices/rest/POLocator/findLocations", "@spider": "usps_collection_boxes", "addr:city": "LA FARGE", "addr:country": "US", "addr:postcode": "54639", "addr:state": "WI", "addr:street_address": "205 W MAIN ST", "amenity": "post_box", "collection_times": "Mo-Fr 12:45; Sa 10:00", "note": "ON 12/24 AND 12/31, THIS BOX MAY BE COLLECTED AS EARLY AS 12 NOON.", "nsi_id": "unitedstatespostalservice-a77078", "operator": "United States Postal Service", "operator:short": "USPS", "operator:type": "public", "operator:wikidata": "Q668687", "ref": "5463900000"}, "type": "Feature"}
{"geometry": {"coordinates": [-90.637753699, 43.574367511], "type": "Point"}, "id": "XLU7FRfupbvznWH6ULxLvnK5oiw=", "properties": {"@source_uri": "https://tools.usps.com/UspsToolsRestServices/rest/POLocator/findLocations", "@spider": "usps_collection_boxes", "addr:city": "LA FARGE", "addr:country": "US", "addr:postcode": "54639", "addr:state": "WI", "addr:street_address": "205 W MAIN ST", "amenity": "post_box", "collection_times": "Mo-Fr 12:45; Sa 10:00", "indoor": "yes", "note": "ON 12/24 AND 12/31, THIS BOX MAY BE COLLECTED AS EARLY AS 12 NOON.", "nsi_id": "unitedstatespostalservice-a77078", "operator": "United States Postal Service", "operator:short": "USPS", "operator:type": "public", "operator:wikidata": "Q668687", "ref": "5463900001"}, "type": "Feature"}
{"geometry": {"coordinates": [-90.637753699, 43.574367511], "type": "Point"}, "id": "UKhbEGHRkaxi7HQLHpa-X4dJdcM=", "properties": {"@source_uri": "https://tools.usps.com/UspsToolsRestServices/rest/POLocator/findLocations", "@spider": "usps_collection_boxes", "addr:city": "LA FARGE", "addr:country": "US", "addr:postcode": "54639", "addr:state": "WI", "addr:street_address": "205 W MAIN ST", "amenity": "post_box", "collection_times": "Mo-Fr 12:45; Sa 09:30", "indoor": "yes", "note": "ON 12/24 AND 12/31, THIS BOX MAY BE COLLECTED AS EARLY AS 12 NOON.", "nsi_id": "unitedstatespostalservice-a77078", "operator": "United States Postal Service", "operator:short": "USPS", "operator:type": "public", "operator:wikidata": "Q668687", "ref": "5463900002"}, "type": "Feature"}
{"geometry": {"coordinates": [-90.307707986, 44.142231168], "type": "Point"}, "id": "JNyqUcT1HBjmBKFNH1XrC8SxzTk=", "properties": {"@source_uri": "https://tools.usps.com/UspsToolsRestServices/rest/POLocator/findLocations", "@spider": "usps_collection_boxes", "addr:city": "MATHER", "addr:country": "US", "addr:postcode": "54641", "addr:state": "WI", "addr:street_address": "W10786 MAIN ST", "amenity": "post_box", "collection_times": "Mo-Sa 09:00", "nsi_id": "unitedstatespostalservice-a77078", "operator": "United States Postal Service", "operator:short": "USPS", "operator:type": "public", "operator:wikidata": "Q668687", "ref": "5464100000"}, "type": "Feature"}
{"geometry": {"coordinates": [-90.307707986, 44.142231168], "type": "Point"}, "id": "_itJbAFQP1ThxQKzydUD-ijeqjU=", "properties": {"@source_uri": "https://tools.usps.com/UspsToolsRestServices/rest/POLocator/findLocations", "@spider": "usps_collection_boxes", "addr:city": "MATHER", "addr:country": "US", "addr:postcode": "54641", "addr:state": "WI", "addr:street_address": "W10786 MAIN ST", "amenity": "post_box", "collection_times": "Mo-Sa 09:00", "indoor": "yes", "nsi_id": "unitedstatespostalservice-a77078", "operator": "United States Postal Service", "operator:short": "USPS", "operator:type": "public", "operator:wikidata": "Q668687", "ref": "5464100001"}, "type": "Feature"}
{"geometry": {"coordinates": [-90.307707986, 44.142231168], "type": "Point"}, "id": "7FFy4BJNqHzjeaZxSSXH7TgtmJw=", "properties": {"@source_uri": "https://tools.usps.com/UspsToolsRestServices/rest/POLocator/findLocations", "@spider": "usps_collection_boxes", "addr:city": "MATHER", "addr:country": "US", "addr:postcode": "54641", "addr:state": "WI", "addr:street_address": "W10786 MAIN ST", "amenity": "post_box", "collection_times": "Mo-Sa 09:00", "indoor": "yes", "nsi_id": "unitedstatespostalservice-a77078", "operator": "United States Postal Service", "operator:short": "USPS", "operator:type": "public", "operator:wikidata": "Q668687", "ref": "5464100002"}, "type": "Feature"}
{"geometry": {"coordinates": [-90.99607999, 44.132708692], "type": "Point"}, "id": "XIZSsFx722CmiQT7M9Yb6WNktOY=", "properties": {"@source_uri": "https://tools.usps.com/UspsToolsRestServices/rest/POLocator/findLocations", "@spider": "usps_collection_boxes", "addr:city": "MELROSE", "addr:country": "US", "addr:postcode": "54642", "addr:state": "WI", "addr:street_address": "407 N WASHINGTON ST", "amenity": "post_box", "collection_times": "Mo-Fr 13:15; Sa 09:30", "note": "ON 12/24 AND 12/31, THIS BOX MAY BE COLLECTED AS EARLY AS 12 NOON.", "nsi_id": "unitedstatespostalservice-a77078", "operator": "United States Postal Service", "operator:short": "USPS", "operator:type": "public", "operator:wikidata": "Q668687", "ref": "5464200001"}, "type": "Feature"}
{"geometry": {"coordinates": [-90.99607999, 44.132708692], "type": "Point"}, "id": "PK1yrqOrJOt7mgP_kefUmsS2nQQ=", "properties": {"@source_uri": "https://tools.usps.com/UspsToolsRestServices/rest/POLocator/findLocations", "@spider": "usps_collection_boxes", "addr:city": "MELROSE", "addr:country": "US", "addr:postcode": "54642", "addr:state": "WI", "addr:street_address": "407 N WASHINGTON ST", "amenity": "post_box", "collection_times": "Mo-Fr 13:15; Sa 09:30", "indoor": "yes", "note": "ON 12/24 AND 12/31, THIS BOX MAY BE COLLECTED AS EARLY AS 12 NOON.", "nsi_id": "unitedstatespostalservice-a77078", "operator": "United States Postal Service", "operator:short": "USPS", "operator:type": "public", "operator:wikidata": "Q668687", "ref": "5464200002"}, "type": "Feature"}
{"geometry": {"coordinates": [-90.99607999, 44.132708692], "type": "Point"}, "id": "0SmTQZW8D5eaClTq63i4_dvgJ8o=", "properties": {"@source_uri": "https://tools.usps.com/UspsToolsRestServices/rest/POLocator/findLocations", "@spider": "usps_collection_boxes", "addr:city": "MELROSE", "addr:country": "US", "addr:postcode": "54642", "addr:state": "WI", "addr:street_address": "407 N WASHINGTON ST", "amenity": "post_box", "collection_times": "Mo-Fr 13:30; Sa 10:30", "indoor": "yes", "note": "ON 12/24 AND 12/31, THIS BOX MAY BE COLLECTED AS EARLY AS 12 NOON.", "nsi_id": "unitedstatespostalservice-a77078", "operator": "United States Postal Service", "operator:short": "USPS", "operator:type": "public", "operator:wikidata": "Q668687", "ref": "5464200003"}, "type": "Feature"}
{"geometry": {"coordinates": [-90.642404066, 44.191716636], "type": "Point"}, "id": "dG13DVKISutYEjif1hTltvZmNrM=", "properties": {"@source_uri": "https://tools.usps.com/UspsToolsRestServices/rest/POLocator/findLocations", "@spider": "usps_collection_boxes", "addr:city": "MILLSTON", "addr:country": "US", "addr:postcode": "54643", "addr:state": "WI", "addr:street_address": "W6593 RAILROAD ST", "amenity": "post_box", "collection_times": "Mo-Sa 12:15", "note": "ON 12/24 AND 12/31, THIS BOX MAY BE COLLECTED AS EARLY AS 12 NOON.", "nsi_id": "unitedstatespostalservice-a77078", "operator": "United States Postal Service", "operator:short": "USPS", "operator:type": "public", "operator:wikidata": "Q668687", "ref": "5464300001"}, "type": "Feature"}
{"geometry": {"coordinates": [-90.642404066, 44.191716636], "type": "Point"}, "id": "29ECdaPYJXPuJX1-HUqt1IPdnxQ=", "properties": {"@source_uri": "https://tools.usps.com/UspsToolsRestServices/rest/POLocator/findLocations", "@spider": "usps_collection_boxes", "addr:city": "MILLSTON", "addr:country": "US", "addr:postcode": "54643", "addr:state": "WI", "addr:street_address": "W6593 RAILROAD ST", "amenity": "post_box", "collection_times": "Mo-Sa 12:15", "indoor": "yes", "note": "ON 12/24 AND 12/31, THIS BOX MAY BE COLLECTED AS EARLY AS 12 NOON.", "nsi_id": "unitedstatespostalservice-a77078", "operator": "United States Postal Service", "operator:short": "USPS", "operator:type": "public", "operator:wikidata": "Q668687", "ref": "5464300002"}, "type": "Feature"}
{"geometry": {"coordinates": [-90.642404066, 44.191716636], "type": "Point"}, "id": "9yYmNVR2gJlsQ5sRyM3kvOFlNz8=", "properties": {"@source_uri": "https://tools.usps.com/UspsToolsRestServices/rest/POLocator/findLocations", "@spider": "usps_collection_boxes", "addr:city": "MILLSTON", "addr:country": "US", "addr:postcode": "54643", "addr:state": "WI", "addr:street_address": "W6593 RAILROAD ST", "amenity": "post_box", "collection_times": "Mo-Sa 12:15", "indoor": "yes", "note": "ON 12/24 AND 12/31, THIS BOX MAY BE COLLECTED AS EARLY AS 12 NOON.", "nsi_id": "unitedstatespostalservice-a77078", "operator": "United States Postal Service", "operator:short": "USPS", "operator:type": "public", "operator:wikidata": "Q668687", "ref": "5464300003"}, "type": "Feature"}
{"geometry": {"coordinates": [-91.101891649, 44.020961801], "type": "Point"}, "id": "RPCQFOwrAiSB6ZbqZmL0CAyQOsU=", "properties": {"@source_uri": "https://tools.usps.com/UspsToolsRestServices/rest/POLocator/findLocations", "@spider": "usps_collection_boxes", "addr:city": "MINDORO", "addr:country": "US", "addr:postcode": "54644", "addr:state": "WI", "addr:street_address": "N8299 COUNTY ROAD C", "amenity": "post_box", "collection_times": "Mo-Fr 13:45; Sa 08:30", "note": "ON 12/24 AND 12/31, THIS BOX MAY BE COLLECTED AS EARLY AS 12 NOON.", "nsi_id": "unitedstatespostalservice-a77078", "operator": "United States Postal Service", "operator:short": "USPS", "operator:type": "public", "operator:wikidata": "Q668687", "ref": "5464400000"}, "type": "Feature"}
{"geometry": {"coordinates": [-91.101891649, 44.020961801], "type": "Point"}, "id": "yR7ZBHtElZfdEH4kQK0VKK9NhXg=", "properties": {"@source_uri": "https://tools.usps.com/UspsToolsRestServices/rest/POLocator/findLocations", "@spider": "usps_collection_boxes", "addr:city": "MINDORO", "addr:country": "US", "addr:postcode": "54644", "addr:state": "WI", "addr:street_address": "N8299 COUNTY ROAD C", "amenity": "post_box", "collection_times": "Mo-Fr 13:45; Sa 08:30", "indoor": "yes", "note": "ON 12/24 AND 12/31, THIS BOX MAY BE COLLECTED AS EARLY AS 12 NOON.", "nsi_id": "unitedstatespostalservice-a77078", "operator": "United States Postal Service", "operator:short": "USPS", "operator:type": "public", "operator:wikidata": "Q668687", "ref": "5464400001"}, "type": "Feature"}
{"geometry": {"coordinates": [-91.101891649, 44.020961801], "type": "Point"}, "id": "T5qFQjk9pwkVR54egshNX29OnqM=", "properties": {"@source_uri": "https://tools.usps.com/UspsToolsRestServices/rest/POLocator/findLocations", "@spider": "usps_collection_boxes", "addr:city": "MINDORO", "addr:country": "US", "addr:postcode": "54644", "addr:state": "WI", "addr:street_address": "N8299 COUNTY ROAD C", "amenity": "post_box", "collection_times": "Mo-Fr 13:30; Sa 09:15", "indoor": "yes", "note": "ON 12/24 AND 12/31, THIS BOX MAY BE COLLECTED AS EARLY AS 12 NOON.", "nsi_id": "unitedstatespostalservice-a77078", "operator": "United States Postal Service", "operator:short": "USPS", "operator:type": "public", "operator:wikidata": "Q668687", "ref": "5464400002"}, "type": "Feature"}
{"geometry": {"coordinates": [-90.92699664, 43.315649656], "type": "Point"}, "id": "kFi6hfcVFQB0_mvsNv59HzpIe2U=", "properties": {"@source_uri": "https://tools.usps.com/UspsToolsRestServices/rest/POLocator/findLocations", "@spider": "usps_collection_boxes", "addr:city": "MT STERLING", "addr:country": "US", "addr:postcode": "54645", "addr:state": "WI", "addr:street_address": "305 DIAGONAL ST", "amenity": "post_box", "collection_times": "Mo-Fr 11:00; Sa 09:30", "nsi_id": "unitedstatespostalservice-a77078", "operator": "United States Postal Service", "operator:short": "USPS", "operator:type": "public", "operator:wikidata": "Q668687", "ref": "5464500000"}, "type": "Feature"}
{"geometry": {"coordinates": [-90.92699664, 43.315649656], "type": "Point"}, "id": "EKIU_Y58Ke2Co5LPsZ-YS1D2Gxo=", "properties": {"@source_uri": "https://tools.usps.com/UspsToolsRestServices/rest/POLocator/findLocations", "@spider": "usps_collection_boxes", "addr:city": "MT STERLING", "addr:country": "US", "addr:postcode": "54645", "addr:state": "WI", "addr:street_address": "305 DIAGONAL ST", "amenity": "post_box", "collection_times": "Mo-Fr 11:00; Sa 09:30", "indoor": "yes", "nsi_id": "unitedstatespostalservice-a77078", "operator": "United States Postal Service", "operator:short": "USPS", "operator:type": "public", "operator:wikidata": "Q668687", "ref": "5464500001"}, "type": "Feature"}
{"geometry": {"coordinates": [-90.92699664, 43.315649656], "type": "Point"}, "id": "gv3piGRZpgJDnBpoGYQg8aDtohM=", "properties": {"@source_uri": "https://tools.usps.com/UspsToolsRestServices/rest/POLocator/findLocations", "@spider": "usps_collection_boxes", "addr:city": "MT STERLING", "addr:country": "US", "addr:postcode": "54645", "addr:state": "WI", "addr:street_address": "305 DIAGONAL ST", "amenity": "post_box", "collection_times": "Mo-Fr 11:00; Sa 11:45", "indoor": "yes", "nsi_id": "unitedstatespostalservice-a77078", "operator": "United States Postal Service", "operator:short": "USPS", "operator:type": "public", "operator:wikidata": "Q668687", "ref": "5464500002"}, "type": "Feature"}
{"geometry": {"coordinates": [-90.080491919, 44.024424545], "type": "Point"}, "id": "sz6Sqm8bK-X85f1qEZFcm1329Jc=", "properties": {"@source_uri": "https://tools.usps.com/UspsToolsRestServices/rest/POLocator/findLocations", "@spider": "usps_collection_boxes", "addr:city": "NECEDAH", "addr:country": "US", "addr:postcode": "54646", "addr:state": "WI", "addr:street_address": "603 W 3RD ST", "amenity": "post_box", "collection_times": "Mo-Fr 12:45; Sa 10:00", "note": "ON 12/24 AND 12/31, THIS BOX MAY BE COLLECTED AS EARLY AS 12 NOON.", "nsi_id": "unitedstatespostalservice-a77078", "operator": "United States Postal Service", "operator:short": "USPS", "operator:type": "public", "operator:wikidata": "Q668687", "ref": "5464600000"}, "type": "Feature"}
{"geometry": {"coordinates": [-90.080491919, 44.024424545], "type": "Point"}, "id": "n5HSFezsyZrVQUbdQyJh8K7sTzI=", "properties": {"@source_uri": "https://tools.usps.com/UspsToolsRestServices/rest/POLocator/findLocations", "@spider": "usps_collection_boxes", "addr:city": "NECEDAH", "addr:country": "US", "addr:postcode": "54646", "addr:state": "WI", "addr:street_address": "603 W 3RD ST", "amenity": "post_box", "collection_times": "Mo-Fr 12:45; Sa 10:00", "indoor": "yes", "note": "ON 12/24 AND 12/31, THIS BOX MAY BE COLLECTED AS EARLY AS 12 NOON.", "nsi_id": "unitedstatespostalservice-a77078", "operator": "United States Postal Service", "operator:short": "USPS", "operator:type": "public", "operator:wikidata": "Q668687", "ref": "5464600001"}, "type": "Feature"}
{"geometry": {"coordinates": [-90.080491919, 44.024424545], "type": "Point"}, "id": "NKDiGLLwkV_c5IiBQ9GCNfEr490=", "properties": {"@source_uri": "https://tools.usps.com/UspsToolsRestServices/rest/POLocator/findLocations", "@spider": "usps_collection_boxes", "addr:city": "NECEDAH", "addr:country": "US", "addr:postcode": "54646", "addr:state": "WI", "addr:street_address": "603 W 3RD ST", "amenity": "post_box", "collection_times": "Mo-Fr 12:45; Sa 10:00", "indoor": "yes", "note": "ON 12/24 AND 12/31, THIS BOX MAY BE COLLECTED AS EARLY AS 12 NOON.", "nsi_id": "unitedstatespostalservice-a77078", "operator": "United States Postal Service", "operator:short": "USPS", "operator:type": "public", "operator:wikidata": "Q668687", "ref": "5464600002"}, "type": "Feature"}
{"geometry": {"coordinates": [-90.080491919, 44.024424545], "type": "Point"}, "id": "7OihbjRQXqmWbG3H8K9EUvc_69k=", "properties": {"@source_uri": "https://tools.usps.com/UspsToolsRestServices/rest/POLocator/findLocations", "@spider": "usps_collection_boxes", "addr:city": "NECEDAH", "addr:country": "US", "addr:postcode": "54646", "addr:state": "WI", "addr:street_address": "603 W 3RD ST", "amenity": "post_box", "collection_times": "Mo-Fr 12:45; Sa 10:00", "indoor": "yes", "note": "ON 12/24 AND 12/31, THIS BOX MAY BE COLLECTED AS EARLY AS 12 NOON.", "nsi_id": "unitedstatespostalservice-a77078", "operator": "United States Postal Service", "operator:short": "USPS", "operator:type": "public", "operator:wikidata": "Q668687", "ref": "5464600003"}, "type": "Feature"}
{"geometry": {"coordinates": [-90.622050076, 43.83153], "type": "Point"}, "id": "1-lBiijYR3NrBdKWCyWMFaf7Tog=", "properties": {"@source_uri": "https://tools.usps.com/UspsToolsRestServices/rest/POLocator/findLocations", "@spider": "usps_collection_boxes", "addr:city": "NORWALK", "addr:country": "US", "addr:postcode": "54648", "addr:state": "WI", "addr:street_address": "202 MAIN ST", "amenity": "post_box", "collection_times": "Mo-Fr 11:30; Sa 09:30", "nsi_id": "unitedstatespostalservice-a77078", "operator": "United States Postal Service", "operator:short": "USPS", "operator:type": "public", "operator:wikidata": "Q668687", "ref": "5464800000"}, "type": "Feature"}
{"geometry": {"coordinates": [-90.622050076, 43.83153], "type": "Point"}, "id": "ENxapYUMNLscYOLK0CH4tIQQFig=", "properties": {"@source_uri": "https://tools.usps.com/UspsToolsRestServices/rest/POLocator/findLocations", "@spider": "usps_collection_boxes", "addr:city": "NORWALK", "addr:country": "US", "addr:postcode": "54648", "addr:state": "WI", "addr:street_address": "202 MAIN ST", "amenity": "post_box", "collection_times": "Mo-Fr 11:30; Sa 09:30", "indoor": "yes", "nsi_id": "unitedstatespostalservice-a77078", "operator": "United States Postal Service", "operator:short": "USPS", "operator:type": "public", "operator:wikidata": "Q668687", "ref": "5464800001"}, "type": "Feature"}
{"geometry": {"coordinates": [-90.622050076, 43.83153], "type": "Point"}, "id": "NwmigjIYBvGH0mxcLK92GurSijM=", "properties": {"@source_uri": "https://tools.usps.com/UspsToolsRestServices/rest/POLocator/findLocations", "@spider": "usps_collection_boxes", "addr:city": "NORWALK", "addr:country": "US", "addr:postcode": "54648", "addr:state": "WI", "addr:street_address": "202 MAIN ST", "amenity": "post_box", "collection_times": "Mo-Fr 11:30; Sa 09:30", "indoor": "yes", "nsi_id": "unitedstatespostalservice-a77078", "operator": "United States Postal Service", "operator:short": "USPS", "operator:type": "public", "operator:wikidata": "Q668687", "ref": "5464800002"}, "type": "Feature"}
{"geometry": {"coordinates": [-90.379462096, 43.959442265], "type": "Point"}, "id": "Jgyj1ktkRD4ML30QZcH5BsLlL0c=", "properties": {"@source_uri": "https://tools.usps.com/UspsToolsRestServices/rest/POLocator/findLocations", "@spider": "usps_collection_boxes", "addr:city": "OAKDALE", "addr:country": "US", "addr:postcode": "54649", "addr:state": "WI", "addr:street_address": "126 E BADGER DR", "amenity": "post_box", "collection_times": "Mo-Fr 13:00; Sa 09:30", "note": "ON 12/24 AND 12/31, THIS BOX MAY BE COLLECTED AS EARLY AS 12 NOON.", "nsi_id": "unitedstatespostalservice-a77078", "operator": "United States Postal Service", "operator:short": "USPS", "operator:type": "public", "operator:wikidata": "Q668687", "ref": "5464900001"}, "type": "Feature"}
{"geometry": {"coordinates": [-90.379462096, 43.959442265], "type": "Point"}, "id": "c99u4ouJXj_CQnhD9x9QCWpiFpg=", "properties": {"@source_uri": "https://tools.usps.com/UspsToolsRestServices/rest/POLocator/findLocations", "@spider": "usps_collection_boxes", "addr:city": "OAKDALE", "addr:country": "US", "addr:postcode": "54649", "addr:state": "WI", "addr:street_address": "126 E BADGER DR", "amenity": "post_box", "collection_times": "Mo-Fr 13:00; Sa 09:30", "indoor": "yes", "note": "ON 12/24 AND 12/31, THIS BOX MAY BE COLLECTED AS EARLY AS 12 NOON.", "nsi_id": "unitedstatespostalservice-a77078", "operator": "United States Postal Service", "operator:short": "USPS", "operator:type": "public", "operator:wikidata": "Q668687", "ref": "5464900002"}, "type": "Feature"}
{"geometry": {"coordinates": [-90.3794620963, 43.959442265], "type": "Point"}, "id": "sgrCljcNAdsGoQLT71fenbpuqV4=", "properties": {"@source_uri": "https://tools.usps.com/UspsToolsRestServices/rest/POLocator/findLocations", "@spider": "usps_collection_boxes", "addr:city": "OAKDALE", "addr:country": "US", "addr:postcode": "54649", "addr:state": "WI", "addr:street_address": "126 E BADGER DR", "amenity": "post_box", "collection_times": "Mo-Fr 13:00; Sa 09:30", "indoor": "yes", "note": "ON 12/24 AND 12/31, THIS BOX MAY BE COLLECTED AS EARLY AS 12 NOON.", "nsi_id": "unitedstatespostalservice-a77078", "operator": "United States Postal Service", "operator:short": "USPS", "operator:type": "public", "operator:wikidata": "Q668687", "ref": "5464900003"}, "type": "Feature"}
{"geometry": {"coordinates": [-91.22245538, 43.886349], "type": "Point"}, "id": "_0bPnUrX9Pr2q6C-cYDpxpT5R2M=", "properties": {"@source_uri": "https://tools.usps.com/UspsToolsRestServices/rest/POLocator/findLocations", "@spider": "usps_collection_boxes", "addr:city": "LACROSSE", "addr:country": "US", "addr:postcode": "54650", "addr:state": "WI", "addr:street_address": "304 11TH AVE N", "amenity": "post_box", "collection_times": "Mo-Fr 14:00; Sa 12:00", "note": "ON 12/24 AND 12/31, THIS BOX MAY BE COLLECTED AS EARLY AS 12 NOON.", "nsi_id": "unitedstatespostalservice-a77078", "operator": "United States Postal Service", "operator:short": "USPS", "operator:type": "public", "operator:wikidata": "Q668687", "ref": "5465000001"}, "type": "Feature"}
{"geometry": {"coordinates": [-91.2220139667, 43.8861919818], "type": "Point"}, "id": "3QkIe76zNb9G0wE8KhkWimLI46Y=", "properties": {"@source_uri": "https://tools.usps.com/UspsToolsRestServices/rest/POLocator/findLocations", "@spider": "usps_collection_boxes", "addr:city": "LACROSSE", "addr:country": "US", "addr:postcode": "54650", "addr:state": "WI", "addr:street_address": "304 11TH AVE N", "amenity": "post_box", "collection_times": "Mo-Fr 14:00; Sa 12:00", "note": "ON 12/24 AND 12/31, THIS BOX MAY BE COLLECTED AS EARLY AS 12 NOON.", "nsi_id": "unitedstatespostalservice-a77078", "operator": "United States Postal Service", "operator:short": "USPS", "operator:type": "public", "operator:wikidata": "Q668687", "ref": "5465000002"}, "type": "Feature"}
{"geometry": {"coordinates": [-91.230303861, 43.875439519], "type": "Point"}, "id": "e581Frm86t9Ke82R_lCu88Fhn2o=", "properties": {"@source_uri": "https://tools.usps.com/UspsToolsRestServices/rest/POLocator/findLocations", "@spider": "usps_collection_boxes", "addr:city": "LACROSSE", "addr:country": "US", "addr:postcode": "54650", "addr:state": "WI", "addr:street_address": "229 OAK FOREST DR", "amenity": "post_box", "collection_times": "Mo-Sa 10:00", "nsi_id": "unitedstatespostalservice-a77078", "operator": "United States Postal Service", "operator:short": "USPS", "operator:type": "public", "operator:wikidata": "Q668687", "ref": "5465000006"}, "type": "Feature"}
{"geometry": {"coordinates": [-91.220062876, 43.887590612], "type": "Point"}, "id": "SVkCDggefc4CKXJhmWegKKQMfhI=", "properties": {"@source_uri": "https://tools.usps.com/UspsToolsRestServices/rest/POLocator/findLocations", "@spider": "usps_collection_boxes", "addr:city": "LACROSSE", "addr:country": "US", "addr:postcode": "54650", "addr:state": "WI", "addr:street_address": "408 SAND LAKE RD", "amenity": "post_box", "collection_times": "Mo-Sa 11:00", "nsi_id": "unitedstatespostalservice-a77078", "operator": "United States Postal Service", "operator:short": "USPS", "operator:type": "public", "operator:wikidata": "Q668687", "ref": "5465000009"}, "type": "Feature"}
{"geometry": {"coordinates": [-91.240588429, 43.896510271], "type": "Point"}, "id": "-uJsNYv3LIaUBkzVdX2cKtpHZdY=", "properties": {"@source_uri": "https://tools.usps.com/UspsToolsRestServices/rest/POLocator/findLocations", "@spider": "usps_collection_boxes", "addr:city": "LACROSSE", "addr:country": "US", "addr:postcode": "54650", "addr:state": "WI", "addr:street_address": "950 2ND AVE N", "amenity": "post_box", "collection_times": "Mo-Fr 10:00", "nsi_id": "unitedstatespostalservice-a77078", "operator": "United States Postal Service", "operator:short": "USPS", "operator:type": "public", "operator:wikidata": "Q668687", "ref": "5465000013"}, "type": "Feature"}
{"geometry": {"coordinates": [-91.215306209, 43.869946653], "type": "Point"}, "id": "3pmmKbbn1Ckh85VmH3pHUIshyfk=", "properties": {"@source_uri": "https://tools.usps.com/UspsToolsRestServices/rest/POLocator/findLocations", "@spider": "usps_collection_boxes", "addr:city": "LACROSSE", "addr:country": "US", "addr:postcode": "54650", "addr:state": "WI", "addr:street_address": "1220 CROSSING MEADOWS DR", "amenity": "post_box", "collection_times": "Mo-Sa 11:30", "nsi_id": "unitedstatespostalservice-a77078", "operator": "United States Postal Service", "operator:short": "USPS", "operator:type": "public", "operator:wikidata": "Q668687", "ref": "5465000014"}, "type": "Feature"}
{"geometry": {"coordinates": [-91.176938604, 43.880044094], "type": "Point"}, "id": "2q2DbqFKaLh7NPyA7vN_oGyjA28=", "properties": {"@source_uri": "https://tools.usps.com/UspsToolsRestServices/rest/POLocator/findLocations", "@spider": "usps_collection_boxes", "addr:city": "LACROSSE", "addr:country": "US", "addr:postcode": "54650", "addr:state": "WI", "addr:street_address": "9515 STATE ROAD 16", "amenity": "post_box", "collection_times": "Mo-Sa 11:00", "nsi_id": "unitedstatespostalservice-a77078", "operator": "United States Postal Service", "operator:short": "USPS", "operator:type": "public", "operator:wikidata": "Q668687", "ref": "5465000015"}, "type": "Feature"}
{"geometry": {"coordinates": [-91.22245538, 43.886349], "type": "Point"}, "id": "WMJtD_Qzu0NUpUAPCoqkI044J-M=", "properties": {"@source_uri": "https://tools.usps.com/UspsToolsRestServices/rest/POLocator/findLocations", "@spider": "usps_collection_boxes", "addr:city": "LACROSSE", "addr:country": "US", "addr:postcode": "54650", "addr:state": "WI", "addr:street_address": "304 11TH AVE N", "amenity": "post_box", "collection_times": "Mo-Fr 14:00; Sa 12:00", "indoor": "yes", "note": "ON 12/24 AND 12/31, THIS BOX MAY BE COLLECTED AS EARLY AS 12 NOON.", "nsi_id": "unitedstatespostalservice-a77078", "operator": "United States Postal Service", "operator:short": "USPS", "operator:type": "public", "operator:wikidata": "Q668687", "ref": "5465000019"}, "type": "Feature"}
{"geometry": {"coordinates": [-91.1836449668, 43.8797729946], "type": "Point"}, "id": "5ZS1WAfkIw08E6Dp7HXYjoesAIs=", "properties": {"@source_uri": "https://tools.usps.com/UspsToolsRestServices/rest/POLocator/findLocations", "@spider": "usps_collection_boxes", "addr:city": "LACROSSE", "addr:country": "US", "addr:postcode": "54650", "addr:state": "WI", "addr:street_address": "3107 MARKET PL", "amenity": "post_box", "collection_times": "Mo-Sa 10:00", "nsi_id": "unitedstatespostalservice-a77078", "operator": "United States Postal Service", "operator:short": "USPS", "operator:type": "public", "operator:wikidata": "Q668687", "ref": "5465000020"}, "type": "Feature"}
{"geometry": {"coordinates": [-91.244862807, 43.922466468], "type": "Point"}, "id": "TOHirIiAc7nJvbL2JES3mtBNl7o=", "properties": {"@source_uri": "https://tools.usps.com/UspsToolsRestServices/rest/POLocator/findLocations", "@spider": "usps_collection_boxes", "addr:city": "LACROSSE", "addr:country": "US", "addr:postcode": "54650", "addr:state": "WI", "addr:street_address": "W6782 ABBEY RD", "amenity": "post_box", "collection_times": "Mo-Sa 10:00", "nsi_id": "unitedstatespostalservice-a77078", "operator": "United States Postal Service", "operator:short": "USPS", "operator:type": "public", "operator:wikidata": "Q668687", "ref": "5465000022"}, "type": "Feature"}
{"geometry": {"coordinates": [-91.22245538, 43.886349], "type": "Point"}, "id": "wu35p7Vv9dna9a-uVSp-Ay6Zna0=", "properties": {"@source_uri": "https://tools.usps.com/UspsToolsRestServices/rest/POLocator/findLocations", "@spider": "usps_collection_boxes", "addr:city": "LACROSSE", "addr:country": "US", "addr:postcode": "54650", "addr:state": "WI", "addr:street_address": "304 11TH AVE N", "amenity": "post_box", "collection_times": "Mo-Fr 14:15; Sa 12:00", "indoor": "yes", "note": "ON 12/24 AND 12/31, THIS BOX MAY BE COLLECTED AS EARLY AS 12 NOON.", "nsi_id": "unitedstatespostalservice-a77078", "operator": "United States Postal Service", "operator:short": "USPS", "operator:type": "public", "operator:wikidata": "Q668687", "ref": "5465000025"}, "type": "Feature"}
{"geometry": {"coordinates": [-90.591595991, 43.724081445], "type": "Point"}, "id": "78Ten6ORkRNzbfVa9g4lifMybsY=", "properties": {"@source_uri": "https://tools.usps.com/UspsToolsRestServices/rest/POLocator/findLocations", "@spider": "usps_collection_boxes", "addr:city": "ONTARIO", "addr:country": "US", "addr:postcode": "54651", "addr:state": "WI", "addr:street_address": "321 MAIN ST", "amenity": "post_box", "collection_times": "Mo-Fr 13:00; Sa 09:15", "indoor": "yes", "note": "ON 12/24 AND 12/31, THIS BOX MAY BE COLLECTED AS EARLY AS 12 NOON.", "nsi_id": "unitedstatespostalservice-a77078", "operator": "United States Postal Service", "operator:short": "USPS", "operator:type": "public", "operator:wikidata": "Q668687", "ref": "5465100001"}, "type": "Feature"}
{"geometry": {"coordinates": [-90.591595991, 43.724081445], "type": "Point"}, "id": "FcrDzd09SzhPz1gMK1XTKe7lf10=", "properties": {"@source_uri": "https://tools.usps.com/UspsToolsRestServices/rest/POLocator/findLocations", "@spider": "usps_collection_boxes", "addr:city": "ONTARIO", "addr:country": "US", "addr:postcode": "54651", "addr:state": "WI", "addr:street_address": "321 MAIN ST", "amenity": "post_box", "collection_times": "Mo-Fr 13:00; Sa 09:15", "note": "ON 12/24 AND 12/31, THIS BOX MAY BE COLLECTED AS EARLY AS 12 NOON.", "nsi_id": "unitedstatespostalservice-a77078", "operator": "United States Postal Service", "operator:short": "USPS", "operator:type": "public", "operator:wikidata": "Q668687", "ref": "5465100002"}, "type": "Feature"}
{"geometry": {"coordinates": [-90.591595991, 43.724081445], "type": "Point"}, "id": "iuL9MEZ0ihn7XY8oL1L3EPG3EfA=", "properties": {"@source_uri": "https://tools.usps.com/UspsToolsRestServices/rest/POLocator/findLocations", "@spider": "usps_collection_boxes", "addr:city": "ONTARIO", "addr:country": "US", "addr:postcode": "54651", "addr:state": "WI", "addr:street_address": "321 MAIN ST", "amenity": "post_box", "collection_times": "Mo-Fr 13:00; Sa 09:00", "indoor": "yes", "note": "ON 12/24 AND 12/31, THIS BOX MAY BE COLLECTED AS EARLY AS 12 NOON.", "nsi_id": "unitedstatespostalservice-a77078", "operator": "United States Postal Service", "operator:short": "USPS", "operator:type": "public", "operator:wikidata": "Q668687", "ref": "5465100003"}, "type": "Feature"}
{"geometry": {"coordinates": [-90.759308019, 43.450040483], "type": "Point"}, "id": "AOb_H056zPeu82oKJImT9KEa64c=", "properties": {"@source_uri": "https://tools.usps.com/UspsToolsRestServices/rest/POLocator/findLocations", "@spider": "usps_collection_boxes", "addr:city": "READSTOWN", "addr:country": "US", "addr:postcode": "54652", "addr:state": "WI", "addr:street_address": "120 N 4TH ST", "amenity": "post_box", "collection_times": "Mo-Fr 12:30; Sa 09:00", "note": "ON 12/24 AND 12/31, THIS BOX MAY BE COLLECTED AS EARLY AS 12 NOON.", "nsi_id": "unitedstatespostalservice-a77078", "operator": "United States Postal Service", "operator:short": "USPS", "operator:type": "public", "operator:wikidata": "Q668687", "ref": "5465200002"}, "type": "Feature"}
{"geometry": {"coordinates": [-90.759308019, 43.450040483], "type": "Point"}, "id": "8aFq6YTeDmST3_ijdmV_fI85j34=", "properties": {"@source_uri": "https://tools.usps.com/UspsToolsRestServices/rest/POLocator/findLocations", "@spider": "usps_collection_boxes", "addr:city": "READSTOWN", "addr:country": "US", "addr:postcode": "54652", "addr:state": "WI", "addr:street_address": "120 N 4TH ST", "amenity": "post_box", "collection_times": "Mo-Fr 12:30; Sa 09:00", "indoor": "yes", "note": "ON 12/24 AND 12/31, THIS BOX MAY BE COLLECTED AS EARLY AS 12 NOON.", "nsi_id": "unitedstatespostalservice-a77078", "operator": "United States Postal Service", "operator:short": "USPS", "operator:type": "public", "operator:wikidata": "Q668687", "ref": "5465200003"}, "type": "Feature"}
{"geometry": {"coordinates": [-90.759308019, 43.450040483], "type": "Point"}, "id": "VaXsw8UGWJAedr7Ntw0aHtlWyqQ=", "properties": {"@source_uri": "https://tools.usps.com/UspsToolsRestServices/rest/POLocator/findLocations", "@spider": "usps_collection_boxes", "addr:city": "READSTOWN", "addr:country": "US", "addr:postcode": "54652", "addr:state": "WI", "addr:street_address": "120 N 4TH ST", "amenity": "post_box", "collection_times": "Mo-Fr 12:30; Sa 09:45", "indoor": "yes", "note": "ON 12/24 AND 12/31, THIS BOX MAY BE COLLECTED AS EARLY AS 12 NOON.", "nsi_id": "unitedstatespostalservice-a77078", "operator": "United States Postal Service", "operator:short": "USPS", "operator:type": "public", "operator:wikidata": "Q668687", "ref": "5465200004"}, "type": "Feature"}
{"geometry": {"coordinates": [-90.920174063, 43.904797412], "type": "Point"}, "id": "0mpoRW97UloeUoD9AKlg0pFehrI=", "properties": {"@source_uri": "https://tools.usps.com/UspsToolsRestServices/rest/POLocator/findLocations", "@spider": "usps_collection_boxes", "addr:city": "ROCKLAND", "addr:country": "US", "addr:postcode": "54653", "addr:state": "WI", "addr:street_address": "102 S COMMERCIAL ST", "amenity": "post_box", "collection_times": "Mo-Fr 13:30; Sa 10:00", "note": "ON 12/24 AND 12/31, THIS BOX MAY BE COLLECTED AS EARLY AS 12 NOON.", "nsi_id": "unitedstatespostalservice-a77078", "operator": "United States Postal Service", "operator:short": "USPS", "operator:type": "public", "operator:wikidata": "Q668687", "ref": "5465300002"}, "type": "Feature"}
{"geometry": {"coordinates": [-90.920174063, 43.904797412], "type": "Point"}, "id": "glwZft5fkC2zLC6PMfslmMyt4Mc=", "properties": {"@source_uri": "https://tools.usps.com/UspsToolsRestServices/rest/POLocator/findLocations", "@spider": "usps_collection_boxes", "addr:city": "ROCKLAND", "addr:country": "US", "addr:postcode": "54653", "addr:state": "WI", "addr:street_address": "102 S COMMERCIAL ST", "amenity": "post_box", "collection_times": "Mo-Fr 13:30; Sa 10:00", "indoor": "yes", "note": "ON 12/24 AND 12/31, THIS BOX MAY BE COLLECTED AS EARLY AS 12 NOON.", "nsi_id": "unitedstatespostalservice-a77078", "operator": "United States Postal Service", "operator:short": "USPS", "operator:type": "public", "operator:wikidata": "Q668687", "ref": "5465300003"}, "type": "Feature"}
{"geometry": {"coordinates": [-90.920174063, 43.904797412], "type": "Point"}, "id": "Liy76dB-slw8vQ8seKN17ClfKAs=", "properties": {"@source_uri": "https://tools.usps.com/UspsToolsRestServices/rest/POLocator/findLocations", "@spider": "usps_collection_boxes", "addr:city": "ROCKLAND", "addr:country": "US", "addr:postcode": "54653", "addr:state": "WI", "addr:street_address": "102 S COMMERCIAL ST", "amenity": "post_box", "collection_times": "Mo-Fr 13:45; Sa 10:00", "indoor": "yes", "note": "ON 12/24 AND 12/31, THIS BOX MAY BE COLLECTED AS EARLY AS 12 NOON.", "nsi_id": "unitedstatespostalservice-a77078", "operator": "United States Postal Service", "operator:short": "USPS", "operator:type": "public", "operator:wikidata": "Q668687", "ref": "5465300004"}, "type": "Feature"}
{"geometry": {"coordinates": [-90.957941266, 43.265355554], "type": "Point"}, "id": "iak_5BI6QaCx9_XnQQyjUWoP4b0=", "properties": {"@source_uri": "https://tools.usps.com/UspsToolsRestServices/rest/POLocator/findLocations", "@spider": "usps_collection_boxes", "addr:city": "SENECA", "addr:country": "US", "addr:postcode": "54654", "addr:state": "WI", "addr:street_address": "201 MAIN ST", "amenity": "post_box", "collection_times": "Mo-Fr 11:30; Sa 09:00", "nsi_id": "unitedstatespostalservice-a77078", "operator": "United States Postal Service", "operator:short": "USPS", "operator:type": "public", "operator:wikidata": "Q668687", "ref": "5465400001"}, "type": "Feature"}
{"geometry": {"coordinates": [-90.957941266, 43.265355554], "type": "Point"}, "id": "63A9eD4Toa07nTyBZCRimx_fOI8=", "properties": {"@source_uri": "https://tools.usps.com/UspsToolsRestServices/rest/POLocator/findLocations", "@spider": "usps_collection_boxes", "addr:city": "SENECA", "addr:country": "US", "addr:postcode": "54654", "addr:state": "WI", "addr:street_address": "201 MAIN ST", "amenity": "post_box", "collection_times": "Mo-Fr 11:30; Sa 09:00", "indoor": "yes", "nsi_id": "unitedstatespostalservice-a77078", "operator": "United States Postal Service", "operator:short": "USPS", "operator:type": "public", "operator:wikidata": "Q668687", "ref": "5465400002"}, "type": "Feature"}
{"geometry": {"coordinates": [-90.957941266, 43.265355554], "type": "Point"}, "id": "B2Fo7xfaTf4W8I6IFnKnktpycwM=", "properties": {"@source_uri": "https://tools.usps.com/UspsToolsRestServices/rest/POLocator/findLocations", "@spider": "usps_collection_boxes", "addr:city": "SENECA", "addr:country": "US", "addr:postcode": "54654", "addr:state": "WI", "addr:street_address": "201 MAIN ST", "amenity": "post_box", "collection_times": "Mo-Fr 12:00; Sa 09:15", "indoor": "yes", "nsi_id": "unitedstatespostalservice-a77078", "operator": "United States Postal Service", "operator:short": "USPS", "operator:type": "public", "operator:wikidata": "Q668687", "ref": "5465400003"}, "type": "Feature"}
{"geometry": {"coordinates": [-90.767476513, 43.388968733], "type": "Point"}, "id": "qnHZuaFC8aL8nslJjBh8Mw5l2mw=", "properties": {"@source_uri": "https://tools.usps.com/UspsToolsRestServices/rest/POLocator/findLocations", "@spider": "usps_collection_boxes", "addr:city": "SOLDIERS GROVE", "addr:country": "US", "addr:postcode": "54655", "addr:state": "WI", "addr:street_address": "101 SUNSET AVE", "amenity": "post_box", "collection_times": "Mo-Fr 12:30; Sa 11:30", "note": "ON 12/24 AND 12/31, THIS BOX MAY BE COLLECTED AS EARLY AS 12 NOON.", "nsi_id": "unitedstatespostalservice-a77078", "operator": "United States Postal Service", "operator:short": "USPS", "operator:type": "public", "operator:wikidata": "Q668687", "ref": "5465500000"}, "type": "Feature"}
{"geometry": {"coordinates": [-90.767476513, 43.388968733], "type": "Point"}, "id": "uwbVnMxUWEiFrWkA2pz2DrhtdoY=", "properties": {"@source_uri": "https://tools.usps.com/UspsToolsRestServices/rest/POLocator/findLocations", "@spider": "usps_collection_boxes", "addr:city": "SOLDIERS GROVE", "addr:country": "US", "addr:postcode": "54655", "addr:state": "WI", "addr:street_address": "101 SUNSET AVE", "amenity": "post_box", "collection_times": "Mo-Fr 12:30; Sa 11:30", "indoor": "yes", "note": "ON 12/24 AND 12/31, THIS BOX MAY BE COLLECTED AS EARLY AS 12 NOON.", "nsi_id": "unitedstatespostalservice-a77078", "operator": "United States Postal Service", "operator:short": "USPS", "operator:type": "public", "operator:wikidata": "Q668687", "ref": "5465500001"}, "type": "Feature"}
{"geometry": {"coordinates": [-90.767476513, 43.388968733], "type": "Point"}, "id": "Nd7i_urpBjWKSuQy25Jwv2mIx8Q=", "properties": {"@source_uri": "https://tools.usps.com/UspsToolsRestServices/rest/POLocator/findLocations", "@spider": "usps_collection_boxes", "addr:city": "SOLDIERS GROVE", "addr:country": "US", "addr:postcode": "54655", "addr:state": "WI", "addr:street_address": "101 SUNSET AVE", "amenity": "post_box", "collection_times": "Mo-Fr 12:30; Sa 11:45", "indoor": "yes", "note": "ON 12/24 AND 12/31, THIS BOX MAY BE COLLECTED AS EARLY AS 12 NOON.", "nsi_id": "unitedstatespostalservice-a77078", "operator": "United States Postal Service", "operator:short": "USPS", "operator:type": "public", "operator:wikidata": "Q668687", "ref": "5465500002"}, "type": "Feature"}
{"geometry": {"coordinates": [-90.820795314, 43.946712754], "type": "Point"}, "id": "wjc7LeoFRphk_OYA16kIdEnEzKs=", "properties": {"@source_uri": "https://tools.usps.com/UspsToolsRestServices/rest/POLocator/findLocations", "@spider": "usps_collection_boxes", "addr:city": "SPARTA", "addr:country": "US", "addr:postcode": "54656", "addr:state": "WI", "addr:street_address": "229 N BLACK RIVER ST", "amenity": "post_box", "collection_times": "Mo-Sa 10:15", "nsi_id": "unitedstatespostalservice-a77078", "operator": "United States Postal Service", "operator:short": "USPS", "operator:type": "public", "operator:wikidata": "Q668687", "ref": "5465600004"}, "type": "Feature"}
{"geometry": {"coordinates": [-90.812672277, 43.943366517], "type": "Point"}, "id": "pnJsbAHYECC7tic7dziprB60-PQ=", "properties": {"@source_uri": "https://tools.usps.com/UspsToolsRestServices/rest/POLocator/findLocations", "@spider": "usps_collection_boxes", "addr:city": "SPARTA", "addr:country": "US", "addr:postcode": "54656", "addr:state": "WI", "addr:street_address": "201 W OAK ST", "amenity": "post_box", "collection_times": "Mo-Sa 12:00", "nsi_id": "unitedstatespostalservice-a77078", "operator": "United States Postal Service", "operator:short": "USPS", "operator:type": "public", "operator:wikidata": "Q668687", "ref": "5465600012"}, "type": "Feature"}
{"geometry": {"coordinates": [-90.8131725, 43.939144486], "type": "Point"}, "id": "zXyJYc_xtvmD0RsqKJ6lSavqBSg=", "properties": {"@source_uri": "https://tools.usps.com/UspsToolsRestServices/rest/POLocator/findLocations", "@spider": "usps_collection_boxes", "addr:city": "SPARTA", "addr:country": "US", "addr:postcode": "54656", "addr:state": "WI", "addr:street_address": "218 W WISCONSIN ST", "amenity": "post_box", "collection_times": "Mo-Sa 10:30", "nsi_id": "unitedstatespostalservice-a77078", "operator": "United States Postal Service", "operator:short": "USPS", "operator:type": "public", "operator:wikidata": "Q668687", "ref": "5465600015"}, "type": "Feature"}
{"geometry": {"coordinates": [-90.811253601, 43.944330927], "type": "Point"}, "id": "0a9SiveM0sjesDBZ98wmE5FAgMc=", "properties": {"@source_uri": "https://tools.usps.com/UspsToolsRestServices/rest/POLocator/findLocations", "@spider": "usps_collection_boxes", "addr:city": "SPARTA", "addr:country": "US", "addr:postcode": "54656", "addr:state": "WI", "addr:street_address": "123 W MAIN ST", "amenity": "post_box", "collection_times": "Mo-Sa 13:30", "note": "ON 12/24 AND 12/31, THIS BOX MAY BE COLLECTED AS EARLY AS 12 NOON.", "nsi_id": "unitedstatespostalservice-a77078", "operator": "United States Postal Service", "operator:short": "USPS", "operator:type": "public", "operator:wikidata": "Q668687", "ref": "5465600017"}, "type": "Feature"}
{"geometry": {"coordinates": [-90.82060915, 43.934840717], "type": "Point"}, "id": "WL_LrIY8x8rCL56N1PydgpkF5qE=", "properties": {"@source_uri": "https://tools.usps.com/UspsToolsRestServices/rest/POLocator/findLocations", "@spider": "usps_collection_boxes", "addr:city": "SPARTA", "addr:country": "US", "addr:postcode": "54656", "addr:state": "WI", "addr:street_address": "918 S BLACK RIVER ST", "amenity": "post_box", "collection_times": "Mo-Sa 12:00", "nsi_id": "unitedstatespostalservice-a77078", "operator": "United States Postal Service", "operator:short": "USPS", "operator:type": "public", "operator:wikidata": "Q668687", "ref": "5465600018"}, "type": "Feature"}
{"geometry": {"coordinates": [-90.822531693, 43.939159476], "type": "Point"}, "id": "yVY-ucd0FjRAHTLJDJIpcuK3qfU=", "properties": {"@source_uri": "https://tools.usps.com/UspsToolsRestServices/rest/POLocator/findLocations", "@spider": "usps_collection_boxes", "addr:city": "SPARTA", "addr:country": "US", "addr:postcode": "54656", "addr:state": "WI", "addr:street_address": "834 W WISCONSIN ST", "amenity": "post_box", "collection_times": "Mo-Sa 12:00", "nsi_id": "unitedstatespostalservice-a77078", "operator": "United States Postal Service", "operator:short": "USPS", "operator:type": "public", "operator:wikidata": "Q668687", "ref": "5465600019"}, "type": "Feature"}
{"geometry": {"coordinates": [-90.811253601, 43.944330927], "type": "Point"}, "id": "q0zSL51rUNL_pedfNTObm7PJJfY=", "properties": {"@source_uri": "https://tools.usps.com/UspsToolsRestServices/rest/POLocator/findLocations", "@spider": "usps_collection_boxes", "addr:city": "SPARTA", "addr:country": "US", "addr:postcode": "54656", "addr:state": "WI", "addr:street_address": "123 W MAIN ST", "amenity": "post_box", "collection_times": "Mo-Sa 13:30", "indoor": "yes", "note": "ON 12/24 AND 12/31, THIS BOX MAY BE COLLECTED AS EARLY AS 12 NOON.", "nsi_id": "unitedstatespostalservice-a77078", "operator": "United States Postal Service", "operator:short": "USPS", "operator:type": "public", "operator:wikidata": "Q668687", "ref": "5465600023"}, "type": "Feature"}
{"geometry": {"coordinates": [-90.832054229, 43.938971337], "type": "Point"}, "id": "carPWMw9VS4GIn0Fl8O6cXrEh0Q=", "properties": {"@source_uri": "https://tools.usps.com/UspsToolsRestServices/rest/POLocator/findLocations", "@spider": "usps_collection_boxes", "addr:city": "SPARTA", "addr:country": "US", "addr:postcode": "54656", "addr:state": "WI", "addr:street_address": "1600 W WISCONSIN ST", "amenity": "post_box", "collection_times": "Mo-Sa 10:00", "nsi_id": "unitedstatespostalservice-a77078", "operator": "United States Postal Service", "operator:short": "USPS", "operator:type": "public", "operator:wikidata": "Q668687", "ref": "5465600024"}, "type": "Feature"}
{"geometry": {"coordinates": [-90.840959233, 44.087229], "type": "Point"}, "id": "iQdDMGyJLqT_m5wVGvplBLJz9ik=", "properties": {"@source_uri": "https://tools.usps.com/UspsToolsRestServices/rest/POLocator/findLocations", "@spider": "usps_collection_boxes", "addr:city": "SPARTA", "addr:country": "US", "addr:postcode": "54656", "addr:state": "WI", "addr:street_address": "5897 STATE HIGHWAY 27", "amenity": "post_box", "collection_times": "Mo-Sa 10:15", "nsi_id": "unitedstatespostalservice-a77078", "operator": "United States Postal Service", "operator:short": "USPS", "operator:type": "public", "operator:wikidata": "Q668687", "ref": "5465600025"}, "type": "Feature"}
{"geometry": {"coordinates": [-90.811253601, 43.944330927], "type": "Point"}, "id": "Iu34f7miKe0hG9HJ4sNqILrjvRg=", "properties": {"@source_uri": "https://tools.usps.com/UspsToolsRestServices/rest/POLocator/findLocations", "@spider": "usps_collection_boxes", "addr:city": "SPARTA", "addr:country": "US", "addr:postcode": "54656", "addr:state": "WI", "addr:street_address": "123 W MAIN ST", "amenity": "post_box", "collection_times": "Mo-Sa 13:30", "note": "ON 12/24 AND 12/31, THIS BOX MAY BE COLLECTED AS EARLY AS 12 NOON.", "nsi_id": "unitedstatespostalservice-a77078", "operator": "United States Postal Service", "operator:short": "USPS", "operator:type": "public", "operator:wikidata": "Q668687", "ref": "5465600027"}, "type": "Feature"}
{"geometry": {"coordinates": [-90.811253601, 43.944330927], "type": "Point"}, "id": "Mhp_roAZiIfdgwGHo6LWGcttAGw=", "properties": {"@source_uri": "https://tools.usps.com/UspsToolsRestServices/rest/POLocator/findLocations", "@spider": "usps_collection_boxes", "addr:city": "SPARTA", "addr:country": "US", "addr:postcode": "54656", "addr:state": "WI", "addr:street_address": "123 W MAIN ST", "amenity": "post_box", "collection_times": "Mo-Fr 13:30; Sa 12:00", "indoor": "yes", "note": "ON 12/24 AND 12/31, THIS BOX MAY BE COLLECTED AS EARLY AS 12 NOON.", "nsi_id": "unitedstatespostalservice-a77078", "operator": "United States Postal Service", "operator:short": "USPS", "operator:type": "public", "operator:wikidata": "Q668687", "ref": "5465600030"}, "type": "Feature"}
{"geometry": {"coordinates": [-91.219029945, 43.662671413], "type": "Point"}, "id": "DU-KYghUfVBn3TTlGMassHrEUyM=", "properties": {"@source_uri": "https://tools.usps.com/UspsToolsRestServices/rest/POLocator/findLocations", "@spider": "usps_collection_boxes", "addr:city": "STODDARD", "addr:country": "US", "addr:postcode": "54658", "addr:state": "WI", "addr:street_address": "115 N MAIN ST", "amenity": "post_box", "collection_times": "Mo-Fr 13:45; Sa 09:00", "indoor": "yes", "note": "ON 12/24 AND 12/31, THIS BOX MAY BE COLLECTED AS EARLY AS 12 NOON.", "nsi_id": "unitedstatespostalservice-a77078", "operator": "United States Postal Service", "operator:short": "USPS", "operator:type": "public", "operator:wikidata": "Q668687", "ref": "5465800001"}, "type": "Feature"}
{"geometry": {"coordinates": [-91.219029945, 43.662671413], "type": "Point"}, "id": "_1VmJVL0WlfNKeltK_EfJn-5iDo=", "properties": {"@source_uri": "https://tools.usps.com/UspsToolsRestServices/rest/POLocator/findLocations", "@spider": "usps_collection_boxes", "addr:city": "STODDARD", "addr:country": "US", "addr:postcode": "54658", "addr:state": "WI", "addr:street_address": "115 N MAIN ST", "amenity": "post_box", "collection_times": "Mo-Fr 14:00; Sa 10:00", "indoor": "yes", "note": "ON 12/24 AND 12/31, THIS BOX MAY BE COLLECTED AS EARLY AS 12 NOON.", "nsi_id": "unitedstatespostalservice-a77078", "operator": "United States Postal Service", "operator:short": "USPS", "operator:type": "public", "operator:wikidata": "Q668687", "ref": "5465800002"}, "type": "Feature"}
{"geometry": {"coordinates": [-91.124172671, 44.321721496], "type": "Point"}, "id": "2kJhoLGYpQECKfncBZCm_BLNPbo=", "properties": {"@source_uri": "https://tools.usps.com/UspsToolsRestServices/rest/POLocator/findLocations", "@spider": "usps_collection_boxes", "addr:city": "TAYLOR", "addr:country": "US", "addr:postcode": "54659", "addr:state": "WI", "addr:street_address": "110 2ND ST", "amenity": "post_box", "collection_times": "Mo-Fr 11:45; Sa 09:30", "nsi_id": "unitedstatespostalservice-a77078", "operator": "United States Postal Service", "operator:short": "USPS", "operator:type": "public", "operator:wikidata": "Q668687", "ref": "5465900001"}, "type": "Feature"}
{"geometry": {"coordinates": [-91.124172671, 44.321721496], "type": "Point"}, "id": "eCxHrtiykYorwzsO-Abg76-8-TU=", "properties": {"@source_uri": "https://tools.usps.com/UspsToolsRestServices/rest/POLocator/findLocations", "@spider": "usps_collection_boxes", "addr:city": "TAYLOR", "addr:country": "US", "addr:postcode": "54659", "addr:state": "WI", "addr:street_address": "110 2ND ST", "amenity": "post_box", "collection_times": "Mo-Fr 11:45; Sa 09:30", "indoor": "yes", "nsi_id": "unitedstatespostalservice-a77078", "operator": "United States Postal Service", "operator:short": "USPS", "operator:type": "public", "operator:wikidata": "Q668687", "ref": "5465900002"}, "type": "Feature"}
{"geometry": {"coordinates": [-91.124172671, 44.321721496], "type": "Point"}, "id": "gFL26JEFBwIxOjK-MpzXAN9pKiA=", "properties": {"@source_uri": "https://tools.usps.com/UspsToolsRestServices/rest/POLocator/findLocations", "@spider": "usps_collection_boxes", "addr:city": "TAYLOR", "addr:country": "US", "addr:postcode": "54659", "addr:state": "WI", "addr:street_address": "110 2ND ST", "amenity": "post_box", "collection_times": "Mo-Fr 11:30; Sa 09:45", "indoor": "yes", "nsi_id": "unitedstatespostalservice-a77078", "operator": "United States Postal Service", "operator:short": "USPS", "operator:type": "public", "operator:wikidata": "Q668687", "ref": "5465900003"}, "type": "Feature"}
{"geometry": {"coordinates": [-90.496465585, 43.972136551], "type": "Point"}, "id": "xaGSbD5tcHxhX2dff1fmhNZML5o=", "properties": {"@source_uri": "https://tools.usps.com/UspsToolsRestServices/rest/POLocator/findLocations", "@spider": "usps_collection_boxes", "addr:city": "TOMAH", "addr:country": "US", "addr:postcode": "54660", "addr:state": "WI", "addr:street_address": "701 E CLIFTON ST", "amenity": "post_box", "collection_times": "Mo-Sa 09:30", "nsi_id": "unitedstatespostalservice-a77078", "operator": "United States Postal Service", "operator:short": "USPS", "operator:type": "public", "operator:wikidata": "Q668687", "ref": "5466000004"}, "type": "Feature"}
{"geometry": {"coordinates": [-90.503278153, 43.972407], "type": "Point"}, "id": "uQsHA56RDok2UOwpgJpvjuT8P18=", "properties": {"@source_uri": "https://tools.usps.com/UspsToolsRestServices/rest/POLocator/findLocations", "@spider": "usps_collection_boxes", "addr:city": "TOMAH", "addr:country": "US", "addr:postcode": "54660", "addr:state": "WI", "addr:street_address": "1515 KILBOURN AVE", "amenity": "post_box", "collection_times": "Mo-Sa 10:30", "nsi_id": "unitedstatespostalservice-a77078", "operator": "United States Postal Service", "operator:short": "USPS", "operator:type": "public", "operator:wikidata": "Q668687", "ref": "5466000005"}, "type": "Feature"}
{"geometry": {"coordinates": [-90.504615296, 43.989534], "type": "Point"}, "id": "VsgjDWwk674P0p5VEYkrAUmb6Z4=", "properties": {"@source_uri": "https://tools.usps.com/UspsToolsRestServices/rest/POLocator/findLocations", "@spider": "usps_collection_boxes", "addr:city": "TOMAH", "addr:country": "US", "addr:postcode": "54660", "addr:state": "WI", "addr:street_address": "229 N SUPERIOR AVE", "amenity": "post_box", "collection_times": "Mo-Sa 10:45", "nsi_id": "unitedstatespostalservice-a77078", "operator": "United States Postal Service", "operator:short": "USPS", "operator:type": "public", "operator:wikidata": "Q668687", "ref": "5466000010"}, "type": "Feature"}
{"geometry": {"coordinates": [-90.489431154, 43.984782754], "type": "Point"}, "id": "fY7Hg5dZaZDS0OE5_NyGKGPIwsI=", "properties": {"@source_uri": "https://tools.usps.com/UspsToolsRestServices/rest/POLocator/findLocations", "@spider": "usps_collection_boxes", "addr:city": "TOMAH", "addr:country": "US", "addr:postcode": "54660", "addr:state": "WI", "addr:street_address": "213 SIME AVE", "amenity": "post_box", "collection_times": "Mo-Sa 13:00", "note": "ON 12/24 AND 12/31, THIS BOX MAY BE COLLECTED AS EARLY AS 12 NOON.", "nsi_id": "unitedstatespostalservice-a77078", "operator": "United States Postal Service", "operator:short": "USPS", "operator:type": "public", "operator:wikidata": "Q668687", "ref": "5466000019"}, "type": "Feature"}
{"geometry": {"coordinates": [-90.505038338, 43.998627338], "type": "Point"}, "id": "vq1cESh3OmABXKgkZIjXi_XyY7I=", "properties": {"@source_uri": "https://tools.usps.com/UspsToolsRestServices/rest/POLocator/findLocations", "@spider": "usps_collection_boxes", "addr:city": "TOMAH", "addr:country": "US", "addr:postcode": "54660", "addr:state": "WI", "addr:street_address": "1000 N SUPERIOR AVE", "amenity": "post_box", "collection_times": "Mo-Sa 13:30", "indoor": "yes", "note": "ON 12/24 AND 12/31, THIS BOX MAY BE COLLECTED AS EARLY AS 12 NOON.", "nsi_id": "unitedstatespostalservice-a77078", "operator": "United States Postal Service", "operator:short": "USPS", "operator:type": "public", "operator:wikidata": "Q668687", "ref": "5466000021"}, "type": "Feature"}
{"geometry": {"coordinates": [-90.505038338, 43.998627338], "type": "Point"}, "id": "t6lzx5-ng5r41JIHaX8qpF-OAec=", "properties": {"@source_uri": "https://tools.usps.com/UspsToolsRestServices/rest/POLocator/findLocations", "@spider": "usps_collection_boxes", "addr:city": "TOMAH", "addr:country": "US", "addr:postcode": "54660", "addr:state": "WI", "addr:street_address": "1000 N SUPERIOR AVE", "amenity": "post_box", "collection_times": "Mo-Sa 13:30", "note": "ON 12/24 AND 12/31, THIS BOX MAY BE COLLECTED AS EARLY AS 12 NOON.", "nsi_id": "unitedstatespostalservice-a77078", "operator": "United States Postal Service", "operator:short": "USPS", "operator:type": "public", "operator:wikidata": "Q668687", "ref": "5466000023"}, "type": "Feature"}
{"geometry": {"coordinates": [-90.508965621, 44.018057977], "type": "Point"}, "id": "5gBx_CGrXFKeplycZpr38Alw0yA=", "properties": {"@source_uri": "https://tools.usps.com/UspsToolsRestServices/rest/POLocator/findLocations", "@spider": "usps_collection_boxes", "addr:city": "TOMAH", "addr:country": "US", "addr:postcode": "54660", "addr:state": "WI", "addr:street_address": "222 W MC COY BLVD", "amenity": "post_box", "collection_times": "Mo-Sa 10:15", "nsi_id": "unitedstatespostalservice-a77078", "operator": "United States Postal Service", "operator:short": "USPS", "operator:type": "public", "operator:wikidata": "Q668687", "ref": "5466000025"}, "type": "Feature"}
{"geometry": {"coordinates": [-90.505046381, 43.977718597], "type": "Point"}, "id": "SUOwvukEuEy9QdrX3Bp6_kj6aU4=", "properties": {"@source_uri": "https://tools.usps.com/UspsToolsRestServices/rest/POLocator/findLocations", "@spider": "usps_collection_boxes", "addr:city": "TOMAH", "addr:country": "US", "addr:postcode": "54660", "addr:state": "WI", "addr:street_address": "104 W MILWAUKEE ST", "amenity": "post_box", "collection_times": "Mo-Sa 13:00", "note": "ON 12/24 AND 12/31, THIS BOX MAY BE COLLECTED AS EARLY AS 12 NOON.", "nsi_id": "unitedstatespostalservice-a77078", "operator": "United States Postal Service", "operator:short": "USPS", "operator:type": "public", "operator:wikidata": "Q668687", "ref": "5466000027"}, "type": "Feature"}
{"geometry": {"coordinates": [-90.505038338, 43.998627338], "type": "Point"}, "id": "ODjv0n9PPmbGvlvJHxtQ09LgGJM=", "properties": {"@source_uri": "https://tools.usps.com/UspsToolsRestServices/rest/POLocator/findLocations", "@spider": "usps_collection_boxes", "addr:city": "TOMAH", "addr:country": "US", "addr:postcode": "54660", "addr:state": "WI", "addr:street_address": "1000 N SUPERIOR AVE", "amenity": "post_box", "collection_times": "Mo-Sa 13:30", "note": "ON 12/24 AND 12/31, THIS BOX MAY BE COLLECTED AS EARLY AS 12 NOON.", "nsi_id": "unitedstatespostalservice-a77078", "operator": "United States Postal Service", "operator:short": "USPS", "operator:type": "public", "operator:wikidata": "Q668687", "ref": "5466000028"}, "type": "Feature"}
{"geometry": {"coordinates": [-90.505038338, 43.998627338], "type": "Point"}, "id": "bN5FMfkcKUmBYtuPZGoceD3gUlw=", "properties": {"@source_uri": "https://tools.usps.com/UspsToolsRestServices/rest/POLocator/findLocations", "@spider": "usps_collection_boxes", "addr:city": "TOMAH", "addr:country": "US", "addr:postcode": "54660", "addr:state": "WI", "addr:street_address": "1000 N SUPERIOR AVE", "amenity": "post_box", "collection_times": "Mo-Fr 13:30; Sa 11:00", "indoor": "yes", "note": "ON 12/24 AND 12/31, THIS BOX MAY BE COLLECTED AS EARLY AS 12 NOON.", "nsi_id": "unitedstatespostalservice-a77078", "operator": "United States Postal Service", "operator:short": "USPS", "operator:type": "public", "operator:wikidata": "Q668687", "ref": "5466000030"}, "type": "Feature"}
{"geometry": {"coordinates": [-91.441939629, 44.005989162], "type": "Point"}, "id": "cMj3Pt2W_4Set9nzHC-T_m_AHoQ=", "properties": {"@source_uri": "https://tools.usps.com/UspsToolsRestServices/rest/POLocator/findLocations", "@spider": "usps_collection_boxes", "addr:city": "TREMPEALEAU", "addr:country": "US", "addr:postcode": "54661", "addr:state": "WI", "addr:street_address": "11421 MAIN ST", "amenity": "post_box", "collection_times": "Mo-Fr 14:00; Sa 10:30", "note": "ON 12/24 AND 12/31, THIS BOX MAY BE COLLECTED AS EARLY AS 12 NOON.", "nsi_id": "unitedstatespostalservice-a77078", "operator": "United States Postal Service", "operator:short": "USPS", "operator:type": "public", "operator:wikidata": "Q668687", "ref": "5466100001"}, "type": "Feature"}
{"geometry": {"coordinates": [-91.441939629, 44.005989162], "type": "Point"}, "id": "px1nTyRDCD-vq_KGS57Prlu7WLI=", "properties": {"@source_uri": "https://tools.usps.com/UspsToolsRestServices/rest/POLocator/findLocations", "@spider": "usps_collection_boxes", "addr:city": "TREMPEALEAU", "addr:country": "US", "addr:postcode": "54661", "addr:state": "WI", "addr:street_address": "11421 MAIN ST", "amenity": "post_box", "collection_times": "Mo-Fr 14:00; Sa 10:30", "indoor": "yes", "note": "ON 12/24 AND 12/31, THIS BOX MAY BE COLLECTED AS EARLY AS 12 NOON.", "nsi_id": "unitedstatespostalservice-a77078", "operator": "United States Postal Service", "operator:short": "USPS", "operator:type": "public", "operator:wikidata": "Q668687", "ref": "5466100002"}, "type": "Feature"}
{"geometry": {"coordinates": [-91.441939629, 44.005989162], "type": "Point"}, "id": "EjY2glAnl_o2WBi1oJrsg1h_5d8=", "properties": {"@source_uri": "https://tools.usps.com/UspsToolsRestServices/rest/POLocator/findLocations", "@spider": "usps_collection_boxes", "addr:city": "TREMPEALEAU", "addr:country": "US", "addr:postcode": "54661", "addr:state": "WI", "addr:street_address": "11421 MAIN ST", "amenity": "post_box", "collection_times": "Mo-Fr 14:00; Sa 10:30", "indoor": "yes", "note": "ON 12/24 AND 12/31, THIS BOX MAY BE COLLECTED AS EARLY AS 12 NOON.", "nsi_id": "unitedstatespostalservice-a77078", "operator": "United States Postal Service", "operator:short": "USPS", "operator:type": "public", "operator:wikidata": "Q668687", "ref": "5466100003"}, "type": "Feature"}
{"geometry": {"coordinates": [-90.565232605, 44.005641549], "type": "Point"}, "id": "qCD9F5Vr8DUOrc7MGJ3rwjvYj2U=", "properties": {"@source_uri": "https://tools.usps.com/UspsToolsRestServices/rest/POLocator/findLocations", "@spider": "usps_collection_boxes", "addr:city": "TUNNEL CITY", "addr:country": "US", "addr:postcode": "54662", "addr:state": "WI", "addr:street_address": "21447 FLAGSHIP AVE", "amenity": "post_box", "collection_times": "Mo-Sa 10:00", "nsi_id": "unitedstatespostalservice-a77078", "operator": "United States Postal Service", "operator:short": "USPS", "operator:type": "public", "operator:wikidata": "Q668687", "ref": "5466200000"}, "type": "Feature"}
{"geometry": {"coordinates": [-90.565232605, 44.005641549], "type": "Point"}, "id": "u1138mYjEnWDVzco0gLXTfV-NZY=", "properties": {"@source_uri": "https://tools.usps.com/UspsToolsRestServices/rest/POLocator/findLocations", "@spider": "usps_collection_boxes", "addr:city": "TUNNEL CITY", "addr:country": "US", "addr:postcode": "54662", "addr:state": "WI", "addr:street_address": "21447 FLAGSHIP AVE", "amenity": "post_box", "collection_times": "Mo-Sa 10:00", "indoor": "yes", "nsi_id": "unitedstatespostalservice-a77078", "operator": "United States Postal Service", "operator:short": "USPS", "operator:type": "public", "operator:wikidata": "Q668687", "ref": "5466200001"}, "type": "Feature"}
{"geometry": {"coordinates": [-90.565232605, 44.005641549], "type": "Point"}, "id": "gVUNF0GkSLzJ5r3RtQfczS1i-4M=", "properties": {"@source_uri": "https://tools.usps.com/UspsToolsRestServices/rest/POLocator/findLocations", "@spider": "usps_collection_boxes", "addr:city": "TUNNEL CITY", "addr:country": "US", "addr:postcode": "54662", "addr:state": "WI", "addr:street_address": "21447 FLAGSHIP AVE", "amenity": "post_box", "collection_times": "Mo-Sa 10:00", "indoor": "yes", "nsi_id": "unitedstatespostalservice-a77078", "operator": "United States Postal Service", "operator:short": "USPS", "operator:type": "public", "operator:wikidata": "Q668687", "ref": "5466200002"}, "type": "Feature"}
{"geometry": {"coordinates": [-90.669501555, 43.506071488], "type": "Point"}, "id": "TDIRp-6AD5WrfxuYYDOox0OnXLI=", "properties": {"@source_uri": "https://tools.usps.com/UspsToolsRestServices/rest/POLocator/findLocations", "@spider": "usps_collection_boxes", "addr:city": "VIOLA", "addr:country": "US", "addr:postcode": "54664", "addr:state": "WI", "addr:street_address": "117 W COMMERCIAL ST", "amenity": "post_box", "collection_times": "Mo-Fr 12:30; Sa 10:00", "note": "ON 12/24 AND 12/31, THIS BOX MAY BE COLLECTED AS EARLY AS 12 NOON.", "nsi_id": "unitedstatespostalservice-a77078", "operator": "United States Postal Service", "operator:short": "USPS", "operator:type": "public", "operator:wikidata": "Q668687", "ref": "5466400000"}, "type": "Feature"}
{"geometry": {"coordinates": [-90.669501555, 43.506071488], "type": "Point"}, "id": "OaV-liwEixmWq6FMyRO1WRlCTwk=", "properties": {"@source_uri": "https://tools.usps.com/UspsToolsRestServices/rest/POLocator/findLocations", "@spider": "usps_collection_boxes", "addr:city": "VIOLA", "addr:country": "US", "addr:postcode": "54664", "addr:state": "WI", "addr:street_address": "117 W COMMERCIAL ST", "amenity": "post_box", "collection_times": "Mo-Fr 12:30; Sa 10:00", "indoor": "yes", "note": "ON 12/24 AND 12/31, THIS BOX MAY BE COLLECTED AS EARLY AS 12 NOON.", "nsi_id": "unitedstatespostalservice-a77078", "operator": "United States Postal Service", "operator:short": "USPS", "operator:type": "public", "operator:wikidata": "Q668687", "ref": "5466400001"}, "type": "Feature"}
{"geometry": {"coordinates": [-90.669501555, 43.506071488], "type": "Point"}, "id": "atTyAC1wYo7yB1PvFjw35b3bpPc=", "properties": {"@source_uri": "https://tools.usps.com/UspsToolsRestServices/rest/POLocator/findLocations", "@spider": "usps_collection_boxes", "addr:city": "VIOLA", "addr:country": "US", "addr:postcode": "54664", "addr:state": "WI", "addr:street_address": "117 W COMMERCIAL ST", "amenity": "post_box", "collection_times": "Mo-Fr 12:30; Sa 10:00", "indoor": "yes", "note": "ON 12/24 AND 12/31, THIS BOX MAY BE COLLECTED AS EARLY AS 12 NOON.", "nsi_id": "unitedstatespostalservice-a77078", "operator": "United States Postal Service", "operator:short": "USPS", "operator:type": "public", "operator:wikidata": "Q668687", "ref": "5466400002"}, "type": "Feature"}
{"geometry": {"coordinates": [-90.889101304, 43.555307543], "type": "Point"}, "id": "0FrTVZo1j8Q6x2e2UN6i9Ze5om8=", "properties": {"@source_uri": "https://tools.usps.com/UspsToolsRestServices/rest/POLocator/findLocations", "@spider": "usps_collection_boxes", "addr:city": "VIROQUA", "addr:country": "US", "addr:postcode": "54665", "addr:state": "WI", "addr:street_address": "119 E JEFFERSON ST", "amenity": "post_box", "collection_times": "Mo-Fr 13:00; Sa 11:45", "note": "ON 12/24 AND 12/31, THIS BOX MAY BE COLLECTED AS EARLY AS 12 NOON.", "nsi_id": "unitedstatespostalservice-a77078", "operator": "United States Postal Service", "operator:short": "USPS", "operator:type": "public", "operator:wikidata": "Q668687", "ref": "5466500001"}, "type": "Feature"}
{"geometry": {"coordinates": [-90.888904518, 43.55148667], "type": "Point"}, "id": "yewQRI8YPfN5xmEq30nVBDFFLEk=", "properties": {"@source_uri": "https://tools.usps.com/UspsToolsRestServices/rest/POLocator/findLocations", "@spider": "usps_collection_boxes", "addr:city": "VIROQUA", "addr:country": "US", "addr:postcode": "54665", "addr:state": "WI", "addr:street_address": "507 S MAIN ST", "amenity": "post_box", "collection_times": "Mo-Sa 12:00", "nsi_id": "unitedstatespostalservice-a77078", "operator": "United States Postal Service", "operator:short": "USPS", "operator:type": "public", "operator:wikidata": "Q668687", "ref": "5466500004"}, "type": "Feature"}
{"geometry": {"coordinates": [-90.88935, 43.557215], "type": "Point"}, "id": "93VSQrq0oKTg_Gbjkl2r3y2eA_s=", "properties": {"@source_uri": "https://tools.usps.com/UspsToolsRestServices/rest/POLocator/findLocations", "@spider": "usps_collection_boxes", "addr:city": "VIROQUA", "addr:country": "US", "addr:postcode": "54665", "addr:state": "WI", "addr:street_address": "124 W DECKER ST", "amenity": "post_box", "collection_times": "Mo-Sa 12:00", "nsi_id": "unitedstatespostalservice-a77078", "operator": "United States Postal Service", "operator:short": "USPS", "operator:type": "public", "operator:wikidata": "Q668687", "ref": "5466500006"}, "type": "Feature"}
{"geometry": {"coordinates": [-90.892884122, 43.557180061], "type": "Point"}, "id": "9YkgDQddE0HW6PUzLeZ2ldA_UyY=", "properties": {"@source_uri": "https://tools.usps.com/UspsToolsRestServices/rest/POLocator/findLocations", "@spider": "usps_collection_boxes", "addr:city": "VIROQUA", "addr:country": "US", "addr:postcode": "54665", "addr:state": "WI", "addr:street_address": "400 W DECKER ST", "amenity": "post_box", "collection_times": "Mo-Fr 12:00", "nsi_id": "unitedstatespostalservice-a77078", "operator": "United States Postal Service", "operator:short": "USPS", "operator:type": "public", "operator:wikidata": "Q668687", "ref": "5466500007"}, "type": "Feature"}
{"geometry": {"coordinates": [-90.889018843, 43.574230352], "type": "Point"}, "id": "9TXI_snSXr9Zfyu7qxmihxi9mwk=", "properties": {"@source_uri": "https://tools.usps.com/UspsToolsRestServices/rest/POLocator/findLocations", "@spider": "usps_collection_boxes", "addr:city": "VIROQUA", "addr:country": "US", "addr:postcode": "54665", "addr:state": "WI", "addr:street_address": "1230 N MAIN ST", "amenity": "post_box", "collection_times": "Mo-Sa 12:00", "nsi_id": "unitedstatespostalservice-a77078", "operator": "United States Postal Service", "operator:short": "USPS", "operator:type": "public", "operator:wikidata": "Q668687", "ref": "5466500011"}, "type": "Feature"}
{"geometry": {"coordinates": [-90.889101304, 43.555307543], "type": "Point"}, "id": "QIFY0J82qKCYkxH8mWArqeMPJgU=", "properties": {"@source_uri": "https://tools.usps.com/UspsToolsRestServices/rest/POLocator/findLocations", "@spider": "usps_collection_boxes", "addr:city": "VIROQUA", "addr:country": "US", "addr:postcode": "54665", "addr:state": "WI", "addr:street_address": "119 E JEFFERSON ST", "amenity": "post_box", "collection_times": "Mo-Fr 13:00; Sa 11:45", "indoor": "yes", "note": "ON 12/24 AND 12/31, THIS BOX MAY BE COLLECTED AS EARLY AS 12 NOON.", "nsi_id": "unitedstatespostalservice-a77078", "operator": "United States Postal Service", "operator:short": "USPS", "operator:type": "public", "operator:wikidata": "Q668687", "ref": "5466500014"}, "type": "Feature"}
{"geometry": {"coordinates": [-90.88940856, 43.560203343], "type": "Point"}, "id": "R3O2fnlKBGPIvE_xIaabOnWV-HQ=", "properties": {"@source_uri": "https://tools.usps.com/UspsToolsRestServices/rest/POLocator/findLocations", "@spider": "usps_collection_boxes", "addr:city": "VIROQUA", "addr:country": "US", "addr:postcode": "54665", "addr:state": "WI", "addr:street_address": "520 N MAIN ST", "amenity": "post_box", "collection_times": "Mo-Sa 12:00", "nsi_id": "unitedstatespostalservice-a77078", "operator": "United States Postal Service", "operator:short": "USPS", "operator:type": "public", "operator:wikidata": "Q668687", "ref": "5466500015"}, "type": "Feature"}
{"geometry": {"coordinates": [-90.889101304, 43.555307543], "type": "Point"}, "id": "rzeQl3AybcB5uZLZ0kFXth_cEqg=", "properties": {"@source_uri": "https://tools.usps.com/UspsToolsRestServices/rest/POLocator/findLocations", "@spider": "usps_collection_boxes", "addr:city": "VIROQUA", "addr:country": "US", "addr:postcode": "54665", "addr:state": "WI", "addr:street_address": "119 E JEFFERSON ST", "amenity": "post_box", "collection_times": "Mo-Fr 13:00; Sa 10:00", "indoor": "yes", "note": "ON 12/24 AND 12/31, THIS BOX MAY BE COLLECTED AS EARLY AS 12 NOON.", "nsi_id": "unitedstatespostalservice-a77078", "operator": "United States Postal Service", "operator:short": "USPS", "operator:type": "public", "operator:wikidata": "Q668687", "ref": "5466500017"}, "type": "Feature"}
{"geometry": {"coordinates": [-90.499882727, 44.129917257], "type": "Point"}, "id": "j8scmQtBt8JbLpQApRXqOM7shlg=", "properties": {"@source_uri": "https://tools.usps.com/UspsToolsRestServices/rest/POLocator/findLocations", "@spider": "usps_collection_boxes", "addr:city": "WARRENS", "addr:country": "US", "addr:postcode": "54666", "addr:state": "WI", "addr:street_address": "302 MAIN ST", "amenity": "post_box", "collection_times": "Mo-Fr 12:45; Sa 09:00", "note": "ON 12/24 AND 12/31, THIS BOX MAY BE COLLECTED AS EARLY AS 12 NOON.", "nsi_id": "unitedstatespostalservice-a77078", "operator": "United States Postal Service", "operator:short": "USPS", "operator:type": "public", "operator:wikidata": "Q668687", "ref": "5466600001"}, "type": "Feature"}
{"geometry": {"coordinates": [-90.499882727, 44.129917257], "type": "Point"}, "id": "7Ji4HECkHfbwABvR45otZ8LRpjg=", "properties": {"@source_uri": "https://tools.usps.com/UspsToolsRestServices/rest/POLocator/findLocations", "@spider": "usps_collection_boxes", "addr:city": "WARRENS", "addr:country": "US", "addr:postcode": "54666", "addr:state": "WI", "addr:street_address": "302 MAIN ST", "amenity": "post_box", "collection_times": "Mo-Fr 12:45; Sa 09:00", "indoor": "yes", "note": "ON 12/24 AND 12/31, THIS BOX MAY BE COLLECTED AS EARLY AS 12 NOON.", "nsi_id": "unitedstatespostalservice-a77078", "operator": "United States Postal Service", "operator:short": "USPS", "operator:type": "public", "operator:wikidata": "Q668687", "ref": "5466600002"}, "type": "Feature"}
{"geometry": {"coordinates": [-90.499882727, 44.129917257], "type": "Point"}, "id": "GUMxrNI7TY9GQQqKaNeq_J1K1Og=", "properties": {"@source_uri": "https://tools.usps.com/UspsToolsRestServices/rest/POLocator/findLocations", "@spider": "usps_collection_boxes", "addr:city": "WARRENS", "addr:country": "US", "addr:postcode": "54666", "addr:state": "WI", "addr:street_address": "302 MAIN ST", "amenity": "post_box", "collection_times": "Mo-Fr 12:30; Sa 09:00", "indoor": "yes", "note": "ON 12/24 AND 12/31, THIS BOX MAY BE COLLECTED AS EARLY AS 12 NOON.", "nsi_id": "unitedstatespostalservice-a77078", "operator": "United States Postal Service", "operator:short": "USPS", "operator:type": "public", "operator:wikidata": "Q668687", "ref": "5466600003"}, "type": "Feature"}
{"geometry": {"coordinates": [-90.857781105, 43.654433468], "type": "Point"}, "id": "fVZ2A2HnhjAY806J8axS9oUv3ns=", "properties": {"@source_uri": "https://tools.usps.com/UspsToolsRestServices/rest/POLocator/findLocations", "@spider": "usps_collection_boxes", "addr:city": "WESTBY", "addr:country": "US", "addr:postcode": "54667", "addr:state": "WI", "addr:street_address": "102 MELBY ST", "amenity": "post_box", "collection_times": "Mo-Fr 13:45; Sa 11:45", "note": "ON 12/24 AND 12/31, THIS BOX MAY BE COLLECTED AS EARLY AS 12 NOON.", "nsi_id": "unitedstatespostalservice-a77078", "operator": "United States Postal Service", "operator:short": "USPS", "operator:type": "public", "operator:wikidata": "Q668687", "ref": "5466700002"}, "type": "Feature"}
{"geometry": {"coordinates": [-90.857781105, 43.654433468], "type": "Point"}, "id": "jl1fbGfz3LXX_11dUAJDODQECM0=", "properties": {"@source_uri": "https://tools.usps.com/UspsToolsRestServices/rest/POLocator/findLocations", "@spider": "usps_collection_boxes", "addr:city": "WESTBY", "addr:country": "US", "addr:postcode": "54667", "addr:state": "WI", "addr:street_address": "102 MELBY ST", "amenity": "post_box", "collection_times": "Mo-Fr 13:45; Sa 11:45", "indoor": "yes", "note": "ON 12/24 AND 12/31, THIS BOX MAY BE COLLECTED AS EARLY AS 12 NOON.", "nsi_id": "unitedstatespostalservice-a77078", "operator": "United States Postal Service", "operator:short": "USPS", "operator:type": "public", "operator:wikidata": "Q668687", "ref": "5466700004"}, "type": "Feature"}
{"geometry": {"coordinates": [-90.857781105, 43.654433468], "type": "Point"}, "id": "nU9kZ89dyNMEGHjkIcLi1huA2Q4=", "properties": {"@source_uri": "https://tools.usps.com/UspsToolsRestServices/rest/POLocator/findLocations", "@spider": "usps_collection_boxes", "addr:city": "WESTBY", "addr:country": "US", "addr:postcode": "54667", "addr:state": "WI", "addr:street_address": "102 MELBY ST", "amenity": "post_box", "collection_times": "Mo-Fr 13:45; Sa 11:45", "indoor": "yes", "note": "ON 12/24 AND 12/31, THIS BOX MAY BE COLLECTED AS EARLY AS 12 NOON.", "nsi_id": "unitedstatespostalservice-a77078", "operator": "United States Postal Service", "operator:short": "USPS", "operator:type": "public", "operator:wikidata": "Q668687", "ref": "5466700005"}, "type": "Feature"}
{"geometry": {"coordinates": [-91.081262905, 43.897320335], "type": "Point"}, "id": "bsrWUy6v3Uvj6fHhxSf1lfEfWFg=", "properties": {"@source_uri": "https://tools.usps.com/UspsToolsRestServices/rest/POLocator/findLocations", "@spider": "usps_collection_boxes", "addr:city": "WEST SALEM", "addr:country": "US", "addr:postcode": "54669", "addr:state": "WI", "addr:street_address": "111 LEONARD ST N", "amenity": "post_box", "collection_times": "Mo-Fr 14:15; Sa 10:00", "note": "ON 12/24 AND 12/31, THIS BOX MAY BE COLLECTED AS EARLY AS 12 NOON.", "nsi_id": "unitedstatespostalservice-a77078", "operator": "United States Postal Service", "operator:short": "USPS", "operator:type": "public", "operator:wikidata": "Q668687", "ref": "5466900001"}, "type": "Feature"}
{"geometry": {"coordinates": [-91.081262905, 43.897320335], "type": "Point"}, "id": "PTMVEz5EfMLgtECkO7FSHHP09u8=", "properties": {"@source_uri": "https://tools.usps.com/UspsToolsRestServices/rest/POLocator/findLocations", "@spider": "usps_collection_boxes", "addr:city": "WEST SALEM", "addr:country": "US", "addr:postcode": "54669", "addr:state": "WI", "addr:street_address": "111 LEONARD ST N", "amenity": "post_box", "collection_times": "Mo-Fr 14:15; Sa 10:00", "note": "ON 12/24 AND 12/31, THIS BOX MAY BE COLLECTED AS EARLY AS 12 NOON.", "nsi_id": "unitedstatespostalservice-a77078", "operator": "United States Postal Service", "operator:short": "USPS", "operator:type": "public", "operator:wikidata": "Q668687", "ref": "5466900002"}, "type": "Feature"}
{"geometry": {"coordinates": [-91.099972446, 43.899014498], "type": "Point"}, "id": "eZxH9ZWIGKKXnuQ-6E36wGvI_Qw=", "properties": {"@source_uri": "https://tools.usps.com/UspsToolsRestServices/rest/POLocator/findLocations", "@spider": "usps_collection_boxes", "addr:city": "WEST SALEM", "addr:country": "US", "addr:postcode": "54669", "addr:state": "WI", "addr:street_address": "985 W CITY HIGHWAY 16", "amenity": "post_box", "collection_times": "Mo-Sa 10:30", "nsi_id": "unitedstatespostalservice-a77078", "operator": "United States Postal Service", "operator:short": "USPS", "operator:type": "public", "operator:wikidata": "Q668687", "ref": "5466900004"}, "type": "Feature"}
{"geometry": {"coordinates": [-91.090641473, 43.900200512], "type": "Point"}, "id": "4haLyqvMqdd3GUnYmbJayltH5io=", "properties": {"@source_uri": "https://tools.usps.com/UspsToolsRestServices/rest/POLocator/findLocations", "@spider": "usps_collection_boxes", "addr:city": "WEST SALEM", "addr:country": "US", "addr:postcode": "54669", "addr:state": "WI", "addr:street_address": "420 COMMERCE ST", "amenity": "post_box", "collection_times": "Mo-Sa 10:30", "nsi_id": "unitedstatespostalservice-a77078", "operator": "United States Postal Service", "operator:short": "USPS", "operator:type": "public", "operator:wikidata": "Q668687", "ref": "5466900005"}, "type": "Feature"}
{"geometry": {"coordinates": [-91.081262905, 43.897320335], "type": "Point"}, "id": "RxREHn5VxqDEInQxSab-ufuFIzY=", "properties": {"@source_uri": "https://tools.usps.com/UspsToolsRestServices/rest/POLocator/findLocations", "@spider": "usps_collection_boxes", "addr:city": "WEST SALEM", "addr:country": "US", "addr:postcode": "54669", "addr:state": "WI", "addr:street_address": "111 LEONARD ST N", "amenity": "post_box", "collection_times": "Mo-Fr 14:15; Sa 10:00", "indoor": "yes", "note": "ON 12/24 AND 12/31, THIS BOX MAY BE COLLECTED AS EARLY AS 12 NOON.", "nsi_id": "unitedstatespostalservice-a77078", "operator": "United States Postal Service", "operator:short": "USPS", "operator:type": "public", "operator:wikidata": "Q668687", "ref": "5466900006"}, "type": "Feature"}
{"geometry": {"coordinates": [-91.081262905, 43.897320335], "type": "Point"}, "id": "WnQCqvWlHuA-7Vxly9mEHYqpZ6A=", "properties": {"@source_uri": "https://tools.usps.com/UspsToolsRestServices/rest/POLocator/findLocations", "@spider": "usps_collection_boxes", "addr:city": "WEST SALEM", "addr:country": "US", "addr:postcode": "54669", "addr:state": "WI", "addr:street_address": "111 LEONARD ST N", "amenity": "post_box", "collection_times": "Mo-Fr 14:15; Sa 10:00", "indoor": "yes", "note": "ON 12/24 AND 12/31, THIS BOX MAY BE COLLECTED AS EARLY AS 12 NOON.", "nsi_id": "unitedstatespostalservice-a77078", "operator": "United States Postal Service", "operator:short": "USPS", "operator:type": "public", "operator:wikidata": "Q668687", "ref": "5466900008"}, "type": "Feature"}
{"geometry": {"coordinates": [-90.528125645, 43.813747069], "type": "Point"}, "id": "t87IabBD5IEhvxFAphQ5Z7JcyiU=", "properties": {"@source_uri": "https://tools.usps.com/UspsToolsRestServices/rest/POLocator/findLocations", "@spider": "usps_collection_boxes", "addr:city": "WILTON", "addr:country": "US", "addr:postcode": "54670", "addr:state": "WI", "addr:street_address": "418 MAIN ST", "amenity": "post_box", "collection_times": "Mo-Fr 12:00; Sa 10:00", "nsi_id": "unitedstatespostalservice-a77078", "operator": "United States Postal Service", "operator:short": "USPS", "operator:type": "public", "operator:wikidata": "Q668687", "ref": "5467000001"}, "type": "Feature"}
{"geometry": {"coordinates": [-90.528125645, 43.813747069], "type": "Point"}, "id": "Yv7NzyjyKK0hPDdvgRLXQ4x32dI=", "properties": {"@source_uri": "https://tools.usps.com/UspsToolsRestServices/rest/POLocator/findLocations", "@spider": "usps_collection_boxes", "addr:city": "WILTON", "addr:country": "US", "addr:postcode": "54670", "addr:state": "WI", "addr:street_address": "418 MAIN ST", "amenity": "post_box", "collection_times": "Mo-Fr 12:00; Sa 10:00", "indoor": "yes", "nsi_id": "unitedstatespostalservice-a77078", "operator": "United States Postal Service", "operator:short": "USPS", "operator:type": "public", "operator:wikidata": "Q668687", "ref": "5467000002"}, "type": "Feature"}
{"geometry": {"coordinates": [-90.528125645, 43.813747069], "type": "Point"}, "id": "vONcG8r7E0tJSTVV37cHtsUgc-c=", "properties": {"@source_uri": "https://tools.usps.com/UspsToolsRestServices/rest/POLocator/findLocations", "@spider": "usps_collection_boxes", "addr:city": "WILTON", "addr:country": "US", "addr:postcode": "54670", "addr:state": "WI", "addr:street_address": "418 MAIN ST", "amenity": "post_box", "collection_times": "Mo-Fr 12:15; Sa 10:00", "indoor": "yes", "note": "ON 12/24 AND 12/31, THIS BOX MAY BE COLLECTED AS EARLY AS 12 NOON.", "nsi_id": "unitedstatespostalservice-a77078", "operator": "United States Postal Service", "operator:short": "USPS", "operator:type": "public", "operator:wikidata": "Q668687", "ref": "5467000003"}, "type": "Feature"}
