{"geometry": {"coordinates": [-91.885153026, 45.828765608], "type": "Point"}, "id": "6V7_y9LMI7rAmBeLMV97FoGAY0s=", "properties": {"@source_uri": "https://tools.usps.com/UspsToolsRestServices/rest/POLocator/findLocations", "@spider": "usps_collection_boxes", "addr:city": "SPOONER", "addr:country": "US", "addr:postcode": "54801", "addr:state": "WI", "addr:street_address": "704 N FRONT ST", "amenity": "post_box", "collection_times": "Mo-Fr 14:15; Sa 11:45", "note": "ON 12/24 AND 12/31, THIS BOX MAY BE COLLECTED AS EARLY AS 12 NOON.", "nsi_id": "unitedstatespostalservice-a77078", "operator": "United States Postal Service", "operator:short": "USPS", "operator:type": "public", "operator:wikidata": "Q668687", "ref": "5480100001"}, "type": "Feature"}
{"geometry": {"coordinates": [-91.88779499, 45.8268750207], "type": "Point"}, "id": "UaiaGzi47g7G04IqLjdY9ruxqlc=", "properties": {"@source_uri": "https://tools.usps.com/UspsToolsRestServices/rest/POLocator/findLocations", "@spider": "usps_collection_boxes", "addr:city": "SPOONER", "addr:country": "US", "addr:postcode": "54801", "addr:state": "WI", "addr:street_address": "146 WALNUT ST", "amenity": "post_box", "collection_times": "Mo-Sa 12:00", "nsi_id": "unitedstatespostalservice-a77078", "operator": "United States Postal Service", "operator:short": "USPS", "operator:type": "public", "operator:wikidata": "Q668687", "ref": "5480100006"}, "type": "Feature"}
{"geometry": {"coordinates": [-91.89594616, 45.816381831], "type": "Point"}, "id": "Lk6h5yw52_GN33Lfiw5tOGTxjxw=", "properties": {"@source_uri": "https://tools.usps.com/UspsToolsRestServices/rest/POLocator/findLocations", "@spider": "usps_collection_boxes", "addr:city": "SPOONER", "addr:country": "US", "addr:postcode": "54801", "addr:state": "WI", "addr:street_address": "700 S RIVER ST", "amenity": "post_box", "collection_times": "Mo-Sa 12:00", "nsi_id": "unitedstatespostalservice-a77078", "operator": "United States Postal Service", "operator:short": "USPS", "operator:type": "public", "operator:wikidata": "Q668687", "ref": "5480100009"}, "type": "Feature"}
{"geometry": {"coordinates": [-91.872861187, 45.842643255], "type": "Point"}, "id": "4Olz0-NXPHHq7ifaO9v3kXfRIKM=", "properties": {"@source_uri": "https://tools.usps.com/UspsToolsRestServices/rest/POLocator/findLocations", "@spider": "usps_collection_boxes", "addr:city": "SPOONER", "addr:country": "US", "addr:postcode": "54801", "addr:state": "WI", "addr:street_address": "1180 CHANDLER DR", "amenity": "post_box", "collection_times": "Mo-Sa 12:15", "note": "ON 12/24 AND 12/31, THIS BOX MAY BE COLLECTED AS EARLY AS 12 NOON.", "nsi_id": "unitedstatespostalservice-a77078", "operator": "United States Postal Service", "operator:short": "USPS", "operator:type": "public", "operator:wikidata": "Q668687", "ref": "5480100012"}, "type": "Feature"}
{"geometry": {"coordinates": [-91.885153026, 45.828765608], "type": "Point"}, "id": "DZB8NIOySXgq5iCoDgaEa05JNxI=", "properties": {"@source_uri": "https://tools.usps.com/UspsToolsRestServices/rest/POLocator/findLocations", "@spider": "usps_collection_boxes", "addr:city": "SPOONER", "addr:country": "US", "addr:postcode": "54801", "addr:state": "WI", "addr:street_address": "704 N FRONT ST", "amenity": "post_box", "collection_times": "Mo-Fr 14:15; Sa 11:45", "indoor": "yes", "note": "ON 12/24 AND 12/31, THIS BOX MAY BE COLLECTED AS EARLY AS 12 NOON.", "nsi_id": "unitedstatespostalservice-a77078", "operator": "United States Postal Service", "operator:short": "USPS", "operator:type": "public", "operator:wikidata": "Q668687", "ref": "5480100013"}, "type": "Feature"}
{"geometry": {"coordinates": [-91.885153026, 45.828765608], "type": "Point"}, "id": "Y3-CZNwmqoRFmTdY2WVnmbs6Sns=", "properties": {"@source_uri": "https://tools.usps.com/UspsToolsRestServices/rest/POLocator/findLocations", "@spider": "usps_collection_boxes", "addr:city": "SPOONER", "addr:country": "US", "addr:postcode": "54801", "addr:state": "WI", "addr:street_address": "704 N FRONT ST", "amenity": "post_box", "collection_times": "Mo-Fr 14:15; Sa 12:00", "indoor": "yes", "note": "ON 12/24 AND 12/31, THIS BOX MAY BE COLLECTED AS EARLY AS 12 NOON.", "nsi_id": "unitedstatespostalservice-a77078", "operator": "United States Postal Service", "operator:short": "USPS", "operator:type": "public", "operator:wikidata": "Q668687", "ref": "5480100019"}, "type": "Feature"}
{"geometry": {"coordinates": [-92.037329095, 45.41805888], "type": "Point"}, "id": "b2sTKzreV_Nyvjp6vPbUvUk-2O8=", "properties": {"@source_uri": "https://tools.usps.com/UspsToolsRestServices/rest/POLocator/findLocations", "@spider": "usps_collection_boxes", "addr:city": "ALMENA", "addr:country": "US", "addr:postcode": "54805", "addr:state": "WI", "addr:street_address": "127 SOO AVE E", "amenity": "post_box", "collection_times": "Mo-Fr 16:15; Sa 11:45", "note": "ON 12/24 AND 12/31, THIS BOX MAY BE COLLECTED AS EARLY AS 12 NOON.", "nsi_id": "unitedstatespostalservice-a77078", "operator": "United States Postal Service", "operator:short": "USPS", "operator:type": "public", "operator:wikidata": "Q668687", "ref": "5480500002"}, "type": "Feature"}
{"geometry": {"coordinates": [-92.0373290953, 45.4180588798], "type": "Point"}, "id": "kMIdxVSw9L4_CkKtqPvPXdZ1Y2w=", "properties": {"@source_uri": "https://tools.usps.com/UspsToolsRestServices/rest/POLocator/findLocations", "@spider": "usps_collection_boxes", "addr:city": "ALMENA", "addr:country": "US", "addr:postcode": "54805", "addr:state": "WI", "addr:street_address": "127 SOO AVE E", "amenity": "post_box", "collection_times": "Mo-Fr 14:45; Sa 11:45", "indoor": "yes", "note": "ON 12/24 AND 12/31, THIS BOX MAY BE COLLECTED AS EARLY AS 12 NOON.", "nsi_id": "unitedstatespostalservice-a77078", "operator": "United States Postal Service", "operator:short": "USPS", "operator:type": "public", "operator:wikidata": "Q668687", "ref": "5480500003"}, "type": "Feature"}
{"geometry": {"coordinates": [-92.03534, 45.41539], "type": "Point"}, "id": "Vp4L7kC5kcVuHR3v9TzSf9H6ucQ=", "properties": {"@source_uri": "https://tools.usps.com/UspsToolsRestServices/rest/POLocator/findLocations", "@spider": "usps_collection_boxes", "addr:city": "ALMENA", "addr:country": "US", "addr:postcode": "54805", "addr:state": "WI", "addr:street_address": "127 SOO AVE E", "amenity": "post_box", "collection_times": "Mo-Fr 16:30; Sa 12:00", "indoor": "yes", "note": "ON 12/24 AND 12/31, THIS BOX MAY BE COLLECTED AS EARLY AS 12 NOON.", "nsi_id": "unitedstatespostalservice-a77078", "operator": "United States Postal Service", "operator:short": "USPS", "operator:type": "public", "operator:wikidata": "Q668687", "ref": "5480500004"}, "type": "Feature"}
{"geometry": {"coordinates": [-90.885122641, 46.590689302], "type": "Point"}, "id": "Ksq0PDDuFsrEBmuybMirN4m7Vic=", "properties": {"@source_uri": "https://tools.usps.com/UspsToolsRestServices/rest/POLocator/findLocations", "@spider": "usps_collection_boxes", "addr:city": "ASHLAND", "addr:country": "US", "addr:postcode": "54806", "addr:state": "WI", "addr:street_address": "201 MAIN ST W", "amenity": "post_box", "collection_times": "Mo-Sa 09:15", "nsi_id": "unitedstatespostalservice-a77078", "operator": "United States Postal Service", "operator:short": "USPS", "operator:type": "public", "operator:wikidata": "Q668687", "ref": "5480600007"}, "type": "Feature"}
{"geometry": {"coordinates": [-90.8529326, 46.605883988], "type": "Point"}, "id": "RMms7Lfo0m8A69cCY7DGKNPnSF4=", "properties": {"@source_uri": "https://tools.usps.com/UspsToolsRestServices/rest/POLocator/findLocations", "@spider": "usps_collection_boxes", "addr:city": "ASHLAND", "addr:country": "US", "addr:postcode": "54806", "addr:state": "WI", "addr:street_address": "2500 LAKE SHORE DR E", "amenity": "post_box", "collection_times": "Mo-Sa 08:30", "nsi_id": "unitedstatespostalservice-a77078", "operator": "United States Postal Service", "operator:short": "USPS", "operator:type": "public", "operator:wikidata": "Q668687", "ref": "5480600015"}, "type": "Feature"}
{"geometry": {"coordinates": [-90.890193973, 46.588465328], "type": "Point"}, "id": "jI4vSdGJJNn1GHz97CAuH_iwrb0=", "properties": {"@source_uri": "https://tools.usps.com/UspsToolsRestServices/rest/POLocator/findLocations", "@spider": "usps_collection_boxes", "addr:city": "ASHLAND", "addr:country": "US", "addr:postcode": "54806", "addr:state": "WI", "addr:street_address": "615 MAIN ST W", "amenity": "post_box", "collection_times": "Mo-Sa 13:00", "note": "ON 12/24 AND 12/31, THIS BOX MAY BE COLLECTED AS EARLY AS 12 NOON.", "nsi_id": "unitedstatespostalservice-a77078", "operator": "United States Postal Service", "operator:short": "USPS", "operator:type": "public", "operator:wikidata": "Q668687", "ref": "5480600018"}, "type": "Feature"}
{"geometry": {"coordinates": [-90.890193973, 46.588465328], "type": "Point"}, "id": "gcJ8Q0Pu7c83B5uYihi-5RM-wNg=", "properties": {"@source_uri": "https://tools.usps.com/UspsToolsRestServices/rest/POLocator/findLocations", "@spider": "usps_collection_boxes", "addr:city": "ASHLAND", "addr:country": "US", "addr:postcode": "54806", "addr:state": "WI", "addr:street_address": "615 MAIN ST W", "amenity": "post_box", "collection_times": "Mo-Sa 13:00", "indoor": "yes", "note": "ON 12/24 AND 12/31, THIS BOX MAY BE COLLECTED AS EARLY AS 12 NOON.", "nsi_id": "unitedstatespostalservice-a77078", "operator": "United States Postal Service", "operator:short": "USPS", "operator:type": "public", "operator:wikidata": "Q668687", "ref": "5480600021"}, "type": "Feature"}
{"geometry": {"coordinates": [-90.881345258, 46.589308137], "type": "Point"}, "id": "fKLY-whjuoicVC-gxldR7kKai4s=", "properties": {"@source_uri": "https://tools.usps.com/UspsToolsRestServices/rest/POLocator/findLocations", "@spider": "usps_collection_boxes", "addr:city": "ASHLAND", "addr:country": "US", "addr:postcode": "54806", "addr:state": "WI", "addr:street_address": "401 ELLIS AVE", "amenity": "post_box", "collection_times": "Mo-Sa 10:15", "nsi_id": "unitedstatespostalservice-a77078", "operator": "United States Postal Service", "operator:short": "USPS", "operator:type": "public", "operator:wikidata": "Q668687", "ref": "5480600023"}, "type": "Feature"}
{"geometry": {"coordinates": [-90.864372892, 46.599654486], "type": "Point"}, "id": "UnRlppf-hdABXqHVqKryEwrGwJQ=", "properties": {"@source_uri": "https://tools.usps.com/UspsToolsRestServices/rest/POLocator/findLocations", "@spider": "usps_collection_boxes", "addr:city": "ASHLAND", "addr:country": "US", "addr:postcode": "54806", "addr:state": "WI", "addr:street_address": "204 16TH AVE E", "amenity": "post_box", "collection_times": "Mo-Sa 12:30", "note": "ON 12/24 AND 12/31, THIS BOX MAY BE COLLECTED AS EARLY AS 12 NOON.", "nsi_id": "unitedstatespostalservice-a77078", "operator": "United States Postal Service", "operator:short": "USPS", "operator:type": "public", "operator:wikidata": "Q668687", "ref": "5480600025"}, "type": "Feature"}
{"geometry": {"coordinates": [-90.897144003, 46.580668469], "type": "Point"}, "id": "_87XSAZCYH5Kyek5kIFJ_p9RNGU=", "properties": {"@source_uri": "https://tools.usps.com/UspsToolsRestServices/rest/POLocator/findLocations", "@spider": "usps_collection_boxes", "addr:city": "ASHLAND", "addr:country": "US", "addr:postcode": "54806", "addr:state": "WI", "addr:street_address": "1413 6TH ST W", "amenity": "post_box", "collection_times": "Mo-Sa 11:30", "nsi_id": "unitedstatespostalservice-a77078", "operator": "United States Postal Service", "operator:short": "USPS", "operator:type": "public", "operator:wikidata": "Q668687", "ref": "5480600026"}, "type": "Feature"}
{"geometry": {"coordinates": [-90.918903474, 46.417623012], "type": "Point"}, "id": "hGJjeBY5IyphusCl04KVkTmBCQA=", "properties": {"@source_uri": "https://tools.usps.com/UspsToolsRestServices/rest/POLocator/findLocations", "@spider": "usps_collection_boxes", "addr:city": "ASHLAND", "addr:country": "US", "addr:postcode": "54806", "addr:state": "WI", "addr:street_address": "23920 COUNTY HIGHWAY F", "amenity": "post_box", "collection_times": "Mo-Sa 11:45", "nsi_id": "unitedstatespostalservice-a77078", "operator": "United States Postal Service", "operator:short": "USPS", "operator:type": "public", "operator:wikidata": "Q668687", "ref": "5480600027"}, "type": "Feature"}
{"geometry": {"coordinates": [-90.890193973, 46.588465328], "type": "Point"}, "id": "P64HetQ9sBs4zdGw2jJJkX3ZhFM=", "properties": {"@source_uri": "https://tools.usps.com/UspsToolsRestServices/rest/POLocator/findLocations", "@spider": "usps_collection_boxes", "addr:city": "ASHLAND", "addr:country": "US", "addr:postcode": "54806", "addr:state": "WI", "addr:street_address": "615 MAIN ST W", "amenity": "post_box", "collection_times": "Mo-Fr 13:00; Sa 12:00", "indoor": "yes", "note": "ON 12/24 AND 12/31, THIS BOX MAY BE COLLECTED AS EARLY AS 12 NOON.", "nsi_id": "unitedstatespostalservice-a77078", "operator": "United States Postal Service", "operator:short": "USPS", "operator:type": "public", "operator:wikidata": "Q668687", "ref": "5480600029"}, "type": "Feature"}
{"geometry": {"coordinates": [-92.454432853, 45.450792], "type": "Point"}, "id": "Tv0zsS8tJRcrlZL369_4t9HTiak=", "properties": {"@source_uri": "https://tools.usps.com/UspsToolsRestServices/rest/POLocator/findLocations", "@spider": "usps_collection_boxes", "addr:city": "BALSAM LAKE", "addr:country": "US", "addr:postcode": "54810", "addr:state": "WI", "addr:street_address": "308 PEARL ST", "amenity": "post_box", "collection_times": "Mo-Fr 14:30; Sa 10:15", "note": "ON 12/24 AND 12/31, THIS BOX MAY BE COLLECTED AS EARLY AS 12 NOON.", "nsi_id": "unitedstatespostalservice-a77078", "operator": "United States Postal Service", "operator:short": "USPS", "operator:type": "public", "operator:wikidata": "Q668687", "ref": "5481000001"}, "type": "Feature"}
{"geometry": {"coordinates": [-92.454432853, 45.450792], "type": "Point"}, "id": "BKlhDq8D7zHx0DXMtyX3zbl0oio=", "properties": {"@source_uri": "https://tools.usps.com/UspsToolsRestServices/rest/POLocator/findLocations", "@spider": "usps_collection_boxes", "addr:city": "BALSAM LAKE", "addr:country": "US", "addr:postcode": "54810", "addr:state": "WI", "addr:street_address": "308 PEARL ST", "amenity": "post_box", "collection_times": "Mo-Fr 14:30; Sa 10:00", "indoor": "yes", "note": "ON 12/24 AND 12/31, THIS BOX MAY BE COLLECTED AS EARLY AS 12 NOON.", "nsi_id": "unitedstatespostalservice-a77078", "operator": "United States Postal Service", "operator:short": "USPS", "operator:type": "public", "operator:wikidata": "Q668687", "ref": "5481000003"}, "type": "Feature"}
{"geometry": {"coordinates": [-92.454432853, 45.450792], "type": "Point"}, "id": "0g6zTeFIR_M_c29FxYugpHzV2FM=", "properties": {"@source_uri": "https://tools.usps.com/UspsToolsRestServices/rest/POLocator/findLocations", "@spider": "usps_collection_boxes", "addr:city": "BALSAM LAKE", "addr:country": "US", "addr:postcode": "54810", "addr:state": "WI", "addr:street_address": "308 PEARL ST", "amenity": "post_box", "collection_times": "Mo-Fr 14:30; Sa 10:00", "indoor": "yes", "note": "ON 12/24 AND 12/31, THIS BOX MAY BE COLLECTED AS EARLY AS 12 NOON.", "nsi_id": "unitedstatespostalservice-a77078", "operator": "United States Postal Service", "operator:short": "USPS", "operator:type": "public", "operator:wikidata": "Q668687", "ref": "5481000005"}, "type": "Feature"}
{"geometry": {"coordinates": [-91.851462, 45.399906512], "type": "Point"}, "id": "OcnQmqI2thmnTZJSos3AxwF9HBI=", "properties": {"@source_uri": "https://tools.usps.com/UspsToolsRestServices/rest/POLocator/findLocations", "@spider": "usps_collection_boxes", "addr:city": "BARRON", "addr:country": "US", "addr:postcode": "54812", "addr:state": "WI", "addr:street_address": "437 E LA SALLE AVE", "amenity": "post_box", "collection_times": "Mo-Fr 15:00; Sa 10:45", "note": "ON 12/24 AND 12/31, THIS BOX MAY BE COLLECTED AS EARLY AS 12 NOON.", "nsi_id": "unitedstatespostalservice-a77078", "operator": "United States Postal Service", "operator:short": "USPS", "operator:type": "public", "operator:wikidata": "Q668687", "ref": "5481200009"}, "type": "Feature"}
{"geometry": {"coordinates": [-91.851462, 45.399906512], "type": "Point"}, "id": "uIdH39xGxTBZW5GJKyIGVSyB828=", "properties": {"@source_uri": "https://tools.usps.com/UspsToolsRestServices/rest/POLocator/findLocations", "@spider": "usps_collection_boxes", "addr:city": "BARRON", "addr:country": "US", "addr:postcode": "54812", "addr:state": "WI", "addr:street_address": "437 E LA SALLE AVE", "amenity": "post_box", "collection_times": "Mo-Fr 15:00; Sa 11:30", "indoor": "yes", "note": "ON 12/24 AND 12/31, THIS BOX MAY BE COLLECTED AS EARLY AS 12 NOON.", "nsi_id": "unitedstatespostalservice-a77078", "operator": "United States Postal Service", "operator:short": "USPS", "operator:type": "public", "operator:wikidata": "Q668687", "ref": "5481200011"}, "type": "Feature"}
{"geometry": {"coordinates": [-91.849332777, 45.399831542], "type": "Point"}, "id": "ZatiJjZjLC4XISzqAxasGDRC7sA=", "properties": {"@source_uri": "https://tools.usps.com/UspsToolsRestServices/rest/POLocator/findLocations", "@spider": "usps_collection_boxes", "addr:city": "BARRON", "addr:country": "US", "addr:postcode": "54812", "addr:state": "WI", "addr:street_address": "622 E LA SALLE AVE", "amenity": "post_box", "collection_times": "Mo-Fr 12:00; Sa 09:00", "nsi_id": "unitedstatespostalservice-a77078", "operator": "United States Postal Service", "operator:short": "USPS", "operator:type": "public", "operator:wikidata": "Q668687", "ref": "5481200012"}, "type": "Feature"}
{"geometry": {"coordinates": [-91.851462, 45.399906512], "type": "Point"}, "id": "bxHcfIms19A6tcfPSJ4pO7n1Ag4=", "properties": {"@source_uri": "https://tools.usps.com/UspsToolsRestServices/rest/POLocator/findLocations", "@spider": "usps_collection_boxes", "addr:city": "BARRON", "addr:country": "US", "addr:postcode": "54812", "addr:state": "WI", "addr:street_address": "437 E LA SALLE AVE", "amenity": "post_box", "collection_times": "Mo-Fr 15:00; Sa 11:00", "indoor": "yes", "note": "ON 12/24 AND 12/31, THIS BOX MAY BE COLLECTED AS EARLY AS 12 NOON.", "nsi_id": "unitedstatespostalservice-a77078", "operator": "United States Postal Service", "operator:short": "USPS", "operator:type": "public", "operator:wikidata": "Q668687", "ref": "5481200015"}, "type": "Feature"}
{"geometry": {"coordinates": [-91.992610816, 45.635687246], "type": "Point"}, "id": "icYYvD0yXnxOXj2LjeM5FA3pr_c=", "properties": {"@source_uri": "https://tools.usps.com/UspsToolsRestServices/rest/POLocator/findLocations", "@spider": "usps_collection_boxes", "addr:city": "BARRONETT", "addr:country": "US", "addr:postcode": "54813", "addr:state": "WI", "addr:street_address": "2964 US HIGHWAY 63", "amenity": "post_box", "collection_times": "Mo-Sa 11:45", "nsi_id": "unitedstatespostalservice-a77078", "operator": "United States Postal Service", "operator:short": "USPS", "operator:type": "public", "operator:wikidata": "Q668687", "ref": "5481300002"}, "type": "Feature"}
{"geometry": {"coordinates": [-91.992610816, 45.635687246], "type": "Point"}, "id": "XvD8Zn6cFhP_lmM8CcuR3PkHK-g=", "properties": {"@source_uri": "https://tools.usps.com/UspsToolsRestServices/rest/POLocator/findLocations", "@spider": "usps_collection_boxes", "addr:city": "BARRONETT", "addr:country": "US", "addr:postcode": "54813", "addr:state": "WI", "addr:street_address": "2964 US HIGHWAY 63", "amenity": "post_box", "collection_times": "Mo-Sa 11:45", "indoor": "yes", "nsi_id": "unitedstatespostalservice-a77078", "operator": "United States Postal Service", "operator:short": "USPS", "operator:type": "public", "operator:wikidata": "Q668687", "ref": "5481300003"}, "type": "Feature"}
{"geometry": {"coordinates": [-91.992610816, 45.635687246], "type": "Point"}, "id": "Fd2T9K3iC3kkmcRvT7CEnjqWTpc=", "properties": {"@source_uri": "https://tools.usps.com/UspsToolsRestServices/rest/POLocator/findLocations", "@spider": "usps_collection_boxes", "addr:city": "BARRONETT", "addr:country": "US", "addr:postcode": "54813", "addr:state": "WI", "addr:street_address": "2964 US HIGHWAY 63", "amenity": "post_box", "collection_times": "Mo-Sa 12:00", "indoor": "yes", "nsi_id": "unitedstatespostalservice-a77078", "operator": "United States Postal Service", "operator:short": "USPS", "operator:type": "public", "operator:wikidata": "Q668687", "ref": "5481300004"}, "type": "Feature"}
{"geometry": {"coordinates": [-90.817120347, 46.810259749], "type": "Point"}, "id": "SfR5YN1iaveDaJaKe07y_-ln7Vs=", "properties": {"@source_uri": "https://tools.usps.com/UspsToolsRestServices/rest/POLocator/findLocations", "@spider": "usps_collection_boxes", "addr:city": "BAYFIELD", "addr:country": "US", "addr:postcode": "54814", "addr:state": "WI", "addr:street_address": "22 S BROAD ST", "amenity": "post_box", "collection_times": "Mo-Fr 12:00; Sa 10:45", "nsi_id": "unitedstatespostalservice-a77078", "operator": "United States Postal Service", "operator:short": "USPS", "operator:type": "public", "operator:wikidata": "Q668687", "ref": "5481400000"}, "type": "Feature"}
{"geometry": {"coordinates": [-90.817120347, 46.810259749], "type": "Point"}, "id": "-6dAdMT2KFLKBz-jRsazZ1RyqjY=", "properties": {"@source_uri": "https://tools.usps.com/UspsToolsRestServices/rest/POLocator/findLocations", "@spider": "usps_collection_boxes", "addr:city": "BAYFIELD", "addr:country": "US", "addr:postcode": "54814", "addr:state": "WI", "addr:street_address": "22 S BROAD ST", "amenity": "post_box", "collection_times": "Mo-Fr 12:00; Sa 11:00", "indoor": "yes", "nsi_id": "unitedstatespostalservice-a77078", "operator": "United States Postal Service", "operator:short": "USPS", "operator:type": "public", "operator:wikidata": "Q668687", "ref": "5481400001"}, "type": "Feature"}
{"geometry": {"coordinates": [-90.817120347, 46.810259749], "type": "Point"}, "id": "33_gyt96NzSJVcuHRqYbPt0Lwjc=", "properties": {"@source_uri": "https://tools.usps.com/UspsToolsRestServices/rest/POLocator/findLocations", "@spider": "usps_collection_boxes", "addr:city": "BAYFIELD", "addr:country": "US", "addr:postcode": "54814", "addr:state": "WI", "addr:street_address": "22 S BROAD ST", "amenity": "post_box", "collection_times": "Mo-Fr 12:00; Sa 11:00", "indoor": "yes", "nsi_id": "unitedstatespostalservice-a77078", "operator": "United States Postal Service", "operator:short": "USPS", "operator:type": "public", "operator:wikidata": "Q668687", "ref": "5481400002"}, "type": "Feature"}
{"geometry": {"coordinates": [-91.555892761, 45.656154136], "type": "Point"}, "id": "5hiOdOo7WnjOYI6OiFk6FKrEWws=", "properties": {"@source_uri": "https://tools.usps.com/UspsToolsRestServices/rest/POLocator/findLocations", "@spider": "usps_collection_boxes", "addr:city": "BIRCHWOOD", "addr:country": "US", "addr:postcode": "54817", "addr:state": "WI", "addr:street_address": "106 S MAIN ST", "amenity": "post_box", "collection_times": "Mo-Fr 13:30; Sa 10:45", "note": "ON 12/24 AND 12/31, THIS BOX MAY BE COLLECTED AS EARLY AS 12 NOON.", "nsi_id": "unitedstatespostalservice-a77078", "operator": "United States Postal Service", "operator:short": "USPS", "operator:type": "public", "operator:wikidata": "Q668687", "ref": "5481700000"}, "type": "Feature"}
{"geometry": {"coordinates": [-91.555892761, 45.656154136], "type": "Point"}, "id": "H8loSTRabYKGWCNhCy1qe6fW7n4=", "properties": {"@source_uri": "https://tools.usps.com/UspsToolsRestServices/rest/POLocator/findLocations", "@spider": "usps_collection_boxes", "addr:city": "BIRCHWOOD", "addr:country": "US", "addr:postcode": "54817", "addr:state": "WI", "addr:street_address": "106 S MAIN ST", "amenity": "post_box", "collection_times": "Mo-Fr 13:30; Sa 11:00", "indoor": "yes", "note": "ON 12/24 AND 12/31, THIS BOX MAY BE COLLECTED AS EARLY AS 12 NOON.", "nsi_id": "unitedstatespostalservice-a77078", "operator": "United States Postal Service", "operator:short": "USPS", "operator:type": "public", "operator:wikidata": "Q668687", "ref": "5481700001"}, "type": "Feature"}
{"geometry": {"coordinates": [-91.601448606, 45.591095885], "type": "Point"}, "id": "9P_OhMcPxYVJMjHdclC2IOVLhXk=", "properties": {"@source_uri": "https://tools.usps.com/UspsToolsRestServices/rest/POLocator/findLocations", "@spider": "usps_collection_boxes", "addr:city": "BIRCHWOOD", "addr:country": "US", "addr:postcode": "54817", "addr:state": "WI", "addr:street_address": "2670 27TH ST", "amenity": "post_box", "collection_times": "Mo-Sa 09:00", "nsi_id": "unitedstatespostalservice-a77078", "operator": "United States Postal Service", "operator:short": "USPS", "operator:type": "public", "operator:wikidata": "Q668687", "ref": "5481700006"}, "type": "Feature"}
{"geometry": {"coordinates": [-91.555892761, 45.656154136], "type": "Point"}, "id": "p_idTASbkXFN0lQuKXlneXGJAII=", "properties": {"@source_uri": "https://tools.usps.com/UspsToolsRestServices/rest/POLocator/findLocations", "@spider": "usps_collection_boxes", "addr:city": "BIRCHWOOD", "addr:country": "US", "addr:postcode": "54817", "addr:state": "WI", "addr:street_address": "106 S MAIN ST", "amenity": "post_box", "collection_times": "Mo-Fr 13:30; Sa 11:00", "indoor": "yes", "note": "ON 12/24 AND 12/31, THIS BOX MAY BE COLLECTED AS EARLY AS 12 NOON.", "nsi_id": "unitedstatespostalservice-a77078", "operator": "United States Postal Service", "operator:short": "USPS", "operator:type": "public", "operator:wikidata": "Q668687", "ref": "5481700008"}, "type": "Feature"}
{"geometry": {"coordinates": [-91.272222177, 45.456218665], "type": "Point"}, "id": "7snUW_oQ1htxLpgZWdpgrLEbAUs=", "properties": {"@source_uri": "https://tools.usps.com/UspsToolsRestServices/rest/POLocator/findLocations", "@spider": "usps_collection_boxes", "addr:city": "BRUCE", "addr:country": "US", "addr:postcode": "54819", "addr:state": "WI", "addr:street_address": "719 N 1ST ST", "amenity": "post_box", "collection_times": "Mo-Fr 13:30; Sa 09:15", "note": "ON 12/24 AND 12/31, THIS BOX MAY BE COLLECTED AS EARLY AS 12 NOON.", "nsi_id": "unitedstatespostalservice-a77078", "operator": "United States Postal Service", "operator:short": "USPS", "operator:type": "public", "operator:wikidata": "Q668687", "ref": "5481900000"}, "type": "Feature"}
{"geometry": {"coordinates": [-91.272222177, 45.456218665], "type": "Point"}, "id": "DH-e14M9O4RzPC1koKIMIJZyCbU=", "properties": {"@source_uri": "https://tools.usps.com/UspsToolsRestServices/rest/POLocator/findLocations", "@spider": "usps_collection_boxes", "addr:city": "BRUCE", "addr:country": "US", "addr:postcode": "54819", "addr:state": "WI", "addr:street_address": "719 N 1ST ST", "amenity": "post_box", "collection_times": "Mo-Fr 13:30; Sa 09:15", "indoor": "yes", "note": "ON 12/24 AND 12/31, THIS BOX MAY BE COLLECTED AS EARLY AS 12 NOON.", "nsi_id": "unitedstatespostalservice-a77078", "operator": "United States Postal Service", "operator:short": "USPS", "operator:type": "public", "operator:wikidata": "Q668687", "ref": "5481900001"}, "type": "Feature"}
{"geometry": {"coordinates": [-91.272222177, 45.456218665], "type": "Point"}, "id": "KnQCUYjKFWUUqKy7dYoE54YIj_k=", "properties": {"@source_uri": "https://tools.usps.com/UspsToolsRestServices/rest/POLocator/findLocations", "@spider": "usps_collection_boxes", "addr:city": "BRUCE", "addr:country": "US", "addr:postcode": "54819", "addr:state": "WI", "addr:street_address": "719 N 1ST ST", "amenity": "post_box", "collection_times": "Mo-Fr 13:30; Sa 09:30", "indoor": "yes", "note": "ON 12/24 AND 12/31, THIS BOX MAY BE COLLECTED AS EARLY AS 12 NOON.", "nsi_id": "unitedstatespostalservice-a77078", "operator": "United States Postal Service", "operator:short": "USPS", "operator:type": "public", "operator:wikidata": "Q668687", "ref": "5481900002"}, "type": "Feature"}
{"geometry": {"coordinates": [-91.57506461, 46.550753828], "type": "Point"}, "id": "TJLaTb5d7Sf3AebuAiBv4go1MQs=", "properties": {"@source_uri": "https://tools.usps.com/UspsToolsRestServices/rest/POLocator/findLocations", "@spider": "usps_collection_boxes", "addr:city": "BRULE", "addr:country": "US", "addr:postcode": "54820", "addr:state": "WI", "addr:street_address": "13974 E US HIGHWAY 2", "amenity": "post_box", "collection_times": "Mo-Sa 13:45", "note": "ON 12/24 AND 12/31, THIS BOX MAY BE COLLECTED AS EARLY AS 12 NOON.", "nsi_id": "unitedstatespostalservice-a77078", "operator": "United States Postal Service", "operator:short": "USPS", "operator:type": "public", "operator:wikidata": "Q668687", "ref": "5482000000"}, "type": "Feature"}
{"geometry": {"coordinates": [-91.57506461, 46.550753828], "type": "Point"}, "id": "OYpg4iuz3lcuDoFv6dr7_QkPY5s=", "properties": {"@source_uri": "https://tools.usps.com/UspsToolsRestServices/rest/POLocator/findLocations", "@spider": "usps_collection_boxes", "addr:city": "BRULE", "addr:country": "US", "addr:postcode": "54820", "addr:state": "WI", "addr:street_address": "13974 E US HIGHWAY 2", "amenity": "post_box", "collection_times": "Mo-Sa 13:45", "indoor": "yes", "note": "ON 12/24 AND 12/31, THIS BOX MAY BE COLLECTED AS EARLY AS 12 NOON.", "nsi_id": "unitedstatespostalservice-a77078", "operator": "United States Postal Service", "operator:short": "USPS", "operator:type": "public", "operator:wikidata": "Q668687", "ref": "5482000001"}, "type": "Feature"}
{"geometry": {"coordinates": [-91.57506461, 46.550753828], "type": "Point"}, "id": "MMUB9K20uflKMoxRGnQAGDfJDNo=", "properties": {"@source_uri": "https://tools.usps.com/UspsToolsRestServices/rest/POLocator/findLocations", "@spider": "usps_collection_boxes", "addr:city": "BRULE", "addr:country": "US", "addr:postcode": "54820", "addr:state": "WI", "addr:street_address": "13974 E US HIGHWAY 2", "amenity": "post_box", "collection_times": "Mo-Fr 13:45; Sa 13:30", "indoor": "yes", "note": "ON 12/24 AND 12/31, THIS BOX MAY BE COLLECTED AS EARLY AS 12 NOON.", "nsi_id": "unitedstatespostalservice-a77078", "operator": "United States Postal Service", "operator:short": "USPS", "operator:type": "public", "operator:wikidata": "Q668687", "ref": "5482000002"}, "type": "Feature"}
{"geometry": {"coordinates": [-91.293605517, 46.20726177], "type": "Point"}, "id": "SqLJpdFoFdLPhsv4KDy6zkBzWo8=", "properties": {"@source_uri": "https://tools.usps.com/UspsToolsRestServices/rest/POLocator/findLocations", "@spider": "usps_collection_boxes", "addr:city": "CABLE", "addr:country": "US", "addr:postcode": "54821", "addr:state": "WI", "addr:street_address": "43435 KAVANAUGH RD", "amenity": "post_box", "collection_times": "Mo-Fr 12:30; Sa 10:45", "note": "ON 12/24 AND 12/31, THIS BOX MAY BE COLLECTED AS EARLY AS 12 NOON.", "nsi_id": "unitedstatespostalservice-a77078", "operator": "United States Postal Service", "operator:short": "USPS", "operator:type": "public", "operator:wikidata": "Q668687", "ref": "5482100000"}, "type": "Feature"}
{"geometry": {"coordinates": [-91.293605517, 46.20726177], "type": "Point"}, "id": "67addESKiAuMqO1uQlsXc5ALg0c=", "properties": {"@source_uri": "https://tools.usps.com/UspsToolsRestServices/rest/POLocator/findLocations", "@spider": "usps_collection_boxes", "addr:city": "CABLE", "addr:country": "US", "addr:postcode": "54821", "addr:state": "WI", "addr:street_address": "43435 KAVANAUGH RD", "amenity": "post_box", "collection_times": "Mo-Fr 12:30; Sa 11:45", "indoor": "yes", "note": "ON 12/24 AND 12/31, THIS BOX MAY BE COLLECTED AS EARLY AS 12 NOON.", "nsi_id": "unitedstatespostalservice-a77078", "operator": "United States Postal Service", "operator:short": "USPS", "operator:type": "public", "operator:wikidata": "Q668687", "ref": "5482100001"}, "type": "Feature"}
{"geometry": {"coordinates": [-91.293605517, 46.20726177], "type": "Point"}, "id": "o0WQdIzzVe-FKVwhpNSbWZ_ddzU=", "properties": {"@source_uri": "https://tools.usps.com/UspsToolsRestServices/rest/POLocator/findLocations", "@spider": "usps_collection_boxes", "addr:city": "CABLE", "addr:country": "US", "addr:postcode": "54821", "addr:state": "WI", "addr:street_address": "43435 KAVANAUGH RD", "amenity": "post_box", "collection_times": "Mo-Fr 12:30; Sa 11:00", "indoor": "yes", "note": "ON 12/24 AND 12/31, THIS BOX MAY BE COLLECTED AS EARLY AS 12 NOON.", "nsi_id": "unitedstatespostalservice-a77078", "operator": "United States Postal Service", "operator:short": "USPS", "operator:type": "public", "operator:wikidata": "Q668687", "ref": "5482100002"}, "type": "Feature"}
{"geometry": {"coordinates": [-91.745814175, 45.408575496], "type": "Point"}, "id": "m907nZOaw7B9u1FN3PabHyCv0X4=", "properties": {"@source_uri": "https://tools.usps.com/UspsToolsRestServices/rest/POLocator/findLocations", "@spider": "usps_collection_boxes", "addr:city": "CAMERON", "addr:country": "US", "addr:postcode": "54822", "addr:state": "WI", "addr:street_address": "1000 W MAIN ST", "amenity": "post_box", "collection_times": "Mo-Fr 14:30; Sa 09:45", "note": "ON 12/24 AND 12/31, THIS BOX MAY BE COLLECTED AS EARLY AS 12 NOON.", "nsi_id": "unitedstatespostalservice-a77078", "operator": "United States Postal Service", "operator:short": "USPS", "operator:type": "public", "operator:wikidata": "Q668687", "ref": "5482200000"}, "type": "Feature"}
{"geometry": {"coordinates": [-91.745814175, 45.408575496], "type": "Point"}, "id": "YvCTcS20h2VmgOT6xf5UfpLytFs=", "properties": {"@source_uri": "https://tools.usps.com/UspsToolsRestServices/rest/POLocator/findLocations", "@spider": "usps_collection_boxes", "addr:city": "CAMERON", "addr:country": "US", "addr:postcode": "54822", "addr:state": "WI", "addr:street_address": "1000 W MAIN ST", "amenity": "post_box", "collection_times": "Mo-Fr 14:30; Sa 10:00", "indoor": "yes", "note": "ON 12/24 AND 12/31, THIS BOX MAY BE COLLECTED AS EARLY AS 12 NOON.", "nsi_id": "unitedstatespostalservice-a77078", "operator": "United States Postal Service", "operator:short": "USPS", "operator:type": "public", "operator:wikidata": "Q668687", "ref": "5482200003"}, "type": "Feature"}
{"geometry": {"coordinates": [-91.745814175, 45.408575496], "type": "Point"}, "id": "Hx5RGlKfywr7ym9KgXWd8e5Csus=", "properties": {"@source_uri": "https://tools.usps.com/UspsToolsRestServices/rest/POLocator/findLocations", "@spider": "usps_collection_boxes", "addr:city": "CAMERON", "addr:country": "US", "addr:postcode": "54822", "addr:state": "WI", "addr:street_address": "1000 W MAIN ST", "amenity": "post_box", "collection_times": "Mo-Fr 14:30; Sa 10:00", "indoor": "yes", "note": "ON 12/24 AND 12/31, THIS BOX MAY BE COLLECTED AS EARLY AS 12 NOON.", "nsi_id": "unitedstatespostalservice-a77078", "operator": "United States Postal Service", "operator:short": "USPS", "operator:type": "public", "operator:wikidata": "Q668687", "ref": "5482200004"}, "type": "Feature"}
{"geometry": {"coordinates": [-92.552771459, 45.451276629], "type": "Point"}, "id": "4QirenbKLLPbHeTM92BEKF4H-FA=", "properties": {"@source_uri": "https://tools.usps.com/UspsToolsRestServices/rest/POLocator/findLocations", "@spider": "usps_collection_boxes", "addr:city": "CENTURIA", "addr:country": "US", "addr:postcode": "54824", "addr:state": "WI", "addr:street_address": "316 4TH ST", "amenity": "post_box", "collection_times": "Mo-Fr 14:15; Sa 11:45", "note": "ON 12/24 AND 12/31, THIS BOX MAY BE COLLECTED AS EARLY AS 12 NOON.", "nsi_id": "unitedstatespostalservice-a77078", "operator": "United States Postal Service", "operator:short": "USPS", "operator:type": "public", "operator:wikidata": "Q668687", "ref": "5482400000"}, "type": "Feature"}
{"geometry": {"coordinates": [-92.552771459, 45.451276629], "type": "Point"}, "id": "R1gF-9dO3ob4ThiaOH3KUCq0Pig=", "properties": {"@source_uri": "https://tools.usps.com/UspsToolsRestServices/rest/POLocator/findLocations", "@spider": "usps_collection_boxes", "addr:city": "CENTURIA", "addr:country": "US", "addr:postcode": "54824", "addr:state": "WI", "addr:street_address": "316 4TH ST", "amenity": "post_box", "collection_times": "Mo-Fr 14:15; Sa 12:00", "indoor": "yes", "note": "ON 12/24 AND 12/31, THIS BOX MAY BE COLLECTED AS EARLY AS 12 NOON.", "nsi_id": "unitedstatespostalservice-a77078", "operator": "United States Postal Service", "operator:short": "USPS", "operator:type": "public", "operator:wikidata": "Q668687", "ref": "5482400002"}, "type": "Feature"}
{"geometry": {"coordinates": [-92.552771459, 45.451276629], "type": "Point"}, "id": "edTVfzjoKfJo1y8O69SA4v6DWu0=", "properties": {"@source_uri": "https://tools.usps.com/UspsToolsRestServices/rest/POLocator/findLocations", "@spider": "usps_collection_boxes", "addr:city": "CENTURIA", "addr:country": "US", "addr:postcode": "54824", "addr:state": "WI", "addr:street_address": "316 4TH ST", "amenity": "post_box", "collection_times": "Mo-Fr 14:00", "indoor": "yes", "note": "ON 12/24 AND 12/31, THIS BOX MAY BE COLLECTED AS EARLY AS 12 NOON.", "nsi_id": "unitedstatespostalservice-a77078", "operator": "United States Postal Service", "operator:short": "USPS", "operator:type": "public", "operator:wikidata": "Q668687", "ref": "5482400003"}, "type": "Feature"}
{"geometry": {"coordinates": [-91.103383371, 46.854243031], "type": "Point"}, "id": "ZTiO9bf_n6wUEpVdRIJgMlmAVRk=", "properties": {"@source_uri": "https://tools.usps.com/UspsToolsRestServices/rest/POLocator/findLocations", "@spider": "usps_collection_boxes", "addr:city": "CORNUCOPIA", "addr:country": "US", "addr:postcode": "54827", "addr:state": "WI", "addr:street_address": "88530 SUPERIOR AVE", "amenity": "post_box", "collection_times": "Mo-Sa 12:15", "note": "ON 12/24 AND 12/31, THIS BOX MAY BE COLLECTED AS EARLY AS 12 NOON.", "nsi_id": "unitedstatespostalservice-a77078", "operator": "United States Postal Service", "operator:short": "USPS", "operator:type": "public", "operator:wikidata": "Q668687", "ref": "5482700001"}, "type": "Feature"}
{"geometry": {"coordinates": [-91.103383371, 46.854243031], "type": "Point"}, "id": "j6fb6c_DPpDVmZyeEFkJZVPquhE=", "properties": {"@source_uri": "https://tools.usps.com/UspsToolsRestServices/rest/POLocator/findLocations", "@spider": "usps_collection_boxes", "addr:city": "CORNUCOPIA", "addr:country": "US", "addr:postcode": "54827", "addr:state": "WI", "addr:street_address": "88530 SUPERIOR AVE", "amenity": "post_box", "collection_times": "Mo-Sa 12:15", "indoor": "yes", "note": "ON 12/24 AND 12/31, THIS BOX MAY BE COLLECTED AS EARLY AS 12 NOON.", "nsi_id": "unitedstatespostalservice-a77078", "operator": "United States Postal Service", "operator:short": "USPS", "operator:type": "public", "operator:wikidata": "Q668687", "ref": "5482700002"}, "type": "Feature"}
{"geometry": {"coordinates": [-91.103383371, 46.854243031], "type": "Point"}, "id": "_G-43wcqw7cTxiQS9xIVSQ1hOzc=", "properties": {"@source_uri": "https://tools.usps.com/UspsToolsRestServices/rest/POLocator/findLocations", "@spider": "usps_collection_boxes", "addr:city": "CORNUCOPIA", "addr:country": "US", "addr:postcode": "54827", "addr:state": "WI", "addr:street_address": "88530 SUPERIOR AVE", "amenity": "post_box", "collection_times": "Mo-Sa 12:15", "indoor": "yes", "note": "ON 12/24 AND 12/31, THIS BOX MAY BE COLLECTED AS EARLY AS 12 NOON.", "nsi_id": "unitedstatespostalservice-a77078", "operator": "United States Postal Service", "operator:short": "USPS", "operator:type": "public", "operator:wikidata": "Q668687", "ref": "5482700003"}, "type": "Feature"}
{"geometry": {"coordinates": [-91.307285023, 45.796089152], "type": "Point"}, "id": "GpvorcPCyhEn0E6xvtbDEl7JiKw=", "properties": {"@source_uri": "https://tools.usps.com/UspsToolsRestServices/rest/POLocator/findLocations", "@spider": "usps_collection_boxes", "addr:city": "COUDERAY", "addr:country": "US", "addr:postcode": "54828", "addr:state": "WI", "addr:street_address": "4457 N HOFFER RD", "amenity": "post_box", "collection_times": "Mo-Sa 13:45", "note": "ON 12/24 AND 12/31, THIS BOX MAY BE COLLECTED AS EARLY AS 12 NOON.", "nsi_id": "unitedstatespostalservice-a77078", "operator": "United States Postal Service", "operator:short": "USPS", "operator:type": "public", "operator:wikidata": "Q668687", "ref": "5482800000"}, "type": "Feature"}
{"geometry": {"coordinates": [-91.307285023, 45.796089152], "type": "Point"}, "id": "KYcShI_WABn_KJeXwOx_ua1DRGo=", "properties": {"@source_uri": "https://tools.usps.com/UspsToolsRestServices/rest/POLocator/findLocations", "@spider": "usps_collection_boxes", "addr:city": "COUDERAY", "addr:country": "US", "addr:postcode": "54828", "addr:state": "WI", "addr:street_address": "4457 N HOFFER RD", "amenity": "post_box", "collection_times": "Mo-Sa 13:45", "indoor": "yes", "note": "ON 12/24 AND 12/31, THIS BOX MAY BE COLLECTED AS EARLY AS 12 NOON.", "nsi_id": "unitedstatespostalservice-a77078", "operator": "United States Postal Service", "operator:short": "USPS", "operator:type": "public", "operator:wikidata": "Q668687", "ref": "5482800002"}, "type": "Feature"}
{"geometry": {"coordinates": [-92.022995276, 45.535658658], "type": "Point"}, "id": "J5mS9fSWfV8KxUu9CpYmk0nlFBA=", "properties": {"@source_uri": "https://tools.usps.com/UspsToolsRestServices/rest/POLocator/findLocations", "@spider": "usps_collection_boxes", "addr:city": "CUMBERLAND", "addr:country": "US", "addr:postcode": "54829", "addr:state": "WI", "addr:street_address": "1400 3RD AVE", "amenity": "post_box", "collection_times": "Mo-Fr 13:45; Sa 10:45", "note": "ON 12/24 AND 12/31, THIS BOX MAY BE COLLECTED AS EARLY AS 12 NOON.", "nsi_id": "unitedstatespostalservice-a77078", "operator": "United States Postal Service", "operator:short": "USPS", "operator:type": "public", "operator:wikidata": "Q668687", "ref": "5482900001"}, "type": "Feature"}
{"geometry": {"coordinates": [-92.022995276, 45.535658658], "type": "Point"}, "id": "8g6iVfU-rOQN4laypdt_sZU20R4=", "properties": {"@source_uri": "https://tools.usps.com/UspsToolsRestServices/rest/POLocator/findLocations", "@spider": "usps_collection_boxes", "addr:city": "CUMBERLAND", "addr:country": "US", "addr:postcode": "54829", "addr:state": "WI", "addr:street_address": "1400 3RD AVE", "amenity": "post_box", "collection_times": "Mo-Fr 13:45; Sa 11:00", "indoor": "yes", "note": "ON 12/24 AND 12/31, THIS BOX MAY BE COLLECTED AS EARLY AS 12 NOON.", "nsi_id": "unitedstatespostalservice-a77078", "operator": "United States Postal Service", "operator:short": "USPS", "operator:type": "public", "operator:wikidata": "Q668687", "ref": "5482900003"}, "type": "Feature"}
{"geometry": {"coordinates": [-92.022995276, 45.535658658], "type": "Point"}, "id": "u-yffjPGZhecVDibiBVV7Y172A0=", "properties": {"@source_uri": "https://tools.usps.com/UspsToolsRestServices/rest/POLocator/findLocations", "@spider": "usps_collection_boxes", "addr:city": "CUMBERLAND", "addr:country": "US", "addr:postcode": "54829", "addr:state": "WI", "addr:street_address": "1400 3RD AVE", "amenity": "post_box", "collection_times": "Mo-Fr 14:00; Sa 11:00", "indoor": "yes", "note": "ON 12/24 AND 12/31, THIS BOX MAY BE COLLECTED AS EARLY AS 12 NOON.", "nsi_id": "unitedstatespostalservice-a77078", "operator": "United States Postal Service", "operator:short": "USPS", "operator:type": "public", "operator:wikidata": "Q668687", "ref": "5482900004"}, "type": "Feature"}
{"geometry": {"coordinates": [-92.369061, 46.007005493], "type": "Point"}, "id": "5nXoJOkeqQd4_X3M9j-dAevjZtI=", "properties": {"@source_uri": "https://tools.usps.com/UspsToolsRestServices/rest/POLocator/findLocations", "@spider": "usps_collection_boxes", "addr:city": "DANBURY", "addr:country": "US", "addr:postcode": "54830", "addr:state": "WI", "addr:street_address": "7506 MAIN ST", "amenity": "post_box", "collection_times": "Mo-Fr 12:45; Sa 10:45", "note": "ON 12/24 AND 12/31, THIS BOX MAY BE COLLECTED AS EARLY AS 12 NOON.", "nsi_id": "unitedstatespostalservice-a77078", "operator": "United States Postal Service", "operator:short": "USPS", "operator:type": "public", "operator:wikidata": "Q668687", "ref": "5483000001"}, "type": "Feature"}
{"geometry": {"coordinates": [-92.369061, 46.007005493], "type": "Point"}, "id": "67-URQoxE_kBOvOcpBFcIVCT28I=", "properties": {"@source_uri": "https://tools.usps.com/UspsToolsRestServices/rest/POLocator/findLocations", "@spider": "usps_collection_boxes", "addr:city": "DANBURY", "addr:country": "US", "addr:postcode": "54830", "addr:state": "WI", "addr:street_address": "7506 MAIN ST", "amenity": "post_box", "collection_times": "Mo-Fr 12:45; Sa 11:00", "indoor": "yes", "note": "ON 12/24 AND 12/31, THIS BOX MAY BE COLLECTED AS EARLY AS 12 NOON.", "nsi_id": "unitedstatespostalservice-a77078", "operator": "United States Postal Service", "operator:short": "USPS", "operator:type": "public", "operator:wikidata": "Q668687", "ref": "5483000004"}, "type": "Feature"}
{"geometry": {"coordinates": [-92.369061, 46.007005493], "type": "Point"}, "id": "AoQpOGyv-6zTY7GVRhJIj2szra8=", "properties": {"@source_uri": "https://tools.usps.com/UspsToolsRestServices/rest/POLocator/findLocations", "@spider": "usps_collection_boxes", "addr:city": "DANBURY", "addr:country": "US", "addr:postcode": "54830", "addr:state": "WI", "addr:street_address": "7506 MAIN ST", "amenity": "post_box", "collection_times": "Mo-Fr 12:45; Sa 11:00", "indoor": "yes", "note": "ON 12/24 AND 12/31, THIS BOX MAY BE COLLECTED AS EARLY AS 12 NOON.", "nsi_id": "unitedstatespostalservice-a77078", "operator": "United States Postal Service", "operator:short": "USPS", "operator:type": "public", "operator:wikidata": "Q668687", "ref": "5483000005"}, "type": "Feature"}
{"geometry": {"coordinates": [-91.258021676, 46.335957737], "type": "Point"}, "id": "tVpgAwDhe8fjeEkttsmWJZtXMYs=", "properties": {"@source_uri": "https://tools.usps.com/UspsToolsRestServices/rest/POLocator/findLocations", "@spider": "usps_collection_boxes", "addr:city": "DRUMMOND", "addr:country": "US", "addr:postcode": "54832", "addr:state": "WI", "addr:street_address": "52445 WISCONSIN AVE", "amenity": "post_box", "collection_times": "Mo-Fr 11:15; Sa 09:15", "nsi_id": "unitedstatespostalservice-a77078", "operator": "United States Postal Service", "operator:short": "USPS", "operator:type": "public", "operator:wikidata": "Q668687", "ref": "5483200000"}, "type": "Feature"}
{"geometry": {"coordinates": [-91.258021676, 46.335957737], "type": "Point"}, "id": "3OMfZP3bPVKbfQ9YXnj1zg9vBrs=", "properties": {"@source_uri": "https://tools.usps.com/UspsToolsRestServices/rest/POLocator/findLocations", "@spider": "usps_collection_boxes", "addr:city": "DRUMMOND", "addr:country": "US", "addr:postcode": "54832", "addr:state": "WI", "addr:street_address": "52445 WISCONSIN AVE", "amenity": "post_box", "collection_times": "Mo-Fr 11:30; Sa 09:30", "indoor": "yes", "nsi_id": "unitedstatespostalservice-a77078", "operator": "United States Postal Service", "operator:short": "USPS", "operator:type": "public", "operator:wikidata": "Q668687", "ref": "5483200001"}, "type": "Feature"}
{"geometry": {"coordinates": [-91.258021676, 46.335957737], "type": "Point"}, "id": "z8EPFTMS29NRkTvlyizXsX1W6tg=", "properties": {"@source_uri": "https://tools.usps.com/UspsToolsRestServices/rest/POLocator/findLocations", "@spider": "usps_collection_boxes", "addr:city": "DRUMMOND", "addr:country": "US", "addr:postcode": "54832", "addr:state": "WI", "addr:street_address": "52445 WISCONSIN AVE", "amenity": "post_box", "collection_times": "Mo-Fr 11:30; Sa 09:30", "indoor": "yes", "nsi_id": "unitedstatespostalservice-a77078", "operator": "United States Postal Service", "operator:short": "USPS", "operator:type": "public", "operator:wikidata": "Q668687", "ref": "5483200002"}, "type": "Feature"}
{"geometry": {"coordinates": [-91.243673026, 45.668105453], "type": "Point"}, "id": "8_Vy-YhmxsBlQFaRV-ptOaqofG0=", "properties": {"@source_uri": "https://tools.usps.com/UspsToolsRestServices/rest/POLocator/findLocations", "@spider": "usps_collection_boxes", "addr:city": "EXELAND", "addr:country": "US", "addr:postcode": "54835", "addr:state": "WI", "addr:street_address": "11050 W STATE ROAD 48", "amenity": "post_box", "collection_times": "Mo-Fr 12:45; Sa 12:00", "note": "ON 12/24 AND 12/31, THIS BOX MAY BE COLLECTED AS EARLY AS 12 NOON.", "nsi_id": "unitedstatespostalservice-a77078", "operator": "United States Postal Service", "operator:short": "USPS", "operator:type": "public", "operator:wikidata": "Q668687", "ref": "5483500000"}, "type": "Feature"}
{"geometry": {"coordinates": [-91.243673026, 45.668105453], "type": "Point"}, "id": "O0_LDxzvZz0SIZvTT6e9nWDV5NE=", "properties": {"@source_uri": "https://tools.usps.com/UspsToolsRestServices/rest/POLocator/findLocations", "@spider": "usps_collection_boxes", "addr:city": "EXELAND", "addr:country": "US", "addr:postcode": "54835", "addr:state": "WI", "addr:street_address": "11050 W STATE ROAD 48", "amenity": "post_box", "collection_times": "Mo-Fr 12:45; Sa 12:00", "indoor": "yes", "note": "ON 12/24 AND 12/31, THIS BOX MAY BE COLLECTED AS EARLY AS 12 NOON.", "nsi_id": "unitedstatespostalservice-a77078", "operator": "United States Postal Service", "operator:short": "USPS", "operator:type": "public", "operator:wikidata": "Q668687", "ref": "5483500001"}, "type": "Feature"}
{"geometry": {"coordinates": [-91.243673026, 45.668105453], "type": "Point"}, "id": "Yg6cVPtL0CpD2W62uQIyNby8cRc=", "properties": {"@source_uri": "https://tools.usps.com/UspsToolsRestServices/rest/POLocator/findLocations", "@spider": "usps_collection_boxes", "addr:city": "EXELAND", "addr:country": "US", "addr:postcode": "54835", "addr:state": "WI", "addr:street_address": "11050 W STATE ROAD 48", "amenity": "post_box", "collection_times": "Mo-Sa 13:00", "indoor": "yes", "note": "ON 12/24 AND 12/31, THIS BOX MAY BE COLLECTED AS EARLY AS 12 NOON.", "nsi_id": "unitedstatespostalservice-a77078", "operator": "United States Postal Service", "operator:short": "USPS", "operator:type": "public", "operator:wikidata": "Q668687", "ref": "5483500002"}, "type": "Feature"}
{"geometry": {"coordinates": [-92.469312168, 45.659250503], "type": "Point"}, "id": "Jlp3R6TVLL-OruuTNEggd4T9xuM=", "properties": {"@source_uri": "https://tools.usps.com/UspsToolsRestServices/rest/POLocator/findLocations", "@spider": "usps_collection_boxes", "addr:city": "FREDERIC", "addr:country": "US", "addr:postcode": "54837", "addr:state": "WI", "addr:street_address": "311 OAK ST W", "amenity": "post_box", "collection_times": "Mo-Fr 13:30; Sa 10:45", "note": "ON 12/24 AND 12/31, THIS BOX MAY BE COLLECTED AS EARLY AS 12 NOON.", "nsi_id": "unitedstatespostalservice-a77078", "operator": "United States Postal Service", "operator:short": "USPS", "operator:type": "public", "operator:wikidata": "Q668687", "ref": "5483700002"}, "type": "Feature"}
{"geometry": {"coordinates": [-92.469312168, 45.659250503], "type": "Point"}, "id": "EWYndZtXS9pG22DywomRyfkzWac=", "properties": {"@source_uri": "https://tools.usps.com/UspsToolsRestServices/rest/POLocator/findLocations", "@spider": "usps_collection_boxes", "addr:city": "FREDERIC", "addr:country": "US", "addr:postcode": "54837", "addr:state": "WI", "addr:street_address": "311 OAK ST W", "amenity": "post_box", "collection_times": "Mo-Fr 13:30; Sa 11:00", "indoor": "yes", "note": "ON 12/24 AND 12/31, THIS BOX MAY BE COLLECTED AS EARLY AS 12 NOON.", "nsi_id": "unitedstatespostalservice-a77078", "operator": "United States Postal Service", "operator:short": "USPS", "operator:type": "public", "operator:wikidata": "Q668687", "ref": "5483700004"}, "type": "Feature"}
{"geometry": {"coordinates": [-92.469312168, 45.659250503], "type": "Point"}, "id": "-Ae3OJD1pf0M3ZBLmLMj_pisI3o=", "properties": {"@source_uri": "https://tools.usps.com/UspsToolsRestServices/rest/POLocator/findLocations", "@spider": "usps_collection_boxes", "addr:city": "FREDERIC", "addr:country": "US", "addr:postcode": "54837", "addr:state": "WI", "addr:street_address": "311 OAK ST W", "amenity": "post_box", "collection_times": "Mo-Fr 13:30; Sa 11:00", "indoor": "yes", "note": "ON 12/24 AND 12/31, THIS BOX MAY BE COLLECTED AS EARLY AS 12 NOON.", "nsi_id": "unitedstatespostalservice-a77078", "operator": "United States Postal Service", "operator:short": "USPS", "operator:type": "public", "operator:wikidata": "Q668687", "ref": "5483700005"}, "type": "Feature"}
{"geometry": {"coordinates": [-91.796432139, 46.244674527], "type": "Point"}, "id": "cXUwrhvTCWivH_xUPwSPhM_OAwk=", "properties": {"@source_uri": "https://tools.usps.com/UspsToolsRestServices/rest/POLocator/findLocations", "@spider": "usps_collection_boxes", "addr:city": "GORDON", "addr:country": "US", "addr:postcode": "54838", "addr:state": "WI", "addr:street_address": "9725 E COUNTY ROAD Y", "amenity": "post_box", "collection_times": "Mo-Fr 13:30; Sa 09:00", "note": "ON 12/24 AND 12/31, THIS BOX MAY BE COLLECTED AS EARLY AS 12 NOON.", "nsi_id": "unitedstatespostalservice-a77078", "operator": "United States Postal Service", "operator:short": "USPS", "operator:type": "public", "operator:wikidata": "Q668687", "ref": "5483800001"}, "type": "Feature"}
{"geometry": {"coordinates": [-91.796432139, 46.244674527], "type": "Point"}, "id": "TzdPfQxH0LTqmWUYtUJlYaJ6pqE=", "properties": {"@source_uri": "https://tools.usps.com/UspsToolsRestServices/rest/POLocator/findLocations", "@spider": "usps_collection_boxes", "addr:city": "GORDON", "addr:country": "US", "addr:postcode": "54838", "addr:state": "WI", "addr:street_address": "9725 E COUNTY ROAD Y", "amenity": "post_box", "collection_times": "Mo-Fr 13:30; Sa 09:00", "indoor": "yes", "note": "ON 12/24 AND 12/31, THIS BOX MAY BE COLLECTED AS EARLY AS 12 NOON.", "nsi_id": "unitedstatespostalservice-a77078", "operator": "United States Postal Service", "operator:short": "USPS", "operator:type": "public", "operator:wikidata": "Q668687", "ref": "5483800002"}, "type": "Feature"}
{"geometry": {"coordinates": [-91.944440187, 46.172402581], "type": "Point"}, "id": "uPVJAg3IVpzNpcsXtJlMmfOhaEw=", "properties": {"@source_uri": "https://tools.usps.com/UspsToolsRestServices/rest/POLocator/findLocations", "@spider": "usps_collection_boxes", "addr:city": "GORDON", "addr:country": "US", "addr:postcode": "54838", "addr:state": "WI", "addr:street_address": "16389 S CRYSTAL LAKE RD", "amenity": "post_box", "collection_times": "Mo-Sa 09:45", "nsi_id": "unitedstatespostalservice-a77078", "operator": "United States Postal Service", "operator:short": "USPS", "operator:type": "public", "operator:wikidata": "Q668687", "ref": "5483800003"}, "type": "Feature"}
{"geometry": {"coordinates": [-91.796432139, 46.244674527], "type": "Point"}, "id": "Vo3ITd1q1wQb3yiBpKnLi99cumE=", "properties": {"@source_uri": "https://tools.usps.com/UspsToolsRestServices/rest/POLocator/findLocations", "@spider": "usps_collection_boxes", "addr:city": "GORDON", "addr:country": "US", "addr:postcode": "54838", "addr:state": "WI", "addr:street_address": "9725 E COUNTY ROAD Y", "amenity": "post_box", "collection_times": "Mo-Fr 13:30", "indoor": "yes", "note": "ON 12/24 AND 12/31, THIS BOX MAY BE COLLECTED AS EARLY AS 12 NOON.", "nsi_id": "unitedstatespostalservice-a77078", "operator": "United States Postal Service", "operator:short": "USPS", "operator:type": "public", "operator:wikidata": "Q668687", "ref": "5483800005"}, "type": "Feature"}
{"geometry": {"coordinates": [-91.107012274, 46.367055838], "type": "Point"}, "id": "w1Wtat6RR-LZWavtNesRvc7t99o=", "properties": {"@source_uri": "https://tools.usps.com/UspsToolsRestServices/rest/POLocator/findLocations", "@spider": "usps_collection_boxes", "addr:city": "GRANDVIEW", "addr:country": "US", "addr:postcode": "54839", "addr:state": "WI", "addr:street_address": "54595 CUDWORTH AVE", "amenity": "post_box", "collection_times": "Mo-Sa 12:15", "note": "ON 12/24 AND 12/31, THIS BOX MAY BE COLLECTED AS EARLY AS 12 NOON.", "nsi_id": "unitedstatespostalservice-a77078", "operator": "United States Postal Service", "operator:short": "USPS", "operator:type": "public", "operator:wikidata": "Q668687", "ref": "5483900000"}, "type": "Feature"}
{"geometry": {"coordinates": [-91.107012274, 46.367055838], "type": "Point"}, "id": "K3UCYC7jg-GlFW_B5UrEMpZiKuw=", "properties": {"@source_uri": "https://tools.usps.com/UspsToolsRestServices/rest/POLocator/findLocations", "@spider": "usps_collection_boxes", "addr:city": "GRANDVIEW", "addr:country": "US", "addr:postcode": "54839", "addr:state": "WI", "addr:street_address": "54595 CUDWORTH AVE", "amenity": "post_box", "collection_times": "Mo-Sa 12:15", "indoor": "yes", "note": "ON 12/24 AND 12/31, THIS BOX MAY BE COLLECTED AS EARLY AS 12 NOON.", "nsi_id": "unitedstatespostalservice-a77078", "operator": "United States Postal Service", "operator:short": "USPS", "operator:type": "public", "operator:wikidata": "Q668687", "ref": "5483900001"}, "type": "Feature"}
{"geometry": {"coordinates": [-91.107012274, 46.367055838], "type": "Point"}, "id": "WgMTHqHaj141-Sn0N3kEcK1cbiM=", "properties": {"@source_uri": "https://tools.usps.com/UspsToolsRestServices/rest/POLocator/findLocations", "@spider": "usps_collection_boxes", "addr:city": "GRANDVIEW", "addr:country": "US", "addr:postcode": "54839", "addr:state": "WI", "addr:street_address": "54595 CUDWORTH AVE", "amenity": "post_box", "collection_times": "Mo-Sa 12:15", "indoor": "yes", "note": "ON 12/24 AND 12/31, THIS BOX MAY BE COLLECTED AS EARLY AS 12 NOON.", "nsi_id": "unitedstatespostalservice-a77078", "operator": "United States Postal Service", "operator:short": "USPS", "operator:type": "public", "operator:wikidata": "Q668687", "ref": "5483900002"}, "type": "Feature"}
{"geometry": {"coordinates": [-92.682091365, 45.779823], "type": "Point"}, "id": "9YRZOUrmGGXMhoZ0J2xn6gB09NU=", "properties": {"@source_uri": "https://tools.usps.com/UspsToolsRestServices/rest/POLocator/findLocations", "@spider": "usps_collection_boxes", "addr:city": "GRANTSBURG", "addr:country": "US", "addr:postcode": "54840", "addr:state": "WI", "addr:street_address": "201 N PINE ST", "amenity": "post_box", "collection_times": "Mo-Fr 12:45; Sa 11:15", "note": "ON 12/24 AND 12/31, THIS BOX MAY BE COLLECTED AS EARLY AS 12 NOON.", "nsi_id": "unitedstatespostalservice-a77078", "operator": "United States Postal Service", "operator:short": "USPS", "operator:type": "public", "operator:wikidata": "Q668687", "ref": "5484000000"}, "type": "Feature"}
{"geometry": {"coordinates": [-92.682091365, 45.779823], "type": "Point"}, "id": "Tik0Qxs6i1YcBEP-K1063-pcwOw=", "properties": {"@source_uri": "https://tools.usps.com/UspsToolsRestServices/rest/POLocator/findLocations", "@spider": "usps_collection_boxes", "addr:city": "GRANTSBURG", "addr:country": "US", "addr:postcode": "54840", "addr:state": "WI", "addr:street_address": "201 N PINE ST", "amenity": "post_box", "collection_times": "Mo-Fr 12:45; Sa 11:30", "indoor": "yes", "note": "ON 12/24 AND 12/31, THIS BOX MAY BE COLLECTED AS EARLY AS 12 NOON.", "nsi_id": "unitedstatespostalservice-a77078", "operator": "United States Postal Service", "operator:short": "USPS", "operator:type": "public", "operator:wikidata": "Q668687", "ref": "5484000002"}, "type": "Feature"}
{"geometry": {"coordinates": [-92.682091365, 45.779823], "type": "Point"}, "id": "pETEom6N4lUHOOJ8Ntnu4ybMVZw=", "properties": {"@source_uri": "https://tools.usps.com/UspsToolsRestServices/rest/POLocator/findLocations", "@spider": "usps_collection_boxes", "addr:city": "GRANTSBURG", "addr:country": "US", "addr:postcode": "54840", "addr:state": "WI", "addr:street_address": "201 N PINE ST", "amenity": "post_box", "collection_times": "Mo-Fr 12:45; Sa 11:30", "indoor": "yes", "note": "ON 12/24 AND 12/31, THIS BOX MAY BE COLLECTED AS EARLY AS 12 NOON.", "nsi_id": "unitedstatespostalservice-a77078", "operator": "United States Postal Service", "operator:short": "USPS", "operator:type": "public", "operator:wikidata": "Q668687", "ref": "5484000003"}, "type": "Feature"}
{"geometry": {"coordinates": [-91.77559153, 45.608330969], "type": "Point"}, "id": "1jiMpsF158r6tqL-z93lBfQtI4c=", "properties": {"@source_uri": "https://tools.usps.com/UspsToolsRestServices/rest/POLocator/findLocations", "@spider": "usps_collection_boxes", "addr:city": "HAUGEN", "addr:country": "US", "addr:postcode": "54841", "addr:state": "WI", "addr:street_address": "105 W 3RD ST", "amenity": "post_box", "collection_times": "Mo-Sa 14:00", "note": "ON 12/24 AND 12/31, THIS BOX MAY BE COLLECTED AS EARLY AS 12 NOON.", "nsi_id": "unitedstatespostalservice-a77078", "operator": "United States Postal Service", "operator:short": "USPS", "operator:type": "public", "operator:wikidata": "Q668687", "ref": "5484100000"}, "type": "Feature"}
{"geometry": {"coordinates": [-91.77559153, 45.608330969], "type": "Point"}, "id": "gNxaDPxagE_qB5QLSqOmCKsV2SY=", "properties": {"@source_uri": "https://tools.usps.com/UspsToolsRestServices/rest/POLocator/findLocations", "@spider": "usps_collection_boxes", "addr:city": "HAUGEN", "addr:country": "US", "addr:postcode": "54841", "addr:state": "WI", "addr:street_address": "105 3RD ST W", "amenity": "post_box", "collection_times": "Mo-Fr 14:00; Sa 13:45", "indoor": "yes", "note": "ON 12/24 AND 12/31, THIS BOX MAY BE COLLECTED AS EARLY AS 12 NOON.", "nsi_id": "unitedstatespostalservice-a77078", "operator": "United States Postal Service", "operator:short": "USPS", "operator:type": "public", "operator:wikidata": "Q668687", "ref": "5484100001"}, "type": "Feature"}
{"geometry": {"coordinates": [-91.7755915304, 45.6083309687], "type": "Point"}, "id": "ZFPl0gsO0MMsh642dnWHgafp6kI=", "properties": {"@source_uri": "https://tools.usps.com/UspsToolsRestServices/rest/POLocator/findLocations", "@spider": "usps_collection_boxes", "addr:city": "HAUGEN", "addr:country": "US", "addr:postcode": "54841", "addr:state": "WI", "addr:street_address": "105 W 3RD ST", "amenity": "post_box", "collection_times": "Mo-Sa 14:00", "indoor": "yes", "note": "ON 12/24 AND 12/31, THIS BOX MAY BE COLLECTED AS EARLY AS 12 NOON.", "nsi_id": "unitedstatespostalservice-a77078", "operator": "United States Postal Service", "operator:short": "USPS", "operator:type": "public", "operator:wikidata": "Q668687", "ref": "5484100002"}, "type": "Feature"}
{"geometry": {"coordinates": [-91.861843776, 46.503100959], "type": "Point"}, "id": "xKeMn1uja00Q8B9cDwHFKiV5TVs=", "properties": {"@source_uri": "https://tools.usps.com/UspsToolsRestServices/rest/POLocator/findLocations", "@spider": "usps_collection_boxes", "addr:city": "HAWTHORNE", "addr:country": "US", "addr:postcode": "54842", "addr:state": "WI", "addr:street_address": "7204 S WISCONSIN AVE", "amenity": "post_box", "collection_times": "Mo-Fr 16:30; Sa 13:15", "note": "ON 12/24 AND 12/31, THIS BOX MAY BE COLLECTED AS EARLY AS 12 NOON.", "nsi_id": "unitedstatespostalservice-a77078", "operator": "United States Postal Service", "operator:short": "USPS", "operator:type": "public", "operator:wikidata": "Q668687", "ref": "5484200000"}, "type": "Feature"}
{"geometry": {"coordinates": [-91.861843776, 46.503100959], "type": "Point"}, "id": "cJ7avefWnGTVo7ia1oQeGk9ji9c=", "properties": {"@source_uri": "https://tools.usps.com/UspsToolsRestServices/rest/POLocator/findLocations", "@spider": "usps_collection_boxes", "addr:city": "HAWTHORNE", "addr:country": "US", "addr:postcode": "54842", "addr:state": "WI", "addr:street_address": "7204 S WISCONSIN AVE", "amenity": "post_box", "collection_times": "Mo-Fr 13:30; Sa 13:15", "indoor": "yes", "note": "ON 12/24 AND 12/31, THIS BOX MAY BE COLLECTED AS EARLY AS 12 NOON.", "nsi_id": "unitedstatespostalservice-a77078", "operator": "United States Postal Service", "operator:short": "USPS", "operator:type": "public", "operator:wikidata": "Q668687", "ref": "5484200001"}, "type": "Feature"}
{"geometry": {"coordinates": [-91.8618437758, 46.5031009592], "type": "Point"}, "id": "UzfHnLYWO79Xu_mNSW-KZCm7rqA=", "properties": {"@source_uri": "https://tools.usps.com/UspsToolsRestServices/rest/POLocator/findLocations", "@spider": "usps_collection_boxes", "addr:city": "HAWTHORNE", "addr:country": "US", "addr:postcode": "54842", "addr:state": "WI", "addr:street_address": "7204 S WISCONSIN AVE", "amenity": "post_box", "collection_times": "Mo-Sa 13:30", "indoor": "yes", "note": "ON 12/24 AND 12/31, THIS BOX MAY BE COLLECTED AS EARLY AS 12 NOON.", "nsi_id": "unitedstatespostalservice-a77078", "operator": "United States Postal Service", "operator:short": "USPS", "operator:type": "public", "operator:wikidata": "Q668687", "ref": "5484200002"}, "type": "Feature"}
{"geometry": {"coordinates": [-91.486519003, 46.0156359831], "type": "Point"}, "id": "1CbWaRnAOWc1lUEilmRNnd0wGd8=", "properties": {"@source_uri": "https://tools.usps.com/UspsToolsRestServices/rest/POLocator/findLocations", "@spider": "usps_collection_boxes", "addr:city": "HAYWARD", "addr:country": "US", "addr:postcode": "54843", "addr:state": "WI", "addr:street_address": "10597 S MAIN ST REAR", "amenity": "post_box", "collection_times": "Mo-Sa 13:30", "note": "ON 12/24 AND 12/31, THIS BOX MAY BE COLLECTED AS EARLY AS 12 NOON.", "nsi_id": "unitedstatespostalservice-a77078", "operator": "United States Postal Service", "operator:short": "USPS", "operator:type": "public", "operator:wikidata": "Q668687", "ref": "5484300002"}, "type": "Feature"}
{"geometry": {"coordinates": [-91.482552322, 46.013022911], "type": "Point"}, "id": "KxhOo1e8kpcOKU0fAzKpPlQ9XqI=", "properties": {"@source_uri": "https://tools.usps.com/UspsToolsRestServices/rest/POLocator/findLocations", "@spider": "usps_collection_boxes", "addr:city": "HAYWARD", "addr:country": "US", "addr:postcode": "54843", "addr:state": "WI", "addr:street_address": "10514 S MAIN ST", "amenity": "post_box", "collection_times": "Mo-Sa 12:00", "nsi_id": "unitedstatespostalservice-a77078", "operator": "United States Postal Service", "operator:short": "USPS", "operator:type": "public", "operator:wikidata": "Q668687", "ref": "5484300004"}, "type": "Feature"}
{"geometry": {"coordinates": [-91.3828725, 45.997170499], "type": "Point"}, "id": "vEkdPuOIgMIAYm-NdwdDKpSPM9Q=", "properties": {"@source_uri": "https://tools.usps.com/UspsToolsRestServices/rest/POLocator/findLocations", "@spider": "usps_collection_boxes", "addr:city": "HAYWARD", "addr:country": "US", "addr:postcode": "54843", "addr:state": "WI", "addr:street_address": "13803 W COUNTY ROAD B", "amenity": "post_box", "collection_times": "Mo-Sa 12:30", "note": "ON 12/24 AND 12/31, THIS BOX MAY BE COLLECTED AS EARLY AS 12 NOON.", "nsi_id": "unitedstatespostalservice-a77078", "operator": "United States Postal Service", "operator:short": "USPS", "operator:type": "public", "operator:wikidata": "Q668687", "ref": "5484300006"}, "type": "Feature"}
{"geometry": {"coordinates": [-91.486250711, 46.015804572], "type": "Point"}, "id": "FVZRomHEibPkMvILAjcAB0VYpZk=", "properties": {"@source_uri": "https://tools.usps.com/UspsToolsRestServices/rest/POLocator/findLocations", "@spider": "usps_collection_boxes", "addr:city": "HAYWARD", "addr:country": "US", "addr:postcode": "54843", "addr:state": "WI", "addr:street_address": "10597 S MAIN ST", "amenity": "post_box", "collection_times": "Mo-Sa 13:30", "indoor": "yes", "note": "ON 12/24 AND 12/31, THIS BOX MAY BE COLLECTED AS EARLY AS 12 NOON.", "nsi_id": "unitedstatespostalservice-a77078", "operator": "United States Postal Service", "operator:short": "USPS", "operator:type": "public", "operator:wikidata": "Q668687", "ref": "5484300007"}, "type": "Feature"}
{"geometry": {"coordinates": [-91.4713299887, 46.0179099934], "type": "Point"}, "id": "irWC1rdQzMJys0MNQIifCpYhwSA=", "properties": {"@source_uri": "https://tools.usps.com/UspsToolsRestServices/rest/POLocator/findLocations", "@spider": "usps_collection_boxes", "addr:city": "HAYWARD", "addr:country": "US", "addr:postcode": "54843", "addr:state": "WI", "addr:street_address": "15594 STATE ROAD 77", "amenity": "post_box", "collection_times": "Mo-Sa 12:00", "nsi_id": "unitedstatespostalservice-a77078", "operator": "United States Postal Service", "operator:short": "USPS", "operator:type": "public", "operator:wikidata": "Q668687", "ref": "5484300010"}, "type": "Feature"}
{"geometry": {"coordinates": [-91.486250711, 46.015804572], "type": "Point"}, "id": "nYJ-1N2Hk_qSWsRQCpE72f2R6WE=", "properties": {"@source_uri": "https://tools.usps.com/UspsToolsRestServices/rest/POLocator/findLocations", "@spider": "usps_collection_boxes", "addr:city": "HAYWARD", "addr:country": "US", "addr:postcode": "54843", "addr:state": "WI", "addr:street_address": "10597 MAIN ST", "amenity": "post_box", "collection_times": "Mo-Fr 13:30; Sa 12:00", "indoor": "yes", "note": "ON 12/24 AND 12/31, THIS BOX MAY BE COLLECTED AS EARLY AS 12 NOON.", "nsi_id": "unitedstatespostalservice-a77078", "operator": "United States Postal Service", "operator:short": "USPS", "operator:type": "public", "operator:wikidata": "Q668687", "ref": "5484300013"}, "type": "Feature"}
{"geometry": {"coordinates": [-91.261750249, 46.832605376], "type": "Point"}, "id": "yw3h8KuMLmPt1z82-l4z9Fl5P20=", "properties": {"@source_uri": "https://tools.usps.com/UspsToolsRestServices/rest/POLocator/findLocations", "@spider": "usps_collection_boxes", "addr:city": "HERBSTER", "addr:country": "US", "addr:postcode": "54844", "addr:state": "WI", "addr:street_address": "14840 STATE HIGHWAY 13", "amenity": "post_box", "collection_times": "Mo-Fr 11:15; Sa 12:00", "nsi_id": "unitedstatespostalservice-a77078", "operator": "United States Postal Service", "operator:short": "USPS", "operator:type": "public", "operator:wikidata": "Q668687", "ref": "5484400001"}, "type": "Feature"}
{"geometry": {"coordinates": [-91.261750249, 46.832605376], "type": "Point"}, "id": "wBZtKbR7rttpLyzxjKVhgHGrp7Q=", "properties": {"@source_uri": "https://tools.usps.com/UspsToolsRestServices/rest/POLocator/findLocations", "@spider": "usps_collection_boxes", "addr:city": "HERBSTER", "addr:country": "US", "addr:postcode": "54844", "addr:state": "WI", "addr:street_address": "14840 STATE HIGHWAY 13", "amenity": "post_box", "collection_times": "Mo-Fr 11:15; Sa 12:00", "indoor": "yes", "nsi_id": "unitedstatespostalservice-a77078", "operator": "United States Postal Service", "operator:short": "USPS", "operator:type": "public", "operator:wikidata": "Q668687", "ref": "5484400002"}, "type": "Feature"}
{"geometry": {"coordinates": [-91.2617502485, 46.8326053761], "type": "Point"}, "id": "i9mrwlsfxxU_pwmgQI55i-SdBeU=", "properties": {"@source_uri": "https://tools.usps.com/UspsToolsRestServices/rest/POLocator/findLocations", "@spider": "usps_collection_boxes", "addr:city": "HERBSTER", "addr:country": "US", "addr:postcode": "54844", "addr:state": "WI", "addr:street_address": "14840 STATE HIGHWAY 13", "amenity": "post_box", "collection_times": "Mo-Fr 11:30; Sa 12:30", "indoor": "yes", "note": "ON 12/24 AND 12/31, THIS BOX MAY BE COLLECTED AS EARLY AS 12 NOON.", "nsi_id": "unitedstatespostalservice-a77078", "operator": "United States Postal Service", "operator:short": "USPS", "operator:type": "public", "operator:wikidata": "Q668687", "ref": "5484400003"}, "type": "Feature"}
{"geometry": {"coordinates": [-91.411268496, 46.563815852], "type": "Point"}, "id": "NhZUQBSG82pYKtagWavN5AUf76U=", "properties": {"@source_uri": "https://tools.usps.com/UspsToolsRestServices/rest/POLocator/findLocations", "@spider": "usps_collection_boxes", "addr:city": "IRON RIVER", "addr:country": "US", "addr:postcode": "54847", "addr:state": "WI", "addr:street_address": "7830 W MILL ST", "amenity": "post_box", "collection_times": "Mo-Fr 13:30; Sa 11:15", "note": "ON 12/24 AND 12/31, THIS BOX MAY BE COLLECTED AS EARLY AS 12 NOON.", "nsi_id": "unitedstatespostalservice-a77078", "operator": "United States Postal Service", "operator:short": "USPS", "operator:type": "public", "operator:wikidata": "Q668687", "ref": "5484700001"}, "type": "Feature"}
{"geometry": {"coordinates": [-91.411268496, 46.563815852], "type": "Point"}, "id": "FIddRQQovXeF_VFWGy_Jj9Otb3Q=", "properties": {"@source_uri": "https://tools.usps.com/UspsToolsRestServices/rest/POLocator/findLocations", "@spider": "usps_collection_boxes", "addr:city": "IRON RIVER", "addr:country": "US", "addr:postcode": "54847", "addr:state": "WI", "addr:street_address": "7830 W MILL ST", "amenity": "post_box", "collection_times": "Mo-Fr 13:30; Sa 11:30", "indoor": "yes", "note": "ON 12/24 AND 12/31, THIS BOX MAY BE COLLECTED AS EARLY AS 12 NOON.", "nsi_id": "unitedstatespostalservice-a77078", "operator": "United States Postal Service", "operator:short": "USPS", "operator:type": "public", "operator:wikidata": "Q668687", "ref": "5484700002"}, "type": "Feature"}
{"geometry": {"coordinates": [-91.411268496, 46.563815852], "type": "Point"}, "id": "lP2xnE2wRE0_MusbnDouQ9DTy0w=", "properties": {"@source_uri": "https://tools.usps.com/UspsToolsRestServices/rest/POLocator/findLocations", "@spider": "usps_collection_boxes", "addr:city": "IRON RIVER", "addr:country": "US", "addr:postcode": "54847", "addr:state": "WI", "addr:street_address": "7830 W MILL ST", "amenity": "post_box", "collection_times": "Mo-Fr 13:30; Sa 11:30", "indoor": "yes", "note": "ON 12/24 AND 12/31, THIS BOX MAY BE COLLECTED AS EARLY AS 12 NOON.", "nsi_id": "unitedstatespostalservice-a77078", "operator": "United States Postal Service", "operator:short": "USPS", "operator:type": "public", "operator:wikidata": "Q668687", "ref": "5484700004"}, "type": "Feature"}
{"geometry": {"coordinates": [-91.1160439957, 45.4550299912], "type": "Point"}, "id": "_yUDRJvzML7wOEOgGpI7YiBdpOE=", "properties": {"@source_uri": "https://tools.usps.com/UspsToolsRestServices/rest/POLocator/findLocations", "@spider": "usps_collection_boxes", "addr:city": "LADYSMITH", "addr:country": "US", "addr:postcode": "54848", "addr:state": "WI", "addr:street_address": "1200 PORT ARTHUR AVE", "amenity": "post_box", "collection_times": "Mo-Sa 10:00", "nsi_id": "unitedstatespostalservice-a77078", "operator": "United States Postal Service", "operator:short": "USPS", "operator:type": "public", "operator:wikidata": "Q668687", "ref": "5484800001"}, "type": "Feature"}
{"geometry": {"coordinates": [-91.102322532, 45.464146009], "type": "Point"}, "id": "M7A0tLtnFi7xj0rNZZ50P1RbAdM=", "properties": {"@source_uri": "https://tools.usps.com/UspsToolsRestServices/rest/POLocator/findLocations", "@spider": "usps_collection_boxes", "addr:city": "LADYSMITH", "addr:country": "US", "addr:postcode": "54848", "addr:state": "WI", "addr:street_address": "212 MINER AVE W", "amenity": "post_box", "collection_times": "Mo-Fr 13:15; Sa 09:45", "note": "ON 12/24 AND 12/31, THIS BOX MAY BE COLLECTED AS EARLY AS 12 NOON.", "nsi_id": "unitedstatespostalservice-a77078", "operator": "United States Postal Service", "operator:short": "USPS", "operator:type": "public", "operator:wikidata": "Q668687", "ref": "5484800004"}, "type": "Feature"}
{"geometry": {"coordinates": [-91.102322532, 45.464146009], "type": "Point"}, "id": "S0sFTkXoZBemxAfwIXzhbQiu1h0=", "properties": {"@source_uri": "https://tools.usps.com/UspsToolsRestServices/rest/POLocator/findLocations", "@spider": "usps_collection_boxes", "addr:city": "LADYSMITH", "addr:country": "US", "addr:postcode": "54848", "addr:state": "WI", "addr:street_address": "212 MINER AVE W", "amenity": "post_box", "collection_times": "Mo-Fr 13:30; Sa 10:00", "indoor": "yes", "note": "ON 12/24 AND 12/31, THIS BOX MAY BE COLLECTED AS EARLY AS 12 NOON.", "nsi_id": "unitedstatespostalservice-a77078", "operator": "United States Postal Service", "operator:short": "USPS", "operator:type": "public", "operator:wikidata": "Q668687", "ref": "5484800005"}, "type": "Feature"}
{"geometry": {"coordinates": [-91.102322532, 45.464146009], "type": "Point"}, "id": "qegpwq--0G1wCMFSLv2uII7i7-M=", "properties": {"@source_uri": "https://tools.usps.com/UspsToolsRestServices/rest/POLocator/findLocations", "@spider": "usps_collection_boxes", "addr:city": "LADYSMITH", "addr:country": "US", "addr:postcode": "54848", "addr:state": "WI", "addr:street_address": "212 MINER AVE W", "amenity": "post_box", "collection_times": "Mo-Fr 13:30; Sa 10:00", "indoor": "yes", "note": "ON 12/24 AND 12/31, THIS BOX MAY BE COLLECTED AS EARLY AS 12 NOON.", "nsi_id": "unitedstatespostalservice-a77078", "operator": "United States Postal Service", "operator:short": "USPS", "operator:type": "public", "operator:wikidata": "Q668687", "ref": "5484800009"}, "type": "Feature"}
{"geometry": {"coordinates": [-91.6994115, 46.515051], "type": "Point"}, "id": "N43PTQ5xr0lchlkRfrHXQYtg_28=", "properties": {"@source_uri": "https://tools.usps.com/UspsToolsRestServices/rest/POLocator/findLocations", "@spider": "usps_collection_boxes", "addr:city": "LAKE NEBAGAMON", "addr:country": "US", "addr:postcode": "54849", "addr:state": "WI", "addr:street_address": "6870 S LAKE AVE", "amenity": "post_box", "collection_times": "Mo-Fr 12:30; Sa 09:45", "note": "ON 12/24 AND 12/31, THIS BOX MAY BE COLLECTED AS EARLY AS 12 NOON.", "nsi_id": "unitedstatespostalservice-a77078", "operator": "United States Postal Service", "operator:short": "USPS", "operator:type": "public", "operator:wikidata": "Q668687", "ref": "5484900001"}, "type": "Feature"}
{"geometry": {"coordinates": [-91.699864371, 46.514797219], "type": "Point"}, "id": "5FE_JGTUCzbiAPcr8cqL8nkLf2g=", "properties": {"@source_uri": "https://tools.usps.com/UspsToolsRestServices/rest/POLocator/findLocations", "@spider": "usps_collection_boxes", "addr:city": "LAKE NEBAGAMON", "addr:country": "US", "addr:postcode": "54849", "addr:state": "WI", "addr:street_address": "6870 S LAKE AVE", "amenity": "post_box", "collection_times": "Mo-Fr 12:30; Sa 10:00", "indoor": "yes", "note": "ON 12/24 AND 12/31, THIS BOX MAY BE COLLECTED AS EARLY AS 12 NOON.", "nsi_id": "unitedstatespostalservice-a77078", "operator": "United States Postal Service", "operator:short": "USPS", "operator:type": "public", "operator:wikidata": "Q668687", "ref": "5484900002"}, "type": "Feature"}
{"geometry": {"coordinates": [-91.699864371, 46.514797219], "type": "Point"}, "id": "JaRXZ9MOOPUQSh8qAjWKCxTLwzo=", "properties": {"@source_uri": "https://tools.usps.com/UspsToolsRestServices/rest/POLocator/findLocations", "@spider": "usps_collection_boxes", "addr:city": "LAKE NEBAGAMON", "addr:country": "US", "addr:postcode": "54849", "addr:state": "WI", "addr:street_address": "6870 S LAKE AVE", "amenity": "post_box", "collection_times": "Mo-Fr 13:00; Sa 10:00", "indoor": "yes", "note": "ON 12/24 AND 12/31, THIS BOX MAY BE COLLECTED AS EARLY AS 12 NOON.", "nsi_id": "unitedstatespostalservice-a77078", "operator": "United States Postal Service", "operator:short": "USPS", "operator:type": "public", "operator:wikidata": "Q668687", "ref": "5484900003"}, "type": "Feature"}
{"geometry": {"coordinates": [-90.787994493, 46.780261768], "type": "Point"}, "id": "WdYM3UTuGdVsBNitWeHEn3hbXeI=", "properties": {"@source_uri": "https://tools.usps.com/UspsToolsRestServices/rest/POLocator/findLocations", "@spider": "usps_collection_boxes", "addr:city": "LA POINTE", "addr:country": "US", "addr:postcode": "54850", "addr:state": "WI", "addr:street_address": "189 COLONEL WOODS AVE", "amenity": "post_box", "collection_times": "Mo-Sa 11:15", "nsi_id": "unitedstatespostalservice-a77078", "operator": "United States Postal Service", "operator:short": "USPS", "operator:type": "public", "operator:wikidata": "Q668687", "ref": "5485000000"}, "type": "Feature"}
{"geometry": {"coordinates": [-90.787994493, 46.780261768], "type": "Point"}, "id": "YYA4Ca7w_jRU7kzo6YF50MP_La0=", "properties": {"@source_uri": "https://tools.usps.com/UspsToolsRestServices/rest/POLocator/findLocations", "@spider": "usps_collection_boxes", "addr:city": "LA POINTE", "addr:country": "US", "addr:postcode": "54850", "addr:state": "WI", "addr:street_address": "189 COLONEL WOODS AVE", "amenity": "post_box", "collection_times": "Mo-Sa 11:15", "indoor": "yes", "nsi_id": "unitedstatespostalservice-a77078", "operator": "United States Postal Service", "operator:short": "USPS", "operator:type": "public", "operator:wikidata": "Q668687", "ref": "5485000001"}, "type": "Feature"}
{"geometry": {"coordinates": [-90.787994493, 46.780261768], "type": "Point"}, "id": "VKg7YSndiUYJRFRkdQUOlQWcwzI=", "properties": {"@source_uri": "https://tools.usps.com/UspsToolsRestServices/rest/POLocator/findLocations", "@spider": "usps_collection_boxes", "addr:city": "LA POINTE", "addr:country": "US", "addr:postcode": "54850", "addr:state": "WI", "addr:street_address": "189 COLONEL WOODS AVE", "amenity": "post_box", "collection_times": "Mo-Sa 11:15", "indoor": "yes", "nsi_id": "unitedstatespostalservice-a77078", "operator": "United States Postal Service", "operator:short": "USPS", "operator:type": "public", "operator:wikidata": "Q668687", "ref": "5485000002"}, "type": "Feature"}
{"geometry": {"coordinates": [-92.482391725, 45.574991246], "type": "Point"}, "id": "zKr95WsfyMsYzxRkpNzqkfKtmYg=", "properties": {"@source_uri": "https://tools.usps.com/UspsToolsRestServices/rest/POLocator/findLocations", "@spider": "usps_collection_boxes", "addr:city": "LUCK", "addr:country": "US", "addr:postcode": "54853", "addr:state": "WI", "addr:street_address": "128 MAIN ST S", "amenity": "post_box", "collection_times": "Mo-Fr 13:45; Sa 11:15", "note": "ON 12/24 AND 12/31, THIS BOX MAY BE COLLECTED AS EARLY AS 12 NOON.", "nsi_id": "unitedstatespostalservice-a77078", "operator": "United States Postal Service", "operator:short": "USPS", "operator:type": "public", "operator:wikidata": "Q668687", "ref": "5485300001"}, "type": "Feature"}
{"geometry": {"coordinates": [-92.482391725, 45.574991246], "type": "Point"}, "id": "3_s2r5OJU4il1VcqBBn5gbD7O3k=", "properties": {"@source_uri": "https://tools.usps.com/UspsToolsRestServices/rest/POLocator/findLocations", "@spider": "usps_collection_boxes", "addr:city": "LUCK", "addr:country": "US", "addr:postcode": "54853", "addr:state": "WI", "addr:street_address": "128 MAIN ST S", "amenity": "post_box", "collection_times": "Mo-Fr 13:45; Sa 11:30", "indoor": "yes", "note": "ON 12/24 AND 12/31, THIS BOX MAY BE COLLECTED AS EARLY AS 12 NOON.", "nsi_id": "unitedstatespostalservice-a77078", "operator": "United States Postal Service", "operator:short": "USPS", "operator:type": "public", "operator:wikidata": "Q668687", "ref": "5485300002"}, "type": "Feature"}
{"geometry": {"coordinates": [-92.4823917249, 45.5749912456], "type": "Point"}, "id": "9pW4vBsWFtE1QsjGiaanXRVhanI=", "properties": {"@source_uri": "https://tools.usps.com/UspsToolsRestServices/rest/POLocator/findLocations", "@spider": "usps_collection_boxes", "addr:city": "LUCK", "addr:country": "US", "addr:postcode": "54853", "addr:state": "WI", "addr:street_address": "128 S MAIN ST", "amenity": "post_box", "collection_times": "Mo-Fr 13:45; Sa 11:30", "indoor": "yes", "note": "ON 12/24 AND 12/31, THIS BOX MAY BE COLLECTED AS EARLY AS 12 NOON.", "nsi_id": "unitedstatespostalservice-a77078", "operator": "United States Postal Service", "operator:short": "USPS", "operator:type": "public", "operator:wikidata": "Q668687", "ref": "5485300003"}, "type": "Feature"}
{"geometry": {"coordinates": [-91.720682547, 46.590605329], "type": "Point"}, "id": "-HvDirDzYmtHNmpQZUtjFJqQASU=", "properties": {"@source_uri": "https://tools.usps.com/UspsToolsRestServices/rest/POLocator/findLocations", "@spider": "usps_collection_boxes", "addr:city": "MAPLE", "addr:country": "US", "addr:postcode": "54854", "addr:state": "WI", "addr:street_address": "4774 S COUNTY RD F", "amenity": "post_box", "collection_times": "Mo-Sa 11:15", "nsi_id": "unitedstatespostalservice-a77078", "operator": "United States Postal Service", "operator:short": "USPS", "operator:type": "public", "operator:wikidata": "Q668687", "ref": "5485400000"}, "type": "Feature"}
{"geometry": {"coordinates": [-91.720682547, 46.590605329], "type": "Point"}, "id": "DcVSHcrLNYJgWNhcnR4c4x8F420=", "properties": {"@source_uri": "https://tools.usps.com/UspsToolsRestServices/rest/POLocator/findLocations", "@spider": "usps_collection_boxes", "addr:city": "MAPLE", "addr:country": "US", "addr:postcode": "54854", "addr:state": "WI", "addr:street_address": "4774 S COUNTY RD F", "amenity": "post_box", "collection_times": "Mo-Sa 11:15", "indoor": "yes", "nsi_id": "unitedstatespostalservice-a77078", "operator": "United States Postal Service", "operator:short": "USPS", "operator:type": "public", "operator:wikidata": "Q668687", "ref": "5485400001"}, "type": "Feature"}
{"geometry": {"coordinates": [-91.7206825466, 46.5906053294], "type": "Point"}, "id": "7Q2Z-pm-z1I88DMYwlnhWGqH7sM=", "properties": {"@source_uri": "https://tools.usps.com/UspsToolsRestServices/rest/POLocator/findLocations", "@spider": "usps_collection_boxes", "addr:city": "MAPLE", "addr:country": "US", "addr:postcode": "54854", "addr:state": "WI", "addr:street_address": "4774 S COUNTY ROAD F", "amenity": "post_box", "collection_times": "Mo-Fr 11:30; Sa 13:00", "indoor": "yes", "note": "ON 12/24 AND 12/31, THIS BOX MAY BE COLLECTED AS EARLY AS 12 NOON.", "nsi_id": "unitedstatespostalservice-a77078", "operator": "United States Postal Service", "operator:short": "USPS", "operator:type": "public", "operator:wikidata": "Q668687", "ref": "5485400002"}, "type": "Feature"}
{"geometry": {"coordinates": [-90.818148066, 46.42298691], "type": "Point"}, "id": "vId0qBNWa3hgPdUL0CwTBgqr3V8=", "properties": {"@source_uri": "https://tools.usps.com/UspsToolsRestServices/rest/POLocator/findLocations", "@spider": "usps_collection_boxes", "addr:city": "MARENGO", "addr:country": "US", "addr:postcode": "54855", "addr:state": "WI", "addr:street_address": "41661 STATE HIGHWAY 13", "amenity": "post_box", "collection_times": "Mo-Fr 12:00; Sa 09:45", "nsi_id": "unitedstatespostalservice-a77078", "operator": "United States Postal Service", "operator:short": "USPS", "operator:type": "public", "operator:wikidata": "Q668687", "ref": "5485500000"}, "type": "Feature"}
{"geometry": {"coordinates": [-91.058337619, 46.435514879], "type": "Point"}, "id": "uO5NVfu1ptC8vKzdIRr-wVwfPDs=", "properties": {"@source_uri": "https://tools.usps.com/UspsToolsRestServices/rest/POLocator/findLocations", "@spider": "usps_collection_boxes", "addr:city": "MASON", "addr:country": "US", "addr:postcode": "54856", "addr:state": "WI", "addr:street_address": "24675 COUNTY HWY E", "amenity": "post_box", "collection_times": "Mo-Fr 12:00; Sa 11:15", "nsi_id": "unitedstatespostalservice-a77078", "operator": "United States Postal Service", "operator:short": "USPS", "operator:type": "public", "operator:wikidata": "Q668687", "ref": "5485600000"}, "type": "Feature"}
{"geometry": {"coordinates": [-91.058337619, 46.435514879], "type": "Point"}, "id": "KTB5EAK64X1L0dlMU8nhHycl6uk=", "properties": {"@source_uri": "https://tools.usps.com/UspsToolsRestServices/rest/POLocator/findLocations", "@spider": "usps_collection_boxes", "addr:city": "MASON", "addr:country": "US", "addr:postcode": "54856", "addr:state": "WI", "addr:street_address": "24675 COUNTY HWY E", "amenity": "post_box", "collection_times": "Mo-Sa 11:45", "indoor": "yes", "nsi_id": "unitedstatespostalservice-a77078", "operator": "United States Postal Service", "operator:short": "USPS", "operator:type": "public", "operator:wikidata": "Q668687", "ref": "5485600001"}, "type": "Feature"}
{"geometry": {"coordinates": [-91.058337619, 46.435514879], "type": "Point"}, "id": "jnAwIZGfElFCHseBzmI8FJiqQOE=", "properties": {"@source_uri": "https://tools.usps.com/UspsToolsRestServices/rest/POLocator/findLocations", "@spider": "usps_collection_boxes", "addr:city": "MASON", "addr:country": "US", "addr:postcode": "54856", "addr:state": "WI", "addr:street_address": "24675 COUNTY HWY E", "amenity": "post_box", "collection_times": "Mo-Fr 11:45; Sa 11:30", "indoor": "yes", "nsi_id": "unitedstatespostalservice-a77078", "operator": "United States Postal Service", "operator:short": "USPS", "operator:type": "public", "operator:wikidata": "Q668687", "ref": "5485600003"}, "type": "Feature"}
{"geometry": {"coordinates": [-92.503912416, 45.526733497], "type": "Point"}, "id": "bN9DdDY9YdybxDwgx041bj6sE_0=", "properties": {"@source_uri": "https://tools.usps.com/UspsToolsRestServices/rest/POLocator/findLocations", "@spider": "usps_collection_boxes", "addr:city": "MILLTOWN", "addr:country": "US", "addr:postcode": "54858", "addr:state": "WI", "addr:street_address": "71 MAIN ST E", "amenity": "post_box", "collection_times": "Mo-Sa 13:45", "note": "ON 12/24 AND 12/31, THIS BOX MAY BE COLLECTED AS EARLY AS 12 NOON.", "nsi_id": "unitedstatespostalservice-a77078", "operator": "United States Postal Service", "operator:short": "USPS", "operator:type": "public", "operator:wikidata": "Q668687", "ref": "5485800001"}, "type": "Feature"}
{"geometry": {"coordinates": [-92.503912416, 45.526733497], "type": "Point"}, "id": "MwhU2inXj3C7sD5CVAoGflpHmCg=", "properties": {"@source_uri": "https://tools.usps.com/UspsToolsRestServices/rest/POLocator/findLocations", "@spider": "usps_collection_boxes", "addr:city": "MILLTOWN", "addr:country": "US", "addr:postcode": "54858", "addr:state": "WI", "addr:street_address": "71 MAIN ST E", "amenity": "post_box", "collection_times": "Mo-Sa 13:45", "indoor": "yes", "note": "ON 12/24 AND 12/31, THIS BOX MAY BE COLLECTED AS EARLY AS 12 NOON.", "nsi_id": "unitedstatespostalservice-a77078", "operator": "United States Postal Service", "operator:short": "USPS", "operator:type": "public", "operator:wikidata": "Q668687", "ref": "5485800002"}, "type": "Feature"}
{"geometry": {"coordinates": [-92.503912416, 45.526733497], "type": "Point"}, "id": "InQWS-dvwGTlNAhezeQujjjjrzg=", "properties": {"@source_uri": "https://tools.usps.com/UspsToolsRestServices/rest/POLocator/findLocations", "@spider": "usps_collection_boxes", "addr:city": "MILLTOWN", "addr:country": "US", "addr:postcode": "54858", "addr:state": "WI", "addr:street_address": "71 MAIN ST E", "amenity": "post_box", "collection_times": "Mo-Sa 14:00", "indoor": "yes", "note": "ON 12/24 AND 12/31, THIS BOX MAY BE COLLECTED AS EARLY AS 12 NOON.", "nsi_id": "unitedstatespostalservice-a77078", "operator": "United States Postal Service", "operator:short": "USPS", "operator:type": "public", "operator:wikidata": "Q668687", "ref": "5485800003"}, "type": "Feature"}
{"geometry": {"coordinates": [-91.815988353, 46.099693433], "type": "Point"}, "id": "srCNYHpP6A-7eu3VbXsm6PzImZ0=", "properties": {"@source_uri": "https://tools.usps.com/UspsToolsRestServices/rest/POLocator/findLocations", "@spider": "usps_collection_boxes", "addr:city": "MINONG", "addr:country": "US", "addr:postcode": "54859", "addr:state": "WI", "addr:street_address": "321 5TH AVE E", "amenity": "post_box", "collection_times": "Mo-Fr 13:45; Sa 10:15", "note": "ON 12/24 AND 12/31, THIS BOX MAY BE COLLECTED AS EARLY AS 12 NOON.", "nsi_id": "unitedstatespostalservice-a77078", "operator": "United States Postal Service", "operator:short": "USPS", "operator:type": "public", "operator:wikidata": "Q668687", "ref": "5485900000"}, "type": "Feature"}
{"geometry": {"coordinates": [-91.815988353, 46.099693433], "type": "Point"}, "id": "vwyGBhY2ivlDjFDNNsNT7pQw-pA=", "properties": {"@source_uri": "https://tools.usps.com/UspsToolsRestServices/rest/POLocator/findLocations", "@spider": "usps_collection_boxes", "addr:city": "MINONG", "addr:country": "US", "addr:postcode": "54859", "addr:state": "WI", "addr:street_address": "321 5TH AVE E", "amenity": "post_box", "collection_times": "Mo-Fr 13:45; Sa 10:30", "indoor": "yes", "note": "ON 12/24 AND 12/31, THIS BOX MAY BE COLLECTED AS EARLY AS 12 NOON.", "nsi_id": "unitedstatespostalservice-a77078", "operator": "United States Postal Service", "operator:short": "USPS", "operator:type": "public", "operator:wikidata": "Q668687", "ref": "5485900001"}, "type": "Feature"}
{"geometry": {"coordinates": [-91.823564765, 46.100288496], "type": "Point"}, "id": "JmWN8YdXlOGPJyOcr82DAux78Ho=", "properties": {"@source_uri": "https://tools.usps.com/UspsToolsRestServices/rest/POLocator/findLocations", "@spider": "usps_collection_boxes", "addr:city": "MINONG", "addr:country": "US", "addr:postcode": "54859", "addr:state": "WI", "addr:street_address": "321 5TH AVE", "amenity": "post_box", "collection_times": "Mo-Fr 13:30; Sa 10:30", "indoor": "yes", "note": "ON 12/24 AND 12/31, THIS BOX MAY BE COLLECTED AS EARLY AS 12 NOON.", "nsi_id": "unitedstatespostalservice-a77078", "operator": "United States Postal Service", "operator:short": "USPS", "operator:type": "public", "operator:wikidata": "Q668687", "ref": "5485900003"}, "type": "Feature"}
{"geometry": {"coordinates": [-90.649250578, 46.592366129], "type": "Point"}, "id": "rf4D0Ms6hC8Vl1ivo0SLeSfZ7Zc=", "properties": {"@source_uri": "https://tools.usps.com/UspsToolsRestServices/rest/POLocator/findLocations", "@spider": "usps_collection_boxes", "addr:city": "ODANAH", "addr:country": "US", "addr:postcode": "54861", "addr:state": "WI", "addr:street_address": "73430 US HIGHWAY 2", "amenity": "post_box", "collection_times": "Mo-Sa 12:30", "indoor": "yes", "note": "ON 12/24 AND 12/31, THIS BOX MAY BE COLLECTED AS EARLY AS 12 NOON.", "nsi_id": "unitedstatespostalservice-a77078", "operator": "United States Postal Service", "operator:short": "USPS", "operator:type": "public", "operator:wikidata": "Q668687", "ref": "5486100000"}, "type": "Feature"}
{"geometry": {"coordinates": [-90.649250578, 46.592366129], "type": "Point"}, "id": "-AMAvJrZF1fd62HXStGJdSDqKNA=", "properties": {"@source_uri": "https://tools.usps.com/UspsToolsRestServices/rest/POLocator/findLocations", "@spider": "usps_collection_boxes", "addr:city": "ODANAH", "addr:country": "US", "addr:postcode": "54861", "addr:state": "WI", "addr:street_address": "73430 US HIGHWAY 2", "amenity": "post_box", "collection_times": "Mo-Sa 12:30", "indoor": "yes", "note": "ON 12/24 AND 12/31, THIS BOX MAY BE COLLECTED AS EARLY AS 12 NOON.", "nsi_id": "unitedstatespostalservice-a77078", "operator": "United States Postal Service", "operator:short": "USPS", "operator:type": "public", "operator:wikidata": "Q668687", "ref": "5486100001"}, "type": "Feature"}
{"geometry": {"coordinates": [-91.79995872, 46.584197937], "type": "Point"}, "id": "yJnBzEIirGFZc5-Xe3in7U3ISf8=", "properties": {"@source_uri": "https://tools.usps.com/UspsToolsRestServices/rest/POLocator/findLocations", "@spider": "usps_collection_boxes", "addr:city": "POPLAR", "addr:country": "US", "addr:postcode": "54864", "addr:state": "WI", "addr:street_address": "9683 E MAIN ST", "amenity": "post_box", "collection_times": "Mo-Fr 14:15; Sa 10:45", "note": "ON 12/24 AND 12/31, THIS BOX MAY BE COLLECTED AS EARLY AS 12 NOON.", "nsi_id": "unitedstatespostalservice-a77078", "operator": "United States Postal Service", "operator:short": "USPS", "operator:type": "public", "operator:wikidata": "Q668687", "ref": "5486400000"}, "type": "Feature"}
{"geometry": {"coordinates": [-91.79995872, 46.584197937], "type": "Point"}, "id": "2gqCnaMAZ47QCJzilKrRpKF5qy4=", "properties": {"@source_uri": "https://tools.usps.com/UspsToolsRestServices/rest/POLocator/findLocations", "@spider": "usps_collection_boxes", "addr:city": "POPLAR", "addr:country": "US", "addr:postcode": "54864", "addr:state": "WI", "addr:street_address": "9683 E MAIN ST", "amenity": "post_box", "collection_times": "Mo-Fr 14:15; Sa 10:45", "indoor": "yes", "note": "ON 12/24 AND 12/31, THIS BOX MAY BE COLLECTED AS EARLY AS 12 NOON.", "nsi_id": "unitedstatespostalservice-a77078", "operator": "United States Postal Service", "operator:short": "USPS", "operator:type": "public", "operator:wikidata": "Q668687", "ref": "5486400001"}, "type": "Feature"}
{"geometry": {"coordinates": [-91.79995872, 46.584197937], "type": "Point"}, "id": "BM0TDMR-c6tHSN33tDBn6tEifJc=", "properties": {"@source_uri": "https://tools.usps.com/UspsToolsRestServices/rest/POLocator/findLocations", "@spider": "usps_collection_boxes", "addr:city": "POPLAR", "addr:country": "US", "addr:postcode": "54864", "addr:state": "WI", "addr:street_address": "9683 E MAIN ST", "amenity": "post_box", "collection_times": "Mo-Fr 14:00; Sa 10:45", "indoor": "yes", "note": "ON 12/24 AND 12/31, THIS BOX MAY BE COLLECTED AS EARLY AS 12 NOON.", "nsi_id": "unitedstatespostalservice-a77078", "operator": "United States Postal Service", "operator:short": "USPS", "operator:type": "public", "operator:wikidata": "Q668687", "ref": "5486400002"}, "type": "Feature"}
{"geometry": {"coordinates": [-91.384400845, 46.779579951], "type": "Point"}, "id": "pLvYWzG32SxeMCZVFG_E07fK7NI=", "properties": {"@source_uri": "https://tools.usps.com/UspsToolsRestServices/rest/POLocator/findLocations", "@spider": "usps_collection_boxes", "addr:city": "PORT WING", "addr:country": "US", "addr:postcode": "54865", "addr:state": "WI", "addr:street_address": "83320 WASHINGTON AVE", "amenity": "post_box", "collection_times": "Mo-Fr 13:00; Sa 09:45", "note": "ON 12/24 AND 12/31, THIS BOX MAY BE COLLECTED AS EARLY AS 12 NOON.", "nsi_id": "unitedstatespostalservice-a77078", "operator": "United States Postal Service", "operator:short": "USPS", "operator:type": "public", "operator:wikidata": "Q668687", "ref": "5486500000"}, "type": "Feature"}
{"geometry": {"coordinates": [-91.384400845, 46.779579951], "type": "Point"}, "id": "RZ0FYig5v5S1B6mVxLkq5r847po=", "properties": {"@source_uri": "https://tools.usps.com/UspsToolsRestServices/rest/POLocator/findLocations", "@spider": "usps_collection_boxes", "addr:city": "PORT WING", "addr:country": "US", "addr:postcode": "54865", "addr:state": "WI", "addr:street_address": "83320 WASHINGTON AVE", "amenity": "post_box", "collection_times": "Mo-Fr 13:00; Sa 10:00", "indoor": "yes", "note": "ON 12/24 AND 12/31, THIS BOX MAY BE COLLECTED AS EARLY AS 12 NOON.", "nsi_id": "unitedstatespostalservice-a77078", "operator": "United States Postal Service", "operator:short": "USPS", "operator:type": "public", "operator:wikidata": "Q668687", "ref": "5486500001"}, "type": "Feature"}
{"geometry": {"coordinates": [-91.384400845, 46.779579951], "type": "Point"}, "id": "yYgoSN5OWELB8GVPqNuml4XSYJ8=", "properties": {"@source_uri": "https://tools.usps.com/UspsToolsRestServices/rest/POLocator/findLocations", "@spider": "usps_collection_boxes", "addr:city": "PORT WING", "addr:country": "US", "addr:postcode": "54865", "addr:state": "WI", "addr:street_address": "83320 WASHINGTON AVE", "amenity": "post_box", "collection_times": "Mo-Fr 13:00; Sa 10:00", "indoor": "yes", "note": "ON 12/24 AND 12/31, THIS BOX MAY BE COLLECTED AS EARLY AS 12 NOON.", "nsi_id": "unitedstatespostalservice-a77078", "operator": "United States Postal Service", "operator:short": "USPS", "operator:type": "public", "operator:wikidata": "Q668687", "ref": "5486500002"}, "type": "Feature"}
{"geometry": {"coordinates": [-91.221284053, 45.770303463], "type": "Point"}, "id": "xXHUqSXL6un18SfGFaJJ9avWRkQ=", "properties": {"@source_uri": "https://tools.usps.com/UspsToolsRestServices/rest/POLocator/findLocations", "@spider": "usps_collection_boxes", "addr:city": "RADISSON", "addr:country": "US", "addr:postcode": "54867", "addr:state": "WI", "addr:street_address": "3711 N CLARK ST", "amenity": "post_box", "collection_times": "Mo-Fr 13:30; Sa 09:30", "note": "ON 12/24 AND 12/31, THIS BOX MAY BE COLLECTED AS EARLY AS 12 NOON.", "nsi_id": "unitedstatespostalservice-a77078", "operator": "United States Postal Service", "operator:short": "USPS", "operator:type": "public", "operator:wikidata": "Q668687", "ref": "5486700001"}, "type": "Feature"}
{"geometry": {"coordinates": [-91.221284053, 45.770303463], "type": "Point"}, "id": "xr2ah4S2fSo5atSDjiTVtXC9fy0=", "properties": {"@source_uri": "https://tools.usps.com/UspsToolsRestServices/rest/POLocator/findLocations", "@spider": "usps_collection_boxes", "addr:city": "RADISSON", "addr:country": "US", "addr:postcode": "54867", "addr:state": "WI", "addr:street_address": "3711 N CLARK ST", "amenity": "post_box", "collection_times": "Mo-Fr 13:30; Sa 09:30", "indoor": "yes", "note": "ON 12/24 AND 12/31, THIS BOX MAY BE COLLECTED AS EARLY AS 12 NOON.", "nsi_id": "unitedstatespostalservice-a77078", "operator": "United States Postal Service", "operator:short": "USPS", "operator:type": "public", "operator:wikidata": "Q668687", "ref": "5486700002"}, "type": "Feature"}
{"geometry": {"coordinates": [-91.221284053, 45.770303463], "type": "Point"}, "id": "nCNvaNC9PI8R_3SXHVODZ7a7eds=", "properties": {"@source_uri": "https://tools.usps.com/UspsToolsRestServices/rest/POLocator/findLocations", "@spider": "usps_collection_boxes", "addr:city": "RADISSON", "addr:country": "US", "addr:postcode": "54867", "addr:state": "WI", "addr:street_address": "3711 N CLARK ST", "amenity": "post_box", "collection_times": "Mo-Fr 13:15; Sa 09:30", "indoor": "yes", "note": "ON 12/24 AND 12/31, THIS BOX MAY BE COLLECTED AS EARLY AS 12 NOON.", "nsi_id": "unitedstatespostalservice-a77078", "operator": "United States Postal Service", "operator:short": "USPS", "operator:type": "public", "operator:wikidata": "Q668687", "ref": "5486700004"}, "type": "Feature"}
{"geometry": {"coordinates": [-91.739359195, 45.508811546], "type": "Point"}, "id": "HNuo89KpP_ZLRTah40dYLWf39i8=", "properties": {"@source_uri": "https://tools.usps.com/UspsToolsRestServices/rest/POLocator/findLocations", "@spider": "usps_collection_boxes", "addr:city": "RICE LAKE", "addr:country": "US", "addr:postcode": "54868", "addr:state": "WI", "addr:street_address": "220 W KNAPP ST", "amenity": "post_box", "collection_times": "Mo-Sa 12:00", "nsi_id": "unitedstatespostalservice-a77078", "operator": "United States Postal Service", "operator:short": "USPS", "operator:type": "public", "operator:wikidata": "Q668687", "ref": "5486800001"}, "type": "Feature"}
{"geometry": {"coordinates": [-91.732482388, 45.503459488], "type": "Point"}, "id": "6H-p4FaBntIJmtMrqHO9-idoqb0=", "properties": {"@source_uri": "https://tools.usps.com/UspsToolsRestServices/rest/POLocator/findLocations", "@spider": "usps_collection_boxes", "addr:city": "RICE LAKE", "addr:country": "US", "addr:postcode": "54868", "addr:state": "WI", "addr:street_address": "14 E EAU CLAIRE ST", "amenity": "post_box", "collection_times": "Mo-Sa 14:15", "note": "ON 12/24 AND 12/31, THIS BOX MAY BE COLLECTED AS EARLY AS 12 NOON.", "nsi_id": "unitedstatespostalservice-a77078", "operator": "United States Postal Service", "operator:short": "USPS", "operator:type": "public", "operator:wikidata": "Q668687", "ref": "5486800006"}, "type": "Feature"}
{"geometry": {"coordinates": [-91.733373147, 45.495644586], "type": "Point"}, "id": "Beu9wfDt6tyi5kIqjgf3_Qp9Pac=", "properties": {"@source_uri": "https://tools.usps.com/UspsToolsRestServices/rest/POLocator/findLocations", "@spider": "usps_collection_boxes", "addr:city": "RICE LAKE", "addr:country": "US", "addr:postcode": "54868", "addr:state": "WI", "addr:street_address": "330 S MAIN ST", "amenity": "post_box", "collection_times": "Mo-Fr 13:30; Sa 12:00", "note": "ON 12/24 AND 12/31, THIS BOX MAY BE COLLECTED AS EARLY AS 12 NOON.", "nsi_id": "unitedstatespostalservice-a77078", "operator": "United States Postal Service", "operator:short": "USPS", "operator:type": "public", "operator:wikidata": "Q668687", "ref": "5486800007"}, "type": "Feature"}
{"geometry": {"coordinates": [-91.735522673, 45.470916081], "type": "Point"}, "id": "QVhWi9zebSdbY3QDbGXnrTEw128=", "properties": {"@source_uri": "https://tools.usps.com/UspsToolsRestServices/rest/POLocator/findLocations", "@spider": "usps_collection_boxes", "addr:city": "RICE LAKE", "addr:country": "US", "addr:postcode": "54868", "addr:state": "WI", "addr:street_address": "2900 S MAIN ST", "amenity": "post_box", "collection_times": "Mo-Sa 10:30", "nsi_id": "unitedstatespostalservice-a77078", "operator": "United States Postal Service", "operator:short": "USPS", "operator:type": "public", "operator:wikidata": "Q668687", "ref": "5486800009"}, "type": "Feature"}
{"geometry": {"coordinates": [-91.762633744, 45.475377504], "type": "Point"}, "id": "WL67sjq3XiSB1Zdx3XGN45trgcA=", "properties": {"@source_uri": "https://tools.usps.com/UspsToolsRestServices/rest/POLocator/findLocations", "@spider": "usps_collection_boxes", "addr:city": "RICE LAKE", "addr:country": "US", "addr:postcode": "54868", "addr:state": "WI", "addr:street_address": "2501 WEST AVE", "amenity": "post_box", "collection_times": "Mo-Sa 10:00", "nsi_id": "unitedstatespostalservice-a77078", "operator": "United States Postal Service", "operator:short": "USPS", "operator:type": "public", "operator:wikidata": "Q668687", "ref": "5486800014"}, "type": "Feature"}
{"geometry": {"coordinates": [-91.732511789, 45.46949547], "type": "Point"}, "id": "y8TUXmxJ2G7jjNkEN6R0eyF3WtQ=", "properties": {"@source_uri": "https://tools.usps.com/UspsToolsRestServices/rest/POLocator/findLocations", "@spider": "usps_collection_boxes", "addr:city": "RICE LAKE", "addr:country": "US", "addr:postcode": "54868", "addr:state": "WI", "addr:street_address": "32 CAMELOT LN", "amenity": "post_box", "collection_times": "Mo-Sa 09:00", "nsi_id": "unitedstatespostalservice-a77078", "operator": "United States Postal Service", "operator:short": "USPS", "operator:type": "public", "operator:wikidata": "Q668687", "ref": "5486800016"}, "type": "Feature"}
{"geometry": {"coordinates": [-91.732482388, 45.503459488], "type": "Point"}, "id": "sxkb0vWFF6m6MloMrCgl92Eftq0=", "properties": {"@source_uri": "https://tools.usps.com/UspsToolsRestServices/rest/POLocator/findLocations", "@spider": "usps_collection_boxes", "addr:city": "RICE LAKE", "addr:country": "US", "addr:postcode": "54868", "addr:state": "WI", "addr:street_address": "14 E EAU CLAIRE ST", "amenity": "post_box", "collection_times": "Mo-Sa 14:15", "indoor": "yes", "note": "ON 12/24 AND 12/31, THIS BOX MAY BE COLLECTED AS EARLY AS 12 NOON.", "nsi_id": "unitedstatespostalservice-a77078", "operator": "United States Postal Service", "operator:short": "USPS", "operator:type": "public", "operator:wikidata": "Q668687", "ref": "5486800017"}, "type": "Feature"}
{"geometry": {"coordinates": [-91.764061638, 45.510624528], "type": "Point"}, "id": "SarKw4BgXdWBFkEDdRy2O3hXQPc=", "properties": {"@source_uri": "https://tools.usps.com/UspsToolsRestServices/rest/POLocator/findLocations", "@spider": "usps_collection_boxes", "addr:city": "RICE LAKE", "addr:country": "US", "addr:postcode": "54868", "addr:state": "WI", "addr:street_address": "2022 CENEX DR", "amenity": "post_box", "collection_times": "Mo-Sa 12:00", "nsi_id": "unitedstatespostalservice-a77078", "operator": "United States Postal Service", "operator:short": "USPS", "operator:type": "public", "operator:wikidata": "Q668687", "ref": "5486800018"}, "type": "Feature"}
{"geometry": {"coordinates": [-91.732482388, 45.503459488], "type": "Point"}, "id": "vgrTMI8A0YJZRqGM0QcJqed13A0=", "properties": {"@source_uri": "https://tools.usps.com/UspsToolsRestServices/rest/POLocator/findLocations", "@spider": "usps_collection_boxes", "addr:city": "RICE LAKE", "addr:country": "US", "addr:postcode": "54868", "addr:state": "WI", "addr:street_address": "14 E EAU CLAIRE ST", "amenity": "post_box", "collection_times": "Mo-Fr 14:15; Sa 12:00", "indoor": "yes", "note": "ON 12/24 AND 12/31, THIS BOX MAY BE COLLECTED AS EARLY AS 12 NOON.", "nsi_id": "unitedstatespostalservice-a77078", "operator": "United States Postal Service", "operator:short": "USPS", "operator:type": "public", "operator:wikidata": "Q668687", "ref": "5486800023"}, "type": "Feature"}
{"geometry": {"coordinates": [-91.807123124, 45.710965529], "type": "Point"}, "id": "Hp3xg5VDb7N1iqp3wnN-U0FCOtE=", "properties": {"@source_uri": "https://tools.usps.com/UspsToolsRestServices/rest/POLocator/findLocations", "@spider": "usps_collection_boxes", "addr:city": "SARONA", "addr:country": "US", "addr:postcode": "54870", "addr:state": "WI", "addr:street_address": "W5340 RIPLEY RD", "amenity": "post_box", "collection_times": "Mo-Sa 11:15", "nsi_id": "unitedstatespostalservice-a77078", "operator": "United States Postal Service", "operator:short": "USPS", "operator:type": "public", "operator:wikidata": "Q668687", "ref": "5487000001"}, "type": "Feature"}
{"geometry": {"coordinates": [-91.807123124, 45.710965529], "type": "Point"}, "id": "wOoYAqyUTYRawCtD27EyoYh_5HA=", "properties": {"@source_uri": "https://tools.usps.com/UspsToolsRestServices/rest/POLocator/findLocations", "@spider": "usps_collection_boxes", "addr:city": "SARONA", "addr:country": "US", "addr:postcode": "54870", "addr:state": "WI", "addr:street_address": "W5340 RIPLEY RD", "amenity": "post_box", "collection_times": "Mo-Sa 11:30", "indoor": "yes", "nsi_id": "unitedstatespostalservice-a77078", "operator": "United States Postal Service", "operator:short": "USPS", "operator:type": "public", "operator:wikidata": "Q668687", "ref": "5487000002"}, "type": "Feature"}
{"geometry": {"coordinates": [-91.807123124, 45.710965529], "type": "Point"}, "id": "7APivLY5GFXAYU00X4fA6SgjdMI=", "properties": {"@source_uri": "https://tools.usps.com/UspsToolsRestServices/rest/POLocator/findLocations", "@spider": "usps_collection_boxes", "addr:city": "SARONA", "addr:country": "US", "addr:postcode": "54870", "addr:state": "WI", "addr:street_address": "W5340 RIPLEY RD", "amenity": "post_box", "collection_times": "Mo-Sa 11:30", "indoor": "yes", "nsi_id": "unitedstatespostalservice-a77078", "operator": "United States Postal Service", "operator:short": "USPS", "operator:type": "public", "operator:wikidata": "Q668687", "ref": "5487000003"}, "type": "Feature"}
{"geometry": {"coordinates": [-91.926234084, 45.743054503], "type": "Point"}, "id": "r1WVvnK62u5NRNkNZYPM9AagnPQ=", "properties": {"@source_uri": "https://tools.usps.com/UspsToolsRestServices/rest/POLocator/findLocations", "@spider": "usps_collection_boxes", "addr:city": "SHELL LAKE", "addr:country": "US", "addr:postcode": "54871", "addr:state": "WI", "addr:street_address": "110 W 5TH AVE", "amenity": "post_box", "collection_times": "Mo-Fr 13:15; Sa 10:15", "note": "ON 12/24 AND 12/31, THIS BOX MAY BE COLLECTED AS EARLY AS 12 NOON.", "nsi_id": "unitedstatespostalservice-a77078", "operator": "United States Postal Service", "operator:short": "USPS", "operator:type": "public", "operator:wikidata": "Q668687", "ref": "5487100001"}, "type": "Feature"}
{"geometry": {"coordinates": [-91.926234084, 45.743054503], "type": "Point"}, "id": "5GXdsAFEvYy48zEdfG7gtqT86rI=", "properties": {"@source_uri": "https://tools.usps.com/UspsToolsRestServices/rest/POLocator/findLocations", "@spider": "usps_collection_boxes", "addr:city": "SHELL LAKE", "addr:country": "US", "addr:postcode": "54871", "addr:state": "WI", "addr:street_address": "110 W 5TH AVE", "amenity": "post_box", "collection_times": "Mo-Fr 13:15; Sa 10:30", "indoor": "yes", "note": "ON 12/24 AND 12/31, THIS BOX MAY BE COLLECTED AS EARLY AS 12 NOON.", "nsi_id": "unitedstatespostalservice-a77078", "operator": "United States Postal Service", "operator:short": "USPS", "operator:type": "public", "operator:wikidata": "Q668687", "ref": "5487100002"}, "type": "Feature"}
{"geometry": {"coordinates": [-91.926234084, 45.743054503], "type": "Point"}, "id": "ivtBj-XRA36vZ1xUrpUtK_tsU-w=", "properties": {"@source_uri": "https://tools.usps.com/UspsToolsRestServices/rest/POLocator/findLocations", "@spider": "usps_collection_boxes", "addr:city": "SHELL LAKE", "addr:country": "US", "addr:postcode": "54871", "addr:state": "WI", "addr:street_address": "110 W 5TH AVE", "amenity": "post_box", "collection_times": "Mo-Fr 13:30; Sa 10:30", "indoor": "yes", "note": "ON 12/24 AND 12/31, THIS BOX MAY BE COLLECTED AS EARLY AS 12 NOON.", "nsi_id": "unitedstatespostalservice-a77078", "operator": "United States Postal Service", "operator:short": "USPS", "operator:type": "public", "operator:wikidata": "Q668687", "ref": "5487100003"}, "type": "Feature"}
{"geometry": {"coordinates": [-92.383370497, 45.787332532], "type": "Point"}, "id": "W9gLoNprX6P24ndFRK8D64HeDFc=", "properties": {"@source_uri": "https://tools.usps.com/UspsToolsRestServices/rest/POLocator/findLocations", "@spider": "usps_collection_boxes", "addr:city": "SIREN", "addr:country": "US", "addr:postcode": "54872", "addr:state": "WI", "addr:street_address": "7729 W MAIN ST", "amenity": "post_box", "collection_times": "Mo-Fr 13:30; Sa 10:45", "note": "ON 12/24 AND 12/31, THIS BOX MAY BE COLLECTED AS EARLY AS 12 NOON.", "nsi_id": "unitedstatespostalservice-a77078", "operator": "United States Postal Service", "operator:short": "USPS", "operator:type": "public", "operator:wikidata": "Q668687", "ref": "5487200001"}, "type": "Feature"}
{"geometry": {"coordinates": [-92.383370497, 45.787332532], "type": "Point"}, "id": "JPw7zyJ9cfPwPcbiBaGz7moIZy0=", "properties": {"@source_uri": "https://tools.usps.com/UspsToolsRestServices/rest/POLocator/findLocations", "@spider": "usps_collection_boxes", "addr:city": "SIREN", "addr:country": "US", "addr:postcode": "54872", "addr:state": "WI", "addr:street_address": "7729 W MAIN ST", "amenity": "post_box", "collection_times": "Mo-Fr 13:30; Sa 11:00", "indoor": "yes", "note": "ON 12/24 AND 12/31, THIS BOX MAY BE COLLECTED AS EARLY AS 12 NOON.", "nsi_id": "unitedstatespostalservice-a77078", "operator": "United States Postal Service", "operator:short": "USPS", "operator:type": "public", "operator:wikidata": "Q668687", "ref": "5487200003"}, "type": "Feature"}
{"geometry": {"coordinates": [-92.383370497, 45.787332532], "type": "Point"}, "id": "IzVZCa811A_aviq7m5qqqN6ZsIQ=", "properties": {"@source_uri": "https://tools.usps.com/UspsToolsRestServices/rest/POLocator/findLocations", "@spider": "usps_collection_boxes", "addr:city": "SIREN", "addr:country": "US", "addr:postcode": "54872", "addr:state": "WI", "addr:street_address": "7729 W MAIN ST", "amenity": "post_box", "collection_times": "Mo-Fr 13:30; Sa 11:00", "indoor": "yes", "note": "ON 12/24 AND 12/31, THIS BOX MAY BE COLLECTED AS EARLY AS 12 NOON.", "nsi_id": "unitedstatespostalservice-a77078", "operator": "United States Postal Service", "operator:short": "USPS", "operator:type": "public", "operator:wikidata": "Q668687", "ref": "5487200004"}, "type": "Feature"}
{"geometry": {"coordinates": [-91.8192105, 46.352779471], "type": "Point"}, "id": "VRE0pT8Kr3YPKfLg_6jvFJPxDXw=", "properties": {"@source_uri": "https://tools.usps.com/UspsToolsRestServices/rest/POLocator/findLocations", "@spider": "usps_collection_boxes", "addr:city": "SOLON SPRINGS", "addr:country": "US", "addr:postcode": "54873", "addr:state": "WI", "addr:street_address": "9226 E MAIN ST", "amenity": "post_box", "collection_times": "Mo-Fr 13:00; Sa 10:15", "note": "ON 12/24 AND 12/31, THIS BOX MAY BE COLLECTED AS EARLY AS 12 NOON.", "nsi_id": "unitedstatespostalservice-a77078", "operator": "United States Postal Service", "operator:short": "USPS", "operator:type": "public", "operator:wikidata": "Q668687", "ref": "5487300001"}, "type": "Feature"}
{"geometry": {"coordinates": [-91.836214303, 46.352640513], "type": "Point"}, "id": "_UAjkwkjigqkEYRwnXK0FxqEevE=", "properties": {"@source_uri": "https://tools.usps.com/UspsToolsRestServices/rest/POLocator/findLocations", "@spider": "usps_collection_boxes", "addr:city": "SOLON SPRINGS", "addr:country": "US", "addr:postcode": "54873", "addr:state": "WI", "addr:street_address": "8888 E COUNTY ROAD A", "amenity": "post_box", "collection_times": "Mo-Sa 10:00", "nsi_id": "unitedstatespostalservice-a77078", "operator": "United States Postal Service", "operator:short": "USPS", "operator:type": "public", "operator:wikidata": "Q668687", "ref": "5487300002"}, "type": "Feature"}
{"geometry": {"coordinates": [-91.8192105, 46.352779471], "type": "Point"}, "id": "Ukng5OpVGIMuQJkGaXXr-G--_eQ=", "properties": {"@source_uri": "https://tools.usps.com/UspsToolsRestServices/rest/POLocator/findLocations", "@spider": "usps_collection_boxes", "addr:city": "SOLON SPRINGS", "addr:country": "US", "addr:postcode": "54873", "addr:state": "WI", "addr:street_address": "9226 E MAIN ST", "amenity": "post_box", "collection_times": "Mo-Fr 13:00; Sa 08:30", "indoor": "yes", "note": "ON 12/24 AND 12/31, THIS BOX MAY BE COLLECTED AS EARLY AS 12 NOON.", "nsi_id": "unitedstatespostalservice-a77078", "operator": "United States Postal Service", "operator:short": "USPS", "operator:type": "public", "operator:wikidata": "Q668687", "ref": "5487300003"}, "type": "Feature"}
{"geometry": {"coordinates": [-91.8192105, 46.352779471], "type": "Point"}, "id": "h_ljjJvQOZZl_RpFaWk0w40sWNU=", "properties": {"@source_uri": "https://tools.usps.com/UspsToolsRestServices/rest/POLocator/findLocations", "@spider": "usps_collection_boxes", "addr:city": "SOLON SPRINGS", "addr:country": "US", "addr:postcode": "54873", "addr:state": "WI", "addr:street_address": "9226 E MAIN ST", "amenity": "post_box", "collection_times": "Mo-Fr 13:00; Sa 10:30", "indoor": "yes", "note": "ON 12/24 AND 12/31, THIS BOX MAY BE COLLECTED AS EARLY AS 12 NOON.", "nsi_id": "unitedstatespostalservice-a77078", "operator": "United States Postal Service", "operator:short": "USPS", "operator:type": "public", "operator:wikidata": "Q668687", "ref": "5487300005"}, "type": "Feature"}
{"geometry": {"coordinates": [-91.983402168, 46.608601453], "type": "Point"}, "id": "v8Qk2MshrfECsuh0LnoHSFbysxk=", "properties": {"@source_uri": "https://tools.usps.com/UspsToolsRestServices/rest/POLocator/findLocations", "@spider": "usps_collection_boxes", "addr:city": "SOUTH RANGE", "addr:country": "US", "addr:postcode": "54874", "addr:state": "WI", "addr:street_address": "6205 E WICKSTROM ST", "amenity": "post_box", "collection_times": "Mo-Fr 14:15; Sa 09:30", "indoor": "yes", "note": "ON 12/24 AND 12/31, THIS BOX MAY BE COLLECTED AS EARLY AS 12 NOON.", "nsi_id": "unitedstatespostalservice-a77078", "operator": "United States Postal Service", "operator:short": "USPS", "operator:type": "public", "operator:wikidata": "Q668687", "ref": "5487400000"}, "type": "Feature"}
{"geometry": {"coordinates": [-91.983402168, 46.608601453], "type": "Point"}, "id": "11-NPI-ke8Y24diwumvPpCJI5QI=", "properties": {"@source_uri": "https://tools.usps.com/UspsToolsRestServices/rest/POLocator/findLocations", "@spider": "usps_collection_boxes", "addr:city": "SOUTH RANGE", "addr:country": "US", "addr:postcode": "54874", "addr:state": "WI", "addr:street_address": "6205 E WICKSTROM ST", "amenity": "post_box", "collection_times": "Mo-Fr 14:15; Sa 09:15", "note": "ON 12/24 AND 12/31, THIS BOX MAY BE COLLECTED AS EARLY AS 12 NOON.", "nsi_id": "unitedstatespostalservice-a77078", "operator": "United States Postal Service", "operator:short": "USPS", "operator:type": "public", "operator:wikidata": "Q668687", "ref": "5487400001"}, "type": "Feature"}
{"geometry": {"coordinates": [-91.983402168, 46.608601453], "type": "Point"}, "id": "IkYWyU8z01tlZ1Z1eMpg3siXPd4=", "properties": {"@source_uri": "https://tools.usps.com/UspsToolsRestServices/rest/POLocator/findLocations", "@spider": "usps_collection_boxes", "addr:city": "SOUTH RANGE", "addr:country": "US", "addr:postcode": "54874", "addr:state": "WI", "addr:street_address": "6205 E WICKSTROM ST", "amenity": "post_box", "collection_times": "Mo-Fr 14:00; Sa 09:30", "indoor": "yes", "note": "ON 12/24 AND 12/31, THIS BOX MAY BE COLLECTED AS EARLY AS 12 NOON.", "nsi_id": "unitedstatespostalservice-a77078", "operator": "United States Postal Service", "operator:short": "USPS", "operator:type": "public", "operator:wikidata": "Q668687", "ref": "5487400003"}, "type": "Feature"}
{"geometry": {"coordinates": [-91.690358813, 45.946634206], "type": "Point"}, "id": "fLMxPKE4OoLyRkCMg6Ik5GbLZH0=", "properties": {"@source_uri": "https://tools.usps.com/UspsToolsRestServices/rest/POLocator/findLocations", "@spider": "usps_collection_boxes", "addr:city": "SPRINGBROOK", "addr:country": "US", "addr:postcode": "54875", "addr:state": "WI", "addr:street_address": "W3060 HIGHWAY 63", "amenity": "post_box", "collection_times": "Mo-Fr 14:15; Sa 11:00", "note": "ON 12/24 AND 12/31, THIS BOX MAY BE COLLECTED AS EARLY AS 12 NOON.", "nsi_id": "unitedstatespostalservice-a77078", "operator": "United States Postal Service", "operator:short": "USPS", "operator:type": "public", "operator:wikidata": "Q668687", "ref": "5487500000"}, "type": "Feature"}
{"geometry": {"coordinates": [-91.690358813, 45.946634206], "type": "Point"}, "id": "OZTM38mkQLhFsNvPvQWcp5l5m-A=", "properties": {"@source_uri": "https://tools.usps.com/UspsToolsRestServices/rest/POLocator/findLocations", "@spider": "usps_collection_boxes", "addr:city": "SPRINGBROOK", "addr:country": "US", "addr:postcode": "54875", "addr:state": "WI", "addr:street_address": "W3060 HIGHWAY 63", "amenity": "post_box", "collection_times": "Mo-Fr 14:15; Sa 11:15", "indoor": "yes", "note": "ON 12/24 AND 12/31, THIS BOX MAY BE COLLECTED AS EARLY AS 12 NOON.", "nsi_id": "unitedstatespostalservice-a77078", "operator": "United States Postal Service", "operator:short": "USPS", "operator:type": "public", "operator:wikidata": "Q668687", "ref": "5487500001"}, "type": "Feature"}
{"geometry": {"coordinates": [-91.690358813, 45.946634206], "type": "Point"}, "id": "aoxmhxWmLEyYMtS9hyotXmNtKlw=", "properties": {"@source_uri": "https://tools.usps.com/UspsToolsRestServices/rest/POLocator/findLocations", "@spider": "usps_collection_boxes", "addr:city": "SPRINGBROOK", "addr:country": "US", "addr:postcode": "54875", "addr:state": "WI", "addr:street_address": "W3060 HIGHWAY 63", "amenity": "post_box", "collection_times": "Mo-Fr 14:00; Sa 11:15", "indoor": "yes", "note": "ON 12/24 AND 12/31, THIS BOX MAY BE COLLECTED AS EARLY AS 12 NOON.", "nsi_id": "unitedstatespostalservice-a77078", "operator": "United States Postal Service", "operator:short": "USPS", "operator:type": "public", "operator:wikidata": "Q668687", "ref": "5487500002"}, "type": "Feature"}
{"geometry": {"coordinates": [-91.540134237, 45.846097982], "type": "Point"}, "id": "Uj2be-UFj_BmEYaeVL1rdwwyaws=", "properties": {"@source_uri": "https://tools.usps.com/UspsToolsRestServices/rest/POLocator/findLocations", "@spider": "usps_collection_boxes", "addr:city": "STONE LAKE", "addr:country": "US", "addr:postcode": "54876", "addr:state": "WI", "addr:street_address": "16865 W 1ST ST", "amenity": "post_box", "collection_times": "Mo-Fr 14:00; Sa 09:15", "note": "ON 12/24 AND 12/31, THIS BOX MAY BE COLLECTED AS EARLY AS 12 NOON.", "nsi_id": "unitedstatespostalservice-a77078", "operator": "United States Postal Service", "operator:short": "USPS", "operator:type": "public", "operator:wikidata": "Q668687", "ref": "5487600000"}, "type": "Feature"}
{"geometry": {"coordinates": [-91.540134237, 45.846097982], "type": "Point"}, "id": "LQ1h0-gZ7wCmYjpwHXY9-I0PJPo=", "properties": {"@source_uri": "https://tools.usps.com/UspsToolsRestServices/rest/POLocator/findLocations", "@spider": "usps_collection_boxes", "addr:city": "STONE LAKE", "addr:country": "US", "addr:postcode": "54876", "addr:state": "WI", "addr:street_address": "16865 W 1ST ST", "amenity": "post_box", "collection_times": "Mo-Fr 14:00; Sa 09:15", "indoor": "yes", "note": "ON 12/24 AND 12/31, THIS BOX MAY BE COLLECTED AS EARLY AS 12 NOON.", "nsi_id": "unitedstatespostalservice-a77078", "operator": "United States Postal Service", "operator:short": "USPS", "operator:type": "public", "operator:wikidata": "Q668687", "ref": "5487600002"}, "type": "Feature"}
{"geometry": {"coordinates": [-91.540134237, 45.846097982], "type": "Point"}, "id": "F3U4cTtOBLzLxFQ_9Eh94vOYXug=", "properties": {"@source_uri": "https://tools.usps.com/UspsToolsRestServices/rest/POLocator/findLocations", "@spider": "usps_collection_boxes", "addr:city": "STONE LAKE", "addr:country": "US", "addr:postcode": "54876", "addr:state": "WI", "addr:street_address": "16865 W 1ST ST N", "amenity": "post_box", "collection_times": "Mo-Fr 14:00; Sa 09:30", "indoor": "yes", "note": "ON 12/24 AND 12/31, THIS BOX MAY BE COLLECTED AS EARLY AS 12 NOON.", "nsi_id": "unitedstatespostalservice-a77078", "operator": "United States Postal Service", "operator:short": "USPS", "operator:type": "public", "operator:wikidata": "Q668687", "ref": "5487600003"}, "type": "Feature"}
{"geometry": {"coordinates": [-92.1040116197, 46.7203297864], "type": "Point"}, "id": "36ZRcInlK80exTp3I1e4KRdGMKY=", "properties": {"@source_uri": "https://tools.usps.com/UspsToolsRestServices/rest/POLocator/findLocations", "@spider": "usps_collection_boxes", "addr:city": "SUPERIOR", "addr:country": "US", "addr:postcode": "54880", "addr:state": "WI", "addr:street_address": "1507 TOWER AVE", "amenity": "post_box", "collection_times": "Mo-Sa 13:00", "note": "ON 12/24 AND 12/31, THIS BOX MAY BE COLLECTED AS EARLY AS 12 NOON.", "nsi_id": "unitedstatespostalservice-a77078", "operator": "United States Postal Service", "operator:short": "USPS", "operator:type": "public", "operator:wikidata": "Q668687", "ref": "5488000004"}, "type": "Feature"}
{"geometry": {"coordinates": [-92.097112668, 46.720663522], "type": "Point"}, "id": "O7BVINQULavYkNEtwyzFkLWTvBU=", "properties": {"@source_uri": "https://tools.usps.com/UspsToolsRestServices/rest/POLocator/findLocations", "@spider": "usps_collection_boxes", "addr:city": "SUPERIOR", "addr:country": "US", "addr:postcode": "54880", "addr:state": "WI", "addr:street_address": "1313 BELKNAP ST", "amenity": "post_box", "collection_times": "Mo-Fr 13:00", "note": "ON 12/24 AND 12/31, THIS BOX MAY BE COLLECTED AS EARLY AS 12 NOON.", "nsi_id": "unitedstatespostalservice-a77078", "operator": "United States Postal Service", "operator:short": "USPS", "operator:type": "public", "operator:wikidata": "Q668687", "ref": "5488000008"}, "type": "Feature"}
{"geometry": {"coordinates": [-92.073720704, 46.706245881], "type": "Point"}, "id": "7ricHbOlm0jCCDCVQh1GfXs3Nbw=", "properties": {"@source_uri": "https://tools.usps.com/UspsToolsRestServices/rest/POLocator/findLocations", "@spider": "usps_collection_boxes", "addr:city": "SUPERIOR", "addr:country": "US", "addr:postcode": "54880", "addr:state": "WI", "addr:street_address": "69 N 28TH ST E", "amenity": "post_box", "collection_times": "Mo-Sa 11:00", "nsi_id": "unitedstatespostalservice-a77078", "operator": "United States Postal Service", "operator:short": "USPS", "operator:type": "public", "operator:wikidata": "Q668687", "ref": "5488000013"}, "type": "Feature"}
{"geometry": {"coordinates": [-92.106994044, 46.719810503], "type": "Point"}, "id": "yuWRSN2w8yxmAdEsG5Pyh6OMuKk=", "properties": {"@source_uri": "https://tools.usps.com/UspsToolsRestServices/rest/POLocator/findLocations", "@spider": "usps_collection_boxes", "addr:city": "SUPERIOR", "addr:country": "US", "addr:postcode": "54880", "addr:state": "WI", "addr:street_address": "1515 OAKES AVE", "amenity": "post_box", "collection_times": "Mo-Sa 13:00", "note": "ON 12/24 AND 12/31, THIS BOX MAY BE COLLECTED AS EARLY AS 12 NOON.", "nsi_id": "unitedstatespostalservice-a77078", "operator": "United States Postal Service", "operator:short": "USPS", "operator:type": "public", "operator:wikidata": "Q668687", "ref": "5488000025"}, "type": "Feature"}
{"geometry": {"coordinates": [-92.103952559, 46.725183335], "type": "Point"}, "id": "NkjUj5puVYXQocszi85FUmRffdo=", "properties": {"@source_uri": "https://tools.usps.com/UspsToolsRestServices/rest/POLocator/findLocations", "@spider": "usps_collection_boxes", "addr:city": "SUPERIOR", "addr:country": "US", "addr:postcode": "54880", "addr:state": "WI", "addr:street_address": "1101 TOWER AVE", "amenity": "post_box", "collection_times": "Mo-Sa 13:00", "note": "ON 12/24 AND 12/31, THIS BOX MAY BE COLLECTED AS EARLY AS 12 NOON.", "nsi_id": "unitedstatespostalservice-a77078", "operator": "United States Postal Service", "operator:short": "USPS", "operator:type": "public", "operator:wikidata": "Q668687", "ref": "5488000029"}, "type": "Feature"}
{"geometry": {"coordinates": [-92.1221235, 46.713445471], "type": "Point"}, "id": "VpXH3vtyy5c6o-ukxfndbDSwWPk=", "properties": {"@source_uri": "https://tools.usps.com/UspsToolsRestServices/rest/POLocator/findLocations", "@spider": "usps_collection_boxes", "addr:city": "SUPERIOR", "addr:country": "US", "addr:postcode": "54880", "addr:state": "WI", "addr:street_address": "3004 N 21ST ST", "amenity": "post_box", "collection_times": "Mo-Sa 12:00", "nsi_id": "unitedstatespostalservice-a77078", "operator": "United States Postal Service", "operator:short": "USPS", "operator:type": "public", "operator:wikidata": "Q668687", "ref": "5488000040"}, "type": "Feature"}
{"geometry": {"coordinates": [-92.104041588, 46.714113587], "type": "Point"}, "id": "--_I2s_7dF7sTmMtM0zqBRvEUp0=", "properties": {"@source_uri": "https://tools.usps.com/UspsToolsRestServices/rest/POLocator/findLocations", "@spider": "usps_collection_boxes", "addr:city": "SUPERIOR", "addr:country": "US", "addr:postcode": "54880", "addr:state": "WI", "addr:street_address": "2015 TOWER AVE", "amenity": "post_box", "collection_times": "Mo-Sa 12:00", "nsi_id": "unitedstatespostalservice-a77078", "operator": "United States Postal Service", "operator:short": "USPS", "operator:type": "public", "operator:wikidata": "Q668687", "ref": "5488000041"}, "type": "Feature"}
{"geometry": {"coordinates": [-92.049464998, 46.704124224], "type": "Point"}, "id": "KmR_v6hiaz-slPZrMtEoGHj8Q5s=", "properties": {"@source_uri": "https://tools.usps.com/UspsToolsRestServices/rest/POLocator/findLocations", "@spider": "usps_collection_boxes", "addr:city": "SUPERIOR", "addr:country": "US", "addr:postcode": "54880", "addr:state": "WI", "addr:street_address": "2221 E 5TH ST", "amenity": "post_box", "collection_times": "Mo-Sa 11:00", "nsi_id": "unitedstatespostalservice-a77078", "operator": "United States Postal Service", "operator:short": "USPS", "operator:type": "public", "operator:wikidata": "Q668687", "ref": "5488000043"}, "type": "Feature"}
{"geometry": {"coordinates": [-92.104083599, 46.705428503], "type": "Point"}, "id": "NfeSXL4A-hpHWMBcUZnSXytmtc4=", "properties": {"@source_uri": "https://tools.usps.com/UspsToolsRestServices/rest/POLocator/findLocations", "@spider": "usps_collection_boxes", "addr:city": "SUPERIOR", "addr:country": "US", "addr:postcode": "54880", "addr:state": "WI", "addr:street_address": "2817 TOWER AVE", "amenity": "post_box", "collection_times": "Mo-Sa 12:00", "nsi_id": "unitedstatespostalservice-a77078", "operator": "United States Postal Service", "operator:short": "USPS", "operator:type": "public", "operator:wikidata": "Q668687", "ref": "5488000045"}, "type": "Feature"}
{"geometry": {"coordinates": [-92.025472698, 46.689425875], "type": "Point"}, "id": "0MrpkC7nF3mQOQ1GN7YNvmUBdCA=", "properties": {"@source_uri": "https://tools.usps.com/UspsToolsRestServices/rest/POLocator/findLocations", "@spider": "usps_collection_boxes", "addr:city": "SUPERIOR", "addr:country": "US", "addr:postcode": "54880", "addr:state": "WI", "addr:street_address": "3824 E 2ND ST", "amenity": "post_box", "collection_times": "Mo-Sa 11:00", "nsi_id": "unitedstatespostalservice-a77078", "operator": "United States Postal Service", "operator:short": "USPS", "operator:type": "public", "operator:wikidata": "Q668687", "ref": "5488000046"}, "type": "Feature"}
{"geometry": {"coordinates": [-92.012204976, 46.679074177], "type": "Point"}, "id": "9xaV6eksFGml5smbXPDbSFKNhZw=", "properties": {"@source_uri": "https://tools.usps.com/UspsToolsRestServices/rest/POLocator/findLocations", "@spider": "usps_collection_boxes", "addr:city": "SUPERIOR", "addr:country": "US", "addr:postcode": "54880", "addr:state": "WI", "addr:street_address": "4827 E 2ND ST", "amenity": "post_box", "collection_times": "Mo-Sa 11:00", "nsi_id": "unitedstatespostalservice-a77078", "operator": "United States Postal Service", "operator:short": "USPS", "operator:type": "public", "operator:wikidata": "Q668687", "ref": "5488000048"}, "type": "Feature"}
{"geometry": {"coordinates": [-92.104170052, 46.694312361], "type": "Point"}, "id": "ueBAONtKYbMKAL0SB2D4I-3ZIAw=", "properties": {"@source_uri": "https://tools.usps.com/UspsToolsRestServices/rest/POLocator/findLocations", "@spider": "usps_collection_boxes", "addr:city": "SUPERIOR", "addr:country": "US", "addr:postcode": "54880", "addr:state": "WI", "addr:street_address": "3705 TOWER AVE", "amenity": "post_box", "collection_times": "Mo-Sa 09:00", "nsi_id": "unitedstatespostalservice-a77078", "operator": "United States Postal Service", "operator:short": "USPS", "operator:type": "public", "operator:wikidata": "Q668687", "ref": "5488000051"}, "type": "Feature"}
{"geometry": {"coordinates": [-92.038622257, 46.699733903], "type": "Point"}, "id": "W6h4u0sloTpe-I9099osOR9kaT8=", "properties": {"@source_uri": "https://tools.usps.com/UspsToolsRestServices/rest/POLocator/findLocations", "@spider": "usps_collection_boxes", "addr:city": "SUPERIOR", "addr:country": "US", "addr:postcode": "54880", "addr:state": "WI", "addr:street_address": "2820 E 2ND ST", "amenity": "post_box", "collection_times": "Mo-Sa 11:00", "nsi_id": "unitedstatespostalservice-a77078", "operator": "United States Postal Service", "operator:short": "USPS", "operator:type": "public", "operator:wikidata": "Q668687", "ref": "5488000052"}, "type": "Feature"}
{"geometry": {"coordinates": [-92.089494, 46.720635502], "type": "Point"}, "id": "uVG1Zu6hr9j8RKd8AjF2u5v43k0=", "properties": {"@source_uri": "https://tools.usps.com/UspsToolsRestServices/rest/POLocator/findLocations", "@spider": "usps_collection_boxes", "addr:city": "SUPERIOR", "addr:country": "US", "addr:postcode": "54880", "addr:state": "WI", "addr:street_address": "805 BELKNAP ST", "amenity": "post_box", "collection_times": "Mo-Sa 14:15", "indoor": "yes", "note": "ON 12/24 AND 12/31, THIS BOX MAY BE COLLECTED AS EARLY AS 12 NOON.", "nsi_id": "unitedstatespostalservice-a77078", "operator": "United States Postal Service", "operator:short": "USPS", "operator:type": "public", "operator:wikidata": "Q668687", "ref": "5488000053"}, "type": "Feature"}
{"geometry": {"coordinates": [-92.089494, 46.720635502], "type": "Point"}, "id": "NDHbfwgGTsSYkDv-8ndw9LyyWDk=", "properties": {"@source_uri": "https://tools.usps.com/UspsToolsRestServices/rest/POLocator/findLocations", "@spider": "usps_collection_boxes", "addr:city": "SUPERIOR", "addr:country": "US", "addr:postcode": "54880", "addr:state": "WI", "addr:street_address": "805 BELKNAP ST", "amenity": "post_box", "collection_times": "Mo-Sa 14:15", "note": "ON 12/24 AND 12/31, THIS BOX MAY BE COLLECTED AS EARLY AS 12 NOON.", "nsi_id": "unitedstatespostalservice-a77078", "operator": "United States Postal Service", "operator:short": "USPS", "operator:type": "public", "operator:wikidata": "Q668687", "ref": "5488000054"}, "type": "Feature"}
{"geometry": {"coordinates": [-92.103973113, 46.722924671], "type": "Point"}, "id": "tKS3C0Synswhgqns-EerNpX0yOs=", "properties": {"@source_uri": "https://tools.usps.com/UspsToolsRestServices/rest/POLocator/findLocations", "@spider": "usps_collection_boxes", "addr:city": "SUPERIOR", "addr:country": "US", "addr:postcode": "54880", "addr:state": "WI", "addr:street_address": "1301 TOWER AVE", "amenity": "post_box", "collection_times": "Mo-Sa 13:00", "note": "ON 12/24 AND 12/31, THIS BOX MAY BE COLLECTED AS EARLY AS 12 NOON.", "nsi_id": "unitedstatespostalservice-a77078", "operator": "United States Postal Service", "operator:short": "USPS", "operator:type": "public", "operator:wikidata": "Q668687", "ref": "5488000057"}, "type": "Feature"}
{"geometry": {"coordinates": [-92.104414029, 46.663236], "type": "Point"}, "id": "sd4AcX-5-CNAgUAjSS3yRISUHwA=", "properties": {"@source_uri": "https://tools.usps.com/UspsToolsRestServices/rest/POLocator/findLocations", "@spider": "usps_collection_boxes", "addr:city": "SUPERIOR", "addr:country": "US", "addr:postcode": "54880", "addr:state": "WI", "addr:street_address": "6301 TOWER AVE", "amenity": "post_box", "collection_times": "Mo-Sa 11:30", "nsi_id": "unitedstatespostalservice-a77078", "operator": "United States Postal Service", "operator:short": "USPS", "operator:type": "public", "operator:wikidata": "Q668687", "ref": "5488000063"}, "type": "Feature"}
{"geometry": {"coordinates": [-92.089494, 46.720635502], "type": "Point"}, "id": "C_AyNa4w4HohiMyTObMDF_hrHYI=", "properties": {"@source_uri": "https://tools.usps.com/UspsToolsRestServices/rest/POLocator/findLocations", "@spider": "usps_collection_boxes", "addr:city": "SUPERIOR", "addr:country": "US", "addr:postcode": "54880", "addr:state": "WI", "addr:street_address": "805 BELKNAP ST", "amenity": "post_box", "collection_times": "Mo-Sa 14:15", "indoor": "yes", "note": "ON 12/24 AND 12/31, THIS BOX MAY BE COLLECTED AS EARLY AS 12 NOON.", "nsi_id": "unitedstatespostalservice-a77078", "operator": "United States Postal Service", "operator:short": "USPS", "operator:type": "public", "operator:wikidata": "Q668687", "ref": "5488000064"}, "type": "Feature"}
{"geometry": {"coordinates": [-92.089494, 46.720635502], "type": "Point"}, "id": "xn_NIDPuHnv9bpKuOfNoNpt20Z0=", "properties": {"@source_uri": "https://tools.usps.com/UspsToolsRestServices/rest/POLocator/findLocations", "@spider": "usps_collection_boxes", "addr:city": "SUPERIOR", "addr:country": "US", "addr:postcode": "54880", "addr:state": "WI", "addr:street_address": "805 BELKNAP ST", "amenity": "post_box", "collection_times": "Mo-Sa 14:15", "indoor": "yes", "note": "ON 12/24 AND 12/31, THIS BOX MAY BE COLLECTED AS EARLY AS 12 NOON.", "nsi_id": "unitedstatespostalservice-a77078", "operator": "United States Postal Service", "operator:short": "USPS", "operator:type": "public", "operator:wikidata": "Q668687", "ref": "5488000065"}, "type": "Feature"}
{"geometry": {"coordinates": [-92.104061966, 46.697499639], "type": "Point"}, "id": "n5QhiAMLofyF1H-7EDFYD7ON7kg=", "properties": {"@source_uri": "https://tools.usps.com/UspsToolsRestServices/rest/POLocator/findLocations", "@spider": "usps_collection_boxes", "addr:city": "SUPERIOR", "addr:country": "US", "addr:postcode": "54880", "addr:state": "WI", "addr:street_address": "3500 TOWER AVE", "amenity": "post_box", "collection_times": "Mo-Fr 11:30; Sa 09:30", "nsi_id": "unitedstatespostalservice-a77078", "operator": "United States Postal Service", "operator:short": "USPS", "operator:type": "public", "operator:wikidata": "Q668687", "ref": "5488000066"}, "type": "Feature"}
{"geometry": {"coordinates": [-92.047039805, 46.706337681], "type": "Point"}, "id": "RAdk_viT4joevnikg29hj60iJMA=", "properties": {"@source_uri": "https://tools.usps.com/UspsToolsRestServices/rest/POLocator/findLocations", "@spider": "usps_collection_boxes", "addr:city": "SUPERIOR", "addr:country": "US", "addr:postcode": "54880", "addr:state": "WI", "addr:street_address": "2202 E 2ND ST", "amenity": "post_box", "collection_times": "Mo-Sa 09:30", "nsi_id": "unitedstatespostalservice-a77078", "operator": "United States Postal Service", "operator:short": "USPS", "operator:type": "public", "operator:wikidata": "Q668687", "ref": "5488000067"}, "type": "Feature"}
{"geometry": {"coordinates": [-92.089494, 46.720635502], "type": "Point"}, "id": "CNQcMM_t8D4e9cTGvE18_37nRBQ=", "properties": {"@source_uri": "https://tools.usps.com/UspsToolsRestServices/rest/POLocator/findLocations", "@spider": "usps_collection_boxes", "addr:city": "SUPERIOR", "addr:country": "US", "addr:postcode": "54880", "addr:state": "WI", "addr:street_address": "805 BELKNAP ST", "amenity": "post_box", "collection_times": "Mo-Fr 14:15; Sa 12:00", "indoor": "yes", "note": "ON 12/24 AND 12/31, THIS BOX MAY BE COLLECTED AS EARLY AS 12 NOON.", "nsi_id": "unitedstatespostalservice-a77078", "operator": "United States Postal Service", "operator:short": "USPS", "operator:type": "public", "operator:wikidata": "Q668687", "ref": "5488000071"}, "type": "Feature"}
{"geometry": {"coordinates": [-91.827264537, 45.899201231], "type": "Point"}, "id": "KFopbD9CPUCq3w2uhd70FSRP6Jc=", "properties": {"@source_uri": "https://tools.usps.com/UspsToolsRestServices/rest/POLocator/findLocations", "@spider": "usps_collection_boxes", "addr:city": "TREGO", "addr:country": "US", "addr:postcode": "54888", "addr:state": "WI", "addr:street_address": "N7288 SERVICE RD", "amenity": "post_box", "collection_times": "Mo-Fr 12:15; Sa 13:30", "note": "ON 12/24 AND 12/31, THIS BOX MAY BE COLLECTED AS EARLY AS 12 NOON.", "nsi_id": "unitedstatespostalservice-a77078", "operator": "United States Postal Service", "operator:short": "USPS", "operator:type": "public", "operator:wikidata": "Q668687", "ref": "5488800001"}, "type": "Feature"}
{"geometry": {"coordinates": [-91.827264537, 45.899201231], "type": "Point"}, "id": "psnCBHKxY7UzcuDZA8r7jatNg0U=", "properties": {"@source_uri": "https://tools.usps.com/UspsToolsRestServices/rest/POLocator/findLocations", "@spider": "usps_collection_boxes", "addr:city": "TREGO", "addr:country": "US", "addr:postcode": "54888", "addr:state": "WI", "addr:street_address": "N7288 SERVICE RD", "amenity": "post_box", "collection_times": "Mo-Fr 12:15; Sa 13:30", "indoor": "yes", "note": "ON 12/24 AND 12/31, THIS BOX MAY BE COLLECTED AS EARLY AS 12 NOON.", "nsi_id": "unitedstatespostalservice-a77078", "operator": "United States Postal Service", "operator:short": "USPS", "operator:type": "public", "operator:wikidata": "Q668687", "ref": "5488800002"}, "type": "Feature"}
{"geometry": {"coordinates": [-91.827264537, 45.899201231], "type": "Point"}, "id": "r5YnKE7T7_-pJBOmrxXD4A_iaGY=", "properties": {"@source_uri": "https://tools.usps.com/UspsToolsRestServices/rest/POLocator/findLocations", "@spider": "usps_collection_boxes", "addr:city": "TREGO", "addr:country": "US", "addr:postcode": "54888", "addr:state": "WI", "addr:street_address": "N7288 SERVICE RD", "amenity": "post_box", "collection_times": "Mo-Fr 12:30; Sa 13:45", "indoor": "yes", "note": "ON 12/24 AND 12/31, THIS BOX MAY BE COLLECTED AS EARLY AS 12 NOON.", "nsi_id": "unitedstatespostalservice-a77078", "operator": "United States Postal Service", "operator:short": "USPS", "operator:type": "public", "operator:wikidata": "Q668687", "ref": "5488800004"}, "type": "Feature"}
{"geometry": {"coordinates": [-92.14241418, 45.393135538], "type": "Point"}, "id": "fX1TseBqYpg-hDWWL43jshg_BRI=", "properties": {"@source_uri": "https://tools.usps.com/UspsToolsRestServices/rest/POLocator/findLocations", "@spider": "usps_collection_boxes", "addr:city": "TURTLE LAKE", "addr:country": "US", "addr:postcode": "54889", "addr:state": "WI", "addr:street_address": "300 MAPLE ST S", "amenity": "post_box", "collection_times": "Mo-Fr 14:30; Sa 10:15", "note": "ON 12/24 AND 12/31, THIS BOX MAY BE COLLECTED AS EARLY AS 12 NOON.", "nsi_id": "unitedstatespostalservice-a77078", "operator": "United States Postal Service", "operator:short": "USPS", "operator:type": "public", "operator:wikidata": "Q668687", "ref": "5488900000"}, "type": "Feature"}
{"geometry": {"coordinates": [-92.14241418, 45.393135538], "type": "Point"}, "id": "HGwl41pqA_HwrxAiQaGuFTmIRjA=", "properties": {"@source_uri": "https://tools.usps.com/UspsToolsRestServices/rest/POLocator/findLocations", "@spider": "usps_collection_boxes", "addr:city": "TURTLE LAKE", "addr:country": "US", "addr:postcode": "54889", "addr:state": "WI", "addr:street_address": "300 MAPLE ST S", "amenity": "post_box", "collection_times": "Mo-Fr 14:30; Sa 10:15", "indoor": "yes", "note": "ON 12/24 AND 12/31, THIS BOX MAY BE COLLECTED AS EARLY AS 12 NOON.", "nsi_id": "unitedstatespostalservice-a77078", "operator": "United States Postal Service", "operator:short": "USPS", "operator:type": "public", "operator:wikidata": "Q668687", "ref": "5488900004"}, "type": "Feature"}
{"geometry": {"coordinates": [-92.14241418, 45.393135538], "type": "Point"}, "id": "34q0FKmszBxxMbRZp0A8RsOUBps=", "properties": {"@source_uri": "https://tools.usps.com/UspsToolsRestServices/rest/POLocator/findLocations", "@spider": "usps_collection_boxes", "addr:city": "TURTLE LAKE", "addr:country": "US", "addr:postcode": "54889", "addr:state": "WI", "addr:street_address": "300 MAPLE ST S", "amenity": "post_box", "collection_times": "Mo-Fr 14:30; Sa 10:30", "indoor": "yes", "note": "ON 12/24 AND 12/31, THIS BOX MAY BE COLLECTED AS EARLY AS 12 NOON.", "nsi_id": "unitedstatespostalservice-a77078", "operator": "United States Postal Service", "operator:short": "USPS", "operator:type": "public", "operator:wikidata": "Q668687", "ref": "5488900005"}, "type": "Feature"}
{"geometry": {"coordinates": [-90.900072, 46.670478496], "type": "Point"}, "id": "n7mUft3Ke-BxkNSmXiZTSFTncZ4=", "properties": {"@source_uri": "https://tools.usps.com/UspsToolsRestServices/rest/POLocator/findLocations", "@spider": "usps_collection_boxes", "addr:city": "WASHBURN", "addr:country": "US", "addr:postcode": "54891", "addr:state": "WI", "addr:street_address": "428 W BAYFIELD ST", "amenity": "post_box", "collection_times": "Mo-Fr 11:30; Sa 10:45", "nsi_id": "unitedstatespostalservice-a77078", "operator": "United States Postal Service", "operator:short": "USPS", "operator:type": "public", "operator:wikidata": "Q668687", "ref": "5489100001"}, "type": "Feature"}
{"geometry": {"coordinates": [-90.900072, 46.670478496], "type": "Point"}, "id": "zFCoY73a0jM2NHvL4Xl_eYTtxww=", "properties": {"@source_uri": "https://tools.usps.com/UspsToolsRestServices/rest/POLocator/findLocations", "@spider": "usps_collection_boxes", "addr:city": "WASHBURN", "addr:country": "US", "addr:postcode": "54891", "addr:state": "WI", "addr:street_address": "428 W BAYFIELD ST", "amenity": "post_box", "collection_times": "Mo-Fr 11:30; Sa 10:30", "indoor": "yes", "nsi_id": "unitedstatespostalservice-a77078", "operator": "United States Postal Service", "operator:short": "USPS", "operator:type": "public", "operator:wikidata": "Q668687", "ref": "5489100004"}, "type": "Feature"}
{"geometry": {"coordinates": [-90.900072, 46.670478496], "type": "Point"}, "id": "Fqs74BVH2an2Zt8CALKJ1euP4wU=", "properties": {"@source_uri": "https://tools.usps.com/UspsToolsRestServices/rest/POLocator/findLocations", "@spider": "usps_collection_boxes", "addr:city": "WASHBURN", "addr:country": "US", "addr:postcode": "54891", "addr:state": "WI", "addr:street_address": "428 W BAYFIELD ST", "amenity": "post_box", "collection_times": "Mo-Fr 11:30; Sa 11:00", "indoor": "yes", "nsi_id": "unitedstatespostalservice-a77078", "operator": "United States Postal Service", "operator:short": "USPS", "operator:type": "public", "operator:wikidata": "Q668687", "ref": "5489100007"}, "type": "Feature"}
{"geometry": {"coordinates": [-92.36481, 45.87974], "type": "Point"}, "id": "jSNrlD_TBtQuIZcKqrLI6kMurFc=", "properties": {"@source_uri": "https://tools.usps.com/UspsToolsRestServices/rest/POLocator/findLocations", "@spider": "usps_collection_boxes", "addr:city": "WEBSTER", "addr:country": "US", "addr:postcode": "54893", "addr:state": "WI", "addr:street_address": "7426 MAIN ST W", "amenity": "post_box", "collection_times": "Mo-Fr 13:00; Sa 09:45", "note": "ON 12/24 AND 12/31, THIS BOX MAY BE COLLECTED AS EARLY AS 12 NOON.", "nsi_id": "unitedstatespostalservice-a77078", "operator": "United States Postal Service", "operator:short": "USPS", "operator:type": "public", "operator:wikidata": "Q668687", "ref": "5489300001"}, "type": "Feature"}
{"geometry": {"coordinates": [-92.36481, 45.87974], "type": "Point"}, "id": "Ml1X3qJZ4SMQ5X0ahBRn2sszcMs=", "properties": {"@source_uri": "https://tools.usps.com/UspsToolsRestServices/rest/POLocator/findLocations", "@spider": "usps_collection_boxes", "addr:city": "WEBSTER", "addr:country": "US", "addr:postcode": "54893", "addr:state": "WI", "addr:street_address": "7426 MAIN ST W", "amenity": "post_box", "collection_times": "Mo-Fr 13:00; Sa 10:00", "indoor": "yes", "note": "ON 12/24 AND 12/31, THIS BOX MAY BE COLLECTED AS EARLY AS 12 NOON.", "nsi_id": "unitedstatespostalservice-a77078", "operator": "United States Postal Service", "operator:short": "USPS", "operator:type": "public", "operator:wikidata": "Q668687", "ref": "5489300003"}, "type": "Feature"}
{"geometry": {"coordinates": [-92.36481, 45.87974], "type": "Point"}, "id": "dmuAFY4L1RlX-qkyT4TAboD0qNM=", "properties": {"@source_uri": "https://tools.usps.com/UspsToolsRestServices/rest/POLocator/findLocations", "@spider": "usps_collection_boxes", "addr:city": "WEBSTER", "addr:country": "US", "addr:postcode": "54893", "addr:state": "WI", "addr:street_address": "7426 MAIN ST W", "amenity": "post_box", "collection_times": "Mo-Fr 13:00; Sa 10:00", "indoor": "yes", "note": "ON 12/24 AND 12/31, THIS BOX MAY BE COLLECTED AS EARLY AS 12 NOON.", "nsi_id": "unitedstatespostalservice-a77078", "operator": "United States Postal Service", "operator:short": "USPS", "operator:type": "public", "operator:wikidata": "Q668687", "ref": "5489300004"}, "type": "Feature"}
{"geometry": {"coordinates": [-91.411296431, 45.424322948], "type": "Point"}, "id": "SSMZsrN4rOU9JjVtRB55sAgWdy0=", "properties": {"@source_uri": "https://tools.usps.com/UspsToolsRestServices/rest/POLocator/findLocations", "@spider": "usps_collection_boxes", "addr:city": "WEYERHAEUSER", "addr:country": "US", "addr:postcode": "54895", "addr:state": "WI", "addr:street_address": "W14392 RAILWAY AVE", "amenity": "post_box", "collection_times": "Mo-Fr 10:45; Sa 09:30", "nsi_id": "unitedstatespostalservice-a77078", "operator": "United States Postal Service", "operator:short": "USPS", "operator:type": "public", "operator:wikidata": "Q668687", "ref": "5489500001"}, "type": "Feature"}
{"geometry": {"coordinates": [-91.411296431, 45.424322948], "type": "Point"}, "id": "fXWJhedLOrrUlHdPBN8lbvgMQ9E=", "properties": {"@source_uri": "https://tools.usps.com/UspsToolsRestServices/rest/POLocator/findLocations", "@spider": "usps_collection_boxes", "addr:city": "WEYERHAEUSER", "addr:country": "US", "addr:postcode": "54895", "addr:state": "WI", "addr:street_address": "W14392 RAILWAY AVE", "amenity": "post_box", "collection_times": "Mo-Fr 10:45; Sa 09:30", "indoor": "yes", "nsi_id": "unitedstatespostalservice-a77078", "operator": "United States Postal Service", "operator:short": "USPS", "operator:type": "public", "operator:wikidata": "Q668687", "ref": "5489500002"}, "type": "Feature"}
{"geometry": {"coordinates": [-91.411296431, 45.424322948], "type": "Point"}, "id": "snTCQiIaQD0TPsPiPKuomavfu-o=", "properties": {"@source_uri": "https://tools.usps.com/UspsToolsRestServices/rest/POLocator/findLocations", "@spider": "usps_collection_boxes", "addr:city": "WEYERHAEUSER", "addr:country": "US", "addr:postcode": "54895", "addr:state": "WI", "addr:street_address": "W14392 RAILWAY AVE", "amenity": "post_box", "collection_times": "Mo-Fr 11:00; Sa 09:45", "indoor": "yes", "nsi_id": "unitedstatespostalservice-a77078", "operator": "United States Postal Service", "operator:short": "USPS", "operator:type": "public", "operator:wikidata": "Q668687", "ref": "5489500003"}, "type": "Feature"}
{"geometry": {"coordinates": [-91.01139868, 45.824125536], "type": "Point"}, "id": "wYdATBvQOlYNxSIlv0XyAio4I20=", "properties": {"@source_uri": "https://tools.usps.com/UspsToolsRestServices/rest/POLocator/findLocations", "@spider": "usps_collection_boxes", "addr:city": "WINTER", "addr:country": "US", "addr:postcode": "54896", "addr:state": "WI", "addr:street_address": "5150N MAIN ST", "amenity": "post_box", "collection_times": "Mo-Sa 09:00", "nsi_id": "unitedstatespostalservice-a77078", "operator": "United States Postal Service", "operator:short": "USPS", "operator:type": "public", "operator:wikidata": "Q668687", "ref": "5489600000"}, "type": "Feature"}
{"geometry": {"coordinates": [-91.007829903, 45.825190827], "type": "Point"}, "id": "75hrNzJbHlYgl8cdGlQLNEb88ZU=", "properties": {"@source_uri": "https://tools.usps.com/UspsToolsRestServices/rest/POLocator/findLocations", "@spider": "usps_collection_boxes", "addr:city": "WINTER", "addr:country": "US", "addr:postcode": "54896", "addr:state": "WI", "addr:street_address": "5263 N CEMETERY RD", "amenity": "post_box", "collection_times": "Mo-Fr 13:00; Sa 11:00", "indoor": "yes", "note": "ON 12/24 AND 12/31, THIS BOX MAY BE COLLECTED AS EARLY AS 12 NOON.", "nsi_id": "unitedstatespostalservice-a77078", "operator": "United States Postal Service", "operator:short": "USPS", "operator:type": "public", "operator:wikidata": "Q668687", "ref": "5489600001"}, "type": "Feature"}
{"geometry": {"coordinates": [-91.007829903, 45.825190827], "type": "Point"}, "id": "RO7O2ne-rZlwe9Kth6yM_St-PHA=", "properties": {"@source_uri": "https://tools.usps.com/UspsToolsRestServices/rest/POLocator/findLocations", "@spider": "usps_collection_boxes", "addr:city": "WINTER", "addr:country": "US", "addr:postcode": "54896", "addr:state": "WI", "addr:street_address": "5263 N CEMETERY RD", "amenity": "post_box", "collection_times": "Mo-Fr 13:00; Sa 10:45", "note": "ON 12/24 AND 12/31, THIS BOX MAY BE COLLECTED AS EARLY AS 12 NOON.", "nsi_id": "unitedstatespostalservice-a77078", "operator": "United States Postal Service", "operator:short": "USPS", "operator:type": "public", "operator:wikidata": "Q668687", "ref": "5489600003"}, "type": "Feature"}
{"geometry": {"coordinates": [-91.007829903, 45.825190827], "type": "Point"}, "id": "EOfhAH5idRfi6Oloj1eJkBIOKKc=", "properties": {"@source_uri": "https://tools.usps.com/UspsToolsRestServices/rest/POLocator/findLocations", "@spider": "usps_collection_boxes", "addr:city": "WINTER", "addr:country": "US", "addr:postcode": "54896", "addr:state": "WI", "addr:street_address": "5263 N CEMETERY RD", "amenity": "post_box", "collection_times": "Mo-Fr 13:00; Sa 11:00", "indoor": "yes", "note": "ON 12/24 AND 12/31, THIS BOX MAY BE COLLECTED AS EARLY AS 12 NOON.", "nsi_id": "unitedstatespostalservice-a77078", "operator": "United States Postal Service", "operator:short": "USPS", "operator:type": "public", "operator:wikidata": "Q668687", "ref": "5489600005"}, "type": "Feature"}
