{"geometry": {"coordinates": [-89.407921, 44.261057], "type": "Point"}, "id": "wr11ybx8IbGvVIOXM3KQjnoakbk=", "properties": {"@spider": "usps_collection_boxes", "addr:city": "ALMOND", "addr:country": "US", "addr:full": "127 MAIN ST", "addr:postcode": "54909", "addr:state": "WI", "brand": "USPS", "collection_times": "Mo-Fr 16:30; Sa 11:00", "name": "USPS COLLECTION BOX - BLUE BOX", "note": "ON 12/24 AND 12/31, THIS BOX MAY BE COLLECTED AS EARLY AS 12 NOON.", "ref": "5490900000"}, "type": "Feature"}
{"geometry": {"coordinates": [-89.407921, 44.261057], "type": "Point"}, "id": "2joZXHRgEVA3kZgUbL66NRrkkU8=", "properties": {"@spider": "usps_collection_boxes", "addr:city": "ALMOND", "addr:country": "US", "addr:full": "127 MAIN ST", "addr:postcode": "54909", "addr:state": "WI", "brand": "USPS", "collection_times": "Mo-Fr 14:45; Sa 09:45", "name": "USPS COLLECTION BOX - PO LOBBY", "note": "ON 12/24 AND 12/31, THIS BOX MAY BE COLLECTED AS EARLY AS 12 NOON.", "ref": "5490900001"}, "type": "Feature"}
{"geometry": {"coordinates": [-89.407921, 44.261057], "type": "Point"}, "id": "h7PZEhNJAzwR1A4sR6aP9LZjR1I=", "properties": {"@spider": "usps_collection_boxes", "addr:city": "ALMOND", "addr:country": "US", "addr:full": "127 MAIN ST", "addr:postcode": "54909", "addr:state": "WI", "brand": "USPS", "collection_times": "Mo-Fr 14:45; Sa 09:45", "name": "USPS COLLECTION BOX - PO LOBBY", "note": "ON 12/24 AND 12/31, THIS BOX MAY BE COLLECTED AS EARLY AS 12 NOON.", "ref": "5490900002"}, "type": "Feature"}
{"geometry": {"coordinates": [-89.407981033, 44.261146749], "type": "Point"}, "id": "T7Gc2XS6mbDIqhaJnf8MqOWv2ZE=", "properties": {"@spider": "usps_collection_boxes", "addr:city": "ALMOND", "addr:country": "US", "addr:full": "127 MAIN ST", "addr:postcode": "54909", "addr:state": "WI", "brand": "USPS", "collection_times": "Mo-Fr 14:45; Sa 09:45", "name": "USPS COLLECTION BOX - PO LOBBY", "note": "ON 12/24 AND 12/31, THIS BOX MAY BE COLLECTED AS EARLY AS 12 NOON.", "ref": "5490900003"}, "type": "Feature"}
{"geometry": {"coordinates": [-89.513621, 44.309556], "type": "Point"}, "id": "yU_GdTYP5zVRsr3HV-VvETbDqrU=", "properties": {"@spider": "usps_collection_boxes", "addr:city": "BANCROFT", "addr:country": "US", "addr:full": "5506 COUNTY RD W", "addr:postcode": "54921", "addr:state": "WI", "brand": "USPS", "collection_times": "Mo-Fr 16:00; Sa 10:15", "name": "USPS COLLECTION BOX - BLUE BOX", "note": "ON 12/24 AND 12/31, THIS BOX MAY BE COLLECTED AS EARLY AS 12 NOON.", "ref": "5492100000"}, "type": "Feature"}
{"geometry": {"coordinates": [-89.513621, 44.309556], "type": "Point"}, "id": "jFJ87fcwjBPBqQxm0Ya0HQjYNw8=", "properties": {"@spider": "usps_collection_boxes", "addr:city": "BANCROFT", "addr:country": "US", "addr:full": "5506 COUNTY RD W", "addr:postcode": "54921", "addr:state": "WI", "brand": "USPS", "collection_times": "Mo-Fr 11:45; Sa 09:45", "name": "USPS COLLECTION BOX - PO LOBBY", "ref": "5492100002"}, "type": "Feature"}
{"geometry": {"coordinates": [-89.513621528, 44.309550519], "type": "Point"}, "id": "okFRtB-lQPGv8vqb9KpdabP3-NA=", "properties": {"@spider": "usps_collection_boxes", "addr:city": "BANCROFT", "addr:country": "US", "addr:full": "5506 COUNTY RD W", "addr:postcode": "54921", "addr:state": "WI", "brand": "USPS", "collection_times": "Mo-Fr 11:45; Sa 09:45", "name": "USPS COLLECTION BOX - PO LOBBY", "ref": "5492100003"}, "type": "Feature"}
{"geometry": {"coordinates": [-88.9743899, 43.967869], "type": "Point"}, "id": "buymSo12b0n3FDLLG2etPSp-wBg=", "properties": {"@spider": "usps_collection_boxes", "addr:city": "BERLIN", "addr:country": "US", "addr:full": "780 BROADWAY ST", "addr:postcode": "54923", "addr:state": "WI", "brand": "USPS", "collection_times": "Mo-Sa 09:00", "name": "USPS COLLECTION BOX - BLUE BOX", "ref": "5492300009"}, "type": "Feature"}
{"geometry": {"coordinates": [-89.015850028, 44.614929983], "type": "Point"}, "id": "E2JWCPNcntmL8bjgJAWMGm_Tobs=", "properties": {"@spider": "usps_collection_boxes", "addr:city": "BIG FALLS", "addr:country": "US", "addr:full": "216 S MAIN ST", "addr:postcode": "54926", "addr:state": "WI", "brand": "USPS", "collection_times": "Mo-Fr 16:15; Sa 11:15", "name": "USPS COLLECTION BOX - BLUE BOX", "note": "ON 12/24 AND 12/31, THIS BOX MAY BE COLLECTED AS EARLY AS 12 NOON.", "ref": "5492600000"}, "type": "Feature"}
{"geometry": {"coordinates": [-89.015850028, 44.614929983], "type": "Point"}, "id": "1K74P0IF644SgV56s7WN2eX_7Gs=", "properties": {"@spider": "usps_collection_boxes", "addr:city": "BIG FALLS", "addr:country": "US", "addr:full": "216 S MAIN ST", "addr:postcode": "54926", "addr:state": "WI", "brand": "USPS", "collection_times": "Mo-Fr 15:45; Sa 11:15", "name": "USPS COLLECTION BOX - PO LOBBY", "note": "ON 12/24 AND 12/31, THIS BOX MAY BE COLLECTED AS EARLY AS 12 NOON.", "ref": "5492600001"}, "type": "Feature"}
{"geometry": {"coordinates": [-89.015850028, 44.614929983], "type": "Point"}, "id": "wRcu29IlPlFdF6X_5wlVPJ8gsoU=", "properties": {"@spider": "usps_collection_boxes", "addr:city": "BIG FALLS", "addr:country": "US", "addr:full": "216 S MAIN ST", "addr:postcode": "54926", "addr:state": "WI", "brand": "USPS", "collection_times": "Mo-Fr 15:45; Sa 11:15", "name": "USPS COLLECTION BOX - PO LOBBY", "note": "ON 12/24 AND 12/31, THIS BOX MAY BE COLLECTED AS EARLY AS 12 NOON.", "ref": "5492600002"}, "type": "Feature"}
{"geometry": {"coordinates": [-89.522469, 44.03383], "type": "Point"}, "id": "-A6sTft3Itm5NA6HHWhXtlSXIQE=", "properties": {"@spider": "usps_collection_boxes", "addr:city": "COLOMA", "addr:country": "US", "addr:full": "145 N FRONT ST", "addr:postcode": "54930", "addr:state": "WI", "brand": "USPS", "collection_times": "Mo-Fr 15:30; Sa 10:30", "name": "USPS COLLECTION BOX - BLUE BOX", "note": "ON 12/24 AND 12/31, THIS BOX MAY BE COLLECTED AS EARLY AS 12 NOON.", "ref": "5493000000"}, "type": "Feature"}
{"geometry": {"coordinates": [-89.522469, 44.03383], "type": "Point"}, "id": "WGfq-Hu8YWRZ2LhF8wnBLxVKqCs=", "properties": {"@spider": "usps_collection_boxes", "addr:city": "COLOMA", "addr:country": "US", "addr:full": "145 N FRONT ST", "addr:postcode": "54930", "addr:state": "WI", "brand": "USPS", "collection_times": "Mo-Fr 15:30; Sa 10:30", "name": "USPS COLLECTION BOX - PO LOBBY", "note": "ON 12/24 AND 12/31, THIS BOX MAY BE COLLECTED AS EARLY AS 12 NOON.", "ref": "5493000001"}, "type": "Feature"}
{"geometry": {"coordinates": [-89.52246819, 44.033823], "type": "Point"}, "id": "tW6rui7A44wvrvEFYV9AWetSq9s=", "properties": {"@spider": "usps_collection_boxes", "addr:city": "COLOMA", "addr:country": "US", "addr:full": "145 N FRONT ST", "addr:postcode": "54930", "addr:state": "WI", "brand": "USPS", "collection_times": "Mo-Fr 15:30; Sa 10:30", "name": "USPS COLLECTION BOX - PO LOBBY", "note": "ON 12/24 AND 12/31, THIS BOX MAY BE COLLECTED AS EARLY AS 12 NOON.", "ref": "5493000003"}, "type": "Feature"}
{"geometry": {"coordinates": [-89.5242514505, 44.1336385434], "type": "Point"}, "id": "q77YlHjiZGach0fp2YeUCMPYg4Y=", "properties": {"@spider": "usps_collection_boxes", "addr:city": "HANCOCK", "addr:country": "US", "addr:full": "127 W NORTH LAKE ST", "addr:postcode": "54943", "addr:state": "WI", "brand": "USPS", "collection_times": "Mo-Fr 15:30; Sa 10:15", "name": "USPS COLLECTION BOX - BLUE BOX", "note": "ON 12/24 AND 12/31, THIS BOX MAY BE COLLECTED AS EARLY AS 12 NOON.", "ref": "5494300000"}, "type": "Feature"}
{"geometry": {"coordinates": [-89.524253, 44.133642], "type": "Point"}, "id": "SdCJOjUNis7NcDSRhENzQembEOc=", "properties": {"@spider": "usps_collection_boxes", "addr:city": "HANCOCK", "addr:country": "US", "addr:full": "127 W NORTH LAKE ST", "addr:postcode": "54943", "addr:state": "WI", "brand": "USPS", "collection_times": "Mo-Fr 14:15; Sa 08:45", "name": "USPS COLLECTION BOX - PO LOBBY", "note": "ON 12/24 AND 12/31, THIS BOX MAY BE COLLECTED AS EARLY AS 12 NOON.", "ref": "5494300001"}, "type": "Feature"}
{"geometry": {"coordinates": [-89.52425145, 44.133638543], "type": "Point"}, "id": "XMYEzHjz0k_KtZqMxfO1Ncocrro=", "properties": {"@spider": "usps_collection_boxes", "addr:city": "HANCOCK", "addr:country": "US", "addr:full": "127 W NORTH LAKE ST", "addr:postcode": "54943", "addr:state": "WI", "brand": "USPS", "collection_times": "Mo-Fr 14:15; Sa 08:45", "name": "USPS COLLECTION BOX - PO LOBBY", "note": "ON 12/24 AND 12/31, THIS BOX MAY BE COLLECTED AS EARLY AS 12 NOON.", "ref": "5494300002"}, "type": "Feature"}
{"geometry": {"coordinates": [-89.130853, 44.508367], "type": "Point"}, "id": "d1UPCt1zyzpe_aLi9dKjxKhmfLo=", "properties": {"@spider": "usps_collection_boxes", "addr:city": "IOLA", "addr:country": "US", "addr:full": "190 N MAIN ST", "addr:postcode": "54945", "addr:state": "WI", "brand": "USPS", "collection_times": "Mo-Fr 16:45; Sa 11:00", "name": "USPS COLLECTION BOX - BLUE BOX", "note": "ON 12/24 AND 12/31, THIS BOX MAY BE COLLECTED AS EARLY AS 12 NOON.", "ref": "5494500000"}, "type": "Feature"}
{"geometry": {"coordinates": [-89.130853, 44.508367], "type": "Point"}, "id": "l7jnWkMjUrJkK6VH0lpeqwdLDE8=", "properties": {"@spider": "usps_collection_boxes", "addr:city": "IOLA", "addr:country": "US", "addr:full": "190 N MAIN ST", "addr:postcode": "54945", "addr:state": "WI", "brand": "USPS", "collection_times": "Mo-Fr 16:45; Sa 11:00", "name": "USPS COLLECTION BOX - PO LOBBY", "note": "ON 12/24 AND 12/31, THIS BOX MAY BE COLLECTED AS EARLY AS 12 NOON.", "ref": "5494500001"}, "type": "Feature"}
{"geometry": {"coordinates": [-89.130851479, 44.508428801], "type": "Point"}, "id": "_rkVv1XTYFCvpdcpWqTn3h0Vu0A=", "properties": {"@spider": "usps_collection_boxes", "addr:city": "IOLA", "addr:country": "US", "addr:full": "190 W MAIN ST", "addr:postcode": "54945", "addr:state": "WI", "brand": "USPS", "collection_times": "Mo-Fr 16:45; Sa 11:00", "name": "USPS COLLECTION BOX - PO LOBBY", "note": "ON 12/24 AND 12/31, THIS BOX MAY BE COLLECTED AS EARLY AS 12 NOON.", "ref": "5494500003"}, "type": "Feature"}
{"geometry": {"coordinates": [-89.147648, 44.33562], "type": "Point"}, "id": "KIWiiNlRGu4KBVn-c8f0Zliu0GA=", "properties": {"@spider": "usps_collection_boxes", "addr:city": "KING", "addr:country": "US", "addr:full": "300 CUMBERLIDGE AVE", "addr:postcode": "54946", "addr:state": "WI", "brand": "USPS", "collection_times": "Mo-Fr 16:30; Sa 10:00", "name": "USPS COLLECTION BOX - BLUE BOX", "note": "ON 12/24 AND 12/31, THIS BOX MAY BE COLLECTED AS EARLY AS 12 NOON.", "ref": "5494600000"}, "type": "Feature"}
{"geometry": {"coordinates": [-89.147697, 44.335533], "type": "Point"}, "id": "QtzfnLdB5vCh7eKs0uXOPMoLz_I=", "properties": {"@spider": "usps_collection_boxes", "addr:city": "KING", "addr:country": "US", "addr:full": "300 CUMBERLIDGE AVE", "addr:postcode": "54946", "addr:state": "WI", "brand": "USPS", "collection_times": "Mo-Fr 15:45; Sa 10:00", "name": "USPS COLLECTION BOX - PO LOBBY", "note": "ON 12/24 AND 12/31, THIS BOX MAY BE COLLECTED AS EARLY AS 12 NOON.", "ref": "5494600001"}, "type": "Feature"}
{"geometry": {"coordinates": [-89.147703105, 44.335622119], "type": "Point"}, "id": "hAAImu4oUxT3WHlERaREah19rEI=", "properties": {"@spider": "usps_collection_boxes", "addr:city": "KING", "addr:country": "US", "addr:full": "300 CUMBERLIDGE AVE", "addr:postcode": "54946", "addr:state": "WI", "brand": "USPS", "collection_times": "Mo-Fr 15:45; Sa 10:00", "name": "USPS COLLECTION BOX - PO LOBBY", "note": "ON 12/24 AND 12/31, THIS BOX MAY BE COLLECTED AS EARLY AS 12 NOON.", "ref": "5494600002"}, "type": "Feature"}
{"geometry": {"coordinates": [-89.218673962, 43.961034915], "type": "Point"}, "id": "cgCg_Aumqv2kaX5Yo6u6jN95oXI=", "properties": {"@spider": "usps_collection_boxes", "addr:city": "NESHKORO", "addr:country": "US", "addr:full": "317 S MAIN ST", "addr:postcode": "54960", "addr:state": "WI", "brand": "USPS", "collection_times": "Mo-Fr 16:00; Sa 12:15", "name": "USPS COLLECTION BOX - BLUE BOX", "note": "ON 12/24 AND 12/31, THIS BOX MAY BE COLLECTED AS EARLY AS 12 NOON.", "ref": "5496000000"}, "type": "Feature"}
{"geometry": {"coordinates": [-89.218585, 43.961286], "type": "Point"}, "id": "5LWRMh2rVOtn2W75Jw18d8QDlGY=", "properties": {"@spider": "usps_collection_boxes", "addr:city": "NESHKORO", "addr:country": "US", "addr:full": "316 S MAIN ST", "addr:postcode": "54960", "addr:state": "WI", "brand": "USPS", "collection_times": "Mo-Fr 16:00; Sa 12:15", "name": "USPS COLLECTION BOX - PO LOBBY", "note": "ON 12/24 AND 12/31, THIS BOX MAY BE COLLECTED AS EARLY AS 12 NOON.", "ref": "5496000001"}, "type": "Feature"}
{"geometry": {"coordinates": [-89.218575872, 43.96121978], "type": "Point"}, "id": "OTzbhGcrEYrq3HMQKODy1MF71EI=", "properties": {"@spider": "usps_collection_boxes", "addr:city": "NESHKORO", "addr:country": "US", "addr:full": "316 S MAIN ST", "addr:postcode": "54960", "addr:state": "WI", "brand": "USPS", "collection_times": "Mo-Fr 16:00; Sa 12:15", "name": "USPS COLLECTION BOX - PO LOBBY", "note": "ON 12/24 AND 12/31, THIS BOX MAY BE COLLECTED AS EARLY AS 12 NOON.", "ref": "5496000003"}, "type": "Feature"}
{"geometry": {"coordinates": [-89.0312408068, 44.4509655076], "type": "Point"}, "id": "QenfluYIvne9RwUGQamFp0bKcn0=", "properties": {"@spider": "usps_collection_boxes", "addr:city": "OGDENSBURG", "addr:country": "US", "addr:full": "306 WASHINGTON ST", "addr:postcode": "54962", "addr:state": "WI", "brand": "USPS", "collection_times": "Mo-Fr 16:45; Sa 10:00", "name": "USPS COLLECTION BOX - BLUE BOX", "note": "ON 12/24 AND 12/31, THIS BOX MAY BE COLLECTED AS EARLY AS 12 NOON.", "ref": "5496200000"}, "type": "Feature"}
{"geometry": {"coordinates": [-89.03124, 44.450966], "type": "Point"}, "id": "XbMOoI2aUElHY9EFDWZgs9X1Gkk=", "properties": {"@spider": "usps_collection_boxes", "addr:city": "OGDENSBURG", "addr:country": "US", "addr:full": "306 WASHINGTON ST", "addr:postcode": "54962", "addr:state": "WI", "brand": "USPS", "collection_times": "Mo-Fr 11:45; Sa 09:45", "name": "USPS COLLECTION BOX - PO LOBBY", "ref": "5496200001"}, "type": "Feature"}
{"geometry": {"coordinates": [-89.03124, 44.450966], "type": "Point"}, "id": "E6eiNbu5ApTFTPUJ8fTQzp8pmak=", "properties": {"@spider": "usps_collection_boxes", "addr:city": "OGDENSBURG", "addr:country": "US", "addr:full": "306 WASHINGTON ST", "addr:postcode": "54962", "addr:state": "WI", "brand": "USPS", "collection_times": "Mo-Fr 11:45; Sa 09:45", "name": "USPS COLLECTION BOX - PO LOBBY", "ref": "5496200002"}, "type": "Feature"}
{"geometry": {"coordinates": [-89.031240807, 44.450965508], "type": "Point"}, "id": "W0IhpicyCcNLthbgpqftvLCWOVg=", "properties": {"@spider": "usps_collection_boxes", "addr:city": "OGDENSBURG", "addr:country": "US", "addr:full": "306 WASHINGTON ST", "addr:postcode": "54962", "addr:state": "WI", "brand": "USPS", "collection_times": "Mo-Fr 11:45; Sa 09:45", "name": "USPS COLLECTION BOX - PO LOBBY", "ref": "5496200003"}, "type": "Feature"}
{"geometry": {"coordinates": [-89.077053, 44.149099], "type": "Point"}, "id": "WeeyRWbClOYgBV_GoiKW23A1dts=", "properties": {"@spider": "usps_collection_boxes", "addr:city": "PINE RIVER", "addr:country": "US", "addr:full": "N4712 COUNTY ROAD E", "addr:postcode": "54965", "addr:state": "WI", "brand": "USPS", "collection_times": "Mo-Fr 16:30; Sa 10:00", "name": "USPS COLLECTION BOX - BLUE BOX", "note": "ON 12/24 AND 12/31, THIS BOX MAY BE COLLECTED AS EARLY AS 12 NOON.", "ref": "5496500000"}, "type": "Feature"}
{"geometry": {"coordinates": [-89.077053, 44.149099], "type": "Point"}, "id": "Fg_7vPZiBZrl4AlMyhA1Z364yQg=", "properties": {"@spider": "usps_collection_boxes", "addr:city": "PINE RIVER", "addr:country": "US", "addr:full": "N4712 COUNTY ROAD E", "addr:postcode": "54965", "addr:state": "WI", "brand": "USPS", "collection_times": "Mo-Fr 11:15; Sa 09:45", "name": "USPS COLLECTION BOX - PO LOBBY", "ref": "5496500002"}, "type": "Feature"}
{"geometry": {"coordinates": [-89.077052716, 44.149094665], "type": "Point"}, "id": "6-NrjCZMkqAAJuHJdS05vvh-Od8=", "properties": {"@spider": "usps_collection_boxes", "addr:city": "PINE RIVER", "addr:country": "US", "addr:full": "N4712 COUNTY ROAD E", "addr:postcode": "54965", "addr:state": "WI", "brand": "USPS", "collection_times": "Mo-Fr 11:15; Sa 09:45", "name": "USPS COLLECTION BOX - PO LOBBY", "ref": "5496500003"}, "type": "Feature"}
{"geometry": {"coordinates": [-89.49314, 44.213757], "type": "Point"}, "id": "PHCxfmyvKsLna0AKi_j_j5q-yM8=", "properties": {"@spider": "usps_collection_boxes", "addr:city": "PLAINFIELD", "addr:country": "US", "addr:full": "110 W NORTH ST", "addr:postcode": "54966", "addr:state": "WI", "brand": "USPS", "collection_times": "Mo-Fr 16:00; Sa 10:00", "name": "USPS COLLECTION BOX - BLUE BOX", "note": "ON 12/24 AND 12/31, THIS BOX MAY BE COLLECTED AS EARLY AS 12 NOON.", "ref": "5496600000"}, "type": "Feature"}
{"geometry": {"coordinates": [-89.49314, 44.213757], "type": "Point"}, "id": "6FM3430j0Y-efpGF3mDzIQB5yqw=", "properties": {"@spider": "usps_collection_boxes", "addr:city": "PLAINFIELD", "addr:country": "US", "addr:full": "110 W NORTH ST", "addr:postcode": "54966", "addr:state": "WI", "brand": "USPS", "collection_times": "Mo-Fr 16:00; Sa 10:00", "name": "USPS COLLECTION BOX - PO LOBBY", "note": "ON 12/24 AND 12/31, THIS BOX MAY BE COLLECTED AS EARLY AS 12 NOON.", "ref": "5496600003"}, "type": "Feature"}
{"geometry": {"coordinates": [-89.493143223, 44.213756468], "type": "Point"}, "id": "rDYJ8K7Xc_B5-wJH4rkz_KG8vF0=", "properties": {"@spider": "usps_collection_boxes", "addr:city": "PLAINFIELD", "addr:country": "US", "addr:full": "110 W NORTH ST", "addr:postcode": "54966", "addr:state": "WI", "brand": "USPS", "collection_times": "Mo-Fr 16:00; Sa 10:00", "name": "USPS COLLECTION BOX - PO LOBBY", "note": "ON 12/24 AND 12/31, THIS BOX MAY BE COLLECTED AS EARLY AS 12 NOON.", "ref": "5496600004"}, "type": "Feature"}
{"geometry": {"coordinates": [-89.130697, 43.850625], "type": "Point"}, "id": "QLgTNHkkU7tx9wZ10qbzvtVxa2s=", "properties": {"@spider": "usps_collection_boxes", "addr:city": "PRINCETON", "addr:country": "US", "addr:full": "111 S PEARL ST", "addr:postcode": "54968", "addr:state": "WI", "brand": "USPS", "collection_times": "Mo-Fr 16:45; Sa 11:45", "name": "USPS COLLECTION BOX - BLUE BOX", "note": "ON 12/24 AND 12/31, THIS BOX MAY BE COLLECTED AS EARLY AS 12 NOON.", "ref": "5496800000"}, "type": "Feature"}
{"geometry": {"coordinates": [-89.130697, 43.850625], "type": "Point"}, "id": "jsmIW2EFi3FDNvzLWjqjnhjJC8Y=", "properties": {"@spider": "usps_collection_boxes", "addr:city": "PRINCETON", "addr:country": "US", "addr:full": "111 S PEARL ST", "addr:postcode": "54968", "addr:state": "WI", "brand": "USPS", "collection_times": "Mo-Fr 16:45; Sa 11:45", "name": "USPS COLLECTION BOX - PO LOBBY", "note": "ON 12/24 AND 12/31, THIS BOX MAY BE COLLECTED AS EARLY AS 12 NOON.", "ref": "5496800001"}, "type": "Feature"}
{"geometry": {"coordinates": [-89.130697, 43.850625], "type": "Point"}, "id": "Yfobz4lF6U__YYiWMW8kbK26xvs=", "properties": {"@spider": "usps_collection_boxes", "addr:city": "PRINCETON", "addr:country": "US", "addr:full": "111 S PEARL ST", "addr:postcode": "54968", "addr:state": "WI", "brand": "USPS", "collection_times": "Mo-Fr 16:45; Sa 11:45", "name": "USPS COLLECTION BOX - BLUE BOX", "note": "ON 12/24 AND 12/31, THIS BOX MAY BE COLLECTED AS EARLY AS 12 NOON.", "ref": "5496800002"}, "type": "Feature"}
{"geometry": {"coordinates": [-89.130680391, 43.850793415], "type": "Point"}, "id": "MieYf5oCLN73OIKDqwTjiceT3QA=", "properties": {"@spider": "usps_collection_boxes", "addr:city": "PRINCETON", "addr:country": "US", "addr:full": "111 S PEARL ST", "addr:postcode": "54968", "addr:state": "WI", "brand": "USPS", "collection_times": "Mo-Fr 16:45; Sa 11:45", "name": "USPS COLLECTION BOX - PO LOBBY", "note": "ON 12/24 AND 12/31, THIS BOX MAY BE COLLECTED AS EARLY AS 12 NOON.", "ref": "5496800004"}, "type": "Feature"}
{"geometry": {"coordinates": [-89.101057, 44.043418], "type": "Point"}, "id": "67-z5mYBu2GqPyEMWXesH-qJjOM=", "properties": {"@spider": "usps_collection_boxes", "addr:city": "REDGRANITE", "addr:country": "US", "addr:full": "130 E BANNERMAN AVE", "addr:postcode": "54970", "addr:state": "WI", "brand": "USPS", "collection_times": "Mo-Fr 16:45; Sa 10:45", "name": "USPS COLLECTION BOX - BLUE BOX", "note": "ON 12/24 AND 12/31, THIS BOX MAY BE COLLECTED AS EARLY AS 12 NOON.", "ref": "5497000000"}, "type": "Feature"}
{"geometry": {"coordinates": [-89.101057, 44.043418], "type": "Point"}, "id": "n19o_3LJ4Um6NHt_19ZsIOleEUE=", "properties": {"@spider": "usps_collection_boxes", "addr:city": "REDGRANITE", "addr:country": "US", "addr:full": "130 E BANNERMAN AVE", "addr:postcode": "54970", "addr:state": "WI", "brand": "USPS", "collection_times": "Mo-Fr 16:15; Sa 10:45", "name": "USPS COLLECTION BOX - PO LOBBY", "note": "ON 12/24 AND 12/31, THIS BOX MAY BE COLLECTED AS EARLY AS 12 NOON.", "ref": "5497000001"}, "type": "Feature"}
{"geometry": {"coordinates": [-89.101057, 44.043418], "type": "Point"}, "id": "lBGSE9XY9uJw10aGR82Kv5BWNqQ=", "properties": {"@spider": "usps_collection_boxes", "addr:city": "REDGRANITE", "addr:country": "US", "addr:full": "130 E BANNERMAN AVE", "addr:postcode": "54970", "addr:state": "WI", "brand": "USPS", "collection_times": "Mo-Fr 16:15; Sa 10:45", "name": "USPS COLLECTION BOX - PO LOBBY", "note": "ON 12/24 AND 12/31, THIS BOX MAY BE COLLECTED AS EARLY AS 12 NOON.", "ref": "5497000002"}, "type": "Feature"}
{"geometry": {"coordinates": [-89.10105924, 44.043451451], "type": "Point"}, "id": "NvF-Z1V_mYYDpDq8Kwuw2L-uRfw=", "properties": {"@spider": "usps_collection_boxes", "addr:city": "REDGRANITE", "addr:country": "US", "addr:full": "130 E BANNERMAN AVE", "addr:postcode": "54970", "addr:state": "WI", "brand": "USPS", "collection_times": "Mo-Fr 16:15; Sa 10:45", "name": "USPS COLLECTION BOX - PO LOBBY", "note": "ON 12/24 AND 12/31, THIS BOX MAY BE COLLECTED AS EARLY AS 12 NOON.", "ref": "5497000003"}, "type": "Feature"}
{"geometry": {"coordinates": [-89.130878, 44.178228], "type": "Point"}, "id": "V72djaa_rGGpjuBCKJ5Bh6KTOmo=", "properties": {"@spider": "usps_collection_boxes", "addr:city": "SAXEVILLE", "addr:country": "US", "addr:full": "W4655 PORTAGE ST", "addr:postcode": "54976", "addr:state": "WI", "brand": "USPS", "collection_times": "Mo-Fr 16:30; Sa 12:15", "name": "USPS COLLECTION BOX - BLUE BOX", "note": "ON 12/24 AND 12/31, THIS BOX MAY BE COLLECTED AS EARLY AS 12 NOON.", "ref": "5497600000"}, "type": "Feature"}
{"geometry": {"coordinates": [-89.147067, 44.458629], "type": "Point"}, "id": "_mPj84qEttZG7IQKJWOoI2qY4Ds=", "properties": {"@spider": "usps_collection_boxes", "addr:city": "SCANDINAVIA", "addr:country": "US", "addr:full": "345 N MAIN ST", "addr:postcode": "54977", "addr:state": "WI", "brand": "USPS", "collection_times": "Mo-Fr 11:45; Sa 09:00", "name": "USPS COLLECTION BOX - PO LOBBY", "ref": "5497700002"}, "type": "Feature"}
{"geometry": {"coordinates": [-89.147067, 44.458629], "type": "Point"}, "id": "FooIjEdpAujIBZNsiHj6wqaONb0=", "properties": {"@spider": "usps_collection_boxes", "addr:city": "SCANDINAVIA", "addr:country": "US", "addr:full": "345 N MAIN ST", "addr:postcode": "54977", "addr:state": "WI", "brand": "USPS", "collection_times": "Mo-Fr 16:30; Sa 10:30", "name": "USPS COLLECTION BOX - BLUE BOX", "note": "ON 12/24 AND 12/31, THIS BOX MAY BE COLLECTED AS EARLY AS 12 NOON.", "ref": "5497700003"}, "type": "Feature"}
{"geometry": {"coordinates": [-89.147066551, 44.458614409], "type": "Point"}, "id": "dPiS05Gv3lX38x0HNv-eFUVjfzQ=", "properties": {"@spider": "usps_collection_boxes", "addr:city": "SCANDINAVIA", "addr:country": "US", "addr:full": "345 N MAIN ST", "addr:postcode": "54977", "addr:state": "WI", "brand": "USPS", "collection_times": "Mo-Fr 11:45; Sa 09:00", "name": "USPS COLLECTION BOX - PO LOBBY", "ref": "5497700004"}, "type": "Feature"}
{"geometry": {"coordinates": [-88.913168, 44.815286], "type": "Point"}, "id": "LJc7YChrLaYR05GtfdOs__ivc7M=", "properties": {"@spider": "usps_collection_boxes", "addr:city": "TILLEDA", "addr:country": "US", "addr:full": "N6192 COUNTY ROAD D", "addr:postcode": "54978", "addr:state": "WI", "brand": "USPS", "collection_times": "Mo-Fr 16:00; Sa 12:15", "name": "USPS COLLECTION BOX - BLUE BOX", "note": "ON 12/24 AND 12/31, THIS BOX MAY BE COLLECTED AS EARLY AS 12 NOON.", "ref": "5497800000"}, "type": "Feature"}
{"geometry": {"coordinates": [-88.908906, 44.811994], "type": "Point"}, "id": "jUCIKalHDMF0e78UPdyf6SI9Or4=", "properties": {"@spider": "usps_collection_boxes", "addr:city": "TILLEDA", "addr:country": "US", "addr:full": "N6192 COUNTY ROAD D", "addr:postcode": "54978", "addr:state": "WI", "brand": "USPS", "collection_times": "Mo-Fr 16:00; Sa 12:15", "name": "USPS COLLECTION BOX - PO LOBBY", "note": "ON 12/24 AND 12/31, THIS BOX MAY BE COLLECTED AS EARLY AS 12 NOON.", "ref": "5497800001"}, "type": "Feature"}
{"geometry": {"coordinates": [-88.909672308, 44.81478], "type": "Point"}, "id": "kqU9MqQD1davg1z_BDXobBjPeqw=", "properties": {"@spider": "usps_collection_boxes", "addr:city": "TILLEDA", "addr:country": "US", "addr:full": "N6192 COUNTY ROAD D", "addr:postcode": "54978", "addr:state": "WI", "brand": "USPS", "collection_times": "Mo-Fr 16:00; Sa 12:15", "name": "USPS COLLECTION BOX - PO LOBBY", "note": "ON 12/24 AND 12/31, THIS BOX MAY BE COLLECTED AS EARLY AS 12 NOON.", "ref": "5497800003"}, "type": "Feature"}
{"geometry": {"coordinates": [-89.0849, 44.355789], "type": "Point"}, "id": "taXo3wxNoRKsYZklgnsu7Xvq_rY=", "properties": {"@spider": "usps_collection_boxes", "addr:city": "WAUPACA", "addr:country": "US", "addr:full": "306 S MAIN ST", "addr:postcode": "54981", "addr:state": "WI", "brand": "USPS", "collection_times": "Mo-Sa 17:00", "name": "USPS COLLECTION BOX - BLUE BOX", "note": "ON 12/24 AND 12/31, THIS BOX MAY BE COLLECTED AS EARLY AS 12 NOON.", "ref": "5498100000"}, "type": "Feature"}
{"geometry": {"coordinates": [-89.0849, 44.355789], "type": "Point"}, "id": "-7h6HJ3Azpm7XmdcgqqvAJAgxDU=", "properties": {"@spider": "usps_collection_boxes", "addr:city": "WAUPACA", "addr:country": "US", "addr:full": "306 S MAIN ST", "addr:postcode": "54981", "addr:state": "WI", "brand": "USPS", "collection_times": "Mo-Sa 17:00", "name": "USPS COLLECTION BOX - BLUE BOX", "note": "ON 12/24 AND 12/31, THIS BOX MAY BE COLLECTED AS EARLY AS 12 NOON.", "ref": "5498100001"}, "type": "Feature"}
{"geometry": {"coordinates": [-89.0849, 44.355789], "type": "Point"}, "id": "88t_bqzE-sG54UzgxiB6VFwwzaU=", "properties": {"@spider": "usps_collection_boxes", "addr:city": "WAUPACA", "addr:country": "US", "addr:full": "306 S MAIN ST", "addr:postcode": "54981", "addr:state": "WI", "brand": "USPS", "collection_times": "Mo-Sa 17:00", "name": "USPS COLLECTION BOX - BLUE BOX", "note": "ON 12/24 AND 12/31, THIS BOX MAY BE COLLECTED AS EARLY AS 12 NOON.", "ref": "5498100002"}, "type": "Feature"}
{"geometry": {"coordinates": [-89.0765315, 44.345512], "type": "Point"}, "id": "g8tba6zpKs8i_epCyvdo8h80Lnc=", "properties": {"@spider": "usps_collection_boxes", "addr:city": "WAUPACA", "addr:country": "US", "addr:full": "800 RIVERSIDE DR", "addr:postcode": "54981", "addr:state": "WI", "brand": "USPS", "collection_times": "Mo-Sa 14:30", "name": "USPS COLLECTION BOX - BLUE BOX", "note": "ON 12/24 AND 12/31, THIS BOX MAY BE COLLECTED AS EARLY AS 12 NOON.", "ref": "5498100003"}, "type": "Feature"}
{"geometry": {"coordinates": [-89.0867438, 44.356473], "type": "Point"}, "id": "z0Olv9ZwC1zUsYd1xafrYzEzYto=", "properties": {"@spider": "usps_collection_boxes", "addr:city": "WAUPACA", "addr:country": "US", "addr:full": "124 S WASHINGTON ST", "addr:postcode": "54981", "addr:state": "WI", "brand": "USPS", "collection_times": "Mo-Sa 14:30", "name": "USPS COLLECTION BOX - BLUE BOX", "note": "ON 12/24 AND 12/31, THIS BOX MAY BE COLLECTED AS EARLY AS 12 NOON.", "ref": "5498100004"}, "type": "Feature"}
{"geometry": {"coordinates": [-89.0867458, 44.356482], "type": "Point"}, "id": "V0yWy80vHRivkWRLYvGWLmQFMew=", "properties": {"@spider": "usps_collection_boxes", "addr:city": "WAUPACA", "addr:country": "US", "addr:full": "124 S WASHINGTON ST", "addr:postcode": "54981", "addr:state": "WI", "brand": "USPS", "collection_times": "Mo-Sa 14:30", "name": "USPS COLLECTION BOX - BLUE BOX", "note": "ON 12/24 AND 12/31, THIS BOX MAY BE COLLECTED AS EARLY AS 12 NOON.", "ref": "5498100005"}, "type": "Feature"}
{"geometry": {"coordinates": [-89.0812009, 44.352678], "type": "Point"}, "id": "eWgi9E6tj8muGD5wTU1WNVpZOe4=", "properties": {"@spider": "usps_collection_boxes", "addr:city": "WAUPACA", "addr:country": "US", "addr:full": "315 E LAKE ST", "addr:postcode": "54981", "addr:state": "WI", "brand": "USPS", "collection_times": "Mo-Sa 14:30", "name": "USPS COLLECTION BOX - BLUE BOX", "note": "ON 12/24 AND 12/31, THIS BOX MAY BE COLLECTED AS EARLY AS 12 NOON.", "ref": "5498100008"}, "type": "Feature"}
{"geometry": {"coordinates": [-89.0850195, 44.357202], "type": "Point"}, "id": "GipHBQ8xBCdVgTrDBrQja0hxRf4=", "properties": {"@spider": "usps_collection_boxes", "addr:city": "WAUPACA", "addr:country": "US", "addr:full": "122 S MAIN ST", "addr:postcode": "54981", "addr:state": "WI", "brand": "USPS", "collection_times": "Mo-Sa 14:30", "name": "USPS COLLECTION BOX - BLUE BOX", "note": "ON 12/24 AND 12/31, THIS BOX MAY BE COLLECTED AS EARLY AS 12 NOON.", "ref": "5498100009"}, "type": "Feature"}
{"geometry": {"coordinates": [-89.084961437, 44.358993052], "type": "Point"}, "id": "Er7YdUF2fnjsIly_0TnuJY7p1so=", "properties": {"@spider": "usps_collection_boxes", "addr:city": "WAUPACA", "addr:country": "US", "addr:full": "201 N MAIN ST", "addr:postcode": "54981", "addr:state": "WI", "brand": "USPS", "collection_times": "Mo-Sa 14:30", "name": "USPS COLLECTION BOX - BLUE BOX", "note": "ON 12/24 AND 12/31, THIS BOX MAY BE COLLECTED AS EARLY AS 12 NOON.", "ref": "5498100010"}, "type": "Feature"}
{"geometry": {"coordinates": [-89.1012757, 44.356696], "type": "Point"}, "id": "XJ968CQExPPlOvEZArnApk9ILe8=", "properties": {"@spider": "usps_collection_boxes", "addr:city": "WAUPACA", "addr:country": "US", "addr:full": "809 W FULTON ST", "addr:postcode": "54981", "addr:state": "WI", "brand": "USPS", "collection_times": "Mo-Sa 14:30", "name": "USPS COLLECTION BOX - BLUE BOX", "note": "ON 12/24 AND 12/31, THIS BOX MAY BE COLLECTED AS EARLY AS 12 NOON.", "ref": "5498100011"}, "type": "Feature"}
{"geometry": {"coordinates": [-89.1010004, 44.35863], "type": "Point"}, "id": "UC0-b11mt6mUnuHufEx7hlAVuqY=", "properties": {"@spider": "usps_collection_boxes", "addr:city": "WAUPACA", "addr:country": "US", "addr:full": "822 W FULTON ST", "addr:postcode": "54981", "addr:state": "WI", "brand": "USPS", "collection_times": "Mo-Sa 14:30", "name": "USPS COLLECTION BOX - BLUE BOX", "note": "ON 12/24 AND 12/31, THIS BOX MAY BE COLLECTED AS EARLY AS 12 NOON.", "ref": "5498100012"}, "type": "Feature"}
{"geometry": {"coordinates": [-89.0670649, 44.349995], "type": "Point"}, "id": "HPwNnpR4WRO7anY79TgdouVpWfQ=", "properties": {"@spider": "usps_collection_boxes", "addr:city": "WAUPACA", "addr:country": "US", "addr:full": "811 HARDING ST", "addr:postcode": "54981", "addr:state": "WI", "brand": "USPS", "collection_times": "Mo-Fr 14:30", "name": "USPS COLLECTION BOX - BLUE BOX", "note": "ON 12/24 AND 12/31, THIS BOX MAY BE COLLECTED AS EARLY AS 12 NOON.", "ref": "5498100013"}, "type": "Feature"}
{"geometry": {"coordinates": [-89.1059108, 44.35707], "type": "Point"}, "id": "h4tVxQwxe1atPyREqL5iHnlS2Mo=", "properties": {"@spider": "usps_collection_boxes", "addr:city": "WAUPACA", "addr:country": "US", "addr:full": "936 FURMAN DR", "addr:postcode": "54981", "addr:state": "WI", "brand": "USPS", "collection_times": "Mo-Sa 14:30", "name": "USPS COLLECTION BOX - BLUE BOX", "note": "ON 12/24 AND 12/31, THIS BOX MAY BE COLLECTED AS EARLY AS 12 NOON.", "ref": "5498100014"}, "type": "Feature"}
{"geometry": {"coordinates": [-89.288207, 44.074765], "type": "Point"}, "id": "FuoL0MpPkc4xzXRujGFm-d6MsqY=", "properties": {"@spider": "usps_collection_boxes", "addr:city": "WAUTOMA", "addr:country": "US", "addr:full": "100 W MAIN ST", "addr:postcode": "54982", "addr:state": "WI", "brand": "USPS", "collection_times": "Mo-Fr 17:00; Sa 11:30", "name": "USPS COLLECTION BOX - BLUE BOX", "note": "ON 12/24 AND 12/31, THIS BOX MAY BE COLLECTED AS EARLY AS 12 NOON.", "ref": "5498200001"}, "type": "Feature"}
{"geometry": {"coordinates": [-89.288207, 44.074765], "type": "Point"}, "id": "QKvFyx6GfLnFVnXxJD73Dl4Eyfk=", "properties": {"@spider": "usps_collection_boxes", "addr:city": "WAUTOMA", "addr:country": "US", "addr:full": "100 W MAIN ST", "addr:postcode": "54982", "addr:state": "WI", "brand": "USPS", "collection_times": "Mo-Fr 17:00; Sa 11:30", "name": "USPS COLLECTION BOX - PO LOBBY", "note": "ON 12/24 AND 12/31, THIS BOX MAY BE COLLECTED AS EARLY AS 12 NOON.", "ref": "5498200003"}, "type": "Feature"}
{"geometry": {"coordinates": [-89.2714473, 44.072136], "type": "Point"}, "id": "ajK8r0EJqCUhbdrhU53iuUTVows=", "properties": {"@spider": "usps_collection_boxes", "addr:city": "WAUTOMA", "addr:country": "US", "addr:full": "N2573 PLAZA RD", "addr:postcode": "54982", "addr:state": "WI", "brand": "USPS", "collection_times": "Mo-Fr 11:00", "name": "USPS COLLECTION BOX - BLUE BOX", "ref": "5498200004"}, "type": "Feature"}
{"geometry": {"coordinates": [-89.288207, 44.074765], "type": "Point"}, "id": "jKb_wsHdaTNRuzaztlWiJBo14Uo=", "properties": {"@spider": "usps_collection_boxes", "addr:city": "WAUTOMA", "addr:country": "US", "addr:full": "100 W MAIN ST", "addr:postcode": "54982", "addr:state": "WI", "brand": "USPS", "collection_times": "Mo-Fr 17:00; Sa 11:30", "name": "USPS COLLECTION BOX - PO LOBBY", "note": "ON 12/24 AND 12/31, THIS BOX MAY BE COLLECTED AS EARLY AS 12 NOON.", "ref": "5498200005"}, "type": "Feature"}
{"geometry": {"coordinates": [-89.288207052, 44.074749351], "type": "Point"}, "id": "d28NNkYmE9q0yFs9EUCXO6Pqvys=", "properties": {"@spider": "usps_collection_boxes", "addr:city": "WAUTOMA", "addr:country": "US", "addr:full": "100 W MAIN ST", "addr:postcode": "54982", "addr:state": "WI", "brand": "USPS", "collection_times": "Mo-Fr 17:00; Sa 11:30", "name": "USPS COLLECTION BOX - PO LOBBY", "note": "ON 12/24 AND 12/31, THIS BOX MAY BE COLLECTED AS EARLY AS 12 NOON.", "ref": "5498200006"}, "type": "Feature"}
{"geometry": {"coordinates": [-89.251163, 44.175569], "type": "Point"}, "id": "BOdSgro_yxU40ZP5qLwNJThMRdU=", "properties": {"@spider": "usps_collection_boxes", "addr:city": "WILD ROSE", "addr:country": "US", "addr:full": "801 MAIN ST", "addr:postcode": "54984", "addr:state": "WI", "brand": "USPS", "collection_times": "Mo-Fr 17:00; Sa 12:00", "name": "USPS COLLECTION BOX - BLUE BOX", "note": "ON 12/24 AND 12/31, THIS BOX MAY BE COLLECTED AS EARLY AS 12 NOON.", "ref": "5498400001"}, "type": "Feature"}
{"geometry": {"coordinates": [-89.251163, 44.175569], "type": "Point"}, "id": "9sHITsq2F9lYN4GDIIB1jk0CgFA=", "properties": {"@spider": "usps_collection_boxes", "addr:city": "WILD ROSE", "addr:country": "US", "addr:full": "801 MAIN ST", "addr:postcode": "54984", "addr:state": "WI", "brand": "USPS", "collection_times": "Mo-Fr 17:00; Sa 12:00", "name": "USPS COLLECTION BOX - BLUE BOX", "note": "ON 12/24 AND 12/31, THIS BOX MAY BE COLLECTED AS EARLY AS 12 NOON.", "ref": "5498400002"}, "type": "Feature"}
{"geometry": {"coordinates": [-89.251163, 44.175569], "type": "Point"}, "id": "EBgsIKdDU-Ve_eTLAMMvCOD_D_g=", "properties": {"@spider": "usps_collection_boxes", "addr:city": "WILD ROSE", "addr:country": "US", "addr:full": "801 MAIN ST", "addr:postcode": "54984", "addr:state": "WI", "brand": "USPS", "collection_times": "Mo-Fr 17:00; Sa 12:00", "name": "USPS COLLECTION BOX - PO LOBBY", "note": "ON 12/24 AND 12/31, THIS BOX MAY BE COLLECTED AS EARLY AS 12 NOON.", "ref": "5498400003"}, "type": "Feature"}
{"geometry": {"coordinates": [-89.251161719, 44.175564], "type": "Point"}, "id": "ImHIChT2y_wIiXZPAx9Y8FM6uEE=", "properties": {"@spider": "usps_collection_boxes", "addr:city": "WILD ROSE", "addr:country": "US", "addr:full": "801 MAIN ST", "addr:postcode": "54984", "addr:state": "WI", "brand": "USPS", "collection_times": "Mo-Fr 17:00; Sa 12:00", "name": "USPS COLLECTION BOX - PO LOBBY", "note": "ON 12/24 AND 12/31, THIS BOX MAY BE COLLECTED AS EARLY AS 12 NOON.", "ref": "5498400005"}, "type": "Feature"}
