{"geometry": {"coordinates": [-93.653816674, 45.237009326], "type": "Point"}, "id": "43ANwrt_IB26rHFxbZy-hGaY_EI=", "properties": {"@spider": "usps_collection_boxes", "addr:city": "ALBERTVILLE", "addr:country": "US", "addr:full": "5900 MAIN AVE NE", "addr:postcode": "55301", "addr:state": "MN", "amenity": "post_box", "brand": "United States Postal Service", "brand:wikidata": "Q668687", "collection_times": "Mo-Fr 16:30; Sa 11:15", "name": "USPS COLLECTION BOX - BLUE BOX", "note": "ON 12/24 AND 12/31, THIS BOX MAY BE COLLECTED AS EARLY AS 12 NOON.", "nsi_id": "unitedstatespostalservice-a77078", "operator": "United States Postal Service", "operator:short": "USPS", "operator:type": "public", "operator:wikidata": "Q668687", "ref": "5530100001"}, "type": "Feature"}
{"geometry": {"coordinates": [-93.653816674, 45.237009326], "type": "Point"}, "id": "tsQdgwGv0nJoVzb_iwW9A5pdqsE=", "properties": {"@spider": "usps_collection_boxes", "addr:city": "ALBERTVILLE", "addr:country": "US", "addr:full": "5900 MAIN AVE NE", "addr:postcode": "55301", "addr:state": "MN", "amenity": "post_box", "brand": "United States Postal Service", "brand:wikidata": "Q668687", "collection_times": "Mo-Fr 16:30; Sa 11:15", "name": "USPS COLLECTION BOX - PO LOBBY", "note": "ON 12/24 AND 12/31, THIS BOX MAY BE COLLECTED AS EARLY AS 12 NOON.", "nsi_id": "unitedstatespostalservice-a77078", "operator": "United States Postal Service", "operator:short": "USPS", "operator:type": "public", "operator:wikidata": "Q668687", "ref": "5530100002"}, "type": "Feature"}
{"geometry": {"coordinates": [-93.653816674, 45.237009326], "type": "Point"}, "id": "nakGWaykSUJ_oYY4-1g6tWoMH1M=", "properties": {"@spider": "usps_collection_boxes", "addr:city": "ALBERTVILLE", "addr:country": "US", "addr:full": "5900 MAIN AVE NE", "addr:postcode": "55301", "addr:state": "MN", "amenity": "post_box", "brand": "United States Postal Service", "brand:wikidata": "Q668687", "collection_times": "Mo-Fr 16:30; Sa 11:15", "name": "USPS COLLECTION BOX - BLUE BOX", "note": "ON 12/24 AND 12/31, THIS BOX MAY BE COLLECTED AS EARLY AS 12 NOON.", "nsi_id": "unitedstatespostalservice-a77078", "operator": "United States Postal Service", "operator:short": "USPS", "operator:type": "public", "operator:wikidata": "Q668687", "ref": "5530100003"}, "type": "Feature"}
{"geometry": {"coordinates": [-93.6538166741, 45.2370093259], "type": "Point"}, "id": "q-RTTn_-WMLWfLf0joheVTLptrc=", "properties": {"@spider": "usps_collection_boxes", "addr:city": "ALBERTVILLE", "addr:country": "US", "addr:full": "5900 MAIN AVE NE", "addr:postcode": "55301", "addr:state": "MN", "amenity": "post_box", "brand": "United States Postal Service", "brand:wikidata": "Q668687", "collection_times": "Mo-Fr 16:15; Sa 11:30", "name": "USPS COLLECTION BOX - PO LOBBY", "note": "ON 12/24 AND 12/31, THIS BOX MAY BE COLLECTED AS EARLY AS 12 NOON.", "nsi_id": "unitedstatespostalservice-a77078", "operator": "United States Postal Service", "operator:short": "USPS", "operator:type": "public", "operator:wikidata": "Q668687", "ref": "5530100008"}, "type": "Feature"}
{"geometry": {"coordinates": [-94.12438352, 45.263483162], "type": "Point"}, "id": "yWOcyavV9ELnnVB_tvvApWjU4EI=", "properties": {"@spider": "usps_collection_boxes", "addr:city": "ANNANDALE", "addr:country": "US", "addr:full": "83 OAK AVE N", "addr:postcode": "55302", "addr:state": "MN", "amenity": "post_box", "brand": "United States Postal Service", "brand:wikidata": "Q668687", "collection_times": "Mo-Fr 17:00; Sa 11:30", "name": "USPS COLLECTION BOX - BLUE BOX", "note": "ON 12/24 AND 12/31, THIS BOX MAY BE COLLECTED AS EARLY AS 12 NOON.", "nsi_id": "unitedstatespostalservice-a77078", "operator": "United States Postal Service", "operator:short": "USPS", "operator:type": "public", "operator:wikidata": "Q668687", "ref": "5530200009"}, "type": "Feature"}
{"geometry": {"coordinates": [-94.12438352, 45.263483162], "type": "Point"}, "id": "66XP-bqvADSnjeLiP3HKin-w5hA=", "properties": {"@spider": "usps_collection_boxes", "addr:city": "ANNANDALE", "addr:country": "US", "addr:full": "83 OAK AVE N", "addr:postcode": "55302", "addr:state": "MN", "amenity": "post_box", "brand": "United States Postal Service", "brand:wikidata": "Q668687", "collection_times": "Mo-Fr 17:00; Sa 11:30", "name": "USPS COLLECTION BOX - PO LOBBY", "note": "ON 12/24 AND 12/31, THIS BOX MAY BE COLLECTED AS EARLY AS 12 NOON.", "nsi_id": "unitedstatespostalservice-a77078", "operator": "United States Postal Service", "operator:short": "USPS", "operator:type": "public", "operator:wikidata": "Q668687", "ref": "5530200011"}, "type": "Feature"}
{"geometry": {"coordinates": [-94.185400404, 45.200440121], "type": "Point"}, "id": "At7TR7zNbW-0Vh731NO1NlrYWrA=", "properties": {"@spider": "usps_collection_boxes", "addr:city": "ANNANDALE", "addr:country": "US", "addr:full": "3259 COUNTY ROAD 3 NW", "addr:postcode": "55302", "addr:state": "MN", "amenity": "post_box", "brand": "United States Postal Service", "brand:wikidata": "Q668687", "collection_times": "Mo-Sa 10:00", "name": "USPS COLLECTION BOX - BLUE BOX", "nsi_id": "unitedstatespostalservice-a77078", "operator": "United States Postal Service", "operator:short": "USPS", "operator:type": "public", "operator:wikidata": "Q668687", "ref": "5530200013"}, "type": "Feature"}
{"geometry": {"coordinates": [-94.113269214, 45.257673277], "type": "Point"}, "id": "Pac9-_8sl5vpIGZxsAn1c4BvpfI=", "properties": {"@spider": "usps_collection_boxes", "addr:city": "ANNANDALE", "addr:country": "US", "addr:full": "660 ELM ST E", "addr:postcode": "55302", "addr:state": "MN", "amenity": "post_box", "brand": "United States Postal Service", "brand:wikidata": "Q668687", "collection_times": "Mo-Fr 13:00", "name": "USPS COLLECTION BOX - BLUE BOX", "note": "ON 12/24 AND 12/31, THIS BOX MAY BE COLLECTED AS EARLY AS 12 NOON.", "nsi_id": "unitedstatespostalservice-a77078", "operator": "United States Postal Service", "operator:short": "USPS", "operator:type": "public", "operator:wikidata": "Q668687", "ref": "5530200014"}, "type": "Feature"}
{"geometry": {"coordinates": [-94.12438352, 45.263483162], "type": "Point"}, "id": "-8lz8D4RoHQaNGcJRPWsGSQosrU=", "properties": {"@spider": "usps_collection_boxes", "addr:city": "ANNANDALE", "addr:country": "US", "addr:full": "83 OAK AVE N", "addr:postcode": "55302", "addr:state": "MN", "amenity": "post_box", "brand": "United States Postal Service", "brand:wikidata": "Q668687", "collection_times": "Mo-Fr 17:00; Sa 11:30", "name": "USPS COLLECTION BOX - BLUE BOX", "note": "ON 12/24 AND 12/31, THIS BOX MAY BE COLLECTED AS EARLY AS 12 NOON.", "nsi_id": "unitedstatespostalservice-a77078", "operator": "United States Postal Service", "operator:short": "USPS", "operator:type": "public", "operator:wikidata": "Q668687", "ref": "5530200015"}, "type": "Feature"}
{"geometry": {"coordinates": [-94.12438352, 45.263483162], "type": "Point"}, "id": "XLwurTad8vEKqLLgF19oUbWOGIQ=", "properties": {"@spider": "usps_collection_boxes", "addr:city": "ANNANDALE", "addr:country": "US", "addr:full": "83 OAK AVE N", "addr:postcode": "55302", "addr:state": "MN", "amenity": "post_box", "brand": "United States Postal Service", "brand:wikidata": "Q668687", "collection_times": "Mo-Fr 16:30; Sa 11:00", "name": "USPS COLLECTION BOX - PO LOBBY", "note": "ON 12/24 AND 12/31, THIS BOX MAY BE COLLECTED AS EARLY AS 12 NOON.", "nsi_id": "unitedstatespostalservice-a77078", "operator": "United States Postal Service", "operator:short": "USPS", "operator:type": "public", "operator:wikidata": "Q668687", "ref": "5530200017"}, "type": "Feature"}
{"geometry": {"coordinates": [-93.872338158, 45.390238102], "type": "Point"}, "id": "OfwY9aEofEYChhBraoV7sdota7I=", "properties": {"@spider": "usps_collection_boxes", "addr:city": "BECKER", "addr:country": "US", "addr:full": "13974 1ST ST", "addr:postcode": "55308", "addr:state": "MN", "amenity": "post_box", "brand": "United States Postal Service", "brand:wikidata": "Q668687", "collection_times": "Mo-Fr 16:30; Sa 10:30", "name": "USPS COLLECTION BOX - BLUE BOX", "note": "ON 12/24 AND 12/31, THIS BOX MAY BE COLLECTED AS EARLY AS 12 NOON.", "nsi_id": "unitedstatespostalservice-a77078", "operator": "United States Postal Service", "operator:short": "USPS", "operator:type": "public", "operator:wikidata": "Q668687", "ref": "5530800001"}, "type": "Feature"}
{"geometry": {"coordinates": [-93.882892102, 45.396928057], "type": "Point"}, "id": "SHbxwJj9Jkw4K9Q3QJ9VJmafb1k=", "properties": {"@spider": "usps_collection_boxes", "addr:city": "BECKER", "addr:country": "US", "addr:full": "13400 1ST ST", "addr:postcode": "55308", "addr:state": "MN", "amenity": "post_box", "brand": "United States Postal Service", "brand:wikidata": "Q668687", "collection_times": "Mo-Fr 12:00", "name": "USPS COLLECTION BOX - BLUE BOX", "nsi_id": "unitedstatespostalservice-a77078", "operator": "United States Postal Service", "operator:short": "USPS", "operator:type": "public", "operator:wikidata": "Q668687", "ref": "5530800002"}, "type": "Feature"}
{"geometry": {"coordinates": [-93.872338158, 45.390238102], "type": "Point"}, "id": "2NE7oTQRBDg1vDKzmyzf5H7Hrdw=", "properties": {"@spider": "usps_collection_boxes", "addr:city": "BECKER", "addr:country": "US", "addr:full": "13974 1ST ST", "addr:postcode": "55308", "addr:state": "MN", "amenity": "post_box", "brand": "United States Postal Service", "brand:wikidata": "Q668687", "collection_times": "Mo-Fr 16:30; Sa 10:30", "name": "USPS COLLECTION BOX - PO LOBBY", "note": "ON 12/24 AND 12/31, THIS BOX MAY BE COLLECTED AS EARLY AS 12 NOON.", "nsi_id": "unitedstatespostalservice-a77078", "operator": "United States Postal Service", "operator:short": "USPS", "operator:type": "public", "operator:wikidata": "Q668687", "ref": "5530800004"}, "type": "Feature"}
{"geometry": {"coordinates": [-93.872338158, 45.390238102], "type": "Point"}, "id": "OLk5189D4ENb-kC0M85gT_7wJHk=", "properties": {"@spider": "usps_collection_boxes", "addr:city": "BECKER", "addr:country": "US", "addr:full": "13974 1ST ST", "addr:postcode": "55308", "addr:state": "MN", "amenity": "post_box", "brand": "United States Postal Service", "brand:wikidata": "Q668687", "collection_times": "Mo-Fr 16:30; Sa 10:30", "name": "USPS COLLECTION BOX - PO LOBBY", "note": "ON 12/24 AND 12/31, THIS BOX MAY BE COLLECTED AS EARLY AS 12 NOON.", "nsi_id": "unitedstatespostalservice-a77078", "operator": "United States Postal Service", "operator:short": "USPS", "operator:type": "public", "operator:wikidata": "Q668687", "ref": "5530800006"}, "type": "Feature"}
{"geometry": {"coordinates": [-93.737763251, 45.332844483], "type": "Point"}, "id": "9RqSIq3RkWLPU4nrYeu7pn5UMa8=", "properties": {"@spider": "usps_collection_boxes", "addr:city": "BIG LAKE", "addr:country": "US", "addr:full": "625 ROSE DR", "addr:postcode": "55309", "addr:state": "MN", "amenity": "post_box", "brand": "United States Postal Service", "brand:wikidata": "Q668687", "collection_times": "Mo-Fr 16:45; Sa 11:00", "name": "USPS COLLECTION BOX - BLUE BOX", "note": "ON 12/24 AND 12/31, THIS BOX MAY BE COLLECTED AS EARLY AS 12 NOON.", "nsi_id": "unitedstatespostalservice-a77078", "operator": "United States Postal Service", "operator:short": "USPS", "operator:type": "public", "operator:wikidata": "Q668687", "ref": "5530900005"}, "type": "Feature"}
{"geometry": {"coordinates": [-93.737763251, 45.332844483], "type": "Point"}, "id": "vv7NG4I8NLW8EvOtEe3NFQGjOIU=", "properties": {"@spider": "usps_collection_boxes", "addr:city": "BIG LAKE", "addr:country": "US", "addr:full": "625 ROSE DR", "addr:postcode": "55309", "addr:state": "MN", "amenity": "post_box", "brand": "United States Postal Service", "brand:wikidata": "Q668687", "collection_times": "Mo-Fr 16:45; Sa 11:00", "name": "USPS COLLECTION BOX - PO LOBBY", "note": "ON 12/24 AND 12/31, THIS BOX MAY BE COLLECTED AS EARLY AS 12 NOON.", "nsi_id": "unitedstatespostalservice-a77078", "operator": "United States Postal Service", "operator:short": "USPS", "operator:type": "public", "operator:wikidata": "Q668687", "ref": "5530900006"}, "type": "Feature"}
{"geometry": {"coordinates": [-93.737763251, 45.332844483], "type": "Point"}, "id": "W9MXKZB6q9EOIl0KO5cUz_0fWZ0=", "properties": {"@spider": "usps_collection_boxes", "addr:city": "BIG LAKE", "addr:country": "US", "addr:full": "625 ROSE DR", "addr:postcode": "55309", "addr:state": "MN", "amenity": "post_box", "brand": "United States Postal Service", "brand:wikidata": "Q668687", "collection_times": "Mo-Fr 16:45; Sa 11:00", "name": "USPS COLLECTION BOX - BLUE BOX", "note": "ON 12/24 AND 12/31, THIS BOX MAY BE COLLECTED AS EARLY AS 12 NOON.", "nsi_id": "unitedstatespostalservice-a77078", "operator": "United States Postal Service", "operator:short": "USPS", "operator:type": "public", "operator:wikidata": "Q668687", "ref": "5530900007"}, "type": "Feature"}
{"geometry": {"coordinates": [-93.737763251, 45.332844483], "type": "Point"}, "id": "0kwurKha4V-JRqU_fogb_VxQ3eA=", "properties": {"@spider": "usps_collection_boxes", "addr:city": "BIG LAKE", "addr:country": "US", "addr:full": "625 ROSE DR", "addr:postcode": "55309", "addr:state": "MN", "amenity": "post_box", "brand": "United States Postal Service", "brand:wikidata": "Q668687", "collection_times": "Mo-Fr 16:30; Sa 11:00", "name": "USPS COLLECTION BOX - PO LOBBY", "note": "ON 12/24 AND 12/31, THIS BOX MAY BE COLLECTED AS EARLY AS 12 NOON.", "nsi_id": "unitedstatespostalservice-a77078", "operator": "United States Postal Service", "operator:short": "USPS", "operator:type": "public", "operator:wikidata": "Q668687", "ref": "5530900008"}, "type": "Feature"}
{"geometry": {"coordinates": [-94.895002726, 44.766026445], "type": "Point"}, "id": "Hf3TIXj2fQ439TDDkF4axI8Owq8=", "properties": {"@spider": "usps_collection_boxes", "addr:city": "BIRD ISLAND", "addr:country": "US", "addr:full": "240 MAIN ST", "addr:postcode": "55310", "addr:state": "MN", "amenity": "post_box", "brand": "United States Postal Service", "brand:wikidata": "Q668687", "collection_times": "Mo-Fr 14:00; Sa 11:45", "name": "USPS COLLECTION BOX - BLUE BOX", "note": "ON 12/24 AND 12/31, THIS BOX MAY BE COLLECTED AS EARLY AS 12 NOON.", "nsi_id": "unitedstatespostalservice-a77078", "operator": "United States Postal Service", "operator:short": "USPS", "operator:type": "public", "operator:wikidata": "Q668687", "ref": "5531000001"}, "type": "Feature"}
{"geometry": {"coordinates": [-94.895002726, 44.766026445], "type": "Point"}, "id": "vlWJ8vgOG4_R9AyQ7z1kfAN2PyY=", "properties": {"@spider": "usps_collection_boxes", "addr:city": "BIRD ISLAND", "addr:country": "US", "addr:full": "240 MAIN ST", "addr:postcode": "55310", "addr:state": "MN", "amenity": "post_box", "brand": "United States Postal Service", "brand:wikidata": "Q668687", "collection_times": "Mo-Fr 14:00; Sa 11:45", "name": "USPS COLLECTION BOX - PO LOBBY", "note": "ON 12/24 AND 12/31, THIS BOX MAY BE COLLECTED AS EARLY AS 12 NOON.", "nsi_id": "unitedstatespostalservice-a77078", "operator": "United States Postal Service", "operator:short": "USPS", "operator:type": "public", "operator:wikidata": "Q668687", "ref": "5531000002"}, "type": "Feature"}
{"geometry": {"coordinates": [-94.895002726, 44.766026445], "type": "Point"}, "id": "bBPbtBNwUrOvBW8u7IpUPxyQ5qQ=", "properties": {"@spider": "usps_collection_boxes", "addr:city": "BIRD ISLAND", "addr:country": "US", "addr:full": "240 MAIN ST", "addr:postcode": "55310", "addr:state": "MN", "amenity": "post_box", "brand": "United States Postal Service", "brand:wikidata": "Q668687", "collection_times": "Mo-Fr 14:00; Sa 11:45", "name": "USPS COLLECTION BOX - PO LOBBY", "note": "ON 12/24 AND 12/31, THIS BOX MAY BE COLLECTED AS EARLY AS 12 NOON.", "nsi_id": "unitedstatespostalservice-a77078", "operator": "United States Postal Service", "operator:short": "USPS", "operator:type": "public", "operator:wikidata": "Q668687", "ref": "5531000003"}, "type": "Feature"}
{"geometry": {"coordinates": [-94.351991304, 44.731863], "type": "Point"}, "id": "Qjzq50sMvuepeYCwyUw0uPcM43k=", "properties": {"@spider": "usps_collection_boxes", "addr:city": "BROWNTON", "addr:country": "US", "addr:full": "113 4TH AVE S", "addr:postcode": "55312", "addr:state": "MN", "amenity": "post_box", "brand": "United States Postal Service", "brand:wikidata": "Q668687", "collection_times": "Mo-Fr 15:15; Sa 09:30", "name": "USPS COLLECTION BOX - BLUE BOX", "note": "ON 12/24 AND 12/31, THIS BOX MAY BE COLLECTED AS EARLY AS 12 NOON.", "nsi_id": "unitedstatespostalservice-a77078", "operator": "United States Postal Service", "operator:short": "USPS", "operator:type": "public", "operator:wikidata": "Q668687", "ref": "5531200001"}, "type": "Feature"}
{"geometry": {"coordinates": [-94.351991304, 44.731863], "type": "Point"}, "id": "PKM1RiQz5Kw-1nnL0i2XZWjHs14=", "properties": {"@spider": "usps_collection_boxes", "addr:city": "BROWNTON", "addr:country": "US", "addr:full": "113 4TH AVE S", "addr:postcode": "55312", "addr:state": "MN", "amenity": "post_box", "brand": "United States Postal Service", "brand:wikidata": "Q668687", "collection_times": "Mo-Fr 15:15; Sa 09:30", "name": "USPS COLLECTION BOX - PO LOBBY", "note": "ON 12/24 AND 12/31, THIS BOX MAY BE COLLECTED AS EARLY AS 12 NOON.", "nsi_id": "unitedstatespostalservice-a77078", "operator": "United States Postal Service", "operator:short": "USPS", "operator:type": "public", "operator:wikidata": "Q668687", "ref": "5531200002"}, "type": "Feature"}
{"geometry": {"coordinates": [-94.351991304, 44.731863], "type": "Point"}, "id": "o03XeltkzldAmt30Q5w6qAQmYM4=", "properties": {"@spider": "usps_collection_boxes", "addr:city": "BROWNTON", "addr:country": "US", "addr:full": "113 4TH AVE S", "addr:postcode": "55312", "addr:state": "MN", "amenity": "post_box", "brand": "United States Postal Service", "brand:wikidata": "Q668687", "collection_times": "Mo-Fr 15:15; Sa 09:30", "name": "USPS COLLECTION BOX - PO LOBBY", "note": "ON 12/24 AND 12/31, THIS BOX MAY BE COLLECTED AS EARLY AS 12 NOON.", "nsi_id": "unitedstatespostalservice-a77078", "operator": "United States Postal Service", "operator:short": "USPS", "operator:type": "public", "operator:wikidata": "Q668687", "ref": "5531200003"}, "type": "Feature"}
{"geometry": {"coordinates": [-93.876289827, 45.174388668], "type": "Point"}, "id": "SJ6nXLBPFkTzv5xWttFBegeEyZI=", "properties": {"@spider": "usps_collection_boxes", "addr:city": "BUFFALO", "addr:country": "US", "addr:full": "209 CENTRAL AVE", "addr:postcode": "55313", "addr:state": "MN", "amenity": "post_box", "brand": "United States Postal Service", "brand:wikidata": "Q668687", "collection_times": "Mo-Fr 17:00; Sa 15:00", "name": "USPS COLLECTION BOX - BLUE BOX", "note": "ON 12/24 AND 12/31, THIS BOX MAY BE COLLECTED AS EARLY AS 12 NOON.", "nsi_id": "unitedstatespostalservice-a77078", "operator": "United States Postal Service", "operator:short": "USPS", "operator:type": "public", "operator:wikidata": "Q668687", "ref": "5531300001"}, "type": "Feature"}
{"geometry": {"coordinates": [-93.860719893, 45.169347516], "type": "Point"}, "id": "JLnlKE1VtCboB14fDNIDI1Q5efU=", "properties": {"@spider": "usps_collection_boxes", "addr:city": "BUFFALO", "addr:country": "US", "addr:full": "1008 HIGHWAY 55 E", "addr:postcode": "55313", "addr:state": "MN", "amenity": "post_box", "brand": "United States Postal Service", "brand:wikidata": "Q668687", "collection_times": "Mo-Sa 09:00", "name": "USPS COLLECTION BOX - BLUE BOX", "nsi_id": "unitedstatespostalservice-a77078", "operator": "United States Postal Service", "operator:short": "USPS", "operator:type": "public", "operator:wikidata": "Q668687", "ref": "5531300004"}, "type": "Feature"}
{"geometry": {"coordinates": [-93.856532673, 45.172914261], "type": "Point"}, "id": "QKuYP93jDW-mcJrtQpOQ6h9yAcY=", "properties": {"@spider": "usps_collection_boxes", "addr:city": "BUFFALO", "addr:country": "US", "addr:full": "114 ASPEN AVE NE", "addr:postcode": "55313", "addr:state": "MN", "amenity": "post_box", "brand": "United States Postal Service", "brand:wikidata": "Q668687", "collection_times": "Mo-Sa 09:00", "name": "USPS COLLECTION BOX - BLUE BOX", "nsi_id": "unitedstatespostalservice-a77078", "operator": "United States Postal Service", "operator:short": "USPS", "operator:type": "public", "operator:wikidata": "Q668687", "ref": "5531300006"}, "type": "Feature"}
{"geometry": {"coordinates": [-93.874908327, 45.171916822], "type": "Point"}, "id": "m__RxH_ARA8MknIekrOUoVLFVY0=", "properties": {"@spider": "usps_collection_boxes", "addr:city": "BUFFALO", "addr:country": "US", "addr:full": "11 1ST AVE S", "addr:postcode": "55313", "addr:state": "MN", "amenity": "post_box", "brand": "United States Postal Service", "brand:wikidata": "Q668687", "collection_times": "Mo-Fr 14:00; Sa 12:00", "name": "USPS COLLECTION BOX - BLUE BOX", "note": "ON 12/24 AND 12/31, THIS BOX MAY BE COLLECTED AS EARLY AS 12 NOON.", "nsi_id": "unitedstatespostalservice-a77078", "operator": "United States Postal Service", "operator:short": "USPS", "operator:type": "public", "operator:wikidata": "Q668687", "ref": "5531300008"}, "type": "Feature"}
{"geometry": {"coordinates": [-93.869578799, 45.151582004], "type": "Point"}, "id": "bFqiSFT9g-3EvBaXo_QmsU_H5bk=", "properties": {"@spider": "usps_collection_boxes", "addr:city": "BUFFALO", "addr:country": "US", "addr:full": "500 17TH ST S", "addr:postcode": "55313", "addr:state": "MN", "amenity": "post_box", "brand": "United States Postal Service", "brand:wikidata": "Q668687", "collection_times": "Mo-Sa 12:00", "name": "USPS COLLECTION BOX - BLUE BOX", "nsi_id": "unitedstatespostalservice-a77078", "operator": "United States Postal Service", "operator:short": "USPS", "operator:type": "public", "operator:wikidata": "Q668687", "ref": "5531300013"}, "type": "Feature"}
{"geometry": {"coordinates": [-93.858202328, 45.165101411], "type": "Point"}, "id": "UimIzg5jMfCT2preFA2qpEugqs0=", "properties": {"@spider": "usps_collection_boxes", "addr:city": "BUFFALO", "addr:country": "US", "addr:full": "1300 HWY 55 E", "addr:postcode": "55313", "addr:state": "MN", "amenity": "post_box", "brand": "United States Postal Service", "brand:wikidata": "Q668687", "collection_times": "Mo-Sa 09:00", "name": "USPS COLLECTION BOX - BLUE BOX", "nsi_id": "unitedstatespostalservice-a77078", "operator": "United States Postal Service", "operator:short": "USPS", "operator:type": "public", "operator:wikidata": "Q668687", "ref": "5531300014"}, "type": "Feature"}
{"geometry": {"coordinates": [-93.875862636, 45.190042819], "type": "Point"}, "id": "mFtm3NrGrq8q9v2OTLKseVL2HFA=", "properties": {"@spider": "usps_collection_boxes", "addr:city": "BUFFALO", "addr:country": "US", "addr:full": "1315 HIGHWAY 25 N", "addr:postcode": "55313", "addr:state": "MN", "amenity": "post_box", "brand": "United States Postal Service", "brand:wikidata": "Q668687", "collection_times": "Mo-Sa 09:00", "name": "USPS COLLECTION BOX - BLUE BOX", "nsi_id": "unitedstatespostalservice-a77078", "operator": "United States Postal Service", "operator:short": "USPS", "operator:type": "public", "operator:wikidata": "Q668687", "ref": "5531300015"}, "type": "Feature"}
{"geometry": {"coordinates": [-93.876289827, 45.174388668], "type": "Point"}, "id": "SdQCxe5-mG5yYf_dBBay99BQmCA=", "properties": {"@spider": "usps_collection_boxes", "addr:city": "BUFFALO", "addr:country": "US", "addr:full": "209 CENTRAL AVE", "addr:postcode": "55313", "addr:state": "MN", "amenity": "post_box", "brand": "United States Postal Service", "brand:wikidata": "Q668687", "collection_times": "Mo-Fr 17:00; Sa 15:00", "name": "USPS COLLECTION BOX - PO LOBBY", "note": "ON 12/24 AND 12/31, THIS BOX MAY BE COLLECTED AS EARLY AS 12 NOON.", "nsi_id": "unitedstatespostalservice-a77078", "operator": "United States Postal Service", "operator:short": "USPS", "operator:type": "public", "operator:wikidata": "Q668687", "ref": "5531300017"}, "type": "Feature"}
{"geometry": {"coordinates": [-93.848700988, 45.17129678], "type": "Point"}, "id": "LQnKCMBtAbFMco0u_pwbCN-y7Bc=", "properties": {"@spider": "usps_collection_boxes", "addr:city": "BUFFALO", "addr:country": "US", "addr:full": "201 ATLAS AVE NE", "addr:postcode": "55313", "addr:state": "MN", "amenity": "post_box", "brand": "United States Postal Service", "brand:wikidata": "Q668687", "collection_times": "Mo-Fr 17:00; Sa 12:00", "name": "USPS COLLECTION BOX - BLUE BOX", "note": "ON 12/24 AND 12/31, THIS BOX MAY BE COLLECTED AS EARLY AS 12 NOON.", "nsi_id": "unitedstatespostalservice-a77078", "operator": "United States Postal Service", "operator:short": "USPS", "operator:type": "public", "operator:wikidata": "Q668687", "ref": "5531300018"}, "type": "Feature"}
{"geometry": {"coordinates": [-93.876289827, 45.174388668], "type": "Point"}, "id": "dOmRfrDjKBX0HvM3Zh3rnKth_fA=", "properties": {"@spider": "usps_collection_boxes", "addr:city": "BUFFALO", "addr:country": "US", "addr:full": "209 CENTRAL AVE", "addr:postcode": "55313", "addr:state": "MN", "amenity": "post_box", "brand": "United States Postal Service", "brand:wikidata": "Q668687", "collection_times": "Mo-Fr 17:00; Sa 15:00", "name": "USPS COLLECTION BOX - BLUE BOX", "note": "ON 12/24 AND 12/31, THIS BOX MAY BE COLLECTED AS EARLY AS 12 NOON.", "nsi_id": "unitedstatespostalservice-a77078", "operator": "United States Postal Service", "operator:short": "USPS", "operator:type": "public", "operator:wikidata": "Q668687", "ref": "5531300019"}, "type": "Feature"}
{"geometry": {"coordinates": [-93.848700988, 45.17129678], "type": "Point"}, "id": "2thLUToCqga-hCzD5_sPsQa4SIQ=", "properties": {"@spider": "usps_collection_boxes", "addr:city": "BUFFALO", "addr:country": "US", "addr:full": "201 ATLAS AVE NE", "addr:postcode": "55313", "addr:state": "MN", "amenity": "post_box", "brand": "United States Postal Service", "brand:wikidata": "Q668687", "collection_times": "Mo-Fr 17:00; Sa 12:00", "name": "USPS COLLECTION BOX - BLUE BOX", "note": "ON 12/24 AND 12/31, THIS BOX MAY BE COLLECTED AS EARLY AS 12 NOON.", "nsi_id": "unitedstatespostalservice-a77078", "operator": "United States Postal Service", "operator:short": "USPS", "operator:type": "public", "operator:wikidata": "Q668687", "ref": "5531300020"}, "type": "Feature"}
{"geometry": {"coordinates": [-93.876289827, 45.174388668], "type": "Point"}, "id": "dFzPxdqU8s0sdDsquEvPCfW34-8=", "properties": {"@spider": "usps_collection_boxes", "addr:city": "BUFFALO", "addr:country": "US", "addr:full": "209 CENTRAL AVE", "addr:postcode": "55313", "addr:state": "MN", "amenity": "post_box", "brand": "United States Postal Service", "brand:wikidata": "Q668687", "collection_times": "Mo-Fr 17:00; Sa 15:00", "name": "USPS COLLECTION BOX - PO LOBBY", "note": "ON 12/24 AND 12/31, THIS BOX MAY BE COLLECTED AS EARLY AS 12 NOON.", "nsi_id": "unitedstatespostalservice-a77078", "operator": "United States Postal Service", "operator:short": "USPS", "operator:type": "public", "operator:wikidata": "Q668687", "ref": "5531300021"}, "type": "Feature"}
{"geometry": {"coordinates": [-93.876289827, 45.174388668], "type": "Point"}, "id": "xfEq_x4zw34ZQHFRhlTXpBeXVas=", "properties": {"@spider": "usps_collection_boxes", "addr:city": "BUFFALO", "addr:country": "US", "addr:full": "209 CENTRAL AVE", "addr:postcode": "55313", "addr:state": "MN", "amenity": "post_box", "brand": "United States Postal Service", "brand:wikidata": "Q668687", "collection_times": "Mo-Fr 17:00; Sa 10:00", "name": "USPS COLLECTION BOX - PO LOBBY", "note": "ON 12/24 AND 12/31, THIS BOX MAY BE COLLECTED AS EARLY AS 12 NOON.", "nsi_id": "unitedstatespostalservice-a77078", "operator": "United States Postal Service", "operator:short": "USPS", "operator:type": "public", "operator:wikidata": "Q668687", "ref": "5531300025"}, "type": "Feature"}
{"geometry": {"coordinates": [-94.617107882, 44.736897426], "type": "Point"}, "id": "pMR-uVDePK489oqNrYbWWpNePG4=", "properties": {"@spider": "usps_collection_boxes", "addr:city": "BUFFALO LAKE", "addr:country": "US", "addr:full": "146 N MAIN ST", "addr:postcode": "55314", "addr:state": "MN", "amenity": "post_box", "brand": "United States Postal Service", "brand:wikidata": "Q668687", "collection_times": "Mo-Fr 14:30; Sa 10:15", "name": "USPS COLLECTION BOX - BLUE BOX", "note": "ON 12/24 AND 12/31, THIS BOX MAY BE COLLECTED AS EARLY AS 12 NOON.", "nsi_id": "unitedstatespostalservice-a77078", "operator": "United States Postal Service", "operator:short": "USPS", "operator:type": "public", "operator:wikidata": "Q668687", "ref": "5531400001"}, "type": "Feature"}
{"geometry": {"coordinates": [-94.617107882, 44.736897426], "type": "Point"}, "id": "1k7xD1M-ixb_qcSngyQGma7hHWw=", "properties": {"@spider": "usps_collection_boxes", "addr:city": "BUFFALO LAKE", "addr:country": "US", "addr:full": "146 N MAIN ST", "addr:postcode": "55314", "addr:state": "MN", "amenity": "post_box", "brand": "United States Postal Service", "brand:wikidata": "Q668687", "collection_times": "Mo-Fr 14:30; Sa 10:15", "name": "USPS COLLECTION BOX - PO LOBBY", "note": "ON 12/24 AND 12/31, THIS BOX MAY BE COLLECTED AS EARLY AS 12 NOON.", "nsi_id": "unitedstatespostalservice-a77078", "operator": "United States Postal Service", "operator:short": "USPS", "operator:type": "public", "operator:wikidata": "Q668687", "ref": "5531400002"}, "type": "Feature"}
{"geometry": {"coordinates": [-94.6171078815, 44.7368974258], "type": "Point"}, "id": "pjD_nD6hb4Z_hU4lFQDH8nuJ2-I=", "properties": {"@spider": "usps_collection_boxes", "addr:city": "BUFFALO LAKE", "addr:country": "US", "addr:full": "146 N MAIN ST", "addr:postcode": "55314", "addr:state": "MN", "amenity": "post_box", "brand": "United States Postal Service", "brand:wikidata": "Q668687", "collection_times": "Mo-Fr 14:30; Sa 09:30", "name": "USPS COLLECTION BOX - PO LOBBY", "note": "ON 12/24 AND 12/31, THIS BOX MAY BE COLLECTED AS EARLY AS 12 NOON.", "nsi_id": "unitedstatespostalservice-a77078", "operator": "United States Postal Service", "operator:short": "USPS", "operator:type": "public", "operator:wikidata": "Q668687", "ref": "5531400003"}, "type": "Feature"}
{"geometry": {"coordinates": [-94.000445154, 45.443835533], "type": "Point"}, "id": "GltbxwwwQSizujgYwpWJynhTM6g=", "properties": {"@spider": "usps_collection_boxes", "addr:city": "CLEAR LAKE", "addr:country": "US", "addr:full": "8698 MAIN AVE", "addr:postcode": "55319", "addr:state": "MN", "amenity": "post_box", "brand": "United States Postal Service", "brand:wikidata": "Q668687", "collection_times": "Mo-Fr 16:15; Sa 11:15", "name": "USPS COLLECTION BOX - BLUE BOX", "note": "ON 12/24 AND 12/31, THIS BOX MAY BE COLLECTED AS EARLY AS 12 NOON.", "nsi_id": "unitedstatespostalservice-a77078", "operator": "United States Postal Service", "operator:short": "USPS", "operator:type": "public", "operator:wikidata": "Q668687", "ref": "5531900001"}, "type": "Feature"}
{"geometry": {"coordinates": [-94.000716, 45.44397], "type": "Point"}, "id": "v3BNsWLEmI3EBvAqaFbb7A1QioQ=", "properties": {"@spider": "usps_collection_boxes", "addr:city": "CLEAR LAKE", "addr:country": "US", "addr:full": "8698 MAIN AVE", "addr:postcode": "55319", "addr:state": "MN", "amenity": "post_box", "brand": "United States Postal Service", "brand:wikidata": "Q668687", "collection_times": "Mo-Fr 16:30; Sa 11:15", "name": "USPS COLLECTION BOX - PO LOBBY", "note": "ON 12/24 AND 12/31, THIS BOX MAY BE COLLECTED AS EARLY AS 12 NOON.", "nsi_id": "unitedstatespostalservice-a77078", "operator": "United States Postal Service", "operator:short": "USPS", "operator:type": "public", "operator:wikidata": "Q668687", "ref": "5531900002"}, "type": "Feature"}
{"geometry": {"coordinates": [-94.000716, 45.44397], "type": "Point"}, "id": "FL4_nM5pwEHBlltZdK5QHdSd0rU=", "properties": {"@spider": "usps_collection_boxes", "addr:city": "CLEAR LAKE", "addr:country": "US", "addr:full": "8698 MAIN AVE", "addr:postcode": "55319", "addr:state": "MN", "amenity": "post_box", "brand": "United States Postal Service", "brand:wikidata": "Q668687", "collection_times": "Mo-Fr 16:30; Sa 11:30", "name": "USPS COLLECTION BOX - PO LOBBY", "note": "ON 12/24 AND 12/31, THIS BOX MAY BE COLLECTED AS EARLY AS 12 NOON.", "nsi_id": "unitedstatespostalservice-a77078", "operator": "United States Postal Service", "operator:short": "USPS", "operator:type": "public", "operator:wikidata": "Q668687", "ref": "5531900004"}, "type": "Feature"}
{"geometry": {"coordinates": [-94.053418084, 45.415258147], "type": "Point"}, "id": "mD9fyjPc2IZKCdud0im3iJ30KLU=", "properties": {"@spider": "usps_collection_boxes", "addr:city": "CLEARWATER", "addr:country": "US", "addr:full": "625 SMITH ST", "addr:postcode": "55320", "addr:state": "MN", "amenity": "post_box", "brand": "United States Postal Service", "brand:wikidata": "Q668687", "collection_times": "Mo-Fr 16:00; Sa 09:45", "name": "USPS COLLECTION BOX - BLUE BOX", "note": "ON 12/24 AND 12/31, THIS BOX MAY BE COLLECTED AS EARLY AS 12 NOON.", "nsi_id": "unitedstatespostalservice-a77078", "operator": "United States Postal Service", "operator:short": "USPS", "operator:type": "public", "operator:wikidata": "Q668687", "ref": "5532000003"}, "type": "Feature"}
{"geometry": {"coordinates": [-94.053418084, 45.415258147], "type": "Point"}, "id": "kM5ZGjBjbDgRtPJnudQJrHp_sS4=", "properties": {"@spider": "usps_collection_boxes", "addr:city": "CLEARWATER", "addr:country": "US", "addr:full": "625 SMITH ST", "addr:postcode": "55320", "addr:state": "MN", "amenity": "post_box", "brand": "United States Postal Service", "brand:wikidata": "Q668687", "collection_times": "Mo-Fr 16:00; Sa 09:45", "name": "USPS COLLECTION BOX - PO LOBBY", "note": "ON 12/24 AND 12/31, THIS BOX MAY BE COLLECTED AS EARLY AS 12 NOON.", "nsi_id": "unitedstatespostalservice-a77078", "operator": "United States Postal Service", "operator:short": "USPS", "operator:type": "public", "operator:wikidata": "Q668687", "ref": "5532000004"}, "type": "Feature"}
{"geometry": {"coordinates": [-94.053418084, 45.415258147], "type": "Point"}, "id": "8FAUhQCxGgUhPo9WDIQVD7jQ5Jg=", "properties": {"@spider": "usps_collection_boxes", "addr:city": "CLEARWATER", "addr:country": "US", "addr:full": "625 SMITH ST", "addr:postcode": "55320", "addr:state": "MN", "amenity": "post_box", "brand": "United States Postal Service", "brand:wikidata": "Q668687", "collection_times": "Mo-Fr 16:00; Sa 09:45", "name": "USPS COLLECTION BOX - PO LOBBY", "note": "ON 12/24 AND 12/31, THIS BOX MAY BE COLLECTED AS EARLY AS 12 NOON.", "nsi_id": "unitedstatespostalservice-a77078", "operator": "United States Postal Service", "operator:short": "USPS", "operator:type": "public", "operator:wikidata": "Q668687", "ref": "5532000005"}, "type": "Feature"}
{"geometry": {"coordinates": [-94.053418084, 45.415258147], "type": "Point"}, "id": "sSRLIJWr1K7Mbz79qJvI7u3suAA=", "properties": {"@spider": "usps_collection_boxes", "addr:city": "CLEARWATER", "addr:country": "US", "addr:full": "625 SMITH ST", "addr:postcode": "55320", "addr:state": "MN", "amenity": "post_box", "brand": "United States Postal Service", "brand:wikidata": "Q668687", "collection_times": "Mo-Fr 16:15; Sa 09:30", "name": "USPS COLLECTION BOX - PO LOBBY", "note": "ON 12/24 AND 12/31, THIS BOX MAY BE COLLECTED AS EARLY AS 12 NOON.", "nsi_id": "unitedstatespostalservice-a77078", "operator": "United States Postal Service", "operator:short": "USPS", "operator:type": "public", "operator:wikidata": "Q668687", "ref": "5532000006"}, "type": "Feature"}
{"geometry": {"coordinates": [-94.193981193, 45.079976517], "type": "Point"}, "id": "n2RwALOd5dTzk9uq481UQJiIol8=", "properties": {"@spider": "usps_collection_boxes", "addr:city": "COKATO", "addr:country": "US", "addr:full": "310 COKATO ST W", "addr:postcode": "55321", "addr:state": "MN", "amenity": "post_box", "brand": "United States Postal Service", "brand:wikidata": "Q668687", "collection_times": "Mo-Sa 11:00", "name": "USPS COLLECTION BOX - BLUE BOX", "nsi_id": "unitedstatespostalservice-a77078", "operator": "United States Postal Service", "operator:short": "USPS", "operator:type": "public", "operator:wikidata": "Q668687", "ref": "5532100001"}, "type": "Feature"}
{"geometry": {"coordinates": [-94.199164755, 45.079952236], "type": "Point"}, "id": "_kxfC1BUy4Poc-RUP5qmG31AlNg=", "properties": {"@spider": "usps_collection_boxes", "addr:city": "COKATO", "addr:country": "US", "addr:full": "620 US HIGHWAY 12 SW", "addr:postcode": "55321", "addr:state": "MN", "amenity": "post_box", "brand": "United States Postal Service", "brand:wikidata": "Q668687", "collection_times": "Mo-Sa 11:00", "name": "USPS COLLECTION BOX - BLUE BOX", "nsi_id": "unitedstatespostalservice-a77078", "operator": "United States Postal Service", "operator:short": "USPS", "operator:type": "public", "operator:wikidata": "Q668687", "ref": "5532100002"}, "type": "Feature"}
{"geometry": {"coordinates": [-94.188591, 45.076250496], "type": "Point"}, "id": "ZDmVNPMR523nY_qp3VFywm6qX1g=", "properties": {"@spider": "usps_collection_boxes", "addr:city": "COKATO", "addr:country": "US", "addr:full": "190 3RD ST SE", "addr:postcode": "55321", "addr:state": "MN", "amenity": "post_box", "brand": "United States Postal Service", "brand:wikidata": "Q668687", "collection_times": "Mo-Fr 16:45; Sa 12:00", "name": "USPS COLLECTION BOX - BLUE BOX", "note": "ON 12/24 AND 12/31, THIS BOX MAY BE COLLECTED AS EARLY AS 12 NOON.", "nsi_id": "unitedstatespostalservice-a77078", "operator": "United States Postal Service", "operator:short": "USPS", "operator:type": "public", "operator:wikidata": "Q668687", "ref": "5532100003"}, "type": "Feature"}
{"geometry": {"coordinates": [-94.188591, 45.076250496], "type": "Point"}, "id": "0536zvEhJi3Ftx2hzwO2pOHPShk=", "properties": {"@spider": "usps_collection_boxes", "addr:city": "COKATO", "addr:country": "US", "addr:full": "190 3RD ST SE", "addr:postcode": "55321", "addr:state": "MN", "amenity": "post_box", "brand": "United States Postal Service", "brand:wikidata": "Q668687", "collection_times": "Mo-Fr 16:45; Sa 09:30", "name": "USPS COLLECTION BOX - PO LOBBY", "note": "ON 12/24 AND 12/31, THIS BOX MAY BE COLLECTED AS EARLY AS 12 NOON.", "nsi_id": "unitedstatespostalservice-a77078", "operator": "United States Postal Service", "operator:short": "USPS", "operator:type": "public", "operator:wikidata": "Q668687", "ref": "5532100004"}, "type": "Feature"}
{"geometry": {"coordinates": [-94.188591, 45.076250496], "type": "Point"}, "id": "hhI035bhLV2cBDzerseRropFLX0=", "properties": {"@spider": "usps_collection_boxes", "addr:city": "COKATO", "addr:country": "US", "addr:full": "190 3RD ST SE", "addr:postcode": "55321", "addr:state": "MN", "amenity": "post_box", "brand": "United States Postal Service", "brand:wikidata": "Q668687", "collection_times": "Mo-Fr 16:45; Sa 12:00", "name": "USPS COLLECTION BOX - BLUE BOX", "note": "ON 12/24 AND 12/31, THIS BOX MAY BE COLLECTED AS EARLY AS 12 NOON.", "nsi_id": "unitedstatespostalservice-a77078", "operator": "United States Postal Service", "operator:short": "USPS", "operator:type": "public", "operator:wikidata": "Q668687", "ref": "5532100005"}, "type": "Feature"}
{"geometry": {"coordinates": [-94.188591, 45.076250496], "type": "Point"}, "id": "4Brv_lZB5Ts-fFYsxJBO6hgiLdY=", "properties": {"@spider": "usps_collection_boxes", "addr:city": "COKATO", "addr:country": "US", "addr:full": "190 3RD ST SE", "addr:postcode": "55321", "addr:state": "MN", "amenity": "post_box", "brand": "United States Postal Service", "brand:wikidata": "Q668687", "collection_times": "Mo-Fr 16:30; Sa 09:15", "name": "USPS COLLECTION BOX - PO LOBBY", "note": "ON 12/24 AND 12/31, THIS BOX MAY BE COLLECTED AS EARLY AS 12 NOON.", "nsi_id": "unitedstatespostalservice-a77078", "operator": "United States Postal Service", "operator:short": "USPS", "operator:type": "public", "operator:wikidata": "Q668687", "ref": "5532100007"}, "type": "Feature"}
{"geometry": {"coordinates": [-93.576428116, 44.953593039], "type": "Point"}, "id": "gB-UJeadGTPhnr1Z0OqwvMo9NYE=", "properties": {"@spider": "usps_collection_boxes", "addr:city": "CRYSTAL BAY", "addr:country": "US", "addr:full": "1355 BROWN RD S", "addr:postcode": "55323", "addr:state": "MN", "amenity": "post_box", "brand": "United States Postal Service", "brand:wikidata": "Q668687", "collection_times": "Mo-Fr 16:30; Sa 10:30", "name": "USPS COLLECTION BOX - BLUE BOX", "note": "ON 12/24 AND 12/31, THIS BOX MAY BE COLLECTED AS EARLY AS 12 NOON.", "nsi_id": "unitedstatespostalservice-a77078", "operator": "United States Postal Service", "operator:short": "USPS", "operator:type": "public", "operator:wikidata": "Q668687", "ref": "5532300001"}, "type": "Feature"}
{"geometry": {"coordinates": [-93.576428116, 44.953593039], "type": "Point"}, "id": "NEs78SacmU0KgLPWUcxiPYhBDfM=", "properties": {"@spider": "usps_collection_boxes", "addr:city": "CRYSTAL BAY", "addr:country": "US", "addr:full": "1355 BROWN RD S", "addr:postcode": "55323", "addr:state": "MN", "amenity": "post_box", "brand": "United States Postal Service", "brand:wikidata": "Q668687", "collection_times": "Mo-Fr 16:30; Sa 10:30", "name": "USPS COLLECTION BOX - PO LOBBY", "note": "ON 12/24 AND 12/31, THIS BOX MAY BE COLLECTED AS EARLY AS 12 NOON.", "nsi_id": "unitedstatespostalservice-a77078", "operator": "United States Postal Service", "operator:short": "USPS", "operator:type": "public", "operator:wikidata": "Q668687", "ref": "5532300002"}, "type": "Feature"}
{"geometry": {"coordinates": [-93.5764281159, 44.9535930386], "type": "Point"}, "id": "tzadhcjrKIdm_796A_PWemLzOIs=", "properties": {"@spider": "usps_collection_boxes", "addr:city": "CRYSTAL BAY", "addr:country": "US", "addr:full": "1355 BROWN RD S", "addr:postcode": "55323", "addr:state": "MN", "amenity": "post_box", "brand": "United States Postal Service", "brand:wikidata": "Q668687", "collection_times": "Mo-Fr 16:30; Sa 10:30", "name": "USPS COLLECTION BOX - PO LOBBY", "note": "ON 12/24 AND 12/31, THIS BOX MAY BE COLLECTED AS EARLY AS 12 NOON.", "nsi_id": "unitedstatespostalservice-a77078", "operator": "United States Postal Service", "operator:short": "USPS", "operator:type": "public", "operator:wikidata": "Q668687", "ref": "5532300003"}, "type": "Feature"}
{"geometry": {"coordinates": [-94.410396997, 45.09683436], "type": "Point"}, "id": "0Mc7rDy5EHjO7WfFKokeM0Sx7tE=", "properties": {"@spider": "usps_collection_boxes", "addr:city": "DARWIN", "addr:country": "US", "addr:full": "321 N 1ST ST", "addr:postcode": "55324", "addr:state": "MN", "amenity": "post_box", "brand": "United States Postal Service", "brand:wikidata": "Q668687", "collection_times": "Mo-Fr 15:30; Sa 08:45", "name": "USPS COLLECTION BOX - BLUE BOX", "note": "ON 12/24 AND 12/31, THIS BOX MAY BE COLLECTED AS EARLY AS 12 NOON.", "nsi_id": "unitedstatespostalservice-a77078", "operator": "United States Postal Service", "operator:short": "USPS", "operator:type": "public", "operator:wikidata": "Q668687", "ref": "5532400001"}, "type": "Feature"}
{"geometry": {"coordinates": [-94.410396997, 45.09683436], "type": "Point"}, "id": "f3xQWS2N32uj08ASMt9R35YOa8c=", "properties": {"@spider": "usps_collection_boxes", "addr:city": "DARWIN", "addr:country": "US", "addr:full": "321 N 1ST ST", "addr:postcode": "55324", "addr:state": "MN", "amenity": "post_box", "brand": "United States Postal Service", "brand:wikidata": "Q668687", "collection_times": "Mo-Fr 15:30; Sa 08:45", "name": "USPS COLLECTION BOX - PO LOBBY", "note": "ON 12/24 AND 12/31, THIS BOX MAY BE COLLECTED AS EARLY AS 12 NOON.", "nsi_id": "unitedstatespostalservice-a77078", "operator": "United States Postal Service", "operator:short": "USPS", "operator:type": "public", "operator:wikidata": "Q668687", "ref": "5532400002"}, "type": "Feature"}
{"geometry": {"coordinates": [-94.410396997, 45.09683436], "type": "Point"}, "id": "w9OFmOzsmwzBVZWVpx4wf75Vf6U=", "properties": {"@spider": "usps_collection_boxes", "addr:city": "DARWIN", "addr:country": "US", "addr:full": "321 N 1ST ST", "addr:postcode": "55324", "addr:state": "MN", "amenity": "post_box", "brand": "United States Postal Service", "brand:wikidata": "Q668687", "collection_times": "Mo-Fr 15:45; Sa 08:45", "name": "USPS COLLECTION BOX - PO LOBBY", "note": "ON 12/24 AND 12/31, THIS BOX MAY BE COLLECTED AS EARLY AS 12 NOON.", "nsi_id": "unitedstatespostalservice-a77078", "operator": "United States Postal Service", "operator:short": "USPS", "operator:type": "public", "operator:wikidata": "Q668687", "ref": "5532400003"}, "type": "Feature"}
{"geometry": {"coordinates": [-94.308607996, 45.082541206], "type": "Point"}, "id": "0JnKR4ZjU0sHpn6kTxCru3gTg1Y=", "properties": {"@spider": "usps_collection_boxes", "addr:city": "DASSEL", "addr:country": "US", "addr:full": "501 2ND ST N", "addr:postcode": "55325", "addr:state": "MN", "amenity": "post_box", "brand": "United States Postal Service", "brand:wikidata": "Q668687", "collection_times": "Mo-Fr 16:30; Sa 10:00", "name": "USPS COLLECTION BOX - BLUE BOX", "note": "ON 12/24 AND 12/31, THIS BOX MAY BE COLLECTED AS EARLY AS 12 NOON.", "nsi_id": "unitedstatespostalservice-a77078", "operator": "United States Postal Service", "operator:short": "USPS", "operator:type": "public", "operator:wikidata": "Q668687", "ref": "5532500001"}, "type": "Feature"}
{"geometry": {"coordinates": [-94.308607996, 45.082541206], "type": "Point"}, "id": "CZI9uYLqbmg9nEFj-BPCmgT2-w8=", "properties": {"@spider": "usps_collection_boxes", "addr:city": "DASSEL", "addr:country": "US", "addr:full": "501 2ND ST N", "addr:postcode": "55325", "addr:state": "MN", "amenity": "post_box", "brand": "United States Postal Service", "brand:wikidata": "Q668687", "collection_times": "Mo-Fr 16:45; Sa 10:00", "name": "USPS COLLECTION BOX - PO LOBBY", "note": "ON 12/24 AND 12/31, THIS BOX MAY BE COLLECTED AS EARLY AS 12 NOON.", "nsi_id": "unitedstatespostalservice-a77078", "operator": "United States Postal Service", "operator:short": "USPS", "operator:type": "public", "operator:wikidata": "Q668687", "ref": "5532500002"}, "type": "Feature"}
{"geometry": {"coordinates": [-94.308607996, 45.082541206], "type": "Point"}, "id": "j8J63Ln5B1cYy44hRumABYQIl4E=", "properties": {"@spider": "usps_collection_boxes", "addr:city": "DASSEL", "addr:country": "US", "addr:full": "501 2ND ST N", "addr:postcode": "55325", "addr:state": "MN", "amenity": "post_box", "brand": "United States Postal Service", "brand:wikidata": "Q668687", "collection_times": "Mo-Fr 16:30; Sa 09:30", "name": "USPS COLLECTION BOX - PO LOBBY", "note": "ON 12/24 AND 12/31, THIS BOX MAY BE COLLECTED AS EARLY AS 12 NOON.", "nsi_id": "unitedstatespostalservice-a77078", "operator": "United States Postal Service", "operator:short": "USPS", "operator:type": "public", "operator:wikidata": "Q668687", "ref": "5532500003"}, "type": "Feature"}
{"geometry": {"coordinates": [-93.517160623, 45.2441127615], "type": "Point"}, "id": "9-vgia043ylxziKi_jBb4So0oak=", "properties": {"@spider": "usps_collection_boxes", "addr:city": "DAYTON", "addr:country": "US", "addr:full": "18511 ROBINSON ST", "addr:postcode": "55327", "addr:state": "MN", "amenity": "post_box", "brand": "United States Postal Service", "brand:wikidata": "Q668687", "collection_times": "Mo-Fr 16:15; Sa 10:00", "name": "USPS COLLECTION BOX - BLUE BOX", "note": "ON 12/24 AND 12/31, THIS BOX MAY BE COLLECTED AS EARLY AS 12 NOON.", "nsi_id": "unitedstatespostalservice-a77078", "operator": "United States Postal Service", "operator:short": "USPS", "operator:type": "public", "operator:wikidata": "Q668687", "ref": "5532700002"}, "type": "Feature"}
{"geometry": {"coordinates": [-93.517161824, 45.244088852], "type": "Point"}, "id": "UnhVTswKQu_vGvIyJENhNv8kv9U=", "properties": {"@spider": "usps_collection_boxes", "addr:city": "DAYTON", "addr:country": "US", "addr:full": "18511 ROBINSON ST", "addr:postcode": "55327", "addr:state": "MN", "amenity": "post_box", "brand": "United States Postal Service", "brand:wikidata": "Q668687", "collection_times": "Mo-Fr 16:15; Sa 10:00", "name": "USPS COLLECTION BOX - PO LOBBY", "note": "ON 12/24 AND 12/31, THIS BOX MAY BE COLLECTED AS EARLY AS 12 NOON.", "nsi_id": "unitedstatespostalservice-a77078", "operator": "United States Postal Service", "operator:short": "USPS", "operator:type": "public", "operator:wikidata": "Q668687", "ref": "5532700003"}, "type": "Feature"}
{"geometry": {"coordinates": [-93.517161824, 45.244088852], "type": "Point"}, "id": "FPyvBW0s7yg2NJp1m4UZKw3z-yE=", "properties": {"@spider": "usps_collection_boxes", "addr:city": "DAYTON", "addr:country": "US", "addr:full": "18511 ROBINSON ST", "addr:postcode": "55327", "addr:state": "MN", "amenity": "post_box", "brand": "United States Postal Service", "brand:wikidata": "Q668687", "collection_times": "Mo-Fr 16:15; Sa 10:00", "name": "USPS COLLECTION BOX - PO LOBBY", "note": "ON 12/24 AND 12/31, THIS BOX MAY BE COLLECTED AS EARLY AS 12 NOON.", "nsi_id": "unitedstatespostalservice-a77078", "operator": "United States Postal Service", "operator:short": "USPS", "operator:type": "public", "operator:wikidata": "Q668687", "ref": "5532700004"}, "type": "Feature"}
{"geometry": {"coordinates": [-93.789301078, 45.040815], "type": "Point"}, "id": "X7OIpu_mjoM7-4NZi8Gq1PU6MO8=", "properties": {"@spider": "usps_collection_boxes", "addr:city": "DELANO", "addr:country": "US", "addr:full": "100 RIVER ST N", "addr:postcode": "55328", "addr:state": "MN", "amenity": "post_box", "brand": "United States Postal Service", "brand:wikidata": "Q668687", "collection_times": "Mo-Fr 16:45; Sa 22:30", "name": "USPS COLLECTION BOX - BLUE BOX", "note": "ON 12/24 AND 12/31, THIS BOX MAY BE COLLECTED AS EARLY AS 12 NOON.", "nsi_id": "unitedstatespostalservice-a77078", "operator": "United States Postal Service", "operator:short": "USPS", "operator:type": "public", "operator:wikidata": "Q668687", "ref": "5532800001"}, "type": "Feature"}
{"geometry": {"coordinates": [-93.790278, 45.0355465245], "type": "Point"}, "id": "rozsgajPNa8kY3VtyUZGcCTx-js=", "properties": {"@spider": "usps_collection_boxes", "addr:city": "DELANO", "addr:country": "US", "addr:full": "45 BABCOCK", "addr:postcode": "55328", "addr:state": "MN", "amenity": "post_box", "brand": "United States Postal Service", "brand:wikidata": "Q668687", "collection_times": "Mo-Sa 09:15", "name": "USPS COLLECTION BOX - BLUE BOX", "nsi_id": "unitedstatespostalservice-a77078", "operator": "United States Postal Service", "operator:short": "USPS", "operator:type": "public", "operator:wikidata": "Q668687", "ref": "5532800002"}, "type": "Feature"}
{"geometry": {"coordinates": [-93.766911865, 45.034892969], "type": "Point"}, "id": "a_qpOg_Fq7Hq8GWIwOUvTwBCaMI=", "properties": {"@spider": "usps_collection_boxes", "addr:city": "DELANO", "addr:country": "US", "addr:full": "8045 COUNTY LINE RD SE", "addr:postcode": "55328", "addr:state": "MN", "amenity": "post_box", "brand": "United States Postal Service", "brand:wikidata": "Q668687", "collection_times": "Mo-Sa 09:00", "name": "USPS COLLECTION BOX - BLUE BOX", "nsi_id": "unitedstatespostalservice-a77078", "operator": "United States Postal Service", "operator:short": "USPS", "operator:type": "public", "operator:wikidata": "Q668687", "ref": "5532800003"}, "type": "Feature"}
{"geometry": {"coordinates": [-93.789301078, 45.040815], "type": "Point"}, "id": "uJNXWgGj_LNAtt2pCgSPaxciCps=", "properties": {"@spider": "usps_collection_boxes", "addr:city": "DELANO", "addr:country": "US", "addr:full": "100 RIVER ST N", "addr:postcode": "55328", "addr:state": "MN", "amenity": "post_box", "brand": "United States Postal Service", "brand:wikidata": "Q668687", "collection_times": "Mo-Fr 16:45; Sa 10:00", "name": "USPS COLLECTION BOX - PO LOBBY", "note": "ON 12/24 AND 12/31, THIS BOX MAY BE COLLECTED AS EARLY AS 12 NOON.", "nsi_id": "unitedstatespostalservice-a77078", "operator": "United States Postal Service", "operator:short": "USPS", "operator:type": "public", "operator:wikidata": "Q668687", "ref": "5532800004"}, "type": "Feature"}
{"geometry": {"coordinates": [-93.789301078, 45.040815], "type": "Point"}, "id": "ZE0S2MlXvvhdf-KzzyWct6uNXLA=", "properties": {"@spider": "usps_collection_boxes", "addr:city": "DELANO", "addr:country": "US", "addr:full": "100 RIVER ST N", "addr:postcode": "55328", "addr:state": "MN", "amenity": "post_box", "brand": "United States Postal Service", "brand:wikidata": "Q668687", "collection_times": "Mo-Fr 16:45; Sa 22:30", "name": "USPS COLLECTION BOX - BLUE BOX", "note": "ON 12/24 AND 12/31, THIS BOX MAY BE COLLECTED AS EARLY AS 12 NOON.", "nsi_id": "unitedstatespostalservice-a77078", "operator": "United States Postal Service", "operator:short": "USPS", "operator:type": "public", "operator:wikidata": "Q668687", "ref": "5532800005"}, "type": "Feature"}
{"geometry": {"coordinates": [-93.770703682, 45.035690913], "type": "Point"}, "id": "jM-7ssrtjYK5rGgi5F3o19Z1Uu4=", "properties": {"@spider": "usps_collection_boxes", "addr:city": "DELANO", "addr:country": "US", "addr:full": "1314 BABCOCK BLVD E", "addr:postcode": "55328", "addr:state": "MN", "amenity": "post_box", "brand": "United States Postal Service", "brand:wikidata": "Q668687", "collection_times": "Mo-Sa 09:00", "name": "USPS COLLECTION BOX - BLUE BOX", "nsi_id": "unitedstatespostalservice-a77078", "operator": "United States Postal Service", "operator:short": "USPS", "operator:type": "public", "operator:wikidata": "Q668687", "ref": "5532800006"}, "type": "Feature"}
{"geometry": {"coordinates": [-93.789301078, 45.040815], "type": "Point"}, "id": "_Vl09qGQFQDttxbhvXkfOrzIPTw=", "properties": {"@spider": "usps_collection_boxes", "addr:city": "DELANO", "addr:country": "US", "addr:full": "100 RIVER ST N", "addr:postcode": "55328", "addr:state": "MN", "amenity": "post_box", "brand": "United States Postal Service", "brand:wikidata": "Q668687", "collection_times": "Mo-Fr 16:30; Sa 10:00", "name": "USPS COLLECTION BOX - PO LOBBY", "note": "ON 12/24 AND 12/31, THIS BOX MAY BE COLLECTED AS EARLY AS 12 NOON.", "nsi_id": "unitedstatespostalservice-a77078", "operator": "United States Postal Service", "operator:short": "USPS", "operator:type": "public", "operator:wikidata": "Q668687", "ref": "5532800009"}, "type": "Feature"}
{"geometry": {"coordinates": [-94.547935175, 45.325762583], "type": "Point"}, "id": "WG_sF6EOrPC64fHJl0kYms9kBzk=", "properties": {"@spider": "usps_collection_boxes", "addr:city": "EDEN VALLEY", "addr:country": "US", "addr:full": "378 CHURCH ST N", "addr:postcode": "55329", "addr:state": "MN", "amenity": "post_box", "brand": "United States Postal Service", "brand:wikidata": "Q668687", "collection_times": "Mo-Fr 15:00; Sa 11:00", "name": "USPS COLLECTION BOX - BLUE BOX", "note": "ON 12/24 AND 12/31, THIS BOX MAY BE COLLECTED AS EARLY AS 12 NOON.", "nsi_id": "unitedstatespostalservice-a77078", "operator": "United States Postal Service", "operator:short": "USPS", "operator:type": "public", "operator:wikidata": "Q668687", "ref": "5532900002"}, "type": "Feature"}
{"geometry": {"coordinates": [-94.547935175, 45.325762583], "type": "Point"}, "id": "QSIaxRkAetWr1M8ZCVb_RdUzoqA=", "properties": {"@spider": "usps_collection_boxes", "addr:city": "EDEN VALLEY", "addr:country": "US", "addr:full": "378 CHURCH ST N", "addr:postcode": "55329", "addr:state": "MN", "amenity": "post_box", "brand": "United States Postal Service", "brand:wikidata": "Q668687", "collection_times": "Mo-Fr 15:00; Sa 11:00", "name": "USPS COLLECTION BOX - PO LOBBY", "note": "ON 12/24 AND 12/31, THIS BOX MAY BE COLLECTED AS EARLY AS 12 NOON.", "nsi_id": "unitedstatespostalservice-a77078", "operator": "United States Postal Service", "operator:short": "USPS", "operator:type": "public", "operator:wikidata": "Q668687", "ref": "5532900003"}, "type": "Feature"}
{"geometry": {"coordinates": [-94.547935175, 45.325762583], "type": "Point"}, "id": "v3Nyo29Iejo_rjOzyvWHhVva-P4=", "properties": {"@spider": "usps_collection_boxes", "addr:city": "EDEN VALLEY", "addr:country": "US", "addr:full": "378 CHURCH ST N", "addr:postcode": "55329", "addr:state": "MN", "amenity": "post_box", "brand": "United States Postal Service", "brand:wikidata": "Q668687", "collection_times": "Mo-Fr 15:00; Sa 11:00", "name": "USPS COLLECTION BOX - PO LOBBY", "note": "ON 12/24 AND 12/31, THIS BOX MAY BE COLLECTED AS EARLY AS 12 NOON.", "nsi_id": "unitedstatespostalservice-a77078", "operator": "United States Postal Service", "operator:short": "USPS", "operator:type": "public", "operator:wikidata": "Q668687", "ref": "5532900004"}, "type": "Feature"}
{"geometry": {"coordinates": [-93.561305804, 45.314400792], "type": "Point"}, "id": "LGpjq5-k8QfYlqjHeziWZC1Rjf8=", "properties": {"@spider": "usps_collection_boxes", "addr:city": "OTSEGO", "addr:country": "US", "addr:full": "19120 FREEPORT ST NW", "addr:postcode": "55330", "addr:state": "MN", "amenity": "post_box", "brand": "United States Postal Service", "brand:wikidata": "Q668687", "collection_times": "Mo-Fr 17:00; Sa 12:00", "name": "USPS COLLECTION BOX - BLUE BOX", "note": "ON 12/24 AND 12/31, THIS BOX MAY BE COLLECTED AS EARLY AS 12 NOON.", "nsi_id": "unitedstatespostalservice-a77078", "operator": "United States Postal Service", "operator:short": "USPS", "operator:type": "public", "operator:wikidata": "Q668687", "ref": "5533000001"}, "type": "Feature"}
{"geometry": {"coordinates": [-93.557189549, 45.310529], "type": "Point"}, "id": "NwZxjlIXKNcs8nvyDAOB7Xwg9mU=", "properties": {"@spider": "usps_collection_boxes", "addr:city": "OTSEGO", "addr:country": "US", "addr:full": "710 DODGE AVE NW", "addr:postcode": "55330", "addr:state": "MN", "amenity": "post_box", "brand": "United States Postal Service", "brand:wikidata": "Q668687", "collection_times": "Mo-Fr 13:00; Sa 11:00", "name": "USPS COLLECTION BOX - BLUE BOX", "note": "ON 12/24 AND 12/31, THIS BOX MAY BE COLLECTED AS EARLY AS 12 NOON.", "nsi_id": "unitedstatespostalservice-a77078", "operator": "United States Postal Service", "operator:short": "USPS", "operator:type": "public", "operator:wikidata": "Q668687", "ref": "5533000003"}, "type": "Feature"}
{"geometry": {"coordinates": [-93.561629282, 45.315172774], "type": "Point"}, "id": "X_SktivcanFk-q02YAP044RV-ek=", "properties": {"@spider": "usps_collection_boxes", "addr:city": "OTSEGO", "addr:country": "US", "addr:full": "19140 FREEPORT ST NW", "addr:postcode": "55330", "addr:state": "MN", "amenity": "post_box", "brand": "United States Postal Service", "brand:wikidata": "Q668687", "collection_times": "Mo-Sa 14:00", "name": "USPS COLLECTION BOX - BLUE BOX", "note": "ON 12/24 AND 12/31, THIS BOX MAY BE COLLECTED AS EARLY AS 12 NOON.", "nsi_id": "unitedstatespostalservice-a77078", "operator": "United States Postal Service", "operator:short": "USPS", "operator:type": "public", "operator:wikidata": "Q668687", "ref": "5533000005"}, "type": "Feature"}
{"geometry": {"coordinates": [-93.564258974, 45.281816047], "type": "Point"}, "id": "0mBbvEdy1GmfSQp4kddqiUZS_lk=", "properties": {"@spider": "usps_collection_boxes", "addr:city": "OTSEGO", "addr:country": "US", "addr:full": "9025 QUADAY AVE NE", "addr:postcode": "55330", "addr:state": "MN", "amenity": "post_box", "brand": "United States Postal Service", "brand:wikidata": "Q668687", "collection_times": "Mo-Sa 10:00", "name": "USPS COLLECTION BOX - BLUE BOX", "nsi_id": "unitedstatespostalservice-a77078", "operator": "United States Postal Service", "operator:short": "USPS", "operator:type": "public", "operator:wikidata": "Q668687", "ref": "5533000008"}, "type": "Feature"}
{"geometry": {"coordinates": [-93.567330331, 45.3036852835], "type": "Point"}, "id": "8QlF7mlD62hrneVYRAJYzW7Ctug=", "properties": {"@spider": "usps_collection_boxes", "addr:city": "OTSEGO", "addr:country": "US", "addr:full": "305 JACKSON AVE NW", "addr:postcode": "55330", "addr:state": "MN", "amenity": "post_box", "brand": "United States Postal Service", "brand:wikidata": "Q668687", "collection_times": "Mo-Fr 14:30; Sa 11:00", "name": "USPS COLLECTION BOX - BLUE BOX", "note": "ON 12/24 AND 12/31, THIS BOX MAY BE COLLECTED AS EARLY AS 12 NOON.", "nsi_id": "unitedstatespostalservice-a77078", "operator": "United States Postal Service", "operator:short": "USPS", "operator:type": "public", "operator:wikidata": "Q668687", "ref": "5533000011"}, "type": "Feature"}
{"geometry": {"coordinates": [-93.553052425, 45.308556314], "type": "Point"}, "id": "EdLrKbnNQeIAxN0n7_I9ogQFj9E=", "properties": {"@spider": "usps_collection_boxes", "addr:city": "OTSEGO", "addr:country": "US", "addr:full": "548 AUBURN PL NW", "addr:postcode": "55330", "addr:state": "MN", "amenity": "post_box", "brand": "United States Postal Service", "brand:wikidata": "Q668687", "collection_times": "Mo-Sa 13:00", "name": "USPS COLLECTION BOX - BLUE BOX", "note": "ON 12/24 AND 12/31, THIS BOX MAY BE COLLECTED AS EARLY AS 12 NOON.", "nsi_id": "unitedstatespostalservice-a77078", "operator": "United States Postal Service", "operator:short": "USPS", "operator:type": "public", "operator:wikidata": "Q668687", "ref": "5533000012"}, "type": "Feature"}
{"geometry": {"coordinates": [-93.561071437, 45.323789632], "type": "Point"}, "id": "-ONZWOtQdk4dzyDdSna5SKnmVVQ=", "properties": {"@spider": "usps_collection_boxes", "addr:city": "OTSEGO", "addr:country": "US", "addr:full": "19424 EVANS ST NW", "addr:postcode": "55330", "addr:state": "MN", "amenity": "post_box", "brand": "United States Postal Service", "brand:wikidata": "Q668687", "collection_times": "Mo-Sa 13:00", "name": "USPS COLLECTION BOX - BLUE BOX", "note": "ON 12/24 AND 12/31, THIS BOX MAY BE COLLECTED AS EARLY AS 12 NOON.", "nsi_id": "unitedstatespostalservice-a77078", "operator": "United States Postal Service", "operator:short": "USPS", "operator:type": "public", "operator:wikidata": "Q668687", "ref": "5533000016"}, "type": "Feature"}
{"geometry": {"coordinates": [-93.562185073, 45.318387926], "type": "Point"}, "id": "mrd6xS4D2RN3OlOrTDEvos4ayQ8=", "properties": {"@spider": "usps_collection_boxes", "addr:city": "OTSEGO", "addr:country": "US", "addr:full": "19216 FREEPORT ST NW", "addr:postcode": "55330", "addr:state": "MN", "amenity": "post_box", "brand": "United States Postal Service", "brand:wikidata": "Q668687", "collection_times": "Mo-Sa 14:00", "name": "USPS COLLECTION BOX - BLUE BOX", "note": "ON 12/24 AND 12/31, THIS BOX MAY BE COLLECTED AS EARLY AS 12 NOON.", "nsi_id": "unitedstatespostalservice-a77078", "operator": "United States Postal Service", "operator:short": "USPS", "operator:type": "public", "operator:wikidata": "Q668687", "ref": "5533000017"}, "type": "Feature"}
{"geometry": {"coordinates": [-93.561305804, 45.314400792], "type": "Point"}, "id": "23SC-KLvy0kRXVnQs7RaViWCMh4=", "properties": {"@spider": "usps_collection_boxes", "addr:city": "OTSEGO", "addr:country": "US", "addr:full": "19120 FREEPORT ST NW", "addr:postcode": "55330", "addr:state": "MN", "amenity": "post_box", "brand": "United States Postal Service", "brand:wikidata": "Q668687", "collection_times": "Mo-Fr 17:00; Sa 12:00", "name": "USPS COLLECTION BOX - PO LOBBY", "note": "ON 12/24 AND 12/31, THIS BOX MAY BE COLLECTED AS EARLY AS 12 NOON.", "nsi_id": "unitedstatespostalservice-a77078", "operator": "United States Postal Service", "operator:short": "USPS", "operator:type": "public", "operator:wikidata": "Q668687", "ref": "5533000018"}, "type": "Feature"}
{"geometry": {"coordinates": [-93.606773319, 45.307179538], "type": "Point"}, "id": "asx2abG_ywNKJ3JreyjK1bciT3o=", "properties": {"@spider": "usps_collection_boxes", "addr:city": "OTSEGO", "addr:country": "US", "addr:full": "13374 HIGHWAY 10", "addr:postcode": "55330", "addr:state": "MN", "amenity": "post_box", "brand": "United States Postal Service", "brand:wikidata": "Q668687", "collection_times": "Mo-Sa 10:30", "name": "USPS COLLECTION BOX - BLUE BOX", "nsi_id": "unitedstatespostalservice-a77078", "operator": "United States Postal Service", "operator:short": "USPS", "operator:type": "public", "operator:wikidata": "Q668687", "ref": "5533000019"}, "type": "Feature"}
{"geometry": {"coordinates": [-93.561305804, 45.314400792], "type": "Point"}, "id": "lAA1hd8P0hmjqkfjI9bN91unkNQ=", "properties": {"@spider": "usps_collection_boxes", "addr:city": "OTSEGO", "addr:country": "US", "addr:full": "19120 FREEPORT ST NW", "addr:postcode": "55330", "addr:state": "MN", "amenity": "post_box", "brand": "United States Postal Service", "brand:wikidata": "Q668687", "collection_times": "Mo-Fr 17:00; Sa 12:00", "name": "USPS COLLECTION BOX - BLUE BOX", "note": "ON 12/24 AND 12/31, THIS BOX MAY BE COLLECTED AS EARLY AS 12 NOON.", "nsi_id": "unitedstatespostalservice-a77078", "operator": "United States Postal Service", "operator:short": "USPS", "operator:type": "public", "operator:wikidata": "Q668687", "ref": "5533000023"}, "type": "Feature"}
{"geometry": {"coordinates": [-93.577384942, 45.308178], "type": "Point"}, "id": "G9TYPD66OGnqZIce8LXsOCDrAHw=", "properties": {"@spider": "usps_collection_boxes", "addr:city": "OTSEGO", "addr:country": "US", "addr:full": "610 PROCTOR AVE NW", "addr:postcode": "55330", "addr:state": "MN", "amenity": "post_box", "brand": "United States Postal Service", "brand:wikidata": "Q668687", "collection_times": "Mo-Sa 09:30", "name": "USPS COLLECTION BOX - BLUE BOX", "nsi_id": "unitedstatespostalservice-a77078", "operator": "United States Postal Service", "operator:short": "USPS", "operator:type": "public", "operator:wikidata": "Q668687", "ref": "5533000024"}, "type": "Feature"}
{"geometry": {"coordinates": [-93.599637228, 45.30348936], "type": "Point"}, "id": "LcGf5RlKGjlIa6ctbOJ7hruRDo4=", "properties": {"@spider": "usps_collection_boxes", "addr:city": "OTSEGO", "addr:country": "US", "addr:full": "13065 ORONO PKWY NW", "addr:postcode": "55330", "addr:state": "MN", "amenity": "post_box", "brand": "United States Postal Service", "brand:wikidata": "Q668687", "collection_times": "Mo-Sa 13:00", "name": "USPS COLLECTION BOX - BLUE BOX", "note": "ON 12/24 AND 12/31, THIS BOX MAY BE COLLECTED AS EARLY AS 12 NOON.", "nsi_id": "unitedstatespostalservice-a77078", "operator": "United States Postal Service", "operator:short": "USPS", "operator:type": "public", "operator:wikidata": "Q668687", "ref": "5533000027"}, "type": "Feature"}
{"geometry": {"coordinates": [-93.564981, 45.276819483], "type": "Point"}, "id": "nYTotOgXVGoc1t9w7m3q3AiFubQ=", "properties": {"@spider": "usps_collection_boxes", "addr:city": "OTSEGO", "addr:country": "US", "addr:full": "15800 87TH ST NE", "addr:postcode": "55330", "addr:state": "MN", "amenity": "post_box", "brand": "United States Postal Service", "brand:wikidata": "Q668687", "collection_times": "Mo-Sa 12:00", "name": "USPS COLLECTION BOX - BLUE BOX", "nsi_id": "unitedstatespostalservice-a77078", "operator": "United States Postal Service", "operator:short": "USPS", "operator:type": "public", "operator:wikidata": "Q668687", "ref": "5533000028"}, "type": "Feature"}
{"geometry": {"coordinates": [-93.55073147, 45.29944415], "type": "Point"}, "id": "i7jcPG81zeojS0itFe7821zww5M=", "properties": {"@spider": "usps_collection_boxes", "addr:city": "OTSEGO", "addr:country": "US", "addr:full": "18185 ZANE ST NW", "addr:postcode": "55330", "addr:state": "MN", "amenity": "post_box", "brand": "United States Postal Service", "brand:wikidata": "Q668687", "collection_times": "Mo-Sa 13:00", "name": "USPS COLLECTION BOX - BLUE BOX", "note": "ON 12/24 AND 12/31, THIS BOX MAY BE COLLECTED AS EARLY AS 12 NOON.", "nsi_id": "unitedstatespostalservice-a77078", "operator": "United States Postal Service", "operator:short": "USPS", "operator:type": "public", "operator:wikidata": "Q668687", "ref": "5533000029"}, "type": "Feature"}
{"geometry": {"coordinates": [-93.564894222, 45.304230497], "type": "Point"}, "id": "XvUzt808BRTzmHmtGs-n_zeqkWM=", "properties": {"@spider": "usps_collection_boxes", "addr:city": "OTSEGO", "addr:country": "US", "addr:full": "560 3RD ST NW", "addr:postcode": "55330", "addr:state": "MN", "amenity": "post_box", "brand": "United States Postal Service", "brand:wikidata": "Q668687", "collection_times": "Mo-Fr 17:00; Sa 15:45", "name": "USPS COLLECTION BOX - BLUE BOX", "note": "ON 12/24 AND 12/31, THIS BOX MAY BE COLLECTED AS EARLY AS 12 NOON.", "nsi_id": "unitedstatespostalservice-a77078", "operator": "United States Postal Service", "operator:short": "USPS", "operator:type": "public", "operator:wikidata": "Q668687", "ref": "5533000030"}, "type": "Feature"}
{"geometry": {"coordinates": [-93.561305804, 45.314400792], "type": "Point"}, "id": "iHSC1rv2xHC987vJFGb54o3FImE=", "properties": {"@spider": "usps_collection_boxes", "addr:city": "OTSEGO", "addr:country": "US", "addr:full": "19120 FREEPORT ST NW", "addr:postcode": "55330", "addr:state": "MN", "amenity": "post_box", "brand": "United States Postal Service", "brand:wikidata": "Q668687", "collection_times": "Mo-Fr 17:00; Sa 12:00", "name": "USPS COLLECTION BOX - APC", "note": "ON 12/24 AND 12/31, THIS BOX MAY BE COLLECTED AS EARLY AS 12 NOON.", "nsi_id": "unitedstatespostalservice-a77078", "operator": "United States Postal Service", "operator:short": "USPS", "operator:type": "public", "operator:wikidata": "Q668687", "ref": "5533000031"}, "type": "Feature"}
{"geometry": {"coordinates": [-93.561305804, 45.314400792], "type": "Point"}, "id": "X4-2aFfYJs9L6Cwl9nFdcEqmYfY=", "properties": {"@spider": "usps_collection_boxes", "addr:city": "OTSEGO", "addr:country": "US", "addr:full": "19120 FREEPORT ST NW", "addr:postcode": "55330", "addr:state": "MN", "amenity": "post_box", "brand": "United States Postal Service", "brand:wikidata": "Q668687", "collection_times": "Mo-Fr 17:00; Sa 12:00", "name": "USPS COLLECTION BOX - PO LOBBY", "note": "ON 12/24 AND 12/31, THIS BOX MAY BE COLLECTED AS EARLY AS 12 NOON.", "nsi_id": "unitedstatespostalservice-a77078", "operator": "United States Postal Service", "operator:short": "USPS", "operator:type": "public", "operator:wikidata": "Q668687", "ref": "5533000036"}, "type": "Feature"}
{"geometry": {"coordinates": [-94.723370737, 44.529083148], "type": "Point"}, "id": "BQbn36OqwZW8AJRrLzhx1gutgbs=", "properties": {"@spider": "usps_collection_boxes", "addr:city": "FAIRFAX", "addr:country": "US", "addr:full": "111 LINCOLN AVE W", "addr:postcode": "55332", "addr:state": "MN", "amenity": "post_box", "brand": "United States Postal Service", "brand:wikidata": "Q668687", "collection_times": "Mo-Fr 13:00", "name": "USPS COLLECTION BOX - BLUE BOX", "note": "ON 12/24 AND 12/31, THIS BOX MAY BE COLLECTED AS EARLY AS 12 NOON.", "nsi_id": "unitedstatespostalservice-a77078", "operator": "United States Postal Service", "operator:short": "USPS", "operator:type": "public", "operator:wikidata": "Q668687", "ref": "5533200003"}, "type": "Feature"}
{"geometry": {"coordinates": [-94.882813722, 44.529830453], "type": "Point"}, "id": "C-fP0vG0SYoCnpbPWie5CFQFr88=", "properties": {"@spider": "usps_collection_boxes", "addr:city": "FRANKLIN", "addr:country": "US", "addr:full": "265 2ND AVE E", "addr:postcode": "55333", "addr:state": "MN", "amenity": "post_box", "brand": "United States Postal Service", "brand:wikidata": "Q668687", "collection_times": "Mo-Fr 14:00; Sa 09:30", "name": "USPS COLLECTION BOX - BLUE BOX", "note": "ON 12/24 AND 12/31, THIS BOX MAY BE COLLECTED AS EARLY AS 12 NOON.", "nsi_id": "unitedstatespostalservice-a77078", "operator": "United States Postal Service", "operator:short": "USPS", "operator:type": "public", "operator:wikidata": "Q668687", "ref": "5533300001"}, "type": "Feature"}
{"geometry": {"coordinates": [-94.882813722, 44.529830453], "type": "Point"}, "id": "2qkBLpHuZ1URvayyqDUpHu5zkSQ=", "properties": {"@spider": "usps_collection_boxes", "addr:city": "FRANKLIN", "addr:country": "US", "addr:full": "265 2ND AVE E", "addr:postcode": "55333", "addr:state": "MN", "amenity": "post_box", "brand": "United States Postal Service", "brand:wikidata": "Q668687", "collection_times": "Mo-Fr 14:00", "name": "USPS COLLECTION BOX - PO LOBBY", "note": "ON 12/24 AND 12/31, THIS BOX MAY BE COLLECTED AS EARLY AS 12 NOON.", "nsi_id": "unitedstatespostalservice-a77078", "operator": "United States Postal Service", "operator:short": "USPS", "operator:type": "public", "operator:wikidata": "Q668687", "ref": "5533300002"}, "type": "Feature"}
{"geometry": {"coordinates": [-94.8828137216, 44.5298304533], "type": "Point"}, "id": "WgPN16ZY8UFlvIB2g2vL1PmDkT4=", "properties": {"@spider": "usps_collection_boxes", "addr:city": "FRANKLIN", "addr:country": "US", "addr:full": "265 2ND AVE E", "addr:postcode": "55333", "addr:state": "MN", "amenity": "post_box", "brand": "United States Postal Service", "brand:wikidata": "Q668687", "collection_times": "Mo-Fr 14:00; Sa 09:30", "name": "USPS COLLECTION BOX - PO LOBBY", "note": "ON 12/24 AND 12/31, THIS BOX MAY BE COLLECTED AS EARLY AS 12 NOON.", "nsi_id": "unitedstatespostalservice-a77078", "operator": "United States Postal Service", "operator:short": "USPS", "operator:type": "public", "operator:wikidata": "Q668687", "ref": "5533300003"}, "type": "Feature"}
{"geometry": {"coordinates": [-94.526652014, 44.533380224], "type": "Point"}, "id": "YGtNnVrWGZykeiVE-YR42lbLg9k=", "properties": {"@spider": "usps_collection_boxes", "addr:city": "GIBBON", "addr:country": "US", "addr:full": "1070 1ST AVE", "addr:postcode": "55335", "addr:state": "MN", "amenity": "post_box", "brand": "United States Postal Service", "brand:wikidata": "Q668687", "collection_times": "Mo-Fr 14:45; Sa 10:00", "name": "USPS COLLECTION BOX - BLUE BOX", "note": "ON 12/24 AND 12/31, THIS BOX MAY BE COLLECTED AS EARLY AS 12 NOON.", "nsi_id": "unitedstatespostalservice-a77078", "operator": "United States Postal Service", "operator:short": "USPS", "operator:type": "public", "operator:wikidata": "Q668687", "ref": "5533500001"}, "type": "Feature"}
{"geometry": {"coordinates": [-94.526652014, 44.533380224], "type": "Point"}, "id": "-zmFx1OUXKrTKDTokEqWnD6aDq4=", "properties": {"@spider": "usps_collection_boxes", "addr:city": "GIBBON", "addr:country": "US", "addr:full": "1070 1ST AVE", "addr:postcode": "55335", "addr:state": "MN", "amenity": "post_box", "brand": "United States Postal Service", "brand:wikidata": "Q668687", "collection_times": "Mo-Fr 14:45; Sa 10:00", "name": "USPS COLLECTION BOX - PO LOBBY", "note": "ON 12/24 AND 12/31, THIS BOX MAY BE COLLECTED AS EARLY AS 12 NOON.", "nsi_id": "unitedstatespostalservice-a77078", "operator": "United States Postal Service", "operator:short": "USPS", "operator:type": "public", "operator:wikidata": "Q668687", "ref": "5533500003"}, "type": "Feature"}
{"geometry": {"coordinates": [-94.526652014, 44.533380224], "type": "Point"}, "id": "O6n8znbDyns7m2kO9yeMmlZD9LE=", "properties": {"@spider": "usps_collection_boxes", "addr:city": "GIBBON", "addr:country": "US", "addr:full": "1070 1ST AVE", "addr:postcode": "55335", "addr:state": "MN", "amenity": "post_box", "brand": "United States Postal Service", "brand:wikidata": "Q668687", "collection_times": "Mo-Fr 14:45; Sa 09:30", "name": "USPS COLLECTION BOX - PO LOBBY", "note": "ON 12/24 AND 12/31, THIS BOX MAY BE COLLECTED AS EARLY AS 12 NOON.", "nsi_id": "unitedstatespostalservice-a77078", "operator": "United States Postal Service", "operator:short": "USPS", "operator:type": "public", "operator:wikidata": "Q668687", "ref": "5533500006"}, "type": "Feature"}
{"geometry": {"coordinates": [-94.150228309, 44.770203931], "type": "Point"}, "id": "W6If8ZIRIz9qy-GJEEqy07EsyPY=", "properties": {"@spider": "usps_collection_boxes", "addr:city": "GLENCOE", "addr:country": "US", "addr:full": "905 11TH ST E", "addr:postcode": "55336", "addr:state": "MN", "amenity": "post_box", "brand": "United States Postal Service", "brand:wikidata": "Q668687", "collection_times": "Mo-Fr 17:00; Sa 10:00", "name": "USPS COLLECTION BOX - BLUE BOX", "note": "ON 12/24 AND 12/31, THIS BOX MAY BE COLLECTED AS EARLY AS 12 NOON.", "nsi_id": "unitedstatespostalservice-a77078", "operator": "United States Postal Service", "operator:short": "USPS", "operator:type": "public", "operator:wikidata": "Q668687", "ref": "5533600001"}, "type": "Feature"}
{"geometry": {"coordinates": [-94.153936996, 44.768966065], "type": "Point"}, "id": "rL-oIdEI1WxZHjhHvOFT9hAou0g=", "properties": {"@spider": "usps_collection_boxes", "addr:city": "GLENCOE", "addr:country": "US", "addr:full": "630 10TH ST E", "addr:postcode": "55336", "addr:state": "MN", "amenity": "post_box", "brand": "United States Postal Service", "brand:wikidata": "Q668687", "collection_times": "Mo-Fr 15:30; Sa 10:00", "name": "USPS COLLECTION BOX - BLUE BOX", "note": "ON 12/24 AND 12/31, THIS BOX MAY BE COLLECTED AS EARLY AS 12 NOON.", "nsi_id": "unitedstatespostalservice-a77078", "operator": "United States Postal Service", "operator:short": "USPS", "operator:type": "public", "operator:wikidata": "Q668687", "ref": "5533600002"}, "type": "Feature"}
{"geometry": {"coordinates": [-94.132720466, 44.770303354], "type": "Point"}, "id": "JjsBmhbp0F7G7DrsSXv3sM6qqHw=", "properties": {"@spider": "usps_collection_boxes", "addr:city": "GLENCOE", "addr:country": "US", "addr:full": "2211 11TH ST E", "addr:postcode": "55336", "addr:state": "MN", "amenity": "post_box", "brand": "United States Postal Service", "brand:wikidata": "Q668687", "collection_times": "Mo-Fr 15:30; Sa 10:00", "name": "USPS COLLECTION BOX - BLUE BOX", "note": "ON 12/24 AND 12/31, THIS BOX MAY BE COLLECTED AS EARLY AS 12 NOON.", "nsi_id": "unitedstatespostalservice-a77078", "operator": "United States Postal Service", "operator:short": "USPS", "operator:type": "public", "operator:wikidata": "Q668687", "ref": "5533600004"}, "type": "Feature"}
{"geometry": {"coordinates": [-94.150228309, 44.770203931], "type": "Point"}, "id": "bp2kuLQkUCDHTe2kUEhORYZPvGo=", "properties": {"@spider": "usps_collection_boxes", "addr:city": "GLENCOE", "addr:country": "US", "addr:full": "905 11TH ST E", "addr:postcode": "55336", "addr:state": "MN", "amenity": "post_box", "brand": "United States Postal Service", "brand:wikidata": "Q668687", "collection_times": "Mo-Fr 16:45; Sa 10:00", "name": "USPS COLLECTION BOX - PO LOBBY", "note": "ON 12/24 AND 12/31, THIS BOX MAY BE COLLECTED AS EARLY AS 12 NOON.", "nsi_id": "unitedstatespostalservice-a77078", "operator": "United States Postal Service", "operator:short": "USPS", "operator:type": "public", "operator:wikidata": "Q668687", "ref": "5533600012"}, "type": "Feature"}
{"geometry": {"coordinates": [-94.150228309, 44.770203931], "type": "Point"}, "id": "5xNx7tqogAb_eKirQnSR5zDB7VQ=", "properties": {"@spider": "usps_collection_boxes", "addr:city": "GLENCOE", "addr:country": "US", "addr:full": "905 11TH ST E", "addr:postcode": "55336", "addr:state": "MN", "amenity": "post_box", "brand": "United States Postal Service", "brand:wikidata": "Q668687", "collection_times": "Mo-Fr 17:00; Sa 10:00", "name": "USPS COLLECTION BOX - BLUE BOX", "note": "ON 12/24 AND 12/31, THIS BOX MAY BE COLLECTED AS EARLY AS 12 NOON.", "nsi_id": "unitedstatespostalservice-a77078", "operator": "United States Postal Service", "operator:short": "USPS", "operator:type": "public", "operator:wikidata": "Q668687", "ref": "5533600013"}, "type": "Feature"}
{"geometry": {"coordinates": [-94.150228309, 44.770203931], "type": "Point"}, "id": "64tK3JfRzg1yGhDf0Nm6CNdhVjs=", "properties": {"@spider": "usps_collection_boxes", "addr:city": "GLENCOE", "addr:country": "US", "addr:full": "905 11TH ST E", "addr:postcode": "55336", "addr:state": "MN", "amenity": "post_box", "brand": "United States Postal Service", "brand:wikidata": "Q668687", "collection_times": "Mo-Fr 16:30; Sa 10:00", "name": "USPS COLLECTION BOX - PO LOBBY", "note": "ON 12/24 AND 12/31, THIS BOX MAY BE COLLECTED AS EARLY AS 12 NOON.", "nsi_id": "unitedstatespostalservice-a77078", "operator": "United States Postal Service", "operator:short": "USPS", "operator:type": "public", "operator:wikidata": "Q668687", "ref": "5533600015"}, "type": "Feature"}
{"geometry": {"coordinates": [-93.54304193, 45.093168], "type": "Point"}, "id": "lXiVEiaDZT4OD-C963eInvHhX0I=", "properties": {"@spider": "usps_collection_boxes", "addr:city": "HAMEL", "addr:country": "US", "addr:full": "7625 CO RD 116", "addr:postcode": "55340", "addr:state": "MN", "amenity": "post_box", "brand": "United States Postal Service", "brand:wikidata": "Q668687", "collection_times": "Mo-Fr 10:00", "name": "USPS COLLECTION BOX - BLUE BOX", "nsi_id": "unitedstatespostalservice-a77078", "operator": "United States Postal Service", "operator:short": "USPS", "operator:type": "public", "operator:wikidata": "Q668687", "ref": "5534000001"}, "type": "Feature"}
{"geometry": {"coordinates": [-93.542114915, 45.046061053], "type": "Point"}, "id": "Y7OWSw7Rguu2ssOeqkv1ZtN60Hc=", "properties": {"@spider": "usps_collection_boxes", "addr:city": "HAMEL", "addr:country": "US", "addr:full": "762 HIGHWAY 55", "addr:postcode": "55340", "addr:state": "MN", "amenity": "post_box", "brand": "United States Postal Service", "brand:wikidata": "Q668687", "collection_times": "Mo-Fr 09:00", "name": "USPS COLLECTION BOX - BLUE BOX", "nsi_id": "unitedstatespostalservice-a77078", "operator": "United States Postal Service", "operator:short": "USPS", "operator:type": "public", "operator:wikidata": "Q668687", "ref": "5534000004"}, "type": "Feature"}
{"geometry": {"coordinates": [-93.524793002, 45.04047401], "type": "Point"}, "id": "cBUHpvDF8YPubdovteZ6MrJ2Wp4=", "properties": {"@spider": "usps_collection_boxes", "addr:city": "HAMEL", "addr:country": "US", "addr:full": "105 HAMEL RD", "addr:postcode": "55340", "addr:state": "MN", "amenity": "post_box", "brand": "United States Postal Service", "brand:wikidata": "Q668687", "collection_times": "Mo-Fr 16:00; Sa 10:00", "name": "USPS COLLECTION BOX - PO LOBBY", "note": "ON 12/24 AND 12/31, THIS BOX MAY BE COLLECTED AS EARLY AS 12 NOON.", "nsi_id": "unitedstatespostalservice-a77078", "operator": "United States Postal Service", "operator:short": "USPS", "operator:type": "public", "operator:wikidata": "Q668687", "ref": "5534000005"}, "type": "Feature"}
{"geometry": {"coordinates": [-93.524793002, 45.04047401], "type": "Point"}, "id": "ChbGvygYfEOI4ZbADVZQTpuoHss=", "properties": {"@spider": "usps_collection_boxes", "addr:city": "HAMEL", "addr:country": "US", "addr:full": "105 HAMEL RD", "addr:postcode": "55340", "addr:state": "MN", "amenity": "post_box", "brand": "United States Postal Service", "brand:wikidata": "Q668687", "collection_times": "Mo-Fr 16:00; Sa 10:00", "name": "USPS COLLECTION BOX - BLUE BOX", "note": "ON 12/24 AND 12/31, THIS BOX MAY BE COLLECTED AS EARLY AS 12 NOON.", "nsi_id": "unitedstatespostalservice-a77078", "operator": "United States Postal Service", "operator:short": "USPS", "operator:type": "public", "operator:wikidata": "Q668687", "ref": "5534000006"}, "type": "Feature"}
{"geometry": {"coordinates": [-93.524793002, 45.04047401], "type": "Point"}, "id": "u_tIGS70aVRwIzF5q92oRlp3ip8=", "properties": {"@spider": "usps_collection_boxes", "addr:city": "HAMEL", "addr:country": "US", "addr:full": "105 HAMEL RD", "addr:postcode": "55340", "addr:state": "MN", "amenity": "post_box", "brand": "United States Postal Service", "brand:wikidata": "Q668687", "collection_times": "Mo-Fr 16:30; Sa 10:00", "name": "USPS COLLECTION BOX - PO LOBBY", "note": "ON 12/24 AND 12/31, THIS BOX MAY BE COLLECTED AS EARLY AS 12 NOON.", "nsi_id": "unitedstatespostalservice-a77078", "operator": "United States Postal Service", "operator:short": "USPS", "operator:type": "public", "operator:wikidata": "Q668687", "ref": "5534000009"}, "type": "Feature"}
{"geometry": {"coordinates": [-93.524793002, 45.04047401], "type": "Point"}, "id": "Uw5_Fw3CLYoAx87T0EzFQvsLNMA=", "properties": {"@spider": "usps_collection_boxes", "addr:city": "HAMEL", "addr:country": "US", "addr:full": "105 HAMEL RD", "addr:postcode": "55340", "addr:state": "MN", "amenity": "post_box", "brand": "United States Postal Service", "brand:wikidata": "Q668687", "collection_times": "Mo-Fr 16:00; Sa 10:00", "name": "USPS COLLECTION BOX - BLUE BOX", "note": "ON 12/24 AND 12/31, THIS BOX MAY BE COLLECTED AS EARLY AS 12 NOON.", "nsi_id": "unitedstatespostalservice-a77078", "operator": "United States Postal Service", "operator:short": "USPS", "operator:type": "public", "operator:wikidata": "Q668687", "ref": "5534000010"}, "type": "Feature"}
{"geometry": {"coordinates": [-93.6669825, 45.158574492], "type": "Point"}, "id": "KdM4QcwbHFDW4IgaamlpLvSewwI=", "properties": {"@spider": "usps_collection_boxes", "addr:city": "HANOVER", "addr:country": "US", "addr:full": "10961 4TH ST NE", "addr:postcode": "55341", "addr:state": "MN", "amenity": "post_box", "brand": "United States Postal Service", "brand:wikidata": "Q668687", "collection_times": "Mo-Fr 16:30; Sa 09:30", "name": "USPS COLLECTION BOX - BLUE BOX", "note": "ON 12/24 AND 12/31, THIS BOX MAY BE COLLECTED AS EARLY AS 12 NOON.", "nsi_id": "unitedstatespostalservice-a77078", "operator": "United States Postal Service", "operator:short": "USPS", "operator:type": "public", "operator:wikidata": "Q668687", "ref": "5534100001"}, "type": "Feature"}
{"geometry": {"coordinates": [-93.6669825, 45.158574492], "type": "Point"}, "id": "5q82q14N5NTwColPoruy33-5R8g=", "properties": {"@spider": "usps_collection_boxes", "addr:city": "HANOVER", "addr:country": "US", "addr:full": "10961 4TH ST NE", "addr:postcode": "55341", "addr:state": "MN", "amenity": "post_box", "brand": "United States Postal Service", "brand:wikidata": "Q668687", "collection_times": "Mo-Fr 16:30; Sa 09:30", "name": "USPS COLLECTION BOX - PO LOBBY", "note": "ON 12/24 AND 12/31, THIS BOX MAY BE COLLECTED AS EARLY AS 12 NOON.", "nsi_id": "unitedstatespostalservice-a77078", "operator": "United States Postal Service", "operator:short": "USPS", "operator:type": "public", "operator:wikidata": "Q668687", "ref": "5534100002"}, "type": "Feature"}
{"geometry": {"coordinates": [-93.6669825, 45.158574492], "type": "Point"}, "id": "Njg1BYLkdixBeleq1UwJXSjP7YQ=", "properties": {"@spider": "usps_collection_boxes", "addr:city": "HANOVER", "addr:country": "US", "addr:full": "10961 4TH ST NE", "addr:postcode": "55341", "addr:state": "MN", "amenity": "post_box", "brand": "United States Postal Service", "brand:wikidata": "Q668687", "collection_times": "Mo-Fr 16:30; Sa 09:30", "name": "USPS COLLECTION BOX - PO LOBBY", "note": "ON 12/24 AND 12/31, THIS BOX MAY BE COLLECTED AS EARLY AS 12 NOON.", "nsi_id": "unitedstatespostalservice-a77078", "operator": "United States Postal Service", "operator:short": "USPS", "operator:type": "public", "operator:wikidata": "Q668687", "ref": "5534100003"}, "type": "Feature"}
{"geometry": {"coordinates": [-94.71518334, 44.743509335], "type": "Point"}, "id": "xpvvGO2U0p-l6mfFJ0sqzc67bf0=", "properties": {"@spider": "usps_collection_boxes", "addr:city": "HECTOR", "addr:country": "US", "addr:full": "237 MAIN ST S", "addr:postcode": "55342", "addr:state": "MN", "amenity": "post_box", "brand": "United States Postal Service", "brand:wikidata": "Q668687", "collection_times": "Mo-Fr 14:15; Sa 10:00", "name": "USPS COLLECTION BOX - PO LOBBY", "note": "ON 12/24 AND 12/31, THIS BOX MAY BE COLLECTED AS EARLY AS 12 NOON.", "nsi_id": "unitedstatespostalservice-a77078", "operator": "United States Postal Service", "operator:short": "USPS", "operator:type": "public", "operator:wikidata": "Q668687", "ref": "5534200002"}, "type": "Feature"}
{"geometry": {"coordinates": [-94.71518334, 44.743509335], "type": "Point"}, "id": "gNnHjeqk9kBhITHJAPGqNySKj2c=", "properties": {"@spider": "usps_collection_boxes", "addr:city": "HECTOR", "addr:country": "US", "addr:full": "237 MAIN ST S", "addr:postcode": "55342", "addr:state": "MN", "amenity": "post_box", "brand": "United States Postal Service", "brand:wikidata": "Q668687", "collection_times": "Mo-Fr 14:15; Sa 09:45", "name": "USPS COLLECTION BOX - PO LOBBY", "note": "ON 12/24 AND 12/31, THIS BOX MAY BE COLLECTED AS EARLY AS 12 NOON.", "nsi_id": "unitedstatespostalservice-a77078", "operator": "United States Postal Service", "operator:short": "USPS", "operator:type": "public", "operator:wikidata": "Q668687", "ref": "5534200003"}, "type": "Feature"}
{"geometry": {"coordinates": [-94.070539831, 45.060191801], "type": "Point"}, "id": "vWpF5a91ZDWlav8ZB6nTA-IOx_0=", "properties": {"@spider": "usps_collection_boxes", "addr:city": "HOWARD LAKE", "addr:country": "US", "addr:full": "609 8TH AVE", "addr:postcode": "55349", "addr:state": "MN", "amenity": "post_box", "brand": "United States Postal Service", "brand:wikidata": "Q668687", "collection_times": "Mo-Fr 16:30; Sa 10:30", "name": "USPS COLLECTION BOX - BLUE BOX", "note": "ON 12/24 AND 12/31, THIS BOX MAY BE COLLECTED AS EARLY AS 12 NOON.", "nsi_id": "unitedstatespostalservice-a77078", "operator": "United States Postal Service", "operator:short": "USPS", "operator:type": "public", "operator:wikidata": "Q668687", "ref": "5534900001"}, "type": "Feature"}
{"geometry": {"coordinates": [-94.070539831, 45.060191801], "type": "Point"}, "id": "9vS20vkxVj7NOL029Q46K4OKWuM=", "properties": {"@spider": "usps_collection_boxes", "addr:city": "HOWARD LAKE", "addr:country": "US", "addr:full": "609 8TH AVE", "addr:postcode": "55349", "addr:state": "MN", "amenity": "post_box", "brand": "United States Postal Service", "brand:wikidata": "Q668687", "collection_times": "Mo-Fr 16:30; Sa 10:30", "name": "USPS COLLECTION BOX - PO LOBBY", "note": "ON 12/24 AND 12/31, THIS BOX MAY BE COLLECTED AS EARLY AS 12 NOON.", "nsi_id": "unitedstatespostalservice-a77078", "operator": "United States Postal Service", "operator:short": "USPS", "operator:type": "public", "operator:wikidata": "Q668687", "ref": "5534900003"}, "type": "Feature"}
{"geometry": {"coordinates": [-94.070539831, 45.060191801], "type": "Point"}, "id": "59KC0lB7rdAdiWbj5vcbR-RcxHs=", "properties": {"@spider": "usps_collection_boxes", "addr:city": "HOWARD LAKE", "addr:country": "US", "addr:full": "609 8TH AVE", "addr:postcode": "55349", "addr:state": "MN", "amenity": "post_box", "brand": "United States Postal Service", "brand:wikidata": "Q668687", "collection_times": "Mo-Fr 16:30; Sa 10:30", "name": "USPS COLLECTION BOX - BLUE BOX", "note": "ON 12/24 AND 12/31, THIS BOX MAY BE COLLECTED AS EARLY AS 12 NOON.", "nsi_id": "unitedstatespostalservice-a77078", "operator": "United States Postal Service", "operator:short": "USPS", "operator:type": "public", "operator:wikidata": "Q668687", "ref": "5534900004"}, "type": "Feature"}
{"geometry": {"coordinates": [-94.070539831, 45.060191801], "type": "Point"}, "id": "O90K387DkV6nfeR1j8zRnCUvI7k=", "properties": {"@spider": "usps_collection_boxes", "addr:city": "HOWARD LAKE", "addr:country": "US", "addr:full": "609 8TH AVE", "addr:postcode": "55349", "addr:state": "MN", "amenity": "post_box", "brand": "United States Postal Service", "brand:wikidata": "Q668687", "collection_times": "Mo-Fr 16:30; Sa 10:30", "name": "USPS COLLECTION BOX - PO LOBBY", "note": "ON 12/24 AND 12/31, THIS BOX MAY BE COLLECTED AS EARLY AS 12 NOON.", "nsi_id": "unitedstatespostalservice-a77078", "operator": "United States Postal Service", "operator:short": "USPS", "operator:type": "public", "operator:wikidata": "Q668687", "ref": "5534900005"}, "type": "Feature"}
{"geometry": {"coordinates": [-94.365011765, 44.884979329], "type": "Point"}, "id": "m5xT33W_pzoR5lFBmCbfILtD9II=", "properties": {"@spider": "usps_collection_boxes", "addr:city": "HUTCHINSON", "addr:country": "US", "addr:full": "600 ADAMS ST SE", "addr:postcode": "55350", "addr:state": "MN", "amenity": "post_box", "brand": "United States Postal Service", "brand:wikidata": "Q668687", "collection_times": "Mo-Sa 11:00", "name": "USPS COLLECTION BOX - BLUE BOX", "nsi_id": "unitedstatespostalservice-a77078", "operator": "United States Postal Service", "operator:short": "USPS", "operator:type": "public", "operator:wikidata": "Q668687", "ref": "5535000003"}, "type": "Feature"}
{"geometry": {"coordinates": [-94.369194677, 44.889462], "type": "Point"}, "id": "OI9M1E4ZLVdgl0_wjKhghOah6S8=", "properties": {"@spider": "usps_collection_boxes", "addr:city": "HUTCHINSON", "addr:country": "US", "addr:full": "245 MAIN ST S", "addr:postcode": "55350", "addr:state": "MN", "amenity": "post_box", "brand": "United States Postal Service", "brand:wikidata": "Q668687", "collection_times": "Mo-Fr 17:00; Sa 16:15", "name": "USPS COLLECTION BOX - BLUE BOX", "note": "ON 12/24 AND 12/31, THIS BOX MAY BE COLLECTED AS EARLY AS 12 NOON.", "nsi_id": "unitedstatespostalservice-a77078", "operator": "United States Postal Service", "operator:short": "USPS", "operator:type": "public", "operator:wikidata": "Q668687", "ref": "5535000004"}, "type": "Feature"}
{"geometry": {"coordinates": [-94.375669255, 44.876214], "type": "Point"}, "id": "UO4zx0W5xmTf2Ro0q5sr3LSZpHk=", "properties": {"@spider": "usps_collection_boxes", "addr:city": "HUTCHINSON", "addr:country": "US", "addr:full": "1060 HIGHWAY 15 S", "addr:postcode": "55350", "addr:state": "MN", "amenity": "post_box", "brand": "United States Postal Service", "brand:wikidata": "Q668687", "collection_times": "Mo-Sa 15:30", "name": "USPS COLLECTION BOX - BLUE BOX", "note": "ON 12/24 AND 12/31, THIS BOX MAY BE COLLECTED AS EARLY AS 12 NOON.", "nsi_id": "unitedstatespostalservice-a77078", "operator": "United States Postal Service", "operator:short": "USPS", "operator:type": "public", "operator:wikidata": "Q668687", "ref": "5535000014"}, "type": "Feature"}
{"geometry": {"coordinates": [-94.396247033, 44.893249037], "type": "Point"}, "id": "5L00JHq9PM8-ik4wjwl7tKn6kv0=", "properties": {"@spider": "usps_collection_boxes", "addr:city": "HUTCHINSON", "addr:country": "US", "addr:full": "1210 HIGHWAY 7 W", "addr:postcode": "55350", "addr:state": "MN", "amenity": "post_box", "brand": "United States Postal Service", "brand:wikidata": "Q668687", "collection_times": "Mo-Sa 10:30", "name": "USPS COLLECTION BOX - BLUE BOX", "nsi_id": "unitedstatespostalservice-a77078", "operator": "United States Postal Service", "operator:short": "USPS", "operator:type": "public", "operator:wikidata": "Q668687", "ref": "5535000017"}, "type": "Feature"}
{"geometry": {"coordinates": [-94.369194677, 44.889462], "type": "Point"}, "id": "94ViWKq5KTqQzsB92K9BuqzocmQ=", "properties": {"@spider": "usps_collection_boxes", "addr:city": "HUTCHINSON", "addr:country": "US", "addr:full": "245 MAIN ST S", "addr:postcode": "55350", "addr:state": "MN", "amenity": "post_box", "brand": "United States Postal Service", "brand:wikidata": "Q668687", "collection_times": "Mo-Fr 17:00; Sa 16:15", "name": "USPS COLLECTION BOX - PO LOBBY", "note": "ON 12/24 AND 12/31, THIS BOX MAY BE COLLECTED AS EARLY AS 12 NOON.", "nsi_id": "unitedstatespostalservice-a77078", "operator": "United States Postal Service", "operator:short": "USPS", "operator:type": "public", "operator:wikidata": "Q668687", "ref": "5535000020"}, "type": "Feature"}
{"geometry": {"coordinates": [-94.369194677, 44.889462], "type": "Point"}, "id": "cxqck7uhERuHhRxSrbkuLdemLto=", "properties": {"@spider": "usps_collection_boxes", "addr:city": "HUTCHINSON", "addr:country": "US", "addr:full": "245 MAIN ST S", "addr:postcode": "55350", "addr:state": "MN", "amenity": "post_box", "brand": "United States Postal Service", "brand:wikidata": "Q668687", "collection_times": "Mo-Fr 17:00; Sa 16:15", "name": "USPS COLLECTION BOX - BLUE BOX", "note": "ON 12/24 AND 12/31, THIS BOX MAY BE COLLECTED AS EARLY AS 12 NOON.", "nsi_id": "unitedstatespostalservice-a77078", "operator": "United States Postal Service", "operator:short": "USPS", "operator:type": "public", "operator:wikidata": "Q668687", "ref": "5535000022"}, "type": "Feature"}
{"geometry": {"coordinates": [-94.369194677, 44.889462], "type": "Point"}, "id": "OO122UgNi_WIaIuqQYAm8bun1mU=", "properties": {"@spider": "usps_collection_boxes", "addr:city": "HUTCHINSON", "addr:country": "US", "addr:full": "245 MAIN ST S", "addr:postcode": "55350", "addr:state": "MN", "amenity": "post_box", "brand": "United States Postal Service", "brand:wikidata": "Q668687", "collection_times": "Mo-Fr 16:45; Sa 11:30", "name": "USPS COLLECTION BOX - PO LOBBY", "note": "ON 12/24 AND 12/31, THIS BOX MAY BE COLLECTED AS EARLY AS 12 NOON.", "nsi_id": "unitedstatespostalservice-a77078", "operator": "United States Postal Service", "operator:short": "USPS", "operator:type": "public", "operator:wikidata": "Q668687", "ref": "5535000026"}, "type": "Feature"}
{"geometry": {"coordinates": [-94.300421965, 45.311993581], "type": "Point"}, "id": "ADpIGE2omQ1p7MVP2NT8d9NW1cU=", "properties": {"@spider": "usps_collection_boxes", "addr:city": "KIMBALL", "addr:country": "US", "addr:full": "40 S MAIN ST", "addr:postcode": "55353", "addr:state": "MN", "amenity": "post_box", "brand": "United States Postal Service", "brand:wikidata": "Q668687", "collection_times": "Mo-Fr 15:30; Sa 09:30", "name": "USPS COLLECTION BOX - BLUE BOX", "note": "ON 12/24 AND 12/31, THIS BOX MAY BE COLLECTED AS EARLY AS 12 NOON.", "nsi_id": "unitedstatespostalservice-a77078", "operator": "United States Postal Service", "operator:short": "USPS", "operator:type": "public", "operator:wikidata": "Q668687", "ref": "5535300001"}, "type": "Feature"}
{"geometry": {"coordinates": [-94.300421965, 45.311993581], "type": "Point"}, "id": "zADqMMoO-1OB4uGycEZuWaS6sRM=", "properties": {"@spider": "usps_collection_boxes", "addr:city": "KIMBALL", "addr:country": "US", "addr:full": "40 S MAIN ST", "addr:postcode": "55353", "addr:state": "MN", "amenity": "post_box", "brand": "United States Postal Service", "brand:wikidata": "Q668687", "collection_times": "Mo-Fr 15:30; Sa 09:30", "name": "USPS COLLECTION BOX - PO LOBBY", "note": "ON 12/24 AND 12/31, THIS BOX MAY BE COLLECTED AS EARLY AS 12 NOON.", "nsi_id": "unitedstatespostalservice-a77078", "operator": "United States Postal Service", "operator:short": "USPS", "operator:type": "public", "operator:wikidata": "Q668687", "ref": "5535300002"}, "type": "Feature"}
{"geometry": {"coordinates": [-94.298818502, 45.316376031], "type": "Point"}, "id": "QRBB5at1SvofGYaSdaX2Os5CN4I=", "properties": {"@spider": "usps_collection_boxes", "addr:city": "KIMBALL", "addr:country": "US", "addr:full": "130 MAUS DR", "addr:postcode": "55353", "addr:state": "MN", "amenity": "post_box", "brand": "United States Postal Service", "brand:wikidata": "Q668687", "collection_times": "Mo-Fr 10:00", "name": "USPS COLLECTION BOX - BLUE BOX", "nsi_id": "unitedstatespostalservice-a77078", "operator": "United States Postal Service", "operator:short": "USPS", "operator:type": "public", "operator:wikidata": "Q668687", "ref": "5535300003"}, "type": "Feature"}
{"geometry": {"coordinates": [-94.300421965, 45.311993581], "type": "Point"}, "id": "afFkLGs7CKCNexqSV2i2sMytrqo=", "properties": {"@spider": "usps_collection_boxes", "addr:city": "KIMBALL", "addr:country": "US", "addr:full": "40 S MAIN ST", "addr:postcode": "55353", "addr:state": "MN", "amenity": "post_box", "brand": "United States Postal Service", "brand:wikidata": "Q668687", "collection_times": "Mo-Fr 15:45; Sa 09:30", "name": "USPS COLLECTION BOX - PO LOBBY", "note": "ON 12/24 AND 12/31, THIS BOX MAY BE COLLECTED AS EARLY AS 12 NOON.", "nsi_id": "unitedstatespostalservice-a77078", "operator": "United States Postal Service", "operator:short": "USPS", "operator:type": "public", "operator:wikidata": "Q668687", "ref": "5535300005"}, "type": "Feature"}
{"geometry": {"coordinates": [-94.041954761, 44.884907612], "type": "Point"}, "id": "4d0-gjz6TjmRMW5zl1hnoYoiU_c=", "properties": {"@spider": "usps_collection_boxes", "addr:city": "LESTER PRAIRIE", "addr:country": "US", "addr:full": "38 JUNIPER ST N", "addr:postcode": "55354", "addr:state": "MN", "amenity": "post_box", "brand": "United States Postal Service", "brand:wikidata": "Q668687", "collection_times": "Mo-Fr 16:00; Sa 10:00", "name": "USPS COLLECTION BOX - BLUE BOX", "note": "ON 12/24 AND 12/31, THIS BOX MAY BE COLLECTED AS EARLY AS 12 NOON.", "nsi_id": "unitedstatespostalservice-a77078", "operator": "United States Postal Service", "operator:short": "USPS", "operator:type": "public", "operator:wikidata": "Q668687", "ref": "5535400001"}, "type": "Feature"}
{"geometry": {"coordinates": [-94.041954761, 44.884907612], "type": "Point"}, "id": "QWJBGdyOrnvuO3y0X0H91Wkod0E=", "properties": {"@spider": "usps_collection_boxes", "addr:city": "LESTER PRAIRIE", "addr:country": "US", "addr:full": "38 JUNIPER ST N", "addr:postcode": "55354", "addr:state": "MN", "amenity": "post_box", "brand": "United States Postal Service", "brand:wikidata": "Q668687", "collection_times": "Mo-Fr 16:00; Sa 10:00", "name": "USPS COLLECTION BOX - BLUE BOX", "note": "ON 12/24 AND 12/31, THIS BOX MAY BE COLLECTED AS EARLY AS 12 NOON.", "nsi_id": "unitedstatespostalservice-a77078", "operator": "United States Postal Service", "operator:short": "USPS", "operator:type": "public", "operator:wikidata": "Q668687", "ref": "5535400002"}, "type": "Feature"}
{"geometry": {"coordinates": [-94.041954761, 44.884907612], "type": "Point"}, "id": "VnWekV0MfOU4K8_VXXdrPFsPlUI=", "properties": {"@spider": "usps_collection_boxes", "addr:city": "LESTER PRAIRIE", "addr:country": "US", "addr:full": "38 JUNIPER ST N", "addr:postcode": "55354", "addr:state": "MN", "amenity": "post_box", "brand": "United States Postal Service", "brand:wikidata": "Q668687", "collection_times": "Mo-Fr 16:00; Sa 10:00", "name": "USPS COLLECTION BOX - PO LOBBY", "note": "ON 12/24 AND 12/31, THIS BOX MAY BE COLLECTED AS EARLY AS 12 NOON.", "nsi_id": "unitedstatespostalservice-a77078", "operator": "United States Postal Service", "operator:short": "USPS", "operator:type": "public", "operator:wikidata": "Q668687", "ref": "5535400003"}, "type": "Feature"}
{"geometry": {"coordinates": [-94.041954761, 44.884907612], "type": "Point"}, "id": "mkcwWuxTerEcnhvUFeclBirkIco=", "properties": {"@spider": "usps_collection_boxes", "addr:city": "LESTER PRAIRIE", "addr:country": "US", "addr:full": "38 JUNIPER ST N", "addr:postcode": "55354", "addr:state": "MN", "amenity": "post_box", "brand": "United States Postal Service", "brand:wikidata": "Q668687", "collection_times": "Mo-Fr 16:00; Sa 09:30", "name": "USPS COLLECTION BOX - PO LOBBY", "note": "ON 12/24 AND 12/31, THIS BOX MAY BE COLLECTED AS EARLY AS 12 NOON.", "nsi_id": "unitedstatespostalservice-a77078", "operator": "United States Postal Service", "operator:short": "USPS", "operator:type": "public", "operator:wikidata": "Q668687", "ref": "5535400005"}, "type": "Feature"}
{"geometry": {"coordinates": [-94.527579926, 45.127482515], "type": "Point"}, "id": "cib4E5t-eC5PfARNCRC10-v3kq4=", "properties": {"@spider": "usps_collection_boxes", "addr:city": "LITCHFIELD", "addr:country": "US", "addr:full": "35 E 2ND ST", "addr:postcode": "55355", "addr:state": "MN", "amenity": "post_box", "brand": "United States Postal Service", "brand:wikidata": "Q668687", "collection_times": "Mo-Fr 17:00; Sa 15:45", "name": "USPS COLLECTION BOX - BLUE BOX", "note": "ON 12/24 AND 12/31, THIS BOX MAY BE COLLECTED AS EARLY AS 12 NOON.", "nsi_id": "unitedstatespostalservice-a77078", "operator": "United States Postal Service", "operator:short": "USPS", "operator:type": "public", "operator:wikidata": "Q668687", "ref": "5535500023"}, "type": "Feature"}
{"geometry": {"coordinates": [-94.508791905, 45.122048334], "type": "Point"}, "id": "j3ohSEpEJWf1Cufkh84e5Z3TAoM=", "properties": {"@spider": "usps_collection_boxes", "addr:city": "LITCHFIELD", "addr:country": "US", "addr:full": "951 E HIGHWAY 12", "addr:postcode": "55355", "addr:state": "MN", "amenity": "post_box", "brand": "United States Postal Service", "brand:wikidata": "Q668687", "collection_times": "Mo-Sa 09:30", "name": "USPS COLLECTION BOX - BLUE BOX", "nsi_id": "unitedstatespostalservice-a77078", "operator": "United States Postal Service", "operator:short": "USPS", "operator:type": "public", "operator:wikidata": "Q668687", "ref": "5535500026"}, "type": "Feature"}
{"geometry": {"coordinates": [-94.491549979, 45.119440004], "type": "Point"}, "id": "wP-PoxTC-DQcCFJM1HhiaGGAFzA=", "properties": {"@spider": "usps_collection_boxes", "addr:city": "LITCHFIELD", "addr:country": "US", "addr:full": "2301 E FRONTAGE RD", "addr:postcode": "55355", "addr:state": "MN", "amenity": "post_box", "brand": "United States Postal Service", "brand:wikidata": "Q668687", "collection_times": "Mo-Sa 10:00", "name": "USPS COLLECTION BOX - BLUE BOX", "nsi_id": "unitedstatespostalservice-a77078", "operator": "United States Postal Service", "operator:short": "USPS", "operator:type": "public", "operator:wikidata": "Q668687", "ref": "5535500027"}, "type": "Feature"}
{"geometry": {"coordinates": [-94.525142673, 45.126339831], "type": "Point"}, "id": "GATeLKRU7O03c19N-m4AxyqsFHc=", "properties": {"@spider": "usps_collection_boxes", "addr:city": "LITCHFIELD", "addr:country": "US", "addr:full": "114 N HOLCOMBE AVE", "addr:postcode": "55355", "addr:state": "MN", "amenity": "post_box", "brand": "United States Postal Service", "brand:wikidata": "Q668687", "collection_times": "Mo-Fr 15:15; Sa 14:15", "name": "USPS COLLECTION BOX - BLUE BOX", "note": "ON 12/24 AND 12/31, THIS BOX MAY BE COLLECTED AS EARLY AS 12 NOON.", "nsi_id": "unitedstatespostalservice-a77078", "operator": "United States Postal Service", "operator:short": "USPS", "operator:type": "public", "operator:wikidata": "Q668687", "ref": "5535500036"}, "type": "Feature"}
{"geometry": {"coordinates": [-94.528191327, 45.128885086], "type": "Point"}, "id": "XT5zf1r5Qm7ZIpCF2UBekCVCdR4=", "properties": {"@spider": "usps_collection_boxes", "addr:city": "LITCHFIELD", "addr:country": "US", "addr:full": "325 N SIBLEY AVE", "addr:postcode": "55355", "addr:state": "MN", "amenity": "post_box", "brand": "United States Postal Service", "brand:wikidata": "Q668687", "collection_times": "Mo-Fr 15:15; Sa 14:15", "name": "USPS COLLECTION BOX - BLUE BOX", "note": "ON 12/24 AND 12/31, THIS BOX MAY BE COLLECTED AS EARLY AS 12 NOON.", "nsi_id": "unitedstatespostalservice-a77078", "operator": "United States Postal Service", "operator:short": "USPS", "operator:type": "public", "operator:wikidata": "Q668687", "ref": "5535500038"}, "type": "Feature"}
{"geometry": {"coordinates": [-94.527579926, 45.127482515], "type": "Point"}, "id": "JFPmCiD_lgIaYiBiUhgR89_6GLs=", "properties": {"@spider": "usps_collection_boxes", "addr:city": "LITCHFIELD", "addr:country": "US", "addr:full": "35 E 2ND ST", "addr:postcode": "55355", "addr:state": "MN", "amenity": "post_box", "brand": "United States Postal Service", "brand:wikidata": "Q668687", "collection_times": "Mo-Fr 17:00; Sa 15:45", "name": "USPS COLLECTION BOX - BLUE BOX", "note": "ON 12/24 AND 12/31, THIS BOX MAY BE COLLECTED AS EARLY AS 12 NOON.", "nsi_id": "unitedstatespostalservice-a77078", "operator": "United States Postal Service", "operator:short": "USPS", "operator:type": "public", "operator:wikidata": "Q668687", "ref": "5535500039"}, "type": "Feature"}
{"geometry": {"coordinates": [-94.527579926, 45.127482515], "type": "Point"}, "id": "1NjXpwlU6TBgp4cBecf3vRZA0J4=", "properties": {"@spider": "usps_collection_boxes", "addr:city": "LITCHFIELD", "addr:country": "US", "addr:full": "35 E 2ND ST", "addr:postcode": "55355", "addr:state": "MN", "amenity": "post_box", "brand": "United States Postal Service", "brand:wikidata": "Q668687", "collection_times": "Mo-Fr 16:45; Sa 15:30", "name": "USPS COLLECTION BOX - PO LOBBY", "note": "ON 12/24 AND 12/31, THIS BOX MAY BE COLLECTED AS EARLY AS 12 NOON.", "nsi_id": "unitedstatespostalservice-a77078", "operator": "United States Postal Service", "operator:short": "USPS", "operator:type": "public", "operator:wikidata": "Q668687", "ref": "5535500042"}, "type": "Feature"}
{"geometry": {"coordinates": [-94.5275799264, 45.1274825145], "type": "Point"}, "id": "LuWDSbI9WoGNQTvTwTtZdYvBvUE=", "properties": {"@spider": "usps_collection_boxes", "addr:city": "LITCHFIELD", "addr:country": "US", "addr:full": "35 E 2ND ST", "addr:postcode": "55355", "addr:state": "MN", "amenity": "post_box", "brand": "United States Postal Service", "brand:wikidata": "Q668687", "collection_times": "Mo-Fr 16:30; Sa 10:30", "name": "USPS COLLECTION BOX - PO LOBBY", "note": "ON 12/24 AND 12/31, THIS BOX MAY BE COLLECTED AS EARLY AS 12 NOON.", "nsi_id": "unitedstatespostalservice-a77078", "operator": "United States Postal Service", "operator:short": "USPS", "operator:type": "public", "operator:wikidata": "Q668687", "ref": "5535500044"}, "type": "Feature"}
{"geometry": {"coordinates": [-93.57573623, 44.986626568], "type": "Point"}, "id": "sHvH8skUCyw2Lo3LdnWXyuVYJOc=", "properties": {"@spider": "usps_collection_boxes", "addr:city": "LONG LAKE", "addr:country": "US", "addr:full": "2095 DANIELS ST", "addr:postcode": "55356", "addr:state": "MN", "amenity": "post_box", "brand": "United States Postal Service", "brand:wikidata": "Q668687", "collection_times": "Mo-Fr 16:30; Sa 11:00", "name": "USPS COLLECTION BOX - BLUE BOX", "note": "ON 12/24 AND 12/31, THIS BOX MAY BE COLLECTED AS EARLY AS 12 NOON.", "nsi_id": "unitedstatespostalservice-a77078", "operator": "United States Postal Service", "operator:short": "USPS", "operator:type": "public", "operator:wikidata": "Q668687", "ref": "5535600002"}, "type": "Feature"}
{"geometry": {"coordinates": [-93.57573623, 44.986626568], "type": "Point"}, "id": "-cjw5cEVPongrmmpeuK_RctuLt4=", "properties": {"@spider": "usps_collection_boxes", "addr:city": "LONG LAKE", "addr:country": "US", "addr:full": "2095 DANIELS ST", "addr:postcode": "55356", "addr:state": "MN", "amenity": "post_box", "brand": "United States Postal Service", "brand:wikidata": "Q668687", "collection_times": "Mo-Fr 16:30; Sa 11:00", "name": "USPS COLLECTION BOX - PO LOBBY", "note": "ON 12/24 AND 12/31, THIS BOX MAY BE COLLECTED AS EARLY AS 12 NOON.", "nsi_id": "unitedstatespostalservice-a77078", "operator": "United States Postal Service", "operator:short": "USPS", "operator:type": "public", "operator:wikidata": "Q668687", "ref": "5535600003"}, "type": "Feature"}
{"geometry": {"coordinates": [-93.57573623, 44.986626568], "type": "Point"}, "id": "jEOfbHKfgsKQLRKYLmGyCyg1xd4=", "properties": {"@spider": "usps_collection_boxes", "addr:city": "LONG LAKE", "addr:country": "US", "addr:full": "2095 DANIELS ST", "addr:postcode": "55356", "addr:state": "MN", "amenity": "post_box", "brand": "United States Postal Service", "brand:wikidata": "Q668687", "collection_times": "Mo-Fr 16:30; Sa 11:00", "name": "USPS COLLECTION BOX - BLUE BOX", "note": "ON 12/24 AND 12/31, THIS BOX MAY BE COLLECTED AS EARLY AS 12 NOON.", "nsi_id": "unitedstatespostalservice-a77078", "operator": "United States Postal Service", "operator:short": "USPS", "operator:type": "public", "operator:wikidata": "Q668687", "ref": "5535600004"}, "type": "Feature"}
{"geometry": {"coordinates": [-93.57573623, 44.986626568], "type": "Point"}, "id": "vyJj-J1xp0VPqa6Dskj9M8C_XnM=", "properties": {"@spider": "usps_collection_boxes", "addr:city": "LONG LAKE", "addr:country": "US", "addr:full": "2095 DANIELS ST", "addr:postcode": "55356", "addr:state": "MN", "amenity": "post_box", "brand": "United States Postal Service", "brand:wikidata": "Q668687", "collection_times": "Mo-Fr 16:30; Sa 11:00", "name": "USPS COLLECTION BOX - PO LOBBY", "note": "ON 12/24 AND 12/31, THIS BOX MAY BE COLLECTED AS EARLY AS 12 NOON.", "nsi_id": "unitedstatespostalservice-a77078", "operator": "United States Postal Service", "operator:short": "USPS", "operator:type": "public", "operator:wikidata": "Q668687", "ref": "5535600006"}, "type": "Feature"}
{"geometry": {"coordinates": [-93.57573623, 44.986626568], "type": "Point"}, "id": "i7oCnwtqgXAbRYpxTEUN2vVAq4M=", "properties": {"@spider": "usps_collection_boxes", "addr:city": "LONG LAKE", "addr:country": "US", "addr:full": "2095 DANIELS ST", "addr:postcode": "55356", "addr:state": "MN", "amenity": "post_box", "brand": "United States Postal Service", "brand:wikidata": "Q668687", "collection_times": "Mo-Fr 16:30; Sa 11:00", "name": "USPS COLLECTION BOX - PO LOBBY", "note": "ON 12/24 AND 12/31, THIS BOX MAY BE COLLECTED AS EARLY AS 12 NOON.", "nsi_id": "unitedstatespostalservice-a77078", "operator": "United States Postal Service", "operator:short": "USPS", "operator:type": "public", "operator:wikidata": "Q668687", "ref": "5535600007"}, "type": "Feature"}
{"geometry": {"coordinates": [-93.635274103, 45.053604115], "type": "Point"}, "id": "9Ga1P-NGGN0qsXXmV60ctBf9wY0=", "properties": {"@spider": "usps_collection_boxes", "addr:city": "LORETTO", "addr:country": "US", "addr:full": "99 N MEDINA ST", "addr:postcode": "55357", "addr:state": "MN", "amenity": "post_box", "brand": "United States Postal Service", "brand:wikidata": "Q668687", "collection_times": "Mo-Fr 16:30; Sa 11:00", "name": "USPS COLLECTION BOX - BLUE BOX", "note": "ON 12/24 AND 12/31, THIS BOX MAY BE COLLECTED AS EARLY AS 12 NOON.", "nsi_id": "unitedstatespostalservice-a77078", "operator": "United States Postal Service", "operator:short": "USPS", "operator:type": "public", "operator:wikidata": "Q668687", "ref": "5535700001"}, "type": "Feature"}
{"geometry": {"coordinates": [-93.636090781, 45.065329082], "type": "Point"}, "id": "TRR35YL9JAzKXjLg-kP1pNTOG2g=", "properties": {"@spider": "usps_collection_boxes", "addr:city": "LORETTO", "addr:country": "US", "addr:full": "4355 HWY 55", "addr:postcode": "55357", "addr:state": "MN", "amenity": "post_box", "brand": "United States Postal Service", "brand:wikidata": "Q668687", "collection_times": "Mo-Fr 11:30; Sa 09:00", "name": "USPS COLLECTION BOX - BLUE BOX", "nsi_id": "unitedstatespostalservice-a77078", "operator": "United States Postal Service", "operator:short": "USPS", "operator:type": "public", "operator:wikidata": "Q668687", "ref": "5535700002"}, "type": "Feature"}
{"geometry": {"coordinates": [-93.635722535, 45.12447], "type": "Point"}, "id": "LOVkXu5KuJO2hJIGpvSB0T7suO0=", "properties": {"@spider": "usps_collection_boxes", "addr:city": "LORETTO", "addr:country": "US", "addr:full": "9350 COUNTY ROAD 19", "addr:postcode": "55357", "addr:state": "MN", "amenity": "post_box", "brand": "United States Postal Service", "brand:wikidata": "Q668687", "collection_times": "Mo-Sa 09:00", "name": "USPS COLLECTION BOX - BLUE BOX", "nsi_id": "unitedstatespostalservice-a77078", "operator": "United States Postal Service", "operator:short": "USPS", "operator:type": "public", "operator:wikidata": "Q668687", "ref": "5535700003"}, "type": "Feature"}
{"geometry": {"coordinates": [-93.635274103, 45.053604115], "type": "Point"}, "id": "KWYgYANEdyymIbVps-R6i6QeGvo=", "properties": {"@spider": "usps_collection_boxes", "addr:city": "LORETTO", "addr:country": "US", "addr:full": "99 N MEDINA ST", "addr:postcode": "55357", "addr:state": "MN", "amenity": "post_box", "brand": "United States Postal Service", "brand:wikidata": "Q668687", "collection_times": "Mo-Fr 16:30; Sa 11:00", "name": "USPS COLLECTION BOX - PO LOBBY", "note": "ON 12/24 AND 12/31, THIS BOX MAY BE COLLECTED AS EARLY AS 12 NOON.", "nsi_id": "unitedstatespostalservice-a77078", "operator": "United States Postal Service", "operator:short": "USPS", "operator:type": "public", "operator:wikidata": "Q668687", "ref": "5535700004"}, "type": "Feature"}
{"geometry": {"coordinates": [-94.003379593, 45.228247277], "type": "Point"}, "id": "6vmJsNzO9FXFTGAVLRlFivHmcZs=", "properties": {"@spider": "usps_collection_boxes", "addr:city": "MAPLE LAKE", "addr:country": "US", "addr:full": "101 BIRCH AVE S", "addr:postcode": "55358", "addr:state": "MN", "amenity": "post_box", "brand": "United States Postal Service", "brand:wikidata": "Q668687", "collection_times": "Mo-Fr 16:30; Sa 10:00", "name": "USPS COLLECTION BOX - BLUE BOX", "note": "ON 12/24 AND 12/31, THIS BOX MAY BE COLLECTED AS EARLY AS 12 NOON.", "nsi_id": "unitedstatespostalservice-a77078", "operator": "United States Postal Service", "operator:short": "USPS", "operator:type": "public", "operator:wikidata": "Q668687", "ref": "5535800001"}, "type": "Feature"}
{"geometry": {"coordinates": [-94.004814717, 45.232239643], "type": "Point"}, "id": "0hhAC9bqtU8NaagyjIPV22rjzak=", "properties": {"@spider": "usps_collection_boxes", "addr:city": "MAPLE LAKE", "addr:country": "US", "addr:full": "300 HIGHWAY 55 W", "addr:postcode": "55358", "addr:state": "MN", "amenity": "post_box", "brand": "United States Postal Service", "brand:wikidata": "Q668687", "collection_times": "Mo-Fr 13:30", "name": "USPS COLLECTION BOX - BLUE BOX", "note": "ON 12/24 AND 12/31, THIS BOX MAY BE COLLECTED AS EARLY AS 12 NOON.", "nsi_id": "unitedstatespostalservice-a77078", "operator": "United States Postal Service", "operator:short": "USPS", "operator:type": "public", "operator:wikidata": "Q668687", "ref": "5535800002"}, "type": "Feature"}
{"geometry": {"coordinates": [-94.003379593, 45.228247277], "type": "Point"}, "id": "IKmKFqJK2B9vpb4bW_9-9jdBurc=", "properties": {"@spider": "usps_collection_boxes", "addr:city": "MAPLE LAKE", "addr:country": "US", "addr:full": "101 BIRCH AVE S", "addr:postcode": "55358", "addr:state": "MN", "amenity": "post_box", "brand": "United States Postal Service", "brand:wikidata": "Q668687", "collection_times": "Mo-Fr 16:30; Sa 10:00", "name": "USPS COLLECTION BOX - PO LOBBY", "note": "ON 12/24 AND 12/31, THIS BOX MAY BE COLLECTED AS EARLY AS 12 NOON.", "nsi_id": "unitedstatespostalservice-a77078", "operator": "United States Postal Service", "operator:short": "USPS", "operator:type": "public", "operator:wikidata": "Q668687", "ref": "5535800003"}, "type": "Feature"}
{"geometry": {"coordinates": [-94.003379593, 45.228247277], "type": "Point"}, "id": "LR34YwiJzRnRtrKWBwG0QTT9sPk=", "properties": {"@spider": "usps_collection_boxes", "addr:city": "MAPLE LAKE", "addr:country": "US", "addr:full": "101 BIRCH AVE S", "addr:postcode": "55358", "addr:state": "MN", "amenity": "post_box", "brand": "United States Postal Service", "brand:wikidata": "Q668687", "collection_times": "Mo-Fr 16:30; Sa 10:00", "name": "USPS COLLECTION BOX - PO LOBBY", "note": "ON 12/24 AND 12/31, THIS BOX MAY BE COLLECTED AS EARLY AS 12 NOON.", "nsi_id": "unitedstatespostalservice-a77078", "operator": "United States Postal Service", "operator:short": "USPS", "operator:type": "public", "operator:wikidata": "Q668687", "ref": "5535800006"}, "type": "Feature"}
{"geometry": {"coordinates": [-93.655241696, 45.007538481], "type": "Point"}, "id": "j7zgCrs-k_Y9McnNq3xJzD8TJAM=", "properties": {"@spider": "usps_collection_boxes", "addr:city": "MAPLE PLAIN", "addr:country": "US", "addr:full": "5179 MAIN ST E", "addr:postcode": "55359", "addr:state": "MN", "amenity": "post_box", "brand": "United States Postal Service", "brand:wikidata": "Q668687", "collection_times": "Mo-Fr 16:30; Sa 11:30", "name": "USPS COLLECTION BOX - PO LOBBY", "note": "ON 12/24 AND 12/31, THIS BOX MAY BE COLLECTED AS EARLY AS 12 NOON.", "nsi_id": "unitedstatespostalservice-a77078", "operator": "United States Postal Service", "operator:short": "USPS", "operator:type": "public", "operator:wikidata": "Q668687", "ref": "5535900001"}, "type": "Feature"}
{"geometry": {"coordinates": [-93.655241696, 45.007538481], "type": "Point"}, "id": "8PqOjf3iU1Xbn5PbyHM6tUjHaPo=", "properties": {"@spider": "usps_collection_boxes", "addr:city": "MAPLE PLAIN", "addr:country": "US", "addr:full": "5179 MAIN ST E", "addr:postcode": "55359", "addr:state": "MN", "amenity": "post_box", "brand": "United States Postal Service", "brand:wikidata": "Q668687", "collection_times": "Mo-Fr 16:30; Sa 11:30", "name": "USPS COLLECTION BOX - BLUE BOX", "note": "ON 12/24 AND 12/31, THIS BOX MAY BE COLLECTED AS EARLY AS 12 NOON.", "nsi_id": "unitedstatespostalservice-a77078", "operator": "United States Postal Service", "operator:short": "USPS", "operator:type": "public", "operator:wikidata": "Q668687", "ref": "5535900002"}, "type": "Feature"}
{"geometry": {"coordinates": [-93.648770989, 45.00547902], "type": "Point"}, "id": "EDlFkx2jBnYVp_maHsvFZevx940=", "properties": {"@spider": "usps_collection_boxes", "addr:city": "MAPLE PLAIN", "addr:country": "US", "addr:full": "1500 HOWARD AVE", "addr:postcode": "55359", "addr:state": "MN", "amenity": "post_box", "brand": "United States Postal Service", "brand:wikidata": "Q668687", "collection_times": "Mo-Fr 09:30", "name": "USPS COLLECTION BOX - BLUE BOX", "nsi_id": "unitedstatespostalservice-a77078", "operator": "United States Postal Service", "operator:short": "USPS", "operator:type": "public", "operator:wikidata": "Q668687", "ref": "5535900003"}, "type": "Feature"}
{"geometry": {"coordinates": [-93.655241696, 45.007538481], "type": "Point"}, "id": "M5cMKEieXMMgeh0TvMzKwd6U6AU=", "properties": {"@spider": "usps_collection_boxes", "addr:city": "MAPLE PLAIN", "addr:country": "US", "addr:full": "5179 MAIN ST E", "addr:postcode": "55359", "addr:state": "MN", "amenity": "post_box", "brand": "United States Postal Service", "brand:wikidata": "Q668687", "collection_times": "Mo-Fr 16:30; Sa 11:30", "name": "USPS COLLECTION BOX - BLUE BOX", "note": "ON 12/24 AND 12/31, THIS BOX MAY BE COLLECTED AS EARLY AS 12 NOON.", "nsi_id": "unitedstatespostalservice-a77078", "operator": "United States Postal Service", "operator:short": "USPS", "operator:type": "public", "operator:wikidata": "Q668687", "ref": "5535900004"}, "type": "Feature"}
{"geometry": {"coordinates": [-93.6552416961, 45.0075384812], "type": "Point"}, "id": "0eln4QP76H8LuIc2tv-QgI0xag8=", "properties": {"@spider": "usps_collection_boxes", "addr:city": "MAPLE PLAIN", "addr:country": "US", "addr:full": "5179 MAIN ST E", "addr:postcode": "55359", "addr:state": "MN", "amenity": "post_box", "brand": "United States Postal Service", "brand:wikidata": "Q668687", "collection_times": "Mo-Fr 16:30; Sa 11:30", "name": "USPS COLLECTION BOX - PO LOBBY", "note": "ON 12/24 AND 12/31, THIS BOX MAY BE COLLECTED AS EARLY AS 12 NOON.", "nsi_id": "unitedstatespostalservice-a77078", "operator": "United States Postal Service", "operator:short": "USPS", "operator:type": "public", "operator:wikidata": "Q668687", "ref": "5535900006"}, "type": "Feature"}
{"geometry": {"coordinates": [-93.888072773, 44.885673], "type": "Point"}, "id": "7G_NUkI3jVHTZJ4XjS8dnkhi-s4=", "properties": {"@spider": "usps_collection_boxes", "addr:city": "MAYER", "addr:country": "US", "addr:full": "117 ASH AVE N", "addr:postcode": "55360", "addr:state": "MN", "amenity": "post_box", "brand": "United States Postal Service", "brand:wikidata": "Q668687", "collection_times": "Mo-Fr 16:00; Sa 09:30", "name": "USPS COLLECTION BOX - BLUE BOX", "note": "ON 12/24 AND 12/31, THIS BOX MAY BE COLLECTED AS EARLY AS 12 NOON.", "nsi_id": "unitedstatespostalservice-a77078", "operator": "United States Postal Service", "operator:short": "USPS", "operator:type": "public", "operator:wikidata": "Q668687", "ref": "5536000001"}, "type": "Feature"}
{"geometry": {"coordinates": [-93.888072773, 44.885673], "type": "Point"}, "id": "63jKWY_gs5nY1K7msspKXdtg0Zo=", "properties": {"@spider": "usps_collection_boxes", "addr:city": "MAYER", "addr:country": "US", "addr:full": "117 ASH AVE N", "addr:postcode": "55360", "addr:state": "MN", "amenity": "post_box", "brand": "United States Postal Service", "brand:wikidata": "Q668687", "collection_times": "Mo-Fr 16:00; Sa 09:30", "name": "USPS COLLECTION BOX - PO LOBBY", "note": "ON 12/24 AND 12/31, THIS BOX MAY BE COLLECTED AS EARLY AS 12 NOON.", "nsi_id": "unitedstatespostalservice-a77078", "operator": "United States Postal Service", "operator:short": "USPS", "operator:type": "public", "operator:wikidata": "Q668687", "ref": "5536000003"}, "type": "Feature"}
{"geometry": {"coordinates": [-93.888072773, 44.885673], "type": "Point"}, "id": "cipbcbPHXB0Cp47AdCuNhj3F7a4=", "properties": {"@spider": "usps_collection_boxes", "addr:city": "MAYER", "addr:country": "US", "addr:full": "117 ASH AVE N", "addr:postcode": "55360", "addr:state": "MN", "amenity": "post_box", "brand": "United States Postal Service", "brand:wikidata": "Q668687", "collection_times": "Mo-Fr 16:00; Sa 09:30", "name": "USPS COLLECTION BOX - PO LOBBY", "note": "ON 12/24 AND 12/31, THIS BOX MAY BE COLLECTED AS EARLY AS 12 NOON.", "nsi_id": "unitedstatespostalservice-a77078", "operator": "United States Postal Service", "operator:short": "USPS", "operator:type": "public", "operator:wikidata": "Q668687", "ref": "5536000005"}, "type": "Feature"}
{"geometry": {"coordinates": [-93.888072773, 44.885673], "type": "Point"}, "id": "4P7fwIRdVvgLuXl_YAHEgDHUzLM=", "properties": {"@spider": "usps_collection_boxes", "addr:city": "MAYER", "addr:country": "US", "addr:full": "117 ASH AVE N", "addr:postcode": "55360", "addr:state": "MN", "amenity": "post_box", "brand": "United States Postal Service", "brand:wikidata": "Q668687", "collection_times": "Mo-Fr 16:00; Sa 09:45", "name": "USPS COLLECTION BOX - PO LOBBY", "note": "ON 12/24 AND 12/31, THIS BOX MAY BE COLLECTED AS EARLY AS 12 NOON.", "nsi_id": "unitedstatespostalservice-a77078", "operator": "United States Postal Service", "operator:short": "USPS", "operator:type": "public", "operator:wikidata": "Q668687", "ref": "5536000006"}, "type": "Feature"}
{"geometry": {"coordinates": [-93.8018839684, 45.3002299859], "type": "Point"}, "id": "VE6-x-0BiP7yJzDWv0G5PABr4do=", "properties": {"@spider": "usps_collection_boxes", "addr:city": "MONTICELLO", "addr:country": "US", "addr:full": "300 W 7TH ST", "addr:postcode": "55362", "addr:state": "MN", "amenity": "post_box", "brand": "United States Postal Service", "brand:wikidata": "Q668687", "collection_times": "Mo-Sa 10:00", "name": "USPS COLLECTION BOX - BLUE BOX", "nsi_id": "unitedstatespostalservice-a77078", "operator": "United States Postal Service", "operator:short": "USPS", "operator:type": "public", "operator:wikidata": "Q668687", "ref": "5536200002"}, "type": "Feature"}
{"geometry": {"coordinates": [-93.799526373, 45.296209066], "type": "Point"}, "id": "QnO_RSSXsQCBuoPFJTi7waYxgJk=", "properties": {"@spider": "usps_collection_boxes", "addr:city": "MONTICELLO", "addr:country": "US", "addr:full": "109 OAKWOOD DR E", "addr:postcode": "55362", "addr:state": "MN", "amenity": "post_box", "brand": "United States Postal Service", "brand:wikidata": "Q668687", "collection_times": "Mo-Sa 09:00", "name": "USPS COLLECTION BOX - BLUE BOX", "nsi_id": "unitedstatespostalservice-a77078", "operator": "United States Postal Service", "operator:short": "USPS", "operator:type": "public", "operator:wikidata": "Q668687", "ref": "5536200004"}, "type": "Feature"}
{"geometry": {"coordinates": [-93.7564304147, 45.2848295395], "type": "Point"}, "id": "ZL1bSNnhupBDMPts6pDNWHjJeO4=", "properties": {"@spider": "usps_collection_boxes", "addr:city": "MONTICELLO", "addr:country": "US", "addr:full": "2860 RED OAK CIR", "addr:postcode": "55362", "addr:state": "MN", "amenity": "post_box", "brand": "United States Postal Service", "brand:wikidata": "Q668687", "collection_times": "Mo-Sa 10:30", "name": "USPS COLLECTION BOX - BLUE BOX", "nsi_id": "unitedstatespostalservice-a77078", "operator": "United States Postal Service", "operator:short": "USPS", "operator:type": "public", "operator:wikidata": "Q668687", "ref": "5536200012"}, "type": "Feature"}
{"geometry": {"coordinates": [-93.796125813, 45.299973163], "type": "Point"}, "id": "ZBDXOMzbN9LrOjdjITZpjIMipG0=", "properties": {"@spider": "usps_collection_boxes", "addr:city": "MONTICELLO", "addr:country": "US", "addr:full": "206 E 7TH ST", "addr:postcode": "55362", "addr:state": "MN", "amenity": "post_box", "brand": "United States Postal Service", "brand:wikidata": "Q668687", "collection_times": "Mo-Fr 17:00; Sa 12:00", "name": "USPS COLLECTION BOX - PO LOBBY", "note": "ON 12/24 AND 12/31, THIS BOX MAY BE COLLECTED AS EARLY AS 12 NOON.", "nsi_id": "unitedstatespostalservice-a77078", "operator": "United States Postal Service", "operator:short": "USPS", "operator:type": "public", "operator:wikidata": "Q668687", "ref": "5536200013"}, "type": "Feature"}
{"geometry": {"coordinates": [-93.796125813, 45.299973163], "type": "Point"}, "id": "xM16FZmNByiaCtsr9nS2n-KCYwU=", "properties": {"@spider": "usps_collection_boxes", "addr:city": "MONTICELLO", "addr:country": "US", "addr:full": "206 E 7TH ST", "addr:postcode": "55362", "addr:state": "MN", "amenity": "post_box", "brand": "United States Postal Service", "brand:wikidata": "Q668687", "collection_times": "Mo-Fr 17:00; Sa 12:00", "name": "USPS COLLECTION BOX - BLUE BOX", "note": "ON 12/24 AND 12/31, THIS BOX MAY BE COLLECTED AS EARLY AS 12 NOON.", "nsi_id": "unitedstatespostalservice-a77078", "operator": "United States Postal Service", "operator:short": "USPS", "operator:type": "public", "operator:wikidata": "Q668687", "ref": "5536200014"}, "type": "Feature"}
{"geometry": {"coordinates": [-93.804746269, 45.284845217], "type": "Point"}, "id": "Otkd8yhsagjx_HWgNQFRmotYPHA=", "properties": {"@spider": "usps_collection_boxes", "addr:city": "MONTICELLO", "addr:country": "US", "addr:full": "9320 CEDAR ST", "addr:postcode": "55362", "addr:state": "MN", "amenity": "post_box", "brand": "United States Postal Service", "brand:wikidata": "Q668687", "collection_times": "Mo-Fr 13:00; Sa 10:00", "name": "USPS COLLECTION BOX - BLUE BOX", "note": "ON 12/24 AND 12/31, THIS BOX MAY BE COLLECTED AS EARLY AS 12 NOON.", "nsi_id": "unitedstatespostalservice-a77078", "operator": "United States Postal Service", "operator:short": "USPS", "operator:type": "public", "operator:wikidata": "Q668687", "ref": "5536200015"}, "type": "Feature"}
{"geometry": {"coordinates": [-93.796125813, 45.299973163], "type": "Point"}, "id": "FMoW7KLWjVxPZb-McUZO3i-DgTg=", "properties": {"@spider": "usps_collection_boxes", "addr:city": "MONTICELLO", "addr:country": "US", "addr:full": "206 E 7TH ST", "addr:postcode": "55362", "addr:state": "MN", "amenity": "post_box", "brand": "United States Postal Service", "brand:wikidata": "Q668687", "collection_times": "Mo-Fr 17:00; Sa 12:00", "name": "USPS COLLECTION BOX - BLUE BOX", "note": "ON 12/24 AND 12/31, THIS BOX MAY BE COLLECTED AS EARLY AS 12 NOON.", "nsi_id": "unitedstatespostalservice-a77078", "operator": "United States Postal Service", "operator:short": "USPS", "operator:type": "public", "operator:wikidata": "Q668687", "ref": "5536200017"}, "type": "Feature"}
{"geometry": {"coordinates": [-93.796125813, 45.299973163], "type": "Point"}, "id": "tzL0z0GsWvwCSf673H4cj9e9nzQ=", "properties": {"@spider": "usps_collection_boxes", "addr:city": "MONTICELLO", "addr:country": "US", "addr:full": "206 E 7TH ST", "addr:postcode": "55362", "addr:state": "MN", "amenity": "post_box", "brand": "United States Postal Service", "brand:wikidata": "Q668687", "collection_times": "Mo-Fr 17:00; Sa 12:00", "name": "USPS COLLECTION BOX - BLUE BOX", "note": "ON 12/24 AND 12/31, THIS BOX MAY BE COLLECTED AS EARLY AS 12 NOON.", "nsi_id": "unitedstatespostalservice-a77078", "operator": "United States Postal Service", "operator:short": "USPS", "operator:type": "public", "operator:wikidata": "Q668687", "ref": "5536200018"}, "type": "Feature"}
{"geometry": {"coordinates": [-93.796125813, 45.299973163], "type": "Point"}, "id": "VeiJFEcoYP25bRvnfABdeHQeamI=", "properties": {"@spider": "usps_collection_boxes", "addr:city": "MONTICELLO", "addr:country": "US", "addr:full": "206 E 7TH ST", "addr:postcode": "55362", "addr:state": "MN", "amenity": "post_box", "brand": "United States Postal Service", "brand:wikidata": "Q668687", "collection_times": "Mo-Fr 16:30; Sa 11:30", "name": "USPS COLLECTION BOX - PO LOBBY", "note": "ON 12/24 AND 12/31, THIS BOX MAY BE COLLECTED AS EARLY AS 12 NOON.", "nsi_id": "unitedstatespostalservice-a77078", "operator": "United States Postal Service", "operator:short": "USPS", "operator:type": "public", "operator:wikidata": "Q668687", "ref": "5536200021"}, "type": "Feature"}
{"geometry": {"coordinates": [-93.913693603, 45.065430251], "type": "Point"}, "id": "LoiDQC8TjNO5BK3qlCW5bZxyPoY=", "properties": {"@spider": "usps_collection_boxes", "addr:city": "MONTROSE", "addr:country": "US", "addr:full": "360 CENTER AVE S", "addr:postcode": "55363", "addr:state": "MN", "amenity": "post_box", "brand": "United States Postal Service", "brand:wikidata": "Q668687", "collection_times": "Mo-Fr 16:30; Sa 10:00", "name": "USPS COLLECTION BOX - BLUE BOX", "note": "ON 12/24 AND 12/31, THIS BOX MAY BE COLLECTED AS EARLY AS 12 NOON.", "nsi_id": "unitedstatespostalservice-a77078", "operator": "United States Postal Service", "operator:short": "USPS", "operator:type": "public", "operator:wikidata": "Q668687", "ref": "5536300009"}, "type": "Feature"}
{"geometry": {"coordinates": [-93.913693603, 45.065430251], "type": "Point"}, "id": "VNj-mtfcGBZFoin3tJtXhInpSL0=", "properties": {"@spider": "usps_collection_boxes", "addr:city": "MONTROSE", "addr:country": "US", "addr:full": "360 CENTER AVE S", "addr:postcode": "55363", "addr:state": "MN", "amenity": "post_box", "brand": "United States Postal Service", "brand:wikidata": "Q668687", "collection_times": "Mo-Fr 16:30; Sa 10:00", "name": "USPS COLLECTION BOX - PO LOBBY", "note": "ON 12/24 AND 12/31, THIS BOX MAY BE COLLECTED AS EARLY AS 12 NOON.", "nsi_id": "unitedstatespostalservice-a77078", "operator": "United States Postal Service", "operator:short": "USPS", "operator:type": "public", "operator:wikidata": "Q668687", "ref": "5536300012"}, "type": "Feature"}
{"geometry": {"coordinates": [-93.9136936035, 45.0654302515], "type": "Point"}, "id": "WoNTvWrzH95qNzmcskRtiGlxW5I=", "properties": {"@spider": "usps_collection_boxes", "addr:city": "MONTROSE", "addr:country": "US", "addr:full": "360 CENTER AVE S", "addr:postcode": "55363", "addr:state": "MN", "amenity": "post_box", "brand": "United States Postal Service", "brand:wikidata": "Q668687", "collection_times": "Mo-Fr 16:30; Sa 10:00", "name": "USPS COLLECTION BOX - PO LOBBY", "note": "ON 12/24 AND 12/31, THIS BOX MAY BE COLLECTED AS EARLY AS 12 NOON.", "nsi_id": "unitedstatespostalservice-a77078", "operator": "United States Postal Service", "operator:short": "USPS", "operator:type": "public", "operator:wikidata": "Q668687", "ref": "5536300013"}, "type": "Feature"}
{"geometry": {"coordinates": [-93.665092332, 44.94718146], "type": "Point"}, "id": "gSiV4IshGW2PqP5RVbs8DVv6E3A=", "properties": {"@spider": "usps_collection_boxes", "addr:city": "MOUND", "addr:country": "US", "addr:full": "5550 THREE POINTS BLVD", "addr:postcode": "55364", "addr:state": "MN", "amenity": "post_box", "brand": "United States Postal Service", "brand:wikidata": "Q668687", "collection_times": "Mo-Sa 13:00", "name": "USPS COLLECTION BOX - BLUE BOX", "note": "ON 12/24 AND 12/31, THIS BOX MAY BE COLLECTED AS EARLY AS 12 NOON.", "nsi_id": "unitedstatespostalservice-a77078", "operator": "United States Postal Service", "operator:short": "USPS", "operator:type": "public", "operator:wikidata": "Q668687", "ref": "5536400003"}, "type": "Feature"}
{"geometry": {"coordinates": [-93.636157393, 44.92798354], "type": "Point"}, "id": "W8pzrm9FKDtPKgKrlCkmB_Bs9F0=", "properties": {"@spider": "usps_collection_boxes", "addr:city": "MOUND", "addr:country": "US", "addr:full": "4400 TUXEDO BLVD", "addr:postcode": "55364", "addr:state": "MN", "amenity": "post_box", "brand": "United States Postal Service", "brand:wikidata": "Q668687", "collection_times": "Mo-Sa 09:30", "name": "USPS COLLECTION BOX - BLUE BOX", "nsi_id": "unitedstatespostalservice-a77078", "operator": "United States Postal Service", "operator:short": "USPS", "operator:type": "public", "operator:wikidata": "Q668687", "ref": "5536400005"}, "type": "Feature"}
{"geometry": {"coordinates": [-93.665779985, 44.936967051], "type": "Point"}, "id": "ZzGlC3uEQiEgWg9Ipzjvp0WcO1E=", "properties": {"@spider": "usps_collection_boxes", "addr:city": "MOUND", "addr:country": "US", "addr:full": "5510 SHORELINE DR", "addr:postcode": "55364", "addr:state": "MN", "amenity": "post_box", "brand": "United States Postal Service", "brand:wikidata": "Q668687", "collection_times": "Mo-Fr 16:00; Sa 13:30", "name": "USPS COLLECTION BOX - BLUE BOX", "note": "ON 12/24 AND 12/31, THIS BOX MAY BE COLLECTED AS EARLY AS 12 NOON.", "nsi_id": "unitedstatespostalservice-a77078", "operator": "United States Postal Service", "operator:short": "USPS", "operator:type": "public", "operator:wikidata": "Q668687", "ref": "5536400006"}, "type": "Feature"}
{"geometry": {"coordinates": [-93.665779985, 44.936967051], "type": "Point"}, "id": "hUAhp0FQWtZRlfHX5ho22dPxYRI=", "properties": {"@spider": "usps_collection_boxes", "addr:city": "MOUND", "addr:country": "US", "addr:full": "5510 SHORELINE DR", "addr:postcode": "55364", "addr:state": "MN", "amenity": "post_box", "brand": "United States Postal Service", "brand:wikidata": "Q668687", "collection_times": "Mo-Fr 16:30; Sa 15:00", "name": "USPS COLLECTION BOX - PO LOBBY", "note": "ON 12/24 AND 12/31, THIS BOX MAY BE COLLECTED AS EARLY AS 12 NOON.", "nsi_id": "unitedstatespostalservice-a77078", "operator": "United States Postal Service", "operator:short": "USPS", "operator:type": "public", "operator:wikidata": "Q668687", "ref": "5536400009"}, "type": "Feature"}
{"geometry": {"coordinates": [-93.642744467, 44.936434071], "type": "Point"}, "id": "7AWgy67Z2xTLo3FoqcJ4cWiDthE=", "properties": {"@spider": "usps_collection_boxes", "addr:city": "MOUND", "addr:country": "US", "addr:full": "4675 SHORELINE DR", "addr:postcode": "55364", "addr:state": "MN", "amenity": "post_box", "brand": "United States Postal Service", "brand:wikidata": "Q668687", "collection_times": "Mo-Sa 09:00", "name": "USPS COLLECTION BOX - BLUE BOX", "nsi_id": "unitedstatespostalservice-a77078", "operator": "United States Postal Service", "operator:short": "USPS", "operator:type": "public", "operator:wikidata": "Q668687", "ref": "5536400010"}, "type": "Feature"}
{"geometry": {"coordinates": [-93.666222665, 44.939537675], "type": "Point"}, "id": "yaRshbINPU78aeJCIS9wGjPwRfU=", "properties": {"@spider": "usps_collection_boxes", "addr:city": "MOUND", "addr:country": "US", "addr:full": "2121 COMMERCE BLVD", "addr:postcode": "55364", "addr:state": "MN", "amenity": "post_box", "brand": "United States Postal Service", "brand:wikidata": "Q668687", "collection_times": "Mo-Fr 14:30; Sa 13:30", "name": "USPS COLLECTION BOX - BLUE BOX", "note": "ON 12/24 AND 12/31, THIS BOX MAY BE COLLECTED AS EARLY AS 12 NOON.", "nsi_id": "unitedstatespostalservice-a77078", "operator": "United States Postal Service", "operator:short": "USPS", "operator:type": "public", "operator:wikidata": "Q668687", "ref": "5536400011"}, "type": "Feature"}
{"geometry": {"coordinates": [-93.657530829, 44.936488605], "type": "Point"}, "id": "U-0UPUcHGH_rMJmwEXL5IL7wd1E=", "properties": {"@spider": "usps_collection_boxes", "addr:city": "MOUND", "addr:country": "US", "addr:full": "5293 SHORELINE DR", "addr:postcode": "55364", "addr:state": "MN", "amenity": "post_box", "brand": "United States Postal Service", "brand:wikidata": "Q668687", "collection_times": "Mo-Sa 08:30", "name": "USPS COLLECTION BOX - BLUE BOX", "nsi_id": "unitedstatespostalservice-a77078", "operator": "United States Postal Service", "operator:short": "USPS", "operator:type": "public", "operator:wikidata": "Q668687", "ref": "5536400012"}, "type": "Feature"}
{"geometry": {"coordinates": [-93.665779985, 44.936967051], "type": "Point"}, "id": "d-An-mg-jsXaeToBSLH3BgTCeyg=", "properties": {"@spider": "usps_collection_boxes", "addr:city": "MOUND", "addr:country": "US", "addr:full": "5510 SHORELINE DR", "addr:postcode": "55364", "addr:state": "MN", "amenity": "post_box", "brand": "United States Postal Service", "brand:wikidata": "Q668687", "collection_times": "Mo-Fr 16:30; Sa 11:00", "name": "USPS COLLECTION BOX - PO LOBBY", "note": "ON 12/24 AND 12/31, THIS BOX MAY BE COLLECTED AS EARLY AS 12 NOON.", "nsi_id": "unitedstatespostalservice-a77078", "operator": "United States Postal Service", "operator:short": "USPS", "operator:type": "public", "operator:wikidata": "Q668687", "ref": "5536400014"}, "type": "Feature"}
{"geometry": {"coordinates": [-94.230972, 44.670384], "type": "Point"}, "id": "AxY2rhyzcwQyHqVm6wmNlGcL6iI=", "properties": {"@spider": "usps_collection_boxes", "addr:city": "NEW AUBURN", "addr:country": "US", "addr:full": "8301 8TH AVE", "addr:postcode": "55366", "addr:state": "MN", "amenity": "post_box", "brand": "United States Postal Service", "brand:wikidata": "Q668687", "collection_times": "Mo-Fr 15:30; Sa 09:00", "name": "USPS COLLECTION BOX - BLUE BOX", "note": "ON 12/24 AND 12/31, THIS BOX MAY BE COLLECTED AS EARLY AS 12 NOON.", "nsi_id": "unitedstatespostalservice-a77078", "operator": "United States Postal Service", "operator:short": "USPS", "operator:type": "public", "operator:wikidata": "Q668687", "ref": "5536600001"}, "type": "Feature"}
{"geometry": {"coordinates": [-94.230972, 44.670384], "type": "Point"}, "id": "ze3fGRxgvjEt_7KW6XPCiqodZ8c=", "properties": {"@spider": "usps_collection_boxes", "addr:city": "NEW AUBURN", "addr:country": "US", "addr:full": "8301 8TH AVE", "addr:postcode": "55366", "addr:state": "MN", "amenity": "post_box", "brand": "United States Postal Service", "brand:wikidata": "Q668687", "collection_times": "Mo-Fr 15:30; Sa 09:00", "name": "USPS COLLECTION BOX - PO LOBBY", "note": "ON 12/24 AND 12/31, THIS BOX MAY BE COLLECTED AS EARLY AS 12 NOON.", "nsi_id": "unitedstatespostalservice-a77078", "operator": "United States Postal Service", "operator:short": "USPS", "operator:type": "public", "operator:wikidata": "Q668687", "ref": "5536600002"}, "type": "Feature"}
{"geometry": {"coordinates": [-94.230972, 44.670384], "type": "Point"}, "id": "EsExC935qlWhPZYFywsQ1_xT-ck=", "properties": {"@spider": "usps_collection_boxes", "addr:city": "NEW AUBURN", "addr:country": "US", "addr:full": "8301 8TH AVE", "addr:postcode": "55366", "addr:state": "MN", "amenity": "post_box", "brand": "United States Postal Service", "brand:wikidata": "Q668687", "collection_times": "Mo-Fr 15:30; Sa 09:30", "name": "USPS COLLECTION BOX - PO LOBBY", "note": "ON 12/24 AND 12/31, THIS BOX MAY BE COLLECTED AS EARLY AS 12 NOON.", "nsi_id": "unitedstatespostalservice-a77078", "operator": "United States Postal Service", "operator:short": "USPS", "operator:type": "public", "operator:wikidata": "Q668687", "ref": "5536600003"}, "type": "Feature"}
{"geometry": {"coordinates": [-93.968234204, 44.884500691], "type": "Point"}, "id": "Cs-pP2Ui8v6npd-vXvk0VGZGxRE=", "properties": {"@spider": "usps_collection_boxes", "addr:city": "NEW GERMANY", "addr:country": "US", "addr:full": "240A BROADWAY ST E", "addr:postcode": "55367", "addr:state": "MN", "amenity": "post_box", "brand": "United States Postal Service", "brand:wikidata": "Q668687", "collection_times": "Mo-Fr 16:00; Sa 09:30", "name": "USPS COLLECTION BOX - BLUE BOX", "note": "ON 12/24 AND 12/31, THIS BOX MAY BE COLLECTED AS EARLY AS 12 NOON.", "nsi_id": "unitedstatespostalservice-a77078", "operator": "United States Postal Service", "operator:short": "USPS", "operator:type": "public", "operator:wikidata": "Q668687", "ref": "5536700001"}, "type": "Feature"}
{"geometry": {"coordinates": [-93.968234204, 44.884500691], "type": "Point"}, "id": "Bul8OBe1cZqQTg4ndoUsM6o4ZIg=", "properties": {"@spider": "usps_collection_boxes", "addr:city": "NEW GERMANY", "addr:country": "US", "addr:full": "240A BROADWAY ST E", "addr:postcode": "55367", "addr:state": "MN", "amenity": "post_box", "brand": "United States Postal Service", "brand:wikidata": "Q668687", "collection_times": "Mo-Fr 16:00; Sa 09:30", "name": "USPS COLLECTION BOX - PO LOBBY", "note": "ON 12/24 AND 12/31, THIS BOX MAY BE COLLECTED AS EARLY AS 12 NOON.", "nsi_id": "unitedstatespostalservice-a77078", "operator": "United States Postal Service", "operator:short": "USPS", "operator:type": "public", "operator:wikidata": "Q668687", "ref": "5536700002"}, "type": "Feature"}
{"geometry": {"coordinates": [-93.968234204, 44.884500691], "type": "Point"}, "id": "mc4ZNpi8roEvdjEdE-N7F2zqZD8=", "properties": {"@spider": "usps_collection_boxes", "addr:city": "NEW GERMANY", "addr:country": "US", "addr:full": "240A BROADWAY ST E", "addr:postcode": "55367", "addr:state": "MN", "amenity": "post_box", "brand": "United States Postal Service", "brand:wikidata": "Q668687", "collection_times": "Mo-Fr 16:00; Sa 09:45", "name": "USPS COLLECTION BOX - PO LOBBY", "note": "ON 12/24 AND 12/31, THIS BOX MAY BE COLLECTED AS EARLY AS 12 NOON.", "nsi_id": "unitedstatespostalservice-a77078", "operator": "United States Postal Service", "operator:short": "USPS", "operator:type": "public", "operator:wikidata": "Q668687", "ref": "5536700003"}, "type": "Feature"}
{"geometry": {"coordinates": [-94.037940732, 44.772695329], "type": "Point"}, "id": "EUdL-XgCpakRLGSFzpeyEGX2qeM=", "properties": {"@spider": "usps_collection_boxes", "addr:city": "PLATO", "addr:country": "US", "addr:full": "16 2ND AVE NE", "addr:postcode": "55370", "addr:state": "MN", "amenity": "post_box", "brand": "United States Postal Service", "brand:wikidata": "Q668687", "collection_times": "Mo-Fr 15:45; Sa 11:45", "name": "USPS COLLECTION BOX - BLUE BOX", "note": "ON 12/24 AND 12/31, THIS BOX MAY BE COLLECTED AS EARLY AS 12 NOON.", "nsi_id": "unitedstatespostalservice-a77078", "operator": "United States Postal Service", "operator:short": "USPS", "operator:type": "public", "operator:wikidata": "Q668687", "ref": "5537000001"}, "type": "Feature"}
{"geometry": {"coordinates": [-94.037940732, 44.772695329], "type": "Point"}, "id": "WVT85H8Va5RUyksyyD0SYur37wM=", "properties": {"@spider": "usps_collection_boxes", "addr:city": "PLATO", "addr:country": "US", "addr:full": "16 2ND AVE NE", "addr:postcode": "55370", "addr:state": "MN", "amenity": "post_box", "brand": "United States Postal Service", "brand:wikidata": "Q668687", "collection_times": "Mo-Fr 15:45; Sa 11:45", "name": "USPS COLLECTION BOX - PO LOBBY", "note": "ON 12/24 AND 12/31, THIS BOX MAY BE COLLECTED AS EARLY AS 12 NOON.", "nsi_id": "unitedstatespostalservice-a77078", "operator": "United States Postal Service", "operator:short": "USPS", "operator:type": "public", "operator:wikidata": "Q668687", "ref": "5537000002"}, "type": "Feature"}
{"geometry": {"coordinates": [-94.0379407322, 44.7726953294], "type": "Point"}, "id": "taiVHE3kvqSAhWAYQl4R7EovUiw=", "properties": {"@spider": "usps_collection_boxes", "addr:city": "PLATO", "addr:country": "US", "addr:full": "16 2ND AVE NE", "addr:postcode": "55370", "addr:state": "MN", "amenity": "post_box", "brand": "United States Postal Service", "brand:wikidata": "Q668687", "collection_times": "Mo-Fr 15:45; Sa 11:45", "name": "USPS COLLECTION BOX - PO LOBBY", "note": "ON 12/24 AND 12/31, THIS BOX MAY BE COLLECTED AS EARLY AS 12 NOON.", "nsi_id": "unitedstatespostalservice-a77078", "operator": "United States Postal Service", "operator:short": "USPS", "operator:type": "public", "operator:wikidata": "Q668687", "ref": "5537000003"}, "type": "Feature"}
{"geometry": {"coordinates": [-93.5796999995, 45.5660739893], "type": "Point"}, "id": "n5suhVGunw9EdSKRtNFXZcGG2ws=", "properties": {"@spider": "usps_collection_boxes", "addr:city": "PRINCETON", "addr:country": "US", "addr:full": "308 S RUM RIVER DR", "addr:postcode": "55371", "addr:state": "MN", "amenity": "post_box", "brand": "United States Postal Service", "brand:wikidata": "Q668687", "collection_times": "Mo-Sa 11:00", "name": "USPS COLLECTION BOX - BLUE BOX", "nsi_id": "unitedstatespostalservice-a77078", "operator": "United States Postal Service", "operator:short": "USPS", "operator:type": "public", "operator:wikidata": "Q668687", "ref": "5537100002"}, "type": "Feature"}
{"geometry": {"coordinates": [-93.58015329, 45.569934], "type": "Point"}, "id": "Oi5DST_hKNBDyb0U9kWRxWqXQOQ=", "properties": {"@spider": "usps_collection_boxes", "addr:city": "PRINCETON", "addr:country": "US", "addr:full": "101 RUM RIVER DR N", "addr:postcode": "55371", "addr:state": "MN", "amenity": "post_box", "brand": "United States Postal Service", "brand:wikidata": "Q668687", "collection_times": "Mo-Sa 09:30", "name": "USPS COLLECTION BOX - BLUE BOX", "nsi_id": "unitedstatespostalservice-a77078", "operator": "United States Postal Service", "operator:short": "USPS", "operator:type": "public", "operator:wikidata": "Q668687", "ref": "5537100005"}, "type": "Feature"}
{"geometry": {"coordinates": [-93.580141696, 45.571562864], "type": "Point"}, "id": "OP-k1wRajMdz5J18Vwxi2we0un4=", "properties": {"@spider": "usps_collection_boxes", "addr:city": "PRINCETON", "addr:country": "US", "addr:full": "205 RUM RIVER DR N", "addr:postcode": "55371", "addr:state": "MN", "amenity": "post_box", "brand": "United States Postal Service", "brand:wikidata": "Q668687", "collection_times": "Mo-Fr 17:00; Sa 15:45", "name": "USPS COLLECTION BOX - BLUE BOX", "note": "ON 12/24 AND 12/31, THIS BOX MAY BE COLLECTED AS EARLY AS 12 NOON.", "nsi_id": "unitedstatespostalservice-a77078", "operator": "United States Postal Service", "operator:short": "USPS", "operator:type": "public", "operator:wikidata": "Q668687", "ref": "5537100008"}, "type": "Feature"}
{"geometry": {"coordinates": [-93.585155987, 45.557522171], "type": "Point"}, "id": "kEXwnzx4jCYRpImETZCNW5AwsBQ=", "properties": {"@spider": "usps_collection_boxes", "addr:city": "PRINCETON", "addr:country": "US", "addr:full": "707 NORTHLAND DR", "addr:postcode": "55371", "addr:state": "MN", "amenity": "post_box", "brand": "United States Postal Service", "brand:wikidata": "Q668687", "collection_times": "Mo-Sa 10:00", "name": "USPS COLLECTION BOX - BLUE BOX", "nsi_id": "unitedstatespostalservice-a77078", "operator": "United States Postal Service", "operator:short": "USPS", "operator:type": "public", "operator:wikidata": "Q668687", "ref": "5537100009"}, "type": "Feature"}
{"geometry": {"coordinates": [-93.587297336, 45.552892777], "type": "Point"}, "id": "yW8wU6-tCnlcySuK0ABA1u2raig=", "properties": {"@spider": "usps_collection_boxes", "addr:city": "PRINCETON", "addr:country": "US", "addr:full": "106 9TH AVENUE CIR S", "addr:postcode": "55371", "addr:state": "MN", "amenity": "post_box", "brand": "United States Postal Service", "brand:wikidata": "Q668687", "collection_times": "Mo-Sa 09:00", "name": "USPS COLLECTION BOX - BLUE BOX", "nsi_id": "unitedstatespostalservice-a77078", "operator": "United States Postal Service", "operator:short": "USPS", "operator:type": "public", "operator:wikidata": "Q668687", "ref": "5537100010"}, "type": "Feature"}
{"geometry": {"coordinates": [-93.593691004, 45.55320417], "type": "Point"}, "id": "5l5u3QeTAA9MdEZHqpf6yLNBvEE=", "properties": {"@spider": "usps_collection_boxes", "addr:city": "PRINCETON", "addr:country": "US", "addr:full": "1500 14TH ST S", "addr:postcode": "55371", "addr:state": "MN", "amenity": "post_box", "brand": "United States Postal Service", "brand:wikidata": "Q668687", "collection_times": "Mo-Sa 09:00", "name": "USPS COLLECTION BOX - BLUE BOX", "nsi_id": "unitedstatespostalservice-a77078", "operator": "United States Postal Service", "operator:short": "USPS", "operator:type": "public", "operator:wikidata": "Q668687", "ref": "5537100011"}, "type": "Feature"}
{"geometry": {"coordinates": [-93.5805309813, 45.5714319952], "type": "Point"}, "id": "tf1Fdvb5sKGuBJLT2EqdntylIuI=", "properties": {"@spider": "usps_collection_boxes", "addr:city": "PRINCETON", "addr:country": "US", "addr:full": "205 RUM RIVER DR N", "addr:postcode": "55371", "addr:state": "MN", "amenity": "post_box", "brand": "United States Postal Service", "brand:wikidata": "Q668687", "collection_times": "Mo-Fr 17:00; Sa 15:45", "name": "USPS COLLECTION BOX - BLUE BOX", "note": "ON 12/24 AND 12/31, THIS BOX MAY BE COLLECTED AS EARLY AS 12 NOON.", "nsi_id": "unitedstatespostalservice-a77078", "operator": "United States Postal Service", "operator:short": "USPS", "operator:type": "public", "operator:wikidata": "Q668687", "ref": "5537100012"}, "type": "Feature"}
{"geometry": {"coordinates": [-93.580141696, 45.571562864], "type": "Point"}, "id": "AMcAOIru9cQBheFISDF30rRD5jM=", "properties": {"@spider": "usps_collection_boxes", "addr:city": "PRINCETON", "addr:country": "US", "addr:full": "205 RUM RIVER DR N", "addr:postcode": "55371", "addr:state": "MN", "amenity": "post_box", "brand": "United States Postal Service", "brand:wikidata": "Q668687", "collection_times": "Mo-Fr 16:45; Sa 15:45", "name": "USPS COLLECTION BOX - PO LOBBY", "note": "ON 12/24 AND 12/31, THIS BOX MAY BE COLLECTED AS EARLY AS 12 NOON.", "nsi_id": "unitedstatespostalservice-a77078", "operator": "United States Postal Service", "operator:short": "USPS", "operator:type": "public", "operator:wikidata": "Q668687", "ref": "5537100013"}, "type": "Feature"}
{"geometry": {"coordinates": [-93.601123778, 45.573662598], "type": "Point"}, "id": "rWN1_xwK4Ulgx2m2NUf-ffgo37Y=", "properties": {"@spider": "usps_collection_boxes", "addr:city": "PRINCETON", "addr:country": "US", "addr:full": "400 19TH AVE N", "addr:postcode": "55371", "addr:state": "MN", "amenity": "post_box", "brand": "United States Postal Service", "brand:wikidata": "Q668687", "collection_times": "Mo-Sa 09:00", "name": "USPS COLLECTION BOX - BLUE BOX", "nsi_id": "unitedstatespostalservice-a77078", "operator": "United States Postal Service", "operator:short": "USPS", "operator:type": "public", "operator:wikidata": "Q668687", "ref": "5537100015"}, "type": "Feature"}
{"geometry": {"coordinates": [-93.580141696, 45.571562864], "type": "Point"}, "id": "Hi_Kv8cj8-1SZX8sj1Pw4WK8tQo=", "properties": {"@spider": "usps_collection_boxes", "addr:city": "PRINCETON", "addr:country": "US", "addr:full": "205 RUM RIVER DR N", "addr:postcode": "55371", "addr:state": "MN", "amenity": "post_box", "brand": "United States Postal Service", "brand:wikidata": "Q668687", "collection_times": "Mo-Fr 16:45; Sa 15:45", "name": "USPS COLLECTION BOX - PO LOBBY", "note": "ON 12/24 AND 12/31, THIS BOX MAY BE COLLECTED AS EARLY AS 12 NOON.", "nsi_id": "unitedstatespostalservice-a77078", "operator": "United States Postal Service", "operator:short": "USPS", "operator:type": "public", "operator:wikidata": "Q668687", "ref": "5537100017"}, "type": "Feature"}
{"geometry": {"coordinates": [-93.580141696, 45.571562864], "type": "Point"}, "id": "JPZzZwL7h-f9s3oJ8pC7AHFxnio=", "properties": {"@spider": "usps_collection_boxes", "addr:city": "PRINCETON", "addr:country": "US", "addr:full": "205 RUM RIVER DR N", "addr:postcode": "55371", "addr:state": "MN", "amenity": "post_box", "brand": "United States Postal Service", "brand:wikidata": "Q668687", "collection_times": "Mo-Fr 16:45; Sa 12:00", "name": "USPS COLLECTION BOX - PO LOBBY", "note": "ON 12/24 AND 12/31, THIS BOX MAY BE COLLECTED AS EARLY AS 12 NOON.", "nsi_id": "unitedstatespostalservice-a77078", "operator": "United States Postal Service", "operator:short": "USPS", "operator:type": "public", "operator:wikidata": "Q668687", "ref": "5537100019"}, "type": "Feature"}
{"geometry": {"coordinates": [-93.580580015, 45.57158002], "type": "Point"}, "id": "Rx9x0PG9QOrJ7kVIFHVmsAxyUkA=", "properties": {"@spider": "usps_collection_boxes", "addr:city": "PRINCETON", "addr:country": "US", "addr:full": "205 RUM RIVER DR N", "addr:postcode": "55371", "addr:state": "MN", "amenity": "post_box", "brand": "United States Postal Service", "brand:wikidata": "Q668687", "collection_times": "Mo-Fr 17:00; Sa 15:45", "name": "USPS COLLECTION BOX - BLUE BOX", "note": "ON 12/24 AND 12/31, THIS BOX MAY BE COLLECTED AS EARLY AS 12 NOON.", "nsi_id": "unitedstatespostalservice-a77078", "operator": "United States Postal Service", "operator:short": "USPS", "operator:type": "public", "operator:wikidata": "Q668687", "ref": "5537100020"}, "type": "Feature"}
{"geometry": {"coordinates": [-93.735264558, 45.087759], "type": "Point"}, "id": "08CAR7N8SdIiLlq1afigUkvHWNA=", "properties": {"@spider": "usps_collection_boxes", "addr:city": "ROCKFORD", "addr:country": "US", "addr:full": "5999 MAIN ST", "addr:postcode": "55373", "addr:state": "MN", "amenity": "post_box", "brand": "United States Postal Service", "brand:wikidata": "Q668687", "collection_times": "Mo-Sa 10:00", "name": "USPS COLLECTION BOX - BLUE BOX", "nsi_id": "unitedstatespostalservice-a77078", "operator": "United States Postal Service", "operator:short": "USPS", "operator:type": "public", "operator:wikidata": "Q668687", "ref": "5537300003"}, "type": "Feature"}
{"geometry": {"coordinates": [-93.745595209, 45.092932036], "type": "Point"}, "id": "mN-XSlj_kE5fDk3cOO_m9Wlk-68=", "properties": {"@spider": "usps_collection_boxes", "addr:city": "ROCKFORD", "addr:country": "US", "addr:full": "8950 WALNUT ST", "addr:postcode": "55373", "addr:state": "MN", "amenity": "post_box", "brand": "United States Postal Service", "brand:wikidata": "Q668687", "collection_times": "Mo-Fr 16:30; Sa 10:30", "name": "USPS COLLECTION BOX - BLUE BOX", "note": "ON 12/24 AND 12/31, THIS BOX MAY BE COLLECTED AS EARLY AS 12 NOON.", "nsi_id": "unitedstatespostalservice-a77078", "operator": "United States Postal Service", "operator:short": "USPS", "operator:type": "public", "operator:wikidata": "Q668687", "ref": "5537300004"}, "type": "Feature"}
{"geometry": {"coordinates": [-93.726212392, 45.080039012], "type": "Point"}, "id": "IS_Uv9oNBDKPD9I3pMLfsLU_UTE=", "properties": {"@spider": "usps_collection_boxes", "addr:city": "ROCKFORD", "addr:country": "US", "addr:full": "7955 HIGHWAY 55", "addr:postcode": "55373", "addr:state": "MN", "amenity": "post_box", "brand": "United States Postal Service", "brand:wikidata": "Q668687", "collection_times": "Mo-Sa 10:30", "name": "USPS COLLECTION BOX - BLUE BOX", "nsi_id": "unitedstatespostalservice-a77078", "operator": "United States Postal Service", "operator:short": "USPS", "operator:type": "public", "operator:wikidata": "Q668687", "ref": "5537300005"}, "type": "Feature"}
{"geometry": {"coordinates": [-93.745595209, 45.092932036], "type": "Point"}, "id": "UpOE2ltx97gyC73RzUFr_zx6ja0=", "properties": {"@spider": "usps_collection_boxes", "addr:city": "ROCKFORD", "addr:country": "US", "addr:full": "8950 WALNUT ST", "addr:postcode": "55373", "addr:state": "MN", "amenity": "post_box", "brand": "United States Postal Service", "brand:wikidata": "Q668687", "collection_times": "Mo-Fr 16:30; Sa 10:30", "name": "USPS COLLECTION BOX - PO LOBBY", "note": "ON 12/24 AND 12/31, THIS BOX MAY BE COLLECTED AS EARLY AS 12 NOON.", "nsi_id": "unitedstatespostalservice-a77078", "operator": "United States Postal Service", "operator:short": "USPS", "operator:type": "public", "operator:wikidata": "Q668687", "ref": "5537300009"}, "type": "Feature"}
{"geometry": {"coordinates": [-93.745595209, 45.092932036], "type": "Point"}, "id": "aJGoY2F_MEJzEC3Kre2yYpW05II=", "properties": {"@spider": "usps_collection_boxes", "addr:city": "ROCKFORD", "addr:country": "US", "addr:full": "8950 WALNUT ST", "addr:postcode": "55373", "addr:state": "MN", "amenity": "post_box", "brand": "United States Postal Service", "brand:wikidata": "Q668687", "collection_times": "Mo-Fr 16:30; Sa 10:30", "name": "USPS COLLECTION BOX - PO LOBBY", "note": "ON 12/24 AND 12/31, THIS BOX MAY BE COLLECTED AS EARLY AS 12 NOON.", "nsi_id": "unitedstatespostalservice-a77078", "operator": "United States Postal Service", "operator:short": "USPS", "operator:type": "public", "operator:wikidata": "Q668687", "ref": "5537300010"}, "type": "Feature"}
{"geometry": {"coordinates": [-93.745595209, 45.092932036], "type": "Point"}, "id": "YPuI1TNe95rqBhT4y3irV-32ptA=", "properties": {"@spider": "usps_collection_boxes", "addr:city": "ROCKFORD", "addr:country": "US", "addr:full": "8950 WALNUT ST", "addr:postcode": "55373", "addr:state": "MN", "amenity": "post_box", "brand": "United States Postal Service", "brand:wikidata": "Q668687", "collection_times": "Mo-Fr 16:30; Sa 10:30", "name": "USPS COLLECTION BOX - PO LOBBY", "note": "ON 12/24 AND 12/31, THIS BOX MAY BE COLLECTED AS EARLY AS 12 NOON.", "nsi_id": "unitedstatespostalservice-a77078", "operator": "United States Postal Service", "operator:short": "USPS", "operator:type": "public", "operator:wikidata": "Q668687", "ref": "5537300012"}, "type": "Feature"}
{"geometry": {"coordinates": [-93.550719014, 45.198000554], "type": "Point"}, "id": "L0wMHyZhr_qo7hVbTnAPEfeP_UE=", "properties": {"@spider": "usps_collection_boxes", "addr:city": "ROGERS", "addr:country": "US", "addr:full": "13400 ROGERS DR", "addr:postcode": "55374", "addr:state": "MN", "amenity": "post_box", "brand": "United States Postal Service", "brand:wikidata": "Q668687", "collection_times": "Mo-Fr 10:00", "name": "USPS COLLECTION BOX - BLUE BOX", "nsi_id": "unitedstatespostalservice-a77078", "operator": "United States Postal Service", "operator:short": "USPS", "operator:type": "public", "operator:wikidata": "Q668687", "ref": "5537400001"}, "type": "Feature"}
{"geometry": {"coordinates": [-93.547529752, 45.189819157], "type": "Point"}, "id": "odCDym5E7CCiMFjFlq0oybFs9cA=", "properties": {"@spider": "usps_collection_boxes", "addr:city": "ROGERS", "addr:country": "US", "addr:full": "21125 JOHN MILLESS DR", "addr:postcode": "55374", "addr:state": "MN", "amenity": "post_box", "brand": "United States Postal Service", "brand:wikidata": "Q668687", "collection_times": "Mo-Fr 16:30; Sa 12:00", "name": "USPS COLLECTION BOX - BLUE BOX", "note": "ON 12/24 AND 12/31, THIS BOX MAY BE COLLECTED AS EARLY AS 12 NOON.", "nsi_id": "unitedstatespostalservice-a77078", "operator": "United States Postal Service", "operator:short": "USPS", "operator:type": "public", "operator:wikidata": "Q668687", "ref": "5537400002"}, "type": "Feature"}
{"geometry": {"coordinates": [-93.547529752, 45.189819157], "type": "Point"}, "id": "ktBzEPpbLT1y0vhoDGbdicNPDWA=", "properties": {"@spider": "usps_collection_boxes", "addr:city": "ROGERS", "addr:country": "US", "addr:full": "21125 JOHN MILLESS DR", "addr:postcode": "55374", "addr:state": "MN", "amenity": "post_box", "brand": "United States Postal Service", "brand:wikidata": "Q668687", "collection_times": "Mo-Fr 16:30; Sa 12:00", "name": "USPS COLLECTION BOX - PO LOBBY", "note": "ON 12/24 AND 12/31, THIS BOX MAY BE COLLECTED AS EARLY AS 12 NOON.", "nsi_id": "unitedstatespostalservice-a77078", "operator": "United States Postal Service", "operator:short": "USPS", "operator:type": "public", "operator:wikidata": "Q668687", "ref": "5537400004"}, "type": "Feature"}
{"geometry": {"coordinates": [-93.547529752, 45.189819157], "type": "Point"}, "id": "N1ab5GF4DCfaS_-Hbbg3F7-H2L0=", "properties": {"@spider": "usps_collection_boxes", "addr:city": "ROGERS", "addr:country": "US", "addr:full": "21125 JOHN MILLESS DR", "addr:postcode": "55374", "addr:state": "MN", "amenity": "post_box", "brand": "United States Postal Service", "brand:wikidata": "Q668687", "collection_times": "Mo-Fr 16:30; Sa 12:00", "name": "USPS COLLECTION BOX - PO LOBBY", "note": "ON 12/24 AND 12/31, THIS BOX MAY BE COLLECTED AS EARLY AS 12 NOON.", "nsi_id": "unitedstatespostalservice-a77078", "operator": "United States Postal Service", "operator:short": "USPS", "operator:type": "public", "operator:wikidata": "Q668687", "ref": "5537400005"}, "type": "Feature"}
{"geometry": {"coordinates": [-93.547529752, 45.189819157], "type": "Point"}, "id": "0jOSg_LT-BPJ7bvSaD3FiE_dLXU=", "properties": {"@spider": "usps_collection_boxes", "addr:city": "ROGERS", "addr:country": "US", "addr:full": "21125 JOHN MILLESS DR", "addr:postcode": "55374", "addr:state": "MN", "amenity": "post_box", "brand": "United States Postal Service", "brand:wikidata": "Q668687", "collection_times": "Mo-Fr 16:30; Sa 12:00", "name": "USPS COLLECTION BOX - PO LOBBY", "note": "ON 12/24 AND 12/31, THIS BOX MAY BE COLLECTED AS EARLY AS 12 NOON.", "nsi_id": "unitedstatespostalservice-a77078", "operator": "United States Postal Service", "operator:short": "USPS", "operator:type": "public", "operator:wikidata": "Q668687", "ref": "5537400010"}, "type": "Feature"}
{"geometry": {"coordinates": [-93.749288158, 44.902569782], "type": "Point"}, "id": "uvM_nUy3oumxd87UvIr-0IyZbTI=", "properties": {"@spider": "usps_collection_boxes", "addr:city": "ST BONIFACIUS", "addr:country": "US", "addr:full": "4085 TOWER ST", "addr:postcode": "55375", "addr:state": "MN", "amenity": "post_box", "brand": "United States Postal Service", "brand:wikidata": "Q668687", "collection_times": "Mo-Fr 16:15; Sa 10:00", "name": "USPS COLLECTION BOX - BLUE BOX", "note": "ON 12/24 AND 12/31, THIS BOX MAY BE COLLECTED AS EARLY AS 12 NOON.", "nsi_id": "unitedstatespostalservice-a77078", "operator": "United States Postal Service", "operator:short": "USPS", "operator:type": "public", "operator:wikidata": "Q668687", "ref": "5537500001"}, "type": "Feature"}
{"geometry": {"coordinates": [-93.749288158, 44.902569782], "type": "Point"}, "id": "KwX8C3Ezls_2Nc8bVZClJXJbQBw=", "properties": {"@spider": "usps_collection_boxes", "addr:city": "ST BONIFACIUS", "addr:country": "US", "addr:full": "4085 TOWER ST", "addr:postcode": "55375", "addr:state": "MN", "amenity": "post_box", "brand": "United States Postal Service", "brand:wikidata": "Q668687", "collection_times": "Mo-Fr 16:15; Sa 10:00", "name": "USPS COLLECTION BOX - PO LOBBY", "note": "ON 12/24 AND 12/31, THIS BOX MAY BE COLLECTED AS EARLY AS 12 NOON.", "nsi_id": "unitedstatespostalservice-a77078", "operator": "United States Postal Service", "operator:short": "USPS", "operator:type": "public", "operator:wikidata": "Q668687", "ref": "5537500002"}, "type": "Feature"}
{"geometry": {"coordinates": [-93.749288158, 44.902569782], "type": "Point"}, "id": "bU7tFjNT3bc_zA0mYkCRwNmTGuY=", "properties": {"@spider": "usps_collection_boxes", "addr:city": "ST BONIFACIUS", "addr:country": "US", "addr:full": "4085 TOWER ST", "addr:postcode": "55375", "addr:state": "MN", "amenity": "post_box", "brand": "United States Postal Service", "brand:wikidata": "Q668687", "collection_times": "Mo-Fr 16:15; Sa 10:00", "name": "USPS COLLECTION BOX - BLUE BOX", "note": "ON 12/24 AND 12/31, THIS BOX MAY BE COLLECTED AS EARLY AS 12 NOON.", "nsi_id": "unitedstatespostalservice-a77078", "operator": "United States Postal Service", "operator:short": "USPS", "operator:type": "public", "operator:wikidata": "Q668687", "ref": "5537500003"}, "type": "Feature"}
{"geometry": {"coordinates": [-93.749288158, 44.902569782], "type": "Point"}, "id": "k6lBFouduwNZ6RJkfSkrd9kUsuc=", "properties": {"@spider": "usps_collection_boxes", "addr:city": "ST BONIFACIUS", "addr:country": "US", "addr:full": "4085 TOWER ST", "addr:postcode": "55375", "addr:state": "MN", "amenity": "post_box", "brand": "United States Postal Service", "brand:wikidata": "Q668687", "collection_times": "Mo-Fr 16:00; Sa 10:00", "name": "USPS COLLECTION BOX - PO LOBBY", "note": "ON 12/24 AND 12/31, THIS BOX MAY BE COLLECTED AS EARLY AS 12 NOON.", "nsi_id": "unitedstatespostalservice-a77078", "operator": "United States Postal Service", "operator:short": "USPS", "operator:type": "public", "operator:wikidata": "Q668687", "ref": "5537500004"}, "type": "Feature"}
{"geometry": {"coordinates": [-93.655363966, 45.209896517], "type": "Point"}, "id": "F8wwACGxuC8FwJYMnH2317ZSdjQ=", "properties": {"@spider": "usps_collection_boxes", "addr:city": "SAINT MICHAEL", "addr:country": "US", "addr:full": "405 CENTRAL AVE E", "addr:postcode": "55376", "addr:state": "MN", "amenity": "post_box", "brand": "United States Postal Service", "brand:wikidata": "Q668687", "collection_times": "Mo-Fr 16:30; Sa 11:30", "name": "USPS COLLECTION BOX - BLUE BOX", "note": "ON 12/24 AND 12/31, THIS BOX MAY BE COLLECTED AS EARLY AS 12 NOON.", "nsi_id": "unitedstatespostalservice-a77078", "operator": "United States Postal Service", "operator:short": "USPS", "operator:type": "public", "operator:wikidata": "Q668687", "ref": "5537600002"}, "type": "Feature"}
{"geometry": {"coordinates": [-93.655363966, 45.209896517], "type": "Point"}, "id": "KJnxLXTxdSCiWqwkLiFf64IoDqQ=", "properties": {"@spider": "usps_collection_boxes", "addr:city": "SAINT MICHAEL", "addr:country": "US", "addr:full": "405 CENTRAL AVE E", "addr:postcode": "55376", "addr:state": "MN", "amenity": "post_box", "brand": "United States Postal Service", "brand:wikidata": "Q668687", "collection_times": "Mo-Fr 16:30; Sa 11:30", "name": "USPS COLLECTION BOX - PO LOBBY", "note": "ON 12/24 AND 12/31, THIS BOX MAY BE COLLECTED AS EARLY AS 12 NOON.", "nsi_id": "unitedstatespostalservice-a77078", "operator": "United States Postal Service", "operator:short": "USPS", "operator:type": "public", "operator:wikidata": "Q668687", "ref": "5537600004"}, "type": "Feature"}
{"geometry": {"coordinates": [-93.655363966, 45.209896517], "type": "Point"}, "id": "LPiTD6m4Lib9kOkClmlLRkfIkb8=", "properties": {"@spider": "usps_collection_boxes", "addr:city": "SAINT MICHAEL", "addr:country": "US", "addr:full": "405 CENTRAL AVE E", "addr:postcode": "55376", "addr:state": "MN", "amenity": "post_box", "brand": "United States Postal Service", "brand:wikidata": "Q668687", "collection_times": "Mo-Fr 16:30; Sa 11:30", "name": "USPS COLLECTION BOX - BLUE BOX", "note": "ON 12/24 AND 12/31, THIS BOX MAY BE COLLECTED AS EARLY AS 12 NOON.", "nsi_id": "unitedstatespostalservice-a77078", "operator": "United States Postal Service", "operator:short": "USPS", "operator:type": "public", "operator:wikidata": "Q668687", "ref": "5537600005"}, "type": "Feature"}
{"geometry": {"coordinates": [-93.655363966, 45.209896517], "type": "Point"}, "id": "cUw6Vrf8AL13znBvJfLMKglTixQ=", "properties": {"@spider": "usps_collection_boxes", "addr:city": "SAINT MICHAEL", "addr:country": "US", "addr:full": "405 CENTRAL AVE E", "addr:postcode": "55376", "addr:state": "MN", "amenity": "post_box", "brand": "United States Postal Service", "brand:wikidata": "Q668687", "collection_times": "Mo-Fr 16:30; Sa 11:30", "name": "USPS COLLECTION BOX - PO LOBBY", "note": "ON 12/24 AND 12/31, THIS BOX MAY BE COLLECTED AS EARLY AS 12 NOON.", "nsi_id": "unitedstatespostalservice-a77078", "operator": "United States Postal Service", "operator:short": "USPS", "operator:type": "public", "operator:wikidata": "Q668687", "ref": "5537600008"}, "type": "Feature"}
{"geometry": {"coordinates": [-94.196421388, 44.903167473], "type": "Point"}, "id": "i-o19Prls_h1BBB32dpG9sGT5OU=", "properties": {"@spider": "usps_collection_boxes", "addr:city": "SILVER LAKE", "addr:country": "US", "addr:full": "113 MAIN ST W", "addr:postcode": "55381", "addr:state": "MN", "amenity": "post_box", "brand": "United States Postal Service", "brand:wikidata": "Q668687", "collection_times": "Mo-Fr 16:15; Sa 10:00", "name": "USPS COLLECTION BOX - BLUE BOX", "note": "ON 12/24 AND 12/31, THIS BOX MAY BE COLLECTED AS EARLY AS 12 NOON.", "nsi_id": "unitedstatespostalservice-a77078", "operator": "United States Postal Service", "operator:short": "USPS", "operator:type": "public", "operator:wikidata": "Q668687", "ref": "5538100001"}, "type": "Feature"}
{"geometry": {"coordinates": [-94.196421388, 44.903167473], "type": "Point"}, "id": "1ru10P1Xiv5HM9wF-V58fx7-Urk=", "properties": {"@spider": "usps_collection_boxes", "addr:city": "SILVER LAKE", "addr:country": "US", "addr:full": "113 MAIN ST W", "addr:postcode": "55381", "addr:state": "MN", "amenity": "post_box", "brand": "United States Postal Service", "brand:wikidata": "Q668687", "collection_times": "Mo-Fr 16:30; Sa 10:00", "name": "USPS COLLECTION BOX - PO LOBBY", "note": "ON 12/24 AND 12/31, THIS BOX MAY BE COLLECTED AS EARLY AS 12 NOON.", "nsi_id": "unitedstatespostalservice-a77078", "operator": "United States Postal Service", "operator:short": "USPS", "operator:type": "public", "operator:wikidata": "Q668687", "ref": "5538100002"}, "type": "Feature"}
{"geometry": {"coordinates": [-94.204795719, 44.906024585], "type": "Point"}, "id": "ghmnw_h5uPRMV818KD_GV8zH9zU=", "properties": {"@spider": "usps_collection_boxes", "addr:city": "SILVER LAKE", "addr:country": "US", "addr:full": "916 HIGHWAY 7", "addr:postcode": "55381", "addr:state": "MN", "amenity": "post_box", "brand": "United States Postal Service", "brand:wikidata": "Q668687", "collection_times": "Mo-Sa 10:15", "name": "USPS COLLECTION BOX - BLUE BOX", "nsi_id": "unitedstatespostalservice-a77078", "operator": "United States Postal Service", "operator:short": "USPS", "operator:type": "public", "operator:wikidata": "Q668687", "ref": "5538100003"}, "type": "Feature"}
{"geometry": {"coordinates": [-94.196421388, 44.903167473], "type": "Point"}, "id": "JxRNjjrKJiK-g-vfXlDLZTw6jHs=", "properties": {"@spider": "usps_collection_boxes", "addr:city": "SILVER LAKE", "addr:country": "US", "addr:full": "113 MAIN ST W", "addr:postcode": "55381", "addr:state": "MN", "amenity": "post_box", "brand": "United States Postal Service", "brand:wikidata": "Q668687", "collection_times": "Mo-Fr 16:30; Sa 09:30", "name": "USPS COLLECTION BOX - PO LOBBY", "note": "ON 12/24 AND 12/31, THIS BOX MAY BE COLLECTED AS EARLY AS 12 NOON.", "nsi_id": "unitedstatespostalservice-a77078", "operator": "United States Postal Service", "operator:short": "USPS", "operator:type": "public", "operator:wikidata": "Q668687", "ref": "5538100005"}, "type": "Feature"}
{"geometry": {"coordinates": [-94.214878184, 45.292900433], "type": "Point"}, "id": "etUeulQfUniQcXQx32omfrJixsc=", "properties": {"@spider": "usps_collection_boxes", "addr:city": "SOUTH HAVEN", "addr:country": "US", "addr:full": "524 OAK AVE N", "addr:postcode": "55382", "addr:state": "MN", "amenity": "post_box", "brand": "United States Postal Service", "brand:wikidata": "Q668687", "collection_times": "Mo-Fr 15:45; Sa 10:00", "name": "USPS COLLECTION BOX - PO LOBBY", "note": "ON 12/24 AND 12/31, THIS BOX MAY BE COLLECTED AS EARLY AS 12 NOON.", "nsi_id": "unitedstatespostalservice-a77078", "operator": "United States Postal Service", "operator:short": "USPS", "operator:type": "public", "operator:wikidata": "Q668687", "ref": "5538200003"}, "type": "Feature"}
{"geometry": {"coordinates": [-94.2148781844, 45.2929004331], "type": "Point"}, "id": "tTU-3SA2Qr8Hgxiwmbrwo0_Upoo=", "properties": {"@spider": "usps_collection_boxes", "addr:city": "SOUTH HAVEN", "addr:country": "US", "addr:full": "524 OAK AVE N", "addr:postcode": "55382", "addr:state": "MN", "amenity": "post_box", "brand": "United States Postal Service", "brand:wikidata": "Q668687", "collection_times": "Mo-Fr 15:45; Sa 10:00", "name": "USPS COLLECTION BOX - PO LOBBY", "note": "ON 12/24 AND 12/31, THIS BOX MAY BE COLLECTED AS EARLY AS 12 NOON.", "nsi_id": "unitedstatespostalservice-a77078", "operator": "United States Postal Service", "operator:short": "USPS", "operator:type": "public", "operator:wikidata": "Q668687", "ref": "5538200004"}, "type": "Feature"}
{"geometry": {"coordinates": [-93.624582634, 44.937197129], "type": "Point"}, "id": "RuctoP8vdLixTuh30_I888drnWU=", "properties": {"@spider": "usps_collection_boxes", "addr:city": "SPRING PARK", "addr:country": "US", "addr:full": "4044 SUNSET DR", "addr:postcode": "55384", "addr:state": "MN", "amenity": "post_box", "brand": "United States Postal Service", "brand:wikidata": "Q668687", "collection_times": "Mo-Fr 16:30; Sa 10:00", "name": "USPS COLLECTION BOX - BLUE BOX", "note": "ON 12/24 AND 12/31, THIS BOX MAY BE COLLECTED AS EARLY AS 12 NOON.", "nsi_id": "unitedstatespostalservice-a77078", "operator": "United States Postal Service", "operator:short": "USPS", "operator:type": "public", "operator:wikidata": "Q668687", "ref": "5538400002"}, "type": "Feature"}
{"geometry": {"coordinates": [-93.624582634, 44.937197129], "type": "Point"}, "id": "X54194CR19bLs2ickHiz686v6KQ=", "properties": {"@spider": "usps_collection_boxes", "addr:city": "SPRING PARK", "addr:country": "US", "addr:full": "4044 SUNSET DR", "addr:postcode": "55384", "addr:state": "MN", "amenity": "post_box", "brand": "United States Postal Service", "brand:wikidata": "Q668687", "collection_times": "Mo-Fr 16:30; Sa 10:00", "name": "USPS COLLECTION BOX - PO LOBBY", "note": "ON 12/24 AND 12/31, THIS BOX MAY BE COLLECTED AS EARLY AS 12 NOON.", "nsi_id": "unitedstatespostalservice-a77078", "operator": "United States Postal Service", "operator:short": "USPS", "operator:type": "public", "operator:wikidata": "Q668687", "ref": "5538400004"}, "type": "Feature"}
{"geometry": {"coordinates": [-93.624582634, 44.937197129], "type": "Point"}, "id": "mEREoXZmBl9xP70er7cWJR4P7IM=", "properties": {"@spider": "usps_collection_boxes", "addr:city": "SPRING PARK", "addr:country": "US", "addr:full": "4044 SUNSET DR", "addr:postcode": "55384", "addr:state": "MN", "amenity": "post_box", "brand": "United States Postal Service", "brand:wikidata": "Q668687", "collection_times": "Mo-Fr 16:30; Sa 09:30", "name": "USPS COLLECTION BOX - PO LOBBY", "note": "ON 12/24 AND 12/31, THIS BOX MAY BE COLLECTED AS EARLY AS 12 NOON.", "nsi_id": "unitedstatespostalservice-a77078", "operator": "United States Postal Service", "operator:short": "USPS", "operator:type": "public", "operator:wikidata": "Q668687", "ref": "5538400005"}, "type": "Feature"}
{"geometry": {"coordinates": [-94.485900861, 44.723541457], "type": "Point"}, "id": "39eUMGtAOht1Bfx09LdBNP7yHkc=", "properties": {"@spider": "usps_collection_boxes", "addr:city": "STEWART", "addr:country": "US", "addr:full": "707 HALL ST", "addr:postcode": "55385", "addr:state": "MN", "amenity": "post_box", "brand": "United States Postal Service", "brand:wikidata": "Q668687", "collection_times": "Mo-Fr 15:00; Sa 09:45", "name": "USPS COLLECTION BOX - BLUE BOX", "note": "ON 12/24 AND 12/31, THIS BOX MAY BE COLLECTED AS EARLY AS 12 NOON.", "nsi_id": "unitedstatespostalservice-a77078", "operator": "United States Postal Service", "operator:short": "USPS", "operator:type": "public", "operator:wikidata": "Q668687", "ref": "5538500002"}, "type": "Feature"}
{"geometry": {"coordinates": [-94.485900861, 44.723541457], "type": "Point"}, "id": "EMXoRznCbdYZwQdIURqMn63TuQY=", "properties": {"@spider": "usps_collection_boxes", "addr:city": "STEWART", "addr:country": "US", "addr:full": "707 HALL ST", "addr:postcode": "55385", "addr:state": "MN", "amenity": "post_box", "brand": "United States Postal Service", "brand:wikidata": "Q668687", "collection_times": "Mo-Fr 15:00; Sa 09:45", "name": "USPS COLLECTION BOX - PO LOBBY", "note": "ON 12/24 AND 12/31, THIS BOX MAY BE COLLECTED AS EARLY AS 12 NOON.", "nsi_id": "unitedstatespostalservice-a77078", "operator": "United States Postal Service", "operator:short": "USPS", "operator:type": "public", "operator:wikidata": "Q668687", "ref": "5538500003"}, "type": "Feature"}
{"geometry": {"coordinates": [-94.4859008608, 44.7235414566], "type": "Point"}, "id": "4o1z0rgf-DQ6C0kGKniEOshlS6I=", "properties": {"@spider": "usps_collection_boxes", "addr:city": "STEWART", "addr:country": "US", "addr:full": "707 HALL ST", "addr:postcode": "55385", "addr:state": "MN", "amenity": "post_box", "brand": "United States Postal Service", "brand:wikidata": "Q668687", "collection_times": "Mo-Fr 15:00; Sa 10:00", "name": "USPS COLLECTION BOX - PO LOBBY", "note": "ON 12/24 AND 12/31, THIS BOX MAY BE COLLECTED AS EARLY AS 12 NOON.", "nsi_id": "unitedstatespostalservice-a77078", "operator": "United States Postal Service", "operator:short": "USPS", "operator:type": "public", "operator:wikidata": "Q668687", "ref": "5538500004"}, "type": "Feature"}
{"geometry": {"coordinates": [-93.786121726, 44.847926528], "type": "Point"}, "id": "M8Fkvdkz2VF3YKRQIhQkLPg20I0=", "properties": {"@spider": "usps_collection_boxes", "addr:city": "WACONIA", "addr:country": "US", "addr:full": "208 S ELM ST", "addr:postcode": "55387", "addr:state": "MN", "amenity": "post_box", "brand": "United States Postal Service", "brand:wikidata": "Q668687", "collection_times": "Mo-Fr 16:45; Sa 11:45", "name": "USPS COLLECTION BOX - BLUE BOX", "note": "ON 12/24 AND 12/31, THIS BOX MAY BE COLLECTED AS EARLY AS 12 NOON.", "nsi_id": "unitedstatespostalservice-a77078", "operator": "United States Postal Service", "operator:short": "USPS", "operator:type": "public", "operator:wikidata": "Q668687", "ref": "5538700005"}, "type": "Feature"}
{"geometry": {"coordinates": [-93.786121726, 44.847926528], "type": "Point"}, "id": "ZL0-J9rOZNmGlhwJXXBuiIPux6s=", "properties": {"@spider": "usps_collection_boxes", "addr:city": "WACONIA", "addr:country": "US", "addr:full": "208 S ELM ST", "addr:postcode": "55387", "addr:state": "MN", "amenity": "post_box", "brand": "United States Postal Service", "brand:wikidata": "Q668687", "collection_times": "Mo-Fr 16:45; Sa 12:00", "name": "USPS COLLECTION BOX - PO LOBBY", "note": "ON 12/24 AND 12/31, THIS BOX MAY BE COLLECTED AS EARLY AS 12 NOON.", "nsi_id": "unitedstatespostalservice-a77078", "operator": "United States Postal Service", "operator:short": "USPS", "operator:type": "public", "operator:wikidata": "Q668687", "ref": "5538700007"}, "type": "Feature"}
{"geometry": {"coordinates": [-93.800808017, 44.836786889], "type": "Point"}, "id": "57wqPFOHEHily6W8G2isg9wfP2U=", "properties": {"@spider": "usps_collection_boxes", "addr:city": "WACONIA", "addr:country": "US", "addr:full": "851 MARKETPLACE DR", "addr:postcode": "55387", "addr:state": "MN", "amenity": "post_box", "brand": "United States Postal Service", "brand:wikidata": "Q668687", "collection_times": "Mo-Fr 12:00; Sa 10:00", "name": "USPS COLLECTION BOX - BLUE BOX", "nsi_id": "unitedstatespostalservice-a77078", "operator": "United States Postal Service", "operator:short": "USPS", "operator:type": "public", "operator:wikidata": "Q668687", "ref": "5538700008"}, "type": "Feature"}
{"geometry": {"coordinates": [-93.786121726, 44.847926528], "type": "Point"}, "id": "9q3c4HJlVExR3Hqc4_6kMT280Wc=", "properties": {"@spider": "usps_collection_boxes", "addr:city": "WACONIA", "addr:country": "US", "addr:full": "208 S ELM ST", "addr:postcode": "55387", "addr:state": "MN", "amenity": "post_box", "brand": "United States Postal Service", "brand:wikidata": "Q668687", "collection_times": "Mo-Fr 16:45; Sa 10:30", "name": "USPS COLLECTION BOX - PO LOBBY", "note": "ON 12/24 AND 12/31, THIS BOX MAY BE COLLECTED AS EARLY AS 12 NOON.", "nsi_id": "unitedstatespostalservice-a77078", "operator": "United States Postal Service", "operator:short": "USPS", "operator:type": "public", "operator:wikidata": "Q668687", "ref": "5538700011"}, "type": "Feature"}
{"geometry": {"coordinates": [-93.849727523, 44.960635352], "type": "Point"}, "id": "4AsfktfZzpTG6PM8mKQZ7p7ujLo=", "properties": {"@spider": "usps_collection_boxes", "addr:city": "WATERTOWN", "addr:country": "US", "addr:full": "402 LEWIS AVE S", "addr:postcode": "55388", "addr:state": "MN", "amenity": "post_box", "brand": "United States Postal Service", "brand:wikidata": "Q668687", "collection_times": "Mo-Fr 16:15; Sa 10:30", "name": "USPS COLLECTION BOX - BLUE BOX", "note": "ON 12/24 AND 12/31, THIS BOX MAY BE COLLECTED AS EARLY AS 12 NOON.", "nsi_id": "unitedstatespostalservice-a77078", "operator": "United States Postal Service", "operator:short": "USPS", "operator:type": "public", "operator:wikidata": "Q668687", "ref": "5538800001"}, "type": "Feature"}
{"geometry": {"coordinates": [-93.849727523, 44.960635352], "type": "Point"}, "id": "DRAUtc6Rg23CK11akJUzQBs5UAY=", "properties": {"@spider": "usps_collection_boxes", "addr:city": "WATERTOWN", "addr:country": "US", "addr:full": "402 LEWIS AVE S", "addr:postcode": "55388", "addr:state": "MN", "amenity": "post_box", "brand": "United States Postal Service", "brand:wikidata": "Q668687", "collection_times": "Mo-Fr 16:30; Sa 10:30", "name": "USPS COLLECTION BOX - PO LOBBY", "note": "ON 12/24 AND 12/31, THIS BOX MAY BE COLLECTED AS EARLY AS 12 NOON.", "nsi_id": "unitedstatespostalservice-a77078", "operator": "United States Postal Service", "operator:short": "USPS", "operator:type": "public", "operator:wikidata": "Q668687", "ref": "5538800004"}, "type": "Feature"}
{"geometry": {"coordinates": [-93.849727523, 44.960635352], "type": "Point"}, "id": "E6M92uvjzAPQcdnFaSeE1FlryDw=", "properties": {"@spider": "usps_collection_boxes", "addr:city": "WATERTOWN", "addr:country": "US", "addr:full": "402 LEWIS AVE S", "addr:postcode": "55388", "addr:state": "MN", "amenity": "post_box", "brand": "United States Postal Service", "brand:wikidata": "Q668687", "collection_times": "Mo-Fr 16:30; Sa 11:00", "name": "USPS COLLECTION BOX - PO LOBBY", "note": "ON 12/24 AND 12/31, THIS BOX MAY BE COLLECTED AS EARLY AS 12 NOON.", "nsi_id": "unitedstatespostalservice-a77078", "operator": "United States Postal Service", "operator:short": "USPS", "operator:type": "public", "operator:wikidata": "Q668687", "ref": "5538800006"}, "type": "Feature"}
{"geometry": {"coordinates": [-94.407366869, 45.3178299], "type": "Point"}, "id": "AVxfJqFfkymsY97VDQhCPGuXdlg=", "properties": {"@spider": "usps_collection_boxes", "addr:city": "WATKINS", "addr:country": "US", "addr:full": "161 CEDAR AVE N", "addr:postcode": "55389", "addr:state": "MN", "amenity": "post_box", "brand": "United States Postal Service", "brand:wikidata": "Q668687", "collection_times": "Mo-Fr 15:15; Sa 10:00", "name": "USPS COLLECTION BOX - BLUE BOX", "note": "ON 12/24 AND 12/31, THIS BOX MAY BE COLLECTED AS EARLY AS 12 NOON.", "nsi_id": "unitedstatespostalservice-a77078", "operator": "United States Postal Service", "operator:short": "USPS", "operator:type": "public", "operator:wikidata": "Q668687", "ref": "5538900001"}, "type": "Feature"}
{"geometry": {"coordinates": [-94.407366869, 45.3178299], "type": "Point"}, "id": "GMRxU1Db7MPNRRMOjm1Vtkmn8bk=", "properties": {"@spider": "usps_collection_boxes", "addr:city": "WATKINS", "addr:country": "US", "addr:full": "161 CEDAR AVE N", "addr:postcode": "55389", "addr:state": "MN", "amenity": "post_box", "brand": "United States Postal Service", "brand:wikidata": "Q668687", "collection_times": "Mo-Fr 15:15; Sa 10:00", "name": "USPS COLLECTION BOX - PO LOBBY", "note": "ON 12/24 AND 12/31, THIS BOX MAY BE COLLECTED AS EARLY AS 12 NOON.", "nsi_id": "unitedstatespostalservice-a77078", "operator": "United States Postal Service", "operator:short": "USPS", "operator:type": "public", "operator:wikidata": "Q668687", "ref": "5538900002"}, "type": "Feature"}
{"geometry": {"coordinates": [-94.4073668688, 45.3178299], "type": "Point"}, "id": "FhUegvklLncho8rA3iYXMC5ie_Q=", "properties": {"@spider": "usps_collection_boxes", "addr:city": "WATKINS", "addr:country": "US", "addr:full": "161 CEDAR AVE N", "addr:postcode": "55389", "addr:state": "MN", "amenity": "post_box", "brand": "United States Postal Service", "brand:wikidata": "Q668687", "collection_times": "Mo-Fr 15:15; Sa 10:00", "name": "USPS COLLECTION BOX - PO LOBBY", "note": "ON 12/24 AND 12/31, THIS BOX MAY BE COLLECTED AS EARLY AS 12 NOON.", "nsi_id": "unitedstatespostalservice-a77078", "operator": "United States Postal Service", "operator:short": "USPS", "operator:type": "public", "operator:wikidata": "Q668687", "ref": "5538900003"}, "type": "Feature"}
{"geometry": {"coordinates": [-93.968384672, 45.067109627], "type": "Point"}, "id": "63A75pANpZKDUhDMUzmrmNlBXo4=", "properties": {"@spider": "usps_collection_boxes", "addr:city": "WAVERLY", "addr:country": "US", "addr:full": "304 5TH ST N", "addr:postcode": "55390", "addr:state": "MN", "amenity": "post_box", "brand": "United States Postal Service", "brand:wikidata": "Q668687", "collection_times": "Mo-Fr 16:00; Sa 10:00", "name": "USPS COLLECTION BOX - BLUE BOX", "note": "ON 12/24 AND 12/31, THIS BOX MAY BE COLLECTED AS EARLY AS 12 NOON.", "nsi_id": "unitedstatespostalservice-a77078", "operator": "United States Postal Service", "operator:short": "USPS", "operator:type": "public", "operator:wikidata": "Q668687", "ref": "5539000001"}, "type": "Feature"}
{"geometry": {"coordinates": [-93.968384672, 45.067109627], "type": "Point"}, "id": "DIF2Uae8Yeot44-8MK0yRzWOt8E=", "properties": {"@spider": "usps_collection_boxes", "addr:city": "WAVERLY", "addr:country": "US", "addr:full": "304 5TH ST N", "addr:postcode": "55390", "addr:state": "MN", "amenity": "post_box", "brand": "United States Postal Service", "brand:wikidata": "Q668687", "collection_times": "Mo-Fr 16:00; Sa 10:00", "name": "USPS COLLECTION BOX - PO LOBBY", "note": "ON 12/24 AND 12/31, THIS BOX MAY BE COLLECTED AS EARLY AS 12 NOON.", "nsi_id": "unitedstatespostalservice-a77078", "operator": "United States Postal Service", "operator:short": "USPS", "operator:type": "public", "operator:wikidata": "Q668687", "ref": "5539000002"}, "type": "Feature"}
{"geometry": {"coordinates": [-93.968384672, 45.067109627], "type": "Point"}, "id": "JJCIc49zDn4kUcFkiE683cr7DlM=", "properties": {"@spider": "usps_collection_boxes", "addr:city": "WAVERLY", "addr:country": "US", "addr:full": "304 5TH ST N", "addr:postcode": "55390", "addr:state": "MN", "amenity": "post_box", "brand": "United States Postal Service", "brand:wikidata": "Q668687", "collection_times": "Mo-Fr 16:15; Sa 10:00", "name": "USPS COLLECTION BOX - PO LOBBY", "note": "ON 12/24 AND 12/31, THIS BOX MAY BE COLLECTED AS EARLY AS 12 NOON.", "nsi_id": "unitedstatespostalservice-a77078", "operator": "United States Postal Service", "operator:short": "USPS", "operator:type": "public", "operator:wikidata": "Q668687", "ref": "5539000003"}, "type": "Feature"}
{"geometry": {"coordinates": [-93.610183165, 44.934594499], "type": "Point"}, "id": "EYtqn8jD4xycDq3zkU9xAvdSfCo=", "properties": {"@spider": "usps_collection_boxes", "addr:city": "WAYZATA", "addr:country": "US", "addr:full": "3423 SHORELINE DR", "addr:postcode": "55391", "addr:state": "MN", "amenity": "post_box", "brand": "United States Postal Service", "brand:wikidata": "Q668687", "collection_times": "Mo-Fr 11:00", "name": "USPS COLLECTION BOX - BLUE BOX", "nsi_id": "unitedstatespostalservice-a77078", "operator": "United States Postal Service", "operator:short": "USPS", "operator:type": "public", "operator:wikidata": "Q668687", "ref": "5539100034"}, "type": "Feature"}
{"geometry": {"coordinates": [-93.597922304, 44.940792576], "type": "Point"}, "id": "EhdhPpXU9vtjhIn71aF24fV8iSI=", "properties": {"@spider": "usps_collection_boxes", "addr:city": "WAYZATA", "addr:country": "US", "addr:full": "2945 WESTWOOD RD S", "addr:postcode": "55391", "addr:state": "MN", "amenity": "post_box", "brand": "United States Postal Service", "brand:wikidata": "Q668687", "collection_times": "Mo-Fr 12:00", "name": "USPS COLLECTION BOX - BLUE BOX", "nsi_id": "unitedstatespostalservice-a77078", "operator": "United States Postal Service", "operator:short": "USPS", "operator:type": "public", "operator:wikidata": "Q668687", "ref": "5539100036"}, "type": "Feature"}
{"geometry": {"coordinates": [-93.5178780153, 44.969573], "type": "Point"}, "id": "50YpZTvVa01SSuQQbAbrmaNipXU=", "properties": {"@spider": "usps_collection_boxes", "addr:city": "WAYZATA", "addr:country": "US", "addr:full": "294 GROVE LN", "addr:postcode": "55391", "addr:state": "MN", "amenity": "post_box", "brand": "United States Postal Service", "brand:wikidata": "Q668687", "collection_times": "Mo-Fr 16:00", "name": "USPS COLLECTION BOX - BLUE BOX", "note": "ON 12/24 AND 12/31, THIS BOX MAY BE COLLECTED AS EARLY AS 12 NOON.", "nsi_id": "unitedstatespostalservice-a77078", "operator": "United States Postal Service", "operator:short": "USPS", "operator:type": "public", "operator:wikidata": "Q668687", "ref": "5539100038"}, "type": "Feature"}
{"geometry": {"coordinates": [-94.047340332, 44.964096477], "type": "Point"}, "id": "BunSMt-dPVS90qX_sOfa0tNVMYY=", "properties": {"@spider": "usps_collection_boxes", "addr:city": "WINSTED", "addr:country": "US", "addr:full": "155 MAIN AVE W", "addr:postcode": "55395", "addr:state": "MN", "amenity": "post_box", "brand": "United States Postal Service", "brand:wikidata": "Q668687", "collection_times": "Mo-Fr 16:30; Sa 10:00", "name": "USPS COLLECTION BOX - BLUE BOX", "note": "ON 12/24 AND 12/31, THIS BOX MAY BE COLLECTED AS EARLY AS 12 NOON.", "nsi_id": "unitedstatespostalservice-a77078", "operator": "United States Postal Service", "operator:short": "USPS", "operator:type": "public", "operator:wikidata": "Q668687", "ref": "5539500001"}, "type": "Feature"}
{"geometry": {"coordinates": [-94.047340332, 44.964096477], "type": "Point"}, "id": "SLjWz3n9twZIDXO3d1U2v4Qod9E=", "properties": {"@spider": "usps_collection_boxes", "addr:city": "WINSTED", "addr:country": "US", "addr:full": "155 MAIN AVE W", "addr:postcode": "55395", "addr:state": "MN", "amenity": "post_box", "brand": "United States Postal Service", "brand:wikidata": "Q668687", "collection_times": "Mo-Fr 16:30; Sa 10:00", "name": "USPS COLLECTION BOX - PO LOBBY", "note": "ON 12/24 AND 12/31, THIS BOX MAY BE COLLECTED AS EARLY AS 12 NOON.", "nsi_id": "unitedstatespostalservice-a77078", "operator": "United States Postal Service", "operator:short": "USPS", "operator:type": "public", "operator:wikidata": "Q668687", "ref": "5539500002"}, "type": "Feature"}
{"geometry": {"coordinates": [-94.047340332, 44.964096477], "type": "Point"}, "id": "PeeHdWckFcYz6DoKTba8hvGzZpI=", "properties": {"@spider": "usps_collection_boxes", "addr:city": "WINSTED", "addr:country": "US", "addr:full": "155 MAIN AVE W", "addr:postcode": "55395", "addr:state": "MN", "amenity": "post_box", "brand": "United States Postal Service", "brand:wikidata": "Q668687", "collection_times": "Mo-Fr 16:30; Sa 10:00", "name": "USPS COLLECTION BOX - BLUE BOX", "note": "ON 12/24 AND 12/31, THIS BOX MAY BE COLLECTED AS EARLY AS 12 NOON.", "nsi_id": "unitedstatespostalservice-a77078", "operator": "United States Postal Service", "operator:short": "USPS", "operator:type": "public", "operator:wikidata": "Q668687", "ref": "5539500004"}, "type": "Feature"}
{"geometry": {"coordinates": [-94.047340332, 44.964096477], "type": "Point"}, "id": "22PAIyjkJWcJmGAKC_Xe6HFKHis=", "properties": {"@spider": "usps_collection_boxes", "addr:city": "WINSTED", "addr:country": "US", "addr:full": "155 MAIN AVE W", "addr:postcode": "55395", "addr:state": "MN", "amenity": "post_box", "brand": "United States Postal Service", "brand:wikidata": "Q668687", "collection_times": "Mo-Fr 16:30; Sa 10:00", "name": "USPS COLLECTION BOX - PO LOBBY", "note": "ON 12/24 AND 12/31, THIS BOX MAY BE COLLECTED AS EARLY AS 12 NOON.", "nsi_id": "unitedstatespostalservice-a77078", "operator": "United States Postal Service", "operator:short": "USPS", "operator:type": "public", "operator:wikidata": "Q668687", "ref": "5539500005"}, "type": "Feature"}
{"geometry": {"coordinates": [-94.047340332, 44.964096477], "type": "Point"}, "id": "R2Nn-U6J1sm_jta3UYdBrdlglKM=", "properties": {"@spider": "usps_collection_boxes", "addr:city": "WINSTED", "addr:country": "US", "addr:full": "155 MAIN AVE W", "addr:postcode": "55395", "addr:state": "MN", "amenity": "post_box", "brand": "United States Postal Service", "brand:wikidata": "Q668687", "collection_times": "Mo-Fr 16:30; Sa 10:00", "name": "USPS COLLECTION BOX - PO LOBBY", "note": "ON 12/24 AND 12/31, THIS BOX MAY BE COLLECTED AS EARLY AS 12 NOON.", "nsi_id": "unitedstatespostalservice-a77078", "operator": "United States Postal Service", "operator:short": "USPS", "operator:type": "public", "operator:wikidata": "Q668687", "ref": "5539500006"}, "type": "Feature"}
{"geometry": {"coordinates": [-93.587674423, 45.442049072], "type": "Point"}, "id": "G21GQMDhNC5XJRoD5KlXdHDARx4=", "properties": {"@spider": "usps_collection_boxes", "addr:city": "ZIMMERMAN", "addr:country": "US", "addr:full": "26022 MAIN ST", "addr:postcode": "55398", "addr:state": "MN", "amenity": "post_box", "brand": "United States Postal Service", "brand:wikidata": "Q668687", "collection_times": "Mo-Sa 13:00", "name": "USPS COLLECTION BOX - BLUE BOX", "note": "ON 12/24 AND 12/31, THIS BOX MAY BE COLLECTED AS EARLY AS 12 NOON.", "nsi_id": "unitedstatespostalservice-a77078", "operator": "United States Postal Service", "operator:short": "USPS", "operator:type": "public", "operator:wikidata": "Q668687", "ref": "5539800001"}, "type": "Feature"}
{"geometry": {"coordinates": [-93.587169997, 45.44676734], "type": "Point"}, "id": "aOMLuGd4Kr4ul9-ZAKO1yNTVPCM=", "properties": {"@spider": "usps_collection_boxes", "addr:city": "ZIMMERMAN", "addr:country": "US", "addr:full": "26278 2ND ST E", "addr:postcode": "55398", "addr:state": "MN", "amenity": "post_box", "brand": "United States Postal Service", "brand:wikidata": "Q668687", "collection_times": "Mo-Fr 17:00; Sa 16:00", "name": "USPS COLLECTION BOX - PO LOBBY", "note": "ON 12/24 AND 12/31, THIS BOX MAY BE COLLECTED AS EARLY AS 12 NOON.", "nsi_id": "unitedstatespostalservice-a77078", "operator": "United States Postal Service", "operator:short": "USPS", "operator:type": "public", "operator:wikidata": "Q668687", "ref": "5539800002"}, "type": "Feature"}
{"geometry": {"coordinates": [-93.587169997, 45.44676734], "type": "Point"}, "id": "Un4s4gw_gCmpJvqTfSRB8zRRtSM=", "properties": {"@spider": "usps_collection_boxes", "addr:city": "ZIMMERMAN", "addr:country": "US", "addr:full": "26278 2ND ST E", "addr:postcode": "55398", "addr:state": "MN", "amenity": "post_box", "brand": "United States Postal Service", "brand:wikidata": "Q668687", "collection_times": "Mo-Fr 16:45; Sa 15:00", "name": "USPS COLLECTION BOX - BLUE BOX", "note": "ON 12/24 AND 12/31, THIS BOX MAY BE COLLECTED AS EARLY AS 12 NOON.", "nsi_id": "unitedstatespostalservice-a77078", "operator": "United States Postal Service", "operator:short": "USPS", "operator:type": "public", "operator:wikidata": "Q668687", "ref": "5539800003"}, "type": "Feature"}
{"geometry": {"coordinates": [-93.5872310012, 45.446551897], "type": "Point"}, "id": "ncggfnHprT6pO4ocAF9602U_cXg=", "properties": {"@spider": "usps_collection_boxes", "addr:city": "ZIMMERMAN", "addr:country": "US", "addr:full": "26278 2ND ST E", "addr:postcode": "55398", "addr:state": "MN", "amenity": "post_box", "brand": "United States Postal Service", "brand:wikidata": "Q668687", "collection_times": "Mo-Fr 16:45; Sa 15:00", "name": "USPS COLLECTION BOX - BLUE BOX", "note": "ON 12/24 AND 12/31, THIS BOX MAY BE COLLECTED AS EARLY AS 12 NOON.", "nsi_id": "unitedstatespostalservice-a77078", "operator": "United States Postal Service", "operator:short": "USPS", "operator:type": "public", "operator:wikidata": "Q668687", "ref": "5539800005"}, "type": "Feature"}
{"geometry": {"coordinates": [-93.587169997, 45.44676734], "type": "Point"}, "id": "9dkovnek7RoNSoG7X9dfEB05guU=", "properties": {"@spider": "usps_collection_boxes", "addr:city": "ZIMMERMAN", "addr:country": "US", "addr:full": "26278 2ND ST E", "addr:postcode": "55398", "addr:state": "MN", "amenity": "post_box", "brand": "United States Postal Service", "brand:wikidata": "Q668687", "collection_times": "Mo-Fr 17:00; Sa 12:00", "name": "USPS COLLECTION BOX - PO LOBBY", "note": "ON 12/24 AND 12/31, THIS BOX MAY BE COLLECTED AS EARLY AS 12 NOON.", "nsi_id": "unitedstatespostalservice-a77078", "operator": "United States Postal Service", "operator:short": "USPS", "operator:type": "public", "operator:wikidata": "Q668687", "ref": "5539800007"}, "type": "Feature"}
