{"geometry": {"coordinates": [-93.494293557, 45.020589834], "type": "Point"}, "id": "YOjAOUfbOKDFjNMrZ-fcX3XXrHI=", "properties": {"@spider": "usps_collection_boxes", "addr:city": "MINNEAPOLIS", "addr:country": "US", "addr:full": "16705 COUNTY ROAD 24", "addr:postcode": "55447", "addr:state": "MN", "amenity": "post_box", "brand": "United States Postal Service", "brand:wikidata": "Q668687", "collection_times": "Mo-Sa 10:00", "name": "USPS COLLECTION BOX - BLUE BOX", "nsi_id": "unitedstatespostalservice-a77078", "operator": "United States Postal Service", "operator:short": "USPS", "operator:type": "public", "operator:wikidata": "Q668687", "ref": "5544700031"}, "type": "Feature"}
{"geometry": {"coordinates": [-93.496936034, 45.022203539], "type": "Point"}, "id": "AnZJZu8IpLRs63aAxGyioKFDEn4=", "properties": {"@spider": "usps_collection_boxes", "addr:city": "MINNEAPOLIS", "addr:country": "US", "addr:full": "3600 HOLLY LN N", "addr:postcode": "55447", "addr:state": "MN", "amenity": "post_box", "brand": "United States Postal Service", "brand:wikidata": "Q668687", "collection_times": "Mo-Fr 15:00", "name": "USPS COLLECTION BOX - BLUE BOX", "note": "ON 12/24 AND 12/31, THIS BOX MAY BE COLLECTED AS EARLY AS 12 NOON.", "nsi_id": "unitedstatespostalservice-a77078", "operator": "United States Postal Service", "operator:short": "USPS", "operator:type": "public", "operator:wikidata": "Q668687", "ref": "5544700042"}, "type": "Feature"}
