{"geometry": {"coordinates": [-91.299863429, 47.258261132], "type": "Point"}, "id": "jSr9Sq3IRVlFTXtY1ylM6itn6g0=", "properties": {"@source_uri": "https://tools.usps.com/UspsToolsRestServices/rest/POLocator/findLocations", "@spider": "usps_collection_boxes", "addr:city": "BEAVER BAY", "addr:country": "US", "addr:postcode": "55601", "addr:state": "MN", "addr:street_address": "1014 MAIN ST", "amenity": "post_box", "brand": "United States Postal Service", "brand:wikidata": "Q668687", "collection_times": "Mo-Sa 12:45", "note": "ON 12/24 AND 12/31, THIS BOX MAY BE COLLECTED AS EARLY AS 12 NOON.", "nsi_id": "unitedstatespostalservice-a77078", "operator": "United States Postal Service", "operator:short": "USPS", "operator:type": "public", "operator:wikidata": "Q668687", "ref": "5560100000"}, "type": "Feature"}
{"geometry": {"coordinates": [-91.299863429, 47.258261132], "type": "Point"}, "id": "tqZYarej6IiweipJhRzaTOp596s=", "properties": {"@source_uri": "https://tools.usps.com/UspsToolsRestServices/rest/POLocator/findLocations", "@spider": "usps_collection_boxes", "addr:city": "BEAVER BAY", "addr:country": "US", "addr:postcode": "55601", "addr:state": "MN", "addr:street_address": "1014 MAIN ST", "amenity": "post_box", "brand": "United States Postal Service", "brand:wikidata": "Q668687", "collection_times": "Mo-Fr 12:45; Sa 10:15", "indoor": "yes", "note": "ON 12/24 AND 12/31, THIS BOX MAY BE COLLECTED AS EARLY AS 12 NOON.", "nsi_id": "unitedstatespostalservice-a77078", "operator": "United States Postal Service", "operator:short": "USPS", "operator:type": "public", "operator:wikidata": "Q668687", "ref": "5560100001"}, "type": "Feature"}
{"geometry": {"coordinates": [-91.299863429, 47.258261132], "type": "Point"}, "id": "Hl22DXqrYzAQbCa8uGnfCpnbXvc=", "properties": {"@source_uri": "https://tools.usps.com/UspsToolsRestServices/rest/POLocator/findLocations", "@spider": "usps_collection_boxes", "addr:city": "BEAVER BAY", "addr:country": "US", "addr:postcode": "55601", "addr:state": "MN", "addr:street_address": "1014 MAIN ST", "amenity": "post_box", "brand": "United States Postal Service", "brand:wikidata": "Q668687", "collection_times": "Mo-Fr 12:30; Sa 10:00", "indoor": "yes", "note": "ON 12/24 AND 12/31, THIS BOX MAY BE COLLECTED AS EARLY AS 12 NOON.", "nsi_id": "unitedstatespostalservice-a77078", "operator": "United States Postal Service", "operator:short": "USPS", "operator:type": "public", "operator:wikidata": "Q668687", "ref": "5560100002"}, "type": "Feature"}
{"geometry": {"coordinates": [-91.845301979, 47.34643545], "type": "Point"}, "id": "6eF1Ala8fZGe2RY_jlseBe4Eyr4=", "properties": {"@source_uri": "https://tools.usps.com/UspsToolsRestServices/rest/POLocator/findLocations", "@spider": "usps_collection_boxes", "addr:city": "BRIMSON", "addr:country": "US", "addr:postcode": "55602", "addr:state": "MN", "addr:street_address": "3127 HIGHWAY 44", "amenity": "post_box", "brand": "United States Postal Service", "brand:wikidata": "Q668687", "collection_times": "Mo-Sa 11:30", "nsi_id": "unitedstatespostalservice-a77078", "operator": "United States Postal Service", "operator:short": "USPS", "operator:type": "public", "operator:wikidata": "Q668687", "ref": "5560200000"}, "type": "Feature"}
{"geometry": {"coordinates": [-91.845301979, 47.34643545], "type": "Point"}, "id": "v1_WN2EJmjP7UEfnuO2_yKZ3hzw=", "properties": {"@source_uri": "https://tools.usps.com/UspsToolsRestServices/rest/POLocator/findLocations", "@spider": "usps_collection_boxes", "addr:city": "BRIMSON", "addr:country": "US", "addr:postcode": "55602", "addr:state": "MN", "addr:street_address": "3127 HIGHWAY 44", "amenity": "post_box", "brand": "United States Postal Service", "brand:wikidata": "Q668687", "collection_times": "Mo-Sa 11:30", "indoor": "yes", "nsi_id": "unitedstatespostalservice-a77078", "operator": "United States Postal Service", "operator:short": "USPS", "operator:type": "public", "operator:wikidata": "Q668687", "ref": "5560200001"}, "type": "Feature"}
{"geometry": {"coordinates": [-91.246082696, 47.41045864], "type": "Point"}, "id": "Ah5DbdZp_SrDZnk3BM3dSzPTvyY=", "properties": {"@source_uri": "https://tools.usps.com/UspsToolsRestServices/rest/POLocator/findLocations", "@spider": "usps_collection_boxes", "addr:city": "FINLAND", "addr:country": "US", "addr:postcode": "55603", "addr:state": "MN", "addr:street_address": "6638 HIGHWAY 1", "amenity": "post_box", "brand": "United States Postal Service", "brand:wikidata": "Q668687", "collection_times": "Mo-Fr 11:45; Sa 11:00", "indoor": "yes", "nsi_id": "unitedstatespostalservice-a77078", "operator": "United States Postal Service", "operator:short": "USPS", "operator:type": "public", "operator:wikidata": "Q668687", "ref": "5560300000"}, "type": "Feature"}
{"geometry": {"coordinates": [-91.246082696, 47.41045864], "type": "Point"}, "id": "Bpi7BNQSq7E_sk92TohS7IJglIU=", "properties": {"@source_uri": "https://tools.usps.com/UspsToolsRestServices/rest/POLocator/findLocations", "@spider": "usps_collection_boxes", "addr:city": "FINLAND", "addr:country": "US", "addr:postcode": "55603", "addr:state": "MN", "addr:street_address": "6638 HIGHWAY 1", "amenity": "post_box", "brand": "United States Postal Service", "brand:wikidata": "Q668687", "collection_times": "Mo-Sa 11:45", "nsi_id": "unitedstatespostalservice-a77078", "operator": "United States Postal Service", "operator:short": "USPS", "operator:type": "public", "operator:wikidata": "Q668687", "ref": "5560300001"}, "type": "Feature"}
{"geometry": {"coordinates": [-91.246082696, 47.41045864], "type": "Point"}, "id": "jJCgMpIWJoMbWALwOW57bldH5MA=", "properties": {"@source_uri": "https://tools.usps.com/UspsToolsRestServices/rest/POLocator/findLocations", "@spider": "usps_collection_boxes", "addr:city": "FINLAND", "addr:country": "US", "addr:postcode": "55603", "addr:state": "MN", "addr:street_address": "6638 HIGHWAY 1", "amenity": "post_box", "brand": "United States Postal Service", "brand:wikidata": "Q668687", "collection_times": "Mo-Fr 11:30; Sa 11:00", "indoor": "yes", "nsi_id": "unitedstatespostalservice-a77078", "operator": "United States Postal Service", "operator:short": "USPS", "operator:type": "public", "operator:wikidata": "Q668687", "ref": "5560300002"}, "type": "Feature"}
{"geometry": {"coordinates": [-90.330569873, 47.752175681], "type": "Point"}, "id": "lpXks_u-TYkwtat6QhOiDIbJ8fY=", "properties": {"@source_uri": "https://tools.usps.com/UspsToolsRestServices/rest/POLocator/findLocations", "@spider": "usps_collection_boxes", "addr:city": "GRAND MARAIS", "addr:country": "US", "addr:postcode": "55604", "addr:state": "MN", "addr:street_address": "117 E HIGHWAY 61", "amenity": "post_box", "brand": "United States Postal Service", "brand:wikidata": "Q668687", "collection_times": "Mo-Sa 12:00", "nsi_id": "unitedstatespostalservice-a77078", "operator": "United States Postal Service", "operator:short": "USPS", "operator:type": "public", "operator:wikidata": "Q668687", "ref": "5560400000"}, "type": "Feature"}
{"geometry": {"coordinates": [-90.330569873, 47.752175681], "type": "Point"}, "id": "PRcZbXu7OcnSh4_FtpcTJuAYz-U=", "properties": {"@source_uri": "https://tools.usps.com/UspsToolsRestServices/rest/POLocator/findLocations", "@spider": "usps_collection_boxes", "addr:city": "GRAND MARAIS", "addr:country": "US", "addr:postcode": "55604", "addr:state": "MN", "addr:street_address": "117 E HIGHWAY 61", "amenity": "post_box", "brand": "United States Postal Service", "brand:wikidata": "Q668687", "collection_times": "Mo-Sa 12:00", "nsi_id": "unitedstatespostalservice-a77078", "operator": "United States Postal Service", "operator:short": "USPS", "operator:type": "public", "operator:wikidata": "Q668687", "ref": "5560400001"}, "type": "Feature"}
{"geometry": {"coordinates": [-90.3328598349, 47.7513373894], "type": "Point"}, "id": "-buJbjttqtT0bIocjzgXmOGxG7o=", "properties": {"@source_uri": "https://tools.usps.com/UspsToolsRestServices/rest/POLocator/findLocations", "@spider": "usps_collection_boxes", "addr:city": "GRAND MARAIS", "addr:country": "US", "addr:postcode": "55604", "addr:state": "MN", "addr:street_address": "21 E HIGHWAY 61", "amenity": "post_box", "brand": "United States Postal Service", "brand:wikidata": "Q668687", "collection_times": "Mo-Sa 09:00", "nsi_id": "unitedstatespostalservice-a77078", "operator": "United States Postal Service", "operator:short": "USPS", "operator:type": "public", "operator:wikidata": "Q668687", "ref": "5560400002"}, "type": "Feature"}
{"geometry": {"coordinates": [-90.330569873, 47.752175681], "type": "Point"}, "id": "_HFLU0NhAdCwyjbckhqxI7DUSG8=", "properties": {"@source_uri": "https://tools.usps.com/UspsToolsRestServices/rest/POLocator/findLocations", "@spider": "usps_collection_boxes", "addr:city": "GRAND MARAIS", "addr:country": "US", "addr:postcode": "55604", "addr:state": "MN", "addr:street_address": "117 E HIGHWAY 61", "amenity": "post_box", "brand": "United States Postal Service", "brand:wikidata": "Q668687", "collection_times": "Mo-Fr 12:00; Sa 11:00", "indoor": "yes", "nsi_id": "unitedstatespostalservice-a77078", "operator": "United States Postal Service", "operator:short": "USPS", "operator:type": "public", "operator:wikidata": "Q668687", "ref": "5560400003"}, "type": "Feature"}
{"geometry": {"coordinates": [-90.330569873, 47.752175681], "type": "Point"}, "id": "ahMTOZgj2UWM9eD6oImKtlN8hGM=", "properties": {"@source_uri": "https://tools.usps.com/UspsToolsRestServices/rest/POLocator/findLocations", "@spider": "usps_collection_boxes", "addr:city": "GRAND MARAIS", "addr:country": "US", "addr:postcode": "55604", "addr:state": "MN", "addr:street_address": "117 E HIGHWAY 61", "amenity": "post_box", "brand": "United States Postal Service", "brand:wikidata": "Q668687", "collection_times": "Mo-Fr 12:00; Sa 11:00", "indoor": "yes", "nsi_id": "unitedstatespostalservice-a77078", "operator": "United States Postal Service", "operator:short": "USPS", "operator:type": "public", "operator:wikidata": "Q668687", "ref": "5560400004"}, "type": "Feature"}
{"geometry": {"coordinates": [-89.694062262, 47.953684789], "type": "Point"}, "id": "dEYV72xgyx6f5ebL-sQ4SsmJwSY=", "properties": {"@source_uri": "https://tools.usps.com/UspsToolsRestServices/rest/POLocator/findLocations", "@spider": "usps_collection_boxes", "addr:city": "GRAND PORTAGE", "addr:country": "US", "addr:postcode": "55605", "addr:state": "MN", "addr:street_address": "77 MILE CREEK RD", "amenity": "post_box", "brand": "United States Postal Service", "brand:wikidata": "Q668687", "collection_times": "Mo-Sa 09:00", "nsi_id": "unitedstatespostalservice-a77078", "operator": "United States Postal Service", "operator:short": "USPS", "operator:type": "public", "operator:wikidata": "Q668687", "ref": "5560500000"}, "type": "Feature"}
{"geometry": {"coordinates": [-89.694062262, 47.953684789], "type": "Point"}, "id": "alIAL5xDTEkgHCi8ADH0yFn_J5M=", "properties": {"@source_uri": "https://tools.usps.com/UspsToolsRestServices/rest/POLocator/findLocations", "@spider": "usps_collection_boxes", "addr:city": "GRAND PORTAGE", "addr:country": "US", "addr:postcode": "55605", "addr:state": "MN", "addr:street_address": "77 MILE CREEK RD", "amenity": "post_box", "brand": "United States Postal Service", "brand:wikidata": "Q668687", "collection_times": "Mo-Sa 09:00", "indoor": "yes", "nsi_id": "unitedstatespostalservice-a77078", "operator": "United States Postal Service", "operator:short": "USPS", "operator:type": "public", "operator:wikidata": "Q668687", "ref": "5560500001"}, "type": "Feature"}
{"geometry": {"coordinates": [-89.694062262, 47.953684789], "type": "Point"}, "id": "bP6F7rUgDEF9kx0VBoRIcr05ggY=", "properties": {"@source_uri": "https://tools.usps.com/UspsToolsRestServices/rest/POLocator/findLocations", "@spider": "usps_collection_boxes", "addr:city": "GRAND PORTAGE", "addr:country": "US", "addr:postcode": "55605", "addr:state": "MN", "addr:street_address": "77 MILE CREEK RD", "amenity": "post_box", "brand": "United States Postal Service", "brand:wikidata": "Q668687", "collection_times": "Mo-Fr 11:15; Sa 10:30", "indoor": "yes", "nsi_id": "unitedstatespostalservice-a77078", "operator": "United States Postal Service", "operator:short": "USPS", "operator:type": "public", "operator:wikidata": "Q668687", "ref": "5560500002"}, "type": "Feature"}
{"geometry": {"coordinates": [-89.962323673, 47.844767964], "type": "Point"}, "id": "PEghoonbgCjrBEj6qaIhXjZa5pI=", "properties": {"@source_uri": "https://tools.usps.com/UspsToolsRestServices/rest/POLocator/findLocations", "@spider": "usps_collection_boxes", "addr:city": "HOVLAND", "addr:country": "US", "addr:postcode": "55606", "addr:state": "MN", "addr:street_address": "12 ARROWHEAD TRL", "amenity": "post_box", "brand": "United States Postal Service", "brand:wikidata": "Q668687", "collection_times": "Mo-Sa 11:30", "nsi_id": "unitedstatespostalservice-a77078", "operator": "United States Postal Service", "operator:short": "USPS", "operator:type": "public", "operator:wikidata": "Q668687", "ref": "5560600000"}, "type": "Feature"}
{"geometry": {"coordinates": [-89.962323673, 47.844767964], "type": "Point"}, "id": "e8UlPe-US3jfulq1bsQrz-12EIc=", "properties": {"@source_uri": "https://tools.usps.com/UspsToolsRestServices/rest/POLocator/findLocations", "@spider": "usps_collection_boxes", "addr:city": "HOVLAND", "addr:country": "US", "addr:postcode": "55606", "addr:state": "MN", "addr:street_address": "12 ARROWHEAD TRL", "amenity": "post_box", "brand": "United States Postal Service", "brand:wikidata": "Q668687", "collection_times": "Mo-Sa 11:30", "indoor": "yes", "nsi_id": "unitedstatespostalservice-a77078", "operator": "United States Postal Service", "operator:short": "USPS", "operator:type": "public", "operator:wikidata": "Q668687", "ref": "5560600001"}, "type": "Feature"}
{"geometry": {"coordinates": [-89.962323673, 47.844767964], "type": "Point"}, "id": "Q9oNPrmHLMgcSZjdZFT87vIgL-8=", "properties": {"@source_uri": "https://tools.usps.com/UspsToolsRestServices/rest/POLocator/findLocations", "@spider": "usps_collection_boxes", "addr:city": "HOVLAND", "addr:country": "US", "addr:postcode": "55606", "addr:state": "MN", "addr:street_address": "12 ARROWHEAD TRL", "amenity": "post_box", "brand": "United States Postal Service", "brand:wikidata": "Q668687", "collection_times": "Mo-Sa 11:15", "indoor": "yes", "nsi_id": "unitedstatespostalservice-a77078", "operator": "United States Postal Service", "operator:short": "USPS", "operator:type": "public", "operator:wikidata": "Q668687", "ref": "5560600002"}, "type": "Feature"}
{"geometry": {"coordinates": [-91.785911898, 46.950529382], "type": "Point"}, "id": "rb8jO9cg5QylUXm7xh89ZrrZtVM=", "properties": {"@source_uri": "https://tools.usps.com/UspsToolsRestServices/rest/POLocator/findLocations", "@spider": "usps_collection_boxes", "addr:city": "KNIFE RIVER", "addr:country": "US", "addr:postcode": "55609", "addr:state": "MN", "addr:street_address": "200 CENTRAL AVE", "amenity": "post_box", "brand": "United States Postal Service", "brand:wikidata": "Q668687", "collection_times": "Mo-Sa 13:45", "note": "ON 12/24 AND 12/31, THIS BOX MAY BE COLLECTED AS EARLY AS 12 NOON.", "nsi_id": "unitedstatespostalservice-a77078", "operator": "United States Postal Service", "operator:short": "USPS", "operator:type": "public", "operator:wikidata": "Q668687", "ref": "5560900000"}, "type": "Feature"}
{"geometry": {"coordinates": [-91.785911898, 46.950529382], "type": "Point"}, "id": "lb12dgm0pkv0IS4n7s3VcHQMnWc=", "properties": {"@source_uri": "https://tools.usps.com/UspsToolsRestServices/rest/POLocator/findLocations", "@spider": "usps_collection_boxes", "addr:city": "KNIFE RIVER", "addr:country": "US", "addr:postcode": "55609", "addr:state": "MN", "addr:street_address": "200 CENTRAL AVE", "amenity": "post_box", "brand": "United States Postal Service", "brand:wikidata": "Q668687", "collection_times": "Mo-Fr 12:15; Sa 09:45", "indoor": "yes", "note": "ON 12/24 AND 12/31, THIS BOX MAY BE COLLECTED AS EARLY AS 12 NOON.", "nsi_id": "unitedstatespostalservice-a77078", "operator": "United States Postal Service", "operator:short": "USPS", "operator:type": "public", "operator:wikidata": "Q668687", "ref": "5560900001"}, "type": "Feature"}
{"geometry": {"coordinates": [-91.785911898, 46.950529382], "type": "Point"}, "id": "EZHuklwfPcel9UUR7OD_ETz2HKA=", "properties": {"@source_uri": "https://tools.usps.com/UspsToolsRestServices/rest/POLocator/findLocations", "@spider": "usps_collection_boxes", "addr:city": "KNIFE RIVER", "addr:country": "US", "addr:postcode": "55609", "addr:state": "MN", "addr:street_address": "200 CENTRAL AVE", "amenity": "post_box", "brand": "United States Postal Service", "brand:wikidata": "Q668687", "collection_times": "Mo-Fr 12:30; Sa 10:00", "indoor": "yes", "note": "ON 12/24 AND 12/31, THIS BOX MAY BE COLLECTED AS EARLY AS 12 NOON.", "nsi_id": "unitedstatespostalservice-a77078", "operator": "United States Postal Service", "operator:short": "USPS", "operator:type": "public", "operator:wikidata": "Q668687", "ref": "5560900002"}, "type": "Feature"}
{"geometry": {"coordinates": [-90.673870802, 47.647412647], "type": "Point"}, "id": "H46pKp1_oE-zSq6y9_3oE56np9g=", "properties": {"@source_uri": "https://tools.usps.com/UspsToolsRestServices/rest/POLocator/findLocations", "@spider": "usps_collection_boxes", "addr:city": "LUTSEN", "addr:country": "US", "addr:postcode": "55612", "addr:state": "MN", "addr:street_address": "5321 W HIGHWAY 61", "amenity": "post_box", "brand": "United States Postal Service", "brand:wikidata": "Q668687", "collection_times": "Mo-Sa 12:30", "note": "ON 12/24 AND 12/31, THIS BOX MAY BE COLLECTED AS EARLY AS 12 NOON.", "nsi_id": "unitedstatespostalservice-a77078", "operator": "United States Postal Service", "operator:short": "USPS", "operator:type": "public", "operator:wikidata": "Q668687", "ref": "5561200000"}, "type": "Feature"}
{"geometry": {"coordinates": [-90.673870802, 47.647412647], "type": "Point"}, "id": "EWdLNCJ2NQE6mpHCmUgWwyCmXto=", "properties": {"@source_uri": "https://tools.usps.com/UspsToolsRestServices/rest/POLocator/findLocations", "@spider": "usps_collection_boxes", "addr:city": "LUTSEN", "addr:country": "US", "addr:postcode": "55612", "addr:state": "MN", "addr:street_address": "5321 W HIGHWAY 61", "amenity": "post_box", "brand": "United States Postal Service", "brand:wikidata": "Q668687", "collection_times": "Mo-Fr 12:30; Sa 10:30", "indoor": "yes", "note": "ON 12/24 AND 12/31, THIS BOX MAY BE COLLECTED AS EARLY AS 12 NOON.", "nsi_id": "unitedstatespostalservice-a77078", "operator": "United States Postal Service", "operator:short": "USPS", "operator:type": "public", "operator:wikidata": "Q668687", "ref": "5561200001"}, "type": "Feature"}
{"geometry": {"coordinates": [-90.673870802, 47.647412647], "type": "Point"}, "id": "ODyCz9F6OyBO6htrHHxnmPL3rNI=", "properties": {"@source_uri": "https://tools.usps.com/UspsToolsRestServices/rest/POLocator/findLocations", "@spider": "usps_collection_boxes", "addr:city": "LUTSEN", "addr:country": "US", "addr:postcode": "55612", "addr:state": "MN", "addr:street_address": "5321 W HIGHWAY 61", "amenity": "post_box", "brand": "United States Postal Service", "brand:wikidata": "Q668687", "collection_times": "Mo-Fr 12:30; Sa 09:45", "indoor": "yes", "note": "ON 12/24 AND 12/31, THIS BOX MAY BE COLLECTED AS EARLY AS 12 NOON.", "nsi_id": "unitedstatespostalservice-a77078", "operator": "United States Postal Service", "operator:short": "USPS", "operator:type": "public", "operator:wikidata": "Q668687", "ref": "5561200002"}, "type": "Feature"}
{"geometry": {"coordinates": [-90.898074736, 47.54311108], "type": "Point"}, "id": "AGyyqP7RE3KX4hsDnEOvAEopU6Q=", "properties": {"@source_uri": "https://tools.usps.com/UspsToolsRestServices/rest/POLocator/findLocations", "@spider": "usps_collection_boxes", "addr:city": "SCHROEDER", "addr:country": "US", "addr:postcode": "55613", "addr:state": "MN", "addr:street_address": "7940 W HIGHWAY 61", "amenity": "post_box", "brand": "United States Postal Service", "brand:wikidata": "Q668687", "collection_times": "Mo-Sa 13:00", "note": "ON 12/24 AND 12/31, THIS BOX MAY BE COLLECTED AS EARLY AS 12 NOON.", "nsi_id": "unitedstatespostalservice-a77078", "operator": "United States Postal Service", "operator:short": "USPS", "operator:type": "public", "operator:wikidata": "Q668687", "ref": "5561300000"}, "type": "Feature"}
{"geometry": {"coordinates": [-90.898074736, 47.54311108], "type": "Point"}, "id": "D3JIHJ-yyp55HY0jMsprBlcnTKo=", "properties": {"@source_uri": "https://tools.usps.com/UspsToolsRestServices/rest/POLocator/findLocations", "@spider": "usps_collection_boxes", "addr:city": "SCHROEDER", "addr:country": "US", "addr:postcode": "55613", "addr:state": "MN", "addr:street_address": "7940 W HIGHWAY 61", "amenity": "post_box", "brand": "United States Postal Service", "brand:wikidata": "Q668687", "collection_times": "Mo-Fr 13:00; Sa 10:00", "indoor": "yes", "note": "ON 12/24 AND 12/31, THIS BOX MAY BE COLLECTED AS EARLY AS 12 NOON.", "nsi_id": "unitedstatespostalservice-a77078", "operator": "United States Postal Service", "operator:short": "USPS", "operator:type": "public", "operator:wikidata": "Q668687", "ref": "5561300001"}, "type": "Feature"}
{"geometry": {"coordinates": [-90.898074736, 47.54311108], "type": "Point"}, "id": "EtzWk3t5H6iCDMNUiMqAX_e7g4Y=", "properties": {"@source_uri": "https://tools.usps.com/UspsToolsRestServices/rest/POLocator/findLocations", "@spider": "usps_collection_boxes", "addr:city": "SCHROEDER", "addr:country": "US", "addr:postcode": "55613", "addr:state": "MN", "addr:street_address": "7940 W HIGHWAY 61", "amenity": "post_box", "brand": "United States Postal Service", "brand:wikidata": "Q668687", "collection_times": "Mo-Fr 13:15; Sa 10:00", "indoor": "yes", "note": "ON 12/24 AND 12/31, THIS BOX MAY BE COLLECTED AS EARLY AS 12 NOON.", "nsi_id": "unitedstatespostalservice-a77078", "operator": "United States Postal Service", "operator:short": "USPS", "operator:type": "public", "operator:wikidata": "Q668687", "ref": "5561300002"}, "type": "Feature"}
{"geometry": {"coordinates": [-91.269587327, 47.293386351], "type": "Point"}, "id": "4Va3cYAvrcei_uPdbkrq2-iRLaY=", "properties": {"@source_uri": "https://tools.usps.com/UspsToolsRestServices/rest/POLocator/findLocations", "@spider": "usps_collection_boxes", "addr:city": "SILVER BAY", "addr:country": "US", "addr:postcode": "55614", "addr:state": "MN", "addr:street_address": "14 SHOPPING CTR", "amenity": "post_box", "brand": "United States Postal Service", "brand:wikidata": "Q668687", "collection_times": "Mo-Sa 12:30", "note": "ON 12/24 AND 12/31, THIS BOX MAY BE COLLECTED AS EARLY AS 12 NOON.", "nsi_id": "unitedstatespostalservice-a77078", "operator": "United States Postal Service", "operator:short": "USPS", "operator:type": "public", "operator:wikidata": "Q668687", "ref": "5561400000"}, "type": "Feature"}
{"geometry": {"coordinates": [-91.26949855, 47.293497837], "type": "Point"}, "id": "QbYEWJeQQQ837oaSFBZ8Ls_0ibY=", "properties": {"@source_uri": "https://tools.usps.com/UspsToolsRestServices/rest/POLocator/findLocations", "@spider": "usps_collection_boxes", "addr:city": "SILVER BAY", "addr:country": "US", "addr:postcode": "55614", "addr:state": "MN", "addr:street_address": "13 SHOPPING CTR", "amenity": "post_box", "brand": "United States Postal Service", "brand:wikidata": "Q668687", "collection_times": "Mo-Fr 12:30; Sa 09:30", "indoor": "yes", "note": "ON 12/24 AND 12/31, THIS BOX MAY BE COLLECTED AS EARLY AS 12 NOON.", "nsi_id": "unitedstatespostalservice-a77078", "operator": "United States Postal Service", "operator:short": "USPS", "operator:type": "public", "operator:wikidata": "Q668687", "ref": "5561400003"}, "type": "Feature"}
{"geometry": {"coordinates": [-91.1091570049, 47.4105049937], "type": "Point"}, "id": "zy338SE3iaFwNoInNfRYuH0qLBI=", "properties": {"@source_uri": "https://tools.usps.com/UspsToolsRestServices/rest/POLocator/findLocations", "@spider": "usps_collection_boxes", "addr:city": "SILVER BAY", "addr:country": "US", "addr:postcode": "55614", "addr:state": "MN", "addr:street_address": "6598 LAKESIDE ESTATES RD", "amenity": "post_box", "brand": "United States Postal Service", "brand:wikidata": "Q668687", "collection_times": "Mo-Sa 13:30", "note": "ON 12/24 AND 12/31, THIS BOX MAY BE COLLECTED AS EARLY AS 12 NOON.", "nsi_id": "unitedstatespostalservice-a77078", "operator": "United States Postal Service", "operator:short": "USPS", "operator:type": "public", "operator:wikidata": "Q668687", "ref": "5561400004"}, "type": "Feature"}
{"geometry": {"coordinates": [-91.26949855, 47.293497837], "type": "Point"}, "id": "zAWESLXOPopCZdXfdfQ1IVP2u5E=", "properties": {"@source_uri": "https://tools.usps.com/UspsToolsRestServices/rest/POLocator/findLocations", "@spider": "usps_collection_boxes", "addr:city": "SILVER BAY", "addr:country": "US", "addr:postcode": "55614", "addr:state": "MN", "addr:street_address": "13 SHOPPING CTR", "amenity": "post_box", "brand": "United States Postal Service", "brand:wikidata": "Q668687", "collection_times": "Mo-Fr 12:15", "indoor": "yes", "note": "ON 12/24 AND 12/31, THIS BOX MAY BE COLLECTED AS EARLY AS 12 NOON.", "nsi_id": "unitedstatespostalservice-a77078", "operator": "United States Postal Service", "operator:short": "USPS", "operator:type": "public", "operator:wikidata": "Q668687", "ref": "5561400006"}, "type": "Feature"}
{"geometry": {"coordinates": [-90.8377880578, 47.5729668554], "type": "Point"}, "id": "GDNNSL05fbjuK9A3PVV6jyqnSMo=", "properties": {"@source_uri": "https://tools.usps.com/UspsToolsRestServices/rest/POLocator/findLocations", "@spider": "usps_collection_boxes", "addr:city": "TOFTE", "addr:country": "US", "addr:postcode": "55615", "addr:state": "MN", "addr:street_address": "7223 TOFTE PARK RD", "amenity": "post_box", "brand": "United States Postal Service", "brand:wikidata": "Q668687", "collection_times": "Mo-Sa 13:00", "note": "ON 12/24 AND 12/31, THIS BOX MAY BE COLLECTED AS EARLY AS 12 NOON.", "nsi_id": "unitedstatespostalservice-a77078", "operator": "United States Postal Service", "operator:short": "USPS", "operator:type": "public", "operator:wikidata": "Q668687", "ref": "5561500000"}, "type": "Feature"}
{"geometry": {"coordinates": [-90.837788058, 47.572966855], "type": "Point"}, "id": "H-nnB9SThSRdaswRfSeR7CQjE9k=", "properties": {"@source_uri": "https://tools.usps.com/UspsToolsRestServices/rest/POLocator/findLocations", "@spider": "usps_collection_boxes", "addr:city": "TOFTE", "addr:country": "US", "addr:postcode": "55615", "addr:state": "MN", "addr:street_address": "7223 TOFTE PARK RD", "amenity": "post_box", "brand": "United States Postal Service", "brand:wikidata": "Q668687", "collection_times": "Mo-Fr 13:00; Sa 10:00", "indoor": "yes", "note": "ON 12/24 AND 12/31, THIS BOX MAY BE COLLECTED AS EARLY AS 12 NOON.", "nsi_id": "unitedstatespostalservice-a77078", "operator": "United States Postal Service", "operator:short": "USPS", "operator:type": "public", "operator:wikidata": "Q668687", "ref": "5561500001"}, "type": "Feature"}
{"geometry": {"coordinates": [-90.837788058, 47.572966855], "type": "Point"}, "id": "sXF6oD6tH85wVgohJkoz46YbNGI=", "properties": {"@source_uri": "https://tools.usps.com/UspsToolsRestServices/rest/POLocator/findLocations", "@spider": "usps_collection_boxes", "addr:city": "TOFTE", "addr:country": "US", "addr:postcode": "55615", "addr:state": "MN", "addr:street_address": "7223 TOFTE PARK RD", "amenity": "post_box", "brand": "United States Postal Service", "brand:wikidata": "Q668687", "collection_times": "Mo-Fr 12:45; Sa 09:30", "indoor": "yes", "note": "ON 12/24 AND 12/31, THIS BOX MAY BE COLLECTED AS EARLY AS 12 NOON.", "nsi_id": "unitedstatespostalservice-a77078", "operator": "United States Postal Service", "operator:short": "USPS", "operator:type": "public", "operator:wikidata": "Q668687", "ref": "5561500002"}, "type": "Feature"}
{"geometry": {"coordinates": [-91.670903386, 47.019824528], "type": "Point"}, "id": "mU8IUzVFniLbfJnxS5iRnarZmzs=", "properties": {"@source_uri": "https://tools.usps.com/UspsToolsRestServices/rest/POLocator/findLocations", "@spider": "usps_collection_boxes", "addr:city": "TWO HARBORS", "addr:country": "US", "addr:postcode": "55616", "addr:state": "MN", "addr:street_address": "106 WATERFRONT DR", "amenity": "post_box", "brand": "United States Postal Service", "brand:wikidata": "Q668687", "collection_times": "Mo-Sa 13:30", "note": "ON 12/24 AND 12/31, THIS BOX MAY BE COLLECTED AS EARLY AS 12 NOON.", "nsi_id": "unitedstatespostalservice-a77078", "operator": "United States Postal Service", "operator:short": "USPS", "operator:type": "public", "operator:wikidata": "Q668687", "ref": "5561600000"}, "type": "Feature"}
{"geometry": {"coordinates": [-91.681263356, 47.026812792], "type": "Point"}, "id": "8wyyKkisKfDdDqYib3Cxi60doCo=", "properties": {"@source_uri": "https://tools.usps.com/UspsToolsRestServices/rest/POLocator/findLocations", "@spider": "usps_collection_boxes", "addr:city": "TWO HARBORS", "addr:country": "US", "addr:postcode": "55616", "addr:state": "MN", "addr:street_address": "802 11TH ST", "amenity": "post_box", "brand": "United States Postal Service", "brand:wikidata": "Q668687", "collection_times": "Mo-Sa 12:45", "note": "ON 12/24 AND 12/31, THIS BOX MAY BE COLLECTED AS EARLY AS 12 NOON.", "nsi_id": "unitedstatespostalservice-a77078", "operator": "United States Postal Service", "operator:short": "USPS", "operator:type": "public", "operator:wikidata": "Q668687", "ref": "5561600005"}, "type": "Feature"}
{"geometry": {"coordinates": [-91.666362857, 47.025793469], "type": "Point"}, "id": "LscpwzTSi2NotdvuIaulb7z5ERc=", "properties": {"@source_uri": "https://tools.usps.com/UspsToolsRestServices/rest/POLocator/findLocations", "@spider": "usps_collection_boxes", "addr:city": "TWO HARBORS", "addr:country": "US", "addr:postcode": "55616", "addr:state": "MN", "addr:street_address": "331 7TH AVE", "amenity": "post_box", "brand": "United States Postal Service", "brand:wikidata": "Q668687", "collection_times": "Mo-Sa 12:45", "note": "ON 12/24 AND 12/31, THIS BOX MAY BE COLLECTED AS EARLY AS 12 NOON.", "nsi_id": "unitedstatespostalservice-a77078", "operator": "United States Postal Service", "operator:short": "USPS", "operator:type": "public", "operator:wikidata": "Q668687", "ref": "5561600007"}, "type": "Feature"}
{"geometry": {"coordinates": [-91.670903386, 47.019824528], "type": "Point"}, "id": "rYAV5FVAjl5O605TV9x701U4QBQ=", "properties": {"@source_uri": "https://tools.usps.com/UspsToolsRestServices/rest/POLocator/findLocations", "@spider": "usps_collection_boxes", "addr:city": "TWO HARBORS", "addr:country": "US", "addr:postcode": "55616", "addr:state": "MN", "addr:street_address": "106 WATERFRONT DR", "amenity": "post_box", "brand": "United States Postal Service", "brand:wikidata": "Q668687", "collection_times": "Mo-Sa 13:30", "indoor": "yes", "note": "ON 12/24 AND 12/31, THIS BOX MAY BE COLLECTED AS EARLY AS 12 NOON.", "nsi_id": "unitedstatespostalservice-a77078", "operator": "United States Postal Service", "operator:short": "USPS", "operator:type": "public", "operator:wikidata": "Q668687", "ref": "5561600009"}, "type": "Feature"}
{"geometry": {"coordinates": [-91.692414094, 47.023973455], "type": "Point"}, "id": "pRpalkyxYSs6-vV4Yh0FTD1RMN0=", "properties": {"@source_uri": "https://tools.usps.com/UspsToolsRestServices/rest/POLocator/findLocations", "@spider": "usps_collection_boxes", "addr:city": "TWO HARBORS", "addr:country": "US", "addr:postcode": "55616", "addr:state": "MN", "addr:street_address": "1086 HIGHWAY 61", "amenity": "post_box", "brand": "United States Postal Service", "brand:wikidata": "Q668687", "collection_times": "Mo-Sa 12:45", "note": "ON 12/24 AND 12/31, THIS BOX MAY BE COLLECTED AS EARLY AS 12 NOON.", "nsi_id": "unitedstatespostalservice-a77078", "operator": "United States Postal Service", "operator:short": "USPS", "operator:type": "public", "operator:wikidata": "Q668687", "ref": "5561600012"}, "type": "Feature"}
{"geometry": {"coordinates": [-91.670903386, 47.019824528], "type": "Point"}, "id": "zSqVz4dMLc4PVNmDqhChqxkoz2k=", "properties": {"@source_uri": "https://tools.usps.com/UspsToolsRestServices/rest/POLocator/findLocations", "@spider": "usps_collection_boxes", "addr:city": "TWO HARBORS", "addr:country": "US", "addr:postcode": "55616", "addr:state": "MN", "addr:street_address": "106 WATERFRONT DR", "amenity": "post_box", "brand": "United States Postal Service", "brand:wikidata": "Q668687", "collection_times": "Mo-Fr 13:30; Sa 11:00", "indoor": "yes", "note": "ON 12/24 AND 12/31, THIS BOX MAY BE COLLECTED AS EARLY AS 12 NOON.", "nsi_id": "unitedstatespostalservice-a77078", "operator": "United States Postal Service", "operator:short": "USPS", "operator:type": "public", "operator:wikidata": "Q668687", "ref": "5561600014"}, "type": "Feature"}
