{"geometry": {"coordinates": [-92.7182032, 47.7816317], "type": "Point"}, "id": "0fFaPcTyEx6iW4u_pxlhpjh_QPs=", "properties": {"@source_uri": "https://tools.usps.com/UspsToolsRestServices/rest/POLocator/findLocations", "@spider": "usps_collection_boxes", "addr:city": "ANGORA", "addr:country": "US", "addr:postcode": "55703", "addr:state": "MN", "addr:street_address": "7301 BRITT BYPASS", "amenity": "post_box", "collection_times": "Mo-Sa 11:30", "nsi_id": "unitedstatespostalservice-a77078", "operator": "United States Postal Service", "operator:short": "USPS", "operator:type": "public", "operator:wikidata": "Q668687", "ref": "5570300004"}, "type": "Feature"}
{"geometry": {"coordinates": [-92.7808332, 46.1885632], "type": "Point"}, "id": "skpkVr3egQEXeUMjLSlQye6gSwE=", "properties": {"@source_uri": "https://tools.usps.com/UspsToolsRestServices/rest/POLocator/findLocations", "@spider": "usps_collection_boxes", "addr:city": "ASKOV", "addr:country": "US", "addr:postcode": "55704", "addr:state": "MN", "addr:street_address": "6370 KOBMAGERGADE", "amenity": "post_box", "collection_times": "Mo-Fr 11:45; Sa 09:45", "nsi_id": "unitedstatespostalservice-a77078", "operator": "United States Postal Service", "operator:short": "USPS", "operator:type": "public", "operator:wikidata": "Q668687", "ref": "5570400000"}, "type": "Feature"}
{"geometry": {"coordinates": [-92.781153636, 46.190988754], "type": "Point"}, "id": "ojJdBjk1KVumxcOzWj3ZK8t6NqE=", "properties": {"@source_uri": "https://tools.usps.com/UspsToolsRestServices/rest/POLocator/findLocations", "@spider": "usps_collection_boxes", "addr:city": "ASKOV", "addr:country": "US", "addr:postcode": "55704", "addr:state": "MN", "addr:street_address": "6370 KOBMAGERGADE", "amenity": "post_box", "collection_times": "Mo-Fr 11:15; Sa 09:45", "indoor": "yes", "nsi_id": "unitedstatespostalservice-a77078", "operator": "United States Postal Service", "operator:short": "USPS", "operator:type": "public", "operator:wikidata": "Q668687", "ref": "5570400001"}, "type": "Feature"}
{"geometry": {"coordinates": [-92.781153636, 46.190988754], "type": "Point"}, "id": "HfIUl6yMmzQxC6YyMhZzdYpn6OQ=", "properties": {"@source_uri": "https://tools.usps.com/UspsToolsRestServices/rest/POLocator/findLocations", "@spider": "usps_collection_boxes", "addr:city": "ASKOV", "addr:country": "US", "addr:postcode": "55704", "addr:state": "MN", "addr:street_address": "6370 KOBMAGERGADE", "amenity": "post_box", "collection_times": "Mo-Fr 11:00; Sa 10:00", "indoor": "yes", "nsi_id": "unitedstatespostalservice-a77078", "operator": "United States Postal Service", "operator:short": "USPS", "operator:type": "public", "operator:wikidata": "Q668687", "ref": "5570400002"}, "type": "Feature"}
{"geometry": {"coordinates": [-92.236844455, 47.529174531], "type": "Point"}, "id": "w1d8IG1bmSUDGMDLPkdNVZcMvpY=", "properties": {"@source_uri": "https://tools.usps.com/UspsToolsRestServices/rest/POLocator/findLocations", "@spider": "usps_collection_boxes", "addr:city": "AURORA", "addr:country": "US", "addr:postcode": "55705", "addr:state": "MN", "addr:street_address": "200 MAIN ST N", "amenity": "post_box", "collection_times": "Mo-Fr 17:00; Sa 11:10", "note": "ON 12/24 AND 12/31, THIS BOX MAY BE COLLECTED AS EARLY AS 12 NOON.", "nsi_id": "unitedstatespostalservice-a77078", "operator": "United States Postal Service", "operator:short": "USPS", "operator:type": "public", "operator:wikidata": "Q668687", "ref": "5570500001"}, "type": "Feature"}
{"geometry": {"coordinates": [-92.236844455, 47.529174531], "type": "Point"}, "id": "Gr8A8Rtxwl20-XsInk1CG1_7K0w=", "properties": {"@source_uri": "https://tools.usps.com/UspsToolsRestServices/rest/POLocator/findLocations", "@spider": "usps_collection_boxes", "addr:city": "AURORA", "addr:country": "US", "addr:postcode": "55705", "addr:state": "MN", "addr:street_address": "200 MAIN ST N", "amenity": "post_box", "collection_times": "Mo-Fr 12:15; Sa 09:30", "indoor": "yes", "note": "ON 12/24 AND 12/31, THIS BOX MAY BE COLLECTED AS EARLY AS 12 NOON.", "nsi_id": "unitedstatespostalservice-a77078", "operator": "United States Postal Service", "operator:short": "USPS", "operator:type": "public", "operator:wikidata": "Q668687", "ref": "5570500008"}, "type": "Feature"}
{"geometry": {"coordinates": [-92.236844455, 47.529174531], "type": "Point"}, "id": "QDyji0liN5jg22ZceuNT87Z81EY=", "properties": {"@source_uri": "https://tools.usps.com/UspsToolsRestServices/rest/POLocator/findLocations", "@spider": "usps_collection_boxes", "addr:city": "AURORA", "addr:country": "US", "addr:postcode": "55705", "addr:state": "MN", "addr:street_address": "200 MAIN ST N", "amenity": "post_box", "collection_times": "Mo-Fr 12:00", "indoor": "yes", "nsi_id": "unitedstatespostalservice-a77078", "operator": "United States Postal Service", "operator:short": "USPS", "operator:type": "public", "operator:wikidata": "Q668687", "ref": "5570500009"}, "type": "Feature"}
{"geometry": {"coordinates": [-91.9463775298, 47.7122575127], "type": "Point"}, "id": "R6WpaxZWqCE4_MlMwweEuGzImTc=", "properties": {"@source_uri": "https://tools.usps.com/UspsToolsRestServices/rest/POLocator/findLocations", "@spider": "usps_collection_boxes", "addr:city": "BABBITT", "addr:country": "US", "addr:postcode": "55706", "addr:state": "MN", "addr:street_address": "31 CENTRAL BLVD STE 300", "amenity": "post_box", "collection_times": "Mo-Sa 09:45", "nsi_id": "unitedstatespostalservice-a77078", "operator": "United States Postal Service", "operator:short": "USPS", "operator:type": "public", "operator:wikidata": "Q668687", "ref": "5570600000"}, "type": "Feature"}
{"geometry": {"coordinates": [-91.9464253343, 47.7123211919], "type": "Point"}, "id": "34FQY8xjQg2Vz5BufjeYKpL2IZY=", "properties": {"@source_uri": "https://tools.usps.com/UspsToolsRestServices/rest/POLocator/findLocations", "@spider": "usps_collection_boxes", "addr:city": "BABBITT", "addr:country": "US", "addr:postcode": "55706", "addr:state": "MN", "addr:street_address": "33 CENTRAL BLVD STE 100", "amenity": "post_box", "collection_times": "Mo-Sa 09:45", "indoor": "yes", "nsi_id": "unitedstatespostalservice-a77078", "operator": "United States Postal Service", "operator:short": "USPS", "operator:type": "public", "operator:wikidata": "Q668687", "ref": "5570600008"}, "type": "Feature"}
{"geometry": {"coordinates": [-91.946428583, 47.712311941], "type": "Point"}, "id": "4RtqKNZy4N81VzeTF9zwyGCEr34=", "properties": {"@source_uri": "https://tools.usps.com/UspsToolsRestServices/rest/POLocator/findLocations", "@spider": "usps_collection_boxes", "addr:city": "BABBITT", "addr:country": "US", "addr:postcode": "55706", "addr:state": "MN", "addr:street_address": "33 CENTRAL BLVD STE 100", "amenity": "post_box", "collection_times": "Mo-Fr 10:00", "indoor": "yes", "nsi_id": "unitedstatespostalservice-a77078", "operator": "United States Postal Service", "operator:short": "USPS", "operator:type": "public", "operator:wikidata": "Q668687", "ref": "5570600009"}, "type": "Feature"}
{"geometry": {"coordinates": [-92.67784949, 46.506789287], "type": "Point"}, "id": "sMk7oAIpIr-PVyM13RrpLbBWkF8=", "properties": {"@source_uri": "https://tools.usps.com/UspsToolsRestServices/rest/POLocator/findLocations", "@spider": "usps_collection_boxes", "addr:city": "BARNUM", "addr:country": "US", "addr:postcode": "55707", "addr:state": "MN", "addr:street_address": "3686 ALAN SYVERSON DR", "amenity": "post_box", "collection_times": "Mo-Sa 13:00", "note": "ON 12/24 AND 12/31, THIS BOX MAY BE COLLECTED AS EARLY AS 12 NOON.", "nsi_id": "unitedstatespostalservice-a77078", "operator": "United States Postal Service", "operator:short": "USPS", "operator:type": "public", "operator:wikidata": "Q668687", "ref": "5570700000"}, "type": "Feature"}
{"geometry": {"coordinates": [-92.636965313, 46.571519124], "type": "Point"}, "id": "KUrOnWQKI2P_gu3MBL11GqV8VSw=", "properties": {"@source_uri": "https://tools.usps.com/UspsToolsRestServices/rest/POLocator/findLocations", "@spider": "usps_collection_boxes", "addr:city": "BARNUM", "addr:country": "US", "addr:postcode": "55707", "addr:state": "MN", "addr:street_address": "2751 MARKET ST", "amenity": "post_box", "collection_times": "Mo-Sa 13:15", "note": "ON 12/24 AND 12/31, THIS BOX MAY BE COLLECTED AS EARLY AS 12 NOON.", "nsi_id": "unitedstatespostalservice-a77078", "operator": "United States Postal Service", "operator:short": "USPS", "operator:type": "public", "operator:wikidata": "Q668687", "ref": "5570700001"}, "type": "Feature"}
{"geometry": {"coordinates": [-92.67784949, 46.506789287], "type": "Point"}, "id": "7Okh3jbmnk45oRU8VoEqpHY1PEI=", "properties": {"@source_uri": "https://tools.usps.com/UspsToolsRestServices/rest/POLocator/findLocations", "@spider": "usps_collection_boxes", "addr:city": "BARNUM", "addr:country": "US", "addr:postcode": "55707", "addr:state": "MN", "addr:street_address": "3686 ALAN SYVERSON DR", "amenity": "post_box", "collection_times": "Mo-Fr 10:45; Sa 09:00", "indoor": "yes", "nsi_id": "unitedstatespostalservice-a77078", "operator": "United States Postal Service", "operator:short": "USPS", "operator:type": "public", "operator:wikidata": "Q668687", "ref": "5570700002"}, "type": "Feature"}
{"geometry": {"coordinates": [-92.67784949, 46.506789287], "type": "Point"}, "id": "rFzfQT8glWh_uz_v3fiQ2eZJC34=", "properties": {"@source_uri": "https://tools.usps.com/UspsToolsRestServices/rest/POLocator/findLocations", "@spider": "usps_collection_boxes", "addr:city": "BARNUM", "addr:country": "US", "addr:postcode": "55707", "addr:state": "MN", "addr:street_address": "3686 ALAN SYVERSON DR", "amenity": "post_box", "collection_times": "Mo-Fr 11:00", "indoor": "yes", "nsi_id": "unitedstatespostalservice-a77078", "operator": "United States Postal Service", "operator:short": "USPS", "operator:type": "public", "operator:wikidata": "Q668687", "ref": "5570700003"}, "type": "Feature"}
{"geometry": {"coordinates": [-92.345835085, 47.532959551], "type": "Point"}, "id": "Gqc7r5ITqsAaL5oqKxYQVD7c9c4=", "properties": {"@source_uri": "https://tools.usps.com/UspsToolsRestServices/rest/POLocator/findLocations", "@spider": "usps_collection_boxes", "addr:city": "BIWABIK", "addr:country": "US", "addr:postcode": "55708", "addr:state": "MN", "addr:street_address": "210 MAIN ST", "amenity": "post_box", "collection_times": "Mo-Sa 11:45", "nsi_id": "unitedstatespostalservice-a77078", "operator": "United States Postal Service", "operator:short": "USPS", "operator:type": "public", "operator:wikidata": "Q668687", "ref": "5570800000"}, "type": "Feature"}
{"geometry": {"coordinates": [-92.345835085, 47.532959551], "type": "Point"}, "id": "1PwUgZLWPksR_WWyTzYsJRH2qnw=", "properties": {"@source_uri": "https://tools.usps.com/UspsToolsRestServices/rest/POLocator/findLocations", "@spider": "usps_collection_boxes", "addr:city": "BIWABIK", "addr:country": "US", "addr:postcode": "55708", "addr:state": "MN", "addr:street_address": "210 MAIN ST", "amenity": "post_box", "collection_times": "Mo-Fr 11:45; Sa 09:00", "indoor": "yes", "nsi_id": "unitedstatespostalservice-a77078", "operator": "United States Postal Service", "operator:short": "USPS", "operator:type": "public", "operator:wikidata": "Q668687", "ref": "5570800001"}, "type": "Feature"}
{"geometry": {"coordinates": [-92.345835085, 47.532959551], "type": "Point"}, "id": "pwEAGyvAwqQSoeb7Ux3g0Awb4vQ=", "properties": {"@source_uri": "https://tools.usps.com/UspsToolsRestServices/rest/POLocator/findLocations", "@spider": "usps_collection_boxes", "addr:city": "BIWABIK", "addr:country": "US", "addr:postcode": "55708", "addr:state": "MN", "addr:street_address": "210 MAIN ST", "amenity": "post_box", "collection_times": "Mo-Fr 12:00", "indoor": "yes", "nsi_id": "unitedstatespostalservice-a77078", "operator": "United States Postal Service", "operator:short": "USPS", "operator:type": "public", "operator:wikidata": "Q668687", "ref": "5570800002"}, "type": "Feature"}
{"geometry": {"coordinates": [-93.415018265, 47.295380984], "type": "Point"}, "id": "lDgHZ_RuuXj80VkDqrfEQgb0s9E=", "properties": {"@source_uri": "https://tools.usps.com/UspsToolsRestServices/rest/POLocator/findLocations", "@spider": "usps_collection_boxes", "addr:city": "BOVEY", "addr:country": "US", "addr:postcode": "55709", "addr:state": "MN", "addr:street_address": "500 2ND ST", "amenity": "post_box", "collection_times": "Mo-Fr 11:45; Sa 09:30", "nsi_id": "unitedstatespostalservice-a77078", "operator": "United States Postal Service", "operator:short": "USPS", "operator:type": "public", "operator:wikidata": "Q668687", "ref": "5570900000"}, "type": "Feature"}
{"geometry": {"coordinates": [-93.305213916, 47.316443452], "type": "Point"}, "id": "NtC4gGEsKougQMQHb5BEKEu5yL8=", "properties": {"@source_uri": "https://tools.usps.com/UspsToolsRestServices/rest/POLocator/findLocations", "@spider": "usps_collection_boxes", "addr:city": "BOVEY", "addr:country": "US", "addr:postcode": "55709", "addr:state": "MN", "addr:street_address": "7896 US HIGHWAY 169", "amenity": "post_box", "collection_times": "Mo-Sa 08:30", "nsi_id": "unitedstatespostalservice-a77078", "operator": "United States Postal Service", "operator:short": "USPS", "operator:type": "public", "operator:wikidata": "Q668687", "ref": "5570900001"}, "type": "Feature"}
{"geometry": {"coordinates": [-93.415018265, 47.295380984], "type": "Point"}, "id": "5M3qg5qMsCCglg7yayptDxRUNAE=", "properties": {"@source_uri": "https://tools.usps.com/UspsToolsRestServices/rest/POLocator/findLocations", "@spider": "usps_collection_boxes", "addr:city": "BOVEY", "addr:country": "US", "addr:postcode": "55709", "addr:state": "MN", "addr:street_address": "500 2ND ST", "amenity": "post_box", "collection_times": "Mo-Fr 11:45; Sa 09:30", "indoor": "yes", "nsi_id": "unitedstatespostalservice-a77078", "operator": "United States Postal Service", "operator:short": "USPS", "operator:type": "public", "operator:wikidata": "Q668687", "ref": "5570900002"}, "type": "Feature"}
{"geometry": {"coordinates": [-93.415018265, 47.295380984], "type": "Point"}, "id": "p2Zb3SzdYpRagrDYT_k7YUsKmUM=", "properties": {"@source_uri": "https://tools.usps.com/UspsToolsRestServices/rest/POLocator/findLocations", "@spider": "usps_collection_boxes", "addr:city": "BOVEY", "addr:country": "US", "addr:postcode": "55709", "addr:state": "MN", "addr:street_address": "500 2ND ST", "amenity": "post_box", "collection_times": "Mo-Fr 11:45", "indoor": "yes", "nsi_id": "unitedstatespostalservice-a77078", "operator": "United States Postal Service", "operator:short": "USPS", "operator:type": "public", "operator:wikidata": "Q668687", "ref": "5570900004"}, "type": "Feature"}
{"geometry": {"coordinates": [-92.604238962, 46.866816314], "type": "Point"}, "id": "uIEhN2Se7Z59GJv-8LJ3QRwOolY=", "properties": {"@source_uri": "https://tools.usps.com/UspsToolsRestServices/rest/POLocator/findLocations", "@spider": "usps_collection_boxes", "addr:city": "BROOKSTON", "addr:country": "US", "addr:postcode": "55711", "addr:state": "MN", "addr:street_address": "4869 HIGHWAY 31", "amenity": "post_box", "collection_times": "Mo-Fr 11:45; Sa 08:45", "nsi_id": "unitedstatespostalservice-a77078", "operator": "United States Postal Service", "operator:short": "USPS", "operator:type": "public", "operator:wikidata": "Q668687", "ref": "5571100000"}, "type": "Feature"}
{"geometry": {"coordinates": [-92.604238962, 46.866816314], "type": "Point"}, "id": "Z86W1M0Np5B0tVIZEYDH6gBBNxE=", "properties": {"@source_uri": "https://tools.usps.com/UspsToolsRestServices/rest/POLocator/findLocations", "@spider": "usps_collection_boxes", "addr:city": "BROOKSTON", "addr:country": "US", "addr:postcode": "55711", "addr:state": "MN", "addr:street_address": "4869 HIGHWAY 31", "amenity": "post_box", "collection_times": "Mo-Fr 11:45; Sa 09:00", "indoor": "yes", "nsi_id": "unitedstatespostalservice-a77078", "operator": "United States Postal Service", "operator:short": "USPS", "operator:type": "public", "operator:wikidata": "Q668687", "ref": "5571100001"}, "type": "Feature"}
{"geometry": {"coordinates": [-92.604238962, 46.866816314], "type": "Point"}, "id": "PA8klCSGi5JOesFM34IrmfHQ9pw=", "properties": {"@source_uri": "https://tools.usps.com/UspsToolsRestServices/rest/POLocator/findLocations", "@spider": "usps_collection_boxes", "addr:city": "BROOKSTON", "addr:country": "US", "addr:postcode": "55711", "addr:state": "MN", "addr:street_address": "4869 HIGHWAY 31", "amenity": "post_box", "collection_times": "Mo-Fr 12:00; Sa 09:00", "indoor": "yes", "nsi_id": "unitedstatespostalservice-a77078", "operator": "United States Postal Service", "operator:short": "USPS", "operator:type": "public", "operator:wikidata": "Q668687", "ref": "5571100002"}, "type": "Feature"}
{"geometry": {"coordinates": [-92.6615835, 46.278933504], "type": "Point"}, "id": "TkJhhvnJwkCp1qBHv8_h_IqtrQA=", "properties": {"@source_uri": "https://tools.usps.com/UspsToolsRestServices/rest/POLocator/findLocations", "@spider": "usps_collection_boxes", "addr:city": "BRUNO", "addr:country": "US", "addr:postcode": "55712", "addr:state": "MN", "addr:street_address": "4613 E MAIN ST", "amenity": "post_box", "collection_times": "Mo-Fr 11:45; Sa 09:15", "nsi_id": "unitedstatespostalservice-a77078", "operator": "United States Postal Service", "operator:short": "USPS", "operator:type": "public", "operator:wikidata": "Q668687", "ref": "5571200000"}, "type": "Feature"}
{"geometry": {"coordinates": [-92.6615835, 46.278933504], "type": "Point"}, "id": "uY9gWAtJuN6Xv4A1r_MF8OaHtqM=", "properties": {"@source_uri": "https://tools.usps.com/UspsToolsRestServices/rest/POLocator/findLocations", "@spider": "usps_collection_boxes", "addr:city": "BRUNO", "addr:country": "US", "addr:postcode": "55712", "addr:state": "MN", "addr:street_address": "4613 E MAIN ST", "amenity": "post_box", "collection_times": "Mo-Fr 11:00; Sa 09:15", "indoor": "yes", "nsi_id": "unitedstatespostalservice-a77078", "operator": "United States Postal Service", "operator:short": "USPS", "operator:type": "public", "operator:wikidata": "Q668687", "ref": "5571200001"}, "type": "Feature"}
{"geometry": {"coordinates": [-92.6615835, 46.278933504], "type": "Point"}, "id": "URKWc5C5mD2JLA-F1WF0LT0QLok=", "properties": {"@source_uri": "https://tools.usps.com/UspsToolsRestServices/rest/POLocator/findLocations", "@spider": "usps_collection_boxes", "addr:city": "BRUNO", "addr:country": "US", "addr:postcode": "55712", "addr:state": "MN", "addr:street_address": "4613 E MAIN ST", "amenity": "post_box", "collection_times": "Mo-Fr 10:45; Sa 09:30", "indoor": "yes", "nsi_id": "unitedstatespostalservice-a77078", "operator": "United States Postal Service", "operator:short": "USPS", "operator:type": "public", "operator:wikidata": "Q668687", "ref": "5571200002"}, "type": "Feature"}
{"geometry": {"coordinates": [-92.779559904, 47.49516593], "type": "Point"}, "id": "XnGIYPkEFgtslLLSuNpgo0g-IX0=", "properties": {"@source_uri": "https://tools.usps.com/UspsToolsRestServices/rest/POLocator/findLocations", "@spider": "usps_collection_boxes", "addr:city": "BUHL", "addr:country": "US", "addr:postcode": "55713", "addr:state": "MN", "addr:street_address": "221 STATE ST", "amenity": "post_box", "collection_times": "Mo-Fr 11:15; Sa 10:15", "nsi_id": "unitedstatespostalservice-a77078", "operator": "United States Postal Service", "operator:short": "USPS", "operator:type": "public", "operator:wikidata": "Q668687", "ref": "5571300000"}, "type": "Feature"}
{"geometry": {"coordinates": [-92.779559904, 47.49516593], "type": "Point"}, "id": "NAJkHG5Mw1kOcuzt2CXfUShzth0=", "properties": {"@source_uri": "https://tools.usps.com/UspsToolsRestServices/rest/POLocator/findLocations", "@spider": "usps_collection_boxes", "addr:city": "BUHL", "addr:country": "US", "addr:postcode": "55713", "addr:state": "MN", "addr:street_address": "221 STATE ST", "amenity": "post_box", "collection_times": "Mo-Fr 11:15", "indoor": "yes", "nsi_id": "unitedstatespostalservice-a77078", "operator": "United States Postal Service", "operator:short": "USPS", "operator:type": "public", "operator:wikidata": "Q668687", "ref": "5571300001"}, "type": "Feature"}
{"geometry": {"coordinates": [-92.779559904, 47.49516593], "type": "Point"}, "id": "YxpepswwqWXmUiGpD6tCFZkRFRM=", "properties": {"@source_uri": "https://tools.usps.com/UspsToolsRestServices/rest/POLocator/findLocations", "@spider": "usps_collection_boxes", "addr:city": "BUHL", "addr:country": "US", "addr:postcode": "55713", "addr:state": "MN", "addr:street_address": "221 STATE ST", "amenity": "post_box", "collection_times": "Mo-Fr 11:30", "indoor": "yes", "nsi_id": "unitedstatespostalservice-a77078", "operator": "United States Postal Service", "operator:short": "USPS", "operator:type": "public", "operator:wikidata": "Q668687", "ref": "5571300002"}, "type": "Feature"}
{"geometry": {"coordinates": [-93.277032467, 47.323863922], "type": "Point"}, "id": "42xQ2rHN3uGM4jNrBxiTqkDDDs8=", "properties": {"@source_uri": "https://tools.usps.com/UspsToolsRestServices/rest/POLocator/findLocations", "@spider": "usps_collection_boxes", "addr:city": "CALUMET", "addr:country": "US", "addr:postcode": "55716", "addr:state": "MN", "addr:street_address": "930 GARY ST", "amenity": "post_box", "collection_times": "Mo-Fr 16:15; Sa 09:45", "note": "ON 12/24 AND 12/31, THIS BOX MAY BE COLLECTED AS EARLY AS 12 NOON.", "nsi_id": "unitedstatespostalservice-a77078", "operator": "United States Postal Service", "operator:short": "USPS", "operator:type": "public", "operator:wikidata": "Q668687", "ref": "5571600000"}, "type": "Feature"}
{"geometry": {"coordinates": [-93.277032467, 47.323863922], "type": "Point"}, "id": "SLaYRp2uB2YdEeUkEXR9w_r9mLg=", "properties": {"@source_uri": "https://tools.usps.com/UspsToolsRestServices/rest/POLocator/findLocations", "@spider": "usps_collection_boxes", "addr:city": "CALUMET", "addr:country": "US", "addr:postcode": "55716", "addr:state": "MN", "addr:street_address": "930 GARY ST", "amenity": "post_box", "collection_times": "Mo-Fr 16:15; Sa 09:45", "indoor": "yes", "note": "ON 12/24 AND 12/31, THIS BOX MAY BE COLLECTED AS EARLY AS 12 NOON.", "nsi_id": "unitedstatespostalservice-a77078", "operator": "United States Postal Service", "operator:short": "USPS", "operator:type": "public", "operator:wikidata": "Q668687", "ref": "5571600001"}, "type": "Feature"}
{"geometry": {"coordinates": [-93.277032467, 47.323863922], "type": "Point"}, "id": "m2i1c0a7nUn94GFRO_DEbTNuN2s=", "properties": {"@source_uri": "https://tools.usps.com/UspsToolsRestServices/rest/POLocator/findLocations", "@spider": "usps_collection_boxes", "addr:city": "CALUMET", "addr:country": "US", "addr:postcode": "55716", "addr:state": "MN", "addr:street_address": "930 GARY ST", "amenity": "post_box", "collection_times": "Mo-Fr 16:30; Sa 10:00", "indoor": "yes", "note": "ON 12/24 AND 12/31, THIS BOX MAY BE COLLECTED AS EARLY AS 12 NOON.", "nsi_id": "unitedstatespostalservice-a77078", "operator": "United States Postal Service", "operator:short": "USPS", "operator:type": "public", "operator:wikidata": "Q668687", "ref": "5571600003"}, "type": "Feature"}
{"geometry": {"coordinates": [-92.4240375, 46.66419], "type": "Point"}, "id": "3vCPACShrfiKhHp45UAdIwV5YxY=", "properties": {"@source_uri": "https://tools.usps.com/UspsToolsRestServices/rest/POLocator/findLocations", "@spider": "usps_collection_boxes", "addr:city": "CARLTON", "addr:country": "US", "addr:postcode": "55718", "addr:state": "MN", "addr:street_address": "313 CHESTNUT AVE", "amenity": "post_box", "collection_times": "Mo-Sa 12:00", "nsi_id": "unitedstatespostalservice-a77078", "operator": "United States Postal Service", "operator:short": "USPS", "operator:type": "public", "operator:wikidata": "Q668687", "ref": "5571800000"}, "type": "Feature"}
{"geometry": {"coordinates": [-92.424083893, 46.664094083], "type": "Point"}, "id": "HqcWH26oAeELUDttDKq6jP_JdDs=", "properties": {"@source_uri": "https://tools.usps.com/UspsToolsRestServices/rest/POLocator/findLocations", "@spider": "usps_collection_boxes", "addr:city": "CARLTON", "addr:country": "US", "addr:postcode": "55718", "addr:state": "MN", "addr:street_address": "313 CHESTNUT AVE", "amenity": "post_box", "collection_times": "Mo-Fr 12:00; Sa 10:15", "indoor": "yes", "nsi_id": "unitedstatespostalservice-a77078", "operator": "United States Postal Service", "operator:short": "USPS", "operator:type": "public", "operator:wikidata": "Q668687", "ref": "5571800004"}, "type": "Feature"}
{"geometry": {"coordinates": [-92.424083893, 46.664094083], "type": "Point"}, "id": "Hx4SbMRXiYZRE7Y0hAG4U5hg7v4=", "properties": {"@source_uri": "https://tools.usps.com/UspsToolsRestServices/rest/POLocator/findLocations", "@spider": "usps_collection_boxes", "addr:city": "CARLTON", "addr:country": "US", "addr:postcode": "55718", "addr:state": "MN", "addr:street_address": "313 CHESTNUT AVE", "amenity": "post_box", "collection_times": "Mo-Fr 12:15", "indoor": "yes", "note": "ON 12/24 AND 12/31, THIS BOX MAY BE COLLECTED AS EARLY AS 12 NOON.", "nsi_id": "unitedstatespostalservice-a77078", "operator": "United States Postal Service", "operator:short": "USPS", "operator:type": "public", "operator:wikidata": "Q668687", "ref": "5571800005"}, "type": "Feature"}
{"geometry": {"coordinates": [-92.883714728, 47.489925908], "type": "Point"}, "id": "OIQa7iQLxDyZNeJoGuYsWc-JDMU=", "properties": {"@source_uri": "https://tools.usps.com/UspsToolsRestServices/rest/POLocator/findLocations", "@spider": "usps_collection_boxes", "addr:city": "CHISHOLM", "addr:country": "US", "addr:postcode": "55719", "addr:state": "MN", "addr:street_address": "14 3RD AVE NW", "amenity": "post_box", "collection_times": "Mo-Fr 10:45; Sa 10:00", "nsi_id": "unitedstatespostalservice-a77078", "operator": "United States Postal Service", "operator:short": "USPS", "operator:type": "public", "operator:wikidata": "Q668687", "ref": "5571900011"}, "type": "Feature"}
{"geometry": {"coordinates": [-92.883714728, 47.489925908], "type": "Point"}, "id": "Khxii_rGna5ICcJAGtf0hsHojIM=", "properties": {"@source_uri": "https://tools.usps.com/UspsToolsRestServices/rest/POLocator/findLocations", "@spider": "usps_collection_boxes", "addr:city": "CHISHOLM", "addr:country": "US", "addr:postcode": "55719", "addr:state": "MN", "addr:street_address": "14 3RD AVE NW", "amenity": "post_box", "collection_times": "Mo-Fr 10:45; Sa 10:00", "indoor": "yes", "nsi_id": "unitedstatespostalservice-a77078", "operator": "United States Postal Service", "operator:short": "USPS", "operator:type": "public", "operator:wikidata": "Q668687", "ref": "5571900017"}, "type": "Feature"}
{"geometry": {"coordinates": [-92.883714728, 47.489925908], "type": "Point"}, "id": "_cOHRc76EWNowgnf0B6eGRSV2_M=", "properties": {"@source_uri": "https://tools.usps.com/UspsToolsRestServices/rest/POLocator/findLocations", "@spider": "usps_collection_boxes", "addr:city": "CHISHOLM", "addr:country": "US", "addr:postcode": "55719", "addr:state": "MN", "addr:street_address": "14 3RD AVE NW", "amenity": "post_box", "collection_times": "Mo-Sa 10:00", "indoor": "yes", "nsi_id": "unitedstatespostalservice-a77078", "operator": "United States Postal Service", "operator:short": "USPS", "operator:type": "public", "operator:wikidata": "Q668687", "ref": "5571900018"}, "type": "Feature"}
{"geometry": {"coordinates": [-92.452397, 46.7159901], "type": "Point"}, "id": "9WuBp_ay88GysgUNvEuBjUMBkeQ=", "properties": {"@source_uri": "https://tools.usps.com/UspsToolsRestServices/rest/POLocator/findLocations", "@spider": "usps_collection_boxes", "addr:city": "CLOQUET", "addr:country": "US", "addr:postcode": "55720", "addr:state": "MN", "addr:street_address": "316 CLOQUET AVE", "amenity": "post_box", "collection_times": "Mo-Sa 13:45", "note": "ON 12/24 AND 12/31, THIS BOX MAY BE COLLECTED AS EARLY AS 12 NOON.", "nsi_id": "unitedstatespostalservice-a77078", "operator": "United States Postal Service", "operator:short": "USPS", "operator:type": "public", "operator:wikidata": "Q668687", "ref": "5572000001"}, "type": "Feature"}
{"geometry": {"coordinates": [-92.458383581, 46.721618919], "type": "Point"}, "id": "stWxH-kDZeRCOIwd1WdOG_LCVGc=", "properties": {"@source_uri": "https://tools.usps.com/UspsToolsRestServices/rest/POLocator/findLocations", "@spider": "usps_collection_boxes", "addr:city": "CLOQUET", "addr:country": "US", "addr:postcode": "55720", "addr:state": "MN", "addr:street_address": "508 CLOQUET AVE", "amenity": "post_box", "collection_times": "Mo-Sa 10:30", "nsi_id": "unitedstatespostalservice-a77078", "operator": "United States Postal Service", "operator:short": "USPS", "operator:type": "public", "operator:wikidata": "Q668687", "ref": "5572000003"}, "type": "Feature"}
{"geometry": {"coordinates": [-92.462203517, 46.731719211], "type": "Point"}, "id": "O8_Y1YNDiS5ey-RQBD1v2kU-TOs=", "properties": {"@source_uri": "https://tools.usps.com/UspsToolsRestServices/rest/POLocator/findLocations", "@spider": "usps_collection_boxes", "addr:city": "CLOQUET", "addr:country": "US", "addr:postcode": "55720", "addr:state": "MN", "addr:street_address": "512 SKYLINE BLVD", "amenity": "post_box", "collection_times": "Mo-Sa 10:00", "nsi_id": "unitedstatespostalservice-a77078", "operator": "United States Postal Service", "operator:short": "USPS", "operator:type": "public", "operator:wikidata": "Q668687", "ref": "5572000005"}, "type": "Feature"}
{"geometry": {"coordinates": [-92.463112404, 46.712664064], "type": "Point"}, "id": "gxLoBgLcbNi8_hSdgJMsDxgM8wc=", "properties": {"@source_uri": "https://tools.usps.com/UspsToolsRestServices/rest/POLocator/findLocations", "@spider": "usps_collection_boxes", "addr:city": "CLOQUET", "addr:country": "US", "addr:postcode": "55720", "addr:state": "MN", "addr:street_address": "707 HIGHWAY 33 S", "amenity": "post_box", "collection_times": "Mo-Sa 09:00", "nsi_id": "unitedstatespostalservice-a77078", "operator": "United States Postal Service", "operator:short": "USPS", "operator:type": "public", "operator:wikidata": "Q668687", "ref": "5572000010"}, "type": "Feature"}
{"geometry": {"coordinates": [-92.456125042, 46.703781106], "type": "Point"}, "id": "PNxKuTAIl84Hi54s-H09CeLr1UY=", "properties": {"@source_uri": "https://tools.usps.com/UspsToolsRestServices/rest/POLocator/findLocations", "@spider": "usps_collection_boxes", "addr:city": "CLOQUET", "addr:country": "US", "addr:postcode": "55720", "addr:state": "MN", "addr:street_address": "1308 HIGHWAY 33 S", "amenity": "post_box", "collection_times": "Mo-Sa 09:15", "nsi_id": "unitedstatespostalservice-a77078", "operator": "United States Postal Service", "operator:short": "USPS", "operator:type": "public", "operator:wikidata": "Q668687", "ref": "5572000011"}, "type": "Feature"}
{"geometry": {"coordinates": [-92.449110311, 46.719734689], "type": "Point"}, "id": "MBQEOjX5ghHgjodd4yCRpecJM3M=", "properties": {"@source_uri": "https://tools.usps.com/UspsToolsRestServices/rest/POLocator/findLocations", "@spider": "usps_collection_boxes", "addr:city": "CLOQUET", "addr:country": "US", "addr:postcode": "55720", "addr:state": "MN", "addr:street_address": "101 14TH ST", "amenity": "post_box", "collection_times": "Mo-Sa 09:30", "nsi_id": "unitedstatespostalservice-a77078", "operator": "United States Postal Service", "operator:short": "USPS", "operator:type": "public", "operator:wikidata": "Q668687", "ref": "5572000025"}, "type": "Feature"}
{"geometry": {"coordinates": [-92.460054723, 46.721582725], "type": "Point"}, "id": "6BMAgdWcSmXGpGG5Jw68iHBsowM=", "properties": {"@source_uri": "https://tools.usps.com/UspsToolsRestServices/rest/POLocator/findLocations", "@spider": "usps_collection_boxes", "addr:city": "CLOQUET", "addr:country": "US", "addr:postcode": "55720", "addr:state": "MN", "addr:street_address": "316 CLOQUET AVE", "amenity": "post_box", "collection_times": "Mo-Sa 13:45", "indoor": "yes", "note": "ON 12/24 AND 12/31, THIS BOX MAY BE COLLECTED AS EARLY AS 12 NOON.", "nsi_id": "unitedstatespostalservice-a77078", "operator": "United States Postal Service", "operator:short": "USPS", "operator:type": "public", "operator:wikidata": "Q668687", "ref": "5572000029"}, "type": "Feature"}
{"geometry": {"coordinates": [-92.460054723, 46.721582725], "type": "Point"}, "id": "5Y-I4j8_eKIaueYUcAH-qA9nfgw=", "properties": {"@source_uri": "https://tools.usps.com/UspsToolsRestServices/rest/POLocator/findLocations", "@spider": "usps_collection_boxes", "addr:city": "CLOQUET", "addr:country": "US", "addr:postcode": "55720", "addr:state": "MN", "addr:street_address": "316 CLOQUET AVE", "amenity": "post_box", "collection_times": "Mo-Fr 13:45; Sa 11:30", "indoor": "yes", "note": "ON 12/24 AND 12/31, THIS BOX MAY BE COLLECTED AS EARLY AS 12 NOON.", "nsi_id": "unitedstatespostalservice-a77078", "operator": "United States Postal Service", "operator:short": "USPS", "operator:type": "public", "operator:wikidata": "Q668687", "ref": "5572000032"}, "type": "Feature"}
{"geometry": {"coordinates": [-93.620671422, 47.263664169], "type": "Point"}, "id": "Tm7o_YWhu-7KuA-1RjOWkBs9Bxw=", "properties": {"@source_uri": "https://tools.usps.com/UspsToolsRestServices/rest/POLocator/findLocations", "@spider": "usps_collection_boxes", "addr:city": "COHASSET", "addr:country": "US", "addr:postcode": "55721", "addr:state": "MN", "addr:street_address": "10 W HIGHWAY 2", "amenity": "post_box", "collection_times": "Mo-Fr 15:30; Sa 08:30", "note": "ON 12/24 AND 12/31, THIS BOX MAY BE COLLECTED AS EARLY AS 12 NOON.", "nsi_id": "unitedstatespostalservice-a77078", "operator": "United States Postal Service", "operator:short": "USPS", "operator:type": "public", "operator:wikidata": "Q668687", "ref": "5572100001"}, "type": "Feature"}
{"geometry": {"coordinates": [-93.620671422, 47.263664169], "type": "Point"}, "id": "dTvRyMhFGk3mIWYPDUgc3gM9WhQ=", "properties": {"@source_uri": "https://tools.usps.com/UspsToolsRestServices/rest/POLocator/findLocations", "@spider": "usps_collection_boxes", "addr:city": "COHASSET", "addr:country": "US", "addr:postcode": "55721", "addr:state": "MN", "addr:street_address": "10 W HIGHWAY 2", "amenity": "post_box", "collection_times": "Mo-Fr 11:30", "indoor": "yes", "nsi_id": "unitedstatespostalservice-a77078", "operator": "United States Postal Service", "operator:short": "USPS", "operator:type": "public", "operator:wikidata": "Q668687", "ref": "5572100002"}, "type": "Feature"}
{"geometry": {"coordinates": [-93.620671422, 47.263664169], "type": "Point"}, "id": "ubnp4xsu8_6KPQ45f_zkPQavNd4=", "properties": {"@source_uri": "https://tools.usps.com/UspsToolsRestServices/rest/POLocator/findLocations", "@spider": "usps_collection_boxes", "addr:city": "COHASSET", "addr:country": "US", "addr:postcode": "55721", "addr:state": "MN", "addr:street_address": "10 W HIGHWAY 2", "amenity": "post_box", "collection_times": "Mo-Fr 11:15", "indoor": "yes", "nsi_id": "unitedstatespostalservice-a77078", "operator": "United States Postal Service", "operator:short": "USPS", "operator:type": "public", "operator:wikidata": "Q668687", "ref": "5572100003"}, "type": "Feature"}
{"geometry": {"coordinates": [-93.430971515, 47.28272509], "type": "Point"}, "id": "eOpcav00eFIQWLU2j8yuo196RgE=", "properties": {"@source_uri": "https://tools.usps.com/UspsToolsRestServices/rest/POLocator/findLocations", "@spider": "usps_collection_boxes", "addr:city": "COLERAINE", "addr:country": "US", "addr:postcode": "55722", "addr:state": "MN", "addr:street_address": "208 POSTAL ST", "amenity": "post_box", "collection_times": "Mo-Fr 12:00; Sa 09:15", "nsi_id": "unitedstatespostalservice-a77078", "operator": "United States Postal Service", "operator:short": "USPS", "operator:type": "public", "operator:wikidata": "Q668687", "ref": "5572200000"}, "type": "Feature"}
{"geometry": {"coordinates": [-93.430971515, 47.28272509], "type": "Point"}, "id": "g5eoPcD__VgdzLYzV-PkaHABpLU=", "properties": {"@source_uri": "https://tools.usps.com/UspsToolsRestServices/rest/POLocator/findLocations", "@spider": "usps_collection_boxes", "addr:city": "COLERAINE", "addr:country": "US", "addr:postcode": "55722", "addr:state": "MN", "addr:street_address": "208 POSTAL ST", "amenity": "post_box", "collection_times": "Mo-Fr 12:00", "indoor": "yes", "nsi_id": "unitedstatespostalservice-a77078", "operator": "United States Postal Service", "operator:short": "USPS", "operator:type": "public", "operator:wikidata": "Q668687", "ref": "5572200002"}, "type": "Feature"}
{"geometry": {"coordinates": [-93.430971515, 47.28272509], "type": "Point"}, "id": "GTdYC8ViWjalAzFVAO0pqC_CIuE=", "properties": {"@source_uri": "https://tools.usps.com/UspsToolsRestServices/rest/POLocator/findLocations", "@spider": "usps_collection_boxes", "addr:city": "COLERAINE", "addr:country": "US", "addr:postcode": "55722", "addr:state": "MN", "addr:street_address": "208 POSTAL ST", "amenity": "post_box", "collection_times": "Mo-Fr 12:00; Sa 09:15", "indoor": "yes", "nsi_id": "unitedstatespostalservice-a77078", "operator": "United States Postal Service", "operator:short": "USPS", "operator:type": "public", "operator:wikidata": "Q668687", "ref": "5572200003"}, "type": "Feature"}
{"geometry": {"coordinates": [-92.688807699, 47.851958462], "type": "Point"}, "id": "7YJgt3FZ7cIBvYk9ruF4u_9WVZA=", "properties": {"@source_uri": "https://tools.usps.com/UspsToolsRestServices/rest/POLocator/findLocations", "@spider": "usps_collection_boxes", "addr:city": "COOK", "addr:country": "US", "addr:postcode": "55723", "addr:state": "MN", "addr:street_address": "126 S RIVER ST", "amenity": "post_box", "collection_times": "Mo-Sa 11:00", "nsi_id": "unitedstatespostalservice-a77078", "operator": "United States Postal Service", "operator:short": "USPS", "operator:type": "public", "operator:wikidata": "Q668687", "ref": "5572300001"}, "type": "Feature"}
{"geometry": {"coordinates": [-92.688807699, 47.851958462], "type": "Point"}, "id": "es3nrcD73q1Jhx1ZKqkimZbnr6s=", "properties": {"@source_uri": "https://tools.usps.com/UspsToolsRestServices/rest/POLocator/findLocations", "@spider": "usps_collection_boxes", "addr:city": "COOK", "addr:country": "US", "addr:postcode": "55723", "addr:state": "MN", "addr:street_address": "126 S RIVER ST", "amenity": "post_box", "collection_times": "Mo-Sa 11:00", "indoor": "yes", "nsi_id": "unitedstatespostalservice-a77078", "operator": "United States Postal Service", "operator:short": "USPS", "operator:type": "public", "operator:wikidata": "Q668687", "ref": "5572300002"}, "type": "Feature"}
{"geometry": {"coordinates": [-92.683451267, 47.847943368], "type": "Point"}, "id": "Ael0C7pGxiXBvT2PpsqPTaBV-Js=", "properties": {"@source_uri": "https://tools.usps.com/UspsToolsRestServices/rest/POLocator/findLocations", "@spider": "usps_collection_boxes", "addr:city": "COOK", "addr:country": "US", "addr:postcode": "55723", "addr:state": "MN", "addr:street_address": "320 S HIGHWAY 53", "amenity": "post_box", "collection_times": "Mo-Sa 11:15", "nsi_id": "unitedstatespostalservice-a77078", "operator": "United States Postal Service", "operator:short": "USPS", "operator:type": "public", "operator:wikidata": "Q668687", "ref": "5572300003"}, "type": "Feature"}
{"geometry": {"coordinates": [-92.688807699, 47.851958462], "type": "Point"}, "id": "XhouWaMlZtEBCb7enRcIdnkIMHc=", "properties": {"@source_uri": "https://tools.usps.com/UspsToolsRestServices/rest/POLocator/findLocations", "@spider": "usps_collection_boxes", "addr:city": "COOK", "addr:country": "US", "addr:postcode": "55723", "addr:state": "MN", "addr:street_address": "126 S RIVER ST", "amenity": "post_box", "collection_times": "Mo-Fr 11:00", "indoor": "yes", "nsi_id": "unitedstatespostalservice-a77078", "operator": "United States Postal Service", "operator:short": "USPS", "operator:type": "public", "operator:wikidata": "Q668687", "ref": "5572300004"}, "type": "Feature"}
{"geometry": {"coordinates": [-92.685910856, 47.848881399], "type": "Point"}, "id": "DmSJRfFUoZTV6su98VluWkVpCak=", "properties": {"@source_uri": "https://tools.usps.com/UspsToolsRestServices/rest/POLocator/findLocations", "@spider": "usps_collection_boxes", "addr:city": "COOK", "addr:country": "US", "addr:postcode": "55723", "addr:state": "MN", "addr:street_address": "201 S HIGHWAY 53", "amenity": "post_box", "collection_times": "Mo-Fr 11:15", "nsi_id": "unitedstatespostalservice-a77078", "operator": "United States Postal Service", "operator:short": "USPS", "operator:type": "public", "operator:wikidata": "Q668687", "ref": "5572300005"}, "type": "Feature"}
{"geometry": {"coordinates": [-92.47654958, 47.167730948], "type": "Point"}, "id": "WtjSb_iAEASW8e1EdISY5PhI3PQ=", "properties": {"@source_uri": "https://tools.usps.com/UspsToolsRestServices/rest/POLocator/findLocations", "@spider": "usps_collection_boxes", "addr:city": "COTTON", "addr:country": "US", "addr:postcode": "55724", "addr:state": "MN", "addr:street_address": "9087 HIGHWAY 53", "amenity": "post_box", "collection_times": "Mo-Sa 12:15", "note": "ON 12/24 AND 12/31, THIS BOX MAY BE COLLECTED AS EARLY AS 12 NOON.", "nsi_id": "unitedstatespostalservice-a77078", "operator": "United States Postal Service", "operator:short": "USPS", "operator:type": "public", "operator:wikidata": "Q668687", "ref": "5572400000"}, "type": "Feature"}
{"geometry": {"coordinates": [-92.47654958, 47.167730948], "type": "Point"}, "id": "FIm5hvGv-HpUMBDf_OyjoeSjtcQ=", "properties": {"@source_uri": "https://tools.usps.com/UspsToolsRestServices/rest/POLocator/findLocations", "@spider": "usps_collection_boxes", "addr:city": "COTTON", "addr:country": "US", "addr:postcode": "55724", "addr:state": "MN", "addr:street_address": "9087 HIGHWAY 53", "amenity": "post_box", "collection_times": "Mo-Fr 12:15; Sa 09:00", "indoor": "yes", "note": "ON 12/24 AND 12/31, THIS BOX MAY BE COLLECTED AS EARLY AS 12 NOON.", "nsi_id": "unitedstatespostalservice-a77078", "operator": "United States Postal Service", "operator:short": "USPS", "operator:type": "public", "operator:wikidata": "Q668687", "ref": "5572400002"}, "type": "Feature"}
{"geometry": {"coordinates": [-92.47654958, 47.167730948], "type": "Point"}, "id": "NiwchxbxjRA_w0_99xJU--qUQlQ=", "properties": {"@source_uri": "https://tools.usps.com/UspsToolsRestServices/rest/POLocator/findLocations", "@spider": "usps_collection_boxes", "addr:city": "COTTON", "addr:country": "US", "addr:postcode": "55724", "addr:state": "MN", "addr:street_address": "9087 HIGHWAY 53", "amenity": "post_box", "collection_times": "Mo-Fr 12:30; Sa 09:00", "indoor": "yes", "note": "ON 12/24 AND 12/31, THIS BOX MAY BE COLLECTED AS EARLY AS 12 NOON.", "nsi_id": "unitedstatespostalservice-a77078", "operator": "United States Postal Service", "operator:short": "USPS", "operator:type": "public", "operator:wikidata": "Q668687", "ref": "5572400004"}, "type": "Feature"}
{"geometry": {"coordinates": [-92.48878705, 48.265408068], "type": "Point"}, "id": "xZP7aM8PomzgzerWvD-oephKkFM=", "properties": {"@source_uri": "https://tools.usps.com/UspsToolsRestServices/rest/POLocator/findLocations", "@spider": "usps_collection_boxes", "addr:city": "CRANE LAKE", "addr:country": "US", "addr:postcode": "55725", "addr:state": "MN", "addr:street_address": "7511 GOLD COAST RD", "amenity": "post_box", "collection_times": "Mo-Sa 07:00", "nsi_id": "unitedstatespostalservice-a77078", "operator": "United States Postal Service", "operator:short": "USPS", "operator:type": "public", "operator:wikidata": "Q668687", "ref": "5572500000"}, "type": "Feature"}
{"geometry": {"coordinates": [-92.48878705, 48.265408068], "type": "Point"}, "id": "ICzx6VBkaqCeuol25Pq5Y8vxWz0=", "properties": {"@source_uri": "https://tools.usps.com/UspsToolsRestServices/rest/POLocator/findLocations", "@spider": "usps_collection_boxes", "addr:city": "CRANE LAKE", "addr:country": "US", "addr:postcode": "55725", "addr:state": "MN", "addr:street_address": "7511 GOLD COAST RD", "amenity": "post_box", "collection_times": "Mo-Sa 07:00", "indoor": "yes", "nsi_id": "unitedstatespostalservice-a77078", "operator": "United States Postal Service", "operator:short": "USPS", "operator:type": "public", "operator:wikidata": "Q668687", "ref": "5572500001"}, "type": "Feature"}
{"geometry": {"coordinates": [-92.48878705, 48.265408068], "type": "Point"}, "id": "W5x8pVUI2XKo7FTdq34oDinHvMQ=", "properties": {"@source_uri": "https://tools.usps.com/UspsToolsRestServices/rest/POLocator/findLocations", "@spider": "usps_collection_boxes", "addr:city": "CRANE LAKE", "addr:country": "US", "addr:postcode": "55725", "addr:state": "MN", "addr:street_address": "7511 GOLD COAST RD", "amenity": "post_box", "collection_times": "Mo-Sa 11:15", "indoor": "yes", "nsi_id": "unitedstatespostalservice-a77078", "operator": "United States Postal Service", "operator:short": "USPS", "operator:type": "public", "operator:wikidata": "Q668687", "ref": "5572500002"}, "type": "Feature"}
{"geometry": {"coordinates": [-92.868321301, 46.678898234], "type": "Point"}, "id": "LAddkUC7J0X9fzse1-Lf9TIcypc=", "properties": {"@source_uri": "https://tools.usps.com/UspsToolsRestServices/rest/POLocator/findLocations", "@spider": "usps_collection_boxes", "addr:city": "CROMWELL", "addr:country": "US", "addr:postcode": "55726", "addr:state": "MN", "addr:street_address": "5570 HIGHWAY 210", "amenity": "post_box", "collection_times": "Mo-Fr 11:45; Sa 08:30", "nsi_id": "unitedstatespostalservice-a77078", "operator": "United States Postal Service", "operator:short": "USPS", "operator:type": "public", "operator:wikidata": "Q668687", "ref": "5572600000"}, "type": "Feature"}
{"geometry": {"coordinates": [-92.868321301, 46.678898234], "type": "Point"}, "id": "BHS-y9qObsZA53OHe5-tJK8NMuI=", "properties": {"@source_uri": "https://tools.usps.com/UspsToolsRestServices/rest/POLocator/findLocations", "@spider": "usps_collection_boxes", "addr:city": "CROMWELL", "addr:country": "US", "addr:postcode": "55726", "addr:state": "MN", "addr:street_address": "5570 HIGHWAY 210", "amenity": "post_box", "collection_times": "Mo-Fr 11:45; Sa 08:45", "indoor": "yes", "nsi_id": "unitedstatespostalservice-a77078", "operator": "United States Postal Service", "operator:short": "USPS", "operator:type": "public", "operator:wikidata": "Q668687", "ref": "5572600001"}, "type": "Feature"}
{"geometry": {"coordinates": [-92.8683213011, 46.6788982336], "type": "Point"}, "id": "yzfN2uoXq8h5C9ZJKAATrKVXA74=", "properties": {"@source_uri": "https://tools.usps.com/UspsToolsRestServices/rest/POLocator/findLocations", "@spider": "usps_collection_boxes", "addr:city": "CROMWELL", "addr:country": "US", "addr:postcode": "55726", "addr:state": "MN", "addr:street_address": "5570 HIGHWAY 210", "amenity": "post_box", "collection_times": "Mo-Fr 12:00; Sa 08:45", "indoor": "yes", "nsi_id": "unitedstatespostalservice-a77078", "operator": "United States Postal Service", "operator:short": "USPS", "operator:type": "public", "operator:wikidata": "Q668687", "ref": "5572600002"}, "type": "Feature"}
{"geometry": {"coordinates": [-91.863971537, 47.901626162], "type": "Point"}, "id": "m20djyA0MdNjfF3mP96B6T1bQjo=", "properties": {"@source_uri": "https://tools.usps.com/UspsToolsRestServices/rest/POLocator/findLocations", "@spider": "usps_collection_boxes", "addr:city": "ELY", "addr:country": "US", "addr:postcode": "55731", "addr:state": "MN", "addr:street_address": "34 S 2ND AVE E", "amenity": "post_box", "collection_times": "Mo-Sa 11:00", "nsi_id": "unitedstatespostalservice-a77078", "operator": "United States Postal Service", "operator:short": "USPS", "operator:type": "public", "operator:wikidata": "Q668687", "ref": "5573100001"}, "type": "Feature"}
{"geometry": {"coordinates": [-91.848411, 47.903199504], "type": "Point"}, "id": "tAjSfDqoxrzflOSYGcNIivWYUI0=", "properties": {"@source_uri": "https://tools.usps.com/UspsToolsRestServices/rest/POLocator/findLocations", "@spider": "usps_collection_boxes", "addr:city": "ELY", "addr:country": "US", "addr:postcode": "55731", "addr:state": "MN", "addr:street_address": "1203 E SHERIDAN ST", "amenity": "post_box", "collection_times": "Mo-Sa 10:00", "nsi_id": "unitedstatespostalservice-a77078", "operator": "United States Postal Service", "operator:short": "USPS", "operator:type": "public", "operator:wikidata": "Q668687", "ref": "5573100005"}, "type": "Feature"}
{"geometry": {"coordinates": [-91.866239665, 47.902281518], "type": "Point"}, "id": "XoFZLlR6cexa7M0KZaNrYpJqPJ0=", "properties": {"@source_uri": "https://tools.usps.com/UspsToolsRestServices/rest/POLocator/findLocations", "@spider": "usps_collection_boxes", "addr:city": "ELY", "addr:country": "US", "addr:postcode": "55731", "addr:state": "MN", "addr:street_address": "22 E CHAPMAN ST", "amenity": "post_box", "collection_times": "Mo-Sa 10:00", "nsi_id": "unitedstatespostalservice-a77078", "operator": "United States Postal Service", "operator:short": "USPS", "operator:type": "public", "operator:wikidata": "Q668687", "ref": "5573100006"}, "type": "Feature"}
{"geometry": {"coordinates": [-91.862950165, 47.903244526], "type": "Point"}, "id": "Swuff6xlAqCmBr72OsYgQGo4KCg=", "properties": {"@source_uri": "https://tools.usps.com/UspsToolsRestServices/rest/POLocator/findLocations", "@spider": "usps_collection_boxes", "addr:city": "ELY", "addr:country": "US", "addr:postcode": "55731", "addr:state": "MN", "addr:street_address": "229 E SHERIDAN ST", "amenity": "post_box", "collection_times": "Mo-Sa 10:00", "nsi_id": "unitedstatespostalservice-a77078", "operator": "United States Postal Service", "operator:short": "USPS", "operator:type": "public", "operator:wikidata": "Q668687", "ref": "5573100007"}, "type": "Feature"}
{"geometry": {"coordinates": [-91.863971537, 47.901626162], "type": "Point"}, "id": "mDt8ztaF-cwad4_KDNDkumrAXVc=", "properties": {"@source_uri": "https://tools.usps.com/UspsToolsRestServices/rest/POLocator/findLocations", "@spider": "usps_collection_boxes", "addr:city": "ELY", "addr:country": "US", "addr:postcode": "55731", "addr:state": "MN", "addr:street_address": "34 S 2ND AVE E", "amenity": "post_box", "collection_times": "Mo-Sa 11:00", "indoor": "yes", "nsi_id": "unitedstatespostalservice-a77078", "operator": "United States Postal Service", "operator:short": "USPS", "operator:type": "public", "operator:wikidata": "Q668687", "ref": "5573100010"}, "type": "Feature"}
{"geometry": {"coordinates": [-91.863971537, 47.901626162], "type": "Point"}, "id": "EVZGz6x7GvqJSgI8ESilAPyAF6I=", "properties": {"@source_uri": "https://tools.usps.com/UspsToolsRestServices/rest/POLocator/findLocations", "@spider": "usps_collection_boxes", "addr:city": "ELY", "addr:country": "US", "addr:postcode": "55731", "addr:state": "MN", "addr:street_address": "34 S 2ND AVE E", "amenity": "post_box", "collection_times": "Mo-Sa 11:00", "indoor": "yes", "nsi_id": "unitedstatespostalservice-a77078", "operator": "United States Postal Service", "operator:short": "USPS", "operator:type": "public", "operator:wikidata": "Q668687", "ref": "5573100012"}, "type": "Feature"}
{"geometry": {"coordinates": [-92.197862342, 47.659620574], "type": "Point"}, "id": "egckdHF4NHaEtBvmTGilfvSoV8U=", "properties": {"@source_uri": "https://tools.usps.com/UspsToolsRestServices/rest/POLocator/findLocations", "@spider": "usps_collection_boxes", "addr:city": "EMBARRASS MN", "addr:country": "US", "addr:postcode": "55732", "addr:state": "MN", "addr:street_address": "4878 HIGHWAY 21", "amenity": "post_box", "collection_times": "Mo-Fr 10:45; Sa 08:45", "nsi_id": "unitedstatespostalservice-a77078", "operator": "United States Postal Service", "operator:short": "USPS", "operator:type": "public", "operator:wikidata": "Q668687", "ref": "5573200000"}, "type": "Feature"}
{"geometry": {"coordinates": [-92.197862342, 47.659620574], "type": "Point"}, "id": "XLX3vm1XhTcKmhkHn8VNJ-S9vxA=", "properties": {"@source_uri": "https://tools.usps.com/UspsToolsRestServices/rest/POLocator/findLocations", "@spider": "usps_collection_boxes", "addr:city": "EMBARRASS MN", "addr:country": "US", "addr:postcode": "55732", "addr:state": "MN", "addr:street_address": "4878 HIGHWAY 21", "amenity": "post_box", "collection_times": "Mo-Fr 10:45; Sa 08:45", "indoor": "yes", "nsi_id": "unitedstatespostalservice-a77078", "operator": "United States Postal Service", "operator:short": "USPS", "operator:type": "public", "operator:wikidata": "Q668687", "ref": "5573200002"}, "type": "Feature"}
{"geometry": {"coordinates": [-92.197862342, 47.659620574], "type": "Point"}, "id": "LxkSMPfC0OUB3MnoLkX9o7gTOVI=", "properties": {"@source_uri": "https://tools.usps.com/UspsToolsRestServices/rest/POLocator/findLocations", "@spider": "usps_collection_boxes", "addr:city": "EMBARRASS MN", "addr:country": "US", "addr:postcode": "55732", "addr:state": "MN", "addr:street_address": "4878 HIGHWAY 21", "amenity": "post_box", "collection_times": "Mo-Fr 11:00; Sa 09:00", "indoor": "yes", "nsi_id": "unitedstatespostalservice-a77078", "operator": "United States Postal Service", "operator:short": "USPS", "operator:type": "public", "operator:wikidata": "Q668687", "ref": "5573200003"}, "type": "Feature"}
{"geometry": {"coordinates": [-92.364639813, 46.706829687], "type": "Point"}, "id": "munMZpuoFkBipO4MmqsPPNJ8a9I=", "properties": {"@source_uri": "https://tools.usps.com/UspsToolsRestServices/rest/POLocator/findLocations", "@spider": "usps_collection_boxes", "addr:city": "ESKO", "addr:country": "US", "addr:postcode": "55733", "addr:state": "MN", "addr:street_address": "10 W HIGHWAY 61", "amenity": "post_box", "collection_times": "Mo-Sa 14:00", "note": "ON 12/24 AND 12/31, THIS BOX MAY BE COLLECTED AS EARLY AS 12 NOON.", "nsi_id": "unitedstatespostalservice-a77078", "operator": "United States Postal Service", "operator:short": "USPS", "operator:type": "public", "operator:wikidata": "Q668687", "ref": "5573300000"}, "type": "Feature"}
{"geometry": {"coordinates": [-92.364639813, 46.706829687], "type": "Point"}, "id": "IfT8BUajYgKC0Zq0y2pZxuKZ10I=", "properties": {"@source_uri": "https://tools.usps.com/UspsToolsRestServices/rest/POLocator/findLocations", "@spider": "usps_collection_boxes", "addr:city": "ESKO", "addr:country": "US", "addr:postcode": "55733", "addr:state": "MN", "addr:street_address": "10 W HIGHWAY 61", "amenity": "post_box", "collection_times": "Mo-Fr 14:00; Sa 09:00", "indoor": "yes", "note": "ON 12/24 AND 12/31, THIS BOX MAY BE COLLECTED AS EARLY AS 12 NOON.", "nsi_id": "unitedstatespostalservice-a77078", "operator": "United States Postal Service", "operator:short": "USPS", "operator:type": "public", "operator:wikidata": "Q668687", "ref": "5573300001"}, "type": "Feature"}
{"geometry": {"coordinates": [-92.364639813, 46.706829687], "type": "Point"}, "id": "faROOWto91P8cqjLO2wAfvTSjB4=", "properties": {"@source_uri": "https://tools.usps.com/UspsToolsRestServices/rest/POLocator/findLocations", "@spider": "usps_collection_boxes", "addr:city": "ESKO", "addr:country": "US", "addr:postcode": "55733", "addr:state": "MN", "addr:street_address": "10 W HIGHWAY 61", "amenity": "post_box", "collection_times": "Mo-Fr 14:00", "indoor": "yes", "note": "ON 12/24 AND 12/31, THIS BOX MAY BE COLLECTED AS EARLY AS 12 NOON.", "nsi_id": "unitedstatespostalservice-a77078", "operator": "United States Postal Service", "operator:short": "USPS", "operator:type": "public", "operator:wikidata": "Q668687", "ref": "5573300002"}, "type": "Feature"}
{"geometry": {"coordinates": [-92.538845057, 47.463441442], "type": "Point"}, "id": "bDV4eBOg9a4coxR3CEMpzuGjVPs=", "properties": {"@source_uri": "https://tools.usps.com/UspsToolsRestServices/rest/POLocator/findLocations", "@spider": "usps_collection_boxes", "addr:city": "EVELETH", "addr:country": "US", "addr:postcode": "55734", "addr:state": "MN", "addr:street_address": "423 JONES ST", "amenity": "post_box", "collection_times": "Mo-Sa 12:00", "nsi_id": "unitedstatespostalservice-a77078", "operator": "United States Postal Service", "operator:short": "USPS", "operator:type": "public", "operator:wikidata": "Q668687", "ref": "5573400000"}, "type": "Feature"}
{"geometry": {"coordinates": [-92.538845057, 47.463441442], "type": "Point"}, "id": "1pPgNW5MVCR7NL9DE_HtKDyS2-Q=", "properties": {"@source_uri": "https://tools.usps.com/UspsToolsRestServices/rest/POLocator/findLocations", "@spider": "usps_collection_boxes", "addr:city": "EVELETH", "addr:country": "US", "addr:postcode": "55734", "addr:state": "MN", "addr:street_address": "423 JONES ST", "amenity": "post_box", "collection_times": "Mo-Sa 12:00", "indoor": "yes", "nsi_id": "unitedstatespostalservice-a77078", "operator": "United States Postal Service", "operator:short": "USPS", "operator:type": "public", "operator:wikidata": "Q668687", "ref": "5573400010"}, "type": "Feature"}
{"geometry": {"coordinates": [-92.538845057, 47.463441442], "type": "Point"}, "id": "HY4TrXotvOEGXJpQcJ0z9djVsKw=", "properties": {"@source_uri": "https://tools.usps.com/UspsToolsRestServices/rest/POLocator/findLocations", "@spider": "usps_collection_boxes", "addr:city": "EVELETH", "addr:country": "US", "addr:postcode": "55734", "addr:state": "MN", "addr:street_address": "423 JONES ST", "amenity": "post_box", "collection_times": "Mo-Fr 12:05; Sa 10:45", "indoor": "yes", "note": "ON 12/24 AND 12/31, THIS BOX MAY BE COLLECTED AS EARLY AS 12 NOON.", "nsi_id": "unitedstatespostalservice-a77078", "operator": "United States Postal Service", "operator:short": "USPS", "operator:type": "public", "operator:wikidata": "Q668687", "ref": "5573400013"}, "type": "Feature"}
{"geometry": {"coordinates": [-92.916681386, 46.200815453], "type": "Point"}, "id": "63W-xrVmpYLowFviVu5hzoNm4Ow=", "properties": {"@source_uri": "https://tools.usps.com/UspsToolsRestServices/rest/POLocator/findLocations", "@spider": "usps_collection_boxes", "addr:city": "FINLAYSON", "addr:country": "US", "addr:postcode": "55735", "addr:state": "MN", "addr:street_address": "2217 FINLAND AVE", "amenity": "post_box", "collection_times": "Mo-Fr 10:45; Sa 10:00", "indoor": "yes", "nsi_id": "unitedstatespostalservice-a77078", "operator": "United States Postal Service", "operator:short": "USPS", "operator:type": "public", "operator:wikidata": "Q668687", "ref": "5573500001"}, "type": "Feature"}
{"geometry": {"coordinates": [-92.916681386, 46.200815453], "type": "Point"}, "id": "bq8VgtRwfT0qyo5qJ8y1pyucYb4=", "properties": {"@source_uri": "https://tools.usps.com/UspsToolsRestServices/rest/POLocator/findLocations", "@spider": "usps_collection_boxes", "addr:city": "FINLAYSON", "addr:country": "US", "addr:postcode": "55735", "addr:state": "MN", "addr:street_address": "2217 FINLAND AVE", "amenity": "post_box", "collection_times": "Mo-Fr 11:00; Sa 10:00", "indoor": "yes", "nsi_id": "unitedstatespostalservice-a77078", "operator": "United States Postal Service", "operator:short": "USPS", "operator:type": "public", "operator:wikidata": "Q668687", "ref": "5573500003"}, "type": "Feature"}
{"geometry": {"coordinates": [-93.0116714, 46.2156821], "type": "Point"}, "id": "_WzRSGQ6tcVLQJ8lKZy8serVHxw=", "properties": {"@source_uri": "https://tools.usps.com/UspsToolsRestServices/rest/POLocator/findLocations", "@spider": "usps_collection_boxes", "addr:city": "FINLAYSON", "addr:country": "US", "addr:postcode": "55735", "addr:state": "MN", "addr:street_address": "2217 FINLAND AVE", "amenity": "post_box", "collection_times": "Mo-Fr 15:15; Sa 09:45", "note": "ON 12/24 AND 12/31, THIS BOX MAY BE COLLECTED AS EARLY AS 12 NOON.", "nsi_id": "unitedstatespostalservice-a77078", "operator": "United States Postal Service", "operator:short": "USPS", "operator:type": "public", "operator:wikidata": "Q668687", "ref": "5573500004"}, "type": "Feature"}
{"geometry": {"coordinates": [-92.916022584, 46.926920536], "type": "Point"}, "id": "OJL41aO0_SsBPwVg0MAfheSl8sQ=", "properties": {"@source_uri": "https://tools.usps.com/UspsToolsRestServices/rest/POLocator/findLocations", "@spider": "usps_collection_boxes", "addr:city": "FLOODWOOD", "addr:country": "US", "addr:postcode": "55736", "addr:state": "MN", "addr:street_address": "118 W 7TH AVE", "amenity": "post_box", "collection_times": "Mo-Sa 12:15", "note": "ON 12/24 AND 12/31, THIS BOX MAY BE COLLECTED AS EARLY AS 12 NOON.", "nsi_id": "unitedstatespostalservice-a77078", "operator": "United States Postal Service", "operator:short": "USPS", "operator:type": "public", "operator:wikidata": "Q668687", "ref": "5573600000"}, "type": "Feature"}
{"geometry": {"coordinates": [-92.916022584, 46.926920536], "type": "Point"}, "id": "YTFLBea3JRYIOv44JaijsTtLhy8=", "properties": {"@source_uri": "https://tools.usps.com/UspsToolsRestServices/rest/POLocator/findLocations", "@spider": "usps_collection_boxes", "addr:city": "FLOODWOOD", "addr:country": "US", "addr:postcode": "55736", "addr:state": "MN", "addr:street_address": "118 W 7TH AVE", "amenity": "post_box", "collection_times": "Mo-Fr 12:15", "indoor": "yes", "note": "ON 12/24 AND 12/31, THIS BOX MAY BE COLLECTED AS EARLY AS 12 NOON.", "nsi_id": "unitedstatespostalservice-a77078", "operator": "United States Postal Service", "operator:short": "USPS", "operator:type": "public", "operator:wikidata": "Q668687", "ref": "5573600001"}, "type": "Feature"}
{"geometry": {"coordinates": [-92.916022584, 46.926920536], "type": "Point"}, "id": "OfkBup95j2wY2P1LN1OJiHhZato=", "properties": {"@source_uri": "https://tools.usps.com/UspsToolsRestServices/rest/POLocator/findLocations", "@spider": "usps_collection_boxes", "addr:city": "FLOODWOOD", "addr:country": "US", "addr:postcode": "55736", "addr:state": "MN", "addr:street_address": "118 W 7TH AVE", "amenity": "post_box", "collection_times": "Mo-Fr 12:30", "indoor": "yes", "note": "ON 12/24 AND 12/31, THIS BOX MAY BE COLLECTED AS EARLY AS 12 NOON.", "nsi_id": "unitedstatespostalservice-a77078", "operator": "United States Postal Service", "operator:short": "USPS", "operator:type": "public", "operator:wikidata": "Q668687", "ref": "5573600002"}, "type": "Feature"}
{"geometry": {"coordinates": [-92.600093745, 47.37177321], "type": "Point"}, "id": "7GFRIwHAfKRWYydpR1omm2V64uQ=", "properties": {"@source_uri": "https://tools.usps.com/UspsToolsRestServices/rest/POLocator/findLocations", "@spider": "usps_collection_boxes", "addr:city": "FORBES", "addr:country": "US", "addr:postcode": "55738", "addr:state": "MN", "addr:street_address": "3525 HIGHWAY 7", "amenity": "post_box", "collection_times": "Mo-Sa 11:30", "nsi_id": "unitedstatespostalservice-a77078", "operator": "United States Postal Service", "operator:short": "USPS", "operator:type": "public", "operator:wikidata": "Q668687", "ref": "5573800000"}, "type": "Feature"}
{"geometry": {"coordinates": [-92.600093745, 47.37177321], "type": "Point"}, "id": "BEkCnI54esCR1mAs9nqe1ngqPxE=", "properties": {"@source_uri": "https://tools.usps.com/UspsToolsRestServices/rest/POLocator/findLocations", "@spider": "usps_collection_boxes", "addr:city": "FORBES", "addr:country": "US", "addr:postcode": "55738", "addr:state": "MN", "addr:street_address": "3525 HIGHWAY 7", "amenity": "post_box", "collection_times": "Mo-Fr 11:30; Sa 11:15", "indoor": "yes", "nsi_id": "unitedstatespostalservice-a77078", "operator": "United States Postal Service", "operator:short": "USPS", "operator:type": "public", "operator:wikidata": "Q668687", "ref": "5573800001"}, "type": "Feature"}
{"geometry": {"coordinates": [-92.600093745, 47.37177321], "type": "Point"}, "id": "VmQb5P4oIa4KH8cbDppRdlv6sbo=", "properties": {"@source_uri": "https://tools.usps.com/UspsToolsRestServices/rest/POLocator/findLocations", "@spider": "usps_collection_boxes", "addr:city": "FORBES", "addr:country": "US", "addr:postcode": "55738", "addr:state": "MN", "addr:street_address": "3525 HIGHWAY 7", "amenity": "post_box", "collection_times": "Mo-Fr 11:30; Sa 11:15", "indoor": "yes", "nsi_id": "unitedstatespostalservice-a77078", "operator": "United States Postal Service", "operator:short": "USPS", "operator:type": "public", "operator:wikidata": "Q668687", "ref": "5573800002"}, "type": "Feature"}
{"geometry": {"coordinates": [-92.4667000177, 47.4875799881], "type": "Point"}, "id": "UZmJqfPl4JPGPmcMOUk2TdW3lUw=", "properties": {"@source_uri": "https://tools.usps.com/UspsToolsRestServices/rest/POLocator/findLocations", "@spider": "usps_collection_boxes", "addr:city": "GILBERT", "addr:country": "US", "addr:postcode": "55741", "addr:state": "MN", "addr:street_address": "2 N BROADWAY AVE", "amenity": "post_box", "collection_times": "Mo-Fr 12:15; Sa 09:30", "note": "ON 12/24 AND 12/31, THIS BOX MAY BE COLLECTED AS EARLY AS 12 NOON.", "nsi_id": "unitedstatespostalservice-a77078", "operator": "United States Postal Service", "operator:short": "USPS", "operator:type": "public", "operator:wikidata": "Q668687", "ref": "5574100000"}, "type": "Feature"}
{"geometry": {"coordinates": [-92.466405752, 47.487428821], "type": "Point"}, "id": "JZ3AIMzqnTdy6cT5q7dvVOGOW4g=", "properties": {"@source_uri": "https://tools.usps.com/UspsToolsRestServices/rest/POLocator/findLocations", "@spider": "usps_collection_boxes", "addr:city": "GILBERT", "addr:country": "US", "addr:postcode": "55741", "addr:state": "MN", "addr:street_address": "2 N BROADWAY AVE", "amenity": "post_box", "collection_times": "Mo-Fr 12:15", "indoor": "yes", "note": "ON 12/24 AND 12/31, THIS BOX MAY BE COLLECTED AS EARLY AS 12 NOON.", "nsi_id": "unitedstatespostalservice-a77078", "operator": "United States Postal Service", "operator:short": "USPS", "operator:type": "public", "operator:wikidata": "Q668687", "ref": "5574100002"}, "type": "Feature"}
{"geometry": {"coordinates": [-92.466405752, 47.487428821], "type": "Point"}, "id": "0EieWoG1OXL6WRLbLrVRC1JoNuQ=", "properties": {"@source_uri": "https://tools.usps.com/UspsToolsRestServices/rest/POLocator/findLocations", "@spider": "usps_collection_boxes", "addr:city": "GILBERT", "addr:country": "US", "addr:postcode": "55741", "addr:state": "MN", "addr:street_address": "2 N BROADWAY AVE", "amenity": "post_box", "collection_times": "Mo-Fr 12:30", "indoor": "yes", "note": "ON 12/24 AND 12/31, THIS BOX MAY BE COLLECTED AS EARLY AS 12 NOON.", "nsi_id": "unitedstatespostalservice-a77078", "operator": "United States Postal Service", "operator:short": "USPS", "operator:type": "public", "operator:wikidata": "Q668687", "ref": "5574100003"}, "type": "Feature"}
{"geometry": {"coordinates": [-93.529892946, 47.237355335], "type": "Point"}, "id": "jlibkmPszPzHN6UE5UjSaWT3qrQ=", "properties": {"@source_uri": "https://tools.usps.com/UspsToolsRestServices/rest/POLocator/findLocations", "@spider": "usps_collection_boxes", "addr:city": "GRAND RAPIDS", "addr:country": "US", "addr:postcode": "55744", "addr:state": "MN", "addr:street_address": "505 NW 1ST AVE", "amenity": "post_box", "collection_times": "Mo-Sa 12:15", "note": "ON 12/24 AND 12/31, THIS BOX MAY BE COLLECTED AS EARLY AS 12 NOON.", "nsi_id": "unitedstatespostalservice-a77078", "operator": "United States Postal Service", "operator:short": "USPS", "operator:type": "public", "operator:wikidata": "Q668687", "ref": "5574400000"}, "type": "Feature"}
{"geometry": {"coordinates": [-93.529871501, 47.235078], "type": "Point"}, "id": "hyXwG8xu7B6inNGITajhErff2D4=", "properties": {"@source_uri": "https://tools.usps.com/UspsToolsRestServices/rest/POLocator/findLocations", "@spider": "usps_collection_boxes", "addr:city": "GRAND RAPIDS", "addr:country": "US", "addr:postcode": "55744", "addr:state": "MN", "addr:street_address": "301 NW 1ST AVE", "amenity": "post_box", "collection_times": "Mo-Sa 10:00", "nsi_id": "unitedstatespostalservice-a77078", "operator": "United States Postal Service", "operator:short": "USPS", "operator:type": "public", "operator:wikidata": "Q668687", "ref": "5574400010"}, "type": "Feature"}
{"geometry": {"coordinates": [-93.52871073, 47.207049653], "type": "Point"}, "id": "K3lP08rBoI-n56skAr-oyiDsU5k=", "properties": {"@source_uri": "https://tools.usps.com/UspsToolsRestServices/rest/POLocator/findLocations", "@spider": "usps_collection_boxes", "addr:city": "GRAND RAPIDS", "addr:country": "US", "addr:postcode": "55744", "addr:state": "MN", "addr:street_address": "2410 S POKEGAMA AVE", "amenity": "post_box", "collection_times": "Mo-Sa 10:00", "nsi_id": "unitedstatespostalservice-a77078", "operator": "United States Postal Service", "operator:short": "USPS", "operator:type": "public", "operator:wikidata": "Q668687", "ref": "5574400020"}, "type": "Feature"}
{"geometry": {"coordinates": [-93.529892946, 47.237355335], "type": "Point"}, "id": "lHb48mXQ0zm22MSTGwRse6BrJnk=", "properties": {"@source_uri": "https://tools.usps.com/UspsToolsRestServices/rest/POLocator/findLocations", "@spider": "usps_collection_boxes", "addr:city": "GRAND RAPIDS", "addr:country": "US", "addr:postcode": "55744", "addr:state": "MN", "addr:street_address": "505 NW 1ST AVE", "amenity": "post_box", "collection_times": "Mo-Sa 12:15", "indoor": "yes", "note": "ON 12/24 AND 12/31, THIS BOX MAY BE COLLECTED AS EARLY AS 12 NOON.", "nsi_id": "unitedstatespostalservice-a77078", "operator": "United States Postal Service", "operator:short": "USPS", "operator:type": "public", "operator:wikidata": "Q668687", "ref": "5574400021"}, "type": "Feature"}
{"geometry": {"coordinates": [-93.529892946, 47.237355335], "type": "Point"}, "id": "Rj_2j6Ngnp8oXg3wzq9EFNmoYX0=", "properties": {"@source_uri": "https://tools.usps.com/UspsToolsRestServices/rest/POLocator/findLocations", "@spider": "usps_collection_boxes", "addr:city": "GRAND RAPIDS", "addr:country": "US", "addr:postcode": "55744", "addr:state": "MN", "addr:street_address": "505 NW 1ST AVE", "amenity": "post_box", "collection_times": "Mo-Fr 12:15; Sa 12:00", "indoor": "yes", "note": "ON 12/24 AND 12/31, THIS BOX MAY BE COLLECTED AS EARLY AS 12 NOON.", "nsi_id": "unitedstatespostalservice-a77078", "operator": "United States Postal Service", "operator:short": "USPS", "operator:type": "public", "operator:wikidata": "Q668687", "ref": "5574400025"}, "type": "Feature"}
{"geometry": {"coordinates": [-92.93920996, 47.42841709], "type": "Point"}, "id": "SyMi1QvIBspOE9iV-ONt24Dlf8A=", "properties": {"@source_uri": "https://tools.usps.com/UspsToolsRestServices/rest/POLocator/findLocations", "@spider": "usps_collection_boxes", "addr:city": "HIBBING", "addr:country": "US", "addr:postcode": "55746", "addr:state": "MN", "addr:street_address": "1902 3RD AVE E", "amenity": "post_box", "collection_times": "Mo-Sa 11:45", "nsi_id": "unitedstatespostalservice-a77078", "operator": "United States Postal Service", "operator:short": "USPS", "operator:type": "public", "operator:wikidata": "Q668687", "ref": "5574600001"}, "type": "Feature"}
{"geometry": {"coordinates": [-92.941793091, 47.414772], "type": "Point"}, "id": "3vtQgHHcDoFyd_bSt3htmaSH9kI=", "properties": {"@source_uri": "https://tools.usps.com/UspsToolsRestServices/rest/POLocator/findLocations", "@spider": "usps_collection_boxes", "addr:city": "HIBBING", "addr:country": "US", "addr:postcode": "55746", "addr:state": "MN", "addr:street_address": "3017 1ST AVE", "amenity": "post_box", "collection_times": "Mo-Sa 10:00", "nsi_id": "unitedstatespostalservice-a77078", "operator": "United States Postal Service", "operator:short": "USPS", "operator:type": "public", "operator:wikidata": "Q668687", "ref": "5574600003"}, "type": "Feature"}
{"geometry": {"coordinates": [-92.94156104, 47.405797659], "type": "Point"}, "id": "BdRUX-fGWPv9EtHVvA5OpoDLpwI=", "properties": {"@source_uri": "https://tools.usps.com/UspsToolsRestServices/rest/POLocator/findLocations", "@spider": "usps_collection_boxes", "addr:city": "HIBBING", "addr:country": "US", "addr:postcode": "55746", "addr:state": "MN", "addr:street_address": "3817 1ST AVE", "amenity": "post_box", "collection_times": "Mo-Sa 10:00", "nsi_id": "unitedstatespostalservice-a77078", "operator": "United States Postal Service", "operator:short": "USPS", "operator:type": "public", "operator:wikidata": "Q668687", "ref": "5574600004"}, "type": "Feature"}
{"geometry": {"coordinates": [-92.92724185, 47.406634454], "type": "Point"}, "id": "gabiAKPTLIO2vl0bE7p8wiwLXic=", "properties": {"@source_uri": "https://tools.usps.com/UspsToolsRestServices/rest/POLocator/findLocations", "@spider": "usps_collection_boxes", "addr:city": "HIBBING", "addr:country": "US", "addr:postcode": "55746", "addr:state": "MN", "addr:street_address": "1101 E 37TH ST", "amenity": "post_box", "collection_times": "Mo-Sa 10:15", "nsi_id": "unitedstatespostalservice-a77078", "operator": "United States Postal Service", "operator:short": "USPS", "operator:type": "public", "operator:wikidata": "Q668687", "ref": "5574600011"}, "type": "Feature"}
{"geometry": {"coordinates": [-92.9224090059, 47.4161199887], "type": "Point"}, "id": "2uRtrouLxTvQauFqLZGi6vBqeI0=", "properties": {"@source_uri": "https://tools.usps.com/UspsToolsRestServices/rest/POLocator/findLocations", "@spider": "usps_collection_boxes", "addr:city": "HIBBING", "addr:country": "US", "addr:postcode": "55746", "addr:state": "MN", "addr:street_address": "2900 E BELTLINE", "amenity": "post_box", "collection_times": "Mo-Sa 10:00", "nsi_id": "unitedstatespostalservice-a77078", "operator": "United States Postal Service", "operator:short": "USPS", "operator:type": "public", "operator:wikidata": "Q668687", "ref": "5574600020"}, "type": "Feature"}
{"geometry": {"coordinates": [-92.925527853, 47.402453463], "type": "Point"}, "id": "MGrsPZH4Xx-w6nm5J5AUCi7RxgY=", "properties": {"@source_uri": "https://tools.usps.com/UspsToolsRestServices/rest/POLocator/findLocations", "@spider": "usps_collection_boxes", "addr:city": "HIBBING", "addr:country": "US", "addr:postcode": "55746", "addr:state": "MN", "addr:street_address": "3920 13TH AVE E", "amenity": "post_box", "collection_times": "Mo-Sa 10:00", "nsi_id": "unitedstatespostalservice-a77078", "operator": "United States Postal Service", "operator:short": "USPS", "operator:type": "public", "operator:wikidata": "Q668687", "ref": "5574600021"}, "type": "Feature"}
{"geometry": {"coordinates": [-92.93920996, 47.42841709], "type": "Point"}, "id": "kY3KqUvphLGEkKUJ3uppZDWjRS4=", "properties": {"@source_uri": "https://tools.usps.com/UspsToolsRestServices/rest/POLocator/findLocations", "@spider": "usps_collection_boxes", "addr:city": "HIBBING", "addr:country": "US", "addr:postcode": "55746", "addr:state": "MN", "addr:street_address": "1902 3RD AVE E", "amenity": "post_box", "collection_times": "Mo-Sa 11:45", "indoor": "yes", "nsi_id": "unitedstatespostalservice-a77078", "operator": "United States Postal Service", "operator:short": "USPS", "operator:type": "public", "operator:wikidata": "Q668687", "ref": "5574600025"}, "type": "Feature"}
{"geometry": {"coordinates": [-92.960923621, 47.399916524], "type": "Point"}, "id": "-csF_7DDlZ8y6SikV8wr3DrzSRc=", "properties": {"@source_uri": "https://tools.usps.com/UspsToolsRestServices/rest/POLocator/findLocations", "@spider": "usps_collection_boxes", "addr:city": "HIBBING", "addr:country": "US", "addr:postcode": "55746", "addr:state": "MN", "addr:street_address": "12080 HIGHWAY 169 W", "amenity": "post_box", "collection_times": "Mo-Sa 10:30", "nsi_id": "unitedstatespostalservice-a77078", "operator": "United States Postal Service", "operator:short": "USPS", "operator:type": "public", "operator:wikidata": "Q668687", "ref": "5574600028"}, "type": "Feature"}
{"geometry": {"coordinates": [-92.93920996, 47.42841709], "type": "Point"}, "id": "SXFaUip14HHUmg5kA5rO-t5FtP4=", "properties": {"@source_uri": "https://tools.usps.com/UspsToolsRestServices/rest/POLocator/findLocations", "@spider": "usps_collection_boxes", "addr:city": "HIBBING", "addr:country": "US", "addr:postcode": "55746", "addr:state": "MN", "addr:street_address": "1902 3RD AVE E", "amenity": "post_box", "collection_times": "Mo-Sa 11:45", "indoor": "yes", "nsi_id": "unitedstatespostalservice-a77078", "operator": "United States Postal Service", "operator:short": "USPS", "operator:type": "public", "operator:wikidata": "Q668687", "ref": "5574600030"}, "type": "Feature"}
{"geometry": {"coordinates": [-93.596622831, 46.992290505], "type": "Point"}, "id": "NibwTTFRZVbdFMBBZLiUQuI99Mk=", "properties": {"@source_uri": "https://tools.usps.com/UspsToolsRestServices/rest/POLocator/findLocations", "@spider": "usps_collection_boxes", "addr:city": "HILL CITY", "addr:country": "US", "addr:postcode": "55748", "addr:state": "MN", "addr:street_address": "133 LAKE AVE", "amenity": "post_box", "collection_times": "Mo-Sa 10:00", "nsi_id": "unitedstatespostalservice-a77078", "operator": "United States Postal Service", "operator:short": "USPS", "operator:type": "public", "operator:wikidata": "Q668687", "ref": "5574800000"}, "type": "Feature"}
{"geometry": {"coordinates": [-93.596622831, 46.992290505], "type": "Point"}, "id": "c1iwFzZKsrCHdXBkejIYT75R-os=", "properties": {"@source_uri": "https://tools.usps.com/UspsToolsRestServices/rest/POLocator/findLocations", "@spider": "usps_collection_boxes", "addr:city": "HILL CITY", "addr:country": "US", "addr:postcode": "55748", "addr:state": "MN", "addr:street_address": "133 LAKE AVE", "amenity": "post_box", "collection_times": "Mo-Sa 10:00", "indoor": "yes", "nsi_id": "unitedstatespostalservice-a77078", "operator": "United States Postal Service", "operator:short": "USPS", "operator:type": "public", "operator:wikidata": "Q668687", "ref": "5574800001"}, "type": "Feature"}
{"geometry": {"coordinates": [-93.596622831, 46.992290505], "type": "Point"}, "id": "oeejBXtm_NfagbVH5HDq8oRhgY0=", "properties": {"@source_uri": "https://tools.usps.com/UspsToolsRestServices/rest/POLocator/findLocations", "@spider": "usps_collection_boxes", "addr:city": "HILL CITY", "addr:country": "US", "addr:postcode": "55748", "addr:state": "MN", "addr:street_address": "133 LAKE AVE", "amenity": "post_box", "collection_times": "Mo-Fr 10:45; Sa 10:00", "indoor": "yes", "nsi_id": "unitedstatespostalservice-a77078", "operator": "United States Postal Service", "operator:short": "USPS", "operator:type": "public", "operator:wikidata": "Q668687", "ref": "5574800002"}, "type": "Feature"}
{"geometry": {"coordinates": [-92.14359567, 47.519790418], "type": "Point"}, "id": "h1Aw9G2Xx762AU7AkAoMy_rH1OY=", "properties": {"@source_uri": "https://tools.usps.com/UspsToolsRestServices/rest/POLocator/findLocations", "@spider": "usps_collection_boxes", "addr:city": "HOYT LAKES", "addr:country": "US", "addr:postcode": "55750", "addr:state": "MN", "addr:street_address": "281 KENNEDY MEMORIAL DR", "amenity": "post_box", "collection_times": "Mo-Fr 16:00; Sa 11:45", "note": "ON 12/24 AND 12/31, THIS BOX MAY BE COLLECTED AS EARLY AS 12 NOON.", "nsi_id": "unitedstatespostalservice-a77078", "operator": "United States Postal Service", "operator:short": "USPS", "operator:type": "public", "operator:wikidata": "Q668687", "ref": "5575000000"}, "type": "Feature"}
{"geometry": {"coordinates": [-92.14359567, 47.519790418], "type": "Point"}, "id": "Vjvype8M4-rxejeOHXwAg72yRGA=", "properties": {"@source_uri": "https://tools.usps.com/UspsToolsRestServices/rest/POLocator/findLocations", "@spider": "usps_collection_boxes", "addr:city": "HOYT LAKES", "addr:country": "US", "addr:postcode": "55750", "addr:state": "MN", "addr:street_address": "281 KENNEDY MEMORIAL DR", "amenity": "post_box", "collection_times": "Mo-Fr 11:45; Sa 10:15", "indoor": "yes", "nsi_id": "unitedstatespostalservice-a77078", "operator": "United States Postal Service", "operator:short": "USPS", "operator:type": "public", "operator:wikidata": "Q668687", "ref": "5575000010"}, "type": "Feature"}
{"geometry": {"coordinates": [-92.14359567, 47.519790418], "type": "Point"}, "id": "meAS_bPstTMuD5V_Iyp1nELaG3g=", "properties": {"@source_uri": "https://tools.usps.com/UspsToolsRestServices/rest/POLocator/findLocations", "@spider": "usps_collection_boxes", "addr:city": "HOYT LAKES", "addr:country": "US", "addr:postcode": "55750", "addr:state": "MN", "addr:street_address": "281 KENNEDY MEMORIAL DR", "amenity": "post_box", "collection_times": "Mo-Fr 11:00", "indoor": "yes", "nsi_id": "unitedstatespostalservice-a77078", "operator": "United States Postal Service", "operator:short": "USPS", "operator:type": "public", "operator:wikidata": "Q668687", "ref": "5575000011"}, "type": "Feature"}
{"geometry": {"coordinates": [-92.6044389944, 47.4175569822], "type": "Point"}, "id": "dBFqcrftFB5PgK444aJ1cPVVSC4=", "properties": {"@source_uri": "https://tools.usps.com/UspsToolsRestServices/rest/POLocator/findLocations", "@spider": "usps_collection_boxes", "addr:city": "IRON", "addr:country": "US", "addr:postcode": "55751", "addr:state": "MN", "addr:street_address": "4123 MERRITT AVE", "amenity": "post_box", "collection_times": "Mo-Sa 11:30", "nsi_id": "unitedstatespostalservice-a77078", "operator": "United States Postal Service", "operator:short": "USPS", "operator:type": "public", "operator:wikidata": "Q668687", "ref": "5575100000"}, "type": "Feature"}
{"geometry": {"coordinates": [-92.6044389944, 47.4175569822], "type": "Point"}, "id": "6IvhNgj7z9D1ggZbZmtjjoQ82os=", "properties": {"@source_uri": "https://tools.usps.com/UspsToolsRestServices/rest/POLocator/findLocations", "@spider": "usps_collection_boxes", "addr:city": "IRON", "addr:country": "US", "addr:postcode": "55751", "addr:state": "MN", "addr:street_address": "4123 MERRITT AVE", "amenity": "post_box", "collection_times": "Mo-Fr 11:30; Sa 11:15", "indoor": "yes", "nsi_id": "unitedstatespostalservice-a77078", "operator": "United States Postal Service", "operator:short": "USPS", "operator:type": "public", "operator:wikidata": "Q668687", "ref": "5575100001"}, "type": "Feature"}
{"geometry": {"coordinates": [-92.6044389944, 47.4175569822], "type": "Point"}, "id": "Ob4ilyNaQhXzz7KXzYTQWUXf6Qs=", "properties": {"@source_uri": "https://tools.usps.com/UspsToolsRestServices/rest/POLocator/findLocations", "@spider": "usps_collection_boxes", "addr:city": "IRON", "addr:country": "US", "addr:postcode": "55751", "addr:state": "MN", "addr:street_address": "4123 MERRITT AVE", "amenity": "post_box", "collection_times": "Mo-Fr 11:35; Sa 11:15", "indoor": "yes", "nsi_id": "unitedstatespostalservice-a77078", "operator": "United States Postal Service", "operator:short": "USPS", "operator:type": "public", "operator:wikidata": "Q668687", "ref": "5575100002"}, "type": "Feature"}
{"geometry": {"coordinates": [-93.075004187, 47.398810936], "type": "Point"}, "id": "jK-FlLMHXniVA_R-I-ffdWnkCgo=", "properties": {"@source_uri": "https://tools.usps.com/UspsToolsRestServices/rest/POLocator/findLocations", "@spider": "usps_collection_boxes", "addr:city": "KEEWATIN", "addr:country": "US", "addr:postcode": "55753", "addr:state": "MN", "addr:street_address": "123 3RD AVE", "amenity": "post_box", "collection_times": "Mo-Fr 15:45; Sa 10:45", "note": "ON 12/24 AND 12/31, THIS BOX MAY BE COLLECTED AS EARLY AS 12 NOON.", "nsi_id": "unitedstatespostalservice-a77078", "operator": "United States Postal Service", "operator:short": "USPS", "operator:type": "public", "operator:wikidata": "Q668687", "ref": "5575300000"}, "type": "Feature"}
{"geometry": {"coordinates": [-93.075004187, 47.398810936], "type": "Point"}, "id": "tA4PXkG9N-whXhpT5jIXDfIzInc=", "properties": {"@source_uri": "https://tools.usps.com/UspsToolsRestServices/rest/POLocator/findLocations", "@spider": "usps_collection_boxes", "addr:city": "KEEWATIN", "addr:country": "US", "addr:postcode": "55753", "addr:state": "MN", "addr:street_address": "123 3RD AVE", "amenity": "post_box", "collection_times": "Mo-Sa 10:45", "indoor": "yes", "nsi_id": "unitedstatespostalservice-a77078", "operator": "United States Postal Service", "operator:short": "USPS", "operator:type": "public", "operator:wikidata": "Q668687", "ref": "5575300001"}, "type": "Feature"}
{"geometry": {"coordinates": [-93.079146199, 47.396747109], "type": "Point"}, "id": "_gviTIAQUGSCE1Xzb-mXZj5Tn9c=", "properties": {"@source_uri": "https://tools.usps.com/UspsToolsRestServices/rest/POLocator/findLocations", "@spider": "usps_collection_boxes", "addr:city": "KEEWATIN", "addr:country": "US", "addr:postcode": "55753", "addr:state": "MN", "addr:street_address": "123 3RD ST S", "amenity": "post_box", "collection_times": "Mo-Fr 10:00", "indoor": "yes", "nsi_id": "unitedstatespostalservice-a77078", "operator": "United States Postal Service", "operator:short": "USPS", "operator:type": "public", "operator:wikidata": "Q668687", "ref": "5575300003"}, "type": "Feature"}
{"geometry": {"coordinates": [-92.586341681, 46.339974052], "type": "Point"}, "id": "KIUM_auPCW9SjBBnlpskn6DckIc=", "properties": {"@source_uri": "https://tools.usps.com/UspsToolsRestServices/rest/POLocator/findLocations", "@spider": "usps_collection_boxes", "addr:city": "KERRICK", "addr:country": "US", "addr:postcode": "55756", "addr:state": "MN", "addr:street_address": "8384 MAIN ST", "amenity": "post_box", "collection_times": "Mo-Fr 11:15; Sa 09:45", "nsi_id": "unitedstatespostalservice-a77078", "operator": "United States Postal Service", "operator:short": "USPS", "operator:type": "public", "operator:wikidata": "Q668687", "ref": "5575600000"}, "type": "Feature"}
{"geometry": {"coordinates": [-92.586341681, 46.339974052], "type": "Point"}, "id": "bUB9XNC-mTkX-nR954pZSlN7eqE=", "properties": {"@source_uri": "https://tools.usps.com/UspsToolsRestServices/rest/POLocator/findLocations", "@spider": "usps_collection_boxes", "addr:city": "KERRICK", "addr:country": "US", "addr:postcode": "55756", "addr:state": "MN", "addr:street_address": "8384 MAIN ST", "amenity": "post_box", "collection_times": "Mo-Fr 10:45; Sa 09:30", "indoor": "yes", "nsi_id": "unitedstatespostalservice-a77078", "operator": "United States Postal Service", "operator:short": "USPS", "operator:type": "public", "operator:wikidata": "Q668687", "ref": "5575600002"}, "type": "Feature"}
{"geometry": {"coordinates": [-92.586341681, 46.339974052], "type": "Point"}, "id": "5Nl2o5VDDyOIPrk_gwd3lwwZRC8=", "properties": {"@source_uri": "https://tools.usps.com/UspsToolsRestServices/rest/POLocator/findLocations", "@spider": "usps_collection_boxes", "addr:city": "KERRICK", "addr:country": "US", "addr:postcode": "55756", "addr:state": "MN", "addr:street_address": "8384 MAIN ST", "amenity": "post_box", "collection_times": "Mo-Fr 10:35; Sa 10:00", "indoor": "yes", "nsi_id": "unitedstatespostalservice-a77078", "operator": "United States Postal Service", "operator:short": "USPS", "operator:type": "public", "operator:wikidata": "Q668687", "ref": "5575600003"}, "type": "Feature"}
{"geometry": {"coordinates": [-92.877454187, 46.489445209], "type": "Point"}, "id": "MTDu658Ddk4hKiVDHR7pbJr90RA=", "properties": {"@source_uri": "https://tools.usps.com/UspsToolsRestServices/rest/POLocator/findLocations", "@spider": "usps_collection_boxes", "addr:city": "KETTLE RIVER", "addr:country": "US", "addr:postcode": "55757", "addr:state": "MN", "addr:street_address": "3970 MAIN ST", "amenity": "post_box", "collection_times": "Mo-Fr 10:45; Sa 08:15", "nsi_id": "unitedstatespostalservice-a77078", "operator": "United States Postal Service", "operator:short": "USPS", "operator:type": "public", "operator:wikidata": "Q668687", "ref": "5575700000"}, "type": "Feature"}
{"geometry": {"coordinates": [-92.877454187, 46.489445209], "type": "Point"}, "id": "tqDbT7iaYGp5TfuE5C2AP4jret4=", "properties": {"@source_uri": "https://tools.usps.com/UspsToolsRestServices/rest/POLocator/findLocations", "@spider": "usps_collection_boxes", "addr:city": "KETTLE RIVER", "addr:country": "US", "addr:postcode": "55757", "addr:state": "MN", "addr:street_address": "3970 MAIN ST", "amenity": "post_box", "collection_times": "Mo-Fr 11:00; Sa 09:00", "indoor": "yes", "nsi_id": "unitedstatespostalservice-a77078", "operator": "United States Postal Service", "operator:short": "USPS", "operator:type": "public", "operator:wikidata": "Q668687", "ref": "5575700001"}, "type": "Feature"}
{"geometry": {"coordinates": [-92.877454187, 46.489445209], "type": "Point"}, "id": "2WoCJRfhWgFBZf-ncdv6G7BMTps=", "properties": {"@source_uri": "https://tools.usps.com/UspsToolsRestServices/rest/POLocator/findLocations", "@spider": "usps_collection_boxes", "addr:city": "KETTLE RIVER", "addr:country": "US", "addr:postcode": "55757", "addr:state": "MN", "addr:street_address": "3970 MAIN ST", "amenity": "post_box", "collection_times": "Mo-Fr 11:00; Sa 08:30", "indoor": "yes", "nsi_id": "unitedstatespostalservice-a77078", "operator": "United States Postal Service", "operator:short": "USPS", "operator:type": "public", "operator:wikidata": "Q668687", "ref": "5575700002"}, "type": "Feature"}
{"geometry": {"coordinates": [-93.308616701, 46.60722292], "type": "Point"}, "id": "AqiLdXQhMW90lPFVjg896whuI8s=", "properties": {"@source_uri": "https://tools.usps.com/UspsToolsRestServices/rest/POLocator/findLocations", "@spider": "usps_collection_boxes", "addr:city": "MC GREGOR", "addr:country": "US", "addr:postcode": "55760", "addr:state": "MN", "addr:street_address": "26 N MADDY ST", "amenity": "post_box", "collection_times": "Mo-Fr 11:45; Sa 09:15", "nsi_id": "unitedstatespostalservice-a77078", "operator": "United States Postal Service", "operator:short": "USPS", "operator:type": "public", "operator:wikidata": "Q668687", "ref": "5576000000"}, "type": "Feature"}
{"geometry": {"coordinates": [-93.308616701, 46.60722292], "type": "Point"}, "id": "-q8ibCZpqCyHfYtfo6NYrtkoBe4=", "properties": {"@source_uri": "https://tools.usps.com/UspsToolsRestServices/rest/POLocator/findLocations", "@spider": "usps_collection_boxes", "addr:city": "MC GREGOR", "addr:country": "US", "addr:postcode": "55760", "addr:state": "MN", "addr:street_address": "26 N MADDY ST", "amenity": "post_box", "collection_times": "Mo-Fr 11:45; Sa 09:30", "indoor": "yes", "nsi_id": "unitedstatespostalservice-a77078", "operator": "United States Postal Service", "operator:short": "USPS", "operator:type": "public", "operator:wikidata": "Q668687", "ref": "5576000001"}, "type": "Feature"}
{"geometry": {"coordinates": [-93.307162752, 46.709035618], "type": "Point"}, "id": "xAPOQD74mSduzKqK_2DXm60g-zM=", "properties": {"@source_uri": "https://tools.usps.com/UspsToolsRestServices/rest/POLocator/findLocations", "@spider": "usps_collection_boxes", "addr:city": "MC GREGOR", "addr:country": "US", "addr:postcode": "55760", "addr:state": "MN", "addr:street_address": "47952 STATE HIGHWAY 65", "amenity": "post_box", "collection_times": "Mo-Sa 10:00", "nsi_id": "unitedstatespostalservice-a77078", "operator": "United States Postal Service", "operator:short": "USPS", "operator:type": "public", "operator:wikidata": "Q668687", "ref": "5576000002"}, "type": "Feature"}
{"geometry": {"coordinates": [-93.308616701, 46.60722292], "type": "Point"}, "id": "hWHml5FixCkcthomfi4NGLWx8Fs=", "properties": {"@source_uri": "https://tools.usps.com/UspsToolsRestServices/rest/POLocator/findLocations", "@spider": "usps_collection_boxes", "addr:city": "MC GREGOR", "addr:country": "US", "addr:postcode": "55760", "addr:state": "MN", "addr:street_address": "26 N MADDY ST", "amenity": "post_box", "collection_times": "Mo-Fr 12:00; Sa 09:30", "indoor": "yes", "nsi_id": "unitedstatespostalservice-a77078", "operator": "United States Postal Service", "operator:short": "USPS", "operator:type": "public", "operator:wikidata": "Q668687", "ref": "5576000004"}, "type": "Feature"}
{"geometry": {"coordinates": [-92.2198925, 47.305592], "type": "Point"}, "id": "LHnmU9jRStI1Xdx4Eyx4rPMvzVI=", "properties": {"@source_uri": "https://tools.usps.com/UspsToolsRestServices/rest/POLocator/findLocations", "@spider": "usps_collection_boxes", "addr:city": "MAKINEN", "addr:country": "US", "addr:postcode": "55763", "addr:state": "MN", "addr:street_address": "6663 WILSON RD", "amenity": "post_box", "collection_times": "Mo-Sa 11:00", "nsi_id": "unitedstatespostalservice-a77078", "operator": "United States Postal Service", "operator:short": "USPS", "operator:type": "public", "operator:wikidata": "Q668687", "ref": "5576300000"}, "type": "Feature"}
{"geometry": {"coordinates": [-92.380448761, 47.357532765], "type": "Point"}, "id": "o8XsKKrI7ffqhiCxXgoP7W2tp5M=", "properties": {"@source_uri": "https://tools.usps.com/UspsToolsRestServices/rest/POLocator/findLocations", "@spider": "usps_collection_boxes", "addr:city": "MAKINEN", "addr:country": "US", "addr:postcode": "55763", "addr:state": "MN", "addr:street_address": "6663 WILSON RD", "amenity": "post_box", "collection_times": "Mo-Sa 11:00", "indoor": "yes", "nsi_id": "unitedstatespostalservice-a77078", "operator": "United States Postal Service", "operator:short": "USPS", "operator:type": "public", "operator:wikidata": "Q668687", "ref": "5576300003"}, "type": "Feature"}
{"geometry": {"coordinates": [-92.380448761, 47.357532765], "type": "Point"}, "id": "Wc5KKsok3KGfv59skH2VbHO_ZYQ=", "properties": {"@source_uri": "https://tools.usps.com/UspsToolsRestServices/rest/POLocator/findLocations", "@spider": "usps_collection_boxes", "addr:city": "MAKINEN", "addr:country": "US", "addr:postcode": "55763", "addr:state": "MN", "addr:street_address": "6663 WILSON RD", "amenity": "post_box", "collection_times": "Mo-Sa 11:00", "indoor": "yes", "nsi_id": "unitedstatespostalservice-a77078", "operator": "United States Postal Service", "operator:short": "USPS", "operator:type": "public", "operator:wikidata": "Q668687", "ref": "5576300004"}, "type": "Feature"}
{"geometry": {"coordinates": [-93.297014445, 47.320542512], "type": "Point"}, "id": "3wCg7MwcefI6DXwQi3h7x0dKI4U=", "properties": {"@source_uri": "https://tools.usps.com/UspsToolsRestServices/rest/POLocator/findLocations", "@spider": "usps_collection_boxes", "addr:city": "MARBLE", "addr:country": "US", "addr:postcode": "55764", "addr:state": "MN", "addr:street_address": "109 ALICE AVE", "amenity": "post_box", "collection_times": "Mo-Sa 11:15", "nsi_id": "unitedstatespostalservice-a77078", "operator": "United States Postal Service", "operator:short": "USPS", "operator:type": "public", "operator:wikidata": "Q668687", "ref": "5576400000"}, "type": "Feature"}
{"geometry": {"coordinates": [-93.297014445, 47.320542512], "type": "Point"}, "id": "4hLBVXiVIE58OHYe_d1LJslIL5o=", "properties": {"@source_uri": "https://tools.usps.com/UspsToolsRestServices/rest/POLocator/findLocations", "@spider": "usps_collection_boxes", "addr:city": "MARBLE", "addr:country": "US", "addr:postcode": "55764", "addr:state": "MN", "addr:street_address": "109 ALICE AVE", "amenity": "post_box", "collection_times": "Mo-Sa 11:15", "indoor": "yes", "nsi_id": "unitedstatespostalservice-a77078", "operator": "United States Postal Service", "operator:short": "USPS", "operator:type": "public", "operator:wikidata": "Q668687", "ref": "5576400001"}, "type": "Feature"}
{"geometry": {"coordinates": [-93.297014445, 47.320542512], "type": "Point"}, "id": "l7YWID8MxSz8or8yRl_-JXRNGXM=", "properties": {"@source_uri": "https://tools.usps.com/UspsToolsRestServices/rest/POLocator/findLocations", "@spider": "usps_collection_boxes", "addr:city": "MARBLE", "addr:country": "US", "addr:postcode": "55764", "addr:state": "MN", "addr:street_address": "109 ALICE AVE", "amenity": "post_box", "collection_times": "Mo-Fr 11:30; Sa 11:15", "indoor": "yes", "nsi_id": "unitedstatespostalservice-a77078", "operator": "United States Postal Service", "operator:short": "USPS", "operator:type": "public", "operator:wikidata": "Q668687", "ref": "5576400005"}, "type": "Feature"}
{"geometry": {"coordinates": [-92.732463333, 47.071754246], "type": "Point"}, "id": "WGk4VXQ2KytgDPisYuqJKppucJ4=", "properties": {"@source_uri": "https://tools.usps.com/UspsToolsRestServices/rest/POLocator/findLocations", "@spider": "usps_collection_boxes", "addr:city": "MEADOWLANDS", "addr:country": "US", "addr:postcode": "55765", "addr:state": "MN", "addr:street_address": "7729 CENTRAL AVE", "amenity": "post_box", "collection_times": "Mo-Sa 12:00", "nsi_id": "unitedstatespostalservice-a77078", "operator": "United States Postal Service", "operator:short": "USPS", "operator:type": "public", "operator:wikidata": "Q668687", "ref": "5576500000"}, "type": "Feature"}
{"geometry": {"coordinates": [-92.732463333, 47.071754246], "type": "Point"}, "id": "62zpnShAazvfRqDlP8F3eGXQB90=", "properties": {"@source_uri": "https://tools.usps.com/UspsToolsRestServices/rest/POLocator/findLocations", "@spider": "usps_collection_boxes", "addr:city": "MEADOWLANDS", "addr:country": "US", "addr:postcode": "55765", "addr:state": "MN", "addr:street_address": "7729 CENTRAL AVE", "amenity": "post_box", "collection_times": "Mo-Fr 12:00; Sa 09:30", "indoor": "yes", "nsi_id": "unitedstatespostalservice-a77078", "operator": "United States Postal Service", "operator:short": "USPS", "operator:type": "public", "operator:wikidata": "Q668687", "ref": "5576500001"}, "type": "Feature"}
{"geometry": {"coordinates": [-92.732463333, 47.071754246], "type": "Point"}, "id": "szdOIQSC7Rp-yXsgbj4d2eZmlcc=", "properties": {"@source_uri": "https://tools.usps.com/UspsToolsRestServices/rest/POLocator/findLocations", "@spider": "usps_collection_boxes", "addr:city": "MEADOWLANDS", "addr:country": "US", "addr:postcode": "55765", "addr:state": "MN", "addr:street_address": "7729 CENTRAL AVE", "amenity": "post_box", "collection_times": "Mo-Fr 12:00; Sa 09:00", "indoor": "yes", "nsi_id": "unitedstatespostalservice-a77078", "operator": "United States Postal Service", "operator:short": "USPS", "operator:type": "public", "operator:wikidata": "Q668687", "ref": "5576500002"}, "type": "Feature"}
{"geometry": {"coordinates": [-92.7724852, 46.4430155], "type": "Point"}, "id": "KyESMEBfc5iocAAUuJni3ryq1nM=", "properties": {"@source_uri": "https://tools.usps.com/UspsToolsRestServices/rest/POLocator/findLocations", "@spider": "usps_collection_boxes", "addr:city": "MOOSE LAKE", "addr:country": "US", "addr:postcode": "55767", "addr:state": "MN", "addr:street_address": "205 ELM AVE", "amenity": "post_box", "collection_times": "Mo-Fr 16:15; Sa 10:45", "note": "ON 12/24 AND 12/31, THIS BOX MAY BE COLLECTED AS EARLY AS 12 NOON.", "nsi_id": "unitedstatespostalservice-a77078", "operator": "United States Postal Service", "operator:short": "USPS", "operator:type": "public", "operator:wikidata": "Q668687", "ref": "5576700001"}, "type": "Feature"}
{"geometry": {"coordinates": [-92.761794337, 46.451990149], "type": "Point"}, "id": "FFK6CoBG1XdNSX1hyqpqYGB8RKA=", "properties": {"@source_uri": "https://tools.usps.com/UspsToolsRestServices/rest/POLocator/findLocations", "@spider": "usps_collection_boxes", "addr:city": "MOOSE LAKE", "addr:country": "US", "addr:postcode": "55767", "addr:state": "MN", "addr:street_address": "205 ELM AVE", "amenity": "post_box", "collection_times": "Mo-Fr 12:15; Sa 11:15", "indoor": "yes", "note": "ON 12/24 AND 12/31, THIS BOX MAY BE COLLECTED AS EARLY AS 12 NOON.", "nsi_id": "unitedstatespostalservice-a77078", "operator": "United States Postal Service", "operator:short": "USPS", "operator:type": "public", "operator:wikidata": "Q668687", "ref": "5576700002"}, "type": "Feature"}
{"geometry": {"coordinates": [-92.761794337, 46.451990149], "type": "Point"}, "id": "5YvUe5EmJLHTx8iMZk51qN03NKg=", "properties": {"@source_uri": "https://tools.usps.com/UspsToolsRestServices/rest/POLocator/findLocations", "@spider": "usps_collection_boxes", "addr:city": "MOOSE LAKE", "addr:country": "US", "addr:postcode": "55767", "addr:state": "MN", "addr:street_address": "205 ELM AVE", "amenity": "post_box", "collection_times": "Mo-Fr 12:15; Sa 11:15", "indoor": "yes", "note": "ON 12/24 AND 12/31, THIS BOX MAY BE COLLECTED AS EARLY AS 12 NOON.", "nsi_id": "unitedstatespostalservice-a77078", "operator": "United States Postal Service", "operator:short": "USPS", "operator:type": "public", "operator:wikidata": "Q668687", "ref": "5576700003"}, "type": "Feature"}
{"geometry": {"coordinates": [-92.761794337, 46.451990149], "type": "Point"}, "id": "gnC-OBTEREpPfN9UZSNFWNPE7uA=", "properties": {"@source_uri": "https://tools.usps.com/UspsToolsRestServices/rest/POLocator/findLocations", "@spider": "usps_collection_boxes", "addr:city": "MOOSE LAKE", "addr:country": "US", "addr:postcode": "55767", "addr:state": "MN", "addr:street_address": "205 ELM AVE", "amenity": "post_box", "collection_times": "Mo-Fr 12:00; Sa 11:00", "indoor": "yes", "nsi_id": "unitedstatespostalservice-a77078", "operator": "United States Postal Service", "operator:short": "USPS", "operator:type": "public", "operator:wikidata": "Q668687", "ref": "5576700004"}, "type": "Feature"}
{"geometry": {"coordinates": [-92.622082497, 47.533516544], "type": "Point"}, "id": "fa_5Dh7XRzB99Wp36lEAcbbJN9w=", "properties": {"@source_uri": "https://tools.usps.com/UspsToolsRestServices/rest/POLocator/findLocations", "@spider": "usps_collection_boxes", "addr:city": "MOUNTAIN IRON", "addr:country": "US", "addr:postcode": "55768", "addr:state": "MN", "addr:street_address": "5756 MOUNTAIN AVE", "amenity": "post_box", "collection_times": "Mo-Sa 11:45", "nsi_id": "unitedstatespostalservice-a77078", "operator": "United States Postal Service", "operator:short": "USPS", "operator:type": "public", "operator:wikidata": "Q668687", "ref": "5576800000"}, "type": "Feature"}
{"geometry": {"coordinates": [-92.5822395, 47.52009], "type": "Point"}, "id": "6QvzWURrHi5DvvXMPv5lY9aZ1V0=", "properties": {"@source_uri": "https://tools.usps.com/UspsToolsRestServices/rest/POLocator/findLocations", "@spider": "usps_collection_boxes", "addr:city": "MOUNTAIN IRON", "addr:country": "US", "addr:postcode": "55768", "addr:state": "MN", "addr:street_address": "5537 NICHOLS AVE", "amenity": "post_box", "collection_times": "Mo-Sa 11:00", "nsi_id": "unitedstatespostalservice-a77078", "operator": "United States Postal Service", "operator:short": "USPS", "operator:type": "public", "operator:wikidata": "Q668687", "ref": "5576800001"}, "type": "Feature"}
{"geometry": {"coordinates": [-92.622082497, 47.533516544], "type": "Point"}, "id": "GdYIiZP8wqStySLNpoebCTpiac8=", "properties": {"@source_uri": "https://tools.usps.com/UspsToolsRestServices/rest/POLocator/findLocations", "@spider": "usps_collection_boxes", "addr:city": "MOUNTAIN IRON", "addr:country": "US", "addr:postcode": "55768", "addr:state": "MN", "addr:street_address": "5756 MOUNTAIN AVE", "amenity": "post_box", "collection_times": "Mo-Sa 11:45", "indoor": "yes", "nsi_id": "unitedstatespostalservice-a77078", "operator": "United States Postal Service", "operator:short": "USPS", "operator:type": "public", "operator:wikidata": "Q668687", "ref": "5576800002"}, "type": "Feature"}
{"geometry": {"coordinates": [-92.622082497, 47.533516544], "type": "Point"}, "id": "MigCGfzZjfCGg4wacGYoDTicxPY=", "properties": {"@source_uri": "https://tools.usps.com/UspsToolsRestServices/rest/POLocator/findLocations", "@spider": "usps_collection_boxes", "addr:city": "MOUNTAIN IRON", "addr:country": "US", "addr:postcode": "55768", "addr:state": "MN", "addr:street_address": "5756 MOUNTAIN AVE", "amenity": "post_box", "collection_times": "Mo-Fr 11:35", "indoor": "yes", "nsi_id": "unitedstatespostalservice-a77078", "operator": "United States Postal Service", "operator:short": "USPS", "operator:type": "public", "operator:wikidata": "Q668687", "ref": "5576800005"}, "type": "Feature"}
{"geometry": {"coordinates": [-93.167147387, 47.379959381], "type": "Point"}, "id": "EWuRmg8ZIvvTJZFqljxDs0fLbmE=", "properties": {"@source_uri": "https://tools.usps.com/UspsToolsRestServices/rest/POLocator/findLocations", "@spider": "usps_collection_boxes", "addr:city": "NASHWAUK", "addr:country": "US", "addr:postcode": "55769", "addr:state": "MN", "addr:street_address": "132 2ND ST", "amenity": "post_box", "collection_times": "Mo-Fr 17:00; Sa 11:00", "note": "ON 12/24 AND 12/31, THIS BOX MAY BE COLLECTED AS EARLY AS 12 NOON.", "nsi_id": "unitedstatespostalservice-a77078", "operator": "United States Postal Service", "operator:short": "USPS", "operator:type": "public", "operator:wikidata": "Q668687", "ref": "5576900000"}, "type": "Feature"}
{"geometry": {"coordinates": [-93.167023165, 47.380368511], "type": "Point"}, "id": "SkBa6kXD_Ltmbri8pVwg2DK34So=", "properties": {"@source_uri": "https://tools.usps.com/UspsToolsRestServices/rest/POLocator/findLocations", "@spider": "usps_collection_boxes", "addr:city": "NASHWAUK", "addr:country": "US", "addr:postcode": "55769", "addr:state": "MN", "addr:street_address": "202 CENTRAL AVE", "amenity": "post_box", "collection_times": "Mo-Sa 10:00", "nsi_id": "unitedstatespostalservice-a77078", "operator": "United States Postal Service", "operator:short": "USPS", "operator:type": "public", "operator:wikidata": "Q668687", "ref": "5576900001"}, "type": "Feature"}
{"geometry": {"coordinates": [-93.167147387, 47.379959381], "type": "Point"}, "id": "7X2PovwXA4baIXeLCVixwd1Y0KY=", "properties": {"@source_uri": "https://tools.usps.com/UspsToolsRestServices/rest/POLocator/findLocations", "@spider": "usps_collection_boxes", "addr:city": "NASHWAUK", "addr:country": "US", "addr:postcode": "55769", "addr:state": "MN", "addr:street_address": "132 2ND ST", "amenity": "post_box", "collection_times": "Mo-Fr 11:00; Sa 09:30", "indoor": "yes", "nsi_id": "unitedstatespostalservice-a77078", "operator": "United States Postal Service", "operator:short": "USPS", "operator:type": "public", "operator:wikidata": "Q668687", "ref": "5576900002"}, "type": "Feature"}
{"geometry": {"coordinates": [-93.167147387, 47.379959381], "type": "Point"}, "id": "fBzCF4UDSx5NgyOM_TpyUgO3iAA=", "properties": {"@source_uri": "https://tools.usps.com/UspsToolsRestServices/rest/POLocator/findLocations", "@spider": "usps_collection_boxes", "addr:city": "NASHWAUK", "addr:country": "US", "addr:postcode": "55769", "addr:state": "MN", "addr:street_address": "132 2ND ST", "amenity": "post_box", "collection_times": "Mo-Fr 10:45", "indoor": "yes", "nsi_id": "unitedstatespostalservice-a77078", "operator": "United States Postal Service", "operator:short": "USPS", "operator:type": "public", "operator:wikidata": "Q668687", "ref": "5576900004"}, "type": "Feature"}
{"geometry": {"coordinates": [-92.83165138, 48.052938332], "type": "Point"}, "id": "Ko_o3q8GTQyfAJXC59pj0FZGkD8=", "properties": {"@source_uri": "https://tools.usps.com/UspsToolsRestServices/rest/POLocator/findLocations", "@spider": "usps_collection_boxes", "addr:city": "ORR", "addr:country": "US", "addr:postcode": "55771", "addr:state": "MN", "addr:street_address": "4523 HIGHWAY 53", "amenity": "post_box", "collection_times": "Mo-Fr 15:45; Sa 10:30", "note": "ON 12/24 AND 12/31, THIS BOX MAY BE COLLECTED AS EARLY AS 12 NOON.", "nsi_id": "unitedstatespostalservice-a77078", "operator": "United States Postal Service", "operator:short": "USPS", "operator:type": "public", "operator:wikidata": "Q668687", "ref": "5577100000"}, "type": "Feature"}
{"geometry": {"coordinates": [-93.048732859, 48.408430472], "type": "Point"}, "id": "WMSbmkxSrMGsOkCq8maTYRsFwh8=", "properties": {"@source_uri": "https://tools.usps.com/UspsToolsRestServices/rest/POLocator/findLocations", "@spider": "usps_collection_boxes", "addr:city": "ORR", "addr:country": "US", "addr:postcode": "55771", "addr:state": "MN", "addr:street_address": "9378 HIGHWAY 53", "amenity": "post_box", "collection_times": "Mo-Sa 07:30", "nsi_id": "unitedstatespostalservice-a77078", "operator": "United States Postal Service", "operator:short": "USPS", "operator:type": "public", "operator:wikidata": "Q668687", "ref": "5577100003"}, "type": "Feature"}
{"geometry": {"coordinates": [-92.83165138, 48.052938332], "type": "Point"}, "id": "a59IdR2Xzk1047FvW3KbMhvuXjA=", "properties": {"@source_uri": "https://tools.usps.com/UspsToolsRestServices/rest/POLocator/findLocations", "@spider": "usps_collection_boxes", "addr:city": "ORR", "addr:country": "US", "addr:postcode": "55771", "addr:state": "MN", "addr:street_address": "4523 HIGHWAY 53", "amenity": "post_box", "collection_times": "Mo-Fr 10:30", "indoor": "yes", "nsi_id": "unitedstatespostalservice-a77078", "operator": "United States Postal Service", "operator:short": "USPS", "operator:type": "public", "operator:wikidata": "Q668687", "ref": "5577100004"}, "type": "Feature"}
{"geometry": {"coordinates": [-93.094726473, 48.111138631], "type": "Point"}, "id": "QGrzVxYYRT0J342tpHwknWOaxkA=", "properties": {"@source_uri": "https://tools.usps.com/UspsToolsRestServices/rest/POLocator/findLocations", "@spider": "usps_collection_boxes", "addr:city": "ORR", "addr:country": "US", "addr:postcode": "55771", "addr:state": "MN", "addr:street_address": "13072 NETT LAKE RD", "amenity": "post_box", "collection_times": "Mo-Sa 07:30", "nsi_id": "unitedstatespostalservice-a77078", "operator": "United States Postal Service", "operator:short": "USPS", "operator:type": "public", "operator:wikidata": "Q668687", "ref": "5577100005"}, "type": "Feature"}
{"geometry": {"coordinates": [-92.83165138, 48.052938332], "type": "Point"}, "id": "1iDXxlaqJjBaAmGlRycieIiN4VM=", "properties": {"@source_uri": "https://tools.usps.com/UspsToolsRestServices/rest/POLocator/findLocations", "@spider": "usps_collection_boxes", "addr:city": "ORR", "addr:country": "US", "addr:postcode": "55771", "addr:state": "MN", "addr:street_address": "4523 HIGHWAY 53", "amenity": "post_box", "collection_times": "Mo-Fr 10:20", "indoor": "yes", "nsi_id": "unitedstatespostalservice-a77078", "operator": "United States Postal Service", "operator:short": "USPS", "operator:type": "public", "operator:wikidata": "Q668687", "ref": "5577100007"}, "type": "Feature"}
{"geometry": {"coordinates": [-93.198095, 47.325045], "type": "Point"}, "id": "qH84hUc8KkINP8wfC9cTDKuxhck=", "properties": {"@source_uri": "https://tools.usps.com/UspsToolsRestServices/rest/POLocator/findLocations", "@spider": "usps_collection_boxes", "addr:city": "PENGILLY", "addr:country": "US", "addr:postcode": "55775", "addr:state": "MN", "addr:street_address": "31143 STATE HIGHWAY 65", "amenity": "post_box", "collection_times": "Mo-Fr 11:15; Sa 09:45", "nsi_id": "unitedstatespostalservice-a77078", "operator": "United States Postal Service", "operator:short": "USPS", "operator:type": "public", "operator:wikidata": "Q668687", "ref": "5577500000"}, "type": "Feature"}
{"geometry": {"coordinates": [-93.198095, 47.325045], "type": "Point"}, "id": "Fq_c6oM6U7CXmIdt2kHbjcg8aHg=", "properties": {"@source_uri": "https://tools.usps.com/UspsToolsRestServices/rest/POLocator/findLocations", "@spider": "usps_collection_boxes", "addr:city": "PENGILLY", "addr:country": "US", "addr:postcode": "55775", "addr:state": "MN", "addr:street_address": "31143 STATE HIGHWAY 65", "amenity": "post_box", "collection_times": "Mo-Fr 11:15; Sa 09:45", "indoor": "yes", "nsi_id": "unitedstatespostalservice-a77078", "operator": "United States Postal Service", "operator:short": "USPS", "operator:type": "public", "operator:wikidata": "Q668687", "ref": "5577500001"}, "type": "Feature"}
{"geometry": {"coordinates": [-93.198095, 47.325045], "type": "Point"}, "id": "BUerANvKcbngRlbA5BBdCFunysU=", "properties": {"@source_uri": "https://tools.usps.com/UspsToolsRestServices/rest/POLocator/findLocations", "@spider": "usps_collection_boxes", "addr:city": "PENGILLY", "addr:country": "US", "addr:postcode": "55775", "addr:state": "MN", "addr:street_address": "31143 STATE HIGHWAY 65", "amenity": "post_box", "collection_times": "Mo-Fr 11:10; Sa 10:00", "indoor": "yes", "nsi_id": "unitedstatespostalservice-a77078", "operator": "United States Postal Service", "operator:short": "USPS", "operator:type": "public", "operator:wikidata": "Q668687", "ref": "5577500002"}, "type": "Feature"}
{"geometry": {"coordinates": [-92.418392668, 46.847536543], "type": "Point"}, "id": "VQqF3898C2iXeRbTbpPAIPpBACE=", "properties": {"@source_uri": "https://tools.usps.com/UspsToolsRestServices/rest/POLocator/findLocations", "@spider": "usps_collection_boxes", "addr:city": "SAGINAW", "addr:country": "US", "addr:postcode": "55779", "addr:state": "MN", "addr:street_address": "7027 SAGINAW RD", "amenity": "post_box", "collection_times": "Mo-Sa 13:30", "note": "ON 12/24 AND 12/31, THIS BOX MAY BE COLLECTED AS EARLY AS 12 NOON.", "nsi_id": "unitedstatespostalservice-a77078", "operator": "United States Postal Service", "operator:short": "USPS", "operator:type": "public", "operator:wikidata": "Q668687", "ref": "5577900000"}, "type": "Feature"}
{"geometry": {"coordinates": [-92.418392668, 46.847536543], "type": "Point"}, "id": "pISOm8tqA0ulKAsmoDbay0VdLRI=", "properties": {"@source_uri": "https://tools.usps.com/UspsToolsRestServices/rest/POLocator/findLocations", "@spider": "usps_collection_boxes", "addr:city": "SAGINAW", "addr:country": "US", "addr:postcode": "55779", "addr:state": "MN", "addr:street_address": "7027 SAGINAW RD", "amenity": "post_box", "collection_times": "Mo-Fr 13:30; Sa 10:15", "indoor": "yes", "note": "ON 12/24 AND 12/31, THIS BOX MAY BE COLLECTED AS EARLY AS 12 NOON.", "nsi_id": "unitedstatespostalservice-a77078", "operator": "United States Postal Service", "operator:short": "USPS", "operator:type": "public", "operator:wikidata": "Q668687", "ref": "5577900003"}, "type": "Feature"}
{"geometry": {"coordinates": [-92.362575974, 46.893709193], "type": "Point"}, "id": "3bWwDIXtgSk3o37VhDiU9pZ8lp8=", "properties": {"@source_uri": "https://tools.usps.com/UspsToolsRestServices/rest/POLocator/findLocations", "@spider": "usps_collection_boxes", "addr:city": "SAGINAW", "addr:country": "US", "addr:postcode": "55779", "addr:state": "MN", "addr:street_address": "5302 TWIG BLVD", "amenity": "post_box", "collection_times": "Mo-Sa 13:30", "note": "ON 12/24 AND 12/31, THIS BOX MAY BE COLLECTED AS EARLY AS 12 NOON.", "nsi_id": "unitedstatespostalservice-a77078", "operator": "United States Postal Service", "operator:short": "USPS", "operator:type": "public", "operator:wikidata": "Q668687", "ref": "5577900004"}, "type": "Feature"}
{"geometry": {"coordinates": [-92.418392668, 46.847536543], "type": "Point"}, "id": "C9S7mGsZ1sVGyCpxW0L9bjn1euM=", "properties": {"@source_uri": "https://tools.usps.com/UspsToolsRestServices/rest/POLocator/findLocations", "@spider": "usps_collection_boxes", "addr:city": "SAGINAW", "addr:country": "US", "addr:postcode": "55779", "addr:state": "MN", "addr:street_address": "7027 SAGINAW RD", "amenity": "post_box", "collection_times": "Mo-Fr 13:35; Sa 10:00", "indoor": "yes", "note": "ON 12/24 AND 12/31, THIS BOX MAY BE COLLECTED AS EARLY AS 12 NOON.", "nsi_id": "unitedstatespostalservice-a77078", "operator": "United States Postal Service", "operator:short": "USPS", "operator:type": "public", "operator:wikidata": "Q668687", "ref": "5577900007"}, "type": "Feature"}
{"geometry": {"coordinates": [-92.6348959807, 46.6704890163], "type": "Point"}, "id": "jKXfjPb8O7vnD4sWTIxjtpt_cek=", "properties": {"@source_uri": "https://tools.usps.com/UspsToolsRestServices/rest/POLocator/findLocations", "@spider": "usps_collection_boxes", "addr:city": "SAWYER", "addr:country": "US", "addr:postcode": "55780", "addr:state": "MN", "addr:street_address": "3252 HIGHWAY 210", "amenity": "post_box", "collection_times": "Mo-Fr 14:15; Sa 10:00", "note": "ON 12/24 AND 12/31, THIS BOX MAY BE COLLECTED AS EARLY AS 12 NOON.", "nsi_id": "unitedstatespostalservice-a77078", "operator": "United States Postal Service", "operator:short": "USPS", "operator:type": "public", "operator:wikidata": "Q668687", "ref": "5578000000"}, "type": "Feature"}
{"geometry": {"coordinates": [-92.634902476, 46.671282503], "type": "Point"}, "id": "0lclBlNqglH-FmyXzezUKpgRQtQ=", "properties": {"@source_uri": "https://tools.usps.com/UspsToolsRestServices/rest/POLocator/findLocations", "@spider": "usps_collection_boxes", "addr:city": "SAWYER", "addr:country": "US", "addr:postcode": "55780", "addr:state": "MN", "addr:street_address": "3252 HIGHWAY 210", "amenity": "post_box", "collection_times": "Mo-Fr 13:30; Sa 08:45", "indoor": "yes", "note": "ON 12/24 AND 12/31, THIS BOX MAY BE COLLECTED AS EARLY AS 12 NOON.", "nsi_id": "unitedstatespostalservice-a77078", "operator": "United States Postal Service", "operator:short": "USPS", "operator:type": "public", "operator:wikidata": "Q668687", "ref": "5578000001"}, "type": "Feature"}
{"geometry": {"coordinates": [-92.634902476, 46.671292562], "type": "Point"}, "id": "fuYC-8Rcm3CkmWqNMi099eiO8Tw=", "properties": {"@source_uri": "https://tools.usps.com/UspsToolsRestServices/rest/POLocator/findLocations", "@spider": "usps_collection_boxes", "addr:city": "SAWYER", "addr:country": "US", "addr:postcode": "55780", "addr:state": "MN", "addr:street_address": "3252 HIGHWAY 210", "amenity": "post_box", "collection_times": "Mo-Fr 13:30; Sa 10:15", "indoor": "yes", "note": "ON 12/24 AND 12/31, THIS BOX MAY BE COLLECTED AS EARLY AS 12 NOON.", "nsi_id": "unitedstatespostalservice-a77078", "operator": "United States Postal Service", "operator:short": "USPS", "operator:type": "public", "operator:wikidata": "Q668687", "ref": "5578000002"}, "type": "Feature"}
{"geometry": {"coordinates": [-93.0196125, 47.665319546], "type": "Point"}, "id": "Gv9wBehtAtGcWBJkyHCn21WF9-Y=", "properties": {"@source_uri": "https://tools.usps.com/UspsToolsRestServices/rest/POLocator/findLocations", "@spider": "usps_collection_boxes", "addr:city": "SIDE LAKE", "addr:country": "US", "addr:postcode": "55781", "addr:state": "MN", "addr:street_address": "7481 MCCARTHY BEACH RD", "amenity": "post_box", "collection_times": "Mo-Sa 10:00", "nsi_id": "unitedstatespostalservice-a77078", "operator": "United States Postal Service", "operator:short": "USPS", "operator:type": "public", "operator:wikidata": "Q668687", "ref": "5578100000"}, "type": "Feature"}
{"geometry": {"coordinates": [-93.0196125, 47.665319546], "type": "Point"}, "id": "65Ejd6IFyIfK707oMmpH1PVxRfM=", "properties": {"@source_uri": "https://tools.usps.com/UspsToolsRestServices/rest/POLocator/findLocations", "@spider": "usps_collection_boxes", "addr:city": "SIDE LAKE", "addr:country": "US", "addr:postcode": "55781", "addr:state": "MN", "addr:street_address": "7481 MCCARTHY BEACH RD", "amenity": "post_box", "collection_times": "Mo-Sa 10:00", "indoor": "yes", "nsi_id": "unitedstatespostalservice-a77078", "operator": "United States Postal Service", "operator:short": "USPS", "operator:type": "public", "operator:wikidata": "Q668687", "ref": "5578100001"}, "type": "Feature"}
{"geometry": {"coordinates": [-93.0196125, 47.665319546], "type": "Point"}, "id": "OjfStp7T5f3WF-Yk8TP4tLJav7s=", "properties": {"@source_uri": "https://tools.usps.com/UspsToolsRestServices/rest/POLocator/findLocations", "@spider": "usps_collection_boxes", "addr:city": "SIDE LAKE", "addr:country": "US", "addr:postcode": "55781", "addr:state": "MN", "addr:street_address": "7481 MCCARTHY BEACH RD", "amenity": "post_box", "collection_times": "Mo-Fr 09:45", "indoor": "yes", "nsi_id": "unitedstatespostalservice-a77078", "operator": "United States Postal Service", "operator:short": "USPS", "operator:type": "public", "operator:wikidata": "Q668687", "ref": "5578100002"}, "type": "Feature"}
{"geometry": {"coordinates": [-92.236407315, 47.817213474], "type": "Point"}, "id": "_QvJQhSvxgEn7JabKfHEzrd7WfM=", "properties": {"@source_uri": "https://tools.usps.com/UspsToolsRestServices/rest/POLocator/findLocations", "@spider": "usps_collection_boxes", "addr:city": "SOUDAN", "addr:country": "US", "addr:postcode": "55782", "addr:state": "MN", "addr:street_address": "31 1ST AVE", "amenity": "post_box", "collection_times": "Mo-Fr 12:15; Sa 09:30", "note": "ON 12/24 AND 12/31, THIS BOX MAY BE COLLECTED AS EARLY AS 12 NOON.", "nsi_id": "unitedstatespostalservice-a77078", "operator": "United States Postal Service", "operator:short": "USPS", "operator:type": "public", "operator:wikidata": "Q668687", "ref": "5578200000"}, "type": "Feature"}
{"geometry": {"coordinates": [-92.236407315, 47.817213474], "type": "Point"}, "id": "2mz2Yn8wckFixmVWbxOLOxOuJL8=", "properties": {"@source_uri": "https://tools.usps.com/UspsToolsRestServices/rest/POLocator/findLocations", "@spider": "usps_collection_boxes", "addr:city": "SOUDAN", "addr:country": "US", "addr:postcode": "55782", "addr:state": "MN", "addr:street_address": "31 1ST AVE", "amenity": "post_box", "collection_times": "Mo-Fr 11:30; Sa 09:30", "indoor": "yes", "nsi_id": "unitedstatespostalservice-a77078", "operator": "United States Postal Service", "operator:short": "USPS", "operator:type": "public", "operator:wikidata": "Q668687", "ref": "5578200001"}, "type": "Feature"}
{"geometry": {"coordinates": [-92.236407315, 47.817213474], "type": "Point"}, "id": "2cpfALoHuw_AtTd1z8wrXaeJgCk=", "properties": {"@source_uri": "https://tools.usps.com/UspsToolsRestServices/rest/POLocator/findLocations", "@spider": "usps_collection_boxes", "addr:city": "SOUDAN", "addr:country": "US", "addr:postcode": "55782", "addr:state": "MN", "addr:street_address": "31 1ST AVE", "amenity": "post_box", "collection_times": "Mo-Fr 11:15; Sa 09:30", "indoor": "yes", "nsi_id": "unitedstatespostalservice-a77078", "operator": "United States Postal Service", "operator:short": "USPS", "operator:type": "public", "operator:wikidata": "Q668687", "ref": "5578200002"}, "type": "Feature"}
{"geometry": {"coordinates": [-92.944769019, 46.364451001], "type": "Point"}, "id": "7FjDVjulSqA5psffTf4HJX8lQ8c=", "properties": {"@source_uri": "https://tools.usps.com/UspsToolsRestServices/rest/POLocator/findLocations", "@spider": "usps_collection_boxes", "addr:city": "STURGEON LAKE", "addr:country": "US", "addr:postcode": "55783", "addr:state": "MN", "addr:street_address": "8992 1ST AVE", "amenity": "post_box", "collection_times": "Mo-Fr 12:00; Sa 09:30", "indoor": "yes", "nsi_id": "unitedstatespostalservice-a77078", "operator": "United States Postal Service", "operator:short": "USPS", "operator:type": "public", "operator:wikidata": "Q668687", "ref": "5578300001"}, "type": "Feature"}
{"geometry": {"coordinates": [-92.82612113, 46.381468129], "type": "Point"}, "id": "Nm9nYzS4x8pd-Y5AHz5AqLanlog=", "properties": {"@source_uri": "https://tools.usps.com/UspsToolsRestServices/rest/POLocator/findLocations", "@spider": "usps_collection_boxes", "addr:city": "STURGEON LAKE", "addr:country": "US", "addr:postcode": "55783", "addr:state": "MN", "addr:street_address": "8992 1ST AVE", "amenity": "post_box", "collection_times": "Mo-Fr 12:00; Sa 09:30", "indoor": "yes", "nsi_id": "unitedstatespostalservice-a77078", "operator": "United States Postal Service", "operator:short": "USPS", "operator:type": "public", "operator:wikidata": "Q668687", "ref": "5578300002"}, "type": "Feature"}
{"geometry": {"coordinates": [-92.8545136, 46.4044245], "type": "Point"}, "id": "GAUDeUufssmqROE9gHutEz2SZt0=", "properties": {"@source_uri": "https://tools.usps.com/UspsToolsRestServices/rest/POLocator/findLocations", "@spider": "usps_collection_boxes", "addr:city": "STURGEON LAKE", "addr:country": "US", "addr:postcode": "55783", "addr:state": "MN", "addr:street_address": "8992 1ST AVE", "amenity": "post_box", "collection_times": "Mo-Fr 12:30", "note": "ON 12/24 AND 12/31, THIS BOX MAY BE COLLECTED AS EARLY AS 12 NOON.", "nsi_id": "unitedstatespostalservice-a77078", "operator": "United States Postal Service", "operator:short": "USPS", "operator:type": "public", "operator:wikidata": "Q668687", "ref": "5578300003"}, "type": "Feature"}
{"geometry": {"coordinates": [-93.380870943, 47.311356971], "type": "Point"}, "id": "vfgSW2mWiex20ufF6y1Eg7SaqzE=", "properties": {"@source_uri": "https://tools.usps.com/UspsToolsRestServices/rest/POLocator/findLocations", "@spider": "usps_collection_boxes", "addr:city": "TACONITE", "addr:country": "US", "addr:postcode": "55786", "addr:state": "MN", "addr:street_address": "28 HAYNES ST", "amenity": "post_box", "collection_times": "Mo-Fr 11:45; Sa 10:00", "nsi_id": "unitedstatespostalservice-a77078", "operator": "United States Postal Service", "operator:short": "USPS", "operator:type": "public", "operator:wikidata": "Q668687", "ref": "5578600000"}, "type": "Feature"}
{"geometry": {"coordinates": [-93.380870943, 47.311356971], "type": "Point"}, "id": "NbT4hMfrogtMWMfrwFfCOkGLpYQ=", "properties": {"@source_uri": "https://tools.usps.com/UspsToolsRestServices/rest/POLocator/findLocations", "@spider": "usps_collection_boxes", "addr:city": "TACONITE", "addr:country": "US", "addr:postcode": "55786", "addr:state": "MN", "addr:street_address": "28 HAYNES ST", "amenity": "post_box", "collection_times": "Mo-Fr 16:15; Sa 09:45", "indoor": "yes", "note": "ON 12/24 AND 12/31, THIS BOX MAY BE COLLECTED AS EARLY AS 12 NOON.", "nsi_id": "unitedstatespostalservice-a77078", "operator": "United States Postal Service", "operator:short": "USPS", "operator:type": "public", "operator:wikidata": "Q668687", "ref": "5578600001"}, "type": "Feature"}
{"geometry": {"coordinates": [-93.380870943, 47.311356971], "type": "Point"}, "id": "FhEZd9SOcj5vKhUDWgM-vYqckm4=", "properties": {"@source_uri": "https://tools.usps.com/UspsToolsRestServices/rest/POLocator/findLocations", "@spider": "usps_collection_boxes", "addr:city": "TACONITE", "addr:country": "US", "addr:postcode": "55786", "addr:state": "MN", "addr:street_address": "28 HAYNES ST", "amenity": "post_box", "collection_times": "Mo-Fr 16:30; Sa 10:00", "indoor": "yes", "note": "ON 12/24 AND 12/31, THIS BOX MAY BE COLLECTED AS EARLY AS 12 NOON.", "nsi_id": "unitedstatespostalservice-a77078", "operator": "United States Postal Service", "operator:short": "USPS", "operator:type": "public", "operator:wikidata": "Q668687", "ref": "5578600002"}, "type": "Feature"}
{"geometry": {"coordinates": [-93.127384056, 46.64718], "type": "Point"}, "id": "o8vPuJY5wluo51r9Od5cNWNa_j8=", "properties": {"@source_uri": "https://tools.usps.com/UspsToolsRestServices/rest/POLocator/findLocations", "@spider": "usps_collection_boxes", "addr:city": "TAMARACK", "addr:country": "US", "addr:postcode": "55787", "addr:state": "MN", "addr:street_address": "275 MAIN ST N", "amenity": "post_box", "collection_times": "Mo-Fr 10:45; Sa 08:45", "nsi_id": "unitedstatespostalservice-a77078", "operator": "United States Postal Service", "operator:short": "USPS", "operator:type": "public", "operator:wikidata": "Q668687", "ref": "5578700000"}, "type": "Feature"}
{"geometry": {"coordinates": [-93.127384056, 46.64718], "type": "Point"}, "id": "oLZDuNBfENk8kW-IeO6-Fp1PGQ8=", "properties": {"@source_uri": "https://tools.usps.com/UspsToolsRestServices/rest/POLocator/findLocations", "@spider": "usps_collection_boxes", "addr:city": "TAMARACK", "addr:country": "US", "addr:postcode": "55787", "addr:state": "MN", "addr:street_address": "275 MAIN ST N", "amenity": "post_box", "collection_times": "Mo-Fr 10:45; Sa 08:45", "indoor": "yes", "nsi_id": "unitedstatespostalservice-a77078", "operator": "United States Postal Service", "operator:short": "USPS", "operator:type": "public", "operator:wikidata": "Q668687", "ref": "5578700001"}, "type": "Feature"}
{"geometry": {"coordinates": [-93.127384056, 46.64718], "type": "Point"}, "id": "XYVfQaHP6C_x2AAlqS0sdZ52r2k=", "properties": {"@source_uri": "https://tools.usps.com/UspsToolsRestServices/rest/POLocator/findLocations", "@spider": "usps_collection_boxes", "addr:city": "TAMARACK", "addr:country": "US", "addr:postcode": "55787", "addr:state": "MN", "addr:street_address": "275 MAIN ST N", "amenity": "post_box", "collection_times": "Mo-Fr 10:30; Sa 09:00", "indoor": "yes", "nsi_id": "unitedstatespostalservice-a77078", "operator": "United States Postal Service", "operator:short": "USPS", "operator:type": "public", "operator:wikidata": "Q668687", "ref": "5578700002"}, "type": "Feature"}
{"geometry": {"coordinates": [-92.275280916, 47.805285511], "type": "Point"}, "id": "nFBCRNCaljxsjyDBBrf9UK_-eJw=", "properties": {"@source_uri": "https://tools.usps.com/UspsToolsRestServices/rest/POLocator/findLocations", "@spider": "usps_collection_boxes", "addr:city": "TOWER", "addr:country": "US", "addr:postcode": "55790", "addr:state": "MN", "addr:street_address": "508 MAIN ST", "amenity": "post_box", "collection_times": "Mo-Fr 11:30; Sa 10:45", "nsi_id": "unitedstatespostalservice-a77078", "operator": "United States Postal Service", "operator:short": "USPS", "operator:type": "public", "operator:wikidata": "Q668687", "ref": "5579000000"}, "type": "Feature"}
{"geometry": {"coordinates": [-92.275280916, 47.805285511], "type": "Point"}, "id": "orDEYKvIB2NgzbhTxoFBS9D0RhQ=", "properties": {"@source_uri": "https://tools.usps.com/UspsToolsRestServices/rest/POLocator/findLocations", "@spider": "usps_collection_boxes", "addr:city": "TOWER", "addr:country": "US", "addr:postcode": "55790", "addr:state": "MN", "addr:street_address": "508 MAIN ST", "amenity": "post_box", "collection_times": "Mo-Fr 11:30; Sa 10:45", "indoor": "yes", "nsi_id": "unitedstatespostalservice-a77078", "operator": "United States Postal Service", "operator:short": "USPS", "operator:type": "public", "operator:wikidata": "Q668687", "ref": "5579000001"}, "type": "Feature"}
{"geometry": {"coordinates": [-92.275280916, 47.805285511], "type": "Point"}, "id": "g0prIqUnY80ruVHRIHgYkNeI34Q=", "properties": {"@source_uri": "https://tools.usps.com/UspsToolsRestServices/rest/POLocator/findLocations", "@spider": "usps_collection_boxes", "addr:city": "TOWER", "addr:country": "US", "addr:postcode": "55790", "addr:state": "MN", "addr:street_address": "508 MAIN ST", "amenity": "post_box", "collection_times": "Mo-Fr 11:30", "indoor": "yes", "nsi_id": "unitedstatespostalservice-a77078", "operator": "United States Postal Service", "operator:short": "USPS", "operator:type": "public", "operator:wikidata": "Q668687", "ref": "5579000002"}, "type": "Feature"}
{"geometry": {"coordinates": [-92.534220472, 47.522241525], "type": "Point"}, "id": "0lImKr6UcnibrWnzIIKo0dFotdA=", "properties": {"@source_uri": "https://tools.usps.com/UspsToolsRestServices/rest/POLocator/findLocations", "@spider": "usps_collection_boxes", "addr:city": "VIRGINIA", "addr:country": "US", "addr:postcode": "55792", "addr:state": "MN", "addr:street_address": "230 1ST ST S", "amenity": "post_box", "collection_times": "Mo-Sa 12:45", "note": "ON 12/24 AND 12/31, THIS BOX MAY BE COLLECTED AS EARLY AS 12 NOON.", "nsi_id": "unitedstatespostalservice-a77078", "operator": "United States Postal Service", "operator:short": "USPS", "operator:type": "public", "operator:wikidata": "Q668687", "ref": "5579200001"}, "type": "Feature"}
{"geometry": {"coordinates": [-92.542040729, 47.527000124], "type": "Point"}, "id": "YLnsf0Q0Q0ljrTemiKhqkPuusdY=", "properties": {"@source_uri": "https://tools.usps.com/UspsToolsRestServices/rest/POLocator/findLocations", "@spider": "usps_collection_boxes", "addr:city": "VIRGINIA", "addr:country": "US", "addr:postcode": "55792", "addr:state": "MN", "addr:street_address": "601 4TH ST N", "amenity": "post_box", "collection_times": "Mo-Sa 10:00", "nsi_id": "unitedstatespostalservice-a77078", "operator": "United States Postal Service", "operator:short": "USPS", "operator:type": "public", "operator:wikidata": "Q668687", "ref": "5579200007"}, "type": "Feature"}
{"geometry": {"coordinates": [-92.536913329, 47.521414448], "type": "Point"}, "id": "dLc32NdgAWwS6yMULLbM_qy7baM=", "properties": {"@source_uri": "https://tools.usps.com/UspsToolsRestServices/rest/POLocator/findLocations", "@spider": "usps_collection_boxes", "addr:city": "VIRGINIA", "addr:country": "US", "addr:postcode": "55792", "addr:state": "MN", "addr:street_address": "409 2ND ST S", "amenity": "post_box", "collection_times": "Mo-Sa 12:00", "nsi_id": "unitedstatespostalservice-a77078", "operator": "United States Postal Service", "operator:short": "USPS", "operator:type": "public", "operator:wikidata": "Q668687", "ref": "5579200009"}, "type": "Feature"}
{"geometry": {"coordinates": [-92.546631, 47.530661503], "type": "Point"}, "id": "alDYROR0zPsQglNXTtSLj7A9MOI=", "properties": {"@source_uri": "https://tools.usps.com/UspsToolsRestServices/rest/POLocator/findLocations", "@spider": "usps_collection_boxes", "addr:city": "VIRGINIA", "addr:country": "US", "addr:postcode": "55792", "addr:state": "MN", "addr:street_address": "820 9TH ST N", "amenity": "post_box", "collection_times": "Mo-Sa 10:00", "nsi_id": "unitedstatespostalservice-a77078", "operator": "United States Postal Service", "operator:short": "USPS", "operator:type": "public", "operator:wikidata": "Q668687", "ref": "5579200011"}, "type": "Feature"}
{"geometry": {"coordinates": [-92.549148896, 47.523326366], "type": "Point"}, "id": "cG2NqUL6IQoeSDLrG_ozoQ3ZJDU=", "properties": {"@source_uri": "https://tools.usps.com/UspsToolsRestServices/rest/POLocator/findLocations", "@spider": "usps_collection_boxes", "addr:city": "VIRGINIA", "addr:country": "US", "addr:postcode": "55792", "addr:state": "MN", "addr:street_address": "1001 CHESTNUT ST W", "amenity": "post_box", "collection_times": "Mo-Sa 12:00", "nsi_id": "unitedstatespostalservice-a77078", "operator": "United States Postal Service", "operator:short": "USPS", "operator:type": "public", "operator:wikidata": "Q668687", "ref": "5579200013"}, "type": "Feature"}
{"geometry": {"coordinates": [-92.534220472, 47.522241525], "type": "Point"}, "id": "FnYpi3evrH0E1ZXNLgchjC2sSg0=", "properties": {"@source_uri": "https://tools.usps.com/UspsToolsRestServices/rest/POLocator/findLocations", "@spider": "usps_collection_boxes", "addr:city": "VIRGINIA", "addr:country": "US", "addr:postcode": "55792", "addr:state": "MN", "addr:street_address": "230 1ST ST S", "amenity": "post_box", "collection_times": "Mo-Sa 12:45", "note": "ON 12/24 AND 12/31, THIS BOX MAY BE COLLECTED AS EARLY AS 12 NOON.", "nsi_id": "unitedstatespostalservice-a77078", "operator": "United States Postal Service", "operator:short": "USPS", "operator:type": "public", "operator:wikidata": "Q668687", "ref": "5579200024"}, "type": "Feature"}
{"geometry": {"coordinates": [-92.533564703, 47.522361831], "type": "Point"}, "id": "AiMSyL9cZDklPT3bVdRsmH8WTZA=", "properties": {"@source_uri": "https://tools.usps.com/UspsToolsRestServices/rest/POLocator/findLocations", "@spider": "usps_collection_boxes", "addr:city": "VIRGINIA", "addr:country": "US", "addr:postcode": "55792", "addr:state": "MN", "addr:street_address": "231 1ST ST S", "amenity": "post_box", "collection_times": "Mo-Fr 12:45; Sa 11:15", "indoor": "yes", "note": "ON 12/24 AND 12/31, THIS BOX MAY BE COLLECTED AS EARLY AS 12 NOON.", "nsi_id": "unitedstatespostalservice-a77078", "operator": "United States Postal Service", "operator:short": "USPS", "operator:type": "public", "operator:wikidata": "Q668687", "ref": "5579200027"}, "type": "Feature"}
{"geometry": {"coordinates": [-92.533564703, 47.522361831], "type": "Point"}, "id": "IQBK7yofEjjUeTWxRfsQMziAisE=", "properties": {"@source_uri": "https://tools.usps.com/UspsToolsRestServices/rest/POLocator/findLocations", "@spider": "usps_collection_boxes", "addr:city": "VIRGINIA", "addr:country": "US", "addr:postcode": "55792", "addr:state": "MN", "addr:street_address": "231 1ST ST S", "amenity": "post_box", "collection_times": "Mo-Sa 12:45", "indoor": "yes", "note": "ON 12/24 AND 12/31, THIS BOX MAY BE COLLECTED AS EARLY AS 12 NOON.", "nsi_id": "unitedstatespostalservice-a77078", "operator": "United States Postal Service", "operator:short": "USPS", "operator:type": "public", "operator:wikidata": "Q668687", "ref": "5579200028"}, "type": "Feature"}
{"geometry": {"coordinates": [-92.550420477, 47.508887501], "type": "Point"}, "id": "vxJKVgXa74ZoZa-nJwlhdRaHECM=", "properties": {"@source_uri": "https://tools.usps.com/UspsToolsRestServices/rest/POLocator/findLocations", "@spider": "usps_collection_boxes", "addr:city": "VIRGINIA", "addr:country": "US", "addr:postcode": "55792", "addr:state": "MN", "addr:street_address": "1111 17TH ST S", "amenity": "post_box", "collection_times": "Mo-Sa 11:45", "nsi_id": "unitedstatespostalservice-a77078", "operator": "United States Postal Service", "operator:short": "USPS", "operator:type": "public", "operator:wikidata": "Q668687", "ref": "5579200029"}, "type": "Feature"}
{"geometry": {"coordinates": [-92.542211535, 47.516891883], "type": "Point"}, "id": "1PjdvO5nangDLfej27pjVExOFfA=", "properties": {"@source_uri": "https://tools.usps.com/UspsToolsRestServices/rest/POLocator/findLocations", "@spider": "usps_collection_boxes", "addr:city": "VIRGINIA", "addr:country": "US", "addr:postcode": "55792", "addr:state": "MN", "addr:street_address": "704 S 7TH AVE", "amenity": "post_box", "collection_times": "Mo-Sa 12:00", "nsi_id": "unitedstatespostalservice-a77078", "operator": "United States Postal Service", "operator:short": "USPS", "operator:type": "public", "operator:wikidata": "Q668687", "ref": "5579200031"}, "type": "Feature"}
{"geometry": {"coordinates": [-92.533564703, 47.522361831], "type": "Point"}, "id": "U6OkYzVQ8IXnV2NsCK-eAZZMIaU=", "properties": {"@source_uri": "https://tools.usps.com/UspsToolsRestServices/rest/POLocator/findLocations", "@spider": "usps_collection_boxes", "addr:city": "VIRGINIA", "addr:country": "US", "addr:postcode": "55792", "addr:state": "MN", "addr:street_address": "231 1ST ST S", "amenity": "post_box", "collection_times": "Mo-Fr 12:00; Sa 11:30", "indoor": "yes", "nsi_id": "unitedstatespostalservice-a77078", "operator": "United States Postal Service", "operator:short": "USPS", "operator:type": "public", "operator:wikidata": "Q668687", "ref": "5579200034"}, "type": "Feature"}
{"geometry": {"coordinates": [-93.26619738, 47.12909697], "type": "Point"}, "id": "7qnVjnkE5B0dJZ14n-pJ5_NyK-c=", "properties": {"@source_uri": "https://tools.usps.com/UspsToolsRestServices/rest/POLocator/findLocations", "@spider": "usps_collection_boxes", "addr:city": "WARBA", "addr:country": "US", "addr:postcode": "55793", "addr:state": "MN", "addr:street_address": "112 BRIDGE ST", "amenity": "post_box", "collection_times": "Mo-Sa 11:45", "nsi_id": "unitedstatespostalservice-a77078", "operator": "United States Postal Service", "operator:short": "USPS", "operator:type": "public", "operator:wikidata": "Q668687", "ref": "5579300000"}, "type": "Feature"}
{"geometry": {"coordinates": [-93.26619738, 47.12909697], "type": "Point"}, "id": "BxaWMIteV0PyUpb7E3KtUFccXVQ=", "properties": {"@source_uri": "https://tools.usps.com/UspsToolsRestServices/rest/POLocator/findLocations", "@spider": "usps_collection_boxes", "addr:city": "WARBA", "addr:country": "US", "addr:postcode": "55793", "addr:state": "MN", "addr:street_address": "112 BRIDGE ST", "amenity": "post_box", "collection_times": "Mo-Fr 15:15; Sa 09:45", "indoor": "yes", "note": "ON 12/24 AND 12/31, THIS BOX MAY BE COLLECTED AS EARLY AS 12 NOON.", "nsi_id": "unitedstatespostalservice-a77078", "operator": "United States Postal Service", "operator:short": "USPS", "operator:type": "public", "operator:wikidata": "Q668687", "ref": "5579300002"}, "type": "Feature"}
{"geometry": {"coordinates": [-93.26619738, 47.12909697], "type": "Point"}, "id": "6X-39bhbJBdLS6nWx0iNF6Nqvro=", "properties": {"@source_uri": "https://tools.usps.com/UspsToolsRestServices/rest/POLocator/findLocations", "@spider": "usps_collection_boxes", "addr:city": "WARBA", "addr:country": "US", "addr:postcode": "55793", "addr:state": "MN", "addr:street_address": "112 BRIDGE ST", "amenity": "post_box", "collection_times": "Mo-Fr 12:00; Sa 10:00", "indoor": "yes", "nsi_id": "unitedstatespostalservice-a77078", "operator": "United States Postal Service", "operator:short": "USPS", "operator:type": "public", "operator:wikidata": "Q668687", "ref": "5579300003"}, "type": "Feature"}
{"geometry": {"coordinates": [-92.839644, 46.319488514], "type": "Point"}, "id": "ORy9GKXnSau7ht6p27pA4jpjbbM=", "properties": {"@source_uri": "https://tools.usps.com/UspsToolsRestServices/rest/POLocator/findLocations", "@spider": "usps_collection_boxes", "addr:city": "WILLOW RIVER", "addr:country": "US", "addr:postcode": "55795", "addr:state": "MN", "addr:street_address": "3002 MAIN ST", "amenity": "post_box", "collection_times": "Mo-Fr 13:45; Sa 09:30", "note": "ON 12/24 AND 12/31, THIS BOX MAY BE COLLECTED AS EARLY AS 12 NOON.", "nsi_id": "unitedstatespostalservice-a77078", "operator": "United States Postal Service", "operator:short": "USPS", "operator:type": "public", "operator:wikidata": "Q668687", "ref": "5579500000"}, "type": "Feature"}
{"geometry": {"coordinates": [-92.839644, 46.319488514], "type": "Point"}, "id": "qpUfnu59EO9JBVpr3FHjy4i8Bk4=", "properties": {"@source_uri": "https://tools.usps.com/UspsToolsRestServices/rest/POLocator/findLocations", "@spider": "usps_collection_boxes", "addr:city": "WILLOW RIVER", "addr:country": "US", "addr:postcode": "55795", "addr:state": "MN", "addr:street_address": "3002 MAIN ST", "amenity": "post_box", "collection_times": "Mo-Fr 10:45; Sa 09:45", "indoor": "yes", "nsi_id": "unitedstatespostalservice-a77078", "operator": "United States Postal Service", "operator:short": "USPS", "operator:type": "public", "operator:wikidata": "Q668687", "ref": "5579500002"}, "type": "Feature"}
{"geometry": {"coordinates": [-92.839644, 46.319488514], "type": "Point"}, "id": "U8_qEnR9_JxALPGf-CWeoRqDSB0=", "properties": {"@source_uri": "https://tools.usps.com/UspsToolsRestServices/rest/POLocator/findLocations", "@spider": "usps_collection_boxes", "addr:city": "WILLOW RIVER", "addr:country": "US", "addr:postcode": "55795", "addr:state": "MN", "addr:street_address": "3002 MAIN ST", "amenity": "post_box", "collection_times": "Mo-Fr 11:00; Sa 09:45", "indoor": "yes", "nsi_id": "unitedstatespostalservice-a77078", "operator": "United States Postal Service", "operator:short": "USPS", "operator:type": "public", "operator:wikidata": "Q668687", "ref": "5579500003"}, "type": "Feature"}
{"geometry": {"coordinates": [-92.385508952, 46.620005847], "type": "Point"}, "id": "J6Hj7nYFr2uO9ixyXpAAgOHOALw=", "properties": {"@source_uri": "https://tools.usps.com/UspsToolsRestServices/rest/POLocator/findLocations", "@spider": "usps_collection_boxes", "addr:city": "WRENSHALL", "addr:country": "US", "addr:postcode": "55797", "addr:state": "MN", "addr:street_address": "104 BROADWAY", "amenity": "post_box", "collection_times": "Mo-Fr 00:40; Sa 11:15", "nsi_id": "unitedstatespostalservice-a77078", "operator": "United States Postal Service", "operator:short": "USPS", "operator:type": "public", "operator:wikidata": "Q668687", "ref": "5579700000"}, "type": "Feature"}
{"geometry": {"coordinates": [-92.385508952, 46.620005847], "type": "Point"}, "id": "4Hfe_4efeDZ6fG_X3WBp3G6TPxw=", "properties": {"@source_uri": "https://tools.usps.com/UspsToolsRestServices/rest/POLocator/findLocations", "@spider": "usps_collection_boxes", "addr:city": "WRENSHALL", "addr:country": "US", "addr:postcode": "55797", "addr:state": "MN", "addr:street_address": "104 BROADWAY", "amenity": "post_box", "collection_times": "Mo-Fr 11:15; Sa 09:30", "indoor": "yes", "nsi_id": "unitedstatespostalservice-a77078", "operator": "United States Postal Service", "operator:short": "USPS", "operator:type": "public", "operator:wikidata": "Q668687", "ref": "5579700001"}, "type": "Feature"}
{"geometry": {"coordinates": [-92.385508952, 46.620005847], "type": "Point"}, "id": "-rE9RxNW7uGCzRUNQhLuEFcuee0=", "properties": {"@source_uri": "https://tools.usps.com/UspsToolsRestServices/rest/POLocator/findLocations", "@spider": "usps_collection_boxes", "addr:city": "WRENSHALL", "addr:country": "US", "addr:postcode": "55797", "addr:state": "MN", "addr:street_address": "104 BROADWAY", "amenity": "post_box", "collection_times": "Mo-Fr 11:30", "indoor": "yes", "nsi_id": "unitedstatespostalservice-a77078", "operator": "United States Postal Service", "operator:short": "USPS", "operator:type": "public", "operator:wikidata": "Q668687", "ref": "5579700002"}, "type": "Feature"}
{"geometry": {"coordinates": [-92.998923222, 46.672591976], "type": "Point"}, "id": "WhBYzrK6msFvFc1cwB37dIua7K0=", "properties": {"@source_uri": "https://tools.usps.com/UspsToolsRestServices/rest/POLocator/findLocations", "@spider": "usps_collection_boxes", "addr:city": "WRIGHT", "addr:country": "US", "addr:postcode": "55798", "addr:state": "MN", "addr:street_address": "6703 PACIFIC AVE", "amenity": "post_box", "collection_times": "Mo-Fr 11:45; Sa 08:30", "nsi_id": "unitedstatespostalservice-a77078", "operator": "United States Postal Service", "operator:short": "USPS", "operator:type": "public", "operator:wikidata": "Q668687", "ref": "5579800000"}, "type": "Feature"}
{"geometry": {"coordinates": [-92.998923222, 46.672591976], "type": "Point"}, "id": "PaavatxCgpCzpcYmHIV6Wg5zHDE=", "properties": {"@source_uri": "https://tools.usps.com/UspsToolsRestServices/rest/POLocator/findLocations", "@spider": "usps_collection_boxes", "addr:city": "WRIGHT", "addr:country": "US", "addr:postcode": "55798", "addr:state": "MN", "addr:street_address": "6703 PACIFIC AVE", "amenity": "post_box", "collection_times": "Mo-Fr 11:45; Sa 09:00", "indoor": "yes", "nsi_id": "unitedstatespostalservice-a77078", "operator": "United States Postal Service", "operator:short": "USPS", "operator:type": "public", "operator:wikidata": "Q668687", "ref": "5579800001"}, "type": "Feature"}
{"geometry": {"coordinates": [-92.998923222, 46.672591976], "type": "Point"}, "id": "gN5PtzLph9xGn1hMiLJMpe6dD18=", "properties": {"@source_uri": "https://tools.usps.com/UspsToolsRestServices/rest/POLocator/findLocations", "@spider": "usps_collection_boxes", "addr:city": "WRIGHT", "addr:country": "US", "addr:postcode": "55798", "addr:state": "MN", "addr:street_address": "6703 PACIFIC AVE", "amenity": "post_box", "collection_times": "Mo-Fr 12:00; Sa 08:45", "indoor": "yes", "nsi_id": "unitedstatespostalservice-a77078", "operator": "United States Postal Service", "operator:short": "USPS", "operator:type": "public", "operator:wikidata": "Q668687", "ref": "5579800002"}, "type": "Feature"}
