{"dataset_attributes": {"@spider": "usps_collection_boxes", "spider:collection_time": "2023-12-19T08:25:25.283853"}, "geometry": {"coordinates": [-92.107042024, 46.7826700196], "type": "Point"}, "id": "RfWj8Re7oDPdtlavUM6EeLQyim8=", "properties": {"@spider": "usps_collection_boxes", "addr:city": "DULUTH", "addr:country": "US", "addr:full": "515 W 1ST ST", "addr:postcode": "55802", "addr:state": "MN", "amenity": "post_box", "brand": "United States Postal Service", "brand:wikidata": "Q668687", "collection_times": "Mo-Fr 13:00", "name": "USPS COLLECTION BOX - PO LOBBY", "note": "ON 12/24 AND 12/31, THIS BOX MAY BE COLLECTED AS EARLY AS 12 NOON.", "nsi_id": "unitedstatespostalservice-a77078", "operator": "United States Postal Service", "operator:short": "USPS", "operator:type": "public", "operator:wikidata": "Q668687", "ref": "5580200001"}, "type": "Feature"}
{"dataset_attributes": {"@spider": "usps_collection_boxes", "spider:collection_time": "2023-12-19T08:25:25.283853"}, "geometry": {"coordinates": [-92.101580317, 46.78594949], "type": "Point"}, "id": "mgTqyugOc40PnhIAK-qz9UfywhQ=", "properties": {"@spider": "usps_collection_boxes", "addr:city": "DULUTH", "addr:country": "US", "addr:full": "125 W 1ST ST", "addr:postcode": "55802", "addr:state": "MN", "amenity": "post_box", "brand": "United States Postal Service", "brand:wikidata": "Q668687", "collection_times": "Mo-Fr 13:45", "name": "USPS COLLECTION BOX - BLUE BOX", "note": "ON 12/24 AND 12/31, THIS BOX MAY BE COLLECTED AS EARLY AS 12 NOON.", "nsi_id": "unitedstatespostalservice-a77078", "operator": "United States Postal Service", "operator:short": "USPS", "operator:type": "public", "operator:wikidata": "Q668687", "ref": "5580200010"}, "type": "Feature"}
{"dataset_attributes": {"@spider": "usps_collection_boxes", "spider:collection_time": "2023-12-19T08:25:25.283853"}, "geometry": {"coordinates": [-92.1008600351, 46.7853580121], "type": "Point"}, "id": "gNaHwH2iXVbL3qd5kT8dcIWyt_0=", "properties": {"@spider": "usps_collection_boxes", "addr:city": "DULUTH", "addr:country": "US", "addr:full": "131 W SUPERIOR ST", "addr:postcode": "55802", "addr:state": "MN", "amenity": "post_box", "brand": "United States Postal Service", "brand:wikidata": "Q668687", "collection_times": "Mo-Sa 12:45", "name": "USPS COLLECTION BOX - BLUE BOX", "note": "ON 12/24 AND 12/31, THIS BOX MAY BE COLLECTED AS EARLY AS 12 NOON.", "nsi_id": "unitedstatespostalservice-a77078", "operator": "United States Postal Service", "operator:short": "USPS", "operator:type": "public", "operator:wikidata": "Q668687", "ref": "5580200013"}, "type": "Feature"}
{"dataset_attributes": {"@spider": "usps_collection_boxes", "spider:collection_time": "2023-12-19T08:25:25.283853"}, "geometry": {"coordinates": [-92.102574972, 46.784029019], "type": "Point"}, "id": "oXbybrOkK77EMzNrjBb24uzZcSw=", "properties": {"@spider": "usps_collection_boxes", "addr:city": "DULUTH", "addr:country": "US", "addr:full": "307 W SUPERIOR ST", "addr:postcode": "55802", "addr:state": "MN", "amenity": "post_box", "brand": "United States Postal Service", "brand:wikidata": "Q668687", "collection_times": "Mo-Sa 12:30", "name": "USPS COLLECTION BOX - BLUE BOX", "note": "ON 12/24 AND 12/31, THIS BOX MAY BE COLLECTED AS EARLY AS 12 NOON.", "nsi_id": "unitedstatespostalservice-a77078", "operator": "United States Postal Service", "operator:short": "USPS", "operator:type": "public", "operator:wikidata": "Q668687", "ref": "5580200014"}, "type": "Feature"}
{"dataset_attributes": {"@spider": "usps_collection_boxes", "spider:collection_time": "2023-12-19T08:25:25.283853"}, "geometry": {"coordinates": [-92.1040399615, 46.7829469995], "type": "Point"}, "id": "SAFrr2v45Xke9b96XKPDF8qq94o=", "properties": {"@spider": "usps_collection_boxes", "addr:city": "DULUTH", "addr:country": "US", "addr:full": "425 W SUPERIOR ST", "addr:postcode": "55802", "addr:state": "MN", "amenity": "post_box", "brand": "United States Postal Service", "brand:wikidata": "Q668687", "collection_times": "Mo-Fr 12:30", "name": "USPS COLLECTION BOX - BLUE BOX", "note": "ON 12/24 AND 12/31, THIS BOX MAY BE COLLECTED AS EARLY AS 12 NOON.", "nsi_id": "unitedstatespostalservice-a77078", "operator": "United States Postal Service", "operator:short": "USPS", "operator:type": "public", "operator:wikidata": "Q668687", "ref": "5580200016"}, "type": "Feature"}
{"dataset_attributes": {"@spider": "usps_collection_boxes", "spider:collection_time": "2023-12-19T08:25:25.283853"}, "geometry": {"coordinates": [-92.0966197869, 46.7882201387], "type": "Point"}, "id": "bs-0lI_IVPe9eQS54T68BhY66aw=", "properties": {"@spider": "usps_collection_boxes", "addr:city": "DULUTH", "addr:country": "US", "addr:full": "127 E SUPERIOR ST", "addr:postcode": "55802", "addr:state": "MN", "amenity": "post_box", "brand": "United States Postal Service", "brand:wikidata": "Q668687", "collection_times": "Mo-Sa 12:15", "name": "USPS COLLECTION BOX - BLUE BOX", "note": "ON 12/24 AND 12/31, THIS BOX MAY BE COLLECTED AS EARLY AS 12 NOON.", "nsi_id": "unitedstatespostalservice-a77078", "operator": "United States Postal Service", "operator:short": "USPS", "operator:type": "public", "operator:wikidata": "Q668687", "ref": "5580200020"}, "type": "Feature"}
{"dataset_attributes": {"@spider": "usps_collection_boxes", "spider:collection_time": "2023-12-19T08:25:25.283853"}, "geometry": {"coordinates": [-92.09383288, 46.780668176], "type": "Point"}, "id": "c4_rATyLxxoUCb-WE1RKrp_jwAg=", "properties": {"@spider": "usps_collection_boxes", "addr:city": "DULUTH", "addr:country": "US", "addr:full": "11 W MORSE ST", "addr:postcode": "55802", "addr:state": "MN", "amenity": "post_box", "brand": "United States Postal Service", "brand:wikidata": "Q668687", "collection_times": "Mo-Sa 12:15", "name": "USPS COLLECTION BOX - BLUE BOX", "note": "ON 12/24 AND 12/31, THIS BOX MAY BE COLLECTED AS EARLY AS 12 NOON.", "nsi_id": "unitedstatespostalservice-a77078", "operator": "United States Postal Service", "operator:short": "USPS", "operator:type": "public", "operator:wikidata": "Q668687", "ref": "5580200031"}, "type": "Feature"}
{"dataset_attributes": {"@spider": "usps_collection_boxes", "spider:collection_time": "2023-12-19T08:25:25.283853"}, "geometry": {"coordinates": [-92.082841011, 46.798661794], "type": "Point"}, "id": "j6hoxt3-ZSbqcJ-wMpuifrRhdps=", "properties": {"@spider": "usps_collection_boxes", "addr:city": "DULUTH", "addr:country": "US", "addr:full": "1230 E SUPERIOR ST", "addr:postcode": "55802", "addr:state": "MN", "amenity": "post_box", "brand": "United States Postal Service", "brand:wikidata": "Q668687", "collection_times": "Mo-Fr 14:15; Sa 12:45", "name": "USPS COLLECTION BOX - BLUE BOX", "note": "ON 12/24 AND 12/31, THIS BOX MAY BE COLLECTED AS EARLY AS 12 NOON.", "nsi_id": "unitedstatespostalservice-a77078", "operator": "United States Postal Service", "operator:short": "USPS", "operator:type": "public", "operator:wikidata": "Q668687", "ref": "5580200033"}, "type": "Feature"}
{"dataset_attributes": {"@spider": "usps_collection_boxes", "spider:collection_time": "2023-12-19T08:25:25.283853"}, "geometry": {"coordinates": [-92.094812625, 46.78188345], "type": "Point"}, "id": "2qxxU_AqFg1cRGKVDSe81kBIL0k=", "properties": {"@spider": "usps_collection_boxes", "addr:city": "DULUTH", "addr:country": "US", "addr:full": "394 S LAKE AVE", "addr:postcode": "55802", "addr:state": "MN", "amenity": "post_box", "brand": "United States Postal Service", "brand:wikidata": "Q668687", "collection_times": "Mo-Fr 12:00; Sa 11:00", "name": "USPS COLLECTION BOX - BLUE BOX", "nsi_id": "unitedstatespostalservice-a77078", "operator": "United States Postal Service", "operator:short": "USPS", "operator:type": "public", "operator:wikidata": "Q668687", "ref": "5580200036"}, "type": "Feature"}
{"dataset_attributes": {"@spider": "usps_collection_boxes", "spider:collection_time": "2023-12-19T08:25:25.283853"}, "geometry": {"coordinates": [-92.1044439693, 46.7848030044], "type": "Point"}, "id": "p3qE7cmoqsNzQ7Ha-lEwNPPRtAk=", "properties": {"@spider": "usps_collection_boxes", "addr:city": "DULUTH", "addr:country": "US", "addr:full": "320 W 2ND ST", "addr:postcode": "55802", "addr:state": "MN", "amenity": "post_box", "brand": "United States Postal Service", "brand:wikidata": "Q668687", "collection_times": "Mo-Fr 12:45", "name": "USPS COLLECTION BOX - BLUE BOX", "note": "ON 12/24 AND 12/31, THIS BOX MAY BE COLLECTED AS EARLY AS 12 NOON.", "nsi_id": "unitedstatespostalservice-a77078", "operator": "United States Postal Service", "operator:short": "USPS", "operator:type": "public", "operator:wikidata": "Q668687", "ref": "5580200038"}, "type": "Feature"}
{"dataset_attributes": {"@spider": "usps_collection_boxes", "spider:collection_time": "2023-12-19T08:25:25.283853"}, "geometry": {"coordinates": [-92.10149329, 46.783614856], "type": "Point"}, "id": "OlldL6YzfHdc2C1VCPzb1ZNVzyg=", "properties": {"@spider": "usps_collection_boxes", "addr:city": "DULUTH", "addr:country": "US", "addr:full": "300 W MICHIGAN ST", "addr:postcode": "55802", "addr:state": "MN", "amenity": "post_box", "brand": "United States Postal Service", "brand:wikidata": "Q668687", "collection_times": "Mo-Fr 12:30", "name": "USPS COLLECTION BOX - BLUE BOX", "note": "ON 12/24 AND 12/31, THIS BOX MAY BE COLLECTED AS EARLY AS 12 NOON.", "nsi_id": "unitedstatespostalservice-a77078", "operator": "United States Postal Service", "operator:short": "USPS", "operator:type": "public", "operator:wikidata": "Q668687", "ref": "5580200039"}, "type": "Feature"}
{"dataset_attributes": {"@spider": "usps_collection_boxes", "spider:collection_time": "2023-12-19T08:25:25.283853"}, "geometry": {"coordinates": [-92.090988154, 46.792447074], "type": "Point"}, "id": "ELe7YiWtW7yNP78DLpw6SKw1LdU=", "properties": {"@spider": "usps_collection_boxes", "addr:city": "DULUTH", "addr:country": "US", "addr:full": "600 E SUPERIOR ST", "addr:postcode": "55802", "addr:state": "MN", "amenity": "post_box", "brand": "United States Postal Service", "brand:wikidata": "Q668687", "collection_times": "Mo-Fr 12:00", "name": "USPS COLLECTION BOX - BLUE BOX", "nsi_id": "unitedstatespostalservice-a77078", "operator": "United States Postal Service", "operator:short": "USPS", "operator:type": "public", "operator:wikidata": "Q668687", "ref": "5580200085"}, "type": "Feature"}
{"dataset_attributes": {"@spider": "usps_collection_boxes", "spider:collection_time": "2023-12-19T08:25:25.283853"}, "geometry": {"coordinates": [-92.103310046, 46.784626239], "type": "Point"}, "id": "t4J0yVVVbv7gLCbV1JSlTzsbvp4=", "properties": {"@spider": "usps_collection_boxes", "addr:city": "DULUTH", "addr:country": "US", "addr:full": "301 W 1ST ST", "addr:postcode": "55802", "addr:state": "MN", "amenity": "post_box", "brand": "United States Postal Service", "brand:wikidata": "Q668687", "collection_times": "Mo-Fr 13:15", "name": "USPS COLLECTION BOX - BLUE BOX", "note": "ON 12/24 AND 12/31, THIS BOX MAY BE COLLECTED AS EARLY AS 12 NOON.", "nsi_id": "unitedstatespostalservice-a77078", "operator": "United States Postal Service", "operator:short": "USPS", "operator:type": "public", "operator:wikidata": "Q668687", "ref": "5580200096"}, "type": "Feature"}
{"dataset_attributes": {"@spider": "usps_collection_boxes", "spider:collection_time": "2023-12-19T08:25:25.283853"}, "geometry": {"coordinates": [-92.100745, 46.784255], "type": "Point"}, "id": "M049-SoAAjKWen6RiS21oiypcWA=", "properties": {"@spider": "usps_collection_boxes", "addr:city": "DULUTH", "addr:country": "US", "addr:full": "2800 W MICHIGAN ST", "addr:postcode": "55802", "addr:state": "MN", "amenity": "post_box", "brand": "United States Postal Service", "brand:wikidata": "Q668687", "collection_times": "Mo-Fr 13:15", "name": "USPS COLLECTION BOX - BLUE BOX", "note": "ON 12/24 AND 12/31, THIS BOX MAY BE COLLECTED AS EARLY AS 12 NOON.", "nsi_id": "unitedstatespostalservice-a77078", "operator": "United States Postal Service", "operator:short": "USPS", "operator:type": "public", "operator:wikidata": "Q668687", "ref": "5580200097"}, "type": "Feature"}
{"dataset_attributes": {"@spider": "usps_collection_boxes", "spider:collection_time": "2023-12-19T08:25:25.283853"}, "geometry": {"coordinates": [-92.107042024, 46.7826700196], "type": "Point"}, "id": "xrs0X9b98nO4FmDIKOSZZt62rq8=", "properties": {"@spider": "usps_collection_boxes", "addr:city": "DULUTH", "addr:country": "US", "addr:full": "515 W 1ST ST", "addr:postcode": "55802", "addr:state": "MN", "amenity": "post_box", "brand": "United States Postal Service", "brand:wikidata": "Q668687", "collection_times": "Mo-Fr 12:45", "name": "USPS COLLECTION BOX - PO LOBBY", "note": "ON 12/24 AND 12/31, THIS BOX MAY BE COLLECTED AS EARLY AS 12 NOON.", "nsi_id": "unitedstatespostalservice-a77078", "operator": "United States Postal Service", "operator:short": "USPS", "operator:type": "public", "operator:wikidata": "Q668687", "ref": "5580200098"}, "type": "Feature"}
{"dataset_attributes": {"@spider": "usps_collection_boxes", "spider:collection_time": "2023-12-19T08:25:25.283853"}, "geometry": {"coordinates": [-92.072553169, 46.821204528], "type": "Point"}, "id": "NX079o4NEjEilx5209NmcH_9lkg=", "properties": {"@spider": "usps_collection_boxes", "addr:city": "DULUTH", "addr:country": "US", "addr:full": "200 MOUNT ROYAL SHOPPING CIR", "addr:postcode": "55803", "addr:state": "MN", "amenity": "post_box", "brand": "United States Postal Service", "brand:wikidata": "Q668687", "collection_times": "Mo-Sa 14:30", "name": "USPS COLLECTION BOX - PO LOBBY", "note": "ON 12/24 AND 12/31, THIS BOX MAY BE COLLECTED AS EARLY AS 12 NOON.", "nsi_id": "unitedstatespostalservice-a77078", "operator": "United States Postal Service", "operator:short": "USPS", "operator:type": "public", "operator:wikidata": "Q668687", "ref": "5580300001"}, "type": "Feature"}
{"dataset_attributes": {"@spider": "usps_collection_boxes", "spider:collection_time": "2023-12-19T08:25:25.283853"}, "geometry": {"coordinates": [-92.072553169, 46.821204528], "type": "Point"}, "id": "x6ET62U3seurXB0exqTtHN-KUZo=", "properties": {"@spider": "usps_collection_boxes", "addr:city": "DULUTH", "addr:country": "US", "addr:full": "200 MOUNT ROYAL SHOPPING CIR", "addr:postcode": "55803", "addr:state": "MN", "amenity": "post_box", "brand": "United States Postal Service", "brand:wikidata": "Q668687", "collection_times": "Mo-Sa 14:30", "name": "USPS COLLECTION BOX - BLUE BOX", "note": "ON 12/24 AND 12/31, THIS BOX MAY BE COLLECTED AS EARLY AS 12 NOON.", "nsi_id": "unitedstatespostalservice-a77078", "operator": "United States Postal Service", "operator:short": "USPS", "operator:type": "public", "operator:wikidata": "Q668687", "ref": "5580300002"}, "type": "Feature"}
{"dataset_attributes": {"@spider": "usps_collection_boxes", "spider:collection_time": "2023-12-19T08:25:25.283853"}, "geometry": {"coordinates": [-92.081396465, 46.850775225], "type": "Point"}, "id": "gBbIFUO4qAWSvdq7mU-LDY8ZOd8=", "properties": {"@spider": "usps_collection_boxes", "addr:city": "DULUTH", "addr:country": "US", "addr:full": "4020 WOODLAND AVE", "addr:postcode": "55803", "addr:state": "MN", "amenity": "post_box", "brand": "United States Postal Service", "brand:wikidata": "Q668687", "collection_times": "Mo-Fr 13:15; Sa 10:00", "name": "USPS COLLECTION BOX - BLUE BOX", "note": "ON 12/24 AND 12/31, THIS BOX MAY BE COLLECTED AS EARLY AS 12 NOON.", "nsi_id": "unitedstatespostalservice-a77078", "operator": "United States Postal Service", "operator:short": "USPS", "operator:type": "public", "operator:wikidata": "Q668687", "ref": "5580300008"}, "type": "Feature"}
{"dataset_attributes": {"@spider": "usps_collection_boxes", "spider:collection_time": "2023-12-19T08:25:25.283853"}, "geometry": {"coordinates": [-92.072553169, 46.821204528], "type": "Point"}, "id": "vXQKHFq6vWryHpXQu2Fi5IRpL-k=", "properties": {"@spider": "usps_collection_boxes", "addr:city": "DULUTH", "addr:country": "US", "addr:full": "200 MOUNT ROYAL SHOPPING CIR", "addr:postcode": "55803", "addr:state": "MN", "amenity": "post_box", "brand": "United States Postal Service", "brand:wikidata": "Q668687", "collection_times": "Mo-Fr 14:30; Sa 12:30", "name": "USPS COLLECTION BOX - PO LOBBY", "note": "ON 12/24 AND 12/31, THIS BOX MAY BE COLLECTED AS EARLY AS 12 NOON.", "nsi_id": "unitedstatespostalservice-a77078", "operator": "United States Postal Service", "operator:short": "USPS", "operator:type": "public", "operator:wikidata": "Q668687", "ref": "5580300009"}, "type": "Feature"}
{"dataset_attributes": {"@spider": "usps_collection_boxes", "spider:collection_time": "2023-12-19T08:25:25.283853"}, "geometry": {"coordinates": [-92.036725, 46.8288], "type": "Point"}, "id": "Th7zJOl-10kiAjCudHc4bJb1aYY=", "properties": {"@spider": "usps_collection_boxes", "addr:city": "DULUTH", "addr:country": "US", "addr:full": "4431 E SUPERIOR ST", "addr:postcode": "55804", "addr:state": "MN", "amenity": "post_box", "brand": "United States Postal Service", "brand:wikidata": "Q668687", "collection_times": "Mo-Fr 14:00; Sa 12:30", "name": "USPS COLLECTION BOX - BLUE BOX", "note": "ON 12/24 AND 12/31, THIS BOX MAY BE COLLECTED AS EARLY AS 12 NOON.", "nsi_id": "unitedstatespostalservice-a77078", "operator": "United States Postal Service", "operator:short": "USPS", "operator:type": "public", "operator:wikidata": "Q668687", "ref": "5580400003"}, "type": "Feature"}
{"dataset_attributes": {"@spider": "usps_collection_boxes", "spider:collection_time": "2023-12-19T08:25:25.283853"}, "geometry": {"coordinates": [-92.0060968523, 46.8394055341], "type": "Point"}, "id": "8CeUwcud2UZwacmUkT5cOGWzaps=", "properties": {"@spider": "usps_collection_boxes", "addr:city": "DULUTH", "addr:country": "US", "addr:full": "6101 E SUPERIOR ST", "addr:postcode": "55804", "addr:state": "MN", "amenity": "post_box", "brand": "United States Postal Service", "brand:wikidata": "Q668687", "collection_times": "Mo-Sa 11:00", "name": "USPS COLLECTION BOX - BLUE BOX", "nsi_id": "unitedstatespostalservice-a77078", "operator": "United States Postal Service", "operator:short": "USPS", "operator:type": "public", "operator:wikidata": "Q668687", "ref": "5580400004"}, "type": "Feature"}
{"dataset_attributes": {"@spider": "usps_collection_boxes", "spider:collection_time": "2023-12-19T08:25:25.283853"}, "geometry": {"coordinates": [-92.026728318, 46.830591554], "type": "Point"}, "id": "_IYMuTcwJVdkmrAUZxpZgZWiX0Y=", "properties": {"@spider": "usps_collection_boxes", "addr:city": "DULUTH", "addr:country": "US", "addr:full": "4801 E SUPERIOR ST", "addr:postcode": "55804", "addr:state": "MN", "amenity": "post_box", "brand": "United States Postal Service", "brand:wikidata": "Q668687", "collection_times": "Mo-Fr 13:45; Sa 12:30", "name": "USPS COLLECTION BOX - BLUE BOX", "note": "ON 12/24 AND 12/31, THIS BOX MAY BE COLLECTED AS EARLY AS 12 NOON.", "nsi_id": "unitedstatespostalservice-a77078", "operator": "United States Postal Service", "operator:short": "USPS", "operator:type": "public", "operator:wikidata": "Q668687", "ref": "5580400005"}, "type": "Feature"}
{"dataset_attributes": {"@spider": "usps_collection_boxes", "spider:collection_time": "2023-12-19T08:25:25.283853"}, "geometry": {"coordinates": [-92.033485228, 46.826930451], "type": "Point"}, "id": "HLUHNfP55cz-z72h7-tStML5z_Q=", "properties": {"@spider": "usps_collection_boxes", "addr:city": "DULUTH", "addr:country": "US", "addr:full": "4427 E SUPERIOR ST", "addr:postcode": "55804", "addr:state": "MN", "amenity": "post_box", "brand": "United States Postal Service", "brand:wikidata": "Q668687", "collection_times": "Mo-Fr 13:45", "name": "USPS COLLECTION BOX - PO LOBBY", "note": "ON 12/24 AND 12/31, THIS BOX MAY BE COLLECTED AS EARLY AS 12 NOON.", "nsi_id": "unitedstatespostalservice-a77078", "operator": "United States Postal Service", "operator:short": "USPS", "operator:type": "public", "operator:wikidata": "Q668687", "ref": "5580400006"}, "type": "Feature"}
{"dataset_attributes": {"@spider": "usps_collection_boxes", "spider:collection_time": "2023-12-19T08:25:25.283853"}, "geometry": {"coordinates": [-92.09274341, 46.797152638], "type": "Point"}, "id": "NnGxWjt1hs_VpEBYUwjY_6pmmY4=", "properties": {"@spider": "usps_collection_boxes", "addr:city": "DULUTH", "addr:country": "US", "addr:full": "732 E 4TH ST", "addr:postcode": "55805", "addr:state": "MN", "amenity": "post_box", "brand": "United States Postal Service", "brand:wikidata": "Q668687", "collection_times": "Mo-Fr 11:15; Sa 10:00", "name": "USPS COLLECTION BOX - BLUE BOX", "nsi_id": "unitedstatespostalservice-a77078", "operator": "United States Postal Service", "operator:short": "USPS", "operator:type": "public", "operator:wikidata": "Q668687", "ref": "5580500003"}, "type": "Feature"}
{"dataset_attributes": {"@spider": "usps_collection_boxes", "spider:collection_time": "2023-12-19T08:25:25.283853"}, "geometry": {"coordinates": [-92.095731853, 46.802446428], "type": "Point"}, "id": "r3VSHammpFGgv5hXUXStRMjNkPs=", "properties": {"@spider": "usps_collection_boxes", "addr:city": "DULUTH", "addr:country": "US", "addr:full": "931 E 9TH ST", "addr:postcode": "55805", "addr:state": "MN", "amenity": "post_box", "brand": "United States Postal Service", "brand:wikidata": "Q668687", "collection_times": "Mo-Fr 11:00; Sa 10:00", "name": "USPS COLLECTION BOX - BLUE BOX", "nsi_id": "unitedstatespostalservice-a77078", "operator": "United States Postal Service", "operator:short": "USPS", "operator:type": "public", "operator:wikidata": "Q668687", "ref": "5580500004"}, "type": "Feature"}
{"dataset_attributes": {"@spider": "usps_collection_boxes", "spider:collection_time": "2023-12-19T08:25:25.283853"}, "geometry": {"coordinates": [-92.0932569784, 46.7926930156], "type": "Point"}, "id": "VJrpYb9F-iCdSZJYOmbbkDDgjbM=", "properties": {"@spider": "usps_collection_boxes", "addr:city": "DULUTH", "addr:country": "US", "addr:full": "502 E 2ND ST", "addr:postcode": "55805", "addr:state": "MN", "amenity": "post_box", "brand": "United States Postal Service", "brand:wikidata": "Q668687", "collection_times": "Mo-Fr 12:00", "name": "USPS COLLECTION BOX - BLUE BOX", "nsi_id": "unitedstatespostalservice-a77078", "operator": "United States Postal Service", "operator:short": "USPS", "operator:type": "public", "operator:wikidata": "Q668687", "ref": "5580500013"}, "type": "Feature"}
{"dataset_attributes": {"@spider": "usps_collection_boxes", "spider:collection_time": "2023-12-19T08:25:25.283853"}, "geometry": {"coordinates": [-92.086613038, 46.797300703], "type": "Point"}, "id": "kGB8fG866gGCG_biZVa_t0wUnnU=", "properties": {"@spider": "usps_collection_boxes", "addr:city": "DULUTH", "addr:country": "US", "addr:full": "1000 E 1ST ST", "addr:postcode": "55805", "addr:state": "MN", "amenity": "post_box", "brand": "United States Postal Service", "brand:wikidata": "Q668687", "collection_times": "Mo-Fr 11:30; Sa 10:30", "name": "USPS COLLECTION BOX - BLUE BOX", "nsi_id": "unitedstatespostalservice-a77078", "operator": "United States Postal Service", "operator:short": "USPS", "operator:type": "public", "operator:wikidata": "Q668687", "ref": "5580500015"}, "type": "Feature"}
{"dataset_attributes": {"@spider": "usps_collection_boxes", "spider:collection_time": "2023-12-19T08:25:25.283853"}, "geometry": {"coordinates": [-92.082764693, 46.800416424], "type": "Point"}, "id": "aQiRVSt-1VrXh_yBQC04Bq-SU6U=", "properties": {"@spider": "usps_collection_boxes", "addr:city": "DULUTH", "addr:country": "US", "addr:full": "1331 E 1ST ST", "addr:postcode": "55805", "addr:state": "MN", "amenity": "post_box", "brand": "United States Postal Service", "brand:wikidata": "Q668687", "collection_times": "Mo-Sa 10:00", "name": "USPS COLLECTION BOX - BLUE BOX", "nsi_id": "unitedstatespostalservice-a77078", "operator": "United States Postal Service", "operator:short": "USPS", "operator:type": "public", "operator:wikidata": "Q668687", "ref": "5580500023"}, "type": "Feature"}
{"dataset_attributes": {"@spider": "usps_collection_boxes", "spider:collection_time": "2023-12-19T08:25:25.283853"}, "geometry": {"coordinates": [-92.1318529603, 46.7592270098], "type": "Point"}, "id": "hTeXvdikcbNna-HPmsTr5Zrus_g=", "properties": {"@spider": "usps_collection_boxes", "addr:city": "DULUTH", "addr:country": "US", "addr:full": "2800 W MICHIGAN ST", "addr:postcode": "55806", "addr:state": "MN", "amenity": "post_box", "brand": "United States Postal Service", "brand:wikidata": "Q668687", "collection_times": "Mo-Sa 15:15", "name": "USPS COLLECTION BOX - BLUE BOX", "note": "ON 12/24 AND 12/31, THIS BOX MAY BE COLLECTED AS EARLY AS 12 NOON.", "nsi_id": "unitedstatespostalservice-a77078", "operator": "United States Postal Service", "operator:short": "USPS", "operator:type": "public", "operator:wikidata": "Q668687", "ref": "5580600004"}, "type": "Feature"}
{"dataset_attributes": {"@spider": "usps_collection_boxes", "spider:collection_time": "2023-12-19T08:25:25.283853"}, "geometry": {"coordinates": [-92.1318529603, 46.7592270098], "type": "Point"}, "id": "At_uThZFt3xDVEshX_KX3FwqKHg=", "properties": {"@spider": "usps_collection_boxes", "addr:city": "DULUTH", "addr:country": "US", "addr:full": "2800 W MICHIGAN ST", "addr:postcode": "55806", "addr:state": "MN", "amenity": "post_box", "brand": "United States Postal Service", "brand:wikidata": "Q668687", "collection_times": "Mo-Sa 15:15", "name": "USPS COLLECTION BOX - BLUE BOX", "note": "ON 12/24 AND 12/31, THIS BOX MAY BE COLLECTED AS EARLY AS 12 NOON.", "nsi_id": "unitedstatespostalservice-a77078", "operator": "United States Postal Service", "operator:short": "USPS", "operator:type": "public", "operator:wikidata": "Q668687", "ref": "5580600020"}, "type": "Feature"}
{"dataset_attributes": {"@spider": "usps_collection_boxes", "spider:collection_time": "2023-12-19T08:25:25.283853"}, "geometry": {"coordinates": [-92.1318529603, 46.7592270098], "type": "Point"}, "id": "qHvWWNVcoMZGoJ4f5ySGT-XOEco=", "properties": {"@spider": "usps_collection_boxes", "addr:city": "DULUTH", "addr:country": "US", "addr:full": "2800 W MICHIGAN ST", "addr:postcode": "55806", "addr:state": "MN", "amenity": "post_box", "brand": "United States Postal Service", "brand:wikidata": "Q668687", "collection_times": "Mo-Sa 15:15", "name": "USPS COLLECTION BOX - PO LOBBY", "note": "ON 12/24 AND 12/31, THIS BOX MAY BE COLLECTED AS EARLY AS 12 NOON.", "nsi_id": "unitedstatespostalservice-a77078", "operator": "United States Postal Service", "operator:short": "USPS", "operator:type": "public", "operator:wikidata": "Q668687", "ref": "5580600023"}, "type": "Feature"}
{"dataset_attributes": {"@spider": "usps_collection_boxes", "spider:collection_time": "2023-12-19T08:25:25.283853"}, "geometry": {"coordinates": [-92.1318529603, 46.7592270098], "type": "Point"}, "id": "Oblf7q3sh87SGTtH462V4Aviggg=", "properties": {"@spider": "usps_collection_boxes", "addr:city": "DULUTH", "addr:country": "US", "addr:full": "2800 W MICHIGAN ST", "addr:postcode": "55806", "addr:state": "MN", "amenity": "post_box", "brand": "United States Postal Service", "brand:wikidata": "Q668687", "collection_times": "Mo-Sa 15:15", "name": "USPS COLLECTION BOX - PO LOBBY", "note": "ON 12/24 AND 12/31, THIS BOX MAY BE COLLECTED AS EARLY AS 12 NOON.", "nsi_id": "unitedstatespostalservice-a77078", "operator": "United States Postal Service", "operator:short": "USPS", "operator:type": "public", "operator:wikidata": "Q668687", "ref": "5580600024"}, "type": "Feature"}
{"dataset_attributes": {"@spider": "usps_collection_boxes", "spider:collection_time": "2023-12-19T08:25:25.283853"}, "geometry": {"coordinates": [-92.1318529603, 46.7592270098], "type": "Point"}, "id": "c0fzaB2lb8jem2mP9OzB2caivyg=", "properties": {"@spider": "usps_collection_boxes", "addr:city": "DULUTH", "addr:country": "US", "addr:full": "2800 W MICHIGAN ST", "addr:postcode": "55806", "addr:state": "MN", "amenity": "post_box", "brand": "United States Postal Service", "brand:wikidata": "Q668687", "collection_times": "Mo-Fr 15:15; Sa 13:00", "name": "USPS COLLECTION BOX - PO LOBBY", "note": "ON 12/24 AND 12/31, THIS BOX MAY BE COLLECTED AS EARLY AS 12 NOON.", "nsi_id": "unitedstatespostalservice-a77078", "operator": "United States Postal Service", "operator:short": "USPS", "operator:type": "public", "operator:wikidata": "Q668687", "ref": "5580600025"}, "type": "Feature"}
{"dataset_attributes": {"@spider": "usps_collection_boxes", "spider:collection_time": "2023-12-19T08:25:25.283853"}, "geometry": {"coordinates": [-92.1641805, 46.737628473], "type": "Point"}, "id": "7HdEerhnzSVQALGqL_xiJSbr1ZE=", "properties": {"@spider": "usps_collection_boxes", "addr:city": "DULUTH", "addr:country": "US", "addr:full": "5300 BRISTOL ST", "addr:postcode": "55807", "addr:state": "MN", "amenity": "post_box", "brand": "United States Postal Service", "brand:wikidata": "Q668687", "collection_times": "Mo-Sa 10:00", "name": "USPS COLLECTION BOX - BLUE BOX", "nsi_id": "unitedstatespostalservice-a77078", "operator": "United States Postal Service", "operator:short": "USPS", "operator:type": "public", "operator:wikidata": "Q668687", "ref": "5580700006"}, "type": "Feature"}
{"dataset_attributes": {"@spider": "usps_collection_boxes", "spider:collection_time": "2023-12-19T08:25:25.283853"}, "geometry": {"coordinates": [-92.159703276, 46.745578302], "type": "Point"}, "id": "KEfFBBeF1a-TDUuE7ldR-Yu94ag=", "properties": {"@spider": "usps_collection_boxes", "addr:city": "DULUTH", "addr:country": "US", "addr:full": "4602 GRAND AVE", "addr:postcode": "55807", "addr:state": "MN", "amenity": "post_box", "brand": "United States Postal Service", "brand:wikidata": "Q668687", "collection_times": "Mo-Sa 10:00", "name": "USPS COLLECTION BOX - BLUE BOX", "nsi_id": "unitedstatespostalservice-a77078", "operator": "United States Postal Service", "operator:short": "USPS", "operator:type": "public", "operator:wikidata": "Q668687", "ref": "5580700015"}, "type": "Feature"}
{"dataset_attributes": {"@spider": "usps_collection_boxes", "spider:collection_time": "2023-12-19T08:25:25.283853"}, "geometry": {"coordinates": [-92.166532599, 46.737160638], "type": "Point"}, "id": "CpWV6j_rM3lByTlt_a1eTpgW0NY=", "properties": {"@spider": "usps_collection_boxes", "addr:city": "DULUTH", "addr:country": "US", "addr:full": "215 N CENTRAL AVE", "addr:postcode": "55807", "addr:state": "MN", "amenity": "post_box", "brand": "United States Postal Service", "brand:wikidata": "Q668687", "collection_times": "Mo-Fr 14:30; Sa 10:30", "name": "USPS COLLECTION BOX - BLUE BOX", "note": "ON 12/24 AND 12/31, THIS BOX MAY BE COLLECTED AS EARLY AS 12 NOON.", "nsi_id": "unitedstatespostalservice-a77078", "operator": "United States Postal Service", "operator:short": "USPS", "operator:type": "public", "operator:wikidata": "Q668687", "ref": "5580700028"}, "type": "Feature"}
{"dataset_attributes": {"@spider": "usps_collection_boxes", "spider:collection_time": "2023-12-19T08:25:25.283853"}, "geometry": {"coordinates": [-92.169255, 46.74219], "type": "Point"}, "id": "lWGaeP5sCBzQ7G_nPg1U4FDUeok=", "properties": {"@spider": "usps_collection_boxes", "addr:city": "DULUTH", "addr:country": "US", "addr:full": "231 N CENTRAL AVE", "addr:postcode": "55807", "addr:state": "MN", "amenity": "post_box", "brand": "United States Postal Service", "brand:wikidata": "Q668687", "collection_times": "Mo-Sa 10:00", "name": "USPS COLLECTION BOX - BLUE BOX", "nsi_id": "unitedstatespostalservice-a77078", "operator": "United States Postal Service", "operator:short": "USPS", "operator:type": "public", "operator:wikidata": "Q668687", "ref": "5580700031"}, "type": "Feature"}
{"dataset_attributes": {"@spider": "usps_collection_boxes", "spider:collection_time": "2023-12-19T08:25:25.283853"}, "geometry": {"coordinates": [-92.166532599, 46.737160638], "type": "Point"}, "id": "5AEuiNMnLySaTwnn8j98Ft3-AFw=", "properties": {"@spider": "usps_collection_boxes", "addr:city": "DULUTH", "addr:country": "US", "addr:full": "215 N CENTRAL AVE", "addr:postcode": "55807", "addr:state": "MN", "amenity": "post_box", "brand": "United States Postal Service", "brand:wikidata": "Q668687", "collection_times": "Mo-Fr 14:30", "name": "USPS COLLECTION BOX - PO LOBBY", "note": "ON 12/24 AND 12/31, THIS BOX MAY BE COLLECTED AS EARLY AS 12 NOON.", "nsi_id": "unitedstatespostalservice-a77078", "operator": "United States Postal Service", "operator:short": "USPS", "operator:type": "public", "operator:wikidata": "Q668687", "ref": "5580700032"}, "type": "Feature"}
{"dataset_attributes": {"@spider": "usps_collection_boxes", "spider:collection_time": "2023-12-19T08:25:25.283853"}, "geometry": {"coordinates": [-92.166532599, 46.737160638], "type": "Point"}, "id": "LptYtKRoa3Ria_jW5C-NFrv4HZA=", "properties": {"@spider": "usps_collection_boxes", "addr:city": "DULUTH", "addr:country": "US", "addr:full": "215 N CENTRAL AVE BLDG 1", "addr:postcode": "55807", "addr:state": "MN", "amenity": "post_box", "brand": "United States Postal Service", "brand:wikidata": "Q668687", "collection_times": "Mo-Fr 14:30", "name": "USPS COLLECTION BOX - PO LOBBY", "note": "ON 12/24 AND 12/31, THIS BOX MAY BE COLLECTED AS EARLY AS 12 NOON.", "nsi_id": "unitedstatespostalservice-a77078", "operator": "United States Postal Service", "operator:short": "USPS", "operator:type": "public", "operator:wikidata": "Q668687", "ref": "5580700033"}, "type": "Feature"}
{"dataset_attributes": {"@spider": "usps_collection_boxes", "spider:collection_time": "2023-12-19T08:25:25.283853"}, "geometry": {"coordinates": [-92.210733977, 46.691702078], "type": "Point"}, "id": "e-C7e93_s82X04KyjZDIVrZTUJQ=", "properties": {"@spider": "usps_collection_boxes", "addr:city": "DULUTH", "addr:country": "US", "addr:full": "1002 88TH AVE W", "addr:postcode": "55808", "addr:state": "MN", "amenity": "post_box", "brand": "United States Postal Service", "brand:wikidata": "Q668687", "collection_times": "Mo-Sa 10:30", "name": "USPS COLLECTION BOX - BLUE BOX", "nsi_id": "unitedstatespostalservice-a77078", "operator": "United States Postal Service", "operator:short": "USPS", "operator:type": "public", "operator:wikidata": "Q668687", "ref": "5580800002"}, "type": "Feature"}
{"dataset_attributes": {"@spider": "usps_collection_boxes", "spider:collection_time": "2023-12-19T08:25:25.283853"}, "geometry": {"coordinates": [-92.226520512, 46.671524246], "type": "Point"}, "id": "yD9zrEO6ab9nhjSlsmzByl1CSSg=", "properties": {"@spider": "usps_collection_boxes", "addr:city": "DULUTH", "addr:country": "US", "addr:full": "1331 COMMONWEALTH AVE", "addr:postcode": "55808", "addr:state": "MN", "amenity": "post_box", "brand": "United States Postal Service", "brand:wikidata": "Q668687", "collection_times": "Mo-Sa 10:30", "name": "USPS COLLECTION BOX - BLUE BOX", "nsi_id": "unitedstatespostalservice-a77078", "operator": "United States Postal Service", "operator:short": "USPS", "operator:type": "public", "operator:wikidata": "Q668687", "ref": "5580800006"}, "type": "Feature"}
{"dataset_attributes": {"@spider": "usps_collection_boxes", "spider:collection_time": "2023-12-19T08:25:25.283853"}, "geometry": {"coordinates": [-92.223372777, 46.743952515], "type": "Point"}, "id": "bg6f9Q2RANCOc_o3zRdaGzpVHQk=", "properties": {"@spider": "usps_collection_boxes", "addr:city": "PROCTOR", "addr:country": "US", "addr:full": "217 2ND ST", "addr:postcode": "55810", "addr:state": "MN", "amenity": "post_box", "brand": "United States Postal Service", "brand:wikidata": "Q668687", "collection_times": "Mo-Fr 14:00; Sa 13:00", "name": "USPS COLLECTION BOX - BLUE BOX", "note": "ON 12/24 AND 12/31, THIS BOX MAY BE COLLECTED AS EARLY AS 12 NOON.", "nsi_id": "unitedstatespostalservice-a77078", "operator": "United States Postal Service", "operator:short": "USPS", "operator:type": "public", "operator:wikidata": "Q668687", "ref": "5581000003"}, "type": "Feature"}
{"dataset_attributes": {"@spider": "usps_collection_boxes", "spider:collection_time": "2023-12-19T08:25:25.283853"}, "geometry": {"coordinates": [-92.217076292, 46.740383797], "type": "Point"}, "id": "QkwXROrEGbGWLT871PiBRqxu7xU=", "properties": {"@spider": "usps_collection_boxes", "addr:city": "PROCTOR", "addr:country": "US", "addr:full": "110 S BOUNDARY AVE", "addr:postcode": "55810", "addr:state": "MN", "amenity": "post_box", "brand": "United States Postal Service", "brand:wikidata": "Q668687", "collection_times": "Mo-Sa 11:00", "name": "USPS COLLECTION BOX - BLUE BOX", "nsi_id": "unitedstatespostalservice-a77078", "operator": "United States Postal Service", "operator:short": "USPS", "operator:type": "public", "operator:wikidata": "Q668687", "ref": "5581000007"}, "type": "Feature"}
{"dataset_attributes": {"@spider": "usps_collection_boxes", "spider:collection_time": "2023-12-19T08:25:25.283853"}, "geometry": {"coordinates": [-92.280122959, 46.779543618], "type": "Point"}, "id": "31WDb2da2jAI1GJkf7_haPyp43Q=", "properties": {"@spider": "usps_collection_boxes", "addr:city": "PROCTOR", "addr:country": "US", "addr:full": "3710 MIDWAY RD", "addr:postcode": "55810", "addr:state": "MN", "amenity": "post_box", "brand": "United States Postal Service", "brand:wikidata": "Q668687", "collection_times": "Mo-Sa 13:45", "name": "USPS COLLECTION BOX - BLUE BOX", "note": "ON 12/24 AND 12/31, THIS BOX MAY BE COLLECTED AS EARLY AS 12 NOON.", "nsi_id": "unitedstatespostalservice-a77078", "operator": "United States Postal Service", "operator:short": "USPS", "operator:type": "public", "operator:wikidata": "Q668687", "ref": "5581000009"}, "type": "Feature"}
{"dataset_attributes": {"@spider": "usps_collection_boxes", "spider:collection_time": "2023-12-19T08:25:25.283853"}, "geometry": {"coordinates": [-92.223372777, 46.743952515], "type": "Point"}, "id": "yRldKJprE9na8Jlo44rxkX4mhyw=", "properties": {"@spider": "usps_collection_boxes", "addr:city": "PROCTOR", "addr:country": "US", "addr:full": "217 2ND ST", "addr:postcode": "55810", "addr:state": "MN", "amenity": "post_box", "brand": "United States Postal Service", "brand:wikidata": "Q668687", "collection_times": "Mo-Fr 14:00", "name": "USPS COLLECTION BOX - PO LOBBY", "note": "ON 12/24 AND 12/31, THIS BOX MAY BE COLLECTED AS EARLY AS 12 NOON.", "nsi_id": "unitedstatespostalservice-a77078", "operator": "United States Postal Service", "operator:short": "USPS", "operator:type": "public", "operator:wikidata": "Q668687", "ref": "5581000010"}, "type": "Feature"}
{"dataset_attributes": {"@spider": "usps_collection_boxes", "spider:collection_time": "2023-12-19T08:25:25.283853"}, "geometry": {"coordinates": [-92.223372777, 46.743952515], "type": "Point"}, "id": "nPlJ9L1ZGoQ5779nfTyrTN3WpLw=", "properties": {"@spider": "usps_collection_boxes", "addr:city": "PROCTOR", "addr:country": "US", "addr:full": "217 2ND ST", "addr:postcode": "55810", "addr:state": "MN", "amenity": "post_box", "brand": "United States Postal Service", "brand:wikidata": "Q668687", "collection_times": "Mo-Fr 14:15", "name": "USPS COLLECTION BOX - PO LOBBY", "note": "ON 12/24 AND 12/31, THIS BOX MAY BE COLLECTED AS EARLY AS 12 NOON.", "nsi_id": "unitedstatespostalservice-a77078", "operator": "United States Postal Service", "operator:short": "USPS", "operator:type": "public", "operator:wikidata": "Q668687", "ref": "5581000011"}, "type": "Feature"}
{"dataset_attributes": {"@spider": "usps_collection_boxes", "spider:collection_time": "2023-12-19T08:25:25.283853"}, "geometry": {"coordinates": [-92.1928236061, 46.8103490634], "type": "Point"}, "id": "QtRbu5-PIVXCa_5dQWhcwm2erBc=", "properties": {"@spider": "usps_collection_boxes", "addr:city": "HERMANTOWN", "addr:country": "US", "addr:full": "1600 MILLER TRUNK HWY", "addr:postcode": "55811", "addr:state": "MN", "amenity": "post_box", "brand": "United States Postal Service", "brand:wikidata": "Q668687", "collection_times": "Mo-Fr 12:00; Sa 11:00", "name": "USPS COLLECTION BOX - BLUE BOX", "nsi_id": "unitedstatespostalservice-a77078", "operator": "United States Postal Service", "operator:short": "USPS", "operator:type": "public", "operator:wikidata": "Q668687", "ref": "5581100005"}, "type": "Feature"}
{"dataset_attributes": {"@spider": "usps_collection_boxes", "spider:collection_time": "2023-12-19T08:25:25.283853"}, "geometry": {"coordinates": [-92.169222657, 46.807757581], "type": "Point"}, "id": "mvRXfjVDdiObDNFhpL31gfAtBK4=", "properties": {"@spider": "usps_collection_boxes", "addr:city": "HERMANTOWN", "addr:country": "US", "addr:full": "5105 BURNING TREE RD", "addr:postcode": "55811", "addr:state": "MN", "amenity": "post_box", "brand": "United States Postal Service", "brand:wikidata": "Q668687", "collection_times": "Mo-Sa 11:30", "name": "USPS COLLECTION BOX - BLUE BOX", "nsi_id": "unitedstatespostalservice-a77078", "operator": "United States Postal Service", "operator:short": "USPS", "operator:type": "public", "operator:wikidata": "Q668687", "ref": "5581100007"}, "type": "Feature"}
{"dataset_attributes": {"@spider": "usps_collection_boxes", "spider:collection_time": "2023-12-19T08:25:25.283853"}, "geometry": {"coordinates": [-92.1464630366, 46.8034029923], "type": "Point"}, "id": "iaWvUxsvaTVWdJvTsEZsAPIf-9Q=", "properties": {"@spider": "usps_collection_boxes", "addr:city": "HERMANTOWN", "addr:country": "US", "addr:full": "615 W CENTRAL ENTRANCE", "addr:postcode": "55811", "addr:state": "MN", "amenity": "post_box", "brand": "United States Postal Service", "brand:wikidata": "Q668687", "collection_times": "Mo-Fr 12:15; Sa 10:30", "name": "USPS COLLECTION BOX - BLUE BOX", "note": "ON 12/24 AND 12/31, THIS BOX MAY BE COLLECTED AS EARLY AS 12 NOON.", "nsi_id": "unitedstatespostalservice-a77078", "operator": "United States Postal Service", "operator:short": "USPS", "operator:type": "public", "operator:wikidata": "Q668687", "ref": "5581100012"}, "type": "Feature"}
{"dataset_attributes": {"@spider": "usps_collection_boxes", "spider:collection_time": "2023-12-19T08:25:25.283853"}, "geometry": {"coordinates": [-92.1538175554, 46.8049245265], "type": "Point"}, "id": "6PXDOg8eAxHN5pqcPRHzw_MBxZ4=", "properties": {"@spider": "usps_collection_boxes", "addr:city": "HERMANTOWN", "addr:country": "US", "addr:full": "1201 MILLER TRUNK HWY", "addr:postcode": "55811", "addr:state": "MN", "amenity": "post_box", "brand": "United States Postal Service", "brand:wikidata": "Q668687", "collection_times": "Mo-Fr 12:15; Sa 12:00", "name": "USPS COLLECTION BOX - BLUE BOX", "note": "ON 12/24 AND 12/31, THIS BOX MAY BE COLLECTED AS EARLY AS 12 NOON.", "nsi_id": "unitedstatespostalservice-a77078", "operator": "United States Postal Service", "operator:short": "USPS", "operator:type": "public", "operator:wikidata": "Q668687", "ref": "5581100016"}, "type": "Feature"}
{"dataset_attributes": {"@spider": "usps_collection_boxes", "spider:collection_time": "2023-12-19T08:25:25.283853"}, "geometry": {"coordinates": [-92.09841401, 46.822048353], "type": "Point"}, "id": "K3xSZ0LV3ILMKDldG4V6Hi16VGc=", "properties": {"@spider": "usps_collection_boxes", "addr:city": "HERMANTOWN", "addr:country": "US", "addr:full": "1332 W ARROWHEAD RD", "addr:postcode": "55811", "addr:state": "MN", "amenity": "post_box", "brand": "United States Postal Service", "brand:wikidata": "Q668687", "collection_times": "Mo-Fr 12:45; Sa 10:00", "name": "USPS COLLECTION BOX - BLUE BOX", "note": "ON 12/24 AND 12/31, THIS BOX MAY BE COLLECTED AS EARLY AS 12 NOON.", "nsi_id": "unitedstatespostalservice-a77078", "operator": "United States Postal Service", "operator:short": "USPS", "operator:type": "public", "operator:wikidata": "Q668687", "ref": "5581100021"}, "type": "Feature"}
{"dataset_attributes": {"@spider": "usps_collection_boxes", "spider:collection_time": "2023-12-19T08:25:25.283853"}, "geometry": {"coordinates": [-92.107462806, 46.800846102], "type": "Point"}, "id": "jRYmhd4XpcM55jlZXmm7oKCHnPI=", "properties": {"@spider": "usps_collection_boxes", "addr:city": "HERMANTOWN", "addr:country": "US", "addr:full": "1215 RICE LAKE RD", "addr:postcode": "55811", "addr:state": "MN", "amenity": "post_box", "brand": "United States Postal Service", "brand:wikidata": "Q668687", "collection_times": "Mo-Fr 10:45", "name": "USPS COLLECTION BOX - BLUE BOX", "nsi_id": "unitedstatespostalservice-a77078", "operator": "United States Postal Service", "operator:short": "USPS", "operator:type": "public", "operator:wikidata": "Q668687", "ref": "5581100022"}, "type": "Feature"}
{"dataset_attributes": {"@spider": "usps_collection_boxes", "spider:collection_time": "2023-12-19T08:25:25.283853"}, "geometry": {"coordinates": [-92.107101591, 46.797474562], "type": "Point"}, "id": "u4QZw1HDGtBiGhfSuGDfHtR8bSw=", "properties": {"@spider": "usps_collection_boxes", "addr:city": "HERMANTOWN", "addr:country": "US", "addr:full": "1123 MESABA AVE", "addr:postcode": "55811", "addr:state": "MN", "amenity": "post_box", "brand": "United States Postal Service", "brand:wikidata": "Q668687", "collection_times": "Mo-Fr 10:45", "name": "USPS COLLECTION BOX - BLUE BOX", "nsi_id": "unitedstatespostalservice-a77078", "operator": "United States Postal Service", "operator:short": "USPS", "operator:type": "public", "operator:wikidata": "Q668687", "ref": "5581100023"}, "type": "Feature"}
{"dataset_attributes": {"@spider": "usps_collection_boxes", "spider:collection_time": "2023-12-19T08:25:25.283853"}, "geometry": {"coordinates": [-92.188795384, 46.823206572], "type": "Point"}, "id": "cNXElpLz2hrGYXk6Q50wIwRafTM=", "properties": {"@spider": "usps_collection_boxes", "addr:city": "HERMANTOWN", "addr:country": "US", "addr:full": "4810 MILLER TRUNK HWY", "addr:postcode": "55811", "addr:state": "MN", "amenity": "post_box", "brand": "United States Postal Service", "brand:wikidata": "Q668687", "collection_times": "Mo-Fr 11:15; Sa 11:00", "name": "USPS COLLECTION BOX - BLUE BOX", "nsi_id": "unitedstatespostalservice-a77078", "operator": "United States Postal Service", "operator:short": "USPS", "operator:type": "public", "operator:wikidata": "Q668687", "ref": "5581100025"}, "type": "Feature"}
{"dataset_attributes": {"@spider": "usps_collection_boxes", "spider:collection_time": "2023-12-19T08:25:25.283853"}, "geometry": {"coordinates": [-92.158728708, 46.781592518], "type": "Point"}, "id": "FnOs4Lq3SCg8Zqkgc0SAy4ylL1U=", "properties": {"@spider": "usps_collection_boxes", "addr:city": "HERMANTOWN", "addr:country": "US", "addr:full": "2703 PIEDMONT AVE", "addr:postcode": "55811", "addr:state": "MN", "amenity": "post_box", "brand": "United States Postal Service", "brand:wikidata": "Q668687", "collection_times": "Mo-Fr 11:45; Sa 10:00", "name": "USPS COLLECTION BOX - BLUE BOX", "nsi_id": "unitedstatespostalservice-a77078", "operator": "United States Postal Service", "operator:short": "USPS", "operator:type": "public", "operator:wikidata": "Q668687", "ref": "5581100027"}, "type": "Feature"}
{"dataset_attributes": {"@spider": "usps_collection_boxes", "spider:collection_time": "2023-12-19T08:25:25.283853"}, "geometry": {"coordinates": [-92.276086885, 46.85119634], "type": "Point"}, "id": "pFyCSXCj89ch5aTqt7yoC2F4Kgs=", "properties": {"@spider": "usps_collection_boxes", "addr:city": "HERMANTOWN", "addr:country": "US", "addr:full": "5686 MILLER TRUNK HWY", "addr:postcode": "55811", "addr:state": "MN", "amenity": "post_box", "brand": "United States Postal Service", "brand:wikidata": "Q668687", "collection_times": "Mo-Sa 14:00", "name": "USPS COLLECTION BOX - BLUE BOX", "note": "ON 12/24 AND 12/31, THIS BOX MAY BE COLLECTED AS EARLY AS 12 NOON.", "nsi_id": "unitedstatespostalservice-a77078", "operator": "United States Postal Service", "operator:short": "USPS", "operator:type": "public", "operator:wikidata": "Q668687", "ref": "5581100029"}, "type": "Feature"}
{"dataset_attributes": {"@spider": "usps_collection_boxes", "spider:collection_time": "2023-12-19T08:25:25.283853"}, "geometry": {"coordinates": [-92.164906423, 46.808577588], "type": "Point"}, "id": "nNX35-anGfHGHYx3-uyecs14uqY=", "properties": {"@spider": "usps_collection_boxes", "addr:city": "HERMANTOWN", "addr:country": "US", "addr:full": "1902 MILLER TRUNK HWY", "addr:postcode": "55811", "addr:state": "MN", "amenity": "post_box", "brand": "United States Postal Service", "brand:wikidata": "Q668687", "collection_times": "Mo-Sa 11:30", "name": "USPS COLLECTION BOX - BLUE BOX", "nsi_id": "unitedstatespostalservice-a77078", "operator": "United States Postal Service", "operator:short": "USPS", "operator:type": "public", "operator:wikidata": "Q668687", "ref": "5581100032"}, "type": "Feature"}
{"dataset_attributes": {"@spider": "usps_collection_boxes", "spider:collection_time": "2023-12-19T08:25:25.283853"}, "geometry": {"coordinates": [-92.1045039837, 46.814999984], "type": "Point"}, "id": "DlGvARCIC-QtcRIfqQazeiG2NAw=", "properties": {"@spider": "usps_collection_boxes", "addr:city": "HERMANTOWN", "addr:country": "US", "addr:full": "1200 KENWOOD AVE", "addr:postcode": "55811", "addr:state": "MN", "amenity": "post_box", "brand": "United States Postal Service", "brand:wikidata": "Q668687", "collection_times": "Mo-Fr 11:00", "name": "USPS COLLECTION BOX - BLUE BOX", "nsi_id": "unitedstatespostalservice-a77078", "operator": "United States Postal Service", "operator:short": "USPS", "operator:type": "public", "operator:wikidata": "Q668687", "ref": "5581100058"}, "type": "Feature"}
{"dataset_attributes": {"@spider": "usps_collection_boxes", "spider:collection_time": "2023-12-19T08:25:25.283853"}, "geometry": {"coordinates": [-92.171088, 46.810233], "type": "Point"}, "id": "KRtAtHNEP0PMqjniQ0J_K9y0sx4=", "properties": {"@spider": "usps_collection_boxes", "addr:city": "HERMANTOWN", "addr:country": "US", "addr:full": "5401 BURNING TREE RD", "addr:postcode": "55811", "addr:state": "MN", "amenity": "post_box", "brand": "United States Postal Service", "brand:wikidata": "Q668687", "collection_times": "Mo-Sa 11:30", "name": "USPS COLLECTION BOX - BLUE BOX", "nsi_id": "unitedstatespostalservice-a77078", "operator": "United States Postal Service", "operator:short": "USPS", "operator:type": "public", "operator:wikidata": "Q668687", "ref": "5581100060"}, "type": "Feature"}
{"dataset_attributes": {"@spider": "usps_collection_boxes", "spider:collection_time": "2023-12-19T08:25:25.283853"}, "geometry": {"coordinates": [-92.169570758, 46.805398316], "type": "Point"}, "id": "5R0qCq_712PXFVT1y3hzRN0-Bzw=", "properties": {"@spider": "usps_collection_boxes", "addr:city": "HERMANTOWN", "addr:country": "US", "addr:full": "4915 MATTERHORN DR", "addr:postcode": "55811", "addr:state": "MN", "amenity": "post_box", "brand": "United States Postal Service", "brand:wikidata": "Q668687", "collection_times": "Mo-Sa 11:30", "name": "USPS COLLECTION BOX - BLUE BOX", "nsi_id": "unitedstatespostalservice-a77078", "operator": "United States Postal Service", "operator:short": "USPS", "operator:type": "public", "operator:wikidata": "Q668687", "ref": "5581100067"}, "type": "Feature"}
{"dataset_attributes": {"@spider": "usps_collection_boxes", "spider:collection_time": "2023-12-19T08:25:25.283853"}, "geometry": {"coordinates": [-92.1736929902, 46.8358420054], "type": "Point"}, "id": "kaQPUFqe2B1bExqJMBD_Qo9hAgs=", "properties": {"@spider": "usps_collection_boxes", "addr:city": "HERMANTOWN", "addr:country": "US", "addr:full": "4444 HAINES RD", "addr:postcode": "55811", "addr:state": "MN", "amenity": "post_box", "brand": "United States Postal Service", "brand:wikidata": "Q668687", "collection_times": "Mo-Fr 12:30", "name": "USPS COLLECTION BOX - BLUE BOX", "note": "ON 12/24 AND 12/31, THIS BOX MAY BE COLLECTED AS EARLY AS 12 NOON.", "nsi_id": "unitedstatespostalservice-a77078", "operator": "United States Postal Service", "operator:short": "USPS", "operator:type": "public", "operator:wikidata": "Q668687", "ref": "5581100071"}, "type": "Feature"}
{"dataset_attributes": {"@spider": "usps_collection_boxes", "spider:collection_time": "2023-12-19T08:25:25.283853"}, "geometry": {"coordinates": [-92.070347677, 46.803931452], "type": "Point"}, "id": "VAAExEo9cI_BmySgXPNHlTWDuwU=", "properties": {"@spider": "usps_collection_boxes", "addr:city": "DULUTH", "addr:country": "US", "addr:full": "2002 LONDON RD", "addr:postcode": "55812", "addr:state": "MN", "amenity": "post_box", "brand": "United States Postal Service", "brand:wikidata": "Q668687", "collection_times": "Mo-Fr 14:15; Sa 11:00", "name": "USPS COLLECTION BOX - BLUE BOX", "note": "ON 12/24 AND 12/31, THIS BOX MAY BE COLLECTED AS EARLY AS 12 NOON.", "nsi_id": "unitedstatespostalservice-a77078", "operator": "United States Postal Service", "operator:short": "USPS", "operator:type": "public", "operator:wikidata": "Q668687", "ref": "5581200005"}, "type": "Feature"}
{"dataset_attributes": {"@spider": "usps_collection_boxes", "spider:collection_time": "2023-12-19T08:25:25.283853"}, "geometry": {"coordinates": [-92.100127058, 46.818416835], "type": "Point"}, "id": "LykRW7mgkFB5CMgyxPQUaYO9yDQ=", "properties": {"@spider": "usps_collection_boxes", "addr:city": "DULUTH", "addr:country": "US", "addr:full": "10 E NIAGARA ST", "addr:postcode": "55812", "addr:state": "MN", "amenity": "post_box", "brand": "United States Postal Service", "brand:wikidata": "Q668687", "collection_times": "Mo-Fr 13:00; Sa 09:30", "name": "USPS COLLECTION BOX - BLUE BOX", "note": "ON 12/24 AND 12/31, THIS BOX MAY BE COLLECTED AS EARLY AS 12 NOON.", "nsi_id": "unitedstatespostalservice-a77078", "operator": "United States Postal Service", "operator:short": "USPS", "operator:type": "public", "operator:wikidata": "Q668687", "ref": "5581200012"}, "type": "Feature"}
