{"geometry": {"coordinates": [-94.90455242, 44.109792444], "type": "Point"}, "id": "_VpQYGGfk_iqFjrQsnD1D-tlXKg=", "properties": {"@spider": "usps_collection_boxes", "addr:city": "COMFREY", "addr:country": "US", "addr:full": "100 BROWN ST E", "addr:postcode": "56019", "addr:state": "MN", "amenity": "post_box", "brand": "United States Postal Service", "brand:wikidata": "Q668687", "collection_times": "Mo-Sa 14:15", "name": "USPS COLLECTION BOX - BLUE BOX", "note": "ON 12/24 AND 12/31, THIS BOX MAY BE COLLECTED AS EARLY AS 12 NOON.", "nsi_id": "unitedstatespostalservice-a77078", "operator": "United States Postal Service", "operator:short": "USPS", "operator:type": "public", "operator:wikidata": "Q668687", "ref": "5601900000"}, "type": "Feature"}
{"geometry": {"coordinates": [-94.90455242, 44.109792444], "type": "Point"}, "id": "O3Malxj7OACYq2xm1Hxqy8ufGdw=", "properties": {"@spider": "usps_collection_boxes", "addr:city": "COMFREY", "addr:country": "US", "addr:full": "100 BROWN ST E", "addr:postcode": "56019", "addr:state": "MN", "amenity": "post_box", "brand": "United States Postal Service", "brand:wikidata": "Q668687", "collection_times": "Mo-Fr 12:00; Sa 09:45", "name": "USPS COLLECTION BOX - PO LOBBY", "nsi_id": "unitedstatespostalservice-a77078", "operator": "United States Postal Service", "operator:short": "USPS", "operator:type": "public", "operator:wikidata": "Q668687", "ref": "5601900001"}, "type": "Feature"}
{"geometry": {"coordinates": [-94.90455242, 44.109792444], "type": "Point"}, "id": "c4rvTEZVSRC_qszRNI7dkKaAJT4=", "properties": {"@spider": "usps_collection_boxes", "addr:city": "COMFREY", "addr:country": "US", "addr:full": "100 BROWN ST E", "addr:postcode": "56019", "addr:state": "MN", "amenity": "post_box", "brand": "United States Postal Service", "brand:wikidata": "Q668687", "collection_times": "Mo-Fr 12:00; Sa 09:15", "name": "USPS COLLECTION BOX - PO LOBBY", "nsi_id": "unitedstatespostalservice-a77078", "operator": "United States Postal Service", "operator:short": "USPS", "operator:type": "public", "operator:wikidata": "Q668687", "ref": "5601900002"}, "type": "Feature"}
{"geometry": {"coordinates": [-94.835510109, 44.05302], "type": "Point"}, "id": "oSk1IAmCjNbeCnVUME3i4z5mpkE=", "properties": {"@spider": "usps_collection_boxes", "addr:city": "DARFUR", "addr:country": "US", "addr:full": "PO BOX 9998", "addr:postcode": "56022", "addr:state": "MN", "amenity": "post_box", "brand": "United States Postal Service", "brand:wikidata": "Q668687", "collection_times": "Mo-Sa 14:30", "name": "USPS COLLECTION BOX - BLUE BOX", "note": "ON 12/24 AND 12/31, THIS BOX MAY BE COLLECTED AS EARLY AS 12 NOON.", "nsi_id": "unitedstatespostalservice-a77078", "operator": "United States Postal Service", "operator:short": "USPS", "operator:type": "public", "operator:wikidata": "Q668687", "ref": "5602200000"}, "type": "Feature"}
{"geometry": {"coordinates": [-94.085693193, 43.504719477], "type": "Point"}, "id": "2MrKWD0JU3i3R2GvxfzeeR-__ic=", "properties": {"@spider": "usps_collection_boxes", "addr:city": "ELMORE", "addr:country": "US", "addr:full": "214 E WILLIS ST", "addr:postcode": "56027", "addr:state": "MN", "amenity": "post_box", "brand": "United States Postal Service", "brand:wikidata": "Q668687", "collection_times": "Mo-Sa 13:30", "name": "USPS COLLECTION BOX - BLUE BOX", "note": "ON 12/24 AND 12/31, THIS BOX MAY BE COLLECTED AS EARLY AS 12 NOON.", "nsi_id": "unitedstatespostalservice-a77078", "operator": "United States Postal Service", "operator:short": "USPS", "operator:type": "public", "operator:wikidata": "Q668687", "ref": "5602700000"}, "type": "Feature"}
{"geometry": {"coordinates": [-94.085693193, 43.504719477], "type": "Point"}, "id": "cjxPtbyn_THwTRa2AO3FSvfizEQ=", "properties": {"@spider": "usps_collection_boxes", "addr:city": "ELMORE", "addr:country": "US", "addr:full": "214 E WILLIS ST", "addr:postcode": "56027", "addr:state": "MN", "amenity": "post_box", "brand": "United States Postal Service", "brand:wikidata": "Q668687", "collection_times": "Mo-Fr 11:30", "name": "USPS COLLECTION BOX - PO LOBBY", "nsi_id": "unitedstatespostalservice-a77078", "operator": "United States Postal Service", "operator:short": "USPS", "operator:type": "public", "operator:wikidata": "Q668687", "ref": "5602700001"}, "type": "Feature"}
{"geometry": {"coordinates": [-94.085693193, 43.504719477], "type": "Point"}, "id": "hL9yoOTnlT0jPh9L04MQPzZQ6Ww=", "properties": {"@spider": "usps_collection_boxes", "addr:city": "ELMORE", "addr:country": "US", "addr:full": "214 E WILLIS ST", "addr:postcode": "56027", "addr:state": "MN", "amenity": "post_box", "brand": "United States Postal Service", "brand:wikidata": "Q668687", "collection_times": "Mo-Fr 11:30", "name": "USPS COLLECTION BOX - PO LOBBY", "nsi_id": "unitedstatespostalservice-a77078", "operator": "United States Postal Service", "operator:short": "USPS", "operator:type": "public", "operator:wikidata": "Q668687", "ref": "5602700002"}, "type": "Feature"}
{"geometry": {"coordinates": [-94.447428878, 43.64848579], "type": "Point"}, "id": "YGU-FvhyvlUIA5Q9L_qU3Zwds0k=", "properties": {"@spider": "usps_collection_boxes", "addr:city": "FAIRMONT", "addr:country": "US", "addr:full": "490 S STATE ST", "addr:postcode": "56031", "addr:state": "MN", "amenity": "post_box", "brand": "United States Postal Service", "brand:wikidata": "Q668687", "collection_times": "Mo-Sa 14:45", "name": "USPS COLLECTION BOX - PO LOBBY", "note": "ON 12/24 AND 12/31, THIS BOX MAY BE COLLECTED AS EARLY AS 12 NOON.", "nsi_id": "unitedstatespostalservice-a77078", "operator": "United States Postal Service", "operator:short": "USPS", "operator:type": "public", "operator:wikidata": "Q668687", "ref": "5603100002"}, "type": "Feature"}
{"geometry": {"coordinates": [-94.446883499, 43.644906], "type": "Point"}, "id": "v7M7mJ9JlXOI1VdCxLSZeV5xkpA=", "properties": {"@spider": "usps_collection_boxes", "addr:city": "FAIRMONT", "addr:country": "US", "addr:full": "907 S STATE ST", "addr:postcode": "56031", "addr:state": "MN", "amenity": "post_box", "brand": "United States Postal Service", "brand:wikidata": "Q668687", "collection_times": "Mo-Sa 13:15", "name": "USPS COLLECTION BOX - BLUE BOX", "note": "ON 12/24 AND 12/31, THIS BOX MAY BE COLLECTED AS EARLY AS 12 NOON.", "nsi_id": "unitedstatespostalservice-a77078", "operator": "United States Postal Service", "operator:short": "USPS", "operator:type": "public", "operator:wikidata": "Q668687", "ref": "5603100010"}, "type": "Feature"}
{"geometry": {"coordinates": [-94.447428878, 43.64848579], "type": "Point"}, "id": "CqSbiDjVhnwdenQy_vnuWjjYXRU=", "properties": {"@spider": "usps_collection_boxes", "addr:city": "FAIRMONT", "addr:country": "US", "addr:full": "490 S STATE ST", "addr:postcode": "56031", "addr:state": "MN", "amenity": "post_box", "brand": "United States Postal Service", "brand:wikidata": "Q668687", "collection_times": "Mo-Sa 14:45", "name": "USPS COLLECTION BOX - BLUE BOX", "note": "ON 12/24 AND 12/31, THIS BOX MAY BE COLLECTED AS EARLY AS 12 NOON.", "nsi_id": "unitedstatespostalservice-a77078", "operator": "United States Postal Service", "operator:short": "USPS", "operator:type": "public", "operator:wikidata": "Q668687", "ref": "5603100012"}, "type": "Feature"}
{"geometry": {"coordinates": [-94.447428878, 43.64848579], "type": "Point"}, "id": "D9XEbArR0EEQeiCPxf6tG41TRbk=", "properties": {"@spider": "usps_collection_boxes", "addr:city": "FAIRMONT", "addr:country": "US", "addr:full": "490 S STATE ST", "addr:postcode": "56031", "addr:state": "MN", "amenity": "post_box", "brand": "United States Postal Service", "brand:wikidata": "Q668687", "collection_times": "Mo-Sa 14:45", "name": "USPS COLLECTION BOX - BLUE BOX", "note": "ON 12/24 AND 12/31, THIS BOX MAY BE COLLECTED AS EARLY AS 12 NOON.", "nsi_id": "unitedstatespostalservice-a77078", "operator": "United States Postal Service", "operator:short": "USPS", "operator:type": "public", "operator:wikidata": "Q668687", "ref": "5603100013"}, "type": "Feature"}
{"geometry": {"coordinates": [-94.464610368, 43.653543122], "type": "Point"}, "id": "EuPghMg3FBw6HvycdBW-f9xhs5w=", "properties": {"@spider": "usps_collection_boxes", "addr:city": "FAIRMONT", "addr:country": "US", "addr:full": "201 LAKE AVE", "addr:postcode": "56031", "addr:state": "MN", "amenity": "post_box", "brand": "United States Postal Service", "brand:wikidata": "Q668687", "collection_times": "Mo-Sa 13:00", "name": "USPS COLLECTION BOX - BLUE BOX", "note": "ON 12/24 AND 12/31, THIS BOX MAY BE COLLECTED AS EARLY AS 12 NOON.", "nsi_id": "unitedstatespostalservice-a77078", "operator": "United States Postal Service", "operator:short": "USPS", "operator:type": "public", "operator:wikidata": "Q668687", "ref": "5603100014"}, "type": "Feature"}
{"geometry": {"coordinates": [-94.462355554, 43.652393581], "type": "Point"}, "id": "1QKUgOpGyijGXlDrqHq4JCigzcs=", "properties": {"@spider": "usps_collection_boxes", "addr:city": "FAIRMONT", "addr:country": "US", "addr:full": "51 DOWNTOWN PLZ", "addr:postcode": "56031", "addr:state": "MN", "amenity": "post_box", "brand": "United States Postal Service", "brand:wikidata": "Q668687", "collection_times": "Mo-Sa 13:00", "name": "USPS COLLECTION BOX - BLUE BOX", "note": "ON 12/24 AND 12/31, THIS BOX MAY BE COLLECTED AS EARLY AS 12 NOON.", "nsi_id": "unitedstatespostalservice-a77078", "operator": "United States Postal Service", "operator:short": "USPS", "operator:type": "public", "operator:wikidata": "Q668687", "ref": "5603100019"}, "type": "Feature"}
{"geometry": {"coordinates": [-94.46232254, 43.654167419], "type": "Point"}, "id": "N5kLJ5W8snB-sNxI3364HFpJvfQ=", "properties": {"@spider": "usps_collection_boxes", "addr:city": "FAIRMONT", "addr:country": "US", "addr:full": "202 DOWNTOWN PLZ", "addr:postcode": "56031", "addr:state": "MN", "amenity": "post_box", "brand": "United States Postal Service", "brand:wikidata": "Q668687", "collection_times": "Mo-Sa 13:00", "name": "USPS COLLECTION BOX - BLUE BOX", "note": "ON 12/24 AND 12/31, THIS BOX MAY BE COLLECTED AS EARLY AS 12 NOON.", "nsi_id": "unitedstatespostalservice-a77078", "operator": "United States Postal Service", "operator:short": "USPS", "operator:type": "public", "operator:wikidata": "Q668687", "ref": "5603100020"}, "type": "Feature"}
{"geometry": {"coordinates": [-94.447428878, 43.64848579], "type": "Point"}, "id": "wUi6V-KBrr-cjb8d3KQ6T2apcf0=", "properties": {"@spider": "usps_collection_boxes", "addr:city": "FAIRMONT", "addr:country": "US", "addr:full": "490 S STATE ST", "addr:postcode": "56031", "addr:state": "MN", "amenity": "post_box", "brand": "United States Postal Service", "brand:wikidata": "Q668687", "collection_times": "Mo-Sa 14:45", "name": "USPS COLLECTION BOX - PO LOBBY", "note": "ON 12/24 AND 12/31, THIS BOX MAY BE COLLECTED AS EARLY AS 12 NOON.", "nsi_id": "unitedstatespostalservice-a77078", "operator": "United States Postal Service", "operator:short": "USPS", "operator:type": "public", "operator:wikidata": "Q668687", "ref": "5603100024"}, "type": "Feature"}
{"geometry": {"coordinates": [-94.4505135, 43.640082503], "type": "Point"}, "id": "zp1aoJhtmuIWWqZrAt85rixT2cc=", "properties": {"@spider": "usps_collection_boxes", "addr:city": "FAIRMONT", "addr:country": "US", "addr:full": "800 CLINIC CIR", "addr:postcode": "56031", "addr:state": "MN", "amenity": "post_box", "brand": "United States Postal Service", "brand:wikidata": "Q668687", "collection_times": "Mo-Fr 13:15", "name": "USPS COLLECTION BOX - BLUE BOX", "note": "ON 12/24 AND 12/31, THIS BOX MAY BE COLLECTED AS EARLY AS 12 NOON.", "nsi_id": "unitedstatespostalservice-a77078", "operator": "United States Postal Service", "operator:short": "USPS", "operator:type": "public", "operator:wikidata": "Q668687", "ref": "5603100026"}, "type": "Feature"}
{"geometry": {"coordinates": [-94.447428878, 43.64848579], "type": "Point"}, "id": "QhqgpTctC663LqTL_denzP6F0h0=", "properties": {"@spider": "usps_collection_boxes", "addr:city": "FAIRMONT", "addr:country": "US", "addr:full": "490 S STATE ST", "addr:postcode": "56031", "addr:state": "MN", "amenity": "post_box", "brand": "United States Postal Service", "brand:wikidata": "Q668687", "collection_times": "Mo-Sa 14:45", "name": "USPS COLLECTION BOX - BLUE BOX", "note": "ON 12/24 AND 12/31, THIS BOX MAY BE COLLECTED AS EARLY AS 12 NOON.", "nsi_id": "unitedstatespostalservice-a77078", "operator": "United States Postal Service", "operator:short": "USPS", "operator:type": "public", "operator:wikidata": "Q668687", "ref": "5603100030"}, "type": "Feature"}
{"geometry": {"coordinates": [-94.447428878, 43.64848579], "type": "Point"}, "id": "Nq9h2MvMZkI24A9KomOnl9aMkRQ=", "properties": {"@spider": "usps_collection_boxes", "addr:city": "FAIRMONT", "addr:country": "US", "addr:full": "490 S STATE ST", "addr:postcode": "56031", "addr:state": "MN", "amenity": "post_box", "brand": "United States Postal Service", "brand:wikidata": "Q668687", "collection_times": "Mo-Sa 14:45", "name": "USPS COLLECTION BOX - PO LOBBY", "note": "ON 12/24 AND 12/31, THIS BOX MAY BE COLLECTED AS EARLY AS 12 NOON.", "nsi_id": "unitedstatespostalservice-a77078", "operator": "United States Postal Service", "operator:short": "USPS", "operator:type": "public", "operator:wikidata": "Q668687", "ref": "5603100032"}, "type": "Feature"}
{"geometry": {"coordinates": [-94.447428878, 43.64848579], "type": "Point"}, "id": "O9E603elk3mVZuQ14m-15jEgo84=", "properties": {"@spider": "usps_collection_boxes", "addr:city": "FAIRMONT", "addr:country": "US", "addr:full": "490 S STATE ST", "addr:postcode": "56031", "addr:state": "MN", "amenity": "post_box", "brand": "United States Postal Service", "brand:wikidata": "Q668687", "collection_times": "Mo-Fr 14:45; Sa 11:30", "name": "USPS COLLECTION BOX - PO LOBBY", "note": "ON 12/24 AND 12/31, THIS BOX MAY BE COLLECTED AS EARLY AS 12 NOON.", "nsi_id": "unitedstatespostalservice-a77078", "operator": "United States Postal Service", "operator:short": "USPS", "operator:type": "public", "operator:wikidata": "Q668687", "ref": "5603100033"}, "type": "Feature"}
{"geometry": {"coordinates": [-95.1286714957, 44.2099307177], "type": "Point"}, "id": "DU3vmRw69QtItw_3_UQmm0J4tiM=", "properties": {"@spider": "usps_collection_boxes", "addr:city": "SANBORN", "addr:country": "US", "addr:full": "120 N MAIN ST", "addr:postcode": "56083", "addr:state": "MN", "amenity": "post_box", "brand": "United States Postal Service", "brand:wikidata": "Q668687", "collection_times": "Mo-Sa 14:30", "name": "USPS COLLECTION BOX - BLUE BOX", "note": "ON 12/24 AND 12/31, THIS BOX MAY BE COLLECTED AS EARLY AS 12 NOON.", "nsi_id": "unitedstatespostalservice-a77078", "operator": "United States Postal Service", "operator:short": "USPS", "operator:type": "public", "operator:wikidata": "Q668687", "ref": "5608300000"}, "type": "Feature"}
{"geometry": {"coordinates": [-95.128671496, 44.209930718], "type": "Point"}, "id": "u_D0i1T21VMYfLO-3hLzjHBOzgQ=", "properties": {"@spider": "usps_collection_boxes", "addr:city": "SANBORN", "addr:country": "US", "addr:full": "120 N MAIN", "addr:postcode": "56083", "addr:state": "MN", "amenity": "post_box", "brand": "United States Postal Service", "brand:wikidata": "Q668687", "collection_times": "Mo-Fr 12:00; Sa 09:00", "name": "USPS COLLECTION BOX - PO LOBBY", "nsi_id": "unitedstatespostalservice-a77078", "operator": "United States Postal Service", "operator:short": "USPS", "operator:type": "public", "operator:wikidata": "Q668687", "ref": "5608300001"}, "type": "Feature"}
{"geometry": {"coordinates": [-95.1286714957, 44.2099307177], "type": "Point"}, "id": "jzHPfTzfo3idADTLcQDfuWKNwTk=", "properties": {"@spider": "usps_collection_boxes", "addr:city": "SANBORN", "addr:country": "US", "addr:full": "120 N MAIN ST", "addr:postcode": "56083", "addr:state": "MN", "amenity": "post_box", "brand": "United States Postal Service", "brand:wikidata": "Q668687", "collection_times": "Mo-Fr 12:00; Sa 09:30", "name": "USPS COLLECTION BOX - PO LOBBY", "nsi_id": "unitedstatespostalservice-a77078", "operator": "United States Postal Service", "operator:short": "USPS", "operator:type": "public", "operator:wikidata": "Q668687", "ref": "5608300002"}, "type": "Feature"}
{"geometry": {"coordinates": [-94.9772206676, 44.2389625226], "type": "Point"}, "id": "XQYZs0VSLyzBdWAItD3DcLS6YCA=", "properties": {"@spider": "usps_collection_boxes", "addr:city": "SPRINGFIELD", "addr:country": "US", "addr:full": "18 W CENTRAL ST", "addr:postcode": "56087", "addr:state": "MN", "amenity": "post_box", "brand": "United States Postal Service", "brand:wikidata": "Q668687", "collection_times": "Mo-Sa 14:45", "name": "USPS COLLECTION BOX - BLUE BOX", "note": "ON 12/24 AND 12/31, THIS BOX MAY BE COLLECTED AS EARLY AS 12 NOON.", "nsi_id": "unitedstatespostalservice-a77078", "operator": "United States Postal Service", "operator:short": "USPS", "operator:type": "public", "operator:wikidata": "Q668687", "ref": "5608700000"}, "type": "Feature"}
{"geometry": {"coordinates": [-94.9772206676, 44.2389625226], "type": "Point"}, "id": "H_wfOzcCUMOwbxdOeQEH0eZkBPc=", "properties": {"@spider": "usps_collection_boxes", "addr:city": "SPRINGFIELD", "addr:country": "US", "addr:full": "18 W CENTRAL ST", "addr:postcode": "56087", "addr:state": "MN", "amenity": "post_box", "brand": "United States Postal Service", "brand:wikidata": "Q668687", "collection_times": "Mo-Fr 14:45; Sa 11:00", "name": "USPS COLLECTION BOX - PO LOBBY", "note": "ON 12/24 AND 12/31, THIS BOX MAY BE COLLECTED AS EARLY AS 12 NOON.", "nsi_id": "unitedstatespostalservice-a77078", "operator": "United States Postal Service", "operator:short": "USPS", "operator:type": "public", "operator:wikidata": "Q668687", "ref": "5608700001"}, "type": "Feature"}
{"geometry": {"coordinates": [-94.9772206676, 44.2389625226], "type": "Point"}, "id": "dE2BHJ-oSi8g7N_3EYK_RaMtQwE=", "properties": {"@spider": "usps_collection_boxes", "addr:city": "SPRINGFIELD", "addr:country": "US", "addr:full": "18 W CENTRAL ST", "addr:postcode": "56087", "addr:state": "MN", "amenity": "post_box", "brand": "United States Postal Service", "brand:wikidata": "Q668687", "collection_times": "Mo-Fr 14:45; Sa 10:30", "name": "USPS COLLECTION BOX - PO LOBBY", "note": "ON 12/24 AND 12/31, THIS BOX MAY BE COLLECTED AS EARLY AS 12 NOON.", "nsi_id": "unitedstatespostalservice-a77078", "operator": "United States Postal Service", "operator:short": "USPS", "operator:type": "public", "operator:wikidata": "Q668687", "ref": "5608700002"}, "type": "Feature"}
