{"geometry": {"coordinates": [-95.1181075299, 43.8653357462], "type": "Point"}, "id": "q6BH7R_oSQkjVqWRH4r2GtdUW9c=", "properties": {"@source_uri": "https://tools.usps.com/UspsToolsRestServices/rest/POLocator/findLocations", "@spider": "usps_collection_boxes", "addr:city": "WINDOM", "addr:country": "US", "addr:postcode": "56101", "addr:state": "MN", "addr:street_address": "445 9TH ST", "amenity": "post_box", "collection_times": "Mo-Sa 14:45", "note": "ON 12/24 AND 12/31, THIS BOX MAY BE COLLECTED AS EARLY AS 12 NOON.", "nsi_id": "unitedstatespostalservice-a77078", "operator": "United States Postal Service", "operator:short": "USPS", "operator:type": "public", "operator:wikidata": "Q668687", "ref": "5610100000"}, "type": "Feature"}
{"geometry": {"coordinates": [-95.1164693047, 43.8653357462], "type": "Point"}, "id": "kb49UBIAKOSugOXTp5JcVCDfjOA=", "properties": {"@source_uri": "https://tools.usps.com/UspsToolsRestServices/rest/POLocator/findLocations", "@spider": "usps_collection_boxes", "addr:city": "WINDOM", "addr:country": "US", "addr:postcode": "56101", "addr:state": "MN", "addr:street_address": "303 9TH ST", "amenity": "post_box", "collection_times": "Mo-Sa 13:00", "note": "ON 12/24 AND 12/31, THIS BOX MAY BE COLLECTED AS EARLY AS 12 NOON.", "nsi_id": "unitedstatespostalservice-a77078", "operator": "United States Postal Service", "operator:short": "USPS", "operator:type": "public", "operator:wikidata": "Q668687", "ref": "5610100007"}, "type": "Feature"}
{"geometry": {"coordinates": [-95.116463765, 43.866629597], "type": "Point"}, "id": "ZHJ8Tu80ScSPSt7C8kPbGFpYoI4=", "properties": {"@source_uri": "https://tools.usps.com/UspsToolsRestServices/rest/POLocator/findLocations", "@spider": "usps_collection_boxes", "addr:city": "WINDOM", "addr:country": "US", "addr:postcode": "56101", "addr:state": "MN", "addr:street_address": "302 10TH ST", "amenity": "post_box", "collection_times": "Mo-Sa 13:00", "note": "ON 12/24 AND 12/31, THIS BOX MAY BE COLLECTED AS EARLY AS 12 NOON.", "nsi_id": "unitedstatespostalservice-a77078", "operator": "United States Postal Service", "operator:short": "USPS", "operator:type": "public", "operator:wikidata": "Q668687", "ref": "5610100008"}, "type": "Feature"}
{"geometry": {"coordinates": [-95.1181075299, 43.8653357462], "type": "Point"}, "id": "u4jMOe1uOGkN_2qdGMuYr7Ju2FY=", "properties": {"@source_uri": "https://tools.usps.com/UspsToolsRestServices/rest/POLocator/findLocations", "@spider": "usps_collection_boxes", "addr:city": "WINDOM", "addr:country": "US", "addr:postcode": "56101", "addr:state": "MN", "addr:street_address": "445 9TH ST", "amenity": "post_box", "collection_times": "Mo-Sa 14:45", "indoor": "yes", "note": "ON 12/24 AND 12/31, THIS BOX MAY BE COLLECTED AS EARLY AS 12 NOON.", "nsi_id": "unitedstatespostalservice-a77078", "operator": "United States Postal Service", "operator:short": "USPS", "operator:type": "public", "operator:wikidata": "Q668687", "ref": "5610100012"}, "type": "Feature"}
{"geometry": {"coordinates": [-95.1181075299, 43.8653357462], "type": "Point"}, "id": "9Hp-7Cig_4pHthS5OSSn-SbsKgE=", "properties": {"@source_uri": "https://tools.usps.com/UspsToolsRestServices/rest/POLocator/findLocations", "@spider": "usps_collection_boxes", "addr:city": "WINDOM", "addr:country": "US", "addr:postcode": "56101", "addr:state": "MN", "addr:street_address": "445 9TH ST", "amenity": "post_box", "collection_times": "Mo-Fr 14:45; Sa 10:30", "indoor": "yes", "note": "ON 12/24 AND 12/31, THIS BOX MAY BE COLLECTED AS EARLY AS 12 NOON.", "nsi_id": "unitedstatespostalservice-a77078", "operator": "United States Postal Service", "operator:short": "USPS", "operator:type": "public", "operator:wikidata": "Q668687", "ref": "5610100013"}, "type": "Feature"}
{"geometry": {"coordinates": [-95.93318146, 43.634627665], "type": "Point"}, "id": "riUwgPRVADc11lHaV3P_uJVTg3U=", "properties": {"@source_uri": "https://tools.usps.com/UspsToolsRestServices/rest/POLocator/findLocations", "@spider": "usps_collection_boxes", "addr:city": "ADRIAN", "addr:country": "US", "addr:postcode": "56110", "addr:state": "MN", "addr:street_address": "209 MAINE AVE", "amenity": "post_box", "collection_times": "Mo-Sa 12:30", "note": "ON 12/24 AND 12/31, THIS BOX MAY BE COLLECTED AS EARLY AS 12 NOON.", "nsi_id": "unitedstatespostalservice-a77078", "operator": "United States Postal Service", "operator:short": "USPS", "operator:type": "public", "operator:wikidata": "Q668687", "ref": "5611000000"}, "type": "Feature"}
{"geometry": {"coordinates": [-95.93318146, 43.634627665], "type": "Point"}, "id": "nY8rZivmKTRSIsrj9tbWftpe8Yk=", "properties": {"@source_uri": "https://tools.usps.com/UspsToolsRestServices/rest/POLocator/findLocations", "@spider": "usps_collection_boxes", "addr:city": "ADRIAN", "addr:country": "US", "addr:postcode": "56110", "addr:state": "MN", "addr:street_address": "209 MAINE AVE", "amenity": "post_box", "collection_times": "Mo-Fr 12:30; Sa 08:45", "indoor": "yes", "note": "ON 12/24 AND 12/31, THIS BOX MAY BE COLLECTED AS EARLY AS 12 NOON.", "nsi_id": "unitedstatespostalservice-a77078", "operator": "United States Postal Service", "operator:short": "USPS", "operator:type": "public", "operator:wikidata": "Q668687", "ref": "5611000002"}, "type": "Feature"}
{"geometry": {"coordinates": [-95.93318146, 43.634627665], "type": "Point"}, "id": "e3dJmJvOkFqhDgVYFGCAV_scKlQ=", "properties": {"@source_uri": "https://tools.usps.com/UspsToolsRestServices/rest/POLocator/findLocations", "@spider": "usps_collection_boxes", "addr:city": "ADRIAN", "addr:country": "US", "addr:postcode": "56110", "addr:state": "MN", "addr:street_address": "209 MAINE AVE STE 104", "amenity": "post_box", "collection_times": "Mo-Fr 12:30; Sa 09:00", "indoor": "yes", "note": "ON 12/24 AND 12/31, THIS BOX MAY BE COLLECTED AS EARLY AS 12 NOON.", "nsi_id": "unitedstatespostalservice-a77078", "operator": "United States Postal Service", "operator:short": "USPS", "operator:type": "public", "operator:wikidata": "Q668687", "ref": "5611000003"}, "type": "Feature"}
{"geometry": {"coordinates": [-94.8709720399, 43.6383526064], "type": "Point"}, "id": "yWk2EYPlyg3k-1TKqk50vJMm3xs=", "properties": {"@source_uri": "https://tools.usps.com/UspsToolsRestServices/rest/POLocator/findLocations", "@spider": "usps_collection_boxes", "addr:city": "ALPHA", "addr:country": "US", "addr:postcode": "56111", "addr:state": "MN", "addr:street_address": "115 MAIN ST N", "amenity": "post_box", "collection_times": "Mo-Fr 11:45; Sa 11:15", "nsi_id": "unitedstatespostalservice-a77078", "operator": "United States Postal Service", "operator:short": "USPS", "operator:type": "public", "operator:wikidata": "Q668687", "ref": "5611100000"}, "type": "Feature"}
{"geometry": {"coordinates": [-94.8709720399, 43.6383526064], "type": "Point"}, "id": "wl69PQhcvpvtf9HcbaIWLuDmVpk=", "properties": {"@source_uri": "https://tools.usps.com/UspsToolsRestServices/rest/POLocator/findLocations", "@spider": "usps_collection_boxes", "addr:city": "ALPHA", "addr:country": "US", "addr:postcode": "56111", "addr:state": "MN", "addr:street_address": "115 MAIN ST N", "amenity": "post_box", "collection_times": "Mo-Sa 11:45", "indoor": "yes", "nsi_id": "unitedstatespostalservice-a77078", "operator": "United States Postal Service", "operator:short": "USPS", "operator:type": "public", "operator:wikidata": "Q668687", "ref": "5611100001"}, "type": "Feature"}
{"geometry": {"coordinates": [-94.8709720399, 43.6383526064], "type": "Point"}, "id": "J0k8qDAT-D5whxRbCdga07s5VX0=", "properties": {"@source_uri": "https://tools.usps.com/UspsToolsRestServices/rest/POLocator/findLocations", "@spider": "usps_collection_boxes", "addr:city": "ALPHA", "addr:country": "US", "addr:postcode": "56111", "addr:state": "MN", "addr:street_address": "115 MAIN ST N", "amenity": "post_box", "collection_times": "Mo-Fr 12:00; Sa 11:30", "indoor": "yes", "nsi_id": "unitedstatespostalservice-a77078", "operator": "United States Postal Service", "operator:short": "USPS", "operator:type": "public", "operator:wikidata": "Q668687", "ref": "5611100002"}, "type": "Feature"}
{"geometry": {"coordinates": [-96.184782816, 44.38327245], "type": "Point"}, "id": "hl6VMPAm_Eg53HqX5RFCVYUGH9w=", "properties": {"@source_uri": "https://tools.usps.com/UspsToolsRestServices/rest/POLocator/findLocations", "@spider": "usps_collection_boxes", "addr:city": "ARCO", "addr:country": "US", "addr:postcode": "56113", "addr:state": "MN", "addr:street_address": "110 E LAUREL ST", "amenity": "post_box", "collection_times": "Mo-Sa 10:00", "nsi_id": "unitedstatespostalservice-a77078", "operator": "United States Postal Service", "operator:short": "USPS", "operator:type": "public", "operator:wikidata": "Q668687", "ref": "5611300000"}, "type": "Feature"}
{"geometry": {"coordinates": [-96.184782816, 44.38327245], "type": "Point"}, "id": "tC0cPd0qR8XpxcG7BSdc1iKtdHw=", "properties": {"@source_uri": "https://tools.usps.com/UspsToolsRestServices/rest/POLocator/findLocations", "@spider": "usps_collection_boxes", "addr:city": "ARCO", "addr:country": "US", "addr:postcode": "56113", "addr:state": "MN", "addr:street_address": "110 E LAUREL ST", "amenity": "post_box", "collection_times": "Mo-Sa 10:00", "indoor": "yes", "nsi_id": "unitedstatespostalservice-a77078", "operator": "United States Postal Service", "operator:short": "USPS", "operator:type": "public", "operator:wikidata": "Q668687", "ref": "5611300001"}, "type": "Feature"}
{"geometry": {"coordinates": [-96.184782816, 44.38327245], "type": "Point"}, "id": "uvxT-opMD5Wy4R-WY-ew_XI2KOQ=", "properties": {"@source_uri": "https://tools.usps.com/UspsToolsRestServices/rest/POLocator/findLocations", "@spider": "usps_collection_boxes", "addr:city": "ARCO", "addr:country": "US", "addr:postcode": "56113", "addr:state": "MN", "addr:street_address": "110 E LAUREL ST", "amenity": "post_box", "collection_times": "Mo-Fr 13:00; Sa 11:00", "indoor": "yes", "note": "ON 12/24 AND 12/31, THIS BOX MAY BE COLLECTED AS EARLY AS 12 NOON.", "nsi_id": "unitedstatespostalservice-a77078", "operator": "United States Postal Service", "operator:short": "USPS", "operator:type": "public", "operator:wikidata": "Q668687", "ref": "5611300002"}, "type": "Feature"}
{"geometry": {"coordinates": [-95.644874912, 43.949049904], "type": "Point"}, "id": "ZeJRnkUWCbsW0bpyCVagdXchBt0=", "properties": {"@source_uri": "https://tools.usps.com/UspsToolsRestServices/rest/POLocator/findLocations", "@spider": "usps_collection_boxes", "addr:city": "AVOCA", "addr:country": "US", "addr:postcode": "56114", "addr:state": "MN", "addr:street_address": "140 SW 2ND ST", "amenity": "post_box", "collection_times": "Mo-Fr 17:00; Sa 09:45", "note": "ON 12/24 AND 12/31, THIS BOX MAY BE COLLECTED AS EARLY AS 12 NOON.", "nsi_id": "unitedstatespostalservice-a77078", "operator": "United States Postal Service", "operator:short": "USPS", "operator:type": "public", "operator:wikidata": "Q668687", "ref": "5611400000"}, "type": "Feature"}
{"geometry": {"coordinates": [-95.644874912, 43.949049904], "type": "Point"}, "id": "qt6DUf7Mt4i5f8y1OKYfTIbljLI=", "properties": {"@source_uri": "https://tools.usps.com/UspsToolsRestServices/rest/POLocator/findLocations", "@spider": "usps_collection_boxes", "addr:city": "AVOCA", "addr:country": "US", "addr:postcode": "56114", "addr:state": "MN", "addr:street_address": "140 SW 2ND ST", "amenity": "post_box", "collection_times": "Mo-Sa 11:45", "indoor": "yes", "nsi_id": "unitedstatespostalservice-a77078", "operator": "United States Postal Service", "operator:short": "USPS", "operator:type": "public", "operator:wikidata": "Q668687", "ref": "5611400001"}, "type": "Feature"}
{"geometry": {"coordinates": [-95.644874912, 43.949049904], "type": "Point"}, "id": "JEhoIjDTQpYBqStKpuKcuwTUh9M=", "properties": {"@source_uri": "https://tools.usps.com/UspsToolsRestServices/rest/POLocator/findLocations", "@spider": "usps_collection_boxes", "addr:city": "AVOCA", "addr:country": "US", "addr:postcode": "56114", "addr:state": "MN", "addr:street_address": "140 SW 2ND ST", "amenity": "post_box", "collection_times": "Mo-Sa 12:00", "indoor": "yes", "nsi_id": "unitedstatespostalservice-a77078", "operator": "United States Postal Service", "operator:short": "USPS", "operator:type": "public", "operator:wikidata": "Q668687", "ref": "5611400002"}, "type": "Feature"}
{"geometry": {"coordinates": [-95.871768233, 44.233812241], "type": "Point"}, "id": "ixQCma6dBCoOGfr_viDd5uUIP8w=", "properties": {"@source_uri": "https://tools.usps.com/UspsToolsRestServices/rest/POLocator/findLocations", "@spider": "usps_collection_boxes", "addr:city": "BALATON", "addr:country": "US", "addr:postcode": "56115", "addr:state": "MN", "addr:street_address": "120 3RD ST", "amenity": "post_box", "collection_times": "Mo-Sa 13:00", "note": "ON 12/24 AND 12/31, THIS BOX MAY BE COLLECTED AS EARLY AS 12 NOON.", "nsi_id": "unitedstatespostalservice-a77078", "operator": "United States Postal Service", "operator:short": "USPS", "operator:type": "public", "operator:wikidata": "Q668687", "ref": "5611500000"}, "type": "Feature"}
{"geometry": {"coordinates": [-95.871768233, 44.233812241], "type": "Point"}, "id": "nfJorzuU5kA6PV50nekRGuiL8nA=", "properties": {"@source_uri": "https://tools.usps.com/UspsToolsRestServices/rest/POLocator/findLocations", "@spider": "usps_collection_boxes", "addr:city": "BALATON", "addr:country": "US", "addr:postcode": "56115", "addr:state": "MN", "addr:street_address": "120 3RD ST", "amenity": "post_box", "collection_times": "Mo-Fr 13:00; Sa 09:30", "indoor": "yes", "note": "ON 12/24 AND 12/31, THIS BOX MAY BE COLLECTED AS EARLY AS 12 NOON.", "nsi_id": "unitedstatespostalservice-a77078", "operator": "United States Postal Service", "operator:short": "USPS", "operator:type": "public", "operator:wikidata": "Q668687", "ref": "5611500002"}, "type": "Feature"}
{"geometry": {"coordinates": [-95.871768233, 44.233812241], "type": "Point"}, "id": "CGmwp7NHLXul2mkZVEvFLebS1G0=", "properties": {"@source_uri": "https://tools.usps.com/UspsToolsRestServices/rest/POLocator/findLocations", "@spider": "usps_collection_boxes", "addr:city": "BALATON", "addr:country": "US", "addr:postcode": "56115", "addr:state": "MN", "addr:street_address": "120 3RD ST", "amenity": "post_box", "collection_times": "Mo-Fr 12:45; Sa 09:00", "indoor": "yes", "note": "ON 12/24 AND 12/31, THIS BOX MAY BE COLLECTED AS EARLY AS 12 NOON.", "nsi_id": "unitedstatespostalservice-a77078", "operator": "United States Postal Service", "operator:short": "USPS", "operator:type": "public", "operator:wikidata": "Q668687", "ref": "5611500003"}, "type": "Feature"}
{"geometry": {"coordinates": [-96.3634501676, 43.6141764677], "type": "Point"}, "id": "Q64I3Y_hHDRM3gWAOCLCLhrHi9w=", "properties": {"@source_uri": "https://tools.usps.com/UspsToolsRestServices/rest/POLocator/findLocations", "@spider": "usps_collection_boxes", "addr:city": "BEAVER CREEK", "addr:country": "US", "addr:postcode": "56116", "addr:state": "MN", "addr:street_address": "313 E 1ST AVE", "amenity": "post_box", "collection_times": "Mo-Sa 11:45", "nsi_id": "unitedstatespostalservice-a77078", "operator": "United States Postal Service", "operator:short": "USPS", "operator:type": "public", "operator:wikidata": "Q668687", "ref": "5611600000"}, "type": "Feature"}
{"geometry": {"coordinates": [-96.3634501676, 43.6141764677], "type": "Point"}, "id": "YQbdlcLkfKVGDcWLWNrhZq7e5a8=", "properties": {"@source_uri": "https://tools.usps.com/UspsToolsRestServices/rest/POLocator/findLocations", "@spider": "usps_collection_boxes", "addr:city": "BEAVER CREEK", "addr:country": "US", "addr:postcode": "56116", "addr:state": "MN", "addr:street_address": "313 E 1ST AVE", "amenity": "post_box", "collection_times": "Mo-Sa 11:45", "indoor": "yes", "nsi_id": "unitedstatespostalservice-a77078", "operator": "United States Postal Service", "operator:short": "USPS", "operator:type": "public", "operator:wikidata": "Q668687", "ref": "5611600001"}, "type": "Feature"}
{"geometry": {"coordinates": [-96.3634501676, 43.6141764677], "type": "Point"}, "id": "qOHk4oWqWKu2ru4WUSddFvQRYUQ=", "properties": {"@source_uri": "https://tools.usps.com/UspsToolsRestServices/rest/POLocator/findLocations", "@spider": "usps_collection_boxes", "addr:city": "BEAVER CREEK", "addr:country": "US", "addr:postcode": "56116", "addr:state": "MN", "addr:street_address": "313 E 1ST AVE", "amenity": "post_box", "collection_times": "Mo-Sa 11:45", "indoor": "yes", "nsi_id": "unitedstatespostalservice-a77078", "operator": "United States Postal Service", "operator:short": "USPS", "operator:type": "public", "operator:wikidata": "Q668687", "ref": "5611600002"}, "type": "Feature"}
{"geometry": {"coordinates": [-95.691144906, 43.505524056], "type": "Point"}, "id": "IyenZrZTAxAUbRSJCKRWQq1uGwM=", "properties": {"@source_uri": "https://tools.usps.com/UspsToolsRestServices/rest/POLocator/findLocations", "@spider": "usps_collection_boxes", "addr:city": "BIGELOW", "addr:country": "US", "addr:postcode": "56117", "addr:state": "MN", "addr:street_address": "1416 BROADWAY ST", "amenity": "post_box", "collection_times": "Mo-Sa 11:30", "nsi_id": "unitedstatespostalservice-a77078", "operator": "United States Postal Service", "operator:short": "USPS", "operator:type": "public", "operator:wikidata": "Q668687", "ref": "5611700000"}, "type": "Feature"}
{"geometry": {"coordinates": [-95.691144906, 43.505524056], "type": "Point"}, "id": "42-GH54P3ITE6NK1cGTHF11VkPs=", "properties": {"@source_uri": "https://tools.usps.com/UspsToolsRestServices/rest/POLocator/findLocations", "@spider": "usps_collection_boxes", "addr:city": "BIGELOW", "addr:country": "US", "addr:postcode": "56117", "addr:state": "MN", "addr:street_address": "1416 BROADWAY ST", "amenity": "post_box", "collection_times": "Mo-Fr 11:45; Sa 11:00", "indoor": "yes", "nsi_id": "unitedstatespostalservice-a77078", "operator": "United States Postal Service", "operator:short": "USPS", "operator:type": "public", "operator:wikidata": "Q668687", "ref": "5611700001"}, "type": "Feature"}
{"geometry": {"coordinates": [-95.691144906, 43.505524056], "type": "Point"}, "id": "7w6UkP2UirRR1dhyvk1phHxo2xQ=", "properties": {"@source_uri": "https://tools.usps.com/UspsToolsRestServices/rest/POLocator/findLocations", "@spider": "usps_collection_boxes", "addr:city": "BIGELOW", "addr:country": "US", "addr:postcode": "56117", "addr:state": "MN", "addr:street_address": "1416 BROADWAY ST", "amenity": "post_box", "collection_times": "Mo-Fr 12:00; Sa 11:45", "indoor": "yes", "nsi_id": "unitedstatespostalservice-a77078", "operator": "United States Postal Service", "operator:short": "USPS", "operator:type": "public", "operator:wikidata": "Q668687", "ref": "5611700002"}, "type": "Feature"}
{"geometry": {"coordinates": [-95.4689717845, 43.6985842709], "type": "Point"}, "id": "h6yg6YM9-M8nrOm5OVLaXrEI18o=", "properties": {"@source_uri": "https://tools.usps.com/UspsToolsRestServices/rest/POLocator/findLocations", "@spider": "usps_collection_boxes", "addr:city": "BREWSTER", "addr:country": "US", "addr:postcode": "56119", "addr:state": "MN", "addr:street_address": "1005 2ND AVE", "amenity": "post_box", "collection_times": "Mo-Fr 11:45; Sa 12:30", "note": "ON 12/24 AND 12/31, THIS BOX MAY BE COLLECTED AS EARLY AS 12 NOON.", "nsi_id": "unitedstatespostalservice-a77078", "operator": "United States Postal Service", "operator:short": "USPS", "operator:type": "public", "operator:wikidata": "Q668687", "ref": "5611900000"}, "type": "Feature"}
{"geometry": {"coordinates": [-95.4689717845, 43.6985842709], "type": "Point"}, "id": "hYYNTPl3dIKqwGZOlfz_4QxrfJg=", "properties": {"@source_uri": "https://tools.usps.com/UspsToolsRestServices/rest/POLocator/findLocations", "@spider": "usps_collection_boxes", "addr:city": "BREWSTER", "addr:country": "US", "addr:postcode": "56119", "addr:state": "MN", "addr:street_address": "1005 2ND AVE", "amenity": "post_box", "collection_times": "Mo-Fr 11:45; Sa 09:15", "indoor": "yes", "nsi_id": "unitedstatespostalservice-a77078", "operator": "United States Postal Service", "operator:short": "USPS", "operator:type": "public", "operator:wikidata": "Q668687", "ref": "5611900001"}, "type": "Feature"}
{"geometry": {"coordinates": [-95.4689717845, 43.6985842709], "type": "Point"}, "id": "fkUL-FPGOkbMe0u0x4UvyfFLy5o=", "properties": {"@source_uri": "https://tools.usps.com/UspsToolsRestServices/rest/POLocator/findLocations", "@spider": "usps_collection_boxes", "addr:city": "BREWSTER", "addr:country": "US", "addr:postcode": "56119", "addr:state": "MN", "addr:street_address": "1005 2ND AVE", "amenity": "post_box", "collection_times": "Mo-Fr 11:45; Sa 09:15", "indoor": "yes", "nsi_id": "unitedstatespostalservice-a77078", "operator": "United States Postal Service", "operator:short": "USPS", "operator:type": "public", "operator:wikidata": "Q668687", "ref": "5611900002"}, "type": "Feature"}
{"geometry": {"coordinates": [-95.4689717845, 43.6985842709], "type": "Point"}, "id": "lGtenkhBh8xipoBTQ0zM7F9rJcE=", "properties": {"@source_uri": "https://tools.usps.com/UspsToolsRestServices/rest/POLocator/findLocations", "@spider": "usps_collection_boxes", "addr:city": "BREWSTER", "addr:country": "US", "addr:postcode": "56119", "addr:state": "MN", "addr:street_address": "1005 2ND AVE", "amenity": "post_box", "collection_times": "Mo-Fr 12:00; Sa 09:00", "indoor": "yes", "nsi_id": "unitedstatespostalservice-a77078", "operator": "United States Postal Service", "operator:short": "USPS", "operator:type": "public", "operator:wikidata": "Q668687", "ref": "5611900003"}, "type": "Feature"}
{"geometry": {"coordinates": [-94.794760855, 43.958581867], "type": "Point"}, "id": "e-fQQpL_GQWvfbJ2LPKajjqvysA=", "properties": {"@source_uri": "https://tools.usps.com/UspsToolsRestServices/rest/POLocator/findLocations", "@spider": "usps_collection_boxes", "addr:city": "BUTTERFIELD", "addr:country": "US", "addr:postcode": "56120", "addr:state": "MN", "addr:street_address": "105 2ND ST N", "amenity": "post_box", "collection_times": "Mo-Fr 11:45; Sa 08:45", "nsi_id": "unitedstatespostalservice-a77078", "operator": "United States Postal Service", "operator:short": "USPS", "operator:type": "public", "operator:wikidata": "Q668687", "ref": "5612000000"}, "type": "Feature"}
{"geometry": {"coordinates": [-94.794760855, 43.958581867], "type": "Point"}, "id": "QmsHTdF_uxZ1bc6jqtcd9DUS_ow=", "properties": {"@source_uri": "https://tools.usps.com/UspsToolsRestServices/rest/POLocator/findLocations", "@spider": "usps_collection_boxes", "addr:city": "BUTTERFIELD", "addr:country": "US", "addr:postcode": "56120", "addr:state": "MN", "addr:street_address": "105 2ND ST N", "amenity": "post_box", "collection_times": "Mo-Fr 11:30; Sa 09:00", "indoor": "yes", "nsi_id": "unitedstatespostalservice-a77078", "operator": "United States Postal Service", "operator:short": "USPS", "operator:type": "public", "operator:wikidata": "Q668687", "ref": "5612000001"}, "type": "Feature"}
{"geometry": {"coordinates": [-94.794760855, 43.958581867], "type": "Point"}, "id": "xixLZyOmE36Cd5BIshl7jgWW5l0=", "properties": {"@source_uri": "https://tools.usps.com/UspsToolsRestServices/rest/POLocator/findLocations", "@spider": "usps_collection_boxes", "addr:city": "BUTTERFIELD", "addr:country": "US", "addr:postcode": "56120", "addr:state": "MN", "addr:street_address": "105 2ND ST N", "amenity": "post_box", "collection_times": "Mo-Fr 12:00; Sa 09:00", "indoor": "yes", "nsi_id": "unitedstatespostalservice-a77078", "operator": "United States Postal Service", "operator:short": "USPS", "operator:type": "public", "operator:wikidata": "Q668687", "ref": "5612000002"}, "type": "Feature"}
{"geometry": {"coordinates": [-94.632254277, 43.533644503], "type": "Point"}, "id": "P_yqBeXLIW-rVWEig0qmevoKBoQ=", "properties": {"@source_uri": "https://tools.usps.com/UspsToolsRestServices/rest/POLocator/findLocations", "@spider": "usps_collection_boxes", "addr:city": "CEYLON", "addr:country": "US", "addr:postcode": "56121", "addr:state": "MN", "addr:street_address": "111 W MAIN ST", "amenity": "post_box", "collection_times": "Mo-Fr 11:45; Sa 09:30", "nsi_id": "unitedstatespostalservice-a77078", "operator": "United States Postal Service", "operator:short": "USPS", "operator:type": "public", "operator:wikidata": "Q668687", "ref": "5612100000"}, "type": "Feature"}
{"geometry": {"coordinates": [-94.632254277, 43.533644503], "type": "Point"}, "id": "ygg5JUNLMXG8FU5yOy4hQ9vBgXc=", "properties": {"@source_uri": "https://tools.usps.com/UspsToolsRestServices/rest/POLocator/findLocations", "@spider": "usps_collection_boxes", "addr:city": "CEYLON", "addr:country": "US", "addr:postcode": "56121", "addr:state": "MN", "addr:street_address": "111 W MAIN ST", "amenity": "post_box", "collection_times": "Mo-Fr 11:30; Sa 09:30", "indoor": "yes", "nsi_id": "unitedstatespostalservice-a77078", "operator": "United States Postal Service", "operator:short": "USPS", "operator:type": "public", "operator:wikidata": "Q668687", "ref": "5612100001"}, "type": "Feature"}
{"geometry": {"coordinates": [-94.632254277, 43.533644503], "type": "Point"}, "id": "ao5FGfPRx86agTIa6PpRE_WZ8dM=", "properties": {"@source_uri": "https://tools.usps.com/UspsToolsRestServices/rest/POLocator/findLocations", "@spider": "usps_collection_boxes", "addr:city": "CEYLON", "addr:country": "US", "addr:postcode": "56121", "addr:state": "MN", "addr:street_address": "111 W MAIN ST", "amenity": "post_box", "collection_times": "Mo-Fr 11:45; Sa 09:30", "indoor": "yes", "nsi_id": "unitedstatespostalservice-a77078", "operator": "United States Postal Service", "operator:short": "USPS", "operator:type": "public", "operator:wikidata": "Q668687", "ref": "5612100002"}, "type": "Feature"}
{"geometry": {"coordinates": [-95.9478513391, 43.9290224944], "type": "Point"}, "id": "3RfgZHMQwiwVWgkBtfLRf0MvEFo=", "properties": {"@source_uri": "https://tools.usps.com/UspsToolsRestServices/rest/POLocator/findLocations", "@spider": "usps_collection_boxes", "addr:city": "CHANDLER", "addr:country": "US", "addr:postcode": "56122", "addr:state": "MN", "addr:street_address": "211 4TH ST", "amenity": "post_box", "collection_times": "Mo-Fr 11:45; Sa 09:00", "nsi_id": "unitedstatespostalservice-a77078", "operator": "United States Postal Service", "operator:short": "USPS", "operator:type": "public", "operator:wikidata": "Q668687", "ref": "5612200000"}, "type": "Feature"}
{"geometry": {"coordinates": [-95.9478513391, 43.9290224944], "type": "Point"}, "id": "T971EXdLtIH__RqTOCl7DIzXSgg=", "properties": {"@source_uri": "https://tools.usps.com/UspsToolsRestServices/rest/POLocator/findLocations", "@spider": "usps_collection_boxes", "addr:city": "CHANDLER", "addr:country": "US", "addr:postcode": "56122", "addr:state": "MN", "addr:street_address": "211 4TH ST", "amenity": "post_box", "collection_times": "Mo-Fr 11:15; Sa 09:00", "indoor": "yes", "nsi_id": "unitedstatespostalservice-a77078", "operator": "United States Postal Service", "operator:short": "USPS", "operator:type": "public", "operator:wikidata": "Q668687", "ref": "5612200001"}, "type": "Feature"}
{"geometry": {"coordinates": [-95.9478513391, 43.9290224944], "type": "Point"}, "id": "RnaXigpgJDW61nbyiH_6p4mTCOk=", "properties": {"@source_uri": "https://tools.usps.com/UspsToolsRestServices/rest/POLocator/findLocations", "@spider": "usps_collection_boxes", "addr:city": "CHANDLER", "addr:country": "US", "addr:postcode": "56122", "addr:state": "MN", "addr:street_address": "211 4TH ST", "amenity": "post_box", "collection_times": "Mo-Fr 12:00; Sa 09:15", "indoor": "yes", "nsi_id": "unitedstatespostalservice-a77078", "operator": "United States Postal Service", "operator:short": "USPS", "operator:type": "public", "operator:wikidata": "Q668687", "ref": "5612200002"}, "type": "Feature"}
{"geometry": {"coordinates": [-95.6661187312, 44.0716155588], "type": "Point"}, "id": "DRjcwQlgO9F5CDwSwv6JJK0FmrQ=", "properties": {"@source_uri": "https://tools.usps.com/UspsToolsRestServices/rest/POLocator/findLocations", "@spider": "usps_collection_boxes", "addr:city": "CURRIE", "addr:country": "US", "addr:postcode": "56123", "addr:state": "MN", "addr:street_address": "121 MILL ST N", "amenity": "post_box", "collection_times": "Mo-Fr 11:45; Sa 09:00", "nsi_id": "unitedstatespostalservice-a77078", "operator": "United States Postal Service", "operator:short": "USPS", "operator:type": "public", "operator:wikidata": "Q668687", "ref": "5612300000"}, "type": "Feature"}
{"geometry": {"coordinates": [-95.6661187312, 44.0716155588], "type": "Point"}, "id": "1MfNmrlVS95f9A72kmhs4EBlIWk=", "properties": {"@source_uri": "https://tools.usps.com/UspsToolsRestServices/rest/POLocator/findLocations", "@spider": "usps_collection_boxes", "addr:city": "CURRIE", "addr:country": "US", "addr:postcode": "56123", "addr:state": "MN", "addr:street_address": "121 MILL ST N", "amenity": "post_box", "collection_times": "Mo-Fr 11:45; Sa 08:30", "indoor": "yes", "nsi_id": "unitedstatespostalservice-a77078", "operator": "United States Postal Service", "operator:short": "USPS", "operator:type": "public", "operator:wikidata": "Q668687", "ref": "5612300001"}, "type": "Feature"}
{"geometry": {"coordinates": [-95.6661187312, 44.0716155588], "type": "Point"}, "id": "IC1ZTKeXb6UJusJyeir9MAm8AGE=", "properties": {"@source_uri": "https://tools.usps.com/UspsToolsRestServices/rest/POLocator/findLocations", "@spider": "usps_collection_boxes", "addr:city": "CURRIE", "addr:country": "US", "addr:postcode": "56123", "addr:state": "MN", "addr:street_address": "121 MILL ST N", "amenity": "post_box", "collection_times": "Mo-Fr 12:00; Sa 09:15", "indoor": "yes", "nsi_id": "unitedstatespostalservice-a77078", "operator": "United States Postal Service", "operator:short": "USPS", "operator:type": "public", "operator:wikidata": "Q668687", "ref": "5612300002"}, "type": "Feature"}
{"geometry": {"coordinates": [-95.5498458258, 44.0529602871], "type": "Point"}, "id": "FF6_97txwUWCLRC_5x-NRYV3OrM=", "properties": {"@source_uri": "https://tools.usps.com/UspsToolsRestServices/rest/POLocator/findLocations", "@spider": "usps_collection_boxes", "addr:city": "DOVRAY", "addr:country": "US", "addr:postcode": "56125", "addr:state": "MN", "addr:street_address": "305 WOODMAN AVE", "amenity": "post_box", "collection_times": "Mo-Fr 14:45; Sa 09:15", "note": "ON 12/24 AND 12/31, THIS BOX MAY BE COLLECTED AS EARLY AS 12 NOON.", "nsi_id": "unitedstatespostalservice-a77078", "operator": "United States Postal Service", "operator:short": "USPS", "operator:type": "public", "operator:wikidata": "Q668687", "ref": "5612500000"}, "type": "Feature"}
{"geometry": {"coordinates": [-94.775863332, 43.559217512], "type": "Point"}, "id": "DSGV8yobo535mQXJuJLEUrVACxY=", "properties": {"@source_uri": "https://tools.usps.com/UspsToolsRestServices/rest/POLocator/findLocations", "@spider": "usps_collection_boxes", "addr:city": "DUNNELL", "addr:country": "US", "addr:postcode": "56127", "addr:state": "MN", "addr:street_address": "150 W WENBERG ST", "amenity": "post_box", "collection_times": "Mo-Fr 11:15; Sa 08:45", "nsi_id": "unitedstatespostalservice-a77078", "operator": "United States Postal Service", "operator:short": "USPS", "operator:type": "public", "operator:wikidata": "Q668687", "ref": "5612700000"}, "type": "Feature"}
{"geometry": {"coordinates": [-94.775863332, 43.559217512], "type": "Point"}, "id": "vkzWIHLGvzUf4VjMlZRezi_f3VY=", "properties": {"@source_uri": "https://tools.usps.com/UspsToolsRestServices/rest/POLocator/findLocations", "@spider": "usps_collection_boxes", "addr:city": "DUNNELL", "addr:country": "US", "addr:postcode": "56127", "addr:state": "MN", "addr:street_address": "150 W WENBERG ST", "amenity": "post_box", "collection_times": "Mo-Fr 11:00; Sa 08:30", "indoor": "yes", "nsi_id": "unitedstatespostalservice-a77078", "operator": "United States Postal Service", "operator:short": "USPS", "operator:type": "public", "operator:wikidata": "Q668687", "ref": "5612700001"}, "type": "Feature"}
{"geometry": {"coordinates": [-94.775863332, 43.559217512], "type": "Point"}, "id": "I5zaRaacCNst2cvJSl1vbNvyb_Q=", "properties": {"@source_uri": "https://tools.usps.com/UspsToolsRestServices/rest/POLocator/findLocations", "@spider": "usps_collection_boxes", "addr:city": "DUNNELL", "addr:country": "US", "addr:postcode": "56127", "addr:state": "MN", "addr:street_address": "150 W WENBERG ST", "amenity": "post_box", "collection_times": "Mo-Fr 11:30; Sa 09:00", "indoor": "yes", "nsi_id": "unitedstatespostalservice-a77078", "operator": "United States Postal Service", "operator:short": "USPS", "operator:type": "public", "operator:wikidata": "Q668687", "ref": "5612700002"}, "type": "Feature"}
{"geometry": {"coordinates": [-96.128661606, 43.874136335], "type": "Point"}, "id": "DCcFikR4BIJT6VhmaFfK_nzLDmI=", "properties": {"@source_uri": "https://tools.usps.com/UspsToolsRestServices/rest/POLocator/findLocations", "@spider": "usps_collection_boxes", "addr:city": "EDGERTON", "addr:country": "US", "addr:postcode": "56128", "addr:state": "MN", "addr:street_address": "741 MAIN ST", "amenity": "post_box", "collection_times": "Mo-Sa 11:45", "nsi_id": "unitedstatespostalservice-a77078", "operator": "United States Postal Service", "operator:short": "USPS", "operator:type": "public", "operator:wikidata": "Q668687", "ref": "5612800000"}, "type": "Feature"}
{"geometry": {"coordinates": [-96.128661606, 43.874136335], "type": "Point"}, "id": "lqYpD6YQCFwakx2A5Ig24BNZtLU=", "properties": {"@source_uri": "https://tools.usps.com/UspsToolsRestServices/rest/POLocator/findLocations", "@spider": "usps_collection_boxes", "addr:city": "EDGERTON", "addr:country": "US", "addr:postcode": "56128", "addr:state": "MN", "addr:street_address": "741 MAIN ST", "amenity": "post_box", "collection_times": "Mo-Fr 11:45; Sa 09:15", "indoor": "yes", "nsi_id": "unitedstatespostalservice-a77078", "operator": "United States Postal Service", "operator:short": "USPS", "operator:type": "public", "operator:wikidata": "Q668687", "ref": "5612800002"}, "type": "Feature"}
{"geometry": {"coordinates": [-96.128661606, 43.874136335], "type": "Point"}, "id": "tOoApKK_UIYGolwrsq5e6-bW-Z4=", "properties": {"@source_uri": "https://tools.usps.com/UspsToolsRestServices/rest/POLocator/findLocations", "@spider": "usps_collection_boxes", "addr:city": "EDGERTON", "addr:country": "US", "addr:postcode": "56128", "addr:state": "MN", "addr:street_address": "741 MAIN ST", "amenity": "post_box", "collection_times": "Mo-Fr 11:45; Sa 09:30", "indoor": "yes", "nsi_id": "unitedstatespostalservice-a77078", "operator": "United States Postal Service", "operator:short": "USPS", "operator:type": "public", "operator:wikidata": "Q668687", "ref": "5612800003"}, "type": "Feature"}
{"geometry": {"coordinates": [-96.0181145568, 43.5181643282], "type": "Point"}, "id": "d2DOt1PqnVgDJ2HYXg6BczGE3W0=", "properties": {"@source_uri": "https://tools.usps.com/UspsToolsRestServices/rest/POLocator/findLocations", "@spider": "usps_collection_boxes", "addr:city": "ELLSWORTH", "addr:country": "US", "addr:postcode": "56129", "addr:state": "MN", "addr:street_address": "111 E 3RD AVE", "amenity": "post_box", "collection_times": "Mo-Sa 11:30", "nsi_id": "unitedstatespostalservice-a77078", "operator": "United States Postal Service", "operator:short": "USPS", "operator:type": "public", "operator:wikidata": "Q668687", "ref": "5612900000"}, "type": "Feature"}
{"geometry": {"coordinates": [-96.0181145568, 43.5181643282], "type": "Point"}, "id": "6t2h1A13tCzEeD3d-tjavOV_i4M=", "properties": {"@source_uri": "https://tools.usps.com/UspsToolsRestServices/rest/POLocator/findLocations", "@spider": "usps_collection_boxes", "addr:city": "ELLSWORTH", "addr:country": "US", "addr:postcode": "56129", "addr:state": "MN", "addr:street_address": "111 E 3RD AVE", "amenity": "post_box", "collection_times": "Mo-Sa 11:30", "indoor": "yes", "nsi_id": "unitedstatespostalservice-a77078", "operator": "United States Postal Service", "operator:short": "USPS", "operator:type": "public", "operator:wikidata": "Q668687", "ref": "5612900001"}, "type": "Feature"}
{"geometry": {"coordinates": [-96.0181145568, 43.5181643282], "type": "Point"}, "id": "M4QMvw_sfiZpHSqPiAX9HBeQTB4=", "properties": {"@source_uri": "https://tools.usps.com/UspsToolsRestServices/rest/POLocator/findLocations", "@spider": "usps_collection_boxes", "addr:city": "ELLSWORTH", "addr:country": "US", "addr:postcode": "56129", "addr:state": "MN", "addr:street_address": "111 E 3RD AVE", "amenity": "post_box", "collection_times": "Mo-Sa 11:30", "indoor": "yes", "nsi_id": "unitedstatespostalservice-a77078", "operator": "United States Postal Service", "operator:short": "USPS", "operator:type": "public", "operator:wikidata": "Q668687", "ref": "5612900002"}, "type": "Feature"}
{"geometry": {"coordinates": [-95.598730638, 43.869780335], "type": "Point"}, "id": "5bKmbP5D7JG30pbsZnS5vgppgJM=", "properties": {"@source_uri": "https://tools.usps.com/UspsToolsRestServices/rest/POLocator/findLocations", "@spider": "usps_collection_boxes", "addr:city": "DUNDEE", "addr:country": "US", "addr:postcode": "56131", "addr:state": "MN", "addr:street_address": "109 N BALTIMORE AVE", "amenity": "post_box", "collection_times": "Mo-Sa 13:00", "note": "ON 12/24 AND 12/31, THIS BOX MAY BE COLLECTED AS EARLY AS 12 NOON.", "nsi_id": "unitedstatespostalservice-a77078", "operator": "United States Postal Service", "operator:short": "USPS", "operator:type": "public", "operator:wikidata": "Q668687", "ref": "5613100000"}, "type": "Feature"}
{"geometry": {"coordinates": [-95.598730638, 43.869780335], "type": "Point"}, "id": "oR7WHcUekF639kmQJFhCo2i8MF0=", "properties": {"@source_uri": "https://tools.usps.com/UspsToolsRestServices/rest/POLocator/findLocations", "@spider": "usps_collection_boxes", "addr:city": "DUNDEE", "addr:country": "US", "addr:postcode": "56131", "addr:state": "MN", "addr:street_address": "109 N BALTIMORE AVE", "amenity": "post_box", "collection_times": "Mo-Fr 13:00; Sa 10:00", "indoor": "yes", "note": "ON 12/24 AND 12/31, THIS BOX MAY BE COLLECTED AS EARLY AS 12 NOON.", "nsi_id": "unitedstatespostalservice-a77078", "operator": "United States Postal Service", "operator:short": "USPS", "operator:type": "public", "operator:wikidata": "Q668687", "ref": "5613100002"}, "type": "Feature"}
{"geometry": {"coordinates": [-95.46682834, 43.8460047171], "type": "Point"}, "id": "sBLW5xKrQahsKGO5jGFkcYSpPmM=", "properties": {"@source_uri": "https://tools.usps.com/UspsToolsRestServices/rest/POLocator/findLocations", "@spider": "usps_collection_boxes", "addr:city": "DUNDEE", "addr:country": "US", "addr:postcode": "56131", "addr:state": "MN", "addr:street_address": "220 N MAIN ST", "amenity": "post_box", "collection_times": "Mo-Sa 13:15", "note": "ON 12/24 AND 12/31, THIS BOX MAY BE COLLECTED AS EARLY AS 12 NOON.", "nsi_id": "unitedstatespostalservice-a77078", "operator": "United States Postal Service", "operator:short": "USPS", "operator:type": "public", "operator:wikidata": "Q668687", "ref": "5613100003"}, "type": "Feature"}
{"geometry": {"coordinates": [-95.598730638, 43.869780335], "type": "Point"}, "id": "r4zbXjgnEURImFHQ1Axhu3Orb-o=", "properties": {"@source_uri": "https://tools.usps.com/UspsToolsRestServices/rest/POLocator/findLocations", "@spider": "usps_collection_boxes", "addr:city": "DUNDEE", "addr:country": "US", "addr:postcode": "56131", "addr:state": "MN", "addr:street_address": "109 N BALTIMORE AVE", "amenity": "post_box", "collection_times": "Mo-Fr 13:00; Sa 10:00", "indoor": "yes", "note": "ON 12/24 AND 12/31, THIS BOX MAY BE COLLECTED AS EARLY AS 12 NOON.", "nsi_id": "unitedstatespostalservice-a77078", "operator": "United States Postal Service", "operator:short": "USPS", "operator:type": "public", "operator:wikidata": "Q668687", "ref": "5613100004"}, "type": "Feature"}
{"geometry": {"coordinates": [-96.1990859807, 43.7749459798], "type": "Point"}, "id": "oRB9YDPAheBSRoThshNiLAzhDSo=", "properties": {"@source_uri": "https://tools.usps.com/UspsToolsRestServices/rest/POLocator/findLocations", "@spider": "usps_collection_boxes", "addr:city": "HARDWICK", "addr:country": "US", "addr:postcode": "56134", "addr:state": "MN", "addr:street_address": "103 E MAIN ST", "amenity": "post_box", "collection_times": "Mo-Sa 12:00", "nsi_id": "unitedstatespostalservice-a77078", "operator": "United States Postal Service", "operator:short": "USPS", "operator:type": "public", "operator:wikidata": "Q668687", "ref": "5613400000"}, "type": "Feature"}
{"geometry": {"coordinates": [-96.198894, 43.7746655043], "type": "Point"}, "id": "QGc2-dZos58JsDbUxHzjiNc3TaE=", "properties": {"@source_uri": "https://tools.usps.com/UspsToolsRestServices/rest/POLocator/findLocations", "@spider": "usps_collection_boxes", "addr:city": "HARDWICK", "addr:country": "US", "addr:postcode": "56134", "addr:state": "MN", "addr:street_address": "103 E MAIN ST", "amenity": "post_box", "collection_times": "Mo-Fr 12:00; Sa 09:00", "indoor": "yes", "nsi_id": "unitedstatespostalservice-a77078", "operator": "United States Postal Service", "operator:short": "USPS", "operator:type": "public", "operator:wikidata": "Q668687", "ref": "5613400001"}, "type": "Feature"}
{"geometry": {"coordinates": [-96.198894, 43.7746655043], "type": "Point"}, "id": "X4v2gyk6SsaXl4vEKuhfRRfJavA=", "properties": {"@source_uri": "https://tools.usps.com/UspsToolsRestServices/rest/POLocator/findLocations", "@spider": "usps_collection_boxes", "addr:city": "HARDWICK", "addr:country": "US", "addr:postcode": "56134", "addr:state": "MN", "addr:street_address": "103 E MAIN ST", "amenity": "post_box", "collection_times": "Mo-Fr 12:00; Sa 10:00", "indoor": "yes", "nsi_id": "unitedstatespostalservice-a77078", "operator": "United States Postal Service", "operator:short": "USPS", "operator:type": "public", "operator:wikidata": "Q668687", "ref": "5613400003"}, "type": "Feature"}
{"geometry": {"coordinates": [-96.425663667, 44.506982769], "type": "Point"}, "id": "Kddd2DtkzSLdLuZtpHiW6sJiek8=", "properties": {"@source_uri": "https://tools.usps.com/UspsToolsRestServices/rest/POLocator/findLocations", "@spider": "usps_collection_boxes", "addr:city": "HENDRICKS", "addr:country": "US", "addr:postcode": "56136", "addr:state": "MN", "addr:street_address": "107 S MAIN ST", "amenity": "post_box", "collection_times": "Mo-Sa 11:15", "nsi_id": "unitedstatespostalservice-a77078", "operator": "United States Postal Service", "operator:short": "USPS", "operator:type": "public", "operator:wikidata": "Q668687", "ref": "5613600000"}, "type": "Feature"}
{"geometry": {"coordinates": [-96.425663667, 44.506982769], "type": "Point"}, "id": "lzsbjh0eyOSWkmjVUoxjp8TLfCI=", "properties": {"@source_uri": "https://tools.usps.com/UspsToolsRestServices/rest/POLocator/findLocations", "@spider": "usps_collection_boxes", "addr:city": "HENDRICKS", "addr:country": "US", "addr:postcode": "56136", "addr:state": "MN", "addr:street_address": "107 S MAIN ST", "amenity": "post_box", "collection_times": "Mo-Fr 11:15; Sa 10:00", "indoor": "yes", "nsi_id": "unitedstatespostalservice-a77078", "operator": "United States Postal Service", "operator:short": "USPS", "operator:type": "public", "operator:wikidata": "Q668687", "ref": "5613600001"}, "type": "Feature"}
{"geometry": {"coordinates": [-96.425663667, 44.506982769], "type": "Point"}, "id": "ljjg3CtM-GC0bdz16mFbbf6NjfE=", "properties": {"@source_uri": "https://tools.usps.com/UspsToolsRestServices/rest/POLocator/findLocations", "@spider": "usps_collection_boxes", "addr:city": "HENDRICKS", "addr:country": "US", "addr:postcode": "56136", "addr:state": "MN", "addr:street_address": "107 S MAIN ST", "amenity": "post_box", "collection_times": "Mo-Fr 11:15; Sa 10:00", "indoor": "yes", "nsi_id": "unitedstatespostalservice-a77078", "operator": "United States Postal Service", "operator:short": "USPS", "operator:type": "public", "operator:wikidata": "Q668687", "ref": "5613600002"}, "type": "Feature"}
{"geometry": {"coordinates": [-95.3193192908, 43.7940455704], "type": "Point"}, "id": "Nz4E2DIowA9ZQWew2CFtqg1ES3M=", "properties": {"@source_uri": "https://tools.usps.com/UspsToolsRestServices/rest/POLocator/findLocations", "@spider": "usps_collection_boxes", "addr:city": "HERON LAKE", "addr:country": "US", "addr:postcode": "56137", "addr:state": "MN", "addr:street_address": "1006 3RD AVE", "amenity": "post_box", "collection_times": "Mo-Fr 11:15; Sa 08:45", "nsi_id": "unitedstatespostalservice-a77078", "operator": "United States Postal Service", "operator:short": "USPS", "operator:type": "public", "operator:wikidata": "Q668687", "ref": "5613700000"}, "type": "Feature"}
{"geometry": {"coordinates": [-95.3193192908, 43.7940455704], "type": "Point"}, "id": "uB0spx09rb2nO-80z541Xi7uxeI=", "properties": {"@source_uri": "https://tools.usps.com/UspsToolsRestServices/rest/POLocator/findLocations", "@spider": "usps_collection_boxes", "addr:city": "HERON LAKE", "addr:country": "US", "addr:postcode": "56137", "addr:state": "MN", "addr:street_address": "1006 3RD AVE", "amenity": "post_box", "collection_times": "Mo-Fr 11:15; Sa 08:15", "indoor": "yes", "nsi_id": "unitedstatespostalservice-a77078", "operator": "United States Postal Service", "operator:short": "USPS", "operator:type": "public", "operator:wikidata": "Q668687", "ref": "5613700001"}, "type": "Feature"}
{"geometry": {"coordinates": [-95.3193192908, 43.7940455704], "type": "Point"}, "id": "yt3AnQzEvuAM-NBlPa_POBi8ZQg=", "properties": {"@source_uri": "https://tools.usps.com/UspsToolsRestServices/rest/POLocator/findLocations", "@spider": "usps_collection_boxes", "addr:city": "HERON LAKE", "addr:country": "US", "addr:postcode": "56137", "addr:state": "MN", "addr:street_address": "1006 3RD AVE", "amenity": "post_box", "collection_times": "Mo-Fr 11:30; Sa 09:00", "indoor": "yes", "nsi_id": "unitedstatespostalservice-a77078", "operator": "United States Postal Service", "operator:short": "USPS", "operator:type": "public", "operator:wikidata": "Q668687", "ref": "5613700003"}, "type": "Feature"}
{"geometry": {"coordinates": [-96.3589461054, 43.5278694133], "type": "Point"}, "id": "VG-ZcDYweoRa8L-VPZK3I2EPdNU=", "properties": {"@source_uri": "https://tools.usps.com/UspsToolsRestServices/rest/POLocator/findLocations", "@spider": "usps_collection_boxes", "addr:city": "HILLS", "addr:country": "US", "addr:postcode": "56138", "addr:state": "MN", "addr:street_address": "205 S MAIN AVE", "amenity": "post_box", "collection_times": "Mo-Sa 11:15", "nsi_id": "unitedstatespostalservice-a77078", "operator": "United States Postal Service", "operator:short": "USPS", "operator:type": "public", "operator:wikidata": "Q668687", "ref": "5613800000"}, "type": "Feature"}
{"geometry": {"coordinates": [-96.3589461054, 43.5278694133], "type": "Point"}, "id": "GD6YntKT0OhFNd4G09hgfoD-ucY=", "properties": {"@source_uri": "https://tools.usps.com/UspsToolsRestServices/rest/POLocator/findLocations", "@spider": "usps_collection_boxes", "addr:city": "HILLS", "addr:country": "US", "addr:postcode": "56138", "addr:state": "MN", "addr:street_address": "205 S MAIN AVE", "amenity": "post_box", "collection_times": "Mo-Sa 11:15", "indoor": "yes", "nsi_id": "unitedstatespostalservice-a77078", "operator": "United States Postal Service", "operator:short": "USPS", "operator:type": "public", "operator:wikidata": "Q668687", "ref": "5613800001"}, "type": "Feature"}
{"geometry": {"coordinates": [-96.3589461054, 43.5278694133], "type": "Point"}, "id": "TlP2-yh2gD66K97MzUv75gfGvq0=", "properties": {"@source_uri": "https://tools.usps.com/UspsToolsRestServices/rest/POLocator/findLocations", "@spider": "usps_collection_boxes", "addr:city": "HILLS", "addr:country": "US", "addr:postcode": "56138", "addr:state": "MN", "addr:street_address": "205 S MAIN AVE", "amenity": "post_box", "collection_times": "Mo-Sa 11:15", "indoor": "yes", "nsi_id": "unitedstatespostalservice-a77078", "operator": "United States Postal Service", "operator:short": "USPS", "operator:type": "public", "operator:wikidata": "Q668687", "ref": "5613800002"}, "type": "Feature"}
{"geometry": {"coordinates": [-96.186911399, 44.090216184], "type": "Point"}, "id": "J-5m5MaPBae9gaIdUlH3H5kTOjg=", "properties": {"@source_uri": "https://tools.usps.com/UspsToolsRestServices/rest/POLocator/findLocations", "@spider": "usps_collection_boxes", "addr:city": "HOLLAND", "addr:country": "US", "addr:postcode": "56139", "addr:state": "MN", "addr:street_address": "441 ROCK ST", "amenity": "post_box", "collection_times": "Mo-Sa 09:00", "nsi_id": "unitedstatespostalservice-a77078", "operator": "United States Postal Service", "operator:short": "USPS", "operator:type": "public", "operator:wikidata": "Q668687", "ref": "5613900000"}, "type": "Feature"}
{"geometry": {"coordinates": [-95.785583307, 43.915667489], "type": "Point"}, "id": "GgkrRgsLw-AUu9L2uCTesphJkwo=", "properties": {"@source_uri": "https://tools.usps.com/UspsToolsRestServices/rest/POLocator/findLocations", "@spider": "usps_collection_boxes", "addr:city": "IONA", "addr:country": "US", "addr:postcode": "56141", "addr:state": "MN", "addr:street_address": "330 GRACE AVE", "amenity": "post_box", "collection_times": "Mo-Sa 12:30", "note": "ON 12/24 AND 12/31, THIS BOX MAY BE COLLECTED AS EARLY AS 12 NOON.", "nsi_id": "unitedstatespostalservice-a77078", "operator": "United States Postal Service", "operator:short": "USPS", "operator:type": "public", "operator:wikidata": "Q668687", "ref": "5614100000"}, "type": "Feature"}
{"geometry": {"coordinates": [-95.785583307, 43.915667489], "type": "Point"}, "id": "MXdXLQOTegZSLzQ-o19AesYkuV8=", "properties": {"@source_uri": "https://tools.usps.com/UspsToolsRestServices/rest/POLocator/findLocations", "@spider": "usps_collection_boxes", "addr:city": "IONA", "addr:country": "US", "addr:postcode": "56141", "addr:state": "MN", "addr:street_address": "330 GRACE AVE", "amenity": "post_box", "collection_times": "Mo-Sa 12:30", "indoor": "yes", "note": "ON 12/24 AND 12/31, THIS BOX MAY BE COLLECTED AS EARLY AS 12 NOON.", "nsi_id": "unitedstatespostalservice-a77078", "operator": "United States Postal Service", "operator:short": "USPS", "operator:type": "public", "operator:wikidata": "Q668687", "ref": "5614100001"}, "type": "Feature"}
{"geometry": {"coordinates": [-95.785583307, 43.915667489], "type": "Point"}, "id": "nprtLnLS4Nu_aqFHaumBCLFThZE=", "properties": {"@source_uri": "https://tools.usps.com/UspsToolsRestServices/rest/POLocator/findLocations", "@spider": "usps_collection_boxes", "addr:city": "IONA", "addr:country": "US", "addr:postcode": "56141", "addr:state": "MN", "addr:street_address": "330 GRACE AVE", "amenity": "post_box", "collection_times": "Mo-Sa 12:30", "indoor": "yes", "note": "ON 12/24 AND 12/31, THIS BOX MAY BE COLLECTED AS EARLY AS 12 NOON.", "nsi_id": "unitedstatespostalservice-a77078", "operator": "United States Postal Service", "operator:short": "USPS", "operator:type": "public", "operator:wikidata": "Q668687", "ref": "5614100002"}, "type": "Feature"}
{"geometry": {"coordinates": [-96.248811334, 44.462504157], "type": "Point"}, "id": "9Wet5NEQ9691sB0d5aBXRK14Fyw=", "properties": {"@source_uri": "https://tools.usps.com/UspsToolsRestServices/rest/POLocator/findLocations", "@spider": "usps_collection_boxes", "addr:city": "IVANHOE", "addr:country": "US", "addr:postcode": "56142", "addr:state": "MN", "addr:street_address": "321 N SHERWOOD ST", "amenity": "post_box", "collection_times": "Mo-Sa 11:45", "nsi_id": "unitedstatespostalservice-a77078", "operator": "United States Postal Service", "operator:short": "USPS", "operator:type": "public", "operator:wikidata": "Q668687", "ref": "5614200000"}, "type": "Feature"}
{"geometry": {"coordinates": [-96.248811334, 44.462504157], "type": "Point"}, "id": "YNquWEX9Z_c_tkKsKMq9vsgiv3c=", "properties": {"@source_uri": "https://tools.usps.com/UspsToolsRestServices/rest/POLocator/findLocations", "@spider": "usps_collection_boxes", "addr:city": "IVANHOE", "addr:country": "US", "addr:postcode": "56142", "addr:state": "MN", "addr:street_address": "321 N SHERWOOD ST", "amenity": "post_box", "collection_times": "Mo-Fr 11:30; Sa 08:45", "indoor": "yes", "nsi_id": "unitedstatespostalservice-a77078", "operator": "United States Postal Service", "operator:short": "USPS", "operator:type": "public", "operator:wikidata": "Q668687", "ref": "5614200001"}, "type": "Feature"}
{"geometry": {"coordinates": [-96.248811334, 44.462504157], "type": "Point"}, "id": "UHWJh4t-OALyoZoZ9nkJFPnVi5g=", "properties": {"@source_uri": "https://tools.usps.com/UspsToolsRestServices/rest/POLocator/findLocations", "@spider": "usps_collection_boxes", "addr:city": "IVANHOE", "addr:country": "US", "addr:postcode": "56142", "addr:state": "MN", "addr:street_address": "321 N SHERWOOD ST", "amenity": "post_box", "collection_times": "Mo-Fr 11:45; Sa 09:00", "indoor": "yes", "nsi_id": "unitedstatespostalservice-a77078", "operator": "United States Postal Service", "operator:short": "USPS", "operator:type": "public", "operator:wikidata": "Q668687", "ref": "5614200002"}, "type": "Feature"}
{"geometry": {"coordinates": [-94.987717982, 43.619796], "type": "Point"}, "id": "NsJHujDd315zRNqm5RrGMywNIIc=", "properties": {"@source_uri": "https://tools.usps.com/UspsToolsRestServices/rest/POLocator/findLocations", "@spider": "usps_collection_boxes", "addr:city": "JACKSON", "addr:country": "US", "addr:postcode": "56143", "addr:state": "MN", "addr:street_address": "211 2ND ST", "amenity": "post_box", "collection_times": "Mo-Sa 12:45", "note": "ON 12/24 AND 12/31, THIS BOX MAY BE COLLECTED AS EARLY AS 12 NOON.", "nsi_id": "unitedstatespostalservice-a77078", "operator": "United States Postal Service", "operator:short": "USPS", "operator:type": "public", "operator:wikidata": "Q668687", "ref": "5614300001"}, "type": "Feature"}
{"geometry": {"coordinates": [-94.987717982, 43.619796], "type": "Point"}, "id": "OVr6hf9C-x4i1PBys98phWUqjF8=", "properties": {"@source_uri": "https://tools.usps.com/UspsToolsRestServices/rest/POLocator/findLocations", "@spider": "usps_collection_boxes", "addr:city": "JACKSON", "addr:country": "US", "addr:postcode": "56143", "addr:state": "MN", "addr:street_address": "211 2ND ST", "amenity": "post_box", "collection_times": "Mo-Fr 12:45; Sa 11:00", "indoor": "yes", "note": "ON 12/24 AND 12/31, THIS BOX MAY BE COLLECTED AS EARLY AS 12 NOON.", "nsi_id": "unitedstatespostalservice-a77078", "operator": "United States Postal Service", "operator:short": "USPS", "operator:type": "public", "operator:wikidata": "Q668687", "ref": "5614300002"}, "type": "Feature"}
{"geometry": {"coordinates": [-94.987717982, 43.619796], "type": "Point"}, "id": "qSutE2g8J0-Gwvqv5WQWW0ZAqJA=", "properties": {"@source_uri": "https://tools.usps.com/UspsToolsRestServices/rest/POLocator/findLocations", "@spider": "usps_collection_boxes", "addr:city": "JACKSON", "addr:country": "US", "addr:postcode": "56143", "addr:state": "MN", "addr:street_address": "211 2ND ST", "amenity": "post_box", "collection_times": "Mo-Fr 12:45; Sa 11:00", "indoor": "yes", "note": "ON 12/24 AND 12/31, THIS BOX MAY BE COLLECTED AS EARLY AS 12 NOON.", "nsi_id": "unitedstatespostalservice-a77078", "operator": "United States Postal Service", "operator:short": "USPS", "operator:type": "public", "operator:wikidata": "Q668687", "ref": "5614300004"}, "type": "Feature"}
{"geometry": {"coordinates": [-96.3996435, 43.849876472], "type": "Point"}, "id": "nXxOaYqQ_GIS0LCXrZwZjRossIc=", "properties": {"@source_uri": "https://tools.usps.com/UspsToolsRestServices/rest/POLocator/findLocations", "@spider": "usps_collection_boxes", "addr:city": "JASPER", "addr:country": "US", "addr:postcode": "56144", "addr:state": "MN", "addr:street_address": "216 WALL ST W", "amenity": "post_box", "collection_times": "Mo-Sa 11:15", "nsi_id": "unitedstatespostalservice-a77078", "operator": "United States Postal Service", "operator:short": "USPS", "operator:type": "public", "operator:wikidata": "Q668687", "ref": "5614400000"}, "type": "Feature"}
{"geometry": {"coordinates": [-96.3996435, 43.849876472], "type": "Point"}, "id": "pYJJsCjYQnL3at322bnr-2hUTLw=", "properties": {"@source_uri": "https://tools.usps.com/UspsToolsRestServices/rest/POLocator/findLocations", "@spider": "usps_collection_boxes", "addr:city": "JASPER", "addr:country": "US", "addr:postcode": "56144", "addr:state": "MN", "addr:street_address": "216 WALL ST W", "amenity": "post_box", "collection_times": "Mo-Fr 11:15; Sa 09:15", "indoor": "yes", "nsi_id": "unitedstatespostalservice-a77078", "operator": "United States Postal Service", "operator:short": "USPS", "operator:type": "public", "operator:wikidata": "Q668687", "ref": "5614400001"}, "type": "Feature"}
{"geometry": {"coordinates": [-96.3996435, 43.849876472], "type": "Point"}, "id": "Nu-YHlbo5Nq0Y2w1_9lGLVyrDHA=", "properties": {"@source_uri": "https://tools.usps.com/UspsToolsRestServices/rest/POLocator/findLocations", "@spider": "usps_collection_boxes", "addr:city": "JASPER", "addr:country": "US", "addr:postcode": "56144", "addr:state": "MN", "addr:street_address": "216 WALL ST W", "amenity": "post_box", "collection_times": "Mo-Fr 11:15; Sa 09:15", "indoor": "yes", "nsi_id": "unitedstatespostalservice-a77078", "operator": "United States Postal Service", "operator:short": "USPS", "operator:type": "public", "operator:wikidata": "Q668687", "ref": "5614400003"}, "type": "Feature"}
{"geometry": {"coordinates": [-95.196238881, 44.055913137], "type": "Point"}, "id": "Bjcup2nS9zBTrWSEKojPL_23E5Y=", "properties": {"@source_uri": "https://tools.usps.com/UspsToolsRestServices/rest/POLocator/findLocations", "@spider": "usps_collection_boxes", "addr:city": "JEFFERS", "addr:country": "US", "addr:postcode": "56145", "addr:state": "MN", "addr:street_address": "120 E WHITED ST", "amenity": "post_box", "collection_times": "Mo-Fr 11:45; Sa 08:30", "nsi_id": "unitedstatespostalservice-a77078", "operator": "United States Postal Service", "operator:short": "USPS", "operator:type": "public", "operator:wikidata": "Q668687", "ref": "5614500000"}, "type": "Feature"}
{"geometry": {"coordinates": [-95.196238881, 44.055913137], "type": "Point"}, "id": "R66wMn0AyWKCLgdGSfi7k5NPqoM=", "properties": {"@source_uri": "https://tools.usps.com/UspsToolsRestServices/rest/POLocator/findLocations", "@spider": "usps_collection_boxes", "addr:city": "JEFFERS", "addr:country": "US", "addr:postcode": "56145", "addr:state": "MN", "addr:street_address": "120 E WHITED ST", "amenity": "post_box", "collection_times": "Mo-Fr 11:45; Sa 08:30", "indoor": "yes", "nsi_id": "unitedstatespostalservice-a77078", "operator": "United States Postal Service", "operator:short": "USPS", "operator:type": "public", "operator:wikidata": "Q668687", "ref": "5614500001"}, "type": "Feature"}
{"geometry": {"coordinates": [-95.196238881, 44.055913137], "type": "Point"}, "id": "TRqFCW5aDbhTZsmvvA0lLJh3T8E=", "properties": {"@source_uri": "https://tools.usps.com/UspsToolsRestServices/rest/POLocator/findLocations", "@spider": "usps_collection_boxes", "addr:city": "JEFFERS", "addr:country": "US", "addr:postcode": "56145", "addr:state": "MN", "addr:street_address": "120 E WHITED ST", "amenity": "post_box", "collection_times": "Mo-Fr 12:00; Sa 08:45", "indoor": "yes", "nsi_id": "unitedstatespostalservice-a77078", "operator": "United States Postal Service", "operator:short": "USPS", "operator:type": "public", "operator:wikidata": "Q668687", "ref": "5614500002"}, "type": "Feature"}
{"geometry": {"coordinates": [-96.072721069, 43.754256587], "type": "Point"}, "id": "HmfIM3-gDArWwfkwxVwTzwP3_u4=", "properties": {"@source_uri": "https://tools.usps.com/UspsToolsRestServices/rest/POLocator/findLocations", "@spider": "usps_collection_boxes", "addr:city": "KENNETH", "addr:country": "US", "addr:postcode": "56147", "addr:state": "MN", "addr:street_address": "351 MAIN ST", "amenity": "post_box", "collection_times": "Mo-Sa 17:00", "note": "ON 12/24 AND 12/31, THIS BOX MAY BE COLLECTED AS EARLY AS 12 NOON.", "nsi_id": "unitedstatespostalservice-a77078", "operator": "United States Postal Service", "operator:short": "USPS", "operator:type": "public", "operator:wikidata": "Q668687", "ref": "5614700000"}, "type": "Feature"}
{"geometry": {"coordinates": [-96.286940798, 44.260873634], "type": "Point"}, "id": "oZG3_FHgepShjg86LWuc5zKs5k8=", "properties": {"@source_uri": "https://tools.usps.com/UspsToolsRestServices/rest/POLocator/findLocations", "@spider": "usps_collection_boxes", "addr:city": "LAKE BENTON", "addr:country": "US", "addr:postcode": "56149", "addr:state": "MN", "addr:street_address": "126 E BENTON ST", "amenity": "post_box", "collection_times": "Mo-Sa 12:15", "note": "ON 12/24 AND 12/31, THIS BOX MAY BE COLLECTED AS EARLY AS 12 NOON.", "nsi_id": "unitedstatespostalservice-a77078", "operator": "United States Postal Service", "operator:short": "USPS", "operator:type": "public", "operator:wikidata": "Q668687", "ref": "5614900000"}, "type": "Feature"}
{"geometry": {"coordinates": [-96.286940798, 44.260873634], "type": "Point"}, "id": "yaEyUh_aXQrhFE3PlDzjZ-4IG1Q=", "properties": {"@source_uri": "https://tools.usps.com/UspsToolsRestServices/rest/POLocator/findLocations", "@spider": "usps_collection_boxes", "addr:city": "LAKE BENTON", "addr:country": "US", "addr:postcode": "56149", "addr:state": "MN", "addr:street_address": "126 E BENTON ST", "amenity": "post_box", "collection_times": "Mo-Fr 12:15; Sa 10:00", "indoor": "yes", "note": "ON 12/24 AND 12/31, THIS BOX MAY BE COLLECTED AS EARLY AS 12 NOON.", "nsi_id": "unitedstatespostalservice-a77078", "operator": "United States Postal Service", "operator:short": "USPS", "operator:type": "public", "operator:wikidata": "Q668687", "ref": "5614900001"}, "type": "Feature"}
{"geometry": {"coordinates": [-96.286940798, 44.260873634], "type": "Point"}, "id": "hopEHIYZQfdnsMkWAf07v_-25Qk=", "properties": {"@source_uri": "https://tools.usps.com/UspsToolsRestServices/rest/POLocator/findLocations", "@spider": "usps_collection_boxes", "addr:city": "LAKE BENTON", "addr:country": "US", "addr:postcode": "56149", "addr:state": "MN", "addr:street_address": "126 E BENTON ST", "amenity": "post_box", "collection_times": "Mo-Fr 12:00; Sa 10:00", "indoor": "yes", "nsi_id": "unitedstatespostalservice-a77078", "operator": "United States Postal Service", "operator:short": "USPS", "operator:type": "public", "operator:wikidata": "Q668687", "ref": "5614900002"}, "type": "Feature"}
{"geometry": {"coordinates": [-95.172090446, 43.67832278], "type": "Point"}, "id": "fgjHbVYJMVXtd3gQRxG3WwKo7EM=", "properties": {"@source_uri": "https://tools.usps.com/UspsToolsRestServices/rest/POLocator/findLocations", "@spider": "usps_collection_boxes", "addr:city": "LAKEFIELD", "addr:country": "US", "addr:postcode": "56150", "addr:state": "MN", "addr:street_address": "319 MAIN ST", "amenity": "post_box", "collection_times": "Mo-Sa 13:00", "note": "ON 12/24 AND 12/31, THIS BOX MAY BE COLLECTED AS EARLY AS 12 NOON.", "nsi_id": "unitedstatespostalservice-a77078", "operator": "United States Postal Service", "operator:short": "USPS", "operator:type": "public", "operator:wikidata": "Q668687", "ref": "5615000000"}, "type": "Feature"}
{"geometry": {"coordinates": [-95.172090446, 43.67832278], "type": "Point"}, "id": "ggz4MmwEi6mPFFRufF6IGL2soKM=", "properties": {"@source_uri": "https://tools.usps.com/UspsToolsRestServices/rest/POLocator/findLocations", "@spider": "usps_collection_boxes", "addr:city": "LAKEFIELD", "addr:country": "US", "addr:postcode": "56150", "addr:state": "MN", "addr:street_address": "319 MAIN ST", "amenity": "post_box", "collection_times": "Mo-Fr 13:00; Sa 10:15", "indoor": "yes", "note": "ON 12/24 AND 12/31, THIS BOX MAY BE COLLECTED AS EARLY AS 12 NOON.", "nsi_id": "unitedstatespostalservice-a77078", "operator": "United States Postal Service", "operator:short": "USPS", "operator:type": "public", "operator:wikidata": "Q668687", "ref": "5615000001"}, "type": "Feature"}
{"geometry": {"coordinates": [-95.172090446, 43.67832278], "type": "Point"}, "id": "z7kLbqKBhrGMbHbkvuw04O_h7qk=", "properties": {"@source_uri": "https://tools.usps.com/UspsToolsRestServices/rest/POLocator/findLocations", "@spider": "usps_collection_boxes", "addr:city": "LAKEFIELD", "addr:country": "US", "addr:postcode": "56150", "addr:state": "MN", "addr:street_address": "319 MAIN ST", "amenity": "post_box", "collection_times": "Mo-Fr 13:00; Sa 10:00", "indoor": "yes", "note": "ON 12/24 AND 12/31, THIS BOX MAY BE COLLECTED AS EARLY AS 12 NOON.", "nsi_id": "unitedstatespostalservice-a77078", "operator": "United States Postal Service", "operator:short": "USPS", "operator:type": "public", "operator:wikidata": "Q668687", "ref": "5615000002"}, "type": "Feature"}
{"geometry": {"coordinates": [-95.954493464, 43.998555677], "type": "Point"}, "id": "i58Xn1NQrlAPH0K-NC-bJnUSpsw=", "properties": {"@source_uri": "https://tools.usps.com/UspsToolsRestServices/rest/POLocator/findLocations", "@spider": "usps_collection_boxes", "addr:city": "HADLEY", "addr:country": "US", "addr:postcode": "56151", "addr:state": "MN", "addr:street_address": "137 BROADWAY AVE", "amenity": "post_box", "collection_times": "Mo-Sa 13:00", "note": "ON 12/24 AND 12/31, THIS BOX MAY BE COLLECTED AS EARLY AS 12 NOON.", "nsi_id": "unitedstatespostalservice-a77078", "operator": "United States Postal Service", "operator:short": "USPS", "operator:type": "public", "operator:wikidata": "Q668687", "ref": "5615100001"}, "type": "Feature"}
{"geometry": {"coordinates": [-95.954493464, 43.998555677], "type": "Point"}, "id": "llUF_cx5ENKJvTCj0WRU9949eLE=", "properties": {"@source_uri": "https://tools.usps.com/UspsToolsRestServices/rest/POLocator/findLocations", "@spider": "usps_collection_boxes", "addr:city": "HADLEY", "addr:country": "US", "addr:postcode": "56151", "addr:state": "MN", "addr:street_address": "137 BROADWAY AVE", "amenity": "post_box", "collection_times": "Mo-Fr 13:00; Sa 09:30", "indoor": "yes", "note": "ON 12/24 AND 12/31, THIS BOX MAY BE COLLECTED AS EARLY AS 12 NOON.", "nsi_id": "unitedstatespostalservice-a77078", "operator": "United States Postal Service", "operator:short": "USPS", "operator:type": "public", "operator:wikidata": "Q668687", "ref": "5615100002"}, "type": "Feature"}
{"geometry": {"coordinates": [-95.954493464, 43.998555677], "type": "Point"}, "id": "xjtUjTGVsWURHD-FWvYIQ-mCrXY=", "properties": {"@source_uri": "https://tools.usps.com/UspsToolsRestServices/rest/POLocator/findLocations", "@spider": "usps_collection_boxes", "addr:city": "HADLEY", "addr:country": "US", "addr:postcode": "56151", "addr:state": "MN", "addr:street_address": "137 BROADWAY AVE", "amenity": "post_box", "collection_times": "Mo-Fr 13:00; Sa 09:15", "indoor": "yes", "note": "ON 12/24 AND 12/31, THIS BOX MAY BE COLLECTED AS EARLY AS 12 NOON.", "nsi_id": "unitedstatespostalservice-a77078", "operator": "United States Postal Service", "operator:short": "USPS", "operator:type": "public", "operator:wikidata": "Q668687", "ref": "5615100003"}, "type": "Feature"}
{"geometry": {"coordinates": [-95.264054861, 44.230909128], "type": "Point"}, "id": "S9RoFXD54ItsH7v-idH3K756zJc=", "properties": {"@source_uri": "https://tools.usps.com/UspsToolsRestServices/rest/POLocator/findLocations", "@spider": "usps_collection_boxes", "addr:city": "LAMBERTON", "addr:country": "US", "addr:postcode": "56152", "addr:state": "MN", "addr:street_address": "207 S MAIN ST", "amenity": "post_box", "collection_times": "Mo-Sa 12:45", "note": "ON 12/24 AND 12/31, THIS BOX MAY BE COLLECTED AS EARLY AS 12 NOON.", "nsi_id": "unitedstatespostalservice-a77078", "operator": "United States Postal Service", "operator:short": "USPS", "operator:type": "public", "operator:wikidata": "Q668687", "ref": "5615200000"}, "type": "Feature"}
{"geometry": {"coordinates": [-95.264054861, 44.230909128], "type": "Point"}, "id": "USpxPXgjpzNY5WctrD2D3G10sOY=", "properties": {"@source_uri": "https://tools.usps.com/UspsToolsRestServices/rest/POLocator/findLocations", "@spider": "usps_collection_boxes", "addr:city": "LAMBERTON", "addr:country": "US", "addr:postcode": "56152", "addr:state": "MN", "addr:street_address": "207 S MAIN ST", "amenity": "post_box", "collection_times": "Mo-Fr 12:45", "indoor": "yes", "note": "ON 12/24 AND 12/31, THIS BOX MAY BE COLLECTED AS EARLY AS 12 NOON.", "nsi_id": "unitedstatespostalservice-a77078", "operator": "United States Postal Service", "operator:short": "USPS", "operator:type": "public", "operator:wikidata": "Q668687", "ref": "5615200001"}, "type": "Feature"}
{"geometry": {"coordinates": [-95.264054861, 44.230909128], "type": "Point"}, "id": "c_rVRpGF3X8ARovKALTx6eHo_cs=", "properties": {"@source_uri": "https://tools.usps.com/UspsToolsRestServices/rest/POLocator/findLocations", "@spider": "usps_collection_boxes", "addr:city": "LAMBERTON", "addr:country": "US", "addr:postcode": "56152", "addr:state": "MN", "addr:street_address": "207 S MAIN ST", "amenity": "post_box", "collection_times": "Mo-Fr 12:45; Sa 09:30", "indoor": "yes", "note": "ON 12/24 AND 12/31, THIS BOX MAY BE COLLECTED AS EARLY AS 12 NOON.", "nsi_id": "unitedstatespostalservice-a77078", "operator": "United States Postal Service", "operator:short": "USPS", "operator:type": "public", "operator:wikidata": "Q668687", "ref": "5615200002"}, "type": "Feature"}
{"geometry": {"coordinates": [-96.015943277, 43.833889788], "type": "Point"}, "id": "uTVwZA39zdvPcyKBCuOR2g9MnKM=", "properties": {"@source_uri": "https://tools.usps.com/UspsToolsRestServices/rest/POLocator/findLocations", "@spider": "usps_collection_boxes", "addr:city": "LEOTA", "addr:country": "US", "addr:postcode": "56153", "addr:state": "MN", "addr:street_address": "11815 110TH ST", "amenity": "post_box", "collection_times": "Mo-Sa 11:45", "nsi_id": "unitedstatespostalservice-a77078", "operator": "United States Postal Service", "operator:short": "USPS", "operator:type": "public", "operator:wikidata": "Q668687", "ref": "5615300000"}, "type": "Feature"}
{"geometry": {"coordinates": [-96.015943277, 43.833889788], "type": "Point"}, "id": "mxI9L1ElMTGeTQ8EwMoCMl-8z3M=", "properties": {"@source_uri": "https://tools.usps.com/UspsToolsRestServices/rest/POLocator/findLocations", "@spider": "usps_collection_boxes", "addr:city": "LEOTA", "addr:country": "US", "addr:postcode": "56153", "addr:state": "MN", "addr:street_address": "11815 110TH ST", "amenity": "post_box", "collection_times": "Mo-Sa 11:45", "indoor": "yes", "nsi_id": "unitedstatespostalservice-a77078", "operator": "United States Postal Service", "operator:short": "USPS", "operator:type": "public", "operator:wikidata": "Q668687", "ref": "5615300001"}, "type": "Feature"}
{"geometry": {"coordinates": [-96.015943277, 43.833889788], "type": "Point"}, "id": "FbVLt_5W0HK18tK8-HMM3VQ3NL8=", "properties": {"@source_uri": "https://tools.usps.com/UspsToolsRestServices/rest/POLocator/findLocations", "@spider": "usps_collection_boxes", "addr:city": "LEOTA", "addr:country": "US", "addr:postcode": "56153", "addr:state": "MN", "addr:street_address": "11815 110TH ST", "amenity": "post_box", "collection_times": "Mo-Sa 12:00", "indoor": "yes", "nsi_id": "unitedstatespostalservice-a77078", "operator": "United States Postal Service", "operator:short": "USPS", "operator:type": "public", "operator:wikidata": "Q668687", "ref": "5615300002"}, "type": "Feature"}
{"geometry": {"coordinates": [-95.947440327, 43.746397656], "type": "Point"}, "id": "mRiiF_7iITtGUvv9MnJwb2nl2iE=", "properties": {"@source_uri": "https://tools.usps.com/UspsToolsRestServices/rest/POLocator/findLocations", "@spider": "usps_collection_boxes", "addr:city": "LISMORE", "addr:country": "US", "addr:postcode": "56155", "addr:state": "MN", "addr:street_address": "173 S 3RD AVE", "amenity": "post_box", "collection_times": "Mo-Fr 11:45; Sa 09:30", "nsi_id": "unitedstatespostalservice-a77078", "operator": "United States Postal Service", "operator:short": "USPS", "operator:type": "public", "operator:wikidata": "Q668687", "ref": "5615500000"}, "type": "Feature"}
{"geometry": {"coordinates": [-95.947440327, 43.746397656], "type": "Point"}, "id": "8uc4Mb9Rvx7GV-NcuO0jfR0IGsM=", "properties": {"@source_uri": "https://tools.usps.com/UspsToolsRestServices/rest/POLocator/findLocations", "@spider": "usps_collection_boxes", "addr:city": "LISMORE", "addr:country": "US", "addr:postcode": "56155", "addr:state": "MN", "addr:street_address": "173 S 3RD AVE", "amenity": "post_box", "collection_times": "Mo-Fr 12:00; Sa 09:45", "indoor": "yes", "nsi_id": "unitedstatespostalservice-a77078", "operator": "United States Postal Service", "operator:short": "USPS", "operator:type": "public", "operator:wikidata": "Q668687", "ref": "5615500001"}, "type": "Feature"}
{"geometry": {"coordinates": [-95.947440327, 43.746397656], "type": "Point"}, "id": "emhhprtnQVM_ZZQ0OmFswPrQRcI=", "properties": {"@source_uri": "https://tools.usps.com/UspsToolsRestServices/rest/POLocator/findLocations", "@spider": "usps_collection_boxes", "addr:city": "LISMORE", "addr:country": "US", "addr:postcode": "56155", "addr:state": "MN", "addr:street_address": "173 S 3RD AVE", "amenity": "post_box", "collection_times": "Mo-Fr 12:00; Sa 09:45", "indoor": "yes", "nsi_id": "unitedstatespostalservice-a77078", "operator": "United States Postal Service", "operator:short": "USPS", "operator:type": "public", "operator:wikidata": "Q668687", "ref": "5615500002"}, "type": "Feature"}
{"geometry": {"coordinates": [-96.20934322, 43.654305457], "type": "Point"}, "id": "N8NFhV4VEauk44jbpOCYJUfTkkk=", "properties": {"@source_uri": "https://tools.usps.com/UspsToolsRestServices/rest/POLocator/findLocations", "@spider": "usps_collection_boxes", "addr:city": "LUVERNE", "addr:country": "US", "addr:postcode": "56156", "addr:state": "MN", "addr:street_address": "101 E MAIN ST", "amenity": "post_box", "collection_times": "Mo-Fr 11:45", "nsi_id": "unitedstatespostalservice-a77078", "operator": "United States Postal Service", "operator:short": "USPS", "operator:type": "public", "operator:wikidata": "Q668687", "ref": "5615600000"}, "type": "Feature"}
{"geometry": {"coordinates": [-96.20810078, 43.654208503], "type": "Point"}, "id": "oZgbJE_TmihrEhN8g4htVuSmGzY=", "properties": {"@source_uri": "https://tools.usps.com/UspsToolsRestServices/rest/POLocator/findLocations", "@spider": "usps_collection_boxes", "addr:city": "LUVERNE", "addr:country": "US", "addr:postcode": "56156", "addr:state": "MN", "addr:street_address": "130 E MAIN ST", "amenity": "post_box", "collection_times": "Mo-Fr 11:45", "nsi_id": "unitedstatespostalservice-a77078", "operator": "United States Postal Service", "operator:short": "USPS", "operator:type": "public", "operator:wikidata": "Q668687", "ref": "5615600001"}, "type": "Feature"}
{"geometry": {"coordinates": [-96.204853362, 43.655195479], "type": "Point"}, "id": "NMIBWjvqH2_xJz49hshiMg7_aBw=", "properties": {"@source_uri": "https://tools.usps.com/UspsToolsRestServices/rest/POLocator/findLocations", "@spider": "usps_collection_boxes", "addr:city": "LUVERNE", "addr:country": "US", "addr:postcode": "56156", "addr:state": "MN", "addr:street_address": "407 E LINCOLN ST", "amenity": "post_box", "collection_times": "Mo-Sa 12:00", "nsi_id": "unitedstatespostalservice-a77078", "operator": "United States Postal Service", "operator:short": "USPS", "operator:type": "public", "operator:wikidata": "Q668687", "ref": "5615600007"}, "type": "Feature"}
{"geometry": {"coordinates": [-96.204853362, 43.655195479], "type": "Point"}, "id": "R3IRPXxA1HPou43uTWdTGYSOjhI=", "properties": {"@source_uri": "https://tools.usps.com/UspsToolsRestServices/rest/POLocator/findLocations", "@spider": "usps_collection_boxes", "addr:city": "LUVERNE", "addr:country": "US", "addr:postcode": "56156", "addr:state": "MN", "addr:street_address": "407 E LINCOLN ST", "amenity": "post_box", "collection_times": "Mo-Fr 12:00; Sa 11:30", "indoor": "yes", "nsi_id": "unitedstatespostalservice-a77078", "operator": "United States Postal Service", "operator:short": "USPS", "operator:type": "public", "operator:wikidata": "Q668687", "ref": "5615600008"}, "type": "Feature"}
{"geometry": {"coordinates": [-96.204853362, 43.655195479], "type": "Point"}, "id": "XiZGTVl_wqim2Y0vSVNnSylLKbI=", "properties": {"@source_uri": "https://tools.usps.com/UspsToolsRestServices/rest/POLocator/findLocations", "@spider": "usps_collection_boxes", "addr:city": "LUVERNE", "addr:country": "US", "addr:postcode": "56156", "addr:state": "MN", "addr:street_address": "407 E LINCOLN ST", "amenity": "post_box", "collection_times": "Mo-Fr 12:00; Sa 11:15", "indoor": "yes", "nsi_id": "unitedstatespostalservice-a77078", "operator": "United States Postal Service", "operator:short": "USPS", "operator:type": "public", "operator:wikidata": "Q668687", "ref": "5615600009"}, "type": "Feature"}
{"geometry": {"coordinates": [-95.891778088, 44.385335412], "type": "Point"}, "id": "00KX8G3Z7HDC12OCK0NykxH7wAU=", "properties": {"@source_uri": "https://tools.usps.com/UspsToolsRestServices/rest/POLocator/findLocations", "@spider": "usps_collection_boxes", "addr:city": "LYND", "addr:country": "US", "addr:postcode": "56157", "addr:state": "MN", "addr:street_address": "113 W RAILROAD ST", "amenity": "post_box", "collection_times": "Mo-Sa 11:00", "nsi_id": "unitedstatespostalservice-a77078", "operator": "United States Postal Service", "operator:short": "USPS", "operator:type": "public", "operator:wikidata": "Q668687", "ref": "5615700000"}, "type": "Feature"}
{"geometry": {"coordinates": [-95.891778088, 44.385335412], "type": "Point"}, "id": "jbkDiWZ3Eub-Tnxyqc6JxbfBeVs=", "properties": {"@source_uri": "https://tools.usps.com/UspsToolsRestServices/rest/POLocator/findLocations", "@spider": "usps_collection_boxes", "addr:city": "LYND", "addr:country": "US", "addr:postcode": "56157", "addr:state": "MN", "addr:street_address": "113 W RAILROAD ST", "amenity": "post_box", "collection_times": "Mo-Fr 11:00; Sa 08:45", "indoor": "yes", "nsi_id": "unitedstatespostalservice-a77078", "operator": "United States Postal Service", "operator:short": "USPS", "operator:type": "public", "operator:wikidata": "Q668687", "ref": "5615700001"}, "type": "Feature"}
{"geometry": {"coordinates": [-95.891778088, 44.385335412], "type": "Point"}, "id": "rzQyAZo5CxBpRSeziK_o-WxwWO0=", "properties": {"@source_uri": "https://tools.usps.com/UspsToolsRestServices/rest/POLocator/findLocations", "@spider": "usps_collection_boxes", "addr:city": "LYND", "addr:country": "US", "addr:postcode": "56157", "addr:state": "MN", "addr:street_address": "113 W RAILROAD ST", "amenity": "post_box", "collection_times": "Mo-Fr 11:30; Sa 10:15", "indoor": "yes", "nsi_id": "unitedstatespostalservice-a77078", "operator": "United States Postal Service", "operator:short": "USPS", "operator:type": "public", "operator:wikidata": "Q668687", "ref": "5615700002"}, "type": "Feature"}
{"geometry": {"coordinates": [-96.080413919, 43.645344504], "type": "Point"}, "id": "mMvYVD5IvOpV5FveYso7455EHAs=", "properties": {"@source_uri": "https://tools.usps.com/UspsToolsRestServices/rest/POLocator/findLocations", "@spider": "usps_collection_boxes", "addr:city": "MAGNOLIA", "addr:country": "US", "addr:postcode": "56158", "addr:state": "MN", "addr:street_address": "113 W LUVERNE ST", "amenity": "post_box", "collection_times": "Mo-Sa 12:15", "note": "ON 12/24 AND 12/31, THIS BOX MAY BE COLLECTED AS EARLY AS 12 NOON.", "nsi_id": "unitedstatespostalservice-a77078", "operator": "United States Postal Service", "operator:short": "USPS", "operator:type": "public", "operator:wikidata": "Q668687", "ref": "5615800000"}, "type": "Feature"}
{"geometry": {"coordinates": [-96.080413919, 43.645344504], "type": "Point"}, "id": "4YuC1BIGj-JyW6Eg7-imvmFHO3o=", "properties": {"@source_uri": "https://tools.usps.com/UspsToolsRestServices/rest/POLocator/findLocations", "@spider": "usps_collection_boxes", "addr:city": "MAGNOLIA", "addr:country": "US", "addr:postcode": "56158", "addr:state": "MN", "addr:street_address": "113 W LUVERNE ST", "amenity": "post_box", "collection_times": "Mo-Fr 12:15; Sa 11:15", "indoor": "yes", "note": "ON 12/24 AND 12/31, THIS BOX MAY BE COLLECTED AS EARLY AS 12 NOON.", "nsi_id": "unitedstatespostalservice-a77078", "operator": "United States Postal Service", "operator:short": "USPS", "operator:type": "public", "operator:wikidata": "Q668687", "ref": "5615800001"}, "type": "Feature"}
{"geometry": {"coordinates": [-96.080413919, 43.645344504], "type": "Point"}, "id": "ZzqdyHt0bAT2lkIncaf5odBfFQk=", "properties": {"@source_uri": "https://tools.usps.com/UspsToolsRestServices/rest/POLocator/findLocations", "@spider": "usps_collection_boxes", "addr:city": "MAGNOLIA", "addr:country": "US", "addr:postcode": "56158", "addr:state": "MN", "addr:street_address": "113 W LUVERNE ST", "amenity": "post_box", "collection_times": "Mo-Fr 12:15; Sa 11:30", "indoor": "yes", "note": "ON 12/24 AND 12/31, THIS BOX MAY BE COLLECTED AS EARLY AS 12 NOON.", "nsi_id": "unitedstatespostalservice-a77078", "operator": "United States Postal Service", "operator:short": "USPS", "operator:type": "public", "operator:wikidata": "Q668687", "ref": "5615800002"}, "type": "Feature"}
{"geometry": {"coordinates": [-94.929591361, 43.938145667], "type": "Point"}, "id": "BBMZ59sZJpY34Bn-nQNnz3_D8AA=", "properties": {"@source_uri": "https://tools.usps.com/UspsToolsRestServices/rest/POLocator/findLocations", "@spider": "usps_collection_boxes", "addr:city": "MOUNTAIN LAKE", "addr:country": "US", "addr:postcode": "56159", "addr:state": "MN", "addr:street_address": "211 10TH ST N", "amenity": "post_box", "collection_times": "Mo-Sa 13:30", "note": "ON 12/24 AND 12/31, THIS BOX MAY BE COLLECTED AS EARLY AS 12 NOON.", "nsi_id": "unitedstatespostalservice-a77078", "operator": "United States Postal Service", "operator:short": "USPS", "operator:type": "public", "operator:wikidata": "Q668687", "ref": "5615900000"}, "type": "Feature"}
{"geometry": {"coordinates": [-94.929591361, 43.938145667], "type": "Point"}, "id": "vFBe5Vsb17hopNxPVjQVGDuXaoM=", "properties": {"@source_uri": "https://tools.usps.com/UspsToolsRestServices/rest/POLocator/findLocations", "@spider": "usps_collection_boxes", "addr:city": "MOUNTAIN LAKE", "addr:country": "US", "addr:postcode": "56159", "addr:state": "MN", "addr:street_address": "211 10TH ST N", "amenity": "post_box", "collection_times": "Mo-Fr 13:30; Sa 10:00", "indoor": "yes", "note": "ON 12/24 AND 12/31, THIS BOX MAY BE COLLECTED AS EARLY AS 12 NOON.", "nsi_id": "unitedstatespostalservice-a77078", "operator": "United States Postal Service", "operator:short": "USPS", "operator:type": "public", "operator:wikidata": "Q668687", "ref": "5615900001"}, "type": "Feature"}
{"geometry": {"coordinates": [-94.929591361, 43.938145667], "type": "Point"}, "id": "Jk7VKZwykxRiJgCxcz3xl_6hl9U=", "properties": {"@source_uri": "https://tools.usps.com/UspsToolsRestServices/rest/POLocator/findLocations", "@spider": "usps_collection_boxes", "addr:city": "MOUNTAIN LAKE", "addr:country": "US", "addr:postcode": "56159", "addr:state": "MN", "addr:street_address": "211 10TH ST N", "amenity": "post_box", "collection_times": "Mo-Fr 13:30; Sa 10:30", "indoor": "yes", "note": "ON 12/24 AND 12/31, THIS BOX MAY BE COLLECTED AS EARLY AS 12 NOON.", "nsi_id": "unitedstatespostalservice-a77078", "operator": "United States Postal Service", "operator:short": "USPS", "operator:type": "public", "operator:wikidata": "Q668687", "ref": "5615900003"}, "type": "Feature"}
{"geometry": {"coordinates": [-94.742785685, 43.866275897], "type": "Point"}, "id": "sz-PwGxUSTco53Wsbi1JOWJxJ_c=", "properties": {"@source_uri": "https://tools.usps.com/UspsToolsRestServices/rest/POLocator/findLocations", "@spider": "usps_collection_boxes", "addr:city": "ODIN", "addr:country": "US", "addr:postcode": "56160", "addr:state": "MN", "addr:street_address": "105 N 1ST ST", "amenity": "post_box", "collection_times": "Mo-Fr 09:45; Sa 09:15", "nsi_id": "unitedstatespostalservice-a77078", "operator": "United States Postal Service", "operator:short": "USPS", "operator:type": "public", "operator:wikidata": "Q668687", "ref": "5616000000"}, "type": "Feature"}
{"geometry": {"coordinates": [-94.742785685, 43.866275897], "type": "Point"}, "id": "jioPT0V5tpMdz74aCNqTcelNhj0=", "properties": {"@source_uri": "https://tools.usps.com/UspsToolsRestServices/rest/POLocator/findLocations", "@spider": "usps_collection_boxes", "addr:city": "ODIN", "addr:country": "US", "addr:postcode": "56160", "addr:state": "MN", "addr:street_address": "105 N 1ST ST", "amenity": "post_box", "collection_times": "Mo-Fr 09:30; Sa 08:30", "indoor": "yes", "nsi_id": "unitedstatespostalservice-a77078", "operator": "United States Postal Service", "operator:short": "USPS", "operator:type": "public", "operator:wikidata": "Q668687", "ref": "5616000001"}, "type": "Feature"}
{"geometry": {"coordinates": [-94.742785685, 43.866275897], "type": "Point"}, "id": "hmwkMTgtkRUWtawgfH-09ki0lms=", "properties": {"@source_uri": "https://tools.usps.com/UspsToolsRestServices/rest/POLocator/findLocations", "@spider": "usps_collection_boxes", "addr:city": "ODIN", "addr:country": "US", "addr:postcode": "56160", "addr:state": "MN", "addr:street_address": "105 N 1ST ST", "amenity": "post_box", "collection_times": "Mo-Fr 10:00; Sa 09:30", "indoor": "yes", "nsi_id": "unitedstatespostalservice-a77078", "operator": "United States Postal Service", "operator:short": "USPS", "operator:type": "public", "operator:wikidata": "Q668687", "ref": "5616000002"}, "type": "Feature"}
{"geometry": {"coordinates": [-95.316589183, 43.739315049], "type": "Point"}, "id": "l-sL3aKdhTblzQMAi0pbXQ8m3ic=", "properties": {"@source_uri": "https://tools.usps.com/UspsToolsRestServices/rest/POLocator/findLocations", "@spider": "usps_collection_boxes", "addr:city": "OKABENA", "addr:country": "US", "addr:postcode": "56161", "addr:state": "MN", "addr:street_address": "112 S MINNESOTA AVE", "amenity": "post_box", "collection_times": "Mo-Fr 11:45; Sa 09:15", "nsi_id": "unitedstatespostalservice-a77078", "operator": "United States Postal Service", "operator:short": "USPS", "operator:type": "public", "operator:wikidata": "Q668687", "ref": "5616100000"}, "type": "Feature"}
{"geometry": {"coordinates": [-95.316589183, 43.739315049], "type": "Point"}, "id": "14ENgiWv4ISaGkzxRuxY0MIt39o=", "properties": {"@source_uri": "https://tools.usps.com/UspsToolsRestServices/rest/POLocator/findLocations", "@spider": "usps_collection_boxes", "addr:city": "OKABENA", "addr:country": "US", "addr:postcode": "56161", "addr:state": "MN", "addr:street_address": "112 S MINNESOTA AVE", "amenity": "post_box", "collection_times": "Mo-Fr 11:15; Sa 09:30", "indoor": "yes", "nsi_id": "unitedstatespostalservice-a77078", "operator": "United States Postal Service", "operator:short": "USPS", "operator:type": "public", "operator:wikidata": "Q668687", "ref": "5616100001"}, "type": "Feature"}
{"geometry": {"coordinates": [-95.316589183, 43.739315049], "type": "Point"}, "id": "P3LujtY1urCoVkekvlcWXwlzMgQ=", "properties": {"@source_uri": "https://tools.usps.com/UspsToolsRestServices/rest/POLocator/findLocations", "@spider": "usps_collection_boxes", "addr:city": "OKABENA", "addr:country": "US", "addr:postcode": "56161", "addr:state": "MN", "addr:street_address": "112 S MINNESOTA AVE", "amenity": "post_box", "collection_times": "Mo-Fr 12:00; Sa 09:30", "indoor": "yes", "nsi_id": "unitedstatespostalservice-a77078", "operator": "United States Postal Service", "operator:short": "USPS", "operator:type": "public", "operator:wikidata": "Q668687", "ref": "5616100002"}, "type": "Feature"}
{"geometry": {"coordinates": [-94.697672277, 43.848236724], "type": "Point"}, "id": "m6Hq3YklmAcRpPZyasc0jpDag0Y=", "properties": {"@source_uri": "https://tools.usps.com/UspsToolsRestServices/rest/POLocator/findLocations", "@spider": "usps_collection_boxes", "addr:city": "ORMSBY", "addr:country": "US", "addr:postcode": "56162", "addr:state": "MN", "addr:street_address": "506 MAIN ST", "amenity": "post_box", "collection_times": "Mo-Fr 14:15; Sa 12:00", "note": "ON 12/24 AND 12/31, THIS BOX MAY BE COLLECTED AS EARLY AS 12 NOON.", "nsi_id": "unitedstatespostalservice-a77078", "operator": "United States Postal Service", "operator:short": "USPS", "operator:type": "public", "operator:wikidata": "Q668687", "ref": "5616200000"}, "type": "Feature"}
{"geometry": {"coordinates": [-94.697672277, 43.848236724], "type": "Point"}, "id": "i-qCMYSoE4aduq9BYq0sEjAloiw=", "properties": {"@source_uri": "https://tools.usps.com/UspsToolsRestServices/rest/POLocator/findLocations", "@spider": "usps_collection_boxes", "addr:city": "ORMSBY", "addr:country": "US", "addr:postcode": "56162", "addr:state": "MN", "addr:street_address": "506 MAIN ST", "amenity": "post_box", "collection_times": "Mo-Fr 12:45; Sa 10:45", "indoor": "yes", "note": "ON 12/24 AND 12/31, THIS BOX MAY BE COLLECTED AS EARLY AS 12 NOON.", "nsi_id": "unitedstatespostalservice-a77078", "operator": "United States Postal Service", "operator:short": "USPS", "operator:type": "public", "operator:wikidata": "Q668687", "ref": "5616200001"}, "type": "Feature"}
{"geometry": {"coordinates": [-94.697672277, 43.848236724], "type": "Point"}, "id": "_FYiJT8Kr3VjANZZ9IzC1M0klAw=", "properties": {"@source_uri": "https://tools.usps.com/UspsToolsRestServices/rest/POLocator/findLocations", "@spider": "usps_collection_boxes", "addr:city": "ORMSBY", "addr:country": "US", "addr:postcode": "56162", "addr:state": "MN", "addr:street_address": "506 MAIN ST", "amenity": "post_box", "collection_times": "Mo-Fr 12:45; Sa 12:15", "indoor": "yes", "note": "ON 12/24 AND 12/31, THIS BOX MAY BE COLLECTED AS EARLY AS 12 NOON.", "nsi_id": "unitedstatespostalservice-a77078", "operator": "United States Postal Service", "operator:short": "USPS", "operator:type": "public", "operator:wikidata": "Q668687", "ref": "5616200002"}, "type": "Feature"}
{"geometry": {"coordinates": [-96.317660197, 43.999073665], "type": "Point"}, "id": "aMSZep24w_GlnQomigH-uFvXYzo=", "properties": {"@source_uri": "https://tools.usps.com/UspsToolsRestServices/rest/POLocator/findLocations", "@spider": "usps_collection_boxes", "addr:city": "PIPESTONE", "addr:country": "US", "addr:postcode": "56164", "addr:state": "MN", "addr:street_address": "202 S HIAWATHA AVE", "amenity": "post_box", "collection_times": "Mo-Sa 12:15", "note": "ON 12/24 AND 12/31, THIS BOX MAY BE COLLECTED AS EARLY AS 12 NOON.", "nsi_id": "unitedstatespostalservice-a77078", "operator": "United States Postal Service", "operator:short": "USPS", "operator:type": "public", "operator:wikidata": "Q668687", "ref": "5616400000"}, "type": "Feature"}
{"geometry": {"coordinates": [-96.324231048, 43.994214485], "type": "Point"}, "id": "7AkDANjI8omifDaE4fyMEsiTLqY=", "properties": {"@source_uri": "https://tools.usps.com/UspsToolsRestServices/rest/POLocator/findLocations", "@spider": "usps_collection_boxes", "addr:city": "PIPESTONE", "addr:country": "US", "addr:postcode": "56164", "addr:state": "MN", "addr:street_address": "504 7TH ST SW", "amenity": "post_box", "collection_times": "Mo-Sa 11:45", "nsi_id": "unitedstatespostalservice-a77078", "operator": "United States Postal Service", "operator:short": "USPS", "operator:type": "public", "operator:wikidata": "Q668687", "ref": "5616400002"}, "type": "Feature"}
{"geometry": {"coordinates": [-96.31765016, 44.001189], "type": "Point"}, "id": "_pBzEWTZNTXPualEDsPTf0SruKg=", "properties": {"@source_uri": "https://tools.usps.com/UspsToolsRestServices/rest/POLocator/findLocations", "@spider": "usps_collection_boxes", "addr:city": "PIPESTONE", "addr:country": "US", "addr:postcode": "56164", "addr:state": "MN", "addr:street_address": "120 N HIAWATHA AVE", "amenity": "post_box", "collection_times": "Mo-Sa 11:45", "nsi_id": "unitedstatespostalservice-a77078", "operator": "United States Postal Service", "operator:short": "USPS", "operator:type": "public", "operator:wikidata": "Q668687", "ref": "5616400003"}, "type": "Feature"}
{"geometry": {"coordinates": [-96.317660197, 43.999073665], "type": "Point"}, "id": "cEIz5wR3l3L-8ScgXEsNtLh-10A=", "properties": {"@source_uri": "https://tools.usps.com/UspsToolsRestServices/rest/POLocator/findLocations", "@spider": "usps_collection_boxes", "addr:city": "PIPESTONE", "addr:country": "US", "addr:postcode": "56164", "addr:state": "MN", "addr:street_address": "202 S HIAWATHA AVE", "amenity": "post_box", "collection_times": "Mo-Sa 12:15", "indoor": "yes", "note": "ON 12/24 AND 12/31, THIS BOX MAY BE COLLECTED AS EARLY AS 12 NOON.", "nsi_id": "unitedstatespostalservice-a77078", "operator": "United States Postal Service", "operator:short": "USPS", "operator:type": "public", "operator:wikidata": "Q668687", "ref": "5616400008"}, "type": "Feature"}
{"geometry": {"coordinates": [-96.317660197, 43.999073665], "type": "Point"}, "id": "0i7aFWNNXueDrGUwOwXRScX_s8U=", "properties": {"@source_uri": "https://tools.usps.com/UspsToolsRestServices/rest/POLocator/findLocations", "@spider": "usps_collection_boxes", "addr:city": "PIPESTONE", "addr:country": "US", "addr:postcode": "56164", "addr:state": "MN", "addr:street_address": "202 S HIAWATHA AVE", "amenity": "post_box", "collection_times": "Mo-Sa 12:15", "note": "ON 12/24 AND 12/31, THIS BOX MAY BE COLLECTED AS EARLY AS 12 NOON.", "nsi_id": "unitedstatespostalservice-a77078", "operator": "United States Postal Service", "operator:short": "USPS", "operator:type": "public", "operator:wikidata": "Q668687", "ref": "5616400010"}, "type": "Feature"}
{"geometry": {"coordinates": [-96.317660197, 43.999073665], "type": "Point"}, "id": "6mJRokpzCK3a1Sec4IzFNEt25js=", "properties": {"@source_uri": "https://tools.usps.com/UspsToolsRestServices/rest/POLocator/findLocations", "@spider": "usps_collection_boxes", "addr:city": "PIPESTONE", "addr:country": "US", "addr:postcode": "56164", "addr:state": "MN", "addr:street_address": "202 S HIAWATHA AVE", "amenity": "post_box", "collection_times": "Mo-Fr 12:15; Sa 11:00", "indoor": "yes", "note": "ON 12/24 AND 12/31, THIS BOX MAY BE COLLECTED AS EARLY AS 12 NOON.", "nsi_id": "unitedstatespostalservice-a77078", "operator": "United States Postal Service", "operator:short": "USPS", "operator:type": "public", "operator:wikidata": "Q668687", "ref": "5616400011"}, "type": "Feature"}
{"geometry": {"coordinates": [-95.364609781, 44.22363345], "type": "Point"}, "id": "LzjyPh0pnBHHZ-oTcvQOJQfsCHo=", "properties": {"@source_uri": "https://tools.usps.com/UspsToolsRestServices/rest/POLocator/findLocations", "@spider": "usps_collection_boxes", "addr:city": "REVERE", "addr:country": "US", "addr:postcode": "56166", "addr:state": "MN", "addr:street_address": "100 MAIN ST", "amenity": "post_box", "collection_times": "Mo-Sa 12:15", "note": "ON 12/24 AND 12/31, THIS BOX MAY BE COLLECTED AS EARLY AS 12 NOON.", "nsi_id": "unitedstatespostalservice-a77078", "operator": "United States Postal Service", "operator:short": "USPS", "operator:type": "public", "operator:wikidata": "Q668687", "ref": "5616600000"}, "type": "Feature"}
{"geometry": {"coordinates": [-95.468352577, 43.541226], "type": "Point"}, "id": "jcOMVQJ9QeBBeasXFDRdXuRRdNU=", "properties": {"@source_uri": "https://tools.usps.com/UspsToolsRestServices/rest/POLocator/findLocations", "@spider": "usps_collection_boxes", "addr:city": "ROUND LAKE", "addr:country": "US", "addr:postcode": "56167", "addr:state": "MN", "addr:street_address": "137 MAIN ST", "amenity": "post_box", "collection_times": "Mo-Sa 12:00", "nsi_id": "unitedstatespostalservice-a77078", "operator": "United States Postal Service", "operator:short": "USPS", "operator:type": "public", "operator:wikidata": "Q668687", "ref": "5616700000"}, "type": "Feature"}
{"geometry": {"coordinates": [-95.468352577, 43.541226], "type": "Point"}, "id": "lupvaTtWqztzpLucTFD7LZ1rwJs=", "properties": {"@source_uri": "https://tools.usps.com/UspsToolsRestServices/rest/POLocator/findLocations", "@spider": "usps_collection_boxes", "addr:city": "ROUND LAKE", "addr:country": "US", "addr:postcode": "56167", "addr:state": "MN", "addr:street_address": "137 MAIN ST", "amenity": "post_box", "collection_times": "Mo-Fr 12:00; Sa 09:15", "indoor": "yes", "nsi_id": "unitedstatespostalservice-a77078", "operator": "United States Postal Service", "operator:short": "USPS", "operator:type": "public", "operator:wikidata": "Q668687", "ref": "5616700001"}, "type": "Feature"}
{"geometry": {"coordinates": [-95.468352577, 43.541226], "type": "Point"}, "id": "FmOIhdEzQFmCuRl1WZSm8V1ryPQ=", "properties": {"@source_uri": "https://tools.usps.com/UspsToolsRestServices/rest/POLocator/findLocations", "@spider": "usps_collection_boxes", "addr:city": "ROUND LAKE", "addr:country": "US", "addr:postcode": "56167", "addr:state": "MN", "addr:street_address": "137 MAIN ST", "amenity": "post_box", "collection_times": "Mo-Fr 12:00; Sa 09:15", "indoor": "yes", "nsi_id": "unitedstatespostalservice-a77078", "operator": "United States Postal Service", "operator:short": "USPS", "operator:type": "public", "operator:wikidata": "Q668687", "ref": "5616700002"}, "type": "Feature"}
{"geometry": {"coordinates": [-95.8006080407, 43.6188490007], "type": "Point"}, "id": "4O5Ntc7LxUeQ_OuAi-6QpQ6QphE=", "properties": {"@source_uri": "https://tools.usps.com/UspsToolsRestServices/rest/POLocator/findLocations", "@spider": "usps_collection_boxes", "addr:city": "READING", "addr:country": "US", "addr:postcode": "56168", "addr:state": "MN", "addr:street_address": "108 N THOMPSON AVE", "amenity": "post_box", "collection_times": "Mo-Fr 11:15; Sa 12:45", "note": "ON 12/24 AND 12/31, THIS BOX MAY BE COLLECTED AS EARLY AS 12 NOON.", "nsi_id": "unitedstatespostalservice-a77078", "operator": "United States Postal Service", "operator:short": "USPS", "operator:type": "public", "operator:wikidata": "Q668687", "ref": "5616800000"}, "type": "Feature"}
{"geometry": {"coordinates": [-95.8006080407, 43.6188490007], "type": "Point"}, "id": "nCt-w-St-lFDpRBc2GlZG-3gAVw=", "properties": {"@source_uri": "https://tools.usps.com/UspsToolsRestServices/rest/POLocator/findLocations", "@spider": "usps_collection_boxes", "addr:city": "READING", "addr:country": "US", "addr:postcode": "56168", "addr:state": "MN", "addr:street_address": "108 N THOMPSON AVE", "amenity": "post_box", "collection_times": "Mo-Fr 11:15; Sa 08:30", "indoor": "yes", "nsi_id": "unitedstatespostalservice-a77078", "operator": "United States Postal Service", "operator:short": "USPS", "operator:type": "public", "operator:wikidata": "Q668687", "ref": "5616800001"}, "type": "Feature"}
{"geometry": {"coordinates": [-95.8006080407, 43.6188490007], "type": "Point"}, "id": "f-fLxzO60aRxhThULkDbfFc_1Wc=", "properties": {"@source_uri": "https://tools.usps.com/UspsToolsRestServices/rest/POLocator/findLocations", "@spider": "usps_collection_boxes", "addr:city": "READING", "addr:country": "US", "addr:postcode": "56168", "addr:state": "MN", "addr:street_address": "108 N THOMPSON AVE", "amenity": "post_box", "collection_times": "Mo-Fr 12:00; Sa 08:30", "indoor": "yes", "nsi_id": "unitedstatespostalservice-a77078", "operator": "United States Postal Service", "operator:short": "USPS", "operator:type": "public", "operator:wikidata": "Q668687", "ref": "5616800003"}, "type": "Feature"}
{"geometry": {"coordinates": [-95.951078869, 44.319499019], "type": "Point"}, "id": "KFlmqjuuily-_l4Qs14J3Z9c20s=", "properties": {"@source_uri": "https://tools.usps.com/UspsToolsRestServices/rest/POLocator/findLocations", "@spider": "usps_collection_boxes", "addr:city": "RUSSELL", "addr:country": "US", "addr:postcode": "56169", "addr:state": "MN", "addr:street_address": "310 FRONT ST", "amenity": "post_box", "collection_times": "Mo-Sa 11:15", "nsi_id": "unitedstatespostalservice-a77078", "operator": "United States Postal Service", "operator:short": "USPS", "operator:type": "public", "operator:wikidata": "Q668687", "ref": "5616900000"}, "type": "Feature"}
{"geometry": {"coordinates": [-95.951078869, 44.319499019], "type": "Point"}, "id": "ajBFuelZqKKUqYIH266qDpfV4g0=", "properties": {"@source_uri": "https://tools.usps.com/UspsToolsRestServices/rest/POLocator/findLocations", "@spider": "usps_collection_boxes", "addr:city": "RUSSELL", "addr:country": "US", "addr:postcode": "56169", "addr:state": "MN", "addr:street_address": "310 FRONT ST", "amenity": "post_box", "collection_times": "Mo-Fr 11:15; Sa 10:00", "indoor": "yes", "nsi_id": "unitedstatespostalservice-a77078", "operator": "United States Postal Service", "operator:short": "USPS", "operator:type": "public", "operator:wikidata": "Q668687", "ref": "5616900001"}, "type": "Feature"}
{"geometry": {"coordinates": [-95.951078869, 44.319499019], "type": "Point"}, "id": "M3MdpruihAN2Bc_L9nGTeJUG0u0=", "properties": {"@source_uri": "https://tools.usps.com/UspsToolsRestServices/rest/POLocator/findLocations", "@spider": "usps_collection_boxes", "addr:city": "RUSSELL", "addr:country": "US", "addr:postcode": "56169", "addr:state": "MN", "addr:street_address": "310 FRONT ST", "amenity": "post_box", "collection_times": "Mo-Fr 11:45; Sa 10:00", "indoor": "yes", "nsi_id": "unitedstatespostalservice-a77078", "operator": "United States Postal Service", "operator:short": "USPS", "operator:type": "public", "operator:wikidata": "Q668687", "ref": "5616900002"}, "type": "Feature"}
{"geometry": {"coordinates": [-96.102350474, 44.176784541], "type": "Point"}, "id": "J2tcAPItQLudYe9KRYcrOm6-884=", "properties": {"@source_uri": "https://tools.usps.com/UspsToolsRestServices/rest/POLocator/findLocations", "@spider": "usps_collection_boxes", "addr:city": "RUTHTON", "addr:country": "US", "addr:postcode": "56170", "addr:state": "MN", "addr:street_address": "420 AETNA ST", "amenity": "post_box", "collection_times": "Mo-Fr 11:15; Sa 09:15", "nsi_id": "unitedstatespostalservice-a77078", "operator": "United States Postal Service", "operator:short": "USPS", "operator:type": "public", "operator:wikidata": "Q668687", "ref": "5617000000"}, "type": "Feature"}
{"geometry": {"coordinates": [-96.102350474, 44.176784541], "type": "Point"}, "id": "KiPAZG0LeV47V_jjwZAJ8GKn-aY=", "properties": {"@source_uri": "https://tools.usps.com/UspsToolsRestServices/rest/POLocator/findLocations", "@spider": "usps_collection_boxes", "addr:city": "RUTHTON", "addr:country": "US", "addr:postcode": "56170", "addr:state": "MN", "addr:street_address": "420 AETNA ST", "amenity": "post_box", "collection_times": "Mo-Fr 11:00; Sa 08:45", "indoor": "yes", "nsi_id": "unitedstatespostalservice-a77078", "operator": "United States Postal Service", "operator:short": "USPS", "operator:type": "public", "operator:wikidata": "Q668687", "ref": "5617000001"}, "type": "Feature"}
{"geometry": {"coordinates": [-96.102350474, 44.176784541], "type": "Point"}, "id": "ERxjZS-5WkUZsoSPy7SwGItur_4=", "properties": {"@source_uri": "https://tools.usps.com/UspsToolsRestServices/rest/POLocator/findLocations", "@spider": "usps_collection_boxes", "addr:city": "RUTHTON", "addr:country": "US", "addr:postcode": "56170", "addr:state": "MN", "addr:street_address": "420 AETNA ST", "amenity": "post_box", "collection_times": "Mo-Fr 11:30; Sa 09:30", "indoor": "yes", "nsi_id": "unitedstatespostalservice-a77078", "operator": "United States Postal Service", "operator:short": "USPS", "operator:type": "public", "operator:wikidata": "Q668687", "ref": "5617000002"}, "type": "Feature"}
{"geometry": {"coordinates": [-94.727749853, 43.654219052], "type": "Point"}, "id": "xD93JGdKzqU1-31uzqDQgQsGDfU=", "properties": {"@source_uri": "https://tools.usps.com/UspsToolsRestServices/rest/POLocator/findLocations", "@spider": "usps_collection_boxes", "addr:city": "SHERBURN", "addr:country": "US", "addr:postcode": "56171", "addr:state": "MN", "addr:street_address": "127 N MAIN ST", "amenity": "post_box", "collection_times": "Mo-Fr 11:45; Sa 12:00", "nsi_id": "unitedstatespostalservice-a77078", "operator": "United States Postal Service", "operator:short": "USPS", "operator:type": "public", "operator:wikidata": "Q668687", "ref": "5617100000"}, "type": "Feature"}
{"geometry": {"coordinates": [-94.727749853, 43.654219052], "type": "Point"}, "id": "lMsZQ9t8fwDJ98oC73FVTQnLF5A=", "properties": {"@source_uri": "https://tools.usps.com/UspsToolsRestServices/rest/POLocator/findLocations", "@spider": "usps_collection_boxes", "addr:city": "SHERBURN", "addr:country": "US", "addr:postcode": "56171", "addr:state": "MN", "addr:street_address": "127 N MAIN ST", "amenity": "post_box", "collection_times": "Mo-Fr 11:45; Sa 09:00", "indoor": "yes", "nsi_id": "unitedstatespostalservice-a77078", "operator": "United States Postal Service", "operator:short": "USPS", "operator:type": "public", "operator:wikidata": "Q668687", "ref": "5617100002"}, "type": "Feature"}
{"geometry": {"coordinates": [-94.727749853, 43.654219052], "type": "Point"}, "id": "YeRAV6wOTSs8EJ-sBuJPaH6lFGM=", "properties": {"@source_uri": "https://tools.usps.com/UspsToolsRestServices/rest/POLocator/findLocations", "@spider": "usps_collection_boxes", "addr:city": "SHERBURN", "addr:country": "US", "addr:postcode": "56171", "addr:state": "MN", "addr:street_address": "127 N MAIN ST", "amenity": "post_box", "collection_times": "Mo-Fr 12:00; Sa 09:45", "indoor": "yes", "nsi_id": "unitedstatespostalservice-a77078", "operator": "United States Postal Service", "operator:short": "USPS", "operator:type": "public", "operator:wikidata": "Q668687", "ref": "5617100004"}, "type": "Feature"}
{"geometry": {"coordinates": [-95.756251789, 43.988598], "type": "Point"}, "id": "7yN2b1r7dKq5C_h620mdh4cxH2Y=", "properties": {"@source_uri": "https://tools.usps.com/UspsToolsRestServices/rest/POLocator/findLocations", "@spider": "usps_collection_boxes", "addr:city": "SLAYTON", "addr:country": "US", "addr:postcode": "56172", "addr:state": "MN", "addr:street_address": "2541 BROADWAY AVE", "amenity": "post_box", "collection_times": "Mo-Fr 13:30; Sa 10:15", "indoor": "yes", "note": "ON 12/24 AND 12/31, THIS BOX MAY BE COLLECTED AS EARLY AS 12 NOON.", "nsi_id": "unitedstatespostalservice-a77078", "operator": "United States Postal Service", "operator:short": "USPS", "operator:type": "public", "operator:wikidata": "Q668687", "ref": "5617200003"}, "type": "Feature"}
{"geometry": {"coordinates": [-95.756251789, 43.988598], "type": "Point"}, "id": "DSObET6vm22BMdcxkYZoMIJ6xOk=", "properties": {"@source_uri": "https://tools.usps.com/UspsToolsRestServices/rest/POLocator/findLocations", "@spider": "usps_collection_boxes", "addr:city": "SLAYTON", "addr:country": "US", "addr:postcode": "56172", "addr:state": "MN", "addr:street_address": "2541 BROADWAY AVE", "amenity": "post_box", "collection_times": "Mo-Sa 13:30", "note": "ON 12/24 AND 12/31, THIS BOX MAY BE COLLECTED AS EARLY AS 12 NOON.", "nsi_id": "unitedstatespostalservice-a77078", "operator": "United States Postal Service", "operator:short": "USPS", "operator:type": "public", "operator:wikidata": "Q668687", "ref": "5617200004"}, "type": "Feature"}
{"geometry": {"coordinates": [-95.756251789, 43.988598], "type": "Point"}, "id": "WTLhbzuQ_qD4Wq1esgHoZP3MArU=", "properties": {"@source_uri": "https://tools.usps.com/UspsToolsRestServices/rest/POLocator/findLocations", "@spider": "usps_collection_boxes", "addr:city": "SLAYTON", "addr:country": "US", "addr:postcode": "56172", "addr:state": "MN", "addr:street_address": "2541 BROADWAY AVE", "amenity": "post_box", "collection_times": "Mo-Fr 13:30; Sa 10:00", "indoor": "yes", "note": "ON 12/24 AND 12/31, THIS BOX MAY BE COLLECTED AS EARLY AS 12 NOON.", "nsi_id": "unitedstatespostalservice-a77078", "operator": "United States Postal Service", "operator:short": "USPS", "operator:type": "public", "operator:wikidata": "Q668687", "ref": "5617200005"}, "type": "Feature"}
{"geometry": {"coordinates": [-95.319173491, 44.03792297], "type": "Point"}, "id": "KMD3tdLIMHgoBrlW7GImeWIxeCw=", "properties": {"@source_uri": "https://tools.usps.com/UspsToolsRestServices/rest/POLocator/findLocations", "@spider": "usps_collection_boxes", "addr:city": "STORDEN", "addr:country": "US", "addr:postcode": "56174", "addr:state": "MN", "addr:street_address": "320 AMERICA ST", "amenity": "post_box", "collection_times": "Mo-Sa 13:45", "note": "ON 12/24 AND 12/31, THIS BOX MAY BE COLLECTED AS EARLY AS 12 NOON.", "nsi_id": "unitedstatespostalservice-a77078", "operator": "United States Postal Service", "operator:short": "USPS", "operator:type": "public", "operator:wikidata": "Q668687", "ref": "5617400000"}, "type": "Feature"}
{"geometry": {"coordinates": [-95.319173491, 44.03792297], "type": "Point"}, "id": "WdId50nDTcn5T9d-0cHhlDPB1tc=", "properties": {"@source_uri": "https://tools.usps.com/UspsToolsRestServices/rest/POLocator/findLocations", "@spider": "usps_collection_boxes", "addr:city": "STORDEN", "addr:country": "US", "addr:postcode": "56174", "addr:state": "MN", "addr:street_address": "320 AMERICA ST", "amenity": "post_box", "collection_times": "Mo-Fr 12:30; Sa 09:30", "indoor": "yes", "note": "ON 12/24 AND 12/31, THIS BOX MAY BE COLLECTED AS EARLY AS 12 NOON.", "nsi_id": "unitedstatespostalservice-a77078", "operator": "United States Postal Service", "operator:short": "USPS", "operator:type": "public", "operator:wikidata": "Q668687", "ref": "5617400001"}, "type": "Feature"}
{"geometry": {"coordinates": [-95.319173491, 44.03792297], "type": "Point"}, "id": "3RAJxHvgeQ6FsyE17ahgD5E-HQw=", "properties": {"@source_uri": "https://tools.usps.com/UspsToolsRestServices/rest/POLocator/findLocations", "@spider": "usps_collection_boxes", "addr:city": "STORDEN", "addr:country": "US", "addr:postcode": "56174", "addr:state": "MN", "addr:street_address": "320 AMERICA ST", "amenity": "post_box", "collection_times": "Mo-Fr 13:00; Sa 10:00", "indoor": "yes", "note": "ON 12/24 AND 12/31, THIS BOX MAY BE COLLECTED AS EARLY AS 12 NOON.", "nsi_id": "unitedstatespostalservice-a77078", "operator": "United States Postal Service", "operator:short": "USPS", "operator:type": "public", "operator:wikidata": "Q668687", "ref": "5617400002"}, "type": "Feature"}
{"geometry": {"coordinates": [-95.61998463, 44.232258364], "type": "Point"}, "id": "7jI-nHGZZbM33nhyaCsfRQQC6hY=", "properties": {"@source_uri": "https://tools.usps.com/UspsToolsRestServices/rest/POLocator/findLocations", "@spider": "usps_collection_boxes", "addr:city": "GARVIN", "addr:country": "US", "addr:postcode": "56175", "addr:state": "MN", "addr:street_address": "100 3RD ST", "amenity": "post_box", "collection_times": "Mo-Fr 12:00; Sa 11:00", "nsi_id": "unitedstatespostalservice-a77078", "operator": "United States Postal Service", "operator:short": "USPS", "operator:type": "public", "operator:wikidata": "Q668687", "ref": "5617500006"}, "type": "Feature"}
{"geometry": {"coordinates": [-95.61998463, 44.232258364], "type": "Point"}, "id": "lJnM4TFajsSsMsTp7G7To5U3QA0=", "properties": {"@source_uri": "https://tools.usps.com/UspsToolsRestServices/rest/POLocator/findLocations", "@spider": "usps_collection_boxes", "addr:city": "GARVIN", "addr:country": "US", "addr:postcode": "56175", "addr:state": "MN", "addr:street_address": "100 3RD ST", "amenity": "post_box", "collection_times": "Mo-Fr 12:00; Sa 11:00", "indoor": "yes", "nsi_id": "unitedstatespostalservice-a77078", "operator": "United States Postal Service", "operator:short": "USPS", "operator:type": "public", "operator:wikidata": "Q668687", "ref": "5617500007"}, "type": "Feature"}
{"geometry": {"coordinates": [-95.61998463, 44.232258364], "type": "Point"}, "id": "78kRhp1b-LkUHzOXC5b6dx60jY8=", "properties": {"@source_uri": "https://tools.usps.com/UspsToolsRestServices/rest/POLocator/findLocations", "@spider": "usps_collection_boxes", "addr:city": "GARVIN", "addr:country": "US", "addr:postcode": "56175", "addr:state": "MN", "addr:street_address": "100 3RD ST", "amenity": "post_box", "collection_times": "Mo-Fr 12:00; Sa 10:45", "indoor": "yes", "nsi_id": "unitedstatespostalservice-a77078", "operator": "United States Postal Service", "operator:short": "USPS", "operator:type": "public", "operator:wikidata": "Q668687", "ref": "5617500010"}, "type": "Feature"}
{"geometry": {"coordinates": [-94.717864742, 43.762084117], "type": "Point"}, "id": "eW3wjl1yfN-aZGQWkS2cfCrjKYg=", "properties": {"@source_uri": "https://tools.usps.com/UspsToolsRestServices/rest/POLocator/findLocations", "@spider": "usps_collection_boxes", "addr:city": "TRIMONT", "addr:country": "US", "addr:postcode": "56176", "addr:state": "MN", "addr:street_address": "181 MAIN ST W", "amenity": "post_box", "collection_times": "Mo-Sa 12:00", "nsi_id": "unitedstatespostalservice-a77078", "operator": "United States Postal Service", "operator:short": "USPS", "operator:type": "public", "operator:wikidata": "Q668687", "ref": "5617600000"}, "type": "Feature"}
{"geometry": {"coordinates": [-94.714523916, 43.76201053], "type": "Point"}, "id": "vVoDCByoMRmCAnn_4lIMJ68D5dc=", "properties": {"@source_uri": "https://tools.usps.com/UspsToolsRestServices/rest/POLocator/findLocations", "@spider": "usps_collection_boxes", "addr:city": "TRIMONT", "addr:country": "US", "addr:postcode": "56176", "addr:state": "MN", "addr:street_address": "11 MAIN ST E", "amenity": "post_box", "collection_times": "Mo-Sa 11:45", "nsi_id": "unitedstatespostalservice-a77078", "operator": "United States Postal Service", "operator:short": "USPS", "operator:type": "public", "operator:wikidata": "Q668687", "ref": "5617600001"}, "type": "Feature"}
{"geometry": {"coordinates": [-94.714523916, 43.76201053], "type": "Point"}, "id": "1zjVrh6BCfrlFtysxNmwePOkcNc=", "properties": {"@source_uri": "https://tools.usps.com/UspsToolsRestServices/rest/POLocator/findLocations", "@spider": "usps_collection_boxes", "addr:city": "TRIMONT", "addr:country": "US", "addr:postcode": "56176", "addr:state": "MN", "addr:street_address": "11 MAIN ST E", "amenity": "post_box", "collection_times": "Mo-Fr 11:45; Sa 09:30", "indoor": "yes", "nsi_id": "unitedstatespostalservice-a77078", "operator": "United States Postal Service", "operator:short": "USPS", "operator:type": "public", "operator:wikidata": "Q668687", "ref": "5617600002"}, "type": "Feature"}
{"geometry": {"coordinates": [-94.714523916, 43.76201053], "type": "Point"}, "id": "hMZoG72MPcPJ2evxniBNbHhPA3c=", "properties": {"@source_uri": "https://tools.usps.com/UspsToolsRestServices/rest/POLocator/findLocations", "@spider": "usps_collection_boxes", "addr:city": "TRIMONT", "addr:country": "US", "addr:postcode": "56176", "addr:state": "MN", "addr:street_address": "11 MAIN ST E", "amenity": "post_box", "collection_times": "Mo-Fr 12:15; Sa 09:30", "indoor": "yes", "note": "ON 12/24 AND 12/31, THIS BOX MAY BE COLLECTED AS EARLY AS 12 NOON.", "nsi_id": "unitedstatespostalservice-a77078", "operator": "United States Postal Service", "operator:short": "USPS", "operator:type": "public", "operator:wikidata": "Q668687", "ref": "5617600003"}, "type": "Feature"}
{"geometry": {"coordinates": [-96.13460009, 44.27922541], "type": "Point"}, "id": "k1cg6zcQBgwbVw4UXAdv_h0V9Io=", "properties": {"@source_uri": "https://tools.usps.com/UspsToolsRestServices/rest/POLocator/findLocations", "@spider": "usps_collection_boxes", "addr:city": "TYLER", "addr:country": "US", "addr:postcode": "56178", "addr:state": "MN", "addr:street_address": "263 N TYLER ST", "amenity": "post_box", "collection_times": "Mo-Sa 11:45", "nsi_id": "unitedstatespostalservice-a77078", "operator": "United States Postal Service", "operator:short": "USPS", "operator:type": "public", "operator:wikidata": "Q668687", "ref": "5617800000"}, "type": "Feature"}
{"geometry": {"coordinates": [-96.13460009, 44.27922541], "type": "Point"}, "id": "Ew6qYHZnSfnzZLyCJ7MyWbMMtoA=", "properties": {"@source_uri": "https://tools.usps.com/UspsToolsRestServices/rest/POLocator/findLocations", "@spider": "usps_collection_boxes", "addr:city": "TYLER", "addr:country": "US", "addr:postcode": "56178", "addr:state": "MN", "addr:street_address": "263 N TYLER ST", "amenity": "post_box", "collection_times": "Mo-Fr 11:45; Sa 09:30", "indoor": "yes", "nsi_id": "unitedstatespostalservice-a77078", "operator": "United States Postal Service", "operator:short": "USPS", "operator:type": "public", "operator:wikidata": "Q668687", "ref": "5617800001"}, "type": "Feature"}
{"geometry": {"coordinates": [-96.13460009, 44.27922541], "type": "Point"}, "id": "FsC5WSYhcGycLGybd0FGNU2D_-Y=", "properties": {"@source_uri": "https://tools.usps.com/UspsToolsRestServices/rest/POLocator/findLocations", "@spider": "usps_collection_boxes", "addr:city": "TYLER", "addr:country": "US", "addr:postcode": "56178", "addr:state": "MN", "addr:street_address": "263 N TYLER ST", "amenity": "post_box", "collection_times": "Mo-Fr 12:00; Sa 09:30", "indoor": "yes", "nsi_id": "unitedstatespostalservice-a77078", "operator": "United States Postal Service", "operator:short": "USPS", "operator:type": "public", "operator:wikidata": "Q668687", "ref": "5617800002"}, "type": "Feature"}
{"geometry": {"coordinates": [-95.469813335, 44.223089489], "type": "Point"}, "id": "zNJIP9gvkLXsk04sfLdpBtZ5CnI=", "properties": {"@source_uri": "https://tools.usps.com/UspsToolsRestServices/rest/POLocator/findLocations", "@spider": "usps_collection_boxes", "addr:city": "WALNUT GROVE", "addr:country": "US", "addr:postcode": "56180", "addr:state": "MN", "addr:street_address": "610 MAIN ST", "amenity": "post_box", "collection_times": "Mo-Sa 12:15", "note": "ON 12/24 AND 12/31, THIS BOX MAY BE COLLECTED AS EARLY AS 12 NOON.", "nsi_id": "unitedstatespostalservice-a77078", "operator": "United States Postal Service", "operator:short": "USPS", "operator:type": "public", "operator:wikidata": "Q668687", "ref": "5618000000"}, "type": "Feature"}
{"geometry": {"coordinates": [-95.469813335, 44.223089489], "type": "Point"}, "id": "svmHfF1qfGgbP9P__Rzdr4h32oQ=", "properties": {"@source_uri": "https://tools.usps.com/UspsToolsRestServices/rest/POLocator/findLocations", "@spider": "usps_collection_boxes", "addr:city": "WALNUT GROVE", "addr:country": "US", "addr:postcode": "56180", "addr:state": "MN", "addr:street_address": "610 MAIN ST", "amenity": "post_box", "collection_times": "Mo-Fr 12:15; Sa 09:30", "indoor": "yes", "note": "ON 12/24 AND 12/31, THIS BOX MAY BE COLLECTED AS EARLY AS 12 NOON.", "nsi_id": "unitedstatespostalservice-a77078", "operator": "United States Postal Service", "operator:short": "USPS", "operator:type": "public", "operator:wikidata": "Q668687", "ref": "5618000001"}, "type": "Feature"}
{"geometry": {"coordinates": [-95.469813335, 44.223089489], "type": "Point"}, "id": "muy80B-6RXEOmzeTmshA6nquyCo=", "properties": {"@source_uri": "https://tools.usps.com/UspsToolsRestServices/rest/POLocator/findLocations", "@spider": "usps_collection_boxes", "addr:city": "WALNUT GROVE", "addr:country": "US", "addr:postcode": "56180", "addr:state": "MN", "addr:street_address": "610 MAIN ST", "amenity": "post_box", "collection_times": "Mo-Fr 12:30; Sa 09:30", "indoor": "yes", "note": "ON 12/24 AND 12/31, THIS BOX MAY BE COLLECTED AS EARLY AS 12 NOON.", "nsi_id": "unitedstatespostalservice-a77078", "operator": "United States Postal Service", "operator:short": "USPS", "operator:type": "public", "operator:wikidata": "Q668687", "ref": "5618000002"}, "type": "Feature"}
{"geometry": {"coordinates": [-94.619518938, 43.66763078], "type": "Point"}, "id": "Gw8fa5aod0SL-pidrPTrX0kMBH0=", "properties": {"@source_uri": "https://tools.usps.com/UspsToolsRestServices/rest/POLocator/findLocations", "@spider": "usps_collection_boxes", "addr:city": "WELCOME", "addr:country": "US", "addr:postcode": "56181", "addr:state": "MN", "addr:street_address": "113 DUGAN ST N", "amenity": "post_box", "collection_times": "Mo-Fr 11:45; Sa 09:15", "nsi_id": "unitedstatespostalservice-a77078", "operator": "United States Postal Service", "operator:short": "USPS", "operator:type": "public", "operator:wikidata": "Q668687", "ref": "5618100000"}, "type": "Feature"}
{"geometry": {"coordinates": [-94.619518938, 43.66763078], "type": "Point"}, "id": "RF1jx_ocI2jHeODzZAKnmQyKyWE=", "properties": {"@source_uri": "https://tools.usps.com/UspsToolsRestServices/rest/POLocator/findLocations", "@spider": "usps_collection_boxes", "addr:city": "WELCOME", "addr:country": "US", "addr:postcode": "56181", "addr:state": "MN", "addr:street_address": "113 DUGAN ST N", "amenity": "post_box", "collection_times": "Mo-Fr 11:45; Sa 09:30", "indoor": "yes", "nsi_id": "unitedstatespostalservice-a77078", "operator": "United States Postal Service", "operator:short": "USPS", "operator:type": "public", "operator:wikidata": "Q668687", "ref": "5618100001"}, "type": "Feature"}
{"geometry": {"coordinates": [-94.619518938, 43.66763078], "type": "Point"}, "id": "QWu1ZVzOoGNzY9V8oQUwwqDqrno=", "properties": {"@source_uri": "https://tools.usps.com/UspsToolsRestServices/rest/POLocator/findLocations", "@spider": "usps_collection_boxes", "addr:city": "WELCOME", "addr:country": "US", "addr:postcode": "56181", "addr:state": "MN", "addr:street_address": "113 DUGAN ST N", "amenity": "post_box", "collection_times": "Mo-Fr 11:45; Sa 09:30", "indoor": "yes", "nsi_id": "unitedstatespostalservice-a77078", "operator": "United States Postal Service", "operator:short": "USPS", "operator:type": "public", "operator:wikidata": "Q668687", "ref": "5618100002"}, "type": "Feature"}
{"geometry": {"coordinates": [-95.435438535, 44.042173489], "type": "Point"}, "id": "tT_X3MFn8HeMQNc9Sbvho6ew0FE=", "properties": {"@source_uri": "https://tools.usps.com/UspsToolsRestServices/rest/POLocator/findLocations", "@spider": "usps_collection_boxes", "addr:city": "WESTBROOK", "addr:country": "US", "addr:postcode": "56183", "addr:state": "MN", "addr:street_address": "734 6TH ST", "amenity": "post_box", "collection_times": "Mo-Sa 13:30", "note": "ON 12/24 AND 12/31, THIS BOX MAY BE COLLECTED AS EARLY AS 12 NOON.", "nsi_id": "unitedstatespostalservice-a77078", "operator": "United States Postal Service", "operator:short": "USPS", "operator:type": "public", "operator:wikidata": "Q668687", "ref": "5618300000"}, "type": "Feature"}
{"geometry": {"coordinates": [-95.435438535, 44.042173489], "type": "Point"}, "id": "sihwfm9bBO9t2ZYjNoUBCRiJg8I=", "properties": {"@source_uri": "https://tools.usps.com/UspsToolsRestServices/rest/POLocator/findLocations", "@spider": "usps_collection_boxes", "addr:city": "WESTBROOK", "addr:country": "US", "addr:postcode": "56183", "addr:state": "MN", "addr:street_address": "734 6TH ST", "amenity": "post_box", "collection_times": "Mo-Fr 13:30; Sa 09:15", "indoor": "yes", "note": "ON 12/24 AND 12/31, THIS BOX MAY BE COLLECTED AS EARLY AS 12 NOON.", "nsi_id": "unitedstatespostalservice-a77078", "operator": "United States Postal Service", "operator:short": "USPS", "operator:type": "public", "operator:wikidata": "Q668687", "ref": "5618300002"}, "type": "Feature"}
{"geometry": {"coordinates": [-95.435438535, 44.042173489], "type": "Point"}, "id": "wx5ABoXOWTyyCMn-hg1tBFUMcjU=", "properties": {"@source_uri": "https://tools.usps.com/UspsToolsRestServices/rest/POLocator/findLocations", "@spider": "usps_collection_boxes", "addr:city": "WESTBROOK", "addr:country": "US", "addr:postcode": "56183", "addr:state": "MN", "addr:street_address": "734 6TH ST", "amenity": "post_box", "collection_times": "Mo-Fr 13:30; Sa 09:30", "indoor": "yes", "note": "ON 12/24 AND 12/31, THIS BOX MAY BE COLLECTED AS EARLY AS 12 NOON.", "nsi_id": "unitedstatespostalservice-a77078", "operator": "United States Postal Service", "operator:short": "USPS", "operator:type": "public", "operator:wikidata": "Q668687", "ref": "5618300003"}, "type": "Feature"}
{"geometry": {"coordinates": [-95.827901259, 43.773186247], "type": "Point"}, "id": "M_PCfOUDOHm0RiKd5TAjVpo3wc4=", "properties": {"@source_uri": "https://tools.usps.com/UspsToolsRestServices/rest/POLocator/findLocations", "@spider": "usps_collection_boxes", "addr:city": "WILMONT", "addr:country": "US", "addr:postcode": "56185", "addr:state": "MN", "addr:street_address": "315 N 4TH AVE", "amenity": "post_box", "collection_times": "Mo-Fr 11:45; Sa 08:45", "nsi_id": "unitedstatespostalservice-a77078", "operator": "United States Postal Service", "operator:short": "USPS", "operator:type": "public", "operator:wikidata": "Q668687", "ref": "5618500000"}, "type": "Feature"}
{"geometry": {"coordinates": [-95.827901259, 43.773186247], "type": "Point"}, "id": "2ugbVz_ECFNfrFh86bXiump76To=", "properties": {"@source_uri": "https://tools.usps.com/UspsToolsRestServices/rest/POLocator/findLocations", "@spider": "usps_collection_boxes", "addr:city": "WILMONT", "addr:country": "US", "addr:postcode": "56185", "addr:state": "MN", "addr:street_address": "315 N 4TH AVE", "amenity": "post_box", "collection_times": "Mo-Fr 11:45; Sa 08:45", "indoor": "yes", "nsi_id": "unitedstatespostalservice-a77078", "operator": "United States Postal Service", "operator:short": "USPS", "operator:type": "public", "operator:wikidata": "Q668687", "ref": "5618500001"}, "type": "Feature"}
{"geometry": {"coordinates": [-95.827735555, 43.765072181], "type": "Point"}, "id": "Bi03WqgMKq8YKr27xovPXq0goJc=", "properties": {"@source_uri": "https://tools.usps.com/UspsToolsRestServices/rest/POLocator/findLocations", "@spider": "usps_collection_boxes", "addr:city": "WILMONT", "addr:country": "US", "addr:postcode": "56185", "addr:state": "MN", "addr:street_address": "315 4TH AVE", "amenity": "post_box", "collection_times": "Mo-Fr 12:00; Sa 09:00", "indoor": "yes", "nsi_id": "unitedstatespostalservice-a77078", "operator": "United States Postal Service", "operator:short": "USPS", "operator:type": "public", "operator:wikidata": "Q668687", "ref": "5618500002"}, "type": "Feature"}
{"geometry": {"coordinates": [-96.100958197, 44.009487555], "type": "Point"}, "id": "PjRa0bVvjTSE1FcbY7L3DXdBQlk=", "properties": {"@source_uri": "https://tools.usps.com/UspsToolsRestServices/rest/POLocator/findLocations", "@spider": "usps_collection_boxes", "addr:city": "WOODSTOCK", "addr:country": "US", "addr:postcode": "56186", "addr:state": "MN", "addr:street_address": "209 MAIN ST N", "amenity": "post_box", "collection_times": "Mo-Sa 12:30", "note": "ON 12/24 AND 12/31, THIS BOX MAY BE COLLECTED AS EARLY AS 12 NOON.", "nsi_id": "unitedstatespostalservice-a77078", "operator": "United States Postal Service", "operator:short": "USPS", "operator:type": "public", "operator:wikidata": "Q668687", "ref": "5618600000"}, "type": "Feature"}
{"geometry": {"coordinates": [-96.100958197, 44.009487555], "type": "Point"}, "id": "I630LTizPc1q42WPNCkzlMmGwu4=", "properties": {"@source_uri": "https://tools.usps.com/UspsToolsRestServices/rest/POLocator/findLocations", "@spider": "usps_collection_boxes", "addr:city": "WOODSTOCK", "addr:country": "US", "addr:postcode": "56186", "addr:state": "MN", "addr:street_address": "209 MAIN ST N", "amenity": "post_box", "collection_times": "Mo-Fr 12:30; Sa 11:15", "indoor": "yes", "note": "ON 12/24 AND 12/31, THIS BOX MAY BE COLLECTED AS EARLY AS 12 NOON.", "nsi_id": "unitedstatespostalservice-a77078", "operator": "United States Postal Service", "operator:short": "USPS", "operator:type": "public", "operator:wikidata": "Q668687", "ref": "5618600001"}, "type": "Feature"}
{"geometry": {"coordinates": [-96.100958197, 44.009487555], "type": "Point"}, "id": "dFBUjgIo3q_DevEpy8P_wQXgmmM=", "properties": {"@source_uri": "https://tools.usps.com/UspsToolsRestServices/rest/POLocator/findLocations", "@spider": "usps_collection_boxes", "addr:city": "WOODSTOCK", "addr:country": "US", "addr:postcode": "56186", "addr:state": "MN", "addr:street_address": "209 MAIN ST N", "amenity": "post_box", "collection_times": "Mo-Sa 12:45", "indoor": "yes", "note": "ON 12/24 AND 12/31, THIS BOX MAY BE COLLECTED AS EARLY AS 12 NOON.", "nsi_id": "unitedstatespostalservice-a77078", "operator": "United States Postal Service", "operator:short": "USPS", "operator:type": "public", "operator:wikidata": "Q668687", "ref": "5618600002"}, "type": "Feature"}
{"geometry": {"coordinates": [-95.602243705, 43.624256144], "type": "Point"}, "id": "S3Bb4xx7c5wuTemi2XnUZ80H6VE=", "properties": {"@source_uri": "https://tools.usps.com/UspsToolsRestServices/rest/POLocator/findLocations", "@spider": "usps_collection_boxes", "addr:city": "WORTHINGTON", "addr:country": "US", "addr:postcode": "56187", "addr:state": "MN", "addr:street_address": "850 10TH ST", "amenity": "post_box", "collection_times": "Mo-Sa 14:00", "note": "ON 12/24 AND 12/31, THIS BOX MAY BE COLLECTED AS EARLY AS 12 NOON.", "nsi_id": "unitedstatespostalservice-a77078", "operator": "United States Postal Service", "operator:short": "USPS", "operator:type": "public", "operator:wikidata": "Q668687", "ref": "5618700000"}, "type": "Feature"}
{"geometry": {"coordinates": [-95.5966545843, 43.6196452386], "type": "Point"}, "id": "fnitTkgL91j_xUkjADjUVD7xZjU=", "properties": {"@source_uri": "https://tools.usps.com/UspsToolsRestServices/rest/POLocator/findLocations", "@spider": "usps_collection_boxes", "addr:city": "WORTHINGTON", "addr:country": "US", "addr:postcode": "56187", "addr:state": "MN", "addr:street_address": "315 10TH ST", "amenity": "post_box", "collection_times": "Mo-Sa 12:45", "note": "ON 12/24 AND 12/31, THIS BOX MAY BE COLLECTED AS EARLY AS 12 NOON.", "nsi_id": "unitedstatespostalservice-a77078", "operator": "United States Postal Service", "operator:short": "USPS", "operator:type": "public", "operator:wikidata": "Q668687", "ref": "5618700006"}, "type": "Feature"}
{"geometry": {"coordinates": [-95.593521526, 43.631221515], "type": "Point"}, "id": "UuLTRX1wOmpkmmfenB6E8hIm-B4=", "properties": {"@source_uri": "https://tools.usps.com/UspsToolsRestServices/rest/POLocator/findLocations", "@spider": "usps_collection_boxes", "addr:city": "WORTHINGTON", "addr:country": "US", "addr:postcode": "56187", "addr:state": "MN", "addr:street_address": "1401 OXFORD ST", "amenity": "post_box", "collection_times": "Mo-Sa 12:45", "note": "ON 12/24 AND 12/31, THIS BOX MAY BE COLLECTED AS EARLY AS 12 NOON.", "nsi_id": "unitedstatespostalservice-a77078", "operator": "United States Postal Service", "operator:short": "USPS", "operator:type": "public", "operator:wikidata": "Q668687", "ref": "5618700008"}, "type": "Feature"}
{"geometry": {"coordinates": [-95.596514026, 43.631212515], "type": "Point"}, "id": "jKh17F0v2-OJBX6mcpkQ0vQI49w=", "properties": {"@source_uri": "https://tools.usps.com/UspsToolsRestServices/rest/POLocator/findLocations", "@spider": "usps_collection_boxes", "addr:city": "WORTHINGTON", "addr:country": "US", "addr:postcode": "56187", "addr:state": "MN", "addr:street_address": "1235 OXFORD ST", "amenity": "post_box", "collection_times": "Mo-Sa 13:00", "note": "ON 12/24 AND 12/31, THIS BOX MAY BE COLLECTED AS EARLY AS 12 NOON.", "nsi_id": "unitedstatespostalservice-a77078", "operator": "United States Postal Service", "operator:short": "USPS", "operator:type": "public", "operator:wikidata": "Q668687", "ref": "5618700012"}, "type": "Feature"}
{"geometry": {"coordinates": [-95.602243705, 43.624256144], "type": "Point"}, "id": "X7Z12pLgAsFcVLmlY7obBKsG0rU=", "properties": {"@source_uri": "https://tools.usps.com/UspsToolsRestServices/rest/POLocator/findLocations", "@spider": "usps_collection_boxes", "addr:city": "WORTHINGTON", "addr:country": "US", "addr:postcode": "56187", "addr:state": "MN", "addr:street_address": "850 10TH ST", "amenity": "post_box", "collection_times": "Mo-Sa 14:00", "indoor": "yes", "note": "ON 12/24 AND 12/31, THIS BOX MAY BE COLLECTED AS EARLY AS 12 NOON.", "nsi_id": "unitedstatespostalservice-a77078", "operator": "United States Postal Service", "operator:short": "USPS", "operator:type": "public", "operator:wikidata": "Q668687", "ref": "5618700014"}, "type": "Feature"}
{"geometry": {"coordinates": [-95.602243705, 43.624256144], "type": "Point"}, "id": "c-TplGlDQGY71g-WDQTsb01CiZQ=", "properties": {"@source_uri": "https://tools.usps.com/UspsToolsRestServices/rest/POLocator/findLocations", "@spider": "usps_collection_boxes", "addr:city": "WORTHINGTON", "addr:country": "US", "addr:postcode": "56187", "addr:state": "MN", "addr:street_address": "850 10TH ST", "amenity": "post_box", "collection_times": "Mo-Sa 14:00", "indoor": "yes", "note": "ON 12/24 AND 12/31, THIS BOX MAY BE COLLECTED AS EARLY AS 12 NOON.", "nsi_id": "unitedstatespostalservice-a77078", "operator": "United States Postal Service", "operator:short": "USPS", "operator:type": "public", "operator:wikidata": "Q668687", "ref": "5618700016"}, "type": "Feature"}
{"geometry": {"coordinates": [-95.601782719, 43.634875463], "type": "Point"}, "id": "6bb2YIuwwDhiC2-nccEhICXS2WE=", "properties": {"@source_uri": "https://tools.usps.com/UspsToolsRestServices/rest/POLocator/findLocations", "@spider": "usps_collection_boxes", "addr:city": "WORTHINGTON", "addr:country": "US", "addr:postcode": "56187", "addr:state": "MN", "addr:street_address": "1055 RYANS RD", "amenity": "post_box", "collection_times": "Mo-Sa 12:45", "note": "ON 12/24 AND 12/31, THIS BOX MAY BE COLLECTED AS EARLY AS 12 NOON.", "nsi_id": "unitedstatespostalservice-a77078", "operator": "United States Postal Service", "operator:short": "USPS", "operator:type": "public", "operator:wikidata": "Q668687", "ref": "5618700024"}, "type": "Feature"}
{"geometry": {"coordinates": [-95.602243705, 43.624256144], "type": "Point"}, "id": "_-U32nGz2i4nLfetYzkvhacV1fk=", "properties": {"@source_uri": "https://tools.usps.com/UspsToolsRestServices/rest/POLocator/findLocations", "@spider": "usps_collection_boxes", "addr:city": "WORTHINGTON", "addr:country": "US", "addr:postcode": "56187", "addr:state": "MN", "addr:street_address": "850 10TH ST", "amenity": "post_box", "collection_times": "Mo-Fr 14:00; Sa 11:00", "indoor": "yes", "note": "ON 12/24 AND 12/31, THIS BOX MAY BE COLLECTED AS EARLY AS 12 NOON.", "nsi_id": "unitedstatespostalservice-a77078", "operator": "United States Postal Service", "operator:short": "USPS", "operator:type": "public", "operator:wikidata": "Q668687", "ref": "5618700025"}, "type": "Feature"}
