{"geometry": {"coordinates": [-95.049906932, 45.120037593], "type": "Point"}, "id": "fipavneswh1JI2gziN-yhfmjPkk=", "properties": {"@source_uri": "https://tools.usps.com/UspsToolsRestServices/rest/POLocator/findLocations", "@spider": "usps_collection_boxes", "addr:city": "WILLMAR", "addr:country": "US", "addr:postcode": "56201", "addr:state": "MN", "addr:street_address": "505 BECKER AVE SW", "amenity": "post_box", "collection_times": "Mo-Sa 15:30", "note": "ON 12/24 AND 12/31, THIS BOX MAY BE COLLECTED AS EARLY AS 12 NOON.", "nsi_id": "unitedstatespostalservice-a77078", "operator": "United States Postal Service", "operator:short": "USPS", "operator:type": "public", "operator:wikidata": "Q668687", "ref": "5620100004"}, "type": "Feature"}
{"geometry": {"coordinates": [-95.042818885, 45.105764468], "type": "Point"}, "id": "6-KAdMo4fN5SY_wqATd41j1GkJ8=", "properties": {"@source_uri": "https://tools.usps.com/UspsToolsRestServices/rest/POLocator/findLocations", "@spider": "usps_collection_boxes", "addr:city": "WILLMAR", "addr:country": "US", "addr:postcode": "56201", "addr:state": "MN", "addr:street_address": "1604 1ST ST S", "amenity": "post_box", "collection_times": "Mo-Sa 15:45", "note": "ON 12/24 AND 12/31, THIS BOX MAY BE COLLECTED AS EARLY AS 12 NOON.", "nsi_id": "unitedstatespostalservice-a77078", "operator": "United States Postal Service", "operator:short": "USPS", "operator:type": "public", "operator:wikidata": "Q668687", "ref": "5620100012"}, "type": "Feature"}
{"geometry": {"coordinates": [-95.042583582, 45.097964445], "type": "Point"}, "id": "KxF_Xjk7vc0SkIOnAf7v4RE-Iuo=", "properties": {"@source_uri": "https://tools.usps.com/UspsToolsRestServices/rest/POLocator/findLocations", "@spider": "usps_collection_boxes", "addr:city": "WILLMAR", "addr:country": "US", "addr:postcode": "56201", "addr:state": "MN", "addr:street_address": "2505 1ST ST S", "amenity": "post_box", "collection_times": "Mo-Sa 15:45", "note": "ON 12/24 AND 12/31, THIS BOX MAY BE COLLECTED AS EARLY AS 12 NOON.", "nsi_id": "unitedstatespostalservice-a77078", "operator": "United States Postal Service", "operator:short": "USPS", "operator:type": "public", "operator:wikidata": "Q668687", "ref": "5620100013"}, "type": "Feature"}
{"geometry": {"coordinates": [-95.042592077, 45.105770027], "type": "Point"}, "id": "ON0Aznaxp9rSMJdN8KdqetJdIzs=", "properties": {"@source_uri": "https://tools.usps.com/UspsToolsRestServices/rest/POLocator/findLocations", "@spider": "usps_collection_boxes", "addr:city": "WILLMAR", "addr:country": "US", "addr:postcode": "56201", "addr:state": "MN", "addr:street_address": "1605 1ST ST S", "amenity": "post_box", "collection_times": "Mo-Sa 16:00", "note": "ON 12/24 AND 12/31, THIS BOX MAY BE COLLECTED AS EARLY AS 12 NOON.", "nsi_id": "unitedstatespostalservice-a77078", "operator": "United States Postal Service", "operator:short": "USPS", "operator:type": "public", "operator:wikidata": "Q668687", "ref": "5620100014"}, "type": "Feature"}
{"geometry": {"coordinates": [-95.047907706, 45.119109619], "type": "Point"}, "id": "PHVlYMZ8JgGXkQMBYtJPlErzVAw=", "properties": {"@source_uri": "https://tools.usps.com/UspsToolsRestServices/rest/POLocator/findLocations", "@spider": "usps_collection_boxes", "addr:city": "WILLMAR", "addr:country": "US", "addr:postcode": "56201", "addr:state": "MN", "addr:street_address": "401 TROTT AVE SW", "amenity": "post_box", "collection_times": "Mo-Sa 16:45", "note": "ON 12/24 AND 12/31, THIS BOX MAY BE COLLECTED AS EARLY AS 12 NOON.", "nsi_id": "unitedstatespostalservice-a77078", "operator": "United States Postal Service", "operator:short": "USPS", "operator:type": "public", "operator:wikidata": "Q668687", "ref": "5620100019"}, "type": "Feature"}
{"geometry": {"coordinates": [-95.015091526, 45.124866531], "type": "Point"}, "id": "KvE9wPP3_c0RgyIWo-kr1uV8jaI=", "properties": {"@source_uri": "https://tools.usps.com/UspsToolsRestServices/rest/POLocator/findLocations", "@spider": "usps_collection_boxes", "addr:city": "WILLMAR", "addr:country": "US", "addr:postcode": "56201", "addr:state": "MN", "addr:street_address": "2100 HIGHWAY 12 E", "amenity": "post_box", "collection_times": "Mo-Sa 15:30", "note": "ON 12/24 AND 12/31, THIS BOX MAY BE COLLECTED AS EARLY AS 12 NOON.", "nsi_id": "unitedstatespostalservice-a77078", "operator": "United States Postal Service", "operator:short": "USPS", "operator:type": "public", "operator:wikidata": "Q668687", "ref": "5620100021"}, "type": "Feature"}
{"geometry": {"coordinates": [-95.047907706, 45.119109619], "type": "Point"}, "id": "dt2fhqGIpRkGd9IbeTtUSAExKZA=", "properties": {"@source_uri": "https://tools.usps.com/UspsToolsRestServices/rest/POLocator/findLocations", "@spider": "usps_collection_boxes", "addr:city": "WILLMAR", "addr:country": "US", "addr:postcode": "56201", "addr:state": "MN", "addr:street_address": "401 TROTT AVE SW", "amenity": "post_box", "collection_times": "Mo-Sa 16:45", "indoor": "yes", "note": "ON 12/24 AND 12/31, THIS BOX MAY BE COLLECTED AS EARLY AS 12 NOON.", "nsi_id": "unitedstatespostalservice-a77078", "operator": "United States Postal Service", "operator:short": "USPS", "operator:type": "public", "operator:wikidata": "Q668687", "ref": "5620100026"}, "type": "Feature"}
{"geometry": {"coordinates": [-95.047907706, 45.119109619], "type": "Point"}, "id": "llJT791cSawYhNbnK75eVwKHTVs=", "properties": {"@source_uri": "https://tools.usps.com/UspsToolsRestServices/rest/POLocator/findLocations", "@spider": "usps_collection_boxes", "addr:city": "WILLMAR", "addr:country": "US", "addr:postcode": "56201", "addr:state": "MN", "addr:street_address": "401 TROTT AVE SW", "amenity": "post_box", "collection_times": "Mo-Sa 16:45", "indoor": "yes", "note": "ON 12/24 AND 12/31, THIS BOX MAY BE COLLECTED AS EARLY AS 12 NOON.", "nsi_id": "unitedstatespostalservice-a77078", "operator": "United States Postal Service", "operator:short": "USPS", "operator:type": "public", "operator:wikidata": "Q668687", "ref": "5620100027"}, "type": "Feature"}
{"geometry": {"coordinates": [-95.048663867, 45.122025351], "type": "Point"}, "id": "sVmnXx34qd0buNrXSZ3T5XTLhoU=", "properties": {"@source_uri": "https://tools.usps.com/UspsToolsRestServices/rest/POLocator/findLocations", "@spider": "usps_collection_boxes", "addr:city": "WILLMAR", "addr:country": "US", "addr:postcode": "56201", "addr:state": "MN", "addr:street_address": "400 BENSON AVE SW", "amenity": "post_box", "collection_times": "Mo-Sa 15:30", "note": "ON 12/24 AND 12/31, THIS BOX MAY BE COLLECTED AS EARLY AS 12 NOON.", "nsi_id": "unitedstatespostalservice-a77078", "operator": "United States Postal Service", "operator:short": "USPS", "operator:type": "public", "operator:wikidata": "Q668687", "ref": "5620100028"}, "type": "Feature"}
{"geometry": {"coordinates": [-95.036454119, 45.127744827], "type": "Point"}, "id": "ykTqRyEPcSrhCYpyhnkI1vHEU8A=", "properties": {"@source_uri": "https://tools.usps.com/UspsToolsRestServices/rest/POLocator/findLocations", "@spider": "usps_collection_boxes", "addr:city": "WILLMAR", "addr:country": "US", "addr:postcode": "56201", "addr:state": "MN", "addr:street_address": "618 HIGHWAY 71 NE", "amenity": "post_box", "collection_times": "Mo-Sa 15:15", "note": "ON 12/24 AND 12/31, THIS BOX MAY BE COLLECTED AS EARLY AS 12 NOON.", "nsi_id": "unitedstatespostalservice-a77078", "operator": "United States Postal Service", "operator:short": "USPS", "operator:type": "public", "operator:wikidata": "Q668687", "ref": "5620100029"}, "type": "Feature"}
{"geometry": {"coordinates": [-95.0497242006, 45.121739499], "type": "Point"}, "id": "AiCVlgMnTzCNZbtUaJ7Jhqnp5a8=", "properties": {"@source_uri": "https://tools.usps.com/UspsToolsRestServices/rest/POLocator/findLocations", "@spider": "usps_collection_boxes", "addr:city": "WILLMAR", "addr:country": "US", "addr:postcode": "56201", "addr:state": "MN", "addr:street_address": "212 5TH ST SW", "amenity": "post_box", "collection_times": "Mo-Sa 15:30", "note": "ON 12/24 AND 12/31, THIS BOX MAY BE COLLECTED AS EARLY AS 12 NOON.", "nsi_id": "unitedstatespostalservice-a77078", "operator": "United States Postal Service", "operator:short": "USPS", "operator:type": "public", "operator:wikidata": "Q668687", "ref": "5620100033"}, "type": "Feature"}
{"geometry": {"coordinates": [-95.042621118, 45.100985559], "type": "Point"}, "id": "4uRxAExt-Hdr2T7fzB_ob-hEmls=", "properties": {"@source_uri": "https://tools.usps.com/UspsToolsRestServices/rest/POLocator/findLocations", "@spider": "usps_collection_boxes", "addr:city": "WILLMAR", "addr:country": "US", "addr:postcode": "56201", "addr:state": "MN", "addr:street_address": "2201 1ST ST S", "amenity": "post_box", "collection_times": "Mo-Sa 15:45", "note": "ON 12/24 AND 12/31, THIS BOX MAY BE COLLECTED AS EARLY AS 12 NOON.", "nsi_id": "unitedstatespostalservice-a77078", "operator": "United States Postal Service", "operator:short": "USPS", "operator:type": "public", "operator:wikidata": "Q668687", "ref": "5620100034"}, "type": "Feature"}
{"geometry": {"coordinates": [-95.016769983, 45.147415925], "type": "Point"}, "id": "qdBQAGdO194eaUvRRdy8NhxqUwM=", "properties": {"@source_uri": "https://tools.usps.com/UspsToolsRestServices/rest/POLocator/findLocations", "@spider": "usps_collection_boxes", "addr:city": "WILLMAR", "addr:country": "US", "addr:postcode": "56201", "addr:state": "MN", "addr:street_address": "2200 23RD ST NE", "amenity": "post_box", "collection_times": "Mo-Fr 15:15", "note": "ON 12/24 AND 12/31, THIS BOX MAY BE COLLECTED AS EARLY AS 12 NOON.", "nsi_id": "unitedstatespostalservice-a77078", "operator": "United States Postal Service", "operator:short": "USPS", "operator:type": "public", "operator:wikidata": "Q668687", "ref": "5620100036"}, "type": "Feature"}
{"geometry": {"coordinates": [-95.016326754, 45.143042349], "type": "Point"}, "id": "UyJrAfpZQshAFS5zdSwcrcHiN48=", "properties": {"@source_uri": "https://tools.usps.com/UspsToolsRestServices/rest/POLocator/findLocations", "@spider": "usps_collection_boxes", "addr:city": "WILLMAR", "addr:country": "US", "addr:postcode": "56201", "addr:state": "MN", "addr:street_address": "1800 TECHNOLOGY DR NE", "amenity": "post_box", "collection_times": "Mo-Fr 15:15", "note": "ON 12/24 AND 12/31, THIS BOX MAY BE COLLECTED AS EARLY AS 12 NOON.", "nsi_id": "unitedstatespostalservice-a77078", "operator": "United States Postal Service", "operator:short": "USPS", "operator:type": "public", "operator:wikidata": "Q668687", "ref": "5620100041"}, "type": "Feature"}
{"geometry": {"coordinates": [-95.014499114, 45.146838576], "type": "Point"}, "id": "dySOI8Qi0jtU3ay9ZDeXG-lM4HQ=", "properties": {"@source_uri": "https://tools.usps.com/UspsToolsRestServices/rest/POLocator/findLocations", "@spider": "usps_collection_boxes", "addr:city": "WILLMAR", "addr:country": "US", "addr:postcode": "56201", "addr:state": "MN", "addr:street_address": "2201 23RD ST NE", "amenity": "post_box", "collection_times": "Mo-Fr 15:15", "note": "ON 12/24 AND 12/31, THIS BOX MAY BE COLLECTED AS EARLY AS 12 NOON.", "nsi_id": "unitedstatespostalservice-a77078", "operator": "United States Postal Service", "operator:short": "USPS", "operator:type": "public", "operator:wikidata": "Q668687", "ref": "5620100044"}, "type": "Feature"}
{"geometry": {"coordinates": [-95.034171626, 45.103276475], "type": "Point"}, "id": "IVzdS4mBd5y8yLmpSPywfzhIVjc=", "properties": {"@source_uri": "https://tools.usps.com/UspsToolsRestServices/rest/POLocator/findLocations", "@spider": "usps_collection_boxes", "addr:city": "WILLMAR", "addr:country": "US", "addr:postcode": "56201", "addr:state": "MN", "addr:street_address": "700 19TH AVE SE", "amenity": "post_box", "collection_times": "Mo-Sa 15:45", "note": "ON 12/24 AND 12/31, THIS BOX MAY BE COLLECTED AS EARLY AS 12 NOON.", "nsi_id": "unitedstatespostalservice-a77078", "operator": "United States Postal Service", "operator:short": "USPS", "operator:type": "public", "operator:wikidata": "Q668687", "ref": "5620100045"}, "type": "Feature"}
{"geometry": {"coordinates": [-95.0700017078, 45.11789307], "type": "Point"}, "id": "cZGpyfdONMxFlqfBG4ANNEhrRLo=", "properties": {"@source_uri": "https://tools.usps.com/UspsToolsRestServices/rest/POLocator/findLocations", "@spider": "usps_collection_boxes", "addr:city": "WILLMAR", "addr:country": "US", "addr:postcode": "56201", "addr:state": "MN", "addr:street_address": "1901 TROTT AVE SW", "amenity": "post_box", "collection_times": "Mo-Fr 16:00; Sa 15:15", "note": "ON 12/24 AND 12/31, THIS BOX MAY BE COLLECTED AS EARLY AS 12 NOON.", "nsi_id": "unitedstatespostalservice-a77078", "operator": "United States Postal Service", "operator:short": "USPS", "operator:type": "public", "operator:wikidata": "Q668687", "ref": "5620100046"}, "type": "Feature"}
{"geometry": {"coordinates": [-95.047907706, 45.119109619], "type": "Point"}, "id": "65EKGsC0nNLnF_Pg8epTsQ4sk40=", "properties": {"@source_uri": "https://tools.usps.com/UspsToolsRestServices/rest/POLocator/findLocations", "@spider": "usps_collection_boxes", "addr:city": "WILLMAR", "addr:country": "US", "addr:postcode": "56201", "addr:state": "MN", "addr:street_address": "401 TROTT AVE SW", "amenity": "post_box", "collection_times": "Mo-Fr 16:45; Sa 13:30", "indoor": "yes", "note": "ON 12/24 AND 12/31, THIS BOX MAY BE COLLECTED AS EARLY AS 12 NOON.", "nsi_id": "unitedstatespostalservice-a77078", "operator": "United States Postal Service", "operator:short": "USPS", "operator:type": "public", "operator:wikidata": "Q668687", "ref": "5620100050"}, "type": "Feature"}
{"geometry": {"coordinates": [-96.05056, 45.572015], "type": "Point"}, "id": "uScnQalk6OOMwKIce3wk_ioAVao=", "properties": {"@source_uri": "https://tools.usps.com/UspsToolsRestServices/rest/POLocator/findLocations", "@spider": "usps_collection_boxes", "addr:city": "ALBERTA", "addr:country": "US", "addr:postcode": "56207", "addr:state": "MN", "addr:street_address": "303 MAIN ST", "amenity": "post_box", "collection_times": "Mo-Fr 13:45; Sa 13:15", "note": "ON 12/24 AND 12/31, THIS BOX MAY BE COLLECTED AS EARLY AS 12 NOON.", "nsi_id": "unitedstatespostalservice-a77078", "operator": "United States Postal Service", "operator:short": "USPS", "operator:type": "public", "operator:wikidata": "Q668687", "ref": "5620700000"}, "type": "Feature"}
{"geometry": {"coordinates": [-96.047762562, 45.573972581], "type": "Point"}, "id": "sZPvlZ63vObpalENZhIKA3-fVTU=", "properties": {"@source_uri": "https://tools.usps.com/UspsToolsRestServices/rest/POLocator/findLocations", "@spider": "usps_collection_boxes", "addr:city": "ALBERTA", "addr:country": "US", "addr:postcode": "56207", "addr:state": "MN", "addr:street_address": "303 MAIN ST", "amenity": "post_box", "collection_times": "Mo-Fr 14:00; Sa 13:30", "indoor": "yes", "note": "ON 12/24 AND 12/31, THIS BOX MAY BE COLLECTED AS EARLY AS 12 NOON.", "nsi_id": "unitedstatespostalservice-a77078", "operator": "United States Postal Service", "operator:short": "USPS", "operator:type": "public", "operator:wikidata": "Q668687", "ref": "5620700001"}, "type": "Feature"}
{"geometry": {"coordinates": [-96.047762562, 45.573972581], "type": "Point"}, "id": "8ahlCds8Q1jmgkf-_0gxm6bsVf4=", "properties": {"@source_uri": "https://tools.usps.com/UspsToolsRestServices/rest/POLocator/findLocations", "@spider": "usps_collection_boxes", "addr:city": "ALBERTA", "addr:country": "US", "addr:postcode": "56207", "addr:state": "MN", "addr:street_address": "303 MAIN ST", "amenity": "post_box", "collection_times": "Mo-Fr 14:00; Sa 13:30", "indoor": "yes", "note": "ON 12/24 AND 12/31, THIS BOX MAY BE COLLECTED AS EARLY AS 12 NOON.", "nsi_id": "unitedstatespostalservice-a77078", "operator": "United States Postal Service", "operator:short": "USPS", "operator:type": "public", "operator:wikidata": "Q668687", "ref": "5620700002"}, "type": "Feature"}
{"geometry": {"coordinates": [-96.018094654, 45.201729752], "type": "Point"}, "id": "hzPBYBSZLFrVJShr5FqeQcyOd7Y=", "properties": {"@source_uri": "https://tools.usps.com/UspsToolsRestServices/rest/POLocator/findLocations", "@spider": "usps_collection_boxes", "addr:city": "APPLETON", "addr:country": "US", "addr:postcode": "56208", "addr:state": "MN", "addr:street_address": "42 W SORENSON AVE", "amenity": "post_box", "collection_times": "Mo-Fr 13:45; Sa 10:30", "note": "ON 12/24 AND 12/31, THIS BOX MAY BE COLLECTED AS EARLY AS 12 NOON.", "nsi_id": "unitedstatespostalservice-a77078", "operator": "United States Postal Service", "operator:short": "USPS", "operator:type": "public", "operator:wikidata": "Q668687", "ref": "5620800000"}, "type": "Feature"}
{"geometry": {"coordinates": [-96.018094654, 45.201729752], "type": "Point"}, "id": "wjmezN31PgWCHSjabg_lKhmyQgc=", "properties": {"@source_uri": "https://tools.usps.com/UspsToolsRestServices/rest/POLocator/findLocations", "@spider": "usps_collection_boxes", "addr:city": "APPLETON", "addr:country": "US", "addr:postcode": "56208", "addr:state": "MN", "addr:street_address": "42 W SORENSON AVE", "amenity": "post_box", "collection_times": "Mo-Fr 13:45; Sa 10:30", "indoor": "yes", "note": "ON 12/24 AND 12/31, THIS BOX MAY BE COLLECTED AS EARLY AS 12 NOON.", "nsi_id": "unitedstatespostalservice-a77078", "operator": "United States Postal Service", "operator:short": "USPS", "operator:type": "public", "operator:wikidata": "Q668687", "ref": "5620800004"}, "type": "Feature"}
{"geometry": {"coordinates": [-96.018094654, 45.201729752], "type": "Point"}, "id": "mfyk5F9kP4yKzptBVVvVW09oZmg=", "properties": {"@source_uri": "https://tools.usps.com/UspsToolsRestServices/rest/POLocator/findLocations", "@spider": "usps_collection_boxes", "addr:city": "APPLETON", "addr:country": "US", "addr:postcode": "56208", "addr:state": "MN", "addr:street_address": "42 W SORENSON AVE", "amenity": "post_box", "collection_times": "Mo-Fr 13:45; Sa 10:30", "indoor": "yes", "note": "ON 12/24 AND 12/31, THIS BOX MAY BE COLLECTED AS EARLY AS 12 NOON.", "nsi_id": "unitedstatespostalservice-a77078", "operator": "United States Postal Service", "operator:short": "USPS", "operator:type": "public", "operator:wikidata": "Q668687", "ref": "5620800005"}, "type": "Feature"}
{"geometry": {"coordinates": [-94.780913493, 45.137800016], "type": "Point"}, "id": "7qhWNMHHBDs5UKkEyuDkRwUTFMU=", "properties": {"@source_uri": "https://tools.usps.com/UspsToolsRestServices/rest/POLocator/findLocations", "@spider": "usps_collection_boxes", "addr:city": "ATWATER", "addr:country": "US", "addr:postcode": "56209", "addr:state": "MN", "addr:street_address": "107 3RD ST N", "amenity": "post_box", "collection_times": "Mo-Sa 14:45", "note": "ON 12/24 AND 12/31, THIS BOX MAY BE COLLECTED AS EARLY AS 12 NOON.", "nsi_id": "unitedstatespostalservice-a77078", "operator": "United States Postal Service", "operator:short": "USPS", "operator:type": "public", "operator:wikidata": "Q668687", "ref": "5620900000"}, "type": "Feature"}
{"geometry": {"coordinates": [-94.780913493, 45.137800016], "type": "Point"}, "id": "eAKwfzZbZq9kcUuY73aJxGrjmmw=", "properties": {"@source_uri": "https://tools.usps.com/UspsToolsRestServices/rest/POLocator/findLocations", "@spider": "usps_collection_boxes", "addr:city": "ATWATER", "addr:country": "US", "addr:postcode": "56209", "addr:state": "MN", "addr:street_address": "107 3RD ST N", "amenity": "post_box", "collection_times": "Mo-Fr 14:45; Sa 09:00", "indoor": "yes", "note": "ON 12/24 AND 12/31, THIS BOX MAY BE COLLECTED AS EARLY AS 12 NOON.", "nsi_id": "unitedstatespostalservice-a77078", "operator": "United States Postal Service", "operator:short": "USPS", "operator:type": "public", "operator:wikidata": "Q668687", "ref": "5620900001"}, "type": "Feature"}
{"geometry": {"coordinates": [-94.780913493, 45.137800016], "type": "Point"}, "id": "e_WfoZhgnzCnS8jEHZSDFOh1XWw=", "properties": {"@source_uri": "https://tools.usps.com/UspsToolsRestServices/rest/POLocator/findLocations", "@spider": "usps_collection_boxes", "addr:city": "ATWATER", "addr:country": "US", "addr:postcode": "56209", "addr:state": "MN", "addr:street_address": "107 3RD ST N", "amenity": "post_box", "collection_times": "Mo-Fr 14:45", "indoor": "yes", "note": "ON 12/24 AND 12/31, THIS BOX MAY BE COLLECTED AS EARLY AS 12 NOON.", "nsi_id": "unitedstatespostalservice-a77078", "operator": "United States Postal Service", "operator:short": "USPS", "operator:type": "public", "operator:wikidata": "Q668687", "ref": "5620900003"}, "type": "Feature"}
{"geometry": {"coordinates": [-96.712334841, 45.558591527], "type": "Point"}, "id": "V5sGa065ui_nP5xexvhmWrLIEds=", "properties": {"@source_uri": "https://tools.usps.com/UspsToolsRestServices/rest/POLocator/findLocations", "@spider": "usps_collection_boxes", "addr:city": "BEARDSLEY", "addr:country": "US", "addr:postcode": "56211", "addr:state": "MN", "addr:street_address": "116 MAIN ST N", "amenity": "post_box", "collection_times": "Mo-Fr 11:15; Sa 08:30", "nsi_id": "unitedstatespostalservice-a77078", "operator": "United States Postal Service", "operator:short": "USPS", "operator:type": "public", "operator:wikidata": "Q668687", "ref": "5621100000"}, "type": "Feature"}
{"geometry": {"coordinates": [-96.712334841, 45.558591527], "type": "Point"}, "id": "as81kodtP7i9yHkeBmCScJpTzig=", "properties": {"@source_uri": "https://tools.usps.com/UspsToolsRestServices/rest/POLocator/findLocations", "@spider": "usps_collection_boxes", "addr:city": "BEARDSLEY", "addr:country": "US", "addr:postcode": "56211", "addr:state": "MN", "addr:street_address": "116 MAIN ST N", "amenity": "post_box", "collection_times": "Mo-Fr 11:30", "indoor": "yes", "nsi_id": "unitedstatespostalservice-a77078", "operator": "United States Postal Service", "operator:short": "USPS", "operator:type": "public", "operator:wikidata": "Q668687", "ref": "5621100001"}, "type": "Feature"}
{"geometry": {"coordinates": [-96.712334841, 45.558591527], "type": "Point"}, "id": "BHuzJGecvsH2t-W4vkwQkaoNzNk=", "properties": {"@source_uri": "https://tools.usps.com/UspsToolsRestServices/rest/POLocator/findLocations", "@spider": "usps_collection_boxes", "addr:city": "BEARDSLEY", "addr:country": "US", "addr:postcode": "56211", "addr:state": "MN", "addr:street_address": "116 MAIN ST N", "amenity": "post_box", "collection_times": "Mo-Fr 11:30; Sa 08:45", "indoor": "yes", "nsi_id": "unitedstatespostalservice-a77078", "operator": "United States Postal Service", "operator:short": "USPS", "operator:type": "public", "operator:wikidata": "Q668687", "ref": "5621100002"}, "type": "Feature"}
{"geometry": {"coordinates": [-96.286249733, 45.136157367], "type": "Point"}, "id": "GhciLvW5mn-58PXw2AojA8gAytw=", "properties": {"@source_uri": "https://tools.usps.com/UspsToolsRestServices/rest/POLocator/findLocations", "@spider": "usps_collection_boxes", "addr:city": "BELLINGHAM", "addr:country": "US", "addr:postcode": "56212", "addr:state": "MN", "addr:street_address": "305 2ND ST S", "amenity": "post_box", "collection_times": "Mo-Sa 12:45", "note": "ON 12/24 AND 12/31, THIS BOX MAY BE COLLECTED AS EARLY AS 12 NOON.", "nsi_id": "unitedstatespostalservice-a77078", "operator": "United States Postal Service", "operator:short": "USPS", "operator:type": "public", "operator:wikidata": "Q668687", "ref": "5621200000"}, "type": "Feature"}
{"geometry": {"coordinates": [-96.286249733, 45.136157367], "type": "Point"}, "id": "Zif0wu8SSMgGLKEiqkQ1RFEvlbA=", "properties": {"@source_uri": "https://tools.usps.com/UspsToolsRestServices/rest/POLocator/findLocations", "@spider": "usps_collection_boxes", "addr:city": "BELLINGHAM", "addr:country": "US", "addr:postcode": "56212", "addr:state": "MN", "addr:street_address": "305 2ND ST S", "amenity": "post_box", "collection_times": "Mo-Fr 12:45; Sa 11:30", "indoor": "yes", "note": "ON 12/24 AND 12/31, THIS BOX MAY BE COLLECTED AS EARLY AS 12 NOON.", "nsi_id": "unitedstatespostalservice-a77078", "operator": "United States Postal Service", "operator:short": "USPS", "operator:type": "public", "operator:wikidata": "Q668687", "ref": "5621200001"}, "type": "Feature"}
{"geometry": {"coordinates": [-96.286249733, 45.136157367], "type": "Point"}, "id": "1aFVZrmk6IVeFsuUGaXdUxDt1ho=", "properties": {"@source_uri": "https://tools.usps.com/UspsToolsRestServices/rest/POLocator/findLocations", "@spider": "usps_collection_boxes", "addr:city": "BELLINGHAM", "addr:country": "US", "addr:postcode": "56212", "addr:state": "MN", "addr:street_address": "305 2ND ST S", "amenity": "post_box", "collection_times": "Mo-Fr 12:45; Sa 11:30", "indoor": "yes", "note": "ON 12/24 AND 12/31, THIS BOX MAY BE COLLECTED AS EARLY AS 12 NOON.", "nsi_id": "unitedstatespostalservice-a77078", "operator": "United States Postal Service", "operator:short": "USPS", "operator:type": "public", "operator:wikidata": "Q668687", "ref": "5621200002"}, "type": "Feature"}
{"geometry": {"coordinates": [-95.329562561, 44.605511665], "type": "Point"}, "id": "73Nk4t1OYZMDhCsoorhLT3a0lFU=", "properties": {"@source_uri": "https://tools.usps.com/UspsToolsRestServices/rest/POLocator/findLocations", "@spider": "usps_collection_boxes", "addr:city": "BELVIEW", "addr:country": "US", "addr:postcode": "56214", "addr:state": "MN", "addr:street_address": "101 N MAIN ST", "amenity": "post_box", "collection_times": "Mo-Fr 11:15; Sa 09:15", "nsi_id": "unitedstatespostalservice-a77078", "operator": "United States Postal Service", "operator:short": "USPS", "operator:type": "public", "operator:wikidata": "Q668687", "ref": "5621400001"}, "type": "Feature"}
{"geometry": {"coordinates": [-95.329562561, 44.605511665], "type": "Point"}, "id": "Mo9dLTcozlQ4A20OgoIuwXIbVNQ=", "properties": {"@source_uri": "https://tools.usps.com/UspsToolsRestServices/rest/POLocator/findLocations", "@spider": "usps_collection_boxes", "addr:city": "BELVIEW", "addr:country": "US", "addr:postcode": "56214", "addr:state": "MN", "addr:street_address": "101 N MAIN ST", "amenity": "post_box", "collection_times": "Mo-Fr 11:30; Sa 09:15", "indoor": "yes", "nsi_id": "unitedstatespostalservice-a77078", "operator": "United States Postal Service", "operator:short": "USPS", "operator:type": "public", "operator:wikidata": "Q668687", "ref": "5621400002"}, "type": "Feature"}
{"geometry": {"coordinates": [-95.329562561, 44.605511665], "type": "Point"}, "id": "lft2rue8KhGcEDmExtCiSYSnD9E=", "properties": {"@source_uri": "https://tools.usps.com/UspsToolsRestServices/rest/POLocator/findLocations", "@spider": "usps_collection_boxes", "addr:city": "BELVIEW", "addr:country": "US", "addr:postcode": "56214", "addr:state": "MN", "addr:street_address": "101 N MAIN ST", "amenity": "post_box", "collection_times": "Mo-Fr 11:30; Sa 09:30", "indoor": "yes", "nsi_id": "unitedstatespostalservice-a77078", "operator": "United States Postal Service", "operator:short": "USPS", "operator:type": "public", "operator:wikidata": "Q668687", "ref": "5621400003"}, "type": "Feature"}
{"geometry": {"coordinates": [-95.60077123, 45.314071083], "type": "Point"}, "id": "7G5Yx4wJiU7dw0OpeKL6I9GDdqo=", "properties": {"@source_uri": "https://tools.usps.com/UspsToolsRestServices/rest/POLocator/findLocations", "@spider": "usps_collection_boxes", "addr:city": "BENSON", "addr:country": "US", "addr:postcode": "56215", "addr:state": "MN", "addr:street_address": "1317 PACIFIC AVE", "amenity": "post_box", "collection_times": "Mo-Sa 12:15", "note": "ON 12/24 AND 12/31, THIS BOX MAY BE COLLECTED AS EARLY AS 12 NOON.", "nsi_id": "unitedstatespostalservice-a77078", "operator": "United States Postal Service", "operator:short": "USPS", "operator:type": "public", "operator:wikidata": "Q668687", "ref": "5621500000"}, "type": "Feature"}
{"geometry": {"coordinates": [-95.599531002, 45.313146802], "type": "Point"}, "id": "NImSJ_RTCVBGyMTMLOfbWp-rj70=", "properties": {"@source_uri": "https://tools.usps.com/UspsToolsRestServices/rest/POLocator/findLocations", "@spider": "usps_collection_boxes", "addr:city": "BENSON", "addr:country": "US", "addr:postcode": "56215", "addr:state": "MN", "addr:street_address": "200 12TH ST S", "amenity": "post_box", "collection_times": "Mo-Sa 12:00", "nsi_id": "unitedstatespostalservice-a77078", "operator": "United States Postal Service", "operator:short": "USPS", "operator:type": "public", "operator:wikidata": "Q668687", "ref": "5621500001"}, "type": "Feature"}
{"geometry": {"coordinates": [-95.610371908, 45.31080188], "type": "Point"}, "id": "x3Y2EskRhVQLaZS-5CBSHzkjaLk=", "properties": {"@source_uri": "https://tools.usps.com/UspsToolsRestServices/rest/POLocator/findLocations", "@spider": "usps_collection_boxes", "addr:city": "BENSON", "addr:country": "US", "addr:postcode": "56215", "addr:state": "MN", "addr:street_address": "2002 MINNESOTA AVE", "amenity": "post_box", "collection_times": "Mo-Sa 12:00", "nsi_id": "unitedstatespostalservice-a77078", "operator": "United States Postal Service", "operator:short": "USPS", "operator:type": "public", "operator:wikidata": "Q668687", "ref": "5621500003"}, "type": "Feature"}
{"geometry": {"coordinates": [-95.601073223, 45.31581505], "type": "Point"}, "id": "KSkp1xpIBifXnAgTjTeLkzEGPdM=", "properties": {"@source_uri": "https://tools.usps.com/UspsToolsRestServices/rest/POLocator/findLocations", "@spider": "usps_collection_boxes", "addr:city": "BENSON", "addr:country": "US", "addr:postcode": "56215", "addr:state": "MN", "addr:street_address": "220 14TH ST N", "amenity": "post_box", "collection_times": "Mo-Fr 14:45; Sa 10:00", "note": "ON 12/24 AND 12/31, THIS BOX MAY BE COLLECTED AS EARLY AS 12 NOON.", "nsi_id": "unitedstatespostalservice-a77078", "operator": "United States Postal Service", "operator:short": "USPS", "operator:type": "public", "operator:wikidata": "Q668687", "ref": "5621500004"}, "type": "Feature"}
{"geometry": {"coordinates": [-95.601073223, 45.31581505], "type": "Point"}, "id": "ch1k09OUtdink8gSQn1GEwJuXi0=", "properties": {"@source_uri": "https://tools.usps.com/UspsToolsRestServices/rest/POLocator/findLocations", "@spider": "usps_collection_boxes", "addr:city": "BENSON", "addr:country": "US", "addr:postcode": "56215", "addr:state": "MN", "addr:street_address": "220 14TH ST N", "amenity": "post_box", "collection_times": "Mo-Fr 14:45; Sa 10:00", "indoor": "yes", "note": "ON 12/24 AND 12/31, THIS BOX MAY BE COLLECTED AS EARLY AS 12 NOON.", "nsi_id": "unitedstatespostalservice-a77078", "operator": "United States Postal Service", "operator:short": "USPS", "operator:type": "public", "operator:wikidata": "Q668687", "ref": "5621500006"}, "type": "Feature"}
{"geometry": {"coordinates": [-95.601073223, 45.31581505], "type": "Point"}, "id": "H8dGiTpewOx1zhNI04lqPu6x-TQ=", "properties": {"@source_uri": "https://tools.usps.com/UspsToolsRestServices/rest/POLocator/findLocations", "@spider": "usps_collection_boxes", "addr:city": "BENSON", "addr:country": "US", "addr:postcode": "56215", "addr:state": "MN", "addr:street_address": "220 14TH ST N", "amenity": "post_box", "collection_times": "Mo-Fr 14:45; Sa 09:30", "indoor": "yes", "note": "ON 12/24 AND 12/31, THIS BOX MAY BE COLLECTED AS EARLY AS 12 NOON.", "nsi_id": "unitedstatespostalservice-a77078", "operator": "United States Postal Service", "operator:short": "USPS", "operator:type": "public", "operator:wikidata": "Q668687", "ref": "5621500007"}, "type": "Feature"}
{"geometry": {"coordinates": [-95.023551324, 44.942805335], "type": "Point"}, "id": "IRoJz6sf9iMjRuLRMibDQ7WDNIQ=", "properties": {"@source_uri": "https://tools.usps.com/UspsToolsRestServices/rest/POLocator/findLocations", "@spider": "usps_collection_boxes", "addr:city": "BLOMKEST", "addr:country": "US", "addr:postcode": "56216", "addr:state": "MN", "addr:street_address": "2 NW MAIN ST", "amenity": "post_box", "collection_times": "Mo-Sa 13:15", "note": "ON 12/24 AND 12/31, THIS BOX MAY BE COLLECTED AS EARLY AS 12 NOON.", "nsi_id": "unitedstatespostalservice-a77078", "operator": "United States Postal Service", "operator:short": "USPS", "operator:type": "public", "operator:wikidata": "Q668687", "ref": "5621600000"}, "type": "Feature"}
{"geometry": {"coordinates": [-95.023551324, 44.942805335], "type": "Point"}, "id": "qrI_ePfWL_6IpsyEwtu4nfm3fOo=", "properties": {"@source_uri": "https://tools.usps.com/UspsToolsRestServices/rest/POLocator/findLocations", "@spider": "usps_collection_boxes", "addr:city": "BLOMKEST", "addr:country": "US", "addr:postcode": "56216", "addr:state": "MN", "addr:street_address": "2 NW MAIN ST", "amenity": "post_box", "collection_times": "Mo-Fr 13:15; Sa 09:00", "indoor": "yes", "note": "ON 12/24 AND 12/31, THIS BOX MAY BE COLLECTED AS EARLY AS 12 NOON.", "nsi_id": "unitedstatespostalservice-a77078", "operator": "United States Postal Service", "operator:short": "USPS", "operator:type": "public", "operator:wikidata": "Q668687", "ref": "5621600001"}, "type": "Feature"}
{"geometry": {"coordinates": [-95.023551324, 44.942805335], "type": "Point"}, "id": "Lh1DPV3bsqTvPUo-eRpefvEN6S4=", "properties": {"@source_uri": "https://tools.usps.com/UspsToolsRestServices/rest/POLocator/findLocations", "@spider": "usps_collection_boxes", "addr:city": "BLOMKEST", "addr:country": "US", "addr:postcode": "56216", "addr:state": "MN", "addr:street_address": "2 NW MAIN ST", "amenity": "post_box", "collection_times": "Mo-Fr 13:00; Sa 10:00", "indoor": "yes", "note": "ON 12/24 AND 12/31, THIS BOX MAY BE COLLECTED AS EARLY AS 12 NOON.", "nsi_id": "unitedstatespostalservice-a77078", "operator": "United States Postal Service", "operator:short": "USPS", "operator:type": "public", "operator:wikidata": "Q668687", "ref": "5621600002"}, "type": "Feature"}
{"geometry": {"coordinates": [-95.903163692, 44.849108777], "type": "Point"}, "id": "LpmNxrlWlkljCE5lFslm3CP60ZU=", "properties": {"@source_uri": "https://tools.usps.com/UspsToolsRestServices/rest/POLocator/findLocations", "@spider": "usps_collection_boxes", "addr:city": "BOYD MN", "addr:country": "US", "addr:postcode": "56218", "addr:state": "MN", "addr:street_address": "112 3RD ST", "amenity": "post_box", "collection_times": "Mo-Fr 11:15; Sa 09:15", "nsi_id": "unitedstatespostalservice-a77078", "operator": "United States Postal Service", "operator:short": "USPS", "operator:type": "public", "operator:wikidata": "Q668687", "ref": "5621800000"}, "type": "Feature"}
{"geometry": {"coordinates": [-95.903163692, 44.849108777], "type": "Point"}, "id": "YYRrddDmcbZ5iJhOU5ChPwm6raA=", "properties": {"@source_uri": "https://tools.usps.com/UspsToolsRestServices/rest/POLocator/findLocations", "@spider": "usps_collection_boxes", "addr:city": "BOYD MN", "addr:country": "US", "addr:postcode": "56218", "addr:state": "MN", "addr:street_address": "112 3RD ST", "amenity": "post_box", "collection_times": "Mo-Fr 11:30; Sa 09:30", "indoor": "yes", "nsi_id": "unitedstatespostalservice-a77078", "operator": "United States Postal Service", "operator:short": "USPS", "operator:type": "public", "operator:wikidata": "Q668687", "ref": "5621800001"}, "type": "Feature"}
{"geometry": {"coordinates": [-95.903163692, 44.849108777], "type": "Point"}, "id": "o2Rw-AezS3EzG4jDgGBfv48W9po=", "properties": {"@source_uri": "https://tools.usps.com/UspsToolsRestServices/rest/POLocator/findLocations", "@spider": "usps_collection_boxes", "addr:city": "BOYD MN", "addr:country": "US", "addr:postcode": "56218", "addr:state": "MN", "addr:street_address": "112 3RD ST", "amenity": "post_box", "collection_times": "Mo-Fr 11:30; Sa 09:30", "indoor": "yes", "nsi_id": "unitedstatespostalservice-a77078", "operator": "United States Postal Service", "operator:short": "USPS", "operator:type": "public", "operator:wikidata": "Q668687", "ref": "5621800002"}, "type": "Feature"}
{"geometry": {"coordinates": [-96.832762537, 45.595341652], "type": "Point"}, "id": "EXuobGgLH0HHQuO7CHYjGscHCGI=", "properties": {"@source_uri": "https://tools.usps.com/UspsToolsRestServices/rest/POLocator/findLocations", "@spider": "usps_collection_boxes", "addr:city": "BROWNS VALLEY", "addr:country": "US", "addr:postcode": "56219", "addr:state": "MN", "addr:street_address": "314 W BROADWAY", "amenity": "post_box", "collection_times": "Mo-Sa 13:00", "note": "ON 12/24 AND 12/31, THIS BOX MAY BE COLLECTED AS EARLY AS 12 NOON.", "nsi_id": "unitedstatespostalservice-a77078", "operator": "United States Postal Service", "operator:short": "USPS", "operator:type": "public", "operator:wikidata": "Q668687", "ref": "5621900000"}, "type": "Feature"}
{"geometry": {"coordinates": [-96.832762537, 45.595341652], "type": "Point"}, "id": "xAivt8Licd5XtqzGchWF-xOoU2g=", "properties": {"@source_uri": "https://tools.usps.com/UspsToolsRestServices/rest/POLocator/findLocations", "@spider": "usps_collection_boxes", "addr:city": "BROWNS VALLEY", "addr:country": "US", "addr:postcode": "56219", "addr:state": "MN", "addr:street_address": "314 W BROADWAY", "amenity": "post_box", "collection_times": "Mo-Fr 13:00; Sa 10:15", "indoor": "yes", "note": "ON 12/24 AND 12/31, THIS BOX MAY BE COLLECTED AS EARLY AS 12 NOON.", "nsi_id": "unitedstatespostalservice-a77078", "operator": "United States Postal Service", "operator:short": "USPS", "operator:type": "public", "operator:wikidata": "Q668687", "ref": "5621900001"}, "type": "Feature"}
{"geometry": {"coordinates": [-96.832762537, 45.595341652], "type": "Point"}, "id": "WsNXsT3gtthdtRraMiVyiVfYxug=", "properties": {"@source_uri": "https://tools.usps.com/UspsToolsRestServices/rest/POLocator/findLocations", "@spider": "usps_collection_boxes", "addr:city": "BROWNS VALLEY", "addr:country": "US", "addr:postcode": "56219", "addr:state": "MN", "addr:street_address": "314 W BROADWAY", "amenity": "post_box", "collection_times": "Mo-Fr 13:00; Sa 10:15", "indoor": "yes", "note": "ON 12/24 AND 12/31, THIS BOX MAY BE COLLECTED AS EARLY AS 12 NOON.", "nsi_id": "unitedstatespostalservice-a77078", "operator": "United States Postal Service", "operator:short": "USPS", "operator:type": "public", "operator:wikidata": "Q668687", "ref": "5621900002"}, "type": "Feature"}
{"geometry": {"coordinates": [-96.275013743, 44.709817971], "type": "Point"}, "id": "5wqWNOIr7nwN_5p_XIctEI0TXhw=", "properties": {"@source_uri": "https://tools.usps.com/UspsToolsRestServices/rest/POLocator/findLocations", "@spider": "usps_collection_boxes", "addr:city": "CANBY", "addr:country": "US", "addr:postcode": "56220", "addr:state": "MN", "addr:street_address": "220 SAINT OLAF AVE N", "amenity": "post_box", "collection_times": "Mo-Sa 13:00", "note": "ON 12/24 AND 12/31, THIS BOX MAY BE COLLECTED AS EARLY AS 12 NOON.", "nsi_id": "unitedstatespostalservice-a77078", "operator": "United States Postal Service", "operator:short": "USPS", "operator:type": "public", "operator:wikidata": "Q668687", "ref": "5622000003"}, "type": "Feature"}
{"geometry": {"coordinates": [-96.275013743, 44.709817971], "type": "Point"}, "id": "EZTnmIqkfELwWUgzgGtJaTv11YU=", "properties": {"@source_uri": "https://tools.usps.com/UspsToolsRestServices/rest/POLocator/findLocations", "@spider": "usps_collection_boxes", "addr:city": "CANBY", "addr:country": "US", "addr:postcode": "56220", "addr:state": "MN", "addr:street_address": "220 SAINT OLAF AVE N", "amenity": "post_box", "collection_times": "Mo-Fr 13:00; Sa 10:00", "indoor": "yes", "note": "ON 12/24 AND 12/31, THIS BOX MAY BE COLLECTED AS EARLY AS 12 NOON.", "nsi_id": "unitedstatespostalservice-a77078", "operator": "United States Postal Service", "operator:short": "USPS", "operator:type": "public", "operator:wikidata": "Q668687", "ref": "5622000004"}, "type": "Feature"}
{"geometry": {"coordinates": [-96.275013743, 44.709817971], "type": "Point"}, "id": "Wyp7pug2GxCoXe1Mc81MShGKUYc=", "properties": {"@source_uri": "https://tools.usps.com/UspsToolsRestServices/rest/POLocator/findLocations", "@spider": "usps_collection_boxes", "addr:city": "CANBY", "addr:country": "US", "addr:postcode": "56220", "addr:state": "MN", "addr:street_address": "220 SAINT OLAF AVE N", "amenity": "post_box", "collection_times": "Mo-Fr 13:00", "indoor": "yes", "note": "ON 12/24 AND 12/31, THIS BOX MAY BE COLLECTED AS EARLY AS 12 NOON.", "nsi_id": "unitedstatespostalservice-a77078", "operator": "United States Postal Service", "operator:short": "USPS", "operator:type": "public", "operator:wikidata": "Q668687", "ref": "5622000005"}, "type": "Feature"}
{"geometry": {"coordinates": [-96.173922764, 45.57452445], "type": "Point"}, "id": "RDqXU0zOl2xiwp0YzNVDAixxnxA=", "properties": {"@source_uri": "https://tools.usps.com/UspsToolsRestServices/rest/POLocator/findLocations", "@spider": "usps_collection_boxes", "addr:city": "CHOKIO", "addr:country": "US", "addr:postcode": "56221", "addr:state": "MN", "addr:street_address": "122 MAIN ST", "amenity": "post_box", "collection_times": "Mo-Sa 14:00", "note": "ON 12/24 AND 12/31, THIS BOX MAY BE COLLECTED AS EARLY AS 12 NOON.", "nsi_id": "unitedstatespostalservice-a77078", "operator": "United States Postal Service", "operator:short": "USPS", "operator:type": "public", "operator:wikidata": "Q668687", "ref": "5622100000"}, "type": "Feature"}
{"geometry": {"coordinates": [-96.173922764, 45.57452445], "type": "Point"}, "id": "q1FCA2rz2vMoMN0YxkPcI2eBJi8=", "properties": {"@source_uri": "https://tools.usps.com/UspsToolsRestServices/rest/POLocator/findLocations", "@spider": "usps_collection_boxes", "addr:city": "CHOKIO", "addr:country": "US", "addr:postcode": "56221", "addr:state": "MN", "addr:street_address": "122 MAIN ST", "amenity": "post_box", "collection_times": "Mo-Fr 14:00; Sa 10:00", "indoor": "yes", "note": "ON 12/24 AND 12/31, THIS BOX MAY BE COLLECTED AS EARLY AS 12 NOON.", "nsi_id": "unitedstatespostalservice-a77078", "operator": "United States Postal Service", "operator:short": "USPS", "operator:type": "public", "operator:wikidata": "Q668687", "ref": "5622100001"}, "type": "Feature"}
{"geometry": {"coordinates": [-96.173922764, 45.57452445], "type": "Point"}, "id": "GSXn5IcZV3a-vZ_W0zVuxLZTe_U=", "properties": {"@source_uri": "https://tools.usps.com/UspsToolsRestServices/rest/POLocator/findLocations", "@spider": "usps_collection_boxes", "addr:city": "CHOKIO", "addr:country": "US", "addr:postcode": "56221", "addr:state": "MN", "addr:street_address": "122 MAIN ST", "amenity": "post_box", "collection_times": "Mo-Fr 14:00; Sa 10:00", "indoor": "yes", "note": "ON 12/24 AND 12/31, THIS BOX MAY BE COLLECTED AS EARLY AS 12 NOON.", "nsi_id": "unitedstatespostalservice-a77078", "operator": "United States Postal Service", "operator:short": "USPS", "operator:type": "public", "operator:wikidata": "Q668687", "ref": "5622100002"}, "type": "Feature"}
{"geometry": {"coordinates": [-95.370474467, 44.954215072], "type": "Point"}, "id": "2LjhPos5NqwEZqm79R-oP2OYLFk=", "properties": {"@source_uri": "https://tools.usps.com/UspsToolsRestServices/rest/POLocator/findLocations", "@spider": "usps_collection_boxes", "addr:city": "CLARA CITY", "addr:country": "US", "addr:postcode": "56222", "addr:state": "MN", "addr:street_address": "218 CENTER AVE NW", "amenity": "post_box", "collection_times": "Mo-Sa 15:00", "note": "ON 12/24 AND 12/31, THIS BOX MAY BE COLLECTED AS EARLY AS 12 NOON.", "nsi_id": "unitedstatespostalservice-a77078", "operator": "United States Postal Service", "operator:short": "USPS", "operator:type": "public", "operator:wikidata": "Q668687", "ref": "5622200000"}, "type": "Feature"}
{"geometry": {"coordinates": [-95.370474467, 44.954215072], "type": "Point"}, "id": "l9rKd8vBEkYyYFcOJnm5ZPBMLuc=", "properties": {"@source_uri": "https://tools.usps.com/UspsToolsRestServices/rest/POLocator/findLocations", "@spider": "usps_collection_boxes", "addr:city": "CLARA CITY", "addr:country": "US", "addr:postcode": "56222", "addr:state": "MN", "addr:street_address": "218 CENTER AVE NW", "amenity": "post_box", "collection_times": "Mo-Fr 15:00; Sa 09:30", "indoor": "yes", "note": "ON 12/24 AND 12/31, THIS BOX MAY BE COLLECTED AS EARLY AS 12 NOON.", "nsi_id": "unitedstatespostalservice-a77078", "operator": "United States Postal Service", "operator:short": "USPS", "operator:type": "public", "operator:wikidata": "Q668687", "ref": "5622200001"}, "type": "Feature"}
{"geometry": {"coordinates": [-95.370474467, 44.954215072], "type": "Point"}, "id": "zdLXqxjwYwQoDcjR2ol18qB2HDM=", "properties": {"@source_uri": "https://tools.usps.com/UspsToolsRestServices/rest/POLocator/findLocations", "@spider": "usps_collection_boxes", "addr:city": "CLARA CITY", "addr:country": "US", "addr:postcode": "56222", "addr:state": "MN", "addr:street_address": "218 CENTER AVE NW", "amenity": "post_box", "collection_times": "Mo-Fr 15:00; Sa 09:30", "indoor": "yes", "note": "ON 12/24 AND 12/31, THIS BOX MAY BE COLLECTED AS EARLY AS 12 NOON.", "nsi_id": "unitedstatespostalservice-a77078", "operator": "United States Postal Service", "operator:short": "USPS", "operator:type": "public", "operator:wikidata": "Q668687", "ref": "5622200002"}, "type": "Feature"}
{"geometry": {"coordinates": [-95.804990252, 44.790620294], "type": "Point"}, "id": "2De6YvTPwwrrrZAjpceWjZmEw44=", "properties": {"@source_uri": "https://tools.usps.com/UspsToolsRestServices/rest/POLocator/findLocations", "@spider": "usps_collection_boxes", "addr:city": "CLARKFIELD", "addr:country": "US", "addr:postcode": "56223", "addr:state": "MN", "addr:street_address": "1043 10TH AVE", "amenity": "post_box", "collection_times": "Mo-Sa 13:45", "note": "ON 12/24 AND 12/31, THIS BOX MAY BE COLLECTED AS EARLY AS 12 NOON.", "nsi_id": "unitedstatespostalservice-a77078", "operator": "United States Postal Service", "operator:short": "USPS", "operator:type": "public", "operator:wikidata": "Q668687", "ref": "5622300000"}, "type": "Feature"}
{"geometry": {"coordinates": [-95.804990252, 44.790620294], "type": "Point"}, "id": "ZiKNaoiEb_chDbCYfVHG0nRaqxM=", "properties": {"@source_uri": "https://tools.usps.com/UspsToolsRestServices/rest/POLocator/findLocations", "@spider": "usps_collection_boxes", "addr:city": "CLARKFIELD", "addr:country": "US", "addr:postcode": "56223", "addr:state": "MN", "addr:street_address": "1043 10TH AVE", "amenity": "post_box", "collection_times": "Mo-Fr 13:45; Sa 10:00", "indoor": "yes", "note": "ON 12/24 AND 12/31, THIS BOX MAY BE COLLECTED AS EARLY AS 12 NOON.", "nsi_id": "unitedstatespostalservice-a77078", "operator": "United States Postal Service", "operator:short": "USPS", "operator:type": "public", "operator:wikidata": "Q668687", "ref": "5622300002"}, "type": "Feature"}
{"geometry": {"coordinates": [-95.804990252, 44.790620294], "type": "Point"}, "id": "KYJ_C_ZkTclVCvKnywBb4n1ljeY=", "properties": {"@source_uri": "https://tools.usps.com/UspsToolsRestServices/rest/POLocator/findLocations", "@spider": "usps_collection_boxes", "addr:city": "CLARKFIELD", "addr:country": "US", "addr:postcode": "56223", "addr:state": "MN", "addr:street_address": "1043 10TH AVE", "amenity": "post_box", "collection_times": "Mo-Fr 13:45; Sa 10:00", "indoor": "yes", "note": "ON 12/24 AND 12/31, THIS BOX MAY BE COLLECTED AS EARLY AS 12 NOON.", "nsi_id": "unitedstatespostalservice-a77078", "operator": "United States Postal Service", "operator:short": "USPS", "operator:type": "public", "operator:wikidata": "Q668687", "ref": "5622300003"}, "type": "Feature"}
{"geometry": {"coordinates": [-95.052931992, 44.379473253], "type": "Point"}, "id": "W_Yob0jgouVuCi4HiPdoHZjEbU0=", "properties": {"@source_uri": "https://tools.usps.com/UspsToolsRestServices/rest/POLocator/findLocations", "@spider": "usps_collection_boxes", "addr:city": "CLEMENTS", "addr:country": "US", "addr:postcode": "56224", "addr:state": "MN", "addr:street_address": "10 PINE ST", "amenity": "post_box", "collection_times": "Mo-Sa 13:45", "note": "ON 12/24 AND 12/31, THIS BOX MAY BE COLLECTED AS EARLY AS 12 NOON.", "nsi_id": "unitedstatespostalservice-a77078", "operator": "United States Postal Service", "operator:short": "USPS", "operator:type": "public", "operator:wikidata": "Q668687", "ref": "5622400000"}, "type": "Feature"}
{"geometry": {"coordinates": [-96.43927706, 45.459561477], "type": "Point"}, "id": "-n7gp0SSwASagHLm7vCaXvdrgTs=", "properties": {"@source_uri": "https://tools.usps.com/UspsToolsRestServices/rest/POLocator/findLocations", "@spider": "usps_collection_boxes", "addr:city": "CLINTON", "addr:country": "US", "addr:postcode": "56225", "addr:state": "MN", "addr:street_address": "200 MAIN ST", "amenity": "post_box", "collection_times": "Mo-Sa 12:45", "note": "ON 12/24 AND 12/31, THIS BOX MAY BE COLLECTED AS EARLY AS 12 NOON.", "nsi_id": "unitedstatespostalservice-a77078", "operator": "United States Postal Service", "operator:short": "USPS", "operator:type": "public", "operator:wikidata": "Q668687", "ref": "5622500000"}, "type": "Feature"}
{"geometry": {"coordinates": [-96.43927706, 45.459561477], "type": "Point"}, "id": "pbNYrCAfJaGWkvFfLNVLnuR3WYs=", "properties": {"@source_uri": "https://tools.usps.com/UspsToolsRestServices/rest/POLocator/findLocations", "@spider": "usps_collection_boxes", "addr:city": "CLINTON", "addr:country": "US", "addr:postcode": "56225", "addr:state": "MN", "addr:street_address": "200 MAIN ST", "amenity": "post_box", "collection_times": "Mo-Fr 12:45; Sa 09:30", "indoor": "yes", "note": "ON 12/24 AND 12/31, THIS BOX MAY BE COLLECTED AS EARLY AS 12 NOON.", "nsi_id": "unitedstatespostalservice-a77078", "operator": "United States Postal Service", "operator:short": "USPS", "operator:type": "public", "operator:wikidata": "Q668687", "ref": "5622500001"}, "type": "Feature"}
{"geometry": {"coordinates": [-96.43927706, 45.459561477], "type": "Point"}, "id": "hYRqD5_RBhakuOUCy5uadlgwyIc=", "properties": {"@source_uri": "https://tools.usps.com/UspsToolsRestServices/rest/POLocator/findLocations", "@spider": "usps_collection_boxes", "addr:city": "CLINTON", "addr:country": "US", "addr:postcode": "56225", "addr:state": "MN", "addr:street_address": "200 MAIN ST", "amenity": "post_box", "collection_times": "Mo-Fr 12:30; Sa 09:45", "indoor": "yes", "note": "ON 12/24 AND 12/31, THIS BOX MAY BE COLLECTED AS EARLY AS 12 NOON.", "nsi_id": "unitedstatespostalservice-a77078", "operator": "United States Postal Service", "operator:short": "USPS", "operator:type": "public", "operator:wikidata": "Q668687", "ref": "5622500002"}, "type": "Feature"}
{"geometry": {"coordinates": [-95.677580591, 45.376241743], "type": "Point"}, "id": "1VCnypMmLD4ftbgXhWftMhF0A1g=", "properties": {"@source_uri": "https://tools.usps.com/UspsToolsRestServices/rest/POLocator/findLocations", "@spider": "usps_collection_boxes", "addr:city": "CLONTARF", "addr:country": "US", "addr:postcode": "56226", "addr:state": "MN", "addr:street_address": "121 GRACE AVE", "amenity": "post_box", "collection_times": "Mo-Fr 13:15; Sa 11:00", "note": "ON 12/24 AND 12/31, THIS BOX MAY BE COLLECTED AS EARLY AS 12 NOON.", "nsi_id": "unitedstatespostalservice-a77078", "operator": "United States Postal Service", "operator:short": "USPS", "operator:type": "public", "operator:wikidata": "Q668687", "ref": "5622600000"}, "type": "Feature"}
{"geometry": {"coordinates": [-95.677580591, 45.376241743], "type": "Point"}, "id": "F8aYnKr_DDKdo_Xmpf2pzVNTs84=", "properties": {"@source_uri": "https://tools.usps.com/UspsToolsRestServices/rest/POLocator/findLocations", "@spider": "usps_collection_boxes", "addr:city": "CLONTARF", "addr:country": "US", "addr:postcode": "56226", "addr:state": "MN", "addr:street_address": "121 GRACE AVE", "amenity": "post_box", "collection_times": "Mo-Fr 13:30; Sa 11:30", "indoor": "yes", "note": "ON 12/24 AND 12/31, THIS BOX MAY BE COLLECTED AS EARLY AS 12 NOON.", "nsi_id": "unitedstatespostalservice-a77078", "operator": "United States Postal Service", "operator:short": "USPS", "operator:type": "public", "operator:wikidata": "Q668687", "ref": "5622600001"}, "type": "Feature"}
{"geometry": {"coordinates": [-95.677580591, 45.376241743], "type": "Point"}, "id": "B5uwhMs3pSsjJskdyDYbwG0XHng=", "properties": {"@source_uri": "https://tools.usps.com/UspsToolsRestServices/rest/POLocator/findLocations", "@spider": "usps_collection_boxes", "addr:city": "CLONTARF", "addr:country": "US", "addr:postcode": "56226", "addr:state": "MN", "addr:street_address": "121 GRACE AVE", "amenity": "post_box", "collection_times": "Mo-Fr 13:30; Sa 11:15", "indoor": "yes", "note": "ON 12/24 AND 12/31, THIS BOX MAY BE COLLECTED AS EARLY AS 12 NOON.", "nsi_id": "unitedstatespostalservice-a77078", "operator": "United States Postal Service", "operator:short": "USPS", "operator:type": "public", "operator:wikidata": "Q668687", "ref": "5622600002"}, "type": "Feature"}
{"geometry": {"coordinates": [-96.159616399, 45.230958699], "type": "Point"}, "id": "HqXKXOvuVksvw_Woj3od4Pm9UcY=", "properties": {"@source_uri": "https://tools.usps.com/UspsToolsRestServices/rest/POLocator/findLocations", "@spider": "usps_collection_boxes", "addr:city": "CORRELL", "addr:country": "US", "addr:postcode": "56227", "addr:state": "MN", "addr:street_address": "110 COUNTY ROAD 25 N", "amenity": "post_box", "collection_times": "Mo-Sa 17:00", "note": "ON 12/24 AND 12/31, THIS BOX MAY BE COLLECTED AS EARLY AS 12 NOON.", "nsi_id": "unitedstatespostalservice-a77078", "operator": "United States Postal Service", "operator:short": "USPS", "operator:type": "public", "operator:wikidata": "Q668687", "ref": "5622700000"}, "type": "Feature"}
{"geometry": {"coordinates": [-94.696565864, 44.931840722], "type": "Point"}, "id": "d9vtsWfJari0goPUnlF2QdZZPnM=", "properties": {"@source_uri": "https://tools.usps.com/UspsToolsRestServices/rest/POLocator/findLocations", "@spider": "usps_collection_boxes", "addr:city": "COSMOS", "addr:country": "US", "addr:postcode": "56228", "addr:state": "MN", "addr:street_address": "235 MILKYWAY ST S", "amenity": "post_box", "collection_times": "Mo-Fr 13:15; Sa 09:15", "note": "ON 12/24 AND 12/31, THIS BOX MAY BE COLLECTED AS EARLY AS 12 NOON.", "nsi_id": "unitedstatespostalservice-a77078", "operator": "United States Postal Service", "operator:short": "USPS", "operator:type": "public", "operator:wikidata": "Q668687", "ref": "5622800000"}, "type": "Feature"}
{"geometry": {"coordinates": [-94.696565864, 44.931840722], "type": "Point"}, "id": "Fnc_ssUbUEtsWN0ITlhdS3s1FBg=", "properties": {"@source_uri": "https://tools.usps.com/UspsToolsRestServices/rest/POLocator/findLocations", "@spider": "usps_collection_boxes", "addr:city": "COSMOS", "addr:country": "US", "addr:postcode": "56228", "addr:state": "MN", "addr:street_address": "235 MILKYWAY ST S", "amenity": "post_box", "collection_times": "Mo-Fr 13:30; Sa 09:30", "indoor": "yes", "note": "ON 12/24 AND 12/31, THIS BOX MAY BE COLLECTED AS EARLY AS 12 NOON.", "nsi_id": "unitedstatespostalservice-a77078", "operator": "United States Postal Service", "operator:short": "USPS", "operator:type": "public", "operator:wikidata": "Q668687", "ref": "5622800001"}, "type": "Feature"}
{"geometry": {"coordinates": [-94.696565864, 44.931840722], "type": "Point"}, "id": "RbmYjXIXWay9C-9PhIZ6RsjaRWY=", "properties": {"@source_uri": "https://tools.usps.com/UspsToolsRestServices/rest/POLocator/findLocations", "@spider": "usps_collection_boxes", "addr:city": "COSMOS", "addr:country": "US", "addr:postcode": "56228", "addr:state": "MN", "addr:street_address": "235 MILKYWAY ST S", "amenity": "post_box", "collection_times": "Mo-Fr 13:30; Sa 09:30", "indoor": "yes", "note": "ON 12/24 AND 12/31, THIS BOX MAY BE COLLECTED AS EARLY AS 12 NOON.", "nsi_id": "unitedstatespostalservice-a77078", "operator": "United States Postal Service", "operator:short": "USPS", "operator:type": "public", "operator:wikidata": "Q668687", "ref": "5622800002"}, "type": "Feature"}
{"geometry": {"coordinates": [-95.67372, 44.607585], "type": "Point"}, "id": "-tFk8ryFzuC3AC4khsANi2mMoYI=", "properties": {"@source_uri": "https://tools.usps.com/UspsToolsRestServices/rest/POLocator/findLocations", "@spider": "usps_collection_boxes", "addr:city": "COTTONWOOD", "addr:country": "US", "addr:postcode": "56229", "addr:state": "MN", "addr:street_address": "100 W 2ND ST", "amenity": "post_box", "collection_times": "Mo-Sa 14:30", "note": "ON 12/24 AND 12/31, THIS BOX MAY BE COLLECTED AS EARLY AS 12 NOON.", "nsi_id": "unitedstatespostalservice-a77078", "operator": "United States Postal Service", "operator:short": "USPS", "operator:type": "public", "operator:wikidata": "Q668687", "ref": "5622900000"}, "type": "Feature"}
{"geometry": {"coordinates": [-95.098981807, 44.79243345], "type": "Point"}, "id": "4LSoq7_OqmIdgjwvYqU-Zt4BngI=", "properties": {"@source_uri": "https://tools.usps.com/UspsToolsRestServices/rest/POLocator/findLocations", "@spider": "usps_collection_boxes", "addr:city": "DANUBE", "addr:country": "US", "addr:postcode": "56230", "addr:state": "MN", "addr:street_address": "406 N MAIN ST", "amenity": "post_box", "collection_times": "Mo-Fr 11:15; Sa 09:15", "nsi_id": "unitedstatespostalservice-a77078", "operator": "United States Postal Service", "operator:short": "USPS", "operator:type": "public", "operator:wikidata": "Q668687", "ref": "5623000000"}, "type": "Feature"}
{"geometry": {"coordinates": [-95.098981807, 44.79243345], "type": "Point"}, "id": "s-qbV51aTuoAoPZygOPy6DTabvg=", "properties": {"@source_uri": "https://tools.usps.com/UspsToolsRestServices/rest/POLocator/findLocations", "@spider": "usps_collection_boxes", "addr:city": "DANUBE", "addr:country": "US", "addr:postcode": "56230", "addr:state": "MN", "addr:street_address": "406 N MAIN ST", "amenity": "post_box", "collection_times": "Mo-Fr 11:30; Sa 09:30", "indoor": "yes", "nsi_id": "unitedstatespostalservice-a77078", "operator": "United States Postal Service", "operator:short": "USPS", "operator:type": "public", "operator:wikidata": "Q668687", "ref": "5623000001"}, "type": "Feature"}
{"geometry": {"coordinates": [-95.098981807, 44.79243345], "type": "Point"}, "id": "AVSmaJvKdFpqqgjGMxfBqWwCUpI=", "properties": {"@source_uri": "https://tools.usps.com/UspsToolsRestServices/rest/POLocator/findLocations", "@spider": "usps_collection_boxes", "addr:city": "DANUBE", "addr:country": "US", "addr:postcode": "56230", "addr:state": "MN", "addr:street_address": "406 N MAIN ST", "amenity": "post_box", "collection_times": "Mo-Fr 11:30; Sa 09:30", "indoor": "yes", "nsi_id": "unitedstatespostalservice-a77078", "operator": "United States Postal Service", "operator:short": "USPS", "operator:type": "public", "operator:wikidata": "Q668687", "ref": "5623000002"}, "type": "Feature"}
{"geometry": {"coordinates": [-95.752343589, 45.280980044], "type": "Point"}, "id": "jVSpukiFUpgT34RrKGf3NzSGRrU=", "properties": {"@source_uri": "https://tools.usps.com/UspsToolsRestServices/rest/POLocator/findLocations", "@spider": "usps_collection_boxes", "addr:city": "DANVERS", "addr:country": "US", "addr:postcode": "56231", "addr:state": "MN", "addr:street_address": "408 MINNESOTA AVE", "amenity": "post_box", "collection_times": "Mo-Fr 11:45; Sa 11:00", "nsi_id": "unitedstatespostalservice-a77078", "operator": "United States Postal Service", "operator:short": "USPS", "operator:type": "public", "operator:wikidata": "Q668687", "ref": "5623100000"}, "type": "Feature"}
{"geometry": {"coordinates": [-95.752343589, 45.280980044], "type": "Point"}, "id": "LkhJms6amKgcvRZB4LlMoF5Zdq8=", "properties": {"@source_uri": "https://tools.usps.com/UspsToolsRestServices/rest/POLocator/findLocations", "@spider": "usps_collection_boxes", "addr:city": "DANVERS", "addr:country": "US", "addr:postcode": "56231", "addr:state": "MN", "addr:street_address": "408 MINNESOTA AVE", "amenity": "post_box", "collection_times": "Mo-Fr 12:00; Sa 10:00", "indoor": "yes", "nsi_id": "unitedstatespostalservice-a77078", "operator": "United States Postal Service", "operator:short": "USPS", "operator:type": "public", "operator:wikidata": "Q668687", "ref": "5623100001"}, "type": "Feature"}
{"geometry": {"coordinates": [-95.752343589, 45.280980044], "type": "Point"}, "id": "IQv8Q7WNcP1R5d2Eg92wjTSrc4A=", "properties": {"@source_uri": "https://tools.usps.com/UspsToolsRestServices/rest/POLocator/findLocations", "@spider": "usps_collection_boxes", "addr:city": "DANVERS", "addr:country": "US", "addr:postcode": "56231", "addr:state": "MN", "addr:street_address": "408 MINNESOTA AVE", "amenity": "post_box", "collection_times": "Mo-Fr 12:00; Sa 11:15", "indoor": "yes", "nsi_id": "unitedstatespostalservice-a77078", "operator": "United States Postal Service", "operator:short": "USPS", "operator:type": "public", "operator:wikidata": "Q668687", "ref": "5623100002"}, "type": "Feature"}
{"geometry": {"coordinates": [-96.054708329, 44.9308575], "type": "Point"}, "id": "cs2QXrHe7X2p6FM89HA9wUJcwzs=", "properties": {"@source_uri": "https://tools.usps.com/UspsToolsRestServices/rest/POLocator/findLocations", "@spider": "usps_collection_boxes", "addr:city": "DAWSON", "addr:country": "US", "addr:postcode": "56232", "addr:state": "MN", "addr:street_address": "640 6TH ST", "amenity": "post_box", "collection_times": "Mo-Fr 15:45; Sa 09:45", "note": "ON 12/24 AND 12/31, THIS BOX MAY BE COLLECTED AS EARLY AS 12 NOON.", "nsi_id": "unitedstatespostalservice-a77078", "operator": "United States Postal Service", "operator:short": "USPS", "operator:type": "public", "operator:wikidata": "Q668687", "ref": "5623200000"}, "type": "Feature"}
{"geometry": {"coordinates": [-96.054708329, 44.9308575], "type": "Point"}, "id": "XrhPRYnt2VwVMQGySVWHjmKmxBY=", "properties": {"@source_uri": "https://tools.usps.com/UspsToolsRestServices/rest/POLocator/findLocations", "@spider": "usps_collection_boxes", "addr:city": "DAWSON", "addr:country": "US", "addr:postcode": "56232", "addr:state": "MN", "addr:street_address": "640 6TH ST", "amenity": "post_box", "collection_times": "Mo-Fr 13:15; Sa 10:00", "indoor": "yes", "note": "ON 12/24 AND 12/31, THIS BOX MAY BE COLLECTED AS EARLY AS 12 NOON.", "nsi_id": "unitedstatespostalservice-a77078", "operator": "United States Postal Service", "operator:short": "USPS", "operator:type": "public", "operator:wikidata": "Q668687", "ref": "5623200001"}, "type": "Feature"}
{"geometry": {"coordinates": [-96.054708329, 44.9308575], "type": "Point"}, "id": "ubtBD0C5Jbov8qk8z8NU0yx-Ndc=", "properties": {"@source_uri": "https://tools.usps.com/UspsToolsRestServices/rest/POLocator/findLocations", "@spider": "usps_collection_boxes", "addr:city": "DAWSON", "addr:country": "US", "addr:postcode": "56232", "addr:state": "MN", "addr:street_address": "640 6TH ST", "amenity": "post_box", "collection_times": "Mo-Fr 13:15; Sa 10:00", "indoor": "yes", "note": "ON 12/24 AND 12/31, THIS BOX MAY BE COLLECTED AS EARLY AS 12 NOON.", "nsi_id": "unitedstatespostalservice-a77078", "operator": "United States Postal Service", "operator:short": "USPS", "operator:type": "public", "operator:wikidata": "Q668687", "ref": "5623200002"}, "type": "Feature"}
{"geometry": {"coordinates": [-96.012499875, 45.690272812], "type": "Point"}, "id": "d4bgcSN3yQV4SX98sSjoG3WVP1w=", "properties": {"@source_uri": "https://tools.usps.com/UspsToolsRestServices/rest/POLocator/findLocations", "@spider": "usps_collection_boxes", "addr:city": "DONNELLY", "addr:country": "US", "addr:postcode": "56235", "addr:state": "MN", "addr:street_address": "107 4TH ST", "amenity": "post_box", "collection_times": "Mo-Sa 14:00", "note": "ON 12/24 AND 12/31, THIS BOX MAY BE COLLECTED AS EARLY AS 12 NOON.", "nsi_id": "unitedstatespostalservice-a77078", "operator": "United States Postal Service", "operator:short": "USPS", "operator:type": "public", "operator:wikidata": "Q668687", "ref": "5623500000"}, "type": "Feature"}
{"geometry": {"coordinates": [-96.0091541, 45.6871854], "type": "Point"}, "id": "OKAlwM27c0EvOWmxH-KKjq-6B-4=", "properties": {"@source_uri": "https://tools.usps.com/UspsToolsRestServices/rest/POLocator/findLocations", "@spider": "usps_collection_boxes", "addr:city": "DONNELLY", "addr:country": "US", "addr:postcode": "56235", "addr:state": "MN", "addr:street_address": "107 4TH ST", "amenity": "post_box", "collection_times": "Mo-Fr 12:00; Sa 10:00", "indoor": "yes", "nsi_id": "unitedstatespostalservice-a77078", "operator": "United States Postal Service", "operator:short": "USPS", "operator:type": "public", "operator:wikidata": "Q668687", "ref": "5623500001"}, "type": "Feature"}
{"geometry": {"coordinates": [-96.0091541, 45.6871854], "type": "Point"}, "id": "KLizKlNC8UVuyzG36Mk_QNaM7Zs=", "properties": {"@source_uri": "https://tools.usps.com/UspsToolsRestServices/rest/POLocator/findLocations", "@spider": "usps_collection_boxes", "addr:city": "DONNELLY", "addr:country": "US", "addr:postcode": "56235", "addr:state": "MN", "addr:street_address": "107 4TH ST", "amenity": "post_box", "collection_times": "Mo-Fr 12:00; Sa 08:45", "indoor": "yes", "nsi_id": "unitedstatespostalservice-a77078", "operator": "United States Postal Service", "operator:short": "USPS", "operator:type": "public", "operator:wikidata": "Q668687", "ref": "5623500002"}, "type": "Feature"}
{"geometry": {"coordinates": [-96.42441067, 45.71777783], "type": "Point"}, "id": "1JKFctu5V7A4_ST2Y7RR9g0ogQU=", "properties": {"@source_uri": "https://tools.usps.com/UspsToolsRestServices/rest/POLocator/findLocations", "@spider": "usps_collection_boxes", "addr:city": "DUMONT", "addr:country": "US", "addr:postcode": "56236", "addr:state": "MN", "addr:street_address": "101 MAIN ST E", "amenity": "post_box", "collection_times": "Mo-Sa 12:30", "note": "ON 12/24 AND 12/31, THIS BOX MAY BE COLLECTED AS EARLY AS 12 NOON.", "nsi_id": "unitedstatespostalservice-a77078", "operator": "United States Postal Service", "operator:short": "USPS", "operator:type": "public", "operator:wikidata": "Q668687", "ref": "5623600000"}, "type": "Feature"}
{"geometry": {"coordinates": [-96.42441067, 45.71777783], "type": "Point"}, "id": "fAVo_Tio1hjCRP-dzpCSubTjmEE=", "properties": {"@source_uri": "https://tools.usps.com/UspsToolsRestServices/rest/POLocator/findLocations", "@spider": "usps_collection_boxes", "addr:city": "DUMONT", "addr:country": "US", "addr:postcode": "56236", "addr:state": "MN", "addr:street_address": "101 MAIN ST E", "amenity": "post_box", "collection_times": "Mo-Fr 11:45; Sa 09:45", "indoor": "yes", "nsi_id": "unitedstatespostalservice-a77078", "operator": "United States Postal Service", "operator:short": "USPS", "operator:type": "public", "operator:wikidata": "Q668687", "ref": "5623600001"}, "type": "Feature"}
{"geometry": {"coordinates": [-96.293604725, 45.572956479], "type": "Point"}, "id": "i9UELjY_Wm1C7x5LvVLVIMPXMRc=", "properties": {"@source_uri": "https://tools.usps.com/UspsToolsRestServices/rest/POLocator/findLocations", "@spider": "usps_collection_boxes", "addr:city": "DUMONT", "addr:country": "US", "addr:postcode": "56236", "addr:state": "MN", "addr:street_address": "106 2ND ST # 56236", "amenity": "post_box", "collection_times": "Mo-Sa 14:00", "note": "ON 12/24 AND 12/31, THIS BOX MAY BE COLLECTED AS EARLY AS 12 NOON.", "nsi_id": "unitedstatespostalservice-a77078", "operator": "United States Postal Service", "operator:short": "USPS", "operator:type": "public", "operator:wikidata": "Q668687", "ref": "5623600002"}, "type": "Feature"}
{"geometry": {"coordinates": [-96.42441067, 45.71777783], "type": "Point"}, "id": "DKb3Y9LhSgMEcDVsDm__nBJur3w=", "properties": {"@source_uri": "https://tools.usps.com/UspsToolsRestServices/rest/POLocator/findLocations", "@spider": "usps_collection_boxes", "addr:city": "DUMONT", "addr:country": "US", "addr:postcode": "56236", "addr:state": "MN", "addr:street_address": "101 MAIN ST E", "amenity": "post_box", "collection_times": "Mo-Fr 11:45; Sa 09:45", "indoor": "yes", "nsi_id": "unitedstatespostalservice-a77078", "operator": "United States Postal Service", "operator:short": "USPS", "operator:type": "public", "operator:wikidata": "Q668687", "ref": "5623600003"}, "type": "Feature"}
{"geometry": {"coordinates": [-95.417159109, 44.617569632], "type": "Point"}, "id": "8fT23WcHXgvlx6qTRjy6Wnu4LO0=", "properties": {"@source_uri": "https://tools.usps.com/UspsToolsRestServices/rest/POLocator/findLocations", "@spider": "usps_collection_boxes", "addr:city": "ECHO", "addr:country": "US", "addr:postcode": "56237", "addr:state": "MN", "addr:street_address": "281 4TH ST", "amenity": "post_box", "collection_times": "Mo-Sa 13:45", "note": "ON 12/24 AND 12/31, THIS BOX MAY BE COLLECTED AS EARLY AS 12 NOON.", "nsi_id": "unitedstatespostalservice-a77078", "operator": "United States Postal Service", "operator:short": "USPS", "operator:type": "public", "operator:wikidata": "Q668687", "ref": "5623700000"}, "type": "Feature"}
{"geometry": {"coordinates": [-95.417159109, 44.617569632], "type": "Point"}, "id": "bkEdamoDIQ7HgEvuvf8t8SmQrOU=", "properties": {"@source_uri": "https://tools.usps.com/UspsToolsRestServices/rest/POLocator/findLocations", "@spider": "usps_collection_boxes", "addr:city": "ECHO", "addr:country": "US", "addr:postcode": "56237", "addr:state": "MN", "addr:street_address": "281 4TH ST", "amenity": "post_box", "collection_times": "Mo-Fr 11:30; Sa 09:15", "indoor": "yes", "nsi_id": "unitedstatespostalservice-a77078", "operator": "United States Postal Service", "operator:short": "USPS", "operator:type": "public", "operator:wikidata": "Q668687", "ref": "5623700001"}, "type": "Feature"}
{"geometry": {"coordinates": [-95.417159109, 44.617569632], "type": "Point"}, "id": "zznMXlStvzmjeYPC9jiUNq623Hk=", "properties": {"@source_uri": "https://tools.usps.com/UspsToolsRestServices/rest/POLocator/findLocations", "@spider": "usps_collection_boxes", "addr:city": "ECHO", "addr:country": "US", "addr:postcode": "56237", "addr:state": "MN", "addr:street_address": "281 4TH ST", "amenity": "post_box", "collection_times": "Mo-Fr 11:30; Sa 09:15", "indoor": "yes", "nsi_id": "unitedstatespostalservice-a77078", "operator": "United States Postal Service", "operator:short": "USPS", "operator:type": "public", "operator:wikidata": "Q668687", "ref": "5623700002"}, "type": "Feature"}
{"geometry": {"coordinates": [-95.892927774, 44.513527955], "type": "Point"}, "id": "NSB1YXZpB3Or7Fl-vBMxdJr-Mb4=", "properties": {"@source_uri": "https://tools.usps.com/UspsToolsRestServices/rest/POLocator/findLocations", "@spider": "usps_collection_boxes", "addr:city": "GHENT", "addr:country": "US", "addr:postcode": "56239", "addr:state": "MN", "addr:street_address": "104 W BURLINGAME ST", "amenity": "post_box", "collection_times": "Mo-Sa 14:00", "note": "ON 12/24 AND 12/31, THIS BOX MAY BE COLLECTED AS EARLY AS 12 NOON.", "nsi_id": "unitedstatespostalservice-a77078", "operator": "United States Postal Service", "operator:short": "USPS", "operator:type": "public", "operator:wikidata": "Q668687", "ref": "5623900000"}, "type": "Feature"}
{"geometry": {"coordinates": [-95.8927270006, 44.5138299812], "type": "Point"}, "id": "Bv0Nxmj9DQU4qMM2BuqSHe8jUdQ=", "properties": {"@source_uri": "https://tools.usps.com/UspsToolsRestServices/rest/POLocator/findLocations", "@spider": "usps_collection_boxes", "addr:city": "GHENT", "addr:country": "US", "addr:postcode": "56239", "addr:state": "MN", "addr:street_address": "104 W BURLINGAME ST", "amenity": "post_box", "collection_times": "Mo-Fr 14:00; Sa 11:45", "indoor": "yes", "note": "ON 12/24 AND 12/31, THIS BOX MAY BE COLLECTED AS EARLY AS 12 NOON.", "nsi_id": "unitedstatespostalservice-a77078", "operator": "United States Postal Service", "operator:short": "USPS", "operator:type": "public", "operator:wikidata": "Q668687", "ref": "5623900001"}, "type": "Feature"}
{"geometry": {"coordinates": [-95.892927774, 44.513527955], "type": "Point"}, "id": "Q1Zh4Z4cW6XP6FQps-jo99Lpi2I=", "properties": {"@source_uri": "https://tools.usps.com/UspsToolsRestServices/rest/POLocator/findLocations", "@spider": "usps_collection_boxes", "addr:city": "GHENT", "addr:country": "US", "addr:postcode": "56239", "addr:state": "MN", "addr:street_address": "104 W BURLINGAME ST", "amenity": "post_box", "collection_times": "Mo-Fr 14:00; Sa 11:45", "indoor": "yes", "note": "ON 12/24 AND 12/31, THIS BOX MAY BE COLLECTED AS EARLY AS 12 NOON.", "nsi_id": "unitedstatespostalservice-a77078", "operator": "United States Postal Service", "operator:short": "USPS", "operator:type": "public", "operator:wikidata": "Q668687", "ref": "5623900002"}, "type": "Feature"}
{"geometry": {"coordinates": [-96.435832448, 45.567944488], "type": "Point"}, "id": "rjNwhsCV0uju8ZBKTIl7HLpTNGs=", "properties": {"@source_uri": "https://tools.usps.com/UspsToolsRestServices/rest/POLocator/findLocations", "@spider": "usps_collection_boxes", "addr:city": "GRACEVILLE", "addr:country": "US", "addr:postcode": "56240", "addr:state": "MN", "addr:street_address": "327 STUDDART AVE", "amenity": "post_box", "collection_times": "Mo-Sa 13:45", "note": "ON 12/24 AND 12/31, THIS BOX MAY BE COLLECTED AS EARLY AS 12 NOON.", "nsi_id": "unitedstatespostalservice-a77078", "operator": "United States Postal Service", "operator:short": "USPS", "operator:type": "public", "operator:wikidata": "Q668687", "ref": "5624000000"}, "type": "Feature"}
{"geometry": {"coordinates": [-96.435832448, 45.567944488], "type": "Point"}, "id": "4KDehr2OXd90YKJz9sOcvY7Z1uQ=", "properties": {"@source_uri": "https://tools.usps.com/UspsToolsRestServices/rest/POLocator/findLocations", "@spider": "usps_collection_boxes", "addr:city": "GRACEVILLE", "addr:country": "US", "addr:postcode": "56240", "addr:state": "MN", "addr:street_address": "327 STUDDART AVE", "amenity": "post_box", "collection_times": "Mo-Fr 13:15; Sa 10:00", "indoor": "yes", "note": "ON 12/24 AND 12/31, THIS BOX MAY BE COLLECTED AS EARLY AS 12 NOON.", "nsi_id": "unitedstatespostalservice-a77078", "operator": "United States Postal Service", "operator:short": "USPS", "operator:type": "public", "operator:wikidata": "Q668687", "ref": "5624000001"}, "type": "Feature"}
{"geometry": {"coordinates": [-96.433740265, 45.566835159], "type": "Point"}, "id": "0incc3mtltYon-cFlVBxAaDq9J4=", "properties": {"@source_uri": "https://tools.usps.com/UspsToolsRestServices/rest/POLocator/findLocations", "@spider": "usps_collection_boxes", "addr:city": "GRACEVILLE", "addr:country": "US", "addr:postcode": "56240", "addr:state": "MN", "addr:street_address": "204 PARNELL AVE", "amenity": "post_box", "collection_times": "Mo-Sa 13:30", "note": "ON 12/24 AND 12/31, THIS BOX MAY BE COLLECTED AS EARLY AS 12 NOON.", "nsi_id": "unitedstatespostalservice-a77078", "operator": "United States Postal Service", "operator:short": "USPS", "operator:type": "public", "operator:wikidata": "Q668687", "ref": "5624000002"}, "type": "Feature"}
{"geometry": {"coordinates": [-96.435832448, 45.567944488], "type": "Point"}, "id": "QuHsDW3EAMWIl2GeNDX5daRoiok=", "properties": {"@source_uri": "https://tools.usps.com/UspsToolsRestServices/rest/POLocator/findLocations", "@spider": "usps_collection_boxes", "addr:city": "GRACEVILLE", "addr:country": "US", "addr:postcode": "56240", "addr:state": "MN", "addr:street_address": "327 STUDDART AVE", "amenity": "post_box", "collection_times": "Mo-Fr 13:15; Sa 10:00", "indoor": "yes", "note": "ON 12/24 AND 12/31, THIS BOX MAY BE COLLECTED AS EARLY AS 12 NOON.", "nsi_id": "unitedstatespostalservice-a77078", "operator": "United States Postal Service", "operator:short": "USPS", "operator:type": "public", "operator:wikidata": "Q668687", "ref": "5624000003"}, "type": "Feature"}
{"geometry": {"coordinates": [-96.435832448, 45.567944488], "type": "Point"}, "id": "9zC41uks6_IxRK1nmhtZDzUKtaw=", "properties": {"@source_uri": "https://tools.usps.com/UspsToolsRestServices/rest/POLocator/findLocations", "@spider": "usps_collection_boxes", "addr:city": "GRACEVILLE", "addr:country": "US", "addr:postcode": "56240", "addr:state": "MN", "addr:street_address": "327 STUDDART AVE", "amenity": "post_box", "collection_times": "Mo-Fr 13:15; Sa 10:00", "indoor": "yes", "note": "ON 12/24 AND 12/31, THIS BOX MAY BE COLLECTED AS EARLY AS 12 NOON.", "nsi_id": "unitedstatespostalservice-a77078", "operator": "United States Postal Service", "operator:short": "USPS", "operator:type": "public", "operator:wikidata": "Q668687", "ref": "5624000004"}, "type": "Feature"}
{"geometry": {"coordinates": [-95.538519582, 44.811302362], "type": "Point"}, "id": "dlrAG_BWa8ON3lGKH1Tq9vmhWoI=", "properties": {"@source_uri": "https://tools.usps.com/UspsToolsRestServices/rest/POLocator/findLocations", "@spider": "usps_collection_boxes", "addr:city": "GRANITE FALLS", "addr:country": "US", "addr:postcode": "56241", "addr:state": "MN", "addr:street_address": "120 7TH AVE", "amenity": "post_box", "collection_times": "Mo-Fr 14:15; Sa 08:30", "note": "ON 12/24 AND 12/31, THIS BOX MAY BE COLLECTED AS EARLY AS 12 NOON.", "nsi_id": "unitedstatespostalservice-a77078", "operator": "United States Postal Service", "operator:short": "USPS", "operator:type": "public", "operator:wikidata": "Q668687", "ref": "5624100000"}, "type": "Feature"}
{"geometry": {"coordinates": [-95.544559783, 44.809916413], "type": "Point"}, "id": "CCMEIzVBX_3jVOGoaXQCMgD3FdM=", "properties": {"@source_uri": "https://tools.usps.com/UspsToolsRestServices/rest/POLocator/findLocations", "@spider": "usps_collection_boxes", "addr:city": "GRANITE FALLS", "addr:country": "US", "addr:postcode": "56241", "addr:state": "MN", "addr:street_address": "415 9TH AVE", "amenity": "post_box", "collection_times": "Mo-Sa 12:30", "note": "ON 12/24 AND 12/31, THIS BOX MAY BE COLLECTED AS EARLY AS 12 NOON.", "nsi_id": "unitedstatespostalservice-a77078", "operator": "United States Postal Service", "operator:short": "USPS", "operator:type": "public", "operator:wikidata": "Q668687", "ref": "5624100002"}, "type": "Feature"}
{"geometry": {"coordinates": [-95.539352935, 44.809126449], "type": "Point"}, "id": "CosV0zYyWd__YpUPKd_hILdkPRs=", "properties": {"@source_uri": "https://tools.usps.com/UspsToolsRestServices/rest/POLocator/findLocations", "@spider": "usps_collection_boxes", "addr:city": "GRANITE FALLS", "addr:country": "US", "addr:postcode": "56241", "addr:state": "MN", "addr:street_address": "918 PRENTICE ST", "amenity": "post_box", "collection_times": "Mo-Sa 12:30", "note": "ON 12/24 AND 12/31, THIS BOX MAY BE COLLECTED AS EARLY AS 12 NOON.", "nsi_id": "unitedstatespostalservice-a77078", "operator": "United States Postal Service", "operator:short": "USPS", "operator:type": "public", "operator:wikidata": "Q668687", "ref": "5624100005"}, "type": "Feature"}
{"geometry": {"coordinates": [-95.550953171, 44.810057504], "type": "Point"}, "id": "omAl8ACgJMZ_szjEgz3rAV_xjTg=", "properties": {"@source_uri": "https://tools.usps.com/UspsToolsRestServices/rest/POLocator/findLocations", "@spider": "usps_collection_boxes", "addr:city": "GRANITE FALLS", "addr:country": "US", "addr:postcode": "56241", "addr:state": "MN", "addr:street_address": "860 9TH AVE", "amenity": "post_box", "collection_times": "Mo-Sa 11:30", "nsi_id": "unitedstatespostalservice-a77078", "operator": "United States Postal Service", "operator:short": "USPS", "operator:type": "public", "operator:wikidata": "Q668687", "ref": "5624100007"}, "type": "Feature"}
{"geometry": {"coordinates": [-95.54724, 44.80951], "type": "Point"}, "id": "WCnVgizX_x6K4OPVg5AJoXo6vOc=", "properties": {"@source_uri": "https://tools.usps.com/UspsToolsRestServices/rest/POLocator/findLocations", "@spider": "usps_collection_boxes", "addr:city": "GRANITE FALLS", "addr:country": "US", "addr:postcode": "56241", "addr:state": "MN", "addr:street_address": "1082 3RD ST", "amenity": "post_box", "collection_times": "Mo-Sa 09:00", "nsi_id": "unitedstatespostalservice-a77078", "operator": "United States Postal Service", "operator:short": "USPS", "operator:type": "public", "operator:wikidata": "Q668687", "ref": "5624100010"}, "type": "Feature"}
{"geometry": {"coordinates": [-95.538519582, 44.811302362], "type": "Point"}, "id": "3oP2Dux8snhbwz97NLczIZfp5dE=", "properties": {"@source_uri": "https://tools.usps.com/UspsToolsRestServices/rest/POLocator/findLocations", "@spider": "usps_collection_boxes", "addr:city": "GRANITE FALLS", "addr:country": "US", "addr:postcode": "56241", "addr:state": "MN", "addr:street_address": "120 7TH AVE", "amenity": "post_box", "collection_times": "Mo-Fr 14:15; Sa 08:30", "indoor": "yes", "note": "ON 12/24 AND 12/31, THIS BOX MAY BE COLLECTED AS EARLY AS 12 NOON.", "nsi_id": "unitedstatespostalservice-a77078", "operator": "United States Postal Service", "operator:short": "USPS", "operator:type": "public", "operator:wikidata": "Q668687", "ref": "5624100011"}, "type": "Feature"}
{"geometry": {"coordinates": [-95.538519582, 44.811302362], "type": "Point"}, "id": "zbZynLTBk1QPv-7r7Z-gBMiBjWo=", "properties": {"@source_uri": "https://tools.usps.com/UspsToolsRestServices/rest/POLocator/findLocations", "@spider": "usps_collection_boxes", "addr:city": "GRANITE FALLS", "addr:country": "US", "addr:postcode": "56241", "addr:state": "MN", "addr:street_address": "120 7TH AVE", "amenity": "post_box", "collection_times": "Mo-Fr 14:15", "indoor": "yes", "note": "ON 12/24 AND 12/31, THIS BOX MAY BE COLLECTED AS EARLY AS 12 NOON.", "nsi_id": "unitedstatespostalservice-a77078", "operator": "United States Postal Service", "operator:short": "USPS", "operator:type": "public", "operator:wikidata": "Q668687", "ref": "5624100013"}, "type": "Feature"}
{"geometry": {"coordinates": [-94.689115321, 45.148222941], "type": "Point"}, "id": "xY7Az4Clf8r2RHX9dmGIYviR5q4=", "properties": {"@source_uri": "https://tools.usps.com/UspsToolsRestServices/rest/POLocator/findLocations", "@spider": "usps_collection_boxes", "addr:city": "GROVE CITY", "addr:country": "US", "addr:postcode": "56243", "addr:state": "MN", "addr:street_address": "214 ATLANTIC AVE W", "amenity": "post_box", "collection_times": "Mo-Sa 14:30", "note": "ON 12/24 AND 12/31, THIS BOX MAY BE COLLECTED AS EARLY AS 12 NOON.", "nsi_id": "unitedstatespostalservice-a77078", "operator": "United States Postal Service", "operator:short": "USPS", "operator:type": "public", "operator:wikidata": "Q668687", "ref": "5624300000"}, "type": "Feature"}
{"geometry": {"coordinates": [-94.689115321, 45.148222941], "type": "Point"}, "id": "g5YUPJNZEeytb-si_jylXNbZ1C0=", "properties": {"@source_uri": "https://tools.usps.com/UspsToolsRestServices/rest/POLocator/findLocations", "@spider": "usps_collection_boxes", "addr:city": "GROVE CITY", "addr:country": "US", "addr:postcode": "56243", "addr:state": "MN", "addr:street_address": "214 ATLANTIC AVE W", "amenity": "post_box", "collection_times": "Mo-Fr 13:00", "indoor": "yes", "note": "ON 12/24 AND 12/31, THIS BOX MAY BE COLLECTED AS EARLY AS 12 NOON.", "nsi_id": "unitedstatespostalservice-a77078", "operator": "United States Postal Service", "operator:short": "USPS", "operator:type": "public", "operator:wikidata": "Q668687", "ref": "5624300001"}, "type": "Feature"}
{"geometry": {"coordinates": [-94.689115321, 45.148222941], "type": "Point"}, "id": "cXKKBcLrI-mYc64We3fFrXZpJ9I=", "properties": {"@source_uri": "https://tools.usps.com/UspsToolsRestServices/rest/POLocator/findLocations", "@spider": "usps_collection_boxes", "addr:city": "GROVE CITY", "addr:country": "US", "addr:postcode": "56243", "addr:state": "MN", "addr:street_address": "214 ATLANTIC AVE W", "amenity": "post_box", "collection_times": "Mo-Fr 13:00", "indoor": "yes", "note": "ON 12/24 AND 12/31, THIS BOX MAY BE COLLECTED AS EARLY AS 12 NOON.", "nsi_id": "unitedstatespostalservice-a77078", "operator": "United States Postal Service", "operator:short": "USPS", "operator:type": "public", "operator:wikidata": "Q668687", "ref": "5624300002"}, "type": "Feature"}
{"geometry": {"coordinates": [-95.794763822, 45.498324794], "type": "Point"}, "id": "J6qSCO4qoDpkB8NNjLhBGmVoo0k=", "properties": {"@source_uri": "https://tools.usps.com/UspsToolsRestServices/rest/POLocator/findLocations", "@spider": "usps_collection_boxes", "addr:city": "HANCOCK", "addr:country": "US", "addr:postcode": "56244", "addr:state": "MN", "addr:street_address": "660 6TH ST", "amenity": "post_box", "collection_times": "Mo-Sa 14:45", "note": "ON 12/24 AND 12/31, THIS BOX MAY BE COLLECTED AS EARLY AS 12 NOON.", "nsi_id": "unitedstatespostalservice-a77078", "operator": "United States Postal Service", "operator:short": "USPS", "operator:type": "public", "operator:wikidata": "Q668687", "ref": "5624400000"}, "type": "Feature"}
{"geometry": {"coordinates": [-95.794763822, 45.498324794], "type": "Point"}, "id": "XhxDmqmuhgqQUPM_p1hgoQS-bwk=", "properties": {"@source_uri": "https://tools.usps.com/UspsToolsRestServices/rest/POLocator/findLocations", "@spider": "usps_collection_boxes", "addr:city": "HANCOCK", "addr:country": "US", "addr:postcode": "56244", "addr:state": "MN", "addr:street_address": "660 6TH ST", "amenity": "post_box", "collection_times": "Mo-Fr 13:30; Sa 09:30", "indoor": "yes", "note": "ON 12/24 AND 12/31, THIS BOX MAY BE COLLECTED AS EARLY AS 12 NOON.", "nsi_id": "unitedstatespostalservice-a77078", "operator": "United States Postal Service", "operator:short": "USPS", "operator:type": "public", "operator:wikidata": "Q668687", "ref": "5624400002"}, "type": "Feature"}
{"geometry": {"coordinates": [-95.794763822, 45.498324794], "type": "Point"}, "id": "YLkuKyTyCvjcEtE5_DBO884jsK0=", "properties": {"@source_uri": "https://tools.usps.com/UspsToolsRestServices/rest/POLocator/findLocations", "@spider": "usps_collection_boxes", "addr:city": "HANCOCK", "addr:country": "US", "addr:postcode": "56244", "addr:state": "MN", "addr:street_address": "660 6TH ST", "amenity": "post_box", "collection_times": "Mo-Fr 13:30; Sa 10:00", "indoor": "yes", "note": "ON 12/24 AND 12/31, THIS BOX MAY BE COLLECTED AS EARLY AS 12 NOON.", "nsi_id": "unitedstatespostalservice-a77078", "operator": "United States Postal Service", "operator:short": "USPS", "operator:type": "public", "operator:wikidata": "Q668687", "ref": "5624400003"}, "type": "Feature"}
{"geometry": {"coordinates": [-95.62058999, 44.6938310166], "type": "Point"}, "id": "0HC8nc1ZythoasrQi4s3LRD-5Aw=", "properties": {"@source_uri": "https://tools.usps.com/UspsToolsRestServices/rest/POLocator/findLocations", "@spider": "usps_collection_boxes", "addr:city": "HANLEY FALLS", "addr:country": "US", "addr:postcode": "56245", "addr:state": "MN", "addr:street_address": "123 N 3RD ST", "amenity": "post_box", "collection_times": "Mo-Sa 15:00", "note": "ON 12/24 AND 12/31, THIS BOX MAY BE COLLECTED AS EARLY AS 12 NOON.", "nsi_id": "unitedstatespostalservice-a77078", "operator": "United States Postal Service", "operator:short": "USPS", "operator:type": "public", "operator:wikidata": "Q668687", "ref": "5624500000"}, "type": "Feature"}
{"geometry": {"coordinates": [-95.62058999, 44.6938310166], "type": "Point"}, "id": "S5-uJ07crbHerF2NDTxDR3e4ysU=", "properties": {"@source_uri": "https://tools.usps.com/UspsToolsRestServices/rest/POLocator/findLocations", "@spider": "usps_collection_boxes", "addr:city": "HANLEY FALLS", "addr:country": "US", "addr:postcode": "56245", "addr:state": "MN", "addr:street_address": "123 N 3RD ST", "amenity": "post_box", "collection_times": "Mo-Fr 15:00; Sa 10:45", "indoor": "yes", "note": "ON 12/24 AND 12/31, THIS BOX MAY BE COLLECTED AS EARLY AS 12 NOON.", "nsi_id": "unitedstatespostalservice-a77078", "operator": "United States Postal Service", "operator:short": "USPS", "operator:type": "public", "operator:wikidata": "Q668687", "ref": "5624500001"}, "type": "Feature"}
{"geometry": {"coordinates": [-95.62058999, 44.6938310166], "type": "Point"}, "id": "MvfVzhwg1ZzkkLOmJQ6N0eKj5oY=", "properties": {"@source_uri": "https://tools.usps.com/UspsToolsRestServices/rest/POLocator/findLocations", "@spider": "usps_collection_boxes", "addr:city": "HANLEY FALLS", "addr:country": "US", "addr:postcode": "56245", "addr:state": "MN", "addr:street_address": "123 N 3RD ST", "amenity": "post_box", "collection_times": "Mo-Fr 15:00; Sa 12:30", "indoor": "yes", "note": "ON 12/24 AND 12/31, THIS BOX MAY BE COLLECTED AS EARLY AS 12 NOON.", "nsi_id": "unitedstatespostalservice-a77078", "operator": "United States Postal Service", "operator:short": "USPS", "operator:type": "public", "operator:wikidata": "Q668687", "ref": "5624500002"}, "type": "Feature"}
{"geometry": {"coordinates": [-96.142684303, 45.807851056], "type": "Point"}, "id": "SSfw9Wuqlp3ct18iRsy3g2XEYqg=", "properties": {"@source_uri": "https://tools.usps.com/UspsToolsRestServices/rest/POLocator/findLocations", "@spider": "usps_collection_boxes", "addr:city": "HERMAN", "addr:country": "US", "addr:postcode": "56248", "addr:state": "MN", "addr:street_address": "410 ATLANTIC AVE", "amenity": "post_box", "collection_times": "Mo-Sa 13:30", "note": "ON 12/24 AND 12/31, THIS BOX MAY BE COLLECTED AS EARLY AS 12 NOON.", "nsi_id": "unitedstatespostalservice-a77078", "operator": "United States Postal Service", "operator:short": "USPS", "operator:type": "public", "operator:wikidata": "Q668687", "ref": "5624800000"}, "type": "Feature"}
{"geometry": {"coordinates": [-96.1426614286, 45.807840394], "type": "Point"}, "id": "E9-jZRGAiaQJTbFlinQPsA3Hc38=", "properties": {"@source_uri": "https://tools.usps.com/UspsToolsRestServices/rest/POLocator/findLocations", "@spider": "usps_collection_boxes", "addr:city": "HERMAN", "addr:country": "US", "addr:postcode": "56248", "addr:state": "MN", "addr:street_address": "410 ATLANTIC AVE", "amenity": "post_box", "collection_times": "Mo-Fr 13:30; Sa 09:30", "indoor": "yes", "note": "ON 12/24 AND 12/31, THIS BOX MAY BE COLLECTED AS EARLY AS 12 NOON.", "nsi_id": "unitedstatespostalservice-a77078", "operator": "United States Postal Service", "operator:short": "USPS", "operator:type": "public", "operator:wikidata": "Q668687", "ref": "5624800001"}, "type": "Feature"}
{"geometry": {"coordinates": [-96.1426614286, 45.807840394], "type": "Point"}, "id": "epBAgcq2wT_qiKiIRCacFlm1Ae0=", "properties": {"@source_uri": "https://tools.usps.com/UspsToolsRestServices/rest/POLocator/findLocations", "@spider": "usps_collection_boxes", "addr:city": "HERMAN", "addr:country": "US", "addr:postcode": "56248", "addr:state": "MN", "addr:street_address": "410 ATLANTIC AVE N", "amenity": "post_box", "collection_times": "Mo-Fr 13:30; Sa 09:30", "indoor": "yes", "note": "ON 12/24 AND 12/31, THIS BOX MAY BE COLLECTED AS EARLY AS 12 NOON.", "nsi_id": "unitedstatespostalservice-a77078", "operator": "United States Postal Service", "operator:short": "USPS", "operator:type": "public", "operator:wikidata": "Q668687", "ref": "5624800002"}, "type": "Feature"}
{"geometry": {"coordinates": [-95.909554552, 45.248684811], "type": "Point"}, "id": "WwqS04Y3gPjeJPLpjUKbPoqj7gs=", "properties": {"@source_uri": "https://tools.usps.com/UspsToolsRestServices/rest/POLocator/findLocations", "@spider": "usps_collection_boxes", "addr:city": "HOLLOWAY", "addr:country": "US", "addr:postcode": "56249", "addr:state": "MN", "addr:street_address": "121 RAND ST", "amenity": "post_box", "collection_times": "Mo-Sa 14:00", "note": "ON 12/24 AND 12/31, THIS BOX MAY BE COLLECTED AS EARLY AS 12 NOON.", "nsi_id": "unitedstatespostalservice-a77078", "operator": "United States Postal Service", "operator:short": "USPS", "operator:type": "public", "operator:wikidata": "Q668687", "ref": "5624900000"}, "type": "Feature"}
{"geometry": {"coordinates": [-95.909554552, 45.248684811], "type": "Point"}, "id": "7VgOzJmT1BFIjHBOD_pGauK_Jec=", "properties": {"@source_uri": "https://tools.usps.com/UspsToolsRestServices/rest/POLocator/findLocations", "@spider": "usps_collection_boxes", "addr:city": "HOLLOWAY", "addr:country": "US", "addr:postcode": "56249", "addr:state": "MN", "addr:street_address": "121 RAND ST", "amenity": "post_box", "collection_times": "Mo-Fr 14:00; Sa 11:00", "indoor": "yes", "note": "ON 12/24 AND 12/31, THIS BOX MAY BE COLLECTED AS EARLY AS 12 NOON.", "nsi_id": "unitedstatespostalservice-a77078", "operator": "United States Postal Service", "operator:short": "USPS", "operator:type": "public", "operator:wikidata": "Q668687", "ref": "5624900001"}, "type": "Feature"}
{"geometry": {"coordinates": [-95.909554552, 45.248684811], "type": "Point"}, "id": "FiHYHrV9j0xnskFRYAdHlQeVgWw=", "properties": {"@source_uri": "https://tools.usps.com/UspsToolsRestServices/rest/POLocator/findLocations", "@spider": "usps_collection_boxes", "addr:city": "HOLLOWAY", "addr:country": "US", "addr:postcode": "56249", "addr:state": "MN", "addr:street_address": "121 RAND ST", "amenity": "post_box", "collection_times": "Mo-Fr 14:00; Sa 11:00", "indoor": "yes", "note": "ON 12/24 AND 12/31, THIS BOX MAY BE COLLECTED AS EARLY AS 12 NOON.", "nsi_id": "unitedstatespostalservice-a77078", "operator": "United States Postal Service", "operator:short": "USPS", "operator:type": "public", "operator:wikidata": "Q668687", "ref": "5624900002"}, "type": "Feature"}
{"geometry": {"coordinates": [-94.928639359, 45.132543512], "type": "Point"}, "id": "R81BV8zITRBO022Tvrsuy1rOggE=", "properties": {"@source_uri": "https://tools.usps.com/UspsToolsRestServices/rest/POLocator/findLocations", "@spider": "usps_collection_boxes", "addr:city": "KANDIYOHI", "addr:country": "US", "addr:postcode": "56251", "addr:state": "MN", "addr:street_address": "224 ATLANTIC AVE", "amenity": "post_box", "collection_times": "Mo-Sa 15:00", "note": "ON 12/24 AND 12/31, THIS BOX MAY BE COLLECTED AS EARLY AS 12 NOON.", "nsi_id": "unitedstatespostalservice-a77078", "operator": "United States Postal Service", "operator:short": "USPS", "operator:type": "public", "operator:wikidata": "Q668687", "ref": "5625100000"}, "type": "Feature"}
{"geometry": {"coordinates": [-94.928639359, 45.132543512], "type": "Point"}, "id": "r4yhB_ah7s6T2EGB8Pq9IVV9OIw=", "properties": {"@source_uri": "https://tools.usps.com/UspsToolsRestServices/rest/POLocator/findLocations", "@spider": "usps_collection_boxes", "addr:city": "KANDIYOHI", "addr:country": "US", "addr:postcode": "56251", "addr:state": "MN", "addr:street_address": "224 ATLANTIC AVE", "amenity": "post_box", "collection_times": "Mo-Fr 11:30; Sa 09:15", "indoor": "yes", "nsi_id": "unitedstatespostalservice-a77078", "operator": "United States Postal Service", "operator:short": "USPS", "operator:type": "public", "operator:wikidata": "Q668687", "ref": "5625100001"}, "type": "Feature"}
{"geometry": {"coordinates": [-94.928639359, 45.132543512], "type": "Point"}, "id": "WUH1N2X_qLA8QfSx2MAIGt5hb2I=", "properties": {"@source_uri": "https://tools.usps.com/UspsToolsRestServices/rest/POLocator/findLocations", "@spider": "usps_collection_boxes", "addr:city": "KANDIYOHI", "addr:country": "US", "addr:postcode": "56251", "addr:state": "MN", "addr:street_address": "224 ATLANTIC AVE", "amenity": "post_box", "collection_times": "Mo-Fr 11:30; Sa 09:15", "indoor": "yes", "nsi_id": "unitedstatespostalservice-a77078", "operator": "United States Postal Service", "operator:short": "USPS", "operator:type": "public", "operator:wikidata": "Q668687", "ref": "5625100002"}, "type": "Feature"}
{"geometry": {"coordinates": [-95.315487038, 45.1909279987], "type": "Point"}, "id": "60hlvHM8FFnV0jMYIDPKGIm_Fkc=", "properties": {"@source_uri": "https://tools.usps.com/UspsToolsRestServices/rest/POLocator/findLocations", "@spider": "usps_collection_boxes", "addr:city": "KERKHOVEN", "addr:country": "US", "addr:postcode": "56252", "addr:state": "MN", "addr:street_address": "903 ATLANTIC AVE", "amenity": "post_box", "collection_times": "Mo-Sa 15:15", "note": "ON 12/24 AND 12/31, THIS BOX MAY BE COLLECTED AS EARLY AS 12 NOON.", "nsi_id": "unitedstatespostalservice-a77078", "operator": "United States Postal Service", "operator:short": "USPS", "operator:type": "public", "operator:wikidata": "Q668687", "ref": "5625200000"}, "type": "Feature"}
{"geometry": {"coordinates": [-95.315590373, 45.1906969231], "type": "Point"}, "id": "mHKcrpdCovI0EI1CGSA7J9eiHIM=", "properties": {"@source_uri": "https://tools.usps.com/UspsToolsRestServices/rest/POLocator/findLocations", "@spider": "usps_collection_boxes", "addr:city": "KERKHOVEN", "addr:country": "US", "addr:postcode": "56252", "addr:state": "MN", "addr:street_address": "903 ATLANTIC AVE", "amenity": "post_box", "collection_times": "Mo-Fr 14:00; Sa 10:00", "indoor": "yes", "note": "ON 12/24 AND 12/31, THIS BOX MAY BE COLLECTED AS EARLY AS 12 NOON.", "nsi_id": "unitedstatespostalservice-a77078", "operator": "United States Postal Service", "operator:short": "USPS", "operator:type": "public", "operator:wikidata": "Q668687", "ref": "5625200001"}, "type": "Feature"}
{"geometry": {"coordinates": [-95.315590373, 45.1906969231], "type": "Point"}, "id": "npvpccmDoZfmQQ998UhSQ0st76k=", "properties": {"@source_uri": "https://tools.usps.com/UspsToolsRestServices/rest/POLocator/findLocations", "@spider": "usps_collection_boxes", "addr:city": "KERKHOVEN", "addr:country": "US", "addr:postcode": "56252", "addr:state": "MN", "addr:street_address": "903 ATLANTIC AVE", "amenity": "post_box", "collection_times": "Mo-Fr 14:00; Sa 09:45", "indoor": "yes", "note": "ON 12/24 AND 12/31, THIS BOX MAY BE COLLECTED AS EARLY AS 12 NOON.", "nsi_id": "unitedstatespostalservice-a77078", "operator": "United States Postal Service", "operator:short": "USPS", "operator:type": "public", "operator:wikidata": "Q668687", "ref": "5625200002"}, "type": "Feature"}
{"geometry": {"coordinates": [-94.8801648284, 44.9444720267], "type": "Point"}, "id": "VVPU-Pt2AbLnBj_kbteKcIZLcW4=", "properties": {"@source_uri": "https://tools.usps.com/UspsToolsRestServices/rest/POLocator/findLocations", "@spider": "usps_collection_boxes", "addr:city": "LAKE LILLIAN", "addr:country": "US", "addr:postcode": "56253", "addr:state": "MN", "addr:street_address": "454 LAKEVIEW ST", "amenity": "post_box", "collection_times": "Mo-Sa 13:30", "note": "ON 12/24 AND 12/31, THIS BOX MAY BE COLLECTED AS EARLY AS 12 NOON.", "nsi_id": "unitedstatespostalservice-a77078", "operator": "United States Postal Service", "operator:short": "USPS", "operator:type": "public", "operator:wikidata": "Q668687", "ref": "5625300000"}, "type": "Feature"}
{"geometry": {"coordinates": [-94.880143624, 44.944300599], "type": "Point"}, "id": "4nvnrFBDded21CmrRw7zlbLZoZM=", "properties": {"@source_uri": "https://tools.usps.com/UspsToolsRestServices/rest/POLocator/findLocations", "@spider": "usps_collection_boxes", "addr:city": "LAKE LILLIAN", "addr:country": "US", "addr:postcode": "56253", "addr:state": "MN", "addr:street_address": "454 LAKEVIEW ST", "amenity": "post_box", "collection_times": "Mo-Fr 13:15", "indoor": "yes", "note": "ON 12/24 AND 12/31, THIS BOX MAY BE COLLECTED AS EARLY AS 12 NOON.", "nsi_id": "unitedstatespostalservice-a77078", "operator": "United States Postal Service", "operator:short": "USPS", "operator:type": "public", "operator:wikidata": "Q668687", "ref": "5625300001"}, "type": "Feature"}
{"geometry": {"coordinates": [-94.880143624, 44.944300599], "type": "Point"}, "id": "gAnD5xAHkyV_e6hrYePgLFcf_-s=", "properties": {"@source_uri": "https://tools.usps.com/UspsToolsRestServices/rest/POLocator/findLocations", "@spider": "usps_collection_boxes", "addr:city": "LAKE LILLIAN", "addr:country": "US", "addr:postcode": "56253", "addr:state": "MN", "addr:street_address": "454 LAKEVIEW ST", "amenity": "post_box", "collection_times": "Mo-Fr 13:15", "indoor": "yes", "note": "ON 12/24 AND 12/31, THIS BOX MAY BE COLLECTED AS EARLY AS 12 NOON.", "nsi_id": "unitedstatespostalservice-a77078", "operator": "United States Postal Service", "operator:short": "USPS", "operator:type": "public", "operator:wikidata": "Q668687", "ref": "5625300002"}, "type": "Feature"}
{"geometry": {"coordinates": [-95.410812488, 44.410554335], "type": "Point"}, "id": "DClEdjuVIYNwDz7rFrsXmBA2_og=", "properties": {"@source_uri": "https://tools.usps.com/UspsToolsRestServices/rest/POLocator/findLocations", "@spider": "usps_collection_boxes", "addr:city": "LUCAN", "addr:country": "US", "addr:postcode": "56255", "addr:state": "MN", "addr:street_address": "108 MAIN ST", "amenity": "post_box", "collection_times": "Mo-Sa 12:45", "note": "ON 12/24 AND 12/31, THIS BOX MAY BE COLLECTED AS EARLY AS 12 NOON.", "nsi_id": "unitedstatespostalservice-a77078", "operator": "United States Postal Service", "operator:short": "USPS", "operator:type": "public", "operator:wikidata": "Q668687", "ref": "5625500000"}, "type": "Feature"}
{"geometry": {"coordinates": [-95.410812488, 44.410554335], "type": "Point"}, "id": "Y4BLtgyP6FvFMLF2kU1Z1bJGGq0=", "properties": {"@source_uri": "https://tools.usps.com/UspsToolsRestServices/rest/POLocator/findLocations", "@spider": "usps_collection_boxes", "addr:city": "LUCAN", "addr:country": "US", "addr:postcode": "56255", "addr:state": "MN", "addr:street_address": "108 MAIN ST", "amenity": "post_box", "collection_times": "Mo-Fr 12:00; Sa 09:45", "indoor": "yes", "nsi_id": "unitedstatespostalservice-a77078", "operator": "United States Postal Service", "operator:short": "USPS", "operator:type": "public", "operator:wikidata": "Q668687", "ref": "5625500001"}, "type": "Feature"}
{"geometry": {"coordinates": [-95.410812488, 44.410554335], "type": "Point"}, "id": "zWrx-YwAs6UXyV8xI1LGuZrb0TU=", "properties": {"@source_uri": "https://tools.usps.com/UspsToolsRestServices/rest/POLocator/findLocations", "@spider": "usps_collection_boxes", "addr:city": "LUCAN", "addr:country": "US", "addr:postcode": "56255", "addr:state": "MN", "addr:street_address": "108 MAIN ST", "amenity": "post_box", "collection_times": "Mo-Fr 12:00; Sa 09:45", "indoor": "yes", "nsi_id": "unitedstatespostalservice-a77078", "operator": "United States Postal Service", "operator:short": "USPS", "operator:type": "public", "operator:wikidata": "Q668687", "ref": "5625500002"}, "type": "Feature"}
{"geometry": {"coordinates": [-96.194796346, 45.009692865], "type": "Point"}, "id": "6cD1GrSwy_l3Px_PMJie97-apkU=", "properties": {"@source_uri": "https://tools.usps.com/UspsToolsRestServices/rest/POLocator/findLocations", "@spider": "usps_collection_boxes", "addr:city": "MADISON", "addr:country": "US", "addr:postcode": "56256", "addr:state": "MN", "addr:street_address": "711 1ST ST W", "amenity": "post_box", "collection_times": "Mo-Fr 13:00; Sa 09:30", "note": "ON 12/24 AND 12/31, THIS BOX MAY BE COLLECTED AS EARLY AS 12 NOON.", "nsi_id": "unitedstatespostalservice-a77078", "operator": "United States Postal Service", "operator:short": "USPS", "operator:type": "public", "operator:wikidata": "Q668687", "ref": "5625600000"}, "type": "Feature"}
{"geometry": {"coordinates": [-96.194796346, 45.009692865], "type": "Point"}, "id": "3qXMWAufhW6LimmJ90djJiKAB7s=", "properties": {"@source_uri": "https://tools.usps.com/UspsToolsRestServices/rest/POLocator/findLocations", "@spider": "usps_collection_boxes", "addr:city": "MADISON", "addr:country": "US", "addr:postcode": "56256", "addr:state": "MN", "addr:street_address": "711 1ST ST W", "amenity": "post_box", "collection_times": "Mo-Fr 13:00; Sa 09:30", "indoor": "yes", "note": "ON 12/24 AND 12/31, THIS BOX MAY BE COLLECTED AS EARLY AS 12 NOON.", "nsi_id": "unitedstatespostalservice-a77078", "operator": "United States Postal Service", "operator:short": "USPS", "operator:type": "public", "operator:wikidata": "Q668687", "ref": "5625600005"}, "type": "Feature"}
{"geometry": {"coordinates": [-96.194796346, 45.009692865], "type": "Point"}, "id": "yAH0i_cV4HZdlQV8TM6SCP7BxnY=", "properties": {"@source_uri": "https://tools.usps.com/UspsToolsRestServices/rest/POLocator/findLocations", "@spider": "usps_collection_boxes", "addr:city": "MADISON", "addr:country": "US", "addr:postcode": "56256", "addr:state": "MN", "addr:street_address": "711 1ST ST W", "amenity": "post_box", "collection_times": "Mo-Fr 13:00", "indoor": "yes", "note": "ON 12/24 AND 12/31, THIS BOX MAY BE COLLECTED AS EARLY AS 12 NOON.", "nsi_id": "unitedstatespostalservice-a77078", "operator": "United States Postal Service", "operator:short": "USPS", "operator:type": "public", "operator:wikidata": "Q668687", "ref": "5625600010"}, "type": "Feature"}
{"geometry": {"coordinates": [-96.417660328, 45.008589328], "type": "Point"}, "id": "plJVCo3OOilUFjwkWi_3b3KlSZI=", "properties": {"@source_uri": "https://tools.usps.com/UspsToolsRestServices/rest/POLocator/findLocations", "@spider": "usps_collection_boxes", "addr:city": "MARIETTA", "addr:country": "US", "addr:postcode": "56257", "addr:state": "MN", "addr:street_address": "200 3RD AVE N", "amenity": "post_box", "collection_times": "Mo-Sa 12:00", "nsi_id": "unitedstatespostalservice-a77078", "operator": "United States Postal Service", "operator:short": "USPS", "operator:type": "public", "operator:wikidata": "Q668687", "ref": "5625700000"}, "type": "Feature"}
{"geometry": {"coordinates": [-96.417660328, 45.008589328], "type": "Point"}, "id": "uq9zKn-t2abjfx_vp0k0yEgaBYE=", "properties": {"@source_uri": "https://tools.usps.com/UspsToolsRestServices/rest/POLocator/findLocations", "@spider": "usps_collection_boxes", "addr:city": "MARIETTA", "addr:country": "US", "addr:postcode": "56257", "addr:state": "MN", "addr:street_address": "200 3RD AVE N", "amenity": "post_box", "collection_times": "Mo-Fr 12:00; Sa 10:45", "indoor": "yes", "nsi_id": "unitedstatespostalservice-a77078", "operator": "United States Postal Service", "operator:short": "USPS", "operator:type": "public", "operator:wikidata": "Q668687", "ref": "5625700001"}, "type": "Feature"}
{"geometry": {"coordinates": [-96.442553652, 45.067205275], "type": "Point"}, "id": "Tnms4OVAGHQQVVyxxwkEsxj80vY=", "properties": {"@source_uri": "https://tools.usps.com/UspsToolsRestServices/rest/POLocator/findLocations", "@spider": "usps_collection_boxes", "addr:city": "MARIETTA", "addr:country": "US", "addr:postcode": "56257", "addr:state": "MN", "addr:street_address": "202 4TH ST", "amenity": "post_box", "collection_times": "Mo-Sa 12:30", "note": "ON 12/24 AND 12/31, THIS BOX MAY BE COLLECTED AS EARLY AS 12 NOON.", "nsi_id": "unitedstatespostalservice-a77078", "operator": "United States Postal Service", "operator:short": "USPS", "operator:type": "public", "operator:wikidata": "Q668687", "ref": "5625700002"}, "type": "Feature"}
{"geometry": {"coordinates": [-96.417660328, 45.008589328], "type": "Point"}, "id": "u90IbGiaJRlLe1jthrywG0alghU=", "properties": {"@source_uri": "https://tools.usps.com/UspsToolsRestServices/rest/POLocator/findLocations", "@spider": "usps_collection_boxes", "addr:city": "MARIETTA", "addr:country": "US", "addr:postcode": "56257", "addr:state": "MN", "addr:street_address": "200 3RD AVE N", "amenity": "post_box", "collection_times": "Mo-Fr 12:00; Sa 11:00", "indoor": "yes", "nsi_id": "unitedstatespostalservice-a77078", "operator": "United States Postal Service", "operator:short": "USPS", "operator:type": "public", "operator:wikidata": "Q668687", "ref": "5625700003"}, "type": "Feature"}
{"geometry": {"coordinates": [-95.7888660002, 44.4488320101], "type": "Point"}, "id": "rrzoYPHhWGb0Epz0HD-7AWozZeY=", "properties": {"@source_uri": "https://tools.usps.com/UspsToolsRestServices/rest/POLocator/findLocations", "@spider": "usps_collection_boxes", "addr:city": "MARSHALL", "addr:country": "US", "addr:postcode": "56258", "addr:state": "MN", "addr:street_address": "302 W LYON ST", "amenity": "post_box", "collection_times": "Mo-Sa 14:15", "note": "ON 12/24 AND 12/31, THIS BOX MAY BE COLLECTED AS EARLY AS 12 NOON.", "nsi_id": "unitedstatespostalservice-a77078", "operator": "United States Postal Service", "operator:short": "USPS", "operator:type": "public", "operator:wikidata": "Q668687", "ref": "5625800001"}, "type": "Feature"}
{"geometry": {"coordinates": [-95.789137057, 44.448680702], "type": "Point"}, "id": "W-epl5Ae3N5JBz-SRVPxYtRl-P8=", "properties": {"@source_uri": "https://tools.usps.com/UspsToolsRestServices/rest/POLocator/findLocations", "@spider": "usps_collection_boxes", "addr:city": "MARSHALL", "addr:country": "US", "addr:postcode": "56258", "addr:state": "MN", "addr:street_address": "302 W LYON ST", "amenity": "post_box", "collection_times": "Mo-Sa 14:15", "indoor": "yes", "note": "ON 12/24 AND 12/31, THIS BOX MAY BE COLLECTED AS EARLY AS 12 NOON.", "nsi_id": "unitedstatespostalservice-a77078", "operator": "United States Postal Service", "operator:short": "USPS", "operator:type": "public", "operator:wikidata": "Q668687", "ref": "5625800024"}, "type": "Feature"}
{"geometry": {"coordinates": [-95.770991515, 44.433624275], "type": "Point"}, "id": "zfE08i9LNGp-U1WWbc3w4uF9_aM=", "properties": {"@source_uri": "https://tools.usps.com/UspsToolsRestServices/rest/POLocator/findLocations", "@spider": "usps_collection_boxes", "addr:city": "MARSHALL", "addr:country": "US", "addr:postcode": "56258", "addr:state": "MN", "addr:street_address": "1221 E MAIN ST", "amenity": "post_box", "collection_times": "Mo-Sa 08:45", "nsi_id": "unitedstatespostalservice-a77078", "operator": "United States Postal Service", "operator:short": "USPS", "operator:type": "public", "operator:wikidata": "Q668687", "ref": "5625800026"}, "type": "Feature"}
{"geometry": {"coordinates": [-95.789137057, 44.448680702], "type": "Point"}, "id": "cS_XUpNjH8mgIuCdGpw332i8MVo=", "properties": {"@source_uri": "https://tools.usps.com/UspsToolsRestServices/rest/POLocator/findLocations", "@spider": "usps_collection_boxes", "addr:city": "MARSHALL", "addr:country": "US", "addr:postcode": "56258", "addr:state": "MN", "addr:street_address": "302 W LYON ST", "amenity": "post_box", "collection_times": "Mo-Fr 14:15; Sa 11:00", "indoor": "yes", "note": "ON 12/24 AND 12/31, THIS BOX MAY BE COLLECTED AS EARLY AS 12 NOON.", "nsi_id": "unitedstatespostalservice-a77078", "operator": "United States Postal Service", "operator:short": "USPS", "operator:type": "public", "operator:wikidata": "Q668687", "ref": "5625800030"}, "type": "Feature"}
{"geometry": {"coordinates": [-95.469464008, 44.906779661], "type": "Point"}, "id": "Rt9M0ljxuUi9JUKwjiBAdvCa1uY=", "properties": {"@source_uri": "https://tools.usps.com/UspsToolsRestServices/rest/POLocator/findLocations", "@spider": "usps_collection_boxes", "addr:city": "MAYNARD", "addr:country": "US", "addr:postcode": "56260", "addr:state": "MN", "addr:street_address": "350 SPICER AVE", "amenity": "post_box", "collection_times": "Mo-Sa 14:45", "note": "ON 12/24 AND 12/31, THIS BOX MAY BE COLLECTED AS EARLY AS 12 NOON.", "nsi_id": "unitedstatespostalservice-a77078", "operator": "United States Postal Service", "operator:short": "USPS", "operator:type": "public", "operator:wikidata": "Q668687", "ref": "5626000000"}, "type": "Feature"}
{"geometry": {"coordinates": [-95.469464008, 44.906779661], "type": "Point"}, "id": "ArjIMUEAEYqiFknlBmemOqe260U=", "properties": {"@source_uri": "https://tools.usps.com/UspsToolsRestServices/rest/POLocator/findLocations", "@spider": "usps_collection_boxes", "addr:city": "MAYNARD", "addr:country": "US", "addr:postcode": "56260", "addr:state": "MN", "addr:street_address": "350 SPICER AVE", "amenity": "post_box", "collection_times": "Mo-Fr 11:00; Sa 08:30", "indoor": "yes", "nsi_id": "unitedstatespostalservice-a77078", "operator": "United States Postal Service", "operator:short": "USPS", "operator:type": "public", "operator:wikidata": "Q668687", "ref": "5626000001"}, "type": "Feature"}
{"geometry": {"coordinates": [-95.469464008, 44.906779661], "type": "Point"}, "id": "CfTW-N5LLkzKlMb29B0h-e33FaI=", "properties": {"@source_uri": "https://tools.usps.com/UspsToolsRestServices/rest/POLocator/findLocations", "@spider": "usps_collection_boxes", "addr:city": "MAYNARD", "addr:country": "US", "addr:postcode": "56260", "addr:state": "MN", "addr:street_address": "350 SPICER AVE", "amenity": "post_box", "collection_times": "Mo-Fr 11:00", "indoor": "yes", "nsi_id": "unitedstatespostalservice-a77078", "operator": "United States Postal Service", "operator:short": "USPS", "operator:type": "public", "operator:wikidata": "Q668687", "ref": "5626000002"}, "type": "Feature"}
{"geometry": {"coordinates": [-95.911442944, 45.110816665], "type": "Point"}, "id": "lCn4iV95DfT2bSYr9o0ktwhTnQo=", "properties": {"@source_uri": "https://tools.usps.com/UspsToolsRestServices/rest/POLocator/findLocations", "@spider": "usps_collection_boxes", "addr:city": "MILAN", "addr:country": "US", "addr:postcode": "56262", "addr:state": "MN", "addr:street_address": "222 N 2ND ST", "amenity": "post_box", "collection_times": "Mo-Sa 13:30", "note": "ON 12/24 AND 12/31, THIS BOX MAY BE COLLECTED AS EARLY AS 12 NOON.", "nsi_id": "unitedstatespostalservice-a77078", "operator": "United States Postal Service", "operator:short": "USPS", "operator:type": "public", "operator:wikidata": "Q668687", "ref": "5626200000"}, "type": "Feature"}
{"geometry": {"coordinates": [-95.911442944, 45.110816665], "type": "Point"}, "id": "T8UzlVIKyisT-JMvtUSjVScmt_A=", "properties": {"@source_uri": "https://tools.usps.com/UspsToolsRestServices/rest/POLocator/findLocations", "@spider": "usps_collection_boxes", "addr:city": "MILAN", "addr:country": "US", "addr:postcode": "56262", "addr:state": "MN", "addr:street_address": "222 N 2ND ST", "amenity": "post_box", "collection_times": "Mo-Fr 11:15; Sa 09:15", "indoor": "yes", "nsi_id": "unitedstatespostalservice-a77078", "operator": "United States Postal Service", "operator:short": "USPS", "operator:type": "public", "operator:wikidata": "Q668687", "ref": "5626200001"}, "type": "Feature"}
{"geometry": {"coordinates": [-95.911442944, 45.110816665], "type": "Point"}, "id": "H7YREDDd_z_f3KrLwmffVqP4oks=", "properties": {"@source_uri": "https://tools.usps.com/UspsToolsRestServices/rest/POLocator/findLocations", "@spider": "usps_collection_boxes", "addr:city": "MILAN", "addr:country": "US", "addr:postcode": "56262", "addr:state": "MN", "addr:street_address": "222 N 2ND ST", "amenity": "post_box", "collection_times": "Mo-Fr 11:15; Sa 09:15", "indoor": "yes", "nsi_id": "unitedstatespostalservice-a77078", "operator": "United States Postal Service", "operator:short": "USPS", "operator:type": "public", "operator:wikidata": "Q668687", "ref": "5626200002"}, "type": "Feature"}
{"geometry": {"coordinates": [-95.5534260478, 44.4180350063], "type": "Point"}, "id": "CFtgpPqvdJENbRlsQva7NDCUg0s=", "properties": {"@source_uri": "https://tools.usps.com/UspsToolsRestServices/rest/POLocator/findLocations", "@spider": "usps_collection_boxes", "addr:city": "MILROY", "addr:country": "US", "addr:postcode": "56263", "addr:state": "MN", "addr:street_address": "404 EUCLID AVE", "amenity": "post_box", "collection_times": "Mo-Sa 12:15", "note": "ON 12/24 AND 12/31, THIS BOX MAY BE COLLECTED AS EARLY AS 12 NOON.", "nsi_id": "unitedstatespostalservice-a77078", "operator": "United States Postal Service", "operator:short": "USPS", "operator:type": "public", "operator:wikidata": "Q668687", "ref": "5626300000"}, "type": "Feature"}
{"geometry": {"coordinates": [-95.553472, 44.418132671], "type": "Point"}, "id": "rchWYyA7utwH3b2-q8xWlx9KCV8=", "properties": {"@source_uri": "https://tools.usps.com/UspsToolsRestServices/rest/POLocator/findLocations", "@spider": "usps_collection_boxes", "addr:city": "MILROY", "addr:country": "US", "addr:postcode": "56263", "addr:state": "MN", "addr:street_address": "404 EUCLID AVE", "amenity": "post_box", "collection_times": "Mo-Fr 12:15; Sa 09:15", "indoor": "yes", "note": "ON 12/24 AND 12/31, THIS BOX MAY BE COLLECTED AS EARLY AS 12 NOON.", "nsi_id": "unitedstatespostalservice-a77078", "operator": "United States Postal Service", "operator:short": "USPS", "operator:type": "public", "operator:wikidata": "Q668687", "ref": "5626300001"}, "type": "Feature"}
{"geometry": {"coordinates": [-95.553472, 44.418132671], "type": "Point"}, "id": "zrS__WOp3dwfdb-bXMm5xxeJKL0=", "properties": {"@source_uri": "https://tools.usps.com/UspsToolsRestServices/rest/POLocator/findLocations", "@spider": "usps_collection_boxes", "addr:city": "MILROY", "addr:country": "US", "addr:postcode": "56263", "addr:state": "MN", "addr:street_address": "404 EUCLID AVE", "amenity": "post_box", "collection_times": "Mo-Fr 12:15; Sa 10:15", "indoor": "yes", "note": "ON 12/24 AND 12/31, THIS BOX MAY BE COLLECTED AS EARLY AS 12 NOON.", "nsi_id": "unitedstatespostalservice-a77078", "operator": "United States Postal Service", "operator:short": "USPS", "operator:type": "public", "operator:wikidata": "Q668687", "ref": "5626300002"}, "type": "Feature"}
{"geometry": {"coordinates": [-95.987781409, 44.559799962], "type": "Point"}, "id": "A1P-d75K3BoI_Od4ag39PHPwdJY=", "properties": {"@source_uri": "https://tools.usps.com/UspsToolsRestServices/rest/POLocator/findLocations", "@spider": "usps_collection_boxes", "addr:city": "MINNEOTA", "addr:country": "US", "addr:postcode": "56264", "addr:state": "MN", "addr:street_address": "114 E 1ST ST", "amenity": "post_box", "collection_times": "Mo-Sa 13:45", "note": "ON 12/24 AND 12/31, THIS BOX MAY BE COLLECTED AS EARLY AS 12 NOON.", "nsi_id": "unitedstatespostalservice-a77078", "operator": "United States Postal Service", "operator:short": "USPS", "operator:type": "public", "operator:wikidata": "Q668687", "ref": "5626400002"}, "type": "Feature"}
{"geometry": {"coordinates": [-95.987781409, 44.559799962], "type": "Point"}, "id": "fiiC4IEOrFH7HxxFCPCS2_hWN5k=", "properties": {"@source_uri": "https://tools.usps.com/UspsToolsRestServices/rest/POLocator/findLocations", "@spider": "usps_collection_boxes", "addr:city": "MINNEOTA", "addr:country": "US", "addr:postcode": "56264", "addr:state": "MN", "addr:street_address": "114 E 1ST ST", "amenity": "post_box", "collection_times": "Mo-Fr 13:45; Sa 09:30", "indoor": "yes", "note": "ON 12/24 AND 12/31, THIS BOX MAY BE COLLECTED AS EARLY AS 12 NOON.", "nsi_id": "unitedstatespostalservice-a77078", "operator": "United States Postal Service", "operator:short": "USPS", "operator:type": "public", "operator:wikidata": "Q668687", "ref": "5626400003"}, "type": "Feature"}
{"geometry": {"coordinates": [-95.987781409, 44.559799962], "type": "Point"}, "id": "i6lCYQnfEOBq-2pPtzqxOi8wQss=", "properties": {"@source_uri": "https://tools.usps.com/UspsToolsRestServices/rest/POLocator/findLocations", "@spider": "usps_collection_boxes", "addr:city": "MINNEOTA", "addr:country": "US", "addr:postcode": "56264", "addr:state": "MN", "addr:street_address": "114 E 1ST ST", "amenity": "post_box", "collection_times": "Mo-Fr 13:45; Sa 09:30", "indoor": "yes", "note": "ON 12/24 AND 12/31, THIS BOX MAY BE COLLECTED AS EARLY AS 12 NOON.", "nsi_id": "unitedstatespostalservice-a77078", "operator": "United States Postal Service", "operator:short": "USPS", "operator:type": "public", "operator:wikidata": "Q668687", "ref": "5626400004"}, "type": "Feature"}
{"geometry": {"coordinates": [-95.7236019, 44.943355247], "type": "Point"}, "id": "c33HS3n5r4Cv4bmwq3pJ01x8oYc=", "properties": {"@source_uri": "https://tools.usps.com/UspsToolsRestServices/rest/POLocator/findLocations", "@spider": "usps_collection_boxes", "addr:city": "MONTEVIDEO", "addr:country": "US", "addr:postcode": "56265", "addr:state": "MN", "addr:street_address": "316 S 1ST ST", "amenity": "post_box", "collection_times": "Mo-Fr 14:15; Sa 11:00", "note": "ON 12/24 AND 12/31, THIS BOX MAY BE COLLECTED AS EARLY AS 12 NOON.", "nsi_id": "unitedstatespostalservice-a77078", "operator": "United States Postal Service", "operator:short": "USPS", "operator:type": "public", "operator:wikidata": "Q668687", "ref": "5626500000"}, "type": "Feature"}
{"geometry": {"coordinates": [-95.724369722, 44.945542195], "type": "Point"}, "id": "EjnTQY8F6CEB62zOa6CwcPEFCds=", "properties": {"@source_uri": "https://tools.usps.com/UspsToolsRestServices/rest/POLocator/findLocations", "@spider": "usps_collection_boxes", "addr:city": "MONTEVIDEO", "addr:country": "US", "addr:postcode": "56265", "addr:state": "MN", "addr:street_address": "107 N 1ST ST", "amenity": "post_box", "collection_times": "Mo-Sa 12:00", "nsi_id": "unitedstatespostalservice-a77078", "operator": "United States Postal Service", "operator:short": "USPS", "operator:type": "public", "operator:wikidata": "Q668687", "ref": "5626500004"}, "type": "Feature"}
{"geometry": {"coordinates": [-95.709943829, 44.950025942], "type": "Point"}, "id": "q8SJjSwa3FcqqlDcQQ9jVOIkWpA=", "properties": {"@source_uri": "https://tools.usps.com/UspsToolsRestServices/rest/POLocator/findLocations", "@spider": "usps_collection_boxes", "addr:city": "MONTEVIDEO", "addr:country": "US", "addr:postcode": "56265", "addr:state": "MN", "addr:street_address": "612 LEGION DR", "amenity": "post_box", "collection_times": "Mo-Sa 12:00", "nsi_id": "unitedstatespostalservice-a77078", "operator": "United States Postal Service", "operator:short": "USPS", "operator:type": "public", "operator:wikidata": "Q668687", "ref": "5626500005"}, "type": "Feature"}
{"geometry": {"coordinates": [-95.71360534, 44.950338403], "type": "Point"}, "id": "01Lzjuj8fex764LwetVgIuHCFMc=", "properties": {"@source_uri": "https://tools.usps.com/UspsToolsRestServices/rest/POLocator/findLocations", "@spider": "usps_collection_boxes", "addr:city": "MONTEVIDEO", "addr:country": "US", "addr:postcode": "56265", "addr:state": "MN", "addr:street_address": "629 N 11TH ST", "amenity": "post_box", "collection_times": "Mo-Sa 12:30", "note": "ON 12/24 AND 12/31, THIS BOX MAY BE COLLECTED AS EARLY AS 12 NOON.", "nsi_id": "unitedstatespostalservice-a77078", "operator": "United States Postal Service", "operator:short": "USPS", "operator:type": "public", "operator:wikidata": "Q668687", "ref": "5626500006"}, "type": "Feature"}
{"geometry": {"coordinates": [-95.7236019, 44.943355247], "type": "Point"}, "id": "mz7I9r2aUp26QgQsEGLhI-eVli8=", "properties": {"@source_uri": "https://tools.usps.com/UspsToolsRestServices/rest/POLocator/findLocations", "@spider": "usps_collection_boxes", "addr:city": "MONTEVIDEO", "addr:country": "US", "addr:postcode": "56265", "addr:state": "MN", "addr:street_address": "316 S 1ST ST", "amenity": "post_box", "collection_times": "Mo-Fr 14:15; Sa 11:00", "indoor": "yes", "note": "ON 12/24 AND 12/31, THIS BOX MAY BE COLLECTED AS EARLY AS 12 NOON.", "nsi_id": "unitedstatespostalservice-a77078", "operator": "United States Postal Service", "operator:short": "USPS", "operator:type": "public", "operator:wikidata": "Q668687", "ref": "5626500012"}, "type": "Feature"}
{"geometry": {"coordinates": [-95.7236019, 44.943355247], "type": "Point"}, "id": "P5e4WEsAMucesucWIQNhT_x20J0=", "properties": {"@source_uri": "https://tools.usps.com/UspsToolsRestServices/rest/POLocator/findLocations", "@spider": "usps_collection_boxes", "addr:city": "MONTEVIDEO", "addr:country": "US", "addr:postcode": "56265", "addr:state": "MN", "addr:street_address": "316 S 1ST ST", "amenity": "post_box", "collection_times": "Mo-Fr 14:15; Sa 11:00", "indoor": "yes", "note": "ON 12/24 AND 12/31, THIS BOX MAY BE COLLECTED AS EARLY AS 12 NOON.", "nsi_id": "unitedstatespostalservice-a77078", "operator": "United States Postal Service", "operator:short": "USPS", "operator:type": "public", "operator:wikidata": "Q668687", "ref": "5626500013"}, "type": "Feature"}
{"geometry": {"coordinates": [-95.713391228, 44.952308735], "type": "Point"}, "id": "Wr8_9sHsLD5-NdHfEgd7osNFJPg=", "properties": {"@source_uri": "https://tools.usps.com/UspsToolsRestServices/rest/POLocator/findLocations", "@spider": "usps_collection_boxes", "addr:city": "MONTEVIDEO", "addr:country": "US", "addr:postcode": "56265", "addr:state": "MN", "addr:street_address": "1109 E HIGHWAY 7", "amenity": "post_box", "collection_times": "Mo-Sa 10:30", "nsi_id": "unitedstatespostalservice-a77078", "operator": "United States Postal Service", "operator:short": "USPS", "operator:type": "public", "operator:wikidata": "Q668687", "ref": "5626500014"}, "type": "Feature"}
{"geometry": {"coordinates": [-95.7236019, 44.943355247], "type": "Point"}, "id": "aMrLwn0uzY5xZj1xPdSLuF_3mXY=", "properties": {"@source_uri": "https://tools.usps.com/UspsToolsRestServices/rest/POLocator/findLocations", "@spider": "usps_collection_boxes", "addr:city": "MONTEVIDEO", "addr:country": "US", "addr:postcode": "56265", "addr:state": "MN", "addr:street_address": "316 S 1ST ST", "amenity": "post_box", "collection_times": "Mo-Fr 14:15; Sa 11:00", "indoor": "yes", "note": "ON 12/24 AND 12/31, THIS BOX MAY BE COLLECTED AS EARLY AS 12 NOON.", "nsi_id": "unitedstatespostalservice-a77078", "operator": "United States Postal Service", "operator:short": "USPS", "operator:type": "public", "operator:wikidata": "Q668687", "ref": "5626500016"}, "type": "Feature"}
{"geometry": {"coordinates": [-94.926609018, 44.416547275], "type": "Point"}, "id": "nPdedh_b0KSOvgIX93D0YG1Xs94=", "properties": {"@source_uri": "https://tools.usps.com/UspsToolsRestServices/rest/POLocator/findLocations", "@spider": "usps_collection_boxes", "addr:city": "MORGAN", "addr:country": "US", "addr:postcode": "56266", "addr:state": "MN", "addr:street_address": "207 VERNON AVE", "amenity": "post_box", "collection_times": "Mo-Sa 14:00", "note": "ON 12/24 AND 12/31, THIS BOX MAY BE COLLECTED AS EARLY AS 12 NOON.", "nsi_id": "unitedstatespostalservice-a77078", "operator": "United States Postal Service", "operator:short": "USPS", "operator:type": "public", "operator:wikidata": "Q668687", "ref": "5626600000"}, "type": "Feature"}
{"geometry": {"coordinates": [-94.926609018, 44.416547275], "type": "Point"}, "id": "tAL7ziYgaJySO4331iFavQw_JqY=", "properties": {"@source_uri": "https://tools.usps.com/UspsToolsRestServices/rest/POLocator/findLocations", "@spider": "usps_collection_boxes", "addr:city": "MORGAN", "addr:country": "US", "addr:postcode": "56266", "addr:state": "MN", "addr:street_address": "207 VERNON AVE", "amenity": "post_box", "collection_times": "Mo-Fr 14:00; Sa 09:00", "indoor": "yes", "note": "ON 12/24 AND 12/31, THIS BOX MAY BE COLLECTED AS EARLY AS 12 NOON.", "nsi_id": "unitedstatespostalservice-a77078", "operator": "United States Postal Service", "operator:short": "USPS", "operator:type": "public", "operator:wikidata": "Q668687", "ref": "5626600001"}, "type": "Feature"}
{"geometry": {"coordinates": [-94.926609018, 44.416547275], "type": "Point"}, "id": "EDeR3x-43CnuHD1g2vY5-QoH2lQ=", "properties": {"@source_uri": "https://tools.usps.com/UspsToolsRestServices/rest/POLocator/findLocations", "@spider": "usps_collection_boxes", "addr:city": "MORGAN", "addr:country": "US", "addr:postcode": "56266", "addr:state": "MN", "addr:street_address": "207 VERNON AVE", "amenity": "post_box", "collection_times": "Mo-Fr 14:00", "indoor": "yes", "note": "ON 12/24 AND 12/31, THIS BOX MAY BE COLLECTED AS EARLY AS 12 NOON.", "nsi_id": "unitedstatespostalservice-a77078", "operator": "United States Postal Service", "operator:short": "USPS", "operator:type": "public", "operator:wikidata": "Q668687", "ref": "5626600002"}, "type": "Feature"}
{"geometry": {"coordinates": [-95.913171071, 45.587603495], "type": "Point"}, "id": "2xi0qUryEp130lEyT7Z_lyvo2nk=", "properties": {"@source_uri": "https://tools.usps.com/UspsToolsRestServices/rest/POLocator/findLocations", "@spider": "usps_collection_boxes", "addr:city": "MORRIS", "addr:country": "US", "addr:postcode": "56267", "addr:state": "MN", "addr:street_address": "102 E 6TH ST", "amenity": "post_box", "collection_times": "Mo-Sa 13:15", "note": "ON 12/24 AND 12/31, THIS BOX MAY BE COLLECTED AS EARLY AS 12 NOON.", "nsi_id": "unitedstatespostalservice-a77078", "operator": "United States Postal Service", "operator:short": "USPS", "operator:type": "public", "operator:wikidata": "Q668687", "ref": "5626700000"}, "type": "Feature"}
{"geometry": {"coordinates": [-95.913214203, 45.587748614], "type": "Point"}, "id": "-Nl3U3bcqUq5USD38H57vG9Fx6A=", "properties": {"@source_uri": "https://tools.usps.com/UspsToolsRestServices/rest/POLocator/findLocations", "@spider": "usps_collection_boxes", "addr:city": "MORRIS", "addr:country": "US", "addr:postcode": "56267", "addr:state": "MN", "addr:street_address": "105 E 6TH ST", "amenity": "post_box", "collection_times": "Mo-Sa 14:15", "note": "ON 12/24 AND 12/31, THIS BOX MAY BE COLLECTED AS EARLY AS 12 NOON.", "nsi_id": "unitedstatespostalservice-a77078", "operator": "United States Postal Service", "operator:short": "USPS", "operator:type": "public", "operator:wikidata": "Q668687", "ref": "5626700002"}, "type": "Feature"}
{"geometry": {"coordinates": [-95.908341735, 45.579829536], "type": "Point"}, "id": "8OwUE2z8HazsCxKb0zwN67_QUY4=", "properties": {"@source_uri": "https://tools.usps.com/UspsToolsRestServices/rest/POLocator/findLocations", "@spider": "usps_collection_boxes", "addr:city": "MORRIS", "addr:country": "US", "addr:postcode": "56267", "addr:state": "MN", "addr:street_address": "103 ATLANTIC AVE", "amenity": "post_box", "collection_times": "Mo-Sa 13:00", "note": "ON 12/24 AND 12/31, THIS BOX MAY BE COLLECTED AS EARLY AS 12 NOON.", "nsi_id": "unitedstatespostalservice-a77078", "operator": "United States Postal Service", "operator:short": "USPS", "operator:type": "public", "operator:wikidata": "Q668687", "ref": "5626700007"}, "type": "Feature"}
{"geometry": {"coordinates": [-95.906033144, 45.577328647], "type": "Point"}, "id": "SCR67CgdNKjI23WmZ0GAN9OvXVA=", "properties": {"@source_uri": "https://tools.usps.com/UspsToolsRestServices/rest/POLocator/findLocations", "@spider": "usps_collection_boxes", "addr:city": "MORRIS", "addr:country": "US", "addr:postcode": "56267", "addr:state": "MN", "addr:street_address": "300 ATLANTIC AVE", "amenity": "post_box", "collection_times": "Mo-Sa 11:00", "nsi_id": "unitedstatespostalservice-a77078", "operator": "United States Postal Service", "operator:short": "USPS", "operator:type": "public", "operator:wikidata": "Q668687", "ref": "5626700008"}, "type": "Feature"}
{"geometry": {"coordinates": [-95.902658353, 45.574067471], "type": "Point"}, "id": "QuKeZ81kW_cP4r0_qvS3tbXuiws=", "properties": {"@source_uri": "https://tools.usps.com/UspsToolsRestServices/rest/POLocator/findLocations", "@spider": "usps_collection_boxes", "addr:city": "MORRIS", "addr:country": "US", "addr:postcode": "56267", "addr:state": "MN", "addr:street_address": "211 S HIGHWAY 9", "amenity": "post_box", "collection_times": "Mo-Sa 13:00", "note": "ON 12/24 AND 12/31, THIS BOX MAY BE COLLECTED AS EARLY AS 12 NOON.", "nsi_id": "unitedstatespostalservice-a77078", "operator": "United States Postal Service", "operator:short": "USPS", "operator:type": "public", "operator:wikidata": "Q668687", "ref": "5626700009"}, "type": "Feature"}
{"geometry": {"coordinates": [-95.904472019, 45.589351229], "type": "Point"}, "id": "7RIzEOE1DNyo5WPyp8g-AxIpOEk=", "properties": {"@source_uri": "https://tools.usps.com/UspsToolsRestServices/rest/POLocator/findLocations", "@spider": "usps_collection_boxes", "addr:city": "MORRIS", "addr:country": "US", "addr:postcode": "56267", "addr:state": "MN", "addr:street_address": "600 E 4TH ST", "amenity": "post_box", "collection_times": "Mo-Sa 12:30", "note": "ON 12/24 AND 12/31, THIS BOX MAY BE COLLECTED AS EARLY AS 12 NOON.", "nsi_id": "unitedstatespostalservice-a77078", "operator": "United States Postal Service", "operator:short": "USPS", "operator:type": "public", "operator:wikidata": "Q668687", "ref": "5626700011"}, "type": "Feature"}
{"geometry": {"coordinates": [-95.913214203, 45.587748614], "type": "Point"}, "id": "kiZhK4hAZu7ZrcjChB1PJ96PBaE=", "properties": {"@source_uri": "https://tools.usps.com/UspsToolsRestServices/rest/POLocator/findLocations", "@spider": "usps_collection_boxes", "addr:city": "MORRIS", "addr:country": "US", "addr:postcode": "56267", "addr:state": "MN", "addr:street_address": "105 E 6TH ST", "amenity": "post_box", "collection_times": "Mo-Fr 14:15; Sa 11:30", "indoor": "yes", "note": "ON 12/24 AND 12/31, THIS BOX MAY BE COLLECTED AS EARLY AS 12 NOON.", "nsi_id": "unitedstatespostalservice-a77078", "operator": "United States Postal Service", "operator:short": "USPS", "operator:type": "public", "operator:wikidata": "Q668687", "ref": "5626700012"}, "type": "Feature"}
{"geometry": {"coordinates": [-95.915039493, 45.588098682], "type": "Point"}, "id": "vNpZJXieMQFHuW7LESj8w83Smbc=", "properties": {"@source_uri": "https://tools.usps.com/UspsToolsRestServices/rest/POLocator/findLocations", "@spider": "usps_collection_boxes", "addr:city": "MORRIS", "addr:country": "US", "addr:postcode": "56267", "addr:state": "MN", "addr:street_address": "23 E 7TH ST", "amenity": "post_box", "collection_times": "Mo-Sa 13:00", "note": "ON 12/24 AND 12/31, THIS BOX MAY BE COLLECTED AS EARLY AS 12 NOON.", "nsi_id": "unitedstatespostalservice-a77078", "operator": "United States Postal Service", "operator:short": "USPS", "operator:type": "public", "operator:wikidata": "Q668687", "ref": "5626700013"}, "type": "Feature"}
{"geometry": {"coordinates": [-95.913214203, 45.587748614], "type": "Point"}, "id": "YtxUABmr3rlz8i8Wws004Dgc4I4=", "properties": {"@source_uri": "https://tools.usps.com/UspsToolsRestServices/rest/POLocator/findLocations", "@spider": "usps_collection_boxes", "addr:city": "MORRIS", "addr:country": "US", "addr:postcode": "56267", "addr:state": "MN", "addr:street_address": "105 E 6TH ST", "amenity": "post_box", "collection_times": "Mo-Fr 14:15; Sa 11:45", "indoor": "yes", "note": "ON 12/24 AND 12/31, THIS BOX MAY BE COLLECTED AS EARLY AS 12 NOON.", "nsi_id": "unitedstatespostalservice-a77078", "operator": "United States Postal Service", "operator:short": "USPS", "operator:type": "public", "operator:wikidata": "Q668687", "ref": "5626700014"}, "type": "Feature"}
{"geometry": {"coordinates": [-94.98402874, 44.551167809], "type": "Point"}, "id": "jZXUnsX2zj1TzNTHrAzhJ06X9nI=", "properties": {"@source_uri": "https://tools.usps.com/UspsToolsRestServices/rest/POLocator/findLocations", "@spider": "usps_collection_boxes", "addr:city": "MORTON", "addr:country": "US", "addr:postcode": "56270", "addr:state": "MN", "addr:street_address": "165 N MAIN ST", "amenity": "post_box", "collection_times": "Mo-Sa 15:00", "note": "ON 12/24 AND 12/31, THIS BOX MAY BE COLLECTED AS EARLY AS 12 NOON.", "nsi_id": "unitedstatespostalservice-a77078", "operator": "United States Postal Service", "operator:short": "USPS", "operator:type": "public", "operator:wikidata": "Q668687", "ref": "5627000000"}, "type": "Feature"}
{"geometry": {"coordinates": [-94.98402874, 44.551167809], "type": "Point"}, "id": "FDH1L1itGAILkvTxA60o_8CBhuw=", "properties": {"@source_uri": "https://tools.usps.com/UspsToolsRestServices/rest/POLocator/findLocations", "@spider": "usps_collection_boxes", "addr:city": "MORTON", "addr:country": "US", "addr:postcode": "56270", "addr:state": "MN", "addr:street_address": "165 N MAIN ST", "amenity": "post_box", "collection_times": "Mo-Fr 13:30; Sa 09:15", "indoor": "yes", "note": "ON 12/24 AND 12/31, THIS BOX MAY BE COLLECTED AS EARLY AS 12 NOON.", "nsi_id": "unitedstatespostalservice-a77078", "operator": "United States Postal Service", "operator:short": "USPS", "operator:type": "public", "operator:wikidata": "Q668687", "ref": "5627000001"}, "type": "Feature"}
{"geometry": {"coordinates": [-94.98402874, 44.551167809], "type": "Point"}, "id": "cNL0NpXm76bxJEyyhfvjj7qbRDA=", "properties": {"@source_uri": "https://tools.usps.com/UspsToolsRestServices/rest/POLocator/findLocations", "@spider": "usps_collection_boxes", "addr:city": "MORTON", "addr:country": "US", "addr:postcode": "56270", "addr:state": "MN", "addr:street_address": "165 N MAIN ST", "amenity": "post_box", "collection_times": "Mo-Fr 13:30; Sa 09:00", "indoor": "yes", "note": "ON 12/24 AND 12/31, THIS BOX MAY BE COLLECTED AS EARLY AS 12 NOON.", "nsi_id": "unitedstatespostalservice-a77078", "operator": "United States Postal Service", "operator:short": "USPS", "operator:type": "public", "operator:wikidata": "Q668687", "ref": "5627000002"}, "type": "Feature"}
{"geometry": {"coordinates": [-95.394596214, 45.224482612], "type": "Point"}, "id": "1m_oryvMlIHuviFzIkObs79GEXY=", "properties": {"@source_uri": "https://tools.usps.com/UspsToolsRestServices/rest/POLocator/findLocations", "@spider": "usps_collection_boxes", "addr:city": "MURDOCK", "addr:country": "US", "addr:postcode": "56271", "addr:state": "MN", "addr:street_address": "412 MAIN AVE", "amenity": "post_box", "collection_times": "Mo-Sa 15:00", "note": "ON 12/24 AND 12/31, THIS BOX MAY BE COLLECTED AS EARLY AS 12 NOON.", "nsi_id": "unitedstatespostalservice-a77078", "operator": "United States Postal Service", "operator:short": "USPS", "operator:type": "public", "operator:wikidata": "Q668687", "ref": "5627100000"}, "type": "Feature"}
{"geometry": {"coordinates": [-95.394596214, 45.224482612], "type": "Point"}, "id": "DNUvrgbtfAWnZpLYJqfBUfDpGHw=", "properties": {"@source_uri": "https://tools.usps.com/UspsToolsRestServices/rest/POLocator/findLocations", "@spider": "usps_collection_boxes", "addr:city": "MURDOCK", "addr:country": "US", "addr:postcode": "56271", "addr:state": "MN", "addr:street_address": "412 MAIN AVE", "amenity": "post_box", "collection_times": "Mo-Fr 12:00; Sa 09:30", "indoor": "yes", "nsi_id": "unitedstatespostalservice-a77078", "operator": "United States Postal Service", "operator:short": "USPS", "operator:type": "public", "operator:wikidata": "Q668687", "ref": "5627100001"}, "type": "Feature"}
{"geometry": {"coordinates": [-95.468305871, 45.262521456], "type": "Point"}, "id": "vZMx9wXevJejdcp2xqFR0jFGQQc=", "properties": {"@source_uri": "https://tools.usps.com/UspsToolsRestServices/rest/POLocator/findLocations", "@spider": "usps_collection_boxes", "addr:city": "MURDOCK", "addr:country": "US", "addr:postcode": "56271", "addr:state": "MN", "addr:street_address": "100 4TH ST S - DEGRAFF, MN", "amenity": "post_box", "collection_times": "Mo-Sa 12:30", "note": "ON 12/24 AND 12/31, THIS BOX MAY BE COLLECTED AS EARLY AS 12 NOON.", "nsi_id": "unitedstatespostalservice-a77078", "operator": "United States Postal Service", "operator:short": "USPS", "operator:type": "public", "operator:wikidata": "Q668687", "ref": "5627100002"}, "type": "Feature"}
{"geometry": {"coordinates": [-95.394596214, 45.224482612], "type": "Point"}, "id": "QEQHj-zlY7YWNPYoASLumctosOo=", "properties": {"@source_uri": "https://tools.usps.com/UspsToolsRestServices/rest/POLocator/findLocations", "@spider": "usps_collection_boxes", "addr:city": "MURDOCK", "addr:country": "US", "addr:postcode": "56271", "addr:state": "MN", "addr:street_address": "412 MAIN AVE", "amenity": "post_box", "collection_times": "Mo-Fr 12:00; Sa 09:30", "indoor": "yes", "nsi_id": "unitedstatespostalservice-a77078", "operator": "United States Postal Service", "operator:short": "USPS", "operator:type": "public", "operator:wikidata": "Q668687", "ref": "5627100003"}, "type": "Feature"}
{"geometry": {"coordinates": [-94.942902473, 45.301353504], "type": "Point"}, "id": "V37aCa9HpKD4YSnxEBY4QN_RVcE=", "properties": {"@source_uri": "https://tools.usps.com/UspsToolsRestServices/rest/POLocator/findLocations", "@spider": "usps_collection_boxes", "addr:city": "NEW LONDON", "addr:country": "US", "addr:postcode": "56273", "addr:state": "MN", "addr:street_address": "31 CENTRAL AVE E", "amenity": "post_box", "collection_times": "Mo-Fr 15:00; Sa 09:45", "note": "ON 12/24 AND 12/31, THIS BOX MAY BE COLLECTED AS EARLY AS 12 NOON.", "nsi_id": "unitedstatespostalservice-a77078", "operator": "United States Postal Service", "operator:short": "USPS", "operator:type": "public", "operator:wikidata": "Q668687", "ref": "5627300001"}, "type": "Feature"}
{"geometry": {"coordinates": [-94.942902473, 45.301353504], "type": "Point"}, "id": "f5oyST-mYmBjrry97N4Zz5VbzzA=", "properties": {"@source_uri": "https://tools.usps.com/UspsToolsRestServices/rest/POLocator/findLocations", "@spider": "usps_collection_boxes", "addr:city": "NEW LONDON", "addr:country": "US", "addr:postcode": "56273", "addr:state": "MN", "addr:street_address": "31 CENTRAL AVE E", "amenity": "post_box", "collection_times": "Mo-Fr 15:00; Sa 09:45", "indoor": "yes", "note": "ON 12/24 AND 12/31, THIS BOX MAY BE COLLECTED AS EARLY AS 12 NOON.", "nsi_id": "unitedstatespostalservice-a77078", "operator": "United States Postal Service", "operator:short": "USPS", "operator:type": "public", "operator:wikidata": "Q668687", "ref": "5627300004"}, "type": "Feature"}
{"geometry": {"coordinates": [-94.942902473, 45.301353504], "type": "Point"}, "id": "WXbm2aaNBxLOS2J8LOC33vBakRY=", "properties": {"@source_uri": "https://tools.usps.com/UspsToolsRestServices/rest/POLocator/findLocations", "@spider": "usps_collection_boxes", "addr:city": "NEW LONDON", "addr:country": "US", "addr:postcode": "56273", "addr:state": "MN", "addr:street_address": "31 CENTRAL AVE E", "amenity": "post_box", "collection_times": "Mo-Fr 15:00; Sa 10:00", "indoor": "yes", "note": "ON 12/24 AND 12/31, THIS BOX MAY BE COLLECTED AS EARLY AS 12 NOON.", "nsi_id": "unitedstatespostalservice-a77078", "operator": "United States Postal Service", "operator:short": "USPS", "operator:type": "public", "operator:wikidata": "Q668687", "ref": "5627300005"}, "type": "Feature"}
{"geometry": {"coordinates": [-96.197070746, 45.869687382], "type": "Point"}, "id": "nYczIBSdVsMu_t0ls-NS3HTevqM=", "properties": {"@source_uri": "https://tools.usps.com/UspsToolsRestServices/rest/POLocator/findLocations", "@spider": "usps_collection_boxes", "addr:city": "NORCROSS", "addr:country": "US", "addr:postcode": "56274", "addr:state": "MN", "addr:street_address": "17557 GRISWOLD AVE", "amenity": "post_box", "collection_times": "Mo-Fr 13:15; Sa 10:15", "note": "ON 12/24 AND 12/31, THIS BOX MAY BE COLLECTED AS EARLY AS 12 NOON.", "nsi_id": "unitedstatespostalservice-a77078", "operator": "United States Postal Service", "operator:short": "USPS", "operator:type": "public", "operator:wikidata": "Q668687", "ref": "5627400000"}, "type": "Feature"}
{"geometry": {"coordinates": [-96.32956361, 45.261675427], "type": "Point"}, "id": "8AG4Wx6YwC15IaC1gl9ju5Kpfco=", "properties": {"@source_uri": "https://tools.usps.com/UspsToolsRestServices/rest/POLocator/findLocations", "@spider": "usps_collection_boxes", "addr:city": "ODESSA", "addr:country": "US", "addr:postcode": "56276", "addr:state": "MN", "addr:street_address": "106 COUNTY ROAD 28 W", "amenity": "post_box", "collection_times": "Mo-Sa 13:15", "note": "ON 12/24 AND 12/31, THIS BOX MAY BE COLLECTED AS EARLY AS 12 NOON.", "nsi_id": "unitedstatespostalservice-a77078", "operator": "United States Postal Service", "operator:short": "USPS", "operator:type": "public", "operator:wikidata": "Q668687", "ref": "5627600000"}, "type": "Feature"}
{"geometry": {"coordinates": [-96.32956361, 45.261675427], "type": "Point"}, "id": "_HZmsgUJc6IlcPWZGKSflGf4nwQ=", "properties": {"@source_uri": "https://tools.usps.com/UspsToolsRestServices/rest/POLocator/findLocations", "@spider": "usps_collection_boxes", "addr:city": "ODESSA", "addr:country": "US", "addr:postcode": "56276", "addr:state": "MN", "addr:street_address": "106 COUNTY ROAD 28 W", "amenity": "post_box", "collection_times": "Mo-Fr 13:15; Sa 12:00", "indoor": "yes", "note": "ON 12/24 AND 12/31, THIS BOX MAY BE COLLECTED AS EARLY AS 12 NOON.", "nsi_id": "unitedstatespostalservice-a77078", "operator": "United States Postal Service", "operator:short": "USPS", "operator:type": "public", "operator:wikidata": "Q668687", "ref": "5627600001"}, "type": "Feature"}
{"geometry": {"coordinates": [-96.329191782, 45.261481506], "type": "Point"}, "id": "wxqovZTQeUmeIaUen-wum6nlG0A=", "properties": {"@source_uri": "https://tools.usps.com/UspsToolsRestServices/rest/POLocator/findLocations", "@spider": "usps_collection_boxes", "addr:city": "ODESSA", "addr:country": "US", "addr:postcode": "56276", "addr:state": "MN", "addr:street_address": "106 COUNTY ROAD 28 E", "amenity": "post_box", "collection_times": "Mo-Fr 13:15; Sa 12:15", "indoor": "yes", "note": "ON 12/24 AND 12/31, THIS BOX MAY BE COLLECTED AS EARLY AS 12 NOON.", "nsi_id": "unitedstatespostalservice-a77078", "operator": "United States Postal Service", "operator:short": "USPS", "operator:type": "public", "operator:wikidata": "Q668687", "ref": "5627600002"}, "type": "Feature"}
{"geometry": {"coordinates": [-94.9883898877, 44.7744394827], "type": "Point"}, "id": "N8edygVCwcWwy-8Dj6bjcKeBQFE=", "properties": {"@source_uri": "https://tools.usps.com/UspsToolsRestServices/rest/POLocator/findLocations", "@spider": "usps_collection_boxes", "addr:city": "OLIVIA", "addr:country": "US", "addr:postcode": "56277", "addr:state": "MN", "addr:street_address": "802 E FAIRVIEW AVE", "amenity": "post_box", "collection_times": "Mo-Fr 15:00; Sa 10:00", "note": "ON 12/24 AND 12/31, THIS BOX MAY BE COLLECTED AS EARLY AS 12 NOON.", "nsi_id": "unitedstatespostalservice-a77078", "operator": "United States Postal Service", "operator:short": "USPS", "operator:type": "public", "operator:wikidata": "Q668687", "ref": "5627700001"}, "type": "Feature"}
{"geometry": {"coordinates": [-94.988579611, 44.77550646], "type": "Point"}, "id": "r6IVMasbO--9Xp-LUuilsCZhpDM=", "properties": {"@source_uri": "https://tools.usps.com/UspsToolsRestServices/rest/POLocator/findLocations", "@spider": "usps_collection_boxes", "addr:city": "OLIVIA", "addr:country": "US", "addr:postcode": "56277", "addr:state": "MN", "addr:street_address": "806 E DEPUE AVE", "amenity": "post_box", "collection_times": "Mo-Fr 15:15; Sa 10:00", "note": "ON 12/24 AND 12/31, THIS BOX MAY BE COLLECTED AS EARLY AS 12 NOON.", "nsi_id": "unitedstatespostalservice-a77078", "operator": "United States Postal Service", "operator:short": "USPS", "operator:type": "public", "operator:wikidata": "Q668687", "ref": "5627700007"}, "type": "Feature"}
{"geometry": {"coordinates": [-94.988579611, 44.77550646], "type": "Point"}, "id": "F7CQiSXmE_qpVOiSRd5lC1hEHHw=", "properties": {"@source_uri": "https://tools.usps.com/UspsToolsRestServices/rest/POLocator/findLocations", "@spider": "usps_collection_boxes", "addr:city": "OLIVIA", "addr:country": "US", "addr:postcode": "56277", "addr:state": "MN", "addr:street_address": "806 E DEPUE AVE", "amenity": "post_box", "collection_times": "Mo-Fr 15:15; Sa 10:00", "indoor": "yes", "note": "ON 12/24 AND 12/31, THIS BOX MAY BE COLLECTED AS EARLY AS 12 NOON.", "nsi_id": "unitedstatespostalservice-a77078", "operator": "United States Postal Service", "operator:short": "USPS", "operator:type": "public", "operator:wikidata": "Q668687", "ref": "5627700009"}, "type": "Feature"}
{"geometry": {"coordinates": [-94.988579611, 44.77550646], "type": "Point"}, "id": "6vJhCM0LFWdrL1alJHj4Cgxe8WU=", "properties": {"@source_uri": "https://tools.usps.com/UspsToolsRestServices/rest/POLocator/findLocations", "@spider": "usps_collection_boxes", "addr:city": "OLIVIA", "addr:country": "US", "addr:postcode": "56277", "addr:state": "MN", "addr:street_address": "806 E DEPUE AVE", "amenity": "post_box", "collection_times": "Mo-Fr 15:15; Sa 09:30", "indoor": "yes", "note": "ON 12/24 AND 12/31, THIS BOX MAY BE COLLECTED AS EARLY AS 12 NOON.", "nsi_id": "unitedstatespostalservice-a77078", "operator": "United States Postal Service", "operator:short": "USPS", "operator:type": "public", "operator:wikidata": "Q668687", "ref": "5627700010"}, "type": "Feature"}
{"geometry": {"coordinates": [-96.44568119, 45.304456979], "type": "Point"}, "id": "o25Lsn5b-JaWoewZ8v7dUiheMys=", "properties": {"@source_uri": "https://tools.usps.com/UspsToolsRestServices/rest/POLocator/findLocations", "@spider": "usps_collection_boxes", "addr:city": "ORTONVILLE", "addr:country": "US", "addr:postcode": "56278", "addr:state": "MN", "addr:street_address": "104 JACKSON AVE", "amenity": "post_box", "collection_times": "Mo-Fr 13:00; Sa 10:00", "note": "ON 12/24 AND 12/31, THIS BOX MAY BE COLLECTED AS EARLY AS 12 NOON.", "nsi_id": "unitedstatespostalservice-a77078", "operator": "United States Postal Service", "operator:short": "USPS", "operator:type": "public", "operator:wikidata": "Q668687", "ref": "5627800001"}, "type": "Feature"}
{"geometry": {"coordinates": [-96.446525708, 45.306223649], "type": "Point"}, "id": "OM5KPhecv64k3-0j7m3rdTRp8c8=", "properties": {"@source_uri": "https://tools.usps.com/UspsToolsRestServices/rest/POLocator/findLocations", "@spider": "usps_collection_boxes", "addr:city": "ORTONVILLE", "addr:country": "US", "addr:postcode": "56278", "addr:state": "MN", "addr:street_address": "147 2ND ST NW", "amenity": "post_box", "collection_times": "Mo-Sa 12:00", "nsi_id": "unitedstatespostalservice-a77078", "operator": "United States Postal Service", "operator:short": "USPS", "operator:type": "public", "operator:wikidata": "Q668687", "ref": "5627800003"}, "type": "Feature"}
{"geometry": {"coordinates": [-96.44568119, 45.304456979], "type": "Point"}, "id": "AsVUcT2K09n2jvktLtgus7WTcMU=", "properties": {"@source_uri": "https://tools.usps.com/UspsToolsRestServices/rest/POLocator/findLocations", "@spider": "usps_collection_boxes", "addr:city": "ORTONVILLE", "addr:country": "US", "addr:postcode": "56278", "addr:state": "MN", "addr:street_address": "104 JACKSON AVE", "amenity": "post_box", "collection_times": "Mo-Fr 13:00; Sa 10:00", "indoor": "yes", "note": "ON 12/24 AND 12/31, THIS BOX MAY BE COLLECTED AS EARLY AS 12 NOON.", "nsi_id": "unitedstatespostalservice-a77078", "operator": "United States Postal Service", "operator:short": "USPS", "operator:type": "public", "operator:wikidata": "Q668687", "ref": "5627800005"}, "type": "Feature"}
{"geometry": {"coordinates": [-96.44568119, 45.304456979], "type": "Point"}, "id": "PbH1ptAyh95z0cUXm-IEeFsXj_w=", "properties": {"@source_uri": "https://tools.usps.com/UspsToolsRestServices/rest/POLocator/findLocations", "@spider": "usps_collection_boxes", "addr:city": "ORTONVILLE", "addr:country": "US", "addr:postcode": "56278", "addr:state": "MN", "addr:street_address": "104 JACKSON AVE", "amenity": "post_box", "collection_times": "Mo-Fr 13:00; Sa 10:00", "indoor": "yes", "note": "ON 12/24 AND 12/31, THIS BOX MAY BE COLLECTED AS EARLY AS 12 NOON.", "nsi_id": "unitedstatespostalservice-a77078", "operator": "United States Postal Service", "operator:short": "USPS", "operator:type": "public", "operator:wikidata": "Q668687", "ref": "5627800006"}, "type": "Feature"}
{"geometry": {"coordinates": [-95.176966951, 45.148753089], "type": "Point"}, "id": "Q-sVNMG-TCV7rzk1ODoWAE1KIag=", "properties": {"@source_uri": "https://tools.usps.com/UspsToolsRestServices/rest/POLocator/findLocations", "@spider": "usps_collection_boxes", "addr:city": "PENNOCK", "addr:country": "US", "addr:postcode": "56279", "addr:state": "MN", "addr:street_address": "101 ATLANTIC AVE NW", "amenity": "post_box", "collection_times": "Mo-Sa 15:30", "note": "ON 12/24 AND 12/31, THIS BOX MAY BE COLLECTED AS EARLY AS 12 NOON.", "nsi_id": "unitedstatespostalservice-a77078", "operator": "United States Postal Service", "operator:short": "USPS", "operator:type": "public", "operator:wikidata": "Q668687", "ref": "5627900000"}, "type": "Feature"}
{"geometry": {"coordinates": [-95.176966951, 45.148753089], "type": "Point"}, "id": "K_SBIlJNQZv9klI06dyzuUBv7aE=", "properties": {"@source_uri": "https://tools.usps.com/UspsToolsRestServices/rest/POLocator/findLocations", "@spider": "usps_collection_boxes", "addr:city": "PENNOCK", "addr:country": "US", "addr:postcode": "56279", "addr:state": "MN", "addr:street_address": "101 ATLANTIC AVE NW", "amenity": "post_box", "collection_times": "Mo-Fr 14:00; Sa 09:00", "indoor": "yes", "note": "ON 12/24 AND 12/31, THIS BOX MAY BE COLLECTED AS EARLY AS 12 NOON.", "nsi_id": "unitedstatespostalservice-a77078", "operator": "United States Postal Service", "operator:short": "USPS", "operator:type": "public", "operator:wikidata": "Q668687", "ref": "5627900001"}, "type": "Feature"}
{"geometry": {"coordinates": [-95.176966951, 45.148753089], "type": "Point"}, "id": "Y-z9MtUj9uYZcLViqQ9ylDlzCuo=", "properties": {"@source_uri": "https://tools.usps.com/UspsToolsRestServices/rest/POLocator/findLocations", "@spider": "usps_collection_boxes", "addr:city": "PENNOCK", "addr:country": "US", "addr:postcode": "56279", "addr:state": "MN", "addr:street_address": "101 ATLANTIC AVE NW", "amenity": "post_box", "collection_times": "Mo-Fr 14:00; Sa 09:15", "indoor": "yes", "note": "ON 12/24 AND 12/31, THIS BOX MAY BE COLLECTED AS EARLY AS 12 NOON.", "nsi_id": "unitedstatespostalservice-a77078", "operator": "United States Postal Service", "operator:short": "USPS", "operator:type": "public", "operator:wikidata": "Q668687", "ref": "5627900002"}, "type": "Feature"}
{"geometry": {"coordinates": [-96.165248992, 44.6344510161], "type": "Point"}, "id": "HdOIbqjV1mNTJKEfvgh1HuNO6dQ=", "properties": {"@source_uri": "https://tools.usps.com/UspsToolsRestServices/rest/POLocator/findLocations", "@spider": "usps_collection_boxes", "addr:city": "PORTER", "addr:country": "US", "addr:postcode": "56280", "addr:state": "MN", "addr:street_address": "400 LONE TREE ST", "amenity": "post_box", "collection_times": "Mo-Sa 17:00", "note": "ON 12/24 AND 12/31, THIS BOX MAY BE COLLECTED AS EARLY AS 12 NOON.", "nsi_id": "unitedstatespostalservice-a77078", "operator": "United States Postal Service", "operator:short": "USPS", "operator:type": "public", "operator:wikidata": "Q668687", "ref": "5628000000"}, "type": "Feature"}
{"geometry": {"coordinates": [-96.165340833, 44.634302444], "type": "Point"}, "id": "oinpO93dDjewGWdHJyR00W4IYvo=", "properties": {"@source_uri": "https://tools.usps.com/UspsToolsRestServices/rest/POLocator/findLocations", "@spider": "usps_collection_boxes", "addr:city": "PORTER", "addr:country": "US", "addr:postcode": "56280", "addr:state": "MN", "addr:street_address": "400 LONE TREE ST", "amenity": "post_box", "collection_times": "Mo-Fr 13:00; Sa 11:00", "indoor": "yes", "note": "ON 12/24 AND 12/31, THIS BOX MAY BE COLLECTED AS EARLY AS 12 NOON.", "nsi_id": "unitedstatespostalservice-a77078", "operator": "United States Postal Service", "operator:short": "USPS", "operator:type": "public", "operator:wikidata": "Q668687", "ref": "5628000001"}, "type": "Feature"}
{"geometry": {"coordinates": [-96.165340833, 44.634302444], "type": "Point"}, "id": "_6eAPHjNzYxmd9Fe8kr9EEVx4RU=", "properties": {"@source_uri": "https://tools.usps.com/UspsToolsRestServices/rest/POLocator/findLocations", "@spider": "usps_collection_boxes", "addr:city": "PORTER", "addr:country": "US", "addr:postcode": "56280", "addr:state": "MN", "addr:street_address": "400 LONE TREE ST", "amenity": "post_box", "collection_times": "Mo-Fr 13:00; Sa 11:30", "indoor": "yes", "note": "ON 12/24 AND 12/31, THIS BOX MAY BE COLLECTED AS EARLY AS 12 NOON.", "nsi_id": "unitedstatespostalservice-a77078", "operator": "United States Postal Service", "operator:short": "USPS", "operator:type": "public", "operator:wikidata": "Q668687", "ref": "5628000002"}, "type": "Feature"}
{"geometry": {"coordinates": [-95.191948877, 44.940672404], "type": "Point"}, "id": "STEeDRNmVVHW1v6zjSeRqU9PJ4U=", "properties": {"@source_uri": "https://tools.usps.com/UspsToolsRestServices/rest/POLocator/findLocations", "@spider": "usps_collection_boxes", "addr:city": "PRINSBURG", "addr:country": "US", "addr:postcode": "56281", "addr:state": "MN", "addr:street_address": "613 3RD ST", "amenity": "post_box", "collection_times": "Mo-Sa 13:00", "note": "ON 12/24 AND 12/31, THIS BOX MAY BE COLLECTED AS EARLY AS 12 NOON.", "nsi_id": "unitedstatespostalservice-a77078", "operator": "United States Postal Service", "operator:short": "USPS", "operator:type": "public", "operator:wikidata": "Q668687", "ref": "5628100000"}, "type": "Feature"}
{"geometry": {"coordinates": [-95.191948877, 44.940672404], "type": "Point"}, "id": "iHgPkL4eAHaV-UKxIw1yR3tpZV4=", "properties": {"@source_uri": "https://tools.usps.com/UspsToolsRestServices/rest/POLocator/findLocations", "@spider": "usps_collection_boxes", "addr:city": "PRINSBURG", "addr:country": "US", "addr:postcode": "56281", "addr:state": "MN", "addr:street_address": "613 3RD ST", "amenity": "post_box", "collection_times": "Mo-Fr 12:00; Sa 09:15", "indoor": "yes", "nsi_id": "unitedstatespostalservice-a77078", "operator": "United States Postal Service", "operator:short": "USPS", "operator:type": "public", "operator:wikidata": "Q668687", "ref": "5628100001"}, "type": "Feature"}
{"geometry": {"coordinates": [-95.191948877, 44.940672404], "type": "Point"}, "id": "kKpLch-UeHGFpK3dmywtWvhcLh0=", "properties": {"@source_uri": "https://tools.usps.com/UspsToolsRestServices/rest/POLocator/findLocations", "@spider": "usps_collection_boxes", "addr:city": "PRINSBURG", "addr:country": "US", "addr:postcode": "56281", "addr:state": "MN", "addr:street_address": "613 3RD ST", "amenity": "post_box", "collection_times": "Mo-Fr 12:00; Sa 09:15", "indoor": "yes", "nsi_id": "unitedstatespostalservice-a77078", "operator": "United States Postal Service", "operator:short": "USPS", "operator:type": "public", "operator:wikidata": "Q668687", "ref": "5628100002"}, "type": "Feature"}
{"geometry": {"coordinates": [-95.238528998, 45.017350078], "type": "Point"}, "id": "SZMoODLkyAL67Ddkovc6Tx7U3aY=", "properties": {"@source_uri": "https://tools.usps.com/UspsToolsRestServices/rest/POLocator/findLocations", "@spider": "usps_collection_boxes", "addr:city": "RAYMOND", "addr:country": "US", "addr:postcode": "56282", "addr:state": "MN", "addr:street_address": "210 SPICER AVE", "amenity": "post_box", "collection_times": "Mo-Sa 15:15", "note": "ON 12/24 AND 12/31, THIS BOX MAY BE COLLECTED AS EARLY AS 12 NOON.", "nsi_id": "unitedstatespostalservice-a77078", "operator": "United States Postal Service", "operator:short": "USPS", "operator:type": "public", "operator:wikidata": "Q668687", "ref": "5628200001"}, "type": "Feature"}
{"geometry": {"coordinates": [-95.238528998, 45.017350078], "type": "Point"}, "id": "iV-8SAowxF6NUC7cvLHI2yQDr9E=", "properties": {"@source_uri": "https://tools.usps.com/UspsToolsRestServices/rest/POLocator/findLocations", "@spider": "usps_collection_boxes", "addr:city": "RAYMOND", "addr:country": "US", "addr:postcode": "56282", "addr:state": "MN", "addr:street_address": "210 SPICER AVE", "amenity": "post_box", "collection_times": "Mo-Fr 13:00; Sa 09:15", "indoor": "yes", "note": "ON 12/24 AND 12/31, THIS BOX MAY BE COLLECTED AS EARLY AS 12 NOON.", "nsi_id": "unitedstatespostalservice-a77078", "operator": "United States Postal Service", "operator:short": "USPS", "operator:type": "public", "operator:wikidata": "Q668687", "ref": "5628200002"}, "type": "Feature"}
{"geometry": {"coordinates": [-95.238528998, 45.017350078], "type": "Point"}, "id": "s73E4VmPkR9-qPHCvqNxiSDi13o=", "properties": {"@source_uri": "https://tools.usps.com/UspsToolsRestServices/rest/POLocator/findLocations", "@spider": "usps_collection_boxes", "addr:city": "RAYMOND", "addr:country": "US", "addr:postcode": "56282", "addr:state": "MN", "addr:street_address": "210 SPICER AVE", "amenity": "post_box", "collection_times": "Mo-Fr 13:00; Sa 09:15", "indoor": "yes", "note": "ON 12/24 AND 12/31, THIS BOX MAY BE COLLECTED AS EARLY AS 12 NOON.", "nsi_id": "unitedstatespostalservice-a77078", "operator": "United States Postal Service", "operator:short": "USPS", "operator:type": "public", "operator:wikidata": "Q668687", "ref": "5628200003"}, "type": "Feature"}
{"geometry": {"coordinates": [-95.238528998, 45.017350078], "type": "Point"}, "id": "0Y9tXkohSG4c4_pimNtzFb36xok=", "properties": {"@source_uri": "https://tools.usps.com/UspsToolsRestServices/rest/POLocator/findLocations", "@spider": "usps_collection_boxes", "addr:city": "RAYMOND", "addr:country": "US", "addr:postcode": "56282", "addr:state": "MN", "addr:street_address": "210 SPICER AVE N", "amenity": "post_box", "collection_times": "Mo-Fr 13:00; Sa 09:15", "indoor": "yes", "note": "ON 12/24 AND 12/31, THIS BOX MAY BE COLLECTED AS EARLY AS 12 NOON.", "nsi_id": "unitedstatespostalservice-a77078", "operator": "United States Postal Service", "operator:short": "USPS", "operator:type": "public", "operator:wikidata": "Q668687", "ref": "5628200004"}, "type": "Feature"}
{"geometry": {"coordinates": [-95.117749952, 44.538607615], "type": "Point"}, "id": "7DAAFMbzhnWoYaWk0uFDFpfzS-g=", "properties": {"@source_uri": "https://tools.usps.com/UspsToolsRestServices/rest/POLocator/findLocations", "@spider": "usps_collection_boxes", "addr:city": "REDWOOD FALLS", "addr:country": "US", "addr:postcode": "56283", "addr:state": "MN", "addr:street_address": "204 E 4TH ST", "amenity": "post_box", "collection_times": "Mo-Sa 14:30", "note": "ON 12/24 AND 12/31, THIS BOX MAY BE COLLECTED AS EARLY AS 12 NOON.", "nsi_id": "unitedstatespostalservice-a77078", "operator": "United States Postal Service", "operator:short": "USPS", "operator:type": "public", "operator:wikidata": "Q668687", "ref": "5628300001"}, "type": "Feature"}
{"geometry": {"coordinates": [-95.116032, 44.54048046], "type": "Point"}, "id": "ZEki_Zjxh0I5ru0t3T8y2S3XlQk=", "properties": {"@source_uri": "https://tools.usps.com/UspsToolsRestServices/rest/POLocator/findLocations", "@spider": "usps_collection_boxes", "addr:city": "REDWOOD FALLS", "addr:country": "US", "addr:postcode": "56283", "addr:state": "MN", "addr:street_address": "303 E 2ND ST", "amenity": "post_box", "collection_times": "Mo-Fr 13:45; Sa 10:30", "note": "ON 12/24 AND 12/31, THIS BOX MAY BE COLLECTED AS EARLY AS 12 NOON.", "nsi_id": "unitedstatespostalservice-a77078", "operator": "United States Postal Service", "operator:short": "USPS", "operator:type": "public", "operator:wikidata": "Q668687", "ref": "5628300002"}, "type": "Feature"}
{"geometry": {"coordinates": [-95.119382483, 44.540433], "type": "Point"}, "id": "a2g_RaFWrnm77I8NscPJKRyvEpg=", "properties": {"@source_uri": "https://tools.usps.com/UspsToolsRestServices/rest/POLocator/findLocations", "@spider": "usps_collection_boxes", "addr:city": "REDWOOD FALLS", "addr:country": "US", "addr:postcode": "56283", "addr:state": "MN", "addr:street_address": "205 S MILL ST", "amenity": "post_box", "collection_times": "Mo-Fr 13:45; Sa 10:30", "note": "ON 12/24 AND 12/31, THIS BOX MAY BE COLLECTED AS EARLY AS 12 NOON.", "nsi_id": "unitedstatespostalservice-a77078", "operator": "United States Postal Service", "operator:short": "USPS", "operator:type": "public", "operator:wikidata": "Q668687", "ref": "5628300003"}, "type": "Feature"}
{"geometry": {"coordinates": [-95.102183886, 44.541574454], "type": "Point"}, "id": "pN977t49V3qpseYFGITypa6LnUE=", "properties": {"@source_uri": "https://tools.usps.com/UspsToolsRestServices/rest/POLocator/findLocations", "@spider": "usps_collection_boxes", "addr:city": "REDWOOD FALLS", "addr:country": "US", "addr:postcode": "56283", "addr:state": "MN", "addr:street_address": "1111 E BRIDGE ST", "amenity": "post_box", "collection_times": "Mo-Fr 13:45; Sa 10:30", "note": "ON 12/24 AND 12/31, THIS BOX MAY BE COLLECTED AS EARLY AS 12 NOON.", "nsi_id": "unitedstatespostalservice-a77078", "operator": "United States Postal Service", "operator:short": "USPS", "operator:type": "public", "operator:wikidata": "Q668687", "ref": "5628300005"}, "type": "Feature"}
{"geometry": {"coordinates": [-95.117749952, 44.538607615], "type": "Point"}, "id": "Y6V0y_eKtQSmHF4AvpSmOMSBcys=", "properties": {"@source_uri": "https://tools.usps.com/UspsToolsRestServices/rest/POLocator/findLocations", "@spider": "usps_collection_boxes", "addr:city": "REDWOOD FALLS", "addr:country": "US", "addr:postcode": "56283", "addr:state": "MN", "addr:street_address": "204 E 4TH ST", "amenity": "post_box", "collection_times": "Mo-Fr 14:30; Sa 10:30", "indoor": "yes", "note": "ON 12/24 AND 12/31, THIS BOX MAY BE COLLECTED AS EARLY AS 12 NOON.", "nsi_id": "unitedstatespostalservice-a77078", "operator": "United States Postal Service", "operator:short": "USPS", "operator:type": "public", "operator:wikidata": "Q668687", "ref": "5628300009"}, "type": "Feature"}
{"geometry": {"coordinates": [-95.088978407, 44.540912856], "type": "Point"}, "id": "Ydnkd7xO6SASrIzQrTTQesXQn0M=", "properties": {"@source_uri": "https://tools.usps.com/UspsToolsRestServices/rest/POLocator/findLocations", "@spider": "usps_collection_boxes", "addr:city": "REDWOOD FALLS", "addr:country": "US", "addr:postcode": "56283", "addr:state": "MN", "addr:street_address": "1410 E BRIDGE ST", "amenity": "post_box", "collection_times": "Mo-Fr 13:45; Sa 10:30", "note": "ON 12/24 AND 12/31, THIS BOX MAY BE COLLECTED AS EARLY AS 12 NOON.", "nsi_id": "unitedstatespostalservice-a77078", "operator": "United States Postal Service", "operator:short": "USPS", "operator:type": "public", "operator:wikidata": "Q668687", "ref": "5628300010"}, "type": "Feature"}
{"geometry": {"coordinates": [-95.117749952, 44.538607615], "type": "Point"}, "id": "p1elZcRRN0JegbIUKpUOUysXo9Q=", "properties": {"@source_uri": "https://tools.usps.com/UspsToolsRestServices/rest/POLocator/findLocations", "@spider": "usps_collection_boxes", "addr:city": "REDWOOD FALLS", "addr:country": "US", "addr:postcode": "56283", "addr:state": "MN", "addr:street_address": "204 E 4TH ST", "amenity": "post_box", "collection_times": "Mo-Sa 14:30", "note": "ON 12/24 AND 12/31, THIS BOX MAY BE COLLECTED AS EARLY AS 12 NOON.", "nsi_id": "unitedstatespostalservice-a77078", "operator": "United States Postal Service", "operator:short": "USPS", "operator:type": "public", "operator:wikidata": "Q668687", "ref": "5628300012"}, "type": "Feature"}
{"geometry": {"coordinates": [-95.117749952, 44.538607615], "type": "Point"}, "id": "hpcNCOhw_tji8gxqOlR-bAxa7vI=", "properties": {"@source_uri": "https://tools.usps.com/UspsToolsRestServices/rest/POLocator/findLocations", "@spider": "usps_collection_boxes", "addr:city": "REDWOOD FALLS", "addr:country": "US", "addr:postcode": "56283", "addr:state": "MN", "addr:street_address": "204 E 4TH ST", "amenity": "post_box", "collection_times": "Mo-Fr 14:30; Sa 10:30", "indoor": "yes", "note": "ON 12/24 AND 12/31, THIS BOX MAY BE COLLECTED AS EARLY AS 12 NOON.", "nsi_id": "unitedstatespostalservice-a77078", "operator": "United States Postal Service", "operator:short": "USPS", "operator:type": "public", "operator:wikidata": "Q668687", "ref": "5628300014"}, "type": "Feature"}
{"geometry": {"coordinates": [-95.212161233, 44.79201], "type": "Point"}, "id": "1csL8M4isrvAV9dTmBAELnKEmWA=", "properties": {"@source_uri": "https://tools.usps.com/UspsToolsRestServices/rest/POLocator/findLocations", "@spider": "usps_collection_boxes", "addr:city": "RENVILLE", "addr:country": "US", "addr:postcode": "56284", "addr:state": "MN", "addr:street_address": "334 N MAIN ST", "amenity": "post_box", "collection_times": "Mo-Sa 15:00", "note": "ON 12/24 AND 12/31, THIS BOX MAY BE COLLECTED AS EARLY AS 12 NOON.", "nsi_id": "unitedstatespostalservice-a77078", "operator": "United States Postal Service", "operator:short": "USPS", "operator:type": "public", "operator:wikidata": "Q668687", "ref": "5628400000"}, "type": "Feature"}
{"geometry": {"coordinates": [-95.212161233, 44.79201], "type": "Point"}, "id": "dXy5KlDuCjnKpjX-yHeFGh_LkQI=", "properties": {"@source_uri": "https://tools.usps.com/UspsToolsRestServices/rest/POLocator/findLocations", "@spider": "usps_collection_boxes", "addr:city": "RENVILLE", "addr:country": "US", "addr:postcode": "56284", "addr:state": "MN", "addr:street_address": "334 N MAIN ST", "amenity": "post_box", "collection_times": "Mo-Fr 15:00; Sa 09:00", "indoor": "yes", "note": "ON 12/24 AND 12/31, THIS BOX MAY BE COLLECTED AS EARLY AS 12 NOON.", "nsi_id": "unitedstatespostalservice-a77078", "operator": "United States Postal Service", "operator:short": "USPS", "operator:type": "public", "operator:wikidata": "Q668687", "ref": "5628400001"}, "type": "Feature"}
{"geometry": {"coordinates": [-95.212161233, 44.79201], "type": "Point"}, "id": "iinIh1-DZ7rv_K07GfW_kRzOvb0=", "properties": {"@source_uri": "https://tools.usps.com/UspsToolsRestServices/rest/POLocator/findLocations", "@spider": "usps_collection_boxes", "addr:city": "RENVILLE", "addr:country": "US", "addr:postcode": "56284", "addr:state": "MN", "addr:street_address": "334 N MAIN ST", "amenity": "post_box", "collection_times": "Mo-Fr 15:00; Sa 09:00", "indoor": "yes", "note": "ON 12/24 AND 12/31, THIS BOX MAY BE COLLECTED AS EARLY AS 12 NOON.", "nsi_id": "unitedstatespostalservice-a77078", "operator": "United States Postal Service", "operator:short": "USPS", "operator:type": "public", "operator:wikidata": "Q668687", "ref": "5628400002"}, "type": "Feature"}
{"geometry": {"coordinates": [-95.212161233, 44.79201], "type": "Point"}, "id": "JkUpoB_aSYOljxNiKbK89rh0fJI=", "properties": {"@source_uri": "https://tools.usps.com/UspsToolsRestServices/rest/POLocator/findLocations", "@spider": "usps_collection_boxes", "addr:city": "RENVILLE", "addr:country": "US", "addr:postcode": "56284", "addr:state": "MN", "addr:street_address": "334 N MAIN ST", "amenity": "post_box", "collection_times": "Mo-Fr 15:00; Sa 09:30", "indoor": "yes", "note": "ON 12/24 AND 12/31, THIS BOX MAY BE COLLECTED AS EARLY AS 12 NOON.", "nsi_id": "unitedstatespostalservice-a77078", "operator": "United States Postal Service", "operator:short": "USPS", "operator:type": "public", "operator:wikidata": "Q668687", "ref": "5628400004"}, "type": "Feature"}
{"geometry": {"coordinates": [-95.351552692, 44.787718474], "type": "Point"}, "id": "k1mWWLVX7VGzljHqu8T97jSEzGI=", "properties": {"@source_uri": "https://tools.usps.com/UspsToolsRestServices/rest/POLocator/findLocations", "@spider": "usps_collection_boxes", "addr:city": "SACRED HEART", "addr:country": "US", "addr:postcode": "56285", "addr:state": "MN", "addr:street_address": "213 2ND AVE", "amenity": "post_box", "collection_times": "Mo-Sa 14:45", "note": "ON 12/24 AND 12/31, THIS BOX MAY BE COLLECTED AS EARLY AS 12 NOON.", "nsi_id": "unitedstatespostalservice-a77078", "operator": "United States Postal Service", "operator:short": "USPS", "operator:type": "public", "operator:wikidata": "Q668687", "ref": "5628500000"}, "type": "Feature"}
{"geometry": {"coordinates": [-95.351552692, 44.787718474], "type": "Point"}, "id": "Jfx_-Qg5I1SwquAuKAqX1yeVstE=", "properties": {"@source_uri": "https://tools.usps.com/UspsToolsRestServices/rest/POLocator/findLocations", "@spider": "usps_collection_boxes", "addr:city": "SACRED HEART", "addr:country": "US", "addr:postcode": "56285", "addr:state": "MN", "addr:street_address": "213 2ND AVE", "amenity": "post_box", "collection_times": "Mo-Fr 13:00; Sa 09:15", "indoor": "yes", "note": "ON 12/24 AND 12/31, THIS BOX MAY BE COLLECTED AS EARLY AS 12 NOON.", "nsi_id": "unitedstatespostalservice-a77078", "operator": "United States Postal Service", "operator:short": "USPS", "operator:type": "public", "operator:wikidata": "Q668687", "ref": "5628500002"}, "type": "Feature"}
{"geometry": {"coordinates": [-95.351552692, 44.787718474], "type": "Point"}, "id": "Ye4i7SJoln124xC_7vNEMblSEjM=", "properties": {"@source_uri": "https://tools.usps.com/UspsToolsRestServices/rest/POLocator/findLocations", "@spider": "usps_collection_boxes", "addr:city": "SACRED HEART", "addr:country": "US", "addr:postcode": "56285", "addr:state": "MN", "addr:street_address": "213 2ND AVE S", "amenity": "post_box", "collection_times": "Mo-Fr 13:00; Sa 09:00", "indoor": "yes", "note": "ON 12/24 AND 12/31, THIS BOX MAY BE COLLECTED AS EARLY AS 12 NOON.", "nsi_id": "unitedstatespostalservice-a77078", "operator": "United States Postal Service", "operator:short": "USPS", "operator:type": "public", "operator:wikidata": "Q668687", "ref": "5628500003"}, "type": "Feature"}
{"geometry": {"coordinates": [-94.940690644, 45.227309701], "type": "Point"}, "id": "WkqM844itiAATAbsSqDQB5ohKxA=", "properties": {"@source_uri": "https://tools.usps.com/UspsToolsRestServices/rest/POLocator/findLocations", "@spider": "usps_collection_boxes", "addr:city": "SPICER", "addr:country": "US", "addr:postcode": "56288", "addr:state": "MN", "addr:street_address": "301 HIGHWAY 23", "amenity": "post_box", "collection_times": "Mo-Sa 12:00", "nsi_id": "unitedstatespostalservice-a77078", "operator": "United States Postal Service", "operator:short": "USPS", "operator:type": "public", "operator:wikidata": "Q668687", "ref": "5628800001"}, "type": "Feature"}
{"geometry": {"coordinates": [-94.940125055, 45.229289176], "type": "Point"}, "id": "gF5bXaTCbPpjbYM-MjxNXGEcQF8=", "properties": {"@source_uri": "https://tools.usps.com/UspsToolsRestServices/rest/POLocator/findLocations", "@spider": "usps_collection_boxes", "addr:city": "SPICER", "addr:country": "US", "addr:postcode": "56288", "addr:state": "MN", "addr:street_address": "163 HIGHWAY 23 NE", "amenity": "post_box", "collection_times": "Mo-Sa 12:00", "nsi_id": "unitedstatespostalservice-a77078", "operator": "United States Postal Service", "operator:short": "USPS", "operator:type": "public", "operator:wikidata": "Q668687", "ref": "5628800002"}, "type": "Feature"}
{"geometry": {"coordinates": [-94.941606978, 45.227540598], "type": "Point"}, "id": "vlrPi5jgGEGM0nmhuG2HU_LyDiw=", "properties": {"@source_uri": "https://tools.usps.com/UspsToolsRestServices/rest/POLocator/findLocations", "@spider": "usps_collection_boxes", "addr:city": "SPICER", "addr:country": "US", "addr:postcode": "56288", "addr:state": "MN", "addr:street_address": "186 PROGRESS WAY", "amenity": "post_box", "collection_times": "Mo-Fr 15:30; Sa 09:30", "note": "ON 12/24 AND 12/31, THIS BOX MAY BE COLLECTED AS EARLY AS 12 NOON.", "nsi_id": "unitedstatespostalservice-a77078", "operator": "United States Postal Service", "operator:short": "USPS", "operator:type": "public", "operator:wikidata": "Q668687", "ref": "5628800003"}, "type": "Feature"}
{"geometry": {"coordinates": [-94.941606978, 45.227540598], "type": "Point"}, "id": "jt7n71kWzdecBQA9cAszR7ayMQI=", "properties": {"@source_uri": "https://tools.usps.com/UspsToolsRestServices/rest/POLocator/findLocations", "@spider": "usps_collection_boxes", "addr:city": "SPICER", "addr:country": "US", "addr:postcode": "56288", "addr:state": "MN", "addr:street_address": "186 PROGRESS WAY", "amenity": "post_box", "collection_times": "Mo-Fr 15:30; Sa 09:30", "indoor": "yes", "note": "ON 12/24 AND 12/31, THIS BOX MAY BE COLLECTED AS EARLY AS 12 NOON.", "nsi_id": "unitedstatespostalservice-a77078", "operator": "United States Postal Service", "operator:short": "USPS", "operator:type": "public", "operator:wikidata": "Q668687", "ref": "5628800004"}, "type": "Feature"}
{"geometry": {"coordinates": [-94.941606978, 45.227540598], "type": "Point"}, "id": "Iz_Y8oDdvlQl3hgJ4uxFFh1b2EU=", "properties": {"@source_uri": "https://tools.usps.com/UspsToolsRestServices/rest/POLocator/findLocations", "@spider": "usps_collection_boxes", "addr:city": "SPICER", "addr:country": "US", "addr:postcode": "56288", "addr:state": "MN", "addr:street_address": "186 PROGRESS WAY", "amenity": "post_box", "collection_times": "Mo-Fr 15:30; Sa 10:00", "indoor": "yes", "note": "ON 12/24 AND 12/31, THIS BOX MAY BE COLLECTED AS EARLY AS 12 NOON.", "nsi_id": "unitedstatespostalservice-a77078", "operator": "United States Postal Service", "operator:short": "USPS", "operator:type": "public", "operator:wikidata": "Q668687", "ref": "5628800006"}, "type": "Feature"}
{"geometry": {"coordinates": [-95.238361999, 45.34773387], "type": "Point"}, "id": "oegIdOYPKs8wAPBVfQCTuwqei7I=", "properties": {"@source_uri": "https://tools.usps.com/UspsToolsRestServices/rest/POLocator/findLocations", "@spider": "usps_collection_boxes", "addr:city": "SUNBURG", "addr:country": "US", "addr:postcode": "56289", "addr:state": "MN", "addr:street_address": "316 CENTRAL AVE", "amenity": "post_box", "collection_times": "Mo-Sa 14:30", "note": "ON 12/24 AND 12/31, THIS BOX MAY BE COLLECTED AS EARLY AS 12 NOON.", "nsi_id": "unitedstatespostalservice-a77078", "operator": "United States Postal Service", "operator:short": "USPS", "operator:type": "public", "operator:wikidata": "Q668687", "ref": "5628900000"}, "type": "Feature"}
{"geometry": {"coordinates": [-95.238361999, 45.34773387], "type": "Point"}, "id": "w3uMGz52URyTkx7uAFk3moN8qXE=", "properties": {"@source_uri": "https://tools.usps.com/UspsToolsRestServices/rest/POLocator/findLocations", "@spider": "usps_collection_boxes", "addr:city": "SUNBURG", "addr:country": "US", "addr:postcode": "56289", "addr:state": "MN", "addr:street_address": "316 CENTRAL AVE", "amenity": "post_box", "collection_times": "Mo-Fr 11:30; Sa 09:00", "indoor": "yes", "nsi_id": "unitedstatespostalservice-a77078", "operator": "United States Postal Service", "operator:short": "USPS", "operator:type": "public", "operator:wikidata": "Q668687", "ref": "5628900001"}, "type": "Feature"}
{"geometry": {"coordinates": [-95.238361999, 45.34773387], "type": "Point"}, "id": "2RDyyIBSqBuXZxHwSVpzp4iyPvY=", "properties": {"@source_uri": "https://tools.usps.com/UspsToolsRestServices/rest/POLocator/findLocations", "@spider": "usps_collection_boxes", "addr:city": "SUNBURG", "addr:country": "US", "addr:postcode": "56289", "addr:state": "MN", "addr:street_address": "316 CENTRAL AVE", "amenity": "post_box", "collection_times": "Mo-Fr 11:30; Sa 09:00", "indoor": "yes", "nsi_id": "unitedstatespostalservice-a77078", "operator": "United States Postal Service", "operator:short": "USPS", "operator:type": "public", "operator:wikidata": "Q668687", "ref": "5628900002"}, "type": "Feature"}
{"geometry": {"coordinates": [-96.065528566, 44.593821326], "type": "Point"}, "id": "IZFGMJVo6RtT34gyeQS6WAeP_e4=", "properties": {"@source_uri": "https://tools.usps.com/UspsToolsRestServices/rest/POLocator/findLocations", "@spider": "usps_collection_boxes", "addr:city": "TAUNTON", "addr:country": "US", "addr:postcode": "56291", "addr:state": "MN", "addr:street_address": "104 N MAIN ST", "amenity": "post_box", "collection_times": "Mo-Sa 13:30", "note": "ON 12/24 AND 12/31, THIS BOX MAY BE COLLECTED AS EARLY AS 12 NOON.", "nsi_id": "unitedstatespostalservice-a77078", "operator": "United States Postal Service", "operator:short": "USPS", "operator:type": "public", "operator:wikidata": "Q668687", "ref": "5629100000"}, "type": "Feature"}
{"geometry": {"coordinates": [-96.065528566, 44.593821326], "type": "Point"}, "id": "lzjEYnD62g6ZhOXol1ZxJNRJoV8=", "properties": {"@source_uri": "https://tools.usps.com/UspsToolsRestServices/rest/POLocator/findLocations", "@spider": "usps_collection_boxes", "addr:city": "TAUNTON", "addr:country": "US", "addr:postcode": "56291", "addr:state": "MN", "addr:street_address": "104 N MAIN ST", "amenity": "post_box", "collection_times": "Mo-Fr 13:30; Sa 11:15", "indoor": "yes", "note": "ON 12/24 AND 12/31, THIS BOX MAY BE COLLECTED AS EARLY AS 12 NOON.", "nsi_id": "unitedstatespostalservice-a77078", "operator": "United States Postal Service", "operator:short": "USPS", "operator:type": "public", "operator:wikidata": "Q668687", "ref": "5629100001"}, "type": "Feature"}
{"geometry": {"coordinates": [-96.065528566, 44.593821326], "type": "Point"}, "id": "uD_NjhonhMN6HWW-J1qYg4Y5_8A=", "properties": {"@source_uri": "https://tools.usps.com/UspsToolsRestServices/rest/POLocator/findLocations", "@spider": "usps_collection_boxes", "addr:city": "TAUNTON", "addr:country": "US", "addr:postcode": "56291", "addr:state": "MN", "addr:street_address": "104 N MAIN ST", "amenity": "post_box", "collection_times": "Mo-Fr 13:30; Sa 11:15", "indoor": "yes", "note": "ON 12/24 AND 12/31, THIS BOX MAY BE COLLECTED AS EARLY AS 12 NOON.", "nsi_id": "unitedstatespostalservice-a77078", "operator": "United States Postal Service", "operator:short": "USPS", "operator:type": "public", "operator:wikidata": "Q668687", "ref": "5629100002"}, "type": "Feature"}
{"geometry": {"coordinates": [-95.416760156, 44.50681263], "type": "Point"}, "id": "jMQ8RZ8waKzgIhDCvuik3eXV6do=", "properties": {"@source_uri": "https://tools.usps.com/UspsToolsRestServices/rest/POLocator/findLocations", "@spider": "usps_collection_boxes", "addr:city": "VESTA", "addr:country": "US", "addr:postcode": "56292", "addr:state": "MN", "addr:street_address": "109 S FRONT ST", "amenity": "post_box", "collection_times": "Mo-Sa 13:15", "note": "ON 12/24 AND 12/31, THIS BOX MAY BE COLLECTED AS EARLY AS 12 NOON.", "nsi_id": "unitedstatespostalservice-a77078", "operator": "United States Postal Service", "operator:short": "USPS", "operator:type": "public", "operator:wikidata": "Q668687", "ref": "5629200000"}, "type": "Feature"}
{"geometry": {"coordinates": [-95.416760156, 44.50681263], "type": "Point"}, "id": "rwiuHdbKuRCmYzG4Jwehc4ICflM=", "properties": {"@source_uri": "https://tools.usps.com/UspsToolsRestServices/rest/POLocator/findLocations", "@spider": "usps_collection_boxes", "addr:city": "VESTA", "addr:country": "US", "addr:postcode": "56292", "addr:state": "MN", "addr:street_address": "109 S FRONT ST", "amenity": "post_box", "collection_times": "Mo-Fr 11:30; Sa 10:00", "indoor": "yes", "nsi_id": "unitedstatespostalservice-a77078", "operator": "United States Postal Service", "operator:short": "USPS", "operator:type": "public", "operator:wikidata": "Q668687", "ref": "5629200002"}, "type": "Feature"}
{"geometry": {"coordinates": [-95.416760156, 44.50681263], "type": "Point"}, "id": "aXnoDk6tkX6GPd-oMHxgL6jVFuE=", "properties": {"@source_uri": "https://tools.usps.com/UspsToolsRestServices/rest/POLocator/findLocations", "@spider": "usps_collection_boxes", "addr:city": "VESTA", "addr:country": "US", "addr:postcode": "56292", "addr:state": "MN", "addr:street_address": "109 S FRONT ST", "amenity": "post_box", "collection_times": "Mo-Fr 11:30; Sa 09:45", "indoor": "yes", "nsi_id": "unitedstatespostalservice-a77078", "operator": "United States Postal Service", "operator:short": "USPS", "operator:type": "public", "operator:wikidata": "Q668687", "ref": "5629200003"}, "type": "Feature"}
{"geometry": {"coordinates": [-95.255411307, 44.402020479], "type": "Point"}, "id": "Ol0q49Y7XdFGPDLk9NvJ82NUghY=", "properties": {"@source_uri": "https://tools.usps.com/UspsToolsRestServices/rest/POLocator/findLocations", "@spider": "usps_collection_boxes", "addr:city": "WABASSO", "addr:country": "US", "addr:postcode": "56293", "addr:state": "MN", "addr:street_address": "733 MAIN ST", "amenity": "post_box", "collection_times": "Mo-Sa 13:15", "note": "ON 12/24 AND 12/31, THIS BOX MAY BE COLLECTED AS EARLY AS 12 NOON.", "nsi_id": "unitedstatespostalservice-a77078", "operator": "United States Postal Service", "operator:short": "USPS", "operator:type": "public", "operator:wikidata": "Q668687", "ref": "5629300000"}, "type": "Feature"}
{"geometry": {"coordinates": [-95.255411307, 44.402020479], "type": "Point"}, "id": "CadMbVPXzCT6dFe7diL7z6n5-HE=", "properties": {"@source_uri": "https://tools.usps.com/UspsToolsRestServices/rest/POLocator/findLocations", "@spider": "usps_collection_boxes", "addr:city": "WABASSO", "addr:country": "US", "addr:postcode": "56293", "addr:state": "MN", "addr:street_address": "733 MAIN ST", "amenity": "post_box", "collection_times": "Mo-Fr 13:15; Sa 09:15", "indoor": "yes", "note": "ON 12/24 AND 12/31, THIS BOX MAY BE COLLECTED AS EARLY AS 12 NOON.", "nsi_id": "unitedstatespostalservice-a77078", "operator": "United States Postal Service", "operator:short": "USPS", "operator:type": "public", "operator:wikidata": "Q668687", "ref": "5629300001"}, "type": "Feature"}
{"geometry": {"coordinates": [-95.255411307, 44.402020479], "type": "Point"}, "id": "FZV1haeFbVBVHJwg-gHhf1iZUsc=", "properties": {"@source_uri": "https://tools.usps.com/UspsToolsRestServices/rest/POLocator/findLocations", "@spider": "usps_collection_boxes", "addr:city": "WABASSO", "addr:country": "US", "addr:postcode": "56293", "addr:state": "MN", "addr:street_address": "733 MAIN ST", "amenity": "post_box", "collection_times": "Mo-Fr 13:30; Sa 09:15", "indoor": "yes", "note": "ON 12/24 AND 12/31, THIS BOX MAY BE COLLECTED AS EARLY AS 12 NOON.", "nsi_id": "unitedstatespostalservice-a77078", "operator": "United States Postal Service", "operator:short": "USPS", "operator:type": "public", "operator:wikidata": "Q668687", "ref": "5629300002"}, "type": "Feature"}
{"geometry": {"coordinates": [-95.211764853, 44.316245162], "type": "Point"}, "id": "nUWP7eg4aD9ceCFZxjTmV2jxdwY=", "properties": {"@source_uri": "https://tools.usps.com/UspsToolsRestServices/rest/POLocator/findLocations", "@spider": "usps_collection_boxes", "addr:city": "WANDA", "addr:country": "US", "addr:postcode": "56294", "addr:state": "MN", "addr:street_address": "201 W MAIN ST", "amenity": "post_box", "collection_times": "Mo-Sa 13:00", "note": "ON 12/24 AND 12/31, THIS BOX MAY BE COLLECTED AS EARLY AS 12 NOON.", "nsi_id": "unitedstatespostalservice-a77078", "operator": "United States Postal Service", "operator:short": "USPS", "operator:type": "public", "operator:wikidata": "Q668687", "ref": "5629400000"}, "type": "Feature"}
{"geometry": {"coordinates": [-95.211764853, 44.316245162], "type": "Point"}, "id": "YFH0-CTM6-si_taVH-uyZAA6nqU=", "properties": {"@source_uri": "https://tools.usps.com/UspsToolsRestServices/rest/POLocator/findLocations", "@spider": "usps_collection_boxes", "addr:city": "WANDA", "addr:country": "US", "addr:postcode": "56294", "addr:state": "MN", "addr:street_address": "201 W MAIN ST", "amenity": "post_box", "collection_times": "Mo-Fr 13:00; Sa 09:45", "indoor": "yes", "note": "ON 12/24 AND 12/31, THIS BOX MAY BE COLLECTED AS EARLY AS 12 NOON.", "nsi_id": "unitedstatespostalservice-a77078", "operator": "United States Postal Service", "operator:short": "USPS", "operator:type": "public", "operator:wikidata": "Q668687", "ref": "5629400001"}, "type": "Feature"}
{"geometry": {"coordinates": [-95.211764853, 44.316245162], "type": "Point"}, "id": "oDpdapbUvwmdkKK4M9A_IunlHfw=", "properties": {"@source_uri": "https://tools.usps.com/UspsToolsRestServices/rest/POLocator/findLocations", "@spider": "usps_collection_boxes", "addr:city": "WANDA", "addr:country": "US", "addr:postcode": "56294", "addr:state": "MN", "addr:street_address": "201 W MAIN ST", "amenity": "post_box", "collection_times": "Mo-Fr 13:00; Sa 09:45", "indoor": "yes", "note": "ON 12/24 AND 12/31, THIS BOX MAY BE COLLECTED AS EARLY AS 12 NOON.", "nsi_id": "unitedstatespostalservice-a77078", "operator": "United States Postal Service", "operator:short": "USPS", "operator:type": "public", "operator:wikidata": "Q668687", "ref": "5629400002"}, "type": "Feature"}
{"geometry": {"coordinates": [-95.795062103, 45.029746643], "type": "Point"}, "id": "BJBeXoPhh9rRvo1_qY3yNpBD15Y=", "properties": {"@source_uri": "https://tools.usps.com/UspsToolsRestServices/rest/POLocator/findLocations", "@spider": "usps_collection_boxes", "addr:city": "WATSON", "addr:country": "US", "addr:postcode": "56295", "addr:state": "MN", "addr:street_address": "501 CO RD 9", "amenity": "post_box", "collection_times": "Mo-Sa 14:00", "note": "ON 12/24 AND 12/31, THIS BOX MAY BE COLLECTED AS EARLY AS 12 NOON.", "nsi_id": "unitedstatespostalservice-a77078", "operator": "United States Postal Service", "operator:short": "USPS", "operator:type": "public", "operator:wikidata": "Q668687", "ref": "5629500000"}, "type": "Feature"}
{"geometry": {"coordinates": [-95.795062103, 45.029746643], "type": "Point"}, "id": "82XyDqfI5L-1Nw1vclLY5BvK5cM=", "properties": {"@source_uri": "https://tools.usps.com/UspsToolsRestServices/rest/POLocator/findLocations", "@spider": "usps_collection_boxes", "addr:city": "WATSON", "addr:country": "US", "addr:postcode": "56295", "addr:state": "MN", "addr:street_address": "501 CO RD 9", "amenity": "post_box", "collection_times": "Mo-Fr 14:00; Sa 12:30", "indoor": "yes", "note": "ON 12/24 AND 12/31, THIS BOX MAY BE COLLECTED AS EARLY AS 12 NOON.", "nsi_id": "unitedstatespostalservice-a77078", "operator": "United States Postal Service", "operator:short": "USPS", "operator:type": "public", "operator:wikidata": "Q668687", "ref": "5629500001"}, "type": "Feature"}
{"geometry": {"coordinates": [-95.795062103, 45.029746643], "type": "Point"}, "id": "qNkwykZbnIaEggrDfmqyHWpXWBU=", "properties": {"@source_uri": "https://tools.usps.com/UspsToolsRestServices/rest/POLocator/findLocations", "@spider": "usps_collection_boxes", "addr:city": "WATSON", "addr:country": "US", "addr:postcode": "56295", "addr:state": "MN", "addr:street_address": "501 COUNTY ROAD 9", "amenity": "post_box", "collection_times": "Mo-Fr 14:00; Sa 12:30", "indoor": "yes", "note": "ON 12/24 AND 12/31, THIS BOX MAY BE COLLECTED AS EARLY AS 12 NOON.", "nsi_id": "unitedstatespostalservice-a77078", "operator": "United States Postal Service", "operator:short": "USPS", "operator:type": "public", "operator:wikidata": "Q668687", "ref": "5629500002"}, "type": "Feature"}
{"geometry": {"coordinates": [-96.490319457, 45.804230043], "type": "Point"}, "id": "GTBaRoIYcr4PhZhj-p0EyxWAZJY=", "properties": {"@source_uri": "https://tools.usps.com/UspsToolsRestServices/rest/POLocator/findLocations", "@spider": "usps_collection_boxes", "addr:city": "WHEATON", "addr:country": "US", "addr:postcode": "56296", "addr:state": "MN", "addr:street_address": "501 BROADWAY", "amenity": "post_box", "collection_times": "Mo-Sa 09:30", "nsi_id": "unitedstatespostalservice-a77078", "operator": "United States Postal Service", "operator:short": "USPS", "operator:type": "public", "operator:wikidata": "Q668687", "ref": "5629600000"}, "type": "Feature"}
{"geometry": {"coordinates": [-96.498860981, 45.80428855], "type": "Point"}, "id": "M2ZcQrDdIA7sHv8xa5WC7M3iVPU=", "properties": {"@source_uri": "https://tools.usps.com/UspsToolsRestServices/rest/POLocator/findLocations", "@spider": "usps_collection_boxes", "addr:city": "WHEATON", "addr:country": "US", "addr:postcode": "56296", "addr:state": "MN", "addr:street_address": "1107 BROADWAY", "amenity": "post_box", "collection_times": "Mo-Sa 12:45", "note": "ON 12/24 AND 12/31, THIS BOX MAY BE COLLECTED AS EARLY AS 12 NOON.", "nsi_id": "unitedstatespostalservice-a77078", "operator": "United States Postal Service", "operator:short": "USPS", "operator:type": "public", "operator:wikidata": "Q668687", "ref": "5629600003"}, "type": "Feature"}
{"geometry": {"coordinates": [-96.498860981, 45.80428855], "type": "Point"}, "id": "daUr5DSkdyX7Lq42vTfKB_xgaSg=", "properties": {"@source_uri": "https://tools.usps.com/UspsToolsRestServices/rest/POLocator/findLocations", "@spider": "usps_collection_boxes", "addr:city": "WHEATON", "addr:country": "US", "addr:postcode": "56296", "addr:state": "MN", "addr:street_address": "1107 BROADWAY", "amenity": "post_box", "collection_times": "Mo-Fr 12:45; Sa 09:30", "indoor": "yes", "note": "ON 12/24 AND 12/31, THIS BOX MAY BE COLLECTED AS EARLY AS 12 NOON.", "nsi_id": "unitedstatespostalservice-a77078", "operator": "United States Postal Service", "operator:short": "USPS", "operator:type": "public", "operator:wikidata": "Q668687", "ref": "5629600009"}, "type": "Feature"}
{"geometry": {"coordinates": [-96.495616475, 45.805265565], "type": "Point"}, "id": "RRNmnP8MiBZ6TKSwx9RZm0oTmLc=", "properties": {"@source_uri": "https://tools.usps.com/UspsToolsRestServices/rest/POLocator/findLocations", "@spider": "usps_collection_boxes", "addr:city": "WHEATON", "addr:country": "US", "addr:postcode": "56296", "addr:state": "MN", "addr:street_address": "901 1ST AVE N", "amenity": "post_box", "collection_times": "Mo-Sa 11:30", "nsi_id": "unitedstatespostalservice-a77078", "operator": "United States Postal Service", "operator:short": "USPS", "operator:type": "public", "operator:wikidata": "Q668687", "ref": "5629600010"}, "type": "Feature"}
{"geometry": {"coordinates": [-96.50199932, 45.808632], "type": "Point"}, "id": "DvRkYe_ZhQpgmakkjKmMpt-z44Q=", "properties": {"@source_uri": "https://tools.usps.com/UspsToolsRestServices/rest/POLocator/findLocations", "@spider": "usps_collection_boxes", "addr:city": "WHEATON", "addr:country": "US", "addr:postcode": "56296", "addr:state": "MN", "addr:street_address": "407 13TH ST N", "amenity": "post_box", "collection_times": "Mo-Fr 11:45; Sa 09:30", "nsi_id": "unitedstatespostalservice-a77078", "operator": "United States Postal Service", "operator:short": "USPS", "operator:type": "public", "operator:wikidata": "Q668687", "ref": "5629600011"}, "type": "Feature"}
{"geometry": {"coordinates": [-96.498498208, 45.809406395], "type": "Point"}, "id": "i3jk_BFUBj7MeO53H-PKqiPU5QU=", "properties": {"@source_uri": "https://tools.usps.com/UspsToolsRestServices/rest/POLocator/findLocations", "@spider": "usps_collection_boxes", "addr:city": "WHEATON", "addr:country": "US", "addr:postcode": "56296", "addr:state": "MN", "addr:street_address": "1105 5TH AVE N", "amenity": "post_box", "collection_times": "Mo-Fr 11:45; Sa 09:30", "nsi_id": "unitedstatespostalservice-a77078", "operator": "United States Postal Service", "operator:short": "USPS", "operator:type": "public", "operator:wikidata": "Q668687", "ref": "5629600012"}, "type": "Feature"}
{"geometry": {"coordinates": [-96.49411822, 45.808078084], "type": "Point"}, "id": "HdehEA9qIC1ispxTtPJsgz1zHk4=", "properties": {"@source_uri": "https://tools.usps.com/UspsToolsRestServices/rest/POLocator/findLocations", "@spider": "usps_collection_boxes", "addr:city": "WHEATON", "addr:country": "US", "addr:postcode": "56296", "addr:state": "MN", "addr:street_address": "403 8TH ST N", "amenity": "post_box", "collection_times": "Mo-Fr 11:30; Sa 09:30", "nsi_id": "unitedstatespostalservice-a77078", "operator": "United States Postal Service", "operator:short": "USPS", "operator:type": "public", "operator:wikidata": "Q668687", "ref": "5629600013"}, "type": "Feature"}
{"geometry": {"coordinates": [-96.498323332, 45.806269946], "type": "Point"}, "id": "5JqWm33pHY3LHLIhRA17ScW06J4=", "properties": {"@source_uri": "https://tools.usps.com/UspsToolsRestServices/rest/POLocator/findLocations", "@spider": "usps_collection_boxes", "addr:city": "WHEATON", "addr:country": "US", "addr:postcode": "56296", "addr:state": "MN", "addr:street_address": "204 11TH ST N", "amenity": "post_box", "collection_times": "Mo-Fr 12:00; Sa 09:30", "nsi_id": "unitedstatespostalservice-a77078", "operator": "United States Postal Service", "operator:short": "USPS", "operator:type": "public", "operator:wikidata": "Q668687", "ref": "5629600014"}, "type": "Feature"}
{"geometry": {"coordinates": [-96.498860981, 45.80428855], "type": "Point"}, "id": "RNWQz44_KfJXmwsmNfxMBwlFxxo=", "properties": {"@source_uri": "https://tools.usps.com/UspsToolsRestServices/rest/POLocator/findLocations", "@spider": "usps_collection_boxes", "addr:city": "WHEATON", "addr:country": "US", "addr:postcode": "56296", "addr:state": "MN", "addr:street_address": "1107 BROADWAY", "amenity": "post_box", "collection_times": "Mo-Fr 12:30; Sa 10:00", "indoor": "yes", "note": "ON 12/24 AND 12/31, THIS BOX MAY BE COLLECTED AS EARLY AS 12 NOON.", "nsi_id": "unitedstatespostalservice-a77078", "operator": "United States Postal Service", "operator:short": "USPS", "operator:type": "public", "operator:wikidata": "Q668687", "ref": "5629600015"}, "type": "Feature"}
{"geometry": {"coordinates": [-95.538510335, 44.651775511], "type": "Point"}, "id": "16OEHMmUY041FWfbs4KxDPrek3c=", "properties": {"@source_uri": "https://tools.usps.com/UspsToolsRestServices/rest/POLocator/findLocations", "@spider": "usps_collection_boxes", "addr:city": "WOOD LAKE", "addr:country": "US", "addr:postcode": "56297", "addr:state": "MN", "addr:street_address": "1 2ND AVE", "amenity": "post_box", "collection_times": "Mo-Sa 14:15", "note": "ON 12/24 AND 12/31, THIS BOX MAY BE COLLECTED AS EARLY AS 12 NOON.", "nsi_id": "unitedstatespostalservice-a77078", "operator": "United States Postal Service", "operator:short": "USPS", "operator:type": "public", "operator:wikidata": "Q668687", "ref": "5629700000"}, "type": "Feature"}
{"geometry": {"coordinates": [-95.538510335, 44.651775511], "type": "Point"}, "id": "Rg_-EHlYisEjwW5fDoEp60cwceQ=", "properties": {"@source_uri": "https://tools.usps.com/UspsToolsRestServices/rest/POLocator/findLocations", "@spider": "usps_collection_boxes", "addr:city": "WOOD LAKE", "addr:country": "US", "addr:postcode": "56297", "addr:state": "MN", "addr:street_address": "1 2ND AVE", "amenity": "post_box", "collection_times": "Mo-Sa 14:15", "note": "ON 12/24 AND 12/31, THIS BOX MAY BE COLLECTED AS EARLY AS 12 NOON.", "nsi_id": "unitedstatespostalservice-a77078", "operator": "United States Postal Service", "operator:short": "USPS", "operator:type": "public", "operator:wikidata": "Q668687", "ref": "5629700001"}, "type": "Feature"}
{"geometry": {"coordinates": [-95.5385100355, 44.6516800181], "type": "Point"}, "id": "nfccls23d2DFk7-kQJJWu8AiAVU=", "properties": {"@source_uri": "https://tools.usps.com/UspsToolsRestServices/rest/POLocator/findLocations", "@spider": "usps_collection_boxes", "addr:city": "WOOD LAKE", "addr:country": "US", "addr:postcode": "56297", "addr:state": "MN", "addr:street_address": "1 2ND AVE", "amenity": "post_box", "collection_times": "Mo-Fr 13:45; Sa 09:00", "indoor": "yes", "note": "ON 12/24 AND 12/31, THIS BOX MAY BE COLLECTED AS EARLY AS 12 NOON.", "nsi_id": "unitedstatespostalservice-a77078", "operator": "United States Postal Service", "operator:short": "USPS", "operator:type": "public", "operator:wikidata": "Q668687", "ref": "5629700002"}, "type": "Feature"}
{"geometry": {"coordinates": [-95.5391199866, 44.6515299821], "type": "Point"}, "id": "ocdXVUmxCleq3Rptmw1PwdMbsN8=", "properties": {"@source_uri": "https://tools.usps.com/UspsToolsRestServices/rest/POLocator/findLocations", "@spider": "usps_collection_boxes", "addr:city": "WOOD LAKE", "addr:country": "US", "addr:postcode": "56297", "addr:state": "MN", "addr:street_address": "1 2ND AVE W", "amenity": "post_box", "collection_times": "Mo-Fr 13:45; Sa 09:00", "indoor": "yes", "note": "ON 12/24 AND 12/31, THIS BOX MAY BE COLLECTED AS EARLY AS 12 NOON.", "nsi_id": "unitedstatespostalservice-a77078", "operator": "United States Postal Service", "operator:short": "USPS", "operator:type": "public", "operator:wikidata": "Q668687", "ref": "5629700003"}, "type": "Feature"}
