{"geometry": {"coordinates": [-94.165711351, 45.557891604], "type": "Point"}, "id": "Qtt6TiXviG26vRBtll6BufzHvTA=", "properties": {"@source_uri": "https://tools.usps.com/UspsToolsRestServices/rest/POLocator/findLocations", "@spider": "usps_collection_boxes", "addr:city": "SAINT CLOUD", "addr:country": "US", "addr:postcode": "56301", "addr:state": "MN", "addr:street_address": "1100 W SAINT GERMAIN ST", "amenity": "post_box", "collection_times": "Mo-Fr 15:15", "note": "ON 12/24 AND 12/31, THIS BOX MAY BE COLLECTED AS EARLY AS 12 NOON.", "nsi_id": "unitedstatespostalservice-a77078", "operator": "United States Postal Service", "operator:short": "USPS", "operator:type": "public", "operator:wikidata": "Q668687", "ref": "5630100001"}, "type": "Feature"}
{"geometry": {"coordinates": [-94.161309231, 45.559761655], "type": "Point"}, "id": "_2Bs9kawCThHMUMY6JlLjL9zaAU=", "properties": {"@source_uri": "https://tools.usps.com/UspsToolsRestServices/rest/POLocator/findLocations", "@spider": "usps_collection_boxes", "addr:city": "SAINT CLOUD", "addr:country": "US", "addr:postcode": "56301", "addr:state": "MN", "addr:street_address": "720 W SAINT GERMAIN ST", "amenity": "post_box", "collection_times": "Mo-Sa 16:00", "note": "ON 12/24 AND 12/31, THIS BOX MAY BE COLLECTED AS EARLY AS 12 NOON.", "nsi_id": "unitedstatespostalservice-a77078", "operator": "United States Postal Service", "operator:short": "USPS", "operator:type": "public", "operator:wikidata": "Q668687", "ref": "5630100006"}, "type": "Feature"}
{"geometry": {"coordinates": [-94.1613963186, 45.5595896321], "type": "Point"}, "id": "3Tqa2QmGbdW_AfRiWpMVCFNkQDY=", "properties": {"@source_uri": "https://tools.usps.com/UspsToolsRestServices/rest/POLocator/findLocations", "@spider": "usps_collection_boxes", "addr:city": "SAINT CLOUD", "addr:country": "US", "addr:postcode": "56301", "addr:state": "MN", "addr:street_address": "10 8TH AVE S", "amenity": "post_box", "collection_times": "Mo-Sa 16:00", "note": "ON 12/24 AND 12/31, THIS BOX MAY BE COLLECTED AS EARLY AS 12 NOON.", "nsi_id": "unitedstatespostalservice-a77078", "operator": "United States Postal Service", "operator:short": "USPS", "operator:type": "public", "operator:wikidata": "Q668687", "ref": "5630100010"}, "type": "Feature"}
{"geometry": {"coordinates": [-94.156561443, 45.560478585], "type": "Point"}, "id": "6OQksPwzcemrc1XjAa-AjPXzg90=", "properties": {"@source_uri": "https://tools.usps.com/UspsToolsRestServices/rest/POLocator/findLocations", "@spider": "usps_collection_boxes", "addr:city": "SAINT CLOUD", "addr:country": "US", "addr:postcode": "56301", "addr:state": "MN", "addr:street_address": "400 1ST ST S", "amenity": "post_box", "collection_times": "Mo-Fr 15:30", "note": "ON 12/24 AND 12/31, THIS BOX MAY BE COLLECTED AS EARLY AS 12 NOON.", "nsi_id": "unitedstatespostalservice-a77078", "operator": "United States Postal Service", "operator:short": "USPS", "operator:type": "public", "operator:wikidata": "Q668687", "ref": "5630100016"}, "type": "Feature"}
{"geometry": {"coordinates": [-94.198850749, 45.553351493], "type": "Point"}, "id": "IH3ffJ3q-Bk1EFDbciOYpD_u6h4=", "properties": {"@source_uri": "https://tools.usps.com/UspsToolsRestServices/rest/POLocator/findLocations", "@spider": "usps_collection_boxes", "addr:city": "SAINT CLOUD", "addr:country": "US", "addr:postcode": "56301", "addr:state": "MN", "addr:street_address": "3333 W DIVISION ST", "amenity": "post_box", "collection_times": "Mo-Fr 15:30; Sa 14:30", "note": "ON 12/24 AND 12/31, THIS BOX MAY BE COLLECTED AS EARLY AS 12 NOON.", "nsi_id": "unitedstatespostalservice-a77078", "operator": "United States Postal Service", "operator:short": "USPS", "operator:type": "public", "operator:wikidata": "Q668687", "ref": "5630100024"}, "type": "Feature"}
{"geometry": {"coordinates": [-94.187919593, 45.548089325], "type": "Point"}, "id": "vEgUtvYtUp34r_Z8lo7pu1EXgdY=", "properties": {"@source_uri": "https://tools.usps.com/UspsToolsRestServices/rest/POLocator/findLocations", "@spider": "usps_collection_boxes", "addr:city": "SAINT CLOUD", "addr:country": "US", "addr:postcode": "56301", "addr:state": "MN", "addr:street_address": "600 25TH AVE S", "amenity": "post_box", "collection_times": "Mo-Fr 15:30", "note": "ON 12/24 AND 12/31, THIS BOX MAY BE COLLECTED AS EARLY AS 12 NOON.", "nsi_id": "unitedstatespostalservice-a77078", "operator": "United States Postal Service", "operator:short": "USPS", "operator:type": "public", "operator:wikidata": "Q668687", "ref": "5630100038"}, "type": "Feature"}
{"geometry": {"coordinates": [-94.189131583, 45.553057268], "type": "Point"}, "id": "xSpApTlu6Piuknsj242kcXvuiBA=", "properties": {"@source_uri": "https://tools.usps.com/UspsToolsRestServices/rest/POLocator/findLocations", "@spider": "usps_collection_boxes", "addr:city": "SAINT CLOUD", "addr:country": "US", "addr:postcode": "56301", "addr:state": "MN", "addr:street_address": "2510 W DIVISION ST", "amenity": "post_box", "collection_times": "Mo-Fr 15:30; Sa 14:15", "note": "ON 12/24 AND 12/31, THIS BOX MAY BE COLLECTED AS EARLY AS 12 NOON.", "nsi_id": "unitedstatespostalservice-a77078", "operator": "United States Postal Service", "operator:short": "USPS", "operator:type": "public", "operator:wikidata": "Q668687", "ref": "5630100041"}, "type": "Feature"}
{"geometry": {"coordinates": [-94.177460733, 45.550224], "type": "Point"}, "id": "fsD893XOLpNAgqra1BkYal_hqno=", "properties": {"@source_uri": "https://tools.usps.com/UspsToolsRestServices/rest/POLocator/findLocations", "@spider": "usps_collection_boxes", "addr:city": "SAINT CLOUD", "addr:country": "US", "addr:postcode": "56301", "addr:state": "MN", "addr:street_address": "900 COOPER AVE S", "amenity": "post_box", "collection_times": "Mo-Sa 13:45", "note": "ON 12/24 AND 12/31, THIS BOX MAY BE COLLECTED AS EARLY AS 12 NOON.", "nsi_id": "unitedstatespostalservice-a77078", "operator": "United States Postal Service", "operator:short": "USPS", "operator:type": "public", "operator:wikidata": "Q668687", "ref": "5630100071"}, "type": "Feature"}
{"geometry": {"coordinates": [-94.16460944, 45.561051624], "type": "Point"}, "id": "5ApWwV5XOjVrK_Lljhba-h0C7zo=", "properties": {"@source_uri": "https://tools.usps.com/UspsToolsRestServices/rest/POLocator/findLocations", "@spider": "usps_collection_boxes", "addr:city": "SAINT CLOUD", "addr:country": "US", "addr:postcode": "56301", "addr:state": "MN", "addr:street_address": "915 2ND ST N", "amenity": "post_box", "collection_times": "Mo-Sa 16:15", "indoor": "yes", "note": "ON 12/24 AND 12/31, THIS BOX MAY BE COLLECTED AS EARLY AS 12 NOON.", "nsi_id": "unitedstatespostalservice-a77078", "operator": "United States Postal Service", "operator:short": "USPS", "operator:type": "public", "operator:wikidata": "Q668687", "ref": "5630100101"}, "type": "Feature"}
{"geometry": {"coordinates": [-94.16460944, 45.561051624], "type": "Point"}, "id": "V1XqCDqVEqYFjPMYRTTAxu8WCnA=", "properties": {"@source_uri": "https://tools.usps.com/UspsToolsRestServices/rest/POLocator/findLocations", "@spider": "usps_collection_boxes", "addr:city": "SAINT CLOUD", "addr:country": "US", "addr:postcode": "56301", "addr:state": "MN", "addr:street_address": "915 2ND ST N", "amenity": "post_box", "collection_times": "Mo-Sa 16:15", "name": "USPS COLLECTION BOX - APC", "note": "ON 12/24 AND 12/31, THIS BOX MAY BE COLLECTED AS EARLY AS 12 NOON.", "nsi_id": "unitedstatespostalservice-a77078", "operator": "United States Postal Service", "operator:short": "USPS", "operator:type": "public", "operator:wikidata": "Q668687", "ref": "5630100102"}, "type": "Feature"}
{"geometry": {"coordinates": [-94.212409972, 45.553284663], "type": "Point"}, "id": "EErKeHsqyLBctI-qTpeinNu2s5E=", "properties": {"@source_uri": "https://tools.usps.com/UspsToolsRestServices/rest/POLocator/findLocations", "@spider": "usps_collection_boxes", "addr:city": "SAINT CLOUD", "addr:country": "US", "addr:postcode": "56301", "addr:state": "MN", "addr:street_address": "4170 W DIVISION ST", "amenity": "post_box", "collection_times": "Mo-Sa 17:00", "note": "ON 12/24 AND 12/31, THIS BOX MAY BE COLLECTED AS EARLY AS 12 NOON.", "nsi_id": "unitedstatespostalservice-a77078", "operator": "United States Postal Service", "operator:short": "USPS", "operator:type": "public", "operator:wikidata": "Q668687", "ref": "5630100116"}, "type": "Feature"}
{"geometry": {"coordinates": [-94.212409972, 45.553284663], "type": "Point"}, "id": "mLAJcIU4sxTuTakmGkZ9cz23G4Y=", "properties": {"@source_uri": "https://tools.usps.com/UspsToolsRestServices/rest/POLocator/findLocations", "@spider": "usps_collection_boxes", "addr:city": "SAINT CLOUD", "addr:country": "US", "addr:postcode": "56301", "addr:state": "MN", "addr:street_address": "4170 W DIVISION ST", "amenity": "post_box", "collection_times": "Mo-Fr 17:00; Sa 12:00", "indoor": "yes", "note": "ON 12/24 AND 12/31, THIS BOX MAY BE COLLECTED AS EARLY AS 12 NOON.", "nsi_id": "unitedstatespostalservice-a77078", "operator": "United States Postal Service", "operator:short": "USPS", "operator:type": "public", "operator:wikidata": "Q668687", "ref": "5630100119"}, "type": "Feature"}
{"geometry": {"coordinates": [-94.212409972, 45.553284663], "type": "Point"}, "id": "f80WzpZD_T7CuSSiv8av6yEqXoE=", "properties": {"@source_uri": "https://tools.usps.com/UspsToolsRestServices/rest/POLocator/findLocations", "@spider": "usps_collection_boxes", "addr:city": "SAINT CLOUD", "addr:country": "US", "addr:postcode": "56301", "addr:state": "MN", "addr:street_address": "4170 W DIVISION ST", "amenity": "post_box", "collection_times": "Mo-Fr 17:00; Sa 12:00", "indoor": "yes", "note": "ON 12/24 AND 12/31, THIS BOX MAY BE COLLECTED AS EARLY AS 12 NOON.", "nsi_id": "unitedstatespostalservice-a77078", "operator": "United States Postal Service", "operator:short": "USPS", "operator:type": "public", "operator:wikidata": "Q668687", "ref": "5630100124"}, "type": "Feature"}
{"geometry": {"coordinates": [-94.16460944, 45.561051624], "type": "Point"}, "id": "jTycWXojEA7W3-vpgrQ0wJlXS30=", "properties": {"@source_uri": "https://tools.usps.com/UspsToolsRestServices/rest/POLocator/findLocations", "@spider": "usps_collection_boxes", "addr:city": "SAINT CLOUD", "addr:country": "US", "addr:postcode": "56301", "addr:state": "MN", "addr:street_address": "915 2ND ST N", "amenity": "post_box", "collection_times": "Mo-Fr 16:00; Sa 11:00", "indoor": "yes", "note": "ON 12/24 AND 12/31, THIS BOX MAY BE COLLECTED AS EARLY AS 12 NOON.", "nsi_id": "unitedstatespostalservice-a77078", "operator": "United States Postal Service", "operator:short": "USPS", "operator:type": "public", "operator:wikidata": "Q668687", "ref": "5630100127"}, "type": "Feature"}
{"geometry": {"coordinates": [-94.212409972, 45.553284663], "type": "Point"}, "id": "4zyZLxuwMYC-n7kDhZN8yQuGHnY=", "properties": {"@source_uri": "https://tools.usps.com/UspsToolsRestServices/rest/POLocator/findLocations", "@spider": "usps_collection_boxes", "addr:city": "SAINT CLOUD", "addr:country": "US", "addr:postcode": "56301", "addr:state": "MN", "addr:street_address": "4170 W DIVISION ST STE 160", "amenity": "post_box", "collection_times": "Mo-Fr 16:45; Sa 12:00", "indoor": "yes", "note": "ON 12/24 AND 12/31, THIS BOX MAY BE COLLECTED AS EARLY AS 12 NOON.", "nsi_id": "unitedstatespostalservice-a77078", "operator": "United States Postal Service", "operator:short": "USPS", "operator:type": "public", "operator:wikidata": "Q668687", "ref": "5630100128"}, "type": "Feature"}
{"geometry": {"coordinates": [-94.190912832, 45.554938514], "type": "Point"}, "id": "ArEv6mpy1wbQXOAclnq8ELy2rO8=", "properties": {"@source_uri": "https://tools.usps.com/UspsToolsRestServices/rest/POLocator/findLocations", "@spider": "usps_collection_boxes", "addr:city": "SAINT CLOUD", "addr:country": "US", "addr:postcode": "56303", "addr:state": "MN", "addr:street_address": "2700 1ST ST N", "amenity": "post_box", "collection_times": "Mo-Fr 15:15", "note": "ON 12/24 AND 12/31, THIS BOX MAY BE COLLECTED AS EARLY AS 12 NOON.", "nsi_id": "unitedstatespostalservice-a77078", "operator": "United States Postal Service", "operator:short": "USPS", "operator:type": "public", "operator:wikidata": "Q668687", "ref": "5630300001"}, "type": "Feature"}
{"geometry": {"coordinates": [-94.198311711, 45.559656], "type": "Point"}, "id": "2dssw27P5Bv1qHldRBeNhTV2vFY=", "properties": {"@source_uri": "https://tools.usps.com/UspsToolsRestServices/rest/POLocator/findLocations", "@spider": "usps_collection_boxes", "addr:city": "SAINT CLOUD", "addr:country": "US", "addr:postcode": "56303", "addr:state": "MN", "addr:street_address": "305 33RD AVE N", "amenity": "post_box", "collection_times": "Mo-Fr 15:45; Sa 14:45", "note": "ON 12/24 AND 12/31, THIS BOX MAY BE COLLECTED AS EARLY AS 12 NOON.", "nsi_id": "unitedstatespostalservice-a77078", "operator": "United States Postal Service", "operator:short": "USPS", "operator:type": "public", "operator:wikidata": "Q668687", "ref": "5630300003"}, "type": "Feature"}
{"geometry": {"coordinates": [-94.182800061, 45.565272587], "type": "Point"}, "id": "96J70QsaOFirk9BMXHeuTm7Efoo=", "properties": {"@source_uri": "https://tools.usps.com/UspsToolsRestServices/rest/POLocator/findLocations", "@spider": "usps_collection_boxes", "addr:city": "SAINT CLOUD", "addr:country": "US", "addr:postcode": "56303", "addr:state": "MN", "addr:street_address": "2118 8TH ST N", "amenity": "post_box", "collection_times": "Mo-Sa 14:15", "note": "ON 12/24 AND 12/31, THIS BOX MAY BE COLLECTED AS EARLY AS 12 NOON.", "nsi_id": "unitedstatespostalservice-a77078", "operator": "United States Postal Service", "operator:short": "USPS", "operator:type": "public", "operator:wikidata": "Q668687", "ref": "5630300006"}, "type": "Feature"}
{"geometry": {"coordinates": [-94.229149385, 45.570623672], "type": "Point"}, "id": "F_Oc42pS-m3qgkgbh0XtLmPONsE=", "properties": {"@source_uri": "https://tools.usps.com/UspsToolsRestServices/rest/POLocator/findLocations", "@spider": "usps_collection_boxes", "addr:city": "SAINT CLOUD", "addr:country": "US", "addr:postcode": "56303", "addr:state": "MN", "addr:street_address": "905 COUNTY ROAD 4", "amenity": "post_box", "collection_times": "Mo-Sa 14:30", "note": "ON 12/24 AND 12/31, THIS BOX MAY BE COLLECTED AS EARLY AS 12 NOON.", "nsi_id": "unitedstatespostalservice-a77078", "operator": "United States Postal Service", "operator:short": "USPS", "operator:type": "public", "operator:wikidata": "Q668687", "ref": "5630300009"}, "type": "Feature"}
{"geometry": {"coordinates": [-94.182299368, 45.57835905], "type": "Point"}, "id": "P0rC9POJOwa8hORH1QSvzsoBKXs=", "properties": {"@source_uri": "https://tools.usps.com/UspsToolsRestServices/rest/POLocator/findLocations", "@spider": "usps_collection_boxes", "addr:city": "SAINT CLOUD", "addr:country": "US", "addr:postcode": "56303", "addr:state": "MN", "addr:street_address": "1540 NORTHWAY DR", "amenity": "post_box", "collection_times": "Mo-Fr 14:15", "note": "ON 12/24 AND 12/31, THIS BOX MAY BE COLLECTED AS EARLY AS 12 NOON.", "nsi_id": "unitedstatespostalservice-a77078", "operator": "United States Postal Service", "operator:short": "USPS", "operator:type": "public", "operator:wikidata": "Q668687", "ref": "5630300011"}, "type": "Feature"}
{"geometry": {"coordinates": [-94.1644062448, 45.5609911328], "type": "Point"}, "id": "gFrmHcvNgsMgZdnLCDh_IG5EYxk=", "properties": {"@source_uri": "https://tools.usps.com/UspsToolsRestServices/rest/POLocator/findLocations", "@spider": "usps_collection_boxes", "addr:city": "SAINT CLOUD", "addr:country": "US", "addr:postcode": "56303", "addr:state": "MN", "addr:street_address": "199 9TH AVE N", "amenity": "post_box", "collection_times": "Mo-Sa 16:00", "note": "ON 12/24 AND 12/31, THIS BOX MAY BE COLLECTED AS EARLY AS 12 NOON.", "nsi_id": "unitedstatespostalservice-a77078", "operator": "United States Postal Service", "operator:short": "USPS", "operator:type": "public", "operator:wikidata": "Q668687", "ref": "5630300016"}, "type": "Feature"}
{"geometry": {"coordinates": [-94.170591, 45.5636231], "type": "Point"}, "id": "mVMw2fVG596nZBwdfhtj8FKnAJY=", "properties": {"@source_uri": "https://tools.usps.com/UspsToolsRestServices/rest/POLocator/findLocations", "@spider": "usps_collection_boxes", "addr:city": "SAINT CLOUD", "addr:country": "US", "addr:postcode": "56303", "addr:state": "MN", "addr:street_address": "1900 CENTRA CARE CIR", "amenity": "post_box", "collection_times": "Mo-Fr 14:45", "note": "ON 12/24 AND 12/31, THIS BOX MAY BE COLLECTED AS EARLY AS 12 NOON.", "nsi_id": "unitedstatespostalservice-a77078", "operator": "United States Postal Service", "operator:short": "USPS", "operator:type": "public", "operator:wikidata": "Q668687", "ref": "5630300018"}, "type": "Feature"}
{"geometry": {"coordinates": [-94.217802711, 45.56774399], "type": "Point"}, "id": "hBI0ryZ44yqKsE9HXfYywLTFXeM=", "properties": {"@source_uri": "https://tools.usps.com/UspsToolsRestServices/rest/POLocator/findLocations", "@spider": "usps_collection_boxes", "addr:city": "SAINT CLOUD", "addr:country": "US", "addr:postcode": "56303", "addr:state": "MN", "addr:street_address": "4801 VETERANS DR", "amenity": "post_box", "collection_times": "Mo-Fr 13:45", "note": "ON 12/24 AND 12/31, THIS BOX MAY BE COLLECTED AS EARLY AS 12 NOON.", "nsi_id": "unitedstatespostalservice-a77078", "operator": "United States Postal Service", "operator:short": "USPS", "operator:type": "public", "operator:wikidata": "Q668687", "ref": "5630300020"}, "type": "Feature"}
{"geometry": {"coordinates": [-94.151795929, 45.565971484], "type": "Point"}, "id": "D3n2agfkEa7e7hCbtcdcs8fGns4=", "properties": {"@source_uri": "https://tools.usps.com/UspsToolsRestServices/rest/POLocator/findLocations", "@spider": "usps_collection_boxes", "addr:city": "SAINT CLOUD", "addr:country": "US", "addr:postcode": "56304", "addr:state": "MN", "addr:street_address": "22 WILSON AVE NE", "amenity": "post_box", "collection_times": "Mo-Fr 14:45; Sa 13:00", "note": "ON 12/24 AND 12/31, THIS BOX MAY BE COLLECTED AS EARLY AS 12 NOON.", "nsi_id": "unitedstatespostalservice-a77078", "operator": "United States Postal Service", "operator:short": "USPS", "operator:type": "public", "operator:wikidata": "Q668687", "ref": "5630400001"}, "type": "Feature"}
{"geometry": {"coordinates": [-94.138840996, 45.562846509], "type": "Point"}, "id": "R50I_teomURJ_b7B2xZ6T5-q0Q4=", "properties": {"@source_uri": "https://tools.usps.com/UspsToolsRestServices/rest/POLocator/findLocations", "@spider": "usps_collection_boxes", "addr:city": "SAINT CLOUD", "addr:country": "US", "addr:postcode": "56304", "addr:state": "MN", "addr:street_address": "1001 4TH ST SE", "amenity": "post_box", "collection_times": "Mo-Fr 14:45; Sa 12:45", "note": "ON 12/24 AND 12/31, THIS BOX MAY BE COLLECTED AS EARLY AS 12 NOON.", "nsi_id": "unitedstatespostalservice-a77078", "operator": "United States Postal Service", "operator:short": "USPS", "operator:type": "public", "operator:wikidata": "Q668687", "ref": "5630400003"}, "type": "Feature"}
{"geometry": {"coordinates": [-94.565111679, 45.629641402], "type": "Point"}, "id": "UOy1bOXfHSvdSmEtUY4uIcetYAg=", "properties": {"@source_uri": "https://tools.usps.com/UspsToolsRestServices/rest/POLocator/findLocations", "@spider": "usps_collection_boxes", "addr:city": "ALBANY", "addr:country": "US", "addr:postcode": "56307", "addr:state": "MN", "addr:street_address": "141 RAILROAD AVE", "amenity": "post_box", "collection_times": "Mo-Fr 16:00; Sa 10:00", "note": "ON 12/24 AND 12/31, THIS BOX MAY BE COLLECTED AS EARLY AS 12 NOON.", "nsi_id": "unitedstatespostalservice-a77078", "operator": "United States Postal Service", "operator:short": "USPS", "operator:type": "public", "operator:wikidata": "Q668687", "ref": "5630700000"}, "type": "Feature"}
{"geometry": {"coordinates": [-94.565111679, 45.629641402], "type": "Point"}, "id": "smIzpr3oSzkMPcRb2fIG6KY9g9U=", "properties": {"@source_uri": "https://tools.usps.com/UspsToolsRestServices/rest/POLocator/findLocations", "@spider": "usps_collection_boxes", "addr:city": "ALBANY", "addr:country": "US", "addr:postcode": "56307", "addr:state": "MN", "addr:street_address": "141 RAILROAD AVE", "amenity": "post_box", "collection_times": "Mo-Fr 16:00; Sa 10:00", "indoor": "yes", "note": "ON 12/24 AND 12/31, THIS BOX MAY BE COLLECTED AS EARLY AS 12 NOON.", "nsi_id": "unitedstatespostalservice-a77078", "operator": "United States Postal Service", "operator:short": "USPS", "operator:type": "public", "operator:wikidata": "Q668687", "ref": "5630700001"}, "type": "Feature"}
{"geometry": {"coordinates": [-94.565111679, 45.629641402], "type": "Point"}, "id": "5nmApbx5PIo49GvlxB5jR3UdASQ=", "properties": {"@source_uri": "https://tools.usps.com/UspsToolsRestServices/rest/POLocator/findLocations", "@spider": "usps_collection_boxes", "addr:city": "ALBANY", "addr:country": "US", "addr:postcode": "56307", "addr:state": "MN", "addr:street_address": "141 RAILROAD AVE", "amenity": "post_box", "collection_times": "Mo-Fr 16:00; Sa 10:00", "indoor": "yes", "note": "ON 12/24 AND 12/31, THIS BOX MAY BE COLLECTED AS EARLY AS 12 NOON.", "nsi_id": "unitedstatespostalservice-a77078", "operator": "United States Postal Service", "operator:short": "USPS", "operator:type": "public", "operator:wikidata": "Q668687", "ref": "5630700005"}, "type": "Feature"}
{"geometry": {"coordinates": [-95.377663542, 45.879137665], "type": "Point"}, "id": "Dek7dWB3ZD7VOWwE7xooYOJu-ic=", "properties": {"@source_uri": "https://tools.usps.com/UspsToolsRestServices/rest/POLocator/findLocations", "@spider": "usps_collection_boxes", "addr:city": "ALEXANDRIA", "addr:country": "US", "addr:postcode": "56308", "addr:state": "MN", "addr:street_address": "1121 BROADWAY ST", "amenity": "post_box", "collection_times": "Mo-Sa 13:00", "note": "ON 12/24 AND 12/31, THIS BOX MAY BE COLLECTED AS EARLY AS 12 NOON.", "nsi_id": "unitedstatespostalservice-a77078", "operator": "United States Postal Service", "operator:short": "USPS", "operator:type": "public", "operator:wikidata": "Q668687", "ref": "5630800005"}, "type": "Feature"}
{"geometry": {"coordinates": [-95.377602154, 45.872661492], "type": "Point"}, "id": "L2junn68eT1_X5vJDI4kjI_CVxs=", "properties": {"@source_uri": "https://tools.usps.com/UspsToolsRestServices/rest/POLocator/findLocations", "@spider": "usps_collection_boxes", "addr:city": "ALEXANDRIA", "addr:country": "US", "addr:postcode": "56308", "addr:state": "MN", "addr:street_address": "111 17TH AVE E", "amenity": "post_box", "collection_times": "Mo-Sa 10:30", "nsi_id": "unitedstatespostalservice-a77078", "operator": "United States Postal Service", "operator:short": "USPS", "operator:type": "public", "operator:wikidata": "Q668687", "ref": "5630800006"}, "type": "Feature"}
{"geometry": {"coordinates": [-95.367641223, 45.889419516], "type": "Point"}, "id": "pWP0Xb9wrv2wyuz7W9O-gwI8hLA=", "properties": {"@source_uri": "https://tools.usps.com/UspsToolsRestServices/rest/POLocator/findLocations", "@spider": "usps_collection_boxes", "addr:city": "ALEXANDRIA", "addr:country": "US", "addr:postcode": "56308", "addr:state": "MN", "addr:street_address": "707 3RD AVE E", "amenity": "post_box", "collection_times": "Mo-Sa 09:30", "nsi_id": "unitedstatespostalservice-a77078", "operator": "United States Postal Service", "operator:short": "USPS", "operator:type": "public", "operator:wikidata": "Q668687", "ref": "5630800008"}, "type": "Feature"}
{"geometry": {"coordinates": [-95.377930412, 45.864774555], "type": "Point"}, "id": "1HpMCA8jgIV7mQ8uB5NZPMtizdw=", "properties": {"@source_uri": "https://tools.usps.com/UspsToolsRestServices/rest/POLocator/findLocations", "@spider": "usps_collection_boxes", "addr:city": "ALEXANDRIA", "addr:country": "US", "addr:postcode": "56308", "addr:state": "MN", "addr:street_address": "2612 S BROADWAY ST", "amenity": "post_box", "collection_times": "Mo-Sa 13:00", "note": "ON 12/24 AND 12/31, THIS BOX MAY BE COLLECTED AS EARLY AS 12 NOON.", "nsi_id": "unitedstatespostalservice-a77078", "operator": "United States Postal Service", "operator:short": "USPS", "operator:type": "public", "operator:wikidata": "Q668687", "ref": "5630800010"}, "type": "Feature"}
{"geometry": {"coordinates": [-95.361759472, 45.889370453], "type": "Point"}, "id": "C1t34FY-jjL5xgXUDSTV8QfSvYc=", "properties": {"@source_uri": "https://tools.usps.com/UspsToolsRestServices/rest/POLocator/findLocations", "@spider": "usps_collection_boxes", "addr:city": "ALEXANDRIA", "addr:country": "US", "addr:postcode": "56308", "addr:state": "MN", "addr:street_address": "1109 3RD AVE E", "amenity": "post_box", "collection_times": "Mo-Sa 12:45", "note": "ON 12/24 AND 12/31, THIS BOX MAY BE COLLECTED AS EARLY AS 12 NOON.", "nsi_id": "unitedstatespostalservice-a77078", "operator": "United States Postal Service", "operator:short": "USPS", "operator:type": "public", "operator:wikidata": "Q668687", "ref": "5630800012"}, "type": "Feature"}
{"geometry": {"coordinates": [-95.380671578, 45.88626555], "type": "Point"}, "id": "ZHlIbveUu_Fbx0qj8ztkM_yJ3wQ=", "properties": {"@source_uri": "https://tools.usps.com/UspsToolsRestServices/rest/POLocator/findLocations", "@spider": "usps_collection_boxes", "addr:city": "ALEXANDRIA", "addr:country": "US", "addr:postcode": "56308", "addr:state": "MN", "addr:street_address": "519 ELM ST", "amenity": "post_box", "collection_times": "Mo-Fr 15:15; Sa 14:45", "indoor": "yes", "note": "ON 12/24 AND 12/31, THIS BOX MAY BE COLLECTED AS EARLY AS 12 NOON.", "nsi_id": "unitedstatespostalservice-a77078", "operator": "United States Postal Service", "operator:short": "USPS", "operator:type": "public", "operator:wikidata": "Q668687", "ref": "5630800017"}, "type": "Feature"}
{"geometry": {"coordinates": [-95.382935428, 45.862538758], "type": "Point"}, "id": "HUr5YwbUF88wlpG3KF2WsckutKY=", "properties": {"@source_uri": "https://tools.usps.com/UspsToolsRestServices/rest/POLocator/findLocations", "@spider": "usps_collection_boxes", "addr:city": "ALEXANDRIA", "addr:country": "US", "addr:postcode": "56308", "addr:state": "MN", "addr:street_address": "3015 HIGHWAY 29 S", "amenity": "post_box", "collection_times": "Mo-Sa 12:45", "note": "ON 12/24 AND 12/31, THIS BOX MAY BE COLLECTED AS EARLY AS 12 NOON.", "nsi_id": "unitedstatespostalservice-a77078", "operator": "United States Postal Service", "operator:short": "USPS", "operator:type": "public", "operator:wikidata": "Q668687", "ref": "5630800018"}, "type": "Feature"}
{"geometry": {"coordinates": [-95.380671578, 45.88626555], "type": "Point"}, "id": "ZuTLPk7vOlFstD4sHy_VUV5G-PA=", "properties": {"@source_uri": "https://tools.usps.com/UspsToolsRestServices/rest/POLocator/findLocations", "@spider": "usps_collection_boxes", "addr:city": "ALEXANDRIA", "addr:country": "US", "addr:postcode": "56308", "addr:state": "MN", "addr:street_address": "519 ELM ST", "amenity": "post_box", "collection_times": "Mo-Fr 15:15; Sa 14:45", "note": "ON 12/24 AND 12/31, THIS BOX MAY BE COLLECTED AS EARLY AS 12 NOON.", "nsi_id": "unitedstatespostalservice-a77078", "operator": "United States Postal Service", "operator:short": "USPS", "operator:type": "public", "operator:wikidata": "Q668687", "ref": "5630800020"}, "type": "Feature"}
{"geometry": {"coordinates": [-95.380671578, 45.88626555], "type": "Point"}, "id": "pt69bvE05_7U3qz2LPEMbSxb0Nw=", "properties": {"@source_uri": "https://tools.usps.com/UspsToolsRestServices/rest/POLocator/findLocations", "@spider": "usps_collection_boxes", "addr:city": "ALEXANDRIA", "addr:country": "US", "addr:postcode": "56308", "addr:state": "MN", "addr:street_address": "519 ELM ST", "amenity": "post_box", "collection_times": "Mo-Fr 15:15; Sa 14:45", "name": "USPS COLLECTION BOX - APC", "note": "ON 12/24 AND 12/31, THIS BOX MAY BE COLLECTED AS EARLY AS 12 NOON.", "nsi_id": "unitedstatespostalservice-a77078", "operator": "United States Postal Service", "operator:short": "USPS", "operator:type": "public", "operator:wikidata": "Q668687", "ref": "5630800025"}, "type": "Feature"}
{"geometry": {"coordinates": [-95.385832754, 45.846766592], "type": "Point"}, "id": "HyfsUQj55zi8aG9lUtugAxkQF7E=", "properties": {"@source_uri": "https://tools.usps.com/UspsToolsRestServices/rest/POLocator/findLocations", "@spider": "usps_collection_boxes", "addr:city": "ALEXANDRIA", "addr:country": "US", "addr:postcode": "56308", "addr:state": "MN", "addr:street_address": "4611 HIGHWAY 29 S", "amenity": "post_box", "collection_times": "Mo-Sa 10:30", "nsi_id": "unitedstatespostalservice-a77078", "operator": "United States Postal Service", "operator:short": "USPS", "operator:type": "public", "operator:wikidata": "Q668687", "ref": "5630800026"}, "type": "Feature"}
{"geometry": {"coordinates": [-95.380671578, 45.88626555], "type": "Point"}, "id": "xggdR95e5my24EONR78AO7MH26k=", "properties": {"@source_uri": "https://tools.usps.com/UspsToolsRestServices/rest/POLocator/findLocations", "@spider": "usps_collection_boxes", "addr:city": "ALEXANDRIA", "addr:country": "US", "addr:postcode": "56308", "addr:state": "MN", "addr:street_address": "519 ELM ST", "amenity": "post_box", "collection_times": "Mo-Fr 15:15; Sa 12:00", "indoor": "yes", "note": "ON 12/24 AND 12/31, THIS BOX MAY BE COLLECTED AS EARLY AS 12 NOON.", "nsi_id": "unitedstatespostalservice-a77078", "operator": "United States Postal Service", "operator:short": "USPS", "operator:type": "public", "operator:wikidata": "Q668687", "ref": "5630800031"}, "type": "Feature"}
{"geometry": {"coordinates": [-95.816273028, 46.093034848], "type": "Point"}, "id": "l9eDfomIymQpVU0_xStWhRqN0lk=", "properties": {"@source_uri": "https://tools.usps.com/UspsToolsRestServices/rest/POLocator/findLocations", "@spider": "usps_collection_boxes", "addr:city": "ASHBY", "addr:country": "US", "addr:postcode": "56309", "addr:state": "MN", "addr:street_address": "111 MAIN ST", "amenity": "post_box", "collection_times": "Mo-Fr 13:15; Sa 09:30", "note": "ON 12/24 AND 12/31, THIS BOX MAY BE COLLECTED AS EARLY AS 12 NOON.", "nsi_id": "unitedstatespostalservice-a77078", "operator": "United States Postal Service", "operator:short": "USPS", "operator:type": "public", "operator:wikidata": "Q668687", "ref": "5630900000"}, "type": "Feature"}
{"geometry": {"coordinates": [-95.816273028, 46.093034848], "type": "Point"}, "id": "o5YEl4FpSPs4ELfKsX9kxmhsNTY=", "properties": {"@source_uri": "https://tools.usps.com/UspsToolsRestServices/rest/POLocator/findLocations", "@spider": "usps_collection_boxes", "addr:city": "ASHBY", "addr:country": "US", "addr:postcode": "56309", "addr:state": "MN", "addr:street_address": "111 MAIN ST", "amenity": "post_box", "collection_times": "Mo-Fr 13:30; Sa 09:30", "indoor": "yes", "note": "ON 12/24 AND 12/31, THIS BOX MAY BE COLLECTED AS EARLY AS 12 NOON.", "nsi_id": "unitedstatespostalservice-a77078", "operator": "United States Postal Service", "operator:short": "USPS", "operator:type": "public", "operator:wikidata": "Q668687", "ref": "5630900001"}, "type": "Feature"}
{"geometry": {"coordinates": [-95.816273028, 46.093034848], "type": "Point"}, "id": "MnGPakPMHS8Leol9CxGfmWr-HRQ=", "properties": {"@source_uri": "https://tools.usps.com/UspsToolsRestServices/rest/POLocator/findLocations", "@spider": "usps_collection_boxes", "addr:city": "ASHBY", "addr:country": "US", "addr:postcode": "56309", "addr:state": "MN", "addr:street_address": "111 MAIN ST", "amenity": "post_box", "collection_times": "Mo-Fr 13:30; Sa 09:45", "indoor": "yes", "note": "ON 12/24 AND 12/31, THIS BOX MAY BE COLLECTED AS EARLY AS 12 NOON.", "nsi_id": "unitedstatespostalservice-a77078", "operator": "United States Postal Service", "operator:short": "USPS", "operator:type": "public", "operator:wikidata": "Q668687", "ref": "5630900002"}, "type": "Feature"}
{"geometry": {"coordinates": [-94.451866524, 45.606593142], "type": "Point"}, "id": "B4I05_RkDduG096cWox2SstwTyc=", "properties": {"@source_uri": "https://tools.usps.com/UspsToolsRestServices/rest/POLocator/findLocations", "@spider": "usps_collection_boxes", "addr:city": "AVON", "addr:country": "US", "addr:postcode": "56310", "addr:state": "MN", "addr:street_address": "317 BLATTNER DR", "amenity": "post_box", "collection_times": "Mo-Fr 16:15; Sa 09:15", "note": "ON 12/24 AND 12/31, THIS BOX MAY BE COLLECTED AS EARLY AS 12 NOON.", "nsi_id": "unitedstatespostalservice-a77078", "operator": "United States Postal Service", "operator:short": "USPS", "operator:type": "public", "operator:wikidata": "Q668687", "ref": "5631000000"}, "type": "Feature"}
{"geometry": {"coordinates": [-94.451866524, 45.606593142], "type": "Point"}, "id": "NBbFd4CN1CMbdwuanZpZTed2i-c=", "properties": {"@source_uri": "https://tools.usps.com/UspsToolsRestServices/rest/POLocator/findLocations", "@spider": "usps_collection_boxes", "addr:city": "AVON", "addr:country": "US", "addr:postcode": "56310", "addr:state": "MN", "addr:street_address": "317 BLATTNER DR", "amenity": "post_box", "collection_times": "Mo-Fr 16:15; Sa 09:15", "indoor": "yes", "note": "ON 12/24 AND 12/31, THIS BOX MAY BE COLLECTED AS EARLY AS 12 NOON.", "nsi_id": "unitedstatespostalservice-a77078", "operator": "United States Postal Service", "operator:short": "USPS", "operator:type": "public", "operator:wikidata": "Q668687", "ref": "5631000001"}, "type": "Feature"}
{"geometry": {"coordinates": [-94.451866524, 45.606593142], "type": "Point"}, "id": "0UxnfGFyArQ-uHhY1CjzlZ7v5N4=", "properties": {"@source_uri": "https://tools.usps.com/UspsToolsRestServices/rest/POLocator/findLocations", "@spider": "usps_collection_boxes", "addr:city": "AVON", "addr:country": "US", "addr:postcode": "56310", "addr:state": "MN", "addr:street_address": "317 BLATTNER DR", "amenity": "post_box", "collection_times": "Mo-Fr 16:00; Sa 09:00", "indoor": "yes", "note": "ON 12/24 AND 12/31, THIS BOX MAY BE COLLECTED AS EARLY AS 12 NOON.", "nsi_id": "unitedstatespostalservice-a77078", "operator": "United States Postal Service", "operator:short": "USPS", "operator:type": "public", "operator:wikidata": "Q668687", "ref": "5631000004"}, "type": "Feature"}
{"geometry": {"coordinates": [-95.889624103, 45.910969001], "type": "Point"}, "id": "CFsv5-Fz_oXOj8df2a6VjC9Y73E=", "properties": {"@source_uri": "https://tools.usps.com/UspsToolsRestServices/rest/POLocator/findLocations", "@spider": "usps_collection_boxes", "addr:city": "BARRETT", "addr:country": "US", "addr:postcode": "56311", "addr:state": "MN", "addr:street_address": "103 HAWKINS AVE", "amenity": "post_box", "collection_times": "Mo-Fr 12:00; Sa 09:45", "nsi_id": "unitedstatespostalservice-a77078", "operator": "United States Postal Service", "operator:short": "USPS", "operator:type": "public", "operator:wikidata": "Q668687", "ref": "5631100000"}, "type": "Feature"}
{"geometry": {"coordinates": [-95.889624103, 45.910969001], "type": "Point"}, "id": "nJfiJTafJpCm-1OwJ8lZkEwt8wU=", "properties": {"@source_uri": "https://tools.usps.com/UspsToolsRestServices/rest/POLocator/findLocations", "@spider": "usps_collection_boxes", "addr:city": "BARRETT", "addr:country": "US", "addr:postcode": "56311", "addr:state": "MN", "addr:street_address": "103 HAWKINS AVE", "amenity": "post_box", "collection_times": "Mo-Fr 12:15; Sa 10:00", "indoor": "yes", "note": "ON 12/24 AND 12/31, THIS BOX MAY BE COLLECTED AS EARLY AS 12 NOON.", "nsi_id": "unitedstatespostalservice-a77078", "operator": "United States Postal Service", "operator:short": "USPS", "operator:type": "public", "operator:wikidata": "Q668687", "ref": "5631100001"}, "type": "Feature"}
{"geometry": {"coordinates": [-95.889624103, 45.910969001], "type": "Point"}, "id": "bac63Qrv41TBnHJno7eCiW1Ukrw=", "properties": {"@source_uri": "https://tools.usps.com/UspsToolsRestServices/rest/POLocator/findLocations", "@spider": "usps_collection_boxes", "addr:city": "BARRETT", "addr:country": "US", "addr:postcode": "56311", "addr:state": "MN", "addr:street_address": "103 HAWKINS AVE", "amenity": "post_box", "collection_times": "Mo-Fr 12:15; Sa 10:00", "indoor": "yes", "note": "ON 12/24 AND 12/31, THIS BOX MAY BE COLLECTED AS EARLY AS 12 NOON.", "nsi_id": "unitedstatespostalservice-a77078", "operator": "United States Postal Service", "operator:short": "USPS", "operator:type": "public", "operator:wikidata": "Q668687", "ref": "5631100002"}, "type": "Feature"}
{"geometry": {"coordinates": [-95.004288442, 45.453492621], "type": "Point"}, "id": "SFCZpHr4kuEleVGLNb2iQV3PeCQ=", "properties": {"@source_uri": "https://tools.usps.com/UspsToolsRestServices/rest/POLocator/findLocations", "@spider": "usps_collection_boxes", "addr:city": "BELGRADE", "addr:country": "US", "addr:postcode": "56312", "addr:state": "MN", "addr:street_address": "421 WASHBURN AVE", "amenity": "post_box", "collection_times": "Mo-Fr 15:15; Sa 09:30", "note": "ON 12/24 AND 12/31, THIS BOX MAY BE COLLECTED AS EARLY AS 12 NOON.", "nsi_id": "unitedstatespostalservice-a77078", "operator": "United States Postal Service", "operator:short": "USPS", "operator:type": "public", "operator:wikidata": "Q668687", "ref": "5631200000"}, "type": "Feature"}
{"geometry": {"coordinates": [-95.004288442, 45.453492621], "type": "Point"}, "id": "plUGBMHSB_7NRZ4qtHUa-Jf-5pc=", "properties": {"@source_uri": "https://tools.usps.com/UspsToolsRestServices/rest/POLocator/findLocations", "@spider": "usps_collection_boxes", "addr:city": "BELGRADE", "addr:country": "US", "addr:postcode": "56312", "addr:state": "MN", "addr:street_address": "421 WASHBURN AVE", "amenity": "post_box", "collection_times": "Mo-Fr 15:15; Sa 09:30", "indoor": "yes", "note": "ON 12/24 AND 12/31, THIS BOX MAY BE COLLECTED AS EARLY AS 12 NOON.", "nsi_id": "unitedstatespostalservice-a77078", "operator": "United States Postal Service", "operator:short": "USPS", "operator:type": "public", "operator:wikidata": "Q668687", "ref": "5631200001"}, "type": "Feature"}
{"geometry": {"coordinates": [-95.0042884415, 45.4534926206], "type": "Point"}, "id": "c4wLfAtCGLSzZOQLeCnn0bAopew=", "properties": {"@source_uri": "https://tools.usps.com/UspsToolsRestServices/rest/POLocator/findLocations", "@spider": "usps_collection_boxes", "addr:city": "BELGRADE", "addr:country": "US", "addr:postcode": "56312", "addr:state": "MN", "addr:street_address": "421 WASHBURN AVE", "amenity": "post_box", "collection_times": "Mo-Fr 15:15; Sa 10:00", "indoor": "yes", "note": "ON 12/24 AND 12/31, THIS BOX MAY BE COLLECTED AS EARLY AS 12 NOON.", "nsi_id": "unitedstatespostalservice-a77078", "operator": "United States Postal Service", "operator:short": "USPS", "operator:type": "public", "operator:wikidata": "Q668687", "ref": "5631200002"}, "type": "Feature"}
{"geometry": {"coordinates": [-93.552774175, 45.785707212], "type": "Point"}, "id": "X_DtDxl5W_SzveV6UDbkIGzsaXQ=", "properties": {"@source_uri": "https://tools.usps.com/UspsToolsRestServices/rest/POLocator/findLocations", "@spider": "usps_collection_boxes", "addr:city": "BOCK", "addr:country": "US", "addr:postcode": "56313", "addr:state": "MN", "addr:street_address": "1661 WALL AVE", "amenity": "post_box", "collection_times": "Mo-Fr 14:00; Sa 12:15", "note": "ON 12/24 AND 12/31, THIS BOX MAY BE COLLECTED AS EARLY AS 12 NOON.", "nsi_id": "unitedstatespostalservice-a77078", "operator": "United States Postal Service", "operator:short": "USPS", "operator:type": "public", "operator:wikidata": "Q668687", "ref": "5631300000"}, "type": "Feature"}
{"geometry": {"coordinates": [-93.552774175, 45.785707212], "type": "Point"}, "id": "ISj3-DFBGp7SC1arRr9ohGkUPT0=", "properties": {"@source_uri": "https://tools.usps.com/UspsToolsRestServices/rest/POLocator/findLocations", "@spider": "usps_collection_boxes", "addr:city": "BOCK", "addr:country": "US", "addr:postcode": "56313", "addr:state": "MN", "addr:street_address": "1661 WALL AVE", "amenity": "post_box", "collection_times": "Mo-Fr 14:15; Sa 12:30", "indoor": "yes", "note": "ON 12/24 AND 12/31, THIS BOX MAY BE COLLECTED AS EARLY AS 12 NOON.", "nsi_id": "unitedstatespostalservice-a77078", "operator": "United States Postal Service", "operator:short": "USPS", "operator:type": "public", "operator:wikidata": "Q668687", "ref": "5631300001"}, "type": "Feature"}
{"geometry": {"coordinates": [-93.552774175, 45.785707212], "type": "Point"}, "id": "f0EOs3RhCbr2b65Q5XlJbzgpOAg=", "properties": {"@source_uri": "https://tools.usps.com/UspsToolsRestServices/rest/POLocator/findLocations", "@spider": "usps_collection_boxes", "addr:city": "BOCK", "addr:country": "US", "addr:postcode": "56313", "addr:state": "MN", "addr:street_address": "1661 WALL AVE", "amenity": "post_box", "collection_times": "Mo-Fr 14:15; Sa 12:30", "indoor": "yes", "note": "ON 12/24 AND 12/31, THIS BOX MAY BE COLLECTED AS EARLY AS 12 NOON.", "nsi_id": "unitedstatespostalservice-a77078", "operator": "United States Postal Service", "operator:short": "USPS", "operator:type": "public", "operator:wikidata": "Q668687", "ref": "5631300002"}, "type": "Feature"}
{"geometry": {"coordinates": [-94.405050807, 45.822022479], "type": "Point"}, "id": "culL6PAe1I2Z9Q8m_YUTRf3PxEM=", "properties": {"@source_uri": "https://tools.usps.com/UspsToolsRestServices/rest/POLocator/findLocations", "@spider": "usps_collection_boxes", "addr:city": "BOWLUS", "addr:country": "US", "addr:postcode": "56314", "addr:state": "MN", "addr:street_address": "172 MAIN ST", "amenity": "post_box", "collection_times": "Mo-Fr 11:00; Sa 09:15", "nsi_id": "unitedstatespostalservice-a77078", "operator": "United States Postal Service", "operator:short": "USPS", "operator:type": "public", "operator:wikidata": "Q668687", "ref": "5631400000"}, "type": "Feature"}
{"geometry": {"coordinates": [-94.405050807, 45.822022479], "type": "Point"}, "id": "bXCWqFwrSOvItwqPnNxbufptGGg=", "properties": {"@source_uri": "https://tools.usps.com/UspsToolsRestServices/rest/POLocator/findLocations", "@spider": "usps_collection_boxes", "addr:city": "BOWLUS", "addr:country": "US", "addr:postcode": "56314", "addr:state": "MN", "addr:street_address": "172 MAIN ST", "amenity": "post_box", "collection_times": "Mo-Fr 11:15; Sa 09:30", "indoor": "yes", "nsi_id": "unitedstatespostalservice-a77078", "operator": "United States Postal Service", "operator:short": "USPS", "operator:type": "public", "operator:wikidata": "Q668687", "ref": "5631400001"}, "type": "Feature"}
{"geometry": {"coordinates": [-95.598983405, 45.9641946], "type": "Point"}, "id": "D_mWIATKVM-y8A-ZA0oA76A7DOM=", "properties": {"@source_uri": "https://tools.usps.com/UspsToolsRestServices/rest/POLocator/findLocations", "@spider": "usps_collection_boxes", "addr:city": "BRANDON", "addr:country": "US", "addr:postcode": "56315", "addr:state": "MN", "addr:street_address": "101 E FRONT ST", "amenity": "post_box", "collection_times": "Mo-Fr 13:15; Sa 09:45", "note": "ON 12/24 AND 12/31, THIS BOX MAY BE COLLECTED AS EARLY AS 12 NOON.", "nsi_id": "unitedstatespostalservice-a77078", "operator": "United States Postal Service", "operator:short": "USPS", "operator:type": "public", "operator:wikidata": "Q668687", "ref": "5631500000"}, "type": "Feature"}
{"geometry": {"coordinates": [-95.598983405, 45.9641946], "type": "Point"}, "id": "BbLm-g_fvegSZCIPGc3YcKtbqwE=", "properties": {"@source_uri": "https://tools.usps.com/UspsToolsRestServices/rest/POLocator/findLocations", "@spider": "usps_collection_boxes", "addr:city": "BRANDON", "addr:country": "US", "addr:postcode": "56315", "addr:state": "MN", "addr:street_address": "101 E FRONT ST", "amenity": "post_box", "collection_times": "Mo-Fr 13:30; Sa 10:00", "indoor": "yes", "note": "ON 12/24 AND 12/31, THIS BOX MAY BE COLLECTED AS EARLY AS 12 NOON.", "nsi_id": "unitedstatespostalservice-a77078", "operator": "United States Postal Service", "operator:short": "USPS", "operator:type": "public", "operator:wikidata": "Q668687", "ref": "5631500001"}, "type": "Feature"}
{"geometry": {"coordinates": [-95.598983405, 45.9641946], "type": "Point"}, "id": "2ixmKnDhEuopvD2D7F6MSJQGvlc=", "properties": {"@source_uri": "https://tools.usps.com/UspsToolsRestServices/rest/POLocator/findLocations", "@spider": "usps_collection_boxes", "addr:city": "BRANDON", "addr:country": "US", "addr:postcode": "56315", "addr:state": "MN", "addr:street_address": "101 E FRONT ST", "amenity": "post_box", "collection_times": "Mo-Fr 13:30; Sa 10:00", "indoor": "yes", "note": "ON 12/24 AND 12/31, THIS BOX MAY BE COLLECTED AS EARLY AS 12 NOON.", "nsi_id": "unitedstatespostalservice-a77078", "operator": "United States Postal Service", "operator:short": "USPS", "operator:type": "public", "operator:wikidata": "Q668687", "ref": "5631500002"}, "type": "Feature"}
{"geometry": {"coordinates": [-95.124662159, 45.501471199], "type": "Point"}, "id": "f9RUnjKICsmMW3Th075xXUE_sks=", "properties": {"@source_uri": "https://tools.usps.com/UspsToolsRestServices/rest/POLocator/findLocations", "@spider": "usps_collection_boxes", "addr:city": "BROOTEN", "addr:country": "US", "addr:postcode": "56316", "addr:state": "MN", "addr:street_address": "149 CENTRAL AVE N", "amenity": "post_box", "collection_times": "Mo-Fr 15:00; Sa 09:00", "note": "ON 12/24 AND 12/31, THIS BOX MAY BE COLLECTED AS EARLY AS 12 NOON.", "nsi_id": "unitedstatespostalservice-a77078", "operator": "United States Postal Service", "operator:short": "USPS", "operator:type": "public", "operator:wikidata": "Q668687", "ref": "5631600000"}, "type": "Feature"}
{"geometry": {"coordinates": [-95.124662159, 45.501471199], "type": "Point"}, "id": "sqDTQq9VH35FBbIJUx99jVXuxsM=", "properties": {"@source_uri": "https://tools.usps.com/UspsToolsRestServices/rest/POLocator/findLocations", "@spider": "usps_collection_boxes", "addr:city": "BROOTEN", "addr:country": "US", "addr:postcode": "56316", "addr:state": "MN", "addr:street_address": "149 CENTRAL AVE N", "amenity": "post_box", "collection_times": "Mo-Fr 15:00; Sa 09:00", "indoor": "yes", "note": "ON 12/24 AND 12/31, THIS BOX MAY BE COLLECTED AS EARLY AS 12 NOON.", "nsi_id": "unitedstatespostalservice-a77078", "operator": "United States Postal Service", "operator:short": "USPS", "operator:type": "public", "operator:wikidata": "Q668687", "ref": "5631600001"}, "type": "Feature"}
{"geometry": {"coordinates": [-95.124662159, 45.501471199], "type": "Point"}, "id": "DGznt1rxs1Fbg00xX6m4cXMFqJg=", "properties": {"@source_uri": "https://tools.usps.com/UspsToolsRestServices/rest/POLocator/findLocations", "@spider": "usps_collection_boxes", "addr:city": "BROOTEN", "addr:country": "US", "addr:postcode": "56316", "addr:state": "MN", "addr:street_address": "149 CENTRAL AVE N", "amenity": "post_box", "collection_times": "Mo-Fr 14:45", "indoor": "yes", "note": "ON 12/24 AND 12/31, THIS BOX MAY BE COLLECTED AS EARLY AS 12 NOON.", "nsi_id": "unitedstatespostalservice-a77078", "operator": "United States Postal Service", "operator:short": "USPS", "operator:type": "public", "operator:wikidata": "Q668687", "ref": "5631600002"}, "type": "Feature"}
{"geometry": {"coordinates": [-94.686782087, 45.866349525], "type": "Point"}, "id": "HjTdIdDLheELyyqQO3khjSoLLiE=", "properties": {"@source_uri": "https://tools.usps.com/UspsToolsRestServices/rest/POLocator/findLocations", "@spider": "usps_collection_boxes", "addr:city": "BURTRUM", "addr:country": "US", "addr:postcode": "56318", "addr:state": "MN", "addr:street_address": "111 MAIN ST W", "amenity": "post_box", "collection_times": "Mo-Fr 11:00; Sa 09:30", "nsi_id": "unitedstatespostalservice-a77078", "operator": "United States Postal Service", "operator:short": "USPS", "operator:type": "public", "operator:wikidata": "Q668687", "ref": "5631800000"}, "type": "Feature"}
{"geometry": {"coordinates": [-94.686782087, 45.866349525], "type": "Point"}, "id": "8IkirJT8JVye9_boGF1aDzoc9YM=", "properties": {"@source_uri": "https://tools.usps.com/UspsToolsRestServices/rest/POLocator/findLocations", "@spider": "usps_collection_boxes", "addr:city": "BURTRUM", "addr:country": "US", "addr:postcode": "56318", "addr:state": "MN", "addr:street_address": "111 MAIN ST W", "amenity": "post_box", "collection_times": "Mo-Fr 11:15; Sa 08:30", "indoor": "yes", "nsi_id": "unitedstatespostalservice-a77078", "operator": "United States Postal Service", "operator:short": "USPS", "operator:type": "public", "operator:wikidata": "Q668687", "ref": "5631800001"}, "type": "Feature"}
{"geometry": {"coordinates": [-94.686782087, 45.866349525], "type": "Point"}, "id": "Bj_XMZwZIUIR2mPzLVOmQNitr0k=", "properties": {"@source_uri": "https://tools.usps.com/UspsToolsRestServices/rest/POLocator/findLocations", "@spider": "usps_collection_boxes", "addr:city": "BURTRUM", "addr:country": "US", "addr:postcode": "56318", "addr:state": "MN", "addr:street_address": "111 MAIN ST W", "amenity": "post_box", "collection_times": "Mo-Fr 11:15; Sa 09:45", "indoor": "yes", "nsi_id": "unitedstatespostalservice-a77078", "operator": "United States Postal Service", "operator:short": "USPS", "operator:type": "public", "operator:wikidata": "Q668687", "ref": "5631800002"}, "type": "Feature"}
{"geometry": {"coordinates": [-95.293280973, 45.972918], "type": "Point"}, "id": "djkqB7bMTY-eAcLa15kO187HkKI=", "properties": {"@source_uri": "https://tools.usps.com/UspsToolsRestServices/rest/POLocator/findLocations", "@spider": "usps_collection_boxes", "addr:city": "CARLOS", "addr:country": "US", "addr:postcode": "56319", "addr:state": "MN", "addr:street_address": "104 MAIN AVE", "amenity": "post_box", "collection_times": "Mo-Fr 11:15; Sa 09:15", "nsi_id": "unitedstatespostalservice-a77078", "operator": "United States Postal Service", "operator:short": "USPS", "operator:type": "public", "operator:wikidata": "Q668687", "ref": "5631900000"}, "type": "Feature"}
{"geometry": {"coordinates": [-95.293280973, 45.972918], "type": "Point"}, "id": "U9ph3B6D_JKOYFEFKuUX_nRdYJE=", "properties": {"@source_uri": "https://tools.usps.com/UspsToolsRestServices/rest/POLocator/findLocations", "@spider": "usps_collection_boxes", "addr:city": "CARLOS", "addr:country": "US", "addr:postcode": "56319", "addr:state": "MN", "addr:street_address": "104 MAIN AVE", "amenity": "post_box", "collection_times": "Mo-Fr 11:30; Sa 09:30", "indoor": "yes", "nsi_id": "unitedstatespostalservice-a77078", "operator": "United States Postal Service", "operator:short": "USPS", "operator:type": "public", "operator:wikidata": "Q668687", "ref": "5631900001"}, "type": "Feature"}
{"geometry": {"coordinates": [-95.293280973, 45.972918], "type": "Point"}, "id": "GH297FgrdemVT454AGEiGM5fHZY=", "properties": {"@source_uri": "https://tools.usps.com/UspsToolsRestServices/rest/POLocator/findLocations", "@spider": "usps_collection_boxes", "addr:city": "CARLOS", "addr:country": "US", "addr:postcode": "56319", "addr:state": "MN", "addr:street_address": "104 MAIN AVE", "amenity": "post_box", "collection_times": "Mo-Fr 11:30; Sa 09:30", "indoor": "yes", "nsi_id": "unitedstatespostalservice-a77078", "operator": "United States Postal Service", "operator:short": "USPS", "operator:type": "public", "operator:wikidata": "Q668687", "ref": "5631900002"}, "type": "Feature"}
{"geometry": {"coordinates": [-94.428973381, 45.456379502], "type": "Point"}, "id": "8ZwmNOqQMdsf3s6ucogPxo3_Rro=", "properties": {"@source_uri": "https://tools.usps.com/UspsToolsRestServices/rest/POLocator/findLocations", "@spider": "usps_collection_boxes", "addr:city": "COLD SPRING", "addr:country": "US", "addr:postcode": "56320", "addr:state": "MN", "addr:street_address": "14 RED RIVER AVE N", "amenity": "post_box", "collection_times": "Mo-Fr 16:15; Sa 10:00", "note": "ON 12/24 AND 12/31, THIS BOX MAY BE COLLECTED AS EARLY AS 12 NOON.", "nsi_id": "unitedstatespostalservice-a77078", "operator": "United States Postal Service", "operator:short": "USPS", "operator:type": "public", "operator:wikidata": "Q668687", "ref": "5632000002"}, "type": "Feature"}
{"geometry": {"coordinates": [-94.428973381, 45.456379502], "type": "Point"}, "id": "9p9qnD3Y8OG5wwyoirQBMzETsyg=", "properties": {"@source_uri": "https://tools.usps.com/UspsToolsRestServices/rest/POLocator/findLocations", "@spider": "usps_collection_boxes", "addr:city": "COLD SPRING", "addr:country": "US", "addr:postcode": "56320", "addr:state": "MN", "addr:street_address": "14 RED RIVER AVE N", "amenity": "post_box", "collection_times": "Mo-Fr 16:15; Sa 09:30", "indoor": "yes", "note": "ON 12/24 AND 12/31, THIS BOX MAY BE COLLECTED AS EARLY AS 12 NOON.", "nsi_id": "unitedstatespostalservice-a77078", "operator": "United States Postal Service", "operator:short": "USPS", "operator:type": "public", "operator:wikidata": "Q668687", "ref": "5632000003"}, "type": "Feature"}
{"geometry": {"coordinates": [-94.428973381, 45.456379502], "type": "Point"}, "id": "wVk9iKncnGQwd4DDJsFEnUF-XbI=", "properties": {"@source_uri": "https://tools.usps.com/UspsToolsRestServices/rest/POLocator/findLocations", "@spider": "usps_collection_boxes", "addr:city": "COLD SPRING", "addr:country": "US", "addr:postcode": "56320", "addr:state": "MN", "addr:street_address": "14 RED RIVER AVE N", "amenity": "post_box", "collection_times": "Mo-Fr 16:15; Sa 09:30", "indoor": "yes", "note": "ON 12/24 AND 12/31, THIS BOX MAY BE COLLECTED AS EARLY AS 12 NOON.", "nsi_id": "unitedstatespostalservice-a77078", "operator": "United States Postal Service", "operator:short": "USPS", "operator:type": "public", "operator:wikidata": "Q668687", "ref": "5632000004"}, "type": "Feature"}
{"geometry": {"coordinates": [-94.39595185, 45.579792284], "type": "Point"}, "id": "gpIb8kUeNi6KOkCwWwZ1MID_JBA=", "properties": {"@source_uri": "https://tools.usps.com/UspsToolsRestServices/rest/POLocator/findLocations", "@spider": "usps_collection_boxes", "addr:city": "COLLEGEVILLE", "addr:country": "US", "addr:postcode": "56321", "addr:state": "MN", "addr:street_address": "110 E POWERHOUSE RD", "amenity": "post_box", "collection_times": "Mo-Fr 15:45; Sa 08:30", "note": "ON 12/24 AND 12/31, THIS BOX MAY BE COLLECTED AS EARLY AS 12 NOON.", "nsi_id": "unitedstatespostalservice-a77078", "operator": "United States Postal Service", "operator:short": "USPS", "operator:type": "public", "operator:wikidata": "Q668687", "ref": "5632100000"}, "type": "Feature"}
{"geometry": {"coordinates": [-94.39595185, 45.579792284], "type": "Point"}, "id": "mGmGBfQnbSnvdCI1ykcN_njNLlI=", "properties": {"@source_uri": "https://tools.usps.com/UspsToolsRestServices/rest/POLocator/findLocations", "@spider": "usps_collection_boxes", "addr:city": "COLLEGEVILLE", "addr:country": "US", "addr:postcode": "56321", "addr:state": "MN", "addr:street_address": "110 E POWERHOUSE RD", "amenity": "post_box", "collection_times": "Mo-Fr 15:45", "indoor": "yes", "note": "ON 12/24 AND 12/31, THIS BOX MAY BE COLLECTED AS EARLY AS 12 NOON.", "nsi_id": "unitedstatespostalservice-a77078", "operator": "United States Postal Service", "operator:short": "USPS", "operator:type": "public", "operator:wikidata": "Q668687", "ref": "5632100001"}, "type": "Feature"}
{"geometry": {"coordinates": [-95.737679561, 45.61451032], "type": "Point"}, "id": "hoPUXKmlNblBqgETpjNUT1l0odM=", "properties": {"@source_uri": "https://tools.usps.com/UspsToolsRestServices/rest/POLocator/findLocations", "@spider": "usps_collection_boxes", "addr:city": "CYRUS", "addr:country": "US", "addr:postcode": "56323", "addr:state": "MN", "addr:street_address": "125 E MAIN ST", "amenity": "post_box", "collection_times": "Mo-Fr 11:45; Sa 09:30", "nsi_id": "unitedstatespostalservice-a77078", "operator": "United States Postal Service", "operator:short": "USPS", "operator:type": "public", "operator:wikidata": "Q668687", "ref": "5632300000"}, "type": "Feature"}
{"geometry": {"coordinates": [-95.737679561, 45.61451032], "type": "Point"}, "id": "KxzN6aKKh1OhVWa0MD7QFY9kE74=", "properties": {"@source_uri": "https://tools.usps.com/UspsToolsRestServices/rest/POLocator/findLocations", "@spider": "usps_collection_boxes", "addr:city": "CYRUS", "addr:country": "US", "addr:postcode": "56323", "addr:state": "MN", "addr:street_address": "125 E MAIN ST", "amenity": "post_box", "collection_times": "Mo-Fr 12:00; Sa 09:00", "indoor": "yes", "nsi_id": "unitedstatespostalservice-a77078", "operator": "United States Postal Service", "operator:short": "USPS", "operator:type": "public", "operator:wikidata": "Q668687", "ref": "5632300001"}, "type": "Feature"}
{"geometry": {"coordinates": [-95.737679561, 45.61451032], "type": "Point"}, "id": "L4JfLJaX8zEWdoQ8kAXjRfpYwvM=", "properties": {"@source_uri": "https://tools.usps.com/UspsToolsRestServices/rest/POLocator/findLocations", "@spider": "usps_collection_boxes", "addr:city": "CYRUS", "addr:country": "US", "addr:postcode": "56323", "addr:state": "MN", "addr:street_address": "125 E MAIN ST", "amenity": "post_box", "collection_times": "Mo-Fr 12:00; Sa 09:45", "indoor": "yes", "nsi_id": "unitedstatespostalservice-a77078", "operator": "United States Postal Service", "operator:short": "USPS", "operator:type": "public", "operator:wikidata": "Q668687", "ref": "5632300002"}, "type": "Feature"}
{"geometry": {"coordinates": [-95.916058014, 46.173751496], "type": "Point"}, "id": "xyEAdTe-WSzhRm0djEB_z9d1VQI=", "properties": {"@source_uri": "https://tools.usps.com/UspsToolsRestServices/rest/POLocator/findLocations", "@spider": "usps_collection_boxes", "addr:city": "DALTON", "addr:country": "US", "addr:postcode": "56324", "addr:state": "MN", "addr:street_address": "103 W MAIN ST", "amenity": "post_box", "collection_times": "Mo-Fr 13:00; Sa 09:45", "note": "ON 12/24 AND 12/31, THIS BOX MAY BE COLLECTED AS EARLY AS 12 NOON.", "nsi_id": "unitedstatespostalservice-a77078", "operator": "United States Postal Service", "operator:short": "USPS", "operator:type": "public", "operator:wikidata": "Q668687", "ref": "5632400000"}, "type": "Feature"}
{"geometry": {"coordinates": [-95.916058014, 46.173751496], "type": "Point"}, "id": "a5JGUpKeEkatA_EeJ3bI6SBdTpw=", "properties": {"@source_uri": "https://tools.usps.com/UspsToolsRestServices/rest/POLocator/findLocations", "@spider": "usps_collection_boxes", "addr:city": "DALTON", "addr:country": "US", "addr:postcode": "56324", "addr:state": "MN", "addr:street_address": "103 W MAIN ST", "amenity": "post_box", "collection_times": "Mo-Fr 13:15; Sa 10:00", "indoor": "yes", "note": "ON 12/24 AND 12/31, THIS BOX MAY BE COLLECTED AS EARLY AS 12 NOON.", "nsi_id": "unitedstatespostalservice-a77078", "operator": "United States Postal Service", "operator:short": "USPS", "operator:type": "public", "operator:wikidata": "Q668687", "ref": "5632400001"}, "type": "Feature"}
{"geometry": {"coordinates": [-95.916058014, 46.173751496], "type": "Point"}, "id": "oX95vlcoTUDo1gy2oC5luUG2LaQ=", "properties": {"@source_uri": "https://tools.usps.com/UspsToolsRestServices/rest/POLocator/findLocations", "@spider": "usps_collection_boxes", "addr:city": "DALTON", "addr:country": "US", "addr:postcode": "56324", "addr:state": "MN", "addr:street_address": "103 W MAIN ST", "amenity": "post_box", "collection_times": "Mo-Fr 13:15; Sa 10:00", "indoor": "yes", "note": "ON 12/24 AND 12/31, THIS BOX MAY BE COLLECTED AS EARLY AS 12 NOON.", "nsi_id": "unitedstatespostalservice-a77078", "operator": "United States Postal Service", "operator:short": "USPS", "operator:type": "public", "operator:wikidata": "Q668687", "ref": "5632400002"}, "type": "Feature"}
{"geometry": {"coordinates": [-94.948461735, 45.563084246], "type": "Point"}, "id": "HlGmuqhcc3QnKYhKjm6alq-osr8=", "properties": {"@source_uri": "https://tools.usps.com/UspsToolsRestServices/rest/POLocator/findLocations", "@spider": "usps_collection_boxes", "addr:city": "ELROSA", "addr:country": "US", "addr:postcode": "56325", "addr:state": "MN", "addr:street_address": "116 MAIN ST", "amenity": "post_box", "collection_times": "Mo-Fr 14:15; Sa 09:45", "note": "ON 12/24 AND 12/31, THIS BOX MAY BE COLLECTED AS EARLY AS 12 NOON.", "nsi_id": "unitedstatespostalservice-a77078", "operator": "United States Postal Service", "operator:short": "USPS", "operator:type": "public", "operator:wikidata": "Q668687", "ref": "5632500000"}, "type": "Feature"}
{"geometry": {"coordinates": [-94.948461735, 45.563084246], "type": "Point"}, "id": "3X547ASt7nK4SwvDKEr-L82-ejk=", "properties": {"@source_uri": "https://tools.usps.com/UspsToolsRestServices/rest/POLocator/findLocations", "@spider": "usps_collection_boxes", "addr:city": "ELROSA", "addr:country": "US", "addr:postcode": "56325", "addr:state": "MN", "addr:street_address": "116 MAIN ST", "amenity": "post_box", "collection_times": "Mo-Fr 14:15; Sa 09:45", "indoor": "yes", "note": "ON 12/24 AND 12/31, THIS BOX MAY BE COLLECTED AS EARLY AS 12 NOON.", "nsi_id": "unitedstatespostalservice-a77078", "operator": "United States Postal Service", "operator:short": "USPS", "operator:type": "public", "operator:wikidata": "Q668687", "ref": "5632500001"}, "type": "Feature"}
{"geometry": {"coordinates": [-94.948461735, 45.563084246], "type": "Point"}, "id": "0lKyoWwmv75-RbVvhXXw_UAmoDc=", "properties": {"@source_uri": "https://tools.usps.com/UspsToolsRestServices/rest/POLocator/findLocations", "@spider": "usps_collection_boxes", "addr:city": "ELROSA", "addr:country": "US", "addr:postcode": "56325", "addr:state": "MN", "addr:street_address": "116 MAIN ST", "amenity": "post_box", "collection_times": "Mo-Fr 14:15; Sa 12:00", "indoor": "yes", "note": "ON 12/24 AND 12/31, THIS BOX MAY BE COLLECTED AS EARLY AS 12 NOON.", "nsi_id": "unitedstatespostalservice-a77078", "operator": "United States Postal Service", "operator:short": "USPS", "operator:type": "public", "operator:wikidata": "Q668687", "ref": "5632500002"}, "type": "Feature"}
{"geometry": {"coordinates": [-95.687233061, 46.006894583], "type": "Point"}, "id": "PKJ4_qj2b22FlTdhim7dchugYCE=", "properties": {"@source_uri": "https://tools.usps.com/UspsToolsRestServices/rest/POLocator/findLocations", "@spider": "usps_collection_boxes", "addr:city": "EVANSVILLE", "addr:country": "US", "addr:postcode": "56326", "addr:state": "MN", "addr:street_address": "113 STATE ST NW", "amenity": "post_box", "collection_times": "Mo-Fr 13:15; Sa 09:45", "note": "ON 12/24 AND 12/31, THIS BOX MAY BE COLLECTED AS EARLY AS 12 NOON.", "nsi_id": "unitedstatespostalservice-a77078", "operator": "United States Postal Service", "operator:short": "USPS", "operator:type": "public", "operator:wikidata": "Q668687", "ref": "5632600000"}, "type": "Feature"}
{"geometry": {"coordinates": [-95.687233061, 46.006894583], "type": "Point"}, "id": "_1xGG1OVQqXD23qdZdHbR6jt4n4=", "properties": {"@source_uri": "https://tools.usps.com/UspsToolsRestServices/rest/POLocator/findLocations", "@spider": "usps_collection_boxes", "addr:city": "EVANSVILLE", "addr:country": "US", "addr:postcode": "56326", "addr:state": "MN", "addr:street_address": "113 STATE ST NW", "amenity": "post_box", "collection_times": "Mo-Fr 13:30; Sa 10:00", "indoor": "yes", "note": "ON 12/24 AND 12/31, THIS BOX MAY BE COLLECTED AS EARLY AS 12 NOON.", "nsi_id": "unitedstatespostalservice-a77078", "operator": "United States Postal Service", "operator:short": "USPS", "operator:type": "public", "operator:wikidata": "Q668687", "ref": "5632600001"}, "type": "Feature"}
{"geometry": {"coordinates": [-95.687233061, 46.006894583], "type": "Point"}, "id": "J_0ffJ0X4ORDgbfkTH9vO3HhHmk=", "properties": {"@source_uri": "https://tools.usps.com/UspsToolsRestServices/rest/POLocator/findLocations", "@spider": "usps_collection_boxes", "addr:city": "EVANSVILLE", "addr:country": "US", "addr:postcode": "56326", "addr:state": "MN", "addr:street_address": "113 STATE ST NW", "amenity": "post_box", "collection_times": "Mo-Fr 13:30; Sa 10:00", "indoor": "yes", "note": "ON 12/24 AND 12/31, THIS BOX MAY BE COLLECTED AS EARLY AS 12 NOON.", "nsi_id": "unitedstatespostalservice-a77078", "operator": "United States Postal Service", "operator:short": "USPS", "operator:type": "public", "operator:wikidata": "Q668687", "ref": "5632600002"}, "type": "Feature"}
{"geometry": {"coordinates": [-94.529839809, 45.954455022], "type": "Point"}, "id": "flK3Ub6DoKJMnHsA6qjYC7B9zTo=", "properties": {"@source_uri": "https://tools.usps.com/UspsToolsRestServices/rest/POLocator/findLocations", "@spider": "usps_collection_boxes", "addr:city": "FLENSBURG", "addr:country": "US", "addr:postcode": "56328", "addr:state": "MN", "addr:street_address": "28 PINE ST N", "amenity": "post_box", "collection_times": "Mo-Fr 10:15; Sa 09:15", "nsi_id": "unitedstatespostalservice-a77078", "operator": "United States Postal Service", "operator:short": "USPS", "operator:type": "public", "operator:wikidata": "Q668687", "ref": "5632800000"}, "type": "Feature"}
{"geometry": {"coordinates": [-94.529839809, 45.954455022], "type": "Point"}, "id": "BcZhnFG_F5abDwknQyQojnM3QzA=", "properties": {"@source_uri": "https://tools.usps.com/UspsToolsRestServices/rest/POLocator/findLocations", "@spider": "usps_collection_boxes", "addr:city": "FLENSBURG", "addr:country": "US", "addr:postcode": "56328", "addr:state": "MN", "addr:street_address": "28 PINE ST N", "amenity": "post_box", "collection_times": "Mo-Fr 10:30; Sa 09:30", "indoor": "yes", "nsi_id": "unitedstatespostalservice-a77078", "operator": "United States Postal Service", "operator:short": "USPS", "operator:type": "public", "operator:wikidata": "Q668687", "ref": "5632800002"}, "type": "Feature"}
{"geometry": {"coordinates": [-93.909513113, 45.664909356], "type": "Point"}, "id": "knBSQZoRRoCbP6CGmBCCZSGTagA=", "properties": {"@source_uri": "https://tools.usps.com/UspsToolsRestServices/rest/POLocator/findLocations", "@spider": "usps_collection_boxes", "addr:city": "FOLEY", "addr:country": "US", "addr:postcode": "56329", "addr:state": "MN", "addr:street_address": "450 DEWEY ST", "amenity": "post_box", "collection_times": "Mo-Fr 15:45; Sa 10:00", "note": "ON 12/24 AND 12/31, THIS BOX MAY BE COLLECTED AS EARLY AS 12 NOON.", "nsi_id": "unitedstatespostalservice-a77078", "operator": "United States Postal Service", "operator:short": "USPS", "operator:type": "public", "operator:wikidata": "Q668687", "ref": "5632900000"}, "type": "Feature"}
{"geometry": {"coordinates": [-93.821500906, 45.696532629], "type": "Point"}, "id": "Zy-PTX1Sv5XandpdP_UK0Ld2Jds=", "properties": {"@source_uri": "https://tools.usps.com/UspsToolsRestServices/rest/POLocator/findLocations", "@spider": "usps_collection_boxes", "addr:city": "FOLEY", "addr:country": "US", "addr:postcode": "56329", "addr:state": "MN", "addr:street_address": "16623 IRONWOOD ROAD NE", "amenity": "post_box", "collection_times": "Mo-Fr 15:45; Sa 12:00", "note": "ON 12/24 AND 12/31, THIS BOX MAY BE COLLECTED AS EARLY AS 12 NOON.", "nsi_id": "unitedstatespostalservice-a77078", "operator": "United States Postal Service", "operator:short": "USPS", "operator:type": "public", "operator:wikidata": "Q668687", "ref": "5632900002"}, "type": "Feature"}
{"geometry": {"coordinates": [-93.909513113, 45.664909356], "type": "Point"}, "id": "4xvQQ764Kzb0aNd35KYMnOD5k0c=", "properties": {"@source_uri": "https://tools.usps.com/UspsToolsRestServices/rest/POLocator/findLocations", "@spider": "usps_collection_boxes", "addr:city": "FOLEY", "addr:country": "US", "addr:postcode": "56329", "addr:state": "MN", "addr:street_address": "450 DEWEY ST", "amenity": "post_box", "collection_times": "Mo-Fr 15:45; Sa 10:00", "indoor": "yes", "note": "ON 12/24 AND 12/31, THIS BOX MAY BE COLLECTED AS EARLY AS 12 NOON.", "nsi_id": "unitedstatespostalservice-a77078", "operator": "United States Postal Service", "operator:short": "USPS", "operator:type": "public", "operator:wikidata": "Q668687", "ref": "5632900003"}, "type": "Feature"}
{"geometry": {"coordinates": [-93.920183709, 45.662238591], "type": "Point"}, "id": "lydmvJcV2xET8KLHbvZW9Bcax8Y=", "properties": {"@source_uri": "https://tools.usps.com/UspsToolsRestServices/rest/POLocator/findLocations", "@spider": "usps_collection_boxes", "addr:city": "FOLEY", "addr:country": "US", "addr:postcode": "56329", "addr:state": "MN", "addr:street_address": "171 GLEN ST", "amenity": "post_box", "collection_times": "Mo-Sa 14:00", "note": "ON 12/24 AND 12/31, THIS BOX MAY BE COLLECTED AS EARLY AS 12 NOON.", "nsi_id": "unitedstatespostalservice-a77078", "operator": "United States Postal Service", "operator:short": "USPS", "operator:type": "public", "operator:wikidata": "Q668687", "ref": "5632900004"}, "type": "Feature"}
{"geometry": {"coordinates": [-93.909513113, 45.664909356], "type": "Point"}, "id": "Mbn3Yh15v0DBAHXxP2TrHne7fd0=", "properties": {"@source_uri": "https://tools.usps.com/UspsToolsRestServices/rest/POLocator/findLocations", "@spider": "usps_collection_boxes", "addr:city": "FOLEY", "addr:country": "US", "addr:postcode": "56329", "addr:state": "MN", "addr:street_address": "450 DEWEY ST", "amenity": "post_box", "collection_times": "Mo-Fr 15:45; Sa 09:30", "indoor": "yes", "note": "ON 12/24 AND 12/31, THIS BOX MAY BE COLLECTED AS EARLY AS 12 NOON.", "nsi_id": "unitedstatespostalservice-a77078", "operator": "United States Postal Service", "operator:short": "USPS", "operator:type": "public", "operator:wikidata": "Q668687", "ref": "5632900006"}, "type": "Feature"}
{"geometry": {"coordinates": [-93.710900554, 45.733885857], "type": "Point"}, "id": "TF3urPVPLN8R5wh2pxQ42F7G13c=", "properties": {"@source_uri": "https://tools.usps.com/UspsToolsRestServices/rest/POLocator/findLocations", "@spider": "usps_collection_boxes", "addr:city": "FORESTON", "addr:country": "US", "addr:postcode": "56330", "addr:state": "MN", "addr:street_address": "192 WASHINGTON AVE", "amenity": "post_box", "collection_times": "Mo-Fr 15:45; Sa 09:45", "note": "ON 12/24 AND 12/31, THIS BOX MAY BE COLLECTED AS EARLY AS 12 NOON.", "nsi_id": "unitedstatespostalservice-a77078", "operator": "United States Postal Service", "operator:short": "USPS", "operator:type": "public", "operator:wikidata": "Q668687", "ref": "5633000000"}, "type": "Feature"}
{"geometry": {"coordinates": [-93.710900554, 45.733885857], "type": "Point"}, "id": "G84eSlDc3GbqKsbWT38zB8mQdD8=", "properties": {"@source_uri": "https://tools.usps.com/UspsToolsRestServices/rest/POLocator/findLocations", "@spider": "usps_collection_boxes", "addr:city": "FORESTON", "addr:country": "US", "addr:postcode": "56330", "addr:state": "MN", "addr:street_address": "192 WASHINGTON AVE", "amenity": "post_box", "collection_times": "Mo-Fr 11:00; Sa 09:45", "indoor": "yes", "nsi_id": "unitedstatespostalservice-a77078", "operator": "United States Postal Service", "operator:short": "USPS", "operator:type": "public", "operator:wikidata": "Q668687", "ref": "5633000001"}, "type": "Feature"}
{"geometry": {"coordinates": [-93.710900554, 45.733885857], "type": "Point"}, "id": "Rv5x2NUWG9CmtRd_5mpOf5a7J9w=", "properties": {"@source_uri": "https://tools.usps.com/UspsToolsRestServices/rest/POLocator/findLocations", "@spider": "usps_collection_boxes", "addr:city": "FORESTON", "addr:country": "US", "addr:postcode": "56330", "addr:state": "MN", "addr:street_address": "192 WASHINGTON AVE", "amenity": "post_box", "collection_times": "Mo-Fr 11:00; Sa 09:45", "indoor": "yes", "nsi_id": "unitedstatespostalservice-a77078", "operator": "United States Postal Service", "operator:short": "USPS", "operator:type": "public", "operator:wikidata": "Q668687", "ref": "5633000002"}, "type": "Feature"}
{"geometry": {"coordinates": [-94.689503708, 45.663283538], "type": "Point"}, "id": "8kv46j3lpIoHSQwMKI7zWHT7UUg=", "properties": {"@source_uri": "https://tools.usps.com/UspsToolsRestServices/rest/POLocator/findLocations", "@spider": "usps_collection_boxes", "addr:city": "FREEPORT", "addr:country": "US", "addr:postcode": "56331", "addr:state": "MN", "addr:street_address": "119 MAIN ST E", "amenity": "post_box", "collection_times": "Mo-Fr 16:00; Sa 09:30", "note": "ON 12/24 AND 12/31, THIS BOX MAY BE COLLECTED AS EARLY AS 12 NOON.", "nsi_id": "unitedstatespostalservice-a77078", "operator": "United States Postal Service", "operator:short": "USPS", "operator:type": "public", "operator:wikidata": "Q668687", "ref": "5633100000"}, "type": "Feature"}
{"geometry": {"coordinates": [-94.689503708, 45.663283538], "type": "Point"}, "id": "kV9NrLWZoR9-2gNLrL7rU3aPqHs=", "properties": {"@source_uri": "https://tools.usps.com/UspsToolsRestServices/rest/POLocator/findLocations", "@spider": "usps_collection_boxes", "addr:city": "FREEPORT", "addr:country": "US", "addr:postcode": "56331", "addr:state": "MN", "addr:street_address": "119 MAIN ST E", "amenity": "post_box", "collection_times": "Mo-Fr 14:00; Sa 09:30", "indoor": "yes", "note": "ON 12/24 AND 12/31, THIS BOX MAY BE COLLECTED AS EARLY AS 12 NOON.", "nsi_id": "unitedstatespostalservice-a77078", "operator": "United States Postal Service", "operator:short": "USPS", "operator:type": "public", "operator:wikidata": "Q668687", "ref": "5633100001"}, "type": "Feature"}
{"geometry": {"coordinates": [-94.689503708, 45.663283538], "type": "Point"}, "id": "ihtK_yfpqI7kIGaRNd0JDlLFijc=", "properties": {"@source_uri": "https://tools.usps.com/UspsToolsRestServices/rest/POLocator/findLocations", "@spider": "usps_collection_boxes", "addr:city": "FREEPORT", "addr:country": "US", "addr:postcode": "56331", "addr:state": "MN", "addr:street_address": "119 MAIN ST E", "amenity": "post_box", "collection_times": "Mo-Fr 14:00; Sa 09:30", "indoor": "yes", "note": "ON 12/24 AND 12/31, THIS BOX MAY BE COLLECTED AS EARLY AS 12 NOON.", "nsi_id": "unitedstatespostalservice-a77078", "operator": "United States Postal Service", "operator:short": "USPS", "operator:type": "public", "operator:wikidata": "Q668687", "ref": "5633100002"}, "type": "Feature"}
{"geometry": {"coordinates": [-95.491970494, 45.940464639], "type": "Point"}, "id": "C10ncfYmhHEa75FqeG-NKkBdS2M=", "properties": {"@source_uri": "https://tools.usps.com/UspsToolsRestServices/rest/POLocator/findLocations", "@spider": "usps_collection_boxes", "addr:city": "GARFIELD", "addr:country": "US", "addr:postcode": "56332", "addr:state": "MN", "addr:street_address": "104 STATE ST", "amenity": "post_box", "collection_times": "Mo-Fr 14:45; Sa 09:30", "note": "ON 12/24 AND 12/31, THIS BOX MAY BE COLLECTED AS EARLY AS 12 NOON.", "nsi_id": "unitedstatespostalservice-a77078", "operator": "United States Postal Service", "operator:short": "USPS", "operator:type": "public", "operator:wikidata": "Q668687", "ref": "5633200000"}, "type": "Feature"}
{"geometry": {"coordinates": [-95.491970494, 45.940464639], "type": "Point"}, "id": "X4MknesPJtFz3iGHs1XV7yRJRCo=", "properties": {"@source_uri": "https://tools.usps.com/UspsToolsRestServices/rest/POLocator/findLocations", "@spider": "usps_collection_boxes", "addr:city": "GARFIELD", "addr:country": "US", "addr:postcode": "56332", "addr:state": "MN", "addr:street_address": "104 STATE ST", "amenity": "post_box", "collection_times": "Mo-Fr 11:00; Sa 09:30", "indoor": "yes", "nsi_id": "unitedstatespostalservice-a77078", "operator": "United States Postal Service", "operator:short": "USPS", "operator:type": "public", "operator:wikidata": "Q668687", "ref": "5633200001"}, "type": "Feature"}
{"geometry": {"coordinates": [-95.491970494, 45.940464639], "type": "Point"}, "id": "LlxPeIVo3rPHtsHi4l6xOvocCfY=", "properties": {"@source_uri": "https://tools.usps.com/UspsToolsRestServices/rest/POLocator/findLocations", "@spider": "usps_collection_boxes", "addr:city": "GARFIELD", "addr:country": "US", "addr:postcode": "56332", "addr:state": "MN", "addr:street_address": "104 STATE ST", "amenity": "post_box", "collection_times": "Mo-Fr 11:00; Sa 09:30", "indoor": "yes", "nsi_id": "unitedstatespostalservice-a77078", "operator": "United States Postal Service", "operator:short": "USPS", "operator:type": "public", "operator:wikidata": "Q668687", "ref": "5633200002"}, "type": "Feature"}
{"geometry": {"coordinates": [-93.948790249, 45.735482504], "type": "Point"}, "id": "ps25PiUdZVi00m6rEItLtT1WXKA=", "properties": {"@source_uri": "https://tools.usps.com/UspsToolsRestServices/rest/POLocator/findLocations", "@spider": "usps_collection_boxes", "addr:city": "GILMAN", "addr:country": "US", "addr:postcode": "56333", "addr:state": "MN", "addr:street_address": "10321 115TH ST NE", "amenity": "post_box", "collection_times": "Mo-Fr 16:00; Sa 10:30", "note": "ON 12/24 AND 12/31, THIS BOX MAY BE COLLECTED AS EARLY AS 12 NOON.", "nsi_id": "unitedstatespostalservice-a77078", "operator": "United States Postal Service", "operator:short": "USPS", "operator:type": "public", "operator:wikidata": "Q668687", "ref": "5633300000"}, "type": "Feature"}
{"geometry": {"coordinates": [-93.948790249, 45.735482504], "type": "Point"}, "id": "w-fuMIeyxgiFqGIi7RtsAzPnCYI=", "properties": {"@source_uri": "https://tools.usps.com/UspsToolsRestServices/rest/POLocator/findLocations", "@spider": "usps_collection_boxes", "addr:city": "GILMAN", "addr:country": "US", "addr:postcode": "56333", "addr:state": "MN", "addr:street_address": "10321 115TH ST NE", "amenity": "post_box", "collection_times": "Mo-Fr 12:00; Sa 10:30", "indoor": "yes", "nsi_id": "unitedstatespostalservice-a77078", "operator": "United States Postal Service", "operator:short": "USPS", "operator:type": "public", "operator:wikidata": "Q668687", "ref": "5633300001"}, "type": "Feature"}
{"geometry": {"coordinates": [-93.948790249, 45.735482504], "type": "Point"}, "id": "UzAj-nkxr_IUOsLn6VZCT0ljPLA=", "properties": {"@source_uri": "https://tools.usps.com/UspsToolsRestServices/rest/POLocator/findLocations", "@spider": "usps_collection_boxes", "addr:city": "GILMAN", "addr:country": "US", "addr:postcode": "56333", "addr:state": "MN", "addr:street_address": "10321 115TH ST NE", "amenity": "post_box", "collection_times": "Mo-Fr 12:00; Sa 10:30", "indoor": "yes", "nsi_id": "unitedstatespostalservice-a77078", "operator": "United States Postal Service", "operator:short": "USPS", "operator:type": "public", "operator:wikidata": "Q668687", "ref": "5633300002"}, "type": "Feature"}
{"geometry": {"coordinates": [-95.386544193, 45.650284519], "type": "Point"}, "id": "9IqfGoa2iBsWFCCRZQcfN_R0l9c=", "properties": {"@source_uri": "https://tools.usps.com/UspsToolsRestServices/rest/POLocator/findLocations", "@spider": "usps_collection_boxes", "addr:city": "GLENWOOD", "addr:country": "US", "addr:postcode": "56334", "addr:state": "MN", "addr:street_address": "211 MINNESOTA AVE E", "amenity": "post_box", "collection_times": "Mo-Sa 14:00", "note": "ON 12/24 AND 12/31, THIS BOX MAY BE COLLECTED AS EARLY AS 12 NOON.", "nsi_id": "unitedstatespostalservice-a77078", "operator": "United States Postal Service", "operator:short": "USPS", "operator:type": "public", "operator:wikidata": "Q668687", "ref": "5633400003"}, "type": "Feature"}
{"geometry": {"coordinates": [-95.390051195, 45.65463278], "type": "Point"}, "id": "do1-ZFYPeidnl0ozck74Owgt3wA=", "properties": {"@source_uri": "https://tools.usps.com/UspsToolsRestServices/rest/POLocator/findLocations", "@spider": "usps_collection_boxes", "addr:city": "GLENWOOD", "addr:country": "US", "addr:postcode": "56334", "addr:state": "MN", "addr:street_address": "590 FRANKLIN ST N", "amenity": "post_box", "collection_times": "Mo-Fr 14:45; Sa 11:30", "indoor": "yes", "note": "ON 12/24 AND 12/31, THIS BOX MAY BE COLLECTED AS EARLY AS 12 NOON.", "nsi_id": "unitedstatespostalservice-a77078", "operator": "United States Postal Service", "operator:short": "USPS", "operator:type": "public", "operator:wikidata": "Q668687", "ref": "5633400004"}, "type": "Feature"}
{"geometry": {"coordinates": [-95.390380149, 45.650145288], "type": "Point"}, "id": "nkMTWdR4we9FGOgRy6VNP7qxDyA=", "properties": {"@source_uri": "https://tools.usps.com/UspsToolsRestServices/rest/POLocator/findLocations", "@spider": "usps_collection_boxes", "addr:city": "GLENWOOD", "addr:country": "US", "addr:postcode": "56334", "addr:state": "MN", "addr:street_address": "19 MINNESOTA AVE W", "amenity": "post_box", "collection_times": "Mo-Sa 14:00", "note": "ON 12/24 AND 12/31, THIS BOX MAY BE COLLECTED AS EARLY AS 12 NOON.", "nsi_id": "unitedstatespostalservice-a77078", "operator": "United States Postal Service", "operator:short": "USPS", "operator:type": "public", "operator:wikidata": "Q668687", "ref": "5633400005"}, "type": "Feature"}
{"geometry": {"coordinates": [-95.390051195, 45.65463278], "type": "Point"}, "id": "IYs6wVyFSIIa5vOYHN71w9fMlkU=", "properties": {"@source_uri": "https://tools.usps.com/UspsToolsRestServices/rest/POLocator/findLocations", "@spider": "usps_collection_boxes", "addr:city": "GLENWOOD", "addr:country": "US", "addr:postcode": "56334", "addr:state": "MN", "addr:street_address": "590 FRANKLIN ST N", "amenity": "post_box", "collection_times": "Mo-Fr 14:45; Sa 11:30", "indoor": "yes", "note": "ON 12/24 AND 12/31, THIS BOX MAY BE COLLECTED AS EARLY AS 12 NOON.", "nsi_id": "unitedstatespostalservice-a77078", "operator": "United States Postal Service", "operator:short": "USPS", "operator:type": "public", "operator:wikidata": "Q668687", "ref": "5633400007"}, "type": "Feature"}
{"geometry": {"coordinates": [-95.390051195, 45.65463278], "type": "Point"}, "id": "_PI3WGMEHzMCy2J6mdUd2LL4wfU=", "properties": {"@source_uri": "https://tools.usps.com/UspsToolsRestServices/rest/POLocator/findLocations", "@spider": "usps_collection_boxes", "addr:city": "GLENWOOD", "addr:country": "US", "addr:postcode": "56334", "addr:state": "MN", "addr:street_address": "590 FRANKLIN ST N", "amenity": "post_box", "collection_times": "Mo-Fr 14:45; Sa 10:45", "indoor": "yes", "note": "ON 12/24 AND 12/31, THIS BOX MAY BE COLLECTED AS EARLY AS 12 NOON.", "nsi_id": "unitedstatespostalservice-a77078", "operator": "United States Postal Service", "operator:short": "USPS", "operator:type": "public", "operator:wikidata": "Q668687", "ref": "5633400009"}, "type": "Feature"}
{"geometry": {"coordinates": [-94.8624919727, 45.6004079322], "type": "Point"}, "id": "8KRZU7GudyGfi5-xTCujqsPbzEQ=", "properties": {"@source_uri": "https://tools.usps.com/UspsToolsRestServices/rest/POLocator/findLocations", "@spider": "usps_collection_boxes", "addr:city": "GREENWALD", "addr:country": "US", "addr:postcode": "56335", "addr:state": "MN", "addr:street_address": "51 N 5TH ST W", "amenity": "post_box", "collection_times": "Mo-Fr 14:30; Sa 09:45", "note": "ON 12/24 AND 12/31, THIS BOX MAY BE COLLECTED AS EARLY AS 12 NOON.", "nsi_id": "unitedstatespostalservice-a77078", "operator": "United States Postal Service", "operator:short": "USPS", "operator:type": "public", "operator:wikidata": "Q668687", "ref": "5633500000"}, "type": "Feature"}
{"geometry": {"coordinates": [-94.8624919727, 45.6004079322], "type": "Point"}, "id": "eW_rm_NN8egevryfsLhJ4ReOY_Y=", "properties": {"@source_uri": "https://tools.usps.com/UspsToolsRestServices/rest/POLocator/findLocations", "@spider": "usps_collection_boxes", "addr:city": "GREENWALD", "addr:country": "US", "addr:postcode": "56335", "addr:state": "MN", "addr:street_address": "51 N 5TH ST W", "amenity": "post_box", "collection_times": "Mo-Fr 11:30; Sa 09:45", "indoor": "yes", "nsi_id": "unitedstatespostalservice-a77078", "operator": "United States Postal Service", "operator:short": "USPS", "operator:type": "public", "operator:wikidata": "Q668687", "ref": "5633500001"}, "type": "Feature"}
{"geometry": {"coordinates": [-94.8624919727, 45.6004079322], "type": "Point"}, "id": "RVxFIkOUiHY5cutWHl7efVr-YTA=", "properties": {"@source_uri": "https://tools.usps.com/UspsToolsRestServices/rest/POLocator/findLocations", "@spider": "usps_collection_boxes", "addr:city": "GREENWALD", "addr:country": "US", "addr:postcode": "56335", "addr:state": "MN", "addr:street_address": "51 N 5TH ST W", "amenity": "post_box", "collection_times": "Mo-Fr 11:30; Sa 09:45", "indoor": "yes", "nsi_id": "unitedstatespostalservice-a77078", "operator": "United States Postal Service", "operator:short": "USPS", "operator:type": "public", "operator:wikidata": "Q668687", "ref": "5633500002"}, "type": "Feature"}
{"geometry": {"coordinates": [-94.74759, 45.824563508], "type": "Point"}, "id": "QcMxgBuGuMlWVSnhZcOHCyCDADc=", "properties": {"@source_uri": "https://tools.usps.com/UspsToolsRestServices/rest/POLocator/findLocations", "@spider": "usps_collection_boxes", "addr:city": "GREY EAGLE", "addr:country": "US", "addr:postcode": "56336", "addr:state": "MN", "addr:street_address": "210 E STATE ST", "amenity": "post_box", "collection_times": "Mo-Fr 14:45; Sa 08:30", "note": "ON 12/24 AND 12/31, THIS BOX MAY BE COLLECTED AS EARLY AS 12 NOON.", "nsi_id": "unitedstatespostalservice-a77078", "operator": "United States Postal Service", "operator:short": "USPS", "operator:type": "public", "operator:wikidata": "Q668687", "ref": "5633600000"}, "type": "Feature"}
{"geometry": {"coordinates": [-94.74759, 45.824563508], "type": "Point"}, "id": "mOVXP3_h-JZw98OCBXLpKbeIVr4=", "properties": {"@source_uri": "https://tools.usps.com/UspsToolsRestServices/rest/POLocator/findLocations", "@spider": "usps_collection_boxes", "addr:city": "GREY EAGLE", "addr:country": "US", "addr:postcode": "56336", "addr:state": "MN", "addr:street_address": "210 E STATE ST", "amenity": "post_box", "collection_times": "Mo-Fr 13:00; Sa 08:30", "indoor": "yes", "note": "ON 12/24 AND 12/31, THIS BOX MAY BE COLLECTED AS EARLY AS 12 NOON.", "nsi_id": "unitedstatespostalservice-a77078", "operator": "United States Postal Service", "operator:short": "USPS", "operator:type": "public", "operator:wikidata": "Q668687", "ref": "5633600001"}, "type": "Feature"}
{"geometry": {"coordinates": [-94.751693485, 45.824598093], "type": "Point"}, "id": "aDnZAy6Nqp5zWmud4h6MiENM5YA=", "properties": {"@source_uri": "https://tools.usps.com/UspsToolsRestServices/rest/POLocator/findLocations", "@spider": "usps_collection_boxes", "addr:city": "GREY EAGLE", "addr:country": "US", "addr:postcode": "56336", "addr:state": "MN", "addr:street_address": "210 STATE ST W", "amenity": "post_box", "collection_times": "Mo-Fr 13:00; Sa 09:15", "indoor": "yes", "note": "ON 12/24 AND 12/31, THIS BOX MAY BE COLLECTED AS EARLY AS 12 NOON.", "nsi_id": "unitedstatespostalservice-a77078", "operator": "United States Postal Service", "operator:short": "USPS", "operator:type": "public", "operator:wikidata": "Q668687", "ref": "5633600002"}, "type": "Feature"}
{"geometry": {"coordinates": [-95.791473114, 45.829894644], "type": "Point"}, "id": "NxPQm-Mn1I8DZrYwFyn1kSLFM9o=", "properties": {"@source_uri": "https://tools.usps.com/UspsToolsRestServices/rest/POLocator/findLocations", "@spider": "usps_collection_boxes", "addr:city": "HOFFMAN", "addr:country": "US", "addr:postcode": "56339", "addr:state": "MN", "addr:street_address": "128 MAIN AVE", "amenity": "post_box", "collection_times": "Mo-Fr 13:45; Sa 10:15", "note": "ON 12/24 AND 12/31, THIS BOX MAY BE COLLECTED AS EARLY AS 12 NOON.", "nsi_id": "unitedstatespostalservice-a77078", "operator": "United States Postal Service", "operator:short": "USPS", "operator:type": "public", "operator:wikidata": "Q668687", "ref": "5633900000"}, "type": "Feature"}
{"geometry": {"coordinates": [-95.789935, 45.830595], "type": "Point"}, "id": "lqrWupNVHx6UIbxxy0pR1Zk2Nvw=", "properties": {"@source_uri": "https://tools.usps.com/UspsToolsRestServices/rest/POLocator/findLocations", "@spider": "usps_collection_boxes", "addr:city": "HOFFMAN", "addr:country": "US", "addr:postcode": "56339", "addr:state": "MN", "addr:street_address": "128 MAIN AVE", "amenity": "post_box", "collection_times": "Mo-Fr 12:30; Sa 10:15", "indoor": "yes", "note": "ON 12/24 AND 12/31, THIS BOX MAY BE COLLECTED AS EARLY AS 12 NOON.", "nsi_id": "unitedstatespostalservice-a77078", "operator": "United States Postal Service", "operator:short": "USPS", "operator:type": "public", "operator:wikidata": "Q668687", "ref": "5633900001"}, "type": "Feature"}
{"geometry": {"coordinates": [-95.789935, 45.830595], "type": "Point"}, "id": "5BzkvyXYQLUpvKtvdNCTogcMjEs=", "properties": {"@source_uri": "https://tools.usps.com/UspsToolsRestServices/rest/POLocator/findLocations", "@spider": "usps_collection_boxes", "addr:city": "HOFFMAN", "addr:country": "US", "addr:postcode": "56339", "addr:state": "MN", "addr:street_address": "128 MAIN AVE", "amenity": "post_box", "collection_times": "Mo-Fr 12:30; Sa 10:15", "indoor": "yes", "note": "ON 12/24 AND 12/31, THIS BOX MAY BE COLLECTED AS EARLY AS 12 NOON.", "nsi_id": "unitedstatespostalservice-a77078", "operator": "United States Postal Service", "operator:short": "USPS", "operator:type": "public", "operator:wikidata": "Q668687", "ref": "5633900002"}, "type": "Feature"}
{"geometry": {"coordinates": [-94.475304, 45.730330479], "type": "Point"}, "id": "OnkpUWn1ePAONFgTZD-0q--fva8=", "properties": {"@source_uri": "https://tools.usps.com/UspsToolsRestServices/rest/POLocator/findLocations", "@spider": "usps_collection_boxes", "addr:city": "HOLDINGFORD", "addr:country": "US", "addr:postcode": "56340", "addr:state": "MN", "addr:street_address": "105 PLYMOUTH ST", "amenity": "post_box", "collection_times": "Mo-Fr 15:30; Sa 09:15", "note": "ON 12/24 AND 12/31, THIS BOX MAY BE COLLECTED AS EARLY AS 12 NOON.", "nsi_id": "unitedstatespostalservice-a77078", "operator": "United States Postal Service", "operator:short": "USPS", "operator:type": "public", "operator:wikidata": "Q668687", "ref": "5634000000"}, "type": "Feature"}
{"geometry": {"coordinates": [-94.475304, 45.730330479], "type": "Point"}, "id": "sOuv79P_4ERLC0UamsL3ISofq9k=", "properties": {"@source_uri": "https://tools.usps.com/UspsToolsRestServices/rest/POLocator/findLocations", "@spider": "usps_collection_boxes", "addr:city": "HOLDINGFORD", "addr:country": "US", "addr:postcode": "56340", "addr:state": "MN", "addr:street_address": "105 PLYMOUTH ST", "amenity": "post_box", "collection_times": "Mo-Fr 13:30; Sa 09:15", "indoor": "yes", "note": "ON 12/24 AND 12/31, THIS BOX MAY BE COLLECTED AS EARLY AS 12 NOON.", "nsi_id": "unitedstatespostalservice-a77078", "operator": "United States Postal Service", "operator:short": "USPS", "operator:type": "public", "operator:wikidata": "Q668687", "ref": "5634000001"}, "type": "Feature"}
{"geometry": {"coordinates": [-94.475304, 45.730330479], "type": "Point"}, "id": "MW4Nm4DECQy4wSZv_-JWhr-CI2Q=", "properties": {"@source_uri": "https://tools.usps.com/UspsToolsRestServices/rest/POLocator/findLocations", "@spider": "usps_collection_boxes", "addr:city": "HOLDINGFORD", "addr:country": "US", "addr:postcode": "56340", "addr:state": "MN", "addr:street_address": "105 PLYMOUTH ST", "amenity": "post_box", "collection_times": "Mo-Fr 13:30; Sa 09:45", "indoor": "yes", "note": "ON 12/24 AND 12/31, THIS BOX MAY BE COLLECTED AS EARLY AS 12 NOON.", "nsi_id": "unitedstatespostalservice-a77078", "operator": "United States Postal Service", "operator:short": "USPS", "operator:type": "public", "operator:wikidata": "Q668687", "ref": "5634000002"}, "type": "Feature"}
{"geometry": {"coordinates": [-95.541091997, 45.8333240151], "type": "Point"}, "id": "YZHxeIObYxSVkoG9ii_CC1o0hPY=", "properties": {"@source_uri": "https://tools.usps.com/UspsToolsRestServices/rest/POLocator/findLocations", "@spider": "usps_collection_boxes", "addr:city": "HOLMES CITY", "addr:country": "US", "addr:postcode": "56341", "addr:state": "MN", "addr:street_address": "11142 COUNTY ROAD 94", "amenity": "post_box", "collection_times": "Mo-Sa 12:00", "nsi_id": "unitedstatespostalservice-a77078", "operator": "United States Postal Service", "operator:short": "USPS", "operator:type": "public", "operator:wikidata": "Q668687", "ref": "5634100000"}, "type": "Feature"}
{"geometry": {"coordinates": [-95.541091997, 45.8333240151], "type": "Point"}, "id": "1CY08iHXSbOMblaFiOpgtC-GEDw=", "properties": {"@source_uri": "https://tools.usps.com/UspsToolsRestServices/rest/POLocator/findLocations", "@spider": "usps_collection_boxes", "addr:city": "HOLMES CITY", "addr:country": "US", "addr:postcode": "56341", "addr:state": "MN", "addr:street_address": "11142 COUNTY ROAD 94", "amenity": "post_box", "collection_times": "Mo-Sa 12:00", "indoor": "yes", "nsi_id": "unitedstatespostalservice-a77078", "operator": "United States Postal Service", "operator:short": "USPS", "operator:type": "public", "operator:wikidata": "Q668687", "ref": "5634100001"}, "type": "Feature"}
{"geometry": {"coordinates": [-95.541091997, 45.8333240151], "type": "Point"}, "id": "39mIUyIPz_UN9WYLas2rmQcNc3I=", "properties": {"@source_uri": "https://tools.usps.com/UspsToolsRestServices/rest/POLocator/findLocations", "@spider": "usps_collection_boxes", "addr:city": "HOLMES CITY", "addr:country": "US", "addr:postcode": "56341", "addr:state": "MN", "addr:street_address": "11142 COUNTY ROAD 94", "amenity": "post_box", "collection_times": "Mo-Sa 13:00", "indoor": "yes", "note": "ON 12/24 AND 12/31, THIS BOX MAY BE COLLECTED AS EARLY AS 12 NOON.", "nsi_id": "unitedstatespostalservice-a77078", "operator": "United States Postal Service", "operator:short": "USPS", "operator:type": "public", "operator:wikidata": "Q668687", "ref": "5634100002"}, "type": "Feature"}
{"geometry": {"coordinates": [-93.469362849, 46.137392246], "type": "Point"}, "id": "bJy2_Q9zliIIiWj151R4ykOPgdU=", "properties": {"@source_uri": "https://tools.usps.com/UspsToolsRestServices/rest/POLocator/findLocations", "@spider": "usps_collection_boxes", "addr:city": "ISLE", "addr:country": "US", "addr:postcode": "56342", "addr:state": "MN", "addr:street_address": "250 2ND AVE S", "amenity": "post_box", "collection_times": "Mo-Fr 14:15; Sa 11:00", "note": "ON 12/24 AND 12/31, THIS BOX MAY BE COLLECTED AS EARLY AS 12 NOON.", "nsi_id": "unitedstatespostalservice-a77078", "operator": "United States Postal Service", "operator:short": "USPS", "operator:type": "public", "operator:wikidata": "Q668687", "ref": "5634200000"}, "type": "Feature"}
{"geometry": {"coordinates": [-93.469362849, 46.137392246], "type": "Point"}, "id": "Jk-LjqX9yP4h7nnKWJxwxPyO0Hk=", "properties": {"@source_uri": "https://tools.usps.com/UspsToolsRestServices/rest/POLocator/findLocations", "@spider": "usps_collection_boxes", "addr:city": "ISLE", "addr:country": "US", "addr:postcode": "56342", "addr:state": "MN", "addr:street_address": "250 2ND AVE S", "amenity": "post_box", "collection_times": "Mo-Fr 14:15; Sa 11:00", "indoor": "yes", "note": "ON 12/24 AND 12/31, THIS BOX MAY BE COLLECTED AS EARLY AS 12 NOON.", "nsi_id": "unitedstatespostalservice-a77078", "operator": "United States Postal Service", "operator:short": "USPS", "operator:type": "public", "operator:wikidata": "Q668687", "ref": "5634200002"}, "type": "Feature"}
{"geometry": {"coordinates": [-93.469362849, 46.137392246], "type": "Point"}, "id": "mJmkzZHZWTgh1TL225kP5gLn1Ms=", "properties": {"@source_uri": "https://tools.usps.com/UspsToolsRestServices/rest/POLocator/findLocations", "@spider": "usps_collection_boxes", "addr:city": "ISLE", "addr:country": "US", "addr:postcode": "56342", "addr:state": "MN", "addr:street_address": "250 2ND AVE S", "amenity": "post_box", "collection_times": "Mo-Fr 14:15; Sa 11:00", "indoor": "yes", "note": "ON 12/24 AND 12/31, THIS BOX MAY BE COLLECTED AS EARLY AS 12 NOON.", "nsi_id": "unitedstatespostalservice-a77078", "operator": "United States Postal Service", "operator:short": "USPS", "operator:type": "public", "operator:wikidata": "Q668687", "ref": "5634200003"}, "type": "Feature"}
{"geometry": {"coordinates": [-95.694929327, 45.779012717], "type": "Point"}, "id": "FUBo-CqI33ctIkj3_eXs4VaSv1U=", "properties": {"@source_uri": "https://tools.usps.com/UspsToolsRestServices/rest/POLocator/findLocations", "@spider": "usps_collection_boxes", "addr:city": "KENSINGTON", "addr:country": "US", "addr:postcode": "56343", "addr:state": "MN", "addr:street_address": "17 CENTRAL AVE N", "amenity": "post_box", "collection_times": "Mo-Fr 14:00; Sa 09:00", "note": "ON 12/24 AND 12/31, THIS BOX MAY BE COLLECTED AS EARLY AS 12 NOON.", "nsi_id": "unitedstatespostalservice-a77078", "operator": "United States Postal Service", "operator:short": "USPS", "operator:type": "public", "operator:wikidata": "Q668687", "ref": "5634300000"}, "type": "Feature"}
{"geometry": {"coordinates": [-95.694929327, 45.779012717], "type": "Point"}, "id": "ZCgRMbO3V8EVq-P107EPSd8uutE=", "properties": {"@source_uri": "https://tools.usps.com/UspsToolsRestServices/rest/POLocator/findLocations", "@spider": "usps_collection_boxes", "addr:city": "KENSINGTON", "addr:country": "US", "addr:postcode": "56343", "addr:state": "MN", "addr:street_address": "17 CENTRAL AVE N", "amenity": "post_box", "collection_times": "Mo-Fr 12:15; Sa 09:00", "indoor": "yes", "note": "ON 12/24 AND 12/31, THIS BOX MAY BE COLLECTED AS EARLY AS 12 NOON.", "nsi_id": "unitedstatespostalservice-a77078", "operator": "United States Postal Service", "operator:short": "USPS", "operator:type": "public", "operator:wikidata": "Q668687", "ref": "5634300001"}, "type": "Feature"}
{"geometry": {"coordinates": [-95.694929327, 45.779012717], "type": "Point"}, "id": "3fGgXeyHpHb5rzIrSBSYd5MQytw=", "properties": {"@source_uri": "https://tools.usps.com/UspsToolsRestServices/rest/POLocator/findLocations", "@spider": "usps_collection_boxes", "addr:city": "KENSINGTON", "addr:country": "US", "addr:postcode": "56343", "addr:state": "MN", "addr:street_address": "17 CENTRAL AVE N", "amenity": "post_box", "collection_times": "Mo-Fr 12:15; Sa 09:00", "indoor": "yes", "note": "ON 12/24 AND 12/31, THIS BOX MAY BE COLLECTED AS EARLY AS 12 NOON.", "nsi_id": "unitedstatespostalservice-a77078", "operator": "United States Postal Service", "operator:short": "USPS", "operator:type": "public", "operator:wikidata": "Q668687", "ref": "5634300002"}, "type": "Feature"}
{"geometry": {"coordinates": [-94.365927498, 45.976929337], "type": "Point"}, "id": "-fYdjQ2Y0jdEB6mBN7Q5co6zkh0=", "properties": {"@source_uri": "https://tools.usps.com/UspsToolsRestServices/rest/POLocator/findLocations", "@spider": "usps_collection_boxes", "addr:city": "LITTLE FALLS", "addr:country": "US", "addr:postcode": "56345", "addr:state": "MN", "addr:street_address": "27 E BROADWAY", "amenity": "post_box", "collection_times": "Mo-Sa 15:15", "note": "ON 12/24 AND 12/31, THIS BOX MAY BE COLLECTED AS EARLY AS 12 NOON.", "nsi_id": "unitedstatespostalservice-a77078", "operator": "United States Postal Service", "operator:short": "USPS", "operator:type": "public", "operator:wikidata": "Q668687", "ref": "5634500001"}, "type": "Feature"}
{"geometry": {"coordinates": [-94.362885925, 45.975073485], "type": "Point"}, "id": "hGZO4942v0cUfSaweEGAOCnm8ug=", "properties": {"@source_uri": "https://tools.usps.com/UspsToolsRestServices/rest/POLocator/findLocations", "@spider": "usps_collection_boxes", "addr:city": "LITTLE FALLS", "addr:country": "US", "addr:postcode": "56345", "addr:state": "MN", "addr:street_address": "209 1ST ST SE", "amenity": "post_box", "collection_times": "Mo-Sa 14:00", "note": "ON 12/24 AND 12/31, THIS BOX MAY BE COLLECTED AS EARLY AS 12 NOON.", "nsi_id": "unitedstatespostalservice-a77078", "operator": "United States Postal Service", "operator:short": "USPS", "operator:type": "public", "operator:wikidata": "Q668687", "ref": "5634500016"}, "type": "Feature"}
{"geometry": {"coordinates": [-94.362448229, 45.976899017], "type": "Point"}, "id": "fZLJTpL6JNkyo0alSZ3Oqi7OQww=", "properties": {"@source_uri": "https://tools.usps.com/UspsToolsRestServices/rest/POLocator/findLocations", "@spider": "usps_collection_boxes", "addr:city": "LITTLE FALLS", "addr:country": "US", "addr:postcode": "56345", "addr:state": "MN", "addr:street_address": "111 1ST ST NE", "amenity": "post_box", "collection_times": "Mo-Sa 14:00", "note": "ON 12/24 AND 12/31, THIS BOX MAY BE COLLECTED AS EARLY AS 12 NOON.", "nsi_id": "unitedstatespostalservice-a77078", "operator": "United States Postal Service", "operator:short": "USPS", "operator:type": "public", "operator:wikidata": "Q668687", "ref": "5634500018"}, "type": "Feature"}
{"geometry": {"coordinates": [-94.365927498, 45.976929337], "type": "Point"}, "id": "0qavR2tEMgGG0wZiOFMrgzDBdiw=", "properties": {"@source_uri": "https://tools.usps.com/UspsToolsRestServices/rest/POLocator/findLocations", "@spider": "usps_collection_boxes", "addr:city": "LITTLE FALLS", "addr:country": "US", "addr:postcode": "56345", "addr:state": "MN", "addr:street_address": "27 E BROADWAY", "amenity": "post_box", "collection_times": "Mo-Sa 15:15", "indoor": "yes", "note": "ON 12/24 AND 12/31, THIS BOX MAY BE COLLECTED AS EARLY AS 12 NOON.", "nsi_id": "unitedstatespostalservice-a77078", "operator": "United States Postal Service", "operator:short": "USPS", "operator:type": "public", "operator:wikidata": "Q668687", "ref": "5634500020"}, "type": "Feature"}
{"geometry": {"coordinates": [-94.362633838, 45.967309607], "type": "Point"}, "id": "AgcK6nwaUzAjinukfsoxeky8JHE=", "properties": {"@source_uri": "https://tools.usps.com/UspsToolsRestServices/rest/POLocator/findLocations", "@spider": "usps_collection_boxes", "addr:city": "LITTLE FALLS", "addr:country": "US", "addr:postcode": "56345", "addr:state": "MN", "addr:street_address": "815 2ND ST SE", "amenity": "post_box", "collection_times": "Mo-Fr 14:00; Sa 13:00", "note": "ON 12/24 AND 12/31, THIS BOX MAY BE COLLECTED AS EARLY AS 12 NOON.", "nsi_id": "unitedstatespostalservice-a77078", "operator": "United States Postal Service", "operator:short": "USPS", "operator:type": "public", "operator:wikidata": "Q668687", "ref": "5634500025"}, "type": "Feature"}
{"geometry": {"coordinates": [-94.360498655, 45.97504933], "type": "Point"}, "id": "8iQyE_6tlf1EulUsWT-C0z7vZUI=", "properties": {"@source_uri": "https://tools.usps.com/UspsToolsRestServices/rest/POLocator/findLocations", "@spider": "usps_collection_boxes", "addr:city": "LITTLE FALLS", "addr:country": "US", "addr:postcode": "56345", "addr:state": "MN", "addr:street_address": "213 1ST AVE SE", "amenity": "post_box", "collection_times": "Mo-Fr 14:00", "note": "ON 12/24 AND 12/31, THIS BOX MAY BE COLLECTED AS EARLY AS 12 NOON.", "nsi_id": "unitedstatespostalservice-a77078", "operator": "United States Postal Service", "operator:short": "USPS", "operator:type": "public", "operator:wikidata": "Q668687", "ref": "5634500026"}, "type": "Feature"}
{"geometry": {"coordinates": [-94.375223445, 45.977127504], "type": "Point"}, "id": "u2sX2PmfubDcsnhWXQixdy_5SAs=", "properties": {"@source_uri": "https://tools.usps.com/UspsToolsRestServices/rest/POLocator/findLocations", "@spider": "usps_collection_boxes", "addr:city": "LITTLE FALLS", "addr:country": "US", "addr:postcode": "56345", "addr:state": "MN", "addr:street_address": "402 W BROADWAY", "amenity": "post_box", "collection_times": "Mo-Sa 14:00", "note": "ON 12/24 AND 12/31, THIS BOX MAY BE COLLECTED AS EARLY AS 12 NOON.", "nsi_id": "unitedstatespostalservice-a77078", "operator": "United States Postal Service", "operator:short": "USPS", "operator:type": "public", "operator:wikidata": "Q668687", "ref": "5634500027"}, "type": "Feature"}
{"geometry": {"coordinates": [-94.365927498, 45.976929337], "type": "Point"}, "id": "VElH8eMX_6PxC8QcTnNZ7CQtsP4=", "properties": {"@source_uri": "https://tools.usps.com/UspsToolsRestServices/rest/POLocator/findLocations", "@spider": "usps_collection_boxes", "addr:city": "LITTLE FALLS", "addr:country": "US", "addr:postcode": "56345", "addr:state": "MN", "addr:street_address": "27 E BROADWAY", "amenity": "post_box", "collection_times": "Mo-Fr 15:30; Sa 10:00", "indoor": "yes", "note": "ON 12/24 AND 12/31, THIS BOX MAY BE COLLECTED AS EARLY AS 12 NOON.", "nsi_id": "unitedstatespostalservice-a77078", "operator": "United States Postal Service", "operator:short": "USPS", "operator:type": "public", "operator:wikidata": "Q668687", "ref": "5634500029"}, "type": "Feature"}
{"geometry": {"coordinates": [-94.861343886, 45.972990528], "type": "Point"}, "id": "4uLHngg5SwSBj8G0jkt-qpFYtEM=", "properties": {"@source_uri": "https://tools.usps.com/UspsToolsRestServices/rest/POLocator/findLocations", "@spider": "usps_collection_boxes", "addr:city": "LONG PRAIRIE", "addr:country": "US", "addr:postcode": "56347", "addr:state": "MN", "addr:street_address": "221 1ST AVE S", "amenity": "post_box", "collection_times": "Mo-Fr 13:00; Sa 12:00", "note": "ON 12/24 AND 12/31, THIS BOX MAY BE COLLECTED AS EARLY AS 12 NOON.", "nsi_id": "unitedstatespostalservice-a77078", "operator": "United States Postal Service", "operator:short": "USPS", "operator:type": "public", "operator:wikidata": "Q668687", "ref": "5634700001"}, "type": "Feature"}
{"geometry": {"coordinates": [-94.850121526, 45.975247522], "type": "Point"}, "id": "q8D9DB-3vKeB8tzbNGLvhe2IABI=", "properties": {"@source_uri": "https://tools.usps.com/UspsToolsRestServices/rest/POLocator/findLocations", "@spider": "usps_collection_boxes", "addr:city": "LONG PRAIRIE", "addr:country": "US", "addr:postcode": "56347", "addr:state": "MN", "addr:street_address": "904 1ST AVE NE", "amenity": "post_box", "collection_times": "Mo-Sa 09:00", "nsi_id": "unitedstatespostalservice-a77078", "operator": "United States Postal Service", "operator:short": "USPS", "operator:type": "public", "operator:wikidata": "Q668687", "ref": "5634700003"}, "type": "Feature"}
{"geometry": {"coordinates": [-94.861781832, 45.974119528], "type": "Point"}, "id": "ttylaPzWhpmp1_gC29S0T1ChIco=", "properties": {"@source_uri": "https://tools.usps.com/UspsToolsRestServices/rest/POLocator/findLocations", "@spider": "usps_collection_boxes", "addr:city": "LONG PRAIRIE", "addr:country": "US", "addr:postcode": "56347", "addr:state": "MN", "addr:street_address": "221 CENTRAL AVE", "amenity": "post_box", "collection_times": "Mo-Fr 13:00; Sa 12:00", "note": "ON 12/24 AND 12/31, THIS BOX MAY BE COLLECTED AS EARLY AS 12 NOON.", "nsi_id": "unitedstatespostalservice-a77078", "operator": "United States Postal Service", "operator:short": "USPS", "operator:type": "public", "operator:wikidata": "Q668687", "ref": "5634700004"}, "type": "Feature"}
{"geometry": {"coordinates": [-94.859334, 45.974181497], "type": "Point"}, "id": "KyKQJNUK3h9PH1bLXNtvg7SSrTk=", "properties": {"@source_uri": "https://tools.usps.com/UspsToolsRestServices/rest/POLocator/findLocations", "@spider": "usps_collection_boxes", "addr:city": "LONG PRAIRIE", "addr:country": "US", "addr:postcode": "56347", "addr:state": "MN", "addr:street_address": "350 CENTRAL AVE", "amenity": "post_box", "collection_times": "Mo-Fr 14:45; Sa 12:00", "note": "ON 12/24 AND 12/31, THIS BOX MAY BE COLLECTED AS EARLY AS 12 NOON.", "nsi_id": "unitedstatespostalservice-a77078", "operator": "United States Postal Service", "operator:short": "USPS", "operator:type": "public", "operator:wikidata": "Q668687", "ref": "5634700005"}, "type": "Feature"}
{"geometry": {"coordinates": [-94.865673511, 45.964069889], "type": "Point"}, "id": "ipgKvJBx8rfoDDoxYn-XZpU9KtI=", "properties": {"@source_uri": "https://tools.usps.com/UspsToolsRestServices/rest/POLocator/findLocations", "@spider": "usps_collection_boxes", "addr:city": "LONG PRAIRIE", "addr:country": "US", "addr:postcode": "56347", "addr:state": "MN", "addr:street_address": "645 LAKE ST S", "amenity": "post_box", "collection_times": "Mo-Sa 09:00", "nsi_id": "unitedstatespostalservice-a77078", "operator": "United States Postal Service", "operator:short": "USPS", "operator:type": "public", "operator:wikidata": "Q668687", "ref": "5634700008"}, "type": "Feature"}
{"geometry": {"coordinates": [-94.859334, 45.974181497], "type": "Point"}, "id": "fGVIVipQn7gGv6zWUOdzi-KTQw8=", "properties": {"@source_uri": "https://tools.usps.com/UspsToolsRestServices/rest/POLocator/findLocations", "@spider": "usps_collection_boxes", "addr:city": "LONG PRAIRIE", "addr:country": "US", "addr:postcode": "56347", "addr:state": "MN", "addr:street_address": "350 CENTRAL AVE", "amenity": "post_box", "collection_times": "Mo-Fr 14:45; Sa 10:00", "indoor": "yes", "note": "ON 12/24 AND 12/31, THIS BOX MAY BE COLLECTED AS EARLY AS 12 NOON.", "nsi_id": "unitedstatespostalservice-a77078", "operator": "United States Postal Service", "operator:short": "USPS", "operator:type": "public", "operator:wikidata": "Q668687", "ref": "5634700009"}, "type": "Feature"}
{"geometry": {"coordinates": [-94.859334, 45.974181497], "type": "Point"}, "id": "J06fuon_4mKZhpLK8MLdh5JoXy0=", "properties": {"@source_uri": "https://tools.usps.com/UspsToolsRestServices/rest/POLocator/findLocations", "@spider": "usps_collection_boxes", "addr:city": "LONG PRAIRIE", "addr:country": "US", "addr:postcode": "56347", "addr:state": "MN", "addr:street_address": "350 CENTRAL AVE", "amenity": "post_box", "collection_times": "Mo-Fr 14:45; Sa 10:15", "indoor": "yes", "note": "ON 12/24 AND 12/31, THIS BOX MAY BE COLLECTED AS EARLY AS 12 NOON.", "nsi_id": "unitedstatespostalservice-a77078", "operator": "United States Postal Service", "operator:short": "USPS", "operator:type": "public", "operator:wikidata": "Q668687", "ref": "5634700011"}, "type": "Feature"}
{"geometry": {"coordinates": [-95.518111863, 45.705392665], "type": "Point"}, "id": "HpjocblNelPIPIIOIGPtUFmJx7g=", "properties": {"@source_uri": "https://tools.usps.com/UspsToolsRestServices/rest/POLocator/findLocations", "@spider": "usps_collection_boxes", "addr:city": "FARWELL", "addr:country": "US", "addr:postcode": "56349", "addr:state": "MN", "addr:street_address": "421 FLORENCE AVE", "amenity": "post_box", "collection_times": "Mo-Fr 14:15; Sa 09:00", "note": "ON 12/24 AND 12/31, THIS BOX MAY BE COLLECTED AS EARLY AS 12 NOON.", "nsi_id": "unitedstatespostalservice-a77078", "operator": "United States Postal Service", "operator:short": "USPS", "operator:type": "public", "operator:wikidata": "Q668687", "ref": "5634900000"}, "type": "Feature"}
{"geometry": {"coordinates": [-95.518111863, 45.705392665], "type": "Point"}, "id": "EMC2pzEGImF4RHBJfZ8ASFHCbMo=", "properties": {"@source_uri": "https://tools.usps.com/UspsToolsRestServices/rest/POLocator/findLocations", "@spider": "usps_collection_boxes", "addr:city": "FARWELL", "addr:country": "US", "addr:postcode": "56349", "addr:state": "MN", "addr:street_address": "421 FLORENCE AVE", "amenity": "post_box", "collection_times": "Mo-Fr 14:00; Sa 08:00", "indoor": "yes", "note": "ON 12/24 AND 12/31, THIS BOX MAY BE COLLECTED AS EARLY AS 12 NOON.", "nsi_id": "unitedstatespostalservice-a77078", "operator": "United States Postal Service", "operator:short": "USPS", "operator:type": "public", "operator:wikidata": "Q668687", "ref": "5634900001"}, "type": "Feature"}
{"geometry": {"coordinates": [-95.617385777, 45.751923058], "type": "Point"}, "id": "OMiuO8VWxI0w5d6Yu5wlxHVsK5g=", "properties": {"@source_uri": "https://tools.usps.com/UspsToolsRestServices/rest/POLocator/findLocations", "@spider": "usps_collection_boxes", "addr:city": "FARWELL", "addr:country": "US", "addr:postcode": "56349", "addr:state": "MN", "addr:street_address": "30 STANLEY AVE N", "amenity": "post_box", "collection_times": "Mo-Fr 14:15; Sa 13:00", "note": "ON 12/24 AND 12/31, THIS BOX MAY BE COLLECTED AS EARLY AS 12 NOON.", "nsi_id": "unitedstatespostalservice-a77078", "operator": "United States Postal Service", "operator:short": "USPS", "operator:type": "public", "operator:wikidata": "Q668687", "ref": "5634900002"}, "type": "Feature"}
{"geometry": {"coordinates": [-95.518111863, 45.705392665], "type": "Point"}, "id": "_qkDoGbk1iOfJhvak0PG8l8zPzo=", "properties": {"@source_uri": "https://tools.usps.com/UspsToolsRestServices/rest/POLocator/findLocations", "@spider": "usps_collection_boxes", "addr:city": "FARWELL", "addr:country": "US", "addr:postcode": "56349", "addr:state": "MN", "addr:street_address": "421 FLORENCE AVE", "amenity": "post_box", "collection_times": "Mo-Fr 14:00; Sa 10:00", "indoor": "yes", "note": "ON 12/24 AND 12/31, THIS BOX MAY BE COLLECTED AS EARLY AS 12 NOON.", "nsi_id": "unitedstatespostalservice-a77078", "operator": "United States Postal Service", "operator:short": "USPS", "operator:type": "public", "operator:wikidata": "Q668687", "ref": "5634900004"}, "type": "Feature"}
{"geometry": {"coordinates": [-93.275326608, 46.242826392], "type": "Point"}, "id": "41Vb_tPORZSktTpW-WrUdxeZaxQ=", "properties": {"@source_uri": "https://tools.usps.com/UspsToolsRestServices/rest/POLocator/findLocations", "@spider": "usps_collection_boxes", "addr:city": "MCGRATH", "addr:country": "US", "addr:postcode": "56350", "addr:state": "MN", "addr:street_address": "300 MAIN ST W", "amenity": "post_box", "collection_times": "Mo-Fr 14:00; Sa 09:15", "note": "ON 12/24 AND 12/31, THIS BOX MAY BE COLLECTED AS EARLY AS 12 NOON.", "nsi_id": "unitedstatespostalservice-a77078", "operator": "United States Postal Service", "operator:short": "USPS", "operator:type": "public", "operator:wikidata": "Q668687", "ref": "5635000000"}, "type": "Feature"}
{"geometry": {"coordinates": [-93.275326608, 46.242826392], "type": "Point"}, "id": "WPg77n5Wn9oG32Qk4v569Rp5OrA=", "properties": {"@source_uri": "https://tools.usps.com/UspsToolsRestServices/rest/POLocator/findLocations", "@spider": "usps_collection_boxes", "addr:city": "MCGRATH", "addr:country": "US", "addr:postcode": "56350", "addr:state": "MN", "addr:street_address": "300 MAIN ST W", "amenity": "post_box", "collection_times": "Mo-Fr 11:45; Sa 09:15", "indoor": "yes", "nsi_id": "unitedstatespostalservice-a77078", "operator": "United States Postal Service", "operator:short": "USPS", "operator:type": "public", "operator:wikidata": "Q668687", "ref": "5635000001"}, "type": "Feature"}
{"geometry": {"coordinates": [-93.275326608, 46.242826392], "type": "Point"}, "id": "xn_pyZbXOvem3iqNTEU_Psm6JOo=", "properties": {"@source_uri": "https://tools.usps.com/UspsToolsRestServices/rest/POLocator/findLocations", "@spider": "usps_collection_boxes", "addr:city": "MCGRATH", "addr:country": "US", "addr:postcode": "56350", "addr:state": "MN", "addr:street_address": "300 MAIN ST W", "amenity": "post_box", "collection_times": "Mo-Fr 11:45; Sa 09:15", "indoor": "yes", "nsi_id": "unitedstatespostalservice-a77078", "operator": "United States Postal Service", "operator:short": "USPS", "operator:type": "public", "operator:wikidata": "Q668687", "ref": "5635000002"}, "type": "Feature"}
{"geometry": {"coordinates": [-94.809851665, 45.675516532], "type": "Point"}, "id": "X8j91EWQhu8QnDjwtrXgbzLbIjg=", "properties": {"@source_uri": "https://tools.usps.com/UspsToolsRestServices/rest/POLocator/findLocations", "@spider": "usps_collection_boxes", "addr:city": "MELROSE", "addr:country": "US", "addr:postcode": "56352", "addr:state": "MN", "addr:street_address": "304 E 1ST ST", "amenity": "post_box", "collection_times": "Mo-Fr 15:30; Sa 12:00", "note": "ON 12/24 AND 12/31, THIS BOX MAY BE COLLECTED AS EARLY AS 12 NOON.", "nsi_id": "unitedstatespostalservice-a77078", "operator": "United States Postal Service", "operator:short": "USPS", "operator:type": "public", "operator:wikidata": "Q668687", "ref": "5635200002"}, "type": "Feature"}
{"geometry": {"coordinates": [-94.809851665, 45.675516532], "type": "Point"}, "id": "XSnuUmeOd4m_8lPCAUQmXOVpAZE=", "properties": {"@source_uri": "https://tools.usps.com/UspsToolsRestServices/rest/POLocator/findLocations", "@spider": "usps_collection_boxes", "addr:city": "MELROSE", "addr:country": "US", "addr:postcode": "56352", "addr:state": "MN", "addr:street_address": "304 E 1ST ST", "amenity": "post_box", "collection_times": "Mo-Fr 15:30; Sa 09:30", "indoor": "yes", "note": "ON 12/24 AND 12/31, THIS BOX MAY BE COLLECTED AS EARLY AS 12 NOON.", "nsi_id": "unitedstatespostalservice-a77078", "operator": "United States Postal Service", "operator:short": "USPS", "operator:type": "public", "operator:wikidata": "Q668687", "ref": "5635200003"}, "type": "Feature"}
{"geometry": {"coordinates": [-94.809851665, 45.675516532], "type": "Point"}, "id": "kpiD5hZ2zuqPMEm8OGMLUBiHiXc=", "properties": {"@source_uri": "https://tools.usps.com/UspsToolsRestServices/rest/POLocator/findLocations", "@spider": "usps_collection_boxes", "addr:city": "MELROSE", "addr:country": "US", "addr:postcode": "56352", "addr:state": "MN", "addr:street_address": "304 1ST ST NE", "amenity": "post_box", "collection_times": "Mo-Fr 15:30", "indoor": "yes", "note": "ON 12/24 AND 12/31, THIS BOX MAY BE COLLECTED AS EARLY AS 12 NOON.", "nsi_id": "unitedstatespostalservice-a77078", "operator": "United States Postal Service", "operator:short": "USPS", "operator:type": "public", "operator:wikidata": "Q668687", "ref": "5635200006"}, "type": "Feature"}
{"geometry": {"coordinates": [-93.6526173078, 45.7530431807], "type": "Point"}, "id": "IfMSXOSPPZuftECM7JBkg37NfLY=", "properties": {"@source_uri": "https://tools.usps.com/UspsToolsRestServices/rest/POLocator/findLocations", "@spider": "usps_collection_boxes", "addr:city": "MILACA", "addr:country": "US", "addr:postcode": "56353", "addr:state": "MN", "addr:street_address": "230 2ND AVE SW", "amenity": "post_box", "collection_times": "Mo-Fr 15:30; Sa 10:00", "note": "ON 12/24 AND 12/31, THIS BOX MAY BE COLLECTED AS EARLY AS 12 NOON.", "nsi_id": "unitedstatespostalservice-a77078", "operator": "United States Postal Service", "operator:short": "USPS", "operator:type": "public", "operator:wikidata": "Q668687", "ref": "5635300001"}, "type": "Feature"}
{"geometry": {"coordinates": [-93.652617308, 45.753034097], "type": "Point"}, "id": "ql1aWQ6Ty8txCoQ_WUnewZKYJ3E=", "properties": {"@source_uri": "https://tools.usps.com/UspsToolsRestServices/rest/POLocator/findLocations", "@spider": "usps_collection_boxes", "addr:city": "MILACA", "addr:country": "US", "addr:postcode": "56353", "addr:state": "MN", "addr:street_address": "230 2ND AVE SW", "amenity": "post_box", "collection_times": "Mo-Fr 15:30; Sa 10:00", "indoor": "yes", "note": "ON 12/24 AND 12/31, THIS BOX MAY BE COLLECTED AS EARLY AS 12 NOON.", "nsi_id": "unitedstatespostalservice-a77078", "operator": "United States Postal Service", "operator:short": "USPS", "operator:type": "public", "operator:wikidata": "Q668687", "ref": "5635300011"}, "type": "Feature"}
{"geometry": {"coordinates": [-93.652617308, 45.753034097], "type": "Point"}, "id": "sxj-CzWS9jjJ60FZUvklBTX8lb8=", "properties": {"@source_uri": "https://tools.usps.com/UspsToolsRestServices/rest/POLocator/findLocations", "@spider": "usps_collection_boxes", "addr:city": "MILACA", "addr:country": "US", "addr:postcode": "56353", "addr:state": "MN", "addr:street_address": "230 2ND AVE SW", "amenity": "post_box", "collection_times": "Mo-Fr 15:15; Sa 10:00", "indoor": "yes", "note": "ON 12/24 AND 12/31, THIS BOX MAY BE COLLECTED AS EARLY AS 12 NOON.", "nsi_id": "unitedstatespostalservice-a77078", "operator": "United States Postal Service", "operator:short": "USPS", "operator:type": "public", "operator:wikidata": "Q668687", "ref": "5635300016"}, "type": "Feature"}
{"geometry": {"coordinates": [-95.291612137, 46.044771842], "type": "Point"}, "id": "FAV_J5q7UX-Gpm8owmYyKE2CK-Q=", "properties": {"@source_uri": "https://tools.usps.com/UspsToolsRestServices/rest/POLocator/findLocations", "@spider": "usps_collection_boxes", "addr:city": "MILTONA", "addr:country": "US", "addr:postcode": "56354", "addr:state": "MN", "addr:street_address": "127 MAIN ST", "amenity": "post_box", "collection_times": "Mo-Fr 14:15; Sa 09:30", "note": "ON 12/24 AND 12/31, THIS BOX MAY BE COLLECTED AS EARLY AS 12 NOON.", "nsi_id": "unitedstatespostalservice-a77078", "operator": "United States Postal Service", "operator:short": "USPS", "operator:type": "public", "operator:wikidata": "Q668687", "ref": "5635400000"}, "type": "Feature"}
{"geometry": {"coordinates": [-95.291612137, 46.044771842], "type": "Point"}, "id": "2Hy0Dxtu078_ojwXEBwBeYJ26kI=", "properties": {"@source_uri": "https://tools.usps.com/UspsToolsRestServices/rest/POLocator/findLocations", "@spider": "usps_collection_boxes", "addr:city": "MILTONA", "addr:country": "US", "addr:postcode": "56354", "addr:state": "MN", "addr:street_address": "127 MAIN ST", "amenity": "post_box", "collection_times": "Mo-Fr 12:00; Sa 09:30", "indoor": "yes", "nsi_id": "unitedstatespostalservice-a77078", "operator": "United States Postal Service", "operator:short": "USPS", "operator:type": "public", "operator:wikidata": "Q668687", "ref": "5635400001"}, "type": "Feature"}
{"geometry": {"coordinates": [-95.291612137, 46.044771842], "type": "Point"}, "id": "bpbRnomW-2zCW1kkCbMi69W0drw=", "properties": {"@source_uri": "https://tools.usps.com/UspsToolsRestServices/rest/POLocator/findLocations", "@spider": "usps_collection_boxes", "addr:city": "MILTONA", "addr:country": "US", "addr:postcode": "56354", "addr:state": "MN", "addr:street_address": "127 MAIN ST", "amenity": "post_box", "collection_times": "Mo-Fr 12:00; Sa 09:30", "indoor": "yes", "nsi_id": "unitedstatespostalservice-a77078", "operator": "United States Postal Service", "operator:short": "USPS", "operator:type": "public", "operator:wikidata": "Q668687", "ref": "5635400002"}, "type": "Feature"}
{"geometry": {"coordinates": [-95.26386145, 45.888912], "type": "Point"}, "id": "-GLZ9sXtwErFo0Yc-jrVERpPKsg=", "properties": {"@source_uri": "https://tools.usps.com/UspsToolsRestServices/rest/POLocator/findLocations", "@spider": "usps_collection_boxes", "addr:city": "NELSON MN", "addr:country": "US", "addr:postcode": "56355", "addr:state": "MN", "addr:street_address": "261 NELSON ST N", "amenity": "post_box", "collection_times": "Mo-Fr 15:00; Sa 08:30", "note": "ON 12/24 AND 12/31, THIS BOX MAY BE COLLECTED AS EARLY AS 12 NOON.", "nsi_id": "unitedstatespostalservice-a77078", "operator": "United States Postal Service", "operator:short": "USPS", "operator:type": "public", "operator:wikidata": "Q668687", "ref": "5635500000"}, "type": "Feature"}
{"geometry": {"coordinates": [-95.26386145, 45.888912], "type": "Point"}, "id": "7-dGoeJxSpD_v_2DY3w2smi_SMc=", "properties": {"@source_uri": "https://tools.usps.com/UspsToolsRestServices/rest/POLocator/findLocations", "@spider": "usps_collection_boxes", "addr:city": "NELSON MN", "addr:country": "US", "addr:postcode": "56355", "addr:state": "MN", "addr:street_address": "261 NELSON ST N", "amenity": "post_box", "collection_times": "Mo-Fr 11:30; Sa 08:30", "indoor": "yes", "nsi_id": "unitedstatespostalservice-a77078", "operator": "United States Postal Service", "operator:short": "USPS", "operator:type": "public", "operator:wikidata": "Q668687", "ref": "5635500001"}, "type": "Feature"}
{"geometry": {"coordinates": [-95.26386145, 45.888912], "type": "Point"}, "id": "HYXV-2Bl-p5QNNtfkgPyjFp0g9g=", "properties": {"@source_uri": "https://tools.usps.com/UspsToolsRestServices/rest/POLocator/findLocations", "@spider": "usps_collection_boxes", "addr:city": "NELSON MN", "addr:country": "US", "addr:postcode": "56355", "addr:state": "MN", "addr:street_address": "261 N NELSON ST", "amenity": "post_box", "collection_times": "Mo-Fr 11:30; Sa 09:00", "indoor": "yes", "nsi_id": "unitedstatespostalservice-a77078", "operator": "United States Postal Service", "operator:short": "USPS", "operator:type": "public", "operator:wikidata": "Q668687", "ref": "5635500002"}, "type": "Feature"}
{"geometry": {"coordinates": [-94.753876449, 45.629486661], "type": "Point"}, "id": "sdcnVFtmkqg2rRG6mOTQpccFkOg=", "properties": {"@source_uri": "https://tools.usps.com/UspsToolsRestServices/rest/POLocator/findLocations", "@spider": "usps_collection_boxes", "addr:city": "NEW MUNICH", "addr:country": "US", "addr:postcode": "56356", "addr:state": "MN", "addr:street_address": "450 MAIN ST", "amenity": "post_box", "collection_times": "Mo-Fr 14:45; Sa 09:30", "note": "ON 12/24 AND 12/31, THIS BOX MAY BE COLLECTED AS EARLY AS 12 NOON.", "nsi_id": "unitedstatespostalservice-a77078", "operator": "United States Postal Service", "operator:short": "USPS", "operator:type": "public", "operator:wikidata": "Q668687", "ref": "5635600000"}, "type": "Feature"}
{"geometry": {"coordinates": [-94.7538566407, 45.629689032], "type": "Point"}, "id": "n6J4Ztvq6JC9onvoHxMc6cnvPpU=", "properties": {"@source_uri": "https://tools.usps.com/UspsToolsRestServices/rest/POLocator/findLocations", "@spider": "usps_collection_boxes", "addr:city": "NEW MUNICH", "addr:country": "US", "addr:postcode": "56356", "addr:state": "MN", "addr:street_address": "450 MAIN ST", "amenity": "post_box", "collection_times": "Mo-Fr 14:45; Sa 09:30", "indoor": "yes", "note": "ON 12/24 AND 12/31, THIS BOX MAY BE COLLECTED AS EARLY AS 12 NOON.", "nsi_id": "unitedstatespostalservice-a77078", "operator": "United States Postal Service", "operator:short": "USPS", "operator:type": "public", "operator:wikidata": "Q668687", "ref": "5635600001"}, "type": "Feature"}
{"geometry": {"coordinates": [-94.7538566407, 45.629689032], "type": "Point"}, "id": "tGTqtJA5z1x6F1pd0ByyPJM2t-I=", "properties": {"@source_uri": "https://tools.usps.com/UspsToolsRestServices/rest/POLocator/findLocations", "@spider": "usps_collection_boxes", "addr:city": "NEW MUNICH", "addr:country": "US", "addr:postcode": "56356", "addr:state": "MN", "addr:street_address": "450 MAIN ST", "amenity": "post_box", "collection_times": "Mo-Fr 14:45; Sa 10:00", "indoor": "yes", "note": "ON 12/24 AND 12/31, THIS BOX MAY BE COLLECTED AS EARLY AS 12 NOON.", "nsi_id": "unitedstatespostalservice-a77078", "operator": "United States Postal Service", "operator:short": "USPS", "operator:type": "public", "operator:wikidata": "Q668687", "ref": "5635600002"}, "type": "Feature"}
{"geometry": {"coordinates": [-93.425811064, 45.829998754], "type": "Point"}, "id": "g1fUYIpFPm9ZD0DSTb2VFBf5DWg=", "properties": {"@source_uri": "https://tools.usps.com/UspsToolsRestServices/rest/POLocator/findLocations", "@spider": "usps_collection_boxes", "addr:city": "OGILVIE", "addr:country": "US", "addr:postcode": "56358", "addr:state": "MN", "addr:street_address": "200 N HILL AVE", "amenity": "post_box", "collection_times": "Mo-Fr 14:45; Sa 09:45", "note": "ON 12/24 AND 12/31, THIS BOX MAY BE COLLECTED AS EARLY AS 12 NOON.", "nsi_id": "unitedstatespostalservice-a77078", "operator": "United States Postal Service", "operator:short": "USPS", "operator:type": "public", "operator:wikidata": "Q668687", "ref": "5635800000"}, "type": "Feature"}
{"geometry": {"coordinates": [-93.425811064, 45.829998754], "type": "Point"}, "id": "jijFDwQkHuyzK2ifXYM-EdqbePc=", "properties": {"@source_uri": "https://tools.usps.com/UspsToolsRestServices/rest/POLocator/findLocations", "@spider": "usps_collection_boxes", "addr:city": "OGILVIE", "addr:country": "US", "addr:postcode": "56358", "addr:state": "MN", "addr:street_address": "200 N HILL AVE", "amenity": "post_box", "collection_times": "Mo-Fr 13:00; Sa 09:45", "indoor": "yes", "note": "ON 12/24 AND 12/31, THIS BOX MAY BE COLLECTED AS EARLY AS 12 NOON.", "nsi_id": "unitedstatespostalservice-a77078", "operator": "United States Postal Service", "operator:short": "USPS", "operator:type": "public", "operator:wikidata": "Q668687", "ref": "5635800001"}, "type": "Feature"}
{"geometry": {"coordinates": [-93.425811064, 45.829998754], "type": "Point"}, "id": "gyw2XJQb3Dztkv53pTLOvqdcXhM=", "properties": {"@source_uri": "https://tools.usps.com/UspsToolsRestServices/rest/POLocator/findLocations", "@spider": "usps_collection_boxes", "addr:city": "OGILVIE", "addr:country": "US", "addr:postcode": "56358", "addr:state": "MN", "addr:street_address": "200 N HILL AVE", "amenity": "post_box", "collection_times": "Mo-Fr 13:00; Sa 09:45", "indoor": "yes", "note": "ON 12/24 AND 12/31, THIS BOX MAY BE COLLECTED AS EARLY AS 12 NOON.", "nsi_id": "unitedstatespostalservice-a77078", "operator": "United States Postal Service", "operator:short": "USPS", "operator:type": "public", "operator:wikidata": "Q668687", "ref": "5635800003"}, "type": "Feature"}
{"geometry": {"coordinates": [-93.667909972, 46.070675453], "type": "Point"}, "id": "N0wEAmlo15Xs9pBh-bSYHhSnhvw=", "properties": {"@source_uri": "https://tools.usps.com/UspsToolsRestServices/rest/POLocator/findLocations", "@spider": "usps_collection_boxes", "addr:city": "ONAMIA", "addr:country": "US", "addr:postcode": "56359", "addr:state": "MN", "addr:street_address": "600 MAIN ST", "amenity": "post_box", "collection_times": "Mo-Fr 14:45; Sa 10:30", "note": "ON 12/24 AND 12/31, THIS BOX MAY BE COLLECTED AS EARLY AS 12 NOON.", "nsi_id": "unitedstatespostalservice-a77078", "operator": "United States Postal Service", "operator:short": "USPS", "operator:type": "public", "operator:wikidata": "Q668687", "ref": "5635900002"}, "type": "Feature"}
{"geometry": {"coordinates": [-93.667909972, 46.070675453], "type": "Point"}, "id": "Sukvdpk7a6gk6rocR0Y_B6yoQ7c=", "properties": {"@source_uri": "https://tools.usps.com/UspsToolsRestServices/rest/POLocator/findLocations", "@spider": "usps_collection_boxes", "addr:city": "ONAMIA", "addr:country": "US", "addr:postcode": "56359", "addr:state": "MN", "addr:street_address": "600 MAIN ST", "amenity": "post_box", "collection_times": "Mo-Fr 14:45; Sa 10:30", "indoor": "yes", "note": "ON 12/24 AND 12/31, THIS BOX MAY BE COLLECTED AS EARLY AS 12 NOON.", "nsi_id": "unitedstatespostalservice-a77078", "operator": "United States Postal Service", "operator:short": "USPS", "operator:type": "public", "operator:wikidata": "Q668687", "ref": "5635900004"}, "type": "Feature"}
{"geometry": {"coordinates": [-93.66233243, 46.05424091], "type": "Point"}, "id": "HOgfIAnrEdB99w6eTE0uvR4KPbc=", "properties": {"@source_uri": "https://tools.usps.com/UspsToolsRestServices/rest/POLocator/findLocations", "@spider": "usps_collection_boxes", "addr:city": "ONAMIA", "addr:country": "US", "addr:postcode": "56359", "addr:state": "MN", "addr:street_address": "34952 US HIGHWAY 169", "amenity": "post_box", "collection_times": "Mo-Sa 10:00", "nsi_id": "unitedstatespostalservice-a77078", "operator": "United States Postal Service", "operator:short": "USPS", "operator:type": "public", "operator:wikidata": "Q668687", "ref": "5635900005"}, "type": "Feature"}
{"geometry": {"coordinates": [-93.644951245, 46.107609943], "type": "Point"}, "id": "OYVx5BciO77nQAqd5d2lRxWSmjY=", "properties": {"@source_uri": "https://tools.usps.com/UspsToolsRestServices/rest/POLocator/findLocations", "@spider": "usps_collection_boxes", "addr:city": "ONAMIA", "addr:country": "US", "addr:postcode": "56359", "addr:state": "MN", "addr:street_address": "38668 US HIGHWAY 169", "amenity": "post_box", "collection_times": "Mo-Sa 10:00", "nsi_id": "unitedstatespostalservice-a77078", "operator": "United States Postal Service", "operator:short": "USPS", "operator:type": "public", "operator:wikidata": "Q668687", "ref": "5635900006"}, "type": "Feature"}
{"geometry": {"coordinates": [-93.757670633, 46.181785431], "type": "Point"}, "id": "-qq23VMl_8IBkP9qg6PuyFEaRMo=", "properties": {"@source_uri": "https://tools.usps.com/UspsToolsRestServices/rest/POLocator/findLocations", "@spider": "usps_collection_boxes", "addr:city": "ONAMIA", "addr:country": "US", "addr:postcode": "56359", "addr:state": "MN", "addr:street_address": "16600 ATAAGE DR", "amenity": "post_box", "collection_times": "Mo-Sa 10:30", "nsi_id": "unitedstatespostalservice-a77078", "operator": "United States Postal Service", "operator:short": "USPS", "operator:type": "public", "operator:wikidata": "Q668687", "ref": "5635900007"}, "type": "Feature"}
{"geometry": {"coordinates": [-93.667909972, 46.070675453], "type": "Point"}, "id": "vMvxfDxRKzeY-aitTcpJiCTEJoQ=", "properties": {"@source_uri": "https://tools.usps.com/UspsToolsRestServices/rest/POLocator/findLocations", "@spider": "usps_collection_boxes", "addr:city": "ONAMIA", "addr:country": "US", "addr:postcode": "56359", "addr:state": "MN", "addr:street_address": "600 MAIN ST", "amenity": "post_box", "collection_times": "Mo-Fr 14:45; Sa 10:30", "indoor": "yes", "note": "ON 12/24 AND 12/31, THIS BOX MAY BE COLLECTED AS EARLY AS 12 NOON.", "nsi_id": "unitedstatespostalservice-a77078", "operator": "United States Postal Service", "operator:short": "USPS", "operator:type": "public", "operator:wikidata": "Q668687", "ref": "5635900009"}, "type": "Feature"}
{"geometry": {"coordinates": [-95.153791416, 45.868142482], "type": "Point"}, "id": "3Kj5veEO6Ua0Ur5T0Gh_aRLxWUQ=", "properties": {"@source_uri": "https://tools.usps.com/UspsToolsRestServices/rest/POLocator/findLocations", "@spider": "usps_collection_boxes", "addr:city": "OSAKIS", "addr:country": "US", "addr:postcode": "56360", "addr:state": "MN", "addr:street_address": "60 W MAIN ST", "amenity": "post_box", "collection_times": "Mo-Fr 15:15; Sa 10:30", "note": "ON 12/24 AND 12/31, THIS BOX MAY BE COLLECTED AS EARLY AS 12 NOON.", "nsi_id": "unitedstatespostalservice-a77078", "operator": "United States Postal Service", "operator:short": "USPS", "operator:type": "public", "operator:wikidata": "Q668687", "ref": "5636000000"}, "type": "Feature"}
{"geometry": {"coordinates": [-95.153791416, 45.868142482], "type": "Point"}, "id": "P_2nsmWl_ZhRzOoJ4A_zAZ9LAxU=", "properties": {"@source_uri": "https://tools.usps.com/UspsToolsRestServices/rest/POLocator/findLocations", "@spider": "usps_collection_boxes", "addr:city": "OSAKIS", "addr:country": "US", "addr:postcode": "56360", "addr:state": "MN", "addr:street_address": "60 W MAIN ST", "amenity": "post_box", "collection_times": "Mo-Fr 15:15; Sa 10:30", "indoor": "yes", "note": "ON 12/24 AND 12/31, THIS BOX MAY BE COLLECTED AS EARLY AS 12 NOON.", "nsi_id": "unitedstatespostalservice-a77078", "operator": "United States Postal Service", "operator:short": "USPS", "operator:type": "public", "operator:wikidata": "Q668687", "ref": "5636000001"}, "type": "Feature"}
{"geometry": {"coordinates": [-95.153791416, 45.868142482], "type": "Point"}, "id": "9o-qeZ8HMoug9T_RU4Y-wMi8ass=", "properties": {"@source_uri": "https://tools.usps.com/UspsToolsRestServices/rest/POLocator/findLocations", "@spider": "usps_collection_boxes", "addr:city": "OSAKIS", "addr:country": "US", "addr:postcode": "56360", "addr:state": "MN", "addr:street_address": "60 W MAIN ST", "amenity": "post_box", "collection_times": "Mo-Fr 15:15; Sa 10:00", "indoor": "yes", "note": "ON 12/24 AND 12/31, THIS BOX MAY BE COLLECTED AS EARLY AS 12 NOON.", "nsi_id": "unitedstatespostalservice-a77078", "operator": "United States Postal Service", "operator:short": "USPS", "operator:type": "public", "operator:wikidata": "Q668687", "ref": "5636000003"}, "type": "Feature"}
{"geometry": {"coordinates": [-95.330093139, 46.153289496], "type": "Point"}, "id": "bddrqJ8MpeAp07A5I9Iuwl4q5Mw=", "properties": {"@source_uri": "https://tools.usps.com/UspsToolsRestServices/rest/POLocator/findLocations", "@spider": "usps_collection_boxes", "addr:city": "PARKERS PRAIRIE", "addr:country": "US", "addr:postcode": "56361", "addr:state": "MN", "addr:street_address": "119 W SOO ST", "amenity": "post_box", "collection_times": "Mo-Fr 14:00; Sa 10:30", "note": "ON 12/24 AND 12/31, THIS BOX MAY BE COLLECTED AS EARLY AS 12 NOON.", "nsi_id": "unitedstatespostalservice-a77078", "operator": "United States Postal Service", "operator:short": "USPS", "operator:type": "public", "operator:wikidata": "Q668687", "ref": "5636100000"}, "type": "Feature"}
{"geometry": {"coordinates": [-95.330093139, 46.153289496], "type": "Point"}, "id": "3oVwsk9ttiwZurpnEH3SWIlqBNE=", "properties": {"@source_uri": "https://tools.usps.com/UspsToolsRestServices/rest/POLocator/findLocations", "@spider": "usps_collection_boxes", "addr:city": "PARKERS PRAIRIE", "addr:country": "US", "addr:postcode": "56361", "addr:state": "MN", "addr:street_address": "119 W SOO ST", "amenity": "post_box", "collection_times": "Mo-Fr 14:00; Sa 10:30", "indoor": "yes", "note": "ON 12/24 AND 12/31, THIS BOX MAY BE COLLECTED AS EARLY AS 12 NOON.", "nsi_id": "unitedstatespostalservice-a77078", "operator": "United States Postal Service", "operator:short": "USPS", "operator:type": "public", "operator:wikidata": "Q668687", "ref": "5636100002"}, "type": "Feature"}
{"geometry": {"coordinates": [-95.330093139, 46.153289496], "type": "Point"}, "id": "ztLKCDv_9qszQukeeecedi492Dc=", "properties": {"@source_uri": "https://tools.usps.com/UspsToolsRestServices/rest/POLocator/findLocations", "@spider": "usps_collection_boxes", "addr:city": "PARKERS PRAIRIE", "addr:country": "US", "addr:postcode": "56361", "addr:state": "MN", "addr:street_address": "119 W SOO ST", "amenity": "post_box", "collection_times": "Mo-Fr 14:00; Sa 10:30", "indoor": "yes", "note": "ON 12/24 AND 12/31, THIS BOX MAY BE COLLECTED AS EARLY AS 12 NOON.", "nsi_id": "unitedstatespostalservice-a77078", "operator": "United States Postal Service", "operator:short": "USPS", "operator:type": "public", "operator:wikidata": "Q668687", "ref": "5636100003"}, "type": "Feature"}
{"geometry": {"coordinates": [-94.715774973, 45.382070579], "type": "Point"}, "id": "tbBaGA1Nnz_h2Zi12Lopt_f0u9U=", "properties": {"@source_uri": "https://tools.usps.com/UspsToolsRestServices/rest/POLocator/findLocations", "@spider": "usps_collection_boxes", "addr:city": "PAYNESVILLE", "addr:country": "US", "addr:postcode": "56362", "addr:state": "MN", "addr:street_address": "211 W JAMES ST", "amenity": "post_box", "collection_times": "Mo-Fr 15:30; Sa 11:00", "note": "ON 12/24 AND 12/31, THIS BOX MAY BE COLLECTED AS EARLY AS 12 NOON.", "nsi_id": "unitedstatespostalservice-a77078", "operator": "United States Postal Service", "operator:short": "USPS", "operator:type": "public", "operator:wikidata": "Q668687", "ref": "5636200000"}, "type": "Feature"}
{"geometry": {"coordinates": [-94.715774973, 45.382070579], "type": "Point"}, "id": "fIl-bc6thDoI6n6aO2OZx9N_NqY=", "properties": {"@source_uri": "https://tools.usps.com/UspsToolsRestServices/rest/POLocator/findLocations", "@spider": "usps_collection_boxes", "addr:city": "PAYNESVILLE", "addr:country": "US", "addr:postcode": "56362", "addr:state": "MN", "addr:street_address": "211 W JAMES ST", "amenity": "post_box", "collection_times": "Mo-Fr 15:30; Sa 11:00", "indoor": "yes", "note": "ON 12/24 AND 12/31, THIS BOX MAY BE COLLECTED AS EARLY AS 12 NOON.", "nsi_id": "unitedstatespostalservice-a77078", "operator": "United States Postal Service", "operator:short": "USPS", "operator:type": "public", "operator:wikidata": "Q668687", "ref": "5636200003"}, "type": "Feature"}
{"geometry": {"coordinates": [-94.729213081, 45.370995359], "type": "Point"}, "id": "MXHXuhJ_u2I-Tp5iyotwGbqi1HM=", "properties": {"@source_uri": "https://tools.usps.com/UspsToolsRestServices/rest/POLocator/findLocations", "@spider": "usps_collection_boxes", "addr:city": "PAYNESVILLE", "addr:country": "US", "addr:postcode": "56362", "addr:state": "MN", "addr:street_address": "970 W HWY 23", "amenity": "post_box", "collection_times": "Mo-Sa 10:00", "nsi_id": "unitedstatespostalservice-a77078", "operator": "United States Postal Service", "operator:short": "USPS", "operator:type": "public", "operator:wikidata": "Q668687", "ref": "5636200004"}, "type": "Feature"}
{"geometry": {"coordinates": [-94.715774973, 45.382070579], "type": "Point"}, "id": "v6QuHu0NxtO060OCTHcJlOccu-4=", "properties": {"@source_uri": "https://tools.usps.com/UspsToolsRestServices/rest/POLocator/findLocations", "@spider": "usps_collection_boxes", "addr:city": "PAYNESVILLE", "addr:country": "US", "addr:postcode": "56362", "addr:state": "MN", "addr:street_address": "211 W JAMES ST", "amenity": "post_box", "collection_times": "Mo-Fr 15:30; Sa 10:30", "indoor": "yes", "note": "ON 12/24 AND 12/31, THIS BOX MAY BE COLLECTED AS EARLY AS 12 NOON.", "nsi_id": "unitedstatespostalservice-a77078", "operator": "United States Postal Service", "operator:short": "USPS", "operator:type": "public", "operator:wikidata": "Q668687", "ref": "5636200007"}, "type": "Feature"}
{"geometry": {"coordinates": [-94.103789479, 45.978122053], "type": "Point"}, "id": "IsvoGefh71ZKna57s7rUHnW_lFY=", "properties": {"@source_uri": "https://tools.usps.com/UspsToolsRestServices/rest/POLocator/findLocations", "@spider": "usps_collection_boxes", "addr:city": "PIERZ", "addr:country": "US", "addr:postcode": "56364", "addr:state": "MN", "addr:street_address": "118 MAIN ST S", "amenity": "post_box", "collection_times": "Mo-Fr 15:00; Sa 09:30", "note": "ON 12/24 AND 12/31, THIS BOX MAY BE COLLECTED AS EARLY AS 12 NOON.", "nsi_id": "unitedstatespostalservice-a77078", "operator": "United States Postal Service", "operator:short": "USPS", "operator:type": "public", "operator:wikidata": "Q668687", "ref": "5636400000"}, "type": "Feature"}
{"geometry": {"coordinates": [-94.105113797, 45.982306798], "type": "Point"}, "id": "3C58zp7lsjQwaGP03SUkhVUdttY=", "properties": {"@source_uri": "https://tools.usps.com/UspsToolsRestServices/rest/POLocator/findLocations", "@spider": "usps_collection_boxes", "addr:city": "PIERZ", "addr:country": "US", "addr:postcode": "56364", "addr:state": "MN", "addr:street_address": "237 MAIN ST N", "amenity": "post_box", "collection_times": "Mo-Fr 11:30; Sa 09:30", "nsi_id": "unitedstatespostalservice-a77078", "operator": "United States Postal Service", "operator:short": "USPS", "operator:type": "public", "operator:wikidata": "Q668687", "ref": "5636400001"}, "type": "Feature"}
{"geometry": {"coordinates": [-94.062233542, 46.040534162], "type": "Point"}, "id": "DeFB9lFBzQMuoaOUPjTNfPHStWs=", "properties": {"@source_uri": "https://tools.usps.com/UspsToolsRestServices/rest/POLocator/findLocations", "@spider": "usps_collection_boxes", "addr:city": "PIERZ", "addr:country": "US", "addr:postcode": "56364", "addr:state": "MN", "addr:street_address": "19291 285TH AVE - LASTRUP MN", "amenity": "post_box", "collection_times": "Mo-Fr 10:00", "nsi_id": "unitedstatespostalservice-a77078", "operator": "United States Postal Service", "operator:short": "USPS", "operator:type": "public", "operator:wikidata": "Q668687", "ref": "5636400002"}, "type": "Feature"}
{"geometry": {"coordinates": [-94.093890029, 45.898939984], "type": "Point"}, "id": "FUCKF9W_G0BsRlnaTXOrRI8_z9U=", "properties": {"@source_uri": "https://tools.usps.com/UspsToolsRestServices/rest/POLocator/findLocations", "@spider": "usps_collection_boxes", "addr:city": "PIERZ", "addr:country": "US", "addr:postcode": "56364", "addr:state": "MN", "addr:street_address": "9438 HIGHWAY 25", "amenity": "post_box", "collection_times": "Mo-Sa 14:45", "note": "ON 12/24 AND 12/31, THIS BOX MAY BE COLLECTED AS EARLY AS 12 NOON.", "nsi_id": "unitedstatespostalservice-a77078", "operator": "United States Postal Service", "operator:short": "USPS", "operator:type": "public", "operator:wikidata": "Q668687", "ref": "5636400003"}, "type": "Feature"}
{"geometry": {"coordinates": [-93.893875424, 46.077275853], "type": "Point"}, "id": "9aFuTg6YxjDIQTOKXfEYu0nK0fg=", "properties": {"@source_uri": "https://tools.usps.com/UspsToolsRestServices/rest/POLocator/findLocations", "@spider": "usps_collection_boxes", "addr:city": "PIERZ", "addr:country": "US", "addr:postcode": "56364", "addr:state": "MN", "addr:street_address": "36929 HWY 27 - HILLMAN MN", "amenity": "post_box", "collection_times": "Mo-Fr 10:00", "nsi_id": "unitedstatespostalservice-a77078", "operator": "United States Postal Service", "operator:short": "USPS", "operator:type": "public", "operator:wikidata": "Q668687", "ref": "5636400004"}, "type": "Feature"}
{"geometry": {"coordinates": [-94.103789479, 45.978122053], "type": "Point"}, "id": "Kgz2Ekh4yK4CqvgnBHJY3ySk_2A=", "properties": {"@source_uri": "https://tools.usps.com/UspsToolsRestServices/rest/POLocator/findLocations", "@spider": "usps_collection_boxes", "addr:city": "PIERZ", "addr:country": "US", "addr:postcode": "56364", "addr:state": "MN", "addr:street_address": "118 MAIN ST S", "amenity": "post_box", "collection_times": "Mo-Fr 15:00; Sa 08:15", "indoor": "yes", "note": "ON 12/24 AND 12/31, THIS BOX MAY BE COLLECTED AS EARLY AS 12 NOON.", "nsi_id": "unitedstatespostalservice-a77078", "operator": "United States Postal Service", "operator:short": "USPS", "operator:type": "public", "operator:wikidata": "Q668687", "ref": "5636400005"}, "type": "Feature"}
{"geometry": {"coordinates": [-94.103789479, 45.978122053], "type": "Point"}, "id": "VwSCeTRMbdj1D0gOaw6VIock1G0=", "properties": {"@source_uri": "https://tools.usps.com/UspsToolsRestServices/rest/POLocator/findLocations", "@spider": "usps_collection_boxes", "addr:city": "PIERZ", "addr:country": "US", "addr:postcode": "56364", "addr:state": "MN", "addr:street_address": "118 MAIN ST S", "amenity": "post_box", "collection_times": "Mo-Fr 14:45; Sa 09:30", "indoor": "yes", "note": "ON 12/24 AND 12/31, THIS BOX MAY BE COLLECTED AS EARLY AS 12 NOON.", "nsi_id": "unitedstatespostalservice-a77078", "operator": "United States Postal Service", "operator:short": "USPS", "operator:type": "public", "operator:wikidata": "Q668687", "ref": "5636400007"}, "type": "Feature"}
{"geometry": {"coordinates": [-94.217993169, 45.753086134], "type": "Point"}, "id": "zGaYWykPmwirYrQY_TsMGd7TB4Q=", "properties": {"@source_uri": "https://tools.usps.com/UspsToolsRestServices/rest/POLocator/findLocations", "@spider": "usps_collection_boxes", "addr:city": "RICE", "addr:country": "US", "addr:postcode": "56367", "addr:state": "MN", "addr:street_address": "135 MAIN ST E", "amenity": "post_box", "collection_times": "Mo-Fr 16:00; Sa 09:00", "note": "ON 12/24 AND 12/31, THIS BOX MAY BE COLLECTED AS EARLY AS 12 NOON.", "nsi_id": "unitedstatespostalservice-a77078", "operator": "United States Postal Service", "operator:short": "USPS", "operator:type": "public", "operator:wikidata": "Q668687", "ref": "5636700000"}, "type": "Feature"}
{"geometry": {"coordinates": [-94.217993169, 45.753086134], "type": "Point"}, "id": "nrZpZIl73lj9ja5nblXOy01RK9E=", "properties": {"@source_uri": "https://tools.usps.com/UspsToolsRestServices/rest/POLocator/findLocations", "@spider": "usps_collection_boxes", "addr:city": "RICE", "addr:country": "US", "addr:postcode": "56367", "addr:state": "MN", "addr:street_address": "135 MAIN ST E", "amenity": "post_box", "collection_times": "Mo-Fr 16:00; Sa 09:00", "indoor": "yes", "note": "ON 12/24 AND 12/31, THIS BOX MAY BE COLLECTED AS EARLY AS 12 NOON.", "nsi_id": "unitedstatespostalservice-a77078", "operator": "United States Postal Service", "operator:short": "USPS", "operator:type": "public", "operator:wikidata": "Q668687", "ref": "5636700001"}, "type": "Feature"}
{"geometry": {"coordinates": [-94.518552848, 45.450720335], "type": "Point"}, "id": "VB95e-h6vPwacMiKipq4Zv-WU1w=", "properties": {"@source_uri": "https://tools.usps.com/UspsToolsRestServices/rest/POLocator/findLocations", "@spider": "usps_collection_boxes", "addr:city": "RICHMOND", "addr:country": "US", "addr:postcode": "56368", "addr:state": "MN", "addr:street_address": "312 CENTRAL AVE S", "amenity": "post_box", "collection_times": "Mo-Fr 16:00; Sa 10:00", "note": "ON 12/24 AND 12/31, THIS BOX MAY BE COLLECTED AS EARLY AS 12 NOON.", "nsi_id": "unitedstatespostalservice-a77078", "operator": "United States Postal Service", "operator:short": "USPS", "operator:type": "public", "operator:wikidata": "Q668687", "ref": "5636800000"}, "type": "Feature"}
{"geometry": {"coordinates": [-94.518552848, 45.450720335], "type": "Point"}, "id": "Y7WRccvjdt4xF_Q-C8N6_rMBr30=", "properties": {"@source_uri": "https://tools.usps.com/UspsToolsRestServices/rest/POLocator/findLocations", "@spider": "usps_collection_boxes", "addr:city": "RICHMOND", "addr:country": "US", "addr:postcode": "56368", "addr:state": "MN", "addr:street_address": "312 CENTRAL AVE S", "amenity": "post_box", "collection_times": "Mo-Fr 16:00; Sa 10:00", "indoor": "yes", "note": "ON 12/24 AND 12/31, THIS BOX MAY BE COLLECTED AS EARLY AS 12 NOON.", "nsi_id": "unitedstatespostalservice-a77078", "operator": "United States Postal Service", "operator:short": "USPS", "operator:type": "public", "operator:wikidata": "Q668687", "ref": "5636800001"}, "type": "Feature"}
{"geometry": {"coordinates": [-94.518552848, 45.450720335], "type": "Point"}, "id": "3d5fPnhtu1c1PrhAtae4SX8VE3E=", "properties": {"@source_uri": "https://tools.usps.com/UspsToolsRestServices/rest/POLocator/findLocations", "@spider": "usps_collection_boxes", "addr:city": "RICHMOND", "addr:country": "US", "addr:postcode": "56368", "addr:state": "MN", "addr:street_address": "312 CENTRAL AVE S", "amenity": "post_box", "collection_times": "Mo-Fr 16:00; Sa 10:00", "indoor": "yes", "note": "ON 12/24 AND 12/31, THIS BOX MAY BE COLLECTED AS EARLY AS 12 NOON.", "nsi_id": "unitedstatespostalservice-a77078", "operator": "United States Postal Service", "operator:short": "USPS", "operator:type": "public", "operator:wikidata": "Q668687", "ref": "5636800003"}, "type": "Feature"}
{"geometry": {"coordinates": [-94.343354582, 45.471009516], "type": "Point"}, "id": "KLR6ieSrJ2-uILJFo_6U8ryhDbA=", "properties": {"@source_uri": "https://tools.usps.com/UspsToolsRestServices/rest/POLocator/findLocations", "@spider": "usps_collection_boxes", "addr:city": "ROCKVILLE", "addr:country": "US", "addr:postcode": "56369", "addr:state": "MN", "addr:street_address": "315 W BROADWAY ST", "amenity": "post_box", "collection_times": "Mo-Fr 16:00; Sa 09:30", "note": "ON 12/24 AND 12/31, THIS BOX MAY BE COLLECTED AS EARLY AS 12 NOON.", "nsi_id": "unitedstatespostalservice-a77078", "operator": "United States Postal Service", "operator:short": "USPS", "operator:type": "public", "operator:wikidata": "Q668687", "ref": "5636900000"}, "type": "Feature"}
{"geometry": {"coordinates": [-94.343354582, 45.471009516], "type": "Point"}, "id": "iztCi69WFiQxQtUTXr65g_NBh3s=", "properties": {"@source_uri": "https://tools.usps.com/UspsToolsRestServices/rest/POLocator/findLocations", "@spider": "usps_collection_boxes", "addr:city": "ROCKVILLE", "addr:country": "US", "addr:postcode": "56369", "addr:state": "MN", "addr:street_address": "315 W BROADWAY ST", "amenity": "post_box", "collection_times": "Mo-Fr 14:30; Sa 09:30", "indoor": "yes", "note": "ON 12/24 AND 12/31, THIS BOX MAY BE COLLECTED AS EARLY AS 12 NOON.", "nsi_id": "unitedstatespostalservice-a77078", "operator": "United States Postal Service", "operator:short": "USPS", "operator:type": "public", "operator:wikidata": "Q668687", "ref": "5636900001"}, "type": "Feature"}
{"geometry": {"coordinates": [-94.343354582, 45.471009516], "type": "Point"}, "id": "D2mQXFTrFG45niS6tkN7zNX6QxM=", "properties": {"@source_uri": "https://tools.usps.com/UspsToolsRestServices/rest/POLocator/findLocations", "@spider": "usps_collection_boxes", "addr:city": "ROCKVILLE", "addr:country": "US", "addr:postcode": "56369", "addr:state": "MN", "addr:street_address": "315 W BROADWAY ST", "amenity": "post_box", "collection_times": "Mo-Fr 14:30; Sa 10:00", "indoor": "yes", "note": "ON 12/24 AND 12/31, THIS BOX MAY BE COLLECTED AS EARLY AS 12 NOON.", "nsi_id": "unitedstatespostalservice-a77078", "operator": "United States Postal Service", "operator:short": "USPS", "operator:type": "public", "operator:wikidata": "Q668687", "ref": "5636900002"}, "type": "Feature"}
{"geometry": {"coordinates": [-94.2927435, 45.830015453], "type": "Point"}, "id": "zix3MgxDwYvjCLHpuaNNJ1wQQ4I=", "properties": {"@source_uri": "https://tools.usps.com/UspsToolsRestServices/rest/POLocator/findLocations", "@spider": "usps_collection_boxes", "addr:city": "ROYALTON", "addr:country": "US", "addr:postcode": "56373", "addr:state": "MN", "addr:street_address": "208 E CENTRE ST", "amenity": "post_box", "collection_times": "Mo-Fr 15:45; Sa 10:00", "note": "ON 12/24 AND 12/31, THIS BOX MAY BE COLLECTED AS EARLY AS 12 NOON.", "nsi_id": "unitedstatespostalservice-a77078", "operator": "United States Postal Service", "operator:short": "USPS", "operator:type": "public", "operator:wikidata": "Q668687", "ref": "5637300000"}, "type": "Feature"}
{"geometry": {"coordinates": [-94.2927435, 45.830015453], "type": "Point"}, "id": "ug2wY4s0QFi4YkDLPO1-kJyCiu4=", "properties": {"@source_uri": "https://tools.usps.com/UspsToolsRestServices/rest/POLocator/findLocations", "@spider": "usps_collection_boxes", "addr:city": "ROYALTON", "addr:country": "US", "addr:postcode": "56373", "addr:state": "MN", "addr:street_address": "208 E CENTRE ST", "amenity": "post_box", "collection_times": "Mo-Fr 15:45; Sa 10:00", "indoor": "yes", "note": "ON 12/24 AND 12/31, THIS BOX MAY BE COLLECTED AS EARLY AS 12 NOON.", "nsi_id": "unitedstatespostalservice-a77078", "operator": "United States Postal Service", "operator:short": "USPS", "operator:type": "public", "operator:wikidata": "Q668687", "ref": "5637300002"}, "type": "Feature"}
{"geometry": {"coordinates": [-94.2927435, 45.830015453], "type": "Point"}, "id": "phFLQRke8-SPKP2hJGf7FFfdjMg=", "properties": {"@source_uri": "https://tools.usps.com/UspsToolsRestServices/rest/POLocator/findLocations", "@spider": "usps_collection_boxes", "addr:city": "ROYALTON", "addr:country": "US", "addr:postcode": "56373", "addr:state": "MN", "addr:street_address": "208 E CENTRE ST", "amenity": "post_box", "collection_times": "Mo-Fr 15:45; Sa 10:00", "indoor": "yes", "note": "ON 12/24 AND 12/31, THIS BOX MAY BE COLLECTED AS EARLY AS 12 NOON.", "nsi_id": "unitedstatespostalservice-a77078", "operator": "United States Postal Service", "operator:short": "USPS", "operator:type": "public", "operator:wikidata": "Q668687", "ref": "5637300003"}, "type": "Feature"}
{"geometry": {"coordinates": [-94.321385496, 45.56542418], "type": "Point"}, "id": "3xx7TJF7OUIh9upmEgvikcbGPmg=", "properties": {"@source_uri": "https://tools.usps.com/UspsToolsRestServices/rest/POLocator/findLocations", "@spider": "usps_collection_boxes", "addr:city": "SAINT STEPHEN", "addr:country": "US", "addr:postcode": "56374", "addr:state": "MN", "addr:street_address": "117 W ASH ST", "amenity": "post_box", "collection_times": "Mo-Fr 16:30; Sa 09:30", "note": "ON 12/24 AND 12/31, THIS BOX MAY BE COLLECTED AS EARLY AS 12 NOON.", "nsi_id": "unitedstatespostalservice-a77078", "operator": "United States Postal Service", "operator:short": "USPS", "operator:type": "public", "operator:wikidata": "Q668687", "ref": "5637400000"}, "type": "Feature"}
{"geometry": {"coordinates": [-94.321385496, 45.56542418], "type": "Point"}, "id": "GXqqJ20WFQ3JsAbQrpwlw7kNrFE=", "properties": {"@source_uri": "https://tools.usps.com/UspsToolsRestServices/rest/POLocator/findLocations", "@spider": "usps_collection_boxes", "addr:city": "SAINT STEPHEN", "addr:country": "US", "addr:postcode": "56374", "addr:state": "MN", "addr:street_address": "117 W ASH ST", "amenity": "post_box", "collection_times": "Mo-Fr 16:30; Sa 09:30", "indoor": "yes", "note": "ON 12/24 AND 12/31, THIS BOX MAY BE COLLECTED AS EARLY AS 12 NOON.", "nsi_id": "unitedstatespostalservice-a77078", "operator": "United States Postal Service", "operator:short": "USPS", "operator:type": "public", "operator:wikidata": "Q668687", "ref": "5637400001"}, "type": "Feature"}
{"geometry": {"coordinates": [-94.274502728, 45.702775173], "type": "Point"}, "id": "q7tLef4BDb-uAGkcW41GDyVuqIk=", "properties": {"@source_uri": "https://tools.usps.com/UspsToolsRestServices/rest/POLocator/findLocations", "@spider": "usps_collection_boxes", "addr:city": "SAINT STEPHEN", "addr:country": "US", "addr:postcode": "56374", "addr:state": "MN", "addr:street_address": "2 CENTRAL AVE S", "amenity": "post_box", "collection_times": "Mo-Fr 10:30", "nsi_id": "unitedstatespostalservice-a77078", "operator": "United States Postal Service", "operator:short": "USPS", "operator:type": "public", "operator:wikidata": "Q668687", "ref": "5637400002"}, "type": "Feature"}
{"geometry": {"coordinates": [-94.321385496, 45.56542418], "type": "Point"}, "id": "8p1pkrxFKmrsRkzheK8cHH02etw=", "properties": {"@source_uri": "https://tools.usps.com/UspsToolsRestServices/rest/POLocator/findLocations", "@spider": "usps_collection_boxes", "addr:city": "SAINT STEPHEN", "addr:country": "US", "addr:postcode": "56374", "addr:state": "MN", "addr:street_address": "117 W ASH ST", "amenity": "post_box", "collection_times": "Mo-Fr 16:30; Sa 09:45", "indoor": "yes", "note": "ON 12/24 AND 12/31, THIS BOX MAY BE COLLECTED AS EARLY AS 12 NOON.", "nsi_id": "unitedstatespostalservice-a77078", "operator": "United States Postal Service", "operator:short": "USPS", "operator:type": "public", "operator:wikidata": "Q668687", "ref": "5637400004"}, "type": "Feature"}
{"geometry": {"coordinates": [-94.668737334, 45.501684736], "type": "Point"}, "id": "BffZTauEu1Ud1xOfFIoxN0hDXjY=", "properties": {"@source_uri": "https://tools.usps.com/UspsToolsRestServices/rest/POLocator/findLocations", "@spider": "usps_collection_boxes", "addr:city": "SAINT MARTIN", "addr:country": "US", "addr:postcode": "56376", "addr:state": "MN", "addr:street_address": "135 MAINE ST", "amenity": "post_box", "collection_times": "Mo-Fr 16:00; Sa 09:30", "note": "ON 12/24 AND 12/31, THIS BOX MAY BE COLLECTED AS EARLY AS 12 NOON.", "nsi_id": "unitedstatespostalservice-a77078", "operator": "United States Postal Service", "operator:short": "USPS", "operator:type": "public", "operator:wikidata": "Q668687", "ref": "5637600000"}, "type": "Feature"}
{"geometry": {"coordinates": [-94.668737334, 45.501684736], "type": "Point"}, "id": "8_vQtnxCZA70_N37PkLYcdbgG2I=", "properties": {"@source_uri": "https://tools.usps.com/UspsToolsRestServices/rest/POLocator/findLocations", "@spider": "usps_collection_boxes", "addr:city": "SAINT MARTIN", "addr:country": "US", "addr:postcode": "56376", "addr:state": "MN", "addr:street_address": "135 MAINE ST", "amenity": "post_box", "collection_times": "Mo-Fr 12:00; Sa 09:30", "indoor": "yes", "nsi_id": "unitedstatespostalservice-a77078", "operator": "United States Postal Service", "operator:short": "USPS", "operator:type": "public", "operator:wikidata": "Q668687", "ref": "5637600001"}, "type": "Feature"}
{"geometry": {"coordinates": [-94.668737334, 45.501684736], "type": "Point"}, "id": "7kJXCMxYlEt-SIY5jdSTBj2_SrY=", "properties": {"@source_uri": "https://tools.usps.com/UspsToolsRestServices/rest/POLocator/findLocations", "@spider": "usps_collection_boxes", "addr:city": "SAINT MARTIN", "addr:country": "US", "addr:postcode": "56376", "addr:state": "MN", "addr:street_address": "135 MAINE ST", "amenity": "post_box", "collection_times": "Mo-Fr 12:00; Sa 10:00", "indoor": "yes", "nsi_id": "unitedstatespostalservice-a77078", "operator": "United States Postal Service", "operator:short": "USPS", "operator:type": "public", "operator:wikidata": "Q668687", "ref": "5637600002"}, "type": "Feature"}
{"geometry": {"coordinates": [-94.2078679866, 45.6311150015], "type": "Point"}, "id": "pX_mKTUEopYomEnU2b2tft4Uj5w=", "properties": {"@source_uri": "https://tools.usps.com/UspsToolsRestServices/rest/POLocator/findLocations", "@spider": "usps_collection_boxes", "addr:city": "SARTELL", "addr:country": "US", "addr:postcode": "56377", "addr:state": "MN", "addr:street_address": "707 1ST AVE N", "amenity": "post_box", "collection_times": "Mo-Sa 11:30", "nsi_id": "unitedstatespostalservice-a77078", "operator": "United States Postal Service", "operator:short": "USPS", "operator:type": "public", "operator:wikidata": "Q668687", "ref": "5637700003"}, "type": "Feature"}
{"geometry": {"coordinates": [-94.2067889842, 45.6155099932], "type": "Point"}, "id": "IwQBMHaK2MC3NtmeK6AA3KQgoQ0=", "properties": {"@source_uri": "https://tools.usps.com/UspsToolsRestServices/rest/POLocator/findLocations", "@spider": "usps_collection_boxes", "addr:city": "SARTELL", "addr:country": "US", "addr:postcode": "56377", "addr:state": "MN", "addr:street_address": "113 2ND ST S", "amenity": "post_box", "collection_times": "Mo-Fr 16:15; Sa 10:00", "note": "ON 12/24 AND 12/31, THIS BOX MAY BE COLLECTED AS EARLY AS 12 NOON.", "nsi_id": "unitedstatespostalservice-a77078", "operator": "United States Postal Service", "operator:short": "USPS", "operator:type": "public", "operator:wikidata": "Q668687", "ref": "5637700005"}, "type": "Feature"}
{"geometry": {"coordinates": [-94.2067889842, 45.6155099932], "type": "Point"}, "id": "7O5lWnjS7dSi9F7oTC3b2l7nkRM=", "properties": {"@source_uri": "https://tools.usps.com/UspsToolsRestServices/rest/POLocator/findLocations", "@spider": "usps_collection_boxes", "addr:city": "SARTELL", "addr:country": "US", "addr:postcode": "56377", "addr:state": "MN", "addr:street_address": "113 2ND ST S", "amenity": "post_box", "collection_times": "Mo-Fr 16:15; Sa 10:00", "indoor": "yes", "note": "ON 12/24 AND 12/31, THIS BOX MAY BE COLLECTED AS EARLY AS 12 NOON.", "nsi_id": "unitedstatespostalservice-a77078", "operator": "United States Postal Service", "operator:short": "USPS", "operator:type": "public", "operator:wikidata": "Q668687", "ref": "5637700006"}, "type": "Feature"}
{"geometry": {"coordinates": [-94.1889940361, 45.6155790182], "type": "Point"}, "id": "BeJQKlGINXEUAC1ou6t7NQZKFxY=", "properties": {"@source_uri": "https://tools.usps.com/UspsToolsRestServices/rest/POLocator/findLocations", "@spider": "usps_collection_boxes", "addr:city": "SARTELL", "addr:country": "US", "addr:postcode": "56377", "addr:state": "MN", "addr:street_address": "520 1ST ST NE", "amenity": "post_box", "collection_times": "Mo-Sa 10:30", "nsi_id": "unitedstatespostalservice-a77078", "operator": "United States Postal Service", "operator:short": "USPS", "operator:type": "public", "operator:wikidata": "Q668687", "ref": "5637700007"}, "type": "Feature"}
{"geometry": {"coordinates": [-94.2067889842, 45.6155099932], "type": "Point"}, "id": "3uTP_nUnUQ6ELktf8zxWzkHH_2g=", "properties": {"@source_uri": "https://tools.usps.com/UspsToolsRestServices/rest/POLocator/findLocations", "@spider": "usps_collection_boxes", "addr:city": "SARTELL", "addr:country": "US", "addr:postcode": "56377", "addr:state": "MN", "addr:street_address": "113 2ND ST S", "amenity": "post_box", "collection_times": "Mo-Fr 16:15; Sa 10:00", "indoor": "yes", "note": "ON 12/24 AND 12/31, THIS BOX MAY BE COLLECTED AS EARLY AS 12 NOON.", "nsi_id": "unitedstatespostalservice-a77078", "operator": "United States Postal Service", "operator:short": "USPS", "operator:type": "public", "operator:wikidata": "Q668687", "ref": "5637700010"}, "type": "Feature"}
{"geometry": {"coordinates": [-94.9519953852, 45.7358263105], "type": "Point"}, "id": "m8M4lmF6hboMkxEj_gxiUaaegZk=", "properties": {"@source_uri": "https://tools.usps.com/UspsToolsRestServices/rest/POLocator/findLocations", "@spider": "usps_collection_boxes", "addr:city": "SAUK CENTRE", "addr:country": "US", "addr:postcode": "56378", "addr:state": "MN", "addr:street_address": "400 MAIN ST S", "amenity": "post_box", "collection_times": "Mo-Fr 15:45; Sa 10:00", "note": "ON 12/24 AND 12/31, THIS BOX MAY BE COLLECTED AS EARLY AS 12 NOON.", "nsi_id": "unitedstatespostalservice-a77078", "operator": "United States Postal Service", "operator:short": "USPS", "operator:type": "public", "operator:wikidata": "Q668687", "ref": "5637800006"}, "type": "Feature"}
{"geometry": {"coordinates": [-94.951995612, 45.735826483], "type": "Point"}, "id": "SPRVaicyKkHMjrzYstyWn7wPqlI=", "properties": {"@source_uri": "https://tools.usps.com/UspsToolsRestServices/rest/POLocator/findLocations", "@spider": "usps_collection_boxes", "addr:city": "SAUK CENTRE", "addr:country": "US", "addr:postcode": "56378", "addr:state": "MN", "addr:street_address": "400 MAIN ST S", "amenity": "post_box", "collection_times": "Mo-Fr 15:45; Sa 10:00", "indoor": "yes", "note": "ON 12/24 AND 12/31, THIS BOX MAY BE COLLECTED AS EARLY AS 12 NOON.", "nsi_id": "unitedstatespostalservice-a77078", "operator": "United States Postal Service", "operator:short": "USPS", "operator:type": "public", "operator:wikidata": "Q668687", "ref": "5637800009"}, "type": "Feature"}
{"geometry": {"coordinates": [-94.948044496, 45.723517514], "type": "Point"}, "id": "dq8hD37jJlGakG_-sU0deK3pomI=", "properties": {"@source_uri": "https://tools.usps.com/UspsToolsRestServices/rest/POLocator/findLocations", "@spider": "usps_collection_boxes", "addr:city": "SAUK CENTRE", "addr:country": "US", "addr:postcode": "56378", "addr:state": "MN", "addr:street_address": "214 12TH ST S", "amenity": "post_box", "collection_times": "Mo-Sa 13:00", "note": "ON 12/24 AND 12/31, THIS BOX MAY BE COLLECTED AS EARLY AS 12 NOON.", "nsi_id": "unitedstatespostalservice-a77078", "operator": "United States Postal Service", "operator:short": "USPS", "operator:type": "public", "operator:wikidata": "Q668687", "ref": "5637800010"}, "type": "Feature"}
{"geometry": {"coordinates": [-94.951995612, 45.735826483], "type": "Point"}, "id": "ipX5Lj3GiW7bokyNiuJzw_4xjyI=", "properties": {"@source_uri": "https://tools.usps.com/UspsToolsRestServices/rest/POLocator/findLocations", "@spider": "usps_collection_boxes", "addr:city": "SAUK CENTRE", "addr:country": "US", "addr:postcode": "56378", "addr:state": "MN", "addr:street_address": "400 MAIN ST S", "amenity": "post_box", "collection_times": "Mo-Fr 15:45", "indoor": "yes", "note": "ON 12/24 AND 12/31, THIS BOX MAY BE COLLECTED AS EARLY AS 12 NOON.", "nsi_id": "unitedstatespostalservice-a77078", "operator": "United States Postal Service", "operator:short": "USPS", "operator:type": "public", "operator:wikidata": "Q668687", "ref": "5637800013"}, "type": "Feature"}
{"geometry": {"coordinates": [-95.084033505, 45.800280439], "type": "Point"}, "id": "9q-FkuUVze-8E1BINRGnHwHsEGs=", "properties": {"@source_uri": "https://tools.usps.com/UspsToolsRestServices/rest/POLocator/findLocations", "@spider": "usps_collection_boxes", "addr:city": "SAUK CENTRE", "addr:country": "US", "addr:postcode": "56378", "addr:state": "MN", "addr:street_address": "121 W 1ST AVE", "amenity": "post_box", "collection_times": "Mo-Fr 15:30; Sa 11:30", "note": "ON 12/24 AND 12/31, THIS BOX MAY BE COLLECTED AS EARLY AS 12 NOON.", "nsi_id": "unitedstatespostalservice-a77078", "operator": "United States Postal Service", "operator:short": "USPS", "operator:type": "public", "operator:wikidata": "Q668687", "ref": "5637800014"}, "type": "Feature"}
{"geometry": {"coordinates": [-94.164841585, 45.588555705], "type": "Point"}, "id": "MsE4l6MPbEF4pbLco9b8YKRg6UY=", "properties": {"@source_uri": "https://tools.usps.com/UspsToolsRestServices/rest/POLocator/findLocations", "@spider": "usps_collection_boxes", "addr:city": "SAINT CLOUD", "addr:country": "US", "addr:postcode": "56379", "addr:state": "MN", "addr:street_address": "110 1ST STREET S - SAUK RPDS", "amenity": "post_box", "collection_times": "Mo-Fr 15:00; Sa 13:15", "note": "ON 12/24 AND 12/31, THIS BOX MAY BE COLLECTED AS EARLY AS 12 NOON.", "nsi_id": "unitedstatespostalservice-a77078", "operator": "United States Postal Service", "operator:short": "USPS", "operator:type": "public", "operator:wikidata": "Q668687", "ref": "5637900000"}, "type": "Feature"}
{"geometry": {"coordinates": [-94.1557021, 45.581062167], "type": "Point"}, "id": "gW_n0Vj2OmoYOH14UVPz0yO9Ues=", "properties": {"@source_uri": "https://tools.usps.com/UspsToolsRestServices/rest/POLocator/findLocations", "@spider": "usps_collection_boxes", "addr:city": "SAINT CLOUD", "addr:country": "US", "addr:postcode": "56379", "addr:state": "MN", "addr:street_address": "806 S BENTON DR - SAUK RPDS", "amenity": "post_box", "collection_times": "Mo-Fr 15:00", "note": "ON 12/24 AND 12/31, THIS BOX MAY BE COLLECTED AS EARLY AS 12 NOON.", "nsi_id": "unitedstatespostalservice-a77078", "operator": "United States Postal Service", "operator:short": "USPS", "operator:type": "public", "operator:wikidata": "Q668687", "ref": "5637900004"}, "type": "Feature"}
{"geometry": {"coordinates": [-94.168308408, 45.55948205], "type": "Point"}, "id": "ca9KjGysiX4FHWPNqQvq0tKPLCw=", "properties": {"@source_uri": "https://tools.usps.com/UspsToolsRestServices/rest/POLocator/findLocations", "@spider": "usps_collection_boxes", "addr:city": "SAINT CLOUD", "addr:country": "US", "addr:postcode": "56379", "addr:state": "MN", "addr:street_address": "1239 2ND ST N", "amenity": "post_box", "collection_times": "Mo-Fr 15:15; Sa 13:30", "note": "ON 12/24 AND 12/31, THIS BOX MAY BE COLLECTED AS EARLY AS 12 NOON.", "nsi_id": "unitedstatespostalservice-a77078", "operator": "United States Postal Service", "operator:short": "USPS", "operator:type": "public", "operator:wikidata": "Q668687", "ref": "5637900005"}, "type": "Feature"}
{"geometry": {"coordinates": [-94.168308408, 45.55948205], "type": "Point"}, "id": "XpaIOkfXzjiU2whxDKaOnAzgMvg=", "properties": {"@source_uri": "https://tools.usps.com/UspsToolsRestServices/rest/POLocator/findLocations", "@spider": "usps_collection_boxes", "addr:city": "SAINT CLOUD", "addr:country": "US", "addr:postcode": "56379", "addr:state": "MN", "addr:street_address": "1239 2ND ST N", "amenity": "post_box", "collection_times": "Mo-Fr 15:15; Sa 13:30", "indoor": "yes", "note": "ON 12/24 AND 12/31, THIS BOX MAY BE COLLECTED AS EARLY AS 12 NOON.", "nsi_id": "unitedstatespostalservice-a77078", "operator": "United States Postal Service", "operator:short": "USPS", "operator:type": "public", "operator:wikidata": "Q668687", "ref": "5637900008"}, "type": "Feature"}
{"geometry": {"coordinates": [-94.168308408, 45.55948205], "type": "Point"}, "id": "ozEA8rc7v2yk2c0bA0Jmoe4Sn5s=", "properties": {"@source_uri": "https://tools.usps.com/UspsToolsRestServices/rest/POLocator/findLocations", "@spider": "usps_collection_boxes", "addr:city": "SAINT CLOUD", "addr:country": "US", "addr:postcode": "56379", "addr:state": "MN", "addr:street_address": "1239 2ND ST N", "amenity": "post_box", "collection_times": "Mo-Fr 15:15; Sa 13:30", "indoor": "yes", "note": "ON 12/24 AND 12/31, THIS BOX MAY BE COLLECTED AS EARLY AS 12 NOON.", "nsi_id": "unitedstatespostalservice-a77078", "operator": "United States Postal Service", "operator:short": "USPS", "operator:type": "public", "operator:wikidata": "Q668687", "ref": "5637900009"}, "type": "Feature"}
{"geometry": {"coordinates": [-94.164841585, 45.588555705], "type": "Point"}, "id": "sl8xI4RpJhbCqz5T5odnf1FaswY=", "properties": {"@source_uri": "https://tools.usps.com/UspsToolsRestServices/rest/POLocator/findLocations", "@spider": "usps_collection_boxes", "addr:city": "SAINT CLOUD", "addr:country": "US", "addr:postcode": "56379", "addr:state": "MN", "addr:street_address": "110 1ST ST S - SAUK RPDS", "amenity": "post_box", "collection_times": "Mo-Fr 15:00; Sa 13:15", "note": "ON 12/24 AND 12/31, THIS BOX MAY BE COLLECTED AS EARLY AS 12 NOON.", "nsi_id": "unitedstatespostalservice-a77078", "operator": "United States Postal Service", "operator:short": "USPS", "operator:type": "public", "operator:wikidata": "Q668687", "ref": "5637900010"}, "type": "Feature"}
{"geometry": {"coordinates": [-94.168308408, 45.55948205], "type": "Point"}, "id": "brABb0XDd6nvgbUNnqQf0UKfWQ4=", "properties": {"@source_uri": "https://tools.usps.com/UspsToolsRestServices/rest/POLocator/findLocations", "@spider": "usps_collection_boxes", "addr:city": "SAINT CLOUD", "addr:country": "US", "addr:postcode": "56379", "addr:state": "MN", "addr:street_address": "1239 2ND ST N", "amenity": "post_box", "collection_times": "Mo-Fr 15:30; Sa 11:00", "indoor": "yes", "note": "ON 12/24 AND 12/31, THIS BOX MAY BE COLLECTED AS EARLY AS 12 NOON.", "nsi_id": "unitedstatespostalservice-a77078", "operator": "United States Postal Service", "operator:short": "USPS", "operator:type": "public", "operator:wikidata": "Q668687", "ref": "5637900013"}, "type": "Feature"}
{"geometry": {"coordinates": [-95.530521945, 45.613396521], "type": "Point"}, "id": "HTrQ9Txpb0ejsiAy6yBl0Rxkvh8=", "properties": {"@source_uri": "https://tools.usps.com/UspsToolsRestServices/rest/POLocator/findLocations", "@spider": "usps_collection_boxes", "addr:city": "STARBUCK", "addr:country": "US", "addr:postcode": "56381", "addr:state": "MN", "addr:street_address": "109 E 6TH ST", "amenity": "post_box", "collection_times": "Mo-Fr 14:15; Sa 09:00", "note": "ON 12/24 AND 12/31, THIS BOX MAY BE COLLECTED AS EARLY AS 12 NOON.", "nsi_id": "unitedstatespostalservice-a77078", "operator": "United States Postal Service", "operator:short": "USPS", "operator:type": "public", "operator:wikidata": "Q668687", "ref": "5638100000"}, "type": "Feature"}
{"geometry": {"coordinates": [-95.530521945, 45.613396521], "type": "Point"}, "id": "BUJ79BllZbuKZqT9X1vmj0dg2Ms=", "properties": {"@source_uri": "https://tools.usps.com/UspsToolsRestServices/rest/POLocator/findLocations", "@spider": "usps_collection_boxes", "addr:city": "STARBUCK", "addr:country": "US", "addr:postcode": "56381", "addr:state": "MN", "addr:street_address": "109 E 6TH ST", "amenity": "post_box", "collection_times": "Mo-Fr 14:15; Sa 09:00", "indoor": "yes", "note": "ON 12/24 AND 12/31, THIS BOX MAY BE COLLECTED AS EARLY AS 12 NOON.", "nsi_id": "unitedstatespostalservice-a77078", "operator": "United States Postal Service", "operator:short": "USPS", "operator:type": "public", "operator:wikidata": "Q668687", "ref": "5638100001"}, "type": "Feature"}
{"geometry": {"coordinates": [-95.530521945, 45.613396521], "type": "Point"}, "id": "h5DOFPxWpMEZSuLEle9xrkl1an0=", "properties": {"@source_uri": "https://tools.usps.com/UspsToolsRestServices/rest/POLocator/findLocations", "@spider": "usps_collection_boxes", "addr:city": "STARBUCK", "addr:country": "US", "addr:postcode": "56381", "addr:state": "MN", "addr:street_address": "109 E 6TH ST", "amenity": "post_box", "collection_times": "Mo-Fr 14:15; Sa 09:45", "indoor": "yes", "note": "ON 12/24 AND 12/31, THIS BOX MAY BE COLLECTED AS EARLY AS 12 NOON.", "nsi_id": "unitedstatespostalservice-a77078", "operator": "United States Postal Service", "operator:short": "USPS", "operator:type": "public", "operator:wikidata": "Q668687", "ref": "5638100002"}, "type": "Feature"}
{"geometry": {"coordinates": [-94.640649524, 45.913886246], "type": "Point"}, "id": "w8GEYtH6W3gXR0ZxTYlWjblXEoE=", "properties": {"@source_uri": "https://tools.usps.com/UspsToolsRestServices/rest/POLocator/findLocations", "@spider": "usps_collection_boxes", "addr:city": "SWANVILLE", "addr:country": "US", "addr:postcode": "56382", "addr:state": "MN", "addr:street_address": "310 DEGRAFF AVE", "amenity": "post_box", "collection_times": "Mo-Fr 14:15; Sa 09:30", "note": "ON 12/24 AND 12/31, THIS BOX MAY BE COLLECTED AS EARLY AS 12 NOON.", "nsi_id": "unitedstatespostalservice-a77078", "operator": "United States Postal Service", "operator:short": "USPS", "operator:type": "public", "operator:wikidata": "Q668687", "ref": "5638200000"}, "type": "Feature"}
{"geometry": {"coordinates": [-94.640649524, 45.913886246], "type": "Point"}, "id": "uj24k1yrc-dYFmIw7drw2wUpJgk=", "properties": {"@source_uri": "https://tools.usps.com/UspsToolsRestServices/rest/POLocator/findLocations", "@spider": "usps_collection_boxes", "addr:city": "SWANVILLE", "addr:country": "US", "addr:postcode": "56382", "addr:state": "MN", "addr:street_address": "310 DEGRAFF AVE", "amenity": "post_box", "collection_times": "Mo-Fr 13:30; Sa 09:30", "indoor": "yes", "note": "ON 12/24 AND 12/31, THIS BOX MAY BE COLLECTED AS EARLY AS 12 NOON.", "nsi_id": "unitedstatespostalservice-a77078", "operator": "United States Postal Service", "operator:short": "USPS", "operator:type": "public", "operator:wikidata": "Q668687", "ref": "5638200001"}, "type": "Feature"}
{"geometry": {"coordinates": [-94.640649524, 45.913886246], "type": "Point"}, "id": "XrFsHavBR_21vzUfY1XSERTmvYA=", "properties": {"@source_uri": "https://tools.usps.com/UspsToolsRestServices/rest/POLocator/findLocations", "@spider": "usps_collection_boxes", "addr:city": "SWANVILLE", "addr:country": "US", "addr:postcode": "56382", "addr:state": "MN", "addr:street_address": "310 DEGRAFF AVE", "amenity": "post_box", "collection_times": "Mo-Fr 13:30; Sa 09:30", "indoor": "yes", "note": "ON 12/24 AND 12/31, THIS BOX MAY BE COLLECTED AS EARLY AS 12 NOON.", "nsi_id": "unitedstatespostalservice-a77078", "operator": "United States Postal Service", "operator:short": "USPS", "operator:type": "public", "operator:wikidata": "Q668687", "ref": "5638200002"}, "type": "Feature"}
{"geometry": {"coordinates": [-94.571473199, 45.80820987], "type": "Point"}, "id": "wpIFQXZc1zmPCUOEbOQPnjs77Xo=", "properties": {"@source_uri": "https://tools.usps.com/UspsToolsRestServices/rest/POLocator/findLocations", "@spider": "usps_collection_boxes", "addr:city": "UPSALA", "addr:country": "US", "addr:postcode": "56384", "addr:state": "MN", "addr:street_address": "109 S MAIN ST", "amenity": "post_box", "collection_times": "Mo-Fr 15:15; Sa 10:00", "note": "ON 12/24 AND 12/31, THIS BOX MAY BE COLLECTED AS EARLY AS 12 NOON.", "nsi_id": "unitedstatespostalservice-a77078", "operator": "United States Postal Service", "operator:short": "USPS", "operator:type": "public", "operator:wikidata": "Q668687", "ref": "5638400000"}, "type": "Feature"}
{"geometry": {"coordinates": [-94.571473199, 45.80820987], "type": "Point"}, "id": "1zZxMtHEqhWfhJXjjXmPTso31Xk=", "properties": {"@source_uri": "https://tools.usps.com/UspsToolsRestServices/rest/POLocator/findLocations", "@spider": "usps_collection_boxes", "addr:city": "UPSALA", "addr:country": "US", "addr:postcode": "56384", "addr:state": "MN", "addr:street_address": "109 S MAIN ST", "amenity": "post_box", "collection_times": "Mo-Fr 11:30; Sa 10:00", "indoor": "yes", "nsi_id": "unitedstatespostalservice-a77078", "operator": "United States Postal Service", "operator:short": "USPS", "operator:type": "public", "operator:wikidata": "Q668687", "ref": "5638400001"}, "type": "Feature"}
{"geometry": {"coordinates": [-94.571473199, 45.80820987], "type": "Point"}, "id": "DredOM-645rKKIpHcsQZlVtYiL8=", "properties": {"@source_uri": "https://tools.usps.com/UspsToolsRestServices/rest/POLocator/findLocations", "@spider": "usps_collection_boxes", "addr:city": "UPSALA", "addr:country": "US", "addr:postcode": "56384", "addr:state": "MN", "addr:street_address": "109 S MAIN ST", "amenity": "post_box", "collection_times": "Mo-Fr 11:30; Sa 10:00", "indoor": "yes", "nsi_id": "unitedstatespostalservice-a77078", "operator": "United States Postal Service", "operator:short": "USPS", "operator:type": "public", "operator:wikidata": "Q668687", "ref": "5638400002"}, "type": "Feature"}
{"geometry": {"coordinates": [-95.2700625, 45.713901532], "type": "Point"}, "id": "glA9IFkF8WbO7B_FXZLl9MYiIrE=", "properties": {"@source_uri": "https://tools.usps.com/UspsToolsRestServices/rest/POLocator/findLocations", "@spider": "usps_collection_boxes", "addr:city": "VILLARD", "addr:country": "US", "addr:postcode": "56385", "addr:state": "MN", "addr:street_address": "602 LAKE ST", "amenity": "post_box", "collection_times": "Mo-Fr 15:15; Sa 09:30", "note": "ON 12/24 AND 12/31, THIS BOX MAY BE COLLECTED AS EARLY AS 12 NOON.", "nsi_id": "unitedstatespostalservice-a77078", "operator": "United States Postal Service", "operator:short": "USPS", "operator:type": "public", "operator:wikidata": "Q668687", "ref": "5638500000"}, "type": "Feature"}
{"geometry": {"coordinates": [-95.2700625, 45.713901532], "type": "Point"}, "id": "tlnCx6V1aXXY_ZJRMau_HqqU7_c=", "properties": {"@source_uri": "https://tools.usps.com/UspsToolsRestServices/rest/POLocator/findLocations", "@spider": "usps_collection_boxes", "addr:city": "VILLARD", "addr:country": "US", "addr:postcode": "56385", "addr:state": "MN", "addr:street_address": "602 LAKE ST", "amenity": "post_box", "collection_times": "Mo-Fr 11:30; Sa 09:30", "indoor": "yes", "nsi_id": "unitedstatespostalservice-a77078", "operator": "United States Postal Service", "operator:short": "USPS", "operator:type": "public", "operator:wikidata": "Q668687", "ref": "5638500001"}, "type": "Feature"}
{"geometry": {"coordinates": [-95.2700625, 45.713901532], "type": "Point"}, "id": "9NsfthuqvagkLvj16gMwyx4jvFc=", "properties": {"@source_uri": "https://tools.usps.com/UspsToolsRestServices/rest/POLocator/findLocations", "@spider": "usps_collection_boxes", "addr:city": "VILLARD", "addr:country": "US", "addr:postcode": "56385", "addr:state": "MN", "addr:street_address": "602 LAKE ST", "amenity": "post_box", "collection_times": "Mo-Fr 11:30; Sa 09:45", "indoor": "yes", "nsi_id": "unitedstatespostalservice-a77078", "operator": "United States Postal Service", "operator:short": "USPS", "operator:type": "public", "operator:wikidata": "Q668687", "ref": "5638500002"}, "type": "Feature"}
{"geometry": {"coordinates": [-93.520981396, 46.118609528], "type": "Point"}, "id": "ruShMYAHhrz78HRnsiB4eytCSwA=", "properties": {"@source_uri": "https://tools.usps.com/UspsToolsRestServices/rest/POLocator/findLocations", "@spider": "usps_collection_boxes", "addr:city": "WAHKON", "addr:country": "US", "addr:postcode": "56386", "addr:state": "MN", "addr:street_address": "140 N MAIN ST", "amenity": "post_box", "collection_times": "Mo-Fr 14:30; Sa 08:00", "note": "ON 12/24 AND 12/31, THIS BOX MAY BE COLLECTED AS EARLY AS 12 NOON.", "nsi_id": "unitedstatespostalservice-a77078", "operator": "United States Postal Service", "operator:short": "USPS", "operator:type": "public", "operator:wikidata": "Q668687", "ref": "5638600000"}, "type": "Feature"}
{"geometry": {"coordinates": [-93.520981396, 46.118609528], "type": "Point"}, "id": "jBqJBxJcq9wmDAZKVD-CMjtNgg0=", "properties": {"@source_uri": "https://tools.usps.com/UspsToolsRestServices/rest/POLocator/findLocations", "@spider": "usps_collection_boxes", "addr:city": "WAHKON", "addr:country": "US", "addr:postcode": "56386", "addr:state": "MN", "addr:street_address": "140 N MAIN ST", "amenity": "post_box", "collection_times": "Mo-Fr 11:30; Sa 08:00", "indoor": "yes", "nsi_id": "unitedstatespostalservice-a77078", "operator": "United States Postal Service", "operator:short": "USPS", "operator:type": "public", "operator:wikidata": "Q668687", "ref": "5638600001"}, "type": "Feature"}
{"geometry": {"coordinates": [-93.520981396, 46.118609528], "type": "Point"}, "id": "EHBfLRzfg8cQeKPjR-Mb_Y9XS6U=", "properties": {"@source_uri": "https://tools.usps.com/UspsToolsRestServices/rest/POLocator/findLocations", "@spider": "usps_collection_boxes", "addr:city": "WAHKON", "addr:country": "US", "addr:postcode": "56386", "addr:state": "MN", "addr:street_address": "140 N MAIN ST", "amenity": "post_box", "collection_times": "Mo-Fr 11:30; Sa 08:30", "indoor": "yes", "nsi_id": "unitedstatespostalservice-a77078", "operator": "United States Postal Service", "operator:short": "USPS", "operator:type": "public", "operator:wikidata": "Q668687", "ref": "5638600002"}, "type": "Feature"}
{"geometry": {"coordinates": [-94.213882379, 45.551034892], "type": "Point"}, "id": "DpZScx_AM9vhl1P8Ky3iT05v0VE=", "properties": {"@source_uri": "https://tools.usps.com/UspsToolsRestServices/rest/POLocator/findLocations", "@spider": "usps_collection_boxes", "addr:city": "WAITE PARK", "addr:country": "US", "addr:postcode": "56387", "addr:state": "MN", "addr:street_address": "113 WAITE AVE S", "amenity": "post_box", "collection_times": "Mo-Fr 16:00; Sa 15:30", "note": "ON 12/24 AND 12/31, THIS BOX MAY BE COLLECTED AS EARLY AS 12 NOON.", "nsi_id": "unitedstatespostalservice-a77078", "operator": "United States Postal Service", "operator:short": "USPS", "operator:type": "public", "operator:wikidata": "Q668687", "ref": "5638700000"}, "type": "Feature"}
{"geometry": {"coordinates": [-94.218969753, 45.548529818], "type": "Point"}, "id": "qvPf4DPg4wRRimaiGmvfeKmfuu0=", "properties": {"@source_uri": "https://tools.usps.com/UspsToolsRestServices/rest/POLocator/findLocations", "@spider": "usps_collection_boxes", "addr:city": "WAITE PARK", "addr:country": "US", "addr:postcode": "56387", "addr:state": "MN", "addr:street_address": "254 2ND AVE S", "amenity": "post_box", "collection_times": "Mo-Fr 16:15; Sa 15:45", "note": "ON 12/24 AND 12/31, THIS BOX MAY BE COLLECTED AS EARLY AS 12 NOON.", "nsi_id": "unitedstatespostalservice-a77078", "operator": "United States Postal Service", "operator:short": "USPS", "operator:type": "public", "operator:wikidata": "Q668687", "ref": "5638700001"}, "type": "Feature"}
{"geometry": {"coordinates": [-94.218969753, 45.548529818], "type": "Point"}, "id": "m1isl0mFsD60cAJjfDwJrBLhiOw=", "properties": {"@source_uri": "https://tools.usps.com/UspsToolsRestServices/rest/POLocator/findLocations", "@spider": "usps_collection_boxes", "addr:city": "WAITE PARK", "addr:country": "US", "addr:postcode": "56387", "addr:state": "MN", "addr:street_address": "254 2ND AVE S", "amenity": "post_box", "collection_times": "Mo-Fr 16:15; Sa 15:45", "indoor": "yes", "note": "ON 12/24 AND 12/31, THIS BOX MAY BE COLLECTED AS EARLY AS 12 NOON.", "nsi_id": "unitedstatespostalservice-a77078", "operator": "United States Postal Service", "operator:short": "USPS", "operator:type": "public", "operator:wikidata": "Q668687", "ref": "5638700004"}, "type": "Feature"}
{"geometry": {"coordinates": [-94.218969753, 45.548529818], "type": "Point"}, "id": "tqyh0dl0mzwpmvWYnz44DlE8OdM=", "properties": {"@source_uri": "https://tools.usps.com/UspsToolsRestServices/rest/POLocator/findLocations", "@spider": "usps_collection_boxes", "addr:city": "WAITE PARK", "addr:country": "US", "addr:postcode": "56387", "addr:state": "MN", "addr:street_address": "254 2ND AVE S", "amenity": "post_box", "collection_times": "Mo-Fr 16:15; Sa 15:45", "indoor": "yes", "note": "ON 12/24 AND 12/31, THIS BOX MAY BE COLLECTED AS EARLY AS 12 NOON.", "nsi_id": "unitedstatespostalservice-a77078", "operator": "United States Postal Service", "operator:short": "USPS", "operator:type": "public", "operator:wikidata": "Q668687", "ref": "5638700005"}, "type": "Feature"}
{"geometry": {"coordinates": [-94.229441241, 45.542643096], "type": "Point"}, "id": "Q-1ICjvOPY9VxHpE_ZpX9DQIN0A=", "properties": {"@source_uri": "https://tools.usps.com/UspsToolsRestServices/rest/POLocator/findLocations", "@spider": "usps_collection_boxes", "addr:city": "WAITE PARK", "addr:country": "US", "addr:postcode": "56387", "addr:state": "MN", "addr:street_address": "517 10TH AVE S", "amenity": "post_box", "collection_times": "Mo-Sa 17:15", "note": "ON 12/24 AND 12/31, THIS BOX MAY BE COLLECTED AS EARLY AS 12 NOON.", "nsi_id": "unitedstatespostalservice-a77078", "operator": "United States Postal Service", "operator:short": "USPS", "operator:type": "public", "operator:wikidata": "Q668687", "ref": "5638700007"}, "type": "Feature"}
{"geometry": {"coordinates": [-94.218969753, 45.548529818], "type": "Point"}, "id": "7mjp1l_SMgkndx6Gzp6SaUrF6ZQ=", "properties": {"@source_uri": "https://tools.usps.com/UspsToolsRestServices/rest/POLocator/findLocations", "@spider": "usps_collection_boxes", "addr:city": "WAITE PARK", "addr:country": "US", "addr:postcode": "56387", "addr:state": "MN", "addr:street_address": "254 2ND AVE S", "amenity": "post_box", "collection_times": "Mo-Fr 16:15", "indoor": "yes", "note": "ON 12/24 AND 12/31, THIS BOX MAY BE COLLECTED AS EARLY AS 12 NOON.", "nsi_id": "unitedstatespostalservice-a77078", "operator": "United States Postal Service", "operator:short": "USPS", "operator:type": "public", "operator:wikidata": "Q668687", "ref": "5638700014"}, "type": "Feature"}
