{"geometry": {"coordinates": [-94.178634331, 46.374580456], "type": "Point"}, "id": "na0UXH9xj_OgtT0KASCDO9spaAw=", "properties": {"@source_uri": "https://tools.usps.com/UspsToolsRestServices/rest/POLocator/findLocations", "@spider": "usps_collection_boxes", "addr:city": "BRAINERD", "addr:country": "US", "addr:postcode": "56401", "addr:state": "MN", "addr:street_address": "1500 MILL AVE", "amenity": "post_box", "collection_times": "Mo-Sa 13:30", "note": "ON 12/24 AND 12/31, THIS BOX MAY BE COLLECTED AS EARLY AS 12 NOON.", "nsi_id": "unitedstatespostalservice-a77078", "operator": "United States Postal Service", "operator:short": "USPS", "operator:type": "public", "operator:wikidata": "Q668687", "ref": "5640100002"}, "type": "Feature"}
{"geometry": {"coordinates": [-94.177322686, 46.362958059], "type": "Point"}, "id": "IuqRa9clIfWCAESBz1gmYS0VGS0=", "properties": {"@source_uri": "https://tools.usps.com/UspsToolsRestServices/rest/POLocator/findLocations", "@spider": "usps_collection_boxes", "addr:city": "BRAINERD", "addr:country": "US", "addr:postcode": "56401", "addr:state": "MN", "addr:street_address": "415 8TH AVE NE", "amenity": "post_box", "collection_times": "Mo-Sa 13:45", "note": "ON 12/24 AND 12/31, THIS BOX MAY BE COLLECTED AS EARLY AS 12 NOON.", "nsi_id": "unitedstatespostalservice-a77078", "operator": "United States Postal Service", "operator:short": "USPS", "operator:type": "public", "operator:wikidata": "Q668687", "ref": "5640100004"}, "type": "Feature"}
{"geometry": {"coordinates": [-94.205172228, 46.3616438], "type": "Point"}, "id": "EiMn20nyT9AYz1ziwT284kK93y8=", "properties": {"@source_uri": "https://tools.usps.com/UspsToolsRestServices/rest/POLocator/findLocations", "@spider": "usps_collection_boxes", "addr:city": "BRAINERD", "addr:country": "US", "addr:postcode": "56401", "addr:state": "MN", "addr:street_address": "523 N 3RD ST", "amenity": "post_box", "collection_times": "Mo-Fr 13:45; Sa 13:00", "note": "ON 12/24 AND 12/31, THIS BOX MAY BE COLLECTED AS EARLY AS 12 NOON.", "nsi_id": "unitedstatespostalservice-a77078", "operator": "United States Postal Service", "operator:short": "USPS", "operator:type": "public", "operator:wikidata": "Q668687", "ref": "5640100007"}, "type": "Feature"}
{"geometry": {"coordinates": [-94.214676555, 46.357942301], "type": "Point"}, "id": "pH-42-FwD9th9Kl2fMUgAI7WZEw=", "properties": {"@source_uri": "https://tools.usps.com/UspsToolsRestServices/rest/POLocator/findLocations", "@spider": "usps_collection_boxes", "addr:city": "BRAINERD", "addr:country": "US", "addr:postcode": "56401", "addr:state": "MN", "addr:street_address": "224 W WASHINGTON ST", "amenity": "post_box", "collection_times": "Mo-Fr 14:00; Sa 10:00", "note": "ON 12/24 AND 12/31, THIS BOX MAY BE COLLECTED AS EARLY AS 12 NOON.", "nsi_id": "unitedstatespostalservice-a77078", "operator": "United States Postal Service", "operator:short": "USPS", "operator:type": "public", "operator:wikidata": "Q668687", "ref": "5640100009"}, "type": "Feature"}
{"geometry": {"coordinates": [-94.225848293, 46.35678819], "type": "Point"}, "id": "srj7iyq6fWfMzQlsQcKWz6bi3oU=", "properties": {"@source_uri": "https://tools.usps.com/UspsToolsRestServices/rest/POLocator/findLocations", "@spider": "usps_collection_boxes", "addr:city": "BRAINERD", "addr:country": "US", "addr:postcode": "56401", "addr:state": "MN", "addr:street_address": "14136 BAXTER", "amenity": "post_box", "collection_times": "Mo-Fr 14:00; Sa 10:00", "note": "ON 12/24 AND 12/31, THIS BOX MAY BE COLLECTED AS EARLY AS 12 NOON.", "nsi_id": "unitedstatespostalservice-a77078", "operator": "United States Postal Service", "operator:short": "USPS", "operator:type": "public", "operator:wikidata": "Q668687", "ref": "5640100015"}, "type": "Feature"}
{"geometry": {"coordinates": [-94.225613882, 46.356080029], "type": "Point"}, "id": "4VOXDzS584Q-Rx7zo5RHSfSIR9c=", "properties": {"@source_uri": "https://tools.usps.com/UspsToolsRestServices/rest/POLocator/findLocations", "@spider": "usps_collection_boxes", "addr:city": "BRAINERD", "addr:country": "US", "addr:postcode": "56401", "addr:state": "MN", "addr:street_address": "14091 BAXTER DR", "amenity": "post_box", "collection_times": "Mo-Fr 14:00; Sa 10:00", "note": "ON 12/24 AND 12/31, THIS BOX MAY BE COLLECTED AS EARLY AS 12 NOON.", "nsi_id": "unitedstatespostalservice-a77078", "operator": "United States Postal Service", "operator:short": "USPS", "operator:type": "public", "operator:wikidata": "Q668687", "ref": "5640100016"}, "type": "Feature"}
{"geometry": {"coordinates": [-94.200664195, 46.34559], "type": "Point"}, "id": "K9ZVLwwFb_7e8qYsYTCne7nIgeQ=", "properties": {"@source_uri": "https://tools.usps.com/UspsToolsRestServices/rest/POLocator/findLocations", "@spider": "usps_collection_boxes", "addr:city": "BRAINERD", "addr:country": "US", "addr:postcode": "56401", "addr:state": "MN", "addr:street_address": "1223 S 6TH ST", "amenity": "post_box", "collection_times": "Mo-Sa 13:30", "note": "ON 12/24 AND 12/31, THIS BOX MAY BE COLLECTED AS EARLY AS 12 NOON.", "nsi_id": "unitedstatespostalservice-a77078", "operator": "United States Postal Service", "operator:short": "USPS", "operator:type": "public", "operator:wikidata": "Q668687", "ref": "5640100021"}, "type": "Feature"}
{"geometry": {"coordinates": [-94.200692669, 46.336023], "type": "Point"}, "id": "TuAzB-oH7m9URehYzZk9L5g082Q=", "properties": {"@source_uri": "https://tools.usps.com/UspsToolsRestServices/rest/POLocator/findLocations", "@spider": "usps_collection_boxes", "addr:city": "BRAINERD", "addr:country": "US", "addr:postcode": "56401", "addr:state": "MN", "addr:street_address": "1903 S 6TH ST", "amenity": "post_box", "collection_times": "Mo-Fr 13:30; Sa 10:00", "note": "ON 12/24 AND 12/31, THIS BOX MAY BE COLLECTED AS EARLY AS 12 NOON.", "nsi_id": "unitedstatespostalservice-a77078", "operator": "United States Postal Service", "operator:short": "USPS", "operator:type": "public", "operator:wikidata": "Q668687", "ref": "5640100022"}, "type": "Feature"}
{"geometry": {"coordinates": [-94.159709078, 46.352252504], "type": "Point"}, "id": "qEoB7CvMWdHI_1g528ziSKO_Ud0=", "properties": {"@source_uri": "https://tools.usps.com/UspsToolsRestServices/rest/POLocator/findLocations", "@spider": "usps_collection_boxes", "addr:city": "BRAINERD", "addr:country": "US", "addr:postcode": "56401", "addr:state": "MN", "addr:street_address": "3325 OAK STY 18", "amenity": "post_box", "collection_times": "Mo-Sa 12:00", "nsi_id": "unitedstatespostalservice-a77078", "operator": "United States Postal Service", "operator:short": "USPS", "operator:type": "public", "operator:wikidata": "Q668687", "ref": "5640100025"}, "type": "Feature"}
{"geometry": {"coordinates": [-94.203285824, 46.355714105], "type": "Point"}, "id": "NbCm2Qqfa9lQCKtuLNsXDtKnVig=", "properties": {"@source_uri": "https://tools.usps.com/UspsToolsRestServices/rest/POLocator/findLocations", "@spider": "usps_collection_boxes", "addr:city": "BRAINERD", "addr:country": "US", "addr:postcode": "56401", "addr:state": "MN", "addr:street_address": "422 LAUREL ST", "amenity": "post_box", "collection_times": "Mo-Sa 16:00", "note": "ON 12/24 AND 12/31, THIS BOX MAY BE COLLECTED AS EARLY AS 12 NOON.", "nsi_id": "unitedstatespostalservice-a77078", "operator": "United States Postal Service", "operator:short": "USPS", "operator:type": "public", "operator:wikidata": "Q668687", "ref": "5640100026"}, "type": "Feature"}
{"geometry": {"coordinates": [-94.197141, 46.355744474], "type": "Point"}, "id": "NYmvRTrbZe6pSjOKrHd0oS8vLWQ=", "properties": {"@source_uri": "https://tools.usps.com/UspsToolsRestServices/rest/POLocator/findLocations", "@spider": "usps_collection_boxes", "addr:city": "BRAINERD", "addr:country": "US", "addr:postcode": "56401", "addr:state": "MN", "addr:street_address": "804 LAUREL ST", "amenity": "post_box", "collection_times": "Mo-Fr 13:30; Sa 13:00", "note": "ON 12/24 AND 12/31, THIS BOX MAY BE COLLECTED AS EARLY AS 12 NOON.", "nsi_id": "unitedstatespostalservice-a77078", "operator": "United States Postal Service", "operator:short": "USPS", "operator:type": "public", "operator:wikidata": "Q668687", "ref": "5640100029"}, "type": "Feature"}
{"geometry": {"coordinates": [-94.284169038, 46.3445890119], "type": "Point"}, "id": "9Pug5uKUnfHbi0Y_Uy_I2G7UoXk=", "properties": {"@source_uri": "https://tools.usps.com/UspsToolsRestServices/rest/POLocator/findLocations", "@spider": "usps_collection_boxes", "addr:city": "BRAINERD", "addr:country": "US", "addr:postcode": "56401", "addr:state": "MN", "addr:street_address": "5610 FAIRVIEW RD", "amenity": "post_box", "collection_times": "Mo-Fr 14:15; Sa 11:00", "note": "ON 12/24 AND 12/31, THIS BOX MAY BE COLLECTED AS EARLY AS 12 NOON.", "nsi_id": "unitedstatespostalservice-a77078", "operator": "United States Postal Service", "operator:short": "USPS", "operator:type": "public", "operator:wikidata": "Q668687", "ref": "5640100030"}, "type": "Feature"}
{"geometry": {"coordinates": [-94.244910133, 46.356202708], "type": "Point"}, "id": "gZHpcBPyT8ij4f4e1OBPYuVtYm0=", "properties": {"@source_uri": "https://tools.usps.com/UspsToolsRestServices/rest/POLocator/findLocations", "@spider": "usps_collection_boxes", "addr:city": "BRAINERD", "addr:country": "US", "addr:postcode": "56401", "addr:state": "MN", "addr:street_address": "14133 EDGEWOOD DR", "amenity": "post_box", "collection_times": "Mo-Fr 14:15; Sa 10:00", "note": "ON 12/24 AND 12/31, THIS BOX MAY BE COLLECTED AS EARLY AS 12 NOON.", "nsi_id": "unitedstatespostalservice-a77078", "operator": "United States Postal Service", "operator:short": "USPS", "operator:type": "public", "operator:wikidata": "Q668687", "ref": "5640100031"}, "type": "Feature"}
{"geometry": {"coordinates": [-94.237294112, 46.344736508], "type": "Point"}, "id": "9BfqgpC90ZwVxUrY9cJddIOcrL0=", "properties": {"@source_uri": "https://tools.usps.com/UspsToolsRestServices/rest/POLocator/findLocations", "@spider": "usps_collection_boxes", "addr:city": "BRAINERD", "addr:country": "US", "addr:postcode": "56401", "addr:state": "MN", "addr:street_address": "7842 COLLEGE RD", "amenity": "post_box", "collection_times": "Mo-Fr 15:00; Sa 10:00", "note": "ON 12/24 AND 12/31, THIS BOX MAY BE COLLECTED AS EARLY AS 12 NOON.", "nsi_id": "unitedstatespostalservice-a77078", "operator": "United States Postal Service", "operator:short": "USPS", "operator:type": "public", "operator:wikidata": "Q668687", "ref": "5640100032"}, "type": "Feature"}
{"geometry": {"coordinates": [-94.248962277, 46.344382471], "type": "Point"}, "id": "ioan04v6g1Q3o_ykLiJsthqbKIE=", "properties": {"@source_uri": "https://tools.usps.com/UspsToolsRestServices/rest/POLocator/findLocations", "@spider": "usps_collection_boxes", "addr:city": "BRAINERD", "addr:country": "US", "addr:postcode": "56401", "addr:state": "MN", "addr:street_address": "7295 GLORY RD", "amenity": "post_box", "collection_times": "Mo-Fr 14:30; Sa 12:00", "note": "ON 12/24 AND 12/31, THIS BOX MAY BE COLLECTED AS EARLY AS 12 NOON.", "nsi_id": "unitedstatespostalservice-a77078", "operator": "United States Postal Service", "operator:short": "USPS", "operator:type": "public", "operator:wikidata": "Q668687", "ref": "5640100039"}, "type": "Feature"}
{"geometry": {"coordinates": [-94.203285977, 46.355715518], "type": "Point"}, "id": "pm5FIUx4kn5bygLGMYIWipwjP2c=", "properties": {"@source_uri": "https://tools.usps.com/UspsToolsRestServices/rest/POLocator/findLocations", "@spider": "usps_collection_boxes", "addr:city": "BRAINERD", "addr:country": "US", "addr:postcode": "56401", "addr:state": "MN", "addr:street_address": "422 LAUREL ST", "amenity": "post_box", "collection_times": "Mo-Fr 16:15; Sa 12:00", "indoor": "yes", "note": "ON 12/24 AND 12/31, THIS BOX MAY BE COLLECTED AS EARLY AS 12 NOON.", "nsi_id": "unitedstatespostalservice-a77078", "operator": "United States Postal Service", "operator:short": "USPS", "operator:type": "public", "operator:wikidata": "Q668687", "ref": "5640100044"}, "type": "Feature"}
{"geometry": {"coordinates": [-93.707310861, 46.532344493], "type": "Point"}, "id": "e3KyLx6s-s5YCtLKJowMViuqBTg=", "properties": {"@source_uri": "https://tools.usps.com/UspsToolsRestServices/rest/POLocator/findLocations", "@spider": "usps_collection_boxes", "addr:city": "AITKIN", "addr:country": "US", "addr:postcode": "56431", "addr:state": "MN", "addr:street_address": "12 1ST ST NW", "amenity": "post_box", "collection_times": "Mo-Fr 13:45; Sa 11:45", "note": "ON 12/24 AND 12/31, THIS BOX MAY BE COLLECTED AS EARLY AS 12 NOON.", "nsi_id": "unitedstatespostalservice-a77078", "operator": "United States Postal Service", "operator:short": "USPS", "operator:type": "public", "operator:wikidata": "Q668687", "ref": "5643100001"}, "type": "Feature"}
{"geometry": {"coordinates": [-93.710964737, 46.515760102], "type": "Point"}, "id": "kIfF8fsamE4UI4dnmDOREn3uVnU=", "properties": {"@source_uri": "https://tools.usps.com/UspsToolsRestServices/rest/POLocator/findLocations", "@spider": "usps_collection_boxes", "addr:city": "AITKIN", "addr:country": "US", "addr:postcode": "56431", "addr:state": "MN", "addr:street_address": "171 RED OAK DR", "amenity": "post_box", "collection_times": "Mo-Sa 10:00", "nsi_id": "unitedstatespostalservice-a77078", "operator": "United States Postal Service", "operator:short": "USPS", "operator:type": "public", "operator:wikidata": "Q668687", "ref": "5643100006"}, "type": "Feature"}
{"geometry": {"coordinates": [-93.706643381, 46.532079283], "type": "Point"}, "id": "Opov81_m-ywy6h5Ft67P-wJL2EM=", "properties": {"@source_uri": "https://tools.usps.com/UspsToolsRestServices/rest/POLocator/findLocations", "@spider": "usps_collection_boxes", "addr:city": "AITKIN", "addr:country": "US", "addr:postcode": "56431", "addr:state": "MN", "addr:street_address": "15 MINNESOTA AVE N", "amenity": "post_box", "collection_times": "Mo-Fr 13:45; Sa 10:30", "indoor": "yes", "note": "ON 12/24 AND 12/31, THIS BOX MAY BE COLLECTED AS EARLY AS 12 NOON.", "nsi_id": "unitedstatespostalservice-a77078", "operator": "United States Postal Service", "operator:short": "USPS", "operator:type": "public", "operator:wikidata": "Q668687", "ref": "5643100008"}, "type": "Feature"}
{"geometry": {"coordinates": [-93.706596677, 46.534566303], "type": "Point"}, "id": "LiZ2YL45vs1SERSgWR8FLOsTgvg=", "properties": {"@source_uri": "https://tools.usps.com/UspsToolsRestServices/rest/POLocator/findLocations", "@spider": "usps_collection_boxes", "addr:city": "AITKIN", "addr:country": "US", "addr:postcode": "56431", "addr:state": "MN", "addr:street_address": "312 MINNESOTA AVE N", "amenity": "post_box", "collection_times": "Mo-Sa 12:00", "nsi_id": "unitedstatespostalservice-a77078", "operator": "United States Postal Service", "operator:short": "USPS", "operator:type": "public", "operator:wikidata": "Q668687", "ref": "5643100010"}, "type": "Feature"}
{"geometry": {"coordinates": [-93.706643381, 46.532079283], "type": "Point"}, "id": "CoyoiA9S0Ox_Px91XzHgT-jL0zg=", "properties": {"@source_uri": "https://tools.usps.com/UspsToolsRestServices/rest/POLocator/findLocations", "@spider": "usps_collection_boxes", "addr:city": "AITKIN", "addr:country": "US", "addr:postcode": "56431", "addr:state": "MN", "addr:street_address": "15 MINNESOTA AVE N", "amenity": "post_box", "collection_times": "Mo-Fr 13:45; Sa 12:00", "indoor": "yes", "note": "ON 12/24 AND 12/31, THIS BOX MAY BE COLLECTED AS EARLY AS 12 NOON.", "nsi_id": "unitedstatespostalservice-a77078", "operator": "United States Postal Service", "operator:short": "USPS", "operator:type": "public", "operator:wikidata": "Q668687", "ref": "5643100014"}, "type": "Feature"}
{"geometry": {"coordinates": [-94.729357419, 47.003600883], "type": "Point"}, "id": "9HtC7nYh3xE7uY_bPEQGJGBJl8o=", "properties": {"@source_uri": "https://tools.usps.com/UspsToolsRestServices/rest/POLocator/findLocations", "@spider": "usps_collection_boxes", "addr:city": "AKELEY", "addr:country": "US", "addr:postcode": "56433", "addr:state": "MN", "addr:street_address": "10 BROADWAY ST W", "amenity": "post_box", "collection_times": "Mo-Fr 12:15; Sa 09:15", "note": "ON 12/24 AND 12/31, THIS BOX MAY BE COLLECTED AS EARLY AS 12 NOON.", "nsi_id": "unitedstatespostalservice-a77078", "operator": "United States Postal Service", "operator:short": "USPS", "operator:type": "public", "operator:wikidata": "Q668687", "ref": "5643300000"}, "type": "Feature"}
{"geometry": {"coordinates": [-94.729357419, 47.003600883], "type": "Point"}, "id": "oiA3YAs1vkTkxMoyQXOJa7glyus=", "properties": {"@source_uri": "https://tools.usps.com/UspsToolsRestServices/rest/POLocator/findLocations", "@spider": "usps_collection_boxes", "addr:city": "AKELEY", "addr:country": "US", "addr:postcode": "56433", "addr:state": "MN", "addr:street_address": "10 BROADWAY ST W", "amenity": "post_box", "collection_times": "Mo-Fr 11:30; Sa 09:30", "indoor": "yes", "nsi_id": "unitedstatespostalservice-a77078", "operator": "United States Postal Service", "operator:short": "USPS", "operator:type": "public", "operator:wikidata": "Q668687", "ref": "5643300001"}, "type": "Feature"}
{"geometry": {"coordinates": [-94.729357419, 47.003600883], "type": "Point"}, "id": "1YxVGVrYuQY5pDZ5SX9d-bqHpjY=", "properties": {"@source_uri": "https://tools.usps.com/UspsToolsRestServices/rest/POLocator/findLocations", "@spider": "usps_collection_boxes", "addr:city": "AKELEY", "addr:country": "US", "addr:postcode": "56433", "addr:state": "MN", "addr:street_address": "10 BROADWAY ST W", "amenity": "post_box", "collection_times": "Mo-Fr 12:00; Sa 09:30", "indoor": "yes", "nsi_id": "unitedstatespostalservice-a77078", "operator": "United States Postal Service", "operator:short": "USPS", "operator:type": "public", "operator:wikidata": "Q668687", "ref": "5643300002"}, "type": "Feature"}
{"geometry": {"coordinates": [-94.937217026, 46.375248467], "type": "Point"}, "id": "7r_KTy1V0PO8ovc_6t4Jj8RXFeQ=", "properties": {"@source_uri": "https://tools.usps.com/UspsToolsRestServices/rest/POLocator/findLocations", "@spider": "usps_collection_boxes", "addr:city": "ALDRICH", "addr:country": "US", "addr:postcode": "56434", "addr:state": "MN", "addr:street_address": "175 CENTRAL AVE N", "amenity": "post_box", "collection_times": "Mo-Fr 14:00; Sa 12:15", "note": "ON 12/24 AND 12/31, THIS BOX MAY BE COLLECTED AS EARLY AS 12 NOON.", "nsi_id": "unitedstatespostalservice-a77078", "operator": "United States Postal Service", "operator:short": "USPS", "operator:type": "public", "operator:wikidata": "Q668687", "ref": "5643400000"}, "type": "Feature"}
{"geometry": {"coordinates": [-94.937217026, 46.375248467], "type": "Point"}, "id": "MuYlUktGl4lIxEw6Z3fS8Ihuymk=", "properties": {"@source_uri": "https://tools.usps.com/UspsToolsRestServices/rest/POLocator/findLocations", "@spider": "usps_collection_boxes", "addr:city": "ALDRICH", "addr:country": "US", "addr:postcode": "56434", "addr:state": "MN", "addr:street_address": "175 CENTRAL AVE N", "amenity": "post_box", "collection_times": "Mo-Fr 14:00; Sa 12:30", "indoor": "yes", "note": "ON 12/24 AND 12/31, THIS BOX MAY BE COLLECTED AS EARLY AS 12 NOON.", "nsi_id": "unitedstatespostalservice-a77078", "operator": "United States Postal Service", "operator:short": "USPS", "operator:type": "public", "operator:wikidata": "Q668687", "ref": "5643400001"}, "type": "Feature"}
{"geometry": {"coordinates": [-94.937217026, 46.375248467], "type": "Point"}, "id": "tuZI3IvphgB7eiB-t3agKgYkZvk=", "properties": {"@source_uri": "https://tools.usps.com/UspsToolsRestServices/rest/POLocator/findLocations", "@spider": "usps_collection_boxes", "addr:city": "ALDRICH", "addr:country": "US", "addr:postcode": "56434", "addr:state": "MN", "addr:street_address": "175 CENTRAL AVE N", "amenity": "post_box", "collection_times": "Mo-Fr 14:00; Sa 13:00", "indoor": "yes", "note": "ON 12/24 AND 12/31, THIS BOX MAY BE COLLECTED AS EARLY AS 12 NOON.", "nsi_id": "unitedstatespostalservice-a77078", "operator": "United States Postal Service", "operator:short": "USPS", "operator:type": "public", "operator:wikidata": "Q668687", "ref": "5643400002"}, "type": "Feature"}
{"geometry": {"coordinates": [-94.515970972, 46.820234523], "type": "Point"}, "id": "7fu1R-FSZpTWdvsHp_uQE74Z_lY=", "properties": {"@source_uri": "https://tools.usps.com/UspsToolsRestServices/rest/POLocator/findLocations", "@spider": "usps_collection_boxes", "addr:city": "BACKUS", "addr:country": "US", "addr:postcode": "56435", "addr:state": "MN", "addr:street_address": "114 WASHBURN AVE E", "amenity": "post_box", "collection_times": "Mo-Fr 12:45; Sa 09:00", "note": "ON 12/24 AND 12/31, THIS BOX MAY BE COLLECTED AS EARLY AS 12 NOON.", "nsi_id": "unitedstatespostalservice-a77078", "operator": "United States Postal Service", "operator:short": "USPS", "operator:type": "public", "operator:wikidata": "Q668687", "ref": "5643500000"}, "type": "Feature"}
{"geometry": {"coordinates": [-94.515970972, 46.820234523], "type": "Point"}, "id": "BsZ1t_545RC_O0QvaFKMaJWO3EU=", "properties": {"@source_uri": "https://tools.usps.com/UspsToolsRestServices/rest/POLocator/findLocations", "@spider": "usps_collection_boxes", "addr:city": "BACKUS", "addr:country": "US", "addr:postcode": "56435", "addr:state": "MN", "addr:street_address": "114 WASHBURN AVE E", "amenity": "post_box", "collection_times": "Mo-Fr 13:00; Sa 09:00", "indoor": "yes", "note": "ON 12/24 AND 12/31, THIS BOX MAY BE COLLECTED AS EARLY AS 12 NOON.", "nsi_id": "unitedstatespostalservice-a77078", "operator": "United States Postal Service", "operator:short": "USPS", "operator:type": "public", "operator:wikidata": "Q668687", "ref": "5643500001"}, "type": "Feature"}
{"geometry": {"coordinates": [-94.515970972, 46.820234523], "type": "Point"}, "id": "BziKI6I0I0n94-VkC7DGCujqs-U=", "properties": {"@source_uri": "https://tools.usps.com/UspsToolsRestServices/rest/POLocator/findLocations", "@spider": "usps_collection_boxes", "addr:city": "BACKUS", "addr:country": "US", "addr:postcode": "56435", "addr:state": "MN", "addr:street_address": "114 WASHBURN AVE E", "amenity": "post_box", "collection_times": "Mo-Fr 13:00; Sa 09:15", "indoor": "yes", "note": "ON 12/24 AND 12/31, THIS BOX MAY BE COLLECTED AS EARLY AS 12 NOON.", "nsi_id": "unitedstatespostalservice-a77078", "operator": "United States Postal Service", "operator:short": "USPS", "operator:type": "public", "operator:wikidata": "Q668687", "ref": "5643500002"}, "type": "Feature"}
{"geometry": {"coordinates": [-95.066244, 46.266646515], "type": "Point"}, "id": "8PDKPL7Pz36KE1uJJjxdZHTUoRQ=", "properties": {"@source_uri": "https://tools.usps.com/UspsToolsRestServices/rest/POLocator/findLocations", "@spider": "usps_collection_boxes", "addr:city": "BERTHA", "addr:country": "US", "addr:postcode": "56437", "addr:state": "MN", "addr:street_address": "304 MAIN ST", "amenity": "post_box", "collection_times": "Mo-Fr 11:15; Sa 08:15", "nsi_id": "unitedstatespostalservice-a77078", "operator": "United States Postal Service", "operator:short": "USPS", "operator:type": "public", "operator:wikidata": "Q668687", "ref": "5643700000"}, "type": "Feature"}
{"geometry": {"coordinates": [-95.066244, 46.266646515], "type": "Point"}, "id": "PUPiyOmZmkb8WBevCEYWloYZkT0=", "properties": {"@source_uri": "https://tools.usps.com/UspsToolsRestServices/rest/POLocator/findLocations", "@spider": "usps_collection_boxes", "addr:city": "BERTHA", "addr:country": "US", "addr:postcode": "56437", "addr:state": "MN", "addr:street_address": "304 MAIN ST", "amenity": "post_box", "collection_times": "Mo-Fr 11:30; Sa 09:30", "indoor": "yes", "nsi_id": "unitedstatespostalservice-a77078", "operator": "United States Postal Service", "operator:short": "USPS", "operator:type": "public", "operator:wikidata": "Q668687", "ref": "5643700001"}, "type": "Feature"}
{"geometry": {"coordinates": [-95.059791, 46.266646515], "type": "Point"}, "id": "vxCyNh4bP9c-vaCgavaVaGTvJZs=", "properties": {"@source_uri": "https://tools.usps.com/UspsToolsRestServices/rest/POLocator/findLocations", "@spider": "usps_collection_boxes", "addr:city": "BERTHA", "addr:country": "US", "addr:postcode": "56437", "addr:state": "MN", "addr:street_address": "304 MAIN ST", "amenity": "post_box", "collection_times": "Mo-Fr 11:30; Sa 08:30", "indoor": "yes", "nsi_id": "unitedstatespostalservice-a77078", "operator": "United States Postal Service", "operator:short": "USPS", "operator:type": "public", "operator:wikidata": "Q668687", "ref": "5643700002"}, "type": "Feature"}
{"geometry": {"coordinates": [-94.867201915, 46.084680587], "type": "Point"}, "id": "cQZLwvqQEmHrxEcYJnvpipnifj8=", "properties": {"@source_uri": "https://tools.usps.com/UspsToolsRestServices/rest/POLocator/findLocations", "@spider": "usps_collection_boxes", "addr:city": "BROWERVILLE", "addr:country": "US", "addr:postcode": "56438", "addr:state": "MN", "addr:street_address": "517 MAIN ST S", "amenity": "post_box", "collection_times": "Mo-Fr 13:30; Sa 09:45", "note": "ON 12/24 AND 12/31, THIS BOX MAY BE COLLECTED AS EARLY AS 12 NOON.", "nsi_id": "unitedstatespostalservice-a77078", "operator": "United States Postal Service", "operator:short": "USPS", "operator:type": "public", "operator:wikidata": "Q668687", "ref": "5643800000"}, "type": "Feature"}
{"geometry": {"coordinates": [-94.867201915, 46.084680587], "type": "Point"}, "id": "HcMpoXqWpIPzs5n18dzflQifgGY=", "properties": {"@source_uri": "https://tools.usps.com/UspsToolsRestServices/rest/POLocator/findLocations", "@spider": "usps_collection_boxes", "addr:city": "BROWERVILLE", "addr:country": "US", "addr:postcode": "56438", "addr:state": "MN", "addr:street_address": "517 MAIN ST S", "amenity": "post_box", "collection_times": "Mo-Fr 13:30; Sa 09:45", "indoor": "yes", "note": "ON 12/24 AND 12/31, THIS BOX MAY BE COLLECTED AS EARLY AS 12 NOON.", "nsi_id": "unitedstatespostalservice-a77078", "operator": "United States Postal Service", "operator:short": "USPS", "operator:type": "public", "operator:wikidata": "Q668687", "ref": "5643800001"}, "type": "Feature"}
{"geometry": {"coordinates": [-94.867201915, 46.084680587], "type": "Point"}, "id": "aYedBF0V1ECLYTyTy8drphP-mnU=", "properties": {"@source_uri": "https://tools.usps.com/UspsToolsRestServices/rest/POLocator/findLocations", "@spider": "usps_collection_boxes", "addr:city": "BROWERVILLE", "addr:country": "US", "addr:postcode": "56438", "addr:state": "MN", "addr:street_address": "517 MAIN ST S", "amenity": "post_box", "collection_times": "Mo-Fr 13:15; Sa 10:00", "indoor": "yes", "note": "ON 12/24 AND 12/31, THIS BOX MAY BE COLLECTED AS EARLY AS 12 NOON.", "nsi_id": "unitedstatespostalservice-a77078", "operator": "United States Postal Service", "operator:short": "USPS", "operator:type": "public", "operator:wikidata": "Q668687", "ref": "5643800002"}, "type": "Feature"}
{"geometry": {"coordinates": [-94.950513, 46.129799523], "type": "Point"}, "id": "NWneJTp-Lf--kcFhcGkdKm8AF-A=", "properties": {"@source_uri": "https://tools.usps.com/UspsToolsRestServices/rest/POLocator/findLocations", "@spider": "usps_collection_boxes", "addr:city": "CLARISSA", "addr:country": "US", "addr:postcode": "56440", "addr:state": "MN", "addr:street_address": "204 MAIN ST W", "amenity": "post_box", "collection_times": "Mo-Fr 13:15; Sa 08:45", "note": "ON 12/24 AND 12/31, THIS BOX MAY BE COLLECTED AS EARLY AS 12 NOON.", "nsi_id": "unitedstatespostalservice-a77078", "operator": "United States Postal Service", "operator:short": "USPS", "operator:type": "public", "operator:wikidata": "Q668687", "ref": "5644000000"}, "type": "Feature"}
{"geometry": {"coordinates": [-94.950513, 46.129799523], "type": "Point"}, "id": "81MHRXID6cAtRADejwAJRf8_qbU=", "properties": {"@source_uri": "https://tools.usps.com/UspsToolsRestServices/rest/POLocator/findLocations", "@spider": "usps_collection_boxes", "addr:city": "CLARISSA", "addr:country": "US", "addr:postcode": "56440", "addr:state": "MN", "addr:street_address": "204 MAIN ST W", "amenity": "post_box", "collection_times": "Mo-Fr 13:15; Sa 09:00", "indoor": "yes", "note": "ON 12/24 AND 12/31, THIS BOX MAY BE COLLECTED AS EARLY AS 12 NOON.", "nsi_id": "unitedstatespostalservice-a77078", "operator": "United States Postal Service", "operator:short": "USPS", "operator:type": "public", "operator:wikidata": "Q668687", "ref": "5644000001"}, "type": "Feature"}
{"geometry": {"coordinates": [-94.950513, 46.129799523], "type": "Point"}, "id": "8pXMbuCvJFbjFBQ-VqbcSTJwXNw=", "properties": {"@source_uri": "https://tools.usps.com/UspsToolsRestServices/rest/POLocator/findLocations", "@spider": "usps_collection_boxes", "addr:city": "CLARISSA", "addr:country": "US", "addr:postcode": "56440", "addr:state": "MN", "addr:street_address": "204 MAIN ST W", "amenity": "post_box", "collection_times": "Mo-Fr 13:00; Sa 09:00", "indoor": "yes", "note": "ON 12/24 AND 12/31, THIS BOX MAY BE COLLECTED AS EARLY AS 12 NOON.", "nsi_id": "unitedstatespostalservice-a77078", "operator": "United States Postal Service", "operator:short": "USPS", "operator:type": "public", "operator:wikidata": "Q668687", "ref": "5644000002"}, "type": "Feature"}
{"geometry": {"coordinates": [-93.9563325, 46.482452453], "type": "Point"}, "id": "z8RbIZYIk5ADcvluRzlkHzU9_XY=", "properties": {"@source_uri": "https://tools.usps.com/UspsToolsRestServices/rest/POLocator/findLocations", "@spider": "usps_collection_boxes", "addr:city": "CROSBY", "addr:country": "US", "addr:postcode": "56441", "addr:state": "MN", "addr:street_address": "207 W MAIN ST", "amenity": "post_box", "collection_times": "Mo-Fr 14:30; Sa 09:45", "note": "ON 12/24 AND 12/31, THIS BOX MAY BE COLLECTED AS EARLY AS 12 NOON.", "nsi_id": "unitedstatespostalservice-a77078", "operator": "United States Postal Service", "operator:short": "USPS", "operator:type": "public", "operator:wikidata": "Q668687", "ref": "5644100002"}, "type": "Feature"}
{"geometry": {"coordinates": [-93.9563325, 46.482452453], "type": "Point"}, "id": "p_Q-fqhWmpTQn4V6-sTaHpaz7ns=", "properties": {"@source_uri": "https://tools.usps.com/UspsToolsRestServices/rest/POLocator/findLocations", "@spider": "usps_collection_boxes", "addr:city": "CROSBY", "addr:country": "US", "addr:postcode": "56441", "addr:state": "MN", "addr:street_address": "207 W MAIN ST", "amenity": "post_box", "collection_times": "Mo-Fr 14:30; Sa 10:00", "indoor": "yes", "note": "ON 12/24 AND 12/31, THIS BOX MAY BE COLLECTED AS EARLY AS 12 NOON.", "nsi_id": "unitedstatespostalservice-a77078", "operator": "United States Postal Service", "operator:short": "USPS", "operator:type": "public", "operator:wikidata": "Q668687", "ref": "5644100004"}, "type": "Feature"}
{"geometry": {"coordinates": [-93.9563325, 46.482452453], "type": "Point"}, "id": "pFrj9PG462I_eA60OGYKnU8TDZk=", "properties": {"@source_uri": "https://tools.usps.com/UspsToolsRestServices/rest/POLocator/findLocations", "@spider": "usps_collection_boxes", "addr:city": "CROSBY", "addr:country": "US", "addr:postcode": "56441", "addr:state": "MN", "addr:street_address": "207 W MAIN ST", "amenity": "post_box", "collection_times": "Mo-Fr 14:15; Sa 10:00", "indoor": "yes", "note": "ON 12/24 AND 12/31, THIS BOX MAY BE COLLECTED AS EARLY AS 12 NOON.", "nsi_id": "unitedstatespostalservice-a77078", "operator": "United States Postal Service", "operator:short": "USPS", "operator:type": "public", "operator:wikidata": "Q668687", "ref": "5644100005"}, "type": "Feature"}
{"geometry": {"coordinates": [-94.108762971, 46.673161994], "type": "Point"}, "id": "i2vIo3jpImjNml58SP0bFLuu1aM=", "properties": {"@source_uri": "https://tools.usps.com/UspsToolsRestServices/rest/POLocator/findLocations", "@spider": "usps_collection_boxes", "addr:city": "CROSSLAKE", "addr:country": "US", "addr:postcode": "56442", "addr:state": "MN", "addr:street_address": "35860 COUNTY ROAD 66", "amenity": "post_box", "collection_times": "Mo-Fr 13:30; Sa 10:30", "note": "ON 12/24 AND 12/31, THIS BOX MAY BE COLLECTED AS EARLY AS 12 NOON.", "nsi_id": "unitedstatespostalservice-a77078", "operator": "United States Postal Service", "operator:short": "USPS", "operator:type": "public", "operator:wikidata": "Q668687", "ref": "5644200000"}, "type": "Feature"}
{"geometry": {"coordinates": [-94.108762971, 46.673161994], "type": "Point"}, "id": "TbKKYi8Zj6sqvLUa4gi1M0h8eM8=", "properties": {"@source_uri": "https://tools.usps.com/UspsToolsRestServices/rest/POLocator/findLocations", "@spider": "usps_collection_boxes", "addr:city": "CROSSLAKE", "addr:country": "US", "addr:postcode": "56442", "addr:state": "MN", "addr:street_address": "35860 COUNTY ROAD 66", "amenity": "post_box", "collection_times": "Mo-Fr 13:30; Sa 10:30", "indoor": "yes", "note": "ON 12/24 AND 12/31, THIS BOX MAY BE COLLECTED AS EARLY AS 12 NOON.", "nsi_id": "unitedstatespostalservice-a77078", "operator": "United States Postal Service", "operator:short": "USPS", "operator:type": "public", "operator:wikidata": "Q668687", "ref": "5644200001"}, "type": "Feature"}
{"geometry": {"coordinates": [-94.105092159, 46.668224504], "type": "Point"}, "id": "XMHVhnV4FTl6Ffmu6DhWoi1Riww=", "properties": {"@source_uri": "https://tools.usps.com/UspsToolsRestServices/rest/POLocator/findLocations", "@spider": "usps_collection_boxes", "addr:city": "CROSSLAKE", "addr:country": "US", "addr:postcode": "56442", "addr:state": "MN", "addr:street_address": "35561 COUNTY ROAD 3", "amenity": "post_box", "collection_times": "Mo-Sa 12:45", "note": "ON 12/24 AND 12/31, THIS BOX MAY BE COLLECTED AS EARLY AS 12 NOON.", "nsi_id": "unitedstatespostalservice-a77078", "operator": "United States Postal Service", "operator:short": "USPS", "operator:type": "public", "operator:wikidata": "Q668687", "ref": "5644200002"}, "type": "Feature"}
{"geometry": {"coordinates": [-94.108762971, 46.673161994], "type": "Point"}, "id": "ZIfW2oodairht64V_Zpe0Hq8JrE=", "properties": {"@source_uri": "https://tools.usps.com/UspsToolsRestServices/rest/POLocator/findLocations", "@spider": "usps_collection_boxes", "addr:city": "CROSSLAKE", "addr:country": "US", "addr:postcode": "56442", "addr:state": "MN", "addr:street_address": "35860 COUNTY ROAD 66", "amenity": "post_box", "collection_times": "Mo-Fr 13:30; Sa 10:30", "indoor": "yes", "note": "ON 12/24 AND 12/31, THIS BOX MAY BE COLLECTED AS EARLY AS 12 NOON.", "nsi_id": "unitedstatespostalservice-a77078", "operator": "United States Postal Service", "operator:short": "USPS", "operator:type": "public", "operator:wikidata": "Q668687", "ref": "5644200005"}, "type": "Feature"}
{"geometry": {"coordinates": [-94.577340612, 46.138977944], "type": "Point"}, "id": "h71uobVkvaZqmcWr8fLCmRBNuF8=", "properties": {"@source_uri": "https://tools.usps.com/UspsToolsRestServices/rest/POLocator/findLocations", "@spider": "usps_collection_boxes", "addr:city": "CUSHING", "addr:country": "US", "addr:postcode": "56443", "addr:state": "MN", "addr:street_address": "26113 BEAR RD", "amenity": "post_box", "collection_times": "Mo-Fr 11:15; Sa 09:15", "nsi_id": "unitedstatespostalservice-a77078", "operator": "United States Postal Service", "operator:short": "USPS", "operator:type": "public", "operator:wikidata": "Q668687", "ref": "5644300000"}, "type": "Feature"}
{"geometry": {"coordinates": [-94.577340612, 46.138977944], "type": "Point"}, "id": "gWzPBdtUcymuvDNgkBKfUZUjjw8=", "properties": {"@source_uri": "https://tools.usps.com/UspsToolsRestServices/rest/POLocator/findLocations", "@spider": "usps_collection_boxes", "addr:city": "CUSHING", "addr:country": "US", "addr:postcode": "56443", "addr:state": "MN", "addr:street_address": "26113 BEAR RD", "amenity": "post_box", "collection_times": "Mo-Fr 11:30; Sa 09:45", "indoor": "yes", "nsi_id": "unitedstatespostalservice-a77078", "operator": "United States Postal Service", "operator:short": "USPS", "operator:type": "public", "operator:wikidata": "Q668687", "ref": "5644300001"}, "type": "Feature"}
{"geometry": {"coordinates": [-94.642987282, 46.224102367], "type": "Point"}, "id": "Znph4uOFJXwj4KD8bj8-FgD_fm8=", "properties": {"@source_uri": "https://tools.usps.com/UspsToolsRestServices/rest/POLocator/findLocations", "@spider": "usps_collection_boxes", "addr:city": "CUSHING", "addr:country": "US", "addr:postcode": "56443", "addr:state": "MN", "addr:street_address": "1042 320TH ST", "amenity": "post_box", "collection_times": "Mo-Sa 10:30", "nsi_id": "unitedstatespostalservice-a77078", "operator": "United States Postal Service", "operator:short": "USPS", "operator:type": "public", "operator:wikidata": "Q668687", "ref": "5644300002"}, "type": "Feature"}
{"geometry": {"coordinates": [-94.577378626, 46.139040922], "type": "Point"}, "id": "-af_yHkxsyDj5T1kny4j-sbU9Og=", "properties": {"@source_uri": "https://tools.usps.com/UspsToolsRestServices/rest/POLocator/findLocations", "@spider": "usps_collection_boxes", "addr:city": "CUSHING", "addr:country": "US", "addr:postcode": "56443", "addr:state": "MN", "addr:street_address": "26113 BEAR RD", "amenity": "post_box", "collection_times": "Mo-Fr 11:30; Sa 09:30", "indoor": "yes", "nsi_id": "unitedstatespostalservice-a77078", "operator": "United States Postal Service", "operator:short": "USPS", "operator:type": "public", "operator:wikidata": "Q668687", "ref": "5644300004"}, "type": "Feature"}
{"geometry": {"coordinates": [-93.898955834, 46.474876897], "type": "Point"}, "id": "J1M1168f1iPWj8JmASZfFbeuBDI=", "properties": {"@source_uri": "https://tools.usps.com/UspsToolsRestServices/rest/POLocator/findLocations", "@spider": "usps_collection_boxes", "addr:city": "DEERWOOD", "addr:country": "US", "addr:postcode": "56444", "addr:state": "MN", "addr:street_address": "23809 FOREST RD", "amenity": "post_box", "collection_times": "Mo-Fr 14:15; Sa 09:45", "note": "ON 12/24 AND 12/31, THIS BOX MAY BE COLLECTED AS EARLY AS 12 NOON.", "nsi_id": "unitedstatespostalservice-a77078", "operator": "United States Postal Service", "operator:short": "USPS", "operator:type": "public", "operator:wikidata": "Q668687", "ref": "5644400000"}, "type": "Feature"}
{"geometry": {"coordinates": [-93.898955834, 46.474876897], "type": "Point"}, "id": "-b5BieZPRhKAVzr9YHS8YTEZKiU=", "properties": {"@source_uri": "https://tools.usps.com/UspsToolsRestServices/rest/POLocator/findLocations", "@spider": "usps_collection_boxes", "addr:city": "DEERWOOD", "addr:country": "US", "addr:postcode": "56444", "addr:state": "MN", "addr:street_address": "23809 FOREST RD", "amenity": "post_box", "collection_times": "Mo-Fr 14:15; Sa 10:00", "indoor": "yes", "note": "ON 12/24 AND 12/31, THIS BOX MAY BE COLLECTED AS EARLY AS 12 NOON.", "nsi_id": "unitedstatespostalservice-a77078", "operator": "United States Postal Service", "operator:short": "USPS", "operator:type": "public", "operator:wikidata": "Q668687", "ref": "5644400001"}, "type": "Feature"}
{"geometry": {"coordinates": [-93.898955834, 46.474876897], "type": "Point"}, "id": "7c9PE_IxkKy5essy-KuhQVoKJ9g=", "properties": {"@source_uri": "https://tools.usps.com/UspsToolsRestServices/rest/POLocator/findLocations", "@spider": "usps_collection_boxes", "addr:city": "DEERWOOD", "addr:country": "US", "addr:postcode": "56444", "addr:state": "MN", "addr:street_address": "23809 FOREST RD", "amenity": "post_box", "collection_times": "Mo-Fr 14:15; Sa 10:00", "indoor": "yes", "note": "ON 12/24 AND 12/31, THIS BOX MAY BE COLLECTED AS EARLY AS 12 NOON.", "nsi_id": "unitedstatespostalservice-a77078", "operator": "United States Postal Service", "operator:short": "USPS", "operator:type": "public", "operator:wikidata": "Q668687", "ref": "5644400002"}, "type": "Feature"}
{"geometry": {"coordinates": [-95.036741361, 46.164852512], "type": "Point"}, "id": "f06NrURTDnhSibFVnr0-gjYMmjc=", "properties": {"@source_uri": "https://tools.usps.com/UspsToolsRestServices/rest/POLocator/findLocations", "@spider": "usps_collection_boxes", "addr:city": "EAGLE BEND", "addr:country": "US", "addr:postcode": "56446", "addr:state": "MN", "addr:street_address": "103 MAIN ST W", "amenity": "post_box", "collection_times": "Mo-Fr 13:00; Sa 09:45", "note": "ON 12/24 AND 12/31, THIS BOX MAY BE COLLECTED AS EARLY AS 12 NOON.", "nsi_id": "unitedstatespostalservice-a77078", "operator": "United States Postal Service", "operator:short": "USPS", "operator:type": "public", "operator:wikidata": "Q668687", "ref": "5644600000"}, "type": "Feature"}
{"geometry": {"coordinates": [-95.036741361, 46.164852512], "type": "Point"}, "id": "yrryJLVjADL3ny4-Zfzpy1fVaSQ=", "properties": {"@source_uri": "https://tools.usps.com/UspsToolsRestServices/rest/POLocator/findLocations", "@spider": "usps_collection_boxes", "addr:city": "EAGLE BEND", "addr:country": "US", "addr:postcode": "56446", "addr:state": "MN", "addr:street_address": "103 MAIN ST W", "amenity": "post_box", "collection_times": "Mo-Fr 13:00; Sa 10:00", "indoor": "yes", "note": "ON 12/24 AND 12/31, THIS BOX MAY BE COLLECTED AS EARLY AS 12 NOON.", "nsi_id": "unitedstatespostalservice-a77078", "operator": "United States Postal Service", "operator:short": "USPS", "operator:type": "public", "operator:wikidata": "Q668687", "ref": "5644600001"}, "type": "Feature"}
{"geometry": {"coordinates": [-95.036741361, 46.164852512], "type": "Point"}, "id": "JRgVqw6jUchCsHyfnNV10x68O04=", "properties": {"@source_uri": "https://tools.usps.com/UspsToolsRestServices/rest/POLocator/findLocations", "@spider": "usps_collection_boxes", "addr:city": "EAGLE BEND", "addr:country": "US", "addr:postcode": "56446", "addr:state": "MN", "addr:street_address": "103 MAIN ST W", "amenity": "post_box", "collection_times": "Mo-Fr 13:00; Sa 10:00", "indoor": "yes", "note": "ON 12/24 AND 12/31, THIS BOX MAY BE COLLECTED AS EARLY AS 12 NOON.", "nsi_id": "unitedstatespostalservice-a77078", "operator": "United States Postal Service", "operator:short": "USPS", "operator:type": "public", "operator:wikidata": "Q668687", "ref": "5644600002"}, "type": "Feature"}
{"geometry": {"coordinates": [-93.959032668, 46.730969434], "type": "Point"}, "id": "h00T9rwEFFVU_I_m_lY2XPr_ekY=", "properties": {"@source_uri": "https://tools.usps.com/UspsToolsRestServices/rest/POLocator/findLocations", "@spider": "usps_collection_boxes", "addr:city": "EMILY", "addr:country": "US", "addr:postcode": "56447", "addr:state": "MN", "addr:street_address": "20984 CTY RD 1", "amenity": "post_box", "collection_times": "Mo-Fr 13:00; Sa 09:45", "note": "ON 12/24 AND 12/31, THIS BOX MAY BE COLLECTED AS EARLY AS 12 NOON.", "nsi_id": "unitedstatespostalservice-a77078", "operator": "United States Postal Service", "operator:short": "USPS", "operator:type": "public", "operator:wikidata": "Q668687", "ref": "5644700000"}, "type": "Feature"}
{"geometry": {"coordinates": [-93.959032668, 46.730969434], "type": "Point"}, "id": "fnLt0UQhnoHz-mh-JUAhZzjocng=", "properties": {"@source_uri": "https://tools.usps.com/UspsToolsRestServices/rest/POLocator/findLocations", "@spider": "usps_collection_boxes", "addr:city": "EMILY", "addr:country": "US", "addr:postcode": "56447", "addr:state": "MN", "addr:street_address": "20984 CTY RD 1", "amenity": "post_box", "collection_times": "Mo-Fr 13:00", "indoor": "yes", "note": "ON 12/24 AND 12/31, THIS BOX MAY BE COLLECTED AS EARLY AS 12 NOON.", "nsi_id": "unitedstatespostalservice-a77078", "operator": "United States Postal Service", "operator:short": "USPS", "operator:type": "public", "operator:wikidata": "Q668687", "ref": "5644700001"}, "type": "Feature"}
{"geometry": {"coordinates": [-93.959022777, 46.730969434], "type": "Point"}, "id": "iwDE6WX-BxuPLuTmRlPXeqX9eZ4=", "properties": {"@source_uri": "https://tools.usps.com/UspsToolsRestServices/rest/POLocator/findLocations", "@spider": "usps_collection_boxes", "addr:city": "EMILY", "addr:country": "US", "addr:postcode": "56447", "addr:state": "MN", "addr:street_address": "20984 COUNTY ROAD 1", "amenity": "post_box", "collection_times": "Mo-Fr 13:00; Sa 10:00", "indoor": "yes", "note": "ON 12/24 AND 12/31, THIS BOX MAY BE COLLECTED AS EARLY AS 12 NOON.", "nsi_id": "unitedstatespostalservice-a77078", "operator": "United States Postal Service", "operator:short": "USPS", "operator:type": "public", "operator:wikidata": "Q668687", "ref": "5644700002"}, "type": "Feature"}
{"geometry": {"coordinates": [-94.050591492, 46.737655963], "type": "Point"}, "id": "FTZVLAc9J9YQl0UpNMZrbFwZn0c=", "properties": {"@source_uri": "https://tools.usps.com/UspsToolsRestServices/rest/POLocator/findLocations", "@spider": "usps_collection_boxes", "addr:city": "FIFTY LAKES", "addr:country": "US", "addr:postcode": "56448", "addr:state": "MN", "addr:street_address": "40430 COUNTY ROAD 3", "amenity": "post_box", "collection_times": "Mo-Sa 09:00", "nsi_id": "unitedstatespostalservice-a77078", "operator": "United States Postal Service", "operator:short": "USPS", "operator:type": "public", "operator:wikidata": "Q668687", "ref": "5644800000"}, "type": "Feature"}
{"geometry": {"coordinates": [-94.360778434, 46.165857737], "type": "Point"}, "id": "4oIeH7Owr8O5JCFQlHzTMnaT8GQ=", "properties": {"@source_uri": "https://tools.usps.com/UspsToolsRestServices/rest/POLocator/findLocations", "@spider": "usps_collection_boxes", "addr:city": "FORT RIPLEY", "addr:country": "US", "addr:postcode": "56449", "addr:state": "MN", "addr:street_address": "617 FRONT ST", "amenity": "post_box", "collection_times": "Mo-Sa 12:00", "nsi_id": "unitedstatespostalservice-a77078", "operator": "United States Postal Service", "operator:short": "USPS", "operator:type": "public", "operator:wikidata": "Q668687", "ref": "5644900000"}, "type": "Feature"}
{"geometry": {"coordinates": [-94.3609979816, 46.1658469803], "type": "Point"}, "id": "GXyD_ePmfeHNCswp0kF5Z0ynXOQ=", "properties": {"@source_uri": "https://tools.usps.com/UspsToolsRestServices/rest/POLocator/findLocations", "@spider": "usps_collection_boxes", "addr:city": "FORT RIPLEY", "addr:country": "US", "addr:postcode": "56449", "addr:state": "MN", "addr:street_address": "617 FRONT ST", "amenity": "post_box", "collection_times": "Mo-Fr 12:15; Sa 12:30", "indoor": "yes", "note": "ON 12/24 AND 12/31, THIS BOX MAY BE COLLECTED AS EARLY AS 12 NOON.", "nsi_id": "unitedstatespostalservice-a77078", "operator": "United States Postal Service", "operator:short": "USPS", "operator:type": "public", "operator:wikidata": "Q668687", "ref": "5644900001"}, "type": "Feature"}
{"geometry": {"coordinates": [-94.360778434, 46.165857737], "type": "Point"}, "id": "3GJE8VdVFvFiLQHc3ZbLqXI7egw=", "properties": {"@source_uri": "https://tools.usps.com/UspsToolsRestServices/rest/POLocator/findLocations", "@spider": "usps_collection_boxes", "addr:city": "FORT RIPLEY", "addr:country": "US", "addr:postcode": "56449", "addr:state": "MN", "addr:street_address": "617 FRONT ST", "amenity": "post_box", "collection_times": "Mo-Fr 12:15; Sa 12:45", "indoor": "yes", "note": "ON 12/24 AND 12/31, THIS BOX MAY BE COLLECTED AS EARLY AS 12 NOON.", "nsi_id": "unitedstatespostalservice-a77078", "operator": "United States Postal Service", "operator:short": "USPS", "operator:type": "public", "operator:wikidata": "Q668687", "ref": "5644900002"}, "type": "Feature"}
{"geometry": {"coordinates": [-93.826830259, 46.293057754], "type": "Point"}, "id": "Reqjh4zHqfVRjgWr7oLg6Dv1ICg=", "properties": {"@source_uri": "https://tools.usps.com/UspsToolsRestServices/rest/POLocator/findLocations", "@spider": "usps_collection_boxes", "addr:city": "GARRISON", "addr:country": "US", "addr:postcode": "56450", "addr:state": "MN", "addr:street_address": "9424 JEFFERSON ST", "amenity": "post_box", "collection_times": "Mo-Fr 13:45; Sa 11:00", "note": "ON 12/24 AND 12/31, THIS BOX MAY BE COLLECTED AS EARLY AS 12 NOON.", "nsi_id": "unitedstatespostalservice-a77078", "operator": "United States Postal Service", "operator:short": "USPS", "operator:type": "public", "operator:wikidata": "Q668687", "ref": "5645000000"}, "type": "Feature"}
{"geometry": {"coordinates": [-93.826830259, 46.293057754], "type": "Point"}, "id": "XUa5S9Cz-p8OGYWBM29q0dUqrmI=", "properties": {"@source_uri": "https://tools.usps.com/UspsToolsRestServices/rest/POLocator/findLocations", "@spider": "usps_collection_boxes", "addr:city": "GARRISON", "addr:country": "US", "addr:postcode": "56450", "addr:state": "MN", "addr:street_address": "9424 JEFFERSON ST", "amenity": "post_box", "collection_times": "Mo-Fr 13:00; Sa 10:00", "indoor": "yes", "note": "ON 12/24 AND 12/31, THIS BOX MAY BE COLLECTED AS EARLY AS 12 NOON.", "nsi_id": "unitedstatespostalservice-a77078", "operator": "United States Postal Service", "operator:short": "USPS", "operator:type": "public", "operator:wikidata": "Q668687", "ref": "5645000001"}, "type": "Feature"}
{"geometry": {"coordinates": [-93.826830259, 46.293057754], "type": "Point"}, "id": "1k2YNVqybPVeiV-W0phUtYevy0A=", "properties": {"@source_uri": "https://tools.usps.com/UspsToolsRestServices/rest/POLocator/findLocations", "@spider": "usps_collection_boxes", "addr:city": "GARRISON", "addr:country": "US", "addr:postcode": "56450", "addr:state": "MN", "addr:street_address": "9424 JEFFERSON ST", "amenity": "post_box", "collection_times": "Mo-Fr 13:00; Sa 10:00", "indoor": "yes", "note": "ON 12/24 AND 12/31, THIS BOX MAY BE COLLECTED AS EARLY AS 12 NOON.", "nsi_id": "unitedstatespostalservice-a77078", "operator": "United States Postal Service", "operator:short": "USPS", "operator:type": "public", "operator:wikidata": "Q668687", "ref": "5645000002"}, "type": "Feature"}
{"geometry": {"coordinates": [-94.522506509, 46.929508763], "type": "Point"}, "id": "B4bIC8cfbJsJD9f4hRgMZDRVhEM=", "properties": {"@source_uri": "https://tools.usps.com/UspsToolsRestServices/rest/POLocator/findLocations", "@spider": "usps_collection_boxes", "addr:city": "HACKENSACK", "addr:country": "US", "addr:postcode": "56452", "addr:state": "MN", "addr:street_address": "201 1ST ST S", "amenity": "post_box", "collection_times": "Mo-Fr 15:45; Sa 11:00", "note": "ON 12/24 AND 12/31, THIS BOX MAY BE COLLECTED AS EARLY AS 12 NOON.", "nsi_id": "unitedstatespostalservice-a77078", "operator": "United States Postal Service", "operator:short": "USPS", "operator:type": "public", "operator:wikidata": "Q668687", "ref": "5645200000"}, "type": "Feature"}
{"geometry": {"coordinates": [-94.522506509, 46.929508763], "type": "Point"}, "id": "eD3dSSzjmW811JkRLutNAG4kXDs=", "properties": {"@source_uri": "https://tools.usps.com/UspsToolsRestServices/rest/POLocator/findLocations", "@spider": "usps_collection_boxes", "addr:city": "HACKENSACK", "addr:country": "US", "addr:postcode": "56452", "addr:state": "MN", "addr:street_address": "201 1ST ST S", "amenity": "post_box", "collection_times": "Mo-Fr 14:30; Sa 09:45", "indoor": "yes", "note": "ON 12/24 AND 12/31, THIS BOX MAY BE COLLECTED AS EARLY AS 12 NOON.", "nsi_id": "unitedstatespostalservice-a77078", "operator": "United States Postal Service", "operator:short": "USPS", "operator:type": "public", "operator:wikidata": "Q668687", "ref": "5645200002"}, "type": "Feature"}
{"geometry": {"coordinates": [-94.522506509, 46.929508763], "type": "Point"}, "id": "JaleG2X0zfKu60P_D2jTLVFBLC0=", "properties": {"@source_uri": "https://tools.usps.com/UspsToolsRestServices/rest/POLocator/findLocations", "@spider": "usps_collection_boxes", "addr:city": "HACKENSACK", "addr:country": "US", "addr:postcode": "56452", "addr:state": "MN", "addr:street_address": "201 1ST ST S", "amenity": "post_box", "collection_times": "Mo-Fr 14:15; Sa 10:15", "indoor": "yes", "note": "ON 12/24 AND 12/31, THIS BOX MAY BE COLLECTED AS EARLY AS 12 NOON.", "nsi_id": "unitedstatespostalservice-a77078", "operator": "United States Postal Service", "operator:short": "USPS", "operator:type": "public", "operator:wikidata": "Q668687", "ref": "5645200003"}, "type": "Feature"}
{"geometry": {"coordinates": [-95.086915719, 46.325991048], "type": "Point"}, "id": "joBc7Ja6mSBH_2NNVqExjegNjRg=", "properties": {"@source_uri": "https://tools.usps.com/UspsToolsRestServices/rest/POLocator/findLocations", "@spider": "usps_collection_boxes", "addr:city": "HEWITT", "addr:country": "US", "addr:postcode": "56453", "addr:state": "MN", "addr:street_address": "410 N FRONT ST", "amenity": "post_box", "collection_times": "Mo-Fr 11:45; Sa 09:00", "nsi_id": "unitedstatespostalservice-a77078", "operator": "United States Postal Service", "operator:short": "USPS", "operator:type": "public", "operator:wikidata": "Q668687", "ref": "5645300000"}, "type": "Feature"}
{"geometry": {"coordinates": [-95.086915719, 46.325991048], "type": "Point"}, "id": "EWM7zvyBzCbeJDOKoglQE0Ge83s=", "properties": {"@source_uri": "https://tools.usps.com/UspsToolsRestServices/rest/POLocator/findLocations", "@spider": "usps_collection_boxes", "addr:city": "HEWITT", "addr:country": "US", "addr:postcode": "56453", "addr:state": "MN", "addr:street_address": "410 N FRONT ST", "amenity": "post_box", "collection_times": "Mo-Fr 12:00; Sa 09:15", "indoor": "yes", "nsi_id": "unitedstatespostalservice-a77078", "operator": "United States Postal Service", "operator:short": "USPS", "operator:type": "public", "operator:wikidata": "Q668687", "ref": "5645300001"}, "type": "Feature"}
{"geometry": {"coordinates": [-95.086915719, 46.325991048], "type": "Point"}, "id": "eKn-tQKKIGZ1ZuMM2n94IWTfw08=", "properties": {"@source_uri": "https://tools.usps.com/UspsToolsRestServices/rest/POLocator/findLocations", "@spider": "usps_collection_boxes", "addr:city": "HEWITT", "addr:country": "US", "addr:postcode": "56453", "addr:state": "MN", "addr:street_address": "410 N FRONT ST", "amenity": "post_box", "collection_times": "Mo-Fr 12:00; Sa 09:15", "indoor": "yes", "nsi_id": "unitedstatespostalservice-a77078", "operator": "United States Postal Service", "operator:short": "USPS", "operator:type": "public", "operator:wikidata": "Q668687", "ref": "5645300002"}, "type": "Feature"}
{"geometry": {"coordinates": [-93.973745619, 46.477485834], "type": "Point"}, "id": "6gOLYTFSrY1KjosH13ktpSyR4FE=", "properties": {"@source_uri": "https://tools.usps.com/UspsToolsRestServices/rest/POLocator/findLocations", "@spider": "usps_collection_boxes", "addr:city": "IRONTON", "addr:country": "US", "addr:postcode": "56455", "addr:state": "MN", "addr:street_address": "115 4TH ST", "amenity": "post_box", "collection_times": "Mo-Fr 13:15; Sa 09:15", "note": "ON 12/24 AND 12/31, THIS BOX MAY BE COLLECTED AS EARLY AS 12 NOON.", "nsi_id": "unitedstatespostalservice-a77078", "operator": "United States Postal Service", "operator:short": "USPS", "operator:type": "public", "operator:wikidata": "Q668687", "ref": "5645500000"}, "type": "Feature"}
{"geometry": {"coordinates": [-93.973745619, 46.477485834], "type": "Point"}, "id": "R9LBVGBQ2HwNKaOpJLlZDeT38oU=", "properties": {"@source_uri": "https://tools.usps.com/UspsToolsRestServices/rest/POLocator/findLocations", "@spider": "usps_collection_boxes", "addr:city": "IRONTON", "addr:country": "US", "addr:postcode": "56455", "addr:state": "MN", "addr:street_address": "115 4TH ST", "amenity": "post_box", "collection_times": "Mo-Fr 13:45; Sa 09:30", "indoor": "yes", "note": "ON 12/24 AND 12/31, THIS BOX MAY BE COLLECTED AS EARLY AS 12 NOON.", "nsi_id": "unitedstatespostalservice-a77078", "operator": "United States Postal Service", "operator:short": "USPS", "operator:type": "public", "operator:wikidata": "Q668687", "ref": "5645500001"}, "type": "Feature"}
{"geometry": {"coordinates": [-93.973745619, 46.477485834], "type": "Point"}, "id": "5sOxcpSnKNUFH-EGkvcXVgQ-cQ8=", "properties": {"@source_uri": "https://tools.usps.com/UspsToolsRestServices/rest/POLocator/findLocations", "@spider": "usps_collection_boxes", "addr:city": "IRONTON", "addr:country": "US", "addr:postcode": "56455", "addr:state": "MN", "addr:street_address": "115 4TH ST", "amenity": "post_box", "collection_times": "Mo-Fr 13:45; Sa 09:30", "indoor": "yes", "note": "ON 12/24 AND 12/31, THIS BOX MAY BE COLLECTED AS EARLY AS 12 NOON.", "nsi_id": "unitedstatespostalservice-a77078", "operator": "United States Postal Service", "operator:short": "USPS", "operator:type": "public", "operator:wikidata": "Q668687", "ref": "5645500002"}, "type": "Feature"}
{"geometry": {"coordinates": [-94.993928213, 47.200853506], "type": "Point"}, "id": "edO3SBtt-p3xh9hOFqM7of8Ytmk=", "properties": {"@source_uri": "https://tools.usps.com/UspsToolsRestServices/rest/POLocator/findLocations", "@spider": "usps_collection_boxes", "addr:city": "LAKE GEORGE", "addr:country": "US", "addr:postcode": "56458", "addr:state": "MN", "addr:street_address": "37307 COUNTY 4", "amenity": "post_box", "collection_times": "Mo-Sa 13:00", "note": "ON 12/24 AND 12/31, THIS BOX MAY BE COLLECTED AS EARLY AS 12 NOON.", "nsi_id": "unitedstatespostalservice-a77078", "operator": "United States Postal Service", "operator:short": "USPS", "operator:type": "public", "operator:wikidata": "Q668687", "ref": "5645800000"}, "type": "Feature"}
{"geometry": {"coordinates": [-94.993928213, 47.200853506], "type": "Point"}, "id": "G9HKfViMhOzKdXY5bZl1meOHJOk=", "properties": {"@source_uri": "https://tools.usps.com/UspsToolsRestServices/rest/POLocator/findLocations", "@spider": "usps_collection_boxes", "addr:city": "LAKE GEORGE", "addr:country": "US", "addr:postcode": "56458", "addr:state": "MN", "addr:street_address": "37307 COUNTY 4", "amenity": "post_box", "collection_times": "Mo-Sa 13:00", "indoor": "yes", "note": "ON 12/24 AND 12/31, THIS BOX MAY BE COLLECTED AS EARLY AS 12 NOON.", "nsi_id": "unitedstatespostalservice-a77078", "operator": "United States Postal Service", "operator:short": "USPS", "operator:type": "public", "operator:wikidata": "Q668687", "ref": "5645800001"}, "type": "Feature"}
{"geometry": {"coordinates": [-94.993928213, 47.200853506], "type": "Point"}, "id": "9uHtGW-55rWnzYLwYSofZIcPlP8=", "properties": {"@source_uri": "https://tools.usps.com/UspsToolsRestServices/rest/POLocator/findLocations", "@spider": "usps_collection_boxes", "addr:city": "LAKE GEORGE", "addr:country": "US", "addr:postcode": "56458", "addr:state": "MN", "addr:street_address": "37307 COUNTY 4", "amenity": "post_box", "collection_times": "Mo-Sa 13:00", "indoor": "yes", "note": "ON 12/24 AND 12/31, THIS BOX MAY BE COLLECTED AS EARLY AS 12 NOON.", "nsi_id": "unitedstatespostalservice-a77078", "operator": "United States Postal Service", "operator:short": "USPS", "operator:type": "public", "operator:wikidata": "Q668687", "ref": "5645800002"}, "type": "Feature"}
{"geometry": {"coordinates": [-94.751643818, 47.214642571], "type": "Point"}, "id": "DFIYrajMF3HMCqmb6g9birHbL84=", "properties": {"@source_uri": "https://tools.usps.com/UspsToolsRestServices/rest/POLocator/findLocations", "@spider": "usps_collection_boxes", "addr:city": "LAPORTE", "addr:country": "US", "addr:postcode": "56461", "addr:state": "MN", "addr:street_address": "80 MAIN ST E", "amenity": "post_box", "collection_times": "Mo-Fr 13:15; Sa 10:00", "note": "ON 12/24 AND 12/31, THIS BOX MAY BE COLLECTED AS EARLY AS 12 NOON.", "nsi_id": "unitedstatespostalservice-a77078", "operator": "United States Postal Service", "operator:short": "USPS", "operator:type": "public", "operator:wikidata": "Q668687", "ref": "5646100000"}, "type": "Feature"}
{"geometry": {"coordinates": [-94.751643818, 47.214642571], "type": "Point"}, "id": "EMjcHE7yvqNFFU9nW5CzDmrAg30=", "properties": {"@source_uri": "https://tools.usps.com/UspsToolsRestServices/rest/POLocator/findLocations", "@spider": "usps_collection_boxes", "addr:city": "LAPORTE", "addr:country": "US", "addr:postcode": "56461", "addr:state": "MN", "addr:street_address": "80 MAIN ST E", "amenity": "post_box", "collection_times": "Mo-Fr 13:15; Sa 10:00", "indoor": "yes", "note": "ON 12/24 AND 12/31, THIS BOX MAY BE COLLECTED AS EARLY AS 12 NOON.", "nsi_id": "unitedstatespostalservice-a77078", "operator": "United States Postal Service", "operator:short": "USPS", "operator:type": "public", "operator:wikidata": "Q668687", "ref": "5646100001"}, "type": "Feature"}
{"geometry": {"coordinates": [-94.751643818, 47.214642571], "type": "Point"}, "id": "C-DPfz7_x_ShS9TM1a3M-qs5d6c=", "properties": {"@source_uri": "https://tools.usps.com/UspsToolsRestServices/rest/POLocator/findLocations", "@spider": "usps_collection_boxes", "addr:city": "LAPORTE", "addr:country": "US", "addr:postcode": "56461", "addr:state": "MN", "addr:street_address": "80 MAIN ST E", "amenity": "post_box", "collection_times": "Mo-Fr 13:30", "indoor": "yes", "note": "ON 12/24 AND 12/31, THIS BOX MAY BE COLLECTED AS EARLY AS 12 NOON.", "nsi_id": "unitedstatespostalservice-a77078", "operator": "United States Postal Service", "operator:short": "USPS", "operator:type": "public", "operator:wikidata": "Q668687", "ref": "5646100002"}, "type": "Feature"}
{"geometry": {"coordinates": [-95.096903009, 46.754308196], "type": "Point"}, "id": "QEPVd8zTu0-Rl2WNUJCUGKJhFAE=", "properties": {"@source_uri": "https://tools.usps.com/UspsToolsRestServices/rest/POLocator/findLocations", "@spider": "usps_collection_boxes", "addr:city": "MENAHGA", "addr:country": "US", "addr:postcode": "56464", "addr:state": "MN", "addr:street_address": "22 MAIN ST SE", "amenity": "post_box", "collection_times": "Mo-Fr 15:45; Sa 11:00", "note": "ON 12/24 AND 12/31, THIS BOX MAY BE COLLECTED AS EARLY AS 12 NOON.", "nsi_id": "unitedstatespostalservice-a77078", "operator": "United States Postal Service", "operator:short": "USPS", "operator:type": "public", "operator:wikidata": "Q668687", "ref": "5646400000"}, "type": "Feature"}
{"geometry": {"coordinates": [-95.096903009, 46.754308196], "type": "Point"}, "id": "oSFW3HMn_N4hQ36f2uPfjzkgB_I=", "properties": {"@source_uri": "https://tools.usps.com/UspsToolsRestServices/rest/POLocator/findLocations", "@spider": "usps_collection_boxes", "addr:city": "MENAHGA", "addr:country": "US", "addr:postcode": "56464", "addr:state": "MN", "addr:street_address": "22 MAIN ST SE", "amenity": "post_box", "collection_times": "Mo-Fr 13:15; Sa 10:00", "indoor": "yes", "note": "ON 12/24 AND 12/31, THIS BOX MAY BE COLLECTED AS EARLY AS 12 NOON.", "nsi_id": "unitedstatespostalservice-a77078", "operator": "United States Postal Service", "operator:short": "USPS", "operator:type": "public", "operator:wikidata": "Q668687", "ref": "5646400001"}, "type": "Feature"}
{"geometry": {"coordinates": [-95.096903009, 46.754308196], "type": "Point"}, "id": "TYYCQWKgnGZgSqgip-fvw3fSXi8=", "properties": {"@source_uri": "https://tools.usps.com/UspsToolsRestServices/rest/POLocator/findLocations", "@spider": "usps_collection_boxes", "addr:city": "MENAHGA", "addr:country": "US", "addr:postcode": "56464", "addr:state": "MN", "addr:street_address": "22 MAIN ST SE", "amenity": "post_box", "collection_times": "Mo-Fr 13:00; Sa 11:00", "indoor": "yes", "note": "ON 12/24 AND 12/31, THIS BOX MAY BE COLLECTED AS EARLY AS 12 NOON.", "nsi_id": "unitedstatespostalservice-a77078", "operator": "United States Postal Service", "operator:short": "USPS", "operator:type": "public", "operator:wikidata": "Q668687", "ref": "5646400002"}, "type": "Feature"}
{"geometry": {"coordinates": [-94.171733581, 46.463478518], "type": "Point"}, "id": "BXYpJOBkp7xMs2240ZtKJmibd_4=", "properties": {"@source_uri": "https://tools.usps.com/UspsToolsRestServices/rest/POLocator/findLocations", "@spider": "usps_collection_boxes", "addr:city": "MERRIFIELD", "addr:country": "US", "addr:postcode": "56465", "addr:state": "MN", "addr:street_address": "11029 CRYSTAL LAKE RD", "amenity": "post_box", "collection_times": "Mo-Fr 14:45; Sa 08:45", "note": "ON 12/24 AND 12/31, THIS BOX MAY BE COLLECTED AS EARLY AS 12 NOON.", "nsi_id": "unitedstatespostalservice-a77078", "operator": "United States Postal Service", "operator:short": "USPS", "operator:type": "public", "operator:wikidata": "Q668687", "ref": "5646500000"}, "type": "Feature"}
{"geometry": {"coordinates": [-94.171733581, 46.463478518], "type": "Point"}, "id": "qNGT1KWZoPL5Q3HQHwn0F2Lwcec=", "properties": {"@source_uri": "https://tools.usps.com/UspsToolsRestServices/rest/POLocator/findLocations", "@spider": "usps_collection_boxes", "addr:city": "MERRIFIELD", "addr:country": "US", "addr:postcode": "56465", "addr:state": "MN", "addr:street_address": "11029 CRYSTAL LAKE RD", "amenity": "post_box", "collection_times": "Mo-Fr 14:45; Sa 09:00", "indoor": "yes", "note": "ON 12/24 AND 12/31, THIS BOX MAY BE COLLECTED AS EARLY AS 12 NOON.", "nsi_id": "unitedstatespostalservice-a77078", "operator": "United States Postal Service", "operator:short": "USPS", "operator:type": "public", "operator:wikidata": "Q668687", "ref": "5646500001"}, "type": "Feature"}
{"geometry": {"coordinates": [-94.171733581, 46.463478518], "type": "Point"}, "id": "pWS2UDUEfdR6j0TXdMoXpiwP_9c=", "properties": {"@source_uri": "https://tools.usps.com/UspsToolsRestServices/rest/POLocator/findLocations", "@spider": "usps_collection_boxes", "addr:city": "MERRIFIELD", "addr:country": "US", "addr:postcode": "56465", "addr:state": "MN", "addr:street_address": "11029 CRYSTAL LAKE RD", "amenity": "post_box", "collection_times": "Mo-Fr 14:45; Sa 09:00", "indoor": "yes", "note": "ON 12/24 AND 12/31, THIS BOX MAY BE COLLECTED AS EARLY AS 12 NOON.", "nsi_id": "unitedstatespostalservice-a77078", "operator": "United States Postal Service", "operator:short": "USPS", "operator:type": "public", "operator:wikidata": "Q668687", "ref": "5646500002"}, "type": "Feature"}
{"geometry": {"coordinates": [-94.647419471, 46.336820446], "type": "Point"}, "id": "CwNwY-juAxMt6zSr3GOalIflVGs=", "properties": {"@source_uri": "https://tools.usps.com/UspsToolsRestServices/rest/POLocator/findLocations", "@spider": "usps_collection_boxes", "addr:city": "MOTLEY", "addr:country": "US", "addr:postcode": "56466", "addr:state": "MN", "addr:street_address": "97 BEAULIEU ST W", "amenity": "post_box", "collection_times": "Mo-Fr 14:45; Sa 09:15", "note": "ON 12/24 AND 12/31, THIS BOX MAY BE COLLECTED AS EARLY AS 12 NOON.", "nsi_id": "unitedstatespostalservice-a77078", "operator": "United States Postal Service", "operator:short": "USPS", "operator:type": "public", "operator:wikidata": "Q668687", "ref": "5646600000"}, "type": "Feature"}
{"geometry": {"coordinates": [-94.647419471, 46.336820446], "type": "Point"}, "id": "38U0gg_Hka0hiG1VA81lxiIoj0g=", "properties": {"@source_uri": "https://tools.usps.com/UspsToolsRestServices/rest/POLocator/findLocations", "@spider": "usps_collection_boxes", "addr:city": "MOTLEY", "addr:country": "US", "addr:postcode": "56466", "addr:state": "MN", "addr:street_address": "97 BEAULIEU ST", "amenity": "post_box", "collection_times": "Mo-Fr 14:45", "indoor": "yes", "note": "ON 12/24 AND 12/31, THIS BOX MAY BE COLLECTED AS EARLY AS 12 NOON.", "nsi_id": "unitedstatespostalservice-a77078", "operator": "United States Postal Service", "operator:short": "USPS", "operator:type": "public", "operator:wikidata": "Q668687", "ref": "5646600002"}, "type": "Feature"}
{"geometry": {"coordinates": [-94.645009048, 46.336563449], "type": "Point"}, "id": "zICHiJ3eXrbyAYdBTb42hYGOy8o=", "properties": {"@source_uri": "https://tools.usps.com/UspsToolsRestServices/rest/POLocator/findLocations", "@spider": "usps_collection_boxes", "addr:city": "MOTLEY", "addr:country": "US", "addr:postcode": "56466", "addr:state": "MN", "addr:street_address": "97 BEAULIEU ST", "amenity": "post_box", "collection_times": "Mo-Fr 14:45; Sa 09:30", "indoor": "yes", "note": "ON 12/24 AND 12/31, THIS BOX MAY BE COLLECTED AS EARLY AS 12 NOON.", "nsi_id": "unitedstatespostalservice-a77078", "operator": "United States Postal Service", "operator:short": "USPS", "operator:type": "public", "operator:wikidata": "Q668687", "ref": "5646600004"}, "type": "Feature"}
{"geometry": {"coordinates": [-94.843083693, 46.964600488], "type": "Point"}, "id": "tiVqLDvDz8xAEnA5ZuetuqjmK2U=", "properties": {"@source_uri": "https://tools.usps.com/UspsToolsRestServices/rest/POLocator/findLocations", "@spider": "usps_collection_boxes", "addr:city": "NEVIS", "addr:country": "US", "addr:postcode": "56467", "addr:state": "MN", "addr:street_address": "107 MAIN ST", "amenity": "post_box", "collection_times": "Mo-Fr 15:45; Sa 11:00", "note": "ON 12/24 AND 12/31, THIS BOX MAY BE COLLECTED AS EARLY AS 12 NOON.", "nsi_id": "unitedstatespostalservice-a77078", "operator": "United States Postal Service", "operator:short": "USPS", "operator:type": "public", "operator:wikidata": "Q668687", "ref": "5646700000"}, "type": "Feature"}
{"geometry": {"coordinates": [-94.843083693, 46.964600488], "type": "Point"}, "id": "-m0PVNfBy2qV-CiMD0qad7F8Hpc=", "properties": {"@source_uri": "https://tools.usps.com/UspsToolsRestServices/rest/POLocator/findLocations", "@spider": "usps_collection_boxes", "addr:city": "NEVIS", "addr:country": "US", "addr:postcode": "56467", "addr:state": "MN", "addr:street_address": "107 MAIN ST", "amenity": "post_box", "collection_times": "Mo-Fr 12:15; Sa 10:00", "indoor": "yes", "note": "ON 12/24 AND 12/31, THIS BOX MAY BE COLLECTED AS EARLY AS 12 NOON.", "nsi_id": "unitedstatespostalservice-a77078", "operator": "United States Postal Service", "operator:short": "USPS", "operator:type": "public", "operator:wikidata": "Q668687", "ref": "5646700002"}, "type": "Feature"}
{"geometry": {"coordinates": [-94.843083693, 46.964600488], "type": "Point"}, "id": "Rmzyi4M3x6jRv9OB7K0s3ufLwrY=", "properties": {"@source_uri": "https://tools.usps.com/UspsToolsRestServices/rest/POLocator/findLocations", "@spider": "usps_collection_boxes", "addr:city": "NEVIS", "addr:country": "US", "addr:postcode": "56467", "addr:state": "MN", "addr:street_address": "107 MAIN ST", "amenity": "post_box", "collection_times": "Mo-Fr 12:15; Sa 10:00", "indoor": "yes", "note": "ON 12/24 AND 12/31, THIS BOX MAY BE COLLECTED AS EARLY AS 12 NOON.", "nsi_id": "unitedstatespostalservice-a77078", "operator": "United States Postal Service", "operator:short": "USPS", "operator:type": "public", "operator:wikidata": "Q668687", "ref": "5646700003"}, "type": "Feature"}
{"geometry": {"coordinates": [-94.289667988, 46.521576052], "type": "Point"}, "id": "IYV7Ga7Kk8g_S7rEyuCsjGZNq7A=", "properties": {"@source_uri": "https://tools.usps.com/UspsToolsRestServices/rest/POLocator/findLocations", "@spider": "usps_collection_boxes", "addr:city": "NISSWA", "addr:country": "US", "addr:postcode": "56468", "addr:state": "MN", "addr:street_address": "25551 MAIN ST", "amenity": "post_box", "collection_times": "Mo-Fr 14:15; Sa 10:30", "note": "ON 12/24 AND 12/31, THIS BOX MAY BE COLLECTED AS EARLY AS 12 NOON.", "nsi_id": "unitedstatespostalservice-a77078", "operator": "United States Postal Service", "operator:short": "USPS", "operator:type": "public", "operator:wikidata": "Q668687", "ref": "5646800000"}, "type": "Feature"}
{"geometry": {"coordinates": [-94.297723634, 46.49917324], "type": "Point"}, "id": "-b_W3pu7V62aSAaCA0nB_E_7mIc=", "properties": {"@source_uri": "https://tools.usps.com/UspsToolsRestServices/rest/POLocator/findLocations", "@spider": "usps_collection_boxes", "addr:city": "NISSWA", "addr:country": "US", "addr:postcode": "56468", "addr:state": "MN", "addr:street_address": "23962 SMILEY RD", "amenity": "post_box", "collection_times": "Mo-Sa 12:00", "nsi_id": "unitedstatespostalservice-a77078", "operator": "United States Postal Service", "operator:short": "USPS", "operator:type": "public", "operator:wikidata": "Q668687", "ref": "5646800002"}, "type": "Feature"}
{"geometry": {"coordinates": [-94.289667988, 46.521576052], "type": "Point"}, "id": "ulWkbDMZgIL--2L6ju8NKgPcIGI=", "properties": {"@source_uri": "https://tools.usps.com/UspsToolsRestServices/rest/POLocator/findLocations", "@spider": "usps_collection_boxes", "addr:city": "NISSWA", "addr:country": "US", "addr:postcode": "56468", "addr:state": "MN", "addr:street_address": "25551 MAIN ST", "amenity": "post_box", "collection_times": "Mo-Fr 14:15; Sa 10:30", "indoor": "yes", "note": "ON 12/24 AND 12/31, THIS BOX MAY BE COLLECTED AS EARLY AS 12 NOON.", "nsi_id": "unitedstatespostalservice-a77078", "operator": "United States Postal Service", "operator:short": "USPS", "operator:type": "public", "operator:wikidata": "Q668687", "ref": "5646800003"}, "type": "Feature"}
{"geometry": {"coordinates": [-94.289667988, 46.521576052], "type": "Point"}, "id": "rKGYBZsXRa31QZbc_4JcDUWW2vY=", "properties": {"@source_uri": "https://tools.usps.com/UspsToolsRestServices/rest/POLocator/findLocations", "@spider": "usps_collection_boxes", "addr:city": "NISSWA", "addr:country": "US", "addr:postcode": "56468", "addr:state": "MN", "addr:street_address": "25551 MAIN ST", "amenity": "post_box", "collection_times": "Mo-Fr 14:15; Sa 10:30", "indoor": "yes", "note": "ON 12/24 AND 12/31, THIS BOX MAY BE COLLECTED AS EARLY AS 12 NOON.", "nsi_id": "unitedstatespostalservice-a77078", "operator": "United States Postal Service", "operator:short": "USPS", "operator:type": "public", "operator:wikidata": "Q668687", "ref": "5646800006"}, "type": "Feature"}
{"geometry": {"coordinates": [-93.489786, 46.713465], "type": "Point"}, "id": "4LUwssyLbmNBWBEYAAq4iFxc4DE=", "properties": {"@source_uri": "https://tools.usps.com/UspsToolsRestServices/rest/POLocator/findLocations", "@spider": "usps_collection_boxes", "addr:city": "PALISADE", "addr:country": "US", "addr:postcode": "56469", "addr:state": "MN", "addr:street_address": "301 MAIN ST", "amenity": "post_box", "collection_times": "Mo-Fr 11:15; Sa 09:15", "nsi_id": "unitedstatespostalservice-a77078", "operator": "United States Postal Service", "operator:short": "USPS", "operator:type": "public", "operator:wikidata": "Q668687", "ref": "5646900000"}, "type": "Feature"}
{"geometry": {"coordinates": [-93.489936677, 46.713341323], "type": "Point"}, "id": "3SpjPqBoKtA9yqd-We1sD9eLkh0=", "properties": {"@source_uri": "https://tools.usps.com/UspsToolsRestServices/rest/POLocator/findLocations", "@spider": "usps_collection_boxes", "addr:city": "PALISADE", "addr:country": "US", "addr:postcode": "56469", "addr:state": "MN", "addr:street_address": "301 MAIN ST", "amenity": "post_box", "collection_times": "Mo-Fr 11:30", "indoor": "yes", "nsi_id": "unitedstatespostalservice-a77078", "operator": "United States Postal Service", "operator:short": "USPS", "operator:type": "public", "operator:wikidata": "Q668687", "ref": "5646900001"}, "type": "Feature"}
{"geometry": {"coordinates": [-93.489936677, 46.713341323], "type": "Point"}, "id": "E8kQCwymVyctiqO9mlduCJEXhX4=", "properties": {"@source_uri": "https://tools.usps.com/UspsToolsRestServices/rest/POLocator/findLocations", "@spider": "usps_collection_boxes", "addr:city": "PALISADE", "addr:country": "US", "addr:postcode": "56469", "addr:state": "MN", "addr:street_address": "301 MAIN ST", "amenity": "post_box", "collection_times": "Mo-Fr 11:30; Sa 09:30", "indoor": "yes", "nsi_id": "unitedstatespostalservice-a77078", "operator": "United States Postal Service", "operator:short": "USPS", "operator:type": "public", "operator:wikidata": "Q668687", "ref": "5646900002"}, "type": "Feature"}
{"geometry": {"coordinates": [-95.061062247, 46.922139468], "type": "Point"}, "id": "316xPJ0tF036GIPq3ZSYAPDB_Dk=", "properties": {"@source_uri": "https://tools.usps.com/UspsToolsRestServices/rest/POLocator/findLocations", "@spider": "usps_collection_boxes", "addr:city": "PARK RAPIDS", "addr:country": "US", "addr:postcode": "56470", "addr:state": "MN", "addr:street_address": "209 1ST ST W", "amenity": "post_box", "collection_times": "Mo-Fr 11:00; Sa 10:00", "nsi_id": "unitedstatespostalservice-a77078", "operator": "United States Postal Service", "operator:short": "USPS", "operator:type": "public", "operator:wikidata": "Q668687", "ref": "5647000001"}, "type": "Feature"}
{"geometry": {"coordinates": [-95.058483292, 46.919965192], "type": "Point"}, "id": "QbqSSInW-_xkSJ1N9RDeGatUyEU=", "properties": {"@source_uri": "https://tools.usps.com/UspsToolsRestServices/rest/POLocator/findLocations", "@spider": "usps_collection_boxes", "addr:city": "PARK RAPIDS", "addr:country": "US", "addr:postcode": "56470", "addr:state": "MN", "addr:street_address": "301 PARK AVE S", "amenity": "post_box", "collection_times": "Mo-Sa 12:45", "note": "ON 12/24 AND 12/31, THIS BOX MAY BE COLLECTED AS EARLY AS 12 NOON.", "nsi_id": "unitedstatespostalservice-a77078", "operator": "United States Postal Service", "operator:short": "USPS", "operator:type": "public", "operator:wikidata": "Q668687", "ref": "5647000003"}, "type": "Feature"}
{"geometry": {"coordinates": [-95.058483292, 46.919965192], "type": "Point"}, "id": "Gv3h5oSvYNAE6e0becw85lrg2pM=", "properties": {"@source_uri": "https://tools.usps.com/UspsToolsRestServices/rest/POLocator/findLocations", "@spider": "usps_collection_boxes", "addr:city": "PARK RAPIDS", "addr:country": "US", "addr:postcode": "56470", "addr:state": "MN", "addr:street_address": "301 PARK AVE S", "amenity": "post_box", "collection_times": "Mo-Sa 12:45", "indoor": "yes", "note": "ON 12/24 AND 12/31, THIS BOX MAY BE COLLECTED AS EARLY AS 12 NOON.", "nsi_id": "unitedstatespostalservice-a77078", "operator": "United States Postal Service", "operator:short": "USPS", "operator:type": "public", "operator:wikidata": "Q668687", "ref": "5647000006"}, "type": "Feature"}
{"geometry": {"coordinates": [-95.058483292, 46.919965192], "type": "Point"}, "id": "POektT0ycuLyg0D4jQTUSqD4EM8=", "properties": {"@source_uri": "https://tools.usps.com/UspsToolsRestServices/rest/POLocator/findLocations", "@spider": "usps_collection_boxes", "addr:city": "PARK RAPIDS", "addr:country": "US", "addr:postcode": "56470", "addr:state": "MN", "addr:street_address": "301 PARK AVE S", "amenity": "post_box", "collection_times": "Mo-Fr 12:45; Sa 12:00", "indoor": "yes", "note": "ON 12/24 AND 12/31, THIS BOX MAY BE COLLECTED AS EARLY AS 12 NOON.", "nsi_id": "unitedstatespostalservice-a77078", "operator": "United States Postal Service", "operator:short": "USPS", "operator:type": "public", "operator:wikidata": "Q668687", "ref": "5647000013"}, "type": "Feature"}
{"geometry": {"coordinates": [-94.219393975, 46.590939], "type": "Point"}, "id": "ARNVSjbfz6oth-feg3g_QbPkzWw=", "properties": {"@source_uri": "https://tools.usps.com/UspsToolsRestServices/rest/POLocator/findLocations", "@spider": "usps_collection_boxes", "addr:city": "PEQUOT LAKES", "addr:country": "US", "addr:postcode": "56472", "addr:state": "MN", "addr:street_address": "30211 COUNTY ROAD 4", "amenity": "post_box", "collection_times": "Mo-Sa 12:00", "nsi_id": "unitedstatespostalservice-a77078", "operator": "United States Postal Service", "operator:short": "USPS", "operator:type": "public", "operator:wikidata": "Q668687", "ref": "5647200001"}, "type": "Feature"}
{"geometry": {"coordinates": [-94.31419763, 46.602502292], "type": "Point"}, "id": "o0a2NRwJLhKKbyNwqWI1m_K2iDc=", "properties": {"@source_uri": "https://tools.usps.com/UspsToolsRestServices/rest/POLocator/findLocations", "@spider": "usps_collection_boxes", "addr:city": "PEQUOT LAKES", "addr:country": "US", "addr:postcode": "56472", "addr:state": "MN", "addr:street_address": "4294 MAIN ST", "amenity": "post_box", "collection_times": "Mo-Fr 14:00; Sa 11:00", "indoor": "yes", "note": "ON 12/24 AND 12/31, THIS BOX MAY BE COLLECTED AS EARLY AS 12 NOON.", "nsi_id": "unitedstatespostalservice-a77078", "operator": "United States Postal Service", "operator:short": "USPS", "operator:type": "public", "operator:wikidata": "Q668687", "ref": "5647200002"}, "type": "Feature"}
{"geometry": {"coordinates": [-94.31419763, 46.602502292], "type": "Point"}, "id": "qcvr-RErT7IBtl4Bm5mFih6DYtI=", "properties": {"@source_uri": "https://tools.usps.com/UspsToolsRestServices/rest/POLocator/findLocations", "@spider": "usps_collection_boxes", "addr:city": "PEQUOT LAKES", "addr:country": "US", "addr:postcode": "56472", "addr:state": "MN", "addr:street_address": "4294 MAIN ST", "amenity": "post_box", "collection_times": "Mo-Fr 14:00; Sa 11:00", "note": "ON 12/24 AND 12/31, THIS BOX MAY BE COLLECTED AS EARLY AS 12 NOON.", "nsi_id": "unitedstatespostalservice-a77078", "operator": "United States Postal Service", "operator:short": "USPS", "operator:type": "public", "operator:wikidata": "Q668687", "ref": "5647200003"}, "type": "Feature"}
{"geometry": {"coordinates": [-94.31419763, 46.602502292], "type": "Point"}, "id": "bwez-pgRtGJRjLQYggq2guDmysQ=", "properties": {"@source_uri": "https://tools.usps.com/UspsToolsRestServices/rest/POLocator/findLocations", "@spider": "usps_collection_boxes", "addr:city": "PEQUOT LAKES", "addr:country": "US", "addr:postcode": "56472", "addr:state": "MN", "addr:street_address": "4294 MAIN ST", "amenity": "post_box", "collection_times": "Mo-Fr 14:00; Sa 11:00", "indoor": "yes", "note": "ON 12/24 AND 12/31, THIS BOX MAY BE COLLECTED AS EARLY AS 12 NOON.", "nsi_id": "unitedstatespostalservice-a77078", "operator": "United States Postal Service", "operator:short": "USPS", "operator:type": "public", "operator:wikidata": "Q668687", "ref": "5647200004"}, "type": "Feature"}
{"geometry": {"coordinates": [-94.474226079, 46.329431912], "type": "Point"}, "id": "sR6d75zkSKCCG1U3cNFmaDTAPLE=", "properties": {"@source_uri": "https://tools.usps.com/UspsToolsRestServices/rest/POLocator/findLocations", "@spider": "usps_collection_boxes", "addr:city": "PILLAGER", "addr:country": "US", "addr:postcode": "56473", "addr:state": "MN", "addr:street_address": "123 CEDAR AVE E", "amenity": "post_box", "collection_times": "Mo-Fr 15:45; Sa 09:15", "note": "ON 12/24 AND 12/31, THIS BOX MAY BE COLLECTED AS EARLY AS 12 NOON.", "nsi_id": "unitedstatespostalservice-a77078", "operator": "United States Postal Service", "operator:short": "USPS", "operator:type": "public", "operator:wikidata": "Q668687", "ref": "5647300000"}, "type": "Feature"}
{"geometry": {"coordinates": [-94.474226079, 46.329431912], "type": "Point"}, "id": "LMoeAeZstCVwECQ322D4B8I_Pl0=", "properties": {"@source_uri": "https://tools.usps.com/UspsToolsRestServices/rest/POLocator/findLocations", "@spider": "usps_collection_boxes", "addr:city": "PILLAGER", "addr:country": "US", "addr:postcode": "56473", "addr:state": "MN", "addr:street_address": "123 CEDAR AVE E", "amenity": "post_box", "collection_times": "Mo-Fr 15:00; Sa 09:00", "indoor": "yes", "note": "ON 12/24 AND 12/31, THIS BOX MAY BE COLLECTED AS EARLY AS 12 NOON.", "nsi_id": "unitedstatespostalservice-a77078", "operator": "United States Postal Service", "operator:short": "USPS", "operator:type": "public", "operator:wikidata": "Q668687", "ref": "5647300001"}, "type": "Feature"}
{"geometry": {"coordinates": [-94.482813517, 46.335231037], "type": "Point"}, "id": "vLR26mpINcKwVqIRxabN2y-6gG8=", "properties": {"@source_uri": "https://tools.usps.com/UspsToolsRestServices/rest/POLocator/findLocations", "@spider": "usps_collection_boxes", "addr:city": "PILLAGER", "addr:country": "US", "addr:postcode": "56473", "addr:state": "MN", "addr:street_address": "746 PILLSBURY ST N", "amenity": "post_box", "collection_times": "Mo-Sa 09:30", "nsi_id": "unitedstatespostalservice-a77078", "operator": "United States Postal Service", "operator:short": "USPS", "operator:type": "public", "operator:wikidata": "Q668687", "ref": "5647300002"}, "type": "Feature"}
{"geometry": {"coordinates": [-94.474226079, 46.329431912], "type": "Point"}, "id": "OC1zjQ7RGgeNzyoRnz8oZPACkEY=", "properties": {"@source_uri": "https://tools.usps.com/UspsToolsRestServices/rest/POLocator/findLocations", "@spider": "usps_collection_boxes", "addr:city": "PILLAGER", "addr:country": "US", "addr:postcode": "56473", "addr:state": "MN", "addr:street_address": "123 CEDAR AVE E", "amenity": "post_box", "collection_times": "Mo-Fr 14:45; Sa 09:00", "indoor": "yes", "note": "ON 12/24 AND 12/31, THIS BOX MAY BE COLLECTED AS EARLY AS 12 NOON.", "nsi_id": "unitedstatespostalservice-a77078", "operator": "United States Postal Service", "operator:short": "USPS", "operator:type": "public", "operator:wikidata": "Q668687", "ref": "5647300004"}, "type": "Feature"}
{"geometry": {"coordinates": [-94.408533, 46.716551529], "type": "Point"}, "id": "mn1ni8QlpOVQMn_cVBcOnG3--_g=", "properties": {"@source_uri": "https://tools.usps.com/UspsToolsRestServices/rest/POLocator/findLocations", "@spider": "usps_collection_boxes", "addr:city": "PINE RIVER", "addr:country": "US", "addr:postcode": "56474", "addr:state": "MN", "addr:street_address": "330 BARCLAY AVE W", "amenity": "post_box", "collection_times": "Mo-Fr 14:45; Sa 10:00", "note": "ON 12/24 AND 12/31, THIS BOX MAY BE COLLECTED AS EARLY AS 12 NOON.", "nsi_id": "unitedstatespostalservice-a77078", "operator": "United States Postal Service", "operator:short": "USPS", "operator:type": "public", "operator:wikidata": "Q668687", "ref": "5647400000"}, "type": "Feature"}
{"geometry": {"coordinates": [-94.408533, 46.716551529], "type": "Point"}, "id": "7bR6O082e-mUTATufpsc-ZZPFEg=", "properties": {"@source_uri": "https://tools.usps.com/UspsToolsRestServices/rest/POLocator/findLocations", "@spider": "usps_collection_boxes", "addr:city": "PINE RIVER", "addr:country": "US", "addr:postcode": "56474", "addr:state": "MN", "addr:street_address": "330 BARCLAY AVE W", "amenity": "post_box", "collection_times": "Mo-Fr 14:45; Sa 10:00", "indoor": "yes", "note": "ON 12/24 AND 12/31, THIS BOX MAY BE COLLECTED AS EARLY AS 12 NOON.", "nsi_id": "unitedstatespostalservice-a77078", "operator": "United States Postal Service", "operator:short": "USPS", "operator:type": "public", "operator:wikidata": "Q668687", "ref": "5647400002"}, "type": "Feature"}
{"geometry": {"coordinates": [-94.408533, 46.716551529], "type": "Point"}, "id": "UsfeqZYfFit2lfOsE7kqAeBMX0s=", "properties": {"@source_uri": "https://tools.usps.com/UspsToolsRestServices/rest/POLocator/findLocations", "@spider": "usps_collection_boxes", "addr:city": "PINE RIVER", "addr:country": "US", "addr:postcode": "56474", "addr:state": "MN", "addr:street_address": "330 BARCLAY AVE W", "amenity": "post_box", "collection_times": "Mo-Fr 14:45; Sa 10:30", "indoor": "yes", "note": "ON 12/24 AND 12/31, THIS BOX MAY BE COLLECTED AS EARLY AS 12 NOON.", "nsi_id": "unitedstatespostalservice-a77078", "operator": "United States Postal Service", "operator:short": "USPS", "operator:type": "public", "operator:wikidata": "Q668687", "ref": "5647400006"}, "type": "Feature"}
{"geometry": {"coordinates": [-94.502039009, 46.0912510176], "type": "Point"}, "id": "XsrkOHS0haTsx_wG29oXZnqm66g=", "properties": {"@source_uri": "https://tools.usps.com/UspsToolsRestServices/rest/POLocator/findLocations", "@spider": "usps_collection_boxes", "addr:city": "RANDALL", "addr:country": "US", "addr:postcode": "56475", "addr:state": "MN", "addr:street_address": "303 PACIFIC AVE", "amenity": "post_box", "collection_times": "Mo-Fr 13:00; Sa 09:15", "note": "ON 12/24 AND 12/31, THIS BOX MAY BE COLLECTED AS EARLY AS 12 NOON.", "nsi_id": "unitedstatespostalservice-a77078", "operator": "United States Postal Service", "operator:short": "USPS", "operator:type": "public", "operator:wikidata": "Q668687", "ref": "5647500000"}, "type": "Feature"}
{"geometry": {"coordinates": [-94.502039009, 46.0912510176], "type": "Point"}, "id": "ayYoPl5MQcEM1ISMU5dgYqEeNrE=", "properties": {"@source_uri": "https://tools.usps.com/UspsToolsRestServices/rest/POLocator/findLocations", "@spider": "usps_collection_boxes", "addr:city": "RANDALL", "addr:country": "US", "addr:postcode": "56475", "addr:state": "MN", "addr:street_address": "303 PACIFIC AVE", "amenity": "post_box", "collection_times": "Mo-Fr 13:15; Sa 09:30", "indoor": "yes", "note": "ON 12/24 AND 12/31, THIS BOX MAY BE COLLECTED AS EARLY AS 12 NOON.", "nsi_id": "unitedstatespostalservice-a77078", "operator": "United States Postal Service", "operator:short": "USPS", "operator:type": "public", "operator:wikidata": "Q668687", "ref": "5647500001"}, "type": "Feature"}
{"geometry": {"coordinates": [-94.502039009, 46.0912510176], "type": "Point"}, "id": "edCR-4862X4w3y-lO3ASDFo5g-8=", "properties": {"@source_uri": "https://tools.usps.com/UspsToolsRestServices/rest/POLocator/findLocations", "@spider": "usps_collection_boxes", "addr:city": "RANDALL", "addr:country": "US", "addr:postcode": "56475", "addr:state": "MN", "addr:street_address": "303 PACIFIC AVE", "amenity": "post_box", "collection_times": "Mo-Fr 13:15; Sa 09:30", "indoor": "yes", "note": "ON 12/24 AND 12/31, THIS BOX MAY BE COLLECTED AS EARLY AS 12 NOON.", "nsi_id": "unitedstatespostalservice-a77078", "operator": "United States Postal Service", "operator:short": "USPS", "operator:type": "public", "operator:wikidata": "Q668687", "ref": "5647500002"}, "type": "Feature"}
{"geometry": {"coordinates": [-95.089959723, 46.629916536], "type": "Point"}, "id": "Wwqwj5AVYde4MHEWb0C-hWYKAKk=", "properties": {"@source_uri": "https://tools.usps.com/UspsToolsRestServices/rest/POLocator/findLocations", "@spider": "usps_collection_boxes", "addr:city": "SEBEKA", "addr:country": "US", "addr:postcode": "56477", "addr:state": "MN", "addr:street_address": "107 MINNESOTA AVE W", "amenity": "post_box", "collection_times": "Mo-Fr 16:00; Sa 09:45", "note": "ON 12/24 AND 12/31, THIS BOX MAY BE COLLECTED AS EARLY AS 12 NOON.", "nsi_id": "unitedstatespostalservice-a77078", "operator": "United States Postal Service", "operator:short": "USPS", "operator:type": "public", "operator:wikidata": "Q668687", "ref": "5647700000"}, "type": "Feature"}
{"geometry": {"coordinates": [-95.089959723, 46.629916536], "type": "Point"}, "id": "2IE-w7IYLmQ-jFHwDK3C19Eqxw8=", "properties": {"@source_uri": "https://tools.usps.com/UspsToolsRestServices/rest/POLocator/findLocations", "@spider": "usps_collection_boxes", "addr:city": "SEBEKA", "addr:country": "US", "addr:postcode": "56477", "addr:state": "MN", "addr:street_address": "107 MINNESOTA AVE W", "amenity": "post_box", "collection_times": "Mo-Fr 13:30; Sa 10:00", "indoor": "yes", "note": "ON 12/24 AND 12/31, THIS BOX MAY BE COLLECTED AS EARLY AS 12 NOON.", "nsi_id": "unitedstatespostalservice-a77078", "operator": "United States Postal Service", "operator:short": "USPS", "operator:type": "public", "operator:wikidata": "Q668687", "ref": "5647700001"}, "type": "Feature"}
{"geometry": {"coordinates": [-95.090975, 46.629675], "type": "Point"}, "id": "RtEvCP2iosigzw2zSoJowyyWFAg=", "properties": {"@source_uri": "https://tools.usps.com/UspsToolsRestServices/rest/POLocator/findLocations", "@spider": "usps_collection_boxes", "addr:city": "SEBEKA", "addr:country": "US", "addr:postcode": "56477", "addr:state": "MN", "addr:street_address": "23314 NIMROD AVE", "amenity": "post_box", "collection_times": "Mo-Sa 12:00", "nsi_id": "unitedstatespostalservice-a77078", "operator": "United States Postal Service", "operator:short": "USPS", "operator:type": "public", "operator:wikidata": "Q668687", "ref": "5647700002"}, "type": "Feature"}
{"geometry": {"coordinates": [-95.089959723, 46.629916536], "type": "Point"}, "id": "fKOwq1yU9mC0Fo5wBZApAXYsZ5E=", "properties": {"@source_uri": "https://tools.usps.com/UspsToolsRestServices/rest/POLocator/findLocations", "@spider": "usps_collection_boxes", "addr:city": "SEBEKA", "addr:country": "US", "addr:postcode": "56477", "addr:state": "MN", "addr:street_address": "107 MINNESOTA AVE W", "amenity": "post_box", "collection_times": "Mo-Fr 13:30; Sa 10:00", "indoor": "yes", "note": "ON 12/24 AND 12/31, THIS BOX MAY BE COLLECTED AS EARLY AS 12 NOON.", "nsi_id": "unitedstatespostalservice-a77078", "operator": "United States Postal Service", "operator:short": "USPS", "operator:type": "public", "operator:wikidata": "Q668687", "ref": "5647700003"}, "type": "Feature"}
{"geometry": {"coordinates": [-94.792795, 46.355615], "type": "Point"}, "id": "3I0ONj9jEz2rJEKZ4K9oSgx-Z5U=", "properties": {"@source_uri": "https://tools.usps.com/UspsToolsRestServices/rest/POLocator/findLocations", "@spider": "usps_collection_boxes", "addr:city": "STAPLES", "addr:country": "US", "addr:postcode": "56479", "addr:state": "MN", "addr:street_address": "229 4TH ST NE", "amenity": "post_box", "collection_times": "Mo-Fr 14:30; Sa 10:15", "note": "ON 12/24 AND 12/31, THIS BOX MAY BE COLLECTED AS EARLY AS 12 NOON.", "nsi_id": "unitedstatespostalservice-a77078", "operator": "United States Postal Service", "operator:short": "USPS", "operator:type": "public", "operator:wikidata": "Q668687", "ref": "5647900001"}, "type": "Feature"}
{"geometry": {"coordinates": [-94.795012527, 46.35509532], "type": "Point"}, "id": "7yDvwxs7Swserl9YTcDl5h29L7k=", "properties": {"@source_uri": "https://tools.usps.com/UspsToolsRestServices/rest/POLocator/findLocations", "@spider": "usps_collection_boxes", "addr:city": "STAPLES", "addr:country": "US", "addr:postcode": "56479", "addr:state": "MN", "addr:street_address": "111 4TH ST NE", "amenity": "post_box", "collection_times": "Mo-Fr 10:45; Sa 10:30", "nsi_id": "unitedstatespostalservice-a77078", "operator": "United States Postal Service", "operator:short": "USPS", "operator:type": "public", "operator:wikidata": "Q668687", "ref": "5647900003"}, "type": "Feature"}
{"geometry": {"coordinates": [-94.792143706, 46.35270987], "type": "Point"}, "id": "ZZ0pYOm6FAtHFMxsDugwTHQ6gL0=", "properties": {"@source_uri": "https://tools.usps.com/UspsToolsRestServices/rest/POLocator/findLocations", "@spider": "usps_collection_boxes", "addr:city": "STAPLES", "addr:country": "US", "addr:postcode": "56479", "addr:state": "MN", "addr:street_address": "223 6TH ST SE", "amenity": "post_box", "collection_times": "Mo-Fr 10:45; Sa 10:30", "nsi_id": "unitedstatespostalservice-a77078", "operator": "United States Postal Service", "operator:short": "USPS", "operator:type": "public", "operator:wikidata": "Q668687", "ref": "5647900005"}, "type": "Feature"}
{"geometry": {"coordinates": [-94.794929746, 46.356516618], "type": "Point"}, "id": "tOL-3O1ccsrnOkuZYDTvebNOD_k=", "properties": {"@source_uri": "https://tools.usps.com/UspsToolsRestServices/rest/POLocator/findLocations", "@spider": "usps_collection_boxes", "addr:city": "STAPLES", "addr:country": "US", "addr:postcode": "56479", "addr:state": "MN", "addr:street_address": "229 4TH ST NE", "amenity": "post_box", "collection_times": "Mo-Fr 14:30; Sa 10:30", "indoor": "yes", "note": "ON 12/24 AND 12/31, THIS BOX MAY BE COLLECTED AS EARLY AS 12 NOON.", "nsi_id": "unitedstatespostalservice-a77078", "operator": "United States Postal Service", "operator:short": "USPS", "operator:type": "public", "operator:wikidata": "Q668687", "ref": "5647900006"}, "type": "Feature"}
{"geometry": {"coordinates": [-94.794929746, 46.356516618], "type": "Point"}, "id": "8rG83cMki_T0VakkU7sKyTPsFms=", "properties": {"@source_uri": "https://tools.usps.com/UspsToolsRestServices/rest/POLocator/findLocations", "@spider": "usps_collection_boxes", "addr:city": "STAPLES", "addr:country": "US", "addr:postcode": "56479", "addr:state": "MN", "addr:street_address": "229 4TH ST NE", "amenity": "post_box", "collection_times": "Mo-Fr 14:30; Sa 10:30", "indoor": "yes", "note": "ON 12/24 AND 12/31, THIS BOX MAY BE COLLECTED AS EARLY AS 12 NOON.", "nsi_id": "unitedstatespostalservice-a77078", "operator": "United States Postal Service", "operator:short": "USPS", "operator:type": "public", "operator:wikidata": "Q668687", "ref": "5647900008"}, "type": "Feature"}
{"geometry": {"coordinates": [-95.013847247, 46.3967344], "type": "Point"}, "id": "dsBwrDQbhkMq2JFwViiPAsoY8Fk=", "properties": {"@source_uri": "https://tools.usps.com/UspsToolsRestServices/rest/POLocator/findLocations", "@spider": "usps_collection_boxes", "addr:city": "VERNDALE", "addr:country": "US", "addr:postcode": "56481", "addr:state": "MN", "addr:street_address": "122 S FARWELL ST", "amenity": "post_box", "collection_times": "Mo-Fr 12:45; Sa 09:15", "note": "ON 12/24 AND 12/31, THIS BOX MAY BE COLLECTED AS EARLY AS 12 NOON.", "nsi_id": "unitedstatespostalservice-a77078", "operator": "United States Postal Service", "operator:short": "USPS", "operator:type": "public", "operator:wikidata": "Q668687", "ref": "5648100000"}, "type": "Feature"}
{"geometry": {"coordinates": [-95.013847247, 46.3967344], "type": "Point"}, "id": "rWDeazdmAI3Wx-4tU7CN7ZOnAvk=", "properties": {"@source_uri": "https://tools.usps.com/UspsToolsRestServices/rest/POLocator/findLocations", "@spider": "usps_collection_boxes", "addr:city": "VERNDALE", "addr:country": "US", "addr:postcode": "56481", "addr:state": "MN", "addr:street_address": "122 S FARWELL ST", "amenity": "post_box", "collection_times": "Mo-Fr 13:00; Sa 09:15", "indoor": "yes", "note": "ON 12/24 AND 12/31, THIS BOX MAY BE COLLECTED AS EARLY AS 12 NOON.", "nsi_id": "unitedstatespostalservice-a77078", "operator": "United States Postal Service", "operator:short": "USPS", "operator:type": "public", "operator:wikidata": "Q668687", "ref": "5648100001"}, "type": "Feature"}
{"geometry": {"coordinates": [-95.013847247, 46.3967344], "type": "Point"}, "id": "AG-FVxtjB6gNlEyNo6wPBn3PF-U=", "properties": {"@source_uri": "https://tools.usps.com/UspsToolsRestServices/rest/POLocator/findLocations", "@spider": "usps_collection_boxes", "addr:city": "VERNDALE", "addr:country": "US", "addr:postcode": "56481", "addr:state": "MN", "addr:street_address": "122 S FARWELL ST", "amenity": "post_box", "collection_times": "Mo-Fr 13:00; Sa 09:30", "indoor": "yes", "note": "ON 12/24 AND 12/31, THIS BOX MAY BE COLLECTED AS EARLY AS 12 NOON.", "nsi_id": "unitedstatespostalservice-a77078", "operator": "United States Postal Service", "operator:short": "USPS", "operator:type": "public", "operator:wikidata": "Q668687", "ref": "5648100003"}, "type": "Feature"}
{"geometry": {"coordinates": [-95.136649783, 46.439865159], "type": "Point"}, "id": "xtJKRNi2481BeaU2Vi4UP-beWYU=", "properties": {"@source_uri": "https://tools.usps.com/UspsToolsRestServices/rest/POLocator/findLocations", "@spider": "usps_collection_boxes", "addr:city": "WADENA", "addr:country": "US", "addr:postcode": "56482", "addr:state": "MN", "addr:street_address": "23 BRYANT AVE SE", "amenity": "post_box", "collection_times": "Mo-Fr 13:30; Sa 10:00", "note": "ON 12/24 AND 12/31, THIS BOX MAY BE COLLECTED AS EARLY AS 12 NOON.", "nsi_id": "unitedstatespostalservice-a77078", "operator": "United States Postal Service", "operator:short": "USPS", "operator:type": "public", "operator:wikidata": "Q668687", "ref": "5648200002"}, "type": "Feature"}
{"geometry": {"coordinates": [-95.136649783, 46.439865159], "type": "Point"}, "id": "peFX80LpAbTJmFuULXXvK-nixqA=", "properties": {"@source_uri": "https://tools.usps.com/UspsToolsRestServices/rest/POLocator/findLocations", "@spider": "usps_collection_boxes", "addr:city": "WADENA", "addr:country": "US", "addr:postcode": "56482", "addr:state": "MN", "addr:street_address": "23 BRYANT AVE S", "amenity": "post_box", "collection_times": "Mo-Fr 13:30; Sa 10:00", "indoor": "yes", "note": "ON 12/24 AND 12/31, THIS BOX MAY BE COLLECTED AS EARLY AS 12 NOON.", "nsi_id": "unitedstatespostalservice-a77078", "operator": "United States Postal Service", "operator:short": "USPS", "operator:type": "public", "operator:wikidata": "Q668687", "ref": "5648200008"}, "type": "Feature"}
{"geometry": {"coordinates": [-95.136649783, 46.439865159], "type": "Point"}, "id": "-tqcHtKU4J9tkEPeNEhu3nYbgGE=", "properties": {"@source_uri": "https://tools.usps.com/UspsToolsRestServices/rest/POLocator/findLocations", "@spider": "usps_collection_boxes", "addr:city": "WADENA", "addr:country": "US", "addr:postcode": "56482", "addr:state": "MN", "addr:street_address": "23 BRYANT AVE S", "amenity": "post_box", "collection_times": "Mo-Fr 13:30; Sa 09:30", "indoor": "yes", "note": "ON 12/24 AND 12/31, THIS BOX MAY BE COLLECTED AS EARLY AS 12 NOON.", "nsi_id": "unitedstatespostalservice-a77078", "operator": "United States Postal Service", "operator:short": "USPS", "operator:type": "public", "operator:wikidata": "Q668687", "ref": "5648200009"}, "type": "Feature"}
{"geometry": {"coordinates": [-94.583143027, 47.100689488], "type": "Point"}, "id": "nUA0Bs_fZcSVTp2Aw4HjsS2FY70=", "properties": {"@source_uri": "https://tools.usps.com/UspsToolsRestServices/rest/POLocator/findLocations", "@spider": "usps_collection_boxes", "addr:city": "WALKER", "addr:country": "US", "addr:postcode": "56484", "addr:state": "MN", "addr:street_address": "515 MICHIGAN AVE W", "amenity": "post_box", "collection_times": "Mo-Fr 14:00; Sa 11:00", "note": "ON 12/24 AND 12/31, THIS BOX MAY BE COLLECTED AS EARLY AS 12 NOON.", "nsi_id": "unitedstatespostalservice-a77078", "operator": "United States Postal Service", "operator:short": "USPS", "operator:type": "public", "operator:wikidata": "Q668687", "ref": "5648400000"}, "type": "Feature"}
{"geometry": {"coordinates": [-94.581752527, 47.101726521], "type": "Point"}, "id": "aMsyile3Hfg_2NODsmZBRj_birM=", "properties": {"@source_uri": "https://tools.usps.com/UspsToolsRestServices/rest/POLocator/findLocations", "@spider": "usps_collection_boxes", "addr:city": "WALKER", "addr:country": "US", "addr:postcode": "56484", "addr:state": "MN", "addr:street_address": "411 MINNESOTA AVE W", "amenity": "post_box", "collection_times": "Mo-Fr 12:00", "nsi_id": "unitedstatespostalservice-a77078", "operator": "United States Postal Service", "operator:short": "USPS", "operator:type": "public", "operator:wikidata": "Q668687", "ref": "5648400001"}, "type": "Feature"}
{"geometry": {"coordinates": [-94.58450025, 47.100624521], "type": "Point"}, "id": "XOv-DgTrds-GDqV8fQ9Bx8D4wuE=", "properties": {"@source_uri": "https://tools.usps.com/UspsToolsRestServices/rest/POLocator/findLocations", "@spider": "usps_collection_boxes", "addr:city": "WALKER", "addr:country": "US", "addr:postcode": "56484", "addr:state": "MN", "addr:street_address": "701 MICHIGAN AVE W", "amenity": "post_box", "collection_times": "Mo-Fr 12:00", "nsi_id": "unitedstatespostalservice-a77078", "operator": "United States Postal Service", "operator:short": "USPS", "operator:type": "public", "operator:wikidata": "Q668687", "ref": "5648400002"}, "type": "Feature"}
{"geometry": {"coordinates": [-94.583143027, 47.100689488], "type": "Point"}, "id": "O_3LO8nWSZU3CgpTxo45E4yJgUA=", "properties": {"@source_uri": "https://tools.usps.com/UspsToolsRestServices/rest/POLocator/findLocations", "@spider": "usps_collection_boxes", "addr:city": "WALKER", "addr:country": "US", "addr:postcode": "56484", "addr:state": "MN", "addr:street_address": "515 MICHIGAN AVE W", "amenity": "post_box", "collection_times": "Mo-Fr 14:00; Sa 11:00", "indoor": "yes", "note": "ON 12/24 AND 12/31, THIS BOX MAY BE COLLECTED AS EARLY AS 12 NOON.", "nsi_id": "unitedstatespostalservice-a77078", "operator": "United States Postal Service", "operator:short": "USPS", "operator:type": "public", "operator:wikidata": "Q668687", "ref": "5648400003"}, "type": "Feature"}
{"geometry": {"coordinates": [-94.5823657, 47.1007495], "type": "Point"}, "id": "n3hOEdZkeVboLUtM6znyqiPMLZI=", "properties": {"@source_uri": "https://tools.usps.com/UspsToolsRestServices/rest/POLocator/findLocations", "@spider": "usps_collection_boxes", "addr:city": "WALKER", "addr:country": "US", "addr:postcode": "56484", "addr:state": "MN", "addr:street_address": "34382 COUNTY RD 38", "amenity": "post_box", "collection_times": "Mo-Sa 13:30", "note": "ON 12/24 AND 12/31, THIS BOX MAY BE COLLECTED AS EARLY AS 12 NOON.", "nsi_id": "unitedstatespostalservice-a77078", "operator": "United States Postal Service", "operator:short": "USPS", "operator:type": "public", "operator:wikidata": "Q668687", "ref": "5648400005"}, "type": "Feature"}
{"geometry": {"coordinates": [-94.579810827, 47.101812496], "type": "Point"}, "id": "686_q00GiEbHfps3fBuso4PJsLw=", "properties": {"@source_uri": "https://tools.usps.com/UspsToolsRestServices/rest/POLocator/findLocations", "@spider": "usps_collection_boxes", "addr:city": "WALKER", "addr:country": "US", "addr:postcode": "56484", "addr:state": "MN", "addr:street_address": "303 MINNESOTA AVE W", "amenity": "post_box", "collection_times": "Mo-Fr 12:00", "nsi_id": "unitedstatespostalservice-a77078", "operator": "United States Postal Service", "operator:short": "USPS", "operator:type": "public", "operator:wikidata": "Q668687", "ref": "5648400008"}, "type": "Feature"}
{"geometry": {"coordinates": [-94.583143027, 47.100689488], "type": "Point"}, "id": "T_US0cD6ODpIHqWpjV6jt9NFQLw=", "properties": {"@source_uri": "https://tools.usps.com/UspsToolsRestServices/rest/POLocator/findLocations", "@spider": "usps_collection_boxes", "addr:city": "WALKER", "addr:country": "US", "addr:postcode": "56484", "addr:state": "MN", "addr:street_address": "515 MICHIGAN AVE W", "amenity": "post_box", "collection_times": "Mo-Fr 14:00; Sa 11:30", "indoor": "yes", "note": "ON 12/24 AND 12/31, THIS BOX MAY BE COLLECTED AS EARLY AS 12 NOON.", "nsi_id": "unitedstatespostalservice-a77078", "operator": "United States Postal Service", "operator:short": "USPS", "operator:type": "public", "operator:wikidata": "Q668687", "ref": "5648400010"}, "type": "Feature"}
