{"dataset_attributes": {"@spider": "usps_collection_boxes", "spider:collection_time": "2023-12-19T08:25:25.283853"}, "geometry": {"coordinates": [-95.848051332, 46.819454489], "type": "Point"}, "id": "0SHYCV6sJWTvFQ0JUjN-3AI3FR4=", "properties": {"@spider": "usps_collection_boxes", "addr:city": "DETROIT LAKES", "addr:country": "US", "addr:full": "250 STATE ST W", "addr:postcode": "56501", "addr:state": "MN", "amenity": "post_box", "brand": "United States Postal Service", "brand:wikidata": "Q668687", "collection_times": "Mo-Sa 18:00", "name": "USPS COLLECTION BOX - PO LOBBY", "note": "ON 12/24 AND 12/31, THIS BOX MAY BE COLLECTED AS EARLY AS 12 NOON.", "nsi_id": "unitedstatespostalservice-a77078", "operator": "United States Postal Service", "operator:short": "USPS", "operator:type": "public", "operator:wikidata": "Q668687", "ref": "5650100021"}, "type": "Feature"}
{"dataset_attributes": {"@spider": "usps_collection_boxes", "spider:collection_time": "2023-12-19T08:25:25.283853"}, "geometry": {"coordinates": [-95.848051332, 46.819454489], "type": "Point"}, "id": "lcFSHCBDyzRLMMS_gPxIAUP3RSs=", "properties": {"@spider": "usps_collection_boxes", "addr:city": "DETROIT LAKES", "addr:country": "US", "addr:full": "250 STATE ST W", "addr:postcode": "56501", "addr:state": "MN", "amenity": "post_box", "brand": "United States Postal Service", "brand:wikidata": "Q668687", "collection_times": "Mo-Sa 18:00", "name": "USPS COLLECTION BOX - PO LOBBY", "note": "ON 12/24 AND 12/31, THIS BOX MAY BE COLLECTED AS EARLY AS 12 NOON.", "nsi_id": "unitedstatespostalservice-a77078", "operator": "United States Postal Service", "operator:short": "USPS", "operator:type": "public", "operator:wikidata": "Q668687", "ref": "5650100022"}, "type": "Feature"}
{"dataset_attributes": {"@spider": "usps_collection_boxes", "spider:collection_time": "2023-12-19T08:25:25.283853"}, "geometry": {"coordinates": [-95.822605381, 46.973469656], "type": "Point"}, "id": "bLadIGf9HIkMhCdPtjDHRUuKu7w=", "properties": {"@spider": "usps_collection_boxes", "addr:city": "DETROIT LAKES", "addr:country": "US", "addr:full": "27625 COUNTY HIGHWAY 21", "addr:postcode": "56501", "addr:state": "MN", "amenity": "post_box", "brand": "United States Postal Service", "brand:wikidata": "Q668687", "collection_times": "Mo-Fr 10:00; Sa 09:00", "name": "USPS COLLECTION BOX - BLUE BOX", "nsi_id": "unitedstatespostalservice-a77078", "operator": "United States Postal Service", "operator:short": "USPS", "operator:type": "public", "operator:wikidata": "Q668687", "ref": "5650100034"}, "type": "Feature"}
{"dataset_attributes": {"@spider": "usps_collection_boxes", "spider:collection_time": "2023-12-19T08:25:25.283853"}, "geometry": {"coordinates": [-95.840162832, 46.815819464], "type": "Point"}, "id": "Fa683AdBemLck3N-6AjjMKz_z2w=", "properties": {"@spider": "usps_collection_boxes", "addr:city": "DETROIT LAKES", "addr:country": "US", "addr:full": "310 FRAZEE ST E", "addr:postcode": "56501", "addr:state": "MN", "amenity": "post_box", "brand": "United States Postal Service", "brand:wikidata": "Q668687", "collection_times": "Mo-Sa 14:00", "name": "USPS COLLECTION BOX - BLUE BOX", "note": "ON 12/24 AND 12/31, THIS BOX MAY BE COLLECTED AS EARLY AS 12 NOON.", "nsi_id": "unitedstatespostalservice-a77078", "operator": "United States Postal Service", "operator:short": "USPS", "operator:type": "public", "operator:wikidata": "Q668687", "ref": "5650100039"}, "type": "Feature"}
{"dataset_attributes": {"@spider": "usps_collection_boxes", "spider:collection_time": "2023-12-19T08:25:25.283853"}, "geometry": {"coordinates": [-95.848051332, 46.819454489], "type": "Point"}, "id": "PpXtjIG4qQS2PwHmp2e9ySUkz9o=", "properties": {"@spider": "usps_collection_boxes", "addr:city": "DETROIT LAKES", "addr:country": "US", "addr:full": "250 STATE ST W", "addr:postcode": "56501", "addr:state": "MN", "amenity": "post_box", "brand": "United States Postal Service", "brand:wikidata": "Q668687", "collection_times": "Mo-Sa 18:00", "name": "USPS COLLECTION BOX - BLUE BOX", "note": "ON 12/24 AND 12/31, THIS BOX MAY BE COLLECTED AS EARLY AS 12 NOON.", "nsi_id": "unitedstatespostalservice-a77078", "operator": "United States Postal Service", "operator:short": "USPS", "operator:type": "public", "operator:wikidata": "Q668687", "ref": "5650100040"}, "type": "Feature"}
{"dataset_attributes": {"@spider": "usps_collection_boxes", "spider:collection_time": "2023-12-19T08:25:25.283853"}, "geometry": {"coordinates": [-95.877472819, 46.827415548], "type": "Point"}, "id": "hRiHKtekBo_6layycBi7_aT9Iuo=", "properties": {"@spider": "usps_collection_boxes", "addr:city": "DETROIT LAKES", "addr:country": "US", "addr:full": "1583 HIGHWAY 10 W", "addr:postcode": "56501", "addr:state": "MN", "amenity": "post_box", "brand": "United States Postal Service", "brand:wikidata": "Q668687", "collection_times": "Mo-Sa 09:00", "name": "USPS COLLECTION BOX - BLUE BOX", "nsi_id": "unitedstatespostalservice-a77078", "operator": "United States Postal Service", "operator:short": "USPS", "operator:type": "public", "operator:wikidata": "Q668687", "ref": "5650100041"}, "type": "Feature"}
{"dataset_attributes": {"@spider": "usps_collection_boxes", "spider:collection_time": "2023-12-19T08:25:25.283853"}, "geometry": {"coordinates": [-95.848051332, 46.819454489], "type": "Point"}, "id": "ketsikEhq8lat4yiy75PiFBGg0o=", "properties": {"@spider": "usps_collection_boxes", "addr:city": "DETROIT LAKES", "addr:country": "US", "addr:full": "250 STATE ST W", "addr:postcode": "56501", "addr:state": "MN", "amenity": "post_box", "brand": "United States Postal Service", "brand:wikidata": "Q668687", "collection_times": "Mo-Fr 17:00; Sa 12:00", "name": "USPS COLLECTION BOX - PO LOBBY", "note": "ON 12/24 AND 12/31, THIS BOX MAY BE COLLECTED AS EARLY AS 12 NOON.", "nsi_id": "unitedstatespostalservice-a77078", "operator": "United States Postal Service", "operator:short": "USPS", "operator:type": "public", "operator:wikidata": "Q668687", "ref": "5650100051"}, "type": "Feature"}
{"dataset_attributes": {"@spider": "usps_collection_boxes", "spider:collection_time": "2023-12-19T08:25:25.283853"}, "geometry": {"coordinates": [-96.517050677, 47.299715903], "type": "Point"}, "id": "LAgZdYaA9JQmmrHqwFqBAIFEDIE=", "properties": {"@spider": "usps_collection_boxes", "addr:city": "ADA", "addr:country": "US", "addr:full": "114 4TH AVE W", "addr:postcode": "56510", "addr:state": "MN", "amenity": "post_box", "brand": "United States Postal Service", "brand:wikidata": "Q668687", "collection_times": "Mo-Sa 14:15", "name": "USPS COLLECTION BOX - BLUE BOX", "note": "ON 12/24 AND 12/31, THIS BOX MAY BE COLLECTED AS EARLY AS 12 NOON.", "nsi_id": "unitedstatespostalservice-a77078", "operator": "United States Postal Service", "operator:short": "USPS", "operator:type": "public", "operator:wikidata": "Q668687", "ref": "5651000004"}, "type": "Feature"}
{"dataset_attributes": {"@spider": "usps_collection_boxes", "spider:collection_time": "2023-12-19T08:25:25.283853"}, "geometry": {"coordinates": [-96.517050677, 47.299715903], "type": "Point"}, "id": "GX1-OdSTT4ERFgAmiFAOTb6afXM=", "properties": {"@spider": "usps_collection_boxes", "addr:city": "ADA", "addr:country": "US", "addr:full": "114 4TH AVE W", "addr:postcode": "56510", "addr:state": "MN", "amenity": "post_box", "brand": "United States Postal Service", "brand:wikidata": "Q668687", "collection_times": "Mo-Fr 14:15", "name": "USPS COLLECTION BOX - PO LOBBY", "note": "ON 12/24 AND 12/31, THIS BOX MAY BE COLLECTED AS EARLY AS 12 NOON.", "nsi_id": "unitedstatespostalservice-a77078", "operator": "United States Postal Service", "operator:short": "USPS", "operator:type": "public", "operator:wikidata": "Q668687", "ref": "5651000008"}, "type": "Feature"}
{"dataset_attributes": {"@spider": "usps_collection_boxes", "spider:collection_time": "2023-12-19T08:25:25.283853"}, "geometry": {"coordinates": [-96.517050677, 47.299715903], "type": "Point"}, "id": "6JCDWT-mDHEm9qxsGe33i7-4qyk=", "properties": {"@spider": "usps_collection_boxes", "addr:city": "ADA", "addr:country": "US", "addr:full": "114 4TH AVE W", "addr:postcode": "56510", "addr:state": "MN", "amenity": "post_box", "brand": "United States Postal Service", "brand:wikidata": "Q668687", "collection_times": "Mo-Fr 14:15; Sa 09:15", "name": "USPS COLLECTION BOX - PO LOBBY", "note": "ON 12/24 AND 12/31, THIS BOX MAY BE COLLECTED AS EARLY AS 12 NOON.", "nsi_id": "unitedstatespostalservice-a77078", "operator": "United States Postal Service", "operator:short": "USPS", "operator:type": "public", "operator:wikidata": "Q668687", "ref": "5651000010"}, "type": "Feature"}
{"dataset_attributes": {"@spider": "usps_collection_boxes", "spider:collection_time": "2023-12-19T08:25:25.283853"}, "geometry": {"coordinates": [-95.981844925, 46.860638546], "type": "Point"}, "id": "tmm9mjkNHuL1pAhN4ufIVp1Fxcc=", "properties": {"@spider": "usps_collection_boxes", "addr:city": "AUDUBON", "addr:country": "US", "addr:full": "215 4TH ST", "addr:postcode": "56511", "addr:state": "MN", "amenity": "post_box", "brand": "United States Postal Service", "brand:wikidata": "Q668687", "collection_times": "Mo-Sa 17:45", "name": "USPS COLLECTION BOX - BLUE BOX", "note": "ON 12/24 AND 12/31, THIS BOX MAY BE COLLECTED AS EARLY AS 12 NOON.", "nsi_id": "unitedstatespostalservice-a77078", "operator": "United States Postal Service", "operator:short": "USPS", "operator:type": "public", "operator:wikidata": "Q668687", "ref": "5651100001"}, "type": "Feature"}
{"dataset_attributes": {"@spider": "usps_collection_boxes", "spider:collection_time": "2023-12-19T08:25:25.283853"}, "geometry": {"coordinates": [-95.981844925, 46.860638546], "type": "Point"}, "id": "uakSujE4vyQ6FViJ8V1LtvCNnNg=", "properties": {"@spider": "usps_collection_boxes", "addr:city": "AUDUBON", "addr:country": "US", "addr:full": "215 4TH ST", "addr:postcode": "56511", "addr:state": "MN", "amenity": "post_box", "brand": "United States Postal Service", "brand:wikidata": "Q668687", "collection_times": "Mo-Fr 15:25", "name": "USPS COLLECTION BOX - PO LOBBY", "note": "ON 12/24 AND 12/31, THIS BOX MAY BE COLLECTED AS EARLY AS 12 NOON.", "nsi_id": "unitedstatespostalservice-a77078", "operator": "United States Postal Service", "operator:short": "USPS", "operator:type": "public", "operator:wikidata": "Q668687", "ref": "5651100002"}, "type": "Feature"}
{"dataset_attributes": {"@spider": "usps_collection_boxes", "spider:collection_time": "2023-12-19T08:25:25.283853"}, "geometry": {"coordinates": [-95.981844925, 46.860638546], "type": "Point"}, "id": "sw2rEcpHT6cp49cnQi_uG8vxPgs=", "properties": {"@spider": "usps_collection_boxes", "addr:city": "AUDUBON", "addr:country": "US", "addr:full": "215 4TH ST", "addr:postcode": "56511", "addr:state": "MN", "amenity": "post_box", "brand": "United States Postal Service", "brand:wikidata": "Q668687", "collection_times": "Mo-Fr 15:20; Sa 10:20", "name": "USPS COLLECTION BOX - PO LOBBY", "note": "ON 12/24 AND 12/31, THIS BOX MAY BE COLLECTED AS EARLY AS 12 NOON.", "nsi_id": "unitedstatespostalservice-a77078", "operator": "United States Postal Service", "operator:short": "USPS", "operator:type": "public", "operator:wikidata": "Q668687", "ref": "5651100003"}, "type": "Feature"}
{"dataset_attributes": {"@spider": "usps_collection_boxes", "spider:collection_time": "2023-12-19T08:25:25.283853"}, "geometry": {"coordinates": [-96.420030992, 46.651751665], "type": "Point"}, "id": "qzDTI1r0LP_FZaVG1G2Lns5GrNM=", "properties": {"@spider": "usps_collection_boxes", "addr:city": "BARNESVILLE", "addr:country": "US", "addr:full": "212 FRONT ST S", "addr:postcode": "56514", "addr:state": "MN", "amenity": "post_box", "brand": "United States Postal Service", "brand:wikidata": "Q668687", "collection_times": "Mo-Sa 16:45", "name": "USPS COLLECTION BOX - BLUE BOX", "note": "ON 12/24 AND 12/31, THIS BOX MAY BE COLLECTED AS EARLY AS 12 NOON.", "nsi_id": "unitedstatespostalservice-a77078", "operator": "United States Postal Service", "operator:short": "USPS", "operator:type": "public", "operator:wikidata": "Q668687", "ref": "5651400001"}, "type": "Feature"}
{"dataset_attributes": {"@spider": "usps_collection_boxes", "spider:collection_time": "2023-12-19T08:25:25.283853"}, "geometry": {"coordinates": [-96.420030992, 46.651751665], "type": "Point"}, "id": "viHhI3-KU9ABiq5qhXZJDGcoojY=", "properties": {"@spider": "usps_collection_boxes", "addr:city": "BARNESVILLE", "addr:country": "US", "addr:full": "212 FRONT ST S", "addr:postcode": "56514", "addr:state": "MN", "amenity": "post_box", "brand": "United States Postal Service", "brand:wikidata": "Q668687", "collection_times": "Mo-Fr 17:00", "name": "USPS COLLECTION BOX - PO LOBBY", "note": "ON 12/24 AND 12/31, THIS BOX MAY BE COLLECTED AS EARLY AS 12 NOON.", "nsi_id": "unitedstatespostalservice-a77078", "operator": "United States Postal Service", "operator:short": "USPS", "operator:type": "public", "operator:wikidata": "Q668687", "ref": "5651400003"}, "type": "Feature"}
{"dataset_attributes": {"@spider": "usps_collection_boxes", "spider:collection_time": "2023-12-19T08:25:25.283853"}, "geometry": {"coordinates": [-96.420030992, 46.651751665], "type": "Point"}, "id": "QN5OCJZaJ4W7VYiZH_cHErujaXI=", "properties": {"@spider": "usps_collection_boxes", "addr:city": "BARNESVILLE", "addr:country": "US", "addr:full": "212 FRONT ST S", "addr:postcode": "56514", "addr:state": "MN", "amenity": "post_box", "brand": "United States Postal Service", "brand:wikidata": "Q668687", "collection_times": "Mo-Fr 16:30; Sa 10:00", "name": "USPS COLLECTION BOX - PO LOBBY", "note": "ON 12/24 AND 12/31, THIS BOX MAY BE COLLECTED AS EARLY AS 12 NOON.", "nsi_id": "unitedstatespostalservice-a77078", "operator": "United States Postal Service", "operator:short": "USPS", "operator:type": "public", "operator:wikidata": "Q668687", "ref": "5651400005"}, "type": "Feature"}
{"dataset_attributes": {"@spider": "usps_collection_boxes", "spider:collection_time": "2023-12-19T08:25:25.283853"}, "geometry": {"coordinates": [-95.7137659917, 46.2828339992], "type": "Point"}, "id": "U6NrPpFSlrZwDXjnLyv_q72TqC8=", "properties": {"@spider": "usps_collection_boxes", "addr:city": "BATTLE LAKE", "addr:country": "US", "addr:full": "116 N LAKE AVE", "addr:postcode": "56515", "addr:state": "MN", "amenity": "post_box", "brand": "United States Postal Service", "brand:wikidata": "Q668687", "collection_times": "Mo-Sa 16:00", "name": "USPS COLLECTION BOX - BLUE BOX", "note": "ON 12/24 AND 12/31, THIS BOX MAY BE COLLECTED AS EARLY AS 12 NOON.", "nsi_id": "unitedstatespostalservice-a77078", "operator": "United States Postal Service", "operator:short": "USPS", "operator:type": "public", "operator:wikidata": "Q668687", "ref": "5651500001"}, "type": "Feature"}
{"dataset_attributes": {"@spider": "usps_collection_boxes", "spider:collection_time": "2023-12-19T08:25:25.283853"}, "geometry": {"coordinates": [-95.714053243, 46.282806199], "type": "Point"}, "id": "WMNykdDgVWjMdZKyqslb3sHzvtY=", "properties": {"@spider": "usps_collection_boxes", "addr:city": "BATTLE LAKE", "addr:country": "US", "addr:full": "116 N LAKE AVE", "addr:postcode": "56515", "addr:state": "MN", "amenity": "post_box", "brand": "United States Postal Service", "brand:wikidata": "Q668687", "collection_times": "Mo-Fr 16:00; Sa 09:30", "name": "USPS COLLECTION BOX - PO LOBBY", "note": "ON 12/24 AND 12/31, THIS BOX MAY BE COLLECTED AS EARLY AS 12 NOON.", "nsi_id": "unitedstatespostalservice-a77078", "operator": "United States Postal Service", "operator:short": "USPS", "operator:type": "public", "operator:wikidata": "Q668687", "ref": "5651500002"}, "type": "Feature"}
{"dataset_attributes": {"@spider": "usps_collection_boxes", "spider:collection_time": "2023-12-19T08:25:25.283853"}, "geometry": {"coordinates": [-95.714053243, 46.282806199], "type": "Point"}, "id": "xDcwlBMalLkJZYhJKKSDK30tItU=", "properties": {"@spider": "usps_collection_boxes", "addr:city": "BATTLE LAKE", "addr:country": "US", "addr:full": "116 N LAKE AVE", "addr:postcode": "56515", "addr:state": "MN", "amenity": "post_box", "brand": "United States Postal Service", "brand:wikidata": "Q668687", "collection_times": "Mo-Fr 15:50; Sa 09:20", "name": "USPS COLLECTION BOX - PO LOBBY", "note": "ON 12/24 AND 12/31, THIS BOX MAY BE COLLECTED AS EARLY AS 12 NOON.", "nsi_id": "unitedstatespostalservice-a77078", "operator": "United States Postal Service", "operator:short": "USPS", "operator:type": "public", "operator:wikidata": "Q668687", "ref": "5651500004"}, "type": "Feature"}
{"dataset_attributes": {"@spider": "usps_collection_boxes", "spider:collection_time": "2023-12-19T08:25:25.283853"}, "geometry": {"coordinates": [-95.974507033, 47.442423467], "type": "Point"}, "id": "r7VpUWyC6YdYT6NWzkS-Jgi6aKI=", "properties": {"@spider": "usps_collection_boxes", "addr:city": "BEJOU", "addr:country": "US", "addr:full": "525 MAIN ST", "addr:postcode": "56516", "addr:state": "MN", "amenity": "post_box", "brand": "United States Postal Service", "brand:wikidata": "Q668687", "collection_times": "Mo-Sa 15:45", "name": "USPS COLLECTION BOX - BLUE BOX", "note": "ON 12/24 AND 12/31, THIS BOX MAY BE COLLECTED AS EARLY AS 12 NOON.", "nsi_id": "unitedstatespostalservice-a77078", "operator": "United States Postal Service", "operator:short": "USPS", "operator:type": "public", "operator:wikidata": "Q668687", "ref": "5651600001"}, "type": "Feature"}
{"dataset_attributes": {"@spider": "usps_collection_boxes", "spider:collection_time": "2023-12-19T08:25:25.283853"}, "geometry": {"coordinates": [-95.974507033, 47.442423467], "type": "Point"}, "id": "T_7rNvmtdy4PwRgFSGtozoM31-Y=", "properties": {"@spider": "usps_collection_boxes", "addr:city": "BEJOU", "addr:country": "US", "addr:full": "525 MAIN ST", "addr:postcode": "56516", "addr:state": "MN", "amenity": "post_box", "brand": "United States Postal Service", "brand:wikidata": "Q668687", "collection_times": "Mo-Fr 09:50", "name": "USPS COLLECTION BOX - PO LOBBY", "nsi_id": "unitedstatespostalservice-a77078", "operator": "United States Postal Service", "operator:short": "USPS", "operator:type": "public", "operator:wikidata": "Q668687", "ref": "5651600002"}, "type": "Feature"}
{"dataset_attributes": {"@spider": "usps_collection_boxes", "spider:collection_time": "2023-12-19T08:25:25.283853"}, "geometry": {"coordinates": [-95.97608205, 47.444149291], "type": "Point"}, "id": "f2oBVDLHwLv9dKYgvGPNkzs4oAY=", "properties": {"@spider": "usps_collection_boxes", "addr:city": "BEJOU", "addr:country": "US", "addr:full": "218 N HIGHWAY 59", "addr:postcode": "56516", "addr:state": "MN", "amenity": "post_box", "brand": "United States Postal Service", "brand:wikidata": "Q668687", "collection_times": "Mo-Sa 10:30", "name": "USPS COLLECTION BOX - BLUE BOX", "nsi_id": "unitedstatespostalservice-a77078", "operator": "United States Postal Service", "operator:short": "USPS", "operator:type": "public", "operator:wikidata": "Q668687", "ref": "5651600003"}, "type": "Feature"}
{"dataset_attributes": {"@spider": "usps_collection_boxes", "spider:collection_time": "2023-12-19T08:25:25.283853"}, "geometry": {"coordinates": [-95.974507033, 47.442423467], "type": "Point"}, "id": "7cNqOEscRyFKesG1iCWl3Ts7eEw=", "properties": {"@spider": "usps_collection_boxes", "addr:city": "BEJOU", "addr:country": "US", "addr:full": "525 MAIN ST", "addr:postcode": "56516", "addr:state": "MN", "amenity": "post_box", "brand": "United States Postal Service", "brand:wikidata": "Q668687", "collection_times": "Mo-Fr 09:40; Sa 09:30", "name": "USPS COLLECTION BOX - PO LOBBY", "nsi_id": "unitedstatespostalservice-a77078", "operator": "United States Postal Service", "operator:short": "USPS", "operator:type": "public", "operator:wikidata": "Q668687", "ref": "5651600005"}, "type": "Feature"}
{"dataset_attributes": {"@spider": "usps_collection_boxes", "spider:collection_time": "2023-12-19T08:25:25.283853"}, "geometry": {"coordinates": [-96.530299037, 47.542701628], "type": "Point"}, "id": "IQQLHE_jKWz1Ui8cg0TNW3_PopQ=", "properties": {"@spider": "usps_collection_boxes", "addr:city": "BELTRAMI", "addr:country": "US", "addr:full": "214 E 6TH ST", "addr:postcode": "56517", "addr:state": "MN", "amenity": "post_box", "brand": "United States Postal Service", "brand:wikidata": "Q668687", "collection_times": "Mo-Fr 10:55; Sa 09:55", "name": "USPS COLLECTION BOX - BLUE BOX", "nsi_id": "unitedstatespostalservice-a77078", "operator": "United States Postal Service", "operator:short": "USPS", "operator:type": "public", "operator:wikidata": "Q668687", "ref": "5651700003"}, "type": "Feature"}
{"dataset_attributes": {"@spider": "usps_collection_boxes", "spider:collection_time": "2023-12-19T08:25:25.283853"}, "geometry": {"coordinates": [-96.530299037, 47.542701628], "type": "Point"}, "id": "2aTUdARnMfeskjDp8td4PLL__Ow=", "properties": {"@spider": "usps_collection_boxes", "addr:city": "BELTRAMI", "addr:country": "US", "addr:full": "214 E 6TH ST", "addr:postcode": "56517", "addr:state": "MN", "amenity": "post_box", "brand": "United States Postal Service", "brand:wikidata": "Q668687", "collection_times": "Mo-Fr 10:50; Sa 09:50", "name": "USPS COLLECTION BOX - PO LOBBY", "nsi_id": "unitedstatespostalservice-a77078", "operator": "United States Postal Service", "operator:short": "USPS", "operator:type": "public", "operator:wikidata": "Q668687", "ref": "5651700004"}, "type": "Feature"}
{"dataset_attributes": {"@spider": "usps_collection_boxes", "spider:collection_time": "2023-12-19T08:25:25.283853"}, "geometry": {"coordinates": [-95.2342570085, 46.468316003], "type": "Point"}, "id": "aOWTdADHETW4ONmoowMql2kISNg=", "properties": {"@spider": "usps_collection_boxes", "addr:city": "BLUFFTON", "addr:country": "US", "addr:full": "104 2ND ST", "addr:postcode": "56518", "addr:state": "MN", "amenity": "post_box", "brand": "United States Postal Service", "brand:wikidata": "Q668687", "collection_times": "Mo-Sa 15:50", "name": "USPS COLLECTION BOX - BLUE BOX", "note": "ON 12/24 AND 12/31, THIS BOX MAY BE COLLECTED AS EARLY AS 12 NOON.", "nsi_id": "unitedstatespostalservice-a77078", "operator": "United States Postal Service", "operator:short": "USPS", "operator:type": "public", "operator:wikidata": "Q668687", "ref": "5651800001"}, "type": "Feature"}
{"dataset_attributes": {"@spider": "usps_collection_boxes", "spider:collection_time": "2023-12-19T08:25:25.283853"}, "geometry": {"coordinates": [-95.2342605, 46.468061453], "type": "Point"}, "id": "79B5qSlPk_vfuucGxvuzPTpiuD8=", "properties": {"@spider": "usps_collection_boxes", "addr:city": "BLUFFTON", "addr:country": "US", "addr:full": "104 2ND ST", "addr:postcode": "56518", "addr:state": "MN", "amenity": "post_box", "brand": "United States Postal Service", "brand:wikidata": "Q668687", "collection_times": "Mo-Fr 12:30", "name": "USPS COLLECTION BOX - PO LOBBY", "note": "ON 12/24 AND 12/31, THIS BOX MAY BE COLLECTED AS EARLY AS 12 NOON.", "nsi_id": "unitedstatespostalservice-a77078", "operator": "United States Postal Service", "operator:short": "USPS", "operator:type": "public", "operator:wikidata": "Q668687", "ref": "5651800002"}, "type": "Feature"}
{"dataset_attributes": {"@spider": "usps_collection_boxes", "spider:collection_time": "2023-12-19T08:25:25.283853"}, "geometry": {"coordinates": [-95.2342605, 46.468061453], "type": "Point"}, "id": "qWZ4AmTvFA0Qak7-f7ZUmywBa2A=", "properties": {"@spider": "usps_collection_boxes", "addr:city": "BLUFFTON", "addr:country": "US", "addr:full": "104 2ND ST", "addr:postcode": "56518", "addr:state": "MN", "amenity": "post_box", "brand": "United States Postal Service", "brand:wikidata": "Q668687", "collection_times": "Mo-Fr 12:20; Sa 11:50", "name": "USPS COLLECTION BOX - PO LOBBY", "note": "ON 12/24 AND 12/31, THIS BOX MAY BE COLLECTED AS EARLY AS 12 NOON.", "nsi_id": "unitedstatespostalservice-a77078", "operator": "United States Postal Service", "operator:short": "USPS", "operator:type": "public", "operator:wikidata": "Q668687", "ref": "5651800003"}, "type": "Feature"}
{"dataset_attributes": {"@spider": "usps_collection_boxes", "spider:collection_time": "2023-12-19T08:25:25.283853"}, "geometry": {"coordinates": [-96.502061108, 47.18038805], "type": "Point"}, "id": "zXZc_4zNwvNUXsUrdqvG_IqFV2Y=", "properties": {"@spider": "usps_collection_boxes", "addr:city": "BORUP", "addr:country": "US", "addr:full": "206 MAIN AVE", "addr:postcode": "56519", "addr:state": "MN", "amenity": "post_box", "brand": "United States Postal Service", "brand:wikidata": "Q668687", "collection_times": "Mo-Sa 14:40", "name": "USPS COLLECTION BOX - BLUE BOX", "note": "ON 12/24 AND 12/31, THIS BOX MAY BE COLLECTED AS EARLY AS 12 NOON.", "nsi_id": "unitedstatespostalservice-a77078", "operator": "United States Postal Service", "operator:short": "USPS", "operator:type": "public", "operator:wikidata": "Q668687", "ref": "5651900000"}, "type": "Feature"}
{"dataset_attributes": {"@spider": "usps_collection_boxes", "spider:collection_time": "2023-12-19T08:25:25.283853"}, "geometry": {"coordinates": [-96.502061108, 47.18038805], "type": "Point"}, "id": "9G8qw6LAE2UBER7hOWALXPvP8V4=", "properties": {"@spider": "usps_collection_boxes", "addr:city": "BORUP", "addr:country": "US", "addr:full": "206 MAIN AVE", "addr:postcode": "56519", "addr:state": "MN", "amenity": "post_box", "brand": "United States Postal Service", "brand:wikidata": "Q668687", "collection_times": "Mo-Fr 13:15", "name": "USPS COLLECTION BOX - PO LOBBY", "note": "ON 12/24 AND 12/31, THIS BOX MAY BE COLLECTED AS EARLY AS 12 NOON.", "nsi_id": "unitedstatespostalservice-a77078", "operator": "United States Postal Service", "operator:short": "USPS", "operator:type": "public", "operator:wikidata": "Q668687", "ref": "5651900001"}, "type": "Feature"}
{"dataset_attributes": {"@spider": "usps_collection_boxes", "spider:collection_time": "2023-12-19T08:25:25.283853"}, "geometry": {"coordinates": [-96.502061108, 47.18038805], "type": "Point"}, "id": "OmZXqV3E9H8Af0fpg8l2WyjfwBw=", "properties": {"@spider": "usps_collection_boxes", "addr:city": "BORUP", "addr:country": "US", "addr:full": "206 MAIN AVE", "addr:postcode": "56519", "addr:state": "MN", "amenity": "post_box", "brand": "United States Postal Service", "brand:wikidata": "Q668687", "collection_times": "Mo-Fr 13:15; Sa 11:00", "name": "USPS COLLECTION BOX - PO LOBBY", "note": "ON 12/24 AND 12/31, THIS BOX MAY BE COLLECTED AS EARLY AS 12 NOON.", "nsi_id": "unitedstatespostalservice-a77078", "operator": "United States Postal Service", "operator:short": "USPS", "operator:type": "public", "operator:wikidata": "Q668687", "ref": "5651900003"}, "type": "Feature"}
{"dataset_attributes": {"@spider": "usps_collection_boxes", "spider:collection_time": "2023-12-19T08:25:25.283853"}, "geometry": {"coordinates": [-96.589090175, 46.264676913], "type": "Point"}, "id": "Kq9GuR96zwLfBXimIikQjVVbWZ8=", "properties": {"@spider": "usps_collection_boxes", "addr:city": "BRECKENRIDGE", "addr:country": "US", "addr:full": "420 NEBRASKA AVE", "addr:postcode": "56520", "addr:state": "MN", "amenity": "post_box", "brand": "United States Postal Service", "brand:wikidata": "Q668687", "collection_times": "Mo-Sa 14:00", "name": "USPS COLLECTION BOX - BLUE BOX", "note": "ON 12/24 AND 12/31, THIS BOX MAY BE COLLECTED AS EARLY AS 12 NOON.", "nsi_id": "unitedstatespostalservice-a77078", "operator": "United States Postal Service", "operator:short": "USPS", "operator:type": "public", "operator:wikidata": "Q668687", "ref": "5652000008"}, "type": "Feature"}
{"dataset_attributes": {"@spider": "usps_collection_boxes", "spider:collection_time": "2023-12-19T08:25:25.283853"}, "geometry": {"coordinates": [-96.587924684, 46.264919217], "type": "Point"}, "id": "I_MlwEGqr57877ZHd24N2iYS4qs=", "properties": {"@spider": "usps_collection_boxes", "addr:city": "BRECKENRIDGE", "addr:country": "US", "addr:full": "224 5TH ST N", "addr:postcode": "56520", "addr:state": "MN", "amenity": "post_box", "brand": "United States Postal Service", "brand:wikidata": "Q668687", "collection_times": "Mo-Fr 15:15; Sa 14:30", "name": "USPS COLLECTION BOX - BLUE BOX", "note": "ON 12/24 AND 12/31, THIS BOX MAY BE COLLECTED AS EARLY AS 12 NOON.", "nsi_id": "unitedstatespostalservice-a77078", "operator": "United States Postal Service", "operator:short": "USPS", "operator:type": "public", "operator:wikidata": "Q668687", "ref": "5652000021"}, "type": "Feature"}
{"dataset_attributes": {"@spider": "usps_collection_boxes", "spider:collection_time": "2023-12-19T08:25:25.283853"}, "geometry": {"coordinates": [-96.587924684, 46.264919217], "type": "Point"}, "id": "4c7oF2iOy1DbcIxB7kVIQu7qf60=", "properties": {"@spider": "usps_collection_boxes", "addr:city": "BRECKENRIDGE", "addr:country": "US", "addr:full": "224 5TH ST N", "addr:postcode": "56520", "addr:state": "MN", "amenity": "post_box", "brand": "United States Postal Service", "brand:wikidata": "Q668687", "collection_times": "Mo-Fr 15:15", "name": "USPS COLLECTION BOX - PO LOBBY", "note": "ON 12/24 AND 12/31, THIS BOX MAY BE COLLECTED AS EARLY AS 12 NOON.", "nsi_id": "unitedstatespostalservice-a77078", "operator": "United States Postal Service", "operator:short": "USPS", "operator:type": "public", "operator:wikidata": "Q668687", "ref": "5652000023"}, "type": "Feature"}
{"dataset_attributes": {"@spider": "usps_collection_boxes", "spider:collection_time": "2023-12-19T08:25:25.283853"}, "geometry": {"coordinates": [-96.587906684, 46.260923684], "type": "Point"}, "id": "JcxyCwBnIyZrb_Nf8psIgbCf2cc=", "properties": {"@spider": "usps_collection_boxes", "addr:city": "BRECKENRIDGE", "addr:country": "US", "addr:full": "300 5TH ST S", "addr:postcode": "56520", "addr:state": "MN", "amenity": "post_box", "brand": "United States Postal Service", "brand:wikidata": "Q668687", "collection_times": "Mo-Fr 14:00", "name": "USPS COLLECTION BOX - BLUE BOX", "note": "ON 12/24 AND 12/31, THIS BOX MAY BE COLLECTED AS EARLY AS 12 NOON.", "nsi_id": "unitedstatespostalservice-a77078", "operator": "United States Postal Service", "operator:short": "USPS", "operator:type": "public", "operator:wikidata": "Q668687", "ref": "5652000024"}, "type": "Feature"}
{"dataset_attributes": {"@spider": "usps_collection_boxes", "spider:collection_time": "2023-12-19T08:25:25.283853"}, "geometry": {"coordinates": [-96.587924684, 46.264919217], "type": "Point"}, "id": "vIAim_GEtkI3xHhsMsN98HEjTxw=", "properties": {"@spider": "usps_collection_boxes", "addr:city": "BRECKENRIDGE", "addr:country": "US", "addr:full": "224 5TH ST N", "addr:postcode": "56520", "addr:state": "MN", "amenity": "post_box", "brand": "United States Postal Service", "brand:wikidata": "Q668687", "collection_times": "Mo-Fr 15:15; Sa 09:50", "name": "USPS COLLECTION BOX - PO LOBBY", "note": "ON 12/24 AND 12/31, THIS BOX MAY BE COLLECTED AS EARLY AS 12 NOON.", "nsi_id": "unitedstatespostalservice-a77078", "operator": "United States Postal Service", "operator:short": "USPS", "operator:type": "public", "operator:wikidata": "Q668687", "ref": "5652000026"}, "type": "Feature"}
{"dataset_attributes": {"@spider": "usps_collection_boxes", "spider:collection_time": "2023-12-19T08:25:25.283853"}, "geometry": {"coordinates": [-95.909231758, 46.980908696], "type": "Point"}, "id": "CDftX_UJ-cgxB2bnMQbHvikH4HY=", "properties": {"@spider": "usps_collection_boxes", "addr:city": "CALLAWAY", "addr:country": "US", "addr:full": "312 MAIN AVE", "addr:postcode": "56521", "addr:state": "MN", "amenity": "post_box", "brand": "United States Postal Service", "brand:wikidata": "Q668687", "collection_times": "Mo-Sa 16:45", "name": "USPS COLLECTION BOX - BLUE BOX", "note": "ON 12/24 AND 12/31, THIS BOX MAY BE COLLECTED AS EARLY AS 12 NOON.", "nsi_id": "unitedstatespostalservice-a77078", "operator": "United States Postal Service", "operator:short": "USPS", "operator:type": "public", "operator:wikidata": "Q668687", "ref": "5652100001"}, "type": "Feature"}
{"dataset_attributes": {"@spider": "usps_collection_boxes", "spider:collection_time": "2023-12-19T08:25:25.283853"}, "geometry": {"coordinates": [-95.909231758, 46.980908696], "type": "Point"}, "id": "1DL1R_cVGYGc887X7uEethtAXdE=", "properties": {"@spider": "usps_collection_boxes", "addr:city": "CALLAWAY", "addr:country": "US", "addr:full": "312 MAIN AVE", "addr:postcode": "56521", "addr:state": "MN", "amenity": "post_box", "brand": "United States Postal Service", "brand:wikidata": "Q668687", "collection_times": "Mo-Fr 12:00", "name": "USPS COLLECTION BOX - PO LOBBY", "nsi_id": "unitedstatespostalservice-a77078", "operator": "United States Postal Service", "operator:short": "USPS", "operator:type": "public", "operator:wikidata": "Q668687", "ref": "5652100002"}, "type": "Feature"}
{"dataset_attributes": {"@spider": "usps_collection_boxes", "spider:collection_time": "2023-12-19T08:25:25.283853"}, "geometry": {"coordinates": [-95.909231758, 46.980908696], "type": "Point"}, "id": "4mrvBwa3CmLduNQd332uX6F7SfU=", "properties": {"@spider": "usps_collection_boxes", "addr:city": "CALLAWAY", "addr:country": "US", "addr:full": "312 MAIN AVE", "addr:postcode": "56521", "addr:state": "MN", "amenity": "post_box", "brand": "United States Postal Service", "brand:wikidata": "Q668687", "collection_times": "Mo-Fr 12:00; Sa 09:30", "name": "USPS COLLECTION BOX - PO LOBBY", "nsi_id": "unitedstatespostalservice-a77078", "operator": "United States Postal Service", "operator:short": "USPS", "operator:type": "public", "operator:wikidata": "Q668687", "ref": "5652100003"}, "type": "Feature"}
{"dataset_attributes": {"@spider": "usps_collection_boxes", "spider:collection_time": "2023-12-19T08:25:25.283853"}, "geometry": {"coordinates": [-96.403802185, 46.098080948], "type": "Point"}, "id": "2Nb5CV_sfzYxHrECDoEeUYsiDK4=", "properties": {"@spider": "usps_collection_boxes", "addr:city": "CAMPBELL", "addr:country": "US", "addr:full": "510 5TH ST", "addr:postcode": "56522", "addr:state": "MN", "amenity": "post_box", "brand": "United States Postal Service", "brand:wikidata": "Q668687", "collection_times": "Mo-Fr 15:15; Sa 14:30", "name": "USPS COLLECTION BOX - BLUE BOX", "note": "ON 12/24 AND 12/31, THIS BOX MAY BE COLLECTED AS EARLY AS 12 NOON.", "nsi_id": "unitedstatespostalservice-a77078", "operator": "United States Postal Service", "operator:short": "USPS", "operator:type": "public", "operator:wikidata": "Q668687", "ref": "5652200001"}, "type": "Feature"}
{"dataset_attributes": {"@spider": "usps_collection_boxes", "spider:collection_time": "2023-12-19T08:25:25.283853"}, "geometry": {"coordinates": [-96.403802185, 46.098080948], "type": "Point"}, "id": "BJeceYgWzqx9X54VC7I501Nez2Q=", "properties": {"@spider": "usps_collection_boxes", "addr:city": "CAMPBELL", "addr:country": "US", "addr:full": "510 5TH ST", "addr:postcode": "56522", "addr:state": "MN", "amenity": "post_box", "brand": "United States Postal Service", "brand:wikidata": "Q668687", "collection_times": "Mo-Fr 12:00", "name": "USPS COLLECTION BOX - PO LOBBY", "nsi_id": "unitedstatespostalservice-a77078", "operator": "United States Postal Service", "operator:short": "USPS", "operator:type": "public", "operator:wikidata": "Q668687", "ref": "5652200003"}, "type": "Feature"}
{"dataset_attributes": {"@spider": "usps_collection_boxes", "spider:collection_time": "2023-12-19T08:25:25.283853"}, "geometry": {"coordinates": [-96.4865408, 46.1845787], "type": "Point"}, "id": "NiDOHlVZxz8hKXowwKO0aSmtrJM=", "properties": {"@spider": "usps_collection_boxes", "addr:city": "CAMPBELL", "addr:country": "US", "addr:full": "206 ASH AVE", "addr:postcode": "56522", "addr:state": "MN", "amenity": "post_box", "brand": "United States Postal Service", "brand:wikidata": "Q668687", "collection_times": "Mo-Sa 15:00", "name": "USPS COLLECTION BOX - BLUE BOX", "note": "ON 12/24 AND 12/31, THIS BOX MAY BE COLLECTED AS EARLY AS 12 NOON.", "nsi_id": "unitedstatespostalservice-a77078", "operator": "United States Postal Service", "operator:short": "USPS", "operator:type": "public", "operator:wikidata": "Q668687", "ref": "5652200004"}, "type": "Feature"}
{"dataset_attributes": {"@spider": "usps_collection_boxes", "spider:collection_time": "2023-12-19T08:25:25.283853"}, "geometry": {"coordinates": [-96.403802185, 46.098080948], "type": "Point"}, "id": "_fez9k_WDFdCKIowE0WEU0mVlL8=", "properties": {"@spider": "usps_collection_boxes", "addr:city": "CAMPBELL", "addr:country": "US", "addr:full": "510 5TH ST", "addr:postcode": "56522", "addr:state": "MN", "amenity": "post_box", "brand": "United States Postal Service", "brand:wikidata": "Q668687", "collection_times": "Mo-Fr 12:00; Sa 09:45", "name": "USPS COLLECTION BOX - PO LOBBY", "nsi_id": "unitedstatespostalservice-a77078", "operator": "United States Postal Service", "operator:short": "USPS", "operator:type": "public", "operator:wikidata": "Q668687", "ref": "5652200005"}, "type": "Feature"}
{"dataset_attributes": {"@spider": "usps_collection_boxes", "spider:collection_time": "2023-12-19T08:25:25.283853"}, "geometry": {"coordinates": [-96.817810332, 47.607745528], "type": "Point"}, "id": "fW6Y-La2S-cJ3NTmWprbSo1LB5o=", "properties": {"@spider": "usps_collection_boxes", "addr:city": "CLIMAX", "addr:country": "US", "addr:full": "202 W BROADWAY", "addr:postcode": "56523", "addr:state": "MN", "amenity": "post_box", "brand": "United States Postal Service", "brand:wikidata": "Q668687", "collection_times": "Mo-Sa 16:00", "name": "USPS COLLECTION BOX - BLUE BOX", "note": "ON 12/24 AND 12/31, THIS BOX MAY BE COLLECTED AS EARLY AS 12 NOON.", "nsi_id": "unitedstatespostalservice-a77078", "operator": "United States Postal Service", "operator:short": "USPS", "operator:type": "public", "operator:wikidata": "Q668687", "ref": "5652300001"}, "type": "Feature"}
{"dataset_attributes": {"@spider": "usps_collection_boxes", "spider:collection_time": "2023-12-19T08:25:25.283853"}, "geometry": {"coordinates": [-96.817810332, 47.607745528], "type": "Point"}, "id": "NujJTZ1zC3EZHMQk7pZ2aSkaZuc=", "properties": {"@spider": "usps_collection_boxes", "addr:city": "CLIMAX", "addr:country": "US", "addr:full": "202 W BROADWAY", "addr:postcode": "56523", "addr:state": "MN", "amenity": "post_box", "brand": "United States Postal Service", "brand:wikidata": "Q668687", "collection_times": "Mo-Fr 12:00", "name": "USPS COLLECTION BOX - PO LOBBY", "nsi_id": "unitedstatespostalservice-a77078", "operator": "United States Postal Service", "operator:short": "USPS", "operator:type": "public", "operator:wikidata": "Q668687", "ref": "5652300002"}, "type": "Feature"}
{"dataset_attributes": {"@spider": "usps_collection_boxes", "spider:collection_time": "2023-12-19T08:25:25.283853"}, "geometry": {"coordinates": [-96.817810332, 47.607745528], "type": "Point"}, "id": "c4t2pM0MQl3kpG96FzPnS508Dug=", "properties": {"@spider": "usps_collection_boxes", "addr:city": "CLIMAX", "addr:country": "US", "addr:full": "202 W BROADWAY", "addr:postcode": "56523", "addr:state": "MN", "amenity": "post_box", "brand": "United States Postal Service", "brand:wikidata": "Q668687", "collection_times": "Mo-Fr 11:50; Sa 09:30", "name": "USPS COLLECTION BOX - PO LOBBY", "nsi_id": "unitedstatespostalservice-a77078", "operator": "United States Postal Service", "operator:short": "USPS", "operator:type": "public", "operator:wikidata": "Q668687", "ref": "5652300004"}, "type": "Feature"}
{"dataset_attributes": {"@spider": "usps_collection_boxes", "spider:collection_time": "2023-12-19T08:25:25.283853"}, "geometry": {"coordinates": [-95.630872214, 46.273716], "type": "Point"}, "id": "AslMPMMlVVvO_S2LDNj_nGQNfZY=", "properties": {"@spider": "usps_collection_boxes", "addr:city": "CLITHERALL", "addr:country": "US", "addr:full": "104 S OAK ST", "addr:postcode": "56524", "addr:state": "MN", "amenity": "post_box", "brand": "United States Postal Service", "brand:wikidata": "Q668687", "collection_times": "Mo-Sa 15:45", "name": "USPS COLLECTION BOX - BLUE BOX", "note": "ON 12/24 AND 12/31, THIS BOX MAY BE COLLECTED AS EARLY AS 12 NOON.", "nsi_id": "unitedstatespostalservice-a77078", "operator": "United States Postal Service", "operator:short": "USPS", "operator:type": "public", "operator:wikidata": "Q668687", "ref": "5652400001"}, "type": "Feature"}
{"dataset_attributes": {"@spider": "usps_collection_boxes", "spider:collection_time": "2023-12-19T08:25:25.283853"}, "geometry": {"coordinates": [-95.630872214, 46.273716], "type": "Point"}, "id": "YSkAtG6bQV2-iJhFiYtQJCxWpjk=", "properties": {"@spider": "usps_collection_boxes", "addr:city": "CLITHERALL", "addr:country": "US", "addr:full": "104 S OAK ST", "addr:postcode": "56524", "addr:state": "MN", "amenity": "post_box", "brand": "United States Postal Service", "brand:wikidata": "Q668687", "collection_times": "Mo-Fr 11:30", "name": "USPS COLLECTION BOX - PO LOBBY", "nsi_id": "unitedstatespostalservice-a77078", "operator": "United States Postal Service", "operator:short": "USPS", "operator:type": "public", "operator:wikidata": "Q668687", "ref": "5652400002"}, "type": "Feature"}
{"dataset_attributes": {"@spider": "usps_collection_boxes", "spider:collection_time": "2023-12-19T08:25:25.283853"}, "geometry": {"coordinates": [-95.630872214, 46.273716], "type": "Point"}, "id": "dNimUgu6DHJZW_EdFlELck_pOZg=", "properties": {"@spider": "usps_collection_boxes", "addr:city": "CLITHERALL", "addr:country": "US", "addr:full": "104 S OAK ST", "addr:postcode": "56524", "addr:state": "MN", "amenity": "post_box", "brand": "United States Postal Service", "brand:wikidata": "Q668687", "collection_times": "Mo-Fr 11:30; Sa 09:15", "name": "USPS COLLECTION BOX - PO LOBBY", "nsi_id": "unitedstatespostalservice-a77078", "operator": "United States Postal Service", "operator:short": "USPS", "operator:type": "public", "operator:wikidata": "Q668687", "ref": "5652400004"}, "type": "Feature"}
{"dataset_attributes": {"@spider": "usps_collection_boxes", "spider:collection_time": "2023-12-19T08:25:25.283853"}, "geometry": {"coordinates": [-96.748860945, 46.659407468], "type": "Point"}, "id": "TPXZAZsW88VwAQeXx35O8HUDtIM=", "properties": {"@spider": "usps_collection_boxes", "addr:city": "COMSTOCK", "addr:country": "US", "addr:full": "1762 160TH AVE S", "addr:postcode": "56525", "addr:state": "MN", "amenity": "post_box", "brand": "United States Postal Service", "brand:wikidata": "Q668687", "collection_times": "Mo-Fr 14:00; Sa 16:00", "name": "USPS COLLECTION BOX - BLUE BOX", "note": "ON 12/24 AND 12/31, THIS BOX MAY BE COLLECTED AS EARLY AS 12 NOON.", "nsi_id": "unitedstatespostalservice-a77078", "operator": "United States Postal Service", "operator:short": "USPS", "operator:type": "public", "operator:wikidata": "Q668687", "ref": "5652500000"}, "type": "Feature"}
{"dataset_attributes": {"@spider": "usps_collection_boxes", "spider:collection_time": "2023-12-19T08:25:25.283853"}, "geometry": {"coordinates": [-96.748860945, 46.659407468], "type": "Point"}, "id": "-cxdVwim0kZOGSwoFk1uM9aB51o=", "properties": {"@spider": "usps_collection_boxes", "addr:city": "COMSTOCK", "addr:country": "US", "addr:full": "1762 160TH AVE S", "addr:postcode": "56525", "addr:state": "MN", "amenity": "post_box", "brand": "United States Postal Service", "brand:wikidata": "Q668687", "collection_times": "Mo-Fr 10:00", "name": "USPS COLLECTION BOX - PO LOBBY", "nsi_id": "unitedstatespostalservice-a77078", "operator": "United States Postal Service", "operator:short": "USPS", "operator:type": "public", "operator:wikidata": "Q668687", "ref": "5652500001"}, "type": "Feature"}
{"dataset_attributes": {"@spider": "usps_collection_boxes", "spider:collection_time": "2023-12-19T08:25:25.283853"}, "geometry": {"coordinates": [-96.748860945, 46.659407468], "type": "Point"}, "id": "w-ZYV2rh4PVxUxidoNmgVtyGHSY=", "properties": {"@spider": "usps_collection_boxes", "addr:city": "COMSTOCK", "addr:country": "US", "addr:full": "1762 160TH AVE S", "addr:postcode": "56525", "addr:state": "MN", "amenity": "post_box", "brand": "United States Postal Service", "brand:wikidata": "Q668687", "collection_times": "Mo-Sa 10:00", "name": "USPS COLLECTION BOX - PO LOBBY", "nsi_id": "unitedstatespostalservice-a77078", "operator": "United States Postal Service", "operator:short": "USPS", "operator:type": "public", "operator:wikidata": "Q668687", "ref": "5652500002"}, "type": "Feature"}
{"dataset_attributes": {"@spider": "usps_collection_boxes", "spider:collection_time": "2023-12-19T08:25:25.283853"}, "geometry": {"coordinates": [-95.320053, 46.390954472], "type": "Point"}, "id": "Ykh3WD9vlK4UVEQC5RUdBe5GdpM=", "properties": {"@spider": "usps_collection_boxes", "addr:city": "DEER CREEK", "addr:country": "US", "addr:full": "120 MAIN AVE E", "addr:postcode": "56527", "addr:state": "MN", "amenity": "post_box", "brand": "United States Postal Service", "brand:wikidata": "Q668687", "collection_times": "Mo-Sa 15:30", "name": "USPS COLLECTION BOX - BLUE BOX", "note": "ON 12/24 AND 12/31, THIS BOX MAY BE COLLECTED AS EARLY AS 12 NOON.", "nsi_id": "unitedstatespostalservice-a77078", "operator": "United States Postal Service", "operator:short": "USPS", "operator:type": "public", "operator:wikidata": "Q668687", "ref": "5652700001"}, "type": "Feature"}
{"dataset_attributes": {"@spider": "usps_collection_boxes", "spider:collection_time": "2023-12-19T08:25:25.283853"}, "geometry": {"coordinates": [-95.320053, 46.390954472], "type": "Point"}, "id": "QxeagMneFNad-L1_t1Q3CLx-_JU=", "properties": {"@spider": "usps_collection_boxes", "addr:city": "DEER CREEK", "addr:country": "US", "addr:full": "120 MAIN AVE E", "addr:postcode": "56527", "addr:state": "MN", "amenity": "post_box", "brand": "United States Postal Service", "brand:wikidata": "Q668687", "collection_times": "Mo-Fr 12:00", "name": "USPS COLLECTION BOX - PO LOBBY", "nsi_id": "unitedstatespostalservice-a77078", "operator": "United States Postal Service", "operator:short": "USPS", "operator:type": "public", "operator:wikidata": "Q668687", "ref": "5652700002"}, "type": "Feature"}
{"dataset_attributes": {"@spider": "usps_collection_boxes", "spider:collection_time": "2023-12-19T08:25:25.283853"}, "geometry": {"coordinates": [-95.320053, 46.390954472], "type": "Point"}, "id": "NMgnv3JhNwkhREhOHcXTXGX_6qA=", "properties": {"@spider": "usps_collection_boxes", "addr:city": "DEER CREEK", "addr:country": "US", "addr:full": "120 MAIN AVE E", "addr:postcode": "56527", "addr:state": "MN", "amenity": "post_box", "brand": "United States Postal Service", "brand:wikidata": "Q668687", "collection_times": "Mo-Fr 12:00; Sa 09:00", "name": "USPS COLLECTION BOX - PO LOBBY", "nsi_id": "unitedstatespostalservice-a77078", "operator": "United States Postal Service", "operator:short": "USPS", "operator:type": "public", "operator:wikidata": "Q668687", "ref": "5652700003"}, "type": "Feature"}
{"dataset_attributes": {"@spider": "usps_collection_boxes", "spider:collection_time": "2023-12-19T08:25:25.283853"}, "geometry": {"coordinates": [-95.715864563, 46.553774795], "type": "Point"}, "id": "dVnFfwuAl9nGJLwcHIXr43fymGs=", "properties": {"@spider": "usps_collection_boxes", "addr:city": "DENT", "addr:country": "US", "addr:full": "108 MAIN ST", "addr:postcode": "56528", "addr:state": "MN", "amenity": "post_box", "brand": "United States Postal Service", "brand:wikidata": "Q668687", "collection_times": "Mo-Sa 14:40", "name": "USPS COLLECTION BOX - BLUE BOX", "note": "ON 12/24 AND 12/31, THIS BOX MAY BE COLLECTED AS EARLY AS 12 NOON.", "nsi_id": "unitedstatespostalservice-a77078", "operator": "United States Postal Service", "operator:short": "USPS", "operator:type": "public", "operator:wikidata": "Q668687", "ref": "5652800001"}, "type": "Feature"}
{"dataset_attributes": {"@spider": "usps_collection_boxes", "spider:collection_time": "2023-12-19T08:25:25.283853"}, "geometry": {"coordinates": [-95.715864563, 46.553774795], "type": "Point"}, "id": "kiXFkyj3Vw2ZqjWa7G4DL8d-lpg=", "properties": {"@spider": "usps_collection_boxes", "addr:city": "DENT", "addr:country": "US", "addr:full": "108 MAIN ST", "addr:postcode": "56528", "addr:state": "MN", "amenity": "post_box", "brand": "United States Postal Service", "brand:wikidata": "Q668687", "collection_times": "Mo-Fr 14:40", "name": "USPS COLLECTION BOX - PO LOBBY", "note": "ON 12/24 AND 12/31, THIS BOX MAY BE COLLECTED AS EARLY AS 12 NOON.", "nsi_id": "unitedstatespostalservice-a77078", "operator": "United States Postal Service", "operator:short": "USPS", "operator:type": "public", "operator:wikidata": "Q668687", "ref": "5652800002"}, "type": "Feature"}
{"dataset_attributes": {"@spider": "usps_collection_boxes", "spider:collection_time": "2023-12-19T08:25:25.283853"}, "geometry": {"coordinates": [-95.715864563, 46.553774795], "type": "Point"}, "id": "tYIphbiXQej-vLcRuEGYdm-_FtE=", "properties": {"@spider": "usps_collection_boxes", "addr:city": "DENT", "addr:country": "US", "addr:full": "108 MAIN ST", "addr:postcode": "56528", "addr:state": "MN", "amenity": "post_box", "brand": "United States Postal Service", "brand:wikidata": "Q668687", "collection_times": "Mo-Fr 14:40; Sa 12:00", "name": "USPS COLLECTION BOX - PO LOBBY", "note": "ON 12/24 AND 12/31, THIS BOX MAY BE COLLECTED AS EARLY AS 12 NOON.", "nsi_id": "unitedstatespostalservice-a77078", "operator": "United States Postal Service", "operator:short": "USPS", "operator:type": "public", "operator:wikidata": "Q668687", "ref": "5652800004"}, "type": "Feature"}
{"dataset_attributes": {"@spider": "usps_collection_boxes", "spider:collection_time": "2023-12-19T08:25:25.283853"}, "geometry": {"coordinates": [-96.702803916, 46.8756375], "type": "Point"}, "id": "9n2fzHp5MzADH0Z9xaeAwB2DlcY=", "properties": {"@spider": "usps_collection_boxes", "addr:city": "DILWORTH", "addr:country": "US", "addr:full": "1 1ST AVE SE", "addr:postcode": "56529", "addr:state": "MN", "amenity": "post_box", "brand": "United States Postal Service", "brand:wikidata": "Q668687", "collection_times": "Mo-Fr 16:30; Sa 19:00", "name": "USPS COLLECTION BOX - BLUE BOX", "note": "ON 12/24 AND 12/31, THIS BOX MAY BE COLLECTED AS EARLY AS 12 NOON.", "nsi_id": "unitedstatespostalservice-a77078", "operator": "United States Postal Service", "operator:short": "USPS", "operator:type": "public", "operator:wikidata": "Q668687", "ref": "5652900002"}, "type": "Feature"}
{"dataset_attributes": {"@spider": "usps_collection_boxes", "spider:collection_time": "2023-12-19T08:25:25.283853"}, "geometry": {"coordinates": [-96.702803916, 46.8756375], "type": "Point"}, "id": "d2JiSR5_UBEZtar83MlzXGrqirE=", "properties": {"@spider": "usps_collection_boxes", "addr:city": "DILWORTH", "addr:country": "US", "addr:full": "1 1ST AVE SE", "addr:postcode": "56529", "addr:state": "MN", "amenity": "post_box", "brand": "United States Postal Service", "brand:wikidata": "Q668687", "collection_times": "Mo-Fr 16:30; Sa 09:45", "name": "USPS COLLECTION BOX - PO LOBBY", "note": "ON 12/24 AND 12/31, THIS BOX MAY BE COLLECTED AS EARLY AS 12 NOON.", "nsi_id": "unitedstatespostalservice-a77078", "operator": "United States Postal Service", "operator:short": "USPS", "operator:type": "public", "operator:wikidata": "Q668687", "ref": "5652900004"}, "type": "Feature"}
{"dataset_attributes": {"@spider": "usps_collection_boxes", "spider:collection_time": "2023-12-19T08:25:25.283853"}, "geometry": {"coordinates": [-96.725533088, 46.881628522], "type": "Point"}, "id": "rxVWIYUa_gFTCZqfFjBeIxX3YIA=", "properties": {"@spider": "usps_collection_boxes", "addr:city": "DILWORTH", "addr:country": "US", "addr:full": "415 34TH ST N", "addr:postcode": "56529", "addr:state": "MN", "amenity": "post_box", "brand": "United States Postal Service", "brand:wikidata": "Q668687", "collection_times": "Mo-Sa 12:00", "name": "USPS COLLECTION BOX - BLUE BOX", "nsi_id": "unitedstatespostalservice-a77078", "operator": "United States Postal Service", "operator:short": "USPS", "operator:type": "public", "operator:wikidata": "Q668687", "ref": "5652900008"}, "type": "Feature"}
{"dataset_attributes": {"@spider": "usps_collection_boxes", "spider:collection_time": "2023-12-19T08:25:25.283853"}, "geometry": {"coordinates": [-96.702803916, 46.8756375], "type": "Point"}, "id": "fK2ItWGzp9gQ1hqwjSMOEK7GVaQ=", "properties": {"@spider": "usps_collection_boxes", "addr:city": "DILWORTH", "addr:country": "US", "addr:full": "1 1ST AVE SE", "addr:postcode": "56529", "addr:state": "MN", "amenity": "post_box", "brand": "United States Postal Service", "brand:wikidata": "Q668687", "collection_times": "Mo-Fr 16:30; Sa 09:45", "name": "USPS COLLECTION BOX - PO LOBBY", "note": "ON 12/24 AND 12/31, THIS BOX MAY BE COLLECTED AS EARLY AS 12 NOON.", "nsi_id": "unitedstatespostalservice-a77078", "operator": "United States Postal Service", "operator:short": "USPS", "operator:type": "public", "operator:wikidata": "Q668687", "ref": "5652900012"}, "type": "Feature"}
{"dataset_attributes": {"@spider": "usps_collection_boxes", "spider:collection_time": "2023-12-19T08:25:25.283853"}, "geometry": {"coordinates": [-95.975505019, 45.992067642], "type": "Point"}, "id": "QrET84Nv7cRF_VLSMPSMLqmlFgs=", "properties": {"@spider": "usps_collection_boxes", "addr:city": "ELBOW LAKE", "addr:country": "US", "addr:full": "16 1ST AVE SE", "addr:postcode": "56531", "addr:state": "MN", "amenity": "post_box", "brand": "United States Postal Service", "brand:wikidata": "Q668687", "collection_times": "Mo-Sa 16:30", "name": "USPS COLLECTION BOX - BLUE BOX", "note": "ON 12/24 AND 12/31, THIS BOX MAY BE COLLECTED AS EARLY AS 12 NOON.", "nsi_id": "unitedstatespostalservice-a77078", "operator": "United States Postal Service", "operator:short": "USPS", "operator:type": "public", "operator:wikidata": "Q668687", "ref": "5653100002"}, "type": "Feature"}
{"dataset_attributes": {"@spider": "usps_collection_boxes", "spider:collection_time": "2023-12-19T08:25:25.283853"}, "geometry": {"coordinates": [-95.975505019, 45.992067642], "type": "Point"}, "id": "LX1SJe0cD_g7CUwt1ulrAiGTmIQ=", "properties": {"@spider": "usps_collection_boxes", "addr:city": "ELBOW LAKE", "addr:country": "US", "addr:full": "16 1ST AVE SE", "addr:postcode": "56531", "addr:state": "MN", "amenity": "post_box", "brand": "United States Postal Service", "brand:wikidata": "Q668687", "collection_times": "Mo-Fr 16:30", "name": "USPS COLLECTION BOX - PO LOBBY", "note": "ON 12/24 AND 12/31, THIS BOX MAY BE COLLECTED AS EARLY AS 12 NOON.", "nsi_id": "unitedstatespostalservice-a77078", "operator": "United States Postal Service", "operator:short": "USPS", "operator:type": "public", "operator:wikidata": "Q668687", "ref": "5653100003"}, "type": "Feature"}
{"dataset_attributes": {"@spider": "usps_collection_boxes", "spider:collection_time": "2023-12-19T08:25:25.283853"}, "geometry": {"coordinates": [-95.975505019, 45.992067642], "type": "Point"}, "id": "ggg9kOShx4b64Mwzcz48WRV8B1Y=", "properties": {"@spider": "usps_collection_boxes", "addr:city": "ELBOW LAKE", "addr:country": "US", "addr:full": "16 1ST AVE SE", "addr:postcode": "56531", "addr:state": "MN", "amenity": "post_box", "brand": "United States Postal Service", "brand:wikidata": "Q668687", "collection_times": "Mo-Fr 16:15; Sa 09:30", "name": "USPS COLLECTION BOX - PO LOBBY", "note": "ON 12/24 AND 12/31, THIS BOX MAY BE COLLECTED AS EARLY AS 12 NOON.", "nsi_id": "unitedstatespostalservice-a77078", "operator": "United States Postal Service", "operator:short": "USPS", "operator:type": "public", "operator:wikidata": "Q668687", "ref": "5653100006"}, "type": "Feature"}
{"dataset_attributes": {"@spider": "usps_collection_boxes", "spider:collection_time": "2023-12-19T08:25:25.283853"}, "geometry": {"coordinates": [-96.099552335, 46.483336508], "type": "Point"}, "id": "2wvcCiACTXfXCSMyMLrXpuAe0lE=", "properties": {"@spider": "usps_collection_boxes", "addr:city": "ERHARD", "addr:country": "US", "addr:full": "417 GROVE ST", "addr:postcode": "56534", "addr:state": "MN", "amenity": "post_box", "brand": "United States Postal Service", "brand:wikidata": "Q668687", "collection_times": "Mo-Sa 16:20", "name": "USPS COLLECTION BOX - BLUE BOX", "note": "ON 12/24 AND 12/31, THIS BOX MAY BE COLLECTED AS EARLY AS 12 NOON.", "nsi_id": "unitedstatespostalservice-a77078", "operator": "United States Postal Service", "operator:short": "USPS", "operator:type": "public", "operator:wikidata": "Q668687", "ref": "5653400000"}, "type": "Feature"}
{"dataset_attributes": {"@spider": "usps_collection_boxes", "spider:collection_time": "2023-12-19T08:25:25.283853"}, "geometry": {"coordinates": [-96.099552335, 46.483336508], "type": "Point"}, "id": "9EkMjdmCW8sfhRZvFWTxj-QOdIg=", "properties": {"@spider": "usps_collection_boxes", "addr:city": "ERHARD", "addr:country": "US", "addr:full": "417 GROVE ST", "addr:postcode": "56534", "addr:state": "MN", "amenity": "post_box", "brand": "United States Postal Service", "brand:wikidata": "Q668687", "collection_times": "Mo-Fr 12:00", "name": "USPS COLLECTION BOX - PO LOBBY", "nsi_id": "unitedstatespostalservice-a77078", "operator": "United States Postal Service", "operator:short": "USPS", "operator:type": "public", "operator:wikidata": "Q668687", "ref": "5653400001"}, "type": "Feature"}
{"dataset_attributes": {"@spider": "usps_collection_boxes", "spider:collection_time": "2023-12-19T08:25:25.283853"}, "geometry": {"coordinates": [-96.099552335, 46.483336508], "type": "Point"}, "id": "nf2jTD5GwridytRPj7lR0qW9g_E=", "properties": {"@spider": "usps_collection_boxes", "addr:city": "ERHARD", "addr:country": "US", "addr:full": "417 GROVE ST", "addr:postcode": "56534", "addr:state": "MN", "amenity": "post_box", "brand": "United States Postal Service", "brand:wikidata": "Q668687", "collection_times": "Mo-Fr 12:00; Sa 09:30", "name": "USPS COLLECTION BOX - PO LOBBY", "nsi_id": "unitedstatespostalservice-a77078", "operator": "United States Postal Service", "operator:short": "USPS", "operator:type": "public", "operator:wikidata": "Q668687", "ref": "5653400003"}, "type": "Feature"}
{"dataset_attributes": {"@spider": "usps_collection_boxes", "spider:collection_time": "2023-12-19T08:25:25.283853"}, "geometry": {"coordinates": [-96.010318197, 47.667580396], "type": "Point"}, "id": "oJ4SxFU0PvEhhfXwJNOdU0_YNiA=", "properties": {"@spider": "usps_collection_boxes", "addr:city": "ERSKINE", "addr:country": "US", "addr:full": "123 VANCE AVE S", "addr:postcode": "56535", "addr:state": "MN", "amenity": "post_box", "brand": "United States Postal Service", "brand:wikidata": "Q668687", "collection_times": "Mo-Sa 14:35", "name": "USPS COLLECTION BOX - BLUE BOX", "note": "ON 12/24 AND 12/31, THIS BOX MAY BE COLLECTED AS EARLY AS 12 NOON.", "nsi_id": "unitedstatespostalservice-a77078", "operator": "United States Postal Service", "operator:short": "USPS", "operator:type": "public", "operator:wikidata": "Q668687", "ref": "5653500001"}, "type": "Feature"}
{"dataset_attributes": {"@spider": "usps_collection_boxes", "spider:collection_time": "2023-12-19T08:25:25.283853"}, "geometry": {"coordinates": [-96.010318197, 47.667580396], "type": "Point"}, "id": "q5jGbq9l6EopUR4K5o_2JT99PWA=", "properties": {"@spider": "usps_collection_boxes", "addr:city": "ERSKINE", "addr:country": "US", "addr:full": "123 VANCE AVE S", "addr:postcode": "56535", "addr:state": "MN", "amenity": "post_box", "brand": "United States Postal Service", "brand:wikidata": "Q668687", "collection_times": "Mo-Fr 14:35; Sa 10:30", "name": "USPS COLLECTION BOX - PO LOBBY", "note": "ON 12/24 AND 12/31, THIS BOX MAY BE COLLECTED AS EARLY AS 12 NOON.", "nsi_id": "unitedstatespostalservice-a77078", "operator": "United States Postal Service", "operator:short": "USPS", "operator:type": "public", "operator:wikidata": "Q668687", "ref": "5653500002"}, "type": "Feature"}
{"dataset_attributes": {"@spider": "usps_collection_boxes", "spider:collection_time": "2023-12-19T08:25:25.283853"}, "geometry": {"coordinates": [-96.010318197, 47.667580396], "type": "Point"}, "id": "_fVUIUtaRqPbL2o6lCsoZ4Q6mhA=", "properties": {"@spider": "usps_collection_boxes", "addr:city": "ERSKINE", "addr:country": "US", "addr:full": "123 VANCE AVE S", "addr:postcode": "56535", "addr:state": "MN", "amenity": "post_box", "brand": "United States Postal Service", "brand:wikidata": "Q668687", "collection_times": "Mo-Fr 14:35; Sa 10:30", "name": "USPS COLLECTION BOX - PO LOBBY", "note": "ON 12/24 AND 12/31, THIS BOX MAY BE COLLECTED AS EARLY AS 12 NOON.", "nsi_id": "unitedstatespostalservice-a77078", "operator": "United States Postal Service", "operator:short": "USPS", "operator:type": "public", "operator:wikidata": "Q668687", "ref": "5653500003"}, "type": "Feature"}
{"dataset_attributes": {"@spider": "usps_collection_boxes", "spider:collection_time": "2023-12-19T08:25:25.283853"}, "geometry": {"coordinates": [-96.010318197, 47.667580396], "type": "Point"}, "id": "LYCRXTGRLacxHqYEvtjzC1mU-kk=", "properties": {"@spider": "usps_collection_boxes", "addr:city": "ERSKINE", "addr:country": "US", "addr:full": "123 VANCE AVE S", "addr:postcode": "56535", "addr:state": "MN", "amenity": "post_box", "brand": "United States Postal Service", "brand:wikidata": "Q668687", "collection_times": "Mo-Fr 14:30; Sa 10:30", "name": "USPS COLLECTION BOX - PO LOBBY", "note": "ON 12/24 AND 12/31, THIS BOX MAY BE COLLECTED AS EARLY AS 12 NOON.", "nsi_id": "unitedstatespostalservice-a77078", "operator": "United States Postal Service", "operator:short": "USPS", "operator:type": "public", "operator:wikidata": "Q668687", "ref": "5653500004"}, "type": "Feature"}
{"dataset_attributes": {"@spider": "usps_collection_boxes", "spider:collection_time": "2023-12-19T08:25:25.283853"}, "geometry": {"coordinates": [-96.505852156, 47.077049888], "type": "Point"}, "id": "uQzTbO111Wtypfvny_jpDAO5lqY=", "properties": {"@spider": "usps_collection_boxes", "addr:city": "FELTON", "addr:country": "US", "addr:full": "340 5TH ST", "addr:postcode": "56536", "addr:state": "MN", "amenity": "post_box", "brand": "United States Postal Service", "brand:wikidata": "Q668687", "collection_times": "Mo-Sa 14:40", "name": "USPS COLLECTION BOX - BLUE BOX", "note": "ON 12/24 AND 12/31, THIS BOX MAY BE COLLECTED AS EARLY AS 12 NOON.", "nsi_id": "unitedstatespostalservice-a77078", "operator": "United States Postal Service", "operator:short": "USPS", "operator:type": "public", "operator:wikidata": "Q668687", "ref": "5653600001"}, "type": "Feature"}
{"dataset_attributes": {"@spider": "usps_collection_boxes", "spider:collection_time": "2023-12-19T08:25:25.283853"}, "geometry": {"coordinates": [-96.505852156, 47.077049888], "type": "Point"}, "id": "p6vahLvVmAlMqxDqzTAH6Qn3iWM=", "properties": {"@spider": "usps_collection_boxes", "addr:city": "FELTON", "addr:country": "US", "addr:full": "340 5TH ST", "addr:postcode": "56536", "addr:state": "MN", "amenity": "post_box", "brand": "United States Postal Service", "brand:wikidata": "Q668687", "collection_times": "Mo-Fr 12:00; Sa 09:15", "name": "USPS COLLECTION BOX - PO LOBBY", "nsi_id": "unitedstatespostalservice-a77078", "operator": "United States Postal Service", "operator:short": "USPS", "operator:type": "public", "operator:wikidata": "Q668687", "ref": "5653600004"}, "type": "Feature"}
{"dataset_attributes": {"@spider": "usps_collection_boxes", "spider:collection_time": "2023-12-19T08:25:25.283853"}, "geometry": {"coordinates": [-96.075823416, 46.284552509], "type": "Point"}, "id": "yh80LRQbT0F6Sl3CSW3gCfMReOI=", "properties": {"@spider": "usps_collection_boxes", "addr:city": "FERGUS FALLS", "addr:country": "US", "addr:full": "130 W CAVOUR AVE", "addr:postcode": "56537", "addr:state": "MN", "amenity": "post_box", "brand": "United States Postal Service", "brand:wikidata": "Q668687", "collection_times": "Mo-Fr 14:30; Sa 11:30", "name": "USPS COLLECTION BOX - BLUE BOX", "note": "ON 12/24 AND 12/31, THIS BOX MAY BE COLLECTED AS EARLY AS 12 NOON.", "nsi_id": "unitedstatespostalservice-a77078", "operator": "United States Postal Service", "operator:short": "USPS", "operator:type": "public", "operator:wikidata": "Q668687", "ref": "5653700006"}, "type": "Feature"}
{"dataset_attributes": {"@spider": "usps_collection_boxes", "spider:collection_time": "2023-12-19T08:25:25.283853"}, "geometry": {"coordinates": [-96.10095205, 46.283495527], "type": "Point"}, "id": "RyomYqqF0Xrm1LplhHX5daSU0fQ=", "properties": {"@spider": "usps_collection_boxes", "addr:city": "FERGUS FALLS", "addr:country": "US", "addr:full": "1425 W LINCOLN AVE", "addr:postcode": "56537", "addr:state": "MN", "amenity": "post_box", "brand": "United States Postal Service", "brand:wikidata": "Q668687", "collection_times": "Mo-Fr 14:30; Sa 11:30", "name": "USPS COLLECTION BOX - BLUE BOX", "note": "ON 12/24 AND 12/31, THIS BOX MAY BE COLLECTED AS EARLY AS 12 NOON.", "nsi_id": "unitedstatespostalservice-a77078", "operator": "United States Postal Service", "operator:short": "USPS", "operator:type": "public", "operator:wikidata": "Q668687", "ref": "5653700029"}, "type": "Feature"}
{"dataset_attributes": {"@spider": "usps_collection_boxes", "spider:collection_time": "2023-12-19T08:25:25.283853"}, "geometry": {"coordinates": [-96.118402656, 46.293952349], "type": "Point"}, "id": "Red9W5ww1P4WegMqsk6xzCgeMm4=", "properties": {"@spider": "usps_collection_boxes", "addr:city": "FERGUS FALLS", "addr:country": "US", "addr:full": "1011 WESTERN AVE", "addr:postcode": "56537", "addr:state": "MN", "amenity": "post_box", "brand": "United States Postal Service", "brand:wikidata": "Q668687", "collection_times": "Mo-Fr 17:30; Sa 15:00", "name": "USPS COLLECTION BOX - BLUE BOX", "note": "ON 12/24 AND 12/31, THIS BOX MAY BE COLLECTED AS EARLY AS 12 NOON.", "nsi_id": "unitedstatespostalservice-a77078", "operator": "United States Postal Service", "operator:short": "USPS", "operator:type": "public", "operator:wikidata": "Q668687", "ref": "5653700038"}, "type": "Feature"}
{"dataset_attributes": {"@spider": "usps_collection_boxes", "spider:collection_time": "2023-12-19T08:25:25.283853"}, "geometry": {"coordinates": [-96.118402656, 46.293952349], "type": "Point"}, "id": "7kIP_X3FSYVFC0ZJ4LcheaBo8AE=", "properties": {"@spider": "usps_collection_boxes", "addr:city": "FERGUS FALLS", "addr:country": "US", "addr:full": "1011 WESTERN AVE", "addr:postcode": "56537", "addr:state": "MN", "amenity": "post_box", "brand": "United States Postal Service", "brand:wikidata": "Q668687", "collection_times": "Mo-Fr 17:30; Sa 15:00", "name": "USPS COLLECTION BOX - PO LOBBY", "note": "ON 12/24 AND 12/31, THIS BOX MAY BE COLLECTED AS EARLY AS 12 NOON.", "nsi_id": "unitedstatespostalservice-a77078", "operator": "United States Postal Service", "operator:short": "USPS", "operator:type": "public", "operator:wikidata": "Q668687", "ref": "5653700039"}, "type": "Feature"}
{"dataset_attributes": {"@spider": "usps_collection_boxes", "spider:collection_time": "2023-12-19T08:25:25.283853"}, "geometry": {"coordinates": [-96.074241713, 46.28260691], "type": "Point"}, "id": "CEwbQ1ZEARQ8DXnijnTodLxFsKc=", "properties": {"@spider": "usps_collection_boxes", "addr:city": "FERGUS FALLS", "addr:country": "US", "addr:full": "118 S MILL ST", "addr:postcode": "56537", "addr:state": "MN", "amenity": "post_box", "brand": "United States Postal Service", "brand:wikidata": "Q668687", "collection_times": "Mo-Fr 17:15; Sa 11:30", "name": "USPS COLLECTION BOX - BLUE BOX", "note": "ON 12/24 AND 12/31, THIS BOX MAY BE COLLECTED AS EARLY AS 12 NOON.", "nsi_id": "unitedstatespostalservice-a77078", "operator": "United States Postal Service", "operator:short": "USPS", "operator:type": "public", "operator:wikidata": "Q668687", "ref": "5653700041"}, "type": "Feature"}
{"dataset_attributes": {"@spider": "usps_collection_boxes", "spider:collection_time": "2023-12-19T08:25:25.283853"}, "geometry": {"coordinates": [-96.118402656, 46.293952349], "type": "Point"}, "id": "8iSc_DYTNWRPiTtGyFjGawJb2lM=", "properties": {"@spider": "usps_collection_boxes", "addr:city": "FERGUS FALLS", "addr:country": "US", "addr:full": "1011 WESTERN AVE", "addr:postcode": "56537", "addr:state": "MN", "amenity": "post_box", "brand": "United States Postal Service", "brand:wikidata": "Q668687", "collection_times": "Mo-Fr 17:00; Sa 10:30", "name": "USPS COLLECTION BOX - PO LOBBY", "note": "ON 12/24 AND 12/31, THIS BOX MAY BE COLLECTED AS EARLY AS 12 NOON.", "nsi_id": "unitedstatespostalservice-a77078", "operator": "United States Postal Service", "operator:short": "USPS", "operator:type": "public", "operator:wikidata": "Q668687", "ref": "5653700043"}, "type": "Feature"}
{"dataset_attributes": {"@spider": "usps_collection_boxes", "spider:collection_time": "2023-12-19T08:25:25.283853"}, "geometry": {"coordinates": [-96.0719399695, 46.2791400106], "type": "Point"}, "id": "8BPP2x7oOoMOUZQL--Rhd2YWm18=", "properties": {"@spider": "usps_collection_boxes", "addr:city": "FERGUS FALLS", "addr:country": "US", "addr:full": "205 E HAMPDEN AVE", "addr:postcode": "56537", "addr:state": "MN", "amenity": "post_box", "brand": "United States Postal Service", "brand:wikidata": "Q668687", "collection_times": "Mo-Sa 14:30", "name": "USPS COLLECTION BOX - BLUE BOX", "note": "ON 12/24 AND 12/31, THIS BOX MAY BE COLLECTED AS EARLY AS 12 NOON.", "nsi_id": "unitedstatespostalservice-a77078", "operator": "United States Postal Service", "operator:short": "USPS", "operator:type": "public", "operator:wikidata": "Q668687", "ref": "5653700044"}, "type": "Feature"}
{"dataset_attributes": {"@spider": "usps_collection_boxes", "spider:collection_time": "2023-12-19T08:25:25.283853"}, "geometry": {"coordinates": [-96.2796105, 47.536163453], "type": "Point"}, "id": "3cEl0cFGoUT6fJA_L3027nnKJtU=", "properties": {"@spider": "usps_collection_boxes", "addr:city": "FERTILE", "addr:country": "US", "addr:full": "107 WASHINGTON AVE NE", "addr:postcode": "56540", "addr:state": "MN", "amenity": "post_box", "brand": "United States Postal Service", "brand:wikidata": "Q668687", "collection_times": "Mo-Sa 13:15", "name": "USPS COLLECTION BOX - BLUE BOX", "note": "ON 12/24 AND 12/31, THIS BOX MAY BE COLLECTED AS EARLY AS 12 NOON.", "nsi_id": "unitedstatespostalservice-a77078", "operator": "United States Postal Service", "operator:short": "USPS", "operator:type": "public", "operator:wikidata": "Q668687", "ref": "5654000001"}, "type": "Feature"}
{"dataset_attributes": {"@spider": "usps_collection_boxes", "spider:collection_time": "2023-12-19T08:25:25.283853"}, "geometry": {"coordinates": [-96.2796105, 47.536163453], "type": "Point"}, "id": "SMD2n8RaBPNlkLRsALtUiZRb1cY=", "properties": {"@spider": "usps_collection_boxes", "addr:city": "FERTILE", "addr:country": "US", "addr:full": "107 WASHINGTON AVE NE", "addr:postcode": "56540", "addr:state": "MN", "amenity": "post_box", "brand": "United States Postal Service", "brand:wikidata": "Q668687", "collection_times": "Mo-Fr 13:15", "name": "USPS COLLECTION BOX - PO LOBBY", "note": "ON 12/24 AND 12/31, THIS BOX MAY BE COLLECTED AS EARLY AS 12 NOON.", "nsi_id": "unitedstatespostalservice-a77078", "operator": "United States Postal Service", "operator:short": "USPS", "operator:type": "public", "operator:wikidata": "Q668687", "ref": "5654000002"}, "type": "Feature"}
{"dataset_attributes": {"@spider": "usps_collection_boxes", "spider:collection_time": "2023-12-19T08:25:25.283853"}, "geometry": {"coordinates": [-96.2796105, 47.536163453], "type": "Point"}, "id": "IzYzce_DjBcdyzy4DTOhSfVKmJ4=", "properties": {"@spider": "usps_collection_boxes", "addr:city": "FERTILE", "addr:country": "US", "addr:full": "107 WASHINGTON AVE NE", "addr:postcode": "56540", "addr:state": "MN", "amenity": "post_box", "brand": "United States Postal Service", "brand:wikidata": "Q668687", "collection_times": "Mo-Fr 13:15; Sa 10:30", "name": "USPS COLLECTION BOX - PO LOBBY", "note": "ON 12/24 AND 12/31, THIS BOX MAY BE COLLECTED AS EARLY AS 12 NOON.", "nsi_id": "unitedstatespostalservice-a77078", "operator": "United States Postal Service", "operator:short": "USPS", "operator:type": "public", "operator:wikidata": "Q668687", "ref": "5654000004"}, "type": "Feature"}
{"dataset_attributes": {"@spider": "usps_collection_boxes", "spider:collection_time": "2023-12-19T08:25:25.283853"}, "geometry": {"coordinates": [-96.130807807, 47.166069307], "type": "Point"}, "id": "b1PQWi5F9KjoEj9Yp3-1rEhQ0h8=", "properties": {"@spider": "usps_collection_boxes", "addr:city": "FLOM", "addr:country": "US", "addr:full": "1101 COUNTY HIGHWAY 38", "addr:postcode": "56541", "addr:state": "MN", "amenity": "post_box", "brand": "United States Postal Service", "brand:wikidata": "Q668687", "collection_times": "Mo-Sa 11:05", "name": "USPS COLLECTION BOX - BLUE BOX", "nsi_id": "unitedstatespostalservice-a77078", "operator": "United States Postal Service", "operator:short": "USPS", "operator:type": "public", "operator:wikidata": "Q668687", "ref": "5654100001"}, "type": "Feature"}
{"dataset_attributes": {"@spider": "usps_collection_boxes", "spider:collection_time": "2023-12-19T08:25:25.283853"}, "geometry": {"coordinates": [-96.130807807, 47.166069307], "type": "Point"}, "id": "vBaUvxg0Ay-rcFLTIwcfVX2Bb_c=", "properties": {"@spider": "usps_collection_boxes", "addr:city": "FLOM", "addr:country": "US", "addr:full": "1101 COUNTY HIGHWAY 38", "addr:postcode": "56541", "addr:state": "MN", "amenity": "post_box", "brand": "United States Postal Service", "brand:wikidata": "Q668687", "collection_times": "Mo-Fr 11:05", "name": "USPS COLLECTION BOX - PO LOBBY", "nsi_id": "unitedstatespostalservice-a77078", "operator": "United States Postal Service", "operator:short": "USPS", "operator:type": "public", "operator:wikidata": "Q668687", "ref": "5654100002"}, "type": "Feature"}
{"dataset_attributes": {"@spider": "usps_collection_boxes", "spider:collection_time": "2023-12-19T08:25:25.283853"}, "geometry": {"coordinates": [-96.130807807, 47.166069307], "type": "Point"}, "id": "Tkd-2ra0bRsk34NAkcD1a1LAX8s=", "properties": {"@spider": "usps_collection_boxes", "addr:city": "FLOM", "addr:country": "US", "addr:full": "1101 COUNTY HIGHWAY 38", "addr:postcode": "56541", "addr:state": "MN", "amenity": "post_box", "brand": "United States Postal Service", "brand:wikidata": "Q668687", "collection_times": "Mo-Sa 11:05", "name": "USPS COLLECTION BOX - PO LOBBY", "nsi_id": "unitedstatespostalservice-a77078", "operator": "United States Postal Service", "operator:short": "USPS", "operator:type": "public", "operator:wikidata": "Q668687", "ref": "5654100003"}, "type": "Feature"}
{"dataset_attributes": {"@spider": "usps_collection_boxes", "spider:collection_time": "2023-12-19T08:25:25.283853"}, "geometry": {"coordinates": [-95.751820748, 47.577455917], "type": "Point"}, "id": "0koCZKitmMjF8x1LX5hfW-GfQFc=", "properties": {"@spider": "usps_collection_boxes", "addr:city": "FOSSTON", "addr:country": "US", "addr:full": "119 2ND ST NW", "addr:postcode": "56542", "addr:state": "MN", "amenity": "post_box", "brand": "United States Postal Service", "brand:wikidata": "Q668687", "collection_times": "Mo-Sa 15:05", "name": "USPS COLLECTION BOX - BLUE BOX", "note": "ON 12/24 AND 12/31, THIS BOX MAY BE COLLECTED AS EARLY AS 12 NOON.", "nsi_id": "unitedstatespostalservice-a77078", "operator": "United States Postal Service", "operator:short": "USPS", "operator:type": "public", "operator:wikidata": "Q668687", "ref": "5654200001"}, "type": "Feature"}
{"dataset_attributes": {"@spider": "usps_collection_boxes", "spider:collection_time": "2023-12-19T08:25:25.283853"}, "geometry": {"coordinates": [-95.751825248, 47.577446917], "type": "Point"}, "id": "Toce1_x7a6_pbDsvUuFmz3Izfu8=", "properties": {"@spider": "usps_collection_boxes", "addr:city": "FOSSTON", "addr:country": "US", "addr:full": "119 2ND ST NW", "addr:postcode": "56542", "addr:state": "MN", "amenity": "post_box", "brand": "United States Postal Service", "brand:wikidata": "Q668687", "collection_times": "Mo-Fr 15:05", "name": "USPS COLLECTION BOX - PO LOBBY", "note": "ON 12/24 AND 12/31, THIS BOX MAY BE COLLECTED AS EARLY AS 12 NOON.", "nsi_id": "unitedstatespostalservice-a77078", "operator": "United States Postal Service", "operator:short": "USPS", "operator:type": "public", "operator:wikidata": "Q668687", "ref": "5654200003"}, "type": "Feature"}
{"dataset_attributes": {"@spider": "usps_collection_boxes", "spider:collection_time": "2023-12-19T08:25:25.283853"}, "geometry": {"coordinates": [-95.751825248, 47.577446917], "type": "Point"}, "id": "v0eQ14LgplVzW85ZuN5tpILpAKg=", "properties": {"@spider": "usps_collection_boxes", "addr:city": "FOSSTON", "addr:country": "US", "addr:full": "119 2ND ST NW", "addr:postcode": "56542", "addr:state": "MN", "amenity": "post_box", "brand": "United States Postal Service", "brand:wikidata": "Q668687", "collection_times": "Mo-Fr 15:00; Sa 09:30", "name": "USPS COLLECTION BOX - PO LOBBY", "note": "ON 12/24 AND 12/31, THIS BOX MAY BE COLLECTED AS EARLY AS 12 NOON.", "nsi_id": "unitedstatespostalservice-a77078", "operator": "United States Postal Service", "operator:short": "USPS", "operator:type": "public", "operator:wikidata": "Q668687", "ref": "5654200004"}, "type": "Feature"}
{"dataset_attributes": {"@spider": "usps_collection_boxes", "spider:collection_time": "2023-12-19T08:25:25.283853"}, "geometry": {"coordinates": [-96.307089158, 46.276219658], "type": "Point"}, "id": "ZyQW084rVGO6uX6NMAlrfBXzaQg=", "properties": {"@spider": "usps_collection_boxes", "addr:city": "FOXHOME", "addr:country": "US", "addr:full": "100 DENNISTON AVE", "addr:postcode": "56543", "addr:state": "MN", "amenity": "post_box", "brand": "United States Postal Service", "brand:wikidata": "Q668687", "collection_times": "Mo-Sa 15:15", "name": "USPS COLLECTION BOX - BLUE BOX", "note": "ON 12/24 AND 12/31, THIS BOX MAY BE COLLECTED AS EARLY AS 12 NOON.", "nsi_id": "unitedstatespostalservice-a77078", "operator": "United States Postal Service", "operator:short": "USPS", "operator:type": "public", "operator:wikidata": "Q668687", "ref": "5654300001"}, "type": "Feature"}
{"dataset_attributes": {"@spider": "usps_collection_boxes", "spider:collection_time": "2023-12-19T08:25:25.283853"}, "geometry": {"coordinates": [-96.307089158, 46.276219658], "type": "Point"}, "id": "m_-Tk3LMbPpJab7oz5o482gr0E8=", "properties": {"@spider": "usps_collection_boxes", "addr:city": "FOXHOME", "addr:country": "US", "addr:full": "100 DENNISTON AVE", "addr:postcode": "56543", "addr:state": "MN", "amenity": "post_box", "brand": "United States Postal Service", "brand:wikidata": "Q668687", "collection_times": "Mo-Fr 11:15", "name": "USPS COLLECTION BOX - PO LOBBY", "nsi_id": "unitedstatespostalservice-a77078", "operator": "United States Postal Service", "operator:short": "USPS", "operator:type": "public", "operator:wikidata": "Q668687", "ref": "5654300002"}, "type": "Feature"}
{"dataset_attributes": {"@spider": "usps_collection_boxes", "spider:collection_time": "2023-12-19T08:25:25.283853"}, "geometry": {"coordinates": [-96.307089158, 46.276219658], "type": "Point"}, "id": "0M9bRKc0rxQRZaxVYX9pBpDzO6M=", "properties": {"@spider": "usps_collection_boxes", "addr:city": "FOXHOME", "addr:country": "US", "addr:full": "100 DENNISTON AVE", "addr:postcode": "56543", "addr:state": "MN", "amenity": "post_box", "brand": "United States Postal Service", "brand:wikidata": "Q668687", "collection_times": "Mo-Sa 11:15", "name": "USPS COLLECTION BOX - PO LOBBY", "nsi_id": "unitedstatespostalservice-a77078", "operator": "United States Postal Service", "operator:short": "USPS", "operator:type": "public", "operator:wikidata": "Q668687", "ref": "5654300003"}, "type": "Feature"}
{"dataset_attributes": {"@spider": "usps_collection_boxes", "spider:collection_time": "2023-12-19T08:25:25.283853"}, "geometry": {"coordinates": [-95.700560295, 46.727822844], "type": "Point"}, "id": "UzaX7yyXsubsv3qIMz0bFOrS4ts=", "properties": {"@spider": "usps_collection_boxes", "addr:city": "FRAZEE", "addr:country": "US", "addr:full": "103 E MAIN AVE", "addr:postcode": "56544", "addr:state": "MN", "amenity": "post_box", "brand": "United States Postal Service", "brand:wikidata": "Q668687", "collection_times": "Mo-Sa 17:00", "name": "USPS COLLECTION BOX - BLUE BOX", "note": "ON 12/24 AND 12/31, THIS BOX MAY BE COLLECTED AS EARLY AS 12 NOON.", "nsi_id": "unitedstatespostalservice-a77078", "operator": "United States Postal Service", "operator:short": "USPS", "operator:type": "public", "operator:wikidata": "Q668687", "ref": "5654400001"}, "type": "Feature"}
{"dataset_attributes": {"@spider": "usps_collection_boxes", "spider:collection_time": "2023-12-19T08:25:25.283853"}, "geometry": {"coordinates": [-95.700560295, 46.727822844], "type": "Point"}, "id": "nLj7LFhmAzLkkn5_cnwswjrXkgo=", "properties": {"@spider": "usps_collection_boxes", "addr:city": "FRAZEE", "addr:country": "US", "addr:full": "103 E MAIN AVE", "addr:postcode": "56544", "addr:state": "MN", "amenity": "post_box", "brand": "United States Postal Service", "brand:wikidata": "Q668687", "collection_times": "Mo-Fr 16:30", "name": "USPS COLLECTION BOX - PO LOBBY", "note": "ON 12/24 AND 12/31, THIS BOX MAY BE COLLECTED AS EARLY AS 12 NOON.", "nsi_id": "unitedstatespostalservice-a77078", "operator": "United States Postal Service", "operator:short": "USPS", "operator:type": "public", "operator:wikidata": "Q668687", "ref": "5654400002"}, "type": "Feature"}
{"dataset_attributes": {"@spider": "usps_collection_boxes", "spider:collection_time": "2023-12-19T08:25:25.283853"}, "geometry": {"coordinates": [-95.354793084, 46.803222512], "type": "Point"}, "id": "H3LFhqb-CdCqDbKsMk-6goOZPRs=", "properties": {"@spider": "usps_collection_boxes", "addr:city": "FRAZEE", "addr:country": "US", "addr:full": "132 W JOHNSON ST", "addr:postcode": "56544", "addr:state": "MN", "amenity": "post_box", "brand": "United States Postal Service", "brand:wikidata": "Q668687", "collection_times": "Mo-Sa 15:30", "name": "USPS COLLECTION BOX - BLUE BOX", "note": "ON 12/24 AND 12/31, THIS BOX MAY BE COLLECTED AS EARLY AS 12 NOON.", "nsi_id": "unitedstatespostalservice-a77078", "operator": "United States Postal Service", "operator:short": "USPS", "operator:type": "public", "operator:wikidata": "Q668687", "ref": "5654400003"}, "type": "Feature"}
{"dataset_attributes": {"@spider": "usps_collection_boxes", "spider:collection_time": "2023-12-19T08:25:25.283853"}, "geometry": {"coordinates": [-95.700560295, 46.727822844], "type": "Point"}, "id": "kXW7EdVwXKf_5VxBcSkVkSgWZmE=", "properties": {"@spider": "usps_collection_boxes", "addr:city": "FRAZEE", "addr:country": "US", "addr:full": "103 E MAIN AVE", "addr:postcode": "56544", "addr:state": "MN", "amenity": "post_box", "brand": "United States Postal Service", "brand:wikidata": "Q668687", "collection_times": "Mo-Fr 16:30; Sa 10:00", "name": "USPS COLLECTION BOX - PO LOBBY", "note": "ON 12/24 AND 12/31, THIS BOX MAY BE COLLECTED AS EARLY AS 12 NOON.", "nsi_id": "unitedstatespostalservice-a77078", "operator": "United States Postal Service", "operator:short": "USPS", "operator:type": "public", "operator:wikidata": "Q668687", "ref": "5654400005"}, "type": "Feature"}
{"dataset_attributes": {"@spider": "usps_collection_boxes", "spider:collection_time": "2023-12-19T08:25:25.283853"}, "geometry": {"coordinates": [-96.264560444, 47.372494612], "type": "Point"}, "id": "sTQTPWMa2NgQKlyQOJ-iXWjN5Kw=", "properties": {"@spider": "usps_collection_boxes", "addr:city": "GARY", "addr:country": "US", "addr:full": "201 1ST AVE E", "addr:postcode": "56545", "addr:state": "MN", "amenity": "post_box", "brand": "United States Postal Service", "brand:wikidata": "Q668687", "collection_times": "Mo-Sa 13:35", "name": "USPS COLLECTION BOX - BLUE BOX", "note": "ON 12/24 AND 12/31, THIS BOX MAY BE COLLECTED AS EARLY AS 12 NOON.", "nsi_id": "unitedstatespostalservice-a77078", "operator": "United States Postal Service", "operator:short": "USPS", "operator:type": "public", "operator:wikidata": "Q668687", "ref": "5654500001"}, "type": "Feature"}
{"dataset_attributes": {"@spider": "usps_collection_boxes", "spider:collection_time": "2023-12-19T08:25:25.283853"}, "geometry": {"coordinates": [-96.264560444, 47.372494612], "type": "Point"}, "id": "dnFWgA_D9IGrN5jYMTX1Dgih9r8=", "properties": {"@spider": "usps_collection_boxes", "addr:city": "GARY", "addr:country": "US", "addr:full": "201 1ST AVE E", "addr:postcode": "56545", "addr:state": "MN", "amenity": "post_box", "brand": "United States Postal Service", "brand:wikidata": "Q668687", "collection_times": "Mo-Fr 12:00", "name": "USPS COLLECTION BOX - PO LOBBY", "nsi_id": "unitedstatespostalservice-a77078", "operator": "United States Postal Service", "operator:short": "USPS", "operator:type": "public", "operator:wikidata": "Q668687", "ref": "5654500002"}, "type": "Feature"}
{"dataset_attributes": {"@spider": "usps_collection_boxes", "spider:collection_time": "2023-12-19T08:25:25.283853"}, "geometry": {"coordinates": [-96.264560444, 47.372494612], "type": "Point"}, "id": "w3ZxfWBszu2pDXwJljLu5t-JrM8=", "properties": {"@spider": "usps_collection_boxes", "addr:city": "GARY", "addr:country": "US", "addr:full": "201 1ST AVE E", "addr:postcode": "56545", "addr:state": "MN", "amenity": "post_box", "brand": "United States Postal Service", "brand:wikidata": "Q668687", "collection_times": "Mo-Fr 12:00; Sa 09:15", "name": "USPS COLLECTION BOX - PO LOBBY", "nsi_id": "unitedstatespostalservice-a77078", "operator": "United States Postal Service", "operator:short": "USPS", "operator:type": "public", "operator:wikidata": "Q668687", "ref": "5654500004"}, "type": "Feature"}
{"dataset_attributes": {"@spider": "usps_collection_boxes", "spider:collection_time": "2023-12-19T08:25:25.283853"}, "geometry": {"coordinates": [-96.795049133, 47.080524532], "type": "Point"}, "id": "Z0546DIF7l0BC3ETJz5G6x2Sd3w=", "properties": {"@spider": "usps_collection_boxes", "addr:city": "GEORGETOWN", "addr:country": "US", "addr:full": "127 MAIN ST", "addr:postcode": "56546", "addr:state": "MN", "amenity": "post_box", "brand": "United States Postal Service", "brand:wikidata": "Q668687", "collection_times": "Mo-Fr 16:20; Sa 17:15", "name": "USPS COLLECTION BOX - BLUE BOX", "note": "ON 12/24 AND 12/31, THIS BOX MAY BE COLLECTED AS EARLY AS 12 NOON.", "nsi_id": "unitedstatespostalservice-a77078", "operator": "United States Postal Service", "operator:short": "USPS", "operator:type": "public", "operator:wikidata": "Q668687", "ref": "5654600001"}, "type": "Feature"}
{"dataset_attributes": {"@spider": "usps_collection_boxes", "spider:collection_time": "2023-12-19T08:25:25.283853"}, "geometry": {"coordinates": [-96.795049133, 47.080524532], "type": "Point"}, "id": "cSjnmF2SajVoGENw2DRikDdiuuI=", "properties": {"@spider": "usps_collection_boxes", "addr:city": "GEORGETOWN", "addr:country": "US", "addr:full": "127 MAIN ST", "addr:postcode": "56546", "addr:state": "MN", "amenity": "post_box", "brand": "United States Postal Service", "brand:wikidata": "Q668687", "collection_times": "Mo-Fr 11:30", "name": "USPS COLLECTION BOX - PO LOBBY", "nsi_id": "unitedstatespostalservice-a77078", "operator": "United States Postal Service", "operator:short": "USPS", "operator:type": "public", "operator:wikidata": "Q668687", "ref": "5654600002"}, "type": "Feature"}
{"dataset_attributes": {"@spider": "usps_collection_boxes", "spider:collection_time": "2023-12-19T08:25:25.283853"}, "geometry": {"coordinates": [-96.795049133, 47.080524532], "type": "Point"}, "id": "NY4aFVAHRTtDFOAjX5GrFX_Gkm4=", "properties": {"@spider": "usps_collection_boxes", "addr:city": "GEORGETOWN", "addr:country": "US", "addr:full": "127 MAIN ST", "addr:postcode": "56546", "addr:state": "MN", "amenity": "post_box", "brand": "United States Postal Service", "brand:wikidata": "Q668687", "collection_times": "Mo-Fr 11:30; Sa 09:15", "name": "USPS COLLECTION BOX - PO LOBBY", "nsi_id": "unitedstatespostalservice-a77078", "operator": "United States Postal Service", "operator:short": "USPS", "operator:type": "public", "operator:wikidata": "Q668687", "ref": "5654600004"}, "type": "Feature"}
{"dataset_attributes": {"@spider": "usps_collection_boxes", "spider:collection_time": "2023-12-19T08:25:25.283853"}, "geometry": {"coordinates": [-96.579897207, 46.877139042], "type": "Point"}, "id": "X0JdoQ5CZwUroTqJNXWiXXFd-qw=", "properties": {"@spider": "usps_collection_boxes", "addr:city": "GLYNDON", "addr:country": "US", "addr:full": "27 STATE ST SE", "addr:postcode": "56547", "addr:state": "MN", "amenity": "post_box", "brand": "United States Postal Service", "brand:wikidata": "Q668687", "collection_times": "Mo-Sa 16:15", "name": "USPS COLLECTION BOX - BLUE BOX", "note": "ON 12/24 AND 12/31, THIS BOX MAY BE COLLECTED AS EARLY AS 12 NOON.", "nsi_id": "unitedstatespostalservice-a77078", "operator": "United States Postal Service", "operator:short": "USPS", "operator:type": "public", "operator:wikidata": "Q668687", "ref": "5654700001"}, "type": "Feature"}
{"dataset_attributes": {"@spider": "usps_collection_boxes", "spider:collection_time": "2023-12-19T08:25:25.283853"}, "geometry": {"coordinates": [-96.579897207, 46.877139042], "type": "Point"}, "id": "j4NkhyYWIYtUVrjjydRYjAGDk-Q=", "properties": {"@spider": "usps_collection_boxes", "addr:city": "GLYNDON", "addr:country": "US", "addr:full": "27 STATE ST SE", "addr:postcode": "56547", "addr:state": "MN", "amenity": "post_box", "brand": "United States Postal Service", "brand:wikidata": "Q668687", "collection_times": "Mo-Fr 16:15", "name": "USPS COLLECTION BOX - PO LOBBY", "note": "ON 12/24 AND 12/31, THIS BOX MAY BE COLLECTED AS EARLY AS 12 NOON.", "nsi_id": "unitedstatespostalservice-a77078", "operator": "United States Postal Service", "operator:short": "USPS", "operator:type": "public", "operator:wikidata": "Q668687", "ref": "5654700002"}, "type": "Feature"}
{"dataset_attributes": {"@spider": "usps_collection_boxes", "spider:collection_time": "2023-12-19T08:25:25.283853"}, "geometry": {"coordinates": [-96.579897207, 46.877139042], "type": "Point"}, "id": "H9zNVudA9MBl9fJvoU0j44J3M5o=", "properties": {"@spider": "usps_collection_boxes", "addr:city": "GLYNDON", "addr:country": "US", "addr:full": "27 STATE ST SE", "addr:postcode": "56547", "addr:state": "MN", "amenity": "post_box", "brand": "United States Postal Service", "brand:wikidata": "Q668687", "collection_times": "Mo-Fr 16:15; Sa 12:00", "name": "USPS COLLECTION BOX - PO LOBBY", "note": "ON 12/24 AND 12/31, THIS BOX MAY BE COLLECTED AS EARLY AS 12 NOON.", "nsi_id": "unitedstatespostalservice-a77078", "operator": "United States Postal Service", "operator:short": "USPS", "operator:type": "public", "operator:wikidata": "Q668687", "ref": "5654700003"}, "type": "Feature"}
{"dataset_attributes": {"@spider": "usps_collection_boxes", "spider:collection_time": "2023-12-19T08:25:25.283853"}, "geometry": {"coordinates": [-96.828851359, 47.352373795], "type": "Point"}, "id": "lb0Re_8Y9Mp5D9j7D_yZDdvuIp4=", "properties": {"@spider": "usps_collection_boxes", "addr:city": "HALSTAD", "addr:country": "US", "addr:full": "229 2ND AVE W", "addr:postcode": "56548", "addr:state": "MN", "amenity": "post_box", "brand": "United States Postal Service", "brand:wikidata": "Q668687", "collection_times": "Mo-Sa 16:40", "name": "USPS COLLECTION BOX - BLUE BOX", "note": "ON 12/24 AND 12/31, THIS BOX MAY BE COLLECTED AS EARLY AS 12 NOON.", "nsi_id": "unitedstatespostalservice-a77078", "operator": "United States Postal Service", "operator:short": "USPS", "operator:type": "public", "operator:wikidata": "Q668687", "ref": "5654800001"}, "type": "Feature"}
{"dataset_attributes": {"@spider": "usps_collection_boxes", "spider:collection_time": "2023-12-19T08:25:25.283853"}, "geometry": {"coordinates": [-96.828851359, 47.352373795], "type": "Point"}, "id": "So8_xnrE02Zx-dAx515tyTvrwsM=", "properties": {"@spider": "usps_collection_boxes", "addr:city": "HALSTAD", "addr:country": "US", "addr:full": "229 2ND AVE W", "addr:postcode": "56548", "addr:state": "MN", "amenity": "post_box", "brand": "United States Postal Service", "brand:wikidata": "Q668687", "collection_times": "Mo-Fr 14:00", "name": "USPS COLLECTION BOX - PO LOBBY", "note": "ON 12/24 AND 12/31, THIS BOX MAY BE COLLECTED AS EARLY AS 12 NOON.", "nsi_id": "unitedstatespostalservice-a77078", "operator": "United States Postal Service", "operator:short": "USPS", "operator:type": "public", "operator:wikidata": "Q668687", "ref": "5654800002"}, "type": "Feature"}
{"dataset_attributes": {"@spider": "usps_collection_boxes", "spider:collection_time": "2023-12-19T08:25:25.283853"}, "geometry": {"coordinates": [-96.828851359, 47.352373795], "type": "Point"}, "id": "3k7E3nhViMjnEjKdKEcGTznESCU=", "properties": {"@spider": "usps_collection_boxes", "addr:city": "HALSTAD", "addr:country": "US", "addr:full": "229 2ND AVE W", "addr:postcode": "56548", "addr:state": "MN", "amenity": "post_box", "brand": "United States Postal Service", "brand:wikidata": "Q668687", "collection_times": "Mo-Fr 14:00; Sa 10:00", "name": "USPS COLLECTION BOX - PO LOBBY", "note": "ON 12/24 AND 12/31, THIS BOX MAY BE COLLECTED AS EARLY AS 12 NOON.", "nsi_id": "unitedstatespostalservice-a77078", "operator": "United States Postal Service", "operator:short": "USPS", "operator:type": "public", "operator:wikidata": "Q668687", "ref": "5654800005"}, "type": "Feature"}
{"dataset_attributes": {"@spider": "usps_collection_boxes", "spider:collection_time": "2023-12-19T08:25:25.283853"}, "geometry": {"coordinates": [-96.315117627, 46.879659714], "type": "Point"}, "id": "LNaIWOw7TTb3Wr-wvbvxoClL0Ig=", "properties": {"@spider": "usps_collection_boxes", "addr:city": "HAWLEY", "addr:country": "US", "addr:full": "503 FRONT ST", "addr:postcode": "56549", "addr:state": "MN", "amenity": "post_box", "brand": "United States Postal Service", "brand:wikidata": "Q668687", "collection_times": "Mo-Sa 16:30", "name": "USPS COLLECTION BOX - BLUE BOX", "note": "ON 12/24 AND 12/31, THIS BOX MAY BE COLLECTED AS EARLY AS 12 NOON.", "nsi_id": "unitedstatespostalservice-a77078", "operator": "United States Postal Service", "operator:short": "USPS", "operator:type": "public", "operator:wikidata": "Q668687", "ref": "5654900001"}, "type": "Feature"}
{"dataset_attributes": {"@spider": "usps_collection_boxes", "spider:collection_time": "2023-12-19T08:25:25.283853"}, "geometry": {"coordinates": [-96.315117627, 46.879659714], "type": "Point"}, "id": "nCBrgFnPelln8nI2RjvS09UdsxM=", "properties": {"@spider": "usps_collection_boxes", "addr:city": "HAWLEY", "addr:country": "US", "addr:full": "503 FRONT ST", "addr:postcode": "56549", "addr:state": "MN", "amenity": "post_box", "brand": "United States Postal Service", "brand:wikidata": "Q668687", "collection_times": "Mo-Fr 16:30", "name": "USPS COLLECTION BOX - PO LOBBY", "note": "ON 12/24 AND 12/31, THIS BOX MAY BE COLLECTED AS EARLY AS 12 NOON.", "nsi_id": "unitedstatespostalservice-a77078", "operator": "United States Postal Service", "operator:short": "USPS", "operator:type": "public", "operator:wikidata": "Q668687", "ref": "5654900003"}, "type": "Feature"}
{"dataset_attributes": {"@spider": "usps_collection_boxes", "spider:collection_time": "2023-12-19T08:25:25.283853"}, "geometry": {"coordinates": [-96.3151176274, 46.8796597144], "type": "Point"}, "id": "xs650dTSwoQC7XXfC6mQOXQqld8=", "properties": {"@spider": "usps_collection_boxes", "addr:city": "HAWLEY", "addr:country": "US", "addr:full": "503 FRONT ST", "addr:postcode": "56549", "addr:state": "MN", "amenity": "post_box", "brand": "United States Postal Service", "brand:wikidata": "Q668687", "collection_times": "Mo-Fr 16:30; Sa 10:30", "name": "USPS COLLECTION BOX - PO LOBBY", "note": "ON 12/24 AND 12/31, THIS BOX MAY BE COLLECTED AS EARLY AS 12 NOON.", "nsi_id": "unitedstatespostalservice-a77078", "operator": "United States Postal Service", "operator:short": "USPS", "operator:type": "public", "operator:wikidata": "Q668687", "ref": "5654900004"}, "type": "Feature"}
{"dataset_attributes": {"@spider": "usps_collection_boxes", "spider:collection_time": "2023-12-19T08:25:25.283853"}, "geometry": {"coordinates": [-96.808086445, 47.264258827], "type": "Point"}, "id": "5gyhFWwZMNuKhDdheRwrHSKSguw=", "properties": {"@spider": "usps_collection_boxes", "addr:city": "HENDRUM", "addr:country": "US", "addr:full": "307 MAIN ST E", "addr:postcode": "56550", "addr:state": "MN", "amenity": "post_box", "brand": "United States Postal Service", "brand:wikidata": "Q668687", "collection_times": "Mo-Fr 16:45; Sa 16:30", "name": "USPS COLLECTION BOX - BLUE BOX", "note": "ON 12/24 AND 12/31, THIS BOX MAY BE COLLECTED AS EARLY AS 12 NOON.", "nsi_id": "unitedstatespostalservice-a77078", "operator": "United States Postal Service", "operator:short": "USPS", "operator:type": "public", "operator:wikidata": "Q668687", "ref": "5655000001"}, "type": "Feature"}
{"dataset_attributes": {"@spider": "usps_collection_boxes", "spider:collection_time": "2023-12-19T08:25:25.283853"}, "geometry": {"coordinates": [-96.808086445, 47.264258827], "type": "Point"}, "id": "SlGkukKZ1oLrzWpJTQJUfyh8Itg=", "properties": {"@spider": "usps_collection_boxes", "addr:city": "HENDRUM", "addr:country": "US", "addr:full": "307 MAIN ST E", "addr:postcode": "56550", "addr:state": "MN", "amenity": "post_box", "brand": "United States Postal Service", "brand:wikidata": "Q668687", "collection_times": "Mo-Fr 16:20", "name": "USPS COLLECTION BOX - PO LOBBY", "note": "ON 12/24 AND 12/31, THIS BOX MAY BE COLLECTED AS EARLY AS 12 NOON.", "nsi_id": "unitedstatespostalservice-a77078", "operator": "United States Postal Service", "operator:short": "USPS", "operator:type": "public", "operator:wikidata": "Q668687", "ref": "5655000002"}, "type": "Feature"}
{"dataset_attributes": {"@spider": "usps_collection_boxes", "spider:collection_time": "2023-12-19T08:25:25.283853"}, "geometry": {"coordinates": [-96.8080862335, 47.2642585767], "type": "Point"}, "id": "VtnGD63oreqKQ645etXvvqnSLNQ=", "properties": {"@spider": "usps_collection_boxes", "addr:city": "HENDRUM", "addr:country": "US", "addr:full": "307 MAIN ST E", "addr:postcode": "56550", "addr:state": "MN", "amenity": "post_box", "brand": "United States Postal Service", "brand:wikidata": "Q668687", "collection_times": "Mo-Fr 16:30; Sa 10:45", "name": "USPS COLLECTION BOX - PO LOBBY", "note": "ON 12/24 AND 12/31, THIS BOX MAY BE COLLECTED AS EARLY AS 12 NOON.", "nsi_id": "unitedstatespostalservice-a77078", "operator": "United States Postal Service", "operator:short": "USPS", "operator:type": "public", "operator:wikidata": "Q668687", "ref": "5655000004"}, "type": "Feature"}
{"dataset_attributes": {"@spider": "usps_collection_boxes", "spider:collection_time": "2023-12-19T08:25:25.283853"}, "geometry": {"coordinates": [-95.444909666, 46.321289642], "type": "Point"}, "id": "LAT7cgRp7Dgkyz0oWNBbwjtPao8=", "properties": {"@spider": "usps_collection_boxes", "addr:city": "HENNING", "addr:country": "US", "addr:full": "507 DOUGLAS AVE", "addr:postcode": "56551", "addr:state": "MN", "amenity": "post_box", "brand": "United States Postal Service", "brand:wikidata": "Q668687", "collection_times": "Mo-Sa 15:45", "name": "USPS COLLECTION BOX - BLUE BOX", "note": "ON 12/24 AND 12/31, THIS BOX MAY BE COLLECTED AS EARLY AS 12 NOON.", "nsi_id": "unitedstatespostalservice-a77078", "operator": "United States Postal Service", "operator:short": "USPS", "operator:type": "public", "operator:wikidata": "Q668687", "ref": "5655100001"}, "type": "Feature"}
{"dataset_attributes": {"@spider": "usps_collection_boxes", "spider:collection_time": "2023-12-19T08:25:25.283853"}, "geometry": {"coordinates": [-95.444909666, 46.321289642], "type": "Point"}, "id": "wWDZ0if0sclNfOQj2xKENA8w5po=", "properties": {"@spider": "usps_collection_boxes", "addr:city": "HENNING", "addr:country": "US", "addr:full": "507 DOUGLAS AVE", "addr:postcode": "56551", "addr:state": "MN", "amenity": "post_box", "brand": "United States Postal Service", "brand:wikidata": "Q668687", "collection_times": "Mo-Fr 15:45", "name": "USPS COLLECTION BOX - PO LOBBY", "note": "ON 12/24 AND 12/31, THIS BOX MAY BE COLLECTED AS EARLY AS 12 NOON.", "nsi_id": "unitedstatespostalservice-a77078", "operator": "United States Postal Service", "operator:short": "USPS", "operator:type": "public", "operator:wikidata": "Q668687", "ref": "5655100002"}, "type": "Feature"}
{"dataset_attributes": {"@spider": "usps_collection_boxes", "spider:collection_time": "2023-12-19T08:25:25.283853"}, "geometry": {"coordinates": [-95.4449051664, 46.321298642], "type": "Point"}, "id": "AJRP4XbOIt39HhnKPVS75Mt3BoU=", "properties": {"@spider": "usps_collection_boxes", "addr:city": "HENNING", "addr:country": "US", "addr:full": "507 DOUGLAS AVE", "addr:postcode": "56551", "addr:state": "MN", "amenity": "post_box", "brand": "United States Postal Service", "brand:wikidata": "Q668687", "collection_times": "Mo-Fr 15:45; Sa 09:45", "name": "USPS COLLECTION BOX - PO LOBBY", "note": "ON 12/24 AND 12/31, THIS BOX MAY BE COLLECTED AS EARLY AS 12 NOON.", "nsi_id": "unitedstatespostalservice-a77078", "operator": "United States Postal Service", "operator:short": "USPS", "operator:type": "public", "operator:wikidata": "Q668687", "ref": "5655100004"}, "type": "Feature"}
{"dataset_attributes": {"@spider": "usps_collection_boxes", "spider:collection_time": "2023-12-19T08:25:25.283853"}, "geometry": {"coordinates": [-96.258654, 46.977326453], "type": "Point"}, "id": "DycS-VGoq1ycDsKGBsxwg-eNgOc=", "properties": {"@spider": "usps_collection_boxes", "addr:city": "HITTERDAL", "addr:country": "US", "addr:full": "52 FRONT ST E", "addr:postcode": "56552", "addr:state": "MN", "amenity": "post_box", "brand": "United States Postal Service", "brand:wikidata": "Q668687", "collection_times": "Mo-Sa 15:10", "name": "USPS COLLECTION BOX - BLUE BOX", "note": "ON 12/24 AND 12/31, THIS BOX MAY BE COLLECTED AS EARLY AS 12 NOON.", "nsi_id": "unitedstatespostalservice-a77078", "operator": "United States Postal Service", "operator:short": "USPS", "operator:type": "public", "operator:wikidata": "Q668687", "ref": "5655200001"}, "type": "Feature"}
{"dataset_attributes": {"@spider": "usps_collection_boxes", "spider:collection_time": "2023-12-19T08:25:25.283853"}, "geometry": {"coordinates": [-96.258654, 46.977326453], "type": "Point"}, "id": "D2TST2B24Vs0mFdc2SzLH7YCVaw=", "properties": {"@spider": "usps_collection_boxes", "addr:city": "HITTERDAL", "addr:country": "US", "addr:full": "52 FRONT ST E", "addr:postcode": "56552", "addr:state": "MN", "amenity": "post_box", "brand": "United States Postal Service", "brand:wikidata": "Q668687", "collection_times": "Mo-Fr 13:00", "name": "USPS COLLECTION BOX - PO LOBBY", "note": "ON 12/24 AND 12/31, THIS BOX MAY BE COLLECTED AS EARLY AS 12 NOON.", "nsi_id": "unitedstatespostalservice-a77078", "operator": "United States Postal Service", "operator:short": "USPS", "operator:type": "public", "operator:wikidata": "Q668687", "ref": "5655200002"}, "type": "Feature"}
{"dataset_attributes": {"@spider": "usps_collection_boxes", "spider:collection_time": "2023-12-19T08:25:25.283853"}, "geometry": {"coordinates": [-96.684632114, 46.436622459], "type": "Point"}, "id": "CMkH1V6DEOcUGUfMNjJaQmbAuwo=", "properties": {"@spider": "usps_collection_boxes", "addr:city": "KENT", "addr:country": "US", "addr:full": "216 MAIN ST", "addr:postcode": "56553", "addr:state": "MN", "amenity": "post_box", "brand": "United States Postal Service", "brand:wikidata": "Q668687", "collection_times": "Mo-Sa 16:05", "name": "USPS COLLECTION BOX - BLUE BOX", "note": "ON 12/24 AND 12/31, THIS BOX MAY BE COLLECTED AS EARLY AS 12 NOON.", "nsi_id": "unitedstatespostalservice-a77078", "operator": "United States Postal Service", "operator:short": "USPS", "operator:type": "public", "operator:wikidata": "Q668687", "ref": "5655300001"}, "type": "Feature"}
{"dataset_attributes": {"@spider": "usps_collection_boxes", "spider:collection_time": "2023-12-19T08:25:25.283853"}, "geometry": {"coordinates": [-96.684632114, 46.436622459], "type": "Point"}, "id": "yxHKpdgYx9OEcYBcBqpXv4Z4sKM=", "properties": {"@spider": "usps_collection_boxes", "addr:city": "KENT", "addr:country": "US", "addr:full": "216 MAIN ST", "addr:postcode": "56553", "addr:state": "MN", "amenity": "post_box", "brand": "United States Postal Service", "brand:wikidata": "Q668687", "collection_times": "Mo-Fr 09:50", "name": "USPS COLLECTION BOX - PO LOBBY", "nsi_id": "unitedstatespostalservice-a77078", "operator": "United States Postal Service", "operator:short": "USPS", "operator:type": "public", "operator:wikidata": "Q668687", "ref": "5655300002"}, "type": "Feature"}
{"dataset_attributes": {"@spider": "usps_collection_boxes", "spider:collection_time": "2023-12-19T08:25:25.283853"}, "geometry": {"coordinates": [-96.094746848, 46.886473671], "type": "Point"}, "id": "QeTLmx-ohd0KQrorJiixqTJBVec=", "properties": {"@spider": "usps_collection_boxes", "addr:city": "LAKE PARK", "addr:country": "US", "addr:full": "2035 2ND ST", "addr:postcode": "56554", "addr:state": "MN", "amenity": "post_box", "brand": "United States Postal Service", "brand:wikidata": "Q668687", "collection_times": "Mo-Fr 16:00; Sa 17:00", "name": "USPS COLLECTION BOX - BLUE BOX", "note": "ON 12/24 AND 12/31, THIS BOX MAY BE COLLECTED AS EARLY AS 12 NOON.", "nsi_id": "unitedstatespostalservice-a77078", "operator": "United States Postal Service", "operator:short": "USPS", "operator:type": "public", "operator:wikidata": "Q668687", "ref": "5655400001"}, "type": "Feature"}
{"dataset_attributes": {"@spider": "usps_collection_boxes", "spider:collection_time": "2023-12-19T08:25:25.283853"}, "geometry": {"coordinates": [-96.094746848, 46.886473671], "type": "Point"}, "id": "c_ZuKJCiRxnuANGkMrSaDgCXVac=", "properties": {"@spider": "usps_collection_boxes", "addr:city": "LAKE PARK", "addr:country": "US", "addr:full": "2035 2ND ST", "addr:postcode": "56554", "addr:state": "MN", "amenity": "post_box", "brand": "United States Postal Service", "brand:wikidata": "Q668687", "collection_times": "Mo-Fr 16:00", "name": "USPS COLLECTION BOX - PO LOBBY", "note": "ON 12/24 AND 12/31, THIS BOX MAY BE COLLECTED AS EARLY AS 12 NOON.", "nsi_id": "unitedstatespostalservice-a77078", "operator": "United States Postal Service", "operator:short": "USPS", "operator:type": "public", "operator:wikidata": "Q668687", "ref": "5655400002"}, "type": "Feature"}
{"dataset_attributes": {"@spider": "usps_collection_boxes", "spider:collection_time": "2023-12-19T08:25:25.283853"}, "geometry": {"coordinates": [-95.888462152, 47.635540911], "type": "Point"}, "id": "CAn_vqGYuEklKWf6YbMJwFu5XNg=", "properties": {"@spider": "usps_collection_boxes", "addr:city": "MCINTOSH", "addr:country": "US", "addr:full": "285 CLEVELAND AVE SW", "addr:postcode": "56556", "addr:state": "MN", "amenity": "post_box", "brand": "United States Postal Service", "brand:wikidata": "Q668687", "collection_times": "Mo-Sa 14:50", "name": "USPS COLLECTION BOX - BLUE BOX", "note": "ON 12/24 AND 12/31, THIS BOX MAY BE COLLECTED AS EARLY AS 12 NOON.", "nsi_id": "unitedstatespostalservice-a77078", "operator": "United States Postal Service", "operator:short": "USPS", "operator:type": "public", "operator:wikidata": "Q668687", "ref": "5655600001"}, "type": "Feature"}
{"dataset_attributes": {"@spider": "usps_collection_boxes", "spider:collection_time": "2023-12-19T08:25:25.283853"}, "geometry": {"coordinates": [-95.888462152, 47.635540911], "type": "Point"}, "id": "B2_ELjEe83qb5wvsFoluNocSr-I=", "properties": {"@spider": "usps_collection_boxes", "addr:city": "MCINTOSH", "addr:country": "US", "addr:full": "285 CLEVELAND AVE SW", "addr:postcode": "56556", "addr:state": "MN", "amenity": "post_box", "brand": "United States Postal Service", "brand:wikidata": "Q668687", "collection_times": "Mo-Fr 14:30", "name": "USPS COLLECTION BOX - PO LOBBY", "note": "ON 12/24 AND 12/31, THIS BOX MAY BE COLLECTED AS EARLY AS 12 NOON.", "nsi_id": "unitedstatespostalservice-a77078", "operator": "United States Postal Service", "operator:short": "USPS", "operator:type": "public", "operator:wikidata": "Q668687", "ref": "5655600003"}, "type": "Feature"}
{"dataset_attributes": {"@spider": "usps_collection_boxes", "spider:collection_time": "2023-12-19T08:25:25.283853"}, "geometry": {"coordinates": [-95.969093364, 47.316373661], "type": "Point"}, "id": "bHFTf9bpPdhW74YRCcIBk2jaQcY=", "properties": {"@spider": "usps_collection_boxes", "addr:city": "MAHNOMEN", "addr:country": "US", "addr:full": "123 W ADAMS AVE", "addr:postcode": "56557", "addr:state": "MN", "amenity": "post_box", "brand": "United States Postal Service", "brand:wikidata": "Q668687", "collection_times": "Mo-Sa 16:00", "name": "USPS COLLECTION BOX - BLUE BOX", "note": "ON 12/24 AND 12/31, THIS BOX MAY BE COLLECTED AS EARLY AS 12 NOON.", "nsi_id": "unitedstatespostalservice-a77078", "operator": "United States Postal Service", "operator:short": "USPS", "operator:type": "public", "operator:wikidata": "Q668687", "ref": "5655700001"}, "type": "Feature"}
{"dataset_attributes": {"@spider": "usps_collection_boxes", "spider:collection_time": "2023-12-19T08:25:25.283853"}, "geometry": {"coordinates": [-95.969093364, 47.316373661], "type": "Point"}, "id": "kiqSLm0n_exADxUuv9Xq0I9NSD4=", "properties": {"@spider": "usps_collection_boxes", "addr:city": "MAHNOMEN", "addr:country": "US", "addr:full": "123 W ADAMS AVE", "addr:postcode": "56557", "addr:state": "MN", "amenity": "post_box", "brand": "United States Postal Service", "brand:wikidata": "Q668687", "collection_times": "Mo-Fr 16:00", "name": "USPS COLLECTION BOX - PO LOBBY", "note": "ON 12/24 AND 12/31, THIS BOX MAY BE COLLECTED AS EARLY AS 12 NOON.", "nsi_id": "unitedstatespostalservice-a77078", "operator": "United States Postal Service", "operator:short": "USPS", "operator:type": "public", "operator:wikidata": "Q668687", "ref": "5655700002"}, "type": "Feature"}
{"dataset_attributes": {"@spider": "usps_collection_boxes", "spider:collection_time": "2023-12-19T08:25:25.283853"}, "geometry": {"coordinates": [-96.727282005, 46.876604481], "type": "Point"}, "id": "k0_pSw3HaLkJbNnJpHvLJAlMPH0=", "properties": {"@spider": "usps_collection_boxes", "addr:city": "MOORHEAD", "addr:country": "US", "addr:full": "3300 HIGHWAY 10 E", "addr:postcode": "56560", "addr:state": "MN", "amenity": "post_box", "brand": "United States Postal Service", "brand:wikidata": "Q668687", "collection_times": "Mo-Sa 16:00", "name": "USPS COLLECTION BOX - BLUE BOX", "note": "ON 12/24 AND 12/31, THIS BOX MAY BE COLLECTED AS EARLY AS 12 NOON.", "nsi_id": "unitedstatespostalservice-a77078", "operator": "United States Postal Service", "operator:short": "USPS", "operator:type": "public", "operator:wikidata": "Q668687", "ref": "5656000008"}, "type": "Feature"}
{"dataset_attributes": {"@spider": "usps_collection_boxes", "spider:collection_time": "2023-12-19T08:25:25.283853"}, "geometry": {"coordinates": [-96.766412847, 46.844183525], "type": "Point"}, "id": "7q3PBOSGPhwIHFpPTLC0v3B6dHk=", "properties": {"@spider": "usps_collection_boxes", "addr:city": "MOORHEAD", "addr:country": "US", "addr:full": "824 30TH AVE S", "addr:postcode": "56560", "addr:state": "MN", "amenity": "post_box", "brand": "United States Postal Service", "brand:wikidata": "Q668687", "collection_times": "Mo-Sa 16:00", "name": "USPS COLLECTION BOX - BLUE BOX", "note": "ON 12/24 AND 12/31, THIS BOX MAY BE COLLECTED AS EARLY AS 12 NOON.", "nsi_id": "unitedstatespostalservice-a77078", "operator": "United States Postal Service", "operator:short": "USPS", "operator:type": "public", "operator:wikidata": "Q668687", "ref": "5656000022"}, "type": "Feature"}
{"dataset_attributes": {"@spider": "usps_collection_boxes", "spider:collection_time": "2023-12-19T08:25:25.283853"}, "geometry": {"coordinates": [-96.762751148, 46.873241329], "type": "Point"}, "id": "Yutdx4j4AiaYYKIze9m27Rqko-U=", "properties": {"@spider": "usps_collection_boxes", "addr:city": "MOORHEAD", "addr:country": "US", "addr:full": "101 11TH ST S", "addr:postcode": "56560", "addr:state": "MN", "amenity": "post_box", "brand": "United States Postal Service", "brand:wikidata": "Q668687", "collection_times": "Mo-Sa 16:30", "name": "USPS COLLECTION BOX - BLUE BOX", "note": "ON 12/24 AND 12/31, THIS BOX MAY BE COLLECTED AS EARLY AS 12 NOON.", "nsi_id": "unitedstatespostalservice-a77078", "operator": "United States Postal Service", "operator:short": "USPS", "operator:type": "public", "operator:wikidata": "Q668687", "ref": "5656000027"}, "type": "Feature"}
{"dataset_attributes": {"@spider": "usps_collection_boxes", "spider:collection_time": "2023-12-19T08:25:25.283853"}, "geometry": {"coordinates": [-96.768693639, 46.875075461], "type": "Point"}, "id": "gyK2cYB_GDaGKr8Z4x27u0UQtKA=", "properties": {"@spider": "usps_collection_boxes", "addr:city": "MOORHEAD", "addr:country": "US", "addr:full": "730 CENTER AVE", "addr:postcode": "56560", "addr:state": "MN", "amenity": "post_box", "brand": "United States Postal Service", "brand:wikidata": "Q668687", "collection_times": "Mo-Sa 15:30", "name": "USPS COLLECTION BOX - BLUE BOX", "note": "ON 12/24 AND 12/31, THIS BOX MAY BE COLLECTED AS EARLY AS 12 NOON.", "nsi_id": "unitedstatespostalservice-a77078", "operator": "United States Postal Service", "operator:short": "USPS", "operator:type": "public", "operator:wikidata": "Q668687", "ref": "5656000031"}, "type": "Feature"}
{"dataset_attributes": {"@spider": "usps_collection_boxes", "spider:collection_time": "2023-12-19T08:25:25.283853"}, "geometry": {"coordinates": [-96.773562838, 46.875046507], "type": "Point"}, "id": "1zuunpNZBu3TK8-Ly3zfaSfjSvM=", "properties": {"@spider": "usps_collection_boxes", "addr:city": "MOORHEAD", "addr:country": "US", "addr:full": "403 CENTER AVE", "addr:postcode": "56560", "addr:state": "MN", "amenity": "post_box", "brand": "United States Postal Service", "brand:wikidata": "Q668687", "collection_times": "Mo-Sa 15:30", "name": "USPS COLLECTION BOX - BLUE BOX", "note": "ON 12/24 AND 12/31, THIS BOX MAY BE COLLECTED AS EARLY AS 12 NOON.", "nsi_id": "unitedstatespostalservice-a77078", "operator": "United States Postal Service", "operator:short": "USPS", "operator:type": "public", "operator:wikidata": "Q668687", "ref": "5656000037"}, "type": "Feature"}
{"dataset_attributes": {"@spider": "usps_collection_boxes", "spider:collection_time": "2023-12-19T08:25:25.283853"}, "geometry": {"coordinates": [-96.772403173, 46.873080115], "type": "Point"}, "id": "b2AAupMSbZOszAHE9UcZwQ1pIdc=", "properties": {"@spider": "usps_collection_boxes", "addr:city": "MOORHEAD", "addr:country": "US", "addr:full": "119 5TH ST S", "addr:postcode": "56560", "addr:state": "MN", "amenity": "post_box", "brand": "United States Postal Service", "brand:wikidata": "Q668687", "collection_times": "Mo-Sa 17:00", "name": "USPS COLLECTION BOX - BLUE BOX", "note": "ON 12/24 AND 12/31, THIS BOX MAY BE COLLECTED AS EARLY AS 12 NOON.", "nsi_id": "unitedstatespostalservice-a77078", "operator": "United States Postal Service", "operator:short": "USPS", "operator:type": "public", "operator:wikidata": "Q668687", "ref": "5656000048"}, "type": "Feature"}
{"dataset_attributes": {"@spider": "usps_collection_boxes", "spider:collection_time": "2023-12-19T08:25:25.283853"}, "geometry": {"coordinates": [-96.772403173, 46.873080115], "type": "Point"}, "id": "W3FUtcu5GStUZ3S7KcykCwxYdYc=", "properties": {"@spider": "usps_collection_boxes", "addr:city": "MOORHEAD", "addr:country": "US", "addr:full": "119 5TH ST S", "addr:postcode": "56560", "addr:state": "MN", "amenity": "post_box", "brand": "United States Postal Service", "brand:wikidata": "Q668687", "collection_times": "Mo-Sa 17:00", "name": "USPS COLLECTION BOX - BLUE BOX", "note": "ON 12/24 AND 12/31, THIS BOX MAY BE COLLECTED AS EARLY AS 12 NOON.", "nsi_id": "unitedstatespostalservice-a77078", "operator": "United States Postal Service", "operator:short": "USPS", "operator:type": "public", "operator:wikidata": "Q668687", "ref": "5656000049"}, "type": "Feature"}
{"dataset_attributes": {"@spider": "usps_collection_boxes", "spider:collection_time": "2023-12-19T08:25:25.283853"}, "geometry": {"coordinates": [-96.72903857, 46.876006745], "type": "Point"}, "id": "sXyfmbZzEONY0kWcMyvtoJJwnbs=", "properties": {"@spider": "usps_collection_boxes", "addr:city": "MOORHEAD", "addr:country": "US", "addr:full": "3301 HIGHWAY 10 E", "addr:postcode": "56560", "addr:state": "MN", "amenity": "post_box", "brand": "United States Postal Service", "brand:wikidata": "Q668687", "collection_times": "Mo-Fr 09:30; Sa 09:00", "name": "USPS COLLECTION BOX - BLUE BOX", "nsi_id": "unitedstatespostalservice-a77078", "operator": "United States Postal Service", "operator:short": "USPS", "operator:type": "public", "operator:wikidata": "Q668687", "ref": "5656000058"}, "type": "Feature"}
{"dataset_attributes": {"@spider": "usps_collection_boxes", "spider:collection_time": "2023-12-19T08:25:25.283853"}, "geometry": {"coordinates": [-96.768283638, 46.850304209], "type": "Point"}, "id": "Dr2Zof2s3_onNB_sscGTtRU-mgU=", "properties": {"@spider": "usps_collection_boxes", "addr:city": "MOORHEAD", "addr:country": "US", "addr:full": "2605 8TH ST S", "addr:postcode": "56560", "addr:state": "MN", "amenity": "post_box", "brand": "United States Postal Service", "brand:wikidata": "Q668687", "collection_times": "Mo-Sa 16:00", "name": "USPS COLLECTION BOX - BLUE BOX", "note": "ON 12/24 AND 12/31, THIS BOX MAY BE COLLECTED AS EARLY AS 12 NOON.", "nsi_id": "unitedstatespostalservice-a77078", "operator": "United States Postal Service", "operator:short": "USPS", "operator:type": "public", "operator:wikidata": "Q668687", "ref": "5656000066"}, "type": "Feature"}
{"dataset_attributes": {"@spider": "usps_collection_boxes", "spider:collection_time": "2023-12-19T08:25:25.283853"}, "geometry": {"coordinates": [-96.772403173, 46.873080115], "type": "Point"}, "id": "MqjigY0kYO7GZsLTwGcBRthzu4g=", "properties": {"@spider": "usps_collection_boxes", "addr:city": "MOORHEAD", "addr:country": "US", "addr:full": "119 5TH ST S", "addr:postcode": "56560", "addr:state": "MN", "amenity": "post_box", "brand": "United States Postal Service", "brand:wikidata": "Q668687", "collection_times": "Mo-Sa 17:00", "name": "USPS COLLECTION BOX - PO LOBBY", "note": "ON 12/24 AND 12/31, THIS BOX MAY BE COLLECTED AS EARLY AS 12 NOON.", "nsi_id": "unitedstatespostalservice-a77078", "operator": "United States Postal Service", "operator:short": "USPS", "operator:type": "public", "operator:wikidata": "Q668687", "ref": "5656000067"}, "type": "Feature"}
{"dataset_attributes": {"@spider": "usps_collection_boxes", "spider:collection_time": "2023-12-19T08:25:25.283853"}, "geometry": {"coordinates": [-96.772403173, 46.873080115], "type": "Point"}, "id": "85KOpTrslKwIC44musVoWu6y9AI=", "properties": {"@spider": "usps_collection_boxes", "addr:city": "MOORHEAD", "addr:country": "US", "addr:full": "119 5TH ST S", "addr:postcode": "56560", "addr:state": "MN", "amenity": "post_box", "brand": "United States Postal Service", "brand:wikidata": "Q668687", "collection_times": "Mo-Sa 17:00", "name": "USPS COLLECTION BOX - BLUE BOX", "note": "ON 12/24 AND 12/31, THIS BOX MAY BE COLLECTED AS EARLY AS 12 NOON.", "nsi_id": "unitedstatespostalservice-a77078", "operator": "United States Postal Service", "operator:short": "USPS", "operator:type": "public", "operator:wikidata": "Q668687", "ref": "5656000073"}, "type": "Feature"}
{"dataset_attributes": {"@spider": "usps_collection_boxes", "spider:collection_time": "2023-12-19T08:25:25.283853"}, "geometry": {"coordinates": [-96.720911458, 46.850515572], "type": "Point"}, "id": "fD9yUc6EtEQHAjrC1mLiXJ008AY=", "properties": {"@spider": "usps_collection_boxes", "addr:city": "MOORHEAD", "addr:country": "US", "addr:full": "3478 28TH AVE S", "addr:postcode": "56560", "addr:state": "MN", "amenity": "post_box", "brand": "United States Postal Service", "brand:wikidata": "Q668687", "collection_times": "Mo-Sa 13:30", "name": "USPS COLLECTION BOX - BLUE BOX", "note": "ON 12/24 AND 12/31, THIS BOX MAY BE COLLECTED AS EARLY AS 12 NOON.", "nsi_id": "unitedstatespostalservice-a77078", "operator": "United States Postal Service", "operator:short": "USPS", "operator:type": "public", "operator:wikidata": "Q668687", "ref": "5656000075"}, "type": "Feature"}
{"dataset_attributes": {"@spider": "usps_collection_boxes", "spider:collection_time": "2023-12-19T08:25:25.283853"}, "geometry": {"coordinates": [-96.765731193, 46.833094462], "type": "Point"}, "id": "LbWUQsBkysrkkPu-T94iSAXbmZk=", "properties": {"@spider": "usps_collection_boxes", "addr:city": "MOORHEAD", "addr:country": "US", "addr:full": "950 40TH AVE S", "addr:postcode": "56560", "addr:state": "MN", "amenity": "post_box", "brand": "United States Postal Service", "brand:wikidata": "Q668687", "collection_times": "Mo-Sa 16:00", "name": "USPS COLLECTION BOX - BLUE BOX", "note": "ON 12/24 AND 12/31, THIS BOX MAY BE COLLECTED AS EARLY AS 12 NOON.", "nsi_id": "unitedstatespostalservice-a77078", "operator": "United States Postal Service", "operator:short": "USPS", "operator:type": "public", "operator:wikidata": "Q668687", "ref": "5656000076"}, "type": "Feature"}
{"dataset_attributes": {"@spider": "usps_collection_boxes", "spider:collection_time": "2023-12-19T08:25:25.283853"}, "geometry": {"coordinates": [-95.615809805, 47.274368168], "type": "Point"}, "id": "mMbFlq0MRioGMvE_yxNzm1FGFpg=", "properties": {"@spider": "usps_collection_boxes", "addr:city": "NAYTAHWAUSH", "addr:country": "US", "addr:full": "2531 310TH AVE", "addr:postcode": "56566", "addr:state": "MN", "amenity": "post_box", "brand": "United States Postal Service", "brand:wikidata": "Q668687", "collection_times": "Mo-Sa 12:00", "name": "USPS COLLECTION BOX - BLUE BOX", "nsi_id": "unitedstatespostalservice-a77078", "operator": "United States Postal Service", "operator:short": "USPS", "operator:type": "public", "operator:wikidata": "Q668687", "ref": "5656600001"}, "type": "Feature"}
{"dataset_attributes": {"@spider": "usps_collection_boxes", "spider:collection_time": "2023-12-19T08:25:25.283853"}, "geometry": {"coordinates": [-95.615809805, 47.274368168], "type": "Point"}, "id": "KuAar8tLj22QNAkKiaNYuMk5EZA=", "properties": {"@spider": "usps_collection_boxes", "addr:city": "NAYTAHWAUSH", "addr:country": "US", "addr:full": "2531 310TH AVE", "addr:postcode": "56566", "addr:state": "MN", "amenity": "post_box", "brand": "United States Postal Service", "brand:wikidata": "Q668687", "collection_times": "Mo-Sa 12:00", "name": "USPS COLLECTION BOX - PO LOBBY", "nsi_id": "unitedstatespostalservice-a77078", "operator": "United States Postal Service", "operator:short": "USPS", "operator:type": "public", "operator:wikidata": "Q668687", "ref": "5656600002"}, "type": "Feature"}
{"dataset_attributes": {"@spider": "usps_collection_boxes", "spider:collection_time": "2023-12-19T08:25:25.283853"}, "geometry": {"coordinates": [-95.37716277, 46.519320532], "type": "Point"}, "id": "xIkNaSjGE761IRttOjtFgfW3KlI=", "properties": {"@spider": "usps_collection_boxes", "addr:city": "NEW YORK MILLS", "addr:country": "US", "addr:full": "16 WALKER AVE N", "addr:postcode": "56567", "addr:state": "MN", "amenity": "post_box", "brand": "United States Postal Service", "brand:wikidata": "Q668687", "collection_times": "Mo-Sa 16:05", "name": "USPS COLLECTION BOX - BLUE BOX", "note": "ON 12/24 AND 12/31, THIS BOX MAY BE COLLECTED AS EARLY AS 12 NOON.", "nsi_id": "unitedstatespostalservice-a77078", "operator": "United States Postal Service", "operator:short": "USPS", "operator:type": "public", "operator:wikidata": "Q668687", "ref": "5656700001"}, "type": "Feature"}
{"dataset_attributes": {"@spider": "usps_collection_boxes", "spider:collection_time": "2023-12-19T08:25:25.283853"}, "geometry": {"coordinates": [-95.37716277, 46.519320532], "type": "Point"}, "id": "cjcTYKkQxTeecs-VaswLm8uG3UQ=", "properties": {"@spider": "usps_collection_boxes", "addr:city": "NEW YORK MILLS", "addr:country": "US", "addr:full": "16 WALKER AVE N", "addr:postcode": "56567", "addr:state": "MN", "amenity": "post_box", "brand": "United States Postal Service", "brand:wikidata": "Q668687", "collection_times": "Mo-Fr 16:15; Sa 09:45", "name": "USPS COLLECTION BOX - PO LOBBY", "note": "ON 12/24 AND 12/31, THIS BOX MAY BE COLLECTED AS EARLY AS 12 NOON.", "nsi_id": "unitedstatespostalservice-a77078", "operator": "United States Postal Service", "operator:short": "USPS", "operator:type": "public", "operator:wikidata": "Q668687", "ref": "5656700002"}, "type": "Feature"}
{"dataset_attributes": {"@spider": "usps_collection_boxes", "spider:collection_time": "2023-12-19T08:25:25.283853"}, "geometry": {"coordinates": [-96.816850803, 47.527761535], "type": "Point"}, "id": "XRKcTvKgAhdnVCYHCpmAYo_oRos=", "properties": {"@spider": "usps_collection_boxes", "addr:city": "NIELSVILLE", "addr:country": "US", "addr:full": "202 N SPOKELY AVE", "addr:postcode": "56568", "addr:state": "MN", "amenity": "post_box", "brand": "United States Postal Service", "brand:wikidata": "Q668687", "collection_times": "Mo-Sa 16:10", "name": "USPS COLLECTION BOX - BLUE BOX", "note": "ON 12/24 AND 12/31, THIS BOX MAY BE COLLECTED AS EARLY AS 12 NOON.", "nsi_id": "unitedstatespostalservice-a77078", "operator": "United States Postal Service", "operator:short": "USPS", "operator:type": "public", "operator:wikidata": "Q668687", "ref": "5656800001"}, "type": "Feature"}
{"dataset_attributes": {"@spider": "usps_collection_boxes", "spider:collection_time": "2023-12-19T08:25:25.283853"}, "geometry": {"coordinates": [-96.816850803, 47.527761535], "type": "Point"}, "id": "a9nps1IGbgRtu1Rs0HzT_JI0Llo=", "properties": {"@spider": "usps_collection_boxes", "addr:city": "NIELSVILLE", "addr:country": "US", "addr:full": "202 N SPOKELY AVE", "addr:postcode": "56568", "addr:state": "MN", "amenity": "post_box", "brand": "United States Postal Service", "brand:wikidata": "Q668687", "collection_times": "Mo-Fr 13:15", "name": "USPS COLLECTION BOX - PO LOBBY", "note": "ON 12/24 AND 12/31, THIS BOX MAY BE COLLECTED AS EARLY AS 12 NOON.", "nsi_id": "unitedstatespostalservice-a77078", "operator": "United States Postal Service", "operator:short": "USPS", "operator:type": "public", "operator:wikidata": "Q668687", "ref": "5656800002"}, "type": "Feature"}
{"dataset_attributes": {"@spider": "usps_collection_boxes", "spider:collection_time": "2023-12-19T08:25:25.283853"}, "geometry": {"coordinates": [-95.9253272, 47.102659808], "type": "Point"}, "id": "PK65EFswWeQrzRio0x0RKm7LC7g=", "properties": {"@spider": "usps_collection_boxes", "addr:city": "OGEMA", "addr:country": "US", "addr:full": "412 MAIN ST E", "addr:postcode": "56569", "addr:state": "MN", "amenity": "post_box", "brand": "United States Postal Service", "brand:wikidata": "Q668687", "collection_times": "Mo-Sa 16:25", "name": "USPS COLLECTION BOX - BLUE BOX", "note": "ON 12/24 AND 12/31, THIS BOX MAY BE COLLECTED AS EARLY AS 12 NOON.", "nsi_id": "unitedstatespostalservice-a77078", "operator": "United States Postal Service", "operator:short": "USPS", "operator:type": "public", "operator:wikidata": "Q668687", "ref": "5656900001"}, "type": "Feature"}
{"dataset_attributes": {"@spider": "usps_collection_boxes", "spider:collection_time": "2023-12-19T08:25:25.283853"}, "geometry": {"coordinates": [-95.925323437, 47.102668568], "type": "Point"}, "id": "ULy2S4Fp6TnlO45vchkATCcIyo0=", "properties": {"@spider": "usps_collection_boxes", "addr:city": "OGEMA", "addr:country": "US", "addr:full": "412 MAIN ST E", "addr:postcode": "56569", "addr:state": "MN", "amenity": "post_box", "brand": "United States Postal Service", "brand:wikidata": "Q668687", "collection_times": "Mo-Fr 11:00", "name": "USPS COLLECTION BOX - PO LOBBY", "nsi_id": "unitedstatespostalservice-a77078", "operator": "United States Postal Service", "operator:short": "USPS", "operator:type": "public", "operator:wikidata": "Q668687", "ref": "5656900003"}, "type": "Feature"}
{"dataset_attributes": {"@spider": "usps_collection_boxes", "spider:collection_time": "2023-12-19T08:25:25.283853"}, "geometry": {"coordinates": [-95.256463668, 46.920469453], "type": "Point"}, "id": "uwKWMz9HKKFvBq4ykRkG25-tnCE=", "properties": {"@spider": "usps_collection_boxes", "addr:city": "OSAGE", "addr:country": "US", "addr:full": "54586 STATE HIGHWAY 34", "addr:postcode": "56570", "addr:state": "MN", "amenity": "post_box", "brand": "United States Postal Service", "brand:wikidata": "Q668687", "collection_times": "Mo-Fr 15:30; Sa 16:00", "name": "USPS COLLECTION BOX - BLUE BOX", "note": "ON 12/24 AND 12/31, THIS BOX MAY BE COLLECTED AS EARLY AS 12 NOON.", "nsi_id": "unitedstatespostalservice-a77078", "operator": "United States Postal Service", "operator:short": "USPS", "operator:type": "public", "operator:wikidata": "Q668687", "ref": "5657000001"}, "type": "Feature"}
{"dataset_attributes": {"@spider": "usps_collection_boxes", "spider:collection_time": "2023-12-19T08:25:25.283853"}, "geometry": {"coordinates": [-95.256463668, 46.920469453], "type": "Point"}, "id": "u_fWH4BQTuUcuBq439FEH_1ri_w=", "properties": {"@spider": "usps_collection_boxes", "addr:city": "OSAGE", "addr:country": "US", "addr:full": "54586 STATE HIGHWAY 34", "addr:postcode": "56570", "addr:state": "MN", "amenity": "post_box", "brand": "United States Postal Service", "brand:wikidata": "Q668687", "collection_times": "Mo-Fr 11:00", "name": "USPS COLLECTION BOX - PO LOBBY", "nsi_id": "unitedstatespostalservice-a77078", "operator": "United States Postal Service", "operator:short": "USPS", "operator:type": "public", "operator:wikidata": "Q668687", "ref": "5657000002"}, "type": "Feature"}
{"dataset_attributes": {"@spider": "usps_collection_boxes", "spider:collection_time": "2023-12-19T08:25:25.283853"}, "geometry": {"coordinates": [-95.557494305, 46.426524477], "type": "Point"}, "id": "trV7RwRRM_JcpgEI-Whi6sqLS4E=", "properties": {"@spider": "usps_collection_boxes", "addr:city": "OTTERTAIL", "addr:country": "US", "addr:full": "105 W MAIN ST", "addr:postcode": "56571", "addr:state": "MN", "amenity": "post_box", "brand": "United States Postal Service", "brand:wikidata": "Q668687", "collection_times": "Mo-Sa 15:25", "name": "USPS COLLECTION BOX - BLUE BOX", "note": "ON 12/24 AND 12/31, THIS BOX MAY BE COLLECTED AS EARLY AS 12 NOON.", "nsi_id": "unitedstatespostalservice-a77078", "operator": "United States Postal Service", "operator:short": "USPS", "operator:type": "public", "operator:wikidata": "Q668687", "ref": "5657100001"}, "type": "Feature"}
{"dataset_attributes": {"@spider": "usps_collection_boxes", "spider:collection_time": "2023-12-19T08:25:25.283853"}, "geometry": {"coordinates": [-95.557494305, 46.426524477], "type": "Point"}, "id": "4xYeXyYeCIsIJ25u6kfwcQaRzm8=", "properties": {"@spider": "usps_collection_boxes", "addr:city": "OTTERTAIL", "addr:country": "US", "addr:full": "105 W MAIN ST", "addr:postcode": "56571", "addr:state": "MN", "amenity": "post_box", "brand": "United States Postal Service", "brand:wikidata": "Q668687", "collection_times": "Mo-Fr 14:40", "name": "USPS COLLECTION BOX - PO LOBBY", "note": "ON 12/24 AND 12/31, THIS BOX MAY BE COLLECTED AS EARLY AS 12 NOON.", "nsi_id": "unitedstatespostalservice-a77078", "operator": "United States Postal Service", "operator:short": "USPS", "operator:type": "public", "operator:wikidata": "Q668687", "ref": "5657100002"}, "type": "Feature"}
{"dataset_attributes": {"@spider": "usps_collection_boxes", "spider:collection_time": "2023-12-19T08:25:25.283853"}, "geometry": {"coordinates": [-96.0826099646, 46.5694839817], "type": "Point"}, "id": "oe1dkNnHutnM5tP43kTcQvPjOs8=", "properties": {"@spider": "usps_collection_boxes", "addr:city": "PELICAN RAPIDS", "addr:country": "US", "addr:full": "25 E MILL AVE", "addr:postcode": "56572", "addr:state": "MN", "amenity": "post_box", "brand": "United States Postal Service", "brand:wikidata": "Q668687", "collection_times": "Mo-Sa 16:50", "name": "USPS COLLECTION BOX - BLUE BOX", "note": "ON 12/24 AND 12/31, THIS BOX MAY BE COLLECTED AS EARLY AS 12 NOON.", "nsi_id": "unitedstatespostalservice-a77078", "operator": "United States Postal Service", "operator:short": "USPS", "operator:type": "public", "operator:wikidata": "Q668687", "ref": "5657200001"}, "type": "Feature"}
{"dataset_attributes": {"@spider": "usps_collection_boxes", "spider:collection_time": "2023-12-19T08:25:25.283853"}, "geometry": {"coordinates": [-96.082533, 46.569362468], "type": "Point"}, "id": "Q_r1ma8RBUONwdBFC5ooLWZI4Zo=", "properties": {"@spider": "usps_collection_boxes", "addr:city": "PELICAN RAPIDS", "addr:country": "US", "addr:full": "25 E MILL AVE", "addr:postcode": "56572", "addr:state": "MN", "amenity": "post_box", "brand": "United States Postal Service", "brand:wikidata": "Q668687", "collection_times": "Mo-Fr 16:30", "name": "USPS COLLECTION BOX - PO LOBBY", "note": "ON 12/24 AND 12/31, THIS BOX MAY BE COLLECTED AS EARLY AS 12 NOON.", "nsi_id": "unitedstatespostalservice-a77078", "operator": "United States Postal Service", "operator:short": "USPS", "operator:type": "public", "operator:wikidata": "Q668687", "ref": "5657200003"}, "type": "Feature"}
{"dataset_attributes": {"@spider": "usps_collection_boxes", "spider:collection_time": "2023-12-19T08:25:25.283853"}, "geometry": {"coordinates": [-96.083425963, 46.560370567], "type": "Point"}, "id": "_Hm84Vrm1aQR4AjUk97LHEoj3oo=", "properties": {"@spider": "usps_collection_boxes", "addr:city": "PELICAN RAPIDS", "addr:country": "US", "addr:full": "901 S BROADWAY", "addr:postcode": "56572", "addr:state": "MN", "amenity": "post_box", "brand": "United States Postal Service", "brand:wikidata": "Q668687", "collection_times": "Mo-Sa 16:50", "name": "USPS COLLECTION BOX - BLUE BOX", "note": "ON 12/24 AND 12/31, THIS BOX MAY BE COLLECTED AS EARLY AS 12 NOON.", "nsi_id": "unitedstatespostalservice-a77078", "operator": "United States Postal Service", "operator:short": "USPS", "operator:type": "public", "operator:wikidata": "Q668687", "ref": "5657200004"}, "type": "Feature"}
{"dataset_attributes": {"@spider": "usps_collection_boxes", "spider:collection_time": "2023-12-19T08:25:25.283853"}, "geometry": {"coordinates": [-96.083544097, 46.574487618], "type": "Point"}, "id": "EJmL2J-1ZaErX374CptGxPJTV88=", "properties": {"@spider": "usps_collection_boxes", "addr:city": "PELICAN RAPIDS", "addr:country": "US", "addr:full": "315 N BROADWAY", "addr:postcode": "56572", "addr:state": "MN", "amenity": "post_box", "brand": "United States Postal Service", "brand:wikidata": "Q668687", "collection_times": "Mo-Sa 16:50", "name": "USPS COLLECTION BOX - BLUE BOX", "note": "ON 12/24 AND 12/31, THIS BOX MAY BE COLLECTED AS EARLY AS 12 NOON.", "nsi_id": "unitedstatespostalservice-a77078", "operator": "United States Postal Service", "operator:short": "USPS", "operator:type": "public", "operator:wikidata": "Q668687", "ref": "5657200005"}, "type": "Feature"}
{"dataset_attributes": {"@spider": "usps_collection_boxes", "spider:collection_time": "2023-12-19T08:25:25.283853"}, "geometry": {"coordinates": [-95.570846384, 46.593051456], "type": "Point"}, "id": "eYgje4FEXbF2PBZnp2K2BhSejgU=", "properties": {"@spider": "usps_collection_boxes", "addr:city": "PERHAM", "addr:country": "US", "addr:full": "250 E MAIN ST", "addr:postcode": "56573", "addr:state": "MN", "amenity": "post_box", "brand": "United States Postal Service", "brand:wikidata": "Q668687", "collection_times": "Mo-Sa 09:30", "name": "USPS COLLECTION BOX - BLUE BOX", "nsi_id": "unitedstatespostalservice-a77078", "operator": "United States Postal Service", "operator:short": "USPS", "operator:type": "public", "operator:wikidata": "Q668687", "ref": "5657300001"}, "type": "Feature"}
{"dataset_attributes": {"@spider": "usps_collection_boxes", "spider:collection_time": "2023-12-19T08:25:25.283853"}, "geometry": {"coordinates": [-95.574952725, 46.595709064], "type": "Point"}, "id": "3PNmTs7IDyyMblNlxiSi6YprckI=", "properties": {"@spider": "usps_collection_boxes", "addr:city": "PERHAM", "addr:country": "US", "addr:full": "100 3RD AVE NW", "addr:postcode": "56573", "addr:state": "MN", "amenity": "post_box", "brand": "United States Postal Service", "brand:wikidata": "Q668687", "collection_times": "Mo-Sa 16:30", "name": "USPS COLLECTION BOX - BLUE BOX", "note": "ON 12/24 AND 12/31, THIS BOX MAY BE COLLECTED AS EARLY AS 12 NOON.", "nsi_id": "unitedstatespostalservice-a77078", "operator": "United States Postal Service", "operator:short": "USPS", "operator:type": "public", "operator:wikidata": "Q668687", "ref": "5657300007"}, "type": "Feature"}
{"dataset_attributes": {"@spider": "usps_collection_boxes", "spider:collection_time": "2023-12-19T08:25:25.283853"}, "geometry": {"coordinates": [-95.571624013, 46.58410052], "type": "Point"}, "id": "mQRI0XRCQ5oWdUyHzGgT_mXj26Y=", "properties": {"@spider": "usps_collection_boxes", "addr:city": "PERHAM", "addr:country": "US", "addr:full": "231 MARKET DR", "addr:postcode": "56573", "addr:state": "MN", "amenity": "post_box", "brand": "United States Postal Service", "brand:wikidata": "Q668687", "collection_times": "Mo-Sa 13:00", "name": "USPS COLLECTION BOX - BLUE BOX", "note": "ON 12/24 AND 12/31, THIS BOX MAY BE COLLECTED AS EARLY AS 12 NOON.", "nsi_id": "unitedstatespostalservice-a77078", "operator": "United States Postal Service", "operator:short": "USPS", "operator:type": "public", "operator:wikidata": "Q668687", "ref": "5657300008"}, "type": "Feature"}
{"dataset_attributes": {"@spider": "usps_collection_boxes", "spider:collection_time": "2023-12-19T08:25:25.283853"}, "geometry": {"coordinates": [-95.574952725, 46.595709064], "type": "Point"}, "id": "E2XPUsALWoKi8peucSqSw7NIalE=", "properties": {"@spider": "usps_collection_boxes", "addr:city": "PERHAM", "addr:country": "US", "addr:full": "100 3RD AVE NW", "addr:postcode": "56573", "addr:state": "MN", "amenity": "post_box", "brand": "United States Postal Service", "brand:wikidata": "Q668687", "collection_times": "Mo-Fr 16:30", "name": "USPS COLLECTION BOX - PO LOBBY", "note": "ON 12/24 AND 12/31, THIS BOX MAY BE COLLECTED AS EARLY AS 12 NOON.", "nsi_id": "unitedstatespostalservice-a77078", "operator": "United States Postal Service", "operator:short": "USPS", "operator:type": "public", "operator:wikidata": "Q668687", "ref": "5657300010"}, "type": "Feature"}
{"dataset_attributes": {"@spider": "usps_collection_boxes", "spider:collection_time": "2023-12-19T08:25:25.283853"}, "geometry": {"coordinates": [-96.80373773, 47.178439754], "type": "Point"}, "id": "Po7WHXeoQdDwJ2_vArjQmCcLG3g=", "properties": {"@spider": "usps_collection_boxes", "addr:city": "PERLEY", "addr:country": "US", "addr:full": "214 MAIN ST", "addr:postcode": "56574", "addr:state": "MN", "amenity": "post_box", "brand": "United States Postal Service", "brand:wikidata": "Q668687", "collection_times": "Mo-Sa 17:05", "name": "USPS COLLECTION BOX - BLUE BOX", "note": "ON 12/24 AND 12/31, THIS BOX MAY BE COLLECTED AS EARLY AS 12 NOON.", "nsi_id": "unitedstatespostalservice-a77078", "operator": "United States Postal Service", "operator:short": "USPS", "operator:type": "public", "operator:wikidata": "Q668687", "ref": "5657400001"}, "type": "Feature"}
{"dataset_attributes": {"@spider": "usps_collection_boxes", "spider:collection_time": "2023-12-19T08:25:25.283853"}, "geometry": {"coordinates": [-96.80373773, 47.178439754], "type": "Point"}, "id": "sTwo0ARl2F1FNPQXOJ_XjWn9_sM=", "properties": {"@spider": "usps_collection_boxes", "addr:city": "PERLEY", "addr:country": "US", "addr:full": "214 MAIN ST", "addr:postcode": "56574", "addr:state": "MN", "amenity": "post_box", "brand": "United States Postal Service", "brand:wikidata": "Q668687", "collection_times": "Mo-Fr 10:50; Sa 09:50", "name": "USPS COLLECTION BOX - PO LOBBY", "nsi_id": "unitedstatespostalservice-a77078", "operator": "United States Postal Service", "operator:short": "USPS", "operator:type": "public", "operator:wikidata": "Q668687", "ref": "5657400002"}, "type": "Feature"}
{"dataset_attributes": {"@spider": "usps_collection_boxes", "spider:collection_time": "2023-12-19T08:25:25.283853"}, "geometry": {"coordinates": [-95.3836605, 46.969889489], "type": "Point"}, "id": "mf5Kta5S12CCLtt3kSGT3R1g_1w=", "properties": {"@spider": "usps_collection_boxes", "addr:city": "PONSFORD", "addr:country": "US", "addr:full": "48510 STATE HIGHWAY 225", "addr:postcode": "56575", "addr:state": "MN", "amenity": "post_box", "brand": "United States Postal Service", "brand:wikidata": "Q668687", "collection_times": "Mo-Fr 16:00; Sa 16:15", "name": "USPS COLLECTION BOX - BLUE BOX", "note": "ON 12/24 AND 12/31, THIS BOX MAY BE COLLECTED AS EARLY AS 12 NOON.", "nsi_id": "unitedstatespostalservice-a77078", "operator": "United States Postal Service", "operator:short": "USPS", "operator:type": "public", "operator:wikidata": "Q668687", "ref": "5657500001"}, "type": "Feature"}
{"dataset_attributes": {"@spider": "usps_collection_boxes", "spider:collection_time": "2023-12-19T08:25:25.283853"}, "geometry": {"coordinates": [-95.3836605, 46.969889489], "type": "Point"}, "id": "Kkr96YOWZhYPlJUiV0XY5Pno70s=", "properties": {"@spider": "usps_collection_boxes", "addr:city": "PONSFORD", "addr:country": "US", "addr:full": "48510 STATE HIGHWAY 225", "addr:postcode": "56575", "addr:state": "MN", "amenity": "post_box", "brand": "United States Postal Service", "brand:wikidata": "Q668687", "collection_times": "Mo-Fr 13:45", "name": "USPS COLLECTION BOX - PO LOBBY", "note": "ON 12/24 AND 12/31, THIS BOX MAY BE COLLECTED AS EARLY AS 12 NOON.", "nsi_id": "unitedstatespostalservice-a77078", "operator": "United States Postal Service", "operator:short": "USPS", "operator:type": "public", "operator:wikidata": "Q668687", "ref": "5657500002"}, "type": "Feature"}
{"dataset_attributes": {"@spider": "usps_collection_boxes", "spider:collection_time": "2023-12-19T08:25:25.283853"}, "geometry": {"coordinates": [-95.626398046, 46.506272219], "type": "Point"}, "id": "mDSx1PJ8zPlwBSFn3MtTpviIJQs=", "properties": {"@spider": "usps_collection_boxes", "addr:city": "RICHVILLE", "addr:country": "US", "addr:full": "120 MAIN ST S", "addr:postcode": "56576", "addr:state": "MN", "amenity": "post_box", "brand": "United States Postal Service", "brand:wikidata": "Q668687", "collection_times": "Mo-Sa 15:00", "name": "USPS COLLECTION BOX - BLUE BOX", "note": "ON 12/24 AND 12/31, THIS BOX MAY BE COLLECTED AS EARLY AS 12 NOON.", "nsi_id": "unitedstatespostalservice-a77078", "operator": "United States Postal Service", "operator:short": "USPS", "operator:type": "public", "operator:wikidata": "Q668687", "ref": "5657600001"}, "type": "Feature"}
{"dataset_attributes": {"@spider": "usps_collection_boxes", "spider:collection_time": "2023-12-19T08:25:25.283853"}, "geometry": {"coordinates": [-96.282269948, 46.473656477], "type": "Point"}, "id": "C0eW_GZjiQg34vsuCnajRf825os=", "properties": {"@spider": "usps_collection_boxes", "addr:city": "ROTHSAY", "addr:country": "US", "addr:full": "211 1ST ST SW", "addr:postcode": "56579", "addr:state": "MN", "amenity": "post_box", "brand": "United States Postal Service", "brand:wikidata": "Q668687", "collection_times": "Mo-Fr 16:15; Sa 17:30", "name": "USPS COLLECTION BOX - BLUE BOX", "note": "ON 12/24 AND 12/31, THIS BOX MAY BE COLLECTED AS EARLY AS 12 NOON.", "nsi_id": "unitedstatespostalservice-a77078", "operator": "United States Postal Service", "operator:short": "USPS", "operator:type": "public", "operator:wikidata": "Q668687", "ref": "5657900001"}, "type": "Feature"}
{"dataset_attributes": {"@spider": "usps_collection_boxes", "spider:collection_time": "2023-12-19T08:25:25.283853"}, "geometry": {"coordinates": [-96.282269948, 46.473656477], "type": "Point"}, "id": "Wde0lmnQ5OVS75oS11qByja4nt0=", "properties": {"@spider": "usps_collection_boxes", "addr:city": "ROTHSAY", "addr:country": "US", "addr:full": "211 1ST ST SW", "addr:postcode": "56579", "addr:state": "MN", "amenity": "post_box", "brand": "United States Postal Service", "brand:wikidata": "Q668687", "collection_times": "Mo-Fr 12:00", "name": "USPS COLLECTION BOX - PO LOBBY", "nsi_id": "unitedstatespostalservice-a77078", "operator": "United States Postal Service", "operator:short": "USPS", "operator:type": "public", "operator:wikidata": "Q668687", "ref": "5657900003"}, "type": "Feature"}
{"dataset_attributes": {"@spider": "usps_collection_boxes", "spider:collection_time": "2023-12-19T08:25:25.283853"}, "geometry": {"coordinates": [-96.6510269682, 46.7783779822], "type": "Point"}, "id": "5SVCJ4sYV3QlGHNFfqbHcLWStJM=", "properties": {"@spider": "usps_collection_boxes", "addr:city": "SABIN", "addr:country": "US", "addr:full": "18 MAIN ST", "addr:postcode": "56580", "addr:state": "MN", "amenity": "post_box", "brand": "United States Postal Service", "brand:wikidata": "Q668687", "collection_times": "Mo-Fr 15:45; Sa 17:15", "name": "USPS COLLECTION BOX - BLUE BOX", "note": "ON 12/24 AND 12/31, THIS BOX MAY BE COLLECTED AS EARLY AS 12 NOON.", "nsi_id": "unitedstatespostalservice-a77078", "operator": "United States Postal Service", "operator:short": "USPS", "operator:type": "public", "operator:wikidata": "Q668687", "ref": "5658000000"}, "type": "Feature"}
{"dataset_attributes": {"@spider": "usps_collection_boxes", "spider:collection_time": "2023-12-19T08:25:25.283853"}, "geometry": {"coordinates": [-96.650916835, 46.778272941], "type": "Point"}, "id": "Dy-DTAEqN4sL9sPtP9NMarowIFw=", "properties": {"@spider": "usps_collection_boxes", "addr:city": "SABIN", "addr:country": "US", "addr:full": "18 MAIN ST", "addr:postcode": "56580", "addr:state": "MN", "amenity": "post_box", "brand": "United States Postal Service", "brand:wikidata": "Q668687", "collection_times": "Mo-Fr 11:15; Sa 09:15", "name": "USPS COLLECTION BOX - PO LOBBY", "nsi_id": "unitedstatespostalservice-a77078", "operator": "United States Postal Service", "operator:short": "USPS", "operator:type": "public", "operator:wikidata": "Q668687", "ref": "5658000001"}, "type": "Feature"}
{"dataset_attributes": {"@spider": "usps_collection_boxes", "spider:collection_time": "2023-12-19T08:25:25.283853"}, "geometry": {"coordinates": [-96.821810329, 47.458400489], "type": "Point"}, "id": "-oWF3G8nPZ8I9BCHZKPCj1OCPDs=", "properties": {"@spider": "usps_collection_boxes", "addr:city": "SHELLY", "addr:country": "US", "addr:full": "109 W MCKINLEY AVE", "addr:postcode": "56581", "addr:state": "MN", "amenity": "post_box", "brand": "United States Postal Service", "brand:wikidata": "Q668687", "collection_times": "Mo-Sa 16:15", "name": "USPS COLLECTION BOX - BLUE BOX", "note": "ON 12/24 AND 12/31, THIS BOX MAY BE COLLECTED AS EARLY AS 12 NOON.", "nsi_id": "unitedstatespostalservice-a77078", "operator": "United States Postal Service", "operator:short": "USPS", "operator:type": "public", "operator:wikidata": "Q668687", "ref": "5658100001"}, "type": "Feature"}
{"dataset_attributes": {"@spider": "usps_collection_boxes", "spider:collection_time": "2023-12-19T08:25:25.283853"}, "geometry": {"coordinates": [-96.821810329, 47.458400489], "type": "Point"}, "id": "_f4GnXvHbqffOFKVQiChPngyKpg=", "properties": {"@spider": "usps_collection_boxes", "addr:city": "SHELLY", "addr:country": "US", "addr:full": "109 W MCKINLEY AVE", "addr:postcode": "56581", "addr:state": "MN", "amenity": "post_box", "brand": "United States Postal Service", "brand:wikidata": "Q668687", "collection_times": "Mo-Fr 10:50", "name": "USPS COLLECTION BOX - PO LOBBY", "nsi_id": "unitedstatespostalservice-a77078", "operator": "United States Postal Service", "operator:short": "USPS", "operator:type": "public", "operator:wikidata": "Q668687", "ref": "5658100002"}, "type": "Feature"}
{"dataset_attributes": {"@spider": "usps_collection_boxes", "spider:collection_time": "2023-12-19T08:25:25.283853"}, "geometry": {"coordinates": [-96.260640458, 47.260490095], "type": "Point"}, "id": "45OJqFyub2DPyxZs7oFc3ury2yY=", "properties": {"@spider": "usps_collection_boxes", "addr:city": "TWIN VALLEY", "addr:country": "US", "addr:full": "106 MAIN AVE W", "addr:postcode": "56584", "addr:state": "MN", "amenity": "post_box", "brand": "United States Postal Service", "brand:wikidata": "Q668687", "collection_times": "Mo-Sa 13:55", "name": "USPS COLLECTION BOX - BLUE BOX", "note": "ON 12/24 AND 12/31, THIS BOX MAY BE COLLECTED AS EARLY AS 12 NOON.", "nsi_id": "unitedstatespostalservice-a77078", "operator": "United States Postal Service", "operator:short": "USPS", "operator:type": "public", "operator:wikidata": "Q668687", "ref": "5658400001"}, "type": "Feature"}
{"dataset_attributes": {"@spider": "usps_collection_boxes", "spider:collection_time": "2023-12-19T08:25:25.283853"}, "geometry": {"coordinates": [-96.260640458, 47.260490095], "type": "Point"}, "id": "QFSZy-SAf2GzkDOfuwQN9zTtlgY=", "properties": {"@spider": "usps_collection_boxes", "addr:city": "TWIN VALLEY", "addr:country": "US", "addr:full": "106 MAIN AVE W", "addr:postcode": "56584", "addr:state": "MN", "amenity": "post_box", "brand": "United States Postal Service", "brand:wikidata": "Q668687", "collection_times": "Mo-Fr 13:45", "name": "USPS COLLECTION BOX - PO LOBBY", "note": "ON 12/24 AND 12/31, THIS BOX MAY BE COLLECTED AS EARLY AS 12 NOON.", "nsi_id": "unitedstatespostalservice-a77078", "operator": "United States Postal Service", "operator:short": "USPS", "operator:type": "public", "operator:wikidata": "Q668687", "ref": "5658400003"}, "type": "Feature"}
{"dataset_attributes": {"@spider": "usps_collection_boxes", "spider:collection_time": "2023-12-19T08:25:25.283853"}, "geometry": {"coordinates": [-96.259071858, 47.079279], "type": "Point"}, "id": "6JcBN6jTK0SIULuVRupgWxydluM=", "properties": {"@spider": "usps_collection_boxes", "addr:city": "ULEN", "addr:country": "US", "addr:full": "15 1ST ST NW", "addr:postcode": "56585", "addr:state": "MN", "amenity": "post_box", "brand": "United States Postal Service", "brand:wikidata": "Q668687", "collection_times": "Mo-Sa 14:55", "name": "USPS COLLECTION BOX - BLUE BOX", "note": "ON 12/24 AND 12/31, THIS BOX MAY BE COLLECTED AS EARLY AS 12 NOON.", "nsi_id": "unitedstatespostalservice-a77078", "operator": "United States Postal Service", "operator:short": "USPS", "operator:type": "public", "operator:wikidata": "Q668687", "ref": "5658500001"}, "type": "Feature"}
{"dataset_attributes": {"@spider": "usps_collection_boxes", "spider:collection_time": "2023-12-19T08:25:25.283853"}, "geometry": {"coordinates": [-96.259071858, 47.079279], "type": "Point"}, "id": "1Ae1r_WOXTDjBiGaGkHjoVXprgE=", "properties": {"@spider": "usps_collection_boxes", "addr:city": "ULEN", "addr:country": "US", "addr:full": "15 1ST ST NW", "addr:postcode": "56585", "addr:state": "MN", "amenity": "post_box", "brand": "United States Postal Service", "brand:wikidata": "Q668687", "collection_times": "Mo-Fr 14:00", "name": "USPS COLLECTION BOX - PO LOBBY", "note": "ON 12/24 AND 12/31, THIS BOX MAY BE COLLECTED AS EARLY AS 12 NOON.", "nsi_id": "unitedstatespostalservice-a77078", "operator": "United States Postal Service", "operator:short": "USPS", "operator:type": "public", "operator:wikidata": "Q668687", "ref": "5658500002"}, "type": "Feature"}
{"dataset_attributes": {"@spider": "usps_collection_boxes", "spider:collection_time": "2023-12-19T08:25:25.283853"}, "geometry": {"coordinates": [-95.871313312, 46.284991827], "type": "Point"}, "id": "o-uB0RA9oczbNyTSBqeFEUhOEAs=", "properties": {"@spider": "usps_collection_boxes", "addr:city": "UNDERWOOD", "addr:country": "US", "addr:full": "113 MAIN ST S", "addr:postcode": "56586", "addr:state": "MN", "amenity": "post_box", "brand": "United States Postal Service", "brand:wikidata": "Q668687", "collection_times": "Mo-Fr 15:45; Sa 15:30", "name": "USPS COLLECTION BOX - BLUE BOX", "note": "ON 12/24 AND 12/31, THIS BOX MAY BE COLLECTED AS EARLY AS 12 NOON.", "nsi_id": "unitedstatespostalservice-a77078", "operator": "United States Postal Service", "operator:short": "USPS", "operator:type": "public", "operator:wikidata": "Q668687", "ref": "5658600001"}, "type": "Feature"}
{"dataset_attributes": {"@spider": "usps_collection_boxes", "spider:collection_time": "2023-12-19T08:25:25.283853"}, "geometry": {"coordinates": [-95.871313312, 46.284991827], "type": "Point"}, "id": "uPooSR5Cs3DzID67BHFY2jhz_Ic=", "properties": {"@spider": "usps_collection_boxes", "addr:city": "UNDERWOOD", "addr:country": "US", "addr:full": "113 MAIN ST S", "addr:postcode": "56586", "addr:state": "MN", "amenity": "post_box", "brand": "United States Postal Service", "brand:wikidata": "Q668687", "collection_times": "Mo-Fr 14:00", "name": "USPS COLLECTION BOX - PO LOBBY", "note": "ON 12/24 AND 12/31, THIS BOX MAY BE COLLECTED AS EARLY AS 12 NOON.", "nsi_id": "unitedstatespostalservice-a77078", "operator": "United States Postal Service", "operator:short": "USPS", "operator:type": "public", "operator:wikidata": "Q668687", "ref": "5658600002"}, "type": "Feature"}
{"dataset_attributes": {"@spider": "usps_collection_boxes", "spider:collection_time": "2023-12-19T08:25:25.283853"}, "geometry": {"coordinates": [-95.804882845, 46.656775239], "type": "Point"}, "id": "jbetxIUc8pdEVAkCCd0cz2Nlklg=", "properties": {"@spider": "usps_collection_boxes", "addr:city": "VERGAS", "addr:country": "US", "addr:full": "123 E MAIN ST", "addr:postcode": "56587", "addr:state": "MN", "amenity": "post_box", "brand": "United States Postal Service", "brand:wikidata": "Q668687", "collection_times": "Mo-Sa 14:15", "name": "USPS COLLECTION BOX - BLUE BOX", "note": "ON 12/24 AND 12/31, THIS BOX MAY BE COLLECTED AS EARLY AS 12 NOON.", "nsi_id": "unitedstatespostalservice-a77078", "operator": "United States Postal Service", "operator:short": "USPS", "operator:type": "public", "operator:wikidata": "Q668687", "ref": "5658700001"}, "type": "Feature"}
{"dataset_attributes": {"@spider": "usps_collection_boxes", "spider:collection_time": "2023-12-19T08:25:25.283853"}, "geometry": {"coordinates": [-95.804882845, 46.656775239], "type": "Point"}, "id": "uXHyeaReW18qrukSM-4AY5yySmw=", "properties": {"@spider": "usps_collection_boxes", "addr:city": "VERGAS", "addr:country": "US", "addr:full": "123 E MAIN ST", "addr:postcode": "56587", "addr:state": "MN", "amenity": "post_box", "brand": "United States Postal Service", "brand:wikidata": "Q668687", "collection_times": "Mo-Fr 13:00", "name": "USPS COLLECTION BOX - PO LOBBY", "note": "ON 12/24 AND 12/31, THIS BOX MAY BE COLLECTED AS EARLY AS 12 NOON.", "nsi_id": "unitedstatespostalservice-a77078", "operator": "United States Postal Service", "operator:short": "USPS", "operator:type": "public", "operator:wikidata": "Q668687", "ref": "5658700002"}, "type": "Feature"}
{"dataset_attributes": {"@spider": "usps_collection_boxes", "spider:collection_time": "2023-12-19T08:25:25.283853"}, "geometry": {"coordinates": [-95.537786256, 46.262609708], "type": "Point"}, "id": "2PV7UeuXwQc9kepx0aERTMnBlTE=", "properties": {"@spider": "usps_collection_boxes", "addr:city": "VINING", "addr:country": "US", "addr:full": "3005 FRONT ST", "addr:postcode": "56588", "addr:state": "MN", "amenity": "post_box", "brand": "United States Postal Service", "brand:wikidata": "Q668687", "collection_times": "Mo-Sa 16:05", "name": "USPS COLLECTION BOX - BLUE BOX", "note": "ON 12/24 AND 12/31, THIS BOX MAY BE COLLECTED AS EARLY AS 12 NOON.", "nsi_id": "unitedstatespostalservice-a77078", "operator": "United States Postal Service", "operator:short": "USPS", "operator:type": "public", "operator:wikidata": "Q668687", "ref": "5658800001"}, "type": "Feature"}
{"dataset_attributes": {"@spider": "usps_collection_boxes", "spider:collection_time": "2023-12-19T08:25:25.283853"}, "geometry": {"coordinates": [-95.537786256, 46.262609708], "type": "Point"}, "id": "n0pg-n5PuH_aeHAW2W2I-4cA2r0=", "properties": {"@spider": "usps_collection_boxes", "addr:city": "VINING", "addr:country": "US", "addr:full": "3005 FRONT ST", "addr:postcode": "56588", "addr:state": "MN", "amenity": "post_box", "brand": "United States Postal Service", "brand:wikidata": "Q668687", "collection_times": "Mo-Fr 15:00", "name": "USPS COLLECTION BOX - PO LOBBY", "note": "ON 12/24 AND 12/31, THIS BOX MAY BE COLLECTED AS EARLY AS 12 NOON.", "nsi_id": "unitedstatespostalservice-a77078", "operator": "United States Postal Service", "operator:short": "USPS", "operator:type": "public", "operator:wikidata": "Q668687", "ref": "5658800002"}, "type": "Feature"}
{"dataset_attributes": {"@spider": "usps_collection_boxes", "spider:collection_time": "2023-12-19T08:25:25.283853"}, "geometry": {"coordinates": [-95.943702735, 47.18070186], "type": "Point"}, "id": "qo3zHkZRz7x6G0sNhVS8V0bv1wc=", "properties": {"@spider": "usps_collection_boxes", "addr:city": "WAUBUN", "addr:country": "US", "addr:full": "1015 1ST ST", "addr:postcode": "56589", "addr:state": "MN", "amenity": "post_box", "brand": "United States Postal Service", "brand:wikidata": "Q668687", "collection_times": "Mo-Sa 16:00", "name": "USPS COLLECTION BOX - BLUE BOX", "note": "ON 12/24 AND 12/31, THIS BOX MAY BE COLLECTED AS EARLY AS 12 NOON.", "nsi_id": "unitedstatespostalservice-a77078", "operator": "United States Postal Service", "operator:short": "USPS", "operator:type": "public", "operator:wikidata": "Q668687", "ref": "5658900001"}, "type": "Feature"}
{"dataset_attributes": {"@spider": "usps_collection_boxes", "spider:collection_time": "2023-12-19T08:25:25.283853"}, "geometry": {"coordinates": [-95.943702735, 47.18070186], "type": "Point"}, "id": "khKp5ylYNrnrkIN7PvZIqWBqaHA=", "properties": {"@spider": "usps_collection_boxes", "addr:city": "WAUBUN", "addr:country": "US", "addr:full": "1015 1ST ST", "addr:postcode": "56589", "addr:state": "MN", "amenity": "post_box", "brand": "United States Postal Service", "brand:wikidata": "Q668687", "collection_times": "Mo-Fr 14:00", "name": "USPS COLLECTION BOX - PO LOBBY", "note": "ON 12/24 AND 12/31, THIS BOX MAY BE COLLECTED AS EARLY AS 12 NOON.", "nsi_id": "unitedstatespostalservice-a77078", "operator": "United States Postal Service", "operator:short": "USPS", "operator:type": "public", "operator:wikidata": "Q668687", "ref": "5658900002"}, "type": "Feature"}
{"dataset_attributes": {"@spider": "usps_collection_boxes", "spider:collection_time": "2023-12-19T08:25:25.283853"}, "geometry": {"coordinates": [-96.099929832, 46.035939478], "type": "Point"}, "id": "9K4fkrcocD5a9HMnT8Bndu44swI=", "properties": {"@spider": "usps_collection_boxes", "addr:city": "WENDELL", "addr:country": "US", "addr:full": "542 STATE HIGHWAY 55", "addr:postcode": "56590", "addr:state": "MN", "amenity": "post_box", "brand": "United States Postal Service", "brand:wikidata": "Q668687", "collection_times": "Mo-Sa 16:15", "name": "USPS COLLECTION BOX - BLUE BOX", "note": "ON 12/24 AND 12/31, THIS BOX MAY BE COLLECTED AS EARLY AS 12 NOON.", "nsi_id": "unitedstatespostalservice-a77078", "operator": "United States Postal Service", "operator:short": "USPS", "operator:type": "public", "operator:wikidata": "Q668687", "ref": "5659000001"}, "type": "Feature"}
{"dataset_attributes": {"@spider": "usps_collection_boxes", "spider:collection_time": "2023-12-19T08:25:25.283853"}, "geometry": {"coordinates": [-96.099929832, 46.035939478], "type": "Point"}, "id": "z8TP2smPg7-yU46pz1hkFoe_Xig=", "properties": {"@spider": "usps_collection_boxes", "addr:city": "WENDELL", "addr:country": "US", "addr:full": "542 STATE HIGHWAY 55", "addr:postcode": "56590", "addr:state": "MN", "amenity": "post_box", "brand": "United States Postal Service", "brand:wikidata": "Q668687", "collection_times": "Mo-Fr 12:00", "name": "USPS COLLECTION BOX - PO LOBBY", "nsi_id": "unitedstatespostalservice-a77078", "operator": "United States Postal Service", "operator:short": "USPS", "operator:type": "public", "operator:wikidata": "Q668687", "ref": "5659000002"}, "type": "Feature"}
{"dataset_attributes": {"@spider": "usps_collection_boxes", "spider:collection_time": "2023-12-19T08:25:25.283853"}, "geometry": {"coordinates": [-95.840243665, 47.100099457], "type": "Point"}, "id": "cWJlBm6AgLCzJvEWLakpOTq7W-I=", "properties": {"@spider": "usps_collection_boxes", "addr:city": "WHITE EARTH", "addr:country": "US", "addr:full": "26246 CRANE RD", "addr:postcode": "56591", "addr:state": "MN", "amenity": "post_box", "brand": "United States Postal Service", "brand:wikidata": "Q668687", "collection_times": "Mo-Fr 13:15; Sa 10:45", "name": "USPS COLLECTION BOX - BLUE BOX", "note": "ON 12/24 AND 12/31, THIS BOX MAY BE COLLECTED AS EARLY AS 12 NOON.", "nsi_id": "unitedstatespostalservice-a77078", "operator": "United States Postal Service", "operator:short": "USPS", "operator:type": "public", "operator:wikidata": "Q668687", "ref": "5659100001"}, "type": "Feature"}
{"dataset_attributes": {"@spider": "usps_collection_boxes", "spider:collection_time": "2023-12-19T08:25:25.283853"}, "geometry": {"coordinates": [-95.840243665, 47.100099457], "type": "Point"}, "id": "WtbXvmtwJPOukauHQ8E30GZBAO0=", "properties": {"@spider": "usps_collection_boxes", "addr:city": "WHITE EARTH", "addr:country": "US", "addr:full": "26246 CRANE RD", "addr:postcode": "56591", "addr:state": "MN", "amenity": "post_box", "brand": "United States Postal Service", "brand:wikidata": "Q668687", "collection_times": "Mo-Fr 13:15", "name": "USPS COLLECTION BOX - PO LOBBY", "note": "ON 12/24 AND 12/31, THIS BOX MAY BE COLLECTED AS EARLY AS 12 NOON.", "nsi_id": "unitedstatespostalservice-a77078", "operator": "United States Postal Service", "operator:short": "USPS", "operator:type": "public", "operator:wikidata": "Q668687", "ref": "5659100002"}, "type": "Feature"}
{"dataset_attributes": {"@spider": "usps_collection_boxes", "spider:collection_time": "2023-12-19T08:25:25.283853"}, "geometry": {"coordinates": [-95.988169365, 47.535605801], "type": "Point"}, "id": "Es0UsfyZbvI8rbZexc-1RUzhWUI=", "properties": {"@spider": "usps_collection_boxes", "addr:city": "WINGER", "addr:country": "US", "addr:full": "14 S MAIN ST", "addr:postcode": "56592", "addr:state": "MN", "amenity": "post_box", "brand": "United States Postal Service", "brand:wikidata": "Q668687", "collection_times": "Mo-Sa 15:30", "name": "USPS COLLECTION BOX - BLUE BOX", "note": "ON 12/24 AND 12/31, THIS BOX MAY BE COLLECTED AS EARLY AS 12 NOON.", "nsi_id": "unitedstatespostalservice-a77078", "operator": "United States Postal Service", "operator:short": "USPS", "operator:type": "public", "operator:wikidata": "Q668687", "ref": "5659200001"}, "type": "Feature"}
{"dataset_attributes": {"@spider": "usps_collection_boxes", "spider:collection_time": "2023-12-19T08:25:25.283853"}, "geometry": {"coordinates": [-95.988169365, 47.535605801], "type": "Point"}, "id": "S7P6tDUawF0_L1KOR3Y-fC_1GnU=", "properties": {"@spider": "usps_collection_boxes", "addr:city": "WINGER", "addr:country": "US", "addr:full": "14 S MAIN ST", "addr:postcode": "56592", "addr:state": "MN", "amenity": "post_box", "brand": "United States Postal Service", "brand:wikidata": "Q668687", "collection_times": "Mo-Fr 12:00", "name": "USPS COLLECTION BOX - PO LOBBY", "nsi_id": "unitedstatespostalservice-a77078", "operator": "United States Postal Service", "operator:short": "USPS", "operator:type": "public", "operator:wikidata": "Q668687", "ref": "5659200002"}, "type": "Feature"}
{"dataset_attributes": {"@spider": "usps_collection_boxes", "spider:collection_time": "2023-12-19T08:25:25.283853"}, "geometry": {"coordinates": [-96.734541148, 46.565677157], "type": "Point"}, "id": "onsJsuWpCTkZaWaXkEhGPEuuPAg=", "properties": {"@spider": "usps_collection_boxes", "addr:city": "WOLVERTON", "addr:country": "US", "addr:full": "333 KING OF TRAILS PKWY", "addr:postcode": "56594", "addr:state": "MN", "amenity": "post_box", "brand": "United States Postal Service", "brand:wikidata": "Q668687", "collection_times": "Mo-Fr 16:15; Sa 16:00", "name": "USPS COLLECTION BOX - BLUE BOX", "note": "ON 12/24 AND 12/31, THIS BOX MAY BE COLLECTED AS EARLY AS 12 NOON.", "nsi_id": "unitedstatespostalservice-a77078", "operator": "United States Postal Service", "operator:short": "USPS", "operator:type": "public", "operator:wikidata": "Q668687", "ref": "5659400001"}, "type": "Feature"}
{"dataset_attributes": {"@spider": "usps_collection_boxes", "spider:collection_time": "2023-12-19T08:25:25.283853"}, "geometry": {"coordinates": [-96.734541148, 46.565677157], "type": "Point"}, "id": "NpBy5HtHG9gk7v4kbmmgp_GhiO8=", "properties": {"@spider": "usps_collection_boxes", "addr:city": "WOLVERTON", "addr:country": "US", "addr:full": "333 KING OF TRAILS PKWY", "addr:postcode": "56594", "addr:state": "MN", "amenity": "post_box", "brand": "United States Postal Service", "brand:wikidata": "Q668687", "collection_times": "Mo-Fr 12:00", "name": "USPS COLLECTION BOX - PO LOBBY", "nsi_id": "unitedstatespostalservice-a77078", "operator": "United States Postal Service", "operator:short": "USPS", "operator:type": "public", "operator:wikidata": "Q668687", "ref": "5659400002"}, "type": "Feature"}
