{"geometry": {"coordinates": [-94.885482116, 47.47240691], "type": "Point"}, "id": "bAwny5wEC5umdVspQtbfdveuuYc=", "properties": {"@spider": "usps_collection_boxes", "addr:city": "BEMIDJI", "addr:country": "US", "addr:full": "401 IRVINE AVE NW", "addr:postcode": "56601", "addr:state": "MN", "brand": "USPS", "brand:wikidata": "Q668687", "collection_times": "Mo-Sa 18:00", "name": "USPS COLLECTION BOX - BLUE BOX", "note": "ON 12/24 AND 12/31, THIS BOX MAY BE COLLECTED AS EARLY AS 12 NOON.", "ref": "5660100001"}, "type": "Feature"}
{"geometry": {"coordinates": [-94.885482116, 47.47240691], "type": "Point"}, "id": "5D0uTQeD1Rj_H6sshNdgVzRiE_I=", "properties": {"@spider": "usps_collection_boxes", "addr:city": "BEMIDJI", "addr:country": "US", "addr:full": "401 IRVINE AVE NW", "addr:postcode": "56601", "addr:state": "MN", "brand": "USPS", "brand:wikidata": "Q668687", "collection_times": "Mo-Sa 18:00", "name": "USPS COLLECTION BOX - BLUE BOX", "note": "ON 12/24 AND 12/31, THIS BOX MAY BE COLLECTED AS EARLY AS 12 NOON.", "ref": "5660100002"}, "type": "Feature"}
{"geometry": {"coordinates": [-94.863892619, 47.455329374], "type": "Point"}, "id": "pG_nU56dUThKLJsK8Jq5DorUt5Q=", "properties": {"@spider": "usps_collection_boxes", "addr:city": "BEMIDJI", "addr:country": "US", "addr:full": "609 WASHINGTON AVE S", "addr:postcode": "56601", "addr:state": "MN", "brand": "USPS", "brand:wikidata": "Q668687", "collection_times": "Mo-Sa 15:30", "name": "USPS COLLECTION BOX - BLUE BOX", "note": "ON 12/24 AND 12/31, THIS BOX MAY BE COLLECTED AS EARLY AS 12 NOON.", "ref": "5660100004"}, "type": "Feature"}
{"geometry": {"coordinates": [-94.881152358, 47.472786], "type": "Point"}, "id": "QVKX0aZLAwGkTY7UYVibRasGQlE=", "properties": {"@spider": "usps_collection_boxes", "addr:city": "BEMIDJI", "addr:country": "US", "addr:full": "502 BELTRAMI AVE NW", "addr:postcode": "56601", "addr:state": "MN", "brand": "USPS", "brand:wikidata": "Q668687", "collection_times": "Mo-Sa 15:30", "name": "USPS COLLECTION BOX - BLUE BOX", "note": "ON 12/24 AND 12/31, THIS BOX MAY BE COLLECTED AS EARLY AS 12 NOON.", "ref": "5660100007"}, "type": "Feature"}
{"geometry": {"coordinates": [-94.881233142, 47.47176], "type": "Point"}, "id": "70KZdCwCh4whXKrmwuamAI13t5w=", "properties": {"@spider": "usps_collection_boxes", "addr:city": "BEMIDJI", "addr:country": "US", "addr:full": "401 BELTRAMI AVE NW", "addr:postcode": "56601", "addr:state": "MN", "brand": "USPS", "brand:wikidata": "Q668687", "collection_times": "Mo-Sa 15:30", "name": "USPS COLLECTION BOX - BLUE BOX", "note": "ON 12/24 AND 12/31, THIS BOX MAY BE COLLECTED AS EARLY AS 12 NOON.", "ref": "5660100008"}, "type": "Feature"}
{"geometry": {"coordinates": [-94.908198025, 47.494705107], "type": "Point"}, "id": "QKrp7tbMshSBx_W9p3zILdovnmA=", "properties": {"@spider": "usps_collection_boxes", "addr:city": "BEMIDJI", "addr:country": "US", "addr:full": "2000 PAUL BUNYAN DR NW", "addr:postcode": "56601", "addr:state": "MN", "brand": "USPS", "brand:wikidata": "Q668687", "collection_times": "Mo-Sa 15:30", "name": "USPS COLLECTION BOX - BLUE BOX", "note": "ON 12/24 AND 12/31, THIS BOX MAY BE COLLECTED AS EARLY AS 12 NOON.", "ref": "5660100010"}, "type": "Feature"}
{"geometry": {"coordinates": [-94.897060092, 47.492062402], "type": "Point"}, "id": "PSGA1U2nJINSYBKxvDbNOBmzqg8=", "properties": {"@spider": "usps_collection_boxes", "addr:city": "BEMIDJI", "addr:country": "US", "addr:full": "1171 PAUL BUNYAN DR NW", "addr:postcode": "56601", "addr:state": "MN", "brand": "USPS", "brand:wikidata": "Q668687", "collection_times": "Mo-Sa 15:30", "name": "USPS COLLECTION BOX - BLUE BOX", "note": "ON 12/24 AND 12/31, THIS BOX MAY BE COLLECTED AS EARLY AS 12 NOON.", "ref": "5660100014"}, "type": "Feature"}
{"geometry": {"coordinates": [-94.885482116, 47.47240691], "type": "Point"}, "id": "G-YsxiSqkvSU42FTOmZ2_0XNNCE=", "properties": {"@spider": "usps_collection_boxes", "addr:city": "BEMIDJI", "addr:country": "US", "addr:full": "401 IRVINE AVE NW", "addr:postcode": "56601", "addr:state": "MN", "brand": "USPS", "brand:wikidata": "Q668687", "collection_times": "Mo-Sa 18:00", "name": "USPS COLLECTION BOX - PO LOBBY", "note": "ON 12/24 AND 12/31, THIS BOX MAY BE COLLECTED AS EARLY AS 12 NOON.", "ref": "5660100020"}, "type": "Feature"}
{"geometry": {"coordinates": [-94.885482116, 47.47240691], "type": "Point"}, "id": "WWyDu5Jbivah1KT7sRSyExfV-F8=", "properties": {"@spider": "usps_collection_boxes", "addr:city": "BEMIDJI", "addr:country": "US", "addr:full": "401 IRVINE AVE NW", "addr:postcode": "56601", "addr:state": "MN", "brand": "USPS", "brand:wikidata": "Q668687", "collection_times": "Mo-Sa 18:00", "name": "USPS COLLECTION BOX - PO LOBBY", "note": "ON 12/24 AND 12/31, THIS BOX MAY BE COLLECTED AS EARLY AS 12 NOON.", "ref": "5660100022"}, "type": "Feature"}
{"geometry": {"coordinates": [-94.897060092, 47.492062402], "type": "Point"}, "id": "P0De85Ibe1tZBcZzWZ7N4MG-tZo=", "properties": {"@spider": "usps_collection_boxes", "addr:city": "BEMIDJI", "addr:country": "US", "addr:full": "1171 PAUL BUNYAN DR NW", "addr:postcode": "56601", "addr:state": "MN", "brand": "USPS", "brand:wikidata": "Q668687", "collection_times": "Mo-Sa 15:30", "name": "USPS COLLECTION BOX - BLUE BOX", "note": "ON 12/24 AND 12/31, THIS BOX MAY BE COLLECTED AS EARLY AS 12 NOON.", "ref": "5660100023"}, "type": "Feature"}
{"geometry": {"coordinates": [-95.005341062, 47.512684489], "type": "Point"}, "id": "yfoMDR4jmcD1TZ8PkGbYIyR2LWU=", "properties": {"@spider": "usps_collection_boxes", "addr:city": "BEMIDJI", "addr:country": "US", "addr:full": "430 OLD WHITETAIL DR NW", "addr:postcode": "56601", "addr:state": "MN", "brand": "USPS", "brand:wikidata": "Q668687", "collection_times": "Mo-Sa 17:15", "name": "USPS COLLECTION BOX - BLUE BOX", "note": "ON 12/24 AND 12/31, THIS BOX MAY BE COLLECTED AS EARLY AS 12 NOON.", "ref": "5660100028"}, "type": "Feature"}
{"geometry": {"coordinates": [-94.885482116, 47.47240691], "type": "Point"}, "id": "nJ1iQ2ieh_cjBMD6LX4bdFPM-n4=", "properties": {"@spider": "usps_collection_boxes", "addr:city": "BEMIDJI", "addr:country": "US", "addr:full": "401 IRVINE AVE NW", "addr:postcode": "56601", "addr:state": "MN", "brand": "USPS", "brand:wikidata": "Q668687", "collection_times": "Mo-Fr 17:00; Sa 12:00", "name": "USPS COLLECTION BOX - PO LOBBY", "note": "ON 12/24 AND 12/31, THIS BOX MAY BE COLLECTED AS EARLY AS 12 NOON.", "ref": "5660100033"}, "type": "Feature"}
{"geometry": {"coordinates": [-95.396999843, 47.52252045], "type": "Point"}, "id": "GLiuT50hUm-IicA4DmLrq-Y7ei0=", "properties": {"@spider": "usps_collection_boxes", "addr:city": "BAGLEY", "addr:country": "US", "addr:full": "26 GETCHELL AVE NE", "addr:postcode": "56621", "addr:state": "MN", "brand": "USPS", "brand:wikidata": "Q668687", "collection_times": "Mo-Sa 16:30", "name": "USPS COLLECTION BOX - BLUE BOX", "note": "ON 12/24 AND 12/31, THIS BOX MAY BE COLLECTED AS EARLY AS 12 NOON.", "ref": "5662100001"}, "type": "Feature"}
{"geometry": {"coordinates": [-95.396999843, 47.52252045], "type": "Point"}, "id": "_dZinVXvSXfZaoU3BCDRWgg95H4=", "properties": {"@spider": "usps_collection_boxes", "addr:city": "BAGLEY", "addr:country": "US", "addr:full": "26 GETCHELL AVE NE", "addr:postcode": "56621", "addr:state": "MN", "brand": "USPS", "brand:wikidata": "Q668687", "collection_times": "Mo-Fr 16:30; Sa 10:00", "name": "USPS COLLECTION BOX - PO LOBBY", "note": "ON 12/24 AND 12/31, THIS BOX MAY BE COLLECTED AS EARLY AS 12 NOON.", "ref": "5662100003"}, "type": "Feature"}
{"geometry": {"coordinates": [-95.396999843, 47.52252045], "type": "Point"}, "id": "HfldUFq9FdX9eRWY0-DtLIR2rZc=", "properties": {"@spider": "usps_collection_boxes", "addr:city": "BAGLEY", "addr:country": "US", "addr:full": "26 GETCHELL AVE NE", "addr:postcode": "56621", "addr:state": "MN", "brand": "USPS", "brand:wikidata": "Q668687", "collection_times": "Mo-Fr 16:30; Sa 10:00", "name": "USPS COLLECTION BOX - PO LOBBY", "note": "ON 12/24 AND 12/31, THIS BOX MAY BE COLLECTED AS EARLY AS 12 NOON.", "ref": "5662100005"}, "type": "Feature"}
{"geometry": {"coordinates": [-94.601704095, 48.713256052], "type": "Point"}, "id": "vjjZ0q9GhIJvVMXojdgoouqL-LQ=", "properties": {"@spider": "usps_collection_boxes", "addr:city": "BAUDETTE", "addr:country": "US", "addr:full": "119 1ST AVE NW", "addr:postcode": "56623", "addr:state": "MN", "brand": "USPS", "brand:wikidata": "Q668687", "collection_times": "Mo-Sa 16:30", "name": "USPS COLLECTION BOX - BLUE BOX", "note": "ON 12/24 AND 12/31, THIS BOX MAY BE COLLECTED AS EARLY AS 12 NOON.", "ref": "5662300000"}, "type": "Feature"}
{"geometry": {"coordinates": [-94.601704095, 48.713256052], "type": "Point"}, "id": "ytX4y-yWyWyiCRTXxhM8rBjimng=", "properties": {"@spider": "usps_collection_boxes", "addr:city": "BAUDETTE", "addr:country": "US", "addr:full": "119 1ST AVE NW", "addr:postcode": "56623", "addr:state": "MN", "brand": "USPS", "brand:wikidata": "Q668687", "collection_times": "Mo-Fr 16:30; Sa 09:30", "name": "USPS COLLECTION BOX - PO LOBBY", "note": "ON 12/24 AND 12/31, THIS BOX MAY BE COLLECTED AS EARLY AS 12 NOON.", "ref": "5662300002"}, "type": "Feature"}
{"geometry": {"coordinates": [-94.601704095, 48.713256052], "type": "Point"}, "id": "Cjl8nXZKI626rM1zxMlWiyq3IyU=", "properties": {"@spider": "usps_collection_boxes", "addr:city": "BAUDETTE", "addr:country": "US", "addr:full": "119 1ST AVE NW", "addr:postcode": "56623", "addr:state": "MN", "brand": "USPS", "brand:wikidata": "Q668687", "collection_times": "Mo-Sa 16:30", "name": "USPS COLLECTION BOX - BLUE BOX", "note": "ON 12/24 AND 12/31, THIS BOX MAY BE COLLECTED AS EARLY AS 12 NOON.", "ref": "5662300003"}, "type": "Feature"}
{"geometry": {"coordinates": [-94.601704095, 48.713256052], "type": "Point"}, "id": "lnf8BH28JZ6xgapXnwb9BtnYRUU=", "properties": {"@spider": "usps_collection_boxes", "addr:city": "BAUDETTE", "addr:country": "US", "addr:full": "119 1ST AVE NW", "addr:postcode": "56623", "addr:state": "MN", "brand": "USPS", "brand:wikidata": "Q668687", "collection_times": "Mo-Fr 16:30", "name": "USPS COLLECTION BOX - PO LOBBY", "note": "ON 12/24 AND 12/31, THIS BOX MAY BE COLLECTED AS EARLY AS 12 NOON.", "ref": "5662300004"}, "type": "Feature"}
{"geometry": {"coordinates": [-94.208702409, 47.342718], "type": "Point"}, "id": "BLfllJnfFk1kKTPOUbSiL-5nWu0=", "properties": {"@spider": "usps_collection_boxes", "addr:city": "BENA", "addr:country": "US", "addr:full": "38 COUNTY ROAD 8", "addr:postcode": "56626", "addr:state": "MN", "brand": "USPS", "brand:wikidata": "Q668687", "collection_times": "Mo-Fr 16:00; Sa 15:30", "name": "USPS COLLECTION BOX - BLUE BOX", "note": "ON 12/24 AND 12/31, THIS BOX MAY BE COLLECTED AS EARLY AS 12 NOON.", "ref": "5662600000"}, "type": "Feature"}
{"geometry": {"coordinates": [-94.208702409, 47.342718], "type": "Point"}, "id": "JeZ4Pj3CrQ4mo3pDKJDOPMTVi9U=", "properties": {"@spider": "usps_collection_boxes", "addr:city": "BENA", "addr:country": "US", "addr:full": "38 COUNTY ROAD 8", "addr:postcode": "56626", "addr:state": "MN", "brand": "USPS", "brand:wikidata": "Q668687", "collection_times": "Mo-Fr 12:00; Sa 08:30", "name": "USPS COLLECTION BOX - PO LOBBY", "ref": "5662600001"}, "type": "Feature"}
{"geometry": {"coordinates": [-94.208702409, 47.342718], "type": "Point"}, "id": "sa_UC1AhsKzOClTnBHyrjEi36lM=", "properties": {"@spider": "usps_collection_boxes", "addr:city": "BENA", "addr:country": "US", "addr:full": "38 COUNTY ROAD 8", "addr:postcode": "56626", "addr:state": "MN", "brand": "USPS", "brand:wikidata": "Q668687", "collection_times": "Mo-Fr 12:00; Sa 08:30", "name": "USPS COLLECTION BOX - PO LOBBY", "ref": "5662600002"}, "type": "Feature"}
{"geometry": {"coordinates": [-93.804403835, 48.19103947], "type": "Point"}, "id": "4qoE2r2S7tKV2s5d15k3ta-RoA8=", "properties": {"@spider": "usps_collection_boxes", "addr:city": "BIG FALLS", "addr:country": "US", "addr:full": "305 2ND ST NW", "addr:postcode": "56627", "addr:state": "MN", "brand": "USPS", "brand:wikidata": "Q668687", "collection_times": "Mo-Sa 16:00", "name": "USPS COLLECTION BOX - BLUE BOX", "note": "ON 12/24 AND 12/31, THIS BOX MAY BE COLLECTED AS EARLY AS 12 NOON.", "ref": "5662700000"}, "type": "Feature"}
{"geometry": {"coordinates": [-93.804403835, 48.19103947], "type": "Point"}, "id": "2XXkU1dacTBRPPsfa4cRII9antc=", "properties": {"@spider": "usps_collection_boxes", "addr:city": "BIG FALLS", "addr:country": "US", "addr:full": "305 2ND ST NW", "addr:postcode": "56627", "addr:state": "MN", "brand": "USPS", "brand:wikidata": "Q668687", "collection_times": "Mo-Fr 16:00; Sa 10:00", "name": "USPS COLLECTION BOX - PO LOBBY", "note": "ON 12/24 AND 12/31, THIS BOX MAY BE COLLECTED AS EARLY AS 12 NOON.", "ref": "5662700001"}, "type": "Feature"}
{"geometry": {"coordinates": [-93.804383886, 48.19103947], "type": "Point"}, "id": "_KuTDyIqREXTGsdTB4WaMe71XxA=", "properties": {"@spider": "usps_collection_boxes", "addr:city": "BIG FALLS", "addr:country": "US", "addr:full": "305 2ND ST NW", "addr:postcode": "56627", "addr:state": "MN", "brand": "USPS", "brand:wikidata": "Q668687", "collection_times": "Mo-Fr 16:00; Sa 10:00", "name": "USPS COLLECTION BOX - PO LOBBY", "note": "ON 12/24 AND 12/31, THIS BOX MAY BE COLLECTED AS EARLY AS 12 NOON.", "ref": "5662700002"}, "type": "Feature"}
{"geometry": {"coordinates": [-93.653290058, 47.746438625], "type": "Point"}, "id": "oHeY-l_bWYCT76tqHqtYp0_tIlQ=", "properties": {"@spider": "usps_collection_boxes", "addr:city": "BIGFORK", "addr:country": "US", "addr:full": "305 MAIN AVE", "addr:postcode": "56628", "addr:state": "MN", "brand": "USPS", "brand:wikidata": "Q668687", "collection_times": "Mo-Fr 15:45; Sa 16:15", "name": "USPS COLLECTION BOX - BLUE BOX", "note": "ON 12/24 AND 12/31, THIS BOX MAY BE COLLECTED AS EARLY AS 12 NOON.", "ref": "5662800000"}, "type": "Feature"}
{"geometry": {"coordinates": [-93.65622864, 47.740971567], "type": "Point"}, "id": "Svk7uwcBY05IhlGru_HGUBV30as=", "properties": {"@spider": "usps_collection_boxes", "addr:city": "BIGFORK", "addr:country": "US", "addr:full": "101 STATE HIGHWAY 38 S", "addr:postcode": "56628", "addr:state": "MN", "brand": "USPS", "brand:wikidata": "Q668687", "collection_times": "Mo-Sa 15:30", "name": "USPS COLLECTION BOX - BLUE BOX", "note": "ON 12/24 AND 12/31, THIS BOX MAY BE COLLECTED AS EARLY AS 12 NOON.", "ref": "5662800001"}, "type": "Feature"}
{"geometry": {"coordinates": [-93.4591310161, 47.6272359898], "type": "Point"}, "id": "H7vWE6jEn0lbNtyQ7UPlgLNqYUA=", "properties": {"@spider": "usps_collection_boxes", "addr:city": "BIGFORK", "addr:country": "US", "addr:full": "51761 SCENIC HWY #7", "addr:postcode": "56628", "addr:state": "MN", "brand": "USPS", "brand:wikidata": "Q668687", "collection_times": "Mo-Sa 10:30", "name": "USPS COLLECTION BOX - BLUE BOX", "ref": "5662800002"}, "type": "Feature"}
{"geometry": {"coordinates": [-93.653290058, 47.746438625], "type": "Point"}, "id": "H_aT7APIrnNYe34WetgBVGbnH5E=", "properties": {"@spider": "usps_collection_boxes", "addr:city": "BIGFORK", "addr:country": "US", "addr:full": "305 MAIN AVE", "addr:postcode": "56628", "addr:state": "MN", "brand": "USPS", "brand:wikidata": "Q668687", "collection_times": "Mo-Fr 16:00", "name": "USPS COLLECTION BOX - PO LOBBY", "note": "ON 12/24 AND 12/31, THIS BOX MAY BE COLLECTED AS EARLY AS 12 NOON.", "ref": "5662800003"}, "type": "Feature"}
{"geometry": {"coordinates": [-93.653290058, 47.746438625], "type": "Point"}, "id": "dgYhhunEAvz0YTfm6c14KCySiBw=", "properties": {"@spider": "usps_collection_boxes", "addr:city": "BIGFORK", "addr:country": "US", "addr:full": "305 MAIN ST", "addr:postcode": "56628", "addr:state": "MN", "brand": "USPS", "brand:wikidata": "Q668687", "collection_times": "Mo-Fr 16:00", "name": "USPS COLLECTION BOX - PO LOBBY", "note": "ON 12/24 AND 12/31, THIS BOX MAY BE COLLECTED AS EARLY AS 12 NOON.", "ref": "5662800005"}, "type": "Feature"}
{"geometry": {"coordinates": [-94.104314026, 48.626920481], "type": "Point"}, "id": "oskXOEsQSFEVRpVAzGt_LxcenCA=", "properties": {"@spider": "usps_collection_boxes", "addr:city": "BIRCHDALE", "addr:country": "US", "addr:full": "10424 HIGHWAY 11", "addr:postcode": "56629", "addr:state": "MN", "brand": "USPS", "brand:wikidata": "Q668687", "collection_times": "Mo-Sa 13:00", "name": "USPS COLLECTION BOX - BLUE BOX", "note": "ON 12/24 AND 12/31, THIS BOX MAY BE COLLECTED AS EARLY AS 12 NOON.", "ref": "5662900000"}, "type": "Feature"}
{"geometry": {"coordinates": [-94.104314026, 48.626920481], "type": "Point"}, "id": "ZdzJhHjEauT52VAcTw9GnNACcZ8=", "properties": {"@spider": "usps_collection_boxes", "addr:city": "BIRCHDALE", "addr:country": "US", "addr:full": "10424 HIGHWAY 11", "addr:postcode": "56629", "addr:state": "MN", "brand": "USPS", "brand:wikidata": "Q668687", "collection_times": "Mo-Sa 13:30", "name": "USPS COLLECTION BOX - PO LOBBY", "note": "ON 12/24 AND 12/31, THIS BOX MAY BE COLLECTED AS EARLY AS 12 NOON.", "ref": "5662900001"}, "type": "Feature"}
{"geometry": {"coordinates": [-94.104314026, 48.626920481], "type": "Point"}, "id": "ne3e-2To8V2ex75wUcLe1WiFYds=", "properties": {"@spider": "usps_collection_boxes", "addr:city": "BIRCHDALE", "addr:country": "US", "addr:full": "10424 HIGHWAY 11", "addr:postcode": "56629", "addr:state": "MN", "brand": "USPS", "brand:wikidata": "Q668687", "collection_times": "Mo-Sa 13:30", "name": "USPS COLLECTION BOX - PO LOBBY", "note": "ON 12/24 AND 12/31, THIS BOX MAY BE COLLECTED AS EARLY AS 12 NOON.", "ref": "5662900002"}, "type": "Feature"}
{"geometry": {"coordinates": [-94.546891357, 47.72916], "type": "Point"}, "id": "axD_XLdb0OV-wYu_fKq_xauBbuk=", "properties": {"@spider": "usps_collection_boxes", "addr:city": "BLACKDUCK", "addr:country": "US", "addr:full": "57 1ST ST SE", "addr:postcode": "56630", "addr:state": "MN", "brand": "USPS", "brand:wikidata": "Q668687", "collection_times": "Mo-Fr 16:00; Sa 17:00", "name": "USPS COLLECTION BOX - BLUE BOX", "note": "ON 12/24 AND 12/31, THIS BOX MAY BE COLLECTED AS EARLY AS 12 NOON.", "ref": "5663000000"}, "type": "Feature"}
{"geometry": {"coordinates": [-94.546891357, 47.72916], "type": "Point"}, "id": "Iu9yxr349s1P45keeeMWA9EcW8o=", "properties": {"@spider": "usps_collection_boxes", "addr:city": "BLACKDUCK", "addr:country": "US", "addr:full": "57 1ST ST SE", "addr:postcode": "56630", "addr:state": "MN", "brand": "USPS", "brand:wikidata": "Q668687", "collection_times": "Mo-Fr 16:00", "name": "USPS COLLECTION BOX - PO LOBBY", "note": "ON 12/24 AND 12/31, THIS BOX MAY BE COLLECTED AS EARLY AS 12 NOON.", "ref": "5663000001"}, "type": "Feature"}
{"geometry": {"coordinates": [-94.479630114, 47.493212647], "type": "Point"}, "id": "MloqefeShiBo-iMDE7iV4N6sTv4=", "properties": {"@spider": "usps_collection_boxes", "addr:city": "BLACKDUCK", "addr:country": "US", "addr:full": "3070 SCENIC HWY NE", "addr:postcode": "56630", "addr:state": "MN", "brand": "USPS", "brand:wikidata": "Q668687", "collection_times": "Mo-Sa 10:00", "name": "USPS COLLECTION BOX - BLUE BOX", "ref": "5663000002"}, "type": "Feature"}
{"geometry": {"coordinates": [-94.546891357, 47.72916], "type": "Point"}, "id": "x4T8_wFCvhtP7L8aXFkx6-WhBS8=", "properties": {"@spider": "usps_collection_boxes", "addr:city": "BLACKDUCK", "addr:country": "US", "addr:full": "57 1ST ST SE", "addr:postcode": "56630", "addr:state": "MN", "brand": "USPS", "brand:wikidata": "Q668687", "collection_times": "Mo-Fr 16:00", "name": "USPS COLLECTION BOX - PO LOBBY", "note": "ON 12/24 AND 12/31, THIS BOX MAY BE COLLECTED AS EARLY AS 12 NOON.", "ref": "5663000003"}, "type": "Feature"}
{"geometry": {"coordinates": [-94.546891357, 47.72916], "type": "Point"}, "id": "yfjYJVRFNXjhNgjuJ48VcjdPJwE=", "properties": {"@spider": "usps_collection_boxes", "addr:city": "BLACKDUCK", "addr:country": "US", "addr:full": "57 1ST ST SE", "addr:postcode": "56630", "addr:state": "MN", "brand": "USPS", "brand:wikidata": "Q668687", "collection_times": "Mo-Fr 16:00", "name": "USPS COLLECTION BOX - PO LOBBY", "note": "ON 12/24 AND 12/31, THIS BOX MAY BE COLLECTED AS EARLY AS 12 NOON.", "ref": "5663000005"}, "type": "Feature"}
{"geometry": {"coordinates": [-94.60845, 47.379212529], "type": "Point"}, "id": "Cimu29OSHz7eGhHWQuBPDJVt5o0=", "properties": {"@spider": "usps_collection_boxes", "addr:city": "CASS LAKE", "addr:country": "US", "addr:full": "322 2ND ST", "addr:postcode": "56633", "addr:state": "MN", "brand": "USPS", "brand:wikidata": "Q668687", "collection_times": "Mo-Sa 16:30", "name": "USPS COLLECTION BOX - BLUE BOX", "note": "ON 12/24 AND 12/31, THIS BOX MAY BE COLLECTED AS EARLY AS 12 NOON.", "ref": "5663300000"}, "type": "Feature"}
{"geometry": {"coordinates": [-94.60845, 47.379212529], "type": "Point"}, "id": "hs_deqdDgOyfmQmQU24CS8b8SsQ=", "properties": {"@spider": "usps_collection_boxes", "addr:city": "CASS LAKE", "addr:country": "US", "addr:full": "322 2ND ST", "addr:postcode": "56633", "addr:state": "MN", "brand": "USPS", "brand:wikidata": "Q668687", "collection_times": "Mo-Fr 16:30; Sa 11:00", "name": "USPS COLLECTION BOX - PO LOBBY", "note": "ON 12/24 AND 12/31, THIS BOX MAY BE COLLECTED AS EARLY AS 12 NOON.", "ref": "5663300001"}, "type": "Feature"}
{"geometry": {"coordinates": [-94.60845, 47.379212529], "type": "Point"}, "id": "s6Ocf7dEUFcx2hyftKqH5auXuis=", "properties": {"@spider": "usps_collection_boxes", "addr:city": "CASS LAKE", "addr:country": "US", "addr:full": "322 2ND ST", "addr:postcode": "56633", "addr:state": "MN", "brand": "USPS", "brand:wikidata": "Q668687", "collection_times": "Mo-Fr 16:30; Sa 11:00", "name": "USPS COLLECTION BOX - PO LOBBY", "note": "ON 12/24 AND 12/31, THIS BOX MAY BE COLLECTED AS EARLY AS 12 NOON.", "ref": "5663300002"}, "type": "Feature"}
{"geometry": {"coordinates": [-94.598241189, 47.379142164], "type": "Point"}, "id": "WIppUZdUj8k9mjNPrn0RX7I0wAs=", "properties": {"@spider": "usps_collection_boxes", "addr:city": "CASS LAKE", "addr:country": "US", "addr:full": "322 2ND ST NE", "addr:postcode": "56633", "addr:state": "MN", "brand": "USPS", "brand:wikidata": "Q668687", "collection_times": "Mo-Fr 16:30; Sa 11:00", "name": "USPS COLLECTION BOX - PO LOBBY", "note": "ON 12/24 AND 12/31, THIS BOX MAY BE COLLECTED AS EARLY AS 12 NOON.", "ref": "5663300003"}, "type": "Feature"}
{"geometry": {"coordinates": [-95.427902161, 47.693296635], "type": "Point"}, "id": "nUIvw-WK2YKbrN-C1wCjNs-zo6A=", "properties": {"@spider": "usps_collection_boxes", "addr:city": "LEONARD", "addr:country": "US", "addr:full": "117 MAIN ST S", "addr:postcode": "56634", "addr:state": "MN", "brand": "USPS", "brand:wikidata": "Q668687", "collection_times": "Mo-Fr 16:00; Sa 16:30", "name": "USPS COLLECTION BOX - BLUE BOX", "note": "ON 12/24 AND 12/31, THIS BOX MAY BE COLLECTED AS EARLY AS 12 NOON.", "ref": "5663400000"}, "type": "Feature"}
{"geometry": {"coordinates": [-95.273003679, 47.653343298], "type": "Point"}, "id": "GRlqDI4lPaFD_ucP7lxgG2BFqRg=", "properties": {"@spider": "usps_collection_boxes", "addr:city": "LEONARD", "addr:country": "US", "addr:full": "24624 LEONARD RD", "addr:postcode": "56634", "addr:state": "MN", "brand": "USPS", "brand:wikidata": "Q668687", "collection_times": "Mo-Sa 16:00", "name": "USPS COLLECTION BOX - BLUE BOX", "note": "ON 12/24 AND 12/31, THIS BOX MAY BE COLLECTED AS EARLY AS 12 NOON.", "ref": "5663400001"}, "type": "Feature"}
{"geometry": {"coordinates": [-95.427902161, 47.693296635], "type": "Point"}, "id": "nZUjELOp-oGgswKLpGPT4S8z1h8=", "properties": {"@spider": "usps_collection_boxes", "addr:city": "LEONARD", "addr:country": "US", "addr:full": "117 MAIN ST S", "addr:postcode": "56634", "addr:state": "MN", "brand": "USPS", "brand:wikidata": "Q668687", "collection_times": "Mo-Fr 16:00; Sa 09:00", "name": "USPS COLLECTION BOX - PO LOBBY", "note": "ON 12/24 AND 12/31, THIS BOX MAY BE COLLECTED AS EARLY AS 12 NOON.", "ref": "5663400002"}, "type": "Feature"}
{"geometry": {"coordinates": [-95.427902161, 47.693296635], "type": "Point"}, "id": "3xTfV1G45_hzT_XPV2tXO4HcPqY=", "properties": {"@spider": "usps_collection_boxes", "addr:city": "LEONARD", "addr:country": "US", "addr:full": "117 MAIN ST S", "addr:postcode": "56634", "addr:state": "MN", "brand": "USPS", "brand:wikidata": "Q668687", "collection_times": "Mo-Fr 16:00", "name": "USPS COLLECTION BOX - PO LOBBY", "note": "ON 12/24 AND 12/31, THIS BOX MAY BE COLLECTED AS EARLY AS 12 NOON.", "ref": "5663400003"}, "type": "Feature"}
{"geometry": {"coordinates": [-93.794053416, 47.333727547], "type": "Point"}, "id": "Smh6SCKg4VRWWGtTI4PsO2O4WgE=", "properties": {"@spider": "usps_collection_boxes", "addr:city": "DEER RIVER", "addr:country": "US", "addr:full": "12 1ST AVE NE", "addr:postcode": "56636", "addr:state": "MN", "brand": "USPS", "brand:wikidata": "Q668687", "collection_times": "Mo-Fr 16:15; Sa 16:30", "name": "USPS COLLECTION BOX - BLUE BOX", "note": "ON 12/24 AND 12/31, THIS BOX MAY BE COLLECTED AS EARLY AS 12 NOON.", "ref": "5663600000"}, "type": "Feature"}
{"geometry": {"coordinates": [-93.794053416, 47.333727547], "type": "Point"}, "id": "jYwSZ2Vt1w1y_7BePZU2Elk2f2Y=", "properties": {"@spider": "usps_collection_boxes", "addr:city": "DEER RIVER", "addr:country": "US", "addr:full": "12 1ST AVE NE", "addr:postcode": "56636", "addr:state": "MN", "brand": "USPS", "brand:wikidata": "Q668687", "collection_times": "Mo-Fr 16:15; Sa 16:30", "name": "USPS COLLECTION BOX - BLUE BOX", "note": "ON 12/24 AND 12/31, THIS BOX MAY BE COLLECTED AS EARLY AS 12 NOON.", "ref": "5663600003"}, "type": "Feature"}
{"geometry": {"coordinates": [-94.217413028, 47.247010457], "type": "Point"}, "id": "_3_xqLRDcLjkJjCu_Ah56KGXqQo=", "properties": {"@spider": "usps_collection_boxes", "addr:city": "FEDERAL DAM", "addr:country": "US", "addr:full": "12 1ST AVE E", "addr:postcode": "56641", "addr:state": "MN", "brand": "USPS", "brand:wikidata": "Q668687", "collection_times": "Mo-Fr 16:15; Sa 15:30", "name": "USPS COLLECTION BOX - BLUE BOX", "note": "ON 12/24 AND 12/31, THIS BOX MAY BE COLLECTED AS EARLY AS 12 NOON.", "ref": "5664100001"}, "type": "Feature"}
{"geometry": {"coordinates": [-95.513274168, 47.737547453], "type": "Point"}, "id": "Fhi02p2iycVGA5BNtIpRHO_1zCE=", "properties": {"@spider": "usps_collection_boxes", "addr:city": "GONVICK", "addr:country": "US", "addr:full": "233 2ND AVE", "addr:postcode": "56644", "addr:state": "MN", "brand": "USPS", "brand:wikidata": "Q668687", "collection_times": "Mo-Sa 16:00", "name": "USPS COLLECTION BOX - BLUE BOX", "note": "ON 12/24 AND 12/31, THIS BOX MAY BE COLLECTED AS EARLY AS 12 NOON.", "ref": "5664400000"}, "type": "Feature"}
{"geometry": {"coordinates": [-95.513274168, 47.737547453], "type": "Point"}, "id": "6GhtSIWmZfSyPfjxaEOS-GbgkBs=", "properties": {"@spider": "usps_collection_boxes", "addr:city": "GONVICK", "addr:country": "US", "addr:full": "233 2ND AVE", "addr:postcode": "56644", "addr:state": "MN", "brand": "USPS", "brand:wikidata": "Q668687", "collection_times": "Mo-Fr 16:00", "name": "USPS COLLECTION BOX - PO LOBBY", "note": "ON 12/24 AND 12/31, THIS BOX MAY BE COLLECTED AS EARLY AS 12 NOON.", "ref": "5664400001"}, "type": "Feature"}
{"geometry": {"coordinates": [-95.513274168, 47.737547453], "type": "Point"}, "id": "EHELUum5zuo2C6rWhQmjmcsTU9w=", "properties": {"@spider": "usps_collection_boxes", "addr:city": "GONVICK", "addr:country": "US", "addr:full": "233 2ND AVE", "addr:postcode": "56644", "addr:state": "MN", "brand": "USPS", "brand:wikidata": "Q668687", "collection_times": "Mo-Fr 16:00; Sa 09:45", "name": "USPS COLLECTION BOX - PO LOBBY", "note": "ON 12/24 AND 12/31, THIS BOX MAY BE COLLECTED AS EARLY AS 12 NOON.", "ref": "5664400003"}, "type": "Feature"}
{"geometry": {"coordinates": [-95.622936241, 47.76644316], "type": "Point"}, "id": "DbDcUqtZ_-uGJkV8lQjAo3oVCHU=", "properties": {"@spider": "usps_collection_boxes", "addr:city": "GULLY", "addr:country": "US", "addr:full": "301 S MAIN ST", "addr:postcode": "56646", "addr:state": "MN", "brand": "USPS", "brand:wikidata": "Q668687", "collection_times": "Mo-Sa 15:45", "name": "USPS COLLECTION BOX - BLUE BOX", "note": "ON 12/24 AND 12/31, THIS BOX MAY BE COLLECTED AS EARLY AS 12 NOON.", "ref": "5664600000"}, "type": "Feature"}
{"geometry": {"coordinates": [-95.622936241, 47.76644316], "type": "Point"}, "id": "rAxXw7iR5EYrAFnOrC12yFTrHgo=", "properties": {"@spider": "usps_collection_boxes", "addr:city": "GULLY", "addr:country": "US", "addr:full": "301 S MAIN ST", "addr:postcode": "56646", "addr:state": "MN", "brand": "USPS", "brand:wikidata": "Q668687", "collection_times": "Mo-Fr 13:00; Sa 11:00", "name": "USPS COLLECTION BOX - PO LOBBY", "note": "ON 12/24 AND 12/31, THIS BOX MAY BE COLLECTED AS EARLY AS 12 NOON.", "ref": "5664600001"}, "type": "Feature"}
{"geometry": {"coordinates": [-95.622936241, 47.76644316], "type": "Point"}, "id": "VNSi8KmL21SadE_O-pkR6FqD5Qg=", "properties": {"@spider": "usps_collection_boxes", "addr:city": "GULLY", "addr:country": "US", "addr:full": "301 S MAIN ST", "addr:postcode": "56646", "addr:state": "MN", "brand": "USPS", "brand:wikidata": "Q668687", "collection_times": "Mo-Fr 13:00; Sa 11:00", "name": "USPS COLLECTION BOX - PO LOBBY", "note": "ON 12/24 AND 12/31, THIS BOX MAY BE COLLECTED AS EARLY AS 12 NOON.", "ref": "5664600002"}, "type": "Feature"}
{"geometry": {"coordinates": [-94.632874805, 47.686921994], "type": "Point"}, "id": "v3cgIIiH81Ix43Vs2wsmucCzj0A=", "properties": {"@spider": "usps_collection_boxes", "addr:city": "HINES", "addr:country": "US", "addr:full": "22061 HINES RD NE", "addr:postcode": "56647", "addr:state": "MN", "brand": "USPS", "brand:wikidata": "Q668687", "collection_times": "Mo-Fr 15:30; Sa 16:15", "name": "USPS COLLECTION BOX - BLUE BOX", "note": "ON 12/24 AND 12/31, THIS BOX MAY BE COLLECTED AS EARLY AS 12 NOON.", "ref": "5664700000"}, "type": "Feature"}
{"geometry": {"coordinates": [-94.632874805, 47.686921994], "type": "Point"}, "id": "PtLWFpKoXeM50KAI_RFVmBGYE4U=", "properties": {"@spider": "usps_collection_boxes", "addr:city": "HINES", "addr:country": "US", "addr:full": "22061 HINES RD NE", "addr:postcode": "56647", "addr:state": "MN", "brand": "USPS", "brand:wikidata": "Q668687", "collection_times": "Mo-Sa 10:00", "name": "USPS COLLECTION BOX - PO LOBBY", "ref": "5664700001"}, "type": "Feature"}
{"geometry": {"coordinates": [-94.632874805, 47.686921994], "type": "Point"}, "id": "NvO-8KWyI2wvkwBIvfcxzGzFpzc=", "properties": {"@spider": "usps_collection_boxes", "addr:city": "HINES", "addr:country": "US", "addr:full": "22061 HINES RD NE", "addr:postcode": "56647", "addr:state": "MN", "brand": "USPS", "brand:wikidata": "Q668687", "collection_times": "Mo-Sa 10:00", "name": "USPS COLLECTION BOX - PO LOBBY", "ref": "5664700002"}, "type": "Feature"}
{"geometry": {"coordinates": [-93.401952856, 48.603731533], "type": "Point"}, "id": "kKbXstIHh_opER3tvHag4FuP1R0=", "properties": {"@spider": "usps_collection_boxes", "addr:city": "INTL FALLS", "addr:country": "US", "addr:full": "400 2ND ST", "addr:postcode": "56649", "addr:state": "MN", "brand": "USPS", "brand:wikidata": "Q668687", "collection_times": "Mo-Sa 09:15", "name": "USPS COLLECTION BOX - BLUE BOX", "ref": "5664900001"}, "type": "Feature"}
{"geometry": {"coordinates": [-93.445437064, 48.589484497], "type": "Point"}, "id": "2RAIEOxQ3JiMHtpX89jgMfigkxo=", "properties": {"@spider": "usps_collection_boxes", "addr:city": "INTL FALLS", "addr:country": "US", "addr:full": "1641 20TH AVE", "addr:postcode": "56649", "addr:state": "MN", "brand": "USPS", "brand:wikidata": "Q668687", "collection_times": "Mo-Sa 13:00", "name": "USPS COLLECTION BOX - BLUE BOX", "note": "ON 12/24 AND 12/31, THIS BOX MAY BE COLLECTED AS EARLY AS 12 NOON.", "ref": "5664900006"}, "type": "Feature"}
{"geometry": {"coordinates": [-93.434226818, 48.587418998], "type": "Point"}, "id": "8EgVn_yhaeSyOu4leeQUDR1eAgk=", "properties": {"@spider": "usps_collection_boxes", "addr:city": "INTL FALLS", "addr:country": "US", "addr:full": "2201 KEENAN DR", "addr:postcode": "56649", "addr:state": "MN", "brand": "USPS", "brand:wikidata": "Q668687", "collection_times": "Mo-Sa 11:00", "name": "USPS COLLECTION BOX - BLUE BOX", "ref": "5664900007"}, "type": "Feature"}
{"geometry": {"coordinates": [-93.440953544, 48.588993758], "type": "Point"}, "id": "1SKv3iekX-tzTW8l-9xooajXtHo=", "properties": {"@spider": "usps_collection_boxes", "addr:city": "INTL FALLS", "addr:country": "US", "addr:full": "1907 VALLEY PINE CIR", "addr:postcode": "56649", "addr:state": "MN", "brand": "USPS", "brand:wikidata": "Q668687", "collection_times": "Mo-Sa 11:00", "name": "USPS COLLECTION BOX - BLUE BOX", "ref": "5664900009"}, "type": "Feature"}
{"geometry": {"coordinates": [-93.39810356, 48.586828196], "type": "Point"}, "id": "6PyQbE7PsREEo_ODMBMj694fm0I=", "properties": {"@spider": "usps_collection_boxes", "addr:city": "INTL FALLS", "addr:country": "US", "addr:full": "1802 1ST AVE E", "addr:postcode": "56649", "addr:state": "MN", "brand": "USPS", "brand:wikidata": "Q668687", "collection_times": "Mo-Sa 15:00", "name": "USPS COLLECTION BOX - BLUE BOX", "note": "ON 12/24 AND 12/31, THIS BOX MAY BE COLLECTED AS EARLY AS 12 NOON.", "ref": "5664900010"}, "type": "Feature"}
{"geometry": {"coordinates": [-93.405712332, 48.601691453], "type": "Point"}, "id": "7LoUH2irNCB8VORKSEmvaldAXmU=", "properties": {"@spider": "usps_collection_boxes", "addr:city": "INTL FALLS", "addr:country": "US", "addr:full": "400 4TH ST", "addr:postcode": "56649", "addr:state": "MN", "brand": "USPS", "brand:wikidata": "Q668687", "collection_times": "Mo-Fr 16:00; Sa 15:30", "name": "USPS COLLECTION BOX - BLUE BOX", "note": "ON 12/24 AND 12/31, THIS BOX MAY BE COLLECTED AS EARLY AS 12 NOON.", "ref": "5664900014"}, "type": "Feature"}
{"geometry": {"coordinates": [-93.405712332, 48.601691453], "type": "Point"}, "id": "rYJFWqkc2QyXAllMd1RDStvc8Rk=", "properties": {"@spider": "usps_collection_boxes", "addr:city": "INTL FALLS", "addr:country": "US", "addr:full": "400 4TH ST", "addr:postcode": "56649", "addr:state": "MN", "brand": "USPS", "brand:wikidata": "Q668687", "collection_times": "Mo-Fr 16:00; Sa 15:30", "name": "USPS COLLECTION BOX - BLUE BOX", "note": "ON 12/24 AND 12/31, THIS BOX MAY BE COLLECTED AS EARLY AS 12 NOON.", "ref": "5664900015"}, "type": "Feature"}
{"geometry": {"coordinates": [-93.418356832, 48.602427527], "type": "Point"}, "id": "x6775UJKF1eG43wSPuAqKqRS9BE=", "properties": {"@spider": "usps_collection_boxes", "addr:city": "INTL FALLS", "addr:country": "US", "addr:full": "1200 RIVERSIDE DR", "addr:postcode": "56649", "addr:state": "MN", "brand": "USPS", "brand:wikidata": "Q668687", "collection_times": "Mo-Sa 11:00", "name": "USPS COLLECTION BOX - BLUE BOX", "ref": "5664900018"}, "type": "Feature"}
{"geometry": {"coordinates": [-93.405712332, 48.601691453], "type": "Point"}, "id": "AnWrMrCjgnh97nx8dlSlwaIoXlk=", "properties": {"@spider": "usps_collection_boxes", "addr:city": "INTL FALLS", "addr:country": "US", "addr:full": "400 4TH ST", "addr:postcode": "56649", "addr:state": "MN", "brand": "USPS", "brand:wikidata": "Q668687", "collection_times": "Mo-Fr 16:00; Sa 15:30", "name": "USPS COLLECTION BOX - PO LOBBY", "note": "ON 12/24 AND 12/31, THIS BOX MAY BE COLLECTED AS EARLY AS 12 NOON.", "ref": "5664900020"}, "type": "Feature"}
{"geometry": {"coordinates": [-93.399312186, 48.586827643], "type": "Point"}, "id": "5nZl-d8K0ycA7s4LIwAlGUlotMY=", "properties": {"@spider": "usps_collection_boxes", "addr:city": "INTL FALLS", "addr:country": "US", "addr:full": "15 18TH ST E", "addr:postcode": "56649", "addr:state": "MN", "brand": "USPS", "brand:wikidata": "Q668687", "collection_times": "Mo-Sa 12:30", "name": "USPS COLLECTION BOX - PO LOBBY", "note": "ON 12/24 AND 12/31, THIS BOX MAY BE COLLECTED AS EARLY AS 12 NOON.", "ref": "5664900021"}, "type": "Feature"}
{"geometry": {"coordinates": [-93.405712332, 48.601691453], "type": "Point"}, "id": "n4KtioaCv6rl1pXV0ZiIhCPj9aE=", "properties": {"@spider": "usps_collection_boxes", "addr:city": "INTL FALLS", "addr:country": "US", "addr:full": "400 4TH ST", "addr:postcode": "56649", "addr:state": "MN", "brand": "USPS", "brand:wikidata": "Q668687", "collection_times": "Mo-Fr 16:15; Sa 13:00", "name": "USPS COLLECTION BOX - PO LOBBY", "note": "ON 12/24 AND 12/31, THIS BOX MAY BE COLLECTED AS EARLY AS 12 NOON.", "ref": "5664900023"}, "type": "Feature"}
{"geometry": {"coordinates": [-94.447610832, 47.941784529], "type": "Point"}, "id": "N22fBBsTiW5wn-bvzNN3UjUMmqs=", "properties": {"@spider": "usps_collection_boxes", "addr:city": "KELLIHER", "addr:country": "US", "addr:full": "162 E MAIN ST", "addr:postcode": "56650", "addr:state": "MN", "brand": "USPS", "brand:wikidata": "Q668687", "collection_times": "Mo-Fr 16:45; Sa 17:45", "name": "USPS COLLECTION BOX - BLUE BOX", "note": "ON 12/24 AND 12/31, THIS BOX MAY BE COLLECTED AS EARLY AS 12 NOON.", "ref": "5665000000"}, "type": "Feature"}
{"geometry": {"coordinates": [-94.447610832, 47.941784529], "type": "Point"}, "id": "7ygAx9POMT-HBof1tq2dWcGgNpc=", "properties": {"@spider": "usps_collection_boxes", "addr:city": "KELLIHER", "addr:country": "US", "addr:full": "162 E MAIN ST", "addr:postcode": "56650", "addr:state": "MN", "brand": "USPS", "brand:wikidata": "Q668687", "collection_times": "Mo-Fr 15:00; Sa 09:00", "name": "USPS COLLECTION BOX - PO LOBBY", "note": "ON 12/24 AND 12/31, THIS BOX MAY BE COLLECTED AS EARLY AS 12 NOON.", "ref": "5665000002"}, "type": "Feature"}
{"geometry": {"coordinates": [-94.447610832, 47.941784529], "type": "Point"}, "id": "jLw84XawJWUhenICsmRuvuF3t6w=", "properties": {"@spider": "usps_collection_boxes", "addr:city": "KELLIHER", "addr:country": "US", "addr:full": "162 E MAIN ST", "addr:postcode": "56650", "addr:state": "MN", "brand": "USPS", "brand:wikidata": "Q668687", "collection_times": "Mo-Fr 15:00", "name": "USPS COLLECTION BOX - PO LOBBY", "note": "ON 12/24 AND 12/31, THIS BOX MAY BE COLLECTED AS EARLY AS 12 NOON.", "ref": "5665000003"}, "type": "Feature"}
{"geometry": {"coordinates": [-95.635684648, 47.515700002], "type": "Point"}, "id": "wCnySpXLv-qbncJG6swGGo18v6M=", "properties": {"@spider": "usps_collection_boxes", "addr:city": "LENGBY", "addr:country": "US", "addr:full": "102 MAIN AVE", "addr:postcode": "56651", "addr:state": "MN", "brand": "USPS", "brand:wikidata": "Q668687", "collection_times": "Mo-Sa 14:00", "name": "USPS COLLECTION BOX - BLUE BOX", "note": "ON 12/24 AND 12/31, THIS BOX MAY BE COLLECTED AS EARLY AS 12 NOON.", "ref": "5665100000"}, "type": "Feature"}
{"geometry": {"coordinates": [-95.635684648, 47.515700002], "type": "Point"}, "id": "lWTRNgSSAZrfyAyM53c8vFzSmTQ=", "properties": {"@spider": "usps_collection_boxes", "addr:city": "LENGBY", "addr:country": "US", "addr:full": "102 MAIN AVE", "addr:postcode": "56651", "addr:state": "MN", "brand": "USPS", "brand:wikidata": "Q668687", "collection_times": "Mo-Sa 10:30", "name": "USPS COLLECTION BOX - PO LOBBY", "ref": "5665100001"}, "type": "Feature"}
{"geometry": {"coordinates": [-95.635684648, 47.515700002], "type": "Point"}, "id": "NR2ZzynnzAgr5j7olgBcRyMilyc=", "properties": {"@spider": "usps_collection_boxes", "addr:city": "LENGBY", "addr:country": "US", "addr:full": "102 MAIN AVE", "addr:postcode": "56651", "addr:state": "MN", "brand": "USPS", "brand:wikidata": "Q668687", "collection_times": "Mo-Sa 10:30", "name": "USPS COLLECTION BOX - PO LOBBY", "ref": "5665100003"}, "type": "Feature"}
{"geometry": {"coordinates": [-93.558534307, 48.396256754], "type": "Point"}, "id": "Nw7xuIuPAvF-5zYW-r7G0ZU8CPY=", "properties": {"@spider": "usps_collection_boxes", "addr:city": "LITTLE FORK", "addr:country": "US", "addr:full": "716 3RD AVE", "addr:postcode": "56653", "addr:state": "MN", "brand": "USPS", "brand:wikidata": "Q668687", "collection_times": "Mo-Fr 16:00; Sa 15:30", "name": "USPS COLLECTION BOX - BLUE BOX", "note": "ON 12/24 AND 12/31, THIS BOX MAY BE COLLECTED AS EARLY AS 12 NOON.", "ref": "5665300000"}, "type": "Feature"}
{"geometry": {"coordinates": [-93.558534307, 48.396256754], "type": "Point"}, "id": "bQSyp0rXaw7rD_hgZxsrzoTad_A=", "properties": {"@spider": "usps_collection_boxes", "addr:city": "LITTLE FORK", "addr:country": "US", "addr:full": "716 3RD AVE", "addr:postcode": "56653", "addr:state": "MN", "brand": "USPS", "brand:wikidata": "Q668687", "collection_times": "Mo-Fr 16:00; Sa 10:30", "name": "USPS COLLECTION BOX - PO LOBBY", "note": "ON 12/24 AND 12/31, THIS BOX MAY BE COLLECTED AS EARLY AS 12 NOON.", "ref": "5665300001"}, "type": "Feature"}
{"geometry": {"coordinates": [-93.558534307, 48.396256754], "type": "Point"}, "id": "p2NBsfoOozJaZPSyPUcLGCNw1L8=", "properties": {"@spider": "usps_collection_boxes", "addr:city": "LITTLE FORK", "addr:country": "US", "addr:full": "716 3RD AVE", "addr:postcode": "56653", "addr:state": "MN", "brand": "USPS", "brand:wikidata": "Q668687", "collection_times": "Mo-Fr 16:00; Sa 10:30", "name": "USPS COLLECTION BOX - PO LOBBY", "note": "ON 12/24 AND 12/31, THIS BOX MAY BE COLLECTED AS EARLY AS 12 NOON.", "ref": "5665300002"}, "type": "Feature"}
{"geometry": {"coordinates": [-93.813686874, 48.517424029], "type": "Point"}, "id": "Q6pTFQaARheVb7Z3uuFZVVSyahs=", "properties": {"@spider": "usps_collection_boxes", "addr:city": "LOMAN", "addr:country": "US", "addr:full": "7678 HIGHWAY 11", "addr:postcode": "56654", "addr:state": "MN", "brand": "USPS", "brand:wikidata": "Q668687", "collection_times": "Mo-Fr 13:15; Sa 12:45", "name": "USPS COLLECTION BOX - BLUE BOX", "note": "ON 12/24 AND 12/31, THIS BOX MAY BE COLLECTED AS EARLY AS 12 NOON.", "ref": "5665400000"}, "type": "Feature"}
{"geometry": {"coordinates": [-93.813686874, 48.517424029], "type": "Point"}, "id": "8SqfjHVtXD1NzjFPvK6q07PzhNA=", "properties": {"@spider": "usps_collection_boxes", "addr:city": "LOMAN", "addr:country": "US", "addr:full": "7678 HIGHWAY 11", "addr:postcode": "56654", "addr:state": "MN", "brand": "USPS", "brand:wikidata": "Q668687", "collection_times": "Mo-Fr 13:15; Sa 12:45", "name": "USPS COLLECTION BOX - PO LOBBY", "note": "ON 12/24 AND 12/31, THIS BOX MAY BE COLLECTED AS EARLY AS 12 NOON.", "ref": "5665400001"}, "type": "Feature"}
{"geometry": {"coordinates": [-93.813686874, 48.517424029], "type": "Point"}, "id": "E64UCrIHp_GA5RSzowBZcjysGK0=", "properties": {"@spider": "usps_collection_boxes", "addr:city": "LOMAN", "addr:country": "US", "addr:full": "7678 HIGHWAY 11", "addr:postcode": "56654", "addr:state": "MN", "brand": "USPS", "brand:wikidata": "Q668687", "collection_times": "Mo-Sa 14:00", "name": "USPS COLLECTION BOX - PO LOBBY", "note": "ON 12/24 AND 12/31, THIS BOX MAY BE COLLECTED AS EARLY AS 12 NOON.", "ref": "5665400002"}, "type": "Feature"}
{"geometry": {"coordinates": [-94.2122015, 46.986415479], "type": "Point"}, "id": "BE32ZZRtxcYnmu8nxi8iJ5LuO2s=", "properties": {"@spider": "usps_collection_boxes", "addr:city": "LONGVILLE", "addr:country": "US", "addr:full": "1462 COUNTY ROAD 5", "addr:postcode": "56655", "addr:state": "MN", "brand": "USPS", "brand:wikidata": "Q668687", "collection_times": "Mo-Sa 16:30", "name": "USPS COLLECTION BOX - BLUE BOX", "note": "ON 12/24 AND 12/31, THIS BOX MAY BE COLLECTED AS EARLY AS 12 NOON.", "ref": "5665500000"}, "type": "Feature"}
{"geometry": {"coordinates": [-94.2122015, 46.986415479], "type": "Point"}, "id": "P9dsO_WgW_ALR2LjifeB0KK_jso=", "properties": {"@spider": "usps_collection_boxes", "addr:city": "LONGVILLE", "addr:country": "US", "addr:full": "1462 COUNTY ROAD 5", "addr:postcode": "56655", "addr:state": "MN", "brand": "USPS", "brand:wikidata": "Q668687", "collection_times": "Mo-Fr 16:30", "name": "USPS COLLECTION BOX - PO LOBBY", "note": "ON 12/24 AND 12/31, THIS BOX MAY BE COLLECTED AS EARLY AS 12 NOON.", "ref": "5665500002"}, "type": "Feature"}
{"geometry": {"coordinates": [-94.2122015, 46.986415479], "type": "Point"}, "id": "QK4bPE_J8H0xnf8Tc1R1bPXe6eg=", "properties": {"@spider": "usps_collection_boxes", "addr:city": "LONGVILLE", "addr:country": "US", "addr:full": "1462 COUNTY ROAD 5", "addr:postcode": "56655", "addr:state": "MN", "brand": "USPS", "brand:wikidata": "Q668687", "collection_times": "Mo-Fr 16:30; Sa 10:30", "name": "USPS COLLECTION BOX - PO LOBBY", "note": "ON 12/24 AND 12/31, THIS BOX MAY BE COLLECTED AS EARLY AS 12 NOON.", "ref": "5665500003"}, "type": "Feature"}
{"geometry": {"coordinates": [-93.69296714, 47.593332406], "type": "Point"}, "id": "CAQqEjIz4pPYbb5v5ZZbLbF3Q5w=", "properties": {"@spider": "usps_collection_boxes", "addr:city": "MARCELL", "addr:country": "US", "addr:full": "39370 STATE HIGHWAY 286", "addr:postcode": "56657", "addr:state": "MN", "brand": "USPS", "brand:wikidata": "Q668687", "collection_times": "Mo-Fr 16:00; Sa 16:30", "name": "USPS COLLECTION BOX - BLUE BOX", "note": "ON 12/24 AND 12/31, THIS BOX MAY BE COLLECTED AS EARLY AS 12 NOON.", "ref": "5665700000"}, "type": "Feature"}
{"geometry": {"coordinates": [-93.69296714, 47.593332406], "type": "Point"}, "id": "9pbVhetGCg46cOVUXXA6ZafQ4BE=", "properties": {"@spider": "usps_collection_boxes", "addr:city": "MARCELL", "addr:country": "US", "addr:full": "39370 STATE HIGHWAY 286", "addr:postcode": "56657", "addr:state": "MN", "brand": "USPS", "brand:wikidata": "Q668687", "collection_times": "Mo-Fr 16:00; Sa 09:30", "name": "USPS COLLECTION BOX - PO LOBBY", "note": "ON 12/24 AND 12/31, THIS BOX MAY BE COLLECTED AS EARLY AS 12 NOON.", "ref": "5665700001"}, "type": "Feature"}
{"geometry": {"coordinates": [-93.6772608, 47.5809707], "type": "Point"}, "id": "LmctG3eLWwEjqh04UMP1yp7totI=", "properties": {"@spider": "usps_collection_boxes", "addr:city": "MARCELL", "addr:country": "US", "addr:full": "50503 COUNTY RD 4 - MAX MN 56659", "addr:postcode": "56657", "addr:state": "MN", "brand": "USPS", "brand:wikidata": "Q668687", "collection_times": "Mo-Sa 10:00", "name": "USPS COLLECTION BOX - BLUE BOX", "ref": "5665700002"}, "type": "Feature"}
{"geometry": {"coordinates": [-93.6772608, 47.5809707], "type": "Point"}, "id": "G-Ko_J2pO99TXBsKirsyh6lTack=", "properties": {"@spider": "usps_collection_boxes", "addr:city": "MARCELL", "addr:country": "US", "addr:full": "59926 ST HWY 6 - TALMOON MN CPO 56", "addr:postcode": "56657", "addr:state": "MN", "brand": "USPS", "brand:wikidata": "Q668687", "collection_times": "Mo-Sa 13:15", "name": "USPS COLLECTION BOX - BLUE BOX", "note": "ON 12/24 AND 12/31, THIS BOX MAY BE COLLECTED AS EARLY AS 12 NOON.", "ref": "5665700003"}, "type": "Feature"}
{"geometry": {"coordinates": [-93.69296714, 47.593342381], "type": "Point"}, "id": "qsNw36_kPQcyUCi2DEH27mkyLWI=", "properties": {"@spider": "usps_collection_boxes", "addr:city": "MARCELL", "addr:country": "US", "addr:full": "39370 STATE HIGHWAY 286", "addr:postcode": "56657", "addr:state": "MN", "brand": "USPS", "brand:wikidata": "Q668687", "collection_times": "Mo-Fr 16:00; Sa 09:30", "name": "USPS COLLECTION BOX - PO LOBBY", "note": "ON 12/24 AND 12/31, THIS BOX MAY BE COLLECTED AS EARLY AS 12 NOON.", "ref": "5665700005"}, "type": "Feature"}
{"geometry": {"coordinates": [-94.207261317, 47.923166312], "type": "Point"}, "id": "pRXGwB0fgOcOVTxsg9mhHtR4k7Y=", "properties": {"@spider": "usps_collection_boxes", "addr:city": "MIZPAH", "addr:country": "US", "addr:full": "101 WOODLAND AVE", "addr:postcode": "56660", "addr:state": "MN", "brand": "USPS", "brand:wikidata": "Q668687", "collection_times": "Mo-Fr 12:30; Sa 16:30", "name": "USPS COLLECTION BOX - BLUE BOX", "note": "ON 12/24 AND 12/31, THIS BOX MAY BE COLLECTED AS EARLY AS 12 NOON.", "ref": "5666000000"}, "type": "Feature"}
{"geometry": {"coordinates": [-94.207261317, 47.923166312], "type": "Point"}, "id": "HnIWeIjKOhGPUzdaC_wz-tML3Hw=", "properties": {"@spider": "usps_collection_boxes", "addr:city": "MIZPAH", "addr:country": "US", "addr:full": "101 WOODLAND AVE", "addr:postcode": "56660", "addr:state": "MN", "brand": "USPS", "brand:wikidata": "Q668687", "collection_times": "Mo-Fr 12:30; Sa 10:15", "name": "USPS COLLECTION BOX - PO LOBBY", "note": "ON 12/24 AND 12/31, THIS BOX MAY BE COLLECTED AS EARLY AS 12 NOON.", "ref": "5666000001"}, "type": "Feature"}
{"geometry": {"coordinates": [-94.207261317, 47.923166312], "type": "Point"}, "id": "xF1Cb31SCZJYTX-uy86B1iHsF8s=", "properties": {"@spider": "usps_collection_boxes", "addr:city": "MIZPAH", "addr:country": "US", "addr:full": "101 WOODLAND AVE", "addr:postcode": "56660", "addr:state": "MN", "brand": "USPS", "brand:wikidata": "Q668687", "collection_times": "Mo-Fr 12:45; Sa 10:30", "name": "USPS COLLECTION BOX - PO LOBBY", "note": "ON 12/24 AND 12/31, THIS BOX MAY BE COLLECTED AS EARLY AS 12 NOON.", "ref": "5666000002"}, "type": "Feature"}
{"geometry": {"coordinates": [-94.279237081, 47.872645884], "type": "Point"}, "id": "OARcSAQBY_Q1aAWzR_oA7GB6VsE=", "properties": {"@spider": "usps_collection_boxes", "addr:city": "NORTHOME", "addr:country": "US", "addr:full": "12055 MAIN ST", "addr:postcode": "56661", "addr:state": "MN", "brand": "USPS", "brand:wikidata": "Q668687", "collection_times": "Mo-Fr 16:00; Sa 17:00", "name": "USPS COLLECTION BOX - BLUE BOX", "note": "ON 12/24 AND 12/31, THIS BOX MAY BE COLLECTED AS EARLY AS 12 NOON.", "ref": "5666100000"}, "type": "Feature"}
{"geometry": {"coordinates": [-94.279237081, 47.872645884], "type": "Point"}, "id": "wRdHwr7oBbjuE8UGYyMn7Uk5uRg=", "properties": {"@spider": "usps_collection_boxes", "addr:city": "NORTHOME", "addr:country": "US", "addr:full": "12055 MAIN ST", "addr:postcode": "56661", "addr:state": "MN", "brand": "USPS", "brand:wikidata": "Q668687", "collection_times": "Mo-Fr 16:00; Sa 09:00", "name": "USPS COLLECTION BOX - PO LOBBY", "note": "ON 12/24 AND 12/31, THIS BOX MAY BE COLLECTED AS EARLY AS 12 NOON.", "ref": "5666100001"}, "type": "Feature"}
{"geometry": {"coordinates": [-94.279237081, 47.872645884], "type": "Point"}, "id": "qzCby6FGfU8tmuJNN2FHh1nPbz0=", "properties": {"@spider": "usps_collection_boxes", "addr:city": "NORTHOME", "addr:country": "US", "addr:full": "12055 MAIN ST", "addr:postcode": "56661", "addr:state": "MN", "brand": "USPS", "brand:wikidata": "Q668687", "collection_times": "Mo-Fr 16:00; Sa 09:30", "name": "USPS COLLECTION BOX - PO LOBBY", "note": "ON 12/24 AND 12/31, THIS BOX MAY BE COLLECTED AS EARLY AS 12 NOON.", "ref": "5666100002"}, "type": "Feature"}
{"geometry": {"coordinates": [-93.943065473, 46.818573232], "type": "Point"}, "id": "lJ1YwsDJUKSY3iT0YoZubzsOeck=", "properties": {"@spider": "usps_collection_boxes", "addr:city": "OUTING", "addr:country": "US", "addr:full": "420 STATE HWY 6 NE", "addr:postcode": "56662", "addr:state": "MN", "brand": "USPS", "brand:wikidata": "Q668687", "collection_times": "Mo-Sa 13:30", "name": "USPS COLLECTION BOX - BLUE BOX", "note": "ON 12/24 AND 12/31, THIS BOX MAY BE COLLECTED AS EARLY AS 12 NOON.", "ref": "5666200000"}, "type": "Feature"}
{"geometry": {"coordinates": [-93.943065473, 46.818573232], "type": "Point"}, "id": "mWE5_1cLKCi93XFoEqU2gY3TFrA=", "properties": {"@spider": "usps_collection_boxes", "addr:city": "OUTING", "addr:country": "US", "addr:full": "420 STATE HWY 6 NE", "addr:postcode": "56662", "addr:state": "MN", "brand": "USPS", "brand:wikidata": "Q668687", "collection_times": "Mo-Fr 13:30; Sa 10:15", "name": "USPS COLLECTION BOX - PO LOBBY", "note": "ON 12/24 AND 12/31, THIS BOX MAY BE COLLECTED AS EARLY AS 12 NOON.", "ref": "5666200001"}, "type": "Feature"}
{"geometry": {"coordinates": [-93.943065473, 46.818573232], "type": "Point"}, "id": "p9gVL_Yveq5lMU3RI_ZYdbdoOzU=", "properties": {"@spider": "usps_collection_boxes", "addr:city": "OUTING", "addr:country": "US", "addr:full": "420 STATE HIGHWAY 6 NE", "addr:postcode": "56662", "addr:state": "MN", "brand": "USPS", "brand:wikidata": "Q668687", "collection_times": "Mo-Fr 13:30; Sa 10:15", "name": "USPS COLLECTION BOX - PO LOBBY", "note": "ON 12/24 AND 12/31, THIS BOX MAY BE COLLECTED AS EARLY AS 12 NOON.", "ref": "5666200002"}, "type": "Feature"}
{"geometry": {"coordinates": [-94.883333772, 48.0186], "type": "Point"}, "id": "JLMfRGPkrX3_vjTrvIeU8cbGc4E=", "properties": {"@spider": "usps_collection_boxes", "addr:city": "PONEMAH", "addr:country": "US", "addr:full": "150 COUNTY ROAD 15", "addr:postcode": "56666", "addr:state": "MN", "brand": "USPS", "brand:wikidata": "Q668687", "collection_times": "Mo-Sa 10:30", "name": "USPS COLLECTION BOX - PO LOBBY", "ref": "5666600001"}, "type": "Feature"}
{"geometry": {"coordinates": [-94.883333772, 48.0186], "type": "Point"}, "id": "gC3gTQ-WM9XfiiSOADOsNhBwSWE=", "properties": {"@spider": "usps_collection_boxes", "addr:city": "PONEMAH", "addr:country": "US", "addr:full": "150 COUNTY ROAD 15", "addr:postcode": "56666", "addr:state": "MN", "brand": "USPS", "brand:wikidata": "Q668687", "collection_times": "Mo-Sa 11:00", "name": "USPS COLLECTION BOX - PO LOBBY", "ref": "5666600002"}, "type": "Feature"}
{"geometry": {"coordinates": [-94.904721, 47.677859515], "type": "Point"}, "id": "qfzUh8QUILo4EewLTU3JL2mTuto=", "properties": {"@spider": "usps_collection_boxes", "addr:city": "PUPOSKY", "addr:country": "US", "addr:full": "1139 DURAND DR NW", "addr:postcode": "56667", "addr:state": "MN", "brand": "USPS", "brand:wikidata": "Q668687", "collection_times": "Mo-Sa 12:45", "name": "USPS COLLECTION BOX - BLUE BOX", "note": "ON 12/24 AND 12/31, THIS BOX MAY BE COLLECTED AS EARLY AS 12 NOON.", "ref": "5666700000"}, "type": "Feature"}
{"geometry": {"coordinates": [-94.904721, 47.677859515], "type": "Point"}, "id": "CYtwNQoNMc9KPDwhc_o48MWXcT4=", "properties": {"@spider": "usps_collection_boxes", "addr:city": "PUPOSKY", "addr:country": "US", "addr:full": "1139 DURAND DR NW", "addr:postcode": "56667", "addr:state": "MN", "brand": "USPS", "brand:wikidata": "Q668687", "collection_times": "Mo-Fr 12:00; Sa 10:00", "name": "USPS COLLECTION BOX - PO LOBBY", "ref": "5666700001"}, "type": "Feature"}
{"geometry": {"coordinates": [-94.904721, 47.677859515], "type": "Point"}, "id": "lUHBWoaWd-MWMzwfp46-tPdTJk4=", "properties": {"@spider": "usps_collection_boxes", "addr:city": "PUPOSKY", "addr:country": "US", "addr:full": "1139 DURAND DR NW", "addr:postcode": "56667", "addr:state": "MN", "brand": "USPS", "brand:wikidata": "Q668687", "collection_times": "Mo-Sa 13:00", "name": "USPS COLLECTION BOX - PO LOBBY", "note": "ON 12/24 AND 12/31, THIS BOX MAY BE COLLECTED AS EARLY AS 12 NOON.", "ref": "5666700002"}, "type": "Feature"}
{"geometry": {"coordinates": [-93.348307071, 48.614009998], "type": "Point"}, "id": "C5E4hUWOYAeyNuPJri_X_X00Ygk=", "properties": {"@spider": "usps_collection_boxes", "addr:city": "RANIER", "addr:country": "US", "addr:full": "3479 DULUTH ST", "addr:postcode": "56668", "addr:state": "MN", "brand": "USPS", "brand:wikidata": "Q668687", "collection_times": "Mo-Fr 16:00; Sa 15:00", "name": "USPS COLLECTION BOX - BLUE BOX", "note": "ON 12/24 AND 12/31, THIS BOX MAY BE COLLECTED AS EARLY AS 12 NOON.", "ref": "5666800000"}, "type": "Feature"}
{"geometry": {"coordinates": [-93.348307071, 48.614009998], "type": "Point"}, "id": "5wRsZ6h7zZA52CVhO5udB9TZXyw=", "properties": {"@spider": "usps_collection_boxes", "addr:city": "RANIER", "addr:country": "US", "addr:full": "3479 DULUTH ST", "addr:postcode": "56668", "addr:state": "MN", "brand": "USPS", "brand:wikidata": "Q668687", "collection_times": "Mo-Fr 12:00; Sa 10:45", "name": "USPS COLLECTION BOX - PO LOBBY", "ref": "5666800001"}, "type": "Feature"}
{"geometry": {"coordinates": [-93.348307071, 48.614009998], "type": "Point"}, "id": "WZhkArkdaE2v96POT08Q5Rx0dyI=", "properties": {"@spider": "usps_collection_boxes", "addr:city": "RANIER", "addr:country": "US", "addr:full": "3479 DULUTH ST", "addr:postcode": "56668", "addr:state": "MN", "brand": "USPS", "brand:wikidata": "Q668687", "collection_times": "Mo-Fr 12:00; Sa 10:30", "name": "USPS COLLECTION BOX - PO LOBBY", "ref": "5666800002"}, "type": "Feature"}
{"geometry": {"coordinates": [-94.851929814, 47.877557331], "type": "Point"}, "id": "YLrsPs_g4OJ6exOElJPhetUZANE=", "properties": {"@spider": "usps_collection_boxes", "addr:city": "REDBY", "addr:country": "US", "addr:full": "101 3RD ST", "addr:postcode": "56670", "addr:state": "MN", "brand": "USPS", "brand:wikidata": "Q668687", "collection_times": "Mo-Fr 16:15; Sa 14:00", "name": "USPS COLLECTION BOX - BLUE BOX", "note": "ON 12/24 AND 12/31, THIS BOX MAY BE COLLECTED AS EARLY AS 12 NOON.", "ref": "5667000000"}, "type": "Feature"}
{"geometry": {"coordinates": [-94.851929814, 47.877557331], "type": "Point"}, "id": "W9xc4eK-G-S7YHbYMcuqLSR9g7Y=", "properties": {"@spider": "usps_collection_boxes", "addr:city": "REDBY", "addr:country": "US", "addr:full": "101 3RD ST", "addr:postcode": "56670", "addr:state": "MN", "brand": "USPS", "brand:wikidata": "Q668687", "collection_times": "Mo-Fr 16:00; Sa 11:00", "name": "USPS COLLECTION BOX - PO LOBBY", "note": "ON 12/24 AND 12/31, THIS BOX MAY BE COLLECTED AS EARLY AS 12 NOON.", "ref": "5667000001"}, "type": "Feature"}
{"geometry": {"coordinates": [-94.877199395, 47.877472331], "type": "Point"}, "id": "Eimn-HltLKK_j5yyHt_zGP-gL9E=", "properties": {"@spider": "usps_collection_boxes", "addr:city": "REDBY", "addr:country": "US", "addr:full": "101 3RD ST", "addr:postcode": "56670", "addr:state": "MN", "brand": "USPS", "brand:wikidata": "Q668687", "collection_times": "Mo-Fr 16:00; Sa 11:00", "name": "USPS COLLECTION BOX - PO LOBBY", "note": "ON 12/24 AND 12/31, THIS BOX MAY BE COLLECTED AS EARLY AS 12 NOON.", "ref": "5667000002"}, "type": "Feature"}
{"geometry": {"coordinates": [-95.021383424, 47.875981928], "type": "Point"}, "id": "2IzUIBt9QCWnwDjwdDcdKx3Wkmg=", "properties": {"@spider": "usps_collection_boxes", "addr:city": "REDLAKE", "addr:country": "US", "addr:full": "105 STATE HIGHWAY 1", "addr:postcode": "56671", "addr:state": "MN", "brand": "USPS", "brand:wikidata": "Q668687", "collection_times": "Mo-Fr 16:15; Sa 16:30", "name": "USPS COLLECTION BOX - BLUE BOX", "note": "ON 12/24 AND 12/31, THIS BOX MAY BE COLLECTED AS EARLY AS 12 NOON.", "ref": "5667100000"}, "type": "Feature"}
{"geometry": {"coordinates": [-95.021383424, 47.875981928], "type": "Point"}, "id": "er0SweqFuV_H5jdfPzrhgH_-RaI=", "properties": {"@spider": "usps_collection_boxes", "addr:city": "REDLAKE", "addr:country": "US", "addr:full": "105 STATE HIGHWAY 1", "addr:postcode": "56671", "addr:state": "MN", "brand": "USPS", "brand:wikidata": "Q668687", "collection_times": "Mo-Fr 16:30; Sa 12:00", "name": "USPS COLLECTION BOX - PO LOBBY", "note": "ON 12/24 AND 12/31, THIS BOX MAY BE COLLECTED AS EARLY AS 12 NOON.", "ref": "5667100001"}, "type": "Feature"}
{"geometry": {"coordinates": [-95.021383424, 47.875981928], "type": "Point"}, "id": "YHd5Qa0kgScrPdUf9kqXOUI1bI4=", "properties": {"@spider": "usps_collection_boxes", "addr:city": "REDLAKE", "addr:country": "US", "addr:full": "105 STATE HIGHWAY 1", "addr:postcode": "56671", "addr:state": "MN", "brand": "USPS", "brand:wikidata": "Q668687", "collection_times": "Mo-Fr 16:00", "name": "USPS COLLECTION BOX - PO LOBBY", "note": "ON 12/24 AND 12/31, THIS BOX MAY BE COLLECTED AS EARLY AS 12 NOON.", "ref": "5667100002"}, "type": "Feature"}
{"geometry": {"coordinates": [-93.915243, 47.056295536], "type": "Point"}, "id": "AnCRxpZMFWX2Wn1DqwMXVHJRDMo=", "properties": {"@spider": "usps_collection_boxes", "addr:city": "REMER", "addr:country": "US", "addr:full": "117 MAIN ST E", "addr:postcode": "56672", "addr:state": "MN", "brand": "USPS", "brand:wikidata": "Q668687", "collection_times": "Mo-Fr 15:30; Sa 16:00", "name": "USPS COLLECTION BOX - BLUE BOX", "note": "ON 12/24 AND 12/31, THIS BOX MAY BE COLLECTED AS EARLY AS 12 NOON.", "ref": "5667200000"}, "type": "Feature"}
{"geometry": {"coordinates": [-93.915243, 47.056295536], "type": "Point"}, "id": "7ywTTjamPK7idXRqhP3IAt22-Fk=", "properties": {"@spider": "usps_collection_boxes", "addr:city": "REMER", "addr:country": "US", "addr:full": "117 MAIN ST E", "addr:postcode": "56672", "addr:state": "MN", "brand": "USPS", "brand:wikidata": "Q668687", "collection_times": "Mo-Fr 15:30; Sa 10:00", "name": "USPS COLLECTION BOX - PO LOBBY", "note": "ON 12/24 AND 12/31, THIS BOX MAY BE COLLECTED AS EARLY AS 12 NOON.", "ref": "5667200002"}, "type": "Feature"}
{"geometry": {"coordinates": [-93.915243, 47.056295536], "type": "Point"}, "id": "Grt5E_1bYMNEg73akI51YmERZ9s=", "properties": {"@spider": "usps_collection_boxes", "addr:city": "REMER", "addr:country": "US", "addr:full": "117 MAIN ST E", "addr:postcode": "56672", "addr:state": "MN", "brand": "USPS", "brand:wikidata": "Q668687", "collection_times": "Mo-Fr 15:30; Sa 10:00", "name": "USPS COLLECTION BOX - PO LOBBY", "note": "ON 12/24 AND 12/31, THIS BOX MAY BE COLLECTED AS EARLY AS 12 NOON.", "ref": "5667200003"}, "type": "Feature"}
{"geometry": {"coordinates": [-95.1019497361, 48.8065900283], "type": "Point"}, "id": "tgyVCNowS2nwgmN55d2N_ZyEIiU=", "properties": {"@spider": "usps_collection_boxes", "addr:city": "ROOSEVELT", "addr:country": "US", "addr:full": "10 N MAIN ST", "addr:postcode": "56673", "addr:state": "MN", "brand": "USPS", "brand:wikidata": "Q668687", "collection_times": "Mo-Sa 16:00", "name": "USPS COLLECTION BOX - BLUE BOX", "note": "ON 12/24 AND 12/31, THIS BOX MAY BE COLLECTED AS EARLY AS 12 NOON.", "ref": "5667300000"}, "type": "Feature"}
{"geometry": {"coordinates": [-95.1019515, 48.806576999], "type": "Point"}, "id": "40QbZPZcEmgioz3cnL7cBdC9iz8=", "properties": {"@spider": "usps_collection_boxes", "addr:city": "ROOSEVELT", "addr:country": "US", "addr:full": "10 N MAIN ST", "addr:postcode": "56673", "addr:state": "MN", "brand": "USPS", "brand:wikidata": "Q668687", "collection_times": "Mo-Fr 14:30; Sa 08:00", "name": "USPS COLLECTION BOX - PO LOBBY", "note": "ON 12/24 AND 12/31, THIS BOX MAY BE COLLECTED AS EARLY AS 12 NOON.", "ref": "5667300001"}, "type": "Feature"}
{"geometry": {"coordinates": [-95.1019515, 48.806576999], "type": "Point"}, "id": "frZNEC8nBzphp15VEG9b_IWjK6k=", "properties": {"@spider": "usps_collection_boxes", "addr:city": "ROOSEVELT", "addr:country": "US", "addr:full": "10 N MAIN ST", "addr:postcode": "56673", "addr:state": "MN", "brand": "USPS", "brand:wikidata": "Q668687", "collection_times": "Mo-Fr 14:30; Sa 10:00", "name": "USPS COLLECTION BOX - PO LOBBY", "note": "ON 12/24 AND 12/31, THIS BOX MAY BE COLLECTED AS EARLY AS 12 NOON.", "ref": "5667300002"}, "type": "Feature"}
{"geometry": {"coordinates": [-95.2600409035, 47.529669363], "type": "Point"}, "id": "EtVekWMEPqCCK3URXT9RI4c3H0A=", "properties": {"@spider": "usps_collection_boxes", "addr:city": "SHEVLIN", "addr:country": "US", "addr:full": "148 BROADWAY AVE S", "addr:postcode": "56676", "addr:state": "MN", "brand": "USPS", "brand:wikidata": "Q668687", "collection_times": "Mo-Fr 16:00; Sa 17:00", "name": "USPS COLLECTION BOX - BLUE BOX", "note": "ON 12/24 AND 12/31, THIS BOX MAY BE COLLECTED AS EARLY AS 12 NOON.", "ref": "5667600000"}, "type": "Feature"}
{"geometry": {"coordinates": [-95.260040904, 47.529660363], "type": "Point"}, "id": "Zx4pDUhjdOFw1qvjxOr6-NgUObs=", "properties": {"@spider": "usps_collection_boxes", "addr:city": "SHEVLIN", "addr:country": "US", "addr:full": "148 BROADWAY AVE S", "addr:postcode": "56676", "addr:state": "MN", "brand": "USPS", "brand:wikidata": "Q668687", "collection_times": "Mo-Fr 11:00", "name": "USPS COLLECTION BOX - PO LOBBY", "ref": "5667600001"}, "type": "Feature"}
{"geometry": {"coordinates": [-95.260040904, 47.529660363], "type": "Point"}, "id": "w08V8zyKK4d-ku8Zrz9l2crcYPc=", "properties": {"@spider": "usps_collection_boxes", "addr:city": "SHEVLIN", "addr:country": "US", "addr:full": "148 BROADWAY AVE S", "addr:postcode": "56676", "addr:state": "MN", "brand": "USPS", "brand:wikidata": "Q668687", "collection_times": "Mo-Fr 11:00", "name": "USPS COLLECTION BOX - PO LOBBY", "ref": "5667600002"}, "type": "Feature"}
{"geometry": {"coordinates": [-95.129182989, 47.520323686], "type": "Point"}, "id": "R8MhnC8HrSYckuyb9keA_RZ7OS8=", "properties": {"@spider": "usps_collection_boxes", "addr:city": "SOLWAY", "addr:country": "US", "addr:full": "218 CENTERLINE RD N", "addr:postcode": "56678", "addr:state": "MN", "brand": "USPS", "brand:wikidata": "Q668687", "collection_times": "Mo-Fr 15:45; Sa 17:00", "name": "USPS COLLECTION BOX - BLUE BOX", "note": "ON 12/24 AND 12/31, THIS BOX MAY BE COLLECTED AS EARLY AS 12 NOON.", "ref": "5667800000"}, "type": "Feature"}
{"geometry": {"coordinates": [-95.129182989, 47.520323686], "type": "Point"}, "id": "74gmEw6Y3NhMl-fQZvvSxhykqIE=", "properties": {"@spider": "usps_collection_boxes", "addr:city": "SOLWAY", "addr:country": "US", "addr:full": "218 CENTERLINE RD N", "addr:postcode": "56678", "addr:state": "MN", "brand": "USPS", "brand:wikidata": "Q668687", "collection_times": "Mo-Fr 11:00; Sa 09:00", "name": "USPS COLLECTION BOX - PO LOBBY", "ref": "5667800001"}, "type": "Feature"}
{"geometry": {"coordinates": [-95.129182989, 47.520323686], "type": "Point"}, "id": "d9JANYPXYwcZKj10HiXLR-ROP1w=", "properties": {"@spider": "usps_collection_boxes", "addr:city": "SOLWAY", "addr:country": "US", "addr:full": "218 CENTERLINE RD N", "addr:postcode": "56678", "addr:state": "MN", "brand": "USPS", "brand:wikidata": "Q668687", "collection_times": "Mo-Fr 11:30; Sa 09:00", "name": "USPS COLLECTION BOX - PO LOBBY", "ref": "5667800004"}, "type": "Feature"}
{"geometry": {"coordinates": [-93.868330416, 47.642449547], "type": "Point"}, "id": "ooxe9Tj7WYP8pUum8k6K5CUDccU=", "properties": {"@spider": "usps_collection_boxes", "addr:city": "SPRING LAKE", "addr:country": "US", "addr:full": "48501 CTY RD 4", "addr:postcode": "56680", "addr:state": "MN", "brand": "USPS", "brand:wikidata": "Q668687", "collection_times": "Mo-Sa 13:00", "name": "USPS COLLECTION BOX - BLUE BOX", "note": "ON 12/24 AND 12/31, THIS BOX MAY BE COLLECTED AS EARLY AS 12 NOON.", "ref": "5668000000"}, "type": "Feature"}
{"geometry": {"coordinates": [-93.868330416, 47.642449547], "type": "Point"}, "id": "SyM5GyIHPUgYtgriy42yTE2LgLk=", "properties": {"@spider": "usps_collection_boxes", "addr:city": "SPRING LAKE", "addr:country": "US", "addr:full": "48501 CTY RD 4", "addr:postcode": "56680", "addr:state": "MN", "brand": "USPS", "brand:wikidata": "Q668687", "collection_times": "Mo-Sa 13:00", "name": "USPS COLLECTION BOX - PO LOBBY", "note": "ON 12/24 AND 12/31, THIS BOX MAY BE COLLECTED AS EARLY AS 12 NOON.", "ref": "5668000001"}, "type": "Feature"}
{"geometry": {"coordinates": [-93.868330416, 47.642459522], "type": "Point"}, "id": "oO9HXeRs_riR8AqEk-BsLDTF8dw=", "properties": {"@spider": "usps_collection_boxes", "addr:city": "SPRING LAKE", "addr:country": "US", "addr:full": "48501 COUNTY ROAD 4", "addr:postcode": "56680", "addr:state": "MN", "brand": "USPS", "brand:wikidata": "Q668687", "collection_times": "Mo-Sa 13:00", "name": "USPS COLLECTION BOX - PO LOBBY", "note": "ON 12/24 AND 12/31, THIS BOX MAY BE COLLECTED AS EARLY AS 12 NOON.", "ref": "5668000002"}, "type": "Feature"}
{"geometry": {"coordinates": [-94.136783683, 47.627099727], "type": "Point"}, "id": "tlviu-OR24JbytXlcCvU0esyF9E=", "properties": {"@spider": "usps_collection_boxes", "addr:city": "SQUAW LAKE", "addr:country": "US", "addr:full": "51879 STATE HIGHWAY 46", "addr:postcode": "56681", "addr:state": "MN", "brand": "USPS", "brand:wikidata": "Q668687", "collection_times": "Mo-Sa 11:00", "name": "USPS COLLECTION BOX - BLUE BOX", "ref": "5668100000"}, "type": "Feature"}
{"geometry": {"coordinates": [-94.136783683, 47.627099727], "type": "Point"}, "id": "U1YXHpa-66UhfLsSZy_SsAZ_wik=", "properties": {"@spider": "usps_collection_boxes", "addr:city": "SQUAW LAKE", "addr:country": "US", "addr:full": "51879 STATE HIGHWAY 46", "addr:postcode": "56681", "addr:state": "MN", "brand": "USPS", "brand:wikidata": "Q668687", "collection_times": "Mo-Sa 11:00", "name": "USPS COLLECTION BOX - PO LOBBY", "ref": "5668100001"}, "type": "Feature"}
{"geometry": {"coordinates": [-94.136793658, 47.627099727], "type": "Point"}, "id": "df4n8JwLbs1tP26Bsp4phn2Kv2w=", "properties": {"@spider": "usps_collection_boxes", "addr:city": "SQUAW LAKE", "addr:country": "US", "addr:full": "51879 STATE HIGHWAY 46", "addr:postcode": "56681", "addr:state": "MN", "brand": "USPS", "brand:wikidata": "Q668687", "collection_times": "Mo-Sa 11:00", "name": "USPS COLLECTION BOX - PO LOBBY", "ref": "5668100002"}, "type": "Feature"}
{"geometry": {"coordinates": [-94.677754798, 47.65732309], "type": "Point"}, "id": "VBb2VOXAZg3YrDOpvQ27by2fAXQ=", "properties": {"@spider": "usps_collection_boxes", "addr:city": "TENSTRIKE", "addr:country": "US", "addr:full": "171 3RD AVE N", "addr:postcode": "56683", "addr:state": "MN", "brand": "USPS", "brand:wikidata": "Q668687", "collection_times": "Mo-Fr 17:30; Sa 17:00", "name": "USPS COLLECTION BOX - BLUE BOX", "note": "ON 12/24 AND 12/31, THIS BOX MAY BE COLLECTED AS EARLY AS 12 NOON.", "ref": "5668300000"}, "type": "Feature"}
{"geometry": {"coordinates": [-94.677754798, 47.65732309], "type": "Point"}, "id": "i3G5xoeFGDJu57j3ICJ9DHpyPKs=", "properties": {"@spider": "usps_collection_boxes", "addr:city": "TENSTRIKE", "addr:country": "US", "addr:full": "171 3RD AVE N", "addr:postcode": "56683", "addr:state": "MN", "brand": "USPS", "brand:wikidata": "Q668687", "collection_times": "Mo-Fr 11:00; Sa 10:30", "name": "USPS COLLECTION BOX - PO LOBBY", "ref": "5668300002"}, "type": "Feature"}
{"geometry": {"coordinates": [-95.6927778, 47.779474996], "type": "Point"}, "id": "ueTD5nTUO0p39tZAI0r3J30q6Oc=", "properties": {"@spider": "usps_collection_boxes", "addr:city": "TRAIL", "addr:country": "US", "addr:full": "106 N MAIN ST", "addr:postcode": "56684", "addr:state": "MN", "brand": "USPS", "brand:wikidata": "Q668687", "collection_times": "Mo-Sa 14:15", "name": "USPS COLLECTION BOX - BLUE BOX", "note": "ON 12/24 AND 12/31, THIS BOX MAY BE COLLECTED AS EARLY AS 12 NOON.", "ref": "5668400000"}, "type": "Feature"}
{"geometry": {"coordinates": [-94.512742685, 48.163437], "type": "Point"}, "id": "5Kilc8dzuleCF1zeMdwEnEJ2ZMc=", "properties": {"@spider": "usps_collection_boxes", "addr:city": "WASKISH", "addr:country": "US", "addr:full": "54997 HIGHWAY 72 NE", "addr:postcode": "56685", "addr:state": "MN", "brand": "USPS", "brand:wikidata": "Q668687", "collection_times": "Mo-Fr 17:00; Sa 17:30", "name": "USPS COLLECTION BOX - BLUE BOX", "note": "ON 12/24 AND 12/31, THIS BOX MAY BE COLLECTED AS EARLY AS 12 NOON.", "ref": "5668500000"}, "type": "Feature"}
{"geometry": {"coordinates": [-94.512742685, 48.163437], "type": "Point"}, "id": "q2MIaIviO2SWW2nzjtymGaNnH8Y=", "properties": {"@spider": "usps_collection_boxes", "addr:city": "WASKISH", "addr:country": "US", "addr:full": "54997 HIGHWAY 72 NE", "addr:postcode": "56685", "addr:state": "MN", "brand": "USPS", "brand:wikidata": "Q668687", "collection_times": "Mo-Fr 14:30; Sa 11:15", "name": "USPS COLLECTION BOX - PO LOBBY", "note": "ON 12/24 AND 12/31, THIS BOX MAY BE COLLECTED AS EARLY AS 12 NOON.", "ref": "5668500001"}, "type": "Feature"}
{"geometry": {"coordinates": [-94.512742685, 48.163437], "type": "Point"}, "id": "oRjaJRy0_HqsoRsuMKQNkZhbgjs=", "properties": {"@spider": "usps_collection_boxes", "addr:city": "WASKISH", "addr:country": "US", "addr:full": "54997 HIGHWAY 72 NE", "addr:postcode": "56685", "addr:state": "MN", "brand": "USPS", "brand:wikidata": "Q668687", "collection_times": "Mo-Fr 14:30; Sa 11:30", "name": "USPS COLLECTION BOX - PO LOBBY", "note": "ON 12/24 AND 12/31, THIS BOX MAY BE COLLECTED AS EARLY AS 12 NOON.", "ref": "5668500002"}, "type": "Feature"}
{"geometry": {"coordinates": [-94.958102368, 48.76874815], "type": "Point"}, "id": "zXJBi0KanIsn4nwambe-o4ubCbc=", "properties": {"@spider": "usps_collection_boxes", "addr:city": "WILLIAMS", "addr:country": "US", "addr:full": "24 MAIN ST", "addr:postcode": "56686", "addr:state": "MN", "brand": "USPS", "brand:wikidata": "Q668687", "collection_times": "Mo-Sa 16:00", "name": "USPS COLLECTION BOX - BLUE BOX", "note": "ON 12/24 AND 12/31, THIS BOX MAY BE COLLECTED AS EARLY AS 12 NOON.", "ref": "5668600000"}, "type": "Feature"}
{"geometry": {"coordinates": [-94.958102368, 48.76874815], "type": "Point"}, "id": "WL0rV8coVtos3KzLs4Dh7cS2quE=", "properties": {"@spider": "usps_collection_boxes", "addr:city": "WILLIAMS", "addr:country": "US", "addr:full": "24 MAIN ST", "addr:postcode": "56686", "addr:state": "MN", "brand": "USPS", "brand:wikidata": "Q668687", "collection_times": "Mo-Fr 14:00; Sa 10:00", "name": "USPS COLLECTION BOX - PO LOBBY", "note": "ON 12/24 AND 12/31, THIS BOX MAY BE COLLECTED AS EARLY AS 12 NOON.", "ref": "5668600001"}, "type": "Feature"}
{"geometry": {"coordinates": [-94.958102368, 48.76874815], "type": "Point"}, "id": "44WPhxcv-5RzkmsyDUmQrt9BfYs=", "properties": {"@spider": "usps_collection_boxes", "addr:city": "WILLIAMS", "addr:country": "US", "addr:full": "24 MAIN ST", "addr:postcode": "56686", "addr:state": "MN", "brand": "USPS", "brand:wikidata": "Q668687", "collection_times": "Mo-Fr 14:00; Sa 10:00", "name": "USPS COLLECTION BOX - PO LOBBY", "note": "ON 12/24 AND 12/31, THIS BOX MAY BE COLLECTED AS EARLY AS 12 NOON.", "ref": "5668600002"}, "type": "Feature"}
