{"geometry": {"coordinates": [-96.180055164, 48.117716413], "type": "Point"}, "id": "aHl5iesiQqM6C93NRd-Q4RL0cSQ=", "properties": {"@source_uri": "https://tools.usps.com/UspsToolsRestServices/rest/POLocator/findLocations", "@spider": "usps_collection_boxes", "addr:city": "THIEF RVR FLS", "addr:country": "US", "addr:postcode": "56701", "addr:state": "MN", "addr:street_address": "121 LABREE AVE N", "amenity": "post_box", "collection_times": "Mo-Sa 18:20", "note": "ON 12/24 AND 12/31, THIS BOX MAY BE COLLECTED AS EARLY AS 12 NOON.", "nsi_id": "unitedstatespostalservice-a77078", "operator": "United States Postal Service", "operator:short": "USPS", "operator:type": "public", "operator:wikidata": "Q668687", "ref": "5670100014"}, "type": "Feature"}
{"geometry": {"coordinates": [-96.180055164, 48.117716413], "type": "Point"}, "id": "K1NjAUu6KnWUiuoEi6QYXJV-rTs=", "properties": {"@source_uri": "https://tools.usps.com/UspsToolsRestServices/rest/POLocator/findLocations", "@spider": "usps_collection_boxes", "addr:city": "THIEF RVR FLS", "addr:country": "US", "addr:postcode": "56701", "addr:state": "MN", "addr:street_address": "121 LABREE AVE N", "amenity": "post_box", "collection_times": "Mo-Sa 17:00", "indoor": "yes", "note": "ON 12/24 AND 12/31, THIS BOX MAY BE COLLECTED AS EARLY AS 12 NOON.", "nsi_id": "unitedstatespostalservice-a77078", "operator": "United States Postal Service", "operator:short": "USPS", "operator:type": "public", "operator:wikidata": "Q668687", "ref": "5670100016"}, "type": "Feature"}
{"geometry": {"coordinates": [-96.996270296, 48.192989704], "type": "Point"}, "id": "94FqlYsw2w9HyEArpAqz5xwEsPw=", "properties": {"@source_uri": "https://tools.usps.com/UspsToolsRestServices/rest/POLocator/findLocations", "@spider": "usps_collection_boxes", "addr:city": "ALVARADO", "addr:country": "US", "addr:postcode": "56710", "addr:state": "MN", "addr:street_address": "200 MARSHALL ST", "amenity": "post_box", "collection_times": "Mo-Fr 11:45; Sa 09:00", "nsi_id": "unitedstatespostalservice-a77078", "operator": "United States Postal Service", "operator:short": "USPS", "operator:type": "public", "operator:wikidata": "Q668687", "ref": "5671000001"}, "type": "Feature"}
{"geometry": {"coordinates": [-96.996270296, 48.192989704], "type": "Point"}, "id": "wzucAHy01QwuLT2om240MyD-0jA=", "properties": {"@source_uri": "https://tools.usps.com/UspsToolsRestServices/rest/POLocator/findLocations", "@spider": "usps_collection_boxes", "addr:city": "ALVARADO", "addr:country": "US", "addr:postcode": "56710", "addr:state": "MN", "addr:street_address": "200 MARSHALL ST", "amenity": "post_box", "collection_times": "Mo-Fr 12:00", "indoor": "yes", "nsi_id": "unitedstatespostalservice-a77078", "operator": "United States Postal Service", "operator:short": "USPS", "operator:type": "public", "operator:wikidata": "Q668687", "ref": "5671000002"}, "type": "Feature"}
{"geometry": {"coordinates": [-96.996270296, 48.192989704], "type": "Point"}, "id": "el6VQn4d2nN9YWOs4CViJSkbjRA=", "properties": {"@source_uri": "https://tools.usps.com/UspsToolsRestServices/rest/POLocator/findLocations", "@spider": "usps_collection_boxes", "addr:city": "ALVARADO", "addr:country": "US", "addr:postcode": "56710", "addr:state": "MN", "addr:street_address": "200 MARSHALL ST", "amenity": "post_box", "collection_times": "Mo-Fr 11:50; Sa 09:05", "indoor": "yes", "nsi_id": "unitedstatespostalservice-a77078", "operator": "United States Postal Service", "operator:short": "USPS", "operator:type": "public", "operator:wikidata": "Q668687", "ref": "5671000004"}, "type": "Feature"}
{"geometry": {"coordinates": [-95.070370416, 49.345283504], "type": "Point"}, "id": "PKn0zWPu9x4ZLapkzA6dN715OR4=", "properties": {"@source_uri": "https://tools.usps.com/UspsToolsRestServices/rest/POLocator/findLocations", "@spider": "usps_collection_boxes", "addr:city": "ANGLE INLET", "addr:country": "US", "addr:postcode": "56711", "addr:state": "MN", "addr:street_address": "9394 GOLF COURSE DR NW", "amenity": "post_box", "collection_times": "Mo-Fr 13:00", "note": "ON 12/24 AND 12/31, THIS BOX MAY BE COLLECTED AS EARLY AS 12 NOON.", "nsi_id": "unitedstatespostalservice-a77078", "operator": "United States Postal Service", "operator:short": "USPS", "operator:type": "public", "operator:wikidata": "Q668687", "ref": "5671100000"}, "type": "Feature"}
{"geometry": {"coordinates": [-96.820002312, 48.33339306], "type": "Point"}, "id": "s5ja9inb7lUQuHNgFlfNRu5dGuw=", "properties": {"@source_uri": "https://tools.usps.com/UspsToolsRestServices/rest/POLocator/findLocations", "@spider": "usps_collection_boxes", "addr:city": "ARGYLE", "addr:country": "US", "addr:postcode": "56713", "addr:state": "MN", "addr:street_address": "108 W 3RD ST", "amenity": "post_box", "collection_times": "Mo-Fr 14:15; Sa 09:15", "note": "ON 12/24 AND 12/31, THIS BOX MAY BE COLLECTED AS EARLY AS 12 NOON.", "nsi_id": "unitedstatespostalservice-a77078", "operator": "United States Postal Service", "operator:short": "USPS", "operator:type": "public", "operator:wikidata": "Q668687", "ref": "5671300001"}, "type": "Feature"}
{"geometry": {"coordinates": [-96.820002312, 48.33339306], "type": "Point"}, "id": "A1zv35EieFvKSGIJqe6ZbuNc9TE=", "properties": {"@source_uri": "https://tools.usps.com/UspsToolsRestServices/rest/POLocator/findLocations", "@spider": "usps_collection_boxes", "addr:city": "ARGYLE", "addr:country": "US", "addr:postcode": "56713", "addr:state": "MN", "addr:street_address": "108 W 3RD ST", "amenity": "post_box", "collection_times": "Mo-Fr 14:30; Sa 09:30", "indoor": "yes", "note": "ON 12/24 AND 12/31, THIS BOX MAY BE COLLECTED AS EARLY AS 12 NOON.", "nsi_id": "unitedstatespostalservice-a77078", "operator": "United States Postal Service", "operator:short": "USPS", "operator:type": "public", "operator:wikidata": "Q668687", "ref": "5671300002"}, "type": "Feature"}
{"geometry": {"coordinates": [-96.820002312, 48.33339306], "type": "Point"}, "id": "8-t-DQkvPRaHf9D9MQ8Iw-YhLQ8=", "properties": {"@source_uri": "https://tools.usps.com/UspsToolsRestServices/rest/POLocator/findLocations", "@spider": "usps_collection_boxes", "addr:city": "ARGYLE", "addr:country": "US", "addr:postcode": "56713", "addr:state": "MN", "addr:street_address": "108 W 3RD ST", "amenity": "post_box", "collection_times": "Mo-Fr 14:20; Sa 09:20", "indoor": "yes", "note": "ON 12/24 AND 12/31, THIS BOX MAY BE COLLECTED AS EARLY AS 12 NOON.", "nsi_id": "unitedstatespostalservice-a77078", "operator": "United States Postal Service", "operator:short": "USPS", "operator:type": "public", "operator:wikidata": "Q668687", "ref": "5671300003"}, "type": "Feature"}
{"geometry": {"coordinates": [-96.014497839, 48.78269119], "type": "Point"}, "id": "wF8n3td09hby8pqOEPJjxdEt9pQ=", "properties": {"@source_uri": "https://tools.usps.com/UspsToolsRestServices/rest/POLocator/findLocations", "@spider": "usps_collection_boxes", "addr:city": "BADGER", "addr:country": "US", "addr:postcode": "56714", "addr:state": "MN", "addr:street_address": "109 N MAIN ST", "amenity": "post_box", "collection_times": "Mo-Fr 11:45; Sa 09:45", "nsi_id": "unitedstatespostalservice-a77078", "operator": "United States Postal Service", "operator:short": "USPS", "operator:type": "public", "operator:wikidata": "Q668687", "ref": "5671400001"}, "type": "Feature"}
{"geometry": {"coordinates": [-96.014497839, 48.78269119], "type": "Point"}, "id": "JklQYeX6-zn1OzwtWYc7b0Aj4Z0=", "properties": {"@source_uri": "https://tools.usps.com/UspsToolsRestServices/rest/POLocator/findLocations", "@spider": "usps_collection_boxes", "addr:city": "BADGER", "addr:country": "US", "addr:postcode": "56714", "addr:state": "MN", "addr:street_address": "109 N MAIN ST", "amenity": "post_box", "collection_times": "Mo-Fr 12:00; Sa 10:00", "indoor": "yes", "nsi_id": "unitedstatespostalservice-a77078", "operator": "United States Postal Service", "operator:short": "USPS", "operator:type": "public", "operator:wikidata": "Q668687", "ref": "5671400002"}, "type": "Feature"}
{"geometry": {"coordinates": [-96.013730769, 48.783109602], "type": "Point"}, "id": "NCQWwR41M4iqILZBOMiqwlb5Yic=", "properties": {"@source_uri": "https://tools.usps.com/UspsToolsRestServices/rest/POLocator/findLocations", "@spider": "usps_collection_boxes", "addr:city": "BADGER", "addr:country": "US", "addr:postcode": "56714", "addr:state": "MN", "addr:street_address": "201 N MAIN ST", "amenity": "post_box", "collection_times": "Mo-Sa 16:00", "note": "ON 12/24 AND 12/31, THIS BOX MAY BE COLLECTED AS EARLY AS 12 NOON.", "nsi_id": "unitedstatespostalservice-a77078", "operator": "United States Postal Service", "operator:short": "USPS", "operator:type": "public", "operator:wikidata": "Q668687", "ref": "5671400004"}, "type": "Feature"}
{"geometry": {"coordinates": [-96.014497839, 48.78269119], "type": "Point"}, "id": "lAqWJXK-aXfQsBYO-2rUnN8X1ro=", "properties": {"@source_uri": "https://tools.usps.com/UspsToolsRestServices/rest/POLocator/findLocations", "@spider": "usps_collection_boxes", "addr:city": "BADGER", "addr:country": "US", "addr:postcode": "56714", "addr:state": "MN", "addr:street_address": "109 N MAIN ST", "amenity": "post_box", "collection_times": "Mo-Fr 11:50; Sa 09:50", "indoor": "yes", "nsi_id": "unitedstatespostalservice-a77078", "operator": "United States Postal Service", "operator:short": "USPS", "operator:type": "public", "operator:wikidata": "Q668687", "ref": "5671400005"}, "type": "Feature"}
{"geometry": {"coordinates": [-96.0024183, 47.814586573], "type": "Point"}, "id": "x6lmr1E8Uso3wJeGB3b2s7Pfm_M=", "properties": {"@source_uri": "https://tools.usps.com/UspsToolsRestServices/rest/POLocator/findLocations", "@spider": "usps_collection_boxes", "addr:city": "BROOKS", "addr:country": "US", "addr:postcode": "56715", "addr:state": "MN", "addr:street_address": "302 MAIN ST", "amenity": "post_box", "collection_times": "Mo-Fr 10:45; Sa 10:30", "nsi_id": "unitedstatespostalservice-a77078", "operator": "United States Postal Service", "operator:short": "USPS", "operator:type": "public", "operator:wikidata": "Q668687", "ref": "5671500001"}, "type": "Feature"}
{"geometry": {"coordinates": [-96.0024183, 47.814586573], "type": "Point"}, "id": "QdKeOwF8d9vLLwYzLleg6CdVU7E=", "properties": {"@source_uri": "https://tools.usps.com/UspsToolsRestServices/rest/POLocator/findLocations", "@spider": "usps_collection_boxes", "addr:city": "BROOKS", "addr:country": "US", "addr:postcode": "56715", "addr:state": "MN", "addr:street_address": "302 MAIN ST", "amenity": "post_box", "collection_times": "Mo-Fr 10:50; Sa 10:30", "indoor": "yes", "nsi_id": "unitedstatespostalservice-a77078", "operator": "United States Postal Service", "operator:short": "USPS", "operator:type": "public", "operator:wikidata": "Q668687", "ref": "5671500002"}, "type": "Feature"}
{"geometry": {"coordinates": [-95.999242433, 47.817748177], "type": "Point"}, "id": "CWFHqcfukAuRcKfZkXFWWMVlRc8=", "properties": {"@source_uri": "https://tools.usps.com/UspsToolsRestServices/rest/POLocator/findLocations", "@spider": "usps_collection_boxes", "addr:city": "BROOKS", "addr:country": "US", "addr:postcode": "56715", "addr:state": "MN", "addr:street_address": "701 HIGHWAY 59 S", "amenity": "post_box", "collection_times": "Mo-Sa 15:45", "note": "ON 12/24 AND 12/31, THIS BOX MAY BE COLLECTED AS EARLY AS 12 NOON.", "nsi_id": "unitedstatespostalservice-a77078", "operator": "United States Postal Service", "operator:short": "USPS", "operator:type": "public", "operator:wikidata": "Q668687", "ref": "5671500003"}, "type": "Feature"}
{"geometry": {"coordinates": [-96.0024183, 47.814586573], "type": "Point"}, "id": "UhF0Q1uXrKYeI_anDyImkEyazUA=", "properties": {"@source_uri": "https://tools.usps.com/UspsToolsRestServices/rest/POLocator/findLocations", "@spider": "usps_collection_boxes", "addr:city": "BROOKS", "addr:country": "US", "addr:postcode": "56715", "addr:state": "MN", "addr:street_address": "302 MAIN ST", "amenity": "post_box", "collection_times": "Mo-Fr 10:50; Sa 10:30", "indoor": "yes", "nsi_id": "unitedstatespostalservice-a77078", "operator": "United States Postal Service", "operator:short": "USPS", "operator:type": "public", "operator:wikidata": "Q668687", "ref": "5671500004"}, "type": "Feature"}
{"geometry": {"coordinates": [-96.610449627, 47.784842361], "type": "Point"}, "id": "SG8qOGA1nOrX2HYNQP1Vg_xjAZk=", "properties": {"@source_uri": "https://tools.usps.com/UspsToolsRestServices/rest/POLocator/findLocations", "@spider": "usps_collection_boxes", "addr:city": "CROOKSTON", "addr:country": "US", "addr:postcode": "56716", "addr:state": "MN", "addr:street_address": "1310 UNIVERSITY AVE", "amenity": "post_box", "collection_times": "Mo-Sa 12:00", "nsi_id": "unitedstatespostalservice-a77078", "operator": "United States Postal Service", "operator:short": "USPS", "operator:type": "public", "operator:wikidata": "Q668687", "ref": "5671600011"}, "type": "Feature"}
{"geometry": {"coordinates": [-96.607678822, 47.772698615], "type": "Point"}, "id": "j2xZzR_Dco9l-xByxjTh-EvboW8=", "properties": {"@source_uri": "https://tools.usps.com/UspsToolsRestServices/rest/POLocator/findLocations", "@spider": "usps_collection_boxes", "addr:city": "CROOKSTON", "addr:country": "US", "addr:postcode": "56716", "addr:state": "MN", "addr:street_address": "202 S BROADWAY", "amenity": "post_box", "collection_times": "Mo-Fr 17:00; Sa 12:00", "indoor": "yes", "note": "ON 12/24 AND 12/31, THIS BOX MAY BE COLLECTED AS EARLY AS 12 NOON.", "nsi_id": "unitedstatespostalservice-a77078", "operator": "United States Postal Service", "operator:short": "USPS", "operator:type": "public", "operator:wikidata": "Q668687", "ref": "5671600019"}, "type": "Feature"}
{"geometry": {"coordinates": [-96.607678822, 47.772698615], "type": "Point"}, "id": "ITz7jyu-uFtBGaVkZc6VLKoWX-8=", "properties": {"@source_uri": "https://tools.usps.com/UspsToolsRestServices/rest/POLocator/findLocations", "@spider": "usps_collection_boxes", "addr:city": "CROOKSTON", "addr:country": "US", "addr:postcode": "56716", "addr:state": "MN", "addr:street_address": "202 S BROADWAY", "amenity": "post_box", "collection_times": "Mo-Sa 17:00", "note": "ON 12/24 AND 12/31, THIS BOX MAY BE COLLECTED AS EARLY AS 12 NOON.", "nsi_id": "unitedstatespostalservice-a77078", "operator": "United States Postal Service", "operator:short": "USPS", "operator:type": "public", "operator:wikidata": "Q668687", "ref": "5671600020"}, "type": "Feature"}
{"geometry": {"coordinates": [-96.607678822, 47.772698615], "type": "Point"}, "id": "j64F5qkIGVyXNm8-_ZYDpNMJ3cg=", "properties": {"@source_uri": "https://tools.usps.com/UspsToolsRestServices/rest/POLocator/findLocations", "@spider": "usps_collection_boxes", "addr:city": "CROOKSTON", "addr:country": "US", "addr:postcode": "56716", "addr:state": "MN", "addr:street_address": "202 S BROADWAY", "amenity": "post_box", "collection_times": "Mo-Fr 17:00; Sa 12:00", "indoor": "yes", "note": "ON 12/24 AND 12/31, THIS BOX MAY BE COLLECTED AS EARLY AS 12 NOON.", "nsi_id": "unitedstatespostalservice-a77078", "operator": "United States Postal Service", "operator:short": "USPS", "operator:type": "public", "operator:wikidata": "Q668687", "ref": "5671600023"}, "type": "Feature"}
{"geometry": {"coordinates": [-96.8961941, 48.5722723], "type": "Point"}, "id": "R-fRJgpUY43KcjEnI83lKMdj_Jc=", "properties": {"@source_uri": "https://tools.usps.com/UspsToolsRestServices/rest/POLocator/findLocations", "@spider": "usps_collection_boxes", "addr:city": "DONALDSON", "addr:country": "US", "addr:postcode": "56720", "addr:state": "MN", "addr:street_address": "110 COMMERCIAL ST STE 103", "amenity": "post_box", "collection_times": "Mo-Fr 14:00; Sa 09:00", "note": "ON 12/24 AND 12/31, THIS BOX MAY BE COLLECTED AS EARLY AS 12 NOON.", "nsi_id": "unitedstatespostalservice-a77078", "operator": "United States Postal Service", "operator:short": "USPS", "operator:type": "public", "operator:wikidata": "Q668687", "ref": "5672000001"}, "type": "Feature"}
{"geometry": {"coordinates": [-96.896108782, 48.572325762], "type": "Point"}, "id": "JgvtTJRpR6c0aligcVPEqd_TJhg=", "properties": {"@source_uri": "https://tools.usps.com/UspsToolsRestServices/rest/POLocator/findLocations", "@spider": "usps_collection_boxes", "addr:city": "DONALDSON", "addr:country": "US", "addr:postcode": "56720", "addr:state": "MN", "addr:street_address": "410 COMMERCIAL ST", "amenity": "post_box", "collection_times": "Mo-Fr 14:15; Sa 09:15", "indoor": "yes", "note": "ON 12/24 AND 12/31, THIS BOX MAY BE COLLECTED AS EARLY AS 12 NOON.", "nsi_id": "unitedstatespostalservice-a77078", "operator": "United States Postal Service", "operator:short": "USPS", "operator:type": "public", "operator:wikidata": "Q668687", "ref": "5672000002"}, "type": "Feature"}
{"geometry": {"coordinates": [-96.896108782, 48.572325762], "type": "Point"}, "id": "WPhSOL04DkpUmJp7HBdRfwGEnbY=", "properties": {"@source_uri": "https://tools.usps.com/UspsToolsRestServices/rest/POLocator/findLocations", "@spider": "usps_collection_boxes", "addr:city": "DONALDSON", "addr:country": "US", "addr:postcode": "56720", "addr:state": "MN", "addr:street_address": "410 COMMERCIAL ST", "amenity": "post_box", "collection_times": "Mo-Fr 14:15; Sa 09:15", "indoor": "yes", "note": "ON 12/24 AND 12/31, THIS BOX MAY BE COLLECTED AS EARLY AS 12 NOON.", "nsi_id": "unitedstatespostalservice-a77078", "operator": "United States Postal Service", "operator:short": "USPS", "operator:type": "public", "operator:wikidata": "Q668687", "ref": "5672000003"}, "type": "Feature"}
{"geometry": {"coordinates": [-97.020524474, 47.939049251], "type": "Point"}, "id": "gFzQdHEg2JUQWY6lXvR55iyew3M=", "properties": {"@source_uri": "https://tools.usps.com/UspsToolsRestServices/rest/POLocator/findLocations", "@spider": "usps_collection_boxes", "addr:city": "E GRAND FORKS", "addr:country": "US", "addr:postcode": "56721", "addr:state": "MN", "addr:street_address": "1413 CENTRAL AVE NW", "amenity": "post_box", "collection_times": "Mo-Sa 13:00", "note": "ON 12/24 AND 12/31, THIS BOX MAY BE COLLECTED AS EARLY AS 12 NOON.", "nsi_id": "unitedstatespostalservice-a77078", "operator": "United States Postal Service", "operator:short": "USPS", "operator:type": "public", "operator:wikidata": "Q668687", "ref": "5672100005"}, "type": "Feature"}
{"geometry": {"coordinates": [-97.009261537, 47.914336215], "type": "Point"}, "id": "hHIhXYWIZETzNnCfcyG3hIr8Jao=", "properties": {"@source_uri": "https://tools.usps.com/UspsToolsRestServices/rest/POLocator/findLocations", "@spider": "usps_collection_boxes", "addr:city": "E GRAND FORKS", "addr:country": "US", "addr:postcode": "56721", "addr:state": "MN", "addr:street_address": "504 RHINEHART DR SE", "amenity": "post_box", "collection_times": "Mo-Sa 13:00", "note": "ON 12/24 AND 12/31, THIS BOX MAY BE COLLECTED AS EARLY AS 12 NOON.", "nsi_id": "unitedstatespostalservice-a77078", "operator": "United States Postal Service", "operator:short": "USPS", "operator:type": "public", "operator:wikidata": "Q668687", "ref": "5672100008"}, "type": "Feature"}
{"geometry": {"coordinates": [-97.024578592, 47.928576651], "type": "Point"}, "id": "HZZTBuwgUj3yHKbc43HLvqESE1M=", "properties": {"@source_uri": "https://tools.usps.com/UspsToolsRestServices/rest/POLocator/findLocations", "@spider": "usps_collection_boxes", "addr:city": "E GRAND FORKS", "addr:country": "US", "addr:postcode": "56721", "addr:state": "MN", "addr:street_address": "306 3RD ST NW", "amenity": "post_box", "collection_times": "Mo-Fr 16:30; Sa 11:30", "indoor": "yes", "note": "ON 12/24 AND 12/31, THIS BOX MAY BE COLLECTED AS EARLY AS 12 NOON.", "nsi_id": "unitedstatespostalservice-a77078", "operator": "United States Postal Service", "operator:short": "USPS", "operator:type": "public", "operator:wikidata": "Q668687", "ref": "5672100010"}, "type": "Feature"}
{"geometry": {"coordinates": [-97.024578592, 47.928576651], "type": "Point"}, "id": "nwSnxfGk03ymav3QjYZnDJtr9y0=", "properties": {"@source_uri": "https://tools.usps.com/UspsToolsRestServices/rest/POLocator/findLocations", "@spider": "usps_collection_boxes", "addr:city": "E GRAND FORKS", "addr:country": "US", "addr:postcode": "56721", "addr:state": "MN", "addr:street_address": "306 3RD ST NW", "amenity": "post_box", "collection_times": "Mo-Fr 17:00; Sa 11:30", "note": "ON 12/24 AND 12/31, THIS BOX MAY BE COLLECTED AS EARLY AS 12 NOON.", "nsi_id": "unitedstatespostalservice-a77078", "operator": "United States Postal Service", "operator:short": "USPS", "operator:type": "public", "operator:wikidata": "Q668687", "ref": "5672100013"}, "type": "Feature"}
{"geometry": {"coordinates": [-97.024578592, 47.928576651], "type": "Point"}, "id": "ekd1ZXaDvxAtX5f_mlv1TNfxTwU=", "properties": {"@source_uri": "https://tools.usps.com/UspsToolsRestServices/rest/POLocator/findLocations", "@spider": "usps_collection_boxes", "addr:city": "E GRAND FORKS", "addr:country": "US", "addr:postcode": "56721", "addr:state": "MN", "addr:street_address": "306 3RD ST NW", "amenity": "post_box", "collection_times": "Mo-Fr 16:30; Sa 11:30", "indoor": "yes", "note": "ON 12/24 AND 12/31, THIS BOX MAY BE COLLECTED AS EARLY AS 12 NOON.", "nsi_id": "unitedstatespostalservice-a77078", "operator": "United States Postal Service", "operator:short": "USPS", "operator:type": "public", "operator:wikidata": "Q668687", "ref": "5672100015"}, "type": "Feature"}
{"geometry": {"coordinates": [-96.799817049, 47.800814817], "type": "Point"}, "id": "tzv39QbvTRqoT7F8X0mW-Qhg9SE=", "properties": {"@source_uri": "https://tools.usps.com/UspsToolsRestServices/rest/POLocator/findLocations", "@spider": "usps_collection_boxes", "addr:city": "FISHER", "addr:country": "US", "addr:postcode": "56723", "addr:state": "MN", "addr:street_address": "319 THOMPSON AVE", "amenity": "post_box", "collection_times": "Mo-Fr 11:45; Sa 10:45", "nsi_id": "unitedstatespostalservice-a77078", "operator": "United States Postal Service", "operator:short": "USPS", "operator:type": "public", "operator:wikidata": "Q668687", "ref": "5672300001"}, "type": "Feature"}
{"geometry": {"coordinates": [-96.799817049, 47.800814817], "type": "Point"}, "id": "KXxUcV0kkFgRYHmjRp264mMF6-g=", "properties": {"@source_uri": "https://tools.usps.com/UspsToolsRestServices/rest/POLocator/findLocations", "@spider": "usps_collection_boxes", "addr:city": "FISHER", "addr:country": "US", "addr:postcode": "56723", "addr:state": "MN", "addr:street_address": "319 THOMPSON AVE", "amenity": "post_box", "collection_times": "Mo-Fr 12:00", "indoor": "yes", "nsi_id": "unitedstatespostalservice-a77078", "operator": "United States Postal Service", "operator:short": "USPS", "operator:type": "public", "operator:wikidata": "Q668687", "ref": "5672300003"}, "type": "Feature"}
{"geometry": {"coordinates": [-96.799817049, 47.800814817], "type": "Point"}, "id": "S6FMTGiD_in3eVriUo7iItNbWKg=", "properties": {"@source_uri": "https://tools.usps.com/UspsToolsRestServices/rest/POLocator/findLocations", "@spider": "usps_collection_boxes", "addr:city": "FISHER", "addr:country": "US", "addr:postcode": "56723", "addr:state": "MN", "addr:street_address": "319 THOMPSON AVE", "amenity": "post_box", "collection_times": "Mo-Fr 12:00; Sa 10:00", "indoor": "yes", "nsi_id": "unitedstatespostalservice-a77078", "operator": "United States Postal Service", "operator:short": "USPS", "operator:type": "public", "operator:wikidata": "Q668687", "ref": "5672300005"}, "type": "Feature"}
{"geometry": {"coordinates": [-95.808076436, 48.144062783], "type": "Point"}, "id": "dvdAkI3EJ3bRHLbUMDnyN1wa1qQ=", "properties": {"@source_uri": "https://tools.usps.com/UspsToolsRestServices/rest/POLocator/findLocations", "@spider": "usps_collection_boxes", "addr:city": "GOODRIDGE", "addr:country": "US", "addr:postcode": "56725", "addr:state": "MN", "addr:street_address": "204 VAUGHN MAIN ST E", "amenity": "post_box", "collection_times": "Mo-Fr 11:15; Sa 08:30", "nsi_id": "unitedstatespostalservice-a77078", "operator": "United States Postal Service", "operator:short": "USPS", "operator:type": "public", "operator:wikidata": "Q668687", "ref": "5672500000"}, "type": "Feature"}
{"geometry": {"coordinates": [-95.808076436, 48.144062783], "type": "Point"}, "id": "KDkJWLK_wMnlvC80rCwS2e2HVDU=", "properties": {"@source_uri": "https://tools.usps.com/UspsToolsRestServices/rest/POLocator/findLocations", "@spider": "usps_collection_boxes", "addr:city": "GOODRIDGE", "addr:country": "US", "addr:postcode": "56725", "addr:state": "MN", "addr:street_address": "204 VAUGHN MAIN ST E", "amenity": "post_box", "collection_times": "Mo-Fr 11:30; Sa 08:50", "indoor": "yes", "nsi_id": "unitedstatespostalservice-a77078", "operator": "United States Postal Service", "operator:short": "USPS", "operator:type": "public", "operator:wikidata": "Q668687", "ref": "5672500001"}, "type": "Feature"}
{"geometry": {"coordinates": [-95.808076436, 48.144062783], "type": "Point"}, "id": "Lcb4H3f-RYPRudpL5FQ8PWqd-Rk=", "properties": {"@source_uri": "https://tools.usps.com/UspsToolsRestServices/rest/POLocator/findLocations", "@spider": "usps_collection_boxes", "addr:city": "GOODRIDGE", "addr:country": "US", "addr:postcode": "56725", "addr:state": "MN", "addr:street_address": "204 VAUGHN MAIN ST E", "amenity": "post_box", "collection_times": "Mo-Fr 11:30; Sa 08:45", "indoor": "yes", "nsi_id": "unitedstatespostalservice-a77078", "operator": "United States Postal Service", "operator:short": "USPS", "operator:type": "public", "operator:wikidata": "Q668687", "ref": "5672500002"}, "type": "Feature"}
{"geometry": {"coordinates": [-96.183182267, 48.700047663], "type": "Point"}, "id": "i_uRNR9EnANfbMYvzBRXPzUvrlo=", "properties": {"@source_uri": "https://tools.usps.com/UspsToolsRestServices/rest/POLocator/findLocations", "@spider": "usps_collection_boxes", "addr:city": "GREENBUSH", "addr:country": "US", "addr:postcode": "56726", "addr:state": "MN", "addr:street_address": "136 4TH ST N", "amenity": "post_box", "collection_times": "Mo-Fr 16:00; Sa 11:30", "note": "ON 12/24 AND 12/31, THIS BOX MAY BE COLLECTED AS EARLY AS 12 NOON.", "nsi_id": "unitedstatespostalservice-a77078", "operator": "United States Postal Service", "operator:short": "USPS", "operator:type": "public", "operator:wikidata": "Q668687", "ref": "5672600001"}, "type": "Feature"}
{"geometry": {"coordinates": [-96.183182267, 48.700047663], "type": "Point"}, "id": "buXtxrviU3Dbj_ipd7t3F6peeUk=", "properties": {"@source_uri": "https://tools.usps.com/UspsToolsRestServices/rest/POLocator/findLocations", "@spider": "usps_collection_boxes", "addr:city": "GREENBUSH", "addr:country": "US", "addr:postcode": "56726", "addr:state": "MN", "addr:street_address": "136 4TH ST N", "amenity": "post_box", "collection_times": "Mo-Fr 16:15; Sa 09:45", "indoor": "yes", "note": "ON 12/24 AND 12/31, THIS BOX MAY BE COLLECTED AS EARLY AS 12 NOON.", "nsi_id": "unitedstatespostalservice-a77078", "operator": "United States Postal Service", "operator:short": "USPS", "operator:type": "public", "operator:wikidata": "Q668687", "ref": "5672600003"}, "type": "Feature"}
{"geometry": {"coordinates": [-96.183182267, 48.700047663], "type": "Point"}, "id": "SvB2lUXtr0YT3IQQdyQ-n4wSrX0=", "properties": {"@source_uri": "https://tools.usps.com/UspsToolsRestServices/rest/POLocator/findLocations", "@spider": "usps_collection_boxes", "addr:city": "GREENBUSH", "addr:country": "US", "addr:postcode": "56726", "addr:state": "MN", "addr:street_address": "136 4TH ST N", "amenity": "post_box", "collection_times": "Mo-Fr 16:15; Sa 09:45", "indoor": "yes", "note": "ON 12/24 AND 12/31, THIS BOX MAY BE COLLECTED AS EARLY AS 12 NOON.", "nsi_id": "unitedstatespostalservice-a77078", "operator": "United States Postal Service", "operator:short": "USPS", "operator:type": "public", "operator:wikidata": "Q668687", "ref": "5672600005"}, "type": "Feature"}
{"geometry": {"coordinates": [-95.618526186, 48.300787279], "type": "Point"}, "id": "bcOQRODGoNb5dNQrQVCLZMdzl3c=", "properties": {"@source_uri": "https://tools.usps.com/UspsToolsRestServices/rest/POLocator/findLocations", "@spider": "usps_collection_boxes", "addr:city": "GRYGLA", "addr:country": "US", "addr:postcode": "56727", "addr:state": "MN", "addr:street_address": "107 S MAIN AVE", "amenity": "post_box", "collection_times": "Mo-Fr 14:15; Sa 09:30", "note": "ON 12/24 AND 12/31, THIS BOX MAY BE COLLECTED AS EARLY AS 12 NOON.", "nsi_id": "unitedstatespostalservice-a77078", "operator": "United States Postal Service", "operator:short": "USPS", "operator:type": "public", "operator:wikidata": "Q668687", "ref": "5672700001"}, "type": "Feature"}
{"geometry": {"coordinates": [-95.618526186, 48.300787279], "type": "Point"}, "id": "AjOU6K998WXJ1wWxDxta_uT9_XA=", "properties": {"@source_uri": "https://tools.usps.com/UspsToolsRestServices/rest/POLocator/findLocations", "@spider": "usps_collection_boxes", "addr:city": "GRYGLA", "addr:country": "US", "addr:postcode": "56727", "addr:state": "MN", "addr:street_address": "107 S MAIN AVE", "amenity": "post_box", "collection_times": "Mo-Fr 14:30; Sa 09:45", "indoor": "yes", "note": "ON 12/24 AND 12/31, THIS BOX MAY BE COLLECTED AS EARLY AS 12 NOON.", "nsi_id": "unitedstatespostalservice-a77078", "operator": "United States Postal Service", "operator:short": "USPS", "operator:type": "public", "operator:wikidata": "Q668687", "ref": "5672700002"}, "type": "Feature"}
{"geometry": {"coordinates": [-95.618526186, 48.300787279], "type": "Point"}, "id": "3U7bGXFXsJc9CBEDvmyHtuPcX6g=", "properties": {"@source_uri": "https://tools.usps.com/UspsToolsRestServices/rest/POLocator/findLocations", "@spider": "usps_collection_boxes", "addr:city": "GRYGLA", "addr:country": "US", "addr:postcode": "56727", "addr:state": "MN", "addr:street_address": "107 S MAIN AVE", "amenity": "post_box", "collection_times": "Mo-Fr 14:30; Sa 09:45", "indoor": "yes", "note": "ON 12/24 AND 12/31, THIS BOX MAY BE COLLECTED AS EARLY AS 12 NOON.", "nsi_id": "unitedstatespostalservice-a77078", "operator": "United States Postal Service", "operator:short": "USPS", "operator:type": "public", "operator:wikidata": "Q668687", "ref": "5672700003"}, "type": "Feature"}
{"geometry": {"coordinates": [-96.944761444, 48.775344884], "type": "Point"}, "id": "L2tbxfca6XBa4tMuab1O-E9UEF0=", "properties": {"@source_uri": "https://tools.usps.com/UspsToolsRestServices/rest/POLocator/findLocations", "@spider": "usps_collection_boxes", "addr:city": "HALLOCK", "addr:country": "US", "addr:postcode": "56728", "addr:state": "MN", "addr:street_address": "105 S BIRCH AVE", "amenity": "post_box", "collection_times": "Mo-Fr 16:00; Sa 10:00", "note": "ON 12/24 AND 12/31, THIS BOX MAY BE COLLECTED AS EARLY AS 12 NOON.", "nsi_id": "unitedstatespostalservice-a77078", "operator": "United States Postal Service", "operator:short": "USPS", "operator:type": "public", "operator:wikidata": "Q668687", "ref": "5672800001"}, "type": "Feature"}
{"geometry": {"coordinates": [-96.944761444, 48.775344884], "type": "Point"}, "id": "r3wix3qdfMfvTr_1VCtHuvgMABY=", "properties": {"@source_uri": "https://tools.usps.com/UspsToolsRestServices/rest/POLocator/findLocations", "@spider": "usps_collection_boxes", "addr:city": "HALLOCK", "addr:country": "US", "addr:postcode": "56728", "addr:state": "MN", "addr:street_address": "105 S BIRCH AVE", "amenity": "post_box", "collection_times": "Mo-Fr 16:00; Sa 10:30", "indoor": "yes", "note": "ON 12/24 AND 12/31, THIS BOX MAY BE COLLECTED AS EARLY AS 12 NOON.", "nsi_id": "unitedstatespostalservice-a77078", "operator": "United States Postal Service", "operator:short": "USPS", "operator:type": "public", "operator:wikidata": "Q668687", "ref": "5672800002"}, "type": "Feature"}
{"geometry": {"coordinates": [-96.944761444, 48.775344884], "type": "Point"}, "id": "cZCuLudz4hIFrIqzLRr70DinzqM=", "properties": {"@source_uri": "https://tools.usps.com/UspsToolsRestServices/rest/POLocator/findLocations", "@spider": "usps_collection_boxes", "addr:city": "HALLOCK", "addr:country": "US", "addr:postcode": "56728", "addr:state": "MN", "addr:street_address": "105 S BIRCH AVE", "amenity": "post_box", "collection_times": "Mo-Fr 16:30; Sa 10:15", "indoor": "yes", "note": "ON 12/24 AND 12/31, THIS BOX MAY BE COLLECTED AS EARLY AS 12 NOON.", "nsi_id": "unitedstatespostalservice-a77078", "operator": "United States Postal Service", "operator:short": "USPS", "operator:type": "public", "operator:wikidata": "Q668687", "ref": "5672800003"}, "type": "Feature"}
{"geometry": {"coordinates": [-97.092173765, 48.92219529], "type": "Point"}, "id": "oPhsFo5YbtUL3d3DzlwpTHeChW0=", "properties": {"@source_uri": "https://tools.usps.com/UspsToolsRestServices/rest/POLocator/findLocations", "@spider": "usps_collection_boxes", "addr:city": "HUMBOLDT", "addr:country": "US", "addr:postcode": "56731", "addr:state": "MN", "addr:street_address": "301 MAIN ST", "amenity": "post_box", "collection_times": "Mo-Fr 11:45; Sa 12:45", "note": "ON 12/24 AND 12/31, THIS BOX MAY BE COLLECTED AS EARLY AS 12 NOON.", "nsi_id": "unitedstatespostalservice-a77078", "operator": "United States Postal Service", "operator:short": "USPS", "operator:type": "public", "operator:wikidata": "Q668687", "ref": "5673100001"}, "type": "Feature"}
{"geometry": {"coordinates": [-97.092173765, 48.92219529], "type": "Point"}, "id": "s6dE1Lq38YcKn-i9KIhlbCRErTY=", "properties": {"@source_uri": "https://tools.usps.com/UspsToolsRestServices/rest/POLocator/findLocations", "@spider": "usps_collection_boxes", "addr:city": "HUMBOLDT", "addr:country": "US", "addr:postcode": "56731", "addr:state": "MN", "addr:street_address": "301 MAIN ST", "amenity": "post_box", "collection_times": "Mo-Fr 11:50; Sa 12:50", "indoor": "yes", "note": "ON 12/24 AND 12/31, THIS BOX MAY BE COLLECTED AS EARLY AS 12 NOON.", "nsi_id": "unitedstatespostalservice-a77078", "operator": "United States Postal Service", "operator:short": "USPS", "operator:type": "public", "operator:wikidata": "Q668687", "ref": "5673100002"}, "type": "Feature"}
{"geometry": {"coordinates": [-96.52157064, 48.578017288], "type": "Point"}, "id": "j9OXobuPDDqKGhivEuMhGurva0c=", "properties": {"@source_uri": "https://tools.usps.com/UspsToolsRestServices/rest/POLocator/findLocations", "@spider": "usps_collection_boxes", "addr:city": "KARLSTAD", "addr:country": "US", "addr:postcode": "56732", "addr:state": "MN", "addr:street_address": "107 MAIN ST S", "amenity": "post_box", "collection_times": "Mo-Fr 16:30; Sa 10:00", "note": "ON 12/24 AND 12/31, THIS BOX MAY BE COLLECTED AS EARLY AS 12 NOON.", "nsi_id": "unitedstatespostalservice-a77078", "operator": "United States Postal Service", "operator:short": "USPS", "operator:type": "public", "operator:wikidata": "Q668687", "ref": "5673200001"}, "type": "Feature"}
{"geometry": {"coordinates": [-96.52157064, 48.578017288], "type": "Point"}, "id": "SNNsyJNq3YiLkcrV0K03pJeerQA=", "properties": {"@source_uri": "https://tools.usps.com/UspsToolsRestServices/rest/POLocator/findLocations", "@spider": "usps_collection_boxes", "addr:city": "KARLSTAD", "addr:country": "US", "addr:postcode": "56732", "addr:state": "MN", "addr:street_address": "107 MAIN ST S", "amenity": "post_box", "collection_times": "Mo-Fr 16:00; Sa 10:15", "indoor": "yes", "note": "ON 12/24 AND 12/31, THIS BOX MAY BE COLLECTED AS EARLY AS 12 NOON.", "nsi_id": "unitedstatespostalservice-a77078", "operator": "United States Postal Service", "operator:short": "USPS", "operator:type": "public", "operator:wikidata": "Q668687", "ref": "5673200002"}, "type": "Feature"}
{"geometry": {"coordinates": [-96.909271291, 48.643138118], "type": "Point"}, "id": "rsL11UQy75jYE1Rf9QA1JdOqMMQ=", "properties": {"@source_uri": "https://tools.usps.com/UspsToolsRestServices/rest/POLocator/findLocations", "@spider": "usps_collection_boxes", "addr:city": "KENNEDY", "addr:country": "US", "addr:postcode": "56733", "addr:state": "MN", "addr:street_address": "510 ATLANTIC AVE", "amenity": "post_box", "collection_times": "Mo-Fr 11:45; Sa 11:00", "nsi_id": "unitedstatespostalservice-a77078", "operator": "United States Postal Service", "operator:short": "USPS", "operator:type": "public", "operator:wikidata": "Q668687", "ref": "5673300001"}, "type": "Feature"}
{"geometry": {"coordinates": [-96.909271291, 48.643138118], "type": "Point"}, "id": "qevoJnKwZXjnqS9CiJWPIOd2qhA=", "properties": {"@source_uri": "https://tools.usps.com/UspsToolsRestServices/rest/POLocator/findLocations", "@spider": "usps_collection_boxes", "addr:city": "KENNEDY", "addr:country": "US", "addr:postcode": "56733", "addr:state": "MN", "addr:street_address": "510 ATLANTIC AVE", "amenity": "post_box", "collection_times": "Mo-Fr 12:00", "indoor": "yes", "nsi_id": "unitedstatespostalservice-a77078", "operator": "United States Postal Service", "operator:short": "USPS", "operator:type": "public", "operator:wikidata": "Q668687", "ref": "5673300002"}, "type": "Feature"}
{"geometry": {"coordinates": [-96.663621863, 48.735764665], "type": "Point"}, "id": "B2wIkrW_XZKIVd5i1ciH36hodqQ=", "properties": {"@source_uri": "https://tools.usps.com/UspsToolsRestServices/rest/POLocator/findLocations", "@spider": "usps_collection_boxes", "addr:city": "LAKE BRONSON", "addr:country": "US", "addr:postcode": "56734", "addr:state": "MN", "addr:street_address": "101 N 1ST AVE", "amenity": "post_box", "collection_times": "Mo-Fr 11:45; Sa 09:00", "nsi_id": "unitedstatespostalservice-a77078", "operator": "United States Postal Service", "operator:short": "USPS", "operator:type": "public", "operator:wikidata": "Q668687", "ref": "5673400001"}, "type": "Feature"}
{"geometry": {"coordinates": [-96.663621863, 48.735764665], "type": "Point"}, "id": "YIoe0xxmYBWBYrlHb9uho5lA8FY=", "properties": {"@source_uri": "https://tools.usps.com/UspsToolsRestServices/rest/POLocator/findLocations", "@spider": "usps_collection_boxes", "addr:city": "LAKE BRONSON", "addr:country": "US", "addr:postcode": "56734", "addr:state": "MN", "addr:street_address": "101 N 1ST AVE", "amenity": "post_box", "collection_times": "Mo-Fr 12:00; Sa 09:15", "indoor": "yes", "nsi_id": "unitedstatespostalservice-a77078", "operator": "United States Postal Service", "operator:short": "USPS", "operator:type": "public", "operator:wikidata": "Q668687", "ref": "5673400002"}, "type": "Feature"}
{"geometry": {"coordinates": [-96.803861231, 48.858893665], "type": "Point"}, "id": "t5v9Ad7Kiz6UyVE_9oGqPGdNbvo=", "properties": {"@source_uri": "https://tools.usps.com/UspsToolsRestServices/rest/POLocator/findLocations", "@spider": "usps_collection_boxes", "addr:city": "LANCASTER", "addr:country": "US", "addr:postcode": "56735", "addr:state": "MN", "addr:street_address": "113 CENTRAL AVE S", "amenity": "post_box", "collection_times": "Mo-Fr 14:00; Sa 09:00", "note": "ON 12/24 AND 12/31, THIS BOX MAY BE COLLECTED AS EARLY AS 12 NOON.", "nsi_id": "unitedstatespostalservice-a77078", "operator": "United States Postal Service", "operator:short": "USPS", "operator:type": "public", "operator:wikidata": "Q668687", "ref": "5673500001"}, "type": "Feature"}
{"geometry": {"coordinates": [-96.803861231, 48.858893665], "type": "Point"}, "id": "xFUeK0ePKcxdnC2RIq6z0F1ws9o=", "properties": {"@source_uri": "https://tools.usps.com/UspsToolsRestServices/rest/POLocator/findLocations", "@spider": "usps_collection_boxes", "addr:city": "LANCASTER", "addr:country": "US", "addr:postcode": "56735", "addr:state": "MN", "addr:street_address": "113 CENTRAL AVE S", "amenity": "post_box", "collection_times": "Mo-Fr 14:15; Sa 09:15", "indoor": "yes", "note": "ON 12/24 AND 12/31, THIS BOX MAY BE COLLECTED AS EARLY AS 12 NOON.", "nsi_id": "unitedstatespostalservice-a77078", "operator": "United States Postal Service", "operator:short": "USPS", "operator:type": "public", "operator:wikidata": "Q668687", "ref": "5673500002"}, "type": "Feature"}
{"geometry": {"coordinates": [-96.141433687, 47.698280928], "type": "Point"}, "id": "3w4vSOOy8P9dwUOV9UojhelQuRg=", "properties": {"@source_uri": "https://tools.usps.com/UspsToolsRestServices/rest/POLocator/findLocations", "@spider": "usps_collection_boxes", "addr:city": "MENTOR", "addr:country": "US", "addr:postcode": "56736", "addr:state": "MN", "addr:street_address": "204 GARFIELD AVE N", "amenity": "post_box", "collection_times": "Mo-Fr 11:45; Sa 09:30", "nsi_id": "unitedstatespostalservice-a77078", "operator": "United States Postal Service", "operator:short": "USPS", "operator:type": "public", "operator:wikidata": "Q668687", "ref": "5673600001"}, "type": "Feature"}
{"geometry": {"coordinates": [-96.141433687, 47.698280928], "type": "Point"}, "id": "IcHkv9APdg9ZdmODUJC3bVoFIas=", "properties": {"@source_uri": "https://tools.usps.com/UspsToolsRestServices/rest/POLocator/findLocations", "@spider": "usps_collection_boxes", "addr:city": "MENTOR", "addr:country": "US", "addr:postcode": "56736", "addr:state": "MN", "addr:street_address": "204 GARFIELD AVE N", "amenity": "post_box", "collection_times": "Mo-Fr 12:00", "indoor": "yes", "nsi_id": "unitedstatespostalservice-a77078", "operator": "United States Postal Service", "operator:short": "USPS", "operator:type": "public", "operator:wikidata": "Q668687", "ref": "5673600002"}, "type": "Feature"}
{"geometry": {"coordinates": [-96.164124921, 48.434432098], "type": "Point"}, "id": "3r2yIcC2_4YgVgwL_dvMsXps8ww=", "properties": {"@source_uri": "https://tools.usps.com/UspsToolsRestServices/rest/POLocator/findLocations", "@spider": "usps_collection_boxes", "addr:city": "MIDDLE RIVER", "addr:country": "US", "addr:postcode": "56737", "addr:state": "MN", "addr:street_address": "208 HILL AVE S", "amenity": "post_box", "collection_times": "Mo-Fr 14:15; Sa 11:30", "note": "ON 12/24 AND 12/31, THIS BOX MAY BE COLLECTED AS EARLY AS 12 NOON.", "nsi_id": "unitedstatespostalservice-a77078", "operator": "United States Postal Service", "operator:short": "USPS", "operator:type": "public", "operator:wikidata": "Q668687", "ref": "5673700001"}, "type": "Feature"}
{"geometry": {"coordinates": [-96.164124921, 48.434432098], "type": "Point"}, "id": "mijOC2uer0JPgfNNbvlpAgQjNAw=", "properties": {"@source_uri": "https://tools.usps.com/UspsToolsRestServices/rest/POLocator/findLocations", "@spider": "usps_collection_boxes", "addr:city": "MIDDLE RIVER", "addr:country": "US", "addr:postcode": "56737", "addr:state": "MN", "addr:street_address": "208 HILL AVE S", "amenity": "post_box", "collection_times": "Mo-Fr 14:30; Sa 09:45", "indoor": "yes", "note": "ON 12/24 AND 12/31, THIS BOX MAY BE COLLECTED AS EARLY AS 12 NOON.", "nsi_id": "unitedstatespostalservice-a77078", "operator": "United States Postal Service", "operator:short": "USPS", "operator:type": "public", "operator:wikidata": "Q668687", "ref": "5673700002"}, "type": "Feature"}
{"geometry": {"coordinates": [-96.329188159, 48.356432201], "type": "Point"}, "id": "vSRudtcFVtZYtKbR7slEnYmG5lk=", "properties": {"@source_uri": "https://tools.usps.com/UspsToolsRestServices/rest/POLocator/findLocations", "@spider": "usps_collection_boxes", "addr:city": "NEW FOLDEN", "addr:country": "US", "addr:postcode": "56738", "addr:state": "MN", "addr:street_address": "120 S MAIN ST", "amenity": "post_box", "collection_times": "Mo-Fr 14:15; Sa 09:45", "note": "ON 12/24 AND 12/31, THIS BOX MAY BE COLLECTED AS EARLY AS 12 NOON.", "nsi_id": "unitedstatespostalservice-a77078", "operator": "United States Postal Service", "operator:short": "USPS", "operator:type": "public", "operator:wikidata": "Q668687", "ref": "5673800001"}, "type": "Feature"}
{"geometry": {"coordinates": [-96.329188159, 48.356432201], "type": "Point"}, "id": "anRHKdzzlVxN2_XV2SYJ4Az2__4=", "properties": {"@source_uri": "https://tools.usps.com/UspsToolsRestServices/rest/POLocator/findLocations", "@spider": "usps_collection_boxes", "addr:city": "NEW FOLDEN", "addr:country": "US", "addr:postcode": "56738", "addr:state": "MN", "addr:street_address": "120 S MAIN ST", "amenity": "post_box", "collection_times": "Mo-Fr 14:30; Sa 10:00", "indoor": "yes", "note": "ON 12/24 AND 12/31, THIS BOX MAY BE COLLECTED AS EARLY AS 12 NOON.", "nsi_id": "unitedstatespostalservice-a77078", "operator": "United States Postal Service", "operator:short": "USPS", "operator:type": "public", "operator:wikidata": "Q668687", "ref": "5673800002"}, "type": "Feature"}
{"geometry": {"coordinates": [-95.852658596, 47.839290246], "type": "Point"}, "id": "S1QGcDxswA3Z0NOC3WsExJ5u0vU=", "properties": {"@source_uri": "https://tools.usps.com/UspsToolsRestServices/rest/POLocator/findLocations", "@spider": "usps_collection_boxes", "addr:city": "OKLEE", "addr:country": "US", "addr:postcode": "56742", "addr:state": "MN", "addr:street_address": "202 2ND AVE", "amenity": "post_box", "collection_times": "Mo-Fr 14:15; Sa 09:45", "note": "ON 12/24 AND 12/31, THIS BOX MAY BE COLLECTED AS EARLY AS 12 NOON.", "nsi_id": "unitedstatespostalservice-a77078", "operator": "United States Postal Service", "operator:short": "USPS", "operator:type": "public", "operator:wikidata": "Q668687", "ref": "5674200001"}, "type": "Feature"}
{"geometry": {"coordinates": [-95.852658596, 47.839290246], "type": "Point"}, "id": "KZVJZWCZTE5uQk2THLcOs-haCkU=", "properties": {"@source_uri": "https://tools.usps.com/UspsToolsRestServices/rest/POLocator/findLocations", "@spider": "usps_collection_boxes", "addr:city": "OKLEE", "addr:country": "US", "addr:postcode": "56742", "addr:state": "MN", "addr:street_address": "202 2ND AVE", "amenity": "post_box", "collection_times": "Mo-Fr 14:30; Sa 10:00", "indoor": "yes", "note": "ON 12/24 AND 12/31, THIS BOX MAY BE COLLECTED AS EARLY AS 12 NOON.", "nsi_id": "unitedstatespostalservice-a77078", "operator": "United States Postal Service", "operator:short": "USPS", "operator:type": "public", "operator:wikidata": "Q668687", "ref": "5674200003"}, "type": "Feature"}
{"geometry": {"coordinates": [-97.1321723364, 48.1952490624], "type": "Point"}, "id": "U8fSo5LG7-6KoeZ0U2G2mPZVk90=", "properties": {"@source_uri": "https://tools.usps.com/UspsToolsRestServices/rest/POLocator/findLocations", "@spider": "usps_collection_boxes", "addr:city": "OSLO", "addr:country": "US", "addr:postcode": "56744", "addr:state": "MN", "addr:street_address": "312 MAIN ST", "amenity": "post_box", "collection_times": "Mo-Fr 11:45; Sa 09:15", "nsi_id": "unitedstatespostalservice-a77078", "operator": "United States Postal Service", "operator:short": "USPS", "operator:type": "public", "operator:wikidata": "Q668687", "ref": "5674400001"}, "type": "Feature"}
{"geometry": {"coordinates": [-97.1321723364, 48.1952490624], "type": "Point"}, "id": "cCffEjMjlsPKhZ8gVuXoIP0IyeY=", "properties": {"@source_uri": "https://tools.usps.com/UspsToolsRestServices/rest/POLocator/findLocations", "@spider": "usps_collection_boxes", "addr:city": "OSLO", "addr:country": "US", "addr:postcode": "56744", "addr:state": "MN", "addr:street_address": "312 MAIN ST", "amenity": "post_box", "collection_times": "Mo-Fr 12:00; Sa 09:30", "indoor": "yes", "nsi_id": "unitedstatespostalservice-a77078", "operator": "United States Postal Service", "operator:short": "USPS", "operator:type": "public", "operator:wikidata": "Q668687", "ref": "5674400002"}, "type": "Feature"}
{"geometry": {"coordinates": [-96.039915159, 47.911288227], "type": "Point"}, "id": "1c-hbRujVy0y6GGFagYBTRhJP8Y=", "properties": {"@source_uri": "https://tools.usps.com/UspsToolsRestServices/rest/POLocator/findLocations", "@spider": "usps_collection_boxes", "addr:city": "PLUMMER", "addr:country": "US", "addr:postcode": "56748", "addr:state": "MN", "addr:street_address": "210 CENTRAL AVE E", "amenity": "post_box", "collection_times": "Mo-Fr 11:45; Sa 08:30", "nsi_id": "unitedstatespostalservice-a77078", "operator": "United States Postal Service", "operator:short": "USPS", "operator:type": "public", "operator:wikidata": "Q668687", "ref": "5674800001"}, "type": "Feature"}
{"geometry": {"coordinates": [-96.039915159, 47.911288227], "type": "Point"}, "id": "kojhIzF0YsUTqoGZ3DLCyPqD51Q=", "properties": {"@source_uri": "https://tools.usps.com/UspsToolsRestServices/rest/POLocator/findLocations", "@spider": "usps_collection_boxes", "addr:city": "PLUMMER", "addr:country": "US", "addr:postcode": "56748", "addr:state": "MN", "addr:street_address": "210 CENTRAL AVE E", "amenity": "post_box", "collection_times": "Mo-Fr 12:00; Sa 08:55", "indoor": "yes", "nsi_id": "unitedstatespostalservice-a77078", "operator": "United States Postal Service", "operator:short": "USPS", "operator:type": "public", "operator:wikidata": "Q668687", "ref": "5674800002"}, "type": "Feature"}
{"geometry": {"coordinates": [-96.275399855, 47.883370181], "type": "Point"}, "id": "OQwry9YGUhorO_nbYhEXiJg5ypY=", "properties": {"@source_uri": "https://tools.usps.com/UspsToolsRestServices/rest/POLocator/findLocations", "@spider": "usps_collection_boxes", "addr:city": "RED LAKE FALLS", "addr:country": "US", "addr:postcode": "56750", "addr:state": "MN", "addr:street_address": "118 CHAMPAGNE AVE SW", "amenity": "post_box", "collection_times": "Mo-Fr 16:00; Sa 09:30", "note": "ON 12/24 AND 12/31, THIS BOX MAY BE COLLECTED AS EARLY AS 12 NOON.", "nsi_id": "unitedstatespostalservice-a77078", "operator": "United States Postal Service", "operator:short": "USPS", "operator:type": "public", "operator:wikidata": "Q668687", "ref": "5675000001"}, "type": "Feature"}
{"geometry": {"coordinates": [-96.275399855, 47.883370181], "type": "Point"}, "id": "YGQ9v6zCWZIZ-GUa0rLxMJkJCJM=", "properties": {"@source_uri": "https://tools.usps.com/UspsToolsRestServices/rest/POLocator/findLocations", "@spider": "usps_collection_boxes", "addr:city": "RED LAKE FALLS", "addr:country": "US", "addr:postcode": "56750", "addr:state": "MN", "addr:street_address": "118 CHAMPAGNE AVE SW", "amenity": "post_box", "collection_times": "Mo-Fr 16:15; Sa 09:30", "indoor": "yes", "note": "ON 12/24 AND 12/31, THIS BOX MAY BE COLLECTED AS EARLY AS 12 NOON.", "nsi_id": "unitedstatespostalservice-a77078", "operator": "United States Postal Service", "operator:short": "USPS", "operator:type": "public", "operator:wikidata": "Q668687", "ref": "5675000004"}, "type": "Feature"}
{"geometry": {"coordinates": [-96.264898709, 47.886565186], "type": "Point"}, "id": "T9ZHxtIh9vCvMW2Qk6pLElx3aEM=", "properties": {"@source_uri": "https://tools.usps.com/UspsToolsRestServices/rest/POLocator/findLocations", "@spider": "usps_collection_boxes", "addr:city": "RED LAKE FALLS", "addr:country": "US", "addr:postcode": "56750", "addr:state": "MN", "addr:street_address": "405 BRIDGE ST NE", "amenity": "post_box", "collection_times": "Mo-Sa 16:30", "note": "ON 12/24 AND 12/31, THIS BOX MAY BE COLLECTED AS EARLY AS 12 NOON.", "nsi_id": "unitedstatespostalservice-a77078", "operator": "United States Postal Service", "operator:short": "USPS", "operator:type": "public", "operator:wikidata": "Q668687", "ref": "5675000006"}, "type": "Feature"}
{"geometry": {"coordinates": [-95.762618713, 48.846153198], "type": "Point"}, "id": "l2lfYrwpm33FgtU1qB3t5BCS118=", "properties": {"@source_uri": "https://tools.usps.com/UspsToolsRestServices/rest/POLocator/findLocations", "@spider": "usps_collection_boxes", "addr:city": "ROSEAU", "addr:country": "US", "addr:postcode": "56751", "addr:state": "MN", "addr:street_address": "114 CENTER ST E", "amenity": "post_box", "collection_times": "Mo-Fr 17:00; Sa 16:30", "note": "ON 12/24 AND 12/31, THIS BOX MAY BE COLLECTED AS EARLY AS 12 NOON.", "nsi_id": "unitedstatespostalservice-a77078", "operator": "United States Postal Service", "operator:short": "USPS", "operator:type": "public", "operator:wikidata": "Q668687", "ref": "5675100005"}, "type": "Feature"}
{"geometry": {"coordinates": [-95.762618713, 48.846153198], "type": "Point"}, "id": "G-qmVp1rTjgtb_-FzXVsrctEk48=", "properties": {"@source_uri": "https://tools.usps.com/UspsToolsRestServices/rest/POLocator/findLocations", "@spider": "usps_collection_boxes", "addr:city": "ROSEAU", "addr:country": "US", "addr:postcode": "56751", "addr:state": "MN", "addr:street_address": "114 CENTER ST E", "amenity": "post_box", "collection_times": "Mo-Fr 16:30; Sa 10:30", "indoor": "yes", "note": "ON 12/24 AND 12/31, THIS BOX MAY BE COLLECTED AS EARLY AS 12 NOON.", "nsi_id": "unitedstatespostalservice-a77078", "operator": "United States Postal Service", "operator:short": "USPS", "operator:type": "public", "operator:wikidata": "Q668687", "ref": "5675100013"}, "type": "Feature"}
{"geometry": {"coordinates": [-96.2146534031, 48.0137765761], "type": "Point"}, "id": "5BZhY4tdXKSiGKga-Z-HBJLdTYg=", "properties": {"@source_uri": "https://tools.usps.com/UspsToolsRestServices/rest/POLocator/findLocations", "@spider": "usps_collection_boxes", "addr:city": "SAINT HILAIRE", "addr:country": "US", "addr:postcode": "56754", "addr:state": "MN", "addr:street_address": "302 N BROADWAY", "amenity": "post_box", "collection_times": "Mo-Fr 16:15; Sa 16:30", "note": "ON 12/24 AND 12/31, THIS BOX MAY BE COLLECTED AS EARLY AS 12 NOON.", "nsi_id": "unitedstatespostalservice-a77078", "operator": "United States Postal Service", "operator:short": "USPS", "operator:type": "public", "operator:wikidata": "Q668687", "ref": "5675400001"}, "type": "Feature"}
{"geometry": {"coordinates": [-96.214654893, 48.013771418], "type": "Point"}, "id": "3SMEYLOmGak3_lGNTek7uTDuRj4=", "properties": {"@source_uri": "https://tools.usps.com/UspsToolsRestServices/rest/POLocator/findLocations", "@spider": "usps_collection_boxes", "addr:city": "SAINT HILAIRE", "addr:country": "US", "addr:postcode": "56754", "addr:state": "MN", "addr:street_address": "302 N BROADWAY", "amenity": "post_box", "collection_times": "Mo-Fr 12:00; Sa 09:50", "indoor": "yes", "nsi_id": "unitedstatespostalservice-a77078", "operator": "United States Postal Service", "operator:short": "USPS", "operator:type": "public", "operator:wikidata": "Q668687", "ref": "5675400002"}, "type": "Feature"}
{"geometry": {"coordinates": [-96.874761674, 48.450287688], "type": "Point"}, "id": "5MFv4agnoSy4O-BH3N0uv57WIPc=", "properties": {"@source_uri": "https://tools.usps.com/UspsToolsRestServices/rest/POLocator/findLocations", "@spider": "usps_collection_boxes", "addr:city": "STEPHEN", "addr:country": "US", "addr:postcode": "56757", "addr:state": "MN", "addr:street_address": "422 5TH ST", "amenity": "post_box", "collection_times": "Mo-Fr 14:15; Sa 21:45", "note": "ON 12/24 AND 12/31, THIS BOX MAY BE COLLECTED AS EARLY AS 12 NOON.", "nsi_id": "unitedstatespostalservice-a77078", "operator": "United States Postal Service", "operator:short": "USPS", "operator:type": "public", "operator:wikidata": "Q668687", "ref": "5675700001"}, "type": "Feature"}
{"geometry": {"coordinates": [-96.874761674, 48.450287688], "type": "Point"}, "id": "GP-ornu7DwbyhBrjbN5wC7WshT8=", "properties": {"@source_uri": "https://tools.usps.com/UspsToolsRestServices/rest/POLocator/findLocations", "@spider": "usps_collection_boxes", "addr:city": "STEPHEN", "addr:country": "US", "addr:postcode": "56757", "addr:state": "MN", "addr:street_address": "422 5TH ST", "amenity": "post_box", "collection_times": "Mo-Fr 14:30", "indoor": "yes", "note": "ON 12/24 AND 12/31, THIS BOX MAY BE COLLECTED AS EARLY AS 12 NOON.", "nsi_id": "unitedstatespostalservice-a77078", "operator": "United States Postal Service", "operator:short": "USPS", "operator:type": "public", "operator:wikidata": "Q668687", "ref": "5675700002"}, "type": "Feature"}
{"geometry": {"coordinates": [-96.446489642, 48.490299557], "type": "Point"}, "id": "R-8fShorTaGg-G6xJc8aLRgFDbg=", "properties": {"@source_uri": "https://tools.usps.com/UspsToolsRestServices/rest/POLocator/findLocations", "@spider": "usps_collection_boxes", "addr:city": "STRANDQUIST", "addr:country": "US", "addr:postcode": "56758", "addr:state": "MN", "addr:street_address": "108 MAIN ST", "amenity": "post_box", "collection_times": "Mo-Fr 11:45; Sa 09:00", "nsi_id": "unitedstatespostalservice-a77078", "operator": "United States Postal Service", "operator:short": "USPS", "operator:type": "public", "operator:wikidata": "Q668687", "ref": "5675800001"}, "type": "Feature"}
{"geometry": {"coordinates": [-96.446489642, 48.490299557], "type": "Point"}, "id": "AIxbS1BsliOvIryehtfX2gttTls=", "properties": {"@source_uri": "https://tools.usps.com/UspsToolsRestServices/rest/POLocator/findLocations", "@spider": "usps_collection_boxes", "addr:city": "STRANDQUIST", "addr:country": "US", "addr:postcode": "56758", "addr:state": "MN", "addr:street_address": "108 MAIN ST", "amenity": "post_box", "collection_times": "Mo-Fr 12:00; Sa 09:15", "indoor": "yes", "nsi_id": "unitedstatespostalservice-a77078", "operator": "United States Postal Service", "operator:short": "USPS", "operator:type": "public", "operator:wikidata": "Q668687", "ref": "5675800002"}, "type": "Feature"}
{"geometry": {"coordinates": [-96.169022885, 48.553373656], "type": "Point"}, "id": "jVCTgnHa8lK0cK83-EXO_alngR4=", "properties": {"@source_uri": "https://tools.usps.com/UspsToolsRestServices/rest/POLocator/findLocations", "@spider": "usps_collection_boxes", "addr:city": "STRATHCONA", "addr:country": "US", "addr:postcode": "56759", "addr:state": "MN", "addr:street_address": "111 S 1ST ST", "amenity": "post_box", "collection_times": "Mo-Fr 11:45; Sa 09:15", "nsi_id": "unitedstatespostalservice-a77078", "operator": "United States Postal Service", "operator:short": "USPS", "operator:type": "public", "operator:wikidata": "Q668687", "ref": "5675900001"}, "type": "Feature"}
{"geometry": {"coordinates": [-96.169022885, 48.553373656], "type": "Point"}, "id": "VnU6hgFgY31O1ubX0X7t2y1mN14=", "properties": {"@source_uri": "https://tools.usps.com/UspsToolsRestServices/rest/POLocator/findLocations", "@spider": "usps_collection_boxes", "addr:city": "STRATHCONA", "addr:country": "US", "addr:postcode": "56759", "addr:state": "MN", "addr:street_address": "111 S 1ST ST", "amenity": "post_box", "collection_times": "Mo-Fr 11:45", "indoor": "yes", "nsi_id": "unitedstatespostalservice-a77078", "operator": "United States Postal Service", "operator:short": "USPS", "operator:type": "public", "operator:wikidata": "Q668687", "ref": "5675900002"}, "type": "Feature"}
{"geometry": {"coordinates": [-96.406104166, 48.218874111], "type": "Point"}, "id": "hiBCQgexm9PWJC7IKYxNN_cyN2o=", "properties": {"@source_uri": "https://tools.usps.com/UspsToolsRestServices/rest/POLocator/findLocations", "@spider": "usps_collection_boxes", "addr:city": "VIKING", "addr:country": "US", "addr:postcode": "56760", "addr:state": "MN", "addr:street_address": "101 N MAIN ST", "amenity": "post_box", "collection_times": "Mo-Fr 15:15; Sa 09:15", "note": "ON 12/24 AND 12/31, THIS BOX MAY BE COLLECTED AS EARLY AS 12 NOON.", "nsi_id": "unitedstatespostalservice-a77078", "operator": "United States Postal Service", "operator:short": "USPS", "operator:type": "public", "operator:wikidata": "Q668687", "ref": "5676000001"}, "type": "Feature"}
{"geometry": {"coordinates": [-96.406104166, 48.218874111], "type": "Point"}, "id": "IJf1I71bDM--nJ9niv2twWQQUHk=", "properties": {"@source_uri": "https://tools.usps.com/UspsToolsRestServices/rest/POLocator/findLocations", "@spider": "usps_collection_boxes", "addr:city": "VIKING", "addr:country": "US", "addr:postcode": "56760", "addr:state": "MN", "addr:street_address": "101 N MAIN ST", "amenity": "post_box", "collection_times": "Mo-Fr 15:15; Sa 12:25", "indoor": "yes", "note": "ON 12/24 AND 12/31, THIS BOX MAY BE COLLECTED AS EARLY AS 12 NOON.", "nsi_id": "unitedstatespostalservice-a77078", "operator": "United States Postal Service", "operator:short": "USPS", "operator:type": "public", "operator:wikidata": "Q668687", "ref": "5676000002"}, "type": "Feature"}
{"geometry": {"coordinates": [-95.732851968, 48.658398584], "type": "Point"}, "id": "c1e5KdItXl8bHaThywv2EezgnOo=", "properties": {"@source_uri": "https://tools.usps.com/UspsToolsRestServices/rest/POLocator/findLocations", "@spider": "usps_collection_boxes", "addr:city": "WANNASKA", "addr:country": "US", "addr:postcode": "56761", "addr:state": "MN", "addr:street_address": "39985 181ST ST", "amenity": "post_box", "collection_times": "Mo-Fr 13:30; Sa 11:15", "note": "ON 12/24 AND 12/31, THIS BOX MAY BE COLLECTED AS EARLY AS 12 NOON.", "nsi_id": "unitedstatespostalservice-a77078", "operator": "United States Postal Service", "operator:short": "USPS", "operator:type": "public", "operator:wikidata": "Q668687", "ref": "5676100001"}, "type": "Feature"}
{"geometry": {"coordinates": [-95.732851968, 48.658398584], "type": "Point"}, "id": "JHokXcuZaJYUfrzV6I2H_wMdcUk=", "properties": {"@source_uri": "https://tools.usps.com/UspsToolsRestServices/rest/POLocator/findLocations", "@spider": "usps_collection_boxes", "addr:city": "WANNASKA", "addr:country": "US", "addr:postcode": "56761", "addr:state": "MN", "addr:street_address": "39985 181ST ST", "amenity": "post_box", "collection_times": "Mo-Fr 14:00; Sa 12:50", "indoor": "yes", "note": "ON 12/24 AND 12/31, THIS BOX MAY BE COLLECTED AS EARLY AS 12 NOON.", "nsi_id": "unitedstatespostalservice-a77078", "operator": "United States Postal Service", "operator:short": "USPS", "operator:type": "public", "operator:wikidata": "Q668687", "ref": "5676100002"}, "type": "Feature"}
{"geometry": {"coordinates": [-96.774650396, 48.196542888], "type": "Point"}, "id": "Oo86R-Skm5oiAUwONgJvnVIGCXs=", "properties": {"@source_uri": "https://tools.usps.com/UspsToolsRestServices/rest/POLocator/findLocations", "@spider": "usps_collection_boxes", "addr:city": "WARREN", "addr:country": "US", "addr:postcode": "56762", "addr:state": "MN", "addr:street_address": "520 N MINNESOTA ST", "amenity": "post_box", "collection_times": "Mo-Sa 16:45", "note": "ON 12/24 AND 12/31, THIS BOX MAY BE COLLECTED AS EARLY AS 12 NOON.", "nsi_id": "unitedstatespostalservice-a77078", "operator": "United States Postal Service", "operator:short": "USPS", "operator:type": "public", "operator:wikidata": "Q668687", "ref": "5676200007"}, "type": "Feature"}
{"geometry": {"coordinates": [-96.774650396, 48.196542888], "type": "Point"}, "id": "1GmYMYGrjbfz3xw0dIXDxk2Khzc=", "properties": {"@source_uri": "https://tools.usps.com/UspsToolsRestServices/rest/POLocator/findLocations", "@spider": "usps_collection_boxes", "addr:city": "WARREN", "addr:country": "US", "addr:postcode": "56762", "addr:state": "MN", "addr:street_address": "520 N MINNESOTA ST", "amenity": "post_box", "collection_times": "Mo-Fr 16:45", "indoor": "yes", "note": "ON 12/24 AND 12/31, THIS BOX MAY BE COLLECTED AS EARLY AS 12 NOON.", "nsi_id": "unitedstatespostalservice-a77078", "operator": "United States Postal Service", "operator:short": "USPS", "operator:type": "public", "operator:wikidata": "Q668687", "ref": "5676200009"}, "type": "Feature"}
{"geometry": {"coordinates": [-95.317402103, 48.905752194], "type": "Point"}, "id": "enAoq4mxrhwVeH0poza4r4bbpJ4=", "properties": {"@source_uri": "https://tools.usps.com/UspsToolsRestServices/rest/POLocator/findLocations", "@spider": "usps_collection_boxes", "addr:city": "WARROAD", "addr:country": "US", "addr:postcode": "56763", "addr:state": "MN", "addr:street_address": "204 MAIN AVE NE", "amenity": "post_box", "collection_times": "Mo-Sa 16:00", "note": "ON 12/24 AND 12/31, THIS BOX MAY BE COLLECTED AS EARLY AS 12 NOON.", "nsi_id": "unitedstatespostalservice-a77078", "operator": "United States Postal Service", "operator:short": "USPS", "operator:type": "public", "operator:wikidata": "Q668687", "ref": "5676300001"}, "type": "Feature"}
{"geometry": {"coordinates": [-95.3234747, 48.9021949], "type": "Point"}, "id": "ytQjk7icC6A6NVNIVi1_1OvKA9E=", "properties": {"@source_uri": "https://tools.usps.com/UspsToolsRestServices/rest/POLocator/findLocations", "@spider": "usps_collection_boxes", "addr:city": "WARROAD", "addr:country": "US", "addr:postcode": "56763", "addr:state": "MN", "addr:street_address": "32598 482ND AVE", "amenity": "post_box", "collection_times": "Mo-Sa 16:15", "note": "ON 12/24 AND 12/31, THIS BOX MAY BE COLLECTED AS EARLY AS 12 NOON.", "nsi_id": "unitedstatespostalservice-a77078", "operator": "United States Postal Service", "operator:short": "USPS", "operator:type": "public", "operator:wikidata": "Q668687", "ref": "5676300004"}, "type": "Feature"}
{"geometry": {"coordinates": [-95.317402103, 48.905752194], "type": "Point"}, "id": "5q5jXD5apzzLbBKIqdV2kPwmv_U=", "properties": {"@source_uri": "https://tools.usps.com/UspsToolsRestServices/rest/POLocator/findLocations", "@spider": "usps_collection_boxes", "addr:city": "WARROAD", "addr:country": "US", "addr:postcode": "56763", "addr:state": "MN", "addr:street_address": "204 MAIN AVE NE", "amenity": "post_box", "collection_times": "Mo-Fr 16:00; Sa 10:30", "indoor": "yes", "note": "ON 12/24 AND 12/31, THIS BOX MAY BE COLLECTED AS EARLY AS 12 NOON.", "nsi_id": "unitedstatespostalservice-a77078", "operator": "United States Postal Service", "operator:short": "USPS", "operator:type": "public", "operator:wikidata": "Q668687", "ref": "5676300005"}, "type": "Feature"}
