{"geometry": {"coordinates": [-96.629543966, 43.021205864], "type": "Point"}, "id": "U2LioFWVM_d2hrkeiSjemAPpblU=", "properties": {"@source_uri": "https://tools.usps.com/UspsToolsRestServices/rest/POLocator/findLocations", "@spider": "usps_collection_boxes", "addr:city": "ALCESTER", "addr:country": "US", "addr:full": "111 DAKOTA ST", "addr:postcode": "57001", "addr:state": "SD", "amenity": "post_box", "brand": "United States Postal Service", "brand:wikidata": "Q668687", "collection_times": "Mo-Sa 15:45", "name": "USPS COLLECTION BOX - BLUE BOX", "note": "ON 12/24 AND 12/31, THIS BOX MAY BE COLLECTED AS EARLY AS 12 NOON.", "nsi_id": "unitedstatespostalservice-a77078", "operator": "United States Postal Service", "operator:short": "USPS", "operator:type": "public", "operator:wikidata": "Q668687", "ref": "5700100001"}, "type": "Feature"}
{"geometry": {"coordinates": [-96.629543966, 43.021205864], "type": "Point"}, "id": "Vqv-42FqscY8NNaCfPqIrT6Y1GY=", "properties": {"@source_uri": "https://tools.usps.com/UspsToolsRestServices/rest/POLocator/findLocations", "@spider": "usps_collection_boxes", "addr:city": "ALCESTER", "addr:country": "US", "addr:full": "111 DAKOTA ST", "addr:postcode": "57001", "addr:state": "SD", "amenity": "post_box", "brand": "United States Postal Service", "brand:wikidata": "Q668687", "collection_times": "Mo-Fr 15:45; Sa 10:00", "name": "USPS COLLECTION BOX - PO LOBBY", "note": "ON 12/24 AND 12/31, THIS BOX MAY BE COLLECTED AS EARLY AS 12 NOON.", "nsi_id": "unitedstatespostalservice-a77078", "operator": "United States Postal Service", "operator:short": "USPS", "operator:type": "public", "operator:wikidata": "Q668687", "ref": "5700100003"}, "type": "Feature"}
{"geometry": {"coordinates": [-96.629543966, 43.021205864], "type": "Point"}, "id": "jQ2T8QxvVR-Jed2tXmmEnyPQSDg=", "properties": {"@source_uri": "https://tools.usps.com/UspsToolsRestServices/rest/POLocator/findLocations", "@spider": "usps_collection_boxes", "addr:city": "ALCESTER", "addr:country": "US", "addr:full": "111 DAKOTA ST", "addr:postcode": "57001", "addr:state": "SD", "amenity": "post_box", "brand": "United States Postal Service", "brand:wikidata": "Q668687", "collection_times": "Mo-Fr 15:45; Sa 09:45", "name": "USPS COLLECTION BOX - PO LOBBY", "note": "ON 12/24 AND 12/31, THIS BOX MAY BE COLLECTED AS EARLY AS 12 NOON.", "nsi_id": "unitedstatespostalservice-a77078", "operator": "United States Postal Service", "operator:short": "USPS", "operator:type": "public", "operator:wikidata": "Q668687", "ref": "5700100005"}, "type": "Feature"}
{"geometry": {"coordinates": [-96.687633955, 44.284270113], "type": "Point"}, "id": "gU1MeAbsW6zObKt4hLdBLrLfdxU=", "properties": {"@source_uri": "https://tools.usps.com/UspsToolsRestServices/rest/POLocator/findLocations", "@spider": "usps_collection_boxes", "addr:city": "AURORA", "addr:country": "US", "addr:full": "219 N BROADWAY ST", "addr:postcode": "57002", "addr:state": "SD", "amenity": "post_box", "brand": "United States Postal Service", "brand:wikidata": "Q668687", "collection_times": "Mo-Sa 16:00", "name": "USPS COLLECTION BOX - BLUE BOX", "note": "ON 12/24 AND 12/31, THIS BOX MAY BE COLLECTED AS EARLY AS 12 NOON.", "nsi_id": "unitedstatespostalservice-a77078", "operator": "United States Postal Service", "operator:short": "USPS", "operator:type": "public", "operator:wikidata": "Q668687", "ref": "5700200001"}, "type": "Feature"}
{"geometry": {"coordinates": [-96.687633955, 44.284270113], "type": "Point"}, "id": "6NAAROg4CmmR5-I8ZB5gIEVK01A=", "properties": {"@source_uri": "https://tools.usps.com/UspsToolsRestServices/rest/POLocator/findLocations", "@spider": "usps_collection_boxes", "addr:city": "AURORA", "addr:country": "US", "addr:full": "219 N BROADWAY ST", "addr:postcode": "57002", "addr:state": "SD", "amenity": "post_box", "brand": "United States Postal Service", "brand:wikidata": "Q668687", "collection_times": "Mo-Fr 12:15; Sa 09:15", "name": "USPS COLLECTION BOX - PO LOBBY", "note": "ON 12/24 AND 12/31, THIS BOX MAY BE COLLECTED AS EARLY AS 12 NOON.", "nsi_id": "unitedstatespostalservice-a77078", "operator": "United States Postal Service", "operator:short": "USPS", "operator:type": "public", "operator:wikidata": "Q668687", "ref": "5700200002"}, "type": "Feature"}
{"geometry": {"coordinates": [-96.687633955, 44.284270113], "type": "Point"}, "id": "SzA9uoEbUGbv5dK6sKfrI7Szd_0=", "properties": {"@source_uri": "https://tools.usps.com/UspsToolsRestServices/rest/POLocator/findLocations", "@spider": "usps_collection_boxes", "addr:city": "AURORA", "addr:country": "US", "addr:full": "219 N BROADWAY ST", "addr:postcode": "57002", "addr:state": "SD", "amenity": "post_box", "brand": "United States Postal Service", "brand:wikidata": "Q668687", "collection_times": "Mo-Fr 12:05; Sa 09:05", "name": "USPS COLLECTION BOX - PO LOBBY", "note": "ON 12/24 AND 12/31, THIS BOX MAY BE COLLECTED AS EARLY AS 12 NOON.", "nsi_id": "unitedstatespostalservice-a77078", "operator": "United States Postal Service", "operator:short": "USPS", "operator:type": "public", "operator:wikidata": "Q668687", "ref": "5700200004"}, "type": "Feature"}
{"geometry": {"coordinates": [-96.7400400139, 43.7604299904], "type": "Point"}, "id": "Q0_LvYpUJ4Nqg2k92FW2SAJAozQ=", "properties": {"@source_uri": "https://tools.usps.com/UspsToolsRestServices/rest/POLocator/findLocations", "@spider": "usps_collection_boxes", "addr:city": "BALTIC", "addr:country": "US", "addr:full": "132 ST OLAF AVE", "addr:postcode": "57003", "addr:state": "SD", "amenity": "post_box", "brand": "United States Postal Service", "brand:wikidata": "Q668687", "collection_times": "Mo-Fr 16:15; Sa 16:30", "name": "USPS COLLECTION BOX - BLUE BOX", "note": "ON 12/24 AND 12/31, THIS BOX MAY BE COLLECTED AS EARLY AS 12 NOON.", "nsi_id": "unitedstatespostalservice-a77078", "operator": "United States Postal Service", "operator:short": "USPS", "operator:type": "public", "operator:wikidata": "Q668687", "ref": "5700300001"}, "type": "Feature"}
{"geometry": {"coordinates": [-96.740051307, 43.76014753], "type": "Point"}, "id": "KGMlSVjZDu5T7oLFDx8OnKqQ_Iw=", "properties": {"@source_uri": "https://tools.usps.com/UspsToolsRestServices/rest/POLocator/findLocations", "@spider": "usps_collection_boxes", "addr:city": "BALTIC", "addr:country": "US", "addr:full": "132 ST OLAF AVE", "addr:postcode": "57003", "addr:state": "SD", "amenity": "post_box", "brand": "United States Postal Service", "brand:wikidata": "Q668687", "collection_times": "Mo-Fr 15:30; Sa 09:00", "name": "USPS COLLECTION BOX - PO LOBBY", "note": "ON 12/24 AND 12/31, THIS BOX MAY BE COLLECTED AS EARLY AS 12 NOON.", "nsi_id": "unitedstatespostalservice-a77078", "operator": "United States Postal Service", "operator:short": "USPS", "operator:type": "public", "operator:wikidata": "Q668687", "ref": "5700300002"}, "type": "Feature"}
{"geometry": {"coordinates": [-96.740051307, 43.76014753], "type": "Point"}, "id": "qCSYIIABYPmg8VJgqgChFQg1Le8=", "properties": {"@source_uri": "https://tools.usps.com/UspsToolsRestServices/rest/POLocator/findLocations", "@spider": "usps_collection_boxes", "addr:city": "BALTIC", "addr:country": "US", "addr:full": "132 ST OLAF AVE", "addr:postcode": "57003", "addr:state": "SD", "amenity": "post_box", "brand": "United States Postal Service", "brand:wikidata": "Q668687", "collection_times": "Mo-Fr 15:20; Sa 08:50", "name": "USPS COLLECTION BOX - PO LOBBY", "note": "ON 12/24 AND 12/31, THIS BOX MAY BE COLLECTED AS EARLY AS 12 NOON.", "nsi_id": "unitedstatespostalservice-a77078", "operator": "United States Postal Service", "operator:short": "USPS", "operator:type": "public", "operator:wikidata": "Q668687", "ref": "5700300004"}, "type": "Feature"}
{"geometry": {"coordinates": [-96.773994941, 43.08027345], "type": "Point"}, "id": "X7GFRU_Zza7O7NWWQYoNoj-IIjs=", "properties": {"@source_uri": "https://tools.usps.com/UspsToolsRestServices/rest/POLocator/findLocations", "@spider": "usps_collection_boxes", "addr:city": "BERESFORD", "addr:country": "US", "addr:full": "100 S 3RD ST", "addr:postcode": "57004", "addr:state": "SD", "amenity": "post_box", "brand": "United States Postal Service", "brand:wikidata": "Q668687", "collection_times": "Mo-Fr 15:45; Sa 08:45", "name": "USPS COLLECTION BOX - PO LOBBY", "note": "ON 12/24 AND 12/31, THIS BOX MAY BE COLLECTED AS EARLY AS 12 NOON.", "nsi_id": "unitedstatespostalservice-a77078", "operator": "United States Postal Service", "operator:short": "USPS", "operator:type": "public", "operator:wikidata": "Q668687", "ref": "5700400004"}, "type": "Feature"}
{"geometry": {"coordinates": [-96.773994941, 43.08027345], "type": "Point"}, "id": "F8iRyLBemxRE6w_Aw0zqWegQw9M=", "properties": {"@source_uri": "https://tools.usps.com/UspsToolsRestServices/rest/POLocator/findLocations", "@spider": "usps_collection_boxes", "addr:city": "BERESFORD", "addr:country": "US", "addr:full": "100 S 3RD ST", "addr:postcode": "57004", "addr:state": "SD", "amenity": "post_box", "brand": "United States Postal Service", "brand:wikidata": "Q668687", "collection_times": "Mo-Fr 17:00; Sa 17:45", "name": "USPS COLLECTION BOX - BLUE BOX", "note": "ON 12/24 AND 12/31, THIS BOX MAY BE COLLECTED AS EARLY AS 12 NOON.", "nsi_id": "unitedstatespostalservice-a77078", "operator": "United States Postal Service", "operator:short": "USPS", "operator:type": "public", "operator:wikidata": "Q668687", "ref": "5700400005"}, "type": "Feature"}
{"geometry": {"coordinates": [-96.773994941, 43.08027345], "type": "Point"}, "id": "CZqyJ0Eo24zpu5y_bkxJRRcYjRI=", "properties": {"@source_uri": "https://tools.usps.com/UspsToolsRestServices/rest/POLocator/findLocations", "@spider": "usps_collection_boxes", "addr:city": "BERESFORD", "addr:country": "US", "addr:full": "100 S 3RD ST", "addr:postcode": "57004", "addr:state": "SD", "amenity": "post_box", "brand": "United States Postal Service", "brand:wikidata": "Q668687", "collection_times": "Mo-Fr 15:45; Sa 08:45", "name": "USPS COLLECTION BOX - PO LOBBY", "note": "ON 12/24 AND 12/31, THIS BOX MAY BE COLLECTED AS EARLY AS 12 NOON.", "nsi_id": "unitedstatespostalservice-a77078", "operator": "United States Postal Service", "operator:short": "USPS", "operator:type": "public", "operator:wikidata": "Q668687", "ref": "5700400007"}, "type": "Feature"}
{"geometry": {"coordinates": [-96.58704, 43.59159], "type": "Point"}, "id": "XZ6SIOBI2Aksngr5BoRA1TeykVo=", "properties": {"@source_uri": "https://tools.usps.com/UspsToolsRestServices/rest/POLocator/findLocations", "@spider": "usps_collection_boxes", "addr:city": "BRANDON", "addr:country": "US", "addr:full": "1420 E ASPEN BLVD", "addr:postcode": "57005", "addr:state": "SD", "amenity": "post_box", "brand": "United States Postal Service", "brand:wikidata": "Q668687", "collection_times": "Mo-Sa 17:00", "name": "USPS COLLECTION BOX - BLUE BOX", "note": "ON 12/24 AND 12/31, THIS BOX MAY BE COLLECTED AS EARLY AS 12 NOON.", "nsi_id": "unitedstatespostalservice-a77078", "operator": "United States Postal Service", "operator:short": "USPS", "operator:type": "public", "operator:wikidata": "Q668687", "ref": "5700500006"}, "type": "Feature"}
{"geometry": {"coordinates": [-96.5691684745, 43.5892184905], "type": "Point"}, "id": "Y1kbQRNGj-dOb2UvqVsGLXOrYb4=", "properties": {"@source_uri": "https://tools.usps.com/UspsToolsRestServices/rest/POLocator/findLocations", "@spider": "usps_collection_boxes", "addr:city": "BRANDON", "addr:country": "US", "addr:full": "1420 E ASPEN BLVD", "addr:postcode": "57005", "addr:state": "SD", "amenity": "post_box", "brand": "United States Postal Service", "brand:wikidata": "Q668687", "collection_times": "Mo-Fr 17:00", "name": "USPS COLLECTION BOX - PO LOBBY", "note": "ON 12/24 AND 12/31, THIS BOX MAY BE COLLECTED AS EARLY AS 12 NOON.", "nsi_id": "unitedstatespostalservice-a77078", "operator": "United States Postal Service", "operator:short": "USPS", "operator:type": "public", "operator:wikidata": "Q668687", "ref": "5700500012"}, "type": "Feature"}
{"geometry": {"coordinates": [-96.5691684745, 43.5892184905], "type": "Point"}, "id": "nW-92smnfBnr66LoJVTz0dcBx0M=", "properties": {"@source_uri": "https://tools.usps.com/UspsToolsRestServices/rest/POLocator/findLocations", "@spider": "usps_collection_boxes", "addr:city": "BRANDON", "addr:country": "US", "addr:full": "1420 E ASPEN BLVD", "addr:postcode": "57005", "addr:state": "SD", "amenity": "post_box", "brand": "United States Postal Service", "brand:wikidata": "Q668687", "collection_times": "Mo-Fr 16:50; Sa 11:50", "name": "USPS COLLECTION BOX - PO LOBBY", "note": "ON 12/24 AND 12/31, THIS BOX MAY BE COLLECTED AS EARLY AS 12 NOON.", "nsi_id": "unitedstatespostalservice-a77078", "operator": "United States Postal Service", "operator:short": "USPS", "operator:type": "public", "operator:wikidata": "Q668687", "ref": "5700500017"}, "type": "Feature"}
{"geometry": {"coordinates": [-96.798556165, 44.310342335], "type": "Point"}, "id": "ccTsA5rtmRZXoW0VkhrOa_OWcw0=", "properties": {"@source_uri": "https://tools.usps.com/UspsToolsRestServices/rest/POLocator/findLocations", "@spider": "usps_collection_boxes", "addr:city": "BROOKINGS", "addr:country": "US", "addr:full": "500 MAIN AVE", "addr:postcode": "57006", "addr:state": "SD", "amenity": "post_box", "brand": "United States Postal Service", "brand:wikidata": "Q668687", "collection_times": "Mo-Fr 17:30; Sa 16:30", "name": "USPS COLLECTION BOX - PO LOBBY", "note": "ON 12/24 AND 12/31, THIS BOX MAY BE COLLECTED AS EARLY AS 12 NOON.", "nsi_id": "unitedstatespostalservice-a77078", "operator": "United States Postal Service", "operator:short": "USPS", "operator:type": "public", "operator:wikidata": "Q668687", "ref": "5700600005"}, "type": "Feature"}
{"geometry": {"coordinates": [-96.775956497, 44.311372048], "type": "Point"}, "id": "pOYlHXqtcWAY88hlAGKODbPyojU=", "properties": {"@source_uri": "https://tools.usps.com/UspsToolsRestServices/rest/POLocator/findLocations", "@spider": "usps_collection_boxes", "addr:city": "BROOKINGS", "addr:country": "US", "addr:full": "1720 6TH ST", "addr:postcode": "57006", "addr:state": "SD", "amenity": "post_box", "brand": "United States Postal Service", "brand:wikidata": "Q668687", "collection_times": "Mo-Sa 13:30", "name": "USPS COLLECTION BOX - BLUE BOX", "note": "ON 12/24 AND 12/31, THIS BOX MAY BE COLLECTED AS EARLY AS 12 NOON.", "nsi_id": "unitedstatespostalservice-a77078", "operator": "United States Postal Service", "operator:short": "USPS", "operator:type": "public", "operator:wikidata": "Q668687", "ref": "5700600014"}, "type": "Feature"}
{"geometry": {"coordinates": [-96.767824509, 44.346147895], "type": "Point"}, "id": "TxTH8GzOJfqqun4Y1e45WdjxL4Q=", "properties": {"@source_uri": "https://tools.usps.com/UspsToolsRestServices/rest/POLocator/findLocations", "@spider": "usps_collection_boxes", "addr:city": "BROOKINGS", "addr:country": "US", "addr:full": "300 22ND AVE", "addr:postcode": "57006", "addr:state": "SD", "amenity": "post_box", "brand": "United States Postal Service", "brand:wikidata": "Q668687", "collection_times": "Mo-Sa 15:00", "name": "USPS COLLECTION BOX - BLUE BOX", "note": "ON 12/24 AND 12/31, THIS BOX MAY BE COLLECTED AS EARLY AS 12 NOON.", "nsi_id": "unitedstatespostalservice-a77078", "operator": "United States Postal Service", "operator:short": "USPS", "operator:type": "public", "operator:wikidata": "Q668687", "ref": "5700600016"}, "type": "Feature"}
{"geometry": {"coordinates": [-96.768233609, 44.302193329], "type": "Point"}, "id": "SNavDX_Xf6qtrYzIlnrAugt7UqM=", "properties": {"@source_uri": "https://tools.usps.com/UspsToolsRestServices/rest/POLocator/findLocations", "@spider": "usps_collection_boxes", "addr:city": "BROOKINGS", "addr:country": "US", "addr:full": "337 22ND AVE S", "addr:postcode": "57006", "addr:state": "SD", "amenity": "post_box", "brand": "United States Postal Service", "brand:wikidata": "Q668687", "collection_times": "Mo-Fr 15:15", "name": "USPS COLLECTION BOX - BLUE BOX", "note": "ON 12/24 AND 12/31, THIS BOX MAY BE COLLECTED AS EARLY AS 12 NOON.", "nsi_id": "unitedstatespostalservice-a77078", "operator": "United States Postal Service", "operator:short": "USPS", "operator:type": "public", "operator:wikidata": "Q668687", "ref": "5700600018"}, "type": "Feature"}
{"geometry": {"coordinates": [-96.768423074, 44.296785941], "type": "Point"}, "id": "LdGeTzjdhlwymuf8ocO8mfrpADU=", "properties": {"@source_uri": "https://tools.usps.com/UspsToolsRestServices/rest/POLocator/findLocations", "@spider": "usps_collection_boxes", "addr:city": "BROOKINGS", "addr:country": "US", "addr:full": "710 22ND AVE S", "addr:postcode": "57006", "addr:state": "SD", "amenity": "post_box", "brand": "United States Postal Service", "brand:wikidata": "Q668687", "collection_times": "Mo-Sa 15:15", "name": "USPS COLLECTION BOX - BLUE BOX", "note": "ON 12/24 AND 12/31, THIS BOX MAY BE COLLECTED AS EARLY AS 12 NOON.", "nsi_id": "unitedstatespostalservice-a77078", "operator": "United States Postal Service", "operator:short": "USPS", "operator:type": "public", "operator:wikidata": "Q668687", "ref": "5700600020"}, "type": "Feature"}
{"geometry": {"coordinates": [-96.768359868, 44.295030943], "type": "Point"}, "id": "KNk2_vqql8uLoIexp89ruag3Pds=", "properties": {"@source_uri": "https://tools.usps.com/UspsToolsRestServices/rest/POLocator/findLocations", "@spider": "usps_collection_boxes", "addr:city": "BROOKINGS", "addr:country": "US", "addr:full": "920 22ND AVE S", "addr:postcode": "57006", "addr:state": "SD", "amenity": "post_box", "brand": "United States Postal Service", "brand:wikidata": "Q668687", "collection_times": "Mo-Sa 15:15", "name": "USPS COLLECTION BOX - BLUE BOX", "note": "ON 12/24 AND 12/31, THIS BOX MAY BE COLLECTED AS EARLY AS 12 NOON.", "nsi_id": "unitedstatespostalservice-a77078", "operator": "United States Postal Service", "operator:short": "USPS", "operator:type": "public", "operator:wikidata": "Q668687", "ref": "5700600022"}, "type": "Feature"}
{"geometry": {"coordinates": [-96.794514168, 44.297032528], "type": "Point"}, "id": "_caPKlvxNGanod8mmzXsUOtnmzc=", "properties": {"@source_uri": "https://tools.usps.com/UspsToolsRestServices/rest/POLocator/findLocations", "@spider": "usps_collection_boxes", "addr:city": "BROOKINGS", "addr:country": "US", "addr:full": "620 8TH ST S", "addr:postcode": "57006", "addr:state": "SD", "amenity": "post_box", "brand": "United States Postal Service", "brand:wikidata": "Q668687", "collection_times": "Mo-Sa 15:30", "name": "USPS COLLECTION BOX - BLUE BOX", "note": "ON 12/24 AND 12/31, THIS BOX MAY BE COLLECTED AS EARLY AS 12 NOON.", "nsi_id": "unitedstatespostalservice-a77078", "operator": "United States Postal Service", "operator:short": "USPS", "operator:type": "public", "operator:wikidata": "Q668687", "ref": "5700600023"}, "type": "Feature"}
{"geometry": {"coordinates": [-96.795175065, 44.308493749], "type": "Point"}, "id": "XV6zn13KtfLfnWfxcyR68-AcGec=", "properties": {"@source_uri": "https://tools.usps.com/UspsToolsRestServices/rest/POLocator/findLocations", "@spider": "usps_collection_boxes", "addr:city": "BROOKINGS", "addr:country": "US", "addr:full": "314 6TH AVE", "addr:postcode": "57006", "addr:state": "SD", "amenity": "post_box", "brand": "United States Postal Service", "brand:wikidata": "Q668687", "collection_times": "Mo-Fr 15:00", "name": "USPS COLLECTION BOX - BLUE BOX", "note": "ON 12/24 AND 12/31, THIS BOX MAY BE COLLECTED AS EARLY AS 12 NOON.", "nsi_id": "unitedstatespostalservice-a77078", "operator": "United States Postal Service", "operator:short": "USPS", "operator:type": "public", "operator:wikidata": "Q668687", "ref": "5700600025"}, "type": "Feature"}
{"geometry": {"coordinates": [-96.798556165, 44.310342335], "type": "Point"}, "id": "0IU4p_vKCbV5YtFAZ_FZtI96WJ8=", "properties": {"@source_uri": "https://tools.usps.com/UspsToolsRestServices/rest/POLocator/findLocations", "@spider": "usps_collection_boxes", "addr:city": "BROOKINGS", "addr:country": "US", "addr:full": "500 MAIN AVE", "addr:postcode": "57006", "addr:state": "SD", "amenity": "post_box", "brand": "United States Postal Service", "brand:wikidata": "Q668687", "collection_times": "Mo-Fr 17:00; Sa 16:30", "name": "USPS COLLECTION BOX - BLUE BOX", "note": "ON 12/24 AND 12/31, THIS BOX MAY BE COLLECTED AS EARLY AS 12 NOON.", "nsi_id": "unitedstatespostalservice-a77078", "operator": "United States Postal Service", "operator:short": "USPS", "operator:type": "public", "operator:wikidata": "Q668687", "ref": "5700600028"}, "type": "Feature"}
{"geometry": {"coordinates": [-96.798556165, 44.310342335], "type": "Point"}, "id": "rVyQ8AxUWwF52-0_s2Zml_0FgP0=", "properties": {"@source_uri": "https://tools.usps.com/UspsToolsRestServices/rest/POLocator/findLocations", "@spider": "usps_collection_boxes", "addr:city": "BROOKINGS", "addr:country": "US", "addr:full": "500 MAIN AVE", "addr:postcode": "57006", "addr:state": "SD", "amenity": "post_box", "brand": "United States Postal Service", "brand:wikidata": "Q668687", "collection_times": "Mo-Fr 17:00; Sa 16:30", "name": "USPS COLLECTION BOX - BLUE BOX", "note": "ON 12/24 AND 12/31, THIS BOX MAY BE COLLECTED AS EARLY AS 12 NOON.", "nsi_id": "unitedstatespostalservice-a77078", "operator": "United States Postal Service", "operator:short": "USPS", "operator:type": "public", "operator:wikidata": "Q668687", "ref": "5700600032"}, "type": "Feature"}
{"geometry": {"coordinates": [-96.798556165, 44.310342335], "type": "Point"}, "id": "TqAMsjZ-uJVYbtSJj0g0nwd38KM=", "properties": {"@source_uri": "https://tools.usps.com/UspsToolsRestServices/rest/POLocator/findLocations", "@spider": "usps_collection_boxes", "addr:city": "BROOKINGS", "addr:country": "US", "addr:full": "500 MAIN AVE", "addr:postcode": "57006", "addr:state": "SD", "amenity": "post_box", "brand": "United States Postal Service", "brand:wikidata": "Q668687", "collection_times": "Mo-Fr 17:00; Sa 16:30", "name": "USPS COLLECTION BOX - BLUE BOX", "note": "ON 12/24 AND 12/31, THIS BOX MAY BE COLLECTED AS EARLY AS 12 NOON.", "nsi_id": "unitedstatespostalservice-a77078", "operator": "United States Postal Service", "operator:short": "USPS", "operator:type": "public", "operator:wikidata": "Q668687", "ref": "5700600033"}, "type": "Feature"}
{"geometry": {"coordinates": [-96.798556165, 44.310342335], "type": "Point"}, "id": "QCgwqgX5f1wu09O_ULpAkOC5QcY=", "properties": {"@source_uri": "https://tools.usps.com/UspsToolsRestServices/rest/POLocator/findLocations", "@spider": "usps_collection_boxes", "addr:city": "BROOKINGS", "addr:country": "US", "addr:full": "500 MAIN AVE", "addr:postcode": "57006", "addr:state": "SD", "amenity": "post_box", "brand": "United States Postal Service", "brand:wikidata": "Q668687", "collection_times": "Mo-Fr 17:00; Sa 16:30", "name": "USPS COLLECTION BOX - BLUE BOX", "note": "ON 12/24 AND 12/31, THIS BOX MAY BE COLLECTED AS EARLY AS 12 NOON.", "nsi_id": "unitedstatespostalservice-a77078", "operator": "United States Postal Service", "operator:short": "USPS", "operator:type": "public", "operator:wikidata": "Q668687", "ref": "5700600034"}, "type": "Feature"}
{"geometry": {"coordinates": [-96.754061225, 44.3105487427], "type": "Point"}, "id": "wZu57NeN_kC4-fWqaXTfGC9FYDg=", "properties": {"@source_uri": "https://tools.usps.com/UspsToolsRestServices/rest/POLocator/findLocations", "@spider": "usps_collection_boxes", "addr:city": "BROOKINGS", "addr:country": "US", "addr:full": "3045 LEFEVRE DR", "addr:postcode": "57006", "addr:state": "SD", "amenity": "post_box", "brand": "United States Postal Service", "brand:wikidata": "Q668687", "collection_times": "Mo-Sa 14:30", "name": "USPS COLLECTION BOX - BLUE BOX", "note": "ON 12/24 AND 12/31, THIS BOX MAY BE COLLECTED AS EARLY AS 12 NOON.", "nsi_id": "unitedstatespostalservice-a77078", "operator": "United States Postal Service", "operator:short": "USPS", "operator:type": "public", "operator:wikidata": "Q668687", "ref": "5700600037"}, "type": "Feature"}
{"geometry": {"coordinates": [-96.765905137, 44.311568374], "type": "Point"}, "id": "Q6T-DpPPnMqfpLVtXZwd30blQnU=", "properties": {"@source_uri": "https://tools.usps.com/UspsToolsRestServices/rest/POLocator/findLocations", "@spider": "usps_collection_boxes", "addr:city": "BROOKINGS", "addr:country": "US", "addr:full": "2233 6TH ST", "addr:postcode": "57006", "addr:state": "SD", "amenity": "post_box", "brand": "United States Postal Service", "brand:wikidata": "Q668687", "collection_times": "Mo-Sa 13:00", "name": "USPS COLLECTION BOX - BLUE BOX", "note": "ON 12/24 AND 12/31, THIS BOX MAY BE COLLECTED AS EARLY AS 12 NOON.", "nsi_id": "unitedstatespostalservice-a77078", "operator": "United States Postal Service", "operator:short": "USPS", "operator:type": "public", "operator:wikidata": "Q668687", "ref": "5700600039"}, "type": "Feature"}
{"geometry": {"coordinates": [-96.798556165, 44.310342335], "type": "Point"}, "id": "6bmabevAzz3sOH1Zm5Km2Mfff5U=", "properties": {"@source_uri": "https://tools.usps.com/UspsToolsRestServices/rest/POLocator/findLocations", "@spider": "usps_collection_boxes", "addr:city": "BROOKINGS", "addr:country": "US", "addr:full": "500 MAIN AVE", "addr:postcode": "57006", "addr:state": "SD", "amenity": "post_box", "brand": "United States Postal Service", "brand:wikidata": "Q668687", "collection_times": "Mo-Fr 17:00; Sa 16:30", "name": "USPS COLLECTION BOX - BLUE BOX", "note": "ON 12/24 AND 12/31, THIS BOX MAY BE COLLECTED AS EARLY AS 12 NOON.", "nsi_id": "unitedstatespostalservice-a77078", "operator": "United States Postal Service", "operator:short": "USPS", "operator:type": "public", "operator:wikidata": "Q668687", "ref": "5700600041"}, "type": "Feature"}
{"geometry": {"coordinates": [-96.798556165, 44.310342335], "type": "Point"}, "id": "orBFafW4IC91hc5ZSAjKlATCLD8=", "properties": {"@source_uri": "https://tools.usps.com/UspsToolsRestServices/rest/POLocator/findLocations", "@spider": "usps_collection_boxes", "addr:city": "BROOKINGS", "addr:country": "US", "addr:full": "500 MAIN AVE", "addr:postcode": "57006", "addr:state": "SD", "amenity": "post_box", "brand": "United States Postal Service", "brand:wikidata": "Q668687", "collection_times": "Mo-Fr 17:00; Sa 12:00", "name": "USPS COLLECTION BOX - PO LOBBY", "note": "ON 12/24 AND 12/31, THIS BOX MAY BE COLLECTED AS EARLY AS 12 NOON.", "nsi_id": "unitedstatespostalservice-a77078", "operator": "United States Postal Service", "operator:short": "USPS", "operator:type": "public", "operator:wikidata": "Q668687", "ref": "5700600049"}, "type": "Feature"}
{"geometry": {"coordinates": [-97.291649656, 43.598065599], "type": "Point"}, "id": "wrHWBHRtQpzPKNeApEe884o58gc=", "properties": {"@source_uri": "https://tools.usps.com/UspsToolsRestServices/rest/POLocator/findLocations", "@spider": "usps_collection_boxes", "addr:city": "CANISTOTA", "addr:country": "US", "addr:full": "222 W MAIN ST", "addr:postcode": "57012", "addr:state": "SD", "amenity": "post_box", "brand": "United States Postal Service", "brand:wikidata": "Q668687", "collection_times": "Mo-Sa 16:15", "name": "USPS COLLECTION BOX - BLUE BOX", "note": "ON 12/24 AND 12/31, THIS BOX MAY BE COLLECTED AS EARLY AS 12 NOON.", "nsi_id": "unitedstatespostalservice-a77078", "operator": "United States Postal Service", "operator:short": "USPS", "operator:type": "public", "operator:wikidata": "Q668687", "ref": "5701200001"}, "type": "Feature"}
{"geometry": {"coordinates": [-97.291649656, 43.598065599], "type": "Point"}, "id": "HVe2bdfdQp6Bqydrh-2nW__bVmY=", "properties": {"@source_uri": "https://tools.usps.com/UspsToolsRestServices/rest/POLocator/findLocations", "@spider": "usps_collection_boxes", "addr:city": "CANISTOTA", "addr:country": "US", "addr:full": "222 W MAIN ST", "addr:postcode": "57012", "addr:state": "SD", "amenity": "post_box", "brand": "United States Postal Service", "brand:wikidata": "Q668687", "collection_times": "Mo-Fr 15:30; Sa 10:00", "name": "USPS COLLECTION BOX - PO LOBBY", "note": "ON 12/24 AND 12/31, THIS BOX MAY BE COLLECTED AS EARLY AS 12 NOON.", "nsi_id": "unitedstatespostalservice-a77078", "operator": "United States Postal Service", "operator:short": "USPS", "operator:type": "public", "operator:wikidata": "Q668687", "ref": "5701200002"}, "type": "Feature"}
{"geometry": {"coordinates": [-97.291649656, 43.598065599], "type": "Point"}, "id": "f1f_7iQZbHhhI1m4J_J0NQe6z2I=", "properties": {"@source_uri": "https://tools.usps.com/UspsToolsRestServices/rest/POLocator/findLocations", "@spider": "usps_collection_boxes", "addr:city": "CANISTOTA", "addr:country": "US", "addr:full": "222 W MAIN ST", "addr:postcode": "57012", "addr:state": "SD", "amenity": "post_box", "brand": "United States Postal Service", "brand:wikidata": "Q668687", "collection_times": "Mo-Fr 15:30; Sa 10:00", "name": "USPS COLLECTION BOX - PO LOBBY", "note": "ON 12/24 AND 12/31, THIS BOX MAY BE COLLECTED AS EARLY AS 12 NOON.", "nsi_id": "unitedstatespostalservice-a77078", "operator": "United States Postal Service", "operator:short": "USPS", "operator:type": "public", "operator:wikidata": "Q668687", "ref": "5701200004"}, "type": "Feature"}
{"geometry": {"coordinates": [-96.589430445, 43.300776532], "type": "Point"}, "id": "lMZOAduDQWSLeqFYBBQybAK5Q2I=", "properties": {"@source_uri": "https://tools.usps.com/UspsToolsRestServices/rest/POLocator/findLocations", "@spider": "usps_collection_boxes", "addr:city": "CANTON", "addr:country": "US", "addr:full": "315 E 5TH ST", "addr:postcode": "57013", "addr:state": "SD", "amenity": "post_box", "brand": "United States Postal Service", "brand:wikidata": "Q668687", "collection_times": "Mo-Sa 17:00", "name": "USPS COLLECTION BOX - BLUE BOX", "note": "ON 12/24 AND 12/31, THIS BOX MAY BE COLLECTED AS EARLY AS 12 NOON.", "nsi_id": "unitedstatespostalservice-a77078", "operator": "United States Postal Service", "operator:short": "USPS", "operator:type": "public", "operator:wikidata": "Q668687", "ref": "5701300004"}, "type": "Feature"}
{"geometry": {"coordinates": [-96.589430445, 43.300776532], "type": "Point"}, "id": "hZ8_IU6IfctAgI9PdlOGsYAfVzU=", "properties": {"@source_uri": "https://tools.usps.com/UspsToolsRestServices/rest/POLocator/findLocations", "@spider": "usps_collection_boxes", "addr:city": "CANTON", "addr:country": "US", "addr:full": "315 E 5TH ST", "addr:postcode": "57013", "addr:state": "SD", "amenity": "post_box", "brand": "United States Postal Service", "brand:wikidata": "Q668687", "collection_times": "Mo-Fr 16:15; Sa 10:00", "name": "USPS COLLECTION BOX - PO LOBBY", "note": "ON 12/24 AND 12/31, THIS BOX MAY BE COLLECTED AS EARLY AS 12 NOON.", "nsi_id": "unitedstatespostalservice-a77078", "operator": "United States Postal Service", "operator:short": "USPS", "operator:type": "public", "operator:wikidata": "Q668687", "ref": "5701300005"}, "type": "Feature"}
{"geometry": {"coordinates": [-96.589430445, 43.300776532], "type": "Point"}, "id": "2A87NyUh1-EjV_Soye1WmgNEXx4=", "properties": {"@source_uri": "https://tools.usps.com/UspsToolsRestServices/rest/POLocator/findLocations", "@spider": "usps_collection_boxes", "addr:city": "CANTON", "addr:country": "US", "addr:full": "315 E 5TH ST", "addr:postcode": "57013", "addr:state": "SD", "amenity": "post_box", "brand": "United States Postal Service", "brand:wikidata": "Q668687", "collection_times": "Mo-Fr 16:15; Sa 10:00", "name": "USPS COLLECTION BOX - PO LOBBY", "note": "ON 12/24 AND 12/31, THIS BOX MAY BE COLLECTED AS EARLY AS 12 NOON.", "nsi_id": "unitedstatespostalservice-a77078", "operator": "United States Postal Service", "operator:short": "USPS", "operator:type": "public", "operator:wikidata": "Q668687", "ref": "5701300006"}, "type": "Feature"}
{"geometry": {"coordinates": [-96.589430445, 43.300776532], "type": "Point"}, "id": "5jAH8cBFyI72gT9n5I2PrPXFp6I=", "properties": {"@source_uri": "https://tools.usps.com/UspsToolsRestServices/rest/POLocator/findLocations", "@spider": "usps_collection_boxes", "addr:city": "CANTON", "addr:country": "US", "addr:full": "315 E 5TH ST", "addr:postcode": "57013", "addr:state": "SD", "amenity": "post_box", "brand": "United States Postal Service", "brand:wikidata": "Q668687", "collection_times": "Mo-Sa 17:00", "name": "USPS COLLECTION BOX - BLUE BOX", "note": "ON 12/24 AND 12/31, THIS BOX MAY BE COLLECTED AS EARLY AS 12 NOON.", "nsi_id": "unitedstatespostalservice-a77078", "operator": "United States Postal Service", "operator:short": "USPS", "operator:type": "public", "operator:wikidata": "Q668687", "ref": "5701300007"}, "type": "Feature"}
{"geometry": {"coordinates": [-96.589430445, 43.300776532], "type": "Point"}, "id": "u7ANxSwqPhfvVPVH0AE7UtzbNxw=", "properties": {"@source_uri": "https://tools.usps.com/UspsToolsRestServices/rest/POLocator/findLocations", "@spider": "usps_collection_boxes", "addr:city": "CANTON", "addr:country": "US", "addr:full": "315 E 5TH ST", "addr:postcode": "57013", "addr:state": "SD", "amenity": "post_box", "brand": "United States Postal Service", "brand:wikidata": "Q668687", "collection_times": "Mo-Fr 16:15; Sa 10:00", "name": "USPS COLLECTION BOX - PO LOBBY", "note": "ON 12/24 AND 12/31, THIS BOX MAY BE COLLECTED AS EARLY AS 12 NOON.", "nsi_id": "unitedstatespostalservice-a77078", "operator": "United States Postal Service", "operator:short": "USPS", "operator:type": "public", "operator:wikidata": "Q668687", "ref": "5701300009"}, "type": "Feature"}
{"geometry": {"coordinates": [-96.961287643, 43.117605], "type": "Point"}, "id": "ph6C_O_au7fA24xyOrmnXPC9WnA=", "properties": {"@source_uri": "https://tools.usps.com/UspsToolsRestServices/rest/POLocator/findLocations", "@spider": "usps_collection_boxes", "addr:city": "CENTERVILLE", "addr:country": "US", "addr:full": "533 BROADWAY ST", "addr:postcode": "57014", "addr:state": "SD", "amenity": "post_box", "brand": "United States Postal Service", "brand:wikidata": "Q668687", "collection_times": "Mo-Fr 16:00; Sa 17:00", "name": "USPS COLLECTION BOX - BLUE BOX", "note": "ON 12/24 AND 12/31, THIS BOX MAY BE COLLECTED AS EARLY AS 12 NOON.", "nsi_id": "unitedstatespostalservice-a77078", "operator": "United States Postal Service", "operator:short": "USPS", "operator:type": "public", "operator:wikidata": "Q668687", "ref": "5701400001"}, "type": "Feature"}
{"geometry": {"coordinates": [-96.961287643, 43.117605], "type": "Point"}, "id": "eStTaLnroNFD9ZheqM6_dx4TSGQ=", "properties": {"@source_uri": "https://tools.usps.com/UspsToolsRestServices/rest/POLocator/findLocations", "@spider": "usps_collection_boxes", "addr:city": "CENTERVILLE", "addr:country": "US", "addr:full": "533 BROADWAY ST", "addr:postcode": "57014", "addr:state": "SD", "amenity": "post_box", "brand": "United States Postal Service", "brand:wikidata": "Q668687", "collection_times": "Mo-Fr 15:00", "name": "USPS COLLECTION BOX - PO LOBBY", "note": "ON 12/24 AND 12/31, THIS BOX MAY BE COLLECTED AS EARLY AS 12 NOON.", "nsi_id": "unitedstatespostalservice-a77078", "operator": "United States Postal Service", "operator:short": "USPS", "operator:type": "public", "operator:wikidata": "Q668687", "ref": "5701400003"}, "type": "Feature"}
{"geometry": {"coordinates": [-96.961287643, 43.117605], "type": "Point"}, "id": "lR8bimCDMdwi0rnCoXmabZ_jW7c=", "properties": {"@source_uri": "https://tools.usps.com/UspsToolsRestServices/rest/POLocator/findLocations", "@spider": "usps_collection_boxes", "addr:city": "CENTERVILLE", "addr:country": "US", "addr:full": "533 BROADWAY ST", "addr:postcode": "57014", "addr:state": "SD", "amenity": "post_box", "brand": "United States Postal Service", "brand:wikidata": "Q668687", "collection_times": "Mo-Fr 15:00; Sa 08:30", "name": "USPS COLLECTION BOX - PO LOBBY", "note": "ON 12/24 AND 12/31, THIS BOX MAY BE COLLECTED AS EARLY AS 12 NOON.", "nsi_id": "unitedstatespostalservice-a77078", "operator": "United States Postal Service", "operator:short": "USPS", "operator:type": "public", "operator:wikidata": "Q668687", "ref": "5701400006"}, "type": "Feature"}
{"geometry": {"coordinates": [-96.98673996, 43.3731089921], "type": "Point"}, "id": "mmnwVC6bs_GIK7iisykcLRScBBI=", "properties": {"@source_uri": "https://tools.usps.com/UspsToolsRestServices/rest/POLocator/findLocations", "@spider": "usps_collection_boxes", "addr:city": "CHANCELLOR", "addr:country": "US", "addr:full": "224 MAIN ST", "addr:postcode": "57015", "addr:state": "SD", "amenity": "post_box", "brand": "United States Postal Service", "brand:wikidata": "Q668687", "collection_times": "Mo-Sa 13:30", "name": "USPS COLLECTION BOX - BLUE BOX", "note": "ON 12/24 AND 12/31, THIS BOX MAY BE COLLECTED AS EARLY AS 12 NOON.", "nsi_id": "unitedstatespostalservice-a77078", "operator": "United States Postal Service", "operator:short": "USPS", "operator:type": "public", "operator:wikidata": "Q668687", "ref": "5701500001"}, "type": "Feature"}
{"geometry": {"coordinates": [-96.987036057, 43.373088681], "type": "Point"}, "id": "unifovBN5INfGzQAVb0pQl-OTcE=", "properties": {"@source_uri": "https://tools.usps.com/UspsToolsRestServices/rest/POLocator/findLocations", "@spider": "usps_collection_boxes", "addr:city": "CHANCELLOR", "addr:country": "US", "addr:full": "224 MAIN ST", "addr:postcode": "57015", "addr:state": "SD", "amenity": "post_box", "brand": "United States Postal Service", "brand:wikidata": "Q668687", "collection_times": "Mo-Fr 11:45; Sa 13:00", "name": "USPS COLLECTION BOX - PO LOBBY", "note": "ON 12/24 AND 12/31, THIS BOX MAY BE COLLECTED AS EARLY AS 12 NOON.", "nsi_id": "unitedstatespostalservice-a77078", "operator": "United States Postal Service", "operator:short": "USPS", "operator:type": "public", "operator:wikidata": "Q668687", "ref": "5701500002"}, "type": "Feature"}
{"geometry": {"coordinates": [-96.987036057, 43.373088681], "type": "Point"}, "id": "DZ7mlo5mlARjWfFJb1XfIvKoLSU=", "properties": {"@source_uri": "https://tools.usps.com/UspsToolsRestServices/rest/POLocator/findLocations", "@spider": "usps_collection_boxes", "addr:city": "CHANCELLOR", "addr:country": "US", "addr:full": "224 MAIN ST", "addr:postcode": "57015", "addr:state": "SD", "amenity": "post_box", "brand": "United States Postal Service", "brand:wikidata": "Q668687", "collection_times": "Mo-Fr 11:45; Sa 13:00", "name": "USPS COLLECTION BOX - PO LOBBY", "note": "ON 12/24 AND 12/31, THIS BOX MAY BE COLLECTED AS EARLY AS 12 NOON.", "nsi_id": "unitedstatespostalservice-a77078", "operator": "United States Postal Service", "operator:short": "USPS", "operator:type": "public", "operator:wikidata": "Q668687", "ref": "5701500004"}, "type": "Feature"}
{"geometry": {"coordinates": [-96.927547807, 43.894829896], "type": "Point"}, "id": "UQvuVECYpTbsOI7k5pqfleOVx5I=", "properties": {"@source_uri": "https://tools.usps.com/UspsToolsRestServices/rest/POLocator/findLocations", "@spider": "usps_collection_boxes", "addr:city": "CHESTER", "addr:country": "US", "addr:full": "410 4TH ST", "addr:postcode": "57016", "addr:state": "SD", "amenity": "post_box", "brand": "United States Postal Service", "brand:wikidata": "Q668687", "collection_times": "Mo-Fr 16:30; Sa 17:00", "name": "USPS COLLECTION BOX - BLUE BOX", "note": "ON 12/24 AND 12/31, THIS BOX MAY BE COLLECTED AS EARLY AS 12 NOON.", "nsi_id": "unitedstatespostalservice-a77078", "operator": "United States Postal Service", "operator:short": "USPS", "operator:type": "public", "operator:wikidata": "Q668687", "ref": "5701600001"}, "type": "Feature"}
{"geometry": {"coordinates": [-96.927547807, 43.894829896], "type": "Point"}, "id": "tbsmydjFDZeiNjTTm8Tm10-iUu0=", "properties": {"@source_uri": "https://tools.usps.com/UspsToolsRestServices/rest/POLocator/findLocations", "@spider": "usps_collection_boxes", "addr:city": "CHESTER", "addr:country": "US", "addr:full": "410 4TH ST", "addr:postcode": "57016", "addr:state": "SD", "amenity": "post_box", "brand": "United States Postal Service", "brand:wikidata": "Q668687", "collection_times": "Mo-Fr 16:30; Sa 14:30", "name": "USPS COLLECTION BOX - PO LOBBY", "note": "ON 12/24 AND 12/31, THIS BOX MAY BE COLLECTED AS EARLY AS 12 NOON.", "nsi_id": "unitedstatespostalservice-a77078", "operator": "United States Postal Service", "operator:short": "USPS", "operator:type": "public", "operator:wikidata": "Q668687", "ref": "5701600002"}, "type": "Feature"}
{"geometry": {"coordinates": [-96.927547807, 43.894829896], "type": "Point"}, "id": "JPdSJwDUtzV6AuhiyQaXZkdl9gk=", "properties": {"@source_uri": "https://tools.usps.com/UspsToolsRestServices/rest/POLocator/findLocations", "@spider": "usps_collection_boxes", "addr:city": "CHESTER", "addr:country": "US", "addr:full": "410 4TH ST", "addr:postcode": "57016", "addr:state": "SD", "amenity": "post_box", "brand": "United States Postal Service", "brand:wikidata": "Q668687", "collection_times": "Mo-Fr 16:30; Sa 14:30", "name": "USPS COLLECTION BOX - PO LOBBY", "note": "ON 12/24 AND 12/31, THIS BOX MAY BE COLLECTED AS EARLY AS 12 NOON.", "nsi_id": "unitedstatespostalservice-a77078", "operator": "United States Postal Service", "operator:short": "USPS", "operator:type": "public", "operator:wikidata": "Q668687", "ref": "5701600004"}, "type": "Feature"}
{"geometry": {"coordinates": [-96.814028197, 43.983863445], "type": "Point"}, "id": "0SqDC2YzG2w4HG7uVnJssmefeyg=", "properties": {"@source_uri": "https://tools.usps.com/UspsToolsRestServices/rest/POLocator/findLocations", "@spider": "usps_collection_boxes", "addr:city": "COLMAN", "addr:country": "US", "addr:full": "129 N MAIN ST", "addr:postcode": "57017", "addr:state": "SD", "amenity": "post_box", "brand": "United States Postal Service", "brand:wikidata": "Q668687", "collection_times": "Mo-Sa 16:45", "name": "USPS COLLECTION BOX - BLUE BOX", "note": "ON 12/24 AND 12/31, THIS BOX MAY BE COLLECTED AS EARLY AS 12 NOON.", "nsi_id": "unitedstatespostalservice-a77078", "operator": "United States Postal Service", "operator:short": "USPS", "operator:type": "public", "operator:wikidata": "Q668687", "ref": "5701700002"}, "type": "Feature"}
{"geometry": {"coordinates": [-96.814028197, 43.983863445], "type": "Point"}, "id": "E5KAC1AaDw7yUbCFxmgjhnV1a2Y=", "properties": {"@source_uri": "https://tools.usps.com/UspsToolsRestServices/rest/POLocator/findLocations", "@spider": "usps_collection_boxes", "addr:city": "COLMAN", "addr:country": "US", "addr:full": "129 N MAIN ST", "addr:postcode": "57017", "addr:state": "SD", "amenity": "post_box", "brand": "United States Postal Service", "brand:wikidata": "Q668687", "collection_times": "Mo-Fr 14:30; Sa 10:00", "name": "USPS COLLECTION BOX - PO LOBBY", "note": "ON 12/24 AND 12/31, THIS BOX MAY BE COLLECTED AS EARLY AS 12 NOON.", "nsi_id": "unitedstatespostalservice-a77078", "operator": "United States Postal Service", "operator:short": "USPS", "operator:type": "public", "operator:wikidata": "Q668687", "ref": "5701700003"}, "type": "Feature"}
{"geometry": {"coordinates": [-96.814028197, 43.983863445], "type": "Point"}, "id": "cYICIbo7-ebxEmpyS83k-Z_RWw0=", "properties": {"@source_uri": "https://tools.usps.com/UspsToolsRestServices/rest/POLocator/findLocations", "@spider": "usps_collection_boxes", "addr:city": "COLMAN", "addr:country": "US", "addr:full": "129 N MAIN ST", "addr:postcode": "57017", "addr:state": "SD", "amenity": "post_box", "brand": "United States Postal Service", "brand:wikidata": "Q668687", "collection_times": "Mo-Fr 14:30; Sa 10:00", "name": "USPS COLLECTION BOX - PO LOBBY", "note": "ON 12/24 AND 12/31, THIS BOX MAY BE COLLECTED AS EARLY AS 12 NOON.", "nsi_id": "unitedstatespostalservice-a77078", "operator": "United States Postal Service", "operator:short": "USPS", "operator:type": "public", "operator:wikidata": "Q668687", "ref": "5701700005"}, "type": "Feature"}
{"geometry": {"coordinates": [-96.927960945, 43.786966528], "type": "Point"}, "id": "hp-U8igl5gORCg_nm_ttffKtnsc=", "properties": {"@source_uri": "https://tools.usps.com/UspsToolsRestServices/rest/POLocator/findLocations", "@spider": "usps_collection_boxes", "addr:city": "COLTON", "addr:country": "US", "addr:full": "213 E 4TH ST", "addr:postcode": "57018", "addr:state": "SD", "amenity": "post_box", "brand": "United States Postal Service", "brand:wikidata": "Q668687", "collection_times": "Mo-Fr 16:30; Sa 17:00", "name": "USPS COLLECTION BOX - BLUE BOX", "note": "ON 12/24 AND 12/31, THIS BOX MAY BE COLLECTED AS EARLY AS 12 NOON.", "nsi_id": "unitedstatespostalservice-a77078", "operator": "United States Postal Service", "operator:short": "USPS", "operator:type": "public", "operator:wikidata": "Q668687", "ref": "5701800001"}, "type": "Feature"}
{"geometry": {"coordinates": [-96.927960945, 43.786966528], "type": "Point"}, "id": "hnj8n-vTM6JIBwR1OC7nJgc1uTI=", "properties": {"@source_uri": "https://tools.usps.com/UspsToolsRestServices/rest/POLocator/findLocations", "@spider": "usps_collection_boxes", "addr:city": "COLTON", "addr:country": "US", "addr:full": "213 E 4TH ST", "addr:postcode": "57018", "addr:state": "SD", "amenity": "post_box", "brand": "United States Postal Service", "brand:wikidata": "Q668687", "collection_times": "Mo-Fr 11:00; Sa 10:00", "name": "USPS COLLECTION BOX - PO LOBBY", "nsi_id": "unitedstatespostalservice-a77078", "operator": "United States Postal Service", "operator:short": "USPS", "operator:type": "public", "operator:wikidata": "Q668687", "ref": "5701800002"}, "type": "Feature"}
{"geometry": {"coordinates": [-96.927960945, 43.786966528], "type": "Point"}, "id": "rwFurmX_cXLvE2Z1iMnCDSSbUyo=", "properties": {"@source_uri": "https://tools.usps.com/UspsToolsRestServices/rest/POLocator/findLocations", "@spider": "usps_collection_boxes", "addr:city": "COLTON", "addr:country": "US", "addr:full": "213 E 4TH ST", "addr:postcode": "57018", "addr:state": "SD", "amenity": "post_box", "brand": "United States Postal Service", "brand:wikidata": "Q668687", "collection_times": "Mo-Fr 11:00; Sa 10:00", "name": "USPS COLLECTION BOX - PO LOBBY", "nsi_id": "unitedstatespostalservice-a77078", "operator": "United States Postal Service", "operator:short": "USPS", "operator:type": "public", "operator:wikidata": "Q668687", "ref": "5701800004"}, "type": "Feature"}
{"geometry": {"coordinates": [-96.811015552, 43.662075986], "type": "Point"}, "id": "bv5-f4qLj3fkOuJNx9z7h2ahlJ8=", "properties": {"@source_uri": "https://tools.usps.com/UspsToolsRestServices/rest/POLocator/findLocations", "@spider": "usps_collection_boxes", "addr:city": "CROOKS", "addr:country": "US", "addr:full": "112 MAIN ST", "addr:postcode": "57020", "addr:state": "SD", "amenity": "post_box", "brand": "United States Postal Service", "brand:wikidata": "Q668687", "collection_times": "Mo-Sa 17:00", "name": "USPS COLLECTION BOX - BLUE BOX", "note": "ON 12/24 AND 12/31, THIS BOX MAY BE COLLECTED AS EARLY AS 12 NOON.", "nsi_id": "unitedstatespostalservice-a77078", "operator": "United States Postal Service", "operator:short": "USPS", "operator:type": "public", "operator:wikidata": "Q668687", "ref": "5702000001"}, "type": "Feature"}
{"geometry": {"coordinates": [-96.811015552, 43.662075986], "type": "Point"}, "id": "hArQXzH6VNY3NJesCAlYdlTYRu4=", "properties": {"@source_uri": "https://tools.usps.com/UspsToolsRestServices/rest/POLocator/findLocations", "@spider": "usps_collection_boxes", "addr:city": "CROOKS", "addr:country": "US", "addr:full": "112 MAIN ST", "addr:postcode": "57020", "addr:state": "SD", "amenity": "post_box", "brand": "United States Postal Service", "brand:wikidata": "Q668687", "collection_times": "Mo-Fr 14:00; Sa 09:30", "name": "USPS COLLECTION BOX - PO LOBBY", "note": "ON 12/24 AND 12/31, THIS BOX MAY BE COLLECTED AS EARLY AS 12 NOON.", "nsi_id": "unitedstatespostalservice-a77078", "operator": "United States Postal Service", "operator:short": "USPS", "operator:type": "public", "operator:wikidata": "Q668687", "ref": "5702000002"}, "type": "Feature"}
{"geometry": {"coordinates": [-96.711438004, 43.646346], "type": "Point"}, "id": "PjsFtp13TqYN0peKiYp5GQCi9nY=", "properties": {"@source_uri": "https://tools.usps.com/UspsToolsRestServices/rest/POLocator/findLocations", "@spider": "usps_collection_boxes", "addr:city": "CROOKS", "addr:country": "US", "addr:full": "25795 475TH AVE", "addr:postcode": "57020", "addr:state": "SD", "amenity": "post_box", "brand": "United States Postal Service", "brand:wikidata": "Q668687", "collection_times": "Mo-Sa 18:00", "name": "USPS COLLECTION BOX - BLUE BOX", "note": "ON 12/24 AND 12/31, THIS BOX MAY BE COLLECTED AS EARLY AS 12 NOON.", "nsi_id": "unitedstatespostalservice-a77078", "operator": "United States Postal Service", "operator:short": "USPS", "operator:type": "public", "operator:wikidata": "Q668687", "ref": "5702000005"}, "type": "Feature"}
{"geometry": {"coordinates": [-96.811015552, 43.662075986], "type": "Point"}, "id": "6jo59h9q-itp7fhjLmjAxi1gKE8=", "properties": {"@source_uri": "https://tools.usps.com/UspsToolsRestServices/rest/POLocator/findLocations", "@spider": "usps_collection_boxes", "addr:city": "CROOKS", "addr:country": "US", "addr:full": "112 MAIN ST", "addr:postcode": "57020", "addr:state": "SD", "amenity": "post_box", "brand": "United States Postal Service", "brand:wikidata": "Q668687", "collection_times": "Mo-Fr 14:00; Sa 09:30", "name": "USPS COLLECTION BOX - PO LOBBY", "note": "ON 12/24 AND 12/31, THIS BOX MAY BE COLLECTED AS EARLY AS 12 NOON.", "nsi_id": "unitedstatespostalservice-a77078", "operator": "United States Postal Service", "operator:short": "USPS", "operator:type": "public", "operator:wikidata": "Q668687", "ref": "5702000008"}, "type": "Feature"}
{"geometry": {"coordinates": [-96.98829401, 43.257651461], "type": "Point"}, "id": "UtrQ6msWDblInzTs0CcTsLA47og=", "properties": {"@source_uri": "https://tools.usps.com/UspsToolsRestServices/rest/POLocator/findLocations", "@spider": "usps_collection_boxes", "addr:city": "DAVIS", "addr:country": "US", "addr:full": "110 E US HIGHWAY 18", "addr:postcode": "57021", "addr:state": "SD", "amenity": "post_box", "brand": "United States Postal Service", "brand:wikidata": "Q668687", "collection_times": "Mo-Fr 16:30; Sa 17:45", "name": "USPS COLLECTION BOX - BLUE BOX", "note": "ON 12/24 AND 12/31, THIS BOX MAY BE COLLECTED AS EARLY AS 12 NOON.", "nsi_id": "unitedstatespostalservice-a77078", "operator": "United States Postal Service", "operator:short": "USPS", "operator:type": "public", "operator:wikidata": "Q668687", "ref": "5702100001"}, "type": "Feature"}
{"geometry": {"coordinates": [-96.98829401, 43.257651461], "type": "Point"}, "id": "NAPu6_T93tTn6vJp2LsHiWxbMSc=", "properties": {"@source_uri": "https://tools.usps.com/UspsToolsRestServices/rest/POLocator/findLocations", "@spider": "usps_collection_boxes", "addr:city": "DAVIS", "addr:country": "US", "addr:full": "110 E US HIGHWAY 18", "addr:postcode": "57021", "addr:state": "SD", "amenity": "post_box", "brand": "United States Postal Service", "brand:wikidata": "Q668687", "collection_times": "Mo-Sa 11:20", "name": "USPS COLLECTION BOX - PO LOBBY", "nsi_id": "unitedstatespostalservice-a77078", "operator": "United States Postal Service", "operator:short": "USPS", "operator:type": "public", "operator:wikidata": "Q668687", "ref": "5702100002"}, "type": "Feature"}
{"geometry": {"coordinates": [-96.98829401, 43.257651461], "type": "Point"}, "id": "iEvzPiIV-apGMyEWkZsTZVLgyBc=", "properties": {"@source_uri": "https://tools.usps.com/UspsToolsRestServices/rest/POLocator/findLocations", "@spider": "usps_collection_boxes", "addr:city": "DAVIS", "addr:country": "US", "addr:full": "110 E US HIGHWAY 18", "addr:postcode": "57021", "addr:state": "SD", "amenity": "post_box", "brand": "United States Postal Service", "brand:wikidata": "Q668687", "collection_times": "Mo-Sa 11:20", "name": "USPS COLLECTION BOX - PO LOBBY", "nsi_id": "unitedstatespostalservice-a77078", "operator": "United States Postal Service", "operator:short": "USPS", "operator:type": "public", "operator:wikidata": "Q668687", "ref": "5702100005"}, "type": "Feature"}
{"geometry": {"coordinates": [-96.7135931007, 43.8234504127], "type": "Point"}, "id": "8GPOOPEzFk8ZDqjj7qSKla3w9ko=", "properties": {"@source_uri": "https://tools.usps.com/UspsToolsRestServices/rest/POLocator/findLocations", "@spider": "usps_collection_boxes", "addr:city": "DELL RAPIDS", "addr:country": "US", "addr:full": "305 E 4TH ST", "addr:postcode": "57022", "addr:state": "SD", "amenity": "post_box", "brand": "United States Postal Service", "brand:wikidata": "Q668687", "collection_times": "Mo-Fr 17:00; Sa 17:30", "name": "USPS COLLECTION BOX - BLUE BOX", "note": "ON 12/24 AND 12/31, THIS BOX MAY BE COLLECTED AS EARLY AS 12 NOON.", "nsi_id": "unitedstatespostalservice-a77078", "operator": "United States Postal Service", "operator:short": "USPS", "operator:type": "public", "operator:wikidata": "Q668687", "ref": "5702200004"}, "type": "Feature"}
{"geometry": {"coordinates": [-96.713598184, 43.823433045], "type": "Point"}, "id": "uTbffeRxfAD7Ms7uKJHzTrHQew8=", "properties": {"@source_uri": "https://tools.usps.com/UspsToolsRestServices/rest/POLocator/findLocations", "@spider": "usps_collection_boxes", "addr:city": "DELL RAPIDS", "addr:country": "US", "addr:full": "305 E 4TH ST", "addr:postcode": "57022", "addr:state": "SD", "amenity": "post_box", "brand": "United States Postal Service", "brand:wikidata": "Q668687", "collection_times": "Mo-Fr 17:00; Sa 17:30", "name": "USPS COLLECTION BOX - BLUE BOX", "note": "ON 12/24 AND 12/31, THIS BOX MAY BE COLLECTED AS EARLY AS 12 NOON.", "nsi_id": "unitedstatespostalservice-a77078", "operator": "United States Postal Service", "operator:short": "USPS", "operator:type": "public", "operator:wikidata": "Q668687", "ref": "5702200008"}, "type": "Feature"}
{"geometry": {"coordinates": [-96.713598184, 43.823433045], "type": "Point"}, "id": "Q9o0f9QhdAIryFZA1hq09Tn4-zY=", "properties": {"@source_uri": "https://tools.usps.com/UspsToolsRestServices/rest/POLocator/findLocations", "@spider": "usps_collection_boxes", "addr:city": "DELL RAPIDS", "addr:country": "US", "addr:full": "305 E 4TH ST", "addr:postcode": "57022", "addr:state": "SD", "amenity": "post_box", "brand": "United States Postal Service", "brand:wikidata": "Q668687", "collection_times": "Mo-Fr 16:30; Sa 11:00", "name": "USPS COLLECTION BOX - PO LOBBY", "note": "ON 12/24 AND 12/31, THIS BOX MAY BE COLLECTED AS EARLY AS 12 NOON.", "nsi_id": "unitedstatespostalservice-a77078", "operator": "United States Postal Service", "operator:short": "USPS", "operator:type": "public", "operator:wikidata": "Q668687", "ref": "5702200012"}, "type": "Feature"}
{"geometry": {"coordinates": [-96.713598184, 43.823433045], "type": "Point"}, "id": "xrxn4C1FCBqpHiiOQ_ZqTcnhC00=", "properties": {"@source_uri": "https://tools.usps.com/UspsToolsRestServices/rest/POLocator/findLocations", "@spider": "usps_collection_boxes", "addr:city": "DELL RAPIDS", "addr:country": "US", "addr:full": "305 E 4TH ST", "addr:postcode": "57022", "addr:state": "SD", "amenity": "post_box", "brand": "United States Postal Service", "brand:wikidata": "Q668687", "collection_times": "Mo-Fr 16:30; Sa 11:00", "name": "USPS COLLECTION BOX - PO LOBBY", "note": "ON 12/24 AND 12/31, THIS BOX MAY BE COLLECTED AS EARLY AS 12 NOON.", "nsi_id": "unitedstatespostalservice-a77078", "operator": "United States Postal Service", "operator:short": "USPS", "operator:type": "public", "operator:wikidata": "Q668687", "ref": "5702200014"}, "type": "Feature"}
{"geometry": {"coordinates": [-96.68574863, 42.686672079], "type": "Point"}, "id": "qgrc0tWni8H03Y_Tr0cIUXs68IQ=", "properties": {"@source_uri": "https://tools.usps.com/UspsToolsRestServices/rest/POLocator/findLocations", "@spider": "usps_collection_boxes", "addr:city": "ELK POINT", "addr:country": "US", "addr:full": "123 W MAIN ST", "addr:postcode": "57025", "addr:state": "SD", "amenity": "post_box", "brand": "United States Postal Service", "brand:wikidata": "Q668687", "collection_times": "Mo-Fr 16:20; Sa 16:45", "name": "USPS COLLECTION BOX - BLUE BOX", "note": "ON 12/24 AND 12/31, THIS BOX MAY BE COLLECTED AS EARLY AS 12 NOON.", "nsi_id": "unitedstatespostalservice-a77078", "operator": "United States Postal Service", "operator:short": "USPS", "operator:type": "public", "operator:wikidata": "Q668687", "ref": "5702500001"}, "type": "Feature"}
{"geometry": {"coordinates": [-96.68574863, 42.686672079], "type": "Point"}, "id": "EqrlZ1kAKV7dzWd2wUOktE_Zaos=", "properties": {"@source_uri": "https://tools.usps.com/UspsToolsRestServices/rest/POLocator/findLocations", "@spider": "usps_collection_boxes", "addr:city": "ELK POINT", "addr:country": "US", "addr:full": "123 W MAIN ST", "addr:postcode": "57025", "addr:state": "SD", "amenity": "post_box", "brand": "United States Postal Service", "brand:wikidata": "Q668687", "collection_times": "Mo-Fr 16:20; Sa 10:30", "name": "USPS COLLECTION BOX - PO LOBBY", "note": "ON 12/24 AND 12/31, THIS BOX MAY BE COLLECTED AS EARLY AS 12 NOON.", "nsi_id": "unitedstatespostalservice-a77078", "operator": "United States Postal Service", "operator:short": "USPS", "operator:type": "public", "operator:wikidata": "Q668687", "ref": "5702500003"}, "type": "Feature"}
{"geometry": {"coordinates": [-96.68574863, 42.686672079], "type": "Point"}, "id": "fBESUitBDTMycKpMZ-WBMNFH-sU=", "properties": {"@source_uri": "https://tools.usps.com/UspsToolsRestServices/rest/POLocator/findLocations", "@spider": "usps_collection_boxes", "addr:city": "ELK POINT", "addr:country": "US", "addr:full": "123 W MAIN ST", "addr:postcode": "57025", "addr:state": "SD", "amenity": "post_box", "brand": "United States Postal Service", "brand:wikidata": "Q668687", "collection_times": "Mo-Fr 16:20; Sa 10:30", "name": "USPS COLLECTION BOX - PO LOBBY", "note": "ON 12/24 AND 12/31, THIS BOX MAY BE COLLECTED AS EARLY AS 12 NOON.", "nsi_id": "unitedstatespostalservice-a77078", "operator": "United States Postal Service", "operator:short": "USPS", "operator:type": "public", "operator:wikidata": "Q668687", "ref": "5702500005"}, "type": "Feature"}
{"geometry": {"coordinates": [-96.481012376, 44.235864], "type": "Point"}, "id": "CPUYsl8OnRK4TM8nPAUMgdZ-P1g=", "properties": {"@source_uri": "https://tools.usps.com/UspsToolsRestServices/rest/POLocator/findLocations", "@spider": "usps_collection_boxes", "addr:city": "ELKTON", "addr:country": "US", "addr:full": "207 ELK ST", "addr:postcode": "57026", "addr:state": "SD", "amenity": "post_box", "brand": "United States Postal Service", "brand:wikidata": "Q668687", "collection_times": "Mo-Sa 16:15", "name": "USPS COLLECTION BOX - BLUE BOX", "note": "ON 12/24 AND 12/31, THIS BOX MAY BE COLLECTED AS EARLY AS 12 NOON.", "nsi_id": "unitedstatespostalservice-a77078", "operator": "United States Postal Service", "operator:short": "USPS", "operator:type": "public", "operator:wikidata": "Q668687", "ref": "5702600001"}, "type": "Feature"}
{"geometry": {"coordinates": [-96.481012376, 44.235864], "type": "Point"}, "id": "1SI9b16j6c91gjxir15uf9gUS7E=", "properties": {"@source_uri": "https://tools.usps.com/UspsToolsRestServices/rest/POLocator/findLocations", "@spider": "usps_collection_boxes", "addr:city": "ELKTON", "addr:country": "US", "addr:full": "207 ELK ST", "addr:postcode": "57026", "addr:state": "SD", "amenity": "post_box", "brand": "United States Postal Service", "brand:wikidata": "Q668687", "collection_times": "Mo-Fr 14:30; Sa 10:00", "name": "USPS COLLECTION BOX - PO LOBBY", "note": "ON 12/24 AND 12/31, THIS BOX MAY BE COLLECTED AS EARLY AS 12 NOON.", "nsi_id": "unitedstatespostalservice-a77078", "operator": "United States Postal Service", "operator:short": "USPS", "operator:type": "public", "operator:wikidata": "Q668687", "ref": "5702600002"}, "type": "Feature"}
{"geometry": {"coordinates": [-96.481012376, 44.235864], "type": "Point"}, "id": "UUxXqGBnesBiVnoWHb8F56ibo6I=", "properties": {"@source_uri": "https://tools.usps.com/UspsToolsRestServices/rest/POLocator/findLocations", "@spider": "usps_collection_boxes", "addr:city": "ELKTON", "addr:country": "US", "addr:full": "207 ELK ST", "addr:postcode": "57026", "addr:state": "SD", "amenity": "post_box", "brand": "United States Postal Service", "brand:wikidata": "Q668687", "collection_times": "Mo-Fr 14:30; Sa 10:00", "name": "USPS COLLECTION BOX - PO LOBBY", "note": "ON 12/24 AND 12/31, THIS BOX MAY BE COLLECTED AS EARLY AS 12 NOON.", "nsi_id": "unitedstatespostalservice-a77078", "operator": "United States Postal Service", "operator:short": "USPS", "operator:type": "public", "operator:wikidata": "Q668687", "ref": "5702600004"}, "type": "Feature"}
{"geometry": {"coordinates": [-96.487793021, 43.221696415], "type": "Point"}, "id": "SMQWbRBD2mLTdCpZ7gjc7Jee9AM=", "properties": {"@source_uri": "https://tools.usps.com/UspsToolsRestServices/rest/POLocator/findLocations", "@spider": "usps_collection_boxes", "addr:city": "FAIRVIEW", "addr:country": "US", "addr:full": "320 LINCOLN ST", "addr:postcode": "57027", "addr:state": "SD", "amenity": "post_box", "brand": "United States Postal Service", "brand:wikidata": "Q668687", "collection_times": "Mo-Sa 12:45", "name": "USPS COLLECTION BOX - BLUE BOX", "note": "ON 12/24 AND 12/31, THIS BOX MAY BE COLLECTED AS EARLY AS 12 NOON.", "nsi_id": "unitedstatespostalservice-a77078", "operator": "United States Postal Service", "operator:short": "USPS", "operator:type": "public", "operator:wikidata": "Q668687", "ref": "5702700000"}, "type": "Feature"}
{"geometry": {"coordinates": [-96.487793021, 43.221696415], "type": "Point"}, "id": "WatR5D1DyHEl47bjTgZA4WWEUAU=", "properties": {"@source_uri": "https://tools.usps.com/UspsToolsRestServices/rest/POLocator/findLocations", "@spider": "usps_collection_boxes", "addr:city": "FAIRVIEW", "addr:country": "US", "addr:full": "320 LINCOLN ST", "addr:postcode": "57027", "addr:state": "SD", "amenity": "post_box", "brand": "United States Postal Service", "brand:wikidata": "Q668687", "collection_times": "Mo-Sa 12:45", "name": "USPS COLLECTION BOX - PO LOBBY", "note": "ON 12/24 AND 12/31, THIS BOX MAY BE COLLECTED AS EARLY AS 12 NOON.", "nsi_id": "unitedstatespostalservice-a77078", "operator": "United States Postal Service", "operator:short": "USPS", "operator:type": "public", "operator:wikidata": "Q668687", "ref": "5702700001"}, "type": "Feature"}
{"geometry": {"coordinates": [-96.487793021, 43.221696415], "type": "Point"}, "id": "jvW8IsJ0kPAVJnpiRQJkCDttrlQ=", "properties": {"@source_uri": "https://tools.usps.com/UspsToolsRestServices/rest/POLocator/findLocations", "@spider": "usps_collection_boxes", "addr:city": "FAIRVIEW", "addr:country": "US", "addr:full": "320 LINCOLN AVE", "addr:postcode": "57027", "addr:state": "SD", "amenity": "post_box", "brand": "United States Postal Service", "brand:wikidata": "Q668687", "collection_times": "Mo-Sa 12:45", "name": "USPS COLLECTION BOX - PO LOBBY", "note": "ON 12/24 AND 12/31, THIS BOX MAY BE COLLECTED AS EARLY AS 12 NOON.", "nsi_id": "unitedstatespostalservice-a77078", "operator": "United States Postal Service", "operator:short": "USPS", "operator:type": "public", "operator:wikidata": "Q668687", "ref": "5702700002"}, "type": "Feature"}
{"geometry": {"coordinates": [-96.605451, 44.048414523], "type": "Point"}, "id": "1mYKYrE9buCAIZ5T1-IKwL-WzrQ=", "properties": {"@source_uri": "https://tools.usps.com/UspsToolsRestServices/rest/POLocator/findLocations", "@spider": "usps_collection_boxes", "addr:city": "FLANDREAU", "addr:country": "US", "addr:full": "710 W PIPESTONE AVE", "addr:postcode": "57028", "addr:state": "SD", "amenity": "post_box", "brand": "United States Postal Service", "brand:wikidata": "Q668687", "collection_times": "Mo-Sa 10:30", "name": "USPS COLLECTION BOX - BLUE BOX", "nsi_id": "unitedstatespostalservice-a77078", "operator": "United States Postal Service", "operator:short": "USPS", "operator:type": "public", "operator:wikidata": "Q668687", "ref": "5702800001"}, "type": "Feature"}
{"geometry": {"coordinates": [-96.595830084, 44.049475486], "type": "Point"}, "id": "JCKbxDdtpbyY-1CGMkdMpmST-Cw=", "properties": {"@source_uri": "https://tools.usps.com/UspsToolsRestServices/rest/POLocator/findLocations", "@spider": "usps_collection_boxes", "addr:city": "FLANDREAU", "addr:country": "US", "addr:full": "102 W 2ND AVE", "addr:postcode": "57028", "addr:state": "SD", "amenity": "post_box", "brand": "United States Postal Service", "brand:wikidata": "Q668687", "collection_times": "Mo-Sa 17:00", "name": "USPS COLLECTION BOX - BLUE BOX", "note": "ON 12/24 AND 12/31, THIS BOX MAY BE COLLECTED AS EARLY AS 12 NOON.", "nsi_id": "unitedstatespostalservice-a77078", "operator": "United States Postal Service", "operator:short": "USPS", "operator:type": "public", "operator:wikidata": "Q668687", "ref": "5702800003"}, "type": "Feature"}
{"geometry": {"coordinates": [-96.595830084, 44.049475486], "type": "Point"}, "id": "f4IDtsfK710fmpCp3y9coxsUi2k=", "properties": {"@source_uri": "https://tools.usps.com/UspsToolsRestServices/rest/POLocator/findLocations", "@spider": "usps_collection_boxes", "addr:city": "FLANDREAU", "addr:country": "US", "addr:full": "102 W 2ND AVE", "addr:postcode": "57028", "addr:state": "SD", "amenity": "post_box", "brand": "United States Postal Service", "brand:wikidata": "Q668687", "collection_times": "Mo-Fr 16:30; Sa 09:30", "name": "USPS COLLECTION BOX - PO LOBBY", "note": "ON 12/24 AND 12/31, THIS BOX MAY BE COLLECTED AS EARLY AS 12 NOON.", "nsi_id": "unitedstatespostalservice-a77078", "operator": "United States Postal Service", "operator:short": "USPS", "operator:type": "public", "operator:wikidata": "Q668687", "ref": "5702800009"}, "type": "Feature"}
{"geometry": {"coordinates": [-96.594412584, 44.049482494], "type": "Point"}, "id": "7bD-17-DC5g73NgluK-r7J2RFbM=", "properties": {"@source_uri": "https://tools.usps.com/UspsToolsRestServices/rest/POLocator/findLocations", "@spider": "usps_collection_boxes", "addr:city": "FLANDREAU", "addr:country": "US", "addr:full": "120 E 2ND AVE", "addr:postcode": "57028", "addr:state": "SD", "amenity": "post_box", "brand": "United States Postal Service", "brand:wikidata": "Q668687", "collection_times": "Mo-Fr 15:00; Sa 14:00", "name": "USPS COLLECTION BOX - BLUE BOX", "note": "ON 12/24 AND 12/31, THIS BOX MAY BE COLLECTED AS EARLY AS 12 NOON.", "nsi_id": "unitedstatespostalservice-a77078", "operator": "United States Postal Service", "operator:short": "USPS", "operator:type": "public", "operator:wikidata": "Q668687", "ref": "5702800010"}, "type": "Feature"}
{"geometry": {"coordinates": [-96.59740873, 44.047438191], "type": "Point"}, "id": "qGs2edGo1D7nkeIeowfX15MnYII=", "properties": {"@source_uri": "https://tools.usps.com/UspsToolsRestServices/rest/POLocator/findLocations", "@spider": "usps_collection_boxes", "addr:city": "FLANDREAU", "addr:country": "US", "addr:full": "200 W 3RD AVE", "addr:postcode": "57028", "addr:state": "SD", "amenity": "post_box", "brand": "United States Postal Service", "brand:wikidata": "Q668687", "collection_times": "Mo-Fr 16:15; Sa 16:30", "name": "USPS COLLECTION BOX - BLUE BOX", "note": "ON 12/24 AND 12/31, THIS BOX MAY BE COLLECTED AS EARLY AS 12 NOON.", "nsi_id": "unitedstatespostalservice-a77078", "operator": "United States Postal Service", "operator:short": "USPS", "operator:type": "public", "operator:wikidata": "Q668687", "ref": "5702800011"}, "type": "Feature"}
{"geometry": {"coordinates": [-96.595830084, 44.049475486], "type": "Point"}, "id": "cfOycJpuLfRobsWwwpf2MSssQrM=", "properties": {"@source_uri": "https://tools.usps.com/UspsToolsRestServices/rest/POLocator/findLocations", "@spider": "usps_collection_boxes", "addr:city": "FLANDREAU", "addr:country": "US", "addr:full": "102 W 2ND AVE", "addr:postcode": "57028", "addr:state": "SD", "amenity": "post_box", "brand": "United States Postal Service", "brand:wikidata": "Q668687", "collection_times": "Mo-Fr 16:30; Sa 09:30", "name": "USPS COLLECTION BOX - PO LOBBY", "note": "ON 12/24 AND 12/31, THIS BOX MAY BE COLLECTED AS EARLY AS 12 NOON.", "nsi_id": "unitedstatespostalservice-a77078", "operator": "United States Postal Service", "operator:short": "USPS", "operator:type": "public", "operator:wikidata": "Q668687", "ref": "5702800014"}, "type": "Feature"}
{"geometry": {"coordinates": [-97.43594076, 43.350686665], "type": "Point"}, "id": "j1n_NnH5VJBj0u64bM29ePSsxew=", "properties": {"@source_uri": "https://tools.usps.com/UspsToolsRestServices/rest/POLocator/findLocations", "@spider": "usps_collection_boxes", "addr:city": "FREEMAN", "addr:country": "US", "addr:full": "421 S POPLAR ST", "addr:postcode": "57029", "addr:state": "SD", "amenity": "post_box", "brand": "United States Postal Service", "brand:wikidata": "Q668687", "collection_times": "Mo-Sa 16:15", "name": "USPS COLLECTION BOX - BLUE BOX", "note": "ON 12/24 AND 12/31, THIS BOX MAY BE COLLECTED AS EARLY AS 12 NOON.", "nsi_id": "unitedstatespostalservice-a77078", "operator": "United States Postal Service", "operator:short": "USPS", "operator:type": "public", "operator:wikidata": "Q668687", "ref": "5702900001"}, "type": "Feature"}
{"geometry": {"coordinates": [-97.43594076, 43.350686665], "type": "Point"}, "id": "KE4-odETZT7sc9jRyB25OTnR1TU=", "properties": {"@source_uri": "https://tools.usps.com/UspsToolsRestServices/rest/POLocator/findLocations", "@spider": "usps_collection_boxes", "addr:city": "FREEMAN", "addr:country": "US", "addr:full": "421 S POPLAR ST", "addr:postcode": "57029", "addr:state": "SD", "amenity": "post_box", "brand": "United States Postal Service", "brand:wikidata": "Q668687", "collection_times": "Mo-Fr 16:15; Sa 11:15", "name": "USPS COLLECTION BOX - PO LOBBY", "note": "ON 12/24 AND 12/31, THIS BOX MAY BE COLLECTED AS EARLY AS 12 NOON.", "nsi_id": "unitedstatespostalservice-a77078", "operator": "United States Postal Service", "operator:short": "USPS", "operator:type": "public", "operator:wikidata": "Q668687", "ref": "5702900002"}, "type": "Feature"}
{"geometry": {"coordinates": [-97.43594076, 43.350686665], "type": "Point"}, "id": "G0ws-ZVlksqVaxUoeUk3b3nkXtc=", "properties": {"@source_uri": "https://tools.usps.com/UspsToolsRestServices/rest/POLocator/findLocations", "@spider": "usps_collection_boxes", "addr:city": "FREEMAN", "addr:country": "US", "addr:full": "421 S POPLAR ST", "addr:postcode": "57029", "addr:state": "SD", "amenity": "post_box", "brand": "United States Postal Service", "brand:wikidata": "Q668687", "collection_times": "Mo-Fr 16:15; Sa 11:15", "name": "USPS COLLECTION BOX - PO LOBBY", "note": "ON 12/24 AND 12/31, THIS BOX MAY BE COLLECTED AS EARLY AS 12 NOON.", "nsi_id": "unitedstatespostalservice-a77078", "operator": "United States Postal Service", "operator:short": "USPS", "operator:type": "public", "operator:wikidata": "Q668687", "ref": "5702900004"}, "type": "Feature"}
{"geometry": {"coordinates": [-96.502821011, 43.716843639], "type": "Point"}, "id": "F5SRX9c8U3dzFbRZrLlV0uBPbJ8=", "properties": {"@source_uri": "https://tools.usps.com/UspsToolsRestServices/rest/POLocator/findLocations", "@spider": "usps_collection_boxes", "addr:city": "GARRETSON", "addr:country": "US", "addr:full": "641 N MAIN AVE", "addr:postcode": "57030", "addr:state": "SD", "amenity": "post_box", "brand": "United States Postal Service", "brand:wikidata": "Q668687", "collection_times": "Mo-Fr 15:45; Sa 16:00", "name": "USPS COLLECTION BOX - BLUE BOX", "note": "ON 12/24 AND 12/31, THIS BOX MAY BE COLLECTED AS EARLY AS 12 NOON.", "nsi_id": "unitedstatespostalservice-a77078", "operator": "United States Postal Service", "operator:short": "USPS", "operator:type": "public", "operator:wikidata": "Q668687", "ref": "5703000001"}, "type": "Feature"}
{"geometry": {"coordinates": [-96.502821011, 43.716843639], "type": "Point"}, "id": "sz8lbgzaLkOOmkk-0uOeGZH_b-c=", "properties": {"@source_uri": "https://tools.usps.com/UspsToolsRestServices/rest/POLocator/findLocations", "@spider": "usps_collection_boxes", "addr:city": "GARRETSON", "addr:country": "US", "addr:full": "641 N MAIN AVE", "addr:postcode": "57030", "addr:state": "SD", "amenity": "post_box", "brand": "United States Postal Service", "brand:wikidata": "Q668687", "collection_times": "Mo-Fr 15:45", "name": "USPS COLLECTION BOX - PO LOBBY", "note": "ON 12/24 AND 12/31, THIS BOX MAY BE COLLECTED AS EARLY AS 12 NOON.", "nsi_id": "unitedstatespostalservice-a77078", "operator": "United States Postal Service", "operator:short": "USPS", "operator:type": "public", "operator:wikidata": "Q668687", "ref": "5703000002"}, "type": "Feature"}
{"geometry": {"coordinates": [-96.502821011, 43.716843639], "type": "Point"}, "id": "-XMS6JzcNENkdDrBCrHGKMTFEiA=", "properties": {"@source_uri": "https://tools.usps.com/UspsToolsRestServices/rest/POLocator/findLocations", "@spider": "usps_collection_boxes", "addr:city": "GARRETSON", "addr:country": "US", "addr:full": "641 N MAIN AVE", "addr:postcode": "57030", "addr:state": "SD", "amenity": "post_box", "brand": "United States Postal Service", "brand:wikidata": "Q668687", "collection_times": "Mo-Fr 15:45; Sa 09:30", "name": "USPS COLLECTION BOX - PO LOBBY", "note": "ON 12/24 AND 12/31, THIS BOX MAY BE COLLECTED AS EARLY AS 12 NOON.", "nsi_id": "unitedstatespostalservice-a77078", "operator": "United States Postal Service", "operator:short": "USPS", "operator:type": "public", "operator:wikidata": "Q668687", "ref": "5703000005"}, "type": "Feature"}
{"geometry": {"coordinates": [-97.172548935, 42.888430676], "type": "Point"}, "id": "L7nNtlgtyhUPlKXGjwg-bb24WRc=", "properties": {"@source_uri": "https://tools.usps.com/UspsToolsRestServices/rest/POLocator/findLocations", "@spider": "usps_collection_boxes", "addr:city": "GAYVILLE", "addr:country": "US", "addr:full": "508 WASHINGTON ST", "addr:postcode": "57031", "addr:state": "SD", "amenity": "post_box", "brand": "United States Postal Service", "brand:wikidata": "Q668687", "collection_times": "Mo-Fr 16:45; Sa 17:00", "name": "USPS COLLECTION BOX - BLUE BOX", "note": "ON 12/24 AND 12/31, THIS BOX MAY BE COLLECTED AS EARLY AS 12 NOON.", "nsi_id": "unitedstatespostalservice-a77078", "operator": "United States Postal Service", "operator:short": "USPS", "operator:type": "public", "operator:wikidata": "Q668687", "ref": "5703100001"}, "type": "Feature"}
{"geometry": {"coordinates": [-97.172548935, 42.888430676], "type": "Point"}, "id": "syjSoHKdp955OE_E3uT5Ae8ZJJo=", "properties": {"@source_uri": "https://tools.usps.com/UspsToolsRestServices/rest/POLocator/findLocations", "@spider": "usps_collection_boxes", "addr:city": "GAYVILLE", "addr:country": "US", "addr:full": "508 WASHINGTON ST", "addr:postcode": "57031", "addr:state": "SD", "amenity": "post_box", "brand": "United States Postal Service", "brand:wikidata": "Q668687", "collection_times": "Mo-Fr 12:00", "name": "USPS COLLECTION BOX - PO LOBBY", "nsi_id": "unitedstatespostalservice-a77078", "operator": "United States Postal Service", "operator:short": "USPS", "operator:type": "public", "operator:wikidata": "Q668687", "ref": "5703100002"}, "type": "Feature"}
{"geometry": {"coordinates": [-96.707631098, 43.4408115108], "type": "Point"}, "id": "PZtacVi5lcHf4PHjlbyeJTWTAlw=", "properties": {"@source_uri": "https://tools.usps.com/UspsToolsRestServices/rest/POLocator/findLocations", "@spider": "usps_collection_boxes", "addr:city": "HARRISBURG", "addr:country": "US", "addr:full": "518 N CLIFF AVE", "addr:postcode": "57032", "addr:state": "SD", "amenity": "post_box", "brand": "United States Postal Service", "brand:wikidata": "Q668687", "collection_times": "Mo-Fr 16:30; Sa 16:45", "name": "USPS COLLECTION BOX - BLUE BOX", "note": "ON 12/24 AND 12/31, THIS BOX MAY BE COLLECTED AS EARLY AS 12 NOON.", "nsi_id": "unitedstatespostalservice-a77078", "operator": "United States Postal Service", "operator:short": "USPS", "operator:type": "public", "operator:wikidata": "Q668687", "ref": "5703200001"}, "type": "Feature"}
{"geometry": {"coordinates": [-96.707631098, 43.4408115108], "type": "Point"}, "id": "ovZCV3qxPTIqNoXgSF6mXvzjhsM=", "properties": {"@source_uri": "https://tools.usps.com/UspsToolsRestServices/rest/POLocator/findLocations", "@spider": "usps_collection_boxes", "addr:city": "HARRISBURG", "addr:country": "US", "addr:full": "518 CLIFF AVE", "addr:postcode": "57032", "addr:state": "SD", "amenity": "post_box", "brand": "United States Postal Service", "brand:wikidata": "Q668687", "collection_times": "Mo-Fr 16:45; Sa 09:30", "name": "USPS COLLECTION BOX - PO LOBBY", "note": "ON 12/24 AND 12/31, THIS BOX MAY BE COLLECTED AS EARLY AS 12 NOON.", "nsi_id": "unitedstatespostalservice-a77078", "operator": "United States Postal Service", "operator:short": "USPS", "operator:type": "public", "operator:wikidata": "Q668687", "ref": "5703200002"}, "type": "Feature"}
{"geometry": {"coordinates": [-96.707631098, 43.4408115108], "type": "Point"}, "id": "2XsfXIYpAGaoMx0-nkGo_lCp1Lc=", "properties": {"@source_uri": "https://tools.usps.com/UspsToolsRestServices/rest/POLocator/findLocations", "@spider": "usps_collection_boxes", "addr:city": "HARRISBURG", "addr:country": "US", "addr:full": "518 CLIFF AVE", "addr:postcode": "57032", "addr:state": "SD", "amenity": "post_box", "brand": "United States Postal Service", "brand:wikidata": "Q668687", "collection_times": "Mo-Fr 16:45; Sa 10:30", "name": "USPS COLLECTION BOX - PO LOBBY", "note": "ON 12/24 AND 12/31, THIS BOX MAY BE COLLECTED AS EARLY AS 12 NOON.", "nsi_id": "unitedstatespostalservice-a77078", "operator": "United States Postal Service", "operator:short": "USPS", "operator:type": "public", "operator:wikidata": "Q668687", "ref": "5703200004"}, "type": "Feature"}
{"geometry": {"coordinates": [-96.9476439976, 43.6312579893], "type": "Point"}, "id": "dLhQLaHqLVul2jgATQLUkqesHK4=", "properties": {"@source_uri": "https://tools.usps.com/UspsToolsRestServices/rest/POLocator/findLocations", "@spider": "usps_collection_boxes", "addr:city": "HARTFORD", "addr:country": "US", "addr:full": "901 N OAKS AVE", "addr:postcode": "57033", "addr:state": "SD", "amenity": "post_box", "brand": "United States Postal Service", "brand:wikidata": "Q668687", "collection_times": "Mo-Sa 17:30", "name": "USPS COLLECTION BOX - BLUE BOX", "note": "ON 12/24 AND 12/31, THIS BOX MAY BE COLLECTED AS EARLY AS 12 NOON.", "nsi_id": "unitedstatespostalservice-a77078", "operator": "United States Postal Service", "operator:short": "USPS", "operator:type": "public", "operator:wikidata": "Q668687", "ref": "5703300001"}, "type": "Feature"}
{"geometry": {"coordinates": [-96.947311931, 43.631206827], "type": "Point"}, "id": "ozV8lZrjeRem7rSkMEoXSENiYYI=", "properties": {"@source_uri": "https://tools.usps.com/UspsToolsRestServices/rest/POLocator/findLocations", "@spider": "usps_collection_boxes", "addr:city": "HARTFORD", "addr:country": "US", "addr:full": "901 N OAKS AVE", "addr:postcode": "57033", "addr:state": "SD", "amenity": "post_box", "brand": "United States Postal Service", "brand:wikidata": "Q668687", "collection_times": "Mo-Fr 16:30; Sa 10:00", "name": "USPS COLLECTION BOX - PO LOBBY", "note": "ON 12/24 AND 12/31, THIS BOX MAY BE COLLECTED AS EARLY AS 12 NOON.", "nsi_id": "unitedstatespostalservice-a77078", "operator": "United States Postal Service", "operator:short": "USPS", "operator:type": "public", "operator:wikidata": "Q668687", "ref": "5703300002"}, "type": "Feature"}
{"geometry": {"coordinates": [-96.947311931, 43.631206827], "type": "Point"}, "id": "0HYXiN4Kv6Jvp0naUhS067mD1GE=", "properties": {"@source_uri": "https://tools.usps.com/UspsToolsRestServices/rest/POLocator/findLocations", "@spider": "usps_collection_boxes", "addr:city": "HARTFORD", "addr:country": "US", "addr:full": "901 N OAKS AVE", "addr:postcode": "57033", "addr:state": "SD", "amenity": "post_box", "brand": "United States Postal Service", "brand:wikidata": "Q668687", "collection_times": "Mo-Fr 16:30; Sa 10:00", "name": "USPS COLLECTION BOX - PO LOBBY", "note": "ON 12/24 AND 12/31, THIS BOX MAY BE COLLECTED AS EARLY AS 12 NOON.", "nsi_id": "unitedstatespostalservice-a77078", "operator": "United States Postal Service", "operator:short": "USPS", "operator:type": "public", "operator:wikidata": "Q668687", "ref": "5703300004"}, "type": "Feature"}
{"geometry": {"coordinates": [-96.453139766, 43.130264715], "type": "Point"}, "id": "5ug_UTdCVwjneV5geCPnWRwdC-4=", "properties": {"@source_uri": "https://tools.usps.com/UspsToolsRestServices/rest/POLocator/findLocations", "@spider": "usps_collection_boxes", "addr:city": "HUDSON", "addr:country": "US", "addr:full": "318 WHEELOCK ST", "addr:postcode": "57034", "addr:state": "SD", "amenity": "post_box", "brand": "United States Postal Service", "brand:wikidata": "Q668687", "collection_times": "Mo-Sa 12:00", "name": "USPS COLLECTION BOX - BLUE BOX", "nsi_id": "unitedstatespostalservice-a77078", "operator": "United States Postal Service", "operator:short": "USPS", "operator:type": "public", "operator:wikidata": "Q668687", "ref": "5703400001"}, "type": "Feature"}
{"geometry": {"coordinates": [-96.453139766, 43.130264715], "type": "Point"}, "id": "iILD5Q8l27dpQCld3wYU8NlFnPk=", "properties": {"@source_uri": "https://tools.usps.com/UspsToolsRestServices/rest/POLocator/findLocations", "@spider": "usps_collection_boxes", "addr:city": "HUDSON", "addr:country": "US", "addr:full": "318 WHEELOCK ST", "addr:postcode": "57034", "addr:state": "SD", "amenity": "post_box", "brand": "United States Postal Service", "brand:wikidata": "Q668687", "collection_times": "Mo-Sa 12:00", "name": "USPS COLLECTION BOX - PO LOBBY", "nsi_id": "unitedstatespostalservice-a77078", "operator": "United States Postal Service", "operator:short": "USPS", "operator:type": "public", "operator:wikidata": "Q668687", "ref": "5703400002"}, "type": "Feature"}
{"geometry": {"coordinates": [-97.083913416, 43.645471522], "type": "Point"}, "id": "DvsIgff8wJ46g_O78iH7_eRiNeg=", "properties": {"@source_uri": "https://tools.usps.com/UspsToolsRestServices/rest/POLocator/findLocations", "@spider": "usps_collection_boxes", "addr:city": "HUMBOLDT", "addr:country": "US", "addr:full": "1005 W 2ND AVE", "addr:postcode": "57035", "addr:state": "SD", "amenity": "post_box", "brand": "United States Postal Service", "brand:wikidata": "Q668687", "collection_times": "Mo-Fr 16:15; Sa 17:30", "name": "USPS COLLECTION BOX - BLUE BOX", "note": "ON 12/24 AND 12/31, THIS BOX MAY BE COLLECTED AS EARLY AS 12 NOON.", "nsi_id": "unitedstatespostalservice-a77078", "operator": "United States Postal Service", "operator:short": "USPS", "operator:type": "public", "operator:wikidata": "Q668687", "ref": "5703500001"}, "type": "Feature"}
{"geometry": {"coordinates": [-97.083913416, 43.645471522], "type": "Point"}, "id": "N338KJwe0ToBMZZsBExrj1ZTrR8=", "properties": {"@source_uri": "https://tools.usps.com/UspsToolsRestServices/rest/POLocator/findLocations", "@spider": "usps_collection_boxes", "addr:city": "HUMBOLDT", "addr:country": "US", "addr:full": "1005 W 2ND AVE", "addr:postcode": "57035", "addr:state": "SD", "amenity": "post_box", "brand": "United States Postal Service", "brand:wikidata": "Q668687", "collection_times": "Mo-Fr 11:30", "name": "USPS COLLECTION BOX - PO LOBBY", "nsi_id": "unitedstatespostalservice-a77078", "operator": "United States Postal Service", "operator:short": "USPS", "operator:type": "public", "operator:wikidata": "Q668687", "ref": "5703500002"}, "type": "Feature"}
{"geometry": {"coordinates": [-97.090091193, 43.28298553], "type": "Point"}, "id": "1nIPEYHOw5tAysYm4CnbBUd-HcY=", "properties": {"@source_uri": "https://tools.usps.com/UspsToolsRestServices/rest/POLocator/findLocations", "@spider": "usps_collection_boxes", "addr:city": "HURLEY", "addr:country": "US", "addr:full": "608 CENTER AVE", "addr:postcode": "57036", "addr:state": "SD", "amenity": "post_box", "brand": "United States Postal Service", "brand:wikidata": "Q668687", "collection_times": "Mo-Fr 16:00; Sa 13:00", "name": "USPS COLLECTION BOX - PO LOBBY", "note": "ON 12/24 AND 12/31, THIS BOX MAY BE COLLECTED AS EARLY AS 12 NOON.", "nsi_id": "unitedstatespostalservice-a77078", "operator": "United States Postal Service", "operator:short": "USPS", "operator:type": "public", "operator:wikidata": "Q668687", "ref": "5703600002"}, "type": "Feature"}
{"geometry": {"coordinates": [-97.159644, 43.083117547], "type": "Point"}, "id": "8uBXGO-F4OfYARVvTL_mVvmuhU8=", "properties": {"@source_uri": "https://tools.usps.com/UspsToolsRestServices/rest/POLocator/findLocations", "@spider": "usps_collection_boxes", "addr:city": "IRENE", "addr:country": "US", "addr:full": "205 W MAIN ST", "addr:postcode": "57037", "addr:state": "SD", "amenity": "post_box", "brand": "United States Postal Service", "brand:wikidata": "Q668687", "collection_times": "Mo-Sa 16:30", "name": "USPS COLLECTION BOX - BLUE BOX", "note": "ON 12/24 AND 12/31, THIS BOX MAY BE COLLECTED AS EARLY AS 12 NOON.", "nsi_id": "unitedstatespostalservice-a77078", "operator": "United States Postal Service", "operator:short": "USPS", "operator:type": "public", "operator:wikidata": "Q668687", "ref": "5703700001"}, "type": "Feature"}
{"geometry": {"coordinates": [-97.159644, 43.083117547], "type": "Point"}, "id": "vTt4Vh3UD5S1YhSXUEZGg2YP_cU=", "properties": {"@source_uri": "https://tools.usps.com/UspsToolsRestServices/rest/POLocator/findLocations", "@spider": "usps_collection_boxes", "addr:city": "IRENE", "addr:country": "US", "addr:full": "205 W MAIN ST", "addr:postcode": "57037", "addr:state": "SD", "amenity": "post_box", "brand": "United States Postal Service", "brand:wikidata": "Q668687", "collection_times": "Mo-Fr 15:00; Sa 08:45", "name": "USPS COLLECTION BOX - PO LOBBY", "note": "ON 12/24 AND 12/31, THIS BOX MAY BE COLLECTED AS EARLY AS 12 NOON.", "nsi_id": "unitedstatespostalservice-a77078", "operator": "United States Postal Service", "operator:short": "USPS", "operator:type": "public", "operator:wikidata": "Q668687", "ref": "5703700002"}, "type": "Feature"}
{"geometry": {"coordinates": [-96.559263202, 42.602766665], "type": "Point"}, "id": "Mr3TO7BYiNUl443Vvibys6ovqvk=", "properties": {"@source_uri": "https://tools.usps.com/UspsToolsRestServices/rest/POLocator/findLocations", "@spider": "usps_collection_boxes", "addr:city": "JEFFERSON", "addr:country": "US", "addr:full": "303 MAIN ST", "addr:postcode": "57038", "addr:state": "SD", "amenity": "post_box", "brand": "United States Postal Service", "brand:wikidata": "Q668687", "collection_times": "Mo-Sa 16:30", "name": "USPS COLLECTION BOX - BLUE BOX", "note": "ON 12/24 AND 12/31, THIS BOX MAY BE COLLECTED AS EARLY AS 12 NOON.", "nsi_id": "unitedstatespostalservice-a77078", "operator": "United States Postal Service", "operator:short": "USPS", "operator:type": "public", "operator:wikidata": "Q668687", "ref": "5703800001"}, "type": "Feature"}
{"geometry": {"coordinates": [-96.559263202, 42.602766665], "type": "Point"}, "id": "aR45c85QqotDusSl6gXtFMZ4DHI=", "properties": {"@source_uri": "https://tools.usps.com/UspsToolsRestServices/rest/POLocator/findLocations", "@spider": "usps_collection_boxes", "addr:city": "JEFFERSON", "addr:country": "US", "addr:full": "303 MAIN ST", "addr:postcode": "57038", "addr:state": "SD", "amenity": "post_box", "brand": "United States Postal Service", "brand:wikidata": "Q668687", "collection_times": "Mo-Fr 16:30; Sa 13:00", "name": "USPS COLLECTION BOX - PO LOBBY", "note": "ON 12/24 AND 12/31, THIS BOX MAY BE COLLECTED AS EARLY AS 12 NOON.", "nsi_id": "unitedstatespostalservice-a77078", "operator": "United States Postal Service", "operator:short": "USPS", "operator:type": "public", "operator:wikidata": "Q668687", "ref": "5703800002"}, "type": "Feature"}
{"geometry": {"coordinates": [-96.8914190293, 43.3541290105], "type": "Point"}, "id": "IEylZS4fGuvjbCU8t0ATMKvla6A=", "properties": {"@source_uri": "https://tools.usps.com/UspsToolsRestServices/rest/POLocator/findLocations", "@spider": "usps_collection_boxes", "addr:city": "LENNOX", "addr:country": "US", "addr:full": "200 S MAIN ST", "addr:postcode": "57039", "addr:state": "SD", "amenity": "post_box", "brand": "United States Postal Service", "brand:wikidata": "Q668687", "collection_times": "Mo-Fr 16:00; Sa 17:30", "name": "USPS COLLECTION BOX - BLUE BOX", "note": "ON 12/24 AND 12/31, THIS BOX MAY BE COLLECTED AS EARLY AS 12 NOON.", "nsi_id": "unitedstatespostalservice-a77078", "operator": "United States Postal Service", "operator:short": "USPS", "operator:type": "public", "operator:wikidata": "Q668687", "ref": "5703900003"}, "type": "Feature"}
{"geometry": {"coordinates": [-96.891704715, 43.354107199], "type": "Point"}, "id": "gDkYPGO_hQanmjNjBN64IBIXm1Q=", "properties": {"@source_uri": "https://tools.usps.com/UspsToolsRestServices/rest/POLocator/findLocations", "@spider": "usps_collection_boxes", "addr:city": "LENNOX", "addr:country": "US", "addr:full": "200 S MAIN ST", "addr:postcode": "57039", "addr:state": "SD", "amenity": "post_box", "brand": "United States Postal Service", "brand:wikidata": "Q668687", "collection_times": "Mo-Fr 16:00; Sa 10:00", "name": "USPS COLLECTION BOX - PO LOBBY", "note": "ON 12/24 AND 12/31, THIS BOX MAY BE COLLECTED AS EARLY AS 12 NOON.", "nsi_id": "unitedstatespostalservice-a77078", "operator": "United States Postal Service", "operator:short": "USPS", "operator:type": "public", "operator:wikidata": "Q668687", "ref": "5703900005"}, "type": "Feature"}
{"geometry": {"coordinates": [-97.594150534, 43.039170534], "type": "Point"}, "id": "r645K7yOXpzlsrJC5KmGbwYFrMU=", "properties": {"@source_uri": "https://tools.usps.com/UspsToolsRestServices/rest/POLocator/findLocations", "@spider": "usps_collection_boxes", "addr:city": "LESTERVILLE", "addr:country": "US", "addr:full": "223 MAIN AVE", "addr:postcode": "57040", "addr:state": "SD", "amenity": "post_box", "brand": "United States Postal Service", "brand:wikidata": "Q668687", "collection_times": "Mo-Sa 16:00", "name": "USPS COLLECTION BOX - BLUE BOX", "note": "ON 12/24 AND 12/31, THIS BOX MAY BE COLLECTED AS EARLY AS 12 NOON.", "nsi_id": "unitedstatespostalservice-a77078", "operator": "United States Postal Service", "operator:short": "USPS", "operator:type": "public", "operator:wikidata": "Q668687", "ref": "5704000001"}, "type": "Feature"}
{"geometry": {"coordinates": [-97.594150534, 43.039170534], "type": "Point"}, "id": "bEMV8BRZOAaXzG3rKhq8vO_tqMQ=", "properties": {"@source_uri": "https://tools.usps.com/UspsToolsRestServices/rest/POLocator/findLocations", "@spider": "usps_collection_boxes", "addr:city": "LESTERVILLE", "addr:country": "US", "addr:full": "223 MAIN AVE", "addr:postcode": "57040", "addr:state": "SD", "amenity": "post_box", "brand": "United States Postal Service", "brand:wikidata": "Q668687", "collection_times": "Mo-Fr 12:00", "name": "USPS COLLECTION BOX - PO LOBBY", "nsi_id": "unitedstatespostalservice-a77078", "operator": "United States Postal Service", "operator:short": "USPS", "operator:type": "public", "operator:wikidata": "Q668687", "ref": "5704000002"}, "type": "Feature"}
{"geometry": {"coordinates": [-96.868732332, 43.723095526], "type": "Point"}, "id": "x29sLmTGMvuFpcNDndKICrd1axs=", "properties": {"@source_uri": "https://tools.usps.com/UspsToolsRestServices/rest/POLocator/findLocations", "@spider": "usps_collection_boxes", "addr:city": "LYONS", "addr:country": "US", "addr:full": "208 3RD ST", "addr:postcode": "57041", "addr:state": "SD", "amenity": "post_box", "brand": "United States Postal Service", "brand:wikidata": "Q668687", "collection_times": "Mo-Fr 16:45; Sa 17:00", "name": "USPS COLLECTION BOX - BLUE BOX", "note": "ON 12/24 AND 12/31, THIS BOX MAY BE COLLECTED AS EARLY AS 12 NOON.", "nsi_id": "unitedstatespostalservice-a77078", "operator": "United States Postal Service", "operator:short": "USPS", "operator:type": "public", "operator:wikidata": "Q668687", "ref": "5704100001"}, "type": "Feature"}
{"geometry": {"coordinates": [-97.11367406, 44.004992481], "type": "Point"}, "id": "cqq7Omq6bwWnQDhIGCPJ4Y9M8Cc=", "properties": {"@source_uri": "https://tools.usps.com/UspsToolsRestServices/rest/POLocator/findLocations", "@spider": "usps_collection_boxes", "addr:city": "MADISON", "addr:country": "US", "addr:full": "119 E CENTER ST", "addr:postcode": "57042", "addr:state": "SD", "amenity": "post_box", "brand": "United States Postal Service", "brand:wikidata": "Q668687", "collection_times": "Mo-Sa 17:00", "name": "USPS COLLECTION BOX - BLUE BOX", "note": "ON 12/24 AND 12/31, THIS BOX MAY BE COLLECTED AS EARLY AS 12 NOON.", "nsi_id": "unitedstatespostalservice-a77078", "operator": "United States Postal Service", "operator:short": "USPS", "operator:type": "public", "operator:wikidata": "Q668687", "ref": "5704200002"}, "type": "Feature"}
{"geometry": {"coordinates": [-97.11367406, 44.004992481], "type": "Point"}, "id": "K1rpjYdI4RvWcJDq8NMndLr6AcA=", "properties": {"@source_uri": "https://tools.usps.com/UspsToolsRestServices/rest/POLocator/findLocations", "@spider": "usps_collection_boxes", "addr:city": "MADISON", "addr:country": "US", "addr:full": "119 E CENTER ST", "addr:postcode": "57042", "addr:state": "SD", "amenity": "post_box", "brand": "United States Postal Service", "brand:wikidata": "Q668687", "collection_times": "Mo-Sa 17:00", "name": "USPS COLLECTION BOX - BLUE BOX", "note": "ON 12/24 AND 12/31, THIS BOX MAY BE COLLECTED AS EARLY AS 12 NOON.", "nsi_id": "unitedstatespostalservice-a77078", "operator": "United States Postal Service", "operator:short": "USPS", "operator:type": "public", "operator:wikidata": "Q668687", "ref": "5704200003"}, "type": "Feature"}
{"geometry": {"coordinates": [-97.11367406, 44.004992481], "type": "Point"}, "id": "rjyhptiThh80P617YFi-fieSbHs=", "properties": {"@source_uri": "https://tools.usps.com/UspsToolsRestServices/rest/POLocator/findLocations", "@spider": "usps_collection_boxes", "addr:city": "MADISON", "addr:country": "US", "addr:full": "119 E CENTER ST", "addr:postcode": "57042", "addr:state": "SD", "amenity": "post_box", "brand": "United States Postal Service", "brand:wikidata": "Q668687", "collection_times": "Mo-Sa 17:00", "name": "USPS COLLECTION BOX - PO LOBBY", "note": "ON 12/24 AND 12/31, THIS BOX MAY BE COLLECTED AS EARLY AS 12 NOON.", "nsi_id": "unitedstatespostalservice-a77078", "operator": "United States Postal Service", "operator:short": "USPS", "operator:type": "public", "operator:wikidata": "Q668687", "ref": "5704200008"}, "type": "Feature"}
{"geometry": {"coordinates": [-97.109867392, 43.998076532], "type": "Point"}, "id": "sOq62Im-DfJ4xoW985Noy4zKvrw=", "properties": {"@source_uri": "https://tools.usps.com/UspsToolsRestServices/rest/POLocator/findLocations", "@spider": "usps_collection_boxes", "addr:city": "MADISON", "addr:country": "US", "addr:full": "741 S WASHINGTON AVE", "addr:postcode": "57042", "addr:state": "SD", "amenity": "post_box", "brand": "United States Postal Service", "brand:wikidata": "Q668687", "collection_times": "Mo-Sa 09:00", "name": "USPS COLLECTION BOX - BLUE BOX", "nsi_id": "unitedstatespostalservice-a77078", "operator": "United States Postal Service", "operator:short": "USPS", "operator:type": "public", "operator:wikidata": "Q668687", "ref": "5704200009"}, "type": "Feature"}
{"geometry": {"coordinates": [-97.260670731, 43.423064203], "type": "Point"}, "id": "iDUwAI6BLr2ajtCtRhWrc0JwtV8=", "properties": {"@source_uri": "https://tools.usps.com/UspsToolsRestServices/rest/POLocator/findLocations", "@spider": "usps_collection_boxes", "addr:city": "MARION", "addr:country": "US", "addr:full": "209 N BROADWAY AVE", "addr:postcode": "57043", "addr:state": "SD", "amenity": "post_box", "brand": "United States Postal Service", "brand:wikidata": "Q668687", "collection_times": "Mo-Fr 16:15; Sa 10:30", "name": "USPS COLLECTION BOX - PO LOBBY", "note": "ON 12/24 AND 12/31, THIS BOX MAY BE COLLECTED AS EARLY AS 12 NOON.", "nsi_id": "unitedstatespostalservice-a77078", "operator": "United States Postal Service", "operator:short": "USPS", "operator:type": "public", "operator:wikidata": "Q668687", "ref": "5704300003"}, "type": "Feature"}
{"geometry": {"coordinates": [-97.260670731, 43.423064203], "type": "Point"}, "id": "cpp32YtRxzfIhndWvDYpoAuA8gY=", "properties": {"@source_uri": "https://tools.usps.com/UspsToolsRestServices/rest/POLocator/findLocations", "@spider": "usps_collection_boxes", "addr:city": "MARION", "addr:country": "US", "addr:full": "209 N BROADWAY AVE", "addr:postcode": "57043", "addr:state": "SD", "amenity": "post_box", "brand": "United States Postal Service", "brand:wikidata": "Q668687", "collection_times": "Mo-Fr 16:15; Sa 16:30", "name": "USPS COLLECTION BOX - BLUE BOX", "note": "ON 12/24 AND 12/31, THIS BOX MAY BE COLLECTED AS EARLY AS 12 NOON.", "nsi_id": "unitedstatespostalservice-a77078", "operator": "United States Postal Service", "operator:short": "USPS", "operator:type": "public", "operator:wikidata": "Q668687", "ref": "5704300005"}, "type": "Feature"}
{"geometry": {"coordinates": [-97.57802969, 43.238564497], "type": "Point"}, "id": "UeDO4w500wgvDRzs1Lg955AHPHw=", "properties": {"@source_uri": "https://tools.usps.com/UspsToolsRestServices/rest/POLocator/findLocations", "@spider": "usps_collection_boxes", "addr:city": "MENNO", "addr:country": "US", "addr:full": "227 S 5TH ST", "addr:postcode": "57045", "addr:state": "SD", "amenity": "post_box", "brand": "United States Postal Service", "brand:wikidata": "Q668687", "collection_times": "Mo-Sa 16:45", "name": "USPS COLLECTION BOX - BLUE BOX", "note": "ON 12/24 AND 12/31, THIS BOX MAY BE COLLECTED AS EARLY AS 12 NOON.", "nsi_id": "unitedstatespostalservice-a77078", "operator": "United States Postal Service", "operator:short": "USPS", "operator:type": "public", "operator:wikidata": "Q668687", "ref": "5704500001"}, "type": "Feature"}
{"geometry": {"coordinates": [-97.57802969, 43.238564497], "type": "Point"}, "id": "5Q5PdMOgfolCrHAC-s5OwYdzf0o=", "properties": {"@source_uri": "https://tools.usps.com/UspsToolsRestServices/rest/POLocator/findLocations", "@spider": "usps_collection_boxes", "addr:city": "MENNO", "addr:country": "US", "addr:full": "227 S 5TH ST", "addr:postcode": "57045", "addr:state": "SD", "amenity": "post_box", "brand": "United States Postal Service", "brand:wikidata": "Q668687", "collection_times": "Mo-Fr 15:00; Sa 10:30", "name": "USPS COLLECTION BOX - PO LOBBY", "note": "ON 12/24 AND 12/31, THIS BOX MAY BE COLLECTED AS EARLY AS 12 NOON.", "nsi_id": "unitedstatespostalservice-a77078", "operator": "United States Postal Service", "operator:short": "USPS", "operator:type": "public", "operator:wikidata": "Q668687", "ref": "5704500002"}, "type": "Feature"}
{"geometry": {"coordinates": [-97.279025524, 42.919056045], "type": "Point"}, "id": "j3Yw8EwffOSJWZJe15JYxVSWtVU=", "properties": {"@source_uri": "https://tools.usps.com/UspsToolsRestServices/rest/POLocator/findLocations", "@spider": "usps_collection_boxes", "addr:city": "MISSION HILL", "addr:country": "US", "addr:full": "109 WASHINGTON AVE S", "addr:postcode": "57046", "addr:state": "SD", "amenity": "post_box", "brand": "United States Postal Service", "brand:wikidata": "Q668687", "collection_times": "Mo-Sa 16:30", "name": "USPS COLLECTION BOX - BLUE BOX", "note": "ON 12/24 AND 12/31, THIS BOX MAY BE COLLECTED AS EARLY AS 12 NOON.", "nsi_id": "unitedstatespostalservice-a77078", "operator": "United States Postal Service", "operator:short": "USPS", "operator:type": "public", "operator:wikidata": "Q668687", "ref": "5704600001"}, "type": "Feature"}
{"geometry": {"coordinates": [-97.279025524, 42.919056045], "type": "Point"}, "id": "NWcVDStzzJ_qnj0zDye3f2guPl4=", "properties": {"@source_uri": "https://tools.usps.com/UspsToolsRestServices/rest/POLocator/findLocations", "@spider": "usps_collection_boxes", "addr:city": "MISSION HILL", "addr:country": "US", "addr:full": "109 WASHINGTON AVE S", "addr:postcode": "57046", "addr:state": "SD", "amenity": "post_box", "brand": "United States Postal Service", "brand:wikidata": "Q668687", "collection_times": "Mo-Fr 14:45; Sa 11:15", "name": "USPS COLLECTION BOX - PO LOBBY", "note": "ON 12/24 AND 12/31, THIS BOX MAY BE COLLECTED AS EARLY AS 12 NOON.", "nsi_id": "unitedstatespostalservice-a77078", "operator": "United States Postal Service", "operator:short": "USPS", "operator:type": "public", "operator:wikidata": "Q668687", "ref": "5704600002"}, "type": "Feature"}
{"geometry": {"coordinates": [-97.1838021107, 43.7009581448], "type": "Point"}, "id": "4lfYj3PrMosaBmImEonKXztO54g=", "properties": {"@source_uri": "https://tools.usps.com/UspsToolsRestServices/rest/POLocator/findLocations", "@spider": "usps_collection_boxes", "addr:city": "MONTROSE", "addr:country": "US", "addr:full": "105 W MAIN ST", "addr:postcode": "57048", "addr:state": "SD", "amenity": "post_box", "brand": "United States Postal Service", "brand:wikidata": "Q668687", "collection_times": "Mo-Fr 16:15; Sa 17:15", "name": "USPS COLLECTION BOX - BLUE BOX", "note": "ON 12/24 AND 12/31, THIS BOX MAY BE COLLECTED AS EARLY AS 12 NOON.", "nsi_id": "unitedstatespostalservice-a77078", "operator": "United States Postal Service", "operator:short": "USPS", "operator:type": "public", "operator:wikidata": "Q668687", "ref": "5704800001"}, "type": "Feature"}
{"geometry": {"coordinates": [-97.183802111, 43.700958145], "type": "Point"}, "id": "944_AJSs7aiCA6pW9Krb2c7OOKk=", "properties": {"@source_uri": "https://tools.usps.com/UspsToolsRestServices/rest/POLocator/findLocations", "@spider": "usps_collection_boxes", "addr:city": "MONTROSE", "addr:country": "US", "addr:full": "105 W MAIN ST", "addr:postcode": "57048", "addr:state": "SD", "amenity": "post_box", "brand": "United States Postal Service", "brand:wikidata": "Q668687", "collection_times": "Mo-Fr 11:30; Sa 09:45", "name": "USPS COLLECTION BOX - PO LOBBY", "nsi_id": "unitedstatespostalservice-a77078", "operator": "United States Postal Service", "operator:short": "USPS", "operator:type": "public", "operator:wikidata": "Q668687", "ref": "5704800002"}, "type": "Feature"}
{"geometry": {"coordinates": [-96.497362859, 42.524324088], "type": "Point"}, "id": "byffTKigaobjUG3fl4YQKmBAgUM=", "properties": {"@source_uri": "https://tools.usps.com/UspsToolsRestServices/rest/POLocator/findLocations", "@spider": "usps_collection_boxes", "addr:city": "N SIOUX CITY", "addr:country": "US", "addr:full": "100 S DERBY LN", "addr:postcode": "57049", "addr:state": "SD", "amenity": "post_box", "brand": "United States Postal Service", "brand:wikidata": "Q668687", "collection_times": "Mo-Sa 13:30", "name": "USPS COLLECTION BOX - BLUE BOX", "note": "ON 12/24 AND 12/31, THIS BOX MAY BE COLLECTED AS EARLY AS 12 NOON.", "nsi_id": "unitedstatespostalservice-a77078", "operator": "United States Postal Service", "operator:short": "USPS", "operator:type": "public", "operator:wikidata": "Q668687", "ref": "5704900002"}, "type": "Feature"}
{"geometry": {"coordinates": [-96.497426169, 42.52887], "type": "Point"}, "id": "9h3AzzXYKkYkGZKCk6M0Q15mUeA=", "properties": {"@source_uri": "https://tools.usps.com/UspsToolsRestServices/rest/POLocator/findLocations", "@spider": "usps_collection_boxes", "addr:city": "N SIOUX CITY", "addr:country": "US", "addr:full": "310 N DERBY LN", "addr:postcode": "57049", "addr:state": "SD", "amenity": "post_box", "brand": "United States Postal Service", "brand:wikidata": "Q668687", "collection_times": "Mo-Sa 16:30", "name": "USPS COLLECTION BOX - BLUE BOX", "note": "ON 12/24 AND 12/31, THIS BOX MAY BE COLLECTED AS EARLY AS 12 NOON.", "nsi_id": "unitedstatespostalservice-a77078", "operator": "United States Postal Service", "operator:short": "USPS", "operator:type": "public", "operator:wikidata": "Q668687", "ref": "5704900004"}, "type": "Feature"}
{"geometry": {"coordinates": [-96.497426169, 42.52887], "type": "Point"}, "id": "7nN5a0-W3Ul7zL7i-TcAhooeet4=", "properties": {"@source_uri": "https://tools.usps.com/UspsToolsRestServices/rest/POLocator/findLocations", "@spider": "usps_collection_boxes", "addr:city": "N SIOUX CITY", "addr:country": "US", "addr:full": "310 N DERBY LN", "addr:postcode": "57049", "addr:state": "SD", "amenity": "post_box", "brand": "United States Postal Service", "brand:wikidata": "Q668687", "collection_times": "Mo-Fr 16:45; Sa 11:00", "name": "USPS COLLECTION BOX - PO LOBBY", "note": "ON 12/24 AND 12/31, THIS BOX MAY BE COLLECTED AS EARLY AS 12 NOON.", "nsi_id": "unitedstatespostalservice-a77078", "operator": "United States Postal Service", "operator:short": "USPS", "operator:type": "public", "operator:wikidata": "Q668687", "ref": "5704900007"}, "type": "Feature"}
{"geometry": {"coordinates": [-96.495332871, 42.504282861], "type": "Point"}, "id": "Jczdf65U3lgy-IOffeAt188yQlQ=", "properties": {"@source_uri": "https://tools.usps.com/UspsToolsRestServices/rest/POLocator/findLocations", "@spider": "usps_collection_boxes", "addr:city": "N SIOUX CITY", "addr:country": "US", "addr:full": "200 TOWER RD", "addr:postcode": "57049", "addr:state": "SD", "amenity": "post_box", "brand": "United States Postal Service", "brand:wikidata": "Q668687", "collection_times": "Mo-Sa 13:30", "name": "USPS COLLECTION BOX - BLUE BOX", "note": "ON 12/24 AND 12/31, THIS BOX MAY BE COLLECTED AS EARLY AS 12 NOON.", "nsi_id": "unitedstatespostalservice-a77078", "operator": "United States Postal Service", "operator:short": "USPS", "operator:type": "public", "operator:wikidata": "Q668687", "ref": "5704900010"}, "type": "Feature"}
{"geometry": {"coordinates": [-96.497426169, 42.52887], "type": "Point"}, "id": "xcAmoqvsJ1iOZ0qDdA5ep-CFyZM=", "properties": {"@source_uri": "https://tools.usps.com/UspsToolsRestServices/rest/POLocator/findLocations", "@spider": "usps_collection_boxes", "addr:city": "N SIOUX CITY", "addr:country": "US", "addr:full": "310 N DERBY LN", "addr:postcode": "57049", "addr:state": "SD", "amenity": "post_box", "brand": "United States Postal Service", "brand:wikidata": "Q668687", "collection_times": "Mo-Fr 16:30; Sa 11:00", "name": "USPS COLLECTION BOX - PO LOBBY", "note": "ON 12/24 AND 12/31, THIS BOX MAY BE COLLECTED AS EARLY AS 12 NOON.", "nsi_id": "unitedstatespostalservice-a77078", "operator": "United States Postal Service", "operator:short": "USPS", "operator:type": "public", "operator:wikidata": "Q668687", "ref": "5704900013"}, "type": "Feature"}
{"geometry": {"coordinates": [-97.0178542706, 44.1621240452], "type": "Point"}, "id": "6C7fiQ7IVjjmnW_9faRfxa2hv1k=", "properties": {"@source_uri": "https://tools.usps.com/UspsToolsRestServices/rest/POLocator/findLocations", "@spider": "usps_collection_boxes", "addr:city": "NUNDA", "addr:country": "US", "addr:full": "409 MAIN ST", "addr:postcode": "57050", "addr:state": "SD", "amenity": "post_box", "brand": "United States Postal Service", "brand:wikidata": "Q668687", "collection_times": "Mo-Sa 16:15", "name": "USPS COLLECTION BOX - BLUE BOX", "note": "ON 12/24 AND 12/31, THIS BOX MAY BE COLLECTED AS EARLY AS 12 NOON.", "nsi_id": "unitedstatespostalservice-a77078", "operator": "United States Postal Service", "operator:short": "USPS", "operator:type": "public", "operator:wikidata": "Q668687", "ref": "5705000001"}, "type": "Feature"}
{"geometry": {"coordinates": [-97.0178542706, 44.1621240452], "type": "Point"}, "id": "RNDks4rCVLHMzQfxXo_jRLsZqf8=", "properties": {"@source_uri": "https://tools.usps.com/UspsToolsRestServices/rest/POLocator/findLocations", "@spider": "usps_collection_boxes", "addr:city": "NUNDA", "addr:country": "US", "addr:full": "409 MAIN ST", "addr:postcode": "57050", "addr:state": "SD", "amenity": "post_box", "brand": "United States Postal Service", "brand:wikidata": "Q668687", "collection_times": "Mo-Sa 14:15", "name": "USPS COLLECTION BOX - PO LOBBY", "note": "ON 12/24 AND 12/31, THIS BOX MAY BE COLLECTED AS EARLY AS 12 NOON.", "nsi_id": "unitedstatespostalservice-a77078", "operator": "United States Postal Service", "operator:short": "USPS", "operator:type": "public", "operator:wikidata": "Q668687", "ref": "5705000002"}, "type": "Feature"}
{"geometry": {"coordinates": [-97.308357173, 44.227724535], "type": "Point"}, "id": "D9woYMC8TyUUvh3soT7YODXyMjQ=", "properties": {"@source_uri": "https://tools.usps.com/UspsToolsRestServices/rest/POLocator/findLocations", "@spider": "usps_collection_boxes", "addr:city": "OLDHAM", "addr:country": "US", "addr:full": "105 N LILLIE AVE", "addr:postcode": "57051", "addr:state": "SD", "amenity": "post_box", "brand": "United States Postal Service", "brand:wikidata": "Q668687", "collection_times": "Mo-Sa 16:00", "name": "USPS COLLECTION BOX - BLUE BOX", "note": "ON 12/24 AND 12/31, THIS BOX MAY BE COLLECTED AS EARLY AS 12 NOON.", "nsi_id": "unitedstatespostalservice-a77078", "operator": "United States Postal Service", "operator:short": "USPS", "operator:type": "public", "operator:wikidata": "Q668687", "ref": "5705100001"}, "type": "Feature"}
{"geometry": {"coordinates": [-97.308357173, 44.227724535], "type": "Point"}, "id": "P4ACNYc-FqfPgkw8RFG7aoz9QpI=", "properties": {"@source_uri": "https://tools.usps.com/UspsToolsRestServices/rest/POLocator/findLocations", "@spider": "usps_collection_boxes", "addr:city": "OLDHAM", "addr:country": "US", "addr:full": "105 N LILLIE AVE", "addr:postcode": "57051", "addr:state": "SD", "amenity": "post_box", "brand": "United States Postal Service", "brand:wikidata": "Q668687", "collection_times": "Mo-Fr 12:00; Sa 09:15", "name": "USPS COLLECTION BOX - PO LOBBY", "nsi_id": "unitedstatespostalservice-a77078", "operator": "United States Postal Service", "operator:short": "USPS", "operator:type": "public", "operator:wikidata": "Q668687", "ref": "5705100002"}, "type": "Feature"}
{"geometry": {"coordinates": [-97.674759, 43.2407544957], "type": "Point"}, "id": "UEaSwcJESHUQe4eNgqC4q4Ijksc=", "properties": {"@source_uri": "https://tools.usps.com/UspsToolsRestServices/rest/POLocator/findLocations", "@spider": "usps_collection_boxes", "addr:city": "OLIVET", "addr:country": "US", "addr:full": "145 EUCLID ST", "addr:postcode": "57052", "addr:state": "SD", "amenity": "post_box", "brand": "United States Postal Service", "brand:wikidata": "Q668687", "collection_times": "Mo-Sa 16:30", "name": "USPS COLLECTION BOX - BLUE BOX", "note": "ON 12/24 AND 12/31, THIS BOX MAY BE COLLECTED AS EARLY AS 12 NOON.", "nsi_id": "unitedstatespostalservice-a77078", "operator": "United States Postal Service", "operator:short": "USPS", "operator:type": "public", "operator:wikidata": "Q668687", "ref": "5705200001"}, "type": "Feature"}
{"geometry": {"coordinates": [-97.6747635, 43.240745496], "type": "Point"}, "id": "2CAK-UToUPYPLUQGBmQE1DV3i_w=", "properties": {"@source_uri": "https://tools.usps.com/UspsToolsRestServices/rest/POLocator/findLocations", "@spider": "usps_collection_boxes", "addr:city": "OLIVET", "addr:country": "US", "addr:full": "145 EUCLID ST", "addr:postcode": "57052", "addr:state": "SD", "amenity": "post_box", "brand": "United States Postal Service", "brand:wikidata": "Q668687", "collection_times": "Mo-Fr 16:00; Sa 11:00", "name": "USPS COLLECTION BOX - PO LOBBY", "note": "ON 12/24 AND 12/31, THIS BOX MAY BE COLLECTED AS EARLY AS 12 NOON.", "nsi_id": "unitedstatespostalservice-a77078", "operator": "United States Postal Service", "operator:short": "USPS", "operator:type": "public", "operator:wikidata": "Q668687", "ref": "5705200002"}, "type": "Feature"}
{"geometry": {"coordinates": [-97.136720311, 43.39634509], "type": "Point"}, "id": "2jlhPhWU1Rnr11ueHk6O9ilU6mY=", "properties": {"@source_uri": "https://tools.usps.com/UspsToolsRestServices/rest/POLocator/findLocations", "@spider": "usps_collection_boxes", "addr:city": "PARKER", "addr:country": "US", "addr:full": "125 S MAIN AVE", "addr:postcode": "57053", "addr:state": "SD", "amenity": "post_box", "brand": "United States Postal Service", "brand:wikidata": "Q668687", "collection_times": "Mo-Fr 16:30; Sa 17:00", "name": "USPS COLLECTION BOX - BLUE BOX", "note": "ON 12/24 AND 12/31, THIS BOX MAY BE COLLECTED AS EARLY AS 12 NOON.", "nsi_id": "unitedstatespostalservice-a77078", "operator": "United States Postal Service", "operator:short": "USPS", "operator:type": "public", "operator:wikidata": "Q668687", "ref": "5705300001"}, "type": "Feature"}
{"geometry": {"coordinates": [-97.136720311, 43.39634509], "type": "Point"}, "id": "3C6Xt5E3hiR7-_Bxy2g768A3NkY=", "properties": {"@source_uri": "https://tools.usps.com/UspsToolsRestServices/rest/POLocator/findLocations", "@spider": "usps_collection_boxes", "addr:city": "PARKER", "addr:country": "US", "addr:full": "125 S MAIN AVE", "addr:postcode": "57053", "addr:state": "SD", "amenity": "post_box", "brand": "United States Postal Service", "brand:wikidata": "Q668687", "collection_times": "Mo-Fr 16:30; Sa 09:45", "name": "USPS COLLECTION BOX - PO LOBBY", "note": "ON 12/24 AND 12/31, THIS BOX MAY BE COLLECTED AS EARLY AS 12 NOON.", "nsi_id": "unitedstatespostalservice-a77078", "operator": "United States Postal Service", "operator:short": "USPS", "operator:type": "public", "operator:wikidata": "Q668687", "ref": "5705300002"}, "type": "Feature"}
{"geometry": {"coordinates": [-97.215775606, 44.119311777], "type": "Point"}, "id": "nDbnRlS7-FdBpDOMMxacjpKdeRk=", "properties": {"@source_uri": "https://tools.usps.com/UspsToolsRestServices/rest/POLocator/findLocations", "@spider": "usps_collection_boxes", "addr:city": "RAMONA", "addr:country": "US", "addr:full": "217 E MAIN ST", "addr:postcode": "57054", "addr:state": "SD", "amenity": "post_box", "brand": "United States Postal Service", "brand:wikidata": "Q668687", "collection_times": "Mo-Sa 16:15", "name": "USPS COLLECTION BOX - BLUE BOX", "note": "ON 12/24 AND 12/31, THIS BOX MAY BE COLLECTED AS EARLY AS 12 NOON.", "nsi_id": "unitedstatespostalservice-a77078", "operator": "United States Postal Service", "operator:short": "USPS", "operator:type": "public", "operator:wikidata": "Q668687", "ref": "5705400001"}, "type": "Feature"}
{"geometry": {"coordinates": [-97.215775606, 44.119311777], "type": "Point"}, "id": "2-D_tM6CU34XHHU8cU_cjLw9vsk=", "properties": {"@source_uri": "https://tools.usps.com/UspsToolsRestServices/rest/POLocator/findLocations", "@spider": "usps_collection_boxes", "addr:city": "RAMONA", "addr:country": "US", "addr:full": "217 E MAIN ST", "addr:postcode": "57054", "addr:state": "SD", "amenity": "post_box", "brand": "United States Postal Service", "brand:wikidata": "Q668687", "collection_times": "Mo-Fr 11:45; Sa 09:40", "name": "USPS COLLECTION BOX - PO LOBBY", "nsi_id": "unitedstatespostalservice-a77078", "operator": "United States Postal Service", "operator:short": "USPS", "operator:type": "public", "operator:wikidata": "Q668687", "ref": "5705400002"}, "type": "Feature"}
{"geometry": {"coordinates": [-97.387411062, 43.726922665], "type": "Point"}, "id": "lnt61yoT09cWzd7IfN-SRXAiCEQ=", "properties": {"@source_uri": "https://tools.usps.com/UspsToolsRestServices/rest/POLocator/findLocations", "@spider": "usps_collection_boxes", "addr:city": "SALEM", "addr:country": "US", "addr:full": "311 N MAIN ST", "addr:postcode": "57058", "addr:state": "SD", "amenity": "post_box", "brand": "United States Postal Service", "brand:wikidata": "Q668687", "collection_times": "Mo-Fr 16:15; Sa 17:00", "name": "USPS COLLECTION BOX - BLUE BOX", "note": "ON 12/24 AND 12/31, THIS BOX MAY BE COLLECTED AS EARLY AS 12 NOON.", "nsi_id": "unitedstatespostalservice-a77078", "operator": "United States Postal Service", "operator:short": "USPS", "operator:type": "public", "operator:wikidata": "Q668687", "ref": "5705800003"}, "type": "Feature"}
{"geometry": {"coordinates": [-97.387411062, 43.726922665], "type": "Point"}, "id": "WTQOP9KAggklVvkacSEwRYygUis=", "properties": {"@source_uri": "https://tools.usps.com/UspsToolsRestServices/rest/POLocator/findLocations", "@spider": "usps_collection_boxes", "addr:city": "SALEM", "addr:country": "US", "addr:full": "311 N MAIN ST", "addr:postcode": "57058", "addr:state": "SD", "amenity": "post_box", "brand": "United States Postal Service", "brand:wikidata": "Q668687", "collection_times": "Mo-Fr 16:15; Sa 10:00", "name": "USPS COLLECTION BOX - PO LOBBY", "note": "ON 12/24 AND 12/31, THIS BOX MAY BE COLLECTED AS EARLY AS 12 NOON.", "nsi_id": "unitedstatespostalservice-a77078", "operator": "United States Postal Service", "operator:short": "USPS", "operator:type": "public", "operator:wikidata": "Q668687", "ref": "5705800006"}, "type": "Feature"}
{"geometry": {"coordinates": [-97.388909724, 43.71554156], "type": "Point"}, "id": "0hwAhLABync2_wYsmSlXz4coWow=", "properties": {"@source_uri": "https://tools.usps.com/UspsToolsRestServices/rest/POLocator/findLocations", "@spider": "usps_collection_boxes", "addr:city": "SALEM", "addr:country": "US", "addr:full": "25315 US HIGHWAY 81", "addr:postcode": "57058", "addr:state": "SD", "amenity": "post_box", "brand": "United States Postal Service", "brand:wikidata": "Q668687", "collection_times": "Mo-Sa 13:30", "name": "USPS COLLECTION BOX - BLUE BOX", "note": "ON 12/24 AND 12/31, THIS BOX MAY BE COLLECTED AS EARLY AS 12 NOON.", "nsi_id": "unitedstatespostalservice-a77078", "operator": "United States Postal Service", "operator:short": "USPS", "operator:type": "public", "operator:wikidata": "Q668687", "ref": "5705800009"}, "type": "Feature"}
{"geometry": {"coordinates": [-97.720339758, 43.149173361], "type": "Point"}, "id": "kNZcdHaErx3jq-8j6eWCHlxqiHA=", "properties": {"@source_uri": "https://tools.usps.com/UspsToolsRestServices/rest/POLocator/findLocations", "@spider": "usps_collection_boxes", "addr:city": "SCOTLAND", "addr:country": "US", "addr:full": "640 1ST ST", "addr:postcode": "57059", "addr:state": "SD", "amenity": "post_box", "brand": "United States Postal Service", "brand:wikidata": "Q668687", "collection_times": "Mo-Sa 16:30", "name": "USPS COLLECTION BOX - BLUE BOX", "note": "ON 12/24 AND 12/31, THIS BOX MAY BE COLLECTED AS EARLY AS 12 NOON.", "nsi_id": "unitedstatespostalservice-a77078", "operator": "United States Postal Service", "operator:short": "USPS", "operator:type": "public", "operator:wikidata": "Q668687", "ref": "5705900001"}, "type": "Feature"}
{"geometry": {"coordinates": [-97.720339809, 43.149164351], "type": "Point"}, "id": "qxvVCbOwyOhvWIYl1E38yWnzLAg=", "properties": {"@source_uri": "https://tools.usps.com/UspsToolsRestServices/rest/POLocator/findLocations", "@spider": "usps_collection_boxes", "addr:city": "SCOTLAND", "addr:country": "US", "addr:full": "640 1ST ST", "addr:postcode": "57059", "addr:state": "SD", "amenity": "post_box", "brand": "United States Postal Service", "brand:wikidata": "Q668687", "collection_times": "Mo-Fr 15:30; Sa 09:45", "name": "USPS COLLECTION BOX - PO LOBBY", "note": "ON 12/24 AND 12/31, THIS BOX MAY BE COLLECTED AS EARLY AS 12 NOON.", "nsi_id": "unitedstatespostalservice-a77078", "operator": "United States Postal Service", "operator:short": "USPS", "operator:type": "public", "operator:wikidata": "Q668687", "ref": "5705900003"}, "type": "Feature"}
{"geometry": {"coordinates": [-97.042491736, 44.244433748], "type": "Point"}, "id": "o15c3hONh5jEYadJXPGxNDaKyBw=", "properties": {"@source_uri": "https://tools.usps.com/UspsToolsRestServices/rest/POLocator/findLocations", "@spider": "usps_collection_boxes", "addr:city": "SINAI", "addr:country": "US", "addr:full": "301 MAIN AVE", "addr:postcode": "57061", "addr:state": "SD", "amenity": "post_box", "brand": "United States Postal Service", "brand:wikidata": "Q668687", "collection_times": "Mo-Sa 16:00", "name": "USPS COLLECTION BOX - BLUE BOX", "note": "ON 12/24 AND 12/31, THIS BOX MAY BE COLLECTED AS EARLY AS 12 NOON.", "nsi_id": "unitedstatespostalservice-a77078", "operator": "United States Postal Service", "operator:short": "USPS", "operator:type": "public", "operator:wikidata": "Q668687", "ref": "5706100000"}, "type": "Feature"}
{"geometry": {"coordinates": [-97.042491736, 44.244433748], "type": "Point"}, "id": "lyltkxka0gR7UA4lu8gWb7_kfk4=", "properties": {"@source_uri": "https://tools.usps.com/UspsToolsRestServices/rest/POLocator/findLocations", "@spider": "usps_collection_boxes", "addr:city": "SINAI", "addr:country": "US", "addr:full": "301 MAIN AVE", "addr:postcode": "57061", "addr:state": "SD", "amenity": "post_box", "brand": "United States Postal Service", "brand:wikidata": "Q668687", "collection_times": "Mo-Fr 11:45", "name": "USPS COLLECTION BOX - PO LOBBY", "nsi_id": "unitedstatespostalservice-a77078", "operator": "United States Postal Service", "operator:short": "USPS", "operator:type": "public", "operator:wikidata": "Q668687", "ref": "5706100001"}, "type": "Feature"}
{"geometry": {"coordinates": [-97.895609832, 42.854179485], "type": "Point"}, "id": "K6nnsK2tI4XCBHCoae_NVnjiyDE=", "properties": {"@source_uri": "https://tools.usps.com/UspsToolsRestServices/rest/POLocator/findLocations", "@spider": "usps_collection_boxes", "addr:city": "SPRINGFIELD", "addr:country": "US", "addr:full": "811 8TH ST", "addr:postcode": "57062", "addr:state": "SD", "amenity": "post_box", "brand": "United States Postal Service", "brand:wikidata": "Q668687", "collection_times": "Mo-Sa 16:00", "name": "USPS COLLECTION BOX - BLUE BOX", "note": "ON 12/24 AND 12/31, THIS BOX MAY BE COLLECTED AS EARLY AS 12 NOON.", "nsi_id": "unitedstatespostalservice-a77078", "operator": "United States Postal Service", "operator:short": "USPS", "operator:type": "public", "operator:wikidata": "Q668687", "ref": "5706200001"}, "type": "Feature"}
{"geometry": {"coordinates": [-97.895609832, 42.854179485], "type": "Point"}, "id": "-kzIz6Cll-jJW0euvYyRljROwqk=", "properties": {"@source_uri": "https://tools.usps.com/UspsToolsRestServices/rest/POLocator/findLocations", "@spider": "usps_collection_boxes", "addr:city": "SPRINGFIELD", "addr:country": "US", "addr:full": "811 8TH ST", "addr:postcode": "57062", "addr:state": "SD", "amenity": "post_box", "brand": "United States Postal Service", "brand:wikidata": "Q668687", "collection_times": "Mo-Fr 16:00; Sa 10:15", "name": "USPS COLLECTION BOX - PO LOBBY", "note": "ON 12/24 AND 12/31, THIS BOX MAY BE COLLECTED AS EARLY AS 12 NOON.", "nsi_id": "unitedstatespostalservice-a77078", "operator": "United States Postal Service", "operator:short": "USPS", "operator:type": "public", "operator:wikidata": "Q668687", "ref": "5706200002"}, "type": "Feature"}
{"geometry": {"coordinates": [-97.658885992, 42.948405], "type": "Point"}, "id": "5UQr3tSNGf35tejGeXmUWoRg9vI=", "properties": {"@source_uri": "https://tools.usps.com/UspsToolsRestServices/rest/POLocator/findLocations", "@spider": "usps_collection_boxes", "addr:city": "TABOR", "addr:country": "US", "addr:full": "105 S LIDICE AVE", "addr:postcode": "57063", "addr:state": "SD", "amenity": "post_box", "brand": "United States Postal Service", "brand:wikidata": "Q668687", "collection_times": "Mo-Fr 16:00; Sa 16:30", "name": "USPS COLLECTION BOX - BLUE BOX", "note": "ON 12/24 AND 12/31, THIS BOX MAY BE COLLECTED AS EARLY AS 12 NOON.", "nsi_id": "unitedstatespostalservice-a77078", "operator": "United States Postal Service", "operator:short": "USPS", "operator:type": "public", "operator:wikidata": "Q668687", "ref": "5706300001"}, "type": "Feature"}
{"geometry": {"coordinates": [-97.658885992, 42.948405], "type": "Point"}, "id": "KQe08LD1pGd6D9vf08wucFXhCBk=", "properties": {"@source_uri": "https://tools.usps.com/UspsToolsRestServices/rest/POLocator/findLocations", "@spider": "usps_collection_boxes", "addr:city": "TABOR", "addr:country": "US", "addr:full": "105 S LIDICE AVE", "addr:postcode": "57063", "addr:state": "SD", "amenity": "post_box", "brand": "United States Postal Service", "brand:wikidata": "Q668687", "collection_times": "Mo-Fr 12:00; Sa 10:00", "name": "USPS COLLECTION BOX - PO LOBBY", "nsi_id": "unitedstatespostalservice-a77078", "operator": "United States Postal Service", "operator:short": "USPS", "operator:type": "public", "operator:wikidata": "Q668687", "ref": "5706300002"}, "type": "Feature"}
{"geometry": {"coordinates": [-96.826810584, 43.447553515], "type": "Point"}, "id": "7Q5R9nAFa6E1681LJy7tY3hxTFo=", "properties": {"@source_uri": "https://tools.usps.com/UspsToolsRestServices/rest/POLocator/findLocations", "@spider": "usps_collection_boxes", "addr:city": "TEA", "addr:country": "US", "addr:full": "502 E FIGZEL CT STE 0", "addr:postcode": "57064", "addr:state": "SD", "amenity": "post_box", "brand": "United States Postal Service", "brand:wikidata": "Q668687", "collection_times": "Mo-Fr 16:45; Sa 11:30", "name": "USPS COLLECTION BOX - PO LOBBY", "note": "ON 12/24 AND 12/31, THIS BOX MAY BE COLLECTED AS EARLY AS 12 NOON.", "nsi_id": "unitedstatespostalservice-a77078", "operator": "United States Postal Service", "operator:short": "USPS", "operator:type": "public", "operator:wikidata": "Q668687", "ref": "5706400001"}, "type": "Feature"}
{"geometry": {"coordinates": [-96.83984, 43.44756], "type": "Point"}, "id": "ZQ6iMeWwYISTW5tm_mbJeAofTao=", "properties": {"@source_uri": "https://tools.usps.com/UspsToolsRestServices/rest/POLocator/findLocations", "@spider": "usps_collection_boxes", "addr:city": "TEA", "addr:country": "US", "addr:full": "502 E FIGZEL CT STE 0", "addr:postcode": "57064", "addr:state": "SD", "amenity": "post_box", "brand": "United States Postal Service", "brand:wikidata": "Q668687", "collection_times": "Mo-Fr 16:45; Sa 17:00", "name": "USPS COLLECTION BOX - BLUE BOX", "note": "ON 12/24 AND 12/31, THIS BOX MAY BE COLLECTED AS EARLY AS 12 NOON.", "nsi_id": "unitedstatespostalservice-a77078", "operator": "United States Postal Service", "operator:short": "USPS", "operator:type": "public", "operator:wikidata": "Q668687", "ref": "5706400002"}, "type": "Feature"}
{"geometry": {"coordinates": [-96.826810584, 43.447553515], "type": "Point"}, "id": "ervGYW-S60n4rvXyoB-RYrswdKg=", "properties": {"@source_uri": "https://tools.usps.com/UspsToolsRestServices/rest/POLocator/findLocations", "@spider": "usps_collection_boxes", "addr:city": "TEA", "addr:country": "US", "addr:full": "502 E FIGZEL CT STE 0", "addr:postcode": "57064", "addr:state": "SD", "amenity": "post_box", "brand": "United States Postal Service", "brand:wikidata": "Q668687", "collection_times": "Mo-Fr 16:45; Sa 11:30", "name": "USPS COLLECTION BOX - PO LOBBY", "note": "ON 12/24 AND 12/31, THIS BOX MAY BE COLLECTED AS EARLY AS 12 NOON.", "nsi_id": "unitedstatespostalservice-a77078", "operator": "United States Postal Service", "operator:short": "USPS", "operator:type": "public", "operator:wikidata": "Q668687", "ref": "5706400003"}, "type": "Feature"}
{"geometry": {"coordinates": [-96.6539288407, 43.9061873074], "type": "Point"}, "id": "4URGK2N6Tcb8g2hBChFRDjD4dR8=", "properties": {"@source_uri": "https://tools.usps.com/UspsToolsRestServices/rest/POLocator/findLocations", "@spider": "usps_collection_boxes", "addr:city": "TRENT", "addr:country": "US", "addr:full": "107 W 3RD ST", "addr:postcode": "57065", "addr:state": "SD", "amenity": "post_box", "brand": "United States Postal Service", "brand:wikidata": "Q668687", "collection_times": "Mo-Fr 16:30; Sa 17:00", "name": "USPS COLLECTION BOX - BLUE BOX", "note": "ON 12/24 AND 12/31, THIS BOX MAY BE COLLECTED AS EARLY AS 12 NOON.", "nsi_id": "unitedstatespostalservice-a77078", "operator": "United States Postal Service", "operator:short": "USPS", "operator:type": "public", "operator:wikidata": "Q668687", "ref": "5706500000"}, "type": "Feature"}
{"geometry": {"coordinates": [-96.653928841, 43.906187307], "type": "Point"}, "id": "2A1wBb2wt8MzJ4uKfhEAv7nyA_A=", "properties": {"@source_uri": "https://tools.usps.com/UspsToolsRestServices/rest/POLocator/findLocations", "@spider": "usps_collection_boxes", "addr:city": "TRENT", "addr:country": "US", "addr:full": "107 W 3RD ST", "addr:postcode": "57065", "addr:state": "SD", "amenity": "post_box", "brand": "United States Postal Service", "brand:wikidata": "Q668687", "collection_times": "Mo-Fr 16:45", "name": "USPS COLLECTION BOX - PO LOBBY", "note": "ON 12/24 AND 12/31, THIS BOX MAY BE COLLECTED AS EARLY AS 12 NOON.", "nsi_id": "unitedstatespostalservice-a77078", "operator": "United States Postal Service", "operator:short": "USPS", "operator:type": "public", "operator:wikidata": "Q668687", "ref": "5706500001"}, "type": "Feature"}
{"geometry": {"coordinates": [-97.86269853, 42.99249124], "type": "Point"}, "id": "_xP9_sf_fK-J3NNH6dSTLNREybk=", "properties": {"@source_uri": "https://tools.usps.com/UspsToolsRestServices/rest/POLocator/findLocations", "@spider": "usps_collection_boxes", "addr:city": "TYNDALL", "addr:country": "US", "addr:full": "1716 MAIN ST", "addr:postcode": "57066", "addr:state": "SD", "amenity": "post_box", "brand": "United States Postal Service", "brand:wikidata": "Q668687", "collection_times": "Mo-Sa 16:15", "name": "USPS COLLECTION BOX - BLUE BOX", "note": "ON 12/24 AND 12/31, THIS BOX MAY BE COLLECTED AS EARLY AS 12 NOON.", "nsi_id": "unitedstatespostalservice-a77078", "operator": "United States Postal Service", "operator:short": "USPS", "operator:type": "public", "operator:wikidata": "Q668687", "ref": "5706600001"}, "type": "Feature"}
{"geometry": {"coordinates": [-97.862700349, 42.991311349], "type": "Point"}, "id": "flSF3rv6kjE765RyUuAKQy3lWdw=", "properties": {"@source_uri": "https://tools.usps.com/UspsToolsRestServices/rest/POLocator/findLocations", "@spider": "usps_collection_boxes", "addr:city": "TYNDALL", "addr:country": "US", "addr:full": "1600 MAIN ST", "addr:postcode": "57066", "addr:state": "SD", "amenity": "post_box", "brand": "United States Postal Service", "brand:wikidata": "Q668687", "collection_times": "Mo-Sa 12:00", "name": "USPS COLLECTION BOX - BLUE BOX", "nsi_id": "unitedstatespostalservice-a77078", "operator": "United States Postal Service", "operator:short": "USPS", "operator:type": "public", "operator:wikidata": "Q668687", "ref": "5706600002"}, "type": "Feature"}
{"geometry": {"coordinates": [-97.86269853, 42.99249124], "type": "Point"}, "id": "GHFnqfnUjbK461hrVnzvxfhb8H4=", "properties": {"@source_uri": "https://tools.usps.com/UspsToolsRestServices/rest/POLocator/findLocations", "@spider": "usps_collection_boxes", "addr:city": "TYNDALL", "addr:country": "US", "addr:full": "1716 MAIN ST", "addr:postcode": "57066", "addr:state": "SD", "amenity": "post_box", "brand": "United States Postal Service", "brand:wikidata": "Q668687", "collection_times": "Mo-Fr 16:15", "name": "USPS COLLECTION BOX - PO LOBBY", "note": "ON 12/24 AND 12/31, THIS BOX MAY BE COLLECTED AS EARLY AS 12 NOON.", "nsi_id": "unitedstatespostalservice-a77078", "operator": "United States Postal Service", "operator:short": "USPS", "operator:type": "public", "operator:wikidata": "Q668687", "ref": "5706600003"}, "type": "Feature"}
{"geometry": {"coordinates": [-97.497630428, 42.978547037], "type": "Point"}, "id": "bspZfuBZC5PfirHgplIiiOmncEc=", "properties": {"@source_uri": "https://tools.usps.com/UspsToolsRestServices/rest/POLocator/findLocations", "@spider": "usps_collection_boxes", "addr:city": "UTICA", "addr:country": "US", "addr:full": "109 2ND ST", "addr:postcode": "57067", "addr:state": "SD", "amenity": "post_box", "brand": "United States Postal Service", "brand:wikidata": "Q668687", "collection_times": "Mo-Fr 16:25; Sa 16:15", "name": "USPS COLLECTION BOX - BLUE BOX", "note": "ON 12/24 AND 12/31, THIS BOX MAY BE COLLECTED AS EARLY AS 12 NOON.", "nsi_id": "unitedstatespostalservice-a77078", "operator": "United States Postal Service", "operator:short": "USPS", "operator:type": "public", "operator:wikidata": "Q668687", "ref": "5706700000"}, "type": "Feature"}
{"geometry": {"coordinates": [-97.497630428, 42.978547037], "type": "Point"}, "id": "8NJdv3UL0KX4alUl8nmACfcOeQ8=", "properties": {"@source_uri": "https://tools.usps.com/UspsToolsRestServices/rest/POLocator/findLocations", "@spider": "usps_collection_boxes", "addr:city": "UTICA", "addr:country": "US", "addr:full": "109 2ND ST", "addr:postcode": "57067", "addr:state": "SD", "amenity": "post_box", "brand": "United States Postal Service", "brand:wikidata": "Q668687", "collection_times": "Mo-Sa 11:45", "name": "USPS COLLECTION BOX - PO LOBBY", "nsi_id": "unitedstatespostalservice-a77078", "operator": "United States Postal Service", "operator:short": "USPS", "operator:type": "public", "operator:wikidata": "Q668687", "ref": "5706700001"}, "type": "Feature"}
{"geometry": {"coordinates": [-96.46787848, 43.5825889334], "type": "Point"}, "id": "FohAcEp5LDxAFNZDeInaZS_1NnI=", "properties": {"@source_uri": "https://tools.usps.com/UspsToolsRestServices/rest/POLocator/findLocations", "@spider": "usps_collection_boxes", "addr:city": "VALLEY SPRINGS", "addr:country": "US", "addr:full": "409 BROADWAY AVE", "addr:postcode": "57068", "addr:state": "SD", "amenity": "post_box", "brand": "United States Postal Service", "brand:wikidata": "Q668687", "collection_times": "Mo-Sa 16:15", "name": "USPS COLLECTION BOX - BLUE BOX", "note": "ON 12/24 AND 12/31, THIS BOX MAY BE COLLECTED AS EARLY AS 12 NOON.", "nsi_id": "unitedstatespostalservice-a77078", "operator": "United States Postal Service", "operator:short": "USPS", "operator:type": "public", "operator:wikidata": "Q668687", "ref": "5706800001"}, "type": "Feature"}
{"geometry": {"coordinates": [-96.467879446, 43.582561703], "type": "Point"}, "id": "ciLIY-MQAfBcJaMq4I3-y7wEKy8=", "properties": {"@source_uri": "https://tools.usps.com/UspsToolsRestServices/rest/POLocator/findLocations", "@spider": "usps_collection_boxes", "addr:city": "VALLEY SPRINGS", "addr:country": "US", "addr:full": "409 BROADWAY AVE", "addr:postcode": "57068", "addr:state": "SD", "amenity": "post_box", "brand": "United States Postal Service", "brand:wikidata": "Q668687", "collection_times": "Mo-Fr 13:45; Sa 10:45", "name": "USPS COLLECTION BOX - PO LOBBY", "note": "ON 12/24 AND 12/31, THIS BOX MAY BE COLLECTED AS EARLY AS 12 NOON.", "nsi_id": "unitedstatespostalservice-a77078", "operator": "United States Postal Service", "operator:short": "USPS", "operator:type": "public", "operator:wikidata": "Q668687", "ref": "5706800002"}, "type": "Feature"}
{"geometry": {"coordinates": [-96.932353572, 42.778594006], "type": "Point"}, "id": "0gccHrQrzYL5hfO-qIYR0HmPi8A=", "properties": {"@source_uri": "https://tools.usps.com/UspsToolsRestServices/rest/POLocator/findLocations", "@spider": "usps_collection_boxes", "addr:city": "VERMILLION", "addr:country": "US", "addr:full": "16 COURT ST", "addr:postcode": "57069", "addr:state": "SD", "amenity": "post_box", "brand": "United States Postal Service", "brand:wikidata": "Q668687", "collection_times": "Mo-Sa 17:30", "name": "USPS COLLECTION BOX - BLUE BOX", "note": "ON 12/24 AND 12/31, THIS BOX MAY BE COLLECTED AS EARLY AS 12 NOON.", "nsi_id": "unitedstatespostalservice-a77078", "operator": "United States Postal Service", "operator:short": "USPS", "operator:type": "public", "operator:wikidata": "Q668687", "ref": "5706900001"}, "type": "Feature"}
{"geometry": {"coordinates": [-96.919903649, 42.781521848], "type": "Point"}, "id": "HhxMnPOyVl3pRsiNa7icK7c8Wfw=", "properties": {"@source_uri": "https://tools.usps.com/UspsToolsRestServices/rest/POLocator/findLocations", "@spider": "usps_collection_boxes", "addr:city": "VERMILLION", "addr:country": "US", "addr:full": "201 N PLUM ST", "addr:postcode": "57069", "addr:state": "SD", "amenity": "post_box", "brand": "United States Postal Service", "brand:wikidata": "Q668687", "collection_times": "Mo-Sa 14:00", "name": "USPS COLLECTION BOX - BLUE BOX", "note": "ON 12/24 AND 12/31, THIS BOX MAY BE COLLECTED AS EARLY AS 12 NOON.", "nsi_id": "unitedstatespostalservice-a77078", "operator": "United States Postal Service", "operator:short": "USPS", "operator:type": "public", "operator:wikidata": "Q668687", "ref": "5706900005"}, "type": "Feature"}
{"geometry": {"coordinates": [-96.932353572, 42.778585006], "type": "Point"}, "id": "_QQmjfvpmUlEUOVzLvhgvGL1Nso=", "properties": {"@source_uri": "https://tools.usps.com/UspsToolsRestServices/rest/POLocator/findLocations", "@spider": "usps_collection_boxes", "addr:city": "VERMILLION", "addr:country": "US", "addr:full": "16 COURT ST", "addr:postcode": "57069", "addr:state": "SD", "amenity": "post_box", "brand": "United States Postal Service", "brand:wikidata": "Q668687", "collection_times": "Mo-Fr 16:25; Sa 12:00", "name": "USPS COLLECTION BOX - PO LOBBY", "note": "ON 12/24 AND 12/31, THIS BOX MAY BE COLLECTED AS EARLY AS 12 NOON.", "nsi_id": "unitedstatespostalservice-a77078", "operator": "United States Postal Service", "operator:short": "USPS", "operator:type": "public", "operator:wikidata": "Q668687", "ref": "5706900012"}, "type": "Feature"}
{"geometry": {"coordinates": [-96.940543416, 42.78705048], "type": "Point"}, "id": "DREeZSQPuaqv0g2W2szwSeBC5rE=", "properties": {"@source_uri": "https://tools.usps.com/UspsToolsRestServices/rest/POLocator/findLocations", "@spider": "usps_collection_boxes", "addr:city": "VERMILLION", "addr:country": "US", "addr:full": "525 W CHERRY ST", "addr:postcode": "57069", "addr:state": "SD", "amenity": "post_box", "brand": "United States Postal Service", "brand:wikidata": "Q668687", "collection_times": "Mo-Sa 14:00", "name": "USPS COLLECTION BOX - BLUE BOX", "note": "ON 12/24 AND 12/31, THIS BOX MAY BE COLLECTED AS EARLY AS 12 NOON.", "nsi_id": "unitedstatespostalservice-a77078", "operator": "United States Postal Service", "operator:short": "USPS", "operator:type": "public", "operator:wikidata": "Q668687", "ref": "5706900016"}, "type": "Feature"}
{"geometry": {"coordinates": [-96.855777003, 42.786387], "type": "Point"}, "id": "38ss-EVinyazmiilZ0X3rpq4nFQ=", "properties": {"@source_uri": "https://tools.usps.com/UspsToolsRestServices/rest/POLocator/findLocations", "@spider": "usps_collection_boxes", "addr:city": "VERMILLION", "addr:country": "US", "addr:full": "47085 SD HIGHWAY 50", "addr:postcode": "57069", "addr:state": "SD", "amenity": "post_box", "brand": "United States Postal Service", "brand:wikidata": "Q668687", "collection_times": "Mo-Sa 10:00", "name": "USPS COLLECTION BOX - BLUE BOX", "nsi_id": "unitedstatespostalservice-a77078", "operator": "United States Postal Service", "operator:short": "USPS", "operator:type": "public", "operator:wikidata": "Q668687", "ref": "5706900017"}, "type": "Feature"}
{"geometry": {"coordinates": [-96.9323535717, 42.7785940058], "type": "Point"}, "id": "PaTE1gG1MrSvwVRJBSvaBrCz53w=", "properties": {"@source_uri": "https://tools.usps.com/UspsToolsRestServices/rest/POLocator/findLocations", "@spider": "usps_collection_boxes", "addr:city": "VERMILLION", "addr:country": "US", "addr:full": "16 COURT ST", "addr:postcode": "57069", "addr:state": "SD", "amenity": "post_box", "brand": "United States Postal Service", "brand:wikidata": "Q668687", "collection_times": "Mo-Sa 17:30", "name": "USPS COLLECTION BOX - BLUE BOX", "note": "ON 12/24 AND 12/31, THIS BOX MAY BE COLLECTED AS EARLY AS 12 NOON.", "nsi_id": "unitedstatespostalservice-a77078", "operator": "United States Postal Service", "operator:short": "USPS", "operator:type": "public", "operator:wikidata": "Q668687", "ref": "5706900032"}, "type": "Feature"}
{"geometry": {"coordinates": [-97.08158015, 43.170101581], "type": "Point"}, "id": "UIEeXFTCTL2V-LV4KMzV4XQ06BY=", "properties": {"@source_uri": "https://tools.usps.com/UspsToolsRestServices/rest/POLocator/findLocations", "@spider": "usps_collection_boxes", "addr:city": "VIBORG", "addr:country": "US", "addr:full": "103 S MAIN ST", "addr:postcode": "57070", "addr:state": "SD", "amenity": "post_box", "brand": "United States Postal Service", "brand:wikidata": "Q668687", "collection_times": "Mo-Fr 16:00; Sa 16:30", "name": "USPS COLLECTION BOX - BLUE BOX", "note": "ON 12/24 AND 12/31, THIS BOX MAY BE COLLECTED AS EARLY AS 12 NOON.", "nsi_id": "unitedstatespostalservice-a77078", "operator": "United States Postal Service", "operator:short": "USPS", "operator:type": "public", "operator:wikidata": "Q668687", "ref": "5707000001"}, "type": "Feature"}
{"geometry": {"coordinates": [-97.08158015, 43.170101581], "type": "Point"}, "id": "O9TetqxkmXwZYsTrqu-3uhaVJV0=", "properties": {"@source_uri": "https://tools.usps.com/UspsToolsRestServices/rest/POLocator/findLocations", "@spider": "usps_collection_boxes", "addr:city": "VIBORG", "addr:country": "US", "addr:full": "103 S MAIN ST", "addr:postcode": "57070", "addr:state": "SD", "amenity": "post_box", "brand": "United States Postal Service", "brand:wikidata": "Q668687", "collection_times": "Mo-Fr 15:00; Sa 09:15", "name": "USPS COLLECTION BOX - PO LOBBY", "note": "ON 12/24 AND 12/31, THIS BOX MAY BE COLLECTED AS EARLY AS 12 NOON.", "nsi_id": "unitedstatespostalservice-a77078", "operator": "United States Postal Service", "operator:short": "USPS", "operator:type": "public", "operator:wikidata": "Q668687", "ref": "5707000002"}, "type": "Feature"}
{"geometry": {"coordinates": [-96.927911193, 44.322461488], "type": "Point"}, "id": "qwUdFPGYD0qCGi55E3y-tBuoTX8=", "properties": {"@source_uri": "https://tools.usps.com/UspsToolsRestServices/rest/POLocator/findLocations", "@spider": "usps_collection_boxes", "addr:city": "VOLGA", "addr:country": "US", "addr:full": "125 W 3RD ST", "addr:postcode": "57071", "addr:state": "SD", "amenity": "post_box", "brand": "United States Postal Service", "brand:wikidata": "Q668687", "collection_times": "Mo-Sa 16:00", "name": "USPS COLLECTION BOX - BLUE BOX", "note": "ON 12/24 AND 12/31, THIS BOX MAY BE COLLECTED AS EARLY AS 12 NOON.", "nsi_id": "unitedstatespostalservice-a77078", "operator": "United States Postal Service", "operator:short": "USPS", "operator:type": "public", "operator:wikidata": "Q668687", "ref": "5707100001"}, "type": "Feature"}
{"geometry": {"coordinates": [-96.927911193, 44.322461488], "type": "Point"}, "id": "_9qsUgOlUivkxR67Hev1WogBXfk=", "properties": {"@source_uri": "https://tools.usps.com/UspsToolsRestServices/rest/POLocator/findLocations", "@spider": "usps_collection_boxes", "addr:city": "VOLGA", "addr:country": "US", "addr:full": "125 W 3RD ST", "addr:postcode": "57071", "addr:state": "SD", "amenity": "post_box", "brand": "United States Postal Service", "brand:wikidata": "Q668687", "collection_times": "Mo-Fr 16:00; Sa 09:45", "name": "USPS COLLECTION BOX - PO LOBBY", "note": "ON 12/24 AND 12/31, THIS BOX MAY BE COLLECTED AS EARLY AS 12 NOON.", "nsi_id": "unitedstatespostalservice-a77078", "operator": "United States Postal Service", "operator:short": "USPS", "operator:type": "public", "operator:wikidata": "Q668687", "ref": "5707100002"}, "type": "Feature"}
{"geometry": {"coordinates": [-96.908471439, 44.324577], "type": "Point"}, "id": "Nz2sN3z1lj-K5EVVrL8wXDlnnhQ=", "properties": {"@source_uri": "https://tools.usps.com/UspsToolsRestServices/rest/POLocator/findLocations", "@spider": "usps_collection_boxes", "addr:city": "VOLGA", "addr:country": "US", "addr:full": "101 CASPIAN AVE", "addr:postcode": "57071", "addr:state": "SD", "amenity": "post_box", "brand": "United States Postal Service", "brand:wikidata": "Q668687", "collection_times": "Mo-Sa 14:30", "name": "USPS COLLECTION BOX - BLUE BOX", "note": "ON 12/24 AND 12/31, THIS BOX MAY BE COLLECTED AS EARLY AS 12 NOON.", "nsi_id": "unitedstatespostalservice-a77078", "operator": "United States Postal Service", "operator:short": "USPS", "operator:type": "public", "operator:wikidata": "Q668687", "ref": "5707100003"}, "type": "Feature"}
{"geometry": {"coordinates": [-97.182046895, 42.957089445], "type": "Point"}, "id": "azzv1Ev1qBdrPwJCpTYHSy7jQEc=", "properties": {"@source_uri": "https://tools.usps.com/UspsToolsRestServices/rest/POLocator/findLocations", "@spider": "usps_collection_boxes", "addr:city": "VOLIN", "addr:country": "US", "addr:full": "205 MAIN ST", "addr:postcode": "57072", "addr:state": "SD", "amenity": "post_box", "brand": "United States Postal Service", "brand:wikidata": "Q668687", "collection_times": "Mo-Sa 16:45", "name": "USPS COLLECTION BOX - BLUE BOX", "note": "ON 12/24 AND 12/31, THIS BOX MAY BE COLLECTED AS EARLY AS 12 NOON.", "nsi_id": "unitedstatespostalservice-a77078", "operator": "United States Postal Service", "operator:short": "USPS", "operator:type": "public", "operator:wikidata": "Q668687", "ref": "5707200001"}, "type": "Feature"}
{"geometry": {"coordinates": [-97.182046895, 42.957089445], "type": "Point"}, "id": "uT2qkWP4pdz6Pt4x3nn75WnCvMU=", "properties": {"@source_uri": "https://tools.usps.com/UspsToolsRestServices/rest/POLocator/findLocations", "@spider": "usps_collection_boxes", "addr:city": "VOLIN", "addr:country": "US", "addr:full": "205 MAIN ST", "addr:postcode": "57072", "addr:state": "SD", "amenity": "post_box", "brand": "United States Postal Service", "brand:wikidata": "Q668687", "collection_times": "Mo-Fr 15:20; Sa 11:00", "name": "USPS COLLECTION BOX - PO LOBBY", "note": "ON 12/24 AND 12/31, THIS BOX MAY BE COLLECTED AS EARLY AS 12 NOON.", "nsi_id": "unitedstatespostalservice-a77078", "operator": "United States Postal Service", "operator:short": "USPS", "operator:type": "public", "operator:wikidata": "Q668687", "ref": "5707200002"}, "type": "Feature"}
{"geometry": {"coordinates": [-97.107413409, 43.008896], "type": "Point"}, "id": "DhmYss-xvN2PcV5Jr430GuXIlhs=", "properties": {"@source_uri": "https://tools.usps.com/UspsToolsRestServices/rest/POLocator/findLocations", "@spider": "usps_collection_boxes", "addr:city": "WAKONDA", "addr:country": "US", "addr:full": "109 OHIO ST", "addr:postcode": "57073", "addr:state": "SD", "amenity": "post_box", "brand": "United States Postal Service", "brand:wikidata": "Q668687", "collection_times": "Mo-Fr 15:30; Sa 16:30", "name": "USPS COLLECTION BOX - BLUE BOX", "note": "ON 12/24 AND 12/31, THIS BOX MAY BE COLLECTED AS EARLY AS 12 NOON.", "nsi_id": "unitedstatespostalservice-a77078", "operator": "United States Postal Service", "operator:short": "USPS", "operator:type": "public", "operator:wikidata": "Q668687", "ref": "5707300001"}, "type": "Feature"}
{"geometry": {"coordinates": [-97.107413409, 43.008896], "type": "Point"}, "id": "16nNEtTD4VAaXV8T5SNTEQhUgAM=", "properties": {"@source_uri": "https://tools.usps.com/UspsToolsRestServices/rest/POLocator/findLocations", "@spider": "usps_collection_boxes", "addr:city": "WAKONDA", "addr:country": "US", "addr:full": "109 OHIO ST", "addr:postcode": "57073", "addr:state": "SD", "amenity": "post_box", "brand": "United States Postal Service", "brand:wikidata": "Q668687", "collection_times": "Mo-Fr 15:30; Sa 10:30", "name": "USPS COLLECTION BOX - PO LOBBY", "note": "ON 12/24 AND 12/31, THIS BOX MAY BE COLLECTED AS EARLY AS 12 NOON.", "nsi_id": "unitedstatespostalservice-a77078", "operator": "United States Postal Service", "operator:short": "USPS", "operator:type": "public", "operator:wikidata": "Q668687", "ref": "5707300002"}, "type": "Feature"}
{"geometry": {"coordinates": [-96.963771338, 43.998096315], "type": "Point"}, "id": "E_HlKlCk1fUxVVHWAa05mjNkbjo=", "properties": {"@source_uri": "https://tools.usps.com/UspsToolsRestServices/rest/POLocator/findLocations", "@spider": "usps_collection_boxes", "addr:city": "WENTWORTH", "addr:country": "US", "addr:full": "107 S MAIN AVE", "addr:postcode": "57075", "addr:state": "SD", "amenity": "post_box", "brand": "United States Postal Service", "brand:wikidata": "Q668687", "collection_times": "Mo-Fr 16:15; Sa 16:45", "name": "USPS COLLECTION BOX - BLUE BOX", "note": "ON 12/24 AND 12/31, THIS BOX MAY BE COLLECTED AS EARLY AS 12 NOON.", "nsi_id": "unitedstatespostalservice-a77078", "operator": "United States Postal Service", "operator:short": "USPS", "operator:type": "public", "operator:wikidata": "Q668687", "ref": "5707500000"}, "type": "Feature"}
{"geometry": {"coordinates": [-96.963771338, 43.998096315], "type": "Point"}, "id": "xzdLFIVFVdydGCDQ8TxBhJ4YSdE=", "properties": {"@source_uri": "https://tools.usps.com/UspsToolsRestServices/rest/POLocator/findLocations", "@spider": "usps_collection_boxes", "addr:city": "WENTWORTH", "addr:country": "US", "addr:full": "107 S MAIN AVE", "addr:postcode": "57075", "addr:state": "SD", "amenity": "post_box", "brand": "United States Postal Service", "brand:wikidata": "Q668687", "collection_times": "Mo-Fr 11:30; Sa 09:15", "name": "USPS COLLECTION BOX - PO LOBBY", "nsi_id": "unitedstatespostalservice-a77078", "operator": "United States Postal Service", "operator:short": "USPS", "operator:type": "public", "operator:wikidata": "Q668687", "ref": "5707500001"}, "type": "Feature"}
{"geometry": {"coordinates": [-97.362248417, 43.996771514], "type": "Point"}, "id": "efWsRGf-UM9-FH1voX5hcY1T6XE=", "properties": {"@source_uri": "https://tools.usps.com/UspsToolsRestServices/rest/POLocator/findLocations", "@spider": "usps_collection_boxes", "addr:city": "WINFRED", "addr:country": "US", "addr:full": "352 MAIN ST", "addr:postcode": "57076", "addr:state": "SD", "amenity": "post_box", "brand": "United States Postal Service", "brand:wikidata": "Q668687", "collection_times": "Mo-Sa 12:00", "name": "USPS COLLECTION BOX - BLUE BOX", "nsi_id": "unitedstatespostalservice-a77078", "operator": "United States Postal Service", "operator:short": "USPS", "operator:type": "public", "operator:wikidata": "Q668687", "ref": "5707600001"}, "type": "Feature"}
{"geometry": {"coordinates": [-97.362248459, 43.996785296], "type": "Point"}, "id": "Hx6flVbUf-O4sketLup9pKyMFpw=", "properties": {"@source_uri": "https://tools.usps.com/UspsToolsRestServices/rest/POLocator/findLocations", "@spider": "usps_collection_boxes", "addr:city": "WINFRED", "addr:country": "US", "addr:full": "352 MAIN ST", "addr:postcode": "57076", "addr:state": "SD", "amenity": "post_box", "brand": "United States Postal Service", "brand:wikidata": "Q668687", "collection_times": "Mo-Fr 12:00; Sa 11:20", "name": "USPS COLLECTION BOX - PO LOBBY", "nsi_id": "unitedstatespostalservice-a77078", "operator": "United States Postal Service", "operator:short": "USPS", "operator:type": "public", "operator:wikidata": "Q668687", "ref": "5707600002"}, "type": "Feature"}
{"geometry": {"coordinates": [-96.762974189, 43.329599665], "type": "Point"}, "id": "4Rkb5thDtX2_JAyk1xZxoV59u1g=", "properties": {"@source_uri": "https://tools.usps.com/UspsToolsRestServices/rest/POLocator/findLocations", "@spider": "usps_collection_boxes", "addr:city": "WORTHING", "addr:country": "US", "addr:full": "120 S MAIN ST", "addr:postcode": "57077", "addr:state": "SD", "amenity": "post_box", "brand": "United States Postal Service", "brand:wikidata": "Q668687", "collection_times": "Mo-Fr 16:30; Sa 17:45", "name": "USPS COLLECTION BOX - BLUE BOX", "note": "ON 12/24 AND 12/31, THIS BOX MAY BE COLLECTED AS EARLY AS 12 NOON.", "nsi_id": "unitedstatespostalservice-a77078", "operator": "United States Postal Service", "operator:short": "USPS", "operator:type": "public", "operator:wikidata": "Q668687", "ref": "5707700001"}, "type": "Feature"}
{"geometry": {"coordinates": [-96.762974189, 43.329599665], "type": "Point"}, "id": "DqgjH3Zh7dJp8vh16Z8rpvXcekQ=", "properties": {"@source_uri": "https://tools.usps.com/UspsToolsRestServices/rest/POLocator/findLocations", "@spider": "usps_collection_boxes", "addr:city": "WORTHING", "addr:country": "US", "addr:full": "120 S MAIN ST", "addr:postcode": "57077", "addr:state": "SD", "amenity": "post_box", "brand": "United States Postal Service", "brand:wikidata": "Q668687", "collection_times": "Mo-Fr 11:30; Sa 11:15", "name": "USPS COLLECTION BOX - PO LOBBY", "nsi_id": "unitedstatespostalservice-a77078", "operator": "United States Postal Service", "operator:short": "USPS", "operator:type": "public", "operator:wikidata": "Q668687", "ref": "5707700002"}, "type": "Feature"}
{"geometry": {"coordinates": [-97.393809994, 42.870825199], "type": "Point"}, "id": "mHGl9BrBEjJ_tKYNc4VjZ6BRQvY=", "properties": {"@source_uri": "https://tools.usps.com/UspsToolsRestServices/rest/POLocator/findLocations", "@spider": "usps_collection_boxes", "addr:city": "YANKTON", "addr:country": "US", "addr:full": "335 WALNUT ST", "addr:postcode": "57078", "addr:state": "SD", "amenity": "post_box", "brand": "United States Postal Service", "brand:wikidata": "Q668687", "collection_times": "Mo-Fr 17:15; Sa 16:15", "name": "USPS COLLECTION BOX - BLUE BOX", "note": "ON 12/24 AND 12/31, THIS BOX MAY BE COLLECTED AS EARLY AS 12 NOON.", "nsi_id": "unitedstatespostalservice-a77078", "operator": "United States Postal Service", "operator:short": "USPS", "operator:type": "public", "operator:wikidata": "Q668687", "ref": "5707800012"}, "type": "Feature"}
{"geometry": {"coordinates": [-97.393809994, 42.870825199], "type": "Point"}, "id": "_k0Lq0BqkkJy4yl1JddtYWnUmxE=", "properties": {"@source_uri": "https://tools.usps.com/UspsToolsRestServices/rest/POLocator/findLocations", "@spider": "usps_collection_boxes", "addr:city": "YANKTON", "addr:country": "US", "addr:full": "335 WALNUT ST", "addr:postcode": "57078", "addr:state": "SD", "amenity": "post_box", "brand": "United States Postal Service", "brand:wikidata": "Q668687", "collection_times": "Mo-Fr 17:15; Sa 16:15", "name": "USPS COLLECTION BOX - BLUE BOX", "note": "ON 12/24 AND 12/31, THIS BOX MAY BE COLLECTED AS EARLY AS 12 NOON.", "nsi_id": "unitedstatespostalservice-a77078", "operator": "United States Postal Service", "operator:short": "USPS", "operator:type": "public", "operator:wikidata": "Q668687", "ref": "5707800015"}, "type": "Feature"}
{"geometry": {"coordinates": [-97.39722577, 42.891412557], "type": "Point"}, "id": "Gwd6s5VN72km-tq44x68I8X6Nrk=", "properties": {"@source_uri": "https://tools.usps.com/UspsToolsRestServices/rest/POLocator/findLocations", "@spider": "usps_collection_boxes", "addr:city": "YANKTON", "addr:country": "US", "addr:full": "2100 BROADWAY AVE", "addr:postcode": "57078", "addr:state": "SD", "amenity": "post_box", "brand": "United States Postal Service", "brand:wikidata": "Q668687", "collection_times": "Mo-Sa 15:00", "name": "USPS COLLECTION BOX - BLUE BOX", "note": "ON 12/24 AND 12/31, THIS BOX MAY BE COLLECTED AS EARLY AS 12 NOON.", "nsi_id": "unitedstatespostalservice-a77078", "operator": "United States Postal Service", "operator:short": "USPS", "operator:type": "public", "operator:wikidata": "Q668687", "ref": "5707800016"}, "type": "Feature"}
{"geometry": {"coordinates": [-97.397287785, 42.890945304], "type": "Point"}, "id": "0JFMTH3JFiTRFU2CwpZuqYT6bgQ=", "properties": {"@source_uri": "https://tools.usps.com/UspsToolsRestServices/rest/POLocator/findLocations", "@spider": "usps_collection_boxes", "addr:city": "YANKTON", "addr:country": "US", "addr:full": "2101 BROADWAY AVE", "addr:postcode": "57078", "addr:state": "SD", "amenity": "post_box", "brand": "United States Postal Service", "brand:wikidata": "Q668687", "collection_times": "Mo-Sa 15:00", "name": "USPS COLLECTION BOX - BLUE BOX", "note": "ON 12/24 AND 12/31, THIS BOX MAY BE COLLECTED AS EARLY AS 12 NOON.", "nsi_id": "unitedstatespostalservice-a77078", "operator": "United States Postal Service", "operator:short": "USPS", "operator:type": "public", "operator:wikidata": "Q668687", "ref": "5707800018"}, "type": "Feature"}
{"geometry": {"coordinates": [-97.407387546, 42.873217649], "type": "Point"}, "id": "Fa3DLBS9evUMpZ1MOo4CwZOGZbQ=", "properties": {"@source_uri": "https://tools.usps.com/UspsToolsRestServices/rest/POLocator/findLocations", "@spider": "usps_collection_boxes", "addr:city": "YANKTON", "addr:country": "US", "addr:full": "501 SUMMIT ST", "addr:postcode": "57078", "addr:state": "SD", "amenity": "post_box", "brand": "United States Postal Service", "brand:wikidata": "Q668687", "collection_times": "Mo-Sa 15:00", "name": "USPS COLLECTION BOX - BLUE BOX", "note": "ON 12/24 AND 12/31, THIS BOX MAY BE COLLECTED AS EARLY AS 12 NOON.", "nsi_id": "unitedstatespostalservice-a77078", "operator": "United States Postal Service", "operator:short": "USPS", "operator:type": "public", "operator:wikidata": "Q668687", "ref": "5707800020"}, "type": "Feature"}
{"geometry": {"coordinates": [-97.397443058, 42.89805533], "type": "Point"}, "id": "8FYt6HB5yQSLzVgbB6w5CaAoPIE=", "properties": {"@source_uri": "https://tools.usps.com/UspsToolsRestServices/rest/POLocator/findLocations", "@spider": "usps_collection_boxes", "addr:city": "YANKTON", "addr:country": "US", "addr:full": "506 W 25TH ST", "addr:postcode": "57078", "addr:state": "SD", "amenity": "post_box", "brand": "United States Postal Service", "brand:wikidata": "Q668687", "collection_times": "Mo-Fr 17:15; Sa 16:45", "name": "USPS COLLECTION BOX - PO LOBBY", "note": "ON 12/24 AND 12/31, THIS BOX MAY BE COLLECTED AS EARLY AS 12 NOON.", "nsi_id": "unitedstatespostalservice-a77078", "operator": "United States Postal Service", "operator:short": "USPS", "operator:type": "public", "operator:wikidata": "Q668687", "ref": "5707800040"}, "type": "Feature"}
{"geometry": {"coordinates": [-97.397443058, 42.89805533], "type": "Point"}, "id": "ZMKIejo1SYuU67rd-tK0R-xmoO4=", "properties": {"@source_uri": "https://tools.usps.com/UspsToolsRestServices/rest/POLocator/findLocations", "@spider": "usps_collection_boxes", "addr:city": "YANKTON", "addr:country": "US", "addr:full": "506 W 25TH ST", "addr:postcode": "57078", "addr:state": "SD", "amenity": "post_box", "brand": "United States Postal Service", "brand:wikidata": "Q668687", "collection_times": "Mo-Fr 17:15; Sa 16:45", "name": "USPS COLLECTION BOX - BLUE BOX", "note": "ON 12/24 AND 12/31, THIS BOX MAY BE COLLECTED AS EARLY AS 12 NOON.", "nsi_id": "unitedstatespostalservice-a77078", "operator": "United States Postal Service", "operator:short": "USPS", "operator:type": "public", "operator:wikidata": "Q668687", "ref": "5707800041"}, "type": "Feature"}
{"geometry": {"coordinates": [-97.397698034, 42.906519], "type": "Point"}, "id": "UiaLwJ8JV-I1cOEAkh_JNNBDYyw=", "properties": {"@source_uri": "https://tools.usps.com/UspsToolsRestServices/rest/POLocator/findLocations", "@spider": "usps_collection_boxes", "addr:city": "YANKTON", "addr:country": "US", "addr:full": "3001 BROADWAY AVE", "addr:postcode": "57078", "addr:state": "SD", "amenity": "post_box", "brand": "United States Postal Service", "brand:wikidata": "Q668687", "collection_times": "Mo-Sa 13:00", "name": "USPS COLLECTION BOX - BLUE BOX", "note": "ON 12/24 AND 12/31, THIS BOX MAY BE COLLECTED AS EARLY AS 12 NOON.", "nsi_id": "unitedstatespostalservice-a77078", "operator": "United States Postal Service", "operator:short": "USPS", "operator:type": "public", "operator:wikidata": "Q668687", "ref": "5707800042"}, "type": "Feature"}
