{"geometry": {"coordinates": [-96.688323, 43.546686521], "type": "Point"}, "id": "ou1MRzhrcKSLXxi8YaLml7ZfKwQ=", "properties": {"@source_uri": "https://tools.usps.com/UspsToolsRestServices/rest/POLocator/findLocations", "@spider": "usps_collection_boxes", "addr:city": "SIOUX FALLS", "addr:country": "US", "addr:postcode": "57103", "addr:state": "SD", "addr:street_address": "3001 E 10TH ST", "amenity": "post_box", "collection_times": "Mo-Fr 08:00", "nsi_id": "unitedstatespostalservice-a77078", "operator": "United States Postal Service", "operator:short": "USPS", "operator:type": "public", "operator:wikidata": "Q668687", "ref": "5710300004"}, "type": "Feature"}
{"geometry": {"coordinates": [-96.685973916, 43.529297484], "type": "Point"}, "id": "I0ESOC0uSaX3GpjLk5tHm9JTETs=", "properties": {"@source_uri": "https://tools.usps.com/UspsToolsRestServices/rest/POLocator/findLocations", "@spider": "usps_collection_boxes", "addr:city": "SIOUX FALLS", "addr:country": "US", "addr:postcode": "57103", "addr:state": "SD", "addr:street_address": "3301 E 26TH ST", "amenity": "post_box", "collection_times": "Mo-Sa 08:15", "nsi_id": "unitedstatespostalservice-a77078", "operator": "United States Postal Service", "operator:short": "USPS", "operator:type": "public", "operator:wikidata": "Q668687", "ref": "5710300015"}, "type": "Feature"}
{"geometry": {"coordinates": [-96.709793223, 43.546628498], "type": "Point"}, "id": "OS_RagO4n0n7mmBIkzDpgSZAftY=", "properties": {"@source_uri": "https://tools.usps.com/UspsToolsRestServices/rest/POLocator/findLocations", "@spider": "usps_collection_boxes", "addr:city": "SIOUX FALLS", "addr:country": "US", "addr:postcode": "57103", "addr:state": "SD", "addr:street_address": "1301 E 10TH ST", "amenity": "post_box", "collection_times": "Mo-Fr 16:00; Sa 15:00", "note": "ON 12/24 AND 12/31, THIS BOX MAY BE COLLECTED AS EARLY AS 12 NOON.", "nsi_id": "unitedstatespostalservice-a77078", "operator": "United States Postal Service", "operator:short": "USPS", "operator:type": "public", "operator:wikidata": "Q668687", "ref": "5710300030"}, "type": "Feature"}
{"geometry": {"coordinates": [-96.689448242, 43.507051711], "type": "Point"}, "id": "-sM6OztJQ5OVke4QTw5cVLP9K_A=", "properties": {"@source_uri": "https://tools.usps.com/UspsToolsRestServices/rest/POLocator/findLocations", "@spider": "usps_collection_boxes", "addr:city": "SIOUX FALLS", "addr:country": "US", "addr:postcode": "57103", "addr:state": "SD", "addr:street_address": "4101 S SOUTHEASTERN AVE", "amenity": "post_box", "collection_times": "Mo-Fr 08:00", "nsi_id": "unitedstatespostalservice-a77078", "operator": "United States Postal Service", "operator:short": "USPS", "operator:type": "public", "operator:wikidata": "Q668687", "ref": "5710300038"}, "type": "Feature"}
{"geometry": {"coordinates": [-96.722157663, 43.548536162], "type": "Point"}, "id": "sCqJPhI87kc_ipgIxUczahRWgBc=", "properties": {"@source_uri": "https://tools.usps.com/UspsToolsRestServices/rest/POLocator/findLocations", "@spider": "usps_collection_boxes", "addr:city": "SIOUX FALLS", "addr:country": "US", "addr:postcode": "57103", "addr:state": "SD", "addr:street_address": "401 E 8TH ST", "amenity": "post_box", "collection_times": "Mo-Fr 17:00", "note": "ON 12/24 AND 12/31, THIS BOX MAY BE COLLECTED AS EARLY AS 12 NOON.", "nsi_id": "unitedstatespostalservice-a77078", "operator": "United States Postal Service", "operator:short": "USPS", "operator:type": "public", "operator:wikidata": "Q668687", "ref": "5710300043"}, "type": "Feature"}
{"geometry": {"coordinates": [-96.6885705, 43.54674052], "type": "Point"}, "id": "QE3TDRZFU5VsaK4gIPGM0Woxykk=", "properties": {"@source_uri": "https://tools.usps.com/UspsToolsRestServices/rest/POLocator/findLocations", "@spider": "usps_collection_boxes", "addr:city": "SIOUX FALLS", "addr:country": "US", "addr:postcode": "57103", "addr:state": "SD", "addr:street_address": "3020 E 10TH ST", "amenity": "post_box", "collection_times": "Mo-Fr 16:00; Sa 15:00", "note": "ON 12/24 AND 12/31, THIS BOX MAY BE COLLECTED AS EARLY AS 12 NOON.", "nsi_id": "unitedstatespostalservice-a77078", "operator": "United States Postal Service", "operator:short": "USPS", "operator:type": "public", "operator:wikidata": "Q668687", "ref": "5710300045"}, "type": "Feature"}
{"geometry": {"coordinates": [-96.672471696, 43.529285188], "type": "Point"}, "id": "bZYIaRgEddHRDfT3IoUuh3q_G8Q=", "properties": {"@source_uri": "https://tools.usps.com/UspsToolsRestServices/rest/POLocator/findLocations", "@spider": "usps_collection_boxes", "addr:city": "SIOUX FALLS", "addr:country": "US", "addr:postcode": "57103", "addr:state": "SD", "addr:street_address": "4409 E 26TH ST STE 1", "amenity": "post_box", "collection_times": "Mo-Fr 16:45; Sa 15:15", "note": "ON 12/24 AND 12/31, THIS BOX MAY BE COLLECTED AS EARLY AS 12 NOON.", "nsi_id": "unitedstatespostalservice-a77078", "operator": "United States Postal Service", "operator:short": "USPS", "operator:type": "public", "operator:wikidata": "Q668687", "ref": "5710300047"}, "type": "Feature"}
{"geometry": {"coordinates": [-96.6888174492, 43.5104382194], "type": "Point"}, "id": "sm4Imz5dg1pFrVRiGYbov_hzlps=", "properties": {"@source_uri": "https://tools.usps.com/UspsToolsRestServices/rest/POLocator/findLocations", "@spider": "usps_collection_boxes", "addr:city": "SIOUX FALLS", "addr:country": "US", "addr:postcode": "57103", "addr:state": "SD", "addr:street_address": "2800 E MARSON DR", "amenity": "post_box", "collection_times": "Mo-Sa 08:15", "nsi_id": "unitedstatespostalservice-a77078", "operator": "United States Postal Service", "operator:short": "USPS", "operator:type": "public", "operator:wikidata": "Q668687", "ref": "5710300049"}, "type": "Feature"}
{"geometry": {"coordinates": [-96.73996275, 43.536768822], "type": "Point"}, "id": "EskPyGxNUCthByHVzjnuLdSm034=", "properties": {"@source_uri": "https://tools.usps.com/UspsToolsRestServices/rest/POLocator/findLocations", "@spider": "usps_collection_boxes", "addr:city": "SIOUX FALLS", "addr:country": "US", "addr:postcode": "57104", "addr:state": "SD", "addr:street_address": "1000 W 18TH ST", "amenity": "post_box", "collection_times": "Mo-Fr 10:30", "nsi_id": "unitedstatespostalservice-a77078", "operator": "United States Postal Service", "operator:short": "USPS", "operator:type": "public", "operator:wikidata": "Q668687", "ref": "5710400002"}, "type": "Feature"}
{"geometry": {"coordinates": [-96.761943, 43.543901498], "type": "Point"}, "id": "hsZ43K3AGvnp33c6W9yY4OaGz2A=", "properties": {"@source_uri": "https://tools.usps.com/UspsToolsRestServices/rest/POLocator/findLocations", "@spider": "usps_collection_boxes", "addr:city": "SIOUX FALLS", "addr:country": "US", "addr:postcode": "57104", "addr:state": "SD", "addr:street_address": "2700 W 12TH ST", "amenity": "post_box", "collection_times": "Mo-Sa 08:15", "nsi_id": "unitedstatespostalservice-a77078", "operator": "United States Postal Service", "operator:short": "USPS", "operator:type": "public", "operator:wikidata": "Q668687", "ref": "5710400004"}, "type": "Feature"}
{"geometry": {"coordinates": [-96.732333639, 43.548602484], "type": "Point"}, "id": "Gpds1oxDjZwzbr0S2SObu2OCIlc=", "properties": {"@source_uri": "https://tools.usps.com/UspsToolsRestServices/rest/POLocator/findLocations", "@spider": "usps_collection_boxes", "addr:city": "SIOUX FALLS", "addr:country": "US", "addr:postcode": "57104", "addr:state": "SD", "addr:street_address": "421 W 8TH ST", "amenity": "post_box", "collection_times": "Mo-Fr 14:00", "note": "ON 12/24 AND 12/31, THIS BOX MAY BE COLLECTED AS EARLY AS 12 NOON.", "nsi_id": "unitedstatespostalservice-a77078", "operator": "United States Postal Service", "operator:short": "USPS", "operator:type": "public", "operator:wikidata": "Q668687", "ref": "5710400016"}, "type": "Feature"}
{"geometry": {"coordinates": [-96.746642072, 43.556337251], "type": "Point"}, "id": "YW3pri9uDKwQuPhfV4LbASXUR4c=", "properties": {"@source_uri": "https://tools.usps.com/UspsToolsRestServices/rest/POLocator/findLocations", "@spider": "usps_collection_boxes", "addr:city": "SIOUX FALLS", "addr:country": "US", "addr:postcode": "57104", "addr:state": "SD", "addr:street_address": "800 N WEST AVE", "amenity": "post_box", "collection_times": "Mo-Fr 08:15", "nsi_id": "unitedstatespostalservice-a77078", "operator": "United States Postal Service", "operator:short": "USPS", "operator:type": "public", "operator:wikidata": "Q668687", "ref": "5710400030"}, "type": "Feature"}
{"geometry": {"coordinates": [-96.748972261, 43.563881479], "type": "Point"}, "id": "nDqub-pLmTE3dmDSmk5NA4RQ5Uo=", "properties": {"@source_uri": "https://tools.usps.com/UspsToolsRestServices/rest/POLocator/findLocations", "@spider": "usps_collection_boxes", "addr:city": "SIOUX FALLS", "addr:country": "US", "addr:postcode": "57104", "addr:state": "SD", "addr:street_address": "1700 W RUSSELL ST", "amenity": "post_box", "collection_times": "Mo-Fr 10:00; Sa 09:00", "nsi_id": "unitedstatespostalservice-a77078", "operator": "United States Postal Service", "operator:short": "USPS", "operator:type": "public", "operator:wikidata": "Q668687", "ref": "5710400033"}, "type": "Feature"}
{"geometry": {"coordinates": [-96.739142223, 43.563822461], "type": "Point"}, "id": "Il0oWRbrTRf1K04kUckE3FnMqvc=", "properties": {"@source_uri": "https://tools.usps.com/UspsToolsRestServices/rest/POLocator/findLocations", "@spider": "usps_collection_boxes", "addr:city": "SIOUX FALLS", "addr:country": "US", "addr:postcode": "57104", "addr:state": "SD", "addr:street_address": "900 W RUSSELL ST", "amenity": "post_box", "collection_times": "Mo-Fr 10:00", "nsi_id": "unitedstatespostalservice-a77078", "operator": "United States Postal Service", "operator:short": "USPS", "operator:type": "public", "operator:wikidata": "Q668687", "ref": "5710400047"}, "type": "Feature"}
{"geometry": {"coordinates": [-96.762024321, 43.5468448482], "type": "Point"}, "id": "RzRMyDGMxncyRTtAAVWGMT09GcQ=", "properties": {"@source_uri": "https://tools.usps.com/UspsToolsRestServices/rest/POLocator/findLocations", "@spider": "usps_collection_boxes", "addr:city": "SIOUX FALLS", "addr:country": "US", "addr:postcode": "57104", "addr:state": "SD", "addr:street_address": "2700 W 10TH ST", "amenity": "post_box", "collection_times": "Mo-Sa 08:15", "nsi_id": "unitedstatespostalservice-a77078", "operator": "United States Postal Service", "operator:short": "USPS", "operator:type": "public", "operator:wikidata": "Q668687", "ref": "5710400050"}, "type": "Feature"}
{"geometry": {"coordinates": [-96.711479384, 43.604281855], "type": "Point"}, "id": "niuFbXwXQDYI0HCqXCaPovprX88=", "properties": {"@source_uri": "https://tools.usps.com/UspsToolsRestServices/rest/POLocator/findLocations", "@spider": "usps_collection_boxes", "addr:city": "SIOUX FALLS", "addr:country": "US", "addr:postcode": "57104", "addr:state": "SD", "addr:street_address": "5303 N CLIFF AVE", "amenity": "post_box", "collection_times": "Mo-Fr 12:00", "nsi_id": "unitedstatespostalservice-a77078", "operator": "United States Postal Service", "operator:short": "USPS", "operator:type": "public", "operator:wikidata": "Q668687", "ref": "5710400063"}, "type": "Feature"}
{"geometry": {"coordinates": [-96.725786111, 43.544756996], "type": "Point"}, "id": "HbD31afhYaqp1NeMfgOU-JMVxh8=", "properties": {"@source_uri": "https://tools.usps.com/UspsToolsRestServices/rest/POLocator/findLocations", "@spider": "usps_collection_boxes", "addr:city": "SIOUX FALLS", "addr:country": "US", "addr:postcode": "57104", "addr:state": "SD", "addr:street_address": "130 E 11TH ST", "amenity": "post_box", "collection_times": "Mo-Fr 08:00", "nsi_id": "unitedstatespostalservice-a77078", "operator": "United States Postal Service", "operator:short": "USPS", "operator:type": "public", "operator:wikidata": "Q668687", "ref": "5710400068"}, "type": "Feature"}
{"geometry": {"coordinates": [-96.727581, 43.547607], "type": "Point"}, "id": "fTToE79mbJrODEZDElD4lw_NwkI=", "properties": {"@source_uri": "https://tools.usps.com/UspsToolsRestServices/rest/POLocator/findLocations", "@spider": "usps_collection_boxes", "addr:city": "SIOUX FALLS", "addr:country": "US", "addr:postcode": "57104", "addr:state": "SD", "addr:street_address": "101 N PHILLIPS AVE", "amenity": "post_box", "collection_times": "Mo-Fr 10:30", "nsi_id": "unitedstatespostalservice-a77078", "operator": "United States Postal Service", "operator:short": "USPS", "operator:type": "public", "operator:wikidata": "Q668687", "ref": "5710400074"}, "type": "Feature"}
{"geometry": {"coordinates": [-96.723766157, 43.544449917], "type": "Point"}, "id": "byphplghpVMYjSQv1HNA-g9HGtc=", "properties": {"@source_uri": "https://tools.usps.com/UspsToolsRestServices/rest/POLocator/findLocations", "@spider": "usps_collection_boxes", "addr:city": "SIOUX FALLS", "addr:country": "US", "addr:postcode": "57104", "addr:state": "SD", "addr:street_address": "320 S 2ND AVE", "amenity": "post_box", "collection_times": "Mo-Fr 17:15; Sa 16:15", "note": "ON 12/24 AND 12/31, THIS BOX MAY BE COLLECTED AS EARLY AS 12 NOON.", "nsi_id": "unitedstatespostalservice-a77078", "operator": "United States Postal Service", "operator:short": "USPS", "operator:type": "public", "operator:wikidata": "Q668687", "ref": "5710400076"}, "type": "Feature"}
{"geometry": {"coordinates": [-96.729887771, 43.551862711], "type": "Point"}, "id": "49rKPoEGltGprm6RkC39liRdtfw=", "properties": {"@source_uri": "https://tools.usps.com/UspsToolsRestServices/rest/POLocator/findLocations", "@spider": "usps_collection_boxes", "addr:city": "SIOUX FALLS", "addr:country": "US", "addr:postcode": "57104", "addr:state": "SD", "addr:street_address": "415 N DAKOTA AVE", "amenity": "post_box", "collection_times": "Mo-Fr 09:30", "nsi_id": "unitedstatespostalservice-a77078", "operator": "United States Postal Service", "operator:short": "USPS", "operator:type": "public", "operator:wikidata": "Q668687", "ref": "5710400082"}, "type": "Feature"}
{"geometry": {"coordinates": [-96.728388902, 43.548201974], "type": "Point"}, "id": "zNhFxdZhzEP9GzEAg_m14a-8kfs=", "properties": {"@source_uri": "https://tools.usps.com/UspsToolsRestServices/rest/POLocator/findLocations", "@spider": "usps_collection_boxes", "addr:city": "SIOUX FALLS", "addr:country": "US", "addr:postcode": "57104", "addr:state": "SD", "addr:street_address": "141 N MAIN AVE", "amenity": "post_box", "collection_times": "Mo-Fr 08:30", "nsi_id": "unitedstatespostalservice-a77078", "operator": "United States Postal Service", "operator:short": "USPS", "operator:type": "public", "operator:wikidata": "Q668687", "ref": "5710400088"}, "type": "Feature"}
{"geometry": {"coordinates": [-96.728388923, 43.547048497], "type": "Point"}, "id": "TZKMg9-5I-ygw1kSSuDs6IRz5xM=", "properties": {"@source_uri": "https://tools.usps.com/UspsToolsRestServices/rest/POLocator/findLocations", "@spider": "usps_collection_boxes", "addr:city": "SIOUX FALLS", "addr:country": "US", "addr:postcode": "57104", "addr:state": "SD", "addr:street_address": "101 S MAIN AVE", "amenity": "post_box", "collection_times": "Mo-Fr 10:00", "nsi_id": "unitedstatespostalservice-a77078", "operator": "United States Postal Service", "operator:short": "USPS", "operator:type": "public", "operator:wikidata": "Q668687", "ref": "5710400090"}, "type": "Feature"}
{"geometry": {"coordinates": [-96.728356857, 43.542308663], "type": "Point"}, "id": "SMr2PfXneB9HZEq4bMY2xDJ5oe0=", "properties": {"@source_uri": "https://tools.usps.com/UspsToolsRestServices/rest/POLocator/findLocations", "@spider": "usps_collection_boxes", "addr:city": "SIOUX FALLS", "addr:country": "US", "addr:postcode": "57104", "addr:state": "SD", "addr:street_address": "513 S MAIN AVE", "amenity": "post_box", "collection_times": "Mo-Fr 12:30", "note": "ON 12/24 AND 12/31, THIS BOX MAY BE COLLECTED AS EARLY AS 12 NOON.", "nsi_id": "unitedstatespostalservice-a77078", "operator": "United States Postal Service", "operator:short": "USPS", "operator:type": "public", "operator:wikidata": "Q668687", "ref": "5710400095"}, "type": "Feature"}
{"geometry": {"coordinates": [-96.72677312, 43.549056974], "type": "Point"}, "id": "XPa-bQuwLgGbIzVyQrIV2fD82q0=", "properties": {"@source_uri": "https://tools.usps.com/UspsToolsRestServices/rest/POLocator/findLocations", "@spider": "usps_collection_boxes", "addr:city": "SIOUX FALLS", "addr:country": "US", "addr:postcode": "57104", "addr:state": "SD", "addr:street_address": "200 N PHILLIPS AVE", "amenity": "post_box", "collection_times": "Mo-Fr 11:00", "nsi_id": "unitedstatespostalservice-a77078", "operator": "United States Postal Service", "operator:short": "USPS", "operator:type": "public", "operator:wikidata": "Q668687", "ref": "5710400100"}, "type": "Feature"}
{"geometry": {"coordinates": [-96.725379873, 43.543383189], "type": "Point"}, "id": "Le7j-wf6AoWM_TWvCZ3HYhs2MbU=", "properties": {"@source_uri": "https://tools.usps.com/UspsToolsRestServices/rest/POLocator/findLocations", "@spider": "usps_collection_boxes", "addr:city": "SIOUX FALLS", "addr:country": "US", "addr:postcode": "57104", "addr:state": "SD", "addr:street_address": "401 S 1ST AVE", "amenity": "post_box", "collection_times": "Mo-Fr 08:15", "nsi_id": "unitedstatespostalservice-a77078", "operator": "United States Postal Service", "operator:short": "USPS", "operator:type": "public", "operator:wikidata": "Q668687", "ref": "5710400110"}, "type": "Feature"}
{"geometry": {"coordinates": [-96.724835915, 43.59759131], "type": "Point"}, "id": "0FKGs_gO-RFI03YqtK3yOWjckv4=", "properties": {"@source_uri": "https://tools.usps.com/UspsToolsRestServices/rest/POLocator/findLocations", "@spider": "usps_collection_boxes", "addr:city": "SIOUX FALLS", "addr:country": "US", "addr:postcode": "57104", "addr:state": "SD", "addr:street_address": "4801 N 4TH AVE", "amenity": "post_box", "collection_times": "Mo-Sa 18:30", "note": "ON 12/24 AND 12/31, THIS BOX MAY BE COLLECTED AS EARLY AS 12 NOON.", "nsi_id": "unitedstatespostalservice-a77078", "operator": "United States Postal Service", "operator:short": "USPS", "operator:type": "public", "operator:wikidata": "Q668687", "ref": "5710400120"}, "type": "Feature"}
{"geometry": {"coordinates": [-96.723766157, 43.544449917], "type": "Point"}, "id": "CuPNpICNMwV_MSiz9jgR1pUBIt4=", "properties": {"@source_uri": "https://tools.usps.com/UspsToolsRestServices/rest/POLocator/findLocations", "@spider": "usps_collection_boxes", "addr:city": "SIOUX FALLS", "addr:country": "US", "addr:postcode": "57104", "addr:state": "SD", "addr:street_address": "320 S 2ND AVE", "amenity": "post_box", "collection_times": "Mo-Fr 17:30; Sa 12:00", "indoor": "yes", "note": "ON 12/24 AND 12/31, THIS BOX MAY BE COLLECTED AS EARLY AS 12 NOON.", "nsi_id": "unitedstatespostalservice-a77078", "operator": "United States Postal Service", "operator:short": "USPS", "operator:type": "public", "operator:wikidata": "Q668687", "ref": "5710400122"}, "type": "Feature"}
{"geometry": {"coordinates": [-96.724835915, 43.59759131], "type": "Point"}, "id": "-nElLydBBjr_wrZfc4pbEQqOpK8=", "properties": {"@source_uri": "https://tools.usps.com/UspsToolsRestServices/rest/POLocator/findLocations", "@spider": "usps_collection_boxes", "addr:city": "SIOUX FALLS", "addr:country": "US", "addr:postcode": "57104", "addr:state": "SD", "addr:street_address": "4801 N 4TH AVE", "amenity": "post_box", "collection_times": "Mo-Sa 20:00", "indoor": "yes", "note": "ON 12/24 AND 12/31, THIS BOX MAY BE COLLECTED AS EARLY AS 12 NOON.", "nsi_id": "unitedstatespostalservice-a77078", "operator": "United States Postal Service", "operator:short": "USPS", "operator:type": "public", "operator:wikidata": "Q668687", "ref": "5710400123"}, "type": "Feature"}
{"geometry": {"coordinates": [-96.75074734, 43.507561597], "type": "Point"}, "id": "WXbCTc8_VVXFvtY-Ph8WLbOhHAk=", "properties": {"@source_uri": "https://tools.usps.com/UspsToolsRestServices/rest/POLocator/findLocations", "@spider": "usps_collection_boxes", "addr:city": "SIOUX FALLS", "addr:country": "US", "addr:postcode": "57105", "addr:state": "SD", "addr:street_address": "3920 S WESTERN AVE", "amenity": "post_box", "collection_times": "Mo-Fr 16:15; Sa 17:00", "note": "ON 12/24 AND 12/31, THIS BOX MAY BE COLLECTED AS EARLY AS 12 NOON.", "nsi_id": "unitedstatespostalservice-a77078", "operator": "United States Postal Service", "operator:short": "USPS", "operator:type": "public", "operator:wikidata": "Q668687", "ref": "5710500006"}, "type": "Feature"}
{"geometry": {"coordinates": [-96.750567, 43.530363], "type": "Point"}, "id": "3YvJGkK6mIf0bQIoe5mRF-HrIXg=", "properties": {"@source_uri": "https://tools.usps.com/UspsToolsRestServices/rest/POLocator/findLocations", "@spider": "usps_collection_boxes", "addr:city": "SIOUX FALLS", "addr:country": "US", "addr:postcode": "57105", "addr:state": "SD", "addr:street_address": "1600 S WESTERN AVE", "amenity": "post_box", "collection_times": "Mo-Sa 10:30", "nsi_id": "unitedstatespostalservice-a77078", "operator": "United States Postal Service", "operator:short": "USPS", "operator:type": "public", "operator:wikidata": "Q668687", "ref": "5710500009"}, "type": "Feature"}
{"geometry": {"coordinates": [-96.731202086, 43.517493], "type": "Point"}, "id": "SY52NF7KIGseKSA5_eKu-dlU1ks=", "properties": {"@source_uri": "https://tools.usps.com/UspsToolsRestServices/rest/POLocator/findLocations", "@spider": "usps_collection_boxes", "addr:city": "SIOUX FALLS", "addr:country": "US", "addr:postcode": "57105", "addr:state": "SD", "addr:street_address": "3000 S MINNESOTA AVE", "amenity": "post_box", "collection_times": "Mo-Fr 16:45; Sa 16:00", "note": "ON 12/24 AND 12/31, THIS BOX MAY BE COLLECTED AS EARLY AS 12 NOON.", "nsi_id": "unitedstatespostalservice-a77078", "operator": "United States Postal Service", "operator:short": "USPS", "operator:type": "public", "operator:wikidata": "Q668687", "ref": "5710500016"}, "type": "Feature"}
{"geometry": {"coordinates": [-96.730775, 43.52942], "type": "Point"}, "id": "BqUfNKOAJ5r8N9A3UhVxv2eB73I=", "properties": {"@source_uri": "https://tools.usps.com/UspsToolsRestServices/rest/POLocator/findLocations", "@spider": "usps_collection_boxes", "addr:city": "SIOUX FALLS", "addr:country": "US", "addr:postcode": "57105", "addr:state": "SD", "addr:street_address": "3816 S ELMWOOD AVE", "amenity": "post_box", "collection_times": "Mo-Fr 16:30", "note": "ON 12/24 AND 12/31, THIS BOX MAY BE COLLECTED AS EARLY AS 12 NOON.", "nsi_id": "unitedstatespostalservice-a77078", "operator": "United States Postal Service", "operator:short": "USPS", "operator:type": "public", "operator:wikidata": "Q668687", "ref": "5710500024"}, "type": "Feature"}
{"geometry": {"coordinates": [-96.751801195, 43.522056506], "type": "Point"}, "id": "F29x3wYV1R7ECAhuIU-xaqgq8xc=", "properties": {"@source_uri": "https://tools.usps.com/UspsToolsRestServices/rest/POLocator/findLocations", "@spider": "usps_collection_boxes", "addr:city": "SIOUX FALLS", "addr:country": "US", "addr:postcode": "57105", "addr:state": "SD", "addr:street_address": "2121 W 33RD ST", "amenity": "post_box", "collection_times": "Mo-Sa 14:00", "note": "ON 12/24 AND 12/31, THIS BOX MAY BE COLLECTED AS EARLY AS 12 NOON.", "nsi_id": "unitedstatespostalservice-a77078", "operator": "United States Postal Service", "operator:short": "USPS", "operator:type": "public", "operator:wikidata": "Q668687", "ref": "5710500036"}, "type": "Feature"}
{"geometry": {"coordinates": [-96.7182435, 43.514831517], "type": "Point"}, "id": "keHYvexDfF_Zor51EoLe5z563q4=", "properties": {"@source_uri": "https://tools.usps.com/UspsToolsRestServices/rest/POLocator/findLocations", "@spider": "usps_collection_boxes", "addr:city": "SIOUX FALLS", "addr:country": "US", "addr:postcode": "57105", "addr:state": "SD", "addr:street_address": "705 E 41ST ST", "amenity": "post_box", "collection_times": "Mo-Fr 10:00", "nsi_id": "unitedstatespostalservice-a77078", "operator": "United States Postal Service", "operator:short": "USPS", "operator:type": "public", "operator:wikidata": "Q668687", "ref": "5710500038"}, "type": "Feature"}
{"geometry": {"coordinates": [-96.7564665, 43.514019], "type": "Point"}, "id": "dAIXMtgc6H1UzU_QG8YUVAQlXYU=", "properties": {"@source_uri": "https://tools.usps.com/UspsToolsRestServices/rest/POLocator/findLocations", "@spider": "usps_collection_boxes", "addr:city": "SIOUX FALLS", "addr:country": "US", "addr:postcode": "57105", "addr:state": "SD", "addr:street_address": "2505 W 41ST ST", "amenity": "post_box", "collection_times": "Mo-Fr 16:15; Sa 17:00", "note": "ON 12/24 AND 12/31, THIS BOX MAY BE COLLECTED AS EARLY AS 12 NOON.", "nsi_id": "unitedstatespostalservice-a77078", "operator": "United States Postal Service", "operator:short": "USPS", "operator:type": "public", "operator:wikidata": "Q668687", "ref": "5710500049"}, "type": "Feature"}
{"geometry": {"coordinates": [-96.761181343, 43.519082657], "type": "Point"}, "id": "4MKcZ9rfyb67s_EtIMGXhFV93P8=", "properties": {"@source_uri": "https://tools.usps.com/UspsToolsRestServices/rest/POLocator/findLocations", "@spider": "usps_collection_boxes", "addr:city": "SIOUX FALLS", "addr:country": "US", "addr:postcode": "57105", "addr:state": "SD", "addr:street_address": "2801 S KIWANIS AVE", "amenity": "post_box", "collection_times": "Mo-Fr 16:15", "note": "ON 12/24 AND 12/31, THIS BOX MAY BE COLLECTED AS EARLY AS 12 NOON.", "nsi_id": "unitedstatespostalservice-a77078", "operator": "United States Postal Service", "operator:short": "USPS", "operator:type": "public", "operator:wikidata": "Q668687", "ref": "5710500063"}, "type": "Feature"}
{"geometry": {"coordinates": [-96.740202526, 43.514897487], "type": "Point"}, "id": "fW72rJ9G9LF_negHoLrB_To7bZc=", "properties": {"@source_uri": "https://tools.usps.com/UspsToolsRestServices/rest/POLocator/findLocations", "@spider": "usps_collection_boxes", "addr:city": "SIOUX FALLS", "addr:country": "US", "addr:postcode": "57105", "addr:state": "SD", "addr:street_address": "1200 W 41ST ST", "amenity": "post_box", "collection_times": "Mo-Fr 10:00", "nsi_id": "unitedstatespostalservice-a77078", "operator": "United States Postal Service", "operator:short": "USPS", "operator:type": "public", "operator:wikidata": "Q668687", "ref": "5710500064"}, "type": "Feature"}
{"geometry": {"coordinates": [-96.742601637, 43.536343467], "type": "Point"}, "id": "32iUjnYxvyw61pth-ihiB8gmJBA=", "properties": {"@source_uri": "https://tools.usps.com/UspsToolsRestServices/rest/POLocator/findLocations", "@spider": "usps_collection_boxes", "addr:city": "SIOUX FALLS", "addr:country": "US", "addr:postcode": "57105", "addr:state": "SD", "addr:street_address": "1201 S EUCLID AVE", "amenity": "post_box", "collection_times": "Mo-Fr 15:30", "note": "ON 12/24 AND 12/31, THIS BOX MAY BE COLLECTED AS EARLY AS 12 NOON.", "nsi_id": "unitedstatespostalservice-a77078", "operator": "United States Postal Service", "operator:short": "USPS", "operator:type": "public", "operator:wikidata": "Q668687", "ref": "5710500081"}, "type": "Feature"}
{"geometry": {"coordinates": [-96.7157034095, 43.534249488], "type": "Point"}, "id": "wVWsgI_AO-Amym0LNtbeJgpVFHU=", "properties": {"@source_uri": "https://tools.usps.com/UspsToolsRestServices/rest/POLocator/findLocations", "@spider": "usps_collection_boxes", "addr:city": "SIOUX FALLS", "addr:country": "US", "addr:postcode": "57105", "addr:state": "SD", "addr:street_address": "800 E 21ST ST", "amenity": "post_box", "collection_times": "Mo-Fr 16:15", "note": "ON 12/24 AND 12/31, THIS BOX MAY BE COLLECTED AS EARLY AS 12 NOON.", "nsi_id": "unitedstatespostalservice-a77078", "operator": "United States Postal Service", "operator:short": "USPS", "operator:type": "public", "operator:wikidata": "Q668687", "ref": "5710500082"}, "type": "Feature"}
{"geometry": {"coordinates": [-96.731281881, 43.518006], "type": "Point"}, "id": "Sy-B48GoJl1PHrDzXMMoQnAeN_M=", "properties": {"@source_uri": "https://tools.usps.com/UspsToolsRestServices/rest/POLocator/findLocations", "@spider": "usps_collection_boxes", "addr:city": "SIOUX FALLS", "addr:country": "US", "addr:postcode": "57105", "addr:state": "SD", "addr:street_address": "2901 S MINNESOTA AVE", "amenity": "post_box", "collection_times": "Mo-Fr 16:30; Sa 16:00", "note": "ON 12/24 AND 12/31, THIS BOX MAY BE COLLECTED AS EARLY AS 12 NOON.", "nsi_id": "unitedstatespostalservice-a77078", "operator": "United States Postal Service", "operator:short": "USPS", "operator:type": "public", "operator:wikidata": "Q668687", "ref": "5710500087"}, "type": "Feature"}
{"geometry": {"coordinates": [-96.774790332, 43.507572521], "type": "Point"}, "id": "F9Cy9ooZNtxGiIO4YGbFKojsB-k=", "properties": {"@source_uri": "https://tools.usps.com/UspsToolsRestServices/rest/POLocator/findLocations", "@spider": "usps_collection_boxes", "addr:city": "SIOUX FALLS", "addr:country": "US", "addr:postcode": "57106", "addr:state": "SD", "addr:street_address": "4009 W 49TH ST", "amenity": "post_box", "collection_times": "Mo-Fr 16:45", "note": "ON 12/24 AND 12/31, THIS BOX MAY BE COLLECTED AS EARLY AS 12 NOON.", "nsi_id": "unitedstatespostalservice-a77078", "operator": "United States Postal Service", "operator:short": "USPS", "operator:type": "public", "operator:wikidata": "Q668687", "ref": "5710600003"}, "type": "Feature"}
{"geometry": {"coordinates": [-96.7717627514, 43.5070931276], "type": "Point"}, "id": "_XJcli9q_l9YOPQe88lQ96ri1O0=", "properties": {"@source_uri": "https://tools.usps.com/UspsToolsRestServices/rest/POLocator/findLocations", "@spider": "usps_collection_boxes", "addr:city": "SIOUX FALLS", "addr:country": "US", "addr:postcode": "57106", "addr:state": "SD", "addr:street_address": "3701 W 49TH ST", "amenity": "post_box", "collection_times": "Mo-Fr 16:30; Sa 16:00", "note": "ON 12/24 AND 12/31, THIS BOX MAY BE COLLECTED AS EARLY AS 12 NOON.", "nsi_id": "unitedstatespostalservice-a77078", "operator": "United States Postal Service", "operator:short": "USPS", "operator:type": "public", "operator:wikidata": "Q668687", "ref": "5710600004"}, "type": "Feature"}
{"geometry": {"coordinates": [-96.774766879, 43.501896336], "type": "Point"}, "id": "wQXd_zgim8dI-GXmtSeWzJpb3Tw=", "properties": {"@source_uri": "https://tools.usps.com/UspsToolsRestServices/rest/POLocator/findLocations", "@spider": "usps_collection_boxes", "addr:city": "SIOUX FALLS", "addr:country": "US", "addr:postcode": "57106", "addr:state": "SD", "addr:street_address": "4709 S TECHNOPOLIS DR", "amenity": "post_box", "collection_times": "Mo-Fr 16:45; Sa 16:15", "note": "ON 12/24 AND 12/31, THIS BOX MAY BE COLLECTED AS EARLY AS 12 NOON.", "nsi_id": "unitedstatespostalservice-a77078", "operator": "United States Postal Service", "operator:short": "USPS", "operator:type": "public", "operator:wikidata": "Q668687", "ref": "5710600021"}, "type": "Feature"}
{"geometry": {"coordinates": [-96.793203777, 43.514829509], "type": "Point"}, "id": "tQNLwmjVF-EoG5xUN012tQrWWFQ=", "properties": {"@source_uri": "https://tools.usps.com/UspsToolsRestServices/rest/POLocator/findLocations", "@spider": "usps_collection_boxes", "addr:city": "SIOUX FALLS", "addr:country": "US", "addr:postcode": "57106", "addr:state": "SD", "addr:street_address": "5500 W 41ST ST", "amenity": "post_box", "collection_times": "Mo-Fr 17:30; Sa 16:30", "note": "ON 12/24 AND 12/31, THIS BOX MAY BE COLLECTED AS EARLY AS 12 NOON.", "nsi_id": "unitedstatespostalservice-a77078", "operator": "United States Postal Service", "operator:short": "USPS", "operator:type": "public", "operator:wikidata": "Q668687", "ref": "5710600024"}, "type": "Feature"}
{"geometry": {"coordinates": [-96.771077905, 43.508537783], "type": "Point"}, "id": "tdMBtnuV1dYx6z1McdWmOF0B3cg=", "properties": {"@source_uri": "https://tools.usps.com/UspsToolsRestServices/rest/POLocator/findLocations", "@spider": "usps_collection_boxes", "addr:city": "SIOUX FALLS", "addr:country": "US", "addr:postcode": "57106", "addr:state": "SD", "addr:street_address": "4101 S LOUISE AVE", "amenity": "post_box", "collection_times": "Mo-Fr 17:00; Sa 16:00", "note": "ON 12/24 AND 12/31, THIS BOX MAY BE COLLECTED AS EARLY AS 12 NOON.", "nsi_id": "unitedstatespostalservice-a77078", "operator": "United States Postal Service", "operator:short": "USPS", "operator:type": "public", "operator:wikidata": "Q668687", "ref": "5710600042"}, "type": "Feature"}
{"geometry": {"coordinates": [-96.770992905, 43.511937414], "type": "Point"}, "id": "SiVPUy-rVrF_yl-jUWdrqM2ggLc=", "properties": {"@source_uri": "https://tools.usps.com/UspsToolsRestServices/rest/POLocator/findLocations", "@spider": "usps_collection_boxes", "addr:city": "SIOUX FALLS", "addr:country": "US", "addr:postcode": "57106", "addr:state": "SD", "addr:street_address": "3600 S LOUISE AVE", "amenity": "post_box", "collection_times": "Mo-Fr 16:00; Sa 15:45", "note": "ON 12/24 AND 12/31, THIS BOX MAY BE COLLECTED AS EARLY AS 12 NOON.", "nsi_id": "unitedstatespostalservice-a77078", "operator": "United States Postal Service", "operator:short": "USPS", "operator:type": "public", "operator:wikidata": "Q668687", "ref": "5710600043"}, "type": "Feature"}
{"geometry": {"coordinates": [-96.77268, 43.505147496], "type": "Point"}, "id": "zB9kXn2OI-3MFWxXT1bEY5xat6E=", "properties": {"@source_uri": "https://tools.usps.com/UspsToolsRestServices/rest/POLocator/findLocations", "@spider": "usps_collection_boxes", "addr:city": "SIOUX FALLS", "addr:country": "US", "addr:postcode": "57106", "addr:state": "SD", "addr:street_address": "3901 W TECHNOLOGY CIR", "amenity": "post_box", "collection_times": "Mo-Fr 15:00", "note": "ON 12/24 AND 12/31, THIS BOX MAY BE COLLECTED AS EARLY AS 12 NOON.", "nsi_id": "unitedstatespostalservice-a77078", "operator": "United States Postal Service", "operator:short": "USPS", "operator:type": "public", "operator:wikidata": "Q668687", "ref": "5710600048"}, "type": "Feature"}
{"geometry": {"coordinates": [-96.790844125, 43.527733889], "type": "Point"}, "id": "FZi7l832UzUPm9oqS4YFWX0MEPU=", "properties": {"@source_uri": "https://tools.usps.com/UspsToolsRestServices/rest/POLocator/findLocations", "@spider": "usps_collection_boxes", "addr:city": "SIOUX FALLS", "addr:country": "US", "addr:postcode": "57106", "addr:state": "SD", "addr:street_address": "1900 S MARION RD", "amenity": "post_box", "collection_times": "Mo-Fr 17:30; Sa 16:30", "note": "ON 12/24 AND 12/31, THIS BOX MAY BE COLLECTED AS EARLY AS 12 NOON.", "nsi_id": "unitedstatespostalservice-a77078", "operator": "United States Postal Service", "operator:short": "USPS", "operator:type": "public", "operator:wikidata": "Q668687", "ref": "5710600050"}, "type": "Feature"}
{"geometry": {"coordinates": [-96.773527923, 43.524219941], "type": "Point"}, "id": "NzR9O7qFYjzPjUdsFuTVQiDDQRY=", "properties": {"@source_uri": "https://tools.usps.com/UspsToolsRestServices/rest/POLocator/findLocations", "@spider": "usps_collection_boxes", "addr:city": "SIOUX FALLS", "addr:country": "US", "addr:postcode": "57106", "addr:state": "SD", "addr:street_address": "2501 S LOUISE AVE", "amenity": "post_box", "collection_times": "Mo-Fr 17:15; Sa 16:45", "note": "ON 12/24 AND 12/31, THIS BOX MAY BE COLLECTED AS EARLY AS 12 NOON.", "nsi_id": "unitedstatespostalservice-a77078", "operator": "United States Postal Service", "operator:short": "USPS", "operator:type": "public", "operator:wikidata": "Q668687", "ref": "5710600053"}, "type": "Feature"}
{"geometry": {"coordinates": [-96.773527923, 43.524219941], "type": "Point"}, "id": "bWg9orQZCe2dm8CC6lxfbMAp0vU=", "properties": {"@source_uri": "https://tools.usps.com/UspsToolsRestServices/rest/POLocator/findLocations", "@spider": "usps_collection_boxes", "addr:city": "SIOUX FALLS", "addr:country": "US", "addr:postcode": "57106", "addr:state": "SD", "addr:street_address": "2501 S LOUISE AVE", "amenity": "post_box", "collection_times": "Mo-Fr 17:45; Sa 15:00", "name": "USPS COLLECTION BOX - APC", "note": "ON 12/24 AND 12/31, THIS BOX MAY BE COLLECTED AS EARLY AS 12 NOON.", "nsi_id": "unitedstatespostalservice-a77078", "operator": "United States Postal Service", "operator:short": "USPS", "operator:type": "public", "operator:wikidata": "Q668687", "ref": "5710600054"}, "type": "Feature"}
{"geometry": {"coordinates": [-96.830850343, 43.520130573], "type": "Point"}, "id": "bbdUnvsfjKdDF6-r5rGTEFgpIAA=", "properties": {"@source_uri": "https://tools.usps.com/UspsToolsRestServices/rest/POLocator/findLocations", "@spider": "usps_collection_boxes", "addr:city": "SIOUX FALLS", "addr:country": "US", "addr:postcode": "57106", "addr:state": "SD", "addr:street_address": "2525 S ELLIS RD", "amenity": "post_box", "collection_times": "Mo-Sa 13:00", "note": "ON 12/24 AND 12/31, THIS BOX MAY BE COLLECTED AS EARLY AS 12 NOON.", "nsi_id": "unitedstatespostalservice-a77078", "operator": "United States Postal Service", "operator:short": "USPS", "operator:type": "public", "operator:wikidata": "Q668687", "ref": "5710600057"}, "type": "Feature"}
{"geometry": {"coordinates": [-96.769873814, 43.56865029], "type": "Point"}, "id": "DbXdJXKYty93O99aCHX38x1ZRC4=", "properties": {"@source_uri": "https://tools.usps.com/UspsToolsRestServices/rest/POLocator/findLocations", "@spider": "usps_collection_boxes", "addr:city": "SIOUX FALLS", "addr:country": "US", "addr:postcode": "57107", "addr:state": "SD", "addr:street_address": "3015 W RUSSELL ST", "amenity": "post_box", "collection_times": "Mo-Fr 10:00", "nsi_id": "unitedstatespostalservice-a77078", "operator": "United States Postal Service", "operator:short": "USPS", "operator:type": "public", "operator:wikidata": "Q668687", "ref": "5710700005"}, "type": "Feature"}
{"geometry": {"coordinates": [-96.764711773, 43.572961456], "type": "Point"}, "id": "2l8pYdzw8rd4m7YxLsx8Qsvzjq8=", "properties": {"@source_uri": "https://tools.usps.com/UspsToolsRestServices/rest/POLocator/findLocations", "@spider": "usps_collection_boxes", "addr:city": "SIOUX FALLS", "addr:country": "US", "addr:postcode": "57107", "addr:state": "SD", "addr:street_address": "2930 W MAPLE ST", "amenity": "post_box", "collection_times": "Mo-Fr 10:15", "nsi_id": "unitedstatespostalservice-a77078", "operator": "United States Postal Service", "operator:short": "USPS", "operator:type": "public", "operator:wikidata": "Q668687", "ref": "5710700006"}, "type": "Feature"}
{"geometry": {"coordinates": [-96.775691946, 43.647336], "type": "Point"}, "id": "NHOAbZ2bD-58rmOC6dpt0kQs-8Q=", "properties": {"@source_uri": "https://tools.usps.com/UspsToolsRestServices/rest/POLocator/findLocations", "@spider": "usps_collection_boxes", "addr:city": "SIOUX FALLS", "addr:country": "US", "addr:postcode": "57107", "addr:state": "SD", "addr:street_address": "25785 COTTONWOOD AVE", "amenity": "post_box", "collection_times": "Mo-Sa 11:00", "nsi_id": "unitedstatespostalservice-a77078", "operator": "United States Postal Service", "operator:short": "USPS", "operator:type": "public", "operator:wikidata": "Q668687", "ref": "5710700007"}, "type": "Feature"}
{"geometry": {"coordinates": [-96.789891855, 43.543980502], "type": "Point"}, "id": "lQp4xQ8ywjIIBPpSEvIuKBnCltQ=", "properties": {"@source_uri": "https://tools.usps.com/UspsToolsRestServices/rest/POLocator/findLocations", "@spider": "usps_collection_boxes", "addr:city": "SIOUX FALLS", "addr:country": "US", "addr:postcode": "57107", "addr:state": "SD", "addr:street_address": "5212 W 12TH ST", "amenity": "post_box", "collection_times": "Mo-Fr 10:00", "nsi_id": "unitedstatespostalservice-a77078", "operator": "United States Postal Service", "operator:short": "USPS", "operator:type": "public", "operator:wikidata": "Q668687", "ref": "5710700008"}, "type": "Feature"}
{"geometry": {"coordinates": [-96.729300472, 43.500309521], "type": "Point"}, "id": "sJOJSM6mVKRROekA8-N_C3va3Ds=", "properties": {"@source_uri": "https://tools.usps.com/UspsToolsRestServices/rest/POLocator/findLocations", "@spider": "usps_collection_boxes", "addr:city": "SIOUX FALLS", "addr:country": "US", "addr:postcode": "57108", "addr:state": "SD", "addr:street_address": "401 W 57TH ST", "amenity": "post_box", "collection_times": "Mo-Fr 16:15; Sa 15:45", "note": "ON 12/24 AND 12/31, THIS BOX MAY BE COLLECTED AS EARLY AS 12 NOON.", "nsi_id": "unitedstatespostalservice-a77078", "operator": "United States Postal Service", "operator:short": "USPS", "operator:type": "public", "operator:wikidata": "Q668687", "ref": "5710800001"}, "type": "Feature"}
{"geometry": {"coordinates": [-96.746562, 43.500335484], "type": "Point"}, "id": "do42dLsKb4mOhENK3W-fQt9zTrY=", "properties": {"@source_uri": "https://tools.usps.com/UspsToolsRestServices/rest/POLocator/findLocations", "@spider": "usps_collection_boxes", "addr:city": "SIOUX FALLS", "addr:country": "US", "addr:postcode": "57108", "addr:state": "SD", "addr:street_address": "1919 W 57TH ST", "amenity": "post_box", "collection_times": "Mo-Fr 16:15", "note": "ON 12/24 AND 12/31, THIS BOX MAY BE COLLECTED AS EARLY AS 12 NOON.", "nsi_id": "unitedstatespostalservice-a77078", "operator": "United States Postal Service", "operator:short": "USPS", "operator:type": "public", "operator:wikidata": "Q668687", "ref": "5710800003"}, "type": "Feature"}
{"geometry": {"coordinates": [-96.7673, 43.47687], "type": "Point"}, "id": "lN7lti2XJY8RKmvpwuxte4pvJzM=", "properties": {"@source_uri": "https://tools.usps.com/UspsToolsRestServices/rest/POLocator/findLocations", "@spider": "usps_collection_boxes", "addr:city": "SIOUX FALLS", "addr:country": "US", "addr:postcode": "57108", "addr:state": "SD", "addr:street_address": "1224 E 57TH ST", "amenity": "post_box", "collection_times": "Mo-Fr 16:15; Sa 15:30", "note": "ON 12/24 AND 12/31, THIS BOX MAY BE COLLECTED AS EARLY AS 12 NOON.", "nsi_id": "unitedstatespostalservice-a77078", "operator": "United States Postal Service", "operator:short": "USPS", "operator:type": "public", "operator:wikidata": "Q668687", "ref": "5710800004"}, "type": "Feature"}
{"geometry": {"coordinates": [-96.7086405, 43.500329497], "type": "Point"}, "id": "k7o1ayQXYez0lQB-Iudy9mMhBfE=", "properties": {"@source_uri": "https://tools.usps.com/UspsToolsRestServices/rest/POLocator/findLocations", "@spider": "usps_collection_boxes", "addr:city": "SIOUX FALLS", "addr:country": "US", "addr:postcode": "57108", "addr:state": "SD", "addr:street_address": "1231 E 57TH ST", "amenity": "post_box", "collection_times": "Mo-Fr 16:15; Sa 15:45", "note": "ON 12/24 AND 12/31, THIS BOX MAY BE COLLECTED AS EARLY AS 12 NOON.", "nsi_id": "unitedstatespostalservice-a77078", "operator": "United States Postal Service", "operator:short": "USPS", "operator:type": "public", "operator:wikidata": "Q668687", "ref": "5710800006"}, "type": "Feature"}
{"geometry": {"coordinates": [-96.767448856, 43.48903544], "type": "Point"}, "id": "CyS5jW8yjQMyj5z7058K5HjEFH8=", "properties": {"@source_uri": "https://tools.usps.com/UspsToolsRestServices/rest/POLocator/findLocations", "@spider": "usps_collection_boxes", "addr:city": "SIOUX FALLS", "addr:country": "US", "addr:postcode": "57108", "addr:state": "SD", "addr:street_address": "6109 S LOUISE AVE", "amenity": "post_box", "collection_times": "Mo-Sa 15:30", "note": "ON 12/24 AND 12/31, THIS BOX MAY BE COLLECTED AS EARLY AS 12 NOON.", "nsi_id": "unitedstatespostalservice-a77078", "operator": "United States Postal Service", "operator:short": "USPS", "operator:type": "public", "operator:wikidata": "Q668687", "ref": "5710800007"}, "type": "Feature"}
{"geometry": {"coordinates": [-96.671438929, 43.530695665], "type": "Point"}, "id": "813z-J_5GfxjQaDZ4OpIM3Lasrk=", "properties": {"@source_uri": "https://tools.usps.com/UspsToolsRestServices/rest/POLocator/findLocations", "@spider": "usps_collection_boxes", "addr:city": "SIOUX FALLS", "addr:country": "US", "addr:postcode": "57110", "addr:state": "SD", "addr:street_address": "1601 S SYCAMORE AVE", "amenity": "post_box", "collection_times": "Mo-Fr 16:30; Sa 15:15", "note": "ON 12/24 AND 12/31, THIS BOX MAY BE COLLECTED AS EARLY AS 12 NOON.", "nsi_id": "unitedstatespostalservice-a77078", "operator": "United States Postal Service", "operator:short": "USPS", "operator:type": "public", "operator:wikidata": "Q668687", "ref": "5711000001"}, "type": "Feature"}
{"geometry": {"coordinates": [-96.671554057, 43.551522], "type": "Point"}, "id": "tjiHidaGM_kcaCaSp7wxPFWDN2k=", "properties": {"@source_uri": "https://tools.usps.com/UspsToolsRestServices/rest/POLocator/findLocations", "@spider": "usps_collection_boxes", "addr:city": "SIOUX FALLS", "addr:country": "US", "addr:postcode": "57110", "addr:state": "SD", "addr:street_address": "500 N SYCAMORE AVE", "amenity": "post_box", "collection_times": "Mo-Fr 10:30", "nsi_id": "unitedstatespostalservice-a77078", "operator": "United States Postal Service", "operator:short": "USPS", "operator:type": "public", "operator:wikidata": "Q668687", "ref": "5711000003"}, "type": "Feature"}
{"geometry": {"coordinates": [-96.655508856, 43.538529372], "type": "Point"}, "id": "E2JEOqA5UwGUPmnet-ugxRfAk3g=", "properties": {"@source_uri": "https://tools.usps.com/UspsToolsRestServices/rest/POLocator/findLocations", "@spider": "usps_collection_boxes", "addr:city": "SIOUX FALLS", "addr:country": "US", "addr:postcode": "57110", "addr:state": "SD", "addr:street_address": "1021 S HIGHLINE PL", "amenity": "post_box", "collection_times": "Mo-Sa 10:00", "nsi_id": "unitedstatespostalservice-a77078", "operator": "United States Postal Service", "operator:short": "USPS", "operator:type": "public", "operator:wikidata": "Q668687", "ref": "5711000006"}, "type": "Feature"}
{"geometry": {"coordinates": [-96.672288336, 43.515296538], "type": "Point"}, "id": "Lq7VFcFUKFRs3EQf1OMkU3Z0cpY=", "properties": {"@source_uri": "https://tools.usps.com/UspsToolsRestServices/rest/POLocator/findLocations", "@spider": "usps_collection_boxes", "addr:city": "SIOUX FALLS", "addr:country": "US", "addr:postcode": "57110", "addr:state": "SD", "addr:street_address": "3245 S SYCAMORE AVE", "amenity": "post_box", "collection_times": "Mo-Fr 10:00", "nsi_id": "unitedstatespostalservice-a77078", "operator": "United States Postal Service", "operator:short": "USPS", "operator:type": "public", "operator:wikidata": "Q668687", "ref": "5711000007"}, "type": "Feature"}
