{"geometry": {"coordinates": [-97.132270416, 44.890189495], "type": "Point"}, "id": "TUtc2Mg7YUd641ceosZgO-nBKsY=", "properties": {"@spider": "usps_collection_boxes", "addr:city": "WATERTOWN", "addr:country": "US", "addr:full": "1003 9TH AVE SW", "addr:postcode": "57201", "addr:state": "SD", "brand": "USPS", "collection_times": "Mo-Sa 12:00", "name": "USPS COLLECTION BOX - BLUE BOX", "ref": "5720100010"}, "type": "Feature"}
{"geometry": {"coordinates": [-97.107879674, 44.899197924], "type": "Point"}, "id": "pecDj3MVsQKtIEENS_YaRXLJ3vE=", "properties": {"@spider": "usps_collection_boxes", "addr:city": "WATERTOWN", "addr:country": "US", "addr:full": "405 E KEMP AVE", "addr:postcode": "57201", "addr:state": "SD", "brand": "USPS", "collection_times": "Mo-Sa 17:30", "name": "USPS COLLECTION BOX - BLUE BOX", "note": "ON 12/24 AND 12/31, THIS BOX MAY BE COLLECTED AS EARLY AS 12 NOON.", "ref": "5720100018"}, "type": "Feature"}
{"geometry": {"coordinates": [-97.054021466, 44.889852837], "type": "Point"}, "id": "86EtaQ6C8LF8SXxqnm6ymqzHHao=", "properties": {"@spider": "usps_collection_boxes", "addr:city": "WATERTOWN", "addr:country": "US", "addr:full": "3800 9TH AVE SE", "addr:postcode": "57201", "addr:state": "SD", "brand": "USPS", "collection_times": "Mo-Sa 12:00", "name": "USPS COLLECTION BOX - BLUE BOX", "ref": "5720100025"}, "type": "Feature"}
{"geometry": {"coordinates": [-97.107879674, 44.899197924], "type": "Point"}, "id": "FUUVXcn0ob8jOpCzxH7deIsTcg8=", "properties": {"@spider": "usps_collection_boxes", "addr:city": "WATERTOWN", "addr:country": "US", "addr:full": "405 E KEMP", "addr:postcode": "57201", "addr:state": "SD", "brand": "USPS", "collection_times": "Mo-Sa 18:00", "name": "USPS COLLECTION BOX - PO LOBBY", "note": "ON 12/24 AND 12/31, THIS BOX MAY BE COLLECTED AS EARLY AS 12 NOON.", "ref": "5720100032"}, "type": "Feature"}
{"geometry": {"coordinates": [-97.095240168, 44.890044518], "type": "Point"}, "id": "eFD_rsGAL2CRUHe9dMQOZEEQywI=", "properties": {"@spider": "usps_collection_boxes", "addr:city": "WATERTOWN", "addr:country": "US", "addr:full": "1320 9TH AVE SE", "addr:postcode": "57201", "addr:state": "SD", "brand": "USPS", "collection_times": "Mo-Sa 15:00", "name": "USPS COLLECTION BOX - BLUE BOX", "note": "ON 12/24 AND 12/31, THIS BOX MAY BE COLLECTED AS EARLY AS 12 NOON.", "ref": "5720100043"}, "type": "Feature"}
{"geometry": {"coordinates": [-97.133742335, 44.364176497], "type": "Point"}, "id": "stWrqtSG4o0PEg84GBm4FMSAFps=", "properties": {"@spider": "usps_collection_boxes", "addr:city": "ARLINGTON", "addr:country": "US", "addr:full": "110 S MAIN ST", "addr:postcode": "57212", "addr:state": "SD", "brand": "USPS", "collection_times": "Mo-Sa 14:45", "name": "USPS COLLECTION BOX - BLUE BOX", "note": "ON 12/24 AND 12/31, THIS BOX MAY BE COLLECTED AS EARLY AS 12 NOON.", "ref": "5721200001"}, "type": "Feature"}
{"geometry": {"coordinates": [-97.133742335, 44.364176497], "type": "Point"}, "id": "8retOU-PjvwxEvsxVQZaYi5GsP4=", "properties": {"@spider": "usps_collection_boxes", "addr:city": "ARLINGTON", "addr:country": "US", "addr:full": "110 S MAIN ST", "addr:postcode": "57212", "addr:state": "SD", "brand": "USPS", "collection_times": "Mo-Fr 14:45; Sa 08:00", "name": "USPS COLLECTION BOX - PO LOBBY", "note": "ON 12/24 AND 12/31, THIS BOX MAY BE COLLECTED AS EARLY AS 12 NOON.", "ref": "5721200003"}, "type": "Feature"}
{"geometry": {"coordinates": [-97.133742335, 44.364176497], "type": "Point"}, "id": "8CDQNnMqNEBRbm9HhWunZnuSvDM=", "properties": {"@spider": "usps_collection_boxes", "addr:city": "ARLINGTON", "addr:country": "US", "addr:full": "110 S MAIN ST", "addr:postcode": "57212", "addr:state": "SD", "brand": "USPS", "collection_times": "Mo-Fr 14:35; Sa 07:50", "name": "USPS COLLECTION BOX - PO LOBBY", "note": "ON 12/24 AND 12/31, THIS BOX MAY BE COLLECTED AS EARLY AS 12 NOON.", "ref": "5721200005"}, "type": "Feature"}
{"geometry": {"coordinates": [-96.541637085, 44.558307089], "type": "Point"}, "id": "7vNizG0L4d6s9tyA-KogDhUk2r4=", "properties": {"@spider": "usps_collection_boxes", "addr:city": "ASTORIA", "addr:country": "US", "addr:full": "331 MAIN ST", "addr:postcode": "57213", "addr:state": "SD", "brand": "USPS", "collection_times": "Mo-Sa 12:15", "name": "USPS COLLECTION BOX - BLUE BOX", "note": "ON 12/24 AND 12/31, THIS BOX MAY BE COLLECTED AS EARLY AS 12 NOON.", "ref": "5721300001"}, "type": "Feature"}
{"geometry": {"coordinates": [-96.541637085, 44.558307089], "type": "Point"}, "id": "wsVm0nJ3j6bxj0K5i1eeouWHGKY=", "properties": {"@spider": "usps_collection_boxes", "addr:city": "ASTORIA", "addr:country": "US", "addr:full": "331 MAIN ST", "addr:postcode": "57213", "addr:state": "SD", "brand": "USPS", "collection_times": "Mo-Sa 12:15", "name": "USPS COLLECTION BOX - PO LOBBY", "note": "ON 12/24 AND 12/31, THIS BOX MAY BE COLLECTED AS EARLY AS 12 NOON.", "ref": "5721300002"}, "type": "Feature"}
{"geometry": {"coordinates": [-96.541637085, 44.558307089], "type": "Point"}, "id": "nNn46GlqZYvWtTFyQS2SobMTZtU=", "properties": {"@spider": "usps_collection_boxes", "addr:city": "ASTORIA", "addr:country": "US", "addr:full": "331 MAIN ST", "addr:postcode": "57213", "addr:state": "SD", "brand": "USPS", "collection_times": "Mo-Sa 12:15", "name": "USPS COLLECTION BOX - PO LOBBY", "note": "ON 12/24 AND 12/31, THIS BOX MAY BE COLLECTED AS EARLY AS 12 NOON.", "ref": "5721300004"}, "type": "Feature"}
{"geometry": {"coordinates": [-97.20105972, 44.485038912], "type": "Point"}, "id": "jFtIlmzDRAiBVCB-jIojHBJIRSU=", "properties": {"@spider": "usps_collection_boxes", "addr:city": "BADGER", "addr:country": "US", "addr:full": "319 E MAIN ST", "addr:postcode": "57214", "addr:state": "SD", "brand": "USPS", "collection_times": "Mo-Sa 14:30", "name": "USPS COLLECTION BOX - BLUE BOX", "note": "ON 12/24 AND 12/31, THIS BOX MAY BE COLLECTED AS EARLY AS 12 NOON.", "ref": "5721400000"}, "type": "Feature"}
{"geometry": {"coordinates": [-97.20105972, 44.485038912], "type": "Point"}, "id": "eRz4o6e9e2kJpZ1AseMPS-d_8mg=", "properties": {"@spider": "usps_collection_boxes", "addr:city": "BADGER", "addr:country": "US", "addr:full": "319 E MAIN ST", "addr:postcode": "57214", "addr:state": "SD", "brand": "USPS", "collection_times": "Mo-Fr 14:30; Sa 11:15", "name": "USPS COLLECTION BOX - PO LOBBY", "note": "ON 12/24 AND 12/31, THIS BOX MAY BE COLLECTED AS EARLY AS 12 NOON.", "ref": "5721400001"}, "type": "Feature"}
{"geometry": {"coordinates": [-97.20105972, 44.485038912], "type": "Point"}, "id": "s1JLMEtio64wdFa_cbsAkB3st7g=", "properties": {"@spider": "usps_collection_boxes", "addr:city": "BADGER", "addr:country": "US", "addr:full": "319 E MAIN ST", "addr:postcode": "57214", "addr:state": "SD", "brand": "USPS", "collection_times": "Mo-Fr 14:20; Sa 11:05", "name": "USPS COLLECTION BOX - PO LOBBY", "note": "ON 12/24 AND 12/31, THIS BOX MAY BE COLLECTED AS EARLY AS 12 NOON.", "ref": "5721400003"}, "type": "Feature"}
{"geometry": {"coordinates": [-96.463714395, 45.291600215], "type": "Point"}, "id": "VLpVO37_XXKoS7M-iW7zJqhscgg=", "properties": {"@spider": "usps_collection_boxes", "addr:city": "BIG STONE CITY", "addr:country": "US", "addr:full": "553 MAIN ST", "addr:postcode": "57216", "addr:state": "SD", "brand": "USPS", "collection_times": "Mo-Sa 15:45", "name": "USPS COLLECTION BOX - BLUE BOX", "note": "ON 12/24 AND 12/31, THIS BOX MAY BE COLLECTED AS EARLY AS 12 NOON.", "ref": "5721600001"}, "type": "Feature"}
{"geometry": {"coordinates": [-96.463714395, 45.291600215], "type": "Point"}, "id": "6mELqwDHJ4gLj6Ml4rGgDcLQ6Eo=", "properties": {"@spider": "usps_collection_boxes", "addr:city": "BIG STONE CITY", "addr:country": "US", "addr:full": "553 MAIN ST", "addr:postcode": "57216", "addr:state": "SD", "brand": "USPS", "collection_times": "Mo-Fr 15:15; Sa 09:30", "name": "USPS COLLECTION BOX - PO LOBBY", "note": "ON 12/24 AND 12/31, THIS BOX MAY BE COLLECTED AS EARLY AS 12 NOON.", "ref": "5721600002"}, "type": "Feature"}
{"geometry": {"coordinates": [-96.463714395, 45.291600215], "type": "Point"}, "id": "HSBVWXOfTJxIxaKiHloUEJFDCYE=", "properties": {"@spider": "usps_collection_boxes", "addr:city": "BIG STONE CITY", "addr:country": "US", "addr:full": "553 MAIN ST", "addr:postcode": "57216", "addr:state": "SD", "brand": "USPS", "collection_times": "Mo-Fr 15:05; Sa 09:20", "name": "USPS COLLECTION BOX - PO LOBBY", "note": "ON 12/24 AND 12/31, THIS BOX MAY BE COLLECTED AS EARLY AS 12 NOON.", "ref": "5721600004"}, "type": "Feature"}
{"geometry": {"coordinates": [-97.636913496, 45.090557641], "type": "Point"}, "id": "wR9nJpK4kJ7XPVfKiBNpkei_Bu0=", "properties": {"@spider": "usps_collection_boxes", "addr:city": "BRADLEY", "addr:country": "US", "addr:full": "201 MAIN ST", "addr:postcode": "57217", "addr:state": "SD", "brand": "USPS", "collection_times": "Mo-Sa 16:00", "name": "USPS COLLECTION BOX - BLUE BOX", "note": "ON 12/24 AND 12/31, THIS BOX MAY BE COLLECTED AS EARLY AS 12 NOON.", "ref": "5721700001"}, "type": "Feature"}
{"geometry": {"coordinates": [-97.636913496, 45.090557641], "type": "Point"}, "id": "kVUkBx9wQ0VLn9i2n1tCdumKMWQ=", "properties": {"@spider": "usps_collection_boxes", "addr:city": "BRADLEY", "addr:country": "US", "addr:full": "201 MAIN ST", "addr:postcode": "57217", "addr:state": "SD", "brand": "USPS", "collection_times": "Mo-Fr 11:30; Sa 08:30", "name": "USPS COLLECTION BOX - PO LOBBY", "ref": "5721700002"}, "type": "Feature"}
{"geometry": {"coordinates": [-97.636913496, 45.090557641], "type": "Point"}, "id": "qHE2vQWZ4DhdAvOekqk2umPGa1Y=", "properties": {"@spider": "usps_collection_boxes", "addr:city": "BRADLEY", "addr:country": "US", "addr:full": "201 MAIN ST", "addr:postcode": "57217", "addr:state": "SD", "brand": "USPS", "collection_times": "Mo-Fr 11:30; Sa 08:30", "name": "USPS COLLECTION BOX - PO LOBBY", "ref": "5721700004"}, "type": "Feature"}
{"geometry": {"coordinates": [-96.6211922, 44.6595351], "type": "Point"}, "id": "9wTi1KBo0Fp4PvmPKUvpbvuTskA=", "properties": {"@spider": "usps_collection_boxes", "addr:city": "BRANDT", "addr:country": "US", "addr:full": "116 MAIN ST", "addr:postcode": "57218", "addr:state": "SD", "brand": "USPS", "collection_times": "Mo-Sa 12:30", "name": "USPS COLLECTION BOX - BLUE BOX", "note": "ON 12/24 AND 12/31, THIS BOX MAY BE COLLECTED AS EARLY AS 12 NOON.", "ref": "5721800001"}, "type": "Feature"}
{"geometry": {"coordinates": [-96.6211922, 44.6595351], "type": "Point"}, "id": "Xa6esJk3A-uXphhpfk4BlFK0tps=", "properties": {"@spider": "usps_collection_boxes", "addr:city": "BRANDT", "addr:country": "US", "addr:full": "116 MAIN ST", "addr:postcode": "57218", "addr:state": "SD", "brand": "USPS", "collection_times": "Mo-Sa 14:45", "name": "USPS COLLECTION BOX - PO LOBBY", "note": "ON 12/24 AND 12/31, THIS BOX MAY BE COLLECTED AS EARLY AS 12 NOON.", "ref": "5721800002"}, "type": "Feature"}
{"geometry": {"coordinates": [-96.6211922, 44.6595351], "type": "Point"}, "id": "eBrNzojLfJteVdzn4mJRW0N3a2w=", "properties": {"@spider": "usps_collection_boxes", "addr:city": "BRANDT", "addr:country": "US", "addr:full": "116 MAIN ST", "addr:postcode": "57218", "addr:state": "SD", "brand": "USPS", "collection_times": "Mo-Sa 14:45", "name": "USPS COLLECTION BOX - PO LOBBY", "note": "ON 12/24 AND 12/31, THIS BOX MAY BE COLLECTED AS EARLY AS 12 NOON.", "ref": "5721800004"}, "type": "Feature"}
{"geometry": {"coordinates": [-97.750065932, 45.347035521], "type": "Point"}, "id": "NRLTKnzFpQMD_P72naJuKH77oSg=", "properties": {"@spider": "usps_collection_boxes", "addr:city": "BRISTOL", "addr:country": "US", "addr:full": "116 MAIN ST S", "addr:postcode": "57219", "addr:state": "SD", "brand": "USPS", "collection_times": "Mo-Sa 15:15", "name": "USPS COLLECTION BOX - BLUE BOX", "note": "ON 12/24 AND 12/31, THIS BOX MAY BE COLLECTED AS EARLY AS 12 NOON.", "ref": "5721900001"}, "type": "Feature"}
{"geometry": {"coordinates": [-97.750065932, 45.347035521], "type": "Point"}, "id": "DyRzmfavNkUS-FL8m-vdPPLWRSU=", "properties": {"@spider": "usps_collection_boxes", "addr:city": "BRISTOL", "addr:country": "US", "addr:full": "116 MAIN ST S", "addr:postcode": "57219", "addr:state": "SD", "brand": "USPS", "collection_times": "Mo-Fr 12:15; Sa 10:00", "name": "USPS COLLECTION BOX - PO LOBBY", "note": "ON 12/24 AND 12/31, THIS BOX MAY BE COLLECTED AS EARLY AS 12 NOON.", "ref": "5721900002"}, "type": "Feature"}
{"geometry": {"coordinates": [-97.750065932, 45.347035521], "type": "Point"}, "id": "t7Bj55LsmOOtoK4AfO7SFV9FxU8=", "properties": {"@spider": "usps_collection_boxes", "addr:city": "BRISTOL", "addr:country": "US", "addr:full": "116 MAIN ST S", "addr:postcode": "57219", "addr:state": "SD", "brand": "USPS", "collection_times": "Mo-Fr 12:15; Sa 10:00", "name": "USPS COLLECTION BOX - PO LOBBY", "note": "ON 12/24 AND 12/31, THIS BOX MAY BE COLLECTED AS EARLY AS 12 NOON.", "ref": "5721900004"}, "type": "Feature"}
{"geometry": {"coordinates": [-96.890942046, 44.438161667], "type": "Point"}, "id": "Unotwwi8kzPT6cBdJgWLCNrFn6k=", "properties": {"@spider": "usps_collection_boxes", "addr:city": "BRUCE", "addr:country": "US", "addr:full": "508 JEFFERSON ST", "addr:postcode": "57220", "addr:state": "SD", "brand": "USPS", "collection_times": "Mo-Sa 14:15", "name": "USPS COLLECTION BOX - BLUE BOX", "note": "ON 12/24 AND 12/31, THIS BOX MAY BE COLLECTED AS EARLY AS 12 NOON.", "ref": "5722000001"}, "type": "Feature"}
{"geometry": {"coordinates": [-96.890942046, 44.438161667], "type": "Point"}, "id": "gkGBhIhBn66S0n5QhLQ4qHIX48A=", "properties": {"@spider": "usps_collection_boxes", "addr:city": "BRUCE", "addr:country": "US", "addr:full": "508 JEFFERSON ST", "addr:postcode": "57220", "addr:state": "SD", "brand": "USPS", "collection_times": "Mo-Fr 11:15; Sa 08:30", "name": "USPS COLLECTION BOX - PO LOBBY", "ref": "5722000002"}, "type": "Feature"}
{"geometry": {"coordinates": [-96.890942046, 44.438161667], "type": "Point"}, "id": "D0L1Fy2J9e5gy-adhxU8i8kV6c0=", "properties": {"@spider": "usps_collection_boxes", "addr:city": "BRUCE", "addr:country": "US", "addr:full": "508 JEFFERSON ST", "addr:postcode": "57220", "addr:state": "SD", "brand": "USPS", "collection_times": "Mo-Fr 11:05; Sa 08:20", "name": "USPS COLLECTION BOX - PO LOBBY", "ref": "5722000004"}, "type": "Feature"}
{"geometry": {"coordinates": [-97.468103288, 44.590523514], "type": "Point"}, "id": "xh4l7PMzMzv8OJMzLwCdSjSFJRo=", "properties": {"@spider": "usps_collection_boxes", "addr:city": "BRYANT", "addr:country": "US", "addr:full": "114 W MAIN ST", "addr:postcode": "57221", "addr:state": "SD", "brand": "USPS", "collection_times": "Mo-Sa 15:00", "name": "USPS COLLECTION BOX - BLUE BOX", "note": "ON 12/24 AND 12/31, THIS BOX MAY BE COLLECTED AS EARLY AS 12 NOON.", "ref": "5722100001"}, "type": "Feature"}
{"geometry": {"coordinates": [-97.468103288, 44.590523514], "type": "Point"}, "id": "TfkOa-sXhNswPlN32KA4e_Qb8_4=", "properties": {"@spider": "usps_collection_boxes", "addr:city": "BRYANT", "addr:country": "US", "addr:full": "114 W MAIN ST", "addr:postcode": "57221", "addr:state": "SD", "brand": "USPS", "collection_times": "Mo-Fr 11:20; Sa 08:45", "name": "USPS COLLECTION BOX - PO LOBBY", "ref": "5722100002"}, "type": "Feature"}
{"geometry": {"coordinates": [-97.468103288, 44.590523514], "type": "Point"}, "id": "-k0DSrlXNxK3OTTpk5-jDlod8yc=", "properties": {"@spider": "usps_collection_boxes", "addr:city": "BRYANT", "addr:country": "US", "addr:full": "114 W MAIN ST", "addr:postcode": "57221", "addr:state": "SD", "brand": "USPS", "collection_times": "Mo-Sa 15:00", "name": "USPS COLLECTION BOX - BLUE BOX", "note": "ON 12/24 AND 12/31, THIS BOX MAY BE COLLECTED AS EARLY AS 12 NOON.", "ref": "5722100003"}, "type": "Feature"}
{"geometry": {"coordinates": [-97.468103288, 44.590523514], "type": "Point"}, "id": "JBMpsKPLJweLQodircxnpLgqnS4=", "properties": {"@spider": "usps_collection_boxes", "addr:city": "BRYANT", "addr:country": "US", "addr:full": "114 W MAIN ST", "addr:postcode": "57221", "addr:state": "SD", "brand": "USPS", "collection_times": "Mo-Fr 11:20; Sa 08:35", "name": "USPS COLLECTION BOX - PO LOBBY", "ref": "5722100005"}, "type": "Feature"}
{"geometry": {"coordinates": [-97.031913785, 44.722647585], "type": "Point"}, "id": "hiMzmNz81HdyUGMbH9GY1EPGHPs=", "properties": {"@spider": "usps_collection_boxes", "addr:city": "CASTLEWOOD", "addr:country": "US", "addr:full": "111 E MAIN ST", "addr:postcode": "57223", "addr:state": "SD", "brand": "USPS", "collection_times": "Mo-Sa 13:45", "name": "USPS COLLECTION BOX - BLUE BOX", "note": "ON 12/24 AND 12/31, THIS BOX MAY BE COLLECTED AS EARLY AS 12 NOON.", "ref": "5722300001"}, "type": "Feature"}
{"geometry": {"coordinates": [-97.031913785, 44.722647585], "type": "Point"}, "id": "ISm7oUnnpvywL8tY5oAZKgn9zE0=", "properties": {"@spider": "usps_collection_boxes", "addr:city": "CASTLEWOOD", "addr:country": "US", "addr:full": "111 E MAIN ST", "addr:postcode": "57223", "addr:state": "SD", "brand": "USPS", "collection_times": "Mo-Fr 11:00; Sa 08:30", "name": "USPS COLLECTION BOX - PO LOBBY", "ref": "5722300002"}, "type": "Feature"}
{"geometry": {"coordinates": [-97.031913785, 44.722647585], "type": "Point"}, "id": "9tHMnrlcjNnchbOkgGi0pz9JAJw=", "properties": {"@spider": "usps_collection_boxes", "addr:city": "CASTLEWOOD", "addr:country": "US", "addr:full": "111 E MAIN ST", "addr:postcode": "57223", "addr:state": "SD", "brand": "USPS", "collection_times": "Mo-Fr 10:50; Sa 08:30", "name": "USPS COLLECTION BOX - PO LOBBY", "ref": "5722300004"}, "type": "Feature"}
{"geometry": {"coordinates": [-97.103835526, 45.85715551], "type": "Point"}, "id": "-FWyWuZ0GpeYQ-eD8GzN4ofyuDA=", "properties": {"@spider": "usps_collection_boxes", "addr:city": "CLAIRE CITY", "addr:country": "US", "addr:full": "270 MAIN ST", "addr:postcode": "57224", "addr:state": "SD", "brand": "USPS", "collection_times": "Mo-Sa 14:30", "name": "USPS COLLECTION BOX - BLUE BOX", "note": "ON 12/24 AND 12/31, THIS BOX MAY BE COLLECTED AS EARLY AS 12 NOON.", "ref": "5722400001"}, "type": "Feature"}
{"geometry": {"coordinates": [-97.103835526, 45.85715551], "type": "Point"}, "id": "E3TEeQgpOZUuK32D1wIZD2r3X0o=", "properties": {"@spider": "usps_collection_boxes", "addr:city": "CLAIRE CITY", "addr:country": "US", "addr:full": "270 MAIN ST", "addr:postcode": "57224", "addr:state": "SD", "brand": "USPS", "collection_times": "Mo-Fr 12:00; Sa 09:30", "name": "USPS COLLECTION BOX - PO LOBBY", "ref": "5722400002"}, "type": "Feature"}
{"geometry": {"coordinates": [-97.103835526, 45.85715551], "type": "Point"}, "id": "M1Fr3_iFr--lGco6UmRp6Tm2uGQ=", "properties": {"@spider": "usps_collection_boxes", "addr:city": "CLAIRE CITY", "addr:country": "US", "addr:full": "270 MAIN ST", "addr:postcode": "57224", "addr:state": "SD", "brand": "USPS", "collection_times": "Mo-Fr 11:50; Sa 09:30", "name": "USPS COLLECTION BOX - PO LOBBY", "ref": "5722400004"}, "type": "Feature"}
{"geometry": {"coordinates": [-97.73493417, 44.877819936], "type": "Point"}, "id": "mIj_Z4rNGWfiYjGnDE-HJ8AoQNQ=", "properties": {"@spider": "usps_collection_boxes", "addr:city": "CLARK", "addr:country": "US", "addr:full": "111 N SMITH ST", "addr:postcode": "57225", "addr:state": "SD", "brand": "USPS", "collection_times": "Mo-Sa 15:00", "name": "USPS COLLECTION BOX - BLUE BOX", "note": "ON 12/24 AND 12/31, THIS BOX MAY BE COLLECTED AS EARLY AS 12 NOON.", "ref": "5722500001"}, "type": "Feature"}
{"geometry": {"coordinates": [-97.73493417, 44.877819936], "type": "Point"}, "id": "ipitp5cKl7CQRggo3bs1AxD34tg=", "properties": {"@spider": "usps_collection_boxes", "addr:city": "CLARK", "addr:country": "US", "addr:full": "111 N SMITH ST", "addr:postcode": "57225", "addr:state": "SD", "brand": "USPS", "collection_times": "Mo-Fr 15:00; Sa 09:30", "name": "USPS COLLECTION BOX - PO LOBBY", "note": "ON 12/24 AND 12/31, THIS BOX MAY BE COLLECTED AS EARLY AS 12 NOON.", "ref": "5722500002"}, "type": "Feature"}
{"geometry": {"coordinates": [-97.73493417, 44.877819936], "type": "Point"}, "id": "nfpocSVaFSMpYGFYDS4dmMQcILU=", "properties": {"@spider": "usps_collection_boxes", "addr:city": "CLARK", "addr:country": "US", "addr:full": "111 N SMITH ST", "addr:postcode": "57225", "addr:state": "SD", "brand": "USPS", "collection_times": "Mo-Fr 15:00; Sa 09:30", "name": "USPS COLLECTION BOX - PO LOBBY", "note": "ON 12/24 AND 12/31, THIS BOX MAY BE COLLECTED AS EARLY AS 12 NOON.", "ref": "5722500004"}, "type": "Feature"}
{"geometry": {"coordinates": [-96.682155617, 44.7568826866], "type": "Point"}, "id": "zFxdWGR2ODMrQnJggZ6-83SQoa4=", "properties": {"@spider": "usps_collection_boxes", "addr:city": "CLEAR LAKE", "addr:country": "US", "addr:full": "405 3RD ST W", "addr:postcode": "57226", "addr:state": "SD", "brand": "USPS", "collection_times": "Mo-Sa 13:00", "name": "USPS COLLECTION BOX - BLUE BOX", "note": "ON 12/24 AND 12/31, THIS BOX MAY BE COLLECTED AS EARLY AS 12 NOON.", "ref": "5722600001"}, "type": "Feature"}
{"geometry": {"coordinates": [-96.6821569, 44.756873463], "type": "Point"}, "id": "64DPCrx5lw9jlrhhC9rw-T33RQQ=", "properties": {"@spider": "usps_collection_boxes", "addr:city": "CLEAR LAKE", "addr:country": "US", "addr:full": "405 3RD ST W", "addr:postcode": "57226", "addr:state": "SD", "brand": "USPS", "collection_times": "Mo-Fr 13:00; Sa 10:15", "name": "USPS COLLECTION BOX - PO LOBBY", "note": "ON 12/24 AND 12/31, THIS BOX MAY BE COLLECTED AS EARLY AS 12 NOON.", "ref": "5722600004"}, "type": "Feature"}
{"geometry": {"coordinates": [-96.6821569, 44.756873463], "type": "Point"}, "id": "vusSxyEc19tS9enkQnZk6BXKiGk=", "properties": {"@spider": "usps_collection_boxes", "addr:city": "CLEAR LAKE", "addr:country": "US", "addr:full": "405 3RD ST W", "addr:postcode": "57226", "addr:state": "SD", "brand": "USPS", "collection_times": "Mo-Fr 13:00; Sa 10:15", "name": "USPS COLLECTION BOX - PO LOBBY", "note": "ON 12/24 AND 12/31, THIS BOX MAY BE COLLECTED AS EARLY AS 12 NOON.", "ref": "5722600006"}, "type": "Feature"}
{"geometry": {"coordinates": [-96.762961337, 45.334045217], "type": "Point"}, "id": "hAnjWaAysMb9NaXjBwtp93eTcms=", "properties": {"@spider": "usps_collection_boxes", "addr:city": "CORONA", "addr:country": "US", "addr:full": "208 MAIN ST", "addr:postcode": "57227", "addr:state": "SD", "brand": "USPS", "collection_times": "Mo-Sa 15:30", "name": "USPS COLLECTION BOX - BLUE BOX", "note": "ON 12/24 AND 12/31, THIS BOX MAY BE COLLECTED AS EARLY AS 12 NOON.", "ref": "5722700001"}, "type": "Feature"}
{"geometry": {"coordinates": [-96.762961337, 45.334045217], "type": "Point"}, "id": "hrqHlvGJyMsl41--gnt1UijiECE=", "properties": {"@spider": "usps_collection_boxes", "addr:city": "CORONA", "addr:country": "US", "addr:full": "208 MAIN ST", "addr:postcode": "57227", "addr:state": "SD", "brand": "USPS", "collection_times": "Mo-Sa 11:45", "name": "USPS COLLECTION BOX - PO LOBBY", "ref": "5722700002"}, "type": "Feature"}
{"geometry": {"coordinates": [-96.762961337, 45.334045217], "type": "Point"}, "id": "P6VUeCR_QpB_84jGAKCnXwXDm80=", "properties": {"@spider": "usps_collection_boxes", "addr:city": "CORONA", "addr:country": "US", "addr:full": "208 MAIN ST", "addr:postcode": "57227", "addr:state": "SD", "brand": "USPS", "collection_times": "Mo-Sa 11:45", "name": "USPS COLLECTION BOX - PO LOBBY", "ref": "5722700004"}, "type": "Feature"}
{"geometry": {"coordinates": [-97.548969115, 44.387070094], "type": "Point"}, "id": "vUaygIby8U4jNJyZvSD8ziSifks=", "properties": {"@spider": "usps_collection_boxes", "addr:city": "DESMET", "addr:country": "US", "addr:full": "119 CALUMET AVE SW", "addr:postcode": "57231", "addr:state": "SD", "brand": "USPS", "collection_times": "Mo-Sa 15:30", "name": "USPS COLLECTION BOX - BLUE BOX", "note": "ON 12/24 AND 12/31, THIS BOX MAY BE COLLECTED AS EARLY AS 12 NOON.", "ref": "5723100001"}, "type": "Feature"}
{"geometry": {"coordinates": [-97.548969115, 44.387070094], "type": "Point"}, "id": "Br6wyw81u29fcrK6MjI1AUR8s9k=", "properties": {"@spider": "usps_collection_boxes", "addr:city": "DESMET", "addr:country": "US", "addr:full": "119 CALUMET AVE SW", "addr:postcode": "57231", "addr:state": "SD", "brand": "USPS", "collection_times": "Mo-Fr 15:30; Sa 10:15", "name": "USPS COLLECTION BOX - PO LOBBY", "note": "ON 12/24 AND 12/31, THIS BOX MAY BE COLLECTED AS EARLY AS 12 NOON.", "ref": "5723100004"}, "type": "Feature"}
{"geometry": {"coordinates": [-97.548969115, 44.387070094], "type": "Point"}, "id": "oOdchwkvaRwRcv5LdN1Wd79_FZw=", "properties": {"@spider": "usps_collection_boxes", "addr:city": "DESMET", "addr:country": "US", "addr:full": "119 CALUMET AVE SW", "addr:postcode": "57231", "addr:state": "SD", "brand": "USPS", "collection_times": "Mo-Fr 15:30; Sa 10:15", "name": "USPS COLLECTION BOX - PO LOBBY", "note": "ON 12/24 AND 12/31, THIS BOX MAY BE COLLECTED AS EARLY AS 12 NOON.", "ref": "5723100006"}, "type": "Feature"}
{"geometry": {"coordinates": [-97.419712527, 45.616422046], "type": "Point"}, "id": "6NCTG7Q0W5aqOX9LBWFJab_xtEE=", "properties": {"@spider": "usps_collection_boxes", "addr:city": "EDEN", "addr:country": "US", "addr:full": "108 S 3RD ST", "addr:postcode": "57232", "addr:state": "SD", "brand": "USPS", "collection_times": "Mo-Sa 15:45", "name": "USPS COLLECTION BOX - BLUE BOX", "note": "ON 12/24 AND 12/31, THIS BOX MAY BE COLLECTED AS EARLY AS 12 NOON.", "ref": "5723200001"}, "type": "Feature"}
{"geometry": {"coordinates": [-97.419712527, 45.616422046], "type": "Point"}, "id": "U7MccpuOSkuCtCNRtwal2GdY1kQ=", "properties": {"@spider": "usps_collection_boxes", "addr:city": "EDEN", "addr:country": "US", "addr:full": "108 S 3RD ST", "addr:postcode": "57232", "addr:state": "SD", "brand": "USPS", "collection_times": "Mo-Fr 14:45; Sa 11:45", "name": "USPS COLLECTION BOX - PO LOBBY", "note": "ON 12/24 AND 12/31, THIS BOX MAY BE COLLECTED AS EARLY AS 12 NOON.", "ref": "5723200002"}, "type": "Feature"}
{"geometry": {"coordinates": [-96.902415038, 44.575940192], "type": "Point"}, "id": "GzSzL28SS7Q2VT_dF5hrY9wv7dQ=", "properties": {"@spider": "usps_collection_boxes", "addr:city": "ESTELLINE", "addr:country": "US", "addr:full": "108 MAIN ST N", "addr:postcode": "57234", "addr:state": "SD", "brand": "USPS", "collection_times": "Mo-Sa 13:30", "name": "USPS COLLECTION BOX - BLUE BOX", "note": "ON 12/24 AND 12/31, THIS BOX MAY BE COLLECTED AS EARLY AS 12 NOON.", "ref": "5723400001"}, "type": "Feature"}
{"geometry": {"coordinates": [-96.902415038, 44.575940192], "type": "Point"}, "id": "t7RwEOOaNoFQrxyIlg73c_43qdM=", "properties": {"@spider": "usps_collection_boxes", "addr:city": "ESTELLINE", "addr:country": "US", "addr:full": "108 MAIN ST N", "addr:postcode": "57234", "addr:state": "SD", "brand": "USPS", "collection_times": "Mo-Fr 13:30; Sa 09:00", "name": "USPS COLLECTION BOX - PO LOBBY", "note": "ON 12/24 AND 12/31, THIS BOX MAY BE COLLECTED AS EARLY AS 12 NOON.", "ref": "5723400002"}, "type": "Feature"}
{"geometry": {"coordinates": [-96.902415038, 44.575940192], "type": "Point"}, "id": "ZzLmpY_mSOj_hQRSXQAkrBEFa5s=", "properties": {"@spider": "usps_collection_boxes", "addr:city": "ESTELLINE", "addr:country": "US", "addr:full": "108 MAIN ST N", "addr:postcode": "57234", "addr:state": "SD", "brand": "USPS", "collection_times": "Mo-Fr 13:30; Sa 09:00", "name": "USPS COLLECTION BOX - PO LOBBY", "note": "ON 12/24 AND 12/31, THIS BOX MAY BE COLLECTED AS EARLY AS 12 NOON.", "ref": "5723400004"}, "type": "Feature"}
{"geometry": {"coordinates": [-97.325952653, 45.054492746], "type": "Point"}, "id": "oZmoeNCVt6LHLr1a3GEQejuSx-I=", "properties": {"@spider": "usps_collection_boxes", "addr:city": "FLORENCE", "addr:country": "US", "addr:full": "235 MAIN AVE", "addr:postcode": "57235", "addr:state": "SD", "brand": "USPS", "collection_times": "Mo-Sa 16:15", "name": "USPS COLLECTION BOX - BLUE BOX", "note": "ON 12/24 AND 12/31, THIS BOX MAY BE COLLECTED AS EARLY AS 12 NOON.", "ref": "5723500001"}, "type": "Feature"}
{"geometry": {"coordinates": [-97.325952653, 45.054492746], "type": "Point"}, "id": "I7iB0Z3pLUFk_YmUSyZabseILYQ=", "properties": {"@spider": "usps_collection_boxes", "addr:city": "FLORENCE", "addr:country": "US", "addr:full": "235 MAIN AVE", "addr:postcode": "57235", "addr:state": "SD", "brand": "USPS", "collection_times": "Mo-Fr 11:00; Sa 08:15", "name": "USPS COLLECTION BOX - PO LOBBY", "ref": "5723500002"}, "type": "Feature"}
{"geometry": {"coordinates": [-97.325952653, 45.054492746], "type": "Point"}, "id": "hQzdR2UgEmoe_wT0_YymfYw-rCI=", "properties": {"@spider": "usps_collection_boxes", "addr:city": "FLORENCE", "addr:country": "US", "addr:full": "235 MAIN AVE", "addr:postcode": "57235", "addr:state": "SD", "brand": "USPS", "collection_times": "Mo-Fr 11:00; Sa 09:00", "name": "USPS COLLECTION BOX - PO LOBBY", "ref": "5723500004"}, "type": "Feature"}
{"geometry": {"coordinates": [-97.58245725, 44.9571735], "type": "Point"}, "id": "lwTCmTQaoQatYy566UBxISNebC8=", "properties": {"@spider": "usps_collection_boxes", "addr:city": "GARDEN CITY", "addr:country": "US", "addr:full": "127 MAIN ST W", "addr:postcode": "57236", "addr:state": "SD", "brand": "USPS", "collection_times": "Mo-Sa 12:30", "name": "USPS COLLECTION BOX - BLUE BOX", "note": "ON 12/24 AND 12/31, THIS BOX MAY BE COLLECTED AS EARLY AS 12 NOON.", "ref": "5723600001"}, "type": "Feature"}
{"geometry": {"coordinates": [-97.58245725, 44.9571735], "type": "Point"}, "id": "uFkrEjnBoA72xzOEK-AjTy41N6I=", "properties": {"@spider": "usps_collection_boxes", "addr:city": "GARDEN CITY", "addr:country": "US", "addr:full": "127 MAIN ST W", "addr:postcode": "57236", "addr:state": "SD", "brand": "USPS", "collection_times": "Mo-Fr 12:30", "name": "USPS COLLECTION BOX - PO LOBBY", "note": "ON 12/24 AND 12/31, THIS BOX MAY BE COLLECTED AS EARLY AS 12 NOON.", "ref": "5723600002"}, "type": "Feature"}
{"geometry": {"coordinates": [-97.582793393, 44.957270359], "type": "Point"}, "id": "akIRxhW2YjrRDajUw6VVgSQ5U_0=", "properties": {"@spider": "usps_collection_boxes", "addr:city": "GARDEN CITY", "addr:country": "US", "addr:full": "127 MAIN ST W", "addr:postcode": "57236", "addr:state": "SD", "brand": "USPS", "collection_times": "Mo-Fr 12:30; Sa 12:15", "name": "USPS COLLECTION BOX - PO LOBBY", "note": "ON 12/24 AND 12/31, THIS BOX MAY BE COLLECTED AS EARLY AS 12 NOON.", "ref": "5723600003"}, "type": "Feature"}
{"geometry": {"coordinates": [-96.456774923, 44.792555451], "type": "Point"}, "id": "rmLmaWrlVA0fkf9QQGjXp01Ir2s=", "properties": {"@spider": "usps_collection_boxes", "addr:city": "GARY", "addr:country": "US", "addr:full": "1109 COTEAU ST", "addr:postcode": "57237", "addr:state": "SD", "brand": "USPS", "collection_times": "Mo-Sa 12:30", "name": "USPS COLLECTION BOX - BLUE BOX", "note": "ON 12/24 AND 12/31, THIS BOX MAY BE COLLECTED AS EARLY AS 12 NOON.", "ref": "5723700001"}, "type": "Feature"}
{"geometry": {"coordinates": [-96.456774923, 44.792555451], "type": "Point"}, "id": "G40bkPh6jqie2c3Jqi75fm9r6xc=", "properties": {"@spider": "usps_collection_boxes", "addr:city": "GARY", "addr:country": "US", "addr:full": "1109 COTEAU ST", "addr:postcode": "57237", "addr:state": "SD", "brand": "USPS", "collection_times": "Mo-Fr 11:30; Sa 08:30", "name": "USPS COLLECTION BOX - PO LOBBY", "ref": "5723700002"}, "type": "Feature"}
{"geometry": {"coordinates": [-96.456774923, 44.792555451], "type": "Point"}, "id": "WmescIMHRvNM8edT3coBhdjx8SM=", "properties": {"@spider": "usps_collection_boxes", "addr:city": "GARY", "addr:country": "US", "addr:full": "1109 COTEAU ST", "addr:postcode": "57237", "addr:state": "SD", "brand": "USPS", "collection_times": "Mo-Fr 11:30; Sa 08:30", "name": "USPS COLLECTION BOX - PO LOBBY", "ref": "5723700004"}, "type": "Feature"}
{"geometry": {"coordinates": [-96.847820222, 44.87753855], "type": "Point"}, "id": "c_6lJb_noi68CW_e4ejnzPYZCF8=", "properties": {"@spider": "usps_collection_boxes", "addr:city": "GOODWIN", "addr:country": "US", "addr:full": "130 W CHICAGO AVE", "addr:postcode": "57238", "addr:state": "SD", "brand": "USPS", "collection_times": "Mo-Sa 16:15", "name": "USPS COLLECTION BOX - BLUE BOX", "note": "ON 12/24 AND 12/31, THIS BOX MAY BE COLLECTED AS EARLY AS 12 NOON.", "ref": "5723800000"}, "type": "Feature"}
{"geometry": {"coordinates": [-96.847820222, 44.87753855], "type": "Point"}, "id": "NGmd67vzUz9wdH9UibSTP917IcI=", "properties": {"@spider": "usps_collection_boxes", "addr:city": "GOODWIN", "addr:country": "US", "addr:full": "130 W CHICAGO AVE", "addr:postcode": "57238", "addr:state": "SD", "brand": "USPS", "collection_times": "Mo-Fr 14:55; Sa 13:50", "name": "USPS COLLECTION BOX - PO LOBBY", "note": "ON 12/24 AND 12/31, THIS BOX MAY BE COLLECTED AS EARLY AS 12 NOON.", "ref": "5723800001"}, "type": "Feature"}
{"geometry": {"coordinates": [-96.847820222, 44.87753855], "type": "Point"}, "id": "biPtXoYusJEOXlv38hCARbssZsY=", "properties": {"@spider": "usps_collection_boxes", "addr:city": "GOODWIN", "addr:country": "US", "addr:full": "130 W CHICAGO AVE", "addr:postcode": "57238", "addr:state": "SD", "brand": "USPS", "collection_times": "Mo-Fr 14:55; Sa 13:50", "name": "USPS COLLECTION BOX - PO LOBBY", "note": "ON 12/24 AND 12/31, THIS BOX MAY BE COLLECTED AS EARLY AS 12 NOON.", "ref": "5723800003"}, "type": "Feature"}
{"geometry": {"coordinates": [-97.386579382, 45.465899666], "type": "Point"}, "id": "zjQnvGhsJGouCUN_JDIDSxr_P94=", "properties": {"@spider": "usps_collection_boxes", "addr:city": "GRENVILLE", "addr:country": "US", "addr:full": "915 KOSCIUSKO AVE", "addr:postcode": "57239", "addr:state": "SD", "brand": "USPS", "collection_times": "Mo-Sa 16:20", "name": "USPS COLLECTION BOX - BLUE BOX", "note": "ON 12/24 AND 12/31, THIS BOX MAY BE COLLECTED AS EARLY AS 12 NOON.", "ref": "5723900001"}, "type": "Feature"}
{"geometry": {"coordinates": [-97.386579382, 45.465899666], "type": "Point"}, "id": "Hj3EiDZrPqVfzO99eWR2Pm0cGCo=", "properties": {"@spider": "usps_collection_boxes", "addr:city": "GRENVILLE", "addr:country": "US", "addr:full": "915 KOSCIUSKO AVE", "addr:postcode": "57239", "addr:state": "SD", "brand": "USPS", "collection_times": "Mo-Fr 12:00; Sa 11:15", "name": "USPS COLLECTION BOX - PO LOBBY", "ref": "5723900002"}, "type": "Feature"}
{"geometry": {"coordinates": [-97.386579382, 45.465899666], "type": "Point"}, "id": "pcEMll5qbKuqYIqF-6wmqKNouzc=", "properties": {"@spider": "usps_collection_boxes", "addr:city": "GRENVILLE", "addr:country": "US", "addr:full": "915 KOSCIUSKO AVE", "addr:postcode": "57239", "addr:state": "SD", "brand": "USPS", "collection_times": "Mo-Fr 12:00; Sa 11:15", "name": "USPS COLLECTION BOX - PO LOBBY", "ref": "5723900004"}, "type": "Feature"}
{"geometry": {"coordinates": [-97.206489026, 44.657046], "type": "Point"}, "id": "WR9PJszfMNv7m1Cna-mTIbnvtBw=", "properties": {"@spider": "usps_collection_boxes", "addr:city": "HAYTI", "addr:country": "US", "addr:full": "207 MAIN AVE", "addr:postcode": "57241", "addr:state": "SD", "brand": "USPS", "collection_times": "Mo-Sa 14:00", "name": "USPS COLLECTION BOX - BLUE BOX", "note": "ON 12/24 AND 12/31, THIS BOX MAY BE COLLECTED AS EARLY AS 12 NOON.", "ref": "5724100001"}, "type": "Feature"}
{"geometry": {"coordinates": [-97.206489026, 44.657046], "type": "Point"}, "id": "0SMlFZo5-OGK5X7NbATvLFKU3ag=", "properties": {"@spider": "usps_collection_boxes", "addr:city": "HAYTI", "addr:country": "US", "addr:full": "207 MAIN AVE", "addr:postcode": "57241", "addr:state": "SD", "brand": "USPS", "collection_times": "Mo-Fr 11:15; Sa 08:45", "name": "USPS COLLECTION BOX - PO LOBBY", "ref": "5724100002"}, "type": "Feature"}
{"geometry": {"coordinates": [-97.206489026, 44.657046], "type": "Point"}, "id": "50FgLJ9ve7GtG0cTXrhCMLYc_Rw=", "properties": {"@spider": "usps_collection_boxes", "addr:city": "HAYTI", "addr:country": "US", "addr:full": "207 MAIN AVE", "addr:postcode": "57241", "addr:state": "SD", "brand": "USPS", "collection_times": "Mo-Fr 11:15; Sa 08:45", "name": "USPS COLLECTION BOX - PO LOBBY", "ref": "5724100004"}, "type": "Feature"}
{"geometry": {"coordinates": [-97.381054422, 44.759336853], "type": "Point"}, "id": "3ZUFuN_B4HlxJXq8vJfpuvWcfHg=", "properties": {"@spider": "usps_collection_boxes", "addr:city": "HAZEL", "addr:country": "US", "addr:full": "17 W WILLIAMS ST", "addr:postcode": "57242", "addr:state": "SD", "brand": "USPS", "collection_times": "Mo-Sa 14:15", "name": "USPS COLLECTION BOX - BLUE BOX", "note": "ON 12/24 AND 12/31, THIS BOX MAY BE COLLECTED AS EARLY AS 12 NOON.", "ref": "5724200001"}, "type": "Feature"}
{"geometry": {"coordinates": [-97.381054422, 44.759336853], "type": "Point"}, "id": "20gaVAx5DlMUlXTgN2HH8R_mmZ8=", "properties": {"@spider": "usps_collection_boxes", "addr:city": "HAZEL", "addr:country": "US", "addr:full": "17 W WILLIAMS ST", "addr:postcode": "57242", "addr:state": "SD", "brand": "USPS", "collection_times": "Mo-Fr 11:00; Sa 08:45", "name": "USPS COLLECTION BOX - PO LOBBY", "ref": "5724200002"}, "type": "Feature"}
{"geometry": {"coordinates": [-97.3810544219, 44.759336853], "type": "Point"}, "id": "LJ7xK3lxjczOtka3Ro66RQXGq1Q=", "properties": {"@spider": "usps_collection_boxes", "addr:city": "HAZEL", "addr:country": "US", "addr:full": "17 W WILLIAMS ST", "addr:postcode": "57242", "addr:state": "SD", "brand": "USPS", "collection_times": "Mo-Fr 11:00; Sa 08:45", "name": "USPS COLLECTION BOX - PO LOBBY", "ref": "5724200004"}, "type": "Feature"}
{"geometry": {"coordinates": [-97.468312751, 44.87918136], "type": "Point"}, "id": "t6FMRnu0YWUKA2MItzZb4TCq0h8=", "properties": {"@spider": "usps_collection_boxes", "addr:city": "HENRY", "addr:country": "US", "addr:full": "112 MAIN ST", "addr:postcode": "57243", "addr:state": "SD", "brand": "USPS", "collection_times": "Mo-Sa 14:45", "name": "USPS COLLECTION BOX - BLUE BOX", "note": "ON 12/24 AND 12/31, THIS BOX MAY BE COLLECTED AS EARLY AS 12 NOON.", "ref": "5724300001"}, "type": "Feature"}
{"geometry": {"coordinates": [-96.919653964, 44.891044854], "type": "Point"}, "id": "_x2uegWeowO8dif0G6cH_QJADdo=", "properties": {"@spider": "usps_collection_boxes", "addr:city": "KRANZBURG", "addr:country": "US", "addr:full": "102 DAKOTA AVE N", "addr:postcode": "57245", "addr:state": "SD", "brand": "USPS", "collection_times": "Mo-Sa 16:15", "name": "USPS COLLECTION BOX - BLUE BOX", "note": "ON 12/24 AND 12/31, THIS BOX MAY BE COLLECTED AS EARLY AS 12 NOON.", "ref": "5724500001"}, "type": "Feature"}
{"geometry": {"coordinates": [-96.919653964, 44.891044854], "type": "Point"}, "id": "glW6y5gFKwZPdbxlXhvi4eFcOEo=", "properties": {"@spider": "usps_collection_boxes", "addr:city": "KRANZBURG", "addr:country": "US", "addr:full": "102 DAKOTA AVE N", "addr:postcode": "57245", "addr:state": "SD", "brand": "USPS", "collection_times": "Mo-Fr 12:15; Sa 11:30", "name": "USPS COLLECTION BOX - PO LOBBY", "note": "ON 12/24 AND 12/31, THIS BOX MAY BE COLLECTED AS EARLY AS 12 NOON.", "ref": "5724500002"}, "type": "Feature"}
{"geometry": {"coordinates": [-96.6752271483, 45.0493488745], "type": "Point"}, "id": "l9WOHFREt6X2TCyaCvDITcSVS1E=", "properties": {"@spider": "usps_collection_boxes", "addr:city": "LABOLT", "addr:country": "US", "addr:full": "109 MAIN ST", "addr:postcode": "57246", "addr:state": "SD", "brand": "USPS", "collection_times": "Mo-Sa 12:30", "name": "USPS COLLECTION BOX - BLUE BOX", "note": "ON 12/24 AND 12/31, THIS BOX MAY BE COLLECTED AS EARLY AS 12 NOON.", "ref": "5724600001"}, "type": "Feature"}
{"geometry": {"coordinates": [-97.413388821, 45.723173631], "type": "Point"}, "id": "g_FUBZNAagWT4e7Zv6YN97sYLUE=", "properties": {"@spider": "usps_collection_boxes", "addr:city": "LAKE CITY", "addr:country": "US", "addr:full": "303 S BROADWAY ST", "addr:postcode": "57247", "addr:state": "SD", "brand": "USPS", "collection_times": "Mo-Sa 15:30", "name": "USPS COLLECTION BOX - BLUE BOX", "note": "ON 12/24 AND 12/31, THIS BOX MAY BE COLLECTED AS EARLY AS 12 NOON.", "ref": "5724700001"}, "type": "Feature"}
{"geometry": {"coordinates": [-97.413388821, 45.723173631], "type": "Point"}, "id": "BnCIk48kckqYppwFPgRaWcPlba0=", "properties": {"@spider": "usps_collection_boxes", "addr:city": "LAKE CITY", "addr:country": "US", "addr:full": "303 S BROADWAY ST", "addr:postcode": "57247", "addr:state": "SD", "brand": "USPS", "collection_times": "Mo-Fr 15:30; Sa 15:00", "name": "USPS COLLECTION BOX - PO LOBBY", "note": "ON 12/24 AND 12/31, THIS BOX MAY BE COLLECTED AS EARLY AS 12 NOON.", "ref": "5724700002"}, "type": "Feature"}
{"geometry": {"coordinates": [-97.210688733, 44.580456334], "type": "Point"}, "id": "HHspXhEH6k5Cxzc_IKmUKAoFrGw=", "properties": {"@spider": "usps_collection_boxes", "addr:city": "LAKE NORDEN", "addr:country": "US", "addr:full": "500 MAIN AVE", "addr:postcode": "57248", "addr:state": "SD", "brand": "USPS", "collection_times": "Mo-Sa 14:15", "name": "USPS COLLECTION BOX - BLUE BOX", "note": "ON 12/24 AND 12/31, THIS BOX MAY BE COLLECTED AS EARLY AS 12 NOON.", "ref": "5724800001"}, "type": "Feature"}
{"geometry": {"coordinates": [-97.210688733, 44.580456334], "type": "Point"}, "id": "3ZQvnmTeYyDmQcdwcFOoLImIdPQ=", "properties": {"@spider": "usps_collection_boxes", "addr:city": "LAKE NORDEN", "addr:country": "US", "addr:full": "500 MAIN AVE", "addr:postcode": "57248", "addr:state": "SD", "brand": "USPS", "collection_times": "Mo-Fr 14:00; Sa 09:15", "name": "USPS COLLECTION BOX - PO LOBBY", "note": "ON 12/24 AND 12/31, THIS BOX MAY BE COLLECTED AS EARLY AS 12 NOON.", "ref": "5724800002"}, "type": "Feature"}
{"geometry": {"coordinates": [-97.377283165, 44.362556219], "type": "Point"}, "id": "RkmhxKHviZPAWVwnxXatKcFUV5M=", "properties": {"@spider": "usps_collection_boxes", "addr:city": "LAKE PRESTON", "addr:country": "US", "addr:full": "220 MAIN AVE N", "addr:postcode": "57249", "addr:state": "SD", "brand": "USPS", "collection_times": "Mo-Sa 15:15", "name": "USPS COLLECTION BOX - BLUE BOX", "note": "ON 12/24 AND 12/31, THIS BOX MAY BE COLLECTED AS EARLY AS 12 NOON.", "ref": "5724900001"}, "type": "Feature"}
{"geometry": {"coordinates": [-97.377283165, 44.362556219], "type": "Point"}, "id": "z7NrerhkfYDPFaRXXgN0dHojgGs=", "properties": {"@spider": "usps_collection_boxes", "addr:city": "LAKE PRESTON", "addr:country": "US", "addr:full": "220 MAIN AVE N", "addr:postcode": "57249", "addr:state": "SD", "brand": "USPS", "collection_times": "Mo-Fr 14:25; Sa 09:00", "name": "USPS COLLECTION BOX - PO LOBBY", "note": "ON 12/24 AND 12/31, THIS BOX MAY BE COLLECTED AS EARLY AS 12 NOON.", "ref": "5724900002"}, "type": "Feature"}
{"geometry": {"coordinates": [-96.911531347, 45.261241541], "type": "Point"}, "id": "JZWhOMMT5bagUQenw0UYPn4FKHQ=", "properties": {"@spider": "usps_collection_boxes", "addr:city": "MARVIN", "addr:country": "US", "addr:full": "101 E DIVISION ST", "addr:postcode": "57251", "addr:state": "SD", "brand": "USPS", "collection_times": "Mo-Sa 15:30", "name": "USPS COLLECTION BOX - BLUE BOX", "note": "ON 12/24 AND 12/31, THIS BOX MAY BE COLLECTED AS EARLY AS 12 NOON.", "ref": "5725100001"}, "type": "Feature"}
{"geometry": {"coordinates": [-96.911531347, 45.261241541], "type": "Point"}, "id": "KNjF8jYfojfvgw6vFlOUomZEim8=", "properties": {"@spider": "usps_collection_boxes", "addr:city": "MARVIN", "addr:country": "US", "addr:full": "101 E DIVISION ST", "addr:postcode": "57251", "addr:state": "SD", "brand": "USPS", "collection_times": "Mo-Sa 14:45", "name": "USPS COLLECTION BOX - PO LOBBY", "note": "ON 12/24 AND 12/31, THIS BOX MAY BE COLLECTED AS EARLY AS 12 NOON.", "ref": "5725100002"}, "type": "Feature"}
{"geometry": {"coordinates": [-96.638866175, 45.219033112], "type": "Point"}, "id": "qN7U7HmcvovD7E26ucql4qM1x0M=", "properties": {"@spider": "usps_collection_boxes", "addr:city": "MILBANK", "addr:country": "US", "addr:full": "103 W 4TH AVE", "addr:postcode": "57252", "addr:state": "SD", "brand": "USPS", "collection_times": "Mo-Sa 12:15", "name": "USPS COLLECTION BOX - BLUE BOX", "note": "ON 12/24 AND 12/31, THIS BOX MAY BE COLLECTED AS EARLY AS 12 NOON.", "ref": "5725200001"}, "type": "Feature"}
{"geometry": {"coordinates": [-96.636392755, 45.221428206], "type": "Point"}, "id": "v49gwxXaFoB6OgtxmmmD9TANh9E=", "properties": {"@spider": "usps_collection_boxes", "addr:city": "MILBANK", "addr:country": "US", "addr:full": "222 E RAILWAY AVE", "addr:postcode": "57252", "addr:state": "SD", "brand": "USPS", "collection_times": "Mo-Sa 15:15", "name": "USPS COLLECTION BOX - BLUE BOX", "note": "ON 12/24 AND 12/31, THIS BOX MAY BE COLLECTED AS EARLY AS 12 NOON.", "ref": "5725200002"}, "type": "Feature"}
{"geometry": {"coordinates": [-96.6150947348, 45.2252112857], "type": "Point"}, "id": "ouY5-uyHT-rt5NGi1xsuUWP9LHI=", "properties": {"@spider": "usps_collection_boxes", "addr:city": "MILBANK", "addr:country": "US", "addr:full": "1402 MORNINGSIDE DR", "addr:postcode": "57252", "addr:state": "SD", "brand": "USPS", "collection_times": "Mo-Sa 14:30", "name": "USPS COLLECTION BOX - BLUE BOX", "note": "ON 12/24 AND 12/31, THIS BOX MAY BE COLLECTED AS EARLY AS 12 NOON.", "ref": "5725200003"}, "type": "Feature"}
{"geometry": {"coordinates": [-96.636606325, 45.219883217], "type": "Point"}, "id": "dmiuCxhipDCQm60ycKFrP3GFr4I=", "properties": {"@spider": "usps_collection_boxes", "addr:city": "MILBANK", "addr:country": "US", "addr:full": "222 E 3RD AVE", "addr:postcode": "57252", "addr:state": "SD", "brand": "USPS", "collection_times": "Mo-Sa 16:15", "name": "USPS COLLECTION BOX - BLUE BOX", "note": "ON 12/24 AND 12/31, THIS BOX MAY BE COLLECTED AS EARLY AS 12 NOON.", "ref": "5725200004"}, "type": "Feature"}
{"geometry": {"coordinates": [-96.6249611708, 45.2193063371], "type": "Point"}, "id": "weDOGSA18v_VU1jk51G_6lHjGtw=", "properties": {"@spider": "usps_collection_boxes", "addr:city": "MILBANK", "addr:country": "US", "addr:full": "1001 E 4TH AVE", "addr:postcode": "57252", "addr:state": "SD", "brand": "USPS", "collection_times": "Mo-Sa 13:30", "name": "USPS COLLECTION BOX - BLUE BOX", "note": "ON 12/24 AND 12/31, THIS BOX MAY BE COLLECTED AS EARLY AS 12 NOON.", "ref": "5725200008"}, "type": "Feature"}
{"geometry": {"coordinates": [-96.636606325, 45.219883217], "type": "Point"}, "id": "9XScPBRV1KlTuH42h7LLcqtQDxc=", "properties": {"@spider": "usps_collection_boxes", "addr:city": "MILBANK", "addr:country": "US", "addr:full": "222 E 3RD AVE", "addr:postcode": "57252", "addr:state": "SD", "brand": "USPS", "collection_times": "Mo-Fr 16:15; Sa 12:00", "name": "USPS COLLECTION BOX - PO LOBBY", "note": "ON 12/24 AND 12/31, THIS BOX MAY BE COLLECTED AS EARLY AS 12 NOON.", "ref": "5725200010"}, "type": "Feature"}
{"geometry": {"coordinates": [-96.91814751, 45.856587469], "type": "Point"}, "id": "AFN444XEcNn-b9w9x74CmKt_ct8=", "properties": {"@spider": "usps_collection_boxes", "addr:city": "NEW EFFINGTON", "addr:country": "US", "addr:full": "211 MAIN ST", "addr:postcode": "57255", "addr:state": "SD", "brand": "USPS", "collection_times": "Mo-Sa 14:10", "name": "USPS COLLECTION BOX - BLUE BOX", "note": "ON 12/24 AND 12/31, THIS BOX MAY BE COLLECTED AS EARLY AS 12 NOON.", "ref": "5725500001"}, "type": "Feature"}
{"geometry": {"coordinates": [-96.91814751, 45.856587469], "type": "Point"}, "id": "ZVgyV2Dgsc8nQHnvBjkXfTEJzrM=", "properties": {"@spider": "usps_collection_boxes", "addr:city": "NEW EFFINGTON", "addr:country": "US", "addr:full": "211 MAIN ST", "addr:postcode": "57255", "addr:state": "SD", "brand": "USPS", "collection_times": "Mo-Fr 12:00; Sa 10:00", "name": "USPS COLLECTION BOX - PO LOBBY", "ref": "5725500002"}, "type": "Feature"}
{"geometry": {"coordinates": [-96.957419685, 45.544314146], "type": "Point"}, "id": "-JR8z_pzIsDci6u5IjTm1zZiuCI=", "properties": {"@spider": "usps_collection_boxes", "addr:city": "PEEVER", "addr:country": "US", "addr:full": "310 MAIN ST", "addr:postcode": "57257", "addr:state": "SD", "brand": "USPS", "collection_times": "Mo-Sa 13:30", "name": "USPS COLLECTION BOX - BLUE BOX", "note": "ON 12/24 AND 12/31, THIS BOX MAY BE COLLECTED AS EARLY AS 12 NOON.", "ref": "5725700001"}, "type": "Feature"}
{"geometry": {"coordinates": [-96.957419685, 45.544314146], "type": "Point"}, "id": "bWBMkDucQ8Ay00oT_DGSZo8jdnA=", "properties": {"@spider": "usps_collection_boxes", "addr:city": "PEEVER", "addr:country": "US", "addr:full": "310 MAIN ST", "addr:postcode": "57257", "addr:state": "SD", "brand": "USPS", "collection_times": "Mo-Sa 13:30", "name": "USPS COLLECTION BOX - PO LOBBY", "note": "ON 12/24 AND 12/31, THIS BOX MAY BE COLLECTED AS EARLY AS 12 NOON.", "ref": "5725700002"}, "type": "Feature"}
{"geometry": {"coordinates": [-97.9391115, 44.910689269], "type": "Point"}, "id": "euGeTsXdhIvxuWXZqsoTbSRp7Hc=", "properties": {"@spider": "usps_collection_boxes", "addr:city": "RAYMOND", "addr:country": "US", "addr:full": "211 FLOWER ST", "addr:postcode": "57258", "addr:state": "SD", "brand": "USPS", "collection_times": "Mo-Sa 15:30", "name": "USPS COLLECTION BOX - BLUE BOX", "note": "ON 12/24 AND 12/31, THIS BOX MAY BE COLLECTED AS EARLY AS 12 NOON.", "ref": "5725800001"}, "type": "Feature"}
{"geometry": {"coordinates": [-97.9391115, 44.910689269], "type": "Point"}, "id": "YzDpmX8vrAC-fUEHMvYkF-zq4i4=", "properties": {"@spider": "usps_collection_boxes", "addr:city": "RAYMOND", "addr:country": "US", "addr:full": "211 FLOWER ST", "addr:postcode": "57258", "addr:state": "SD", "brand": "USPS", "collection_times": "Mo-Fr 09:50; Sa 09:05", "name": "USPS COLLECTION BOX - PO LOBBY", "ref": "5725800002"}, "type": "Feature"}
{"geometry": {"coordinates": [-96.571241015, 45.016329988], "type": "Point"}, "id": "Wnhkd7A14dBOi08pWe6biGm5QE4=", "properties": {"@spider": "usps_collection_boxes", "addr:city": "REVILLO", "addr:country": "US", "addr:full": "317 N 2ND AVE", "addr:postcode": "57259", "addr:state": "SD", "brand": "USPS", "collection_times": "Mo-Sa 16:00", "name": "USPS COLLECTION BOX - BLUE BOX", "note": "ON 12/24 AND 12/31, THIS BOX MAY BE COLLECTED AS EARLY AS 12 NOON.", "ref": "5725900001"}, "type": "Feature"}
{"geometry": {"coordinates": [-96.571241015, 45.016329988], "type": "Point"}, "id": "qcvZIwmeG1EzL0cyJVOT5ETPXdY=", "properties": {"@spider": "usps_collection_boxes", "addr:city": "REVILLO", "addr:country": "US", "addr:full": "317 N 2ND AVE", "addr:postcode": "57259", "addr:state": "SD", "brand": "USPS", "collection_times": "Mo-Fr 11:30; Sa 08:50", "name": "USPS COLLECTION BOX - PO LOBBY", "ref": "5725900002"}, "type": "Feature"}
{"geometry": {"coordinates": [-96.731392455, 45.866693028], "type": "Point"}, "id": "irsIld8hgpg67BZDFGrrKLj4sVE=", "properties": {"@spider": "usps_collection_boxes", "addr:city": "ROSHOLT", "addr:country": "US", "addr:full": "12 W MAIN ST", "addr:postcode": "57260", "addr:state": "SD", "brand": "USPS", "collection_times": "Mo-Sa 14:00", "name": "USPS COLLECTION BOX - BLUE BOX", "note": "ON 12/24 AND 12/31, THIS BOX MAY BE COLLECTED AS EARLY AS 12 NOON.", "ref": "5726000001"}, "type": "Feature"}
{"geometry": {"coordinates": [-96.731392455, 45.866693028], "type": "Point"}, "id": "sxpG2ooBB7sDgM-thjP23Vhc4MA=", "properties": {"@spider": "usps_collection_boxes", "addr:city": "ROSHOLT", "addr:country": "US", "addr:full": "12 W MAIN ST", "addr:postcode": "57260", "addr:state": "SD", "brand": "USPS", "collection_times": "Mo-Fr 14:00; Sa 10:15", "name": "USPS COLLECTION BOX - PO LOBBY", "note": "ON 12/24 AND 12/31, THIS BOX MAY BE COLLECTED AS EARLY AS 12 NOON.", "ref": "5726000002"}, "type": "Feature"}
{"geometry": {"coordinates": [-97.491820518, 45.49383218], "type": "Point"}, "id": "QxC5TNSyBrbWfkMD4_rZbXU3jBQ=", "properties": {"@spider": "usps_collection_boxes", "addr:city": "ROSLYN", "addr:country": "US", "addr:full": "509 N MAIN ST", "addr:postcode": "57261", "addr:state": "SD", "brand": "USPS", "collection_times": "Mo-Sa 16:00", "name": "USPS COLLECTION BOX - BLUE BOX", "note": "ON 12/24 AND 12/31, THIS BOX MAY BE COLLECTED AS EARLY AS 12 NOON.", "ref": "5726100001"}, "type": "Feature"}
{"geometry": {"coordinates": [-97.491820518, 45.49383218], "type": "Point"}, "id": "G5XXLtpH9U3Xmy0AQmhzF9NuPug=", "properties": {"@spider": "usps_collection_boxes", "addr:city": "ROSLYN", "addr:country": "US", "addr:full": "509 N MAIN ST", "addr:postcode": "57261", "addr:state": "SD", "brand": "USPS", "collection_times": "Mo-Fr 13:30; Sa 09:00", "name": "USPS COLLECTION BOX - PO LOBBY", "note": "ON 12/24 AND 12/31, THIS BOX MAY BE COLLECTED AS EARLY AS 12 NOON.", "ref": "5726100002"}, "type": "Feature"}
{"geometry": {"coordinates": [-97.050783467, 45.66383264], "type": "Point"}, "id": "U4c7G0wghVWrV1DxxfiwtVHbqk0=", "properties": {"@spider": "usps_collection_boxes", "addr:city": "SISSETON", "addr:country": "US", "addr:full": "5 E MAPLE ST", "addr:postcode": "57262", "addr:state": "SD", "brand": "USPS", "collection_times": "Mo-Sa 12:00", "name": "USPS COLLECTION BOX - BLUE BOX", "ref": "5726200002"}, "type": "Feature"}
{"geometry": {"coordinates": [-97.04818808, 45.664741652], "type": "Point"}, "id": "ne1j2odtGkVQdA_efFz0yXK5Buo=", "properties": {"@spider": "usps_collection_boxes", "addr:city": "SISSETON", "addr:country": "US", "addr:full": "205 E OAK ST STE 103", "addr:postcode": "57262", "addr:state": "SD", "brand": "USPS", "collection_times": "Mo-Sa 13:00", "name": "USPS COLLECTION BOX - BLUE BOX", "note": "ON 12/24 AND 12/31, THIS BOX MAY BE COLLECTED AS EARLY AS 12 NOON.", "ref": "5726200004"}, "type": "Feature"}
{"geometry": {"coordinates": [-97.067320084, 45.563054701], "type": "Point"}, "id": "4LiTbVobgBNx7wts0JzdxLhyu9Q=", "properties": {"@spider": "usps_collection_boxes", "addr:city": "SISSETON", "addr:country": "US", "addr:full": "12554 BIA HIGHWAY 711", "addr:postcode": "57262", "addr:state": "SD", "brand": "USPS", "collection_times": "Mo-Sa 10:00", "name": "USPS COLLECTION BOX - BLUE BOX", "ref": "5726200006"}, "type": "Feature"}
{"geometry": {"coordinates": [-97.04818808, 45.664741652], "type": "Point"}, "id": "0xmfA6NL_osR-IkbW1jl-omtdpY=", "properties": {"@spider": "usps_collection_boxes", "addr:city": "SISSETON", "addr:country": "US", "addr:full": "205 E OAK ST STE 103", "addr:postcode": "57262", "addr:state": "SD", "brand": "USPS", "collection_times": "Mo-Fr 13:00; Sa 11:00", "name": "USPS COLLECTION BOX - PO LOBBY", "note": "ON 12/24 AND 12/31, THIS BOX MAY BE COLLECTED AS EARLY AS 12 NOON.", "ref": "5726200007"}, "type": "Feature"}
{"geometry": {"coordinates": [-97.052360678, 45.660011505], "type": "Point"}, "id": "p9PZO1ciiaxS-YEyhKahVR2d-Ug=", "properties": {"@spider": "usps_collection_boxes", "addr:city": "SISSETON", "addr:country": "US", "addr:full": "112 W HICKORY ST", "addr:postcode": "57262", "addr:state": "SD", "brand": "USPS", "collection_times": "Mo-Sa 12:00", "name": "USPS COLLECTION BOX - BLUE BOX", "ref": "5726200009"}, "type": "Feature"}
{"geometry": {"coordinates": [-97.040100141, 45.660263692], "type": "Point"}, "id": "RrLUbCvGpc33z1AfeuyHeZdbybg=", "properties": {"@spider": "usps_collection_boxes", "addr:city": "SISSETON", "addr:country": "US", "addr:full": "925 SD HIGHWAY 10", "addr:postcode": "57262", "addr:state": "SD", "brand": "USPS", "collection_times": "Mo-Sa 12:15", "name": "USPS COLLECTION BOX - BLUE BOX", "note": "ON 12/24 AND 12/31, THIS BOX MAY BE COLLECTED AS EARLY AS 12 NOON.", "ref": "5726200010"}, "type": "Feature"}
{"geometry": {"coordinates": [-96.928641407, 45.105856271], "type": "Point"}, "id": "YyaQRxEzY-556XllJFSMe9Zic0g=", "properties": {"@spider": "usps_collection_boxes", "addr:city": "SOUTH SHORE", "addr:country": "US", "addr:full": "105 N MAIN ST", "addr:postcode": "57263", "addr:state": "SD", "brand": "USPS", "collection_times": "Mo-Sa 16:15", "name": "USPS COLLECTION BOX - BLUE BOX", "note": "ON 12/24 AND 12/31, THIS BOX MAY BE COLLECTED AS EARLY AS 12 NOON.", "ref": "5726300001"}, "type": "Feature"}
{"geometry": {"coordinates": [-96.928641407, 45.105856271], "type": "Point"}, "id": "eqFP3lmtA3deW4Tv0wePidRqzKA=", "properties": {"@spider": "usps_collection_boxes", "addr:city": "SOUTH SHORE", "addr:country": "US", "addr:full": "105 N MAIN ST", "addr:postcode": "57263", "addr:state": "SD", "brand": "USPS", "collection_times": "Mo-Fr 11:00; Sa 08:45", "name": "USPS COLLECTION BOX - PO LOBBY", "ref": "5726300002"}, "type": "Feature"}
{"geometry": {"coordinates": [-96.92865227, 45.105462276], "type": "Point"}, "id": "TwGyCrvFZvWyM-V7G5aHsa7xi_Q=", "properties": {"@spider": "usps_collection_boxes", "addr:city": "SOUTH SHORE", "addr:country": "US", "addr:full": "123 S MAIN ST", "addr:postcode": "57263", "addr:state": "SD", "brand": "USPS", "collection_times": "Mo-Sa 12:40", "name": "USPS COLLECTION BOX - PO LOBBY", "note": "ON 12/24 AND 12/31, THIS BOX MAY BE COLLECTED AS EARLY AS 12 NOON.", "ref": "5726300004"}, "type": "Feature"}
{"geometry": {"coordinates": [-96.802048589, 45.102569885], "type": "Point"}, "id": "ov2pqRsMDUhO7gligpS_4l25j_o=", "properties": {"@spider": "usps_collection_boxes", "addr:city": "STOCKHOLM", "addr:country": "US", "addr:full": "204 N MAIN ST", "addr:postcode": "57264", "addr:state": "SD", "brand": "USPS", "collection_times": "Mo-Sa 16:00", "name": "USPS COLLECTION BOX - BLUE BOX", "note": "ON 12/24 AND 12/31, THIS BOX MAY BE COLLECTED AS EARLY AS 12 NOON.", "ref": "5726400001"}, "type": "Feature"}
{"geometry": {"coordinates": [-96.802048589, 45.102569885], "type": "Point"}, "id": "W3-ZI3dGrPq4YRKjghuQI1sy3e8=", "properties": {"@spider": "usps_collection_boxes", "addr:city": "STOCKHOLM", "addr:country": "US", "addr:full": "204 N MAIN ST", "addr:postcode": "57264", "addr:state": "SD", "brand": "USPS", "collection_times": "Mo-Fr 11:45; Sa 11:00", "name": "USPS COLLECTION BOX - PO LOBBY", "ref": "5726400003"}, "type": "Feature"}
{"geometry": {"coordinates": [-96.760879828, 45.045774587], "type": "Point"}, "id": "Bn6U4i21F7b-Wdbt_Op1x-WhfFQ=", "properties": {"@spider": "usps_collection_boxes", "addr:city": "STRANDBURG", "addr:country": "US", "addr:full": "123 S MAIN ST", "addr:postcode": "57265", "addr:state": "SD", "brand": "USPS", "collection_times": "Mo-Sa 12:40", "name": "USPS COLLECTION BOX - BLUE BOX", "note": "ON 12/24 AND 12/31, THIS BOX MAY BE COLLECTED AS EARLY AS 12 NOON.", "ref": "5726500001"}, "type": "Feature"}
{"geometry": {"coordinates": [-97.036404401, 45.304969268], "type": "Point"}, "id": "dzIbMNRhrXiM8II62xTjeBMjZOQ=", "properties": {"@spider": "usps_collection_boxes", "addr:city": "SUMMIT", "addr:country": "US", "addr:full": "301 MAPLE ST", "addr:postcode": "57266", "addr:state": "SD", "brand": "USPS", "collection_times": "Mo-Sa 14:00", "name": "USPS COLLECTION BOX - BLUE BOX", "note": "ON 12/24 AND 12/31, THIS BOX MAY BE COLLECTED AS EARLY AS 12 NOON.", "ref": "5726600001"}, "type": "Feature"}
{"geometry": {"coordinates": [-97.036404401, 45.304969268], "type": "Point"}, "id": "El0GJXEn_scKXE2sHeTwbS29O-E=", "properties": {"@spider": "usps_collection_boxes", "addr:city": "SUMMIT", "addr:country": "US", "addr:full": "301 MAPLE ST", "addr:postcode": "57266", "addr:state": "SD", "brand": "USPS", "collection_times": "Mo-Fr 11:45; Sa 08:30", "name": "USPS COLLECTION BOX - PO LOBBY", "ref": "5726600002"}, "type": "Feature"}
{"geometry": {"coordinates": [-96.641926654, 44.572720556], "type": "Point"}, "id": "AH6MevaaoP71BXTXtsboPbGjlH4=", "properties": {"@spider": "usps_collection_boxes", "addr:city": "TORONTO", "addr:country": "US", "addr:full": "540 MAIN AVE", "addr:postcode": "57268", "addr:state": "SD", "brand": "USPS", "collection_times": "Mo-Sa 13:00", "name": "USPS COLLECTION BOX - BLUE BOX", "note": "ON 12/24 AND 12/31, THIS BOX MAY BE COLLECTED AS EARLY AS 12 NOON.", "ref": "5726800001"}, "type": "Feature"}
{"geometry": {"coordinates": [-96.641926654, 44.572720556], "type": "Point"}, "id": "ZL_F1wXa1y_Aaf2sAkdZDIjdVqY=", "properties": {"@spider": "usps_collection_boxes", "addr:city": "TORONTO", "addr:country": "US", "addr:full": "540 MAIN AVE", "addr:postcode": "57268", "addr:state": "SD", "brand": "USPS", "collection_times": "Mo-Fr 12:00; Sa 09:30", "name": "USPS COLLECTION BOX - PO LOBBY", "ref": "5726800002"}, "type": "Feature"}
{"geometry": {"coordinates": [-96.781189128, 45.206831793], "type": "Point"}, "id": "Xj5-f4nWrdb4kkiI_bQwZhhR3x8=", "properties": {"@spider": "usps_collection_boxes", "addr:city": "TWIN BROOKS", "addr:country": "US", "addr:full": "101 MAIN ST", "addr:postcode": "57269", "addr:state": "SD", "brand": "USPS", "collection_times": "Mo-Sa 13:45", "name": "USPS COLLECTION BOX - BLUE BOX", "note": "ON 12/24 AND 12/31, THIS BOX MAY BE COLLECTED AS EARLY AS 12 NOON.", "ref": "5726900001"}, "type": "Feature"}
{"geometry": {"coordinates": [-96.781189128, 45.206831793], "type": "Point"}, "id": "-RfHwaO1WRCKUhlG2IDEwMHOMd8=", "properties": {"@spider": "usps_collection_boxes", "addr:city": "TWIN BROOKS", "addr:country": "US", "addr:full": "101 MAIN ST", "addr:postcode": "57269", "addr:state": "SD", "brand": "USPS", "collection_times": "Mo-Sa 12:15", "name": "USPS COLLECTION BOX - PO LOBBY", "note": "ON 12/24 AND 12/31, THIS BOX MAY BE COLLECTED AS EARLY AS 12 NOON.", "ref": "5726900002"}, "type": "Feature"}
{"geometry": {"coordinates": [-97.287953215, 45.862131487], "type": "Point"}, "id": "qRKG4pU6dJ9ebTp3jz6zYziTrwE=", "properties": {"@spider": "usps_collection_boxes", "addr:city": "VEBLEN", "addr:country": "US", "addr:full": "206 S MAIN ST", "addr:postcode": "57270", "addr:state": "SD", "brand": "USPS", "collection_times": "Mo-Sa 15:00", "name": "USPS COLLECTION BOX - BLUE BOX", "note": "ON 12/24 AND 12/31, THIS BOX MAY BE COLLECTED AS EARLY AS 12 NOON.", "ref": "5727000001"}, "type": "Feature"}
{"geometry": {"coordinates": [-97.287953215, 45.862131487], "type": "Point"}, "id": "0rvGpxiQpDl98rdGJmGcLx6vH8k=", "properties": {"@spider": "usps_collection_boxes", "addr:city": "VEBLEN", "addr:country": "US", "addr:full": "206 S MAIN ST", "addr:postcode": "57270", "addr:state": "SD", "brand": "USPS", "collection_times": "Mo-Fr 12:00; Sa 09:45", "name": "USPS COLLECTION BOX - PO LOBBY", "ref": "5727000002"}, "type": "Feature"}
{"geometry": {"coordinates": [-97.479510355, 45.085868923], "type": "Point"}, "id": "oYhm98fLdHGSpdgTGjXLIN6HF_o=", "properties": {"@spider": "usps_collection_boxes", "addr:city": "WALLACE", "addr:country": "US", "addr:full": "602 MAIN ST", "addr:postcode": "57272", "addr:state": "SD", "brand": "USPS", "collection_times": "Mo-Sa 14:25", "name": "USPS COLLECTION BOX - BLUE BOX", "note": "ON 12/24 AND 12/31, THIS BOX MAY BE COLLECTED AS EARLY AS 12 NOON.", "ref": "5727200001"}, "type": "Feature"}
{"geometry": {"coordinates": [-97.479510355, 45.085868923], "type": "Point"}, "id": "DKZS8WVLqMEPxciUHxUgQhi_7FQ=", "properties": {"@spider": "usps_collection_boxes", "addr:city": "WALLACE", "addr:country": "US", "addr:full": "602 MAIN ST", "addr:postcode": "57272", "addr:state": "SD", "brand": "USPS", "collection_times": "Mo-Fr 14:25", "name": "USPS COLLECTION BOX - PO LOBBY", "note": "ON 12/24 AND 12/31, THIS BOX MAY BE COLLECTED AS EARLY AS 12 NOON.", "ref": "5727200002"}, "type": "Feature"}
{"geometry": {"coordinates": [-97.304797458, 45.329131575], "type": "Point"}, "id": "6fIAaiLPvbrQR6IGpbjDGe-74QI=", "properties": {"@spider": "usps_collection_boxes", "addr:city": "WAUBAY", "addr:country": "US", "addr:full": "105 N MAIN ST", "addr:postcode": "57273", "addr:state": "SD", "brand": "USPS", "collection_times": "Mo-Sa 16:30", "name": "USPS COLLECTION BOX - BLUE BOX", "note": "ON 12/24 AND 12/31, THIS BOX MAY BE COLLECTED AS EARLY AS 12 NOON.", "ref": "5727300001"}, "type": "Feature"}
{"geometry": {"coordinates": [-97.304797458, 45.329131575], "type": "Point"}, "id": "PK7HmnuEm51Gw5C1ri-NDZLA-6o=", "properties": {"@spider": "usps_collection_boxes", "addr:city": "WAUBAY", "addr:country": "US", "addr:full": "105 N MAIN ST", "addr:postcode": "57273", "addr:state": "SD", "brand": "USPS", "collection_times": "Mo-Fr 14:00; Sa 10:00", "name": "USPS COLLECTION BOX - PO LOBBY", "note": "ON 12/24 AND 12/31, THIS BOX MAY BE COLLECTED AS EARLY AS 12 NOON.", "ref": "5727300002"}, "type": "Feature"}
{"geometry": {"coordinates": [-97.30468472, 45.329157934], "type": "Point"}, "id": "UXSKuwp0p3IWpRvsD21LMW1iaSU=", "properties": {"@spider": "usps_collection_boxes", "addr:city": "WAUBAY", "addr:country": "US", "addr:full": "114 N MAIN ST", "addr:postcode": "57273", "addr:state": "SD", "brand": "USPS", "collection_times": "Mo-Sa 13:00", "name": "USPS COLLECTION BOX - BLUE BOX", "note": "ON 12/24 AND 12/31, THIS BOX MAY BE COLLECTED AS EARLY AS 12 NOON.", "ref": "5727300003"}, "type": "Feature"}
{"geometry": {"coordinates": [-97.520200825, 45.332382661], "type": "Point"}, "id": "oFYKkfemMgoXhNFVzD8W48ajdd0=", "properties": {"@spider": "usps_collection_boxes", "addr:city": "WEBSTER", "addr:country": "US", "addr:full": "715 MAIN ST", "addr:postcode": "57274", "addr:state": "SD", "brand": "USPS", "collection_times": "Mo-Fr 17:00; Sa 16:30", "name": "USPS COLLECTION BOX - BLUE BOX", "note": "ON 12/24 AND 12/31, THIS BOX MAY BE COLLECTED AS EARLY AS 12 NOON.", "ref": "5727400001"}, "type": "Feature"}
{"geometry": {"coordinates": [-97.520200825, 45.332382661], "type": "Point"}, "id": "LnEA6sZJJ7-24OJ0CWCIAuQj6PI=", "properties": {"@spider": "usps_collection_boxes", "addr:city": "WEBSTER", "addr:country": "US", "addr:full": "715 MAIN ST", "addr:postcode": "57274", "addr:state": "SD", "brand": "USPS", "collection_times": "Mo-Fr 16:30; Sa 10:00", "name": "USPS COLLECTION BOX - PO LOBBY", "note": "ON 12/24 AND 12/31, THIS BOX MAY BE COLLECTED AS EARLY AS 12 NOON.", "ref": "5727400004"}, "type": "Feature"}
{"geometry": {"coordinates": [-97.520035125, 45.338534], "type": "Point"}, "id": "DwC5n918Muvkfm-YNvYgjMBd5RU=", "properties": {"@spider": "usps_collection_boxes", "addr:city": "WEBSTER", "addr:country": "US", "addr:full": "1300 MAIN ST", "addr:postcode": "57274", "addr:state": "SD", "brand": "USPS", "collection_times": "Mo-Sa 15:00", "name": "USPS COLLECTION BOX - BLUE BOX", "note": "ON 12/24 AND 12/31, THIS BOX MAY BE COLLECTED AS EARLY AS 12 NOON.", "ref": "5727400005"}, "type": "Feature"}
{"geometry": {"coordinates": [-97.520086175, 45.330360647], "type": "Point"}, "id": "YTMnxGxX2sP1aAldE-Mnl1mxqJ4=", "properties": {"@spider": "usps_collection_boxes", "addr:city": "WEBSTER", "addr:country": "US", "addr:full": "516 MAIN ST", "addr:postcode": "57274", "addr:state": "SD", "brand": "USPS", "collection_times": "Mo-Sa 15:00", "name": "USPS COLLECTION BOX - BLUE BOX", "note": "ON 12/24 AND 12/31, THIS BOX MAY BE COLLECTED AS EARLY AS 12 NOON.", "ref": "5727400006"}, "type": "Feature"}
{"geometry": {"coordinates": [-96.650037468, 44.434655672], "type": "Point"}, "id": "nzjcIRUdScdRUuToBiQYZetuyrw=", "properties": {"@spider": "usps_collection_boxes", "addr:city": "WHITE", "addr:country": "US", "addr:full": "311 W MAIN ST", "addr:postcode": "57276", "addr:state": "SD", "brand": "USPS", "collection_times": "Mo-Sa 14:00", "name": "USPS COLLECTION BOX - BLUE BOX", "note": "ON 12/24 AND 12/31, THIS BOX MAY BE COLLECTED AS EARLY AS 12 NOON.", "ref": "5727600001"}, "type": "Feature"}
{"geometry": {"coordinates": [-97.637274251, 44.62806989], "type": "Point"}, "id": "9DijSSO1PPBqXlbZHPn5fGibfa0=", "properties": {"@spider": "usps_collection_boxes", "addr:city": "WILLOW LAKE", "addr:country": "US", "addr:full": "214 GARFIELD AVE", "addr:postcode": "57278", "addr:state": "SD", "brand": "USPS", "collection_times": "Mo-Sa 15:30", "name": "USPS COLLECTION BOX - BLUE BOX", "note": "ON 12/24 AND 12/31, THIS BOX MAY BE COLLECTED AS EARLY AS 12 NOON.", "ref": "5727800001"}, "type": "Feature"}
{"geometry": {"coordinates": [-97.637274251, 44.62806989], "type": "Point"}, "id": "-cAqbqQWqx7DuR8cYTCkn9sDyrw=", "properties": {"@spider": "usps_collection_boxes", "addr:city": "WILLOW LAKE", "addr:country": "US", "addr:full": "214 GARFIELD AVE", "addr:postcode": "57278", "addr:state": "SD", "brand": "USPS", "collection_times": "Mo-Fr 11:20; Sa 09:30", "name": "USPS COLLECTION BOX - PO LOBBY", "ref": "5727800002"}, "type": "Feature"}
{"geometry": {"coordinates": [-96.857692617, 45.409794404], "type": "Point"}, "id": "mdOuK771hmfuktn2xcQPKz91svQ=", "properties": {"@spider": "usps_collection_boxes", "addr:city": "WILMOT", "addr:country": "US", "addr:full": "713 MAIN ST", "addr:postcode": "57279", "addr:state": "SD", "brand": "USPS", "collection_times": "Mo-Sa 15:45", "name": "USPS COLLECTION BOX - BLUE BOX", "note": "ON 12/24 AND 12/31, THIS BOX MAY BE COLLECTED AS EARLY AS 12 NOON.", "ref": "5727900001"}, "type": "Feature"}
{"geometry": {"coordinates": [-96.857692617, 45.409794404], "type": "Point"}, "id": "vvP8rVcYx-XsOQGojpkLQL3gTfo=", "properties": {"@spider": "usps_collection_boxes", "addr:city": "WILMOT", "addr:country": "US", "addr:full": "713 MAIN ST", "addr:postcode": "57279", "addr:state": "SD", "brand": "USPS", "collection_times": "Mo-Fr 14:30; Sa 09:15", "name": "USPS COLLECTION BOX - PO LOBBY", "note": "ON 12/24 AND 12/31, THIS BOX MAY BE COLLECTED AS EARLY AS 12 NOON.", "ref": "5727900002"}, "type": "Feature"}
