{"dataset_attributes": {"@spider": "usps_collection_boxes", "spider:collection_time": "2023-08-25T08:24:09.950024"}, "geometry": {"coordinates": [-98.027883555, 43.702118467], "type": "Point"}, "id": "hHwP80tgewBlWJEt0zlW737LugQ=", "properties": {"@spider": "usps_collection_boxes", "addr:city": "MITCHELL", "addr:country": "US", "addr:full": "201 W HAVENS AVE", "addr:postcode": "57301", "addr:state": "SD", "amenity": "post_box", "brand": "United States Postal Service", "brand:wikidata": "Q668687", "collection_times": "Mo-Sa 12:00", "name": "USPS COLLECTION BOX - BLUE BOX", "nsi_id": "unitedstatespostalservice-a77078", "operator": "United States Postal Service", "operator:short": "USPS", "operator:type": "public", "operator:wikidata": "Q668687", "ref": "5730100003"}, "type": "Feature"}
{"dataset_attributes": {"@spider": "usps_collection_boxes", "spider:collection_time": "2023-08-25T08:24:09.950024"}, "geometry": {"coordinates": [-98.041968294, 43.70185778], "type": "Point"}, "id": "HYSOFyBBiQ7e4c9T0DQSMjuXASs=", "properties": {"@spider": "usps_collection_boxes", "addr:city": "MITCHELL", "addr:country": "US", "addr:full": "1305 W HAVENS AVE", "addr:postcode": "57301", "addr:state": "SD", "amenity": "post_box", "brand": "United States Postal Service", "brand:wikidata": "Q668687", "collection_times": "Mo-Sa 14:00", "name": "USPS COLLECTION BOX - BLUE BOX", "note": "ON 12/24 AND 12/31, THIS BOX MAY BE COLLECTED AS EARLY AS 12 NOON.", "nsi_id": "unitedstatespostalservice-a77078", "operator": "United States Postal Service", "operator:short": "USPS", "operator:type": "public", "operator:wikidata": "Q668687", "ref": "5730100006"}, "type": "Feature"}
{"dataset_attributes": {"@spider": "usps_collection_boxes", "spider:collection_time": "2023-08-25T08:24:09.950024"}, "geometry": {"coordinates": [-98.025623534, 43.727211608], "type": "Point"}, "id": "Ny2r1al18dQ90KH7s5fXGx2EOiU=", "properties": {"@spider": "usps_collection_boxes", "addr:city": "MITCHELL", "addr:country": "US", "addr:full": "1800 N MAIN ST", "addr:postcode": "57301", "addr:state": "SD", "amenity": "post_box", "brand": "United States Postal Service", "brand:wikidata": "Q668687", "collection_times": "Mo-Sa 14:30", "name": "USPS COLLECTION BOX - BLUE BOX", "note": "ON 12/24 AND 12/31, THIS BOX MAY BE COLLECTED AS EARLY AS 12 NOON.", "nsi_id": "unitedstatespostalservice-a77078", "operator": "United States Postal Service", "operator:short": "USPS", "operator:type": "public", "operator:wikidata": "Q668687", "ref": "5730100017"}, "type": "Feature"}
{"dataset_attributes": {"@spider": "usps_collection_boxes", "spider:collection_time": "2023-08-25T08:24:09.950024"}, "geometry": {"coordinates": [-98.014366961, 43.693882705], "type": "Point"}, "id": "E4BBQCPwvrPQOyqoGvaLTn9InH8=", "properties": {"@spider": "usps_collection_boxes", "addr:city": "MITCHELL", "addr:country": "US", "addr:full": "1821 S BURR ST", "addr:postcode": "57301", "addr:state": "SD", "amenity": "post_box", "brand": "United States Postal Service", "brand:wikidata": "Q668687", "collection_times": "Mo-Sa 11:00", "name": "USPS COLLECTION BOX - BLUE BOX", "nsi_id": "unitedstatespostalservice-a77078", "operator": "United States Postal Service", "operator:short": "USPS", "operator:type": "public", "operator:wikidata": "Q668687", "ref": "5730100021"}, "type": "Feature"}
{"dataset_attributes": {"@spider": "usps_collection_boxes", "spider:collection_time": "2023-08-25T08:24:09.950024"}, "geometry": {"coordinates": [-98.027553777, 43.713482487], "type": "Point"}, "id": "6ZPspdNgCUVp7Z-686WL_z1NXpU=", "properties": {"@spider": "usps_collection_boxes", "addr:city": "MITCHELL", "addr:country": "US", "addr:full": "200 W 5TH AVE", "addr:postcode": "57301", "addr:state": "SD", "amenity": "post_box", "brand": "United States Postal Service", "brand:wikidata": "Q668687", "collection_times": "Mo-Sa 17:15", "name": "USPS COLLECTION BOX - BLUE BOX", "note": "ON 12/24 AND 12/31, THIS BOX MAY BE COLLECTED AS EARLY AS 12 NOON.", "nsi_id": "unitedstatespostalservice-a77078", "operator": "United States Postal Service", "operator:short": "USPS", "operator:type": "public", "operator:wikidata": "Q668687", "ref": "5730100023"}, "type": "Feature"}
{"dataset_attributes": {"@spider": "usps_collection_boxes", "spider:collection_time": "2023-08-25T08:24:09.950024"}, "geometry": {"coordinates": [-98.027553777, 43.713482487], "type": "Point"}, "id": "0MLMsOaw1fyCCFAWYS5F8yqyU8Q=", "properties": {"@spider": "usps_collection_boxes", "addr:city": "MITCHELL", "addr:country": "US", "addr:full": "200 W 5TH AVE", "addr:postcode": "57301", "addr:state": "SD", "amenity": "post_box", "brand": "United States Postal Service", "brand:wikidata": "Q668687", "collection_times": "Mo-Sa 17:15", "name": "USPS COLLECTION BOX - PO LOBBY", "note": "ON 12/24 AND 12/31, THIS BOX MAY BE COLLECTED AS EARLY AS 12 NOON.", "nsi_id": "unitedstatespostalservice-a77078", "operator": "United States Postal Service", "operator:short": "USPS", "operator:type": "public", "operator:wikidata": "Q668687", "ref": "5730100028"}, "type": "Feature"}
{"dataset_attributes": {"@spider": "usps_collection_boxes", "spider:collection_time": "2023-08-25T08:24:09.950024"}, "geometry": {"coordinates": [-98.010513, 43.687577539], "type": "Point"}, "id": "ltlrwSOaYgJPGarlnLYl3JpzK_s=", "properties": {"@spider": "usps_collection_boxes", "addr:city": "MITCHELL", "addr:country": "US", "addr:full": "1005 E SPRUCE ST", "addr:postcode": "57301", "addr:state": "SD", "amenity": "post_box", "brand": "United States Postal Service", "brand:wikidata": "Q668687", "collection_times": "Mo-Sa 14:00", "name": "USPS COLLECTION BOX - BLUE BOX", "note": "ON 12/24 AND 12/31, THIS BOX MAY BE COLLECTED AS EARLY AS 12 NOON.", "nsi_id": "unitedstatespostalservice-a77078", "operator": "United States Postal Service", "operator:short": "USPS", "operator:type": "public", "operator:wikidata": "Q668687", "ref": "5730100030"}, "type": "Feature"}
{"dataset_attributes": {"@spider": "usps_collection_boxes", "spider:collection_time": "2023-08-25T08:24:09.950024"}, "geometry": {"coordinates": [-97.782860824, 43.654494857], "type": "Point"}, "id": "Ukor3LyFMbxQhjckhikBLSqiPME=", "properties": {"@spider": "usps_collection_boxes", "addr:city": "ALEXANDRIA", "addr:country": "US", "addr:full": "501 MAIN ST", "addr:postcode": "57311", "addr:state": "SD", "amenity": "post_box", "brand": "United States Postal Service", "brand:wikidata": "Q668687", "collection_times": "Mo-Fr 16:15; Sa 16:45", "name": "USPS COLLECTION BOX - BLUE BOX", "note": "ON 12/24 AND 12/31, THIS BOX MAY BE COLLECTED AS EARLY AS 12 NOON.", "nsi_id": "unitedstatespostalservice-a77078", "operator": "United States Postal Service", "operator:short": "USPS", "operator:type": "public", "operator:wikidata": "Q668687", "ref": "5731100001"}, "type": "Feature"}
{"dataset_attributes": {"@spider": "usps_collection_boxes", "spider:collection_time": "2023-08-25T08:24:09.950024"}, "geometry": {"coordinates": [-97.782860824, 43.654494857], "type": "Point"}, "id": "X6FtpJSX9iaI0YDjE7vRVnbvYNI=", "properties": {"@spider": "usps_collection_boxes", "addr:city": "ALEXANDRIA", "addr:country": "US", "addr:full": "501 MAIN ST", "addr:postcode": "57311", "addr:state": "SD", "amenity": "post_box", "brand": "United States Postal Service", "brand:wikidata": "Q668687", "collection_times": "Mo-Fr 15:00; Sa 09:30", "name": "USPS COLLECTION BOX - PO LOBBY", "note": "ON 12/24 AND 12/31, THIS BOX MAY BE COLLECTED AS EARLY AS 12 NOON.", "nsi_id": "unitedstatespostalservice-a77078", "operator": "United States Postal Service", "operator:short": "USPS", "operator:type": "public", "operator:wikidata": "Q668687", "ref": "5731100002"}, "type": "Feature"}
{"dataset_attributes": {"@spider": "usps_collection_boxes", "spider:collection_time": "2023-08-25T08:24:09.950024"}, "geometry": {"coordinates": [-97.782860824, 43.654494857], "type": "Point"}, "id": "MFuAucWGnoDEJNh3CHvhZVYSOv0=", "properties": {"@spider": "usps_collection_boxes", "addr:city": "ALEXANDRIA", "addr:country": "US", "addr:full": "501 MAIN ST", "addr:postcode": "57311", "addr:state": "SD", "amenity": "post_box", "brand": "United States Postal Service", "brand:wikidata": "Q668687", "collection_times": "Mo-Fr 14:50; Sa 09:20", "name": "USPS COLLECTION BOX - PO LOBBY", "note": "ON 12/24 AND 12/31, THIS BOX MAY BE COLLECTED AS EARLY AS 12 NOON.", "nsi_id": "unitedstatespostalservice-a77078", "operator": "United States Postal Service", "operator:short": "USPS", "operator:type": "public", "operator:wikidata": "Q668687", "ref": "5731100004"}, "type": "Feature"}
{"dataset_attributes": {"@spider": "usps_collection_boxes", "spider:collection_time": "2023-08-25T08:24:09.950024"}, "geometry": {"coordinates": [-98.366649041, 44.181414653], "type": "Point"}, "id": "aK-3PTfc4RhINV8FwiRR1AD3seU=", "properties": {"@spider": "usps_collection_boxes", "addr:city": "ALPENA", "addr:country": "US", "addr:full": "818 MAIN ST", "addr:postcode": "57312", "addr:state": "SD", "amenity": "post_box", "brand": "United States Postal Service", "brand:wikidata": "Q668687", "collection_times": "Mo-Sa 16:00", "name": "USPS COLLECTION BOX - BLUE BOX", "note": "ON 12/24 AND 12/31, THIS BOX MAY BE COLLECTED AS EARLY AS 12 NOON.", "nsi_id": "unitedstatespostalservice-a77078", "operator": "United States Postal Service", "operator:short": "USPS", "operator:type": "public", "operator:wikidata": "Q668687", "ref": "5731200001"}, "type": "Feature"}
{"dataset_attributes": {"@spider": "usps_collection_boxes", "spider:collection_time": "2023-08-25T08:24:09.950024"}, "geometry": {"coordinates": [-98.366649041, 44.181414653], "type": "Point"}, "id": "_Uu78wn3N30uqy8qpWjBLUXtnJ4=", "properties": {"@spider": "usps_collection_boxes", "addr:city": "ALPENA", "addr:country": "US", "addr:full": "818 MAIN ST", "addr:postcode": "57312", "addr:state": "SD", "amenity": "post_box", "brand": "United States Postal Service", "brand:wikidata": "Q668687", "collection_times": "Mo-Fr 11:15; Sa 08:45", "name": "USPS COLLECTION BOX - PO LOBBY", "nsi_id": "unitedstatespostalservice-a77078", "operator": "United States Postal Service", "operator:short": "USPS", "operator:type": "public", "operator:wikidata": "Q668687", "ref": "5731200002"}, "type": "Feature"}
{"dataset_attributes": {"@spider": "usps_collection_boxes", "spider:collection_time": "2023-08-25T08:24:09.950024"}, "geometry": {"coordinates": [-98.366649041, 44.181414653], "type": "Point"}, "id": "6RxtDQyNgzhaTBo5dYs0qahS_5Q=", "properties": {"@spider": "usps_collection_boxes", "addr:city": "ALPENA", "addr:country": "US", "addr:full": "818 MAIN ST", "addr:postcode": "57312", "addr:state": "SD", "amenity": "post_box", "brand": "United States Postal Service", "brand:wikidata": "Q668687", "collection_times": "Mo-Fr 11:15; Sa 08:45", "name": "USPS COLLECTION BOX - PO LOBBY", "nsi_id": "unitedstatespostalservice-a77078", "operator": "United States Postal Service", "operator:short": "USPS", "operator:type": "public", "operator:wikidata": "Q668687", "ref": "5731200006"}, "type": "Feature"}
{"dataset_attributes": {"@spider": "usps_collection_boxes", "spider:collection_time": "2023-08-25T08:24:09.950024"}, "geometry": {"coordinates": [-98.346486582, 43.319038204], "type": "Point"}, "id": "-bDk2mzzxgkBtPlvMR9TN7TLIJg=", "properties": {"@spider": "usps_collection_boxes", "addr:city": "ARMOUR", "addr:country": "US", "addr:full": "814 MAIN AVE", "addr:postcode": "57313", "addr:state": "SD", "amenity": "post_box", "brand": "United States Postal Service", "brand:wikidata": "Q668687", "collection_times": "Mo-Fr 14:00; Sa 09:30", "name": "USPS COLLECTION BOX - PO LOBBY", "note": "ON 12/24 AND 12/31, THIS BOX MAY BE COLLECTED AS EARLY AS 12 NOON.", "nsi_id": "unitedstatespostalservice-a77078", "operator": "United States Postal Service", "operator:short": "USPS", "operator:type": "public", "operator:wikidata": "Q668687", "ref": "5731300002"}, "type": "Feature"}
{"dataset_attributes": {"@spider": "usps_collection_boxes", "spider:collection_time": "2023-08-25T08:24:09.950024"}, "geometry": {"coordinates": [-98.346486582, 43.319038204], "type": "Point"}, "id": "RO-safXNVqQZTqEGKqy90g9_Wrs=", "properties": {"@spider": "usps_collection_boxes", "addr:city": "ARMOUR", "addr:country": "US", "addr:full": "814 MAIN AVE", "addr:postcode": "57313", "addr:state": "SD", "amenity": "post_box", "brand": "United States Postal Service", "brand:wikidata": "Q668687", "collection_times": "Mo-Sa 14:00", "name": "USPS COLLECTION BOX - BLUE BOX", "note": "ON 12/24 AND 12/31, THIS BOX MAY BE COLLECTED AS EARLY AS 12 NOON.", "nsi_id": "unitedstatespostalservice-a77078", "operator": "United States Postal Service", "operator:short": "USPS", "operator:type": "public", "operator:wikidata": "Q668687", "ref": "5731300004"}, "type": "Feature"}
{"dataset_attributes": {"@spider": "usps_collection_boxes", "spider:collection_time": "2023-08-25T08:24:09.950024"}, "geometry": {"coordinates": [-98.346486582, 43.319038204], "type": "Point"}, "id": "y1ewnGsU327nCEgIChWr2okhSf4=", "properties": {"@spider": "usps_collection_boxes", "addr:city": "ARMOUR", "addr:country": "US", "addr:full": "814 MAIN AVE", "addr:postcode": "57313", "addr:state": "SD", "amenity": "post_box", "brand": "United States Postal Service", "brand:wikidata": "Q668687", "collection_times": "Mo-Fr 13:50; Sa 09:20", "name": "USPS COLLECTION BOX - PO LOBBY", "note": "ON 12/24 AND 12/31, THIS BOX MAY BE COLLECTED AS EARLY AS 12 NOON.", "nsi_id": "unitedstatespostalservice-a77078", "operator": "United States Postal Service", "operator:short": "USPS", "operator:type": "public", "operator:wikidata": "Q668687", "ref": "5731300006"}, "type": "Feature"}
{"dataset_attributes": {"@spider": "usps_collection_boxes", "spider:collection_time": "2023-08-25T08:24:09.950024"}, "geometry": {"coordinates": [-97.921380338, 44.008440805], "type": "Point"}, "id": "Da3VJqsd1CdWlrrFtWyijiucm1g=", "properties": {"@spider": "usps_collection_boxes", "addr:city": "ARTESIAN", "addr:country": "US", "addr:full": "225 N MAIN ST", "addr:postcode": "57314", "addr:state": "SD", "amenity": "post_box", "brand": "United States Postal Service", "brand:wikidata": "Q668687", "collection_times": "Mo-Sa 14:45", "name": "USPS COLLECTION BOX - BLUE BOX", "note": "ON 12/24 AND 12/31, THIS BOX MAY BE COLLECTED AS EARLY AS 12 NOON.", "nsi_id": "unitedstatespostalservice-a77078", "operator": "United States Postal Service", "operator:short": "USPS", "operator:type": "public", "operator:wikidata": "Q668687", "ref": "5731400001"}, "type": "Feature"}
{"dataset_attributes": {"@spider": "usps_collection_boxes", "spider:collection_time": "2023-08-25T08:24:09.950024"}, "geometry": {"coordinates": [-97.921380338, 44.008440805], "type": "Point"}, "id": "UTiW5afc1nAxg0TO3yVGBeIVjz8=", "properties": {"@spider": "usps_collection_boxes", "addr:city": "ARTESIAN", "addr:country": "US", "addr:full": "225 N MAIN ST", "addr:postcode": "57314", "addr:state": "SD", "amenity": "post_box", "brand": "United States Postal Service", "brand:wikidata": "Q668687", "collection_times": "Mo-Fr 11:30; Sa 09:15", "name": "USPS COLLECTION BOX - PO LOBBY", "nsi_id": "unitedstatespostalservice-a77078", "operator": "United States Postal Service", "operator:short": "USPS", "operator:type": "public", "operator:wikidata": "Q668687", "ref": "5731400002"}, "type": "Feature"}
{"dataset_attributes": {"@spider": "usps_collection_boxes", "spider:collection_time": "2023-08-25T08:24:09.950024"}, "geometry": {"coordinates": [-97.921380338, 44.008440805], "type": "Point"}, "id": "jJzCKKSoE4Ed19FKw94w9ZHDj-Y=", "properties": {"@spider": "usps_collection_boxes", "addr:city": "ARTESIAN", "addr:country": "US", "addr:full": "225 N MAIN ST", "addr:postcode": "57314", "addr:state": "SD", "amenity": "post_box", "brand": "United States Postal Service", "brand:wikidata": "Q668687", "collection_times": "Mo-Fr 11:20; Sa 09:15", "name": "USPS COLLECTION BOX - PO LOBBY", "nsi_id": "unitedstatespostalservice-a77078", "operator": "United States Postal Service", "operator:short": "USPS", "operator:type": "public", "operator:wikidata": "Q668687", "ref": "5731400006"}, "type": "Feature"}
{"dataset_attributes": {"@spider": "usps_collection_boxes", "spider:collection_time": "2023-08-25T08:24:09.950024"}, "geometry": {"coordinates": [-98.0605050074, 43.0046989922], "type": "Point"}, "id": "2UqCodtr4zexXy5KRuZRSm4J6AU=", "properties": {"@spider": "usps_collection_boxes", "addr:city": "AVON", "addr:country": "US", "addr:full": "129 MAIN ST N", "addr:postcode": "57315", "addr:state": "SD", "amenity": "post_box", "brand": "United States Postal Service", "brand:wikidata": "Q668687", "collection_times": "Mo-Sa 13:30", "name": "USPS COLLECTION BOX - BLUE BOX", "note": "ON 12/24 AND 12/31, THIS BOX MAY BE COLLECTED AS EARLY AS 12 NOON.", "nsi_id": "unitedstatespostalservice-a77078", "operator": "United States Postal Service", "operator:short": "USPS", "operator:type": "public", "operator:wikidata": "Q668687", "ref": "5731500001"}, "type": "Feature"}
{"dataset_attributes": {"@spider": "usps_collection_boxes", "spider:collection_time": "2023-08-25T08:24:09.950024"}, "geometry": {"coordinates": [-98.060198033, 43.004070587], "type": "Point"}, "id": "42PVE5jlJXfknZQtmB-bR2aE9Gw=", "properties": {"@spider": "usps_collection_boxes", "addr:city": "AVON", "addr:country": "US", "addr:full": "129 MAIN ST N", "addr:postcode": "57315", "addr:state": "SD", "amenity": "post_box", "brand": "United States Postal Service", "brand:wikidata": "Q668687", "collection_times": "Mo-Fr 13:30; Sa 09:30", "name": "USPS COLLECTION BOX - PO LOBBY", "note": "ON 12/24 AND 12/31, THIS BOX MAY BE COLLECTED AS EARLY AS 12 NOON.", "nsi_id": "unitedstatespostalservice-a77078", "operator": "United States Postal Service", "operator:short": "USPS", "operator:type": "public", "operator:wikidata": "Q668687", "ref": "5731500002"}, "type": "Feature"}
{"dataset_attributes": {"@spider": "usps_collection_boxes", "spider:collection_time": "2023-08-25T08:24:09.950024"}, "geometry": {"coordinates": [-98.060198033, 43.004070587], "type": "Point"}, "id": "v0h4L7UOOkW9-y8Xj1bNIleQ9vA=", "properties": {"@spider": "usps_collection_boxes", "addr:city": "AVON", "addr:country": "US", "addr:full": "129 MAIN ST N", "addr:postcode": "57315", "addr:state": "SD", "amenity": "post_box", "brand": "United States Postal Service", "brand:wikidata": "Q668687", "collection_times": "Mo-Fr 13:15; Sa 09:20", "name": "USPS COLLECTION BOX - PO LOBBY", "note": "ON 12/24 AND 12/31, THIS BOX MAY BE COLLECTED AS EARLY AS 12 NOON.", "nsi_id": "unitedstatespostalservice-a77078", "operator": "United States Postal Service", "operator:short": "USPS", "operator:type": "public", "operator:wikidata": "Q668687", "ref": "5731500004"}, "type": "Feature"}
{"dataset_attributes": {"@spider": "usps_collection_boxes", "spider:collection_time": "2023-08-25T08:24:09.950024"}, "geometry": {"coordinates": [-98.9447224487, 43.0761898364], "type": "Point"}, "id": "g1PMePTpXkI8YadMQGrbxI9ePw8=", "properties": {"@spider": "usps_collection_boxes", "addr:city": "BONESTEEL", "addr:country": "US", "addr:full": "405 MELLETTE ST", "addr:postcode": "57317", "addr:state": "SD", "amenity": "post_box", "brand": "United States Postal Service", "brand:wikidata": "Q668687", "collection_times": "Mo-Sa 11:45", "name": "USPS COLLECTION BOX - BLUE BOX", "nsi_id": "unitedstatespostalservice-a77078", "operator": "United States Postal Service", "operator:short": "USPS", "operator:type": "public", "operator:wikidata": "Q668687", "ref": "5731700000"}, "type": "Feature"}
{"dataset_attributes": {"@spider": "usps_collection_boxes", "spider:collection_time": "2023-08-25T08:24:09.950024"}, "geometry": {"coordinates": [-98.944722449, 43.076189836], "type": "Point"}, "id": "x7WnHgxzbBDiS6qZZyifqou3IRs=", "properties": {"@spider": "usps_collection_boxes", "addr:city": "BONESTEEL", "addr:country": "US", "addr:full": "405 MELLETTE ST", "addr:postcode": "57317", "addr:state": "SD", "amenity": "post_box", "brand": "United States Postal Service", "brand:wikidata": "Q668687", "collection_times": "Mo-Fr 11:45; Sa 10:30", "name": "USPS COLLECTION BOX - PO LOBBY", "nsi_id": "unitedstatespostalservice-a77078", "operator": "United States Postal Service", "operator:short": "USPS", "operator:type": "public", "operator:wikidata": "Q668687", "ref": "5731700001"}, "type": "Feature"}
{"dataset_attributes": {"@spider": "usps_collection_boxes", "spider:collection_time": "2023-08-25T08:24:09.950024"}, "geometry": {"coordinates": [-98.944722449, 43.076189836], "type": "Point"}, "id": "Es8oA54H5NpJwW2yGt6VD8bzrEU=", "properties": {"@spider": "usps_collection_boxes", "addr:city": "BONESTEEL", "addr:country": "US", "addr:full": "405 MELLETTE ST", "addr:postcode": "57317", "addr:state": "SD", "amenity": "post_box", "brand": "United States Postal Service", "brand:wikidata": "Q668687", "collection_times": "Mo-Fr 11:35; Sa 09:50", "name": "USPS COLLECTION BOX - PO LOBBY", "nsi_id": "unitedstatespostalservice-a77078", "operator": "United States Postal Service", "operator:short": "USPS", "operator:type": "public", "operator:wikidata": "Q668687", "ref": "5731700003"}, "type": "Feature"}
{"dataset_attributes": {"@spider": "usps_collection_boxes", "spider:collection_time": "2023-08-25T08:24:09.950024"}, "geometry": {"coordinates": [-97.502308876, 43.550487], "type": "Point"}, "id": "Un1MLM0gUCSpREHB0a6t_yruS0I=", "properties": {"@spider": "usps_collection_boxes", "addr:city": "BRIDGEWATER", "addr:country": "US", "addr:full": "235 N MAIN AVE", "addr:postcode": "57319", "addr:state": "SD", "amenity": "post_box", "brand": "United States Postal Service", "brand:wikidata": "Q668687", "collection_times": "Mo-Fr 16:00; Sa 16:30", "name": "USPS COLLECTION BOX - BLUE BOX", "note": "ON 12/24 AND 12/31, THIS BOX MAY BE COLLECTED AS EARLY AS 12 NOON.", "nsi_id": "unitedstatespostalservice-a77078", "operator": "United States Postal Service", "operator:short": "USPS", "operator:type": "public", "operator:wikidata": "Q668687", "ref": "5731900001"}, "type": "Feature"}
{"dataset_attributes": {"@spider": "usps_collection_boxes", "spider:collection_time": "2023-08-25T08:24:09.950024"}, "geometry": {"coordinates": [-97.502308876, 43.550487], "type": "Point"}, "id": "6RFhqlOkePBtl3ZZbmWR6ilqRSg=", "properties": {"@spider": "usps_collection_boxes", "addr:city": "BRIDGEWATER", "addr:country": "US", "addr:full": "235 N MAIN AVE", "addr:postcode": "57319", "addr:state": "SD", "amenity": "post_box", "brand": "United States Postal Service", "brand:wikidata": "Q668687", "collection_times": "Mo-Fr 11:30; Sa 09:00", "name": "USPS COLLECTION BOX - PO LOBBY", "nsi_id": "unitedstatespostalservice-a77078", "operator": "United States Postal Service", "operator:short": "USPS", "operator:type": "public", "operator:wikidata": "Q668687", "ref": "5731900002"}, "type": "Feature"}
{"dataset_attributes": {"@spider": "usps_collection_boxes", "spider:collection_time": "2023-08-25T08:24:09.950024"}, "geometry": {"coordinates": [-97.502308876, 43.550487], "type": "Point"}, "id": "qj40HIQAMRbxKG-yNeOGqN7Cvjg=", "properties": {"@spider": "usps_collection_boxes", "addr:city": "BRIDGEWATER", "addr:country": "US", "addr:full": "235 N MAIN AVE", "addr:postcode": "57319", "addr:state": "SD", "amenity": "post_box", "brand": "United States Postal Service", "brand:wikidata": "Q668687", "collection_times": "Mo-Fr 11:20; Sa 08:50", "name": "USPS COLLECTION BOX - PO LOBBY", "nsi_id": "unitedstatespostalservice-a77078", "operator": "United States Postal Service", "operator:short": "USPS", "operator:type": "public", "operator:wikidata": "Q668687", "ref": "5731900004"}, "type": "Feature"}
{"dataset_attributes": {"@spider": "usps_collection_boxes", "spider:collection_time": "2023-08-25T08:24:09.950024"}, "geometry": {"coordinates": [-97.503068101, 43.881163275], "type": "Point"}, "id": "nUzKqIV4iFCX9ubp1HAVoCtLEco=", "properties": {"@spider": "usps_collection_boxes", "addr:city": "CANOVA", "addr:country": "US", "addr:full": "120 MAIN ST W", "addr:postcode": "57321", "addr:state": "SD", "amenity": "post_box", "brand": "United States Postal Service", "brand:wikidata": "Q668687", "collection_times": "Mo-Sa 11:45", "name": "USPS COLLECTION BOX - PO LOBBY", "nsi_id": "unitedstatespostalservice-a77078", "operator": "United States Postal Service", "operator:short": "USPS", "operator:type": "public", "operator:wikidata": "Q668687", "ref": "5732100002"}, "type": "Feature"}
{"dataset_attributes": {"@spider": "usps_collection_boxes", "spider:collection_time": "2023-08-25T08:24:09.950024"}, "geometry": {"coordinates": [-97.503068101, 43.881163275], "type": "Point"}, "id": "We0cVFgWdobFKUXVJGlBbuOeOdo=", "properties": {"@spider": "usps_collection_boxes", "addr:city": "CANOVA", "addr:country": "US", "addr:full": "120 MAIN ST W", "addr:postcode": "57321", "addr:state": "SD", "amenity": "post_box", "brand": "United States Postal Service", "brand:wikidata": "Q668687", "collection_times": "Mo-Sa 11:45", "name": "USPS COLLECTION BOX - PO LOBBY", "nsi_id": "unitedstatespostalservice-a77078", "operator": "United States Postal Service", "operator:short": "USPS", "operator:type": "public", "operator:wikidata": "Q668687", "ref": "5732100004"}, "type": "Feature"}
{"dataset_attributes": {"@spider": "usps_collection_boxes", "spider:collection_time": "2023-08-25T08:24:09.950024"}, "geometry": {"coordinates": [-97.5030682295, 43.8811724913], "type": "Point"}, "id": "vRcyx8XbInboXJ9VZJIFPdldKvM=", "properties": {"@spider": "usps_collection_boxes", "addr:city": "CANOVA", "addr:country": "US", "addr:full": "120 MAIN ST W", "addr:postcode": "57321", "addr:state": "SD", "amenity": "post_box", "brand": "United States Postal Service", "brand:wikidata": "Q668687", "collection_times": "Mo-Fr 15:40; Sa 15:30", "name": "USPS COLLECTION BOX - BLUE BOX", "note": "ON 12/24 AND 12/31, THIS BOX MAY BE COLLECTED AS EARLY AS 12 NOON.", "nsi_id": "unitedstatespostalservice-a77078", "operator": "United States Postal Service", "operator:short": "USPS", "operator:type": "public", "operator:wikidata": "Q668687", "ref": "5732100005"}, "type": "Feature"}
{"dataset_attributes": {"@spider": "usps_collection_boxes", "spider:collection_time": "2023-08-25T08:24:09.950024"}, "geometry": {"coordinates": [-97.916945834, 44.653176202], "type": "Point"}, "id": "A2mkzODP8qcKtR2Pl_l6W_AeGx0=", "properties": {"@spider": "usps_collection_boxes", "addr:city": "CARPENTER", "addr:country": "US", "addr:full": "531 415TH AVE", "addr:postcode": "57322", "addr:state": "SD", "amenity": "post_box", "brand": "United States Postal Service", "brand:wikidata": "Q668687", "collection_times": "Mo-Sa 16:00", "name": "USPS COLLECTION BOX - BLUE BOX", "note": "ON 12/24 AND 12/31, THIS BOX MAY BE COLLECTED AS EARLY AS 12 NOON.", "nsi_id": "unitedstatespostalservice-a77078", "operator": "United States Postal Service", "operator:short": "USPS", "operator:type": "public", "operator:wikidata": "Q668687", "ref": "5732200001"}, "type": "Feature"}
{"dataset_attributes": {"@spider": "usps_collection_boxes", "spider:collection_time": "2023-08-25T08:24:09.950024"}, "geometry": {"coordinates": [-97.916945834, 44.653176202], "type": "Point"}, "id": "VtuEbYhJPXVToASDOJnoLNBAUBg=", "properties": {"@spider": "usps_collection_boxes", "addr:city": "CARPENTER", "addr:country": "US", "addr:full": "531 415TH AVE", "addr:postcode": "57322", "addr:state": "SD", "amenity": "post_box", "brand": "United States Postal Service", "brand:wikidata": "Q668687", "collection_times": "Mo-Fr 14:15; Sa 11:15", "name": "USPS COLLECTION BOX - PO LOBBY", "note": "ON 12/24 AND 12/31, THIS BOX MAY BE COLLECTED AS EARLY AS 12 NOON.", "nsi_id": "unitedstatespostalservice-a77078", "operator": "United States Postal Service", "operator:short": "USPS", "operator:type": "public", "operator:wikidata": "Q668687", "ref": "5732200002"}, "type": "Feature"}
{"dataset_attributes": {"@spider": "usps_collection_boxes", "spider:collection_time": "2023-08-25T08:24:09.950024"}, "geometry": {"coordinates": [-97.916945834, 44.653176202], "type": "Point"}, "id": "QtQxo9NHAlANFjiQxdjadXkar-4=", "properties": {"@spider": "usps_collection_boxes", "addr:city": "CARPENTER", "addr:country": "US", "addr:full": "531 415TH AVE", "addr:postcode": "57322", "addr:state": "SD", "amenity": "post_box", "brand": "United States Postal Service", "brand:wikidata": "Q668687", "collection_times": "Mo-Fr 14:15; Sa 11:15", "name": "USPS COLLECTION BOX - PO LOBBY", "note": "ON 12/24 AND 12/31, THIS BOX MAY BE COLLECTED AS EARLY AS 12 NOON.", "nsi_id": "unitedstatespostalservice-a77078", "operator": "United States Postal Service", "operator:short": "USPS", "operator:type": "public", "operator:wikidata": "Q668687", "ref": "5732200004"}, "type": "Feature"}
{"dataset_attributes": {"@spider": "usps_collection_boxes", "spider:collection_time": "2023-08-25T08:24:09.950024"}, "geometry": {"coordinates": [-97.716227567, 44.171137338], "type": "Point"}, "id": "ihWpp3B-Cq_9Kia3Fx6b0StCcCA=", "properties": {"@spider": "usps_collection_boxes", "addr:city": "CARTHAGE", "addr:country": "US", "addr:full": "121 MAIN ST E", "addr:postcode": "57323", "addr:state": "SD", "amenity": "post_box", "brand": "United States Postal Service", "brand:wikidata": "Q668687", "collection_times": "Mo-Sa 13:45", "name": "USPS COLLECTION BOX - BLUE BOX", "note": "ON 12/24 AND 12/31, THIS BOX MAY BE COLLECTED AS EARLY AS 12 NOON.", "nsi_id": "unitedstatespostalservice-a77078", "operator": "United States Postal Service", "operator:short": "USPS", "operator:type": "public", "operator:wikidata": "Q668687", "ref": "5732300001"}, "type": "Feature"}
{"dataset_attributes": {"@spider": "usps_collection_boxes", "spider:collection_time": "2023-08-25T08:24:09.950024"}, "geometry": {"coordinates": [-97.7162220192, 44.1711371187], "type": "Point"}, "id": "gkD4yHjyvHvCCpIXpl2f8b7LsbY=", "properties": {"@spider": "usps_collection_boxes", "addr:city": "CARTHAGE", "addr:country": "US", "addr:full": "121 MAIN ST E", "addr:postcode": "57323", "addr:state": "SD", "amenity": "post_box", "brand": "United States Postal Service", "brand:wikidata": "Q668687", "collection_times": "Mo-Fr 13:45; Sa 12:00", "name": "USPS COLLECTION BOX - PO LOBBY", "note": "ON 12/24 AND 12/31, THIS BOX MAY BE COLLECTED AS EARLY AS 12 NOON.", "nsi_id": "unitedstatespostalservice-a77078", "operator": "United States Postal Service", "operator:short": "USPS", "operator:type": "public", "operator:wikidata": "Q668687", "ref": "5732300002"}, "type": "Feature"}
{"dataset_attributes": {"@spider": "usps_collection_boxes", "spider:collection_time": "2023-08-25T08:24:09.950024"}, "geometry": {"coordinates": [-97.716222019, 44.171137119], "type": "Point"}, "id": "47wmoOuz37XAgnmoJBWkkT-eDzk=", "properties": {"@spider": "usps_collection_boxes", "addr:city": "CARTHAGE", "addr:country": "US", "addr:full": "121 MAIN ST E", "addr:postcode": "57323", "addr:state": "SD", "amenity": "post_box", "brand": "United States Postal Service", "brand:wikidata": "Q668687", "collection_times": "Mo-Fr 13:30; Sa 11:45", "name": "USPS COLLECTION BOX - PO LOBBY", "note": "ON 12/24 AND 12/31, THIS BOX MAY BE COLLECTED AS EARLY AS 12 NOON.", "nsi_id": "unitedstatespostalservice-a77078", "operator": "United States Postal Service", "operator:short": "USPS", "operator:type": "public", "operator:wikidata": "Q668687", "ref": "5732300004"}, "type": "Feature"}
{"dataset_attributes": {"@spider": "usps_collection_boxes", "spider:collection_time": "2023-08-25T08:24:09.950024"}, "geometry": {"coordinates": [-98.037839981, 44.37006874], "type": "Point"}, "id": "8DwbH9xeVuReOLGvsECDXr8iNpE=", "properties": {"@spider": "usps_collection_boxes", "addr:city": "CAVOUR", "addr:country": "US", "addr:full": "391 SOLFERINO ST", "addr:postcode": "57324", "addr:state": "SD", "amenity": "post_box", "brand": "United States Postal Service", "brand:wikidata": "Q668687", "collection_times": "Mo-Sa 16:15", "name": "USPS COLLECTION BOX - BLUE BOX", "note": "ON 12/24 AND 12/31, THIS BOX MAY BE COLLECTED AS EARLY AS 12 NOON.", "nsi_id": "unitedstatespostalservice-a77078", "operator": "United States Postal Service", "operator:short": "USPS", "operator:type": "public", "operator:wikidata": "Q668687", "ref": "5732400001"}, "type": "Feature"}
{"dataset_attributes": {"@spider": "usps_collection_boxes", "spider:collection_time": "2023-08-25T08:24:09.950024"}, "geometry": {"coordinates": [-98.037839981, 44.37006874], "type": "Point"}, "id": "zgF3TJPoqFl3SNyxPz4U7tGlNhM=", "properties": {"@spider": "usps_collection_boxes", "addr:city": "CAVOUR", "addr:country": "US", "addr:full": "391 SOLFERINO ST", "addr:postcode": "57324", "addr:state": "SD", "amenity": "post_box", "brand": "United States Postal Service", "brand:wikidata": "Q668687", "collection_times": "Mo-Fr 11:15; Sa 09:00", "name": "USPS COLLECTION BOX - PO LOBBY", "nsi_id": "unitedstatespostalservice-a77078", "operator": "United States Postal Service", "operator:short": "USPS", "operator:type": "public", "operator:wikidata": "Q668687", "ref": "5732400002"}, "type": "Feature"}
{"dataset_attributes": {"@spider": "usps_collection_boxes", "spider:collection_time": "2023-08-25T08:24:09.950024"}, "geometry": {"coordinates": [-98.037839981, 44.37006874], "type": "Point"}, "id": "hyqIP1w-NUK94GqfevmTCOZnYUc=", "properties": {"@spider": "usps_collection_boxes", "addr:city": "CAVOUR", "addr:country": "US", "addr:full": "391 SOLFERINO ST", "addr:postcode": "57324", "addr:state": "SD", "amenity": "post_box", "brand": "United States Postal Service", "brand:wikidata": "Q668687", "collection_times": "Mo-Fr 11:15; Sa 09:00", "name": "USPS COLLECTION BOX - PO LOBBY", "nsi_id": "unitedstatespostalservice-a77078", "operator": "United States Postal Service", "operator:short": "USPS", "operator:type": "public", "operator:wikidata": "Q668687", "ref": "5732400004"}, "type": "Feature"}
{"dataset_attributes": {"@spider": "usps_collection_boxes", "spider:collection_time": "2023-08-25T08:24:09.950024"}, "geometry": {"coordinates": [-99.32981616, 43.811587195], "type": "Point"}, "id": "qSuDAYuJ66QPRWKeWW8Rhu6mqOI=", "properties": {"@spider": "usps_collection_boxes", "addr:city": "CHAMBERLAIN", "addr:country": "US", "addr:full": "120 N MAIN ST", "addr:postcode": "57325", "addr:state": "SD", "amenity": "post_box", "brand": "United States Postal Service", "brand:wikidata": "Q668687", "collection_times": "Mo-Fr 14:00", "name": "USPS COLLECTION BOX - BLUE BOX", "note": "ON 12/24 AND 12/31, THIS BOX MAY BE COLLECTED AS EARLY AS 12 NOON.", "nsi_id": "unitedstatespostalservice-a77078", "operator": "United States Postal Service", "operator:short": "USPS", "operator:type": "public", "operator:wikidata": "Q668687", "ref": "5732500003"}, "type": "Feature"}
{"dataset_attributes": {"@spider": "usps_collection_boxes", "spider:collection_time": "2023-08-25T08:24:09.950024"}, "geometry": {"coordinates": [-99.333180121, 43.808795881], "type": "Point"}, "id": "1Zvi3ovGaom7QN9xlTV30iC2eW4=", "properties": {"@spider": "usps_collection_boxes", "addr:city": "CHAMBERLAIN", "addr:country": "US", "addr:full": "300 S COURTLAND ST", "addr:postcode": "57325", "addr:state": "SD", "amenity": "post_box", "brand": "United States Postal Service", "brand:wikidata": "Q668687", "collection_times": "Mo-Sa 11:30", "name": "USPS COLLECTION BOX - BLUE BOX", "nsi_id": "unitedstatespostalservice-a77078", "operator": "United States Postal Service", "operator:short": "USPS", "operator:type": "public", "operator:wikidata": "Q668687", "ref": "5732500004"}, "type": "Feature"}
{"dataset_attributes": {"@spider": "usps_collection_boxes", "spider:collection_time": "2023-08-25T08:24:09.950024"}, "geometry": {"coordinates": [-99.328991884, 43.810637292], "type": "Point"}, "id": "F-1mTJCAe-BZqY6eqMPRRQpoz70=", "properties": {"@spider": "usps_collection_boxes", "addr:city": "CHAMBERLAIN", "addr:country": "US", "addr:full": "108 N SANBORN ST", "addr:postcode": "57325", "addr:state": "SD", "amenity": "post_box", "brand": "United States Postal Service", "brand:wikidata": "Q668687", "collection_times": "Mo-Sa 14:00", "name": "USPS COLLECTION BOX - BLUE BOX", "note": "ON 12/24 AND 12/31, THIS BOX MAY BE COLLECTED AS EARLY AS 12 NOON.", "nsi_id": "unitedstatespostalservice-a77078", "operator": "United States Postal Service", "operator:short": "USPS", "operator:type": "public", "operator:wikidata": "Q668687", "ref": "5732500006"}, "type": "Feature"}
{"dataset_attributes": {"@spider": "usps_collection_boxes", "spider:collection_time": "2023-08-25T08:24:09.950024"}, "geometry": {"coordinates": [-99.328991884, 43.810637292], "type": "Point"}, "id": "XBA7uXyPxKQyTxDiTxYJbb6J4fY=", "properties": {"@spider": "usps_collection_boxes", "addr:city": "CHAMBERLAIN", "addr:country": "US", "addr:full": "108 N SANBORN ST", "addr:postcode": "57325", "addr:state": "SD", "amenity": "post_box", "brand": "United States Postal Service", "brand:wikidata": "Q668687", "collection_times": "Mo-Fr 14:00; Sa 12:00", "name": "USPS COLLECTION BOX - PO LOBBY", "note": "ON 12/24 AND 12/31, THIS BOX MAY BE COLLECTED AS EARLY AS 12 NOON.", "nsi_id": "unitedstatespostalservice-a77078", "operator": "United States Postal Service", "operator:short": "USPS", "operator:type": "public", "operator:wikidata": "Q668687", "ref": "5732500007"}, "type": "Feature"}
{"dataset_attributes": {"@spider": "usps_collection_boxes", "spider:collection_time": "2023-08-25T08:24:09.950024"}, "geometry": {"coordinates": [-99.328991884, 43.810637292], "type": "Point"}, "id": "4aRzRKmDwQk91SNC35EnZkKX_ts=", "properties": {"@spider": "usps_collection_boxes", "addr:city": "CHAMBERLAIN", "addr:country": "US", "addr:full": "108 N SANBORN ST", "addr:postcode": "57325", "addr:state": "SD", "amenity": "post_box", "brand": "United States Postal Service", "brand:wikidata": "Q668687", "collection_times": "Mo-Fr 13:50; Sa 11:50", "name": "USPS COLLECTION BOX - PO LOBBY", "note": "ON 12/24 AND 12/31, THIS BOX MAY BE COLLECTED AS EARLY AS 12 NOON.", "nsi_id": "unitedstatespostalservice-a77078", "operator": "United States Postal Service", "operator:short": "USPS", "operator:type": "public", "operator:wikidata": "Q668687", "ref": "5732500014"}, "type": "Feature"}
{"dataset_attributes": {"@spider": "usps_collection_boxes", "spider:collection_time": "2023-08-25T08:24:09.950024"}, "geometry": {"coordinates": [-98.407762431, 43.423625325], "type": "Point"}, "id": "yFHg-rFlwva4Q0SUY7FLQJncmiY=", "properties": {"@spider": "usps_collection_boxes", "addr:city": "CORSICA", "addr:country": "US", "addr:full": "225 E MAIN ST", "addr:postcode": "57328", "addr:state": "SD", "amenity": "post_box", "brand": "United States Postal Service", "brand:wikidata": "Q668687", "collection_times": "Mo-Sa 14:15", "name": "USPS COLLECTION BOX - BLUE BOX", "note": "ON 12/24 AND 12/31, THIS BOX MAY BE COLLECTED AS EARLY AS 12 NOON.", "nsi_id": "unitedstatespostalservice-a77078", "operator": "United States Postal Service", "operator:short": "USPS", "operator:type": "public", "operator:wikidata": "Q668687", "ref": "5732800001"}, "type": "Feature"}
{"dataset_attributes": {"@spider": "usps_collection_boxes", "spider:collection_time": "2023-08-25T08:24:09.950024"}, "geometry": {"coordinates": [-98.407762431, 43.423625325], "type": "Point"}, "id": "vUJ1DaiT8Jd8jBIrlp_lo6uu9Ow=", "properties": {"@spider": "usps_collection_boxes", "addr:city": "CORSICA", "addr:country": "US", "addr:full": "225 E MAIN ST", "addr:postcode": "57328", "addr:state": "SD", "amenity": "post_box", "brand": "United States Postal Service", "brand:wikidata": "Q668687", "collection_times": "Mo-Fr 14:15; Sa 10:00", "name": "USPS COLLECTION BOX - PO LOBBY", "note": "ON 12/24 AND 12/31, THIS BOX MAY BE COLLECTED AS EARLY AS 12 NOON.", "nsi_id": "unitedstatespostalservice-a77078", "operator": "United States Postal Service", "operator:short": "USPS", "operator:type": "public", "operator:wikidata": "Q668687", "ref": "5732800002"}, "type": "Feature"}
{"dataset_attributes": {"@spider": "usps_collection_boxes", "spider:collection_time": "2023-08-25T08:24:09.950024"}, "geometry": {"coordinates": [-98.407762431, 43.423625325], "type": "Point"}, "id": "Fwpvro3XK2ljhBqglCcSOO3cooE=", "properties": {"@spider": "usps_collection_boxes", "addr:city": "CORSICA", "addr:country": "US", "addr:full": "225 E MAIN ST", "addr:postcode": "57328", "addr:state": "SD", "amenity": "post_box", "brand": "United States Postal Service", "brand:wikidata": "Q668687", "collection_times": "Mo-Fr 14:15; Sa 10:00", "name": "USPS COLLECTION BOX - PO LOBBY", "note": "ON 12/24 AND 12/31, THIS BOX MAY BE COLLECTED AS EARLY AS 12 NOON.", "nsi_id": "unitedstatespostalservice-a77078", "operator": "United States Postal Service", "operator:short": "USPS", "operator:type": "public", "operator:wikidata": "Q668687", "ref": "5732800006"}, "type": "Feature"}
{"dataset_attributes": {"@spider": "usps_collection_boxes", "spider:collection_time": "2023-08-25T08:24:09.950024"}, "geometry": {"coordinates": [-98.16256157, 43.267466526], "type": "Point"}, "id": "HFT-VViR5ykSNRJ0A3fYMsYXwFk=", "properties": {"@spider": "usps_collection_boxes", "addr:city": "DELMONT", "addr:country": "US", "addr:full": "109 W MAIN ST", "addr:postcode": "57330", "addr:state": "SD", "amenity": "post_box", "brand": "United States Postal Service", "brand:wikidata": "Q668687", "collection_times": "Mo-Sa 15:00", "name": "USPS COLLECTION BOX - BLUE BOX", "note": "ON 12/24 AND 12/31, THIS BOX MAY BE COLLECTED AS EARLY AS 12 NOON.", "nsi_id": "unitedstatespostalservice-a77078", "operator": "United States Postal Service", "operator:short": "USPS", "operator:type": "public", "operator:wikidata": "Q668687", "ref": "5733000001"}, "type": "Feature"}
{"dataset_attributes": {"@spider": "usps_collection_boxes", "spider:collection_time": "2023-08-25T08:24:09.950024"}, "geometry": {"coordinates": [-98.16256157, 43.267466526], "type": "Point"}, "id": "jIeq6wl1hGW8OAoy7UHWrOm7Nno=", "properties": {"@spider": "usps_collection_boxes", "addr:city": "DELMONT", "addr:country": "US", "addr:full": "109 W MAIN ST", "addr:postcode": "57330", "addr:state": "SD", "amenity": "post_box", "brand": "United States Postal Service", "brand:wikidata": "Q668687", "collection_times": "Mo-Fr 11:30; Sa 09:15", "name": "USPS COLLECTION BOX - PO LOBBY", "nsi_id": "unitedstatespostalservice-a77078", "operator": "United States Postal Service", "operator:short": "USPS", "operator:type": "public", "operator:wikidata": "Q668687", "ref": "5733000002"}, "type": "Feature"}
{"dataset_attributes": {"@spider": "usps_collection_boxes", "spider:collection_time": "2023-08-25T08:24:09.950024"}, "geometry": {"coordinates": [-98.16256157, 43.267466526], "type": "Point"}, "id": "Ut1ADWvfWCm_yE4qT43YMCQzi2Q=", "properties": {"@spider": "usps_collection_boxes", "addr:city": "DELMONT", "addr:country": "US", "addr:full": "109 W MAIN ST", "addr:postcode": "57330", "addr:state": "SD", "amenity": "post_box", "brand": "United States Postal Service", "brand:wikidata": "Q668687", "collection_times": "Mo-Fr 11:30; Sa 09:15", "name": "USPS COLLECTION BOX - PO LOBBY", "nsi_id": "unitedstatespostalservice-a77078", "operator": "United States Postal Service", "operator:short": "USPS", "operator:type": "public", "operator:wikidata": "Q668687", "ref": "5733000004"}, "type": "Feature"}
{"dataset_attributes": {"@spider": "usps_collection_boxes", "spider:collection_time": "2023-08-25T08:24:09.950024"}, "geometry": {"coordinates": [-97.985680358, 43.474122], "type": "Point"}, "id": "9d5hOkLkD7EZYz42bSFwzZDO9ZI=", "properties": {"@spider": "usps_collection_boxes", "addr:city": "DIMOCK", "addr:country": "US", "addr:full": "501 S MAIN ST", "addr:postcode": "57331", "addr:state": "SD", "amenity": "post_box", "brand": "United States Postal Service", "brand:wikidata": "Q668687", "collection_times": "Mo-Sa 16:00", "name": "USPS COLLECTION BOX - BLUE BOX", "note": "ON 12/24 AND 12/31, THIS BOX MAY BE COLLECTED AS EARLY AS 12 NOON.", "nsi_id": "unitedstatespostalservice-a77078", "operator": "United States Postal Service", "operator:short": "USPS", "operator:type": "public", "operator:wikidata": "Q668687", "ref": "5733100001"}, "type": "Feature"}
{"dataset_attributes": {"@spider": "usps_collection_boxes", "spider:collection_time": "2023-08-25T08:24:09.950024"}, "geometry": {"coordinates": [-97.6225105399, 43.6023455554], "type": "Point"}, "id": "W0Q4r78ka_rUwO_DU_bI2ANHrVU=", "properties": {"@spider": "usps_collection_boxes", "addr:city": "EMERY", "addr:country": "US", "addr:full": "124 N 3RD ST", "addr:postcode": "57332", "addr:state": "SD", "amenity": "post_box", "brand": "United States Postal Service", "brand:wikidata": "Q668687", "collection_times": "Mo-Fr 16:15; Sa 16:45", "name": "USPS COLLECTION BOX - BLUE BOX", "note": "ON 12/24 AND 12/31, THIS BOX MAY BE COLLECTED AS EARLY AS 12 NOON.", "nsi_id": "unitedstatespostalservice-a77078", "operator": "United States Postal Service", "operator:short": "USPS", "operator:type": "public", "operator:wikidata": "Q668687", "ref": "5733200001"}, "type": "Feature"}
{"dataset_attributes": {"@spider": "usps_collection_boxes", "spider:collection_time": "2023-08-25T08:24:09.950024"}, "geometry": {"coordinates": [-97.62251504, 43.602345555], "type": "Point"}, "id": "AakQU3txtnX_nzgv4Dfn00TPEYE=", "properties": {"@spider": "usps_collection_boxes", "addr:city": "EMERY", "addr:country": "US", "addr:full": "124 N 3RD ST", "addr:postcode": "57332", "addr:state": "SD", "amenity": "post_box", "brand": "United States Postal Service", "brand:wikidata": "Q668687", "collection_times": "Mo-Fr 12:00; Sa 09:15", "name": "USPS COLLECTION BOX - PO LOBBY", "nsi_id": "unitedstatespostalservice-a77078", "operator": "United States Postal Service", "operator:short": "USPS", "operator:type": "public", "operator:wikidata": "Q668687", "ref": "5733200002"}, "type": "Feature"}
{"dataset_attributes": {"@spider": "usps_collection_boxes", "spider:collection_time": "2023-08-25T08:24:09.950024"}, "geometry": {"coordinates": [-97.62251504, 43.602345555], "type": "Point"}, "id": "RI1KLJowf0O9jvxJKJIaJPk-dyk=", "properties": {"@spider": "usps_collection_boxes", "addr:city": "EMERY", "addr:country": "US", "addr:full": "124 N 3RD ST", "addr:postcode": "57332", "addr:state": "SD", "amenity": "post_box", "brand": "United States Postal Service", "brand:wikidata": "Q668687", "collection_times": "Mo-Fr 12:00; Sa 09:15", "name": "USPS COLLECTION BOX - PO LOBBY", "nsi_id": "unitedstatespostalservice-a77078", "operator": "United States Postal Service", "operator:short": "USPS", "operator:type": "public", "operator:wikidata": "Q668687", "ref": "5733200004"}, "type": "Feature"}
{"dataset_attributes": {"@spider": "usps_collection_boxes", "spider:collection_time": "2023-08-25T08:24:09.950024"}, "geometry": {"coordinates": [-97.986771, 43.547472533], "type": "Point"}, "id": "kvVagv4esNB-C5kE1apF38uMeu8=", "properties": {"@spider": "usps_collection_boxes", "addr:city": "ETHAN", "addr:country": "US", "addr:full": "102 W MAIN ST", "addr:postcode": "57334", "addr:state": "SD", "amenity": "post_box", "brand": "United States Postal Service", "brand:wikidata": "Q668687", "collection_times": "Mo-Sa 16:15", "name": "USPS COLLECTION BOX - BLUE BOX", "note": "ON 12/24 AND 12/31, THIS BOX MAY BE COLLECTED AS EARLY AS 12 NOON.", "nsi_id": "unitedstatespostalservice-a77078", "operator": "United States Postal Service", "operator:short": "USPS", "operator:type": "public", "operator:wikidata": "Q668687", "ref": "5733400001"}, "type": "Feature"}
{"dataset_attributes": {"@spider": "usps_collection_boxes", "spider:collection_time": "2023-08-25T08:24:09.950024"}, "geometry": {"coordinates": [-97.986771, 43.547472533], "type": "Point"}, "id": "LBCh8x3USn1pwLdGlbVBZ8aN9Gk=", "properties": {"@spider": "usps_collection_boxes", "addr:city": "ETHAN", "addr:country": "US", "addr:full": "102 W MAIN ST", "addr:postcode": "57334", "addr:state": "SD", "amenity": "post_box", "brand": "United States Postal Service", "brand:wikidata": "Q668687", "collection_times": "Mo-Fr 12:00; Sa 09:15", "name": "USPS COLLECTION BOX - PO LOBBY", "nsi_id": "unitedstatespostalservice-a77078", "operator": "United States Postal Service", "operator:short": "USPS", "operator:type": "public", "operator:wikidata": "Q668687", "ref": "5733400002"}, "type": "Feature"}
{"dataset_attributes": {"@spider": "usps_collection_boxes", "spider:collection_time": "2023-08-25T08:24:09.950024"}, "geometry": {"coordinates": [-97.986771, 43.547472533], "type": "Point"}, "id": "L0LFkPNCUAY7ymokQTscKeiRMNI=", "properties": {"@spider": "usps_collection_boxes", "addr:city": "ETHAN", "addr:country": "US", "addr:full": "102 W MAIN ST", "addr:postcode": "57334", "addr:state": "SD", "amenity": "post_box", "brand": "United States Postal Service", "brand:wikidata": "Q668687", "collection_times": "Mo-Fr 12:00; Sa 09:15", "name": "USPS COLLECTION BOX - PO LOBBY", "nsi_id": "unitedstatespostalservice-a77078", "operator": "United States Postal Service", "operator:short": "USPS", "operator:type": "public", "operator:wikidata": "Q668687", "ref": "5733400004"}, "type": "Feature"}
{"dataset_attributes": {"@spider": "usps_collection_boxes", "spider:collection_time": "2023-08-25T08:24:09.950024"}, "geometry": {"coordinates": [-98.888405652, 43.027567855], "type": "Point"}, "id": "jOKfox99XEJ2l9ZTMgYauX2NpMs=", "properties": {"@spider": "usps_collection_boxes", "addr:city": "FAIRFAX", "addr:country": "US", "addr:full": "412 MAIN ST", "addr:postcode": "57335", "addr:state": "SD", "amenity": "post_box", "brand": "United States Postal Service", "brand:wikidata": "Q668687", "collection_times": "Mo-Sa 12:00", "name": "USPS COLLECTION BOX - BLUE BOX", "nsi_id": "unitedstatespostalservice-a77078", "operator": "United States Postal Service", "operator:short": "USPS", "operator:type": "public", "operator:wikidata": "Q668687", "ref": "5733500001"}, "type": "Feature"}
{"dataset_attributes": {"@spider": "usps_collection_boxes", "spider:collection_time": "2023-08-25T08:24:09.950024"}, "geometry": {"coordinates": [-98.888405652, 43.027567855], "type": "Point"}, "id": "KaqleCE-_5zb38tzAh3Anb0YWq4=", "properties": {"@spider": "usps_collection_boxes", "addr:city": "FAIRFAX", "addr:country": "US", "addr:full": "412 MAIN ST", "addr:postcode": "57335", "addr:state": "SD", "amenity": "post_box", "brand": "United States Postal Service", "brand:wikidata": "Q668687", "collection_times": "Mo-Fr 12:00; Sa 10:15", "name": "USPS COLLECTION BOX - PO LOBBY", "nsi_id": "unitedstatespostalservice-a77078", "operator": "United States Postal Service", "operator:short": "USPS", "operator:type": "public", "operator:wikidata": "Q668687", "ref": "5733500002"}, "type": "Feature"}
{"dataset_attributes": {"@spider": "usps_collection_boxes", "spider:collection_time": "2023-08-25T08:24:09.950024"}, "geometry": {"coordinates": [-98.888405652, 43.027567855], "type": "Point"}, "id": "pENNzerO4HNp_f0CKSBJ0UP1v7I=", "properties": {"@spider": "usps_collection_boxes", "addr:city": "FAIRFAX", "addr:country": "US", "addr:full": "412 MAIN ST", "addr:postcode": "57335", "addr:state": "SD", "amenity": "post_box", "brand": "United States Postal Service", "brand:wikidata": "Q668687", "collection_times": "Mo-Fr 12:00; Sa 10:15", "name": "USPS COLLECTION BOX - PO LOBBY", "nsi_id": "unitedstatespostalservice-a77078", "operator": "United States Postal Service", "operator:short": "USPS", "operator:type": "public", "operator:wikidata": "Q668687", "ref": "5733500004"}, "type": "Feature"}
{"dataset_attributes": {"@spider": "usps_collection_boxes", "spider:collection_time": "2023-08-25T08:24:09.950024"}, "geometry": {"coordinates": [-97.791002274, 44.007543], "type": "Point"}, "id": "bolZ7JxUcTWvESECeulSQeQXqw4=", "properties": {"@spider": "usps_collection_boxes", "addr:city": "FEDORA", "addr:country": "US", "addr:full": "23310 421ST AVE", "addr:postcode": "57337", "addr:state": "SD", "amenity": "post_box", "brand": "United States Postal Service", "brand:wikidata": "Q668687", "collection_times": "Mo-Sa 14:30", "name": "USPS COLLECTION BOX - BLUE BOX", "note": "ON 12/24 AND 12/31, THIS BOX MAY BE COLLECTED AS EARLY AS 12 NOON.", "nsi_id": "unitedstatespostalservice-a77078", "operator": "United States Postal Service", "operator:short": "USPS", "operator:type": "public", "operator:wikidata": "Q668687", "ref": "5733700001"}, "type": "Feature"}
{"dataset_attributes": {"@spider": "usps_collection_boxes", "spider:collection_time": "2023-08-25T08:24:09.950024"}, "geometry": {"coordinates": [-99.42886501, 44.073513182], "type": "Point"}, "id": "oaTYcz7o2ieBHjkIizCAQfgoH6E=", "properties": {"@spider": "usps_collection_boxes", "addr:city": "FT THOMPSON", "addr:country": "US", "addr:full": "119 SD HIGHWAY 249", "addr:postcode": "57339", "addr:state": "SD", "amenity": "post_box", "brand": "United States Postal Service", "brand:wikidata": "Q668687", "collection_times": "Mo-Fr 14:30; Sa 11:30", "name": "USPS COLLECTION BOX - BLUE BOX", "note": "ON 12/24 AND 12/31, THIS BOX MAY BE COLLECTED AS EARLY AS 12 NOON.", "nsi_id": "unitedstatespostalservice-a77078", "operator": "United States Postal Service", "operator:short": "USPS", "operator:type": "public", "operator:wikidata": "Q668687", "ref": "5733900001"}, "type": "Feature"}
{"dataset_attributes": {"@spider": "usps_collection_boxes", "spider:collection_time": "2023-08-25T08:24:09.950024"}, "geometry": {"coordinates": [-99.42886501, 44.073513182], "type": "Point"}, "id": "oW0m_pQPTOvpO1xQfH6X0UeOLik=", "properties": {"@spider": "usps_collection_boxes", "addr:city": "FT THOMPSON", "addr:country": "US", "addr:full": "119 SD HIGHWAY 249", "addr:postcode": "57339", "addr:state": "SD", "amenity": "post_box", "brand": "United States Postal Service", "brand:wikidata": "Q668687", "collection_times": "Mo-Fr 14:30; Sa 12:00", "name": "USPS COLLECTION BOX - PO LOBBY", "note": "ON 12/24 AND 12/31, THIS BOX MAY BE COLLECTED AS EARLY AS 12 NOON.", "nsi_id": "unitedstatespostalservice-a77078", "operator": "United States Postal Service", "operator:short": "USPS", "operator:type": "public", "operator:wikidata": "Q668687", "ref": "5733900002"}, "type": "Feature"}
{"dataset_attributes": {"@spider": "usps_collection_boxes", "spider:collection_time": "2023-08-25T08:24:09.950024"}, "geometry": {"coordinates": [-99.42886501, 44.073513182], "type": "Point"}, "id": "q9A6sEvCKAER60090Hrt3AWGhss=", "properties": {"@spider": "usps_collection_boxes", "addr:city": "FT THOMPSON", "addr:country": "US", "addr:full": "119 SD HIGHWAY 249", "addr:postcode": "57339", "addr:state": "SD", "amenity": "post_box", "brand": "United States Postal Service", "brand:wikidata": "Q668687", "collection_times": "Mo-Fr 14:30; Sa 11:30", "name": "USPS COLLECTION BOX - PO LOBBY", "note": "ON 12/24 AND 12/31, THIS BOX MAY BE COLLECTED AS EARLY AS 12 NOON.", "nsi_id": "unitedstatespostalservice-a77078", "operator": "United States Postal Service", "operator:short": "USPS", "operator:type": "public", "operator:wikidata": "Q668687", "ref": "5733900004"}, "type": "Feature"}
{"dataset_attributes": {"@spider": "usps_collection_boxes", "spider:collection_time": "2023-08-25T08:24:09.950024"}, "geometry": {"coordinates": [-97.823220919, 43.724769986], "type": "Point"}, "id": "Fb7Smirp29tIcFwF4N5sQQvwXWo=", "properties": {"@spider": "usps_collection_boxes", "addr:city": "FULTON", "addr:country": "US", "addr:full": "217 N MAIN AVE", "addr:postcode": "57340", "addr:state": "SD", "amenity": "post_box", "brand": "United States Postal Service", "brand:wikidata": "Q668687", "collection_times": "Mo-Fr 16:15; Sa 17:00", "name": "USPS COLLECTION BOX - BLUE BOX", "note": "ON 12/24 AND 12/31, THIS BOX MAY BE COLLECTED AS EARLY AS 12 NOON.", "nsi_id": "unitedstatespostalservice-a77078", "operator": "United States Postal Service", "operator:short": "USPS", "operator:type": "public", "operator:wikidata": "Q668687", "ref": "5734000001"}, "type": "Feature"}
{"dataset_attributes": {"@spider": "usps_collection_boxes", "spider:collection_time": "2023-08-25T08:24:09.950024"}, "geometry": {"coordinates": [-97.823220919, 43.724769986], "type": "Point"}, "id": "yP4HHfNF606CQyzF-FJPuyqX-HQ=", "properties": {"@spider": "usps_collection_boxes", "addr:city": "FULTON", "addr:country": "US", "addr:full": "217 N MAIN AVE", "addr:postcode": "57340", "addr:state": "SD", "amenity": "post_box", "brand": "United States Postal Service", "brand:wikidata": "Q668687", "collection_times": "Mo-Fr 15:30; Sa 13:30", "name": "USPS COLLECTION BOX - PO LOBBY", "note": "ON 12/24 AND 12/31, THIS BOX MAY BE COLLECTED AS EARLY AS 12 NOON.", "nsi_id": "unitedstatespostalservice-a77078", "operator": "United States Postal Service", "operator:short": "USPS", "operator:type": "public", "operator:wikidata": "Q668687", "ref": "5734000002"}, "type": "Feature"}
{"dataset_attributes": {"@spider": "usps_collection_boxes", "spider:collection_time": "2023-08-25T08:24:09.950024"}, "geometry": {"coordinates": [-97.823220919, 43.724769986], "type": "Point"}, "id": "V0_areF7zXUHT0K3LHvBOdbI51c=", "properties": {"@spider": "usps_collection_boxes", "addr:city": "FULTON", "addr:country": "US", "addr:full": "217 N MAIN AVE", "addr:postcode": "57340", "addr:state": "SD", "amenity": "post_box", "brand": "United States Postal Service", "brand:wikidata": "Q668687", "collection_times": "Mo-Fr 15:30; Sa 13:30", "name": "USPS COLLECTION BOX - PO LOBBY", "note": "ON 12/24 AND 12/31, THIS BOX MAY BE COLLECTED AS EARLY AS 12 NOON.", "nsi_id": "unitedstatespostalservice-a77078", "operator": "United States Postal Service", "operator:short": "USPS", "operator:type": "public", "operator:wikidata": "Q668687", "ref": "5734000004"}, "type": "Feature"}
{"dataset_attributes": {"@spider": "usps_collection_boxes", "spider:collection_time": "2023-08-25T08:24:09.950024"}, "geometry": {"coordinates": [-98.986494268, 44.032101787], "type": "Point"}, "id": "SXzSb6U2xumJPlGKPbQ4JtMEnIM=", "properties": {"@spider": "usps_collection_boxes", "addr:city": "GANN VALLEY", "addr:country": "US", "addr:full": "229 MAIN ST", "addr:postcode": "57341", "addr:state": "SD", "amenity": "post_box", "brand": "United States Postal Service", "brand:wikidata": "Q668687", "collection_times": "Mo-Sa 15:00", "name": "USPS COLLECTION BOX - BLUE BOX", "note": "ON 12/24 AND 12/31, THIS BOX MAY BE COLLECTED AS EARLY AS 12 NOON.", "nsi_id": "unitedstatespostalservice-a77078", "operator": "United States Postal Service", "operator:short": "USPS", "operator:type": "public", "operator:wikidata": "Q668687", "ref": "5734100001"}, "type": "Feature"}
{"dataset_attributes": {"@spider": "usps_collection_boxes", "spider:collection_time": "2023-08-25T08:24:09.950024"}, "geometry": {"coordinates": [-98.986494268, 44.032101787], "type": "Point"}, "id": "44ZmjCgZEl-5UUAV_vRzKk3W0d0=", "properties": {"@spider": "usps_collection_boxes", "addr:city": "GANN VALLEY", "addr:country": "US", "addr:full": "229 MAIN ST", "addr:postcode": "57341", "addr:state": "SD", "amenity": "post_box", "brand": "United States Postal Service", "brand:wikidata": "Q668687", "collection_times": "Mo-Fr 14:00; Sa 11:00", "name": "USPS COLLECTION BOX - PO LOBBY", "note": "ON 12/24 AND 12/31, THIS BOX MAY BE COLLECTED AS EARLY AS 12 NOON.", "nsi_id": "unitedstatespostalservice-a77078", "operator": "United States Postal Service", "operator:short": "USPS", "operator:type": "public", "operator:wikidata": "Q668687", "ref": "5734100002"}, "type": "Feature"}
{"dataset_attributes": {"@spider": "usps_collection_boxes", "spider:collection_time": "2023-08-25T08:24:09.950024"}, "geometry": {"coordinates": [-98.9864942677, 44.0321017871], "type": "Point"}, "id": "nT8Y69iWooHxfnkbf9M_0JR8egA=", "properties": {"@spider": "usps_collection_boxes", "addr:city": "GANN VALLEY", "addr:country": "US", "addr:full": "229 MAIN ST", "addr:postcode": "57341", "addr:state": "SD", "amenity": "post_box", "brand": "United States Postal Service", "brand:wikidata": "Q668687", "collection_times": "Mo-Fr 14:00; Sa 11:00", "name": "USPS COLLECTION BOX - PO LOBBY", "note": "ON 12/24 AND 12/31, THIS BOX MAY BE COLLECTED AS EARLY AS 12 NOON.", "nsi_id": "unitedstatespostalservice-a77078", "operator": "United States Postal Service", "operator:short": "USPS", "operator:type": "public", "operator:wikidata": "Q668687", "ref": "5734100004"}, "type": "Feature"}
{"dataset_attributes": {"@spider": "usps_collection_boxes", "spider:collection_time": "2023-08-25T08:24:09.950024"}, "geometry": {"coordinates": [-98.695553314, 43.252974671], "type": "Point"}, "id": "u8klFlo2RbI6gsNvcYKw_AklL0s=", "properties": {"@spider": "usps_collection_boxes", "addr:city": "GEDDES", "addr:country": "US", "addr:full": "312 MAIN AVE", "addr:postcode": "57342", "addr:state": "SD", "amenity": "post_box", "brand": "United States Postal Service", "brand:wikidata": "Q668687", "collection_times": "Mo-Sa 13:15", "name": "USPS COLLECTION BOX - BLUE BOX", "note": "ON 12/24 AND 12/31, THIS BOX MAY BE COLLECTED AS EARLY AS 12 NOON.", "nsi_id": "unitedstatespostalservice-a77078", "operator": "United States Postal Service", "operator:short": "USPS", "operator:type": "public", "operator:wikidata": "Q668687", "ref": "5734200001"}, "type": "Feature"}
{"dataset_attributes": {"@spider": "usps_collection_boxes", "spider:collection_time": "2023-08-25T08:24:09.950024"}, "geometry": {"coordinates": [-98.695553314, 43.252974671], "type": "Point"}, "id": "lzs1GGtzPnXI0QB42KswhajM91E=", "properties": {"@spider": "usps_collection_boxes", "addr:city": "GEDDES", "addr:country": "US", "addr:full": "312 MAIN AVE", "addr:postcode": "57342", "addr:state": "SD", "amenity": "post_box", "brand": "United States Postal Service", "brand:wikidata": "Q668687", "collection_times": "Mo-Fr 11:30; Sa 09:30", "name": "USPS COLLECTION BOX - PO LOBBY", "nsi_id": "unitedstatespostalservice-a77078", "operator": "United States Postal Service", "operator:short": "USPS", "operator:type": "public", "operator:wikidata": "Q668687", "ref": "5734200002"}, "type": "Feature"}
{"dataset_attributes": {"@spider": "usps_collection_boxes", "spider:collection_time": "2023-08-25T08:24:09.950024"}, "geometry": {"coordinates": [-98.695553314, 43.252974671], "type": "Point"}, "id": "BFnyZmI-Atsk0Ttwe2YzpaAj-Ac=", "properties": {"@spider": "usps_collection_boxes", "addr:city": "GEDDES", "addr:country": "US", "addr:full": "312 MAIN AVE", "addr:postcode": "57342", "addr:state": "SD", "amenity": "post_box", "brand": "United States Postal Service", "brand:wikidata": "Q668687", "collection_times": "Mo-Fr 11:30; Sa 09:30", "name": "USPS COLLECTION BOX - PO LOBBY", "nsi_id": "unitedstatespostalservice-a77078", "operator": "United States Postal Service", "operator:short": "USPS", "operator:type": "public", "operator:wikidata": "Q668687", "ref": "5734200004"}, "type": "Feature"}
{"dataset_attributes": {"@spider": "usps_collection_boxes", "spider:collection_time": "2023-08-25T08:24:09.950024"}, "geometry": {"coordinates": [-99.440211333, 44.520130939], "type": "Point"}, "id": "yc4YZmuHWB1CkFY3E4x-2ZzzQpQ=", "properties": {"@spider": "usps_collection_boxes", "addr:city": "HIGHMORE", "addr:country": "US", "addr:full": "111 COMMERCIAL AVE SE", "addr:postcode": "57345", "addr:state": "SD", "amenity": "post_box", "brand": "United States Postal Service", "brand:wikidata": "Q668687", "collection_times": "Mo-Sa 16:00", "name": "USPS COLLECTION BOX - BLUE BOX", "note": "ON 12/24 AND 12/31, THIS BOX MAY BE COLLECTED AS EARLY AS 12 NOON.", "nsi_id": "unitedstatespostalservice-a77078", "operator": "United States Postal Service", "operator:short": "USPS", "operator:type": "public", "operator:wikidata": "Q668687", "ref": "5734500001"}, "type": "Feature"}
{"dataset_attributes": {"@spider": "usps_collection_boxes", "spider:collection_time": "2023-08-25T08:24:09.950024"}, "geometry": {"coordinates": [-99.440211333, 44.520130939], "type": "Point"}, "id": "dUmFlo8MqIvYdZEvAgRiNjmXfLg=", "properties": {"@spider": "usps_collection_boxes", "addr:city": "HIGHMORE", "addr:country": "US", "addr:full": "111 COMMERCIAL AVE SE", "addr:postcode": "57345", "addr:state": "SD", "amenity": "post_box", "brand": "United States Postal Service", "brand:wikidata": "Q668687", "collection_times": "Mo-Fr 16:00; Sa 10:30", "name": "USPS COLLECTION BOX - PO LOBBY", "note": "ON 12/24 AND 12/31, THIS BOX MAY BE COLLECTED AS EARLY AS 12 NOON.", "nsi_id": "unitedstatespostalservice-a77078", "operator": "United States Postal Service", "operator:short": "USPS", "operator:type": "public", "operator:wikidata": "Q668687", "ref": "5734500003"}, "type": "Feature"}
{"dataset_attributes": {"@spider": "usps_collection_boxes", "spider:collection_time": "2023-08-25T08:24:09.950024"}, "geometry": {"coordinates": [-99.440206796, 44.52013905], "type": "Point"}, "id": "ei1Cx1J-N70f0YghspjbtW2nQ5o=", "properties": {"@spider": "usps_collection_boxes", "addr:city": "HIGHMORE", "addr:country": "US", "addr:full": "111 COMMERCIAL AVE SE", "addr:postcode": "57345", "addr:state": "SD", "amenity": "post_box", "brand": "United States Postal Service", "brand:wikidata": "Q668687", "collection_times": "Mo-Fr 16:00; Sa 10:30", "name": "USPS COLLECTION BOX - PO LOBBY", "note": "ON 12/24 AND 12/31, THIS BOX MAY BE COLLECTED AS EARLY AS 12 NOON.", "nsi_id": "unitedstatespostalservice-a77078", "operator": "United States Postal Service", "operator:short": "USPS", "operator:type": "public", "operator:wikidata": "Q668687", "ref": "5734500006"}, "type": "Feature"}
{"dataset_attributes": {"@spider": "usps_collection_boxes", "spider:collection_time": "2023-08-25T08:24:09.950024"}, "geometry": {"coordinates": [-98.4080809906, 44.6303109846], "type": "Point"}, "id": "s7AEYke33YQqc8QUT9-51DIuQdg=", "properties": {"@spider": "usps_collection_boxes", "addr:city": "HITCHCOCK", "addr:country": "US", "addr:full": "386 CLARKE ST", "addr:postcode": "57348", "addr:state": "SD", "amenity": "post_box", "brand": "United States Postal Service", "brand:wikidata": "Q668687", "collection_times": "Mo-Sa 16:30", "name": "USPS COLLECTION BOX - BLUE BOX", "note": "ON 12/24 AND 12/31, THIS BOX MAY BE COLLECTED AS EARLY AS 12 NOON.", "nsi_id": "unitedstatespostalservice-a77078", "operator": "United States Postal Service", "operator:short": "USPS", "operator:type": "public", "operator:wikidata": "Q668687", "ref": "5734800001"}, "type": "Feature"}
{"dataset_attributes": {"@spider": "usps_collection_boxes", "spider:collection_time": "2023-08-25T08:24:09.950024"}, "geometry": {"coordinates": [-98.406559872, 44.630394805], "type": "Point"}, "id": "3hwueyA_btrI4p9XbEaJWWGArlw=", "properties": {"@spider": "usps_collection_boxes", "addr:city": "HITCHCOCK", "addr:country": "US", "addr:full": "386 CLARKE ST", "addr:postcode": "57348", "addr:state": "SD", "amenity": "post_box", "brand": "United States Postal Service", "brand:wikidata": "Q668687", "collection_times": "Mo-Fr 11:30; Sa 08:45", "name": "USPS COLLECTION BOX - PO LOBBY", "nsi_id": "unitedstatespostalservice-a77078", "operator": "United States Postal Service", "operator:short": "USPS", "operator:type": "public", "operator:wikidata": "Q668687", "ref": "5734800002"}, "type": "Feature"}
{"dataset_attributes": {"@spider": "usps_collection_boxes", "spider:collection_time": "2023-08-25T08:24:09.950024"}, "geometry": {"coordinates": [-97.526786662, 44.011173338], "type": "Point"}, "id": "1Q6d8O65rSBYdWltdmrxsTsPVBE=", "properties": {"@spider": "usps_collection_boxes", "addr:city": "HOWARD", "addr:country": "US", "addr:full": "100 N MAIN ST", "addr:postcode": "57349", "addr:state": "SD", "amenity": "post_box", "brand": "United States Postal Service", "brand:wikidata": "Q668687", "collection_times": "Mo-Sa 14:15", "name": "USPS COLLECTION BOX - BLUE BOX", "note": "ON 12/24 AND 12/31, THIS BOX MAY BE COLLECTED AS EARLY AS 12 NOON.", "nsi_id": "unitedstatespostalservice-a77078", "operator": "United States Postal Service", "operator:short": "USPS", "operator:type": "public", "operator:wikidata": "Q668687", "ref": "5734900001"}, "type": "Feature"}
{"dataset_attributes": {"@spider": "usps_collection_boxes", "spider:collection_time": "2023-08-25T08:24:09.950024"}, "geometry": {"coordinates": [-97.526786662, 44.011173338], "type": "Point"}, "id": "nYf-g3dyP1DWBN6GfapKEygnZks=", "properties": {"@spider": "usps_collection_boxes", "addr:city": "HOWARD", "addr:country": "US", "addr:full": "100 N MAIN ST", "addr:postcode": "57349", "addr:state": "SD", "amenity": "post_box", "brand": "United States Postal Service", "brand:wikidata": "Q668687", "collection_times": "Mo-Fr 14:15; Sa 09:30", "name": "USPS COLLECTION BOX - PO LOBBY", "note": "ON 12/24 AND 12/31, THIS BOX MAY BE COLLECTED AS EARLY AS 12 NOON.", "nsi_id": "unitedstatespostalservice-a77078", "operator": "United States Postal Service", "operator:short": "USPS", "operator:type": "public", "operator:wikidata": "Q668687", "ref": "5734900002"}, "type": "Feature"}
{"dataset_attributes": {"@spider": "usps_collection_boxes", "spider:collection_time": "2023-08-25T08:24:09.950024"}, "geometry": {"coordinates": [-98.221560083, 44.363170078], "type": "Point"}, "id": "giqxHaQYMn6WLSrMqkhofDYh0Mc=", "properties": {"@spider": "usps_collection_boxes", "addr:city": "HURON", "addr:country": "US", "addr:full": "450 3RD ST SW", "addr:postcode": "57350", "addr:state": "SD", "amenity": "post_box", "brand": "United States Postal Service", "brand:wikidata": "Q668687", "collection_times": "Mo-Fr 15:00", "name": "USPS COLLECTION BOX - BLUE BOX", "note": "ON 12/24 AND 12/31, THIS BOX MAY BE COLLECTED AS EARLY AS 12 NOON.", "nsi_id": "unitedstatespostalservice-a77078", "operator": "United States Postal Service", "operator:short": "USPS", "operator:type": "public", "operator:wikidata": "Q668687", "ref": "5735000006"}, "type": "Feature"}
{"dataset_attributes": {"@spider": "usps_collection_boxes", "spider:collection_time": "2023-08-25T08:24:09.950024"}, "geometry": {"coordinates": [-98.214103165, 44.343470088], "type": "Point"}, "id": "SncwnUZfRxvlOgOLWIQc3ianSS4=", "properties": {"@spider": "usps_collection_boxes", "addr:city": "HURON", "addr:country": "US", "addr:full": "1950 DAKOTA AVE S", "addr:postcode": "57350", "addr:state": "SD", "amenity": "post_box", "brand": "United States Postal Service", "brand:wikidata": "Q668687", "collection_times": "Mo-Fr 15:00; Sa 14:00", "name": "USPS COLLECTION BOX - BLUE BOX", "note": "ON 12/24 AND 12/31, THIS BOX MAY BE COLLECTED AS EARLY AS 12 NOON.", "nsi_id": "unitedstatespostalservice-a77078", "operator": "United States Postal Service", "operator:short": "USPS", "operator:type": "public", "operator:wikidata": "Q668687", "ref": "5735000010"}, "type": "Feature"}
{"dataset_attributes": {"@spider": "usps_collection_boxes", "spider:collection_time": "2023-08-25T08:24:09.950024"}, "geometry": {"coordinates": [-98.214078032, 44.36185598], "type": "Point"}, "id": "PwDkqDHxjfHvnBF9h0JRzt1dXfE=", "properties": {"@spider": "usps_collection_boxes", "addr:city": "HURON", "addr:country": "US", "addr:full": "410 DAKOTA AVE S", "addr:postcode": "57350", "addr:state": "SD", "amenity": "post_box", "brand": "United States Postal Service", "brand:wikidata": "Q668687", "collection_times": "Mo-Fr 17:15; Sa 17:30", "name": "USPS COLLECTION BOX - BLUE BOX", "note": "ON 12/24 AND 12/31, THIS BOX MAY BE COLLECTED AS EARLY AS 12 NOON.", "nsi_id": "unitedstatespostalservice-a77078", "operator": "United States Postal Service", "operator:short": "USPS", "operator:type": "public", "operator:wikidata": "Q668687", "ref": "5735000015"}, "type": "Feature"}
{"dataset_attributes": {"@spider": "usps_collection_boxes", "spider:collection_time": "2023-08-25T08:24:09.950024"}, "geometry": {"coordinates": [-98.214078032, 44.36185598], "type": "Point"}, "id": "FBy-z6Q54R9AG_kibELm1fzLBJk=", "properties": {"@spider": "usps_collection_boxes", "addr:city": "HURON", "addr:country": "US", "addr:full": "410 DAKOTA AVE S", "addr:postcode": "57350", "addr:state": "SD", "amenity": "post_box", "brand": "United States Postal Service", "brand:wikidata": "Q668687", "collection_times": "Mo-Fr 17:15; Sa 15:00", "name": "USPS COLLECTION BOX - PO LOBBY", "note": "ON 12/24 AND 12/31, THIS BOX MAY BE COLLECTED AS EARLY AS 12 NOON.", "nsi_id": "unitedstatespostalservice-a77078", "operator": "United States Postal Service", "operator:short": "USPS", "operator:type": "public", "operator:wikidata": "Q668687", "ref": "5735000022"}, "type": "Feature"}
{"dataset_attributes": {"@spider": "usps_collection_boxes", "spider:collection_time": "2023-08-25T08:24:09.950024"}, "geometry": {"coordinates": [-98.215780506, 44.363772052], "type": "Point"}, "id": "b3qS087TAiBRWDieaNo5zcFD_gw=", "properties": {"@spider": "usps_collection_boxes", "addr:city": "HURON", "addr:country": "US", "addr:full": "256 WISCONSIN AVE SW", "addr:postcode": "57350", "addr:state": "SD", "amenity": "post_box", "brand": "United States Postal Service", "brand:wikidata": "Q668687", "collection_times": "Mo-Fr 15:00", "name": "USPS COLLECTION BOX - BLUE BOX", "note": "ON 12/24 AND 12/31, THIS BOX MAY BE COLLECTED AS EARLY AS 12 NOON.", "nsi_id": "unitedstatespostalservice-a77078", "operator": "United States Postal Service", "operator:short": "USPS", "operator:type": "public", "operator:wikidata": "Q668687", "ref": "5735000024"}, "type": "Feature"}
{"dataset_attributes": {"@spider": "usps_collection_boxes", "spider:collection_time": "2023-08-25T08:24:09.950024"}, "geometry": {"coordinates": [-98.214029501, 44.34083219], "type": "Point"}, "id": "P2n0zZw5cnAE-eaemoQtQsQ2H8Q=", "properties": {"@spider": "usps_collection_boxes", "addr:city": "HURON", "addr:country": "US", "addr:full": "2150 DAKOTA AVE S", "addr:postcode": "57350", "addr:state": "SD", "amenity": "post_box", "brand": "United States Postal Service", "brand:wikidata": "Q668687", "collection_times": "Mo-Sa 12:00", "name": "USPS COLLECTION BOX - BLUE BOX", "nsi_id": "unitedstatespostalservice-a77078", "operator": "United States Postal Service", "operator:short": "USPS", "operator:type": "public", "operator:wikidata": "Q668687", "ref": "5735000025"}, "type": "Feature"}
{"dataset_attributes": {"@spider": "usps_collection_boxes", "spider:collection_time": "2023-08-25T08:24:09.950024"}, "geometry": {"coordinates": [-98.214062665, 44.367346549], "type": "Point"}, "id": "9uuFX2whzHI90hG41aqsRHd0s9g=", "properties": {"@spider": "usps_collection_boxes", "addr:city": "HURON", "addr:country": "US", "addr:full": "102 DAKOTA AVE N", "addr:postcode": "57350", "addr:state": "SD", "amenity": "post_box", "brand": "United States Postal Service", "brand:wikidata": "Q668687", "collection_times": "Mo-Fr 11:00; Sa 10:30", "name": "USPS COLLECTION BOX - BLUE BOX", "nsi_id": "unitedstatespostalservice-a77078", "operator": "United States Postal Service", "operator:short": "USPS", "operator:type": "public", "operator:wikidata": "Q668687", "ref": "5735000026"}, "type": "Feature"}
{"dataset_attributes": {"@spider": "usps_collection_boxes", "spider:collection_time": "2023-08-25T08:24:09.950024"}, "geometry": {"coordinates": [-97.8492491011, 44.3670580012], "type": "Point"}, "id": "fSHwkD6mYNPlTbs2XuLmxminuaE=", "properties": {"@spider": "usps_collection_boxes", "addr:city": "IROQUOIS", "addr:country": "US", "addr:full": "199 S OTTOWA ST", "addr:postcode": "57353", "addr:state": "SD", "amenity": "post_box", "brand": "United States Postal Service", "brand:wikidata": "Q668687", "collection_times": "Mo-Sa 16:00", "name": "USPS COLLECTION BOX - BLUE BOX", "note": "ON 12/24 AND 12/31, THIS BOX MAY BE COLLECTED AS EARLY AS 12 NOON.", "nsi_id": "unitedstatespostalservice-a77078", "operator": "United States Postal Service", "operator:short": "USPS", "operator:type": "public", "operator:wikidata": "Q668687", "ref": "5735300001"}, "type": "Feature"}
{"dataset_attributes": {"@spider": "usps_collection_boxes", "spider:collection_time": "2023-08-25T08:24:09.950024"}, "geometry": {"coordinates": [-97.849226476, 44.367052187], "type": "Point"}, "id": "20igCfO5kkHzYBHv_3QBqo9B9Lw=", "properties": {"@spider": "usps_collection_boxes", "addr:city": "IROQUOIS", "addr:country": "US", "addr:full": "199 S OTTOWA ST", "addr:postcode": "57353", "addr:state": "SD", "amenity": "post_box", "brand": "United States Postal Service", "brand:wikidata": "Q668687", "collection_times": "Mo-Fr 11:30; Sa 08:45", "name": "USPS COLLECTION BOX - PO LOBBY", "nsi_id": "unitedstatespostalservice-a77078", "operator": "United States Postal Service", "operator:short": "USPS", "operator:type": "public", "operator:wikidata": "Q668687", "ref": "5735300002"}, "type": "Feature"}
{"dataset_attributes": {"@spider": "usps_collection_boxes", "spider:collection_time": "2023-08-25T08:24:09.950024"}, "geometry": {"coordinates": [-97.838505317, 43.187258923], "type": "Point"}, "id": "mXqCJNgQmInnnsy72SzgAlFjzjg=", "properties": {"@spider": "usps_collection_boxes", "addr:city": "KAYLOR", "addr:country": "US", "addr:full": "105 MAIN ST", "addr:postcode": "57354", "addr:state": "SD", "amenity": "post_box", "brand": "United States Postal Service", "brand:wikidata": "Q668687", "collection_times": "Mo-Sa 14:15", "name": "USPS COLLECTION BOX - BLUE BOX", "note": "ON 12/24 AND 12/31, THIS BOX MAY BE COLLECTED AS EARLY AS 12 NOON.", "nsi_id": "unitedstatespostalservice-a77078", "operator": "United States Postal Service", "operator:short": "USPS", "operator:type": "public", "operator:wikidata": "Q668687", "ref": "5735400001"}, "type": "Feature"}
{"dataset_attributes": {"@spider": "usps_collection_boxes", "spider:collection_time": "2023-08-25T08:24:09.950024"}, "geometry": {"coordinates": [-97.838505317, 43.187258923], "type": "Point"}, "id": "8CSdlysehJF4YsVjSBwHsURSnWI=", "properties": {"@spider": "usps_collection_boxes", "addr:city": "KAYLOR", "addr:country": "US", "addr:full": "105 MAIN ST", "addr:postcode": "57354", "addr:state": "SD", "amenity": "post_box", "brand": "United States Postal Service", "brand:wikidata": "Q668687", "collection_times": "Mo-Fr 14:15; Sa 11:30", "name": "USPS COLLECTION BOX - PO LOBBY", "note": "ON 12/24 AND 12/31, THIS BOX MAY BE COLLECTED AS EARLY AS 12 NOON.", "nsi_id": "unitedstatespostalservice-a77078", "operator": "United States Postal Service", "operator:short": "USPS", "operator:type": "public", "operator:wikidata": "Q668687", "ref": "5735400002"}, "type": "Feature"}
{"dataset_attributes": {"@spider": "usps_collection_boxes", "spider:collection_time": "2023-08-25T08:24:09.950024"}, "geometry": {"coordinates": [-98.958064172, 43.746340786], "type": "Point"}, "id": "uq0lle6renjbiwkE0v5pOlDlgHM=", "properties": {"@spider": "usps_collection_boxes", "addr:city": "KIMBALL", "addr:country": "US", "addr:full": "212 S MAIN ST", "addr:postcode": "57355", "addr:state": "SD", "amenity": "post_box", "brand": "United States Postal Service", "brand:wikidata": "Q668687", "collection_times": "Mo-Sa 12:45", "name": "USPS COLLECTION BOX - BLUE BOX", "note": "ON 12/24 AND 12/31, THIS BOX MAY BE COLLECTED AS EARLY AS 12 NOON.", "nsi_id": "unitedstatespostalservice-a77078", "operator": "United States Postal Service", "operator:short": "USPS", "operator:type": "public", "operator:wikidata": "Q668687", "ref": "5735500001"}, "type": "Feature"}
{"dataset_attributes": {"@spider": "usps_collection_boxes", "spider:collection_time": "2023-08-25T08:24:09.950024"}, "geometry": {"coordinates": [-98.958064172, 43.746340786], "type": "Point"}, "id": "P23QEUf6w2zIx4ahmqD2d3YLT2Y=", "properties": {"@spider": "usps_collection_boxes", "addr:city": "KIMBALL", "addr:country": "US", "addr:full": "212 S MAIN ST", "addr:postcode": "57355", "addr:state": "SD", "amenity": "post_box", "brand": "United States Postal Service", "brand:wikidata": "Q668687", "collection_times": "Mo-Fr 12:45; Sa 09:45", "name": "USPS COLLECTION BOX - PO LOBBY", "note": "ON 12/24 AND 12/31, THIS BOX MAY BE COLLECTED AS EARLY AS 12 NOON.", "nsi_id": "unitedstatespostalservice-a77078", "operator": "United States Postal Service", "operator:short": "USPS", "operator:type": "public", "operator:wikidata": "Q668687", "ref": "5735500002"}, "type": "Feature"}
{"dataset_attributes": {"@spider": "usps_collection_boxes", "spider:collection_time": "2023-08-25T08:24:09.950024"}, "geometry": {"coordinates": [-98.539011555, 43.1562405], "type": "Point"}, "id": "GyXvyq7tnk2rGkIZf6QGJeNNH7o=", "properties": {"@spider": "usps_collection_boxes", "addr:city": "LAKE ANDES", "addr:country": "US", "addr:full": "499 MAIN ST", "addr:postcode": "57356", "addr:state": "SD", "amenity": "post_box", "brand": "United States Postal Service", "brand:wikidata": "Q668687", "collection_times": "Mo-Sa 13:00", "name": "USPS COLLECTION BOX - BLUE BOX", "note": "ON 12/24 AND 12/31, THIS BOX MAY BE COLLECTED AS EARLY AS 12 NOON.", "nsi_id": "unitedstatespostalservice-a77078", "operator": "United States Postal Service", "operator:short": "USPS", "operator:type": "public", "operator:wikidata": "Q668687", "ref": "5735600001"}, "type": "Feature"}
{"dataset_attributes": {"@spider": "usps_collection_boxes", "spider:collection_time": "2023-08-25T08:24:09.950024"}, "geometry": {"coordinates": [-98.539011555, 43.1562405], "type": "Point"}, "id": "jQbKCFGbeuNK01vvH4Sni_cypBA=", "properties": {"@spider": "usps_collection_boxes", "addr:city": "LAKE ANDES", "addr:country": "US", "addr:full": "499 MAIN ST", "addr:postcode": "57356", "addr:state": "SD", "amenity": "post_box", "brand": "United States Postal Service", "brand:wikidata": "Q668687", "collection_times": "Mo-Fr 13:00; Sa 10:00", "name": "USPS COLLECTION BOX - PO LOBBY", "note": "ON 12/24 AND 12/31, THIS BOX MAY BE COLLECTED AS EARLY AS 12 NOON.", "nsi_id": "unitedstatespostalservice-a77078", "operator": "United States Postal Service", "operator:short": "USPS", "operator:type": "public", "operator:wikidata": "Q668687", "ref": "5735600002"}, "type": "Feature"}
{"dataset_attributes": {"@spider": "usps_collection_boxes", "spider:collection_time": "2023-08-25T08:24:09.950024"}, "geometry": {"coordinates": [-98.138715385, 43.898185703], "type": "Point"}, "id": "zeElyjMvm-gzwgoyix2eSXgydW0=", "properties": {"@spider": "usps_collection_boxes", "addr:city": "LETCHER", "addr:country": "US", "addr:full": "119 E MAIN ST", "addr:postcode": "57359", "addr:state": "SD", "amenity": "post_box", "brand": "United States Postal Service", "brand:wikidata": "Q668687", "collection_times": "Mo-Sa 15:15", "name": "USPS COLLECTION BOX - BLUE BOX", "note": "ON 12/24 AND 12/31, THIS BOX MAY BE COLLECTED AS EARLY AS 12 NOON.", "nsi_id": "unitedstatespostalservice-a77078", "operator": "United States Postal Service", "operator:short": "USPS", "operator:type": "public", "operator:wikidata": "Q668687", "ref": "5735900001"}, "type": "Feature"}
{"dataset_attributes": {"@spider": "usps_collection_boxes", "spider:collection_time": "2023-08-25T08:24:09.950024"}, "geometry": {"coordinates": [-98.138715385, 43.898185703], "type": "Point"}, "id": "4czWhDoorUhQ6hrtedJHwXFV9nA=", "properties": {"@spider": "usps_collection_boxes", "addr:city": "LETCHER", "addr:country": "US", "addr:full": "119 E MAIN ST", "addr:postcode": "57359", "addr:state": "SD", "amenity": "post_box", "brand": "United States Postal Service", "brand:wikidata": "Q668687", "collection_times": "Mo-Fr 12:00; Sa 09:30", "name": "USPS COLLECTION BOX - PO LOBBY", "nsi_id": "unitedstatespostalservice-a77078", "operator": "United States Postal Service", "operator:short": "USPS", "operator:type": "public", "operator:wikidata": "Q668687", "ref": "5735900002"}, "type": "Feature"}
{"dataset_attributes": {"@spider": "usps_collection_boxes", "spider:collection_time": "2023-08-25T08:24:09.950024"}, "geometry": {"coordinates": [-98.1387135904, 43.8982127571], "type": "Point"}, "id": "m-TZ_lAhJPmwc1P4Zqt_2FN5WD8=", "properties": {"@spider": "usps_collection_boxes", "addr:city": "LETCHER", "addr:country": "US", "addr:full": "119 E MAIN ST", "addr:postcode": "57359", "addr:state": "SD", "amenity": "post_box", "brand": "United States Postal Service", "brand:wikidata": "Q668687", "collection_times": "Mo-Fr 12:00; Sa 09:30", "name": "USPS COLLECTION BOX - PO LOBBY", "nsi_id": "unitedstatespostalservice-a77078", "operator": "United States Postal Service", "operator:short": "USPS", "operator:type": "public", "operator:wikidata": "Q668687", "ref": "5735900004"}, "type": "Feature"}
{"dataset_attributes": {"@spider": "usps_collection_boxes", "spider:collection_time": "2023-08-25T08:24:09.950024"}, "geometry": {"coordinates": [-98.988593667, 44.518496056], "type": "Point"}, "id": "4lFVTK27mNfB1PiIqIdlS43JkEM=", "properties": {"@spider": "usps_collection_boxes", "addr:city": "MILLER", "addr:country": "US", "addr:full": "320 N BROADWAY AVE", "addr:postcode": "57362", "addr:state": "SD", "amenity": "post_box", "brand": "United States Postal Service", "brand:wikidata": "Q668687", "collection_times": "Mo-Fr 16:15; Sa 16:30", "name": "USPS COLLECTION BOX - BLUE BOX", "note": "ON 12/24 AND 12/31, THIS BOX MAY BE COLLECTED AS EARLY AS 12 NOON.", "nsi_id": "unitedstatespostalservice-a77078", "operator": "United States Postal Service", "operator:short": "USPS", "operator:type": "public", "operator:wikidata": "Q668687", "ref": "5736200002"}, "type": "Feature"}
{"dataset_attributes": {"@spider": "usps_collection_boxes", "spider:collection_time": "2023-08-25T08:24:09.950024"}, "geometry": {"coordinates": [-98.988593667, 44.518496056], "type": "Point"}, "id": "FBAdRD45E6y0bdBsy465PBr1s0o=", "properties": {"@spider": "usps_collection_boxes", "addr:city": "MILLER", "addr:country": "US", "addr:full": "320 N BROADWAY AVE", "addr:postcode": "57362", "addr:state": "SD", "amenity": "post_box", "brand": "United States Postal Service", "brand:wikidata": "Q668687", "collection_times": "Mo-Fr 16:00; Sa 10:00", "name": "USPS COLLECTION BOX - PO LOBBY", "note": "ON 12/24 AND 12/31, THIS BOX MAY BE COLLECTED AS EARLY AS 12 NOON.", "nsi_id": "unitedstatespostalservice-a77078", "operator": "United States Postal Service", "operator:short": "USPS", "operator:type": "public", "operator:wikidata": "Q668687", "ref": "5736200006"}, "type": "Feature"}
{"dataset_attributes": {"@spider": "usps_collection_boxes", "spider:collection_time": "2023-08-25T08:24:09.950024"}, "geometry": {"coordinates": [-98.2606499967, 43.709922], "type": "Point"}, "id": "MN7bFr6Vs9ZExagGB6SVRNKjpts=", "properties": {"@spider": "usps_collection_boxes", "addr:city": "MOUNT VERNON", "addr:country": "US", "addr:full": "115 S MAIN ST", "addr:postcode": "57363", "addr:state": "SD", "amenity": "post_box", "brand": "United States Postal Service", "brand:wikidata": "Q668687", "collection_times": "Mo-Sa 15:30", "name": "USPS COLLECTION BOX - BLUE BOX", "note": "ON 12/24 AND 12/31, THIS BOX MAY BE COLLECTED AS EARLY AS 12 NOON.", "nsi_id": "unitedstatespostalservice-a77078", "operator": "United States Postal Service", "operator:short": "USPS", "operator:type": "public", "operator:wikidata": "Q668687", "ref": "5736300001"}, "type": "Feature"}
{"dataset_attributes": {"@spider": "usps_collection_boxes", "spider:collection_time": "2023-08-25T08:24:09.950024"}, "geometry": {"coordinates": [-98.2606499967, 43.709922], "type": "Point"}, "id": "X5xblaEOUTG2e22uSBnzP4sypxU=", "properties": {"@spider": "usps_collection_boxes", "addr:city": "MOUNT VERNON", "addr:country": "US", "addr:full": "115 S MAIN ST", "addr:postcode": "57363", "addr:state": "SD", "amenity": "post_box", "brand": "United States Postal Service", "brand:wikidata": "Q668687", "collection_times": "Mo-Fr 11:00; Sa 09:00", "name": "USPS COLLECTION BOX - PO LOBBY", "nsi_id": "unitedstatespostalservice-a77078", "operator": "United States Postal Service", "operator:short": "USPS", "operator:type": "public", "operator:wikidata": "Q668687", "ref": "5736300003"}, "type": "Feature"}
{"dataset_attributes": {"@spider": "usps_collection_boxes", "spider:collection_time": "2023-08-25T08:24:09.950024"}, "geometry": {"coordinates": [-98.2610800109, 43.7099200132], "type": "Point"}, "id": "ychX76KTl_oLViOAxWC6vWDhIDo=", "properties": {"@spider": "usps_collection_boxes", "addr:city": "MOUNT VERNON", "addr:country": "US", "addr:full": "115 S MAIN ST", "addr:postcode": "57363", "addr:state": "SD", "amenity": "post_box", "brand": "United States Postal Service", "brand:wikidata": "Q668687", "collection_times": "Mo-Fr 11:00; Sa 09:00", "name": "USPS COLLECTION BOX - PO LOBBY", "nsi_id": "unitedstatespostalservice-a77078", "operator": "United States Postal Service", "operator:short": "USPS", "operator:type": "public", "operator:wikidata": "Q668687", "ref": "5736300005"}, "type": "Feature"}
{"dataset_attributes": {"@spider": "usps_collection_boxes", "spider:collection_time": "2023-08-25T08:24:09.950024"}, "geometry": {"coordinates": [-98.6063000088, 43.4275779936], "type": "Point"}, "id": "HgXuSNntrxvpsnB46kbaiQkSi54=", "properties": {"@spider": "usps_collection_boxes", "addr:city": "NEW HOLLAND", "addr:country": "US", "addr:full": "208 E MAIN ST", "addr:postcode": "57364", "addr:state": "SD", "amenity": "post_box", "brand": "United States Postal Service", "brand:wikidata": "Q668687", "collection_times": "Mo-Sa 09:45", "name": "USPS COLLECTION BOX - BLUE BOX", "nsi_id": "unitedstatespostalservice-a77078", "operator": "United States Postal Service", "operator:short": "USPS", "operator:type": "public", "operator:wikidata": "Q668687", "ref": "5736400001"}, "type": "Feature"}
{"dataset_attributes": {"@spider": "usps_collection_boxes", "spider:collection_time": "2023-08-25T08:24:09.950024"}, "geometry": {"coordinates": [-98.60643213, 43.427720107], "type": "Point"}, "id": "bT6VGeN8hXf8EEmjD3wfUJvrYHY=", "properties": {"@spider": "usps_collection_boxes", "addr:city": "NEW HOLLAND", "addr:country": "US", "addr:full": "208 E MAIN ST", "addr:postcode": "57364", "addr:state": "SD", "amenity": "post_box", "brand": "United States Postal Service", "brand:wikidata": "Q668687", "collection_times": "Mo-Sa 09:45", "name": "USPS COLLECTION BOX - PO LOBBY", "nsi_id": "unitedstatespostalservice-a77078", "operator": "United States Postal Service", "operator:short": "USPS", "operator:type": "public", "operator:wikidata": "Q668687", "ref": "5736400002"}, "type": "Feature"}
{"dataset_attributes": {"@spider": "usps_collection_boxes", "spider:collection_time": "2023-08-25T08:24:09.950024"}, "geometry": {"coordinates": [-99.395615665, 43.797952835], "type": "Point"}, "id": "qeZ5lzaZkY3kXMrqrbisjux0Ens=", "properties": {"@spider": "usps_collection_boxes", "addr:city": "OACOMA", "addr:country": "US", "addr:full": "101 W 2ND ST", "addr:postcode": "57365", "addr:state": "SD", "amenity": "post_box", "brand": "United States Postal Service", "brand:wikidata": "Q668687", "collection_times": "Mo-Sa 13:30", "name": "USPS COLLECTION BOX - BLUE BOX", "note": "ON 12/24 AND 12/31, THIS BOX MAY BE COLLECTED AS EARLY AS 12 NOON.", "nsi_id": "unitedstatespostalservice-a77078", "operator": "United States Postal Service", "operator:short": "USPS", "operator:type": "public", "operator:wikidata": "Q668687", "ref": "5736500001"}, "type": "Feature"}
{"dataset_attributes": {"@spider": "usps_collection_boxes", "spider:collection_time": "2023-08-25T08:24:09.950024"}, "geometry": {"coordinates": [-99.395615665, 43.797952835], "type": "Point"}, "id": "9e8hTb5Z1arjdh7dJrbu1Dj7MLM=", "properties": {"@spider": "usps_collection_boxes", "addr:city": "OACOMA", "addr:country": "US", "addr:full": "101 W 2ND ST", "addr:postcode": "57365", "addr:state": "SD", "amenity": "post_box", "brand": "United States Postal Service", "brand:wikidata": "Q668687", "collection_times": "Mo-Fr 13:30", "name": "USPS COLLECTION BOX - PO LOBBY", "note": "ON 12/24 AND 12/31, THIS BOX MAY BE COLLECTED AS EARLY AS 12 NOON.", "nsi_id": "unitedstatespostalservice-a77078", "operator": "United States Postal Service", "operator:short": "USPS", "operator:type": "public", "operator:wikidata": "Q668687", "ref": "5736500002"}, "type": "Feature"}
{"dataset_attributes": {"@spider": "usps_collection_boxes", "spider:collection_time": "2023-08-25T08:24:09.950024"}, "geometry": {"coordinates": [-99.382881945, 43.802642458], "type": "Point"}, "id": "LttD-TmlSgq5_1d18oz0TIRwGAk=", "properties": {"@spider": "usps_collection_boxes", "addr:city": "OACOMA", "addr:country": "US", "addr:full": "1000 E SD HIGHWAY 16", "addr:postcode": "57365", "addr:state": "SD", "amenity": "post_box", "brand": "United States Postal Service", "brand:wikidata": "Q668687", "collection_times": "Mo-Sa 13:00", "name": "USPS COLLECTION BOX - BLUE BOX", "note": "ON 12/24 AND 12/31, THIS BOX MAY BE COLLECTED AS EARLY AS 12 NOON.", "nsi_id": "unitedstatespostalservice-a77078", "operator": "United States Postal Service", "operator:short": "USPS", "operator:type": "public", "operator:wikidata": "Q668687", "ref": "5736500004"}, "type": "Feature"}
{"dataset_attributes": {"@spider": "usps_collection_boxes", "spider:collection_time": "2023-08-25T08:24:09.950024"}, "geometry": {"coordinates": [-97.985989343, 43.395596665], "type": "Point"}, "id": "XG35ykhxuQOXhQ_5QiNQlX2Jxog=", "properties": {"@spider": "usps_collection_boxes", "addr:city": "PARKSTON", "addr:country": "US", "addr:full": "111 N 1ST ST", "addr:postcode": "57366", "addr:state": "SD", "amenity": "post_box", "brand": "United States Postal Service", "brand:wikidata": "Q668687", "collection_times": "Mo-Sa 15:45", "name": "USPS COLLECTION BOX - BLUE BOX", "note": "ON 12/24 AND 12/31, THIS BOX MAY BE COLLECTED AS EARLY AS 12 NOON.", "nsi_id": "unitedstatespostalservice-a77078", "operator": "United States Postal Service", "operator:short": "USPS", "operator:type": "public", "operator:wikidata": "Q668687", "ref": "5736600001"}, "type": "Feature"}
{"dataset_attributes": {"@spider": "usps_collection_boxes", "spider:collection_time": "2023-08-25T08:24:09.950024"}, "geometry": {"coordinates": [-97.985989343, 43.395596665], "type": "Point"}, "id": "Q_AvGz9uZm8-c6cvvZ-gNyouxa4=", "properties": {"@spider": "usps_collection_boxes", "addr:city": "PARKSTON", "addr:country": "US", "addr:full": "111 N 1ST ST", "addr:postcode": "57366", "addr:state": "SD", "amenity": "post_box", "brand": "United States Postal Service", "brand:wikidata": "Q668687", "collection_times": "Mo-Fr 15:45; Sa 10:00", "name": "USPS COLLECTION BOX - PO LOBBY", "note": "ON 12/24 AND 12/31, THIS BOX MAY BE COLLECTED AS EARLY AS 12 NOON.", "nsi_id": "unitedstatespostalservice-a77078", "operator": "United States Postal Service", "operator:short": "USPS", "operator:type": "public", "operator:wikidata": "Q668687", "ref": "5736600003"}, "type": "Feature"}
{"dataset_attributes": {"@spider": "usps_collection_boxes", "spider:collection_time": "2023-08-25T08:24:09.950024"}, "geometry": {"coordinates": [-98.532037683, 43.069081527], "type": "Point"}, "id": "O0UIKIaD8BsdSGp4gpWiNBWwFFE=", "properties": {"@spider": "usps_collection_boxes", "addr:city": "PICKSTOWN", "addr:country": "US", "addr:full": "106 LEWIS AVE", "addr:postcode": "57367", "addr:state": "SD", "amenity": "post_box", "brand": "United States Postal Service", "brand:wikidata": "Q668687", "collection_times": "Mo-Sa 12:30", "name": "USPS COLLECTION BOX - BLUE BOX", "note": "ON 12/24 AND 12/31, THIS BOX MAY BE COLLECTED AS EARLY AS 12 NOON.", "nsi_id": "unitedstatespostalservice-a77078", "operator": "United States Postal Service", "operator:short": "USPS", "operator:type": "public", "operator:wikidata": "Q668687", "ref": "5736700001"}, "type": "Feature"}
{"dataset_attributes": {"@spider": "usps_collection_boxes", "spider:collection_time": "2023-08-25T08:24:09.950024"}, "geometry": {"coordinates": [-98.532037683, 43.069081527], "type": "Point"}, "id": "jMLnIZsbTdcsAqzmpKkl5q0zSPE=", "properties": {"@spider": "usps_collection_boxes", "addr:city": "PICKSTOWN", "addr:country": "US", "addr:full": "106 LEWIS AVE", "addr:postcode": "57367", "addr:state": "SD", "amenity": "post_box", "brand": "United States Postal Service", "brand:wikidata": "Q668687", "collection_times": "Mo-Fr 11:30; Sa 09:30", "name": "USPS COLLECTION BOX - PO LOBBY", "nsi_id": "unitedstatespostalservice-a77078", "operator": "United States Postal Service", "operator:short": "USPS", "operator:type": "public", "operator:wikidata": "Q668687", "ref": "5736700002"}, "type": "Feature"}
{"dataset_attributes": {"@spider": "usps_collection_boxes", "spider:collection_time": "2023-08-25T08:24:09.950024"}, "geometry": {"coordinates": [-98.485105131, 43.71574346], "type": "Point"}, "id": "zT6Bq5f2-AVqGRKW2PFfWIF1vOU=", "properties": {"@spider": "usps_collection_boxes", "addr:city": "PLANKINTON", "addr:country": "US", "addr:full": "208 N MAIN ST", "addr:postcode": "57368", "addr:state": "SD", "amenity": "post_box", "brand": "United States Postal Service", "brand:wikidata": "Q668687", "collection_times": "Mo-Sa 15:00", "name": "USPS COLLECTION BOX - BLUE BOX", "note": "ON 12/24 AND 12/31, THIS BOX MAY BE COLLECTED AS EARLY AS 12 NOON.", "nsi_id": "unitedstatespostalservice-a77078", "operator": "United States Postal Service", "operator:short": "USPS", "operator:type": "public", "operator:wikidata": "Q668687", "ref": "5736800002"}, "type": "Feature"}
{"dataset_attributes": {"@spider": "usps_collection_boxes", "spider:collection_time": "2023-08-25T08:24:09.950024"}, "geometry": {"coordinates": [-98.485105131, 43.71574346], "type": "Point"}, "id": "cMdOmL5eVi4ZoWcOMwOLDkGpgTg=", "properties": {"@spider": "usps_collection_boxes", "addr:city": "PLANKINTON", "addr:country": "US", "addr:full": "208 N MAIN ST", "addr:postcode": "57368", "addr:state": "SD", "amenity": "post_box", "brand": "United States Postal Service", "brand:wikidata": "Q668687", "collection_times": "Mo-Fr 15:00; Sa 09:15", "name": "USPS COLLECTION BOX - PO LOBBY", "note": "ON 12/24 AND 12/31, THIS BOX MAY BE COLLECTED AS EARLY AS 12 NOON.", "nsi_id": "unitedstatespostalservice-a77078", "operator": "United States Postal Service", "operator:short": "USPS", "operator:type": "public", "operator:wikidata": "Q668687", "ref": "5736800003"}, "type": "Feature"}
{"dataset_attributes": {"@spider": "usps_collection_boxes", "spider:collection_time": "2023-08-25T08:24:09.950024"}, "geometry": {"coordinates": [-98.8437735, 43.3861485], "type": "Point"}, "id": "5DR-GEPrh2VvMxD-YXcSS23YWQI=", "properties": {"@spider": "usps_collection_boxes", "addr:city": "PLATTE", "addr:country": "US", "addr:full": "20 E 5TH ST", "addr:postcode": "57369", "addr:state": "SD", "amenity": "post_box", "brand": "United States Postal Service", "brand:wikidata": "Q668687", "collection_times": "Mo-Sa 13:45", "name": "USPS COLLECTION BOX - BLUE BOX", "note": "ON 12/24 AND 12/31, THIS BOX MAY BE COLLECTED AS EARLY AS 12 NOON.", "nsi_id": "unitedstatespostalservice-a77078", "operator": "United States Postal Service", "operator:short": "USPS", "operator:type": "public", "operator:wikidata": "Q668687", "ref": "5736900002"}, "type": "Feature"}
{"dataset_attributes": {"@spider": "usps_collection_boxes", "spider:collection_time": "2023-08-25T08:24:09.950024"}, "geometry": {"coordinates": [-98.8437735, 43.3861485], "type": "Point"}, "id": "cIfgIucy3sP4F9yEZq4Ax9aFmQE=", "properties": {"@spider": "usps_collection_boxes", "addr:city": "PLATTE", "addr:country": "US", "addr:full": "20 E 5TH ST", "addr:postcode": "57369", "addr:state": "SD", "amenity": "post_box", "brand": "United States Postal Service", "brand:wikidata": "Q668687", "collection_times": "Mo-Sa 13:45", "name": "USPS COLLECTION BOX - BLUE BOX", "note": "ON 12/24 AND 12/31, THIS BOX MAY BE COLLECTED AS EARLY AS 12 NOON.", "nsi_id": "unitedstatespostalservice-a77078", "operator": "United States Postal Service", "operator:short": "USPS", "operator:type": "public", "operator:wikidata": "Q668687", "ref": "5736900003"}, "type": "Feature"}
{"dataset_attributes": {"@spider": "usps_collection_boxes", "spider:collection_time": "2023-08-25T08:24:09.950024"}, "geometry": {"coordinates": [-98.8437735, 43.3861485], "type": "Point"}, "id": "29ehTV5rD6ge7s25TKN-4Amjq7k=", "properties": {"@spider": "usps_collection_boxes", "addr:city": "PLATTE", "addr:country": "US", "addr:full": "20 E 5TH ST", "addr:postcode": "57369", "addr:state": "SD", "amenity": "post_box", "brand": "United States Postal Service", "brand:wikidata": "Q668687", "collection_times": "Mo-Fr 13:45; Sa 11:00", "name": "USPS COLLECTION BOX - PO LOBBY", "note": "ON 12/24 AND 12/31, THIS BOX MAY BE COLLECTED AS EARLY AS 12 NOON.", "nsi_id": "unitedstatespostalservice-a77078", "operator": "United States Postal Service", "operator:short": "USPS", "operator:type": "public", "operator:wikidata": "Q668687", "ref": "5736900004"}, "type": "Feature"}
{"dataset_attributes": {"@spider": "usps_collection_boxes", "spider:collection_time": "2023-08-25T08:24:09.950024"}, "geometry": {"coordinates": [-99.180883327, 43.781314489], "type": "Point"}, "id": "pPw1VDDTnUFuO8gYhmXzJKI9EdA=", "properties": {"@spider": "usps_collection_boxes", "addr:city": "PUKWANA", "addr:country": "US", "addr:full": "206 MAIN ST", "addr:postcode": "57370", "addr:state": "SD", "amenity": "post_box", "brand": "United States Postal Service", "brand:wikidata": "Q668687", "collection_times": "Mo-Sa 13:00", "name": "USPS COLLECTION BOX - BLUE BOX", "note": "ON 12/24 AND 12/31, THIS BOX MAY BE COLLECTED AS EARLY AS 12 NOON.", "nsi_id": "unitedstatespostalservice-a77078", "operator": "United States Postal Service", "operator:short": "USPS", "operator:type": "public", "operator:wikidata": "Q668687", "ref": "5737000000"}, "type": "Feature"}
{"dataset_attributes": {"@spider": "usps_collection_boxes", "spider:collection_time": "2023-08-25T08:24:09.950024"}, "geometry": {"coordinates": [-99.180883327, 43.781314489], "type": "Point"}, "id": "KACkRAqDMHdmjhv3t1BwEoGLwoc=", "properties": {"@spider": "usps_collection_boxes", "addr:city": "PUKWANA", "addr:country": "US", "addr:full": "206 MAIN ST", "addr:postcode": "57370", "addr:state": "SD", "amenity": "post_box", "brand": "United States Postal Service", "brand:wikidata": "Q668687", "collection_times": "Mo-Fr 11:30; Sa 09:15", "name": "USPS COLLECTION BOX - PO LOBBY", "nsi_id": "unitedstatespostalservice-a77078", "operator": "United States Postal Service", "operator:short": "USPS", "operator:type": "public", "operator:wikidata": "Q668687", "ref": "5737000001"}, "type": "Feature"}
{"dataset_attributes": {"@spider": "usps_collection_boxes", "spider:collection_time": "2023-08-25T08:24:09.950024"}, "geometry": {"coordinates": [-99.200361381, 44.518664128], "type": "Point"}, "id": "-TkKMlnwLQ_alglm4WnF5Naui0A=", "properties": {"@spider": "usps_collection_boxes", "addr:city": "REE HEIGHTS", "addr:country": "US", "addr:full": "108 DAKOTA AVE S", "addr:postcode": "57371", "addr:state": "SD", "amenity": "post_box", "brand": "United States Postal Service", "brand:wikidata": "Q668687", "collection_times": "Mo-Sa 16:15", "name": "USPS COLLECTION BOX - BLUE BOX", "note": "ON 12/24 AND 12/31, THIS BOX MAY BE COLLECTED AS EARLY AS 12 NOON.", "nsi_id": "unitedstatespostalservice-a77078", "operator": "United States Postal Service", "operator:short": "USPS", "operator:type": "public", "operator:wikidata": "Q668687", "ref": "5737100001"}, "type": "Feature"}
{"dataset_attributes": {"@spider": "usps_collection_boxes", "spider:collection_time": "2023-08-25T08:24:09.950024"}, "geometry": {"coordinates": [-99.200361381, 44.518664128], "type": "Point"}, "id": "ukY2zI2nZcAPSVWBrfPDiZQXxSA=", "properties": {"@spider": "usps_collection_boxes", "addr:city": "REE HEIGHTS", "addr:country": "US", "addr:full": "108 DAKOTA AVE S", "addr:postcode": "57371", "addr:state": "SD", "amenity": "post_box", "brand": "United States Postal Service", "brand:wikidata": "Q668687", "collection_times": "Mo-Sa 11:15", "name": "USPS COLLECTION BOX - PO LOBBY", "nsi_id": "unitedstatespostalservice-a77078", "operator": "United States Postal Service", "operator:short": "USPS", "operator:type": "public", "operator:wikidata": "Q668687", "ref": "5737100002"}, "type": "Feature"}
{"dataset_attributes": {"@spider": "usps_collection_boxes", "spider:collection_time": "2023-08-25T08:24:09.950024"}, "geometry": {"coordinates": [-98.938119333, 44.516487333], "type": "Point"}, "id": "vixko2I2Bq18uj3_NwlYiHCVDcM=", "properties": {"@spider": "usps_collection_boxes", "addr:city": "ST LAWRENCE", "addr:country": "US", "addr:full": "201 N COMMERCIAL AVE", "addr:postcode": "57373", "addr:state": "SD", "amenity": "post_box", "brand": "United States Postal Service", "brand:wikidata": "Q668687", "collection_times": "Mo-Fr 17:00; Sa 16:45", "name": "USPS COLLECTION BOX - BLUE BOX", "note": "ON 12/24 AND 12/31, THIS BOX MAY BE COLLECTED AS EARLY AS 12 NOON.", "nsi_id": "unitedstatespostalservice-a77078", "operator": "United States Postal Service", "operator:short": "USPS", "operator:type": "public", "operator:wikidata": "Q668687", "ref": "5737300001"}, "type": "Feature"}
{"dataset_attributes": {"@spider": "usps_collection_boxes", "spider:collection_time": "2023-08-25T08:24:09.950024"}, "geometry": {"coordinates": [-98.938119333, 44.516487333], "type": "Point"}, "id": "hreYFP5FW1YGMiq0VsU2Gk57MgY=", "properties": {"@spider": "usps_collection_boxes", "addr:city": "ST LAWRENCE", "addr:country": "US", "addr:full": "201 N COMMERCIAL AVE", "addr:postcode": "57373", "addr:state": "SD", "amenity": "post_box", "brand": "United States Postal Service", "brand:wikidata": "Q668687", "collection_times": "Mo-Fr 17:00; Sa 09:50", "name": "USPS COLLECTION BOX - PO LOBBY", "note": "ON 12/24 AND 12/31, THIS BOX MAY BE COLLECTED AS EARLY AS 12 NOON.", "nsi_id": "unitedstatespostalservice-a77078", "operator": "United States Postal Service", "operator:short": "USPS", "operator:type": "public", "operator:wikidata": "Q668687", "ref": "5737300002"}, "type": "Feature"}
{"dataset_attributes": {"@spider": "usps_collection_boxes", "spider:collection_time": "2023-08-25T08:24:09.950024"}, "geometry": {"coordinates": [-97.594023507, 43.72591609], "type": "Point"}, "id": "6OiJfmFMwLzsPSbd5z166ZqriDk=", "properties": {"@spider": "usps_collection_boxes", "addr:city": "SPENCER", "addr:country": "US", "addr:full": "306 MAIN ST", "addr:postcode": "57374", "addr:state": "SD", "amenity": "post_box", "brand": "United States Postal Service", "brand:wikidata": "Q668687", "collection_times": "Mo-Sa 16:00", "name": "USPS COLLECTION BOX - BLUE BOX", "note": "ON 12/24 AND 12/31, THIS BOX MAY BE COLLECTED AS EARLY AS 12 NOON.", "nsi_id": "unitedstatespostalservice-a77078", "operator": "United States Postal Service", "operator:short": "USPS", "operator:type": "public", "operator:wikidata": "Q668687", "ref": "5737400000"}, "type": "Feature"}
{"dataset_attributes": {"@spider": "usps_collection_boxes", "spider:collection_time": "2023-08-25T08:24:09.950024"}, "geometry": {"coordinates": [-97.594023507, 43.72591609], "type": "Point"}, "id": "zGB-ts2IO48JKNx1qJhfpS0vz2g=", "properties": {"@spider": "usps_collection_boxes", "addr:city": "SPENCER", "addr:country": "US", "addr:full": "306 MAIN ST", "addr:postcode": "57374", "addr:state": "SD", "amenity": "post_box", "brand": "United States Postal Service", "brand:wikidata": "Q668687", "collection_times": "Mo-Fr 12:00; Sa 11:15", "name": "USPS COLLECTION BOX - PO LOBBY", "nsi_id": "unitedstatespostalservice-a77078", "operator": "United States Postal Service", "operator:short": "USPS", "operator:type": "public", "operator:wikidata": "Q668687", "ref": "5737400001"}, "type": "Feature"}
{"dataset_attributes": {"@spider": "usps_collection_boxes", "spider:collection_time": "2023-08-25T08:24:09.950024"}, "geometry": {"coordinates": [-97.5871859759, 43.6628479993], "type": "Point"}, "id": "5dLTGipx4P-bsX2Ds8jpMchq-54=", "properties": {"@spider": "usps_collection_boxes", "addr:city": "SPENCER", "addr:country": "US", "addr:full": "25678 431ST AVE", "addr:postcode": "57374", "addr:state": "SD", "amenity": "post_box", "brand": "United States Postal Service", "brand:wikidata": "Q668687", "collection_times": "Mo-Sa 12:00", "name": "USPS COLLECTION BOX - BLUE BOX", "nsi_id": "unitedstatespostalservice-a77078", "operator": "United States Postal Service", "operator:short": "USPS", "operator:type": "public", "operator:wikidata": "Q668687", "ref": "5737400002"}, "type": "Feature"}
{"dataset_attributes": {"@spider": "usps_collection_boxes", "spider:collection_time": "2023-08-25T08:24:09.950024"}, "geometry": {"coordinates": [-98.438122195, 43.589034485], "type": "Point"}, "id": "K2_-xBUW7ZOlwkxv7lPCSlUl3Z4=", "properties": {"@spider": "usps_collection_boxes", "addr:city": "STICKNEY", "addr:country": "US", "addr:full": "309 MAIN ST", "addr:postcode": "57375", "addr:state": "SD", "amenity": "post_box", "brand": "United States Postal Service", "brand:wikidata": "Q668687", "collection_times": "Mo-Sa 14:45", "name": "USPS COLLECTION BOX - BLUE BOX", "note": "ON 12/24 AND 12/31, THIS BOX MAY BE COLLECTED AS EARLY AS 12 NOON.", "nsi_id": "unitedstatespostalservice-a77078", "operator": "United States Postal Service", "operator:short": "USPS", "operator:type": "public", "operator:wikidata": "Q668687", "ref": "5737500001"}, "type": "Feature"}
{"dataset_attributes": {"@spider": "usps_collection_boxes", "spider:collection_time": "2023-08-25T08:24:09.950024"}, "geometry": {"coordinates": [-98.438122195, 43.589034485], "type": "Point"}, "id": "Jbcrf71thLRcbjsAg7vr9xXzrJ8=", "properties": {"@spider": "usps_collection_boxes", "addr:city": "STICKNEY", "addr:country": "US", "addr:full": "309 MAIN ST", "addr:postcode": "57375", "addr:state": "SD", "amenity": "post_box", "brand": "United States Postal Service", "brand:wikidata": "Q668687", "collection_times": "Mo-Fr 14:45; Sa 09:00", "name": "USPS COLLECTION BOX - PO LOBBY", "note": "ON 12/24 AND 12/31, THIS BOX MAY BE COLLECTED AS EARLY AS 12 NOON.", "nsi_id": "unitedstatespostalservice-a77078", "operator": "United States Postal Service", "operator:short": "USPS", "operator:type": "public", "operator:wikidata": "Q668687", "ref": "5737500002"}, "type": "Feature"}
{"dataset_attributes": {"@spider": "usps_collection_boxes", "spider:collection_time": "2023-08-25T08:24:09.950024"}, "geometry": {"coordinates": [-97.96561865, 43.224301247], "type": "Point"}, "id": "-uUpq2Ie_aoh5k1uiyNJZVVfaCU=", "properties": {"@spider": "usps_collection_boxes", "addr:city": "TRIPP", "addr:country": "US", "addr:full": "303 S MAIN ST", "addr:postcode": "57376", "addr:state": "SD", "amenity": "post_box", "brand": "United States Postal Service", "brand:wikidata": "Q668687", "collection_times": "Mo-Sa 14:40", "name": "USPS COLLECTION BOX - BLUE BOX", "note": "ON 12/24 AND 12/31, THIS BOX MAY BE COLLECTED AS EARLY AS 12 NOON.", "nsi_id": "unitedstatespostalservice-a77078", "operator": "United States Postal Service", "operator:short": "USPS", "operator:type": "public", "operator:wikidata": "Q668687", "ref": "5737600001"}, "type": "Feature"}
{"dataset_attributes": {"@spider": "usps_collection_boxes", "spider:collection_time": "2023-08-25T08:24:09.950024"}, "geometry": {"coordinates": [-97.96561865, 43.224301247], "type": "Point"}, "id": "aFq4U4qRUxXOKFVAiDQdrShozEo=", "properties": {"@spider": "usps_collection_boxes", "addr:city": "TRIPP", "addr:country": "US", "addr:full": "303 S MAIN ST", "addr:postcode": "57376", "addr:state": "SD", "amenity": "post_box", "brand": "United States Postal Service", "brand:wikidata": "Q668687", "collection_times": "Mo-Fr 14:40; Sa 10:00", "name": "USPS COLLECTION BOX - PO LOBBY", "note": "ON 12/24 AND 12/31, THIS BOX MAY BE COLLECTED AS EARLY AS 12 NOON.", "nsi_id": "unitedstatespostalservice-a77078", "operator": "United States Postal Service", "operator:short": "USPS", "operator:type": "public", "operator:wikidata": "Q668687", "ref": "5737600002"}, "type": "Feature"}
{"dataset_attributes": {"@spider": "usps_collection_boxes", "spider:collection_time": "2023-08-25T08:24:09.950024"}, "geometry": {"coordinates": [-98.292411168, 43.079835511], "type": "Point"}, "id": "1K0NLpnbxgj-Pcx1lpN6ErgqfQg=", "properties": {"@spider": "usps_collection_boxes", "addr:city": "WAGNER", "addr:country": "US", "addr:full": "109 2ND ST SE", "addr:postcode": "57380", "addr:state": "SD", "amenity": "post_box", "brand": "United States Postal Service", "brand:wikidata": "Q668687", "collection_times": "Mo-Sa 13:00", "name": "USPS COLLECTION BOX - BLUE BOX", "note": "ON 12/24 AND 12/31, THIS BOX MAY BE COLLECTED AS EARLY AS 12 NOON.", "nsi_id": "unitedstatespostalservice-a77078", "operator": "United States Postal Service", "operator:short": "USPS", "operator:type": "public", "operator:wikidata": "Q668687", "ref": "5738000004"}, "type": "Feature"}
{"dataset_attributes": {"@spider": "usps_collection_boxes", "spider:collection_time": "2023-08-25T08:24:09.950024"}, "geometry": {"coordinates": [-98.292411168, 43.079835511], "type": "Point"}, "id": "LOhJtsUI5g70CnlSNWfRHBuTiyM=", "properties": {"@spider": "usps_collection_boxes", "addr:city": "WAGNER", "addr:country": "US", "addr:full": "109 2ND ST SE", "addr:postcode": "57380", "addr:state": "SD", "amenity": "post_box", "brand": "United States Postal Service", "brand:wikidata": "Q668687", "collection_times": "Mo-Fr 13:00; Sa 10:30", "name": "USPS COLLECTION BOX - PO LOBBY", "note": "ON 12/24 AND 12/31, THIS BOX MAY BE COLLECTED AS EARLY AS 12 NOON.", "nsi_id": "unitedstatespostalservice-a77078", "operator": "United States Postal Service", "operator:short": "USPS", "operator:type": "public", "operator:wikidata": "Q668687", "ref": "5738000005"}, "type": "Feature"}
{"dataset_attributes": {"@spider": "usps_collection_boxes", "spider:collection_time": "2023-08-25T08:24:09.950024"}, "geometry": {"coordinates": [-98.29885273, 43.081599305], "type": "Point"}, "id": "0z_F4virjt5omG6SlV7e0FWPKo4=", "properties": {"@spider": "usps_collection_boxes", "addr:city": "WAGNER", "addr:country": "US", "addr:full": "401 W SD HIGHWAY 46", "addr:postcode": "57380", "addr:state": "SD", "amenity": "post_box", "brand": "United States Postal Service", "brand:wikidata": "Q668687", "collection_times": "Mo-Sa 09:00", "name": "USPS COLLECTION BOX - BLUE BOX", "nsi_id": "unitedstatespostalservice-a77078", "operator": "United States Postal Service", "operator:short": "USPS", "operator:type": "public", "operator:wikidata": "Q668687", "ref": "5738000008"}, "type": "Feature"}
{"dataset_attributes": {"@spider": "usps_collection_boxes", "spider:collection_time": "2023-08-25T08:24:09.950024"}, "geometry": {"coordinates": [-98.698093087, 44.452760768], "type": "Point"}, "id": "cgdzxHv_AIllojEIx5QCClmcyNA=", "properties": {"@spider": "usps_collection_boxes", "addr:city": "WESSINGTON", "addr:country": "US", "addr:full": "170 WESSINGTON ST S", "addr:postcode": "57381", "addr:state": "SD", "amenity": "post_box", "brand": "United States Postal Service", "brand:wikidata": "Q668687", "collection_times": "Mo-Sa 17:00", "name": "USPS COLLECTION BOX - BLUE BOX", "note": "ON 12/24 AND 12/31, THIS BOX MAY BE COLLECTED AS EARLY AS 12 NOON.", "nsi_id": "unitedstatespostalservice-a77078", "operator": "United States Postal Service", "operator:short": "USPS", "operator:type": "public", "operator:wikidata": "Q668687", "ref": "5738100001"}, "type": "Feature"}
{"dataset_attributes": {"@spider": "usps_collection_boxes", "spider:collection_time": "2023-08-25T08:24:09.950024"}, "geometry": {"coordinates": [-98.698093087, 44.452760768], "type": "Point"}, "id": "uZf9caKDpNFEAoM_Q_yx1AU0iJM=", "properties": {"@spider": "usps_collection_boxes", "addr:city": "WESSINGTON", "addr:country": "US", "addr:full": "170 WESSINGTON ST S", "addr:postcode": "57381", "addr:state": "SD", "amenity": "post_box", "brand": "United States Postal Service", "brand:wikidata": "Q668687", "collection_times": "Mo-Fr 11:15; Sa 09:00", "name": "USPS COLLECTION BOX - PO LOBBY", "nsi_id": "unitedstatespostalservice-a77078", "operator": "United States Postal Service", "operator:short": "USPS", "operator:type": "public", "operator:wikidata": "Q668687", "ref": "5738100002"}, "type": "Feature"}
{"dataset_attributes": {"@spider": "usps_collection_boxes", "spider:collection_time": "2023-08-25T08:24:09.950024"}, "geometry": {"coordinates": [-98.569433432, 44.07912331], "type": "Point"}, "id": "7BB2gk_-ejsinb4JiAHOhbQs4A0=", "properties": {"@spider": "usps_collection_boxes", "addr:city": "WESSINGTN SPG", "addr:country": "US", "addr:full": "124 WALLACE AVE S", "addr:postcode": "57382", "addr:state": "SD", "amenity": "post_box", "brand": "United States Postal Service", "brand:wikidata": "Q668687", "collection_times": "Mo-Sa 15:30", "name": "USPS COLLECTION BOX - BLUE BOX", "note": "ON 12/24 AND 12/31, THIS BOX MAY BE COLLECTED AS EARLY AS 12 NOON.", "nsi_id": "unitedstatespostalservice-a77078", "operator": "United States Postal Service", "operator:short": "USPS", "operator:type": "public", "operator:wikidata": "Q668687", "ref": "5738200001"}, "type": "Feature"}
{"dataset_attributes": {"@spider": "usps_collection_boxes", "spider:collection_time": "2023-08-25T08:24:09.950024"}, "geometry": {"coordinates": [-98.569433432, 44.07912331], "type": "Point"}, "id": "KSKZZgTVr3imaxV6mTa3Nda_2B8=", "properties": {"@spider": "usps_collection_boxes", "addr:city": "WESSINGTN SPG", "addr:country": "US", "addr:full": "124 WALLACE AVE S", "addr:postcode": "57382", "addr:state": "SD", "amenity": "post_box", "brand": "United States Postal Service", "brand:wikidata": "Q668687", "collection_times": "Mo-Fr 15:30; Sa 10:00", "name": "USPS COLLECTION BOX - PO LOBBY", "note": "ON 12/24 AND 12/31, THIS BOX MAY BE COLLECTED AS EARLY AS 12 NOON.", "nsi_id": "unitedstatespostalservice-a77078", "operator": "United States Postal Service", "operator:short": "USPS", "operator:type": "public", "operator:wikidata": "Q668687", "ref": "5738200002"}, "type": "Feature"}
{"dataset_attributes": {"@spider": "usps_collection_boxes", "spider:collection_time": "2023-08-25T08:24:09.950024"}, "geometry": {"coordinates": [-98.713992004, 43.727319335], "type": "Point"}, "id": "HlNjb5hErKNV6NZBe8SYProe_sQ=", "properties": {"@spider": "usps_collection_boxes", "addr:city": "WHITE LAKE", "addr:country": "US", "addr:full": "109 S MAIN ST", "addr:postcode": "57383", "addr:state": "SD", "amenity": "post_box", "brand": "United States Postal Service", "brand:wikidata": "Q668687", "collection_times": "Mo-Sa 14:30", "name": "USPS COLLECTION BOX - BLUE BOX", "note": "ON 12/24 AND 12/31, THIS BOX MAY BE COLLECTED AS EARLY AS 12 NOON.", "nsi_id": "unitedstatespostalservice-a77078", "operator": "United States Postal Service", "operator:short": "USPS", "operator:type": "public", "operator:wikidata": "Q668687", "ref": "5738300001"}, "type": "Feature"}
{"dataset_attributes": {"@spider": "usps_collection_boxes", "spider:collection_time": "2023-08-25T08:24:09.950024"}, "geometry": {"coordinates": [-98.713992004, 43.727319335], "type": "Point"}, "id": "ui0001Gbv_0bSPQLVwJaM9WZz-A=", "properties": {"@spider": "usps_collection_boxes", "addr:city": "WHITE LAKE", "addr:country": "US", "addr:full": "109 S MAIN ST", "addr:postcode": "57383", "addr:state": "SD", "amenity": "post_box", "brand": "United States Postal Service", "brand:wikidata": "Q668687", "collection_times": "Mo-Fr 14:30; Sa 09:30", "name": "USPS COLLECTION BOX - PO LOBBY", "note": "ON 12/24 AND 12/31, THIS BOX MAY BE COLLECTED AS EARLY AS 12 NOON.", "nsi_id": "unitedstatespostalservice-a77078", "operator": "United States Postal Service", "operator:short": "USPS", "operator:type": "public", "operator:wikidata": "Q668687", "ref": "5738300002"}, "type": "Feature"}
{"dataset_attributes": {"@spider": "usps_collection_boxes", "spider:collection_time": "2023-08-25T08:24:09.950024"}, "geometry": {"coordinates": [-98.475033334, 44.409992439], "type": "Point"}, "id": "rNEl8U9-PzcGtb77X65YHPBDRs0=", "properties": {"@spider": "usps_collection_boxes", "addr:city": "WOLSEY", "addr:country": "US", "addr:full": "125 COMMERCIAL AVE SW", "addr:postcode": "57384", "addr:state": "SD", "amenity": "post_box", "brand": "United States Postal Service", "brand:wikidata": "Q668687", "collection_times": "Mo-Fr 16:15; Sa 17:00", "name": "USPS COLLECTION BOX - BLUE BOX", "note": "ON 12/24 AND 12/31, THIS BOX MAY BE COLLECTED AS EARLY AS 12 NOON.", "nsi_id": "unitedstatespostalservice-a77078", "operator": "United States Postal Service", "operator:short": "USPS", "operator:type": "public", "operator:wikidata": "Q668687", "ref": "5738400001"}, "type": "Feature"}
{"dataset_attributes": {"@spider": "usps_collection_boxes", "spider:collection_time": "2023-08-25T08:24:09.950024"}, "geometry": {"coordinates": [-98.475033334, 44.409992439], "type": "Point"}, "id": "Fqs83dSvSRYzM-DEraKwZDsJP_8=", "properties": {"@spider": "usps_collection_boxes", "addr:city": "WOLSEY", "addr:country": "US", "addr:full": "125 COMMERCIAL AVE SW", "addr:postcode": "57384", "addr:state": "SD", "amenity": "post_box", "brand": "United States Postal Service", "brand:wikidata": "Q668687", "collection_times": "Mo-Fr 11:30", "name": "USPS COLLECTION BOX - PO LOBBY", "nsi_id": "unitedstatespostalservice-a77078", "operator": "United States Postal Service", "operator:short": "USPS", "operator:type": "public", "operator:wikidata": "Q668687", "ref": "5738400002"}, "type": "Feature"}
{"dataset_attributes": {"@spider": "usps_collection_boxes", "spider:collection_time": "2023-08-25T08:24:09.950024"}, "geometry": {"coordinates": [-98.275698407, 44.052833652], "type": "Point"}, "id": "ytxN8bi19bigD1aLFc126gngJgQ=", "properties": {"@spider": "usps_collection_boxes", "addr:city": "WOONSOCKET", "addr:country": "US", "addr:full": "202 S DUMONT AVE", "addr:postcode": "57385", "addr:state": "SD", "amenity": "post_box", "brand": "United States Postal Service", "brand:wikidata": "Q668687", "collection_times": "Mo-Sa 15:45", "name": "USPS COLLECTION BOX - BLUE BOX", "note": "ON 12/24 AND 12/31, THIS BOX MAY BE COLLECTED AS EARLY AS 12 NOON.", "nsi_id": "unitedstatespostalservice-a77078", "operator": "United States Postal Service", "operator:short": "USPS", "operator:type": "public", "operator:wikidata": "Q668687", "ref": "5738500001"}, "type": "Feature"}
{"dataset_attributes": {"@spider": "usps_collection_boxes", "spider:collection_time": "2023-08-25T08:24:09.950024"}, "geometry": {"coordinates": [-98.275698407, 44.052833652], "type": "Point"}, "id": "7l0sDKG83MUkbHwCU6Ch-j-4Xfc=", "properties": {"@spider": "usps_collection_boxes", "addr:city": "WOONSOCKET", "addr:country": "US", "addr:full": "202 S DUMONT AVE", "addr:postcode": "57385", "addr:state": "SD", "amenity": "post_box", "brand": "United States Postal Service", "brand:wikidata": "Q668687", "collection_times": "Mo-Fr 14:30; Sa 09:45", "name": "USPS COLLECTION BOX - PO LOBBY", "note": "ON 12/24 AND 12/31, THIS BOX MAY BE COLLECTED AS EARLY AS 12 NOON.", "nsi_id": "unitedstatespostalservice-a77078", "operator": "United States Postal Service", "operator:short": "USPS", "operator:type": "public", "operator:wikidata": "Q668687", "ref": "5738500002"}, "type": "Feature"}
{"dataset_attributes": {"@spider": "usps_collection_boxes", "spider:collection_time": "2023-08-25T08:24:09.950024"}, "geometry": {"coordinates": [-98.280037007, 44.050764718], "type": "Point"}, "id": "kQNMM_QL9WCCVKOB9xn7RnUV5as=", "properties": {"@spider": "usps_collection_boxes", "addr:city": "WOONSOCKET", "addr:country": "US", "addr:full": "409 1ST AVE E", "addr:postcode": "57385", "addr:state": "SD", "amenity": "post_box", "brand": "United States Postal Service", "brand:wikidata": "Q668687", "collection_times": "Mo-Sa 10:30", "name": "USPS COLLECTION BOX - BLUE BOX", "nsi_id": "unitedstatespostalservice-a77078", "operator": "United States Postal Service", "operator:short": "USPS", "operator:type": "public", "operator:wikidata": "Q668687", "ref": "5738500004"}, "type": "Feature"}
{"dataset_attributes": {"@spider": "usps_collection_boxes", "spider:collection_time": "2023-08-25T08:24:09.950024"}, "geometry": {"coordinates": [-98.219201024, 44.385208952], "type": "Point"}, "id": "WzXhYYcoAYSA57p80aKiR1CoRzw=", "properties": {"@spider": "usps_collection_boxes", "addr:city": "HURON", "addr:country": "US", "addr:full": "355 15TH ST NW", "addr:postcode": "57399", "addr:state": "SD", "amenity": "post_box", "brand": "United States Postal Service", "brand:wikidata": "Q668687", "collection_times": "Mo-Sa 18:30", "name": "USPS COLLECTION BOX - BLUE BOX", "note": "ON 12/24 AND 12/31, THIS BOX MAY BE COLLECTED AS EARLY AS 12 NOON.", "nsi_id": "unitedstatespostalservice-a77078", "operator": "United States Postal Service", "operator:short": "USPS", "operator:type": "public", "operator:wikidata": "Q668687", "ref": "5739900002"}, "type": "Feature"}
