{"geometry": {"coordinates": [-97.75058732, 45.792417784], "type": "Point"}, "id": "jMuhAXAPZFpYN1aehFVTCpzuc5k=", "properties": {"@spider": "usps_collection_boxes", "addr:city": "BRITTON", "addr:country": "US", "addr:full": "605 MAIN AVE", "addr:postcode": "57430", "addr:state": "SD", "brand": "USPS", "collection_times": "Mo-Sa 16:00", "name": "USPS COLLECTION BOX - BLUE BOX", "note": "ON 12/24 AND 12/31, THIS BOX MAY BE COLLECTED AS EARLY AS 12 NOON.", "ref": "5743000001"}, "type": "Feature"}
{"geometry": {"coordinates": [-97.75058732, 45.792417784], "type": "Point"}, "id": "xIv5F0kybX_QzSZJVLMI5_RGGmg=", "properties": {"@spider": "usps_collection_boxes", "addr:city": "BRITTON", "addr:country": "US", "addr:full": "605 MAIN AVE", "addr:postcode": "57430", "addr:state": "SD", "brand": "USPS", "collection_times": "Mo-Fr 16:00; Sa 09:50", "name": "USPS COLLECTION BOX - PO LOBBY", "note": "ON 12/24 AND 12/31, THIS BOX MAY BE COLLECTED AS EARLY AS 12 NOON.", "ref": "5743000002"}, "type": "Feature"}
{"geometry": {"coordinates": [-97.75058732, 45.792417784], "type": "Point"}, "id": "DRw3PxTYOUglyPOnJRCawTQObPA=", "properties": {"@spider": "usps_collection_boxes", "addr:city": "BRITTON", "addr:country": "US", "addr:full": "605 MAIN AVE", "addr:postcode": "57430", "addr:state": "SD", "brand": "USPS", "collection_times": "Mo-Fr 16:00; Sa 09:50", "name": "USPS COLLECTION BOX - PO LOBBY", "note": "ON 12/24 AND 12/31, THIS BOX MAY BE COLLECTED AS EARLY AS 12 NOON.", "ref": "5743000004"}, "type": "Feature"}
{"geometry": {"coordinates": [-97.831884632, 45.602458179], "type": "Point"}, "id": "8Oj1N5wIbr190H6i6-SaJ9mgMWI=", "properties": {"@spider": "usps_collection_boxes", "addr:city": "LANGFORD", "addr:country": "US", "addr:full": "309 MAIN ST", "addr:postcode": "57454", "addr:state": "SD", "brand": "USPS", "collection_times": "Mo-Sa 15:30", "name": "USPS COLLECTION BOX - BLUE BOX", "note": "ON 12/24 AND 12/31, THIS BOX MAY BE COLLECTED AS EARLY AS 12 NOON.", "ref": "5745400001"}, "type": "Feature"}
{"geometry": {"coordinates": [-97.831884632, 45.602458179], "type": "Point"}, "id": "uGrO1abKvp_MOwBu6uRoKVKKWdU=", "properties": {"@spider": "usps_collection_boxes", "addr:city": "LANGFORD", "addr:country": "US", "addr:full": "309 MAIN ST", "addr:postcode": "57454", "addr:state": "SD", "brand": "USPS", "collection_times": "Mo-Fr 15:30; Sa 09:45", "name": "USPS COLLECTION BOX - PO LOBBY", "note": "ON 12/24 AND 12/31, THIS BOX MAY BE COLLECTED AS EARLY AS 12 NOON.", "ref": "5745400002"}, "type": "Feature"}
{"geometry": {"coordinates": [-97.831884632, 45.602458179], "type": "Point"}, "id": "3qIAzalJNn4dguNgulgXB4gIy1M=", "properties": {"@spider": "usps_collection_boxes", "addr:city": "LANGFORD", "addr:country": "US", "addr:full": "309 MAIN ST", "addr:postcode": "57454", "addr:state": "SD", "brand": "USPS", "collection_times": "Mo-Sa 15:30", "name": "USPS COLLECTION BOX - BLUE BOX", "note": "ON 12/24 AND 12/31, THIS BOX MAY BE COLLECTED AS EARLY AS 12 NOON.", "ref": "5745400003"}, "type": "Feature"}
{"geometry": {"coordinates": [-97.831884632, 45.602458179], "type": "Point"}, "id": "v8vxqp4zJTu_NN4GsHjoKomwBqk=", "properties": {"@spider": "usps_collection_boxes", "addr:city": "LANGFORD", "addr:country": "US", "addr:full": "309 MAIN ST", "addr:postcode": "57454", "addr:state": "SD", "brand": "USPS", "collection_times": "Mo-Sa 15:30", "name": "USPS COLLECTION BOX - BLUE BOX", "note": "ON 12/24 AND 12/31, THIS BOX MAY BE COLLECTED AS EARLY AS 12 NOON.", "ref": "5745400004"}, "type": "Feature"}
