{"dataset_attributes": {"@spider": "usps_collection_boxes", "spider:collection_time": "2023-11-28T08:25:58.546046"}, "geometry": {"coordinates": [-100.317769626, 44.377737454], "type": "Point"}, "id": "auNxAP6I7QUw7iobPevvow-jF-U=", "properties": {"@spider": "usps_collection_boxes", "addr:city": "PIERRE", "addr:country": "US", "addr:full": "1615 N HARRISON AVE", "addr:postcode": "57501", "addr:state": "SD", "amenity": "post_box", "brand": "United States Postal Service", "brand:wikidata": "Q668687", "collection_times": "Mo-Fr 11:30; Sa 11:00", "name": "USPS COLLECTION BOX - BLUE BOX", "nsi_id": "unitedstatespostalservice-a77078", "operator": "United States Postal Service", "operator:short": "USPS", "operator:type": "public", "operator:wikidata": "Q668687", "ref": "5750100002"}, "type": "Feature"}
{"dataset_attributes": {"@spider": "usps_collection_boxes", "spider:collection_time": "2023-11-28T08:25:58.546046"}, "geometry": {"coordinates": [-100.352789166, 44.365840879], "type": "Point"}, "id": "kUd7SO_lMusKVoTti_G3axz2WAw=", "properties": {"@spider": "usps_collection_boxes", "addr:city": "PIERRE", "addr:country": "US", "addr:full": "319 COTEAU ST", "addr:postcode": "57501", "addr:state": "SD", "amenity": "post_box", "brand": "United States Postal Service", "brand:wikidata": "Q668687", "collection_times": "Mo-Fr 14:30", "name": "USPS COLLECTION BOX - BLUE BOX", "note": "ON 12/24 AND 12/31, THIS BOX MAY BE COLLECTED AS EARLY AS 12 NOON.", "nsi_id": "unitedstatespostalservice-a77078", "operator": "United States Postal Service", "operator:short": "USPS", "operator:type": "public", "operator:wikidata": "Q668687", "ref": "5750100011"}, "type": "Feature"}
{"dataset_attributes": {"@spider": "usps_collection_boxes", "spider:collection_time": "2023-11-28T08:25:58.546046"}, "geometry": {"coordinates": [-100.355318068, 44.365285112], "type": "Point"}, "id": "r2JcisJQCRI7Yk2P7j9XfC20abk=", "properties": {"@spider": "usps_collection_boxes", "addr:city": "PIERRE", "addr:country": "US", "addr:full": "420 S PIERRE ST", "addr:postcode": "57501", "addr:state": "SD", "amenity": "post_box", "brand": "United States Postal Service", "brand:wikidata": "Q668687", "collection_times": "Mo-Fr 14:30; Sa 13:00", "name": "USPS COLLECTION BOX - BLUE BOX", "note": "ON 12/24 AND 12/31, THIS BOX MAY BE COLLECTED AS EARLY AS 12 NOON.", "nsi_id": "unitedstatespostalservice-a77078", "operator": "United States Postal Service", "operator:short": "USPS", "operator:type": "public", "operator:wikidata": "Q668687", "ref": "5750100015"}, "type": "Feature"}
{"dataset_attributes": {"@spider": "usps_collection_boxes", "spider:collection_time": "2023-11-28T08:25:58.546046"}, "geometry": {"coordinates": [-100.342593433, 44.360215781], "type": "Point"}, "id": "-BLAYSSUaS17HxUZKNC1XtiQ3vk=", "properties": {"@spider": "usps_collection_boxes", "addr:city": "PIERRE", "addr:country": "US", "addr:full": "801 E DAKOTA AVE", "addr:postcode": "57501", "addr:state": "SD", "amenity": "post_box", "brand": "United States Postal Service", "brand:wikidata": "Q668687", "collection_times": "Mo-Fr 14:00", "name": "USPS COLLECTION BOX - BLUE BOX", "note": "ON 12/24 AND 12/31, THIS BOX MAY BE COLLECTED AS EARLY AS 12 NOON.", "nsi_id": "unitedstatespostalservice-a77078", "operator": "United States Postal Service", "operator:short": "USPS", "operator:type": "public", "operator:wikidata": "Q668687", "ref": "5750100016"}, "type": "Feature"}
{"dataset_attributes": {"@spider": "usps_collection_boxes", "spider:collection_time": "2023-11-28T08:25:58.546046"}, "geometry": {"coordinates": [-100.342905817, 44.363993409], "type": "Point"}, "id": "iT1p1HFUwY5UGuU2wgO_yvj4umE=", "properties": {"@spider": "usps_collection_boxes", "addr:city": "PIERRE", "addr:country": "US", "addr:full": "711 E WELLS AVE", "addr:postcode": "57501", "addr:state": "SD", "amenity": "post_box", "brand": "United States Postal Service", "brand:wikidata": "Q668687", "collection_times": "Mo-Fr 14:30", "name": "USPS COLLECTION BOX - BLUE BOX", "note": "ON 12/24 AND 12/31, THIS BOX MAY BE COLLECTED AS EARLY AS 12 NOON.", "nsi_id": "unitedstatespostalservice-a77078", "operator": "United States Postal Service", "operator:short": "USPS", "operator:type": "public", "operator:wikidata": "Q668687", "ref": "5750100017"}, "type": "Feature"}
{"dataset_attributes": {"@spider": "usps_collection_boxes", "spider:collection_time": "2023-11-28T08:25:58.546046"}, "geometry": {"coordinates": [-100.35039303, 44.368417013], "type": "Point"}, "id": "5bYSejuNrYqcLqs2MHMWCRRzkKg=", "properties": {"@spider": "usps_collection_boxes", "addr:city": "PIERRE", "addr:country": "US", "addr:full": "222 E CAPITOL AVE", "addr:postcode": "57501", "addr:state": "SD", "amenity": "post_box", "brand": "United States Postal Service", "brand:wikidata": "Q668687", "collection_times": "Mo-Fr 14:30", "name": "USPS COLLECTION BOX - BLUE BOX", "note": "ON 12/24 AND 12/31, THIS BOX MAY BE COLLECTED AS EARLY AS 12 NOON.", "nsi_id": "unitedstatespostalservice-a77078", "operator": "United States Postal Service", "operator:short": "USPS", "operator:type": "public", "operator:wikidata": "Q668687", "ref": "5750100018"}, "type": "Feature"}
{"dataset_attributes": {"@spider": "usps_collection_boxes", "spider:collection_time": "2023-11-28T08:25:58.546046"}, "geometry": {"coordinates": [-100.351503577, 44.36893148], "type": "Point"}, "id": "vJnHj0Ka4JIzWKof6utyRQ23b6Q=", "properties": {"@spider": "usps_collection_boxes", "addr:city": "PIERRE", "addr:country": "US", "addr:full": "101 S PIERRE ST", "addr:postcode": "57501", "addr:state": "SD", "amenity": "post_box", "brand": "United States Postal Service", "brand:wikidata": "Q668687", "collection_times": "Mo-Fr 14:30; Sa 13:00", "name": "USPS COLLECTION BOX - BLUE BOX", "note": "ON 12/24 AND 12/31, THIS BOX MAY BE COLLECTED AS EARLY AS 12 NOON.", "nsi_id": "unitedstatespostalservice-a77078", "operator": "United States Postal Service", "operator:short": "USPS", "operator:type": "public", "operator:wikidata": "Q668687", "ref": "5750100020"}, "type": "Feature"}
{"dataset_attributes": {"@spider": "usps_collection_boxes", "spider:collection_time": "2023-11-28T08:25:58.546046"}, "geometry": {"coordinates": [-100.353206057, 44.367302215], "type": "Point"}, "id": "O9PANXoy7zjJaGiPNIW5S4DXQBQ=", "properties": {"@spider": "usps_collection_boxes", "addr:city": "PIERRE", "addr:country": "US", "addr:full": "225 S PIERRE ST", "addr:postcode": "57501", "addr:state": "SD", "amenity": "post_box", "brand": "United States Postal Service", "brand:wikidata": "Q668687", "collection_times": "Mo-Fr 17:30; Sa 16:00", "name": "USPS COLLECTION BOX - BLUE BOX", "note": "ON 12/24 AND 12/31, THIS BOX MAY BE COLLECTED AS EARLY AS 12 NOON.", "nsi_id": "unitedstatespostalservice-a77078", "operator": "United States Postal Service", "operator:short": "USPS", "operator:type": "public", "operator:wikidata": "Q668687", "ref": "5750100022"}, "type": "Feature"}
{"dataset_attributes": {"@spider": "usps_collection_boxes", "spider:collection_time": "2023-11-28T08:25:58.546046"}, "geometry": {"coordinates": [-100.353206057, 44.367302215], "type": "Point"}, "id": "-a4FHH4O_gtEeMT8tqr_TJp2p2A=", "properties": {"@spider": "usps_collection_boxes", "addr:city": "PIERRE", "addr:country": "US", "addr:full": "225 S PIERRE ST", "addr:postcode": "57501", "addr:state": "SD", "amenity": "post_box", "brand": "United States Postal Service", "brand:wikidata": "Q668687", "collection_times": "Mo-Fr 17:30; Sa 16:00", "name": "USPS COLLECTION BOX - PO LOBBY", "note": "ON 12/24 AND 12/31, THIS BOX MAY BE COLLECTED AS EARLY AS 12 NOON.", "nsi_id": "unitedstatespostalservice-a77078", "operator": "United States Postal Service", "operator:short": "USPS", "operator:type": "public", "operator:wikidata": "Q668687", "ref": "5750100025"}, "type": "Feature"}
{"dataset_attributes": {"@spider": "usps_collection_boxes", "spider:collection_time": "2023-11-28T08:25:58.546046"}, "geometry": {"coordinates": [-100.353206057, 44.367302215], "type": "Point"}, "id": "GarnsIKzh14iGYdE1thtWLPI_Dg=", "properties": {"@spider": "usps_collection_boxes", "addr:city": "PIERRE", "addr:country": "US", "addr:full": "225 S PIERRE ST", "addr:postcode": "57501", "addr:state": "SD", "amenity": "post_box", "brand": "United States Postal Service", "brand:wikidata": "Q668687", "collection_times": "Mo-Fr 17:30; Sa 16:00", "name": "USPS COLLECTION BOX - BLUE BOX", "note": "ON 12/24 AND 12/31, THIS BOX MAY BE COLLECTED AS EARLY AS 12 NOON.", "nsi_id": "unitedstatespostalservice-a77078", "operator": "United States Postal Service", "operator:short": "USPS", "operator:type": "public", "operator:wikidata": "Q668687", "ref": "5750100032"}, "type": "Feature"}
{"dataset_attributes": {"@spider": "usps_collection_boxes", "spider:collection_time": "2023-11-28T08:25:58.546046"}, "geometry": {"coordinates": [-100.075149982, 44.838403588], "type": "Point"}, "id": "vLql02Hle-PQgpmFscB4RORX_NY=", "properties": {"@spider": "usps_collection_boxes", "addr:city": "AGAR", "addr:country": "US", "addr:full": "206 ASH ST", "addr:postcode": "57520", "addr:state": "SD", "amenity": "post_box", "brand": "United States Postal Service", "brand:wikidata": "Q668687", "collection_times": "Mo-Sa 14:45", "name": "USPS COLLECTION BOX - BLUE BOX", "note": "ON 12/24 AND 12/31, THIS BOX MAY BE COLLECTED AS EARLY AS 12 NOON.", "nsi_id": "unitedstatespostalservice-a77078", "operator": "United States Postal Service", "operator:short": "USPS", "operator:type": "public", "operator:wikidata": "Q668687", "ref": "5752000000"}, "type": "Feature"}
{"dataset_attributes": {"@spider": "usps_collection_boxes", "spider:collection_time": "2023-11-28T08:25:58.546046"}, "geometry": {"coordinates": [-100.075149982, 44.838403588], "type": "Point"}, "id": "Ei4911PIbOcWFzfN3SRF_3dts6s=", "properties": {"@spider": "usps_collection_boxes", "addr:city": "AGAR", "addr:country": "US", "addr:full": "206 ASH ST", "addr:postcode": "57520", "addr:state": "SD", "amenity": "post_box", "brand": "United States Postal Service", "brand:wikidata": "Q668687", "collection_times": "Mo-Fr 09:45; Sa 10:00", "name": "USPS COLLECTION BOX - PO LOBBY", "nsi_id": "unitedstatespostalservice-a77078", "operator": "United States Postal Service", "operator:short": "USPS", "operator:type": "public", "operator:wikidata": "Q668687", "ref": "5752000001"}, "type": "Feature"}
{"dataset_attributes": {"@spider": "usps_collection_boxes", "spider:collection_time": "2023-11-28T08:25:58.546046"}, "geometry": {"coordinates": [-100.075149982, 44.838403588], "type": "Point"}, "id": "EuwlNlwjd_UjwoekdHiHh4TJAD0=", "properties": {"@spider": "usps_collection_boxes", "addr:city": "AGAR", "addr:country": "US", "addr:full": "206 ASH ST", "addr:postcode": "57520", "addr:state": "SD", "amenity": "post_box", "brand": "United States Postal Service", "brand:wikidata": "Q668687", "collection_times": "Mo-Sa 09:45", "name": "USPS COLLECTION BOX - PO LOBBY", "nsi_id": "unitedstatespostalservice-a77078", "operator": "United States Postal Service", "operator:short": "USPS", "operator:type": "public", "operator:wikidata": "Q668687", "ref": "5752000003"}, "type": "Feature"}
{"dataset_attributes": {"@spider": "usps_collection_boxes", "spider:collection_time": "2023-11-28T08:25:58.546046"}, "geometry": {"coordinates": [-101.270775605, 43.831798209], "type": "Point"}, "id": "ipxZSErqR50Hoad3MbMA5gGgQ_g=", "properties": {"@spider": "usps_collection_boxes", "addr:city": "BELVIDERE", "addr:country": "US", "addr:full": "406 B ST", "addr:postcode": "57521", "addr:state": "SD", "amenity": "post_box", "brand": "United States Postal Service", "brand:wikidata": "Q668687", "collection_times": "Mo-Sa 14:15", "name": "USPS COLLECTION BOX - BLUE BOX", "note": "ON 12/24 AND 12/31, THIS BOX MAY BE COLLECTED AS EARLY AS 12 NOON.", "nsi_id": "unitedstatespostalservice-a77078", "operator": "United States Postal Service", "operator:short": "USPS", "operator:type": "public", "operator:wikidata": "Q668687", "ref": "5752100001"}, "type": "Feature"}
{"dataset_attributes": {"@spider": "usps_collection_boxes", "spider:collection_time": "2023-11-28T08:25:58.546046"}, "geometry": {"coordinates": [-101.270775605, 43.831798209], "type": "Point"}, "id": "rKmLt78_Mf1E6l_gcn5oPREHa3M=", "properties": {"@spider": "usps_collection_boxes", "addr:city": "BELVIDERE", "addr:country": "US", "addr:full": "406 B ST", "addr:postcode": "57521", "addr:state": "SD", "amenity": "post_box", "brand": "United States Postal Service", "brand:wikidata": "Q668687", "collection_times": "Mo-Fr 10:45; Sa 08:15", "name": "USPS COLLECTION BOX - PO LOBBY", "nsi_id": "unitedstatespostalservice-a77078", "operator": "United States Postal Service", "operator:short": "USPS", "operator:type": "public", "operator:wikidata": "Q668687", "ref": "5752100002"}, "type": "Feature"}
{"dataset_attributes": {"@spider": "usps_collection_boxes", "spider:collection_time": "2023-11-28T08:25:58.546046"}, "geometry": {"coordinates": [-101.270775605, 43.831798209], "type": "Point"}, "id": "XVEV1qyBEr6xpx9zo3u4f2VdBIQ=", "properties": {"@spider": "usps_collection_boxes", "addr:city": "BELVIDERE", "addr:country": "US", "addr:full": "406 B ST", "addr:postcode": "57521", "addr:state": "SD", "amenity": "post_box", "brand": "United States Postal Service", "brand:wikidata": "Q668687", "collection_times": "Mo-Fr 10:45; Sa 08:15", "name": "USPS COLLECTION BOX - PO LOBBY", "nsi_id": "unitedstatespostalservice-a77078", "operator": "United States Postal Service", "operator:short": "USPS", "operator:type": "public", "operator:wikidata": "Q668687", "ref": "5752100004"}, "type": "Feature"}
{"dataset_attributes": {"@spider": "usps_collection_boxes", "spider:collection_time": "2023-11-28T08:25:58.546046"}, "geometry": {"coordinates": [-99.986069854, 44.51707281], "type": "Point"}, "id": "5gBg7EzQT7AOdrUWX7ppLys1HjA=", "properties": {"@spider": "usps_collection_boxes", "addr:city": "BLUNT", "addr:country": "US", "addr:full": "301 N MAIN ST", "addr:postcode": "57522", "addr:state": "SD", "amenity": "post_box", "brand": "United States Postal Service", "brand:wikidata": "Q668687", "collection_times": "Mo-Sa 15:45", "name": "USPS COLLECTION BOX - BLUE BOX", "note": "ON 12/24 AND 12/31, THIS BOX MAY BE COLLECTED AS EARLY AS 12 NOON.", "nsi_id": "unitedstatespostalservice-a77078", "operator": "United States Postal Service", "operator:short": "USPS", "operator:type": "public", "operator:wikidata": "Q668687", "ref": "5752200001"}, "type": "Feature"}
{"dataset_attributes": {"@spider": "usps_collection_boxes", "spider:collection_time": "2023-11-28T08:25:58.546046"}, "geometry": {"coordinates": [-99.986069854, 44.51707281], "type": "Point"}, "id": "Yz9ZqWq06COniACX_7sWgjxGeoE=", "properties": {"@spider": "usps_collection_boxes", "addr:city": "BLUNT", "addr:country": "US", "addr:full": "301 N MAIN ST", "addr:postcode": "57522", "addr:state": "SD", "amenity": "post_box", "brand": "United States Postal Service", "brand:wikidata": "Q668687", "collection_times": "Mo-Fr 12:00; Sa 09:45", "name": "USPS COLLECTION BOX - PO LOBBY", "nsi_id": "unitedstatespostalservice-a77078", "operator": "United States Postal Service", "operator:short": "USPS", "operator:type": "public", "operator:wikidata": "Q668687", "ref": "5752200002"}, "type": "Feature"}
{"dataset_attributes": {"@spider": "usps_collection_boxes", "spider:collection_time": "2023-11-28T08:25:58.546046"}, "geometry": {"coordinates": [-99.986069854, 44.51707281], "type": "Point"}, "id": "AUZuugzMN9s-LXQOCv6WEAZUNPk=", "properties": {"@spider": "usps_collection_boxes", "addr:city": "BLUNT", "addr:country": "US", "addr:full": "301 N MAIN ST", "addr:postcode": "57522", "addr:state": "SD", "amenity": "post_box", "brand": "United States Postal Service", "brand:wikidata": "Q668687", "collection_times": "Mo-Fr 11:50; Sa 09:45", "name": "USPS COLLECTION BOX - PO LOBBY", "nsi_id": "unitedstatespostalservice-a77078", "operator": "United States Postal Service", "operator:short": "USPS", "operator:type": "public", "operator:wikidata": "Q668687", "ref": "5752200004"}, "type": "Feature"}
{"dataset_attributes": {"@spider": "usps_collection_boxes", "spider:collection_time": "2023-11-28T08:25:58.546046"}, "geometry": {"coordinates": [-99.2922692957, 43.1821222852], "type": "Point"}, "id": "bkalQl5fEZpmizVU1UC3x8NdLKQ=", "properties": {"@spider": "usps_collection_boxes", "addr:city": "BURKE", "addr:country": "US", "addr:full": "833 MAIN ST", "addr:postcode": "57523", "addr:state": "SD", "amenity": "post_box", "brand": "United States Postal Service", "brand:wikidata": "Q668687", "collection_times": "Mo-Sa 13:15", "name": "USPS COLLECTION BOX - BLUE BOX", "note": "ON 12/24 AND 12/31, THIS BOX MAY BE COLLECTED AS EARLY AS 12 NOON.", "nsi_id": "unitedstatespostalservice-a77078", "operator": "United States Postal Service", "operator:short": "USPS", "operator:type": "public", "operator:wikidata": "Q668687", "ref": "5752300001"}, "type": "Feature"}
{"dataset_attributes": {"@spider": "usps_collection_boxes", "spider:collection_time": "2023-11-28T08:25:58.546046"}, "geometry": {"coordinates": [-99.2922692957, 43.1821222852], "type": "Point"}, "id": "zXwaZJAHBOdHrrb8lCRR_99kh2s=", "properties": {"@spider": "usps_collection_boxes", "addr:city": "BURKE", "addr:country": "US", "addr:full": "833 MAIN ST", "addr:postcode": "57523", "addr:state": "SD", "amenity": "post_box", "brand": "United States Postal Service", "brand:wikidata": "Q668687", "collection_times": "Mo-Fr 13:15; Sa 09:00", "name": "USPS COLLECTION BOX - PO LOBBY", "note": "ON 12/24 AND 12/31, THIS BOX MAY BE COLLECTED AS EARLY AS 12 NOON.", "nsi_id": "unitedstatespostalservice-a77078", "operator": "United States Postal Service", "operator:short": "USPS", "operator:type": "public", "operator:wikidata": "Q668687", "ref": "5752300002"}, "type": "Feature"}
{"dataset_attributes": {"@spider": "usps_collection_boxes", "spider:collection_time": "2023-11-28T08:25:58.546046"}, "geometry": {"coordinates": [-99.2922692957, 43.1821222852], "type": "Point"}, "id": "FmWqXEis_4c_lp-mX1zwWTaQgws=", "properties": {"@spider": "usps_collection_boxes", "addr:city": "BURKE", "addr:country": "US", "addr:full": "833 MAIN ST", "addr:postcode": "57523", "addr:state": "SD", "amenity": "post_box", "brand": "United States Postal Service", "brand:wikidata": "Q668687", "collection_times": "Mo-Fr 13:15; Sa 09:00", "name": "USPS COLLECTION BOX - PO LOBBY", "note": "ON 12/24 AND 12/31, THIS BOX MAY BE COLLECTED AS EARLY AS 12 NOON.", "nsi_id": "unitedstatespostalservice-a77078", "operator": "United States Postal Service", "operator:short": "USPS", "operator:type": "public", "operator:wikidata": "Q668687", "ref": "5752300004"}, "type": "Feature"}
{"dataset_attributes": {"@spider": "usps_collection_boxes", "spider:collection_time": "2023-11-28T08:25:58.546046"}, "geometry": {"coordinates": [-99.715186813, 43.261447195], "type": "Point"}, "id": "LVRN6eHFjY5b2Q7bso_vPACahmE=", "properties": {"@spider": "usps_collection_boxes", "addr:city": "COLOME", "addr:country": "US", "addr:full": "202 MAIN ST", "addr:postcode": "57528", "addr:state": "SD", "amenity": "post_box", "brand": "United States Postal Service", "brand:wikidata": "Q668687", "collection_times": "Mo-Sa 14:00", "name": "USPS COLLECTION BOX - BLUE BOX", "note": "ON 12/24 AND 12/31, THIS BOX MAY BE COLLECTED AS EARLY AS 12 NOON.", "nsi_id": "unitedstatespostalservice-a77078", "operator": "United States Postal Service", "operator:short": "USPS", "operator:type": "public", "operator:wikidata": "Q668687", "ref": "5752800001"}, "type": "Feature"}
{"dataset_attributes": {"@spider": "usps_collection_boxes", "spider:collection_time": "2023-11-28T08:25:58.546046"}, "geometry": {"coordinates": [-99.715186813, 43.261447195], "type": "Point"}, "id": "YoYuDm0hI1k26o3HO03_f0pVbog=", "properties": {"@spider": "usps_collection_boxes", "addr:city": "COLOME", "addr:country": "US", "addr:full": "202 MAIN ST", "addr:postcode": "57528", "addr:state": "SD", "amenity": "post_box", "brand": "United States Postal Service", "brand:wikidata": "Q668687", "collection_times": "Mo-Fr 14:00; Sa 09:00", "name": "USPS COLLECTION BOX - PO LOBBY", "note": "ON 12/24 AND 12/31, THIS BOX MAY BE COLLECTED AS EARLY AS 12 NOON.", "nsi_id": "unitedstatespostalservice-a77078", "operator": "United States Postal Service", "operator:short": "USPS", "operator:type": "public", "operator:wikidata": "Q668687", "ref": "5752800002"}, "type": "Feature"}
{"dataset_attributes": {"@spider": "usps_collection_boxes", "spider:collection_time": "2023-11-28T08:25:58.546046"}, "geometry": {"coordinates": [-99.715186813, 43.261447195], "type": "Point"}, "id": "M-TjAI2LO0rLpFNgQ27154uF1XU=", "properties": {"@spider": "usps_collection_boxes", "addr:city": "COLOME", "addr:country": "US", "addr:full": "202 MAIN ST", "addr:postcode": "57528", "addr:state": "SD", "amenity": "post_box", "brand": "United States Postal Service", "brand:wikidata": "Q668687", "collection_times": "Mo-Fr 14:00; Sa 09:00", "name": "USPS COLLECTION BOX - PO LOBBY", "note": "ON 12/24 AND 12/31, THIS BOX MAY BE COLLECTED AS EARLY AS 12 NOON.", "nsi_id": "unitedstatespostalservice-a77078", "operator": "United States Postal Service", "operator:short": "USPS", "operator:type": "public", "operator:wikidata": "Q668687", "ref": "5752800004"}, "type": "Feature"}
{"dataset_attributes": {"@spider": "usps_collection_boxes", "spider:collection_time": "2023-11-28T08:25:58.546046"}, "geometry": {"coordinates": [-100.540321084, 43.925560574], "type": "Point"}, "id": "9cYszR-ZSTOc9AQsXZ98X9S47jg=", "properties": {"@spider": "usps_collection_boxes", "addr:city": "DRAPER", "addr:country": "US", "addr:full": "147 S MAIN ST", "addr:postcode": "57531", "addr:state": "SD", "amenity": "post_box", "brand": "United States Postal Service", "brand:wikidata": "Q668687", "collection_times": "Mo-Fr 10:45; Sa 11:00", "name": "USPS COLLECTION BOX - PO LOBBY", "nsi_id": "unitedstatespostalservice-a77078", "operator": "United States Postal Service", "operator:short": "USPS", "operator:type": "public", "operator:wikidata": "Q668687", "ref": "5753100002"}, "type": "Feature"}
{"dataset_attributes": {"@spider": "usps_collection_boxes", "spider:collection_time": "2023-11-28T08:25:58.546046"}, "geometry": {"coordinates": [-100.540321084, 43.925560574], "type": "Point"}, "id": "RvjwV3NUCg0aW8WVI3IGjcqzHwU=", "properties": {"@spider": "usps_collection_boxes", "addr:city": "DRAPER", "addr:country": "US", "addr:full": "147 S MAIN ST", "addr:postcode": "57531", "addr:state": "SD", "amenity": "post_box", "brand": "United States Postal Service", "brand:wikidata": "Q668687", "collection_times": "Mo-Fr 10:45; Sa 11:00", "name": "USPS COLLECTION BOX - PO LOBBY", "nsi_id": "unitedstatespostalservice-a77078", "operator": "United States Postal Service", "operator:short": "USPS", "operator:type": "public", "operator:wikidata": "Q668687", "ref": "5753100004"}, "type": "Feature"}
{"dataset_attributes": {"@spider": "usps_collection_boxes", "spider:collection_time": "2023-11-28T08:25:58.546046"}, "geometry": {"coordinates": [-100.373556879, 44.357464916], "type": "Point"}, "id": "eFxN7qWTZM9jL5bOkUf6JK9QGRg=", "properties": {"@spider": "usps_collection_boxes", "addr:city": "FT PIERRE", "addr:country": "US", "addr:full": "412 N DEADWOOD ST", "addr:postcode": "57532", "addr:state": "SD", "amenity": "post_box", "brand": "United States Postal Service", "brand:wikidata": "Q668687", "collection_times": "Mo-Sa 16:00", "name": "USPS COLLECTION BOX - BLUE BOX", "note": "ON 12/24 AND 12/31, THIS BOX MAY BE COLLECTED AS EARLY AS 12 NOON.", "nsi_id": "unitedstatespostalservice-a77078", "operator": "United States Postal Service", "operator:short": "USPS", "operator:type": "public", "operator:wikidata": "Q668687", "ref": "5753200001"}, "type": "Feature"}
{"dataset_attributes": {"@spider": "usps_collection_boxes", "spider:collection_time": "2023-11-28T08:25:58.546046"}, "geometry": {"coordinates": [-100.373556879, 44.357464916], "type": "Point"}, "id": "vYUim6tHtqkE_mq0ULhHr-ZOncI=", "properties": {"@spider": "usps_collection_boxes", "addr:city": "FT PIERRE", "addr:country": "US", "addr:full": "412 N DEADWOOD ST", "addr:postcode": "57532", "addr:state": "SD", "amenity": "post_box", "brand": "United States Postal Service", "brand:wikidata": "Q668687", "collection_times": "Mo-Fr 16:15; Sa 11:00", "name": "USPS COLLECTION BOX - PO LOBBY", "note": "ON 12/24 AND 12/31, THIS BOX MAY BE COLLECTED AS EARLY AS 12 NOON.", "nsi_id": "unitedstatespostalservice-a77078", "operator": "United States Postal Service", "operator:short": "USPS", "operator:type": "public", "operator:wikidata": "Q668687", "ref": "5753200002"}, "type": "Feature"}
{"dataset_attributes": {"@spider": "usps_collection_boxes", "spider:collection_time": "2023-11-28T08:25:58.546046"}, "geometry": {"coordinates": [-100.3735568793, 44.3574649165], "type": "Point"}, "id": "avnYqr9WvEgjlNetAUTre5847PE=", "properties": {"@spider": "usps_collection_boxes", "addr:city": "FT PIERRE", "addr:country": "US", "addr:full": "412 N DEADWOOD ST", "addr:postcode": "57532", "addr:state": "SD", "amenity": "post_box", "brand": "United States Postal Service", "brand:wikidata": "Q668687", "collection_times": "Mo-Fr 16:15", "name": "USPS COLLECTION BOX - PO LOBBY", "note": "ON 12/24 AND 12/31, THIS BOX MAY BE COLLECTED AS EARLY AS 12 NOON.", "nsi_id": "unitedstatespostalservice-a77078", "operator": "United States Postal Service", "operator:short": "USPS", "operator:type": "public", "operator:wikidata": "Q668687", "ref": "5753200004"}, "type": "Feature"}
{"dataset_attributes": {"@spider": "usps_collection_boxes", "spider:collection_time": "2023-11-28T08:25:58.546046"}, "geometry": {"coordinates": [-99.430740241, 43.2313649], "type": "Point"}, "id": "F4EZZ-lEmS057l9owqD3-oi4LLo=", "properties": {"@spider": "usps_collection_boxes", "addr:city": "GREGORY", "addr:country": "US", "addr:full": "517 MAIN ST", "addr:postcode": "57533", "addr:state": "SD", "amenity": "post_box", "brand": "United States Postal Service", "brand:wikidata": "Q668687", "collection_times": "Mo-Sa 13:30", "name": "USPS COLLECTION BOX - BLUE BOX", "note": "ON 12/24 AND 12/31, THIS BOX MAY BE COLLECTED AS EARLY AS 12 NOON.", "nsi_id": "unitedstatespostalservice-a77078", "operator": "United States Postal Service", "operator:short": "USPS", "operator:type": "public", "operator:wikidata": "Q668687", "ref": "5753300001"}, "type": "Feature"}
{"dataset_attributes": {"@spider": "usps_collection_boxes", "spider:collection_time": "2023-11-28T08:25:58.546046"}, "geometry": {"coordinates": [-99.430740241, 43.2313649], "type": "Point"}, "id": "A4v_fiAFco8VLqJYGKwQgDrkmRw=", "properties": {"@spider": "usps_collection_boxes", "addr:city": "GREGORY", "addr:country": "US", "addr:full": "517 MAIN ST", "addr:postcode": "57533", "addr:state": "SD", "amenity": "post_box", "brand": "United States Postal Service", "brand:wikidata": "Q668687", "collection_times": "Mo-Fr 13:30; Sa 10:15", "name": "USPS COLLECTION BOX - PO LOBBY", "note": "ON 12/24 AND 12/31, THIS BOX MAY BE COLLECTED AS EARLY AS 12 NOON.", "nsi_id": "unitedstatespostalservice-a77078", "operator": "United States Postal Service", "operator:short": "USPS", "operator:type": "public", "operator:wikidata": "Q668687", "ref": "5753300004"}, "type": "Feature"}
{"dataset_attributes": {"@spider": "usps_collection_boxes", "spider:collection_time": "2023-11-28T08:25:58.546046"}, "geometry": {"coordinates": [-99.430740241, 43.2313649], "type": "Point"}, "id": "G4JSYmQMChFqpqRwwhLwQ_QvEQg=", "properties": {"@spider": "usps_collection_boxes", "addr:city": "GREGORY", "addr:country": "US", "addr:full": "517 MAIN ST", "addr:postcode": "57533", "addr:state": "SD", "amenity": "post_box", "brand": "United States Postal Service", "brand:wikidata": "Q668687", "collection_times": "Mo-Sa 13:30", "name": "USPS COLLECTION BOX - BLUE BOX", "note": "ON 12/24 AND 12/31, THIS BOX MAY BE COLLECTED AS EARLY AS 12 NOON.", "nsi_id": "unitedstatespostalservice-a77078", "operator": "United States Postal Service", "operator:short": "USPS", "operator:type": "public", "operator:wikidata": "Q668687", "ref": "5753300005"}, "type": "Feature"}
{"dataset_attributes": {"@spider": "usps_collection_boxes", "spider:collection_time": "2023-11-28T08:25:58.546046"}, "geometry": {"coordinates": [-99.430740241, 43.2313649], "type": "Point"}, "id": "eK2aSCSHyMBYmfKv4lqwFILwvFk=", "properties": {"@spider": "usps_collection_boxes", "addr:city": "GREGORY", "addr:country": "US", "addr:full": "517 MAIN ST", "addr:postcode": "57533", "addr:state": "SD", "amenity": "post_box", "brand": "United States Postal Service", "brand:wikidata": "Q668687", "collection_times": "Mo-Fr 13:30; Sa 10:15", "name": "USPS COLLECTION BOX - PO LOBBY", "note": "ON 12/24 AND 12/31, THIS BOX MAY BE COLLECTED AS EARLY AS 12 NOON.", "nsi_id": "unitedstatespostalservice-a77078", "operator": "United States Postal Service", "operator:short": "USPS", "operator:type": "public", "operator:wikidata": "Q668687", "ref": "5753300007"}, "type": "Feature"}
{"dataset_attributes": {"@spider": "usps_collection_boxes", "spider:collection_time": "2023-11-28T08:25:58.546046"}, "geometry": {"coordinates": [-99.68189325, 43.596509956], "type": "Point"}, "id": "KS98VWWiBsy-Xhz79Ldl6R8L66o=", "properties": {"@spider": "usps_collection_boxes", "addr:city": "HAMILL", "addr:country": "US", "addr:full": "26245 MAIN ST", "addr:postcode": "57534", "addr:state": "SD", "amenity": "post_box", "brand": "United States Postal Service", "brand:wikidata": "Q668687", "collection_times": "Mo-Sa 11:30", "name": "USPS COLLECTION BOX - BLUE BOX", "nsi_id": "unitedstatespostalservice-a77078", "operator": "United States Postal Service", "operator:short": "USPS", "operator:type": "public", "operator:wikidata": "Q668687", "ref": "5753400001"}, "type": "Feature"}
{"dataset_attributes": {"@spider": "usps_collection_boxes", "spider:collection_time": "2023-11-28T08:25:58.546046"}, "geometry": {"coordinates": [-99.68189325, 43.596509956], "type": "Point"}, "id": "ga5uQy4zl5cKUMpel4Pk0r65eDc=", "properties": {"@spider": "usps_collection_boxes", "addr:city": "HAMILL", "addr:country": "US", "addr:full": "26245 MAIN ST", "addr:postcode": "57534", "addr:state": "SD", "amenity": "post_box", "brand": "United States Postal Service", "brand:wikidata": "Q668687", "collection_times": "Mo-Sa 11:45", "name": "USPS COLLECTION BOX - PO LOBBY", "nsi_id": "unitedstatespostalservice-a77078", "operator": "United States Postal Service", "operator:short": "USPS", "operator:type": "public", "operator:wikidata": "Q668687", "ref": "5753400002"}, "type": "Feature"}
{"dataset_attributes": {"@spider": "usps_collection_boxes", "spider:collection_time": "2023-11-28T08:25:58.546046"}, "geometry": {"coordinates": [-99.739570876, 44.523757259], "type": "Point"}, "id": "Xs_mUGIfea2eb5KUP84EBdj9bqw=", "properties": {"@spider": "usps_collection_boxes", "addr:city": "HARROLD", "addr:country": "US", "addr:full": "204 S WYMAN ST", "addr:postcode": "57536", "addr:state": "SD", "amenity": "post_box", "brand": "United States Postal Service", "brand:wikidata": "Q668687", "collection_times": "Mo-Sa 15:15", "name": "USPS COLLECTION BOX - BLUE BOX", "note": "ON 12/24 AND 12/31, THIS BOX MAY BE COLLECTED AS EARLY AS 12 NOON.", "nsi_id": "unitedstatespostalservice-a77078", "operator": "United States Postal Service", "operator:short": "USPS", "operator:type": "public", "operator:wikidata": "Q668687", "ref": "5753600001"}, "type": "Feature"}
{"dataset_attributes": {"@spider": "usps_collection_boxes", "spider:collection_time": "2023-11-28T08:25:58.546046"}, "geometry": {"coordinates": [-99.739570876, 44.523757259], "type": "Point"}, "id": "6sc_PcyyqECWQnCl4yoyPdMdCp0=", "properties": {"@spider": "usps_collection_boxes", "addr:city": "HARROLD", "addr:country": "US", "addr:full": "204 S WYMAN ST", "addr:postcode": "57536", "addr:state": "SD", "amenity": "post_box", "brand": "United States Postal Service", "brand:wikidata": "Q668687", "collection_times": "Mo-Fr 12:00; Sa 09:30", "name": "USPS COLLECTION BOX - PO LOBBY", "nsi_id": "unitedstatespostalservice-a77078", "operator": "United States Postal Service", "operator:short": "USPS", "operator:type": "public", "operator:wikidata": "Q668687", "ref": "5753600003"}, "type": "Feature"}
{"dataset_attributes": {"@spider": "usps_collection_boxes", "spider:collection_time": "2023-11-28T08:25:58.546046"}, "geometry": {"coordinates": [-99.7395708759, 44.5237572593], "type": "Point"}, "id": "6VJwZYD-aC15sIHVbkfH4b3CdUs=", "properties": {"@spider": "usps_collection_boxes", "addr:city": "HARROLD", "addr:country": "US", "addr:full": "204 S WYMAN ST", "addr:postcode": "57536", "addr:state": "SD", "amenity": "post_box", "brand": "United States Postal Service", "brand:wikidata": "Q668687", "collection_times": "Mo-Fr 12:00; Sa 09:30", "name": "USPS COLLECTION BOX - PO LOBBY", "nsi_id": "unitedstatespostalservice-a77078", "operator": "United States Postal Service", "operator:short": "USPS", "operator:type": "public", "operator:wikidata": "Q668687", "ref": "5753600004"}, "type": "Feature"}
{"dataset_attributes": {"@spider": "usps_collection_boxes", "spider:collection_time": "2023-11-28T08:25:58.546046"}, "geometry": {"coordinates": [-99.1872631071, 43.114853511], "type": "Point"}, "id": "XQsguty7VzLguT-abDUgz0umci8=", "properties": {"@spider": "usps_collection_boxes", "addr:city": "HERRICK", "addr:country": "US", "addr:full": "727 HERRICK AVE", "addr:postcode": "57538", "addr:state": "SD", "amenity": "post_box", "brand": "United States Postal Service", "brand:wikidata": "Q668687", "collection_times": "Mo-Sa 13:00", "name": "USPS COLLECTION BOX - BLUE BOX", "note": "ON 12/24 AND 12/31, THIS BOX MAY BE COLLECTED AS EARLY AS 12 NOON.", "nsi_id": "unitedstatespostalservice-a77078", "operator": "United States Postal Service", "operator:short": "USPS", "operator:type": "public", "operator:wikidata": "Q668687", "ref": "5753800001"}, "type": "Feature"}
{"dataset_attributes": {"@spider": "usps_collection_boxes", "spider:collection_time": "2023-11-28T08:25:58.546046"}, "geometry": {"coordinates": [-99.1872631071, 43.114853511], "type": "Point"}, "id": "HwM5ezmvRtu5EdQOIoZcmGHMDjQ=", "properties": {"@spider": "usps_collection_boxes", "addr:city": "HERRICK", "addr:country": "US", "addr:full": "727 HERRICK AVE", "addr:postcode": "57538", "addr:state": "SD", "amenity": "post_box", "brand": "United States Postal Service", "brand:wikidata": "Q668687", "collection_times": "Mo-Fr 12:00; Sa 10:25", "name": "USPS COLLECTION BOX - PO LOBBY", "nsi_id": "unitedstatespostalservice-a77078", "operator": "United States Postal Service", "operator:short": "USPS", "operator:type": "public", "operator:wikidata": "Q668687", "ref": "5753800002"}, "type": "Feature"}
{"dataset_attributes": {"@spider": "usps_collection_boxes", "spider:collection_time": "2023-11-28T08:25:58.546046"}, "geometry": {"coordinates": [-99.1872631071, 43.114853511], "type": "Point"}, "id": "JivjOy4ukl2a3qVflxvlBLldVIc=", "properties": {"@spider": "usps_collection_boxes", "addr:city": "HERRICK", "addr:country": "US", "addr:full": "727 HERRICK AVE", "addr:postcode": "57538", "addr:state": "SD", "amenity": "post_box", "brand": "United States Postal Service", "brand:wikidata": "Q668687", "collection_times": "Mo-Fr 12:00; Sa 10:30", "name": "USPS COLLECTION BOX - PO LOBBY", "nsi_id": "unitedstatespostalservice-a77078", "operator": "United States Postal Service", "operator:short": "USPS", "operator:type": "public", "operator:wikidata": "Q668687", "ref": "5753800005"}, "type": "Feature"}
{"dataset_attributes": {"@spider": "usps_collection_boxes", "spider:collection_time": "2023-11-28T08:25:58.546046"}, "geometry": {"coordinates": [-99.919702507, 43.543362116], "type": "Point"}, "id": "kAwZBufnyHrIVbk2uwkaQwvVFgI=", "properties": {"@spider": "usps_collection_boxes", "addr:city": "IDEAL", "addr:country": "US", "addr:full": "31210 266TH ST", "addr:postcode": "57541", "addr:state": "SD", "amenity": "post_box", "brand": "United States Postal Service", "brand:wikidata": "Q668687", "collection_times": "Mo-Sa 12:00", "name": "USPS COLLECTION BOX - BLUE BOX", "nsi_id": "unitedstatespostalservice-a77078", "operator": "United States Postal Service", "operator:short": "USPS", "operator:type": "public", "operator:wikidata": "Q668687", "ref": "5754100000"}, "type": "Feature"}
{"dataset_attributes": {"@spider": "usps_collection_boxes", "spider:collection_time": "2023-11-28T08:25:58.546046"}, "geometry": {"coordinates": [-99.919702507, 43.543362116], "type": "Point"}, "id": "7clTdA7Uul1sjOJA6EPj0PTmOy4=", "properties": {"@spider": "usps_collection_boxes", "addr:city": "IDEAL", "addr:country": "US", "addr:full": "31210 266TH ST", "addr:postcode": "57541", "addr:state": "SD", "amenity": "post_box", "brand": "United States Postal Service", "brand:wikidata": "Q668687", "collection_times": "Mo-Fr 11:00; Sa 12:00", "name": "USPS COLLECTION BOX - PO LOBBY", "nsi_id": "unitedstatespostalservice-a77078", "operator": "United States Postal Service", "operator:short": "USPS", "operator:type": "public", "operator:wikidata": "Q668687", "ref": "5754100001"}, "type": "Feature"}
{"dataset_attributes": {"@spider": "usps_collection_boxes", "spider:collection_time": "2023-11-28T08:25:58.546046"}, "geometry": {"coordinates": [-101.510279562, 43.832691534], "type": "Point"}, "id": "wIzCkCbGDRFbRKQ-NiILanzn4Ow=", "properties": {"@spider": "usps_collection_boxes", "addr:city": "KADOKA", "addr:country": "US", "addr:full": "1001 MAIN ST", "addr:postcode": "57543", "addr:state": "SD", "amenity": "post_box", "brand": "United States Postal Service", "brand:wikidata": "Q668687", "collection_times": "Mo-Sa 13:45", "name": "USPS COLLECTION BOX - BLUE BOX", "note": "ON 12/24 AND 12/31, THIS BOX MAY BE COLLECTED AS EARLY AS 12 NOON.", "nsi_id": "unitedstatespostalservice-a77078", "operator": "United States Postal Service", "operator:short": "USPS", "operator:type": "public", "operator:wikidata": "Q668687", "ref": "5754300001"}, "type": "Feature"}
{"dataset_attributes": {"@spider": "usps_collection_boxes", "spider:collection_time": "2023-11-28T08:25:58.546046"}, "geometry": {"coordinates": [-101.510279562, 43.832691534], "type": "Point"}, "id": "vumfUZQ3l_o1v7sbhhrFg0xpW04=", "properties": {"@spider": "usps_collection_boxes", "addr:city": "KADOKA", "addr:country": "US", "addr:full": "1001 MAIN ST", "addr:postcode": "57543", "addr:state": "SD", "amenity": "post_box", "brand": "United States Postal Service", "brand:wikidata": "Q668687", "collection_times": "Mo-Fr 13:45; Sa 09:30", "name": "USPS COLLECTION BOX - PO LOBBY", "note": "ON 12/24 AND 12/31, THIS BOX MAY BE COLLECTED AS EARLY AS 12 NOON.", "nsi_id": "unitedstatespostalservice-a77078", "operator": "United States Postal Service", "operator:short": "USPS", "operator:type": "public", "operator:wikidata": "Q668687", "ref": "5754300003"}, "type": "Feature"}
{"dataset_attributes": {"@spider": "usps_collection_boxes", "spider:collection_time": "2023-11-28T08:25:58.546046"}, "geometry": {"coordinates": [-99.861932821, 43.903125], "type": "Point"}, "id": "5OEOKmUH7F0sQ918XHwDiw-rqOo=", "properties": {"@spider": "usps_collection_boxes", "addr:city": "KENNEBEC", "addr:country": "US", "addr:full": "210 S MAIN ST", "addr:postcode": "57544", "addr:state": "SD", "amenity": "post_box", "brand": "United States Postal Service", "brand:wikidata": "Q668687", "collection_times": "Mo-Fr 11:30; Sa 09:30", "name": "USPS COLLECTION BOX - PO LOBBY", "nsi_id": "unitedstatespostalservice-a77078", "operator": "United States Postal Service", "operator:short": "USPS", "operator:type": "public", "operator:wikidata": "Q668687", "ref": "5754400002"}, "type": "Feature"}
{"dataset_attributes": {"@spider": "usps_collection_boxes", "spider:collection_time": "2023-11-28T08:25:58.546046"}, "geometry": {"coordinates": [-99.861932821, 43.903125], "type": "Point"}, "id": "Dtv3f2WaeDoI1dCFheU8n0YxHy8=", "properties": {"@spider": "usps_collection_boxes", "addr:city": "KENNEBEC", "addr:country": "US", "addr:full": "210 S MAIN ST", "addr:postcode": "57544", "addr:state": "SD", "amenity": "post_box", "brand": "United States Postal Service", "brand:wikidata": "Q668687", "collection_times": "Mo-Sa 15:30", "name": "USPS COLLECTION BOX - BLUE BOX", "note": "ON 12/24 AND 12/31, THIS BOX MAY BE COLLECTED AS EARLY AS 12 NOON.", "nsi_id": "unitedstatespostalservice-a77078", "operator": "United States Postal Service", "operator:short": "USPS", "operator:type": "public", "operator:wikidata": "Q668687", "ref": "5754400003"}, "type": "Feature"}
{"dataset_attributes": {"@spider": "usps_collection_boxes", "spider:collection_time": "2023-11-28T08:25:58.546046"}, "geometry": {"coordinates": [-99.580690763, 44.075800124], "type": "Point"}, "id": "-o0XbKpnOwfGSBxdwN_zeYQpXsk=", "properties": {"@spider": "usps_collection_boxes", "addr:city": "LOWER BRULE", "addr:country": "US", "addr:full": "312 CRAZY HORSE AVE", "addr:postcode": "57548", "addr:state": "SD", "amenity": "post_box", "brand": "United States Postal Service", "brand:wikidata": "Q668687", "collection_times": "Mo-Sa 14:30", "name": "USPS COLLECTION BOX - BLUE BOX", "note": "ON 12/24 AND 12/31, THIS BOX MAY BE COLLECTED AS EARLY AS 12 NOON.", "nsi_id": "unitedstatespostalservice-a77078", "operator": "United States Postal Service", "operator:short": "USPS", "operator:type": "public", "operator:wikidata": "Q668687", "ref": "5754800001"}, "type": "Feature"}
{"dataset_attributes": {"@spider": "usps_collection_boxes", "spider:collection_time": "2023-11-28T08:25:58.546046"}, "geometry": {"coordinates": [-99.580690763, 44.075800124], "type": "Point"}, "id": "5p6VJGOL8t97naNKUFI0i0Lri1g=", "properties": {"@spider": "usps_collection_boxes", "addr:city": "LOWER BRULE", "addr:country": "US", "addr:full": "312 CRAZY HORSE AVE", "addr:postcode": "57548", "addr:state": "SD", "amenity": "post_box", "brand": "United States Postal Service", "brand:wikidata": "Q668687", "collection_times": "Mo-Fr 13:00; Sa 11:45", "name": "USPS COLLECTION BOX - PO LOBBY", "note": "ON 12/24 AND 12/31, THIS BOX MAY BE COLLECTED AS EARLY AS 12 NOON.", "nsi_id": "unitedstatespostalservice-a77078", "operator": "United States Postal Service", "operator:short": "USPS", "operator:type": "public", "operator:wikidata": "Q668687", "ref": "5754800002"}, "type": "Feature"}
{"dataset_attributes": {"@spider": "usps_collection_boxes", "spider:collection_time": "2023-11-28T08:25:58.546046"}, "geometry": {"coordinates": [-101.734954962, 43.175266968], "type": "Point"}, "id": "lebIrNoEpV5BUoht8t6DS-qSIAs=", "properties": {"@spider": "usps_collection_boxes", "addr:city": "MARTIN", "addr:country": "US", "addr:full": "506 3RD AVE", "addr:postcode": "57551", "addr:state": "SD", "amenity": "post_box", "brand": "United States Postal Service", "brand:wikidata": "Q668687", "collection_times": "Mo-Fr 12:15; Sa 10:45", "name": "USPS COLLECTION BOX - BLUE BOX", "note": "ON 12/24 AND 12/31, THIS BOX MAY BE COLLECTED AS EARLY AS 12 NOON.", "nsi_id": "unitedstatespostalservice-a77078", "operator": "United States Postal Service", "operator:short": "USPS", "operator:type": "public", "operator:wikidata": "Q668687", "ref": "5755100001"}, "type": "Feature"}
{"dataset_attributes": {"@spider": "usps_collection_boxes", "spider:collection_time": "2023-11-28T08:25:58.546046"}, "geometry": {"coordinates": [-101.702180259, 43.171979958], "type": "Point"}, "id": "bBgx26f_rG3zC88vkiSrYyjI4So=", "properties": {"@spider": "usps_collection_boxes", "addr:city": "MARTIN", "addr:country": "US", "addr:full": "2 HIGHWAY 73", "addr:postcode": "57551", "addr:state": "SD", "amenity": "post_box", "brand": "United States Postal Service", "brand:wikidata": "Q668687", "collection_times": "Mo-Sa 12:00", "name": "USPS COLLECTION BOX - BLUE BOX", "nsi_id": "unitedstatespostalservice-a77078", "operator": "United States Postal Service", "operator:short": "USPS", "operator:type": "public", "operator:wikidata": "Q668687", "ref": "5755100002"}, "type": "Feature"}
{"dataset_attributes": {"@spider": "usps_collection_boxes", "spider:collection_time": "2023-11-28T08:25:58.546046"}, "geometry": {"coordinates": [-101.734954962, 43.175266968], "type": "Point"}, "id": "vdvQ9m5nPzDQDxSv9O7qG1i6Lcg=", "properties": {"@spider": "usps_collection_boxes", "addr:city": "MARTIN", "addr:country": "US", "addr:full": "506 3RD AVE", "addr:postcode": "57551", "addr:state": "SD", "amenity": "post_box", "brand": "United States Postal Service", "brand:wikidata": "Q668687", "collection_times": "Mo-Fr 12:15; Sa 10:45", "name": "USPS COLLECTION BOX - PO LOBBY", "note": "ON 12/24 AND 12/31, THIS BOX MAY BE COLLECTED AS EARLY AS 12 NOON.", "nsi_id": "unitedstatespostalservice-a77078", "operator": "United States Postal Service", "operator:short": "USPS", "operator:type": "public", "operator:wikidata": "Q668687", "ref": "5755100003"}, "type": "Feature"}
{"dataset_attributes": {"@spider": "usps_collection_boxes", "spider:collection_time": "2023-11-28T08:25:58.546046"}, "geometry": {"coordinates": [-101.147686247, 44.070776338], "type": "Point"}, "id": "WBckLUiR6RZ0HNeiHB4X4El6Bc0=", "properties": {"@spider": "usps_collection_boxes", "addr:city": "MIDLAND", "addr:country": "US", "addr:full": "402 MAIN ST", "addr:postcode": "57552", "addr:state": "SD", "amenity": "post_box", "brand": "United States Postal Service", "brand:wikidata": "Q668687", "collection_times": "Mo-Sa 12:45", "name": "USPS COLLECTION BOX - BLUE BOX", "note": "ON 12/24 AND 12/31, THIS BOX MAY BE COLLECTED AS EARLY AS 12 NOON.", "nsi_id": "unitedstatespostalservice-a77078", "operator": "United States Postal Service", "operator:short": "USPS", "operator:type": "public", "operator:wikidata": "Q668687", "ref": "5755200001"}, "type": "Feature"}
{"dataset_attributes": {"@spider": "usps_collection_boxes", "spider:collection_time": "2023-11-28T08:25:58.546046"}, "geometry": {"coordinates": [-101.147686247, 44.070776338], "type": "Point"}, "id": "9DfnwCiVBP-omZKWp2iOXlq6J2I=", "properties": {"@spider": "usps_collection_boxes", "addr:city": "MIDLAND", "addr:country": "US", "addr:full": "402 MAIN ST", "addr:postcode": "57552", "addr:state": "SD", "amenity": "post_box", "brand": "United States Postal Service", "brand:wikidata": "Q668687", "collection_times": "Mo-Fr 12:45; Sa 09:00", "name": "USPS COLLECTION BOX - PO LOBBY", "note": "ON 12/24 AND 12/31, THIS BOX MAY BE COLLECTED AS EARLY AS 12 NOON.", "nsi_id": "unitedstatespostalservice-a77078", "operator": "United States Postal Service", "operator:short": "USPS", "operator:type": "public", "operator:wikidata": "Q668687", "ref": "5755200002"}, "type": "Feature"}
{"dataset_attributes": {"@spider": "usps_collection_boxes", "spider:collection_time": "2023-11-28T08:25:58.546046"}, "geometry": {"coordinates": [-100.657919022, 43.304820522], "type": "Point"}, "id": "hq9R71jrQozZepjYqZMXdzl5JOk=", "properties": {"@spider": "usps_collection_boxes", "addr:city": "MISSION", "addr:country": "US", "addr:full": "150 E 3RD ST", "addr:postcode": "57555", "addr:state": "SD", "amenity": "post_box", "brand": "United States Postal Service", "brand:wikidata": "Q668687", "collection_times": "Mo-Sa 13:45", "name": "USPS COLLECTION BOX - BLUE BOX", "note": "ON 12/24 AND 12/31, THIS BOX MAY BE COLLECTED AS EARLY AS 12 NOON.", "nsi_id": "unitedstatespostalservice-a77078", "operator": "United States Postal Service", "operator:short": "USPS", "operator:type": "public", "operator:wikidata": "Q668687", "ref": "5755500001"}, "type": "Feature"}
{"dataset_attributes": {"@spider": "usps_collection_boxes", "spider:collection_time": "2023-11-28T08:25:58.546046"}, "geometry": {"coordinates": [-100.657919022, 43.304820522], "type": "Point"}, "id": "xBwndTB5zn6DxN5w9WhX4n0vjD4=", "properties": {"@spider": "usps_collection_boxes", "addr:city": "MISSION", "addr:country": "US", "addr:full": "150 E 3RD ST", "addr:postcode": "57555", "addr:state": "SD", "amenity": "post_box", "brand": "United States Postal Service", "brand:wikidata": "Q668687", "collection_times": "Mo-Fr 13:45; Sa 13:00", "name": "USPS COLLECTION BOX - PO LOBBY", "note": "ON 12/24 AND 12/31, THIS BOX MAY BE COLLECTED AS EARLY AS 12 NOON.", "nsi_id": "unitedstatespostalservice-a77078", "operator": "United States Postal Service", "operator:short": "USPS", "operator:type": "public", "operator:wikidata": "Q668687", "ref": "5755500002"}, "type": "Feature"}
{"dataset_attributes": {"@spider": "usps_collection_boxes", "spider:collection_time": "2023-11-28T08:25:58.546046"}, "geometry": {"coordinates": [-100.71332884, 43.889423282], "type": "Point"}, "id": "cJGr8qlzX334a2obcH68V3M4gPQ=", "properties": {"@spider": "usps_collection_boxes", "addr:city": "MURDO", "addr:country": "US", "addr:full": "216 MAIN ST", "addr:postcode": "57559", "addr:state": "SD", "amenity": "post_box", "brand": "United States Postal Service", "brand:wikidata": "Q668687", "collection_times": "Mo-Sa 15:30", "name": "USPS COLLECTION BOX - BLUE BOX", "note": "ON 12/24 AND 12/31, THIS BOX MAY BE COLLECTED AS EARLY AS 12 NOON.", "nsi_id": "unitedstatespostalservice-a77078", "operator": "United States Postal Service", "operator:short": "USPS", "operator:type": "public", "operator:wikidata": "Q668687", "ref": "5755900001"}, "type": "Feature"}
{"dataset_attributes": {"@spider": "usps_collection_boxes", "spider:collection_time": "2023-11-28T08:25:58.546046"}, "geometry": {"coordinates": [-100.71332884, 43.889423282], "type": "Point"}, "id": "sTVi0uFdFvsIASWdp8l5QCNRe5s=", "properties": {"@spider": "usps_collection_boxes", "addr:city": "MURDO", "addr:country": "US", "addr:full": "216 MAIN ST", "addr:postcode": "57559", "addr:state": "SD", "amenity": "post_box", "brand": "United States Postal Service", "brand:wikidata": "Q668687", "collection_times": "Mo-Fr 15:30; Sa 09:30", "name": "USPS COLLECTION BOX - PO LOBBY", "note": "ON 12/24 AND 12/31, THIS BOX MAY BE COLLECTED AS EARLY AS 12 NOON.", "nsi_id": "unitedstatespostalservice-a77078", "operator": "United States Postal Service", "operator:short": "USPS", "operator:type": "public", "operator:wikidata": "Q668687", "ref": "5755900002"}, "type": "Feature"}
{"dataset_attributes": {"@spider": "usps_collection_boxes", "spider:collection_time": "2023-11-28T08:25:58.546046"}, "geometry": {"coordinates": [-101.204634197, 43.518957525], "type": "Point"}, "id": "8xF0Bl1-TqQD0AJ4H1J2KfjcIYk=", "properties": {"@spider": "usps_collection_boxes", "addr:city": "NORRIS", "addr:country": "US", "addr:full": "27149 SD HIGHWAY 63", "addr:postcode": "57560", "addr:state": "SD", "amenity": "post_box", "brand": "United States Postal Service", "brand:wikidata": "Q668687", "collection_times": "Mo-Fr 12:30; Sa 10:15", "name": "USPS COLLECTION BOX - BLUE BOX", "note": "ON 12/24 AND 12/31, THIS BOX MAY BE COLLECTED AS EARLY AS 12 NOON.", "nsi_id": "unitedstatespostalservice-a77078", "operator": "United States Postal Service", "operator:short": "USPS", "operator:type": "public", "operator:wikidata": "Q668687", "ref": "5756000000"}, "type": "Feature"}
{"dataset_attributes": {"@spider": "usps_collection_boxes", "spider:collection_time": "2023-11-28T08:25:58.546046"}, "geometry": {"coordinates": [-101.204634197, 43.518957525], "type": "Point"}, "id": "OI9bd876Rvz29jnC3mLcmzpxWXo=", "properties": {"@spider": "usps_collection_boxes", "addr:city": "NORRIS", "addr:country": "US", "addr:full": "27149 SD HIGHWAY 63", "addr:postcode": "57560", "addr:state": "SD", "amenity": "post_box", "brand": "United States Postal Service", "brand:wikidata": "Q668687", "collection_times": "Mo-Fr 12:30; Sa 10:45", "name": "USPS COLLECTION BOX - PO LOBBY", "note": "ON 12/24 AND 12/31, THIS BOX MAY BE COLLECTED AS EARLY AS 12 NOON.", "nsi_id": "unitedstatespostalservice-a77078", "operator": "United States Postal Service", "operator:short": "USPS", "operator:type": "public", "operator:wikidata": "Q668687", "ref": "5756000001"}, "type": "Feature"}
{"dataset_attributes": {"@spider": "usps_collection_boxes", "spider:collection_time": "2023-11-28T08:25:58.546046"}, "geometry": {"coordinates": [-100.38838, 43.358175], "type": "Point"}, "id": "LJmmdvkRufTxodOGEg2n2gh7K3s=", "properties": {"@spider": "usps_collection_boxes", "addr:city": "OKREEK", "addr:country": "US", "addr:full": "1 SE 1ST ST", "addr:postcode": "57563", "addr:state": "SD", "amenity": "post_box", "brand": "United States Postal Service", "brand:wikidata": "Q668687", "collection_times": "Mo-Sa 10:50", "name": "USPS COLLECTION BOX - BLUE BOX", "nsi_id": "unitedstatespostalservice-a77078", "operator": "United States Postal Service", "operator:short": "USPS", "operator:type": "public", "operator:wikidata": "Q668687", "ref": "5756300001"}, "type": "Feature"}
{"dataset_attributes": {"@spider": "usps_collection_boxes", "spider:collection_time": "2023-11-28T08:25:58.546046"}, "geometry": {"coordinates": [-100.066032139, 44.706653489], "type": "Point"}, "id": "69CxQPYJnXzRscO0DyZKt8qmuiI=", "properties": {"@spider": "usps_collection_boxes", "addr:city": "ONIDA", "addr:country": "US", "addr:full": "703 BIRCH AVE", "addr:postcode": "57564", "addr:state": "SD", "amenity": "post_box", "brand": "United States Postal Service", "brand:wikidata": "Q668687", "collection_times": "Mo-Sa 15:15", "name": "USPS COLLECTION BOX - BLUE BOX", "note": "ON 12/24 AND 12/31, THIS BOX MAY BE COLLECTED AS EARLY AS 12 NOON.", "nsi_id": "unitedstatespostalservice-a77078", "operator": "United States Postal Service", "operator:short": "USPS", "operator:type": "public", "operator:wikidata": "Q668687", "ref": "5756400001"}, "type": "Feature"}
{"dataset_attributes": {"@spider": "usps_collection_boxes", "spider:collection_time": "2023-11-28T08:25:58.546046"}, "geometry": {"coordinates": [-100.066032139, 44.706653489], "type": "Point"}, "id": "8gLwkZr9e0yLPFUtfkeKiYcR2fI=", "properties": {"@spider": "usps_collection_boxes", "addr:city": "ONIDA", "addr:country": "US", "addr:full": "703 BIRCH AVE", "addr:postcode": "57564", "addr:state": "SD", "amenity": "post_box", "brand": "United States Postal Service", "brand:wikidata": "Q668687", "collection_times": "Mo-Fr 15:15; Sa 10:00", "name": "USPS COLLECTION BOX - PO LOBBY", "note": "ON 12/24 AND 12/31, THIS BOX MAY BE COLLECTED AS EARLY AS 12 NOON.", "nsi_id": "unitedstatespostalservice-a77078", "operator": "United States Postal Service", "operator:short": "USPS", "operator:type": "public", "operator:wikidata": "Q668687", "ref": "5756400002"}, "type": "Feature"}
{"dataset_attributes": {"@spider": "usps_collection_boxes", "spider:collection_time": "2023-11-28T08:25:58.546046"}, "geometry": {"coordinates": [-101.031168498, 43.321550808], "type": "Point"}, "id": "-uExELPfrMHJr-OyMHk2XCZPMtE=", "properties": {"@spider": "usps_collection_boxes", "addr:city": "PARMELEE", "addr:country": "US", "addr:full": "200 2ND ST", "addr:postcode": "57566", "addr:state": "SD", "amenity": "post_box", "brand": "United States Postal Service", "brand:wikidata": "Q668687", "collection_times": "Mo-Fr 11:45; Sa 10:30", "name": "USPS COLLECTION BOX - BLUE BOX", "nsi_id": "unitedstatespostalservice-a77078", "operator": "United States Postal Service", "operator:short": "USPS", "operator:type": "public", "operator:wikidata": "Q668687", "ref": "5756600001"}, "type": "Feature"}
{"dataset_attributes": {"@spider": "usps_collection_boxes", "spider:collection_time": "2023-11-28T08:25:58.546046"}, "geometry": {"coordinates": [-101.031168498, 43.321550808], "type": "Point"}, "id": "lOytRG3UWTt4Awbakd77RGSDRKE=", "properties": {"@spider": "usps_collection_boxes", "addr:city": "PARMELEE", "addr:country": "US", "addr:full": "200 2ND ST", "addr:postcode": "57566", "addr:state": "SD", "amenity": "post_box", "brand": "United States Postal Service", "brand:wikidata": "Q668687", "collection_times": "Mo-Fr 12:00; Sa 11:55", "name": "USPS COLLECTION BOX - PO LOBBY", "nsi_id": "unitedstatespostalservice-a77078", "operator": "United States Postal Service", "operator:short": "USPS", "operator:type": "public", "operator:wikidata": "Q668687", "ref": "5756600002"}, "type": "Feature"}
{"dataset_attributes": {"@spider": "usps_collection_boxes", "spider:collection_time": "2023-11-28T08:25:58.546046"}, "geometry": {"coordinates": [-101.664757749, 44.039337018], "type": "Point"}, "id": "60WOn1fJNBs7s_PxHiC-Z7YEtyc=", "properties": {"@spider": "usps_collection_boxes", "addr:city": "PHILIP", "addr:country": "US", "addr:full": "214 E PINE ST", "addr:postcode": "57567", "addr:state": "SD", "amenity": "post_box", "brand": "United States Postal Service", "brand:wikidata": "Q668687", "collection_times": "Mo-Sa 13:15", "name": "USPS COLLECTION BOX - BLUE BOX", "note": "ON 12/24 AND 12/31, THIS BOX MAY BE COLLECTED AS EARLY AS 12 NOON.", "nsi_id": "unitedstatespostalservice-a77078", "operator": "United States Postal Service", "operator:short": "USPS", "operator:type": "public", "operator:wikidata": "Q668687", "ref": "5756700001"}, "type": "Feature"}
{"dataset_attributes": {"@spider": "usps_collection_boxes", "spider:collection_time": "2023-11-28T08:25:58.546046"}, "geometry": {"coordinates": [-101.664757749, 44.039337018], "type": "Point"}, "id": "SalDNYzYFKy3OD-goKY2o3nlt8Q=", "properties": {"@spider": "usps_collection_boxes", "addr:city": "PHILIP", "addr:country": "US", "addr:full": "214 E PINE ST", "addr:postcode": "57567", "addr:state": "SD", "amenity": "post_box", "brand": "United States Postal Service", "brand:wikidata": "Q668687", "collection_times": "Mo-Fr 13:15; Sa 10:00", "name": "USPS COLLECTION BOX - PO LOBBY", "note": "ON 12/24 AND 12/31, THIS BOX MAY BE COLLECTED AS EARLY AS 12 NOON.", "nsi_id": "unitedstatespostalservice-a77078", "operator": "United States Postal Service", "operator:short": "USPS", "operator:type": "public", "operator:wikidata": "Q668687", "ref": "5756700002"}, "type": "Feature"}
{"dataset_attributes": {"@spider": "usps_collection_boxes", "spider:collection_time": "2023-11-28T08:25:58.546046"}, "geometry": {"coordinates": [-100.058645905, 43.910046199], "type": "Point"}, "id": "Dr3j3j4-HdrNMoWVcRxZentdjHs=", "properties": {"@spider": "usps_collection_boxes", "addr:city": "PRESHO", "addr:country": "US", "addr:full": "210 N MAIN AVE", "addr:postcode": "57568", "addr:state": "SD", "amenity": "post_box", "brand": "United States Postal Service", "brand:wikidata": "Q668687", "collection_times": "Mo-Sa 15:45", "name": "USPS COLLECTION BOX - BLUE BOX", "note": "ON 12/24 AND 12/31, THIS BOX MAY BE COLLECTED AS EARLY AS 12 NOON.", "nsi_id": "unitedstatespostalservice-a77078", "operator": "United States Postal Service", "operator:short": "USPS", "operator:type": "public", "operator:wikidata": "Q668687", "ref": "5756800001"}, "type": "Feature"}
{"dataset_attributes": {"@spider": "usps_collection_boxes", "spider:collection_time": "2023-11-28T08:25:58.546046"}, "geometry": {"coordinates": [-100.058645905, 43.910046199], "type": "Point"}, "id": "i3Pa8YHpkUVdNTnHWK5AqWVuCnE=", "properties": {"@spider": "usps_collection_boxes", "addr:city": "PRESHO", "addr:country": "US", "addr:full": "210 N MAIN AVE", "addr:postcode": "57568", "addr:state": "SD", "amenity": "post_box", "brand": "United States Postal Service", "brand:wikidata": "Q668687", "collection_times": "Mo-Fr 15:45; Sa 10:00", "name": "USPS COLLECTION BOX - PO LOBBY", "note": "ON 12/24 AND 12/31, THIS BOX MAY BE COLLECTED AS EARLY AS 12 NOON.", "nsi_id": "unitedstatespostalservice-a77078", "operator": "United States Postal Service", "operator:short": "USPS", "operator:type": "public", "operator:wikidata": "Q668687", "ref": "5756800002"}, "type": "Feature"}
{"dataset_attributes": {"@spider": "usps_collection_boxes", "spider:collection_time": "2023-11-28T08:25:58.546046"}, "geometry": {"coordinates": [-99.605162687, 43.875043255], "type": "Point"}, "id": "ZpCQC09akYBdz9N_dVCrWkePlFs=", "properties": {"@spider": "usps_collection_boxes", "addr:city": "RELIANCE", "addr:country": "US", "addr:full": "202 W HIGHWAY 47", "addr:postcode": "57569", "addr:state": "SD", "amenity": "post_box", "brand": "United States Postal Service", "brand:wikidata": "Q668687", "collection_times": "Mo-Sa 15:00", "name": "USPS COLLECTION BOX - BLUE BOX", "note": "ON 12/24 AND 12/31, THIS BOX MAY BE COLLECTED AS EARLY AS 12 NOON.", "nsi_id": "unitedstatespostalservice-a77078", "operator": "United States Postal Service", "operator:short": "USPS", "operator:type": "public", "operator:wikidata": "Q668687", "ref": "5756900001"}, "type": "Feature"}
{"dataset_attributes": {"@spider": "usps_collection_boxes", "spider:collection_time": "2023-11-28T08:25:58.546046"}, "geometry": {"coordinates": [-99.605162687, 43.875043255], "type": "Point"}, "id": "U5reS-wU2O9jk2BXqGuI_uTDPXM=", "properties": {"@spider": "usps_collection_boxes", "addr:city": "RELIANCE", "addr:country": "US", "addr:full": "202 W HIGHWAY 47", "addr:postcode": "57569", "addr:state": "SD", "amenity": "post_box", "brand": "United States Postal Service", "brand:wikidata": "Q668687", "collection_times": "Mo-Fr 11:00; Sa 08:30", "name": "USPS COLLECTION BOX - PO LOBBY", "nsi_id": "unitedstatespostalservice-a77078", "operator": "United States Postal Service", "operator:short": "USPS", "operator:type": "public", "operator:wikidata": "Q668687", "ref": "5756900002"}, "type": "Feature"}
{"dataset_attributes": {"@spider": "usps_collection_boxes", "spider:collection_time": "2023-11-28T08:25:58.546046"}, "geometry": {"coordinates": [-100.8380989, 43.249385], "type": "Point"}, "id": "Np-vih4oA8RgA_Nu7nf349iROSs=", "properties": {"@spider": "usps_collection_boxes", "addr:city": "ROSEBUD", "addr:country": "US", "addr:full": "9998 FAIRGROUNDS RD", "addr:postcode": "57570", "addr:state": "SD", "amenity": "post_box", "brand": "United States Postal Service", "brand:wikidata": "Q668687", "collection_times": "Mo-Sa 13:00", "name": "USPS COLLECTION BOX - BLUE BOX", "note": "ON 12/24 AND 12/31, THIS BOX MAY BE COLLECTED AS EARLY AS 12 NOON.", "nsi_id": "unitedstatespostalservice-a77078", "operator": "United States Postal Service", "operator:short": "USPS", "operator:type": "public", "operator:wikidata": "Q668687", "ref": "5757000001"}, "type": "Feature"}
{"dataset_attributes": {"@spider": "usps_collection_boxes", "spider:collection_time": "2023-11-28T08:25:58.546046"}, "geometry": {"coordinates": [-100.8380989, 43.249385], "type": "Point"}, "id": "GSaDTyFfeGgeQOUdeX0DQ1e8sxI=", "properties": {"@spider": "usps_collection_boxes", "addr:city": "ROSEBUD", "addr:country": "US", "addr:full": "9998 FAIRGROUNDS RD", "addr:postcode": "57570", "addr:state": "SD", "amenity": "post_box", "brand": "United States Postal Service", "brand:wikidata": "Q668687", "collection_times": "Mo-Fr 13:00; Sa 11:30", "name": "USPS COLLECTION BOX - PO LOBBY", "note": "ON 12/24 AND 12/31, THIS BOX MAY BE COLLECTED AS EARLY AS 12 NOON.", "nsi_id": "unitedstatespostalservice-a77078", "operator": "United States Postal Service", "operator:short": "USPS", "operator:type": "public", "operator:wikidata": "Q668687", "ref": "5757000003"}, "type": "Feature"}
{"dataset_attributes": {"@spider": "usps_collection_boxes", "spider:collection_time": "2023-11-28T08:25:58.546046"}, "geometry": {"coordinates": [-100.905307847, 43.144646653], "type": "Point"}, "id": "2Ya5-YRTUHu6ly7NRLiNFbVfMs0=", "properties": {"@spider": "usps_collection_boxes", "addr:city": "SAINT FRANCIS", "addr:country": "US", "addr:full": "1 MAIN ST", "addr:postcode": "57572", "addr:state": "SD", "amenity": "post_box", "brand": "United States Postal Service", "brand:wikidata": "Q668687", "collection_times": "Mo-Fr 12:45; Sa 11:00", "name": "USPS COLLECTION BOX - PO LOBBY", "note": "ON 12/24 AND 12/31, THIS BOX MAY BE COLLECTED AS EARLY AS 12 NOON.", "nsi_id": "unitedstatespostalservice-a77078", "operator": "United States Postal Service", "operator:short": "USPS", "operator:type": "public", "operator:wikidata": "Q668687", "ref": "5757200002"}, "type": "Feature"}
{"dataset_attributes": {"@spider": "usps_collection_boxes", "spider:collection_time": "2023-11-28T08:25:58.546046"}, "geometry": {"coordinates": [-100.292006159, 43.926820146], "type": "Point"}, "id": "rhTT6XGnuTwklQW-jzrIZhrUjqo=", "properties": {"@spider": "usps_collection_boxes", "addr:city": "VIVIAN", "addr:country": "US", "addr:full": "109 S MAIN AVE", "addr:postcode": "57576", "addr:state": "SD", "amenity": "post_box", "brand": "United States Postal Service", "brand:wikidata": "Q668687", "collection_times": "Mo-Sa 16:00", "name": "USPS COLLECTION BOX - BLUE BOX", "note": "ON 12/24 AND 12/31, THIS BOX MAY BE COLLECTED AS EARLY AS 12 NOON.", "nsi_id": "unitedstatespostalservice-a77078", "operator": "United States Postal Service", "operator:short": "USPS", "operator:type": "public", "operator:wikidata": "Q668687", "ref": "5757600001"}, "type": "Feature"}
{"dataset_attributes": {"@spider": "usps_collection_boxes", "spider:collection_time": "2023-11-28T08:25:58.546046"}, "geometry": {"coordinates": [-100.292006159, 43.926820146], "type": "Point"}, "id": "W0SC6bcFkld76R3YBe9GwIAk6Ss=", "properties": {"@spider": "usps_collection_boxes", "addr:city": "VIVIAN", "addr:country": "US", "addr:full": "109 S MAIN AVE", "addr:postcode": "57576", "addr:state": "SD", "amenity": "post_box", "brand": "United States Postal Service", "brand:wikidata": "Q668687", "collection_times": "Mo-Fr 12:00; Sa 09:30", "name": "USPS COLLECTION BOX - PO LOBBY", "nsi_id": "unitedstatespostalservice-a77078", "operator": "United States Postal Service", "operator:short": "USPS", "operator:type": "public", "operator:wikidata": "Q668687", "ref": "5757600002"}, "type": "Feature"}
{"dataset_attributes": {"@spider": "usps_collection_boxes", "spider:collection_time": "2023-11-28T08:25:58.546046"}, "geometry": {"coordinates": [-101.661657724, 43.568716399], "type": "Point"}, "id": "Fl6JfCi21DcAFuI7bvSVrKVJhqA=", "properties": {"@spider": "usps_collection_boxes", "addr:city": "WANBLEE", "addr:country": "US", "addr:full": "310 SD HIGHWAY 44", "addr:postcode": "57577", "addr:state": "SD", "amenity": "post_box", "brand": "United States Postal Service", "brand:wikidata": "Q668687", "collection_times": "Mo-Fr 13:00; Sa 12:15", "name": "USPS COLLECTION BOX - BLUE BOX", "note": "ON 12/24 AND 12/31, THIS BOX MAY BE COLLECTED AS EARLY AS 12 NOON.", "nsi_id": "unitedstatespostalservice-a77078", "operator": "United States Postal Service", "operator:short": "USPS", "operator:type": "public", "operator:wikidata": "Q668687", "ref": "5757700001"}, "type": "Feature"}
{"dataset_attributes": {"@spider": "usps_collection_boxes", "spider:collection_time": "2023-11-28T08:25:58.546046"}, "geometry": {"coordinates": [-101.661657724, 43.568716399], "type": "Point"}, "id": "_JAN32F6HATCH9_OAC8qh1m7SOw=", "properties": {"@spider": "usps_collection_boxes", "addr:city": "WANBLEE", "addr:country": "US", "addr:full": "310 SD HIGHWAY 44", "addr:postcode": "57577", "addr:state": "SD", "amenity": "post_box", "brand": "United States Postal Service", "brand:wikidata": "Q668687", "collection_times": "Mo-Fr 13:00; Sa 12:15", "name": "USPS COLLECTION BOX - PO LOBBY", "note": "ON 12/24 AND 12/31, THIS BOX MAY BE COLLECTED AS EARLY AS 12 NOON.", "nsi_id": "unitedstatespostalservice-a77078", "operator": "United States Postal Service", "operator:short": "USPS", "operator:type": "public", "operator:wikidata": "Q668687", "ref": "5757700002"}, "type": "Feature"}
{"dataset_attributes": {"@spider": "usps_collection_boxes", "spider:collection_time": "2023-11-28T08:25:58.546046"}, "geometry": {"coordinates": [-100.748491084, 43.570183966], "type": "Point"}, "id": "WVRK7NvTgdCuq-RMk4fpvI4ON_c=", "properties": {"@spider": "usps_collection_boxes", "addr:city": "WHITE RIVER", "addr:country": "US", "addr:full": "415 N MAIN ST", "addr:postcode": "57579", "addr:state": "SD", "amenity": "post_box", "brand": "United States Postal Service", "brand:wikidata": "Q668687", "collection_times": "Mo-Sa 14:15", "name": "USPS COLLECTION BOX - BLUE BOX", "note": "ON 12/24 AND 12/31, THIS BOX MAY BE COLLECTED AS EARLY AS 12 NOON.", "nsi_id": "unitedstatespostalservice-a77078", "operator": "United States Postal Service", "operator:short": "USPS", "operator:type": "public", "operator:wikidata": "Q668687", "ref": "5757900001"}, "type": "Feature"}
{"dataset_attributes": {"@spider": "usps_collection_boxes", "spider:collection_time": "2023-11-28T08:25:58.546046"}, "geometry": {"coordinates": [-100.748491084, 43.570183966], "type": "Point"}, "id": "l4VdUa0rxz1V6Lh9r2ekwWUlJGU=", "properties": {"@spider": "usps_collection_boxes", "addr:city": "WHITE RIVER", "addr:country": "US", "addr:full": "415 N MAIN ST", "addr:postcode": "57579", "addr:state": "SD", "amenity": "post_box", "brand": "United States Postal Service", "brand:wikidata": "Q668687", "collection_times": "Mo-Fr 14:00", "name": "USPS COLLECTION BOX - PO LOBBY", "note": "ON 12/24 AND 12/31, THIS BOX MAY BE COLLECTED AS EARLY AS 12 NOON.", "nsi_id": "unitedstatespostalservice-a77078", "operator": "United States Postal Service", "operator:short": "USPS", "operator:type": "public", "operator:wikidata": "Q668687", "ref": "5757900002"}, "type": "Feature"}
{"dataset_attributes": {"@spider": "usps_collection_boxes", "spider:collection_time": "2023-11-28T08:25:58.546046"}, "geometry": {"coordinates": [-100.720684701, 43.38797273], "type": "Point"}, "id": "5z-8ROx0nQSmQKxTyM8SqctRVnk=", "properties": {"@spider": "usps_collection_boxes", "addr:city": "WHITE RIVER", "addr:country": "US", "addr:full": "312 N US HIGHWAY 83", "addr:postcode": "57579", "addr:state": "SD", "amenity": "post_box", "brand": "United States Postal Service", "brand:wikidata": "Q668687", "collection_times": "Mo-Sa 14:15", "name": "USPS COLLECTION BOX - BLUE BOX", "note": "ON 12/24 AND 12/31, THIS BOX MAY BE COLLECTED AS EARLY AS 12 NOON.", "nsi_id": "unitedstatespostalservice-a77078", "operator": "United States Postal Service", "operator:short": "USPS", "operator:type": "public", "operator:wikidata": "Q668687", "ref": "5757900004"}, "type": "Feature"}
{"dataset_attributes": {"@spider": "usps_collection_boxes", "spider:collection_time": "2023-11-28T08:25:58.546046"}, "geometry": {"coordinates": [-99.858311883, 43.374352723], "type": "Point"}, "id": "Ad_iOgvAtvXhkN1HBy_qqSWBl8I=", "properties": {"@spider": "usps_collection_boxes", "addr:city": "WINNER", "addr:country": "US", "addr:full": "402 S MONROE ST", "addr:postcode": "57580", "addr:state": "SD", "amenity": "post_box", "brand": "United States Postal Service", "brand:wikidata": "Q668687", "collection_times": "Mo-Sa 14:30", "name": "USPS COLLECTION BOX - BLUE BOX", "note": "ON 12/24 AND 12/31, THIS BOX MAY BE COLLECTED AS EARLY AS 12 NOON.", "nsi_id": "unitedstatespostalservice-a77078", "operator": "United States Postal Service", "operator:short": "USPS", "operator:type": "public", "operator:wikidata": "Q668687", "ref": "5758000009"}, "type": "Feature"}
{"dataset_attributes": {"@spider": "usps_collection_boxes", "spider:collection_time": "2023-11-28T08:25:58.546046"}, "geometry": {"coordinates": [-99.858311883, 43.374352723], "type": "Point"}, "id": "2Xue7oyukLI_wqSoK9q2KSxSrX0=", "properties": {"@spider": "usps_collection_boxes", "addr:city": "WINNER", "addr:country": "US", "addr:full": "402 S MONROE ST", "addr:postcode": "57580", "addr:state": "SD", "amenity": "post_box", "brand": "United States Postal Service", "brand:wikidata": "Q668687", "collection_times": "Mo-Fr 14:30; Sa 10:30", "name": "USPS COLLECTION BOX - PO LOBBY", "note": "ON 12/24 AND 12/31, THIS BOX MAY BE COLLECTED AS EARLY AS 12 NOON.", "nsi_id": "unitedstatespostalservice-a77078", "operator": "United States Postal Service", "operator:short": "USPS", "operator:type": "public", "operator:wikidata": "Q668687", "ref": "5758000013"}, "type": "Feature"}
{"dataset_attributes": {"@spider": "usps_collection_boxes", "spider:collection_time": "2023-11-28T08:25:58.546046"}, "geometry": {"coordinates": [-99.851704019, 43.376631614], "type": "Point"}, "id": "K4y79XxNpw_eJ_-HPEMfQbO6bWc=", "properties": {"@spider": "usps_collection_boxes", "addr:city": "WINNER", "addr:country": "US", "addr:full": "502 E 2ND ST", "addr:postcode": "57580", "addr:state": "SD", "amenity": "post_box", "brand": "United States Postal Service", "brand:wikidata": "Q668687", "collection_times": "Mo-Fr 10:30", "name": "USPS COLLECTION BOX - BLUE BOX", "nsi_id": "unitedstatespostalservice-a77078", "operator": "United States Postal Service", "operator:short": "USPS", "operator:type": "public", "operator:wikidata": "Q668687", "ref": "5758000015"}, "type": "Feature"}
{"dataset_attributes": {"@spider": "usps_collection_boxes", "spider:collection_time": "2023-11-28T08:25:58.546046"}, "geometry": {"coordinates": [-100.0804185, 43.438455], "type": "Point"}, "id": "THL-8a50wwfH4zemGQo_Pnh2-y4=", "properties": {"@spider": "usps_collection_boxes", "addr:city": "WITTEN", "addr:country": "US", "addr:full": "119 E 1ST ST", "addr:postcode": "57584", "addr:state": "SD", "amenity": "post_box", "brand": "United States Postal Service", "brand:wikidata": "Q668687", "collection_times": "Mo-Fr 13:45; Sa 10:30", "name": "USPS COLLECTION BOX - BLUE BOX", "note": "ON 12/24 AND 12/31, THIS BOX MAY BE COLLECTED AS EARLY AS 12 NOON.", "nsi_id": "unitedstatespostalservice-a77078", "operator": "United States Postal Service", "operator:short": "USPS", "operator:type": "public", "operator:wikidata": "Q668687", "ref": "5758400001"}, "type": "Feature"}
{"dataset_attributes": {"@spider": "usps_collection_boxes", "spider:collection_time": "2023-11-28T08:25:58.546046"}, "geometry": {"coordinates": [-100.0804185, 43.438455], "type": "Point"}, "id": "s553vinWx2t4x3-4s_ibTXRtr_4=", "properties": {"@spider": "usps_collection_boxes", "addr:city": "WITTEN", "addr:country": "US", "addr:full": "119 E 1ST ST", "addr:postcode": "57584", "addr:state": "SD", "amenity": "post_box", "brand": "United States Postal Service", "brand:wikidata": "Q668687", "collection_times": "Mo-Sa 10:30", "name": "USPS COLLECTION BOX - PO LOBBY", "nsi_id": "unitedstatespostalservice-a77078", "operator": "United States Postal Service", "operator:short": "USPS", "operator:type": "public", "operator:wikidata": "Q668687", "ref": "5758400002"}, "type": "Feature"}
{"dataset_attributes": {"@spider": "usps_collection_boxes", "spider:collection_time": "2023-11-28T08:25:58.546046"}, "geometry": {"coordinates": [-100.479056175, 43.497965228], "type": "Point"}, "id": "NFn-PO6mlZO_Qz3v6-ehEvjJt-A=", "properties": {"@spider": "usps_collection_boxes", "addr:city": "WOOD", "addr:country": "US", "addr:full": "118 W MAIN ST", "addr:postcode": "57585", "addr:state": "SD", "amenity": "post_box", "brand": "United States Postal Service", "brand:wikidata": "Q668687", "collection_times": "Mo-Fr 13:10; Sa 11:00", "name": "USPS COLLECTION BOX - BLUE BOX", "note": "ON 12/24 AND 12/31, THIS BOX MAY BE COLLECTED AS EARLY AS 12 NOON.", "nsi_id": "unitedstatespostalservice-a77078", "operator": "United States Postal Service", "operator:short": "USPS", "operator:type": "public", "operator:wikidata": "Q668687", "ref": "5758500001"}, "type": "Feature"}
{"dataset_attributes": {"@spider": "usps_collection_boxes", "spider:collection_time": "2023-11-28T08:25:58.546046"}, "geometry": {"coordinates": [-100.479056175, 43.497965228], "type": "Point"}, "id": "QxQn-huCJWN6KC0Xmv2e5Rr-tXE=", "properties": {"@spider": "usps_collection_boxes", "addr:city": "WOOD", "addr:country": "US", "addr:full": "118 W MAIN ST", "addr:postcode": "57585", "addr:state": "SD", "amenity": "post_box", "brand": "United States Postal Service", "brand:wikidata": "Q668687", "collection_times": "Mo-Fr 13:10; Sa 11:00", "name": "USPS COLLECTION BOX - PO LOBBY", "note": "ON 12/24 AND 12/31, THIS BOX MAY BE COLLECTED AS EARLY AS 12 NOON.", "nsi_id": "unitedstatespostalservice-a77078", "operator": "United States Postal Service", "operator:short": "USPS", "operator:type": "public", "operator:wikidata": "Q668687", "ref": "5758500002"}, "type": "Feature"}
