{"geometry": {"coordinates": [-100.435603816, 45.537506224], "type": "Point"}, "id": "S0pSkHO-3_J4waipCOkTXSvvLTA=", "properties": {"@source_uri": "https://tools.usps.com/UspsToolsRestServices/rest/POLocator/findLocations", "@spider": "usps_collection_boxes", "addr:city": "MOBRIDGE", "addr:country": "US", "addr:postcode": "57601", "addr:state": "SD", "addr:street_address": "214 W GRAND XING", "amenity": "post_box", "brand": "United States Postal Service", "brand:wikidata": "Q668687", "collection_times": "Mo-Sa 14:30", "note": "ON 12/24 AND 12/31, THIS BOX MAY BE COLLECTED AS EARLY AS 12 NOON.", "nsi_id": "unitedstatespostalservice-a77078", "operator": "United States Postal Service", "operator:short": "USPS", "operator:type": "public", "operator:wikidata": "Q668687", "ref": "5760100002"}, "type": "Feature"}
{"geometry": {"coordinates": [-100.433803857, 45.536494761], "type": "Point"}, "id": "zpRERy1WVayqApywCmzsNvSB_6A=", "properties": {"@source_uri": "https://tools.usps.com/UspsToolsRestServices/rest/POLocator/findLocations", "@spider": "usps_collection_boxes", "addr:city": "MOBRIDGE", "addr:country": "US", "addr:postcode": "57601", "addr:state": "SD", "addr:street_address": "404 N MAIN ST", "amenity": "post_box", "brand": "United States Postal Service", "brand:wikidata": "Q668687", "collection_times": "Mo-Sa 17:15", "note": "ON 12/24 AND 12/31, THIS BOX MAY BE COLLECTED AS EARLY AS 12 NOON.", "nsi_id": "unitedstatespostalservice-a77078", "operator": "United States Postal Service", "operator:short": "USPS", "operator:type": "public", "operator:wikidata": "Q668687", "ref": "5760100003"}, "type": "Feature"}
{"geometry": {"coordinates": [-100.433803857, 45.536494761], "type": "Point"}, "id": "yVF7Ql3QtbC2zv7D3nTIURIC2fM=", "properties": {"@source_uri": "https://tools.usps.com/UspsToolsRestServices/rest/POLocator/findLocations", "@spider": "usps_collection_boxes", "addr:city": "MOBRIDGE", "addr:country": "US", "addr:postcode": "57601", "addr:state": "SD", "addr:street_address": "404 N MAIN ST", "amenity": "post_box", "brand": "United States Postal Service", "brand:wikidata": "Q668687", "collection_times": "Mo-Sa 17:15", "indoor": "yes", "note": "ON 12/24 AND 12/31, THIS BOX MAY BE COLLECTED AS EARLY AS 12 NOON.", "nsi_id": "unitedstatespostalservice-a77078", "operator": "United States Postal Service", "operator:short": "USPS", "operator:type": "public", "operator:wikidata": "Q668687", "ref": "5760100007"}, "type": "Feature"}
{"geometry": {"coordinates": [-100.433803857, 45.536494761], "type": "Point"}, "id": "hiZhPSaE01xKPhiBWeFT2UVHfPc=", "properties": {"@source_uri": "https://tools.usps.com/UspsToolsRestServices/rest/POLocator/findLocations", "@spider": "usps_collection_boxes", "addr:city": "MOBRIDGE", "addr:country": "US", "addr:postcode": "57601", "addr:state": "SD", "addr:street_address": "404 N MAIN ST", "amenity": "post_box", "brand": "United States Postal Service", "brand:wikidata": "Q668687", "collection_times": "Mo-Sa 17:15", "note": "ON 12/24 AND 12/31, THIS BOX MAY BE COLLECTED AS EARLY AS 12 NOON.", "nsi_id": "unitedstatespostalservice-a77078", "operator": "United States Postal Service", "operator:short": "USPS", "operator:type": "public", "operator:wikidata": "Q668687", "ref": "5760100008"}, "type": "Feature"}
{"geometry": {"coordinates": [-102.466357438, 45.522503505], "type": "Point"}, "id": "TJ4hhKWwYwT-OaH22GayzrrcPGs=", "properties": {"@source_uri": "https://tools.usps.com/UspsToolsRestServices/rest/POLocator/findLocations", "@spider": "usps_collection_boxes", "addr:city": "BISON", "addr:country": "US", "addr:postcode": "57620", "addr:state": "SD", "addr:street_address": "118 W MAIN ST", "amenity": "post_box", "brand": "United States Postal Service", "brand:wikidata": "Q668687", "collection_times": "Mo-Fr 13:00; Sa 10:30", "note": "ON 12/24 AND 12/31, THIS BOX MAY BE COLLECTED AS EARLY AS 12 NOON.", "nsi_id": "unitedstatespostalservice-a77078", "operator": "United States Postal Service", "operator:short": "USPS", "operator:type": "public", "operator:wikidata": "Q668687", "ref": "5762000001"}, "type": "Feature"}
{"geometry": {"coordinates": [-102.466357438, 45.522503505], "type": "Point"}, "id": "taXNGluJOz9k_yagX6qMR_xGCqg=", "properties": {"@source_uri": "https://tools.usps.com/UspsToolsRestServices/rest/POLocator/findLocations", "@spider": "usps_collection_boxes", "addr:city": "BISON", "addr:country": "US", "addr:postcode": "57620", "addr:state": "SD", "addr:street_address": "118 W MAIN ST", "amenity": "post_box", "brand": "United States Postal Service", "brand:wikidata": "Q668687", "collection_times": "Mo-Fr 13:00; Sa 10:30", "indoor": "yes", "note": "ON 12/24 AND 12/31, THIS BOX MAY BE COLLECTED AS EARLY AS 12 NOON.", "nsi_id": "unitedstatespostalservice-a77078", "operator": "United States Postal Service", "operator:short": "USPS", "operator:type": "public", "operator:wikidata": "Q668687", "ref": "5762000002"}, "type": "Feature"}
{"geometry": {"coordinates": [-102.466357438, 45.522503505], "type": "Point"}, "id": "KeWa8iv0RoDYz9FkiaqqkNaZjXQ=", "properties": {"@source_uri": "https://tools.usps.com/UspsToolsRestServices/rest/POLocator/findLocations", "@spider": "usps_collection_boxes", "addr:city": "BISON", "addr:country": "US", "addr:postcode": "57620", "addr:state": "SD", "addr:street_address": "118 W MAIN ST", "amenity": "post_box", "brand": "United States Postal Service", "brand:wikidata": "Q668687", "collection_times": "Mo-Fr 13:00; Sa 10:20", "indoor": "yes", "note": "ON 12/24 AND 12/31, THIS BOX MAY BE COLLECTED AS EARLY AS 12 NOON.", "nsi_id": "unitedstatespostalservice-a77078", "operator": "United States Postal Service", "operator:short": "USPS", "operator:type": "public", "operator:wikidata": "Q668687", "ref": "5762000004"}, "type": "Feature"}
{"geometry": {"coordinates": [-101.073347729, 45.751555961], "type": "Point"}, "id": "1NYbBCVtikYPiqPZFOTqAqSnNzY=", "properties": {"@source_uri": "https://tools.usps.com/UspsToolsRestServices/rest/POLocator/findLocations", "@spider": "usps_collection_boxes", "addr:city": "BULLHEAD", "addr:country": "US", "addr:postcode": "57621", "addr:state": "SD", "addr:street_address": "104 TASUNKA", "amenity": "post_box", "brand": "United States Postal Service", "brand:wikidata": "Q668687", "collection_times": "Mo-Sa 10:00", "nsi_id": "unitedstatespostalservice-a77078", "operator": "United States Postal Service", "operator:short": "USPS", "operator:type": "public", "operator:wikidata": "Q668687", "ref": "5762100000"}, "type": "Feature"}
{"geometry": {"coordinates": [-101.073347729, 45.751555961], "type": "Point"}, "id": "Mq88VFwfjm5Pbgi6cVTcp-1AI3Q=", "properties": {"@source_uri": "https://tools.usps.com/UspsToolsRestServices/rest/POLocator/findLocations", "@spider": "usps_collection_boxes", "addr:city": "BULLHEAD", "addr:country": "US", "addr:postcode": "57621", "addr:state": "SD", "addr:street_address": "104 TASUNKA", "amenity": "post_box", "brand": "United States Postal Service", "brand:wikidata": "Q668687", "collection_times": "Mo-Sa 10:00", "indoor": "yes", "nsi_id": "unitedstatespostalservice-a77078", "operator": "United States Postal Service", "operator:short": "USPS", "operator:type": "public", "operator:wikidata": "Q668687", "ref": "5762100001"}, "type": "Feature"}
{"geometry": {"coordinates": [-101.073347729, 45.751555961], "type": "Point"}, "id": "b7dlWU1BMl3HMWk1jmJKSW_AAxU=", "properties": {"@source_uri": "https://tools.usps.com/UspsToolsRestServices/rest/POLocator/findLocations", "@spider": "usps_collection_boxes", "addr:city": "BULLHEAD", "addr:country": "US", "addr:postcode": "57621", "addr:state": "SD", "addr:street_address": "104 TASUNKA", "amenity": "post_box", "brand": "United States Postal Service", "brand:wikidata": "Q668687", "collection_times": "Mo-Sa 09:45", "indoor": "yes", "nsi_id": "unitedstatespostalservice-a77078", "operator": "United States Postal Service", "operator:short": "USPS", "operator:type": "public", "operator:wikidata": "Q668687", "ref": "5762100002"}, "type": "Feature"}
{"geometry": {"coordinates": [-101.234724135, 44.992161122], "type": "Point"}, "id": "UbBzy1BX_dyNcx-V1Sr8gZz6LLc=", "properties": {"@source_uri": "https://tools.usps.com/UspsToolsRestServices/rest/POLocator/findLocations", "@spider": "usps_collection_boxes", "addr:city": "DUPREE", "addr:country": "US", "addr:postcode": "57623", "addr:state": "SD", "addr:street_address": "323 S MAIN ST", "amenity": "post_box", "brand": "United States Postal Service", "brand:wikidata": "Q668687", "collection_times": "Mo-Sa 14:55", "note": "ON 12/24 AND 12/31, THIS BOX MAY BE COLLECTED AS EARLY AS 12 NOON.", "nsi_id": "unitedstatespostalservice-a77078", "operator": "United States Postal Service", "operator:short": "USPS", "operator:type": "public", "operator:wikidata": "Q668687", "ref": "5762300001"}, "type": "Feature"}
{"geometry": {"coordinates": [-101.234724135, 44.992161122], "type": "Point"}, "id": "nbMaCAI0UzPp6abzOTuvCYFYkrM=", "properties": {"@source_uri": "https://tools.usps.com/UspsToolsRestServices/rest/POLocator/findLocations", "@spider": "usps_collection_boxes", "addr:city": "DUPREE", "addr:country": "US", "addr:postcode": "57623", "addr:state": "SD", "addr:street_address": "323 S MAIN ST", "amenity": "post_box", "brand": "United States Postal Service", "brand:wikidata": "Q668687", "collection_times": "Mo-Fr 14:00; Sa 10:00", "indoor": "yes", "note": "ON 12/24 AND 12/31, THIS BOX MAY BE COLLECTED AS EARLY AS 12 NOON.", "nsi_id": "unitedstatespostalservice-a77078", "operator": "United States Postal Service", "operator:short": "USPS", "operator:type": "public", "operator:wikidata": "Q668687", "ref": "5762300006"}, "type": "Feature"}
{"geometry": {"coordinates": [-101.234724135, 44.992161122], "type": "Point"}, "id": "8fTOHUGNLf02LcAd5dgQ-A6vRxk=", "properties": {"@source_uri": "https://tools.usps.com/UspsToolsRestServices/rest/POLocator/findLocations", "@spider": "usps_collection_boxes", "addr:city": "DUPREE", "addr:country": "US", "addr:postcode": "57623", "addr:state": "SD", "addr:street_address": "323 S MAIN ST", "amenity": "post_box", "brand": "United States Postal Service", "brand:wikidata": "Q668687", "collection_times": "Mo-Fr 14:00; Sa 10:00", "indoor": "yes", "note": "ON 12/24 AND 12/31, THIS BOX MAY BE COLLECTED AS EARLY AS 12 NOON.", "nsi_id": "unitedstatespostalservice-a77078", "operator": "United States Postal Service", "operator:short": "USPS", "operator:type": "public", "operator:wikidata": "Q668687", "ref": "5762300007"}, "type": "Feature"}
{"geometry": {"coordinates": [-101.2348035, 44.997857711], "type": "Point"}, "id": "BzsUnNu3dFQ103fFpeukLUZkIm8=", "properties": {"@source_uri": "https://tools.usps.com/UspsToolsRestServices/rest/POLocator/findLocations", "@spider": "usps_collection_boxes", "addr:city": "EAGLE BUTTE", "addr:country": "US", "addr:postcode": "57625", "addr:state": "SD", "addr:street_address": "121 MAIN ST", "amenity": "post_box", "brand": "United States Postal Service", "brand:wikidata": "Q668687", "collection_times": "Mo-Sa 14:15", "note": "ON 12/24 AND 12/31, THIS BOX MAY BE COLLECTED AS EARLY AS 12 NOON.", "nsi_id": "unitedstatespostalservice-a77078", "operator": "United States Postal Service", "operator:short": "USPS", "operator:type": "public", "operator:wikidata": "Q668687", "ref": "5762500001"}, "type": "Feature"}
{"geometry": {"coordinates": [-101.2348035, 44.997857711], "type": "Point"}, "id": "6Q4Xg2glMGKrzGwStldb5jGXDPc=", "properties": {"@source_uri": "https://tools.usps.com/UspsToolsRestServices/rest/POLocator/findLocations", "@spider": "usps_collection_boxes", "addr:city": "EAGLE BUTTE", "addr:country": "US", "addr:postcode": "57625", "addr:state": "SD", "addr:street_address": "121 MAIN ST", "amenity": "post_box", "brand": "United States Postal Service", "brand:wikidata": "Q668687", "collection_times": "Mo-Fr 14:15; Sa 12:00", "indoor": "yes", "note": "ON 12/24 AND 12/31, THIS BOX MAY BE COLLECTED AS EARLY AS 12 NOON.", "nsi_id": "unitedstatespostalservice-a77078", "operator": "United States Postal Service", "operator:short": "USPS", "operator:type": "public", "operator:wikidata": "Q668687", "ref": "5762500002"}, "type": "Feature"}
{"geometry": {"coordinates": [-101.2348035, 44.997857711], "type": "Point"}, "id": "ZLLFm0QaskkvxL47fNUafwRnGow=", "properties": {"@source_uri": "https://tools.usps.com/UspsToolsRestServices/rest/POLocator/findLocations", "@spider": "usps_collection_boxes", "addr:city": "EAGLE BUTTE", "addr:country": "US", "addr:postcode": "57625", "addr:state": "SD", "addr:street_address": "121 MAIN ST", "amenity": "post_box", "brand": "United States Postal Service", "brand:wikidata": "Q668687", "collection_times": "Mo-Fr 14:15; Sa 12:00", "indoor": "yes", "note": "ON 12/24 AND 12/31, THIS BOX MAY BE COLLECTED AS EARLY AS 12 NOON.", "nsi_id": "unitedstatespostalservice-a77078", "operator": "United States Postal Service", "operator:short": "USPS", "operator:type": "public", "operator:wikidata": "Q668687", "ref": "5762500003"}, "type": "Feature"}
{"geometry": {"coordinates": [-102.038421206, 45.022660156], "type": "Point"}, "id": "P2QHtLaC8p85s7dhxaunnqM-pl0=", "properties": {"@source_uri": "https://tools.usps.com/UspsToolsRestServices/rest/POLocator/findLocations", "@spider": "usps_collection_boxes", "addr:city": "FAITH", "addr:country": "US", "addr:postcode": "57626", "addr:state": "SD", "addr:street_address": "114 MAIN ST", "amenity": "post_box", "brand": "United States Postal Service", "brand:wikidata": "Q668687", "collection_times": "Mo-Sa 14:25", "note": "ON 12/24 AND 12/31, THIS BOX MAY BE COLLECTED AS EARLY AS 12 NOON.", "nsi_id": "unitedstatespostalservice-a77078", "operator": "United States Postal Service", "operator:short": "USPS", "operator:type": "public", "operator:wikidata": "Q668687", "ref": "5762600001"}, "type": "Feature"}
{"geometry": {"coordinates": [-102.038421206, 45.022660156], "type": "Point"}, "id": "QogVZI9uOKIGIW1L-7F6GtqCQso=", "properties": {"@source_uri": "https://tools.usps.com/UspsToolsRestServices/rest/POLocator/findLocations", "@spider": "usps_collection_boxes", "addr:city": "FAITH", "addr:country": "US", "addr:postcode": "57626", "addr:state": "SD", "addr:street_address": "114 MAIN ST", "amenity": "post_box", "brand": "United States Postal Service", "brand:wikidata": "Q668687", "collection_times": "Mo-Fr 14:25; Sa 10:45", "indoor": "yes", "note": "ON 12/24 AND 12/31, THIS BOX MAY BE COLLECTED AS EARLY AS 12 NOON.", "nsi_id": "unitedstatespostalservice-a77078", "operator": "United States Postal Service", "operator:short": "USPS", "operator:type": "public", "operator:wikidata": "Q668687", "ref": "5762600002"}, "type": "Feature"}
{"geometry": {"coordinates": [-102.038421206, 45.022660156], "type": "Point"}, "id": "MJ74WjNDDcN1VgymLx571Drygsc=", "properties": {"@source_uri": "https://tools.usps.com/UspsToolsRestServices/rest/POLocator/findLocations", "@spider": "usps_collection_boxes", "addr:city": "FAITH", "addr:country": "US", "addr:postcode": "57626", "addr:state": "SD", "addr:street_address": "114 MAIN ST", "amenity": "post_box", "brand": "United States Postal Service", "brand:wikidata": "Q668687", "collection_times": "Mo-Fr 14:25; Sa 10:45", "indoor": "yes", "note": "ON 12/24 AND 12/31, THIS BOX MAY BE COLLECTED AS EARLY AS 12 NOON.", "nsi_id": "unitedstatespostalservice-a77078", "operator": "United States Postal Service", "operator:short": "USPS", "operator:type": "public", "operator:wikidata": "Q668687", "ref": "5762600004"}, "type": "Feature"}
{"geometry": {"coordinates": [-102.038421206, 45.022660156], "type": "Point"}, "id": "EkQrcGHWrEIwvVOfzbj4iAG8X8c=", "properties": {"@source_uri": "https://tools.usps.com/UspsToolsRestServices/rest/POLocator/findLocations", "@spider": "usps_collection_boxes", "addr:city": "FAITH", "addr:country": "US", "addr:postcode": "57626", "addr:state": "SD", "addr:street_address": "114 MAIN ST", "amenity": "post_box", "brand": "United States Postal Service", "brand:wikidata": "Q668687", "collection_times": "Mo-Fr 14:25; Sa 10:45", "indoor": "yes", "note": "ON 12/24 AND 12/31, THIS BOX MAY BE COLLECTED AS EARLY AS 12 NOON.", "nsi_id": "unitedstatespostalservice-a77078", "operator": "United States Postal Service", "operator:short": "USPS", "operator:type": "public", "operator:wikidata": "Q668687", "ref": "5762600005"}, "type": "Feature"}
{"geometry": {"coordinates": [-100.271622304, 45.533450084], "type": "Point"}, "id": "WfZxWm0FgunWhKIslN92mqbdzkw=", "properties": {"@source_uri": "https://tools.usps.com/UspsToolsRestServices/rest/POLocator/findLocations", "@spider": "usps_collection_boxes", "addr:city": "GLENHAM", "addr:country": "US", "addr:postcode": "57631", "addr:state": "SD", "addr:street_address": "23 MAIN ST", "amenity": "post_box", "brand": "United States Postal Service", "brand:wikidata": "Q668687", "collection_times": "Mo-Sa 12:40", "note": "ON 12/24 AND 12/31, THIS BOX MAY BE COLLECTED AS EARLY AS 12 NOON.", "nsi_id": "unitedstatespostalservice-a77078", "operator": "United States Postal Service", "operator:short": "USPS", "operator:type": "public", "operator:wikidata": "Q668687", "ref": "5763100001"}, "type": "Feature"}
{"geometry": {"coordinates": [-100.271622304, 45.533450084], "type": "Point"}, "id": "xAYPmT3NieE1pdjX-kRxeBK941Y=", "properties": {"@source_uri": "https://tools.usps.com/UspsToolsRestServices/rest/POLocator/findLocations", "@spider": "usps_collection_boxes", "addr:city": "GLENHAM", "addr:country": "US", "addr:postcode": "57631", "addr:state": "SD", "addr:street_address": "23 MAIN ST", "amenity": "post_box", "brand": "United States Postal Service", "brand:wikidata": "Q668687", "collection_times": "Mo-Sa 12:40", "indoor": "yes", "note": "ON 12/24 AND 12/31, THIS BOX MAY BE COLLECTED AS EARLY AS 12 NOON.", "nsi_id": "unitedstatespostalservice-a77078", "operator": "United States Postal Service", "operator:short": "USPS", "operator:type": "public", "operator:wikidata": "Q668687", "ref": "5763100002"}, "type": "Feature"}
{"geometry": {"coordinates": [-100.271622304, 45.533450084], "type": "Point"}, "id": "YVlxXPpI4Zu1RU7FXGGBlCx0Qmk=", "properties": {"@source_uri": "https://tools.usps.com/UspsToolsRestServices/rest/POLocator/findLocations", "@spider": "usps_collection_boxes", "addr:city": "GLENHAM", "addr:country": "US", "addr:postcode": "57631", "addr:state": "SD", "addr:street_address": "23 MAIN ST", "amenity": "post_box", "brand": "United States Postal Service", "brand:wikidata": "Q668687", "collection_times": "Mo-Sa 12:40", "indoor": "yes", "note": "ON 12/24 AND 12/31, THIS BOX MAY BE COLLECTED AS EARLY AS 12 NOON.", "nsi_id": "unitedstatespostalservice-a77078", "operator": "United States Postal Service", "operator:short": "USPS", "operator:type": "public", "operator:wikidata": "Q668687", "ref": "5763100003"}, "type": "Feature"}
{"geometry": {"coordinates": [-100.069190712, 45.840224421], "type": "Point"}, "id": "0W-5Si-bauQUiYL6Gpc2DNZXgnw=", "properties": {"@source_uri": "https://tools.usps.com/UspsToolsRestServices/rest/POLocator/findLocations", "@spider": "usps_collection_boxes", "addr:city": "HERREID", "addr:country": "US", "addr:postcode": "57632", "addr:state": "SD", "addr:street_address": "118 MAIN ST N", "amenity": "post_box", "brand": "United States Postal Service", "brand:wikidata": "Q668687", "collection_times": "Mo-Sa 13:55", "note": "ON 12/24 AND 12/31, THIS BOX MAY BE COLLECTED AS EARLY AS 12 NOON.", "nsi_id": "unitedstatespostalservice-a77078", "operator": "United States Postal Service", "operator:short": "USPS", "operator:type": "public", "operator:wikidata": "Q668687", "ref": "5763200001"}, "type": "Feature"}
{"geometry": {"coordinates": [-100.069190712, 45.840224421], "type": "Point"}, "id": "1SQXQjE9bNpCNEKKD0vXHu3-hqQ=", "properties": {"@source_uri": "https://tools.usps.com/UspsToolsRestServices/rest/POLocator/findLocations", "@spider": "usps_collection_boxes", "addr:city": "HERREID", "addr:country": "US", "addr:postcode": "57632", "addr:state": "SD", "addr:street_address": "118 MAIN ST N", "amenity": "post_box", "brand": "United States Postal Service", "brand:wikidata": "Q668687", "collection_times": "Mo-Fr 13:55", "indoor": "yes", "note": "ON 12/24 AND 12/31, THIS BOX MAY BE COLLECTED AS EARLY AS 12 NOON.", "nsi_id": "unitedstatespostalservice-a77078", "operator": "United States Postal Service", "operator:short": "USPS", "operator:type": "public", "operator:wikidata": "Q668687", "ref": "5763200002"}, "type": "Feature"}
{"geometry": {"coordinates": [-100.0691865058, 45.840245379], "type": "Point"}, "id": "v_qjNNDZcbIrp0_e8mLMkjbd7Jo=", "properties": {"@source_uri": "https://tools.usps.com/UspsToolsRestServices/rest/POLocator/findLocations", "@spider": "usps_collection_boxes", "addr:city": "HERREID", "addr:country": "US", "addr:postcode": "57632", "addr:state": "SD", "addr:street_address": "118 MAIN ST N", "amenity": "post_box", "brand": "United States Postal Service", "brand:wikidata": "Q668687", "collection_times": "Mo-Fr 13:55; Sa 10:00", "indoor": "yes", "note": "ON 12/24 AND 12/31, THIS BOX MAY BE COLLECTED AS EARLY AS 12 NOON.", "nsi_id": "unitedstatespostalservice-a77078", "operator": "United States Postal Service", "operator:short": "USPS", "operator:type": "public", "operator:wikidata": "Q668687", "ref": "5763200004"}, "type": "Feature"}
{"geometry": {"coordinates": [-101.429899824, 45.393213324], "type": "Point"}, "id": "mrSwHu5rsCsF3-L1NLgKvkGkDaI=", "properties": {"@source_uri": "https://tools.usps.com/UspsToolsRestServices/rest/POLocator/findLocations", "@spider": "usps_collection_boxes", "addr:city": "ISABEL", "addr:country": "US", "addr:postcode": "57633", "addr:state": "SD", "addr:street_address": "200 MAIN ST", "amenity": "post_box", "brand": "United States Postal Service", "brand:wikidata": "Q668687", "collection_times": "Mo-Sa 15:35", "note": "ON 12/24 AND 12/31, THIS BOX MAY BE COLLECTED AS EARLY AS 12 NOON.", "nsi_id": "unitedstatespostalservice-a77078", "operator": "United States Postal Service", "operator:short": "USPS", "operator:type": "public", "operator:wikidata": "Q668687", "ref": "5763300001"}, "type": "Feature"}
{"geometry": {"coordinates": [-101.429899824, 45.393213324], "type": "Point"}, "id": "JRn2T-2mGs_Upn1DsMiKl3B-jvg=", "properties": {"@source_uri": "https://tools.usps.com/UspsToolsRestServices/rest/POLocator/findLocations", "@spider": "usps_collection_boxes", "addr:city": "ISABEL", "addr:country": "US", "addr:postcode": "57633", "addr:state": "SD", "addr:street_address": "200 MAIN ST", "amenity": "post_box", "brand": "United States Postal Service", "brand:wikidata": "Q668687", "collection_times": "Mo-Fr 14:00; Sa 10:00", "indoor": "yes", "note": "ON 12/24 AND 12/31, THIS BOX MAY BE COLLECTED AS EARLY AS 12 NOON.", "nsi_id": "unitedstatespostalservice-a77078", "operator": "United States Postal Service", "operator:short": "USPS", "operator:type": "public", "operator:wikidata": "Q668687", "ref": "5763300002"}, "type": "Feature"}
{"geometry": {"coordinates": [-101.456029997, 45.027517055], "type": "Point"}, "id": "s7A4sAcI2kF1maqr9hDw5MMEwSI=", "properties": {"@source_uri": "https://tools.usps.com/UspsToolsRestServices/rest/POLocator/findLocations", "@spider": "usps_collection_boxes", "addr:city": "LANTRY", "addr:country": "US", "addr:postcode": "57636", "addr:state": "SD", "addr:street_address": "1 N HIGHWAY 212", "amenity": "post_box", "brand": "United States Postal Service", "brand:wikidata": "Q668687", "collection_times": "Mo-Sa 14:30", "note": "ON 12/24 AND 12/31, THIS BOX MAY BE COLLECTED AS EARLY AS 12 NOON.", "nsi_id": "unitedstatespostalservice-a77078", "operator": "United States Postal Service", "operator:short": "USPS", "operator:type": "public", "operator:wikidata": "Q668687", "ref": "5763600001"}, "type": "Feature"}
{"geometry": {"coordinates": [-102.160816031, 45.941796492], "type": "Point"}, "id": "sbSa655xfnyq_OTz-LFGwACF_Po=", "properties": {"@source_uri": "https://tools.usps.com/UspsToolsRestServices/rest/POLocator/findLocations", "@spider": "usps_collection_boxes", "addr:city": "LEMMON", "addr:country": "US", "addr:postcode": "57638", "addr:state": "SD", "addr:street_address": "310 1ST AVE W", "amenity": "post_box", "brand": "United States Postal Service", "brand:wikidata": "Q668687", "collection_times": "Mo-Sa 14:50", "note": "ON 12/24 AND 12/31, THIS BOX MAY BE COLLECTED AS EARLY AS 12 NOON.", "nsi_id": "unitedstatespostalservice-a77078", "operator": "United States Postal Service", "operator:short": "USPS", "operator:type": "public", "operator:wikidata": "Q668687", "ref": "5763800002"}, "type": "Feature"}
{"geometry": {"coordinates": [-102.160816031, 45.941796492], "type": "Point"}, "id": "nRXDSytG4M4g3Pe22acsJBzoBko=", "properties": {"@source_uri": "https://tools.usps.com/UspsToolsRestServices/rest/POLocator/findLocations", "@spider": "usps_collection_boxes", "addr:city": "LEMMON", "addr:country": "US", "addr:postcode": "57638", "addr:state": "SD", "addr:street_address": "310 1ST AVE W", "amenity": "post_box", "brand": "United States Postal Service", "brand:wikidata": "Q668687", "collection_times": "Mo-Sa 14:50", "indoor": "yes", "note": "ON 12/24 AND 12/31, THIS BOX MAY BE COLLECTED AS EARLY AS 12 NOON.", "nsi_id": "unitedstatespostalservice-a77078", "operator": "United States Postal Service", "operator:short": "USPS", "operator:type": "public", "operator:wikidata": "Q668687", "ref": "5763800005"}, "type": "Feature"}
{"geometry": {"coordinates": [-100.813161441, 45.687114511], "type": "Point"}, "id": "gYT9Pv6nFD7YEXRU3lJXGLfQz-s=", "properties": {"@source_uri": "https://tools.usps.com/UspsToolsRestServices/rest/POLocator/findLocations", "@spider": "usps_collection_boxes", "addr:city": "LITTLE EAGLE", "addr:country": "US", "addr:postcode": "57639", "addr:state": "SD", "addr:street_address": "1 MAIN ST", "amenity": "post_box", "brand": "United States Postal Service", "brand:wikidata": "Q668687", "collection_times": "Mo-Sa 14:45", "indoor": "yes", "note": "ON 12/24 AND 12/31, THIS BOX MAY BE COLLECTED AS EARLY AS 12 NOON.", "nsi_id": "unitedstatespostalservice-a77078", "operator": "United States Postal Service", "operator:short": "USPS", "operator:type": "public", "operator:wikidata": "Q668687", "ref": "5763900002"}, "type": "Feature"}
{"geometry": {"coordinates": [-101.350845672, 45.923900937], "type": "Point"}, "id": "h-hEaRHj4aT9zQy0BXJ2Q9f6c3g=", "properties": {"@source_uri": "https://tools.usps.com/UspsToolsRestServices/rest/POLocator/findLocations", "@spider": "usps_collection_boxes", "addr:city": "MCINTOSH", "addr:country": "US", "addr:postcode": "57641", "addr:state": "SD", "addr:street_address": "188 MAIN ST", "amenity": "post_box", "brand": "United States Postal Service", "brand:wikidata": "Q668687", "collection_times": "Mo-Sa 16:00", "note": "ON 12/24 AND 12/31, THIS BOX MAY BE COLLECTED AS EARLY AS 12 NOON.", "nsi_id": "unitedstatespostalservice-a77078", "operator": "United States Postal Service", "operator:short": "USPS", "operator:type": "public", "operator:wikidata": "Q668687", "ref": "5764100001"}, "type": "Feature"}
{"geometry": {"coordinates": [-101.350845672, 45.923900937], "type": "Point"}, "id": "XMWTw6c2okeIZSHHgQoT-MNnGk8=", "properties": {"@source_uri": "https://tools.usps.com/UspsToolsRestServices/rest/POLocator/findLocations", "@spider": "usps_collection_boxes", "addr:city": "MCINTOSH", "addr:country": "US", "addr:postcode": "57641", "addr:state": "SD", "addr:street_address": "188 MAIN ST", "amenity": "post_box", "brand": "United States Postal Service", "brand:wikidata": "Q668687", "collection_times": "Mo-Fr 16:00; Sa 09:15", "indoor": "yes", "note": "ON 12/24 AND 12/31, THIS BOX MAY BE COLLECTED AS EARLY AS 12 NOON.", "nsi_id": "unitedstatespostalservice-a77078", "operator": "United States Postal Service", "operator:short": "USPS", "operator:type": "public", "operator:wikidata": "Q668687", "ref": "5764100002"}, "type": "Feature"}
{"geometry": {"coordinates": [-100.810684048, 45.813398877], "type": "Point"}, "id": "tdff5aIeDuzTBIgWojov0PFP5FI=", "properties": {"@source_uri": "https://tools.usps.com/UspsToolsRestServices/rest/POLocator/findLocations", "@spider": "usps_collection_boxes", "addr:city": "MCLAUGHLIN", "addr:country": "US", "addr:postcode": "57642", "addr:state": "SD", "addr:street_address": "221 MAIN ST", "amenity": "post_box", "brand": "United States Postal Service", "brand:wikidata": "Q668687", "collection_times": "Mo-Sa 17:00", "note": "ON 12/24 AND 12/31, THIS BOX MAY BE COLLECTED AS EARLY AS 12 NOON.", "nsi_id": "unitedstatespostalservice-a77078", "operator": "United States Postal Service", "operator:short": "USPS", "operator:type": "public", "operator:wikidata": "Q668687", "ref": "5764200002"}, "type": "Feature"}
{"geometry": {"coordinates": [-100.810684048, 45.813398877], "type": "Point"}, "id": "mGZXusL-gYShcyG0t0IYDwmaDlA=", "properties": {"@source_uri": "https://tools.usps.com/UspsToolsRestServices/rest/POLocator/findLocations", "@spider": "usps_collection_boxes", "addr:city": "MCLAUGHLIN", "addr:country": "US", "addr:postcode": "57642", "addr:state": "SD", "addr:street_address": "221 MAIN ST", "amenity": "post_box", "brand": "United States Postal Service", "brand:wikidata": "Q668687", "collection_times": "Mo-Fr 15:45; Sa 10:00", "indoor": "yes", "note": "ON 12/24 AND 12/31, THIS BOX MAY BE COLLECTED AS EARLY AS 12 NOON.", "nsi_id": "unitedstatespostalservice-a77078", "operator": "United States Postal Service", "operator:short": "USPS", "operator:type": "public", "operator:wikidata": "Q668687", "ref": "5764200003"}, "type": "Feature"}
{"geometry": {"coordinates": [-102.21705, 45.5289975], "type": "Point"}, "id": "BcqoLcWrVSjz9uxYrvfEdEnMGOg=", "properties": {"@source_uri": "https://tools.usps.com/UspsToolsRestServices/rest/POLocator/findLocations", "@spider": "usps_collection_boxes", "addr:city": "MEADOW", "addr:country": "US", "addr:postcode": "57644", "addr:state": "SD", "addr:street_address": "111 MAIN ST", "amenity": "post_box", "brand": "United States Postal Service", "brand:wikidata": "Q668687", "collection_times": "Mo-Fr 12:30; Sa 11:00", "indoor": "yes", "note": "ON 12/24 AND 12/31, THIS BOX MAY BE COLLECTED AS EARLY AS 12 NOON.", "nsi_id": "unitedstatespostalservice-a77078", "operator": "United States Postal Service", "operator:short": "USPS", "operator:type": "public", "operator:wikidata": "Q668687", "ref": "5764400001"}, "type": "Feature"}
{"geometry": {"coordinates": [-101.721146108, 45.941024443], "type": "Point"}, "id": "MzT-oDSK9U1eqG31cBY3pcHwRFY=", "properties": {"@source_uri": "https://tools.usps.com/UspsToolsRestServices/rest/POLocator/findLocations", "@spider": "usps_collection_boxes", "addr:city": "MORRISTOWN", "addr:country": "US", "addr:postcode": "57645", "addr:state": "SD", "addr:street_address": "223 MAIN ST", "amenity": "post_box", "brand": "United States Postal Service", "brand:wikidata": "Q668687", "collection_times": "Mo-Sa 15:30", "note": "ON 12/24 AND 12/31, THIS BOX MAY BE COLLECTED AS EARLY AS 12 NOON.", "nsi_id": "unitedstatespostalservice-a77078", "operator": "United States Postal Service", "operator:short": "USPS", "operator:type": "public", "operator:wikidata": "Q668687", "ref": "5764500001"}, "type": "Feature"}
{"geometry": {"coordinates": [-101.721146108, 45.941024443], "type": "Point"}, "id": "a39svJVJUKcYSig9bh0o3BPqoxw=", "properties": {"@source_uri": "https://tools.usps.com/UspsToolsRestServices/rest/POLocator/findLocations", "@spider": "usps_collection_boxes", "addr:city": "MORRISTOWN", "addr:country": "US", "addr:postcode": "57645", "addr:state": "SD", "addr:street_address": "223 MAIN ST", "amenity": "post_box", "brand": "United States Postal Service", "brand:wikidata": "Q668687", "collection_times": "Mo-Fr 11:30; Sa 10:30", "indoor": "yes", "nsi_id": "unitedstatespostalservice-a77078", "operator": "United States Postal Service", "operator:short": "USPS", "operator:type": "public", "operator:wikidata": "Q668687", "ref": "5764500002"}, "type": "Feature"}
{"geometry": {"coordinates": [-100.068845647, 45.726165014], "type": "Point"}, "id": "ONFn2duvPc_zN6kUTg0XSN87I3w=", "properties": {"@source_uri": "https://tools.usps.com/UspsToolsRestServices/rest/POLocator/findLocations", "@spider": "usps_collection_boxes", "addr:city": "MOUND CITY", "addr:country": "US", "addr:postcode": "57646", "addr:state": "SD", "addr:street_address": "202 MAIN ST N", "amenity": "post_box", "brand": "United States Postal Service", "brand:wikidata": "Q668687", "collection_times": "Mo-Sa 12:00", "nsi_id": "unitedstatespostalservice-a77078", "operator": "United States Postal Service", "operator:short": "USPS", "operator:type": "public", "operator:wikidata": "Q668687", "ref": "5764600001"}, "type": "Feature"}
{"geometry": {"coordinates": [-100.068845647, 45.726165014], "type": "Point"}, "id": "DHGUTCyIUVQQ8sUFRdpxuW_GekU=", "properties": {"@source_uri": "https://tools.usps.com/UspsToolsRestServices/rest/POLocator/findLocations", "@spider": "usps_collection_boxes", "addr:city": "MOUND CITY", "addr:country": "US", "addr:postcode": "57646", "addr:state": "SD", "addr:street_address": "202 MAIN ST N", "amenity": "post_box", "brand": "United States Postal Service", "brand:wikidata": "Q668687", "collection_times": "Mo-Sa 12:00", "indoor": "yes", "nsi_id": "unitedstatespostalservice-a77078", "operator": "United States Postal Service", "operator:short": "USPS", "operator:type": "public", "operator:wikidata": "Q668687", "ref": "5764600002"}, "type": "Feature"}
{"geometry": {"coordinates": [-100.283534227, 45.899305903], "type": "Point"}, "id": "sCcU5XySCkAhLuonXP28HHlC-bE=", "properties": {"@source_uri": "https://tools.usps.com/UspsToolsRestServices/rest/POLocator/findLocations", "@spider": "usps_collection_boxes", "addr:city": "POLLOCK", "addr:country": "US", "addr:postcode": "57648", "addr:state": "SD", "addr:street_address": "123 MAIN ST", "amenity": "post_box", "brand": "United States Postal Service", "brand:wikidata": "Q668687", "collection_times": "Mo-Sa 14:20", "note": "ON 12/24 AND 12/31, THIS BOX MAY BE COLLECTED AS EARLY AS 12 NOON.", "nsi_id": "unitedstatespostalservice-a77078", "operator": "United States Postal Service", "operator:short": "USPS", "operator:type": "public", "operator:wikidata": "Q668687", "ref": "5764800001"}, "type": "Feature"}
{"geometry": {"coordinates": [-100.283534227, 45.899305903], "type": "Point"}, "id": "W4cMrof_c4uWSMW_f0SaQQ7dViU=", "properties": {"@source_uri": "https://tools.usps.com/UspsToolsRestServices/rest/POLocator/findLocations", "@spider": "usps_collection_boxes", "addr:city": "POLLOCK", "addr:country": "US", "addr:postcode": "57648", "addr:state": "SD", "addr:street_address": "123 MAIN ST", "amenity": "post_box", "brand": "United States Postal Service", "brand:wikidata": "Q668687", "collection_times": "Mo-Fr 11:30; Sa 09:45", "indoor": "yes", "nsi_id": "unitedstatespostalservice-a77078", "operator": "United States Postal Service", "operator:short": "USPS", "operator:type": "public", "operator:wikidata": "Q668687", "ref": "5764800002"}, "type": "Feature"}
{"geometry": {"coordinates": [-103.082602261, 45.545421235], "type": "Point"}, "id": "H7-p4TudPGVBhE-zlP7oDpekVRY=", "properties": {"@source_uri": "https://tools.usps.com/UspsToolsRestServices/rest/POLocator/findLocations", "@spider": "usps_collection_boxes", "addr:city": "REVA", "addr:country": "US", "addr:postcode": "57651", "addr:state": "SD", "addr:street_address": "14759 SD HIGHWAY 20", "amenity": "post_box", "brand": "United States Postal Service", "brand:wikidata": "Q668687", "collection_times": "Mo-Sa 10:30", "nsi_id": "unitedstatespostalservice-a77078", "operator": "United States Postal Service", "operator:short": "USPS", "operator:type": "public", "operator:wikidata": "Q668687", "ref": "5765100001"}, "type": "Feature"}
{"geometry": {"coordinates": [-103.082602261, 45.545421235], "type": "Point"}, "id": "sNTjcJkr8eZ7sTPm10Z0N2wCdu8=", "properties": {"@source_uri": "https://tools.usps.com/UspsToolsRestServices/rest/POLocator/findLocations", "@spider": "usps_collection_boxes", "addr:city": "REVA", "addr:country": "US", "addr:postcode": "57651", "addr:state": "SD", "addr:street_address": "14759 SD HIGHWAY 20", "amenity": "post_box", "brand": "United States Postal Service", "brand:wikidata": "Q668687", "collection_times": "Mo-Sa 10:30", "indoor": "yes", "nsi_id": "unitedstatespostalservice-a77078", "operator": "United States Postal Service", "operator:short": "USPS", "operator:type": "public", "operator:wikidata": "Q668687", "ref": "5765100002"}, "type": "Feature"}
{"geometry": {"coordinates": [-100.533592196, 45.128646], "type": "Point"}, "id": "pKFKV2ziSNAcarC5JIRfWc85aqs=", "properties": {"@source_uri": "https://tools.usps.com/UspsToolsRestServices/rest/POLocator/findLocations", "@spider": "usps_collection_boxes", "addr:city": "RIDGEVIEW", "addr:country": "US", "addr:postcode": "57652", "addr:state": "SD", "addr:street_address": "1 HIGHWAY 212", "amenity": "post_box", "brand": "United States Postal Service", "brand:wikidata": "Q668687", "collection_times": "Mo-Sa 11:30", "indoor": "yes", "nsi_id": "unitedstatespostalservice-a77078", "operator": "United States Postal Service", "operator:short": "USPS", "operator:type": "public", "operator:wikidata": "Q668687", "ref": "5765200002"}, "type": "Feature"}
{"geometry": {"coordinates": [-100.533592196, 45.128646], "type": "Point"}, "id": "HZAA8BB6ZRQkuIs-FZ-c-AdMz70=", "properties": {"@source_uri": "https://tools.usps.com/UspsToolsRestServices/rest/POLocator/findLocations", "@spider": "usps_collection_boxes", "addr:city": "RIDGEVIEW", "addr:country": "US", "addr:postcode": "57652", "addr:state": "SD", "addr:street_address": "1 HIGHWAY 212", "amenity": "post_box", "brand": "United States Postal Service", "brand:wikidata": "Q668687", "collection_times": "Mo-Sa 11:30", "nsi_id": "unitedstatespostalservice-a77078", "operator": "United States Postal Service", "operator:short": "USPS", "operator:type": "public", "operator:wikidata": "Q668687", "ref": "5765200003"}, "type": "Feature"}
{"geometry": {"coordinates": [-101.0738835, 45.428342357], "type": "Point"}, "id": "OKwAZuqC2Kb7R4agQIlD1UdSMoo=", "properties": {"@source_uri": "https://tools.usps.com/UspsToolsRestServices/rest/POLocator/findLocations", "@spider": "usps_collection_boxes", "addr:city": "TIMBER LAKE", "addr:country": "US", "addr:postcode": "57656", "addr:state": "SD", "addr:street_address": "801 MAIN ST", "amenity": "post_box", "brand": "United States Postal Service", "brand:wikidata": "Q668687", "collection_times": "Mo-Sa 16:00", "note": "ON 12/24 AND 12/31, THIS BOX MAY BE COLLECTED AS EARLY AS 12 NOON.", "nsi_id": "unitedstatespostalservice-a77078", "operator": "United States Postal Service", "operator:short": "USPS", "operator:type": "public", "operator:wikidata": "Q668687", "ref": "5765600001"}, "type": "Feature"}
{"geometry": {"coordinates": [-100.727509133, 45.47292756], "type": "Point"}, "id": "MoQbJRX1iB0ogP6r5upVOgP77Uc=", "properties": {"@source_uri": "https://tools.usps.com/UspsToolsRestServices/rest/POLocator/findLocations", "@spider": "usps_collection_boxes", "addr:city": "TRAIL CITY", "addr:country": "US", "addr:postcode": "57657", "addr:state": "SD", "addr:street_address": "130 N MAIN ST", "amenity": "post_box", "brand": "United States Postal Service", "brand:wikidata": "Q668687", "collection_times": "Mo-Sa 10:10", "indoor": "yes", "nsi_id": "unitedstatespostalservice-a77078", "operator": "United States Postal Service", "operator:short": "USPS", "operator:type": "public", "operator:wikidata": "Q668687", "ref": "5765700002"}, "type": "Feature"}
{"geometry": {"coordinates": [-100.883285849, 45.293310938], "type": "Point"}, "id": "9B-Ccjmq3clz6Lk--GTqZxJl7Fo=", "properties": {"@source_uri": "https://tools.usps.com/UspsToolsRestServices/rest/POLocator/findLocations", "@spider": "usps_collection_boxes", "addr:city": "WHITEHORSE", "addr:country": "US", "addr:postcode": "57661", "addr:state": "SD", "addr:street_address": "18 S 2ND AVE", "amenity": "post_box", "brand": "United States Postal Service", "brand:wikidata": "Q668687", "collection_times": "Mo-Fr 13:15", "note": "ON 12/24 AND 12/31, THIS BOX MAY BE COLLECTED AS EARLY AS 12 NOON.", "nsi_id": "unitedstatespostalservice-a77078", "operator": "United States Postal Service", "operator:short": "USPS", "operator:type": "public", "operator:wikidata": "Q668687", "ref": "5766100000"}, "type": "Feature"}
{"geometry": {"coordinates": [-100.883285849, 45.293310938], "type": "Point"}, "id": "QT71FPhAuW-d92B1Dd_wL_R_IQ0=", "properties": {"@source_uri": "https://tools.usps.com/UspsToolsRestServices/rest/POLocator/findLocations", "@spider": "usps_collection_boxes", "addr:city": "WHITEHORSE", "addr:country": "US", "addr:postcode": "57661", "addr:state": "SD", "addr:street_address": "18 S 2ND AVE", "amenity": "post_box", "brand": "United States Postal Service", "brand:wikidata": "Q668687", "collection_times": "Mo-Fr 13:15", "indoor": "yes", "note": "ON 12/24 AND 12/31, THIS BOX MAY BE COLLECTED AS EARLY AS 12 NOON.", "nsi_id": "unitedstatespostalservice-a77078", "operator": "United States Postal Service", "operator:short": "USPS", "operator:type": "public", "operator:wikidata": "Q668687", "ref": "5766100001"}, "type": "Feature"}
