{"geometry": {"coordinates": [-103.23245, 44.075345], "type": "Point"}, "id": "IE1mv6Nn3mbwBTbLURJmTE-jWG0=", "properties": {"@source_uri": "https://tools.usps.com/UspsToolsRestServices/rest/POLocator/findLocations", "@spider": "usps_collection_boxes", "addr:city": "RAPID CITY", "addr:country": "US", "addr:postcode": "57701", "addr:state": "SD", "addr:street_address": "445 MOUNT RUSHMORE RD", "amenity": "post_box", "collection_times": "Mo-Fr 14:30", "note": "ON 12/24 AND 12/31, THIS BOX MAY BE COLLECTED AS EARLY AS 12 NOON.", "nsi_id": "unitedstatespostalservice-a77078", "operator": "United States Postal Service", "operator:short": "USPS", "operator:type": "public", "operator:wikidata": "Q668687", "ref": "5770100004"}, "type": "Feature"}
{"geometry": {"coordinates": [-103.22505, 44.067558532], "type": "Point"}, "id": "ARSDmcR0rvb1x3Ny0ivSmIJ4DL0=", "properties": {"@source_uri": "https://tools.usps.com/UspsToolsRestServices/rest/POLocator/findLocations", "@spider": "usps_collection_boxes", "addr:city": "RAPID CITY", "addr:country": "US", "addr:postcode": "57701", "addr:state": "SD", "addr:street_address": "319 SAINT PATRICK ST", "amenity": "post_box", "collection_times": "Mo-Fr 14:30; Sa 10:00", "note": "ON 12/24 AND 12/31, THIS BOX MAY BE COLLECTED AS EARLY AS 12 NOON.", "nsi_id": "unitedstatespostalservice-a77078", "operator": "United States Postal Service", "operator:short": "USPS", "operator:type": "public", "operator:wikidata": "Q668687", "ref": "5770100006"}, "type": "Feature"}
{"geometry": {"coordinates": [-103.228117032, 44.088342635], "type": "Point"}, "id": "KRS8qd3iG3Og8X0pLfzEdLgRX2w=", "properties": {"@source_uri": "https://tools.usps.com/UspsToolsRestServices/rest/POLocator/findLocations", "@spider": "usps_collection_boxes", "addr:city": "RAPID CITY", "addr:country": "US", "addr:postcode": "57701", "addr:state": "SD", "addr:street_address": "444 N MOUNT RUSHMORE RD", "amenity": "post_box", "collection_times": "Mo-Fr 14:30", "note": "ON 12/24 AND 12/31, THIS BOX MAY BE COLLECTED AS EARLY AS 12 NOON.", "nsi_id": "unitedstatespostalservice-a77078", "operator": "United States Postal Service", "operator:short": "USPS", "operator:type": "public", "operator:wikidata": "Q668687", "ref": "5770100012"}, "type": "Feature"}
{"geometry": {"coordinates": [-103.227435979, 44.077758707], "type": "Point"}, "id": "Jl1VDT6kwgo2JejFXHcIOPfCJVk=", "properties": {"@source_uri": "https://tools.usps.com/UspsToolsRestServices/rest/POLocator/findLocations", "@spider": "usps_collection_boxes", "addr:city": "RAPID CITY", "addr:country": "US", "addr:postcode": "57701", "addr:state": "SD", "addr:street_address": "527 QUINCY ST", "amenity": "post_box", "collection_times": "Mo-Fr 15:00; Sa 10:00", "note": "ON 12/24 AND 12/31, THIS BOX MAY BE COLLECTED AS EARLY AS 12 NOON.", "nsi_id": "unitedstatespostalservice-a77078", "operator": "United States Postal Service", "operator:short": "USPS", "operator:type": "public", "operator:wikidata": "Q668687", "ref": "5770100023"}, "type": "Feature"}
{"geometry": {"coordinates": [-103.221819799, 44.102960445], "type": "Point"}, "id": "8vL2RNEukj2wX6TaIApPaCM3Qhg=", "properties": {"@source_uri": "https://tools.usps.com/UspsToolsRestServices/rest/POLocator/findLocations", "@spider": "usps_collection_boxes", "addr:city": "RAPID CITY", "addr:country": "US", "addr:postcode": "57701", "addr:state": "SD", "addr:street_address": "1845 HAINES AVE", "amenity": "post_box", "collection_times": "Mo-Sa 14:30", "note": "ON 12/24 AND 12/31, THIS BOX MAY BE COLLECTED AS EARLY AS 12 NOON.", "nsi_id": "unitedstatespostalservice-a77078", "operator": "United States Postal Service", "operator:short": "USPS", "operator:type": "public", "operator:wikidata": "Q668687", "ref": "5770100024"}, "type": "Feature"}
{"geometry": {"coordinates": [-103.215755213, 44.078666366], "type": "Point"}, "id": "f7DIba4MqdJDxXLPLjB3gOzp4wM=", "properties": {"@source_uri": "https://tools.usps.com/UspsToolsRestServices/rest/POLocator/findLocations", "@spider": "usps_collection_boxes", "addr:city": "RAPID CITY", "addr:country": "US", "addr:postcode": "57701", "addr:state": "SD", "addr:street_address": "500 EAST BLVD", "amenity": "post_box", "collection_times": "Mo-Sa 18:30", "note": "ON 12/24 AND 12/31, THIS BOX MAY BE COLLECTED AS EARLY AS 12 NOON.", "nsi_id": "unitedstatespostalservice-a77078", "operator": "United States Postal Service", "operator:short": "USPS", "operator:type": "public", "operator:wikidata": "Q668687", "ref": "5770100025"}, "type": "Feature"}
{"geometry": {"coordinates": [-103.201705736, 44.098044915], "type": "Point"}, "id": "tuO_4avf2ME7m8HTEQkzCglSULI=", "properties": {"@source_uri": "https://tools.usps.com/UspsToolsRestServices/rest/POLocator/findLocations", "@spider": "usps_collection_boxes", "addr:city": "RAPID CITY", "addr:country": "US", "addr:postcode": "57701", "addr:state": "SD", "addr:street_address": "1200 N LACROSSE ST", "amenity": "post_box", "collection_times": "Mo-Sa 10:00", "nsi_id": "unitedstatespostalservice-a77078", "operator": "United States Postal Service", "operator:short": "USPS", "operator:type": "public", "operator:wikidata": "Q668687", "ref": "5770100033"}, "type": "Feature"}
{"geometry": {"coordinates": [-103.228935454, 44.080238725], "type": "Point"}, "id": "eQUuhX6iEIcCyxAcZzfy7svPLfo=", "properties": {"@source_uri": "https://tools.usps.com/UspsToolsRestServices/rest/POLocator/findLocations", "@spider": "usps_collection_boxes", "addr:city": "RAPID CITY", "addr:country": "US", "addr:postcode": "57701", "addr:state": "SD", "addr:street_address": "629 SAINT JOSEPH ST", "amenity": "post_box", "collection_times": "Mo-Fr 15:00", "note": "ON 12/24 AND 12/31, THIS BOX MAY BE COLLECTED AS EARLY AS 12 NOON.", "nsi_id": "unitedstatespostalservice-a77078", "operator": "United States Postal Service", "operator:short": "USPS", "operator:type": "public", "operator:wikidata": "Q668687", "ref": "5770100042"}, "type": "Feature"}
{"geometry": {"coordinates": [-103.227587391, 44.079278521], "type": "Point"}, "id": "Bc5yWjlUpIdShWoFvK6zAlB9gIQ=", "properties": {"@source_uri": "https://tools.usps.com/UspsToolsRestServices/rest/POLocator/findLocations", "@spider": "usps_collection_boxes", "addr:city": "RAPID CITY", "addr:country": "US", "addr:postcode": "57701", "addr:state": "SD", "addr:street_address": "621 6TH ST", "amenity": "post_box", "collection_times": "Mo-Fr 15:00", "note": "ON 12/24 AND 12/31, THIS BOX MAY BE COLLECTED AS EARLY AS 12 NOON.", "nsi_id": "unitedstatespostalservice-a77078", "operator": "United States Postal Service", "operator:short": "USPS", "operator:type": "public", "operator:wikidata": "Q668687", "ref": "5770100045"}, "type": "Feature"}
{"geometry": {"coordinates": [-103.211117414, 44.054992129], "type": "Point"}, "id": "ffgJ5eVZyfjWnq7CxpmgdUpC8wg=", "properties": {"@source_uri": "https://tools.usps.com/UspsToolsRestServices/rest/POLocator/findLocations", "@spider": "usps_collection_boxes", "addr:city": "RAPID CITY", "addr:country": "US", "addr:postcode": "57701", "addr:state": "SD", "addr:street_address": "310 E FAIRMONT BLVD", "amenity": "post_box", "collection_times": "Mo-Fr 14:30", "note": "ON 12/24 AND 12/31, THIS BOX MAY BE COLLECTED AS EARLY AS 12 NOON.", "nsi_id": "unitedstatespostalservice-a77078", "operator": "United States Postal Service", "operator:short": "USPS", "operator:type": "public", "operator:wikidata": "Q668687", "ref": "5770100058"}, "type": "Feature"}
{"geometry": {"coordinates": [-103.215755213, 44.078666366], "type": "Point"}, "id": "MpLiT3gK5PcwRx6TPQ4qUQXCtxc=", "properties": {"@source_uri": "https://tools.usps.com/UspsToolsRestServices/rest/POLocator/findLocations", "@spider": "usps_collection_boxes", "addr:city": "RAPID CITY", "addr:country": "US", "addr:postcode": "57701", "addr:state": "SD", "addr:street_address": "500 EAST BLVD", "amenity": "post_box", "collection_times": "Mo-Sa 18:30", "note": "ON 12/24 AND 12/31, THIS BOX MAY BE COLLECTED AS EARLY AS 12 NOON.", "nsi_id": "unitedstatespostalservice-a77078", "operator": "United States Postal Service", "operator:short": "USPS", "operator:type": "public", "operator:wikidata": "Q668687", "ref": "5770100066"}, "type": "Feature"}
{"geometry": {"coordinates": [-103.233584593, 44.082116634], "type": "Point"}, "id": "7PAr_DkQFYXUqqFwrIXMO7_I1kI=", "properties": {"@source_uri": "https://tools.usps.com/UspsToolsRestServices/rest/POLocator/findLocations", "@spider": "usps_collection_boxes", "addr:city": "RAPID CITY", "addr:country": "US", "addr:postcode": "57701", "addr:state": "SD", "addr:street_address": "919 MAIN ST", "amenity": "post_box", "collection_times": "Mo-Sa 14:30", "note": "ON 12/24 AND 12/31, THIS BOX MAY BE COLLECTED AS EARLY AS 12 NOON.", "nsi_id": "unitedstatespostalservice-a77078", "operator": "United States Postal Service", "operator:short": "USPS", "operator:type": "public", "operator:wikidata": "Q668687", "ref": "5770100073"}, "type": "Feature"}
{"geometry": {"coordinates": [-103.215755213, 44.078666366], "type": "Point"}, "id": "CpMpK2BiRx3XDHC-hFm0_EHpsVk=", "properties": {"@source_uri": "https://tools.usps.com/UspsToolsRestServices/rest/POLocator/findLocations", "@spider": "usps_collection_boxes", "addr:city": "RAPID CITY", "addr:country": "US", "addr:postcode": "57701", "addr:state": "SD", "addr:street_address": "500 EAST BLVD", "amenity": "post_box", "collection_times": "Mo-Sa 18:30", "indoor": "yes", "note": "ON 12/24 AND 12/31, THIS BOX MAY BE COLLECTED AS EARLY AS 12 NOON.", "nsi_id": "unitedstatespostalservice-a77078", "operator": "United States Postal Service", "operator:short": "USPS", "operator:type": "public", "operator:wikidata": "Q668687", "ref": "5770100083"}, "type": "Feature"}
{"geometry": {"coordinates": [-103.201424193, 44.067478485], "type": "Point"}, "id": "Hi6SSh0R6YlZE_hkINdd_B2YRs4=", "properties": {"@source_uri": "https://tools.usps.com/UspsToolsRestServices/rest/POLocator/findLocations", "@spider": "usps_collection_boxes", "addr:city": "RAPID CITY", "addr:country": "US", "addr:postcode": "57701", "addr:state": "SD", "addr:street_address": "909 E SAINT PATRICK ST", "amenity": "post_box", "collection_times": "Mo-Sa 16:00", "note": "ON 12/24 AND 12/31, THIS BOX MAY BE COLLECTED AS EARLY AS 12 NOON.", "nsi_id": "unitedstatespostalservice-a77078", "operator": "United States Postal Service", "operator:short": "USPS", "operator:type": "public", "operator:wikidata": "Q668687", "ref": "5770100089"}, "type": "Feature"}
{"geometry": {"coordinates": [-103.223953503, 44.058301352], "type": "Point"}, "id": "mUmHYqgVvwWKHamUbQvKtS3WuX0=", "properties": {"@source_uri": "https://tools.usps.com/UspsToolsRestServices/rest/POLocator/findLocations", "@spider": "usps_collection_boxes", "addr:city": "RAPID CITY", "addr:country": "US", "addr:postcode": "57701", "addr:state": "SD", "addr:street_address": "353 FAIRMONT BLVD", "amenity": "post_box", "collection_times": "Mo-Fr 14:45", "note": "ON 12/24 AND 12/31, THIS BOX MAY BE COLLECTED AS EARLY AS 12 NOON.", "nsi_id": "unitedstatespostalservice-a77078", "operator": "United States Postal Service", "operator:short": "USPS", "operator:type": "public", "operator:wikidata": "Q668687", "ref": "5770100091"}, "type": "Feature"}
{"geometry": {"coordinates": [-103.221742277, 44.098594288], "type": "Point"}, "id": "aTbZEr-79yGMJv2PpiGfs_YhCOc=", "properties": {"@source_uri": "https://tools.usps.com/UspsToolsRestServices/rest/POLocator/findLocations", "@spider": "usps_collection_boxes", "addr:city": "RAPID CITY", "addr:country": "US", "addr:postcode": "57701", "addr:state": "SD", "addr:street_address": "1430 HAINES AVE", "amenity": "post_box", "collection_times": "Mo-Fr 14:30", "note": "ON 12/24 AND 12/31, THIS BOX MAY BE COLLECTED AS EARLY AS 12 NOON.", "nsi_id": "unitedstatespostalservice-a77078", "operator": "United States Postal Service", "operator:short": "USPS", "operator:type": "public", "operator:wikidata": "Q668687", "ref": "5770100096"}, "type": "Feature"}
{"geometry": {"coordinates": [-103.234047875, 44.077125143], "type": "Point"}, "id": "efwM-TM3ClV0BwvWvcnBYUMl3NM=", "properties": {"@source_uri": "https://tools.usps.com/UspsToolsRestServices/rest/POLocator/findLocations", "@spider": "usps_collection_boxes", "addr:city": "RAPID CITY", "addr:country": "US", "addr:postcode": "57701", "addr:state": "SD", "addr:street_address": "912 9TH ST", "amenity": "post_box", "collection_times": "Mo-Fr 14:30", "note": "ON 12/24 AND 12/31, THIS BOX MAY BE COLLECTED AS EARLY AS 12 NOON.", "nsi_id": "unitedstatespostalservice-a77078", "operator": "United States Postal Service", "operator:short": "USPS", "operator:type": "public", "operator:wikidata": "Q668687", "ref": "5770100097"}, "type": "Feature"}
{"geometry": {"coordinates": [-103.226184, 44.067559528], "type": "Point"}, "id": "nAx9fiV2u-90Qh6m0_3enXhVe3c=", "properties": {"@source_uri": "https://tools.usps.com/UspsToolsRestServices/rest/POLocator/findLocations", "@spider": "usps_collection_boxes", "addr:city": "RAPID CITY", "addr:country": "US", "addr:postcode": "57701", "addr:state": "SD", "addr:street_address": "339 SAINT PATRICK ST", "amenity": "post_box", "collection_times": "Mo-Fr 15:00; Sa 14:30", "note": "ON 12/24 AND 12/31, THIS BOX MAY BE COLLECTED AS EARLY AS 12 NOON.", "nsi_id": "unitedstatespostalservice-a77078", "operator": "United States Postal Service", "operator:short": "USPS", "operator:type": "public", "operator:wikidata": "Q668687", "ref": "5770100098"}, "type": "Feature"}
{"geometry": {"coordinates": [-103.252080247, 44.080189554], "type": "Point"}, "id": "ewz5zzQctVf-M0L3UybhumJVV_Y=", "properties": {"@source_uri": "https://tools.usps.com/UspsToolsRestServices/rest/POLocator/findLocations", "@spider": "usps_collection_boxes", "addr:city": "RAPID CITY", "addr:country": "US", "addr:postcode": "57702", "addr:state": "SD", "addr:street_address": "701 MOUNTAIN VIEW RD", "amenity": "post_box", "collection_times": "Mo-Sa 16:30", "note": "ON 12/24 AND 12/31, THIS BOX MAY BE COLLECTED AS EARLY AS 12 NOON.", "nsi_id": "unitedstatespostalservice-a77078", "operator": "United States Postal Service", "operator:short": "USPS", "operator:type": "public", "operator:wikidata": "Q668687", "ref": "5770200016"}, "type": "Feature"}
{"geometry": {"coordinates": [-103.253744347, 44.081295191], "type": "Point"}, "id": "4b8Zz0LBC8-PylB8KhMEXd-lNPE=", "properties": {"@source_uri": "https://tools.usps.com/UspsToolsRestServices/rest/POLocator/findLocations", "@spider": "usps_collection_boxes", "addr:city": "RAPID CITY", "addr:country": "US", "addr:postcode": "57702", "addr:state": "SD", "addr:street_address": "2040 W MAIN ST", "amenity": "post_box", "collection_times": "Mo-Fr 14:30", "note": "ON 12/24 AND 12/31, THIS BOX MAY BE COLLECTED AS EARLY AS 12 NOON.", "nsi_id": "unitedstatespostalservice-a77078", "operator": "United States Postal Service", "operator:short": "USPS", "operator:type": "public", "operator:wikidata": "Q668687", "ref": "5770200025"}, "type": "Feature"}
{"geometry": {"coordinates": [-103.28683, 44.08501], "type": "Point"}, "id": "wXHWYnOiQGaJBr0_nB15mtF7oW4=", "properties": {"@source_uri": "https://tools.usps.com/UspsToolsRestServices/rest/POLocator/findLocations", "@spider": "usps_collection_boxes", "addr:city": "RAPID CITY", "addr:country": "US", "addr:postcode": "57702", "addr:state": "SD", "addr:street_address": "2920 SHERIDAN LAKE RD", "amenity": "post_box", "collection_times": "Mo-Sa 14:00", "note": "ON 12/24 AND 12/31, THIS BOX MAY BE COLLECTED AS EARLY AS 12 NOON.", "nsi_id": "unitedstatespostalservice-a77078", "operator": "United States Postal Service", "operator:short": "USPS", "operator:type": "public", "operator:wikidata": "Q668687", "ref": "5770200027"}, "type": "Feature"}
{"geometry": {"coordinates": [-103.289744561, 44.060820442], "type": "Point"}, "id": "usMJkIQ92YfD2MZSXOhdoheGjk0=", "properties": {"@source_uri": "https://tools.usps.com/UspsToolsRestServices/rest/POLocator/findLocations", "@spider": "usps_collection_boxes", "addr:city": "RAPID CITY", "addr:country": "US", "addr:postcode": "57702", "addr:state": "SD", "addr:street_address": "4200 BEACH DR", "amenity": "post_box", "collection_times": "Mo-Sa 14:00", "note": "ON 12/24 AND 12/31, THIS BOX MAY BE COLLECTED AS EARLY AS 12 NOON.", "nsi_id": "unitedstatespostalservice-a77078", "operator": "United States Postal Service", "operator:short": "USPS", "operator:type": "public", "operator:wikidata": "Q668687", "ref": "5770200028"}, "type": "Feature"}
{"geometry": {"coordinates": [-103.252025808, 44.07889522], "type": "Point"}, "id": "ekG-gkh3_cFuwLbBZBnYdwgCYkY=", "properties": {"@source_uri": "https://tools.usps.com/UspsToolsRestServices/rest/POLocator/findLocations", "@spider": "usps_collection_boxes", "addr:city": "RAPID CITY", "addr:country": "US", "addr:postcode": "57702", "addr:state": "SD", "addr:street_address": "780 MOUNTAIN VIEW RD", "amenity": "post_box", "collection_times": "Mo-Sa 14:30", "note": "ON 12/24 AND 12/31, THIS BOX MAY BE COLLECTED AS EARLY AS 12 NOON.", "nsi_id": "unitedstatespostalservice-a77078", "operator": "United States Postal Service", "operator:short": "USPS", "operator:type": "public", "operator:wikidata": "Q668687", "ref": "5770200030"}, "type": "Feature"}
{"geometry": {"coordinates": [-103.272273723, 44.082124007], "type": "Point"}, "id": "oNekw10TCFxSNrt4KTVC5C_JVVY=", "properties": {"@source_uri": "https://tools.usps.com/UspsToolsRestServices/rest/POLocator/findLocations", "@spider": "usps_collection_boxes", "addr:city": "RAPID CITY", "addr:country": "US", "addr:postcode": "57702", "addr:state": "SD", "addr:street_address": "3213 W MAIN ST", "amenity": "post_box", "collection_times": "Mo-Fr 14:30; Sa 14:00", "note": "ON 12/24 AND 12/31, THIS BOX MAY BE COLLECTED AS EARLY AS 12 NOON.", "nsi_id": "unitedstatespostalservice-a77078", "operator": "United States Postal Service", "operator:short": "USPS", "operator:type": "public", "operator:wikidata": "Q668687", "ref": "5770200032"}, "type": "Feature"}
{"geometry": {"coordinates": [-103.262859366, 44.069853677], "type": "Point"}, "id": "65rB0abqOxiJErGp8op-5i-4NSM=", "properties": {"@source_uri": "https://tools.usps.com/UspsToolsRestServices/rest/POLocator/findLocations", "@spider": "usps_collection_boxes", "addr:city": "RAPID CITY", "addr:country": "US", "addr:postcode": "57702", "addr:state": "SD", "addr:street_address": "2620 JACKSON BLVD", "amenity": "post_box", "collection_times": "Mo-Fr 14:30", "note": "ON 12/24 AND 12/31, THIS BOX MAY BE COLLECTED AS EARLY AS 12 NOON.", "nsi_id": "unitedstatespostalservice-a77078", "operator": "United States Postal Service", "operator:short": "USPS", "operator:type": "public", "operator:wikidata": "Q668687", "ref": "5770200035"}, "type": "Feature"}
{"geometry": {"coordinates": [-103.24907325, 44.076507301], "type": "Point"}, "id": "ZpTtaBmqY5vg4lslX5n_cvYu53g=", "properties": {"@source_uri": "https://tools.usps.com/UspsToolsRestServices/rest/POLocator/findLocations", "@spider": "usps_collection_boxes", "addr:city": "RAPID CITY", "addr:country": "US", "addr:postcode": "57702", "addr:state": "SD", "addr:street_address": "1805 W FULTON ST", "amenity": "post_box", "collection_times": "Mo-Sa 14:30", "note": "ON 12/24 AND 12/31, THIS BOX MAY BE COLLECTED AS EARLY AS 12 NOON.", "nsi_id": "unitedstatespostalservice-a77078", "operator": "United States Postal Service", "operator:short": "USPS", "operator:type": "public", "operator:wikidata": "Q668687", "ref": "5770200036"}, "type": "Feature"}
{"geometry": {"coordinates": [-103.171327977, 44.070407263], "type": "Point"}, "id": "laY5loPxHWcfv5HlPbYvhKEMx-8=", "properties": {"@source_uri": "https://tools.usps.com/UspsToolsRestServices/rest/POLocator/findLocations", "@spider": "usps_collection_boxes", "addr:city": "RAPID CITY", "addr:country": "US", "addr:postcode": "57703", "addr:state": "SD", "addr:street_address": "2700 E HIGHWAY 44", "amenity": "post_box", "collection_times": "Mo-Sa 14:30", "note": "ON 12/24 AND 12/31, THIS BOX MAY BE COLLECTED AS EARLY AS 12 NOON.", "nsi_id": "unitedstatespostalservice-a77078", "operator": "United States Postal Service", "operator:short": "USPS", "operator:type": "public", "operator:wikidata": "Q668687", "ref": "5770300002"}, "type": "Feature"}
{"geometry": {"coordinates": [-103.190433281, 44.067526473], "type": "Point"}, "id": "S5qr1BBYC0aF1C0C0P94WMSxED0=", "properties": {"@source_uri": "https://tools.usps.com/UspsToolsRestServices/rest/POLocator/findLocations", "@spider": "usps_collection_boxes", "addr:city": "RAPID CITY", "addr:country": "US", "addr:postcode": "57703", "addr:state": "SD", "addr:street_address": "1516 E SAINT PATRICK ST", "amenity": "post_box", "collection_times": "Mo-Fr 14:30", "note": "ON 12/24 AND 12/31, THIS BOX MAY BE COLLECTED AS EARLY AS 12 NOON.", "nsi_id": "unitedstatespostalservice-a77078", "operator": "United States Postal Service", "operator:short": "USPS", "operator:type": "public", "operator:wikidata": "Q668687", "ref": "5770300003"}, "type": "Feature"}
{"geometry": {"coordinates": [-103.149542216, 44.077212251], "type": "Point"}, "id": "fXZ1IXwv1_R4l44qFR-_6HJJY48=", "properties": {"@source_uri": "https://tools.usps.com/UspsToolsRestServices/rest/POLocator/findLocations", "@spider": "usps_collection_boxes", "addr:city": "RAPID CITY", "addr:country": "US", "addr:postcode": "57703", "addr:state": "SD", "addr:street_address": "747 TIMMONS BLVD", "amenity": "post_box", "collection_times": "Mo-Sa 16:00", "note": "ON 12/24 AND 12/31, THIS BOX MAY BE COLLECTED AS EARLY AS 12 NOON.", "nsi_id": "unitedstatespostalservice-a77078", "operator": "United States Postal Service", "operator:short": "USPS", "operator:type": "public", "operator:wikidata": "Q668687", "ref": "5770300004"}, "type": "Feature"}
{"geometry": {"coordinates": [-101.915900839, 43.273185649], "type": "Point"}, "id": "tRKRx9_Hkodgqja8BzFo0enjNWo=", "properties": {"@source_uri": "https://tools.usps.com/UspsToolsRestServices/rest/POLocator/findLocations", "@spider": "usps_collection_boxes", "addr:city": "ALLEN", "addr:country": "US", "addr:postcode": "57714", "addr:state": "SD", "addr:street_address": "426 OGLALA LOOP", "amenity": "post_box", "collection_times": "Mo-Sa 12:10", "indoor": "yes", "note": "ON 12/24 AND 12/31, THIS BOX MAY BE COLLECTED AS EARLY AS 12 NOON.", "nsi_id": "unitedstatespostalservice-a77078", "operator": "United States Postal Service", "operator:short": "USPS", "operator:type": "public", "operator:wikidata": "Q668687", "ref": "5771400002"}, "type": "Feature"}
{"geometry": {"coordinates": [-101.915900839, 43.273185649], "type": "Point"}, "id": "8LRflf7mitSgnmAFhHiuMYifNOE=", "properties": {"@source_uri": "https://tools.usps.com/UspsToolsRestServices/rest/POLocator/findLocations", "@spider": "usps_collection_boxes", "addr:city": "ALLEN", "addr:country": "US", "addr:postcode": "57714", "addr:state": "SD", "addr:street_address": "426 OGLALA LOOP", "amenity": "post_box", "collection_times": "Mo-Sa 12:00", "indoor": "yes", "nsi_id": "unitedstatespostalservice-a77078", "operator": "United States Postal Service", "operator:short": "USPS", "operator:type": "public", "operator:wikidata": "Q668687", "ref": "5771400003"}, "type": "Feature"}
{"geometry": {"coordinates": [-102.099589847, 43.127229347], "type": "Point"}, "id": "PVx1cGA_vDvXg_3sDlX9_Va8wko=", "properties": {"@source_uri": "https://tools.usps.com/UspsToolsRestServices/rest/POLocator/findLocations", "@spider": "usps_collection_boxes", "addr:city": "BATESLAND", "addr:country": "US", "addr:postcode": "57716", "addr:state": "SD", "addr:street_address": "100 ASH ST", "amenity": "post_box", "collection_times": "Mo-Fr 13:15; Sa 11:45", "note": "ON 12/24 AND 12/31, THIS BOX MAY BE COLLECTED AS EARLY AS 12 NOON.", "nsi_id": "unitedstatespostalservice-a77078", "operator": "United States Postal Service", "operator:short": "USPS", "operator:type": "public", "operator:wikidata": "Q668687", "ref": "5771600000"}, "type": "Feature"}
{"geometry": {"coordinates": [-102.099589847, 43.127229347], "type": "Point"}, "id": "iTwVo7Dp2A6CPJ4ax_FH9okS5UM=", "properties": {"@source_uri": "https://tools.usps.com/UspsToolsRestServices/rest/POLocator/findLocations", "@spider": "usps_collection_boxes", "addr:city": "BATESLAND", "addr:country": "US", "addr:postcode": "57716", "addr:state": "SD", "addr:street_address": "100 ASH ST", "amenity": "post_box", "collection_times": "Mo-Fr 13:15; Sa 11:30", "indoor": "yes", "note": "ON 12/24 AND 12/31, THIS BOX MAY BE COLLECTED AS EARLY AS 12 NOON.", "nsi_id": "unitedstatespostalservice-a77078", "operator": "United States Postal Service", "operator:short": "USPS", "operator:type": "public", "operator:wikidata": "Q668687", "ref": "5771600001"}, "type": "Feature"}
{"geometry": {"coordinates": [-102.099589847, 43.127229347], "type": "Point"}, "id": "vapUHfMgOhXlUJZ-HEN7qUu15IA=", "properties": {"@source_uri": "https://tools.usps.com/UspsToolsRestServices/rest/POLocator/findLocations", "@spider": "usps_collection_boxes", "addr:city": "BATESLAND", "addr:country": "US", "addr:postcode": "57716", "addr:state": "SD", "addr:street_address": "100 ASH ST", "amenity": "post_box", "collection_times": "Mo-Fr 13:00; Sa 11:30", "indoor": "yes", "note": "ON 12/24 AND 12/31, THIS BOX MAY BE COLLECTED AS EARLY AS 12 NOON.", "nsi_id": "unitedstatespostalservice-a77078", "operator": "United States Postal Service", "operator:short": "USPS", "operator:type": "public", "operator:wikidata": "Q668687", "ref": "5771600002"}, "type": "Feature"}
{"geometry": {"coordinates": [-103.848822807, 44.671415481], "type": "Point"}, "id": "YSJtnxbkwZHHvMtR0CCMj_uC3-g=", "properties": {"@source_uri": "https://tools.usps.com/UspsToolsRestServices/rest/POLocator/findLocations", "@spider": "usps_collection_boxes", "addr:city": "BELLE FOURCHE", "addr:country": "US", "addr:postcode": "57717", "addr:state": "SD", "addr:street_address": "804 STATE ST", "amenity": "post_box", "collection_times": "Mo-Fr 16:15; Sa 16:00", "note": "ON 12/24 AND 12/31, THIS BOX MAY BE COLLECTED AS EARLY AS 12 NOON.", "nsi_id": "unitedstatespostalservice-a77078", "operator": "United States Postal Service", "operator:short": "USPS", "operator:type": "public", "operator:wikidata": "Q668687", "ref": "5771700001"}, "type": "Feature"}
{"geometry": {"coordinates": [-103.853612321, 44.678538], "type": "Point"}, "id": "Hdnzo9QE0eKbqB175UCKugPcV-M=", "properties": {"@source_uri": "https://tools.usps.com/UspsToolsRestServices/rest/POLocator/findLocations", "@spider": "usps_collection_boxes", "addr:city": "BELLE FOURCHE", "addr:country": "US", "addr:postcode": "57717", "addr:state": "SD", "addr:street_address": "41 5TH AVE", "amenity": "post_box", "collection_times": "Mo-Sa 14:00", "note": "ON 12/24 AND 12/31, THIS BOX MAY BE COLLECTED AS EARLY AS 12 NOON.", "nsi_id": "unitedstatespostalservice-a77078", "operator": "United States Postal Service", "operator:short": "USPS", "operator:type": "public", "operator:wikidata": "Q668687", "ref": "5771700006"}, "type": "Feature"}
{"geometry": {"coordinates": [-103.848822807, 44.671415481], "type": "Point"}, "id": "ddYJdBJ4jDYk_An7dfpfTe3NMhs=", "properties": {"@source_uri": "https://tools.usps.com/UspsToolsRestServices/rest/POLocator/findLocations", "@spider": "usps_collection_boxes", "addr:city": "BELLE FOURCHE", "addr:country": "US", "addr:postcode": "57717", "addr:state": "SD", "addr:street_address": "804 STATE ST", "amenity": "post_box", "collection_times": "Mo-Fr 16:15; Sa 16:00", "indoor": "yes", "note": "ON 12/24 AND 12/31, THIS BOX MAY BE COLLECTED AS EARLY AS 12 NOON.", "nsi_id": "unitedstatespostalservice-a77078", "operator": "United States Postal Service", "operator:short": "USPS", "operator:type": "public", "operator:wikidata": "Q668687", "ref": "5771700015"}, "type": "Feature"}
{"geometry": {"coordinates": [-103.848822807, 44.671415481], "type": "Point"}, "id": "ms2BHFXtrNHPjyX1MPj5ExvKtII=", "properties": {"@source_uri": "https://tools.usps.com/UspsToolsRestServices/rest/POLocator/findLocations", "@spider": "usps_collection_boxes", "addr:city": "BELLE FOURCHE", "addr:country": "US", "addr:postcode": "57717", "addr:state": "SD", "addr:street_address": "804 STATE ST", "amenity": "post_box", "collection_times": "Mo-Fr 16:05; Sa 11:50", "indoor": "yes", "note": "ON 12/24 AND 12/31, THIS BOX MAY BE COLLECTED AS EARLY AS 12 NOON.", "nsi_id": "unitedstatespostalservice-a77078", "operator": "United States Postal Service", "operator:short": "USPS", "operator:type": "public", "operator:wikidata": "Q668687", "ref": "5771700017"}, "type": "Feature"}
{"geometry": {"coordinates": [-103.311063584, 44.155695374], "type": "Point"}, "id": "X0xyB2edHuw6LnvqhJpWGNEuphM=", "properties": {"@source_uri": "https://tools.usps.com/UspsToolsRestServices/rest/POLocator/findLocations", "@spider": "usps_collection_boxes", "addr:city": "BLACK HAWK", "addr:country": "US", "addr:postcode": "57718", "addr:state": "SD", "addr:street_address": "7501 CAPTAIN SOELZER ST", "amenity": "post_box", "collection_times": "Mo-Fr 16:15; Sa 10:30", "note": "ON 12/24 AND 12/31, THIS BOX MAY BE COLLECTED AS EARLY AS 12 NOON.", "nsi_id": "unitedstatespostalservice-a77078", "operator": "United States Postal Service", "operator:short": "USPS", "operator:type": "public", "operator:wikidata": "Q668687", "ref": "5771800005"}, "type": "Feature"}
{"geometry": {"coordinates": [-103.311063584, 44.155695374], "type": "Point"}, "id": "rrEEEM8VTDy55EmVvOGdgEQAn-M=", "properties": {"@source_uri": "https://tools.usps.com/UspsToolsRestServices/rest/POLocator/findLocations", "@spider": "usps_collection_boxes", "addr:city": "BLACK HAWK", "addr:country": "US", "addr:postcode": "57718", "addr:state": "SD", "addr:street_address": "7501 CAPTAIN SOELZER ST", "amenity": "post_box", "collection_times": "Mo-Fr 16:15; Sa 10:30", "indoor": "yes", "note": "ON 12/24 AND 12/31, THIS BOX MAY BE COLLECTED AS EARLY AS 12 NOON.", "nsi_id": "unitedstatespostalservice-a77078", "operator": "United States Postal Service", "operator:short": "USPS", "operator:type": "public", "operator:wikidata": "Q668687", "ref": "5771800006"}, "type": "Feature"}
{"geometry": {"coordinates": [-103.311063584, 44.155695374], "type": "Point"}, "id": "o6OHfgGbHZZrbMMDfiCNn_Yn63k=", "properties": {"@source_uri": "https://tools.usps.com/UspsToolsRestServices/rest/POLocator/findLocations", "@spider": "usps_collection_boxes", "addr:city": "BLACK HAWK", "addr:country": "US", "addr:postcode": "57718", "addr:state": "SD", "addr:street_address": "7501 CAPTAIN SOELZER ST", "amenity": "post_box", "collection_times": "Mo-Fr 16:00; Sa 10:30", "indoor": "yes", "note": "ON 12/24 AND 12/31, THIS BOX MAY BE COLLECTED AS EARLY AS 12 NOON.", "nsi_id": "unitedstatespostalservice-a77078", "operator": "United States Postal Service", "operator:short": "USPS", "operator:type": "public", "operator:wikidata": "Q668687", "ref": "5771800009"}, "type": "Feature"}
{"geometry": {"coordinates": [-103.070879749, 44.134010277], "type": "Point"}, "id": "rfrfnBSB3E8JU_VtduWSoroG9IM=", "properties": {"@source_uri": "https://tools.usps.com/UspsToolsRestServices/rest/POLocator/findLocations", "@spider": "usps_collection_boxes", "addr:city": "BOX ELDER", "addr:country": "US", "addr:postcode": "57719", "addr:state": "SD", "addr:street_address": "511 N ELLSWORTH RD", "amenity": "post_box", "collection_times": "Mo-Fr 16:15; Sa 11:30", "note": "ON 12/24 AND 12/31, THIS BOX MAY BE COLLECTED AS EARLY AS 12 NOON.", "nsi_id": "unitedstatespostalservice-a77078", "operator": "United States Postal Service", "operator:short": "USPS", "operator:type": "public", "operator:wikidata": "Q668687", "ref": "5771900001"}, "type": "Feature"}
{"geometry": {"coordinates": [-103.08056579, 44.148763368], "type": "Point"}, "id": "MLyBGrUjw9Pi7oXxeFgTqNjILFE=", "properties": {"@source_uri": "https://tools.usps.com/UspsToolsRestServices/rest/POLocator/findLocations", "@spider": "usps_collection_boxes", "addr:city": "BOX ELDER", "addr:country": "US", "addr:postcode": "57719", "addr:state": "SD", "addr:street_address": "2725 LEMAY BLVD", "amenity": "post_box", "collection_times": "Mo-Sa 13:00", "note": "ON 12/24 AND 12/31, THIS BOX MAY BE COLLECTED AS EARLY AS 12 NOON.", "nsi_id": "unitedstatespostalservice-a77078", "operator": "United States Postal Service", "operator:short": "USPS", "operator:type": "public", "operator:wikidata": "Q668687", "ref": "5771900007"}, "type": "Feature"}
{"geometry": {"coordinates": [-103.077840186, 44.143216624], "type": "Point"}, "id": "ILPdVlG4uDO8uuMK1RQKI78cV8I=", "properties": {"@source_uri": "https://tools.usps.com/UspsToolsRestServices/rest/POLocator/findLocations", "@spider": "usps_collection_boxes", "addr:city": "BOX ELDER", "addr:country": "US", "addr:postcode": "57719", "addr:state": "SD", "addr:street_address": "2650 SPAATZ DR", "amenity": "post_box", "collection_times": "Mo-Sa 13:00", "note": "ON 12/24 AND 12/31, THIS BOX MAY BE COLLECTED AS EARLY AS 12 NOON.", "nsi_id": "unitedstatespostalservice-a77078", "operator": "United States Postal Service", "operator:short": "USPS", "operator:type": "public", "operator:wikidata": "Q668687", "ref": "5771900009"}, "type": "Feature"}
{"geometry": {"coordinates": [-103.070879749, 44.134010277], "type": "Point"}, "id": "GftNGc9espppDz-PUzZZaZ09lcc=", "properties": {"@source_uri": "https://tools.usps.com/UspsToolsRestServices/rest/POLocator/findLocations", "@spider": "usps_collection_boxes", "addr:city": "BOX ELDER", "addr:country": "US", "addr:postcode": "57719", "addr:state": "SD", "addr:street_address": "511 N ELLSWORTH RD", "amenity": "post_box", "collection_times": "Mo-Fr 16:15; Sa 11:30", "indoor": "yes", "note": "ON 12/24 AND 12/31, THIS BOX MAY BE COLLECTED AS EARLY AS 12 NOON.", "nsi_id": "unitedstatespostalservice-a77078", "operator": "United States Postal Service", "operator:short": "USPS", "operator:type": "public", "operator:wikidata": "Q668687", "ref": "5771900016"}, "type": "Feature"}
{"geometry": {"coordinates": [-103.070879749, 44.134010277], "type": "Point"}, "id": "HYnOvdm9LEJv6FaAETge_o0O0LI=", "properties": {"@source_uri": "https://tools.usps.com/UspsToolsRestServices/rest/POLocator/findLocations", "@spider": "usps_collection_boxes", "addr:city": "BOX ELDER", "addr:country": "US", "addr:postcode": "57719", "addr:state": "SD", "addr:street_address": "511 N ELLSWORTH RD", "amenity": "post_box", "collection_times": "Mo-Fr 16:15; Sa 11:15", "indoor": "yes", "note": "ON 12/24 AND 12/31, THIS BOX MAY BE COLLECTED AS EARLY AS 12 NOON.", "nsi_id": "unitedstatespostalservice-a77078", "operator": "United States Postal Service", "operator:short": "USPS", "operator:type": "public", "operator:wikidata": "Q668687", "ref": "5771900020"}, "type": "Feature"}
{"geometry": {"coordinates": [-103.546582283, 45.581703335], "type": "Point"}, "id": "v7y9lPWHD7O7SsFFgzsAv46wOUw=", "properties": {"@source_uri": "https://tools.usps.com/UspsToolsRestServices/rest/POLocator/findLocations", "@spider": "usps_collection_boxes", "addr:city": "BUFFALO", "addr:country": "US", "addr:postcode": "57720", "addr:state": "SD", "addr:street_address": "109 1ST ST W", "amenity": "post_box", "collection_times": "Mo-Sa 12:00", "nsi_id": "unitedstatespostalservice-a77078", "operator": "United States Postal Service", "operator:short": "USPS", "operator:type": "public", "operator:wikidata": "Q668687", "ref": "5772000001"}, "type": "Feature"}
{"geometry": {"coordinates": [-103.546582283, 45.581703335], "type": "Point"}, "id": "lPtP8-ZkL3QlCcQsIqvWSdsL6LU=", "properties": {"@source_uri": "https://tools.usps.com/UspsToolsRestServices/rest/POLocator/findLocations", "@spider": "usps_collection_boxes", "addr:city": "BUFFALO", "addr:country": "US", "addr:postcode": "57720", "addr:state": "SD", "addr:street_address": "109 1ST ST W", "amenity": "post_box", "collection_times": "Mo-Sa 12:00", "indoor": "yes", "nsi_id": "unitedstatespostalservice-a77078", "operator": "United States Postal Service", "operator:short": "USPS", "operator:type": "public", "operator:wikidata": "Q668687", "ref": "5772000002"}, "type": "Feature"}
{"geometry": {"coordinates": [-103.546582283, 45.581703335], "type": "Point"}, "id": "i7lOUWhkGuFJHxbqM1DOkxkvsRQ=", "properties": {"@source_uri": "https://tools.usps.com/UspsToolsRestServices/rest/POLocator/findLocations", "@spider": "usps_collection_boxes", "addr:city": "BUFFALO", "addr:country": "US", "addr:postcode": "57720", "addr:state": "SD", "addr:street_address": "109 1ST ST W", "amenity": "post_box", "collection_times": "Mo-Sa 12:00", "indoor": "yes", "nsi_id": "unitedstatespostalservice-a77078", "operator": "United States Postal Service", "operator:short": "USPS", "operator:type": "public", "operator:wikidata": "Q668687", "ref": "5772000003"}, "type": "Feature"}
{"geometry": {"coordinates": [-103.313223, 43.492832434], "type": "Point"}, "id": "1eL9AFdul7QdHSDSc4zBLmstxCI=", "properties": {"@source_uri": "https://tools.usps.com/UspsToolsRestServices/rest/POLocator/findLocations", "@spider": "usps_collection_boxes", "addr:city": "BUFFALO GAP", "addr:country": "US", "addr:postcode": "57722", "addr:state": "SD", "addr:street_address": "200 N WALNUT ST", "amenity": "post_box", "collection_times": "Mo-Fr 15:45; Sa 09:15", "note": "ON 12/24 AND 12/31, THIS BOX MAY BE COLLECTED AS EARLY AS 12 NOON.", "nsi_id": "unitedstatespostalservice-a77078", "operator": "United States Postal Service", "operator:short": "USPS", "operator:type": "public", "operator:wikidata": "Q668687", "ref": "5772200001"}, "type": "Feature"}
{"geometry": {"coordinates": [-103.313223, 43.492832434], "type": "Point"}, "id": "ilgJWMHf7P69UhnpNMhDYj8yq_k=", "properties": {"@source_uri": "https://tools.usps.com/UspsToolsRestServices/rest/POLocator/findLocations", "@spider": "usps_collection_boxes", "addr:city": "BUFFALO GAP", "addr:country": "US", "addr:postcode": "57722", "addr:state": "SD", "addr:street_address": "200 N WALNUT ST", "amenity": "post_box", "collection_times": "Mo-Fr 11:30; Sa 09:15", "indoor": "yes", "nsi_id": "unitedstatespostalservice-a77078", "operator": "United States Postal Service", "operator:short": "USPS", "operator:type": "public", "operator:wikidata": "Q668687", "ref": "5772200002"}, "type": "Feature"}
{"geometry": {"coordinates": [-103.313223, 43.492832434], "type": "Point"}, "id": "4rCobRBF1m_unWJZ9TAl8RSfqg0=", "properties": {"@source_uri": "https://tools.usps.com/UspsToolsRestServices/rest/POLocator/findLocations", "@spider": "usps_collection_boxes", "addr:city": "BUFFALO GAP", "addr:country": "US", "addr:postcode": "57722", "addr:state": "SD", "addr:street_address": "200 N WALNUT ST", "amenity": "post_box", "collection_times": "Mo-Fr 11:30; Sa 09:15", "indoor": "yes", "nsi_id": "unitedstatespostalservice-a77078", "operator": "United States Postal Service", "operator:short": "USPS", "operator:type": "public", "operator:wikidata": "Q668687", "ref": "5772200004"}, "type": "Feature"}
{"geometry": {"coordinates": [-103.97472961, 45.549291398], "type": "Point"}, "id": "_JFIQLZCaI0VwM15LqNZ-7cxopI=", "properties": {"@source_uri": "https://tools.usps.com/UspsToolsRestServices/rest/POLocator/findLocations", "@spider": "usps_collection_boxes", "addr:city": "CAMP CROOK", "addr:country": "US", "addr:postcode": "57724", "addr:state": "SD", "addr:street_address": "107 N MAIN ST", "amenity": "post_box", "collection_times": "Mo-Sa 11:00", "nsi_id": "unitedstatespostalservice-a77078", "operator": "United States Postal Service", "operator:short": "USPS", "operator:type": "public", "operator:wikidata": "Q668687", "ref": "5772400001"}, "type": "Feature"}
{"geometry": {"coordinates": [-103.97472961, 45.549291398], "type": "Point"}, "id": "DOCxMMnl2cGNoJAZtcGems_HpGQ=", "properties": {"@source_uri": "https://tools.usps.com/UspsToolsRestServices/rest/POLocator/findLocations", "@spider": "usps_collection_boxes", "addr:city": "CAMP CROOK", "addr:country": "US", "addr:postcode": "57724", "addr:state": "SD", "addr:street_address": "107 N MAIN ST", "amenity": "post_box", "collection_times": "Mo-Sa 12:30", "indoor": "yes", "note": "ON 12/24 AND 12/31, THIS BOX MAY BE COLLECTED AS EARLY AS 12 NOON.", "nsi_id": "unitedstatespostalservice-a77078", "operator": "United States Postal Service", "operator:short": "USPS", "operator:type": "public", "operator:wikidata": "Q668687", "ref": "5772400002"}, "type": "Feature"}
{"geometry": {"coordinates": [-103.97472961, 45.549291398], "type": "Point"}, "id": "QHdhwZzJ2j6Y-WMk7VIrLI9wLZI=", "properties": {"@source_uri": "https://tools.usps.com/UspsToolsRestServices/rest/POLocator/findLocations", "@spider": "usps_collection_boxes", "addr:city": "CAMP CROOK", "addr:country": "US", "addr:postcode": "57724", "addr:state": "SD", "addr:street_address": "107 N MAIN ST", "amenity": "post_box", "collection_times": "Mo-Sa 12:20", "indoor": "yes", "note": "ON 12/24 AND 12/31, THIS BOX MAY BE COLLECTED AS EARLY AS 12 NOON.", "nsi_id": "unitedstatespostalservice-a77078", "operator": "United States Postal Service", "operator:short": "USPS", "operator:type": "public", "operator:wikidata": "Q668687", "ref": "5772400003"}, "type": "Feature"}
{"geometry": {"coordinates": [-102.980185812, 43.994406405], "type": "Point"}, "id": "TS_1hrfUTmE8gw_BaDA6bK6yGow=", "properties": {"@source_uri": "https://tools.usps.com/UspsToolsRestServices/rest/POLocator/findLocations", "@spider": "usps_collection_boxes", "addr:city": "CAPUTA", "addr:country": "US", "addr:postcode": "57725", "addr:state": "SD", "addr:street_address": "23502 MAIN ST", "amenity": "post_box", "collection_times": "Mo-Sa 10:45", "nsi_id": "unitedstatespostalservice-a77078", "operator": "United States Postal Service", "operator:short": "USPS", "operator:type": "public", "operator:wikidata": "Q668687", "ref": "5772500001"}, "type": "Feature"}
{"geometry": {"coordinates": [-102.9801858122, 43.9944064052], "type": "Point"}, "id": "lJOBjC33hrDo3NT3asFlkwLvMCs=", "properties": {"@source_uri": "https://tools.usps.com/UspsToolsRestServices/rest/POLocator/findLocations", "@spider": "usps_collection_boxes", "addr:city": "CAPUTA", "addr:country": "US", "addr:postcode": "57725", "addr:state": "SD", "addr:street_address": "23502 MAIN ST", "amenity": "post_box", "collection_times": "Mo-Sa 10:45", "indoor": "yes", "nsi_id": "unitedstatespostalservice-a77078", "operator": "United States Postal Service", "operator:short": "USPS", "operator:type": "public", "operator:wikidata": "Q668687", "ref": "5772500002"}, "type": "Feature"}
{"geometry": {"coordinates": [-102.9801858122, 43.9944064052], "type": "Point"}, "id": "Au9ikHRCEs5U-3ctDhmVDkbGtsY=", "properties": {"@source_uri": "https://tools.usps.com/UspsToolsRestServices/rest/POLocator/findLocations", "@spider": "usps_collection_boxes", "addr:city": "CAPUTA", "addr:country": "US", "addr:postcode": "57725", "addr:state": "SD", "addr:street_address": "23502 MAIN ST", "amenity": "post_box", "collection_times": "Mo-Sa 10:45", "indoor": "yes", "nsi_id": "unitedstatespostalservice-a77078", "operator": "United States Postal Service", "operator:short": "USPS", "operator:type": "public", "operator:wikidata": "Q668687", "ref": "5772500003"}, "type": "Feature"}
{"geometry": {"coordinates": [-103.59752926, 43.767029001], "type": "Point"}, "id": "x33V-75jRZlO6J_Efp8DjiGzBKs=", "properties": {"@source_uri": "https://tools.usps.com/UspsToolsRestServices/rest/POLocator/findLocations", "@spider": "usps_collection_boxes", "addr:city": "CUSTER", "addr:country": "US", "addr:postcode": "57730", "addr:state": "SD", "addr:street_address": "643 MOUNT RUSHMORE RD", "amenity": "post_box", "collection_times": "Mo-Sa 17:00", "indoor": "yes", "note": "ON 12/24 AND 12/31, THIS BOX MAY BE COLLECTED AS EARLY AS 12 NOON.", "nsi_id": "unitedstatespostalservice-a77078", "operator": "United States Postal Service", "operator:short": "USPS", "operator:type": "public", "operator:wikidata": "Q668687", "ref": "5773000003"}, "type": "Feature"}
{"geometry": {"coordinates": [-103.6324279051, 43.8280246447], "type": "Point"}, "id": "Um6UeJuPM-t9Fvm7Y-3RphRu_eM=", "properties": {"@source_uri": "https://tools.usps.com/UspsToolsRestServices/rest/POLocator/findLocations", "@spider": "usps_collection_boxes", "addr:city": "CUSTER", "addr:country": "US", "addr:postcode": "57730", "addr:state": "SD", "addr:street_address": "12151 AVENUE OF THE CHIEFS", "amenity": "post_box", "collection_times": "Mo-Sa 10:00", "nsi_id": "unitedstatespostalservice-a77078", "operator": "United States Postal Service", "operator:short": "USPS", "operator:type": "public", "operator:wikidata": "Q668687", "ref": "5773000004"}, "type": "Feature"}
{"geometry": {"coordinates": [-103.59752926, 43.767029001], "type": "Point"}, "id": "G_vvj4XB78ald8qFxAA7ARny-7g=", "properties": {"@source_uri": "https://tools.usps.com/UspsToolsRestServices/rest/POLocator/findLocations", "@spider": "usps_collection_boxes", "addr:city": "CUSTER", "addr:country": "US", "addr:postcode": "57730", "addr:state": "SD", "addr:street_address": "643 MOUNT RUSHMORE RD", "amenity": "post_box", "collection_times": "Mo-Sa 16:30", "note": "ON 12/24 AND 12/31, THIS BOX MAY BE COLLECTED AS EARLY AS 12 NOON.", "nsi_id": "unitedstatespostalservice-a77078", "operator": "United States Postal Service", "operator:short": "USPS", "operator:type": "public", "operator:wikidata": "Q668687", "ref": "5773000007"}, "type": "Feature"}
{"geometry": {"coordinates": [-103.59752926, 43.767029001], "type": "Point"}, "id": "b6PStldRnDPL1XVDQVl3GQ2R1T8=", "properties": {"@source_uri": "https://tools.usps.com/UspsToolsRestServices/rest/POLocator/findLocations", "@spider": "usps_collection_boxes", "addr:city": "CUSTER", "addr:country": "US", "addr:postcode": "57730", "addr:state": "SD", "addr:street_address": "643 MOUNT RUSHMORE RD", "amenity": "post_box", "collection_times": "Mo-Sa 17:00", "indoor": "yes", "note": "ON 12/24 AND 12/31, THIS BOX MAY BE COLLECTED AS EARLY AS 12 NOON.", "nsi_id": "unitedstatespostalservice-a77078", "operator": "United States Postal Service", "operator:short": "USPS", "operator:type": "public", "operator:wikidata": "Q668687", "ref": "5773000010"}, "type": "Feature"}
{"geometry": {"coordinates": [-103.729308206, 44.375278233], "type": "Point"}, "id": "qKwAjMBWTrr1zulZ2qX98m2dDIk=", "properties": {"@source_uri": "https://tools.usps.com/UspsToolsRestServices/rest/POLocator/findLocations", "@spider": "usps_collection_boxes", "addr:city": "DEADWOOD", "addr:country": "US", "addr:postcode": "57732", "addr:state": "SD", "addr:street_address": "68 SHERMAN ST", "amenity": "post_box", "collection_times": "Mo-Fr 15:45; Sa 14:00", "note": "ON 12/24 AND 12/31, THIS BOX MAY BE COLLECTED AS EARLY AS 12 NOON.", "nsi_id": "unitedstatespostalservice-a77078", "operator": "United States Postal Service", "operator:short": "USPS", "operator:type": "public", "operator:wikidata": "Q668687", "ref": "5773200001"}, "type": "Feature"}
{"geometry": {"coordinates": [-103.729308206, 44.375278233], "type": "Point"}, "id": "p4pdyZFaoxyvlNe44bwn5fxbtOc=", "properties": {"@source_uri": "https://tools.usps.com/UspsToolsRestServices/rest/POLocator/findLocations", "@spider": "usps_collection_boxes", "addr:city": "DEADWOOD", "addr:country": "US", "addr:postcode": "57732", "addr:state": "SD", "addr:street_address": "68 SHERMAN ST", "amenity": "post_box", "collection_times": "Mo-Fr 16:15; Sa 11:00", "indoor": "yes", "note": "ON 12/24 AND 12/31, THIS BOX MAY BE COLLECTED AS EARLY AS 12 NOON.", "nsi_id": "unitedstatespostalservice-a77078", "operator": "United States Postal Service", "operator:short": "USPS", "operator:type": "public", "operator:wikidata": "Q668687", "ref": "5773200006"}, "type": "Feature"}
{"geometry": {"coordinates": [-103.729308206, 44.375278233], "type": "Point"}, "id": "wXiElNRP1iIVh1EZ6Fbx3IwS5ps=", "properties": {"@source_uri": "https://tools.usps.com/UspsToolsRestServices/rest/POLocator/findLocations", "@spider": "usps_collection_boxes", "addr:city": "DEADWOOD", "addr:country": "US", "addr:postcode": "57732", "addr:state": "SD", "addr:street_address": "68 SHERMAN ST", "amenity": "post_box", "collection_times": "Mo-Fr 16:15; Sa 11:00", "indoor": "yes", "note": "ON 12/24 AND 12/31, THIS BOX MAY BE COLLECTED AS EARLY AS 12 NOON.", "nsi_id": "unitedstatespostalservice-a77078", "operator": "United States Postal Service", "operator:short": "USPS", "operator:type": "public", "operator:wikidata": "Q668687", "ref": "5773200009"}, "type": "Feature"}
{"geometry": {"coordinates": [-103.825156234, 43.299135], "type": "Point"}, "id": "kZ5SZ_B6N3AyOeWQ6tLnmfKb7gY=", "properties": {"@source_uri": "https://tools.usps.com/UspsToolsRestServices/rest/POLocator/findLocations", "@spider": "usps_collection_boxes", "addr:city": "EDGEMONT", "addr:country": "US", "addr:postcode": "57735", "addr:state": "SD", "addr:street_address": "519 2ND AVE", "amenity": "post_box", "collection_times": "Mo-Fr 15:45; Sa 12:00", "note": "ON 12/24 AND 12/31, THIS BOX MAY BE COLLECTED AS EARLY AS 12 NOON.", "nsi_id": "unitedstatespostalservice-a77078", "operator": "United States Postal Service", "operator:short": "USPS", "operator:type": "public", "operator:wikidata": "Q668687", "ref": "5773500001"}, "type": "Feature"}
{"geometry": {"coordinates": [-103.825156234, 43.299135], "type": "Point"}, "id": "K5q7xpnvDup5Xrq-XVUOneqKIkc=", "properties": {"@source_uri": "https://tools.usps.com/UspsToolsRestServices/rest/POLocator/findLocations", "@spider": "usps_collection_boxes", "addr:city": "EDGEMONT", "addr:country": "US", "addr:postcode": "57735", "addr:state": "SD", "addr:street_address": "519 2ND AVE", "amenity": "post_box", "collection_times": "Mo-Fr 15:45; Sa 11:00", "indoor": "yes", "note": "ON 12/24 AND 12/31, THIS BOX MAY BE COLLECTED AS EARLY AS 12 NOON.", "nsi_id": "unitedstatespostalservice-a77078", "operator": "United States Postal Service", "operator:short": "USPS", "operator:type": "public", "operator:wikidata": "Q668687", "ref": "5773500002"}, "type": "Feature"}
{"geometry": {"coordinates": [-103.825156234, 43.299135], "type": "Point"}, "id": "HF7vJcNYQ1Nuj-9IDmdxK9LBU-E=", "properties": {"@source_uri": "https://tools.usps.com/UspsToolsRestServices/rest/POLocator/findLocations", "@spider": "usps_collection_boxes", "addr:city": "EDGEMONT", "addr:country": "US", "addr:postcode": "57735", "addr:state": "SD", "addr:street_address": "519 2ND AVE", "amenity": "post_box", "collection_times": "Mo-Fr 15:45; Sa 11:00", "indoor": "yes", "note": "ON 12/24 AND 12/31, THIS BOX MAY BE COLLECTED AS EARLY AS 12 NOON.", "nsi_id": "unitedstatespostalservice-a77078", "operator": "United States Postal Service", "operator:short": "USPS", "operator:type": "public", "operator:wikidata": "Q668687", "ref": "5773500004"}, "type": "Feature"}
{"geometry": {"coordinates": [-102.562293693, 44.575399464], "type": "Point"}, "id": "BTLHh7so0KtltrLr0YanZZ-g-1U=", "properties": {"@source_uri": "https://tools.usps.com/UspsToolsRestServices/rest/POLocator/findLocations", "@spider": "usps_collection_boxes", "addr:city": "ENNING", "addr:country": "US", "addr:postcode": "57737", "addr:state": "SD", "addr:street_address": "17500 HIGHWAY 34", "amenity": "post_box", "collection_times": "Mo-Fr 14:30; Sa 11:00", "note": "ON 12/24 AND 12/31, THIS BOX MAY BE COLLECTED AS EARLY AS 12 NOON.", "nsi_id": "unitedstatespostalservice-a77078", "operator": "United States Postal Service", "operator:short": "USPS", "operator:type": "public", "operator:wikidata": "Q668687", "ref": "5773700001"}, "type": "Feature"}
{"geometry": {"coordinates": [-102.562293693, 44.575399464], "type": "Point"}, "id": "Ox-e4SpHrI9LSrPVD2_q0x0jI2I=", "properties": {"@source_uri": "https://tools.usps.com/UspsToolsRestServices/rest/POLocator/findLocations", "@spider": "usps_collection_boxes", "addr:city": "ENNING", "addr:country": "US", "addr:postcode": "57737", "addr:state": "SD", "addr:street_address": "17500 HIGHWAY 34", "amenity": "post_box", "collection_times": "Mo-Fr 14:30; Sa 11:00", "indoor": "yes", "note": "ON 12/24 AND 12/31, THIS BOX MAY BE COLLECTED AS EARLY AS 12 NOON.", "nsi_id": "unitedstatespostalservice-a77078", "operator": "United States Postal Service", "operator:short": "USPS", "operator:type": "public", "operator:wikidata": "Q668687", "ref": "5773700002"}, "type": "Feature"}
{"geometry": {"coordinates": [-102.562293693, 44.575399464], "type": "Point"}, "id": "BFhxnF2U61uf7XGBIe1LcDRSNWA=", "properties": {"@source_uri": "https://tools.usps.com/UspsToolsRestServices/rest/POLocator/findLocations", "@spider": "usps_collection_boxes", "addr:city": "ENNING", "addr:country": "US", "addr:postcode": "57737", "addr:state": "SD", "addr:street_address": "17500 HIGHWAY 34", "amenity": "post_box", "collection_times": "Mo-Fr 14:30; Sa 11:00", "indoor": "yes", "note": "ON 12/24 AND 12/31, THIS BOX MAY BE COLLECTED AS EARLY AS 12 NOON.", "nsi_id": "unitedstatespostalservice-a77078", "operator": "United States Postal Service", "operator:short": "USPS", "operator:type": "public", "operator:wikidata": "Q668687", "ref": "5773700003"}, "type": "Feature"}
{"geometry": {"coordinates": [-103.212849895, 43.686242047], "type": "Point"}, "id": "0QkbC87-IWI1mXrU5Ikub-ZCHS8=", "properties": {"@source_uri": "https://tools.usps.com/UspsToolsRestServices/rest/POLocator/findLocations", "@spider": "usps_collection_boxes", "addr:city": "FAIRBURN", "addr:country": "US", "addr:postcode": "57738", "addr:state": "SD", "addr:street_address": "120 OAK ST", "amenity": "post_box", "collection_times": "Mo-Fr 11:15; Sa 09:30", "nsi_id": "unitedstatespostalservice-a77078", "operator": "United States Postal Service", "operator:short": "USPS", "operator:type": "public", "operator:wikidata": "Q668687", "ref": "5773800000"}, "type": "Feature"}
{"geometry": {"coordinates": [-103.212849895, 43.686242047], "type": "Point"}, "id": "f4zywbX5JxS7VMCYXvrrmXuzV1s=", "properties": {"@source_uri": "https://tools.usps.com/UspsToolsRestServices/rest/POLocator/findLocations", "@spider": "usps_collection_boxes", "addr:city": "FAIRBURN", "addr:country": "US", "addr:postcode": "57738", "addr:state": "SD", "addr:street_address": "120 OAK ST", "amenity": "post_box", "collection_times": "Mo-Fr 11:30; Sa 09:45", "indoor": "yes", "nsi_id": "unitedstatespostalservice-a77078", "operator": "United States Postal Service", "operator:short": "USPS", "operator:type": "public", "operator:wikidata": "Q668687", "ref": "5773800001"}, "type": "Feature"}
{"geometry": {"coordinates": [-103.212849895, 43.686242047], "type": "Point"}, "id": "oF_z9erG7Yk3LScdQN3Nvz4lpZ4=", "properties": {"@source_uri": "https://tools.usps.com/UspsToolsRestServices/rest/POLocator/findLocations", "@spider": "usps_collection_boxes", "addr:city": "FAIRBURN", "addr:country": "US", "addr:postcode": "57738", "addr:state": "SD", "addr:street_address": "120 OAK ST", "amenity": "post_box", "collection_times": "Mo-Fr 11:30; Sa 09:45", "indoor": "yes", "nsi_id": "unitedstatespostalservice-a77078", "operator": "United States Postal Service", "operator:short": "USPS", "operator:type": "public", "operator:wikidata": "Q668687", "ref": "5773800003"}, "type": "Feature"}
{"geometry": {"coordinates": [-103.47141661, 44.410683011], "type": "Point"}, "id": "EhT2TMxlQ8--k33A2_7zpGqQDhg=", "properties": {"@source_uri": "https://tools.usps.com/UspsToolsRestServices/rest/POLocator/findLocations", "@spider": "usps_collection_boxes", "addr:city": "FORT MEADE", "addr:country": "US", "addr:postcode": "57741", "addr:state": "SD", "addr:street_address": "50 SHERIDAN RD", "amenity": "post_box", "collection_times": "Mo-Fr 16:00; Sa 13:45", "note": "ON 12/24 AND 12/31, THIS BOX MAY BE COLLECTED AS EARLY AS 12 NOON.", "nsi_id": "unitedstatespostalservice-a77078", "operator": "United States Postal Service", "operator:short": "USPS", "operator:type": "public", "operator:wikidata": "Q668687", "ref": "5774100001"}, "type": "Feature"}
{"geometry": {"coordinates": [-103.47141661, 44.410683011], "type": "Point"}, "id": "smhJb4imPKnqWKFSVuR1zG8wCl4=", "properties": {"@source_uri": "https://tools.usps.com/UspsToolsRestServices/rest/POLocator/findLocations", "@spider": "usps_collection_boxes", "addr:city": "FORT MEADE", "addr:country": "US", "addr:postcode": "57741", "addr:state": "SD", "addr:street_address": "50 SHERIDAN RD", "amenity": "post_box", "collection_times": "Mo-Fr 14:00; Sa 13:45", "indoor": "yes", "note": "ON 12/24 AND 12/31, THIS BOX MAY BE COLLECTED AS EARLY AS 12 NOON.", "nsi_id": "unitedstatespostalservice-a77078", "operator": "United States Postal Service", "operator:short": "USPS", "operator:type": "public", "operator:wikidata": "Q668687", "ref": "5774100002"}, "type": "Feature"}
{"geometry": {"coordinates": [-103.191592416, 43.839716468], "type": "Point"}, "id": "H_M5Ev1q5GcsT_A7peDDZo7nxQk=", "properties": {"@source_uri": "https://tools.usps.com/UspsToolsRestServices/rest/POLocator/findLocations", "@spider": "usps_collection_boxes", "addr:city": "HERMOSA", "addr:country": "US", "addr:postcode": "57744", "addr:state": "SD", "addr:street_address": "208 MAIN ST", "amenity": "post_box", "collection_times": "Mo-Fr 13:15; Sa 09:15", "note": "ON 12/24 AND 12/31, THIS BOX MAY BE COLLECTED AS EARLY AS 12 NOON.", "nsi_id": "unitedstatespostalservice-a77078", "operator": "United States Postal Service", "operator:short": "USPS", "operator:type": "public", "operator:wikidata": "Q668687", "ref": "5774400001"}, "type": "Feature"}
{"geometry": {"coordinates": [-103.191592416, 43.839716468], "type": "Point"}, "id": "4vzIh9eHXa_UB0HhTyPQ679Ul0I=", "properties": {"@source_uri": "https://tools.usps.com/UspsToolsRestServices/rest/POLocator/findLocations", "@spider": "usps_collection_boxes", "addr:city": "HERMOSA", "addr:country": "US", "addr:postcode": "57744", "addr:state": "SD", "addr:street_address": "208 MAIN ST", "amenity": "post_box", "collection_times": "Mo-Fr 13:30; Sa 09:15", "indoor": "yes", "note": "ON 12/24 AND 12/31, THIS BOX MAY BE COLLECTED AS EARLY AS 12 NOON.", "nsi_id": "unitedstatespostalservice-a77078", "operator": "United States Postal Service", "operator:short": "USPS", "operator:type": "public", "operator:wikidata": "Q668687", "ref": "5774400002"}, "type": "Feature"}
{"geometry": {"coordinates": [-103.1915879162, 43.8397164677], "type": "Point"}, "id": "94LfYJ1hVv6Xm6mil7zQdQEUD18=", "properties": {"@source_uri": "https://tools.usps.com/UspsToolsRestServices/rest/POLocator/findLocations", "@spider": "usps_collection_boxes", "addr:city": "HERMOSA", "addr:country": "US", "addr:postcode": "57744", "addr:state": "SD", "addr:street_address": "208 MAIN ST", "amenity": "post_box", "collection_times": "Mo-Fr 13:30; Sa 09:30", "indoor": "yes", "note": "ON 12/24 AND 12/31, THIS BOX MAY BE COLLECTED AS EARLY AS 12 NOON.", "nsi_id": "unitedstatespostalservice-a77078", "operator": "United States Postal Service", "operator:short": "USPS", "operator:type": "public", "operator:wikidata": "Q668687", "ref": "5774400004"}, "type": "Feature"}
{"geometry": {"coordinates": [-103.574134252, 43.934345453], "type": "Point"}, "id": "tgartwPaeg-EL1xsgy-1wzE92aE=", "properties": {"@source_uri": "https://tools.usps.com/UspsToolsRestServices/rest/POLocator/findLocations", "@spider": "usps_collection_boxes", "addr:city": "HILL CITY", "addr:country": "US", "addr:postcode": "57745", "addr:state": "SD", "addr:street_address": "150 E MAIN ST", "amenity": "post_box", "collection_times": "Mo-Fr 16:15; Sa 10:30", "note": "ON 12/24 AND 12/31, THIS BOX MAY BE COLLECTED AS EARLY AS 12 NOON.", "nsi_id": "unitedstatespostalservice-a77078", "operator": "United States Postal Service", "operator:short": "USPS", "operator:type": "public", "operator:wikidata": "Q668687", "ref": "5774500001"}, "type": "Feature"}
{"geometry": {"coordinates": [-103.574134252, 43.934345453], "type": "Point"}, "id": "cfpaTInAdWzJ1A9G4FBzPgNmSGs=", "properties": {"@source_uri": "https://tools.usps.com/UspsToolsRestServices/rest/POLocator/findLocations", "@spider": "usps_collection_boxes", "addr:city": "HILL CITY", "addr:country": "US", "addr:postcode": "57745", "addr:state": "SD", "addr:street_address": "150 E MAIN ST", "amenity": "post_box", "collection_times": "Mo-Fr 16:15; Sa 10:30", "indoor": "yes", "note": "ON 12/24 AND 12/31, THIS BOX MAY BE COLLECTED AS EARLY AS 12 NOON.", "nsi_id": "unitedstatespostalservice-a77078", "operator": "United States Postal Service", "operator:short": "USPS", "operator:type": "public", "operator:wikidata": "Q668687", "ref": "5774500002"}, "type": "Feature"}
{"geometry": {"coordinates": [-103.47486422, 43.437480863], "type": "Point"}, "id": "9LAxkimyywOHIbwqfbjRWtqRFpI=", "properties": {"@source_uri": "https://tools.usps.com/UspsToolsRestServices/rest/POLocator/findLocations", "@spider": "usps_collection_boxes", "addr:city": "HOT SPRINGS", "addr:country": "US", "addr:postcode": "57747", "addr:state": "SD", "addr:street_address": "500 N 5TH ST", "amenity": "post_box", "collection_times": "Mo-Sa 15:30", "note": "ON 12/24 AND 12/31, THIS BOX MAY BE COLLECTED AS EARLY AS 12 NOON.", "nsi_id": "unitedstatespostalservice-a77078", "operator": "United States Postal Service", "operator:short": "USPS", "operator:type": "public", "operator:wikidata": "Q668687", "ref": "5774700001"}, "type": "Feature"}
{"geometry": {"coordinates": [-103.474252, 43.4276479], "type": "Point"}, "id": "k3Ohi8_5YUyHiq5aTRd_x6OeMMk=", "properties": {"@source_uri": "https://tools.usps.com/UspsToolsRestServices/rest/POLocator/findLocations", "@spider": "usps_collection_boxes", "addr:city": "HOT SPRINGS", "addr:country": "US", "addr:postcode": "57747", "addr:state": "SD", "addr:street_address": "906 N RIVER ST", "amenity": "post_box", "collection_times": "Mo-Sa 15:30", "note": "ON 12/24 AND 12/31, THIS BOX MAY BE COLLECTED AS EARLY AS 12 NOON.", "nsi_id": "unitedstatespostalservice-a77078", "operator": "United States Postal Service", "operator:short": "USPS", "operator:type": "public", "operator:wikidata": "Q668687", "ref": "5774700003"}, "type": "Feature"}
{"geometry": {"coordinates": [-103.470784328, 43.427272168], "type": "Point"}, "id": "ncxHxpl2911TZsTK6xPc5c7Uayw=", "properties": {"@source_uri": "https://tools.usps.com/UspsToolsRestServices/rest/POLocator/findLocations", "@spider": "usps_collection_boxes", "addr:city": "HOT SPRINGS", "addr:country": "US", "addr:postcode": "57747", "addr:state": "SD", "addr:street_address": "505 S 6TH ST", "amenity": "post_box", "collection_times": "Mo-Sa 12:00", "nsi_id": "unitedstatespostalservice-a77078", "operator": "United States Postal Service", "operator:short": "USPS", "operator:type": "public", "operator:wikidata": "Q668687", "ref": "5774700005"}, "type": "Feature"}
{"geometry": {"coordinates": [-103.475732842, 43.4324614], "type": "Point"}, "id": "bnMO6L5qP8DIiA-C_F-PAznSGTY=", "properties": {"@source_uri": "https://tools.usps.com/UspsToolsRestServices/rest/POLocator/findLocations", "@spider": "usps_collection_boxes", "addr:city": "HOT SPRINGS", "addr:country": "US", "addr:postcode": "57747", "addr:state": "SD", "addr:street_address": "146 N CHICAGO ST", "amenity": "post_box", "collection_times": "Mo-Fr 16:30; Sa 15:30", "note": "ON 12/24 AND 12/31, THIS BOX MAY BE COLLECTED AS EARLY AS 12 NOON.", "nsi_id": "unitedstatespostalservice-a77078", "operator": "United States Postal Service", "operator:short": "USPS", "operator:type": "public", "operator:wikidata": "Q668687", "ref": "5774700007"}, "type": "Feature"}
{"geometry": {"coordinates": [-103.475732842, 43.4324614], "type": "Point"}, "id": "qvIzp8dgoKH4DPKJye42X1gqYI4=", "properties": {"@source_uri": "https://tools.usps.com/UspsToolsRestServices/rest/POLocator/findLocations", "@spider": "usps_collection_boxes", "addr:city": "HOT SPRINGS", "addr:country": "US", "addr:postcode": "57747", "addr:state": "SD", "addr:street_address": "146 N CHICAGO ST", "amenity": "post_box", "collection_times": "Mo-Fr 16:30; Sa 12:00", "indoor": "yes", "note": "ON 12/24 AND 12/31, THIS BOX MAY BE COLLECTED AS EARLY AS 12 NOON.", "nsi_id": "unitedstatespostalservice-a77078", "operator": "United States Postal Service", "operator:short": "USPS", "operator:type": "public", "operator:wikidata": "Q668687", "ref": "5774700010"}, "type": "Feature"}
{"geometry": {"coordinates": [-103.494148317, 43.436565555], "type": "Point"}, "id": "-DpK7HJYGoSy7RFTlacXZ20opdA=", "properties": {"@source_uri": "https://tools.usps.com/UspsToolsRestServices/rest/POLocator/findLocations", "@spider": "usps_collection_boxes", "addr:city": "HOT SPRINGS", "addr:country": "US", "addr:postcode": "57747", "addr:state": "SD", "addr:street_address": "2500 MINNEKAHTA AVE", "amenity": "post_box", "collection_times": "Mo-Sa 15:15", "note": "ON 12/24 AND 12/31, THIS BOX MAY BE COLLECTED AS EARLY AS 12 NOON.", "nsi_id": "unitedstatespostalservice-a77078", "operator": "United States Postal Service", "operator:short": "USPS", "operator:type": "public", "operator:wikidata": "Q668687", "ref": "5774700011"}, "type": "Feature"}
{"geometry": {"coordinates": [-102.051735165, 44.619754839], "type": "Point"}, "id": "eUogtJb38rOKkXYf24DOPQuyL3k=", "properties": {"@source_uri": "https://tools.usps.com/UspsToolsRestServices/rest/POLocator/findLocations", "@spider": "usps_collection_boxes", "addr:city": "HOWES", "addr:country": "US", "addr:postcode": "57748", "addr:state": "SD", "addr:street_address": "19188 ST HIGHWAY 73", "amenity": "post_box", "collection_times": "Mo-Fr 12:55; Sa 12:30", "indoor": "yes", "note": "ON 12/24 AND 12/31, THIS BOX MAY BE COLLECTED AS EARLY AS 12 NOON.", "nsi_id": "unitedstatespostalservice-a77078", "operator": "United States Postal Service", "operator:short": "USPS", "operator:type": "public", "operator:wikidata": "Q668687", "ref": "5774800001"}, "type": "Feature"}
{"geometry": {"coordinates": [-103.4228669589, 43.8931580139], "type": "Point"}, "id": "58faFCOjNtZOSIuJkpLlO_FpNXU=", "properties": {"@source_uri": "https://tools.usps.com/UspsToolsRestServices/rest/POLocator/findLocations", "@spider": "usps_collection_boxes", "addr:city": "KEYSTONE", "addr:country": "US", "addr:postcode": "57751", "addr:state": "SD", "addr:street_address": "233 SWANZEY ST", "amenity": "post_box", "collection_times": "Mo-Fr 14:15; Sa 09:45", "note": "ON 12/24 AND 12/31, THIS BOX MAY BE COLLECTED AS EARLY AS 12 NOON.", "nsi_id": "unitedstatespostalservice-a77078", "operator": "United States Postal Service", "operator:short": "USPS", "operator:type": "public", "operator:wikidata": "Q668687", "ref": "5775100001"}, "type": "Feature"}
{"geometry": {"coordinates": [-103.4228669589, 43.8931580139], "type": "Point"}, "id": "4dmAxwnkzpGutEVYSUFIEBHXc8Y=", "properties": {"@source_uri": "https://tools.usps.com/UspsToolsRestServices/rest/POLocator/findLocations", "@spider": "usps_collection_boxes", "addr:city": "KEYSTONE", "addr:country": "US", "addr:postcode": "57751", "addr:state": "SD", "addr:street_address": "233 SWANZEY ST", "amenity": "post_box", "collection_times": "Mo-Fr 14:30; Sa 10:00", "indoor": "yes", "note": "ON 12/24 AND 12/31, THIS BOX MAY BE COLLECTED AS EARLY AS 12 NOON.", "nsi_id": "unitedstatespostalservice-a77078", "operator": "United States Postal Service", "operator:short": "USPS", "operator:type": "public", "operator:wikidata": "Q668687", "ref": "5775100002"}, "type": "Feature"}
{"geometry": {"coordinates": [-102.171947, 43.4266071], "type": "Point"}, "id": "cRmOXHt6aIQ6c3r9oEp4nnWJ8GQ=", "properties": {"@source_uri": "https://tools.usps.com/UspsToolsRestServices/rest/POLocator/findLocations", "@spider": "usps_collection_boxes", "addr:city": "KYLE", "addr:country": "US", "addr:postcode": "57752", "addr:state": "SD", "addr:street_address": "405 MAIN ST", "amenity": "post_box", "collection_times": "Mo-Fr 13:50; Sa 11:30", "note": "ON 12/24 AND 12/31, THIS BOX MAY BE COLLECTED AS EARLY AS 12 NOON.", "nsi_id": "unitedstatespostalservice-a77078", "operator": "United States Postal Service", "operator:short": "USPS", "operator:type": "public", "operator:wikidata": "Q668687", "ref": "5775200000"}, "type": "Feature"}
{"geometry": {"coordinates": [-102.171947, 43.4266071], "type": "Point"}, "id": "1zHPpgzps-PSN9ClqqEBh_SZZeM=", "properties": {"@source_uri": "https://tools.usps.com/UspsToolsRestServices/rest/POLocator/findLocations", "@spider": "usps_collection_boxes", "addr:city": "KYLE", "addr:country": "US", "addr:postcode": "57752", "addr:state": "SD", "addr:street_address": "405 MAIN ST", "amenity": "post_box", "collection_times": "Mo-Fr 13:50; Sa 11:30", "indoor": "yes", "note": "ON 12/24 AND 12/31, THIS BOX MAY BE COLLECTED AS EARLY AS 12 NOON.", "nsi_id": "unitedstatespostalservice-a77078", "operator": "United States Postal Service", "operator:short": "USPS", "operator:type": "public", "operator:wikidata": "Q668687", "ref": "5775200001"}, "type": "Feature"}
{"geometry": {"coordinates": [-103.766756419, 44.351894223], "type": "Point"}, "id": "rahs2pyl8iOSRBxU8bcTbFgMZWE=", "properties": {"@source_uri": "https://tools.usps.com/UspsToolsRestServices/rest/POLocator/findLocations", "@spider": "usps_collection_boxes", "addr:city": "LEAD", "addr:country": "US", "addr:postcode": "57754", "addr:state": "SD", "addr:street_address": "329 W MAIN ST", "amenity": "post_box", "collection_times": "Mo-Fr 15:45; Sa 10:30", "note": "ON 12/24 AND 12/31, THIS BOX MAY BE COLLECTED AS EARLY AS 12 NOON.", "nsi_id": "unitedstatespostalservice-a77078", "operator": "United States Postal Service", "operator:short": "USPS", "operator:type": "public", "operator:wikidata": "Q668687", "ref": "5775400004"}, "type": "Feature"}
{"geometry": {"coordinates": [-103.766756419, 44.351894223], "type": "Point"}, "id": "9yacmkElsCYlfD2tFw3b1m37x10=", "properties": {"@source_uri": "https://tools.usps.com/UspsToolsRestServices/rest/POLocator/findLocations", "@spider": "usps_collection_boxes", "addr:city": "LEAD", "addr:country": "US", "addr:postcode": "57754", "addr:state": "SD", "addr:street_address": "329 W MAIN ST", "amenity": "post_box", "collection_times": "Mo-Fr 16:00; Sa 10:30", "indoor": "yes", "note": "ON 12/24 AND 12/31, THIS BOX MAY BE COLLECTED AS EARLY AS 12 NOON.", "nsi_id": "unitedstatespostalservice-a77078", "operator": "United States Postal Service", "operator:short": "USPS", "operator:type": "public", "operator:wikidata": "Q668687", "ref": "5775400009"}, "type": "Feature"}
{"geometry": {"coordinates": [-102.46572, 43.25925], "type": "Point"}, "id": "L-O6xKAfIB3LOx2eXLlqCa3rEak=", "properties": {"@source_uri": "https://tools.usps.com/UspsToolsRestServices/rest/POLocator/findLocations", "@spider": "usps_collection_boxes", "addr:city": "MANDERSON", "addr:country": "US", "addr:postcode": "57756", "addr:state": "SD", "addr:street_address": "201 MAIN ST", "amenity": "post_box", "collection_times": "Mo-Fr 12:30", "indoor": "yes", "note": "ON 12/24 AND 12/31, THIS BOX MAY BE COLLECTED AS EARLY AS 12 NOON.", "nsi_id": "unitedstatespostalservice-a77078", "operator": "United States Postal Service", "operator:short": "USPS", "operator:type": "public", "operator:wikidata": "Q668687", "ref": "5775600002"}, "type": "Feature"}
{"geometry": {"coordinates": [-103.504318428, 44.192601544], "type": "Point"}, "id": "yBKr7dv7j74E_IhdBqut0jkN6GI=", "properties": {"@source_uri": "https://tools.usps.com/UspsToolsRestServices/rest/POLocator/findLocations", "@spider": "usps_collection_boxes", "addr:city": "NEMO", "addr:country": "US", "addr:postcode": "57759", "addr:state": "SD", "addr:street_address": "12748 NEMO RD", "amenity": "post_box", "collection_times": "Mo-Sa 12:00", "indoor": "yes", "nsi_id": "unitedstatespostalservice-a77078", "operator": "United States Postal Service", "operator:short": "USPS", "operator:type": "public", "operator:wikidata": "Q668687", "ref": "5775900002"}, "type": "Feature"}
{"geometry": {"coordinates": [-103.420600181, 44.71391831], "type": "Point"}, "id": "TY4MY8r0CGhwtzJ84vVSKE0r5RM=", "properties": {"@source_uri": "https://tools.usps.com/UspsToolsRestServices/rest/POLocator/findLocations", "@spider": "usps_collection_boxes", "addr:city": "NEWELL", "addr:country": "US", "addr:postcode": "57760", "addr:state": "SD", "addr:street_address": "207 GIRARD AVE", "amenity": "post_box", "collection_times": "Mo-Fr 16:00; Sa 10:30", "note": "ON 12/24 AND 12/31, THIS BOX MAY BE COLLECTED AS EARLY AS 12 NOON.", "nsi_id": "unitedstatespostalservice-a77078", "operator": "United States Postal Service", "operator:short": "USPS", "operator:type": "public", "operator:wikidata": "Q668687", "ref": "5776000001"}, "type": "Feature"}
{"geometry": {"coordinates": [-103.420600181, 44.71391831], "type": "Point"}, "id": "8zrn4dv_m09z5mZ64o0K2UpMVTA=", "properties": {"@source_uri": "https://tools.usps.com/UspsToolsRestServices/rest/POLocator/findLocations", "@spider": "usps_collection_boxes", "addr:city": "NEWELL", "addr:country": "US", "addr:postcode": "57760", "addr:state": "SD", "addr:street_address": "207 GIRARD AVE", "amenity": "post_box", "collection_times": "Mo-Fr 14:30; Sa 10:30", "indoor": "yes", "note": "ON 12/24 AND 12/31, THIS BOX MAY BE COLLECTED AS EARLY AS 12 NOON.", "nsi_id": "unitedstatespostalservice-a77078", "operator": "United States Postal Service", "operator:short": "USPS", "operator:type": "public", "operator:wikidata": "Q668687", "ref": "5776000002"}, "type": "Feature"}
{"geometry": {"coordinates": [-102.836314741, 44.092817665], "type": "Point"}, "id": "0PvLr2gZ2Z4GhlE6RdD0lh4_soQ=", "properties": {"@source_uri": "https://tools.usps.com/UspsToolsRestServices/rest/POLocator/findLocations", "@spider": "usps_collection_boxes", "addr:city": "NEW UNDERWOOD", "addr:country": "US", "addr:postcode": "57761", "addr:state": "SD", "addr:street_address": "408 S A AVE", "amenity": "post_box", "collection_times": "Mo-Fr 16:30; Sa 09:45", "note": "ON 12/24 AND 12/31, THIS BOX MAY BE COLLECTED AS EARLY AS 12 NOON.", "nsi_id": "unitedstatespostalservice-a77078", "operator": "United States Postal Service", "operator:short": "USPS", "operator:type": "public", "operator:wikidata": "Q668687", "ref": "5776100001"}, "type": "Feature"}
{"geometry": {"coordinates": [-102.836314741, 44.092817665], "type": "Point"}, "id": "pj3G6YLS557sgm4IFIlBiKR8--s=", "properties": {"@source_uri": "https://tools.usps.com/UspsToolsRestServices/rest/POLocator/findLocations", "@spider": "usps_collection_boxes", "addr:city": "NEW UNDERWOOD", "addr:country": "US", "addr:postcode": "57761", "addr:state": "SD", "addr:street_address": "408 S A AVE", "amenity": "post_box", "collection_times": "Mo-Fr 14:00; Sa 09:00", "indoor": "yes", "note": "ON 12/24 AND 12/31, THIS BOX MAY BE COLLECTED AS EARLY AS 12 NOON.", "nsi_id": "unitedstatespostalservice-a77078", "operator": "United States Postal Service", "operator:short": "USPS", "operator:type": "public", "operator:wikidata": "Q668687", "ref": "5776100002"}, "type": "Feature"}
{"geometry": {"coordinates": [-103.553171832, 44.672900449], "type": "Point"}, "id": "pGs4v2ltNozKFQVSz3PrMFpvZtA=", "properties": {"@source_uri": "https://tools.usps.com/UspsToolsRestServices/rest/POLocator/findLocations", "@spider": "usps_collection_boxes", "addr:city": "NISLAND", "addr:country": "US", "addr:postcode": "57762", "addr:state": "SD", "addr:street_address": "405 2ND ST", "amenity": "post_box", "collection_times": "Mo-Fr 14:20; Sa 11:45", "note": "ON 12/24 AND 12/31, THIS BOX MAY BE COLLECTED AS EARLY AS 12 NOON.", "nsi_id": "unitedstatespostalservice-a77078", "operator": "United States Postal Service", "operator:short": "USPS", "operator:type": "public", "operator:wikidata": "Q668687", "ref": "5776200001"}, "type": "Feature"}
{"geometry": {"coordinates": [-103.553171832, 44.672900449], "type": "Point"}, "id": "mBSwZje_rLaWMHI--kCo_5q4h7s=", "properties": {"@source_uri": "https://tools.usps.com/UspsToolsRestServices/rest/POLocator/findLocations", "@spider": "usps_collection_boxes", "addr:city": "NISLAND", "addr:country": "US", "addr:postcode": "57762", "addr:state": "SD", "addr:street_address": "405 2ND ST", "amenity": "post_box", "collection_times": "Mo-Fr 14:00; Sa 11:30", "indoor": "yes", "note": "ON 12/24 AND 12/31, THIS BOX MAY BE COLLECTED AS EARLY AS 12 NOON.", "nsi_id": "unitedstatespostalservice-a77078", "operator": "United States Postal Service", "operator:short": "USPS", "operator:type": "public", "operator:wikidata": "Q668687", "ref": "5776200002"}, "type": "Feature"}
{"geometry": {"coordinates": [-103.231520146, 43.182207335], "type": "Point"}, "id": "CS-fDjL3SgFmIhF8Rmy8qeaIk00=", "properties": {"@source_uri": "https://tools.usps.com/UspsToolsRestServices/rest/POLocator/findLocations", "@spider": "usps_collection_boxes", "addr:city": "OELRICHS", "addr:country": "US", "addr:postcode": "57763", "addr:state": "SD", "addr:street_address": "411 MAIN ST", "amenity": "post_box", "collection_times": "Mo-Fr 13:15; Sa 10:00", "note": "ON 12/24 AND 12/31, THIS BOX MAY BE COLLECTED AS EARLY AS 12 NOON.", "nsi_id": "unitedstatespostalservice-a77078", "operator": "United States Postal Service", "operator:short": "USPS", "operator:type": "public", "operator:wikidata": "Q668687", "ref": "5776300001"}, "type": "Feature"}
{"geometry": {"coordinates": [-103.2315500189, 43.1822100157], "type": "Point"}, "id": "31ZPOAohIF98ABeZJKN8ND12nWc=", "properties": {"@source_uri": "https://tools.usps.com/UspsToolsRestServices/rest/POLocator/findLocations", "@spider": "usps_collection_boxes", "addr:city": "OELRICHS", "addr:country": "US", "addr:postcode": "57763", "addr:state": "SD", "addr:street_address": "411 MAIN ST", "amenity": "post_box", "collection_times": "Mo-Fr 12:00; Sa 09:45", "indoor": "yes", "nsi_id": "unitedstatespostalservice-a77078", "operator": "United States Postal Service", "operator:short": "USPS", "operator:type": "public", "operator:wikidata": "Q668687", "ref": "5776300002"}, "type": "Feature"}
{"geometry": {"coordinates": [-102.736292845, 43.186800833], "type": "Point"}, "id": "V98g05DBzWAstqdFNI8nzcgGb98=", "properties": {"@source_uri": "https://tools.usps.com/UspsToolsRestServices/rest/POLocator/findLocations", "@spider": "usps_collection_boxes", "addr:city": "OGLALA", "addr:country": "US", "addr:postcode": "57764", "addr:state": "SD", "addr:street_address": "1 HIGHWAY 18 W", "amenity": "post_box", "collection_times": "Mo-Fr 12:30; Sa 11:15", "indoor": "yes", "note": "ON 12/24 AND 12/31, THIS BOX MAY BE COLLECTED AS EARLY AS 12 NOON.", "nsi_id": "unitedstatespostalservice-a77078", "operator": "United States Postal Service", "operator:short": "USPS", "operator:type": "public", "operator:wikidata": "Q668687", "ref": "5776400002"}, "type": "Feature"}
{"geometry": {"coordinates": [-103.269131086, 43.404831791], "type": "Point"}, "id": "yoFd8PsqxbMdIGkY6HR5Qip7wPA=", "properties": {"@source_uri": "https://tools.usps.com/UspsToolsRestServices/rest/POLocator/findLocations", "@spider": "usps_collection_boxes", "addr:city": "ORAL", "addr:country": "US", "addr:postcode": "57766", "addr:state": "SD", "addr:street_address": "117 S GOODMAN ST", "amenity": "post_box", "collection_times": "Mo-Fr 14:05; Sa 11:45", "note": "ON 12/24 AND 12/31, THIS BOX MAY BE COLLECTED AS EARLY AS 12 NOON.", "nsi_id": "unitedstatespostalservice-a77078", "operator": "United States Postal Service", "operator:short": "USPS", "operator:type": "public", "operator:wikidata": "Q668687", "ref": "5776600001"}, "type": "Feature"}
{"geometry": {"coordinates": [-103.269131086, 43.404831791], "type": "Point"}, "id": "D-6mxyNjh5UTeZF0IXVvQXRKKtQ=", "properties": {"@source_uri": "https://tools.usps.com/UspsToolsRestServices/rest/POLocator/findLocations", "@spider": "usps_collection_boxes", "addr:city": "ORAL", "addr:country": "US", "addr:postcode": "57766", "addr:state": "SD", "addr:street_address": "117 S GOODMAN ST", "amenity": "post_box", "collection_times": "Mo-Fr 14:00; Sa 11:25", "indoor": "yes", "note": "ON 12/24 AND 12/31, THIS BOX MAY BE COLLECTED AS EARLY AS 12 NOON.", "nsi_id": "unitedstatespostalservice-a77078", "operator": "United States Postal Service", "operator:short": "USPS", "operator:type": "public", "operator:wikidata": "Q668687", "ref": "5776600002"}, "type": "Feature"}
{"geometry": {"coordinates": [-103.39053607, 44.231007104], "type": "Point"}, "id": "QJAonqPTL5qozMczWg5brO4SyC0=", "properties": {"@source_uri": "https://tools.usps.com/UspsToolsRestServices/rest/POLocator/findLocations", "@spider": "usps_collection_boxes", "addr:city": "PIEDMONT", "addr:country": "US", "addr:postcode": "57769", "addr:state": "SD", "addr:street_address": "10224 MAIN ST", "amenity": "post_box", "collection_times": "Mo-Fr 16:30; Sa 10:30", "note": "ON 12/24 AND 12/31, THIS BOX MAY BE COLLECTED AS EARLY AS 12 NOON.", "nsi_id": "unitedstatespostalservice-a77078", "operator": "United States Postal Service", "operator:short": "USPS", "operator:type": "public", "operator:wikidata": "Q668687", "ref": "5776900001"}, "type": "Feature"}
{"geometry": {"coordinates": [-103.39053607, 44.231007104], "type": "Point"}, "id": "8O-xNEg57qjYD3Ky8wY4nbGQoqw=", "properties": {"@source_uri": "https://tools.usps.com/UspsToolsRestServices/rest/POLocator/findLocations", "@spider": "usps_collection_boxes", "addr:city": "PIEDMONT", "addr:country": "US", "addr:postcode": "57769", "addr:state": "SD", "addr:street_address": "10224 MAIN ST", "amenity": "post_box", "collection_times": "Mo-Fr 16:30; Sa 10:30", "indoor": "yes", "note": "ON 12/24 AND 12/31, THIS BOX MAY BE COLLECTED AS EARLY AS 12 NOON.", "nsi_id": "unitedstatespostalservice-a77078", "operator": "United States Postal Service", "operator:short": "USPS", "operator:type": "public", "operator:wikidata": "Q668687", "ref": "5776900004"}, "type": "Feature"}
{"geometry": {"coordinates": [-103.3804489967, 44.224455], "type": "Point"}, "id": "Gzy2CjsX56oHrC3HhlAGK-v7fy0=", "properties": {"@source_uri": "https://tools.usps.com/UspsToolsRestServices/rest/POLocator/findLocations", "@spider": "usps_collection_boxes", "addr:city": "PIEDMONT", "addr:country": "US", "addr:postcode": "57769", "addr:state": "SD", "addr:street_address": "15003 STURGIS RD", "amenity": "post_box", "collection_times": "Mo-Sa 17:05", "note": "ON 12/24 AND 12/31, THIS BOX MAY BE COLLECTED AS EARLY AS 12 NOON.", "nsi_id": "unitedstatespostalservice-a77078", "operator": "United States Postal Service", "operator:short": "USPS", "operator:type": "public", "operator:wikidata": "Q668687", "ref": "5776900007"}, "type": "Feature"}
{"geometry": {"coordinates": [-102.555855212, 43.025627433], "type": "Point"}, "id": "QqhfF8HS1fr4bITmS623RTUHUDw=", "properties": {"@source_uri": "https://tools.usps.com/UspsToolsRestServices/rest/POLocator/findLocations", "@spider": "usps_collection_boxes", "addr:city": "PINE RIDGE", "addr:country": "US", "addr:postcode": "57770", "addr:state": "SD", "addr:street_address": "1 HIGHWAY 18", "amenity": "post_box", "collection_times": "Mo-Fr 14:45; Sa 13:00", "indoor": "yes", "note": "ON 12/24 AND 12/31, THIS BOX MAY BE COLLECTED AS EARLY AS 12 NOON.", "nsi_id": "unitedstatespostalservice-a77078", "operator": "United States Postal Service", "operator:short": "USPS", "operator:type": "public", "operator:wikidata": "Q668687", "ref": "5777000002"}, "type": "Feature"}
{"geometry": {"coordinates": [-102.20412, 43.34872], "type": "Point"}, "id": "xjHSkCQLEZcOQhuP6uOP96flO1o=", "properties": {"@source_uri": "https://tools.usps.com/UspsToolsRestServices/rest/POLocator/findLocations", "@spider": "usps_collection_boxes", "addr:city": "PORCUPINE", "addr:country": "US", "addr:postcode": "57772", "addr:state": "SD", "addr:street_address": "111 EAGLE DR", "amenity": "post_box", "collection_times": "Mo-Sa 11:30", "nsi_id": "unitedstatespostalservice-a77078", "operator": "United States Postal Service", "operator:short": "USPS", "operator:type": "public", "operator:wikidata": "Q668687", "ref": "5777200001"}, "type": "Feature"}
{"geometry": {"coordinates": [-102.20412, 43.34872], "type": "Point"}, "id": "AoEM3YTKTTpB-phNes7ushXXi8I=", "properties": {"@source_uri": "https://tools.usps.com/UspsToolsRestServices/rest/POLocator/findLocations", "@spider": "usps_collection_boxes", "addr:city": "PORCUPINE", "addr:country": "US", "addr:postcode": "57772", "addr:state": "SD", "addr:street_address": "111 EAGLE DR", "amenity": "post_box", "collection_times": "Mo-Sa 11:30", "indoor": "yes", "nsi_id": "unitedstatespostalservice-a77078", "operator": "United States Postal Service", "operator:short": "USPS", "operator:type": "public", "operator:wikidata": "Q668687", "ref": "5777200002"}, "type": "Feature"}
{"geometry": {"coordinates": [-103.591957505, 43.607975941], "type": "Point"}, "id": "gdq7V5SleDe7iA0v8xfttNkaoQw=", "properties": {"@source_uri": "https://tools.usps.com/UspsToolsRestServices/rest/POLocator/findLocations", "@spider": "usps_collection_boxes", "addr:city": "PRINGLE", "addr:country": "US", "addr:postcode": "57773", "addr:state": "SD", "addr:street_address": "369 MAIN ST", "amenity": "post_box", "collection_times": "Mo-Sa 13:00", "note": "ON 12/24 AND 12/31, THIS BOX MAY BE COLLECTED AS EARLY AS 12 NOON.", "nsi_id": "unitedstatespostalservice-a77078", "operator": "United States Postal Service", "operator:short": "USPS", "operator:type": "public", "operator:wikidata": "Q668687", "ref": "5777300001"}, "type": "Feature"}
{"geometry": {"coordinates": [-103.591957505, 43.607975941], "type": "Point"}, "id": "IiJbIecDh7W8kdyCaRwNHPB9Ku8=", "properties": {"@source_uri": "https://tools.usps.com/UspsToolsRestServices/rest/POLocator/findLocations", "@spider": "usps_collection_boxes", "addr:city": "PRINGLE", "addr:country": "US", "addr:postcode": "57773", "addr:state": "SD", "addr:street_address": "369 MAIN ST", "amenity": "post_box", "collection_times": "Mo-Sa 13:00", "indoor": "yes", "note": "ON 12/24 AND 12/31, THIS BOX MAY BE COLLECTED AS EARLY AS 12 NOON.", "nsi_id": "unitedstatespostalservice-a77078", "operator": "United States Postal Service", "operator:short": "USPS", "operator:type": "public", "operator:wikidata": "Q668687", "ref": "5777300002"}, "type": "Feature"}
{"geometry": {"coordinates": [-102.126529325, 43.986108061], "type": "Point"}, "id": "l75mUIytu8DdMIVzNUsOk04teLs=", "properties": {"@source_uri": "https://tools.usps.com/UspsToolsRestServices/rest/POLocator/findLocations", "@spider": "usps_collection_boxes", "addr:city": "QUINN", "addr:country": "US", "addr:postcode": "57775", "addr:state": "SD", "addr:street_address": "30 HIGHWAY 1416", "amenity": "post_box", "collection_times": "Mo-Fr 12:15; Sa 11:30", "note": "ON 12/24 AND 12/31, THIS BOX MAY BE COLLECTED AS EARLY AS 12 NOON.", "nsi_id": "unitedstatespostalservice-a77078", "operator": "United States Postal Service", "operator:short": "USPS", "operator:type": "public", "operator:wikidata": "Q668687", "ref": "5777500001"}, "type": "Feature"}
{"geometry": {"coordinates": [-102.126529325, 43.986108061], "type": "Point"}, "id": "6syKoV1KNiWuk2DEHLNuuelHEHc=", "properties": {"@source_uri": "https://tools.usps.com/UspsToolsRestServices/rest/POLocator/findLocations", "@spider": "usps_collection_boxes", "addr:city": "QUINN", "addr:country": "US", "addr:postcode": "57775", "addr:state": "SD", "addr:street_address": "30 HIGHWAY 1416", "amenity": "post_box", "collection_times": "Mo-Fr 11:30; Sa 11:00", "indoor": "yes", "nsi_id": "unitedstatespostalservice-a77078", "operator": "United States Postal Service", "operator:short": "USPS", "operator:type": "public", "operator:wikidata": "Q668687", "ref": "5777500002"}, "type": "Feature"}
{"geometry": {"coordinates": [-103.548721764, 45.271549789], "type": "Point"}, "id": "ml6QVMBH7acxvJkFnKBugQ1MNh8=", "properties": {"@source_uri": "https://tools.usps.com/UspsToolsRestServices/rest/POLocator/findLocations", "@spider": "usps_collection_boxes", "addr:city": "REDIG", "addr:country": "US", "addr:postcode": "57776", "addr:state": "SD", "addr:street_address": "14695 US HIGHWAY 85", "amenity": "post_box", "collection_times": "Mo-Sa 11:45", "indoor": "yes", "nsi_id": "unitedstatespostalservice-a77078", "operator": "United States Postal Service", "operator:short": "USPS", "operator:type": "public", "operator:wikidata": "Q668687", "ref": "5777600000"}, "type": "Feature"}
{"geometry": {"coordinates": [-103.721032582, 44.54772546], "type": "Point"}, "id": "AW-MxHR5oxJ837wFNamRjiG7kPc=", "properties": {"@source_uri": "https://tools.usps.com/UspsToolsRestServices/rest/POLocator/findLocations", "@spider": "usps_collection_boxes", "addr:city": "SAINT ONGE", "addr:country": "US", "addr:postcode": "57779", "addr:state": "SD", "addr:street_address": "176 PURL ST", "amenity": "post_box", "collection_times": "Mo-Fr 11:30; Sa 11:00", "nsi_id": "unitedstatespostalservice-a77078", "operator": "United States Postal Service", "operator:short": "USPS", "operator:type": "public", "operator:wikidata": "Q668687", "ref": "5777900001"}, "type": "Feature"}
{"geometry": {"coordinates": [-103.721032582, 44.54772546], "type": "Point"}, "id": "hAI4FzunXgoJdrwKfiX34THy2mw=", "properties": {"@source_uri": "https://tools.usps.com/UspsToolsRestServices/rest/POLocator/findLocations", "@spider": "usps_collection_boxes", "addr:city": "SAINT ONGE", "addr:country": "US", "addr:postcode": "57779", "addr:state": "SD", "addr:street_address": "176 PURL ST", "amenity": "post_box", "collection_times": "Mo-Fr 11:15", "indoor": "yes", "nsi_id": "unitedstatespostalservice-a77078", "operator": "United States Postal Service", "operator:short": "USPS", "operator:type": "public", "operator:wikidata": "Q668687", "ref": "5777900002"}, "type": "Feature"}
{"geometry": {"coordinates": [-102.5539605, 43.779672525], "type": "Point"}, "id": "4CuOF9zVVXV5KHF0k7zUhtQWECw=", "properties": {"@source_uri": "https://tools.usps.com/UspsToolsRestServices/rest/POLocator/findLocations", "@spider": "usps_collection_boxes", "addr:city": "SCENIC", "addr:country": "US", "addr:postcode": "57780", "addr:state": "SD", "addr:street_address": "27 2ND ST", "amenity": "post_box", "collection_times": "Mo-Sa 11:30", "nsi_id": "unitedstatespostalservice-a77078", "operator": "United States Postal Service", "operator:short": "USPS", "operator:type": "public", "operator:wikidata": "Q668687", "ref": "5778000001"}, "type": "Feature"}
{"geometry": {"coordinates": [-102.5539605, 43.779672525], "type": "Point"}, "id": "b0QrHukobLe-oKZu2My8Kkyq5hQ=", "properties": {"@source_uri": "https://tools.usps.com/UspsToolsRestServices/rest/POLocator/findLocations", "@spider": "usps_collection_boxes", "addr:city": "SCENIC", "addr:country": "US", "addr:postcode": "57780", "addr:state": "SD", "addr:street_address": "27 2ND ST", "amenity": "post_box", "collection_times": "Mo-Sa 11:30", "indoor": "yes", "nsi_id": "unitedstatespostalservice-a77078", "operator": "United States Postal Service", "operator:short": "USPS", "operator:type": "public", "operator:wikidata": "Q668687", "ref": "5778000002"}, "type": "Feature"}
{"geometry": {"coordinates": [-103.8632966987, 44.4905256666], "type": "Point"}, "id": "DhhkSJMGpHXPTtdPVcjJB43B348=", "properties": {"@source_uri": "https://tools.usps.com/UspsToolsRestServices/rest/POLocator/findLocations", "@spider": "usps_collection_boxes", "addr:city": "SPEARFISH", "addr:country": "US", "addr:postcode": "57783", "addr:state": "SD", "addr:street_address": "333 W JACKSON BLVD", "amenity": "post_box", "collection_times": "Mo-Sa 12:00", "nsi_id": "unitedstatespostalservice-a77078", "operator": "United States Postal Service", "operator:short": "USPS", "operator:type": "public", "operator:wikidata": "Q668687", "ref": "5778300002"}, "type": "Feature"}
{"geometry": {"coordinates": [-103.8596243, 44.492263764], "type": "Point"}, "id": "SxP-WVwXsjbA-nlb716d0U8GwT4=", "properties": {"@source_uri": "https://tools.usps.com/UspsToolsRestServices/rest/POLocator/findLocations", "@spider": "usps_collection_boxes", "addr:city": "SPEARFISH", "addr:country": "US", "addr:postcode": "57783", "addr:state": "SD", "addr:street_address": "905 N MAIN ST", "amenity": "post_box", "collection_times": "Mo-Sa 14:15", "note": "ON 12/24 AND 12/31, THIS BOX MAY BE COLLECTED AS EARLY AS 12 NOON.", "nsi_id": "unitedstatespostalservice-a77078", "operator": "United States Postal Service", "operator:short": "USPS", "operator:type": "public", "operator:wikidata": "Q668687", "ref": "5778300003"}, "type": "Feature"}
{"geometry": {"coordinates": [-103.860013699, 44.497681167], "type": "Point"}, "id": "O6oEd75BJmlaMQtWDkKsOyxGrsU=", "properties": {"@source_uri": "https://tools.usps.com/UspsToolsRestServices/rest/POLocator/findLocations", "@spider": "usps_collection_boxes", "addr:city": "SPEARFISH", "addr:country": "US", "addr:postcode": "57783", "addr:state": "SD", "addr:street_address": "1400 NORTH AVE", "amenity": "post_box", "collection_times": "Mo-Sa 14:15", "note": "ON 12/24 AND 12/31, THIS BOX MAY BE COLLECTED AS EARLY AS 12 NOON.", "nsi_id": "unitedstatespostalservice-a77078", "operator": "United States Postal Service", "operator:short": "USPS", "operator:type": "public", "operator:wikidata": "Q668687", "ref": "5778300004"}, "type": "Feature"}
{"geometry": {"coordinates": [-103.8606919832, 44.5072050088], "type": "Point"}, "id": "txCsHQetCJ8fGjibRp-AMVIXlgY=", "properties": {"@source_uri": "https://tools.usps.com/UspsToolsRestServices/rest/POLocator/findLocations", "@spider": "usps_collection_boxes", "addr:city": "SPEARFISH", "addr:country": "US", "addr:postcode": "57783", "addr:state": "SD", "addr:street_address": "120 YANKEE ST", "amenity": "post_box", "collection_times": "Mo-Fr 16:45; Sa 16:00", "note": "ON 12/24 AND 12/31, THIS BOX MAY BE COLLECTED AS EARLY AS 12 NOON.", "nsi_id": "unitedstatespostalservice-a77078", "operator": "United States Postal Service", "operator:short": "USPS", "operator:type": "public", "operator:wikidata": "Q668687", "ref": "5778300006"}, "type": "Feature"}
{"geometry": {"coordinates": [-103.860674445, 44.506687534], "type": "Point"}, "id": "PUTKV2h7IGRfnfQMKMQ_jhVB7jw=", "properties": {"@source_uri": "https://tools.usps.com/UspsToolsRestServices/rest/POLocator/findLocations", "@spider": "usps_collection_boxes", "addr:city": "SPEARFISH", "addr:country": "US", "addr:postcode": "57783", "addr:state": "SD", "addr:street_address": "120 YANKEE ST", "amenity": "post_box", "collection_times": "Mo-Fr 16:30; Sa 16:00", "indoor": "yes", "note": "ON 12/24 AND 12/31, THIS BOX MAY BE COLLECTED AS EARLY AS 12 NOON.", "nsi_id": "unitedstatespostalservice-a77078", "operator": "United States Postal Service", "operator:short": "USPS", "operator:type": "public", "operator:wikidata": "Q668687", "ref": "5778300007"}, "type": "Feature"}
{"geometry": {"coordinates": [-103.858494683, 44.488479069], "type": "Point"}, "id": "lLQtJRYa1DeLNnNiWNYfld54H2U=", "properties": {"@source_uri": "https://tools.usps.com/UspsToolsRestServices/rest/POLocator/findLocations", "@spider": "usps_collection_boxes", "addr:city": "SPEARFISH", "addr:country": "US", "addr:postcode": "57783", "addr:state": "SD", "addr:street_address": "526 N MAIN ST", "amenity": "post_box", "collection_times": "Mo-Sa 14:00", "note": "ON 12/24 AND 12/31, THIS BOX MAY BE COLLECTED AS EARLY AS 12 NOON.", "nsi_id": "unitedstatespostalservice-a77078", "operator": "United States Postal Service", "operator:short": "USPS", "operator:type": "public", "operator:wikidata": "Q668687", "ref": "5778300012"}, "type": "Feature"}
{"geometry": {"coordinates": [-103.80928127, 44.480435514], "type": "Point"}, "id": "cJph47biXBghgtzqEjYybTiPitw=", "properties": {"@source_uri": "https://tools.usps.com/UspsToolsRestServices/rest/POLocator/findLocations", "@spider": "usps_collection_boxes", "addr:city": "SPEARFISH", "addr:country": "US", "addr:postcode": "57783", "addr:state": "SD", "addr:street_address": "2825 1ST AVE", "amenity": "post_box", "collection_times": "Mo-Sa 12:15", "note": "ON 12/24 AND 12/31, THIS BOX MAY BE COLLECTED AS EARLY AS 12 NOON.", "nsi_id": "unitedstatespostalservice-a77078", "operator": "United States Postal Service", "operator:short": "USPS", "operator:type": "public", "operator:wikidata": "Q668687", "ref": "5778300014"}, "type": "Feature"}
{"geometry": {"coordinates": [-103.508088045, 44.398262452], "type": "Point"}, "id": "sWjJ2kTxv5sSPjZAySncEUhSL84=", "properties": {"@source_uri": "https://tools.usps.com/UspsToolsRestServices/rest/POLocator/findLocations", "@spider": "usps_collection_boxes", "addr:city": "STURGIS", "addr:country": "US", "addr:postcode": "57785", "addr:state": "SD", "addr:street_address": "2421 JUNCTION AVE", "amenity": "post_box", "collection_times": "Mo-Sa 14:30", "note": "ON 12/24 AND 12/31, THIS BOX MAY BE COLLECTED AS EARLY AS 12 NOON.", "nsi_id": "unitedstatespostalservice-a77078", "operator": "United States Postal Service", "operator:short": "USPS", "operator:type": "public", "operator:wikidata": "Q668687", "ref": "5778500004"}, "type": "Feature"}
{"geometry": {"coordinates": [-103.516271246, 44.413546453], "type": "Point"}, "id": "bxrfhD7IX3jQ7tWoXh8pweMnp7A=", "properties": {"@source_uri": "https://tools.usps.com/UspsToolsRestServices/rest/POLocator/findLocations", "@spider": "usps_collection_boxes", "addr:city": "STURGIS", "addr:country": "US", "addr:postcode": "57785", "addr:state": "SD", "addr:street_address": "1425 SHERMAN ST", "amenity": "post_box", "collection_times": "Mo-Fr 14:30", "note": "ON 12/24 AND 12/31, THIS BOX MAY BE COLLECTED AS EARLY AS 12 NOON.", "nsi_id": "unitedstatespostalservice-a77078", "operator": "United States Postal Service", "operator:short": "USPS", "operator:type": "public", "operator:wikidata": "Q668687", "ref": "5778500010"}, "type": "Feature"}
{"geometry": {"coordinates": [-103.515433607, 44.415853072], "type": "Point"}, "id": "TDQBeh0jje2msWaOozg3NaKRHNY=", "properties": {"@source_uri": "https://tools.usps.com/UspsToolsRestServices/rest/POLocator/findLocations", "@spider": "usps_collection_boxes", "addr:city": "STURGIS", "addr:country": "US", "addr:postcode": "57785", "addr:state": "SD", "addr:street_address": "820 KINSHIP RD", "amenity": "post_box", "collection_times": "Mo-Fr 17:00; Sa 16:45", "note": "ON 12/24 AND 12/31, THIS BOX MAY BE COLLECTED AS EARLY AS 12 NOON.", "nsi_id": "unitedstatespostalservice-a77078", "operator": "United States Postal Service", "operator:short": "USPS", "operator:type": "public", "operator:wikidata": "Q668687", "ref": "5778500013"}, "type": "Feature"}
{"geometry": {"coordinates": [-103.515433607, 44.415853072], "type": "Point"}, "id": "-aBUqyLW84qFya-kxJxaM8g0BRo=", "properties": {"@source_uri": "https://tools.usps.com/UspsToolsRestServices/rest/POLocator/findLocations", "@spider": "usps_collection_boxes", "addr:city": "STURGIS", "addr:country": "US", "addr:postcode": "57785", "addr:state": "SD", "addr:street_address": "820 KINSHIP RD", "amenity": "post_box", "collection_times": "Mo-Sa 16:45", "indoor": "yes", "note": "ON 12/24 AND 12/31, THIS BOX MAY BE COLLECTED AS EARLY AS 12 NOON.", "nsi_id": "unitedstatespostalservice-a77078", "operator": "United States Postal Service", "operator:short": "USPS", "operator:type": "public", "operator:wikidata": "Q668687", "ref": "5778500015"}, "type": "Feature"}
{"geometry": {"coordinates": [-103.515433607, 44.415853072], "type": "Point"}, "id": "MKqFwWrAjf0Ue2inzhJxO3cEKkk=", "properties": {"@source_uri": "https://tools.usps.com/UspsToolsRestServices/rest/POLocator/findLocations", "@spider": "usps_collection_boxes", "addr:city": "STURGIS", "addr:country": "US", "addr:postcode": "57785", "addr:state": "SD", "addr:street_address": "820 KINSHIP RD", "amenity": "post_box", "collection_times": "Mo-Sa 16:45", "indoor": "yes", "note": "ON 12/24 AND 12/31, THIS BOX MAY BE COLLECTED AS EARLY AS 12 NOON.", "nsi_id": "unitedstatespostalservice-a77078", "operator": "United States Postal Service", "operator:short": "USPS", "operator:type": "public", "operator:wikidata": "Q668687", "ref": "5778500016"}, "type": "Feature"}
{"geometry": {"coordinates": [-103.449501094, 44.415790471], "type": "Point"}, "id": "fCXe0kwuqxDJ5BN1-MqgZMz4FuU=", "properties": {"@source_uri": "https://tools.usps.com/UspsToolsRestServices/rest/POLocator/findLocations", "@spider": "usps_collection_boxes", "addr:city": "STURGIS", "addr:country": "US", "addr:postcode": "57785", "addr:state": "SD", "addr:street_address": "12998 SD HIGHWAY 34", "amenity": "post_box", "collection_times": "Mo-Fr 15:30; Sa 15:00", "note": "ON 12/24 AND 12/31, THIS BOX MAY BE COLLECTED AS EARLY AS 12 NOON.", "nsi_id": "unitedstatespostalservice-a77078", "operator": "United States Postal Service", "operator:short": "USPS", "operator:type": "public", "operator:wikidata": "Q668687", "ref": "5778500019"}, "type": "Feature"}
{"geometry": {"coordinates": [-102.673224, 44.56090548], "type": "Point"}, "id": "3MYZ8yYeDvhb6XmdhmLBj359384=", "properties": {"@source_uri": "https://tools.usps.com/UspsToolsRestServices/rest/POLocator/findLocations", "@spider": "usps_collection_boxes", "addr:city": "UNION CENTER", "addr:country": "US", "addr:postcode": "57787", "addr:state": "SD", "addr:street_address": "16946 SD HIGHWAY 34 STE 3", "amenity": "post_box", "collection_times": "Mo-Fr 15:15; Sa 14:30", "note": "ON 12/24 AND 12/31, THIS BOX MAY BE COLLECTED AS EARLY AS 12 NOON.", "nsi_id": "unitedstatespostalservice-a77078", "operator": "United States Postal Service", "operator:short": "USPS", "operator:type": "public", "operator:wikidata": "Q668687", "ref": "5778700001"}, "type": "Feature"}
{"geometry": {"coordinates": [-102.673224, 44.56090548], "type": "Point"}, "id": "qb5-WNW5gKen6yX3zjANZZGaTdQ=", "properties": {"@source_uri": "https://tools.usps.com/UspsToolsRestServices/rest/POLocator/findLocations", "@spider": "usps_collection_boxes", "addr:city": "UNION CENTER", "addr:country": "US", "addr:postcode": "57787", "addr:state": "SD", "addr:street_address": "16946 SD HIGHWAY 34 STE 3", "amenity": "post_box", "collection_times": "Mo-Fr 15:00; Sa 11:30", "indoor": "yes", "note": "ON 12/24 AND 12/31, THIS BOX MAY BE COLLECTED AS EARLY AS 12 NOON.", "nsi_id": "unitedstatespostalservice-a77078", "operator": "United States Postal Service", "operator:short": "USPS", "operator:type": "public", "operator:wikidata": "Q668687", "ref": "5778700002"}, "type": "Feature"}
{"geometry": {"coordinates": [-103.403994729, 44.619326272], "type": "Point"}, "id": "A4dcq9DNc-QRf0p0ybGzLh3R0DI=", "properties": {"@source_uri": "https://tools.usps.com/UspsToolsRestServices/rest/POLocator/findLocations", "@spider": "usps_collection_boxes", "addr:city": "VALE", "addr:country": "US", "addr:postcode": "57788", "addr:state": "SD", "addr:street_address": "304 ROSANDER AVE", "amenity": "post_box", "collection_times": "Mo-Fr 15:45; Sa 09:00", "note": "ON 12/24 AND 12/31, THIS BOX MAY BE COLLECTED AS EARLY AS 12 NOON.", "nsi_id": "unitedstatespostalservice-a77078", "operator": "United States Postal Service", "operator:short": "USPS", "operator:type": "public", "operator:wikidata": "Q668687", "ref": "5778800001"}, "type": "Feature"}
{"geometry": {"coordinates": [-103.403994729, 44.619326272], "type": "Point"}, "id": "k2t9Us67kYvwknnJIFrAQBpU9qs=", "properties": {"@source_uri": "https://tools.usps.com/UspsToolsRestServices/rest/POLocator/findLocations", "@spider": "usps_collection_boxes", "addr:city": "VALE", "addr:country": "US", "addr:postcode": "57788", "addr:state": "SD", "addr:street_address": "304 ROSANDER AVE", "amenity": "post_box", "collection_times": "Mo-Fr 11:15; Sa 09:00", "indoor": "yes", "nsi_id": "unitedstatespostalservice-a77078", "operator": "United States Postal Service", "operator:short": "USPS", "operator:type": "public", "operator:wikidata": "Q668687", "ref": "5778800002"}, "type": "Feature"}
{"geometry": {"coordinates": [-102.241861693, 43.992315251], "type": "Point"}, "id": "3BYGTE5SAKmrgnDGwKpvaEQ7Z40=", "properties": {"@source_uri": "https://tools.usps.com/UspsToolsRestServices/rest/POLocator/findLocations", "@spider": "usps_collection_boxes", "addr:city": "WALL", "addr:country": "US", "addr:postcode": "57790", "addr:state": "SD", "addr:street_address": "529 MAIN ST", "amenity": "post_box", "collection_times": "Mo-Fr 16:00; Sa 10:30", "note": "ON 12/24 AND 12/31, THIS BOX MAY BE COLLECTED AS EARLY AS 12 NOON.", "nsi_id": "unitedstatespostalservice-a77078", "operator": "United States Postal Service", "operator:short": "USPS", "operator:type": "public", "operator:wikidata": "Q668687", "ref": "5779000001"}, "type": "Feature"}
{"geometry": {"coordinates": [-102.241861693, 43.992315251], "type": "Point"}, "id": "eqOr2ZZ4l-UHGOFeIduwIZkEaYs=", "properties": {"@source_uri": "https://tools.usps.com/UspsToolsRestServices/rest/POLocator/findLocations", "@spider": "usps_collection_boxes", "addr:city": "WALL", "addr:country": "US", "addr:postcode": "57790", "addr:state": "SD", "addr:street_address": "529 MAIN ST", "amenity": "post_box", "collection_times": "Mo-Fr 16:00; Sa 10:30", "indoor": "yes", "note": "ON 12/24 AND 12/31, THIS BOX MAY BE COLLECTED AS EARLY AS 12 NOON.", "nsi_id": "unitedstatespostalservice-a77078", "operator": "United States Postal Service", "operator:short": "USPS", "operator:type": "public", "operator:wikidata": "Q668687", "ref": "5779000003"}, "type": "Feature"}
{"geometry": {"coordinates": [-102.447807887, 44.068249902], "type": "Point"}, "id": "DNPf6R1nbXr_E9R5So7WqBMTBXY=", "properties": {"@source_uri": "https://tools.usps.com/UspsToolsRestServices/rest/POLocator/findLocations", "@spider": "usps_collection_boxes", "addr:city": "WASTA", "addr:country": "US", "addr:postcode": "57791", "addr:state": "SD", "addr:street_address": "54 C AVE", "amenity": "post_box", "collection_times": "Mo-Fr 15:45; Sa 08:45", "note": "ON 12/24 AND 12/31, THIS BOX MAY BE COLLECTED AS EARLY AS 12 NOON.", "nsi_id": "unitedstatespostalservice-a77078", "operator": "United States Postal Service", "operator:short": "USPS", "operator:type": "public", "operator:wikidata": "Q668687", "ref": "5779100001"}, "type": "Feature"}
{"geometry": {"coordinates": [-102.447807887, 44.068249902], "type": "Point"}, "id": "dSrraehgtqEWKsEXSxHpAoNLnXw=", "properties": {"@source_uri": "https://tools.usps.com/UspsToolsRestServices/rest/POLocator/findLocations", "@spider": "usps_collection_boxes", "addr:city": "WASTA", "addr:country": "US", "addr:postcode": "57791", "addr:state": "SD", "addr:street_address": "54 C AVE", "amenity": "post_box", "collection_times": "Mo-Fr 11:30; Sa 08:45", "indoor": "yes", "nsi_id": "unitedstatespostalservice-a77078", "operator": "United States Postal Service", "operator:short": "USPS", "operator:type": "public", "operator:wikidata": "Q668687", "ref": "5779100002"}, "type": "Feature"}
{"geometry": {"coordinates": [-102.428202038, 44.594673182], "type": "Point"}, "id": "mr0utI7Xd9jCHcidfppKnTv1xNk=", "properties": {"@source_uri": "https://tools.usps.com/UspsToolsRestServices/rest/POLocator/findLocations", "@spider": "usps_collection_boxes", "addr:city": "WHITE OWL", "addr:country": "US", "addr:postcode": "57792", "addr:state": "SD", "addr:street_address": "19371 MAIN ST", "amenity": "post_box", "collection_times": "Mo-Fr 14:30; Sa 11:00", "indoor": "yes", "note": "ON 12/24 AND 12/31, THIS BOX MAY BE COLLECTED AS EARLY AS 12 NOON.", "nsi_id": "unitedstatespostalservice-a77078", "operator": "United States Postal Service", "operator:short": "USPS", "operator:type": "public", "operator:wikidata": "Q668687", "ref": "5779200001"}, "type": "Feature"}
{"geometry": {"coordinates": [-103.638284922, 44.467002765], "type": "Point"}, "id": "l7PlH8ckNKXTaOQNA4GFCCjNLIc=", "properties": {"@source_uri": "https://tools.usps.com/UspsToolsRestServices/rest/POLocator/findLocations", "@spider": "usps_collection_boxes", "addr:city": "WHITEWOOD", "addr:country": "US", "addr:postcode": "57793", "addr:state": "SD", "addr:street_address": "1400 LAUREL ST", "amenity": "post_box", "collection_times": "Mo-Fr 16:15; Sa 10:45", "note": "ON 12/24 AND 12/31, THIS BOX MAY BE COLLECTED AS EARLY AS 12 NOON.", "nsi_id": "unitedstatespostalservice-a77078", "operator": "United States Postal Service", "operator:short": "USPS", "operator:type": "public", "operator:wikidata": "Q668687", "ref": "5779300001"}, "type": "Feature"}
{"geometry": {"coordinates": [-103.638284922, 44.467002765], "type": "Point"}, "id": "MgCNl_fJVvDCpQbnzASEKH1G8VE=", "properties": {"@source_uri": "https://tools.usps.com/UspsToolsRestServices/rest/POLocator/findLocations", "@spider": "usps_collection_boxes", "addr:city": "WHITEWOOD", "addr:country": "US", "addr:postcode": "57793", "addr:state": "SD", "addr:street_address": "1400 LAUREL ST", "amenity": "post_box", "collection_times": "Mo-Fr 14:30; Sa 10:00", "indoor": "yes", "note": "ON 12/24 AND 12/31, THIS BOX MAY BE COLLECTED AS EARLY AS 12 NOON.", "nsi_id": "unitedstatespostalservice-a77078", "operator": "United States Postal Service", "operator:short": "USPS", "operator:type": "public", "operator:wikidata": "Q668687", "ref": "5779300002"}, "type": "Feature"}
{"geometry": {"coordinates": [-102.42608, 43.17729], "type": "Point"}, "id": "81Edjs5YakFlTYTBf9h-NoIJQx8=", "properties": {"@source_uri": "https://tools.usps.com/UspsToolsRestServices/rest/POLocator/findLocations", "@spider": "usps_collection_boxes", "addr:city": "WOUNDED KNEE", "addr:country": "US", "addr:postcode": "57794", "addr:state": "SD", "addr:street_address": "101 MAIN ST", "amenity": "post_box", "collection_times": "Mo-Sa 12:00", "indoor": "yes", "nsi_id": "unitedstatespostalservice-a77078", "operator": "United States Postal Service", "operator:short": "USPS", "operator:type": "public", "operator:wikidata": "Q668687", "ref": "5779400002"}, "type": "Feature"}
