{"geometry": {"coordinates": [-96.728920083, 46.447732917], "type": "Point"}, "id": "wDwOy1zJfVScM0RRF9RZ_dko0TE=", "properties": {"@source_uri": "https://tools.usps.com/UspsToolsRestServices/rest/POLocator/findLocations", "@spider": "usps_collection_boxes", "addr:city": "ABERCROMBIE", "addr:country": "US", "addr:postcode": "58001", "addr:state": "ND", "addr:street_address": "515 BROADWAY", "amenity": "post_box", "collection_times": "Mo-Fr 10:45; Sa 08:15", "nsi_id": "unitedstatespostalservice-a77078", "operator": "United States Postal Service", "operator:short": "USPS", "operator:type": "public", "operator:wikidata": "Q668687", "ref": "5800100001"}, "type": "Feature"}
{"geometry": {"coordinates": [-96.728920083, 46.447732917], "type": "Point"}, "id": "TrP7_uDRIe5MUVaFvD5nvXV_BBo=", "properties": {"@source_uri": "https://tools.usps.com/UspsToolsRestServices/rest/POLocator/findLocations", "@spider": "usps_collection_boxes", "addr:city": "ABERCROMBIE", "addr:country": "US", "addr:postcode": "58001", "addr:state": "ND", "addr:street_address": "515 BROADWAY", "amenity": "post_box", "collection_times": "Mo-Fr 10:45", "indoor": "yes", "nsi_id": "unitedstatespostalservice-a77078", "operator": "United States Postal Service", "operator:short": "USPS", "operator:type": "public", "operator:wikidata": "Q668687", "ref": "5800100002"}, "type": "Feature"}
{"geometry": {"coordinates": [-96.728920083, 46.447732917], "type": "Point"}, "id": "txwtgcs1jdPWd2vVw0GzWYOg0LU=", "properties": {"@source_uri": "https://tools.usps.com/UspsToolsRestServices/rest/POLocator/findLocations", "@spider": "usps_collection_boxes", "addr:city": "ABERCROMBIE", "addr:country": "US", "addr:postcode": "58001", "addr:state": "ND", "addr:street_address": "515 BROADWAY", "amenity": "post_box", "collection_times": "Mo-Fr 10:45; Sa 08:25", "indoor": "yes", "nsi_id": "unitedstatespostalservice-a77078", "operator": "United States Postal Service", "operator:short": "USPS", "operator:type": "public", "operator:wikidata": "Q668687", "ref": "5800100003"}, "type": "Feature"}
{"geometry": {"coordinates": [-97.21806165, 47.103713162], "type": "Point"}, "id": "nYSD6570G_eD10PIYr7_GuAIRZs=", "properties": {"@source_uri": "https://tools.usps.com/UspsToolsRestServices/rest/POLocator/findLocations", "@spider": "usps_collection_boxes", "addr:city": "ARTHUR", "addr:country": "US", "addr:postcode": "58006", "addr:state": "ND", "addr:street_address": "330 MAIN ST", "amenity": "post_box", "collection_times": "Mo-Fr 11:45; Sa 09:30", "nsi_id": "unitedstatespostalservice-a77078", "operator": "United States Postal Service", "operator:short": "USPS", "operator:type": "public", "operator:wikidata": "Q668687", "ref": "5800600001"}, "type": "Feature"}
{"geometry": {"coordinates": [-97.21806165, 47.103713162], "type": "Point"}, "id": "V4e0nD3sEWJYXAuAVFrVX2OCI08=", "properties": {"@source_uri": "https://tools.usps.com/UspsToolsRestServices/rest/POLocator/findLocations", "@spider": "usps_collection_boxes", "addr:city": "ARTHUR", "addr:country": "US", "addr:postcode": "58006", "addr:state": "ND", "addr:street_address": "330 MAIN ST", "amenity": "post_box", "collection_times": "Mo-Fr 12:00", "indoor": "yes", "nsi_id": "unitedstatespostalservice-a77078", "operator": "United States Postal Service", "operator:short": "USPS", "operator:type": "public", "operator:wikidata": "Q668687", "ref": "5800600002"}, "type": "Feature"}
{"geometry": {"coordinates": [-97.21806165, 47.103713162], "type": "Point"}, "id": "6JRR5-mmd3MJMyyg_Lc2K9lgdgM=", "properties": {"@source_uri": "https://tools.usps.com/UspsToolsRestServices/rest/POLocator/findLocations", "@spider": "usps_collection_boxes", "addr:city": "ARTHUR", "addr:country": "US", "addr:postcode": "58006", "addr:state": "ND", "addr:street_address": "330 MAIN ST", "amenity": "post_box", "collection_times": "Mo-Fr 11:50; Sa 09:30", "indoor": "yes", "nsi_id": "unitedstatespostalservice-a77078", "operator": "United States Postal Service", "operator:short": "USPS", "operator:type": "public", "operator:wikidata": "Q668687", "ref": "5800600003"}, "type": "Feature"}
{"geometry": {"coordinates": [-97.549968882, 46.919643442], "type": "Point"}, "id": "1Ud5-CCn_Inl_dvHfD_dIvxQ-PI=", "properties": {"@source_uri": "https://tools.usps.com/UspsToolsRestServices/rest/POLocator/findLocations", "@spider": "usps_collection_boxes", "addr:city": "BUFFALO", "addr:country": "US", "addr:postcode": "58011", "addr:state": "ND", "addr:street_address": "305 MAIN ST", "amenity": "post_box", "collection_times": "Mo-Fr 11:45; Sa 09:00", "nsi_id": "unitedstatespostalservice-a77078", "operator": "United States Postal Service", "operator:short": "USPS", "operator:type": "public", "operator:wikidata": "Q668687", "ref": "5801100001"}, "type": "Feature"}
{"geometry": {"coordinates": [-97.549968882, 46.919643442], "type": "Point"}, "id": "zGJO1FEobsagQ6wH9zJIchdZnz0=", "properties": {"@source_uri": "https://tools.usps.com/UspsToolsRestServices/rest/POLocator/findLocations", "@spider": "usps_collection_boxes", "addr:city": "BUFFALO", "addr:country": "US", "addr:postcode": "58011", "addr:state": "ND", "addr:street_address": "305 MAIN ST", "amenity": "post_box", "collection_times": "Mo-Fr 12:00", "indoor": "yes", "nsi_id": "unitedstatespostalservice-a77078", "operator": "United States Postal Service", "operator:short": "USPS", "operator:type": "public", "operator:wikidata": "Q668687", "ref": "5801100002"}, "type": "Feature"}
{"geometry": {"coordinates": [-97.549968882, 46.919643442], "type": "Point"}, "id": "B5QF5wkKDqdCJmpojogcyiLfEt0=", "properties": {"@source_uri": "https://tools.usps.com/UspsToolsRestServices/rest/POLocator/findLocations", "@spider": "usps_collection_boxes", "addr:city": "BUFFALO", "addr:country": "US", "addr:postcode": "58011", "addr:state": "ND", "addr:street_address": "305 MAIN ST", "amenity": "post_box", "collection_times": "Mo-Fr 12:00; Sa 09:00", "indoor": "yes", "nsi_id": "unitedstatespostalservice-a77078", "operator": "United States Postal Service", "operator:short": "USPS", "operator:type": "public", "operator:wikidata": "Q668687", "ref": "5801100005"}, "type": "Feature"}
{"geometry": {"coordinates": [-97.208460356, 46.900425435], "type": "Point"}, "id": "S-z4m7cYGD5a1guefh4Os9iQm4A=", "properties": {"@source_uri": "https://tools.usps.com/UspsToolsRestServices/rest/POLocator/findLocations", "@spider": "usps_collection_boxes", "addr:city": "CASSELTON", "addr:country": "US", "addr:postcode": "58012", "addr:state": "ND", "addr:street_address": "840 FRONT ST", "amenity": "post_box", "collection_times": "Mo-Fr 16:15; Sa 10:15", "note": "ON 12/24 AND 12/31, THIS BOX MAY BE COLLECTED AS EARLY AS 12 NOON.", "nsi_id": "unitedstatespostalservice-a77078", "operator": "United States Postal Service", "operator:short": "USPS", "operator:type": "public", "operator:wikidata": "Q668687", "ref": "5801200002"}, "type": "Feature"}
{"geometry": {"coordinates": [-97.2084490104, 46.9005819815], "type": "Point"}, "id": "-Apich3C_7sNPfStXT603wG1HFo=", "properties": {"@source_uri": "https://tools.usps.com/UspsToolsRestServices/rest/POLocator/findLocations", "@spider": "usps_collection_boxes", "addr:city": "CASSELTON", "addr:country": "US", "addr:postcode": "58012", "addr:state": "ND", "addr:street_address": "840 FRONT ST", "amenity": "post_box", "collection_times": "Mo-Fr 16:30", "indoor": "yes", "note": "ON 12/24 AND 12/31, THIS BOX MAY BE COLLECTED AS EARLY AS 12 NOON.", "nsi_id": "unitedstatespostalservice-a77078", "operator": "United States Postal Service", "operator:short": "USPS", "operator:type": "public", "operator:wikidata": "Q668687", "ref": "5801200003"}, "type": "Feature"}
{"geometry": {"coordinates": [-97.208460356, 46.900425435], "type": "Point"}, "id": "jd_pZ93OHLufmPUwQkri5GsjLdM=", "properties": {"@source_uri": "https://tools.usps.com/UspsToolsRestServices/rest/POLocator/findLocations", "@spider": "usps_collection_boxes", "addr:city": "CASSELTON", "addr:country": "US", "addr:postcode": "58012", "addr:state": "ND", "addr:street_address": "840 FRONT ST", "amenity": "post_box", "collection_times": "Mo-Fr 16:30; Sa 10:30", "indoor": "yes", "note": "ON 12/24 AND 12/31, THIS BOX MAY BE COLLECTED AS EARLY AS 12 NOON.", "nsi_id": "unitedstatespostalservice-a77078", "operator": "United States Postal Service", "operator:short": "USPS", "operator:type": "public", "operator:wikidata": "Q668687", "ref": "5801200007"}, "type": "Feature"}
{"geometry": {"coordinates": [-96.805282888, 46.574741482], "type": "Point"}, "id": "NdNhNvKyrFWLnaJWNtvHIFizgrs=", "properties": {"@source_uri": "https://tools.usps.com/UspsToolsRestServices/rest/POLocator/findLocations", "@spider": "usps_collection_boxes", "addr:city": "CHRISTINE", "addr:country": "US", "addr:postcode": "58015", "addr:state": "ND", "addr:street_address": "209 MAINE ST", "amenity": "post_box", "collection_times": "Mo-Fr 16:15; Sa 08:45", "note": "ON 12/24 AND 12/31, THIS BOX MAY BE COLLECTED AS EARLY AS 12 NOON.", "nsi_id": "unitedstatespostalservice-a77078", "operator": "United States Postal Service", "operator:short": "USPS", "operator:type": "public", "operator:wikidata": "Q668687", "ref": "5801500001"}, "type": "Feature"}
{"geometry": {"coordinates": [-96.805282888, 46.574741482], "type": "Point"}, "id": "cXYLrlxe4zRe3t_h_K3cw9ML1yE=", "properties": {"@source_uri": "https://tools.usps.com/UspsToolsRestServices/rest/POLocator/findLocations", "@spider": "usps_collection_boxes", "addr:city": "CHRISTINE", "addr:country": "US", "addr:postcode": "58015", "addr:state": "ND", "addr:street_address": "209 MAINE ST", "amenity": "post_box", "collection_times": "Mo-Fr 16:30", "indoor": "yes", "note": "ON 12/24 AND 12/31, THIS BOX MAY BE COLLECTED AS EARLY AS 12 NOON.", "nsi_id": "unitedstatespostalservice-a77078", "operator": "United States Postal Service", "operator:short": "USPS", "operator:type": "public", "operator:wikidata": "Q668687", "ref": "5801500002"}, "type": "Feature"}
{"geometry": {"coordinates": [-96.805282888, 46.574741482], "type": "Point"}, "id": "AygPiWco5j22TXWVMq8ZxNaEJf0=", "properties": {"@source_uri": "https://tools.usps.com/UspsToolsRestServices/rest/POLocator/findLocations", "@spider": "usps_collection_boxes", "addr:city": "CHRISTINE", "addr:country": "US", "addr:postcode": "58015", "addr:state": "ND", "addr:street_address": "209 MAINE ST", "amenity": "post_box", "collection_times": "Mo-Fr 16:30; Sa 09:45", "indoor": "yes", "note": "ON 12/24 AND 12/31, THIS BOX MAY BE COLLECTED AS EARLY AS 12 NOON.", "nsi_id": "unitedstatespostalservice-a77078", "operator": "United States Postal Service", "operator:short": "USPS", "operator:type": "public", "operator:wikidata": "Q668687", "ref": "5801500003"}, "type": "Feature"}
{"geometry": {"coordinates": [-97.412239262, 47.348152796], "type": "Point"}, "id": "GosBuOUZNyZ4qsOAEf1Ry-yxD74=", "properties": {"@source_uri": "https://tools.usps.com/UspsToolsRestServices/rest/POLocator/findLocations", "@spider": "usps_collection_boxes", "addr:city": "CLIFFORD", "addr:country": "US", "addr:postcode": "58016", "addr:state": "ND", "addr:street_address": "100 GARFIELD AVE W", "amenity": "post_box", "collection_times": "Mo-Fr 10:45; Sa 10:15", "nsi_id": "unitedstatespostalservice-a77078", "operator": "United States Postal Service", "operator:short": "USPS", "operator:type": "public", "operator:wikidata": "Q668687", "ref": "5801600001"}, "type": "Feature"}
{"geometry": {"coordinates": [-97.412239262, 47.348152796], "type": "Point"}, "id": "rivAGQN3N1HtxeOb0M_-8ClJWR0=", "properties": {"@source_uri": "https://tools.usps.com/UspsToolsRestServices/rest/POLocator/findLocations", "@spider": "usps_collection_boxes", "addr:city": "CLIFFORD", "addr:country": "US", "addr:postcode": "58016", "addr:state": "ND", "addr:street_address": "100 GARFIELD AVE W", "amenity": "post_box", "collection_times": "Mo-Fr 10:50", "indoor": "yes", "nsi_id": "unitedstatespostalservice-a77078", "operator": "United States Postal Service", "operator:short": "USPS", "operator:type": "public", "operator:wikidata": "Q668687", "ref": "5801600002"}, "type": "Feature"}
{"geometry": {"coordinates": [-97.412239262, 47.348152796], "type": "Point"}, "id": "dnNC14cZCe8rTmL7aJaJPHeLfLY=", "properties": {"@source_uri": "https://tools.usps.com/UspsToolsRestServices/rest/POLocator/findLocations", "@spider": "usps_collection_boxes", "addr:city": "CLIFFORD", "addr:country": "US", "addr:postcode": "58016", "addr:state": "ND", "addr:street_address": "100 GARFIELD AVE W", "amenity": "post_box", "collection_times": "Mo-Fr 10:50; Sa 10:30", "indoor": "yes", "nsi_id": "unitedstatespostalservice-a77078", "operator": "United States Postal Service", "operator:short": "USPS", "operator:type": "public", "operator:wikidata": "Q668687", "ref": "5801600003"}, "type": "Feature"}
{"geometry": {"coordinates": [-97.781961096, 46.106722404], "type": "Point"}, "id": "w397bgCap6jU2leNqt3C8hWBUk0=", "properties": {"@source_uri": "https://tools.usps.com/UspsToolsRestServices/rest/POLocator/findLocations", "@spider": "usps_collection_boxes", "addr:city": "COGSWELL", "addr:country": "US", "addr:postcode": "58017", "addr:state": "ND", "addr:street_address": "299 4TH AVE", "amenity": "post_box", "collection_times": "Mo-Sa 10:45", "nsi_id": "unitedstatespostalservice-a77078", "operator": "United States Postal Service", "operator:short": "USPS", "operator:type": "public", "operator:wikidata": "Q668687", "ref": "5801700001"}, "type": "Feature"}
{"geometry": {"coordinates": [-97.781961096, 46.106722404], "type": "Point"}, "id": "ULjUi_d0iYqzHQYR-M2zroOsBy0=", "properties": {"@source_uri": "https://tools.usps.com/UspsToolsRestServices/rest/POLocator/findLocations", "@spider": "usps_collection_boxes", "addr:city": "COGSWELL", "addr:country": "US", "addr:postcode": "58017", "addr:state": "ND", "addr:street_address": "299 4TH AVE", "amenity": "post_box", "collection_times": "Mo-Fr 10:45", "indoor": "yes", "nsi_id": "unitedstatespostalservice-a77078", "operator": "United States Postal Service", "operator:short": "USPS", "operator:type": "public", "operator:wikidata": "Q668687", "ref": "5801700002"}, "type": "Feature"}
{"geometry": {"coordinates": [-97.781961096, 46.106722404], "type": "Point"}, "id": "1ppoarmTEe-SxfvKlI-ot8WrXIc=", "properties": {"@source_uri": "https://tools.usps.com/UspsToolsRestServices/rest/POLocator/findLocations", "@spider": "usps_collection_boxes", "addr:city": "COGSWELL", "addr:country": "US", "addr:postcode": "58017", "addr:state": "ND", "addr:street_address": "299 4TH AVE", "amenity": "post_box", "collection_times": "Mo-Sa 10:45", "indoor": "yes", "nsi_id": "unitedstatespostalservice-a77078", "operator": "United States Postal Service", "operator:short": "USPS", "operator:type": "public", "operator:wikidata": "Q668687", "ref": "5801700003"}, "type": "Feature"}
{"geometry": {"coordinates": [-96.875271168, 46.470832492], "type": "Point"}, "id": "bxPJiP_ALjLUKepgXbYrRiSD2DQ=", "properties": {"@source_uri": "https://tools.usps.com/UspsToolsRestServices/rest/POLocator/findLocations", "@spider": "usps_collection_boxes", "addr:city": "COLFAX", "addr:country": "US", "addr:postcode": "58018", "addr:state": "ND", "addr:street_address": "206 MAIN AVE", "amenity": "post_box", "collection_times": "Mo-Fr 16:15; Sa 10:45", "note": "ON 12/24 AND 12/31, THIS BOX MAY BE COLLECTED AS EARLY AS 12 NOON.", "nsi_id": "unitedstatespostalservice-a77078", "operator": "United States Postal Service", "operator:short": "USPS", "operator:type": "public", "operator:wikidata": "Q668687", "ref": "5801800001"}, "type": "Feature"}
{"geometry": {"coordinates": [-96.875271168, 46.470832492], "type": "Point"}, "id": "w9-oyYJFthlKioJSRCf85VzDOcY=", "properties": {"@source_uri": "https://tools.usps.com/UspsToolsRestServices/rest/POLocator/findLocations", "@spider": "usps_collection_boxes", "addr:city": "COLFAX", "addr:country": "US", "addr:postcode": "58018", "addr:state": "ND", "addr:street_address": "206 MAIN AVE", "amenity": "post_box", "collection_times": "Mo-Fr 16:15", "indoor": "yes", "note": "ON 12/24 AND 12/31, THIS BOX MAY BE COLLECTED AS EARLY AS 12 NOON.", "nsi_id": "unitedstatespostalservice-a77078", "operator": "United States Postal Service", "operator:short": "USPS", "operator:type": "public", "operator:wikidata": "Q668687", "ref": "5801800002"}, "type": "Feature"}
{"geometry": {"coordinates": [-96.875271168, 46.470832492], "type": "Point"}, "id": "NVCczBnTscVe99Ap4wTmM6-RE5o=", "properties": {"@source_uri": "https://tools.usps.com/UspsToolsRestServices/rest/POLocator/findLocations", "@spider": "usps_collection_boxes", "addr:city": "COLFAX", "addr:country": "US", "addr:postcode": "58018", "addr:state": "ND", "addr:street_address": "206 MAIN AVE", "amenity": "post_box", "collection_times": "Mo-Fr 16:15; Sa 11:00", "indoor": "yes", "note": "ON 12/24 AND 12/31, THIS BOX MAY BE COLLECTED AS EARLY AS 12 NOON.", "nsi_id": "unitedstatespostalservice-a77078", "operator": "United States Postal Service", "operator:short": "USPS", "operator:type": "public", "operator:wikidata": "Q668687", "ref": "5801800003"}, "type": "Feature"}
{"geometry": {"coordinates": [-97.070177065, 46.711869959], "type": "Point"}, "id": "4o6GLJQU_Zhwq9hhrS3fUTUohH4=", "properties": {"@source_uri": "https://tools.usps.com/UspsToolsRestServices/rest/POLocator/findLocations", "@spider": "usps_collection_boxes", "addr:city": "DAVENPORT", "addr:country": "US", "addr:postcode": "58021", "addr:state": "ND", "addr:street_address": "50 1ST AVE", "amenity": "post_box", "collection_times": "Mo-Fr 10:45; Sa 08:45", "nsi_id": "unitedstatespostalservice-a77078", "operator": "United States Postal Service", "operator:short": "USPS", "operator:type": "public", "operator:wikidata": "Q668687", "ref": "5802100001"}, "type": "Feature"}
{"geometry": {"coordinates": [-97.070177065, 46.711869959], "type": "Point"}, "id": "LoXA0KtxAGy7jL2stJXy67WvTic=", "properties": {"@source_uri": "https://tools.usps.com/UspsToolsRestServices/rest/POLocator/findLocations", "@spider": "usps_collection_boxes", "addr:city": "DAVENPORT", "addr:country": "US", "addr:postcode": "58021", "addr:state": "ND", "addr:street_address": "50 1ST AVE", "amenity": "post_box", "collection_times": "Mo-Fr 11:00", "indoor": "yes", "nsi_id": "unitedstatespostalservice-a77078", "operator": "United States Postal Service", "operator:short": "USPS", "operator:type": "public", "operator:wikidata": "Q668687", "ref": "5802100002"}, "type": "Feature"}
{"geometry": {"coordinates": [-97.070177065, 46.711869959], "type": "Point"}, "id": "7L1vPqWbi5WVZVWzzIwoFK5dOiU=", "properties": {"@source_uri": "https://tools.usps.com/UspsToolsRestServices/rest/POLocator/findLocations", "@spider": "usps_collection_boxes", "addr:city": "DAVENPORT", "addr:country": "US", "addr:postcode": "58021", "addr:state": "ND", "addr:street_address": "50 1ST AVE", "amenity": "post_box", "collection_times": "Mo-Fr 11:00; Sa 09:00", "indoor": "yes", "nsi_id": "unitedstatespostalservice-a77078", "operator": "United States Postal Service", "operator:short": "USPS", "operator:type": "public", "operator:wikidata": "Q668687", "ref": "5802100003"}, "type": "Feature"}
{"geometry": {"coordinates": [-97.602084793, 46.624604879], "type": "Point"}, "id": "E91cnaoMAD_NpSm7Uc2R_wMD4Vs=", "properties": {"@source_uri": "https://tools.usps.com/UspsToolsRestServices/rest/POLocator/findLocations", "@spider": "usps_collection_boxes", "addr:city": "ENDERLIN", "addr:country": "US", "addr:postcode": "58027", "addr:state": "ND", "addr:street_address": "309 RAILWAY ST", "amenity": "post_box", "collection_times": "Mo-Sa 17:00", "note": "ON 12/24 AND 12/31, THIS BOX MAY BE COLLECTED AS EARLY AS 12 NOON.", "nsi_id": "unitedstatespostalservice-a77078", "operator": "United States Postal Service", "operator:short": "USPS", "operator:type": "public", "operator:wikidata": "Q668687", "ref": "5802700001"}, "type": "Feature"}
{"geometry": {"coordinates": [-97.602084793, 46.624604879], "type": "Point"}, "id": "zTRcWohR_LEM0OhPn7NTksRae1M=", "properties": {"@source_uri": "https://tools.usps.com/UspsToolsRestServices/rest/POLocator/findLocations", "@spider": "usps_collection_boxes", "addr:city": "ENDERLIN", "addr:country": "US", "addr:postcode": "58027", "addr:state": "ND", "addr:street_address": "309 RAILWAY ST", "amenity": "post_box", "collection_times": "Mo-Fr 14:00", "indoor": "yes", "note": "ON 12/24 AND 12/31, THIS BOX MAY BE COLLECTED AS EARLY AS 12 NOON.", "nsi_id": "unitedstatespostalservice-a77078", "operator": "United States Postal Service", "operator:short": "USPS", "operator:type": "public", "operator:wikidata": "Q668687", "ref": "5802700002"}, "type": "Feature"}
{"geometry": {"coordinates": [-97.602084793, 46.624604879], "type": "Point"}, "id": "alKzA9ubEw7cgEQng7VNBpEuwBM=", "properties": {"@source_uri": "https://tools.usps.com/UspsToolsRestServices/rest/POLocator/findLocations", "@spider": "usps_collection_boxes", "addr:city": "ENDERLIN", "addr:country": "US", "addr:postcode": "58027", "addr:state": "ND", "addr:street_address": "309 RAILWAY ST", "amenity": "post_box", "collection_times": "Mo-Fr 14:00; Sa 10:00", "indoor": "yes", "note": "ON 12/24 AND 12/31, THIS BOX MAY BE COLLECTED AS EARLY AS 12 NOON.", "nsi_id": "unitedstatespostalservice-a77078", "operator": "United States Postal Service", "operator:short": "USPS", "operator:type": "public", "operator:wikidata": "Q668687", "ref": "5802700003"}, "type": "Feature"}
{"geometry": {"coordinates": [-97.387951314, 47.11522262], "type": "Point"}, "id": "D9LzK5dZ0mvyYr5mF_ElKAwLSXo=", "properties": {"@source_uri": "https://tools.usps.com/UspsToolsRestServices/rest/POLocator/findLocations", "@spider": "usps_collection_boxes", "addr:city": "ERIE", "addr:country": "US", "addr:postcode": "58029", "addr:state": "ND", "addr:street_address": "406 MAIN AVE", "amenity": "post_box", "collection_times": "Mo-Fr 14:45; Sa 11:30", "note": "ON 12/24 AND 12/31, THIS BOX MAY BE COLLECTED AS EARLY AS 12 NOON.", "nsi_id": "unitedstatespostalservice-a77078", "operator": "United States Postal Service", "operator:short": "USPS", "operator:type": "public", "operator:wikidata": "Q668687", "ref": "5802900001"}, "type": "Feature"}
{"geometry": {"coordinates": [-97.387951314, 47.11522262], "type": "Point"}, "id": "yW8gA3Hb537KwkeEWKY5Xr8a5UA=", "properties": {"@source_uri": "https://tools.usps.com/UspsToolsRestServices/rest/POLocator/findLocations", "@spider": "usps_collection_boxes", "addr:city": "ERIE", "addr:country": "US", "addr:postcode": "58029", "addr:state": "ND", "addr:street_address": "406 MAIN AVE", "amenity": "post_box", "collection_times": "Mo-Fr 14:50", "indoor": "yes", "note": "ON 12/24 AND 12/31, THIS BOX MAY BE COLLECTED AS EARLY AS 12 NOON.", "nsi_id": "unitedstatespostalservice-a77078", "operator": "United States Postal Service", "operator:short": "USPS", "operator:type": "public", "operator:wikidata": "Q668687", "ref": "5802900004"}, "type": "Feature"}
{"geometry": {"coordinates": [-97.387951314, 47.11522262], "type": "Point"}, "id": "tmsy5uSpvq84nksaKg96toizPTY=", "properties": {"@source_uri": "https://tools.usps.com/UspsToolsRestServices/rest/POLocator/findLocations", "@spider": "usps_collection_boxes", "addr:city": "ERIE", "addr:country": "US", "addr:postcode": "58029", "addr:state": "ND", "addr:street_address": "406 MAIN AVE", "amenity": "post_box", "collection_times": "Mo-Fr 14:50; Sa 11:45", "indoor": "yes", "note": "ON 12/24 AND 12/31, THIS BOX MAY BE COLLECTED AS EARLY AS 12 NOON.", "nsi_id": "unitedstatespostalservice-a77078", "operator": "United States Postal Service", "operator:short": "USPS", "operator:type": "public", "operator:wikidata": "Q668687", "ref": "5802900005"}, "type": "Feature"}
{"geometry": {"coordinates": [-96.603372, 46.054984566], "type": "Point"}, "id": "vNt7Ahzm_pMNP-xh015BG-X_8xg=", "properties": {"@source_uri": "https://tools.usps.com/UspsToolsRestServices/rest/POLocator/findLocations", "@spider": "usps_collection_boxes", "addr:city": "FAIRMOUNT", "addr:country": "US", "addr:postcode": "58030", "addr:state": "ND", "addr:street_address": "202 MAIN AVE", "amenity": "post_box", "collection_times": "Mo-Fr 11:45; Sa 08:45", "nsi_id": "unitedstatespostalservice-a77078", "operator": "United States Postal Service", "operator:short": "USPS", "operator:type": "public", "operator:wikidata": "Q668687", "ref": "5803000001"}, "type": "Feature"}
{"geometry": {"coordinates": [-96.603372, 46.054984566], "type": "Point"}, "id": "FF1GCHP0zc9LgX78dCCeTDkeHN0=", "properties": {"@source_uri": "https://tools.usps.com/UspsToolsRestServices/rest/POLocator/findLocations", "@spider": "usps_collection_boxes", "addr:city": "FAIRMOUNT", "addr:country": "US", "addr:postcode": "58030", "addr:state": "ND", "addr:street_address": "202 MAIN AVE", "amenity": "post_box", "collection_times": "Mo-Fr 11:45", "indoor": "yes", "nsi_id": "unitedstatespostalservice-a77078", "operator": "United States Postal Service", "operator:short": "USPS", "operator:type": "public", "operator:wikidata": "Q668687", "ref": "5803000002"}, "type": "Feature"}
{"geometry": {"coordinates": [-96.603372, 46.054984566], "type": "Point"}, "id": "3949zU1OGO6trFPf1V8Bc6QNGGs=", "properties": {"@source_uri": "https://tools.usps.com/UspsToolsRestServices/rest/POLocator/findLocations", "@spider": "usps_collection_boxes", "addr:city": "FAIRMOUNT", "addr:country": "US", "addr:postcode": "58030", "addr:state": "ND", "addr:street_address": "202 MAIN AVE", "amenity": "post_box", "collection_times": "Mo-Fr 00:00; Sa 09:00", "indoor": "yes", "nsi_id": "unitedstatespostalservice-a77078", "operator": "United States Postal Service", "operator:short": "USPS", "operator:type": "public", "operator:wikidata": "Q668687", "ref": "5803000003"}, "type": "Feature"}
{"geometry": {"coordinates": [-97.79204488, 46.762625398], "type": "Point"}, "id": "fNCQ8sHj0irU47gtiaCC9_IxkoE=", "properties": {"@source_uri": "https://tools.usps.com/UspsToolsRestServices/rest/POLocator/findLocations", "@spider": "usps_collection_boxes", "addr:city": "FINGAL", "addr:country": "US", "addr:postcode": "58031", "addr:state": "ND", "addr:street_address": "406 3RD ST", "amenity": "post_box", "collection_times": "Mo-Fr 11:45; Sa 08:45", "nsi_id": "unitedstatespostalservice-a77078", "operator": "United States Postal Service", "operator:short": "USPS", "operator:type": "public", "operator:wikidata": "Q668687", "ref": "5803100001"}, "type": "Feature"}
{"geometry": {"coordinates": [-97.79204488, 46.762625398], "type": "Point"}, "id": "DEB92iWfKY5j4Gfbn-rwr-bVbT8=", "properties": {"@source_uri": "https://tools.usps.com/UspsToolsRestServices/rest/POLocator/findLocations", "@spider": "usps_collection_boxes", "addr:city": "FINGAL", "addr:country": "US", "addr:postcode": "58031", "addr:state": "ND", "addr:street_address": "406 3RD ST", "amenity": "post_box", "collection_times": "Mo-Fr 12:00", "indoor": "yes", "nsi_id": "unitedstatespostalservice-a77078", "operator": "United States Postal Service", "operator:short": "USPS", "operator:type": "public", "operator:wikidata": "Q668687", "ref": "5803100003"}, "type": "Feature"}
{"geometry": {"coordinates": [-97.7920448803, 46.7626253985], "type": "Point"}, "id": "xZ6sbV7zHZXkN57jeR1aIJZCPyU=", "properties": {"@source_uri": "https://tools.usps.com/UspsToolsRestServices/rest/POLocator/findLocations", "@spider": "usps_collection_boxes", "addr:city": "FINGAL", "addr:country": "US", "addr:postcode": "58031", "addr:state": "ND", "addr:street_address": "406 3RD ST", "amenity": "post_box", "collection_times": "Mo-Fr 12:00; Sa 09:00", "indoor": "yes", "nsi_id": "unitedstatespostalservice-a77078", "operator": "United States Postal Service", "operator:short": "USPS", "operator:type": "public", "operator:wikidata": "Q668687", "ref": "5803100004"}, "type": "Feature"}
{"geometry": {"coordinates": [-97.636443436, 46.107377371], "type": "Point"}, "id": "ImUqTu_nfqDTt39EGC3wdpckP8s=", "properties": {"@source_uri": "https://tools.usps.com/UspsToolsRestServices/rest/POLocator/findLocations", "@spider": "usps_collection_boxes", "addr:city": "FORMAN", "addr:country": "US", "addr:postcode": "58032", "addr:state": "ND", "addr:street_address": "333 MAIN ST S", "amenity": "post_box", "collection_times": "Mo-Fr 14:15; Sa 09:45", "note": "ON 12/24 AND 12/31, THIS BOX MAY BE COLLECTED AS EARLY AS 12 NOON.", "nsi_id": "unitedstatespostalservice-a77078", "operator": "United States Postal Service", "operator:short": "USPS", "operator:type": "public", "operator:wikidata": "Q668687", "ref": "5803200001"}, "type": "Feature"}
{"geometry": {"coordinates": [-97.636443436, 46.107377371], "type": "Point"}, "id": "68jsbMKouMWf2fTuVonM6LNXQJk=", "properties": {"@source_uri": "https://tools.usps.com/UspsToolsRestServices/rest/POLocator/findLocations", "@spider": "usps_collection_boxes", "addr:city": "FORMAN", "addr:country": "US", "addr:postcode": "58032", "addr:state": "ND", "addr:street_address": "333 MAIN ST S", "amenity": "post_box", "collection_times": "Mo-Fr 14:15", "indoor": "yes", "note": "ON 12/24 AND 12/31, THIS BOX MAY BE COLLECTED AS EARLY AS 12 NOON.", "nsi_id": "unitedstatespostalservice-a77078", "operator": "United States Postal Service", "operator:short": "USPS", "operator:type": "public", "operator:wikidata": "Q668687", "ref": "5803200002"}, "type": "Feature"}
{"geometry": {"coordinates": [-97.636443436, 46.107377371], "type": "Point"}, "id": "Ih8D_ZNuafy5SuaVWGLUUk4YfPU=", "properties": {"@source_uri": "https://tools.usps.com/UspsToolsRestServices/rest/POLocator/findLocations", "@spider": "usps_collection_boxes", "addr:city": "FORMAN", "addr:country": "US", "addr:postcode": "58032", "addr:state": "ND", "addr:street_address": "333 MAIN ST S", "amenity": "post_box", "collection_times": "Mo-Fr 14:15; Sa 10:00", "indoor": "yes", "note": "ON 12/24 AND 12/31, THIS BOX MAY BE COLLECTED AS EARLY AS 12 NOON.", "nsi_id": "unitedstatespostalservice-a77078", "operator": "United States Postal Service", "operator:short": "USPS", "operator:type": "public", "operator:wikidata": "Q668687", "ref": "5803200003"}, "type": "Feature"}
{"geometry": {"coordinates": [-97.927176685, 46.520243875], "type": "Point"}, "id": "rN30f3JHu6fM1pzHIsVjIOQ8Eck=", "properties": {"@source_uri": "https://tools.usps.com/UspsToolsRestServices/rest/POLocator/findLocations", "@spider": "usps_collection_boxes", "addr:city": "FORT RANSOM", "addr:country": "US", "addr:postcode": "58033", "addr:state": "ND", "addr:street_address": "102 E MAIN ST", "amenity": "post_box", "collection_times": "Mo-Fr 12:15; Sa 10:45", "note": "ON 12/24 AND 12/31, THIS BOX MAY BE COLLECTED AS EARLY AS 12 NOON.", "nsi_id": "unitedstatespostalservice-a77078", "operator": "United States Postal Service", "operator:short": "USPS", "operator:type": "public", "operator:wikidata": "Q668687", "ref": "5803300001"}, "type": "Feature"}
{"geometry": {"coordinates": [-97.927176685, 46.520243875], "type": "Point"}, "id": "3iy6Hbbb86CYHuTeyVV-yAui5eo=", "properties": {"@source_uri": "https://tools.usps.com/UspsToolsRestServices/rest/POLocator/findLocations", "@spider": "usps_collection_boxes", "addr:city": "FORT RANSOM", "addr:country": "US", "addr:postcode": "58033", "addr:state": "ND", "addr:street_address": "102 E MAIN ST", "amenity": "post_box", "collection_times": "Mo-Fr 12:15", "indoor": "yes", "note": "ON 12/24 AND 12/31, THIS BOX MAY BE COLLECTED AS EARLY AS 12 NOON.", "nsi_id": "unitedstatespostalservice-a77078", "operator": "United States Postal Service", "operator:short": "USPS", "operator:type": "public", "operator:wikidata": "Q668687", "ref": "5803300002"}, "type": "Feature"}
{"geometry": {"coordinates": [-97.927176685, 46.520243875], "type": "Point"}, "id": "idU6xGLJbReHFbGpnM_NuG5xsfA=", "properties": {"@source_uri": "https://tools.usps.com/UspsToolsRestServices/rest/POLocator/findLocations", "@spider": "usps_collection_boxes", "addr:city": "FORT RANSOM", "addr:country": "US", "addr:postcode": "58033", "addr:state": "ND", "addr:street_address": "102 E MAIN ST", "amenity": "post_box", "collection_times": "Mo-Fr 12:20; Sa 11:00", "indoor": "yes", "note": "ON 12/24 AND 12/31, THIS BOX MAY BE COLLECTED AS EARLY AS 12 NOON.", "nsi_id": "unitedstatespostalservice-a77078", "operator": "United States Postal Service", "operator:short": "USPS", "operator:type": "public", "operator:wikidata": "Q668687", "ref": "5803300003"}, "type": "Feature"}
{"geometry": {"coordinates": [-97.408091886, 47.270082877], "type": "Point"}, "id": "wDx3vULEsrCnHQ2QCmyenO_BrKY=", "properties": {"@source_uri": "https://tools.usps.com/UspsToolsRestServices/rest/POLocator/findLocations", "@spider": "usps_collection_boxes", "addr:city": "GALESBURG", "addr:country": "US", "addr:postcode": "58035", "addr:state": "ND", "addr:street_address": "102 DAKOTA AVE E", "amenity": "post_box", "collection_times": "Mo-Fr 11:45; Sa 10:00", "nsi_id": "unitedstatespostalservice-a77078", "operator": "United States Postal Service", "operator:short": "USPS", "operator:type": "public", "operator:wikidata": "Q668687", "ref": "5803500001"}, "type": "Feature"}
{"geometry": {"coordinates": [-97.408091886, 47.270082877], "type": "Point"}, "id": "D_gkUrouKhinciW8q7iuxfi0etI=", "properties": {"@source_uri": "https://tools.usps.com/UspsToolsRestServices/rest/POLocator/findLocations", "@spider": "usps_collection_boxes", "addr:city": "GALESBURG", "addr:country": "US", "addr:postcode": "58035", "addr:state": "ND", "addr:street_address": "102 DAKOTA AVE E", "amenity": "post_box", "collection_times": "Mo-Fr 12:00", "indoor": "yes", "nsi_id": "unitedstatespostalservice-a77078", "operator": "United States Postal Service", "operator:short": "USPS", "operator:type": "public", "operator:wikidata": "Q668687", "ref": "5803500002"}, "type": "Feature"}
{"geometry": {"coordinates": [-97.4080918859, 47.2700828771], "type": "Point"}, "id": "GMB_dolQsuJdrV9cyrH3TLZnPPU=", "properties": {"@source_uri": "https://tools.usps.com/UspsToolsRestServices/rest/POLocator/findLocations", "@spider": "usps_collection_boxes", "addr:city": "GALESBURG", "addr:country": "US", "addr:postcode": "58035", "addr:state": "ND", "addr:street_address": "102 DAKOTA AVE E", "amenity": "post_box", "collection_times": "Mo-Fr 12:00; Sa 10:15", "indoor": "yes", "nsi_id": "unitedstatespostalservice-a77078", "operator": "United States Postal Service", "operator:short": "USPS", "operator:type": "public", "operator:wikidata": "Q668687", "ref": "5803500003"}, "type": "Feature"}
{"geometry": {"coordinates": [-97.00318936, 47.23662286], "type": "Point"}, "id": "64rW5jB50BjdtQdHldMQqphnLSQ=", "properties": {"@source_uri": "https://tools.usps.com/UspsToolsRestServices/rest/POLocator/findLocations", "@spider": "usps_collection_boxes", "addr:city": "GRANDIN", "addr:country": "US", "addr:postcode": "58038", "addr:state": "ND", "addr:street_address": "301 3RD ST", "amenity": "post_box", "collection_times": "Mo-Fr 11:45; Sa 08:30", "nsi_id": "unitedstatespostalservice-a77078", "operator": "United States Postal Service", "operator:short": "USPS", "operator:type": "public", "operator:wikidata": "Q668687", "ref": "5803800001"}, "type": "Feature"}
{"geometry": {"coordinates": [-97.00318936, 47.23662286], "type": "Point"}, "id": "UfQRkgAtCWZrqCL3JGobWTqQ5Zk=", "properties": {"@source_uri": "https://tools.usps.com/UspsToolsRestServices/rest/POLocator/findLocations", "@spider": "usps_collection_boxes", "addr:city": "GRANDIN", "addr:country": "US", "addr:postcode": "58038", "addr:state": "ND", "addr:street_address": "301 3RD ST", "amenity": "post_box", "collection_times": "Mo-Fr 12:00", "indoor": "yes", "nsi_id": "unitedstatespostalservice-a77078", "operator": "United States Postal Service", "operator:short": "USPS", "operator:type": "public", "operator:wikidata": "Q668687", "ref": "5803800002"}, "type": "Feature"}
{"geometry": {"coordinates": [-97.00318936, 47.23662286], "type": "Point"}, "id": "SFXjVJPujqvNjCakh6SFfjcSas0=", "properties": {"@source_uri": "https://tools.usps.com/UspsToolsRestServices/rest/POLocator/findLocations", "@spider": "usps_collection_boxes", "addr:city": "GRANDIN", "addr:country": "US", "addr:postcode": "58038", "addr:state": "ND", "addr:street_address": "301 3RD ST", "amenity": "post_box", "collection_times": "Mo-Fr 12:00; Sa 08:45", "indoor": "yes", "nsi_id": "unitedstatespostalservice-a77078", "operator": "United States Postal Service", "operator:short": "USPS", "operator:type": "public", "operator:wikidata": "Q668687", "ref": "5803800003"}, "type": "Feature"}
{"geometry": {"coordinates": [-97.662416684, 46.225416364], "type": "Point"}, "id": "kev6pM1nDxM6jL29W_XxVK_m70U=", "properties": {"@source_uri": "https://tools.usps.com/UspsToolsRestServices/rest/POLocator/findLocations", "@spider": "usps_collection_boxes", "addr:city": "GWINNER", "addr:country": "US", "addr:postcode": "58040", "addr:state": "ND", "addr:street_address": "21 S MAIN ST", "amenity": "post_box", "collection_times": "Mo-Fr 15:45; Sa 09:30", "note": "ON 12/24 AND 12/31, THIS BOX MAY BE COLLECTED AS EARLY AS 12 NOON.", "nsi_id": "unitedstatespostalservice-a77078", "operator": "United States Postal Service", "operator:short": "USPS", "operator:type": "public", "operator:wikidata": "Q668687", "ref": "5804000001"}, "type": "Feature"}
{"geometry": {"coordinates": [-97.738886, 46.21121], "type": "Point"}, "id": "PxRkLWIpekL2ia3BrI0-1iYTYFg=", "properties": {"@source_uri": "https://tools.usps.com/UspsToolsRestServices/rest/POLocator/findLocations", "@spider": "usps_collection_boxes", "addr:city": "GWINNER", "addr:country": "US", "addr:postcode": "58040", "addr:state": "ND", "addr:street_address": "415 HIGHWAY 13 E", "amenity": "post_box", "collection_times": "Mo-Sa 16:25", "note": "ON 12/24 AND 12/31, THIS BOX MAY BE COLLECTED AS EARLY AS 12 NOON.", "nsi_id": "unitedstatespostalservice-a77078", "operator": "United States Postal Service", "operator:short": "USPS", "operator:type": "public", "operator:wikidata": "Q668687", "ref": "5804000002"}, "type": "Feature"}
{"geometry": {"coordinates": [-97.662416684, 46.225416364], "type": "Point"}, "id": "MrcujdsnFHfbe6OX5LXIZFY6NNo=", "properties": {"@source_uri": "https://tools.usps.com/UspsToolsRestServices/rest/POLocator/findLocations", "@spider": "usps_collection_boxes", "addr:city": "GWINNER", "addr:country": "US", "addr:postcode": "58040", "addr:state": "ND", "addr:street_address": "21 S MAIN ST", "amenity": "post_box", "collection_times": "Mo-Fr 15:45", "indoor": "yes", "note": "ON 12/24 AND 12/31, THIS BOX MAY BE COLLECTED AS EARLY AS 12 NOON.", "nsi_id": "unitedstatespostalservice-a77078", "operator": "United States Postal Service", "operator:short": "USPS", "operator:type": "public", "operator:wikidata": "Q668687", "ref": "5804000003"}, "type": "Feature"}
{"geometry": {"coordinates": [-97.662416684, 46.225416364], "type": "Point"}, "id": "2w4TX_S4YESqpQuPr7O9zu6fPA4=", "properties": {"@source_uri": "https://tools.usps.com/UspsToolsRestServices/rest/POLocator/findLocations", "@spider": "usps_collection_boxes", "addr:city": "GWINNER", "addr:country": "US", "addr:postcode": "58040", "addr:state": "ND", "addr:street_address": "21 S MAIN ST", "amenity": "post_box", "collection_times": "Mo-Fr 15:45; Sa 10:15", "indoor": "yes", "note": "ON 12/24 AND 12/31, THIS BOX MAY BE COLLECTED AS EARLY AS 12 NOON.", "nsi_id": "unitedstatespostalservice-a77078", "operator": "United States Postal Service", "operator:short": "USPS", "operator:type": "public", "operator:wikidata": "Q668687", "ref": "5804000005"}, "type": "Feature"}
{"geometry": {"coordinates": [-96.902042682, 46.070665008], "type": "Point"}, "id": "QVtjai8LR5u1TJPg7UwiTqkp-r8=", "properties": {"@source_uri": "https://tools.usps.com/UspsToolsRestServices/rest/POLocator/findLocations", "@spider": "usps_collection_boxes", "addr:city": "HANKINSON", "addr:country": "US", "addr:postcode": "58041", "addr:state": "ND", "addr:street_address": "345 MAIN AVE S", "amenity": "post_box", "collection_times": "Mo-Fr 16:00; Sa 09:45", "note": "ON 12/24 AND 12/31, THIS BOX MAY BE COLLECTED AS EARLY AS 12 NOON.", "nsi_id": "unitedstatespostalservice-a77078", "operator": "United States Postal Service", "operator:short": "USPS", "operator:type": "public", "operator:wikidata": "Q668687", "ref": "5804100001"}, "type": "Feature"}
{"geometry": {"coordinates": [-96.902042682, 46.070665008], "type": "Point"}, "id": "UeAYAhVlpQBZu3803z0DpHR3eBA=", "properties": {"@source_uri": "https://tools.usps.com/UspsToolsRestServices/rest/POLocator/findLocations", "@spider": "usps_collection_boxes", "addr:city": "HANKINSON", "addr:country": "US", "addr:postcode": "58041", "addr:state": "ND", "addr:street_address": "345 MAIN AVE S", "amenity": "post_box", "collection_times": "Mo-Fr 16:15", "indoor": "yes", "note": "ON 12/24 AND 12/31, THIS BOX MAY BE COLLECTED AS EARLY AS 12 NOON.", "nsi_id": "unitedstatespostalservice-a77078", "operator": "United States Postal Service", "operator:short": "USPS", "operator:type": "public", "operator:wikidata": "Q668687", "ref": "5804100002"}, "type": "Feature"}
{"geometry": {"coordinates": [-96.9020426825, 46.0706650084], "type": "Point"}, "id": "A08HSAEcdd5JuRG77diyKUN_k18=", "properties": {"@source_uri": "https://tools.usps.com/UspsToolsRestServices/rest/POLocator/findLocations", "@spider": "usps_collection_boxes", "addr:city": "HANKINSON", "addr:country": "US", "addr:postcode": "58041", "addr:state": "ND", "addr:street_address": "345 MAIN AVE S", "amenity": "post_box", "collection_times": "Mo-Fr 16:15; Sa 10:00", "indoor": "yes", "note": "ON 12/24 AND 12/31, THIS BOX MAY BE COLLECTED AS EARLY AS 12 NOON.", "nsi_id": "unitedstatespostalservice-a77078", "operator": "United States Postal Service", "operator:short": "USPS", "operator:type": "public", "operator:wikidata": "Q668687", "ref": "5804100003"}, "type": "Feature"}
{"geometry": {"coordinates": [-96.889211665, 46.977205472], "type": "Point"}, "id": "dE0cB4VXmwqMG059SIHyl77yy6U=", "properties": {"@source_uri": "https://tools.usps.com/UspsToolsRestServices/rest/POLocator/findLocations", "@spider": "usps_collection_boxes", "addr:city": "HARWOOD", "addr:country": "US", "addr:postcode": "58042", "addr:state": "ND", "addr:street_address": "521 DAKOTA AVE", "amenity": "post_box", "collection_times": "Mo-Fr 13:45; Sa 09:15", "note": "ON 12/24 AND 12/31, THIS BOX MAY BE COLLECTED AS EARLY AS 12 NOON.", "nsi_id": "unitedstatespostalservice-a77078", "operator": "United States Postal Service", "operator:short": "USPS", "operator:type": "public", "operator:wikidata": "Q668687", "ref": "5804200001"}, "type": "Feature"}
{"geometry": {"coordinates": [-96.889211665, 46.977205472], "type": "Point"}, "id": "Pt2s4mh9TpqIo41ekcua3TyiCkg=", "properties": {"@source_uri": "https://tools.usps.com/UspsToolsRestServices/rest/POLocator/findLocations", "@spider": "usps_collection_boxes", "addr:city": "HARWOOD", "addr:country": "US", "addr:postcode": "58042", "addr:state": "ND", "addr:street_address": "521 DAKOTA AVE", "amenity": "post_box", "collection_times": "Mo-Fr 14:00", "indoor": "yes", "note": "ON 12/24 AND 12/31, THIS BOX MAY BE COLLECTED AS EARLY AS 12 NOON.", "nsi_id": "unitedstatespostalservice-a77078", "operator": "United States Postal Service", "operator:short": "USPS", "operator:type": "public", "operator:wikidata": "Q668687", "ref": "5804200003"}, "type": "Feature"}
{"geometry": {"coordinates": [-96.8816925, 46.977106466], "type": "Point"}, "id": "D00n5WurHgrEAiuKHYCBn2GD_Qg=", "properties": {"@source_uri": "https://tools.usps.com/UspsToolsRestServices/rest/POLocator/findLocations", "@spider": "usps_collection_boxes", "addr:city": "HARWOOD", "addr:country": "US", "addr:postcode": "58042", "addr:state": "ND", "addr:street_address": "310 DAKOTA AVE", "amenity": "post_box", "collection_times": "Mo-Sa 13:15", "note": "ON 12/24 AND 12/31, THIS BOX MAY BE COLLECTED AS EARLY AS 12 NOON.", "nsi_id": "unitedstatespostalservice-a77078", "operator": "United States Postal Service", "operator:short": "USPS", "operator:type": "public", "operator:wikidata": "Q668687", "ref": "5804200005"}, "type": "Feature"}
{"geometry": {"coordinates": [-96.889211665, 46.977205472], "type": "Point"}, "id": "5pg2JI4F_3SNtsrNnDg5rmc8UPY=", "properties": {"@source_uri": "https://tools.usps.com/UspsToolsRestServices/rest/POLocator/findLocations", "@spider": "usps_collection_boxes", "addr:city": "HARWOOD", "addr:country": "US", "addr:postcode": "58042", "addr:state": "ND", "addr:street_address": "521 DAKOTA AVE", "amenity": "post_box", "collection_times": "Mo-Fr 14:00; Sa 09:30", "indoor": "yes", "note": "ON 12/24 AND 12/31, THIS BOX MAY BE COLLECTED AS EARLY AS 12 NOON.", "nsi_id": "unitedstatespostalservice-a77078", "operator": "United States Postal Service", "operator:short": "USPS", "operator:type": "public", "operator:wikidata": "Q668687", "ref": "5804200007"}, "type": "Feature"}
{"geometry": {"coordinates": [-97.622250977, 45.949809746], "type": "Point"}, "id": "9E_T0uXCAWMm0mIWBppJqVGaUIQ=", "properties": {"@source_uri": "https://tools.usps.com/UspsToolsRestServices/rest/POLocator/findLocations", "@spider": "usps_collection_boxes", "addr:city": "HAVANA", "addr:country": "US", "addr:postcode": "58043", "addr:state": "ND", "addr:street_address": "112 SARGENT AVE W", "amenity": "post_box", "collection_times": "Mo-Sa 12:45", "note": "ON 12/24 AND 12/31, THIS BOX MAY BE COLLECTED AS EARLY AS 12 NOON.", "nsi_id": "unitedstatespostalservice-a77078", "operator": "United States Postal Service", "operator:short": "USPS", "operator:type": "public", "operator:wikidata": "Q668687", "ref": "5804300001"}, "type": "Feature"}
{"geometry": {"coordinates": [-97.622250977, 45.949809746], "type": "Point"}, "id": "gHS1VqDF-zicOPuL1AI5BuWyCL8=", "properties": {"@source_uri": "https://tools.usps.com/UspsToolsRestServices/rest/POLocator/findLocations", "@spider": "usps_collection_boxes", "addr:city": "HAVANA", "addr:country": "US", "addr:postcode": "58043", "addr:state": "ND", "addr:street_address": "112 SARGENT AVE W", "amenity": "post_box", "collection_times": "Mo-Fr 13:15", "indoor": "yes", "note": "ON 12/24 AND 12/31, THIS BOX MAY BE COLLECTED AS EARLY AS 12 NOON.", "nsi_id": "unitedstatespostalservice-a77078", "operator": "United States Postal Service", "operator:short": "USPS", "operator:type": "public", "operator:wikidata": "Q668687", "ref": "5804300002"}, "type": "Feature"}
{"geometry": {"coordinates": [-97.622250977, 45.949809746], "type": "Point"}, "id": "RtT0zOk_7pW4hnxwp7_Cirwhbvc=", "properties": {"@source_uri": "https://tools.usps.com/UspsToolsRestServices/rest/POLocator/findLocations", "@spider": "usps_collection_boxes", "addr:city": "HAVANA", "addr:country": "US", "addr:postcode": "58043", "addr:state": "ND", "addr:street_address": "112 SARGENT AVE W", "amenity": "post_box", "collection_times": "Mo-Sa 13:15", "indoor": "yes", "note": "ON 12/24 AND 12/31, THIS BOX MAY BE COLLECTED AS EARLY AS 12 NOON.", "nsi_id": "unitedstatespostalservice-a77078", "operator": "United States Postal Service", "operator:short": "USPS", "operator:type": "public", "operator:wikidata": "Q668687", "ref": "5804300003"}, "type": "Feature"}
{"geometry": {"coordinates": [-97.062806828, 47.40336627], "type": "Point"}, "id": "PvA66naFQAnMuODMu8Ld1SnC6no=", "properties": {"@source_uri": "https://tools.usps.com/UspsToolsRestServices/rest/POLocator/findLocations", "@spider": "usps_collection_boxes", "addr:city": "HILLSBORO", "addr:country": "US", "addr:postcode": "58045", "addr:state": "ND", "addr:street_address": "16 1ST ST NW", "amenity": "post_box", "collection_times": "Mo-Fr 15:45; Sa 09:45", "note": "ON 12/24 AND 12/31, THIS BOX MAY BE COLLECTED AS EARLY AS 12 NOON.", "nsi_id": "unitedstatespostalservice-a77078", "operator": "United States Postal Service", "operator:short": "USPS", "operator:type": "public", "operator:wikidata": "Q668687", "ref": "5804500001"}, "type": "Feature"}
{"geometry": {"coordinates": [-97.062806828, 47.40336627], "type": "Point"}, "id": "8387TLF7VJ5s2vSsEfmXqdJmGx0=", "properties": {"@source_uri": "https://tools.usps.com/UspsToolsRestServices/rest/POLocator/findLocations", "@spider": "usps_collection_boxes", "addr:city": "HILLSBORO", "addr:country": "US", "addr:postcode": "58045", "addr:state": "ND", "addr:street_address": "16 1ST ST NW", "amenity": "post_box", "collection_times": "Mo-Fr 16:00", "indoor": "yes", "note": "ON 12/24 AND 12/31, THIS BOX MAY BE COLLECTED AS EARLY AS 12 NOON.", "nsi_id": "unitedstatespostalservice-a77078", "operator": "United States Postal Service", "operator:short": "USPS", "operator:type": "public", "operator:wikidata": "Q668687", "ref": "5804500002"}, "type": "Feature"}
{"geometry": {"coordinates": [-97.7218425, 47.322232492], "type": "Point"}, "id": "jASTQQDHsqRGKAUqmjlR4B7af1w=", "properties": {"@source_uri": "https://tools.usps.com/UspsToolsRestServices/rest/POLocator/findLocations", "@spider": "usps_collection_boxes", "addr:city": "HOPE", "addr:country": "US", "addr:postcode": "58046", "addr:state": "ND", "addr:street_address": "206 STEELE AVE", "amenity": "post_box", "collection_times": "Mo-Fr 14:15; Sa 09:15", "note": "ON 12/24 AND 12/31, THIS BOX MAY BE COLLECTED AS EARLY AS 12 NOON.", "nsi_id": "unitedstatespostalservice-a77078", "operator": "United States Postal Service", "operator:short": "USPS", "operator:type": "public", "operator:wikidata": "Q668687", "ref": "5804600001"}, "type": "Feature"}
{"geometry": {"coordinates": [-97.7218425, 47.322232492], "type": "Point"}, "id": "Scad2oitH8_kDihlPM8wd6k5xRk=", "properties": {"@source_uri": "https://tools.usps.com/UspsToolsRestServices/rest/POLocator/findLocations", "@spider": "usps_collection_boxes", "addr:city": "HOPE", "addr:country": "US", "addr:postcode": "58046", "addr:state": "ND", "addr:street_address": "206 STEELE AVE", "amenity": "post_box", "collection_times": "Mo-Fr 14:00", "indoor": "yes", "note": "ON 12/24 AND 12/31, THIS BOX MAY BE COLLECTED AS EARLY AS 12 NOON.", "nsi_id": "unitedstatespostalservice-a77078", "operator": "United States Postal Service", "operator:short": "USPS", "operator:type": "public", "operator:wikidata": "Q668687", "ref": "5804600002"}, "type": "Feature"}
{"geometry": {"coordinates": [-96.90409194, 46.762155482], "type": "Point"}, "id": "xLfs_4eOfbnfN3gtyNuSO6I-X3k=", "properties": {"@source_uri": "https://tools.usps.com/UspsToolsRestServices/rest/POLocator/findLocations", "@spider": "usps_collection_boxes", "addr:city": "HORACE", "addr:country": "US", "addr:postcode": "58047", "addr:state": "ND", "addr:street_address": "91 MAIN ST N", "amenity": "post_box", "collection_times": "Mo-Fr 15:45; Sa 08:45", "note": "ON 12/24 AND 12/31, THIS BOX MAY BE COLLECTED AS EARLY AS 12 NOON.", "nsi_id": "unitedstatespostalservice-a77078", "operator": "United States Postal Service", "operator:short": "USPS", "operator:type": "public", "operator:wikidata": "Q668687", "ref": "5804700001"}, "type": "Feature"}
{"geometry": {"coordinates": [-96.9045429942, 46.7622809982], "type": "Point"}, "id": "e0NDO2dHpgRDf2rEAGbjNMEfd5I=", "properties": {"@source_uri": "https://tools.usps.com/UspsToolsRestServices/rest/POLocator/findLocations", "@spider": "usps_collection_boxes", "addr:city": "HORACE", "addr:country": "US", "addr:postcode": "58047", "addr:state": "ND", "addr:street_address": "91 MAIN ST N", "amenity": "post_box", "collection_times": "Mo-Fr 15:45; Sa 08:45", "indoor": "yes", "note": "ON 12/24 AND 12/31, THIS BOX MAY BE COLLECTED AS EARLY AS 12 NOON.", "nsi_id": "unitedstatespostalservice-a77078", "operator": "United States Postal Service", "operator:short": "USPS", "operator:type": "public", "operator:wikidata": "Q668687", "ref": "5804700003"}, "type": "Feature"}
{"geometry": {"coordinates": [-97.217352102, 47.189349], "type": "Point"}, "id": "b324magi2LMN49wEJRjGng5uTXE=", "properties": {"@source_uri": "https://tools.usps.com/UspsToolsRestServices/rest/POLocator/findLocations", "@spider": "usps_collection_boxes", "addr:city": "HUNTER", "addr:country": "US", "addr:postcode": "58048", "addr:state": "ND", "addr:street_address": "107 MAIN ST", "amenity": "post_box", "collection_times": "Mo-Fr 11:45; Sa 08:30", "nsi_id": "unitedstatespostalservice-a77078", "operator": "United States Postal Service", "operator:short": "USPS", "operator:type": "public", "operator:wikidata": "Q668687", "ref": "5804800001"}, "type": "Feature"}
{"geometry": {"coordinates": [-97.217352102, 47.189349], "type": "Point"}, "id": "VSBKqasmtY_oW-umsMTDWGz_I9k=", "properties": {"@source_uri": "https://tools.usps.com/UspsToolsRestServices/rest/POLocator/findLocations", "@spider": "usps_collection_boxes", "addr:city": "HUNTER", "addr:country": "US", "addr:postcode": "58048", "addr:state": "ND", "addr:street_address": "107 MAIN ST", "amenity": "post_box", "collection_times": "Mo-Fr 12:00", "indoor": "yes", "nsi_id": "unitedstatespostalservice-a77078", "operator": "United States Postal Service", "operator:short": "USPS", "operator:type": "public", "operator:wikidata": "Q668687", "ref": "5804800002"}, "type": "Feature"}
{"geometry": {"coordinates": [-97.972051998, 46.681197944], "type": "Point"}, "id": "lDyMlhmxu-I0QsbW-UFQypbc-Vw=", "properties": {"@source_uri": "https://tools.usps.com/UspsToolsRestServices/rest/POLocator/findLocations", "@spider": "usps_collection_boxes", "addr:city": "KATHRYN", "addr:country": "US", "addr:postcode": "58049", "addr:state": "ND", "addr:street_address": "307 1ST AVE", "amenity": "post_box", "collection_times": "Mo-Fr 11:15; Sa 08:45", "nsi_id": "unitedstatespostalservice-a77078", "operator": "United States Postal Service", "operator:short": "USPS", "operator:type": "public", "operator:wikidata": "Q668687", "ref": "5804900001"}, "type": "Feature"}
{"geometry": {"coordinates": [-97.972051998, 46.681197944], "type": "Point"}, "id": "Y4CBRjTTJnFepdfWDKZyz5TdQG8=", "properties": {"@source_uri": "https://tools.usps.com/UspsToolsRestServices/rest/POLocator/findLocations", "@spider": "usps_collection_boxes", "addr:city": "KATHRYN", "addr:country": "US", "addr:postcode": "58049", "addr:state": "ND", "addr:street_address": "307 1ST AVE", "amenity": "post_box", "collection_times": "Mo-Fr 11:30", "indoor": "yes", "nsi_id": "unitedstatespostalservice-a77078", "operator": "United States Postal Service", "operator:short": "USPS", "operator:type": "public", "operator:wikidata": "Q668687", "ref": "5804900002"}, "type": "Feature"}
{"geometry": {"coordinates": [-97.018393668, 46.6485765], "type": "Point"}, "id": "1E49Q7KGco-dnDmBHf6q8pHG_ys=", "properties": {"@source_uri": "https://tools.usps.com/UspsToolsRestServices/rest/POLocator/findLocations", "@spider": "usps_collection_boxes", "addr:city": "KINDRED", "addr:country": "US", "addr:postcode": "58051", "addr:state": "ND", "addr:street_address": "472 ELM ST", "amenity": "post_box", "collection_times": "Mo-Fr 13:45; Sa 09:00", "note": "ON 12/24 AND 12/31, THIS BOX MAY BE COLLECTED AS EARLY AS 12 NOON.", "nsi_id": "unitedstatespostalservice-a77078", "operator": "United States Postal Service", "operator:short": "USPS", "operator:type": "public", "operator:wikidata": "Q668687", "ref": "5805100001"}, "type": "Feature"}
{"geometry": {"coordinates": [-97.018393668, 46.6485765], "type": "Point"}, "id": "lUjZbi-iGPDPm9HHoLvmT80rmeg=", "properties": {"@source_uri": "https://tools.usps.com/UspsToolsRestServices/rest/POLocator/findLocations", "@spider": "usps_collection_boxes", "addr:city": "KINDRED", "addr:country": "US", "addr:postcode": "58051", "addr:state": "ND", "addr:street_address": "472 ELM ST", "amenity": "post_box", "collection_times": "Mo-Fr 13:45", "indoor": "yes", "note": "ON 12/24 AND 12/31, THIS BOX MAY BE COLLECTED AS EARLY AS 12 NOON.", "nsi_id": "unitedstatespostalservice-a77078", "operator": "United States Postal Service", "operator:short": "USPS", "operator:type": "public", "operator:wikidata": "Q668687", "ref": "5805100002"}, "type": "Feature"}
{"geometry": {"coordinates": [-97.245400609, 46.651280799], "type": "Point"}, "id": "JCcBtQuhXYZHZMk0mz7-mDwAMqc=", "properties": {"@source_uri": "https://tools.usps.com/UspsToolsRestServices/rest/POLocator/findLocations", "@spider": "usps_collection_boxes", "addr:city": "LEONARD", "addr:country": "US", "addr:postcode": "58052", "addr:state": "ND", "addr:street_address": "406 RAILROAD AVE S", "amenity": "post_box", "collection_times": "Mo-Fr 10:45; Sa 08:30", "nsi_id": "unitedstatespostalservice-a77078", "operator": "United States Postal Service", "operator:short": "USPS", "operator:type": "public", "operator:wikidata": "Q668687", "ref": "5805200001"}, "type": "Feature"}
{"geometry": {"coordinates": [-97.245400609, 46.651280799], "type": "Point"}, "id": "gJAjgViTF5OmwRO_3XVwyYIYWtw=", "properties": {"@source_uri": "https://tools.usps.com/UspsToolsRestServices/rest/POLocator/findLocations", "@spider": "usps_collection_boxes", "addr:city": "LEONARD", "addr:country": "US", "addr:postcode": "58052", "addr:state": "ND", "addr:street_address": "406 RAILROAD AVE S", "amenity": "post_box", "collection_times": "Mo-Fr 11:00", "indoor": "yes", "nsi_id": "unitedstatespostalservice-a77078", "operator": "United States Postal Service", "operator:short": "USPS", "operator:type": "public", "operator:wikidata": "Q668687", "ref": "5805200002"}, "type": "Feature"}
{"geometry": {"coordinates": [-97.152033581, 46.074969], "type": "Point"}, "id": "2thpIqw-UJYixMogO_NC8tk2h0Q=", "properties": {"@source_uri": "https://tools.usps.com/UspsToolsRestServices/rest/POLocator/findLocations", "@spider": "usps_collection_boxes", "addr:city": "LIDGERWOOD", "addr:country": "US", "addr:postcode": "58053", "addr:state": "ND", "addr:street_address": "34 WILEY AVE S", "amenity": "post_box", "collection_times": "Mo-Fr 14:45; Sa 08:45", "note": "ON 12/24 AND 12/31, THIS BOX MAY BE COLLECTED AS EARLY AS 12 NOON.", "nsi_id": "unitedstatespostalservice-a77078", "operator": "United States Postal Service", "operator:short": "USPS", "operator:type": "public", "operator:wikidata": "Q668687", "ref": "5805300001"}, "type": "Feature"}
{"geometry": {"coordinates": [-97.152033581, 46.074969], "type": "Point"}, "id": "8pU3tpy2ouDkLNCiyOr0TWmXLZM=", "properties": {"@source_uri": "https://tools.usps.com/UspsToolsRestServices/rest/POLocator/findLocations", "@spider": "usps_collection_boxes", "addr:city": "LIDGERWOOD", "addr:country": "US", "addr:postcode": "58053", "addr:state": "ND", "addr:street_address": "34 WILEY AVE S", "amenity": "post_box", "collection_times": "Mo-Fr 15:00", "indoor": "yes", "note": "ON 12/24 AND 12/31, THIS BOX MAY BE COLLECTED AS EARLY AS 12 NOON.", "nsi_id": "unitedstatespostalservice-a77078", "operator": "United States Postal Service", "operator:short": "USPS", "operator:type": "public", "operator:wikidata": "Q668687", "ref": "5805300002"}, "type": "Feature"}
{"geometry": {"coordinates": [-97.681797929, 46.442599263], "type": "Point"}, "id": "RizMYL2TVJ3OTUpsJ7t3fKhnGbU=", "properties": {"@source_uri": "https://tools.usps.com/UspsToolsRestServices/rest/POLocator/findLocations", "@spider": "usps_collection_boxes", "addr:city": "LISBON", "addr:country": "US", "addr:postcode": "58054", "addr:state": "ND", "addr:street_address": "17 4TH AVE W", "amenity": "post_box", "collection_times": "Mo-Fr 15:45; Sa 09:00", "note": "ON 12/24 AND 12/31, THIS BOX MAY BE COLLECTED AS EARLY AS 12 NOON.", "nsi_id": "unitedstatespostalservice-a77078", "operator": "United States Postal Service", "operator:short": "USPS", "operator:type": "public", "operator:wikidata": "Q668687", "ref": "5805400001"}, "type": "Feature"}
{"geometry": {"coordinates": [-97.681797929, 46.442599263], "type": "Point"}, "id": "dhonpaBLWo7vV6AWlzhToPF5ZrA=", "properties": {"@source_uri": "https://tools.usps.com/UspsToolsRestServices/rest/POLocator/findLocations", "@spider": "usps_collection_boxes", "addr:city": "LISBON", "addr:country": "US", "addr:postcode": "58054", "addr:state": "ND", "addr:street_address": "17 4TH AVE W", "amenity": "post_box", "collection_times": "Mo-Fr 15:45", "indoor": "yes", "note": "ON 12/24 AND 12/31, THIS BOX MAY BE COLLECTED AS EARLY AS 12 NOON.", "nsi_id": "unitedstatespostalservice-a77078", "operator": "United States Postal Service", "operator:short": "USPS", "operator:type": "public", "operator:wikidata": "Q668687", "ref": "5805400003"}, "type": "Feature"}
{"geometry": {"coordinates": [-96.977216519, 46.164352917], "type": "Point"}, "id": "Ib5-TPU_WLF0A4J6ZeiBhMdJzao=", "properties": {"@source_uri": "https://tools.usps.com/UspsToolsRestServices/rest/POLocator/findLocations", "@spider": "usps_collection_boxes", "addr:city": "MANTADOR", "addr:country": "US", "addr:postcode": "58058", "addr:state": "ND", "addr:street_address": "102 MAIN ST", "amenity": "post_box", "collection_times": "Mo-Sa 12:00", "nsi_id": "unitedstatespostalservice-a77078", "operator": "United States Postal Service", "operator:short": "USPS", "operator:type": "public", "operator:wikidata": "Q668687", "ref": "5805800001"}, "type": "Feature"}
{"geometry": {"coordinates": [-96.977216519, 46.164352917], "type": "Point"}, "id": "fs3BNLf4e7sg9_PjKdPaJRlyEa0=", "properties": {"@source_uri": "https://tools.usps.com/UspsToolsRestServices/rest/POLocator/findLocations", "@spider": "usps_collection_boxes", "addr:city": "MANTADOR", "addr:country": "US", "addr:postcode": "58058", "addr:state": "ND", "addr:street_address": "102 MAIN ST", "amenity": "post_box", "collection_times": "Mo-Fr 12:20; Sa 12:00", "indoor": "yes", "note": "ON 12/24 AND 12/31, THIS BOX MAY BE COLLECTED AS EARLY AS 12 NOON.", "nsi_id": "unitedstatespostalservice-a77078", "operator": "United States Postal Service", "operator:short": "USPS", "operator:type": "public", "operator:wikidata": "Q668687", "ref": "5805800002"}, "type": "Feature"}
{"geometry": {"coordinates": [-97.052092994, 46.889297475], "type": "Point"}, "id": "veJkR33ysNiyqoXO3kcscOH1rL0=", "properties": {"@source_uri": "https://tools.usps.com/UspsToolsRestServices/rest/POLocator/findLocations", "@spider": "usps_collection_boxes", "addr:city": "MAPLETON", "addr:country": "US", "addr:postcode": "58059", "addr:state": "ND", "addr:street_address": "651 2ND ST", "amenity": "post_box", "collection_times": "Mo-Fr 11:15; Sa 09:15", "nsi_id": "unitedstatespostalservice-a77078", "operator": "United States Postal Service", "operator:short": "USPS", "operator:type": "public", "operator:wikidata": "Q668687", "ref": "5805900001"}, "type": "Feature"}
{"geometry": {"coordinates": [-97.052092994, 46.889297475], "type": "Point"}, "id": "6SR1epIn1zAsUeh5BKc7pt2g3Y0=", "properties": {"@source_uri": "https://tools.usps.com/UspsToolsRestServices/rest/POLocator/findLocations", "@spider": "usps_collection_boxes", "addr:city": "MAPLETON", "addr:country": "US", "addr:postcode": "58059", "addr:state": "ND", "addr:street_address": "651 2ND ST", "amenity": "post_box", "collection_times": "Mo-Fr 11:25", "indoor": "yes", "nsi_id": "unitedstatespostalservice-a77078", "operator": "United States Postal Service", "operator:short": "USPS", "operator:type": "public", "operator:wikidata": "Q668687", "ref": "5805900002"}, "type": "Feature"}
{"geometry": {"coordinates": [-97.454870899, 46.258487578], "type": "Point"}, "id": "Jf_klPw48XiTYGet9da6p63dvGo=", "properties": {"@source_uri": "https://tools.usps.com/UspsToolsRestServices/rest/POLocator/findLocations", "@spider": "usps_collection_boxes", "addr:city": "MILNOR", "addr:country": "US", "addr:postcode": "58060", "addr:state": "ND", "addr:street_address": "420 MAIN ST", "amenity": "post_box", "collection_times": "Mo-Fr 15:45; Sa 09:15", "note": "ON 12/24 AND 12/31, THIS BOX MAY BE COLLECTED AS EARLY AS 12 NOON.", "nsi_id": "unitedstatespostalservice-a77078", "operator": "United States Postal Service", "operator:short": "USPS", "operator:type": "public", "operator:wikidata": "Q668687", "ref": "5806000001"}, "type": "Feature"}
{"geometry": {"coordinates": [-97.454870899, 46.258487578], "type": "Point"}, "id": "ZNpERIvTUSKJc6Oz563WW1tkMcE=", "properties": {"@source_uri": "https://tools.usps.com/UspsToolsRestServices/rest/POLocator/findLocations", "@spider": "usps_collection_boxes", "addr:city": "MILNOR", "addr:country": "US", "addr:postcode": "58060", "addr:state": "ND", "addr:street_address": "420 MAIN ST", "amenity": "post_box", "collection_times": "Mo-Fr 16:00", "indoor": "yes", "note": "ON 12/24 AND 12/31, THIS BOX MAY BE COLLECTED AS EARLY AS 12 NOON.", "nsi_id": "unitedstatespostalservice-a77078", "operator": "United States Postal Service", "operator:short": "USPS", "operator:type": "public", "operator:wikidata": "Q668687", "ref": "5806000002"}, "type": "Feature"}
{"geometry": {"coordinates": [-96.87613172, 46.268118283], "type": "Point"}, "id": "Gal1o9rTjN8YryYNvCW6_TDzm6w=", "properties": {"@source_uri": "https://tools.usps.com/UspsToolsRestServices/rest/POLocator/findLocations", "@spider": "usps_collection_boxes", "addr:city": "MOORETON", "addr:country": "US", "addr:postcode": "58061", "addr:state": "ND", "addr:street_address": "105 MOORETON AVE S", "amenity": "post_box", "collection_times": "Mo-Fr 11:45; Sa 09:00", "nsi_id": "unitedstatespostalservice-a77078", "operator": "United States Postal Service", "operator:short": "USPS", "operator:type": "public", "operator:wikidata": "Q668687", "ref": "5806100001"}, "type": "Feature"}
{"geometry": {"coordinates": [-96.87613172, 46.268118283], "type": "Point"}, "id": "fb95eWGqrxyG1IZwh2Bugaj3DQQ=", "properties": {"@source_uri": "https://tools.usps.com/UspsToolsRestServices/rest/POLocator/findLocations", "@spider": "usps_collection_boxes", "addr:city": "MOORETON", "addr:country": "US", "addr:postcode": "58061", "addr:state": "ND", "addr:street_address": "105 MOORETON AVE S", "amenity": "post_box", "collection_times": "Mo-Fr 11:45", "indoor": "yes", "nsi_id": "unitedstatespostalservice-a77078", "operator": "United States Postal Service", "operator:short": "USPS", "operator:type": "public", "operator:wikidata": "Q668687", "ref": "5806100002"}, "type": "Feature"}
{"geometry": {"coordinates": [-97.81074331, 46.677711117], "type": "Point"}, "id": "eOoBYfTnEQoZ3XSHvafIJKt-TXo=", "properties": {"@source_uri": "https://tools.usps.com/UspsToolsRestServices/rest/POLocator/findLocations", "@spider": "usps_collection_boxes", "addr:city": "NOME", "addr:country": "US", "addr:postcode": "58062", "addr:state": "ND", "addr:street_address": "408 MAIN ST", "amenity": "post_box", "collection_times": "Mo-Fr 10:45; Sa 09:30", "nsi_id": "unitedstatespostalservice-a77078", "operator": "United States Postal Service", "operator:short": "USPS", "operator:type": "public", "operator:wikidata": "Q668687", "ref": "5806200001"}, "type": "Feature"}
{"geometry": {"coordinates": [-97.81074331, 46.677711117], "type": "Point"}, "id": "j58oMcww5FDphrpY-22S-91HGsM=", "properties": {"@source_uri": "https://tools.usps.com/UspsToolsRestServices/rest/POLocator/findLocations", "@spider": "usps_collection_boxes", "addr:city": "NOME", "addr:country": "US", "addr:postcode": "58062", "addr:state": "ND", "addr:street_address": "408 MAIN ST", "amenity": "post_box", "collection_times": "Mo-Fr 10:45", "indoor": "yes", "nsi_id": "unitedstatespostalservice-a77078", "operator": "United States Postal Service", "operator:short": "USPS", "operator:type": "public", "operator:wikidata": "Q668687", "ref": "5806200002"}, "type": "Feature"}
{"geometry": {"coordinates": [-97.790953597, 46.933473894], "type": "Point"}, "id": "j684jX-OaSd_xrbXTdXt--MrIlg=", "properties": {"@source_uri": "https://tools.usps.com/UspsToolsRestServices/rest/POLocator/findLocations", "@spider": "usps_collection_boxes", "addr:city": "ORISKA", "addr:country": "US", "addr:postcode": "58063", "addr:state": "ND", "addr:street_address": "311 5TH ST", "amenity": "post_box", "collection_times": "Mo-Fr 14:45; Sa 11:15", "note": "ON 12/24 AND 12/31, THIS BOX MAY BE COLLECTED AS EARLY AS 12 NOON.", "nsi_id": "unitedstatespostalservice-a77078", "operator": "United States Postal Service", "operator:short": "USPS", "operator:type": "public", "operator:wikidata": "Q668687", "ref": "5806300001"}, "type": "Feature"}
{"geometry": {"coordinates": [-97.790953597, 46.933473894], "type": "Point"}, "id": "bfZBHpkTilT-xVa4aT2Y9z2cc04=", "properties": {"@source_uri": "https://tools.usps.com/UspsToolsRestServices/rest/POLocator/findLocations", "@spider": "usps_collection_boxes", "addr:city": "ORISKA", "addr:country": "US", "addr:postcode": "58063", "addr:state": "ND", "addr:street_address": "311 5TH ST", "amenity": "post_box", "collection_times": "Mo-Fr 14:55", "indoor": "yes", "note": "ON 12/24 AND 12/31, THIS BOX MAY BE COLLECTED AS EARLY AS 12 NOON.", "nsi_id": "unitedstatespostalservice-a77078", "operator": "United States Postal Service", "operator:short": "USPS", "operator:type": "public", "operator:wikidata": "Q668687", "ref": "5806300002"}, "type": "Feature"}
{"geometry": {"coordinates": [-97.571422886, 47.159468378], "type": "Point"}, "id": "CmXXuq9WjG8QAeFtFElahx41Fmc=", "properties": {"@source_uri": "https://tools.usps.com/UspsToolsRestServices/rest/POLocator/findLocations", "@spider": "usps_collection_boxes", "addr:city": "PAGE", "addr:country": "US", "addr:postcode": "58064", "addr:state": "ND", "addr:street_address": "137 MORTON AVE", "amenity": "post_box", "collection_times": "Mo-Fr 11:45; Sa 09:00", "nsi_id": "unitedstatespostalservice-a77078", "operator": "United States Postal Service", "operator:short": "USPS", "operator:type": "public", "operator:wikidata": "Q668687", "ref": "5806400001"}, "type": "Feature"}
{"geometry": {"coordinates": [-97.571422886, 47.159468378], "type": "Point"}, "id": "t29Ji7cCMZiD7EUsGXqYtOFr3zY=", "properties": {"@source_uri": "https://tools.usps.com/UspsToolsRestServices/rest/POLocator/findLocations", "@spider": "usps_collection_boxes", "addr:city": "PAGE", "addr:country": "US", "addr:postcode": "58064", "addr:state": "ND", "addr:street_address": "137 MORTON AVE", "amenity": "post_box", "collection_times": "Mo-Fr 12:00", "indoor": "yes", "nsi_id": "unitedstatespostalservice-a77078", "operator": "United States Postal Service", "operator:short": "USPS", "operator:type": "public", "operator:wikidata": "Q668687", "ref": "5806400002"}, "type": "Feature"}
{"geometry": {"coordinates": [-97.509042342, 46.052151955], "type": "Point"}, "id": "lvkJdBDgEWqo7jCzyV4ETaofNLI=", "properties": {"@source_uri": "https://tools.usps.com/UspsToolsRestServices/rest/POLocator/findLocations", "@spider": "usps_collection_boxes", "addr:city": "RUTLAND", "addr:country": "US", "addr:postcode": "58067", "addr:state": "ND", "addr:street_address": "113 1ST ST", "amenity": "post_box", "collection_times": "Mo-Fr 12:15; Sa 12:45", "note": "ON 12/24 AND 12/31, THIS BOX MAY BE COLLECTED AS EARLY AS 12 NOON.", "nsi_id": "unitedstatespostalservice-a77078", "operator": "United States Postal Service", "operator:short": "USPS", "operator:type": "public", "operator:wikidata": "Q668687", "ref": "5806700001"}, "type": "Feature"}
{"geometry": {"coordinates": [-97.491670221, 46.589132171], "type": "Point"}, "id": "VmCWjpq_1h5v-dx1ou6nx2INzzY=", "properties": {"@source_uri": "https://tools.usps.com/UspsToolsRestServices/rest/POLocator/findLocations", "@spider": "usps_collection_boxes", "addr:city": "SHELDON", "addr:country": "US", "addr:postcode": "58068", "addr:state": "ND", "addr:street_address": "216 FRONT ST", "amenity": "post_box", "collection_times": "Mo-Fr 14:45; Sa 12:00", "note": "ON 12/24 AND 12/31, THIS BOX MAY BE COLLECTED AS EARLY AS 12 NOON.", "nsi_id": "unitedstatespostalservice-a77078", "operator": "United States Postal Service", "operator:short": "USPS", "operator:type": "public", "operator:wikidata": "Q668687", "ref": "5806800001"}, "type": "Feature"}
{"geometry": {"coordinates": [-97.491670221, 46.589132171], "type": "Point"}, "id": "rUhJVpyX19I2esTZt9sMJZXKERM=", "properties": {"@source_uri": "https://tools.usps.com/UspsToolsRestServices/rest/POLocator/findLocations", "@spider": "usps_collection_boxes", "addr:city": "SHELDON", "addr:country": "US", "addr:postcode": "58068", "addr:state": "ND", "addr:street_address": "216 FRONT ST", "amenity": "post_box", "collection_times": "Mo-Fr 13:45", "indoor": "yes", "note": "ON 12/24 AND 12/31, THIS BOX MAY BE COLLECTED AS EARLY AS 12 NOON.", "nsi_id": "unitedstatespostalservice-a77078", "operator": "United States Postal Service", "operator:short": "USPS", "operator:type": "public", "operator:wikidata": "Q668687", "ref": "5806800002"}, "type": "Feature"}
{"geometry": {"coordinates": [-97.675554178, 46.924054984], "type": "Point"}, "id": "YC_U-J3Ne7AhsKY5tIoG2ytRf7w=", "properties": {"@source_uri": "https://tools.usps.com/UspsToolsRestServices/rest/POLocator/findLocations", "@spider": "usps_collection_boxes", "addr:city": "TOWER CITY", "addr:country": "US", "addr:postcode": "58071", "addr:state": "ND", "addr:street_address": "505 BROADWAY ST", "amenity": "post_box", "collection_times": "Mo-Fr 11:45; Sa 08:30", "nsi_id": "unitedstatespostalservice-a77078", "operator": "United States Postal Service", "operator:short": "USPS", "operator:type": "public", "operator:wikidata": "Q668687", "ref": "5807100001"}, "type": "Feature"}
{"geometry": {"coordinates": [-97.675554178, 46.924054984], "type": "Point"}, "id": "jShS0bVljBoI0XYF4KAJuA1lAkg=", "properties": {"@source_uri": "https://tools.usps.com/UspsToolsRestServices/rest/POLocator/findLocations", "@spider": "usps_collection_boxes", "addr:city": "TOWER CITY", "addr:country": "US", "addr:postcode": "58071", "addr:state": "ND", "addr:street_address": "505 BROADWAY ST", "amenity": "post_box", "collection_times": "Mo-Fr 12:00", "indoor": "yes", "nsi_id": "unitedstatespostalservice-a77078", "operator": "United States Postal Service", "operator:short": "USPS", "operator:type": "public", "operator:wikidata": "Q668687", "ref": "5807100002"}, "type": "Feature"}
{"geometry": {"coordinates": [-98.005124157, 46.926335774], "type": "Point"}, "id": "fEjusdwGKdQVtgP25YcPnZG3rRg=", "properties": {"@source_uri": "https://tools.usps.com/UspsToolsRestServices/rest/POLocator/findLocations", "@spider": "usps_collection_boxes", "addr:city": "VALLEY CITY", "addr:country": "US", "addr:postcode": "58072", "addr:state": "ND", "addr:street_address": "230 4TH ST NW", "amenity": "post_box", "collection_times": "Mo-Fr 14:00", "note": "ON 12/24 AND 12/31, THIS BOX MAY BE COLLECTED AS EARLY AS 12 NOON.", "nsi_id": "unitedstatespostalservice-a77078", "operator": "United States Postal Service", "operator:short": "USPS", "operator:type": "public", "operator:wikidata": "Q668687", "ref": "5807200004"}, "type": "Feature"}
{"geometry": {"coordinates": [-98.00235909, 46.925358878], "type": "Point"}, "id": "SSpDDmn41dKOlqUKkc9sQUP5C-I=", "properties": {"@source_uri": "https://tools.usps.com/UspsToolsRestServices/rest/POLocator/findLocations", "@spider": "usps_collection_boxes", "addr:city": "VALLEY CITY", "addr:country": "US", "addr:postcode": "58072", "addr:state": "ND", "addr:street_address": "149 3RD ST NE", "amenity": "post_box", "collection_times": "Mo-Fr 16:30; Sa 16:00", "note": "ON 12/24 AND 12/31, THIS BOX MAY BE COLLECTED AS EARLY AS 12 NOON.", "nsi_id": "unitedstatespostalservice-a77078", "operator": "United States Postal Service", "operator:short": "USPS", "operator:type": "public", "operator:wikidata": "Q668687", "ref": "5807200009"}, "type": "Feature"}
{"geometry": {"coordinates": [-98.00235909, 46.925358878], "type": "Point"}, "id": "2F6diAk5IYqRNxynCvx68tDZovE=", "properties": {"@source_uri": "https://tools.usps.com/UspsToolsRestServices/rest/POLocator/findLocations", "@spider": "usps_collection_boxes", "addr:city": "VALLEY CITY", "addr:country": "US", "addr:postcode": "58072", "addr:state": "ND", "addr:street_address": "149 3RD ST NE", "amenity": "post_box", "collection_times": "Mo-Fr 16:30; Sa 11:15", "indoor": "yes", "note": "ON 12/24 AND 12/31, THIS BOX MAY BE COLLECTED AS EARLY AS 12 NOON.", "nsi_id": "unitedstatespostalservice-a77078", "operator": "United States Postal Service", "operator:short": "USPS", "operator:type": "public", "operator:wikidata": "Q668687", "ref": "5807200011"}, "type": "Feature"}
{"geometry": {"coordinates": [-96.606279388, 46.265022468], "type": "Point"}, "id": "XhoVDhviDioq-8DJ-Lb1-LzgBjU=", "properties": {"@source_uri": "https://tools.usps.com/UspsToolsRestServices/rest/POLocator/findLocations", "@spider": "usps_collection_boxes", "addr:city": "WAHPETON", "addr:country": "US", "addr:postcode": "58075", "addr:state": "ND", "addr:street_address": "418 2ND AVE N", "amenity": "post_box", "collection_times": "Mo-Fr 14:30", "note": "ON 12/24 AND 12/31, THIS BOX MAY BE COLLECTED AS EARLY AS 12 NOON.", "nsi_id": "unitedstatespostalservice-a77078", "operator": "United States Postal Service", "operator:short": "USPS", "operator:type": "public", "operator:wikidata": "Q668687", "ref": "5807500004"}, "type": "Feature"}
{"geometry": {"coordinates": [-96.613861584, 46.265043454], "type": "Point"}, "id": "NfkSRD3l23uJxp0J62BLQhWvDBs=", "properties": {"@source_uri": "https://tools.usps.com/UspsToolsRestServices/rest/POLocator/findLocations", "@spider": "usps_collection_boxes", "addr:city": "WAHPETON", "addr:country": "US", "addr:postcode": "58075", "addr:state": "ND", "addr:street_address": "926 2ND AVE N", "amenity": "post_box", "collection_times": "Mo-Fr 17:00; Sa 11:30", "indoor": "yes", "note": "ON 12/24 AND 12/31, THIS BOX MAY BE COLLECTED AS EARLY AS 12 NOON.", "nsi_id": "unitedstatespostalservice-a77078", "operator": "United States Postal Service", "operator:short": "USPS", "operator:type": "public", "operator:wikidata": "Q668687", "ref": "5807500017"}, "type": "Feature"}
{"geometry": {"coordinates": [-96.613861584, 46.265043454], "type": "Point"}, "id": "19PnPwInh2ZSo_OmoFWyd1tyYjs=", "properties": {"@source_uri": "https://tools.usps.com/UspsToolsRestServices/rest/POLocator/findLocations", "@spider": "usps_collection_boxes", "addr:city": "WAHPETON", "addr:country": "US", "addr:postcode": "58075", "addr:state": "ND", "addr:street_address": "926 2ND AVE N", "amenity": "post_box", "collection_times": "Mo-Fr 17:00; Sa 15:00", "note": "ON 12/24 AND 12/31, THIS BOX MAY BE COLLECTED AS EARLY AS 12 NOON.", "nsi_id": "unitedstatespostalservice-a77078", "operator": "United States Postal Service", "operator:short": "USPS", "operator:type": "public", "operator:wikidata": "Q668687", "ref": "5807500021"}, "type": "Feature"}
{"geometry": {"coordinates": [-96.937752752, 46.54855644], "type": "Point"}, "id": "Gw8CQW0y1NJHxPeJvr3uGihC8-s=", "properties": {"@source_uri": "https://tools.usps.com/UspsToolsRestServices/rest/POLocator/findLocations", "@spider": "usps_collection_boxes", "addr:city": "WALCOTT", "addr:country": "US", "addr:postcode": "58077", "addr:state": "ND", "addr:street_address": "472 MAIN AVE", "amenity": "post_box", "collection_times": "Mo-Fr 11:45; Sa 08:45", "nsi_id": "unitedstatespostalservice-a77078", "operator": "United States Postal Service", "operator:short": "USPS", "operator:type": "public", "operator:wikidata": "Q668687", "ref": "5807700001"}, "type": "Feature"}
{"geometry": {"coordinates": [-96.937752752, 46.54855644], "type": "Point"}, "id": "lBK0oPZMOcm_CJtJmx6QblLhfkQ=", "properties": {"@source_uri": "https://tools.usps.com/UspsToolsRestServices/rest/POLocator/findLocations", "@spider": "usps_collection_boxes", "addr:city": "WALCOTT", "addr:country": "US", "addr:postcode": "58077", "addr:state": "ND", "addr:street_address": "472 MAIN AVE", "amenity": "post_box", "collection_times": "Mo-Fr 12:00", "indoor": "yes", "nsi_id": "unitedstatespostalservice-a77078", "operator": "United States Postal Service", "operator:short": "USPS", "operator:type": "public", "operator:wikidata": "Q668687", "ref": "5807700002"}, "type": "Feature"}
{"geometry": {"coordinates": [-96.892511385, 46.876530513], "type": "Point"}, "id": "dwXX7lDrwT4G6Zy8mUMOp2Kc1xI=", "properties": {"@source_uri": "https://tools.usps.com/UspsToolsRestServices/rest/POLocator/findLocations", "@spider": "usps_collection_boxes", "addr:city": "WEST FARGO", "addr:country": "US", "addr:postcode": "58078", "addr:state": "ND", "addr:street_address": "415 MAIN AVE E", "amenity": "post_box", "collection_times": "Mo-Fr 17:00; Sa 17:50", "note": "ON 12/24 AND 12/31, THIS BOX MAY BE COLLECTED AS EARLY AS 12 NOON.", "nsi_id": "unitedstatespostalservice-a77078", "operator": "United States Postal Service", "operator:short": "USPS", "operator:type": "public", "operator:wikidata": "Q668687", "ref": "5807800001"}, "type": "Feature"}
{"geometry": {"coordinates": [-96.892511385, 46.876530513], "type": "Point"}, "id": "FsOyffT9bNtNlyZeGzabRPXBQzE=", "properties": {"@source_uri": "https://tools.usps.com/UspsToolsRestServices/rest/POLocator/findLocations", "@spider": "usps_collection_boxes", "addr:city": "WEST FARGO", "addr:country": "US", "addr:postcode": "58078", "addr:state": "ND", "addr:street_address": "415 MAIN AVE E", "amenity": "post_box", "collection_times": "Mo-Fr 17:00; Sa 13:00", "indoor": "yes", "note": "ON 12/24 AND 12/31, THIS BOX MAY BE COLLECTED AS EARLY AS 12 NOON.", "nsi_id": "unitedstatespostalservice-a77078", "operator": "United States Postal Service", "operator:short": "USPS", "operator:type": "public", "operator:wikidata": "Q668687", "ref": "5807800015"}, "type": "Feature"}
{"geometry": {"coordinates": [-96.892511385, 46.876530513], "type": "Point"}, "id": "0xVwn3Hwhy5rMh3jnUU8zMMPjHw=", "properties": {"@source_uri": "https://tools.usps.com/UspsToolsRestServices/rest/POLocator/findLocations", "@spider": "usps_collection_boxes", "addr:city": "WEST FARGO", "addr:country": "US", "addr:postcode": "58078", "addr:state": "ND", "addr:street_address": "415 MAIN AVE E", "amenity": "post_box", "collection_times": "Mo-Fr 17:00; Sa 13:00", "indoor": "yes", "note": "ON 12/24 AND 12/31, THIS BOX MAY BE COLLECTED AS EARLY AS 12 NOON.", "nsi_id": "unitedstatespostalservice-a77078", "operator": "United States Postal Service", "operator:short": "USPS", "operator:type": "public", "operator:wikidata": "Q668687", "ref": "5807800016"}, "type": "Feature"}
{"geometry": {"coordinates": [-96.880552725, 46.862167526], "type": "Point"}, "id": "ZHp584oZBJci4noeblMaARCZlXg=", "properties": {"@source_uri": "https://tools.usps.com/UspsToolsRestServices/rest/POLocator/findLocations", "@spider": "usps_collection_boxes", "addr:city": "WEST FARGO", "addr:country": "US", "addr:postcode": "58078", "addr:state": "ND", "addr:street_address": "1100 13TH AVE E", "amenity": "post_box", "collection_times": "Mo-Sa 13:30", "note": "ON 12/24 AND 12/31, THIS BOX MAY BE COLLECTED AS EARLY AS 12 NOON.", "nsi_id": "unitedstatespostalservice-a77078", "operator": "United States Postal Service", "operator:short": "USPS", "operator:type": "public", "operator:wikidata": "Q668687", "ref": "5807800017"}, "type": "Feature"}
{"geometry": {"coordinates": [-96.88559774, 46.831046646], "type": "Point"}, "id": "h5DA6-a_MGf376m0usyhyFel1lM=", "properties": {"@source_uri": "https://tools.usps.com/UspsToolsRestServices/rest/POLocator/findLocations", "@spider": "usps_collection_boxes", "addr:city": "WEST FARGO", "addr:country": "US", "addr:postcode": "58078", "addr:state": "ND", "addr:street_address": "755 33RD AVE E", "amenity": "post_box", "collection_times": "Mo-Sa 12:30", "note": "ON 12/24 AND 12/31, THIS BOX MAY BE COLLECTED AS EARLY AS 12 NOON.", "nsi_id": "unitedstatespostalservice-a77078", "operator": "United States Postal Service", "operator:short": "USPS", "operator:type": "public", "operator:wikidata": "Q668687", "ref": "5807800022"}, "type": "Feature"}
{"geometry": {"coordinates": [-96.907999232, 46.847525284], "type": "Point"}, "id": "1Vuas-T1C3lscH-EsU26lXIkydM=", "properties": {"@source_uri": "https://tools.usps.com/UspsToolsRestServices/rest/POLocator/findLocations", "@spider": "usps_collection_boxes", "addr:city": "WEST FARGO", "addr:country": "US", "addr:postcode": "58078", "addr:state": "ND", "addr:street_address": "2050 SHEYENNE ST", "amenity": "post_box", "collection_times": "Mo-Sa 12:00", "nsi_id": "unitedstatespostalservice-a77078", "operator": "United States Postal Service", "operator:short": "USPS", "operator:type": "public", "operator:wikidata": "Q668687", "ref": "5807800024"}, "type": "Feature"}
{"geometry": {"coordinates": [-97.130683207, 46.265814], "type": "Point"}, "id": "SLHPuwX7twgtSTfBQcRsRvgk-H8=", "properties": {"@source_uri": "https://tools.usps.com/UspsToolsRestServices/rest/POLocator/findLocations", "@spider": "usps_collection_boxes", "addr:city": "WYNDMERE", "addr:country": "US", "addr:postcode": "58081", "addr:state": "ND", "addr:street_address": "455 4TH ST", "amenity": "post_box", "collection_times": "Mo-Fr 11:45; Sa 09:15", "nsi_id": "unitedstatespostalservice-a77078", "operator": "United States Postal Service", "operator:short": "USPS", "operator:type": "public", "operator:wikidata": "Q668687", "ref": "5808100001"}, "type": "Feature"}
{"geometry": {"coordinates": [-97.130683207, 46.265814], "type": "Point"}, "id": "ixb5SdYjEnBly8hDtZ3UTgNWaMQ=", "properties": {"@source_uri": "https://tools.usps.com/UspsToolsRestServices/rest/POLocator/findLocations", "@spider": "usps_collection_boxes", "addr:city": "WYNDMERE", "addr:country": "US", "addr:postcode": "58081", "addr:state": "ND", "addr:street_address": "455 4TH ST", "amenity": "post_box", "collection_times": "Mo-Fr 12:00", "indoor": "yes", "nsi_id": "unitedstatespostalservice-a77078", "operator": "United States Postal Service", "operator:short": "USPS", "operator:type": "public", "operator:wikidata": "Q668687", "ref": "5808100003"}, "type": "Feature"}
