{"geometry": {"coordinates": [-96.788034, 46.876743], "type": "Point"}, "id": "i3PnswxbjmO6Jz7WWu3wnOxZtU0=", "properties": {"@source_uri": "https://tools.usps.com/UspsToolsRestServices/rest/POLocator/findLocations", "@spider": "usps_collection_boxes", "addr:city": "FARGO", "addr:country": "US", "addr:postcode": "58102", "addr:state": "ND", "addr:street_address": "72 BROADWAY N", "amenity": "post_box", "collection_times": "Mo-Fr 17:15", "note": "ON 12/24 AND 12/31, THIS BOX MAY BE COLLECTED AS EARLY AS 12 NOON.", "nsi_id": "unitedstatespostalservice-a77078", "operator": "United States Postal Service", "operator:short": "USPS", "operator:type": "public", "operator:wikidata": "Q668687", "ref": "5810200008"}, "type": "Feature"}
{"geometry": {"coordinates": [-96.789186, 46.876743], "type": "Point"}, "id": "0C_PtgdYUnNlj5oLN5CYt6s1pOk=", "properties": {"@source_uri": "https://tools.usps.com/UspsToolsRestServices/rest/POLocator/findLocations", "@spider": "usps_collection_boxes", "addr:city": "FARGO", "addr:country": "US", "addr:postcode": "58102", "addr:state": "ND", "addr:street_address": "630 1ST AVE N", "amenity": "post_box", "collection_times": "Mo-Fr 17:00", "note": "ON 12/24 AND 12/31, THIS BOX MAY BE COLLECTED AS EARLY AS 12 NOON.", "nsi_id": "unitedstatespostalservice-a77078", "operator": "United States Postal Service", "operator:short": "USPS", "operator:type": "public", "operator:wikidata": "Q668687", "ref": "5810200011"}, "type": "Feature"}
{"geometry": {"coordinates": [-96.7986765, 46.878147], "type": "Point"}, "id": "FjAEx84x7UfayzDAmsoQtg9yEfI=", "properties": {"@source_uri": "https://tools.usps.com/UspsToolsRestServices/rest/POLocator/findLocations", "@spider": "usps_collection_boxes", "addr:city": "FARGO", "addr:country": "US", "addr:postcode": "58102", "addr:state": "ND", "addr:street_address": "112 UNIVERSITY DR N", "amenity": "post_box", "collection_times": "Mo-Fr 16:30", "note": "ON 12/24 AND 12/31, THIS BOX MAY BE COLLECTED AS EARLY AS 12 NOON.", "nsi_id": "unitedstatespostalservice-a77078", "operator": "United States Postal Service", "operator:short": "USPS", "operator:type": "public", "operator:wikidata": "Q668687", "ref": "5810200015"}, "type": "Feature"}
{"geometry": {"coordinates": [-96.7922427583, 46.8802538127], "type": "Point"}, "id": "-OZE03GIMXplVF74AAE9PUwytaA=", "properties": {"@source_uri": "https://tools.usps.com/UspsToolsRestServices/rest/POLocator/findLocations", "@spider": "usps_collection_boxes", "addr:city": "FARGO", "addr:country": "US", "addr:postcode": "58102", "addr:state": "ND", "addr:street_address": "321 9TH ST N", "amenity": "post_box", "collection_times": "Mo-Fr 17:30; Sa 16:45", "note": "ON 12/24 AND 12/31, THIS BOX MAY BE COLLECTED AS EARLY AS 12 NOON.", "nsi_id": "unitedstatespostalservice-a77078", "operator": "United States Postal Service", "operator:short": "USPS", "operator:type": "public", "operator:wikidata": "Q668687", "ref": "5810200016"}, "type": "Feature"}
{"geometry": {"coordinates": [-96.786504, 46.877805], "type": "Point"}, "id": "nf9aSa-sFOVgUk9qU2o5kVyZ4ww=", "properties": {"@source_uri": "https://tools.usps.com/UspsToolsRestServices/rest/POLocator/findLocations", "@spider": "usps_collection_boxes", "addr:city": "FARGO", "addr:country": "US", "addr:postcode": "58102", "addr:state": "ND", "addr:street_address": "500 2ND AVE N", "amenity": "post_box", "collection_times": "Mo-Fr 16:00", "note": "ON 12/24 AND 12/31, THIS BOX MAY BE COLLECTED AS EARLY AS 12 NOON.", "nsi_id": "unitedstatespostalservice-a77078", "operator": "United States Postal Service", "operator:short": "USPS", "operator:type": "public", "operator:wikidata": "Q668687", "ref": "5810200022"}, "type": "Feature"}
{"geometry": {"coordinates": [-96.787395, 46.875744], "type": "Point"}, "id": "pqAmozldmj841_--OmEP14XhK5Q=", "properties": {"@source_uri": "https://tools.usps.com/UspsToolsRestServices/rest/POLocator/findLocations", "@spider": "usps_collection_boxes", "addr:city": "FARGO", "addr:country": "US", "addr:postcode": "58102", "addr:state": "ND", "addr:street_address": "23 BROADWAY N", "amenity": "post_box", "collection_times": "Mo-Fr 17:15", "note": "ON 12/24 AND 12/31, THIS BOX MAY BE COLLECTED AS EARLY AS 12 NOON.", "nsi_id": "unitedstatespostalservice-a77078", "operator": "United States Postal Service", "operator:short": "USPS", "operator:type": "public", "operator:wikidata": "Q668687", "ref": "5810200026"}, "type": "Feature"}
{"geometry": {"coordinates": [-96.793991792, 46.877957665], "type": "Point"}, "id": "2ikKmC29dJ562GNugKsJJ7jUm2Q=", "properties": {"@source_uri": "https://tools.usps.com/UspsToolsRestServices/rest/POLocator/findLocations", "@spider": "usps_collection_boxes", "addr:city": "FARGO", "addr:country": "US", "addr:postcode": "58102", "addr:state": "ND", "addr:street_address": "101 10TH ST N", "amenity": "post_box", "collection_times": "Mo-Fr 16:30", "note": "ON 12/24 AND 12/31, THIS BOX MAY BE COLLECTED AS EARLY AS 12 NOON.", "nsi_id": "unitedstatespostalservice-a77078", "operator": "United States Postal Service", "operator:short": "USPS", "operator:type": "public", "operator:wikidata": "Q668687", "ref": "5810200037"}, "type": "Feature"}
{"geometry": {"coordinates": [-96.7891871355, 46.9107516189], "type": "Point"}, "id": "fKuGawPl59gZe2-miStzHgTg2EY=", "properties": {"@source_uri": "https://tools.usps.com/UspsToolsRestServices/rest/POLocator/findLocations", "@spider": "usps_collection_boxes", "addr:city": "FARGO", "addr:country": "US", "addr:postcode": "58102", "addr:state": "ND", "addr:street_address": "2510 BROADWAY N", "amenity": "post_box", "collection_times": "Mo-Fr 17:00; Sa 16:30", "note": "ON 12/24 AND 12/31, THIS BOX MAY BE COLLECTED AS EARLY AS 12 NOON.", "nsi_id": "unitedstatespostalservice-a77078", "operator": "United States Postal Service", "operator:short": "USPS", "operator:type": "public", "operator:wikidata": "Q668687", "ref": "5810200040"}, "type": "Feature"}
{"geometry": {"coordinates": [-96.800203697, 46.904897496], "type": "Point"}, "id": "yISDgNSMqvR7o3CVYZnK4vyxYFE=", "properties": {"@source_uri": "https://tools.usps.com/UspsToolsRestServices/rest/POLocator/findLocations", "@spider": "usps_collection_boxes", "addr:city": "FARGO", "addr:country": "US", "addr:postcode": "58102", "addr:state": "ND", "addr:street_address": "1321 19TH AVE N", "amenity": "post_box", "collection_times": "Mo-Fr 16:10", "note": "ON 12/24 AND 12/31, THIS BOX MAY BE COLLECTED AS EARLY AS 12 NOON.", "nsi_id": "unitedstatespostalservice-a77078", "operator": "United States Postal Service", "operator:short": "USPS", "operator:type": "public", "operator:wikidata": "Q668687", "ref": "5810200045"}, "type": "Feature"}
{"geometry": {"coordinates": [-96.798081382, 46.892131879], "type": "Point"}, "id": "HJFl6XS1QNi8DsHxvQoxMHtuCYo=", "properties": {"@source_uri": "https://tools.usps.com/UspsToolsRestServices/rest/POLocator/findLocations", "@spider": "usps_collection_boxes", "addr:city": "FARGO", "addr:country": "US", "addr:postcode": "58102", "addr:state": "ND", "addr:street_address": "1241 UNIVERSITY DR N", "amenity": "post_box", "collection_times": "Mo-Sa 10:00", "nsi_id": "unitedstatespostalservice-a77078", "operator": "United States Postal Service", "operator:short": "USPS", "operator:type": "public", "operator:wikidata": "Q668687", "ref": "5810200048"}, "type": "Feature"}
{"geometry": {"coordinates": [-96.841772839, 46.891277338], "type": "Point"}, "id": "kKeJk2DtKXrxM27JGO9LxghfCaw=", "properties": {"@source_uri": "https://tools.usps.com/UspsToolsRestServices/rest/POLocator/findLocations", "@spider": "usps_collection_boxes", "addr:city": "FARGO", "addr:country": "US", "addr:postcode": "58102", "addr:state": "ND", "addr:street_address": "1226 38TH ST N", "amenity": "post_box", "collection_times": "Mo-Fr 16:30", "note": "ON 12/24 AND 12/31, THIS BOX MAY BE COLLECTED AS EARLY AS 12 NOON.", "nsi_id": "unitedstatespostalservice-a77078", "operator": "United States Postal Service", "operator:short": "USPS", "operator:type": "public", "operator:wikidata": "Q668687", "ref": "5810200050"}, "type": "Feature"}
{"geometry": {"coordinates": [-96.799302081, 46.884160995], "type": "Point"}, "id": "1s1S41eK77gVLMLXkewDPRJiUbk=", "properties": {"@source_uri": "https://tools.usps.com/UspsToolsRestServices/rest/POLocator/findLocations", "@spider": "usps_collection_boxes", "addr:city": "FARGO", "addr:country": "US", "addr:postcode": "58102", "addr:state": "ND", "addr:street_address": "724 UNIVERSITY DR N", "amenity": "post_box", "collection_times": "Mo-Fr 17:00; Sa 16:45", "note": "ON 12/24 AND 12/31, THIS BOX MAY BE COLLECTED AS EARLY AS 12 NOON.", "nsi_id": "unitedstatespostalservice-a77078", "operator": "United States Postal Service", "operator:short": "USPS", "operator:type": "public", "operator:wikidata": "Q668687", "ref": "5810200056"}, "type": "Feature"}
{"geometry": {"coordinates": [-96.787683375, 46.884483283], "type": "Point"}, "id": "qsqrCVwDpzke7xUGRvYjRDU9lls=", "properties": {"@source_uri": "https://tools.usps.com/UspsToolsRestServices/rest/POLocator/findLocations", "@spider": "usps_collection_boxes", "addr:city": "FARGO", "addr:country": "US", "addr:postcode": "58102", "addr:state": "ND", "addr:street_address": "737 BROADWAY N", "amenity": "post_box", "collection_times": "Mo-Fr 15:30", "note": "ON 12/24 AND 12/31, THIS BOX MAY BE COLLECTED AS EARLY AS 12 NOON.", "nsi_id": "unitedstatespostalservice-a77078", "operator": "United States Postal Service", "operator:short": "USPS", "operator:type": "public", "operator:wikidata": "Q668687", "ref": "5810200059"}, "type": "Feature"}
{"geometry": {"coordinates": [-96.808642567, 46.908520376], "type": "Point"}, "id": "HVswoK8ImH0YLeUKxpNS0KFNCYs=", "properties": {"@source_uri": "https://tools.usps.com/UspsToolsRestServices/rest/POLocator/findLocations", "@spider": "usps_collection_boxes", "addr:city": "FARGO", "addr:country": "US", "addr:postcode": "58102", "addr:state": "ND", "addr:street_address": "1801 23RD AVE N", "amenity": "post_box", "collection_times": "Mo-Fr 16:20", "note": "ON 12/24 AND 12/31, THIS BOX MAY BE COLLECTED AS EARLY AS 12 NOON.", "nsi_id": "unitedstatespostalservice-a77078", "operator": "United States Postal Service", "operator:short": "USPS", "operator:type": "public", "operator:wikidata": "Q668687", "ref": "5810200061"}, "type": "Feature"}
{"geometry": {"coordinates": [-96.791255, 46.88235], "type": "Point"}, "id": "5RgAtXD1hXKLFriRNAS0KRa3kZU=", "properties": {"@source_uri": "https://tools.usps.com/UspsToolsRestServices/rest/POLocator/findLocations", "@spider": "usps_collection_boxes", "addr:city": "FARGO", "addr:country": "US", "addr:postcode": "58102", "addr:state": "ND", "addr:street_address": "657 2ND AVE N", "amenity": "post_box", "collection_times": "Mo-Sa 18:00", "note": "ON 12/24 AND 12/31, THIS BOX MAY BE COLLECTED AS EARLY AS 12 NOON.", "nsi_id": "unitedstatespostalservice-a77078", "operator": "United States Postal Service", "operator:short": "USPS", "operator:type": "public", "operator:wikidata": "Q668687", "ref": "5810200068"}, "type": "Feature"}
{"geometry": {"coordinates": [-96.787522787, 46.897146304], "type": "Point"}, "id": "zcGtAKIP3sn8IAJiDji-AYj-w4g=", "properties": {"@source_uri": "https://tools.usps.com/UspsToolsRestServices/rest/POLocator/findLocations", "@spider": "usps_collection_boxes", "addr:city": "FARGO", "addr:country": "US", "addr:postcode": "58102", "addr:state": "ND", "addr:street_address": "1461 BROADWAY N", "amenity": "post_box", "collection_times": "Mo-Fr 15:30; Sa 16:45", "note": "ON 12/24 AND 12/31, THIS BOX MAY BE COLLECTED AS EARLY AS 12 NOON.", "nsi_id": "unitedstatespostalservice-a77078", "operator": "United States Postal Service", "operator:short": "USPS", "operator:type": "public", "operator:wikidata": "Q668687", "ref": "5810200077"}, "type": "Feature"}
{"geometry": {"coordinates": [-96.787263741, 46.917414555], "type": "Point"}, "id": "ejPqJ-MxcM1G4hqLyJy3GuYRPqA=", "properties": {"@source_uri": "https://tools.usps.com/UspsToolsRestServices/rest/POLocator/findLocations", "@spider": "usps_collection_boxes", "addr:city": "FARGO", "addr:country": "US", "addr:postcode": "58102", "addr:state": "ND", "addr:street_address": "3105 BROADWAY N", "amenity": "post_box", "collection_times": "Mo-Fr 17:00", "note": "ON 12/24 AND 12/31, THIS BOX MAY BE COLLECTED AS EARLY AS 12 NOON.", "nsi_id": "unitedstatespostalservice-a77078", "operator": "United States Postal Service", "operator:short": "USPS", "operator:type": "public", "operator:wikidata": "Q668687", "ref": "5810200079"}, "type": "Feature"}
{"geometry": {"coordinates": [-96.7902795, 46.878507], "type": "Point"}, "id": "p1wNNWsS6GS8DgKZADw6VYePFPk=", "properties": {"@source_uri": "https://tools.usps.com/UspsToolsRestServices/rest/POLocator/findLocations", "@spider": "usps_collection_boxes", "addr:city": "FARGO", "addr:country": "US", "addr:postcode": "58102", "addr:state": "ND", "addr:street_address": "657 2ND AVE N", "amenity": "post_box", "collection_times": "Mo-Sa 20:00", "indoor": "yes", "note": "ON 12/24 AND 12/31, THIS BOX MAY BE COLLECTED AS EARLY AS 12 NOON.", "nsi_id": "unitedstatespostalservice-a77078", "operator": "United States Postal Service", "operator:short": "USPS", "operator:type": "public", "operator:wikidata": "Q668687", "ref": "5810200083"}, "type": "Feature"}
{"geometry": {"coordinates": [-96.7902795, 46.878507], "type": "Point"}, "id": "DWZmxFcN18Ua37YqZ0raGlt9Ito=", "properties": {"@source_uri": "https://tools.usps.com/UspsToolsRestServices/rest/POLocator/findLocations", "@spider": "usps_collection_boxes", "addr:city": "FARGO", "addr:country": "US", "addr:postcode": "58102", "addr:state": "ND", "addr:street_address": "657 2ND AVE N", "amenity": "post_box", "collection_times": "Mo-Sa 20:00", "indoor": "yes", "note": "ON 12/24 AND 12/31, THIS BOX MAY BE COLLECTED AS EARLY AS 12 NOON.", "nsi_id": "unitedstatespostalservice-a77078", "operator": "United States Postal Service", "operator:short": "USPS", "operator:type": "public", "operator:wikidata": "Q668687", "ref": "5810200099"}, "type": "Feature"}
{"geometry": {"coordinates": [-96.803162193, 46.832595523], "type": "Point"}, "id": "5281CRYiCW35vA4cr5jMqSsIzug=", "properties": {"@source_uri": "https://tools.usps.com/UspsToolsRestServices/rest/POLocator/findLocations", "@spider": "usps_collection_boxes", "addr:city": "FARGO", "addr:country": "US", "addr:postcode": "58103", "addr:state": "ND", "addr:street_address": "1532 32ND AVE S", "amenity": "post_box", "collection_times": "Mo-Fr 16:30; Sa 16:15", "note": "ON 12/24 AND 12/31, THIS BOX MAY BE COLLECTED AS EARLY AS 12 NOON.", "nsi_id": "unitedstatespostalservice-a77078", "operator": "United States Postal Service", "operator:short": "USPS", "operator:type": "public", "operator:wikidata": "Q668687", "ref": "5810300002"}, "type": "Feature"}
{"geometry": {"coordinates": [-96.830192171, 46.858049696], "type": "Point"}, "id": "FPb3Di3OUbKG-stzrRm-eqwFaRY=", "properties": {"@source_uri": "https://tools.usps.com/UspsToolsRestServices/rest/POLocator/findLocations", "@spider": "usps_collection_boxes", "addr:city": "FARGO", "addr:country": "US", "addr:postcode": "58103", "addr:state": "ND", "addr:street_address": "1455 32ND ST S", "amenity": "post_box", "collection_times": "Mo-Fr 17:15; Sa 13:15", "note": "ON 12/24 AND 12/31, THIS BOX MAY BE COLLECTED AS EARLY AS 12 NOON.", "nsi_id": "unitedstatespostalservice-a77078", "operator": "United States Postal Service", "operator:short": "USPS", "operator:type": "public", "operator:wikidata": "Q668687", "ref": "5810300003"}, "type": "Feature"}
{"geometry": {"coordinates": [-96.798320204, 46.87237778], "type": "Point"}, "id": "cNS5-Bz54VfN3CNfBYr6QmLlfqE=", "properties": {"@source_uri": "https://tools.usps.com/UspsToolsRestServices/rest/POLocator/findLocations", "@spider": "usps_collection_boxes", "addr:city": "FARGO", "addr:country": "US", "addr:postcode": "58103", "addr:state": "ND", "addr:street_address": "201 UNIVERSITY DR S", "amenity": "post_box", "collection_times": "Mo-Fr 16:30", "note": "ON 12/24 AND 12/31, THIS BOX MAY BE COLLECTED AS EARLY AS 12 NOON.", "nsi_id": "unitedstatespostalservice-a77078", "operator": "United States Postal Service", "operator:short": "USPS", "operator:type": "public", "operator:wikidata": "Q668687", "ref": "5810300017"}, "type": "Feature"}
{"geometry": {"coordinates": [-96.819923346, 46.834127497], "type": "Point"}, "id": "d6hf-JzDcekA_5rHKby9DZ64o1I=", "properties": {"@source_uri": "https://tools.usps.com/UspsToolsRestServices/rest/POLocator/findLocations", "@spider": "usps_collection_boxes", "addr:city": "FARGO", "addr:country": "US", "addr:postcode": "58103", "addr:state": "ND", "addr:street_address": "3040 25TH ST SW", "amenity": "post_box", "collection_times": "Mo-Fr 16:00", "note": "ON 12/24 AND 12/31, THIS BOX MAY BE COLLECTED AS EARLY AS 12 NOON.", "nsi_id": "unitedstatespostalservice-a77078", "operator": "United States Postal Service", "operator:short": "USPS", "operator:type": "public", "operator:wikidata": "Q668687", "ref": "5810300024"}, "type": "Feature"}
{"geometry": {"coordinates": [-96.7921425, 46.871199], "type": "Point"}, "id": "qqU7uaP4eELrM-gom9WsZisvS60=", "properties": {"@source_uri": "https://tools.usps.com/UspsToolsRestServices/rest/POLocator/findLocations", "@spider": "usps_collection_boxes", "addr:city": "FARGO", "addr:country": "US", "addr:postcode": "58103", "addr:state": "ND", "addr:street_address": "808 3RD AVE S", "amenity": "post_box", "collection_times": "Mo-Fr 16:30", "note": "ON 12/24 AND 12/31, THIS BOX MAY BE COLLECTED AS EARLY AS 12 NOON.", "nsi_id": "unitedstatespostalservice-a77078", "operator": "United States Postal Service", "operator:short": "USPS", "operator:type": "public", "operator:wikidata": "Q668687", "ref": "5810300031"}, "type": "Feature"}
{"geometry": {"coordinates": [-96.8442165, 46.859202], "type": "Point"}, "id": "kLD6HppqO5O0ZxaZFxvfUdh_4zc=", "properties": {"@source_uri": "https://tools.usps.com/UspsToolsRestServices/rest/POLocator/findLocations", "@spider": "usps_collection_boxes", "addr:city": "FARGO", "addr:country": "US", "addr:postcode": "58103", "addr:state": "ND", "addr:street_address": "3902 13TH AVE S", "amenity": "post_box", "collection_times": "Mo-Fr 17:30", "note": "ON 12/24 AND 12/31, THIS BOX MAY BE COLLECTED AS EARLY AS 12 NOON.", "nsi_id": "unitedstatespostalservice-a77078", "operator": "United States Postal Service", "operator:short": "USPS", "operator:type": "public", "operator:wikidata": "Q668687", "ref": "5810300037"}, "type": "Feature"}
{"geometry": {"coordinates": [-96.832513215, 46.859399193], "type": "Point"}, "id": "G85IIqaEFn8G0f3XeJzvkZbyxcs=", "properties": {"@source_uri": "https://tools.usps.com/UspsToolsRestServices/rest/POLocator/findLocations", "@spider": "usps_collection_boxes", "addr:city": "FARGO", "addr:country": "US", "addr:postcode": "58103", "addr:state": "ND", "addr:street_address": "1401 33RD ST SW", "amenity": "post_box", "collection_times": "Mo-Fr 17:30; Sa 17:15", "note": "ON 12/24 AND 12/31, THIS BOX MAY BE COLLECTED AS EARLY AS 12 NOON.", "nsi_id": "unitedstatespostalservice-a77078", "operator": "United States Postal Service", "operator:short": "USPS", "operator:type": "public", "operator:wikidata": "Q668687", "ref": "5810300038"}, "type": "Feature"}
{"geometry": {"coordinates": [-96.818625, 46.862145], "type": "Point"}, "id": "XZeJyjhQJ0Bp8413NalQXj40Rds=", "properties": {"@source_uri": "https://tools.usps.com/UspsToolsRestServices/rest/POLocator/findLocations", "@spider": "usps_collection_boxes", "addr:city": "FARGO", "addr:country": "US", "addr:postcode": "58103", "addr:state": "ND", "addr:street_address": "2425 13TH AVE S", "amenity": "post_box", "collection_times": "Mo-Fr 16:45; Sa 17:30", "note": "ON 12/24 AND 12/31, THIS BOX MAY BE COLLECTED AS EARLY AS 12 NOON.", "nsi_id": "unitedstatespostalservice-a77078", "operator": "United States Postal Service", "operator:short": "USPS", "operator:type": "public", "operator:wikidata": "Q668687", "ref": "5810300040"}, "type": "Feature"}
{"geometry": {"coordinates": [-96.827459977, 46.87615684], "type": "Point"}, "id": "-i8PHCxpGciLHN3d6dPiMWCF7vU=", "properties": {"@source_uri": "https://tools.usps.com/UspsToolsRestServices/rest/POLocator/findLocations", "@spider": "usps_collection_boxes", "addr:city": "FARGO", "addr:country": "US", "addr:postcode": "58103", "addr:state": "ND", "addr:street_address": "3007 MAIN AVE", "amenity": "post_box", "collection_times": "Mo-Fr 16:40", "note": "ON 12/24 AND 12/31, THIS BOX MAY BE COLLECTED AS EARLY AS 12 NOON.", "nsi_id": "unitedstatespostalservice-a77078", "operator": "United States Postal Service", "operator:short": "USPS", "operator:type": "public", "operator:wikidata": "Q668687", "ref": "5810300044"}, "type": "Feature"}
{"geometry": {"coordinates": [-96.822972168, 46.865732546], "type": "Point"}, "id": "6CU3jJuJ7IWD3eMAU7Iz1fn9-0I=", "properties": {"@source_uri": "https://tools.usps.com/UspsToolsRestServices/rest/POLocator/findLocations", "@spider": "usps_collection_boxes", "addr:city": "FARGO", "addr:country": "US", "addr:postcode": "58103", "addr:state": "ND", "addr:street_address": "2624 9TH AVE S", "amenity": "post_box", "collection_times": "Mo-Fr 17:30", "note": "ON 12/24 AND 12/31, THIS BOX MAY BE COLLECTED AS EARLY AS 12 NOON.", "nsi_id": "unitedstatespostalservice-a77078", "operator": "United States Postal Service", "operator:short": "USPS", "operator:type": "public", "operator:wikidata": "Q668687", "ref": "5810300046"}, "type": "Feature"}
{"geometry": {"coordinates": [-96.850094235, 46.8631938318], "type": "Point"}, "id": "rCwu9JlZwU2HZXA3R0o-eJogHuA=", "properties": {"@source_uri": "https://tools.usps.com/UspsToolsRestServices/rest/POLocator/findLocations", "@spider": "usps_collection_boxes", "addr:city": "FARGO", "addr:country": "US", "addr:postcode": "58103", "addr:state": "ND", "addr:street_address": "4101 13TH AVE S", "amenity": "post_box", "collection_times": "Mo-Fr 17:05; Sa 16:45", "note": "ON 12/24 AND 12/31, THIS BOX MAY BE COLLECTED AS EARLY AS 12 NOON.", "nsi_id": "unitedstatespostalservice-a77078", "operator": "United States Postal Service", "operator:short": "USPS", "operator:type": "public", "operator:wikidata": "Q668687", "ref": "5810300048"}, "type": "Feature"}
{"geometry": {"coordinates": [-96.850700276, 46.873728], "type": "Point"}, "id": "iaP1Oo32hmJOP7SuZBZ1GgvrMWU=", "properties": {"@source_uri": "https://tools.usps.com/UspsToolsRestServices/rest/POLocator/findLocations", "@spider": "usps_collection_boxes", "addr:city": "FARGO", "addr:country": "US", "addr:postcode": "58103", "addr:state": "ND", "addr:street_address": "204 42ND ST SW", "amenity": "post_box", "collection_times": "Mo-Fr 15:45", "note": "ON 12/24 AND 12/31, THIS BOX MAY BE COLLECTED AS EARLY AS 12 NOON.", "nsi_id": "unitedstatespostalservice-a77078", "operator": "United States Postal Service", "operator:short": "USPS", "operator:type": "public", "operator:wikidata": "Q668687", "ref": "5810300052"}, "type": "Feature"}
{"geometry": {"coordinates": [-96.830306194, 46.863632317], "type": "Point"}, "id": "5VqfgAE04SIWAQoKQkyJvI6pyOM=", "properties": {"@source_uri": "https://tools.usps.com/UspsToolsRestServices/rest/POLocator/findLocations", "@spider": "usps_collection_boxes", "addr:city": "FARGO", "addr:country": "US", "addr:postcode": "58103", "addr:state": "ND", "addr:street_address": "1121 WESTRAC DR S", "amenity": "post_box", "collection_times": "Mo-Fr 17:30", "note": "ON 12/24 AND 12/31, THIS BOX MAY BE COLLECTED AS EARLY AS 12 NOON.", "nsi_id": "unitedstatespostalservice-a77078", "operator": "United States Postal Service", "operator:short": "USPS", "operator:type": "public", "operator:wikidata": "Q668687", "ref": "5810300056"}, "type": "Feature"}
{"geometry": {"coordinates": [-96.7874715, 46.874016], "type": "Point"}, "id": "RuIUjlO0lbiVpVk1ExjzFaP5fQ0=", "properties": {"@source_uri": "https://tools.usps.com/UspsToolsRestServices/rest/POLocator/findLocations", "@spider": "usps_collection_boxes", "addr:city": "FARGO", "addr:country": "US", "addr:postcode": "58103", "addr:state": "ND", "addr:street_address": "520 MAIN AVE", "amenity": "post_box", "collection_times": "Mo-Fr 09:00", "nsi_id": "unitedstatespostalservice-a77078", "operator": "United States Postal Service", "operator:short": "USPS", "operator:type": "public", "operator:wikidata": "Q668687", "ref": "5810300061"}, "type": "Feature"}
{"geometry": {"coordinates": [-96.864850912, 46.850947501], "type": "Point"}, "id": "v3o8zlJiz0YBK1ZBU7ClD6o_p4Y=", "properties": {"@source_uri": "https://tools.usps.com/UspsToolsRestServices/rest/POLocator/findLocations", "@spider": "usps_collection_boxes", "addr:city": "FARGO", "addr:country": "US", "addr:postcode": "58103", "addr:state": "ND", "addr:street_address": "4510 19TH AVE SW", "amenity": "post_box", "collection_times": "Mo-Fr 16:15", "note": "ON 12/24 AND 12/31, THIS BOX MAY BE COLLECTED AS EARLY AS 12 NOON.", "nsi_id": "unitedstatespostalservice-a77078", "operator": "United States Postal Service", "operator:short": "USPS", "operator:type": "public", "operator:wikidata": "Q668687", "ref": "5810300067"}, "type": "Feature"}
{"geometry": {"coordinates": [-96.820012169, 46.833237], "type": "Point"}, "id": "c3InEjQpitRce1ejNCuLoW9srSY=", "properties": {"@source_uri": "https://tools.usps.com/UspsToolsRestServices/rest/POLocator/findLocations", "@spider": "usps_collection_boxes", "addr:city": "FARGO", "addr:country": "US", "addr:postcode": "58103", "addr:state": "ND", "addr:street_address": "3175 25TH ST SW", "amenity": "post_box", "collection_times": "Mo-Sa 16:00", "note": "ON 12/24 AND 12/31, THIS BOX MAY BE COLLECTED AS EARLY AS 12 NOON.", "nsi_id": "unitedstatespostalservice-a77078", "operator": "United States Postal Service", "operator:short": "USPS", "operator:type": "public", "operator:wikidata": "Q668687", "ref": "5810300068"}, "type": "Feature"}
{"geometry": {"coordinates": [-96.798522398, 46.858932196], "type": "Point"}, "id": "Dedt0LPyQolu1jykbnM28XmGzSU=", "properties": {"@source_uri": "https://tools.usps.com/UspsToolsRestServices/rest/POLocator/findLocations", "@spider": "usps_collection_boxes", "addr:city": "FARGO", "addr:country": "US", "addr:postcode": "58103", "addr:state": "ND", "addr:street_address": "1433 UNIVERSITY DR S", "amenity": "post_box", "collection_times": "Mo-Fr 17:00; Sa 16:00", "note": "ON 12/24 AND 12/31, THIS BOX MAY BE COLLECTED AS EARLY AS 12 NOON.", "nsi_id": "unitedstatespostalservice-a77078", "operator": "United States Postal Service", "operator:short": "USPS", "operator:type": "public", "operator:wikidata": "Q668687", "ref": "5810300069"}, "type": "Feature"}
{"geometry": {"coordinates": [-96.819572823, 46.860462], "type": "Point"}, "id": "obYPpB6wKEN_Klc1wK4kdAiz2Sw=", "properties": {"@source_uri": "https://tools.usps.com/UspsToolsRestServices/rest/POLocator/findLocations", "@spider": "usps_collection_boxes", "addr:city": "FARGO", "addr:country": "US", "addr:postcode": "58103", "addr:state": "ND", "addr:street_address": "1326 25TH ST S", "amenity": "post_box", "collection_times": "Mo-Fr 16:45", "note": "ON 12/24 AND 12/31, THIS BOX MAY BE COLLECTED AS EARLY AS 12 NOON.", "nsi_id": "unitedstatespostalservice-a77078", "operator": "United States Postal Service", "operator:short": "USPS", "operator:type": "public", "operator:wikidata": "Q668687", "ref": "5810300073"}, "type": "Feature"}
{"geometry": {"coordinates": [-96.865731496, 46.861983455], "type": "Point"}, "id": "XEpj0u9x9LfE8k1VW858bixLCgU=", "properties": {"@source_uri": "https://tools.usps.com/UspsToolsRestServices/rest/POLocator/findLocations", "@spider": "usps_collection_boxes", "addr:city": "FARGO", "addr:country": "US", "addr:postcode": "58103", "addr:state": "ND", "addr:street_address": "4731 13TH AVE S", "amenity": "post_box", "collection_times": "Mo-Fr 16:00", "note": "ON 12/24 AND 12/31, THIS BOX MAY BE COLLECTED AS EARLY AS 12 NOON.", "nsi_id": "unitedstatespostalservice-a77078", "operator": "United States Postal Service", "operator:short": "USPS", "operator:type": "public", "operator:wikidata": "Q668687", "ref": "5810300094"}, "type": "Feature"}
{"geometry": {"coordinates": [-96.8523360588, 46.8558038431], "type": "Point"}, "id": "jxXCSRUsQn2S8fSH6DPV2GpYDjk=", "properties": {"@source_uri": "https://tools.usps.com/UspsToolsRestServices/rest/POLocator/findLocations", "@spider": "usps_collection_boxes", "addr:city": "FARGO", "addr:country": "US", "addr:postcode": "58103", "addr:state": "ND", "addr:street_address": "1635 42ND ST SW", "amenity": "post_box", "collection_times": "Mo-Fr 16:45", "note": "ON 12/24 AND 12/31, THIS BOX MAY BE COLLECTED AS EARLY AS 12 NOON.", "nsi_id": "unitedstatespostalservice-a77078", "operator": "United States Postal Service", "operator:short": "USPS", "operator:type": "public", "operator:wikidata": "Q668687", "ref": "5810300095"}, "type": "Feature"}
{"geometry": {"coordinates": [-96.8275170758, 46.8314602817], "type": "Point"}, "id": "ni1ssFusJWSLkE3ee6dX_M_yv_k=", "properties": {"@source_uri": "https://tools.usps.com/UspsToolsRestServices/rest/POLocator/findLocations", "@spider": "usps_collection_boxes", "addr:city": "FARGO", "addr:country": "US", "addr:postcode": "58103", "addr:state": "ND", "addr:street_address": "3000 32ND AVE SW", "amenity": "post_box", "collection_times": "Mo-Fr 16:15", "note": "ON 12/24 AND 12/31, THIS BOX MAY BE COLLECTED AS EARLY AS 12 NOON.", "nsi_id": "unitedstatespostalservice-a77078", "operator": "United States Postal Service", "operator:short": "USPS", "operator:type": "public", "operator:wikidata": "Q668687", "ref": "5810300096"}, "type": "Feature"}
{"geometry": {"coordinates": [-96.832291416, 46.832689505], "type": "Point"}, "id": "dxyabe1RLGTL7w4tKLEVcUR0ZGo=", "properties": {"@source_uri": "https://tools.usps.com/UspsToolsRestServices/rest/POLocator/findLocations", "@spider": "usps_collection_boxes", "addr:city": "FARGO", "addr:country": "US", "addr:postcode": "58103", "addr:state": "ND", "addr:street_address": "3223 32ND AVE S", "amenity": "post_box", "collection_times": "Mo-Fr 16:00", "note": "ON 12/24 AND 12/31, THIS BOX MAY BE COLLECTED AS EARLY AS 12 NOON.", "nsi_id": "unitedstatespostalservice-a77078", "operator": "United States Postal Service", "operator:short": "USPS", "operator:type": "public", "operator:wikidata": "Q668687", "ref": "5810300099"}, "type": "Feature"}
{"geometry": {"coordinates": [-96.817691672, 46.832459506], "type": "Point"}, "id": "lJG5_i9M_gRDI4jGO1CxoCp82Bo=", "properties": {"@source_uri": "https://tools.usps.com/UspsToolsRestServices/rest/POLocator/findLocations", "@spider": "usps_collection_boxes", "addr:city": "FARGO", "addr:country": "US", "addr:postcode": "58103", "addr:state": "ND", "addr:street_address": "2400 32ND AVE S", "amenity": "post_box", "collection_times": "Mo-Fr 16:25", "note": "ON 12/24 AND 12/31, THIS BOX MAY BE COLLECTED AS EARLY AS 12 NOON.", "nsi_id": "unitedstatespostalservice-a77078", "operator": "United States Postal Service", "operator:short": "USPS", "operator:type": "public", "operator:wikidata": "Q668687", "ref": "5810300100"}, "type": "Feature"}
{"geometry": {"coordinates": [-96.830192171, 46.858049696], "type": "Point"}, "id": "V2VCtumOjbDqasl3PPt8Mhc6gnY=", "properties": {"@source_uri": "https://tools.usps.com/UspsToolsRestServices/rest/POLocator/findLocations", "@spider": "usps_collection_boxes", "addr:city": "FARGO", "addr:country": "US", "addr:postcode": "58103", "addr:state": "ND", "addr:street_address": "1455 32ND ST S", "amenity": "post_box", "collection_times": "Mo-Fr 17:45; Sa 17:15", "indoor": "yes", "note": "ON 12/24 AND 12/31, THIS BOX MAY BE COLLECTED AS EARLY AS 12 NOON.", "nsi_id": "unitedstatespostalservice-a77078", "operator": "United States Postal Service", "operator:short": "USPS", "operator:type": "public", "operator:wikidata": "Q668687", "ref": "5810300104"}, "type": "Feature"}
{"geometry": {"coordinates": [-96.830192171, 46.858049696], "type": "Point"}, "id": "C7_BPCoarCCIjPMklAHrVU2va1U=", "properties": {"@source_uri": "https://tools.usps.com/UspsToolsRestServices/rest/POLocator/findLocations", "@spider": "usps_collection_boxes", "addr:city": "FARGO", "addr:country": "US", "addr:postcode": "58103", "addr:state": "ND", "addr:street_address": "1455 32ND ST S", "amenity": "post_box", "collection_times": "Mo-Fr 17:45; Sa 17:15", "indoor": "yes", "note": "ON 12/24 AND 12/31, THIS BOX MAY BE COLLECTED AS EARLY AS 12 NOON.", "nsi_id": "unitedstatespostalservice-a77078", "operator": "United States Postal Service", "operator:short": "USPS", "operator:type": "public", "operator:wikidata": "Q668687", "ref": "5810300109"}, "type": "Feature"}
{"geometry": {"coordinates": [-96.846140588, 46.861803463], "type": "Point"}, "id": "XnFg6IbIFR-tVRwe1HJbrkcIubk=", "properties": {"@source_uri": "https://tools.usps.com/UspsToolsRestServices/rest/POLocator/findLocations", "@spider": "usps_collection_boxes", "addr:city": "FARGO", "addr:country": "US", "addr:postcode": "58103", "addr:state": "ND", "addr:street_address": "3803 13TH AVE S", "amenity": "post_box", "collection_times": "Mo-Fr 17:15", "note": "ON 12/24 AND 12/31, THIS BOX MAY BE COLLECTED AS EARLY AS 12 NOON.", "nsi_id": "unitedstatespostalservice-a77078", "operator": "United States Postal Service", "operator:short": "USPS", "operator:type": "public", "operator:wikidata": "Q668687", "ref": "5810300111"}, "type": "Feature"}
{"geometry": {"coordinates": [-96.799148571, 46.838936694], "type": "Point"}, "id": "fGTNYJEHqxO0fHZRYaWzmy7MoyI=", "properties": {"@source_uri": "https://tools.usps.com/UspsToolsRestServices/rest/POLocator/findLocations", "@spider": "usps_collection_boxes", "addr:city": "FARGO", "addr:country": "US", "addr:postcode": "58103", "addr:state": "ND", "addr:street_address": "2701 UNIVERSITY DR S", "amenity": "post_box", "collection_times": "Mo-Fr 16:45; Sa 16:00", "note": "ON 12/24 AND 12/31, THIS BOX MAY BE COLLECTED AS EARLY AS 12 NOON.", "nsi_id": "unitedstatespostalservice-a77078", "operator": "United States Postal Service", "operator:short": "USPS", "operator:type": "public", "operator:wikidata": "Q668687", "ref": "5810300117"}, "type": "Feature"}
{"geometry": {"coordinates": [-96.7860315, 46.873773], "type": "Point"}, "id": "SkEUsmBfx3CFHhaJh_e6bYvn1bI=", "properties": {"@source_uri": "https://tools.usps.com/UspsToolsRestServices/rest/POLocator/findLocations", "@spider": "usps_collection_boxes", "addr:city": "FARGO", "addr:country": "US", "addr:postcode": "58103", "addr:state": "ND", "addr:street_address": "406 MAIN AVE", "amenity": "post_box", "collection_times": "Mo-Fr 16:00", "note": "ON 12/24 AND 12/31, THIS BOX MAY BE COLLECTED AS EARLY AS 12 NOON.", "nsi_id": "unitedstatespostalservice-a77078", "operator": "United States Postal Service", "operator:short": "USPS", "operator:type": "public", "operator:wikidata": "Q668687", "ref": "5810300118"}, "type": "Feature"}
{"geometry": {"coordinates": [-96.784758, 46.873107], "type": "Point"}, "id": "NajW5He9DSQB5Ga-skLFbjUXCvA=", "properties": {"@source_uri": "https://tools.usps.com/UspsToolsRestServices/rest/POLocator/findLocations", "@spider": "usps_collection_boxes", "addr:city": "FARGO", "addr:country": "US", "addr:postcode": "58103", "addr:state": "ND", "addr:street_address": "100 4TH ST S", "amenity": "post_box", "collection_times": "Mo-Fr 16:15", "note": "ON 12/24 AND 12/31, THIS BOX MAY BE COLLECTED AS EARLY AS 12 NOON.", "nsi_id": "unitedstatespostalservice-a77078", "operator": "United States Postal Service", "operator:short": "USPS", "operator:type": "public", "operator:wikidata": "Q668687", "ref": "5810300119"}, "type": "Feature"}
{"geometry": {"coordinates": [-96.863897087, 46.841938485], "type": "Point"}, "id": "cauIKuK4Gzn2ft5BZ6DaWNFtD9E=", "properties": {"@source_uri": "https://tools.usps.com/UspsToolsRestServices/rest/POLocator/findLocations", "@spider": "usps_collection_boxes", "addr:city": "FARGO", "addr:country": "US", "addr:postcode": "58104", "addr:state": "ND", "addr:street_address": "4614 AMBER VALLEY PKWY S", "amenity": "post_box", "collection_times": "Mo-Fr 16:15", "note": "ON 12/24 AND 12/31, THIS BOX MAY BE COLLECTED AS EARLY AS 12 NOON.", "nsi_id": "unitedstatespostalservice-a77078", "operator": "United States Postal Service", "operator:short": "USPS", "operator:type": "public", "operator:wikidata": "Q668687", "ref": "5810400001"}, "type": "Feature"}
{"geometry": {"coordinates": [-96.819684052, 46.824848047], "type": "Point"}, "id": "Cu_3dv5MS49jbEAK0fZRh5tjP_I=", "properties": {"@source_uri": "https://tools.usps.com/UspsToolsRestServices/rest/POLocator/findLocations", "@spider": "usps_collection_boxes", "addr:city": "FARGO", "addr:country": "US", "addr:postcode": "58104", "addr:state": "ND", "addr:street_address": "3545 25TH ST S", "amenity": "post_box", "collection_times": "Mo-Fr 16:20", "note": "ON 12/24 AND 12/31, THIS BOX MAY BE COLLECTED AS EARLY AS 12 NOON.", "nsi_id": "unitedstatespostalservice-a77078", "operator": "United States Postal Service", "operator:short": "USPS", "operator:type": "public", "operator:wikidata": "Q668687", "ref": "5810400003"}, "type": "Feature"}
{"geometry": {"coordinates": [-96.845742321, 46.833587916], "type": "Point"}, "id": "PdFCwRW7Gm91BzQoJQSIVP9jBVc=", "properties": {"@source_uri": "https://tools.usps.com/UspsToolsRestServices/rest/POLocator/findLocations", "@spider": "usps_collection_boxes", "addr:city": "FARGO", "addr:country": "US", "addr:postcode": "58104", "addr:state": "ND", "addr:street_address": "3150 39TH ST S", "amenity": "post_box", "collection_times": "Mo-Sa 16:10", "note": "ON 12/24 AND 12/31, THIS BOX MAY BE COLLECTED AS EARLY AS 12 NOON.", "nsi_id": "unitedstatespostalservice-a77078", "operator": "United States Postal Service", "operator:short": "USPS", "operator:type": "public", "operator:wikidata": "Q668687", "ref": "5810400004"}, "type": "Feature"}
{"geometry": {"coordinates": [-96.86162091, 46.817634165], "type": "Point"}, "id": "7bgzZnWHQ4d9Du5zYPVO2Lhg7Rs=", "properties": {"@source_uri": "https://tools.usps.com/UspsToolsRestServices/rest/POLocator/findLocations", "@spider": "usps_collection_boxes", "addr:city": "FARGO", "addr:country": "US", "addr:postcode": "58104", "addr:state": "ND", "addr:street_address": "4151 45TH ST S", "amenity": "post_box", "collection_times": "Mo-Fr 16:15; Sa 16:30", "note": "ON 12/24 AND 12/31, THIS BOX MAY BE COLLECTED AS EARLY AS 12 NOON.", "nsi_id": "unitedstatespostalservice-a77078", "operator": "United States Postal Service", "operator:short": "USPS", "operator:type": "public", "operator:wikidata": "Q668687", "ref": "5810400006"}, "type": "Feature"}
