{"geometry": {"coordinates": [-97.671192171, 48.595570177], "type": "Point"}, "id": "E4_6CMp0ylxT3GGqsckW9L37Evk=", "properties": {"@spider": "usps_collection_boxes", "addr:city": "CRYSTAL", "addr:country": "US", "addr:full": "332 3RD ST", "addr:postcode": "58222", "addr:state": "ND", "brand": "USPS", "collection_times": "Mo-Fr 16:30; Sa 15:30", "name": "USPS COLLECTION BOX - BLUE BOX", "note": "ON 12/24 AND 12/31, THIS BOX MAY BE COLLECTED AS EARLY AS 12 NOON.", "ref": "5822200001"}, "type": "Feature"}
{"geometry": {"coordinates": [-97.671192171, 48.595570177], "type": "Point"}, "id": "vQLnqhojV5j96LjCm8FIkA57Dko=", "properties": {"@spider": "usps_collection_boxes", "addr:city": "CRYSTAL", "addr:country": "US", "addr:full": "332 3RD ST", "addr:postcode": "58222", "addr:state": "ND", "brand": "USPS", "collection_times": "Mo-Fr 14:45; Sa 12:15", "name": "USPS COLLECTION BOX - PO LOBBY", "note": "ON 12/24 AND 12/31, THIS BOX MAY BE COLLECTED AS EARLY AS 12 NOON.", "ref": "5822200002"}, "type": "Feature"}
{"geometry": {"coordinates": [-97.671192171, 48.595570177], "type": "Point"}, "id": "GZA8fgSVTYA2R-yexhUSgPMQopA=", "properties": {"@spider": "usps_collection_boxes", "addr:city": "CRYSTAL", "addr:country": "US", "addr:full": "332 3RD ST", "addr:postcode": "58222", "addr:state": "ND", "brand": "USPS", "collection_times": "Mo-Fr 14:45; Sa 12:15", "name": "USPS COLLECTION BOX - PO LOBBY", "note": "ON 12/24 AND 12/31, THIS BOX MAY BE COLLECTED AS EARLY AS 12 NOON.", "ref": "5822200003"}, "type": "Feature"}
{"geometry": {"coordinates": [-97.667680568, 48.688119], "type": "Point"}, "id": "uprsl7AK5LQrcWSyhzC3FOMKOzg=", "properties": {"@spider": "usps_collection_boxes", "addr:city": "HENSEL", "addr:country": "US", "addr:full": "109 E MAIN ST", "addr:postcode": "58241", "addr:state": "ND", "brand": "USPS", "collection_times": "Mo-Fr 16:15; Sa 15:15", "name": "USPS COLLECTION BOX - BLUE BOX", "note": "ON 12/24 AND 12/31, THIS BOX MAY BE COLLECTED AS EARLY AS 12 NOON.", "ref": "5824100001"}, "type": "Feature"}
{"geometry": {"coordinates": [-97.667680568, 48.688119], "type": "Point"}, "id": "-VDriqBsbS21iIt9Tfhes9AKtpI=", "properties": {"@spider": "usps_collection_boxes", "addr:city": "HENSEL", "addr:country": "US", "addr:full": "109 E MAIN ST", "addr:postcode": "58241", "addr:state": "ND", "brand": "USPS", "collection_times": "Mo-Fr 15:15; Sa 13:20", "name": "USPS COLLECTION BOX - PO LOBBY", "note": "ON 12/24 AND 12/31, THIS BOX MAY BE COLLECTED AS EARLY AS 12 NOON.", "ref": "5824100002"}, "type": "Feature"}
{"geometry": {"coordinates": [-97.6676760682, 48.688119], "type": "Point"}, "id": "wDvJQJ1bNO1T8GDVcXcWnC0s-sA=", "properties": {"@spider": "usps_collection_boxes", "addr:city": "HENSEL", "addr:country": "US", "addr:full": "109 E MAIN ST", "addr:postcode": "58241", "addr:state": "ND", "brand": "USPS", "collection_times": "Mo-Fr 15:30; Sa 13:30", "name": "USPS COLLECTION BOX - PO LOBBY", "note": "ON 12/24 AND 12/31, THIS BOX MAY BE COLLECTED AS EARLY AS 12 NOON.", "ref": "5824100003"}, "type": "Feature"}
{"geometry": {"coordinates": [-97.636994232, 48.534836268], "type": "Point"}, "id": "4csDa2gtbjvXum0zkkSphVp6kAM=", "properties": {"@spider": "usps_collection_boxes", "addr:city": "HOOPLE", "addr:country": "US", "addr:full": "236 2ND ST", "addr:postcode": "58243", "addr:state": "ND", "brand": "USPS", "collection_times": "Mo-Fr 16:15; Sa 15:30", "name": "USPS COLLECTION BOX - BLUE BOX", "note": "ON 12/24 AND 12/31, THIS BOX MAY BE COLLECTED AS EARLY AS 12 NOON.", "ref": "5824300001"}, "type": "Feature"}
{"geometry": {"coordinates": [-97.636994232, 48.534836268], "type": "Point"}, "id": "FmwRFShQlzCnpkaLRjC4h2Tab-Q=", "properties": {"@spider": "usps_collection_boxes", "addr:city": "HOOPLE", "addr:country": "US", "addr:full": "236 2ND ST", "addr:postcode": "58243", "addr:state": "ND", "brand": "USPS", "collection_times": "Mo-Fr 12:00; Sa 09:45", "name": "USPS COLLECTION BOX - PO LOBBY", "ref": "5824300002"}, "type": "Feature"}
{"geometry": {"coordinates": [-97.865143864, 48.684880404], "type": "Point"}, "id": "DRe_VwTUHWdnCQuUZKH-FMi2URM=", "properties": {"@spider": "usps_collection_boxes", "addr:city": "MOUNTAIN", "addr:country": "US", "addr:full": "324 MAIN AVE", "addr:postcode": "58262", "addr:state": "ND", "brand": "USPS", "collection_times": "Mo-Sa 10:30", "name": "USPS COLLECTION BOX - BLUE BOX", "ref": "5826200001"}, "type": "Feature"}
