{"geometry": {"coordinates": [-98.860352467, 48.113512795], "type": "Point"}, "id": "CxuhOpFJD4QcXU6D7HKR5HSnhBo=", "properties": {"@source_uri": "https://tools.usps.com/UspsToolsRestServices/rest/POLocator/findLocations", "@spider": "usps_collection_boxes", "addr:city": "DEVILS LAKE", "addr:country": "US", "addr:postcode": "58301", "addr:state": "ND", "addr:street_address": "524 4TH AVE NE", "amenity": "post_box", "collection_times": "Mo-Fr 17:00", "note": "ON 12/24 AND 12/31, THIS BOX MAY BE COLLECTED AS EARLY AS 12 NOON.", "nsi_id": "unitedstatespostalservice-a77078", "operator": "United States Postal Service", "operator:short": "USPS", "operator:type": "public", "operator:wikidata": "Q668687", "ref": "5830100001"}, "type": "Feature"}
{"geometry": {"coordinates": [-98.859162473, 48.112781503], "type": "Point"}, "id": "cF-afkqZlOYUVqcoa3FFFJ4p538=", "properties": {"@source_uri": "https://tools.usps.com/UspsToolsRestServices/rest/POLocator/findLocations", "@spider": "usps_collection_boxes", "addr:city": "DEVILS LAKE", "addr:country": "US", "addr:postcode": "58301", "addr:state": "ND", "addr:street_address": "424 5TH ST NE", "amenity": "post_box", "collection_times": "Mo-Fr 17:00", "note": "ON 12/24 AND 12/31, THIS BOX MAY BE COLLECTED AS EARLY AS 12 NOON.", "nsi_id": "unitedstatespostalservice-a77078", "operator": "United States Postal Service", "operator:short": "USPS", "operator:type": "public", "operator:wikidata": "Q668687", "ref": "5830100002"}, "type": "Feature"}
{"geometry": {"coordinates": [-98.861732193, 48.111757514], "type": "Point"}, "id": "2EQiFhj8mfhvMII3-ras4KVL-GA=", "properties": {"@source_uri": "https://tools.usps.com/UspsToolsRestServices/rest/POLocator/findLocations", "@spider": "usps_collection_boxes", "addr:city": "DEVILS LAKE", "addr:country": "US", "addr:postcode": "58301", "addr:state": "ND", "addr:street_address": "300 4TH ST NE", "amenity": "post_box", "collection_times": "Mo-Fr 17:00", "note": "ON 12/24 AND 12/31, THIS BOX MAY BE COLLECTED AS EARLY AS 12 NOON.", "nsi_id": "unitedstatespostalservice-a77078", "operator": "United States Postal Service", "operator:short": "USPS", "operator:type": "public", "operator:wikidata": "Q668687", "ref": "5830100003"}, "type": "Feature"}
{"geometry": {"coordinates": [-98.867981886, 48.111760546], "type": "Point"}, "id": "JooOGV0hFshMfaQrgJ-UB_OsEF8=", "properties": {"@source_uri": "https://tools.usps.com/UspsToolsRestServices/rest/POLocator/findLocations", "@spider": "usps_collection_boxes", "addr:city": "DEVILS LAKE", "addr:country": "US", "addr:postcode": "58301", "addr:state": "ND", "addr:street_address": "224 4TH ST NW", "amenity": "post_box", "collection_times": "Mo-Fr 17:15", "note": "ON 12/24 AND 12/31, THIS BOX MAY BE COLLECTED AS EARLY AS 12 NOON.", "nsi_id": "unitedstatespostalservice-a77078", "operator": "United States Postal Service", "operator:short": "USPS", "operator:type": "public", "operator:wikidata": "Q668687", "ref": "5830100007"}, "type": "Feature"}
{"geometry": {"coordinates": [-98.867664168, 48.107726488], "type": "Point"}, "id": "DMvQlDMpk7ZTpmAF8p0mZFexZCU=", "properties": {"@source_uri": "https://tools.usps.com/UspsToolsRestServices/rest/POLocator/findLocations", "@spider": "usps_collection_boxes", "addr:city": "DEVILS LAKE", "addr:country": "US", "addr:postcode": "58301", "addr:state": "ND", "addr:street_address": "300 WALNUT ST W", "amenity": "post_box", "collection_times": "Mo-Fr 17:15", "note": "ON 12/24 AND 12/31, THIS BOX MAY BE COLLECTED AS EARLY AS 12 NOON.", "nsi_id": "unitedstatespostalservice-a77078", "operator": "United States Postal Service", "operator:short": "USPS", "operator:type": "public", "operator:wikidata": "Q668687", "ref": "5830100009"}, "type": "Feature"}
{"geometry": {"coordinates": [-98.864884926, 48.105578956], "type": "Point"}, "id": "MBvFSluzvoxxfeuYamOCcegejZI=", "properties": {"@source_uri": "https://tools.usps.com/UspsToolsRestServices/rest/POLocator/findLocations", "@spider": "usps_collection_boxes", "addr:city": "DEVILS LAKE", "addr:country": "US", "addr:postcode": "58301", "addr:state": "ND", "addr:street_address": "425 COLLEGE DR S", "amenity": "post_box", "collection_times": "Mo-Fr 17:15", "note": "ON 12/24 AND 12/31, THIS BOX MAY BE COLLECTED AS EARLY AS 12 NOON.", "nsi_id": "unitedstatespostalservice-a77078", "operator": "United States Postal Service", "operator:short": "USPS", "operator:type": "public", "operator:wikidata": "Q668687", "ref": "5830100010"}, "type": "Feature"}
{"geometry": {"coordinates": [-98.8488199836, 48.1013380168], "type": "Point"}, "id": "QQLsnA8imYyuVIyBov5f3jFXPsc=", "properties": {"@source_uri": "https://tools.usps.com/UspsToolsRestServices/rest/POLocator/findLocations", "@spider": "usps_collection_boxes", "addr:city": "DEVILS LAKE", "addr:country": "US", "addr:postcode": "58301", "addr:state": "ND", "addr:street_address": "1117 HIGHWAY 2 E", "amenity": "post_box", "collection_times": "Mo-Fr 17:30", "note": "ON 12/24 AND 12/31, THIS BOX MAY BE COLLECTED AS EARLY AS 12 NOON.", "nsi_id": "unitedstatespostalservice-a77078", "operator": "United States Postal Service", "operator:short": "USPS", "operator:type": "public", "operator:wikidata": "Q668687", "ref": "5830100012"}, "type": "Feature"}
{"geometry": {"coordinates": [-98.858272835, 48.110699496], "type": "Point"}, "id": "UX078FYWLVjFsc68qQHKCqyx6DE=", "properties": {"@source_uri": "https://tools.usps.com/UspsToolsRestServices/rest/POLocator/findLocations", "@spider": "usps_collection_boxes", "addr:city": "DEVILS LAKE", "addr:country": "US", "addr:postcode": "58301", "addr:state": "ND", "addr:street_address": "502 3RD ST NE", "amenity": "post_box", "collection_times": "Mo-Fr 18:00; Sa 17:30", "note": "ON 12/24 AND 12/31, THIS BOX MAY BE COLLECTED AS EARLY AS 12 NOON.", "nsi_id": "unitedstatespostalservice-a77078", "operator": "United States Postal Service", "operator:short": "USPS", "operator:type": "public", "operator:wikidata": "Q668687", "ref": "5830100024"}, "type": "Feature"}
{"geometry": {"coordinates": [-98.858272835, 48.110699496], "type": "Point"}, "id": "7LLVBc7Zp9_AbzaCsUWm1HZhWqU=", "properties": {"@source_uri": "https://tools.usps.com/UspsToolsRestServices/rest/POLocator/findLocations", "@spider": "usps_collection_boxes", "addr:city": "DEVILS LAKE", "addr:country": "US", "addr:postcode": "58301", "addr:state": "ND", "addr:street_address": "502 3RD ST NE", "amenity": "post_box", "collection_times": "Mo-Fr 18:00; Sa 17:30", "indoor": "yes", "note": "ON 12/24 AND 12/31, THIS BOX MAY BE COLLECTED AS EARLY AS 12 NOON.", "nsi_id": "unitedstatespostalservice-a77078", "operator": "United States Postal Service", "operator:short": "USPS", "operator:type": "public", "operator:wikidata": "Q668687", "ref": "5830100028"}, "type": "Feature"}
{"geometry": {"coordinates": [-98.8686345, 48.10463593], "type": "Point"}, "id": "UHvThxE4F8Iiuu8SZ9FhnK8YRTc=", "properties": {"@source_uri": "https://tools.usps.com/UspsToolsRestServices/rest/POLocator/findLocations", "@spider": "usps_collection_boxes", "addr:city": "DEVILS LAKE", "addr:country": "US", "addr:postcode": "58301", "addr:state": "ND", "addr:street_address": "210 HIGHWAY 2 W", "amenity": "post_box", "collection_times": "Mo-Fr 17:15; Sa 15:00", "note": "ON 12/24 AND 12/31, THIS BOX MAY BE COLLECTED AS EARLY AS 12 NOON.", "nsi_id": "unitedstatespostalservice-a77078", "operator": "United States Postal Service", "operator:short": "USPS", "operator:type": "public", "operator:wikidata": "Q668687", "ref": "5830100039"}, "type": "Feature"}
{"geometry": {"coordinates": [-98.858272835, 48.110699496], "type": "Point"}, "id": "2BokoaxLuxD1cOu4pkQ8H157St8=", "properties": {"@source_uri": "https://tools.usps.com/UspsToolsRestServices/rest/POLocator/findLocations", "@spider": "usps_collection_boxes", "addr:city": "DEVILS LAKE", "addr:country": "US", "addr:postcode": "58301", "addr:state": "ND", "addr:street_address": "502 3RD ST NE", "amenity": "post_box", "collection_times": "Mo-Fr 17:00; Sa 12:00", "indoor": "yes", "note": "ON 12/24 AND 12/31, THIS BOX MAY BE COLLECTED AS EARLY AS 12 NOON.", "nsi_id": "unitedstatespostalservice-a77078", "operator": "United States Postal Service", "operator:short": "USPS", "operator:type": "public", "operator:wikidata": "Q668687", "ref": "5830100041"}, "type": "Feature"}
{"geometry": {"coordinates": [-99.750078954, 48.838737955], "type": "Point"}, "id": "To22s1_vGAjzbL5ln_PpXL-ePWQ=", "properties": {"@source_uri": "https://tools.usps.com/UspsToolsRestServices/rest/POLocator/findLocations", "@spider": "usps_collection_boxes", "addr:city": "BELCOURT", "addr:country": "US", "addr:postcode": "58316", "addr:state": "ND", "addr:street_address": "1 EXPRESS LN", "amenity": "post_box", "collection_times": "Mo-Sa 15:45", "note": "ON 12/24 AND 12/31, THIS BOX MAY BE COLLECTED AS EARLY AS 12 NOON.", "nsi_id": "unitedstatespostalservice-a77078", "operator": "United States Postal Service", "operator:short": "USPS", "operator:type": "public", "operator:wikidata": "Q668687", "ref": "5831600001"}, "type": "Feature"}
{"geometry": {"coordinates": [-99.750078954, 48.838737955], "type": "Point"}, "id": "xJhAa6PRGtcnt_0xd7Cd4qXV4zQ=", "properties": {"@source_uri": "https://tools.usps.com/UspsToolsRestServices/rest/POLocator/findLocations", "@spider": "usps_collection_boxes", "addr:city": "BELCOURT", "addr:country": "US", "addr:postcode": "58316", "addr:state": "ND", "addr:street_address": "1 EXPRESS LN", "amenity": "post_box", "collection_times": "Mo-Fr 15:45; Sa 12:00", "indoor": "yes", "note": "ON 12/24 AND 12/31, THIS BOX MAY BE COLLECTED AS EARLY AS 12 NOON.", "nsi_id": "unitedstatespostalservice-a77078", "operator": "United States Postal Service", "operator:short": "USPS", "operator:type": "public", "operator:wikidata": "Q668687", "ref": "5831600002"}, "type": "Feature"}
{"geometry": {"coordinates": [-99.750078954, 48.838737955], "type": "Point"}, "id": "_4qgw47WnrXuDMq-bhmnAEM8Yp4=", "properties": {"@source_uri": "https://tools.usps.com/UspsToolsRestServices/rest/POLocator/findLocations", "@spider": "usps_collection_boxes", "addr:city": "BELCOURT", "addr:country": "US", "addr:postcode": "58316", "addr:state": "ND", "addr:street_address": "1 EXPRESS LN", "amenity": "post_box", "collection_times": "Mo-Fr 15:35; Sa 11:50", "indoor": "yes", "note": "ON 12/24 AND 12/31, THIS BOX MAY BE COLLECTED AS EARLY AS 12 NOON.", "nsi_id": "unitedstatespostalservice-a77078", "operator": "United States Postal Service", "operator:short": "USPS", "operator:type": "public", "operator:wikidata": "Q668687", "ref": "5831600003"}, "type": "Feature"}
{"geometry": {"coordinates": [-99.379841478, 48.627408093], "type": "Point"}, "id": "__ikry7m5Hj2VtvUPtzVx7G38Ic=", "properties": {"@source_uri": "https://tools.usps.com/UspsToolsRestServices/rest/POLocator/findLocations", "@spider": "usps_collection_boxes", "addr:city": "BISBEE", "addr:country": "US", "addr:postcode": "58317", "addr:state": "ND", "addr:street_address": "206 MAIN ST", "amenity": "post_box", "collection_times": "Mo-Fr 11:45; Sa 09:45", "nsi_id": "unitedstatespostalservice-a77078", "operator": "United States Postal Service", "operator:short": "USPS", "operator:type": "public", "operator:wikidata": "Q668687", "ref": "5831700001"}, "type": "Feature"}
{"geometry": {"coordinates": [-99.379841478, 48.627408093], "type": "Point"}, "id": "ghZRd4dokjOS7xzSCtf-ASCah38=", "properties": {"@source_uri": "https://tools.usps.com/UspsToolsRestServices/rest/POLocator/findLocations", "@spider": "usps_collection_boxes", "addr:city": "BISBEE", "addr:country": "US", "addr:postcode": "58317", "addr:state": "ND", "addr:street_address": "206 MAIN ST", "amenity": "post_box", "collection_times": "Mo-Fr 12:00; Sa 10:00", "indoor": "yes", "nsi_id": "unitedstatespostalservice-a77078", "operator": "United States Postal Service", "operator:short": "USPS", "operator:type": "public", "operator:wikidata": "Q668687", "ref": "5831700003"}, "type": "Feature"}
{"geometry": {"coordinates": [-99.379841478, 48.627408093], "type": "Point"}, "id": "6fqRbvJZhw7Aai-SXnHwJ5h86aQ=", "properties": {"@source_uri": "https://tools.usps.com/UspsToolsRestServices/rest/POLocator/findLocations", "@spider": "usps_collection_boxes", "addr:city": "BISBEE", "addr:country": "US", "addr:postcode": "58317", "addr:state": "ND", "addr:street_address": "206 MAIN ST", "amenity": "post_box", "collection_times": "Mo-Fr 11:50; Sa 09:50", "indoor": "yes", "nsi_id": "unitedstatespostalservice-a77078", "operator": "United States Postal Service", "operator:short": "USPS", "operator:type": "public", "operator:wikidata": "Q668687", "ref": "5831700004"}, "type": "Feature"}
{"geometry": {"coordinates": [-100.444393528, 48.826456125], "type": "Point"}, "id": "jEd8tejthB7iFgB-pzQj6TEXr2M=", "properties": {"@source_uri": "https://tools.usps.com/UspsToolsRestServices/rest/POLocator/findLocations", "@spider": "usps_collection_boxes", "addr:city": "BOTTINEAU", "addr:country": "US", "addr:postcode": "58318", "addr:state": "ND", "addr:street_address": "522 THOMPSON ST", "amenity": "post_box", "collection_times": "Mo-Sa 15:20", "note": "ON 12/24 AND 12/31, THIS BOX MAY BE COLLECTED AS EARLY AS 12 NOON.", "nsi_id": "unitedstatespostalservice-a77078", "operator": "United States Postal Service", "operator:short": "USPS", "operator:type": "public", "operator:wikidata": "Q668687", "ref": "5831800001"}, "type": "Feature"}
{"geometry": {"coordinates": [-100.444393528, 48.826456125], "type": "Point"}, "id": "an76G8NpGx-uwPEOP-MK0l8G6xY=", "properties": {"@source_uri": "https://tools.usps.com/UspsToolsRestServices/rest/POLocator/findLocations", "@spider": "usps_collection_boxes", "addr:city": "BOTTINEAU", "addr:country": "US", "addr:postcode": "58318", "addr:state": "ND", "addr:street_address": "522 THOMPSON ST", "amenity": "post_box", "collection_times": "Mo-Fr 15:20; Sa 12:30", "indoor": "yes", "note": "ON 12/24 AND 12/31, THIS BOX MAY BE COLLECTED AS EARLY AS 12 NOON.", "nsi_id": "unitedstatespostalservice-a77078", "operator": "United States Postal Service", "operator:short": "USPS", "operator:type": "public", "operator:wikidata": "Q668687", "ref": "5831800004"}, "type": "Feature"}
{"geometry": {"coordinates": [-100.444393528, 48.826456125], "type": "Point"}, "id": "o9eFjDCJQ7fBPv-XpRUpRRlnOW0=", "properties": {"@source_uri": "https://tools.usps.com/UspsToolsRestServices/rest/POLocator/findLocations", "@spider": "usps_collection_boxes", "addr:city": "BOTTINEAU", "addr:country": "US", "addr:postcode": "58318", "addr:state": "ND", "addr:street_address": "522 THOMPSON ST", "amenity": "post_box", "collection_times": "Mo-Fr 15:20; Sa 12:20", "indoor": "yes", "note": "ON 12/24 AND 12/31, THIS BOX MAY BE COLLECTED AS EARLY AS 12 NOON.", "nsi_id": "unitedstatespostalservice-a77078", "operator": "United States Postal Service", "operator:short": "USPS", "operator:type": "public", "operator:wikidata": "Q668687", "ref": "5831800005"}, "type": "Feature"}
{"geometry": {"coordinates": [-98.354011249, 48.213149468], "type": "Point"}, "id": "PBAIXDu18G1dOKWZlj1U6L_gm9s=", "properties": {"@source_uri": "https://tools.usps.com/UspsToolsRestServices/rest/POLocator/findLocations", "@spider": "usps_collection_boxes", "addr:city": "BROCKET", "addr:country": "US", "addr:postcode": "58321", "addr:state": "ND", "addr:street_address": "211 MAIN ST E", "amenity": "post_box", "collection_times": "Mo-Sa 09:45", "nsi_id": "unitedstatespostalservice-a77078", "operator": "United States Postal Service", "operator:short": "USPS", "operator:type": "public", "operator:wikidata": "Q668687", "ref": "5832100001"}, "type": "Feature"}
{"geometry": {"coordinates": [-98.354011249, 48.213149468], "type": "Point"}, "id": "iOOVBI6rgE1ma_dXzaQ1pRIgaQY=", "properties": {"@source_uri": "https://tools.usps.com/UspsToolsRestServices/rest/POLocator/findLocations", "@spider": "usps_collection_boxes", "addr:city": "BROCKET", "addr:country": "US", "addr:postcode": "58321", "addr:state": "ND", "addr:street_address": "211 MAIN ST E", "amenity": "post_box", "collection_times": "Mo-Fr 09:45; Sa 10:15", "indoor": "yes", "nsi_id": "unitedstatespostalservice-a77078", "operator": "United States Postal Service", "operator:short": "USPS", "operator:type": "public", "operator:wikidata": "Q668687", "ref": "5832100002"}, "type": "Feature"}
{"geometry": {"coordinates": [-98.354011249, 48.213149468], "type": "Point"}, "id": "ft3OKF6rLedPXmuDY3n_MqDeucI=", "properties": {"@source_uri": "https://tools.usps.com/UspsToolsRestServices/rest/POLocator/findLocations", "@spider": "usps_collection_boxes", "addr:city": "BROCKET", "addr:country": "US", "addr:postcode": "58321", "addr:state": "ND", "addr:street_address": "211 MAIN ST E", "amenity": "post_box", "collection_times": "Mo-Fr 09:45; Sa 10:00", "indoor": "yes", "nsi_id": "unitedstatespostalservice-a77078", "operator": "United States Postal Service", "operator:short": "USPS", "operator:type": "public", "operator:wikidata": "Q668687", "ref": "5832100003"}, "type": "Feature"}
{"geometry": {"coordinates": [-99.203602052, 48.490758], "type": "Point"}, "id": "yJpe4CeYXoRaB9bAZ9ASCkzIULY=", "properties": {"@source_uri": "https://tools.usps.com/UspsToolsRestServices/rest/POLocator/findLocations", "@spider": "usps_collection_boxes", "addr:city": "CANDO", "addr:country": "US", "addr:postcode": "58324", "addr:state": "ND", "addr:street_address": "403 5TH AVE", "amenity": "post_box", "collection_times": "Mo-Sa 16:00", "note": "ON 12/24 AND 12/31, THIS BOX MAY BE COLLECTED AS EARLY AS 12 NOON.", "nsi_id": "unitedstatespostalservice-a77078", "operator": "United States Postal Service", "operator:short": "USPS", "operator:type": "public", "operator:wikidata": "Q668687", "ref": "5832400001"}, "type": "Feature"}
{"geometry": {"coordinates": [-99.203602052, 48.490758], "type": "Point"}, "id": "yrPqGtwg06tx4mdKJH0LprB0jok=", "properties": {"@source_uri": "https://tools.usps.com/UspsToolsRestServices/rest/POLocator/findLocations", "@spider": "usps_collection_boxes", "addr:city": "CANDO", "addr:country": "US", "addr:postcode": "58324", "addr:state": "ND", "addr:street_address": "403 5TH AVE", "amenity": "post_box", "collection_times": "Mo-Fr 16:00; Sa 09:45", "indoor": "yes", "note": "ON 12/24 AND 12/31, THIS BOX MAY BE COLLECTED AS EARLY AS 12 NOON.", "nsi_id": "unitedstatespostalservice-a77078", "operator": "United States Postal Service", "operator:short": "USPS", "operator:type": "public", "operator:wikidata": "Q668687", "ref": "5832400002"}, "type": "Feature"}
{"geometry": {"coordinates": [-99.203602052, 48.490758], "type": "Point"}, "id": "0qGBaUo7QZ1cp8jB0nGrkXwcqNM=", "properties": {"@source_uri": "https://tools.usps.com/UspsToolsRestServices/rest/POLocator/findLocations", "@spider": "usps_collection_boxes", "addr:city": "CANDO", "addr:country": "US", "addr:postcode": "58324", "addr:state": "ND", "addr:street_address": "403 5TH AVE", "amenity": "post_box", "collection_times": "Mo-Fr 16:00; Sa 09:45", "indoor": "yes", "note": "ON 12/24 AND 12/31, THIS BOX MAY BE COLLECTED AS EARLY AS 12 NOON.", "nsi_id": "unitedstatespostalservice-a77078", "operator": "United States Postal Service", "operator:short": "USPS", "operator:type": "public", "operator:wikidata": "Q668687", "ref": "5832400003"}, "type": "Feature"}
{"geometry": {"coordinates": [-100.062534777, 48.813126259], "type": "Point"}, "id": "ah72ocDxI-1FnNacPvlZvJHATiQ=", "properties": {"@source_uri": "https://tools.usps.com/UspsToolsRestServices/rest/POLocator/findLocations", "@spider": "usps_collection_boxes", "addr:city": "DUNSEITH", "addr:country": "US", "addr:postcode": "58329", "addr:state": "ND", "addr:street_address": "100 PEACE GARDEN AVE E", "amenity": "post_box", "collection_times": "Mo-Sa 15:25", "note": "ON 12/24 AND 12/31, THIS BOX MAY BE COLLECTED AS EARLY AS 12 NOON.", "nsi_id": "unitedstatespostalservice-a77078", "operator": "United States Postal Service", "operator:short": "USPS", "operator:type": "public", "operator:wikidata": "Q668687", "ref": "5832900001"}, "type": "Feature"}
{"geometry": {"coordinates": [-100.062534777, 48.813126259], "type": "Point"}, "id": "ni6c3zdKxoq7mPUSfWdKh8p8M_8=", "properties": {"@source_uri": "https://tools.usps.com/UspsToolsRestServices/rest/POLocator/findLocations", "@spider": "usps_collection_boxes", "addr:city": "DUNSEITH", "addr:country": "US", "addr:postcode": "58329", "addr:state": "ND", "addr:street_address": "100 PEACE GARDEN AVE E", "amenity": "post_box", "collection_times": "Mo-Fr 15:25; Sa 11:30", "indoor": "yes", "note": "ON 12/24 AND 12/31, THIS BOX MAY BE COLLECTED AS EARLY AS 12 NOON.", "nsi_id": "unitedstatespostalservice-a77078", "operator": "United States Postal Service", "operator:short": "USPS", "operator:type": "public", "operator:wikidata": "Q668687", "ref": "5832900002"}, "type": "Feature"}
{"geometry": {"coordinates": [-100.062534777, 48.813126259], "type": "Point"}, "id": "aNcjftqiWVMZPq-ys3WrHu3uwlI=", "properties": {"@source_uri": "https://tools.usps.com/UspsToolsRestServices/rest/POLocator/findLocations", "@spider": "usps_collection_boxes", "addr:city": "DUNSEITH", "addr:country": "US", "addr:postcode": "58329", "addr:state": "ND", "addr:street_address": "100 PEACE GARDEN AVE E", "amenity": "post_box", "collection_times": "Mo-Fr 15:25; Sa 11:30", "indoor": "yes", "note": "ON 12/24 AND 12/31, THIS BOX MAY BE COLLECTED AS EARLY AS 12 NOON.", "nsi_id": "unitedstatespostalservice-a77078", "operator": "United States Postal Service", "operator:short": "USPS", "operator:type": "public", "operator:wikidata": "Q668687", "ref": "5832900003"}, "type": "Feature"}
{"geometry": {"coordinates": [-98.454343886, 48.410640283], "type": "Point"}, "id": "bS21j5TWIBoB5LsCqf6EwDWGbh8=", "properties": {"@source_uri": "https://tools.usps.com/UspsToolsRestServices/rest/POLocator/findLocations", "@spider": "usps_collection_boxes", "addr:city": "EDMORE", "addr:country": "US", "addr:postcode": "58330", "addr:state": "ND", "addr:street_address": "315 S MAIN ST", "amenity": "post_box", "collection_times": "Mo-Fr 14:15; Sa 09:00", "note": "ON 12/24 AND 12/31, THIS BOX MAY BE COLLECTED AS EARLY AS 12 NOON.", "nsi_id": "unitedstatespostalservice-a77078", "operator": "United States Postal Service", "operator:short": "USPS", "operator:type": "public", "operator:wikidata": "Q668687", "ref": "5833000001"}, "type": "Feature"}
{"geometry": {"coordinates": [-98.454343886, 48.410640283], "type": "Point"}, "id": "u_Xj-p1K3QYwE-P6gYGQi6xD9MI=", "properties": {"@source_uri": "https://tools.usps.com/UspsToolsRestServices/rest/POLocator/findLocations", "@spider": "usps_collection_boxes", "addr:city": "EDMORE", "addr:country": "US", "addr:postcode": "58330", "addr:state": "ND", "addr:street_address": "315 S MAIN ST", "amenity": "post_box", "collection_times": "Mo-Fr 14:30", "indoor": "yes", "note": "ON 12/24 AND 12/31, THIS BOX MAY BE COLLECTED AS EARLY AS 12 NOON.", "nsi_id": "unitedstatespostalservice-a77078", "operator": "United States Postal Service", "operator:short": "USPS", "operator:type": "public", "operator:wikidata": "Q668687", "ref": "5833000002"}, "type": "Feature"}
{"geometry": {"coordinates": [-98.454343886, 48.410640283], "type": "Point"}, "id": "oEcLZGwzBek8_zM4nJtXiqo3lgI=", "properties": {"@source_uri": "https://tools.usps.com/UspsToolsRestServices/rest/POLocator/findLocations", "@spider": "usps_collection_boxes", "addr:city": "EDMORE", "addr:country": "US", "addr:postcode": "58330", "addr:state": "ND", "addr:street_address": "315 S MAIN ST", "amenity": "post_box", "collection_times": "Mo-Fr 14:30; Sa 09:15", "indoor": "yes", "note": "ON 12/24 AND 12/31, THIS BOX MAY BE COLLECTED AS EARLY AS 12 NOON.", "nsi_id": "unitedstatespostalservice-a77078", "operator": "United States Postal Service", "operator:short": "USPS", "operator:type": "public", "operator:wikidata": "Q668687", "ref": "5833000003"}, "type": "Feature"}
{"geometry": {"coordinates": [-99.099083586, 48.628808665], "type": "Point"}, "id": "uxi00Y1TlLo96f1Fv-Ust57FEKE=", "properties": {"@source_uri": "https://tools.usps.com/UspsToolsRestServices/rest/POLocator/findLocations", "@spider": "usps_collection_boxes", "addr:city": "EGELAND", "addr:country": "US", "addr:postcode": "58331", "addr:state": "ND", "addr:street_address": "123 MAIN ST", "amenity": "post_box", "collection_times": "Mo-Fr 14:45; Sa 12:15", "note": "ON 12/24 AND 12/31, THIS BOX MAY BE COLLECTED AS EARLY AS 12 NOON.", "nsi_id": "unitedstatespostalservice-a77078", "operator": "United States Postal Service", "operator:short": "USPS", "operator:type": "public", "operator:wikidata": "Q668687", "ref": "5833100001"}, "type": "Feature"}
{"geometry": {"coordinates": [-99.762785764, 48.034803667], "type": "Point"}, "id": "tdt5dhjlUyV9-XaMCuLyYO_kBYE=", "properties": {"@source_uri": "https://tools.usps.com/UspsToolsRestServices/rest/POLocator/findLocations", "@spider": "usps_collection_boxes", "addr:city": "ESMOND", "addr:country": "US", "addr:postcode": "58332", "addr:state": "ND", "addr:street_address": "117 1ST AVE N", "amenity": "post_box", "collection_times": "Mo-Fr 10:45; Sa 11:15", "nsi_id": "unitedstatespostalservice-a77078", "operator": "United States Postal Service", "operator:short": "USPS", "operator:type": "public", "operator:wikidata": "Q668687", "ref": "5833200001"}, "type": "Feature"}
{"geometry": {"coordinates": [-99.762785764, 48.034803667], "type": "Point"}, "id": "8G4EodnCYBQt5o_01Gq4NQ4eEJ4=", "properties": {"@source_uri": "https://tools.usps.com/UspsToolsRestServices/rest/POLocator/findLocations", "@spider": "usps_collection_boxes", "addr:city": "ESMOND", "addr:country": "US", "addr:postcode": "58332", "addr:state": "ND", "addr:street_address": "117 1ST AVE N", "amenity": "post_box", "collection_times": "Mo-Fr 13:00; Sa 11:30", "indoor": "yes", "note": "ON 12/24 AND 12/31, THIS BOX MAY BE COLLECTED AS EARLY AS 12 NOON.", "nsi_id": "unitedstatespostalservice-a77078", "operator": "United States Postal Service", "operator:short": "USPS", "operator:type": "public", "operator:wikidata": "Q668687", "ref": "5833200002"}, "type": "Feature"}
{"geometry": {"coordinates": [-99.7627857642, 48.034803667], "type": "Point"}, "id": "pPVfYLwbXA3mcewET8HbNiLGCJo=", "properties": {"@source_uri": "https://tools.usps.com/UspsToolsRestServices/rest/POLocator/findLocations", "@spider": "usps_collection_boxes", "addr:city": "ESMOND", "addr:country": "US", "addr:postcode": "58332", "addr:state": "ND", "addr:street_address": "117 1ST AVE N", "amenity": "post_box", "collection_times": "Mo-Fr 13:00; Sa 11:30", "indoor": "yes", "note": "ON 12/24 AND 12/31, THIS BOX MAY BE COLLECTED AS EARLY AS 12 NOON.", "nsi_id": "unitedstatespostalservice-a77078", "operator": "United States Postal Service", "operator:short": "USPS", "operator:type": "public", "operator:wikidata": "Q668687", "ref": "5833200003"}, "type": "Feature"}
{"geometry": {"coordinates": [-99.015753187, 47.97394], "type": "Point"}, "id": "gBs-xIea0YME9QB6DyQD1jxWiXI=", "properties": {"@source_uri": "https://tools.usps.com/UspsToolsRestServices/rest/POLocator/findLocations", "@spider": "usps_collection_boxes", "addr:city": "FORT TOTTEN", "addr:country": "US", "addr:postcode": "58335", "addr:state": "ND", "addr:street_address": "816 3RD AVE N", "amenity": "post_box", "collection_times": "Mo-Fr 13:45; Sa 10:15", "note": "ON 12/24 AND 12/31, THIS BOX MAY BE COLLECTED AS EARLY AS 12 NOON.", "nsi_id": "unitedstatespostalservice-a77078", "operator": "United States Postal Service", "operator:short": "USPS", "operator:type": "public", "operator:wikidata": "Q668687", "ref": "5833500001"}, "type": "Feature"}
{"geometry": {"coordinates": [-99.015753187, 47.97394], "type": "Point"}, "id": "yrolQYcmF8ZO0eMjN3AU1EfUdzk=", "properties": {"@source_uri": "https://tools.usps.com/UspsToolsRestServices/rest/POLocator/findLocations", "@spider": "usps_collection_boxes", "addr:city": "FORT TOTTEN", "addr:country": "US", "addr:postcode": "58335", "addr:state": "ND", "addr:street_address": "816 3RD AVE N", "amenity": "post_box", "collection_times": "Mo-Fr 14:00; Sa 10:30", "indoor": "yes", "note": "ON 12/24 AND 12/31, THIS BOX MAY BE COLLECTED AS EARLY AS 12 NOON.", "nsi_id": "unitedstatespostalservice-a77078", "operator": "United States Postal Service", "operator:short": "USPS", "operator:type": "public", "operator:wikidata": "Q668687", "ref": "5833500002"}, "type": "Feature"}
{"geometry": {"coordinates": [-99.015753187, 47.97394], "type": "Point"}, "id": "kO-WWmCBQ-WCP3Yixb6DK5vQl7I=", "properties": {"@source_uri": "https://tools.usps.com/UspsToolsRestServices/rest/POLocator/findLocations", "@spider": "usps_collection_boxes", "addr:city": "FORT TOTTEN", "addr:country": "US", "addr:postcode": "58335", "addr:state": "ND", "addr:street_address": "816 3RD AVE N", "amenity": "post_box", "collection_times": "Mo-Fr 14:00; Sa 10:30", "indoor": "yes", "note": "ON 12/24 AND 12/31, THIS BOX MAY BE COLLECTED AS EARLY AS 12 NOON.", "nsi_id": "unitedstatespostalservice-a77078", "operator": "United States Postal Service", "operator:short": "USPS", "operator:type": "public", "operator:wikidata": "Q668687", "ref": "5833500003"}, "type": "Feature"}
{"geometry": {"coordinates": [-98.6549805, 48.540190493], "type": "Point"}, "id": "vrK7M7bojaCBQYRtmdKvimfl2BQ=", "properties": {"@source_uri": "https://tools.usps.com/UspsToolsRestServices/rest/POLocator/findLocations", "@spider": "usps_collection_boxes", "addr:city": "HAMPDEN", "addr:country": "US", "addr:postcode": "58338", "addr:state": "ND", "addr:street_address": "213 MAIN ST W", "amenity": "post_box", "collection_times": "Mo-Fr 13:15; Sa 10:45", "note": "ON 12/24 AND 12/31, THIS BOX MAY BE COLLECTED AS EARLY AS 12 NOON.", "nsi_id": "unitedstatespostalservice-a77078", "operator": "United States Postal Service", "operator:short": "USPS", "operator:type": "public", "operator:wikidata": "Q668687", "ref": "5833800001"}, "type": "Feature"}
{"geometry": {"coordinates": [-98.6549805, 48.540190493], "type": "Point"}, "id": "BS0qxZnRvjJ7Sl8mM7Yrpp0QKvU=", "properties": {"@source_uri": "https://tools.usps.com/UspsToolsRestServices/rest/POLocator/findLocations", "@spider": "usps_collection_boxes", "addr:city": "HAMPDEN", "addr:country": "US", "addr:postcode": "58338", "addr:state": "ND", "addr:street_address": "213 MAIN ST W", "amenity": "post_box", "collection_times": "Mo-Fr 13:15", "indoor": "yes", "note": "ON 12/24 AND 12/31, THIS BOX MAY BE COLLECTED AS EARLY AS 12 NOON.", "nsi_id": "unitedstatespostalservice-a77078", "operator": "United States Postal Service", "operator:short": "USPS", "operator:type": "public", "operator:wikidata": "Q668687", "ref": "5833800002"}, "type": "Feature"}
{"geometry": {"coordinates": [-98.6549805, 48.5401904932], "type": "Point"}, "id": "Y9hH6_hT7vaEDCpgCmS7kuD2orY=", "properties": {"@source_uri": "https://tools.usps.com/UspsToolsRestServices/rest/POLocator/findLocations", "@spider": "usps_collection_boxes", "addr:city": "HAMPDEN", "addr:country": "US", "addr:postcode": "58338", "addr:state": "ND", "addr:street_address": "213 MAIN ST W", "amenity": "post_box", "collection_times": "Mo-Fr 13:15; Sa 11:00", "indoor": "yes", "note": "ON 12/24 AND 12/31, THIS BOX MAY BE COLLECTED AS EARLY AS 12 NOON.", "nsi_id": "unitedstatespostalservice-a77078", "operator": "United States Postal Service", "operator:short": "USPS", "operator:type": "public", "operator:wikidata": "Q668687", "ref": "5833800003"}, "type": "Feature"}
{"geometry": {"coordinates": [-99.932910212, 47.770738194], "type": "Point"}, "id": "zNX9kCcH7j4peRQvVqo56lV-HS8=", "properties": {"@source_uri": "https://tools.usps.com/UspsToolsRestServices/rest/POLocator/findLocations", "@spider": "usps_collection_boxes", "addr:city": "HARVEY", "addr:country": "US", "addr:postcode": "58341", "addr:state": "ND", "addr:street_address": "708 ADAMS AVE", "amenity": "post_box", "collection_times": "Mo-Sa 15:35", "note": "ON 12/24 AND 12/31, THIS BOX MAY BE COLLECTED AS EARLY AS 12 NOON.", "nsi_id": "unitedstatespostalservice-a77078", "operator": "United States Postal Service", "operator:short": "USPS", "operator:type": "public", "operator:wikidata": "Q668687", "ref": "5834100003"}, "type": "Feature"}
{"geometry": {"coordinates": [-99.932910212, 47.770738194], "type": "Point"}, "id": "A6sQGSEAqRTBnYslFwMt0JP4zRg=", "properties": {"@source_uri": "https://tools.usps.com/UspsToolsRestServices/rest/POLocator/findLocations", "@spider": "usps_collection_boxes", "addr:city": "HARVEY", "addr:country": "US", "addr:postcode": "58341", "addr:state": "ND", "addr:street_address": "708 ADAMS AVE", "amenity": "post_box", "collection_times": "Mo-Fr 15:35; Sa 11:00", "indoor": "yes", "note": "ON 12/24 AND 12/31, THIS BOX MAY BE COLLECTED AS EARLY AS 12 NOON.", "nsi_id": "unitedstatespostalservice-a77078", "operator": "United States Postal Service", "operator:short": "USPS", "operator:type": "public", "operator:wikidata": "Q668687", "ref": "5834100004"}, "type": "Feature"}
{"geometry": {"coordinates": [-99.9328560086, 47.7708034992], "type": "Point"}, "id": "ox7QYnWVXKJrarlCG3o3_v2isrc=", "properties": {"@source_uri": "https://tools.usps.com/UspsToolsRestServices/rest/POLocator/findLocations", "@spider": "usps_collection_boxes", "addr:city": "HARVEY", "addr:country": "US", "addr:postcode": "58341", "addr:state": "ND", "addr:street_address": "708 ADAMS AVE", "amenity": "post_box", "collection_times": "Mo-Fr 15:35; Sa 11:00", "indoor": "yes", "note": "ON 12/24 AND 12/31, THIS BOX MAY BE COLLECTED AS EARLY AS 12 NOON.", "nsi_id": "unitedstatespostalservice-a77078", "operator": "United States Postal Service", "operator:short": "USPS", "operator:type": "public", "operator:wikidata": "Q668687", "ref": "5834100006"}, "type": "Feature"}
{"geometry": {"coordinates": [-98.344024013, 48.041521664], "type": "Point"}, "id": "mhwf3Uv2kj9ITMWc3bLWZbS8mm4=", "properties": {"@source_uri": "https://tools.usps.com/UspsToolsRestServices/rest/POLocator/findLocations", "@spider": "usps_collection_boxes", "addr:city": "LAKOTA", "addr:country": "US", "addr:postcode": "58344", "addr:state": "ND", "addr:street_address": "209 MAIN ST N", "amenity": "post_box", "collection_times": "Mo-Fr 14:15; Sa 09:45", "note": "ON 12/24 AND 12/31, THIS BOX MAY BE COLLECTED AS EARLY AS 12 NOON.", "nsi_id": "unitedstatespostalservice-a77078", "operator": "United States Postal Service", "operator:short": "USPS", "operator:type": "public", "operator:wikidata": "Q668687", "ref": "5834400001"}, "type": "Feature"}
{"geometry": {"coordinates": [-98.344024013, 48.041521664], "type": "Point"}, "id": "LvsNNcf1MUK0ByzF7tTTv_eyb4Y=", "properties": {"@source_uri": "https://tools.usps.com/UspsToolsRestServices/rest/POLocator/findLocations", "@spider": "usps_collection_boxes", "addr:city": "LAKOTA", "addr:country": "US", "addr:postcode": "58344", "addr:state": "ND", "addr:street_address": "209 MAIN ST N", "amenity": "post_box", "collection_times": "Mo-Fr 14:30; Sa 10:00", "indoor": "yes", "note": "ON 12/24 AND 12/31, THIS BOX MAY BE COLLECTED AS EARLY AS 12 NOON.", "nsi_id": "unitedstatespostalservice-a77078", "operator": "United States Postal Service", "operator:short": "USPS", "operator:type": "public", "operator:wikidata": "Q668687", "ref": "5834400002"}, "type": "Feature"}
{"geometry": {"coordinates": [-98.367501693, 48.30255246], "type": "Point"}, "id": "wT5y3_NNAkaBxAqzQh1kbgkp3OU=", "properties": {"@source_uri": "https://tools.usps.com/UspsToolsRestServices/rest/POLocator/findLocations", "@spider": "usps_collection_boxes", "addr:city": "LAWTON", "addr:country": "US", "addr:postcode": "58345", "addr:state": "ND", "addr:street_address": "123 MAIN ST", "amenity": "post_box", "collection_times": "Mo-Fr 15:15; Sa 11:45", "note": "ON 12/24 AND 12/31, THIS BOX MAY BE COLLECTED AS EARLY AS 12 NOON.", "nsi_id": "unitedstatespostalservice-a77078", "operator": "United States Postal Service", "operator:short": "USPS", "operator:type": "public", "operator:wikidata": "Q668687", "ref": "5834500001"}, "type": "Feature"}
{"geometry": {"coordinates": [-99.441856454, 48.289854995], "type": "Point"}, "id": "JTm10dLENk-zjPwqnKMIiZIcz5w=", "properties": {"@source_uri": "https://tools.usps.com/UspsToolsRestServices/rest/POLocator/findLocations", "@spider": "usps_collection_boxes", "addr:city": "LEEDS", "addr:country": "US", "addr:postcode": "58346", "addr:state": "ND", "addr:street_address": "150 MAIN ST W", "amenity": "post_box", "collection_times": "Mo-Fr 14:15; Sa 09:45", "note": "ON 12/24 AND 12/31, THIS BOX MAY BE COLLECTED AS EARLY AS 12 NOON.", "nsi_id": "unitedstatespostalservice-a77078", "operator": "United States Postal Service", "operator:short": "USPS", "operator:type": "public", "operator:wikidata": "Q668687", "ref": "5834600001"}, "type": "Feature"}
{"geometry": {"coordinates": [-99.441856454, 48.289854995], "type": "Point"}, "id": "ifhc0Cr63pCfSUP99Rh57rWxWgo=", "properties": {"@source_uri": "https://tools.usps.com/UspsToolsRestServices/rest/POLocator/findLocations", "@spider": "usps_collection_boxes", "addr:city": "LEEDS", "addr:country": "US", "addr:postcode": "58346", "addr:state": "ND", "addr:street_address": "150 MAIN ST W", "amenity": "post_box", "collection_times": "Mo-Fr 14:30; Sa 10:00", "indoor": "yes", "note": "ON 12/24 AND 12/31, THIS BOX MAY BE COLLECTED AS EARLY AS 12 NOON.", "nsi_id": "unitedstatespostalservice-a77078", "operator": "United States Postal Service", "operator:short": "USPS", "operator:type": "public", "operator:wikidata": "Q668687", "ref": "5834600002"}, "type": "Feature"}
{"geometry": {"coordinates": [-99.530188799, 47.961545101], "type": "Point"}, "id": "k6029f4x0_IW6eUguOMnY3870G4=", "properties": {"@source_uri": "https://tools.usps.com/UspsToolsRestServices/rest/POLocator/findLocations", "@spider": "usps_collection_boxes", "addr:city": "MADDOCK", "addr:country": "US", "addr:postcode": "58348", "addr:state": "ND", "addr:street_address": "202 CENTRAL AVE", "amenity": "post_box", "collection_times": "Mo-Fr 14:15; Sa 09:45", "note": "ON 12/24 AND 12/31, THIS BOX MAY BE COLLECTED AS EARLY AS 12 NOON.", "nsi_id": "unitedstatespostalservice-a77078", "operator": "United States Postal Service", "operator:short": "USPS", "operator:type": "public", "operator:wikidata": "Q668687", "ref": "5834800001"}, "type": "Feature"}
{"geometry": {"coordinates": [-99.530188799, 47.961545101], "type": "Point"}, "id": "N4zmo57WI9xmDAVoQY6Vr9JAhGo=", "properties": {"@source_uri": "https://tools.usps.com/UspsToolsRestServices/rest/POLocator/findLocations", "@spider": "usps_collection_boxes", "addr:city": "MADDOCK", "addr:country": "US", "addr:postcode": "58348", "addr:state": "ND", "addr:street_address": "202 CENTRAL AVE", "amenity": "post_box", "collection_times": "Mo-Fr 14:30; Sa 10:00", "indoor": "yes", "note": "ON 12/24 AND 12/31, THIS BOX MAY BE COLLECTED AS EARLY AS 12 NOON.", "nsi_id": "unitedstatespostalservice-a77078", "operator": "United States Postal Service", "operator:short": "USPS", "operator:type": "public", "operator:wikidata": "Q668687", "ref": "5834800002"}, "type": "Feature"}
{"geometry": {"coordinates": [-99.251221573, 48.071527834], "type": "Point"}, "id": "tEUF8QIw6kQjzyopHSd7RG4FIIQ=", "properties": {"@source_uri": "https://tools.usps.com/UspsToolsRestServices/rest/POLocator/findLocations", "@spider": "usps_collection_boxes", "addr:city": "MINNEWAUKAN", "addr:country": "US", "addr:postcode": "58351", "addr:state": "ND", "addr:street_address": "151 MAIN ST E", "amenity": "post_box", "collection_times": "Mo-Fr 14:15; Sa 09:45", "note": "ON 12/24 AND 12/31, THIS BOX MAY BE COLLECTED AS EARLY AS 12 NOON.", "nsi_id": "unitedstatespostalservice-a77078", "operator": "United States Postal Service", "operator:short": "USPS", "operator:type": "public", "operator:wikidata": "Q668687", "ref": "5835100001"}, "type": "Feature"}
{"geometry": {"coordinates": [-99.251221573, 48.071527834], "type": "Point"}, "id": "gXaunXfbrydbrnRS8Fi1PATnJgM=", "properties": {"@source_uri": "https://tools.usps.com/UspsToolsRestServices/rest/POLocator/findLocations", "@spider": "usps_collection_boxes", "addr:city": "MINNEWAUKAN", "addr:country": "US", "addr:postcode": "58351", "addr:state": "ND", "addr:street_address": "151 MAIN ST E", "amenity": "post_box", "collection_times": "Mo-Fr 14:30; Sa 10:00", "indoor": "yes", "note": "ON 12/24 AND 12/31, THIS BOX MAY BE COLLECTED AS EARLY AS 12 NOON.", "nsi_id": "unitedstatespostalservice-a77078", "operator": "United States Postal Service", "operator:short": "USPS", "operator:type": "public", "operator:wikidata": "Q668687", "ref": "5835100003"}, "type": "Feature"}
{"geometry": {"coordinates": [-98.835028791, 48.669989829], "type": "Point"}, "id": "T64dencsZRML5yUTW60sDnjgdek=", "properties": {"@source_uri": "https://tools.usps.com/UspsToolsRestServices/rest/POLocator/findLocations", "@spider": "usps_collection_boxes", "addr:city": "MUNICH", "addr:country": "US", "addr:postcode": "58352", "addr:state": "ND", "addr:street_address": "410 MAIN ST", "amenity": "post_box", "collection_times": "Mo-Fr 14:45; Sa 09:15", "note": "ON 12/24 AND 12/31, THIS BOX MAY BE COLLECTED AS EARLY AS 12 NOON.", "nsi_id": "unitedstatespostalservice-a77078", "operator": "United States Postal Service", "operator:short": "USPS", "operator:type": "public", "operator:wikidata": "Q668687", "ref": "5835200001"}, "type": "Feature"}
{"geometry": {"coordinates": [-98.835028791, 48.669989829], "type": "Point"}, "id": "ME50C_PZdKgIOI56Y5rk1gnY0sI=", "properties": {"@source_uri": "https://tools.usps.com/UspsToolsRestServices/rest/POLocator/findLocations", "@spider": "usps_collection_boxes", "addr:city": "MUNICH", "addr:country": "US", "addr:postcode": "58352", "addr:state": "ND", "addr:street_address": "410 MAIN ST", "amenity": "post_box", "collection_times": "Mo-Fr 15:00; Sa 09:00", "indoor": "yes", "note": "ON 12/24 AND 12/31, THIS BOX MAY BE COLLECTED AS EARLY AS 12 NOON.", "nsi_id": "unitedstatespostalservice-a77078", "operator": "United States Postal Service", "operator:short": "USPS", "operator:type": "public", "operator:wikidata": "Q668687", "ref": "5835200003"}, "type": "Feature"}
{"geometry": {"coordinates": [-99.1384984, 47.681033148], "type": "Point"}, "id": "ZEWTLXIj93p3L_4i0hTRxK2XASo=", "properties": {"@source_uri": "https://tools.usps.com/UspsToolsRestServices/rest/POLocator/findLocations", "@spider": "usps_collection_boxes", "addr:city": "NEW ROCKFORD", "addr:country": "US", "addr:postcode": "58356", "addr:state": "ND", "addr:street_address": "827 1ST AVE N", "amenity": "post_box", "collection_times": "Mo-Fr 16:00; Sa 15:00", "note": "ON 12/24 AND 12/31, THIS BOX MAY BE COLLECTED AS EARLY AS 12 NOON.", "nsi_id": "unitedstatespostalservice-a77078", "operator": "United States Postal Service", "operator:short": "USPS", "operator:type": "public", "operator:wikidata": "Q668687", "ref": "5835600001"}, "type": "Feature"}
{"geometry": {"coordinates": [-99.1384984, 47.681033148], "type": "Point"}, "id": "srVWtB3HFPyrzJjlhSNxmEyywUU=", "properties": {"@source_uri": "https://tools.usps.com/UspsToolsRestServices/rest/POLocator/findLocations", "@spider": "usps_collection_boxes", "addr:city": "NEW ROCKFORD", "addr:country": "US", "addr:postcode": "58356", "addr:state": "ND", "addr:street_address": "827 1ST AVE N", "amenity": "post_box", "collection_times": "Mo-Fr 16:00; Sa 09:30", "indoor": "yes", "note": "ON 12/24 AND 12/31, THIS BOX MAY BE COLLECTED AS EARLY AS 12 NOON.", "nsi_id": "unitedstatespostalservice-a77078", "operator": "United States Postal Service", "operator:short": "USPS", "operator:type": "public", "operator:wikidata": "Q668687", "ref": "5835600002"}, "type": "Feature"}
{"geometry": {"coordinates": [-99.202907769, 47.922856271], "type": "Point"}, "id": "9MiYNsLHltdw3pwnoVsy0wTRdjg=", "properties": {"@source_uri": "https://tools.usps.com/UspsToolsRestServices/rest/POLocator/findLocations", "@spider": "usps_collection_boxes", "addr:city": "OBERON", "addr:country": "US", "addr:postcode": "58357", "addr:state": "ND", "addr:street_address": "110 MAIN AVE E", "amenity": "post_box", "collection_times": "Mo-Fr 16:45; Sa 12:45", "note": "ON 12/24 AND 12/31, THIS BOX MAY BE COLLECTED AS EARLY AS 12 NOON.", "nsi_id": "unitedstatespostalservice-a77078", "operator": "United States Postal Service", "operator:short": "USPS", "operator:type": "public", "operator:wikidata": "Q668687", "ref": "5835700001"}, "type": "Feature"}
{"geometry": {"coordinates": [-99.202907769, 47.922856271], "type": "Point"}, "id": "vOSmw1MS8tqNiULy-Xqa850zW6M=", "properties": {"@source_uri": "https://tools.usps.com/UspsToolsRestServices/rest/POLocator/findLocations", "@spider": "usps_collection_boxes", "addr:city": "OBERON", "addr:country": "US", "addr:postcode": "58357", "addr:state": "ND", "addr:street_address": "110 MAIN AVE E", "amenity": "post_box", "collection_times": "Mo-Fr 16:45; Sa 12:45", "indoor": "yes", "note": "ON 12/24 AND 12/31, THIS BOX MAY BE COLLECTED AS EARLY AS 12 NOON.", "nsi_id": "unitedstatespostalservice-a77078", "operator": "United States Postal Service", "operator:short": "USPS", "operator:type": "public", "operator:wikidata": "Q668687", "ref": "5835700002"}, "type": "Feature"}
{"geometry": {"coordinates": [-98.327811387, 47.792718], "type": "Point"}, "id": "-uGi_Hwb7naCvnKKVXqDPcHlCTs=", "properties": {"@source_uri": "https://tools.usps.com/UspsToolsRestServices/rest/POLocator/findLocations", "@spider": "usps_collection_boxes", "addr:city": "PEKIN", "addr:country": "US", "addr:postcode": "58361", "addr:state": "ND", "addr:street_address": "223 MAIN ST N", "amenity": "post_box", "collection_times": "Mo-Fr 13:45; Sa 13:00", "note": "ON 12/24 AND 12/31, THIS BOX MAY BE COLLECTED AS EARLY AS 12 NOON.", "nsi_id": "unitedstatespostalservice-a77078", "operator": "United States Postal Service", "operator:short": "USPS", "operator:type": "public", "operator:wikidata": "Q668687", "ref": "5836100001"}, "type": "Feature"}
{"geometry": {"coordinates": [-98.327811387, 47.792718], "type": "Point"}, "id": "yVYz4AU5Kvks9vhDK9069YSF-7s=", "properties": {"@source_uri": "https://tools.usps.com/UspsToolsRestServices/rest/POLocator/findLocations", "@spider": "usps_collection_boxes", "addr:city": "PEKIN", "addr:country": "US", "addr:postcode": "58361", "addr:state": "ND", "addr:street_address": "223 MAIN ST N", "amenity": "post_box", "collection_times": "Mo-Fr 13:45; Sa 11:45", "indoor": "yes", "note": "ON 12/24 AND 12/31, THIS BOX MAY BE COLLECTED AS EARLY AS 12 NOON.", "nsi_id": "unitedstatespostalservice-a77078", "operator": "United States Postal Service", "operator:short": "USPS", "operator:type": "public", "operator:wikidata": "Q668687", "ref": "5836100002"}, "type": "Feature"}
{"geometry": {"coordinates": [-99.245214168, 48.791158492], "type": "Point"}, "id": "r364LH8YifjxUs3IR4j42oZsqYE=", "properties": {"@source_uri": "https://tools.usps.com/UspsToolsRestServices/rest/POLocator/findLocations", "@spider": "usps_collection_boxes", "addr:city": "ROCKLAKE", "addr:country": "US", "addr:postcode": "58365", "addr:state": "ND", "addr:street_address": "44 MAIN ST", "amenity": "post_box", "collection_times": "Mo-Fr 11:45; Sa 09:45", "nsi_id": "unitedstatespostalservice-a77078", "operator": "United States Postal Service", "operator:short": "USPS", "operator:type": "public", "operator:wikidata": "Q668687", "ref": "5836500001"}, "type": "Feature"}
{"geometry": {"coordinates": [-99.245214168, 48.791158492], "type": "Point"}, "id": "7sBs13hH2xeuQKmG1M62IY0531Y=", "properties": {"@source_uri": "https://tools.usps.com/UspsToolsRestServices/rest/POLocator/findLocations", "@spider": "usps_collection_boxes", "addr:city": "ROCKLAKE", "addr:country": "US", "addr:postcode": "58365", "addr:state": "ND", "addr:street_address": "44 MAIN ST", "amenity": "post_box", "collection_times": "Mo-Fr 12:00; Sa 09:45", "indoor": "yes", "nsi_id": "unitedstatespostalservice-a77078", "operator": "United States Postal Service", "operator:short": "USPS", "operator:type": "public", "operator:wikidata": "Q668687", "ref": "5836500003"}, "type": "Feature"}
{"geometry": {"coordinates": [-99.844879803, 48.660949762], "type": "Point"}, "id": "6jb3-AlPNaYqtIfRObkC7ixInOs=", "properties": {"@source_uri": "https://tools.usps.com/UspsToolsRestServices/rest/POLocator/findLocations", "@spider": "usps_collection_boxes", "addr:city": "ROLETTE", "addr:country": "US", "addr:postcode": "58366", "addr:state": "ND", "addr:street_address": "201 MAIN ST", "amenity": "post_box", "collection_times": "Mo-Fr 14:15; Sa 10:15", "note": "ON 12/24 AND 12/31, THIS BOX MAY BE COLLECTED AS EARLY AS 12 NOON.", "nsi_id": "unitedstatespostalservice-a77078", "operator": "United States Postal Service", "operator:short": "USPS", "operator:type": "public", "operator:wikidata": "Q668687", "ref": "5836600001"}, "type": "Feature"}
{"geometry": {"coordinates": [-99.844879803, 48.660949762], "type": "Point"}, "id": "UNKRNFT3bLhwQHtKrOA78jLJt2Y=", "properties": {"@source_uri": "https://tools.usps.com/UspsToolsRestServices/rest/POLocator/findLocations", "@spider": "usps_collection_boxes", "addr:city": "ROLETTE", "addr:country": "US", "addr:postcode": "58366", "addr:state": "ND", "addr:street_address": "201 MAIN ST", "amenity": "post_box", "collection_times": "Mo-Fr 14:30; Sa 10:30", "indoor": "yes", "note": "ON 12/24 AND 12/31, THIS BOX MAY BE COLLECTED AS EARLY AS 12 NOON.", "nsi_id": "unitedstatespostalservice-a77078", "operator": "United States Postal Service", "operator:short": "USPS", "operator:type": "public", "operator:wikidata": "Q668687", "ref": "5836600002"}, "type": "Feature"}
{"geometry": {"coordinates": [-99.614034458, 48.858540339], "type": "Point"}, "id": "TvcAxeRQOOWerVeM7dDdQxeduC8=", "properties": {"@source_uri": "https://tools.usps.com/UspsToolsRestServices/rest/POLocator/findLocations", "@spider": "usps_collection_boxes", "addr:city": "ROLLA", "addr:country": "US", "addr:postcode": "58367", "addr:state": "ND", "addr:street_address": "119 1ST AVE SE", "amenity": "post_box", "collection_times": "Mo-Sa 16:00", "note": "ON 12/24 AND 12/31, THIS BOX MAY BE COLLECTED AS EARLY AS 12 NOON.", "nsi_id": "unitedstatespostalservice-a77078", "operator": "United States Postal Service", "operator:short": "USPS", "operator:type": "public", "operator:wikidata": "Q668687", "ref": "5836700001"}, "type": "Feature"}
{"geometry": {"coordinates": [-99.614034458, 48.858540339], "type": "Point"}, "id": "1gtqhtlgEmcbTMAwWSRembqOZ7I=", "properties": {"@source_uri": "https://tools.usps.com/UspsToolsRestServices/rest/POLocator/findLocations", "@spider": "usps_collection_boxes", "addr:city": "ROLLA", "addr:country": "US", "addr:postcode": "58367", "addr:state": "ND", "addr:street_address": "119 1ST AVE SE", "amenity": "post_box", "collection_times": "Mo-Fr 16:00; Sa 11:00", "indoor": "yes", "note": "ON 12/24 AND 12/31, THIS BOX MAY BE COLLECTED AS EARLY AS 12 NOON.", "nsi_id": "unitedstatespostalservice-a77078", "operator": "United States Postal Service", "operator:short": "USPS", "operator:type": "public", "operator:wikidata": "Q668687", "ref": "5836700004"}, "type": "Feature"}
{"geometry": {"coordinates": [-99.994429872, 48.368612079], "type": "Point"}, "id": "4wmvlWDfxnBfhKP2PqhtKJT0QhE=", "properties": {"@source_uri": "https://tools.usps.com/UspsToolsRestServices/rest/POLocator/findLocations", "@spider": "usps_collection_boxes", "addr:city": "RUGBY", "addr:country": "US", "addr:postcode": "58368", "addr:state": "ND", "addr:street_address": "202 2ND ST SE", "amenity": "post_box", "collection_times": "Mo-Sa 16:30", "note": "ON 12/24 AND 12/31, THIS BOX MAY BE COLLECTED AS EARLY AS 12 NOON.", "nsi_id": "unitedstatespostalservice-a77078", "operator": "United States Postal Service", "operator:short": "USPS", "operator:type": "public", "operator:wikidata": "Q668687", "ref": "5836800003"}, "type": "Feature"}
{"geometry": {"coordinates": [-99.992975202, 48.355077992], "type": "Point"}, "id": "KzzDymBE6UeH_ExsA8FVugibTIc=", "properties": {"@source_uri": "https://tools.usps.com/UspsToolsRestServices/rest/POLocator/findLocations", "@spider": "usps_collection_boxes", "addr:city": "RUGBY", "addr:country": "US", "addr:postcode": "58368", "addr:state": "ND", "addr:street_address": "209 HIGHWAY 2 SE", "amenity": "post_box", "collection_times": "Mo-Sa 14:00", "note": "ON 12/24 AND 12/31, THIS BOX MAY BE COLLECTED AS EARLY AS 12 NOON.", "nsi_id": "unitedstatespostalservice-a77078", "operator": "United States Postal Service", "operator:short": "USPS", "operator:type": "public", "operator:wikidata": "Q668687", "ref": "5836800004"}, "type": "Feature"}
{"geometry": {"coordinates": [-99.994400688, 48.368783537], "type": "Point"}, "id": "zreMta03P0N7RwBvbU-qrRsskeA=", "properties": {"@source_uri": "https://tools.usps.com/UspsToolsRestServices/rest/POLocator/findLocations", "@spider": "usps_collection_boxes", "addr:city": "RUGBY", "addr:country": "US", "addr:postcode": "58368", "addr:state": "ND", "addr:street_address": "205 2ND ST SE", "amenity": "post_box", "collection_times": "Mo-Fr 16:30; Sa 11:00", "indoor": "yes", "note": "ON 12/24 AND 12/31, THIS BOX MAY BE COLLECTED AS EARLY AS 12 NOON.", "nsi_id": "unitedstatespostalservice-a77078", "operator": "United States Postal Service", "operator:short": "USPS", "operator:type": "public", "operator:wikidata": "Q668687", "ref": "5836800005"}, "type": "Feature"}
{"geometry": {"coordinates": [-99.994400688, 48.368783537], "type": "Point"}, "id": "lJu2TEiRF0VDzxt30tjddXJuN4I=", "properties": {"@source_uri": "https://tools.usps.com/UspsToolsRestServices/rest/POLocator/findLocations", "@spider": "usps_collection_boxes", "addr:city": "RUGBY", "addr:country": "US", "addr:postcode": "58368", "addr:state": "ND", "addr:street_address": "205 2ND ST SE", "amenity": "post_box", "collection_times": "Mo-Sa 16:30", "note": "ON 12/24 AND 12/31, THIS BOX MAY BE COLLECTED AS EARLY AS 12 NOON.", "nsi_id": "unitedstatespostalservice-a77078", "operator": "United States Postal Service", "operator:short": "USPS", "operator:type": "public", "operator:wikidata": "Q668687", "ref": "5836800006"}, "type": "Feature"}
{"geometry": {"coordinates": [-99.710928417, 48.944298481], "type": "Point"}, "id": "CRs1gYc7Yq-IUHyPFSPk6YY1kFU=", "properties": {"@source_uri": "https://tools.usps.com/UspsToolsRestServices/rest/POLocator/findLocations", "@spider": "usps_collection_boxes", "addr:city": "SAINT JOHN", "addr:country": "US", "addr:postcode": "58369", "addr:state": "ND", "addr:street_address": "101 FOUSSARD AVE SE", "amenity": "post_box", "collection_times": "Mo-Fr 16:15; Sa 11:30", "note": "ON 12/24 AND 12/31, THIS BOX MAY BE COLLECTED AS EARLY AS 12 NOON.", "nsi_id": "unitedstatespostalservice-a77078", "operator": "United States Postal Service", "operator:short": "USPS", "operator:type": "public", "operator:wikidata": "Q668687", "ref": "5836900001"}, "type": "Feature"}
{"geometry": {"coordinates": [-99.710928417, 48.944298481], "type": "Point"}, "id": "USjeSBTPoA23nPj5l3SRul5pZMo=", "properties": {"@source_uri": "https://tools.usps.com/UspsToolsRestServices/rest/POLocator/findLocations", "@spider": "usps_collection_boxes", "addr:city": "SAINT JOHN", "addr:country": "US", "addr:postcode": "58369", "addr:state": "ND", "addr:street_address": "101 FOUSSARD AVE SE", "amenity": "post_box", "collection_times": "Mo-Fr 15:20; Sa 11:25", "indoor": "yes", "note": "ON 12/24 AND 12/31, THIS BOX MAY BE COLLECTED AS EARLY AS 12 NOON.", "nsi_id": "unitedstatespostalservice-a77078", "operator": "United States Postal Service", "operator:short": "USPS", "operator:type": "public", "operator:wikidata": "Q668687", "ref": "5836900002"}, "type": "Feature"}
{"geometry": {"coordinates": [-98.996367996, 48.945358416], "type": "Point"}, "id": "qE4Sm3md11U9qTsSISJS4_69Mk0=", "properties": {"@source_uri": "https://tools.usps.com/UspsToolsRestServices/rest/POLocator/findLocations", "@spider": "usps_collection_boxes", "addr:city": "SARLES", "addr:country": "US", "addr:postcode": "58372", "addr:state": "ND", "addr:street_address": "301 MAIN ST", "amenity": "post_box", "collection_times": "Mo-Fr 15:15; Sa 11:45", "note": "ON 12/24 AND 12/31, THIS BOX MAY BE COLLECTED AS EARLY AS 12 NOON.", "nsi_id": "unitedstatespostalservice-a77078", "operator": "United States Postal Service", "operator:short": "USPS", "operator:type": "public", "operator:wikidata": "Q668687", "ref": "5837200000"}, "type": "Feature"}
{"geometry": {"coordinates": [-98.996367996, 48.945358416], "type": "Point"}, "id": "K1zlgRKqBNB63M6U2EFV4Tf6-NA=", "properties": {"@source_uri": "https://tools.usps.com/UspsToolsRestServices/rest/POLocator/findLocations", "@spider": "usps_collection_boxes", "addr:city": "SARLES", "addr:country": "US", "addr:postcode": "58372", "addr:state": "ND", "addr:street_address": "301 MAIN ST", "amenity": "post_box", "collection_times": "Mo-Fr 15:30; Sa 12:00", "indoor": "yes", "note": "ON 12/24 AND 12/31, THIS BOX MAY BE COLLECTED AS EARLY AS 12 NOON.", "nsi_id": "unitedstatespostalservice-a77078", "operator": "United States Postal Service", "operator:short": "USPS", "operator:type": "public", "operator:wikidata": "Q668687", "ref": "5837200001"}, "type": "Feature"}
{"geometry": {"coordinates": [-99.119877695, 47.827599879], "type": "Point"}, "id": "V_ZPPqaVZuRi1Zo1u-tkRzjepaM=", "properties": {"@source_uri": "https://tools.usps.com/UspsToolsRestServices/rest/POLocator/findLocations", "@spider": "usps_collection_boxes", "addr:city": "SHEYENNE", "addr:country": "US", "addr:postcode": "58374", "addr:state": "ND", "addr:street_address": "106 RICHTER AVE", "amenity": "post_box", "collection_times": "Mo-Fr 11:45; Sa 21:15", "note": "ON 12/24 AND 12/31, THIS BOX MAY BE COLLECTED AS EARLY AS 12 NOON.", "nsi_id": "unitedstatespostalservice-a77078", "operator": "United States Postal Service", "operator:short": "USPS", "operator:type": "public", "operator:wikidata": "Q668687", "ref": "5837400001"}, "type": "Feature"}
{"geometry": {"coordinates": [-99.119877695, 47.827599879], "type": "Point"}, "id": "ACB4PhGyqHWILkNWyAee-Xr2oG0=", "properties": {"@source_uri": "https://tools.usps.com/UspsToolsRestServices/rest/POLocator/findLocations", "@spider": "usps_collection_boxes", "addr:city": "SHEYENNE", "addr:country": "US", "addr:postcode": "58374", "addr:state": "ND", "addr:street_address": "106 RICHTER AVE", "amenity": "post_box", "collection_times": "Mo-Fr 12:00", "indoor": "yes", "nsi_id": "unitedstatespostalservice-a77078", "operator": "United States Postal Service", "operator:short": "USPS", "operator:type": "public", "operator:wikidata": "Q668687", "ref": "5837400002"}, "type": "Feature"}
{"geometry": {"coordinates": [-98.878499665, 48.451739543], "type": "Point"}, "id": "5uGy52JD-1nzM2DnzeUUL9lM2eQ=", "properties": {"@source_uri": "https://tools.usps.com/UspsToolsRestServices/rest/POLocator/findLocations", "@spider": "usps_collection_boxes", "addr:city": "STARKWEATHER", "addr:country": "US", "addr:postcode": "58377", "addr:state": "ND", "addr:street_address": "300 MAIN ST", "amenity": "post_box", "collection_times": "Mo-Fr 11:45; Sa 08:45", "nsi_id": "unitedstatespostalservice-a77078", "operator": "United States Postal Service", "operator:short": "USPS", "operator:type": "public", "operator:wikidata": "Q668687", "ref": "5837700001"}, "type": "Feature"}
{"geometry": {"coordinates": [-98.878499665, 48.451739543], "type": "Point"}, "id": "U2wQBJn3lVK8IIr4sAqZTJI5S8U=", "properties": {"@source_uri": "https://tools.usps.com/UspsToolsRestServices/rest/POLocator/findLocations", "@spider": "usps_collection_boxes", "addr:city": "STARKWEATHER", "addr:country": "US", "addr:postcode": "58377", "addr:state": "ND", "addr:street_address": "300 MAIN ST", "amenity": "post_box", "collection_times": "Mo-Fr 12:00; Sa 09:00", "indoor": "yes", "nsi_id": "unitedstatespostalservice-a77078", "operator": "United States Postal Service", "operator:short": "USPS", "operator:type": "public", "operator:wikidata": "Q668687", "ref": "5837700002"}, "type": "Feature"}
{"geometry": {"coordinates": [-98.813816697, 47.929001743], "type": "Point"}, "id": "WtOY-BWBRsYrcTA4TwaFPbWabAU=", "properties": {"@source_uri": "https://tools.usps.com/UspsToolsRestServices/rest/POLocator/findLocations", "@spider": "usps_collection_boxes", "addr:city": "TOKIO", "addr:country": "US", "addr:postcode": "58379", "addr:state": "ND", "addr:street_address": "413 3RD AVE", "amenity": "post_box", "collection_times": "Mo-Fr 09:45; Sa 10:00", "nsi_id": "unitedstatespostalservice-a77078", "operator": "United States Postal Service", "operator:short": "USPS", "operator:type": "public", "operator:wikidata": "Q668687", "ref": "5837900001"}, "type": "Feature"}
{"geometry": {"coordinates": [-98.813816697, 47.929001743], "type": "Point"}, "id": "4_TkXe8lq6kFy09Jxm1WrZ_VhcE=", "properties": {"@source_uri": "https://tools.usps.com/UspsToolsRestServices/rest/POLocator/findLocations", "@spider": "usps_collection_boxes", "addr:city": "TOKIO", "addr:country": "US", "addr:postcode": "58379", "addr:state": "ND", "addr:street_address": "413 3RD AVE", "amenity": "post_box", "collection_times": "Mo-Fr 09:50; Sa 10:10", "indoor": "yes", "nsi_id": "unitedstatespostalservice-a77078", "operator": "United States Postal Service", "operator:short": "USPS", "operator:type": "public", "operator:wikidata": "Q668687", "ref": "5837900002"}, "type": "Feature"}
{"geometry": {"coordinates": [-98.440031412, 47.826656665], "type": "Point"}, "id": "gThAZpuhu2oOHpHIablPj9Td6GA=", "properties": {"@source_uri": "https://tools.usps.com/UspsToolsRestServices/rest/POLocator/findLocations", "@spider": "usps_collection_boxes", "addr:city": "TOLNA", "addr:country": "US", "addr:postcode": "58380", "addr:state": "ND", "addr:street_address": "105 MAIN ST N", "amenity": "post_box", "collection_times": "Mo-Fr 15:45; Sa 09:15", "note": "ON 12/24 AND 12/31, THIS BOX MAY BE COLLECTED AS EARLY AS 12 NOON.", "nsi_id": "unitedstatespostalservice-a77078", "operator": "United States Postal Service", "operator:short": "USPS", "operator:type": "public", "operator:wikidata": "Q668687", "ref": "5838000001"}, "type": "Feature"}
{"geometry": {"coordinates": [-98.440031412, 47.826656665], "type": "Point"}, "id": "gs40GckeifqSlLppsapGVPfaehc=", "properties": {"@source_uri": "https://tools.usps.com/UspsToolsRestServices/rest/POLocator/findLocations", "@spider": "usps_collection_boxes", "addr:city": "TOLNA", "addr:country": "US", "addr:postcode": "58380", "addr:state": "ND", "addr:street_address": "105 MAIN ST N", "amenity": "post_box", "collection_times": "Mo-Fr 16:00; Sa 09:30", "indoor": "yes", "note": "ON 12/24 AND 12/31, THIS BOX MAY BE COLLECTED AS EARLY AS 12 NOON.", "nsi_id": "unitedstatespostalservice-a77078", "operator": "United States Postal Service", "operator:short": "USPS", "operator:type": "public", "operator:wikidata": "Q668687", "ref": "5838000002"}, "type": "Feature"}
{"geometry": {"coordinates": [-98.5735215, 47.842777529], "type": "Point"}, "id": "iAz_jM5rwFBvgGiyR-tl1WsHn8w=", "properties": {"@source_uri": "https://tools.usps.com/UspsToolsRestServices/rest/POLocator/findLocations", "@spider": "usps_collection_boxes", "addr:city": "TOLNA", "addr:country": "US", "addr:postcode": "58380", "addr:state": "ND", "addr:street_address": "205 1ST ST", "amenity": "post_box", "collection_times": "Mo-Fr 16:40; Sa 16:10", "note": "ON 12/24 AND 12/31, THIS BOX MAY BE COLLECTED AS EARLY AS 12 NOON.", "nsi_id": "unitedstatespostalservice-a77078", "operator": "United States Postal Service", "operator:short": "USPS", "operator:type": "public", "operator:wikidata": "Q668687", "ref": "5838000003"}, "type": "Feature"}
{"geometry": {"coordinates": [-100.294190832, 48.604499475], "type": "Point"}, "id": "aGVdjZSOXsqFw7knYdgY9X4UFBo=", "properties": {"@source_uri": "https://tools.usps.com/UspsToolsRestServices/rest/POLocator/findLocations", "@spider": "usps_collection_boxes", "addr:city": "WILLOW CITY", "addr:country": "US", "addr:postcode": "58384", "addr:state": "ND", "addr:street_address": "259 MAIN ST", "amenity": "post_box", "collection_times": "Mo-Fr 11:45; Sa 09:45", "nsi_id": "unitedstatespostalservice-a77078", "operator": "United States Postal Service", "operator:short": "USPS", "operator:type": "public", "operator:wikidata": "Q668687", "ref": "5838400001"}, "type": "Feature"}
{"geometry": {"coordinates": [-100.294190832, 48.604499475], "type": "Point"}, "id": "xzBaKxB3oy9Yf6XXTfR-6TbgdnM=", "properties": {"@source_uri": "https://tools.usps.com/UspsToolsRestServices/rest/POLocator/findLocations", "@spider": "usps_collection_boxes", "addr:city": "WILLOW CITY", "addr:country": "US", "addr:postcode": "58384", "addr:state": "ND", "addr:street_address": "259 MAIN ST", "amenity": "post_box", "collection_times": "Mo-Fr 12:00; Sa 09:45", "indoor": "yes", "nsi_id": "unitedstatespostalservice-a77078", "operator": "United States Postal Service", "operator:short": "USPS", "operator:type": "public", "operator:wikidata": "Q668687", "ref": "5838400002"}, "type": "Feature"}
{"geometry": {"coordinates": [-99.704708525, 48.492497456], "type": "Point"}, "id": "UL9XZtb9pyPy73PW3gSjzFs5PjU=", "properties": {"@source_uri": "https://tools.usps.com/UspsToolsRestServices/rest/POLocator/findLocations", "@spider": "usps_collection_boxes", "addr:city": "WOLFORD", "addr:country": "US", "addr:postcode": "58385", "addr:state": "ND", "addr:street_address": "201 3RD AVE N", "amenity": "post_box", "collection_times": "Mo-Fr 12:45; Sa 11:45", "note": "ON 12/24 AND 12/31, THIS BOX MAY BE COLLECTED AS EARLY AS 12 NOON.", "nsi_id": "unitedstatespostalservice-a77078", "operator": "United States Postal Service", "operator:short": "USPS", "operator:type": "public", "operator:wikidata": "Q668687", "ref": "5838500001"}, "type": "Feature"}
{"geometry": {"coordinates": [-99.704708525, 48.492497456], "type": "Point"}, "id": "dDNqsM5LjymwiB0BQ65MWFvNCKw=", "properties": {"@source_uri": "https://tools.usps.com/UspsToolsRestServices/rest/POLocator/findLocations", "@spider": "usps_collection_boxes", "addr:city": "WOLFORD", "addr:country": "US", "addr:postcode": "58385", "addr:state": "ND", "addr:street_address": "201 3RD AVE N", "amenity": "post_box", "collection_times": "Mo-Fr 13:00", "indoor": "yes", "note": "ON 12/24 AND 12/31, THIS BOX MAY BE COLLECTED AS EARLY AS 12 NOON.", "nsi_id": "unitedstatespostalservice-a77078", "operator": "United States Postal Service", "operator:short": "USPS", "operator:type": "public", "operator:wikidata": "Q668687", "ref": "5838500002"}, "type": "Feature"}
