{"dataset_attributes": {"@spider": "usps_collection_boxes", "spider:collection_time": "2023-11-04T08:23:02.835734"}, "geometry": {"coordinates": [-98.706772018, 46.904060682], "type": "Point"}, "id": "hOHvOAFfcVLyyy72B59UszFJA48=", "properties": {"@spider": "usps_collection_boxes", "addr:city": "JAMESTOWN", "addr:country": "US", "addr:full": "511 2ND AVE SE", "addr:postcode": "58401", "addr:state": "ND", "amenity": "post_box", "brand": "United States Postal Service", "brand:wikidata": "Q668687", "collection_times": "Mo-Fr 14:00; Sa 13:00", "name": "USPS COLLECTION BOX - BLUE BOX", "note": "ON 12/24 AND 12/31, THIS BOX MAY BE COLLECTED AS EARLY AS 12 NOON.", "nsi_id": "unitedstatespostalservice-a77078", "operator": "United States Postal Service", "operator:short": "USPS", "operator:type": "public", "operator:wikidata": "Q668687", "ref": "5840100001"}, "type": "Feature"}
{"dataset_attributes": {"@spider": "usps_collection_boxes", "spider:collection_time": "2023-11-04T08:23:02.835734"}, "geometry": {"coordinates": [-98.707072916, 46.911487485], "type": "Point"}, "id": "6JZKqDYI2oDdtN9-XRkRkDN3FLU=", "properties": {"@spider": "usps_collection_boxes", "addr:city": "JAMESTOWN", "addr:country": "US", "addr:full": "300 2ND AVE NE", "addr:postcode": "58401", "addr:state": "ND", "amenity": "post_box", "brand": "United States Postal Service", "brand:wikidata": "Q668687", "collection_times": "Mo-Fr 14:00; Sa 13:00", "name": "USPS COLLECTION BOX - BLUE BOX", "note": "ON 12/24 AND 12/31, THIS BOX MAY BE COLLECTED AS EARLY AS 12 NOON.", "nsi_id": "unitedstatespostalservice-a77078", "operator": "United States Postal Service", "operator:short": "USPS", "operator:type": "public", "operator:wikidata": "Q668687", "ref": "5840100010"}, "type": "Feature"}
{"dataset_attributes": {"@spider": "usps_collection_boxes", "spider:collection_time": "2023-11-04T08:23:02.835734"}, "geometry": {"coordinates": [-98.70618, 46.907685], "type": "Point"}, "id": "ZNm2Tj53M8I_lF22PjW9s7lyh1o=", "properties": {"@spider": "usps_collection_boxes", "addr:city": "JAMESTOWN", "addr:country": "US", "addr:full": "6801 COLLEGE LN", "addr:postcode": "58401", "addr:state": "ND", "amenity": "post_box", "brand": "United States Postal Service", "brand:wikidata": "Q668687", "collection_times": "Mo-Fr 14:00; Sa 13:00", "name": "USPS COLLECTION BOX - BLUE BOX", "note": "ON 12/24 AND 12/31, THIS BOX MAY BE COLLECTED AS EARLY AS 12 NOON.", "nsi_id": "unitedstatespostalservice-a77078", "operator": "United States Postal Service", "operator:short": "USPS", "operator:type": "public", "operator:wikidata": "Q668687", "ref": "5840100011"}, "type": "Feature"}
{"dataset_attributes": {"@spider": "usps_collection_boxes", "spider:collection_time": "2023-11-04T08:23:02.835734"}, "geometry": {"coordinates": [-98.6952735, 46.920891457], "type": "Point"}, "id": "P1SzXyeplo8R6dJMoTWTPDz3hYI=", "properties": {"@spider": "usps_collection_boxes", "addr:city": "JAMESTOWN", "addr:country": "US", "addr:full": "1003 13TH ST NE", "addr:postcode": "58401", "addr:state": "ND", "amenity": "post_box", "brand": "United States Postal Service", "brand:wikidata": "Q668687", "collection_times": "Mo-Sa 10:00", "name": "USPS COLLECTION BOX - BLUE BOX", "nsi_id": "unitedstatespostalservice-a77078", "operator": "United States Postal Service", "operator:short": "USPS", "operator:type": "public", "operator:wikidata": "Q668687", "ref": "5840100012"}, "type": "Feature"}
{"dataset_attributes": {"@spider": "usps_collection_boxes", "spider:collection_time": "2023-11-04T08:23:02.835734"}, "geometry": {"coordinates": [-98.691344103, 46.89668816], "type": "Point"}, "id": "6hUyNN0aBQypu8HDgel7lZLxMYU=", "properties": {"@spider": "usps_collection_boxes", "addr:city": "JAMESTOWN", "addr:country": "US", "addr:full": "1219 BUSINESS LOOP E", "addr:postcode": "58401", "addr:state": "ND", "amenity": "post_box", "brand": "United States Postal Service", "brand:wikidata": "Q668687", "collection_times": "Mo-Sa 11:45", "name": "USPS COLLECTION BOX - BLUE BOX", "nsi_id": "unitedstatespostalservice-a77078", "operator": "United States Postal Service", "operator:short": "USPS", "operator:type": "public", "operator:wikidata": "Q668687", "ref": "5840100018"}, "type": "Feature"}
{"dataset_attributes": {"@spider": "usps_collection_boxes", "spider:collection_time": "2023-11-04T08:23:02.835734"}, "geometry": {"coordinates": [-98.710154612, 46.907656522], "type": "Point"}, "id": "2dJqCjMaXP02nflWkmZRjNP_Jqc=", "properties": {"@spider": "usps_collection_boxes", "addr:city": "JAMESTOWN", "addr:country": "US", "addr:full": "212 2ND ST SW", "addr:postcode": "58401", "addr:state": "ND", "amenity": "post_box", "brand": "United States Postal Service", "brand:wikidata": "Q668687", "collection_times": "Mo-Fr 17:30; Sa 13:15", "name": "USPS COLLECTION BOX - PO LOBBY", "note": "ON 12/24 AND 12/31, THIS BOX MAY BE COLLECTED AS EARLY AS 12 NOON.", "nsi_id": "unitedstatespostalservice-a77078", "operator": "United States Postal Service", "operator:short": "USPS", "operator:type": "public", "operator:wikidata": "Q668687", "ref": "5840100028"}, "type": "Feature"}
{"dataset_attributes": {"@spider": "usps_collection_boxes", "spider:collection_time": "2023-11-04T08:23:02.835734"}, "geometry": {"coordinates": [-98.708442657, 46.906217969], "type": "Point"}, "id": "gj0-ygA9oyNJPqfDYzR5s3enEgQ=", "properties": {"@spider": "usps_collection_boxes", "addr:city": "JAMESTOWN", "addr:country": "US", "addr:full": "310 1ST AVE S", "addr:postcode": "58401", "addr:state": "ND", "amenity": "post_box", "brand": "United States Postal Service", "brand:wikidata": "Q668687", "collection_times": "Mo-Fr 14:00; Sa 13:00", "name": "USPS COLLECTION BOX - BLUE BOX", "note": "ON 12/24 AND 12/31, THIS BOX MAY BE COLLECTED AS EARLY AS 12 NOON.", "nsi_id": "unitedstatespostalservice-a77078", "operator": "United States Postal Service", "operator:short": "USPS", "operator:type": "public", "operator:wikidata": "Q668687", "ref": "5840100029"}, "type": "Feature"}
{"dataset_attributes": {"@spider": "usps_collection_boxes", "spider:collection_time": "2023-11-04T08:23:02.835734"}, "geometry": {"coordinates": [-98.710154612, 46.907656522], "type": "Point"}, "id": "N5vNrMNgyVPlemTmKpR3sHt3WvI=", "properties": {"@spider": "usps_collection_boxes", "addr:city": "JAMESTOWN", "addr:country": "US", "addr:full": "212 2ND ST SW", "addr:postcode": "58401", "addr:state": "ND", "amenity": "post_box", "brand": "United States Postal Service", "brand:wikidata": "Q668687", "collection_times": "Mo-Fr 17:30; Sa 13:15", "name": "USPS COLLECTION BOX - BLUE BOX", "note": "ON 12/24 AND 12/31, THIS BOX MAY BE COLLECTED AS EARLY AS 12 NOON.", "nsi_id": "unitedstatespostalservice-a77078", "operator": "United States Postal Service", "operator:short": "USPS", "operator:type": "public", "operator:wikidata": "Q668687", "ref": "5840100031"}, "type": "Feature"}
{"dataset_attributes": {"@spider": "usps_collection_boxes", "spider:collection_time": "2023-11-04T08:23:02.835734"}, "geometry": {"coordinates": [-98.710154612, 46.907656522], "type": "Point"}, "id": "lOLhe9U9TtpbMIw3ajzN3k8rt7A=", "properties": {"@spider": "usps_collection_boxes", "addr:city": "JAMESTOWN", "addr:country": "US", "addr:full": "212 2ND ST SW", "addr:postcode": "58401", "addr:state": "ND", "amenity": "post_box", "brand": "United States Postal Service", "brand:wikidata": "Q668687", "collection_times": "Mo-Fr 17:30; Sa 13:15", "name": "USPS COLLECTION BOX - BLUE BOX", "note": "ON 12/24 AND 12/31, THIS BOX MAY BE COLLECTED AS EARLY AS 12 NOON.", "nsi_id": "unitedstatespostalservice-a77078", "operator": "United States Postal Service", "operator:short": "USPS", "operator:type": "public", "operator:wikidata": "Q668687", "ref": "5840100032"}, "type": "Feature"}
{"dataset_attributes": {"@spider": "usps_collection_boxes", "spider:collection_time": "2023-11-04T08:23:02.835734"}, "geometry": {"coordinates": [-98.710154612, 46.907656522], "type": "Point"}, "id": "w1Zm-t08MvBIattNJvYuxuto6wc=", "properties": {"@spider": "usps_collection_boxes", "addr:city": "JAMESTOWN", "addr:country": "US", "addr:full": "212 2ND ST SW", "addr:postcode": "58401", "addr:state": "ND", "amenity": "post_box", "brand": "United States Postal Service", "brand:wikidata": "Q668687", "collection_times": "Mo-Fr 17:30; Sa 13:15", "name": "USPS COLLECTION BOX - BLUE BOX", "note": "ON 12/24 AND 12/31, THIS BOX MAY BE COLLECTED AS EARLY AS 12 NOON.", "nsi_id": "unitedstatespostalservice-a77078", "operator": "United States Postal Service", "operator:short": "USPS", "operator:type": "public", "operator:wikidata": "Q668687", "ref": "5840100033"}, "type": "Feature"}
{"dataset_attributes": {"@spider": "usps_collection_boxes", "spider:collection_time": "2023-11-04T08:23:02.835734"}, "geometry": {"coordinates": [-98.710154612, 46.907656522], "type": "Point"}, "id": "xFO2GMtX7vhO5zPTiLA-hQjJVrs=", "properties": {"@spider": "usps_collection_boxes", "addr:city": "JAMESTOWN", "addr:country": "US", "addr:full": "212 2ND ST SW", "addr:postcode": "58401", "addr:state": "ND", "amenity": "post_box", "brand": "United States Postal Service", "brand:wikidata": "Q668687", "collection_times": "Mo-Fr 17:30; Sa 13:15", "name": "USPS COLLECTION BOX - BLUE BOX", "note": "ON 12/24 AND 12/31, THIS BOX MAY BE COLLECTED AS EARLY AS 12 NOON.", "nsi_id": "unitedstatespostalservice-a77078", "operator": "United States Postal Service", "operator:short": "USPS", "operator:type": "public", "operator:wikidata": "Q668687", "ref": "5840100037"}, "type": "Feature"}
{"dataset_attributes": {"@spider": "usps_collection_boxes", "spider:collection_time": "2023-11-04T08:23:02.835734"}, "geometry": {"coordinates": [-99.370168142, 46.034551297], "type": "Point"}, "id": "6IopwAFoixRkca-P-VQOrDoAt9k=", "properties": {"@spider": "usps_collection_boxes", "addr:city": "ASHLEY", "addr:country": "US", "addr:full": "110 E MAIN ST", "addr:postcode": "58413", "addr:state": "ND", "amenity": "post_box", "brand": "United States Postal Service", "brand:wikidata": "Q668687", "collection_times": "Mo-Sa 14:15", "name": "USPS COLLECTION BOX - BLUE BOX", "note": "ON 12/24 AND 12/31, THIS BOX MAY BE COLLECTED AS EARLY AS 12 NOON.", "nsi_id": "unitedstatespostalservice-a77078", "operator": "United States Postal Service", "operator:short": "USPS", "operator:type": "public", "operator:wikidata": "Q668687", "ref": "5841300001"}, "type": "Feature"}
{"dataset_attributes": {"@spider": "usps_collection_boxes", "spider:collection_time": "2023-11-04T08:23:02.835734"}, "geometry": {"coordinates": [-99.370168142, 46.034551297], "type": "Point"}, "id": "3svYlT8aQN7pcMU-ZtdyWYTNuEw=", "properties": {"@spider": "usps_collection_boxes", "addr:city": "ASHLEY", "addr:country": "US", "addr:full": "110 E MAIN ST", "addr:postcode": "58413", "addr:state": "ND", "amenity": "post_box", "brand": "United States Postal Service", "brand:wikidata": "Q668687", "collection_times": "Mo-Fr 14:15", "name": "USPS COLLECTION BOX - PO LOBBY", "note": "ON 12/24 AND 12/31, THIS BOX MAY BE COLLECTED AS EARLY AS 12 NOON.", "nsi_id": "unitedstatespostalservice-a77078", "operator": "United States Postal Service", "operator:short": "USPS", "operator:type": "public", "operator:wikidata": "Q668687", "ref": "5841300002"}, "type": "Feature"}
{"dataset_attributes": {"@spider": "usps_collection_boxes", "spider:collection_time": "2023-11-04T08:23:02.835734"}, "geometry": {"coordinates": [-99.370168142, 46.034551297], "type": "Point"}, "id": "8Yzsq-pNQAR2LzLNQlIq2mcJo0Y=", "properties": {"@spider": "usps_collection_boxes", "addr:city": "ASHLEY", "addr:country": "US", "addr:full": "110 E MAIN ST", "addr:postcode": "58413", "addr:state": "ND", "amenity": "post_box", "brand": "United States Postal Service", "brand:wikidata": "Q668687", "collection_times": "Mo-Fr 14:10; Sa 10:50", "name": "USPS COLLECTION BOX - PO LOBBY", "note": "ON 12/24 AND 12/31, THIS BOX MAY BE COLLECTED AS EARLY AS 12 NOON.", "nsi_id": "unitedstatespostalservice-a77078", "operator": "United States Postal Service", "operator:short": "USPS", "operator:type": "public", "operator:wikidata": "Q668687", "ref": "5841300003"}, "type": "Feature"}
{"dataset_attributes": {"@spider": "usps_collection_boxes", "spider:collection_time": "2023-11-04T08:23:02.835734"}, "geometry": {"coordinates": [-98.346196107, 47.560646112], "type": "Point"}, "id": "urFZvfFpYFOGxt1qUpc3iKxBnyQ=", "properties": {"@spider": "usps_collection_boxes", "addr:city": "BINFORD", "addr:country": "US", "addr:full": "215 WHINERY ST", "addr:postcode": "58416", "addr:state": "ND", "amenity": "post_box", "brand": "United States Postal Service", "brand:wikidata": "Q668687", "collection_times": "Mo-Fr 15:45; Sa 15:15", "name": "USPS COLLECTION BOX - BLUE BOX", "note": "ON 12/24 AND 12/31, THIS BOX MAY BE COLLECTED AS EARLY AS 12 NOON.", "nsi_id": "unitedstatespostalservice-a77078", "operator": "United States Postal Service", "operator:short": "USPS", "operator:type": "public", "operator:wikidata": "Q668687", "ref": "5841600001"}, "type": "Feature"}
{"dataset_attributes": {"@spider": "usps_collection_boxes", "spider:collection_time": "2023-11-04T08:23:02.835734"}, "geometry": {"coordinates": [-98.346196107, 47.560646112], "type": "Point"}, "id": "4OAlZvSnih3eh5sYQ2rv7AXwWG8=", "properties": {"@spider": "usps_collection_boxes", "addr:city": "BINFORD", "addr:country": "US", "addr:full": "215 WHINERY ST", "addr:postcode": "58416", "addr:state": "ND", "amenity": "post_box", "brand": "United States Postal Service", "brand:wikidata": "Q668687", "collection_times": "Mo-Fr 11:30", "name": "USPS COLLECTION BOX - PO LOBBY", "nsi_id": "unitedstatespostalservice-a77078", "operator": "United States Postal Service", "operator:short": "USPS", "operator:type": "public", "operator:wikidata": "Q668687", "ref": "5841600002"}, "type": "Feature"}
{"dataset_attributes": {"@spider": "usps_collection_boxes", "spider:collection_time": "2023-11-04T08:23:02.835734"}, "geometry": {"coordinates": [-98.346196107, 47.560646112], "type": "Point"}, "id": "wlm_zBgQ4Q-nPhAi8x6g8Z6i-iU=", "properties": {"@spider": "usps_collection_boxes", "addr:city": "BINFORD", "addr:country": "US", "addr:full": "215 WHINERY ST", "addr:postcode": "58416", "addr:state": "ND", "amenity": "post_box", "brand": "United States Postal Service", "brand:wikidata": "Q668687", "collection_times": "Mo-Fr 11:30; Sa 09:35", "name": "USPS COLLECTION BOX - PO LOBBY", "nsi_id": "unitedstatespostalservice-a77078", "operator": "United States Postal Service", "operator:short": "USPS", "operator:type": "public", "operator:wikidata": "Q668687", "ref": "5841600003"}, "type": "Feature"}
{"dataset_attributes": {"@spider": "usps_collection_boxes", "spider:collection_time": "2023-11-04T08:23:02.835734"}, "geometry": {"coordinates": [-99.707619214, 47.467352467], "type": "Point"}, "id": "0kZQgYNkyqj3B40Ygzp6H5s6joc=", "properties": {"@spider": "usps_collection_boxes", "addr:city": "BOWDON", "addr:country": "US", "addr:full": "212 WARRINGTON AVE", "addr:postcode": "58418", "addr:state": "ND", "amenity": "post_box", "brand": "United States Postal Service", "brand:wikidata": "Q668687", "collection_times": "Mo-Sa 15:15", "name": "USPS COLLECTION BOX - BLUE BOX", "note": "ON 12/24 AND 12/31, THIS BOX MAY BE COLLECTED AS EARLY AS 12 NOON.", "nsi_id": "unitedstatespostalservice-a77078", "operator": "United States Postal Service", "operator:short": "USPS", "operator:type": "public", "operator:wikidata": "Q668687", "ref": "5841800001"}, "type": "Feature"}
{"dataset_attributes": {"@spider": "usps_collection_boxes", "spider:collection_time": "2023-11-04T08:23:02.835734"}, "geometry": {"coordinates": [-99.707619214, 47.467352467], "type": "Point"}, "id": "5F7HsTIwypASybBKywKVBYNQyJQ=", "properties": {"@spider": "usps_collection_boxes", "addr:city": "BOWDON", "addr:country": "US", "addr:full": "212 WARRINGTON AVE", "addr:postcode": "58418", "addr:state": "ND", "amenity": "post_box", "brand": "United States Postal Service", "brand:wikidata": "Q668687", "collection_times": "Mo-Fr 11:30", "name": "USPS COLLECTION BOX - PO LOBBY", "nsi_id": "unitedstatespostalservice-a77078", "operator": "United States Postal Service", "operator:short": "USPS", "operator:type": "public", "operator:wikidata": "Q668687", "ref": "5841800002"}, "type": "Feature"}
{"dataset_attributes": {"@spider": "usps_collection_boxes", "spider:collection_time": "2023-11-04T08:23:02.835734"}, "geometry": {"coordinates": [-99.707619214, 47.467352467], "type": "Point"}, "id": "R972gT7B1qL3ShQyiBDh83EdGMs=", "properties": {"@spider": "usps_collection_boxes", "addr:city": "BOWDON", "addr:country": "US", "addr:full": "212 WARRINGTON AVE", "addr:postcode": "58418", "addr:state": "ND", "amenity": "post_box", "brand": "United States Postal Service", "brand:wikidata": "Q668687", "collection_times": "Mo-Fr 11:20; Sa 08:50", "name": "USPS COLLECTION BOX - PO LOBBY", "nsi_id": "unitedstatespostalservice-a77078", "operator": "United States Postal Service", "operator:short": "USPS", "operator:type": "public", "operator:wikidata": "Q668687", "ref": "5841800003"}, "type": "Feature"}
{"dataset_attributes": {"@spider": "usps_collection_boxes", "spider:collection_time": "2023-11-04T08:23:02.835734"}, "geometry": {"coordinates": [-98.828680814, 47.063429445], "type": "Point"}, "id": "HBWdtfjbAeAPKQ-i8cYQVzvyXuk=", "properties": {"@spider": "usps_collection_boxes", "addr:city": "BUCHANAN", "addr:country": "US", "addr:full": "301 MAIN ST", "addr:postcode": "58420", "addr:state": "ND", "amenity": "post_box", "brand": "United States Postal Service", "brand:wikidata": "Q668687", "collection_times": "Mo-Sa 16:00", "name": "USPS COLLECTION BOX - BLUE BOX", "note": "ON 12/24 AND 12/31, THIS BOX MAY BE COLLECTED AS EARLY AS 12 NOON.", "nsi_id": "unitedstatespostalservice-a77078", "operator": "United States Postal Service", "operator:short": "USPS", "operator:type": "public", "operator:wikidata": "Q668687", "ref": "5842000001"}, "type": "Feature"}
{"dataset_attributes": {"@spider": "usps_collection_boxes", "spider:collection_time": "2023-11-04T08:23:02.835734"}, "geometry": {"coordinates": [-98.828680814, 47.063429445], "type": "Point"}, "id": "ZQuBNm4gI_8ZKwcGd47agyKpse8=", "properties": {"@spider": "usps_collection_boxes", "addr:city": "BUCHANAN", "addr:country": "US", "addr:full": "301 MAIN ST", "addr:postcode": "58420", "addr:state": "ND", "amenity": "post_box", "brand": "United States Postal Service", "brand:wikidata": "Q668687", "collection_times": "Mo-Fr 10:20", "name": "USPS COLLECTION BOX - PO LOBBY", "nsi_id": "unitedstatespostalservice-a77078", "operator": "United States Postal Service", "operator:short": "USPS", "operator:type": "public", "operator:wikidata": "Q668687", "ref": "5842000002"}, "type": "Feature"}
{"dataset_attributes": {"@spider": "usps_collection_boxes", "spider:collection_time": "2023-11-04T08:23:02.835734"}, "geometry": {"coordinates": [-98.828680814, 47.063429445], "type": "Point"}, "id": "qMB5WjnGZkTVGVGSZoBbnObBbgI=", "properties": {"@spider": "usps_collection_boxes", "addr:city": "BUCHANAN", "addr:country": "US", "addr:full": "301 MAIN ST", "addr:postcode": "58420", "addr:state": "ND", "amenity": "post_box", "brand": "United States Postal Service", "brand:wikidata": "Q668687", "collection_times": "Mo-Sa 10:20", "name": "USPS COLLECTION BOX - PO LOBBY", "nsi_id": "unitedstatespostalservice-a77078", "operator": "United States Postal Service", "operator:short": "USPS", "operator:type": "public", "operator:wikidata": "Q668687", "ref": "5842000003"}, "type": "Feature"}
{"dataset_attributes": {"@spider": "usps_collection_boxes", "spider:collection_time": "2023-11-04T08:23:02.835734"}, "geometry": {"coordinates": [-99.124878304, 47.450364505], "type": "Point"}, "id": "43Yb5XSW2lGc0_BX3xxPKgAZsTM=", "properties": {"@spider": "usps_collection_boxes", "addr:city": "CARRINGTON", "addr:country": "US", "addr:full": "87 9TH AVE N", "addr:postcode": "58421", "addr:state": "ND", "amenity": "post_box", "brand": "United States Postal Service", "brand:wikidata": "Q668687", "collection_times": "Mo-Sa 16:15", "name": "USPS COLLECTION BOX - BLUE BOX", "note": "ON 12/24 AND 12/31, THIS BOX MAY BE COLLECTED AS EARLY AS 12 NOON.", "nsi_id": "unitedstatespostalservice-a77078", "operator": "United States Postal Service", "operator:short": "USPS", "operator:type": "public", "operator:wikidata": "Q668687", "ref": "5842100011"}, "type": "Feature"}
{"dataset_attributes": {"@spider": "usps_collection_boxes", "spider:collection_time": "2023-11-04T08:23:02.835734"}, "geometry": {"coordinates": [-99.124878304, 47.450364505], "type": "Point"}, "id": "h3MIpzPkSvYF2iQgkUDLorO1hWM=", "properties": {"@spider": "usps_collection_boxes", "addr:city": "CARRINGTON", "addr:country": "US", "addr:full": "87 9TH AVE N", "addr:postcode": "58421", "addr:state": "ND", "amenity": "post_box", "brand": "United States Postal Service", "brand:wikidata": "Q668687", "collection_times": "Mo-Sa 16:15", "name": "USPS COLLECTION BOX - BLUE BOX", "note": "ON 12/24 AND 12/31, THIS BOX MAY BE COLLECTED AS EARLY AS 12 NOON.", "nsi_id": "unitedstatespostalservice-a77078", "operator": "United States Postal Service", "operator:short": "USPS", "operator:type": "public", "operator:wikidata": "Q668687", "ref": "5842100012"}, "type": "Feature"}
{"dataset_attributes": {"@spider": "usps_collection_boxes", "spider:collection_time": "2023-11-04T08:23:02.835734"}, "geometry": {"coordinates": [-99.124878304, 47.450364505], "type": "Point"}, "id": "Hca1eZ6ThG0WLFwO9LvcjBm-57s=", "properties": {"@spider": "usps_collection_boxes", "addr:city": "CARRINGTON", "addr:country": "US", "addr:full": "87 9TH AVE N", "addr:postcode": "58421", "addr:state": "ND", "amenity": "post_box", "brand": "United States Postal Service", "brand:wikidata": "Q668687", "collection_times": "Mo-Fr 16:15", "name": "USPS COLLECTION BOX - PO LOBBY", "note": "ON 12/24 AND 12/31, THIS BOX MAY BE COLLECTED AS EARLY AS 12 NOON.", "nsi_id": "unitedstatespostalservice-a77078", "operator": "United States Postal Service", "operator:short": "USPS", "operator:type": "public", "operator:wikidata": "Q668687", "ref": "5842100013"}, "type": "Feature"}
{"dataset_attributes": {"@spider": "usps_collection_boxes", "spider:collection_time": "2023-11-04T08:23:02.835734"}, "geometry": {"coordinates": [-99.124878304, 47.450364505], "type": "Point"}, "id": "melmulmz1LJdWKUS_tDfiqSxlFc=", "properties": {"@spider": "usps_collection_boxes", "addr:city": "CARRINGTON", "addr:country": "US", "addr:full": "87 9TH AVE N", "addr:postcode": "58421", "addr:state": "ND", "amenity": "post_box", "brand": "United States Postal Service", "brand:wikidata": "Q668687", "collection_times": "Mo-Fr 16:15; Sa 09:15", "name": "USPS COLLECTION BOX - PO LOBBY", "note": "ON 12/24 AND 12/31, THIS BOX MAY BE COLLECTED AS EARLY AS 12 NOON.", "nsi_id": "unitedstatespostalservice-a77078", "operator": "United States Postal Service", "operator:short": "USPS", "operator:type": "public", "operator:wikidata": "Q668687", "ref": "5842100015"}, "type": "Feature"}
{"dataset_attributes": {"@spider": "usps_collection_boxes", "spider:collection_time": "2023-11-04T08:23:02.835734"}, "geometry": {"coordinates": [-99.121010748, 46.891140674], "type": "Point"}, "id": "xExcdnvGITQ3kwlvOFUqflsBupI=", "properties": {"@spider": "usps_collection_boxes", "addr:city": "CLEVELAND", "addr:country": "US", "addr:full": "420 5TH AVE N", "addr:postcode": "58424", "addr:state": "ND", "amenity": "post_box", "brand": "United States Postal Service", "brand:wikidata": "Q668687", "collection_times": "Mo-Sa 15:00", "name": "USPS COLLECTION BOX - BLUE BOX", "note": "ON 12/24 AND 12/31, THIS BOX MAY BE COLLECTED AS EARLY AS 12 NOON.", "nsi_id": "unitedstatespostalservice-a77078", "operator": "United States Postal Service", "operator:short": "USPS", "operator:type": "public", "operator:wikidata": "Q668687", "ref": "5842400000"}, "type": "Feature"}
{"dataset_attributes": {"@spider": "usps_collection_boxes", "spider:collection_time": "2023-11-04T08:23:02.835734"}, "geometry": {"coordinates": [-99.121010748, 46.891140674], "type": "Point"}, "id": "rggsdezMAtkvA8Qh4dfnLzcxnqw=", "properties": {"@spider": "usps_collection_boxes", "addr:city": "CLEVELAND", "addr:country": "US", "addr:full": "420 5TH AVE N", "addr:postcode": "58424", "addr:state": "ND", "amenity": "post_box", "brand": "United States Postal Service", "brand:wikidata": "Q668687", "collection_times": "Mo-Fr 11:20", "name": "USPS COLLECTION BOX - PO LOBBY", "nsi_id": "unitedstatespostalservice-a77078", "operator": "United States Postal Service", "operator:short": "USPS", "operator:type": "public", "operator:wikidata": "Q668687", "ref": "5842400001"}, "type": "Feature"}
{"dataset_attributes": {"@spider": "usps_collection_boxes", "spider:collection_time": "2023-11-04T08:23:02.835734"}, "geometry": {"coordinates": [-99.121010748, 46.891140674], "type": "Point"}, "id": "Hc9rl1Nxtd4nnHhYoLaXqRVkq-E=", "properties": {"@spider": "usps_collection_boxes", "addr:city": "CLEVELAND", "addr:country": "US", "addr:full": "420 5TH AVE N", "addr:postcode": "58424", "addr:state": "ND", "amenity": "post_box", "brand": "United States Postal Service", "brand:wikidata": "Q668687", "collection_times": "Mo-Fr 11:20; Sa 10:30", "name": "USPS COLLECTION BOX - PO LOBBY", "nsi_id": "unitedstatespostalservice-a77078", "operator": "United States Postal Service", "operator:short": "USPS", "operator:type": "public", "operator:wikidata": "Q668687", "ref": "5842400002"}, "type": "Feature"}
{"dataset_attributes": {"@spider": "usps_collection_boxes", "spider:collection_time": "2023-11-04T08:23:02.835734"}, "geometry": {"coordinates": [-98.125410304, 47.447287063], "type": "Point"}, "id": "seJjHDILzq2ti7lfEashDc3eHY4=", "properties": {"@spider": "usps_collection_boxes", "addr:city": "COOPERSTOWN", "addr:country": "US", "addr:full": "608 8TH ST NW", "addr:postcode": "58425", "addr:state": "ND", "amenity": "post_box", "brand": "United States Postal Service", "brand:wikidata": "Q668687", "collection_times": "Mo-Sa 16:15", "name": "USPS COLLECTION BOX - BLUE BOX", "note": "ON 12/24 AND 12/31, THIS BOX MAY BE COLLECTED AS EARLY AS 12 NOON.", "nsi_id": "unitedstatespostalservice-a77078", "operator": "United States Postal Service", "operator:short": "USPS", "operator:type": "public", "operator:wikidata": "Q668687", "ref": "5842500003"}, "type": "Feature"}
{"dataset_attributes": {"@spider": "usps_collection_boxes", "spider:collection_time": "2023-11-04T08:23:02.835734"}, "geometry": {"coordinates": [-98.125410304, 47.447287063], "type": "Point"}, "id": "xxFgiZpurWU4-DPsDbgeFndqK5Q=", "properties": {"@spider": "usps_collection_boxes", "addr:city": "COOPERSTOWN", "addr:country": "US", "addr:full": "608 8TH ST NW", "addr:postcode": "58425", "addr:state": "ND", "amenity": "post_box", "brand": "United States Postal Service", "brand:wikidata": "Q668687", "collection_times": "Mo-Fr 16:15", "name": "USPS COLLECTION BOX - PO LOBBY", "note": "ON 12/24 AND 12/31, THIS BOX MAY BE COLLECTED AS EARLY AS 12 NOON.", "nsi_id": "unitedstatespostalservice-a77078", "operator": "United States Postal Service", "operator:short": "USPS", "operator:type": "public", "operator:wikidata": "Q668687", "ref": "5842500005"}, "type": "Feature"}
{"dataset_attributes": {"@spider": "usps_collection_boxes", "spider:collection_time": "2023-11-04T08:23:02.835734"}, "geometry": {"coordinates": [-98.125410304, 47.447287063], "type": "Point"}, "id": "NnMTsi4hgw9cNIu6zQQZ9SmTo98=", "properties": {"@spider": "usps_collection_boxes", "addr:city": "COOPERSTOWN", "addr:country": "US", "addr:full": "608 8TH ST NW", "addr:postcode": "58425", "addr:state": "ND", "amenity": "post_box", "brand": "United States Postal Service", "brand:wikidata": "Q668687", "collection_times": "Mo-Fr 16:00; Sa 10:30", "name": "USPS COLLECTION BOX - PO LOBBY", "note": "ON 12/24 AND 12/31, THIS BOX MAY BE COLLECTED AS EARLY AS 12 NOON.", "nsi_id": "unitedstatespostalservice-a77078", "operator": "United States Postal Service", "operator:short": "USPS", "operator:type": "public", "operator:wikidata": "Q668687", "ref": "5842500006"}, "type": "Feature"}
{"dataset_attributes": {"@spider": "usps_collection_boxes", "spider:collection_time": "2023-11-04T08:23:02.835734"}, "geometry": {"coordinates": [-99.789699195, 46.878431786], "type": "Point"}, "id": "01KEw_XzV2ISgY371jjhq1USNCI=", "properties": {"@spider": "usps_collection_boxes", "addr:city": "DAWSON", "addr:country": "US", "addr:full": "118 HIGHWAY 3 S", "addr:postcode": "58428", "addr:state": "ND", "amenity": "post_box", "brand": "United States Postal Service", "brand:wikidata": "Q668687", "collection_times": "Mo-Sa 14:30", "name": "USPS COLLECTION BOX - BLUE BOX", "note": "ON 12/24 AND 12/31, THIS BOX MAY BE COLLECTED AS EARLY AS 12 NOON.", "nsi_id": "unitedstatespostalservice-a77078", "operator": "United States Postal Service", "operator:short": "USPS", "operator:type": "public", "operator:wikidata": "Q668687", "ref": "5842800001"}, "type": "Feature"}
{"dataset_attributes": {"@spider": "usps_collection_boxes", "spider:collection_time": "2023-11-04T08:23:02.835734"}, "geometry": {"coordinates": [-99.7895512339, 46.8784398891], "type": "Point"}, "id": "LNrMlhD8gBUQb9HjhNrsXuarJ7w=", "properties": {"@spider": "usps_collection_boxes", "addr:city": "DAWSON", "addr:country": "US", "addr:full": "118 HIGHWAY 3 S", "addr:postcode": "58428", "addr:state": "ND", "amenity": "post_box", "brand": "United States Postal Service", "brand:wikidata": "Q668687", "collection_times": "Mo-Fr 11:50", "name": "USPS COLLECTION BOX - PO LOBBY", "nsi_id": "unitedstatespostalservice-a77078", "operator": "United States Postal Service", "operator:short": "USPS", "operator:type": "public", "operator:wikidata": "Q668687", "ref": "5842800002"}, "type": "Feature"}
{"dataset_attributes": {"@spider": "usps_collection_boxes", "spider:collection_time": "2023-11-04T08:23:02.835734"}, "geometry": {"coordinates": [-99.7895512339, 46.8784398891], "type": "Point"}, "id": "JJYaq_Y8tdsWs3yuJ2LiU7HItQ4=", "properties": {"@spider": "usps_collection_boxes", "addr:city": "DAWSON", "addr:country": "US", "addr:full": "118 HIGHWAY 3 S", "addr:postcode": "58428", "addr:state": "ND", "amenity": "post_box", "brand": "United States Postal Service", "brand:wikidata": "Q668687", "collection_times": "Mo-Fr 11:50; Sa 10:40", "name": "USPS COLLECTION BOX - PO LOBBY", "nsi_id": "unitedstatespostalservice-a77078", "operator": "United States Postal Service", "operator:short": "USPS", "operator:type": "public", "operator:wikidata": "Q668687", "ref": "5842800003"}, "type": "Feature"}
{"dataset_attributes": {"@spider": "usps_collection_boxes", "spider:collection_time": "2023-11-04T08:23:02.835734"}, "geometry": {"coordinates": [-98.7117460271, 46.3602870174], "type": "Point"}, "id": "JuidQCMvBMuXqdifcq5Ni01RF0I=", "properties": {"@spider": "usps_collection_boxes", "addr:city": "EDGELEY", "addr:country": "US", "addr:full": "511 MAIN ST", "addr:postcode": "58433", "addr:state": "ND", "amenity": "post_box", "brand": "United States Postal Service", "brand:wikidata": "Q668687", "collection_times": "Mo-Sa 16:00", "name": "USPS COLLECTION BOX - BLUE BOX", "note": "ON 12/24 AND 12/31, THIS BOX MAY BE COLLECTED AS EARLY AS 12 NOON.", "nsi_id": "unitedstatespostalservice-a77078", "operator": "United States Postal Service", "operator:short": "USPS", "operator:type": "public", "operator:wikidata": "Q668687", "ref": "5843300002"}, "type": "Feature"}
{"dataset_attributes": {"@spider": "usps_collection_boxes", "spider:collection_time": "2023-11-04T08:23:02.835734"}, "geometry": {"coordinates": [-98.7112836, 46.360294931], "type": "Point"}, "id": "5fmxQSgEA49h_UAz5eFWMnjkts8=", "properties": {"@spider": "usps_collection_boxes", "addr:city": "EDGELEY", "addr:country": "US", "addr:full": "511 MAIN ST", "addr:postcode": "58433", "addr:state": "ND", "amenity": "post_box", "brand": "United States Postal Service", "brand:wikidata": "Q668687", "collection_times": "Mo-Fr 16:00; Sa 10:00", "name": "USPS COLLECTION BOX - PO LOBBY", "note": "ON 12/24 AND 12/31, THIS BOX MAY BE COLLECTED AS EARLY AS 12 NOON.", "nsi_id": "unitedstatespostalservice-a77078", "operator": "United States Postal Service", "operator:short": "USPS", "operator:type": "public", "operator:wikidata": "Q668687", "ref": "5843300003"}, "type": "Feature"}
{"dataset_attributes": {"@spider": "usps_collection_boxes", "spider:collection_time": "2023-11-04T08:23:02.835734"}, "geometry": {"coordinates": [-98.7112836, 46.360294931], "type": "Point"}, "id": "XK-Qqve-h4QPU7FlrPzFNLpKOs4=", "properties": {"@spider": "usps_collection_boxes", "addr:city": "EDGELEY", "addr:country": "US", "addr:full": "511 MAIN ST", "addr:postcode": "58433", "addr:state": "ND", "amenity": "post_box", "brand": "United States Postal Service", "brand:wikidata": "Q668687", "collection_times": "Mo-Fr 16:00; Sa 10:00", "name": "USPS COLLECTION BOX - PO LOBBY", "note": "ON 12/24 AND 12/31, THIS BOX MAY BE COLLECTED AS EARLY AS 12 NOON.", "nsi_id": "unitedstatespostalservice-a77078", "operator": "United States Postal Service", "operator:short": "USPS", "operator:type": "public", "operator:wikidata": "Q668687", "ref": "5843300004"}, "type": "Feature"}
{"dataset_attributes": {"@spider": "usps_collection_boxes", "spider:collection_time": "2023-11-04T08:23:02.835734"}, "geometry": {"coordinates": [-98.526560124, 46.002632303], "type": "Point"}, "id": "-RTNZ6CNI58qZSmSUDyjsP6GrzI=", "properties": {"@spider": "usps_collection_boxes", "addr:city": "ELLENDALE", "addr:country": "US", "addr:full": "111 1ST ST N", "addr:postcode": "58436", "addr:state": "ND", "amenity": "post_box", "brand": "United States Postal Service", "brand:wikidata": "Q668687", "collection_times": "Mo-Sa 15:30", "name": "USPS COLLECTION BOX - BLUE BOX", "note": "ON 12/24 AND 12/31, THIS BOX MAY BE COLLECTED AS EARLY AS 12 NOON.", "nsi_id": "unitedstatespostalservice-a77078", "operator": "United States Postal Service", "operator:short": "USPS", "operator:type": "public", "operator:wikidata": "Q668687", "ref": "5843600001"}, "type": "Feature"}
{"dataset_attributes": {"@spider": "usps_collection_boxes", "spider:collection_time": "2023-11-04T08:23:02.835734"}, "geometry": {"coordinates": [-98.526560124, 46.002632303], "type": "Point"}, "id": "H84l5shhYYDEIEciOBjNM28_MCU=", "properties": {"@spider": "usps_collection_boxes", "addr:city": "ELLENDALE", "addr:country": "US", "addr:full": "111 1ST ST N", "addr:postcode": "58436", "addr:state": "ND", "amenity": "post_box", "brand": "United States Postal Service", "brand:wikidata": "Q668687", "collection_times": "Mo-Fr 15:30", "name": "USPS COLLECTION BOX - PO LOBBY", "note": "ON 12/24 AND 12/31, THIS BOX MAY BE COLLECTED AS EARLY AS 12 NOON.", "nsi_id": "unitedstatespostalservice-a77078", "operator": "United States Postal Service", "operator:short": "USPS", "operator:type": "public", "operator:wikidata": "Q668687", "ref": "5843600002"}, "type": "Feature"}
{"dataset_attributes": {"@spider": "usps_collection_boxes", "spider:collection_time": "2023-11-04T08:23:02.835734"}, "geometry": {"coordinates": [-98.526560124, 46.002632303], "type": "Point"}, "id": "5vjJo1Rkltif0axEjfFUEPdl02g=", "properties": {"@spider": "usps_collection_boxes", "addr:city": "ELLENDALE", "addr:country": "US", "addr:full": "111 1ST ST N", "addr:postcode": "58436", "addr:state": "ND", "amenity": "post_box", "brand": "United States Postal Service", "brand:wikidata": "Q668687", "collection_times": "Mo-Fr 15:30; Sa 09:45", "name": "USPS COLLECTION BOX - PO LOBBY", "note": "ON 12/24 AND 12/31, THIS BOX MAY BE COLLECTED AS EARLY AS 12 NOON.", "nsi_id": "unitedstatespostalservice-a77078", "operator": "United States Postal Service", "operator:short": "USPS", "operator:type": "public", "operator:wikidata": "Q668687", "ref": "5843600003"}, "type": "Feature"}
{"dataset_attributes": {"@spider": "usps_collection_boxes", "spider:collection_time": "2023-11-04T08:23:02.835734"}, "geometry": {"coordinates": [-99.629934683, 47.648298672], "type": "Point"}, "id": "qc2buWCFikQTpDfxtnXtxR8kxnM=", "properties": {"@spider": "usps_collection_boxes", "addr:city": "FESSENDEN", "addr:country": "US", "addr:full": "82 MAIN AVE S", "addr:postcode": "58438", "addr:state": "ND", "amenity": "post_box", "brand": "United States Postal Service", "brand:wikidata": "Q668687", "collection_times": "Mo-Fr 14:50; Sa 10:00", "name": "USPS COLLECTION BOX - BLUE BOX", "note": "ON 12/24 AND 12/31, THIS BOX MAY BE COLLECTED AS EARLY AS 12 NOON.", "nsi_id": "unitedstatespostalservice-a77078", "operator": "United States Postal Service", "operator:short": "USPS", "operator:type": "public", "operator:wikidata": "Q668687", "ref": "5843800001"}, "type": "Feature"}
{"dataset_attributes": {"@spider": "usps_collection_boxes", "spider:collection_time": "2023-11-04T08:23:02.835734"}, "geometry": {"coordinates": [-99.629934683, 47.648298672], "type": "Point"}, "id": "DqOyTAEAyU3SzDN3gyOHIwQB3Jc=", "properties": {"@spider": "usps_collection_boxes", "addr:city": "FESSENDEN", "addr:country": "US", "addr:full": "82 MAIN AVE S", "addr:postcode": "58438", "addr:state": "ND", "amenity": "post_box", "brand": "United States Postal Service", "brand:wikidata": "Q668687", "collection_times": "Mo-Fr 14:50", "name": "USPS COLLECTION BOX - PO LOBBY", "note": "ON 12/24 AND 12/31, THIS BOX MAY BE COLLECTED AS EARLY AS 12 NOON.", "nsi_id": "unitedstatespostalservice-a77078", "operator": "United States Postal Service", "operator:short": "USPS", "operator:type": "public", "operator:wikidata": "Q668687", "ref": "5843800002"}, "type": "Feature"}
{"dataset_attributes": {"@spider": "usps_collection_boxes", "spider:collection_time": "2023-11-04T08:23:02.835734"}, "geometry": {"coordinates": [-99.6299346825, 47.6482986724], "type": "Point"}, "id": "5F1jAkBUGIIapJYfRW1BYEx67Xs=", "properties": {"@spider": "usps_collection_boxes", "addr:city": "FESSENDEN", "addr:country": "US", "addr:full": "82 MAIN AVE S", "addr:postcode": "58438", "addr:state": "ND", "amenity": "post_box", "brand": "United States Postal Service", "brand:wikidata": "Q668687", "collection_times": "Mo-Fr 14:50; Sa 10:00", "name": "USPS COLLECTION BOX - PO LOBBY", "note": "ON 12/24 AND 12/31, THIS BOX MAY BE COLLECTED AS EARLY AS 12 NOON.", "nsi_id": "unitedstatespostalservice-a77078", "operator": "United States Postal Service", "operator:short": "USPS", "operator:type": "public", "operator:wikidata": "Q668687", "ref": "5843800003"}, "type": "Feature"}
{"dataset_attributes": {"@spider": "usps_collection_boxes", "spider:collection_time": "2023-11-04T08:23:02.835734"}, "geometry": {"coordinates": [-98.782165181, 45.941673319], "type": "Point"}, "id": "wn3x-qxyto_GnGwn1uL_8U8FtLk=", "properties": {"@spider": "usps_collection_boxes", "addr:city": "FORBES", "addr:country": "US", "addr:full": "2 N MAIN ST", "addr:postcode": "58439", "addr:state": "ND", "amenity": "post_box", "brand": "United States Postal Service", "brand:wikidata": "Q668687", "collection_times": "Mo-Sa 13:20", "name": "USPS COLLECTION BOX - BLUE BOX", "note": "ON 12/24 AND 12/31, THIS BOX MAY BE COLLECTED AS EARLY AS 12 NOON.", "nsi_id": "unitedstatespostalservice-a77078", "operator": "United States Postal Service", "operator:short": "USPS", "operator:type": "public", "operator:wikidata": "Q668687", "ref": "5843900001"}, "type": "Feature"}
{"dataset_attributes": {"@spider": "usps_collection_boxes", "spider:collection_time": "2023-11-04T08:23:02.835734"}, "geometry": {"coordinates": [-98.7821626, 45.941677344], "type": "Point"}, "id": "5bG92wXDGTZgSEpZdmYEcQjnOLk=", "properties": {"@spider": "usps_collection_boxes", "addr:city": "FORBES", "addr:country": "US", "addr:full": "2 N MAIN ST", "addr:postcode": "58439", "addr:state": "ND", "amenity": "post_box", "brand": "United States Postal Service", "brand:wikidata": "Q668687", "collection_times": "Mo-Fr 11:45", "name": "USPS COLLECTION BOX - PO LOBBY", "nsi_id": "unitedstatespostalservice-a77078", "operator": "United States Postal Service", "operator:short": "USPS", "operator:type": "public", "operator:wikidata": "Q668687", "ref": "5843900004"}, "type": "Feature"}
{"dataset_attributes": {"@spider": "usps_collection_boxes", "spider:collection_time": "2023-11-04T08:23:02.835734"}, "geometry": {"coordinates": [-98.7821626, 45.941677344], "type": "Point"}, "id": "njJk7rTKwnVfynL9fR6k5QaLW3E=", "properties": {"@spider": "usps_collection_boxes", "addr:city": "FORBES", "addr:country": "US", "addr:full": "2 N MAIN ST", "addr:postcode": "58439", "addr:state": "ND", "amenity": "post_box", "brand": "United States Postal Service", "brand:wikidata": "Q668687", "collection_times": "Mo-Fr 11:45", "name": "USPS COLLECTION BOX - PO LOBBY", "nsi_id": "unitedstatespostalservice-a77078", "operator": "United States Postal Service", "operator:short": "USPS", "operator:type": "public", "operator:wikidata": "Q668687", "ref": "5843900005"}, "type": "Feature"}
{"dataset_attributes": {"@spider": "usps_collection_boxes", "spider:collection_time": "2023-11-04T08:23:02.835734"}, "geometry": {"coordinates": [-99.093583906, 46.326868391], "type": "Point"}, "id": "gURPklRehQi3Qgm89owwB3dEfEg=", "properties": {"@spider": "usps_collection_boxes", "addr:city": "FREDONIA", "addr:country": "US", "addr:full": "104 MAIN ST", "addr:postcode": "58440", "addr:state": "ND", "amenity": "post_box", "brand": "United States Postal Service", "brand:wikidata": "Q668687", "collection_times": "Mo-Sa 15:25", "name": "USPS COLLECTION BOX - BLUE BOX", "note": "ON 12/24 AND 12/31, THIS BOX MAY BE COLLECTED AS EARLY AS 12 NOON.", "nsi_id": "unitedstatespostalservice-a77078", "operator": "United States Postal Service", "operator:short": "USPS", "operator:type": "public", "operator:wikidata": "Q668687", "ref": "5844000002"}, "type": "Feature"}
{"dataset_attributes": {"@spider": "usps_collection_boxes", "spider:collection_time": "2023-11-04T08:23:02.835734"}, "geometry": {"coordinates": [-98.427170153, 46.163227755], "type": "Point"}, "id": "WxrmhuBxnBQUoxHmHL8JF-WV4Gs=", "properties": {"@spider": "usps_collection_boxes", "addr:city": "FULLERTON", "addr:country": "US", "addr:full": "109 N MONROE ST", "addr:postcode": "58441", "addr:state": "ND", "amenity": "post_box", "brand": "United States Postal Service", "brand:wikidata": "Q668687", "collection_times": "Mo-Sa 16:00", "name": "USPS COLLECTION BOX - BLUE BOX", "note": "ON 12/24 AND 12/31, THIS BOX MAY BE COLLECTED AS EARLY AS 12 NOON.", "nsi_id": "unitedstatespostalservice-a77078", "operator": "United States Postal Service", "operator:short": "USPS", "operator:type": "public", "operator:wikidata": "Q668687", "ref": "5844100001"}, "type": "Feature"}
{"dataset_attributes": {"@spider": "usps_collection_boxes", "spider:collection_time": "2023-11-04T08:23:02.835734"}, "geometry": {"coordinates": [-98.427170153, 46.163227755], "type": "Point"}, "id": "vReXOtLAWlVN0Z5wa1BXme5ZEpI=", "properties": {"@spider": "usps_collection_boxes", "addr:city": "FULLERTON", "addr:country": "US", "addr:full": "109 N MONROE ST", "addr:postcode": "58441", "addr:state": "ND", "amenity": "post_box", "brand": "United States Postal Service", "brand:wikidata": "Q668687", "collection_times": "Mo-Fr 14:45", "name": "USPS COLLECTION BOX - PO LOBBY", "note": "ON 12/24 AND 12/31, THIS BOX MAY BE COLLECTED AS EARLY AS 12 NOON.", "nsi_id": "unitedstatespostalservice-a77078", "operator": "United States Postal Service", "operator:short": "USPS", "operator:type": "public", "operator:wikidata": "Q668687", "ref": "5844100002"}, "type": "Feature"}
{"dataset_attributes": {"@spider": "usps_collection_boxes", "spider:collection_time": "2023-11-04T08:23:02.835734"}, "geometry": {"coordinates": [-98.427170153, 46.163227755], "type": "Point"}, "id": "l_uUNJmpe8hXyg8x1kEkpuTDqi0=", "properties": {"@spider": "usps_collection_boxes", "addr:city": "FULLERTON", "addr:country": "US", "addr:full": "109 N MONROE ST", "addr:postcode": "58441", "addr:state": "ND", "amenity": "post_box", "brand": "United States Postal Service", "brand:wikidata": "Q668687", "collection_times": "Mo-Fr 14:45; Sa 12:55", "name": "USPS COLLECTION BOX - PO LOBBY", "note": "ON 12/24 AND 12/31, THIS BOX MAY BE COLLECTED AS EARLY AS 12 NOON.", "nsi_id": "unitedstatespostalservice-a77078", "operator": "United States Postal Service", "operator:short": "USPS", "operator:type": "public", "operator:wikidata": "Q668687", "ref": "5844100003"}, "type": "Feature"}
{"dataset_attributes": {"@spider": "usps_collection_boxes", "spider:collection_time": "2023-11-04T08:23:02.835734"}, "geometry": {"coordinates": [-99.142550294, 46.628465034], "type": "Point"}, "id": "iji_79eguChIX3bb9p2PNC5YUK0=", "properties": {"@spider": "usps_collection_boxes", "addr:city": "GACKLE", "addr:country": "US", "addr:full": "202 MAIN ST", "addr:postcode": "58442", "addr:state": "ND", "amenity": "post_box", "brand": "United States Postal Service", "brand:wikidata": "Q668687", "collection_times": "Mo-Sa 16:05", "name": "USPS COLLECTION BOX - BLUE BOX", "note": "ON 12/24 AND 12/31, THIS BOX MAY BE COLLECTED AS EARLY AS 12 NOON.", "nsi_id": "unitedstatespostalservice-a77078", "operator": "United States Postal Service", "operator:short": "USPS", "operator:type": "public", "operator:wikidata": "Q668687", "ref": "5844200001"}, "type": "Feature"}
{"dataset_attributes": {"@spider": "usps_collection_boxes", "spider:collection_time": "2023-11-04T08:23:02.835734"}, "geometry": {"coordinates": [-99.142550294, 46.628465034], "type": "Point"}, "id": "WKUu5j77LTW5RErWhZ_P5DUgSvY=", "properties": {"@spider": "usps_collection_boxes", "addr:city": "GACKLE", "addr:country": "US", "addr:full": "202 MAIN ST", "addr:postcode": "58442", "addr:state": "ND", "amenity": "post_box", "brand": "United States Postal Service", "brand:wikidata": "Q668687", "collection_times": "Mo-Fr 15:00", "name": "USPS COLLECTION BOX - PO LOBBY", "note": "ON 12/24 AND 12/31, THIS BOX MAY BE COLLECTED AS EARLY AS 12 NOON.", "nsi_id": "unitedstatespostalservice-a77078", "operator": "United States Postal Service", "operator:short": "USPS", "operator:type": "public", "operator:wikidata": "Q668687", "ref": "5844200002"}, "type": "Feature"}
{"dataset_attributes": {"@spider": "usps_collection_boxes", "spider:collection_time": "2023-11-04T08:23:02.835734"}, "geometry": {"coordinates": [-99.142550294, 46.628465034], "type": "Point"}, "id": "1XbEhtZgynHQ1mnNrVTyA-6syxk=", "properties": {"@spider": "usps_collection_boxes", "addr:city": "GACKLE", "addr:country": "US", "addr:full": "202 MAIN ST", "addr:postcode": "58442", "addr:state": "ND", "amenity": "post_box", "brand": "United States Postal Service", "brand:wikidata": "Q668687", "collection_times": "Mo-Fr 15:00; Sa 09:00", "name": "USPS COLLECTION BOX - PO LOBBY", "note": "ON 12/24 AND 12/31, THIS BOX MAY BE COLLECTED AS EARLY AS 12 NOON.", "nsi_id": "unitedstatespostalservice-a77078", "operator": "United States Postal Service", "operator:short": "USPS", "operator:type": "public", "operator:wikidata": "Q668687", "ref": "5844200004"}, "type": "Feature"}
{"dataset_attributes": {"@spider": "usps_collection_boxes", "spider:collection_time": "2023-11-04T08:23:02.835734"}, "geometry": {"coordinates": [-98.566821849, 47.453864201], "type": "Point"}, "id": "UlG1kHIM1DiqXMEtqi8yXymGzaU=", "properties": {"@spider": "usps_collection_boxes", "addr:city": "GLENFIELD", "addr:country": "US", "addr:full": "161 GLENFIELD ST", "addr:postcode": "58443", "addr:state": "ND", "amenity": "post_box", "brand": "United States Postal Service", "brand:wikidata": "Q668687", "collection_times": "Mo-Sa 15:15", "name": "USPS COLLECTION BOX - BLUE BOX", "note": "ON 12/24 AND 12/31, THIS BOX MAY BE COLLECTED AS EARLY AS 12 NOON.", "nsi_id": "unitedstatespostalservice-a77078", "operator": "United States Postal Service", "operator:short": "USPS", "operator:type": "public", "operator:wikidata": "Q668687", "ref": "5844300001"}, "type": "Feature"}
{"dataset_attributes": {"@spider": "usps_collection_boxes", "spider:collection_time": "2023-11-04T08:23:02.835734"}, "geometry": {"coordinates": [-98.566821849, 47.453864201], "type": "Point"}, "id": "zG25QfBe0dwDTD1LDWLiolHPK40=", "properties": {"@spider": "usps_collection_boxes", "addr:city": "GLENFIELD", "addr:country": "US", "addr:full": "161 GLENFIELD ST", "addr:postcode": "58443", "addr:state": "ND", "amenity": "post_box", "brand": "United States Postal Service", "brand:wikidata": "Q668687", "collection_times": "Mo-Fr 11:30", "name": "USPS COLLECTION BOX - PO LOBBY", "nsi_id": "unitedstatespostalservice-a77078", "operator": "United States Postal Service", "operator:short": "USPS", "operator:type": "public", "operator:wikidata": "Q668687", "ref": "5844300002"}, "type": "Feature"}
{"dataset_attributes": {"@spider": "usps_collection_boxes", "spider:collection_time": "2023-11-04T08:23:02.835734"}, "geometry": {"coordinates": [-98.566821849, 47.453864201], "type": "Point"}, "id": "QOxWncM2tdO63vMeRo-OodtaoeY=", "properties": {"@spider": "usps_collection_boxes", "addr:city": "GLENFIELD", "addr:country": "US", "addr:full": "161 GLENFIELD ST", "addr:postcode": "58443", "addr:state": "ND", "amenity": "post_box", "brand": "United States Postal Service", "brand:wikidata": "Q668687", "collection_times": "Mo-Fr 11:30; Sa 09:00", "name": "USPS COLLECTION BOX - PO LOBBY", "nsi_id": "unitedstatespostalservice-a77078", "operator": "United States Postal Service", "operator:short": "USPS", "operator:type": "public", "operator:wikidata": "Q668687", "ref": "5844300003"}, "type": "Feature"}
{"dataset_attributes": {"@spider": "usps_collection_boxes", "spider:collection_time": "2023-11-04T08:23:02.835734"}, "geometry": {"coordinates": [-100.122967303, 47.477756167], "type": "Point"}, "id": "u8eXPeEIFaooiqkeDwK_iS7JoL4=", "properties": {"@spider": "usps_collection_boxes", "addr:city": "GOODRICH", "addr:country": "US", "addr:full": "204 CLARK AVE", "addr:postcode": "58444", "addr:state": "ND", "amenity": "post_box", "brand": "United States Postal Service", "brand:wikidata": "Q668687", "collection_times": "Mo-Sa 14:35", "name": "USPS COLLECTION BOX - BLUE BOX", "note": "ON 12/24 AND 12/31, THIS BOX MAY BE COLLECTED AS EARLY AS 12 NOON.", "nsi_id": "unitedstatespostalservice-a77078", "operator": "United States Postal Service", "operator:short": "USPS", "operator:type": "public", "operator:wikidata": "Q668687", "ref": "5844400001"}, "type": "Feature"}
{"dataset_attributes": {"@spider": "usps_collection_boxes", "spider:collection_time": "2023-11-04T08:23:02.835734"}, "geometry": {"coordinates": [-100.122967303, 47.477756167], "type": "Point"}, "id": "wz8wMLf0zJweJwYP2CHm7-WMpv8=", "properties": {"@spider": "usps_collection_boxes", "addr:city": "GOODRICH", "addr:country": "US", "addr:full": "204 CLARK AVE", "addr:postcode": "58444", "addr:state": "ND", "amenity": "post_box", "brand": "United States Postal Service", "brand:wikidata": "Q668687", "collection_times": "Mo-Fr 12:00", "name": "USPS COLLECTION BOX - PO LOBBY", "nsi_id": "unitedstatespostalservice-a77078", "operator": "United States Postal Service", "operator:short": "USPS", "operator:type": "public", "operator:wikidata": "Q668687", "ref": "5844400002"}, "type": "Feature"}
{"dataset_attributes": {"@spider": "usps_collection_boxes", "spider:collection_time": "2023-11-04T08:23:02.835734"}, "geometry": {"coordinates": [-100.122967303, 47.477756167], "type": "Point"}, "id": "mCO2Qqv1cQL5GeY1rLW01niEVeo=", "properties": {"@spider": "usps_collection_boxes", "addr:city": "GOODRICH", "addr:country": "US", "addr:full": "204 CLARK AVE", "addr:postcode": "58444", "addr:state": "ND", "amenity": "post_box", "brand": "United States Postal Service", "brand:wikidata": "Q668687", "collection_times": "Mo-Fr 12:00; Sa 09:30", "name": "USPS COLLECTION BOX - PO LOBBY", "nsi_id": "unitedstatespostalservice-a77078", "operator": "United States Postal Service", "operator:short": "USPS", "operator:type": "public", "operator:wikidata": "Q668687", "ref": "5844400003"}, "type": "Feature"}
{"dataset_attributes": {"@spider": "usps_collection_boxes", "spider:collection_time": "2023-11-04T08:23:02.835734"}, "geometry": {"coordinates": [-98.804036944, 47.551714634], "type": "Point"}, "id": "YR2ogxpu6fFIpN7-TMeTkbsDrCU=", "properties": {"@spider": "usps_collection_boxes", "addr:city": "GRACE CITY", "addr:country": "US", "addr:full": "128 CITY ST", "addr:postcode": "58445", "addr:state": "ND", "amenity": "post_box", "brand": "United States Postal Service", "brand:wikidata": "Q668687", "collection_times": "Mo-Sa 13:50", "name": "USPS COLLECTION BOX - BLUE BOX", "note": "ON 12/24 AND 12/31, THIS BOX MAY BE COLLECTED AS EARLY AS 12 NOON.", "nsi_id": "unitedstatespostalservice-a77078", "operator": "United States Postal Service", "operator:short": "USPS", "operator:type": "public", "operator:wikidata": "Q668687", "ref": "5844500001"}, "type": "Feature"}
{"dataset_attributes": {"@spider": "usps_collection_boxes", "spider:collection_time": "2023-11-04T08:23:02.835734"}, "geometry": {"coordinates": [-98.804036944, 47.551714634], "type": "Point"}, "id": "W9BRc1wb1aPrFnbt6vf52QRo1ow=", "properties": {"@spider": "usps_collection_boxes", "addr:city": "GRACE CITY", "addr:country": "US", "addr:full": "128 CITY ST", "addr:postcode": "58445", "addr:state": "ND", "amenity": "post_box", "brand": "United States Postal Service", "brand:wikidata": "Q668687", "collection_times": "Mo-Fr 11:50", "name": "USPS COLLECTION BOX - PO LOBBY", "nsi_id": "unitedstatespostalservice-a77078", "operator": "United States Postal Service", "operator:short": "USPS", "operator:type": "public", "operator:wikidata": "Q668687", "ref": "5844500002"}, "type": "Feature"}
{"dataset_attributes": {"@spider": "usps_collection_boxes", "spider:collection_time": "2023-11-04T08:23:02.835734"}, "geometry": {"coordinates": [-98.804036944, 47.551714634], "type": "Point"}, "id": "QsTlzdFEL3r0Y5VYa9tWGsy0Ymg=", "properties": {"@spider": "usps_collection_boxes", "addr:city": "GRACE CITY", "addr:country": "US", "addr:full": "128 CITY ST", "addr:postcode": "58445", "addr:state": "ND", "amenity": "post_box", "brand": "United States Postal Service", "brand:wikidata": "Q668687", "collection_times": "Mo-Fr 11:50; Sa 11:30", "name": "USPS COLLECTION BOX - PO LOBBY", "nsi_id": "unitedstatespostalservice-a77078", "operator": "United States Postal Service", "operator:short": "USPS", "operator:type": "public", "operator:wikidata": "Q668687", "ref": "5844500003"}, "type": "Feature"}
{"dataset_attributes": {"@spider": "usps_collection_boxes", "spider:collection_time": "2023-11-04T08:23:02.835734"}, "geometry": {"coordinates": [-98.187266964, 47.313281959], "type": "Point"}, "id": "Kek6FTBbNo7I2SkgT9iHTdd_qeo=", "properties": {"@spider": "usps_collection_boxes", "addr:city": "HANNAFORD", "addr:country": "US", "addr:full": "286 BRIDGE AVE", "addr:postcode": "58448", "addr:state": "ND", "amenity": "post_box", "brand": "United States Postal Service", "brand:wikidata": "Q668687", "collection_times": "Mo-Fr 16:00; Sa 15:40", "name": "USPS COLLECTION BOX - BLUE BOX", "note": "ON 12/24 AND 12/31, THIS BOX MAY BE COLLECTED AS EARLY AS 12 NOON.", "nsi_id": "unitedstatespostalservice-a77078", "operator": "United States Postal Service", "operator:short": "USPS", "operator:type": "public", "operator:wikidata": "Q668687", "ref": "5844800001"}, "type": "Feature"}
{"dataset_attributes": {"@spider": "usps_collection_boxes", "spider:collection_time": "2023-11-04T08:23:02.835734"}, "geometry": {"coordinates": [-98.187266964, 47.313281959], "type": "Point"}, "id": "ERdZ9i8768eAmF701oztNYn-2UQ=", "properties": {"@spider": "usps_collection_boxes", "addr:city": "HANNAFORD", "addr:country": "US", "addr:full": "286 BRIDGE AVE", "addr:postcode": "58448", "addr:state": "ND", "amenity": "post_box", "brand": "United States Postal Service", "brand:wikidata": "Q668687", "collection_times": "Mo-Fr 13:00", "name": "USPS COLLECTION BOX - PO LOBBY", "note": "ON 12/24 AND 12/31, THIS BOX MAY BE COLLECTED AS EARLY AS 12 NOON.", "nsi_id": "unitedstatespostalservice-a77078", "operator": "United States Postal Service", "operator:short": "USPS", "operator:type": "public", "operator:wikidata": "Q668687", "ref": "5844800002"}, "type": "Feature"}
{"dataset_attributes": {"@spider": "usps_collection_boxes", "spider:collection_time": "2023-11-04T08:23:02.835734"}, "geometry": {"coordinates": [-98.187266964, 47.313281959], "type": "Point"}, "id": "3ZoMS0tO3e401SQSIQZsDeD8brQ=", "properties": {"@spider": "usps_collection_boxes", "addr:city": "HANNAFORD", "addr:country": "US", "addr:full": "286 BRIDGE AVE", "addr:postcode": "58448", "addr:state": "ND", "amenity": "post_box", "brand": "United States Postal Service", "brand:wikidata": "Q668687", "collection_times": "Mo-Fr 13:00; Sa 10:15", "name": "USPS COLLECTION BOX - PO LOBBY", "note": "ON 12/24 AND 12/31, THIS BOX MAY BE COLLECTED AS EARLY AS 12 NOON.", "nsi_id": "unitedstatespostalservice-a77078", "operator": "United States Postal Service", "operator:short": "USPS", "operator:type": "public", "operator:wikidata": "Q668687", "ref": "5844800003"}, "type": "Feature"}
{"dataset_attributes": {"@spider": "usps_collection_boxes", "spider:collection_time": "2023-11-04T08:23:02.835734"}, "geometry": {"coordinates": [-99.928066596, 47.448147698], "type": "Point"}, "id": "sd3eiAkK27EXEZ4_26U4q2P50cY=", "properties": {"@spider": "usps_collection_boxes", "addr:city": "HURDSFIELD", "addr:country": "US", "addr:full": "103 MAIN ST W", "addr:postcode": "58451", "addr:state": "ND", "amenity": "post_box", "brand": "United States Postal Service", "brand:wikidata": "Q668687", "collection_times": "Mo-Sa 14:55", "name": "USPS COLLECTION BOX - BLUE BOX", "note": "ON 12/24 AND 12/31, THIS BOX MAY BE COLLECTED AS EARLY AS 12 NOON.", "nsi_id": "unitedstatespostalservice-a77078", "operator": "United States Postal Service", "operator:short": "USPS", "operator:type": "public", "operator:wikidata": "Q668687", "ref": "5845100001"}, "type": "Feature"}
{"dataset_attributes": {"@spider": "usps_collection_boxes", "spider:collection_time": "2023-11-04T08:23:02.835734"}, "geometry": {"coordinates": [-99.928066596, 47.448147698], "type": "Point"}, "id": "SurvJyhnmrAFvSqzpALieZklYak=", "properties": {"@spider": "usps_collection_boxes", "addr:city": "HURDSFIELD", "addr:country": "US", "addr:full": "103 MAIN ST W", "addr:postcode": "58451", "addr:state": "ND", "amenity": "post_box", "brand": "United States Postal Service", "brand:wikidata": "Q668687", "collection_times": "Mo-Fr 14:55", "name": "USPS COLLECTION BOX - PO LOBBY", "note": "ON 12/24 AND 12/31, THIS BOX MAY BE COLLECTED AS EARLY AS 12 NOON.", "nsi_id": "unitedstatespostalservice-a77078", "operator": "United States Postal Service", "operator:short": "USPS", "operator:type": "public", "operator:wikidata": "Q668687", "ref": "5845100002"}, "type": "Feature"}
{"dataset_attributes": {"@spider": "usps_collection_boxes", "spider:collection_time": "2023-11-04T08:23:02.835734"}, "geometry": {"coordinates": [-98.897259503, 46.525209444], "type": "Point"}, "id": "fmpzQy-I1GFiDJ-cpp1flFUGv04=", "properties": {"@spider": "usps_collection_boxes", "addr:city": "JUD", "addr:country": "US", "addr:full": "524 LOGIE ST", "addr:postcode": "58454", "addr:state": "ND", "amenity": "post_box", "brand": "United States Postal Service", "brand:wikidata": "Q668687", "collection_times": "Mo-Sa 15:50", "name": "USPS COLLECTION BOX - BLUE BOX", "note": "ON 12/24 AND 12/31, THIS BOX MAY BE COLLECTED AS EARLY AS 12 NOON.", "nsi_id": "unitedstatespostalservice-a77078", "operator": "United States Postal Service", "operator:short": "USPS", "operator:type": "public", "operator:wikidata": "Q668687", "ref": "5845400001"}, "type": "Feature"}
{"dataset_attributes": {"@spider": "usps_collection_boxes", "spider:collection_time": "2023-11-04T08:23:02.835734"}, "geometry": {"coordinates": [-98.897259503, 46.525209444], "type": "Point"}, "id": "XXcVEUHNh_m8MmeRsJTN2tJus-0=", "properties": {"@spider": "usps_collection_boxes", "addr:city": "JUD", "addr:country": "US", "addr:full": "524 LOGIE ST", "addr:postcode": "58454", "addr:state": "ND", "amenity": "post_box", "brand": "United States Postal Service", "brand:wikidata": "Q668687", "collection_times": "Mo-Fr 11:30", "name": "USPS COLLECTION BOX - PO LOBBY", "nsi_id": "unitedstatespostalservice-a77078", "operator": "United States Postal Service", "operator:short": "USPS", "operator:type": "public", "operator:wikidata": "Q668687", "ref": "5845400002"}, "type": "Feature"}
{"dataset_attributes": {"@spider": "usps_collection_boxes", "spider:collection_time": "2023-11-04T08:23:02.835734"}, "geometry": {"coordinates": [-98.733689115, 47.299998573], "type": "Point"}, "id": "WapcsDYusZLWIMWCM-Lh1QDonjE=", "properties": {"@spider": "usps_collection_boxes", "addr:city": "KENSAL", "addr:country": "US", "addr:full": "402 MAIN", "addr:postcode": "58455", "addr:state": "ND", "amenity": "post_box", "brand": "United States Postal Service", "brand:wikidata": "Q668687", "collection_times": "Mo-Sa 14:20", "name": "USPS COLLECTION BOX - BLUE BOX", "note": "ON 12/24 AND 12/31, THIS BOX MAY BE COLLECTED AS EARLY AS 12 NOON.", "nsi_id": "unitedstatespostalservice-a77078", "operator": "United States Postal Service", "operator:short": "USPS", "operator:type": "public", "operator:wikidata": "Q668687", "ref": "5845500001"}, "type": "Feature"}
{"dataset_attributes": {"@spider": "usps_collection_boxes", "spider:collection_time": "2023-11-04T08:23:02.835734"}, "geometry": {"coordinates": [-98.733689115, 47.299998573], "type": "Point"}, "id": "vyj4qaXXH3KhlPansypyNYmow8E=", "properties": {"@spider": "usps_collection_boxes", "addr:city": "KENSAL", "addr:country": "US", "addr:full": "402 MAIN", "addr:postcode": "58455", "addr:state": "ND", "amenity": "post_box", "brand": "United States Postal Service", "brand:wikidata": "Q668687", "collection_times": "Mo-Fr 15:45", "name": "USPS COLLECTION BOX - PO LOBBY", "note": "ON 12/24 AND 12/31, THIS BOX MAY BE COLLECTED AS EARLY AS 12 NOON.", "nsi_id": "unitedstatespostalservice-a77078", "operator": "United States Postal Service", "operator:short": "USPS", "operator:type": "public", "operator:wikidata": "Q668687", "ref": "5845500002"}, "type": "Feature"}
{"dataset_attributes": {"@spider": "usps_collection_boxes", "spider:collection_time": "2023-11-04T08:23:02.835734"}, "geometry": {"coordinates": [-98.949000287, 46.301959351], "type": "Point"}, "id": "0cWQCZpOzNKc6XOPOyCAiboV1-g=", "properties": {"@spider": "usps_collection_boxes", "addr:city": "KULM", "addr:country": "US", "addr:full": "11 MAIN AVE S", "addr:postcode": "58456", "addr:state": "ND", "amenity": "post_box", "brand": "United States Postal Service", "brand:wikidata": "Q668687", "collection_times": "Mo-Sa 15:45", "name": "USPS COLLECTION BOX - BLUE BOX", "note": "ON 12/24 AND 12/31, THIS BOX MAY BE COLLECTED AS EARLY AS 12 NOON.", "nsi_id": "unitedstatespostalservice-a77078", "operator": "United States Postal Service", "operator:short": "USPS", "operator:type": "public", "operator:wikidata": "Q668687", "ref": "5845600001"}, "type": "Feature"}
{"dataset_attributes": {"@spider": "usps_collection_boxes", "spider:collection_time": "2023-11-04T08:23:02.835734"}, "geometry": {"coordinates": [-98.949000287, 46.301959351], "type": "Point"}, "id": "hcJursjeZcx8f9KXAmjsgcXHTug=", "properties": {"@spider": "usps_collection_boxes", "addr:city": "KULM", "addr:country": "US", "addr:full": "11 MAIN AVE S", "addr:postcode": "58456", "addr:state": "ND", "amenity": "post_box", "brand": "United States Postal Service", "brand:wikidata": "Q668687", "collection_times": "Mo-Fr 15:00", "name": "USPS COLLECTION BOX - PO LOBBY", "note": "ON 12/24 AND 12/31, THIS BOX MAY BE COLLECTED AS EARLY AS 12 NOON.", "nsi_id": "unitedstatespostalservice-a77078", "operator": "United States Postal Service", "operator:short": "USPS", "operator:type": "public", "operator:wikidata": "Q668687", "ref": "5845600002"}, "type": "Feature"}
{"dataset_attributes": {"@spider": "usps_collection_boxes", "spider:collection_time": "2023-11-04T08:23:02.835734"}, "geometry": {"coordinates": [-98.293710945, 46.358015481], "type": "Point"}, "id": "SmCvRZZmZtAHN4mMdo7wZU5hk_A=", "properties": {"@spider": "usps_collection_boxes", "addr:city": "LAMOURE", "addr:country": "US", "addr:full": "23 CENTER AVE E", "addr:postcode": "58458", "addr:state": "ND", "amenity": "post_box", "brand": "United States Postal Service", "brand:wikidata": "Q668687", "collection_times": "Mo-Fr 16:00; Sa 15:00", "name": "USPS COLLECTION BOX - BLUE BOX", "note": "ON 12/24 AND 12/31, THIS BOX MAY BE COLLECTED AS EARLY AS 12 NOON.", "nsi_id": "unitedstatespostalservice-a77078", "operator": "United States Postal Service", "operator:short": "USPS", "operator:type": "public", "operator:wikidata": "Q668687", "ref": "5845800001"}, "type": "Feature"}
{"dataset_attributes": {"@spider": "usps_collection_boxes", "spider:collection_time": "2023-11-04T08:23:02.835734"}, "geometry": {"coordinates": [-98.293710945, 46.358015481], "type": "Point"}, "id": "B3cEJwYbS256tnFz-lwWsJnv8-o=", "properties": {"@spider": "usps_collection_boxes", "addr:city": "LAMOURE", "addr:country": "US", "addr:full": "23 CENTER AVE E", "addr:postcode": "58458", "addr:state": "ND", "amenity": "post_box", "brand": "United States Postal Service", "brand:wikidata": "Q668687", "collection_times": "Mo-Fr 16:00", "name": "USPS COLLECTION BOX - PO LOBBY", "note": "ON 12/24 AND 12/31, THIS BOX MAY BE COLLECTED AS EARLY AS 12 NOON.", "nsi_id": "unitedstatespostalservice-a77078", "operator": "United States Postal Service", "operator:short": "USPS", "operator:type": "public", "operator:wikidata": "Q668687", "ref": "5845800002"}, "type": "Feature"}
{"dataset_attributes": {"@spider": "usps_collection_boxes", "spider:collection_time": "2023-11-04T08:23:02.835734"}, "geometry": {"coordinates": [-98.282378723, 46.355146223], "type": "Point"}, "id": "Gfa90n69lupIC4mYZfTSANmkw0E=", "properties": {"@spider": "usps_collection_boxes", "addr:city": "LAMOURE", "addr:country": "US", "addr:full": "10220 HIGHWAY 13", "addr:postcode": "58458", "addr:state": "ND", "amenity": "post_box", "brand": "United States Postal Service", "brand:wikidata": "Q668687", "collection_times": "Mo-Sa 16:30", "name": "USPS COLLECTION BOX - BLUE BOX", "note": "ON 12/24 AND 12/31, THIS BOX MAY BE COLLECTED AS EARLY AS 12 NOON.", "nsi_id": "unitedstatespostalservice-a77078", "operator": "United States Postal Service", "operator:short": "USPS", "operator:type": "public", "operator:wikidata": "Q668687", "ref": "5845800003"}, "type": "Feature"}
{"dataset_attributes": {"@spider": "usps_collection_boxes", "spider:collection_time": "2023-11-04T08:23:02.835734"}, "geometry": {"coordinates": [-99.353167815, 46.281485124], "type": "Point"}, "id": "a65d_-wHmEkCpxCIu2XfUGtZwO8=", "properties": {"@spider": "usps_collection_boxes", "addr:city": "LEHR", "addr:country": "US", "addr:full": "200 MAIN ST S", "addr:postcode": "58460", "addr:state": "ND", "amenity": "post_box", "brand": "United States Postal Service", "brand:wikidata": "Q668687", "collection_times": "Mo-Sa 15:05", "name": "USPS COLLECTION BOX - BLUE BOX", "note": "ON 12/24 AND 12/31, THIS BOX MAY BE COLLECTED AS EARLY AS 12 NOON.", "nsi_id": "unitedstatespostalservice-a77078", "operator": "United States Postal Service", "operator:short": "USPS", "operator:type": "public", "operator:wikidata": "Q668687", "ref": "5846000001"}, "type": "Feature"}
{"dataset_attributes": {"@spider": "usps_collection_boxes", "spider:collection_time": "2023-11-04T08:23:02.835734"}, "geometry": {"coordinates": [-99.353167815, 46.281485124], "type": "Point"}, "id": "sfuZPp9D27J4h9H7IPUwoGAGPcc=", "properties": {"@spider": "usps_collection_boxes", "addr:city": "LEHR", "addr:country": "US", "addr:full": "200 MAIN ST S", "addr:postcode": "58460", "addr:state": "ND", "amenity": "post_box", "brand": "United States Postal Service", "brand:wikidata": "Q668687", "collection_times": "Mo-Fr 15:05", "name": "USPS COLLECTION BOX - PO LOBBY", "note": "ON 12/24 AND 12/31, THIS BOX MAY BE COLLECTED AS EARLY AS 12 NOON.", "nsi_id": "unitedstatespostalservice-a77078", "operator": "United States Postal Service", "operator:short": "USPS", "operator:type": "public", "operator:wikidata": "Q668687", "ref": "5846000002"}, "type": "Feature"}
{"dataset_attributes": {"@spider": "usps_collection_boxes", "spider:collection_time": "2023-11-04T08:23:02.835734"}, "geometry": {"coordinates": [-98.193990312, 46.65426821], "type": "Point"}, "id": "JOUPNBqUn1gI503gv5XL7PzP-eo=", "properties": {"@spider": "usps_collection_boxes", "addr:city": "LITCHVILLE", "addr:country": "US", "addr:full": "508 3RD AVE", "addr:postcode": "58461", "addr:state": "ND", "amenity": "post_box", "brand": "United States Postal Service", "brand:wikidata": "Q668687", "collection_times": "Mo-Fr 16:20; Sa 15:40", "name": "USPS COLLECTION BOX - BLUE BOX", "note": "ON 12/24 AND 12/31, THIS BOX MAY BE COLLECTED AS EARLY AS 12 NOON.", "nsi_id": "unitedstatespostalservice-a77078", "operator": "United States Postal Service", "operator:short": "USPS", "operator:type": "public", "operator:wikidata": "Q668687", "ref": "5846100000"}, "type": "Feature"}
{"dataset_attributes": {"@spider": "usps_collection_boxes", "spider:collection_time": "2023-11-04T08:23:02.835734"}, "geometry": {"coordinates": [-98.193990312, 46.65426821], "type": "Point"}, "id": "3MNXExhdQPYx33R4jLXbgUy1JdU=", "properties": {"@spider": "usps_collection_boxes", "addr:city": "LITCHVILLE", "addr:country": "US", "addr:full": "508 3RD AVE", "addr:postcode": "58461", "addr:state": "ND", "amenity": "post_box", "brand": "United States Postal Service", "brand:wikidata": "Q668687", "collection_times": "Mo-Fr 12:00", "name": "USPS COLLECTION BOX - PO LOBBY", "nsi_id": "unitedstatespostalservice-a77078", "operator": "United States Postal Service", "operator:short": "USPS", "operator:type": "public", "operator:wikidata": "Q668687", "ref": "5846100001"}, "type": "Feature"}
{"dataset_attributes": {"@spider": "usps_collection_boxes", "spider:collection_time": "2023-11-04T08:23:02.835734"}, "geometry": {"coordinates": [-100.442804521, 47.480525851], "type": "Point"}, "id": "BKaPAgV1g4oirCUUaGYwanSdqTQ=", "properties": {"@spider": "usps_collection_boxes", "addr:city": "MCCLUSKY", "addr:country": "US", "addr:full": "220 MAIN ST S", "addr:postcode": "58463", "addr:state": "ND", "amenity": "post_box", "brand": "United States Postal Service", "brand:wikidata": "Q668687", "collection_times": "Mo-Sa 14:05", "name": "USPS COLLECTION BOX - BLUE BOX", "note": "ON 12/24 AND 12/31, THIS BOX MAY BE COLLECTED AS EARLY AS 12 NOON.", "nsi_id": "unitedstatespostalservice-a77078", "operator": "United States Postal Service", "operator:short": "USPS", "operator:type": "public", "operator:wikidata": "Q668687", "ref": "5846300000"}, "type": "Feature"}
{"dataset_attributes": {"@spider": "usps_collection_boxes", "spider:collection_time": "2023-11-04T08:23:02.835734"}, "geometry": {"coordinates": [-100.442804521, 47.480525851], "type": "Point"}, "id": "6X-JTIdK-jNBHpw4KUBwR7J9Z5Q=", "properties": {"@spider": "usps_collection_boxes", "addr:city": "MCCLUSKY", "addr:country": "US", "addr:full": "220 MAIN ST S", "addr:postcode": "58463", "addr:state": "ND", "amenity": "post_box", "brand": "United States Postal Service", "brand:wikidata": "Q668687", "collection_times": "Mo-Fr 14:05", "name": "USPS COLLECTION BOX - PO LOBBY", "note": "ON 12/24 AND 12/31, THIS BOX MAY BE COLLECTED AS EARLY AS 12 NOON.", "nsi_id": "unitedstatespostalservice-a77078", "operator": "United States Postal Service", "operator:short": "USPS", "operator:type": "public", "operator:wikidata": "Q668687", "ref": "5846300001"}, "type": "Feature"}
{"dataset_attributes": {"@spider": "usps_collection_boxes", "spider:collection_time": "2023-11-04T08:23:02.835734"}, "geometry": {"coordinates": [-98.591677294, 47.572876741], "type": "Point"}, "id": "gdc9FXjE52oIaROaz2CrsUcMQws=", "properties": {"@spider": "usps_collection_boxes", "addr:city": "MCHENRY", "addr:country": "US", "addr:full": "322 JOHNSTON ST", "addr:postcode": "58464", "addr:state": "ND", "amenity": "post_box", "brand": "United States Postal Service", "brand:wikidata": "Q668687", "collection_times": "Mo-Sa 14:30", "name": "USPS COLLECTION BOX - BLUE BOX", "note": "ON 12/24 AND 12/31, THIS BOX MAY BE COLLECTED AS EARLY AS 12 NOON.", "nsi_id": "unitedstatespostalservice-a77078", "operator": "United States Postal Service", "operator:short": "USPS", "operator:type": "public", "operator:wikidata": "Q668687", "ref": "5846400001"}, "type": "Feature"}
{"dataset_attributes": {"@spider": "usps_collection_boxes", "spider:collection_time": "2023-11-04T08:23:02.835734"}, "geometry": {"coordinates": [-98.591677294, 47.572876741], "type": "Point"}, "id": "VXfBsR9jhB9wfG_xVj_RMm9DBfU=", "properties": {"@spider": "usps_collection_boxes", "addr:city": "MCHENRY", "addr:country": "US", "addr:full": "322 JOHNSTON ST", "addr:postcode": "58464", "addr:state": "ND", "amenity": "post_box", "brand": "United States Postal Service", "brand:wikidata": "Q668687", "collection_times": "Mo-Fr 14:30", "name": "USPS COLLECTION BOX - PO LOBBY", "note": "ON 12/24 AND 12/31, THIS BOX MAY BE COLLECTED AS EARLY AS 12 NOON.", "nsi_id": "unitedstatespostalservice-a77078", "operator": "United States Postal Service", "operator:short": "USPS", "operator:type": "public", "operator:wikidata": "Q668687", "ref": "5846400002"}, "type": "Feature"}
{"dataset_attributes": {"@spider": "usps_collection_boxes", "spider:collection_time": "2023-11-04T08:23:02.835734"}, "geometry": {"coordinates": [-98.333108494, 46.60705584], "type": "Point"}, "id": "4TLBY520_NiUm74riQ03dpNDtZI=", "properties": {"@spider": "usps_collection_boxes", "addr:city": "MARION", "addr:country": "US", "addr:full": "308 MAIN AVE", "addr:postcode": "58466", "addr:state": "ND", "amenity": "post_box", "brand": "United States Postal Service", "brand:wikidata": "Q668687", "collection_times": "Mo-Fr 16:20; Sa 16:00", "name": "USPS COLLECTION BOX - BLUE BOX", "note": "ON 12/24 AND 12/31, THIS BOX MAY BE COLLECTED AS EARLY AS 12 NOON.", "nsi_id": "unitedstatespostalservice-a77078", "operator": "United States Postal Service", "operator:short": "USPS", "operator:type": "public", "operator:wikidata": "Q668687", "ref": "5846600001"}, "type": "Feature"}
{"dataset_attributes": {"@spider": "usps_collection_boxes", "spider:collection_time": "2023-11-04T08:23:02.835734"}, "geometry": {"coordinates": [-98.333108494, 46.60705584], "type": "Point"}, "id": "Z4-9993_eK57dfIy5D1cPy6L1Oc=", "properties": {"@spider": "usps_collection_boxes", "addr:city": "MARION", "addr:country": "US", "addr:full": "308 MAIN AVE", "addr:postcode": "58466", "addr:state": "ND", "amenity": "post_box", "brand": "United States Postal Service", "brand:wikidata": "Q668687", "collection_times": "Mo-Fr 12:00", "name": "USPS COLLECTION BOX - PO LOBBY", "nsi_id": "unitedstatespostalservice-a77078", "operator": "United States Postal Service", "operator:short": "USPS", "operator:type": "public", "operator:wikidata": "Q668687", "ref": "5846600002"}, "type": "Feature"}
{"dataset_attributes": {"@spider": "usps_collection_boxes", "spider:collection_time": "2023-11-04T08:23:02.835734"}, "geometry": {"coordinates": [-99.301433575, 46.893426695], "type": "Point"}, "id": "KasV59SNZ9_L7Bd8nA_d4YWLMKs=", "properties": {"@spider": "usps_collection_boxes", "addr:city": "MEDINA", "addr:country": "US", "addr:full": "102 2ND AVE SW", "addr:postcode": "58467", "addr:state": "ND", "amenity": "post_box", "brand": "United States Postal Service", "brand:wikidata": "Q668687", "collection_times": "Mo-Sa 15:15", "name": "USPS COLLECTION BOX - BLUE BOX", "note": "ON 12/24 AND 12/31, THIS BOX MAY BE COLLECTED AS EARLY AS 12 NOON.", "nsi_id": "unitedstatespostalservice-a77078", "operator": "United States Postal Service", "operator:short": "USPS", "operator:type": "public", "operator:wikidata": "Q668687", "ref": "5846700001"}, "type": "Feature"}
{"dataset_attributes": {"@spider": "usps_collection_boxes", "spider:collection_time": "2023-11-04T08:23:02.835734"}, "geometry": {"coordinates": [-99.301433575, 46.893426695], "type": "Point"}, "id": "R6aswoLSETXI5Ite2vNu_WHr3dw=", "properties": {"@spider": "usps_collection_boxes", "addr:city": "MEDINA", "addr:country": "US", "addr:full": "102 2ND AVE SW", "addr:postcode": "58467", "addr:state": "ND", "amenity": "post_box", "brand": "United States Postal Service", "brand:wikidata": "Q668687", "collection_times": "Mo-Fr 15:00", "name": "USPS COLLECTION BOX - PO LOBBY", "note": "ON 12/24 AND 12/31, THIS BOX MAY BE COLLECTED AS EARLY AS 12 NOON.", "nsi_id": "unitedstatespostalservice-a77078", "operator": "United States Postal Service", "operator:short": "USPS", "operator:type": "public", "operator:wikidata": "Q668687", "ref": "5846700002"}, "type": "Feature"}
{"dataset_attributes": {"@spider": "usps_collection_boxes", "spider:collection_time": "2023-11-04T08:23:02.835734"}, "geometry": {"coordinates": [-98.588942832, 46.700360529], "type": "Point"}, "id": "abin2FFZot7Ik5fY6uE1sfHk_6E=", "properties": {"@spider": "usps_collection_boxes", "addr:city": "MONTPELIER", "addr:country": "US", "addr:full": "106 4TH AVE", "addr:postcode": "58472", "addr:state": "ND", "amenity": "post_box", "brand": "United States Postal Service", "brand:wikidata": "Q668687", "collection_times": "Mo-Fr 14:30; Sa 16:25", "name": "USPS COLLECTION BOX - BLUE BOX", "note": "ON 12/24 AND 12/31, THIS BOX MAY BE COLLECTED AS EARLY AS 12 NOON.", "nsi_id": "unitedstatespostalservice-a77078", "operator": "United States Postal Service", "operator:short": "USPS", "operator:type": "public", "operator:wikidata": "Q668687", "ref": "5847200001"}, "type": "Feature"}
{"dataset_attributes": {"@spider": "usps_collection_boxes", "spider:collection_time": "2023-11-04T08:23:02.835734"}, "geometry": {"coordinates": [-98.588942832, 46.700360529], "type": "Point"}, "id": "D73AvQGJbW1q4A2RU84rA1AWHHs=", "properties": {"@spider": "usps_collection_boxes", "addr:city": "MONTPELIER", "addr:country": "US", "addr:full": "106 4TH AVE", "addr:postcode": "58472", "addr:state": "ND", "amenity": "post_box", "brand": "United States Postal Service", "brand:wikidata": "Q668687", "collection_times": "Mo-Fr 14:30", "name": "USPS COLLECTION BOX - PO LOBBY", "note": "ON 12/24 AND 12/31, THIS BOX MAY BE COLLECTED AS EARLY AS 12 NOON.", "nsi_id": "unitedstatespostalservice-a77078", "operator": "United States Postal Service", "operator:short": "USPS", "operator:type": "public", "operator:wikidata": "Q668687", "ref": "5847200002"}, "type": "Feature"}
{"dataset_attributes": {"@spider": "usps_collection_boxes", "spider:collection_time": "2023-11-04T08:23:02.835734"}, "geometry": {"coordinates": [-98.091745569, 46.138951452], "type": "Point"}, "id": "8SOaMbM5FclTVmycZhs8nX0rEu4=", "properties": {"@spider": "usps_collection_boxes", "addr:city": "OAKES", "addr:country": "US", "addr:full": "611 MAIN AVE", "addr:postcode": "58474", "addr:state": "ND", "amenity": "post_box", "brand": "United States Postal Service", "brand:wikidata": "Q668687", "collection_times": "Mo-Fr 15:45", "name": "USPS COLLECTION BOX - PO LOBBY", "note": "ON 12/24 AND 12/31, THIS BOX MAY BE COLLECTED AS EARLY AS 12 NOON.", "nsi_id": "unitedstatespostalservice-a77078", "operator": "United States Postal Service", "operator:short": "USPS", "operator:type": "public", "operator:wikidata": "Q668687", "ref": "5847400005"}, "type": "Feature"}
{"dataset_attributes": {"@spider": "usps_collection_boxes", "spider:collection_time": "2023-11-04T08:23:02.835734"}, "geometry": {"coordinates": [-98.091745569, 46.138951452], "type": "Point"}, "id": "qlxHEdmNsJo8XEvxWZ61wFt7JBw=", "properties": {"@spider": "usps_collection_boxes", "addr:city": "OAKES", "addr:country": "US", "addr:full": "611 MAIN AVE", "addr:postcode": "58474", "addr:state": "ND", "amenity": "post_box", "brand": "United States Postal Service", "brand:wikidata": "Q668687", "collection_times": "Mo-Sa 15:45", "name": "USPS COLLECTION BOX - BLUE BOX", "note": "ON 12/24 AND 12/31, THIS BOX MAY BE COLLECTED AS EARLY AS 12 NOON.", "nsi_id": "unitedstatespostalservice-a77078", "operator": "United States Postal Service", "operator:short": "USPS", "operator:type": "public", "operator:wikidata": "Q668687", "ref": "5847400006"}, "type": "Feature"}
{"dataset_attributes": {"@spider": "usps_collection_boxes", "spider:collection_time": "2023-11-04T08:23:02.835734"}, "geometry": {"coordinates": [-99.519716306, 47.118478515], "type": "Point"}, "id": "EOyeIHaWhyXD8Q9wxiA9yfAmQzY=", "properties": {"@spider": "usps_collection_boxes", "addr:city": "PETTIBONE", "addr:country": "US", "addr:full": "107 N MAIN ST", "addr:postcode": "58475", "addr:state": "ND", "amenity": "post_box", "brand": "United States Postal Service", "brand:wikidata": "Q668687", "collection_times": "Mo-Sa 15:30", "name": "USPS COLLECTION BOX - BLUE BOX", "note": "ON 12/24 AND 12/31, THIS BOX MAY BE COLLECTED AS EARLY AS 12 NOON.", "nsi_id": "unitedstatespostalservice-a77078", "operator": "United States Postal Service", "operator:short": "USPS", "operator:type": "public", "operator:wikidata": "Q668687", "ref": "5847500000"}, "type": "Feature"}
{"dataset_attributes": {"@spider": "usps_collection_boxes", "spider:collection_time": "2023-11-04T08:23:02.835734"}, "geometry": {"coordinates": [-99.519716306, 47.118478515], "type": "Point"}, "id": "2F4OrfKDH28fsbGVDnDkqOLzg5s=", "properties": {"@spider": "usps_collection_boxes", "addr:city": "PETTIBONE", "addr:country": "US", "addr:full": "107 N MAIN ST", "addr:postcode": "58475", "addr:state": "ND", "amenity": "post_box", "brand": "United States Postal Service", "brand:wikidata": "Q668687", "collection_times": "Mo-Fr 15:30", "name": "USPS COLLECTION BOX - PO LOBBY", "note": "ON 12/24 AND 12/31, THIS BOX MAY BE COLLECTED AS EARLY AS 12 NOON.", "nsi_id": "unitedstatespostalservice-a77078", "operator": "United States Postal Service", "operator:short": "USPS", "operator:type": "public", "operator:wikidata": "Q668687", "ref": "5847500001"}, "type": "Feature"}
{"dataset_attributes": {"@spider": "usps_collection_boxes", "spider:collection_time": "2023-11-04T08:23:02.835734"}, "geometry": {"coordinates": [-99.777078833, 47.142758991], "type": "Point"}, "id": "bj18RHVoowqSuGPCz6S8Xm7la40=", "properties": {"@spider": "usps_collection_boxes", "addr:city": "ROBINSON", "addr:country": "US", "addr:full": "116 1ST AVE E", "addr:postcode": "58478", "addr:state": "ND", "amenity": "post_box", "brand": "United States Postal Service", "brand:wikidata": "Q668687", "collection_times": "Mo-Sa 15:25", "name": "USPS COLLECTION BOX - BLUE BOX", "note": "ON 12/24 AND 12/31, THIS BOX MAY BE COLLECTED AS EARLY AS 12 NOON.", "nsi_id": "unitedstatespostalservice-a77078", "operator": "United States Postal Service", "operator:short": "USPS", "operator:type": "public", "operator:wikidata": "Q668687", "ref": "5847800001"}, "type": "Feature"}
{"dataset_attributes": {"@spider": "usps_collection_boxes", "spider:collection_time": "2023-11-04T08:23:02.835734"}, "geometry": {"coordinates": [-99.777078833, 47.142758991], "type": "Point"}, "id": "Zod8vZ6qsiq6Wrg2sq3nnDaEGIQ=", "properties": {"@spider": "usps_collection_boxes", "addr:city": "ROBINSON", "addr:country": "US", "addr:full": "116 1ST AVE E", "addr:postcode": "58478", "addr:state": "ND", "amenity": "post_box", "brand": "United States Postal Service", "brand:wikidata": "Q668687", "collection_times": "Mo-Fr 12:00", "name": "USPS COLLECTION BOX - PO LOBBY", "nsi_id": "unitedstatespostalservice-a77078", "operator": "United States Postal Service", "operator:short": "USPS", "operator:type": "public", "operator:wikidata": "Q668687", "ref": "5847800002"}, "type": "Feature"}
{"dataset_attributes": {"@spider": "usps_collection_boxes", "spider:collection_time": "2023-11-04T08:23:02.835734"}, "geometry": {"coordinates": [-98.227671356, 46.939876682], "type": "Point"}, "id": "uTSp_7zX0G7x2eWGGdf8uO79T0U=", "properties": {"@spider": "usps_collection_boxes", "addr:city": "SANBORN", "addr:country": "US", "addr:full": "405 4TH ST", "addr:postcode": "58480", "addr:state": "ND", "amenity": "post_box", "brand": "United States Postal Service", "brand:wikidata": "Q668687", "collection_times": "Mo-Sa 16:45", "name": "USPS COLLECTION BOX - BLUE BOX", "note": "ON 12/24 AND 12/31, THIS BOX MAY BE COLLECTED AS EARLY AS 12 NOON.", "nsi_id": "unitedstatespostalservice-a77078", "operator": "United States Postal Service", "operator:short": "USPS", "operator:type": "public", "operator:wikidata": "Q668687", "ref": "5848000001"}, "type": "Feature"}
{"dataset_attributes": {"@spider": "usps_collection_boxes", "spider:collection_time": "2023-11-04T08:23:02.835734"}, "geometry": {"coordinates": [-98.2307025, 46.943021049], "type": "Point"}, "id": "cPri2l2sYOlA8JLbkileG0HJw1k=", "properties": {"@spider": "usps_collection_boxes", "addr:city": "SANBORN", "addr:country": "US", "addr:full": "111 2ND ST", "addr:postcode": "58480", "addr:state": "ND", "amenity": "post_box", "brand": "United States Postal Service", "brand:wikidata": "Q668687", "collection_times": "Mo-Fr 17:05; Sa 16:20", "name": "USPS COLLECTION BOX - BLUE BOX", "note": "ON 12/24 AND 12/31, THIS BOX MAY BE COLLECTED AS EARLY AS 12 NOON.", "nsi_id": "unitedstatespostalservice-a77078", "operator": "United States Postal Service", "operator:short": "USPS", "operator:type": "public", "operator:wikidata": "Q668687", "ref": "5848000002"}, "type": "Feature"}
{"dataset_attributes": {"@spider": "usps_collection_boxes", "spider:collection_time": "2023-11-04T08:23:02.835734"}, "geometry": {"coordinates": [-98.227671356, 46.939876682], "type": "Point"}, "id": "0drma3Umu403W9qq7qRfElq6XhI=", "properties": {"@spider": "usps_collection_boxes", "addr:city": "SANBORN", "addr:country": "US", "addr:full": "405 4TH ST", "addr:postcode": "58480", "addr:state": "ND", "amenity": "post_box", "brand": "United States Postal Service", "brand:wikidata": "Q668687", "collection_times": "Mo-Fr 11:30", "name": "USPS COLLECTION BOX - PO LOBBY", "nsi_id": "unitedstatespostalservice-a77078", "operator": "United States Postal Service", "operator:short": "USPS", "operator:type": "public", "operator:wikidata": "Q668687", "ref": "5848000003"}, "type": "Feature"}
{"dataset_attributes": {"@spider": "usps_collection_boxes", "spider:collection_time": "2023-11-04T08:23:02.835734"}, "geometry": {"coordinates": [-98.49609, 46.935936471], "type": "Point"}, "id": "Em9I51WUzJTLroKFQrTKDNgAo-o=", "properties": {"@spider": "usps_collection_boxes", "addr:city": "SPIRITWOOD", "addr:country": "US", "addr:full": "313 MAIN ST", "addr:postcode": "58481", "addr:state": "ND", "amenity": "post_box", "brand": "United States Postal Service", "brand:wikidata": "Q668687", "collection_times": "Mo-Sa 16:00", "name": "USPS COLLECTION BOX - BLUE BOX", "note": "ON 12/24 AND 12/31, THIS BOX MAY BE COLLECTED AS EARLY AS 12 NOON.", "nsi_id": "unitedstatespostalservice-a77078", "operator": "United States Postal Service", "operator:short": "USPS", "operator:type": "public", "operator:wikidata": "Q668687", "ref": "5848100000"}, "type": "Feature"}
{"dataset_attributes": {"@spider": "usps_collection_boxes", "spider:collection_time": "2023-11-04T08:23:02.835734"}, "geometry": {"coordinates": [-98.49609, 46.935936471], "type": "Point"}, "id": "2rdFUNTq6c5YnShs2ZsEsbkxfTg=", "properties": {"@spider": "usps_collection_boxes", "addr:city": "SPIRITWOOD", "addr:country": "US", "addr:full": "313 MAIN ST", "addr:postcode": "58481", "addr:state": "ND", "amenity": "post_box", "brand": "United States Postal Service", "brand:wikidata": "Q668687", "collection_times": "Mo-Fr 12:00", "name": "USPS COLLECTION BOX - PO LOBBY", "nsi_id": "unitedstatespostalservice-a77078", "operator": "United States Postal Service", "operator:short": "USPS", "operator:type": "public", "operator:wikidata": "Q668687", "ref": "5848100001"}, "type": "Feature"}
{"dataset_attributes": {"@spider": "usps_collection_boxes", "spider:collection_time": "2023-11-04T08:23:02.835734"}, "geometry": {"coordinates": [-99.914260366, 46.855086756], "type": "Point"}, "id": "NUQbCKtVSJiJiYaEkEt1To32nuo=", "properties": {"@spider": "usps_collection_boxes", "addr:city": "STEELE", "addr:country": "US", "addr:full": "101 1ST AVE SE", "addr:postcode": "58482", "addr:state": "ND", "amenity": "post_box", "brand": "United States Postal Service", "brand:wikidata": "Q668687", "collection_times": "Mo-Sa 14:15", "name": "USPS COLLECTION BOX - BLUE BOX", "note": "ON 12/24 AND 12/31, THIS BOX MAY BE COLLECTED AS EARLY AS 12 NOON.", "nsi_id": "unitedstatespostalservice-a77078", "operator": "United States Postal Service", "operator:short": "USPS", "operator:type": "public", "operator:wikidata": "Q668687", "ref": "5848200001"}, "type": "Feature"}
{"dataset_attributes": {"@spider": "usps_collection_boxes", "spider:collection_time": "2023-11-04T08:23:02.835734"}, "geometry": {"coordinates": [-99.914260366, 46.855086756], "type": "Point"}, "id": "IgNhNcXEbM0SQs9P1UYwGaPZqD8=", "properties": {"@spider": "usps_collection_boxes", "addr:city": "STEELE", "addr:country": "US", "addr:full": "101 1ST AVE SE", "addr:postcode": "58482", "addr:state": "ND", "amenity": "post_box", "brand": "United States Postal Service", "brand:wikidata": "Q668687", "collection_times": "Mo-Fr 14:15", "name": "USPS COLLECTION BOX - PO LOBBY", "note": "ON 12/24 AND 12/31, THIS BOX MAY BE COLLECTED AS EARLY AS 12 NOON.", "nsi_id": "unitedstatespostalservice-a77078", "operator": "United States Postal Service", "operator:short": "USPS", "operator:type": "public", "operator:wikidata": "Q668687", "ref": "5848200002"}, "type": "Feature"}
{"dataset_attributes": {"@spider": "usps_collection_boxes", "spider:collection_time": "2023-11-04T08:23:02.835734"}, "geometry": {"coordinates": [-99.360032875, 46.657562386], "type": "Point"}, "id": "9Ua0374RcsMyJY-H3iPqac8mqtg=", "properties": {"@spider": "usps_collection_boxes", "addr:city": "STREETER", "addr:country": "US", "addr:full": "107 FLORENCE ST N", "addr:postcode": "58483", "addr:state": "ND", "amenity": "post_box", "brand": "United States Postal Service", "brand:wikidata": "Q668687", "collection_times": "Mo-Sa 15:45", "name": "USPS COLLECTION BOX - BLUE BOX", "note": "ON 12/24 AND 12/31, THIS BOX MAY BE COLLECTED AS EARLY AS 12 NOON.", "nsi_id": "unitedstatespostalservice-a77078", "operator": "United States Postal Service", "operator:short": "USPS", "operator:type": "public", "operator:wikidata": "Q668687", "ref": "5848300001"}, "type": "Feature"}
{"dataset_attributes": {"@spider": "usps_collection_boxes", "spider:collection_time": "2023-11-04T08:23:02.835734"}, "geometry": {"coordinates": [-99.360032875, 46.657562386], "type": "Point"}, "id": "zWK6JqsPG0lC1XsaXJWM6jtfq3E=", "properties": {"@spider": "usps_collection_boxes", "addr:city": "STREETER", "addr:country": "US", "addr:full": "107 FLORENCE ST N", "addr:postcode": "58483", "addr:state": "ND", "amenity": "post_box", "brand": "United States Postal Service", "brand:wikidata": "Q668687", "collection_times": "Mo-Fr 12:00", "name": "USPS COLLECTION BOX - PO LOBBY", "nsi_id": "unitedstatespostalservice-a77078", "operator": "United States Postal Service", "operator:short": "USPS", "operator:type": "public", "operator:wikidata": "Q668687", "ref": "5848300002"}, "type": "Feature"}
{"dataset_attributes": {"@spider": "usps_collection_boxes", "spider:collection_time": "2023-11-04T08:23:02.835734"}, "geometry": {"coordinates": [-99.3995943599, 47.4643404463], "type": "Point"}, "id": "zRzwmz4W4uC3yF9aRfVG98mmct8=", "properties": {"@spider": "usps_collection_boxes", "addr:city": "SYKESTON", "addr:country": "US", "addr:full": "34 MAIN AVE N", "addr:postcode": "58486", "addr:state": "ND", "amenity": "post_box", "brand": "United States Postal Service", "brand:wikidata": "Q668687", "collection_times": "Mo-Sa 15:30", "name": "USPS COLLECTION BOX - BLUE BOX", "note": "ON 12/24 AND 12/31, THIS BOX MAY BE COLLECTED AS EARLY AS 12 NOON.", "nsi_id": "unitedstatespostalservice-a77078", "operator": "United States Postal Service", "operator:short": "USPS", "operator:type": "public", "operator:wikidata": "Q668687", "ref": "5848600001"}, "type": "Feature"}
{"dataset_attributes": {"@spider": "usps_collection_boxes", "spider:collection_time": "2023-11-04T08:23:02.835734"}, "geometry": {"coordinates": [-99.399598587, 47.464329398], "type": "Point"}, "id": "yOFzvN1IG3KUZVZMu_ZQqu-DR30=", "properties": {"@spider": "usps_collection_boxes", "addr:city": "SYKESTON", "addr:country": "US", "addr:full": "34 MAIN AVE N", "addr:postcode": "58486", "addr:state": "ND", "amenity": "post_box", "brand": "United States Postal Service", "brand:wikidata": "Q668687", "collection_times": "Mo-Fr 12:00", "name": "USPS COLLECTION BOX - PO LOBBY", "nsi_id": "unitedstatespostalservice-a77078", "operator": "United States Postal Service", "operator:short": "USPS", "operator:type": "public", "operator:wikidata": "Q668687", "ref": "5848600002"}, "type": "Feature"}
{"dataset_attributes": {"@spider": "usps_collection_boxes", "spider:collection_time": "2023-11-04T08:23:02.835734"}, "geometry": {"coordinates": [-99.635760418, 46.875786691], "type": "Point"}, "id": "rvTN0GisXblyispTe0YhYsDJdk8=", "properties": {"@spider": "usps_collection_boxes", "addr:city": "TAPPEN", "addr:country": "US", "addr:full": "112 N MAIN", "addr:postcode": "58487", "addr:state": "ND", "amenity": "post_box", "brand": "United States Postal Service", "brand:wikidata": "Q668687", "collection_times": "Mo-Sa 14:45", "name": "USPS COLLECTION BOX - BLUE BOX", "note": "ON 12/24 AND 12/31, THIS BOX MAY BE COLLECTED AS EARLY AS 12 NOON.", "nsi_id": "unitedstatespostalservice-a77078", "operator": "United States Postal Service", "operator:short": "USPS", "operator:type": "public", "operator:wikidata": "Q668687", "ref": "5848700001"}, "type": "Feature"}
{"dataset_attributes": {"@spider": "usps_collection_boxes", "spider:collection_time": "2023-11-04T08:23:02.835734"}, "geometry": {"coordinates": [-99.635760418, 46.875786691], "type": "Point"}, "id": "tpcqr5_MS3AgtI0oSR44hlQHxzs=", "properties": {"@spider": "usps_collection_boxes", "addr:city": "TAPPEN", "addr:country": "US", "addr:full": "112 N MAIN", "addr:postcode": "58487", "addr:state": "ND", "amenity": "post_box", "brand": "United States Postal Service", "brand:wikidata": "Q668687", "collection_times": "Mo-Fr 12:00", "name": "USPS COLLECTION BOX - PO LOBBY", "nsi_id": "unitedstatespostalservice-a77078", "operator": "United States Postal Service", "operator:short": "USPS", "operator:type": "public", "operator:wikidata": "Q668687", "ref": "5848700002"}, "type": "Feature"}
{"dataset_attributes": {"@spider": "usps_collection_boxes", "spider:collection_time": "2023-11-04T08:23:02.835734"}, "geometry": {"coordinates": [-99.99448423, 47.142661335], "type": "Point"}, "id": "F-_NnNnymPeh82Fcb3GzcUUIUXY=", "properties": {"@spider": "usps_collection_boxes", "addr:city": "TUTTLE", "addr:country": "US", "addr:full": "208 N MAIN ST", "addr:postcode": "58488", "addr:state": "ND", "amenity": "post_box", "brand": "United States Postal Service", "brand:wikidata": "Q668687", "collection_times": "Mo-Sa 15:05", "name": "USPS COLLECTION BOX - BLUE BOX", "note": "ON 12/24 AND 12/31, THIS BOX MAY BE COLLECTED AS EARLY AS 12 NOON.", "nsi_id": "unitedstatespostalservice-a77078", "operator": "United States Postal Service", "operator:short": "USPS", "operator:type": "public", "operator:wikidata": "Q668687", "ref": "5848800001"}, "type": "Feature"}
{"dataset_attributes": {"@spider": "usps_collection_boxes", "spider:collection_time": "2023-11-04T08:23:02.835734"}, "geometry": {"coordinates": [-99.99448423, 47.142661335], "type": "Point"}, "id": "0J021wMHtGK8wBdBeo6LJMRwhrU=", "properties": {"@spider": "usps_collection_boxes", "addr:city": "TUTTLE", "addr:country": "US", "addr:full": "208 N MAIN ST", "addr:postcode": "58488", "addr:state": "ND", "amenity": "post_box", "brand": "United States Postal Service", "brand:wikidata": "Q668687", "collection_times": "Mo-Fr 14:20", "name": "USPS COLLECTION BOX - PO LOBBY", "note": "ON 12/24 AND 12/31, THIS BOX MAY BE COLLECTED AS EARLY AS 12 NOON.", "nsi_id": "unitedstatespostalservice-a77078", "operator": "United States Postal Service", "operator:short": "USPS", "operator:type": "public", "operator:wikidata": "Q668687", "ref": "5848800002"}, "type": "Feature"}
{"dataset_attributes": {"@spider": "usps_collection_boxes", "spider:collection_time": "2023-11-04T08:23:02.835734"}, "geometry": {"coordinates": [-98.072089815, 46.364033319], "type": "Point"}, "id": "ra-ai-hDZJ98lGtxTG0mfQJXveU=", "properties": {"@spider": "usps_collection_boxes", "addr:city": "VERONA", "addr:country": "US", "addr:full": "212 4TH ST", "addr:postcode": "58490", "addr:state": "ND", "amenity": "post_box", "brand": "United States Postal Service", "brand:wikidata": "Q668687", "collection_times": "Mo-Fr 17:00; Sa 15:00", "name": "USPS COLLECTION BOX - BLUE BOX", "note": "ON 12/24 AND 12/31, THIS BOX MAY BE COLLECTED AS EARLY AS 12 NOON.", "nsi_id": "unitedstatespostalservice-a77078", "operator": "United States Postal Service", "operator:short": "USPS", "operator:type": "public", "operator:wikidata": "Q668687", "ref": "5849000001"}, "type": "Feature"}
{"dataset_attributes": {"@spider": "usps_collection_boxes", "spider:collection_time": "2023-11-04T08:23:02.835734"}, "geometry": {"coordinates": [-98.072089815, 46.364033319], "type": "Point"}, "id": "cRxnQ9wFLubwBamOmps9b_iOn1I=", "properties": {"@spider": "usps_collection_boxes", "addr:city": "VERONA", "addr:country": "US", "addr:full": "212 4TH ST", "addr:postcode": "58490", "addr:state": "ND", "amenity": "post_box", "brand": "United States Postal Service", "brand:wikidata": "Q668687", "collection_times": "Mo-Fr 14:50", "name": "USPS COLLECTION BOX - PO LOBBY", "note": "ON 12/24 AND 12/31, THIS BOX MAY BE COLLECTED AS EARLY AS 12 NOON.", "nsi_id": "unitedstatespostalservice-a77078", "operator": "United States Postal Service", "operator:short": "USPS", "operator:type": "public", "operator:wikidata": "Q668687", "ref": "5849000002"}, "type": "Feature"}
{"dataset_attributes": {"@spider": "usps_collection_boxes", "spider:collection_time": "2023-11-04T08:23:02.835734"}, "geometry": {"coordinates": [-98.461985588, 47.167876201], "type": "Point"}, "id": "2Ej44de48tkn5I2yC2xIrfruADI=", "properties": {"@spider": "usps_collection_boxes", "addr:city": "WIMBLEDON", "addr:country": "US", "addr:full": "118 3RD AVE", "addr:postcode": "58492", "addr:state": "ND", "amenity": "post_box", "brand": "United States Postal Service", "brand:wikidata": "Q668687", "collection_times": "Mo-Sa 15:45", "name": "USPS COLLECTION BOX - BLUE BOX", "note": "ON 12/24 AND 12/31, THIS BOX MAY BE COLLECTED AS EARLY AS 12 NOON.", "nsi_id": "unitedstatespostalservice-a77078", "operator": "United States Postal Service", "operator:short": "USPS", "operator:type": "public", "operator:wikidata": "Q668687", "ref": "5849200001"}, "type": "Feature"}
{"dataset_attributes": {"@spider": "usps_collection_boxes", "spider:collection_time": "2023-11-04T08:23:02.835734"}, "geometry": {"coordinates": [-98.461985588, 47.167876201], "type": "Point"}, "id": "FzpuiCyKaMLnsLM2Nlpb3YjdEVo=", "properties": {"@spider": "usps_collection_boxes", "addr:city": "WIMBLEDON", "addr:country": "US", "addr:full": "118 3RD AVE", "addr:postcode": "58492", "addr:state": "ND", "amenity": "post_box", "brand": "United States Postal Service", "brand:wikidata": "Q668687", "collection_times": "Mo-Fr 14:00", "name": "USPS COLLECTION BOX - PO LOBBY", "note": "ON 12/24 AND 12/31, THIS BOX MAY BE COLLECTED AS EARLY AS 12 NOON.", "nsi_id": "unitedstatespostalservice-a77078", "operator": "United States Postal Service", "operator:short": "USPS", "operator:type": "public", "operator:wikidata": "Q668687", "ref": "5849200002"}, "type": "Feature"}
{"dataset_attributes": {"@spider": "usps_collection_boxes", "spider:collection_time": "2023-11-04T08:23:02.835734"}, "geometry": {"coordinates": [-98.461275065, 47.171329437], "type": "Point"}, "id": "JSuilAEnOLFZUWJ1vVDwCinwdHs=", "properties": {"@spider": "usps_collection_boxes", "addr:city": "WIMBLEDON", "addr:country": "US", "addr:full": "112 1ST AVE N", "addr:postcode": "58492", "addr:state": "ND", "amenity": "post_box", "brand": "United States Postal Service", "brand:wikidata": "Q668687", "collection_times": "Mo-Sa 16:05", "name": "USPS COLLECTION BOX - BLUE BOX", "note": "ON 12/24 AND 12/31, THIS BOX MAY BE COLLECTED AS EARLY AS 12 NOON.", "nsi_id": "unitedstatespostalservice-a77078", "operator": "United States Postal Service", "operator:short": "USPS", "operator:type": "public", "operator:wikidata": "Q668687", "ref": "5849200003"}, "type": "Feature"}
{"dataset_attributes": {"@spider": "usps_collection_boxes", "spider:collection_time": "2023-11-04T08:23:02.835734"}, "geometry": {"coordinates": [-100.279692894, 47.141162665], "type": "Point"}, "id": "UpWJdRjN5LfNRzCf8y-VcFGaGhQ=", "properties": {"@spider": "usps_collection_boxes", "addr:city": "WING", "addr:country": "US", "addr:full": "208 MAIN ST", "addr:postcode": "58494", "addr:state": "ND", "amenity": "post_box", "brand": "United States Postal Service", "brand:wikidata": "Q668687", "collection_times": "Mo-Sa 14:45", "name": "USPS COLLECTION BOX - BLUE BOX", "note": "ON 12/24 AND 12/31, THIS BOX MAY BE COLLECTED AS EARLY AS 12 NOON.", "nsi_id": "unitedstatespostalservice-a77078", "operator": "United States Postal Service", "operator:short": "USPS", "operator:type": "public", "operator:wikidata": "Q668687", "ref": "5849400001"}, "type": "Feature"}
{"dataset_attributes": {"@spider": "usps_collection_boxes", "spider:collection_time": "2023-11-04T08:23:02.835734"}, "geometry": {"coordinates": [-100.279692894, 47.141162665], "type": "Point"}, "id": "x2oB8-sLGXiE3ht039qo5dFW0kI=", "properties": {"@spider": "usps_collection_boxes", "addr:city": "WING", "addr:country": "US", "addr:full": "208 MAIN ST", "addr:postcode": "58494", "addr:state": "ND", "amenity": "post_box", "brand": "United States Postal Service", "brand:wikidata": "Q668687", "collection_times": "Mo-Fr 14:20", "name": "USPS COLLECTION BOX - PO LOBBY", "note": "ON 12/24 AND 12/31, THIS BOX MAY BE COLLECTED AS EARLY AS 12 NOON.", "nsi_id": "unitedstatespostalservice-a77078", "operator": "United States Postal Service", "operator:short": "USPS", "operator:type": "public", "operator:wikidata": "Q668687", "ref": "5849400002"}, "type": "Feature"}
{"dataset_attributes": {"@spider": "usps_collection_boxes", "spider:collection_time": "2023-11-04T08:23:02.835734"}, "geometry": {"coordinates": [-99.559218316, 46.259248737], "type": "Point"}, "id": "NZyKQZcmzJtb3CF5zmCpWpiVmIE=", "properties": {"@spider": "usps_collection_boxes", "addr:city": "WISHEK", "addr:country": "US", "addr:full": "14 N 5TH ST", "addr:postcode": "58495", "addr:state": "ND", "amenity": "post_box", "brand": "United States Postal Service", "brand:wikidata": "Q668687", "collection_times": "Mo-Sa 14:50", "name": "USPS COLLECTION BOX - BLUE BOX", "note": "ON 12/24 AND 12/31, THIS BOX MAY BE COLLECTED AS EARLY AS 12 NOON.", "nsi_id": "unitedstatespostalservice-a77078", "operator": "United States Postal Service", "operator:short": "USPS", "operator:type": "public", "operator:wikidata": "Q668687", "ref": "5849500001"}, "type": "Feature"}
{"dataset_attributes": {"@spider": "usps_collection_boxes", "spider:collection_time": "2023-11-04T08:23:02.835734"}, "geometry": {"coordinates": [-99.559218316, 46.259248737], "type": "Point"}, "id": "n0fYF10K-rW54Qx_tU9J3xOS--0=", "properties": {"@spider": "usps_collection_boxes", "addr:city": "WISHEK", "addr:country": "US", "addr:full": "14 N 5TH ST", "addr:postcode": "58495", "addr:state": "ND", "amenity": "post_box", "brand": "United States Postal Service", "brand:wikidata": "Q668687", "collection_times": "Mo-Fr 14:50", "name": "USPS COLLECTION BOX - PO LOBBY", "note": "ON 12/24 AND 12/31, THIS BOX MAY BE COLLECTED AS EARLY AS 12 NOON.", "nsi_id": "unitedstatespostalservice-a77078", "operator": "United States Postal Service", "operator:short": "USPS", "operator:type": "public", "operator:wikidata": "Q668687", "ref": "5849500002"}, "type": "Feature"}
{"dataset_attributes": {"@spider": "usps_collection_boxes", "spider:collection_time": "2023-11-04T08:23:02.835734"}, "geometry": {"coordinates": [-99.304893102, 47.142477335], "type": "Point"}, "id": "IyWNK44UGr3H3mvBNxCZyrnXb6Y=", "properties": {"@spider": "usps_collection_boxes", "addr:city": "WOODWORTH", "addr:country": "US", "addr:full": "120 MAIN ST N", "addr:postcode": "58496", "addr:state": "ND", "amenity": "post_box", "brand": "United States Postal Service", "brand:wikidata": "Q668687", "collection_times": "Mo-Sa 16:00", "name": "USPS COLLECTION BOX - BLUE BOX", "note": "ON 12/24 AND 12/31, THIS BOX MAY BE COLLECTED AS EARLY AS 12 NOON.", "nsi_id": "unitedstatespostalservice-a77078", "operator": "United States Postal Service", "operator:short": "USPS", "operator:type": "public", "operator:wikidata": "Q668687", "ref": "5849600001"}, "type": "Feature"}
{"dataset_attributes": {"@spider": "usps_collection_boxes", "spider:collection_time": "2023-11-04T08:23:02.835734"}, "geometry": {"coordinates": [-99.304893102, 47.142477335], "type": "Point"}, "id": "MjMyJx0KmjZxNH0eWi3c96Bdu1I=", "properties": {"@spider": "usps_collection_boxes", "addr:city": "WOODWORTH", "addr:country": "US", "addr:full": "120 MAIN ST N", "addr:postcode": "58496", "addr:state": "ND", "amenity": "post_box", "brand": "United States Postal Service", "brand:wikidata": "Q668687", "collection_times": "Mo-Fr 15:00; Sa 11:00", "name": "USPS COLLECTION BOX - PO LOBBY", "note": "ON 12/24 AND 12/31, THIS BOX MAY BE COLLECTED AS EARLY AS 12 NOON.", "nsi_id": "unitedstatespostalservice-a77078", "operator": "United States Postal Service", "operator:short": "USPS", "operator:type": "public", "operator:wikidata": "Q668687", "ref": "5849600002"}, "type": "Feature"}
{"dataset_attributes": {"@spider": "usps_collection_boxes", "spider:collection_time": "2023-11-04T08:23:02.835734"}, "geometry": {"coordinates": [-98.563662, 46.783068496], "type": "Point"}, "id": "fQmaO9ngYoLgwUz2a7fFpElWEj8=", "properties": {"@spider": "usps_collection_boxes", "addr:city": "YPSILANTI", "addr:country": "US", "addr:full": "218 1ST ST", "addr:postcode": "58497", "addr:state": "ND", "amenity": "post_box", "brand": "United States Postal Service", "brand:wikidata": "Q668687", "collection_times": "Mo-Sa 16:45", "name": "USPS COLLECTION BOX - BLUE BOX", "note": "ON 12/24 AND 12/31, THIS BOX MAY BE COLLECTED AS EARLY AS 12 NOON.", "nsi_id": "unitedstatespostalservice-a77078", "operator": "United States Postal Service", "operator:short": "USPS", "operator:type": "public", "operator:wikidata": "Q668687", "ref": "5849700001"}, "type": "Feature"}
{"dataset_attributes": {"@spider": "usps_collection_boxes", "spider:collection_time": "2023-11-04T08:23:02.835734"}, "geometry": {"coordinates": [-98.563662, 46.783068496], "type": "Point"}, "id": "kDMj-_lnRjcNOLA32it5TeEPeZg=", "properties": {"@spider": "usps_collection_boxes", "addr:city": "YPSILANTI", "addr:country": "US", "addr:full": "218 1ST ST", "addr:postcode": "58497", "addr:state": "ND", "amenity": "post_box", "brand": "United States Postal Service", "brand:wikidata": "Q668687", "collection_times": "Mo-Fr 11:30", "name": "USPS COLLECTION BOX - PO LOBBY", "nsi_id": "unitedstatespostalservice-a77078", "operator": "United States Postal Service", "operator:short": "USPS", "operator:type": "public", "operator:wikidata": "Q668687", "ref": "5849700002"}, "type": "Feature"}
