{"dataset_attributes": {"@spider": "usps_collection_boxes", "spider:collection_time": "2023-09-16T08:22:24.198600"}, "geometry": {"coordinates": [-100.784443161, 46.806038137], "type": "Point"}, "id": "73J8K1pK-9EyO-ehnD4NPAQf1V4=", "properties": {"@spider": "usps_collection_boxes", "addr:city": "BISMARCK", "addr:country": "US", "addr:full": "117 N 5TH ST", "addr:postcode": "58501", "addr:state": "ND", "amenity": "post_box", "brand": "United States Postal Service", "brand:wikidata": "Q668687", "collection_times": "Mo-Fr 15:00; Sa 15:30", "name": "USPS COLLECTION BOX - BLUE BOX", "note": "ON 12/24 AND 12/31, THIS BOX MAY BE COLLECTED AS EARLY AS 12 NOON.", "nsi_id": "unitedstatespostalservice-a77078", "operator": "United States Postal Service", "operator:short": "USPS", "operator:type": "public", "operator:wikidata": "Q668687", "ref": "5850100011"}, "type": "Feature"}
{"dataset_attributes": {"@spider": "usps_collection_boxes", "spider:collection_time": "2023-09-16T08:22:24.198600"}, "geometry": {"coordinates": [-100.787721657, 46.806228671], "type": "Point"}, "id": "KgzZHc_yBecpRUuIfc3ZJzoM0J4=", "properties": {"@spider": "usps_collection_boxes", "addr:city": "BISMARCK", "addr:country": "US", "addr:full": "120 N 3RD ST", "addr:postcode": "58501", "addr:state": "ND", "amenity": "post_box", "brand": "United States Postal Service", "brand:wikidata": "Q668687", "collection_times": "Mo-Fr 15:30", "name": "USPS COLLECTION BOX - BLUE BOX", "note": "ON 12/24 AND 12/31, THIS BOX MAY BE COLLECTED AS EARLY AS 12 NOON.", "nsi_id": "unitedstatespostalservice-a77078", "operator": "United States Postal Service", "operator:short": "USPS", "operator:type": "public", "operator:wikidata": "Q668687", "ref": "5850100014"}, "type": "Feature"}
{"dataset_attributes": {"@spider": "usps_collection_boxes", "spider:collection_time": "2023-09-16T08:22:24.198600"}, "geometry": {"coordinates": [-100.785910165, 46.807545457], "type": "Point"}, "id": "eBeQ8TDZMV1iG-jII95B--iQj1A=", "properties": {"@spider": "usps_collection_boxes", "addr:city": "BISMARCK", "addr:country": "US", "addr:full": "410 E THAYER AVE", "addr:postcode": "58501", "addr:state": "ND", "amenity": "post_box", "brand": "United States Postal Service", "brand:wikidata": "Q668687", "collection_times": "Mo-Fr 16:15", "name": "USPS COLLECTION BOX - BLUE BOX", "note": "ON 12/24 AND 12/31, THIS BOX MAY BE COLLECTED AS EARLY AS 12 NOON.", "nsi_id": "unitedstatespostalservice-a77078", "operator": "United States Postal Service", "operator:short": "USPS", "operator:type": "public", "operator:wikidata": "Q668687", "ref": "5850100015"}, "type": "Feature"}
{"dataset_attributes": {"@spider": "usps_collection_boxes", "spider:collection_time": "2023-09-16T08:22:24.198600"}, "geometry": {"coordinates": [-100.786133092, 46.809405754], "type": "Point"}, "id": "K51Q76VR_S8cs_BLFpTWNlC-Gqc=", "properties": {"@spider": "usps_collection_boxes", "addr:city": "BISMARCK", "addr:country": "US", "addr:full": "420 N 4TH ST", "addr:postcode": "58501", "addr:state": "ND", "amenity": "post_box", "brand": "United States Postal Service", "brand:wikidata": "Q668687", "collection_times": "Mo-Fr 15:15", "name": "USPS COLLECTION BOX - BLUE BOX", "note": "ON 12/24 AND 12/31, THIS BOX MAY BE COLLECTED AS EARLY AS 12 NOON.", "nsi_id": "unitedstatespostalservice-a77078", "operator": "United States Postal Service", "operator:short": "USPS", "operator:type": "public", "operator:wikidata": "Q668687", "ref": "5850100022"}, "type": "Feature"}
{"dataset_attributes": {"@spider": "usps_collection_boxes", "spider:collection_time": "2023-09-16T08:22:24.198600"}, "geometry": {"coordinates": [-100.774763749, 46.816533533], "type": "Point"}, "id": "CI3t9oHaHbvWBXsRxphqJQaijBc=", "properties": {"@spider": "usps_collection_boxes", "addr:city": "BISMARCK", "addr:country": "US", "addr:full": "1100 E BOULEVARD AVE", "addr:postcode": "58501", "addr:state": "ND", "amenity": "post_box", "brand": "United States Postal Service", "brand:wikidata": "Q668687", "collection_times": "Mo-Sa 09:00", "name": "USPS COLLECTION BOX - BLUE BOX", "nsi_id": "unitedstatespostalservice-a77078", "operator": "United States Postal Service", "operator:short": "USPS", "operator:type": "public", "operator:wikidata": "Q668687", "ref": "5850100029"}, "type": "Feature"}
{"dataset_attributes": {"@spider": "usps_collection_boxes", "spider:collection_time": "2023-09-16T08:22:24.198600"}, "geometry": {"coordinates": [-100.750808932, 46.808302115], "type": "Point"}, "id": "tcDj85n06F0H5odSceP0sohZDUk=", "properties": {"@spider": "usps_collection_boxes", "addr:city": "BISMARCK", "addr:country": "US", "addr:full": "2600 E ROSSER AVE", "addr:postcode": "58501", "addr:state": "ND", "amenity": "post_box", "brand": "United States Postal Service", "brand:wikidata": "Q668687", "collection_times": "Mo-Sa 15:30", "name": "USPS COLLECTION BOX - BLUE BOX", "note": "ON 12/24 AND 12/31, THIS BOX MAY BE COLLECTED AS EARLY AS 12 NOON.", "nsi_id": "unitedstatespostalservice-a77078", "operator": "United States Postal Service", "operator:short": "USPS", "operator:type": "public", "operator:wikidata": "Q668687", "ref": "5850100032"}, "type": "Feature"}
{"dataset_attributes": {"@spider": "usps_collection_boxes", "spider:collection_time": "2023-09-16T08:22:24.198600"}, "geometry": {"coordinates": [-100.74816, 46.806100479], "type": "Point"}, "id": "oqXxgUEjIvhlxKBZAaYTh4E6OSw=", "properties": {"@spider": "usps_collection_boxes", "addr:city": "BISMARCK", "addr:country": "US", "addr:full": "2900 E BROADWAY AVE", "addr:postcode": "58501", "addr:state": "ND", "amenity": "post_box", "brand": "United States Postal Service", "brand:wikidata": "Q668687", "collection_times": "Mo-Fr 15:30", "name": "USPS COLLECTION BOX - BLUE BOX", "note": "ON 12/24 AND 12/31, THIS BOX MAY BE COLLECTED AS EARLY AS 12 NOON.", "nsi_id": "unitedstatespostalservice-a77078", "operator": "United States Postal Service", "operator:short": "USPS", "operator:type": "public", "operator:wikidata": "Q668687", "ref": "5850100036"}, "type": "Feature"}
{"dataset_attributes": {"@spider": "usps_collection_boxes", "spider:collection_time": "2023-09-16T08:22:24.198600"}, "geometry": {"coordinates": [-100.772320357, 46.826532], "type": "Point"}, "id": "wXhTc321W6_eRHWJuNcPTJC_x0A=", "properties": {"@spider": "usps_collection_boxes", "addr:city": "BISMARCK", "addr:country": "US", "addr:full": "1911 N 13TH ST", "addr:postcode": "58501", "addr:state": "ND", "amenity": "post_box", "brand": "United States Postal Service", "brand:wikidata": "Q668687", "collection_times": "Mo-Fr 15:00", "name": "USPS COLLECTION BOX - BLUE BOX", "note": "ON 12/24 AND 12/31, THIS BOX MAY BE COLLECTED AS EARLY AS 12 NOON.", "nsi_id": "unitedstatespostalservice-a77078", "operator": "United States Postal Service", "operator:short": "USPS", "operator:type": "public", "operator:wikidata": "Q668687", "ref": "5850100042"}, "type": "Feature"}
{"dataset_attributes": {"@spider": "usps_collection_boxes", "spider:collection_time": "2023-09-16T08:22:24.198600"}, "geometry": {"coordinates": [-100.7882381514, 46.8090712125], "type": "Point"}, "id": "V0m5lbzWsdcLZIGW647sZjfiFr8=", "properties": {"@spider": "usps_collection_boxes", "addr:city": "BISMARCK", "addr:country": "US", "addr:full": "220 E ROSSER AVE", "addr:postcode": "58501", "addr:state": "ND", "amenity": "post_box", "brand": "United States Postal Service", "brand:wikidata": "Q668687", "collection_times": "Mo-Sa 17:30", "name": "USPS COLLECTION BOX - BLUE BOX", "note": "ON 12/24 AND 12/31, THIS BOX MAY BE COLLECTED AS EARLY AS 12 NOON.", "nsi_id": "unitedstatespostalservice-a77078", "operator": "United States Postal Service", "operator:short": "USPS", "operator:type": "public", "operator:wikidata": "Q668687", "ref": "5850100047"}, "type": "Feature"}
{"dataset_attributes": {"@spider": "usps_collection_boxes", "spider:collection_time": "2023-09-16T08:22:24.198600"}, "geometry": {"coordinates": [-100.811378951, 46.826020916], "type": "Point"}, "id": "d_q15JnZ6i-5M5_F7IF0OoBMIl8=", "properties": {"@spider": "usps_collection_boxes", "addr:city": "BISMARCK", "addr:country": "US", "addr:full": "1190 W TURNPIKE AVE", "addr:postcode": "58501", "addr:state": "ND", "amenity": "post_box", "brand": "United States Postal Service", "brand:wikidata": "Q668687", "collection_times": "Mo-Fr 16:00; Sa 15:45", "name": "USPS COLLECTION BOX - BLUE BOX", "note": "ON 12/24 AND 12/31, THIS BOX MAY BE COLLECTED AS EARLY AS 12 NOON.", "nsi_id": "unitedstatespostalservice-a77078", "operator": "United States Postal Service", "operator:short": "USPS", "operator:type": "public", "operator:wikidata": "Q668687", "ref": "5850100056"}, "type": "Feature"}
{"dataset_attributes": {"@spider": "usps_collection_boxes", "spider:collection_time": "2023-09-16T08:22:24.198600"}, "geometry": {"coordinates": [-100.787470151, 46.817244], "type": "Point"}, "id": "FAyH-6_yJ8M7s-n_o9gxUuFZuTo=", "properties": {"@spider": "usps_collection_boxes", "addr:city": "BISMARCK", "addr:country": "US", "addr:full": "1116 N 3RD ST", "addr:postcode": "58501", "addr:state": "ND", "amenity": "post_box", "brand": "United States Postal Service", "brand:wikidata": "Q668687", "collection_times": "Mo-Fr 15:00; Sa 15:45", "name": "USPS COLLECTION BOX - BLUE BOX", "note": "ON 12/24 AND 12/31, THIS BOX MAY BE COLLECTED AS EARLY AS 12 NOON.", "nsi_id": "unitedstatespostalservice-a77078", "operator": "United States Postal Service", "operator:short": "USPS", "operator:type": "public", "operator:wikidata": "Q668687", "ref": "5850100058"}, "type": "Feature"}
{"dataset_attributes": {"@spider": "usps_collection_boxes", "spider:collection_time": "2023-09-16T08:22:24.198600"}, "geometry": {"coordinates": [-100.784817329, 46.808241111], "type": "Point"}, "id": "XhQ8UQji11XgcbDppelej-QMuYY=", "properties": {"@spider": "usps_collection_boxes", "addr:city": "BISMARCK", "addr:country": "US", "addr:full": "316 N 5TH ST", "addr:postcode": "58501", "addr:state": "ND", "amenity": "post_box", "brand": "United States Postal Service", "brand:wikidata": "Q668687", "collection_times": "Mo-Fr 15:15", "name": "USPS COLLECTION BOX - BLUE BOX", "note": "ON 12/24 AND 12/31, THIS BOX MAY BE COLLECTED AS EARLY AS 12 NOON.", "nsi_id": "unitedstatespostalservice-a77078", "operator": "United States Postal Service", "operator:short": "USPS", "operator:type": "public", "operator:wikidata": "Q668687", "ref": "5850100059"}, "type": "Feature"}
{"dataset_attributes": {"@spider": "usps_collection_boxes", "spider:collection_time": "2023-09-16T08:22:24.198600"}, "geometry": {"coordinates": [-100.775108826, 46.821960173], "type": "Point"}, "id": "TSonUr3DH0jpYZ08e4kgxJb-Wb0=", "properties": {"@spider": "usps_collection_boxes", "addr:city": "BISMARCK", "addr:country": "US", "addr:full": "1505 N 12TH ST", "addr:postcode": "58501", "addr:state": "ND", "amenity": "post_box", "brand": "United States Postal Service", "brand:wikidata": "Q668687", "collection_times": "Mo-Fr 10:15", "name": "USPS COLLECTION BOX - BLUE BOX", "nsi_id": "unitedstatespostalservice-a77078", "operator": "United States Postal Service", "operator:short": "USPS", "operator:type": "public", "operator:wikidata": "Q668687", "ref": "5850100072"}, "type": "Feature"}
{"dataset_attributes": {"@spider": "usps_collection_boxes", "spider:collection_time": "2023-09-16T08:22:24.198600"}, "geometry": {"coordinates": [-100.729330858, 46.828842596], "type": "Point"}, "id": "ymWFCC3Fd-C8phsB6-CvH_gvmo0=", "properties": {"@spider": "usps_collection_boxes", "addr:city": "BISMARCK", "addr:country": "US", "addr:full": "3936 E DIVIDE AVE", "addr:postcode": "58501", "addr:state": "ND", "amenity": "post_box", "brand": "United States Postal Service", "brand:wikidata": "Q668687", "collection_times": "Mo-Fr 16:15", "name": "USPS COLLECTION BOX - BLUE BOX", "note": "ON 12/24 AND 12/31, THIS BOX MAY BE COLLECTED AS EARLY AS 12 NOON.", "nsi_id": "unitedstatespostalservice-a77078", "operator": "United States Postal Service", "operator:short": "USPS", "operator:type": "public", "operator:wikidata": "Q668687", "ref": "5850100075"}, "type": "Feature"}
{"dataset_attributes": {"@spider": "usps_collection_boxes", "spider:collection_time": "2023-09-16T08:22:24.198600"}, "geometry": {"coordinates": [-100.775411128, 46.826127419], "type": "Point"}, "id": "b3lNM35ENJp8DCeMYijV8tmnKQI=", "properties": {"@spider": "usps_collection_boxes", "addr:city": "BISMARCK", "addr:country": "US", "addr:full": "1830 N 11TH ST", "addr:postcode": "58501", "addr:state": "ND", "amenity": "post_box", "brand": "United States Postal Service", "brand:wikidata": "Q668687", "collection_times": "Mo-Fr 15:15", "name": "USPS COLLECTION BOX - BLUE BOX", "note": "ON 12/24 AND 12/31, THIS BOX MAY BE COLLECTED AS EARLY AS 12 NOON.", "nsi_id": "unitedstatespostalservice-a77078", "operator": "United States Postal Service", "operator:short": "USPS", "operator:type": "public", "operator:wikidata": "Q668687", "ref": "5850100079"}, "type": "Feature"}
{"dataset_attributes": {"@spider": "usps_collection_boxes", "spider:collection_time": "2023-09-16T08:22:24.198600"}, "geometry": {"coordinates": [-100.7882381514, 46.8090712125], "type": "Point"}, "id": "TivXxLyPJf2X4EoJiVLu8DPhUtI=", "properties": {"@spider": "usps_collection_boxes", "addr:city": "BISMARCK", "addr:country": "US", "addr:full": "220 E ROSSER AVE", "addr:postcode": "58501", "addr:state": "ND", "amenity": "post_box", "brand": "United States Postal Service", "brand:wikidata": "Q668687", "collection_times": "Mo-Fr 17:30; Sa 12:00", "name": "USPS COLLECTION BOX - PO LOBBY", "note": "ON 12/24 AND 12/31, THIS BOX MAY BE COLLECTED AS EARLY AS 12 NOON.", "nsi_id": "unitedstatespostalservice-a77078", "operator": "United States Postal Service", "operator:short": "USPS", "operator:type": "public", "operator:wikidata": "Q668687", "ref": "5850100085"}, "type": "Feature"}
{"dataset_attributes": {"@spider": "usps_collection_boxes", "spider:collection_time": "2023-09-16T08:22:24.198600"}, "geometry": {"coordinates": [-100.786210154, 46.806353665], "type": "Point"}, "id": "reU7mtWwH8NFTbo7FOI8d-rMBu0=", "properties": {"@spider": "usps_collection_boxes", "addr:city": "BISMARCK", "addr:country": "US", "addr:full": "124 N 4TH ST", "addr:postcode": "58501", "addr:state": "ND", "amenity": "post_box", "brand": "United States Postal Service", "brand:wikidata": "Q668687", "collection_times": "Mo-Fr 15:30", "name": "USPS COLLECTION BOX - BLUE BOX", "note": "ON 12/24 AND 12/31, THIS BOX MAY BE COLLECTED AS EARLY AS 12 NOON.", "nsi_id": "unitedstatespostalservice-a77078", "operator": "United States Postal Service", "operator:short": "USPS", "operator:type": "public", "operator:wikidata": "Q668687", "ref": "5850100086"}, "type": "Feature"}
{"dataset_attributes": {"@spider": "usps_collection_boxes", "spider:collection_time": "2023-09-16T08:22:24.198600"}, "geometry": {"coordinates": [-100.7882381514, 46.8090712125], "type": "Point"}, "id": "93RuwFbvQYKqzaT3Hhe7DQ4zfEo=", "properties": {"@spider": "usps_collection_boxes", "addr:city": "BISMARCK", "addr:country": "US", "addr:full": "220 E ROSSER AVE", "addr:postcode": "58501", "addr:state": "ND", "amenity": "post_box", "brand": "United States Postal Service", "brand:wikidata": "Q668687", "collection_times": "Mo-Fr 17:30; Sa 12:00", "name": "USPS COLLECTION BOX - PO LOBBY", "note": "ON 12/24 AND 12/31, THIS BOX MAY BE COLLECTED AS EARLY AS 12 NOON.", "nsi_id": "unitedstatespostalservice-a77078", "operator": "United States Postal Service", "operator:short": "USPS", "operator:type": "public", "operator:wikidata": "Q668687", "ref": "5850100088"}, "type": "Feature"}
{"dataset_attributes": {"@spider": "usps_collection_boxes", "spider:collection_time": "2023-09-16T08:22:24.198600"}, "geometry": {"coordinates": [-100.814716667, 46.821658987], "type": "Point"}, "id": "5kVRN4-Uf4dR5_o9DocX7RaT53I=", "properties": {"@spider": "usps_collection_boxes", "addr:city": "BISMARCK", "addr:country": "US", "addr:full": "1425 SCHAFER ST", "addr:postcode": "58501", "addr:state": "ND", "amenity": "post_box", "brand": "United States Postal Service", "brand:wikidata": "Q668687", "collection_times": "Mo-Fr 15:30", "name": "USPS COLLECTION BOX - BLUE BOX", "note": "ON 12/24 AND 12/31, THIS BOX MAY BE COLLECTED AS EARLY AS 12 NOON.", "nsi_id": "unitedstatespostalservice-a77078", "operator": "United States Postal Service", "operator:short": "USPS", "operator:type": "public", "operator:wikidata": "Q668687", "ref": "5850100090"}, "type": "Feature"}
{"dataset_attributes": {"@spider": "usps_collection_boxes", "spider:collection_time": "2023-09-16T08:22:24.198600"}, "geometry": {"coordinates": [-100.730713929, 46.834789223], "type": "Point"}, "id": "yfELMwbBfi0G70Fz9mB_AL6htAk=", "properties": {"@spider": "usps_collection_boxes", "addr:city": "BISMARCK", "addr:country": "US", "addr:full": "2620 CENTENNIAL RD", "addr:postcode": "58503", "addr:state": "ND", "amenity": "post_box", "brand": "United States Postal Service", "brand:wikidata": "Q668687", "collection_times": "Mo-Fr 16:15", "name": "USPS COLLECTION BOX - BLUE BOX", "note": "ON 12/24 AND 12/31, THIS BOX MAY BE COLLECTED AS EARLY AS 12 NOON.", "nsi_id": "unitedstatespostalservice-a77078", "operator": "United States Postal Service", "operator:short": "USPS", "operator:type": "public", "operator:wikidata": "Q668687", "ref": "5850300001"}, "type": "Feature"}
{"dataset_attributes": {"@spider": "usps_collection_boxes", "spider:collection_time": "2023-09-16T08:22:24.198600"}, "geometry": {"coordinates": [-100.774033321, 46.847115], "type": "Point"}, "id": "3c7EV_kjuAn17fJ-d2B7H9OmdYU=", "properties": {"@spider": "usps_collection_boxes", "addr:city": "BISMARCK", "addr:country": "US", "addr:full": "3801 LOCKPORT ST", "addr:postcode": "58503", "addr:state": "ND", "amenity": "post_box", "brand": "United States Postal Service", "brand:wikidata": "Q668687", "collection_times": "Mo-Fr 16:00", "name": "USPS COLLECTION BOX - BLUE BOX", "note": "ON 12/24 AND 12/31, THIS BOX MAY BE COLLECTED AS EARLY AS 12 NOON.", "nsi_id": "unitedstatespostalservice-a77078", "operator": "United States Postal Service", "operator:short": "USPS", "operator:type": "public", "operator:wikidata": "Q668687", "ref": "5850300002"}, "type": "Feature"}
{"dataset_attributes": {"@spider": "usps_collection_boxes", "spider:collection_time": "2023-09-16T08:22:24.198600"}, "geometry": {"coordinates": [-100.773102123, 46.836180527], "type": "Point"}, "id": "tNkMDigRi7lbCMPKVFn4TGg5Z40=", "properties": {"@spider": "usps_collection_boxes", "addr:city": "BISMARCK", "addr:country": "US", "addr:full": "2700 STATE ST", "addr:postcode": "58503", "addr:state": "ND", "amenity": "post_box", "brand": "United States Postal Service", "brand:wikidata": "Q668687", "collection_times": "Mo-Sa 16:00", "name": "USPS COLLECTION BOX - BLUE BOX", "note": "ON 12/24 AND 12/31, THIS BOX MAY BE COLLECTED AS EARLY AS 12 NOON.", "nsi_id": "unitedstatespostalservice-a77078", "operator": "United States Postal Service", "operator:short": "USPS", "operator:type": "public", "operator:wikidata": "Q668687", "ref": "5850300004"}, "type": "Feature"}
{"dataset_attributes": {"@spider": "usps_collection_boxes", "spider:collection_time": "2023-09-16T08:22:24.198600"}, "geometry": {"coordinates": [-100.793882842, 46.837682078], "type": "Point"}, "id": "3HbXIU3Y-XXdd9PiWZordMhJnE0=", "properties": {"@spider": "usps_collection_boxes", "addr:city": "BISMARCK", "addr:country": "US", "addr:full": "2835 N WASHINGTON ST", "addr:postcode": "58503", "addr:state": "ND", "amenity": "post_box", "brand": "United States Postal Service", "brand:wikidata": "Q668687", "collection_times": "Mo-Fr 16:00", "name": "USPS COLLECTION BOX - BLUE BOX", "note": "ON 12/24 AND 12/31, THIS BOX MAY BE COLLECTED AS EARLY AS 12 NOON.", "nsi_id": "unitedstatespostalservice-a77078", "operator": "United States Postal Service", "operator:short": "USPS", "operator:type": "public", "operator:wikidata": "Q668687", "ref": "5850300006"}, "type": "Feature"}
{"dataset_attributes": {"@spider": "usps_collection_boxes", "spider:collection_time": "2023-09-16T08:22:24.198600"}, "geometry": {"coordinates": [-100.775440808, 46.840058749], "type": "Point"}, "id": "c0O_hTs8esD47fYScGpbAbldzZM=", "properties": {"@spider": "usps_collection_boxes", "addr:city": "BISMARCK", "addr:country": "US", "addr:full": "3101 N 11TH ST", "addr:postcode": "58503", "addr:state": "ND", "amenity": "post_box", "brand": "United States Postal Service", "brand:wikidata": "Q668687", "collection_times": "Mo-Sa 16:00", "name": "USPS COLLECTION BOX - BLUE BOX", "note": "ON 12/24 AND 12/31, THIS BOX MAY BE COLLECTED AS EARLY AS 12 NOON.", "nsi_id": "unitedstatespostalservice-a77078", "operator": "United States Postal Service", "operator:short": "USPS", "operator:type": "public", "operator:wikidata": "Q668687", "ref": "5850300007"}, "type": "Feature"}
{"dataset_attributes": {"@spider": "usps_collection_boxes", "spider:collection_time": "2023-09-16T08:22:24.198600"}, "geometry": {"coordinates": [-100.762250334, 46.838398022], "type": "Point"}, "id": "i9R_sP-FbTaFVQI5_4pcdnTx1QA=", "properties": {"@spider": "usps_collection_boxes", "addr:city": "BISMARCK", "addr:country": "US", "addr:full": "2901 N 19TH ST", "addr:postcode": "58503", "addr:state": "ND", "amenity": "post_box", "brand": "United States Postal Service", "brand:wikidata": "Q668687", "collection_times": "Mo-Fr 16:00", "name": "USPS COLLECTION BOX - BLUE BOX", "note": "ON 12/24 AND 12/31, THIS BOX MAY BE COLLECTED AS EARLY AS 12 NOON.", "nsi_id": "unitedstatespostalservice-a77078", "operator": "United States Postal Service", "operator:short": "USPS", "operator:type": "public", "operator:wikidata": "Q668687", "ref": "5850300009"}, "type": "Feature"}
{"dataset_attributes": {"@spider": "usps_collection_boxes", "spider:collection_time": "2023-09-16T08:22:24.198600"}, "geometry": {"coordinates": [-100.775194399, 46.833167358], "type": "Point"}, "id": "JZPMKTDySSfVoYiZQll9AiAViiE=", "properties": {"@spider": "usps_collection_boxes", "addr:city": "BISMARCK", "addr:country": "US", "addr:full": "1051 E INTERSTATE AVE", "addr:postcode": "58503", "addr:state": "ND", "amenity": "post_box", "brand": "United States Postal Service", "brand:wikidata": "Q668687", "collection_times": "Mo-Sa 16:00", "name": "USPS COLLECTION BOX - BLUE BOX", "note": "ON 12/24 AND 12/31, THIS BOX MAY BE COLLECTED AS EARLY AS 12 NOON.", "nsi_id": "unitedstatespostalservice-a77078", "operator": "United States Postal Service", "operator:short": "USPS", "operator:type": "public", "operator:wikidata": "Q668687", "ref": "5850300010"}, "type": "Feature"}
{"dataset_attributes": {"@spider": "usps_collection_boxes", "spider:collection_time": "2023-09-16T08:22:24.198600"}, "geometry": {"coordinates": [-100.7742340866, 46.8329045255], "type": "Point"}, "id": "z7R76PMUMlq0xexAiCGKlGiU4zI=", "properties": {"@spider": "usps_collection_boxes", "addr:city": "BISMARCK", "addr:country": "US", "addr:full": "1051 E INTERSTATE AVE", "addr:postcode": "58503", "addr:state": "ND", "amenity": "post_box", "brand": "United States Postal Service", "brand:wikidata": "Q668687", "collection_times": "Mo-Sa 16:00", "name": "USPS COLLECTION BOX - BLUE BOX", "note": "ON 12/24 AND 12/31, THIS BOX MAY BE COLLECTED AS EARLY AS 12 NOON.", "nsi_id": "unitedstatespostalservice-a77078", "operator": "United States Postal Service", "operator:short": "USPS", "operator:type": "public", "operator:wikidata": "Q668687", "ref": "5850300011"}, "type": "Feature"}
{"dataset_attributes": {"@spider": "usps_collection_boxes", "spider:collection_time": "2023-09-16T08:22:24.198600"}, "geometry": {"coordinates": [-100.768670193, 46.856173526], "type": "Point"}, "id": "cDQYNY-J256717l707GlZugLeO8=", "properties": {"@spider": "usps_collection_boxes", "addr:city": "BISMARCK", "addr:country": "US", "addr:full": "1400 SKYLINE BLVD", "addr:postcode": "58503", "addr:state": "ND", "amenity": "post_box", "brand": "United States Postal Service", "brand:wikidata": "Q668687", "collection_times": "Mo-Sa 11:00", "name": "USPS COLLECTION BOX - BLUE BOX", "nsi_id": "unitedstatespostalservice-a77078", "operator": "United States Postal Service", "operator:short": "USPS", "operator:type": "public", "operator:wikidata": "Q668687", "ref": "5850300012"}, "type": "Feature"}
{"dataset_attributes": {"@spider": "usps_collection_boxes", "spider:collection_time": "2023-09-16T08:22:24.198600"}, "geometry": {"coordinates": [-100.726489686, 46.839554399], "type": "Point"}, "id": "Wo_W_ll5OUdYxSkYhuozDPOIIsA=", "properties": {"@spider": "usps_collection_boxes", "addr:city": "BISMARCK", "addr:country": "US", "addr:full": "3103 YORKTOWN DR", "addr:postcode": "58503", "addr:state": "ND", "amenity": "post_box", "brand": "United States Postal Service", "brand:wikidata": "Q668687", "collection_times": "Mo-Sa 16:30", "name": "USPS COLLECTION BOX - BLUE BOX", "note": "ON 12/24 AND 12/31, THIS BOX MAY BE COLLECTED AS EARLY AS 12 NOON.", "nsi_id": "unitedstatespostalservice-a77078", "operator": "United States Postal Service", "operator:short": "USPS", "operator:type": "public", "operator:wikidata": "Q668687", "ref": "5850300014"}, "type": "Feature"}
{"dataset_attributes": {"@spider": "usps_collection_boxes", "spider:collection_time": "2023-09-16T08:22:24.198600"}, "geometry": {"coordinates": [-100.781790408, 46.79650691], "type": "Point"}, "id": "p_pK_z1kqG-e4Km41SBwpsT9bmM=", "properties": {"@spider": "usps_collection_boxes", "addr:city": "BISMARCK", "addr:country": "US", "addr:full": "919 S 7TH ST", "addr:postcode": "58504", "addr:state": "ND", "amenity": "post_box", "brand": "United States Postal Service", "brand:wikidata": "Q668687", "collection_times": "Mo-Fr 16:30", "name": "USPS COLLECTION BOX - BLUE BOX", "note": "ON 12/24 AND 12/31, THIS BOX MAY BE COLLECTED AS EARLY AS 12 NOON.", "nsi_id": "unitedstatespostalservice-a77078", "operator": "United States Postal Service", "operator:short": "USPS", "operator:type": "public", "operator:wikidata": "Q668687", "ref": "5850400002"}, "type": "Feature"}
{"dataset_attributes": {"@spider": "usps_collection_boxes", "spider:collection_time": "2023-09-16T08:22:24.198600"}, "geometry": {"coordinates": [-100.794452507, 46.796807525], "type": "Point"}, "id": "FScz7R-m0LPvrmCqj9jFWtGfnhA=", "properties": {"@spider": "usps_collection_boxes", "addr:city": "BISMARCK", "addr:country": "US", "addr:full": "835 S WASHINGTON ST", "addr:postcode": "58504", "addr:state": "ND", "amenity": "post_box", "brand": "United States Postal Service", "brand:wikidata": "Q668687", "collection_times": "Mo-Sa 16:15", "name": "USPS COLLECTION BOX - BLUE BOX", "note": "ON 12/24 AND 12/31, THIS BOX MAY BE COLLECTED AS EARLY AS 12 NOON.", "nsi_id": "unitedstatespostalservice-a77078", "operator": "United States Postal Service", "operator:short": "USPS", "operator:type": "public", "operator:wikidata": "Q668687", "ref": "5850400003"}, "type": "Feature"}
{"dataset_attributes": {"@spider": "usps_collection_boxes", "spider:collection_time": "2023-09-16T08:22:24.198600"}, "geometry": {"coordinates": [-100.7567505, 46.794700462], "type": "Point"}, "id": "vKUGa5qV7gaEplmkOYzB-KAMgnU=", "properties": {"@spider": "usps_collection_boxes", "addr:city": "BISMARCK", "addr:country": "US", "addr:full": "2220 E BISMARCK EXPY", "addr:postcode": "58504", "addr:state": "ND", "amenity": "post_box", "brand": "United States Postal Service", "brand:wikidata": "Q668687", "collection_times": "Mo-Sa 19:00", "name": "USPS COLLECTION BOX - BLUE BOX", "note": "ON 12/24 AND 12/31, THIS BOX MAY BE COLLECTED AS EARLY AS 12 NOON.", "nsi_id": "unitedstatespostalservice-a77078", "operator": "United States Postal Service", "operator:short": "USPS", "operator:type": "public", "operator:wikidata": "Q668687", "ref": "5850400010"}, "type": "Feature"}
{"dataset_attributes": {"@spider": "usps_collection_boxes", "spider:collection_time": "2023-09-16T08:22:24.198600"}, "geometry": {"coordinates": [-100.762543889, 46.793053173], "type": "Point"}, "id": "yunuOm1QYVBRss04goKaotcleXQ=", "properties": {"@spider": "usps_collection_boxes", "addr:city": "BISMARCK", "addr:country": "US", "addr:full": "1101 AIRPORT RD", "addr:postcode": "58504", "addr:state": "ND", "amenity": "post_box", "brand": "United States Postal Service", "brand:wikidata": "Q668687", "collection_times": "Mo-Fr 16:30", "name": "USPS COLLECTION BOX - BLUE BOX", "note": "ON 12/24 AND 12/31, THIS BOX MAY BE COLLECTED AS EARLY AS 12 NOON.", "nsi_id": "unitedstatespostalservice-a77078", "operator": "United States Postal Service", "operator:short": "USPS", "operator:type": "public", "operator:wikidata": "Q668687", "ref": "5850400013"}, "type": "Feature"}
{"dataset_attributes": {"@spider": "usps_collection_boxes", "spider:collection_time": "2023-09-16T08:22:24.198600"}, "geometry": {"coordinates": [-100.773380408, 46.793681801], "type": "Point"}, "id": "FaA4VfH5AwLHby5R6ceQL2k7Vvc=", "properties": {"@spider": "usps_collection_boxes", "addr:city": "BISMARCK", "addr:country": "US", "addr:full": "1101 S 12TH ST", "addr:postcode": "58504", "addr:state": "ND", "amenity": "post_box", "brand": "United States Postal Service", "brand:wikidata": "Q668687", "collection_times": "Mo-Fr 16:30", "name": "USPS COLLECTION BOX - BLUE BOX", "note": "ON 12/24 AND 12/31, THIS BOX MAY BE COLLECTED AS EARLY AS 12 NOON.", "nsi_id": "unitedstatespostalservice-a77078", "operator": "United States Postal Service", "operator:short": "USPS", "operator:type": "public", "operator:wikidata": "Q668687", "ref": "5850400014"}, "type": "Feature"}
{"dataset_attributes": {"@spider": "usps_collection_boxes", "spider:collection_time": "2023-09-16T08:22:24.198600"}, "geometry": {"coordinates": [-100.76207798, 46.799319413], "type": "Point"}, "id": "dRANuon2Zk-mHbVJd-T0mNKiwUM=", "properties": {"@spider": "usps_collection_boxes", "addr:city": "BISMARCK", "addr:country": "US", "addr:full": "539 AIRPORT RD", "addr:postcode": "58504", "addr:state": "ND", "amenity": "post_box", "brand": "United States Postal Service", "brand:wikidata": "Q668687", "collection_times": "Mo-Fr 16:30", "name": "USPS COLLECTION BOX - BLUE BOX", "note": "ON 12/24 AND 12/31, THIS BOX MAY BE COLLECTED AS EARLY AS 12 NOON.", "nsi_id": "unitedstatespostalservice-a77078", "operator": "United States Postal Service", "operator:short": "USPS", "operator:type": "public", "operator:wikidata": "Q668687", "ref": "5850400016"}, "type": "Feature"}
{"dataset_attributes": {"@spider": "usps_collection_boxes", "spider:collection_time": "2023-09-16T08:22:24.198600"}, "geometry": {"coordinates": [-100.774257423, 46.794956403], "type": "Point"}, "id": "C-Ui_dSauWyAzyJ6JI2u_WregeM=", "properties": {"@spider": "usps_collection_boxes", "addr:city": "BISMARCK", "addr:country": "US", "addr:full": "1144 E BISMARCK EXPY", "addr:postcode": "58504", "addr:state": "ND", "amenity": "post_box", "brand": "United States Postal Service", "brand:wikidata": "Q668687", "collection_times": "Mo-Sa 16:30", "name": "USPS COLLECTION BOX - BLUE BOX", "note": "ON 12/24 AND 12/31, THIS BOX MAY BE COLLECTED AS EARLY AS 12 NOON.", "nsi_id": "unitedstatespostalservice-a77078", "operator": "United States Postal Service", "operator:short": "USPS", "operator:type": "public", "operator:wikidata": "Q668687", "ref": "5850400017"}, "type": "Feature"}
{"dataset_attributes": {"@spider": "usps_collection_boxes", "spider:collection_time": "2023-09-16T08:22:24.198600"}, "geometry": {"coordinates": [-100.784030418, 46.798104494], "type": "Point"}, "id": "3WAw_OVGusk-lX6BgkVY6TaWA0M=", "properties": {"@spider": "usps_collection_boxes", "addr:city": "BISMARCK", "addr:country": "US", "addr:full": "601 KIRKWOOD MALL", "addr:postcode": "58504", "addr:state": "ND", "amenity": "post_box", "brand": "United States Postal Service", "brand:wikidata": "Q668687", "collection_times": "Mo-Fr 12:00; Sa 11:00", "name": "USPS COLLECTION BOX - BLUE BOX", "nsi_id": "unitedstatespostalservice-a77078", "operator": "United States Postal Service", "operator:short": "USPS", "operator:type": "public", "operator:wikidata": "Q668687", "ref": "5850400022"}, "type": "Feature"}
{"dataset_attributes": {"@spider": "usps_collection_boxes", "spider:collection_time": "2023-09-16T08:22:24.198600"}, "geometry": {"coordinates": [-100.801470945, 46.805584507], "type": "Point"}, "id": "gYsU6eubmrV3keUZt5mJc2PmIoI=", "properties": {"@spider": "usps_collection_boxes", "addr:city": "BISMARCK", "addr:country": "US", "addr:full": "723 MEMORIAL HWY", "addr:postcode": "58504", "addr:state": "ND", "amenity": "post_box", "brand": "United States Postal Service", "brand:wikidata": "Q668687", "collection_times": "Mo-Fr 15:45", "name": "USPS COLLECTION BOX - BLUE BOX", "note": "ON 12/24 AND 12/31, THIS BOX MAY BE COLLECTED AS EARLY AS 12 NOON.", "nsi_id": "unitedstatespostalservice-a77078", "operator": "United States Postal Service", "operator:short": "USPS", "operator:type": "public", "operator:wikidata": "Q668687", "ref": "5850400024"}, "type": "Feature"}
{"dataset_attributes": {"@spider": "usps_collection_boxes", "spider:collection_time": "2023-09-16T08:22:24.198600"}, "geometry": {"coordinates": [-100.794580111, 46.793915162], "type": "Point"}, "id": "juUu6gultKPAANwN30USCBtoxxs=", "properties": {"@spider": "usps_collection_boxes", "addr:city": "BISMARCK", "addr:country": "US", "addr:full": "1020 S WASHINGTON ST", "addr:postcode": "58504", "addr:state": "ND", "amenity": "post_box", "brand": "United States Postal Service", "brand:wikidata": "Q668687", "collection_times": "Mo-Fr 16:30", "name": "USPS COLLECTION BOX - BLUE BOX", "note": "ON 12/24 AND 12/31, THIS BOX MAY BE COLLECTED AS EARLY AS 12 NOON.", "nsi_id": "unitedstatespostalservice-a77078", "operator": "United States Postal Service", "operator:short": "USPS", "operator:type": "public", "operator:wikidata": "Q668687", "ref": "5850400030"}, "type": "Feature"}
{"dataset_attributes": {"@spider": "usps_collection_boxes", "spider:collection_time": "2023-09-16T08:22:24.198600"}, "geometry": {"coordinates": [-100.78983194, 46.799338042], "type": "Point"}, "id": "6VVefNsfsq351XVz7TWHC3Qm9_k=", "properties": {"@spider": "usps_collection_boxes", "addr:city": "BISMARCK", "addr:country": "US", "addr:full": "600 S 2ND ST", "addr:postcode": "58504", "addr:state": "ND", "amenity": "post_box", "brand": "United States Postal Service", "brand:wikidata": "Q668687", "collection_times": "Mo-Fr 15:45", "name": "USPS COLLECTION BOX - BLUE BOX", "note": "ON 12/24 AND 12/31, THIS BOX MAY BE COLLECTED AS EARLY AS 12 NOON.", "nsi_id": "unitedstatespostalservice-a77078", "operator": "United States Postal Service", "operator:short": "USPS", "operator:type": "public", "operator:wikidata": "Q668687", "ref": "5850400034"}, "type": "Feature"}
{"dataset_attributes": {"@spider": "usps_collection_boxes", "spider:collection_time": "2023-09-16T08:22:24.198600"}, "geometry": {"coordinates": [-100.76311469, 46.77483269], "type": "Point"}, "id": "PpUwG5cwhlxRnnjZfVSIgQMdKiY=", "properties": {"@spider": "usps_collection_boxes", "addr:city": "BISMARCK", "addr:country": "US", "addr:full": "2301 UNIVERSITY DR", "addr:postcode": "58504", "addr:state": "ND", "amenity": "post_box", "brand": "United States Postal Service", "brand:wikidata": "Q668687", "collection_times": "Mo-Sa 11:00", "name": "USPS COLLECTION BOX - BLUE BOX", "nsi_id": "unitedstatespostalservice-a77078", "operator": "United States Postal Service", "operator:short": "USPS", "operator:type": "public", "operator:wikidata": "Q668687", "ref": "5850400035"}, "type": "Feature"}
{"dataset_attributes": {"@spider": "usps_collection_boxes", "spider:collection_time": "2023-09-16T08:22:24.198600"}, "geometry": {"coordinates": [-100.7567505, 46.794700462], "type": "Point"}, "id": "MtBOWuAjnpv04qrg_G6B2RELD9A=", "properties": {"@spider": "usps_collection_boxes", "addr:city": "BISMARCK", "addr:country": "US", "addr:full": "2220 E BISMARCK EXPY", "addr:postcode": "58504", "addr:state": "ND", "amenity": "post_box", "brand": "United States Postal Service", "brand:wikidata": "Q668687", "collection_times": "Mo-Sa 19:00", "name": "USPS COLLECTION BOX - PO LOBBY", "note": "ON 12/24 AND 12/31, THIS BOX MAY BE COLLECTED AS EARLY AS 12 NOON.", "nsi_id": "unitedstatespostalservice-a77078", "operator": "United States Postal Service", "operator:short": "USPS", "operator:type": "public", "operator:wikidata": "Q668687", "ref": "5850400036"}, "type": "Feature"}
{"dataset_attributes": {"@spider": "usps_collection_boxes", "spider:collection_time": "2023-09-16T08:22:24.198600"}, "geometry": {"coordinates": [-100.694190731, 46.765473112], "type": "Point"}, "id": "hmGkl7-X6wxQUamgj06mZ0szfCI=", "properties": {"@spider": "usps_collection_boxes", "addr:city": "BISMARCK", "addr:country": "US", "addr:full": "99 MCDOUGALL DR", "addr:postcode": "58504", "addr:state": "ND", "amenity": "post_box", "brand": "United States Postal Service", "brand:wikidata": "Q668687", "collection_times": "Mo-Sa 11:00", "name": "USPS COLLECTION BOX - BLUE BOX", "nsi_id": "unitedstatespostalservice-a77078", "operator": "United States Postal Service", "operator:short": "USPS", "operator:type": "public", "operator:wikidata": "Q668687", "ref": "5850400037"}, "type": "Feature"}
{"dataset_attributes": {"@spider": "usps_collection_boxes", "spider:collection_time": "2023-09-16T08:22:24.198600"}, "geometry": {"coordinates": [-101.503843235, 46.726681641], "type": "Point"}, "id": "JOz8Uv2klL0Kjhw24WZ3zYq1E_I=", "properties": {"@spider": "usps_collection_boxes", "addr:city": "ALMONT", "addr:country": "US", "addr:full": "206 MAIN ST", "addr:postcode": "58520", "addr:state": "ND", "amenity": "post_box", "brand": "United States Postal Service", "brand:wikidata": "Q668687", "collection_times": "Mo-Sa 12:00", "name": "USPS COLLECTION BOX - BLUE BOX", "nsi_id": "unitedstatespostalservice-a77078", "operator": "United States Postal Service", "operator:short": "USPS", "operator:type": "public", "operator:wikidata": "Q668687", "ref": "5852000000"}, "type": "Feature"}
{"dataset_attributes": {"@spider": "usps_collection_boxes", "spider:collection_time": "2023-09-16T08:22:24.198600"}, "geometry": {"coordinates": [-101.503843235, 46.726681641], "type": "Point"}, "id": "y7o60Y6LoaxFt12fIsXx0Wu-dNg=", "properties": {"@spider": "usps_collection_boxes", "addr:city": "ALMONT", "addr:country": "US", "addr:full": "206 MAIN ST", "addr:postcode": "58520", "addr:state": "ND", "amenity": "post_box", "brand": "United States Postal Service", "brand:wikidata": "Q668687", "collection_times": "Mo-Sa 12:00", "name": "USPS COLLECTION BOX - PO LOBBY", "nsi_id": "unitedstatespostalservice-a77078", "operator": "United States Postal Service", "operator:short": "USPS", "operator:type": "public", "operator:wikidata": "Q668687", "ref": "5852000001"}, "type": "Feature"}
{"dataset_attributes": {"@spider": "usps_collection_boxes", "spider:collection_time": "2023-09-16T08:22:24.198600"}, "geometry": {"coordinates": [-101.503843235, 46.726681641], "type": "Point"}, "id": "g2FgogGaxjzfj66grMyu-7lOncQ=", "properties": {"@spider": "usps_collection_boxes", "addr:city": "ALMONT", "addr:country": "US", "addr:full": "206 MAIN ST", "addr:postcode": "58520", "addr:state": "ND", "amenity": "post_box", "brand": "United States Postal Service", "brand:wikidata": "Q668687", "collection_times": "Mo-Sa 11:50", "name": "USPS COLLECTION BOX - PO LOBBY", "nsi_id": "unitedstatespostalservice-a77078", "operator": "United States Postal Service", "operator:short": "USPS", "operator:type": "public", "operator:wikidata": "Q668687", "ref": "5852000002"}, "type": "Feature"}
{"dataset_attributes": {"@spider": "usps_collection_boxes", "spider:collection_time": "2023-09-16T08:22:24.198600"}, "geometry": {"coordinates": [-100.749366078, 47.026646196], "type": "Point"}, "id": "OJMQ6fnnAE4kIPbZpKqgJ7GEQWM=", "properties": {"@spider": "usps_collection_boxes", "addr:city": "BALDWIN", "addr:country": "US", "addr:full": "20101 26TH ST NE", "addr:postcode": "58521", "addr:state": "ND", "amenity": "post_box", "brand": "United States Postal Service", "brand:wikidata": "Q668687", "collection_times": "Mo-Fr 17:15; Sa 11:15", "name": "USPS COLLECTION BOX - PO LOBBY", "note": "ON 12/24 AND 12/31, THIS BOX MAY BE COLLECTED AS EARLY AS 12 NOON.", "nsi_id": "unitedstatespostalservice-a77078", "operator": "United States Postal Service", "operator:short": "USPS", "operator:type": "public", "operator:wikidata": "Q668687", "ref": "5852100002"}, "type": "Feature"}
{"dataset_attributes": {"@spider": "usps_collection_boxes", "spider:collection_time": "2023-09-16T08:22:24.198600"}, "geometry": {"coordinates": [-100.749366078, 47.026646196], "type": "Point"}, "id": "Xm4zlAHZtskTi5R3nK-Jgr4zAeo=", "properties": {"@spider": "usps_collection_boxes", "addr:city": "BALDWIN", "addr:country": "US", "addr:full": "20101 26TH ST NE", "addr:postcode": "58521", "addr:state": "ND", "amenity": "post_box", "brand": "United States Postal Service", "brand:wikidata": "Q668687", "collection_times": "Mo-Fr 17:05; Sa 11:05", "name": "USPS COLLECTION BOX - PO LOBBY", "note": "ON 12/24 AND 12/31, THIS BOX MAY BE COLLECTED AS EARLY AS 12 NOON.", "nsi_id": "unitedstatespostalservice-a77078", "operator": "United States Postal Service", "operator:short": "USPS", "operator:type": "public", "operator:wikidata": "Q668687", "ref": "5852100003"}, "type": "Feature"}
{"dataset_attributes": {"@spider": "usps_collection_boxes", "spider:collection_time": "2023-09-16T08:22:24.198600"}, "geometry": {"coordinates": [-101.777202168, 47.263441485], "type": "Point"}, "id": "UZtuvTeiuewdxgyRX1pmSojIk5k=", "properties": {"@spider": "usps_collection_boxes", "addr:city": "BEULAH", "addr:country": "US", "addr:full": "111 E MAIN ST", "addr:postcode": "58523", "addr:state": "ND", "amenity": "post_box", "brand": "United States Postal Service", "brand:wikidata": "Q668687", "collection_times": "Mo-Sa 14:45", "name": "USPS COLLECTION BOX - BLUE BOX", "note": "ON 12/24 AND 12/31, THIS BOX MAY BE COLLECTED AS EARLY AS 12 NOON.", "nsi_id": "unitedstatespostalservice-a77078", "operator": "United States Postal Service", "operator:short": "USPS", "operator:type": "public", "operator:wikidata": "Q668687", "ref": "5852300001"}, "type": "Feature"}
{"dataset_attributes": {"@spider": "usps_collection_boxes", "spider:collection_time": "2023-09-16T08:22:24.198600"}, "geometry": {"coordinates": [-101.777202168, 47.263441485], "type": "Point"}, "id": "Am6AaCHbknQm_bMG6Er_9M-4oMc=", "properties": {"@spider": "usps_collection_boxes", "addr:city": "BEULAH", "addr:country": "US", "addr:full": "111 E MAIN ST", "addr:postcode": "58523", "addr:state": "ND", "amenity": "post_box", "brand": "United States Postal Service", "brand:wikidata": "Q668687", "collection_times": "Mo-Fr 14:45; Sa 11:00", "name": "USPS COLLECTION BOX - PO LOBBY", "note": "ON 12/24 AND 12/31, THIS BOX MAY BE COLLECTED AS EARLY AS 12 NOON.", "nsi_id": "unitedstatespostalservice-a77078", "operator": "United States Postal Service", "operator:short": "USPS", "operator:type": "public", "operator:wikidata": "Q668687", "ref": "5852300002"}, "type": "Feature"}
{"dataset_attributes": {"@spider": "usps_collection_boxes", "spider:collection_time": "2023-09-16T08:22:24.198600"}, "geometry": {"coordinates": [-101.777202168, 47.263441485], "type": "Point"}, "id": "eQpcBDlSvGd_gTSzEYvHtt884pk=", "properties": {"@spider": "usps_collection_boxes", "addr:city": "BEULAH", "addr:country": "US", "addr:full": "111 E MAIN ST", "addr:postcode": "58523", "addr:state": "ND", "amenity": "post_box", "brand": "United States Postal Service", "brand:wikidata": "Q668687", "collection_times": "Mo-Fr 14:35; Sa 10:50", "name": "USPS COLLECTION BOX - PO LOBBY", "note": "ON 12/24 AND 12/31, THIS BOX MAY BE COLLECTED AS EARLY AS 12 NOON.", "nsi_id": "unitedstatespostalservice-a77078", "operator": "United States Postal Service", "operator:short": "USPS", "operator:type": "public", "operator:wikidata": "Q668687", "ref": "5852300004"}, "type": "Feature"}
{"dataset_attributes": {"@spider": "usps_collection_boxes", "spider:collection_time": "2023-09-16T08:22:24.198600"}, "geometry": {"coordinates": [-101.565789175, 46.421636178], "type": "Point"}, "id": "oeGU1VWpnFNYfAleRR4tWQ998BU=", "properties": {"@spider": "usps_collection_boxes", "addr:city": "CARSON", "addr:country": "US", "addr:full": "217 N MAIN ST", "addr:postcode": "58529", "addr:state": "ND", "amenity": "post_box", "brand": "United States Postal Service", "brand:wikidata": "Q668687", "collection_times": "Mo-Sa 14:45", "name": "USPS COLLECTION BOX - BLUE BOX", "note": "ON 12/24 AND 12/31, THIS BOX MAY BE COLLECTED AS EARLY AS 12 NOON.", "nsi_id": "unitedstatespostalservice-a77078", "operator": "United States Postal Service", "operator:short": "USPS", "operator:type": "public", "operator:wikidata": "Q668687", "ref": "5852900001"}, "type": "Feature"}
{"dataset_attributes": {"@spider": "usps_collection_boxes", "spider:collection_time": "2023-09-16T08:22:24.198600"}, "geometry": {"coordinates": [-101.565789175, 46.421636178], "type": "Point"}, "id": "kzqYtloRQt14RnBjixdeB9ozr0g=", "properties": {"@spider": "usps_collection_boxes", "addr:city": "CARSON", "addr:country": "US", "addr:full": "217 N MAIN ST", "addr:postcode": "58529", "addr:state": "ND", "amenity": "post_box", "brand": "United States Postal Service", "brand:wikidata": "Q668687", "collection_times": "Mo-Fr 14:45; Sa 09:45", "name": "USPS COLLECTION BOX - PO LOBBY", "note": "ON 12/24 AND 12/31, THIS BOX MAY BE COLLECTED AS EARLY AS 12 NOON.", "nsi_id": "unitedstatespostalservice-a77078", "operator": "United States Postal Service", "operator:short": "USPS", "operator:type": "public", "operator:wikidata": "Q668687", "ref": "5852900002"}, "type": "Feature"}
{"dataset_attributes": {"@spider": "usps_collection_boxes", "spider:collection_time": "2023-09-16T08:22:24.198600"}, "geometry": {"coordinates": [-101.565789175, 46.421636178], "type": "Point"}, "id": "xUh0H5EBPj7gO3J0mNDheRbjMSc=", "properties": {"@spider": "usps_collection_boxes", "addr:city": "CARSON", "addr:country": "US", "addr:full": "217 N MAIN ST", "addr:postcode": "58529", "addr:state": "ND", "amenity": "post_box", "brand": "United States Postal Service", "brand:wikidata": "Q668687", "collection_times": "Mo-Fr 14:45; Sa 09:45", "name": "USPS COLLECTION BOX - PO LOBBY", "note": "ON 12/24 AND 12/31, THIS BOX MAY BE COLLECTED AS EARLY AS 12 NOON.", "nsi_id": "unitedstatespostalservice-a77078", "operator": "United States Postal Service", "operator:short": "USPS", "operator:type": "public", "operator:wikidata": "Q668687", "ref": "5852900004"}, "type": "Feature"}
{"dataset_attributes": {"@spider": "usps_collection_boxes", "spider:collection_time": "2023-09-16T08:22:24.198600"}, "geometry": {"coordinates": [-101.299581798, 47.114680589], "type": "Point"}, "id": "xx9Ot93E0pL-l5R8vukof8nsgU8=", "properties": {"@spider": "usps_collection_boxes", "addr:city": "CENTER", "addr:country": "US", "addr:full": "115 S CENTER AVE", "addr:postcode": "58530", "addr:state": "ND", "amenity": "post_box", "brand": "United States Postal Service", "brand:wikidata": "Q668687", "collection_times": "Mo-Sa 16:00", "name": "USPS COLLECTION BOX - BLUE BOX", "note": "ON 12/24 AND 12/31, THIS BOX MAY BE COLLECTED AS EARLY AS 12 NOON.", "nsi_id": "unitedstatespostalservice-a77078", "operator": "United States Postal Service", "operator:short": "USPS", "operator:type": "public", "operator:wikidata": "Q668687", "ref": "5853000002"}, "type": "Feature"}
{"dataset_attributes": {"@spider": "usps_collection_boxes", "spider:collection_time": "2023-09-16T08:22:24.198600"}, "geometry": {"coordinates": [-101.299581798, 47.114680589], "type": "Point"}, "id": "lo5R9lCDZyENleXwemQrQFF5S-w=", "properties": {"@spider": "usps_collection_boxes", "addr:city": "CENTER", "addr:country": "US", "addr:full": "115 S CENTER AVE", "addr:postcode": "58530", "addr:state": "ND", "amenity": "post_box", "brand": "United States Postal Service", "brand:wikidata": "Q668687", "collection_times": "Mo-Fr 15:00; Sa 10:00", "name": "USPS COLLECTION BOX - PO LOBBY", "note": "ON 12/24 AND 12/31, THIS BOX MAY BE COLLECTED AS EARLY AS 12 NOON.", "nsi_id": "unitedstatespostalservice-a77078", "operator": "United States Postal Service", "operator:short": "USPS", "operator:type": "public", "operator:wikidata": "Q668687", "ref": "5853000003"}, "type": "Feature"}
{"dataset_attributes": {"@spider": "usps_collection_boxes", "spider:collection_time": "2023-09-16T08:22:24.198600"}, "geometry": {"coordinates": [-101.299581798, 47.114680589], "type": "Point"}, "id": "7jNUVoO-WP-pFpMofgrTxH1JUcU=", "properties": {"@spider": "usps_collection_boxes", "addr:city": "CENTER", "addr:country": "US", "addr:full": "115 S CENTER AVE", "addr:postcode": "58530", "addr:state": "ND", "amenity": "post_box", "brand": "United States Postal Service", "brand:wikidata": "Q668687", "collection_times": "Mo-Fr 15:00; Sa 10:00", "name": "USPS COLLECTION BOX - PO LOBBY", "note": "ON 12/24 AND 12/31, THIS BOX MAY BE COLLECTED AS EARLY AS 12 NOON.", "nsi_id": "unitedstatespostalservice-a77078", "operator": "United States Postal Service", "operator:short": "USPS", "operator:type": "public", "operator:wikidata": "Q668687", "ref": "5853000004"}, "type": "Feature"}
{"dataset_attributes": {"@spider": "usps_collection_boxes", "spider:collection_time": "2023-09-16T08:22:24.198600"}, "geometry": {"coordinates": [-101.222440678, 47.542887], "type": "Point"}, "id": "HPUxBEfiuWJ5ATaRexvoSS9hQ7Y=", "properties": {"@spider": "usps_collection_boxes", "addr:city": "COLEHARBOR", "addr:country": "US", "addr:full": "123 MAIN ST", "addr:postcode": "58531", "addr:state": "ND", "amenity": "post_box", "brand": "United States Postal Service", "brand:wikidata": "Q668687", "collection_times": "Mo-Sa 15:20", "name": "USPS COLLECTION BOX - BLUE BOX", "note": "ON 12/24 AND 12/31, THIS BOX MAY BE COLLECTED AS EARLY AS 12 NOON.", "nsi_id": "unitedstatespostalservice-a77078", "operator": "United States Postal Service", "operator:short": "USPS", "operator:type": "public", "operator:wikidata": "Q668687", "ref": "5853100001"}, "type": "Feature"}
{"dataset_attributes": {"@spider": "usps_collection_boxes", "spider:collection_time": "2023-09-16T08:22:24.198600"}, "geometry": {"coordinates": [-101.222440678, 47.542887], "type": "Point"}, "id": "pftn3RHAyAvsfRsCs1XytuXe2dU=", "properties": {"@spider": "usps_collection_boxes", "addr:city": "COLEHARBOR", "addr:country": "US", "addr:full": "123 MAIN ST", "addr:postcode": "58531", "addr:state": "ND", "amenity": "post_box", "brand": "United States Postal Service", "brand:wikidata": "Q668687", "collection_times": "Mo-Fr 15:00; Sa 13:30", "name": "USPS COLLECTION BOX - PO LOBBY", "note": "ON 12/24 AND 12/31, THIS BOX MAY BE COLLECTED AS EARLY AS 12 NOON.", "nsi_id": "unitedstatespostalservice-a77078", "operator": "United States Postal Service", "operator:short": "USPS", "operator:type": "public", "operator:wikidata": "Q668687", "ref": "5853100002"}, "type": "Feature"}
{"dataset_attributes": {"@spider": "usps_collection_boxes", "spider:collection_time": "2023-09-16T08:22:24.198600"}, "geometry": {"coordinates": [-101.845282852, 46.404232255], "type": "Point"}, "id": "fi-pRLrqbUa8o0EVQMp0RUciW9k=", "properties": {"@spider": "usps_collection_boxes", "addr:city": "ELGIN", "addr:country": "US", "addr:full": "213 N MAIN ST", "addr:postcode": "58533", "addr:state": "ND", "amenity": "post_box", "brand": "United States Postal Service", "brand:wikidata": "Q668687", "collection_times": "Mo-Sa 14:25", "name": "USPS COLLECTION BOX - BLUE BOX", "note": "ON 12/24 AND 12/31, THIS BOX MAY BE COLLECTED AS EARLY AS 12 NOON.", "nsi_id": "unitedstatespostalservice-a77078", "operator": "United States Postal Service", "operator:short": "USPS", "operator:type": "public", "operator:wikidata": "Q668687", "ref": "5853300001"}, "type": "Feature"}
{"dataset_attributes": {"@spider": "usps_collection_boxes", "spider:collection_time": "2023-09-16T08:22:24.198600"}, "geometry": {"coordinates": [-101.845282852, 46.404232255], "type": "Point"}, "id": "doKR4sgLLtRy0JvlQLQ9UQmZ3g4=", "properties": {"@spider": "usps_collection_boxes", "addr:city": "ELGIN", "addr:country": "US", "addr:full": "213 N MAIN ST", "addr:postcode": "58533", "addr:state": "ND", "amenity": "post_box", "brand": "United States Postal Service", "brand:wikidata": "Q668687", "collection_times": "Mo-Fr 14:25; Sa 09:30", "name": "USPS COLLECTION BOX - PO LOBBY", "note": "ON 12/24 AND 12/31, THIS BOX MAY BE COLLECTED AS EARLY AS 12 NOON.", "nsi_id": "unitedstatespostalservice-a77078", "operator": "United States Postal Service", "operator:short": "USPS", "operator:type": "public", "operator:wikidata": "Q668687", "ref": "5853300002"}, "type": "Feature"}
{"dataset_attributes": {"@spider": "usps_collection_boxes", "spider:collection_time": "2023-09-16T08:22:24.198600"}, "geometry": {"coordinates": [-101.232083141, 46.453662335], "type": "Point"}, "id": "Ng5PcjJtRpbSeXMyZkVndZWiSO4=", "properties": {"@spider": "usps_collection_boxes", "addr:city": "FLASHER", "addr:country": "US", "addr:full": "107 N MAIN ST", "addr:postcode": "58535", "addr:state": "ND", "amenity": "post_box", "brand": "United States Postal Service", "brand:wikidata": "Q668687", "collection_times": "Mo-Sa 16:15", "name": "USPS COLLECTION BOX - BLUE BOX", "note": "ON 12/24 AND 12/31, THIS BOX MAY BE COLLECTED AS EARLY AS 12 NOON.", "nsi_id": "unitedstatespostalservice-a77078", "operator": "United States Postal Service", "operator:short": "USPS", "operator:type": "public", "operator:wikidata": "Q668687", "ref": "5853500001"}, "type": "Feature"}
{"dataset_attributes": {"@spider": "usps_collection_boxes", "spider:collection_time": "2023-09-16T08:22:24.198600"}, "geometry": {"coordinates": [-101.232083141, 46.453662335], "type": "Point"}, "id": "NYbXxwpU0up9uhbXbSIrGzs9YjU=", "properties": {"@spider": "usps_collection_boxes", "addr:city": "FLASHER", "addr:country": "US", "addr:full": "107 N MAIN ST", "addr:postcode": "58535", "addr:state": "ND", "amenity": "post_box", "brand": "United States Postal Service", "brand:wikidata": "Q668687", "collection_times": "Mo-Fr 15:25; Sa 08:40", "name": "USPS COLLECTION BOX - PO LOBBY", "note": "ON 12/24 AND 12/31, THIS BOX MAY BE COLLECTED AS EARLY AS 12 NOON.", "nsi_id": "unitedstatespostalservice-a77078", "operator": "United States Postal Service", "operator:short": "USPS", "operator:type": "public", "operator:wikidata": "Q668687", "ref": "5853500002"}, "type": "Feature"}
{"dataset_attributes": {"@spider": "usps_collection_boxes", "spider:collection_time": "2023-09-16T08:22:24.198600"}, "geometry": {"coordinates": [-101.232083141, 46.453662335], "type": "Point"}, "id": "8UGqVfGUN_mcK4Xd3a9eTwSD5o4=", "properties": {"@spider": "usps_collection_boxes", "addr:city": "FLASHER", "addr:country": "US", "addr:full": "107 N MAIN ST", "addr:postcode": "58535", "addr:state": "ND", "amenity": "post_box", "brand": "United States Postal Service", "brand:wikidata": "Q668687", "collection_times": "Mo-Fr 15:25; Sa 08:40", "name": "USPS COLLECTION BOX - PO LOBBY", "note": "ON 12/24 AND 12/31, THIS BOX MAY BE COLLECTED AS EARLY AS 12 NOON.", "nsi_id": "unitedstatespostalservice-a77078", "operator": "United States Postal Service", "operator:short": "USPS", "operator:type": "public", "operator:wikidata": "Q668687", "ref": "5853500007"}, "type": "Feature"}
{"dataset_attributes": {"@spider": "usps_collection_boxes", "spider:collection_time": "2023-09-16T08:22:24.198600"}, "geometry": {"coordinates": [-100.627937363, 46.08663272], "type": "Point"}, "id": "Tk_Alau11NZ0W3ddaQtc9J0CMJI=", "properties": {"@spider": "usps_collection_boxes", "addr:city": "FT YATES", "addr:country": "US", "addr:full": "110 S RIVER RD", "addr:postcode": "58538", "addr:state": "ND", "amenity": "post_box", "brand": "United States Postal Service", "brand:wikidata": "Q668687", "collection_times": "Mo-Sa 15:20", "name": "USPS COLLECTION BOX - BLUE BOX", "note": "ON 12/24 AND 12/31, THIS BOX MAY BE COLLECTED AS EARLY AS 12 NOON.", "nsi_id": "unitedstatespostalservice-a77078", "operator": "United States Postal Service", "operator:short": "USPS", "operator:type": "public", "operator:wikidata": "Q668687", "ref": "5853800001"}, "type": "Feature"}
{"dataset_attributes": {"@spider": "usps_collection_boxes", "spider:collection_time": "2023-09-16T08:22:24.198600"}, "geometry": {"coordinates": [-100.627937363, 46.08663272], "type": "Point"}, "id": "gLbxw_zAEu7KDivXN90e-rM_OHg=", "properties": {"@spider": "usps_collection_boxes", "addr:city": "FT YATES", "addr:country": "US", "addr:full": "110 S RIVER RD", "addr:postcode": "58538", "addr:state": "ND", "amenity": "post_box", "brand": "United States Postal Service", "brand:wikidata": "Q668687", "collection_times": "Mo-Fr 15:20; Sa 10:30", "name": "USPS COLLECTION BOX - PO LOBBY", "note": "ON 12/24 AND 12/31, THIS BOX MAY BE COLLECTED AS EARLY AS 12 NOON.", "nsi_id": "unitedstatespostalservice-a77078", "operator": "United States Postal Service", "operator:short": "USPS", "operator:type": "public", "operator:wikidata": "Q668687", "ref": "5853800002"}, "type": "Feature"}
{"dataset_attributes": {"@spider": "usps_collection_boxes", "spider:collection_time": "2023-09-16T08:22:24.198600"}, "geometry": {"coordinates": [-101.418624168, 47.652444512], "type": "Point"}, "id": "2vkGQ8E1TrYcpTO2RvG_hIqaN0s=", "properties": {"@spider": "usps_collection_boxes", "addr:city": "GARRISON", "addr:country": "US", "addr:full": "33 1ST AVE NW", "addr:postcode": "58540", "addr:state": "ND", "amenity": "post_box", "brand": "United States Postal Service", "brand:wikidata": "Q668687", "collection_times": "Mo-Sa 14:45", "name": "USPS COLLECTION BOX - BLUE BOX", "note": "ON 12/24 AND 12/31, THIS BOX MAY BE COLLECTED AS EARLY AS 12 NOON.", "nsi_id": "unitedstatespostalservice-a77078", "operator": "United States Postal Service", "operator:short": "USPS", "operator:type": "public", "operator:wikidata": "Q668687", "ref": "5854000001"}, "type": "Feature"}
{"dataset_attributes": {"@spider": "usps_collection_boxes", "spider:collection_time": "2023-09-16T08:22:24.198600"}, "geometry": {"coordinates": [-101.418624168, 47.652444512], "type": "Point"}, "id": "W4SYM_DCX58JeFSjUYjjAr3VqbU=", "properties": {"@spider": "usps_collection_boxes", "addr:city": "GARRISON", "addr:country": "US", "addr:full": "33 1ST AVE NW", "addr:postcode": "58540", "addr:state": "ND", "amenity": "post_box", "brand": "United States Postal Service", "brand:wikidata": "Q668687", "collection_times": "Mo-Fr 14:45; Sa 12:00", "name": "USPS COLLECTION BOX - PO LOBBY", "note": "ON 12/24 AND 12/31, THIS BOX MAY BE COLLECTED AS EARLY AS 12 NOON.", "nsi_id": "unitedstatespostalservice-a77078", "operator": "United States Postal Service", "operator:short": "USPS", "operator:type": "public", "operator:wikidata": "Q668687", "ref": "5854000003"}, "type": "Feature"}
{"dataset_attributes": {"@spider": "usps_collection_boxes", "spider:collection_time": "2023-09-16T08:22:24.198600"}, "geometry": {"coordinates": [-102.06493178, 47.2897005], "type": "Point"}, "id": "8FKpGAFn98759uUni01m78vBmfo=", "properties": {"@spider": "usps_collection_boxes", "addr:city": "GOLDEN VALLEY", "addr:country": "US", "addr:full": "13 MAIN ST W", "addr:postcode": "58541", "addr:state": "ND", "amenity": "post_box", "brand": "United States Postal Service", "brand:wikidata": "Q668687", "collection_times": "Mo-Sa 13:45", "name": "USPS COLLECTION BOX - BLUE BOX", "note": "ON 12/24 AND 12/31, THIS BOX MAY BE COLLECTED AS EARLY AS 12 NOON.", "nsi_id": "unitedstatespostalservice-a77078", "operator": "United States Postal Service", "operator:short": "USPS", "operator:type": "public", "operator:wikidata": "Q668687", "ref": "5854100001"}, "type": "Feature"}
{"dataset_attributes": {"@spider": "usps_collection_boxes", "spider:collection_time": "2023-09-16T08:22:24.198600"}, "geometry": {"coordinates": [-102.06493178, 47.2897005], "type": "Point"}, "id": "yz6USJqbHs6R1LLkN13KSz5RI88=", "properties": {"@spider": "usps_collection_boxes", "addr:city": "GOLDEN VALLEY", "addr:country": "US", "addr:full": "13 MAIN ST W", "addr:postcode": "58541", "addr:state": "ND", "amenity": "post_box", "brand": "United States Postal Service", "brand:wikidata": "Q668687", "collection_times": "Mo-Fr 13:45; Sa 12:00", "name": "USPS COLLECTION BOX - PO LOBBY", "note": "ON 12/24 AND 12/31, THIS BOX MAY BE COLLECTED AS EARLY AS 12 NOON.", "nsi_id": "unitedstatespostalservice-a77078", "operator": "United States Postal Service", "operator:short": "USPS", "operator:type": "public", "operator:wikidata": "Q668687", "ref": "5854100002"}, "type": "Feature"}
{"dataset_attributes": {"@spider": "usps_collection_boxes", "spider:collection_time": "2023-09-16T08:22:24.198600"}, "geometry": {"coordinates": [-102.06493178, 47.2897005], "type": "Point"}, "id": "gvQkGRkdOlpQalXBxaDAoV7IHo4=", "properties": {"@spider": "usps_collection_boxes", "addr:city": "GOLDEN VALLEY", "addr:country": "US", "addr:full": "13 MAIN ST W", "addr:postcode": "58541", "addr:state": "ND", "amenity": "post_box", "brand": "United States Postal Service", "brand:wikidata": "Q668687", "collection_times": "Mo-Fr 13:45; Sa 12:00", "name": "USPS COLLECTION BOX - PO LOBBY", "note": "ON 12/24 AND 12/31, THIS BOX MAY BE COLLECTED AS EARLY AS 12 NOON.", "nsi_id": "unitedstatespostalservice-a77078", "operator": "United States Postal Service", "operator:short": "USPS", "operator:type": "public", "operator:wikidata": "Q668687", "ref": "5854100003"}, "type": "Feature"}
{"dataset_attributes": {"@spider": "usps_collection_boxes", "spider:collection_time": "2023-09-16T08:22:24.198600"}, "geometry": {"coordinates": [-99.996567842, 46.028963931], "type": "Point"}, "id": "Wpj2ol0zPYcbbWz_mG3LwTLJdqk=", "properties": {"@spider": "usps_collection_boxes", "addr:city": "HAGUE", "addr:country": "US", "addr:full": "215 MAIN AVE W", "addr:postcode": "58542", "addr:state": "ND", "amenity": "post_box", "brand": "United States Postal Service", "brand:wikidata": "Q668687", "collection_times": "Mo-Sa 13:30", "name": "USPS COLLECTION BOX - BLUE BOX", "note": "ON 12/24 AND 12/31, THIS BOX MAY BE COLLECTED AS EARLY AS 12 NOON.", "nsi_id": "unitedstatespostalservice-a77078", "operator": "United States Postal Service", "operator:short": "USPS", "operator:type": "public", "operator:wikidata": "Q668687", "ref": "5854200001"}, "type": "Feature"}
{"dataset_attributes": {"@spider": "usps_collection_boxes", "spider:collection_time": "2023-09-16T08:22:24.198600"}, "geometry": {"coordinates": [-99.996567842, 46.028963931], "type": "Point"}, "id": "6_F6aysHn7sDtk5jtdhLV-VKVNA=", "properties": {"@spider": "usps_collection_boxes", "addr:city": "HAGUE", "addr:country": "US", "addr:full": "215 MAIN AVE W", "addr:postcode": "58542", "addr:state": "ND", "amenity": "post_box", "brand": "United States Postal Service", "brand:wikidata": "Q668687", "collection_times": "Mo-Fr 13:30", "name": "USPS COLLECTION BOX - PO LOBBY", "note": "ON 12/24 AND 12/31, THIS BOX MAY BE COLLECTED AS EARLY AS 12 NOON.", "nsi_id": "unitedstatespostalservice-a77078", "operator": "United States Postal Service", "operator:short": "USPS", "operator:type": "public", "operator:wikidata": "Q668687", "ref": "5854200002"}, "type": "Feature"}
{"dataset_attributes": {"@spider": "usps_collection_boxes", "spider:collection_time": "2023-09-16T08:22:24.198600"}, "geometry": {"coordinates": [-99.996567842, 46.028963931], "type": "Point"}, "id": "6J_GaIGk0MYgyuy7Ze9Ra942TVY=", "properties": {"@spider": "usps_collection_boxes", "addr:city": "HAGUE", "addr:country": "US", "addr:full": "215 MAIN AVE W", "addr:postcode": "58542", "addr:state": "ND", "amenity": "post_box", "brand": "United States Postal Service", "brand:wikidata": "Q668687", "collection_times": "Mo-Fr 13:30; Sa 11:30", "name": "USPS COLLECTION BOX - PO LOBBY", "note": "ON 12/24 AND 12/31, THIS BOX MAY BE COLLECTED AS EARLY AS 12 NOON.", "nsi_id": "unitedstatespostalservice-a77078", "operator": "United States Postal Service", "operator:short": "USPS", "operator:type": "public", "operator:wikidata": "Q668687", "ref": "5854200003"}, "type": "Feature"}
{"dataset_attributes": {"@spider": "usps_collection_boxes", "spider:collection_time": "2023-09-16T08:22:24.198600"}, "geometry": {"coordinates": [-100.277417003, 46.484839973], "type": "Point"}, "id": "EfodEWUDcywR19Fjk4sCT8vQfy4=", "properties": {"@spider": "usps_collection_boxes", "addr:city": "HAZELTON", "addr:country": "US", "addr:full": "345 MAIN ST", "addr:postcode": "58544", "addr:state": "ND", "amenity": "post_box", "brand": "United States Postal Service", "brand:wikidata": "Q668687", "collection_times": "Mo-Sa 15:40", "name": "USPS COLLECTION BOX - BLUE BOX", "note": "ON 12/24 AND 12/31, THIS BOX MAY BE COLLECTED AS EARLY AS 12 NOON.", "nsi_id": "unitedstatespostalservice-a77078", "operator": "United States Postal Service", "operator:short": "USPS", "operator:type": "public", "operator:wikidata": "Q668687", "ref": "5854400001"}, "type": "Feature"}
{"dataset_attributes": {"@spider": "usps_collection_boxes", "spider:collection_time": "2023-09-16T08:22:24.198600"}, "geometry": {"coordinates": [-100.277417003, 46.484839973], "type": "Point"}, "id": "v9Cy3ThRfFnsSiISQ11FVYNrag8=", "properties": {"@spider": "usps_collection_boxes", "addr:city": "HAZELTON", "addr:country": "US", "addr:full": "345 MAIN ST", "addr:postcode": "58544", "addr:state": "ND", "amenity": "post_box", "brand": "United States Postal Service", "brand:wikidata": "Q668687", "collection_times": "Mo-Fr 15:40; Sa 09:55", "name": "USPS COLLECTION BOX - PO LOBBY", "note": "ON 12/24 AND 12/31, THIS BOX MAY BE COLLECTED AS EARLY AS 12 NOON.", "nsi_id": "unitedstatespostalservice-a77078", "operator": "United States Postal Service", "operator:short": "USPS", "operator:type": "public", "operator:wikidata": "Q668687", "ref": "5854400002"}, "type": "Feature"}
{"dataset_attributes": {"@spider": "usps_collection_boxes", "spider:collection_time": "2023-09-16T08:22:24.198600"}, "geometry": {"coordinates": [-100.2774170028, 46.484839973], "type": "Point"}, "id": "e_Qse7ZGzOq_RzLqOZAlYAlnZP0=", "properties": {"@spider": "usps_collection_boxes", "addr:city": "HAZELTON", "addr:country": "US", "addr:full": "345 MAIN ST", "addr:postcode": "58544", "addr:state": "ND", "amenity": "post_box", "brand": "United States Postal Service", "brand:wikidata": "Q668687", "collection_times": "Mo-Fr 15:40; Sa 09:55", "name": "USPS COLLECTION BOX - PO LOBBY", "note": "ON 12/24 AND 12/31, THIS BOX MAY BE COLLECTED AS EARLY AS 12 NOON.", "nsi_id": "unitedstatespostalservice-a77078", "operator": "United States Postal Service", "operator:short": "USPS", "operator:type": "public", "operator:wikidata": "Q668687", "ref": "5854400003"}, "type": "Feature"}
{"dataset_attributes": {"@spider": "usps_collection_boxes", "spider:collection_time": "2023-09-16T08:22:24.198600"}, "geometry": {"coordinates": [-101.624783478, 47.293803555], "type": "Point"}, "id": "BfByET61Mriz9k439Ba5SeenPv0=", "properties": {"@spider": "usps_collection_boxes", "addr:city": "HAZEN", "addr:country": "US", "addr:full": "13 1ST AVE SW", "addr:postcode": "58545", "addr:state": "ND", "amenity": "post_box", "brand": "United States Postal Service", "brand:wikidata": "Q668687", "collection_times": "Mo-Sa 15:05", "name": "USPS COLLECTION BOX - BLUE BOX", "note": "ON 12/24 AND 12/31, THIS BOX MAY BE COLLECTED AS EARLY AS 12 NOON.", "nsi_id": "unitedstatespostalservice-a77078", "operator": "United States Postal Service", "operator:short": "USPS", "operator:type": "public", "operator:wikidata": "Q668687", "ref": "5854500001"}, "type": "Feature"}
{"dataset_attributes": {"@spider": "usps_collection_boxes", "spider:collection_time": "2023-09-16T08:22:24.198600"}, "geometry": {"coordinates": [-101.624783478, 47.293803555], "type": "Point"}, "id": "YoVC8pLzsjU-CnDXi-tFBf3BVbU=", "properties": {"@spider": "usps_collection_boxes", "addr:city": "HAZEN", "addr:country": "US", "addr:full": "13 1ST AVE SW", "addr:postcode": "58545", "addr:state": "ND", "amenity": "post_box", "brand": "United States Postal Service", "brand:wikidata": "Q668687", "collection_times": "Mo-Fr 15:05; Sa 10:15", "name": "USPS COLLECTION BOX - PO LOBBY", "note": "ON 12/24 AND 12/31, THIS BOX MAY BE COLLECTED AS EARLY AS 12 NOON.", "nsi_id": "unitedstatespostalservice-a77078", "operator": "United States Postal Service", "operator:short": "USPS", "operator:type": "public", "operator:wikidata": "Q668687", "ref": "5854500003"}, "type": "Feature"}
{"dataset_attributes": {"@spider": "usps_collection_boxes", "spider:collection_time": "2023-09-16T08:22:24.198600"}, "geometry": {"coordinates": [-101.624783478, 47.293803555], "type": "Point"}, "id": "kXTbF4u46r9JnZRxk3AWwFlJQic=", "properties": {"@spider": "usps_collection_boxes", "addr:city": "HAZEN", "addr:country": "US", "addr:full": "13 1ST AVE SW", "addr:postcode": "58545", "addr:state": "ND", "amenity": "post_box", "brand": "United States Postal Service", "brand:wikidata": "Q668687", "collection_times": "Mo-Fr 15:05; Sa 10:15", "name": "USPS COLLECTION BOX - PO LOBBY", "note": "ON 12/24 AND 12/31, THIS BOX MAY BE COLLECTED AS EARLY AS 12 NOON.", "nsi_id": "unitedstatespostalservice-a77078", "operator": "United States Postal Service", "operator:short": "USPS", "operator:type": "public", "operator:wikidata": "Q668687", "ref": "5854500005"}, "type": "Feature"}
{"dataset_attributes": {"@spider": "usps_collection_boxes", "spider:collection_time": "2023-09-16T08:22:24.198600"}, "geometry": {"coordinates": [-100.234359019, 46.267092855], "type": "Point"}, "id": "gk-pkIvecPPOdiqe7FSDqQEWcxc=", "properties": {"@spider": "usps_collection_boxes", "addr:city": "LINTON", "addr:country": "US", "addr:full": "115 NW 1ST ST", "addr:postcode": "58552", "addr:state": "ND", "amenity": "post_box", "brand": "United States Postal Service", "brand:wikidata": "Q668687", "collection_times": "Mo-Sa 15:20", "name": "USPS COLLECTION BOX - BLUE BOX", "note": "ON 12/24 AND 12/31, THIS BOX MAY BE COLLECTED AS EARLY AS 12 NOON.", "nsi_id": "unitedstatespostalservice-a77078", "operator": "United States Postal Service", "operator:short": "USPS", "operator:type": "public", "operator:wikidata": "Q668687", "ref": "5855200001"}, "type": "Feature"}
{"dataset_attributes": {"@spider": "usps_collection_boxes", "spider:collection_time": "2023-09-16T08:22:24.198600"}, "geometry": {"coordinates": [-100.234359019, 46.267092855], "type": "Point"}, "id": "1FTanrgPXVYrvgpEVer3wzb8gqI=", "properties": {"@spider": "usps_collection_boxes", "addr:city": "LINTON", "addr:country": "US", "addr:full": "115 NW 1ST ST", "addr:postcode": "58552", "addr:state": "ND", "amenity": "post_box", "brand": "United States Postal Service", "brand:wikidata": "Q668687", "collection_times": "Mo-Fr 15:20; Sa 09:55", "name": "USPS COLLECTION BOX - PO LOBBY", "note": "ON 12/24 AND 12/31, THIS BOX MAY BE COLLECTED AS EARLY AS 12 NOON.", "nsi_id": "unitedstatespostalservice-a77078", "operator": "United States Postal Service", "operator:short": "USPS", "operator:type": "public", "operator:wikidata": "Q668687", "ref": "5855200002"}, "type": "Feature"}
{"dataset_attributes": {"@spider": "usps_collection_boxes", "spider:collection_time": "2023-09-16T08:22:24.198600"}, "geometry": {"coordinates": [-100.898535955, 46.826383431], "type": "Point"}, "id": "hoGqSuKl4xwnk9g385bJMrUk-m0=", "properties": {"@spider": "usps_collection_boxes", "addr:city": "MANDAN", "addr:country": "US", "addr:full": "606 1ST ST NW", "addr:postcode": "58554", "addr:state": "ND", "amenity": "post_box", "brand": "United States Postal Service", "brand:wikidata": "Q668687", "collection_times": "Mo-Sa 15:00", "name": "USPS COLLECTION BOX - BLUE BOX", "note": "ON 12/24 AND 12/31, THIS BOX MAY BE COLLECTED AS EARLY AS 12 NOON.", "nsi_id": "unitedstatespostalservice-a77078", "operator": "United States Postal Service", "operator:short": "USPS", "operator:type": "public", "operator:wikidata": "Q668687", "ref": "5855400005"}, "type": "Feature"}
{"dataset_attributes": {"@spider": "usps_collection_boxes", "spider:collection_time": "2023-09-16T08:22:24.198600"}, "geometry": {"coordinates": [-100.873687725, 46.828664369], "type": "Point"}, "id": "yFbjA6tuHiCKfR3Qg-vf3-VrdE8=", "properties": {"@spider": "usps_collection_boxes", "addr:city": "MANDAN", "addr:country": "US", "addr:full": "1210 E MAIN ST", "addr:postcode": "58554", "addr:state": "ND", "amenity": "post_box", "brand": "United States Postal Service", "brand:wikidata": "Q668687", "collection_times": "Mo-Sa 15:00", "name": "USPS COLLECTION BOX - BLUE BOX", "note": "ON 12/24 AND 12/31, THIS BOX MAY BE COLLECTED AS EARLY AS 12 NOON.", "nsi_id": "unitedstatespostalservice-a77078", "operator": "United States Postal Service", "operator:short": "USPS", "operator:type": "public", "operator:wikidata": "Q668687", "ref": "5855400008"}, "type": "Feature"}
{"dataset_attributes": {"@spider": "usps_collection_boxes", "spider:collection_time": "2023-09-16T08:22:24.198600"}, "geometry": {"coordinates": [-100.889945003, 46.828854013], "type": "Point"}, "id": "7BkaNi06uq_Xk2V6O1Dy8elLux8=", "properties": {"@spider": "usps_collection_boxes", "addr:city": "MANDAN", "addr:country": "US", "addr:full": "300 COLLINS AVE", "addr:postcode": "58554", "addr:state": "ND", "amenity": "post_box", "brand": "United States Postal Service", "brand:wikidata": "Q668687", "collection_times": "Mo-Fr 18:45; Sa 16:00", "name": "USPS COLLECTION BOX - BLUE BOX", "note": "ON 12/24 AND 12/31, THIS BOX MAY BE COLLECTED AS EARLY AS 12 NOON.", "nsi_id": "unitedstatespostalservice-a77078", "operator": "United States Postal Service", "operator:short": "USPS", "operator:type": "public", "operator:wikidata": "Q668687", "ref": "5855400010"}, "type": "Feature"}
{"dataset_attributes": {"@spider": "usps_collection_boxes", "spider:collection_time": "2023-09-16T08:22:24.198600"}, "geometry": {"coordinates": [-100.889945003, 46.828854013], "type": "Point"}, "id": "rI2bt1UXktay172DZtscdyqTB08=", "properties": {"@spider": "usps_collection_boxes", "addr:city": "MANDAN", "addr:country": "US", "addr:full": "300 COLLINS AVE", "addr:postcode": "58554", "addr:state": "ND", "amenity": "post_box", "brand": "United States Postal Service", "brand:wikidata": "Q668687", "collection_times": "Mo-Fr 18:45; Sa 16:00", "name": "USPS COLLECTION BOX - BLUE BOX", "note": "ON 12/24 AND 12/31, THIS BOX MAY BE COLLECTED AS EARLY AS 12 NOON.", "nsi_id": "unitedstatespostalservice-a77078", "operator": "United States Postal Service", "operator:short": "USPS", "operator:type": "public", "operator:wikidata": "Q668687", "ref": "5855400013"}, "type": "Feature"}
{"dataset_attributes": {"@spider": "usps_collection_boxes", "spider:collection_time": "2023-09-16T08:22:24.198600"}, "geometry": {"coordinates": [-100.892969835, 46.826814196], "type": "Point"}, "id": "oHLEe3adJGrBhUtwPQhkE2Njjeo=", "properties": {"@spider": "usps_collection_boxes", "addr:city": "MANDAN", "addr:country": "US", "addr:full": "111 2ND AVE NW", "addr:postcode": "58554", "addr:state": "ND", "amenity": "post_box", "brand": "United States Postal Service", "brand:wikidata": "Q668687", "collection_times": "Mo-Sa 15:00", "name": "USPS COLLECTION BOX - BLUE BOX", "note": "ON 12/24 AND 12/31, THIS BOX MAY BE COLLECTED AS EARLY AS 12 NOON.", "nsi_id": "unitedstatespostalservice-a77078", "operator": "United States Postal Service", "operator:short": "USPS", "operator:type": "public", "operator:wikidata": "Q668687", "ref": "5855400017"}, "type": "Feature"}
{"dataset_attributes": {"@spider": "usps_collection_boxes", "spider:collection_time": "2023-09-16T08:22:24.198600"}, "geometry": {"coordinates": [-100.890357447, 46.828886469], "type": "Point"}, "id": "Gg365ClcMhs2-IQpF-TsiHjiR1Y=", "properties": {"@spider": "usps_collection_boxes", "addr:city": "MANDAN", "addr:country": "US", "addr:full": "300 COLLINS AVE", "addr:postcode": "58554", "addr:state": "ND", "amenity": "post_box", "brand": "United States Postal Service", "brand:wikidata": "Q668687", "collection_times": "Mo-Fr 17:00; Sa 16:00", "name": "USPS COLLECTION BOX - PO LOBBY", "note": "ON 12/24 AND 12/31, THIS BOX MAY BE COLLECTED AS EARLY AS 12 NOON.", "nsi_id": "unitedstatespostalservice-a77078", "operator": "United States Postal Service", "operator:short": "USPS", "operator:type": "public", "operator:wikidata": "Q668687", "ref": "5855400021"}, "type": "Feature"}
{"dataset_attributes": {"@spider": "usps_collection_boxes", "spider:collection_time": "2023-09-16T08:22:24.198600"}, "geometry": {"coordinates": [-100.8900500279, 46.8267139871], "type": "Point"}, "id": "LGK-Tez1XI0a1oN-8JznZ04lR3M=", "properties": {"@spider": "usps_collection_boxes", "addr:city": "MANDAN", "addr:country": "US", "addr:full": "100 W MAIN ST", "addr:postcode": "58554", "addr:state": "ND", "amenity": "post_box", "brand": "United States Postal Service", "brand:wikidata": "Q668687", "collection_times": "Mo-Sa 15:00", "name": "USPS COLLECTION BOX - BLUE BOX", "note": "ON 12/24 AND 12/31, THIS BOX MAY BE COLLECTED AS EARLY AS 12 NOON.", "nsi_id": "unitedstatespostalservice-a77078", "operator": "United States Postal Service", "operator:short": "USPS", "operator:type": "public", "operator:wikidata": "Q668687", "ref": "5855400028"}, "type": "Feature"}
{"dataset_attributes": {"@spider": "usps_collection_boxes", "spider:collection_time": "2023-09-16T08:22:24.198600"}, "geometry": {"coordinates": [-100.882222303, 46.824285516], "type": "Point"}, "id": "8vJlNWxXM7T0RWnADA6xibiYLOQ=", "properties": {"@spider": "usps_collection_boxes", "addr:city": "MANDAN", "addr:country": "US", "addr:full": "500 BURLINGTON ST SE", "addr:postcode": "58554", "addr:state": "ND", "amenity": "post_box", "brand": "United States Postal Service", "brand:wikidata": "Q668687", "collection_times": "Mo-Fr 18:00; Sa 16:00", "name": "USPS COLLECTION BOX - BLUE BOX", "note": "ON 12/24 AND 12/31, THIS BOX MAY BE COLLECTED AS EARLY AS 12 NOON.", "nsi_id": "unitedstatespostalservice-a77078", "operator": "United States Postal Service", "operator:short": "USPS", "operator:type": "public", "operator:wikidata": "Q668687", "ref": "5855400029"}, "type": "Feature"}
{"dataset_attributes": {"@spider": "usps_collection_boxes", "spider:collection_time": "2023-09-16T08:22:24.198600"}, "geometry": {"coordinates": [-100.711760347, 47.48967], "type": "Point"}, "id": "MylnH0BYQgY2s82PzFfQS4ooWSo=", "properties": {"@spider": "usps_collection_boxes", "addr:city": "MERCER", "addr:country": "US", "addr:full": "101 MAIN ST", "addr:postcode": "58559", "addr:state": "ND", "amenity": "post_box", "brand": "United States Postal Service", "brand:wikidata": "Q668687", "collection_times": "Mo-Sa 15:15", "name": "USPS COLLECTION BOX - BLUE BOX", "note": "ON 12/24 AND 12/31, THIS BOX MAY BE COLLECTED AS EARLY AS 12 NOON.", "nsi_id": "unitedstatespostalservice-a77078", "operator": "United States Postal Service", "operator:short": "USPS", "operator:type": "public", "operator:wikidata": "Q668687", "ref": "5855900001"}, "type": "Feature"}
{"dataset_attributes": {"@spider": "usps_collection_boxes", "spider:collection_time": "2023-09-16T08:22:24.198600"}, "geometry": {"coordinates": [-100.711760347, 47.48967], "type": "Point"}, "id": "dmtGX6LzlsO_Ded6xggjTug4hXc=", "properties": {"@spider": "usps_collection_boxes", "addr:city": "MERCER", "addr:country": "US", "addr:full": "101 MAIN ST", "addr:postcode": "58559", "addr:state": "ND", "amenity": "post_box", "brand": "United States Postal Service", "brand:wikidata": "Q668687", "collection_times": "Mo-Sa 11:15", "name": "USPS COLLECTION BOX - PO LOBBY", "nsi_id": "unitedstatespostalservice-a77078", "operator": "United States Postal Service", "operator:short": "USPS", "operator:type": "public", "operator:wikidata": "Q668687", "ref": "5855900002"}, "type": "Feature"}
{"dataset_attributes": {"@spider": "usps_collection_boxes", "spider:collection_time": "2023-09-16T08:22:24.198600"}, "geometry": {"coordinates": [-100.294903906, 46.679797372], "type": "Point"}, "id": "jKExu8c4JfT8k4mlcnZzq5_uHi8=", "properties": {"@spider": "usps_collection_boxes", "addr:city": "MOFFIT", "addr:country": "US", "addr:full": "206 MAIN ST N", "addr:postcode": "58560", "addr:state": "ND", "amenity": "post_box", "brand": "United States Postal Service", "brand:wikidata": "Q668687", "collection_times": "Mo-Sa 16:05", "name": "USPS COLLECTION BOX - BLUE BOX", "note": "ON 12/24 AND 12/31, THIS BOX MAY BE COLLECTED AS EARLY AS 12 NOON.", "nsi_id": "unitedstatespostalservice-a77078", "operator": "United States Postal Service", "operator:short": "USPS", "operator:type": "public", "operator:wikidata": "Q668687", "ref": "5856000000"}, "type": "Feature"}
{"dataset_attributes": {"@spider": "usps_collection_boxes", "spider:collection_time": "2023-09-16T08:22:24.198600"}, "geometry": {"coordinates": [-100.294903906, 46.679797372], "type": "Point"}, "id": "A67j-GW-CscRV4aBja9LqOBLUf0=", "properties": {"@spider": "usps_collection_boxes", "addr:city": "MOFFIT", "addr:country": "US", "addr:full": "206 MAIN ST N", "addr:postcode": "58560", "addr:state": "ND", "amenity": "post_box", "brand": "United States Postal Service", "brand:wikidata": "Q668687", "collection_times": "Mo-Fr 11:45; Sa 12:15", "name": "USPS COLLECTION BOX - PO LOBBY", "note": "ON 12/24 AND 12/31, THIS BOX MAY BE COLLECTED AS EARLY AS 12 NOON.", "nsi_id": "unitedstatespostalservice-a77078", "operator": "United States Postal Service", "operator:short": "USPS", "operator:type": "public", "operator:wikidata": "Q668687", "ref": "5856000001"}, "type": "Feature"}
{"dataset_attributes": {"@spider": "usps_collection_boxes", "spider:collection_time": "2023-09-16T08:22:24.198600"}, "geometry": {"coordinates": [-99.769138813, 46.501141825], "type": "Point"}, "id": "u8tsJNDDRaKgZ0yYP6sqLdGDOs4=", "properties": {"@spider": "usps_collection_boxes", "addr:city": "NAPOLEON", "addr:country": "US", "addr:full": "104 BROADWAY", "addr:postcode": "58561", "addr:state": "ND", "amenity": "post_box", "brand": "United States Postal Service", "brand:wikidata": "Q668687", "collection_times": "Mo-Sa 14:45", "name": "USPS COLLECTION BOX - BLUE BOX", "note": "ON 12/24 AND 12/31, THIS BOX MAY BE COLLECTED AS EARLY AS 12 NOON.", "nsi_id": "unitedstatespostalservice-a77078", "operator": "United States Postal Service", "operator:short": "USPS", "operator:type": "public", "operator:wikidata": "Q668687", "ref": "5856100001"}, "type": "Feature"}
{"dataset_attributes": {"@spider": "usps_collection_boxes", "spider:collection_time": "2023-09-16T08:22:24.198600"}, "geometry": {"coordinates": [-99.769138813, 46.501141825], "type": "Point"}, "id": "H6u5wel8Xwz4A08GILJjz4Jb8ZU=", "properties": {"@spider": "usps_collection_boxes", "addr:city": "NAPOLEON", "addr:country": "US", "addr:full": "104 BROADWAY", "addr:postcode": "58561", "addr:state": "ND", "amenity": "post_box", "brand": "United States Postal Service", "brand:wikidata": "Q668687", "collection_times": "Mo-Fr 14:45; Sa 10:55", "name": "USPS COLLECTION BOX - PO LOBBY", "note": "ON 12/24 AND 12/31, THIS BOX MAY BE COLLECTED AS EARLY AS 12 NOON.", "nsi_id": "unitedstatespostalservice-a77078", "operator": "United States Postal Service", "operator:short": "USPS", "operator:type": "public", "operator:wikidata": "Q668687", "ref": "5856100002"}, "type": "Feature"}
{"dataset_attributes": {"@spider": "usps_collection_boxes", "spider:collection_time": "2023-09-16T08:22:24.198600"}, "geometry": {"coordinates": [-101.948262291, 46.374042808], "type": "Point"}, "id": "BjIvtyLiA7azcev7tDo-OcX3q0I=", "properties": {"@spider": "usps_collection_boxes", "addr:city": "NEW LEIPZIG", "addr:country": "US", "addr:full": "115 MAIN AVE", "addr:postcode": "58562", "addr:state": "ND", "amenity": "post_box", "brand": "United States Postal Service", "brand:wikidata": "Q668687", "collection_times": "Mo-Sa 14:15", "name": "USPS COLLECTION BOX - BLUE BOX", "note": "ON 12/24 AND 12/31, THIS BOX MAY BE COLLECTED AS EARLY AS 12 NOON.", "nsi_id": "unitedstatespostalservice-a77078", "operator": "United States Postal Service", "operator:short": "USPS", "operator:type": "public", "operator:wikidata": "Q668687", "ref": "5856200001"}, "type": "Feature"}
{"dataset_attributes": {"@spider": "usps_collection_boxes", "spider:collection_time": "2023-09-16T08:22:24.198600"}, "geometry": {"coordinates": [-101.948262291, 46.374042808], "type": "Point"}, "id": "b7B4l4UuKCXPZz34DWPNtAlAU-A=", "properties": {"@spider": "usps_collection_boxes", "addr:city": "NEW LEIPZIG", "addr:country": "US", "addr:full": "115 MAIN AVE", "addr:postcode": "58562", "addr:state": "ND", "amenity": "post_box", "brand": "United States Postal Service", "brand:wikidata": "Q668687", "collection_times": "Mo-Fr 12:00; Sa 09:28", "name": "USPS COLLECTION BOX - PO LOBBY", "nsi_id": "unitedstatespostalservice-a77078", "operator": "United States Postal Service", "operator:short": "USPS", "operator:type": "public", "operator:wikidata": "Q668687", "ref": "5856200002"}, "type": "Feature"}
{"dataset_attributes": {"@spider": "usps_collection_boxes", "spider:collection_time": "2023-09-16T08:22:24.198600"}, "geometry": {"coordinates": [-101.411401497, 46.843540125], "type": "Point"}, "id": "ySM86fqa7l3gGv2gSJWA2R58xyE=", "properties": {"@spider": "usps_collection_boxes", "addr:city": "NEW SALEM", "addr:country": "US", "addr:full": "110 N 4TH ST", "addr:postcode": "58563", "addr:state": "ND", "amenity": "post_box", "brand": "United States Postal Service", "brand:wikidata": "Q668687", "collection_times": "Mo-Sa 16:45", "name": "USPS COLLECTION BOX - BLUE BOX", "note": "ON 12/24 AND 12/31, THIS BOX MAY BE COLLECTED AS EARLY AS 12 NOON.", "nsi_id": "unitedstatespostalservice-a77078", "operator": "United States Postal Service", "operator:short": "USPS", "operator:type": "public", "operator:wikidata": "Q668687", "ref": "5856300001"}, "type": "Feature"}
{"dataset_attributes": {"@spider": "usps_collection_boxes", "spider:collection_time": "2023-09-16T08:22:24.198600"}, "geometry": {"coordinates": [-101.411401497, 46.843540125], "type": "Point"}, "id": "Zc9-EqiIGRg84pUJirtOVjdJBWE=", "properties": {"@spider": "usps_collection_boxes", "addr:city": "NEW SALEM", "addr:country": "US", "addr:full": "110 N 4TH ST", "addr:postcode": "58563", "addr:state": "ND", "amenity": "post_box", "brand": "United States Postal Service", "brand:wikidata": "Q668687", "collection_times": "Mo-Fr 14:30; Sa 10:00", "name": "USPS COLLECTION BOX - PO LOBBY", "note": "ON 12/24 AND 12/31, THIS BOX MAY BE COLLECTED AS EARLY AS 12 NOON.", "nsi_id": "unitedstatespostalservice-a77078", "operator": "United States Postal Service", "operator:short": "USPS", "operator:type": "public", "operator:wikidata": "Q668687", "ref": "5856300003"}, "type": "Feature"}
{"dataset_attributes": {"@spider": "usps_collection_boxes", "spider:collection_time": "2023-09-16T08:22:24.198600"}, "geometry": {"coordinates": [-101.373557675, 47.497877369], "type": "Point"}, "id": "16QRQvsscxcm6qwMBgyFxW2Pjx8=", "properties": {"@spider": "usps_collection_boxes", "addr:city": "RIVERDALE", "addr:country": "US", "addr:full": "302 2ND ST", "addr:postcode": "58565", "addr:state": "ND", "amenity": "post_box", "brand": "United States Postal Service", "brand:wikidata": "Q668687", "collection_times": "Mo-Sa 15:40", "name": "USPS COLLECTION BOX - BLUE BOX", "note": "ON 12/24 AND 12/31, THIS BOX MAY BE COLLECTED AS EARLY AS 12 NOON.", "nsi_id": "unitedstatespostalservice-a77078", "operator": "United States Postal Service", "operator:short": "USPS", "operator:type": "public", "operator:wikidata": "Q668687", "ref": "5856500002"}, "type": "Feature"}
{"dataset_attributes": {"@spider": "usps_collection_boxes", "spider:collection_time": "2023-09-16T08:22:24.198600"}, "geometry": {"coordinates": [-101.373557675, 47.497877369], "type": "Point"}, "id": "S7c_g8a-l-XqpGrywqYVRF8D3YY=", "properties": {"@spider": "usps_collection_boxes", "addr:city": "RIVERDALE", "addr:country": "US", "addr:full": "302 2ND ST", "addr:postcode": "58565", "addr:state": "ND", "amenity": "post_box", "brand": "United States Postal Service", "brand:wikidata": "Q668687", "collection_times": "Mo-Fr 15:40; Sa 10:50", "name": "USPS COLLECTION BOX - PO LOBBY", "note": "ON 12/24 AND 12/31, THIS BOX MAY BE COLLECTED AS EARLY AS 12 NOON.", "nsi_id": "unitedstatespostalservice-a77078", "operator": "United States Postal Service", "operator:short": "USPS", "operator:type": "public", "operator:wikidata": "Q668687", "ref": "5856500003"}, "type": "Feature"}
{"dataset_attributes": {"@spider": "usps_collection_boxes", "spider:collection_time": "2023-09-16T08:22:24.198600"}, "geometry": {"coordinates": [-100.931576635, 46.041280693], "type": "Point"}, "id": "2OoMB7zzmRatyxnMQBBdc23_rCc=", "properties": {"@spider": "usps_collection_boxes", "addr:city": "SELFRIDGE", "addr:country": "US", "addr:full": "70 S MAIN ST", "addr:postcode": "58568", "addr:state": "ND", "amenity": "post_box", "brand": "United States Postal Service", "brand:wikidata": "Q668687", "collection_times": "Mo-Sa 12:30", "name": "USPS COLLECTION BOX - BLUE BOX", "note": "ON 12/24 AND 12/31, THIS BOX MAY BE COLLECTED AS EARLY AS 12 NOON.", "nsi_id": "unitedstatespostalservice-a77078", "operator": "United States Postal Service", "operator:short": "USPS", "operator:type": "public", "operator:wikidata": "Q668687", "ref": "5856800001"}, "type": "Feature"}
{"dataset_attributes": {"@spider": "usps_collection_boxes", "spider:collection_time": "2023-09-16T08:22:24.198600"}, "geometry": {"coordinates": [-100.931576635, 46.041280693], "type": "Point"}, "id": "1FENEFqAUhshBlUAlrxPdJH86BE=", "properties": {"@spider": "usps_collection_boxes", "addr:city": "SELFRIDGE", "addr:country": "US", "addr:full": "70 S MAIN ST", "addr:postcode": "58568", "addr:state": "ND", "amenity": "post_box", "brand": "United States Postal Service", "brand:wikidata": "Q668687", "collection_times": "Mo-Fr 12:30; Sa 09:30", "name": "USPS COLLECTION BOX - PO LOBBY", "note": "ON 12/24 AND 12/31, THIS BOX MAY BE COLLECTED AS EARLY AS 12 NOON.", "nsi_id": "unitedstatespostalservice-a77078", "operator": "United States Postal Service", "operator:short": "USPS", "operator:type": "public", "operator:wikidata": "Q668687", "ref": "5856800002"}, "type": "Feature"}
{"dataset_attributes": {"@spider": "usps_collection_boxes", "spider:collection_time": "2023-09-16T08:22:24.198600"}, "geometry": {"coordinates": [-100.7965838294, 46.387292509], "type": "Point"}, "id": "ldc-2hU4Ai3YmDFiMNDdKZoH2Ms=", "properties": {"@spider": "usps_collection_boxes", "addr:city": "SOLEN", "addr:country": "US", "addr:full": "202 N MAIN ST", "addr:postcode": "58570", "addr:state": "ND", "amenity": "post_box", "brand": "United States Postal Service", "brand:wikidata": "Q668687", "collection_times": "Mo-Sa 16:05", "name": "USPS COLLECTION BOX - BLUE BOX", "note": "ON 12/24 AND 12/31, THIS BOX MAY BE COLLECTED AS EARLY AS 12 NOON.", "nsi_id": "unitedstatespostalservice-a77078", "operator": "United States Postal Service", "operator:short": "USPS", "operator:type": "public", "operator:wikidata": "Q668687", "ref": "5857000001"}, "type": "Feature"}
{"dataset_attributes": {"@spider": "usps_collection_boxes", "spider:collection_time": "2023-09-16T08:22:24.198600"}, "geometry": {"coordinates": [-100.796561563, 46.387287199], "type": "Point"}, "id": "AUllXJ3C9mfhcG51DktkdszrQbI=", "properties": {"@spider": "usps_collection_boxes", "addr:city": "SOLEN", "addr:country": "US", "addr:full": "202 N MAIN ST", "addr:postcode": "58570", "addr:state": "ND", "amenity": "post_box", "brand": "United States Postal Service", "brand:wikidata": "Q668687", "collection_times": "Mo-Fr 12:30; Sa 09:30", "name": "USPS COLLECTION BOX - PO LOBBY", "note": "ON 12/24 AND 12/31, THIS BOX MAY BE COLLECTED AS EARLY AS 12 NOON.", "nsi_id": "unitedstatespostalservice-a77078", "operator": "United States Postal Service", "operator:short": "USPS", "operator:type": "public", "operator:wikidata": "Q668687", "ref": "5857000002"}, "type": "Feature"}
{"dataset_attributes": {"@spider": "usps_collection_boxes", "spider:collection_time": "2023-09-16T08:22:24.198600"}, "geometry": {"coordinates": [-101.383410997, 47.321036467], "type": "Point"}, "id": "DExwJDZLyz1KIA4NBw77_QOsk5U=", "properties": {"@spider": "usps_collection_boxes", "addr:city": "STANTON", "addr:country": "US", "addr:full": "119 HARMON AVE", "addr:postcode": "58571", "addr:state": "ND", "amenity": "post_box", "brand": "United States Postal Service", "brand:wikidata": "Q668687", "collection_times": "Mo-Sa 15:30", "name": "USPS COLLECTION BOX - BLUE BOX", "note": "ON 12/24 AND 12/31, THIS BOX MAY BE COLLECTED AS EARLY AS 12 NOON.", "nsi_id": "unitedstatespostalservice-a77078", "operator": "United States Postal Service", "operator:short": "USPS", "operator:type": "public", "operator:wikidata": "Q668687", "ref": "5857100001"}, "type": "Feature"}
{"dataset_attributes": {"@spider": "usps_collection_boxes", "spider:collection_time": "2023-09-16T08:22:24.198600"}, "geometry": {"coordinates": [-101.383410997, 47.321036467], "type": "Point"}, "id": "xweU2BRt3GOMyI08alcQfdFP7AU=", "properties": {"@spider": "usps_collection_boxes", "addr:city": "STANTON", "addr:country": "US", "addr:full": "119 HARMON AVE", "addr:postcode": "58571", "addr:state": "ND", "amenity": "post_box", "brand": "United States Postal Service", "brand:wikidata": "Q668687", "collection_times": "Mo-Fr 15:30; Sa 09:45", "name": "USPS COLLECTION BOX - PO LOBBY", "note": "ON 12/24 AND 12/31, THIS BOX MAY BE COLLECTED AS EARLY AS 12 NOON.", "nsi_id": "unitedstatespostalservice-a77078", "operator": "United States Postal Service", "operator:short": "USPS", "operator:type": "public", "operator:wikidata": "Q668687", "ref": "5857100002"}, "type": "Feature"}
{"dataset_attributes": {"@spider": "usps_collection_boxes", "spider:collection_time": "2023-09-16T08:22:24.198600"}, "geometry": {"coordinates": [-100.290600587, 46.813861529], "type": "Point"}, "id": "0S6KEPj_-nTMVZIgN6EQy-bne5Q=", "properties": {"@spider": "usps_collection_boxes", "addr:city": "STERLING", "addr:country": "US", "addr:full": "108 MAIN AVE", "addr:postcode": "58572", "addr:state": "ND", "amenity": "post_box", "brand": "United States Postal Service", "brand:wikidata": "Q668687", "collection_times": "Mo-Sa 16:00", "name": "USPS COLLECTION BOX - BLUE BOX", "note": "ON 12/24 AND 12/31, THIS BOX MAY BE COLLECTED AS EARLY AS 12 NOON.", "nsi_id": "unitedstatespostalservice-a77078", "operator": "United States Postal Service", "operator:short": "USPS", "operator:type": "public", "operator:wikidata": "Q668687", "ref": "5857200001"}, "type": "Feature"}
{"dataset_attributes": {"@spider": "usps_collection_boxes", "spider:collection_time": "2023-09-16T08:22:24.198600"}, "geometry": {"coordinates": [-100.293108522, 46.813898478], "type": "Point"}, "id": "ehi0bc93nppWFxAShi65tKfJov4=", "properties": {"@spider": "usps_collection_boxes", "addr:city": "STERLING", "addr:country": "US", "addr:full": "20 MAIN ST S", "addr:postcode": "58572", "addr:state": "ND", "amenity": "post_box", "brand": "United States Postal Service", "brand:wikidata": "Q668687", "collection_times": "Mo-Fr 13:30; Sa 13:45", "name": "USPS COLLECTION BOX - BLUE BOX", "note": "ON 12/24 AND 12/31, THIS BOX MAY BE COLLECTED AS EARLY AS 12 NOON.", "nsi_id": "unitedstatespostalservice-a77078", "operator": "United States Postal Service", "operator:short": "USPS", "operator:type": "public", "operator:wikidata": "Q668687", "ref": "5857200003"}, "type": "Feature"}
{"dataset_attributes": {"@spider": "usps_collection_boxes", "spider:collection_time": "2023-09-16T08:22:24.198600"}, "geometry": {"coordinates": [-100.290600587, 46.813861529], "type": "Point"}, "id": "FXsu5iDHaJrzg9A6BsZ0YgtpmFg=", "properties": {"@spider": "usps_collection_boxes", "addr:city": "STERLING", "addr:country": "US", "addr:full": "108 MAIN AVE", "addr:postcode": "58572", "addr:state": "ND", "amenity": "post_box", "brand": "United States Postal Service", "brand:wikidata": "Q668687", "collection_times": "Mo-Fr 16:15", "name": "USPS COLLECTION BOX - PO LOBBY", "note": "ON 12/24 AND 12/31, THIS BOX MAY BE COLLECTED AS EARLY AS 12 NOON.", "nsi_id": "unitedstatespostalservice-a77078", "operator": "United States Postal Service", "operator:short": "USPS", "operator:type": "public", "operator:wikidata": "Q668687", "ref": "5857200004"}, "type": "Feature"}
{"dataset_attributes": {"@spider": "usps_collection_boxes", "spider:collection_time": "2023-09-16T08:22:24.198600"}, "geometry": {"coordinates": [-100.414772497, 46.822693453], "type": "Point"}, "id": "lOkhPrKyHqFiSPWlf8b5ZmcX03c=", "properties": {"@spider": "usps_collection_boxes", "addr:city": "STERLING", "addr:country": "US", "addr:full": "104 E MAIN AVE", "addr:postcode": "58572", "addr:state": "ND", "amenity": "post_box", "brand": "United States Postal Service", "brand:wikidata": "Q668687", "collection_times": "Mo-Sa 16:40", "name": "USPS COLLECTION BOX - BLUE BOX", "note": "ON 12/24 AND 12/31, THIS BOX MAY BE COLLECTED AS EARLY AS 12 NOON.", "nsi_id": "unitedstatespostalservice-a77078", "operator": "United States Postal Service", "operator:short": "USPS", "operator:type": "public", "operator:wikidata": "Q668687", "ref": "5857200007"}, "type": "Feature"}
{"dataset_attributes": {"@spider": "usps_collection_boxes", "spider:collection_time": "2023-09-16T08:22:24.198600"}, "geometry": {"coordinates": [-100.161406061, 46.133719556], "type": "Point"}, "id": "_5a1xk22zY_8orXApw2WRT0qzMQ=", "properties": {"@spider": "usps_collection_boxes", "addr:city": "STRASBURG", "addr:country": "US", "addr:full": "604 MAIN ST", "addr:postcode": "58573", "addr:state": "ND", "amenity": "post_box", "brand": "United States Postal Service", "brand:wikidata": "Q668687", "collection_times": "Mo-Sa 15:00", "name": "USPS COLLECTION BOX - BLUE BOX", "note": "ON 12/24 AND 12/31, THIS BOX MAY BE COLLECTED AS EARLY AS 12 NOON.", "nsi_id": "unitedstatespostalservice-a77078", "operator": "United States Postal Service", "operator:short": "USPS", "operator:type": "public", "operator:wikidata": "Q668687", "ref": "5857300001"}, "type": "Feature"}
{"dataset_attributes": {"@spider": "usps_collection_boxes", "spider:collection_time": "2023-09-16T08:22:24.198600"}, "geometry": {"coordinates": [-100.161406061, 46.133719556], "type": "Point"}, "id": "DYX8HxaQmPQ-r-mVH5yGdP_6lUo=", "properties": {"@spider": "usps_collection_boxes", "addr:city": "STRASBURG", "addr:country": "US", "addr:full": "604 MAIN ST", "addr:postcode": "58573", "addr:state": "ND", "amenity": "post_box", "brand": "United States Postal Service", "brand:wikidata": "Q668687", "collection_times": "Mo-Fr 15:00; Sa 10:00", "name": "USPS COLLECTION BOX - PO LOBBY", "note": "ON 12/24 AND 12/31, THIS BOX MAY BE COLLECTED AS EARLY AS 12 NOON.", "nsi_id": "unitedstatespostalservice-a77078", "operator": "United States Postal Service", "operator:short": "USPS", "operator:type": "public", "operator:wikidata": "Q668687", "ref": "5857300002"}, "type": "Feature"}
{"dataset_attributes": {"@spider": "usps_collection_boxes", "spider:collection_time": "2023-09-16T08:22:24.198600"}, "geometry": {"coordinates": [-100.889962854, 47.521375743], "type": "Point"}, "id": "3u7f_ndwgAaeIRGfrmCic0JOMNs=", "properties": {"@spider": "usps_collection_boxes", "addr:city": "TURTLE LAKE", "addr:country": "US", "addr:full": "113 MAIN ST", "addr:postcode": "58575", "addr:state": "ND", "amenity": "post_box", "brand": "United States Postal Service", "brand:wikidata": "Q668687", "collection_times": "Mo-Sa 15:30", "name": "USPS COLLECTION BOX - BLUE BOX", "note": "ON 12/24 AND 12/31, THIS BOX MAY BE COLLECTED AS EARLY AS 12 NOON.", "nsi_id": "unitedstatespostalservice-a77078", "operator": "United States Postal Service", "operator:short": "USPS", "operator:type": "public", "operator:wikidata": "Q668687", "ref": "5857500002"}, "type": "Feature"}
{"dataset_attributes": {"@spider": "usps_collection_boxes", "spider:collection_time": "2023-09-16T08:22:24.198600"}, "geometry": {"coordinates": [-100.889962854, 47.521375743], "type": "Point"}, "id": "M4jE8xIbPr5JWdYSjX1ow-YSNJ8=", "properties": {"@spider": "usps_collection_boxes", "addr:city": "TURTLE LAKE", "addr:country": "US", "addr:full": "113 MAIN ST", "addr:postcode": "58575", "addr:state": "ND", "amenity": "post_box", "brand": "United States Postal Service", "brand:wikidata": "Q668687", "collection_times": "Mo-Fr 15:00; Sa 09:30", "name": "USPS COLLECTION BOX - PO LOBBY", "note": "ON 12/24 AND 12/31, THIS BOX MAY BE COLLECTED AS EARLY AS 12 NOON.", "nsi_id": "unitedstatespostalservice-a77078", "operator": "United States Postal Service", "operator:short": "USPS", "operator:type": "public", "operator:wikidata": "Q668687", "ref": "5857500004"}, "type": "Feature"}
{"dataset_attributes": {"@spider": "usps_collection_boxes", "spider:collection_time": "2023-09-16T08:22:24.198600"}, "geometry": {"coordinates": [-101.137831616, 47.456968485], "type": "Point"}, "id": "voNYyEVgBpx_npAv8pSrYw6Taxc=", "properties": {"@spider": "usps_collection_boxes", "addr:city": "UNDERWOOD", "addr:country": "US", "addr:full": "301 1ST ST", "addr:postcode": "58576", "addr:state": "ND", "amenity": "post_box", "brand": "United States Postal Service", "brand:wikidata": "Q668687", "collection_times": "Mo-Sa 16:00", "name": "USPS COLLECTION BOX - BLUE BOX", "note": "ON 12/24 AND 12/31, THIS BOX MAY BE COLLECTED AS EARLY AS 12 NOON.", "nsi_id": "unitedstatespostalservice-a77078", "operator": "United States Postal Service", "operator:short": "USPS", "operator:type": "public", "operator:wikidata": "Q668687", "ref": "5857600001"}, "type": "Feature"}
{"dataset_attributes": {"@spider": "usps_collection_boxes", "spider:collection_time": "2023-09-16T08:22:24.198600"}, "geometry": {"coordinates": [-101.137831616, 47.456968485], "type": "Point"}, "id": "4YKaJ22MX3Mn5Nb0mPzkIbeMMyI=", "properties": {"@spider": "usps_collection_boxes", "addr:city": "UNDERWOOD", "addr:country": "US", "addr:full": "301 1ST ST", "addr:postcode": "58576", "addr:state": "ND", "amenity": "post_box", "brand": "United States Postal Service", "brand:wikidata": "Q668687", "collection_times": "Mo-Fr 15:50; Sa 10:25", "name": "USPS COLLECTION BOX - PO LOBBY", "note": "ON 12/24 AND 12/31, THIS BOX MAY BE COLLECTED AS EARLY AS 12 NOON.", "nsi_id": "unitedstatespostalservice-a77078", "operator": "United States Postal Service", "operator:short": "USPS", "operator:type": "public", "operator:wikidata": "Q668687", "ref": "5857600002"}, "type": "Feature"}
{"dataset_attributes": {"@spider": "usps_collection_boxes", "spider:collection_time": "2023-09-16T08:22:24.198600"}, "geometry": {"coordinates": [-101.027914228, 47.288517549], "type": "Point"}, "id": "ST-1IMj6CSG3vOrVt7FQLDjeQC4=", "properties": {"@spider": "usps_collection_boxes", "addr:city": "WASHBURN", "addr:country": "US", "addr:full": "721 MAIN AVE", "addr:postcode": "58577", "addr:state": "ND", "amenity": "post_box", "brand": "United States Postal Service", "brand:wikidata": "Q668687", "collection_times": "Mo-Sa 16:30", "name": "USPS COLLECTION BOX - BLUE BOX", "note": "ON 12/24 AND 12/31, THIS BOX MAY BE COLLECTED AS EARLY AS 12 NOON.", "nsi_id": "unitedstatespostalservice-a77078", "operator": "United States Postal Service", "operator:short": "USPS", "operator:type": "public", "operator:wikidata": "Q668687", "ref": "5857700001"}, "type": "Feature"}
{"dataset_attributes": {"@spider": "usps_collection_boxes", "spider:collection_time": "2023-09-16T08:22:24.198600"}, "geometry": {"coordinates": [-101.027914228, 47.288517549], "type": "Point"}, "id": "F07zEeTu55J6JASSBn6OI7ZDX1s=", "properties": {"@spider": "usps_collection_boxes", "addr:city": "WASHBURN", "addr:country": "US", "addr:full": "721 MAIN AVE", "addr:postcode": "58577", "addr:state": "ND", "amenity": "post_box", "brand": "United States Postal Service", "brand:wikidata": "Q668687", "collection_times": "Mo-Fr 16:00; Sa 10:00", "name": "USPS COLLECTION BOX - PO LOBBY", "note": "ON 12/24 AND 12/31, THIS BOX MAY BE COLLECTED AS EARLY AS 12 NOON.", "nsi_id": "unitedstatespostalservice-a77078", "operator": "United States Postal Service", "operator:short": "USPS", "operator:type": "public", "operator:wikidata": "Q668687", "ref": "5857700002"}, "type": "Feature"}
{"dataset_attributes": {"@spider": "usps_collection_boxes", "spider:collection_time": "2023-09-16T08:22:24.198600"}, "geometry": {"coordinates": [-100.782435321, 47.158668032], "type": "Point"}, "id": "kH1bfNwTqFv31M2SjXHfqDkphx8=", "properties": {"@spider": "usps_collection_boxes", "addr:city": "WILTON", "addr:country": "US", "addr:full": "25 DAKOTA AVE", "addr:postcode": "58579", "addr:state": "ND", "amenity": "post_box", "brand": "United States Postal Service", "brand:wikidata": "Q668687", "collection_times": "Mo-Sa 17:00", "name": "USPS COLLECTION BOX - BLUE BOX", "note": "ON 12/24 AND 12/31, THIS BOX MAY BE COLLECTED AS EARLY AS 12 NOON.", "nsi_id": "unitedstatespostalservice-a77078", "operator": "United States Postal Service", "operator:short": "USPS", "operator:type": "public", "operator:wikidata": "Q668687", "ref": "5857900001"}, "type": "Feature"}
{"dataset_attributes": {"@spider": "usps_collection_boxes", "spider:collection_time": "2023-09-16T08:22:24.198600"}, "geometry": {"coordinates": [-100.790703251, 47.155112488], "type": "Point"}, "id": "OqFCz1gDWR324zWNoUwilim382o=", "properties": {"@spider": "usps_collection_boxes", "addr:city": "WILTON", "addr:country": "US", "addr:full": "615 MINNIE AVE", "addr:postcode": "58579", "addr:state": "ND", "amenity": "post_box", "brand": "United States Postal Service", "brand:wikidata": "Q668687", "collection_times": "Mo-Sa 13:30", "name": "USPS COLLECTION BOX - BLUE BOX", "note": "ON 12/24 AND 12/31, THIS BOX MAY BE COLLECTED AS EARLY AS 12 NOON.", "nsi_id": "unitedstatespostalservice-a77078", "operator": "United States Postal Service", "operator:short": "USPS", "operator:type": "public", "operator:wikidata": "Q668687", "ref": "5857900002"}, "type": "Feature"}
{"dataset_attributes": {"@spider": "usps_collection_boxes", "spider:collection_time": "2023-09-16T08:22:24.198600"}, "geometry": {"coordinates": [-100.782435321, 47.158668032], "type": "Point"}, "id": "gupuMkwl2uJOSfFlDzfPd-KsHvI=", "properties": {"@spider": "usps_collection_boxes", "addr:city": "WILTON", "addr:country": "US", "addr:full": "25 DAKOTA AVE", "addr:postcode": "58579", "addr:state": "ND", "amenity": "post_box", "brand": "United States Postal Service", "brand:wikidata": "Q668687", "collection_times": "Mo-Fr 15:00; Sa 09:30", "name": "USPS COLLECTION BOX - PO LOBBY", "note": "ON 12/24 AND 12/31, THIS BOX MAY BE COLLECTED AS EARLY AS 12 NOON.", "nsi_id": "unitedstatespostalservice-a77078", "operator": "United States Postal Service", "operator:short": "USPS", "operator:type": "public", "operator:wikidata": "Q668687", "ref": "5857900003"}, "type": "Feature"}
{"dataset_attributes": {"@spider": "usps_collection_boxes", "spider:collection_time": "2023-09-16T08:22:24.198600"}, "geometry": {"coordinates": [-101.924382004, 47.287089335], "type": "Point"}, "id": "2UrR7E3zgo4gFOTNhC3RoXujA3Q=", "properties": {"@spider": "usps_collection_boxes", "addr:city": "ZAP", "addr:country": "US", "addr:full": "113 MAIN ST", "addr:postcode": "58580", "addr:state": "ND", "amenity": "post_box", "brand": "United States Postal Service", "brand:wikidata": "Q668687", "collection_times": "Mo-Sa 14:15", "name": "USPS COLLECTION BOX - BLUE BOX", "note": "ON 12/24 AND 12/31, THIS BOX MAY BE COLLECTED AS EARLY AS 12 NOON.", "nsi_id": "unitedstatespostalservice-a77078", "operator": "United States Postal Service", "operator:short": "USPS", "operator:type": "public", "operator:wikidata": "Q668687", "ref": "5858000001"}, "type": "Feature"}
{"dataset_attributes": {"@spider": "usps_collection_boxes", "spider:collection_time": "2023-09-16T08:22:24.198600"}, "geometry": {"coordinates": [-101.924382004, 47.287089335], "type": "Point"}, "id": "pqFHbhW8gt1MjDL9RJ3ZEvsZebc=", "properties": {"@spider": "usps_collection_boxes", "addr:city": "ZAP", "addr:country": "US", "addr:full": "113 MAIN ST", "addr:postcode": "58580", "addr:state": "ND", "amenity": "post_box", "brand": "United States Postal Service", "brand:wikidata": "Q668687", "collection_times": "Mo-Fr 12:00; Sa 09:45", "name": "USPS COLLECTION BOX - PO LOBBY", "nsi_id": "unitedstatespostalservice-a77078", "operator": "United States Postal Service", "operator:short": "USPS", "operator:type": "public", "operator:wikidata": "Q668687", "ref": "5858000002"}, "type": "Feature"}
{"dataset_attributes": {"@spider": "usps_collection_boxes", "spider:collection_time": "2023-09-16T08:22:24.198600"}, "geometry": {"coordinates": [-99.830541035, 45.96899101], "type": "Point"}, "id": "1mo2Gxy0rPgA5HXKOicLIwkWces=", "properties": {"@spider": "usps_collection_boxes", "addr:city": "ZEELAND", "addr:country": "US", "addr:full": "108 S MAIN", "addr:postcode": "58581", "addr:state": "ND", "amenity": "post_box", "brand": "United States Postal Service", "brand:wikidata": "Q668687", "collection_times": "Mo-Sa 13:10", "name": "USPS COLLECTION BOX - BLUE BOX", "note": "ON 12/24 AND 12/31, THIS BOX MAY BE COLLECTED AS EARLY AS 12 NOON.", "nsi_id": "unitedstatespostalservice-a77078", "operator": "United States Postal Service", "operator:short": "USPS", "operator:type": "public", "operator:wikidata": "Q668687", "ref": "5858100001"}, "type": "Feature"}
{"dataset_attributes": {"@spider": "usps_collection_boxes", "spider:collection_time": "2023-09-16T08:22:24.198600"}, "geometry": {"coordinates": [-99.830541035, 45.96899101], "type": "Point"}, "id": "JK4IGjhwhf0QkN_JD0yTPNO9O0E=", "properties": {"@spider": "usps_collection_boxes", "addr:city": "ZEELAND", "addr:country": "US", "addr:full": "108 S MAIN", "addr:postcode": "58581", "addr:state": "ND", "amenity": "post_box", "brand": "United States Postal Service", "brand:wikidata": "Q668687", "collection_times": "Mo-Fr 13:10; Sa 09:30", "name": "USPS COLLECTION BOX - PO LOBBY", "note": "ON 12/24 AND 12/31, THIS BOX MAY BE COLLECTED AS EARLY AS 12 NOON.", "nsi_id": "unitedstatespostalservice-a77078", "operator": "United States Postal Service", "operator:short": "USPS", "operator:type": "public", "operator:wikidata": "Q668687", "ref": "5858100002"}, "type": "Feature"}
