{"dataset_attributes": {"@spider": "usps_collection_boxes", "spider:collection_time": "2023-10-16T08:26:35.141500"}, "geometry": {"coordinates": [-102.7916359728, 46.8933590021], "type": "Point"}, "id": "F1naekW2E_HWr03YPl_Q7rG4-nc=", "properties": {"@spider": "usps_collection_boxes", "addr:city": "DICKINSON", "addr:country": "US", "addr:full": "1173 3RD AVE W", "addr:postcode": "58601", "addr:state": "ND", "amenity": "post_box", "brand": "United States Postal Service", "brand:wikidata": "Q668687", "collection_times": "Mo-Sa 14:00", "name": "USPS COLLECTION BOX - BLUE BOX", "note": "ON 12/24 AND 12/31, THIS BOX MAY BE COLLECTED AS EARLY AS 12 NOON.", "nsi_id": "unitedstatespostalservice-a77078", "operator": "United States Postal Service", "operator:short": "USPS", "operator:type": "public", "operator:wikidata": "Q668687", "ref": "5860100002"}, "type": "Feature"}
{"dataset_attributes": {"@spider": "usps_collection_boxes", "spider:collection_time": "2023-10-16T08:26:35.141500"}, "geometry": {"coordinates": [-102.835476923, 46.895592619], "type": "Point"}, "id": "F98Bo7v7349tLYnROSMwgFtjwAk=", "properties": {"@spider": "usps_collection_boxes", "addr:city": "DICKINSON", "addr:country": "US", "addr:full": "1283 ROUGHRIDER BLVD", "addr:postcode": "58601", "addr:state": "ND", "amenity": "post_box", "brand": "United States Postal Service", "brand:wikidata": "Q668687", "collection_times": "Mo-Sa 11:30", "name": "USPS COLLECTION BOX - BLUE BOX", "nsi_id": "unitedstatespostalservice-a77078", "operator": "United States Postal Service", "operator:short": "USPS", "operator:type": "public", "operator:wikidata": "Q668687", "ref": "5860100005"}, "type": "Feature"}
{"dataset_attributes": {"@spider": "usps_collection_boxes", "spider:collection_time": "2023-10-16T08:26:35.141500"}, "geometry": {"coordinates": [-102.799973195, 46.882479279], "type": "Point"}, "id": "9lrWlIftEKb9cZDOtYXn76ADsBk=", "properties": {"@spider": "usps_collection_boxes", "addr:city": "DICKINSON", "addr:country": "US", "addr:full": "291 CAMPUS DR", "addr:postcode": "58601", "addr:state": "ND", "amenity": "post_box", "brand": "United States Postal Service", "brand:wikidata": "Q668687", "collection_times": "Mo-Sa 12:00", "name": "USPS COLLECTION BOX - BLUE BOX", "nsi_id": "unitedstatespostalservice-a77078", "operator": "United States Postal Service", "operator:short": "USPS", "operator:type": "public", "operator:wikidata": "Q668687", "ref": "5860100007"}, "type": "Feature"}
{"dataset_attributes": {"@spider": "usps_collection_boxes", "spider:collection_time": "2023-10-16T08:26:35.141500"}, "geometry": {"coordinates": [-102.789808809, 46.900875309], "type": "Point"}, "id": "tDpbXT483o62bzOcXA4Rgno1fLQ=", "properties": {"@spider": "usps_collection_boxes", "addr:city": "DICKINSON", "addr:country": "US", "addr:full": "1681 3RD AVE W", "addr:postcode": "58601", "addr:state": "ND", "amenity": "post_box", "brand": "United States Postal Service", "brand:wikidata": "Q668687", "collection_times": "Mo-Sa 13:45", "name": "USPS COLLECTION BOX - BLUE BOX", "note": "ON 12/24 AND 12/31, THIS BOX MAY BE COLLECTED AS EARLY AS 12 NOON.", "nsi_id": "unitedstatespostalservice-a77078", "operator": "United States Postal Service", "operator:short": "USPS", "operator:type": "public", "operator:wikidata": "Q668687", "ref": "5860100009"}, "type": "Feature"}
{"dataset_attributes": {"@spider": "usps_collection_boxes", "spider:collection_time": "2023-10-16T08:26:35.141500"}, "geometry": {"coordinates": [-102.785030251, 46.879765457], "type": "Point"}, "id": "693O_qOauntsmRRftawQ91B6Mk4=", "properties": {"@spider": "usps_collection_boxes", "addr:city": "DICKINSON", "addr:country": "US", "addr:full": "15 1ST ST E", "addr:postcode": "58601", "addr:state": "ND", "amenity": "post_box", "brand": "United States Postal Service", "brand:wikidata": "Q668687", "collection_times": "Mo-Fr 17:00; Sa 15:00", "name": "USPS COLLECTION BOX - PO LOBBY", "note": "ON 12/24 AND 12/31, THIS BOX MAY BE COLLECTED AS EARLY AS 12 NOON.", "nsi_id": "unitedstatespostalservice-a77078", "operator": "United States Postal Service", "operator:short": "USPS", "operator:type": "public", "operator:wikidata": "Q668687", "ref": "5860100010"}, "type": "Feature"}
{"dataset_attributes": {"@spider": "usps_collection_boxes", "spider:collection_time": "2023-10-16T08:26:35.141500"}, "geometry": {"coordinates": [-102.785030251, 46.879765457], "type": "Point"}, "id": "75Dnv_JXaGC1HdKfCyNo31zotCM=", "properties": {"@spider": "usps_collection_boxes", "addr:city": "DICKINSON", "addr:country": "US", "addr:full": "15 1ST ST E", "addr:postcode": "58601", "addr:state": "ND", "amenity": "post_box", "brand": "United States Postal Service", "brand:wikidata": "Q668687", "collection_times": "Mo-Fr 17:00; Sa 15:00", "name": "USPS COLLECTION BOX - APC", "note": "ON 12/24 AND 12/31, THIS BOX MAY BE COLLECTED AS EARLY AS 12 NOON.", "nsi_id": "unitedstatespostalservice-a77078", "operator": "United States Postal Service", "operator:short": "USPS", "operator:type": "public", "operator:wikidata": "Q668687", "ref": "5860100015"}, "type": "Feature"}
{"dataset_attributes": {"@spider": "usps_collection_boxes", "spider:collection_time": "2023-10-16T08:26:35.141500"}, "geometry": {"coordinates": [-102.785030251, 46.879765457], "type": "Point"}, "id": "73WsUkH9TQvZNgNnrb-o9bvdD-E=", "properties": {"@spider": "usps_collection_boxes", "addr:city": "DICKINSON", "addr:country": "US", "addr:full": "15 1ST ST E", "addr:postcode": "58601", "addr:state": "ND", "amenity": "post_box", "brand": "United States Postal Service", "brand:wikidata": "Q668687", "collection_times": "Mo-Fr 17:00; Sa 12:00", "name": "USPS COLLECTION BOX - PO LOBBY", "note": "ON 12/24 AND 12/31, THIS BOX MAY BE COLLECTED AS EARLY AS 12 NOON.", "nsi_id": "unitedstatespostalservice-a77078", "operator": "United States Postal Service", "operator:short": "USPS", "operator:type": "public", "operator:wikidata": "Q668687", "ref": "5860100018"}, "type": "Feature"}
{"dataset_attributes": {"@spider": "usps_collection_boxes", "spider:collection_time": "2023-10-16T08:26:35.141500"}, "geometry": {"coordinates": [-104.006214829, 46.914895549], "type": "Point"}, "id": "Spe9b1NtiW0PT_7cw0JUpc2KUyA=", "properties": {"@spider": "usps_collection_boxes", "addr:city": "BEACH", "addr:country": "US", "addr:full": "177 S CENTRAL AVE", "addr:postcode": "58621", "addr:state": "ND", "amenity": "post_box", "brand": "United States Postal Service", "brand:wikidata": "Q668687", "collection_times": "Mo-Sa 12:50", "name": "USPS COLLECTION BOX - BLUE BOX", "note": "ON 12/24 AND 12/31, THIS BOX MAY BE COLLECTED AS EARLY AS 12 NOON.", "nsi_id": "unitedstatespostalservice-a77078", "operator": "United States Postal Service", "operator:short": "USPS", "operator:type": "public", "operator:wikidata": "Q668687", "ref": "5862100001"}, "type": "Feature"}
{"dataset_attributes": {"@spider": "usps_collection_boxes", "spider:collection_time": "2023-10-16T08:26:35.141500"}, "geometry": {"coordinates": [-104.006214829, 46.914895549], "type": "Point"}, "id": "xDRDjRYRFoCVRkX6LGBtfGlZvEE=", "properties": {"@spider": "usps_collection_boxes", "addr:city": "BEACH", "addr:country": "US", "addr:full": "177 S CENTRAL AVE", "addr:postcode": "58621", "addr:state": "ND", "amenity": "post_box", "brand": "United States Postal Service", "brand:wikidata": "Q668687", "collection_times": "Mo-Fr 12:50; Sa 11:00", "name": "USPS COLLECTION BOX - PO LOBBY", "note": "ON 12/24 AND 12/31, THIS BOX MAY BE COLLECTED AS EARLY AS 12 NOON.", "nsi_id": "unitedstatespostalservice-a77078", "operator": "United States Postal Service", "operator:short": "USPS", "operator:type": "public", "operator:wikidata": "Q668687", "ref": "5862100002"}, "type": "Feature"}
{"dataset_attributes": {"@spider": "usps_collection_boxes", "spider:collection_time": "2023-10-16T08:26:35.141500"}, "geometry": {"coordinates": [-104.006214829, 46.914895549], "type": "Point"}, "id": "x6U2dScIRUcLmHToP0JTAhz0y0g=", "properties": {"@spider": "usps_collection_boxes", "addr:city": "BEACH", "addr:country": "US", "addr:full": "177 S CENTRAL AVE", "addr:postcode": "58621", "addr:state": "ND", "amenity": "post_box", "brand": "United States Postal Service", "brand:wikidata": "Q668687", "collection_times": "Mo-Fr 12:40; Sa 10:50", "name": "USPS COLLECTION BOX - PO LOBBY", "note": "ON 12/24 AND 12/31, THIS BOX MAY BE COLLECTED AS EARLY AS 12 NOON.", "nsi_id": "unitedstatespostalservice-a77078", "operator": "United States Postal Service", "operator:short": "USPS", "operator:type": "public", "operator:wikidata": "Q668687", "ref": "5862100004"}, "type": "Feature"}
{"dataset_attributes": {"@spider": "usps_collection_boxes", "spider:collection_time": "2023-10-16T08:26:35.141500"}, "geometry": {"coordinates": [-103.200149174, 46.885295336], "type": "Point"}, "id": "i9jMJDdfY5MkcOBJPoTLL-GTwDE=", "properties": {"@spider": "usps_collection_boxes", "addr:city": "BELFIELD", "addr:country": "US", "addr:full": "105 1ST AVE NW", "addr:postcode": "58622", "addr:state": "ND", "amenity": "post_box", "brand": "United States Postal Service", "brand:wikidata": "Q668687", "collection_times": "Mo-Sa 14:00", "name": "USPS COLLECTION BOX - BLUE BOX", "note": "ON 12/24 AND 12/31, THIS BOX MAY BE COLLECTED AS EARLY AS 12 NOON.", "nsi_id": "unitedstatespostalservice-a77078", "operator": "United States Postal Service", "operator:short": "USPS", "operator:type": "public", "operator:wikidata": "Q668687", "ref": "5862200001"}, "type": "Feature"}
{"dataset_attributes": {"@spider": "usps_collection_boxes", "spider:collection_time": "2023-10-16T08:26:35.141500"}, "geometry": {"coordinates": [-103.200149174, 46.885295336], "type": "Point"}, "id": "aXXs4arrag3DR8_Gq4Fu9D6VWjQ=", "properties": {"@spider": "usps_collection_boxes", "addr:city": "BELFIELD", "addr:country": "US", "addr:full": "105 1ST AVE NW", "addr:postcode": "58622", "addr:state": "ND", "amenity": "post_box", "brand": "United States Postal Service", "brand:wikidata": "Q668687", "collection_times": "Mo-Fr 14:00; Sa 10:30", "name": "USPS COLLECTION BOX - PO LOBBY", "note": "ON 12/24 AND 12/31, THIS BOX MAY BE COLLECTED AS EARLY AS 12 NOON.", "nsi_id": "unitedstatespostalservice-a77078", "operator": "United States Postal Service", "operator:short": "USPS", "operator:type": "public", "operator:wikidata": "Q668687", "ref": "5862200004"}, "type": "Feature"}
{"dataset_attributes": {"@spider": "usps_collection_boxes", "spider:collection_time": "2023-10-16T08:26:35.141500"}, "geometry": {"coordinates": [-103.393431813, 46.181384246], "type": "Point"}, "id": "FbcNv3hqP9rCC719J-JUUjGE7L4=", "properties": {"@spider": "usps_collection_boxes", "addr:city": "BOWMAN", "addr:country": "US", "addr:full": "17 1ST AVE SE", "addr:postcode": "58623", "addr:state": "ND", "amenity": "post_box", "brand": "United States Postal Service", "brand:wikidata": "Q668687", "collection_times": "Mo-Sa 11:50", "name": "USPS COLLECTION BOX - BLUE BOX", "nsi_id": "unitedstatespostalservice-a77078", "operator": "United States Postal Service", "operator:short": "USPS", "operator:type": "public", "operator:wikidata": "Q668687", "ref": "5862300001"}, "type": "Feature"}
{"dataset_attributes": {"@spider": "usps_collection_boxes", "spider:collection_time": "2023-10-16T08:26:35.141500"}, "geometry": {"coordinates": [-103.393431813, 46.181384246], "type": "Point"}, "id": "oYAlNDP2IYVeDkpQhHp__qpj05A=", "properties": {"@spider": "usps_collection_boxes", "addr:city": "BOWMAN", "addr:country": "US", "addr:full": "17 1ST AVE SE", "addr:postcode": "58623", "addr:state": "ND", "amenity": "post_box", "brand": "United States Postal Service", "brand:wikidata": "Q668687", "collection_times": "Mo-Sa 11:50", "name": "USPS COLLECTION BOX - PO LOBBY", "nsi_id": "unitedstatespostalservice-a77078", "operator": "United States Postal Service", "operator:short": "USPS", "operator:type": "public", "operator:wikidata": "Q668687", "ref": "5862300003"}, "type": "Feature"}
{"dataset_attributes": {"@spider": "usps_collection_boxes", "spider:collection_time": "2023-10-16T08:26:35.141500"}, "geometry": {"coordinates": [-103.393431813, 46.181384246], "type": "Point"}, "id": "juyCdhPD8KRsPPJ7u-M7JxxFFeY=", "properties": {"@spider": "usps_collection_boxes", "addr:city": "BOWMAN", "addr:country": "US", "addr:full": "17 1ST AVE SE", "addr:postcode": "58623", "addr:state": "ND", "amenity": "post_box", "brand": "United States Postal Service", "brand:wikidata": "Q668687", "collection_times": "Mo-Sa 11:40", "name": "USPS COLLECTION BOX - PO LOBBY", "nsi_id": "unitedstatespostalservice-a77078", "operator": "United States Postal Service", "operator:short": "USPS", "operator:type": "public", "operator:wikidata": "Q668687", "ref": "5862300005"}, "type": "Feature"}
{"dataset_attributes": {"@spider": "usps_collection_boxes", "spider:collection_time": "2023-10-16T08:26:35.141500"}, "geometry": {"coordinates": [-102.201203937, 47.305917021], "type": "Point"}, "id": "BOAS-tWGOu91DrhHdCIdLdGveA0=", "properties": {"@spider": "usps_collection_boxes", "addr:city": "DODGE", "addr:country": "US", "addr:full": "105 CENTRAL AVE", "addr:postcode": "58625", "addr:state": "ND", "amenity": "post_box", "brand": "United States Postal Service", "brand:wikidata": "Q668687", "collection_times": "Mo-Sa 13:00", "name": "USPS COLLECTION BOX - BLUE BOX", "note": "ON 12/24 AND 12/31, THIS BOX MAY BE COLLECTED AS EARLY AS 12 NOON.", "nsi_id": "unitedstatespostalservice-a77078", "operator": "United States Postal Service", "operator:short": "USPS", "operator:type": "public", "operator:wikidata": "Q668687", "ref": "5862500001"}, "type": "Feature"}
{"dataset_attributes": {"@spider": "usps_collection_boxes", "spider:collection_time": "2023-10-16T08:26:35.141500"}, "geometry": {"coordinates": [-102.201199926, 47.305926579], "type": "Point"}, "id": "CD6TFu-hF27n2nJX_3wyWJ89ids=", "properties": {"@spider": "usps_collection_boxes", "addr:city": "DODGE", "addr:country": "US", "addr:full": "105 CENTRAL AVE", "addr:postcode": "58625", "addr:state": "ND", "amenity": "post_box", "brand": "United States Postal Service", "brand:wikidata": "Q668687", "collection_times": "Mo-Sa 11:45", "name": "USPS COLLECTION BOX - PO LOBBY", "nsi_id": "unitedstatespostalservice-a77078", "operator": "United States Postal Service", "operator:short": "USPS", "operator:type": "public", "operator:wikidata": "Q668687", "ref": "5862500002"}, "type": "Feature"}
{"dataset_attributes": {"@spider": "usps_collection_boxes", "spider:collection_time": "2023-10-16T08:26:35.141500"}, "geometry": {"coordinates": [-102.201199926, 47.305926579], "type": "Point"}, "id": "yh-8ujPDKLEHS4gBy4a2pEHbgDo=", "properties": {"@spider": "usps_collection_boxes", "addr:city": "DODGE", "addr:country": "US", "addr:full": "105 CENTRAL AVE", "addr:postcode": "58625", "addr:state": "ND", "amenity": "post_box", "brand": "United States Postal Service", "brand:wikidata": "Q668687", "collection_times": "Mo-Sa 11:45", "name": "USPS COLLECTION BOX - PO LOBBY", "nsi_id": "unitedstatespostalservice-a77078", "operator": "United States Postal Service", "operator:short": "USPS", "operator:type": "public", "operator:wikidata": "Q668687", "ref": "5862500003"}, "type": "Feature"}
{"dataset_attributes": {"@spider": "usps_collection_boxes", "spider:collection_time": "2023-10-16T08:26:35.141500"}, "geometry": {"coordinates": [-102.5690380043, 46.8606277194], "type": "Point"}, "id": "ODKkGKM-SdvfCPB7ftxfEng8WG8=", "properties": {"@spider": "usps_collection_boxes", "addr:city": "GLADSTONE", "addr:country": "US", "addr:full": "114 5TH AVE", "addr:postcode": "58630", "addr:state": "ND", "amenity": "post_box", "brand": "United States Postal Service", "brand:wikidata": "Q668687", "collection_times": "Mo-Sa 14:15", "name": "USPS COLLECTION BOX - BLUE BOX", "note": "ON 12/24 AND 12/31, THIS BOX MAY BE COLLECTED AS EARLY AS 12 NOON.", "nsi_id": "unitedstatespostalservice-a77078", "operator": "United States Postal Service", "operator:short": "USPS", "operator:type": "public", "operator:wikidata": "Q668687", "ref": "5863000001"}, "type": "Feature"}
{"dataset_attributes": {"@spider": "usps_collection_boxes", "spider:collection_time": "2023-10-16T08:26:35.141500"}, "geometry": {"coordinates": [-102.569042504, 46.860618719], "type": "Point"}, "id": "FV4A-l5NptVUAH-4X-ks3VdL-qM=", "properties": {"@spider": "usps_collection_boxes", "addr:city": "GLADSTONE", "addr:country": "US", "addr:full": "114 5TH AVE", "addr:postcode": "58630", "addr:state": "ND", "amenity": "post_box", "brand": "United States Postal Service", "brand:wikidata": "Q668687", "collection_times": "Mo-Fr 11:30; Sa 09:30", "name": "USPS COLLECTION BOX - PO LOBBY", "nsi_id": "unitedstatespostalservice-a77078", "operator": "United States Postal Service", "operator:short": "USPS", "operator:type": "public", "operator:wikidata": "Q668687", "ref": "5863000004"}, "type": "Feature"}
{"dataset_attributes": {"@spider": "usps_collection_boxes", "spider:collection_time": "2023-10-16T08:26:35.141500"}, "geometry": {"coordinates": [-102.569042504, 46.860618719], "type": "Point"}, "id": "5N6ahr_X5lFQkmCCEhLQkOlvvBM=", "properties": {"@spider": "usps_collection_boxes", "addr:city": "GLADSTONE", "addr:country": "US", "addr:full": "114 5TH AVE", "addr:postcode": "58630", "addr:state": "ND", "amenity": "post_box", "brand": "United States Postal Service", "brand:wikidata": "Q668687", "collection_times": "Mo-Fr 11:30; Sa 09:30", "name": "USPS COLLECTION BOX - PO LOBBY", "nsi_id": "unitedstatespostalservice-a77078", "operator": "United States Postal Service", "operator:short": "USPS", "operator:type": "public", "operator:wikidata": "Q668687", "ref": "5863000005"}, "type": "Feature"}
{"dataset_attributes": {"@spider": "usps_collection_boxes", "spider:collection_time": "2023-10-16T08:26:35.141500"}, "geometry": {"coordinates": [-101.830191545, 46.815379397], "type": "Point"}, "id": "Ejoml2hOF6zYyCikPF1kmI8SJyA=", "properties": {"@spider": "usps_collection_boxes", "addr:city": "GLEN ULLIN", "addr:country": "US", "addr:full": "115 S MAIN ST", "addr:postcode": "58631", "addr:state": "ND", "amenity": "post_box", "brand": "United States Postal Service", "brand:wikidata": "Q668687", "collection_times": "Mo-Sa 16:15", "name": "USPS COLLECTION BOX - BLUE BOX", "note": "ON 12/24 AND 12/31, THIS BOX MAY BE COLLECTED AS EARLY AS 12 NOON.", "nsi_id": "unitedstatespostalservice-a77078", "operator": "United States Postal Service", "operator:short": "USPS", "operator:type": "public", "operator:wikidata": "Q668687", "ref": "5863100001"}, "type": "Feature"}
{"dataset_attributes": {"@spider": "usps_collection_boxes", "spider:collection_time": "2023-10-16T08:26:35.141500"}, "geometry": {"coordinates": [-101.830191545, 46.815379397], "type": "Point"}, "id": "4-jHwjFdoGr--D-4bTmnAg4tIHI=", "properties": {"@spider": "usps_collection_boxes", "addr:city": "GLEN ULLIN", "addr:country": "US", "addr:full": "115 S MAIN ST", "addr:postcode": "58631", "addr:state": "ND", "amenity": "post_box", "brand": "United States Postal Service", "brand:wikidata": "Q668687", "collection_times": "Mo-Fr 16:15; Sa 10:00", "name": "USPS COLLECTION BOX - PO LOBBY", "note": "ON 12/24 AND 12/31, THIS BOX MAY BE COLLECTED AS EARLY AS 12 NOON.", "nsi_id": "unitedstatespostalservice-a77078", "operator": "United States Postal Service", "operator:short": "USPS", "operator:type": "public", "operator:wikidata": "Q668687", "ref": "5863100002"}, "type": "Feature"}
{"dataset_attributes": {"@spider": "usps_collection_boxes", "spider:collection_time": "2023-10-16T08:26:35.141500"}, "geometry": {"coordinates": [-101.830191545, 46.815379397], "type": "Point"}, "id": "mhYi0Pe5QvAbyRmdBLU8q6xqFTY=", "properties": {"@spider": "usps_collection_boxes", "addr:city": "GLEN ULLIN", "addr:country": "US", "addr:full": "115 S MAIN ST", "addr:postcode": "58631", "addr:state": "ND", "amenity": "post_box", "brand": "United States Postal Service", "brand:wikidata": "Q668687", "collection_times": "Mo-Fr 16:15; Sa 10:00", "name": "USPS COLLECTION BOX - PO LOBBY", "note": "ON 12/24 AND 12/31, THIS BOX MAY BE COLLECTED AS EARLY AS 12 NOON.", "nsi_id": "unitedstatespostalservice-a77078", "operator": "United States Postal Service", "operator:short": "USPS", "operator:type": "public", "operator:wikidata": "Q668687", "ref": "5863100004"}, "type": "Feature"}
{"dataset_attributes": {"@spider": "usps_collection_boxes", "spider:collection_time": "2023-10-16T08:26:35.141500"}, "geometry": {"coordinates": [-103.983572152, 46.735422643], "type": "Point"}, "id": "-70KXiJTofnZooEYz-YdjZbhVlM=", "properties": {"@spider": "usps_collection_boxes", "addr:city": "GOLVA", "addr:country": "US", "addr:full": "405 TERRELL AVE", "addr:postcode": "58632", "addr:state": "ND", "amenity": "post_box", "brand": "United States Postal Service", "brand:wikidata": "Q668687", "collection_times": "Mo-Sa 11:15", "name": "USPS COLLECTION BOX - BLUE BOX", "nsi_id": "unitedstatespostalservice-a77078", "operator": "United States Postal Service", "operator:short": "USPS", "operator:type": "public", "operator:wikidata": "Q668687", "ref": "5863200001"}, "type": "Feature"}
{"dataset_attributes": {"@spider": "usps_collection_boxes", "spider:collection_time": "2023-10-16T08:26:35.141500"}, "geometry": {"coordinates": [-103.983572152, 46.735422643], "type": "Point"}, "id": "kDorx28Eyc7lbTsR3cSUHy5ioWU=", "properties": {"@spider": "usps_collection_boxes", "addr:city": "GOLVA", "addr:country": "US", "addr:full": "405 TERRELL AVE", "addr:postcode": "58632", "addr:state": "ND", "amenity": "post_box", "brand": "United States Postal Service", "brand:wikidata": "Q668687", "collection_times": "Mo-Sa 11:15", "name": "USPS COLLECTION BOX - PO LOBBY", "nsi_id": "unitedstatespostalservice-a77078", "operator": "United States Postal Service", "operator:short": "USPS", "operator:type": "public", "operator:wikidata": "Q668687", "ref": "5863200002"}, "type": "Feature"}
{"dataset_attributes": {"@spider": "usps_collection_boxes", "spider:collection_time": "2023-10-16T08:26:35.141500"}, "geometry": {"coordinates": [-103.983572152, 46.735422643], "type": "Point"}, "id": "FzIG01fDr6BX6a43w5w-TLvy8JE=", "properties": {"@spider": "usps_collection_boxes", "addr:city": "GOLVA", "addr:country": "US", "addr:full": "405 TERRELL AVE", "addr:postcode": "58632", "addr:state": "ND", "amenity": "post_box", "brand": "United States Postal Service", "brand:wikidata": "Q668687", "collection_times": "Mo-Sa 11:15", "name": "USPS COLLECTION BOX - PO LOBBY", "nsi_id": "unitedstatespostalservice-a77078", "operator": "United States Postal Service", "operator:short": "USPS", "operator:type": "public", "operator:wikidata": "Q668687", "ref": "5863200003"}, "type": "Feature"}
{"dataset_attributes": {"@spider": "usps_collection_boxes", "spider:collection_time": "2023-10-16T08:26:35.141500"}, "geometry": {"coordinates": [-103.247944362, 47.394199152], "type": "Point"}, "id": "OIKTIN4BlXGPkjQh99DtXP8oJ3A=", "properties": {"@spider": "usps_collection_boxes", "addr:city": "GRASSY BUTTE", "addr:country": "US", "addr:full": "409 MAIN ST", "addr:postcode": "58634", "addr:state": "ND", "amenity": "post_box", "brand": "United States Postal Service", "brand:wikidata": "Q668687", "collection_times": "Mo-Sa 12:00", "name": "USPS COLLECTION BOX - BLUE BOX", "nsi_id": "unitedstatespostalservice-a77078", "operator": "United States Postal Service", "operator:short": "USPS", "operator:type": "public", "operator:wikidata": "Q668687", "ref": "5863400001"}, "type": "Feature"}
{"dataset_attributes": {"@spider": "usps_collection_boxes", "spider:collection_time": "2023-10-16T08:26:35.141500"}, "geometry": {"coordinates": [-103.247944362, 47.394199152], "type": "Point"}, "id": "Pg5FyUVfIva1fWgnTNWuXZk39W0=", "properties": {"@spider": "usps_collection_boxes", "addr:city": "GRASSY BUTTE", "addr:country": "US", "addr:full": "409 MAIN ST", "addr:postcode": "58634", "addr:state": "ND", "amenity": "post_box", "brand": "United States Postal Service", "brand:wikidata": "Q668687", "collection_times": "Mo-Fr 12:00; Sa 11:15", "name": "USPS COLLECTION BOX - PO LOBBY", "nsi_id": "unitedstatespostalservice-a77078", "operator": "United States Postal Service", "operator:short": "USPS", "operator:type": "public", "operator:wikidata": "Q668687", "ref": "5863400002"}, "type": "Feature"}
{"dataset_attributes": {"@spider": "usps_collection_boxes", "spider:collection_time": "2023-10-16T08:26:35.141500"}, "geometry": {"coordinates": [-102.335750497, 47.354495489], "type": "Point"}, "id": "4XkAXbdANeToxCAQ9q1GAnWVoOE=", "properties": {"@spider": "usps_collection_boxes", "addr:city": "HALLIDAY", "addr:country": "US", "addr:full": "113 E MAIN ST", "addr:postcode": "58636", "addr:state": "ND", "amenity": "post_box", "brand": "United States Postal Service", "brand:wikidata": "Q668687", "collection_times": "Mo-Sa 13:45", "name": "USPS COLLECTION BOX - BLUE BOX", "note": "ON 12/24 AND 12/31, THIS BOX MAY BE COLLECTED AS EARLY AS 12 NOON.", "nsi_id": "unitedstatespostalservice-a77078", "operator": "United States Postal Service", "operator:short": "USPS", "operator:type": "public", "operator:wikidata": "Q668687", "ref": "5863600001"}, "type": "Feature"}
{"dataset_attributes": {"@spider": "usps_collection_boxes", "spider:collection_time": "2023-10-16T08:26:35.141500"}, "geometry": {"coordinates": [-102.335750497, 47.354495489], "type": "Point"}, "id": "xyJEQJ-S2bRw5rzH81VfoCU9MMA=", "properties": {"@spider": "usps_collection_boxes", "addr:city": "HALLIDAY", "addr:country": "US", "addr:full": "113 E MAIN ST", "addr:postcode": "58636", "addr:state": "ND", "amenity": "post_box", "brand": "United States Postal Service", "brand:wikidata": "Q668687", "collection_times": "Mo-Fr 13:45; Sa 09:15", "name": "USPS COLLECTION BOX - PO LOBBY", "note": "ON 12/24 AND 12/31, THIS BOX MAY BE COLLECTED AS EARLY AS 12 NOON.", "nsi_id": "unitedstatespostalservice-a77078", "operator": "United States Postal Service", "operator:short": "USPS", "operator:type": "public", "operator:wikidata": "Q668687", "ref": "5863600002"}, "type": "Feature"}
{"dataset_attributes": {"@spider": "usps_collection_boxes", "spider:collection_time": "2023-10-16T08:26:35.141500"}, "geometry": {"coordinates": [-102.3357504971, 47.3544954893], "type": "Point"}, "id": "mde-g3eKuW-jA-1jePW4EWDqi-U=", "properties": {"@spider": "usps_collection_boxes", "addr:city": "HALLIDAY", "addr:country": "US", "addr:full": "113 E MAIN ST", "addr:postcode": "58636", "addr:state": "ND", "amenity": "post_box", "brand": "United States Postal Service", "brand:wikidata": "Q668687", "collection_times": "Mo-Fr 13:45; Sa 09:15", "name": "USPS COLLECTION BOX - PO LOBBY", "note": "ON 12/24 AND 12/31, THIS BOX MAY BE COLLECTED AS EARLY AS 12 NOON.", "nsi_id": "unitedstatespostalservice-a77078", "operator": "United States Postal Service", "operator:short": "USPS", "operator:type": "public", "operator:wikidata": "Q668687", "ref": "5863600004"}, "type": "Feature"}
{"dataset_attributes": {"@spider": "usps_collection_boxes", "spider:collection_time": "2023-10-16T08:26:35.141500"}, "geometry": {"coordinates": [-102.04519018, 46.900480663], "type": "Point"}, "id": "WtBOYiHQOlRfKnzFEdR5bZr_qp0=", "properties": {"@spider": "usps_collection_boxes", "addr:city": "HEBRON", "addr:country": "US", "addr:full": "111 S PARK ST", "addr:postcode": "58638", "addr:state": "ND", "amenity": "post_box", "brand": "United States Postal Service", "brand:wikidata": "Q668687", "collection_times": "Mo-Sa 15:30", "name": "USPS COLLECTION BOX - BLUE BOX", "note": "ON 12/24 AND 12/31, THIS BOX MAY BE COLLECTED AS EARLY AS 12 NOON.", "nsi_id": "unitedstatespostalservice-a77078", "operator": "United States Postal Service", "operator:short": "USPS", "operator:type": "public", "operator:wikidata": "Q668687", "ref": "5863800001"}, "type": "Feature"}
{"dataset_attributes": {"@spider": "usps_collection_boxes", "spider:collection_time": "2023-10-16T08:26:35.141500"}, "geometry": {"coordinates": [-102.04519018, 46.900480663], "type": "Point"}, "id": "IMJnDPOifKiNX5R182pJxkSEIh0=", "properties": {"@spider": "usps_collection_boxes", "addr:city": "HEBRON", "addr:country": "US", "addr:full": "111 S PARK ST", "addr:postcode": "58638", "addr:state": "ND", "amenity": "post_box", "brand": "United States Postal Service", "brand:wikidata": "Q668687", "collection_times": "Mo-Fr 15:30; Sa 11:00", "name": "USPS COLLECTION BOX - PO LOBBY", "note": "ON 12/24 AND 12/31, THIS BOX MAY BE COLLECTED AS EARLY AS 12 NOON.", "nsi_id": "unitedstatespostalservice-a77078", "operator": "United States Postal Service", "operator:short": "USPS", "operator:type": "public", "operator:wikidata": "Q668687", "ref": "5863800002"}, "type": "Feature"}
{"dataset_attributes": {"@spider": "usps_collection_boxes", "spider:collection_time": "2023-10-16T08:26:35.141500"}, "geometry": {"coordinates": [-102.0451510566, 46.9003199409], "type": "Point"}, "id": "7d55woz1clPg9OpOGsy8qL6gT2A=", "properties": {"@spider": "usps_collection_boxes", "addr:city": "HEBRON", "addr:country": "US", "addr:full": "111 S PARK ST", "addr:postcode": "58638", "addr:state": "ND", "amenity": "post_box", "brand": "United States Postal Service", "brand:wikidata": "Q668687", "collection_times": "Mo-Fr 15:30; Sa 11:00", "name": "USPS COLLECTION BOX - PO LOBBY", "note": "ON 12/24 AND 12/31, THIS BOX MAY BE COLLECTED AS EARLY AS 12 NOON.", "nsi_id": "unitedstatespostalservice-a77078", "operator": "United States Postal Service", "operator:short": "USPS", "operator:type": "public", "operator:wikidata": "Q668687", "ref": "5863800004"}, "type": "Feature"}
{"dataset_attributes": {"@spider": "usps_collection_boxes", "spider:collection_time": "2023-10-16T08:26:35.141500"}, "geometry": {"coordinates": [-102.569604821, 46.00306925], "type": "Point"}, "id": "2fRYiZOoAQcv5MplDBMG4wslMGM=", "properties": {"@spider": "usps_collection_boxes", "addr:city": "HETTINGER", "addr:country": "US", "addr:full": "502 HIGHWAY 12 E", "addr:postcode": "58639", "addr:state": "ND", "amenity": "post_box", "brand": "United States Postal Service", "brand:wikidata": "Q668687", "collection_times": "Mo-Fr 12:30; Sa 09:00", "name": "USPS COLLECTION BOX - PO LOBBY", "note": "ON 12/24 AND 12/31, THIS BOX MAY BE COLLECTED AS EARLY AS 12 NOON.", "nsi_id": "unitedstatespostalservice-a77078", "operator": "United States Postal Service", "operator:short": "USPS", "operator:type": "public", "operator:wikidata": "Q668687", "ref": "5863900001"}, "type": "Feature"}
{"dataset_attributes": {"@spider": "usps_collection_boxes", "spider:collection_time": "2023-10-16T08:26:35.141500"}, "geometry": {"coordinates": [-102.569604821, 46.00306925], "type": "Point"}, "id": "tBDhVqrOu0NkEAdn5mSlX00y63A=", "properties": {"@spider": "usps_collection_boxes", "addr:city": "HETTINGER", "addr:country": "US", "addr:full": "502 HIGHWAY 12 E", "addr:postcode": "58639", "addr:state": "ND", "amenity": "post_box", "brand": "United States Postal Service", "brand:wikidata": "Q668687", "collection_times": "Mo-Sa 12:30", "name": "USPS COLLECTION BOX - BLUE BOX", "note": "ON 12/24 AND 12/31, THIS BOX MAY BE COLLECTED AS EARLY AS 12 NOON.", "nsi_id": "unitedstatespostalservice-a77078", "operator": "United States Postal Service", "operator:short": "USPS", "operator:type": "public", "operator:wikidata": "Q668687", "ref": "5863900002"}, "type": "Feature"}
{"dataset_attributes": {"@spider": "usps_collection_boxes", "spider:collection_time": "2023-10-16T08:26:35.141500"}, "geometry": {"coordinates": [-102.5696047191, 46.0030694849], "type": "Point"}, "id": "iMe-IFNRsgvUxG1J0YGSCl-Ch3g=", "properties": {"@spider": "usps_collection_boxes", "addr:city": "HETTINGER", "addr:country": "US", "addr:full": "502 HIGHWAY 12 E", "addr:postcode": "58639", "addr:state": "ND", "amenity": "post_box", "brand": "United States Postal Service", "brand:wikidata": "Q668687", "collection_times": "Mo-Fr 12:30; Sa 09:00", "name": "USPS COLLECTION BOX - PO LOBBY", "note": "ON 12/24 AND 12/31, THIS BOX MAY BE COLLECTED AS EARLY AS 12 NOON.", "nsi_id": "unitedstatespostalservice-a77078", "operator": "United States Postal Service", "operator:short": "USPS", "operator:type": "public", "operator:wikidata": "Q668687", "ref": "5863900005"}, "type": "Feature"}
{"dataset_attributes": {"@spider": "usps_collection_boxes", "spider:collection_time": "2023-10-16T08:26:35.141500"}, "geometry": {"coordinates": [-102.751468743, 47.369541269], "type": "Point"}, "id": "0fzZcnTP2YDiEvJ2H7MZRnCNOi8=", "properties": {"@spider": "usps_collection_boxes", "addr:city": "KILLDEER", "addr:country": "US", "addr:full": "48 CENTRAL AVE S", "addr:postcode": "58640", "addr:state": "ND", "amenity": "post_box", "brand": "United States Postal Service", "brand:wikidata": "Q668687", "collection_times": "Mo-Fr 13:10; Sa 10:45", "name": "USPS COLLECTION BOX - PO LOBBY", "note": "ON 12/24 AND 12/31, THIS BOX MAY BE COLLECTED AS EARLY AS 12 NOON.", "nsi_id": "unitedstatespostalservice-a77078", "operator": "United States Postal Service", "operator:short": "USPS", "operator:type": "public", "operator:wikidata": "Q668687", "ref": "5864000003"}, "type": "Feature"}
{"dataset_attributes": {"@spider": "usps_collection_boxes", "spider:collection_time": "2023-10-16T08:26:35.141500"}, "geometry": {"coordinates": [-103.923769087, 46.294882775], "type": "Point"}, "id": "4z1IC5gEdgMyo4I5TEnKOkmi7Ns=", "properties": {"@spider": "usps_collection_boxes", "addr:city": "MARMARTH", "addr:country": "US", "addr:full": "75 1ST ST W", "addr:postcode": "58643", "addr:state": "ND", "amenity": "post_box", "brand": "United States Postal Service", "brand:wikidata": "Q668687", "collection_times": "Mo-Sa 13:20", "name": "USPS COLLECTION BOX - BLUE BOX", "note": "ON 12/24 AND 12/31, THIS BOX MAY BE COLLECTED AS EARLY AS 12 NOON.", "nsi_id": "unitedstatespostalservice-a77078", "operator": "United States Postal Service", "operator:short": "USPS", "operator:type": "public", "operator:wikidata": "Q668687", "ref": "5864300001"}, "type": "Feature"}
{"dataset_attributes": {"@spider": "usps_collection_boxes", "spider:collection_time": "2023-10-16T08:26:35.141500"}, "geometry": {"coordinates": [-103.5236699896, 46.9148999904], "type": "Point"}, "id": "im6Cs_4zY7o8yD2iANs_FSD-_A0=", "properties": {"@spider": "usps_collection_boxes", "addr:city": "MEDORA", "addr:country": "US", "addr:full": "355 3RD AVE", "addr:postcode": "58645", "addr:state": "ND", "amenity": "post_box", "brand": "United States Postal Service", "brand:wikidata": "Q668687", "collection_times": "Mo-Sa 13:30", "name": "USPS COLLECTION BOX - BLUE BOX", "note": "ON 12/24 AND 12/31, THIS BOX MAY BE COLLECTED AS EARLY AS 12 NOON.", "nsi_id": "unitedstatespostalservice-a77078", "operator": "United States Postal Service", "operator:short": "USPS", "operator:type": "public", "operator:wikidata": "Q668687", "ref": "5864500001"}, "type": "Feature"}
{"dataset_attributes": {"@spider": "usps_collection_boxes", "spider:collection_time": "2023-10-16T08:26:35.141500"}, "geometry": {"coordinates": [-103.5236699896, 46.9148999904], "type": "Point"}, "id": "0V3GQrEpp37wYkf8BK0vPdJQ63E=", "properties": {"@spider": "usps_collection_boxes", "addr:city": "MEDORA", "addr:country": "US", "addr:full": "355 3RD AVE", "addr:postcode": "58645", "addr:state": "ND", "amenity": "post_box", "brand": "United States Postal Service", "brand:wikidata": "Q668687", "collection_times": "Mo-Fr 13:30; Sa 09:45", "name": "USPS COLLECTION BOX - PO LOBBY", "note": "ON 12/24 AND 12/31, THIS BOX MAY BE COLLECTED AS EARLY AS 12 NOON.", "nsi_id": "unitedstatespostalservice-a77078", "operator": "United States Postal Service", "operator:short": "USPS", "operator:type": "public", "operator:wikidata": "Q668687", "ref": "5864500002"}, "type": "Feature"}
{"dataset_attributes": {"@spider": "usps_collection_boxes", "spider:collection_time": "2023-10-16T08:26:35.141500"}, "geometry": {"coordinates": [-102.32688497, 46.371460508], "type": "Point"}, "id": "zj8DdE2fWAdO1HZuiunFaVk0VDI=", "properties": {"@spider": "usps_collection_boxes", "addr:city": "MOTT", "addr:country": "US", "addr:full": "123 BROWN AVE", "addr:postcode": "58646", "addr:state": "ND", "amenity": "post_box", "brand": "United States Postal Service", "brand:wikidata": "Q668687", "collection_times": "Mo-Sa 13:45", "name": "USPS COLLECTION BOX - BLUE BOX", "note": "ON 12/24 AND 12/31, THIS BOX MAY BE COLLECTED AS EARLY AS 12 NOON.", "nsi_id": "unitedstatespostalservice-a77078", "operator": "United States Postal Service", "operator:short": "USPS", "operator:type": "public", "operator:wikidata": "Q668687", "ref": "5864600001"}, "type": "Feature"}
{"dataset_attributes": {"@spider": "usps_collection_boxes", "spider:collection_time": "2023-10-16T08:26:35.141500"}, "geometry": {"coordinates": [-102.32688497, 46.371460508], "type": "Point"}, "id": "kT3rEjcI3Im9Qz6aX0-0INVTpb0=", "properties": {"@spider": "usps_collection_boxes", "addr:city": "MOTT", "addr:country": "US", "addr:full": "123 BROWN AVE", "addr:postcode": "58646", "addr:state": "ND", "amenity": "post_box", "brand": "United States Postal Service", "brand:wikidata": "Q668687", "collection_times": "Mo-Fr 13:45; Sa 10:00", "name": "USPS COLLECTION BOX - PO LOBBY", "note": "ON 12/24 AND 12/31, THIS BOX MAY BE COLLECTED AS EARLY AS 12 NOON.", "nsi_id": "unitedstatespostalservice-a77078", "operator": "United States Postal Service", "operator:short": "USPS", "operator:type": "public", "operator:wikidata": "Q668687", "ref": "5864600002"}, "type": "Feature"}
{"dataset_attributes": {"@spider": "usps_collection_boxes", "spider:collection_time": "2023-10-16T08:26:35.141500"}, "geometry": {"coordinates": [-102.866569813, 46.538994313], "type": "Point"}, "id": "XZKSXWC42EWaUfWUmgT-Gc_kVKM=", "properties": {"@spider": "usps_collection_boxes", "addr:city": "NEW ENGLAND", "addr:country": "US", "addr:full": "826 MCKENZIE ST", "addr:postcode": "58647", "addr:state": "ND", "amenity": "post_box", "brand": "United States Postal Service", "brand:wikidata": "Q668687", "collection_times": "Mo-Sa 13:15", "name": "USPS COLLECTION BOX - BLUE BOX", "note": "ON 12/24 AND 12/31, THIS BOX MAY BE COLLECTED AS EARLY AS 12 NOON.", "nsi_id": "unitedstatespostalservice-a77078", "operator": "United States Postal Service", "operator:short": "USPS", "operator:type": "public", "operator:wikidata": "Q668687", "ref": "5864700001"}, "type": "Feature"}
{"dataset_attributes": {"@spider": "usps_collection_boxes", "spider:collection_time": "2023-10-16T08:26:35.141500"}, "geometry": {"coordinates": [-102.866569813, 46.538994313], "type": "Point"}, "id": "w6trlmJhgjxltqpODx5kgJ_6Dog=", "properties": {"@spider": "usps_collection_boxes", "addr:city": "NEW ENGLAND", "addr:country": "US", "addr:full": "826 MCKENZIE ST", "addr:postcode": "58647", "addr:state": "ND", "amenity": "post_box", "brand": "United States Postal Service", "brand:wikidata": "Q668687", "collection_times": "Mo-Fr 13:15; Sa 09:30", "name": "USPS COLLECTION BOX - PO LOBBY", "note": "ON 12/24 AND 12/31, THIS BOX MAY BE COLLECTED AS EARLY AS 12 NOON.", "nsi_id": "unitedstatespostalservice-a77078", "operator": "United States Postal Service", "operator:short": "USPS", "operator:type": "public", "operator:wikidata": "Q668687", "ref": "5864700002"}, "type": "Feature"}
{"dataset_attributes": {"@spider": "usps_collection_boxes", "spider:collection_time": "2023-10-16T08:26:35.141500"}, "geometry": {"coordinates": [-102.944894683, 46.106400205], "type": "Point"}, "id": "571VwdTmGkw8ya41k-fyTECrl3M=", "properties": {"@spider": "usps_collection_boxes", "addr:city": "REEDER", "addr:country": "US", "addr:full": "204 MAIN ST", "addr:postcode": "58649", "addr:state": "ND", "amenity": "post_box", "brand": "United States Postal Service", "brand:wikidata": "Q668687", "collection_times": "Mo-Sa 12:35", "name": "USPS COLLECTION BOX - BLUE BOX", "note": "ON 12/24 AND 12/31, THIS BOX MAY BE COLLECTED AS EARLY AS 12 NOON.", "nsi_id": "unitedstatespostalservice-a77078", "operator": "United States Postal Service", "operator:short": "USPS", "operator:type": "public", "operator:wikidata": "Q668687", "ref": "5864900001"}, "type": "Feature"}
{"dataset_attributes": {"@spider": "usps_collection_boxes", "spider:collection_time": "2023-10-16T08:26:35.141500"}, "geometry": {"coordinates": [-102.9448673112, 46.1064062302], "type": "Point"}, "id": "SEWyf9Ehe5iCfAVEc5PSB7CIMD4=", "properties": {"@spider": "usps_collection_boxes", "addr:city": "REEDER", "addr:country": "US", "addr:full": "204 MAIN ST", "addr:postcode": "58649", "addr:state": "ND", "amenity": "post_box", "brand": "United States Postal Service", "brand:wikidata": "Q668687", "collection_times": "Mo-Fr 12:15; Sa 09:45", "name": "USPS COLLECTION BOX - PO LOBBY", "note": "ON 12/24 AND 12/31, THIS BOX MAY BE COLLECTED AS EARLY AS 12 NOON.", "nsi_id": "unitedstatespostalservice-a77078", "operator": "United States Postal Service", "operator:short": "USPS", "operator:type": "public", "operator:wikidata": "Q668687", "ref": "5864900002"}, "type": "Feature"}
{"dataset_attributes": {"@spider": "usps_collection_boxes", "spider:collection_time": "2023-10-16T08:26:35.141500"}, "geometry": {"coordinates": [-102.557247714, 46.421054336], "type": "Point"}, "id": "njy0z0B-ghr1r2K4zYKPOr4PbGk=", "properties": {"@spider": "usps_collection_boxes", "addr:city": "REGENT", "addr:country": "US", "addr:full": "210 MAIN ST", "addr:postcode": "58650", "addr:state": "ND", "amenity": "post_box", "brand": "United States Postal Service", "brand:wikidata": "Q668687", "collection_times": "Mo-Sa 13:20", "name": "USPS COLLECTION BOX - BLUE BOX", "note": "ON 12/24 AND 12/31, THIS BOX MAY BE COLLECTED AS EARLY AS 12 NOON.", "nsi_id": "unitedstatespostalservice-a77078", "operator": "United States Postal Service", "operator:short": "USPS", "operator:type": "public", "operator:wikidata": "Q668687", "ref": "5865000001"}, "type": "Feature"}
{"dataset_attributes": {"@spider": "usps_collection_boxes", "spider:collection_time": "2023-10-16T08:26:35.141500"}, "geometry": {"coordinates": [-102.557247714, 46.421054336], "type": "Point"}, "id": "MFw-sA6iWQbBF-B0AUx93hkGqnk=", "properties": {"@spider": "usps_collection_boxes", "addr:city": "REGENT", "addr:country": "US", "addr:full": "210 MAIN ST", "addr:postcode": "58650", "addr:state": "ND", "amenity": "post_box", "brand": "United States Postal Service", "brand:wikidata": "Q668687", "collection_times": "Mo-Fr 12:00; Sa 10:00", "name": "USPS COLLECTION BOX - PO LOBBY", "nsi_id": "unitedstatespostalservice-a77078", "operator": "United States Postal Service", "operator:short": "USPS", "operator:type": "public", "operator:wikidata": "Q668687", "ref": "5865000002"}, "type": "Feature"}
{"dataset_attributes": {"@spider": "usps_collection_boxes", "spider:collection_time": "2023-10-16T08:26:35.141500"}, "geometry": {"coordinates": [-103.655824288, 46.232286974], "type": "Point"}, "id": "f9lu60PIBtF7UBOUbnSi2_OJCqo=", "properties": {"@spider": "usps_collection_boxes", "addr:city": "RHAME", "addr:country": "US", "addr:full": "53 MAIN ST", "addr:postcode": "58651", "addr:state": "ND", "amenity": "post_box", "brand": "United States Postal Service", "brand:wikidata": "Q668687", "collection_times": "Mo-Fr 14:00; Sa 13:45", "name": "USPS COLLECTION BOX - BLUE BOX", "note": "ON 12/24 AND 12/31, THIS BOX MAY BE COLLECTED AS EARLY AS 12 NOON.", "nsi_id": "unitedstatespostalservice-a77078", "operator": "United States Postal Service", "operator:short": "USPS", "operator:type": "public", "operator:wikidata": "Q668687", "ref": "5865100000"}, "type": "Feature"}
{"dataset_attributes": {"@spider": "usps_collection_boxes", "spider:collection_time": "2023-10-16T08:26:35.141500"}, "geometry": {"coordinates": [-103.655824288, 46.232286974], "type": "Point"}, "id": "2BFuo5v_hq16fti8RaO4ersVtFY=", "properties": {"@spider": "usps_collection_boxes", "addr:city": "RHAME", "addr:country": "US", "addr:full": "53 MAIN ST", "addr:postcode": "58651", "addr:state": "ND", "amenity": "post_box", "brand": "United States Postal Service", "brand:wikidata": "Q668687", "collection_times": "Mo-Fr 14:00; Sa 10:15", "name": "USPS COLLECTION BOX - PO LOBBY", "note": "ON 12/24 AND 12/31, THIS BOX MAY BE COLLECTED AS EARLY AS 12 NOON.", "nsi_id": "unitedstatespostalservice-a77078", "operator": "United States Postal Service", "operator:short": "USPS", "operator:type": "public", "operator:wikidata": "Q668687", "ref": "5865100001"}, "type": "Feature"}
{"dataset_attributes": {"@spider": "usps_collection_boxes", "spider:collection_time": "2023-10-16T08:26:35.141500"}, "geometry": {"coordinates": [-102.314583987, 46.884288227], "type": "Point"}, "id": "o9E9Oega6wDV8pXafyNpZXOf0zs=", "properties": {"@spider": "usps_collection_boxes", "addr:city": "RICHARDTON", "addr:country": "US", "addr:full": "111 B ST N", "addr:postcode": "58652", "addr:state": "ND", "amenity": "post_box", "brand": "United States Postal Service", "brand:wikidata": "Q668687", "collection_times": "Mo-Sa 14:30", "name": "USPS COLLECTION BOX - BLUE BOX", "note": "ON 12/24 AND 12/31, THIS BOX MAY BE COLLECTED AS EARLY AS 12 NOON.", "nsi_id": "unitedstatespostalservice-a77078", "operator": "United States Postal Service", "operator:short": "USPS", "operator:type": "public", "operator:wikidata": "Q668687", "ref": "5865200001"}, "type": "Feature"}
{"dataset_attributes": {"@spider": "usps_collection_boxes", "spider:collection_time": "2023-10-16T08:26:35.141500"}, "geometry": {"coordinates": [-102.314583987, 46.884288227], "type": "Point"}, "id": "kOPgJOQSrWPgMYFeo0NQlES47bI=", "properties": {"@spider": "usps_collection_boxes", "addr:city": "RICHARDTON", "addr:country": "US", "addr:full": "111 B ST N", "addr:postcode": "58652", "addr:state": "ND", "amenity": "post_box", "brand": "United States Postal Service", "brand:wikidata": "Q668687", "collection_times": "Mo-Fr 14:30; Sa 08:45", "name": "USPS COLLECTION BOX - PO LOBBY", "note": "ON 12/24 AND 12/31, THIS BOX MAY BE COLLECTED AS EARLY AS 12 NOON.", "nsi_id": "unitedstatespostalservice-a77078", "operator": "United States Postal Service", "operator:short": "USPS", "operator:type": "public", "operator:wikidata": "Q668687", "ref": "5865200002"}, "type": "Feature"}
{"dataset_attributes": {"@spider": "usps_collection_boxes", "spider:collection_time": "2023-10-16T08:26:35.141500"}, "geometry": {"coordinates": [-103.14342884, 46.156266425], "type": "Point"}, "id": "QnO5npbLN1WLygp6nuEiRJvOB84=", "properties": {"@spider": "usps_collection_boxes", "addr:city": "SCRANTON", "addr:country": "US", "addr:full": "205 2ND AVE N", "addr:postcode": "58653", "addr:state": "ND", "amenity": "post_box", "brand": "United States Postal Service", "brand:wikidata": "Q668687", "collection_times": "Mo-Sa 12:10", "name": "USPS COLLECTION BOX - BLUE BOX", "note": "ON 12/24 AND 12/31, THIS BOX MAY BE COLLECTED AS EARLY AS 12 NOON.", "nsi_id": "unitedstatespostalservice-a77078", "operator": "United States Postal Service", "operator:short": "USPS", "operator:type": "public", "operator:wikidata": "Q668687", "ref": "5865300001"}, "type": "Feature"}
{"dataset_attributes": {"@spider": "usps_collection_boxes", "spider:collection_time": "2023-10-16T08:26:35.141500"}, "geometry": {"coordinates": [-103.14342884, 46.156266425], "type": "Point"}, "id": "5c0fmcZyZ_GMuThXPa_j0b5hQhE=", "properties": {"@spider": "usps_collection_boxes", "addr:city": "SCRANTON", "addr:country": "US", "addr:full": "205 2ND AVE N", "addr:postcode": "58653", "addr:state": "ND", "amenity": "post_box", "brand": "United States Postal Service", "brand:wikidata": "Q668687", "collection_times": "Mo-Fr 12:00", "name": "USPS COLLECTION BOX - PO LOBBY", "nsi_id": "unitedstatespostalservice-a77078", "operator": "United States Postal Service", "operator:short": "USPS", "operator:type": "public", "operator:wikidata": "Q668687", "ref": "5865300002"}, "type": "Feature"}
{"dataset_attributes": {"@spider": "usps_collection_boxes", "spider:collection_time": "2023-10-16T08:26:35.141500"}, "geometry": {"coordinates": [-102.99213428, 46.865442478], "type": "Point"}, "id": "1NBayp7-TSgo7TgBMPe5a8HRDPg=", "properties": {"@spider": "usps_collection_boxes", "addr:city": "SOUTHHEART", "addr:country": "US", "addr:full": "401 RUDOLPH AVE NW", "addr:postcode": "58655", "addr:state": "ND", "amenity": "post_box", "brand": "United States Postal Service", "brand:wikidata": "Q668687", "collection_times": "Mo-Sa 14:20", "name": "USPS COLLECTION BOX - BLUE BOX", "note": "ON 12/24 AND 12/31, THIS BOX MAY BE COLLECTED AS EARLY AS 12 NOON.", "nsi_id": "unitedstatespostalservice-a77078", "operator": "United States Postal Service", "operator:short": "USPS", "operator:type": "public", "operator:wikidata": "Q668687", "ref": "5865500001"}, "type": "Feature"}
{"dataset_attributes": {"@spider": "usps_collection_boxes", "spider:collection_time": "2023-10-16T08:26:35.141500"}, "geometry": {"coordinates": [-102.99213428, 46.865442478], "type": "Point"}, "id": "9ZPS6YCJDuwKTqS3jbhutCyNHQQ=", "properties": {"@spider": "usps_collection_boxes", "addr:city": "SOUTHHEART", "addr:country": "US", "addr:full": "401 RUDOLPH AVE NW", "addr:postcode": "58655", "addr:state": "ND", "amenity": "post_box", "brand": "United States Postal Service", "brand:wikidata": "Q668687", "collection_times": "Mo-Fr 14:20; Sa 09:30", "name": "USPS COLLECTION BOX - PO LOBBY", "note": "ON 12/24 AND 12/31, THIS BOX MAY BE COLLECTED AS EARLY AS 12 NOON.", "nsi_id": "unitedstatespostalservice-a77078", "operator": "United States Postal Service", "operator:short": "USPS", "operator:type": "public", "operator:wikidata": "Q668687", "ref": "5865500002"}, "type": "Feature"}
{"dataset_attributes": {"@spider": "usps_collection_boxes", "spider:collection_time": "2023-10-16T08:26:35.141500"}, "geometry": {"coordinates": [-102.423843168, 46.900720529], "type": "Point"}, "id": "qOnk7rMyPwnYawzTjB2sDoF6jhU=", "properties": {"@spider": "usps_collection_boxes", "addr:city": "TAYLOR", "addr:country": "US", "addr:full": "111 W MAIN ST", "addr:postcode": "58656", "addr:state": "ND", "amenity": "post_box", "brand": "United States Postal Service", "brand:wikidata": "Q668687", "collection_times": "Mo-Sa 14:30", "name": "USPS COLLECTION BOX - BLUE BOX", "note": "ON 12/24 AND 12/31, THIS BOX MAY BE COLLECTED AS EARLY AS 12 NOON.", "nsi_id": "unitedstatespostalservice-a77078", "operator": "United States Postal Service", "operator:short": "USPS", "operator:type": "public", "operator:wikidata": "Q668687", "ref": "5865600001"}, "type": "Feature"}
{"dataset_attributes": {"@spider": "usps_collection_boxes", "spider:collection_time": "2023-10-16T08:26:35.141500"}, "geometry": {"coordinates": [-102.423843168, 46.900720529], "type": "Point"}, "id": "vspBTOKMQQQiWVI8bWh1Nm0db9w=", "properties": {"@spider": "usps_collection_boxes", "addr:city": "TAYLOR", "addr:country": "US", "addr:full": "111 W MAIN ST", "addr:postcode": "58656", "addr:state": "ND", "amenity": "post_box", "brand": "United States Postal Service", "brand:wikidata": "Q668687", "collection_times": "Mo-Fr 11:30; Sa 09:15", "name": "USPS COLLECTION BOX - PO LOBBY", "nsi_id": "unitedstatespostalservice-a77078", "operator": "United States Postal Service", "operator:short": "USPS", "operator:type": "public", "operator:wikidata": "Q668687", "ref": "5865600002"}, "type": "Feature"}
