{"geometry": {"coordinates": [-101.296159796, 48.193857624], "type": "Point"}, "id": "EnG6K4-_018W7MtAlyGs6tyLgL4=", "properties": {"@source_uri": "https://tools.usps.com/UspsToolsRestServices/rest/POLocator/findLocations", "@spider": "usps_collection_boxes", "addr:city": "MINOT", "addr:country": "US", "addr:postcode": "58701", "addr:state": "ND", "addr:street_address": "3900 S BROADWAY", "amenity": "post_box", "collection_times": "Mo-Sa 09:00", "nsi_id": "unitedstatespostalservice-a77078", "operator": "United States Postal Service", "operator:short": "USPS", "operator:type": "public", "operator:wikidata": "Q668687", "ref": "5870100001"}, "type": "Feature"}
{"geometry": {"coordinates": [-101.307648711, 48.207061798], "type": "Point"}, "id": "etUnX_EIzNzRJ0PpOQE1vvMDu1w=", "properties": {"@source_uri": "https://tools.usps.com/UspsToolsRestServices/rest/POLocator/findLocations", "@spider": "usps_collection_boxes", "addr:city": "MINOT", "addr:country": "US", "addr:postcode": "58701", "addr:state": "ND", "addr:street_address": "2400 10TH ST SW", "amenity": "post_box", "collection_times": "Mo-Sa 16:15", "note": "ON 12/24 AND 12/31, THIS BOX MAY BE COLLECTED AS EARLY AS 12 NOON.", "nsi_id": "unitedstatespostalservice-a77078", "operator": "United States Postal Service", "operator:short": "USPS", "operator:type": "public", "operator:wikidata": "Q668687", "ref": "5870100003"}, "type": "Feature"}
{"geometry": {"coordinates": [-101.295622966, 48.227154099], "type": "Point"}, "id": "Of2CllLAZvJ79HvduiKsgns3gB8=", "properties": {"@source_uri": "https://tools.usps.com/UspsToolsRestServices/rest/POLocator/findLocations", "@spider": "usps_collection_boxes", "addr:city": "MINOT", "addr:country": "US", "addr:postcode": "58701", "addr:state": "ND", "addr:street_address": "1015 S BROADWAY", "amenity": "post_box", "collection_times": "Mo-Sa 16:00", "note": "ON 12/24 AND 12/31, THIS BOX MAY BE COLLECTED AS EARLY AS 12 NOON.", "nsi_id": "unitedstatespostalservice-a77078", "operator": "United States Postal Service", "operator:short": "USPS", "operator:type": "public", "operator:wikidata": "Q668687", "ref": "5870100021"}, "type": "Feature"}
{"geometry": {"coordinates": [-101.294624251, 48.235149419], "type": "Point"}, "id": "3K9JvmnjFMtpHqujuLcfA70Y220=", "properties": {"@source_uri": "https://tools.usps.com/UspsToolsRestServices/rest/POLocator/findLocations", "@spider": "usps_collection_boxes", "addr:city": "MINOT", "addr:country": "US", "addr:postcode": "58701", "addr:state": "ND", "addr:street_address": "100 1ST ST SW", "amenity": "post_box", "collection_times": "Mo-Sa 15:30", "note": "ON 12/24 AND 12/31, THIS BOX MAY BE COLLECTED AS EARLY AS 12 NOON.", "nsi_id": "unitedstatespostalservice-a77078", "operator": "United States Postal Service", "operator:short": "USPS", "operator:type": "public", "operator:wikidata": "Q668687", "ref": "5870100026"}, "type": "Feature"}
{"geometry": {"coordinates": [-101.293008771, 48.235536], "type": "Point"}, "id": "tVbHmIYsTTi8MFFSZziW9gMuOkE=", "properties": {"@source_uri": "https://tools.usps.com/UspsToolsRestServices/rest/POLocator/findLocations", "@spider": "usps_collection_boxes", "addr:city": "MINOT", "addr:country": "US", "addr:postcode": "58701", "addr:state": "ND", "addr:street_address": "23 MAIN ST S", "amenity": "post_box", "collection_times": "Mo-Sa 15:30", "note": "ON 12/24 AND 12/31, THIS BOX MAY BE COLLECTED AS EARLY AS 12 NOON.", "nsi_id": "unitedstatespostalservice-a77078", "operator": "United States Postal Service", "operator:short": "USPS", "operator:type": "public", "operator:wikidata": "Q668687", "ref": "5870100029"}, "type": "Feature"}
{"geometry": {"coordinates": [-101.292990253, 48.234537754], "type": "Point"}, "id": "PaGv6TX0K06G5qG25MePeTsWSfA=", "properties": {"@source_uri": "https://tools.usps.com/UspsToolsRestServices/rest/POLocator/findLocations", "@spider": "usps_collection_boxes", "addr:city": "MINOT", "addr:country": "US", "addr:postcode": "58701", "addr:state": "ND", "addr:street_address": "123 MAIN ST S", "amenity": "post_box", "collection_times": "Mo-Sa 15:30", "note": "ON 12/24 AND 12/31, THIS BOX MAY BE COLLECTED AS EARLY AS 12 NOON.", "nsi_id": "unitedstatespostalservice-a77078", "operator": "United States Postal Service", "operator:short": "USPS", "operator:type": "public", "operator:wikidata": "Q668687", "ref": "5870100030"}, "type": "Feature"}
{"geometry": {"coordinates": [-101.296081912, 48.212079588], "type": "Point"}, "id": "z0R5Eu5Y66Rz4lENAREa1e0HerM=", "properties": {"@source_uri": "https://tools.usps.com/UspsToolsRestServices/rest/POLocator/findLocations", "@spider": "usps_collection_boxes", "addr:city": "MINOT", "addr:country": "US", "addr:postcode": "58701", "addr:state": "ND", "addr:street_address": "1930 S BROADWAY", "amenity": "post_box", "collection_times": "Mo-Sa 16:00", "note": "ON 12/24 AND 12/31, THIS BOX MAY BE COLLECTED AS EARLY AS 12 NOON.", "nsi_id": "unitedstatespostalservice-a77078", "operator": "United States Postal Service", "operator:short": "USPS", "operator:type": "public", "operator:wikidata": "Q668687", "ref": "5870100032"}, "type": "Feature"}
{"geometry": {"coordinates": [-101.296078796, 48.211529487], "type": "Point"}, "id": "KoaFwYovi9g7BfWoeTZwJdRJXgs=", "properties": {"@source_uri": "https://tools.usps.com/UspsToolsRestServices/rest/POLocator/findLocations", "@spider": "usps_collection_boxes", "addr:city": "MINOT", "addr:country": "US", "addr:postcode": "58701", "addr:state": "ND", "addr:street_address": "1952 S BROADWAY", "amenity": "post_box", "collection_times": "Mo-Sa 16:00", "note": "ON 12/24 AND 12/31, THIS BOX MAY BE COLLECTED AS EARLY AS 12 NOON.", "nsi_id": "unitedstatespostalservice-a77078", "operator": "United States Postal Service", "operator:short": "USPS", "operator:type": "public", "operator:wikidata": "Q668687", "ref": "5870100033"}, "type": "Feature"}
{"geometry": {"coordinates": [-101.295261555, 48.231589528], "type": "Point"}, "id": "-vgcETVMh6uVxd0_WkLcTr4S-GE=", "properties": {"@source_uri": "https://tools.usps.com/UspsToolsRestServices/rest/POLocator/findLocations", "@spider": "usps_collection_boxes", "addr:city": "MINOT", "addr:country": "US", "addr:postcode": "58701", "addr:state": "ND", "addr:street_address": "117 5TH AVE SW", "amenity": "post_box", "collection_times": "Mo-Sa 17:30", "indoor": "yes", "note": "ON 12/24 AND 12/31, THIS BOX MAY BE COLLECTED AS EARLY AS 12 NOON.", "nsi_id": "unitedstatespostalservice-a77078", "operator": "United States Postal Service", "operator:short": "USPS", "operator:type": "public", "operator:wikidata": "Q668687", "ref": "5870100039"}, "type": "Feature"}
{"geometry": {"coordinates": [-101.295261555, 48.231589528], "type": "Point"}, "id": "LtzWxHvd2B6mQyPGHaMLQ3bSq40=", "properties": {"@source_uri": "https://tools.usps.com/UspsToolsRestServices/rest/POLocator/findLocations", "@spider": "usps_collection_boxes", "addr:city": "MINOT", "addr:country": "US", "addr:postcode": "58701", "addr:state": "ND", "addr:street_address": "117 5TH AVE SW", "amenity": "post_box", "collection_times": "Mo-Sa 17:30", "note": "ON 12/24 AND 12/31, THIS BOX MAY BE COLLECTED AS EARLY AS 12 NOON.", "nsi_id": "unitedstatespostalservice-a77078", "operator": "United States Postal Service", "operator:short": "USPS", "operator:type": "public", "operator:wikidata": "Q668687", "ref": "5870100040"}, "type": "Feature"}
{"geometry": {"coordinates": [-101.295261555, 48.231589528], "type": "Point"}, "id": "-25oKQYwkCOzsXiJ_l8Es4ueXFs=", "properties": {"@source_uri": "https://tools.usps.com/UspsToolsRestServices/rest/POLocator/findLocations", "@spider": "usps_collection_boxes", "addr:city": "MINOT", "addr:country": "US", "addr:postcode": "58701", "addr:state": "ND", "addr:street_address": "117 5TH AVE SW", "amenity": "post_box", "collection_times": "Mo-Sa 17:30", "note": "ON 12/24 AND 12/31, THIS BOX MAY BE COLLECTED AS EARLY AS 12 NOON.", "nsi_id": "unitedstatespostalservice-a77078", "operator": "United States Postal Service", "operator:short": "USPS", "operator:type": "public", "operator:wikidata": "Q668687", "ref": "5870100041"}, "type": "Feature"}
{"geometry": {"coordinates": [-101.295261555, 48.231589528], "type": "Point"}, "id": "B-f0PlQGkDvycz-ICVwhEaPU4tY=", "properties": {"@source_uri": "https://tools.usps.com/UspsToolsRestServices/rest/POLocator/findLocations", "@spider": "usps_collection_boxes", "addr:city": "MINOT", "addr:country": "US", "addr:postcode": "58701", "addr:state": "ND", "addr:street_address": "117 5TH AVE SW", "amenity": "post_box", "collection_times": "Mo-Sa 17:30", "note": "ON 12/24 AND 12/31, THIS BOX MAY BE COLLECTED AS EARLY AS 12 NOON.", "nsi_id": "unitedstatespostalservice-a77078", "operator": "United States Postal Service", "operator:short": "USPS", "operator:type": "public", "operator:wikidata": "Q668687", "ref": "5870100042"}, "type": "Feature"}
{"geometry": {"coordinates": [-101.295261555, 48.231589528], "type": "Point"}, "id": "sATm1SHytNT2lWsK6povPWDWld0=", "properties": {"@source_uri": "https://tools.usps.com/UspsToolsRestServices/rest/POLocator/findLocations", "@spider": "usps_collection_boxes", "addr:city": "MINOT", "addr:country": "US", "addr:postcode": "58701", "addr:state": "ND", "addr:street_address": "117 5TH AVE SW", "amenity": "post_box", "collection_times": "Mo-Sa 17:30", "note": "ON 12/24 AND 12/31, THIS BOX MAY BE COLLECTED AS EARLY AS 12 NOON.", "nsi_id": "unitedstatespostalservice-a77078", "operator": "United States Postal Service", "operator:short": "USPS", "operator:type": "public", "operator:wikidata": "Q668687", "ref": "5870100043"}, "type": "Feature"}
{"geometry": {"coordinates": [-101.319352669, 48.234049498], "type": "Point"}, "id": "8N9lwTIYxeaZ7SnMHPosVR_tfTs=", "properties": {"@source_uri": "https://tools.usps.com/UspsToolsRestServices/rest/POLocator/findLocations", "@spider": "usps_collection_boxes", "addr:city": "MINOT", "addr:country": "US", "addr:postcode": "58701", "addr:state": "ND", "addr:street_address": "1600 2ND AVE SW", "amenity": "post_box", "collection_times": "Mo-Sa 15:45", "note": "ON 12/24 AND 12/31, THIS BOX MAY BE COLLECTED AS EARLY AS 12 NOON.", "nsi_id": "unitedstatespostalservice-a77078", "operator": "United States Postal Service", "operator:short": "USPS", "operator:type": "public", "operator:wikidata": "Q668687", "ref": "5870100046"}, "type": "Feature"}
{"geometry": {"coordinates": [-101.305403528, 48.202857506], "type": "Point"}, "id": "kBCkIS3FirE7t6jBOWm3A5TRY7E=", "properties": {"@source_uri": "https://tools.usps.com/UspsToolsRestServices/rest/POLocator/findLocations", "@spider": "usps_collection_boxes", "addr:city": "MINOT", "addr:country": "US", "addr:postcode": "58701", "addr:state": "ND", "addr:street_address": "815 31ST AVE SW", "amenity": "post_box", "collection_times": "Mo-Sa 16:30", "note": "ON 12/24 AND 12/31, THIS BOX MAY BE COLLECTED AS EARLY AS 12 NOON.", "nsi_id": "unitedstatespostalservice-a77078", "operator": "United States Postal Service", "operator:short": "USPS", "operator:type": "public", "operator:wikidata": "Q668687", "ref": "5870100050"}, "type": "Feature"}
{"geometry": {"coordinates": [-101.3169915, 48.20782549], "type": "Point"}, "id": "ConvI0y_yFkjF3v3QjevGHkwTAM=", "properties": {"@source_uri": "https://tools.usps.com/UspsToolsRestServices/rest/POLocator/findLocations", "@spider": "usps_collection_boxes", "addr:city": "MINOT", "addr:country": "US", "addr:postcode": "58701", "addr:state": "ND", "addr:street_address": "1520 24TH AVE SW", "amenity": "post_box", "collection_times": "Mo-Sa 15:00", "note": "ON 12/24 AND 12/31, THIS BOX MAY BE COLLECTED AS EARLY AS 12 NOON.", "nsi_id": "unitedstatespostalservice-a77078", "operator": "United States Postal Service", "operator:short": "USPS", "operator:type": "public", "operator:wikidata": "Q668687", "ref": "5870100056"}, "type": "Feature"}
{"geometry": {"coordinates": [-101.296073699, 48.217329], "type": "Point"}, "id": "HEAwVDlednE5A5O4-rYzrQRBtv4=", "properties": {"@source_uri": "https://tools.usps.com/UspsToolsRestServices/rest/POLocator/findLocations", "@spider": "usps_collection_boxes", "addr:city": "MINOT", "addr:country": "US", "addr:postcode": "58701", "addr:state": "ND", "addr:street_address": "1620 S BROADWAY", "amenity": "post_box", "collection_times": "Mo-Sa 16:00", "note": "ON 12/24 AND 12/31, THIS BOX MAY BE COLLECTED AS EARLY AS 12 NOON.", "nsi_id": "unitedstatespostalservice-a77078", "operator": "United States Postal Service", "operator:short": "USPS", "operator:type": "public", "operator:wikidata": "Q668687", "ref": "5870100059"}, "type": "Feature"}
{"geometry": {"coordinates": [-101.252741756, 48.229604612], "type": "Point"}, "id": "u79sIBYqvJ2tSpdCEyouqeQWAgs=", "properties": {"@source_uri": "https://tools.usps.com/UspsToolsRestServices/rest/POLocator/findLocations", "@spider": "usps_collection_boxes", "addr:city": "MINOT", "addr:country": "US", "addr:postcode": "58701", "addr:state": "ND", "addr:street_address": "725 27TH ST SE", "amenity": "post_box", "collection_times": "Mo-Sa 15:00", "note": "ON 12/24 AND 12/31, THIS BOX MAY BE COLLECTED AS EARLY AS 12 NOON.", "nsi_id": "unitedstatespostalservice-a77078", "operator": "United States Postal Service", "operator:short": "USPS", "operator:type": "public", "operator:wikidata": "Q668687", "ref": "5870100060"}, "type": "Feature"}
{"geometry": {"coordinates": [-101.313667898, 48.21117129], "type": "Point"}, "id": "UWUp2NO6hqRQ0ZXwAfXk1t_npJU=", "properties": {"@source_uri": "https://tools.usps.com/UspsToolsRestServices/rest/POLocator/findLocations", "@spider": "usps_collection_boxes", "addr:city": "MINOT", "addr:country": "US", "addr:postcode": "58701", "addr:state": "ND", "addr:street_address": "1400 20TH AVE SW", "amenity": "post_box", "collection_times": "Mo-Sa 16:15", "note": "ON 12/24 AND 12/31, THIS BOX MAY BE COLLECTED AS EARLY AS 12 NOON.", "nsi_id": "unitedstatespostalservice-a77078", "operator": "United States Postal Service", "operator:short": "USPS", "operator:type": "public", "operator:wikidata": "Q668687", "ref": "5870100063"}, "type": "Feature"}
{"geometry": {"coordinates": [-101.295261555, 48.231589528], "type": "Point"}, "id": "idyxG_VfRMW69WfmTfc1BHohx8k=", "properties": {"@source_uri": "https://tools.usps.com/UspsToolsRestServices/rest/POLocator/findLocations", "@spider": "usps_collection_boxes", "addr:city": "MINOT", "addr:country": "US", "addr:postcode": "58701", "addr:state": "ND", "addr:street_address": "117 5TH AVE SW", "amenity": "post_box", "collection_times": "Mo-Sa 17:30", "name": "USPS COLLECTION BOX - APC", "note": "ON 12/24 AND 12/31, THIS BOX MAY BE COLLECTED AS EARLY AS 12 NOON.", "nsi_id": "unitedstatespostalservice-a77078", "operator": "United States Postal Service", "operator:short": "USPS", "operator:type": "public", "operator:wikidata": "Q668687", "ref": "5870100064"}, "type": "Feature"}
{"geometry": {"coordinates": [-101.313667898, 48.21117129], "type": "Point"}, "id": "QgaWGjgMEDfIhBgkSIcmWPjtdmQ=", "properties": {"@source_uri": "https://tools.usps.com/UspsToolsRestServices/rest/POLocator/findLocations", "@spider": "usps_collection_boxes", "addr:city": "MINOT", "addr:country": "US", "addr:postcode": "58701", "addr:state": "ND", "addr:street_address": "1400 20TH AVE SW", "amenity": "post_box", "collection_times": "Mo-Sa 16:15", "note": "ON 12/24 AND 12/31, THIS BOX MAY BE COLLECTED AS EARLY AS 12 NOON.", "nsi_id": "unitedstatespostalservice-a77078", "operator": "United States Postal Service", "operator:short": "USPS", "operator:type": "public", "operator:wikidata": "Q668687", "ref": "5870100067"}, "type": "Feature"}
{"geometry": {"coordinates": [-101.319832552, 48.260124888], "type": "Point"}, "id": "39BrOdt3OWQHzYBJ_zM-7x1DK3M=", "properties": {"@source_uri": "https://tools.usps.com/UspsToolsRestServices/rest/POLocator/findLocations", "@spider": "usps_collection_boxes", "addr:city": "MINOT", "addr:country": "US", "addr:postcode": "58703", "addr:state": "ND", "addr:street_address": "2211 16TH ST NW", "amenity": "post_box", "collection_times": "Mo-Sa 15:30", "note": "ON 12/24 AND 12/31, THIS BOX MAY BE COLLECTED AS EARLY AS 12 NOON.", "nsi_id": "unitedstatespostalservice-a77078", "operator": "United States Postal Service", "operator:short": "USPS", "operator:type": "public", "operator:wikidata": "Q668687", "ref": "5870300009"}, "type": "Feature"}
{"geometry": {"coordinates": [-101.325356227, 48.421806187], "type": "Point"}, "id": "KWWRqu2muHc2D-G_jpcDTrHj-SM=", "properties": {"@source_uri": "https://tools.usps.com/UspsToolsRestServices/rest/POLocator/findLocations", "@spider": "usps_collection_boxes", "addr:city": "MINOT", "addr:country": "US", "addr:postcode": "58704", "addr:state": "ND", "addr:street_address": "220 PEACEKEEPER PL", "amenity": "post_box", "collection_times": "Mo-Sa 15:45", "note": "ON 12/24 AND 12/31, THIS BOX MAY BE COLLECTED AS EARLY AS 12 NOON.", "nsi_id": "unitedstatespostalservice-a77078", "operator": "United States Postal Service", "operator:short": "USPS", "operator:type": "public", "operator:wikidata": "Q668687", "ref": "5870400002"}, "type": "Feature"}
{"geometry": {"coordinates": [-101.340498999, 48.427389703], "type": "Point"}, "id": "hSqVN-oJxOAQL634DVbHftoG40s=", "properties": {"@source_uri": "https://tools.usps.com/UspsToolsRestServices/rest/POLocator/findLocations", "@spider": "usps_collection_boxes", "addr:city": "MINOT", "addr:country": "US", "addr:postcode": "58704", "addr:state": "ND", "addr:street_address": "362 MISSILE AVE BLDG 248", "amenity": "post_box", "collection_times": "Mo-Sa 13:00", "note": "ON 12/24 AND 12/31, THIS BOX MAY BE COLLECTED AS EARLY AS 12 NOON.", "nsi_id": "unitedstatespostalservice-a77078", "operator": "United States Postal Service", "operator:short": "USPS", "operator:type": "public", "operator:wikidata": "Q668687", "ref": "5870400007"}, "type": "Feature"}
{"geometry": {"coordinates": [-101.303804893, 48.418564992], "type": "Point"}, "id": "zCYubeaybp9wx8DQfSs7jrD3q0Y=", "properties": {"@source_uri": "https://tools.usps.com/UspsToolsRestServices/rest/POLocator/findLocations", "@spider": "usps_collection_boxes", "addr:city": "MINOT", "addr:country": "US", "addr:postcode": "58704", "addr:state": "ND", "addr:street_address": "10 MISSILE AVE", "amenity": "post_box", "collection_times": "Mo-Sa 14:15", "note": "ON 12/24 AND 12/31, THIS BOX MAY BE COLLECTED AS EARLY AS 12 NOON.", "nsi_id": "unitedstatespostalservice-a77078", "operator": "United States Postal Service", "operator:short": "USPS", "operator:type": "public", "operator:wikidata": "Q668687", "ref": "5870400008"}, "type": "Feature"}
{"geometry": {"coordinates": [-101.325356227, 48.421806187], "type": "Point"}, "id": "f_t1aNsRAEvig7zCeAdIB_unnpI=", "properties": {"@source_uri": "https://tools.usps.com/UspsToolsRestServices/rest/POLocator/findLocations", "@spider": "usps_collection_boxes", "addr:city": "MINOT", "addr:country": "US", "addr:postcode": "58704", "addr:state": "ND", "addr:street_address": "220 PEACEKEEPER PL", "amenity": "post_box", "collection_times": "Mo-Fr 16:00; Sa 11:00", "note": "ON 12/24 AND 12/31, THIS BOX MAY BE COLLECTED AS EARLY AS 12 NOON.", "nsi_id": "unitedstatespostalservice-a77078", "operator": "United States Postal Service", "operator:short": "USPS", "operator:type": "public", "operator:wikidata": "Q668687", "ref": "5870400009"}, "type": "Feature"}
{"geometry": {"coordinates": [-100.241082552, 47.881746], "type": "Point"}, "id": "yDjdqB9KkUvl2rjVgbfevHKBU8E=", "properties": {"@source_uri": "https://tools.usps.com/UspsToolsRestServices/rest/POLocator/findLocations", "@spider": "usps_collection_boxes", "addr:city": "ANAMOOSE", "addr:country": "US", "addr:postcode": "58710", "addr:state": "ND", "addr:street_address": "602 MAIN ST", "amenity": "post_box", "collection_times": "Mo-Sa 15:05", "note": "ON 12/24 AND 12/31, THIS BOX MAY BE COLLECTED AS EARLY AS 12 NOON.", "nsi_id": "unitedstatespostalservice-a77078", "operator": "United States Postal Service", "operator:short": "USPS", "operator:type": "public", "operator:wikidata": "Q668687", "ref": "5871000001"}, "type": "Feature"}
{"geometry": {"coordinates": [-100.241082552, 47.881746], "type": "Point"}, "id": "RUTNYXHl7AoSeDeqRaUDvL2wdy0=", "properties": {"@source_uri": "https://tools.usps.com/UspsToolsRestServices/rest/POLocator/findLocations", "@spider": "usps_collection_boxes", "addr:city": "ANAMOOSE", "addr:country": "US", "addr:postcode": "58710", "addr:state": "ND", "addr:street_address": "602 MAIN ST", "amenity": "post_box", "collection_times": "Mo-Fr 12:00", "indoor": "yes", "nsi_id": "unitedstatespostalservice-a77078", "operator": "United States Postal Service", "operator:short": "USPS", "operator:type": "public", "operator:wikidata": "Q668687", "ref": "5871000002"}, "type": "Feature"}
{"geometry": {"coordinates": [-100.2413207, 47.8824351], "type": "Point"}, "id": "9QmmyNaAJbuo29DWafb1O3Zq7K0=", "properties": {"@source_uri": "https://tools.usps.com/UspsToolsRestServices/rest/POLocator/findLocations", "@spider": "usps_collection_boxes", "addr:city": "ANAMOOSE", "addr:country": "US", "addr:postcode": "58710", "addr:state": "ND", "addr:street_address": "103 BALLMAN AVE", "amenity": "post_box", "collection_times": "Mo-Sa 15:00", "note": "ON 12/24 AND 12/31, THIS BOX MAY BE COLLECTED AS EARLY AS 12 NOON.", "nsi_id": "unitedstatespostalservice-a77078", "operator": "United States Postal Service", "operator:short": "USPS", "operator:type": "public", "operator:wikidata": "Q668687", "ref": "5871000003"}, "type": "Feature"}
{"geometry": {"coordinates": [-100.241082552, 47.881746], "type": "Point"}, "id": "X8PLuT5HFYhmzGBKaYilGjSwfKQ=", "properties": {"@source_uri": "https://tools.usps.com/UspsToolsRestServices/rest/POLocator/findLocations", "@spider": "usps_collection_boxes", "addr:city": "ANAMOOSE", "addr:country": "US", "addr:postcode": "58710", "addr:state": "ND", "addr:street_address": "602 MAIN ST", "amenity": "post_box", "collection_times": "Mo-Fr 11:50; Sa 09:35", "indoor": "yes", "nsi_id": "unitedstatespostalservice-a77078", "operator": "United States Postal Service", "operator:short": "USPS", "operator:type": "public", "operator:wikidata": "Q668687", "ref": "5871000005"}, "type": "Feature"}
{"geometry": {"coordinates": [-101.282652805, 48.969764413], "type": "Point"}, "id": "9RaT3Z09T6yQ1KllDAky_RneZPs=", "properties": {"@source_uri": "https://tools.usps.com/UspsToolsRestServices/rest/POLocator/findLocations", "@spider": "usps_collection_boxes", "addr:city": "ANTLER", "addr:country": "US", "addr:postcode": "58711", "addr:state": "ND", "addr:street_address": "115 MAIN ST", "amenity": "post_box", "collection_times": "Mo-Sa 14:30", "note": "ON 12/24 AND 12/31, THIS BOX MAY BE COLLECTED AS EARLY AS 12 NOON.", "nsi_id": "unitedstatespostalservice-a77078", "operator": "United States Postal Service", "operator:short": "USPS", "operator:type": "public", "operator:wikidata": "Q668687", "ref": "5871100001"}, "type": "Feature"}
{"geometry": {"coordinates": [-101.282652805, 48.969764413], "type": "Point"}, "id": "W5jEHh_pB_TM-1w7eOOva1dXb4M=", "properties": {"@source_uri": "https://tools.usps.com/UspsToolsRestServices/rest/POLocator/findLocations", "@spider": "usps_collection_boxes", "addr:city": "ANTLER", "addr:country": "US", "addr:postcode": "58711", "addr:state": "ND", "addr:street_address": "115 MAIN ST", "amenity": "post_box", "collection_times": "Mo-Fr 14:30; Sa 13:30", "indoor": "yes", "note": "ON 12/24 AND 12/31, THIS BOX MAY BE COLLECTED AS EARLY AS 12 NOON.", "nsi_id": "unitedstatespostalservice-a77078", "operator": "United States Postal Service", "operator:short": "USPS", "operator:type": "public", "operator:wikidata": "Q668687", "ref": "5871100002"}, "type": "Feature"}
{"geometry": {"coordinates": [-101.282652805, 48.969764413], "type": "Point"}, "id": "vnajbKuY6u5g6URGwBkYrIb17co=", "properties": {"@source_uri": "https://tools.usps.com/UspsToolsRestServices/rest/POLocator/findLocations", "@spider": "usps_collection_boxes", "addr:city": "ANTLER", "addr:country": "US", "addr:postcode": "58711", "addr:state": "ND", "addr:street_address": "115 MAIN ST", "amenity": "post_box", "collection_times": "Mo-Fr 14:30; Sa 13:20", "indoor": "yes", "note": "ON 12/24 AND 12/31, THIS BOX MAY BE COLLECTED AS EARLY AS 12 NOON.", "nsi_id": "unitedstatespostalservice-a77078", "operator": "United States Postal Service", "operator:short": "USPS", "operator:type": "public", "operator:wikidata": "Q668687", "ref": "5871100003"}, "type": "Feature"}
{"geometry": {"coordinates": [-101.083590941, 47.830608754], "type": "Point"}, "id": "lvSmxV9DJEozF5Kp-e8KtAM5pU4=", "properties": {"@source_uri": "https://tools.usps.com/UspsToolsRestServices/rest/POLocator/findLocations", "@spider": "usps_collection_boxes", "addr:city": "BENEDICT", "addr:country": "US", "addr:postcode": "58716", "addr:state": "ND", "addr:street_address": "205 MAIN ST", "amenity": "post_box", "collection_times": "Mo-Sa 10:45", "nsi_id": "unitedstatespostalservice-a77078", "operator": "United States Postal Service", "operator:short": "USPS", "operator:type": "public", "operator:wikidata": "Q668687", "ref": "5871600001"}, "type": "Feature"}
{"geometry": {"coordinates": [-101.736629677, 48.3147], "type": "Point"}, "id": "AjqnnlLsIdHicvSm5l20XYOQIZ8=", "properties": {"@source_uri": "https://tools.usps.com/UspsToolsRestServices/rest/POLocator/findLocations", "@spider": "usps_collection_boxes", "addr:city": "BERTHOLD", "addr:country": "US", "addr:postcode": "58718", "addr:state": "ND", "addr:street_address": "204 MAIN ST N", "amenity": "post_box", "collection_times": "Mo-Sa 16:15", "note": "ON 12/24 AND 12/31, THIS BOX MAY BE COLLECTED AS EARLY AS 12 NOON.", "nsi_id": "unitedstatespostalservice-a77078", "operator": "United States Postal Service", "operator:short": "USPS", "operator:type": "public", "operator:wikidata": "Q668687", "ref": "5871800001"}, "type": "Feature"}
{"geometry": {"coordinates": [-101.736629677, 48.3147], "type": "Point"}, "id": "q0ia1nhLuu9HHG7ivvtWEcpjwL4=", "properties": {"@source_uri": "https://tools.usps.com/UspsToolsRestServices/rest/POLocator/findLocations", "@spider": "usps_collection_boxes", "addr:city": "BERTHOLD", "addr:country": "US", "addr:postcode": "58718", "addr:state": "ND", "addr:street_address": "204 MAIN ST N", "amenity": "post_box", "collection_times": "Mo-Fr 15:00; Sa 09:15", "indoor": "yes", "note": "ON 12/24 AND 12/31, THIS BOX MAY BE COLLECTED AS EARLY AS 12 NOON.", "nsi_id": "unitedstatespostalservice-a77078", "operator": "United States Postal Service", "operator:short": "USPS", "operator:type": "public", "operator:wikidata": "Q668687", "ref": "5871800002"}, "type": "Feature"}
{"geometry": {"coordinates": [-101.736629677, 48.3147], "type": "Point"}, "id": "Q5GmHe187Um8doIngOl0gFrmnOQ=", "properties": {"@source_uri": "https://tools.usps.com/UspsToolsRestServices/rest/POLocator/findLocations", "@spider": "usps_collection_boxes", "addr:city": "BERTHOLD", "addr:country": "US", "addr:postcode": "58718", "addr:state": "ND", "addr:street_address": "204 MAIN ST N", "amenity": "post_box", "collection_times": "Mo-Fr 15:00; Sa 09:15", "indoor": "yes", "note": "ON 12/24 AND 12/31, THIS BOX MAY BE COLLECTED AS EARLY AS 12 NOON.", "nsi_id": "unitedstatespostalservice-a77078", "operator": "United States Postal Service", "operator:short": "USPS", "operator:type": "public", "operator:wikidata": "Q668687", "ref": "5871800003"}, "type": "Feature"}
{"geometry": {"coordinates": [-102.319155441, 48.758179404], "type": "Point"}, "id": "cokuWKd_6QVVMdCfxP_25jdSLhQ=", "properties": {"@source_uri": "https://tools.usps.com/UspsToolsRestServices/rest/POLocator/findLocations", "@spider": "usps_collection_boxes", "addr:city": "BOWBELLS", "addr:country": "US", "addr:postcode": "58721", "addr:state": "ND", "addr:street_address": "107 MAIN ST NE", "amenity": "post_box", "collection_times": "Mo-Sa 15:00", "note": "ON 12/24 AND 12/31, THIS BOX MAY BE COLLECTED AS EARLY AS 12 NOON.", "nsi_id": "unitedstatespostalservice-a77078", "operator": "United States Postal Service", "operator:short": "USPS", "operator:type": "public", "operator:wikidata": "Q668687", "ref": "5872100001"}, "type": "Feature"}
{"geometry": {"coordinates": [-102.319155441, 48.758179404], "type": "Point"}, "id": "viy3Gpk8yMNkOCIbJjQLvJKb_YI=", "properties": {"@source_uri": "https://tools.usps.com/UspsToolsRestServices/rest/POLocator/findLocations", "@spider": "usps_collection_boxes", "addr:city": "BOWBELLS", "addr:country": "US", "addr:postcode": "58721", "addr:state": "ND", "addr:street_address": "107 MAIN ST NE", "amenity": "post_box", "collection_times": "Mo-Fr 15:00; Sa 10:00", "indoor": "yes", "note": "ON 12/24 AND 12/31, THIS BOX MAY BE COLLECTED AS EARLY AS 12 NOON.", "nsi_id": "unitedstatespostalservice-a77078", "operator": "United States Postal Service", "operator:short": "USPS", "operator:type": "public", "operator:wikidata": "Q668687", "ref": "5872100002"}, "type": "Feature"}
{"geometry": {"coordinates": [-102.319155441, 48.758179404], "type": "Point"}, "id": "P7niCPXmpPtD95GBLHfuLtulaok=", "properties": {"@source_uri": "https://tools.usps.com/UspsToolsRestServices/rest/POLocator/findLocations", "@spider": "usps_collection_boxes", "addr:city": "BOWBELLS", "addr:country": "US", "addr:postcode": "58721", "addr:state": "ND", "addr:street_address": "107 MAIN ST NE", "amenity": "post_box", "collection_times": "Mo-Fr 14:50; Sa 09:50", "indoor": "yes", "note": "ON 12/24 AND 12/31, THIS BOX MAY BE COLLECTED AS EARLY AS 12 NOON.", "nsi_id": "unitedstatespostalservice-a77078", "operator": "United States Postal Service", "operator:short": "USPS", "operator:type": "public", "operator:wikidata": "Q668687", "ref": "5872100003"}, "type": "Feature"}
{"geometry": {"coordinates": [-101.429241406, 48.275079662], "type": "Point"}, "id": "p77vi6PqwRVvm351YM8vdm2quNA=", "properties": {"@source_uri": "https://tools.usps.com/UspsToolsRestServices/rest/POLocator/findLocations", "@spider": "usps_collection_boxes", "addr:city": "BURLINGTON", "addr:country": "US", "addr:postcode": "58722", "addr:state": "ND", "addr:street_address": "129 COLTON AVE", "amenity": "post_box", "collection_times": "Mo-Sa 16:30", "note": "ON 12/24 AND 12/31, THIS BOX MAY BE COLLECTED AS EARLY AS 12 NOON.", "nsi_id": "unitedstatespostalservice-a77078", "operator": "United States Postal Service", "operator:short": "USPS", "operator:type": "public", "operator:wikidata": "Q668687", "ref": "5872200001"}, "type": "Feature"}
{"geometry": {"coordinates": [-101.429241406, 48.275079662], "type": "Point"}, "id": "S93ZfAE7cxfe7kumnz1CMYRYaNo=", "properties": {"@source_uri": "https://tools.usps.com/UspsToolsRestServices/rest/POLocator/findLocations", "@spider": "usps_collection_boxes", "addr:city": "BURLINGTON", "addr:country": "US", "addr:postcode": "58722", "addr:state": "ND", "addr:street_address": "129 COLTON AVE", "amenity": "post_box", "collection_times": "Mo-Fr 14:30; Sa 09:30", "indoor": "yes", "note": "ON 12/24 AND 12/31, THIS BOX MAY BE COLLECTED AS EARLY AS 12 NOON.", "nsi_id": "unitedstatespostalservice-a77078", "operator": "United States Postal Service", "operator:short": "USPS", "operator:type": "public", "operator:wikidata": "Q668687", "ref": "5872200002"}, "type": "Feature"}
{"geometry": {"coordinates": [-101.429241406, 48.275079662], "type": "Point"}, "id": "gS-mP-Cvoe2g8CwxswG4Cqs85SY=", "properties": {"@source_uri": "https://tools.usps.com/UspsToolsRestServices/rest/POLocator/findLocations", "@spider": "usps_collection_boxes", "addr:city": "BURLINGTON", "addr:country": "US", "addr:postcode": "58722", "addr:state": "ND", "addr:street_address": "129 COLTON AVE", "amenity": "post_box", "collection_times": "Mo-Fr 14:20; Sa 09:20", "indoor": "yes", "note": "ON 12/24 AND 12/31, THIS BOX MAY BE COLLECTED AS EARLY AS 12 NOON.", "nsi_id": "unitedstatespostalservice-a77078", "operator": "United States Postal Service", "operator:short": "USPS", "operator:type": "public", "operator:wikidata": "Q668687", "ref": "5872200003"}, "type": "Feature"}
{"geometry": {"coordinates": [-100.665749801, 47.837955797], "type": "Point"}, "id": "i1kEkTBcMNvFfmvtQpU0cvNAexs=", "properties": {"@source_uri": "https://tools.usps.com/UspsToolsRestServices/rest/POLocator/findLocations", "@spider": "usps_collection_boxes", "addr:city": "BUTTE", "addr:country": "US", "addr:postcode": "58723", "addr:state": "ND", "addr:street_address": "301 MAIN ST E", "amenity": "post_box", "collection_times": "Mo-Fr 15:30; Sa 15:00", "note": "ON 12/24 AND 12/31, THIS BOX MAY BE COLLECTED AS EARLY AS 12 NOON.", "nsi_id": "unitedstatespostalservice-a77078", "operator": "United States Postal Service", "operator:short": "USPS", "operator:type": "public", "operator:wikidata": "Q668687", "ref": "5872300001"}, "type": "Feature"}
{"geometry": {"coordinates": [-100.665652596, 47.838401665], "type": "Point"}, "id": "QWGPloMOMKhoG1HCmexs9ZxUUD0=", "properties": {"@source_uri": "https://tools.usps.com/UspsToolsRestServices/rest/POLocator/findLocations", "@spider": "usps_collection_boxes", "addr:city": "BUTTE", "addr:country": "US", "addr:postcode": "58723", "addr:state": "ND", "addr:street_address": "310 MAIN ST E", "amenity": "post_box", "collection_times": "Mo-Fr 12:00; Sa 09:45", "indoor": "yes", "nsi_id": "unitedstatespostalservice-a77078", "operator": "United States Postal Service", "operator:short": "USPS", "operator:type": "public", "operator:wikidata": "Q668687", "ref": "5872300002"}, "type": "Feature"}
{"geometry": {"coordinates": [-100.665652596, 47.838401665], "type": "Point"}, "id": "Haqo2iTQ8tZS51zarm99KgfV3qo=", "properties": {"@source_uri": "https://tools.usps.com/UspsToolsRestServices/rest/POLocator/findLocations", "@spider": "usps_collection_boxes", "addr:city": "BUTTE", "addr:country": "US", "addr:postcode": "58723", "addr:state": "ND", "addr:street_address": "310 MAIN ST E", "amenity": "post_box", "collection_times": "Mo-Fr 12:00; Sa 09:45", "indoor": "yes", "nsi_id": "unitedstatespostalservice-a77078", "operator": "United States Postal Service", "operator:short": "USPS", "operator:type": "public", "operator:wikidata": "Q668687", "ref": "5872300003"}, "type": "Feature"}
{"geometry": {"coordinates": [-101.714900607, 48.44448], "type": "Point"}, "id": "m39DsycSXsm75hAjPMU-CcCN7lw=", "properties": {"@source_uri": "https://tools.usps.com/UspsToolsRestServices/rest/POLocator/findLocations", "@spider": "usps_collection_boxes", "addr:city": "CARPIO", "addr:country": "US", "addr:postcode": "58725", "addr:state": "ND", "addr:street_address": "520 MAIN ST", "amenity": "post_box", "collection_times": "Mo-Fr 15:45; Sa 16:10", "note": "ON 12/24 AND 12/31, THIS BOX MAY BE COLLECTED AS EARLY AS 12 NOON.", "nsi_id": "unitedstatespostalservice-a77078", "operator": "United States Postal Service", "operator:short": "USPS", "operator:type": "public", "operator:wikidata": "Q668687", "ref": "5872500001"}, "type": "Feature"}
{"geometry": {"coordinates": [-101.714900607, 48.44448], "type": "Point"}, "id": "P_uts3twubZoWcBqxmL2z1fQ5Wc=", "properties": {"@source_uri": "https://tools.usps.com/UspsToolsRestServices/rest/POLocator/findLocations", "@spider": "usps_collection_boxes", "addr:city": "CARPIO", "addr:country": "US", "addr:postcode": "58725", "addr:state": "ND", "addr:street_address": "520 MAIN ST", "amenity": "post_box", "collection_times": "Mo-Fr 11:15; Sa 08:45", "indoor": "yes", "nsi_id": "unitedstatespostalservice-a77078", "operator": "United States Postal Service", "operator:short": "USPS", "operator:type": "public", "operator:wikidata": "Q668687", "ref": "5872500002"}, "type": "Feature"}
{"geometry": {"coordinates": [-101.714900607, 48.44448], "type": "Point"}, "id": "2eBWNTvGjYk6vuYxUmoKyHtfL_8=", "properties": {"@source_uri": "https://tools.usps.com/UspsToolsRestServices/rest/POLocator/findLocations", "@spider": "usps_collection_boxes", "addr:city": "CARPIO", "addr:country": "US", "addr:postcode": "58725", "addr:state": "ND", "addr:street_address": "520 MAIN ST", "amenity": "post_box", "collection_times": "Mo-Fr 11:15; Sa 08:45", "indoor": "yes", "nsi_id": "unitedstatespostalservice-a77078", "operator": "United States Postal Service", "operator:short": "USPS", "operator:type": "public", "operator:wikidata": "Q668687", "ref": "5872500003"}, "type": "Feature"}
{"geometry": {"coordinates": [-102.780599713, 48.902903318], "type": "Point"}, "id": "4NeivtHwOb4dBY9m4VX5O1kXu8c=", "properties": {"@source_uri": "https://tools.usps.com/UspsToolsRestServices/rest/POLocator/findLocations", "@spider": "usps_collection_boxes", "addr:city": "COLUMBUS", "addr:country": "US", "addr:postcode": "58727", "addr:state": "ND", "addr:street_address": "206 MAIN ST", "amenity": "post_box", "collection_times": "Mo-Sa 14:15", "note": "ON 12/24 AND 12/31, THIS BOX MAY BE COLLECTED AS EARLY AS 12 NOON.", "nsi_id": "unitedstatespostalservice-a77078", "operator": "United States Postal Service", "operator:short": "USPS", "operator:type": "public", "operator:wikidata": "Q668687", "ref": "5872700001"}, "type": "Feature"}
{"geometry": {"coordinates": [-102.780599713, 48.902903318], "type": "Point"}, "id": "AZojPMu6fteE2-Fy-vqOhrnhNsg=", "properties": {"@source_uri": "https://tools.usps.com/UspsToolsRestServices/rest/POLocator/findLocations", "@spider": "usps_collection_boxes", "addr:city": "COLUMBUS", "addr:country": "US", "addr:postcode": "58727", "addr:state": "ND", "addr:street_address": "206 MAIN ST", "amenity": "post_box", "collection_times": "Mo-Fr 12:00; Sa 09:45", "indoor": "yes", "nsi_id": "unitedstatespostalservice-a77078", "operator": "United States Postal Service", "operator:short": "USPS", "operator:type": "public", "operator:wikidata": "Q668687", "ref": "5872700002"}, "type": "Feature"}
{"geometry": {"coordinates": [-102.780599713, 48.902903318], "type": "Point"}, "id": "e45RL7Ark0pLtbN0wc1sSnvOcug=", "properties": {"@source_uri": "https://tools.usps.com/UspsToolsRestServices/rest/POLocator/findLocations", "@spider": "usps_collection_boxes", "addr:city": "COLUMBUS", "addr:country": "US", "addr:postcode": "58727", "addr:state": "ND", "addr:street_address": "206 MAIN ST", "amenity": "post_box", "collection_times": "Mo-Fr 12:00; Sa 09:45", "indoor": "yes", "nsi_id": "unitedstatespostalservice-a77078", "operator": "United States Postal Service", "operator:short": "USPS", "operator:type": "public", "operator:wikidata": "Q668687", "ref": "5872700003"}, "type": "Feature"}
{"geometry": {"coordinates": [-102.780599713, 48.902903318], "type": "Point"}, "id": "YplHyPHUsmiXNKg2Aaf4xxiCeuY=", "properties": {"@source_uri": "https://tools.usps.com/UspsToolsRestServices/rest/POLocator/findLocations", "@spider": "usps_collection_boxes", "addr:city": "COLUMBUS", "addr:country": "US", "addr:postcode": "58727", "addr:state": "ND", "addr:street_address": "206 MAIN ST", "amenity": "post_box", "collection_times": "Mo-Fr 11:45; Sa 09:45", "indoor": "yes", "nsi_id": "unitedstatespostalservice-a77078", "operator": "United States Postal Service", "operator:short": "USPS", "operator:type": "public", "operator:wikidata": "Q668687", "ref": "5872700004"}, "type": "Feature"}
{"geometry": {"coordinates": [-103.294853904, 48.914167003], "type": "Point"}, "id": "e-3S-roGOGjHKGQlfkTFhV0vh4c=", "properties": {"@source_uri": "https://tools.usps.com/UspsToolsRestServices/rest/POLocator/findLocations", "@spider": "usps_collection_boxes", "addr:city": "CROSBY", "addr:country": "US", "addr:postcode": "58730", "addr:state": "ND", "addr:street_address": "202 N MAIN ST", "amenity": "post_box", "collection_times": "Mo-Sa 13:25", "note": "ON 12/24 AND 12/31, THIS BOX MAY BE COLLECTED AS EARLY AS 12 NOON.", "nsi_id": "unitedstatespostalservice-a77078", "operator": "United States Postal Service", "operator:short": "USPS", "operator:type": "public", "operator:wikidata": "Q668687", "ref": "5873000001"}, "type": "Feature"}
{"geometry": {"coordinates": [-103.294853904, 48.914167003], "type": "Point"}, "id": "vH0oqQYYJP9OdpFUZGfW_rNELDQ=", "properties": {"@source_uri": "https://tools.usps.com/UspsToolsRestServices/rest/POLocator/findLocations", "@spider": "usps_collection_boxes", "addr:city": "CROSBY", "addr:country": "US", "addr:postcode": "58730", "addr:state": "ND", "addr:street_address": "202 N MAIN ST", "amenity": "post_box", "collection_times": "Mo-Fr 13:25; Sa 12:30", "indoor": "yes", "note": "ON 12/24 AND 12/31, THIS BOX MAY BE COLLECTED AS EARLY AS 12 NOON.", "nsi_id": "unitedstatespostalservice-a77078", "operator": "United States Postal Service", "operator:short": "USPS", "operator:type": "public", "operator:wikidata": "Q668687", "ref": "5873000002"}, "type": "Feature"}
{"geometry": {"coordinates": [-103.294853904, 48.914167003], "type": "Point"}, "id": "MJwNYb8QiLci29WiYViINd5TSX4=", "properties": {"@source_uri": "https://tools.usps.com/UspsToolsRestServices/rest/POLocator/findLocations", "@spider": "usps_collection_boxes", "addr:city": "CROSBY", "addr:country": "US", "addr:postcode": "58730", "addr:state": "ND", "addr:street_address": "202 N MAIN ST", "amenity": "post_box", "collection_times": "Mo-Fr 13:25; Sa 12:30", "indoor": "yes", "note": "ON 12/24 AND 12/31, THIS BOX MAY BE COLLECTED AS EARLY AS 12 NOON.", "nsi_id": "unitedstatespostalservice-a77078", "operator": "United States Postal Service", "operator:short": "USPS", "operator:type": "public", "operator:wikidata": "Q668687", "ref": "5873000003"}, "type": "Feature"}
{"geometry": {"coordinates": [-101.563977351, 48.257705598], "type": "Point"}, "id": "fs68mpTLFhtFBHPwsoBsi64wc-0=", "properties": {"@source_uri": "https://tools.usps.com/UspsToolsRestServices/rest/POLocator/findLocations", "@spider": "usps_collection_boxes", "addr:city": "DES LACS", "addr:country": "US", "addr:postcode": "58733", "addr:state": "ND", "addr:street_address": "130 S MAIN ST", "amenity": "post_box", "collection_times": "Mo-Sa 16:30", "note": "ON 12/24 AND 12/31, THIS BOX MAY BE COLLECTED AS EARLY AS 12 NOON.", "nsi_id": "unitedstatespostalservice-a77078", "operator": "United States Postal Service", "operator:short": "USPS", "operator:type": "public", "operator:wikidata": "Q668687", "ref": "5873300001"}, "type": "Feature"}
{"geometry": {"coordinates": [-101.563977351, 48.257705598], "type": "Point"}, "id": "3RC1vSgD6CIQ9DUEDAZMsWTGIiA=", "properties": {"@source_uri": "https://tools.usps.com/UspsToolsRestServices/rest/POLocator/findLocations", "@spider": "usps_collection_boxes", "addr:city": "DES LACS", "addr:country": "US", "addr:postcode": "58733", "addr:state": "ND", "addr:street_address": "130 S MAIN ST", "amenity": "post_box", "collection_times": "Mo-Fr 16:30", "indoor": "yes", "note": "ON 12/24 AND 12/31, THIS BOX MAY BE COLLECTED AS EARLY AS 12 NOON.", "nsi_id": "unitedstatespostalservice-a77078", "operator": "United States Postal Service", "operator:short": "USPS", "operator:type": "public", "operator:wikidata": "Q668687", "ref": "5873300002"}, "type": "Feature"}
{"geometry": {"coordinates": [-101.563977351, 48.257705598], "type": "Point"}, "id": "BdF55O1uSh5Wk-QiEfMIPpyYAnk=", "properties": {"@source_uri": "https://tools.usps.com/UspsToolsRestServices/rest/POLocator/findLocations", "@spider": "usps_collection_boxes", "addr:city": "DES LACS", "addr:country": "US", "addr:postcode": "58733", "addr:state": "ND", "addr:street_address": "130 S MAIN ST", "amenity": "post_box", "collection_times": "Mo-Fr 16:30; Sa 13:00", "indoor": "yes", "note": "ON 12/24 AND 12/31, THIS BOX MAY BE COLLECTED AS EARLY AS 12 NOON.", "nsi_id": "unitedstatespostalservice-a77078", "operator": "United States Postal Service", "operator:short": "USPS", "operator:type": "public", "operator:wikidata": "Q668687", "ref": "5873300003"}, "type": "Feature"}
{"geometry": {"coordinates": [-101.503039099, 47.857535665], "type": "Point"}, "id": "BFRX-QXOaVXVpRX6EiYBbfQFol0=", "properties": {"@source_uri": "https://tools.usps.com/UspsToolsRestServices/rest/POLocator/findLocations", "@spider": "usps_collection_boxes", "addr:city": "DOUGLAS", "addr:country": "US", "addr:postcode": "58735", "addr:state": "ND", "addr:street_address": "113 MAIN ST S", "amenity": "post_box", "collection_times": "Mo-Sa 15:25", "note": "ON 12/24 AND 12/31, THIS BOX MAY BE COLLECTED AS EARLY AS 12 NOON.", "nsi_id": "unitedstatespostalservice-a77078", "operator": "United States Postal Service", "operator:short": "USPS", "operator:type": "public", "operator:wikidata": "Q668687", "ref": "5873500000"}, "type": "Feature"}
{"geometry": {"coordinates": [-100.372194963, 47.922795], "type": "Point"}, "id": "guEFhINhGVkADs6_ipWmihiEFE0=", "properties": {"@source_uri": "https://tools.usps.com/UspsToolsRestServices/rest/POLocator/findLocations", "@spider": "usps_collection_boxes", "addr:city": "DRAKE", "addr:country": "US", "addr:postcode": "58736", "addr:state": "ND", "addr:street_address": "115 MAIN ST", "amenity": "post_box", "collection_times": "Mo-Sa 15:20", "note": "ON 12/24 AND 12/31, THIS BOX MAY BE COLLECTED AS EARLY AS 12 NOON.", "nsi_id": "unitedstatespostalservice-a77078", "operator": "United States Postal Service", "operator:short": "USPS", "operator:type": "public", "operator:wikidata": "Q668687", "ref": "5873600001"}, "type": "Feature"}
{"geometry": {"coordinates": [-100.372194963, 47.922795], "type": "Point"}, "id": "GMroq5dmESPwnK893QccyUbZH9w=", "properties": {"@source_uri": "https://tools.usps.com/UspsToolsRestServices/rest/POLocator/findLocations", "@spider": "usps_collection_boxes", "addr:city": "DRAKE", "addr:country": "US", "addr:postcode": "58736", "addr:state": "ND", "addr:street_address": "115 MAIN ST", "amenity": "post_box", "collection_times": "Mo-Fr 12:00; Sa 09:45", "indoor": "yes", "nsi_id": "unitedstatespostalservice-a77078", "operator": "United States Postal Service", "operator:short": "USPS", "operator:type": "public", "operator:wikidata": "Q668687", "ref": "5873600002"}, "type": "Feature"}
{"geometry": {"coordinates": [-100.372194963, 47.922795], "type": "Point"}, "id": "LsjvgjMtOB5otz97Ur8bocK7MLc=", "properties": {"@source_uri": "https://tools.usps.com/UspsToolsRestServices/rest/POLocator/findLocations", "@spider": "usps_collection_boxes", "addr:city": "DRAKE", "addr:country": "US", "addr:postcode": "58736", "addr:state": "ND", "addr:street_address": "115 MAIN ST", "amenity": "post_box", "collection_times": "Mo-Fr 12:00; Sa 09:45", "indoor": "yes", "nsi_id": "unitedstatespostalservice-a77078", "operator": "United States Postal Service", "operator:short": "USPS", "operator:type": "public", "operator:wikidata": "Q668687", "ref": "5873600003"}, "type": "Feature"}
{"geometry": {"coordinates": [-101.221924563, 48.513128232], "type": "Point"}, "id": "q7ZBp-5xRPx9y7ZHlZZURZI6JDY=", "properties": {"@source_uri": "https://tools.usps.com/UspsToolsRestServices/rest/POLocator/findLocations", "@spider": "usps_collection_boxes", "addr:city": "GLENBURN", "addr:country": "US", "addr:postcode": "58740", "addr:state": "ND", "addr:street_address": "205 MAIN ST", "amenity": "post_box", "collection_times": "Mo-Sa 16:25", "note": "ON 12/24 AND 12/31, THIS BOX MAY BE COLLECTED AS EARLY AS 12 NOON.", "nsi_id": "unitedstatespostalservice-a77078", "operator": "United States Postal Service", "operator:short": "USPS", "operator:type": "public", "operator:wikidata": "Q668687", "ref": "5874000001"}, "type": "Feature"}
{"geometry": {"coordinates": [-101.221924563, 48.513128232], "type": "Point"}, "id": "nw6wS-6Mix1lUWA53IaxFGloUKE=", "properties": {"@source_uri": "https://tools.usps.com/UspsToolsRestServices/rest/POLocator/findLocations", "@spider": "usps_collection_boxes", "addr:city": "GLENBURN", "addr:country": "US", "addr:postcode": "58740", "addr:state": "ND", "addr:street_address": "205 MAIN ST", "amenity": "post_box", "collection_times": "Mo-Fr 12:00; Sa 09:15", "indoor": "yes", "nsi_id": "unitedstatespostalservice-a77078", "operator": "United States Postal Service", "operator:short": "USPS", "operator:type": "public", "operator:wikidata": "Q668687", "ref": "5874000002"}, "type": "Feature"}
{"geometry": {"coordinates": [-101.221851644, 48.513128232], "type": "Point"}, "id": "z36DOhonch4hvpAChoztV97W7ZI=", "properties": {"@source_uri": "https://tools.usps.com/UspsToolsRestServices/rest/POLocator/findLocations", "@spider": "usps_collection_boxes", "addr:city": "GLENBURN", "addr:country": "US", "addr:postcode": "58740", "addr:state": "ND", "addr:street_address": "205 MAIN ST", "amenity": "post_box", "collection_times": "Mo-Fr 12:00; Sa 09:15", "indoor": "yes", "nsi_id": "unitedstatespostalservice-a77078", "operator": "United States Postal Service", "operator:short": "USPS", "operator:type": "public", "operator:wikidata": "Q668687", "ref": "5874000003"}, "type": "Feature"}
{"geometry": {"coordinates": [-100.842833799, 48.267859182], "type": "Point"}, "id": "dn3aX8TL6PkzymCjXDvs2yh4qqs=", "properties": {"@source_uri": "https://tools.usps.com/UspsToolsRestServices/rest/POLocator/findLocations", "@spider": "usps_collection_boxes", "addr:city": "GRANVILLE", "addr:country": "US", "addr:postcode": "58741", "addr:state": "ND", "addr:street_address": "106 1ST ST SW", "amenity": "post_box", "collection_times": "Mo-Sa 16:00", "note": "ON 12/24 AND 12/31, THIS BOX MAY BE COLLECTED AS EARLY AS 12 NOON.", "nsi_id": "unitedstatespostalservice-a77078", "operator": "United States Postal Service", "operator:short": "USPS", "operator:type": "public", "operator:wikidata": "Q668687", "ref": "5874100001"}, "type": "Feature"}
{"geometry": {"coordinates": [-100.842833799, 48.267859182], "type": "Point"}, "id": "MrtKjxH_70687T66r1vMKI_XbaQ=", "properties": {"@source_uri": "https://tools.usps.com/UspsToolsRestServices/rest/POLocator/findLocations", "@spider": "usps_collection_boxes", "addr:city": "GRANVILLE", "addr:country": "US", "addr:postcode": "58741", "addr:state": "ND", "addr:street_address": "106 1ST ST SW", "amenity": "post_box", "collection_times": "Mo-Fr 12:00", "indoor": "yes", "nsi_id": "unitedstatespostalservice-a77078", "operator": "United States Postal Service", "operator:short": "USPS", "operator:type": "public", "operator:wikidata": "Q668687", "ref": "5874100002"}, "type": "Feature"}
{"geometry": {"coordinates": [-100.842833799, 48.267859182], "type": "Point"}, "id": "a3nv-n12hqCAgjyaVwg6pGZLb1A=", "properties": {"@source_uri": "https://tools.usps.com/UspsToolsRestServices/rest/POLocator/findLocations", "@spider": "usps_collection_boxes", "addr:city": "GRANVILLE", "addr:country": "US", "addr:postcode": "58741", "addr:state": "ND", "addr:street_address": "106 1ST ST SW", "amenity": "post_box", "collection_times": "Mo-Fr 12:00; Sa 09:30", "indoor": "yes", "nsi_id": "unitedstatespostalservice-a77078", "operator": "United States Postal Service", "operator:short": "USPS", "operator:type": "public", "operator:wikidata": "Q668687", "ref": "5874100003"}, "type": "Feature"}
{"geometry": {"coordinates": [-100.618983653, 48.092104113], "type": "Point"}, "id": "7ojHSTMgkKvFOZzNhrI4WLEYSUI=", "properties": {"@source_uri": "https://tools.usps.com/UspsToolsRestServices/rest/POLocator/findLocations", "@spider": "usps_collection_boxes", "addr:city": "KARLSRUHE", "addr:country": "US", "addr:postcode": "58744", "addr:state": "ND", "addr:street_address": "101 MAIN ST N", "amenity": "post_box", "collection_times": "Mo-Fr 15:15; Sa 15:00", "note": "ON 12/24 AND 12/31, THIS BOX MAY BE COLLECTED AS EARLY AS 12 NOON.", "nsi_id": "unitedstatespostalservice-a77078", "operator": "United States Postal Service", "operator:short": "USPS", "operator:type": "public", "operator:wikidata": "Q668687", "ref": "5874400001"}, "type": "Feature"}
{"geometry": {"coordinates": [-100.618983653, 48.092104113], "type": "Point"}, "id": "tRPpzmgRlnLgxyBgvwrbxMO8IlM=", "properties": {"@source_uri": "https://tools.usps.com/UspsToolsRestServices/rest/POLocator/findLocations", "@spider": "usps_collection_boxes", "addr:city": "KARLSRUHE", "addr:country": "US", "addr:postcode": "58744", "addr:state": "ND", "addr:street_address": "101 MAIN ST N", "amenity": "post_box", "collection_times": "Mo-Fr 15:15; Sa 14:00", "indoor": "yes", "note": "ON 12/24 AND 12/31, THIS BOX MAY BE COLLECTED AS EARLY AS 12 NOON.", "nsi_id": "unitedstatespostalservice-a77078", "operator": "United States Postal Service", "operator:short": "USPS", "operator:type": "public", "operator:wikidata": "Q668687", "ref": "5874400002"}, "type": "Feature"}
{"geometry": {"coordinates": [-102.0834870274, 48.6727590108], "type": "Point"}, "id": "il2ObCR0mYetI6nEgVMeEx1sroE=", "properties": {"@source_uri": "https://tools.usps.com/UspsToolsRestServices/rest/POLocator/findLocations", "@spider": "usps_collection_boxes", "addr:city": "KENMARE", "addr:country": "US", "addr:postcode": "58746", "addr:state": "ND", "addr:street_address": "22 2ND ST NW", "amenity": "post_box", "collection_times": "Mo-Sa 15:30", "note": "ON 12/24 AND 12/31, THIS BOX MAY BE COLLECTED AS EARLY AS 12 NOON.", "nsi_id": "unitedstatespostalservice-a77078", "operator": "United States Postal Service", "operator:short": "USPS", "operator:type": "public", "operator:wikidata": "Q668687", "ref": "5874600001"}, "type": "Feature"}
{"geometry": {"coordinates": [-102.083490168, 48.672577508], "type": "Point"}, "id": "5fSsYWShRzWsjkSbVIdYKsqwJrk=", "properties": {"@source_uri": "https://tools.usps.com/UspsToolsRestServices/rest/POLocator/findLocations", "@spider": "usps_collection_boxes", "addr:city": "KENMARE", "addr:country": "US", "addr:postcode": "58746", "addr:state": "ND", "addr:street_address": "22 2ND ST NW", "amenity": "post_box", "collection_times": "Mo-Fr 15:30; Sa 11:15", "indoor": "yes", "note": "ON 12/24 AND 12/31, THIS BOX MAY BE COLLECTED AS EARLY AS 12 NOON.", "nsi_id": "unitedstatespostalservice-a77078", "operator": "United States Postal Service", "operator:short": "USPS", "operator:type": "public", "operator:wikidata": "Q668687", "ref": "5874600002"}, "type": "Feature"}
{"geometry": {"coordinates": [-100.706825167, 48.690510035], "type": "Point"}, "id": "yNZ6e-KEf72dVxtXkGwL-f19mSs=", "properties": {"@source_uri": "https://tools.usps.com/UspsToolsRestServices/rest/POLocator/findLocations", "@spider": "usps_collection_boxes", "addr:city": "KRAMER", "addr:country": "US", "addr:postcode": "58748", "addr:state": "ND", "addr:street_address": "175 MAIN ST", "amenity": "post_box", "collection_times": "Mo-Sa 11:50", "nsi_id": "unitedstatespostalservice-a77078", "operator": "United States Postal Service", "operator:short": "USPS", "operator:type": "public", "operator:wikidata": "Q668687", "ref": "5874800001"}, "type": "Feature"}
{"geometry": {"coordinates": [-100.706825167, 48.690510035], "type": "Point"}, "id": "4w2M-Nch0hSLscDWVkJa1N27qNE=", "properties": {"@source_uri": "https://tools.usps.com/UspsToolsRestServices/rest/POLocator/findLocations", "@spider": "usps_collection_boxes", "addr:city": "KRAMER", "addr:country": "US", "addr:postcode": "58748", "addr:state": "ND", "addr:street_address": "175 MAIN ST", "amenity": "post_box", "collection_times": "Mo-Fr 16:00; Sa 14:00", "indoor": "yes", "note": "ON 12/24 AND 12/31, THIS BOX MAY BE COLLECTED AS EARLY AS 12 NOON.", "nsi_id": "unitedstatespostalservice-a77078", "operator": "United States Postal Service", "operator:short": "USPS", "operator:type": "public", "operator:wikidata": "Q668687", "ref": "5874800002"}, "type": "Feature"}
{"geometry": {"coordinates": [-101.376270807, 48.629196547], "type": "Point"}, "id": "N2XUmOA9xWIAYnGGWL8VWwZz5Ow=", "properties": {"@source_uri": "https://tools.usps.com/UspsToolsRestServices/rest/POLocator/findLocations", "@spider": "usps_collection_boxes", "addr:city": "LANSFORD", "addr:country": "US", "addr:postcode": "58750", "addr:state": "ND", "addr:street_address": "706 MAIN ST", "amenity": "post_box", "collection_times": "Mo-Sa 16:00", "note": "ON 12/24 AND 12/31, THIS BOX MAY BE COLLECTED AS EARLY AS 12 NOON.", "nsi_id": "unitedstatespostalservice-a77078", "operator": "United States Postal Service", "operator:short": "USPS", "operator:type": "public", "operator:wikidata": "Q668687", "ref": "5875000001"}, "type": "Feature"}
{"geometry": {"coordinates": [-101.376270807, 48.629196547], "type": "Point"}, "id": "KQZB_hFMoKliGCIXlucubn2JcFk=", "properties": {"@source_uri": "https://tools.usps.com/UspsToolsRestServices/rest/POLocator/findLocations", "@spider": "usps_collection_boxes", "addr:city": "LANSFORD", "addr:country": "US", "addr:postcode": "58750", "addr:state": "ND", "addr:street_address": "706 MAIN ST", "amenity": "post_box", "collection_times": "Mo-Fr 12:00; Sa 09:15", "indoor": "yes", "nsi_id": "unitedstatespostalservice-a77078", "operator": "United States Postal Service", "operator:short": "USPS", "operator:type": "public", "operator:wikidata": "Q668687", "ref": "5875000002"}, "type": "Feature"}
{"geometry": {"coordinates": [-102.563408614, 48.877303967], "type": "Point"}, "id": "1kLiM3kf0JE8IdfO3sXfOLLiLVY=", "properties": {"@source_uri": "https://tools.usps.com/UspsToolsRestServices/rest/POLocator/findLocations", "@spider": "usps_collection_boxes", "addr:city": "LIGNITE", "addr:country": "US", "addr:postcode": "58752", "addr:state": "ND", "addr:street_address": "202 MAIN ST", "amenity": "post_box", "collection_times": "Mo-Sa 14:35", "note": "ON 12/24 AND 12/31, THIS BOX MAY BE COLLECTED AS EARLY AS 12 NOON.", "nsi_id": "unitedstatespostalservice-a77078", "operator": "United States Postal Service", "operator:short": "USPS", "operator:type": "public", "operator:wikidata": "Q668687", "ref": "5875200001"}, "type": "Feature"}
{"geometry": {"coordinates": [-102.563408614, 48.877303967], "type": "Point"}, "id": "t8U2dgK6mVXfO8U0w_tCjB4WvsI=", "properties": {"@source_uri": "https://tools.usps.com/UspsToolsRestServices/rest/POLocator/findLocations", "@spider": "usps_collection_boxes", "addr:city": "LIGNITE", "addr:country": "US", "addr:postcode": "58752", "addr:state": "ND", "addr:street_address": "202 MAIN ST", "amenity": "post_box", "collection_times": "Mo-Fr 14:35; Sa 09:30", "indoor": "yes", "note": "ON 12/24 AND 12/31, THIS BOX MAY BE COLLECTED AS EARLY AS 12 NOON.", "nsi_id": "unitedstatespostalservice-a77078", "operator": "United States Postal Service", "operator:short": "USPS", "operator:type": "public", "operator:wikidata": "Q668687", "ref": "5875200002"}, "type": "Feature"}
{"geometry": {"coordinates": [-102.9267189758, 48.5957030014], "type": "Point"}, "id": "g1MPPdqLJw59OYRBJvoDMJe3Xco=", "properties": {"@source_uri": "https://tools.usps.com/UspsToolsRestServices/rest/POLocator/findLocations", "@spider": "usps_collection_boxes", "addr:city": "MCGREGOR", "addr:country": "US", "addr:postcode": "58755", "addr:state": "ND", "addr:street_address": "18 N MADISON ST", "amenity": "post_box", "collection_times": "Mo-Sa 13:15", "note": "ON 12/24 AND 12/31, THIS BOX MAY BE COLLECTED AS EARLY AS 12 NOON.", "nsi_id": "unitedstatespostalservice-a77078", "operator": "United States Postal Service", "operator:short": "USPS", "operator:type": "public", "operator:wikidata": "Q668687", "ref": "5875500001"}, "type": "Feature"}
{"geometry": {"coordinates": [-102.926962811, 48.596510695], "type": "Point"}, "id": "y1dyrjFyjFWAKtNVhc3G_7IiiQQ=", "properties": {"@source_uri": "https://tools.usps.com/UspsToolsRestServices/rest/POLocator/findLocations", "@spider": "usps_collection_boxes", "addr:city": "MCGREGOR", "addr:country": "US", "addr:postcode": "58755", "addr:state": "ND", "addr:street_address": "18 N MADISON ST", "amenity": "post_box", "collection_times": "Mo-Fr 12:00; Sa 10:00", "indoor": "yes", "nsi_id": "unitedstatespostalservice-a77078", "operator": "United States Postal Service", "operator:short": "USPS", "operator:type": "public", "operator:wikidata": "Q668687", "ref": "5875500002"}, "type": "Feature"}
{"geometry": {"coordinates": [-101.804702525, 47.960945612], "type": "Point"}, "id": "B28dT-i0ds5AHrUk30ZoJ51YLjU=", "properties": {"@source_uri": "https://tools.usps.com/UspsToolsRestServices/rest/POLocator/findLocations", "@spider": "usps_collection_boxes", "addr:city": "MAKOTI", "addr:country": "US", "addr:postcode": "58756", "addr:state": "ND", "addr:street_address": "220 MAIN ST N", "amenity": "post_box", "collection_times": "Mo-Sa 14:45", "note": "ON 12/24 AND 12/31, THIS BOX MAY BE COLLECTED AS EARLY AS 12 NOON.", "nsi_id": "unitedstatespostalservice-a77078", "operator": "United States Postal Service", "operator:short": "USPS", "operator:type": "public", "operator:wikidata": "Q668687", "ref": "5875600001"}, "type": "Feature"}
{"geometry": {"coordinates": [-101.804702525, 47.960945612], "type": "Point"}, "id": "S383TxLEHV5q4hoCTkLTg9XPDqc=", "properties": {"@source_uri": "https://tools.usps.com/UspsToolsRestServices/rest/POLocator/findLocations", "@spider": "usps_collection_boxes", "addr:city": "MAKOTI", "addr:country": "US", "addr:postcode": "58756", "addr:state": "ND", "addr:street_address": "220 MAIN ST N", "amenity": "post_box", "collection_times": "Mo-Fr 14:45; Sa 09:30", "indoor": "yes", "note": "ON 12/24 AND 12/31, THIS BOX MAY BE COLLECTED AS EARLY AS 12 NOON.", "nsi_id": "unitedstatespostalservice-a77078", "operator": "United States Postal Service", "operator:short": "USPS", "operator:type": "public", "operator:wikidata": "Q668687", "ref": "5875600002"}, "type": "Feature"}
{"geometry": {"coordinates": [-102.673113925, 47.728556391], "type": "Point"}, "id": "JKmJocsczRki_8Qnxld2tj95aCg=", "properties": {"@source_uri": "https://tools.usps.com/UspsToolsRestServices/rest/POLocator/findLocations", "@spider": "usps_collection_boxes", "addr:city": "MANDAREE", "addr:country": "US", "addr:postcode": "58757", "addr:state": "ND", "addr:street_address": "201 MAIN ST", "amenity": "post_box", "collection_times": "Mo-Fr 12:15; Sa 11:45", "note": "ON 12/24 AND 12/31, THIS BOX MAY BE COLLECTED AS EARLY AS 12 NOON.", "nsi_id": "unitedstatespostalservice-a77078", "operator": "United States Postal Service", "operator:short": "USPS", "operator:type": "public", "operator:wikidata": "Q668687", "ref": "5875700000"}, "type": "Feature"}
{"geometry": {"coordinates": [-102.673113925, 47.728556391], "type": "Point"}, "id": "gjJfeNKtjsdg_hpTuBD-7Tt3X2Q=", "properties": {"@source_uri": "https://tools.usps.com/UspsToolsRestServices/rest/POLocator/findLocations", "@spider": "usps_collection_boxes", "addr:city": "MANDAREE", "addr:country": "US", "addr:postcode": "58757", "addr:state": "ND", "addr:street_address": "201 MAIN ST", "amenity": "post_box", "collection_times": "Mo-Fr 12:15; Sa 11:45", "indoor": "yes", "note": "ON 12/24 AND 12/31, THIS BOX MAY BE COLLECTED AS EARLY AS 12 NOON.", "nsi_id": "unitedstatespostalservice-a77078", "operator": "United States Postal Service", "operator:short": "USPS", "operator:type": "public", "operator:wikidata": "Q668687", "ref": "5875700001"}, "type": "Feature"}
{"geometry": {"coordinates": [-101.294064, 47.821698525], "type": "Point"}, "id": "aDgqK_9T1_YKhwLMqmGA_dsAA5U=", "properties": {"@source_uri": "https://tools.usps.com/UspsToolsRestServices/rest/POLocator/findLocations", "@spider": "usps_collection_boxes", "addr:city": "MAX", "addr:country": "US", "addr:postcode": "58759", "addr:state": "ND", "addr:street_address": "211 MAIN ST", "amenity": "post_box", "collection_times": "Mo-Sa 15:50", "note": "ON 12/24 AND 12/31, THIS BOX MAY BE COLLECTED AS EARLY AS 12 NOON.", "nsi_id": "unitedstatespostalservice-a77078", "operator": "United States Postal Service", "operator:short": "USPS", "operator:type": "public", "operator:wikidata": "Q668687", "ref": "5875900001"}, "type": "Feature"}
{"geometry": {"coordinates": [-101.294064, 47.821698525], "type": "Point"}, "id": "apKFxeQKLQYRoKHqlB6fcx15Zb0=", "properties": {"@source_uri": "https://tools.usps.com/UspsToolsRestServices/rest/POLocator/findLocations", "@spider": "usps_collection_boxes", "addr:city": "MAX", "addr:country": "US", "addr:postcode": "58759", "addr:state": "ND", "addr:street_address": "211 MAIN ST", "amenity": "post_box", "collection_times": "Mo-Fr 12:00; Sa 09:25", "indoor": "yes", "nsi_id": "unitedstatespostalservice-a77078", "operator": "United States Postal Service", "operator:short": "USPS", "operator:type": "public", "operator:wikidata": "Q668687", "ref": "5875900002"}, "type": "Feature"}
{"geometry": {"coordinates": [-101.141492677, 48.721193413], "type": "Point"}, "id": "-jT9sZwdaO9KnOMYVjynh1W58Jo=", "properties": {"@source_uri": "https://tools.usps.com/UspsToolsRestServices/rest/POLocator/findLocations", "@spider": "usps_collection_boxes", "addr:city": "MAXBASS", "addr:country": "US", "addr:postcode": "58760", "addr:state": "ND", "addr:street_address": "115 MAIN ST", "amenity": "post_box", "collection_times": "Mo-Sa 13:45", "note": "ON 12/24 AND 12/31, THIS BOX MAY BE COLLECTED AS EARLY AS 12 NOON.", "nsi_id": "unitedstatespostalservice-a77078", "operator": "United States Postal Service", "operator:short": "USPS", "operator:type": "public", "operator:wikidata": "Q668687", "ref": "5876000001"}, "type": "Feature"}
{"geometry": {"coordinates": [-101.141492677, 48.721193413], "type": "Point"}, "id": "4szSbv0_gFmmQenl-aUnqeJ_fKw=", "properties": {"@source_uri": "https://tools.usps.com/UspsToolsRestServices/rest/POLocator/findLocations", "@spider": "usps_collection_boxes", "addr:city": "MAXBASS", "addr:country": "US", "addr:postcode": "58760", "addr:state": "ND", "addr:street_address": "115 MAIN ST", "amenity": "post_box", "collection_times": "Mo-Sa 12:00", "indoor": "yes", "nsi_id": "unitedstatespostalservice-a77078", "operator": "United States Postal Service", "operator:short": "USPS", "operator:type": "public", "operator:wikidata": "Q668687", "ref": "5876000002"}, "type": "Feature"}
{"geometry": {"coordinates": [-101.507412201, 48.763397292], "type": "Point"}, "id": "OQxJhXFsvNbiim9HMYIySGvpL9s=", "properties": {"@source_uri": "https://tools.usps.com/UspsToolsRestServices/rest/POLocator/findLocations", "@spider": "usps_collection_boxes", "addr:city": "MOHALL", "addr:country": "US", "addr:postcode": "58761", "addr:state": "ND", "addr:street_address": "107 MAIN ST E", "amenity": "post_box", "collection_times": "Mo-Sa 15:25", "note": "ON 12/24 AND 12/31, THIS BOX MAY BE COLLECTED AS EARLY AS 12 NOON.", "nsi_id": "unitedstatespostalservice-a77078", "operator": "United States Postal Service", "operator:short": "USPS", "operator:type": "public", "operator:wikidata": "Q668687", "ref": "5876100001"}, "type": "Feature"}
{"geometry": {"coordinates": [-101.507412201, 48.763397292], "type": "Point"}, "id": "rJtacxAOiKbzT80ywiRjzzo5l4s=", "properties": {"@source_uri": "https://tools.usps.com/UspsToolsRestServices/rest/POLocator/findLocations", "@spider": "usps_collection_boxes", "addr:city": "MOHALL", "addr:country": "US", "addr:postcode": "58761", "addr:state": "ND", "addr:street_address": "107 MAIN ST E", "amenity": "post_box", "collection_times": "Mo-Fr 15:25; Sa 10:00", "indoor": "yes", "note": "ON 12/24 AND 12/31, THIS BOX MAY BE COLLECTED AS EARLY AS 12 NOON.", "nsi_id": "unitedstatespostalservice-a77078", "operator": "United States Postal Service", "operator:short": "USPS", "operator:type": "public", "operator:wikidata": "Q668687", "ref": "5876100002"}, "type": "Feature"}
{"geometry": {"coordinates": [-100.9142325, 48.714918518], "type": "Point"}, "id": "fxynXSsT2AmB09IG5bTZQ2yyyWM=", "properties": {"@source_uri": "https://tools.usps.com/UspsToolsRestServices/rest/POLocator/findLocations", "@spider": "usps_collection_boxes", "addr:city": "NEWBURG", "addr:country": "US", "addr:postcode": "58762", "addr:state": "ND", "addr:street_address": "380 MAIN ST", "amenity": "post_box", "collection_times": "Mo-Sa 13:55", "note": "ON 12/24 AND 12/31, THIS BOX MAY BE COLLECTED AS EARLY AS 12 NOON.", "nsi_id": "unitedstatespostalservice-a77078", "operator": "United States Postal Service", "operator:short": "USPS", "operator:type": "public", "operator:wikidata": "Q668687", "ref": "5876200001"}, "type": "Feature"}
{"geometry": {"coordinates": [-100.9142325, 48.714918518], "type": "Point"}, "id": "p0L-KdkFOuvby798yB_NjmqOAQQ=", "properties": {"@source_uri": "https://tools.usps.com/UspsToolsRestServices/rest/POLocator/findLocations", "@spider": "usps_collection_boxes", "addr:city": "NEWBURG", "addr:country": "US", "addr:postcode": "58762", "addr:state": "ND", "addr:street_address": "380 MAIN ST", "amenity": "post_box", "collection_times": "Mo-Fr 13:55; Sa 09:45", "indoor": "yes", "note": "ON 12/24 AND 12/31, THIS BOX MAY BE COLLECTED AS EARLY AS 12 NOON.", "nsi_id": "unitedstatespostalservice-a77078", "operator": "United States Postal Service", "operator:short": "USPS", "operator:type": "public", "operator:wikidata": "Q668687", "ref": "5876200003"}, "type": "Feature"}
{"geometry": {"coordinates": [-102.485507272, 47.979716245], "type": "Point"}, "id": "ZgL1ooJ2WG25KMLGxG8RVQ293kE=", "properties": {"@source_uri": "https://tools.usps.com/UspsToolsRestServices/rest/POLocator/findLocations", "@spider": "usps_collection_boxes", "addr:city": "NEWTOWN", "addr:country": "US", "addr:postcode": "58763", "addr:state": "ND", "addr:street_address": "361 MAIN ST", "amenity": "post_box", "collection_times": "Mo-Sa 13:10", "note": "ON 12/24 AND 12/31, THIS BOX MAY BE COLLECTED AS EARLY AS 12 NOON.", "nsi_id": "unitedstatespostalservice-a77078", "operator": "United States Postal Service", "operator:short": "USPS", "operator:type": "public", "operator:wikidata": "Q668687", "ref": "5876300001"}, "type": "Feature"}
{"geometry": {"coordinates": [-102.485507272, 47.979716245], "type": "Point"}, "id": "iHDOZONYdJkTNp3w5VOmsck4Trw=", "properties": {"@source_uri": "https://tools.usps.com/UspsToolsRestServices/rest/POLocator/findLocations", "@spider": "usps_collection_boxes", "addr:city": "NEWTOWN", "addr:country": "US", "addr:postcode": "58763", "addr:state": "ND", "addr:street_address": "361 MAIN ST", "amenity": "post_box", "collection_times": "Mo-Fr 13:10; Sa 11:30", "indoor": "yes", "note": "ON 12/24 AND 12/31, THIS BOX MAY BE COLLECTED AS EARLY AS 12 NOON.", "nsi_id": "unitedstatespostalservice-a77078", "operator": "United States Postal Service", "operator:short": "USPS", "operator:type": "public", "operator:wikidata": "Q668687", "ref": "5876300002"}, "type": "Feature"}
{"geometry": {"coordinates": [-102.47292, 47.980579534], "type": "Point"}, "id": "lYJ-X31ZVUuNNnk5lBwghDqS3_E=", "properties": {"@source_uri": "https://tools.usps.com/UspsToolsRestServices/rest/POLocator/findLocations", "@spider": "usps_collection_boxes", "addr:city": "NEWTOWN", "addr:country": "US", "addr:postcode": "58763", "addr:state": "ND", "addr:street_address": "712 1ST ST N", "amenity": "post_box", "collection_times": "Mo-Sa 13:10", "note": "ON 12/24 AND 12/31, THIS BOX MAY BE COLLECTED AS EARLY AS 12 NOON.", "nsi_id": "unitedstatespostalservice-a77078", "operator": "United States Postal Service", "operator:short": "USPS", "operator:type": "public", "operator:wikidata": "Q668687", "ref": "5876300004"}, "type": "Feature"}
{"geometry": {"coordinates": [-102.618126503, 47.977696003], "type": "Point"}, "id": "KHkIzijTktyARtOojM9o7-nnEDk=", "properties": {"@source_uri": "https://tools.usps.com/UspsToolsRestServices/rest/POLocator/findLocations", "@spider": "usps_collection_boxes", "addr:city": "NEWTOWN", "addr:country": "US", "addr:postcode": "58763", "addr:state": "ND", "addr:street_address": "8258 39TH ST NW", "amenity": "post_box", "collection_times": "Mo-Sa 13:10", "note": "ON 12/24 AND 12/31, THIS BOX MAY BE COLLECTED AS EARLY AS 12 NOON.", "nsi_id": "unitedstatespostalservice-a77078", "operator": "United States Postal Service", "operator:short": "USPS", "operator:type": "public", "operator:wikidata": "Q668687", "ref": "5876300005"}, "type": "Feature"}
{"geometry": {"coordinates": [-102.575721543, 47.980465557], "type": "Point"}, "id": "uiRaA6c8RoE-FQ8vr5CucncNVt4=", "properties": {"@source_uri": "https://tools.usps.com/UspsToolsRestServices/rest/POLocator/findLocations", "@spider": "usps_collection_boxes", "addr:city": "NEWTOWN", "addr:country": "US", "addr:postcode": "58763", "addr:state": "ND", "addr:street_address": "202 FRONTAGE RD", "amenity": "post_box", "collection_times": "Mo-Sa 12:30", "note": "ON 12/24 AND 12/31, THIS BOX MAY BE COLLECTED AS EARLY AS 12 NOON.", "nsi_id": "unitedstatespostalservice-a77078", "operator": "United States Postal Service", "operator:short": "USPS", "operator:type": "public", "operator:wikidata": "Q668687", "ref": "5876300006"}, "type": "Feature"}
{"geometry": {"coordinates": [-103.008752107, 48.888847302], "type": "Point"}, "id": "Ms51SK2ePNZokVmufN5BAeGtVaI=", "properties": {"@source_uri": "https://tools.usps.com/UspsToolsRestServices/rest/POLocator/findLocations", "@spider": "usps_collection_boxes", "addr:city": "NOONAN", "addr:country": "US", "addr:postcode": "58765", "addr:state": "ND", "addr:street_address": "209 S MAIN ST", "amenity": "post_box", "collection_times": "Mo-Sa 13:40", "note": "ON 12/24 AND 12/31, THIS BOX MAY BE COLLECTED AS EARLY AS 12 NOON.", "nsi_id": "unitedstatespostalservice-a77078", "operator": "United States Postal Service", "operator:short": "USPS", "operator:type": "public", "operator:wikidata": "Q668687", "ref": "5876500001"}, "type": "Feature"}
{"geometry": {"coordinates": [-103.008752107, 48.888847302], "type": "Point"}, "id": "hbtmvnXslATBYMJUqxOKtjrN0gM=", "properties": {"@source_uri": "https://tools.usps.com/UspsToolsRestServices/rest/POLocator/findLocations", "@spider": "usps_collection_boxes", "addr:city": "NOONAN", "addr:country": "US", "addr:postcode": "58765", "addr:state": "ND", "addr:street_address": "209 S MAIN ST", "amenity": "post_box", "collection_times": "Mo-Fr 13:40; Sa 10:15", "indoor": "yes", "note": "ON 12/24 AND 12/31, THIS BOX MAY BE COLLECTED AS EARLY AS 12 NOON.", "nsi_id": "unitedstatespostalservice-a77078", "operator": "United States Postal Service", "operator:short": "USPS", "operator:type": "public", "operator:wikidata": "Q668687", "ref": "5876500002"}, "type": "Feature"}
{"geometry": {"coordinates": [-102.133453985, 47.952126702], "type": "Point"}, "id": "bmaLDXQ60iOI_-k0_6qei_4zqxw=", "properties": {"@source_uri": "https://tools.usps.com/UspsToolsRestServices/rest/POLocator/findLocations", "@spider": "usps_collection_boxes", "addr:city": "PARSHALL", "addr:country": "US", "addr:postcode": "58770", "addr:state": "ND", "addr:street_address": "107 MAIN ST S", "amenity": "post_box", "collection_times": "Mo-Sa 13:55", "note": "ON 12/24 AND 12/31, THIS BOX MAY BE COLLECTED AS EARLY AS 12 NOON.", "nsi_id": "unitedstatespostalservice-a77078", "operator": "United States Postal Service", "operator:short": "USPS", "operator:type": "public", "operator:wikidata": "Q668687", "ref": "5877000001"}, "type": "Feature"}
{"geometry": {"coordinates": [-102.1337070326, 47.9522960018], "type": "Point"}, "id": "rTUfswn4UfLEJvuH9Tl24wU99LU=", "properties": {"@source_uri": "https://tools.usps.com/UspsToolsRestServices/rest/POLocator/findLocations", "@spider": "usps_collection_boxes", "addr:city": "PARSHALL", "addr:country": "US", "addr:postcode": "58770", "addr:state": "ND", "addr:street_address": "107 MAIN ST S", "amenity": "post_box", "collection_times": "Mo-Fr 13:55", "indoor": "yes", "note": "ON 12/24 AND 12/31, THIS BOX MAY BE COLLECTED AS EARLY AS 12 NOON.", "nsi_id": "unitedstatespostalservice-a77078", "operator": "United States Postal Service", "operator:short": "USPS", "operator:type": "public", "operator:wikidata": "Q668687", "ref": "5877000002"}, "type": "Feature"}
{"geometry": {"coordinates": [-101.96104, 48.02368], "type": "Point"}, "id": "OnmlBKnkOhX3RdUlDFaAo1Dsu3U=", "properties": {"@source_uri": "https://tools.usps.com/UspsToolsRestServices/rest/POLocator/findLocations", "@spider": "usps_collection_boxes", "addr:city": "PLAZA", "addr:country": "US", "addr:postcode": "58771", "addr:state": "ND", "addr:street_address": "10 E PLAZA ST", "amenity": "post_box", "collection_times": "Mo-Sa 14:25", "note": "ON 12/24 AND 12/31, THIS BOX MAY BE COLLECTED AS EARLY AS 12 NOON.", "nsi_id": "unitedstatespostalservice-a77078", "operator": "United States Postal Service", "operator:short": "USPS", "operator:type": "public", "operator:wikidata": "Q668687", "ref": "5877100001"}, "type": "Feature"}
{"geometry": {"coordinates": [-101.958821552, 48.025874917], "type": "Point"}, "id": "_xR6GKtWEK68oeTRjHcBAXpDGeY=", "properties": {"@source_uri": "https://tools.usps.com/UspsToolsRestServices/rest/POLocator/findLocations", "@spider": "usps_collection_boxes", "addr:city": "PLAZA", "addr:country": "US", "addr:postcode": "58771", "addr:state": "ND", "addr:street_address": "10 E PLAZA ST", "amenity": "post_box", "collection_times": "Mo-Fr 12:00; Sa 09:30", "indoor": "yes", "nsi_id": "unitedstatespostalservice-a77078", "operator": "United States Postal Service", "operator:short": "USPS", "operator:type": "public", "operator:wikidata": "Q668687", "ref": "5877100002"}, "type": "Feature"}
{"geometry": {"coordinates": [-102.545117407, 48.994297445], "type": "Point"}, "id": "GhlIUUIpvHKl9WocTCWXdB6NBDM=", "properties": {"@source_uri": "https://tools.usps.com/UspsToolsRestServices/rest/POLocator/findLocations", "@spider": "usps_collection_boxes", "addr:city": "PORTAL", "addr:country": "US", "addr:postcode": "58772", "addr:state": "ND", "addr:street_address": "15 W RAILWAY AVE", "amenity": "post_box", "collection_times": "Mo-Fr 15:00; Sa 13:00", "note": "ON 12/24 AND 12/31, THIS BOX MAY BE COLLECTED AS EARLY AS 12 NOON.", "nsi_id": "unitedstatespostalservice-a77078", "operator": "United States Postal Service", "operator:short": "USPS", "operator:type": "public", "operator:wikidata": "Q668687", "ref": "5877200001"}, "type": "Feature"}
{"geometry": {"coordinates": [-102.545117407, 48.994297445], "type": "Point"}, "id": "VeqP0vYcsA6HkoV1kFj56M4HH7s=", "properties": {"@source_uri": "https://tools.usps.com/UspsToolsRestServices/rest/POLocator/findLocations", "@spider": "usps_collection_boxes", "addr:city": "PORTAL", "addr:country": "US", "addr:postcode": "58772", "addr:state": "ND", "addr:street_address": "15 W RAILWAY AVE", "amenity": "post_box", "collection_times": "Mo-Fr 15:00; Sa 11:25", "indoor": "yes", "note": "ON 12/24 AND 12/31, THIS BOX MAY BE COLLECTED AS EARLY AS 12 NOON.", "nsi_id": "unitedstatespostalservice-a77078", "operator": "United States Postal Service", "operator:short": "USPS", "operator:type": "public", "operator:wikidata": "Q668687", "ref": "5877200002"}, "type": "Feature"}
{"geometry": {"coordinates": [-102.6466279703, 48.5627737988], "type": "Point"}, "id": "5hTbUkMbxLX0ikcycdIxE24vT2w=", "properties": {"@source_uri": "https://tools.usps.com/UspsToolsRestServices/rest/POLocator/findLocations", "@spider": "usps_collection_boxes", "addr:city": "POWERS LAKE", "addr:country": "US", "addr:postcode": "58773", "addr:state": "ND", "addr:street_address": "207 MAIN ST", "amenity": "post_box", "collection_times": "Mo-Sa 14:20", "note": "ON 12/24 AND 12/31, THIS BOX MAY BE COLLECTED AS EARLY AS 12 NOON.", "nsi_id": "unitedstatespostalservice-a77078", "operator": "United States Postal Service", "operator:short": "USPS", "operator:type": "public", "operator:wikidata": "Q668687", "ref": "5877300001"}, "type": "Feature"}
{"geometry": {"coordinates": [-102.6466279703, 48.5627737988], "type": "Point"}, "id": "FW0QfU2TBbUaO23Qq66klUHMScI=", "properties": {"@source_uri": "https://tools.usps.com/UspsToolsRestServices/rest/POLocator/findLocations", "@spider": "usps_collection_boxes", "addr:city": "POWERS LAKE", "addr:country": "US", "addr:postcode": "58773", "addr:state": "ND", "addr:street_address": "207 MAIN ST", "amenity": "post_box", "collection_times": "Mo-Fr 14:20; Sa 10:00", "indoor": "yes", "note": "ON 12/24 AND 12/31, THIS BOX MAY BE COLLECTED AS EARLY AS 12 NOON.", "nsi_id": "unitedstatespostalservice-a77078", "operator": "United States Postal Service", "operator:short": "USPS", "operator:type": "public", "operator:wikidata": "Q668687", "ref": "5877300002"}, "type": "Feature"}
{"geometry": {"coordinates": [-101.84285, 47.6655377], "type": "Point"}, "id": "JIjA5NbUbctZ4tMCQ9chgiQYMrc=", "properties": {"@source_uri": "https://tools.usps.com/UspsToolsRestServices/rest/POLocator/findLocations", "@spider": "usps_collection_boxes", "addr:city": "ROSEGLEN", "addr:country": "US", "addr:postcode": "58775", "addr:state": "ND", "addr:street_address": "209 5TH ST", "amenity": "post_box", "collection_times": "Mo-Fr 14:00; Sa 11:45", "note": "ON 12/24 AND 12/31, THIS BOX MAY BE COLLECTED AS EARLY AS 12 NOON.", "nsi_id": "unitedstatespostalservice-a77078", "operator": "United States Postal Service", "operator:short": "USPS", "operator:type": "public", "operator:wikidata": "Q668687", "ref": "5877500001"}, "type": "Feature"}
{"geometry": {"coordinates": [-101.84285, 47.6655377], "type": "Point"}, "id": "FXHph5ujA0QTVmc-DmO3CuVGlCw=", "properties": {"@source_uri": "https://tools.usps.com/UspsToolsRestServices/rest/POLocator/findLocations", "@spider": "usps_collection_boxes", "addr:city": "ROSEGLEN", "addr:country": "US", "addr:postcode": "58775", "addr:state": "ND", "addr:street_address": "209 5TH ST", "amenity": "post_box", "collection_times": "Mo-Fr 14:00; Sa 11:45", "indoor": "yes", "note": "ON 12/24 AND 12/31, THIS BOX MAY BE COLLECTED AS EARLY AS 12 NOON.", "nsi_id": "unitedstatespostalservice-a77078", "operator": "United States Postal Service", "operator:short": "USPS", "operator:type": "public", "operator:wikidata": "Q668687", "ref": "5877500002"}, "type": "Feature"}
{"geometry": {"coordinates": [-102.544118464, 48.312804204], "type": "Point"}, "id": "mmAwrVItt5JuebGDVq0sK38FJew=", "properties": {"@source_uri": "https://tools.usps.com/UspsToolsRestServices/rest/POLocator/findLocations", "@spider": "usps_collection_boxes", "addr:city": "ROSS", "addr:country": "US", "addr:postcode": "58776", "addr:state": "ND", "addr:street_address": "203 MAIN ST", "amenity": "post_box", "collection_times": "Mo-Fr 15:15; Sa 12:00", "note": "ON 12/24 AND 12/31, THIS BOX MAY BE COLLECTED AS EARLY AS 12 NOON.", "nsi_id": "unitedstatespostalservice-a77078", "operator": "United States Postal Service", "operator:short": "USPS", "operator:type": "public", "operator:wikidata": "Q668687", "ref": "5877600001"}, "type": "Feature"}
{"geometry": {"coordinates": [-102.544118464, 48.312804204], "type": "Point"}, "id": "saKr2JijMeV8dWMnGn-M5eUfC7Y=", "properties": {"@source_uri": "https://tools.usps.com/UspsToolsRestServices/rest/POLocator/findLocations", "@spider": "usps_collection_boxes", "addr:city": "ROSS", "addr:country": "US", "addr:postcode": "58776", "addr:state": "ND", "addr:street_address": "203 MAIN ST", "amenity": "post_box", "collection_times": "Mo-Fr 14:30; Sa 12:00", "indoor": "yes", "note": "ON 12/24 AND 12/31, THIS BOX MAY BE COLLECTED AS EARLY AS 12 NOON.", "nsi_id": "unitedstatespostalservice-a77078", "operator": "United States Postal Service", "operator:short": "USPS", "operator:type": "public", "operator:wikidata": "Q668687", "ref": "5877600002"}, "type": "Feature"}
{"geometry": {"coordinates": [-101.673652037, 47.916747367], "type": "Point"}, "id": "VbzrxMFU2xD35VfrTmHnV_4imtw=", "properties": {"@source_uri": "https://tools.usps.com/UspsToolsRestServices/rest/POLocator/findLocations", "@spider": "usps_collection_boxes", "addr:city": "RYDER", "addr:country": "US", "addr:postcode": "58779", "addr:state": "ND", "addr:street_address": "280 N MAIN ST", "amenity": "post_box", "collection_times": "Mo-Sa 15:05", "note": "ON 12/24 AND 12/31, THIS BOX MAY BE COLLECTED AS EARLY AS 12 NOON.", "nsi_id": "unitedstatespostalservice-a77078", "operator": "United States Postal Service", "operator:short": "USPS", "operator:type": "public", "operator:wikidata": "Q668687", "ref": "5877900001"}, "type": "Feature"}
{"geometry": {"coordinates": [-101.673652037, 47.916747367], "type": "Point"}, "id": "vUjH1DxvZjIadwYIXCdxSW-Ae7w=", "properties": {"@source_uri": "https://tools.usps.com/UspsToolsRestServices/rest/POLocator/findLocations", "@spider": "usps_collection_boxes", "addr:city": "RYDER", "addr:country": "US", "addr:postcode": "58779", "addr:state": "ND", "addr:street_address": "280 N MAIN ST", "amenity": "post_box", "collection_times": "Mo-Fr 12:00; Sa 09:45", "indoor": "yes", "nsi_id": "unitedstatespostalservice-a77078", "operator": "United States Postal Service", "operator:short": "USPS", "operator:type": "public", "operator:wikidata": "Q668687", "ref": "5877900002"}, "type": "Feature"}
{"geometry": {"coordinates": [-101.053112674, 48.090478007], "type": "Point"}, "id": "STuZhvyudc2cl0mcVQc_-35GdS0=", "properties": {"@source_uri": "https://tools.usps.com/UspsToolsRestServices/rest/POLocator/findLocations", "@spider": "usps_collection_boxes", "addr:city": "SAWYER", "addr:country": "US", "addr:postcode": "58781", "addr:state": "ND", "addr:street_address": "20 MAIN ST S", "amenity": "post_box", "collection_times": "Mo-Sa 16:15", "note": "ON 12/24 AND 12/31, THIS BOX MAY BE COLLECTED AS EARLY AS 12 NOON.", "nsi_id": "unitedstatespostalservice-a77078", "operator": "United States Postal Service", "operator:short": "USPS", "operator:type": "public", "operator:wikidata": "Q668687", "ref": "5878100001"}, "type": "Feature"}
{"geometry": {"coordinates": [-101.053112674, 48.090478007], "type": "Point"}, "id": "BKeTWmefgKFF4hEDBkYkTGwdNuo=", "properties": {"@source_uri": "https://tools.usps.com/UspsToolsRestServices/rest/POLocator/findLocations", "@spider": "usps_collection_boxes", "addr:city": "SAWYER", "addr:country": "US", "addr:postcode": "58781", "addr:state": "ND", "addr:street_address": "20 MAIN ST S", "amenity": "post_box", "collection_times": "Mo-Fr 16:00; Sa 13:30", "indoor": "yes", "note": "ON 12/24 AND 12/31, THIS BOX MAY BE COLLECTED AS EARLY AS 12 NOON.", "nsi_id": "unitedstatespostalservice-a77078", "operator": "United States Postal Service", "operator:short": "USPS", "operator:type": "public", "operator:wikidata": "Q668687", "ref": "5878100002"}, "type": "Feature"}
{"geometry": {"coordinates": [-101.63268162, 48.959318951], "type": "Point"}, "id": "RhXt8KhKZ_OYeFQBaUh6WW0Gcf4=", "properties": {"@source_uri": "https://tools.usps.com/UspsToolsRestServices/rest/POLocator/findLocations", "@spider": "usps_collection_boxes", "addr:city": "SHERWOOD", "addr:country": "US", "addr:postcode": "58782", "addr:state": "ND", "addr:street_address": "144 MAIN ST", "amenity": "post_box", "collection_times": "Mo-Sa 14:55", "note": "ON 12/24 AND 12/31, THIS BOX MAY BE COLLECTED AS EARLY AS 12 NOON.", "nsi_id": "unitedstatespostalservice-a77078", "operator": "United States Postal Service", "operator:short": "USPS", "operator:type": "public", "operator:wikidata": "Q668687", "ref": "5878200001"}, "type": "Feature"}
{"geometry": {"coordinates": [-101.63268162, 48.959318951], "type": "Point"}, "id": "-XUa3UlGayK4VznfL8mXQMLSsVg=", "properties": {"@source_uri": "https://tools.usps.com/UspsToolsRestServices/rest/POLocator/findLocations", "@spider": "usps_collection_boxes", "addr:city": "SHERWOOD", "addr:country": "US", "addr:postcode": "58782", "addr:state": "ND", "addr:street_address": "144 MAIN ST", "amenity": "post_box", "collection_times": "Mo-Fr 12:00; Sa 09:20", "indoor": "yes", "nsi_id": "unitedstatespostalservice-a77078", "operator": "United States Postal Service", "operator:short": "USPS", "operator:type": "public", "operator:wikidata": "Q668687", "ref": "5878200002"}, "type": "Feature"}
{"geometry": {"coordinates": [-100.681950003, 48.909860001], "type": "Point"}, "id": "8wyxCEJAsnzM-WnYJe0pVUO_lhM=", "properties": {"@source_uri": "https://tools.usps.com/UspsToolsRestServices/rest/POLocator/findLocations", "@spider": "usps_collection_boxes", "addr:city": "SOURIS", "addr:country": "US", "addr:postcode": "58783", "addr:state": "ND", "addr:street_address": "105 MAIN ST", "amenity": "post_box", "collection_times": "Mo-Sa 13:40", "note": "ON 12/24 AND 12/31, THIS BOX MAY BE COLLECTED AS EARLY AS 12 NOON.", "nsi_id": "unitedstatespostalservice-a77078", "operator": "United States Postal Service", "operator:short": "USPS", "operator:type": "public", "operator:wikidata": "Q668687", "ref": "5878300001"}, "type": "Feature"}
{"geometry": {"coordinates": [-100.681950003, 48.909860001], "type": "Point"}, "id": "nBYV9n0R2pBOrgCV7Rs7CpRUFgM=", "properties": {"@source_uri": "https://tools.usps.com/UspsToolsRestServices/rest/POLocator/findLocations", "@spider": "usps_collection_boxes", "addr:city": "SOURIS", "addr:country": "US", "addr:postcode": "58783", "addr:state": "ND", "addr:street_address": "105 MAIN ST", "amenity": "post_box", "collection_times": "Mo-Fr 12:15; Sa 09:55", "indoor": "yes", "note": "ON 12/24 AND 12/31, THIS BOX MAY BE COLLECTED AS EARLY AS 12 NOON.", "nsi_id": "unitedstatespostalservice-a77078", "operator": "United States Postal Service", "operator:short": "USPS", "operator:type": "public", "operator:wikidata": "Q668687", "ref": "5878300002"}, "type": "Feature"}
{"geometry": {"coordinates": [-102.3862024, 48.3125551], "type": "Point"}, "id": "4QEFT_YBh-Rs7I-dm9dosbPoB4s=", "properties": {"@source_uri": "https://tools.usps.com/UspsToolsRestServices/rest/POLocator/findLocations", "@spider": "usps_collection_boxes", "addr:city": "STANLEY", "addr:country": "US", "addr:postcode": "58784", "addr:state": "ND", "addr:street_address": "902 JARARD ST SE", "amenity": "post_box", "collection_times": "Mo-Sa 15:15", "note": "ON 12/24 AND 12/31, THIS BOX MAY BE COLLECTED AS EARLY AS 12 NOON.", "nsi_id": "unitedstatespostalservice-a77078", "operator": "United States Postal Service", "operator:short": "USPS", "operator:type": "public", "operator:wikidata": "Q668687", "ref": "5878400001"}, "type": "Feature"}
{"geometry": {"coordinates": [-102.3862024, 48.3125551], "type": "Point"}, "id": "BOaAf58oQsA7wsDSG39mH99VNzk=", "properties": {"@source_uri": "https://tools.usps.com/UspsToolsRestServices/rest/POLocator/findLocations", "@spider": "usps_collection_boxes", "addr:city": "STANLEY", "addr:country": "US", "addr:postcode": "58784", "addr:state": "ND", "addr:street_address": "902 JARARD ST SE", "amenity": "post_box", "collection_times": "Mo-Fr 15:15; Sa 11:00", "indoor": "yes", "note": "ON 12/24 AND 12/31, THIS BOX MAY BE COLLECTED AS EARLY AS 12 NOON.", "nsi_id": "unitedstatespostalservice-a77078", "operator": "United States Postal Service", "operator:short": "USPS", "operator:type": "public", "operator:wikidata": "Q668687", "ref": "5878400002"}, "type": "Feature"}
{"geometry": {"coordinates": [-101.1341369996, 48.2399850051], "type": "Point"}, "id": "nx03YyfePVDP-tZ6Q0AyXy4tKaU=", "properties": {"@source_uri": "https://tools.usps.com/UspsToolsRestServices/rest/POLocator/findLocations", "@spider": "usps_collection_boxes", "addr:city": "SURREY", "addr:country": "US", "addr:postcode": "58785", "addr:state": "ND", "addr:street_address": "116 PLEASANT AVE N", "amenity": "post_box", "collection_times": "Mo-Sa 16:05", "note": "ON 12/24 AND 12/31, THIS BOX MAY BE COLLECTED AS EARLY AS 12 NOON.", "nsi_id": "unitedstatespostalservice-a77078", "operator": "United States Postal Service", "operator:short": "USPS", "operator:type": "public", "operator:wikidata": "Q668687", "ref": "5878500001"}, "type": "Feature"}
{"geometry": {"coordinates": [-101.133774758, 48.239955], "type": "Point"}, "id": "Bjz1G9OOtio18LzR819lAjLOrXU=", "properties": {"@source_uri": "https://tools.usps.com/UspsToolsRestServices/rest/POLocator/findLocations", "@spider": "usps_collection_boxes", "addr:city": "SURREY", "addr:country": "US", "addr:postcode": "58785", "addr:state": "ND", "addr:street_address": "116 PLEASANT AVE N", "amenity": "post_box", "collection_times": "Mo-Fr 16:05", "indoor": "yes", "note": "ON 12/24 AND 12/31, THIS BOX MAY BE COLLECTED AS EARLY AS 12 NOON.", "nsi_id": "unitedstatespostalservice-a77078", "operator": "United States Postal Service", "operator:short": "USPS", "operator:type": "public", "operator:wikidata": "Q668687", "ref": "5878500002"}, "type": "Feature"}
{"geometry": {"coordinates": [-101.82780232, 48.731949336], "type": "Point"}, "id": "3cWigY4fbP9jLXP16V2hrto6QNw=", "properties": {"@source_uri": "https://tools.usps.com/UspsToolsRestServices/rest/POLocator/findLocations", "@spider": "usps_collection_boxes", "addr:city": "TOLLEY", "addr:country": "US", "addr:postcode": "58787", "addr:state": "ND", "addr:street_address": "209 MAIN ST", "amenity": "post_box", "collection_times": "Mo-Fr 12:50; Sa 13:45", "note": "ON 12/24 AND 12/31, THIS BOX MAY BE COLLECTED AS EARLY AS 12 NOON.", "nsi_id": "unitedstatespostalservice-a77078", "operator": "United States Postal Service", "operator:short": "USPS", "operator:type": "public", "operator:wikidata": "Q668687", "ref": "5878700001"}, "type": "Feature"}
{"geometry": {"coordinates": [-101.82780232, 48.731949336], "type": "Point"}, "id": "3IXIxuBAiKq_OQJILoPBboRTSOU=", "properties": {"@source_uri": "https://tools.usps.com/UspsToolsRestServices/rest/POLocator/findLocations", "@spider": "usps_collection_boxes", "addr:city": "TOLLEY", "addr:country": "US", "addr:postcode": "58787", "addr:state": "ND", "addr:street_address": "209 MAIN ST", "amenity": "post_box", "collection_times": "Mo-Fr 12:50; Sa 11:15", "indoor": "yes", "note": "ON 12/24 AND 12/31, THIS BOX MAY BE COLLECTED AS EARLY AS 12 NOON.", "nsi_id": "unitedstatespostalservice-a77078", "operator": "United States Postal Service", "operator:short": "USPS", "operator:type": "public", "operator:wikidata": "Q668687", "ref": "5878700002"}, "type": "Feature"}
{"geometry": {"coordinates": [-100.405130691, 48.345408], "type": "Point"}, "id": "Dj25hyVtO88MY20qUjQqU2Bvjfw=", "properties": {"@source_uri": "https://tools.usps.com/UspsToolsRestServices/rest/POLocator/findLocations", "@spider": "usps_collection_boxes", "addr:city": "TOWNER", "addr:country": "US", "addr:postcode": "58788", "addr:state": "ND", "addr:street_address": "205 MAIN ST S", "amenity": "post_box", "collection_times": "Mo-Sa 16:00", "note": "ON 12/24 AND 12/31, THIS BOX MAY BE COLLECTED AS EARLY AS 12 NOON.", "nsi_id": "unitedstatespostalservice-a77078", "operator": "United States Postal Service", "operator:short": "USPS", "operator:type": "public", "operator:wikidata": "Q668687", "ref": "5878800001"}, "type": "Feature"}
{"geometry": {"coordinates": [-100.405130691, 48.345408], "type": "Point"}, "id": "0lH0UVTVq4BiWsO71d9XeQBUqAU=", "properties": {"@source_uri": "https://tools.usps.com/UspsToolsRestServices/rest/POLocator/findLocations", "@spider": "usps_collection_boxes", "addr:city": "TOWNER", "addr:country": "US", "addr:postcode": "58788", "addr:state": "ND", "addr:street_address": "205 MAIN ST S", "amenity": "post_box", "collection_times": "Mo-Fr 14:45; Sa 08:30", "indoor": "yes", "note": "ON 12/24 AND 12/31, THIS BOX MAY BE COLLECTED AS EARLY AS 12 NOON.", "nsi_id": "unitedstatespostalservice-a77078", "operator": "United States Postal Service", "operator:short": "USPS", "operator:type": "public", "operator:wikidata": "Q668687", "ref": "5878800002"}, "type": "Feature"}
{"geometry": {"coordinates": [-100.929327693, 48.057695706], "type": "Point"}, "id": "Z1PVtBpcj6usOIzfBHkgytskZWo=", "properties": {"@source_uri": "https://tools.usps.com/UspsToolsRestServices/rest/POLocator/findLocations", "@spider": "usps_collection_boxes", "addr:city": "VELVA", "addr:country": "US", "addr:postcode": "58790", "addr:state": "ND", "addr:street_address": "105 MAIN ST N", "amenity": "post_box", "collection_times": "Mo-Sa 16:05", "note": "ON 12/24 AND 12/31, THIS BOX MAY BE COLLECTED AS EARLY AS 12 NOON.", "nsi_id": "unitedstatespostalservice-a77078", "operator": "United States Postal Service", "operator:short": "USPS", "operator:type": "public", "operator:wikidata": "Q668687", "ref": "5879000001"}, "type": "Feature"}
{"geometry": {"coordinates": [-100.929327693, 48.057695706], "type": "Point"}, "id": "cdulBr7898BUJgspufvCDVoZEYw=", "properties": {"@source_uri": "https://tools.usps.com/UspsToolsRestServices/rest/POLocator/findLocations", "@spider": "usps_collection_boxes", "addr:city": "VELVA", "addr:country": "US", "addr:postcode": "58790", "addr:state": "ND", "addr:street_address": "105 MAIN ST N", "amenity": "post_box", "collection_times": "Mo-Fr 16:05; Sa 10:15", "indoor": "yes", "note": "ON 12/24 AND 12/31, THIS BOX MAY BE COLLECTED AS EARLY AS 12 NOON.", "nsi_id": "unitedstatespostalservice-a77078", "operator": "United States Postal Service", "operator:short": "USPS", "operator:type": "public", "operator:wikidata": "Q668687", "ref": "5879000002"}, "type": "Feature"}
{"geometry": {"coordinates": [-100.720432152, 48.001665576], "type": "Point"}, "id": "M4F3JRBGktCMF8-fIQPVHA8A7zg=", "properties": {"@source_uri": "https://tools.usps.com/UspsToolsRestServices/rest/POLocator/findLocations", "@spider": "usps_collection_boxes", "addr:city": "VOLTAIRE", "addr:country": "US", "addr:postcode": "58792", "addr:state": "ND", "addr:street_address": "9 MAIN ST", "amenity": "post_box", "collection_times": "Mo-Sa 15:30", "note": "ON 12/24 AND 12/31, THIS BOX MAY BE COLLECTED AS EARLY AS 12 NOON.", "nsi_id": "unitedstatespostalservice-a77078", "operator": "United States Postal Service", "operator:short": "USPS", "operator:type": "public", "operator:wikidata": "Q668687", "ref": "5879200001"}, "type": "Feature"}
{"geometry": {"coordinates": [-100.720432152, 48.001665576], "type": "Point"}, "id": "8s72D0sc1pNG1MDBO-0Xdh9EPZU=", "properties": {"@source_uri": "https://tools.usps.com/UspsToolsRestServices/rest/POLocator/findLocations", "@spider": "usps_collection_boxes", "addr:city": "VOLTAIRE", "addr:country": "US", "addr:postcode": "58792", "addr:state": "ND", "addr:street_address": "9 MAIN ST", "amenity": "post_box", "collection_times": "Mo-Fr 15:30; Sa 09:30", "indoor": "yes", "note": "ON 12/24 AND 12/31, THIS BOX MAY BE COLLECTED AS EARLY AS 12 NOON.", "nsi_id": "unitedstatespostalservice-a77078", "operator": "United States Postal Service", "operator:short": "USPS", "operator:type": "public", "operator:wikidata": "Q668687", "ref": "5879200002"}, "type": "Feature"}
{"geometry": {"coordinates": [-101.020920163, 48.910032419], "type": "Point"}, "id": "woU5snia9TFy-GFydOomGGUjBNg=", "properties": {"@source_uri": "https://tools.usps.com/UspsToolsRestServices/rest/POLocator/findLocations", "@spider": "usps_collection_boxes", "addr:city": "WESTHOPE", "addr:country": "US", "addr:postcode": "58793", "addr:state": "ND", "addr:street_address": "180 MAIN ST", "amenity": "post_box", "collection_times": "Mo-Sa 14:00", "note": "ON 12/24 AND 12/31, THIS BOX MAY BE COLLECTED AS EARLY AS 12 NOON.", "nsi_id": "unitedstatespostalservice-a77078", "operator": "United States Postal Service", "operator:short": "USPS", "operator:type": "public", "operator:wikidata": "Q668687", "ref": "5879300001"}, "type": "Feature"}
{"geometry": {"coordinates": [-101.020920163, 48.910032419], "type": "Point"}, "id": "28GmL24Bqz_0EyCe5fQsMs4McHI=", "properties": {"@source_uri": "https://tools.usps.com/UspsToolsRestServices/rest/POLocator/findLocations", "@spider": "usps_collection_boxes", "addr:city": "WESTHOPE", "addr:country": "US", "addr:postcode": "58793", "addr:state": "ND", "addr:street_address": "180 MAIN ST", "amenity": "post_box", "collection_times": "Mo-Fr 14:00; Sa 10:00", "indoor": "yes", "note": "ON 12/24 AND 12/31, THIS BOX MAY BE COLLECTED AS EARLY AS 12 NOON.", "nsi_id": "unitedstatespostalservice-a77078", "operator": "United States Postal Service", "operator:short": "USPS", "operator:type": "public", "operator:wikidata": "Q668687", "ref": "5879300002"}, "type": "Feature"}
{"geometry": {"coordinates": [-103.1842199368, 48.6282034613], "type": "Point"}, "id": "HVVk0VB8R_sc7TJkMCnX7SoV0YE=", "properties": {"@source_uri": "https://tools.usps.com/UspsToolsRestServices/rest/POLocator/findLocations", "@spider": "usps_collection_boxes", "addr:city": "WILDROSE", "addr:country": "US", "addr:postcode": "58795", "addr:state": "ND", "addr:street_address": "507 MAIN ST", "amenity": "post_box", "collection_times": "Mo-Sa 13:00", "note": "ON 12/24 AND 12/31, THIS BOX MAY BE COLLECTED AS EARLY AS 12 NOON.", "nsi_id": "unitedstatespostalservice-a77078", "operator": "United States Postal Service", "operator:short": "USPS", "operator:type": "public", "operator:wikidata": "Q668687", "ref": "5879500001"}, "type": "Feature"}
{"geometry": {"coordinates": [-103.1842199368, 48.6282034613], "type": "Point"}, "id": "3P0ZyXa2ARCyD28seqOp3lYVOD0=", "properties": {"@source_uri": "https://tools.usps.com/UspsToolsRestServices/rest/POLocator/findLocations", "@spider": "usps_collection_boxes", "addr:city": "WILDROSE", "addr:country": "US", "addr:postcode": "58795", "addr:state": "ND", "addr:street_address": "507 MAIN ST", "amenity": "post_box", "collection_times": "Mo-Sa 13:00", "indoor": "yes", "note": "ON 12/24 AND 12/31, THIS BOX MAY BE COLLECTED AS EARLY AS 12 NOON.", "nsi_id": "unitedstatespostalservice-a77078", "operator": "United States Postal Service", "operator:short": "USPS", "operator:type": "public", "operator:wikidata": "Q668687", "ref": "5879500002"}, "type": "Feature"}
