{"geometry": {"coordinates": [-103.643262639, 48.16152053], "type": "Point"}, "id": "RyGHzIq3v6_MQhtNge4fP_vg-eQ=", "properties": {"@source_uri": "https://tools.usps.com/UspsToolsRestServices/rest/POLocator/findLocations", "@spider": "usps_collection_boxes", "addr:city": "WILLISTON", "addr:country": "US", "addr:postcode": "58801", "addr:state": "ND", "addr:street_address": "1300 BISON DR", "amenity": "post_box", "collection_times": "Mo-Sa 14:00", "note": "ON 12/24 AND 12/31, THIS BOX MAY BE COLLECTED AS EARLY AS 12 NOON.", "nsi_id": "unitedstatespostalservice-a77078", "operator": "United States Postal Service", "operator:short": "USPS", "operator:type": "public", "operator:wikidata": "Q668687", "ref": "5880100002"}, "type": "Feature"}
{"geometry": {"coordinates": [-103.61907197, 48.146705572], "type": "Point"}, "id": "TtkCss2hHIt7eE9bR_2TubWslY8=", "properties": {"@source_uri": "https://tools.usps.com/UspsToolsRestServices/rest/POLocator/findLocations", "@spider": "usps_collection_boxes", "addr:city": "WILLISTON", "addr:country": "US", "addr:postcode": "58801", "addr:state": "ND", "addr:street_address": "120 E BROADWAY", "amenity": "post_box", "collection_times": "Mo-Sa 15:15", "note": "ON 12/24 AND 12/31, THIS BOX MAY BE COLLECTED AS EARLY AS 12 NOON.", "nsi_id": "unitedstatespostalservice-a77078", "operator": "United States Postal Service", "operator:short": "USPS", "operator:type": "public", "operator:wikidata": "Q668687", "ref": "5880100003"}, "type": "Feature"}
{"geometry": {"coordinates": [-103.645484721, 48.155445], "type": "Point"}, "id": "Xw1WY7Gvb0BcVarUBXMFb0pIN_Q=", "properties": {"@source_uri": "https://tools.usps.com/UspsToolsRestServices/rest/POLocator/findLocations", "@spider": "usps_collection_boxes", "addr:city": "WILLISTON", "addr:country": "US", "addr:postcode": "58801", "addr:state": "ND", "addr:street_address": "1301 15TH AVE W", "amenity": "post_box", "collection_times": "Mo-Sa 14:00", "note": "ON 12/24 AND 12/31, THIS BOX MAY BE COLLECTED AS EARLY AS 12 NOON.", "nsi_id": "unitedstatespostalservice-a77078", "operator": "United States Postal Service", "operator:short": "USPS", "operator:type": "public", "operator:wikidata": "Q668687", "ref": "5880100004"}, "type": "Feature"}
{"geometry": {"coordinates": [-103.61907197, 48.146705572], "type": "Point"}, "id": "aMmJrrYEvGVDVXZXnlbB0q8Uj1k=", "properties": {"@source_uri": "https://tools.usps.com/UspsToolsRestServices/rest/POLocator/findLocations", "@spider": "usps_collection_boxes", "addr:city": "WILLISTON", "addr:country": "US", "addr:postcode": "58801", "addr:state": "ND", "addr:street_address": "120 E BROADWAY", "amenity": "post_box", "collection_times": "Mo-Sa 15:15", "indoor": "yes", "note": "ON 12/24 AND 12/31, THIS BOX MAY BE COLLECTED AS EARLY AS 12 NOON.", "nsi_id": "unitedstatespostalservice-a77078", "operator": "United States Postal Service", "operator:short": "USPS", "operator:type": "public", "operator:wikidata": "Q668687", "ref": "5880100015"}, "type": "Feature"}
{"geometry": {"coordinates": [-103.6276609933, 48.1551989951], "type": "Point"}, "id": "Y45XJ2TBc_1FT50gVceQb3gX6OQ=", "properties": {"@source_uri": "https://tools.usps.com/UspsToolsRestServices/rest/POLocator/findLocations", "@spider": "usps_collection_boxes", "addr:city": "WILLISTON", "addr:country": "US", "addr:postcode": "58801", "addr:state": "ND", "addr:street_address": "300 11TH ST W", "amenity": "post_box", "collection_times": "Mo-Sa 14:00", "note": "ON 12/24 AND 12/31, THIS BOX MAY BE COLLECTED AS EARLY AS 12 NOON.", "nsi_id": "unitedstatespostalservice-a77078", "operator": "United States Postal Service", "operator:short": "USPS", "operator:type": "public", "operator:wikidata": "Q668687", "ref": "5880100018"}, "type": "Feature"}
{"geometry": {"coordinates": [-103.61907197, 48.146705572], "type": "Point"}, "id": "YOJPk2PR5zXS1U74IK4NkmQS0hs=", "properties": {"@source_uri": "https://tools.usps.com/UspsToolsRestServices/rest/POLocator/findLocations", "@spider": "usps_collection_boxes", "addr:city": "WILLISTON", "addr:country": "US", "addr:postcode": "58801", "addr:state": "ND", "addr:street_address": "120 E BROADWAY", "amenity": "post_box", "collection_times": "Mo-Sa 15:15", "name": "USPS COLLECTION BOX - APC", "note": "ON 12/24 AND 12/31, THIS BOX MAY BE COLLECTED AS EARLY AS 12 NOON.", "nsi_id": "unitedstatespostalservice-a77078", "operator": "United States Postal Service", "operator:short": "USPS", "operator:type": "public", "operator:wikidata": "Q668687", "ref": "5880100021"}, "type": "Feature"}
{"geometry": {"coordinates": [-103.61907197, 48.146705572], "type": "Point"}, "id": "Vzdx10gZzRkj6jP89iUnbzey4T4=", "properties": {"@source_uri": "https://tools.usps.com/UspsToolsRestServices/rest/POLocator/findLocations", "@spider": "usps_collection_boxes", "addr:city": "WILLISTON", "addr:country": "US", "addr:postcode": "58801", "addr:state": "ND", "addr:street_address": "120 E BROADWAY", "amenity": "post_box", "collection_times": "Mo-Sa 15:15", "indoor": "yes", "note": "ON 12/24 AND 12/31, THIS BOX MAY BE COLLECTED AS EARLY AS 12 NOON.", "nsi_id": "unitedstatespostalservice-a77078", "operator": "United States Postal Service", "operator:short": "USPS", "operator:type": "public", "operator:wikidata": "Q668687", "ref": "5880100022"}, "type": "Feature"}
{"geometry": {"coordinates": [-103.636643733, 48.183687], "type": "Point"}, "id": "PitZm62BO8N8nmMaO7pgSPjqsno=", "properties": {"@source_uri": "https://tools.usps.com/UspsToolsRestServices/rest/POLocator/findLocations", "@spider": "usps_collection_boxes", "addr:city": "WILLISTON", "addr:country": "US", "addr:postcode": "58801", "addr:state": "ND", "addr:street_address": "4315 9TH AVE W", "amenity": "post_box", "collection_times": "Mo-Fr 15:00; Sa 12:00", "note": "ON 12/24 AND 12/31, THIS BOX MAY BE COLLECTED AS EARLY AS 12 NOON.", "nsi_id": "unitedstatespostalservice-a77078", "operator": "United States Postal Service", "operator:short": "USPS", "operator:type": "public", "operator:wikidata": "Q668687", "ref": "5880100023"}, "type": "Feature"}
{"geometry": {"coordinates": [-103.6370899638, 48.183690006], "type": "Point"}, "id": "gmIbNQK7PnBYPtodpfTPKFoYnD0=", "properties": {"@source_uri": "https://tools.usps.com/UspsToolsRestServices/rest/POLocator/findLocations", "@spider": "usps_collection_boxes", "addr:city": "WILLISTON", "addr:country": "US", "addr:postcode": "58801", "addr:state": "ND", "addr:street_address": "4315 9TH AVE W", "amenity": "post_box", "collection_times": "Mo-Fr 15:00; Sa 12:00", "indoor": "yes", "note": "ON 12/24 AND 12/31, THIS BOX MAY BE COLLECTED AS EARLY AS 12 NOON.", "nsi_id": "unitedstatespostalservice-a77078", "operator": "United States Postal Service", "operator:short": "USPS", "operator:type": "public", "operator:wikidata": "Q668687", "ref": "5880100025"}, "type": "Feature"}
{"geometry": {"coordinates": [-103.6370899638, 48.183690006], "type": "Point"}, "id": "hH6uXxaeCSy-B9kvuGcJO8w6B_I=", "properties": {"@source_uri": "https://tools.usps.com/UspsToolsRestServices/rest/POLocator/findLocations", "@spider": "usps_collection_boxes", "addr:city": "WILLISTON", "addr:country": "US", "addr:postcode": "58801", "addr:state": "ND", "addr:street_address": "4315 9TH AVE W", "amenity": "post_box", "collection_times": "Mo-Fr 15:00; Sa 12:00", "indoor": "yes", "note": "ON 12/24 AND 12/31, THIS BOX MAY BE COLLECTED AS EARLY AS 12 NOON.", "nsi_id": "unitedstatespostalservice-a77078", "operator": "United States Postal Service", "operator:short": "USPS", "operator:type": "public", "operator:wikidata": "Q668687", "ref": "5880100026"}, "type": "Feature"}
{"geometry": {"coordinates": [-103.6229927343, 48.1686775417], "type": "Point"}, "id": "sSXpnQZ0dlTQdyWDus1oUS76As0=", "properties": {"@source_uri": "https://tools.usps.com/UspsToolsRestServices/rest/POLocator/findLocations", "@spider": "usps_collection_boxes", "addr:city": "WILLISTON", "addr:country": "US", "addr:postcode": "58801", "addr:state": "ND", "addr:street_address": "10 26TH ST E", "amenity": "post_box", "collection_times": "Mo-Sa 13:00", "note": "ON 12/24 AND 12/31, THIS BOX MAY BE COLLECTED AS EARLY AS 12 NOON.", "nsi_id": "unitedstatespostalservice-a77078", "operator": "United States Postal Service", "operator:short": "USPS", "operator:type": "public", "operator:wikidata": "Q668687", "ref": "5880100029"}, "type": "Feature"}
{"geometry": {"coordinates": [-103.469929959, 48.58175108], "type": "Point"}, "id": "M5FcqPvpy0SqcGRgVKbPmuXxmvw=", "properties": {"@source_uri": "https://tools.usps.com/UspsToolsRestServices/rest/POLocator/findLocations", "@spider": "usps_collection_boxes", "addr:city": "ALAMO", "addr:country": "US", "addr:postcode": "58830", "addr:state": "ND", "addr:street_address": "24 MAIN ST", "amenity": "post_box", "collection_times": "Mo-Fr 12:15; Sa 10:15", "note": "ON 12/24 AND 12/31, THIS BOX MAY BE COLLECTED AS EARLY AS 12 NOON.", "nsi_id": "unitedstatespostalservice-a77078", "operator": "United States Postal Service", "operator:short": "USPS", "operator:type": "public", "operator:wikidata": "Q668687", "ref": "5883000001"}, "type": "Feature"}
{"geometry": {"coordinates": [-103.469929959, 48.58175108], "type": "Point"}, "id": "Wc5lOtOaQHBt7qx8AEM5f3yHfCI=", "properties": {"@source_uri": "https://tools.usps.com/UspsToolsRestServices/rest/POLocator/findLocations", "@spider": "usps_collection_boxes", "addr:city": "ALAMO", "addr:country": "US", "addr:postcode": "58830", "addr:state": "ND", "addr:street_address": "24 MAIN ST", "amenity": "post_box", "collection_times": "Mo-Fr 12:30; Sa 10:30", "indoor": "yes", "note": "ON 12/24 AND 12/31, THIS BOX MAY BE COLLECTED AS EARLY AS 12 NOON.", "nsi_id": "unitedstatespostalservice-a77078", "operator": "United States Postal Service", "operator:short": "USPS", "operator:type": "public", "operator:wikidata": "Q668687", "ref": "5883000002"}, "type": "Feature"}
{"geometry": {"coordinates": [-103.469929959, 48.58175108], "type": "Point"}, "id": "3DuO6AiF_VrC59lFZp1Sx9mEYgE=", "properties": {"@source_uri": "https://tools.usps.com/UspsToolsRestServices/rest/POLocator/findLocations", "@spider": "usps_collection_boxes", "addr:city": "ALAMO", "addr:country": "US", "addr:postcode": "58830", "addr:state": "ND", "addr:street_address": "24 MAIN ST", "amenity": "post_box", "collection_times": "Mo-Fr 12:20; Sa 10:20", "indoor": "yes", "note": "ON 12/24 AND 12/31, THIS BOX MAY BE COLLECTED AS EARLY AS 12 NOON.", "nsi_id": "unitedstatespostalservice-a77078", "operator": "United States Postal Service", "operator:short": "USPS", "operator:type": "public", "operator:wikidata": "Q668687", "ref": "5883000003"}, "type": "Feature"}
{"geometry": {"coordinates": [-103.6426269653, 47.8429350061], "type": "Point"}, "id": "28ysZuMLCTSdEis7BoZoBaR99yI=", "properties": {"@source_uri": "https://tools.usps.com/UspsToolsRestServices/rest/POLocator/findLocations", "@spider": "usps_collection_boxes", "addr:city": "ALEXANDER", "addr:country": "US", "addr:postcode": "58831", "addr:state": "ND", "addr:street_address": "602 ELK ST", "amenity": "post_box", "collection_times": "Mo-Fr 14:45; Sa 08:45", "note": "ON 12/24 AND 12/31, THIS BOX MAY BE COLLECTED AS EARLY AS 12 NOON.", "nsi_id": "unitedstatespostalservice-a77078", "operator": "United States Postal Service", "operator:short": "USPS", "operator:type": "public", "operator:wikidata": "Q668687", "ref": "5883100001"}, "type": "Feature"}
{"geometry": {"coordinates": [-103.6434597, 47.8440858], "type": "Point"}, "id": "xqDClQErNHLlYmyJAtklyYlS5Qg=", "properties": {"@source_uri": "https://tools.usps.com/UspsToolsRestServices/rest/POLocator/findLocations", "@spider": "usps_collection_boxes", "addr:city": "ALEXANDER", "addr:country": "US", "addr:postcode": "58831", "addr:state": "ND", "addr:street_address": "602 ELK ST", "amenity": "post_box", "collection_times": "Mo-Fr 11:00; Sa 09:30", "indoor": "yes", "nsi_id": "unitedstatespostalservice-a77078", "operator": "United States Postal Service", "operator:short": "USPS", "operator:type": "public", "operator:wikidata": "Q668687", "ref": "5883100002"}, "type": "Feature"}
{"geometry": {"coordinates": [-103.6434597, 47.8440858], "type": "Point"}, "id": "BzU1h_y6f8564UAN-BgURs1gw7A=", "properties": {"@source_uri": "https://tools.usps.com/UspsToolsRestServices/rest/POLocator/findLocations", "@spider": "usps_collection_boxes", "addr:city": "ALEXANDER", "addr:country": "US", "addr:postcode": "58831", "addr:state": "ND", "addr:street_address": "602 ELK ST", "amenity": "post_box", "collection_times": "Mo-Fr 10:50; Sa 09:20", "indoor": "yes", "nsi_id": "unitedstatespostalservice-a77078", "operator": "United States Postal Service", "operator:short": "USPS", "operator:type": "public", "operator:wikidata": "Q668687", "ref": "5883100003"}, "type": "Feature"}
{"geometry": {"coordinates": [-103.482228949, 48.954839426], "type": "Point"}, "id": "9yu9HdS4-0tNeICTfheKLy5beic=", "properties": {"@source_uri": "https://tools.usps.com/UspsToolsRestServices/rest/POLocator/findLocations", "@spider": "usps_collection_boxes", "addr:city": "AMBROSE", "addr:country": "US", "addr:postcode": "58833", "addr:state": "ND", "addr:street_address": "203 MAIN ST", "amenity": "post_box", "collection_times": "Mo-Fr 13:55; Sa 13:00", "note": "ON 12/24 AND 12/31, THIS BOX MAY BE COLLECTED AS EARLY AS 12 NOON.", "nsi_id": "unitedstatespostalservice-a77078", "operator": "United States Postal Service", "operator:short": "USPS", "operator:type": "public", "operator:wikidata": "Q668687", "ref": "5883300001"}, "type": "Feature"}
{"geometry": {"coordinates": [-103.482228949, 48.954839426], "type": "Point"}, "id": "1yh1yGXjalxHQ7DomH3DdagJTYw=", "properties": {"@source_uri": "https://tools.usps.com/UspsToolsRestServices/rest/POLocator/findLocations", "@spider": "usps_collection_boxes", "addr:city": "AMBROSE", "addr:country": "US", "addr:postcode": "58833", "addr:state": "ND", "addr:street_address": "203 MAIN ST", "amenity": "post_box", "collection_times": "Mo-Fr 13:55; Sa 13:00", "indoor": "yes", "note": "ON 12/24 AND 12/31, THIS BOX MAY BE COLLECTED AS EARLY AS 12 NOON.", "nsi_id": "unitedstatespostalservice-a77078", "operator": "United States Postal Service", "operator:short": "USPS", "operator:type": "public", "operator:wikidata": "Q668687", "ref": "5883300002"}, "type": "Feature"}
{"geometry": {"coordinates": [-103.482228949, 48.954839426], "type": "Point"}, "id": "Xg_F6aKPjh2x3rReCsDQ_L0MAeU=", "properties": {"@source_uri": "https://tools.usps.com/UspsToolsRestServices/rest/POLocator/findLocations", "@spider": "usps_collection_boxes", "addr:city": "AMBROSE", "addr:country": "US", "addr:postcode": "58833", "addr:state": "ND", "addr:street_address": "203 MAIN ST", "amenity": "post_box", "collection_times": "Mo-Fr 13:55; Sa 12:50", "indoor": "yes", "note": "ON 12/24 AND 12/31, THIS BOX MAY BE COLLECTED AS EARLY AS 12 NOON.", "nsi_id": "unitedstatespostalservice-a77078", "operator": "United States Postal Service", "operator:short": "USPS", "operator:type": "public", "operator:wikidata": "Q668687", "ref": "5883300003"}, "type": "Feature"}
{"geometry": {"coordinates": [-103.440415287, 47.808594828], "type": "Point"}, "id": "firVdCFCSE23ztj2tGKX-0LoRGs=", "properties": {"@source_uri": "https://tools.usps.com/UspsToolsRestServices/rest/POLocator/findLocations", "@spider": "usps_collection_boxes", "addr:city": "ARNEGARD", "addr:country": "US", "addr:postcode": "58835", "addr:state": "ND", "addr:street_address": "206 MAIN ST", "amenity": "post_box", "collection_times": "Mo-Sa 14:30", "note": "ON 12/24 AND 12/31, THIS BOX MAY BE COLLECTED AS EARLY AS 12 NOON.", "nsi_id": "unitedstatespostalservice-a77078", "operator": "United States Postal Service", "operator:short": "USPS", "operator:type": "public", "operator:wikidata": "Q668687", "ref": "5883500001"}, "type": "Feature"}
{"geometry": {"coordinates": [-103.440415287, 47.808594828], "type": "Point"}, "id": "NPZM_pbazwOWcHd6QJVie2WLGjg=", "properties": {"@source_uri": "https://tools.usps.com/UspsToolsRestServices/rest/POLocator/findLocations", "@spider": "usps_collection_boxes", "addr:city": "ARNEGARD", "addr:country": "US", "addr:postcode": "58835", "addr:state": "ND", "addr:street_address": "206 MAIN ST", "amenity": "post_box", "collection_times": "Mo-Sa 14:30", "indoor": "yes", "note": "ON 12/24 AND 12/31, THIS BOX MAY BE COLLECTED AS EARLY AS 12 NOON.", "nsi_id": "unitedstatespostalservice-a77078", "operator": "United States Postal Service", "operator:short": "USPS", "operator:type": "public", "operator:wikidata": "Q668687", "ref": "5883500002"}, "type": "Feature"}
{"geometry": {"coordinates": [-103.440415287, 47.808594828], "type": "Point"}, "id": "XmheJigzQATOi8acsi6cPTHE3o4=", "properties": {"@source_uri": "https://tools.usps.com/UspsToolsRestServices/rest/POLocator/findLocations", "@spider": "usps_collection_boxes", "addr:city": "ARNEGARD", "addr:country": "US", "addr:postcode": "58835", "addr:state": "ND", "addr:street_address": "206 MAIN ST", "amenity": "post_box", "collection_times": "Mo-Fr 14:30; Sa 14:20", "indoor": "yes", "note": "ON 12/24 AND 12/31, THIS BOX MAY BE COLLECTED AS EARLY AS 12 NOON.", "nsi_id": "unitedstatespostalservice-a77078", "operator": "United States Postal Service", "operator:short": "USPS", "operator:type": "public", "operator:wikidata": "Q668687", "ref": "5883500003"}, "type": "Feature"}
{"geometry": {"coordinates": [-103.925859048, 47.858822665], "type": "Point"}, "id": "T9EMD04vQRZj9mXkxbJUEDfWd50=", "properties": {"@source_uri": "https://tools.usps.com/UspsToolsRestServices/rest/POLocator/findLocations", "@spider": "usps_collection_boxes", "addr:city": "CARTWRIGHT", "addr:country": "US", "addr:postcode": "58838", "addr:state": "ND", "addr:street_address": "204 MAIN ST", "amenity": "post_box", "collection_times": "Mo-Sa 12:30", "note": "ON 12/24 AND 12/31, THIS BOX MAY BE COLLECTED AS EARLY AS 12 NOON.", "nsi_id": "unitedstatespostalservice-a77078", "operator": "United States Postal Service", "operator:short": "USPS", "operator:type": "public", "operator:wikidata": "Q668687", "ref": "5883800001"}, "type": "Feature"}
{"geometry": {"coordinates": [-103.357593752, 48.28030441], "type": "Point"}, "id": "CRQK1aES1Rdy34Upb3TVxUgfWoU=", "properties": {"@source_uri": "https://tools.usps.com/UspsToolsRestServices/rest/POLocator/findLocations", "@spider": "usps_collection_boxes", "addr:city": "EPPING", "addr:country": "US", "addr:postcode": "58843", "addr:state": "ND", "addr:street_address": "109 MAIN AVE", "amenity": "post_box", "collection_times": "Mo-Sa 10:45", "nsi_id": "unitedstatespostalservice-a77078", "operator": "United States Postal Service", "operator:short": "USPS", "operator:type": "public", "operator:wikidata": "Q668687", "ref": "5884300001"}, "type": "Feature"}
{"geometry": {"coordinates": [-103.776493273, 48.911552312], "type": "Point"}, "id": "iB2wNVvNX0daSBeMZxW9Oj-i1oY=", "properties": {"@source_uri": "https://tools.usps.com/UspsToolsRestServices/rest/POLocator/findLocations", "@spider": "usps_collection_boxes", "addr:city": "FORTUNA", "addr:country": "US", "addr:postcode": "58844", "addr:state": "ND", "addr:street_address": "190 N MAIN ST", "amenity": "post_box", "collection_times": "Mo-Sa 13:00", "note": "ON 12/24 AND 12/31, THIS BOX MAY BE COLLECTED AS EARLY AS 12 NOON.", "nsi_id": "unitedstatespostalservice-a77078", "operator": "United States Postal Service", "operator:short": "USPS", "operator:type": "public", "operator:wikidata": "Q668687", "ref": "5884400001"}, "type": "Feature"}
{"geometry": {"coordinates": [-103.776493273, 48.911552312], "type": "Point"}, "id": "Sudy7u_XUP0P92kcXGs-v1m4l5Y=", "properties": {"@source_uri": "https://tools.usps.com/UspsToolsRestServices/rest/POLocator/findLocations", "@spider": "usps_collection_boxes", "addr:city": "FORTUNA", "addr:country": "US", "addr:postcode": "58844", "addr:state": "ND", "addr:street_address": "190 N MAIN ST", "amenity": "post_box", "collection_times": "Mo-Fr 13:00; Sa 11:15", "indoor": "yes", "note": "ON 12/24 AND 12/31, THIS BOX MAY BE COLLECTED AS EARLY AS 12 NOON.", "nsi_id": "unitedstatespostalservice-a77078", "operator": "United States Postal Service", "operator:short": "USPS", "operator:type": "public", "operator:wikidata": "Q668687", "ref": "5884400002"}, "type": "Feature"}
{"geometry": {"coordinates": [-103.7764932734, 48.9115523122], "type": "Point"}, "id": "rI6OYICmUjy9wR0R6xRUP9IEKS4=", "properties": {"@source_uri": "https://tools.usps.com/UspsToolsRestServices/rest/POLocator/findLocations", "@spider": "usps_collection_boxes", "addr:city": "FORTUNA", "addr:country": "US", "addr:postcode": "58844", "addr:state": "ND", "addr:street_address": "190 N MAIN ST", "amenity": "post_box", "collection_times": "Mo-Fr 13:00; Sa 11:15", "indoor": "yes", "note": "ON 12/24 AND 12/31, THIS BOX MAY BE COLLECTED AS EARLY AS 12 NOON.", "nsi_id": "unitedstatespostalservice-a77078", "operator": "United States Postal Service", "operator:short": "USPS", "operator:type": "public", "operator:wikidata": "Q668687", "ref": "5884400003"}, "type": "Feature"}
{"geometry": {"coordinates": [-103.937383649, 48.617813714], "type": "Point"}, "id": "tTK6LBVGvoZMN-isJao0UZGj0qM=", "properties": {"@source_uri": "https://tools.usps.com/UspsToolsRestServices/rest/POLocator/findLocations", "@spider": "usps_collection_boxes", "addr:city": "GRENORA", "addr:country": "US", "addr:postcode": "58845", "addr:state": "ND", "addr:street_address": "101 MAIN ST", "amenity": "post_box", "collection_times": "Mo-Sa 13:00", "note": "ON 12/24 AND 12/31, THIS BOX MAY BE COLLECTED AS EARLY AS 12 NOON.", "nsi_id": "unitedstatespostalservice-a77078", "operator": "United States Postal Service", "operator:short": "USPS", "operator:type": "public", "operator:wikidata": "Q668687", "ref": "5884500001"}, "type": "Feature"}
{"geometry": {"coordinates": [-103.937383649, 48.617813714], "type": "Point"}, "id": "_1JzHs9X9YJkvzZmMZ2x69Enayg=", "properties": {"@source_uri": "https://tools.usps.com/UspsToolsRestServices/rest/POLocator/findLocations", "@spider": "usps_collection_boxes", "addr:city": "GRENORA", "addr:country": "US", "addr:postcode": "58845", "addr:state": "ND", "addr:street_address": "101 MAIN ST", "amenity": "post_box", "collection_times": "Mo-Fr 13:00; Sa 10:15", "indoor": "yes", "note": "ON 12/24 AND 12/31, THIS BOX MAY BE COLLECTED AS EARLY AS 12 NOON.", "nsi_id": "unitedstatespostalservice-a77078", "operator": "United States Postal Service", "operator:short": "USPS", "operator:type": "public", "operator:wikidata": "Q668687", "ref": "5884500002"}, "type": "Feature"}
{"geometry": {"coordinates": [-103.937383649, 48.617813714], "type": "Point"}, "id": "Cr-p3RFlKz1vfecj15jLjYL_25E=", "properties": {"@source_uri": "https://tools.usps.com/UspsToolsRestServices/rest/POLocator/findLocations", "@spider": "usps_collection_boxes", "addr:city": "GRENORA", "addr:country": "US", "addr:postcode": "58845", "addr:state": "ND", "addr:street_address": "101 MAIN ST", "amenity": "post_box", "collection_times": "Mo-Fr 13:00; Sa 11:00", "indoor": "yes", "note": "ON 12/24 AND 12/31, THIS BOX MAY BE COLLECTED AS EARLY AS 12 NOON.", "nsi_id": "unitedstatespostalservice-a77078", "operator": "United States Postal Service", "operator:short": "USPS", "operator:type": "public", "operator:wikidata": "Q668687", "ref": "5884500003"}, "type": "Feature"}
{"geometry": {"coordinates": [-102.9415099631, 47.928897], "type": "Point"}, "id": "TJMGvMnU8K9rBw6m7ZFsN4ZecS0=", "properties": {"@source_uri": "https://tools.usps.com/UspsToolsRestServices/rest/POLocator/findLocations", "@spider": "usps_collection_boxes", "addr:city": "KEENE", "addr:country": "US", "addr:postcode": "58847", "addr:state": "ND", "addr:street_address": "209 MAIN ST", "amenity": "post_box", "collection_times": "Mo-Sa 11:00", "nsi_id": "unitedstatespostalservice-a77078", "operator": "United States Postal Service", "operator:short": "USPS", "operator:type": "public", "operator:wikidata": "Q668687", "ref": "5884700003"}, "type": "Feature"}
{"geometry": {"coordinates": [-103.165592219, 48.342624611], "type": "Point"}, "id": "GFrTMM2mfeQcYo_A3bIg6qqehUo=", "properties": {"@source_uri": "https://tools.usps.com/UspsToolsRestServices/rest/POLocator/findLocations", "@spider": "usps_collection_boxes", "addr:city": "RAY", "addr:country": "US", "addr:postcode": "58849", "addr:state": "ND", "addr:street_address": "6 MAIN ST", "amenity": "post_box", "collection_times": "Mo-Fr 14:45; Sa 09:45", "note": "ON 12/24 AND 12/31, THIS BOX MAY BE COLLECTED AS EARLY AS 12 NOON.", "nsi_id": "unitedstatespostalservice-a77078", "operator": "United States Postal Service", "operator:short": "USPS", "operator:type": "public", "operator:wikidata": "Q668687", "ref": "5884900001"}, "type": "Feature"}
{"geometry": {"coordinates": [-103.165592219, 48.342624611], "type": "Point"}, "id": "T_Joi5LkaCcOAq73zqSLS6O8BZ0=", "properties": {"@source_uri": "https://tools.usps.com/UspsToolsRestServices/rest/POLocator/findLocations", "@spider": "usps_collection_boxes", "addr:city": "RAY", "addr:country": "US", "addr:postcode": "58849", "addr:state": "ND", "addr:street_address": "6 MAIN ST", "amenity": "post_box", "collection_times": "Mo-Fr 14:55; Sa 10:00", "indoor": "yes", "note": "ON 12/24 AND 12/31, THIS BOX MAY BE COLLECTED AS EARLY AS 12 NOON.", "nsi_id": "unitedstatespostalservice-a77078", "operator": "United States Postal Service", "operator:short": "USPS", "operator:type": "public", "operator:wikidata": "Q668687", "ref": "5884900002"}, "type": "Feature"}
{"geometry": {"coordinates": [-102.938865866, 48.396025383], "type": "Point"}, "id": "SqUrKN4LqYUoIZ1SDEu3U9owJrk=", "properties": {"@source_uri": "https://tools.usps.com/UspsToolsRestServices/rest/POLocator/findLocations", "@spider": "usps_collection_boxes", "addr:city": "TIOGA", "addr:country": "US", "addr:postcode": "58852", "addr:state": "ND", "addr:street_address": "24 N MAIN ST", "amenity": "post_box", "collection_times": "Mo-Fr 16:15; Sa 11:45", "note": "ON 12/24 AND 12/31, THIS BOX MAY BE COLLECTED AS EARLY AS 12 NOON.", "nsi_id": "unitedstatespostalservice-a77078", "operator": "United States Postal Service", "operator:short": "USPS", "operator:type": "public", "operator:wikidata": "Q668687", "ref": "5885200001"}, "type": "Feature"}
{"geometry": {"coordinates": [-102.938865866, 48.396025383], "type": "Point"}, "id": "wCKxEoWLSSd_WSTB7cb88eEJwUg=", "properties": {"@source_uri": "https://tools.usps.com/UspsToolsRestServices/rest/POLocator/findLocations", "@spider": "usps_collection_boxes", "addr:city": "TIOGA", "addr:country": "US", "addr:postcode": "58852", "addr:state": "ND", "addr:street_address": "24 N MAIN ST", "amenity": "post_box", "collection_times": "Mo-Fr 15:30; Sa 12:00", "indoor": "yes", "note": "ON 12/24 AND 12/31, THIS BOX MAY BE COLLECTED AS EARLY AS 12 NOON.", "nsi_id": "unitedstatespostalservice-a77078", "operator": "United States Postal Service", "operator:short": "USPS", "operator:type": "public", "operator:wikidata": "Q668687", "ref": "5885200002"}, "type": "Feature"}
{"geometry": {"coordinates": [-102.929100587, 48.389355388], "type": "Point"}, "id": "srz_a0meKEqrdV6kkcc8ysYpuCA=", "properties": {"@source_uri": "https://tools.usps.com/UspsToolsRestServices/rest/POLocator/findLocations", "@spider": "usps_collection_boxes", "addr:city": "TIOGA", "addr:country": "US", "addr:postcode": "58852", "addr:state": "ND", "addr:street_address": "6714 HIGHWAY 40", "amenity": "post_box", "collection_times": "Mo-Sa 15:20", "note": "ON 12/24 AND 12/31, THIS BOX MAY BE COLLECTED AS EARLY AS 12 NOON.", "nsi_id": "unitedstatespostalservice-a77078", "operator": "United States Postal Service", "operator:short": "USPS", "operator:type": "public", "operator:wikidata": "Q668687", "ref": "5885200003"}, "type": "Feature"}
{"geometry": {"coordinates": [-103.830960908, 48.074200376], "type": "Point"}, "id": "jw8dAhD6BfpNnO4UG9C077JinhE=", "properties": {"@source_uri": "https://tools.usps.com/UspsToolsRestServices/rest/POLocator/findLocations", "@spider": "usps_collection_boxes", "addr:city": "TRENTON", "addr:country": "US", "addr:postcode": "58853", "addr:state": "ND", "addr:street_address": "331 4TH AVE E RM 18", "amenity": "post_box", "collection_times": "Mo-Sa 13:45", "note": "ON 12/24 AND 12/31, THIS BOX MAY BE COLLECTED AS EARLY AS 12 NOON.", "nsi_id": "unitedstatespostalservice-a77078", "operator": "United States Postal Service", "operator:short": "USPS", "operator:type": "public", "operator:wikidata": "Q668687", "ref": "5885300001"}, "type": "Feature"}
{"geometry": {"coordinates": [-103.830960908, 48.074200376], "type": "Point"}, "id": "4Qh_nhdNKiuZ35i-M_6jOxoEIgU=", "properties": {"@source_uri": "https://tools.usps.com/UspsToolsRestServices/rest/POLocator/findLocations", "@spider": "usps_collection_boxes", "addr:city": "TRENTON", "addr:country": "US", "addr:postcode": "58853", "addr:state": "ND", "addr:street_address": "331 4TH AVE E RM 18", "amenity": "post_box", "collection_times": "Mo-Sa 13:45", "indoor": "yes", "note": "ON 12/24 AND 12/31, THIS BOX MAY BE COLLECTED AS EARLY AS 12 NOON.", "nsi_id": "unitedstatespostalservice-a77078", "operator": "United States Postal Service", "operator:short": "USPS", "operator:type": "public", "operator:wikidata": "Q668687", "ref": "5885300002"}, "type": "Feature"}
{"geometry": {"coordinates": [-103.261451474, 47.804669532], "type": "Point"}, "id": "XzWpabUIvduaTZVFe2VKEWwBiZA=", "properties": {"@source_uri": "https://tools.usps.com/UspsToolsRestServices/rest/POLocator/findLocations", "@spider": "usps_collection_boxes", "addr:city": "WATFORD CITY", "addr:country": "US", "addr:postcode": "58854", "addr:state": "ND", "addr:street_address": "1204 4TH AVE NE", "amenity": "post_box", "collection_times": "Mo-Fr 15:30; Sa 13:00", "indoor": "yes", "note": "ON 12/24 AND 12/31, THIS BOX MAY BE COLLECTED AS EARLY AS 12 NOON.", "nsi_id": "unitedstatespostalservice-a77078", "operator": "United States Postal Service", "operator:short": "USPS", "operator:type": "public", "operator:wikidata": "Q668687", "ref": "5885400003"}, "type": "Feature"}
{"geometry": {"coordinates": [-103.261451474, 47.804669532], "type": "Point"}, "id": "IDS82GUfC6A978V0FBSo5MN8u1U=", "properties": {"@source_uri": "https://tools.usps.com/UspsToolsRestServices/rest/POLocator/findLocations", "@spider": "usps_collection_boxes", "addr:city": "WATFORD CITY", "addr:country": "US", "addr:postcode": "58854", "addr:state": "ND", "addr:street_address": "1204 4TH AVE NE", "amenity": "post_box", "collection_times": "Mo-Fr 15:30; Sa 13:00", "indoor": "yes", "note": "ON 12/24 AND 12/31, THIS BOX MAY BE COLLECTED AS EARLY AS 12 NOON.", "nsi_id": "unitedstatespostalservice-a77078", "operator": "United States Postal Service", "operator:short": "USPS", "operator:type": "public", "operator:wikidata": "Q668687", "ref": "5885400004"}, "type": "Feature"}
{"geometry": {"coordinates": [-103.277700349, 47.797321959], "type": "Point"}, "id": "2vzHVzEXzw3mPMK6fJ089f-nvdg=", "properties": {"@source_uri": "https://tools.usps.com/UspsToolsRestServices/rest/POLocator/findLocations", "@spider": "usps_collection_boxes", "addr:city": "WATFORD CITY", "addr:country": "US", "addr:postcode": "58854", "addr:state": "ND", "addr:street_address": "113 6TH AVE SE STE 5100", "amenity": "post_box", "collection_times": "Mo-Sa 15:00", "note": "ON 12/24 AND 12/31, THIS BOX MAY BE COLLECTED AS EARLY AS 12 NOON.", "nsi_id": "unitedstatespostalservice-a77078", "operator": "United States Postal Service", "operator:short": "USPS", "operator:type": "public", "operator:wikidata": "Q668687", "ref": "5885400005"}, "type": "Feature"}
{"geometry": {"coordinates": [-103.261451474, 47.804669532], "type": "Point"}, "id": "ca4vzMNQaY-nM_54X_Qg7YWMpIA=", "properties": {"@source_uri": "https://tools.usps.com/UspsToolsRestServices/rest/POLocator/findLocations", "@spider": "usps_collection_boxes", "addr:city": "WATFORD CITY", "addr:country": "US", "addr:postcode": "58854", "addr:state": "ND", "addr:street_address": "1204 4TH AVE NE", "amenity": "post_box", "collection_times": "Mo-Fr 15:30; Sa 13:00", "name": "USPS COLLECTION BOX - APC", "note": "ON 12/24 AND 12/31, THIS BOX MAY BE COLLECTED AS EARLY AS 12 NOON.", "nsi_id": "unitedstatespostalservice-a77078", "operator": "United States Postal Service", "operator:short": "USPS", "operator:type": "public", "operator:wikidata": "Q668687", "ref": "5885400006"}, "type": "Feature"}
{"geometry": {"coordinates": [-103.798635, 48.603275], "type": "Point"}, "id": "1ugF5Y2a4ZzN3C15A-9z6TG9Nko=", "properties": {"@source_uri": "https://tools.usps.com/UspsToolsRestServices/rest/POLocator/findLocations", "@spider": "usps_collection_boxes", "addr:city": "ZAHL", "addr:country": "US", "addr:postcode": "58856", "addr:state": "ND", "addr:street_address": "316 CHURCH ST", "amenity": "post_box", "collection_times": "Mo-Fr 15:00; Sa 10:15", "note": "ON 12/24 AND 12/31, THIS BOX MAY BE COLLECTED AS EARLY AS 12 NOON.", "nsi_id": "unitedstatespostalservice-a77078", "operator": "United States Postal Service", "operator:short": "USPS", "operator:type": "public", "operator:wikidata": "Q668687", "ref": "5885600001"}, "type": "Feature"}
