{"geometry": {"coordinates": [-109.4404100112, 45.5204499911], "type": "Point"}, "id": "ZdNpY8VvJWaqDo1z7ir8zTV-Z0c=", "properties": {"@source_uri": "https://tools.usps.com/UspsToolsRestServices/rest/POLocator/findLocations", "@spider": "usps_collection_boxes", "addr:city": "ABSAROKEE", "addr:country": "US", "addr:postcode": "59001", "addr:state": "MT", "addr:street_address": "25 N MONTANA AVE", "amenity": "post_box", "collection_times": "Mo-Fr 14:30; Sa 13:30", "note": "ON 12/24 AND 12/31, THIS BOX MAY BE COLLECTED AS EARLY AS 12 NOON.", "nsi_id": "unitedstatespostalservice-a77078", "operator": "United States Postal Service", "operator:short": "USPS", "operator:type": "public", "operator:wikidata": "Q668687", "ref": "5900100000"}, "type": "Feature"}
{"geometry": {"coordinates": [-109.44104, 45.520047], "type": "Point"}, "id": "zZXEsntou2MtHOIZU57d358Es9g=", "properties": {"@source_uri": "https://tools.usps.com/UspsToolsRestServices/rest/POLocator/findLocations", "@spider": "usps_collection_boxes", "addr:city": "ABSAROKEE", "addr:country": "US", "addr:postcode": "59001", "addr:state": "MT", "addr:street_address": "25 N MONTANA AVE", "amenity": "post_box", "collection_times": "Mo-Fr 14:30; Sa 13:30", "indoor": "yes", "note": "ON 12/24 AND 12/31, THIS BOX MAY BE COLLECTED AS EARLY AS 12 NOON.", "nsi_id": "unitedstatespostalservice-a77078", "operator": "United States Postal Service", "operator:short": "USPS", "operator:type": "public", "operator:wikidata": "Q668687", "ref": "5900100001"}, "type": "Feature"}
{"geometry": {"coordinates": [-109.44104, 45.520047], "type": "Point"}, "id": "w6FMD021aBPWSuxrayQpvqoJ4Ys=", "properties": {"@source_uri": "https://tools.usps.com/UspsToolsRestServices/rest/POLocator/findLocations", "@spider": "usps_collection_boxes", "addr:city": "ABSAROKEE", "addr:country": "US", "addr:postcode": "59001", "addr:state": "MT", "addr:street_address": "25 N MONTANA AVE", "amenity": "post_box", "collection_times": "Mo-Fr 14:30; Sa 13:30", "indoor": "yes", "note": "ON 12/24 AND 12/31, THIS BOX MAY BE COLLECTED AS EARLY AS 12 NOON.", "nsi_id": "unitedstatespostalservice-a77078", "operator": "United States Postal Service", "operator:short": "USPS", "operator:type": "public", "operator:wikidata": "Q668687", "ref": "5900100004"}, "type": "Feature"}
{"geometry": {"coordinates": [-109.440513409, 45.520489603], "type": "Point"}, "id": "PYSalLpzX9sl1ZhmrBjHG3ZTa2k=", "properties": {"@source_uri": "https://tools.usps.com/UspsToolsRestServices/rest/POLocator/findLocations", "@spider": "usps_collection_boxes", "addr:city": "ABSAROKEE", "addr:country": "US", "addr:postcode": "59001", "addr:state": "MT", "addr:street_address": "25 N MONTANA AVE", "amenity": "post_box", "collection_times": "Mo-Fr 14:30; Sa 13:30", "indoor": "yes", "note": "ON 12/24 AND 12/31, THIS BOX MAY BE COLLECTED AS EARLY AS 12 NOON.", "nsi_id": "unitedstatespostalservice-a77078", "operator": "United States Postal Service", "operator:short": "USPS", "operator:type": "public", "operator:wikidata": "Q668687", "ref": "5900100007"}, "type": "Feature"}
{"geometry": {"coordinates": [-106.2651109818, 45.5913010033], "type": "Point"}, "id": "5ImddYQQldNODoy4mqAz1Hym2jU=", "properties": {"@source_uri": "https://tools.usps.com/UspsToolsRestServices/rest/POLocator/findLocations", "@spider": "usps_collection_boxes", "addr:city": "ASHLAND", "addr:country": "US", "addr:postcode": "59003", "addr:state": "MT", "addr:street_address": "304 MAIN ST", "amenity": "post_box", "collection_times": "Mo-Fr 14:00; Sa 13:15", "note": "ON 12/24 AND 12/31, THIS BOX MAY BE COLLECTED AS EARLY AS 12 NOON.", "nsi_id": "unitedstatespostalservice-a77078", "operator": "United States Postal Service", "operator:short": "USPS", "operator:type": "public", "operator:wikidata": "Q668687", "ref": "5900300000"}, "type": "Feature"}
{"geometry": {"coordinates": [-106.265110982, 45.591301003], "type": "Point"}, "id": "Fsqr8j_mqzic6UWaROrKgzXUeIY=", "properties": {"@source_uri": "https://tools.usps.com/UspsToolsRestServices/rest/POLocator/findLocations", "@spider": "usps_collection_boxes", "addr:city": "ASHLAND", "addr:country": "US", "addr:postcode": "59003", "addr:state": "MT", "addr:street_address": "304 MAIN ST", "amenity": "post_box", "collection_times": "Mo-Fr 14:00; Sa 11:00", "indoor": "yes", "note": "ON 12/24 AND 12/31, THIS BOX MAY BE COLLECTED AS EARLY AS 12 NOON.", "nsi_id": "unitedstatespostalservice-a77078", "operator": "United States Postal Service", "operator:short": "USPS", "operator:type": "public", "operator:wikidata": "Q668687", "ref": "5900300001"}, "type": "Feature"}
{"geometry": {"coordinates": [-106.265110982, 45.591301003], "type": "Point"}, "id": "AkjbACPjpaFoSSTPd4jJLbmhJpU=", "properties": {"@source_uri": "https://tools.usps.com/UspsToolsRestServices/rest/POLocator/findLocations", "@spider": "usps_collection_boxes", "addr:city": "ASHLAND", "addr:country": "US", "addr:postcode": "59003", "addr:state": "MT", "addr:street_address": "304 MAIN ST", "amenity": "post_box", "collection_times": "Mo-Fr 14:00; Sa 11:00", "indoor": "yes", "note": "ON 12/24 AND 12/31, THIS BOX MAY BE COLLECTED AS EARLY AS 12 NOON.", "nsi_id": "unitedstatespostalservice-a77078", "operator": "United States Postal Service", "operator:short": "USPS", "operator:type": "public", "operator:wikidata": "Q668687", "ref": "5900300002"}, "type": "Feature"}
{"geometry": {"coordinates": [-106.265110982, 45.591301003], "type": "Point"}, "id": "JyEeskA_sD00JoWIGWYkyO3pMKc=", "properties": {"@source_uri": "https://tools.usps.com/UspsToolsRestServices/rest/POLocator/findLocations", "@spider": "usps_collection_boxes", "addr:city": "ASHLAND", "addr:country": "US", "addr:postcode": "59003", "addr:state": "MT", "addr:street_address": "304 MAIN ST", "amenity": "post_box", "collection_times": "Mo-Fr 14:00; Sa 11:00", "indoor": "yes", "note": "ON 12/24 AND 12/31, THIS BOX MAY BE COLLECTED AS EARLY AS 12 NOON.", "nsi_id": "unitedstatespostalservice-a77078", "operator": "United States Postal Service", "operator:short": "USPS", "operator:type": "public", "operator:wikidata": "Q668687", "ref": "5900300003"}, "type": "Feature"}
{"geometry": {"coordinates": [-108.150851, 45.946964], "type": "Point"}, "id": "A5Jbbp0fXBnfLE3wLS_9FiUP044=", "properties": {"@source_uri": "https://tools.usps.com/UspsToolsRestServices/rest/POLocator/findLocations", "@spider": "usps_collection_boxes", "addr:city": "BALLANTINE", "addr:country": "US", "addr:postcode": "59006", "addr:state": "MT", "addr:street_address": "1605 ASH ST", "amenity": "post_box", "collection_times": "Mo-Fr 14:00; Sa 09:30", "indoor": "yes", "note": "ON 12/24 AND 12/31, THIS BOX MAY BE COLLECTED AS EARLY AS 12 NOON.", "nsi_id": "unitedstatespostalservice-a77078", "operator": "United States Postal Service", "operator:short": "USPS", "operator:type": "public", "operator:wikidata": "Q668687", "ref": "5900600000"}, "type": "Feature"}
{"geometry": {"coordinates": [-108.150923, 45.946937], "type": "Point"}, "id": "cmlqHtpH1Rej4agZVy1R7ajagZg=", "properties": {"@source_uri": "https://tools.usps.com/UspsToolsRestServices/rest/POLocator/findLocations", "@spider": "usps_collection_boxes", "addr:city": "BALLANTINE", "addr:country": "US", "addr:postcode": "59006", "addr:state": "MT", "addr:street_address": "1605 ASH ST", "amenity": "post_box", "collection_times": "Mo-Fr 13:45; Sa 09:15", "note": "ON 12/24 AND 12/31, THIS BOX MAY BE COLLECTED AS EARLY AS 12 NOON.", "nsi_id": "unitedstatespostalservice-a77078", "operator": "United States Postal Service", "operator:short": "USPS", "operator:type": "public", "operator:wikidata": "Q668687", "ref": "5900600001"}, "type": "Feature"}
{"geometry": {"coordinates": [-108.150923, 45.946937], "type": "Point"}, "id": "UOF8stH_HjClh41zw5qtGBkZp8c=", "properties": {"@source_uri": "https://tools.usps.com/UspsToolsRestServices/rest/POLocator/findLocations", "@spider": "usps_collection_boxes", "addr:city": "BALLANTINE", "addr:country": "US", "addr:postcode": "59006", "addr:state": "MT", "addr:street_address": "1605 ASH ST", "amenity": "post_box", "collection_times": "Mo-Fr 14:00; Sa 09:30", "indoor": "yes", "note": "ON 12/24 AND 12/31, THIS BOX MAY BE COLLECTED AS EARLY AS 12 NOON.", "nsi_id": "unitedstatespostalservice-a77078", "operator": "United States Postal Service", "operator:short": "USPS", "operator:type": "public", "operator:wikidata": "Q668687", "ref": "5900600002"}, "type": "Feature"}
{"geometry": {"coordinates": [-108.151032085, 45.946960479], "type": "Point"}, "id": "VFyR_lkA0ovMBV-lYIIhazhbvn4=", "properties": {"@source_uri": "https://tools.usps.com/UspsToolsRestServices/rest/POLocator/findLocations", "@spider": "usps_collection_boxes", "addr:city": "BALLANTINE", "addr:country": "US", "addr:postcode": "59006", "addr:state": "MT", "addr:street_address": "1605 ASH ST", "amenity": "post_box", "collection_times": "Mo-Fr 13:50; Sa 09:20", "indoor": "yes", "note": "ON 12/24 AND 12/31, THIS BOX MAY BE COLLECTED AS EARLY AS 12 NOON.", "nsi_id": "unitedstatespostalservice-a77078", "operator": "United States Postal Service", "operator:short": "USPS", "operator:type": "public", "operator:wikidata": "Q668687", "ref": "5900600003"}, "type": "Feature"}
{"geometry": {"coordinates": [-109.160022, 45.160851], "type": "Point"}, "id": "Wdsll03CHKdxZwpOJuKRFNR_18M=", "properties": {"@source_uri": "https://tools.usps.com/UspsToolsRestServices/rest/POLocator/findLocations", "@spider": "usps_collection_boxes", "addr:city": "BEARCREEK", "addr:country": "US", "addr:postcode": "59007", "addr:state": "MT", "addr:street_address": "139 MAIN ST", "amenity": "post_box", "collection_times": "Mo-Sa 08:20", "nsi_id": "unitedstatespostalservice-a77078", "operator": "United States Postal Service", "operator:short": "USPS", "operator:type": "public", "operator:wikidata": "Q668687", "ref": "5900700000"}, "type": "Feature"}
{"geometry": {"coordinates": [-109.16005, 45.160824], "type": "Point"}, "id": "NrEJR2PkvwPEnFDZ4b_tdMQfbTQ=", "properties": {"@source_uri": "https://tools.usps.com/UspsToolsRestServices/rest/POLocator/findLocations", "@spider": "usps_collection_boxes", "addr:city": "BEARCREEK", "addr:country": "US", "addr:postcode": "59007", "addr:state": "MT", "addr:street_address": "139 MAIN ST", "amenity": "post_box", "collection_times": "Mo-Sa 08:20", "indoor": "yes", "nsi_id": "unitedstatespostalservice-a77078", "operator": "United States Postal Service", "operator:short": "USPS", "operator:type": "public", "operator:wikidata": "Q668687", "ref": "5900700001"}, "type": "Feature"}
{"geometry": {"coordinates": [-109.158812445, 45.160872504], "type": "Point"}, "id": "Zd5o9BBCul5en3tx_JproJ9g_Cw=", "properties": {"@source_uri": "https://tools.usps.com/UspsToolsRestServices/rest/POLocator/findLocations", "@spider": "usps_collection_boxes", "addr:city": "BEARCREEK", "addr:country": "US", "addr:postcode": "59007", "addr:state": "MT", "addr:street_address": "139 MAIN ST", "amenity": "post_box", "collection_times": "Mo-Sa 08:10", "indoor": "yes", "nsi_id": "unitedstatespostalservice-a77078", "operator": "United States Postal Service", "operator:short": "USPS", "operator:type": "public", "operator:wikidata": "Q668687", "ref": "5900700002"}, "type": "Feature"}
{"geometry": {"coordinates": [-109.006583, 45.141938], "type": "Point"}, "id": "pxqqJ7E79BzhX9mGU1TNsqnyLgY=", "properties": {"@source_uri": "https://tools.usps.com/UspsToolsRestServices/rest/POLocator/findLocations", "@spider": "usps_collection_boxes", "addr:city": "BELFRY", "addr:country": "US", "addr:postcode": "59008", "addr:state": "MT", "addr:street_address": "115 VAILL AVE", "amenity": "post_box", "collection_times": "Mo-Fr 11:15; Sa 09:30", "nsi_id": "unitedstatespostalservice-a77078", "operator": "United States Postal Service", "operator:short": "USPS", "operator:type": "public", "operator:wikidata": "Q668687", "ref": "5900800000"}, "type": "Feature"}
{"geometry": {"coordinates": [-109.006457, 45.141908], "type": "Point"}, "id": "xJ418Ivyd5eNFHNHPF1au8x2OYU=", "properties": {"@source_uri": "https://tools.usps.com/UspsToolsRestServices/rest/POLocator/findLocations", "@spider": "usps_collection_boxes", "addr:city": "BELFRY", "addr:country": "US", "addr:postcode": "59008", "addr:state": "MT", "addr:street_address": "115 VAILL AVE", "amenity": "post_box", "collection_times": "Mo-Fr 11:30; Sa 09:15", "indoor": "yes", "nsi_id": "unitedstatespostalservice-a77078", "operator": "United States Postal Service", "operator:short": "USPS", "operator:type": "public", "operator:wikidata": "Q668687", "ref": "5900800001"}, "type": "Feature"}
{"geometry": {"coordinates": [-109.006457, 45.141908], "type": "Point"}, "id": "3QFcoRdJ3l7PqrLmuceuZiG9nVs=", "properties": {"@source_uri": "https://tools.usps.com/UspsToolsRestServices/rest/POLocator/findLocations", "@spider": "usps_collection_boxes", "addr:city": "BELFRY", "addr:country": "US", "addr:postcode": "59008", "addr:state": "MT", "addr:street_address": "115 VAILL AVE", "amenity": "post_box", "collection_times": "Mo-Fr 11:30; Sa 09:15", "indoor": "yes", "nsi_id": "unitedstatespostalservice-a77078", "operator": "United States Postal Service", "operator:short": "USPS", "operator:type": "public", "operator:wikidata": "Q668687", "ref": "5900800002"}, "type": "Feature"}
{"geometry": {"coordinates": [-109.006457, 45.141908], "type": "Point"}, "id": "MC0WgVOz6degw9wQ0Hy_iy-wpeM=", "properties": {"@source_uri": "https://tools.usps.com/UspsToolsRestServices/rest/POLocator/findLocations", "@spider": "usps_collection_boxes", "addr:city": "BELFRY", "addr:country": "US", "addr:postcode": "59008", "addr:state": "MT", "addr:street_address": "115 VAILL AVE", "amenity": "post_box", "collection_times": "Mo-Fr 11:30; Sa 09:15", "indoor": "yes", "nsi_id": "unitedstatespostalservice-a77078", "operator": "United States Postal Service", "operator:short": "USPS", "operator:type": "public", "operator:wikidata": "Q668687", "ref": "5900800003"}, "type": "Feature"}
{"geometry": {"coordinates": [-109.006457, 45.141908], "type": "Point"}, "id": "9X4HUL7Ne4CL4JgjQucG3_u4bno=", "properties": {"@source_uri": "https://tools.usps.com/UspsToolsRestServices/rest/POLocator/findLocations", "@spider": "usps_collection_boxes", "addr:city": "BELFRY", "addr:country": "US", "addr:postcode": "59008", "addr:state": "MT", "addr:street_address": "115 VAILL AVE", "amenity": "post_box", "collection_times": "Mo-Fr 11:30; Sa 09:15", "indoor": "yes", "nsi_id": "unitedstatespostalservice-a77078", "operator": "United States Postal Service", "operator:short": "USPS", "operator:type": "public", "operator:wikidata": "Q668687", "ref": "5900800004"}, "type": "Feature"}
{"geometry": {"coordinates": [-109.006460581, 45.141931486], "type": "Point"}, "id": "-ljnbVRiYjx6gQb4oArE0NO7F4I=", "properties": {"@source_uri": "https://tools.usps.com/UspsToolsRestServices/rest/POLocator/findLocations", "@spider": "usps_collection_boxes", "addr:city": "BELFRY", "addr:country": "US", "addr:postcode": "59008", "addr:state": "MT", "addr:street_address": "115 VAILL AVE", "amenity": "post_box", "collection_times": "Mo-Fr 11:20", "indoor": "yes", "nsi_id": "unitedstatespostalservice-a77078", "operator": "United States Postal Service", "operator:short": "USPS", "operator:type": "public", "operator:wikidata": "Q668687", "ref": "5900800005"}, "type": "Feature"}
{"geometry": {"coordinates": [-107.6297385554, 45.7663498112], "type": "Point"}, "id": "uR1b1EXjkh1WeAZXjh-eLn02Hds=", "properties": {"@source_uri": "https://tools.usps.com/UspsToolsRestServices/rest/POLocator/findLocations", "@spider": "usps_collection_boxes", "addr:city": "BIGHORN", "addr:country": "US", "addr:postcode": "59010", "addr:state": "MT", "addr:street_address": "138 BIGHORN RD", "amenity": "post_box", "collection_times": "Mo-Fr 14:00; Sa 13:15", "note": "ON 12/24 AND 12/31, THIS BOX MAY BE COLLECTED AS EARLY AS 12 NOON.", "nsi_id": "unitedstatespostalservice-a77078", "operator": "United States Postal Service", "operator:short": "USPS", "operator:type": "public", "operator:wikidata": "Q668687", "ref": "5901000000"}, "type": "Feature"}
{"geometry": {"coordinates": [-107.448315428, 46.161962843], "type": "Point"}, "id": "LbrtK9wfhCM-jhgHEAn5AADr3NY=", "properties": {"@source_uri": "https://tools.usps.com/UspsToolsRestServices/rest/POLocator/findLocations", "@spider": "usps_collection_boxes", "addr:city": "BIGHORN", "addr:country": "US", "addr:postcode": "59010", "addr:state": "MT", "addr:street_address": "138 BIGHORN RD", "amenity": "post_box", "collection_times": "Mo-Fr 13:50; Sa 13:05", "indoor": "yes", "note": "ON 12/24 AND 12/31, THIS BOX MAY BE COLLECTED AS EARLY AS 12 NOON.", "nsi_id": "unitedstatespostalservice-a77078", "operator": "United States Postal Service", "operator:short": "USPS", "operator:type": "public", "operator:wikidata": "Q668687", "ref": "5901000002"}, "type": "Feature"}
{"geometry": {"coordinates": [-109.945472, 45.836458], "type": "Point"}, "id": "8S8UwDTIsUonriXEU5VBaOusssU=", "properties": {"@source_uri": "https://tools.usps.com/UspsToolsRestServices/rest/POLocator/findLocations", "@spider": "usps_collection_boxes", "addr:city": "BIG TIMBER", "addr:country": "US", "addr:postcode": "59011", "addr:state": "MT", "addr:street_address": "415 WALNUT ST", "amenity": "post_box", "collection_times": "Mo-Fr 15:30; Sa 13:00", "indoor": "yes", "note": "ON 12/24 AND 12/31, THIS BOX MAY BE COLLECTED AS EARLY AS 12 NOON.", "nsi_id": "unitedstatespostalservice-a77078", "operator": "United States Postal Service", "operator:short": "USPS", "operator:type": "public", "operator:wikidata": "Q668687", "ref": "5901100001"}, "type": "Feature"}
{"geometry": {"coordinates": [-109.94556, 45.836491], "type": "Point"}, "id": "RE8CpPaE6SkaCqK_HMJfEW5y8cU=", "properties": {"@source_uri": "https://tools.usps.com/UspsToolsRestServices/rest/POLocator/findLocations", "@spider": "usps_collection_boxes", "addr:city": "BIG TIMBER", "addr:country": "US", "addr:postcode": "59011", "addr:state": "MT", "addr:street_address": "415 WALNUT ST", "amenity": "post_box", "collection_times": "Mo-Fr 15:30; Sa 13:00", "indoor": "yes", "note": "ON 12/24 AND 12/31, THIS BOX MAY BE COLLECTED AS EARLY AS 12 NOON.", "nsi_id": "unitedstatespostalservice-a77078", "operator": "United States Postal Service", "operator:short": "USPS", "operator:type": "public", "operator:wikidata": "Q668687", "ref": "5901100002"}, "type": "Feature"}
{"geometry": {"coordinates": [-109.9450406294, 45.8360979656], "type": "Point"}, "id": "vFT3IwhkoZK6QOyKBxpRARVaMHQ=", "properties": {"@source_uri": "https://tools.usps.com/UspsToolsRestServices/rest/POLocator/findLocations", "@spider": "usps_collection_boxes", "addr:city": "BIG TIMBER", "addr:country": "US", "addr:postcode": "59011", "addr:state": "MT", "addr:street_address": "415 WALNUT ST", "amenity": "post_box", "collection_times": "Mo-Fr 15:30; Sa 12:45", "note": "ON 12/24 AND 12/31, THIS BOX MAY BE COLLECTED AS EARLY AS 12 NOON.", "nsi_id": "unitedstatespostalservice-a77078", "operator": "United States Postal Service", "operator:short": "USPS", "operator:type": "public", "operator:wikidata": "Q668687", "ref": "5901100003"}, "type": "Feature"}
{"geometry": {"coordinates": [-109.95459, 45.834206], "type": "Point"}, "id": "mOPBdOAvffe_uIitMkUExoiP94o=", "properties": {"@source_uri": "https://tools.usps.com/UspsToolsRestServices/rest/POLocator/findLocations", "@spider": "usps_collection_boxes", "addr:city": "BIG TIMBER", "addr:country": "US", "addr:postcode": "59011", "addr:state": "MT", "addr:street_address": "136 MCLEOD ST", "amenity": "post_box", "collection_times": "Mo-Fr 09:30", "nsi_id": "unitedstatespostalservice-a77078", "operator": "United States Postal Service", "operator:short": "USPS", "operator:type": "public", "operator:wikidata": "Q668687", "ref": "5901100004"}, "type": "Feature"}
{"geometry": {"coordinates": [-109.94556, 45.836491], "type": "Point"}, "id": "F-JcxmSS6yk4Z_XqgADtfBOqdnc=", "properties": {"@source_uri": "https://tools.usps.com/UspsToolsRestServices/rest/POLocator/findLocations", "@spider": "usps_collection_boxes", "addr:city": "BIG TIMBER", "addr:country": "US", "addr:postcode": "59011", "addr:state": "MT", "addr:street_address": "415 WALNUT ST", "amenity": "post_box", "collection_times": "Mo-Fr 15:30; Sa 13:00", "indoor": "yes", "note": "ON 12/24 AND 12/31, THIS BOX MAY BE COLLECTED AS EARLY AS 12 NOON.", "nsi_id": "unitedstatespostalservice-a77078", "operator": "United States Postal Service", "operator:short": "USPS", "operator:type": "public", "operator:wikidata": "Q668687", "ref": "5901100005"}, "type": "Feature"}
{"geometry": {"coordinates": [-109.94556, 45.836491], "type": "Point"}, "id": "5U-IVDPWzNsseU51asNS_4cV7us=", "properties": {"@source_uri": "https://tools.usps.com/UspsToolsRestServices/rest/POLocator/findLocations", "@spider": "usps_collection_boxes", "addr:city": "BIG TIMBER", "addr:country": "US", "addr:postcode": "59011", "addr:state": "MT", "addr:street_address": "415 WALNUT ST", "amenity": "post_box", "collection_times": "Mo-Fr 15:30; Sa 13:00", "indoor": "yes", "note": "ON 12/24 AND 12/31, THIS BOX MAY BE COLLECTED AS EARLY AS 12 NOON.", "nsi_id": "unitedstatespostalservice-a77078", "operator": "United States Postal Service", "operator:short": "USPS", "operator:type": "public", "operator:wikidata": "Q668687", "ref": "5901100006"}, "type": "Feature"}
{"geometry": {"coordinates": [-109.945040629, 45.836097966], "type": "Point"}, "id": "FGST6ocjnT4zCPdA_jZUhAOT4AI=", "properties": {"@source_uri": "https://tools.usps.com/UspsToolsRestServices/rest/POLocator/findLocations", "@spider": "usps_collection_boxes", "addr:city": "BIG TIMBER", "addr:country": "US", "addr:postcode": "59011", "addr:state": "MT", "addr:street_address": "415 WALNUT ST", "amenity": "post_box", "collection_times": "Mo-Fr 15:20; Sa 12:00", "indoor": "yes", "note": "ON 12/24 AND 12/31, THIS BOX MAY BE COLLECTED AS EARLY AS 12 NOON.", "nsi_id": "unitedstatespostalservice-a77078", "operator": "United States Postal Service", "operator:short": "USPS", "operator:type": "public", "operator:wikidata": "Q668687", "ref": "5901100008"}, "type": "Feature"}
{"geometry": {"coordinates": [-106.516171, 45.321436], "type": "Point"}, "id": "bstnbTkQexixONuk25sUyO7yLwc=", "properties": {"@source_uri": "https://tools.usps.com/UspsToolsRestServices/rest/POLocator/findLocations", "@spider": "usps_collection_boxes", "addr:city": "BIRNEY", "addr:country": "US", "addr:postcode": "59012", "addr:state": "MT", "addr:street_address": "302 COMMERCIAL ST", "amenity": "post_box", "collection_times": "Mo-Sa 12:00", "indoor": "yes", "nsi_id": "unitedstatespostalservice-a77078", "operator": "United States Postal Service", "operator:short": "USPS", "operator:type": "public", "operator:wikidata": "Q668687", "ref": "5901200000"}, "type": "Feature"}
{"geometry": {"coordinates": [-106.516187, 45.321395], "type": "Point"}, "id": "5EiQPmru_vJyog7pc0rbIBhBd-c=", "properties": {"@source_uri": "https://tools.usps.com/UspsToolsRestServices/rest/POLocator/findLocations", "@spider": "usps_collection_boxes", "addr:city": "BIRNEY", "addr:country": "US", "addr:postcode": "59012", "addr:state": "MT", "addr:street_address": "302 COMMERCIAL ST", "amenity": "post_box", "collection_times": "Mo-Sa 12:00", "indoor": "yes", "nsi_id": "unitedstatespostalservice-a77078", "operator": "United States Postal Service", "operator:short": "USPS", "operator:type": "public", "operator:wikidata": "Q668687", "ref": "5901200001"}, "type": "Feature"}
{"geometry": {"coordinates": [-106.515501601, 45.321715823], "type": "Point"}, "id": "_kqUJjYXPrG8QhDKtyJ_Q5CgTKA=", "properties": {"@source_uri": "https://tools.usps.com/UspsToolsRestServices/rest/POLocator/findLocations", "@spider": "usps_collection_boxes", "addr:city": "BIRNEY", "addr:country": "US", "addr:postcode": "59012", "addr:state": "MT", "addr:street_address": "302 COMMERCIAL ST", "amenity": "post_box", "collection_times": "Mo-Sa 12:35", "indoor": "yes", "note": "ON 12/24 AND 12/31, THIS BOX MAY BE COLLECTED AS EARLY AS 12 NOON.", "nsi_id": "unitedstatespostalservice-a77078", "operator": "United States Postal Service", "operator:short": "USPS", "operator:type": "public", "operator:wikidata": "Q668687", "ref": "5901200002"}, "type": "Feature"}
{"geometry": {"coordinates": [-108.914113899, 45.296487], "type": "Point"}, "id": "NQM7oy2WDQ9zL-eoAjKEOMyas24=", "properties": {"@source_uri": "https://tools.usps.com/UspsToolsRestServices/rest/POLocator/findLocations", "@spider": "usps_collection_boxes", "addr:city": "BRIDGER", "addr:country": "US", "addr:postcode": "59014", "addr:state": "MT", "addr:street_address": "113 N MAIN ST", "amenity": "post_box", "collection_times": "Mo-Fr 16:00; Sa 09:30", "note": "ON 12/24 AND 12/31, THIS BOX MAY BE COLLECTED AS EARLY AS 12 NOON.", "nsi_id": "unitedstatespostalservice-a77078", "operator": "United States Postal Service", "operator:short": "USPS", "operator:type": "public", "operator:wikidata": "Q668687", "ref": "5901400000"}, "type": "Feature"}
{"geometry": {"coordinates": [-108.914151, 45.295821], "type": "Point"}, "id": "hIOlNdx4bs_lPLaB4iXgcp1uvyI=", "properties": {"@source_uri": "https://tools.usps.com/UspsToolsRestServices/rest/POLocator/findLocations", "@spider": "usps_collection_boxes", "addr:city": "BRIDGER", "addr:country": "US", "addr:postcode": "59014", "addr:state": "MT", "addr:street_address": "113 N MAIN ST", "amenity": "post_box", "collection_times": "Mo-Fr 16:00; Sa 09:30", "indoor": "yes", "note": "ON 12/24 AND 12/31, THIS BOX MAY BE COLLECTED AS EARLY AS 12 NOON.", "nsi_id": "unitedstatespostalservice-a77078", "operator": "United States Postal Service", "operator:short": "USPS", "operator:type": "public", "operator:wikidata": "Q668687", "ref": "5901400001"}, "type": "Feature"}
{"geometry": {"coordinates": [-108.914151, 45.295821], "type": "Point"}, "id": "k3z4xoJm3kFDKSECoxYIIaQ_Rto=", "properties": {"@source_uri": "https://tools.usps.com/UspsToolsRestServices/rest/POLocator/findLocations", "@spider": "usps_collection_boxes", "addr:city": "BRIDGER", "addr:country": "US", "addr:postcode": "59014", "addr:state": "MT", "addr:street_address": "113 N MAIN ST", "amenity": "post_box", "collection_times": "Mo-Fr 16:00; Sa 09:30", "indoor": "yes", "note": "ON 12/24 AND 12/31, THIS BOX MAY BE COLLECTED AS EARLY AS 12 NOON.", "nsi_id": "unitedstatespostalservice-a77078", "operator": "United States Postal Service", "operator:short": "USPS", "operator:type": "public", "operator:wikidata": "Q668687", "ref": "5901400002"}, "type": "Feature"}
{"geometry": {"coordinates": [-108.914113899, 45.296487], "type": "Point"}, "id": "ADGb7GwSAgi6BLNAJ8DTdf_jc3o=", "properties": {"@source_uri": "https://tools.usps.com/UspsToolsRestServices/rest/POLocator/findLocations", "@spider": "usps_collection_boxes", "addr:city": "BRIDGER", "addr:country": "US", "addr:postcode": "59014", "addr:state": "MT", "addr:street_address": "113 N MAIN ST", "amenity": "post_box", "collection_times": "Mo-Fr 15:50", "indoor": "yes", "note": "ON 12/24 AND 12/31, THIS BOX MAY BE COLLECTED AS EARLY AS 12 NOON.", "nsi_id": "unitedstatespostalservice-a77078", "operator": "United States Postal Service", "operator:short": "USPS", "operator:type": "public", "operator:wikidata": "Q668687", "ref": "5901400003"}, "type": "Feature"}
{"geometry": {"coordinates": [-108.875887, 46.101264], "type": "Point"}, "id": "TivgFvRoOFh0wvvU3JRMn6u5Z68=", "properties": {"@source_uri": "https://tools.usps.com/UspsToolsRestServices/rest/POLocator/findLocations", "@spider": "usps_collection_boxes", "addr:city": "BROADVIEW", "addr:country": "US", "addr:postcode": "59015", "addr:state": "MT", "addr:street_address": "16713 IOWA AVE", "amenity": "post_box", "collection_times": "Mo-Fr 13:45; Sa 08:30", "note": "ON 12/24 AND 12/31, THIS BOX MAY BE COLLECTED AS EARLY AS 12 NOON.", "nsi_id": "unitedstatespostalservice-a77078", "operator": "United States Postal Service", "operator:short": "USPS", "operator:type": "public", "operator:wikidata": "Q668687", "ref": "5901500000"}, "type": "Feature"}
{"geometry": {"coordinates": [-108.87592, 46.101195], "type": "Point"}, "id": "was56Q84AqA3r4A_f8ebDyQIT08=", "properties": {"@source_uri": "https://tools.usps.com/UspsToolsRestServices/rest/POLocator/findLocations", "@spider": "usps_collection_boxes", "addr:city": "BROADVIEW", "addr:country": "US", "addr:postcode": "59015", "addr:state": "MT", "addr:street_address": "16713 IOWA AVE", "amenity": "post_box", "collection_times": "Mo-Fr 14:00; Sa 08:45", "indoor": "yes", "note": "ON 12/24 AND 12/31, THIS BOX MAY BE COLLECTED AS EARLY AS 12 NOON.", "nsi_id": "unitedstatespostalservice-a77078", "operator": "United States Postal Service", "operator:short": "USPS", "operator:type": "public", "operator:wikidata": "Q668687", "ref": "5901500001"}, "type": "Feature"}
{"geometry": {"coordinates": [-108.87592, 46.101195], "type": "Point"}, "id": "n9RGi7ByqcNqRsurQIttLnxLkwA=", "properties": {"@source_uri": "https://tools.usps.com/UspsToolsRestServices/rest/POLocator/findLocations", "@spider": "usps_collection_boxes", "addr:city": "BROADVIEW", "addr:country": "US", "addr:postcode": "59015", "addr:state": "MT", "addr:street_address": "16713 IOWA AVE", "amenity": "post_box", "collection_times": "Mo-Fr 14:00; Sa 08:45", "indoor": "yes", "note": "ON 12/24 AND 12/31, THIS BOX MAY BE COLLECTED AS EARLY AS 12 NOON.", "nsi_id": "unitedstatespostalservice-a77078", "operator": "United States Postal Service", "operator:short": "USPS", "operator:type": "public", "operator:wikidata": "Q668687", "ref": "5901500002"}, "type": "Feature"}
{"geometry": {"coordinates": [-108.875901141, 46.101466069], "type": "Point"}, "id": "tsVWErcgtMlJlv7Dm_TtizHXyY8=", "properties": {"@source_uri": "https://tools.usps.com/UspsToolsRestServices/rest/POLocator/findLocations", "@spider": "usps_collection_boxes", "addr:city": "BROADVIEW", "addr:country": "US", "addr:postcode": "59015", "addr:state": "MT", "addr:street_address": "16713 IOWA AVE", "amenity": "post_box", "collection_times": "Mo-Fr 13:45; Sa 08:45", "indoor": "yes", "note": "ON 12/24 AND 12/31, THIS BOX MAY BE COLLECTED AS EARLY AS 12 NOON.", "nsi_id": "unitedstatespostalservice-a77078", "operator": "United States Postal Service", "operator:short": "USPS", "operator:type": "public", "operator:wikidata": "Q668687", "ref": "5901500003"}, "type": "Feature"}
{"geometry": {"coordinates": [-106.8750538505, 45.5176133914], "type": "Point"}, "id": "gueWGPJCuTtcH2bxrkdhyhW8m88=", "properties": {"@source_uri": "https://tools.usps.com/UspsToolsRestServices/rest/POLocator/findLocations", "@spider": "usps_collection_boxes", "addr:city": "BUSBY", "addr:country": "US", "addr:postcode": "59016", "addr:state": "MT", "addr:street_address": "301 US HIGHWAY 212 E", "amenity": "post_box", "collection_times": "Mo-Fr 13:00; Sa 08:45", "note": "ON 12/24 AND 12/31, THIS BOX MAY BE COLLECTED AS EARLY AS 12 NOON.", "nsi_id": "unitedstatespostalservice-a77078", "operator": "United States Postal Service", "operator:short": "USPS", "operator:type": "public", "operator:wikidata": "Q668687", "ref": "5901600000"}, "type": "Feature"}
{"geometry": {"coordinates": [-106.8750538505, 45.5176133914], "type": "Point"}, "id": "U0KXSFlbTuuDxOrfEMv_Ojiozhg=", "properties": {"@source_uri": "https://tools.usps.com/UspsToolsRestServices/rest/POLocator/findLocations", "@spider": "usps_collection_boxes", "addr:city": "BUSBY", "addr:country": "US", "addr:postcode": "59016", "addr:state": "MT", "addr:street_address": "301 US HIGHWAY 212 E", "amenity": "post_box", "collection_times": "Mo-Fr 13:15; Sa 09:00", "indoor": "yes", "note": "ON 12/24 AND 12/31, THIS BOX MAY BE COLLECTED AS EARLY AS 12 NOON.", "nsi_id": "unitedstatespostalservice-a77078", "operator": "United States Postal Service", "operator:short": "USPS", "operator:type": "public", "operator:wikidata": "Q668687", "ref": "5901600001"}, "type": "Feature"}
{"geometry": {"coordinates": [-106.8750538505, 45.5176133914], "type": "Point"}, "id": "X5ILAciA8gprEnq261Dl3ZJgg68=", "properties": {"@source_uri": "https://tools.usps.com/UspsToolsRestServices/rest/POLocator/findLocations", "@spider": "usps_collection_boxes", "addr:city": "BUSBY", "addr:country": "US", "addr:postcode": "59016", "addr:state": "MT", "addr:street_address": "301 US HIGHWAY 212 E", "amenity": "post_box", "collection_times": "Mo-Fr 13:15; Sa 09:00", "indoor": "yes", "note": "ON 12/24 AND 12/31, THIS BOX MAY BE COLLECTED AS EARLY AS 12 NOON.", "nsi_id": "unitedstatespostalservice-a77078", "operator": "United States Postal Service", "operator:short": "USPS", "operator:type": "public", "operator:wikidata": "Q668687", "ref": "5901600002"}, "type": "Feature"}
{"geometry": {"coordinates": [-106.875730121, 45.57726195], "type": "Point"}, "id": "UvAny9PMRo7kTxDGMFXDwRciMwE=", "properties": {"@source_uri": "https://tools.usps.com/UspsToolsRestServices/rest/POLocator/findLocations", "@spider": "usps_collection_boxes", "addr:city": "BUSBY", "addr:country": "US", "addr:postcode": "59016", "addr:state": "MT", "addr:street_address": "301 US HIGHWAY 212 E", "amenity": "post_box", "collection_times": "Mo-Fr 13:15", "indoor": "yes", "note": "ON 12/24 AND 12/31, THIS BOX MAY BE COLLECTED AS EARLY AS 12 NOON.", "nsi_id": "unitedstatespostalservice-a77078", "operator": "United States Postal Service", "operator:short": "USPS", "operator:type": "public", "operator:wikidata": "Q668687", "ref": "5901600003"}, "type": "Feature"}
{"geometry": {"coordinates": [-110.604138, 45.882092], "type": "Point"}, "id": "iCEp_eND1oDpEOwQciqqiv5GPy4=", "properties": {"@source_uri": "https://tools.usps.com/UspsToolsRestServices/rest/POLocator/findLocations", "@spider": "usps_collection_boxes", "addr:city": "CLYDE PARK", "addr:country": "US", "addr:postcode": "59018", "addr:state": "MT", "addr:street_address": "103 1ST AVE N", "amenity": "post_box", "collection_times": "Mo-Fr 15:45; Sa 09:45", "note": "ON 12/24 AND 12/31, THIS BOX MAY BE COLLECTED AS EARLY AS 12 NOON.", "nsi_id": "unitedstatespostalservice-a77078", "operator": "United States Postal Service", "operator:short": "USPS", "operator:type": "public", "operator:wikidata": "Q668687", "ref": "5901800000"}, "type": "Feature"}
{"geometry": {"coordinates": [-110.604177, 45.882006], "type": "Point"}, "id": "uWvQyM_8nFUhD2XFs-5Mv8sbLJQ=", "properties": {"@source_uri": "https://tools.usps.com/UspsToolsRestServices/rest/POLocator/findLocations", "@spider": "usps_collection_boxes", "addr:city": "CLYDE PARK", "addr:country": "US", "addr:postcode": "59018", "addr:state": "MT", "addr:street_address": "103 1ST AVE N", "amenity": "post_box", "collection_times": "Mo-Fr 15:45; Sa 09:45", "indoor": "yes", "note": "ON 12/24 AND 12/31, THIS BOX MAY BE COLLECTED AS EARLY AS 12 NOON.", "nsi_id": "unitedstatespostalservice-a77078", "operator": "United States Postal Service", "operator:short": "USPS", "operator:type": "public", "operator:wikidata": "Q668687", "ref": "5901800001"}, "type": "Feature"}
{"geometry": {"coordinates": [-110.604177, 45.882006], "type": "Point"}, "id": "mEAL6MYfquW0sj2XEH488pPFvpg=", "properties": {"@source_uri": "https://tools.usps.com/UspsToolsRestServices/rest/POLocator/findLocations", "@spider": "usps_collection_boxes", "addr:city": "CLYDE PARK", "addr:country": "US", "addr:postcode": "59018", "addr:state": "MT", "addr:street_address": "103 1ST AVE N", "amenity": "post_box", "collection_times": "Mo-Fr 15:45; Sa 09:45", "indoor": "yes", "note": "ON 12/24 AND 12/31, THIS BOX MAY BE COLLECTED AS EARLY AS 12 NOON.", "nsi_id": "unitedstatespostalservice-a77078", "operator": "United States Postal Service", "operator:short": "USPS", "operator:type": "public", "operator:wikidata": "Q668687", "ref": "5901800002"}, "type": "Feature"}
{"geometry": {"coordinates": [-110.604177, 45.882006], "type": "Point"}, "id": "8vih-aBRmmZvquHzCP02gL4_hDQ=", "properties": {"@source_uri": "https://tools.usps.com/UspsToolsRestServices/rest/POLocator/findLocations", "@spider": "usps_collection_boxes", "addr:city": "CLYDE PARK", "addr:country": "US", "addr:postcode": "59018", "addr:state": "MT", "addr:street_address": "103 1ST AVE N", "amenity": "post_box", "collection_times": "Mo-Fr 15:45; Sa 09:45", "indoor": "yes", "note": "ON 12/24 AND 12/31, THIS BOX MAY BE COLLECTED AS EARLY AS 12 NOON.", "nsi_id": "unitedstatespostalservice-a77078", "operator": "United States Postal Service", "operator:short": "USPS", "operator:type": "public", "operator:wikidata": "Q668687", "ref": "5901800003"}, "type": "Feature"}
{"geometry": {"coordinates": [-110.604177, 45.882006], "type": "Point"}, "id": "uP9dHmE-h53FtO0toa04ZaGM9sU=", "properties": {"@source_uri": "https://tools.usps.com/UspsToolsRestServices/rest/POLocator/findLocations", "@spider": "usps_collection_boxes", "addr:city": "CLYDE PARK", "addr:country": "US", "addr:postcode": "59018", "addr:state": "MT", "addr:street_address": "103 1ST AVE N", "amenity": "post_box", "collection_times": "Mo-Fr 15:45; Sa 09:45", "indoor": "yes", "note": "ON 12/24 AND 12/31, THIS BOX MAY BE COLLECTED AS EARLY AS 12 NOON.", "nsi_id": "unitedstatespostalservice-a77078", "operator": "United States Postal Service", "operator:short": "USPS", "operator:type": "public", "operator:wikidata": "Q668687", "ref": "5901800004"}, "type": "Feature"}
{"geometry": {"coordinates": [-110.604203411, 45.883287618], "type": "Point"}, "id": "KkpgGc_C5IaJ-IGUfRmig9ZbeF0=", "properties": {"@source_uri": "https://tools.usps.com/UspsToolsRestServices/rest/POLocator/findLocations", "@spider": "usps_collection_boxes", "addr:city": "CLYDE PARK", "addr:country": "US", "addr:postcode": "59018", "addr:state": "MT", "addr:street_address": "103 1ST AVE N", "amenity": "post_box", "collection_times": "Mo-Fr 15:45", "indoor": "yes", "note": "ON 12/24 AND 12/31, THIS BOX MAY BE COLLECTED AS EARLY AS 12 NOON.", "nsi_id": "unitedstatespostalservice-a77078", "operator": "United States Postal Service", "operator:short": "USPS", "operator:type": "public", "operator:wikidata": "Q668687", "ref": "5901800005"}, "type": "Feature"}
{"geometry": {"coordinates": [-109.251828, 45.638148], "type": "Point"}, "id": "fLllMj1BUi5jJmZS4osp1LYwde8=", "properties": {"@source_uri": "https://tools.usps.com/UspsToolsRestServices/rest/POLocator/findLocations", "@spider": "usps_collection_boxes", "addr:city": "COLUMBUS", "addr:country": "US", "addr:postcode": "59019", "addr:state": "MT", "addr:street_address": "139 N PRATTEN ST", "amenity": "post_box", "collection_times": "Mo-Fr 16:30; Sa 12:00", "note": "ON 12/24 AND 12/31, THIS BOX MAY BE COLLECTED AS EARLY AS 12 NOON.", "nsi_id": "unitedstatespostalservice-a77078", "operator": "United States Postal Service", "operator:short": "USPS", "operator:type": "public", "operator:wikidata": "Q668687", "ref": "5901900000"}, "type": "Feature"}
{"geometry": {"coordinates": [-109.251773, 45.638179], "type": "Point"}, "id": "SbXijL_cmSEMRKFjDBSJ5c99MNg=", "properties": {"@source_uri": "https://tools.usps.com/UspsToolsRestServices/rest/POLocator/findLocations", "@spider": "usps_collection_boxes", "addr:city": "COLUMBUS", "addr:country": "US", "addr:postcode": "59019", "addr:state": "MT", "addr:street_address": "139 N PRATTEN ST", "amenity": "post_box", "collection_times": "Mo-Fr 16:30; Sa 12:00", "indoor": "yes", "note": "ON 12/24 AND 12/31, THIS BOX MAY BE COLLECTED AS EARLY AS 12 NOON.", "nsi_id": "unitedstatespostalservice-a77078", "operator": "United States Postal Service", "operator:short": "USPS", "operator:type": "public", "operator:wikidata": "Q668687", "ref": "5901900001"}, "type": "Feature"}
{"geometry": {"coordinates": [-109.251773, 45.638179], "type": "Point"}, "id": "V00KAfR4hXrncXdetx8wLJo_fm0=", "properties": {"@source_uri": "https://tools.usps.com/UspsToolsRestServices/rest/POLocator/findLocations", "@spider": "usps_collection_boxes", "addr:city": "COLUMBUS", "addr:country": "US", "addr:postcode": "59019", "addr:state": "MT", "addr:street_address": "139 N PRATTEN ST", "amenity": "post_box", "collection_times": "Mo-Fr 16:30; Sa 12:00", "indoor": "yes", "note": "ON 12/24 AND 12/31, THIS BOX MAY BE COLLECTED AS EARLY AS 12 NOON.", "nsi_id": "unitedstatespostalservice-a77078", "operator": "United States Postal Service", "operator:short": "USPS", "operator:type": "public", "operator:wikidata": "Q668687", "ref": "5901900002"}, "type": "Feature"}
{"geometry": {"coordinates": [-109.251773, 45.638179], "type": "Point"}, "id": "gi3NO2tkQ4lZMr2AtY5Ux0XGOtY=", "properties": {"@source_uri": "https://tools.usps.com/UspsToolsRestServices/rest/POLocator/findLocations", "@spider": "usps_collection_boxes", "addr:city": "COLUMBUS", "addr:country": "US", "addr:postcode": "59019", "addr:state": "MT", "addr:street_address": "139 N PRATTEN ST", "amenity": "post_box", "collection_times": "Mo-Fr 16:30; Sa 12:00", "indoor": "yes", "note": "ON 12/24 AND 12/31, THIS BOX MAY BE COLLECTED AS EARLY AS 12 NOON.", "nsi_id": "unitedstatespostalservice-a77078", "operator": "United States Postal Service", "operator:short": "USPS", "operator:type": "public", "operator:wikidata": "Q668687", "ref": "5901900003"}, "type": "Feature"}
{"geometry": {"coordinates": [-109.251782172, 45.638403872], "type": "Point"}, "id": "fIBuEfgCtLv4hNdf6_Egndk-sl8=", "properties": {"@source_uri": "https://tools.usps.com/UspsToolsRestServices/rest/POLocator/findLocations", "@spider": "usps_collection_boxes", "addr:city": "COLUMBUS", "addr:country": "US", "addr:postcode": "59019", "addr:state": "MT", "addr:street_address": "139 N PRATTEN ST", "amenity": "post_box", "collection_times": "Mo-Fr 16:30; Sa 12:00", "indoor": "yes", "note": "ON 12/24 AND 12/31, THIS BOX MAY BE COLLECTED AS EARLY AS 12 NOON.", "nsi_id": "unitedstatespostalservice-a77078", "operator": "United States Postal Service", "operator:short": "USPS", "operator:type": "public", "operator:wikidata": "Q668687", "ref": "5901900004"}, "type": "Feature"}
{"geometry": {"coordinates": [-109.932582, 45.019906], "type": "Point"}, "id": "rOqim8_OoNyCslZCNpkPusDM69k=", "properties": {"@source_uri": "https://tools.usps.com/UspsToolsRestServices/rest/POLocator/findLocations", "@spider": "usps_collection_boxes", "addr:city": "COOKE CITY", "addr:country": "US", "addr:postcode": "59020", "addr:state": "MT", "addr:street_address": "208 MAIN ST E", "amenity": "post_box", "collection_times": "Mo-Fr 11:40", "nsi_id": "unitedstatespostalservice-a77078", "operator": "United States Postal Service", "operator:short": "USPS", "operator:type": "public", "operator:wikidata": "Q668687", "ref": "5902000000"}, "type": "Feature"}
{"geometry": {"coordinates": [-109.932582, 45.019906], "type": "Point"}, "id": "223lAP8Ayc-lmPN8Vx1bb1nAVHM=", "properties": {"@source_uri": "https://tools.usps.com/UspsToolsRestServices/rest/POLocator/findLocations", "@spider": "usps_collection_boxes", "addr:city": "COOKE CITY", "addr:country": "US", "addr:postcode": "59020", "addr:state": "MT", "addr:street_address": "208 MAIN ST E", "amenity": "post_box", "collection_times": "Mo-Fr 11:45", "indoor": "yes", "nsi_id": "unitedstatespostalservice-a77078", "operator": "United States Postal Service", "operator:short": "USPS", "operator:type": "public", "operator:wikidata": "Q668687", "ref": "5902000002"}, "type": "Feature"}
{"geometry": {"coordinates": [-109.932582, 45.019906], "type": "Point"}, "id": "NzieohCHrodHUpahC6pKXH1m2II=", "properties": {"@source_uri": "https://tools.usps.com/UspsToolsRestServices/rest/POLocator/findLocations", "@spider": "usps_collection_boxes", "addr:city": "COOKE CITY", "addr:country": "US", "addr:postcode": "59020", "addr:state": "MT", "addr:street_address": "208 MAIN ST E", "amenity": "post_box", "collection_times": "Mo-Fr 11:45", "indoor": "yes", "nsi_id": "unitedstatespostalservice-a77078", "operator": "United States Postal Service", "operator:short": "USPS", "operator:type": "public", "operator:wikidata": "Q668687", "ref": "5902000003"}, "type": "Feature"}
{"geometry": {"coordinates": [-109.9321015347, 45.0200362539], "type": "Point"}, "id": "rFPsSzIH4FFwCzvDxKTiqrJvHak=", "properties": {"@source_uri": "https://tools.usps.com/UspsToolsRestServices/rest/POLocator/findLocations", "@spider": "usps_collection_boxes", "addr:city": "COOKE CITY", "addr:country": "US", "addr:postcode": "59020", "addr:state": "MT", "addr:street_address": "208 MAIN ST E", "amenity": "post_box", "collection_times": "Mo-Fr 11:45", "indoor": "yes", "nsi_id": "unitedstatespostalservice-a77078", "operator": "United States Postal Service", "operator:short": "USPS", "operator:type": "public", "operator:wikidata": "Q668687", "ref": "5902000004"}, "type": "Feature"}
{"geometry": {"coordinates": [-107.46127, 45.601732], "type": "Point"}, "id": "J0TZRGhVACGn6YQY9GmxMWGnTW0=", "properties": {"@source_uri": "https://tools.usps.com/UspsToolsRestServices/rest/POLocator/findLocations", "@spider": "usps_collection_boxes", "addr:city": "CROW AGENCY", "addr:country": "US", "addr:postcode": "59022", "addr:state": "MT", "addr:street_address": "7001 E MAKAWASHA AVE", "amenity": "post_box", "collection_times": "Mo-Fr 15:45; Sa 11:45", "indoor": "yes", "note": "ON 12/24 AND 12/31, THIS BOX MAY BE COLLECTED AS EARLY AS 12 NOON.", "nsi_id": "unitedstatespostalservice-a77078", "operator": "United States Postal Service", "operator:short": "USPS", "operator:type": "public", "operator:wikidata": "Q668687", "ref": "5902200000"}, "type": "Feature"}
{"geometry": {"coordinates": [-107.461223, 45.601683], "type": "Point"}, "id": "Vz5fvgW6Br3PFTXuk2vkbK9ivew=", "properties": {"@source_uri": "https://tools.usps.com/UspsToolsRestServices/rest/POLocator/findLocations", "@spider": "usps_collection_boxes", "addr:city": "CROW AGENCY", "addr:country": "US", "addr:postcode": "59022", "addr:state": "MT", "addr:street_address": "7001 E MAKAWASHA AVE", "amenity": "post_box", "collection_times": "Mo-Fr 15:45; Sa 11:45", "note": "ON 12/24 AND 12/31, THIS BOX MAY BE COLLECTED AS EARLY AS 12 NOON.", "nsi_id": "unitedstatespostalservice-a77078", "operator": "United States Postal Service", "operator:short": "USPS", "operator:type": "public", "operator:wikidata": "Q668687", "ref": "5902200001"}, "type": "Feature"}
{"geometry": {"coordinates": [-107.461249, 45.601732], "type": "Point"}, "id": "IoO3l5bjSR520wQY9XBUN11Ubpo=", "properties": {"@source_uri": "https://tools.usps.com/UspsToolsRestServices/rest/POLocator/findLocations", "@spider": "usps_collection_boxes", "addr:city": "CROW AGENCY", "addr:country": "US", "addr:postcode": "59022", "addr:state": "MT", "addr:street_address": "7001 E MAKAWASHA AVE", "amenity": "post_box", "collection_times": "Mo-Fr 15:45; Sa 11:45", "indoor": "yes", "note": "ON 12/24 AND 12/31, THIS BOX MAY BE COLLECTED AS EARLY AS 12 NOON.", "nsi_id": "unitedstatespostalservice-a77078", "operator": "United States Postal Service", "operator:short": "USPS", "operator:type": "public", "operator:wikidata": "Q668687", "ref": "5902200002"}, "type": "Feature"}
{"geometry": {"coordinates": [-107.454118403, 45.607046536], "type": "Point"}, "id": "tPLTJrNktIUtjZ3O0aJrUDpxw6M=", "properties": {"@source_uri": "https://tools.usps.com/UspsToolsRestServices/rest/POLocator/findLocations", "@spider": "usps_collection_boxes", "addr:city": "CROW AGENCY", "addr:country": "US", "addr:postcode": "59022", "addr:state": "MT", "addr:street_address": "7001 E MAKAWASHA AVE", "amenity": "post_box", "collection_times": "Mo-Fr 15:45; Sa 11:45", "indoor": "yes", "note": "ON 12/24 AND 12/31, THIS BOX MAY BE COLLECTED AS EARLY AS 12 NOON.", "nsi_id": "unitedstatespostalservice-a77078", "operator": "United States Postal Service", "operator:short": "USPS", "operator:type": "public", "operator:wikidata": "Q668687", "ref": "5902200003"}, "type": "Feature"}
{"geometry": {"coordinates": [-107.554994, 46.129196], "type": "Point"}, "id": "Or85yJyi3rw12XJ2gZsVTJ3rGA8=", "properties": {"@source_uri": "https://tools.usps.com/UspsToolsRestServices/rest/POLocator/findLocations", "@spider": "usps_collection_boxes", "addr:city": "CUSTER", "addr:country": "US", "addr:postcode": "59024", "addr:state": "MT", "addr:street_address": "413 2ND AVE", "amenity": "post_box", "collection_times": "Mo-Fr 14:15; Sa 09:00", "note": "ON 12/24 AND 12/31, THIS BOX MAY BE COLLECTED AS EARLY AS 12 NOON.", "nsi_id": "unitedstatespostalservice-a77078", "operator": "United States Postal Service", "operator:short": "USPS", "operator:type": "public", "operator:wikidata": "Q668687", "ref": "5902400000"}, "type": "Feature"}
{"geometry": {"coordinates": [-107.555091, 46.129168], "type": "Point"}, "id": "QahccDDjr2Qhhu7qbjqGZVocipc=", "properties": {"@source_uri": "https://tools.usps.com/UspsToolsRestServices/rest/POLocator/findLocations", "@spider": "usps_collection_boxes", "addr:city": "CUSTER", "addr:country": "US", "addr:postcode": "59024", "addr:state": "MT", "addr:street_address": "413 2ND AVE", "amenity": "post_box", "collection_times": "Mo-Fr 14:30; Sa 09:15", "indoor": "yes", "note": "ON 12/24 AND 12/31, THIS BOX MAY BE COLLECTED AS EARLY AS 12 NOON.", "nsi_id": "unitedstatespostalservice-a77078", "operator": "United States Postal Service", "operator:short": "USPS", "operator:type": "public", "operator:wikidata": "Q668687", "ref": "5902400001"}, "type": "Feature"}
{"geometry": {"coordinates": [-107.555091, 46.129168], "type": "Point"}, "id": "5ktED0u39PLfI20KBXrX-HMVioo=", "properties": {"@source_uri": "https://tools.usps.com/UspsToolsRestServices/rest/POLocator/findLocations", "@spider": "usps_collection_boxes", "addr:city": "CUSTER", "addr:country": "US", "addr:postcode": "59024", "addr:state": "MT", "addr:street_address": "413 2ND AVE", "amenity": "post_box", "collection_times": "Mo-Fr 14:30; Sa 09:15", "indoor": "yes", "note": "ON 12/24 AND 12/31, THIS BOX MAY BE COLLECTED AS EARLY AS 12 NOON.", "nsi_id": "unitedstatespostalservice-a77078", "operator": "United States Postal Service", "operator:short": "USPS", "operator:type": "public", "operator:wikidata": "Q668687", "ref": "5902400002"}, "type": "Feature"}
{"geometry": {"coordinates": [-107.554801668, 46.129197519], "type": "Point"}, "id": "19zh5VIDKe3_53Se8xqBMA-SUWo=", "properties": {"@source_uri": "https://tools.usps.com/UspsToolsRestServices/rest/POLocator/findLocations", "@spider": "usps_collection_boxes", "addr:city": "CUSTER", "addr:country": "US", "addr:postcode": "59024", "addr:state": "MT", "addr:street_address": "413 2ND AVE", "amenity": "post_box", "collection_times": "Mo-Fr 14:30; Sa 09:15", "indoor": "yes", "note": "ON 12/24 AND 12/31, THIS BOX MAY BE COLLECTED AS EARLY AS 12 NOON.", "nsi_id": "unitedstatespostalservice-a77078", "operator": "United States Postal Service", "operator:short": "USPS", "operator:type": "public", "operator:wikidata": "Q668687", "ref": "5902400003"}, "type": "Feature"}
{"geometry": {"coordinates": [-106.901633, 44.996025], "type": "Point"}, "id": "lyAz1LRoD-CJjALuKoPHyWFuMQU=", "properties": {"@source_uri": "https://tools.usps.com/UspsToolsRestServices/rest/POLocator/findLocations", "@spider": "usps_collection_boxes", "addr:city": "DECKER", "addr:country": "US", "addr:postcode": "59025", "addr:state": "MT", "addr:street_address": "1 HIGHWAY 314", "amenity": "post_box", "collection_times": "Mo-Fr 13:00; Sa 11:15", "indoor": "yes", "note": "ON 12/24 AND 12/31, THIS BOX MAY BE COLLECTED AS EARLY AS 12 NOON.", "nsi_id": "unitedstatespostalservice-a77078", "operator": "United States Postal Service", "operator:short": "USPS", "operator:type": "public", "operator:wikidata": "Q668687", "ref": "5902500001"}, "type": "Feature"}
{"geometry": {"coordinates": [-106.901581, 44.995939], "type": "Point"}, "id": "wFLXiP7gI_nqzWiUqs2p8AXhefM=", "properties": {"@source_uri": "https://tools.usps.com/UspsToolsRestServices/rest/POLocator/findLocations", "@spider": "usps_collection_boxes", "addr:city": "DECKER", "addr:country": "US", "addr:postcode": "59025", "addr:state": "MT", "addr:street_address": "1 HIGHWAY 314", "amenity": "post_box", "collection_times": "Mo-Fr 13:00; Sa 11:15", "indoor": "yes", "note": "ON 12/24 AND 12/31, THIS BOX MAY BE COLLECTED AS EARLY AS 12 NOON.", "nsi_id": "unitedstatespostalservice-a77078", "operator": "United States Postal Service", "operator:short": "USPS", "operator:type": "public", "operator:wikidata": "Q668687", "ref": "5902500002"}, "type": "Feature"}
{"geometry": {"coordinates": [-106.984710413, 45.295274862], "type": "Point"}, "id": "y8F0YLgjUztcp4SLI02eR-PwsvQ=", "properties": {"@source_uri": "https://tools.usps.com/UspsToolsRestServices/rest/POLocator/findLocations", "@spider": "usps_collection_boxes", "addr:city": "DECKER", "addr:country": "US", "addr:postcode": "59025", "addr:state": "MT", "addr:street_address": "1 HIGHWAY 314", "amenity": "post_box", "collection_times": "Mo-Fr 13:00; Sa 11:15", "indoor": "yes", "note": "ON 12/24 AND 12/31, THIS BOX MAY BE COLLECTED AS EARLY AS 12 NOON.", "nsi_id": "unitedstatespostalservice-a77078", "operator": "United States Postal Service", "operator:short": "USPS", "operator:type": "public", "operator:wikidata": "Q668687", "ref": "5902500003"}, "type": "Feature"}
{"geometry": {"coordinates": [-108.853892, 45.464567], "type": "Point"}, "id": "WI0_xz9kwSgGsJ_fu-sO3MIi8DQ=", "properties": {"@source_uri": "https://tools.usps.com/UspsToolsRestServices/rest/POLocator/findLocations", "@spider": "usps_collection_boxes", "addr:city": "EDGAR", "addr:country": "US", "addr:postcode": "59026", "addr:state": "MT", "addr:street_address": "201 ELWELL ST", "amenity": "post_box", "collection_times": "Mo-Fr 11:45; Sa 11:15", "nsi_id": "unitedstatespostalservice-a77078", "operator": "United States Postal Service", "operator:short": "USPS", "operator:type": "public", "operator:wikidata": "Q668687", "ref": "5902600000"}, "type": "Feature"}
{"geometry": {"coordinates": [-108.853892, 45.464567], "type": "Point"}, "id": "Gq5anl3wSG4NneXzRh2TtuwiSU0=", "properties": {"@source_uri": "https://tools.usps.com/UspsToolsRestServices/rest/POLocator/findLocations", "@spider": "usps_collection_boxes", "addr:city": "EDGAR", "addr:country": "US", "addr:postcode": "59026", "addr:state": "MT", "addr:street_address": "201 ELWELL ST", "amenity": "post_box", "collection_times": "Mo-Fr 12:00; Sa 11:15", "indoor": "yes", "nsi_id": "unitedstatespostalservice-a77078", "operator": "United States Postal Service", "operator:short": "USPS", "operator:type": "public", "operator:wikidata": "Q668687", "ref": "5902600001"}, "type": "Feature"}
{"geometry": {"coordinates": [-108.853892832, 45.464601457], "type": "Point"}, "id": "XUZq3rvstkkXjYy2iUittMl-mEo=", "properties": {"@source_uri": "https://tools.usps.com/UspsToolsRestServices/rest/POLocator/findLocations", "@spider": "usps_collection_boxes", "addr:city": "EDGAR", "addr:country": "US", "addr:postcode": "59026", "addr:state": "MT", "addr:street_address": "201 ELWELL ST", "amenity": "post_box", "collection_times": "Mo-Fr 12:00; Sa 11:15", "indoor": "yes", "nsi_id": "unitedstatespostalservice-a77078", "operator": "United States Postal Service", "operator:short": "USPS", "operator:type": "public", "operator:wikidata": "Q668687", "ref": "5902600002"}, "type": "Feature"}
{"geometry": {"coordinates": [-110.735711, 45.368242], "type": "Point"}, "id": "EwZd7A1_jmzeW6ocLVZj4tDRmc8=", "properties": {"@source_uri": "https://tools.usps.com/UspsToolsRestServices/rest/POLocator/findLocations", "@spider": "usps_collection_boxes", "addr:city": "EMIGRANT", "addr:country": "US", "addr:postcode": "59027", "addr:state": "MT", "addr:street_address": "305 STORY RD", "amenity": "post_box", "collection_times": "Mo-Fr 15:45; Sa 10:00", "note": "ON 12/24 AND 12/31, THIS BOX MAY BE COLLECTED AS EARLY AS 12 NOON.", "nsi_id": "unitedstatespostalservice-a77078", "operator": "United States Postal Service", "operator:short": "USPS", "operator:type": "public", "operator:wikidata": "Q668687", "ref": "5902700000"}, "type": "Feature"}
{"geometry": {"coordinates": [-110.735673, 45.368286], "type": "Point"}, "id": "fH5fXI7YUTntBnjozaxeJ1UC-2E=", "properties": {"@source_uri": "https://tools.usps.com/UspsToolsRestServices/rest/POLocator/findLocations", "@spider": "usps_collection_boxes", "addr:city": "EMIGRANT", "addr:country": "US", "addr:postcode": "59027", "addr:state": "MT", "addr:street_address": "305 STORY RD", "amenity": "post_box", "collection_times": "Mo-Fr 16:00; Sa 10:00", "indoor": "yes", "note": "ON 12/24 AND 12/31, THIS BOX MAY BE COLLECTED AS EARLY AS 12 NOON.", "nsi_id": "unitedstatespostalservice-a77078", "operator": "United States Postal Service", "operator:short": "USPS", "operator:type": "public", "operator:wikidata": "Q668687", "ref": "5902700001"}, "type": "Feature"}
{"geometry": {"coordinates": [-110.735673, 45.368286], "type": "Point"}, "id": "9IZX0fSotzLoQPZAV6TTxi5bI9E=", "properties": {"@source_uri": "https://tools.usps.com/UspsToolsRestServices/rest/POLocator/findLocations", "@spider": "usps_collection_boxes", "addr:city": "EMIGRANT", "addr:country": "US", "addr:postcode": "59027", "addr:state": "MT", "addr:street_address": "305 STORY RD", "amenity": "post_box", "collection_times": "Mo-Fr 16:00; Sa 10:00", "indoor": "yes", "note": "ON 12/24 AND 12/31, THIS BOX MAY BE COLLECTED AS EARLY AS 12 NOON.", "nsi_id": "unitedstatespostalservice-a77078", "operator": "United States Postal Service", "operator:short": "USPS", "operator:type": "public", "operator:wikidata": "Q668687", "ref": "5902700002"}, "type": "Feature"}
{"geometry": {"coordinates": [-110.735673, 45.368286], "type": "Point"}, "id": "iB2hnwPKVqYki1ageThJQTuHaOo=", "properties": {"@source_uri": "https://tools.usps.com/UspsToolsRestServices/rest/POLocator/findLocations", "@spider": "usps_collection_boxes", "addr:city": "EMIGRANT", "addr:country": "US", "addr:postcode": "59027", "addr:state": "MT", "addr:street_address": "305 STORY RD", "amenity": "post_box", "collection_times": "Mo-Fr 16:00; Sa 10:00", "indoor": "yes", "note": "ON 12/24 AND 12/31, THIS BOX MAY BE COLLECTED AS EARLY AS 12 NOON.", "nsi_id": "unitedstatespostalservice-a77078", "operator": "United States Postal Service", "operator:short": "USPS", "operator:type": "public", "operator:wikidata": "Q668687", "ref": "5902700003"}, "type": "Feature"}
{"geometry": {"coordinates": [-110.735673, 45.368286], "type": "Point"}, "id": "52-FRbo8_xOjvgsF9JJ8eONNwOQ=", "properties": {"@source_uri": "https://tools.usps.com/UspsToolsRestServices/rest/POLocator/findLocations", "@spider": "usps_collection_boxes", "addr:city": "EMIGRANT", "addr:country": "US", "addr:postcode": "59027", "addr:state": "MT", "addr:street_address": "305 STORY RD", "amenity": "post_box", "collection_times": "Mo-Fr 16:00; Sa 10:00", "indoor": "yes", "note": "ON 12/24 AND 12/31, THIS BOX MAY BE COLLECTED AS EARLY AS 12 NOON.", "nsi_id": "unitedstatespostalservice-a77078", "operator": "United States Postal Service", "operator:short": "USPS", "operator:type": "public", "operator:wikidata": "Q668687", "ref": "5902700004"}, "type": "Feature"}
{"geometry": {"coordinates": [-110.735292711, 45.368590465], "type": "Point"}, "id": "miDVsWr7cW_dWj1bDC9RCeXDlvo=", "properties": {"@source_uri": "https://tools.usps.com/UspsToolsRestServices/rest/POLocator/findLocations", "@spider": "usps_collection_boxes", "addr:city": "EMIGRANT", "addr:country": "US", "addr:postcode": "59027", "addr:state": "MT", "addr:street_address": "305 STORY RD", "amenity": "post_box", "collection_times": "Mo-Fr 16:00; Sa 09:45", "indoor": "yes", "note": "ON 12/24 AND 12/31, THIS BOX MAY BE COLLECTED AS EARLY AS 12 NOON.", "nsi_id": "unitedstatespostalservice-a77078", "operator": "United States Postal Service", "operator:short": "USPS", "operator:type": "public", "operator:wikidata": "Q668687", "ref": "5902700005"}, "type": "Feature"}
{"geometry": {"coordinates": [-109.507041, 45.453338529], "type": "Point"}, "id": "cbzZsqpH6R8aYcj9suELiA3NHXA=", "properties": {"@source_uri": "https://tools.usps.com/UspsToolsRestServices/rest/POLocator/findLocations", "@spider": "usps_collection_boxes", "addr:city": "FISHTAIL", "addr:country": "US", "addr:postcode": "59028", "addr:state": "MT", "addr:street_address": "200 W MAIN ST", "amenity": "post_box", "collection_times": "Mo-Sa 13:45", "note": "ON 12/24 AND 12/31, THIS BOX MAY BE COLLECTED AS EARLY AS 12 NOON.", "nsi_id": "unitedstatespostalservice-a77078", "operator": "United States Postal Service", "operator:short": "USPS", "operator:type": "public", "operator:wikidata": "Q668687", "ref": "5902800000"}, "type": "Feature"}
{"geometry": {"coordinates": [-109.505947, 45.453689], "type": "Point"}, "id": "jTiiWza0Nn7Jt2H4X1fttM-56m8=", "properties": {"@source_uri": "https://tools.usps.com/UspsToolsRestServices/rest/POLocator/findLocations", "@spider": "usps_collection_boxes", "addr:city": "FISHTAIL", "addr:country": "US", "addr:postcode": "59028", "addr:state": "MT", "addr:street_address": "200 W MAIN ST", "amenity": "post_box", "collection_times": "Mo-Fr 12:00; Sa 11:15", "indoor": "yes", "nsi_id": "unitedstatespostalservice-a77078", "operator": "United States Postal Service", "operator:short": "USPS", "operator:type": "public", "operator:wikidata": "Q668687", "ref": "5902800001"}, "type": "Feature"}
{"geometry": {"coordinates": [-109.507031026, 45.453328471], "type": "Point"}, "id": "iCKQ0ATh5aEkJ77hBYmDueKHA1Q=", "properties": {"@source_uri": "https://tools.usps.com/UspsToolsRestServices/rest/POLocator/findLocations", "@spider": "usps_collection_boxes", "addr:city": "FISHTAIL", "addr:country": "US", "addr:postcode": "59028", "addr:state": "MT", "addr:street_address": "200 W MAIN ST", "amenity": "post_box", "collection_times": "Mo-Fr 12:00; Sa 11:15", "indoor": "yes", "nsi_id": "unitedstatespostalservice-a77078", "operator": "United States Postal Service", "operator:short": "USPS", "operator:type": "public", "operator:wikidata": "Q668687", "ref": "5902800003"}, "type": "Feature"}
{"geometry": {"coordinates": [-109.802470416, 45.435466478], "type": "Point"}, "id": "cyxwqT4o_aoKz12Gi19iqF1C8Js=", "properties": {"@source_uri": "https://tools.usps.com/UspsToolsRestServices/rest/POLocator/findLocations", "@spider": "usps_collection_boxes", "addr:city": "FISHTAIL", "addr:country": "US", "addr:postcode": "59028", "addr:state": "MT", "addr:street_address": "1997 NYE RD", "amenity": "post_box", "collection_times": "Mo-Sa 13:30", "note": "ON 12/24 AND 12/31, THIS BOX MAY BE COLLECTED AS EARLY AS 12 NOON.", "nsi_id": "unitedstatespostalservice-a77078", "operator": "United States Postal Service", "operator:short": "USPS", "operator:type": "public", "operator:wikidata": "Q668687", "ref": "5902800004"}, "type": "Feature"}
{"geometry": {"coordinates": [-108.907959, 45.391811], "type": "Point"}, "id": "9psQgmuVV_Hfz8F0dCjTTxAhy74=", "properties": {"@source_uri": "https://tools.usps.com/UspsToolsRestServices/rest/POLocator/findLocations", "@spider": "usps_collection_boxes", "addr:city": "FROMBERG", "addr:country": "US", "addr:postcode": "59029", "addr:state": "MT", "addr:street_address": "123 W RIVER ST", "amenity": "post_box", "collection_times": "Mo-Fr 14:45; Sa 09:30", "note": "ON 12/24 AND 12/31, THIS BOX MAY BE COLLECTED AS EARLY AS 12 NOON.", "nsi_id": "unitedstatespostalservice-a77078", "operator": "United States Postal Service", "operator:short": "USPS", "operator:type": "public", "operator:wikidata": "Q668687", "ref": "5902900000"}, "type": "Feature"}
{"geometry": {"coordinates": [-108.907888, 45.391784], "type": "Point"}, "id": "Nvt4B0CrOwz1omwaJHjS0m3lCXY=", "properties": {"@source_uri": "https://tools.usps.com/UspsToolsRestServices/rest/POLocator/findLocations", "@spider": "usps_collection_boxes", "addr:city": "FROMBERG", "addr:country": "US", "addr:postcode": "59029", "addr:state": "MT", "addr:street_address": "123 W RIVER ST", "amenity": "post_box", "collection_times": "Mo-Fr 15:00; Sa 09:30", "indoor": "yes", "note": "ON 12/24 AND 12/31, THIS BOX MAY BE COLLECTED AS EARLY AS 12 NOON.", "nsi_id": "unitedstatespostalservice-a77078", "operator": "United States Postal Service", "operator:short": "USPS", "operator:type": "public", "operator:wikidata": "Q668687", "ref": "5902900001"}, "type": "Feature"}
{"geometry": {"coordinates": [-108.907888, 45.391784], "type": "Point"}, "id": "ou_OD5tT54_B3ecGaJZRmXHTZag=", "properties": {"@source_uri": "https://tools.usps.com/UspsToolsRestServices/rest/POLocator/findLocations", "@spider": "usps_collection_boxes", "addr:city": "FROMBERG", "addr:country": "US", "addr:postcode": "59029", "addr:state": "MT", "addr:street_address": "123 W RIVER ST", "amenity": "post_box", "collection_times": "Mo-Fr 15:00; Sa 09:30", "indoor": "yes", "note": "ON 12/24 AND 12/31, THIS BOX MAY BE COLLECTED AS EARLY AS 12 NOON.", "nsi_id": "unitedstatespostalservice-a77078", "operator": "United States Postal Service", "operator:short": "USPS", "operator:type": "public", "operator:wikidata": "Q668687", "ref": "5902900002"}, "type": "Feature"}
{"geometry": {"coordinates": [-108.908819665, 45.391831522], "type": "Point"}, "id": "nrJ9vK8yoXcBnlOtf9tuZfMT-zI=", "properties": {"@source_uri": "https://tools.usps.com/UspsToolsRestServices/rest/POLocator/findLocations", "@spider": "usps_collection_boxes", "addr:city": "FROMBERG", "addr:country": "US", "addr:postcode": "59029", "addr:state": "MT", "addr:street_address": "123 W RIVER ST", "amenity": "post_box", "collection_times": "Mo-Fr 15:00", "indoor": "yes", "note": "ON 12/24 AND 12/31, THIS BOX MAY BE COLLECTED AS EARLY AS 12 NOON.", "nsi_id": "unitedstatespostalservice-a77078", "operator": "United States Postal Service", "operator:short": "USPS", "operator:type": "public", "operator:wikidata": "Q668687", "ref": "5902900003"}, "type": "Feature"}
{"geometry": {"coordinates": [-110.710626, 45.034811], "type": "Point"}, "id": "o62yGj-SL0-gif65tCV6TvefLb4=", "properties": {"@source_uri": "https://tools.usps.com/UspsToolsRestServices/rest/POLocator/findLocations", "@spider": "usps_collection_boxes", "addr:city": "GARDINER", "addr:country": "US", "addr:postcode": "59030", "addr:state": "MT", "addr:street_address": "707 SCOTT ST W", "amenity": "post_box", "collection_times": "Mo-Fr 15:15; Sa 10:00", "indoor": "yes", "note": "ON 12/24 AND 12/31, THIS BOX MAY BE COLLECTED AS EARLY AS 12 NOON.", "nsi_id": "unitedstatespostalservice-a77078", "operator": "United States Postal Service", "operator:short": "USPS", "operator:type": "public", "operator:wikidata": "Q668687", "ref": "5903000001"}, "type": "Feature"}
{"geometry": {"coordinates": [-110.710508, 45.034808], "type": "Point"}, "id": "gUvcWBj9b5zcKIMA9Oewyc4s8WE=", "properties": {"@source_uri": "https://tools.usps.com/UspsToolsRestServices/rest/POLocator/findLocations", "@spider": "usps_collection_boxes", "addr:city": "GARDINER", "addr:country": "US", "addr:postcode": "59030", "addr:state": "MT", "addr:street_address": "707 SCOTT ST W", "amenity": "post_box", "collection_times": "Mo-Fr 15:15; Sa 10:00", "indoor": "yes", "note": "ON 12/24 AND 12/31, THIS BOX MAY BE COLLECTED AS EARLY AS 12 NOON.", "nsi_id": "unitedstatespostalservice-a77078", "operator": "United States Postal Service", "operator:short": "USPS", "operator:type": "public", "operator:wikidata": "Q668687", "ref": "5903000002"}, "type": "Feature"}
{"geometry": {"coordinates": [-110.710508, 45.034808], "type": "Point"}, "id": "LrVk7KBSShXv2iDgc5It3LVQ1bA=", "properties": {"@source_uri": "https://tools.usps.com/UspsToolsRestServices/rest/POLocator/findLocations", "@spider": "usps_collection_boxes", "addr:city": "GARDINER", "addr:country": "US", "addr:postcode": "59030", "addr:state": "MT", "addr:street_address": "707 SCOTT ST W", "amenity": "post_box", "collection_times": "Mo-Fr 15:15; Sa 10:00", "indoor": "yes", "note": "ON 12/24 AND 12/31, THIS BOX MAY BE COLLECTED AS EARLY AS 12 NOON.", "nsi_id": "unitedstatespostalservice-a77078", "operator": "United States Postal Service", "operator:short": "USPS", "operator:type": "public", "operator:wikidata": "Q668687", "ref": "5903000003"}, "type": "Feature"}
{"geometry": {"coordinates": [-110.710508, 45.034808], "type": "Point"}, "id": "oIan7u1l0ldrEll5X2c0b_0BQmg=", "properties": {"@source_uri": "https://tools.usps.com/UspsToolsRestServices/rest/POLocator/findLocations", "@spider": "usps_collection_boxes", "addr:city": "GARDINER", "addr:country": "US", "addr:postcode": "59030", "addr:state": "MT", "addr:street_address": "707 SCOTT ST W", "amenity": "post_box", "collection_times": "Mo-Fr 15:15; Sa 10:00", "indoor": "yes", "note": "ON 12/24 AND 12/31, THIS BOX MAY BE COLLECTED AS EARLY AS 12 NOON.", "nsi_id": "unitedstatespostalservice-a77078", "operator": "United States Postal Service", "operator:short": "USPS", "operator:type": "public", "operator:wikidata": "Q668687", "ref": "5903000004"}, "type": "Feature"}
{"geometry": {"coordinates": [-110.710508, 45.034808], "type": "Point"}, "id": "moQtFEFZLxke8Xz-lI_-Iyx3UpM=", "properties": {"@source_uri": "https://tools.usps.com/UspsToolsRestServices/rest/POLocator/findLocations", "@spider": "usps_collection_boxes", "addr:city": "GARDINER", "addr:country": "US", "addr:postcode": "59030", "addr:state": "MT", "addr:street_address": "707 SCOTT ST W", "amenity": "post_box", "collection_times": "Mo-Fr 15:00; Sa 10:00", "note": "ON 12/24 AND 12/31, THIS BOX MAY BE COLLECTED AS EARLY AS 12 NOON.", "nsi_id": "unitedstatespostalservice-a77078", "operator": "United States Postal Service", "operator:short": "USPS", "operator:type": "public", "operator:wikidata": "Q668687", "ref": "5903000005"}, "type": "Feature"}
{"geometry": {"coordinates": [-107.417312, 45.526621], "type": "Point"}, "id": "z1j3zqVO5TAIYKh-bp5u7WxXZ3Q=", "properties": {"@source_uri": "https://tools.usps.com/UspsToolsRestServices/rest/POLocator/findLocations", "@spider": "usps_collection_boxes", "addr:city": "GARRYOWEN", "addr:country": "US", "addr:postcode": "59031", "addr:state": "MT", "addr:street_address": "4185 GARRYOWEN RD", "amenity": "post_box", "collection_times": "Mo-Fr 09:45; Sa 12:30", "note": "ON 12/24 AND 12/31, THIS BOX MAY BE COLLECTED AS EARLY AS 12 NOON.", "nsi_id": "unitedstatespostalservice-a77078", "operator": "United States Postal Service", "operator:short": "USPS", "operator:type": "public", "operator:wikidata": "Q668687", "ref": "5903100000"}, "type": "Feature"}
{"geometry": {"coordinates": [-107.417366, 45.526644], "type": "Point"}, "id": "ZBOKMDs00-TrahmTXo5z6gJ-kVo=", "properties": {"@source_uri": "https://tools.usps.com/UspsToolsRestServices/rest/POLocator/findLocations", "@spider": "usps_collection_boxes", "addr:city": "GARRYOWEN", "addr:country": "US", "addr:postcode": "59031", "addr:state": "MT", "addr:street_address": "4185 GARRYOWEN RD", "amenity": "post_box", "collection_times": "Mo-Fr 10:00; Sa 12:45", "indoor": "yes", "note": "ON 12/24 AND 12/31, THIS BOX MAY BE COLLECTED AS EARLY AS 12 NOON.", "nsi_id": "unitedstatespostalservice-a77078", "operator": "United States Postal Service", "operator:short": "USPS", "operator:type": "public", "operator:wikidata": "Q668687", "ref": "5903100001"}, "type": "Feature"}
{"geometry": {"coordinates": [-107.417366, 45.526644], "type": "Point"}, "id": "2tpSTVwfpTBW7t3egctTLsYAzxs=", "properties": {"@source_uri": "https://tools.usps.com/UspsToolsRestServices/rest/POLocator/findLocations", "@spider": "usps_collection_boxes", "addr:city": "GARRYOWEN", "addr:country": "US", "addr:postcode": "59031", "addr:state": "MT", "addr:street_address": "4185 GARRYOWEN RD", "amenity": "post_box", "collection_times": "Mo-Fr 10:00; Sa 12:45", "indoor": "yes", "note": "ON 12/24 AND 12/31, THIS BOX MAY BE COLLECTED AS EARLY AS 12 NOON.", "nsi_id": "unitedstatespostalservice-a77078", "operator": "United States Postal Service", "operator:short": "USPS", "operator:type": "public", "operator:wikidata": "Q668687", "ref": "5903100002"}, "type": "Feature"}
{"geometry": {"coordinates": [-107.417235147, 45.526484597], "type": "Point"}, "id": "Vnnt1PeDzVx2V3D-xpe6x9MjG2Q=", "properties": {"@source_uri": "https://tools.usps.com/UspsToolsRestServices/rest/POLocator/findLocations", "@spider": "usps_collection_boxes", "addr:city": "GARRYOWEN", "addr:country": "US", "addr:postcode": "59031", "addr:state": "MT", "addr:street_address": "4185 GARRYOWEN RD", "amenity": "post_box", "collection_times": "Mo-Fr 10:00; Sa 12:45", "indoor": "yes", "note": "ON 12/24 AND 12/31, THIS BOX MAY BE COLLECTED AS EARLY AS 12 NOON.", "nsi_id": "unitedstatespostalservice-a77078", "operator": "United States Postal Service", "operator:short": "USPS", "operator:type": "public", "operator:wikidata": "Q668687", "ref": "5903100003"}, "type": "Feature"}
{"geometry": {"coordinates": [-108.804118, 47.028578], "type": "Point"}, "id": "7XXMhiAB0hr4ZnGVAd7BM8C6yoM=", "properties": {"@source_uri": "https://tools.usps.com/UspsToolsRestServices/rest/POLocator/findLocations", "@spider": "usps_collection_boxes", "addr:city": "GRASSRANGE", "addr:country": "US", "addr:postcode": "59032", "addr:state": "MT", "addr:street_address": "614 MAIN ST", "amenity": "post_box", "collection_times": "Mo-Fr 14:20; Sa 09:45", "indoor": "yes", "note": "ON 12/24 AND 12/31, THIS BOX MAY BE COLLECTED AS EARLY AS 12 NOON.", "nsi_id": "unitedstatespostalservice-a77078", "operator": "United States Postal Service", "operator:short": "USPS", "operator:type": "public", "operator:wikidata": "Q668687", "ref": "5903200001"}, "type": "Feature"}
{"geometry": {"coordinates": [-108.804118, 47.028578], "type": "Point"}, "id": "DE0ayRA1s1z9pNzBufPjwnJw3js=", "properties": {"@source_uri": "https://tools.usps.com/UspsToolsRestServices/rest/POLocator/findLocations", "@spider": "usps_collection_boxes", "addr:city": "GRASSRANGE", "addr:country": "US", "addr:postcode": "59032", "addr:state": "MT", "addr:street_address": "614 MAIN ST", "amenity": "post_box", "collection_times": "Mo-Fr 14:20; Sa 09:45", "indoor": "yes", "note": "ON 12/24 AND 12/31, THIS BOX MAY BE COLLECTED AS EARLY AS 12 NOON.", "nsi_id": "unitedstatespostalservice-a77078", "operator": "United States Postal Service", "operator:short": "USPS", "operator:type": "public", "operator:wikidata": "Q668687", "ref": "5903200002"}, "type": "Feature"}
{"geometry": {"coordinates": [-108.804161592, 47.028582733], "type": "Point"}, "id": "11OxCpcgqLRN6LTMXhAH5Mij-ww=", "properties": {"@source_uri": "https://tools.usps.com/UspsToolsRestServices/rest/POLocator/findLocations", "@spider": "usps_collection_boxes", "addr:city": "GRASSRANGE", "addr:country": "US", "addr:postcode": "59032", "addr:state": "MT", "addr:street_address": "614 MAIN ST", "amenity": "post_box", "collection_times": "Mo-Fr 14:20; Sa 09:45", "indoor": "yes", "note": "ON 12/24 AND 12/31, THIS BOX MAY BE COLLECTED AS EARLY AS 12 NOON.", "nsi_id": "unitedstatespostalservice-a77078", "operator": "United States Postal Service", "operator:short": "USPS", "operator:type": "public", "operator:wikidata": "Q668687", "ref": "5903200003"}, "type": "Feature"}
{"geometry": {"coordinates": [-109.7751304, 45.7500582], "type": "Point"}, "id": "YJmtLE9ErOi2IoCzGDNXScgzC0o=", "properties": {"@source_uri": "https://tools.usps.com/UspsToolsRestServices/rest/POLocator/findLocations", "@spider": "usps_collection_boxes", "addr:city": "GREY CLIFF", "addr:country": "US", "addr:postcode": "59033", "addr:state": "MT", "addr:street_address": "217 A ST", "amenity": "post_box", "collection_times": "Mo-Fr 09:50; Sa 11:50", "nsi_id": "unitedstatespostalservice-a77078", "operator": "United States Postal Service", "operator:short": "USPS", "operator:type": "public", "operator:wikidata": "Q668687", "ref": "5903300002"}, "type": "Feature"}
{"geometry": {"coordinates": [-107.604451, 45.733465], "type": "Point"}, "id": "UwFQGrQ59vXyhH7uToI6FmrYPwc=", "properties": {"@source_uri": "https://tools.usps.com/UspsToolsRestServices/rest/POLocator/findLocations", "@spider": "usps_collection_boxes", "addr:city": "HARDIN", "addr:country": "US", "addr:postcode": "59034", "addr:state": "MT", "addr:street_address": "502 N CHEYENNE AVE", "amenity": "post_box", "collection_times": "Mo-Fr 16:15; Sa 12:30", "note": "ON 12/24 AND 12/31, THIS BOX MAY BE COLLECTED AS EARLY AS 12 NOON.", "nsi_id": "unitedstatespostalservice-a77078", "operator": "United States Postal Service", "operator:short": "USPS", "operator:type": "public", "operator:wikidata": "Q668687", "ref": "5903400000"}, "type": "Feature"}
{"geometry": {"coordinates": [-107.6060200936, 45.7311497638], "type": "Point"}, "id": "ryA2Lu3qE5WdEeJ74md_oVVDwHo=", "properties": {"@source_uri": "https://tools.usps.com/UspsToolsRestServices/rest/POLocator/findLocations", "@spider": "usps_collection_boxes", "addr:city": "HARDIN", "addr:country": "US", "addr:postcode": "59034", "addr:state": "MT", "addr:street_address": "220 N CENTER AVE", "amenity": "post_box", "collection_times": "Mo-Fr 15:00; Sa 12:30", "note": "ON 12/24 AND 12/31, THIS BOX MAY BE COLLECTED AS EARLY AS 12 NOON.", "nsi_id": "unitedstatespostalservice-a77078", "operator": "United States Postal Service", "operator:short": "USPS", "operator:type": "public", "operator:wikidata": "Q668687", "ref": "5903400002"}, "type": "Feature"}
{"geometry": {"coordinates": [-107.604411, 45.733379], "type": "Point"}, "id": "jVVSzLOE6_-at6k2zN7pF4NZM4M=", "properties": {"@source_uri": "https://tools.usps.com/UspsToolsRestServices/rest/POLocator/findLocations", "@spider": "usps_collection_boxes", "addr:city": "HARDIN", "addr:country": "US", "addr:postcode": "59034", "addr:state": "MT", "addr:street_address": "502 N CHEYENNE AVE", "amenity": "post_box", "collection_times": "Mo-Fr 16:15; Sa 12:30", "indoor": "yes", "note": "ON 12/24 AND 12/31, THIS BOX MAY BE COLLECTED AS EARLY AS 12 NOON.", "nsi_id": "unitedstatespostalservice-a77078", "operator": "United States Postal Service", "operator:short": "USPS", "operator:type": "public", "operator:wikidata": "Q668687", "ref": "5903400004"}, "type": "Feature"}
{"geometry": {"coordinates": [-107.914211, 45.307542], "type": "Point"}, "id": "t8HoIWHPKll0B_yosFDHBldeWIo=", "properties": {"@source_uri": "https://tools.usps.com/UspsToolsRestServices/rest/POLocator/findLocations", "@spider": "usps_collection_boxes", "addr:city": "HARDIN", "addr:country": "US", "addr:postcode": "59034", "addr:state": "MT", "addr:street_address": "1 PARKDALE CT", "amenity": "post_box", "collection_times": "Mo-Sa 10:45", "nsi_id": "unitedstatespostalservice-a77078", "operator": "United States Postal Service", "operator:short": "USPS", "operator:type": "public", "operator:wikidata": "Q668687", "ref": "5903400005"}, "type": "Feature"}
{"geometry": {"coordinates": [-107.604411, 45.733379], "type": "Point"}, "id": "2mJ8x_MYmcHPoJP35pO5fDrNNvU=", "properties": {"@source_uri": "https://tools.usps.com/UspsToolsRestServices/rest/POLocator/findLocations", "@spider": "usps_collection_boxes", "addr:city": "HARDIN", "addr:country": "US", "addr:postcode": "59034", "addr:state": "MT", "addr:street_address": "502 N CHEYENNE AVE", "amenity": "post_box", "collection_times": "Mo-Fr 16:15; Sa 12:30", "indoor": "yes", "note": "ON 12/24 AND 12/31, THIS BOX MAY BE COLLECTED AS EARLY AS 12 NOON.", "nsi_id": "unitedstatespostalservice-a77078", "operator": "United States Postal Service", "operator:short": "USPS", "operator:type": "public", "operator:wikidata": "Q668687", "ref": "5903400006"}, "type": "Feature"}
{"geometry": {"coordinates": [-107.6044598195, 45.7336072456], "type": "Point"}, "id": "Nlb8f8dZUpP39K9vBgyu9HHPbCI=", "properties": {"@source_uri": "https://tools.usps.com/UspsToolsRestServices/rest/POLocator/findLocations", "@spider": "usps_collection_boxes", "addr:city": "HARDIN", "addr:country": "US", "addr:postcode": "59034", "addr:state": "MT", "addr:street_address": "502 N CHEYENNE AVE", "amenity": "post_box", "collection_times": "Mo-Fr 16:15; Sa 12:30", "indoor": "yes", "note": "ON 12/24 AND 12/31, THIS BOX MAY BE COLLECTED AS EARLY AS 12 NOON.", "nsi_id": "unitedstatespostalservice-a77078", "operator": "United States Postal Service", "operator:short": "USPS", "operator:type": "public", "operator:wikidata": "Q668687", "ref": "5903400009"}, "type": "Feature"}
{"geometry": {"coordinates": [-109.830558527, 46.43511626], "type": "Point"}, "id": "alkXe3YRJn7c7R3JuHZheAxWeRw=", "properties": {"@source_uri": "https://tools.usps.com/UspsToolsRestServices/rest/POLocator/findLocations", "@spider": "usps_collection_boxes", "addr:city": "HARLOWTON", "addr:country": "US", "addr:postcode": "59036", "addr:state": "MT", "addr:street_address": "12 1ST ST SE", "amenity": "post_box", "collection_times": "Mo-Fr 16:00; Sa 11:15", "note": "ON 12/24 AND 12/31, THIS BOX MAY BE COLLECTED AS EARLY AS 12 NOON.", "nsi_id": "unitedstatespostalservice-a77078", "operator": "United States Postal Service", "operator:short": "USPS", "operator:type": "public", "operator:wikidata": "Q668687", "ref": "5903600000"}, "type": "Feature"}
{"geometry": {"coordinates": [-109.831135, 46.434782], "type": "Point"}, "id": "7pKZypXjIy6skUdH8S49WXLIaQA=", "properties": {"@source_uri": "https://tools.usps.com/UspsToolsRestServices/rest/POLocator/findLocations", "@spider": "usps_collection_boxes", "addr:city": "HARLOWTON", "addr:country": "US", "addr:postcode": "59036", "addr:state": "MT", "addr:street_address": "12 1ST ST SE", "amenity": "post_box", "collection_times": "Mo-Fr 16:00; Sa 11:15", "indoor": "yes", "note": "ON 12/24 AND 12/31, THIS BOX MAY BE COLLECTED AS EARLY AS 12 NOON.", "nsi_id": "unitedstatespostalservice-a77078", "operator": "United States Postal Service", "operator:short": "USPS", "operator:type": "public", "operator:wikidata": "Q668687", "ref": "5903600001"}, "type": "Feature"}
{"geometry": {"coordinates": [-109.831135, 46.434782], "type": "Point"}, "id": "LyBBbjDw_JB6m_Uk9CwXw9LKAZc=", "properties": {"@source_uri": "https://tools.usps.com/UspsToolsRestServices/rest/POLocator/findLocations", "@spider": "usps_collection_boxes", "addr:city": "HARLOWTON", "addr:country": "US", "addr:postcode": "59036", "addr:state": "MT", "addr:street_address": "12 1ST ST SE", "amenity": "post_box", "collection_times": "Mo-Fr 16:00; Sa 11:15", "indoor": "yes", "note": "ON 12/24 AND 12/31, THIS BOX MAY BE COLLECTED AS EARLY AS 12 NOON.", "nsi_id": "unitedstatespostalservice-a77078", "operator": "United States Postal Service", "operator:short": "USPS", "operator:type": "public", "operator:wikidata": "Q668687", "ref": "5903600002"}, "type": "Feature"}
{"geometry": {"coordinates": [-109.830558527, 46.43511626], "type": "Point"}, "id": "GjH9zg4Osa5QNm9m_k3lqz6p8N4=", "properties": {"@source_uri": "https://tools.usps.com/UspsToolsRestServices/rest/POLocator/findLocations", "@spider": "usps_collection_boxes", "addr:city": "HARLOWTON", "addr:country": "US", "addr:postcode": "59036", "addr:state": "MT", "addr:street_address": "12 1ST ST SE", "amenity": "post_box", "collection_times": "Mo-Fr 16:00", "indoor": "yes", "note": "ON 12/24 AND 12/31, THIS BOX MAY BE COLLECTED AS EARLY AS 12 NOON.", "nsi_id": "unitedstatespostalservice-a77078", "operator": "United States Postal Service", "operator:short": "USPS", "operator:type": "public", "operator:wikidata": "Q668687", "ref": "5903600003"}, "type": "Feature"}
{"geometry": {"coordinates": [-108.306359, 45.897227], "type": "Point"}, "id": "RWGQKQGOZdOp0eeo0xIX_1k6_tU=", "properties": {"@source_uri": "https://tools.usps.com/UspsToolsRestServices/rest/POLocator/findLocations", "@spider": "usps_collection_boxes", "addr:city": "HUNTLEY", "addr:country": "US", "addr:postcode": "59037", "addr:state": "MT", "addr:street_address": "155 NORTHERN AVE", "amenity": "post_box", "collection_times": "Mo-Fr 15:30; Sa 08:15", "note": "ON 12/24 AND 12/31, THIS BOX MAY BE COLLECTED AS EARLY AS 12 NOON.", "nsi_id": "unitedstatespostalservice-a77078", "operator": "United States Postal Service", "operator:short": "USPS", "operator:type": "public", "operator:wikidata": "Q668687", "ref": "5903700000"}, "type": "Feature"}
{"geometry": {"coordinates": [-108.306422, 45.897149], "type": "Point"}, "id": "u483BtyYAbxqINpRv3hZgiQIDoQ=", "properties": {"@source_uri": "https://tools.usps.com/UspsToolsRestServices/rest/POLocator/findLocations", "@spider": "usps_collection_boxes", "addr:city": "HUNTLEY", "addr:country": "US", "addr:postcode": "59037", "addr:state": "MT", "addr:street_address": "155 NORTHERN AVE", "amenity": "post_box", "collection_times": "Mo-Fr 15:45; Sa 08:00", "indoor": "yes", "note": "ON 12/24 AND 12/31, THIS BOX MAY BE COLLECTED AS EARLY AS 12 NOON.", "nsi_id": "unitedstatespostalservice-a77078", "operator": "United States Postal Service", "operator:short": "USPS", "operator:type": "public", "operator:wikidata": "Q668687", "ref": "5903700001"}, "type": "Feature"}
{"geometry": {"coordinates": [-108.306422, 45.897149], "type": "Point"}, "id": "Lb-5wymtF-D1GC0URz54kGb9ojA=", "properties": {"@source_uri": "https://tools.usps.com/UspsToolsRestServices/rest/POLocator/findLocations", "@spider": "usps_collection_boxes", "addr:city": "HUNTLEY", "addr:country": "US", "addr:postcode": "59037", "addr:state": "MT", "addr:street_address": "155 NORTHERN AVE", "amenity": "post_box", "collection_times": "Mo-Fr 15:45; Sa 08:00", "indoor": "yes", "note": "ON 12/24 AND 12/31, THIS BOX MAY BE COLLECTED AS EARLY AS 12 NOON.", "nsi_id": "unitedstatespostalservice-a77078", "operator": "United States Postal Service", "operator:short": "USPS", "operator:type": "public", "operator:wikidata": "Q668687", "ref": "5903700002"}, "type": "Feature"}
{"geometry": {"coordinates": [-107.233743, 46.292904], "type": "Point"}, "id": "cWz2BM7Mlsec2q_e1FR51q1S788=", "properties": {"@source_uri": "https://tools.usps.com/UspsToolsRestServices/rest/POLocator/findLocations", "@spider": "usps_collection_boxes", "addr:city": "HYSHAM", "addr:country": "US", "addr:postcode": "59038", "addr:state": "MT", "addr:street_address": "118 SPURLING ST", "amenity": "post_box", "collection_times": "Mo-Fr 15:00; Sa 09:30", "note": "ON 12/24 AND 12/31, THIS BOX MAY BE COLLECTED AS EARLY AS 12 NOON.", "nsi_id": "unitedstatespostalservice-a77078", "operator": "United States Postal Service", "operator:short": "USPS", "operator:type": "public", "operator:wikidata": "Q668687", "ref": "5903800000"}, "type": "Feature"}
{"geometry": {"coordinates": [-107.233782, 46.292921], "type": "Point"}, "id": "AUDwxOabVx6c1rczsvUScqN6v6k=", "properties": {"@source_uri": "https://tools.usps.com/UspsToolsRestServices/rest/POLocator/findLocations", "@spider": "usps_collection_boxes", "addr:city": "HYSHAM", "addr:country": "US", "addr:postcode": "59038", "addr:state": "MT", "addr:street_address": "118 SPURLING ST", "amenity": "post_box", "collection_times": "Mo-Fr 15:00; Sa 09:30", "indoor": "yes", "note": "ON 12/24 AND 12/31, THIS BOX MAY BE COLLECTED AS EARLY AS 12 NOON.", "nsi_id": "unitedstatespostalservice-a77078", "operator": "United States Postal Service", "operator:short": "USPS", "operator:type": "public", "operator:wikidata": "Q668687", "ref": "5903800001"}, "type": "Feature"}
{"geometry": {"coordinates": [-107.233782, 46.292921], "type": "Point"}, "id": "9VU7hgUQr40syBn6cFKcgvzjUKw=", "properties": {"@source_uri": "https://tools.usps.com/UspsToolsRestServices/rest/POLocator/findLocations", "@spider": "usps_collection_boxes", "addr:city": "HYSHAM", "addr:country": "US", "addr:postcode": "59038", "addr:state": "MT", "addr:street_address": "118 SPURLING ST", "amenity": "post_box", "collection_times": "Mo-Fr 15:00; Sa 09:30", "indoor": "yes", "note": "ON 12/24 AND 12/31, THIS BOX MAY BE COLLECTED AS EARLY AS 12 NOON.", "nsi_id": "unitedstatespostalservice-a77078", "operator": "United States Postal Service", "operator:short": "USPS", "operator:type": "public", "operator:wikidata": "Q668687", "ref": "5903800002"}, "type": "Feature"}
{"geometry": {"coordinates": [-107.233782, 46.292921], "type": "Point"}, "id": "-qfqvqS2BEryeYzEp9q4divDFcc=", "properties": {"@source_uri": "https://tools.usps.com/UspsToolsRestServices/rest/POLocator/findLocations", "@spider": "usps_collection_boxes", "addr:city": "HYSHAM", "addr:country": "US", "addr:postcode": "59038", "addr:state": "MT", "addr:street_address": "118 SPURLING ST", "amenity": "post_box", "collection_times": "Mo-Fr 15:00; Sa 09:30", "indoor": "yes", "note": "ON 12/24 AND 12/31, THIS BOX MAY BE COLLECTED AS EARLY AS 12 NOON.", "nsi_id": "unitedstatespostalservice-a77078", "operator": "United States Postal Service", "operator:short": "USPS", "operator:type": "public", "operator:wikidata": "Q668687", "ref": "5903800003"}, "type": "Feature"}
{"geometry": {"coordinates": [-107.233782, 46.292921], "type": "Point"}, "id": "VXsdpQxnhR7HMyQjWa21nfgZ_BA=", "properties": {"@source_uri": "https://tools.usps.com/UspsToolsRestServices/rest/POLocator/findLocations", "@spider": "usps_collection_boxes", "addr:city": "HYSHAM", "addr:country": "US", "addr:postcode": "59038", "addr:state": "MT", "addr:street_address": "118 SPURLING ST", "amenity": "post_box", "collection_times": "Mo-Fr 15:00; Sa 09:30", "indoor": "yes", "note": "ON 12/24 AND 12/31, THIS BOX MAY BE COLLECTED AS EARLY AS 12 NOON.", "nsi_id": "unitedstatespostalservice-a77078", "operator": "United States Postal Service", "operator:short": "USPS", "operator:type": "public", "operator:wikidata": "Q668687", "ref": "5903800004"}, "type": "Feature"}
{"geometry": {"coordinates": [-107.3735030238, 46.577308022], "type": "Point"}, "id": "fs_HJO1e4YG68VUjy7EnOHhwRrs=", "properties": {"@source_uri": "https://tools.usps.com/UspsToolsRestServices/rest/POLocator/findLocations", "@spider": "usps_collection_boxes", "addr:city": "INGOMAR", "addr:country": "US", "addr:postcode": "59039", "addr:state": "MT", "addr:street_address": "403 1ST AVE", "amenity": "post_box", "collection_times": "Mo-Fr 14:30; Sa 09:30", "note": "ON 12/24 AND 12/31, THIS BOX MAY BE COLLECTED AS EARLY AS 12 NOON.", "nsi_id": "unitedstatespostalservice-a77078", "operator": "United States Postal Service", "operator:short": "USPS", "operator:type": "public", "operator:wikidata": "Q668687", "ref": "5903900002"}, "type": "Feature"}
{"geometry": {"coordinates": [-108.970659, 45.485319], "type": "Point"}, "id": "8paIDM5jlJGRQo0qZL-AOIPJzak=", "properties": {"@source_uri": "https://tools.usps.com/UspsToolsRestServices/rest/POLocator/findLocations", "@spider": "usps_collection_boxes", "addr:city": "JOLIET", "addr:country": "US", "addr:postcode": "59041", "addr:state": "MT", "addr:street_address": "120 E FRONT AVE", "amenity": "post_box", "collection_times": "Mo-Fr 16:30; Sa 09:00", "note": "ON 12/24 AND 12/31, THIS BOX MAY BE COLLECTED AS EARLY AS 12 NOON.", "nsi_id": "unitedstatespostalservice-a77078", "operator": "United States Postal Service", "operator:short": "USPS", "operator:type": "public", "operator:wikidata": "Q668687", "ref": "5904100000"}, "type": "Feature"}
{"geometry": {"coordinates": [-108.970744, 45.485318], "type": "Point"}, "id": "KaZW_aMrfRv0FkDMOQFKX7hiKV4=", "properties": {"@source_uri": "https://tools.usps.com/UspsToolsRestServices/rest/POLocator/findLocations", "@spider": "usps_collection_boxes", "addr:city": "JOLIET", "addr:country": "US", "addr:postcode": "59041", "addr:state": "MT", "addr:street_address": "120 E FRONT AVE", "amenity": "post_box", "collection_times": "Mo-Fr 16:30; Sa 09:00", "indoor": "yes", "note": "ON 12/24 AND 12/31, THIS BOX MAY BE COLLECTED AS EARLY AS 12 NOON.", "nsi_id": "unitedstatespostalservice-a77078", "operator": "United States Postal Service", "operator:short": "USPS", "operator:type": "public", "operator:wikidata": "Q668687", "ref": "5904100001"}, "type": "Feature"}
{"geometry": {"coordinates": [-108.970744, 45.485318], "type": "Point"}, "id": "XA685jvsH8qW26G05h2E3xa8OG0=", "properties": {"@source_uri": "https://tools.usps.com/UspsToolsRestServices/rest/POLocator/findLocations", "@spider": "usps_collection_boxes", "addr:city": "JOLIET", "addr:country": "US", "addr:postcode": "59041", "addr:state": "MT", "addr:street_address": "120 E FRONT AVE", "amenity": "post_box", "collection_times": "Mo-Fr 16:30; Sa 09:00", "indoor": "yes", "note": "ON 12/24 AND 12/31, THIS BOX MAY BE COLLECTED AS EARLY AS 12 NOON.", "nsi_id": "unitedstatespostalservice-a77078", "operator": "United States Postal Service", "operator:short": "USPS", "operator:type": "public", "operator:wikidata": "Q668687", "ref": "5904100002"}, "type": "Feature"}
{"geometry": {"coordinates": [-108.970744, 45.485318], "type": "Point"}, "id": "mS0n2LvQdA2PiCXQv4bGn2f-P_A=", "properties": {"@source_uri": "https://tools.usps.com/UspsToolsRestServices/rest/POLocator/findLocations", "@spider": "usps_collection_boxes", "addr:city": "JOLIET", "addr:country": "US", "addr:postcode": "59041", "addr:state": "MT", "addr:street_address": "120 E FRONT AVE", "amenity": "post_box", "collection_times": "Mo-Fr 16:30; Sa 09:00", "indoor": "yes", "note": "ON 12/24 AND 12/31, THIS BOX MAY BE COLLECTED AS EARLY AS 12 NOON.", "nsi_id": "unitedstatespostalservice-a77078", "operator": "United States Postal Service", "operator:short": "USPS", "operator:type": "public", "operator:wikidata": "Q668687", "ref": "5904100003"}, "type": "Feature"}
{"geometry": {"coordinates": [-108.970744, 45.485318], "type": "Point"}, "id": "ztGzpzXvUuyfmk1vR_slooO3xco=", "properties": {"@source_uri": "https://tools.usps.com/UspsToolsRestServices/rest/POLocator/findLocations", "@spider": "usps_collection_boxes", "addr:city": "JOLIET", "addr:country": "US", "addr:postcode": "59041", "addr:state": "MT", "addr:street_address": "120 E FRONT AVE", "amenity": "post_box", "collection_times": "Mo-Fr 16:30; Sa 09:00", "indoor": "yes", "note": "ON 12/24 AND 12/31, THIS BOX MAY BE COLLECTED AS EARLY AS 12 NOON.", "nsi_id": "unitedstatespostalservice-a77078", "operator": "United States Postal Service", "operator:short": "USPS", "operator:type": "public", "operator:wikidata": "Q668687", "ref": "5904100004"}, "type": "Feature"}
{"geometry": {"coordinates": [-106.6655419891, 45.6169210028], "type": "Point"}, "id": "8IuU4MJ9dcPsFEPZP0MVyaluYi4=", "properties": {"@source_uri": "https://tools.usps.com/UspsToolsRestServices/rest/POLocator/findLocations", "@spider": "usps_collection_boxes", "addr:city": "LAME DEER", "addr:country": "US", "addr:postcode": "59043", "addr:state": "MT", "addr:street_address": "346 LAME DEER RD", "amenity": "post_box", "collection_times": "Mo-Fr 14:30; Sa 11:15", "note": "ON 12/24 AND 12/31, THIS BOX MAY BE COLLECTED AS EARLY AS 12 NOON.", "nsi_id": "unitedstatespostalservice-a77078", "operator": "United States Postal Service", "operator:short": "USPS", "operator:type": "public", "operator:wikidata": "Q668687", "ref": "5904300000"}, "type": "Feature"}
{"geometry": {"coordinates": [-106.6655419891, 45.6169210028], "type": "Point"}, "id": "p9FUADB-FcDZo81_JBKDScTDuxo=", "properties": {"@source_uri": "https://tools.usps.com/UspsToolsRestServices/rest/POLocator/findLocations", "@spider": "usps_collection_boxes", "addr:city": "LAME DEER", "addr:country": "US", "addr:postcode": "59043", "addr:state": "MT", "addr:street_address": "346 LAME DEER RD", "amenity": "post_box", "collection_times": "Mo-Fr 14:30; Sa 11:15", "indoor": "yes", "note": "ON 12/24 AND 12/31, THIS BOX MAY BE COLLECTED AS EARLY AS 12 NOON.", "nsi_id": "unitedstatespostalservice-a77078", "operator": "United States Postal Service", "operator:short": "USPS", "operator:type": "public", "operator:wikidata": "Q668687", "ref": "5904300001"}, "type": "Feature"}
{"geometry": {"coordinates": [-106.6655419891, 45.6169210028], "type": "Point"}, "id": "A53GbRSjx085NcrYr7qhycqnA3I=", "properties": {"@source_uri": "https://tools.usps.com/UspsToolsRestServices/rest/POLocator/findLocations", "@spider": "usps_collection_boxes", "addr:city": "LAME DEER", "addr:country": "US", "addr:postcode": "59043", "addr:state": "MT", "addr:street_address": "346 LAME DEER RD", "amenity": "post_box", "collection_times": "Mo-Fr 14:30; Sa 11:15", "indoor": "yes", "note": "ON 12/24 AND 12/31, THIS BOX MAY BE COLLECTED AS EARLY AS 12 NOON.", "nsi_id": "unitedstatespostalservice-a77078", "operator": "United States Postal Service", "operator:short": "USPS", "operator:type": "public", "operator:wikidata": "Q668687", "ref": "5904300002"}, "type": "Feature"}
{"geometry": {"coordinates": [-106.6655419891, 45.6169210028], "type": "Point"}, "id": "Qr_dTT80lioAsh3ExdSQTgvsMaM=", "properties": {"@source_uri": "https://tools.usps.com/UspsToolsRestServices/rest/POLocator/findLocations", "@spider": "usps_collection_boxes", "addr:city": "LAME DEER", "addr:country": "US", "addr:postcode": "59043", "addr:state": "MT", "addr:street_address": "346 LAME DEER RD", "amenity": "post_box", "collection_times": "Mo-Fr 14:30; Sa 11:15", "indoor": "yes", "note": "ON 12/24 AND 12/31, THIS BOX MAY BE COLLECTED AS EARLY AS 12 NOON.", "nsi_id": "unitedstatespostalservice-a77078", "operator": "United States Postal Service", "operator:short": "USPS", "operator:type": "public", "operator:wikidata": "Q668687", "ref": "5904300003"}, "type": "Feature"}
{"geometry": {"coordinates": [-106.6655419891, 45.6169210028], "type": "Point"}, "id": "r64hj5aUxgZLYATGXIaIqd9r8n0=", "properties": {"@source_uri": "https://tools.usps.com/UspsToolsRestServices/rest/POLocator/findLocations", "@spider": "usps_collection_boxes", "addr:city": "LAME DEER", "addr:country": "US", "addr:postcode": "59043", "addr:state": "MT", "addr:street_address": "346 LAME DEER RD", "amenity": "post_box", "collection_times": "Mo-Fr 14:30; Sa 11:15", "indoor": "yes", "note": "ON 12/24 AND 12/31, THIS BOX MAY BE COLLECTED AS EARLY AS 12 NOON.", "nsi_id": "unitedstatespostalservice-a77078", "operator": "United States Postal Service", "operator:short": "USPS", "operator:type": "public", "operator:wikidata": "Q668687", "ref": "5904300004"}, "type": "Feature"}
{"geometry": {"coordinates": [-108.771778, 45.674674], "type": "Point"}, "id": "rBltH9lIdg5BksSiYwDkwTWvpZQ=", "properties": {"@source_uri": "https://tools.usps.com/UspsToolsRestServices/rest/POLocator/findLocations", "@spider": "usps_collection_boxes", "addr:city": "LAUREL", "addr:country": "US", "addr:postcode": "59044", "addr:state": "MT", "addr:street_address": "614 1ST AVE", "amenity": "post_box", "collection_times": "Mo-Fr 17:00; Sa 15:00", "note": "ON 12/24 AND 12/31, THIS BOX MAY BE COLLECTED AS EARLY AS 12 NOON.", "nsi_id": "unitedstatespostalservice-a77078", "operator": "United States Postal Service", "operator:short": "USPS", "operator:type": "public", "operator:wikidata": "Q668687", "ref": "5904400000"}, "type": "Feature"}
{"geometry": {"coordinates": [-108.772898, 45.669916], "type": "Point"}, "id": "aIlrAFrMogE5mel9ulpBNLEEXnc=", "properties": {"@source_uri": "https://tools.usps.com/UspsToolsRestServices/rest/POLocator/findLocations", "@spider": "usps_collection_boxes", "addr:city": "LAUREL", "addr:country": "US", "addr:postcode": "59044", "addr:state": "MT", "addr:street_address": "112 W 1ST ST", "amenity": "post_box", "collection_times": "Mo-Sa 14:00", "note": "ON 12/24 AND 12/31, THIS BOX MAY BE COLLECTED AS EARLY AS 12 NOON.", "nsi_id": "unitedstatespostalservice-a77078", "operator": "United States Postal Service", "operator:short": "USPS", "operator:type": "public", "operator:wikidata": "Q668687", "ref": "5904400009"}, "type": "Feature"}
{"geometry": {"coordinates": [-108.771631808, 45.675018], "type": "Point"}, "id": "3O_L1rrPrWTPHidNxm6S_HDTPwg=", "properties": {"@source_uri": "https://tools.usps.com/UspsToolsRestServices/rest/POLocator/findLocations", "@spider": "usps_collection_boxes", "addr:city": "LAUREL", "addr:country": "US", "addr:postcode": "59044", "addr:state": "MT", "addr:street_address": "614 1ST AVE", "amenity": "post_box", "collection_times": "Mo-Fr 17:00; Sa 15:00", "indoor": "yes", "note": "ON 12/24 AND 12/31, THIS BOX MAY BE COLLECTED AS EARLY AS 12 NOON.", "nsi_id": "unitedstatespostalservice-a77078", "operator": "United States Postal Service", "operator:short": "USPS", "operator:type": "public", "operator:wikidata": "Q668687", "ref": "5904400018"}, "type": "Feature"}
{"geometry": {"coordinates": [-108.937909, 46.288266], "type": "Point"}, "id": "94uCWE_tm4ryV_ukFdRs3iP0Ong=", "properties": {"@source_uri": "https://tools.usps.com/UspsToolsRestServices/rest/POLocator/findLocations", "@spider": "usps_collection_boxes", "addr:city": "LAVINA", "addr:country": "US", "addr:postcode": "59046", "addr:state": "MT", "addr:street_address": "2 MAIN ST", "amenity": "post_box", "collection_times": "Mo-Fr 14:15; Sa 09:15", "note": "ON 12/24 AND 12/31, THIS BOX MAY BE COLLECTED AS EARLY AS 12 NOON.", "nsi_id": "unitedstatespostalservice-a77078", "operator": "United States Postal Service", "operator:short": "USPS", "operator:type": "public", "operator:wikidata": "Q668687", "ref": "5904600001"}, "type": "Feature"}
{"geometry": {"coordinates": [-108.937909, 46.288266], "type": "Point"}, "id": "GsylWg82J4VeTRJZ4duzBiZd6Ic=", "properties": {"@source_uri": "https://tools.usps.com/UspsToolsRestServices/rest/POLocator/findLocations", "@spider": "usps_collection_boxes", "addr:city": "LAVINA", "addr:country": "US", "addr:postcode": "59046", "addr:state": "MT", "addr:street_address": "2 MAIN ST", "amenity": "post_box", "collection_times": "Mo-Fr 14:30; Sa 09:15", "indoor": "yes", "note": "ON 12/24 AND 12/31, THIS BOX MAY BE COLLECTED AS EARLY AS 12 NOON.", "nsi_id": "unitedstatespostalservice-a77078", "operator": "United States Postal Service", "operator:short": "USPS", "operator:type": "public", "operator:wikidata": "Q668687", "ref": "5904600002"}, "type": "Feature"}
{"geometry": {"coordinates": [-108.937909, 46.288266], "type": "Point"}, "id": "toczsunnCOz3VwJIR6Jx1oJJa90=", "properties": {"@source_uri": "https://tools.usps.com/UspsToolsRestServices/rest/POLocator/findLocations", "@spider": "usps_collection_boxes", "addr:city": "LAVINA", "addr:country": "US", "addr:postcode": "59046", "addr:state": "MT", "addr:street_address": "2 MAIN ST", "amenity": "post_box", "collection_times": "Mo-Fr 14:30; Sa 09:15", "indoor": "yes", "note": "ON 12/24 AND 12/31, THIS BOX MAY BE COLLECTED AS EARLY AS 12 NOON.", "nsi_id": "unitedstatespostalservice-a77078", "operator": "United States Postal Service", "operator:short": "USPS", "operator:type": "public", "operator:wikidata": "Q668687", "ref": "5904600003"}, "type": "Feature"}
{"geometry": {"coordinates": [-108.937909, 46.288266], "type": "Point"}, "id": "IM92oriBaCDJ1atdzcEAbOKDOd0=", "properties": {"@source_uri": "https://tools.usps.com/UspsToolsRestServices/rest/POLocator/findLocations", "@spider": "usps_collection_boxes", "addr:city": "LAVINA", "addr:country": "US", "addr:postcode": "59046", "addr:state": "MT", "addr:street_address": "2 MAIN ST", "amenity": "post_box", "collection_times": "Mo-Fr 14:30; Sa 09:15", "indoor": "yes", "note": "ON 12/24 AND 12/31, THIS BOX MAY BE COLLECTED AS EARLY AS 12 NOON.", "nsi_id": "unitedstatespostalservice-a77078", "operator": "United States Postal Service", "operator:short": "USPS", "operator:type": "public", "operator:wikidata": "Q668687", "ref": "5904600004"}, "type": "Feature"}
{"geometry": {"coordinates": [-108.937909, 46.288266], "type": "Point"}, "id": "ok3WbHmzKs7wXQ9SJizcy0WQvlg=", "properties": {"@source_uri": "https://tools.usps.com/UspsToolsRestServices/rest/POLocator/findLocations", "@spider": "usps_collection_boxes", "addr:city": "LAVINA", "addr:country": "US", "addr:postcode": "59046", "addr:state": "MT", "addr:street_address": "2 MAIN ST", "amenity": "post_box", "collection_times": "Mo-Fr 14:30; Sa 09:15", "indoor": "yes", "note": "ON 12/24 AND 12/31, THIS BOX MAY BE COLLECTED AS EARLY AS 12 NOON.", "nsi_id": "unitedstatespostalservice-a77078", "operator": "United States Postal Service", "operator:short": "USPS", "operator:type": "public", "operator:wikidata": "Q668687", "ref": "5904600005"}, "type": "Feature"}
{"geometry": {"coordinates": [-110.561442887, 45.661004508], "type": "Point"}, "id": "LCaQZQJmINOD_qICceUn8nLK8Bg=", "properties": {"@source_uri": "https://tools.usps.com/UspsToolsRestServices/rest/POLocator/findLocations", "@spider": "usps_collection_boxes", "addr:city": "LIVINGSTON", "addr:country": "US", "addr:postcode": "59047", "addr:state": "MT", "addr:street_address": "105 N 2ND ST", "amenity": "post_box", "collection_times": "Mo-Fr 17:00; Sa 12:30", "note": "ON 12/24 AND 12/31, THIS BOX MAY BE COLLECTED AS EARLY AS 12 NOON.", "nsi_id": "unitedstatespostalservice-a77078", "operator": "United States Postal Service", "operator:short": "USPS", "operator:type": "public", "operator:wikidata": "Q668687", "ref": "5904700002"}, "type": "Feature"}
{"geometry": {"coordinates": [-110.561442887, 45.661004508], "type": "Point"}, "id": "aLGrYE-5N0i_jY62pjvWLaLkH0c=", "properties": {"@source_uri": "https://tools.usps.com/UspsToolsRestServices/rest/POLocator/findLocations", "@spider": "usps_collection_boxes", "addr:city": "LIVINGSTON", "addr:country": "US", "addr:postcode": "59047", "addr:state": "MT", "addr:street_address": "105 N 2ND ST", "amenity": "post_box", "collection_times": "Mo-Fr 17:00; Sa 12:30", "note": "ON 12/24 AND 12/31, THIS BOX MAY BE COLLECTED AS EARLY AS 12 NOON.", "nsi_id": "unitedstatespostalservice-a77078", "operator": "United States Postal Service", "operator:short": "USPS", "operator:type": "public", "operator:wikidata": "Q668687", "ref": "5904700015"}, "type": "Feature"}
{"geometry": {"coordinates": [-110.576351, 45.656131], "type": "Point"}, "id": "POu4HeoWpg5dfGZelzlhP5m2Ln4=", "properties": {"@source_uri": "https://tools.usps.com/UspsToolsRestServices/rest/POLocator/findLocations", "@spider": "usps_collection_boxes", "addr:city": "LIVINGSTON", "addr:country": "US", "addr:postcode": "59047", "addr:state": "MT", "addr:street_address": "230 JEFFERSON ST", "amenity": "post_box", "collection_times": "Mo-Fr 17:20; Sa 16:00", "note": "ON 12/24 AND 12/31, THIS BOX MAY BE COLLECTED AS EARLY AS 12 NOON.", "nsi_id": "unitedstatespostalservice-a77078", "operator": "United States Postal Service", "operator:short": "USPS", "operator:type": "public", "operator:wikidata": "Q668687", "ref": "5904700019"}, "type": "Feature"}
{"geometry": {"coordinates": [-110.561442887, 45.661004508], "type": "Point"}, "id": "OtEtM0xLdmfRtJTqrBkiGvIIum4=", "properties": {"@source_uri": "https://tools.usps.com/UspsToolsRestServices/rest/POLocator/findLocations", "@spider": "usps_collection_boxes", "addr:city": "LIVINGSTON", "addr:country": "US", "addr:postcode": "59047", "addr:state": "MT", "addr:street_address": "105 N 2ND ST", "amenity": "post_box", "collection_times": "Mo-Fr 17:00; Sa 12:30", "indoor": "yes", "note": "ON 12/24 AND 12/31, THIS BOX MAY BE COLLECTED AS EARLY AS 12 NOON.", "nsi_id": "unitedstatespostalservice-a77078", "operator": "United States Postal Service", "operator:short": "USPS", "operator:type": "public", "operator:wikidata": "Q668687", "ref": "5904700022"}, "type": "Feature"}
{"geometry": {"coordinates": [-110.575334, 45.642562], "type": "Point"}, "id": "TiczGDoRFqH2mFUuHDWC2v762_g=", "properties": {"@source_uri": "https://tools.usps.com/UspsToolsRestServices/rest/POLocator/findLocations", "@spider": "usps_collection_boxes", "addr:city": "LIVINGSTON", "addr:country": "US", "addr:postcode": "59047", "addr:state": "MT", "addr:street_address": "2120 PARK ST S", "amenity": "post_box", "collection_times": "Mo-Sa 08:30", "nsi_id": "unitedstatespostalservice-a77078", "operator": "United States Postal Service", "operator:short": "USPS", "operator:type": "public", "operator:wikidata": "Q668687", "ref": "5904700023"}, "type": "Feature"}
{"geometry": {"coordinates": [-110.561442887, 45.661004508], "type": "Point"}, "id": "H7c6CJbQyF3w7TORgnAFk5MxMJY=", "properties": {"@source_uri": "https://tools.usps.com/UspsToolsRestServices/rest/POLocator/findLocations", "@spider": "usps_collection_boxes", "addr:city": "LIVINGSTON", "addr:country": "US", "addr:postcode": "59047", "addr:state": "MT", "addr:street_address": "105 N 2ND ST", "amenity": "post_box", "collection_times": "Mo-Fr 17:00; Sa 12:30", "indoor": "yes", "note": "ON 12/24 AND 12/31, THIS BOX MAY BE COLLECTED AS EARLY AS 12 NOON.", "nsi_id": "unitedstatespostalservice-a77078", "operator": "United States Postal Service", "operator:short": "USPS", "operator:type": "public", "operator:wikidata": "Q668687", "ref": "5904700025"}, "type": "Feature"}
{"geometry": {"coordinates": [-110.561442887, 45.661004508], "type": "Point"}, "id": "zPT0IlBTwvQsG0OlfP8FsoESG-0=", "properties": {"@source_uri": "https://tools.usps.com/UspsToolsRestServices/rest/POLocator/findLocations", "@spider": "usps_collection_boxes", "addr:city": "LIVINGSTON", "addr:country": "US", "addr:postcode": "59047", "addr:state": "MT", "addr:street_address": "105 N 2ND ST", "amenity": "post_box", "collection_times": "Mo-Fr 17:00; Sa 12:30", "indoor": "yes", "note": "ON 12/24 AND 12/31, THIS BOX MAY BE COLLECTED AS EARLY AS 12 NOON.", "nsi_id": "unitedstatespostalservice-a77078", "operator": "United States Postal Service", "operator:short": "USPS", "operator:type": "public", "operator:wikidata": "Q668687", "ref": "5904700026"}, "type": "Feature"}
{"geometry": {"coordinates": [-110.572898, 45.655055], "type": "Point"}, "id": "V5iXYE5m2-lZ7tWZTdMCD1cv7so=", "properties": {"@source_uri": "https://tools.usps.com/UspsToolsRestServices/rest/POLocator/findLocations", "@spider": "usps_collection_boxes", "addr:city": "LIVINGSTON", "addr:country": "US", "addr:postcode": "59047", "addr:state": "MT", "addr:street_address": "1106 W PARK ST", "amenity": "post_box", "collection_times": "Mo-Fr 15:00; Sa 14:00", "note": "ON 12/24 AND 12/31, THIS BOX MAY BE COLLECTED AS EARLY AS 12 NOON.", "nsi_id": "unitedstatespostalservice-a77078", "operator": "United States Postal Service", "operator:short": "USPS", "operator:type": "public", "operator:wikidata": "Q668687", "ref": "5904700027"}, "type": "Feature"}
{"geometry": {"coordinates": [-110.561442887, 45.661004508], "type": "Point"}, "id": "x8CvCVcG9dLDwOLZSSzh1ZwQRBw=", "properties": {"@source_uri": "https://tools.usps.com/UspsToolsRestServices/rest/POLocator/findLocations", "@spider": "usps_collection_boxes", "addr:city": "LIVINGSTON", "addr:country": "US", "addr:postcode": "59047", "addr:state": "MT", "addr:street_address": "105 N 2ND ST", "amenity": "post_box", "collection_times": "Mo-Fr 17:00; Sa 12:30", "indoor": "yes", "note": "ON 12/24 AND 12/31, THIS BOX MAY BE COLLECTED AS EARLY AS 12 NOON.", "nsi_id": "unitedstatespostalservice-a77078", "operator": "United States Postal Service", "operator:short": "USPS", "operator:type": "public", "operator:wikidata": "Q668687", "ref": "5904700028"}, "type": "Feature"}
{"geometry": {"coordinates": [-110.561442887, 45.661004508], "type": "Point"}, "id": "9nc8KIKWxHZOtQgVpKPmDrPQdK0=", "properties": {"@source_uri": "https://tools.usps.com/UspsToolsRestServices/rest/POLocator/findLocations", "@spider": "usps_collection_boxes", "addr:city": "LIVINGSTON", "addr:country": "US", "addr:postcode": "59047", "addr:state": "MT", "addr:street_address": "105 N 2ND ST", "amenity": "post_box", "collection_times": "Mo-Fr 17:00; Sa 12:30", "indoor": "yes", "note": "ON 12/24 AND 12/31, THIS BOX MAY BE COLLECTED AS EARLY AS 12 NOON.", "nsi_id": "unitedstatespostalservice-a77078", "operator": "United States Postal Service", "operator:short": "USPS", "operator:type": "public", "operator:wikidata": "Q668687", "ref": "5904700029"}, "type": "Feature"}
{"geometry": {"coordinates": [-110.561442887, 45.661004508], "type": "Point"}, "id": "zkfe2MSbS7m09VJvoqrkjqUNRtc=", "properties": {"@source_uri": "https://tools.usps.com/UspsToolsRestServices/rest/POLocator/findLocations", "@spider": "usps_collection_boxes", "addr:city": "LIVINGSTON", "addr:country": "US", "addr:postcode": "59047", "addr:state": "MT", "addr:street_address": "105 N 2ND ST", "amenity": "post_box", "collection_times": "Mo-Fr 17:00; Sa 12:30", "indoor": "yes", "note": "ON 12/24 AND 12/31, THIS BOX MAY BE COLLECTED AS EARLY AS 12 NOON.", "nsi_id": "unitedstatespostalservice-a77078", "operator": "United States Postal Service", "operator:short": "USPS", "operator:type": "public", "operator:wikidata": "Q668687", "ref": "5904700030"}, "type": "Feature"}
{"geometry": {"coordinates": [-107.363392535, 45.313234324], "type": "Point"}, "id": "RTmNWKxM6-4JO7Tfez6WgzZYqE4=", "properties": {"@source_uri": "https://tools.usps.com/UspsToolsRestServices/rest/POLocator/findLocations", "@spider": "usps_collection_boxes", "addr:city": "LODGE GRASS", "addr:country": "US", "addr:postcode": "59050", "addr:state": "MT", "addr:street_address": "14 S MAIN ST", "amenity": "post_box", "collection_times": "Mo-Fr 14:30; Sa 09:30", "indoor": "yes", "note": "ON 12/24 AND 12/31, THIS BOX MAY BE COLLECTED AS EARLY AS 12 NOON.", "nsi_id": "unitedstatespostalservice-a77078", "operator": "United States Postal Service", "operator:short": "USPS", "operator:type": "public", "operator:wikidata": "Q668687", "ref": "5905000000"}, "type": "Feature"}
{"geometry": {"coordinates": [-107.3636410327, 45.3133809824], "type": "Point"}, "id": "iSxlTeCvhMDuly4HXrkiFMGPE5M=", "properties": {"@source_uri": "https://tools.usps.com/UspsToolsRestServices/rest/POLocator/findLocations", "@spider": "usps_collection_boxes", "addr:city": "LODGE GRASS", "addr:country": "US", "addr:postcode": "59050", "addr:state": "MT", "addr:street_address": "14 S MAIN ST", "amenity": "post_box", "collection_times": "Mo-Sa 17:30", "note": "ON 12/24 AND 12/31, THIS BOX MAY BE COLLECTED AS EARLY AS 12 NOON.", "nsi_id": "unitedstatespostalservice-a77078", "operator": "United States Postal Service", "operator:short": "USPS", "operator:type": "public", "operator:wikidata": "Q668687", "ref": "5905000001"}, "type": "Feature"}
{"geometry": {"coordinates": [-110.119595, 45.662644], "type": "Point"}, "id": "bzxiqV_5xf6GicvzU8WyrUGPTMg=", "properties": {"@source_uri": "https://tools.usps.com/UspsToolsRestServices/rest/POLocator/findLocations", "@spider": "usps_collection_boxes", "addr:city": "MCLEOD", "addr:country": "US", "addr:postcode": "59052", "addr:state": "MT", "addr:street_address": "18 MCLEOD MAIN ST", "amenity": "post_box", "collection_times": "Mo-Sa 10:00", "nsi_id": "unitedstatespostalservice-a77078", "operator": "United States Postal Service", "operator:short": "USPS", "operator:type": "public", "operator:wikidata": "Q668687", "ref": "5905200000"}, "type": "Feature"}
{"geometry": {"coordinates": [-110.119595, 45.662644], "type": "Point"}, "id": "8ZxK4hs_Xs6vCxecmwMPFT9ZLC0=", "properties": {"@source_uri": "https://tools.usps.com/UspsToolsRestServices/rest/POLocator/findLocations", "@spider": "usps_collection_boxes", "addr:city": "MCLEOD", "addr:country": "US", "addr:postcode": "59052", "addr:state": "MT", "addr:street_address": "18 MCLEOD MAIN ST", "amenity": "post_box", "collection_times": "Mo-Sa 10:30", "indoor": "yes", "nsi_id": "unitedstatespostalservice-a77078", "operator": "United States Postal Service", "operator:short": "USPS", "operator:type": "public", "operator:wikidata": "Q668687", "ref": "5905200001"}, "type": "Feature"}
{"geometry": {"coordinates": [-110.313859, 46.456197], "type": "Point"}, "id": "CWSIDe8CeHCLj-TEKuHHKPuOrq4=", "properties": {"@source_uri": "https://tools.usps.com/UspsToolsRestServices/rest/POLocator/findLocations", "@spider": "usps_collection_boxes", "addr:city": "MARTINSDALE", "addr:country": "US", "addr:postcode": "59053", "addr:state": "MT", "addr:street_address": "202 MAIN ST", "amenity": "post_box", "collection_times": "Mo-Fr 14:45; Sa 10:15", "note": "ON 12/24 AND 12/31, THIS BOX MAY BE COLLECTED AS EARLY AS 12 NOON.", "nsi_id": "unitedstatespostalservice-a77078", "operator": "United States Postal Service", "operator:short": "USPS", "operator:type": "public", "operator:wikidata": "Q668687", "ref": "5905300000"}, "type": "Feature"}
{"geometry": {"coordinates": [-110.313859, 46.456197], "type": "Point"}, "id": "LKxbeEqQjDORuwYyXAKraliDb4o=", "properties": {"@source_uri": "https://tools.usps.com/UspsToolsRestServices/rest/POLocator/findLocations", "@spider": "usps_collection_boxes", "addr:city": "MARTINSDALE", "addr:country": "US", "addr:postcode": "59053", "addr:state": "MT", "addr:street_address": "202 MAIN ST", "amenity": "post_box", "collection_times": "Mo-Fr 14:45; Sa 10:15", "indoor": "yes", "note": "ON 12/24 AND 12/31, THIS BOX MAY BE COLLECTED AS EARLY AS 12 NOON.", "nsi_id": "unitedstatespostalservice-a77078", "operator": "United States Postal Service", "operator:short": "USPS", "operator:type": "public", "operator:wikidata": "Q668687", "ref": "5905300002"}, "type": "Feature"}
{"geometry": {"coordinates": [-110.313859, 46.456197], "type": "Point"}, "id": "rN3if3cZGvfrWe4HZOUPrKtnfhs=", "properties": {"@source_uri": "https://tools.usps.com/UspsToolsRestServices/rest/POLocator/findLocations", "@spider": "usps_collection_boxes", "addr:city": "MARTINSDALE", "addr:country": "US", "addr:postcode": "59053", "addr:state": "MT", "addr:street_address": "202 MAIN ST", "amenity": "post_box", "collection_times": "Mo-Fr 14:45; Sa 10:15", "indoor": "yes", "note": "ON 12/24 AND 12/31, THIS BOX MAY BE COLLECTED AS EARLY AS 12 NOON.", "nsi_id": "unitedstatespostalservice-a77078", "operator": "United States Postal Service", "operator:short": "USPS", "operator:type": "public", "operator:wikidata": "Q668687", "ref": "5905300003"}, "type": "Feature"}
{"geometry": {"coordinates": [-107.86908, 46.597651], "type": "Point"}, "id": "xAxf8DU7Vrs1HWplF29VVXWW4P8=", "properties": {"@source_uri": "https://tools.usps.com/UspsToolsRestServices/rest/POLocator/findLocations", "@spider": "usps_collection_boxes", "addr:city": "MELSTONE", "addr:country": "US", "addr:postcode": "59054", "addr:state": "MT", "addr:street_address": "310 1ST ST W", "amenity": "post_box", "collection_times": "Mo-Fr 14:45; Sa 09:00", "note": "ON 12/24 AND 12/31, THIS BOX MAY BE COLLECTED AS EARLY AS 12 NOON.", "nsi_id": "unitedstatespostalservice-a77078", "operator": "United States Postal Service", "operator:short": "USPS", "operator:type": "public", "operator:wikidata": "Q668687", "ref": "5905400000"}, "type": "Feature"}
{"geometry": {"coordinates": [-107.869119, 46.597579], "type": "Point"}, "id": "FNT9vYBbkZoB6wyUHCtmS_b7e_w=", "properties": {"@source_uri": "https://tools.usps.com/UspsToolsRestServices/rest/POLocator/findLocations", "@spider": "usps_collection_boxes", "addr:city": "MELSTONE", "addr:country": "US", "addr:postcode": "59054", "addr:state": "MT", "addr:street_address": "310 1ST ST W", "amenity": "post_box", "collection_times": "Mo-Fr 15:00; Sa 09:00", "indoor": "yes", "note": "ON 12/24 AND 12/31, THIS BOX MAY BE COLLECTED AS EARLY AS 12 NOON.", "nsi_id": "unitedstatespostalservice-a77078", "operator": "United States Postal Service", "operator:short": "USPS", "operator:type": "public", "operator:wikidata": "Q668687", "ref": "5905400001"}, "type": "Feature"}
{"geometry": {"coordinates": [-107.869119, 46.597579], "type": "Point"}, "id": "jG_2oNirDCoXeM6F92Iy56llXkM=", "properties": {"@source_uri": "https://tools.usps.com/UspsToolsRestServices/rest/POLocator/findLocations", "@spider": "usps_collection_boxes", "addr:city": "MELSTONE", "addr:country": "US", "addr:postcode": "59054", "addr:state": "MT", "addr:street_address": "310 1ST ST W", "amenity": "post_box", "collection_times": "Mo-Fr 15:00; Sa 09:00", "indoor": "yes", "note": "ON 12/24 AND 12/31, THIS BOX MAY BE COLLECTED AS EARLY AS 12 NOON.", "nsi_id": "unitedstatespostalservice-a77078", "operator": "United States Postal Service", "operator:short": "USPS", "operator:type": "public", "operator:wikidata": "Q668687", "ref": "5905400002"}, "type": "Feature"}
{"geometry": {"coordinates": [-110.0489952, 46.0742627], "type": "Point"}, "id": "ZHy9lSl96RDGX-6MXtu3vlKFKFQ=", "properties": {"@source_uri": "https://tools.usps.com/UspsToolsRestServices/rest/POLocator/findLocations", "@spider": "usps_collection_boxes", "addr:city": "MELVILLE", "addr:country": "US", "addr:postcode": "59055", "addr:state": "MT", "addr:street_address": "7 JABS RD", "amenity": "post_box", "collection_times": "Mo-Sa 11:15", "nsi_id": "unitedstatespostalservice-a77078", "operator": "United States Postal Service", "operator:short": "USPS", "operator:type": "public", "operator:wikidata": "Q668687", "ref": "5905500003"}, "type": "Feature"}
{"geometry": {"coordinates": [-108.927946, 45.861498], "type": "Point"}, "id": "uPSds8qLu_jq5SliF7arNo4Daz0=", "properties": {"@source_uri": "https://tools.usps.com/UspsToolsRestServices/rest/POLocator/findLocations", "@spider": "usps_collection_boxes", "addr:city": "MOLT", "addr:country": "US", "addr:postcode": "59057", "addr:state": "MT", "addr:street_address": "118 WOLFSKILL AVE", "amenity": "post_box", "collection_times": "Mo-Fr 13:45; Sa 10:15", "note": "ON 12/24 AND 12/31, THIS BOX MAY BE COLLECTED AS EARLY AS 12 NOON.", "nsi_id": "unitedstatespostalservice-a77078", "operator": "United States Postal Service", "operator:short": "USPS", "operator:type": "public", "operator:wikidata": "Q668687", "ref": "5905700000"}, "type": "Feature"}
{"geometry": {"coordinates": [-108.927049, 45.861814], "type": "Point"}, "id": "G6b0aUhlcK7LLFf1y19Eba0bThk=", "properties": {"@source_uri": "https://tools.usps.com/UspsToolsRestServices/rest/POLocator/findLocations", "@spider": "usps_collection_boxes", "addr:city": "MOLT", "addr:country": "US", "addr:postcode": "59057", "addr:state": "MT", "addr:street_address": "118 WOLFSKILL AVE", "amenity": "post_box", "collection_times": "Mo-Fr 14:00; Sa 10:30", "indoor": "yes", "note": "ON 12/24 AND 12/31, THIS BOX MAY BE COLLECTED AS EARLY AS 12 NOON.", "nsi_id": "unitedstatespostalservice-a77078", "operator": "United States Postal Service", "operator:short": "USPS", "operator:type": "public", "operator:wikidata": "Q668687", "ref": "5905700001"}, "type": "Feature"}
{"geometry": {"coordinates": [-108.927049, 45.861814], "type": "Point"}, "id": "R-ZfhSi0a9oJwijg0pQqe16cbK8=", "properties": {"@source_uri": "https://tools.usps.com/UspsToolsRestServices/rest/POLocator/findLocations", "@spider": "usps_collection_boxes", "addr:city": "MOLT", "addr:country": "US", "addr:postcode": "59057", "addr:state": "MT", "addr:street_address": "118 WOLFSKILL AVE", "amenity": "post_box", "collection_times": "Mo-Fr 14:00; Sa 10:30", "indoor": "yes", "note": "ON 12/24 AND 12/31, THIS BOX MAY BE COLLECTED AS EARLY AS 12 NOON.", "nsi_id": "unitedstatespostalservice-a77078", "operator": "United States Postal Service", "operator:short": "USPS", "operator:type": "public", "operator:wikidata": "Q668687", "ref": "5905700002"}, "type": "Feature"}
{"geometry": {"coordinates": [-108.092654, 46.525762], "type": "Point"}, "id": "Zz5B-_WY-WbENMf_WG-D6IGxNT0=", "properties": {"@source_uri": "https://tools.usps.com/UspsToolsRestServices/rest/POLocator/findLocations", "@spider": "usps_collection_boxes", "addr:city": "MUSSELSHELL", "addr:country": "US", "addr:postcode": "59059", "addr:state": "MT", "addr:street_address": "17 S MUSSELSHELL RD", "amenity": "post_box", "collection_times": "Mo-Fr 12:00; Sa 11:00", "indoor": "yes", "nsi_id": "unitedstatespostalservice-a77078", "operator": "United States Postal Service", "operator:short": "USPS", "operator:type": "public", "operator:wikidata": "Q668687", "ref": "5905900001"}, "type": "Feature"}
{"geometry": {"coordinates": [-106.109018, 45.080406], "type": "Point"}, "id": "Fw0RSCGt8OFPOsAoBMfmaVmMy-Y=", "properties": {"@source_uri": "https://tools.usps.com/UspsToolsRestServices/rest/POLocator/findLocations", "@spider": "usps_collection_boxes", "addr:city": "OTTER", "addr:country": "US", "addr:postcode": "59062", "addr:state": "MT", "addr:street_address": "268 OTTER CREEK RD", "amenity": "post_box", "collection_times": "Mo-Sa 10:45", "nsi_id": "unitedstatespostalservice-a77078", "operator": "United States Postal Service", "operator:short": "USPS", "operator:type": "public", "operator:wikidata": "Q668687", "ref": "5906200000"}, "type": "Feature"}
{"geometry": {"coordinates": [-106.109018, 45.080406], "type": "Point"}, "id": "xraCDO-RJG-dzyUMMEPiJTv8Y4E=", "properties": {"@source_uri": "https://tools.usps.com/UspsToolsRestServices/rest/POLocator/findLocations", "@spider": "usps_collection_boxes", "addr:city": "OTTER", "addr:country": "US", "addr:postcode": "59062", "addr:state": "MT", "addr:street_address": "268 OTTER CREEK RD", "amenity": "post_box", "collection_times": "Mo-Sa 10:45", "indoor": "yes", "nsi_id": "unitedstatespostalservice-a77078", "operator": "United States Postal Service", "operator:short": "USPS", "operator:type": "public", "operator:wikidata": "Q668687", "ref": "5906200001"}, "type": "Feature"}
{"geometry": {"coordinates": [-108.916156, 45.631445], "type": "Point"}, "id": "q7gNpi5Ls9r54kN-6HPQKOIDTnA=", "properties": {"@source_uri": "https://tools.usps.com/UspsToolsRestServices/rest/POLocator/findLocations", "@spider": "usps_collection_boxes", "addr:city": "PARK CITY", "addr:country": "US", "addr:postcode": "59063", "addr:state": "MT", "addr:street_address": "6 1ST AVE SW", "amenity": "post_box", "collection_times": "Mo-Fr 16:30; Sa 09:00", "indoor": "yes", "note": "ON 12/24 AND 12/31, THIS BOX MAY BE COLLECTED AS EARLY AS 12 NOON.", "nsi_id": "unitedstatespostalservice-a77078", "operator": "United States Postal Service", "operator:short": "USPS", "operator:type": "public", "operator:wikidata": "Q668687", "ref": "5906300001"}, "type": "Feature"}
{"geometry": {"coordinates": [-108.916056, 45.631496], "type": "Point"}, "id": "QwZkKHEmnBCZnOmvV5jUjoO3e2E=", "properties": {"@source_uri": "https://tools.usps.com/UspsToolsRestServices/rest/POLocator/findLocations", "@spider": "usps_collection_boxes", "addr:city": "PARK CITY", "addr:country": "US", "addr:postcode": "59063", "addr:state": "MT", "addr:street_address": "6 1ST AVE SW", "amenity": "post_box", "collection_times": "Mo-Fr 16:30; Sa 09:00", "indoor": "yes", "note": "ON 12/24 AND 12/31, THIS BOX MAY BE COLLECTED AS EARLY AS 12 NOON.", "nsi_id": "unitedstatespostalservice-a77078", "operator": "United States Postal Service", "operator:short": "USPS", "operator:type": "public", "operator:wikidata": "Q668687", "ref": "5906300002"}, "type": "Feature"}
{"geometry": {"coordinates": [-107.952414, 45.991297], "type": "Point"}, "id": "MqEDxIj7Hy1ZAe4_DUwqanw1KyE=", "properties": {"@source_uri": "https://tools.usps.com/UspsToolsRestServices/rest/POLocator/findLocations", "@spider": "usps_collection_boxes", "addr:city": "POMPEYS PILLAR", "addr:country": "US", "addr:postcode": "59064", "addr:state": "MT", "addr:street_address": "3519 2ND ST S", "amenity": "post_box", "collection_times": "Mo-Fr 10:45; Sa 08:30", "nsi_id": "unitedstatespostalservice-a77078", "operator": "United States Postal Service", "operator:short": "USPS", "operator:type": "public", "operator:wikidata": "Q668687", "ref": "5906400000"}, "type": "Feature"}
{"geometry": {"coordinates": [-107.952525, 45.991269], "type": "Point"}, "id": "neRKly7RqLzVEw5YSZs25rNQqrE=", "properties": {"@source_uri": "https://tools.usps.com/UspsToolsRestServices/rest/POLocator/findLocations", "@spider": "usps_collection_boxes", "addr:city": "POMPEYS PILLAR", "addr:country": "US", "addr:postcode": "59064", "addr:state": "MT", "addr:street_address": "3519 2ND ST S", "amenity": "post_box", "collection_times": "Mo-Fr 11:00; Sa 08:45", "indoor": "yes", "nsi_id": "unitedstatespostalservice-a77078", "operator": "United States Postal Service", "operator:short": "USPS", "operator:type": "public", "operator:wikidata": "Q668687", "ref": "5906400001"}, "type": "Feature"}
{"geometry": {"coordinates": [-110.6806182818, 45.3800157296], "type": "Point"}, "id": "eK5XNTmDcQxi7AT60Pa0zNemK_A=", "properties": {"@source_uri": "https://tools.usps.com/UspsToolsRestServices/rest/POLocator/findLocations", "@spider": "usps_collection_boxes", "addr:city": "PRAY", "addr:country": "US", "addr:postcode": "59065", "addr:state": "MT", "addr:street_address": "8 PRAY RD", "amenity": "post_box", "collection_times": "Mo-Fr 12:00; Sa 09:20", "nsi_id": "unitedstatespostalservice-a77078", "operator": "United States Postal Service", "operator:short": "USPS", "operator:type": "public", "operator:wikidata": "Q668687", "ref": "5906500000"}, "type": "Feature"}
{"geometry": {"coordinates": [-110.680033, 45.380209], "type": "Point"}, "id": "BllBcOYrdQ86BjvAXV49JGJQNKQ=", "properties": {"@source_uri": "https://tools.usps.com/UspsToolsRestServices/rest/POLocator/findLocations", "@spider": "usps_collection_boxes", "addr:city": "PRAY", "addr:country": "US", "addr:postcode": "59065", "addr:state": "MT", "addr:street_address": "8 PRAY RD", "amenity": "post_box", "collection_times": "Mo-Fr 12:00; Sa 09:20", "indoor": "yes", "nsi_id": "unitedstatespostalservice-a77078", "operator": "United States Postal Service", "operator:short": "USPS", "operator:type": "public", "operator:wikidata": "Q668687", "ref": "5906500001"}, "type": "Feature"}
{"geometry": {"coordinates": [-110.680033, 45.380209], "type": "Point"}, "id": "jiOvNrb1hsgGbKz2CVeba9CEraY=", "properties": {"@source_uri": "https://tools.usps.com/UspsToolsRestServices/rest/POLocator/findLocations", "@spider": "usps_collection_boxes", "addr:city": "PRAY", "addr:country": "US", "addr:postcode": "59065", "addr:state": "MT", "addr:street_address": "8 PRAY RD", "amenity": "post_box", "collection_times": "Mo-Fr 12:00; Sa 09:20", "indoor": "yes", "nsi_id": "unitedstatespostalservice-a77078", "operator": "United States Postal Service", "operator:short": "USPS", "operator:type": "public", "operator:wikidata": "Q668687", "ref": "5906500002"}, "type": "Feature"}
{"geometry": {"coordinates": [-108.533889451, 45.4290272077], "type": "Point"}, "id": "bZRGOWjF46cQFfWxGyG-orDco9s=", "properties": {"@source_uri": "https://tools.usps.com/UspsToolsRestServices/rest/POLocator/findLocations", "@spider": "usps_collection_boxes", "addr:city": "PRYOR", "addr:country": "US", "addr:postcode": "59066", "addr:state": "MT", "addr:street_address": "130 MAKPUA AVE", "amenity": "post_box", "collection_times": "Mo-Fr 11:45; Sa 10:15", "nsi_id": "unitedstatespostalservice-a77078", "operator": "United States Postal Service", "operator:short": "USPS", "operator:type": "public", "operator:wikidata": "Q668687", "ref": "5906600000"}, "type": "Feature"}
{"geometry": {"coordinates": [-108.533903, 45.429055], "type": "Point"}, "id": "kagj1JHzGB16hfg5clq31tjCQSw=", "properties": {"@source_uri": "https://tools.usps.com/UspsToolsRestServices/rest/POLocator/findLocations", "@spider": "usps_collection_boxes", "addr:city": "PRYOR", "addr:country": "US", "addr:postcode": "59066", "addr:state": "MT", "addr:street_address": "130 MAKPUA AVE", "amenity": "post_box", "collection_times": "Mo-Fr 12:00; Sa 10:15", "indoor": "yes", "nsi_id": "unitedstatespostalservice-a77078", "operator": "United States Postal Service", "operator:short": "USPS", "operator:type": "public", "operator:wikidata": "Q668687", "ref": "5906600001"}, "type": "Feature"}
{"geometry": {"coordinates": [-109.255029, 45.972262], "type": "Point"}, "id": "93lwmSnPUJlMo4MKevK399faxes=", "properties": {"@source_uri": "https://tools.usps.com/UspsToolsRestServices/rest/POLocator/findLocations", "@spider": "usps_collection_boxes", "addr:city": "RAPELJE", "addr:country": "US", "addr:postcode": "59067", "addr:state": "MT", "addr:street_address": "219 4TH ST", "amenity": "post_box", "collection_times": "Mo-Fr 13:30; Sa 11:00", "note": "ON 12/24 AND 12/31, THIS BOX MAY BE COLLECTED AS EARLY AS 12 NOON.", "nsi_id": "unitedstatespostalservice-a77078", "operator": "United States Postal Service", "operator:short": "USPS", "operator:type": "public", "operator:wikidata": "Q668687", "ref": "5906700000"}, "type": "Feature"}
{"geometry": {"coordinates": [-109.254996, 45.972205], "type": "Point"}, "id": "DvhmbNyTGv_YMagy5-A424omx8g=", "properties": {"@source_uri": "https://tools.usps.com/UspsToolsRestServices/rest/POLocator/findLocations", "@spider": "usps_collection_boxes", "addr:city": "RAPELJE", "addr:country": "US", "addr:postcode": "59067", "addr:state": "MT", "addr:street_address": "219 4TH ST", "amenity": "post_box", "collection_times": "Mo-Fr 13:30; Sa 11:00", "indoor": "yes", "note": "ON 12/24 AND 12/31, THIS BOX MAY BE COLLECTED AS EARLY AS 12 NOON.", "nsi_id": "unitedstatespostalservice-a77078", "operator": "United States Postal Service", "operator:short": "USPS", "operator:type": "public", "operator:wikidata": "Q668687", "ref": "5906700001"}, "type": "Feature"}
{"geometry": {"coordinates": [-109.248348, 45.185681], "type": "Point"}, "id": "6EbwuCgYuquQDnZ48PhcfnPr6D8=", "properties": {"@source_uri": "https://tools.usps.com/UspsToolsRestServices/rest/POLocator/findLocations", "@spider": "usps_collection_boxes", "addr:city": "RED LODGE", "addr:country": "US", "addr:postcode": "59068", "addr:state": "MT", "addr:street_address": "119 S HAUSER AVE", "amenity": "post_box", "collection_times": "Mo-Fr 15:45; Sa 13:30", "note": "ON 12/24 AND 12/31, THIS BOX MAY BE COLLECTED AS EARLY AS 12 NOON.", "nsi_id": "unitedstatespostalservice-a77078", "operator": "United States Postal Service", "operator:short": "USPS", "operator:type": "public", "operator:wikidata": "Q668687", "ref": "5906800000"}, "type": "Feature"}
{"geometry": {"coordinates": [-109.248312, 45.185738], "type": "Point"}, "id": "wNYYMb39teFd4TeVo807R0UAVBA=", "properties": {"@source_uri": "https://tools.usps.com/UspsToolsRestServices/rest/POLocator/findLocations", "@spider": "usps_collection_boxes", "addr:city": "RED LODGE", "addr:country": "US", "addr:postcode": "59068", "addr:state": "MT", "addr:street_address": "119 S HAUSER AVE", "amenity": "post_box", "collection_times": "Mo-Fr 15:45; Sa 13:30", "indoor": "yes", "note": "ON 12/24 AND 12/31, THIS BOX MAY BE COLLECTED AS EARLY AS 12 NOON.", "nsi_id": "unitedstatespostalservice-a77078", "operator": "United States Postal Service", "operator:short": "USPS", "operator:type": "public", "operator:wikidata": "Q668687", "ref": "5906800003"}, "type": "Feature"}
{"geometry": {"coordinates": [-109.248312, 45.185738], "type": "Point"}, "id": "7esakaoCfKFa6yCbEPYENpt8A5k=", "properties": {"@source_uri": "https://tools.usps.com/UspsToolsRestServices/rest/POLocator/findLocations", "@spider": "usps_collection_boxes", "addr:city": "RED LODGE", "addr:country": "US", "addr:postcode": "59068", "addr:state": "MT", "addr:street_address": "119 S HAUSER AVE", "amenity": "post_box", "collection_times": "Mo-Fr 15:45; Sa 13:30", "indoor": "yes", "note": "ON 12/24 AND 12/31, THIS BOX MAY BE COLLECTED AS EARLY AS 12 NOON.", "nsi_id": "unitedstatespostalservice-a77078", "operator": "United States Postal Service", "operator:short": "USPS", "operator:type": "public", "operator:wikidata": "Q668687", "ref": "5906800004"}, "type": "Feature"}
{"geometry": {"coordinates": [-109.248312, 45.185738], "type": "Point"}, "id": "u5II4QZWErb58QuOqWryWz_ReRI=", "properties": {"@source_uri": "https://tools.usps.com/UspsToolsRestServices/rest/POLocator/findLocations", "@spider": "usps_collection_boxes", "addr:city": "RED LODGE", "addr:country": "US", "addr:postcode": "59068", "addr:state": "MT", "addr:street_address": "119 S HAUSER AVE", "amenity": "post_box", "collection_times": "Mo-Fr 15:45; Sa 13:30", "indoor": "yes", "note": "ON 12/24 AND 12/31, THIS BOX MAY BE COLLECTED AS EARLY AS 12 NOON.", "nsi_id": "unitedstatespostalservice-a77078", "operator": "United States Postal Service", "operator:short": "USPS", "operator:type": "public", "operator:wikidata": "Q668687", "ref": "5906800005"}, "type": "Feature"}
{"geometry": {"coordinates": [-109.248312, 45.185738], "type": "Point"}, "id": "tDrmDw5lxI_GDhldJ-CcJI2WIcI=", "properties": {"@source_uri": "https://tools.usps.com/UspsToolsRestServices/rest/POLocator/findLocations", "@spider": "usps_collection_boxes", "addr:city": "RED LODGE", "addr:country": "US", "addr:postcode": "59068", "addr:state": "MT", "addr:street_address": "119 S HAUSER AVE", "amenity": "post_box", "collection_times": "Mo-Fr 15:45; Sa 13:30", "indoor": "yes", "note": "ON 12/24 AND 12/31, THIS BOX MAY BE COLLECTED AS EARLY AS 12 NOON.", "nsi_id": "unitedstatespostalservice-a77078", "operator": "United States Postal Service", "operator:short": "USPS", "operator:type": "public", "operator:wikidata": "Q668687", "ref": "5906800006"}, "type": "Feature"}
{"geometry": {"coordinates": [-109.541841, 45.706725], "type": "Point"}, "id": "9JLSPXAQUpd6bAFYYWpypuxY49M=", "properties": {"@source_uri": "https://tools.usps.com/UspsToolsRestServices/rest/POLocator/findLocations", "@spider": "usps_collection_boxes", "addr:city": "REED POINT", "addr:country": "US", "addr:postcode": "59069", "addr:state": "MT", "addr:street_address": "3 DIVISION ST", "amenity": "post_box", "collection_times": "Mo-Fr 14:30; Sa 09:00", "indoor": "yes", "note": "ON 12/24 AND 12/31, THIS BOX MAY BE COLLECTED AS EARLY AS 12 NOON.", "nsi_id": "unitedstatespostalservice-a77078", "operator": "United States Postal Service", "operator:short": "USPS", "operator:type": "public", "operator:wikidata": "Q668687", "ref": "5906900000"}, "type": "Feature"}
{"geometry": {"coordinates": [-109.541879, 45.706638], "type": "Point"}, "id": "2X_iAuPym96LCrTUjkal17rEaik=", "properties": {"@source_uri": "https://tools.usps.com/UspsToolsRestServices/rest/POLocator/findLocations", "@spider": "usps_collection_boxes", "addr:city": "REED POINT", "addr:country": "US", "addr:postcode": "59069", "addr:state": "MT", "addr:street_address": "3 DIVISION ST", "amenity": "post_box", "collection_times": "Mo-Fr 14:30; Sa 09:00", "indoor": "yes", "note": "ON 12/24 AND 12/31, THIS BOX MAY BE COLLECTED AS EARLY AS 12 NOON.", "nsi_id": "unitedstatespostalservice-a77078", "operator": "United States Postal Service", "operator:short": "USPS", "operator:type": "public", "operator:wikidata": "Q668687", "ref": "5906900001"}, "type": "Feature"}
{"geometry": {"coordinates": [-109.541879, 45.706638], "type": "Point"}, "id": "HzB94wSsqY3xqo_huHDQ5bgC0wo=", "properties": {"@source_uri": "https://tools.usps.com/UspsToolsRestServices/rest/POLocator/findLocations", "@spider": "usps_collection_boxes", "addr:city": "REED POINT", "addr:country": "US", "addr:postcode": "59069", "addr:state": "MT", "addr:street_address": "3 DIVISION ST", "amenity": "post_box", "collection_times": "Mo-Fr 14:15; Sa 09:00", "note": "ON 12/24 AND 12/31, THIS BOX MAY BE COLLECTED AS EARLY AS 12 NOON.", "nsi_id": "unitedstatespostalservice-a77078", "operator": "United States Postal Service", "operator:short": "USPS", "operator:type": "public", "operator:wikidata": "Q668687", "ref": "5906900002"}, "type": "Feature"}
{"geometry": {"coordinates": [-109.167593, 45.358631], "type": "Point"}, "id": "30p1mM0M_JIoe2a5HbThS17KO0A=", "properties": {"@source_uri": "https://tools.usps.com/UspsToolsRestServices/rest/POLocator/findLocations", "@spider": "usps_collection_boxes", "addr:city": "ROBERTS", "addr:country": "US", "addr:postcode": "59070", "addr:state": "MT", "addr:street_address": "1 N 1ST ST", "amenity": "post_box", "collection_times": "Mo-Fr 14:15; Sa 09:45", "note": "ON 12/24 AND 12/31, THIS BOX MAY BE COLLECTED AS EARLY AS 12 NOON.", "nsi_id": "unitedstatespostalservice-a77078", "operator": "United States Postal Service", "operator:short": "USPS", "operator:type": "public", "operator:wikidata": "Q668687", "ref": "5907000000"}, "type": "Feature"}
{"geometry": {"coordinates": [-109.167607, 45.358538], "type": "Point"}, "id": "UaxgV96VCKvogRxeOfNkUe5QUw4=", "properties": {"@source_uri": "https://tools.usps.com/UspsToolsRestServices/rest/POLocator/findLocations", "@spider": "usps_collection_boxes", "addr:city": "ROBERTS", "addr:country": "US", "addr:postcode": "59070", "addr:state": "MT", "addr:street_address": "1 N 1ST ST", "amenity": "post_box", "collection_times": "Mo-Fr 14:30; Sa 08:30", "indoor": "yes", "note": "ON 12/24 AND 12/31, THIS BOX MAY BE COLLECTED AS EARLY AS 12 NOON.", "nsi_id": "unitedstatespostalservice-a77078", "operator": "United States Postal Service", "operator:short": "USPS", "operator:type": "public", "operator:wikidata": "Q668687", "ref": "5907000001"}, "type": "Feature"}
{"geometry": {"coordinates": [-109.425988093, 45.3749040615], "type": "Point"}, "id": "CtpCgIHn7ZSt6buR6NuquK9BAZM=", "properties": {"@source_uri": "https://tools.usps.com/UspsToolsRestServices/rest/POLocator/findLocations", "@spider": "usps_collection_boxes", "addr:city": "ROSCOE", "addr:country": "US", "addr:postcode": "59071", "addr:state": "MT", "addr:street_address": "111 MAIN ST", "amenity": "post_box", "collection_times": "Mo-Sa 11:30", "nsi_id": "unitedstatespostalservice-a77078", "operator": "United States Postal Service", "operator:short": "USPS", "operator:type": "public", "operator:wikidata": "Q668687", "ref": "5907100000"}, "type": "Feature"}
{"geometry": {"coordinates": [-109.425988093, 45.3749040615], "type": "Point"}, "id": "tnKA_nW2e3y_tElk5YjKQoA0TZg=", "properties": {"@source_uri": "https://tools.usps.com/UspsToolsRestServices/rest/POLocator/findLocations", "@spider": "usps_collection_boxes", "addr:city": "ROSCOE", "addr:country": "US", "addr:postcode": "59071", "addr:state": "MT", "addr:street_address": "111 MAIN ST", "amenity": "post_box", "collection_times": "Mo-Sa 11:30", "indoor": "yes", "nsi_id": "unitedstatespostalservice-a77078", "operator": "United States Postal Service", "operator:short": "USPS", "operator:type": "public", "operator:wikidata": "Q668687", "ref": "5907100001"}, "type": "Feature"}
{"geometry": {"coordinates": [-108.541711, 46.450282], "type": "Point"}, "id": "ZfB5_ClKQ2uMfOSBRz9-QYBGx_s=", "properties": {"@source_uri": "https://tools.usps.com/UspsToolsRestServices/rest/POLocator/findLocations", "@spider": "usps_collection_boxes", "addr:city": "ROUNDUP", "addr:country": "US", "addr:postcode": "59072", "addr:state": "MT", "addr:street_address": "908 MAIN ST", "amenity": "post_box", "collection_times": "Mo-Fr 16:30; Sa 11:45", "note": "ON 12/24 AND 12/31, THIS BOX MAY BE COLLECTED AS EARLY AS 12 NOON.", "nsi_id": "unitedstatespostalservice-a77078", "operator": "United States Postal Service", "operator:short": "USPS", "operator:type": "public", "operator:wikidata": "Q668687", "ref": "5907200000"}, "type": "Feature"}
{"geometry": {"coordinates": [-108.541398, 46.450009], "type": "Point"}, "id": "FlIeYWsQvjhnot1m6QZxAouxlGo=", "properties": {"@source_uri": "https://tools.usps.com/UspsToolsRestServices/rest/POLocator/findLocations", "@spider": "usps_collection_boxes", "addr:city": "ROUNDUP", "addr:country": "US", "addr:postcode": "59072", "addr:state": "MT", "addr:street_address": "908 MAIN ST", "amenity": "post_box", "collection_times": "Mo-Fr 16:30; Sa 12:00", "indoor": "yes", "note": "ON 12/24 AND 12/31, THIS BOX MAY BE COLLECTED AS EARLY AS 12 NOON.", "nsi_id": "unitedstatespostalservice-a77078", "operator": "United States Postal Service", "operator:short": "USPS", "operator:type": "public", "operator:wikidata": "Q668687", "ref": "5907200003"}, "type": "Feature"}
{"geometry": {"coordinates": [-108.541405, 46.450026], "type": "Point"}, "id": "QoQG7hY2X1NW8Epxsfg9h5wOR7E=", "properties": {"@source_uri": "https://tools.usps.com/UspsToolsRestServices/rest/POLocator/findLocations", "@spider": "usps_collection_boxes", "addr:city": "ROUNDUP", "addr:country": "US", "addr:postcode": "59072", "addr:state": "MT", "addr:street_address": "908 MAIN ST", "amenity": "post_box", "collection_times": "Mo-Fr 16:30; Sa 12:00", "indoor": "yes", "note": "ON 12/24 AND 12/31, THIS BOX MAY BE COLLECTED AS EARLY AS 12 NOON.", "nsi_id": "unitedstatespostalservice-a77078", "operator": "United States Postal Service", "operator:short": "USPS", "operator:type": "public", "operator:wikidata": "Q668687", "ref": "5907200005"}, "type": "Feature"}
{"geometry": {"coordinates": [-109.256611, 46.296417], "type": "Point"}, "id": "_dT9Mde2h4JCSQ0zzkAAGsUv2Og=", "properties": {"@source_uri": "https://tools.usps.com/UspsToolsRestServices/rest/POLocator/findLocations", "@spider": "usps_collection_boxes", "addr:city": "RYEGATE", "addr:country": "US", "addr:postcode": "59074", "addr:state": "MT", "addr:street_address": "114 1ST ST N", "amenity": "post_box", "collection_times": "Mo-Fr 14:15; Sa 10:00", "note": "ON 12/24 AND 12/31, THIS BOX MAY BE COLLECTED AS EARLY AS 12 NOON.", "nsi_id": "unitedstatespostalservice-a77078", "operator": "United States Postal Service", "operator:short": "USPS", "operator:type": "public", "operator:wikidata": "Q668687", "ref": "5907400000"}, "type": "Feature"}
{"geometry": {"coordinates": [-109.2566, 46.296495], "type": "Point"}, "id": "S3roMpJu4ndoE-ej2Iu-kJQo_6I=", "properties": {"@source_uri": "https://tools.usps.com/UspsToolsRestServices/rest/POLocator/findLocations", "@spider": "usps_collection_boxes", "addr:city": "RYEGATE", "addr:country": "US", "addr:postcode": "59074", "addr:state": "MT", "addr:street_address": "114 1ST ST N", "amenity": "post_box", "collection_times": "Mo-Fr 14:30; Sa 09:45", "indoor": "yes", "note": "ON 12/24 AND 12/31, THIS BOX MAY BE COLLECTED AS EARLY AS 12 NOON.", "nsi_id": "unitedstatespostalservice-a77078", "operator": "United States Postal Service", "operator:short": "USPS", "operator:type": "public", "operator:wikidata": "Q668687", "ref": "5907400001"}, "type": "Feature"}
{"geometry": {"coordinates": [-109.2566, 46.296495], "type": "Point"}, "id": "x1CnoX6aWeqGHgOTyETkQr32jLE=", "properties": {"@source_uri": "https://tools.usps.com/UspsToolsRestServices/rest/POLocator/findLocations", "@spider": "usps_collection_boxes", "addr:city": "RYEGATE", "addr:country": "US", "addr:postcode": "59074", "addr:state": "MT", "addr:street_address": "114 1ST ST N", "amenity": "post_box", "collection_times": "Mo-Fr 14:30; Sa 09:45", "indoor": "yes", "note": "ON 12/24 AND 12/31, THIS BOX MAY BE COLLECTED AS EARLY AS 12 NOON.", "nsi_id": "unitedstatespostalservice-a77078", "operator": "United States Postal Service", "operator:short": "USPS", "operator:type": "public", "operator:wikidata": "Q668687", "ref": "5907400002"}, "type": "Feature"}
{"geometry": {"coordinates": [-107.7206640075, 45.4614429853], "type": "Point"}, "id": "nWlT0D5XvAZPrHeEC4um8yk-K98=", "properties": {"@source_uri": "https://tools.usps.com/UspsToolsRestServices/rest/POLocator/findLocations", "@spider": "usps_collection_boxes", "addr:city": "SAINT XAVIER", "addr:country": "US", "addr:postcode": "59075", "addr:state": "MT", "addr:street_address": "108 FORT SMITH AVE", "amenity": "post_box", "collection_times": "Mo-Fr 11:30; Sa 10:45", "nsi_id": "unitedstatespostalservice-a77078", "operator": "United States Postal Service", "operator:short": "USPS", "operator:type": "public", "operator:wikidata": "Q668687", "ref": "5907500000"}, "type": "Feature"}
{"geometry": {"coordinates": [-107.7219285635, 45.4611483545], "type": "Point"}, "id": "qtcsZkdWZDtajNN2OpfCkue0INU=", "properties": {"@source_uri": "https://tools.usps.com/UspsToolsRestServices/rest/POLocator/findLocations", "@spider": "usps_collection_boxes", "addr:city": "SAINT XAVIER", "addr:country": "US", "addr:postcode": "59075", "addr:state": "MT", "addr:street_address": "108 FORT SMITH AVE", "amenity": "post_box", "collection_times": "Mo-Fr 11:30; Sa 10:45", "indoor": "yes", "nsi_id": "unitedstatespostalservice-a77078", "operator": "United States Postal Service", "operator:short": "USPS", "operator:type": "public", "operator:wikidata": "Q668687", "ref": "5907500001"}, "type": "Feature"}
{"geometry": {"coordinates": [-107.7219285635, 45.4611483545], "type": "Point"}, "id": "fVUL6dTqtIzE8Y_EmeCXuiUdKhM=", "properties": {"@source_uri": "https://tools.usps.com/UspsToolsRestServices/rest/POLocator/findLocations", "@spider": "usps_collection_boxes", "addr:city": "SAINT XAVIER", "addr:country": "US", "addr:postcode": "59075", "addr:state": "MT", "addr:street_address": "108 FORT SMITH AVE", "amenity": "post_box", "collection_times": "Mo-Fr 11:30; Sa 10:45", "indoor": "yes", "nsi_id": "unitedstatespostalservice-a77078", "operator": "United States Postal Service", "operator:short": "USPS", "operator:type": "public", "operator:wikidata": "Q668687", "ref": "5907500002"}, "type": "Feature"}
{"geometry": {"coordinates": [-107.489799, 47.099382], "type": "Point"}, "id": "gMcnjKAVuY8-HBGzi1VxjoEE3jM=", "properties": {"@source_uri": "https://tools.usps.com/UspsToolsRestServices/rest/POLocator/findLocations", "@spider": "usps_collection_boxes", "addr:city": "SAND SPRINGS", "addr:country": "US", "addr:postcode": "59077", "addr:state": "MT", "addr:street_address": "3198 HIGHWAY 200 W", "amenity": "post_box", "collection_times": "Mo-Fr 12:45; Sa 12:15", "indoor": "yes", "note": "ON 12/24 AND 12/31, THIS BOX MAY BE COLLECTED AS EARLY AS 12 NOON.", "nsi_id": "unitedstatespostalservice-a77078", "operator": "United States Postal Service", "operator:short": "USPS", "operator:type": "public", "operator:wikidata": "Q668687", "ref": "5907700000"}, "type": "Feature"}
{"geometry": {"coordinates": [-109.52599, 46.345263], "type": "Point"}, "id": "3TLAIn3vbDTNM0uvwn1ZbL4i_vw=", "properties": {"@source_uri": "https://tools.usps.com/UspsToolsRestServices/rest/POLocator/findLocations", "@spider": "usps_collection_boxes", "addr:city": "SHAWMUT", "addr:country": "US", "addr:postcode": "59078", "addr:state": "MT", "addr:street_address": "4 W FIRST AVE", "amenity": "post_box", "collection_times": "Mo-Fr 10:45; Sa 07:45", "nsi_id": "unitedstatespostalservice-a77078", "operator": "United States Postal Service", "operator:short": "USPS", "operator:type": "public", "operator:wikidata": "Q668687", "ref": "5907800000"}, "type": "Feature"}
{"geometry": {"coordinates": [-109.52589, 46.345321], "type": "Point"}, "id": "KQQFXvYzSuzUB-Ry2xAmjybup-M=", "properties": {"@source_uri": "https://tools.usps.com/UspsToolsRestServices/rest/POLocator/findLocations", "@spider": "usps_collection_boxes", "addr:city": "SHAWMUT", "addr:country": "US", "addr:postcode": "59078", "addr:state": "MT", "addr:street_address": "4 W FIRST AVE", "amenity": "post_box", "collection_times": "Mo-Fr 11:00; Sa 07:45", "indoor": "yes", "nsi_id": "unitedstatespostalservice-a77078", "operator": "United States Postal Service", "operator:short": "USPS", "operator:type": "public", "operator:wikidata": "Q668687", "ref": "5907800001"}, "type": "Feature"}
{"geometry": {"coordinates": [-108.3455400021, 45.9434480155], "type": "Point"}, "id": "bTiEAep2YSYoD_bIynuunJsiv1M=", "properties": {"@source_uri": "https://tools.usps.com/UspsToolsRestServices/rest/POLocator/findLocations", "@spider": "usps_collection_boxes", "addr:city": "SHEPHERD", "addr:country": "US", "addr:postcode": "59079", "addr:state": "MT", "addr:street_address": "5450 CAREY AVE", "amenity": "post_box", "collection_times": "Mo-Fr 16:30; Sa 10:30", "note": "ON 12/24 AND 12/31, THIS BOX MAY BE COLLECTED AS EARLY AS 12 NOON.", "nsi_id": "unitedstatespostalservice-a77078", "operator": "United States Postal Service", "operator:short": "USPS", "operator:type": "public", "operator:wikidata": "Q668687", "ref": "5907900000"}, "type": "Feature"}
{"geometry": {"coordinates": [-108.345981, 45.943687], "type": "Point"}, "id": "ATpeyOIQvTgHURLFaBmaVqwEwK8=", "properties": {"@source_uri": "https://tools.usps.com/UspsToolsRestServices/rest/POLocator/findLocations", "@spider": "usps_collection_boxes", "addr:city": "SHEPHERD", "addr:country": "US", "addr:postcode": "59079", "addr:state": "MT", "addr:street_address": "5450 CAREY AVE", "amenity": "post_box", "collection_times": "Mo-Fr 16:30; Sa 10:30", "indoor": "yes", "note": "ON 12/24 AND 12/31, THIS BOX MAY BE COLLECTED AS EARLY AS 12 NOON.", "nsi_id": "unitedstatespostalservice-a77078", "operator": "United States Postal Service", "operator:short": "USPS", "operator:type": "public", "operator:wikidata": "Q668687", "ref": "5907900001"}, "type": "Feature"}
{"geometry": {"coordinates": [-108.345981, 45.943687], "type": "Point"}, "id": "8TyUx44Ge6cwsgHSxN-jRDbnD38=", "properties": {"@source_uri": "https://tools.usps.com/UspsToolsRestServices/rest/POLocator/findLocations", "@spider": "usps_collection_boxes", "addr:city": "SHEPHERD", "addr:country": "US", "addr:postcode": "59079", "addr:state": "MT", "addr:street_address": "5450 CAREY AVE", "amenity": "post_box", "collection_times": "Mo-Fr 16:30; Sa 10:30", "indoor": "yes", "note": "ON 12/24 AND 12/31, THIS BOX MAY BE COLLECTED AS EARLY AS 12 NOON.", "nsi_id": "unitedstatespostalservice-a77078", "operator": "United States Postal Service", "operator:short": "USPS", "operator:type": "public", "operator:wikidata": "Q668687", "ref": "5907900002"}, "type": "Feature"}
{"geometry": {"coordinates": [-109.9902220396, 45.0072160014], "type": "Point"}, "id": "16bMO9VpUxS6ePOsSrew3nsvPk4=", "properties": {"@source_uri": "https://tools.usps.com/UspsToolsRestServices/rest/POLocator/findLocations", "@spider": "usps_collection_boxes", "addr:city": "SILVER GATE", "addr:country": "US", "addr:postcode": "59081", "addr:state": "MT", "addr:street_address": "109 US HIGHWAY 212 W", "amenity": "post_box", "collection_times": "Mo-Fr 12:30", "note": "ON 12/24 AND 12/31, THIS BOX MAY BE COLLECTED AS EARLY AS 12 NOON.", "nsi_id": "unitedstatespostalservice-a77078", "operator": "United States Postal Service", "operator:short": "USPS", "operator:type": "public", "operator:wikidata": "Q668687", "ref": "5908100001"}, "type": "Feature"}
{"geometry": {"coordinates": [-107.551546, 46.617882], "type": "Point"}, "id": "uRIKdD3zJnr-8Orl8FFJssFxgUc=", "properties": {"@source_uri": "https://tools.usps.com/UspsToolsRestServices/rest/POLocator/findLocations", "@spider": "usps_collection_boxes", "addr:city": "SUMATRA", "addr:country": "US", "addr:postcode": "59083", "addr:state": "MT", "addr:street_address": "2960 SUMATRA HYSHAM RD", "amenity": "post_box", "collection_times": "Mo-Fr 14:30; Sa 09:00", "indoor": "yes", "note": "ON 12/24 AND 12/31, THIS BOX MAY BE COLLECTED AS EARLY AS 12 NOON.", "nsi_id": "unitedstatespostalservice-a77078", "operator": "United States Postal Service", "operator:short": "USPS", "operator:type": "public", "operator:wikidata": "Q668687", "ref": "5908300001"}, "type": "Feature"}
{"geometry": {"coordinates": [-107.551544, 46.61788], "type": "Point"}, "id": "QJ7fMpdUHozupBTiqcEXgrKMV6U=", "properties": {"@source_uri": "https://tools.usps.com/UspsToolsRestServices/rest/POLocator/findLocations", "@spider": "usps_collection_boxes", "addr:city": "SUMATRA", "addr:country": "US", "addr:postcode": "59083", "addr:state": "MT", "addr:street_address": "2960 SUMATRA HYSHAM RD", "amenity": "post_box", "collection_times": "Mo-Fr 14:30; Sa 09:00", "indoor": "yes", "note": "ON 12/24 AND 12/31, THIS BOX MAY BE COLLECTED AS EARLY AS 12 NOON.", "nsi_id": "unitedstatespostalservice-a77078", "operator": "United States Postal Service", "operator:short": "USPS", "operator:type": "public", "operator:wikidata": "Q668687", "ref": "5908300002"}, "type": "Feature"}
{"geometry": {"coordinates": [-110.073496237, 46.423532453], "type": "Point"}, "id": "cdjPP3eFjozncyaT6enDlHeBFkI=", "properties": {"@source_uri": "https://tools.usps.com/UspsToolsRestServices/rest/POLocator/findLocations", "@spider": "usps_collection_boxes", "addr:city": "TWO DOT", "addr:country": "US", "addr:postcode": "59085", "addr:state": "MT", "addr:street_address": "68 TWO DOT HWY", "amenity": "post_box", "collection_times": "Mo-Fr 11:45; Sa 09:45", "nsi_id": "unitedstatespostalservice-a77078", "operator": "United States Postal Service", "operator:short": "USPS", "operator:type": "public", "operator:wikidata": "Q668687", "ref": "5908500000"}, "type": "Feature"}
{"geometry": {"coordinates": [-110.073496237, 46.423532453], "type": "Point"}, "id": "TNZi6frHNcH0AZYkxbbYl7Yj8-w=", "properties": {"@source_uri": "https://tools.usps.com/UspsToolsRestServices/rest/POLocator/findLocations", "@spider": "usps_collection_boxes", "addr:city": "TWO DOT", "addr:country": "US", "addr:postcode": "59085", "addr:state": "MT", "addr:street_address": "68 TWO DOT HWY", "amenity": "post_box", "collection_times": "Mo-Fr 12:00; Sa 09:30", "indoor": "yes", "nsi_id": "unitedstatespostalservice-a77078", "operator": "United States Postal Service", "operator:short": "USPS", "operator:type": "public", "operator:wikidata": "Q668687", "ref": "5908500001"}, "type": "Feature"}
{"geometry": {"coordinates": [-110.660907, 45.996386], "type": "Point"}, "id": "xf1P4ymjq-uj2Zhv2-ZB9-niQfk=", "properties": {"@source_uri": "https://tools.usps.com/UspsToolsRestServices/rest/POLocator/findLocations", "@spider": "usps_collection_boxes", "addr:city": "WILSALL", "addr:country": "US", "addr:postcode": "59086", "addr:state": "MT", "addr:street_address": "310 ELLIOT ST N", "amenity": "post_box", "collection_times": "Mo-Fr 14:30; Sa 09:45", "indoor": "yes", "note": "ON 12/24 AND 12/31, THIS BOX MAY BE COLLECTED AS EARLY AS 12 NOON.", "nsi_id": "unitedstatespostalservice-a77078", "operator": "United States Postal Service", "operator:short": "USPS", "operator:type": "public", "operator:wikidata": "Q668687", "ref": "5908600000"}, "type": "Feature"}
{"geometry": {"coordinates": [-110.660932, 45.996311], "type": "Point"}, "id": "0XrffKrM_UnqGBEQZc3nxbNY4yo=", "properties": {"@source_uri": "https://tools.usps.com/UspsToolsRestServices/rest/POLocator/findLocations", "@spider": "usps_collection_boxes", "addr:city": "WILSALL", "addr:country": "US", "addr:postcode": "59086", "addr:state": "MT", "addr:street_address": "310 ELLIOT ST N", "amenity": "post_box", "collection_times": "Mo-Fr 14:30; Sa 09:45", "indoor": "yes", "note": "ON 12/24 AND 12/31, THIS BOX MAY BE COLLECTED AS EARLY AS 12 NOON.", "nsi_id": "unitedstatespostalservice-a77078", "operator": "United States Postal Service", "operator:short": "USPS", "operator:type": "public", "operator:wikidata": "Q668687", "ref": "5908600001"}, "type": "Feature"}
{"geometry": {"coordinates": [-110.661083814, 45.997302311], "type": "Point"}, "id": "m4l2vROs7cP782ynElF1MH20ha4=", "properties": {"@source_uri": "https://tools.usps.com/UspsToolsRestServices/rest/POLocator/findLocations", "@spider": "usps_collection_boxes", "addr:city": "WILSALL", "addr:country": "US", "addr:postcode": "59086", "addr:state": "MT", "addr:street_address": "310 ELLIOT ST N", "amenity": "post_box", "collection_times": "Mo-Fr 14:30; Sa 09:45", "note": "ON 12/24 AND 12/31, THIS BOX MAY BE COLLECTED AS EARLY AS 12 NOON.", "nsi_id": "unitedstatespostalservice-a77078", "operator": "United States Postal Service", "operator:short": "USPS", "operator:type": "public", "operator:wikidata": "Q668687", "ref": "5908600002"}, "type": "Feature"}
{"geometry": {"coordinates": [-110.660932, 45.996311], "type": "Point"}, "id": "6T0iuLfd5nbvfBH-q3wJZTfYnWs=", "properties": {"@source_uri": "https://tools.usps.com/UspsToolsRestServices/rest/POLocator/findLocations", "@spider": "usps_collection_boxes", "addr:city": "WILSALL", "addr:country": "US", "addr:postcode": "59086", "addr:state": "MT", "addr:street_address": "310 ELLIOT ST N", "amenity": "post_box", "collection_times": "Mo-Fr 14:30; Sa 09:45", "indoor": "yes", "note": "ON 12/24 AND 12/31, THIS BOX MAY BE COLLECTED AS EARLY AS 12 NOON.", "nsi_id": "unitedstatespostalservice-a77078", "operator": "United States Postal Service", "operator:short": "USPS", "operator:type": "public", "operator:wikidata": "Q668687", "ref": "5908600003"}, "type": "Feature"}
{"geometry": {"coordinates": [-110.660932, 45.996311], "type": "Point"}, "id": "tmqJigtcstvZ6vrF7LF2b6yufNI=", "properties": {"@source_uri": "https://tools.usps.com/UspsToolsRestServices/rest/POLocator/findLocations", "@spider": "usps_collection_boxes", "addr:city": "WILSALL", "addr:country": "US", "addr:postcode": "59086", "addr:state": "MT", "addr:street_address": "310 ELLIOT ST N", "amenity": "post_box", "collection_times": "Mo-Fr 14:30; Sa 09:45", "indoor": "yes", "note": "ON 12/24 AND 12/31, THIS BOX MAY BE COLLECTED AS EARLY AS 12 NOON.", "nsi_id": "unitedstatespostalservice-a77078", "operator": "United States Postal Service", "operator:short": "USPS", "operator:type": "public", "operator:wikidata": "Q668687", "ref": "5908600004"}, "type": "Feature"}
{"geometry": {"coordinates": [-108.006184, 47.065899], "type": "Point"}, "id": "sCze3yaAtjs-IKAbyHxuexMYCCA=", "properties": {"@source_uri": "https://tools.usps.com/UspsToolsRestServices/rest/POLocator/findLocations", "@spider": "usps_collection_boxes", "addr:city": "WINNETT", "addr:country": "US", "addr:postcode": "59087", "addr:state": "MT", "addr:street_address": "1 CAT CRK", "amenity": "post_box", "collection_times": "Mo-Fr 08:45", "nsi_id": "unitedstatespostalservice-a77078", "operator": "United States Postal Service", "operator:short": "USPS", "operator:type": "public", "operator:wikidata": "Q668687", "ref": "5908700000"}, "type": "Feature"}
{"geometry": {"coordinates": [-108.352036, 47.004089], "type": "Point"}, "id": "Toy1nEsADpqx0RNit06UdjV9vsI=", "properties": {"@source_uri": "https://tools.usps.com/UspsToolsRestServices/rest/POLocator/findLocations", "@spider": "usps_collection_boxes", "addr:city": "WINNETT", "addr:country": "US", "addr:postcode": "59087", "addr:state": "MT", "addr:street_address": "5 W MAIN ST", "amenity": "post_box", "collection_times": "Mo-Fr 15:00; Sa 09:30", "indoor": "yes", "note": "ON 12/24 AND 12/31, THIS BOX MAY BE COLLECTED AS EARLY AS 12 NOON.", "nsi_id": "unitedstatespostalservice-a77078", "operator": "United States Postal Service", "operator:short": "USPS", "operator:type": "public", "operator:wikidata": "Q668687", "ref": "5908700001"}, "type": "Feature"}
{"geometry": {"coordinates": [-108.351909, 47.004116], "type": "Point"}, "id": "Eca5t5UUl84fKcgb27oBrF2GwqU=", "properties": {"@source_uri": "https://tools.usps.com/UspsToolsRestServices/rest/POLocator/findLocations", "@spider": "usps_collection_boxes", "addr:city": "WINNETT", "addr:country": "US", "addr:postcode": "59087", "addr:state": "MT", "addr:street_address": "5 W MAIN ST", "amenity": "post_box", "collection_times": "Mo-Fr 15:00; Sa 09:30", "indoor": "yes", "note": "ON 12/24 AND 12/31, THIS BOX MAY BE COLLECTED AS EARLY AS 12 NOON.", "nsi_id": "unitedstatespostalservice-a77078", "operator": "United States Postal Service", "operator:short": "USPS", "operator:type": "public", "operator:wikidata": "Q668687", "ref": "5908700002"}, "type": "Feature"}
{"geometry": {"coordinates": [-108.161471, 45.961084], "type": "Point"}, "id": "PQFwoYhEPFK846-dEICoHaXO1uY=", "properties": {"@source_uri": "https://tools.usps.com/UspsToolsRestServices/rest/POLocator/findLocations", "@spider": "usps_collection_boxes", "addr:city": "WORDEN", "addr:country": "US", "addr:postcode": "59088", "addr:state": "MT", "addr:street_address": "2427 MAIN ST", "amenity": "post_box", "collection_times": "Mo-Fr 15:45; Sa 08:00", "note": "ON 12/24 AND 12/31, THIS BOX MAY BE COLLECTED AS EARLY AS 12 NOON.", "nsi_id": "unitedstatespostalservice-a77078", "operator": "United States Postal Service", "operator:short": "USPS", "operator:type": "public", "operator:wikidata": "Q668687", "ref": "5908800000"}, "type": "Feature"}
{"geometry": {"coordinates": [-108.16151, 45.961092], "type": "Point"}, "id": "6Wp742AOEbINT0muTFsCNbI1-DA=", "properties": {"@source_uri": "https://tools.usps.com/UspsToolsRestServices/rest/POLocator/findLocations", "@spider": "usps_collection_boxes", "addr:city": "WORDEN", "addr:country": "US", "addr:postcode": "59088", "addr:state": "MT", "addr:street_address": "2427 MAIN ST", "amenity": "post_box", "collection_times": "Mo-Fr 16:00; Sa 08:30", "indoor": "yes", "note": "ON 12/24 AND 12/31, THIS BOX MAY BE COLLECTED AS EARLY AS 12 NOON.", "nsi_id": "unitedstatespostalservice-a77078", "operator": "United States Postal Service", "operator:short": "USPS", "operator:type": "public", "operator:wikidata": "Q668687", "ref": "5908800001"}, "type": "Feature"}
{"geometry": {"coordinates": [-108.16151, 45.961092], "type": "Point"}, "id": "oaZ9wSjKzh7aZoYwIyTMX6pvniw=", "properties": {"@source_uri": "https://tools.usps.com/UspsToolsRestServices/rest/POLocator/findLocations", "@spider": "usps_collection_boxes", "addr:city": "WORDEN", "addr:country": "US", "addr:postcode": "59088", "addr:state": "MT", "addr:street_address": "2427 MAIN ST", "amenity": "post_box", "collection_times": "Mo-Fr 16:00; Sa 08:30", "indoor": "yes", "note": "ON 12/24 AND 12/31, THIS BOX MAY BE COLLECTED AS EARLY AS 12 NOON.", "nsi_id": "unitedstatespostalservice-a77078", "operator": "United States Postal Service", "operator:short": "USPS", "operator:type": "public", "operator:wikidata": "Q668687", "ref": "5908800002"}, "type": "Feature"}
{"geometry": {"coordinates": [-108.16151, 45.961092], "type": "Point"}, "id": "TKtpdM6IBf21-8Ey-bM44weg9Ao=", "properties": {"@source_uri": "https://tools.usps.com/UspsToolsRestServices/rest/POLocator/findLocations", "@spider": "usps_collection_boxes", "addr:city": "WORDEN", "addr:country": "US", "addr:postcode": "59088", "addr:state": "MT", "addr:street_address": "2427 MAIN ST", "amenity": "post_box", "collection_times": "Mo-Fr 16:00; Sa 08:30", "indoor": "yes", "note": "ON 12/24 AND 12/31, THIS BOX MAY BE COLLECTED AS EARLY AS 12 NOON.", "nsi_id": "unitedstatespostalservice-a77078", "operator": "United States Postal Service", "operator:short": "USPS", "operator:type": "public", "operator:wikidata": "Q668687", "ref": "5908800003"}, "type": "Feature"}
{"geometry": {"coordinates": [-108.16151, 45.961092], "type": "Point"}, "id": "Cp5kxPxHKMCK0GG6ZhoOXBeZFQw=", "properties": {"@source_uri": "https://tools.usps.com/UspsToolsRestServices/rest/POLocator/findLocations", "@spider": "usps_collection_boxes", "addr:city": "WORDEN", "addr:country": "US", "addr:postcode": "59088", "addr:state": "MT", "addr:street_address": "2427 MAIN ST", "amenity": "post_box", "collection_times": "Mo-Fr 16:00; Sa 08:30", "indoor": "yes", "note": "ON 12/24 AND 12/31, THIS BOX MAY BE COLLECTED AS EARLY AS 12 NOON.", "nsi_id": "unitedstatespostalservice-a77078", "operator": "United States Postal Service", "operator:short": "USPS", "operator:type": "public", "operator:wikidata": "Q668687", "ref": "5908800004"}, "type": "Feature"}
{"geometry": {"coordinates": [-107.395829, 45.129733], "type": "Point"}, "id": "gSRGx1kSnbxolGBvQyJXVPrgbgE=", "properties": {"@source_uri": "https://tools.usps.com/UspsToolsRestServices/rest/POLocator/findLocations", "@spider": "usps_collection_boxes", "addr:city": "WYOLA", "addr:country": "US", "addr:postcode": "59089", "addr:state": "MT", "addr:street_address": "15 S MONDELL AVE", "amenity": "post_box", "collection_times": "Mo-Fr 13:15; Sa 08:15", "note": "ON 12/24 AND 12/31, THIS BOX MAY BE COLLECTED AS EARLY AS 12 NOON.", "nsi_id": "unitedstatespostalservice-a77078", "operator": "United States Postal Service", "operator:short": "USPS", "operator:type": "public", "operator:wikidata": "Q668687", "ref": "5908900000"}, "type": "Feature"}
{"geometry": {"coordinates": [-107.395789, 45.129656], "type": "Point"}, "id": "E4hkcJpfL3hJ433pBGYXfY5ppfg=", "properties": {"@source_uri": "https://tools.usps.com/UspsToolsRestServices/rest/POLocator/findLocations", "@spider": "usps_collection_boxes", "addr:city": "WYOLA", "addr:country": "US", "addr:postcode": "59089", "addr:state": "MT", "addr:street_address": "15 S MONDELL AVE", "amenity": "post_box", "collection_times": "Mo-Fr 13:30; Sa 08:30", "indoor": "yes", "note": "ON 12/24 AND 12/31, THIS BOX MAY BE COLLECTED AS EARLY AS 12 NOON.", "nsi_id": "unitedstatespostalservice-a77078", "operator": "United States Postal Service", "operator:short": "USPS", "operator:type": "public", "operator:wikidata": "Q668687", "ref": "5908900001"}, "type": "Feature"}
