{"geometry": {"coordinates": [-108.508074, 45.783535], "type": "Point"}, "id": "8DljWgwnBDynXP8xwFGsNLSLAC8=", "properties": {"@source_uri": "https://tools.usps.com/UspsToolsRestServices/rest/POLocator/findLocations", "@spider": "usps_collection_boxes", "addr:city": "BILLINGS", "addr:country": "US", "addr:postcode": "59101", "addr:state": "MT", "addr:street_address": "2822 3RD AVE N", "amenity": "post_box", "collection_times": "Mo-Fr 15:00", "note": "ON 12/24 AND 12/31, THIS BOX MAY BE COLLECTED AS EARLY AS 12 NOON.", "nsi_id": "unitedstatespostalservice-a77078", "operator": "United States Postal Service", "operator:short": "USPS", "operator:type": "public", "operator:wikidata": "Q668687", "ref": "5910100001"}, "type": "Feature"}
{"geometry": {"coordinates": [-108.509693, 45.782833], "type": "Point"}, "id": "uTpYMwYgN1RjP67oVZYd9Dnr3J8=", "properties": {"@source_uri": "https://tools.usps.com/UspsToolsRestServices/rest/POLocator/findLocations", "@spider": "usps_collection_boxes", "addr:city": "BILLINGS", "addr:country": "US", "addr:postcode": "59101", "addr:state": "MT", "addr:street_address": "2929 3RD AVE N", "amenity": "post_box", "collection_times": "Mo-Fr 15:00", "note": "ON 12/24 AND 12/31, THIS BOX MAY BE COLLECTED AS EARLY AS 12 NOON.", "nsi_id": "unitedstatespostalservice-a77078", "operator": "United States Postal Service", "operator:short": "USPS", "operator:type": "public", "operator:wikidata": "Q668687", "ref": "5910100002"}, "type": "Feature"}
{"geometry": {"coordinates": [-108.50844, 45.782149], "type": "Point"}, "id": "k9FQ4NtU2Dz-r-s7dwGjb4Vjt8w=", "properties": {"@source_uri": "https://tools.usps.com/UspsToolsRestServices/rest/POLocator/findLocations", "@spider": "usps_collection_boxes", "addr:city": "BILLINGS", "addr:country": "US", "addr:postcode": "59101", "addr:state": "MT", "addr:street_address": "2913 2ND AVE N", "amenity": "post_box", "collection_times": "Mo-Fr 15:00", "note": "ON 12/24 AND 12/31, THIS BOX MAY BE COLLECTED AS EARLY AS 12 NOON.", "nsi_id": "unitedstatespostalservice-a77078", "operator": "United States Postal Service", "operator:short": "USPS", "operator:type": "public", "operator:wikidata": "Q668687", "ref": "5910100003"}, "type": "Feature"}
{"geometry": {"coordinates": [-108.5142, 45.781659], "type": "Point"}, "id": "mxPnxKMegxVRTqaOwtSL8IYj-4A=", "properties": {"@source_uri": "https://tools.usps.com/UspsToolsRestServices/rest/POLocator/findLocations", "@spider": "usps_collection_boxes", "addr:city": "BILLINGS", "addr:country": "US", "addr:postcode": "59101", "addr:state": "MT", "addr:street_address": "3220 4TH AVE N", "amenity": "post_box", "collection_times": "Mo-Fr 15:00", "note": "ON 12/24 AND 12/31, THIS BOX MAY BE COLLECTED AS EARLY AS 12 NOON.", "nsi_id": "unitedstatespostalservice-a77078", "operator": "United States Postal Service", "operator:short": "USPS", "operator:type": "public", "operator:wikidata": "Q668687", "ref": "5910100007"}, "type": "Feature"}
{"geometry": {"coordinates": [-108.513889, 45.783142], "type": "Point"}, "id": "4LE4woIM4StZ24zNa_qd_OSqScs=", "properties": {"@source_uri": "https://tools.usps.com/UspsToolsRestServices/rest/POLocator/findLocations", "@spider": "usps_collection_boxes", "addr:city": "BILLINGS", "addr:country": "US", "addr:postcode": "59101", "addr:state": "MT", "addr:street_address": "502 N 32ND ST", "amenity": "post_box", "collection_times": "Mo-Fr 15:00", "note": "ON 12/24 AND 12/31, THIS BOX MAY BE COLLECTED AS EARLY AS 12 NOON.", "nsi_id": "unitedstatespostalservice-a77078", "operator": "United States Postal Service", "operator:short": "USPS", "operator:type": "public", "operator:wikidata": "Q668687", "ref": "5910100009"}, "type": "Feature"}
{"geometry": {"coordinates": [-108.5397829807, 45.7768260063], "type": "Point"}, "id": "aFDFzVzOU97XWtR2CTbtf0kN5jg=", "properties": {"@source_uri": "https://tools.usps.com/UspsToolsRestServices/rest/POLocator/findLocations", "@spider": "usps_collection_boxes", "addr:city": "BILLINGS", "addr:country": "US", "addr:postcode": "59101", "addr:state": "MT", "addr:street_address": "928 BROADWATER AVE", "amenity": "post_box", "collection_times": "Mo-Fr 08:30", "nsi_id": "unitedstatespostalservice-a77078", "operator": "United States Postal Service", "operator:short": "USPS", "operator:type": "public", "operator:wikidata": "Q668687", "ref": "5910100023"}, "type": "Feature"}
{"geometry": {"coordinates": [-108.5507227594, 45.7535715672], "type": "Point"}, "id": "D761b5m7gvvz3-xE8DDg1fFm_Lo=", "properties": {"@source_uri": "https://tools.usps.com/UspsToolsRestServices/rest/POLocator/findLocations", "@spider": "usps_collection_boxes", "addr:city": "BILLINGS", "addr:country": "US", "addr:postcode": "59101", "addr:state": "MT", "addr:street_address": "5400 SOUTHGATE DR", "amenity": "post_box", "collection_times": "Mo-Fr 09:15", "nsi_id": "unitedstatespostalservice-a77078", "operator": "United States Postal Service", "operator:short": "USPS", "operator:type": "public", "operator:wikidata": "Q668687", "ref": "5910100027"}, "type": "Feature"}
{"geometry": {"coordinates": [-108.493848, 45.774211], "type": "Point"}, "id": "Yj6rZvKqiCB2DxeirHA6XnoqquQ=", "properties": {"@source_uri": "https://tools.usps.com/UspsToolsRestServices/rest/POLocator/findLocations", "@spider": "usps_collection_boxes", "addr:city": "BILLINGS", "addr:country": "US", "addr:postcode": "59101", "addr:state": "MT", "addr:street_address": "841 S 26TH ST", "amenity": "post_box", "collection_times": "Mo-Sa 18:00", "note": "ON 12/24 AND 12/31, THIS BOX MAY BE COLLECTED AS EARLY AS 12 NOON.", "nsi_id": "unitedstatespostalservice-a77078", "operator": "United States Postal Service", "operator:short": "USPS", "operator:type": "public", "operator:wikidata": "Q668687", "ref": "5910100039"}, "type": "Feature"}
{"geometry": {"coordinates": [-108.50501, 45.783186], "type": "Point"}, "id": "69XXkqgiJj0mHYNRb11g5O6Kr7k=", "properties": {"@source_uri": "https://tools.usps.com/UspsToolsRestServices/rest/POLocator/findLocations", "@spider": "usps_collection_boxes", "addr:city": "BILLINGS", "addr:country": "US", "addr:postcode": "59101", "addr:state": "MT", "addr:street_address": "175 N 27TH ST", "amenity": "post_box", "collection_times": "Mo-Fr 09:15", "nsi_id": "unitedstatespostalservice-a77078", "operator": "United States Postal Service", "operator:short": "USPS", "operator:type": "public", "operator:wikidata": "Q668687", "ref": "5910100044"}, "type": "Feature"}
{"geometry": {"coordinates": [-108.508585, 45.787655], "type": "Point"}, "id": "XmXUwg1hBcH5mH7tD0XRAgpyI4M=", "properties": {"@source_uri": "https://tools.usps.com/UspsToolsRestServices/rest/POLocator/findLocations", "@spider": "usps_collection_boxes", "addr:city": "BILLINGS", "addr:country": "US", "addr:postcode": "59101", "addr:state": "MT", "addr:street_address": "611 N 27TH ST", "amenity": "post_box", "collection_times": "Mo-Sa 15:00", "note": "ON 12/24 AND 12/31, THIS BOX MAY BE COLLECTED AS EARLY AS 12 NOON.", "nsi_id": "unitedstatespostalservice-a77078", "operator": "United States Postal Service", "operator:short": "USPS", "operator:type": "public", "operator:wikidata": "Q668687", "ref": "5910100047"}, "type": "Feature"}
{"geometry": {"coordinates": [-108.50681, 45.784105], "type": "Point"}, "id": "oVBIXG4jT__hT3OI4saEipkyKII=", "properties": {"@source_uri": "https://tools.usps.com/UspsToolsRestServices/rest/POLocator/findLocations", "@spider": "usps_collection_boxes", "addr:city": "BILLINGS", "addr:country": "US", "addr:postcode": "59101", "addr:state": "MT", "addr:street_address": "2825 8TH AVE N", "amenity": "post_box", "collection_times": "Mo-Fr 15:00", "note": "ON 12/24 AND 12/31, THIS BOX MAY BE COLLECTED AS EARLY AS 12 NOON.", "nsi_id": "unitedstatespostalservice-a77078", "operator": "United States Postal Service", "operator:short": "USPS", "operator:type": "public", "operator:wikidata": "Q668687", "ref": "5910100050"}, "type": "Feature"}
{"geometry": {"coordinates": [-108.513546, 45.786167], "type": "Point"}, "id": "-ANr4B13eB8xa5lKx8QCcymZ1RA=", "properties": {"@source_uri": "https://tools.usps.com/UspsToolsRestServices/rest/POLocator/findLocations", "@spider": "usps_collection_boxes", "addr:city": "BILLINGS", "addr:country": "US", "addr:postcode": "59101", "addr:state": "MT", "addr:street_address": "710 N 30TH ST", "amenity": "post_box", "collection_times": "Mo-Fr 10:00", "nsi_id": "unitedstatespostalservice-a77078", "operator": "United States Postal Service", "operator:short": "USPS", "operator:type": "public", "operator:wikidata": "Q668687", "ref": "5910100051"}, "type": "Feature"}
{"geometry": {"coordinates": [-108.510143, 45.780062], "type": "Point"}, "id": "JTsNYOg9875KVq2yaq9sd8gCCWg=", "properties": {"@source_uri": "https://tools.usps.com/UspsToolsRestServices/rest/POLocator/findLocations", "@spider": "usps_collection_boxes", "addr:city": "BILLINGS", "addr:country": "US", "addr:postcode": "59101", "addr:state": "MT", "addr:street_address": "3115 1ST AVE N", "amenity": "post_box", "collection_times": "Mo-Fr 09:15", "nsi_id": "unitedstatespostalservice-a77078", "operator": "United States Postal Service", "operator:short": "USPS", "operator:type": "public", "operator:wikidata": "Q668687", "ref": "5910100054"}, "type": "Feature"}
{"geometry": {"coordinates": [-108.505901, 45.783265], "type": "Point"}, "id": "fv3gCFRYM5QlwiCr8rbz-h7uHZc=", "properties": {"@source_uri": "https://tools.usps.com/UspsToolsRestServices/rest/POLocator/findLocations", "@spider": "usps_collection_boxes", "addr:city": "BILLINGS", "addr:country": "US", "addr:postcode": "59101", "addr:state": "MT", "addr:street_address": "2712 2ND AVE N", "amenity": "post_box", "collection_times": "Mo-Fr 09:15", "nsi_id": "unitedstatespostalservice-a77078", "operator": "United States Postal Service", "operator:short": "USPS", "operator:type": "public", "operator:wikidata": "Q668687", "ref": "5910100056"}, "type": "Feature"}
{"geometry": {"coordinates": [-108.5068776901, 45.7840310194], "type": "Point"}, "id": "4cwiDj4BGahd2-l0TVdAOQsOzVk=", "properties": {"@source_uri": "https://tools.usps.com/UspsToolsRestServices/rest/POLocator/findLocations", "@spider": "usps_collection_boxes", "addr:city": "BILLINGS", "addr:country": "US", "addr:postcode": "59101", "addr:state": "MT", "addr:street_address": "2716 3RD AVE N", "amenity": "post_box", "collection_times": "Mo-Sa 09:15", "nsi_id": "unitedstatespostalservice-a77078", "operator": "United States Postal Service", "operator:short": "USPS", "operator:type": "public", "operator:wikidata": "Q668687", "ref": "5910100058"}, "type": "Feature"}
{"geometry": {"coordinates": [-108.50706, 45.78405], "type": "Point"}, "id": "6ZmopMYG3CkYgY3CARPPIDqOn4A=", "properties": {"@source_uri": "https://tools.usps.com/UspsToolsRestServices/rest/POLocator/findLocations", "@spider": "usps_collection_boxes", "addr:city": "BILLINGS", "addr:country": "US", "addr:postcode": "59101", "addr:state": "MT", "addr:street_address": "303 N 28TH ST", "amenity": "post_box", "collection_times": "Mo-Fr 09:00", "nsi_id": "unitedstatespostalservice-a77078", "operator": "United States Postal Service", "operator:short": "USPS", "operator:type": "public", "operator:wikidata": "Q668687", "ref": "5910100059"}, "type": "Feature"}
{"geometry": {"coordinates": [-108.508759, 45.785287], "type": "Point"}, "id": "24oPt52eaCMUQmYLanjuljjKX4A=", "properties": {"@source_uri": "https://tools.usps.com/UspsToolsRestServices/rest/POLocator/findLocations", "@spider": "usps_collection_boxes", "addr:city": "BILLINGS", "addr:country": "US", "addr:postcode": "59101", "addr:state": "MT", "addr:street_address": "401 N 28TH ST", "amenity": "post_box", "collection_times": "Mo-Fr 15:00", "note": "ON 12/24 AND 12/31, THIS BOX MAY BE COLLECTED AS EARLY AS 12 NOON.", "nsi_id": "unitedstatespostalservice-a77078", "operator": "United States Postal Service", "operator:short": "USPS", "operator:type": "public", "operator:wikidata": "Q668687", "ref": "5910100060"}, "type": "Feature"}
{"geometry": {"coordinates": [-108.5134752633, 45.7917265542], "type": "Point"}, "id": "CP2l25GEm0pgt_PrK5GLO_Hy4Kg=", "properties": {"@source_uri": "https://tools.usps.com/UspsToolsRestServices/rest/POLocator/findLocations", "@spider": "usps_collection_boxes", "addr:city": "BILLINGS", "addr:country": "US", "addr:postcode": "59101", "addr:state": "MT", "addr:street_address": "1020 N 27TH ST", "amenity": "post_box", "collection_times": "Mo-Fr 12:30", "note": "ON 12/24 AND 12/31, THIS BOX MAY BE COLLECTED AS EARLY AS 12 NOON.", "nsi_id": "unitedstatespostalservice-a77078", "operator": "United States Postal Service", "operator:short": "USPS", "operator:type": "public", "operator:wikidata": "Q668687", "ref": "5910100061"}, "type": "Feature"}
{"geometry": {"coordinates": [-108.519976, 45.793082], "type": "Point"}, "id": "iT1XNKLdebofQQEdgByOpPhff3Y=", "properties": {"@source_uri": "https://tools.usps.com/UspsToolsRestServices/rest/POLocator/findLocations", "@spider": "usps_collection_boxes", "addr:city": "BILLINGS", "addr:country": "US", "addr:postcode": "59101", "addr:state": "MT", "addr:street_address": "1233 N 30TH ST", "amenity": "post_box", "collection_times": "Mo-Fr 15:00", "note": "ON 12/24 AND 12/31, THIS BOX MAY BE COLLECTED AS EARLY AS 12 NOON.", "nsi_id": "unitedstatespostalservice-a77078", "operator": "United States Postal Service", "operator:short": "USPS", "operator:type": "public", "operator:wikidata": "Q668687", "ref": "5910100065"}, "type": "Feature"}
{"geometry": {"coordinates": [-108.522257, 45.796726], "type": "Point"}, "id": "H_H-PKFi-zugyDOYZTzqJ2Gabbk=", "properties": {"@source_uri": "https://tools.usps.com/UspsToolsRestServices/rest/POLocator/findLocations", "@spider": "usps_collection_boxes", "addr:city": "BILLINGS", "addr:country": "US", "addr:postcode": "59101", "addr:state": "MT", "addr:street_address": "1500 UNIVERSITY DR", "amenity": "post_box", "collection_times": "Mo-Fr 08:30", "nsi_id": "unitedstatespostalservice-a77078", "operator": "United States Postal Service", "operator:short": "USPS", "operator:type": "public", "operator:wikidata": "Q668687", "ref": "5910100067"}, "type": "Feature"}
{"geometry": {"coordinates": [-108.503609, 45.783073], "type": "Point"}, "id": "0eH5Oot8p2m0KLq63K1r0khD82E=", "properties": {"@source_uri": "https://tools.usps.com/UspsToolsRestServices/rest/POLocator/findLocations", "@spider": "usps_collection_boxes", "addr:city": "BILLINGS", "addr:country": "US", "addr:postcode": "59101", "addr:state": "MT", "addr:street_address": "2602 1ST AVE N", "amenity": "post_box", "collection_times": "Mo-Fr 17:30; Sa 15:00", "indoor": "yes", "note": "ON 12/24 AND 12/31, THIS BOX MAY BE COLLECTED AS EARLY AS 12 NOON.", "nsi_id": "unitedstatespostalservice-a77078", "operator": "United States Postal Service", "operator:short": "USPS", "operator:type": "public", "operator:wikidata": "Q668687", "ref": "5910100083"}, "type": "Feature"}
{"geometry": {"coordinates": [-108.513492, 45.783445], "type": "Point"}, "id": "lmvr1jc8rJGfjQSh5GBtyjsxZio=", "properties": {"@source_uri": "https://tools.usps.com/UspsToolsRestServices/rest/POLocator/findLocations", "@spider": "usps_collection_boxes", "addr:city": "BILLINGS", "addr:country": "US", "addr:postcode": "59101", "addr:state": "MT", "addr:street_address": "490 N 31ST ST", "amenity": "post_box", "collection_times": "Mo-Fr 09:15", "nsi_id": "unitedstatespostalservice-a77078", "operator": "United States Postal Service", "operator:short": "USPS", "operator:type": "public", "operator:wikidata": "Q668687", "ref": "5910100114"}, "type": "Feature"}
{"geometry": {"coordinates": [-108.44833, 45.798368], "type": "Point"}, "id": "LAHuVCNyQ0DOxfcuAnbS93OPSnM=", "properties": {"@source_uri": "https://tools.usps.com/UspsToolsRestServices/rest/POLocator/findLocations", "@spider": "usps_collection_boxes", "addr:city": "BILLINGS", "addr:country": "US", "addr:postcode": "59101", "addr:state": "MT", "addr:street_address": "1224 US HIGHWAY 87 E", "amenity": "post_box", "collection_times": "Mo-Sa 08:45", "nsi_id": "unitedstatespostalservice-a77078", "operator": "United States Postal Service", "operator:short": "USPS", "operator:type": "public", "operator:wikidata": "Q668687", "ref": "5910100154"}, "type": "Feature"}
{"geometry": {"coordinates": [-108.507303, 45.78267], "type": "Point"}, "id": "yTSjrm2XwT8ACxOUxPlZxsjM2K0=", "properties": {"@source_uri": "https://tools.usps.com/UspsToolsRestServices/rest/POLocator/findLocations", "@spider": "usps_collection_boxes", "addr:city": "BILLINGS", "addr:country": "US", "addr:postcode": "59101", "addr:state": "MT", "addr:street_address": "2813 2ND AVE N", "amenity": "post_box", "collection_times": "Mo-Fr 15:00", "note": "ON 12/24 AND 12/31, THIS BOX MAY BE COLLECTED AS EARLY AS 12 NOON.", "nsi_id": "unitedstatespostalservice-a77078", "operator": "United States Postal Service", "operator:short": "USPS", "operator:type": "public", "operator:wikidata": "Q668687", "ref": "5910100160"}, "type": "Feature"}
{"geometry": {"coordinates": [-108.50284, 45.78236], "type": "Point"}, "id": "hB5B4v_PPtoi4khvtXJw3IrPETM=", "properties": {"@source_uri": "https://tools.usps.com/UspsToolsRestServices/rest/POLocator/findLocations", "@spider": "usps_collection_boxes", "addr:city": "BILLINGS", "addr:country": "US", "addr:postcode": "59101", "addr:state": "MT", "addr:street_address": "2602 1ST AVE N", "amenity": "post_box", "collection_times": "Mo-Sa 17:30", "note": "ON 12/24 AND 12/31, THIS BOX MAY BE COLLECTED AS EARLY AS 12 NOON.", "nsi_id": "unitedstatespostalservice-a77078", "operator": "United States Postal Service", "operator:short": "USPS", "operator:type": "public", "operator:wikidata": "Q668687", "ref": "5910100168"}, "type": "Feature"}
{"geometry": {"coordinates": [-108.509679, 45.783982], "type": "Point"}, "id": "SctGiTQjRmrCjDLyVchxnIXWoeY=", "properties": {"@source_uri": "https://tools.usps.com/UspsToolsRestServices/rest/POLocator/findLocations", "@spider": "usps_collection_boxes", "addr:city": "BILLINGS", "addr:country": "US", "addr:postcode": "59101", "addr:state": "MT", "addr:street_address": "2900 4TH AVE N", "amenity": "post_box", "collection_times": "Mo-Fr 09:15", "nsi_id": "unitedstatespostalservice-a77078", "operator": "United States Postal Service", "operator:short": "USPS", "operator:type": "public", "operator:wikidata": "Q668687", "ref": "5910100181"}, "type": "Feature"}
{"geometry": {"coordinates": [-108.518212, 45.792969], "type": "Point"}, "id": "y8RLMf5uAL1cRvMGikJyK7zt8Mo=", "properties": {"@source_uri": "https://tools.usps.com/UspsToolsRestServices/rest/POLocator/findLocations", "@spider": "usps_collection_boxes", "addr:city": "BILLINGS", "addr:country": "US", "addr:postcode": "59101", "addr:state": "MT", "addr:street_address": "2900 12TH AVE N", "amenity": "post_box", "collection_times": "Mo-Fr 15:00", "note": "ON 12/24 AND 12/31, THIS BOX MAY BE COLLECTED AS EARLY AS 12 NOON.", "nsi_id": "unitedstatespostalservice-a77078", "operator": "United States Postal Service", "operator:short": "USPS", "operator:type": "public", "operator:wikidata": "Q668687", "ref": "5910100182"}, "type": "Feature"}
{"geometry": {"coordinates": [-108.506333, 45.78182], "type": "Point"}, "id": "VZgx0D14bqdgjwMSILH38JAOLco=", "properties": {"@source_uri": "https://tools.usps.com/UspsToolsRestServices/rest/POLocator/findLocations", "@spider": "usps_collection_boxes", "addr:city": "BILLINGS", "addr:country": "US", "addr:postcode": "59101", "addr:state": "MT", "addr:street_address": "2812 1ST AVE N", "amenity": "post_box", "collection_times": "Mo-Fr 09:15", "nsi_id": "unitedstatespostalservice-a77078", "operator": "United States Postal Service", "operator:short": "USPS", "operator:type": "public", "operator:wikidata": "Q668687", "ref": "5910100208"}, "type": "Feature"}
{"geometry": {"coordinates": [-108.415835, 45.808252], "type": "Point"}, "id": "_1o3G0_BGsisOId_mOTMeXQt9kI=", "properties": {"@source_uri": "https://tools.usps.com/UspsToolsRestServices/rest/POLocator/findLocations", "@spider": "usps_collection_boxes", "addr:city": "BILLINGS", "addr:country": "US", "addr:postcode": "59101", "addr:state": "MT", "addr:street_address": "535 JEMSTONE DR", "amenity": "post_box", "collection_times": "Mo-Sa 11:00", "nsi_id": "unitedstatespostalservice-a77078", "operator": "United States Postal Service", "operator:short": "USPS", "operator:type": "public", "operator:wikidata": "Q668687", "ref": "5910100219"}, "type": "Feature"}
{"geometry": {"coordinates": [-108.435291, 45.803485], "type": "Point"}, "id": "D7POaZg_1OlqQ53nO2EXulcIrzQ=", "properties": {"@source_uri": "https://tools.usps.com/UspsToolsRestServices/rest/POLocator/findLocations", "@spider": "usps_collection_boxes", "addr:city": "BILLINGS", "addr:country": "US", "addr:postcode": "59101", "addr:state": "MT", "addr:street_address": "1960 OLD HARDIN RD", "amenity": "post_box", "collection_times": "Mo-Sa 12:30", "note": "ON 12/24 AND 12/31, THIS BOX MAY BE COLLECTED AS EARLY AS 12 NOON.", "nsi_id": "unitedstatespostalservice-a77078", "operator": "United States Postal Service", "operator:short": "USPS", "operator:type": "public", "operator:wikidata": "Q668687", "ref": "5910100220"}, "type": "Feature"}
{"geometry": {"coordinates": [-108.532658, 45.732102], "type": "Point"}, "id": "yyiKsWi1jM8fMr8FOJVwE5TPhoA=", "properties": {"@source_uri": "https://tools.usps.com/UspsToolsRestServices/rest/POLocator/findLocations", "@spider": "usps_collection_boxes", "addr:city": "BILLINGS", "addr:country": "US", "addr:postcode": "59101", "addr:state": "MT", "addr:street_address": "2007 BLUE CREEK RD", "amenity": "post_box", "collection_times": "Mo-Sa 11:00", "nsi_id": "unitedstatespostalservice-a77078", "operator": "United States Postal Service", "operator:short": "USPS", "operator:type": "public", "operator:wikidata": "Q668687", "ref": "5910100226"}, "type": "Feature"}
{"geometry": {"coordinates": [-108.494445, 45.774301], "type": "Point"}, "id": "LWsOQCoJVOT6uK3nQxgmLpbv6Cg=", "properties": {"@source_uri": "https://tools.usps.com/UspsToolsRestServices/rest/POLocator/findLocations", "@spider": "usps_collection_boxes", "addr:city": "BILLINGS", "addr:country": "US", "addr:postcode": "59101", "addr:state": "MT", "addr:street_address": "841 S 26TH ST", "amenity": "post_box", "collection_times": "Mo-Fr 18:30; Sa 18:00", "indoor": "yes", "note": "ON 12/24 AND 12/31, THIS BOX MAY BE COLLECTED AS EARLY AS 12 NOON.", "nsi_id": "unitedstatespostalservice-a77078", "operator": "United States Postal Service", "operator:short": "USPS", "operator:type": "public", "operator:wikidata": "Q668687", "ref": "5910100227"}, "type": "Feature"}
{"geometry": {"coordinates": [-108.512581, 45.783592], "type": "Point"}, "id": "ISdJV0TGE3S5S0A1_YQ2id8Mz-M=", "properties": {"@source_uri": "https://tools.usps.com/UspsToolsRestServices/rest/POLocator/findLocations", "@spider": "usps_collection_boxes", "addr:city": "BILLINGS", "addr:country": "US", "addr:postcode": "59101", "addr:state": "MT", "addr:street_address": "401 N 31ST ST", "amenity": "post_box", "collection_times": "Mo-Fr 09:15", "nsi_id": "unitedstatespostalservice-a77078", "operator": "United States Postal Service", "operator:short": "USPS", "operator:type": "public", "operator:wikidata": "Q668687", "ref": "5910100228"}, "type": "Feature"}
{"geometry": {"coordinates": [-108.494445, 45.774301], "type": "Point"}, "id": "BC1TZlm8F7uV5F6SyXqoRnOwFQY=", "properties": {"@source_uri": "https://tools.usps.com/UspsToolsRestServices/rest/POLocator/findLocations", "@spider": "usps_collection_boxes", "addr:city": "BILLINGS", "addr:country": "US", "addr:postcode": "59101", "addr:state": "MT", "addr:street_address": "841 S 26TH ST", "amenity": "post_box", "collection_times": "Mo-Fr 18:30; Sa 18:00", "indoor": "yes", "note": "ON 12/24 AND 12/31, THIS BOX MAY BE COLLECTED AS EARLY AS 12 NOON.", "nsi_id": "unitedstatespostalservice-a77078", "operator": "United States Postal Service", "operator:short": "USPS", "operator:type": "public", "operator:wikidata": "Q668687", "ref": "5910100230"}, "type": "Feature"}
{"geometry": {"coordinates": [-108.494445, 45.774301], "type": "Point"}, "id": "ABUYKkC79q9KiN7iHbZORwwN7wk=", "properties": {"@source_uri": "https://tools.usps.com/UspsToolsRestServices/rest/POLocator/findLocations", "@spider": "usps_collection_boxes", "addr:city": "BILLINGS", "addr:country": "US", "addr:postcode": "59101", "addr:state": "MT", "addr:street_address": "841 S 26TH ST", "amenity": "post_box", "collection_times": "Mo-Fr 18:30; Sa 18:00", "indoor": "yes", "note": "ON 12/24 AND 12/31, THIS BOX MAY BE COLLECTED AS EARLY AS 12 NOON.", "nsi_id": "unitedstatespostalservice-a77078", "operator": "United States Postal Service", "operator:short": "USPS", "operator:type": "public", "operator:wikidata": "Q668687", "ref": "5910100231"}, "type": "Feature"}
{"geometry": {"coordinates": [-108.494445, 45.774301], "type": "Point"}, "id": "rNBm46V1L_CKlXOIU6nllJFA4Wk=", "properties": {"@source_uri": "https://tools.usps.com/UspsToolsRestServices/rest/POLocator/findLocations", "@spider": "usps_collection_boxes", "addr:city": "BILLINGS", "addr:country": "US", "addr:postcode": "59101", "addr:state": "MT", "addr:street_address": "841 S 26TH ST", "amenity": "post_box", "collection_times": "Mo-Fr 18:30; Sa 18:00", "indoor": "yes", "note": "ON 12/24 AND 12/31, THIS BOX MAY BE COLLECTED AS EARLY AS 12 NOON.", "nsi_id": "unitedstatespostalservice-a77078", "operator": "United States Postal Service", "operator:short": "USPS", "operator:type": "public", "operator:wikidata": "Q668687", "ref": "5910100232"}, "type": "Feature"}
{"geometry": {"coordinates": [-108.494445, 45.774301], "type": "Point"}, "id": "PyqPuvxW3KDZ0_ta33V-8-WddeM=", "properties": {"@source_uri": "https://tools.usps.com/UspsToolsRestServices/rest/POLocator/findLocations", "@spider": "usps_collection_boxes", "addr:city": "BILLINGS", "addr:country": "US", "addr:postcode": "59101", "addr:state": "MT", "addr:street_address": "841 S 26TH ST", "amenity": "post_box", "collection_times": "Mo-Fr 18:30; Sa 18:00", "indoor": "yes", "note": "ON 12/24 AND 12/31, THIS BOX MAY BE COLLECTED AS EARLY AS 12 NOON.", "nsi_id": "unitedstatespostalservice-a77078", "operator": "United States Postal Service", "operator:short": "USPS", "operator:type": "public", "operator:wikidata": "Q668687", "ref": "5910100233"}, "type": "Feature"}
{"geometry": {"coordinates": [-108.503609, 45.783073], "type": "Point"}, "id": "_MC9pYVOsu-ZyJUGaUZno8Py1kg=", "properties": {"@source_uri": "https://tools.usps.com/UspsToolsRestServices/rest/POLocator/findLocations", "@spider": "usps_collection_boxes", "addr:city": "BILLINGS", "addr:country": "US", "addr:postcode": "59101", "addr:state": "MT", "addr:street_address": "2602 1ST AVE N", "amenity": "post_box", "collection_times": "Mo-Fr 17:30; Sa 15:00", "indoor": "yes", "note": "ON 12/24 AND 12/31, THIS BOX MAY BE COLLECTED AS EARLY AS 12 NOON.", "nsi_id": "unitedstatespostalservice-a77078", "operator": "United States Postal Service", "operator:short": "USPS", "operator:type": "public", "operator:wikidata": "Q668687", "ref": "5910100237"}, "type": "Feature"}
{"geometry": {"coordinates": [-108.503609, 45.783073], "type": "Point"}, "id": "oap8c12iD4959c1nzPW1V986Efg=", "properties": {"@source_uri": "https://tools.usps.com/UspsToolsRestServices/rest/POLocator/findLocations", "@spider": "usps_collection_boxes", "addr:city": "BILLINGS", "addr:country": "US", "addr:postcode": "59101", "addr:state": "MT", "addr:street_address": "2602 1ST AVE N", "amenity": "post_box", "collection_times": "Mo-Fr 17:30; Sa 15:00", "indoor": "yes", "note": "ON 12/24 AND 12/31, THIS BOX MAY BE COLLECTED AS EARLY AS 12 NOON.", "nsi_id": "unitedstatespostalservice-a77078", "operator": "United States Postal Service", "operator:short": "USPS", "operator:type": "public", "operator:wikidata": "Q668687", "ref": "5910100238"}, "type": "Feature"}
{"geometry": {"coordinates": [-108.503609, 45.783073], "type": "Point"}, "id": "Z54YfNHyWzB92NIiXoxPi_44OPA=", "properties": {"@source_uri": "https://tools.usps.com/UspsToolsRestServices/rest/POLocator/findLocations", "@spider": "usps_collection_boxes", "addr:city": "BILLINGS", "addr:country": "US", "addr:postcode": "59101", "addr:state": "MT", "addr:street_address": "2602 1ST AVE N", "amenity": "post_box", "collection_times": "Mo-Fr 17:30; Sa 15:00", "indoor": "yes", "note": "ON 12/24 AND 12/31, THIS BOX MAY BE COLLECTED AS EARLY AS 12 NOON.", "nsi_id": "unitedstatespostalservice-a77078", "operator": "United States Postal Service", "operator:short": "USPS", "operator:type": "public", "operator:wikidata": "Q668687", "ref": "5910100239"}, "type": "Feature"}
{"geometry": {"coordinates": [-108.502935, 45.782506], "type": "Point"}, "id": "LZNLueThrQH3KrSGfIwQV2jXoKI=", "properties": {"@source_uri": "https://tools.usps.com/UspsToolsRestServices/rest/POLocator/findLocations", "@spider": "usps_collection_boxes", "addr:city": "BILLINGS", "addr:country": "US", "addr:postcode": "59101", "addr:state": "MT", "addr:street_address": "2602 1ST AVE N", "amenity": "post_box", "collection_times": "Mo-Fr 17:30; Sa 15:00", "indoor": "yes", "note": "ON 12/24 AND 12/31, THIS BOX MAY BE COLLECTED AS EARLY AS 12 NOON.", "nsi_id": "unitedstatespostalservice-a77078", "operator": "United States Postal Service", "operator:short": "USPS", "operator:type": "public", "operator:wikidata": "Q668687", "ref": "5910100240"}, "type": "Feature"}
{"geometry": {"coordinates": [-108.502872, 45.782462], "type": "Point"}, "id": "kh9q9Y7kMb2GBdol1U5I_Z0q2nI=", "properties": {"@source_uri": "https://tools.usps.com/UspsToolsRestServices/rest/POLocator/findLocations", "@spider": "usps_collection_boxes", "addr:city": "BILLINGS", "addr:country": "US", "addr:postcode": "59101", "addr:state": "MT", "addr:street_address": "2602 1ST AVE N", "amenity": "post_box", "collection_times": "Mo-Fr 17:30; Sa 15:00", "indoor": "yes", "note": "ON 12/24 AND 12/31, THIS BOX MAY BE COLLECTED AS EARLY AS 12 NOON.", "nsi_id": "unitedstatespostalservice-a77078", "operator": "United States Postal Service", "operator:short": "USPS", "operator:type": "public", "operator:wikidata": "Q668687", "ref": "5910100241"}, "type": "Feature"}
{"geometry": {"coordinates": [-108.503073, 45.782518], "type": "Point"}, "id": "5G2iYV9b2ctuoDtgEGSXFlfWR-A=", "properties": {"@source_uri": "https://tools.usps.com/UspsToolsRestServices/rest/POLocator/findLocations", "@spider": "usps_collection_boxes", "addr:city": "BILLINGS", "addr:country": "US", "addr:postcode": "59101", "addr:state": "MT", "addr:street_address": "2602 1ST AVE N", "amenity": "post_box", "collection_times": "Mo-Fr 17:30; Sa 15:00", "indoor": "yes", "note": "ON 12/24 AND 12/31, THIS BOX MAY BE COLLECTED AS EARLY AS 12 NOON.", "nsi_id": "unitedstatespostalservice-a77078", "operator": "United States Postal Service", "operator:short": "USPS", "operator:type": "public", "operator:wikidata": "Q668687", "ref": "5910100242"}, "type": "Feature"}
{"geometry": {"coordinates": [-108.416762, 45.811521], "type": "Point"}, "id": "m_rBKsIZvh9foF4TjGIMhOZ99wE=", "properties": {"@source_uri": "https://tools.usps.com/UspsToolsRestServices/rest/POLocator/findLocations", "@spider": "usps_collection_boxes", "addr:city": "BILLINGS", "addr:country": "US", "addr:postcode": "59101", "addr:state": "MT", "addr:street_address": "2750 OLD HARDIN RD", "amenity": "post_box", "collection_times": "Mo-Sa 09:00", "nsi_id": "unitedstatespostalservice-a77078", "operator": "United States Postal Service", "operator:short": "USPS", "operator:type": "public", "operator:wikidata": "Q668687", "ref": "5910100243"}, "type": "Feature"}
{"geometry": {"coordinates": [-108.513732, 45.779434], "type": "Point"}, "id": "4ZUWpedZipub7GDb1nRXfFolbos=", "properties": {"@source_uri": "https://tools.usps.com/UspsToolsRestServices/rest/POLocator/findLocations", "@spider": "usps_collection_boxes", "addr:city": "BILLINGS", "addr:country": "US", "addr:postcode": "59101", "addr:state": "MT", "addr:street_address": "3324 2ND AVE N", "amenity": "post_box", "collection_times": "Mo-Fr 15:00", "note": "ON 12/24 AND 12/31, THIS BOX MAY BE COLLECTED AS EARLY AS 12 NOON.", "nsi_id": "unitedstatespostalservice-a77078", "operator": "United States Postal Service", "operator:short": "USPS", "operator:type": "public", "operator:wikidata": "Q668687", "ref": "5910100244"}, "type": "Feature"}
{"geometry": {"coordinates": [-108.512699, 45.78094], "type": "Point"}, "id": "Snd6znOvN3PupHrAF4uc9qOzVUw=", "properties": {"@source_uri": "https://tools.usps.com/UspsToolsRestServices/rest/POLocator/findLocations", "@spider": "usps_collection_boxes", "addr:city": "BILLINGS", "addr:country": "US", "addr:postcode": "59101", "addr:state": "MT", "addr:street_address": "222 N 32ND ST", "amenity": "post_box", "collection_times": "Mo-Fr 15:00", "note": "ON 12/24 AND 12/31, THIS BOX MAY BE COLLECTED AS EARLY AS 12 NOON.", "nsi_id": "unitedstatespostalservice-a77078", "operator": "United States Postal Service", "operator:short": "USPS", "operator:type": "public", "operator:wikidata": "Q668687", "ref": "5910100248"}, "type": "Feature"}
{"geometry": {"coordinates": [-108.617899, 45.72474], "type": "Point"}, "id": "NxvYox39Q6MZzGvk_Nl9WTHaMXU=", "properties": {"@source_uri": "https://tools.usps.com/UspsToolsRestServices/rest/POLocator/findLocations", "@spider": "usps_collection_boxes", "addr:city": "BILLINGS", "addr:country": "US", "addr:postcode": "59101", "addr:state": "MT", "addr:street_address": "8014 S FRONTAGE RD", "amenity": "post_box", "collection_times": "Mo-Sa 12:00", "nsi_id": "unitedstatespostalservice-a77078", "operator": "United States Postal Service", "operator:short": "USPS", "operator:type": "public", "operator:wikidata": "Q668687", "ref": "5910100250"}, "type": "Feature"}
{"geometry": {"coordinates": [-108.549703, 45.785839], "type": "Point"}, "id": "BhbRPVYfnsvKP4oJ9qBmFXrfg5M=", "properties": {"@source_uri": "https://tools.usps.com/UspsToolsRestServices/rest/POLocator/findLocations", "@spider": "usps_collection_boxes", "addr:city": "BILLINGS", "addr:country": "US", "addr:postcode": "59102", "addr:state": "MT", "addr:street_address": "1300 AVENUE C", "amenity": "post_box", "collection_times": "Mo-Sa 15:00", "note": "ON 12/24 AND 12/31, THIS BOX MAY BE COLLECTED AS EARLY AS 12 NOON.", "nsi_id": "unitedstatespostalservice-a77078", "operator": "United States Postal Service", "operator:short": "USPS", "operator:type": "public", "operator:wikidata": "Q668687", "ref": "5910200002"}, "type": "Feature"}
{"geometry": {"coordinates": [-108.582018, 45.770784], "type": "Point"}, "id": "Cu1picJyZkzkEWgXBX8cbhQO66k=", "properties": {"@source_uri": "https://tools.usps.com/UspsToolsRestServices/rest/POLocator/findLocations", "@spider": "usps_collection_boxes", "addr:city": "BILLINGS", "addr:country": "US", "addr:postcode": "59102", "addr:state": "MT", "addr:street_address": "2601 CENTRAL AVE", "amenity": "post_box", "collection_times": "Mo-Fr 15:00", "note": "ON 12/24 AND 12/31, THIS BOX MAY BE COLLECTED AS EARLY AS 12 NOON.", "nsi_id": "unitedstatespostalservice-a77078", "operator": "United States Postal Service", "operator:short": "USPS", "operator:type": "public", "operator:wikidata": "Q668687", "ref": "5910200004"}, "type": "Feature"}
{"geometry": {"coordinates": [-108.55412, 45.777639], "type": "Point"}, "id": "e3gsQY2Xxy-NrHV8LUkU7rjtAZg=", "properties": {"@source_uri": "https://tools.usps.com/UspsToolsRestServices/rest/POLocator/findLocations", "@spider": "usps_collection_boxes", "addr:city": "BILLINGS", "addr:country": "US", "addr:postcode": "59102", "addr:state": "MT", "addr:street_address": "724 15TH ST W", "amenity": "post_box", "collection_times": "Mo-Fr 17:30; Sa 15:30", "indoor": "yes", "note": "ON 12/24 AND 12/31, THIS BOX MAY BE COLLECTED AS EARLY AS 12 NOON.", "nsi_id": "unitedstatespostalservice-a77078", "operator": "United States Postal Service", "operator:short": "USPS", "operator:type": "public", "operator:wikidata": "Q668687", "ref": "5910200008"}, "type": "Feature"}
{"geometry": {"coordinates": [-108.5540375805, 45.7777123087], "type": "Point"}, "id": "wAcKDoWflKqSYDYivHYauDqjPJ0=", "properties": {"@source_uri": "https://tools.usps.com/UspsToolsRestServices/rest/POLocator/findLocations", "@spider": "usps_collection_boxes", "addr:city": "BILLINGS", "addr:country": "US", "addr:postcode": "59102", "addr:state": "MT", "addr:street_address": "724 15TH ST W", "amenity": "post_box", "collection_times": "Mo-Fr 17:30; Sa 16:45", "note": "ON 12/24 AND 12/31, THIS BOX MAY BE COLLECTED AS EARLY AS 12 NOON.", "nsi_id": "unitedstatespostalservice-a77078", "operator": "United States Postal Service", "operator:short": "USPS", "operator:type": "public", "operator:wikidata": "Q668687", "ref": "5910200009"}, "type": "Feature"}
{"geometry": {"coordinates": [-108.5552279162, 45.7870794821], "type": "Point"}, "id": "fWW-RjxJfF4X5bo-6oP8nYuHxFw=", "properties": {"@source_uri": "https://tools.usps.com/UspsToolsRestServices/rest/POLocator/findLocations", "@spider": "usps_collection_boxes", "addr:city": "BILLINGS", "addr:country": "US", "addr:postcode": "59102", "addr:state": "MT", "addr:street_address": "1537 AVENUE D", "amenity": "post_box", "collection_times": "Mo-Fr 15:00", "note": "ON 12/24 AND 12/31, THIS BOX MAY BE COLLECTED AS EARLY AS 12 NOON.", "nsi_id": "unitedstatespostalservice-a77078", "operator": "United States Postal Service", "operator:short": "USPS", "operator:type": "public", "operator:wikidata": "Q668687", "ref": "5910200014"}, "type": "Feature"}
{"geometry": {"coordinates": [-108.558349, 45.787117], "type": "Point"}, "id": "zIvGT9oTPbgSav8XI_RHcqiBRhA=", "properties": {"@source_uri": "https://tools.usps.com/UspsToolsRestServices/rest/POLocator/findLocations", "@spider": "usps_collection_boxes", "addr:city": "BILLINGS", "addr:country": "US", "addr:postcode": "59102", "addr:state": "MT", "addr:street_address": "1645 AVENUE D", "amenity": "post_box", "collection_times": "Mo-Fr 15:00", "note": "ON 12/24 AND 12/31, THIS BOX MAY BE COLLECTED AS EARLY AS 12 NOON.", "nsi_id": "unitedstatespostalservice-a77078", "operator": "United States Postal Service", "operator:short": "USPS", "operator:type": "public", "operator:wikidata": "Q668687", "ref": "5910200016"}, "type": "Feature"}
{"geometry": {"coordinates": [-108.552957, 45.796867], "type": "Point"}, "id": "L2WzXhKdTuTCzaarjWQEM80nNME=", "properties": {"@source_uri": "https://tools.usps.com/UspsToolsRestServices/rest/POLocator/findLocations", "@spider": "usps_collection_boxes", "addr:city": "BILLINGS", "addr:country": "US", "addr:postcode": "59102", "addr:state": "MT", "addr:street_address": "1511 POLY DR", "amenity": "post_box", "collection_times": "Mo-Fr 16:30", "note": "ON 12/24 AND 12/31, THIS BOX MAY BE COLLECTED AS EARLY AS 12 NOON.", "nsi_id": "unitedstatespostalservice-a77078", "operator": "United States Postal Service", "operator:short": "USPS", "operator:type": "public", "operator:wikidata": "Q668687", "ref": "5910200019"}, "type": "Feature"}
{"geometry": {"coordinates": [-108.570817035, 45.753172431], "type": "Point"}, "id": "HBSEijy1Gp1EMnOPwJbCg0BKeTg=", "properties": {"@source_uri": "https://tools.usps.com/UspsToolsRestServices/rest/POLocator/findLocations", "@spider": "usps_collection_boxes", "addr:city": "BILLINGS", "addr:country": "US", "addr:postcode": "59102", "addr:state": "MT", "addr:street_address": "2250 GRANT RD", "amenity": "post_box", "collection_times": "Mo-Fr 17:10; Sa 17:00", "note": "ON 12/24 AND 12/31, THIS BOX MAY BE COLLECTED AS EARLY AS 12 NOON.", "nsi_id": "unitedstatespostalservice-a77078", "operator": "United States Postal Service", "operator:short": "USPS", "operator:type": "public", "operator:wikidata": "Q668687", "ref": "5910200031"}, "type": "Feature"}
{"geometry": {"coordinates": [-108.55429, 45.778173], "type": "Point"}, "id": "d52xnI3EPOH6TBfoCiCxYHXVK9w=", "properties": {"@source_uri": "https://tools.usps.com/UspsToolsRestServices/rest/POLocator/findLocations", "@spider": "usps_collection_boxes", "addr:city": "BILLINGS", "addr:country": "US", "addr:postcode": "59102", "addr:state": "MT", "addr:street_address": "724 15TH ST W", "amenity": "post_box", "collection_times": "Mo-Fr 17:30; Sa 16:45", "note": "ON 12/24 AND 12/31, THIS BOX MAY BE COLLECTED AS EARLY AS 12 NOON.", "nsi_id": "unitedstatespostalservice-a77078", "operator": "United States Postal Service", "operator:short": "USPS", "operator:type": "public", "operator:wikidata": "Q668687", "ref": "5910200042"}, "type": "Feature"}
{"geometry": {"coordinates": [-108.553104, 45.794576], "type": "Point"}, "id": "im5QmtNUH9XAuoN198z3kxMDW-U=", "properties": {"@source_uri": "https://tools.usps.com/UspsToolsRestServices/rest/POLocator/findLocations", "@spider": "usps_collection_boxes", "addr:city": "BILLINGS", "addr:country": "US", "addr:postcode": "59102", "addr:state": "MT", "addr:street_address": "1500 POLY DR", "amenity": "post_box", "collection_times": "Mo-Fr 16:30", "note": "ON 12/24 AND 12/31, THIS BOX MAY BE COLLECTED AS EARLY AS 12 NOON.", "nsi_id": "unitedstatespostalservice-a77078", "operator": "United States Postal Service", "operator:short": "USPS", "operator:type": "public", "operator:wikidata": "Q668687", "ref": "5910200057"}, "type": "Feature"}
{"geometry": {"coordinates": [-108.576208, 45.776453], "type": "Point"}, "id": "lqHsVZI_VGgh2-h2FmPvmUMFWVE=", "properties": {"@source_uri": "https://tools.usps.com/UspsToolsRestServices/rest/POLocator/findLocations", "@spider": "usps_collection_boxes", "addr:city": "BILLINGS", "addr:country": "US", "addr:postcode": "59102", "addr:state": "MT", "addr:street_address": "605 24TH ST W", "amenity": "post_box", "collection_times": "Mo-Fr 15:00", "note": "ON 12/24 AND 12/31, THIS BOX MAY BE COLLECTED AS EARLY AS 12 NOON.", "nsi_id": "unitedstatespostalservice-a77078", "operator": "United States Postal Service", "operator:short": "USPS", "operator:type": "public", "operator:wikidata": "Q668687", "ref": "5910200059"}, "type": "Feature"}
{"geometry": {"coordinates": [-108.579429, 45.770968], "type": "Point"}, "id": "vClvbk-Qvq6cxbZrqcMBF4cO2c8=", "properties": {"@source_uri": "https://tools.usps.com/UspsToolsRestServices/rest/POLocator/findLocations", "@spider": "usps_collection_boxes", "addr:city": "BILLINGS", "addr:country": "US", "addr:postcode": "59102", "addr:state": "MT", "addr:street_address": "71 25TH ST W", "amenity": "post_box", "collection_times": "Mo-Fr 15:00", "note": "ON 12/24 AND 12/31, THIS BOX MAY BE COLLECTED AS EARLY AS 12 NOON.", "nsi_id": "unitedstatespostalservice-a77078", "operator": "United States Postal Service", "operator:short": "USPS", "operator:type": "public", "operator:wikidata": "Q668687", "ref": "5910200061"}, "type": "Feature"}
{"geometry": {"coordinates": [-108.57629, 45.786175], "type": "Point"}, "id": "hhBOQ3SP6wSU-Nuv4241qCDNyb4=", "properties": {"@source_uri": "https://tools.usps.com/UspsToolsRestServices/rest/POLocator/findLocations", "@spider": "usps_collection_boxes", "addr:city": "BILLINGS", "addr:country": "US", "addr:postcode": "59102", "addr:state": "MT", "addr:street_address": "1643 24TH ST W", "amenity": "post_box", "collection_times": "Mo-Fr 15:00", "note": "ON 12/24 AND 12/31, THIS BOX MAY BE COLLECTED AS EARLY AS 12 NOON.", "nsi_id": "unitedstatespostalservice-a77078", "operator": "United States Postal Service", "operator:short": "USPS", "operator:type": "public", "operator:wikidata": "Q668687", "ref": "5910200066"}, "type": "Feature"}
{"geometry": {"coordinates": [-108.592364, 45.785015], "type": "Point"}, "id": "vMku4RVkjQfjjpdzq5KyFczmJd8=", "properties": {"@source_uri": "https://tools.usps.com/UspsToolsRestServices/rest/POLocator/findLocations", "@spider": "usps_collection_boxes", "addr:city": "BILLINGS", "addr:country": "US", "addr:postcode": "59102", "addr:state": "MT", "addr:street_address": "3137 GRAND AVE", "amenity": "post_box", "collection_times": "Mo-Fr 16:55; Sa 16:05", "note": "ON 12/24 AND 12/31, THIS BOX MAY BE COLLECTED AS EARLY AS 12 NOON.", "nsi_id": "unitedstatespostalservice-a77078", "operator": "United States Postal Service", "operator:short": "USPS", "operator:type": "public", "operator:wikidata": "Q668687", "ref": "5910200067"}, "type": "Feature"}
{"geometry": {"coordinates": [-108.575984, 45.781872], "type": "Point"}, "id": "W-SDur0Gx7pm5Bf3Sk71I1lYRrw=", "properties": {"@source_uri": "https://tools.usps.com/UspsToolsRestServices/rest/POLocator/findLocations", "@spider": "usps_collection_boxes", "addr:city": "BILLINGS", "addr:country": "US", "addr:postcode": "59102", "addr:state": "MT", "addr:street_address": "1211 24TH ST W", "amenity": "post_box", "collection_times": "Mo-Fr 16:40", "note": "ON 12/24 AND 12/31, THIS BOX MAY BE COLLECTED AS EARLY AS 12 NOON.", "nsi_id": "unitedstatespostalservice-a77078", "operator": "United States Postal Service", "operator:short": "USPS", "operator:type": "public", "operator:wikidata": "Q668687", "ref": "5910200068"}, "type": "Feature"}
{"geometry": {"coordinates": [-108.55825, 45.780693], "type": "Point"}, "id": "TG9-5efCD6JYiDoJXlwNKDEnLG8=", "properties": {"@source_uri": "https://tools.usps.com/UspsToolsRestServices/rest/POLocator/findLocations", "@spider": "usps_collection_boxes", "addr:city": "BILLINGS", "addr:country": "US", "addr:postcode": "59102", "addr:state": "MT", "addr:street_address": "1643 LEWIS AVE", "amenity": "post_box", "collection_times": "Mo-Fr 15:00", "note": "ON 12/24 AND 12/31, THIS BOX MAY BE COLLECTED AS EARLY AS 12 NOON.", "nsi_id": "unitedstatespostalservice-a77078", "operator": "United States Postal Service", "operator:short": "USPS", "operator:type": "public", "operator:wikidata": "Q668687", "ref": "5910200070"}, "type": "Feature"}
{"geometry": {"coordinates": [-108.579596, 45.766032], "type": "Point"}, "id": "i8uyicldAmRcsN8rFnpOlPtm7v0=", "properties": {"@source_uri": "https://tools.usps.com/UspsToolsRestServices/rest/POLocator/findLocations", "@spider": "usps_collection_boxes", "addr:city": "BILLINGS", "addr:country": "US", "addr:postcode": "59102", "addr:state": "MT", "addr:street_address": "300 S 24TH ST W", "amenity": "post_box", "collection_times": "Mo-Sa 15:00", "note": "ON 12/24 AND 12/31, THIS BOX MAY BE COLLECTED AS EARLY AS 12 NOON.", "nsi_id": "unitedstatespostalservice-a77078", "operator": "United States Postal Service", "operator:short": "USPS", "operator:type": "public", "operator:wikidata": "Q668687", "ref": "5910200072"}, "type": "Feature"}
{"geometry": {"coordinates": [-108.576024, 45.766944], "type": "Point"}, "id": "Z5CAyMxrImmkO_WO5K1BbvYitoA=", "properties": {"@source_uri": "https://tools.usps.com/UspsToolsRestServices/rest/POLocator/findLocations", "@spider": "usps_collection_boxes", "addr:city": "BILLINGS", "addr:country": "US", "addr:postcode": "59102", "addr:state": "MT", "addr:street_address": "111 S 24TH ST W", "amenity": "post_box", "collection_times": "Mo-Fr 16:15", "note": "ON 12/24 AND 12/31, THIS BOX MAY BE COLLECTED AS EARLY AS 12 NOON.", "nsi_id": "unitedstatespostalservice-a77078", "operator": "United States Postal Service", "operator:short": "USPS", "operator:type": "public", "operator:wikidata": "Q668687", "ref": "5910200073"}, "type": "Feature"}
{"geometry": {"coordinates": [-108.547021, 45.78294], "type": "Point"}, "id": "My1QEeJvDEVAU5zFugMNkVou6J8=", "properties": {"@source_uri": "https://tools.usps.com/UspsToolsRestServices/rest/POLocator/findLocations", "@spider": "usps_collection_boxes", "addr:city": "BILLINGS", "addr:country": "US", "addr:postcode": "59102", "addr:state": "MT", "addr:street_address": "1212 GRAND AVE", "amenity": "post_box", "collection_times": "Mo-Fr 15:00", "note": "ON 12/24 AND 12/31, THIS BOX MAY BE COLLECTED AS EARLY AS 12 NOON.", "nsi_id": "unitedstatespostalservice-a77078", "operator": "United States Postal Service", "operator:short": "USPS", "operator:type": "public", "operator:wikidata": "Q668687", "ref": "5910200074"}, "type": "Feature"}
{"geometry": {"coordinates": [-108.529083, 45.77078], "type": "Point"}, "id": "uB_LlJ5_tDpoP5bmhA5VqzLW128=", "properties": {"@source_uri": "https://tools.usps.com/UspsToolsRestServices/rest/POLocator/findLocations", "@spider": "usps_collection_boxes", "addr:city": "BILLINGS", "addr:country": "US", "addr:postcode": "59102", "addr:state": "MT", "addr:street_address": "511 CENTRAL AVE", "amenity": "post_box", "collection_times": "Mo-Sa 15:00", "note": "ON 12/24 AND 12/31, THIS BOX MAY BE COLLECTED AS EARLY AS 12 NOON.", "nsi_id": "unitedstatespostalservice-a77078", "operator": "United States Postal Service", "operator:short": "USPS", "operator:type": "public", "operator:wikidata": "Q668687", "ref": "5910200078"}, "type": "Feature"}
{"geometry": {"coordinates": [-108.570817035, 45.753172431], "type": "Point"}, "id": "9IyJytuCfprerUzlhb79tWzGYG0=", "properties": {"@source_uri": "https://tools.usps.com/UspsToolsRestServices/rest/POLocator/findLocations", "@spider": "usps_collection_boxes", "addr:city": "BILLINGS", "addr:country": "US", "addr:postcode": "59102", "addr:state": "MT", "addr:street_address": "2250 GRANT RD", "amenity": "post_box", "collection_times": "Mo-Fr 17:10; Sa 10:00", "indoor": "yes", "note": "ON 12/24 AND 12/31, THIS BOX MAY BE COLLECTED AS EARLY AS 12 NOON.", "nsi_id": "unitedstatespostalservice-a77078", "operator": "United States Postal Service", "operator:short": "USPS", "operator:type": "public", "operator:wikidata": "Q668687", "ref": "5910200084"}, "type": "Feature"}
{"geometry": {"coordinates": [-108.570817035, 45.753172431], "type": "Point"}, "id": "CtQYN1ezAJ3AWgU3R8zGl04DEeI=", "properties": {"@source_uri": "https://tools.usps.com/UspsToolsRestServices/rest/POLocator/findLocations", "@spider": "usps_collection_boxes", "addr:city": "BILLINGS", "addr:country": "US", "addr:postcode": "59102", "addr:state": "MT", "addr:street_address": "2250 GRANT RD", "amenity": "post_box", "collection_times": "Mo-Fr 17:10; Sa 10:00", "indoor": "yes", "note": "ON 12/24 AND 12/31, THIS BOX MAY BE COLLECTED AS EARLY AS 12 NOON.", "nsi_id": "unitedstatespostalservice-a77078", "operator": "United States Postal Service", "operator:short": "USPS", "operator:type": "public", "operator:wikidata": "Q668687", "ref": "5910200085"}, "type": "Feature"}
{"geometry": {"coordinates": [-108.570817035, 45.753172431], "type": "Point"}, "id": "rh1kU_Qx53WE96PkB197f-lX5Qw=", "properties": {"@source_uri": "https://tools.usps.com/UspsToolsRestServices/rest/POLocator/findLocations", "@spider": "usps_collection_boxes", "addr:city": "BILLINGS", "addr:country": "US", "addr:postcode": "59102", "addr:state": "MT", "addr:street_address": "2250 GRANT RD", "amenity": "post_box", "collection_times": "Mo-Fr 17:10; Sa 10:00", "indoor": "yes", "note": "ON 12/24 AND 12/31, THIS BOX MAY BE COLLECTED AS EARLY AS 12 NOON.", "nsi_id": "unitedstatespostalservice-a77078", "operator": "United States Postal Service", "operator:short": "USPS", "operator:type": "public", "operator:wikidata": "Q668687", "ref": "5910200086"}, "type": "Feature"}
{"geometry": {"coordinates": [-108.570817035, 45.753172431], "type": "Point"}, "id": "_pZqZvPL6xDL1h1iPfPRWfRypRc=", "properties": {"@source_uri": "https://tools.usps.com/UspsToolsRestServices/rest/POLocator/findLocations", "@spider": "usps_collection_boxes", "addr:city": "BILLINGS", "addr:country": "US", "addr:postcode": "59102", "addr:state": "MT", "addr:street_address": "2250 GRANT RD", "amenity": "post_box", "collection_times": "Mo-Fr 17:10; Sa 10:00", "indoor": "yes", "note": "ON 12/24 AND 12/31, THIS BOX MAY BE COLLECTED AS EARLY AS 12 NOON.", "nsi_id": "unitedstatespostalservice-a77078", "operator": "United States Postal Service", "operator:short": "USPS", "operator:type": "public", "operator:wikidata": "Q668687", "ref": "5910200087"}, "type": "Feature"}
{"geometry": {"coordinates": [-108.575508, 45.768501], "type": "Point"}, "id": "YWkxBeVhq4Q_VAI-q5_SXwdqe_A=", "properties": {"@source_uri": "https://tools.usps.com/UspsToolsRestServices/rest/POLocator/findLocations", "@spider": "usps_collection_boxes", "addr:city": "BILLINGS", "addr:country": "US", "addr:postcode": "59102", "addr:state": "MT", "addr:street_address": "2334 CENTRAL AVE", "amenity": "post_box", "collection_times": "Mo-Fr 15:00", "note": "ON 12/24 AND 12/31, THIS BOX MAY BE COLLECTED AS EARLY AS 12 NOON.", "nsi_id": "unitedstatespostalservice-a77078", "operator": "United States Postal Service", "operator:short": "USPS", "operator:type": "public", "operator:wikidata": "Q668687", "ref": "5910200089"}, "type": "Feature"}
{"geometry": {"coordinates": [-108.580274, 45.757506], "type": "Point"}, "id": "qnsYsmnUggTlrj_gmWUuyW_iIbE=", "properties": {"@source_uri": "https://tools.usps.com/UspsToolsRestServices/rest/POLocator/findLocations", "@spider": "usps_collection_boxes", "addr:city": "BILLINGS", "addr:country": "US", "addr:postcode": "59102", "addr:state": "MT", "addr:street_address": "2525 KING AVE W", "amenity": "post_box", "collection_times": "Mo-Sa 16:14", "note": "ON 12/24 AND 12/31, THIS BOX MAY BE COLLECTED AS EARLY AS 12 NOON.", "nsi_id": "unitedstatespostalservice-a77078", "operator": "United States Postal Service", "operator:short": "USPS", "operator:type": "public", "operator:wikidata": "Q668687", "ref": "5910200091"}, "type": "Feature"}
{"geometry": {"coordinates": [-108.576718, 45.783055], "type": "Point"}, "id": "b8HPL82WOmwivKnKTDLHjUdl7OM=", "properties": {"@source_uri": "https://tools.usps.com/UspsToolsRestServices/rest/POLocator/findLocations", "@spider": "usps_collection_boxes", "addr:city": "BILLINGS", "addr:country": "US", "addr:postcode": "59102", "addr:state": "MT", "addr:street_address": "1302 24TH ST W", "amenity": "post_box", "collection_times": "Mo-Fr 16:45", "note": "ON 12/24 AND 12/31, THIS BOX MAY BE COLLECTED AS EARLY AS 12 NOON.", "nsi_id": "unitedstatespostalservice-a77078", "operator": "United States Postal Service", "operator:short": "USPS", "operator:type": "public", "operator:wikidata": "Q668687", "ref": "5910200103"}, "type": "Feature"}
{"geometry": {"coordinates": [-108.569944, 45.758149], "type": "Point"}, "id": "uqVbR5Hy1AuPq6PxJpxvFI3YPdA=", "properties": {"@source_uri": "https://tools.usps.com/UspsToolsRestServices/rest/POLocator/findLocations", "@spider": "usps_collection_boxes", "addr:city": "BILLINGS", "addr:country": "US", "addr:postcode": "59102", "addr:state": "MT", "addr:street_address": "2121 ROSEBUD DR", "amenity": "post_box", "collection_times": "Mo-Fr 15:00", "note": "ON 12/24 AND 12/31, THIS BOX MAY BE COLLECTED AS EARLY AS 12 NOON.", "nsi_id": "unitedstatespostalservice-a77078", "operator": "United States Postal Service", "operator:short": "USPS", "operator:type": "public", "operator:wikidata": "Q668687", "ref": "5910200104"}, "type": "Feature"}
{"geometry": {"coordinates": [-108.570817035, 45.753172431], "type": "Point"}, "id": "g7na3PnLP1H93g8nfBn-OwMb-5o=", "properties": {"@source_uri": "https://tools.usps.com/UspsToolsRestServices/rest/POLocator/findLocations", "@spider": "usps_collection_boxes", "addr:city": "BILLINGS", "addr:country": "US", "addr:postcode": "59102", "addr:state": "MT", "addr:street_address": "2250 GRANT RD", "amenity": "post_box", "collection_times": "Mo-Fr 17:10; Sa 10:00", "name": "USPS COLLECTION BOX - APC", "note": "ON 12/24 AND 12/31, THIS BOX MAY BE COLLECTED AS EARLY AS 12 NOON.", "nsi_id": "unitedstatespostalservice-a77078", "operator": "United States Postal Service", "operator:short": "USPS", "operator:type": "public", "operator:wikidata": "Q668687", "ref": "5910200105"}, "type": "Feature"}
{"geometry": {"coordinates": [-108.554058, 45.777673], "type": "Point"}, "id": "fF8_eEP3SAZhPBTOU4vzEvIno24=", "properties": {"@source_uri": "https://tools.usps.com/UspsToolsRestServices/rest/POLocator/findLocations", "@spider": "usps_collection_boxes", "addr:city": "BILLINGS", "addr:country": "US", "addr:postcode": "59102", "addr:state": "MT", "addr:street_address": "724 15TH ST W", "amenity": "post_box", "collection_times": "Mo-Fr 17:30; Sa 16:45", "name": "USPS COLLECTION BOX - APC", "note": "ON 12/24 AND 12/31, THIS BOX MAY BE COLLECTED AS EARLY AS 12 NOON.", "nsi_id": "unitedstatespostalservice-a77078", "operator": "United States Postal Service", "operator:short": "USPS", "operator:type": "public", "operator:wikidata": "Q668687", "ref": "5910200106"}, "type": "Feature"}
{"geometry": {"coordinates": [-108.554096, 45.777638], "type": "Point"}, "id": "JWTLu6muf5Oo46QYU0EDTHmzcY0=", "properties": {"@source_uri": "https://tools.usps.com/UspsToolsRestServices/rest/POLocator/findLocations", "@spider": "usps_collection_boxes", "addr:city": "BILLINGS", "addr:country": "US", "addr:postcode": "59102", "addr:state": "MT", "addr:street_address": "724 15TH ST W", "amenity": "post_box", "collection_times": "Mo-Fr 17:30; Sa 15:30", "indoor": "yes", "note": "ON 12/24 AND 12/31, THIS BOX MAY BE COLLECTED AS EARLY AS 12 NOON.", "nsi_id": "unitedstatespostalservice-a77078", "operator": "United States Postal Service", "operator:short": "USPS", "operator:type": "public", "operator:wikidata": "Q668687", "ref": "5910200107"}, "type": "Feature"}
{"geometry": {"coordinates": [-108.557731, 45.785105], "type": "Point"}, "id": "oH_ygZD0aZ7Lb5KADeF2qv4bmbs=", "properties": {"@source_uri": "https://tools.usps.com/UspsToolsRestServices/rest/POLocator/findLocations", "@spider": "usps_collection_boxes", "addr:city": "BILLINGS", "addr:country": "US", "addr:postcode": "59102", "addr:state": "MT", "addr:street_address": "1603 GRAND AVE", "amenity": "post_box", "collection_times": "Mo-Fr 15:00", "note": "ON 12/24 AND 12/31, THIS BOX MAY BE COLLECTED AS EARLY AS 12 NOON.", "nsi_id": "unitedstatespostalservice-a77078", "operator": "United States Postal Service", "operator:short": "USPS", "operator:type": "public", "operator:wikidata": "Q668687", "ref": "5910200110"}, "type": "Feature"}
{"geometry": {"coordinates": [-108.470772, 45.822468], "type": "Point"}, "id": "i9l4qwD80L3S6q1ClcKwllNsVfI=", "properties": {"@source_uri": "https://tools.usps.com/UspsToolsRestServices/rest/POLocator/findLocations", "@spider": "usps_collection_boxes", "addr:city": "BILLINGS", "addr:country": "US", "addr:postcode": "59105", "addr:state": "MT", "addr:street_address": "1327 MAIN ST", "amenity": "post_box", "collection_times": "Mo-Fr 17:00; Sa 15:00", "note": "ON 12/24 AND 12/31, THIS BOX MAY BE COLLECTED AS EARLY AS 12 NOON.", "nsi_id": "unitedstatespostalservice-a77078", "operator": "United States Postal Service", "operator:short": "USPS", "operator:type": "public", "operator:wikidata": "Q668687", "ref": "5910500002"}, "type": "Feature"}
{"geometry": {"coordinates": [-108.536877, 45.803471], "type": "Point"}, "id": "HOmZrjpivwuUhj8ikeO1W9pmX28=", "properties": {"@source_uri": "https://tools.usps.com/UspsToolsRestServices/rest/POLocator/findLocations", "@spider": "usps_collection_boxes", "addr:city": "BILLINGS", "addr:country": "US", "addr:postcode": "59105", "addr:state": "MT", "addr:street_address": "1901 TERMINAL CIR", "amenity": "post_box", "collection_times": "Mo-Fr 16:15; Sa 15:00", "note": "ON 12/24 AND 12/31, THIS BOX MAY BE COLLECTED AS EARLY AS 12 NOON.", "nsi_id": "unitedstatespostalservice-a77078", "operator": "United States Postal Service", "operator:short": "USPS", "operator:type": "public", "operator:wikidata": "Q668687", "ref": "5910500009"}, "type": "Feature"}
{"geometry": {"coordinates": [-108.4678, 45.826978], "type": "Point"}, "id": "Tn27s76iOXhNPUpH8Jb0WBxLhz8=", "properties": {"@source_uri": "https://tools.usps.com/UspsToolsRestServices/rest/POLocator/findLocations", "@spider": "usps_collection_boxes", "addr:city": "BILLINGS", "addr:country": "US", "addr:postcode": "59105", "addr:state": "MT", "addr:street_address": "710 WICKS LN", "amenity": "post_box", "collection_times": "Mo-Fr 17:00; Sa 13:45", "indoor": "yes", "note": "ON 12/24 AND 12/31, THIS BOX MAY BE COLLECTED AS EARLY AS 12 NOON.", "nsi_id": "unitedstatespostalservice-a77078", "operator": "United States Postal Service", "operator:short": "USPS", "operator:type": "public", "operator:wikidata": "Q668687", "ref": "5910500012"}, "type": "Feature"}
{"geometry": {"coordinates": [-108.467906, 45.826763], "type": "Point"}, "id": "e3WGSvbN6hlZbikretIg8cZvHlA=", "properties": {"@source_uri": "https://tools.usps.com/UspsToolsRestServices/rest/POLocator/findLocations", "@spider": "usps_collection_boxes", "addr:city": "BILLINGS", "addr:country": "US", "addr:postcode": "59105", "addr:state": "MT", "addr:street_address": "710 WICKS LN", "amenity": "post_box", "collection_times": "Mo-Fr 17:00; Sa 13:45", "indoor": "yes", "note": "ON 12/24 AND 12/31, THIS BOX MAY BE COLLECTED AS EARLY AS 12 NOON.", "nsi_id": "unitedstatespostalservice-a77078", "operator": "United States Postal Service", "operator:short": "USPS", "operator:type": "public", "operator:wikidata": "Q668687", "ref": "5910500013"}, "type": "Feature"}
{"geometry": {"coordinates": [-108.467896, 45.826615], "type": "Point"}, "id": "pPFuUUj8Wl_PzfxMdRTWzGnpUo0=", "properties": {"@source_uri": "https://tools.usps.com/UspsToolsRestServices/rest/POLocator/findLocations", "@spider": "usps_collection_boxes", "addr:city": "BILLINGS", "addr:country": "US", "addr:postcode": "59105", "addr:state": "MT", "addr:street_address": "710 WICKS LN", "amenity": "post_box", "collection_times": "Mo-Fr 17:00; Sa 13:45", "indoor": "yes", "note": "ON 12/24 AND 12/31, THIS BOX MAY BE COLLECTED AS EARLY AS 12 NOON.", "nsi_id": "unitedstatespostalservice-a77078", "operator": "United States Postal Service", "operator:short": "USPS", "operator:type": "public", "operator:wikidata": "Q668687", "ref": "5910500014"}, "type": "Feature"}
{"geometry": {"coordinates": [-108.465812, 45.82738], "type": "Point"}, "id": "xsZsAlQ7d2vPMRW_8vaZeubF8cE=", "properties": {"@source_uri": "https://tools.usps.com/UspsToolsRestServices/rest/POLocator/findLocations", "@spider": "usps_collection_boxes", "addr:city": "BILLINGS", "addr:country": "US", "addr:postcode": "59105", "addr:state": "MT", "addr:street_address": "710 WICKS LN", "amenity": "post_box", "collection_times": "Mo-Fr 17:00; Sa 13:45", "note": "ON 12/24 AND 12/31, THIS BOX MAY BE COLLECTED AS EARLY AS 12 NOON.", "nsi_id": "unitedstatespostalservice-a77078", "operator": "United States Postal Service", "operator:short": "USPS", "operator:type": "public", "operator:wikidata": "Q668687", "ref": "5910500020"}, "type": "Feature"}
