{"geometry": {"coordinates": [-105.638696142, 48.091715678], "type": "Point"}, "id": "7_BZ2gmWrCIeWlSR8UeNFYZSti8=", "properties": {"@spider": "usps_collection_boxes", "addr:city": "WOLFPOINT", "addr:country": "US", "addr:full": "131 FRONT ST", "addr:postcode": "59201", "addr:state": "MT", "brand": "USPS", "brand:wikidata": "Q668687", "collection_times": "Mo-Sa 18:00", "name": "USPS COLLECTION BOX - BLUE BOX", "note": "ON 12/24 AND 12/31, THIS BOX MAY BE COLLECTED AS EARLY AS 12 NOON.", "ref": "5920100000"}, "type": "Feature"}
{"geometry": {"coordinates": [-105.640834094, 48.089574], "type": "Point"}, "id": "8xTZRQYp3VfiTLtYwhTZkd38bbU=", "properties": {"@spider": "usps_collection_boxes", "addr:city": "WOLFPOINT", "addr:country": "US", "addr:full": "217 3RD AVE S", "addr:postcode": "59201", "addr:state": "MT", "brand": "USPS", "brand:wikidata": "Q668687", "collection_times": "Mo-Fr 11:30", "name": "USPS COLLECTION BOX - BLUE BOX", "ref": "5920100004"}, "type": "Feature"}
{"geometry": {"coordinates": [-105.638774703, 48.088202703], "type": "Point"}, "id": "3VDPfK7MIS9sB0KaK7PqUpwwXA4=", "properties": {"@spider": "usps_collection_boxes", "addr:city": "WOLFPOINT", "addr:country": "US", "addr:full": "400 2ND AVE S", "addr:postcode": "59201", "addr:state": "MT", "brand": "USPS", "brand:wikidata": "Q668687", "collection_times": "Mo-Fr 11:30", "name": "USPS COLLECTION BOX - BLUE BOX", "ref": "5920100005"}, "type": "Feature"}
{"geometry": {"coordinates": [-105.638696142, 48.091715678], "type": "Point"}, "id": "c3J1T5HIe9rsqWEOABVpaE040Qs=", "properties": {"@spider": "usps_collection_boxes", "addr:city": "WOLFPOINT", "addr:country": "US", "addr:full": "131 FRONT ST", "addr:postcode": "59201", "addr:state": "MT", "brand": "USPS", "brand:wikidata": "Q668687", "collection_times": "Mo-Sa 18:00", "name": "USPS COLLECTION BOX - PO LOBBY", "note": "ON 12/24 AND 12/31, THIS BOX MAY BE COLLECTED AS EARLY AS 12 NOON.", "ref": "5920100006"}, "type": "Feature"}
{"geometry": {"coordinates": [-105.638696142, 48.091715678], "type": "Point"}, "id": "6K4SJEQ8Zb-G3fRgu-0_7XeAqvI=", "properties": {"@spider": "usps_collection_boxes", "addr:city": "WOLFPOINT", "addr:country": "US", "addr:full": "131 FRONT ST", "addr:postcode": "59201", "addr:state": "MT", "brand": "USPS", "brand:wikidata": "Q668687", "collection_times": "Mo-Sa 18:00", "name": "USPS COLLECTION BOX - PO LOBBY", "note": "ON 12/24 AND 12/31, THIS BOX MAY BE COLLECTED AS EARLY AS 12 NOON.", "ref": "5920100008"}, "type": "Feature"}
{"geometry": {"coordinates": [-105.638696142, 48.091715678], "type": "Point"}, "id": "LTD5gB2sQ8wbFlSrzeCvGeawEac=", "properties": {"@spider": "usps_collection_boxes", "addr:city": "WOLFPOINT", "addr:country": "US", "addr:full": "131 FRONT ST", "addr:postcode": "59201", "addr:state": "MT", "brand": "USPS", "brand:wikidata": "Q668687", "collection_times": "Mo-Sa 18:00", "name": "USPS COLLECTION BOX - PO LOBBY", "note": "ON 12/24 AND 12/31, THIS BOX MAY BE COLLECTED AS EARLY AS 12 NOON.", "ref": "5920100010"}, "type": "Feature"}
{"geometry": {"coordinates": [-105.638696142, 48.091715678], "type": "Point"}, "id": "7MQ1-c3vk-djSykS1VPUGH8n55A=", "properties": {"@spider": "usps_collection_boxes", "addr:city": "WOLFPOINT", "addr:country": "US", "addr:full": "131 FRONT ST", "addr:postcode": "59201", "addr:state": "MT", "brand": "USPS", "brand:wikidata": "Q668687", "collection_times": "Mo-Sa 18:00", "name": "USPS COLLECTION BOX - PO LOBBY", "note": "ON 12/24 AND 12/31, THIS BOX MAY BE COLLECTED AS EARLY AS 12 NOON.", "ref": "5920100011"}, "type": "Feature"}
{"geometry": {"coordinates": [-104.457554303, 48.689611536], "type": "Point"}, "id": "NRItBMkZM7O7wx3LMg6X1pZw4PU=", "properties": {"@spider": "usps_collection_boxes", "addr:city": "ANTELOPE", "addr:country": "US", "addr:full": "104 MAIN ST", "addr:postcode": "59211", "addr:state": "MT", "brand": "USPS", "brand:wikidata": "Q668687", "collection_times": "Mo-Sa 12:00", "name": "USPS COLLECTION BOX - PO LOBBY", "ref": "5921100000"}, "type": "Feature"}
{"geometry": {"coordinates": [-104.457554303, 48.689611536], "type": "Point"}, "id": "RqBqxbfaqRPktVhO82RfQpkuGjk=", "properties": {"@spider": "usps_collection_boxes", "addr:city": "ANTELOPE", "addr:country": "US", "addr:full": "104 MAIN ST", "addr:postcode": "59211", "addr:state": "MT", "brand": "USPS", "brand:wikidata": "Q668687", "collection_times": "Mo-Sa 11:50", "name": "USPS COLLECTION BOX - PO LOBBY", "ref": "5921100001"}, "type": "Feature"}
{"geometry": {"coordinates": [-104.221725692, 48.140858854], "type": "Point"}, "id": "hJkxzXlUpgZ2UMNiDn-mbNnQbE4=", "properties": {"@spider": "usps_collection_boxes", "addr:city": "BAINVILLE", "addr:country": "US", "addr:full": "306 CLINTON AVE", "addr:postcode": "59212", "addr:state": "MT", "brand": "USPS", "brand:wikidata": "Q668687", "collection_times": "Mo-Fr 15:00; Sa 09:45", "name": "USPS COLLECTION BOX - PO LOBBY", "note": "ON 12/24 AND 12/31, THIS BOX MAY BE COLLECTED AS EARLY AS 12 NOON.", "ref": "5921200001"}, "type": "Feature"}
{"geometry": {"coordinates": [-104.221725692, 48.140858854], "type": "Point"}, "id": "lpVekwpwntKukjqCkp7ep31j1vE=", "properties": {"@spider": "usps_collection_boxes", "addr:city": "BAINVILLE", "addr:country": "US", "addr:full": "306 CLINTON AVE", "addr:postcode": "59212", "addr:state": "MT", "brand": "USPS", "brand:wikidata": "Q668687", "collection_times": "Mo-Fr 15:00; Sa 09:45", "name": "USPS COLLECTION BOX - PO LOBBY", "note": "ON 12/24 AND 12/31, THIS BOX MAY BE COLLECTED AS EARLY AS 12 NOON.", "ref": "5921200002"}, "type": "Feature"}
{"geometry": {"coordinates": [-104.221725692, 48.140858854], "type": "Point"}, "id": "-fEJvW2vfgpRI2my4J4w0gQstxA=", "properties": {"@spider": "usps_collection_boxes", "addr:city": "BAINVILLE", "addr:country": "US", "addr:full": "306 CLINTON AVE", "addr:postcode": "59212", "addr:state": "MT", "brand": "USPS", "brand:wikidata": "Q668687", "collection_times": "Mo-Fr 14:50", "name": "USPS COLLECTION BOX - PO LOBBY", "note": "ON 12/24 AND 12/31, THIS BOX MAY BE COLLECTED AS EARLY AS 12 NOON.", "ref": "5921200003"}, "type": "Feature"}
{"geometry": {"coordinates": [-104.917814126, 48.149794835], "type": "Point"}, "id": "dkmceaEnv8Bnf5eqbW_lVibNgbQ=", "properties": {"@spider": "usps_collection_boxes", "addr:city": "BROCKTON", "addr:country": "US", "addr:full": "701 B ST", "addr:postcode": "59213", "addr:state": "MT", "brand": "USPS", "brand:wikidata": "Q668687", "collection_times": "Mo-Fr 12:00; Sa 09:45", "name": "USPS COLLECTION BOX - BLUE BOX", "ref": "5921300000"}, "type": "Feature"}
{"geometry": {"coordinates": [-104.917814126, 48.149794835], "type": "Point"}, "id": "Jf_5cJQCEziD7opwFrCJn2paLv4=", "properties": {"@spider": "usps_collection_boxes", "addr:city": "BROCKTON", "addr:country": "US", "addr:full": "701 B ST", "addr:postcode": "59213", "addr:state": "MT", "brand": "USPS", "brand:wikidata": "Q668687", "collection_times": "Mo-Fr 12:00; Sa 09:45", "name": "USPS COLLECTION BOX - PO LOBBY", "ref": "5921300001"}, "type": "Feature"}
{"geometry": {"coordinates": [-104.917814126, 48.149794835], "type": "Point"}, "id": "18mNbYQMyuKfGQ8dxSyX-I1qO2c=", "properties": {"@spider": "usps_collection_boxes", "addr:city": "BROCKTON", "addr:country": "US", "addr:full": "701 B ST", "addr:postcode": "59213", "addr:state": "MT", "brand": "USPS", "brand:wikidata": "Q668687", "collection_times": "Mo-Fr 12:00; Sa 09:45", "name": "USPS COLLECTION BOX - PO LOBBY", "ref": "5921300002"}, "type": "Feature"}
{"geometry": {"coordinates": [-104.917814126, 48.149794835], "type": "Point"}, "id": "RIC9EKBwoVteRfnv58heDx0L1p0=", "properties": {"@spider": "usps_collection_boxes", "addr:city": "BROCKTON", "addr:country": "US", "addr:full": "701 B ST", "addr:postcode": "59213", "addr:state": "MT", "brand": "USPS", "brand:wikidata": "Q668687", "collection_times": "Mo-Fr 11:50", "name": "USPS COLLECTION BOX - PO LOBBY", "ref": "5921300003"}, "type": "Feature"}
{"geometry": {"coordinates": [-105.764434902, 47.29994424], "type": "Point"}, "id": "O9hdsIXF4PH8NPDT8AJLLkjHbzw=", "properties": {"@spider": "usps_collection_boxes", "addr:city": "BROCKWAY", "addr:country": "US", "addr:full": "306 2ND AVE", "addr:postcode": "59214", "addr:state": "MT", "brand": "USPS", "brand:wikidata": "Q668687", "collection_times": "Mo-Fr 12:15; Sa 11:00", "name": "USPS COLLECTION BOX - PO LOBBY", "note": "ON 12/24 AND 12/31, THIS BOX MAY BE COLLECTED AS EARLY AS 12 NOON.", "ref": "5921400000"}, "type": "Feature"}
{"geometry": {"coordinates": [-105.764434902, 47.29994424], "type": "Point"}, "id": "vzRgPMlgiBSzvlf1hp8pJfS58mc=", "properties": {"@spider": "usps_collection_boxes", "addr:city": "BROCKWAY", "addr:country": "US", "addr:full": "306 2ND AVE", "addr:postcode": "59214", "addr:state": "MT", "brand": "USPS", "brand:wikidata": "Q668687", "collection_times": "Mo-Fr 12:15; Sa 11:00", "name": "USPS COLLECTION BOX - PO LOBBY", "note": "ON 12/24 AND 12/31, THIS BOX MAY BE COLLECTED AS EARLY AS 12 NOON.", "ref": "5921400001"}, "type": "Feature"}
{"geometry": {"coordinates": [-105.764434902, 47.29994424], "type": "Point"}, "id": "eLqtkvQgsLxzrC7vTBmbvQWdgfQ=", "properties": {"@spider": "usps_collection_boxes", "addr:city": "BROCKWAY", "addr:country": "US", "addr:full": "306 2ND AVE", "addr:postcode": "59214", "addr:state": "MT", "brand": "USPS", "brand:wikidata": "Q668687", "collection_times": "Mo-Fr 12:15; Sa 11:00", "name": "USPS COLLECTION BOX - PO LOBBY", "note": "ON 12/24 AND 12/31, THIS BOX MAY BE COLLECTED AS EARLY AS 12 NOON.", "ref": "5921400002"}, "type": "Feature"}
{"geometry": {"coordinates": [-105.58850238, 47.418715363], "type": "Point"}, "id": "N4KHvo3qctF1xUYk93OGYZ6A9nU=", "properties": {"@spider": "usps_collection_boxes", "addr:city": "CIRCLE", "addr:country": "US", "addr:full": "301 8TH ST", "addr:postcode": "59215", "addr:state": "MT", "brand": "USPS", "brand:wikidata": "Q668687", "collection_times": "Mo-Fr 16:20; Sa 11:00", "name": "USPS COLLECTION BOX - BLUE BOX", "note": "ON 12/24 AND 12/31, THIS BOX MAY BE COLLECTED AS EARLY AS 12 NOON.", "ref": "5921500000"}, "type": "Feature"}
{"geometry": {"coordinates": [-105.58850238, 47.418715363], "type": "Point"}, "id": "YG2HnqGzGQ2k7UerXGxy7glXgCA=", "properties": {"@spider": "usps_collection_boxes", "addr:city": "CIRCLE", "addr:country": "US", "addr:full": "301 8TH ST", "addr:postcode": "59215", "addr:state": "MT", "brand": "USPS", "brand:wikidata": "Q668687", "collection_times": "Mo-Fr 16:45; Sa 11:00", "name": "USPS COLLECTION BOX - PO LOBBY", "note": "ON 12/24 AND 12/31, THIS BOX MAY BE COLLECTED AS EARLY AS 12 NOON.", "ref": "5921500001"}, "type": "Feature"}
{"geometry": {"coordinates": [-105.58850238, 47.418715363], "type": "Point"}, "id": "uvrkGCt2G0-70Queq1ewaw5199E=", "properties": {"@spider": "usps_collection_boxes", "addr:city": "CIRCLE", "addr:country": "US", "addr:full": "301 8TH ST", "addr:postcode": "59215", "addr:state": "MT", "brand": "USPS", "brand:wikidata": "Q668687", "collection_times": "Mo-Fr 16:45; Sa 11:00", "name": "USPS COLLECTION BOX - PO LOBBY", "note": "ON 12/24 AND 12/31, THIS BOX MAY BE COLLECTED AS EARLY AS 12 NOON.", "ref": "5921500002"}, "type": "Feature"}
{"geometry": {"coordinates": [-105.58850238, 47.418715363], "type": "Point"}, "id": "2iVuDGDeJ1Dte8FsnGfR9Fr2VUU=", "properties": {"@spider": "usps_collection_boxes", "addr:city": "CIRCLE", "addr:country": "US", "addr:full": "301 8TH ST", "addr:postcode": "59215", "addr:state": "MT", "brand": "USPS", "brand:wikidata": "Q668687", "collection_times": "Mo-Fr 16:45", "name": "USPS COLLECTION BOX - PO LOBBY", "note": "ON 12/24 AND 12/31, THIS BOX MAY BE COLLECTED AS EARLY AS 12 NOON.", "ref": "5921500003"}, "type": "Feature"}
{"geometry": {"coordinates": [-104.258812733, 47.578958665], "type": "Point"}, "id": "8vlK_Jmlxtur0zY1j8F75vrIoVo=", "properties": {"@spider": "usps_collection_boxes", "addr:city": "CRANE", "addr:country": "US", "addr:full": "117 GARFIELD AVE", "addr:postcode": "59217", "addr:state": "MT", "brand": "USPS", "brand:wikidata": "Q668687", "collection_times": "Mo-Fr 11:00; Sa 10:45", "name": "USPS COLLECTION BOX - PO LOBBY", "ref": "5921700001"}, "type": "Feature"}
{"geometry": {"coordinates": [-104.258812733, 47.578958665], "type": "Point"}, "id": "v0okWSto_9FOXyDeIEBINVe_Gx0=", "properties": {"@spider": "usps_collection_boxes", "addr:city": "CRANE", "addr:country": "US", "addr:full": "117 GARFIELD AVE", "addr:postcode": "59217", "addr:state": "MT", "brand": "USPS", "brand:wikidata": "Q668687", "collection_times": "Mo-Fr 11:00; Sa 10:45", "name": "USPS COLLECTION BOX - PO LOBBY", "ref": "5921700002"}, "type": "Feature"}
{"geometry": {"coordinates": [-104.258812733, 47.578958665], "type": "Point"}, "id": "WpQvEWiWNajmtCAV0WG5BUGVuh8=", "properties": {"@spider": "usps_collection_boxes", "addr:city": "CRANE", "addr:country": "US", "addr:full": "117 GARFIELD AVE", "addr:postcode": "59217", "addr:state": "MT", "brand": "USPS", "brand:wikidata": "Q668687", "collection_times": "Mo-Fr 11:00; Sa 10:45", "name": "USPS COLLECTION BOX - PO LOBBY", "ref": "5921700003"}, "type": "Feature"}
{"geometry": {"coordinates": [-104.516479215, 48.146526303], "type": "Point"}, "id": "E6qsd9ARf6zG3HbFCuc1rTMzfvc=", "properties": {"@spider": "usps_collection_boxes", "addr:city": "CULBERTSON", "addr:country": "US", "addr:full": "21 3RD ST E", "addr:postcode": "59218", "addr:state": "MT", "brand": "USPS", "brand:wikidata": "Q668687", "collection_times": "Mo-Fr 16:30; Sa 10:00", "name": "USPS COLLECTION BOX - PO LOBBY", "note": "ON 12/24 AND 12/31, THIS BOX MAY BE COLLECTED AS EARLY AS 12 NOON.", "ref": "5921800001"}, "type": "Feature"}
{"geometry": {"coordinates": [-104.516479215, 48.146526303], "type": "Point"}, "id": "B9q7ktWt1C3roswT3ORF5Pt8MR4=", "properties": {"@spider": "usps_collection_boxes", "addr:city": "CULBERTSON", "addr:country": "US", "addr:full": "21 3RD ST E", "addr:postcode": "59218", "addr:state": "MT", "brand": "USPS", "brand:wikidata": "Q668687", "collection_times": "Mo-Fr 16:30; Sa 10:00", "name": "USPS COLLECTION BOX - PO LOBBY", "note": "ON 12/24 AND 12/31, THIS BOX MAY BE COLLECTED AS EARLY AS 12 NOON.", "ref": "5921800002"}, "type": "Feature"}
{"geometry": {"coordinates": [-104.516479215, 48.146526303], "type": "Point"}, "id": "J3xbq7kGfRTxWA0S-kn4veURbXc=", "properties": {"@spider": "usps_collection_boxes", "addr:city": "CULBERTSON", "addr:country": "US", "addr:full": "21 3RD ST E", "addr:postcode": "59218", "addr:state": "MT", "brand": "USPS", "brand:wikidata": "Q668687", "collection_times": "Mo-Fr 16:30", "name": "USPS COLLECTION BOX - PO LOBBY", "note": "ON 12/24 AND 12/31, THIS BOX MAY BE COLLECTED AS EARLY AS 12 NOON.", "ref": "5921800003"}, "type": "Feature"}
{"geometry": {"coordinates": [-104.198058462, 48.583439329], "type": "Point"}, "id": "vPID1QxyfsOz-xAzRPumo5Ed9nQ=", "properties": {"@spider": "usps_collection_boxes", "addr:city": "DAGMAR", "addr:country": "US", "addr:full": "205 W CENTRAL AVE", "addr:postcode": "59219", "addr:state": "MT", "brand": "USPS", "brand:wikidata": "Q668687", "collection_times": "Mo-Fr 13:15; Sa 12:45", "name": "USPS COLLECTION BOX - PO LOBBY", "note": "ON 12/24 AND 12/31, THIS BOX MAY BE COLLECTED AS EARLY AS 12 NOON.", "ref": "5921900000"}, "type": "Feature"}
{"geometry": {"coordinates": [-104.198058462, 48.583439329], "type": "Point"}, "id": "6uACm4LrQF-3DDSf1LjiWeKGtVI=", "properties": {"@spider": "usps_collection_boxes", "addr:city": "DAGMAR", "addr:country": "US", "addr:full": "205 W CENTRAL AVE", "addr:postcode": "59219", "addr:state": "MT", "brand": "USPS", "brand:wikidata": "Q668687", "collection_times": "Mo-Fr 13:15; Sa 12:45", "name": "USPS COLLECTION BOX - PO LOBBY", "note": "ON 12/24 AND 12/31, THIS BOX MAY BE COLLECTED AS EARLY AS 12 NOON.", "ref": "5921900001"}, "type": "Feature"}
{"geometry": {"coordinates": [-104.198058462, 48.583439329], "type": "Point"}, "id": "xJR-fKfycdVDQwE_eDkcdTMW0O4=", "properties": {"@spider": "usps_collection_boxes", "addr:city": "DAGMAR", "addr:country": "US", "addr:full": "205 W CENTRAL AVE", "addr:postcode": "59219", "addr:state": "MT", "brand": "USPS", "brand:wikidata": "Q668687", "collection_times": "Mo-Fr 13:15; Sa 12:45", "name": "USPS COLLECTION BOX - PO LOBBY", "note": "ON 12/24 AND 12/31, THIS BOX MAY BE COLLECTED AS EARLY AS 12 NOON.", "ref": "5921900002"}, "type": "Feature"}
{"geometry": {"coordinates": [-104.044774466, 47.851605], "type": "Point"}, "id": "f2PlRxXafWVqrcHK5JXDlVACN2U=", "properties": {"@spider": "usps_collection_boxes", "addr:city": "FAIRVIEW", "addr:country": "US", "addr:full": "515 S ELLERY AVE", "addr:postcode": "59221", "addr:state": "MT", "brand": "USPS", "brand:wikidata": "Q668687", "collection_times": "Mo-Fr 15:15; Sa 10:00", "name": "USPS COLLECTION BOX - BLUE BOX", "note": "ON 12/24 AND 12/31, THIS BOX MAY BE COLLECTED AS EARLY AS 12 NOON.", "ref": "5922100000"}, "type": "Feature"}
{"geometry": {"coordinates": [-104.044774466, 47.851605], "type": "Point"}, "id": "SkWROuS4qH2J6cmeIg3L1u1l4mQ=", "properties": {"@spider": "usps_collection_boxes", "addr:city": "FAIRVIEW", "addr:country": "US", "addr:full": "515 S ELLERY AVE", "addr:postcode": "59221", "addr:state": "MT", "brand": "USPS", "brand:wikidata": "Q668687", "collection_times": "Mo-Fr 15:15; Sa 10:00", "name": "USPS COLLECTION BOX - PO LOBBY", "note": "ON 12/24 AND 12/31, THIS BOX MAY BE COLLECTED AS EARLY AS 12 NOON.", "ref": "5922100001"}, "type": "Feature"}
{"geometry": {"coordinates": [-104.044774466, 47.851605], "type": "Point"}, "id": "iYB1gKKsMEdlcUI3lbiGUd43SSI=", "properties": {"@spider": "usps_collection_boxes", "addr:city": "FAIRVIEW", "addr:country": "US", "addr:full": "515 S ELLERY AVE", "addr:postcode": "59221", "addr:state": "MT", "brand": "USPS", "brand:wikidata": "Q668687", "collection_times": "Mo-Fr 15:15; Sa 10:00", "name": "USPS COLLECTION BOX - PO LOBBY", "note": "ON 12/24 AND 12/31, THIS BOX MAY BE COLLECTED AS EARLY AS 12 NOON.", "ref": "5922100002"}, "type": "Feature"}
{"geometry": {"coordinates": [-104.044774466, 47.851605], "type": "Point"}, "id": "U7SJeky-YILlUlIzBbgAvOoAFiM=", "properties": {"@spider": "usps_collection_boxes", "addr:city": "FAIRVIEW", "addr:country": "US", "addr:full": "515 S ELLERY AVE", "addr:postcode": "59221", "addr:state": "MT", "brand": "USPS", "brand:wikidata": "Q668687", "collection_times": "Mo-Fr 15:15", "name": "USPS COLLECTION BOX - PO LOBBY", "note": "ON 12/24 AND 12/31, THIS BOX MAY BE COLLECTED AS EARLY AS 12 NOON.", "ref": "5922100003"}, "type": "Feature"}
{"geometry": {"coordinates": [-106.044026702, 48.058330099], "type": "Point"}, "id": "C11TQ-s_WN4ViABFEGMwCes00RI=", "properties": {"@spider": "usps_collection_boxes", "addr:city": "FRAZER", "addr:country": "US", "addr:full": "432 5TH ST", "addr:postcode": "59225", "addr:state": "MT", "brand": "USPS", "brand:wikidata": "Q668687", "collection_times": "Mo-Fr 14:00; Sa 09:45", "name": "USPS COLLECTION BOX - BLUE BOX", "note": "ON 12/24 AND 12/31, THIS BOX MAY BE COLLECTED AS EARLY AS 12 NOON.", "ref": "5922500000"}, "type": "Feature"}
{"geometry": {"coordinates": [-106.044026702, 48.058330099], "type": "Point"}, "id": "sVvJz7Gd1WVRTTyOh0urad3uaBs=", "properties": {"@spider": "usps_collection_boxes", "addr:city": "FRAZER", "addr:country": "US", "addr:full": "432 5TH ST", "addr:postcode": "59225", "addr:state": "MT", "brand": "USPS", "brand:wikidata": "Q668687", "collection_times": "Mo-Fr 14:00; Sa 09:45", "name": "USPS COLLECTION BOX - PO LOBBY", "note": "ON 12/24 AND 12/31, THIS BOX MAY BE COLLECTED AS EARLY AS 12 NOON.", "ref": "5922500001"}, "type": "Feature"}
{"geometry": {"coordinates": [-106.044026702, 48.058330099], "type": "Point"}, "id": "BGQPfMLrApvBudXA1k9OUG2UPdM=", "properties": {"@spider": "usps_collection_boxes", "addr:city": "FRAZER", "addr:country": "US", "addr:full": "432 5TH ST", "addr:postcode": "59225", "addr:state": "MT", "brand": "USPS", "brand:wikidata": "Q668687", "collection_times": "Mo-Fr 14:00; Sa 09:45", "name": "USPS COLLECTION BOX - PO LOBBY", "note": "ON 12/24 AND 12/31, THIS BOX MAY BE COLLECTED AS EARLY AS 12 NOON.", "ref": "5922500003"}, "type": "Feature"}
{"geometry": {"coordinates": [-104.491876651, 48.334772944], "type": "Point"}, "id": "j4dGQSENR7GJnhiEQ45dD1nY82U=", "properties": {"@spider": "usps_collection_boxes", "addr:city": "FROID", "addr:country": "US", "addr:full": "111 2ND AVE S", "addr:postcode": "59226", "addr:state": "MT", "brand": "USPS", "brand:wikidata": "Q668687", "collection_times": "Mo-Fr 16:15; Sa 09:45", "name": "USPS COLLECTION BOX - PO LOBBY", "note": "ON 12/24 AND 12/31, THIS BOX MAY BE COLLECTED AS EARLY AS 12 NOON.", "ref": "5922600001"}, "type": "Feature"}
{"geometry": {"coordinates": [-104.491876651, 48.334772944], "type": "Point"}, "id": "LpP79kWvtWNhPkFpf0wbXeHdMjQ=", "properties": {"@spider": "usps_collection_boxes", "addr:city": "FROID", "addr:country": "US", "addr:full": "111 2ND AVE S", "addr:postcode": "59226", "addr:state": "MT", "brand": "USPS", "brand:wikidata": "Q668687", "collection_times": "Mo-Fr 16:15; Sa 09:45", "name": "USPS COLLECTION BOX - PO LOBBY", "note": "ON 12/24 AND 12/31, THIS BOX MAY BE COLLECTED AS EARLY AS 12 NOON.", "ref": "5922600002"}, "type": "Feature"}
{"geometry": {"coordinates": [-104.491876651, 48.334772944], "type": "Point"}, "id": "GCwYT9yFrDgmiLoUQB4JHLeBWZY=", "properties": {"@spider": "usps_collection_boxes", "addr:city": "FROID", "addr:country": "US", "addr:full": "111 2ND AVE S", "addr:postcode": "59226", "addr:state": "MT", "brand": "USPS", "brand:wikidata": "Q668687", "collection_times": "Mo-Fr 16:15", "name": "USPS COLLECTION BOX - PO LOBBY", "note": "ON 12/24 AND 12/31, THIS BOX MAY BE COLLECTED AS EARLY AS 12 NOON.", "ref": "5922600003"}, "type": "Feature"}
{"geometry": {"coordinates": [-106.638618604, 48.192683021], "type": "Point"}, "id": "GYDucPbrmhB7rktyzLDsF25EVAk=", "properties": {"@spider": "usps_collection_boxes", "addr:city": "GLASGOW", "addr:country": "US", "addr:full": "501 COURT SQ", "addr:postcode": "59230", "addr:state": "MT", "brand": "USPS", "brand:wikidata": "Q668687", "collection_times": "Mo-Fr 15:50", "name": "USPS COLLECTION BOX - BLUE BOX", "note": "ON 12/24 AND 12/31, THIS BOX MAY BE COLLECTED AS EARLY AS 12 NOON.", "ref": "5923000000"}, "type": "Feature"}
{"geometry": {"coordinates": [-106.638650119, 48.194627177], "type": "Point"}, "id": "VJXQ6Ij35LCbb7tQBzQQno17wGA=", "properties": {"@spider": "usps_collection_boxes", "addr:city": "GLASGOW", "addr:country": "US", "addr:full": "605 2ND AVE S", "addr:postcode": "59230", "addr:state": "MT", "brand": "USPS", "brand:wikidata": "Q668687", "collection_times": "Mo-Fr 15:50; Sa 12:00", "name": "USPS COLLECTION BOX - PO LOBBY", "note": "ON 12/24 AND 12/31, THIS BOX MAY BE COLLECTED AS EARLY AS 12 NOON.", "ref": "5923000009"}, "type": "Feature"}
{"geometry": {"coordinates": [-106.633514775, 48.200801456], "type": "Point"}, "id": "ukHSCaPYzHDEYTNxSaZ8cUMk8Ns=", "properties": {"@spider": "usps_collection_boxes", "addr:city": "GLASGOW", "addr:country": "US", "addr:full": "528 6TH ST N", "addr:postcode": "59230", "addr:state": "MT", "brand": "USPS", "brand:wikidata": "Q668687", "collection_times": "Mo-Fr 08:30", "name": "USPS COLLECTION BOX - PO LOBBY", "ref": "5923000010"}, "type": "Feature"}
{"geometry": {"coordinates": [-106.638650119, 48.194627177], "type": "Point"}, "id": "myyHVscTxXMpsKH-U7C-2EjsPS0=", "properties": {"@spider": "usps_collection_boxes", "addr:city": "GLASGOW", "addr:country": "US", "addr:full": "605 2ND AVE S", "addr:postcode": "59230", "addr:state": "MT", "brand": "USPS", "brand:wikidata": "Q668687", "collection_times": "Mo-Fr 15:50; Sa 12:00", "name": "USPS COLLECTION BOX - PO LOBBY", "note": "ON 12/24 AND 12/31, THIS BOX MAY BE COLLECTED AS EARLY AS 12 NOON.", "ref": "5923000011"}, "type": "Feature"}
{"geometry": {"coordinates": [-106.638650119, 48.194627177], "type": "Point"}, "id": "GSh-Q748obrXdmm5Lgpcox8k658=", "properties": {"@spider": "usps_collection_boxes", "addr:city": "GLASGOW", "addr:country": "US", "addr:full": "605 2ND AVE S", "addr:postcode": "59230", "addr:state": "MT", "brand": "USPS", "brand:wikidata": "Q668687", "collection_times": "Mo-Fr 15:50; Sa 12:00", "name": "USPS COLLECTION BOX - PO LOBBY", "note": "ON 12/24 AND 12/31, THIS BOX MAY BE COLLECTED AS EARLY AS 12 NOON.", "ref": "5923000013"}, "type": "Feature"}
{"geometry": {"coordinates": [-106.638650119, 48.194627177], "type": "Point"}, "id": "BDuTXv-w_pFrlrUavCmUC_8crkM=", "properties": {"@spider": "usps_collection_boxes", "addr:city": "GLASGOW", "addr:country": "US", "addr:full": "605 2ND AVE S", "addr:postcode": "59230", "addr:state": "MT", "brand": "USPS", "brand:wikidata": "Q668687", "collection_times": "Mo-Fr 15:50; Sa 12:00", "name": "USPS COLLECTION BOX - PO LOBBY", "note": "ON 12/24 AND 12/31, THIS BOX MAY BE COLLECTED AS EARLY AS 12 NOON.", "ref": "5923000016"}, "type": "Feature"}
{"geometry": {"coordinates": [-107.084955507, 48.394008745], "type": "Point"}, "id": "a55kutqPClfEAiXWs-JsItDifLE=", "properties": {"@spider": "usps_collection_boxes", "addr:city": "HINSDALE", "addr:country": "US", "addr:full": "217 MONTANA ST", "addr:postcode": "59241", "addr:state": "MT", "brand": "USPS", "brand:wikidata": "Q668687", "collection_times": "Mo-Fr 15:00; Sa 09:30", "name": "USPS COLLECTION BOX - PO LOBBY", "note": "ON 12/24 AND 12/31, THIS BOX MAY BE COLLECTED AS EARLY AS 12 NOON.", "ref": "5924100001"}, "type": "Feature"}
{"geometry": {"coordinates": [-107.084955507, 48.394008745], "type": "Point"}, "id": "gcVm3M0OzgTDOQiRHN3JbygU5Z8=", "properties": {"@spider": "usps_collection_boxes", "addr:city": "HINSDALE", "addr:country": "US", "addr:full": "217 MONTANA ST", "addr:postcode": "59241", "addr:state": "MT", "brand": "USPS", "brand:wikidata": "Q668687", "collection_times": "Mo-Fr 15:00; Sa 09:30", "name": "USPS COLLECTION BOX - PO LOBBY", "note": "ON 12/24 AND 12/31, THIS BOX MAY BE COLLECTED AS EARLY AS 12 NOON.", "ref": "5924100002"}, "type": "Feature"}
{"geometry": {"coordinates": [-104.6211471372, 47.6817095326], "type": "Point"}, "id": "86_27Rl46dVjx4l9Nqn9SaNIKBI=", "properties": {"@spider": "usps_collection_boxes", "addr:city": "LAMBERT", "addr:country": "US", "addr:full": "15 MAIN ST", "addr:postcode": "59243", "addr:state": "MT", "brand": "USPS", "brand:wikidata": "Q668687", "collection_times": "Mo-Fr 14:30; Sa 11:00", "name": "USPS COLLECTION BOX - PO LOBBY", "note": "ON 12/24 AND 12/31, THIS BOX MAY BE COLLECTED AS EARLY AS 12 NOON.", "ref": "5924300000"}, "type": "Feature"}
{"geometry": {"coordinates": [-104.621191749, 47.681676283], "type": "Point"}, "id": "NFaHh710c4vPYEKRZybOuyAyHPQ=", "properties": {"@spider": "usps_collection_boxes", "addr:city": "LAMBERT", "addr:country": "US", "addr:full": "15 MAIN ST", "addr:postcode": "59243", "addr:state": "MT", "brand": "USPS", "brand:wikidata": "Q668687", "collection_times": "Mo-Fr 14:30; Sa 11:00", "name": "USPS COLLECTION BOX - PO LOBBY", "note": "ON 12/24 AND 12/31, THIS BOX MAY BE COLLECTED AS EARLY AS 12 NOON.", "ref": "5924300001"}, "type": "Feature"}
{"geometry": {"coordinates": [-104.504706256, 48.501722996], "type": "Point"}, "id": "BcwbzxnukFV4HfQt-6_lVhDayXk=", "properties": {"@spider": "usps_collection_boxes", "addr:city": "MEDICINE LAKE", "addr:country": "US", "addr:full": "107 2ND AVE N", "addr:postcode": "59247", "addr:state": "MT", "brand": "USPS", "brand:wikidata": "Q668687", "collection_times": "Mo-Fr 14:30; Sa 09:45", "name": "USPS COLLECTION BOX - PO LOBBY", "note": "ON 12/24 AND 12/31, THIS BOX MAY BE COLLECTED AS EARLY AS 12 NOON.", "ref": "5924700000"}, "type": "Feature"}
{"geometry": {"coordinates": [-104.504706256, 48.501722996], "type": "Point"}, "id": "LceHD8qcZuCdMdb412_HofVd4vM=", "properties": {"@spider": "usps_collection_boxes", "addr:city": "MEDICINE LAKE", "addr:country": "US", "addr:full": "107 2ND AVE N", "addr:postcode": "59247", "addr:state": "MT", "brand": "USPS", "brand:wikidata": "Q668687", "collection_times": "Mo-Fr 14:30; Sa 09:45", "name": "USPS COLLECTION BOX - PO LOBBY", "note": "ON 12/24 AND 12/31, THIS BOX MAY BE COLLECTED AS EARLY AS 12 NOON.", "ref": "5924700001"}, "type": "Feature"}
{"geometry": {"coordinates": [-106.360904834, 48.132678532], "type": "Point"}, "id": "sjGWcsRW40JK0LAwqJMU1eWjTxM=", "properties": {"@spider": "usps_collection_boxes", "addr:city": "NASHUA", "addr:country": "US", "addr:full": "1005 FRONT ST", "addr:postcode": "59248", "addr:state": "MT", "brand": "USPS", "brand:wikidata": "Q668687", "collection_times": "Mo-Fr 15:30; Sa 09:45", "name": "USPS COLLECTION BOX - PO LOBBY", "note": "ON 12/24 AND 12/31, THIS BOX MAY BE COLLECTED AS EARLY AS 12 NOON.", "ref": "5924800000"}, "type": "Feature"}
{"geometry": {"coordinates": [-106.360904834, 48.132678532], "type": "Point"}, "id": "5qqReZzqqAqRdbOcd1HpKwzCQas=", "properties": {"@spider": "usps_collection_boxes", "addr:city": "NASHUA", "addr:country": "US", "addr:full": "1005 FRONT ST", "addr:postcode": "59248", "addr:state": "MT", "brand": "USPS", "brand:wikidata": "Q668687", "collection_times": "Mo-Fr 15:30; Sa 09:30", "name": "USPS COLLECTION BOX - BLUE BOX", "note": "ON 12/24 AND 12/31, THIS BOX MAY BE COLLECTED AS EARLY AS 12 NOON.", "ref": "5924800001"}, "type": "Feature"}
{"geometry": {"coordinates": [-106.360904834, 48.132678532], "type": "Point"}, "id": "2moaryxM3Y_t9VB6Y39NUNY9WJk=", "properties": {"@spider": "usps_collection_boxes", "addr:city": "NASHUA", "addr:country": "US", "addr:full": "1005 FRONT ST", "addr:postcode": "59248", "addr:state": "MT", "brand": "USPS", "brand:wikidata": "Q668687", "collection_times": "Mo-Fr 15:30; Sa 09:45", "name": "USPS COLLECTION BOX - PO LOBBY", "note": "ON 12/24 AND 12/31, THIS BOX MAY BE COLLECTED AS EARLY AS 12 NOON.", "ref": "5924800002"}, "type": "Feature"}
{"geometry": {"coordinates": [-106.407388206, 48.857643], "type": "Point"}, "id": "KBMLHLX-aHPLG7cL-HJtVcbCQmk=", "properties": {"@spider": "usps_collection_boxes", "addr:city": "OPHEIM", "addr:country": "US", "addr:full": "102 MAIN ST N", "addr:postcode": "59250", "addr:state": "MT", "brand": "USPS", "brand:wikidata": "Q668687", "collection_times": "Mo-Fr 14:50; Sa 12:15", "name": "USPS COLLECTION BOX - PO LOBBY", "note": "ON 12/24 AND 12/31, THIS BOX MAY BE COLLECTED AS EARLY AS 12 NOON.", "ref": "5925000000"}, "type": "Feature"}
{"geometry": {"coordinates": [-106.407388206, 48.857643], "type": "Point"}, "id": "7GxDyL7mS7H42YwWTzMUx8lXmnk=", "properties": {"@spider": "usps_collection_boxes", "addr:city": "OPHEIM", "addr:country": "US", "addr:full": "102 MAIN ST N", "addr:postcode": "59250", "addr:state": "MT", "brand": "USPS", "brand:wikidata": "Q668687", "collection_times": "Mo-Fr 14:50; Sa 12:15", "name": "USPS COLLECTION BOX - PO LOBBY", "note": "ON 12/24 AND 12/31, THIS BOX MAY BE COLLECTED AS EARLY AS 12 NOON.", "ref": "5925000001"}, "type": "Feature"}
{"geometry": {"coordinates": [-104.77683017, 48.888594], "type": "Point"}, "id": "cEmHkYdtOJ-M5eV0hyPDqa2RWTs=", "properties": {"@spider": "usps_collection_boxes", "addr:city": "OUTLOOK", "addr:country": "US", "addr:full": "202 MAIN ST", "addr:postcode": "59252", "addr:state": "MT", "brand": "USPS", "brand:wikidata": "Q668687", "collection_times": "Mo-Fr 15:00; Sa 12:00", "name": "USPS COLLECTION BOX - PO LOBBY", "note": "ON 12/24 AND 12/31, THIS BOX MAY BE COLLECTED AS EARLY AS 12 NOON.", "ref": "5925200000"}, "type": "Feature"}
{"geometry": {"coordinates": [-105.830321835, 48.78154469], "type": "Point"}, "id": "Awy9fEXFRHCBiJV4BNkqzLjKWeA=", "properties": {"@spider": "usps_collection_boxes", "addr:city": "PEERLESS", "addr:country": "US", "addr:full": "106 RAILROAD AVE E", "addr:postcode": "59253", "addr:state": "MT", "brand": "USPS", "brand:wikidata": "Q668687", "collection_times": "Mo-Fr 13:00; Sa 11:30", "name": "USPS COLLECTION BOX - PO LOBBY", "note": "ON 12/24 AND 12/31, THIS BOX MAY BE COLLECTED AS EARLY AS 12 NOON.", "ref": "5925300000"}, "type": "Feature"}
{"geometry": {"coordinates": [-105.830321835, 48.78154469], "type": "Point"}, "id": "RlUnJa_TY4duIsmmt7oQpFJMivY=", "properties": {"@spider": "usps_collection_boxes", "addr:city": "PEERLESS", "addr:country": "US", "addr:full": "106 RAILROAD AVE E", "addr:postcode": "59253", "addr:state": "MT", "brand": "USPS", "brand:wikidata": "Q668687", "collection_times": "Mo-Fr 13:00; Sa 11:30", "name": "USPS COLLECTION BOX - PO LOBBY", "note": "ON 12/24 AND 12/31, THIS BOX MAY BE COLLECTED AS EARLY AS 12 NOON.", "ref": "5925300001"}, "type": "Feature"}
{"geometry": {"coordinates": [-104.5564529787, 48.7784240063], "type": "Point"}, "id": "fgy8zllAn9uB6kNrxzeihZeiBQg=", "properties": {"@spider": "usps_collection_boxes", "addr:city": "PLENTYWOOD", "addr:country": "US", "addr:full": "100 W LAUREL AVE", "addr:postcode": "59254", "addr:state": "MT", "brand": "USPS", "brand:wikidata": "Q668687", "collection_times": "Mo-Sa 15:20", "name": "USPS COLLECTION BOX - BLUE BOX", "note": "ON 12/24 AND 12/31, THIS BOX MAY BE COLLECTED AS EARLY AS 12 NOON.", "ref": "5925400001"}, "type": "Feature"}
{"geometry": {"coordinates": [-104.557724112, 48.776328776], "type": "Point"}, "id": "6vNaJ2Ci-V5mA7qega-ndS6wiK4=", "properties": {"@spider": "usps_collection_boxes", "addr:city": "PLENTYWOOD", "addr:country": "US", "addr:full": "302 N MAIN ST", "addr:postcode": "59254", "addr:state": "MT", "brand": "USPS", "brand:wikidata": "Q668687", "collection_times": "Mo-Sa 15:20", "name": "USPS COLLECTION BOX - BLUE BOX", "note": "ON 12/24 AND 12/31, THIS BOX MAY BE COLLECTED AS EARLY AS 12 NOON.", "ref": "5925400005"}, "type": "Feature"}
{"geometry": {"coordinates": [-104.557724112, 48.776328776], "type": "Point"}, "id": "ILsLlMsQyjnLmPnwADbOQEpJJS4=", "properties": {"@spider": "usps_collection_boxes", "addr:city": "PLENTYWOOD", "addr:country": "US", "addr:full": "302 N MAIN ST", "addr:postcode": "59254", "addr:state": "MT", "brand": "USPS", "brand:wikidata": "Q668687", "collection_times": "Mo-Sa 15:20", "name": "USPS COLLECTION BOX - BLUE BOX", "note": "ON 12/24 AND 12/31, THIS BOX MAY BE COLLECTED AS EARLY AS 12 NOON.", "ref": "5925400006"}, "type": "Feature"}
{"geometry": {"coordinates": [-104.557724112, 48.776328776], "type": "Point"}, "id": "i4Drz_qtKyI0nc00wIFbGcDeMD8=", "properties": {"@spider": "usps_collection_boxes", "addr:city": "PLENTYWOOD", "addr:country": "US", "addr:full": "302 N MAIN ST", "addr:postcode": "59254", "addr:state": "MT", "brand": "USPS", "brand:wikidata": "Q668687", "collection_times": "Mo-Fr 15:20; Sa 12:00", "name": "USPS COLLECTION BOX - PO LOBBY", "note": "ON 12/24 AND 12/31, THIS BOX MAY BE COLLECTED AS EARLY AS 12 NOON.", "ref": "5925400009"}, "type": "Feature"}
{"geometry": {"coordinates": [-105.196283832, 48.111914504], "type": "Point"}, "id": "jU6zQtxfKLcRL5HH-MTJPzteOPc=", "properties": {"@spider": "usps_collection_boxes", "addr:city": "POPLAR", "addr:country": "US", "addr:full": "105 E ST W", "addr:postcode": "59255", "addr:state": "MT", "brand": "USPS", "brand:wikidata": "Q668687", "collection_times": "Mo-Fr 16:30; Sa 10:30", "name": "USPS COLLECTION BOX - BLUE BOX", "note": "ON 12/24 AND 12/31, THIS BOX MAY BE COLLECTED AS EARLY AS 12 NOON.", "ref": "5925500000"}, "type": "Feature"}
{"geometry": {"coordinates": [-105.196283832, 48.111914504], "type": "Point"}, "id": "Wio_OZhLOCy0s-7sM0uP8S6LZyA=", "properties": {"@spider": "usps_collection_boxes", "addr:city": "POPLAR", "addr:country": "US", "addr:full": "105 E ST W", "addr:postcode": "59255", "addr:state": "MT", "brand": "USPS", "brand:wikidata": "Q668687", "collection_times": "Mo-Fr 16:45; Sa 10:30", "name": "USPS COLLECTION BOX - PO LOBBY", "note": "ON 12/24 AND 12/31, THIS BOX MAY BE COLLECTED AS EARLY AS 12 NOON.", "ref": "5925500001"}, "type": "Feature"}
{"geometry": {"coordinates": [-105.196283832, 48.111914504], "type": "Point"}, "id": "fHeDrcAcqo6OYda1hwWsuCXXQfA=", "properties": {"@spider": "usps_collection_boxes", "addr:city": "POPLAR", "addr:country": "US", "addr:full": "105 E ST W", "addr:postcode": "59255", "addr:state": "MT", "brand": "USPS", "brand:wikidata": "Q668687", "collection_times": "Mo-Fr 16:45; Sa 10:30", "name": "USPS COLLECTION BOX - PO LOBBY", "note": "ON 12/24 AND 12/31, THIS BOX MAY BE COLLECTED AS EARLY AS 12 NOON.", "ref": "5925500002"}, "type": "Feature"}
{"geometry": {"coordinates": [-105.196283832, 48.111914504], "type": "Point"}, "id": "RElmrf9YvlS-44hAwONdWgBFkAY=", "properties": {"@spider": "usps_collection_boxes", "addr:city": "POPLAR", "addr:country": "US", "addr:full": "105 E ST W", "addr:postcode": "59255", "addr:state": "MT", "brand": "USPS", "brand:wikidata": "Q668687", "collection_times": "Mo-Fr 16:45; Sa 10:30", "name": "USPS COLLECTION BOX - PO LOBBY", "note": "ON 12/24 AND 12/31, THIS BOX MAY BE COLLECTED AS EARLY AS 12 NOON.", "ref": "5925500003"}, "type": "Feature"}
{"geometry": {"coordinates": [-104.580111247, 48.876026337], "type": "Point"}, "id": "WQe8noc0BAPIQm13DtLuykV8reU=", "properties": {"@spider": "usps_collection_boxes", "addr:city": "RAYMOND", "addr:country": "US", "addr:full": "310 RAYMOND RD", "addr:postcode": "59256", "addr:state": "MT", "brand": "USPS", "brand:wikidata": "Q668687", "collection_times": "Mo-Fr 14:45; Sa 11:50", "name": "USPS COLLECTION BOX - PO LOBBY", "note": "ON 12/24 AND 12/31, THIS BOX MAY BE COLLECTED AS EARLY AS 12 NOON.", "ref": "5925600000"}, "type": "Feature"}
{"geometry": {"coordinates": [-104.461523193, 48.605378525], "type": "Point"}, "id": "wgZwKfKGf6iCbV_bNO9xAA4v-ks=", "properties": {"@spider": "usps_collection_boxes", "addr:city": "RESERVE", "addr:country": "US", "addr:full": "400 E CENTRAL AVE", "addr:postcode": "59258", "addr:state": "MT", "brand": "USPS", "brand:wikidata": "Q668687", "collection_times": "Mo-Fr 12:00; Sa 09:15", "name": "USPS COLLECTION BOX - PO LOBBY", "ref": "5925800000"}, "type": "Feature"}
{"geometry": {"coordinates": [-105.070442142, 47.6453722], "type": "Point"}, "id": "ZLWiZuP24tVhNmuBWq_6lEZ0Klo=", "properties": {"@spider": "usps_collection_boxes", "addr:city": "RICHEY", "addr:country": "US", "addr:full": "101 S MAIN ST", "addr:postcode": "59259", "addr:state": "MT", "brand": "USPS", "brand:wikidata": "Q668687", "collection_times": "Mo-Fr 15:30; Sa 10:45", "name": "USPS COLLECTION BOX - BLUE BOX", "note": "ON 12/24 AND 12/31, THIS BOX MAY BE COLLECTED AS EARLY AS 12 NOON.", "ref": "5925900000"}, "type": "Feature"}
{"geometry": {"coordinates": [-105.070442142, 47.6453722], "type": "Point"}, "id": "in4APwZwgCslCEvLqZbo-gzy6n0=", "properties": {"@spider": "usps_collection_boxes", "addr:city": "RICHEY", "addr:country": "US", "addr:full": "101 S MAIN ST", "addr:postcode": "59259", "addr:state": "MT", "brand": "USPS", "brand:wikidata": "Q668687", "collection_times": "Mo-Fr 15:30; Sa 10:45", "name": "USPS COLLECTION BOX - PO LOBBY", "note": "ON 12/24 AND 12/31, THIS BOX MAY BE COLLECTED AS EARLY AS 12 NOON.", "ref": "5925900001"}, "type": "Feature"}
{"geometry": {"coordinates": [-105.070442142, 47.6453722], "type": "Point"}, "id": "N_qfYUNAxkrQHHtsU-URaNeA8Bs=", "properties": {"@spider": "usps_collection_boxes", "addr:city": "RICHEY", "addr:country": "US", "addr:full": "101 S MAIN ST", "addr:postcode": "59259", "addr:state": "MT", "brand": "USPS", "brand:wikidata": "Q668687", "collection_times": "Mo-Fr 15:30; Sa 10:45", "name": "USPS COLLECTION BOX - PO LOBBY", "note": "ON 12/24 AND 12/31, THIS BOX MAY BE COLLECTED AS EARLY AS 12 NOON.", "ref": "5925900002"}, "type": "Feature"}
{"geometry": {"coordinates": [-105.070442142, 47.6453722], "type": "Point"}, "id": "fS2QjxMphpp8M9celbucvulEXbo=", "properties": {"@spider": "usps_collection_boxes", "addr:city": "RICHEY", "addr:country": "US", "addr:full": "101 S MAIN ST", "addr:postcode": "59259", "addr:state": "MT", "brand": "USPS", "brand:wikidata": "Q668687", "collection_times": "Mo-Fr 15:30; Sa 10:45", "name": "USPS COLLECTION BOX - PO LOBBY", "note": "ON 12/24 AND 12/31, THIS BOX MAY BE COLLECTED AS EARLY AS 12 NOON.", "ref": "5925900003"}, "type": "Feature"}
{"geometry": {"coordinates": [-106.052391534, 48.820335768], "type": "Point"}, "id": "mq-6VkmdMmNVABB1RDyIY9rTgQE=", "properties": {"@spider": "usps_collection_boxes", "addr:city": "RICHLAND", "addr:country": "US", "addr:full": "74 MAIN ST", "addr:postcode": "59260", "addr:state": "MT", "brand": "USPS", "brand:wikidata": "Q668687", "collection_times": "Mo-Fr 14:45; Sa 11:45", "name": "USPS COLLECTION BOX - PO LOBBY", "note": "ON 12/24 AND 12/31, THIS BOX MAY BE COLLECTED AS EARLY AS 12 NOON.", "ref": "5926000000"}, "type": "Feature"}
{"geometry": {"coordinates": [-106.052391534, 48.820335768], "type": "Point"}, "id": "6MIiDQXqmosjH7d8Rk4yYBM6D9M=", "properties": {"@spider": "usps_collection_boxes", "addr:city": "RICHLAND", "addr:country": "US", "addr:full": "74 MAIN ST", "addr:postcode": "59260", "addr:state": "MT", "brand": "USPS", "brand:wikidata": "Q668687", "collection_times": "Mo-Fr 14:45; Sa 11:45", "name": "USPS COLLECTION BOX - PO LOBBY", "note": "ON 12/24 AND 12/31, THIS BOX MAY BE COLLECTED AS EARLY AS 12 NOON.", "ref": "5926000001"}, "type": "Feature"}
{"geometry": {"coordinates": [-107.345252418, 48.457332], "type": "Point"}, "id": "xt6HLUNcOVL-6NXt9J37ASJTabs=", "properties": {"@spider": "usps_collection_boxes", "addr:city": "SACO", "addr:country": "US", "addr:full": "98 HIGHWAY 243", "addr:postcode": "59261", "addr:state": "MT", "brand": "USPS", "brand:wikidata": "Q668687", "collection_times": "Mo-Fr 14:45; Sa 09:20", "name": "USPS COLLECTION BOX - PO LOBBY", "note": "ON 12/24 AND 12/31, THIS BOX MAY BE COLLECTED AS EARLY AS 12 NOON.", "ref": "5926100001"}, "type": "Feature"}
{"geometry": {"coordinates": [-107.345252418, 48.457332], "type": "Point"}, "id": "xT7pgi2RIx2C-YwX-ODbar2DUCo=", "properties": {"@spider": "usps_collection_boxes", "addr:city": "SACO", "addr:country": "US", "addr:full": "98 HIGHWAY 243", "addr:postcode": "59261", "addr:state": "MT", "brand": "USPS", "brand:wikidata": "Q668687", "collection_times": "Mo-Fr 14:45; Sa 09:20", "name": "USPS COLLECTION BOX - PO LOBBY", "note": "ON 12/24 AND 12/31, THIS BOX MAY BE COLLECTED AS EARLY AS 12 NOON.", "ref": "5926100002"}, "type": "Feature"}
{"geometry": {"coordinates": [-104.3424224, 47.453369134], "type": "Point"}, "id": "NbS0KDGRhihh3lFELl-kDGq_7ec=", "properties": {"@spider": "usps_collection_boxes", "addr:city": "SAVAGE", "addr:country": "US", "addr:full": "264 MAIN ST", "addr:postcode": "59262", "addr:state": "MT", "brand": "USPS", "brand:wikidata": "Q668687", "collection_times": "Mo-Fr 14:30; Sa 09:45", "name": "USPS COLLECTION BOX - PO LOBBY", "note": "ON 12/24 AND 12/31, THIS BOX MAY BE COLLECTED AS EARLY AS 12 NOON.", "ref": "5926200001"}, "type": "Feature"}
{"geometry": {"coordinates": [-104.3424224, 47.453369134], "type": "Point"}, "id": "fwkL9ygyIHqTgeMQBPiqf674opw=", "properties": {"@spider": "usps_collection_boxes", "addr:city": "SAVAGE", "addr:country": "US", "addr:full": "264 MAIN ST", "addr:postcode": "59262", "addr:state": "MT", "brand": "USPS", "brand:wikidata": "Q668687", "collection_times": "Mo-Fr 14:30; Sa 09:45", "name": "USPS COLLECTION BOX - PO LOBBY", "note": "ON 12/24 AND 12/31, THIS BOX MAY BE COLLECTED AS EARLY AS 12 NOON.", "ref": "5926200002"}, "type": "Feature"}
{"geometry": {"coordinates": [-105.420128846, 48.790597977], "type": "Point"}, "id": "PG9wjwvDmv8WaPmpaVMdHHLjWTk=", "properties": {"@spider": "usps_collection_boxes", "addr:city": "SCOBEY", "addr:country": "US", "addr:full": "221 MAIN ST", "addr:postcode": "59263", "addr:state": "MT", "brand": "USPS", "brand:wikidata": "Q668687", "collection_times": "Mo-Fr 16:30; Sa 12:00", "name": "USPS COLLECTION BOX - PO LOBBY", "note": "ON 12/24 AND 12/31, THIS BOX MAY BE COLLECTED AS EARLY AS 12 NOON.", "ref": "5926300000"}, "type": "Feature"}
{"geometry": {"coordinates": [-105.420128846, 48.790597977], "type": "Point"}, "id": "5jD1YkfIzUWkpYnJ3sAsv_Htwo4=", "properties": {"@spider": "usps_collection_boxes", "addr:city": "SCOBEY", "addr:country": "US", "addr:full": "221 MAIN ST", "addr:postcode": "59263", "addr:state": "MT", "brand": "USPS", "brand:wikidata": "Q668687", "collection_times": "Mo-Fr 16:30; Sa 12:00", "name": "USPS COLLECTION BOX - PO LOBBY", "note": "ON 12/24 AND 12/31, THIS BOX MAY BE COLLECTED AS EARLY AS 12 NOON.", "ref": "5926300001"}, "type": "Feature"}
{"geometry": {"coordinates": [-104.17410966, 47.714236994], "type": "Point"}, "id": "ltXuT1sy9XhvWTlhntjNT-nk2zE=", "properties": {"@spider": "usps_collection_boxes", "addr:city": "SIDNEY", "addr:country": "US", "addr:full": "216 14TH AVE SW", "addr:postcode": "59270", "addr:state": "MT", "brand": "USPS", "brand:wikidata": "Q668687", "collection_times": "Mo-Sa 11:00", "name": "USPS COLLECTION BOX - BLUE BOX", "ref": "5927000000"}, "type": "Feature"}
{"geometry": {"coordinates": [-104.158037186, 47.716775454], "type": "Point"}, "id": "doUYs6Ez7Dwqus1OIeG5Yza3_KY=", "properties": {"@spider": "usps_collection_boxes", "addr:city": "SIDNEY", "addr:country": "US", "addr:full": "203 2ND ST NW", "addr:postcode": "59270", "addr:state": "MT", "brand": "USPS", "brand:wikidata": "Q668687", "collection_times": "Mo-Sa 14:00", "name": "USPS COLLECTION BOX - BLUE BOX", "note": "ON 12/24 AND 12/31, THIS BOX MAY BE COLLECTED AS EARLY AS 12 NOON.", "ref": "5927000001"}, "type": "Feature"}
{"geometry": {"coordinates": [-104.155923526, 47.718033483], "type": "Point"}, "id": "PiekznjkJhNx6Ot39mPjRP4hlys=", "properties": {"@spider": "usps_collection_boxes", "addr:city": "SIDNEY", "addr:country": "US", "addr:full": "101 W HOLLY ST", "addr:postcode": "59270", "addr:state": "MT", "brand": "USPS", "brand:wikidata": "Q668687", "collection_times": "Mo-Sa 15:25", "name": "USPS COLLECTION BOX - BLUE BOX", "note": "ON 12/24 AND 12/31, THIS BOX MAY BE COLLECTED AS EARLY AS 12 NOON.", "ref": "5927000002"}, "type": "Feature"}
{"geometry": {"coordinates": [-104.171881337, 47.71944], "type": "Point"}, "id": "knrhcQQrffXq8wHH34NmLsPXSvA=", "properties": {"@spider": "usps_collection_boxes", "addr:city": "SIDNEY", "addr:country": "US", "addr:full": "300 12TH AVE NW", "addr:postcode": "59270", "addr:state": "MT", "brand": "USPS", "brand:wikidata": "Q668687", "collection_times": "Mo-Sa 10:30", "name": "USPS COLLECTION BOX - BLUE BOX", "ref": "5927000003"}, "type": "Feature"}
{"geometry": {"coordinates": [-104.164676594, 47.704745164], "type": "Point"}, "id": "qZxV_QPVvHx1HKM99-_91SNgFCg=", "properties": {"@spider": "usps_collection_boxes", "addr:city": "SIDNEY", "addr:country": "US", "addr:full": "1159 S CENTRAL AVE", "addr:postcode": "59270", "addr:state": "MT", "brand": "USPS", "brand:wikidata": "Q668687", "collection_times": "Mo-Sa 10:00", "name": "USPS COLLECTION BOX - BLUE BOX", "ref": "5927000004"}, "type": "Feature"}
{"geometry": {"coordinates": [-104.155923526, 47.718033483], "type": "Point"}, "id": "JmWHyh7PjTWXmy0z-w_7eMeMr7c=", "properties": {"@spider": "usps_collection_boxes", "addr:city": "SIDNEY", "addr:country": "US", "addr:full": "101 W HOLLY ST", "addr:postcode": "59270", "addr:state": "MT", "brand": "USPS", "brand:wikidata": "Q668687", "collection_times": "Mo-Sa 15:25", "name": "USPS COLLECTION BOX - BLUE BOX", "note": "ON 12/24 AND 12/31, THIS BOX MAY BE COLLECTED AS EARLY AS 12 NOON.", "ref": "5927000005"}, "type": "Feature"}
{"geometry": {"coordinates": [-104.155923526, 47.718033483], "type": "Point"}, "id": "WdCDLioj0Dhngt6kzF5xAPoWZ6c=", "properties": {"@spider": "usps_collection_boxes", "addr:city": "SIDNEY", "addr:country": "US", "addr:full": "101 W HOLLY ST", "addr:postcode": "59270", "addr:state": "MT", "brand": "USPS", "brand:wikidata": "Q668687", "collection_times": "Mo-Sa 15:25", "name": "USPS COLLECTION BOX - BLUE BOX", "note": "ON 12/24 AND 12/31, THIS BOX MAY BE COLLECTED AS EARLY AS 12 NOON.", "ref": "5927000007"}, "type": "Feature"}
{"geometry": {"coordinates": [-104.155923526, 47.718033483], "type": "Point"}, "id": "cgqvEajGIISvUrobMU-Jj23uZxA=", "properties": {"@spider": "usps_collection_boxes", "addr:city": "SIDNEY", "addr:country": "US", "addr:full": "101 W HOLLY ST", "addr:postcode": "59270", "addr:state": "MT", "brand": "USPS", "brand:wikidata": "Q668687", "collection_times": "Mo-Sa 15:35", "name": "USPS COLLECTION BOX - PO LOBBY", "note": "ON 12/24 AND 12/31, THIS BOX MAY BE COLLECTED AS EARLY AS 12 NOON.", "ref": "5927000010"}, "type": "Feature"}
{"geometry": {"coordinates": [-104.155923526, 47.718033483], "type": "Point"}, "id": "WghtmVtZrKymp-75-FDX-6W57qI=", "properties": {"@spider": "usps_collection_boxes", "addr:city": "SIDNEY", "addr:country": "US", "addr:full": "101 W HOLLY ST", "addr:postcode": "59270", "addr:state": "MT", "brand": "USPS", "brand:wikidata": "Q668687", "collection_times": "Mo-Sa 15:25", "name": "USPS COLLECTION BOX - BLUE BOX", "note": "ON 12/24 AND 12/31, THIS BOX MAY BE COLLECTED AS EARLY AS 12 NOON.", "ref": "5927000013"}, "type": "Feature"}
{"geometry": {"coordinates": [-105.491494937, 47.83357901], "type": "Point"}, "id": "_tnK_PFjx52LD0i9sNA6T4Bw3_Y=", "properties": {"@spider": "usps_collection_boxes", "addr:city": "VIDA", "addr:country": "US", "addr:full": "2991 MT HIGHWAY 13", "addr:postcode": "59274", "addr:state": "MT", "brand": "USPS", "brand:wikidata": "Q668687", "collection_times": "Mo-Fr 12:00; Sa 09:45", "name": "USPS COLLECTION BOX - PO LOBBY", "ref": "5927400000"}, "type": "Feature"}
{"geometry": {"coordinates": [-105.491494937, 47.83357901], "type": "Point"}, "id": "LVv5XpvYu_nEzdGJdFtCbD1nR00=", "properties": {"@spider": "usps_collection_boxes", "addr:city": "VIDA", "addr:country": "US", "addr:full": "2991 MT HIGHWAY 13", "addr:postcode": "59274", "addr:state": "MT", "brand": "USPS", "brand:wikidata": "Q668687", "collection_times": "Mo-Fr 12:00; Sa 09:45", "name": "USPS COLLECTION BOX - BLUE BOX", "ref": "5927400001"}, "type": "Feature"}
{"geometry": {"coordinates": [-104.051213306, 48.871350335], "type": "Point"}, "id": "B4lywSD7PsTtrrUAMJByyd57Id0=", "properties": {"@spider": "usps_collection_boxes", "addr:city": "WESTBY", "addr:country": "US", "addr:full": "201 MAIN ST", "addr:postcode": "59275", "addr:state": "MT", "brand": "USPS", "brand:wikidata": "Q668687", "collection_times": "Mo-Fr 13:00; Sa 09:50", "name": "USPS COLLECTION BOX - PO LOBBY", "note": "ON 12/24 AND 12/31, THIS BOX MAY BE COLLECTED AS EARLY AS 12 NOON.", "ref": "5927500001"}, "type": "Feature"}
{"geometry": {"coordinates": [-104.051213306, 48.871350335], "type": "Point"}, "id": "YUg5RcvAlCaBunvHhZsG5PgyAO4=", "properties": {"@spider": "usps_collection_boxes", "addr:city": "WESTBY", "addr:country": "US", "addr:full": "201 MAIN ST", "addr:postcode": "59275", "addr:state": "MT", "brand": "USPS", "brand:wikidata": "Q668687", "collection_times": "Mo-Fr 13:00; Sa 09:50", "name": "USPS COLLECTION BOX - PO LOBBY", "note": "ON 12/24 AND 12/31, THIS BOX MAY BE COLLECTED AS EARLY AS 12 NOON.", "ref": "5927500002"}, "type": "Feature"}
{"geometry": {"coordinates": [-104.051213306, 48.871350335], "type": "Point"}, "id": "_tPIkYecF43HyBMRhXe3RKivl8Q=", "properties": {"@spider": "usps_collection_boxes", "addr:city": "WESTBY", "addr:country": "US", "addr:full": "201 MAIN ST", "addr:postcode": "59275", "addr:state": "MT", "brand": "USPS", "brand:wikidata": "Q668687", "collection_times": "Mo-Fr 13:00; Sa 09:50", "name": "USPS COLLECTION BOX - PO LOBBY", "note": "ON 12/24 AND 12/31, THIS BOX MAY BE COLLECTED AS EARLY AS 12 NOON.", "ref": "5927500003"}, "type": "Feature"}
{"geometry": {"coordinates": [-104.051213306, 48.871350335], "type": "Point"}, "id": "zDUA8SYuKbIxaUrX2pZrruXOXm4=", "properties": {"@spider": "usps_collection_boxes", "addr:city": "WESTBY", "addr:country": "US", "addr:full": "201 MAIN ST", "addr:postcode": "59275", "addr:state": "MT", "brand": "USPS", "brand:wikidata": "Q668687", "collection_times": "Mo-Fr 13:00; Sa 09:50", "name": "USPS COLLECTION BOX - PO LOBBY", "note": "ON 12/24 AND 12/31, THIS BOX MAY BE COLLECTED AS EARLY AS 12 NOON.", "ref": "5927500004"}, "type": "Feature"}
{"geometry": {"coordinates": [-112.0995748726, 45.8680592113], "type": "Point"}, "id": "4A7XuTFBdnKSUnPvXpMYlkLT4u8=", "properties": {"@spider": "usps_collection_boxes", "addr:city": "WHITETAIL", "addr:country": "US", "addr:full": "106 MAIN ST", "addr:postcode": "59276", "addr:state": "MT", "brand": "USPS", "brand:wikidata": "Q668687", "collection_times": "Mo-Fr 11:45; Sa 10:45", "name": "USPS COLLECTION BOX - PO LOBBY", "ref": "5927600000"}, "type": "Feature"}
{"geometry": {"coordinates": [-112.0995748726, 45.8680592113], "type": "Point"}, "id": "EZfsDI-yvptVuwbrk1bkLsKdgjs=", "properties": {"@spider": "usps_collection_boxes", "addr:city": "WHITETAIL", "addr:country": "US", "addr:full": "106 MAIN ST", "addr:postcode": "59276", "addr:state": "MT", "brand": "USPS", "brand:wikidata": "Q668687", "collection_times": "Mo-Fr 11:45; Sa 10:45", "name": "USPS COLLECTION BOX - PO LOBBY", "ref": "5927600001"}, "type": "Feature"}
