{"dataset_attributes": {"@spider": "usps_collection_boxes", "spider:collection_time": "2023-08-25T08:24:09.950024"}, "geometry": {"coordinates": [-105.849682, 46.408193], "type": "Point"}, "id": "28NpfeijBnGAIl2_57ejtoIsoU0=", "properties": {"@spider": "usps_collection_boxes", "addr:city": "MILES CITY", "addr:country": "US", "addr:full": "106 N 7TH ST", "addr:postcode": "59301", "addr:state": "MT", "amenity": "post_box", "brand": "United States Postal Service", "brand:wikidata": "Q668687", "collection_times": "Mo-Sa 17:30", "name": "USPS COLLECTION BOX - BLUE BOX", "note": "ON 12/24 AND 12/31, THIS BOX MAY BE COLLECTED AS EARLY AS 12 NOON.", "nsi_id": "unitedstatespostalservice-a77078", "operator": "United States Postal Service", "operator:short": "USPS", "operator:type": "public", "operator:wikidata": "Q668687", "ref": "5930100001"}, "type": "Feature"}
{"dataset_attributes": {"@spider": "usps_collection_boxes", "spider:collection_time": "2023-08-25T08:24:09.950024"}, "geometry": {"coordinates": [-105.845562, 46.407575], "type": "Point"}, "id": "zm8uqHKAuDxpe-UlPuY19zenu50=", "properties": {"@spider": "usps_collection_boxes", "addr:city": "MILES CITY", "addr:country": "US", "addr:full": "1010 MAIN ST", "addr:postcode": "59301", "addr:state": "MT", "amenity": "post_box", "brand": "United States Postal Service", "brand:wikidata": "Q668687", "collection_times": "Mo-Sa 15:05", "name": "USPS COLLECTION BOX - BLUE BOX", "note": "ON 12/24 AND 12/31, THIS BOX MAY BE COLLECTED AS EARLY AS 12 NOON.", "nsi_id": "unitedstatespostalservice-a77078", "operator": "United States Postal Service", "operator:short": "USPS", "operator:type": "public", "operator:wikidata": "Q668687", "ref": "5930100007"}, "type": "Feature"}
{"dataset_attributes": {"@spider": "usps_collection_boxes", "spider:collection_time": "2023-08-25T08:24:09.950024"}, "geometry": {"coordinates": [-105.849683, 46.408164], "type": "Point"}, "id": "U0beadDZaQZOJhf5PFQRsI2Rh_w=", "properties": {"@spider": "usps_collection_boxes", "addr:city": "MILES CITY", "addr:country": "US", "addr:full": "106 N 7TH ST", "addr:postcode": "59301", "addr:state": "MT", "amenity": "post_box", "brand": "United States Postal Service", "brand:wikidata": "Q668687", "collection_times": "Mo-Sa 17:30", "name": "USPS COLLECTION BOX - BLUE BOX", "note": "ON 12/24 AND 12/31, THIS BOX MAY BE COLLECTED AS EARLY AS 12 NOON.", "nsi_id": "unitedstatespostalservice-a77078", "operator": "United States Postal Service", "operator:short": "USPS", "operator:type": "public", "operator:wikidata": "Q668687", "ref": "5930100012"}, "type": "Feature"}
{"dataset_attributes": {"@spider": "usps_collection_boxes", "spider:collection_time": "2023-08-25T08:24:09.950024"}, "geometry": {"coordinates": [-105.827044, 46.40467], "type": "Point"}, "id": "UMpEWX7ljB5DtzaTIzbBQ1fKsPQ=", "properties": {"@spider": "usps_collection_boxes", "addr:city": "MILES CITY", "addr:country": "US", "addr:full": "2715 DICKINSON ST", "addr:postcode": "59301", "addr:state": "MT", "amenity": "post_box", "brand": "United States Postal Service", "brand:wikidata": "Q668687", "collection_times": "Mo-Sa 10:00", "name": "USPS COLLECTION BOX - BLUE BOX", "nsi_id": "unitedstatespostalservice-a77078", "operator": "United States Postal Service", "operator:short": "USPS", "operator:type": "public", "operator:wikidata": "Q668687", "ref": "5930100013"}, "type": "Feature"}
{"dataset_attributes": {"@spider": "usps_collection_boxes", "spider:collection_time": "2023-08-25T08:24:09.950024"}, "geometry": {"coordinates": [-105.828058, 46.395961], "type": "Point"}, "id": "KzAwGPqUOU3bwsaO4QI5vS7R_Xg=", "properties": {"@spider": "usps_collection_boxes", "addr:city": "MILES CITY", "addr:country": "US", "addr:full": "2600 WILSON ST", "addr:postcode": "59301", "addr:state": "MT", "amenity": "post_box", "brand": "United States Postal Service", "brand:wikidata": "Q668687", "collection_times": "Mo-Sa 10:30", "name": "USPS COLLECTION BOX - BLUE BOX", "nsi_id": "unitedstatespostalservice-a77078", "operator": "United States Postal Service", "operator:short": "USPS", "operator:type": "public", "operator:wikidata": "Q668687", "ref": "5930100014"}, "type": "Feature"}
{"dataset_attributes": {"@spider": "usps_collection_boxes", "spider:collection_time": "2023-08-25T08:24:09.950024"}, "geometry": {"coordinates": [-105.850147, 46.407992], "type": "Point"}, "id": "Qb9lSUSqq8EXGv7Cs8lQpOd3qRg=", "properties": {"@spider": "usps_collection_boxes", "addr:city": "MILES CITY", "addr:country": "US", "addr:full": "106 N 7TH ST", "addr:postcode": "59301", "addr:state": "MT", "amenity": "post_box", "brand": "United States Postal Service", "brand:wikidata": "Q668687", "collection_times": "Mo-Sa 17:30", "name": "USPS COLLECTION BOX - BLUE BOX", "note": "ON 12/24 AND 12/31, THIS BOX MAY BE COLLECTED AS EARLY AS 12 NOON.", "nsi_id": "unitedstatespostalservice-a77078", "operator": "United States Postal Service", "operator:short": "USPS", "operator:type": "public", "operator:wikidata": "Q668687", "ref": "5930100020"}, "type": "Feature"}
{"dataset_attributes": {"@spider": "usps_collection_boxes", "spider:collection_time": "2023-08-25T08:24:09.950024"}, "geometry": {"coordinates": [-105.8194, 46.404021], "type": "Point"}, "id": "OpcAMbVspM-Ny66daezv24rWRe0=", "properties": {"@spider": "usps_collection_boxes", "addr:city": "MILES CITY", "addr:country": "US", "addr:full": "3205 STOWER ST", "addr:postcode": "59301", "addr:state": "MT", "amenity": "post_box", "brand": "United States Postal Service", "brand:wikidata": "Q668687", "collection_times": "Mo-Sa 12:30", "name": "USPS COLLECTION BOX - BLUE BOX", "note": "ON 12/24 AND 12/31, THIS BOX MAY BE COLLECTED AS EARLY AS 12 NOON.", "nsi_id": "unitedstatespostalservice-a77078", "operator": "United States Postal Service", "operator:short": "USPS", "operator:type": "public", "operator:wikidata": "Q668687", "ref": "5930100022"}, "type": "Feature"}
{"dataset_attributes": {"@spider": "usps_collection_boxes", "spider:collection_time": "2023-08-25T08:24:09.950024"}, "geometry": {"coordinates": [-105.849715, 46.407904], "type": "Point"}, "id": "OHqiJMaCyzisq1r8Xqz4c4I30uw=", "properties": {"@spider": "usps_collection_boxes", "addr:city": "MILES CITY", "addr:country": "US", "addr:full": "106 N 7TH ST", "addr:postcode": "59301", "addr:state": "MT", "amenity": "post_box", "brand": "United States Postal Service", "brand:wikidata": "Q668687", "collection_times": "Mo-Sa 17:30", "name": "USPS COLLECTION BOX - PO LOBBY", "note": "ON 12/24 AND 12/31, THIS BOX MAY BE COLLECTED AS EARLY AS 12 NOON.", "nsi_id": "unitedstatespostalservice-a77078", "operator": "United States Postal Service", "operator:short": "USPS", "operator:type": "public", "operator:wikidata": "Q668687", "ref": "5930100027"}, "type": "Feature"}
{"dataset_attributes": {"@spider": "usps_collection_boxes", "spider:collection_time": "2023-08-25T08:24:09.950024"}, "geometry": {"coordinates": [-104.41086, 45.024604], "type": "Point"}, "id": "QNO1Fqf8LfT0Apk_WlHpIoYjOyU=", "properties": {"@spider": "usps_collection_boxes", "addr:city": "ALZADA", "addr:country": "US", "addr:full": "13700 HIGHWAY 212", "addr:postcode": "59311", "addr:state": "MT", "amenity": "post_box", "brand": "United States Postal Service", "brand:wikidata": "Q668687", "collection_times": "Mo-Sa 12:00", "name": "USPS COLLECTION BOX - BLUE BOX", "nsi_id": "unitedstatespostalservice-a77078", "operator": "United States Postal Service", "operator:short": "USPS", "operator:type": "public", "operator:wikidata": "Q668687", "ref": "5931100000"}, "type": "Feature"}
{"dataset_attributes": {"@spider": "usps_collection_boxes", "spider:collection_time": "2023-08-25T08:24:09.950024"}, "geometry": {"coordinates": [-104.410855, 45.024636], "type": "Point"}, "id": "WPzdHGXZSFMm4S5PtFtYEcPmpLY=", "properties": {"@spider": "usps_collection_boxes", "addr:city": "ALZADA", "addr:country": "US", "addr:full": "13700 HIGHWAY 212", "addr:postcode": "59311", "addr:state": "MT", "amenity": "post_box", "brand": "United States Postal Service", "brand:wikidata": "Q668687", "collection_times": "Mo-Sa 12:00", "name": "USPS COLLECTION BOX - PO LOBBY", "nsi_id": "unitedstatespostalservice-a77078", "operator": "United States Postal Service", "operator:short": "USPS", "operator:type": "public", "operator:wikidata": "Q668687", "ref": "5931100001"}, "type": "Feature"}
{"dataset_attributes": {"@spider": "usps_collection_boxes", "spider:collection_time": "2023-08-25T08:24:09.950024"}, "geometry": {"coordinates": [-104.410855, 45.024636], "type": "Point"}, "id": "IFENGPzw0QXCvBf_OCnjvYP6_tw=", "properties": {"@spider": "usps_collection_boxes", "addr:city": "ALZADA", "addr:country": "US", "addr:full": "13700 HIGHWAY 212", "addr:postcode": "59311", "addr:state": "MT", "amenity": "post_box", "brand": "United States Postal Service", "brand:wikidata": "Q668687", "collection_times": "Mo-Sa 12:00", "name": "USPS COLLECTION BOX - PO LOBBY", "nsi_id": "unitedstatespostalservice-a77078", "operator": "United States Postal Service", "operator:short": "USPS", "operator:type": "public", "operator:wikidata": "Q668687", "ref": "5931100002"}, "type": "Feature"}
{"dataset_attributes": {"@spider": "usps_collection_boxes", "spider:collection_time": "2023-08-25T08:24:09.950024"}, "geometry": {"coordinates": [-104.410837687, 45.024591636], "type": "Point"}, "id": "5fNaB4G-RGBGWmudtCXniyI1pyo=", "properties": {"@spider": "usps_collection_boxes", "addr:city": "ALZADA", "addr:country": "US", "addr:full": "13700 HIGHWAY 212", "addr:postcode": "59311", "addr:state": "MT", "amenity": "post_box", "brand": "United States Postal Service", "brand:wikidata": "Q668687", "collection_times": "Mo-Sa 12:00", "name": "USPS COLLECTION BOX - PO LOBBY", "nsi_id": "unitedstatespostalservice-a77078", "operator": "United States Postal Service", "operator:short": "USPS", "operator:type": "public", "operator:wikidata": "Q668687", "ref": "5931100003"}, "type": "Feature"}
{"dataset_attributes": {"@spider": "usps_collection_boxes", "spider:collection_time": "2023-08-25T08:24:09.950024"}, "geometry": {"coordinates": [-106.50653, 46.758857], "type": "Point"}, "id": "6ts28TDdm9SFuxk1OKFo5c-h0c8=", "properties": {"@spider": "usps_collection_boxes", "addr:city": "ANGELA", "addr:country": "US", "addr:full": "1 ANGELA RD S", "addr:postcode": "59312", "addr:state": "MT", "amenity": "post_box", "brand": "United States Postal Service", "brand:wikidata": "Q668687", "collection_times": "Mo-Fr 14:30; Sa 11:30", "name": "USPS COLLECTION BOX - PO LOBBY", "note": "ON 12/24 AND 12/31, THIS BOX MAY BE COLLECTED AS EARLY AS 12 NOON.", "nsi_id": "unitedstatespostalservice-a77078", "operator": "United States Postal Service", "operator:short": "USPS", "operator:type": "public", "operator:wikidata": "Q668687", "ref": "5931200000"}, "type": "Feature"}
{"dataset_attributes": {"@spider": "usps_collection_boxes", "spider:collection_time": "2023-08-25T08:24:09.950024"}, "geometry": {"coordinates": [-106.200431665, 46.729768097], "type": "Point"}, "id": "eCTih97QT-0Q6X2jTvyfl_bmLok=", "properties": {"@spider": "usps_collection_boxes", "addr:city": "ANGELA", "addr:country": "US", "addr:full": "1 ANGELA RD S", "addr:postcode": "59312", "addr:state": "MT", "amenity": "post_box", "brand": "United States Postal Service", "brand:wikidata": "Q668687", "collection_times": "Mo-Fr 14:20; Sa 11:20", "name": "USPS COLLECTION BOX - PO LOBBY", "note": "ON 12/24 AND 12/31, THIS BOX MAY BE COLLECTED AS EARLY AS 12 NOON.", "nsi_id": "unitedstatespostalservice-a77078", "operator": "United States Postal Service", "operator:short": "USPS", "operator:type": "public", "operator:wikidata": "Q668687", "ref": "5931200001"}, "type": "Feature"}
{"dataset_attributes": {"@spider": "usps_collection_boxes", "spider:collection_time": "2023-08-25T08:24:09.950024"}, "geometry": {"coordinates": [-104.276843, 46.371186], "type": "Point"}, "id": "PEwR2zsIYVxSqtwbfwKQGRnE1lQ=", "properties": {"@spider": "usps_collection_boxes", "addr:city": "BAKER", "addr:country": "US", "addr:full": "130 S 1ST ST W", "addr:postcode": "59313", "addr:state": "MT", "amenity": "post_box", "brand": "United States Postal Service", "brand:wikidata": "Q668687", "collection_times": "Mo-Fr 15:20; Sa 10:30", "name": "USPS COLLECTION BOX - BLUE BOX", "note": "ON 12/24 AND 12/31, THIS BOX MAY BE COLLECTED AS EARLY AS 12 NOON.", "nsi_id": "unitedstatespostalservice-a77078", "operator": "United States Postal Service", "operator:short": "USPS", "operator:type": "public", "operator:wikidata": "Q668687", "ref": "5931300000"}, "type": "Feature"}
{"dataset_attributes": {"@spider": "usps_collection_boxes", "spider:collection_time": "2023-08-25T08:24:09.950024"}, "geometry": {"coordinates": [-104.276882, 46.371151], "type": "Point"}, "id": "UlmPp_mX7oUmIhCMH7lODj3gNYk=", "properties": {"@spider": "usps_collection_boxes", "addr:city": "BAKER", "addr:country": "US", "addr:full": "130 S 1ST ST W", "addr:postcode": "59313", "addr:state": "MT", "amenity": "post_box", "brand": "United States Postal Service", "brand:wikidata": "Q668687", "collection_times": "Mo-Fr 15:20; Sa 10:30", "name": "USPS COLLECTION BOX - PO LOBBY", "note": "ON 12/24 AND 12/31, THIS BOX MAY BE COLLECTED AS EARLY AS 12 NOON.", "nsi_id": "unitedstatespostalservice-a77078", "operator": "United States Postal Service", "operator:short": "USPS", "operator:type": "public", "operator:wikidata": "Q668687", "ref": "5931300001"}, "type": "Feature"}
{"dataset_attributes": {"@spider": "usps_collection_boxes", "spider:collection_time": "2023-08-25T08:24:09.950024"}, "geometry": {"coordinates": [-104.276882, 46.371151], "type": "Point"}, "id": "1YdGwAy47UHHS_KLHlmkBhWOg4g=", "properties": {"@spider": "usps_collection_boxes", "addr:city": "BAKER", "addr:country": "US", "addr:full": "130 S 1ST ST W", "addr:postcode": "59313", "addr:state": "MT", "amenity": "post_box", "brand": "United States Postal Service", "brand:wikidata": "Q668687", "collection_times": "Mo-Fr 15:20; Sa 10:30", "name": "USPS COLLECTION BOX - PO LOBBY", "note": "ON 12/24 AND 12/31, THIS BOX MAY BE COLLECTED AS EARLY AS 12 NOON.", "nsi_id": "unitedstatespostalservice-a77078", "operator": "United States Postal Service", "operator:short": "USPS", "operator:type": "public", "operator:wikidata": "Q668687", "ref": "5931300002"}, "type": "Feature"}
{"dataset_attributes": {"@spider": "usps_collection_boxes", "spider:collection_time": "2023-08-25T08:24:09.950024"}, "geometry": {"coordinates": [-104.276882, 46.371151], "type": "Point"}, "id": "9DGdR2izN_XyOyHO_DPJPp2A6sU=", "properties": {"@spider": "usps_collection_boxes", "addr:city": "BAKER", "addr:country": "US", "addr:full": "130 S 1ST ST W", "addr:postcode": "59313", "addr:state": "MT", "amenity": "post_box", "brand": "United States Postal Service", "brand:wikidata": "Q668687", "collection_times": "Mo-Fr 15:20; Sa 10:30", "name": "USPS COLLECTION BOX - PO LOBBY", "note": "ON 12/24 AND 12/31, THIS BOX MAY BE COLLECTED AS EARLY AS 12 NOON.", "nsi_id": "unitedstatespostalservice-a77078", "operator": "United States Postal Service", "operator:short": "USPS", "operator:type": "public", "operator:wikidata": "Q668687", "ref": "5931300003"}, "type": "Feature"}
{"dataset_attributes": {"@spider": "usps_collection_boxes", "spider:collection_time": "2023-08-25T08:24:09.950024"}, "geometry": {"coordinates": [-104.276882, 46.371151], "type": "Point"}, "id": "2ZBPxd0e0j7QGqo71EgRiL6Uc9Q=", "properties": {"@spider": "usps_collection_boxes", "addr:city": "BAKER", "addr:country": "US", "addr:full": "130 S 1ST ST W", "addr:postcode": "59313", "addr:state": "MT", "amenity": "post_box", "brand": "United States Postal Service", "brand:wikidata": "Q668687", "collection_times": "Mo-Fr 15:20; Sa 10:30", "name": "USPS COLLECTION BOX - PO LOBBY", "note": "ON 12/24 AND 12/31, THIS BOX MAY BE COLLECTED AS EARLY AS 12 NOON.", "nsi_id": "unitedstatespostalservice-a77078", "operator": "United States Postal Service", "operator:short": "USPS", "operator:type": "public", "operator:wikidata": "Q668687", "ref": "5931300004"}, "type": "Feature"}
{"dataset_attributes": {"@spider": "usps_collection_boxes", "spider:collection_time": "2023-08-25T08:24:09.950024"}, "geometry": {"coordinates": [-104.276892178, 46.366585867], "type": "Point"}, "id": "UQdNwA7NzfWFzWXbZloXlWUw-jo=", "properties": {"@spider": "usps_collection_boxes", "addr:city": "BAKER", "addr:country": "US", "addr:full": "130 S 1ST ST W", "addr:postcode": "59313", "addr:state": "MT", "amenity": "post_box", "brand": "United States Postal Service", "brand:wikidata": "Q668687", "collection_times": "Mo-Fr 15:10", "name": "USPS COLLECTION BOX - PO LOBBY", "note": "ON 12/24 AND 12/31, THIS BOX MAY BE COLLECTED AS EARLY AS 12 NOON.", "nsi_id": "unitedstatespostalservice-a77078", "operator": "United States Postal Service", "operator:short": "USPS", "operator:type": "public", "operator:wikidata": "Q668687", "ref": "5931300005"}, "type": "Feature"}
{"dataset_attributes": {"@spider": "usps_collection_boxes", "spider:collection_time": "2023-08-25T08:24:09.950024"}, "geometry": {"coordinates": [-105.3382451884, 45.0995012478], "type": "Point"}, "id": "8fjJSV8iDpTyAAwNX9lK-RODYRU=", "properties": {"@spider": "usps_collection_boxes", "addr:city": "BIDDLE", "addr:country": "US", "addr:full": "218 S STATE HIGHWAY 59", "addr:postcode": "59314", "addr:state": "MT", "amenity": "post_box", "brand": "United States Postal Service", "brand:wikidata": "Q668687", "collection_times": "Mo-Fr 09:30; Sa 12:00", "name": "USPS COLLECTION BOX - BLUE BOX", "nsi_id": "unitedstatespostalservice-a77078", "operator": "United States Postal Service", "operator:short": "USPS", "operator:type": "public", "operator:wikidata": "Q668687", "ref": "5931400000"}, "type": "Feature"}
{"dataset_attributes": {"@spider": "usps_collection_boxes", "spider:collection_time": "2023-08-25T08:24:09.950024"}, "geometry": {"coordinates": [-105.37131, 45.000186], "type": "Point"}, "id": "H43dIPYtYn6wpc94wX52bMrNGzc=", "properties": {"@spider": "usps_collection_boxes", "addr:city": "BIDDLE", "addr:country": "US", "addr:full": "218 S STATE HIGHWAY 59", "addr:postcode": "59314", "addr:state": "MT", "amenity": "post_box", "brand": "United States Postal Service", "brand:wikidata": "Q668687", "collection_times": "Mo-Fr 09:30; Sa 12:00", "name": "USPS COLLECTION BOX - PO LOBBY", "nsi_id": "unitedstatespostalservice-a77078", "operator": "United States Postal Service", "operator:short": "USPS", "operator:type": "public", "operator:wikidata": "Q668687", "ref": "5931400001"}, "type": "Feature"}
{"dataset_attributes": {"@spider": "usps_collection_boxes", "spider:collection_time": "2023-08-25T08:24:09.950024"}, "geometry": {"coordinates": [-104.917397, 47.412894], "type": "Point"}, "id": "Jj23gDTHBJw1xVyyxBi240KrrKU=", "properties": {"@spider": "usps_collection_boxes", "addr:city": "BLOOMFIELD", "addr:country": "US", "addr:full": "2 RD 532", "addr:postcode": "59315", "addr:state": "MT", "amenity": "post_box", "brand": "United States Postal Service", "brand:wikidata": "Q668687", "collection_times": "Mo-Sa 10:00", "name": "USPS COLLECTION BOX - PO LOBBY", "nsi_id": "unitedstatespostalservice-a77078", "operator": "United States Postal Service", "operator:short": "USPS", "operator:type": "public", "operator:wikidata": "Q668687", "ref": "5931500001"}, "type": "Feature"}
{"dataset_attributes": {"@spider": "usps_collection_boxes", "spider:collection_time": "2023-08-25T08:24:09.950024"}, "geometry": {"coordinates": [-104.917049832, 47.412883508], "type": "Point"}, "id": "mwjCJgYqCsvLBeoBSQvRQa1oY5k=", "properties": {"@spider": "usps_collection_boxes", "addr:city": "BLOOMFIELD", "addr:country": "US", "addr:full": "2 RD 532", "addr:postcode": "59315", "addr:state": "MT", "amenity": "post_box", "brand": "United States Postal Service", "brand:wikidata": "Q668687", "collection_times": "Mo-Sa 09:50", "name": "USPS COLLECTION BOX - PO LOBBY", "nsi_id": "unitedstatespostalservice-a77078", "operator": "United States Postal Service", "operator:short": "USPS", "operator:type": "public", "operator:wikidata": "Q668687", "ref": "5931500002"}, "type": "Feature"}
{"dataset_attributes": {"@spider": "usps_collection_boxes", "spider:collection_time": "2023-08-25T08:24:09.950024"}, "geometry": {"coordinates": [-105.031044, 45.268939], "type": "Point"}, "id": "rJUqeOFOnAXxSh6VnZs4t0rPr5g=", "properties": {"@spider": "usps_collection_boxes", "addr:city": "BOYES", "addr:country": "US", "addr:full": "10203 HIGHWAY 212", "addr:postcode": "59316", "addr:state": "MT", "amenity": "post_box", "brand": "United States Postal Service", "brand:wikidata": "Q668687", "collection_times": "Mo-Sa 13:00", "name": "USPS COLLECTION BOX - PO LOBBY", "note": "ON 12/24 AND 12/31, THIS BOX MAY BE COLLECTED AS EARLY AS 12 NOON.", "nsi_id": "unitedstatespostalservice-a77078", "operator": "United States Postal Service", "operator:short": "USPS", "operator:type": "public", "operator:wikidata": "Q668687", "ref": "5931600000"}, "type": "Feature"}
{"dataset_attributes": {"@spider": "usps_collection_boxes", "spider:collection_time": "2023-08-25T08:24:09.950024"}, "geometry": {"coordinates": [-105.031008142, 45.268925061], "type": "Point"}, "id": "o2kaI8zWVDJaRYICICydIPvRSok=", "properties": {"@spider": "usps_collection_boxes", "addr:city": "BOYES", "addr:country": "US", "addr:full": "10203 HIGHWAY 212", "addr:postcode": "59316", "addr:state": "MT", "amenity": "post_box", "brand": "United States Postal Service", "brand:wikidata": "Q668687", "collection_times": "Mo-Sa 13:00", "name": "USPS COLLECTION BOX - PO LOBBY", "note": "ON 12/24 AND 12/31, THIS BOX MAY BE COLLECTED AS EARLY AS 12 NOON.", "nsi_id": "unitedstatespostalservice-a77078", "operator": "United States Postal Service", "operator:short": "USPS", "operator:type": "public", "operator:wikidata": "Q668687", "ref": "5931600001"}, "type": "Feature"}
{"dataset_attributes": {"@spider": "usps_collection_boxes", "spider:collection_time": "2023-08-25T08:24:09.950024"}, "geometry": {"coordinates": [-105.4062209676, 45.4448730105], "type": "Point"}, "id": "c1YbUU2VldMNkMvb8cbQR0EIInU=", "properties": {"@spider": "usps_collection_boxes", "addr:city": "BROADUS", "addr:country": "US", "addr:full": "202 N LINCOLN AVE", "addr:postcode": "59317", "addr:state": "MT", "amenity": "post_box", "brand": "United States Postal Service", "brand:wikidata": "Q668687", "collection_times": "Mo-Fr 15:15; Sa 14:45", "name": "USPS COLLECTION BOX - BLUE BOX", "note": "ON 12/24 AND 12/31, THIS BOX MAY BE COLLECTED AS EARLY AS 12 NOON.", "nsi_id": "unitedstatespostalservice-a77078", "operator": "United States Postal Service", "operator:short": "USPS", "operator:type": "public", "operator:wikidata": "Q668687", "ref": "5931700000"}, "type": "Feature"}
{"dataset_attributes": {"@spider": "usps_collection_boxes", "spider:collection_time": "2023-08-25T08:24:09.950024"}, "geometry": {"coordinates": [-105.4062209676, 45.4448730105], "type": "Point"}, "id": "IM4N0jErOI6kAQODYEuo5ERFXWw=", "properties": {"@spider": "usps_collection_boxes", "addr:city": "BROADUS", "addr:country": "US", "addr:full": "202 N LINCOLN ST", "addr:postcode": "59317", "addr:state": "MT", "amenity": "post_box", "brand": "United States Postal Service", "brand:wikidata": "Q668687", "collection_times": "Mo-Fr 15:15; Sa 14:45", "name": "USPS COLLECTION BOX - PO LOBBY", "note": "ON 12/24 AND 12/31, THIS BOX MAY BE COLLECTED AS EARLY AS 12 NOON.", "nsi_id": "unitedstatespostalservice-a77078", "operator": "United States Postal Service", "operator:short": "USPS", "operator:type": "public", "operator:wikidata": "Q668687", "ref": "5931700002"}, "type": "Feature"}
{"dataset_attributes": {"@spider": "usps_collection_boxes", "spider:collection_time": "2023-08-25T08:24:09.950024"}, "geometry": {"coordinates": [-105.4062209676, 45.4448730105], "type": "Point"}, "id": "dtnvJgB506L8zSpmoaAOb21oG-k=", "properties": {"@spider": "usps_collection_boxes", "addr:city": "BROADUS", "addr:country": "US", "addr:full": "202 N LINCOLN ST", "addr:postcode": "59317", "addr:state": "MT", "amenity": "post_box", "brand": "United States Postal Service", "brand:wikidata": "Q668687", "collection_times": "Mo-Fr 15:15; Sa 14:45", "name": "USPS COLLECTION BOX - PO LOBBY", "note": "ON 12/24 AND 12/31, THIS BOX MAY BE COLLECTED AS EARLY AS 12 NOON.", "nsi_id": "unitedstatespostalservice-a77078", "operator": "United States Postal Service", "operator:short": "USPS", "operator:type": "public", "operator:wikidata": "Q668687", "ref": "5931700003"}, "type": "Feature"}
{"dataset_attributes": {"@spider": "usps_collection_boxes", "spider:collection_time": "2023-08-25T08:24:09.950024"}, "geometry": {"coordinates": [-105.4062209676, 45.4448730105], "type": "Point"}, "id": "k2QKu4SNbJ1NwSr76t5PBifWZIk=", "properties": {"@spider": "usps_collection_boxes", "addr:city": "BROADUS", "addr:country": "US", "addr:full": "202 N LINCOLN AVE", "addr:postcode": "59317", "addr:state": "MT", "amenity": "post_box", "brand": "United States Postal Service", "brand:wikidata": "Q668687", "collection_times": "Mo-Fr 15:05", "name": "USPS COLLECTION BOX - PO LOBBY", "note": "ON 12/24 AND 12/31, THIS BOX MAY BE COLLECTED AS EARLY AS 12 NOON.", "nsi_id": "unitedstatespostalservice-a77078", "operator": "United States Postal Service", "operator:short": "USPS", "operator:type": "public", "operator:wikidata": "Q668687", "ref": "5931700004"}, "type": "Feature"}
{"dataset_attributes": {"@spider": "usps_collection_boxes", "spider:collection_time": "2023-08-25T08:24:09.950024"}, "geometry": {"coordinates": [-107.78463, 47.350427], "type": "Point"}, "id": "ujLTp4jVHb7YljtfX1hKvBg_opA=", "properties": {"@spider": "usps_collection_boxes", "addr:city": "BRUSETT", "addr:country": "US", "addr:full": "2198 BRUSETT RD", "addr:postcode": "59318", "addr:state": "MT", "amenity": "post_box", "brand": "United States Postal Service", "brand:wikidata": "Q668687", "collection_times": "Mo-Fr 09:00", "name": "USPS COLLECTION BOX - BLUE BOX", "nsi_id": "unitedstatespostalservice-a77078", "operator": "United States Postal Service", "operator:short": "USPS", "operator:type": "public", "operator:wikidata": "Q668687", "ref": "5931800000"}, "type": "Feature"}
{"dataset_attributes": {"@spider": "usps_collection_boxes", "spider:collection_time": "2023-08-25T08:24:09.950024"}, "geometry": {"coordinates": [-106.617654543, 47.054360655], "type": "Point"}, "id": "q_jkxsWRyW43i4il2XK6QY1muAo=", "properties": {"@spider": "usps_collection_boxes", "addr:city": "COHAGEN", "addr:country": "US", "addr:full": "5928 HIGHWAY 59 N STE 1", "addr:postcode": "59322", "addr:state": "MT", "amenity": "post_box", "brand": "United States Postal Service", "brand:wikidata": "Q668687", "collection_times": "Mo-Fr 12:30; Sa 11:15", "name": "USPS COLLECTION BOX - PO LOBBY", "note": "ON 12/24 AND 12/31, THIS BOX MAY BE COLLECTED AS EARLY AS 12 NOON.", "nsi_id": "unitedstatespostalservice-a77078", "operator": "United States Postal Service", "operator:short": "USPS", "operator:type": "public", "operator:wikidata": "Q668687", "ref": "5932200001"}, "type": "Feature"}
{"dataset_attributes": {"@spider": "usps_collection_boxes", "spider:collection_time": "2023-08-25T08:24:09.950024"}, "geometry": {"coordinates": [-106.629149, 45.882428], "type": "Point"}, "id": "Rv13_PxXEEdNgj9iAuaxxApb5Dw=", "properties": {"@spider": "usps_collection_boxes", "addr:city": "COLSTRIP", "addr:country": "US", "addr:full": "6 LOCUST ST", "addr:postcode": "59323", "addr:state": "MT", "amenity": "post_box", "brand": "United States Postal Service", "brand:wikidata": "Q668687", "collection_times": "Mo-Fr 15:00; Sa 11:30", "name": "USPS COLLECTION BOX - PO LOBBY", "note": "ON 12/24 AND 12/31, THIS BOX MAY BE COLLECTED AS EARLY AS 12 NOON.", "nsi_id": "unitedstatespostalservice-a77078", "operator": "United States Postal Service", "operator:short": "USPS", "operator:type": "public", "operator:wikidata": "Q668687", "ref": "5932300000"}, "type": "Feature"}
{"dataset_attributes": {"@spider": "usps_collection_boxes", "spider:collection_time": "2023-08-25T08:24:09.950024"}, "geometry": {"coordinates": [-106.629149, 45.882428], "type": "Point"}, "id": "yl9TqsD-QFDvj6ZrB9NizEQW6j4=", "properties": {"@spider": "usps_collection_boxes", "addr:city": "COLSTRIP", "addr:country": "US", "addr:full": "6 LOCUST ST", "addr:postcode": "59323", "addr:state": "MT", "amenity": "post_box", "brand": "United States Postal Service", "brand:wikidata": "Q668687", "collection_times": "Mo-Fr 15:00; Sa 11:30", "name": "USPS COLLECTION BOX - PO LOBBY", "note": "ON 12/24 AND 12/31, THIS BOX MAY BE COLLECTED AS EARLY AS 12 NOON.", "nsi_id": "unitedstatespostalservice-a77078", "operator": "United States Postal Service", "operator:short": "USPS", "operator:type": "public", "operator:wikidata": "Q668687", "ref": "5932300001"}, "type": "Feature"}
{"dataset_attributes": {"@spider": "usps_collection_boxes", "spider:collection_time": "2023-08-25T08:24:09.950024"}, "geometry": {"coordinates": [-106.629149, 45.882428], "type": "Point"}, "id": "5hnAMF1vpgRGJIgSSitUq6aNskg=", "properties": {"@spider": "usps_collection_boxes", "addr:city": "COLSTRIP", "addr:country": "US", "addr:full": "6 LOCUST ST", "addr:postcode": "59323", "addr:state": "MT", "amenity": "post_box", "brand": "United States Postal Service", "brand:wikidata": "Q668687", "collection_times": "Mo-Fr 15:00; Sa 11:30", "name": "USPS COLLECTION BOX - PO LOBBY", "note": "ON 12/24 AND 12/31, THIS BOX MAY BE COLLECTED AS EARLY AS 12 NOON.", "nsi_id": "unitedstatespostalservice-a77078", "operator": "United States Postal Service", "operator:short": "USPS", "operator:type": "public", "operator:wikidata": "Q668687", "ref": "5932300002"}, "type": "Feature"}
{"dataset_attributes": {"@spider": "usps_collection_boxes", "spider:collection_time": "2023-08-25T08:24:09.950024"}, "geometry": {"coordinates": [-106.629149, 45.882428], "type": "Point"}, "id": "p5qyluRsJQUrmIPrIo3SX6PLY28=", "properties": {"@spider": "usps_collection_boxes", "addr:city": "COLSTRIP", "addr:country": "US", "addr:full": "6 LOCUST ST", "addr:postcode": "59323", "addr:state": "MT", "amenity": "post_box", "brand": "United States Postal Service", "brand:wikidata": "Q668687", "collection_times": "Mo-Fr 15:00; Sa 11:30", "name": "USPS COLLECTION BOX - PO LOBBY", "note": "ON 12/24 AND 12/31, THIS BOX MAY BE COLLECTED AS EARLY AS 12 NOON.", "nsi_id": "unitedstatespostalservice-a77078", "operator": "United States Postal Service", "operator:short": "USPS", "operator:type": "public", "operator:wikidata": "Q668687", "ref": "5932300003"}, "type": "Feature"}
{"dataset_attributes": {"@spider": "usps_collection_boxes", "spider:collection_time": "2023-08-25T08:24:09.950024"}, "geometry": {"coordinates": [-106.628775025, 45.882538974], "type": "Point"}, "id": "93hoYw-_pj9BqpS-nxISYysd56U=", "properties": {"@spider": "usps_collection_boxes", "addr:city": "COLSTRIP", "addr:country": "US", "addr:full": "6 LOCUST ST", "addr:postcode": "59323", "addr:state": "MT", "amenity": "post_box", "brand": "United States Postal Service", "brand:wikidata": "Q668687", "collection_times": "Mo-Fr 14:50; Sa 11:30", "name": "USPS COLLECTION BOX - PO LOBBY", "note": "ON 12/24 AND 12/31, THIS BOX MAY BE COLLECTED AS EARLY AS 12 NOON.", "nsi_id": "unitedstatespostalservice-a77078", "operator": "United States Postal Service", "operator:short": "USPS", "operator:type": "public", "operator:wikidata": "Q668687", "ref": "5932300004"}, "type": "Feature"}
{"dataset_attributes": {"@spider": "usps_collection_boxes", "spider:collection_time": "2023-08-25T08:24:09.950024"}, "geometry": {"coordinates": [-104.546611, 45.889305], "type": "Point"}, "id": "nEWsLJOkOCzgm1X1c_d-Ytl5HAw=", "properties": {"@spider": "usps_collection_boxes", "addr:city": "EKALAKA", "addr:country": "US", "addr:full": "116 CHURCH AVE", "addr:postcode": "59324", "addr:state": "MT", "amenity": "post_box", "brand": "United States Postal Service", "brand:wikidata": "Q668687", "collection_times": "Mo-Fr 14:20; Sa 10:00", "name": "USPS COLLECTION BOX - PO LOBBY", "note": "ON 12/24 AND 12/31, THIS BOX MAY BE COLLECTED AS EARLY AS 12 NOON.", "nsi_id": "unitedstatespostalservice-a77078", "operator": "United States Postal Service", "operator:short": "USPS", "operator:type": "public", "operator:wikidata": "Q668687", "ref": "5932400000"}, "type": "Feature"}
{"dataset_attributes": {"@spider": "usps_collection_boxes", "spider:collection_time": "2023-08-25T08:24:09.950024"}, "geometry": {"coordinates": [-104.546656, 45.889381], "type": "Point"}, "id": "nSoBQf8IK6BEXXPr9jK5c4qx2O8=", "properties": {"@spider": "usps_collection_boxes", "addr:city": "EKALAKA", "addr:country": "US", "addr:full": "116 CHURCH AVE", "addr:postcode": "59324", "addr:state": "MT", "amenity": "post_box", "brand": "United States Postal Service", "brand:wikidata": "Q668687", "collection_times": "Mo-Fr 14:20; Sa 10:00", "name": "USPS COLLECTION BOX - PO LOBBY", "note": "ON 12/24 AND 12/31, THIS BOX MAY BE COLLECTED AS EARLY AS 12 NOON.", "nsi_id": "unitedstatespostalservice-a77078", "operator": "United States Postal Service", "operator:short": "USPS", "operator:type": "public", "operator:wikidata": "Q668687", "ref": "5932400001"}, "type": "Feature"}
{"dataset_attributes": {"@spider": "usps_collection_boxes", "spider:collection_time": "2023-08-25T08:24:09.950024"}, "geometry": {"coordinates": [-104.546641739, 45.889048069], "type": "Point"}, "id": "G_WAfbVVWxYRTdQDoZBkKg23g-o=", "properties": {"@spider": "usps_collection_boxes", "addr:city": "EKALAKA", "addr:country": "US", "addr:full": "116 CHURCH AVE", "addr:postcode": "59324", "addr:state": "MT", "amenity": "post_box", "brand": "United States Postal Service", "brand:wikidata": "Q668687", "collection_times": "Mo-Fr 14:20", "name": "USPS COLLECTION BOX - PO LOBBY", "note": "ON 12/24 AND 12/31, THIS BOX MAY BE COLLECTED AS EARLY AS 12 NOON.", "nsi_id": "unitedstatespostalservice-a77078", "operator": "United States Postal Service", "operator:short": "USPS", "operator:type": "public", "operator:wikidata": "Q668687", "ref": "5932400004"}, "type": "Feature"}
{"dataset_attributes": {"@spider": "usps_collection_boxes", "spider:collection_time": "2023-08-25T08:24:09.950024"}, "geometry": {"coordinates": [-105.121369, 46.835406], "type": "Point"}, "id": "6L7TtJj1N5xAXSB2-DRhim01n54=", "properties": {"@spider": "usps_collection_boxes", "addr:city": "FALLON", "addr:country": "US", "addr:full": "500 N RAILWAY AVE", "addr:postcode": "59326", "addr:state": "MT", "amenity": "post_box", "brand": "United States Postal Service", "brand:wikidata": "Q668687", "collection_times": "Mo-Fr 14:45; Sa 08:45", "name": "USPS COLLECTION BOX - BLUE BOX", "note": "ON 12/24 AND 12/31, THIS BOX MAY BE COLLECTED AS EARLY AS 12 NOON.", "nsi_id": "unitedstatespostalservice-a77078", "operator": "United States Postal Service", "operator:short": "USPS", "operator:type": "public", "operator:wikidata": "Q668687", "ref": "5932600000"}, "type": "Feature"}
{"dataset_attributes": {"@spider": "usps_collection_boxes", "spider:collection_time": "2023-08-25T08:24:09.950024"}, "geometry": {"coordinates": [-105.12137, 46.835256], "type": "Point"}, "id": "ygoz--aFmjVJAfnvZUc9-oNWu7c=", "properties": {"@spider": "usps_collection_boxes", "addr:city": "FALLON", "addr:country": "US", "addr:full": "500 N RAILWAY AVE", "addr:postcode": "59326", "addr:state": "MT", "amenity": "post_box", "brand": "United States Postal Service", "brand:wikidata": "Q668687", "collection_times": "Mo-Fr 11:00; Sa 08:45", "name": "USPS COLLECTION BOX - PO LOBBY", "nsi_id": "unitedstatespostalservice-a77078", "operator": "United States Postal Service", "operator:short": "USPS", "operator:type": "public", "operator:wikidata": "Q668687", "ref": "5932600001"}, "type": "Feature"}
{"dataset_attributes": {"@spider": "usps_collection_boxes", "spider:collection_time": "2023-08-25T08:24:09.950024"}, "geometry": {"coordinates": [-105.12113686, 46.835321362], "type": "Point"}, "id": "GDOzLnsfkpnRKFUEeZ5lMIZyjoo=", "properties": {"@spider": "usps_collection_boxes", "addr:city": "FALLON", "addr:country": "US", "addr:full": "500 N RAILWAY AVE", "addr:postcode": "59326", "addr:state": "MT", "amenity": "post_box", "brand": "United States Postal Service", "brand:wikidata": "Q668687", "collection_times": "Mo-Fr 11:00", "name": "USPS COLLECTION BOX - PO LOBBY", "nsi_id": "unitedstatespostalservice-a77078", "operator": "United States Postal Service", "operator:short": "USPS", "operator:type": "public", "operator:wikidata": "Q668687", "ref": "5932600003"}, "type": "Feature"}
{"dataset_attributes": {"@spider": "usps_collection_boxes", "spider:collection_time": "2023-08-25T08:24:09.950024"}, "geometry": {"coordinates": [-106.679224, 46.266711], "type": "Point"}, "id": "RlvYVtWNv8s1Qsfz1I7B6gE871Y=", "properties": {"@spider": "usps_collection_boxes", "addr:city": "FORSYTH", "addr:country": "US", "addr:full": "216 N 10TH AVE", "addr:postcode": "59327", "addr:state": "MT", "amenity": "post_box", "brand": "United States Postal Service", "brand:wikidata": "Q668687", "collection_times": "Mo-Fr 16:00; Sa 12:00", "name": "USPS COLLECTION BOX - BLUE BOX", "note": "ON 12/24 AND 12/31, THIS BOX MAY BE COLLECTED AS EARLY AS 12 NOON.", "nsi_id": "unitedstatespostalservice-a77078", "operator": "United States Postal Service", "operator:short": "USPS", "operator:type": "public", "operator:wikidata": "Q668687", "ref": "5932700000"}, "type": "Feature"}
{"dataset_attributes": {"@spider": "usps_collection_boxes", "spider:collection_time": "2023-08-25T08:24:09.950024"}, "geometry": {"coordinates": [-106.679064, 46.267098], "type": "Point"}, "id": "Gz3-4sYbTRahj6m6ZrNwPXYTu94=", "properties": {"@spider": "usps_collection_boxes", "addr:city": "FORSYTH", "addr:country": "US", "addr:full": "216 N 10TH AVE", "addr:postcode": "59327", "addr:state": "MT", "amenity": "post_box", "brand": "United States Postal Service", "brand:wikidata": "Q668687", "collection_times": "Mo-Fr 16:00; Sa 12:00", "name": "USPS COLLECTION BOX - PO LOBBY", "note": "ON 12/24 AND 12/31, THIS BOX MAY BE COLLECTED AS EARLY AS 12 NOON.", "nsi_id": "unitedstatespostalservice-a77078", "operator": "United States Postal Service", "operator:short": "USPS", "operator:type": "public", "operator:wikidata": "Q668687", "ref": "5932700001"}, "type": "Feature"}
{"dataset_attributes": {"@spider": "usps_collection_boxes", "spider:collection_time": "2023-08-25T08:24:09.950024"}, "geometry": {"coordinates": [-106.678945, 46.267123], "type": "Point"}, "id": "YOykCGvCXyBwP6IWdY6a3yfZ6-0=", "properties": {"@spider": "usps_collection_boxes", "addr:city": "FORSYTH", "addr:country": "US", "addr:full": "216 N 10TH AVE", "addr:postcode": "59327", "addr:state": "MT", "amenity": "post_box", "brand": "United States Postal Service", "brand:wikidata": "Q668687", "collection_times": "Mo-Fr 16:00; Sa 12:00", "name": "USPS COLLECTION BOX - PO LOBBY", "note": "ON 12/24 AND 12/31, THIS BOX MAY BE COLLECTED AS EARLY AS 12 NOON.", "nsi_id": "unitedstatespostalservice-a77078", "operator": "United States Postal Service", "operator:short": "USPS", "operator:type": "public", "operator:wikidata": "Q668687", "ref": "5932700002"}, "type": "Feature"}
{"dataset_attributes": {"@spider": "usps_collection_boxes", "spider:collection_time": "2023-08-25T08:24:09.950024"}, "geometry": {"coordinates": [-106.678911, 46.267179], "type": "Point"}, "id": "6lYHrh0g2Jwl3tLTLn4sar4UUgc=", "properties": {"@spider": "usps_collection_boxes", "addr:city": "FORSYTH", "addr:country": "US", "addr:full": "216 N 10TH AVE", "addr:postcode": "59327", "addr:state": "MT", "amenity": "post_box", "brand": "United States Postal Service", "brand:wikidata": "Q668687", "collection_times": "Mo-Fr 16:00; Sa 12:00", "name": "USPS COLLECTION BOX - PO LOBBY", "note": "ON 12/24 AND 12/31, THIS BOX MAY BE COLLECTED AS EARLY AS 12 NOON.", "nsi_id": "unitedstatespostalservice-a77078", "operator": "United States Postal Service", "operator:short": "USPS", "operator:type": "public", "operator:wikidata": "Q668687", "ref": "5932700003"}, "type": "Feature"}
{"dataset_attributes": {"@spider": "usps_collection_boxes", "spider:collection_time": "2023-08-25T08:24:09.950024"}, "geometry": {"coordinates": [-106.678958, 46.267191], "type": "Point"}, "id": "AYaiyHxNAFgjJrfnjt-IbIn_n34=", "properties": {"@spider": "usps_collection_boxes", "addr:city": "FORSYTH", "addr:country": "US", "addr:full": "216 N 10TH AVE", "addr:postcode": "59327", "addr:state": "MT", "amenity": "post_box", "brand": "United States Postal Service", "brand:wikidata": "Q668687", "collection_times": "Mo-Fr 16:00; Sa 12:00", "name": "USPS COLLECTION BOX - PO LOBBY", "note": "ON 12/24 AND 12/31, THIS BOX MAY BE COLLECTED AS EARLY AS 12 NOON.", "nsi_id": "unitedstatespostalservice-a77078", "operator": "United States Postal Service", "operator:short": "USPS", "operator:type": "public", "operator:wikidata": "Q668687", "ref": "5932700004"}, "type": "Feature"}
{"dataset_attributes": {"@spider": "usps_collection_boxes", "spider:collection_time": "2023-08-25T08:24:09.950024"}, "geometry": {"coordinates": [-106.678825819, 46.267001236], "type": "Point"}, "id": "6yAAgjXNr4S5i7sXlspQ2eB6MKQ=", "properties": {"@spider": "usps_collection_boxes", "addr:city": "FORSYTH", "addr:country": "US", "addr:full": "216 N 10TH AVE", "addr:postcode": "59327", "addr:state": "MT", "amenity": "post_box", "brand": "United States Postal Service", "brand:wikidata": "Q668687", "collection_times": "Mo-Fr 16:00; Sa 11:30", "name": "USPS COLLECTION BOX - PO LOBBY", "note": "ON 12/24 AND 12/31, THIS BOX MAY BE COLLECTED AS EARLY AS 12 NOON.", "nsi_id": "unitedstatespostalservice-a77078", "operator": "United States Postal Service", "operator:short": "USPS", "operator:type": "public", "operator:wikidata": "Q668687", "ref": "5932700005"}, "type": "Feature"}
{"dataset_attributes": {"@spider": "usps_collection_boxes", "spider:collection_time": "2023-08-25T08:24:09.950024"}, "geometry": {"coordinates": [-104.701026, 47.116969], "type": "Point"}, "id": "vyRbDnNM-Xt5pfdWXoIcc4aVews=", "properties": {"@spider": "usps_collection_boxes", "addr:city": "GLENDIVE", "addr:country": "US", "addr:full": "1320 N MERRILL AVE", "addr:postcode": "59330", "addr:state": "MT", "amenity": "post_box", "brand": "United States Postal Service", "brand:wikidata": "Q668687", "collection_times": "Mo-Sa 14:30", "name": "USPS COLLECTION BOX - BLUE BOX", "note": "ON 12/24 AND 12/31, THIS BOX MAY BE COLLECTED AS EARLY AS 12 NOON.", "nsi_id": "unitedstatespostalservice-a77078", "operator": "United States Postal Service", "operator:short": "USPS", "operator:type": "public", "operator:wikidata": "Q668687", "ref": "5933000002"}, "type": "Feature"}
{"dataset_attributes": {"@spider": "usps_collection_boxes", "spider:collection_time": "2023-08-25T08:24:09.950024"}, "geometry": {"coordinates": [-104.727257, 47.107924], "type": "Point"}, "id": "SFWicm2T5QvRnpbDCVzAepR3AvU=", "properties": {"@spider": "usps_collection_boxes", "addr:city": "GLENDIVE", "addr:country": "US", "addr:full": "307 HARMON ST", "addr:postcode": "59330", "addr:state": "MT", "amenity": "post_box", "brand": "United States Postal Service", "brand:wikidata": "Q668687", "collection_times": "Mo-Sa 14:30", "name": "USPS COLLECTION BOX - BLUE BOX", "note": "ON 12/24 AND 12/31, THIS BOX MAY BE COLLECTED AS EARLY AS 12 NOON.", "nsi_id": "unitedstatespostalservice-a77078", "operator": "United States Postal Service", "operator:short": "USPS", "operator:type": "public", "operator:wikidata": "Q668687", "ref": "5933000005"}, "type": "Feature"}
{"dataset_attributes": {"@spider": "usps_collection_boxes", "spider:collection_time": "2023-08-25T08:24:09.950024"}, "geometry": {"coordinates": [-104.713764, 47.106076], "type": "Point"}, "id": "PZIzLG_PigRCbRVhI2DesuDqezg=", "properties": {"@spider": "usps_collection_boxes", "addr:city": "GLENDIVE", "addr:country": "US", "addr:full": "221 N KENDRICK AVE", "addr:postcode": "59330", "addr:state": "MT", "amenity": "post_box", "brand": "United States Postal Service", "brand:wikidata": "Q668687", "collection_times": "Mo-Sa 15:35", "name": "USPS COLLECTION BOX - BLUE BOX", "note": "ON 12/24 AND 12/31, THIS BOX MAY BE COLLECTED AS EARLY AS 12 NOON.", "nsi_id": "unitedstatespostalservice-a77078", "operator": "United States Postal Service", "operator:short": "USPS", "operator:type": "public", "operator:wikidata": "Q668687", "ref": "5933000007"}, "type": "Feature"}
{"dataset_attributes": {"@spider": "usps_collection_boxes", "spider:collection_time": "2023-08-25T08:24:09.950024"}, "geometry": {"coordinates": [-104.715359, 47.105101], "type": "Point"}, "id": "XJvP5Uzy3O9AEozXOQeF8Vhvq_Y=", "properties": {"@spider": "usps_collection_boxes", "addr:city": "GLENDIVE", "addr:country": "US", "addr:full": "207 W BELL ST", "addr:postcode": "59330", "addr:state": "MT", "amenity": "post_box", "brand": "United States Postal Service", "brand:wikidata": "Q668687", "collection_times": "Mo-Sa 15:00", "name": "USPS COLLECTION BOX - BLUE BOX", "note": "ON 12/24 AND 12/31, THIS BOX MAY BE COLLECTED AS EARLY AS 12 NOON.", "nsi_id": "unitedstatespostalservice-a77078", "operator": "United States Postal Service", "operator:short": "USPS", "operator:type": "public", "operator:wikidata": "Q668687", "ref": "5933000008"}, "type": "Feature"}
{"dataset_attributes": {"@spider": "usps_collection_boxes", "spider:collection_time": "2023-08-25T08:24:09.950024"}, "geometry": {"coordinates": [-104.713775, 47.106016], "type": "Point"}, "id": "Rl-xU95x3kyG5UwtcKEAp9t24Z0=", "properties": {"@spider": "usps_collection_boxes", "addr:city": "GLENDIVE", "addr:country": "US", "addr:full": "221 N KENDRICK AVE", "addr:postcode": "59330", "addr:state": "MT", "amenity": "post_box", "brand": "United States Postal Service", "brand:wikidata": "Q668687", "collection_times": "Mo-Sa 15:35", "name": "USPS COLLECTION BOX - BLUE BOX", "note": "ON 12/24 AND 12/31, THIS BOX MAY BE COLLECTED AS EARLY AS 12 NOON.", "nsi_id": "unitedstatespostalservice-a77078", "operator": "United States Postal Service", "operator:short": "USPS", "operator:type": "public", "operator:wikidata": "Q668687", "ref": "5933000012"}, "type": "Feature"}
{"dataset_attributes": {"@spider": "usps_collection_boxes", "spider:collection_time": "2023-08-25T08:24:09.950024"}, "geometry": {"coordinates": [-104.713775, 47.106016], "type": "Point"}, "id": "ouu6NStyOr8XMpjZEFTcHjFeWR4=", "properties": {"@spider": "usps_collection_boxes", "addr:city": "GLENDIVE", "addr:country": "US", "addr:full": "221 N KENDRICK AVE", "addr:postcode": "59330", "addr:state": "MT", "amenity": "post_box", "brand": "United States Postal Service", "brand:wikidata": "Q668687", "collection_times": "Mo-Sa 15:35", "name": "USPS COLLECTION BOX - PO LOBBY", "note": "ON 12/24 AND 12/31, THIS BOX MAY BE COLLECTED AS EARLY AS 12 NOON.", "nsi_id": "unitedstatespostalservice-a77078", "operator": "United States Postal Service", "operator:short": "USPS", "operator:type": "public", "operator:wikidata": "Q668687", "ref": "5933000013"}, "type": "Feature"}
{"dataset_attributes": {"@spider": "usps_collection_boxes", "spider:collection_time": "2023-08-25T08:24:09.950024"}, "geometry": {"coordinates": [-104.713306459, 47.106528391], "type": "Point"}, "id": "nNmiqUuTqE-l_xrFR2SvpZGfJAU=", "properties": {"@spider": "usps_collection_boxes", "addr:city": "GLENDIVE", "addr:country": "US", "addr:full": "221 N KENDRICK AVE", "addr:postcode": "59330", "addr:state": "MT", "amenity": "post_box", "brand": "United States Postal Service", "brand:wikidata": "Q668687", "collection_times": "Mo-Fr 15:35; Sa 12:00", "name": "USPS COLLECTION BOX - PO LOBBY", "note": "ON 12/24 AND 12/31, THIS BOX MAY BE COLLECTED AS EARLY AS 12 NOON.", "nsi_id": "unitedstatespostalservice-a77078", "operator": "United States Postal Service", "operator:short": "USPS", "operator:type": "public", "operator:wikidata": "Q668687", "ref": "5933000016"}, "type": "Feature"}
{"dataset_attributes": {"@spider": "usps_collection_boxes", "spider:collection_time": "2023-08-25T08:24:09.950024"}, "geometry": {"coordinates": [-104.547514, 45.890669], "type": "Point"}, "id": "Le7VBM6xz-Grn8FklTzKfQmK5cM=", "properties": {"@spider": "usps_collection_boxes", "addr:city": "HAMMOND", "addr:country": "US", "addr:full": "102 MAIN ST", "addr:postcode": "59332", "addr:state": "MT", "amenity": "post_box", "brand": "United States Postal Service", "brand:wikidata": "Q668687", "collection_times": "Mo-Fr 12:45; Sa 12:00", "name": "USPS COLLECTION BOX - PO LOBBY", "note": "ON 12/24 AND 12/31, THIS BOX MAY BE COLLECTED AS EARLY AS 12 NOON.", "nsi_id": "unitedstatespostalservice-a77078", "operator": "United States Postal Service", "operator:short": "USPS", "operator:type": "public", "operator:wikidata": "Q668687", "ref": "5933200000"}, "type": "Feature"}
{"dataset_attributes": {"@spider": "usps_collection_boxes", "spider:collection_time": "2023-08-25T08:24:09.950024"}, "geometry": {"coordinates": [-104.547514, 45.890669], "type": "Point"}, "id": "r4uEsNQvI6KxIGwhebJhW-stA0c=", "properties": {"@spider": "usps_collection_boxes", "addr:city": "HAMMOND", "addr:country": "US", "addr:full": "102 MAIN ST", "addr:postcode": "59332", "addr:state": "MT", "amenity": "post_box", "brand": "United States Postal Service", "brand:wikidata": "Q668687", "collection_times": "Mo-Fr 12:45; Sa 12:00", "name": "USPS COLLECTION BOX - PO LOBBY", "note": "ON 12/24 AND 12/31, THIS BOX MAY BE COLLECTED AS EARLY AS 12 NOON.", "nsi_id": "unitedstatespostalservice-a77078", "operator": "United States Postal Service", "operator:short": "USPS", "operator:type": "public", "operator:wikidata": "Q668687", "ref": "5933200001"}, "type": "Feature"}
{"dataset_attributes": {"@spider": "usps_collection_boxes", "spider:collection_time": "2023-08-25T08:24:09.950024"}, "geometry": {"coordinates": [-104.8519946, 45.2818], "type": "Point"}, "id": "-nU26cxYqMtk92BPtd7ZxMH_56I=", "properties": {"@spider": "usps_collection_boxes", "addr:city": "HAMMOND", "addr:country": "US", "addr:full": "102 MAIN ST", "addr:postcode": "59332", "addr:state": "MT", "amenity": "post_box", "brand": "United States Postal Service", "brand:wikidata": "Q668687", "collection_times": "Mo-Fr 13:00; Sa 12:00", "name": "USPS COLLECTION BOX - PO LOBBY", "note": "ON 12/24 AND 12/31, THIS BOX MAY BE COLLECTED AS EARLY AS 12 NOON.", "nsi_id": "unitedstatespostalservice-a77078", "operator": "United States Postal Service", "operator:short": "USPS", "operator:type": "public", "operator:wikidata": "Q668687", "ref": "5933200002"}, "type": "Feature"}
{"dataset_attributes": {"@spider": "usps_collection_boxes", "spider:collection_time": "2023-08-25T08:24:09.950024"}, "geometry": {"coordinates": [-104.7931232262, 46.4998927223], "type": "Point"}, "id": "2trl7DoCkdDuwUS0ligmjhvsQDg=", "properties": {"@spider": "usps_collection_boxes", "addr:city": "ISMAY", "addr:country": "US", "addr:full": "409 MAIN ST", "addr:postcode": "59336", "addr:state": "MT", "amenity": "post_box", "brand": "United States Postal Service", "brand:wikidata": "Q668687", "collection_times": "Mo-Fr 15:00; Sa 10:15", "name": "USPS COLLECTION BOX - PO LOBBY", "note": "ON 12/24 AND 12/31, THIS BOX MAY BE COLLECTED AS EARLY AS 12 NOON.", "nsi_id": "unitedstatespostalservice-a77078", "operator": "United States Postal Service", "operator:short": "USPS", "operator:type": "public", "operator:wikidata": "Q668687", "ref": "5933600004"}, "type": "Feature"}
{"dataset_attributes": {"@spider": "usps_collection_boxes", "spider:collection_time": "2023-08-25T08:24:09.950024"}, "geometry": {"coordinates": [-104.7931232262, 46.4998927223], "type": "Point"}, "id": "Q8tnMBM_ne-H-K3e-C2UHVCEWLs=", "properties": {"@spider": "usps_collection_boxes", "addr:city": "ISMAY", "addr:country": "US", "addr:full": "409 MAIN ST", "addr:postcode": "59336", "addr:state": "MT", "amenity": "post_box", "brand": "United States Postal Service", "brand:wikidata": "Q668687", "collection_times": "Mo-Fr 15:00; Sa 10:15", "name": "USPS COLLECTION BOX - PO LOBBY", "note": "ON 12/24 AND 12/31, THIS BOX MAY BE COLLECTED AS EARLY AS 12 NOON.", "nsi_id": "unitedstatespostalservice-a77078", "operator": "United States Postal Service", "operator:short": "USPS", "operator:type": "public", "operator:wikidata": "Q668687", "ref": "5933600005"}, "type": "Feature"}
{"dataset_attributes": {"@spider": "usps_collection_boxes", "spider:collection_time": "2023-08-25T08:24:09.950024"}, "geometry": {"coordinates": [-106.91186, 47.320626], "type": "Point"}, "id": "Lp6N2WoWT3jsAzhVqL5wkZRS09I=", "properties": {"@spider": "usps_collection_boxes", "addr:city": "JORDAN", "addr:country": "US", "addr:full": "547 MAIN ST", "addr:postcode": "59337", "addr:state": "MT", "amenity": "post_box", "brand": "United States Postal Service", "brand:wikidata": "Q668687", "collection_times": "Mo-Fr 15:15; Sa 10:30", "name": "USPS COLLECTION BOX - BLUE BOX", "note": "ON 12/24 AND 12/31, THIS BOX MAY BE COLLECTED AS EARLY AS 12 NOON.", "nsi_id": "unitedstatespostalservice-a77078", "operator": "United States Postal Service", "operator:short": "USPS", "operator:type": "public", "operator:wikidata": "Q668687", "ref": "5933700000"}, "type": "Feature"}
{"dataset_attributes": {"@spider": "usps_collection_boxes", "spider:collection_time": "2023-08-25T08:24:09.950024"}, "geometry": {"coordinates": [-106.911848, 47.320599], "type": "Point"}, "id": "M95YYFuJDYnc6wI6QYQhdDkqa18=", "properties": {"@spider": "usps_collection_boxes", "addr:city": "JORDAN", "addr:country": "US", "addr:full": "547 MAIN ST", "addr:postcode": "59337", "addr:state": "MT", "amenity": "post_box", "brand": "United States Postal Service", "brand:wikidata": "Q668687", "collection_times": "Mo-Fr 15:15; Sa 10:30", "name": "USPS COLLECTION BOX - PO LOBBY", "note": "ON 12/24 AND 12/31, THIS BOX MAY BE COLLECTED AS EARLY AS 12 NOON.", "nsi_id": "unitedstatespostalservice-a77078", "operator": "United States Postal Service", "operator:short": "USPS", "operator:type": "public", "operator:wikidata": "Q668687", "ref": "5933700001"}, "type": "Feature"}
{"dataset_attributes": {"@spider": "usps_collection_boxes", "spider:collection_time": "2023-08-25T08:24:09.950024"}, "geometry": {"coordinates": [-106.911848, 47.320599], "type": "Point"}, "id": "Dz2pvwgf2aomgxxrvkG06Nc3N8E=", "properties": {"@spider": "usps_collection_boxes", "addr:city": "JORDAN", "addr:country": "US", "addr:full": "547 MAIN ST", "addr:postcode": "59337", "addr:state": "MT", "amenity": "post_box", "brand": "United States Postal Service", "brand:wikidata": "Q668687", "collection_times": "Mo-Fr 15:15; Sa 10:30", "name": "USPS COLLECTION BOX - PO LOBBY", "note": "ON 12/24 AND 12/31, THIS BOX MAY BE COLLECTED AS EARLY AS 12 NOON.", "nsi_id": "unitedstatespostalservice-a77078", "operator": "United States Postal Service", "operator:short": "USPS", "operator:type": "public", "operator:wikidata": "Q668687", "ref": "5933700002"}, "type": "Feature"}
{"dataset_attributes": {"@spider": "usps_collection_boxes", "spider:collection_time": "2023-08-25T08:24:09.950024"}, "geometry": {"coordinates": [-105.6570356875, 46.5695079493], "type": "Point"}, "id": "8COooJocYKTJhwdNjt4sdWoxDg8=", "properties": {"@spider": "usps_collection_boxes", "addr:city": "KINSEY", "addr:country": "US", "addr:full": "39 MASTIN RD", "addr:postcode": "59338", "addr:state": "MT", "amenity": "post_box", "brand": "United States Postal Service", "brand:wikidata": "Q668687", "collection_times": "Mo-Sa 10:50", "name": "USPS COLLECTION BOX - BLUE BOX", "nsi_id": "unitedstatespostalservice-a77078", "operator": "United States Postal Service", "operator:short": "USPS", "operator:type": "public", "operator:wikidata": "Q668687", "ref": "5933800001"}, "type": "Feature"}
{"dataset_attributes": {"@spider": "usps_collection_boxes", "spider:collection_time": "2023-08-25T08:24:09.950024"}, "geometry": {"coordinates": [-105.151209, 47.222419], "type": "Point"}, "id": "0IStJcKAdu_Jpp6DjNQlT2KyXKY=", "properties": {"@spider": "usps_collection_boxes", "addr:city": "LINDSAY", "addr:country": "US", "addr:full": "2117 FAS 470", "addr:postcode": "59339", "addr:state": "MT", "amenity": "post_box", "brand": "United States Postal Service", "brand:wikidata": "Q668687", "collection_times": "Mo-Fr 11:30; Sa 10:30", "name": "USPS COLLECTION BOX - BLUE BOX", "nsi_id": "unitedstatespostalservice-a77078", "operator": "United States Postal Service", "operator:short": "USPS", "operator:type": "public", "operator:wikidata": "Q668687", "ref": "5933900000"}, "type": "Feature"}
{"dataset_attributes": {"@spider": "usps_collection_boxes", "spider:collection_time": "2023-08-25T08:24:09.950024"}, "geometry": {"coordinates": [-105.151209, 47.222419], "type": "Point"}, "id": "LcqTel-INPWOUglVOZPI9f7wa4o=", "properties": {"@spider": "usps_collection_boxes", "addr:city": "LINDSAY", "addr:country": "US", "addr:full": "2117 FAS 470", "addr:postcode": "59339", "addr:state": "MT", "amenity": "post_box", "brand": "United States Postal Service", "brand:wikidata": "Q668687", "collection_times": "Mo-Fr 11:30; Sa 10:30", "name": "USPS COLLECTION BOX - PO LOBBY", "nsi_id": "unitedstatespostalservice-a77078", "operator": "United States Postal Service", "operator:short": "USPS", "operator:type": "public", "operator:wikidata": "Q668687", "ref": "5933900001"}, "type": "Feature"}
{"dataset_attributes": {"@spider": "usps_collection_boxes", "spider:collection_time": "2023-08-25T08:24:09.950024"}, "geometry": {"coordinates": [-104.517503, 46.41388], "type": "Point"}, "id": "bhx_Cy-R7mFDxeRgc3Mhfds0rBg=", "properties": {"@spider": "usps_collection_boxes", "addr:city": "PLEVNA", "addr:country": "US", "addr:full": "125 N MAIN ST", "addr:postcode": "59344", "addr:state": "MT", "amenity": "post_box", "brand": "United States Postal Service", "brand:wikidata": "Q668687", "collection_times": "Mo-Fr 14:30; Sa 09:30", "name": "USPS COLLECTION BOX - PO LOBBY", "note": "ON 12/24 AND 12/31, THIS BOX MAY BE COLLECTED AS EARLY AS 12 NOON.", "nsi_id": "unitedstatespostalservice-a77078", "operator": "United States Postal Service", "operator:short": "USPS", "operator:type": "public", "operator:wikidata": "Q668687", "ref": "5934400001"}, "type": "Feature"}
{"dataset_attributes": {"@spider": "usps_collection_boxes", "spider:collection_time": "2023-08-25T08:24:09.950024"}, "geometry": {"coordinates": [-106.444984, 46.274729], "type": "Point"}, "id": "lrYi8h304A4EKmRuKxFb1yMjvfk=", "properties": {"@spider": "usps_collection_boxes", "addr:city": "ROSEBUD", "addr:country": "US", "addr:full": "125 MAIN ST", "addr:postcode": "59347", "addr:state": "MT", "amenity": "post_box", "brand": "United States Postal Service", "brand:wikidata": "Q668687", "collection_times": "Mo-Fr 15:45; Sa 11:45", "name": "USPS COLLECTION BOX - BLUE BOX", "note": "ON 12/24 AND 12/31, THIS BOX MAY BE COLLECTED AS EARLY AS 12 NOON.", "nsi_id": "unitedstatespostalservice-a77078", "operator": "United States Postal Service", "operator:short": "USPS", "operator:type": "public", "operator:wikidata": "Q668687", "ref": "5934700000"}, "type": "Feature"}
{"dataset_attributes": {"@spider": "usps_collection_boxes", "spider:collection_time": "2023-08-25T08:24:09.950024"}, "geometry": {"coordinates": [-106.44703, 46.273998], "type": "Point"}, "id": "OnMaWAnzscT_YZK_WrMBdq1IhaU=", "properties": {"@spider": "usps_collection_boxes", "addr:city": "ROSEBUD", "addr:country": "US", "addr:full": "125 MAIN ST", "addr:postcode": "59347", "addr:state": "MT", "amenity": "post_box", "brand": "United States Postal Service", "brand:wikidata": "Q668687", "collection_times": "Mo-Fr 15:45; Sa 11:45", "name": "USPS COLLECTION BOX - PO LOBBY", "note": "ON 12/24 AND 12/31, THIS BOX MAY BE COLLECTED AS EARLY AS 12 NOON.", "nsi_id": "unitedstatespostalservice-a77078", "operator": "United States Postal Service", "operator:short": "USPS", "operator:type": "public", "operator:wikidata": "Q668687", "ref": "5934700001"}, "type": "Feature"}
{"dataset_attributes": {"@spider": "usps_collection_boxes", "spider:collection_time": "2023-08-25T08:24:09.950024"}, "geometry": {"coordinates": [-106.445035, 46.274819], "type": "Point"}, "id": "brf4BqnQ9rUtkV0Kq2buMjn5mDM=", "properties": {"@spider": "usps_collection_boxes", "addr:city": "ROSEBUD", "addr:country": "US", "addr:full": "125 MAIN ST", "addr:postcode": "59347", "addr:state": "MT", "amenity": "post_box", "brand": "United States Postal Service", "brand:wikidata": "Q668687", "collection_times": "Mo-Fr 15:45; Sa 11:45", "name": "USPS COLLECTION BOX - PO LOBBY", "note": "ON 12/24 AND 12/31, THIS BOX MAY BE COLLECTED AS EARLY AS 12 NOON.", "nsi_id": "unitedstatespostalservice-a77078", "operator": "United States Postal Service", "operator:short": "USPS", "operator:type": "public", "operator:wikidata": "Q668687", "ref": "5934700002"}, "type": "Feature"}
{"dataset_attributes": {"@spider": "usps_collection_boxes", "spider:collection_time": "2023-08-25T08:24:09.950024"}, "geometry": {"coordinates": [-105.313171, 46.791431], "type": "Point"}, "id": "6YWAOC5_9CqhpxxEoZ5okplXr6g=", "properties": {"@spider": "usps_collection_boxes", "addr:city": "TERRY", "addr:country": "US", "addr:full": "303 LOGAN AVE", "addr:postcode": "59349", "addr:state": "MT", "amenity": "post_box", "brand": "United States Postal Service", "brand:wikidata": "Q668687", "collection_times": "Mo-Sa 16:30", "name": "USPS COLLECTION BOX - BLUE BOX", "note": "ON 12/24 AND 12/31, THIS BOX MAY BE COLLECTED AS EARLY AS 12 NOON.", "nsi_id": "unitedstatespostalservice-a77078", "operator": "United States Postal Service", "operator:short": "USPS", "operator:type": "public", "operator:wikidata": "Q668687", "ref": "5934900000"}, "type": "Feature"}
{"dataset_attributes": {"@spider": "usps_collection_boxes", "spider:collection_time": "2023-08-25T08:24:09.950024"}, "geometry": {"coordinates": [-105.312898, 46.791676], "type": "Point"}, "id": "mBKiS5f4IXIfw-ULFzoz4DBh2AY=", "properties": {"@spider": "usps_collection_boxes", "addr:city": "TERRY", "addr:country": "US", "addr:full": "303 LOGAN AVE", "addr:postcode": "59349", "addr:state": "MT", "amenity": "post_box", "brand": "United States Postal Service", "brand:wikidata": "Q668687", "collection_times": "Mo-Fr 16:00; Sa 10:00", "name": "USPS COLLECTION BOX - PO LOBBY", "note": "ON 12/24 AND 12/31, THIS BOX MAY BE COLLECTED AS EARLY AS 12 NOON.", "nsi_id": "unitedstatespostalservice-a77078", "operator": "United States Postal Service", "operator:short": "USPS", "operator:type": "public", "operator:wikidata": "Q668687", "ref": "5934900002"}, "type": "Feature"}
{"dataset_attributes": {"@spider": "usps_collection_boxes", "spider:collection_time": "2023-08-25T08:24:09.950024"}, "geometry": {"coordinates": [-105.312898, 46.791676], "type": "Point"}, "id": "TMWd2-ycuDLY0hVVESreAHDTuoI=", "properties": {"@spider": "usps_collection_boxes", "addr:city": "TERRY", "addr:country": "US", "addr:full": "303 LOGAN AVE", "addr:postcode": "59349", "addr:state": "MT", "amenity": "post_box", "brand": "United States Postal Service", "brand:wikidata": "Q668687", "collection_times": "Mo-Fr 16:00; Sa 10:00", "name": "USPS COLLECTION BOX - PO LOBBY", "note": "ON 12/24 AND 12/31, THIS BOX MAY BE COLLECTED AS EARLY AS 12 NOON.", "nsi_id": "unitedstatespostalservice-a77078", "operator": "United States Postal Service", "operator:short": "USPS", "operator:type": "public", "operator:wikidata": "Q668687", "ref": "5934900003"}, "type": "Feature"}
{"dataset_attributes": {"@spider": "usps_collection_boxes", "spider:collection_time": "2023-08-25T08:24:09.950024"}, "geometry": {"coordinates": [-105.312898, 46.791676], "type": "Point"}, "id": "HWkSkoBQH_u9aopn2woKqUWmwhg=", "properties": {"@spider": "usps_collection_boxes", "addr:city": "TERRY", "addr:country": "US", "addr:full": "303 LOGAN AVE", "addr:postcode": "59349", "addr:state": "MT", "amenity": "post_box", "brand": "United States Postal Service", "brand:wikidata": "Q668687", "collection_times": "Mo-Fr 16:00; Sa 10:00", "name": "USPS COLLECTION BOX - PO LOBBY", "note": "ON 12/24 AND 12/31, THIS BOX MAY BE COLLECTED AS EARLY AS 12 NOON.", "nsi_id": "unitedstatespostalservice-a77078", "operator": "United States Postal Service", "operator:short": "USPS", "operator:type": "public", "operator:wikidata": "Q668687", "ref": "5934900004"}, "type": "Feature"}
{"dataset_attributes": {"@spider": "usps_collection_boxes", "spider:collection_time": "2023-08-25T08:24:09.950024"}, "geometry": {"coordinates": [-105.312898, 46.791676], "type": "Point"}, "id": "kDeLte_MR_2A0xH3gBbUcAF05Cg=", "properties": {"@spider": "usps_collection_boxes", "addr:city": "TERRY", "addr:country": "US", "addr:full": "303 LOGAN AVE", "addr:postcode": "59349", "addr:state": "MT", "amenity": "post_box", "brand": "United States Postal Service", "brand:wikidata": "Q668687", "collection_times": "Mo-Fr 16:00; Sa 10:00", "name": "USPS COLLECTION BOX - PO LOBBY", "note": "ON 12/24 AND 12/31, THIS BOX MAY BE COLLECTED AS EARLY AS 12 NOON.", "nsi_id": "unitedstatespostalservice-a77078", "operator": "United States Postal Service", "operator:short": "USPS", "operator:type": "public", "operator:wikidata": "Q668687", "ref": "5934900005"}, "type": "Feature"}
{"dataset_attributes": {"@spider": "usps_collection_boxes", "spider:collection_time": "2023-08-25T08:24:09.950024"}, "geometry": {"coordinates": [-105.681463, 45.843237], "type": "Point"}, "id": "XXGT8Xin7AMk6G1MqIfp4sksN_c=", "properties": {"@spider": "usps_collection_boxes", "addr:city": "VOLBORG", "addr:country": "US", "addr:full": "2708 HIGHWAY 59", "addr:postcode": "59351", "addr:state": "MT", "amenity": "post_box", "brand": "United States Postal Service", "brand:wikidata": "Q668687", "collection_times": "Mo-Fr 15:15; Sa 08:45", "name": "USPS COLLECTION BOX - BLUE BOX", "note": "ON 12/24 AND 12/31, THIS BOX MAY BE COLLECTED AS EARLY AS 12 NOON.", "nsi_id": "unitedstatespostalservice-a77078", "operator": "United States Postal Service", "operator:short": "USPS", "operator:type": "public", "operator:wikidata": "Q668687", "ref": "5935100000"}, "type": "Feature"}
{"dataset_attributes": {"@spider": "usps_collection_boxes", "spider:collection_time": "2023-08-25T08:24:09.950024"}, "geometry": {"coordinates": [-105.550829, 45.612056], "type": "Point"}, "id": "3cyLKH8_fToR-XFfL837S2M-Ztc=", "properties": {"@spider": "usps_collection_boxes", "addr:city": "VOLBORG", "addr:country": "US", "addr:full": "2708 HIGHWAY 59", "addr:postcode": "59351", "addr:state": "MT", "amenity": "post_box", "brand": "United States Postal Service", "brand:wikidata": "Q668687", "collection_times": "Mo-Fr 13:30; Sa 08:45", "name": "USPS COLLECTION BOX - PO LOBBY", "note": "ON 12/24 AND 12/31, THIS BOX MAY BE COLLECTED AS EARLY AS 12 NOON.", "nsi_id": "unitedstatespostalservice-a77078", "operator": "United States Postal Service", "operator:short": "USPS", "operator:type": "public", "operator:wikidata": "Q668687", "ref": "5935100001"}, "type": "Feature"}
{"dataset_attributes": {"@spider": "usps_collection_boxes", "spider:collection_time": "2023-08-25T08:24:09.950024"}, "geometry": {"coordinates": [-104.188124, 46.985845], "type": "Point"}, "id": "ucfLW7zru1kB0D_NqLxAHcLO11o=", "properties": {"@spider": "usps_collection_boxes", "addr:city": "WIBAUX", "addr:country": "US", "addr:full": "211 WIBAUX ST S", "addr:postcode": "59353", "addr:state": "MT", "amenity": "post_box", "brand": "United States Postal Service", "brand:wikidata": "Q668687", "collection_times": "Mo-Fr 14:45; Sa 10:10", "name": "USPS COLLECTION BOX - PO LOBBY", "note": "ON 12/24 AND 12/31, THIS BOX MAY BE COLLECTED AS EARLY AS 12 NOON.", "nsi_id": "unitedstatespostalservice-a77078", "operator": "United States Postal Service", "operator:short": "USPS", "operator:type": "public", "operator:wikidata": "Q668687", "ref": "5935300000"}, "type": "Feature"}
{"dataset_attributes": {"@spider": "usps_collection_boxes", "spider:collection_time": "2023-08-25T08:24:09.950024"}, "geometry": {"coordinates": [-104.188063, 46.985909], "type": "Point"}, "id": "kjkmUXUOsFkRyQW6_I-fNEA5Ti8=", "properties": {"@spider": "usps_collection_boxes", "addr:city": "WIBAUX", "addr:country": "US", "addr:full": "211 WIBAUX ST S", "addr:postcode": "59353", "addr:state": "MT", "amenity": "post_box", "brand": "United States Postal Service", "brand:wikidata": "Q668687", "collection_times": "Mo-Fr 14:45; Sa 10:10", "name": "USPS COLLECTION BOX - PO LOBBY", "note": "ON 12/24 AND 12/31, THIS BOX MAY BE COLLECTED AS EARLY AS 12 NOON.", "nsi_id": "unitedstatespostalservice-a77078", "operator": "United States Postal Service", "operator:short": "USPS", "operator:type": "public", "operator:wikidata": "Q668687", "ref": "5935300001"}, "type": "Feature"}
{"dataset_attributes": {"@spider": "usps_collection_boxes", "spider:collection_time": "2023-08-25T08:24:09.950024"}, "geometry": {"coordinates": [-104.188063, 46.985909], "type": "Point"}, "id": "3aXf0WWNoxEL513xa2WTDEyWcQQ=", "properties": {"@spider": "usps_collection_boxes", "addr:city": "WIBAUX", "addr:country": "US", "addr:full": "211 WIBAUX ST S", "addr:postcode": "59353", "addr:state": "MT", "amenity": "post_box", "brand": "United States Postal Service", "brand:wikidata": "Q668687", "collection_times": "Mo-Fr 14:45; Sa 10:10", "name": "USPS COLLECTION BOX - PO LOBBY", "note": "ON 12/24 AND 12/31, THIS BOX MAY BE COLLECTED AS EARLY AS 12 NOON.", "nsi_id": "unitedstatespostalservice-a77078", "operator": "United States Postal Service", "operator:short": "USPS", "operator:type": "public", "operator:wikidata": "Q668687", "ref": "5935300002"}, "type": "Feature"}
{"dataset_attributes": {"@spider": "usps_collection_boxes", "spider:collection_time": "2023-08-25T08:24:09.950024"}, "geometry": {"coordinates": [-104.188063, 46.985909], "type": "Point"}, "id": "H08Ven0O-_h8lAZ0EOzn7obgKTE=", "properties": {"@spider": "usps_collection_boxes", "addr:city": "WIBAUX", "addr:country": "US", "addr:full": "211 WIBAUX ST S", "addr:postcode": "59353", "addr:state": "MT", "amenity": "post_box", "brand": "United States Postal Service", "brand:wikidata": "Q668687", "collection_times": "Mo-Fr 14:45; Sa 10:10", "name": "USPS COLLECTION BOX - PO LOBBY", "note": "ON 12/24 AND 12/31, THIS BOX MAY BE COLLECTED AS EARLY AS 12 NOON.", "nsi_id": "unitedstatespostalservice-a77078", "operator": "United States Postal Service", "operator:short": "USPS", "operator:type": "public", "operator:wikidata": "Q668687", "ref": "5935300003"}, "type": "Feature"}
