{"geometry": {"coordinates": [-113.435688, 48.866872], "type": "Point"}, "id": "xoYpy9j8KEw94JHJzwrDfvLks_o=", "properties": {"@spider": "usps_collection_boxes", "addr:city": "BABB", "addr:country": "US", "addr:full": "4016 US HIGHWAY 89", "addr:postcode": "59411", "addr:state": "MT", "brand": "USPS", "collection_times": "Mo-Fr 13:00", "name": "USPS COLLECTION BOX - BLUE BOX", "note": "ON 12/24 AND 12/31, THIS BOX MAY BE COLLECTED AS EARLY AS 12 NOON.", "ref": "5941100001"}, "type": "Feature"}
{"geometry": {"coordinates": [-113.435734, 48.866814], "type": "Point"}, "id": "zQ21FcblDSyg-_FB1ntBwwDE6fI=", "properties": {"@spider": "usps_collection_boxes", "addr:city": "BABB", "addr:country": "US", "addr:full": "4016 US HIGHWAY 89", "addr:postcode": "59411", "addr:state": "MT", "brand": "USPS", "collection_times": "Mo-Fr 13:00", "name": "USPS COLLECTION BOX - PO LOBBY", "note": "ON 12/24 AND 12/31, THIS BOX MAY BE COLLECTED AS EARLY AS 12 NOON.", "ref": "5941100002"}, "type": "Feature"}
{"geometry": {"coordinates": [-113.435734, 48.866814], "type": "Point"}, "id": "ClIWhQikEcBggFEceqRuUwtwO9M=", "properties": {"@spider": "usps_collection_boxes", "addr:city": "BABB", "addr:country": "US", "addr:full": "4016 US HIGHWAY 89", "addr:postcode": "59411", "addr:state": "MT", "brand": "USPS", "collection_times": "Mo-Fr 13:00", "name": "USPS COLLECTION BOX - PO LOBBY", "note": "ON 12/24 AND 12/31, THIS BOX MAY BE COLLECTED AS EARLY AS 12 NOON.", "ref": "5941100003"}, "type": "Feature"}
{"geometry": {"coordinates": [-113.436352834, 48.860014558], "type": "Point"}, "id": "h61ClElwtBHZ2BB0BOQSHaJWEQ8=", "properties": {"@spider": "usps_collection_boxes", "addr:city": "BABB", "addr:country": "US", "addr:full": "4016 US HIGHWAY 89", "addr:postcode": "59411", "addr:state": "MT", "brand": "USPS", "collection_times": "Mo-Fr 12:50", "name": "USPS COLLECTION BOX - PO LOBBY", "note": "ON 12/24 AND 12/31, THIS BOX MAY BE COLLECTED AS EARLY AS 12 NOON.", "ref": "5941100004"}, "type": "Feature"}
