{"dataset_attributes": {"@spider": "usps_collection_boxes", "spider:collection_time": "2023-11-13T08:26:09.210319"}, "geometry": {"coordinates": [-109.671124, 48.55262], "type": "Point"}, "id": "UbzIOEqxGmUm68CJrpnYu8gm5is=", "properties": {"@spider": "usps_collection_boxes", "addr:city": "HAVRE", "addr:country": "US", "addr:full": "730 1ST ST", "addr:postcode": "59501", "addr:state": "MT", "amenity": "post_box", "brand": "United States Postal Service", "brand:wikidata": "Q668687", "collection_times": "Mo-Sa 15:00", "name": "USPS COLLECTION BOX - BLUE BOX", "note": "ON 12/24 AND 12/31, THIS BOX MAY BE COLLECTED AS EARLY AS 12 NOON.", "nsi_id": "unitedstatespostalservice-a77078", "operator": "United States Postal Service", "operator:short": "USPS", "operator:type": "public", "operator:wikidata": "Q668687", "ref": "5950100004"}, "type": "Feature"}
{"dataset_attributes": {"@spider": "usps_collection_boxes", "spider:collection_time": "2023-11-13T08:26:09.210319"}, "geometry": {"coordinates": [-109.681825, 48.5518], "type": "Point"}, "id": "_DougJpWYWqym6lvvzBjrY9G7dA=", "properties": {"@spider": "usps_collection_boxes", "addr:city": "HAVRE", "addr:country": "US", "addr:full": "115 3RD ST", "addr:postcode": "59501", "addr:state": "MT", "amenity": "post_box", "brand": "United States Postal Service", "brand:wikidata": "Q668687", "collection_times": "Mo-Fr 17:45; Sa 16:45", "name": "USPS COLLECTION BOX - BLUE BOX", "note": "ON 12/24 AND 12/31, THIS BOX MAY BE COLLECTED AS EARLY AS 12 NOON.", "nsi_id": "unitedstatespostalservice-a77078", "operator": "United States Postal Service", "operator:short": "USPS", "operator:type": "public", "operator:wikidata": "Q668687", "ref": "5950100014"}, "type": "Feature"}
{"dataset_attributes": {"@spider": "usps_collection_boxes", "spider:collection_time": "2023-11-13T08:26:09.210319"}, "geometry": {"coordinates": [-109.6817, 48.551762], "type": "Point"}, "id": "TVWib41rO38uhVdk-QEtInCo8k4=", "properties": {"@spider": "usps_collection_boxes", "addr:city": "HAVRE", "addr:country": "US", "addr:full": "115 3RD ST", "addr:postcode": "59501", "addr:state": "MT", "amenity": "post_box", "brand": "United States Postal Service", "brand:wikidata": "Q668687", "collection_times": "Mo-Fr 17:45; Sa 16:45", "name": "USPS COLLECTION BOX - BLUE BOX", "note": "ON 12/24 AND 12/31, THIS BOX MAY BE COLLECTED AS EARLY AS 12 NOON.", "nsi_id": "unitedstatespostalservice-a77078", "operator": "United States Postal Service", "operator:short": "USPS", "operator:type": "public", "operator:wikidata": "Q668687", "ref": "5950100015"}, "type": "Feature"}
{"dataset_attributes": {"@spider": "usps_collection_boxes", "spider:collection_time": "2023-11-13T08:26:09.210319"}, "geometry": {"coordinates": [-109.6817, 48.551762], "type": "Point"}, "id": "VM5-YRqF_8RoSmrM7JFheSx2gSU=", "properties": {"@spider": "usps_collection_boxes", "addr:city": "HAVRE", "addr:country": "US", "addr:full": "115 3RD ST", "addr:postcode": "59501", "addr:state": "MT", "amenity": "post_box", "brand": "United States Postal Service", "brand:wikidata": "Q668687", "collection_times": "Mo-Fr 17:45; Sa 16:45", "name": "USPS COLLECTION BOX - PO LOBBY", "note": "ON 12/24 AND 12/31, THIS BOX MAY BE COLLECTED AS EARLY AS 12 NOON.", "nsi_id": "unitedstatespostalservice-a77078", "operator": "United States Postal Service", "operator:short": "USPS", "operator:type": "public", "operator:wikidata": "Q668687", "ref": "5950100017"}, "type": "Feature"}
{"dataset_attributes": {"@spider": "usps_collection_boxes", "spider:collection_time": "2023-11-13T08:26:09.210319"}, "geometry": {"coordinates": [-109.6817, 48.551762], "type": "Point"}, "id": "tas9es3y-0jVyiN4P1e0Zj_U8hU=", "properties": {"@spider": "usps_collection_boxes", "addr:city": "HAVRE", "addr:country": "US", "addr:full": "115 3RD ST", "addr:postcode": "59501", "addr:state": "MT", "amenity": "post_box", "brand": "United States Postal Service", "brand:wikidata": "Q668687", "collection_times": "Mo-Fr 17:45; Sa 16:45", "name": "USPS COLLECTION BOX - PO LOBBY", "note": "ON 12/24 AND 12/31, THIS BOX MAY BE COLLECTED AS EARLY AS 12 NOON.", "nsi_id": "unitedstatespostalservice-a77078", "operator": "United States Postal Service", "operator:short": "USPS", "operator:type": "public", "operator:wikidata": "Q668687", "ref": "5950100018"}, "type": "Feature"}
{"dataset_attributes": {"@spider": "usps_collection_boxes", "spider:collection_time": "2023-11-13T08:26:09.210319"}, "geometry": {"coordinates": [-109.6813784015, 48.5518260939], "type": "Point"}, "id": "KGUG91QnnGV_LXLAG7rBaajp4PU=", "properties": {"@spider": "usps_collection_boxes", "addr:city": "HAVRE", "addr:country": "US", "addr:full": "115 3RD ST", "addr:postcode": "59501", "addr:state": "MT", "amenity": "post_box", "brand": "United States Postal Service", "brand:wikidata": "Q668687", "collection_times": "Mo-Fr 17:00; Sa 12:00", "name": "USPS COLLECTION BOX - PO LOBBY", "note": "ON 12/24 AND 12/31, THIS BOX MAY BE COLLECTED AS EARLY AS 12 NOON.", "nsi_id": "unitedstatespostalservice-a77078", "operator": "United States Postal Service", "operator:short": "USPS", "operator:type": "public", "operator:wikidata": "Q668687", "ref": "5950100025"}, "type": "Feature"}
{"dataset_attributes": {"@spider": "usps_collection_boxes", "spider:collection_time": "2023-11-13T08:26:09.210319"}, "geometry": {"coordinates": [-110.110884, 48.177982], "type": "Point"}, "id": "MfrRKBSZFdRzHBwfZXYVIVgV6Sg=", "properties": {"@spider": "usps_collection_boxes", "addr:city": "BIG SANDY", "addr:country": "US", "addr:full": "103 JOHANNES AVE", "addr:postcode": "59520", "addr:state": "MT", "amenity": "post_box", "brand": "United States Postal Service", "brand:wikidata": "Q668687", "collection_times": "Mo-Fr 16:45; Sa 10:30", "name": "USPS COLLECTION BOX - PO LOBBY", "note": "ON 12/24 AND 12/31, THIS BOX MAY BE COLLECTED AS EARLY AS 12 NOON.", "nsi_id": "unitedstatespostalservice-a77078", "operator": "United States Postal Service", "operator:short": "USPS", "operator:type": "public", "operator:wikidata": "Q668687", "ref": "5952000000"}, "type": "Feature"}
{"dataset_attributes": {"@spider": "usps_collection_boxes", "spider:collection_time": "2023-11-13T08:26:09.210319"}, "geometry": {"coordinates": [-110.111006, 48.178022], "type": "Point"}, "id": "0N2Hbvzd-U7sg1eBnzr7AENnMA4=", "properties": {"@spider": "usps_collection_boxes", "addr:city": "BIG SANDY", "addr:country": "US", "addr:full": "103 JOHANNES AVE", "addr:postcode": "59520", "addr:state": "MT", "amenity": "post_box", "brand": "United States Postal Service", "brand:wikidata": "Q668687", "collection_times": "Mo-Fr 16:45; Sa 10:30", "name": "USPS COLLECTION BOX - PO LOBBY", "note": "ON 12/24 AND 12/31, THIS BOX MAY BE COLLECTED AS EARLY AS 12 NOON.", "nsi_id": "unitedstatespostalservice-a77078", "operator": "United States Postal Service", "operator:short": "USPS", "operator:type": "public", "operator:wikidata": "Q668687", "ref": "5952000001"}, "type": "Feature"}
{"dataset_attributes": {"@spider": "usps_collection_boxes", "spider:collection_time": "2023-11-13T08:26:09.210319"}, "geometry": {"coordinates": [-110.110976917, 48.178040343], "type": "Point"}, "id": "OOJsbAnKlfw73UnTiETHpOqIRX4=", "properties": {"@spider": "usps_collection_boxes", "addr:city": "BIG SANDY", "addr:country": "US", "addr:full": "103 JOHANNES AVE", "addr:postcode": "59520", "addr:state": "MT", "amenity": "post_box", "brand": "United States Postal Service", "brand:wikidata": "Q668687", "collection_times": "Mo-Fr 16:45; Sa 10:20", "name": "USPS COLLECTION BOX - PO LOBBY", "note": "ON 12/24 AND 12/31, THIS BOX MAY BE COLLECTED AS EARLY AS 12 NOON.", "nsi_id": "unitedstatespostalservice-a77078", "operator": "United States Postal Service", "operator:short": "USPS", "operator:type": "public", "operator:wikidata": "Q668687", "ref": "5952000002"}, "type": "Feature"}
{"dataset_attributes": {"@spider": "usps_collection_boxes", "spider:collection_time": "2023-11-13T08:26:09.210319"}, "geometry": {"coordinates": [-110.015329, 48.317082], "type": "Point"}, "id": "wC9-HpeP_2TKvJbpQ_2WPDloxYk=", "properties": {"@spider": "usps_collection_boxes", "addr:city": "BOX ELDER", "addr:country": "US", "addr:full": "40 1ST AVE SW", "addr:postcode": "59521", "addr:state": "MT", "amenity": "post_box", "brand": "United States Postal Service", "brand:wikidata": "Q668687", "collection_times": "Mo-Fr 16:15; Sa 10:00", "name": "USPS COLLECTION BOX - BLUE BOX", "note": "ON 12/24 AND 12/31, THIS BOX MAY BE COLLECTED AS EARLY AS 12 NOON.", "nsi_id": "unitedstatespostalservice-a77078", "operator": "United States Postal Service", "operator:short": "USPS", "operator:type": "public", "operator:wikidata": "Q668687", "ref": "5952100000"}, "type": "Feature"}
{"dataset_attributes": {"@spider": "usps_collection_boxes", "spider:collection_time": "2023-11-13T08:26:09.210319"}, "geometry": {"coordinates": [-110.015283, 48.31707], "type": "Point"}, "id": "3NDWe9vwDCzIE2SjAfNXnMWFYuc=", "properties": {"@spider": "usps_collection_boxes", "addr:city": "BOX ELDER", "addr:country": "US", "addr:full": "40 1ST AVE SW", "addr:postcode": "59521", "addr:state": "MT", "amenity": "post_box", "brand": "United States Postal Service", "brand:wikidata": "Q668687", "collection_times": "Mo-Fr 15:00; Sa 10:00", "name": "USPS COLLECTION BOX - PO LOBBY", "note": "ON 12/24 AND 12/31, THIS BOX MAY BE COLLECTED AS EARLY AS 12 NOON.", "nsi_id": "unitedstatespostalservice-a77078", "operator": "United States Postal Service", "operator:short": "USPS", "operator:type": "public", "operator:wikidata": "Q668687", "ref": "5952100002"}, "type": "Feature"}
{"dataset_attributes": {"@spider": "usps_collection_boxes", "spider:collection_time": "2023-11-13T08:26:09.210319"}, "geometry": {"coordinates": [-110.015283, 48.31707], "type": "Point"}, "id": "zDfhfjq4sRp9TW-Mbe3naLc3614=", "properties": {"@spider": "usps_collection_boxes", "addr:city": "BOX ELDER", "addr:country": "US", "addr:full": "40 1ST AVE SW", "addr:postcode": "59521", "addr:state": "MT", "amenity": "post_box", "brand": "United States Postal Service", "brand:wikidata": "Q668687", "collection_times": "Mo-Fr 15:00; Sa 10:00", "name": "USPS COLLECTION BOX - PO LOBBY", "note": "ON 12/24 AND 12/31, THIS BOX MAY BE COLLECTED AS EARLY AS 12 NOON.", "nsi_id": "unitedstatespostalservice-a77078", "operator": "United States Postal Service", "operator:short": "USPS", "operator:type": "public", "operator:wikidata": "Q668687", "ref": "5952100003"}, "type": "Feature"}
{"dataset_attributes": {"@spider": "usps_collection_boxes", "spider:collection_time": "2023-11-13T08:26:09.210319"}, "geometry": {"coordinates": [-110.0149411, 48.317401026], "type": "Point"}, "id": "e6TK6Z37eUZzqcI2_pcsd-2Psms=", "properties": {"@spider": "usps_collection_boxes", "addr:city": "BOX ELDER", "addr:country": "US", "addr:full": "40 1ST AVE SW", "addr:postcode": "59521", "addr:state": "MT", "amenity": "post_box", "brand": "United States Postal Service", "brand:wikidata": "Q668687", "collection_times": "Mo-Fr 14:50; Sa 09:50", "name": "USPS COLLECTION BOX - PO LOBBY", "note": "ON 12/24 AND 12/31, THIS BOX MAY BE COLLECTED AS EARLY AS 12 NOON.", "nsi_id": "unitedstatespostalservice-a77078", "operator": "United States Postal Service", "operator:short": "USPS", "operator:type": "public", "operator:wikidata": "Q668687", "ref": "5952100004"}, "type": "Feature"}
{"dataset_attributes": {"@spider": "usps_collection_boxes", "spider:collection_time": "2023-11-13T08:26:09.210319"}, "geometry": {"coordinates": [-110.966134, 48.513349], "type": "Point"}, "id": "yN3Ora2YKrAdSLIirsthN0XBm54=", "properties": {"@spider": "usps_collection_boxes", "addr:city": "CHESTER", "addr:country": "US", "addr:full": "25 MAIN ST", "addr:postcode": "59522", "addr:state": "MT", "amenity": "post_box", "brand": "United States Postal Service", "brand:wikidata": "Q668687", "collection_times": "Mo-Fr 16:30; Sa 10:30", "name": "USPS COLLECTION BOX - PO LOBBY", "note": "ON 12/24 AND 12/31, THIS BOX MAY BE COLLECTED AS EARLY AS 12 NOON.", "nsi_id": "unitedstatespostalservice-a77078", "operator": "United States Postal Service", "operator:short": "USPS", "operator:type": "public", "operator:wikidata": "Q668687", "ref": "5952200000"}, "type": "Feature"}
{"dataset_attributes": {"@spider": "usps_collection_boxes", "spider:collection_time": "2023-11-13T08:26:09.210319"}, "geometry": {"coordinates": [-110.966134, 48.513349], "type": "Point"}, "id": "ARomqJHaeCHwi5W-edS0pobtcIA=", "properties": {"@spider": "usps_collection_boxes", "addr:city": "CHESTER", "addr:country": "US", "addr:full": "25 MAIN ST", "addr:postcode": "59522", "addr:state": "MT", "amenity": "post_box", "brand": "United States Postal Service", "brand:wikidata": "Q668687", "collection_times": "Mo-Fr 16:30; Sa 10:30", "name": "USPS COLLECTION BOX - PO LOBBY", "note": "ON 12/24 AND 12/31, THIS BOX MAY BE COLLECTED AS EARLY AS 12 NOON.", "nsi_id": "unitedstatespostalservice-a77078", "operator": "United States Postal Service", "operator:short": "USPS", "operator:type": "public", "operator:wikidata": "Q668687", "ref": "5952200001"}, "type": "Feature"}
{"dataset_attributes": {"@spider": "usps_collection_boxes", "spider:collection_time": "2023-11-13T08:26:09.210319"}, "geometry": {"coordinates": [-110.96614212, 48.513334686], "type": "Point"}, "id": "JL6X-F9Gb_r-oytYXpUyI4lrEs4=", "properties": {"@spider": "usps_collection_boxes", "addr:city": "CHESTER", "addr:country": "US", "addr:full": "25 MAIN ST", "addr:postcode": "59522", "addr:state": "MT", "amenity": "post_box", "brand": "United States Postal Service", "brand:wikidata": "Q668687", "collection_times": "Mo-Fr 16:15", "name": "USPS COLLECTION BOX - PO LOBBY", "note": "ON 12/24 AND 12/31, THIS BOX MAY BE COLLECTED AS EARLY AS 12 NOON.", "nsi_id": "unitedstatespostalservice-a77078", "operator": "United States Postal Service", "operator:short": "USPS", "operator:type": "public", "operator:wikidata": "Q668687", "ref": "5952200003"}, "type": "Feature"}
{"dataset_attributes": {"@spider": "usps_collection_boxes", "spider:collection_time": "2023-11-13T08:26:09.210319"}, "geometry": {"coordinates": [-109.230989, 48.592833], "type": "Point"}, "id": "fPM1riW1NzVJnc_JtK2YLsJi1QI=", "properties": {"@spider": "usps_collection_boxes", "addr:city": "CHINOOK", "addr:country": "US", "addr:full": "113 3RD ST W", "addr:postcode": "59523", "addr:state": "MT", "amenity": "post_box", "brand": "United States Postal Service", "brand:wikidata": "Q668687", "collection_times": "Mo-Fr 16:30; Sa 11:30", "name": "USPS COLLECTION BOX - BLUE BOX", "note": "ON 12/24 AND 12/31, THIS BOX MAY BE COLLECTED AS EARLY AS 12 NOON.", "nsi_id": "unitedstatespostalservice-a77078", "operator": "United States Postal Service", "operator:short": "USPS", "operator:type": "public", "operator:wikidata": "Q668687", "ref": "5952300000"}, "type": "Feature"}
{"dataset_attributes": {"@spider": "usps_collection_boxes", "spider:collection_time": "2023-11-13T08:26:09.210319"}, "geometry": {"coordinates": [-109.230882, 48.592852], "type": "Point"}, "id": "SW6u4Ap9VoCZwNzFe2Nc_p-76vQ=", "properties": {"@spider": "usps_collection_boxes", "addr:city": "CHINOOK", "addr:country": "US", "addr:full": "113 3RD ST W", "addr:postcode": "59523", "addr:state": "MT", "amenity": "post_box", "brand": "United States Postal Service", "brand:wikidata": "Q668687", "collection_times": "Mo-Fr 16:30; Sa 11:30", "name": "USPS COLLECTION BOX - PO LOBBY", "note": "ON 12/24 AND 12/31, THIS BOX MAY BE COLLECTED AS EARLY AS 12 NOON.", "nsi_id": "unitedstatespostalservice-a77078", "operator": "United States Postal Service", "operator:short": "USPS", "operator:type": "public", "operator:wikidata": "Q668687", "ref": "5952300001"}, "type": "Feature"}
{"dataset_attributes": {"@spider": "usps_collection_boxes", "spider:collection_time": "2023-11-13T08:26:09.210319"}, "geometry": {"coordinates": [-109.230882, 48.592852], "type": "Point"}, "id": "oytcViMBLvFSppTgxQTMRzZkdug=", "properties": {"@spider": "usps_collection_boxes", "addr:city": "CHINOOK", "addr:country": "US", "addr:full": "113 3RD ST W", "addr:postcode": "59523", "addr:state": "MT", "amenity": "post_box", "brand": "United States Postal Service", "brand:wikidata": "Q668687", "collection_times": "Mo-Fr 16:30; Sa 11:30", "name": "USPS COLLECTION BOX - PO LOBBY", "note": "ON 12/24 AND 12/31, THIS BOX MAY BE COLLECTED AS EARLY AS 12 NOON.", "nsi_id": "unitedstatespostalservice-a77078", "operator": "United States Postal Service", "operator:short": "USPS", "operator:type": "public", "operator:wikidata": "Q668687", "ref": "5952300003"}, "type": "Feature"}
{"dataset_attributes": {"@spider": "usps_collection_boxes", "spider:collection_time": "2023-11-13T08:26:09.210319"}, "geometry": {"coordinates": [-109.231813304, 48.592937579], "type": "Point"}, "id": "Ns6h9Ovi1HOoHupDPoWgwHMkFho=", "properties": {"@spider": "usps_collection_boxes", "addr:city": "CHINOOK", "addr:country": "US", "addr:full": "113 3RD ST W", "addr:postcode": "59523", "addr:state": "MT", "amenity": "post_box", "brand": "United States Postal Service", "brand:wikidata": "Q668687", "collection_times": "Mo-Fr 16:30", "name": "USPS COLLECTION BOX - PO LOBBY", "note": "ON 12/24 AND 12/31, THIS BOX MAY BE COLLECTED AS EARLY AS 12 NOON.", "nsi_id": "unitedstatespostalservice-a77078", "operator": "United States Postal Service", "operator:short": "USPS", "operator:type": "public", "operator:wikidata": "Q668687", "ref": "5952300005"}, "type": "Feature"}
{"dataset_attributes": {"@spider": "usps_collection_boxes", "spider:collection_time": "2023-11-13T08:26:09.210319"}, "geometry": {"coordinates": [-108.244683, 48.394714], "type": "Point"}, "id": "2C-5PuuDA1f-Ft9D-AJd-NxrBW0=", "properties": {"@spider": "usps_collection_boxes", "addr:city": "DODSON", "addr:country": "US", "addr:full": "300 BARRETT AVE", "addr:postcode": "59524", "addr:state": "MT", "amenity": "post_box", "brand": "United States Postal Service", "brand:wikidata": "Q668687", "collection_times": "Mo-Fr 14:30; Sa 09:45", "name": "USPS COLLECTION BOX - PO LOBBY", "note": "ON 12/24 AND 12/31, THIS BOX MAY BE COLLECTED AS EARLY AS 12 NOON.", "nsi_id": "unitedstatespostalservice-a77078", "operator": "United States Postal Service", "operator:short": "USPS", "operator:type": "public", "operator:wikidata": "Q668687", "ref": "5952400000"}, "type": "Feature"}
{"dataset_attributes": {"@spider": "usps_collection_boxes", "spider:collection_time": "2023-11-13T08:26:09.210319"}, "geometry": {"coordinates": [-108.24468, 48.394807], "type": "Point"}, "id": "BTuev_UyBUwVdG5q5o5jL-n7XEo=", "properties": {"@spider": "usps_collection_boxes", "addr:city": "DODSON", "addr:country": "US", "addr:full": "300 BARRETT AVE", "addr:postcode": "59524", "addr:state": "MT", "amenity": "post_box", "brand": "United States Postal Service", "brand:wikidata": "Q668687", "collection_times": "Mo-Fr 14:30; Sa 09:45", "name": "USPS COLLECTION BOX - PO LOBBY", "note": "ON 12/24 AND 12/31, THIS BOX MAY BE COLLECTED AS EARLY AS 12 NOON.", "nsi_id": "unitedstatespostalservice-a77078", "operator": "United States Postal Service", "operator:short": "USPS", "operator:type": "public", "operator:wikidata": "Q668687", "ref": "5952400001"}, "type": "Feature"}
{"dataset_attributes": {"@spider": "usps_collection_boxes", "spider:collection_time": "2023-11-13T08:26:09.210319"}, "geometry": {"coordinates": [-108.244655405, 48.394718726], "type": "Point"}, "id": "F99tNu3RniPwU5AWASpvaONeoyA=", "properties": {"@spider": "usps_collection_boxes", "addr:city": "DODSON", "addr:country": "US", "addr:full": "300 BARRETT AVE", "addr:postcode": "59524", "addr:state": "MT", "amenity": "post_box", "brand": "United States Postal Service", "brand:wikidata": "Q668687", "collection_times": "Mo-Fr 14:30; Sa 09:45", "name": "USPS COLLECTION BOX - PO LOBBY", "note": "ON 12/24 AND 12/31, THIS BOX MAY BE COLLECTED AS EARLY AS 12 NOON.", "nsi_id": "unitedstatespostalservice-a77078", "operator": "United States Postal Service", "operator:short": "USPS", "operator:type": "public", "operator:wikidata": "Q668687", "ref": "5952400003"}, "type": "Feature"}
{"dataset_attributes": {"@spider": "usps_collection_boxes", "spider:collection_time": "2023-11-13T08:26:09.210319"}, "geometry": {"coordinates": [-110.302719, 48.569031], "type": "Point"}, "id": "OER6BbcxHg6cgPmQ42nL5BYU8W4=", "properties": {"@spider": "usps_collection_boxes", "addr:city": "GILDFORD", "addr:country": "US", "addr:full": "525 1ST AVE", "addr:postcode": "59525", "addr:state": "MT", "amenity": "post_box", "brand": "United States Postal Service", "brand:wikidata": "Q668687", "collection_times": "Mo-Fr 14:00; Sa 09:15", "name": "USPS COLLECTION BOX - PO LOBBY", "note": "ON 12/24 AND 12/31, THIS BOX MAY BE COLLECTED AS EARLY AS 12 NOON.", "nsi_id": "unitedstatespostalservice-a77078", "operator": "United States Postal Service", "operator:short": "USPS", "operator:type": "public", "operator:wikidata": "Q668687", "ref": "5952500000"}, "type": "Feature"}
{"dataset_attributes": {"@spider": "usps_collection_boxes", "spider:collection_time": "2023-11-13T08:26:09.210319"}, "geometry": {"coordinates": [-110.302759, 48.569092], "type": "Point"}, "id": "-sjotmRfNRuuyhXOoa-E1upihlQ=", "properties": {"@spider": "usps_collection_boxes", "addr:city": "GILDFORD", "addr:country": "US", "addr:full": "525 1ST AVE", "addr:postcode": "59525", "addr:state": "MT", "amenity": "post_box", "brand": "United States Postal Service", "brand:wikidata": "Q668687", "collection_times": "Mo-Fr 14:00; Sa 09:15", "name": "USPS COLLECTION BOX - PO LOBBY", "note": "ON 12/24 AND 12/31, THIS BOX MAY BE COLLECTED AS EARLY AS 12 NOON.", "nsi_id": "unitedstatespostalservice-a77078", "operator": "United States Postal Service", "operator:short": "USPS", "operator:type": "public", "operator:wikidata": "Q668687", "ref": "5952500001"}, "type": "Feature"}
{"dataset_attributes": {"@spider": "usps_collection_boxes", "spider:collection_time": "2023-11-13T08:26:09.210319"}, "geometry": {"coordinates": [-110.302759, 48.569092], "type": "Point"}, "id": "MVXRTWyU5BvQicUWzoKoo-IrzzI=", "properties": {"@spider": "usps_collection_boxes", "addr:city": "GILDFORD", "addr:country": "US", "addr:full": "525 1ST AVE", "addr:postcode": "59525", "addr:state": "MT", "amenity": "post_box", "brand": "United States Postal Service", "brand:wikidata": "Q668687", "collection_times": "Mo-Fr 14:00; Sa 09:15", "name": "USPS COLLECTION BOX - PO LOBBY", "note": "ON 12/24 AND 12/31, THIS BOX MAY BE COLLECTED AS EARLY AS 12 NOON.", "nsi_id": "unitedstatespostalservice-a77078", "operator": "United States Postal Service", "operator:short": "USPS", "operator:type": "public", "operator:wikidata": "Q668687", "ref": "5952500002"}, "type": "Feature"}
{"dataset_attributes": {"@spider": "usps_collection_boxes", "spider:collection_time": "2023-11-13T08:26:09.210319"}, "geometry": {"coordinates": [-110.302759, 48.569092], "type": "Point"}, "id": "kbtUn0tTxzsqbgr1X77ehSxRHPE=", "properties": {"@spider": "usps_collection_boxes", "addr:city": "GILDFORD", "addr:country": "US", "addr:full": "525 1ST AVE", "addr:postcode": "59525", "addr:state": "MT", "amenity": "post_box", "brand": "United States Postal Service", "brand:wikidata": "Q668687", "collection_times": "Mo-Fr 14:00; Sa 09:15", "name": "USPS COLLECTION BOX - PO LOBBY", "note": "ON 12/24 AND 12/31, THIS BOX MAY BE COLLECTED AS EARLY AS 12 NOON.", "nsi_id": "unitedstatespostalservice-a77078", "operator": "United States Postal Service", "operator:short": "USPS", "operator:type": "public", "operator:wikidata": "Q668687", "ref": "5952500003"}, "type": "Feature"}
{"dataset_attributes": {"@spider": "usps_collection_boxes", "spider:collection_time": "2023-11-13T08:26:09.210319"}, "geometry": {"coordinates": [-110.30273, 48.568697], "type": "Point"}, "id": "hfM_RXUTxxCc8q4S4UTZcc74xQo=", "properties": {"@spider": "usps_collection_boxes", "addr:city": "GILDFORD", "addr:country": "US", "addr:full": "525 1ST AVE", "addr:postcode": "59525", "addr:state": "MT", "amenity": "post_box", "brand": "United States Postal Service", "brand:wikidata": "Q668687", "collection_times": "Mo-Fr 16:15; Sa 11:00", "name": "USPS COLLECTION BOX - BLUE BOX", "note": "ON 12/24 AND 12/31, THIS BOX MAY BE COLLECTED AS EARLY AS 12 NOON.", "nsi_id": "unitedstatespostalservice-a77078", "operator": "United States Postal Service", "operator:short": "USPS", "operator:type": "public", "operator:wikidata": "Q668687", "ref": "5952500005"}, "type": "Feature"}
{"dataset_attributes": {"@spider": "usps_collection_boxes", "spider:collection_time": "2023-11-13T08:26:09.210319"}, "geometry": {"coordinates": [-110.302779493, 48.568841497], "type": "Point"}, "id": "n7NblUlQrgxsotqvH87tW6iFpCQ=", "properties": {"@spider": "usps_collection_boxes", "addr:city": "GILDFORD", "addr:country": "US", "addr:full": "525 1ST AVE", "addr:postcode": "59525", "addr:state": "MT", "amenity": "post_box", "brand": "United States Postal Service", "brand:wikidata": "Q668687", "collection_times": "Mo-Fr 14:00; Sa 09:15", "name": "USPS COLLECTION BOX - PO LOBBY", "note": "ON 12/24 AND 12/31, THIS BOX MAY BE COLLECTED AS EARLY AS 12 NOON.", "nsi_id": "unitedstatespostalservice-a77078", "operator": "United States Postal Service", "operator:short": "USPS", "operator:type": "public", "operator:wikidata": "Q668687", "ref": "5952500006"}, "type": "Feature"}
{"dataset_attributes": {"@spider": "usps_collection_boxes", "spider:collection_time": "2023-11-13T08:26:09.210319"}, "geometry": {"coordinates": [-108.78845, 48.531937], "type": "Point"}, "id": "Hdc6T4I_GX6YeQs67x-CP614lTE=", "properties": {"@spider": "usps_collection_boxes", "addr:city": "HARLEM", "addr:country": "US", "addr:full": "216 2ND ST SW", "addr:postcode": "59526", "addr:state": "MT", "amenity": "post_box", "brand": "United States Postal Service", "brand:wikidata": "Q668687", "collection_times": "Mo-Fr 16:00; Sa 12:00", "name": "USPS COLLECTION BOX - BLUE BOX", "note": "ON 12/24 AND 12/31, THIS BOX MAY BE COLLECTED AS EARLY AS 12 NOON.", "nsi_id": "unitedstatespostalservice-a77078", "operator": "United States Postal Service", "operator:short": "USPS", "operator:type": "public", "operator:wikidata": "Q668687", "ref": "5952600002"}, "type": "Feature"}
{"dataset_attributes": {"@spider": "usps_collection_boxes", "spider:collection_time": "2023-11-13T08:26:09.210319"}, "geometry": {"coordinates": [-108.788379, 48.531984], "type": "Point"}, "id": "timp24BqHEDiqlMf7Hmnu4prfh8=", "properties": {"@spider": "usps_collection_boxes", "addr:city": "HARLEM", "addr:country": "US", "addr:full": "216 2ND ST SW", "addr:postcode": "59526", "addr:state": "MT", "amenity": "post_box", "brand": "United States Postal Service", "brand:wikidata": "Q668687", "collection_times": "Mo-Fr 16:00; Sa 12:00", "name": "USPS COLLECTION BOX - PO LOBBY", "note": "ON 12/24 AND 12/31, THIS BOX MAY BE COLLECTED AS EARLY AS 12 NOON.", "nsi_id": "unitedstatespostalservice-a77078", "operator": "United States Postal Service", "operator:short": "USPS", "operator:type": "public", "operator:wikidata": "Q668687", "ref": "5952600004"}, "type": "Feature"}
{"dataset_attributes": {"@spider": "usps_collection_boxes", "spider:collection_time": "2023-11-13T08:26:09.210319"}, "geometry": {"coordinates": [-108.788379, 48.531984], "type": "Point"}, "id": "XsfEEOngAXqXEjs5YIpjQbRLIs0=", "properties": {"@spider": "usps_collection_boxes", "addr:city": "HARLEM", "addr:country": "US", "addr:full": "216 2ND ST SW", "addr:postcode": "59526", "addr:state": "MT", "amenity": "post_box", "brand": "United States Postal Service", "brand:wikidata": "Q668687", "collection_times": "Mo-Fr 16:00; Sa 12:00", "name": "USPS COLLECTION BOX - PO LOBBY", "note": "ON 12/24 AND 12/31, THIS BOX MAY BE COLLECTED AS EARLY AS 12 NOON.", "nsi_id": "unitedstatespostalservice-a77078", "operator": "United States Postal Service", "operator:short": "USPS", "operator:type": "public", "operator:wikidata": "Q668687", "ref": "5952600005"}, "type": "Feature"}
{"dataset_attributes": {"@spider": "usps_collection_boxes", "spider:collection_time": "2023-11-13T08:26:09.210319"}, "geometry": {"coordinates": [-108.78847446, 48.531999228], "type": "Point"}, "id": "voLfZNrzDHOWMK696TDXavfY95A=", "properties": {"@spider": "usps_collection_boxes", "addr:city": "HARLEM", "addr:country": "US", "addr:full": "216 2ND ST SW", "addr:postcode": "59526", "addr:state": "MT", "amenity": "post_box", "brand": "United States Postal Service", "brand:wikidata": "Q668687", "collection_times": "Mo-Fr 16:30", "name": "USPS COLLECTION BOX - PO LOBBY", "note": "ON 12/24 AND 12/31, THIS BOX MAY BE COLLECTED AS EARLY AS 12 NOON.", "nsi_id": "unitedstatespostalservice-a77078", "operator": "United States Postal Service", "operator:short": "USPS", "operator:type": "public", "operator:wikidata": "Q668687", "ref": "5952600008"}, "type": "Feature"}
{"dataset_attributes": {"@spider": "usps_collection_boxes", "spider:collection_time": "2023-11-13T08:26:09.210319"}, "geometry": {"coordinates": [-108.688402, 47.988576], "type": "Point"}, "id": "HjsvATdjldONlKkbDqJrS8usaeI=", "properties": {"@spider": "usps_collection_boxes", "addr:city": "HAYS", "addr:country": "US", "addr:full": "260 STEVENS ST", "addr:postcode": "59527", "addr:state": "MT", "amenity": "post_box", "brand": "United States Postal Service", "brand:wikidata": "Q668687", "collection_times": "Mo-Sa 13:00", "name": "USPS COLLECTION BOX - PO LOBBY", "note": "ON 12/24 AND 12/31, THIS BOX MAY BE COLLECTED AS EARLY AS 12 NOON.", "nsi_id": "unitedstatespostalservice-a77078", "operator": "United States Postal Service", "operator:short": "USPS", "operator:type": "public", "operator:wikidata": "Q668687", "ref": "5952700000"}, "type": "Feature"}
{"dataset_attributes": {"@spider": "usps_collection_boxes", "spider:collection_time": "2023-11-13T08:26:09.210319"}, "geometry": {"coordinates": [-108.688536, 47.988603], "type": "Point"}, "id": "FYJ0q4RJ3hLvZmncA2ktzC0-OIo=", "properties": {"@spider": "usps_collection_boxes", "addr:city": "HAYS", "addr:country": "US", "addr:full": "260 STEVENS ST", "addr:postcode": "59527", "addr:state": "MT", "amenity": "post_box", "brand": "United States Postal Service", "brand:wikidata": "Q668687", "collection_times": "Mo-Sa 13:00", "name": "USPS COLLECTION BOX - BLUE BOX", "note": "ON 12/24 AND 12/31, THIS BOX MAY BE COLLECTED AS EARLY AS 12 NOON.", "nsi_id": "unitedstatespostalservice-a77078", "operator": "United States Postal Service", "operator:short": "USPS", "operator:type": "public", "operator:wikidata": "Q668687", "ref": "5952700001"}, "type": "Feature"}
{"dataset_attributes": {"@spider": "usps_collection_boxes", "spider:collection_time": "2023-11-13T08:26:09.210319"}, "geometry": {"coordinates": [-108.688536, 47.988603], "type": "Point"}, "id": "Hp0_L5jjNWbn4ar_Qd_KVccieNY=", "properties": {"@spider": "usps_collection_boxes", "addr:city": "HAYS", "addr:country": "US", "addr:full": "260 STEVENS ST", "addr:postcode": "59527", "addr:state": "MT", "amenity": "post_box", "brand": "United States Postal Service", "brand:wikidata": "Q668687", "collection_times": "Mo-Sa 13:00", "name": "USPS COLLECTION BOX - PO LOBBY", "note": "ON 12/24 AND 12/31, THIS BOX MAY BE COLLECTED AS EARLY AS 12 NOON.", "nsi_id": "unitedstatespostalservice-a77078", "operator": "United States Postal Service", "operator:short": "USPS", "operator:type": "public", "operator:wikidata": "Q668687", "ref": "5952700002"}, "type": "Feature"}
{"dataset_attributes": {"@spider": "usps_collection_boxes", "spider:collection_time": "2023-11-13T08:26:09.210319"}, "geometry": {"coordinates": [-108.691253916, 47.988584529], "type": "Point"}, "id": "EE2EEsxSC2dfyyZZFE8s-ka3IoU=", "properties": {"@spider": "usps_collection_boxes", "addr:city": "HAYS", "addr:country": "US", "addr:full": "260 STEVENS ST", "addr:postcode": "59527", "addr:state": "MT", "amenity": "post_box", "brand": "United States Postal Service", "brand:wikidata": "Q668687", "collection_times": "Mo-Fr 13:00", "name": "USPS COLLECTION BOX - PO LOBBY", "note": "ON 12/24 AND 12/31, THIS BOX MAY BE COLLECTED AS EARLY AS 12 NOON.", "nsi_id": "unitedstatespostalservice-a77078", "operator": "United States Postal Service", "operator:short": "USPS", "operator:type": "public", "operator:wikidata": "Q668687", "ref": "5952700003"}, "type": "Feature"}
{"dataset_attributes": {"@spider": "usps_collection_boxes", "spider:collection_time": "2023-11-13T08:26:09.210319"}, "geometry": {"coordinates": [-110.422395, 48.55553], "type": "Point"}, "id": "o1NHf07UZO87tD5V8MYd8aXfLAU=", "properties": {"@spider": "usps_collection_boxes", "addr:city": "HINGHAM", "addr:country": "US", "addr:full": "508 2ND ST", "addr:postcode": "59528", "addr:state": "MT", "amenity": "post_box", "brand": "United States Postal Service", "brand:wikidata": "Q668687", "collection_times": "Mo-Fr 16:15; Sa 09:15", "name": "USPS COLLECTION BOX - BLUE BOX", "note": "ON 12/24 AND 12/31, THIS BOX MAY BE COLLECTED AS EARLY AS 12 NOON.", "nsi_id": "unitedstatespostalservice-a77078", "operator": "United States Postal Service", "operator:short": "USPS", "operator:type": "public", "operator:wikidata": "Q668687", "ref": "5952800001"}, "type": "Feature"}
{"dataset_attributes": {"@spider": "usps_collection_boxes", "spider:collection_time": "2023-11-13T08:26:09.210319"}, "geometry": {"coordinates": [-110.443279, 48.556737], "type": "Point"}, "id": "8bhML0YDFlFWXlzQsRjmiXYBDF0=", "properties": {"@spider": "usps_collection_boxes", "addr:city": "HINGHAM", "addr:country": "US", "addr:full": "508 2ND ST", "addr:postcode": "59528", "addr:state": "MT", "amenity": "post_box", "brand": "United States Postal Service", "brand:wikidata": "Q668687", "collection_times": "Mo-Fr 14:00; Sa 09:15", "name": "USPS COLLECTION BOX - PO LOBBY", "note": "ON 12/24 AND 12/31, THIS BOX MAY BE COLLECTED AS EARLY AS 12 NOON.", "nsi_id": "unitedstatespostalservice-a77078", "operator": "United States Postal Service", "operator:short": "USPS", "operator:type": "public", "operator:wikidata": "Q668687", "ref": "5952800002"}, "type": "Feature"}
{"dataset_attributes": {"@spider": "usps_collection_boxes", "spider:collection_time": "2023-11-13T08:26:09.210319"}, "geometry": {"coordinates": [-108.657697, 48.851776], "type": "Point"}, "id": "cPaKELjInH4qPgjKZEE4eLNhwTU=", "properties": {"@spider": "usps_collection_boxes", "addr:city": "HOGELAND", "addr:country": "US", "addr:full": "125 MAIN ST", "addr:postcode": "59529", "addr:state": "MT", "amenity": "post_box", "brand": "United States Postal Service", "brand:wikidata": "Q668687", "collection_times": "Mo-Fr 11:00; Sa 10:00", "name": "USPS COLLECTION BOX - PO LOBBY", "nsi_id": "unitedstatespostalservice-a77078", "operator": "United States Postal Service", "operator:short": "USPS", "operator:type": "public", "operator:wikidata": "Q668687", "ref": "5952900000"}, "type": "Feature"}
{"dataset_attributes": {"@spider": "usps_collection_boxes", "spider:collection_time": "2023-11-13T08:26:09.210319"}, "geometry": {"coordinates": [-108.657697, 48.851776], "type": "Point"}, "id": "HNd18uSDZSHEbjq6Tb8IeClMOEg=", "properties": {"@spider": "usps_collection_boxes", "addr:city": "HOGELAND", "addr:country": "US", "addr:full": "125 MAIN ST", "addr:postcode": "59529", "addr:state": "MT", "amenity": "post_box", "brand": "United States Postal Service", "brand:wikidata": "Q668687", "collection_times": "Mo-Fr 11:00; Sa 10:00", "name": "USPS COLLECTION BOX - PO LOBBY", "nsi_id": "unitedstatespostalservice-a77078", "operator": "United States Postal Service", "operator:short": "USPS", "operator:type": "public", "operator:wikidata": "Q668687", "ref": "5952900001"}, "type": "Feature"}
{"dataset_attributes": {"@spider": "usps_collection_boxes", "spider:collection_time": "2023-11-13T08:26:09.210319"}, "geometry": {"coordinates": [-110.68891, 48.557999], "type": "Point"}, "id": "ZpTu734Ryqf9pJZycpG4_ohCGtI=", "properties": {"@spider": "usps_collection_boxes", "addr:city": "INVERNESS", "addr:country": "US", "addr:full": "130 MAIN ST", "addr:postcode": "59530", "addr:state": "MT", "amenity": "post_box", "brand": "United States Postal Service", "brand:wikidata": "Q668687", "collection_times": "Mo-Fr 12:00; Sa 09:30", "name": "USPS COLLECTION BOX - PO LOBBY", "nsi_id": "unitedstatespostalservice-a77078", "operator": "United States Postal Service", "operator:short": "USPS", "operator:type": "public", "operator:wikidata": "Q668687", "ref": "5953000000"}, "type": "Feature"}
{"dataset_attributes": {"@spider": "usps_collection_boxes", "spider:collection_time": "2023-11-13T08:26:09.210319"}, "geometry": {"coordinates": [-110.75624, 48.559828], "type": "Point"}, "id": "mp7yC4qftdAx1igUDU8-mKxFQIA=", "properties": {"@spider": "usps_collection_boxes", "addr:city": "JOPLIN", "addr:country": "US", "addr:full": "23 2ND ST", "addr:postcode": "59531", "addr:state": "MT", "amenity": "post_box", "brand": "United States Postal Service", "brand:wikidata": "Q668687", "collection_times": "Mo-Fr 12:00; Sa 09:15", "name": "USPS COLLECTION BOX - PO LOBBY", "nsi_id": "unitedstatespostalservice-a77078", "operator": "United States Postal Service", "operator:short": "USPS", "operator:type": "public", "operator:wikidata": "Q668687", "ref": "5953100000"}, "type": "Feature"}
{"dataset_attributes": {"@spider": "usps_collection_boxes", "spider:collection_time": "2023-11-13T08:26:09.210319"}, "geometry": {"coordinates": [-110.75624, 48.559828], "type": "Point"}, "id": "BVa11w-L0yNbhlIVqSbOFTdEyw4=", "properties": {"@spider": "usps_collection_boxes", "addr:city": "JOPLIN", "addr:country": "US", "addr:full": "23 2ND ST", "addr:postcode": "59531", "addr:state": "MT", "amenity": "post_box", "brand": "United States Postal Service", "brand:wikidata": "Q668687", "collection_times": "Mo-Fr 12:00; Sa 09:15", "name": "USPS COLLECTION BOX - PO LOBBY", "nsi_id": "unitedstatespostalservice-a77078", "operator": "United States Postal Service", "operator:short": "USPS", "operator:type": "public", "operator:wikidata": "Q668687", "ref": "5953100002"}, "type": "Feature"}
{"dataset_attributes": {"@spider": "usps_collection_boxes", "spider:collection_time": "2023-11-13T08:26:09.210319"}, "geometry": {"coordinates": [-110.086984, 48.571659], "type": "Point"}, "id": "8TEJqsIDr_Y1upWUpr_M9HgEQIU=", "properties": {"@spider": "usps_collection_boxes", "addr:city": "KREMLIN", "addr:country": "US", "addr:full": "210 CENTRAL AVE", "addr:postcode": "59532", "addr:state": "MT", "amenity": "post_box", "brand": "United States Postal Service", "brand:wikidata": "Q668687", "collection_times": "Mo-Fr 11:30; Sa 09:15", "name": "USPS COLLECTION BOX - PO LOBBY", "nsi_id": "unitedstatespostalservice-a77078", "operator": "United States Postal Service", "operator:short": "USPS", "operator:type": "public", "operator:wikidata": "Q668687", "ref": "5953200000"}, "type": "Feature"}
{"dataset_attributes": {"@spider": "usps_collection_boxes", "spider:collection_time": "2023-11-13T08:26:09.210319"}, "geometry": {"coordinates": [-110.086958, 48.571673], "type": "Point"}, "id": "mvG-St_nf4CMapXwUkNmqFtxnOU=", "properties": {"@spider": "usps_collection_boxes", "addr:city": "KREMLIN", "addr:country": "US", "addr:full": "210 CENTRAL AVE", "addr:postcode": "59532", "addr:state": "MT", "amenity": "post_box", "brand": "United States Postal Service", "brand:wikidata": "Q668687", "collection_times": "Mo-Fr 11:30; Sa 09:15", "name": "USPS COLLECTION BOX - PO LOBBY", "nsi_id": "unitedstatespostalservice-a77078", "operator": "United States Postal Service", "operator:short": "USPS", "operator:type": "public", "operator:wikidata": "Q668687", "ref": "5953200001"}, "type": "Feature"}
{"dataset_attributes": {"@spider": "usps_collection_boxes", "spider:collection_time": "2023-11-13T08:26:09.210319"}, "geometry": {"coordinates": [-110.08747, 48.571915], "type": "Point"}, "id": "vPYUlrKIJGTAcQPrlt6cARPIYZs=", "properties": {"@spider": "usps_collection_boxes", "addr:city": "KREMLIN", "addr:country": "US", "addr:full": "210 CENTRAL AVE", "addr:postcode": "59532", "addr:state": "MT", "amenity": "post_box", "brand": "United States Postal Service", "brand:wikidata": "Q668687", "collection_times": "Mo-Fr 16:15; Sa 11:15", "name": "USPS COLLECTION BOX - BLUE BOX", "note": "ON 12/24 AND 12/31, THIS BOX MAY BE COLLECTED AS EARLY AS 12 NOON.", "nsi_id": "unitedstatespostalservice-a77078", "operator": "United States Postal Service", "operator:short": "USPS", "operator:type": "public", "operator:wikidata": "Q668687", "ref": "5953200003"}, "type": "Feature"}
{"dataset_attributes": {"@spider": "usps_collection_boxes", "spider:collection_time": "2023-11-13T08:26:09.210319"}, "geometry": {"coordinates": [-107.861941, 48.790383], "type": "Point"}, "id": "bA1hyhdlc15MRJgLFlOjwt_XzCg=", "properties": {"@spider": "usps_collection_boxes", "addr:city": "LORING", "addr:country": "US", "addr:full": "93 MAIN ST", "addr:postcode": "59537", "addr:state": "MT", "amenity": "post_box", "brand": "United States Postal Service", "brand:wikidata": "Q668687", "collection_times": "Mo-Fr 14:15", "name": "USPS COLLECTION BOX - PO LOBBY", "note": "ON 12/24 AND 12/31, THIS BOX MAY BE COLLECTED AS EARLY AS 12 NOON.", "nsi_id": "unitedstatespostalservice-a77078", "operator": "United States Postal Service", "operator:short": "USPS", "operator:type": "public", "operator:wikidata": "Q668687", "ref": "5953700001"}, "type": "Feature"}
{"dataset_attributes": {"@spider": "usps_collection_boxes", "spider:collection_time": "2023-11-13T08:26:09.210319"}, "geometry": {"coordinates": [-107.872141, 48.358285], "type": "Point"}, "id": "hygimfQcTafcf8v_loaEGU4mMzQ=", "properties": {"@spider": "usps_collection_boxes", "addr:city": "MALTA", "addr:country": "US", "addr:full": "207 S 1ST AVE E", "addr:postcode": "59538", "addr:state": "MT", "amenity": "post_box", "brand": "United States Postal Service", "brand:wikidata": "Q668687", "collection_times": "Mo-Fr 15:40; Sa 13:00", "name": "USPS COLLECTION BOX - BLUE BOX", "note": "ON 12/24 AND 12/31, THIS BOX MAY BE COLLECTED AS EARLY AS 12 NOON.", "nsi_id": "unitedstatespostalservice-a77078", "operator": "United States Postal Service", "operator:short": "USPS", "operator:type": "public", "operator:wikidata": "Q668687", "ref": "5953800000"}, "type": "Feature"}
{"dataset_attributes": {"@spider": "usps_collection_boxes", "spider:collection_time": "2023-11-13T08:26:09.210319"}, "geometry": {"coordinates": [-107.87218, 48.358353], "type": "Point"}, "id": "0fOpKL7SwMSLJfj_NiTlETeA-5U=", "properties": {"@spider": "usps_collection_boxes", "addr:city": "MALTA", "addr:country": "US", "addr:full": "207 S 1ST AVE E", "addr:postcode": "59538", "addr:state": "MT", "amenity": "post_box", "brand": "United States Postal Service", "brand:wikidata": "Q668687", "collection_times": "Mo-Fr 15:40; Sa 13:45", "name": "USPS COLLECTION BOX - PO LOBBY", "note": "ON 12/24 AND 12/31, THIS BOX MAY BE COLLECTED AS EARLY AS 12 NOON.", "nsi_id": "unitedstatespostalservice-a77078", "operator": "United States Postal Service", "operator:short": "USPS", "operator:type": "public", "operator:wikidata": "Q668687", "ref": "5953800002"}, "type": "Feature"}
{"dataset_attributes": {"@spider": "usps_collection_boxes", "spider:collection_time": "2023-11-13T08:26:09.210319"}, "geometry": {"coordinates": [-107.87218, 48.358353], "type": "Point"}, "id": "g7yJQqC0SHcbpFsKO0fnDvJ4M4g=", "properties": {"@spider": "usps_collection_boxes", "addr:city": "MALTA", "addr:country": "US", "addr:full": "207 S 1ST AVE E", "addr:postcode": "59538", "addr:state": "MT", "amenity": "post_box", "brand": "United States Postal Service", "brand:wikidata": "Q668687", "collection_times": "Mo-Fr 15:40; Sa 13:45", "name": "USPS COLLECTION BOX - PO LOBBY", "note": "ON 12/24 AND 12/31, THIS BOX MAY BE COLLECTED AS EARLY AS 12 NOON.", "nsi_id": "unitedstatespostalservice-a77078", "operator": "United States Postal Service", "operator:short": "USPS", "operator:type": "public", "operator:wikidata": "Q668687", "ref": "5953800003"}, "type": "Feature"}
{"dataset_attributes": {"@spider": "usps_collection_boxes", "spider:collection_time": "2023-11-13T08:26:09.210319"}, "geometry": {"coordinates": [-107.87218, 48.358353], "type": "Point"}, "id": "AIildHtaE-LxL1ZB3Cv1ccKExpQ=", "properties": {"@spider": "usps_collection_boxes", "addr:city": "MALTA", "addr:country": "US", "addr:full": "207 S 1ST AVE E", "addr:postcode": "59538", "addr:state": "MT", "amenity": "post_box", "brand": "United States Postal Service", "brand:wikidata": "Q668687", "collection_times": "Mo-Fr 15:40; Sa 13:45", "name": "USPS COLLECTION BOX - PO LOBBY", "note": "ON 12/24 AND 12/31, THIS BOX MAY BE COLLECTED AS EARLY AS 12 NOON.", "nsi_id": "unitedstatespostalservice-a77078", "operator": "United States Postal Service", "operator:short": "USPS", "operator:type": "public", "operator:wikidata": "Q668687", "ref": "5953800004"}, "type": "Feature"}
{"dataset_attributes": {"@spider": "usps_collection_boxes", "spider:collection_time": "2023-11-13T08:26:09.210319"}, "geometry": {"coordinates": [-107.87218, 48.358353], "type": "Point"}, "id": "D4RQae1LxkICc0WB4OSFhrW6vkU=", "properties": {"@spider": "usps_collection_boxes", "addr:city": "MALTA", "addr:country": "US", "addr:full": "207 S 1ST AVE E", "addr:postcode": "59538", "addr:state": "MT", "amenity": "post_box", "brand": "United States Postal Service", "brand:wikidata": "Q668687", "collection_times": "Mo-Fr 15:40; Sa 13:45", "name": "USPS COLLECTION BOX - PO LOBBY", "note": "ON 12/24 AND 12/31, THIS BOX MAY BE COLLECTED AS EARLY AS 12 NOON.", "nsi_id": "unitedstatespostalservice-a77078", "operator": "United States Postal Service", "operator:short": "USPS", "operator:type": "public", "operator:wikidata": "Q668687", "ref": "5953800005"}, "type": "Feature"}
{"dataset_attributes": {"@spider": "usps_collection_boxes", "spider:collection_time": "2023-11-13T08:26:09.210319"}, "geometry": {"coordinates": [-110.553798, 48.559301], "type": "Point"}, "id": "_oH4ngG774rM9WBW_w58ELwtPYs=", "properties": {"@spider": "usps_collection_boxes", "addr:city": "RUDYARD", "addr:country": "US", "addr:full": "15 MAIN ST N", "addr:postcode": "59540", "addr:state": "MT", "amenity": "post_box", "brand": "United States Postal Service", "brand:wikidata": "Q668687", "collection_times": "Mo-Fr 12:00; Sa 10:00", "name": "USPS COLLECTION BOX - PO LOBBY", "nsi_id": "unitedstatespostalservice-a77078", "operator": "United States Postal Service", "operator:short": "USPS", "operator:type": "public", "operator:wikidata": "Q668687", "ref": "5954000001"}, "type": "Feature"}
{"dataset_attributes": {"@spider": "usps_collection_boxes", "spider:collection_time": "2023-11-13T08:26:09.210319"}, "geometry": {"coordinates": [-110.553839, 48.559237], "type": "Point"}, "id": "EaB_yHHhiG4v8h2kQroQi8HOo2Q=", "properties": {"@spider": "usps_collection_boxes", "addr:city": "RUDYARD", "addr:country": "US", "addr:full": "15 MAIN ST N", "addr:postcode": "59540", "addr:state": "MT", "amenity": "post_box", "brand": "United States Postal Service", "brand:wikidata": "Q668687", "collection_times": "Mo-Fr 12:00; Sa 10:00", "name": "USPS COLLECTION BOX - PO LOBBY", "nsi_id": "unitedstatespostalservice-a77078", "operator": "United States Postal Service", "operator:short": "USPS", "operator:type": "public", "operator:wikidata": "Q668687", "ref": "5954000002"}, "type": "Feature"}
{"dataset_attributes": {"@spider": "usps_collection_boxes", "spider:collection_time": "2023-11-13T08:26:09.210319"}, "geometry": {"coordinates": [-108.405445, 48.846066], "type": "Point"}, "id": "05ZjCqrX11lfPoTnV1jYzaMIYek=", "properties": {"@spider": "usps_collection_boxes", "addr:city": "TURNER", "addr:country": "US", "addr:full": "102 MAIN ST", "addr:postcode": "59542", "addr:state": "MT", "amenity": "post_box", "brand": "United States Postal Service", "brand:wikidata": "Q668687", "collection_times": "Mo-Fr 15:00; Sa 10:45", "name": "USPS COLLECTION BOX - PO LOBBY", "note": "ON 12/24 AND 12/31, THIS BOX MAY BE COLLECTED AS EARLY AS 12 NOON.", "nsi_id": "unitedstatespostalservice-a77078", "operator": "United States Postal Service", "operator:short": "USPS", "operator:type": "public", "operator:wikidata": "Q668687", "ref": "5954200000"}, "type": "Feature"}
{"dataset_attributes": {"@spider": "usps_collection_boxes", "spider:collection_time": "2023-11-13T08:26:09.210319"}, "geometry": {"coordinates": [-108.405445, 48.846066], "type": "Point"}, "id": "KDp5TqiX2bRkt2m_4VspQj69fYM=", "properties": {"@spider": "usps_collection_boxes", "addr:city": "TURNER", "addr:country": "US", "addr:full": "102 MAIN ST", "addr:postcode": "59542", "addr:state": "MT", "amenity": "post_box", "brand": "United States Postal Service", "brand:wikidata": "Q668687", "collection_times": "Mo-Fr 15:00; Sa 10:45", "name": "USPS COLLECTION BOX - PO LOBBY", "note": "ON 12/24 AND 12/31, THIS BOX MAY BE COLLECTED AS EARLY AS 12 NOON.", "nsi_id": "unitedstatespostalservice-a77078", "operator": "United States Postal Service", "operator:short": "USPS", "operator:type": "public", "operator:wikidata": "Q668687", "ref": "5954200001"}, "type": "Feature"}
{"dataset_attributes": {"@spider": "usps_collection_boxes", "spider:collection_time": "2023-11-13T08:26:09.210319"}, "geometry": {"coordinates": [-107.627498, 48.760027], "type": "Point"}, "id": "wkRih8aZCwvkSX4doNDetmUw5ts=", "properties": {"@spider": "usps_collection_boxes", "addr:city": "WHITEWATER", "addr:country": "US", "addr:full": "66 1ST AVE E", "addr:postcode": "59544", "addr:state": "MT", "amenity": "post_box", "brand": "United States Postal Service", "brand:wikidata": "Q668687", "collection_times": "Mo-Fr 13:45", "name": "USPS COLLECTION BOX - BLUE BOX", "note": "ON 12/24 AND 12/31, THIS BOX MAY BE COLLECTED AS EARLY AS 12 NOON.", "nsi_id": "unitedstatespostalservice-a77078", "operator": "United States Postal Service", "operator:short": "USPS", "operator:type": "public", "operator:wikidata": "Q668687", "ref": "5954400000"}, "type": "Feature"}
{"dataset_attributes": {"@spider": "usps_collection_boxes", "spider:collection_time": "2023-11-13T08:26:09.210319"}, "geometry": {"coordinates": [-107.627437, 48.760029], "type": "Point"}, "id": "m5ck3nCztuvLuoRSX-74gliELS0=", "properties": {"@spider": "usps_collection_boxes", "addr:city": "WHITEWATER", "addr:country": "US", "addr:full": "66 1ST AVE E", "addr:postcode": "59544", "addr:state": "MT", "amenity": "post_box", "brand": "United States Postal Service", "brand:wikidata": "Q668687", "collection_times": "Mo-Fr 13:45", "name": "USPS COLLECTION BOX - PO LOBBY", "note": "ON 12/24 AND 12/31, THIS BOX MAY BE COLLECTED AS EARLY AS 12 NOON.", "nsi_id": "unitedstatespostalservice-a77078", "operator": "United States Postal Service", "operator:short": "USPS", "operator:type": "public", "operator:wikidata": "Q668687", "ref": "5954400001"}, "type": "Feature"}
{"dataset_attributes": {"@spider": "usps_collection_boxes", "spider:collection_time": "2023-11-13T08:26:09.210319"}, "geometry": {"coordinates": [-111.086108, 48.7138], "type": "Point"}, "id": "6agY3-DjpMnDhuQDpl0XPyVFy6c=", "properties": {"@spider": "usps_collection_boxes", "addr:city": "WHITLASH", "addr:country": "US", "addr:full": "645 WHITLASH RD", "addr:postcode": "59545", "addr:state": "MT", "amenity": "post_box", "brand": "United States Postal Service", "brand:wikidata": "Q668687", "collection_times": "Mo-Fr 12:00", "name": "USPS COLLECTION BOX - PO LOBBY", "nsi_id": "unitedstatespostalservice-a77078", "operator": "United States Postal Service", "operator:short": "USPS", "operator:type": "public", "operator:wikidata": "Q668687", "ref": "5954500000"}, "type": "Feature"}
{"dataset_attributes": {"@spider": "usps_collection_boxes", "spider:collection_time": "2023-11-13T08:26:09.210319"}, "geometry": {"coordinates": [-108.521082, 47.916161], "type": "Point"}, "id": "YBkk7OwOUDcuKf1zLlRQL_07o4s=", "properties": {"@spider": "usps_collection_boxes", "addr:city": "ZORTMAN", "addr:country": "US", "addr:full": "157 WHITCOMB ST", "addr:postcode": "59546", "addr:state": "MT", "amenity": "post_box", "brand": "United States Postal Service", "brand:wikidata": "Q668687", "collection_times": "Mo-Sa 10:45", "name": "USPS COLLECTION BOX - BLUE BOX", "nsi_id": "unitedstatespostalservice-a77078", "operator": "United States Postal Service", "operator:short": "USPS", "operator:type": "public", "operator:wikidata": "Q668687", "ref": "5954600000"}, "type": "Feature"}
{"dataset_attributes": {"@spider": "usps_collection_boxes", "spider:collection_time": "2023-11-13T08:26:09.210319"}, "geometry": {"coordinates": [-108.521184, 47.916208], "type": "Point"}, "id": "G_VgoRF06KEB7QGoEEWl42OrkfU=", "properties": {"@spider": "usps_collection_boxes", "addr:city": "ZORTMAN", "addr:country": "US", "addr:full": "157 WHITCOMB ST", "addr:postcode": "59546", "addr:state": "MT", "amenity": "post_box", "brand": "United States Postal Service", "brand:wikidata": "Q668687", "collection_times": "Mo-Sa 11:00", "name": "USPS COLLECTION BOX - PO LOBBY", "nsi_id": "unitedstatespostalservice-a77078", "operator": "United States Postal Service", "operator:short": "USPS", "operator:type": "public", "operator:wikidata": "Q668687", "ref": "5954600001"}, "type": "Feature"}
{"dataset_attributes": {"@spider": "usps_collection_boxes", "spider:collection_time": "2023-11-13T08:26:09.210319"}, "geometry": {"coordinates": [-109.032199, 48.584063], "type": "Point"}, "id": "zjsxP3DI8TeBZhmzJTyOPLpxvyM=", "properties": {"@spider": "usps_collection_boxes", "addr:city": "ZURICH", "addr:country": "US", "addr:full": "150 1ST AVE", "addr:postcode": "59547", "addr:state": "MT", "amenity": "post_box", "brand": "United States Postal Service", "brand:wikidata": "Q668687", "collection_times": "Mo-Sa 09:50", "name": "USPS COLLECTION BOX - PO LOBBY", "nsi_id": "unitedstatespostalservice-a77078", "operator": "United States Postal Service", "operator:short": "USPS", "operator:type": "public", "operator:wikidata": "Q668687", "ref": "5954700000"}, "type": "Feature"}
{"dataset_attributes": {"@spider": "usps_collection_boxes", "spider:collection_time": "2023-11-13T08:26:09.210319"}, "geometry": {"coordinates": [-109.032238, 48.584071], "type": "Point"}, "id": "WEpbOM46okXAhzCQhmcWWbn0-rk=", "properties": {"@spider": "usps_collection_boxes", "addr:city": "ZURICH", "addr:country": "US", "addr:full": "150 1ST AVE", "addr:postcode": "59547", "addr:state": "MT", "amenity": "post_box", "brand": "United States Postal Service", "brand:wikidata": "Q668687", "collection_times": "Mo-Sa 09:50", "name": "USPS COLLECTION BOX - PO LOBBY", "nsi_id": "unitedstatespostalservice-a77078", "operator": "United States Postal Service", "operator:short": "USPS", "operator:type": "public", "operator:wikidata": "Q668687", "ref": "5954700001"}, "type": "Feature"}
