{"geometry": {"coordinates": [-112.259348, 46.805861], "type": "Point"}, "id": "oKg-IANuSV0eMhliPW9bxu50zaU=", "properties": {"@spider": "usps_collection_boxes", "addr:city": "CANYON CREEK", "addr:country": "US", "addr:full": "8703 LINCOLN RD W", "addr:postcode": "59633", "addr:state": "MT", "brand": "USPS", "collection_times": "Mo-Sa 10:00", "name": "USPS COLLECTION BOX - BLUE BOX", "ref": "5963300001"}, "type": "Feature"}
{"geometry": {"coordinates": [-112.687079, 46.955094], "type": "Point"}, "id": "N_DKIe4gbNrvMuRvLjUkxK2a0lY=", "properties": {"@spider": "usps_collection_boxes", "addr:city": "LINCOLN", "addr:country": "US", "addr:full": "237 MAIN ST", "addr:postcode": "59639", "addr:state": "MT", "brand": "USPS", "collection_times": "Mo-Fr 16:30; Sa 10:00", "name": "USPS COLLECTION BOX - PO LOBBY", "note": "ON 12/24 AND 12/31, THIS BOX MAY BE COLLECTED AS EARLY AS 12 NOON.", "ref": "5963900000"}, "type": "Feature"}
{"geometry": {"coordinates": [-112.687079, 46.955094], "type": "Point"}, "id": "wHoHMtB9mCaZS9xztLPQC8Gmxro=", "properties": {"@spider": "usps_collection_boxes", "addr:city": "LINCOLN", "addr:country": "US", "addr:full": "237 MAIN ST", "addr:postcode": "59639", "addr:state": "MT", "brand": "USPS", "collection_times": "Mo-Fr 16:30; Sa 10:00", "name": "USPS COLLECTION BOX - PO LOBBY", "note": "ON 12/24 AND 12/31, THIS BOX MAY BE COLLECTED AS EARLY AS 12 NOON.", "ref": "5963900001"}, "type": "Feature"}
{"geometry": {"coordinates": [-112.302685656, 46.750427634], "type": "Point"}, "id": "hgTmix1WEJd6CDQ853Hs1QGOZh8=", "properties": {"@spider": "usps_collection_boxes", "addr:city": "MARYSVILLE", "addr:country": "US", "addr:full": "9 ASPEN WAY", "addr:postcode": "59640", "addr:state": "MT", "brand": "USPS", "collection_times": "Mo-Sa 11:00", "name": "USPS COLLECTION BOX - BLUE BOX", "ref": "5964000002"}, "type": "Feature"}
{"geometry": {"coordinates": [-112.073133, 47.008795], "type": "Point"}, "id": "YMhGVMf8T43uuI1VRRWnyQz518s=", "properties": {"@spider": "usps_collection_boxes", "addr:city": "WOLF CREEK", "addr:country": "US", "addr:full": "250 MAIN ST", "addr:postcode": "59648", "addr:state": "MT", "brand": "USPS", "collection_times": "Mo-Fr 15:15; Sa 08:30", "name": "USPS COLLECTION BOX - BLUE BOX", "note": "ON 12/24 AND 12/31, THIS BOX MAY BE COLLECTED AS EARLY AS 12 NOON.", "ref": "5964800000"}, "type": "Feature"}
{"geometry": {"coordinates": [-112.073133, 47.008795], "type": "Point"}, "id": "oQCae7eyRjhnJT17zhP8NZfEge4=", "properties": {"@spider": "usps_collection_boxes", "addr:city": "WOLF CREEK", "addr:country": "US", "addr:full": "250 MAIN ST", "addr:postcode": "59648", "addr:state": "MT", "brand": "USPS", "collection_times": "Mo-Fr 15:00; Sa 08:30", "name": "USPS COLLECTION BOX - PO LOBBY", "note": "ON 12/24 AND 12/31, THIS BOX MAY BE COLLECTED AS EARLY AS 12 NOON.", "ref": "5964800001"}, "type": "Feature"}
{"geometry": {"coordinates": [-112.073133, 47.008795], "type": "Point"}, "id": "3IO0xCRxz-PyulQ0SaosSQlDx_o=", "properties": {"@spider": "usps_collection_boxes", "addr:city": "WOLF CREEK", "addr:country": "US", "addr:full": "250 MAIN ST", "addr:postcode": "59648", "addr:state": "MT", "brand": "USPS", "collection_times": "Mo-Fr 15:00; Sa 08:30", "name": "USPS COLLECTION BOX - PO LOBBY", "note": "ON 12/24 AND 12/31, THIS BOX MAY BE COLLECTED AS EARLY AS 12 NOON.", "ref": "5964800002"}, "type": "Feature"}
