{"geometry": {"coordinates": [-112.973503, 46.133137], "type": "Point"}, "id": "IVULMZLVLtWN88NCyddjX65sT9E=", "properties": {"@spider": "usps_collection_boxes", "addr:city": "ANACONDA", "addr:country": "US", "addr:full": "1501 W PARK AVE", "addr:postcode": "59711", "addr:state": "MT", "brand": "USPS", "collection_times": "Mo-Sa 12:00", "name": "USPS COLLECTION BOX - BLUE BOX", "ref": "5971100003"}, "type": "Feature"}
{"geometry": {"coordinates": [-112.935042, 46.12668], "type": "Point"}, "id": "b_zeWB7LyaXfty4sRwo6QxQc-u0=", "properties": {"@spider": "usps_collection_boxes", "addr:city": "ANACONDA", "addr:country": "US", "addr:full": "1300 E PARK AVE", "addr:postcode": "59711", "addr:state": "MT", "brand": "USPS", "collection_times": "Mo-Sa 11:00", "name": "USPS COLLECTION BOX - BLUE BOX", "ref": "5971100004"}, "type": "Feature"}
{"geometry": {"coordinates": [-112.951435, 46.130018], "type": "Point"}, "id": "_Bc7meOBkAMMTO7JdQoKMk20Q-E=", "properties": {"@spider": "usps_collection_boxes", "addr:city": "ANACONDA", "addr:country": "US", "addr:full": "115 E COMMERCIAL AVE", "addr:postcode": "59711", "addr:state": "MT", "brand": "USPS", "collection_times": "Mo-Sa 14:00", "name": "USPS COLLECTION BOX - BLUE BOX", "note": "ON 12/24 AND 12/31, THIS BOX MAY BE COLLECTED AS EARLY AS 12 NOON.", "ref": "5971100008"}, "type": "Feature"}
{"geometry": {"coordinates": [-112.949264, 46.128733], "type": "Point"}, "id": "OTi6gUgFf0_W1V-OSJauFfW_Odo=", "properties": {"@spider": "usps_collection_boxes", "addr:city": "ANACONDA", "addr:country": "US", "addr:full": "307 E PARK AVE", "addr:postcode": "59711", "addr:state": "MT", "brand": "USPS", "collection_times": "Mo-Sa 14:00", "name": "USPS COLLECTION BOX - BLUE BOX", "note": "ON 12/24 AND 12/31, THIS BOX MAY BE COLLECTED AS EARLY AS 12 NOON.", "ref": "5971100009"}, "type": "Feature"}
{"geometry": {"coordinates": [-112.950292, 46.12893], "type": "Point"}, "id": "GVdMn796N4rknDhRZq_EsasJikg=", "properties": {"@spider": "usps_collection_boxes", "addr:city": "ANACONDA", "addr:country": "US", "addr:full": "220 E PARK AVE", "addr:postcode": "59711", "addr:state": "MT", "brand": "USPS", "collection_times": "Mo-Sa 14:00", "name": "USPS COLLECTION BOX - BLUE BOX", "note": "ON 12/24 AND 12/31, THIS BOX MAY BE COLLECTED AS EARLY AS 12 NOON.", "ref": "5971100010"}, "type": "Feature"}
{"geometry": {"coordinates": [-112.954183, 46.129577], "type": "Point"}, "id": "1_JyfNoDx9nFEmtj5_grdJ4N9ok=", "properties": {"@spider": "usps_collection_boxes", "addr:city": "ANACONDA", "addr:country": "US", "addr:full": "120 W PARK AVE", "addr:postcode": "59711", "addr:state": "MT", "brand": "USPS", "collection_times": "Mo-Sa 14:00", "name": "USPS COLLECTION BOX - BLUE BOX", "note": "ON 12/24 AND 12/31, THIS BOX MAY BE COLLECTED AS EARLY AS 12 NOON.", "ref": "5971100011"}, "type": "Feature"}
{"geometry": {"coordinates": [-112.953599, 46.128666], "type": "Point"}, "id": "dOkmykoWcyoqmdUfZZox1dvHsZY=", "properties": {"@spider": "usps_collection_boxes", "addr:city": "ANACONDA", "addr:country": "US", "addr:full": "218 MAIN ST", "addr:postcode": "59711", "addr:state": "MT", "brand": "USPS", "collection_times": "Mo-Fr 16:00; Sa 14:00", "name": "USPS COLLECTION BOX - PO LOBBY", "note": "ON 12/24 AND 12/31, THIS BOX MAY BE COLLECTED AS EARLY AS 12 NOON.", "ref": "5971100019"}, "type": "Feature"}
{"geometry": {"coordinates": [-112.9532190476, 46.1286221904], "type": "Point"}, "id": "m1ufL3Jly4PD3bAUyH4n4xqmD_0=", "properties": {"@spider": "usps_collection_boxes", "addr:city": "ANACONDA", "addr:country": "US", "addr:full": "218 MAIN ST", "addr:postcode": "59711", "addr:state": "MT", "brand": "USPS", "collection_times": "Mo-Fr 15:50; Sa 13:50", "name": "USPS COLLECTION BOX - PO LOBBY", "note": "ON 12/24 AND 12/31, THIS BOX MAY BE COLLECTED AS EARLY AS 12 NOON.", "ref": "5971100023"}, "type": "Feature"}
{"geometry": {"coordinates": [-112.598618, 46.598393], "type": "Point"}, "id": "CEEGyeYJ_od2RmMKHAHXiJD4uaE=", "properties": {"@spider": "usps_collection_boxes", "addr:city": "AVON", "addr:country": "US", "addr:full": "102 OLD AVON RD", "addr:postcode": "59713", "addr:state": "MT", "brand": "USPS", "collection_times": "Mo-Fr 14:10; Sa 10:30", "name": "USPS COLLECTION BOX - BLUE BOX", "note": "ON 12/24 AND 12/31, THIS BOX MAY BE COLLECTED AS EARLY AS 12 NOON.", "ref": "5971300000"}, "type": "Feature"}
{"geometry": {"coordinates": [-112.598642, 46.598348], "type": "Point"}, "id": "nw-Zp0VAeC6iVhRNXK_wlLXhKgo=", "properties": {"@spider": "usps_collection_boxes", "addr:city": "AVON", "addr:country": "US", "addr:full": "102 OLD AVON RD", "addr:postcode": "59713", "addr:state": "MT", "brand": "USPS", "collection_times": "Mo-Fr 12:00; Sa 10:30", "name": "USPS COLLECTION BOX - PO LOBBY", "ref": "5971300001"}, "type": "Feature"}
{"geometry": {"coordinates": [-112.5986400216, 46.5983454133], "type": "Point"}, "id": "ZeTZKGvYfZqwBnacE7TOj7GCV24=", "properties": {"@spider": "usps_collection_boxes", "addr:city": "AVON", "addr:country": "US", "addr:full": "102 OLD AVON RD", "addr:postcode": "59713", "addr:state": "MT", "brand": "USPS", "collection_times": "Mo-Fr 11:50", "name": "USPS COLLECTION BOX - PO LOBBY", "ref": "5971300002"}, "type": "Feature"}
{"geometry": {"coordinates": [-112.736136, 46.397232], "type": "Point"}, "id": "lxBu9ZJRd1gV7Jl160MRGQ0AxOA=", "properties": {"@spider": "usps_collection_boxes", "addr:city": "DEER LODGE", "addr:country": "US", "addr:full": "510 MAIN ST", "addr:postcode": "59722", "addr:state": "MT", "brand": "USPS", "collection_times": "Mo-Sa 15:15", "name": "USPS COLLECTION BOX - BLUE BOX", "note": "ON 12/24 AND 12/31, THIS BOX MAY BE COLLECTED AS EARLY AS 12 NOON.", "ref": "5972200005"}, "type": "Feature"}
{"geometry": {"coordinates": [-112.928381, 46.585111], "type": "Point"}, "id": "2oE9aEwPeDyVEzVdtybgJtZ-zyo=", "properties": {"@spider": "usps_collection_boxes", "addr:city": "DEER LODGE", "addr:country": "US", "addr:full": "512 GOLD CREEK RD", "addr:postcode": "59722", "addr:state": "MT", "brand": "USPS", "collection_times": "Mo-Fr 13:10; Sa 11:00", "name": "USPS COLLECTION BOX - BLUE BOX", "note": "ON 12/24 AND 12/31, THIS BOX MAY BE COLLECTED AS EARLY AS 12 NOON.", "ref": "5972200007"}, "type": "Feature"}
{"geometry": {"coordinates": [-112.735314, 46.397761], "type": "Point"}, "id": "q4N1HjrleAxN74sLtaCxCoCUV48=", "properties": {"@spider": "usps_collection_boxes", "addr:city": "DEER LODGE", "addr:country": "US", "addr:full": "510 MAIN ST", "addr:postcode": "59722", "addr:state": "MT", "brand": "USPS", "collection_times": "Mo-Fr 15:15; Sa 13:00", "name": "USPS COLLECTION BOX - PO LOBBY", "note": "ON 12/24 AND 12/31, THIS BOX MAY BE COLLECTED AS EARLY AS 12 NOON.", "ref": "5972200010"}, "type": "Feature"}
{"geometry": {"coordinates": [-112.736133, 46.397234], "type": "Point"}, "id": "EH_zXL3zaEcP_glptBW0BtM73Ks=", "properties": {"@spider": "usps_collection_boxes", "addr:city": "DEER LODGE", "addr:country": "US", "addr:full": "510 MAIN ST", "addr:postcode": "59722", "addr:state": "MT", "brand": "USPS", "collection_times": "Mo-Sa 15:15", "name": "USPS COLLECTION BOX - BLUE BOX", "note": "ON 12/24 AND 12/31, THIS BOX MAY BE COLLECTED AS EARLY AS 12 NOON.", "ref": "5972200011"}, "type": "Feature"}
{"geometry": {"coordinates": [-112.73537971, 46.397341372], "type": "Point"}, "id": "UPx_MYJOxcUJVJZDtyhsX5EGCi8=", "properties": {"@spider": "usps_collection_boxes", "addr:city": "DEER LODGE", "addr:country": "US", "addr:full": "510 MAIN ST", "addr:postcode": "59722", "addr:state": "MT", "brand": "USPS", "collection_times": "Mo-Fr 15:15; Sa 13:00", "name": "USPS COLLECTION BOX - PO LOBBY", "note": "ON 12/24 AND 12/31, THIS BOX MAY BE COLLECTED AS EARLY AS 12 NOON.", "ref": "5972200014"}, "type": "Feature"}
{"geometry": {"coordinates": [-112.642047, 45.207351], "type": "Point"}, "id": "z8e_JAZTWEs6iCFXPTtt9ZuyA1Q=", "properties": {"@spider": "usps_collection_boxes", "addr:city": "DILLON", "addr:country": "US", "addr:full": "1220 S ATLANTIC ST", "addr:postcode": "59725", "addr:state": "MT", "brand": "USPS", "collection_times": "Mo-Sa 14:15", "name": "USPS COLLECTION BOX - BLUE BOX", "note": "ON 12/24 AND 12/31, THIS BOX MAY BE COLLECTED AS EARLY AS 12 NOON.", "ref": "5972500015"}, "type": "Feature"}
{"geometry": {"coordinates": [-113.118978, 45.369998], "type": "Point"}, "id": "njl86Gj-rk3cZmWMM_GtFfXLx3s=", "properties": {"@spider": "usps_collection_boxes", "addr:city": "DILLON", "addr:country": "US", "addr:full": "96 BILLINGS CREEK RD", "addr:postcode": "59725", "addr:state": "MT", "brand": "USPS", "collection_times": "Mo-Sa 10:30", "name": "USPS COLLECTION BOX - BLUE BOX", "ref": "5972500021"}, "type": "Feature"}
{"geometry": {"coordinates": [-112.430515, 46.560871], "type": "Point"}, "id": "2KsGP99yJnYFRgKqY0GXd7Q_d0c=", "properties": {"@spider": "usps_collection_boxes", "addr:city": "ELLISTON", "addr:country": "US", "addr:full": "101 W FRONT ST", "addr:postcode": "59728", "addr:state": "MT", "brand": "USPS", "collection_times": "Mo-Fr 14:00; Sa 11:15", "name": "USPS COLLECTION BOX - BLUE BOX", "note": "ON 12/24 AND 12/31, THIS BOX MAY BE COLLECTED AS EARLY AS 12 NOON.", "ref": "5972800000"}, "type": "Feature"}
{"geometry": {"coordinates": [-112.430257, 46.561177], "type": "Point"}, "id": "L_4PqHpbGCdcXgZkmIJLEOYQ6ME=", "properties": {"@spider": "usps_collection_boxes", "addr:city": "ELLISTON", "addr:country": "US", "addr:full": "101 W FRONT ST", "addr:postcode": "59728", "addr:state": "MT", "brand": "USPS", "collection_times": "Mo-Fr 12:00; Sa 11:15", "name": "USPS COLLECTION BOX - PO LOBBY", "ref": "5972800001"}, "type": "Feature"}
{"geometry": {"coordinates": [-112.430257, 46.561177], "type": "Point"}, "id": "GLtmB6lQORW3qpR_EyoK37g9jII=", "properties": {"@spider": "usps_collection_boxes", "addr:city": "ELLISTON", "addr:country": "US", "addr:full": "101 W FRONT ST", "addr:postcode": "59728", "addr:state": "MT", "brand": "USPS", "collection_times": "Mo-Fr 12:00; Sa 11:15", "name": "USPS COLLECTION BOX - PO LOBBY", "ref": "5972800002"}, "type": "Feature"}
{"geometry": {"coordinates": [-112.430379879, 46.561175082], "type": "Point"}, "id": "Mc2RvSs_m0f_L0d7Ko9UyLtrql8=", "properties": {"@spider": "usps_collection_boxes", "addr:city": "ELLISTON", "addr:country": "US", "addr:full": "101 W FRONT ST", "addr:postcode": "59728", "addr:state": "MT", "brand": "USPS", "collection_times": "Mo-Fr 12:00; Sa 11:15", "name": "USPS COLLECTION BOX - PO LOBBY", "ref": "5972800003"}, "type": "Feature"}
{"geometry": {"coordinates": [-113.40931, 45.367129], "type": "Point"}, "id": "VJwPSuafVbGQglk1UHrbVr5lJcA=", "properties": {"@spider": "usps_collection_boxes", "addr:city": "JACKSON", "addr:country": "US", "addr:full": "1 JARDINE ST", "addr:postcode": "59736", "addr:state": "MT", "brand": "USPS", "collection_times": "Mo-Sa 12:45", "name": "USPS COLLECTION BOX - PO LOBBY", "note": "ON 12/24 AND 12/31, THIS BOX MAY BE COLLECTED AS EARLY AS 12 NOON.", "ref": "5973600000"}, "type": "Feature"}
{"geometry": {"coordinates": [-112.592227, 44.63493], "type": "Point"}, "id": "MXtLiU659O8J06YDG-bP9StEgGo=", "properties": {"@spider": "usps_collection_boxes", "addr:city": "LIMA", "addr:country": "US", "addr:full": "700 PEAT ST", "addr:postcode": "59739", "addr:state": "MT", "brand": "USPS", "collection_times": "Mo-Fr 14:05; Sa 10:45", "name": "USPS COLLECTION BOX - BLUE BOX", "note": "ON 12/24 AND 12/31, THIS BOX MAY BE COLLECTED AS EARLY AS 12 NOON.", "ref": "5973900000"}, "type": "Feature"}
{"geometry": {"coordinates": [-112.592227, 44.63493], "type": "Point"}, "id": "CF0MQVpn3cQLqZ8W7Tc3srPD_Vo=", "properties": {"@spider": "usps_collection_boxes", "addr:city": "LIMA", "addr:country": "US", "addr:full": "700 PEAT ST", "addr:postcode": "59739", "addr:state": "MT", "brand": "USPS", "collection_times": "Mo-Fr 14:05; Sa 10:45", "name": "USPS COLLECTION BOX - PO LOBBY", "note": "ON 12/24 AND 12/31, THIS BOX MAY BE COLLECTED AS EARLY AS 12 NOON.", "ref": "5973900001"}, "type": "Feature"}
{"geometry": {"coordinates": [-112.592227, 44.63493], "type": "Point"}, "id": "c2v6BFTObBA3d7ctD-Z69isj9KQ=", "properties": {"@spider": "usps_collection_boxes", "addr:city": "LIMA", "addr:country": "US", "addr:full": "700 PEAT ST", "addr:postcode": "59739", "addr:state": "MT", "brand": "USPS", "collection_times": "Mo-Fr 14:05; Sa 10:45", "name": "USPS COLLECTION BOX - PO LOBBY", "note": "ON 12/24 AND 12/31, THIS BOX MAY BE COLLECTED AS EARLY AS 12 NOON.", "ref": "5973900002"}, "type": "Feature"}
{"geometry": {"coordinates": [-112.1335090531, 44.5976467359], "type": "Point"}, "id": "oDXiN8sGgMR7b9o4waf0GEkP_Ow=", "properties": {"@spider": "usps_collection_boxes", "addr:city": "LIMA", "addr:country": "US", "addr:full": "PO BOX 206", "addr:postcode": "59739", "addr:state": "MT", "brand": "USPS", "collection_times": "Mo-Sa 14:00", "name": "USPS COLLECTION BOX - BLUE BOX", "note": "ON 12/24 AND 12/31, THIS BOX MAY BE COLLECTED AS EARLY AS 12 NOON.", "ref": "5973900003"}, "type": "Feature"}
{"geometry": {"coordinates": [-112.788993, 46.181275], "type": "Point"}, "id": "gcBy5n7qmKlQJd--ybIhfTpU5s0=", "properties": {"@spider": "usps_collection_boxes", "addr:city": "WARM SPRINGS", "addr:country": "US", "addr:full": "22 GARNET WAY", "addr:postcode": "59756", "addr:state": "MT", "brand": "USPS", "collection_times": "Mo-Sa 15:40", "name": "USPS COLLECTION BOX - BLUE BOX", "note": "ON 12/24 AND 12/31, THIS BOX MAY BE COLLECTED AS EARLY AS 12 NOON.", "ref": "5975600000"}, "type": "Feature"}
{"geometry": {"coordinates": [-112.788898, 46.181223], "type": "Point"}, "id": "h-ynlz4W7yr-M_TCm-5ELWHs2Gw=", "properties": {"@spider": "usps_collection_boxes", "addr:city": "WARM SPRINGS", "addr:country": "US", "addr:full": "22 GARNET WAY", "addr:postcode": "59756", "addr:state": "MT", "brand": "USPS", "collection_times": "Mo-Fr 13:30; Sa 09:15", "name": "USPS COLLECTION BOX - PO LOBBY", "note": "ON 12/24 AND 12/31, THIS BOX MAY BE COLLECTED AS EARLY AS 12 NOON.", "ref": "5975600001"}, "type": "Feature"}
{"geometry": {"coordinates": [-112.788898, 46.181223], "type": "Point"}, "id": "f3mE9T3qTojMQQIxcIC0AzZOISQ=", "properties": {"@spider": "usps_collection_boxes", "addr:city": "WARM SPRINGS", "addr:country": "US", "addr:full": "22 GARNET WAY", "addr:postcode": "59756", "addr:state": "MT", "brand": "USPS", "collection_times": "Mo-Fr 13:30; Sa 09:15", "name": "USPS COLLECTION BOX - PO LOBBY", "note": "ON 12/24 AND 12/31, THIS BOX MAY BE COLLECTED AS EARLY AS 12 NOON.", "ref": "5975600002"}, "type": "Feature"}
{"geometry": {"coordinates": [-113.450308, 45.612986], "type": "Point"}, "id": "jG0M99dDfgonW7iqARSIjFqqklA=", "properties": {"@spider": "usps_collection_boxes", "addr:city": "WISDOM", "addr:country": "US", "addr:full": "200 MAIN ST", "addr:postcode": "59761", "addr:state": "MT", "brand": "USPS", "collection_times": "Mo-Sa 11:45", "name": "USPS COLLECTION BOX - BLUE BOX", "ref": "5976100000"}, "type": "Feature"}
{"geometry": {"coordinates": [-113.450308, 45.612986], "type": "Point"}, "id": "yw8YgY3yBbEnnLpHg0EikVbrx7s=", "properties": {"@spider": "usps_collection_boxes", "addr:city": "WISDOM", "addr:country": "US", "addr:full": "200 MAIN ST", "addr:postcode": "59761", "addr:state": "MT", "brand": "USPS", "collection_times": "Mo-Sa 11:45", "name": "USPS COLLECTION BOX - PO LOBBY", "ref": "5976100001"}, "type": "Feature"}
{"geometry": {"coordinates": [-112.949439, 45.79126], "type": "Point"}, "id": "h4GLS0S4Vxsmc5c7J1LSJzl-OSo=", "properties": {"@spider": "usps_collection_boxes", "addr:city": "WISE RIVER", "addr:country": "US", "addr:full": "65209 MT HIGHWAY 43", "addr:postcode": "59762", "addr:state": "MT", "brand": "USPS", "collection_times": "Mo-Sa 09:00", "name": "USPS COLLECTION BOX - BLUE BOX", "ref": "5976200000"}, "type": "Feature"}
{"geometry": {"coordinates": [-112.949523, 45.79122], "type": "Point"}, "id": "FHnSALBzujxv28mhqqqm6ksOdJA=", "properties": {"@spider": "usps_collection_boxes", "addr:city": "WISE RIVER", "addr:country": "US", "addr:full": "65209 MT HIGHWAY 43", "addr:postcode": "59762", "addr:state": "MT", "brand": "USPS", "collection_times": "Mo-Sa 09:00", "name": "USPS COLLECTION BOX - PO LOBBY", "ref": "5976200001"}, "type": "Feature"}
