{"geometry": {"coordinates": [-114.124329, 45.930261], "type": "Point"}, "id": "fIVFSafelC5jHWdoxm4h0OM_t-4=", "properties": {"@spider": "usps_collection_boxes", "addr:city": "CONNER", "addr:country": "US", "addr:full": "157 CONNER CUTOFF RD", "addr:postcode": "59827", "addr:state": "MT", "brand": "USPS", "collection_times": "Mo-Fr 15:20; Sa 10:00", "name": "USPS COLLECTION BOX - BLUE BOX", "note": "ON 12/24 AND 12/31, THIS BOX MAY BE COLLECTED AS EARLY AS 12 NOON.", "ref": "5982700000"}, "type": "Feature"}
{"geometry": {"coordinates": [-114.124232, 45.930612], "type": "Point"}, "id": "Ddw29Xzy-H97PMEF3qQYPdnTD6s=", "properties": {"@spider": "usps_collection_boxes", "addr:city": "CONNER", "addr:country": "US", "addr:full": "157 CONNER CUTOFF RD", "addr:postcode": "59827", "addr:state": "MT", "brand": "USPS", "collection_times": "Mo-Fr 13:50; Sa 10:00", "name": "USPS COLLECTION BOX - PO LOBBY", "note": "ON 12/24 AND 12/31, THIS BOX MAY BE COLLECTED AS EARLY AS 12 NOON.", "ref": "5982700001"}, "type": "Feature"}
{"geometry": {"coordinates": [-114.124232, 45.930612], "type": "Point"}, "id": "1O0MZdB_y1td8TPwYBQioF6QsVI=", "properties": {"@spider": "usps_collection_boxes", "addr:city": "CONNER", "addr:country": "US", "addr:full": "157 CONNER CUTOFF RD", "addr:postcode": "59827", "addr:state": "MT", "brand": "USPS", "collection_times": "Mo-Fr 13:50; Sa 10:00", "name": "USPS COLLECTION BOX - PO LOBBY", "note": "ON 12/24 AND 12/31, THIS BOX MAY BE COLLECTED AS EARLY AS 12 NOON.", "ref": "5982700002"}, "type": "Feature"}
{"geometry": {"coordinates": [-114.124624554, 45.930564485], "type": "Point"}, "id": "cvWcMgHv9hzZpuwS09FjuCbAsuc=", "properties": {"@spider": "usps_collection_boxes", "addr:city": "CONNER", "addr:country": "US", "addr:full": "157 CONNER CUTOFF RD", "addr:postcode": "59827", "addr:state": "MT", "brand": "USPS", "collection_times": "Mo-Fr 13:50; Sa 10:00", "name": "USPS COLLECTION BOX - PO LOBBY", "note": "ON 12/24 AND 12/31, THIS BOX MAY BE COLLECTED AS EARLY AS 12 NOON.", "ref": "5982700003"}, "type": "Feature"}
{"geometry": {"coordinates": [-114.115508, 46.31448], "type": "Point"}, "id": "j6-ek7B5cMhe6RnkVlUciy8gl3w=", "properties": {"@spider": "usps_collection_boxes", "addr:city": "CORVALLIS", "addr:country": "US", "addr:full": "1021 MAIN ST", "addr:postcode": "59828", "addr:state": "MT", "brand": "USPS", "collection_times": "Mo-Fr 16:15; Sa 16:30", "name": "USPS COLLECTION BOX - BLUE BOX", "note": "ON 12/24 AND 12/31, THIS BOX MAY BE COLLECTED AS EARLY AS 12 NOON.", "ref": "5982800000"}, "type": "Feature"}
{"geometry": {"coordinates": [-114.11547, 46.31439], "type": "Point"}, "id": "O6xiLVprzMIm2iyWaAx2nohBdVU=", "properties": {"@spider": "usps_collection_boxes", "addr:city": "CORVALLIS", "addr:country": "US", "addr:full": "1021 MAIN ST", "addr:postcode": "59828", "addr:state": "MT", "brand": "USPS", "collection_times": "Mo-Fr 16:45; Sa 10:00", "name": "USPS COLLECTION BOX - PO LOBBY", "note": "ON 12/24 AND 12/31, THIS BOX MAY BE COLLECTED AS EARLY AS 12 NOON.", "ref": "5982800002"}, "type": "Feature"}
{"geometry": {"coordinates": [-114.11547, 46.31439], "type": "Point"}, "id": "CjNM4KWoeNBEIaONMZHP8oEAU5k=", "properties": {"@spider": "usps_collection_boxes", "addr:city": "CORVALLIS", "addr:country": "US", "addr:full": "1021 MAIN ST", "addr:postcode": "59828", "addr:state": "MT", "brand": "USPS", "collection_times": "Mo-Fr 16:45; Sa 10:00", "name": "USPS COLLECTION BOX - PO LOBBY", "note": "ON 12/24 AND 12/31, THIS BOX MAY BE COLLECTED AS EARLY AS 12 NOON.", "ref": "5982800003"}, "type": "Feature"}
{"geometry": {"coordinates": [-114.11547, 46.31439], "type": "Point"}, "id": "5fOdrFqwRpwEsHJfxEUpFZAgmjo=", "properties": {"@spider": "usps_collection_boxes", "addr:city": "CORVALLIS", "addr:country": "US", "addr:full": "1021 MAIN ST", "addr:postcode": "59828", "addr:state": "MT", "brand": "USPS", "collection_times": "Mo-Fr 16:15; Sa 16:30", "name": "USPS COLLECTION BOX - BLUE BOX", "note": "ON 12/24 AND 12/31, THIS BOX MAY BE COLLECTED AS EARLY AS 12 NOON.", "ref": "5982800004"}, "type": "Feature"}
{"geometry": {"coordinates": [-114.115511297, 46.314639251], "type": "Point"}, "id": "qx-SfndnkNBY9wm3IkZVldb4oUo=", "properties": {"@spider": "usps_collection_boxes", "addr:city": "CORVALLIS", "addr:country": "US", "addr:full": "1021 MAIN ST", "addr:postcode": "59828", "addr:state": "MT", "brand": "USPS", "collection_times": "Mo-Fr 16:45; Sa 10:00", "name": "USPS COLLECTION BOX - PO LOBBY", "note": "ON 12/24 AND 12/31, THIS BOX MAY BE COLLECTED AS EARLY AS 12 NOON.", "ref": "5982800005"}, "type": "Feature"}
{"geometry": {"coordinates": [-114.178063, 46.023456], "type": "Point"}, "id": "YqM_wfZ26-Lfd5pR_DUOlrYtWbA=", "properties": {"@spider": "usps_collection_boxes", "addr:city": "DARBY", "addr:country": "US", "addr:full": "407 N MAIN ST", "addr:postcode": "59829", "addr:state": "MT", "brand": "USPS", "collection_times": "Mo-Sa 16:10", "name": "USPS COLLECTION BOX - BLUE BOX", "note": "ON 12/24 AND 12/31, THIS BOX MAY BE COLLECTED AS EARLY AS 12 NOON.", "ref": "5982900000"}, "type": "Feature"}
{"geometry": {"coordinates": [-114.17773, 46.028517], "type": "Point"}, "id": "U8F4Rsq7M-zhdULGvMUNQAcZmEo=", "properties": {"@spider": "usps_collection_boxes", "addr:city": "DARBY", "addr:country": "US", "addr:full": "801 N MAIN ST", "addr:postcode": "59829", "addr:state": "MT", "brand": "USPS", "collection_times": "Mo-Sa 16:10", "name": "USPS COLLECTION BOX - BLUE BOX", "note": "ON 12/24 AND 12/31, THIS BOX MAY BE COLLECTED AS EARLY AS 12 NOON.", "ref": "5982900001"}, "type": "Feature"}
{"geometry": {"coordinates": [-114.17804, 46.023369], "type": "Point"}, "id": "sjIN427Io8l8_YX8InfAhsNe4CU=", "properties": {"@spider": "usps_collection_boxes", "addr:city": "DARBY", "addr:country": "US", "addr:full": "407 N MAIN ST", "addr:postcode": "59829", "addr:state": "MT", "brand": "USPS", "collection_times": "Mo-Fr 16:10; Sa 12:30", "name": "USPS COLLECTION BOX - PO LOBBY", "note": "ON 12/24 AND 12/31, THIS BOX MAY BE COLLECTED AS EARLY AS 12 NOON.", "ref": "5982900003"}, "type": "Feature"}
{"geometry": {"coordinates": [-114.17804, 46.023369], "type": "Point"}, "id": "Sfk3md5r7TtSg9gbZkJZUFx5P4w=", "properties": {"@spider": "usps_collection_boxes", "addr:city": "DARBY", "addr:country": "US", "addr:full": "407 N MAIN ST", "addr:postcode": "59829", "addr:state": "MT", "brand": "USPS", "collection_times": "Mo-Fr 16:10; Sa 12:30", "name": "USPS COLLECTION BOX - PO LOBBY", "note": "ON 12/24 AND 12/31, THIS BOX MAY BE COLLECTED AS EARLY AS 12 NOON.", "ref": "5982900004"}, "type": "Feature"}
{"geometry": {"coordinates": [-115.347199, 47.375229], "type": "Point"}, "id": "QuPg72h_5--PpEHa8Jrx3LYNzuA=", "properties": {"@spider": "usps_collection_boxes", "addr:city": "DEBORGIA", "addr:country": "US", "addr:full": "132 DEBORGIA HAUGAN FRONTAGE RD", "addr:postcode": "59830", "addr:state": "MT", "brand": "USPS", "collection_times": "Mo-Fr 15:45; Sa 13:40", "name": "USPS COLLECTION BOX - BLUE BOX", "note": "ON 12/24 AND 12/31, THIS BOX MAY BE COLLECTED AS EARLY AS 12 NOON.", "ref": "5983000000"}, "type": "Feature"}
{"geometry": {"coordinates": [-114.08219, 46.631757], "type": "Point"}, "id": "JN2AJrlu3TmRSlfTZHmnXmIh2Ak=", "properties": {"@spider": "usps_collection_boxes", "addr:city": "FLORENCE", "addr:country": "US", "addr:full": "268 HOLLOWAY LN", "addr:postcode": "59833", "addr:state": "MT", "brand": "USPS", "collection_times": "Mo-Sa 16:45", "name": "USPS COLLECTION BOX - BLUE BOX", "note": "ON 12/24 AND 12/31, THIS BOX MAY BE COLLECTED AS EARLY AS 12 NOON.", "ref": "5983300001"}, "type": "Feature"}
{"geometry": {"coordinates": [-114.08219, 46.631757], "type": "Point"}, "id": "ZZY5eQO0dojywDc7_3zPiSp9fFc=", "properties": {"@spider": "usps_collection_boxes", "addr:city": "FLORENCE", "addr:country": "US", "addr:full": "268 HOLLOWAY LN", "addr:postcode": "59833", "addr:state": "MT", "brand": "USPS", "collection_times": "Mo-Fr 16:45; Sa 11:30", "name": "USPS COLLECTION BOX - PO LOBBY", "note": "ON 12/24 AND 12/31, THIS BOX MAY BE COLLECTED AS EARLY AS 12 NOON.", "ref": "5983300002"}, "type": "Feature"}
{"geometry": {"coordinates": [-114.08219, 46.631757], "type": "Point"}, "id": "XbnKlL0qt_q3ntBx1eS4JHZrRzE=", "properties": {"@spider": "usps_collection_boxes", "addr:city": "FLORENCE", "addr:country": "US", "addr:full": "268 HOLLOWAY LN", "addr:postcode": "59833", "addr:state": "MT", "brand": "USPS", "collection_times": "Mo-Fr 16:45; Sa 11:30", "name": "USPS COLLECTION BOX - PO LOBBY", "note": "ON 12/24 AND 12/31, THIS BOX MAY BE COLLECTED AS EARLY AS 12 NOON.", "ref": "5983300003"}, "type": "Feature"}
{"geometry": {"coordinates": [-114.08219, 46.631757], "type": "Point"}, "id": "yLnqzN2JEwOYBHTEVFShTIkrxIo=", "properties": {"@spider": "usps_collection_boxes", "addr:city": "FLORENCE", "addr:country": "US", "addr:full": "268 HOLLOWAY LN", "addr:postcode": "59833", "addr:state": "MT", "brand": "USPS", "collection_times": "Mo-Fr 16:45; Sa 11:30", "name": "USPS COLLECTION BOX - PO LOBBY", "note": "ON 12/24 AND 12/31, THIS BOX MAY BE COLLECTED AS EARLY AS 12 NOON.", "ref": "5983300004"}, "type": "Feature"}
{"geometry": {"coordinates": [-114.08219, 46.631757], "type": "Point"}, "id": "dMfWA90RizPh4n1OQr6DOg8w9bs=", "properties": {"@spider": "usps_collection_boxes", "addr:city": "FLORENCE", "addr:country": "US", "addr:full": "268 HOLLOWAY LN", "addr:postcode": "59833", "addr:state": "MT", "brand": "USPS", "collection_times": "Mo-Fr 16:45; Sa 11:30", "name": "USPS COLLECTION BOX - PO LOBBY", "note": "ON 12/24 AND 12/31, THIS BOX MAY BE COLLECTED AS EARLY AS 12 NOON.", "ref": "5983300005"}, "type": "Feature"}
{"geometry": {"coordinates": [-114.082181277, 46.631746464], "type": "Point"}, "id": "Jy1Dfr7xvs_rscyCpePGiO_T5tw=", "properties": {"@spider": "usps_collection_boxes", "addr:city": "FLORENCE", "addr:country": "US", "addr:full": "268 HOLLOWAY LN", "addr:postcode": "59833", "addr:state": "MT", "brand": "USPS", "collection_times": "Mo-Fr 16:45; Sa 11:30", "name": "USPS COLLECTION BOX - PO LOBBY", "note": "ON 12/24 AND 12/31, THIS BOX MAY BE COLLECTED AS EARLY AS 12 NOON.", "ref": "5983300006"}, "type": "Feature"}
{"geometry": {"coordinates": [-114.155043, 46.2403], "type": "Point"}, "id": "IOkObhfzrlqsZL1dfIX4aVIlegA=", "properties": {"@spider": "usps_collection_boxes", "addr:city": "HAMILTON", "addr:country": "US", "addr:full": "711 S 1ST ST", "addr:postcode": "59840", "addr:state": "MT", "brand": "USPS", "collection_times": "Mo-Sa 15:30", "name": "USPS COLLECTION BOX - BLUE BOX", "note": "ON 12/24 AND 12/31, THIS BOX MAY BE COLLECTED AS EARLY AS 12 NOON.", "ref": "5984000001"}, "type": "Feature"}
{"geometry": {"coordinates": [-114.160085, 46.247376], "type": "Point"}, "id": "g9m6TUo-zNP8pudwcqTxmYM5d2U=", "properties": {"@spider": "usps_collection_boxes", "addr:city": "HAMILTON", "addr:country": "US", "addr:full": "150 N 4TH ST", "addr:postcode": "59840", "addr:state": "MT", "brand": "USPS", "collection_times": "Mo-Sa 16:30", "name": "USPS COLLECTION BOX - BLUE BOX", "note": "ON 12/24 AND 12/31, THIS BOX MAY BE COLLECTED AS EARLY AS 12 NOON.", "ref": "5984000005"}, "type": "Feature"}
{"geometry": {"coordinates": [-114.159686, 46.248081], "type": "Point"}, "id": "dOUC6v_MVcLJJEY0Bf_t_xwfHf4=", "properties": {"@spider": "usps_collection_boxes", "addr:city": "HAMILTON", "addr:country": "US", "addr:full": "150 N 4TH ST", "addr:postcode": "59840", "addr:state": "MT", "brand": "USPS", "collection_times": "Mo-Sa 16:30", "name": "USPS COLLECTION BOX - BLUE BOX", "note": "ON 12/24 AND 12/31, THIS BOX MAY BE COLLECTED AS EARLY AS 12 NOON.", "ref": "5984000012"}, "type": "Feature"}
{"geometry": {"coordinates": [-114.154592, 46.241551], "type": "Point"}, "id": "4j9yGqdjsIKxhOiYQeuV3N_OZqw=", "properties": {"@spider": "usps_collection_boxes", "addr:city": "HAMILTON", "addr:country": "US", "addr:full": "600 S 1ST ST", "addr:postcode": "59840", "addr:state": "MT", "brand": "USPS", "collection_times": "Mo-Sa 15:30", "name": "USPS COLLECTION BOX - BLUE BOX", "note": "ON 12/24 AND 12/31, THIS BOX MAY BE COLLECTED AS EARLY AS 12 NOON.", "ref": "5984000016"}, "type": "Feature"}
{"geometry": {"coordinates": [-114.160102, 46.24738], "type": "Point"}, "id": "zAPYgPYMs2VDY6wyOIZ29sKM3DY=", "properties": {"@spider": "usps_collection_boxes", "addr:city": "HAMILTON", "addr:country": "US", "addr:full": "150 N 4TH ST", "addr:postcode": "59840", "addr:state": "MT", "brand": "USPS", "collection_times": "Mo-Sa 16:30", "name": "USPS COLLECTION BOX - BLUE BOX", "note": "ON 12/24 AND 12/31, THIS BOX MAY BE COLLECTED AS EARLY AS 12 NOON.", "ref": "5984000017"}, "type": "Feature"}
{"geometry": {"coordinates": [-114.158418, 46.272765], "type": "Point"}, "id": "LuD3br8dMwIscXMNjiROkv6DYeg=", "properties": {"@spider": "usps_collection_boxes", "addr:city": "HAMILTON", "addr:country": "US", "addr:full": "1987 N 1ST ST", "addr:postcode": "59840", "addr:state": "MT", "brand": "USPS", "collection_times": "Mo-Sa 15:45", "name": "USPS COLLECTION BOX - BLUE BOX", "note": "ON 12/24 AND 12/31, THIS BOX MAY BE COLLECTED AS EARLY AS 12 NOON.", "ref": "5984000020"}, "type": "Feature"}
{"geometry": {"coordinates": [-114.159851, 46.247511], "type": "Point"}, "id": "CGW_Ax6kSLBojQWy8R95zBWTTgw=", "properties": {"@spider": "usps_collection_boxes", "addr:city": "HAMILTON", "addr:country": "US", "addr:full": "150 N 4TH ST", "addr:postcode": "59840", "addr:state": "MT", "brand": "USPS", "collection_times": "Mo-Sa 16:30", "name": "USPS COLLECTION BOX - PO LOBBY", "note": "ON 12/24 AND 12/31, THIS BOX MAY BE COLLECTED AS EARLY AS 12 NOON.", "ref": "5984000021"}, "type": "Feature"}
{"geometry": {"coordinates": [-114.159871, 46.247511], "type": "Point"}, "id": "zc2sJ4bMzP8qhdEQnhoz_B0RCjo=", "properties": {"@spider": "usps_collection_boxes", "addr:city": "HAMILTON", "addr:country": "US", "addr:full": "150 N 4TH ST", "addr:postcode": "59840", "addr:state": "MT", "brand": "USPS", "collection_times": "Mo-Sa 16:30", "name": "USPS COLLECTION BOX - PO LOBBY", "note": "ON 12/24 AND 12/31, THIS BOX MAY BE COLLECTED AS EARLY AS 12 NOON.", "ref": "5984000022"}, "type": "Feature"}
{"geometry": {"coordinates": [-114.159867, 46.247538], "type": "Point"}, "id": "Hn58GXnEQF1RG3JtOqse2bxYnhg=", "properties": {"@spider": "usps_collection_boxes", "addr:city": "HAMILTON", "addr:country": "US", "addr:full": "150 N 4TH ST", "addr:postcode": "59840", "addr:state": "MT", "brand": "USPS", "collection_times": "Mo-Sa 16:30", "name": "USPS COLLECTION BOX - PO LOBBY", "note": "ON 12/24 AND 12/31, THIS BOX MAY BE COLLECTED AS EARLY AS 12 NOON.", "ref": "5984000023"}, "type": "Feature"}
{"geometry": {"coordinates": [-114.157428, 46.26938], "type": "Point"}, "id": "rwgv4QSp7szJuVWG1PVIq8EFowE=", "properties": {"@spider": "usps_collection_boxes", "addr:city": "HAMILTON", "addr:country": "US", "addr:full": "1720 N 1ST ST", "addr:postcode": "59840", "addr:state": "MT", "brand": "USPS", "collection_times": "Mo-Sa 15:45", "name": "USPS COLLECTION BOX - BLUE BOX", "note": "ON 12/24 AND 12/31, THIS BOX MAY BE COLLECTED AS EARLY AS 12 NOON.", "ref": "5984000024"}, "type": "Feature"}
{"geometry": {"coordinates": [-114.157493, 46.244844], "type": "Point"}, "id": "mf8xO2RtoT2D6bfyD4Cw0sCHhRc=", "properties": {"@spider": "usps_collection_boxes", "addr:city": "HAMILTON", "addr:country": "US", "addr:full": "205 BEDFORD ST", "addr:postcode": "59840", "addr:state": "MT", "brand": "USPS", "collection_times": "Mo-Sa 15:30", "name": "USPS COLLECTION BOX - BLUE BOX", "note": "ON 12/24 AND 12/31, THIS BOX MAY BE COLLECTED AS EARLY AS 12 NOON.", "ref": "5984000025"}, "type": "Feature"}
{"geometry": {"coordinates": [-114.15986, 46.247554], "type": "Point"}, "id": "nkqu91NuauxCTMxUFq62xWjclkY=", "properties": {"@spider": "usps_collection_boxes", "addr:city": "HAMILTON", "addr:country": "US", "addr:full": "150 N 4TH ST", "addr:postcode": "59840", "addr:state": "MT", "brand": "USPS", "collection_times": "Mo-Sa 16:30", "name": "USPS COLLECTION BOX - PO LOBBY", "note": "ON 12/24 AND 12/31, THIS BOX MAY BE COLLECTED AS EARLY AS 12 NOON.", "ref": "5984000026"}, "type": "Feature"}
{"geometry": {"coordinates": [-114.159852, 46.247533], "type": "Point"}, "id": "bxY7r4-5t2oWbr1Pmv2D5oiLXFM=", "properties": {"@spider": "usps_collection_boxes", "addr:city": "HAMILTON", "addr:country": "US", "addr:full": "150 N 4TH ST", "addr:postcode": "59840", "addr:state": "MT", "brand": "USPS", "collection_times": "Mo-Sa 16:30", "name": "USPS COLLECTION BOX - PO LOBBY", "note": "ON 12/24 AND 12/31, THIS BOX MAY BE COLLECTED AS EARLY AS 12 NOON.", "ref": "5984000027"}, "type": "Feature"}
{"geometry": {"coordinates": [-114.159743, 46.247392], "type": "Point"}, "id": "vn6tKOIZF05c-LTyxe_gUfPhV04=", "properties": {"@spider": "usps_collection_boxes", "addr:city": "HAMILTON", "addr:country": "US", "addr:full": "150 N 4TH ST", "addr:postcode": "59840", "addr:state": "MT", "brand": "USPS", "collection_times": "Mo-Sa 16:30", "name": "USPS COLLECTION BOX - PO LOBBY", "note": "ON 12/24 AND 12/31, THIS BOX MAY BE COLLECTED AS EARLY AS 12 NOON.", "ref": "5984000028"}, "type": "Feature"}
{"geometry": {"coordinates": [-114.15969, 46.248074], "type": "Point"}, "id": "oGCnxAsveRSSZhIyVNxCNI4lrVc=", "properties": {"@spider": "usps_collection_boxes", "addr:city": "HAMILTON", "addr:country": "US", "addr:full": "150 N 4TH ST", "addr:postcode": "59840", "addr:state": "MT", "brand": "USPS", "collection_times": "Mo-Sa 16:30", "name": "USPS COLLECTION BOX - BLUE BOX", "note": "ON 12/24 AND 12/31, THIS BOX MAY BE COLLECTED AS EARLY AS 12 NOON.", "ref": "5984000029"}, "type": "Feature"}
{"geometry": {"coordinates": [-114.218116, 46.327635], "type": "Point"}, "id": "I6Q0uusFBnJSxniOBd_2n2yQ9R8=", "properties": {"@spider": "usps_collection_boxes", "addr:city": "HAMILTON", "addr:country": "US", "addr:full": "25 E 16TH ST", "addr:postcode": "59840", "addr:state": "MT", "brand": "USPS", "collection_times": "Mo-Sa 10:00", "name": "USPS COLLECTION BOX - BLUE BOX", "ref": "5984000031"}, "type": "Feature"}
{"geometry": {"coordinates": [-114.158518, 46.262705], "type": "Point"}, "id": "CM3r_6CeRuKK_g14hUu2S9fxvRE=", "properties": {"@spider": "usps_collection_boxes", "addr:city": "HAMILTON", "addr:country": "US", "addr:full": "1313 N 1ST ST", "addr:postcode": "59840", "addr:state": "MT", "brand": "USPS", "collection_times": "Mo-Sa 15:45", "name": "USPS COLLECTION BOX - BLUE BOX", "note": "ON 12/24 AND 12/31, THIS BOX MAY BE COLLECTED AS EARLY AS 12 NOON.", "ref": "5984000033"}, "type": "Feature"}
{"geometry": {"coordinates": [-114.160092378, 46.247123913], "type": "Point"}, "id": "OKNbSBuClZ5caNHtdp7EQSJY9qE=", "properties": {"@spider": "usps_collection_boxes", "addr:city": "HAMILTON", "addr:country": "US", "addr:full": "150 N 4TH ST", "addr:postcode": "59840", "addr:state": "MT", "brand": "USPS", "collection_times": "Mo-Sa 16:30", "name": "USPS COLLECTION BOX - PO LOBBY", "note": "ON 12/24 AND 12/31, THIS BOX MAY BE COLLECTED AS EARLY AS 12 NOON.", "ref": "5984000035"}, "type": "Feature"}
{"geometry": {"coordinates": [-115.963337, 48.059968], "type": "Point"}, "id": "V4lb2oHdcZFHUxs4pPkhj1X0UJk=", "properties": {"@spider": "usps_collection_boxes", "addr:city": "HERON", "addr:country": "US", "addr:full": "128 RAILROAD AVE", "addr:postcode": "59844", "addr:state": "MT", "brand": "USPS", "collection_times": "Mo-Fr 14:15; Sa 12:00", "name": "USPS COLLECTION BOX - BLUE BOX", "note": "ON 12/24 AND 12/31, THIS BOX MAY BE COLLECTED AS EARLY AS 12 NOON.", "ref": "5984400000"}, "type": "Feature"}
{"geometry": {"coordinates": [-115.963271, 48.059976], "type": "Point"}, "id": "8UZvzCUL_I2XKnULRS1p0LRjGYE=", "properties": {"@spider": "usps_collection_boxes", "addr:city": "HERON", "addr:country": "US", "addr:full": "128 RAILROAD AVE", "addr:postcode": "59844", "addr:state": "MT", "brand": "USPS", "collection_times": "Mo-Fr 14:30; Sa 12:00", "name": "USPS COLLECTION BOX - PO LOBBY", "note": "ON 12/24 AND 12/31, THIS BOX MAY BE COLLECTED AS EARLY AS 12 NOON.", "ref": "5984400001"}, "type": "Feature"}
{"geometry": {"coordinates": [-115.963271, 48.059976], "type": "Point"}, "id": "3sHnmtIvPTKtH6ExWY2jz8Owz2g=", "properties": {"@spider": "usps_collection_boxes", "addr:city": "HERON", "addr:country": "US", "addr:full": "128 RAILROAD AVE", "addr:postcode": "59844", "addr:state": "MT", "brand": "USPS", "collection_times": "Mo-Fr 14:30; Sa 12:00", "name": "USPS COLLECTION BOX - PO LOBBY", "note": "ON 12/24 AND 12/31, THIS BOX MAY BE COLLECTED AS EARLY AS 12 NOON.", "ref": "5984400002"}, "type": "Feature"}
{"geometry": {"coordinates": [-115.9628105203, 48.059879199], "type": "Point"}, "id": "71Zx0M0vkOIO7Z_Qmz3gGw2LTxs=", "properties": {"@spider": "usps_collection_boxes", "addr:city": "HERON", "addr:country": "US", "addr:full": "128 RAILROAD AVE", "addr:postcode": "59844", "addr:state": "MT", "brand": "USPS", "collection_times": "Mo-Fr 14:30; Sa 12:00", "name": "USPS COLLECTION BOX - PO LOBBY", "note": "ON 12/24 AND 12/31, THIS BOX MAY BE COLLECTED AS EARLY AS 12 NOON.", "ref": "5984400003"}, "type": "Feature"}
{"geometry": {"coordinates": [-114.668881, 47.609074], "type": "Point"}, "id": "RKQqh_y5-10XwrRnD0lded1Nf3k=", "properties": {"@spider": "usps_collection_boxes", "addr:city": "HOT SPRINGS", "addr:country": "US", "addr:full": "111 SPRING ST", "addr:postcode": "59845", "addr:state": "MT", "brand": "USPS", "collection_times": "Mo-Fr 15:45; Sa 12:00", "name": "USPS COLLECTION BOX - BLUE BOX", "note": "ON 12/24 AND 12/31, THIS BOX MAY BE COLLECTED AS EARLY AS 12 NOON.", "ref": "5984500000"}, "type": "Feature"}
{"geometry": {"coordinates": [-114.668841, 47.608988], "type": "Point"}, "id": "V59eBTDpcS9CpUZrfGbrEgbGou8=", "properties": {"@spider": "usps_collection_boxes", "addr:city": "HOT SPRINGS", "addr:country": "US", "addr:full": "111 SPRING ST", "addr:postcode": "59845", "addr:state": "MT", "brand": "USPS", "collection_times": "Mo-Fr 15:45; Sa 12:00", "name": "USPS COLLECTION BOX - PO LOBBY", "note": "ON 12/24 AND 12/31, THIS BOX MAY BE COLLECTED AS EARLY AS 12 NOON.", "ref": "5984500002"}, "type": "Feature"}
{"geometry": {"coordinates": [-114.668841, 47.608988], "type": "Point"}, "id": "wCK3ETSiKMsCCMtN5F58RQGfyuU=", "properties": {"@spider": "usps_collection_boxes", "addr:city": "HOT SPRINGS", "addr:country": "US", "addr:full": "111 SPRING ST", "addr:postcode": "59845", "addr:state": "MT", "brand": "USPS", "collection_times": "Mo-Fr 15:45; Sa 12:00", "name": "USPS COLLECTION BOX - PO LOBBY", "note": "ON 12/24 AND 12/31, THIS BOX MAY BE COLLECTED AS EARLY AS 12 NOON.", "ref": "5984500003"}, "type": "Feature"}
{"geometry": {"coordinates": [-114.668841, 47.608988], "type": "Point"}, "id": "gUveuTbLkZ7RknHkk-cMuc4A8NQ=", "properties": {"@spider": "usps_collection_boxes", "addr:city": "HOT SPRINGS", "addr:country": "US", "addr:full": "111 SPRING ST", "addr:postcode": "59845", "addr:state": "MT", "brand": "USPS", "collection_times": "Mo-Fr 15:45; Sa 12:00", "name": "USPS COLLECTION BOX - PO LOBBY", "note": "ON 12/24 AND 12/31, THIS BOX MAY BE COLLECTED AS EARLY AS 12 NOON.", "ref": "5984500004"}, "type": "Feature"}
{"geometry": {"coordinates": [-114.668841, 47.608988], "type": "Point"}, "id": "Bc0672lXQJ5mNB-HP9mVQHwm5NQ=", "properties": {"@spider": "usps_collection_boxes", "addr:city": "HOT SPRINGS", "addr:country": "US", "addr:full": "111 SPRING ST", "addr:postcode": "59845", "addr:state": "MT", "brand": "USPS", "collection_times": "Mo-Fr 15:45; Sa 12:00", "name": "USPS COLLECTION BOX - PO LOBBY", "note": "ON 12/24 AND 12/31, THIS BOX MAY BE COLLECTED AS EARLY AS 12 NOON.", "ref": "5984500005"}, "type": "Feature"}
{"geometry": {"coordinates": [-114.081222, 46.758319], "type": "Point"}, "id": "S6Ry8daGvNmXu7PqS80_9-fCgTc=", "properties": {"@spider": "usps_collection_boxes", "addr:city": "LOLO", "addr:country": "US", "addr:full": "11815 LEWIS CLARK DR", "addr:postcode": "59847", "addr:state": "MT", "brand": "USPS", "collection_times": "Mo-Fr 17:00; Sa 18:00", "name": "USPS COLLECTION BOX - BLUE BOX", "note": "ON 12/24 AND 12/31, THIS BOX MAY BE COLLECTED AS EARLY AS 12 NOON.", "ref": "5984700000"}, "type": "Feature"}
{"geometry": {"coordinates": [-114.080914, 46.763376], "type": "Point"}, "id": "A14VV_H8WMeDdicOCJIPaEh1H04=", "properties": {"@spider": "usps_collection_boxes", "addr:city": "LOLO", "addr:country": "US", "addr:full": "11350 US HIGHWAY 93 S", "addr:postcode": "59847", "addr:state": "MT", "brand": "USPS", "collection_times": "Mo-Sa 18:00", "name": "USPS COLLECTION BOX - BLUE BOX", "note": "ON 12/24 AND 12/31, THIS BOX MAY BE COLLECTED AS EARLY AS 12 NOON.", "ref": "5984700001"}, "type": "Feature"}
{"geometry": {"coordinates": [-114.081222, 46.758319], "type": "Point"}, "id": "T7OQirByJBa-3XE4ZrUj3pxovFk=", "properties": {"@spider": "usps_collection_boxes", "addr:city": "LOLO", "addr:country": "US", "addr:full": "11815 LEWIS CLARK DR", "addr:postcode": "59847", "addr:state": "MT", "brand": "USPS", "collection_times": "Mo-Fr 17:00; Sa 10:00", "name": "USPS COLLECTION BOX - PO LOBBY", "note": "ON 12/24 AND 12/31, THIS BOX MAY BE COLLECTED AS EARLY AS 12 NOON.", "ref": "5984700003"}, "type": "Feature"}
{"geometry": {"coordinates": [-114.081222, 46.758319], "type": "Point"}, "id": "Zo97LFcBKLL2T4hbQsdgclvtMI8=", "properties": {"@spider": "usps_collection_boxes", "addr:city": "LOLO", "addr:country": "US", "addr:full": "11815 LEWIS CLARK DR", "addr:postcode": "59847", "addr:state": "MT", "brand": "USPS", "collection_times": "Mo-Fr 17:00; Sa 10:00", "name": "USPS COLLECTION BOX - PO LOBBY", "note": "ON 12/24 AND 12/31, THIS BOX MAY BE COLLECTED AS EARLY AS 12 NOON.", "ref": "5984700004"}, "type": "Feature"}
{"geometry": {"coordinates": [-115.774069, 47.992812], "type": "Point"}, "id": "Y_HmmuJjuDbS0OBZ0Yca4tC2Oeg=", "properties": {"@spider": "usps_collection_boxes", "addr:city": "NOXON", "addr:country": "US", "addr:full": "110 EVANS ST", "addr:postcode": "59853", "addr:state": "MT", "brand": "USPS", "collection_times": "Mo-Fr 14:45; Sa 11:30", "name": "USPS COLLECTION BOX - PO LOBBY", "note": "ON 12/24 AND 12/31, THIS BOX MAY BE COLLECTED AS EARLY AS 12 NOON.", "ref": "5985300000"}, "type": "Feature"}
{"geometry": {"coordinates": [-115.774069, 47.992812], "type": "Point"}, "id": "oxoVynIINGLjYvh9NYQ_PCRWml8=", "properties": {"@spider": "usps_collection_boxes", "addr:city": "NOXON", "addr:country": "US", "addr:full": "110 EVANS ST", "addr:postcode": "59853", "addr:state": "MT", "brand": "USPS", "collection_times": "Mo-Fr 14:45; Sa 11:30", "name": "USPS COLLECTION BOX - PO LOBBY", "note": "ON 12/24 AND 12/31, THIS BOX MAY BE COLLECTED AS EARLY AS 12 NOON.", "ref": "5985300001"}, "type": "Feature"}
{"geometry": {"coordinates": [-114.113127, 47.598157], "type": "Point"}, "id": "XLVgoyB0RXqqa-dar9RsQM5syAo=", "properties": {"@spider": "usps_collection_boxes", "addr:city": "PABLO", "addr:country": "US", "addr:full": "42025 OLD US HIGHWAY 93", "addr:postcode": "59855", "addr:state": "MT", "brand": "USPS", "collection_times": "Mo-Fr 16:30; Sa 10:45", "name": "USPS COLLECTION BOX - PO LOBBY", "note": "ON 12/24 AND 12/31, THIS BOX MAY BE COLLECTED AS EARLY AS 12 NOON.", "ref": "5985500000"}, "type": "Feature"}
{"geometry": {"coordinates": [-114.113127, 47.598157], "type": "Point"}, "id": "TRFSy9HO5V3EbaKA-MPllpVttAc=", "properties": {"@spider": "usps_collection_boxes", "addr:city": "PABLO", "addr:country": "US", "addr:full": "42025 OLD US HIGHWAY 93", "addr:postcode": "59855", "addr:state": "MT", "brand": "USPS", "collection_times": "Mo-Fr 16:30; Sa 15:30", "name": "USPS COLLECTION BOX - BLUE BOX", "note": "ON 12/24 AND 12/31, THIS BOX MAY BE COLLECTED AS EARLY AS 12 NOON.", "ref": "5985500001"}, "type": "Feature"}
{"geometry": {"coordinates": [-114.113127, 47.598157], "type": "Point"}, "id": "yhY_3zCrap0hYRVt3FylLxo-aeo=", "properties": {"@spider": "usps_collection_boxes", "addr:city": "PABLO", "addr:country": "US", "addr:full": "42025 OLD US HIGHWAY 93", "addr:postcode": "59855", "addr:state": "MT", "brand": "USPS", "collection_times": "Mo-Fr 16:30; Sa 10:45", "name": "USPS COLLECTION BOX - PO LOBBY", "note": "ON 12/24 AND 12/31, THIS BOX MAY BE COLLECTED AS EARLY AS 12 NOON.", "ref": "5985500002"}, "type": "Feature"}
{"geometry": {"coordinates": [-114.787555, 47.386197], "type": "Point"}, "id": "ccTprocy0fitL0fW747FSReB7D0=", "properties": {"@spider": "usps_collection_boxes", "addr:city": "PARADISE", "addr:country": "US", "addr:full": "5 MCLAUGHLIN CREEK RD", "addr:postcode": "59856", "addr:state": "MT", "brand": "USPS", "collection_times": "Mo-Fr 16:30; Sa 16:00", "name": "USPS COLLECTION BOX - BLUE BOX", "note": "ON 12/24 AND 12/31, THIS BOX MAY BE COLLECTED AS EARLY AS 12 NOON.", "ref": "5985600000"}, "type": "Feature"}
{"geometry": {"coordinates": [-114.787463, 47.386243], "type": "Point"}, "id": "TtCvMfGtTh_fAWzSJ6b5yEvSNjc=", "properties": {"@spider": "usps_collection_boxes", "addr:city": "PARADISE", "addr:country": "US", "addr:full": "5 MCLAUGHLIN CREEK RD", "addr:postcode": "59856", "addr:state": "MT", "brand": "USPS", "collection_times": "Mo-Fr 13:00; Sa 08:30", "name": "USPS COLLECTION BOX - PO LOBBY", "note": "ON 12/24 AND 12/31, THIS BOX MAY BE COLLECTED AS EARLY AS 12 NOON.", "ref": "5985600001"}, "type": "Feature"}
{"geometry": {"coordinates": [-114.787463, 47.386243], "type": "Point"}, "id": "AqadDOetG09-pBlhBMehS2754a8=", "properties": {"@spider": "usps_collection_boxes", "addr:city": "PARADISE", "addr:country": "US", "addr:full": "5 MCLAUGHLIN CREEK RD", "addr:postcode": "59856", "addr:state": "MT", "brand": "USPS", "collection_times": "Mo-Fr 13:00; Sa 08:30", "name": "USPS COLLECTION BOX - PO LOBBY", "note": "ON 12/24 AND 12/31, THIS BOX MAY BE COLLECTED AS EARLY AS 12 NOON.", "ref": "5985600002"}, "type": "Feature"}
{"geometry": {"coordinates": [-114.887268, 47.461231], "type": "Point"}, "id": "4Aj-Qy-wEHcz_uPnHlcTnxfKN1Q=", "properties": {"@spider": "usps_collection_boxes", "addr:city": "PLAINS", "addr:country": "US", "addr:full": "310 W MEANY ST", "addr:postcode": "59859", "addr:state": "MT", "brand": "USPS", "collection_times": "Mo-Sa 16:30", "name": "USPS COLLECTION BOX - BLUE BOX", "note": "ON 12/24 AND 12/31, THIS BOX MAY BE COLLECTED AS EARLY AS 12 NOON.", "ref": "5985900000"}, "type": "Feature"}
{"geometry": {"coordinates": [-114.887238, 47.46115], "type": "Point"}, "id": "imjce6L75z1I1rDbb_3bysZ1u28=", "properties": {"@spider": "usps_collection_boxes", "addr:city": "PLAINS", "addr:country": "US", "addr:full": "310 W MEANY ST", "addr:postcode": "59859", "addr:state": "MT", "brand": "USPS", "collection_times": "Mo-Fr 16:30; Sa 12:00", "name": "USPS COLLECTION BOX - PO LOBBY", "note": "ON 12/24 AND 12/31, THIS BOX MAY BE COLLECTED AS EARLY AS 12 NOON.", "ref": "5985900002"}, "type": "Feature"}
{"geometry": {"coordinates": [-114.887238, 47.46115], "type": "Point"}, "id": "P7tYkirhGbFjaecxBpkdcX-qq1g=", "properties": {"@spider": "usps_collection_boxes", "addr:city": "PLAINS", "addr:country": "US", "addr:full": "310 W MEANY ST", "addr:postcode": "59859", "addr:state": "MT", "brand": "USPS", "collection_times": "Mo-Fr 16:30; Sa 12:00", "name": "USPS COLLECTION BOX - PO LOBBY", "note": "ON 12/24 AND 12/31, THIS BOX MAY BE COLLECTED AS EARLY AS 12 NOON.", "ref": "5985900003"}, "type": "Feature"}
{"geometry": {"coordinates": [-114.144874, 47.692184], "type": "Point"}, "id": "7zgqrD0UVG6jbfOxXMbU4BI3mlw=", "properties": {"@spider": "usps_collection_boxes", "addr:city": "POLSON", "addr:country": "US", "addr:full": "1306 US HIGHWAY 93 E", "addr:postcode": "59860", "addr:state": "MT", "brand": "USPS", "collection_times": "Mo-Sa 10:00", "name": "USPS COLLECTION BOX - BLUE BOX", "ref": "5986000000"}, "type": "Feature"}
{"geometry": {"coordinates": [-114.161634, 47.692335], "type": "Point"}, "id": "sTA5ONdsRcdkc_FbX7IHwJo8tDY=", "properties": {"@spider": "usps_collection_boxes", "addr:city": "POLSON", "addr:country": "US", "addr:full": "105 4TH AVE E", "addr:postcode": "59860", "addr:state": "MT", "brand": "USPS", "collection_times": "Mo-Fr 15:45; Sa 13:00", "name": "USPS COLLECTION BOX - BLUE BOX", "note": "ON 12/24 AND 12/31, THIS BOX MAY BE COLLECTED AS EARLY AS 12 NOON.", "ref": "5986000004"}, "type": "Feature"}
{"geometry": {"coordinates": [-114.161757, 47.692309], "type": "Point"}, "id": "VPm2URjWgNVV7Evo7GBhNJ0IJCo=", "properties": {"@spider": "usps_collection_boxes", "addr:city": "POLSON", "addr:country": "US", "addr:full": "105 4TH AVE E", "addr:postcode": "59860", "addr:state": "MT", "brand": "USPS", "collection_times": "Mo-Fr 15:45; Sa 13:00", "name": "USPS COLLECTION BOX - BLUE BOX", "note": "ON 12/24 AND 12/31, THIS BOX MAY BE COLLECTED AS EARLY AS 12 NOON.", "ref": "5986000005"}, "type": "Feature"}
{"geometry": {"coordinates": [-114.123472, 47.687883], "type": "Point"}, "id": "xxnW7ja8MV560UO-AaZqn0O-MrI=", "properties": {"@spider": "usps_collection_boxes", "addr:city": "POLSON", "addr:country": "US", "addr:full": "40774 MT HIGHWAY 35", "addr:postcode": "59860", "addr:state": "MT", "brand": "USPS", "collection_times": "Mo-Sa 10:30", "name": "USPS COLLECTION BOX - BLUE BOX", "ref": "5986000008"}, "type": "Feature"}
{"geometry": {"coordinates": [-114.161757, 47.692309], "type": "Point"}, "id": "qV2emXNH4C3YL9p4uyEweBeSPw4=", "properties": {"@spider": "usps_collection_boxes", "addr:city": "POLSON", "addr:country": "US", "addr:full": "105 4TH AVE E", "addr:postcode": "59860", "addr:state": "MT", "brand": "USPS", "collection_times": "Mo-Fr 16:00; Sa 13:00", "name": "USPS COLLECTION BOX - PO LOBBY", "note": "ON 12/24 AND 12/31, THIS BOX MAY BE COLLECTED AS EARLY AS 12 NOON.", "ref": "5986000009"}, "type": "Feature"}
{"geometry": {"coordinates": [-114.161757, 47.692309], "type": "Point"}, "id": "nIsPfWtCfZcRa3MwFc4kyeGSQvg=", "properties": {"@spider": "usps_collection_boxes", "addr:city": "POLSON", "addr:country": "US", "addr:full": "105 4TH AVE E", "addr:postcode": "59860", "addr:state": "MT", "brand": "USPS", "collection_times": "Mo-Fr 16:00; Sa 13:00", "name": "USPS COLLECTION BOX - PO LOBBY", "note": "ON 12/24 AND 12/31, THIS BOX MAY BE COLLECTED AS EARLY AS 12 NOON.", "ref": "5986000010"}, "type": "Feature"}
{"geometry": {"coordinates": [-114.161757, 47.692309], "type": "Point"}, "id": "TWqKtyUkNEmRuXd_02oEotkkvxQ=", "properties": {"@spider": "usps_collection_boxes", "addr:city": "POLSON", "addr:country": "US", "addr:full": "105 4TH AVE E", "addr:postcode": "59860", "addr:state": "MT", "brand": "USPS", "collection_times": "Mo-Fr 16:00; Sa 13:00", "name": "USPS COLLECTION BOX - PO LOBBY", "note": "ON 12/24 AND 12/31, THIS BOX MAY BE COLLECTED AS EARLY AS 12 NOON.", "ref": "5986000011"}, "type": "Feature"}
{"geometry": {"coordinates": [-114.161757, 47.692309], "type": "Point"}, "id": "oOHFRBEeFh1AuIHrM_8jpdo68d4=", "properties": {"@spider": "usps_collection_boxes", "addr:city": "POLSON", "addr:country": "US", "addr:full": "105 4TH AVE E", "addr:postcode": "59860", "addr:state": "MT", "brand": "USPS", "collection_times": "Mo-Fr 16:00; Sa 13:00", "name": "USPS COLLECTION BOX - PO LOBBY", "note": "ON 12/24 AND 12/31, THIS BOX MAY BE COLLECTED AS EARLY AS 12 NOON.", "ref": "5986000012"}, "type": "Feature"}
{"geometry": {"coordinates": [-115.100266, 47.298515], "type": "Point"}, "id": "Hj-gX6rUCH32GXTeHP8u6qzLxMw=", "properties": {"@spider": "usps_collection_boxes", "addr:city": "ST REGIS", "addr:country": "US", "addr:full": "90 MULLAN GULCH RD", "addr:postcode": "59866", "addr:state": "MT", "brand": "USPS", "collection_times": "Mo-Fr 16:00; Sa 14:00", "name": "USPS COLLECTION BOX - BLUE BOX", "note": "ON 12/24 AND 12/31, THIS BOX MAY BE COLLECTED AS EARLY AS 12 NOON.", "ref": "5986600000"}, "type": "Feature"}
{"geometry": {"coordinates": [-115.100266, 47.298515], "type": "Point"}, "id": "uO9bRUzl24ec4FotZlzH_lnVTfE=", "properties": {"@spider": "usps_collection_boxes", "addr:city": "ST REGIS", "addr:country": "US", "addr:full": "90 MULLAN GULCH RD", "addr:postcode": "59866", "addr:state": "MT", "brand": "USPS", "collection_times": "Mo-Fr 16:30; Sa 10:00", "name": "USPS COLLECTION BOX - PO LOBBY", "note": "ON 12/24 AND 12/31, THIS BOX MAY BE COLLECTED AS EARLY AS 12 NOON.", "ref": "5986600004"}, "type": "Feature"}
{"geometry": {"coordinates": [-115.100266, 47.298515], "type": "Point"}, "id": "sDsJbNcriepyX9HEGUJlWAp-wUM=", "properties": {"@spider": "usps_collection_boxes", "addr:city": "ST REGIS", "addr:country": "US", "addr:full": "90 MULLAN GULCH RD", "addr:postcode": "59866", "addr:state": "MT", "brand": "USPS", "collection_times": "Mo-Fr 16:30; Sa 10:00", "name": "USPS COLLECTION BOX - PO LOBBY", "note": "ON 12/24 AND 12/31, THIS BOX MAY BE COLLECTED AS EARLY AS 12 NOON.", "ref": "5986600007"}, "type": "Feature"}
{"geometry": {"coordinates": [-114.09319, 46.503352], "type": "Point"}, "id": "SXOsCoHPH0AOovdgCA0YJK6BooQ=", "properties": {"@spider": "usps_collection_boxes", "addr:city": "STEVENSVILLE", "addr:country": "US", "addr:full": "701 MAIN ST", "addr:postcode": "59870", "addr:state": "MT", "brand": "USPS", "collection_times": "Mo-Fr 17:00; Sa 16:00", "name": "USPS COLLECTION BOX - BLUE BOX", "note": "ON 12/24 AND 12/31, THIS BOX MAY BE COLLECTED AS EARLY AS 12 NOON.", "ref": "5987000000"}, "type": "Feature"}
{"geometry": {"coordinates": [-114.09319, 46.503352], "type": "Point"}, "id": "C583NEtds0usC0d2c-aNrk3al5c=", "properties": {"@spider": "usps_collection_boxes", "addr:city": "STEVENSVILLE", "addr:country": "US", "addr:full": "701 MAIN ST", "addr:postcode": "59870", "addr:state": "MT", "brand": "USPS", "collection_times": "Mo-Fr 17:00; Sa 13:00", "name": "USPS COLLECTION BOX - BLUE BOX", "note": "ON 12/24 AND 12/31, THIS BOX MAY BE COLLECTED AS EARLY AS 12 NOON.", "ref": "5987000002"}, "type": "Feature"}
{"geometry": {"coordinates": [-114.09319, 46.503352], "type": "Point"}, "id": "UhPKocnN8cXf0To1_BYJS6zON4E=", "properties": {"@spider": "usps_collection_boxes", "addr:city": "STEVENSVILLE", "addr:country": "US", "addr:full": "701 MAIN ST", "addr:postcode": "59870", "addr:state": "MT", "brand": "USPS", "collection_times": "Mo-Fr 16:45; Sa 13:00", "name": "USPS COLLECTION BOX - PO LOBBY", "note": "ON 12/24 AND 12/31, THIS BOX MAY BE COLLECTED AS EARLY AS 12 NOON.", "ref": "5987000003"}, "type": "Feature"}
{"geometry": {"coordinates": [-114.09319, 46.503352], "type": "Point"}, "id": "TxeqmJ3sm0QWxBmuLaCBaDJLrZQ=", "properties": {"@spider": "usps_collection_boxes", "addr:city": "STEVENSVILLE", "addr:country": "US", "addr:full": "701 MAIN ST", "addr:postcode": "59870", "addr:state": "MT", "brand": "USPS", "collection_times": "Mo-Fr 16:45; Sa 13:00", "name": "USPS COLLECTION BOX - PO LOBBY", "note": "ON 12/24 AND 12/31, THIS BOX MAY BE COLLECTED AS EARLY AS 12 NOON.", "ref": "5987000005"}, "type": "Feature"}
{"geometry": {"coordinates": [-114.09319, 46.503352], "type": "Point"}, "id": "x__oty3T5CoAslmhlf8-UZmo4Xg=", "properties": {"@spider": "usps_collection_boxes", "addr:city": "STEVENSVILLE", "addr:country": "US", "addr:full": "701 MAIN ST", "addr:postcode": "59870", "addr:state": "MT", "brand": "USPS", "collection_times": "Mo-Fr 16:45; Sa 13:00", "name": "USPS COLLECTION BOX - PO LOBBY", "note": "ON 12/24 AND 12/31, THIS BOX MAY BE COLLECTED AS EARLY AS 12 NOON.", "ref": "5987000006"}, "type": "Feature"}
{"geometry": {"coordinates": [-114.09319, 46.503352], "type": "Point"}, "id": "7ZPIUkFxpXPY5PLZox2-GS2-O2M=", "properties": {"@spider": "usps_collection_boxes", "addr:city": "STEVENSVILLE", "addr:country": "US", "addr:full": "701 MAIN ST", "addr:postcode": "59870", "addr:state": "MT", "brand": "USPS", "collection_times": "Mo-Fr 16:45; Sa 13:00", "name": "USPS COLLECTION BOX - PO LOBBY", "note": "ON 12/24 AND 12/31, THIS BOX MAY BE COLLECTED AS EARLY AS 12 NOON.", "ref": "5987000007"}, "type": "Feature"}
{"geometry": {"coordinates": [-114.0933839003, 46.5101658651], "type": "Point"}, "id": "WY_adFroP8YKnD8pniyb_JqA6ns=", "properties": {"@spider": "usps_collection_boxes", "addr:city": "STEVENSVILLE", "addr:country": "US", "addr:full": "220 MAIN ST", "addr:postcode": "59870", "addr:state": "MT", "brand": "USPS", "collection_times": "Mo-Sa 14:00", "name": "USPS COLLECTION BOX - BLUE BOX", "note": "ON 12/24 AND 12/31, THIS BOX MAY BE COLLECTED AS EARLY AS 12 NOON.", "ref": "5987000008"}, "type": "Feature"}
{"geometry": {"coordinates": [-113.9825, 45.83624], "type": "Point"}, "id": "Y7PzYOwky3KCLmgPI7d0kaKfnDI=", "properties": {"@spider": "usps_collection_boxes", "addr:city": "SULA", "addr:country": "US", "addr:full": "7060 US HIGHWAY 93 S", "addr:postcode": "59871", "addr:state": "MT", "brand": "USPS", "collection_times": "Mo-Fr 14:30; Sa 12:00", "name": "USPS COLLECTION BOX - BLUE BOX", "note": "ON 12/24 AND 12/31, THIS BOX MAY BE COLLECTED AS EARLY AS 12 NOON.", "ref": "5987100000"}, "type": "Feature"}
{"geometry": {"coordinates": [-113.956961934, 45.849967323], "type": "Point"}, "id": "Bp43z-rX3dAZlYVRUmitkWPRB90=", "properties": {"@spider": "usps_collection_boxes", "addr:city": "SULA", "addr:country": "US", "addr:full": "502 E FORK RD", "addr:postcode": "59871", "addr:state": "MT", "brand": "USPS", "collection_times": "Mo-Fr 15:00; Sa 12:45", "name": "USPS COLLECTION BOX - PO LOBBY", "note": "ON 12/24 AND 12/31, THIS BOX MAY BE COLLECTED AS EARLY AS 12 NOON.", "ref": "5987100001"}, "type": "Feature"}
{"geometry": {"coordinates": [-113.956829, 45.850064], "type": "Point"}, "id": "BG_EV6R08gTuj0HPMeWAJyl1zXY=", "properties": {"@spider": "usps_collection_boxes", "addr:city": "SULA", "addr:country": "US", "addr:full": "502 E FORK RD", "addr:postcode": "59871", "addr:state": "MT", "brand": "USPS", "collection_times": "Mo-Fr 15:00; Sa 12:45", "name": "USPS COLLECTION BOX - PO LOBBY", "note": "ON 12/24 AND 12/31, THIS BOX MAY BE COLLECTED AS EARLY AS 12 NOON.", "ref": "5987100002"}, "type": "Feature"}
{"geometry": {"coordinates": [-114.890906, 47.193499], "type": "Point"}, "id": "1gNYHQxcZmwusL38XpMXVhfkL3U=", "properties": {"@spider": "usps_collection_boxes", "addr:city": "SUPERIOR", "addr:country": "US", "addr:full": "104 3RD AVE E", "addr:postcode": "59872", "addr:state": "MT", "brand": "USPS", "collection_times": "Mo-Fr 16:15; Sa 14:20", "name": "USPS COLLECTION BOX - BLUE BOX", "note": "ON 12/24 AND 12/31, THIS BOX MAY BE COLLECTED AS EARLY AS 12 NOON.", "ref": "5987200001"}, "type": "Feature"}
{"geometry": {"coordinates": [-114.89103, 47.193477], "type": "Point"}, "id": "2Ea7smuIreCf_r-cEeTMFSN8Uyg=", "properties": {"@spider": "usps_collection_boxes", "addr:city": "SUPERIOR", "addr:country": "US", "addr:full": "104 3RD AVE E", "addr:postcode": "59872", "addr:state": "MT", "brand": "USPS", "collection_times": "Mo-Fr 16:45; Sa 10:00", "name": "USPS COLLECTION BOX - PO LOBBY", "note": "ON 12/24 AND 12/31, THIS BOX MAY BE COLLECTED AS EARLY AS 12 NOON.", "ref": "5987200002"}, "type": "Feature"}
{"geometry": {"coordinates": [-114.89103, 47.193477], "type": "Point"}, "id": "7TguYbu2KZtX-bD01iCVHfj_CQI=", "properties": {"@spider": "usps_collection_boxes", "addr:city": "SUPERIOR", "addr:country": "US", "addr:full": "104 3RD AVE E", "addr:postcode": "59872", "addr:state": "MT", "brand": "USPS", "collection_times": "Mo-Fr 16:45; Sa 10:00", "name": "USPS COLLECTION BOX - PO LOBBY", "note": "ON 12/24 AND 12/31, THIS BOX MAY BE COLLECTED AS EARLY AS 12 NOON.", "ref": "5987200003"}, "type": "Feature"}
{"geometry": {"coordinates": [-114.89103, 47.193477], "type": "Point"}, "id": "POHshtms4wLxQgCMedTxeOnk8DM=", "properties": {"@spider": "usps_collection_boxes", "addr:city": "SUPERIOR", "addr:country": "US", "addr:full": "104 3RD AVE E", "addr:postcode": "59872", "addr:state": "MT", "brand": "USPS", "collection_times": "Mo-Fr 16:45; Sa 10:00", "name": "USPS COLLECTION BOX - PO LOBBY", "note": "ON 12/24 AND 12/31, THIS BOX MAY BE COLLECTED AS EARLY AS 12 NOON.", "ref": "5987200004"}, "type": "Feature"}
{"geometry": {"coordinates": [-114.89103, 47.193477], "type": "Point"}, "id": "uT1yjE77JR4e-4n9U3g93yBw8d0=", "properties": {"@spider": "usps_collection_boxes", "addr:city": "SUPERIOR", "addr:country": "US", "addr:full": "104 3RD AVE E", "addr:postcode": "59872", "addr:state": "MT", "brand": "USPS", "collection_times": "Mo-Fr 16:45; Sa 10:00", "name": "USPS COLLECTION BOX - PO LOBBY", "note": "ON 12/24 AND 12/31, THIS BOX MAY BE COLLECTED AS EARLY AS 12 NOON.", "ref": "5987200005"}, "type": "Feature"}
{"geometry": {"coordinates": [-115.356594, 47.597801], "type": "Point"}, "id": "znGGAhdGWSf4pUuABQt1oNZhHA0=", "properties": {"@spider": "usps_collection_boxes", "addr:city": "THOMPSON FALLS", "addr:country": "US", "addr:full": "1611 MAIN ST", "addr:postcode": "59873", "addr:state": "MT", "brand": "USPS", "collection_times": "Mo-Sa 16:00", "name": "USPS COLLECTION BOX - BLUE BOX", "note": "ON 12/24 AND 12/31, THIS BOX MAY BE COLLECTED AS EARLY AS 12 NOON.", "ref": "5987300000"}, "type": "Feature"}
{"geometry": {"coordinates": [-115.4511096751, 47.5719605398], "type": "Point"}, "id": "Dft9-zNAHABMtT_FiNdUbJggzcA=", "properties": {"@spider": "usps_collection_boxes", "addr:city": "THOMPSON FALLS", "addr:country": "US", "addr:full": "PO BOX 203", "addr:postcode": "59873", "addr:state": "MT", "brand": "USPS", "collection_times": "Mo-Sa 16:00", "name": "USPS COLLECTION BOX - BLUE BOX", "note": "ON 12/24 AND 12/31, THIS BOX MAY BE COLLECTED AS EARLY AS 12 NOON.", "ref": "5987300001"}, "type": "Feature"}
{"geometry": {"coordinates": [-115.356479, 47.597764], "type": "Point"}, "id": "gm3gbqD_rya9GCXNX7VKQYmlOWE=", "properties": {"@spider": "usps_collection_boxes", "addr:city": "THOMPSON FALLS", "addr:country": "US", "addr:full": "1611 MAIN ST", "addr:postcode": "59873", "addr:state": "MT", "brand": "USPS", "collection_times": "Mo-Fr 16:00; Sa 11:30", "name": "USPS COLLECTION BOX - PO LOBBY", "note": "ON 12/24 AND 12/31, THIS BOX MAY BE COLLECTED AS EARLY AS 12 NOON.", "ref": "5987300002"}, "type": "Feature"}
{"geometry": {"coordinates": [-115.356479, 47.597764], "type": "Point"}, "id": "fGP7I3VlVWlyv8fZ8mGF-k50EKs=", "properties": {"@spider": "usps_collection_boxes", "addr:city": "THOMPSON FALLS", "addr:country": "US", "addr:full": "1611 MAIN ST", "addr:postcode": "59873", "addr:state": "MT", "brand": "USPS", "collection_times": "Mo-Fr 16:00; Sa 11:30", "name": "USPS COLLECTION BOX - PO LOBBY", "note": "ON 12/24 AND 12/31, THIS BOX MAY BE COLLECTED AS EARLY AS 12 NOON.", "ref": "5987300003"}, "type": "Feature"}
{"geometry": {"coordinates": [-115.356479, 47.597764], "type": "Point"}, "id": "TNxmoGucKDqu0ql7RCqHdBU0BnU=", "properties": {"@spider": "usps_collection_boxes", "addr:city": "THOMPSON FALLS", "addr:country": "US", "addr:full": "1611 MAIN ST", "addr:postcode": "59873", "addr:state": "MT", "brand": "USPS", "collection_times": "Mo-Sa 16:00", "name": "USPS COLLECTION BOX - BLUE BOX", "note": "ON 12/24 AND 12/31, THIS BOX MAY BE COLLECTED AS EARLY AS 12 NOON.", "ref": "5987300004"}, "type": "Feature"}
{"geometry": {"coordinates": [-115.308567, 47.583876], "type": "Point"}, "id": "PKR1PDC5QIdxl5OKTgaZ79_Ixx4=", "properties": {"@spider": "usps_collection_boxes", "addr:city": "THOMPSON FALLS", "addr:country": "US", "addr:full": "2 TRADEWINDS WAY", "addr:postcode": "59873", "addr:state": "MT", "brand": "USPS", "collection_times": "Mo-Sa 16:00", "name": "USPS COLLECTION BOX - BLUE BOX", "note": "ON 12/24 AND 12/31, THIS BOX MAY BE COLLECTED AS EARLY AS 12 NOON.", "ref": "5987300005"}, "type": "Feature"}
{"geometry": {"coordinates": [-115.356479, 47.597764], "type": "Point"}, "id": "6Y7WJF_f9rr4Lj3mykAga6Gy15M=", "properties": {"@spider": "usps_collection_boxes", "addr:city": "THOMPSON FALLS", "addr:country": "US", "addr:full": "1611 MAIN ST", "addr:postcode": "59873", "addr:state": "MT", "brand": "USPS", "collection_times": "Mo-Fr 16:00; Sa 11:30", "name": "USPS COLLECTION BOX - PO LOBBY", "note": "ON 12/24 AND 12/31, THIS BOX MAY BE COLLECTED AS EARLY AS 12 NOON.", "ref": "5987300006"}, "type": "Feature"}
{"geometry": {"coordinates": [-115.356479, 47.597764], "type": "Point"}, "id": "WlnyoAq5KFAlCnP9eFW1p8h6ZDs=", "properties": {"@spider": "usps_collection_boxes", "addr:city": "THOMPSON FALLS", "addr:country": "US", "addr:full": "1611 MAIN ST", "addr:postcode": "59873", "addr:state": "MT", "brand": "USPS", "collection_times": "Mo-Fr 16:00; Sa 11:30", "name": "USPS COLLECTION BOX - PO LOBBY", "note": "ON 12/24 AND 12/31, THIS BOX MAY BE COLLECTED AS EARLY AS 12 NOON.", "ref": "5987300007"}, "type": "Feature"}
{"geometry": {"coordinates": [-115.588676, 47.836131], "type": "Point"}, "id": "aAeICIeAHfhZXXEnGmW5kZHvCTQ=", "properties": {"@spider": "usps_collection_boxes", "addr:city": "TROUT CREEK", "addr:country": "US", "addr:full": "2971 MT HIGHWAY 200", "addr:postcode": "59874", "addr:state": "MT", "brand": "USPS", "collection_times": "Mo-Fr 15:30; Sa 11:00", "name": "USPS COLLECTION BOX - PO LOBBY", "note": "ON 12/24 AND 12/31, THIS BOX MAY BE COLLECTED AS EARLY AS 12 NOON.", "ref": "5987400001"}, "type": "Feature"}
{"geometry": {"coordinates": [-115.5888, 47.836176], "type": "Point"}, "id": "XGsF8bIh2tiwP5jUNvlCstGM14s=", "properties": {"@spider": "usps_collection_boxes", "addr:city": "TROUT CREEK", "addr:country": "US", "addr:full": "2971 MT HIGHWAY 200", "addr:postcode": "59874", "addr:state": "MT", "brand": "USPS", "collection_times": "Mo-Fr 15:30; Sa 11:00", "name": "USPS COLLECTION BOX - PO LOBBY", "note": "ON 12/24 AND 12/31, THIS BOX MAY BE COLLECTED AS EARLY AS 12 NOON.", "ref": "5987400002"}, "type": "Feature"}
{"geometry": {"coordinates": [-114.147337, 46.41809], "type": "Point"}, "id": "GPSf_1aA751qykQFcqGqhEehjJU=", "properties": {"@spider": "usps_collection_boxes", "addr:city": "VICTOR", "addr:country": "US", "addr:full": "201 MAIN ST", "addr:postcode": "59875", "addr:state": "MT", "brand": "USPS", "collection_times": "Mo-Sa 17:15", "name": "USPS COLLECTION BOX - BLUE BOX", "note": "ON 12/24 AND 12/31, THIS BOX MAY BE COLLECTED AS EARLY AS 12 NOON.", "ref": "5987500001"}, "type": "Feature"}
{"geometry": {"coordinates": [-114.147337, 46.41809], "type": "Point"}, "id": "SUnWGw1N4RLzLpepRtteFwe3ctg=", "properties": {"@spider": "usps_collection_boxes", "addr:city": "VICTOR", "addr:country": "US", "addr:full": "201 MAIN ST", "addr:postcode": "59875", "addr:state": "MT", "brand": "USPS", "collection_times": "Mo-Fr 17:00; Sa 11:30", "name": "USPS COLLECTION BOX - PO LOBBY", "note": "ON 12/24 AND 12/31, THIS BOX MAY BE COLLECTED AS EARLY AS 12 NOON.", "ref": "5987500002"}, "type": "Feature"}
{"geometry": {"coordinates": [-114.147337, 46.41809], "type": "Point"}, "id": "jWKdhOPuSGQzIvLeiF3mjKvG6cc=", "properties": {"@spider": "usps_collection_boxes", "addr:city": "VICTOR", "addr:country": "US", "addr:full": "201 MAIN ST", "addr:postcode": "59875", "addr:state": "MT", "brand": "USPS", "collection_times": "Mo-Fr 17:00; Sa 11:30", "name": "USPS COLLECTION BOX - PO LOBBY", "note": "ON 12/24 AND 12/31, THIS BOX MAY BE COLLECTED AS EARLY AS 12 NOON.", "ref": "5987500003"}, "type": "Feature"}
{"geometry": {"coordinates": [-114.147337, 46.41809], "type": "Point"}, "id": "Fo9m7aKtPv254Nsi2i7sPEs01o0=", "properties": {"@spider": "usps_collection_boxes", "addr:city": "VICTOR", "addr:country": "US", "addr:full": "201 MAIN ST", "addr:postcode": "59875", "addr:state": "MT", "brand": "USPS", "collection_times": "Mo-Fr 17:00; Sa 11:30", "name": "USPS COLLECTION BOX - PO LOBBY", "note": "ON 12/24 AND 12/31, THIS BOX MAY BE COLLECTED AS EARLY AS 12 NOON.", "ref": "5987500004"}, "type": "Feature"}
{"geometry": {"coordinates": [-114.147337, 46.41809], "type": "Point"}, "id": "jd58oN1-gPWz4Z-pN98vcQ_qhws=", "properties": {"@spider": "usps_collection_boxes", "addr:city": "VICTOR", "addr:country": "US", "addr:full": "201 MAIN ST", "addr:postcode": "59875", "addr:state": "MT", "brand": "USPS", "collection_times": "Mo-Fr 17:00; Sa 11:30", "name": "USPS COLLECTION BOX - PO LOBBY", "note": "ON 12/24 AND 12/31, THIS BOX MAY BE COLLECTED AS EARLY AS 12 NOON.", "ref": "5987500005"}, "type": "Feature"}
