{"geometry": {"coordinates": [-114.329266, 48.199909], "type": "Point"}, "id": "pyoAFsHzT94oPsjGM7TAj1bbpeE=", "properties": {"@source_uri": "https://tools.usps.com/UspsToolsRestServices/rest/POLocator/findLocations", "@spider": "usps_collection_boxes", "addr:city": "KALISPELL", "addr:country": "US", "addr:postcode": "59901", "addr:state": "MT", "addr:street_address": "900 W IDAHO ST", "amenity": "post_box", "collection_times": "Mo-Fr 12:00", "nsi_id": "unitedstatespostalservice-a77078", "operator": "United States Postal Service", "operator:short": "USPS", "operator:type": "public", "operator:wikidata": "Q668687", "ref": "5990100002"}, "type": "Feature"}
{"geometry": {"coordinates": [-114.318264, 48.205873], "type": "Point"}, "id": "oUyJ6b63Kbli1c-LjfK62o_vYyI=", "properties": {"@source_uri": "https://tools.usps.com/UspsToolsRestServices/rest/POLocator/findLocations", "@spider": "usps_collection_boxes", "addr:city": "KALISPELL", "addr:country": "US", "addr:postcode": "59901", "addr:state": "MT", "addr:street_address": "660 SUNSET BLVD", "amenity": "post_box", "collection_times": "Mo-Sa 10:00", "nsi_id": "unitedstatespostalservice-a77078", "operator": "United States Postal Service", "operator:short": "USPS", "operator:type": "public", "operator:wikidata": "Q668687", "ref": "5990100006"}, "type": "Feature"}
{"geometry": {"coordinates": [-114.280836, 48.212191], "type": "Point"}, "id": "hzzgeCmxDqrObqj2k4lczSlvh7k=", "properties": {"@source_uri": "https://tools.usps.com/UspsToolsRestServices/rest/POLocator/findLocations", "@spider": "usps_collection_boxes", "addr:city": "KALISPELL", "addr:country": "US", "addr:postcode": "59901", "addr:state": "MT", "addr:street_address": "1346 US HIGHWAY 2 E", "amenity": "post_box", "collection_times": "Mo-Sa 12:00", "nsi_id": "unitedstatespostalservice-a77078", "operator": "United States Postal Service", "operator:short": "USPS", "operator:type": "public", "operator:wikidata": "Q668687", "ref": "5990100009"}, "type": "Feature"}
{"geometry": {"coordinates": [-114.30281, 48.178473], "type": "Point"}, "id": "ePvWzqMgL_bmL-nF4AjpjKd7qkQ=", "properties": {"@source_uri": "https://tools.usps.com/UspsToolsRestServices/rest/POLocator/findLocations", "@spider": "usps_collection_boxes", "addr:city": "KALISPELL", "addr:country": "US", "addr:postcode": "59901", "addr:state": "MT", "addr:street_address": "2150 US HIGHWAY 93 S", "amenity": "post_box", "collection_times": "Mo-Sa 10:00", "nsi_id": "unitedstatespostalservice-a77078", "operator": "United States Postal Service", "operator:short": "USPS", "operator:type": "public", "operator:wikidata": "Q668687", "ref": "5990100011"}, "type": "Feature"}
{"geometry": {"coordinates": [-114.31123, 48.196457], "type": "Point"}, "id": "qk7hzFGXRt53mWEKDfKvt33Ni88=", "properties": {"@source_uri": "https://tools.usps.com/UspsToolsRestServices/rest/POLocator/findLocations", "@spider": "usps_collection_boxes", "addr:city": "KALISPELL", "addr:country": "US", "addr:postcode": "59901", "addr:state": "MT", "addr:street_address": "247 1ST AVE E", "amenity": "post_box", "collection_times": "Mo-Fr 12:00", "nsi_id": "unitedstatespostalservice-a77078", "operator": "United States Postal Service", "operator:short": "USPS", "operator:type": "public", "operator:wikidata": "Q668687", "ref": "5990100014"}, "type": "Feature"}
{"geometry": {"coordinates": [-114.315687, 48.195557], "type": "Point"}, "id": "RnTvKz2xX-QTX_hd7pMoHD5vPak=", "properties": {"@source_uri": "https://tools.usps.com/UspsToolsRestServices/rest/POLocator/findLocations", "@spider": "usps_collection_boxes", "addr:city": "KALISPELL", "addr:country": "US", "addr:postcode": "59901", "addr:state": "MT", "addr:street_address": "248 1ST AVE W", "amenity": "post_box", "collection_times": "Mo-Fr 15:45; Sa 14:30", "note": "ON 12/24 AND 12/31, THIS BOX MAY BE COLLECTED AS EARLY AS 12 NOON.", "nsi_id": "unitedstatespostalservice-a77078", "operator": "United States Postal Service", "operator:short": "USPS", "operator:type": "public", "operator:wikidata": "Q668687", "ref": "5990100018"}, "type": "Feature"}
{"geometry": {"coordinates": [-114.331877, 48.202108], "type": "Point"}, "id": "yIM7FtTvylkIEsmVjqws50lACxI=", "properties": {"@source_uri": "https://tools.usps.com/UspsToolsRestServices/rest/POLocator/findLocations", "@spider": "usps_collection_boxes", "addr:city": "KALISPELL", "addr:country": "US", "addr:postcode": "59901", "addr:state": "MT", "addr:street_address": "350 N MERIDIAN RD", "amenity": "post_box", "collection_times": "Mo-Sa 17:00", "note": "ON 12/24 AND 12/31, THIS BOX MAY BE COLLECTED AS EARLY AS 12 NOON.", "nsi_id": "unitedstatespostalservice-a77078", "operator": "United States Postal Service", "operator:short": "USPS", "operator:type": "public", "operator:wikidata": "Q668687", "ref": "5990100024"}, "type": "Feature"}
{"geometry": {"coordinates": [-114.331874, 48.202113], "type": "Point"}, "id": "3PFII_FrQi2xjHAwpvyQhkXc2qM=", "properties": {"@source_uri": "https://tools.usps.com/UspsToolsRestServices/rest/POLocator/findLocations", "@spider": "usps_collection_boxes", "addr:city": "KALISPELL", "addr:country": "US", "addr:postcode": "59901", "addr:state": "MT", "addr:street_address": "350 N MERIDIAN RD", "amenity": "post_box", "collection_times": "Mo-Sa 17:00", "note": "ON 12/24 AND 12/31, THIS BOX MAY BE COLLECTED AS EARLY AS 12 NOON.", "nsi_id": "unitedstatespostalservice-a77078", "operator": "United States Postal Service", "operator:short": "USPS", "operator:type": "public", "operator:wikidata": "Q668687", "ref": "5990100025"}, "type": "Feature"}
{"geometry": {"coordinates": [-114.331467, 48.202703], "type": "Point"}, "id": "D4HKXbz-fHXEZA0iApj40_CqIvc=", "properties": {"@source_uri": "https://tools.usps.com/UspsToolsRestServices/rest/POLocator/findLocations", "@spider": "usps_collection_boxes", "addr:city": "KALISPELL", "addr:country": "US", "addr:postcode": "59901", "addr:state": "MT", "addr:street_address": "350 N MERIDIAN RD", "amenity": "post_box", "collection_times": "Mo-Sa 17:00", "indoor": "yes", "note": "ON 12/24 AND 12/31, THIS BOX MAY BE COLLECTED AS EARLY AS 12 NOON.", "nsi_id": "unitedstatespostalservice-a77078", "operator": "United States Postal Service", "operator:short": "USPS", "operator:type": "public", "operator:wikidata": "Q668687", "ref": "5990100033"}, "type": "Feature"}
{"geometry": {"coordinates": [-114.331467, 48.202703], "type": "Point"}, "id": "pQiBUr1YcInqIPNxlXTZgxptD90=", "properties": {"@source_uri": "https://tools.usps.com/UspsToolsRestServices/rest/POLocator/findLocations", "@spider": "usps_collection_boxes", "addr:city": "KALISPELL", "addr:country": "US", "addr:postcode": "59901", "addr:state": "MT", "addr:street_address": "350 N MERIDIAN RD", "amenity": "post_box", "collection_times": "Mo-Sa 17:00", "indoor": "yes", "note": "ON 12/24 AND 12/31, THIS BOX MAY BE COLLECTED AS EARLY AS 12 NOON.", "nsi_id": "unitedstatespostalservice-a77078", "operator": "United States Postal Service", "operator:short": "USPS", "operator:type": "public", "operator:wikidata": "Q668687", "ref": "5990100034"}, "type": "Feature"}
{"geometry": {"coordinates": [-114.331467, 48.202703], "type": "Point"}, "id": "nk8FP-tghu4R13VRNPLdOD9NNVo=", "properties": {"@source_uri": "https://tools.usps.com/UspsToolsRestServices/rest/POLocator/findLocations", "@spider": "usps_collection_boxes", "addr:city": "KALISPELL", "addr:country": "US", "addr:postcode": "59901", "addr:state": "MT", "addr:street_address": "350 N MERIDIAN RD", "amenity": "post_box", "collection_times": "Mo-Sa 17:00", "indoor": "yes", "note": "ON 12/24 AND 12/31, THIS BOX MAY BE COLLECTED AS EARLY AS 12 NOON.", "nsi_id": "unitedstatespostalservice-a77078", "operator": "United States Postal Service", "operator:short": "USPS", "operator:type": "public", "operator:wikidata": "Q668687", "ref": "5990100035"}, "type": "Feature"}
{"geometry": {"coordinates": [-114.338438, 48.198727], "type": "Point"}, "id": "PlSpDDC6l2g8RkIHKtxulUwyP-0=", "properties": {"@source_uri": "https://tools.usps.com/UspsToolsRestServices/rest/POLocator/findLocations", "@spider": "usps_collection_boxes", "addr:city": "KALISPELL", "addr:country": "US", "addr:postcode": "59901", "addr:state": "MT", "addr:street_address": "1325 US HIGHWAY 2 W", "amenity": "post_box", "collection_times": "Mo-Sa 15:00", "note": "ON 12/24 AND 12/31, THIS BOX MAY BE COLLECTED AS EARLY AS 12 NOON.", "nsi_id": "unitedstatespostalservice-a77078", "operator": "United States Postal Service", "operator:short": "USPS", "operator:type": "public", "operator:wikidata": "Q668687", "ref": "5990100036"}, "type": "Feature"}
{"geometry": {"coordinates": [-114.314916, 48.195684], "type": "Point"}, "id": "XkUd6visNzYI17kzxZbyWK7MjAw=", "properties": {"@source_uri": "https://tools.usps.com/UspsToolsRestServices/rest/POLocator/findLocations", "@spider": "usps_collection_boxes", "addr:city": "KALISPELL", "addr:country": "US", "addr:postcode": "59901", "addr:state": "MT", "addr:street_address": "248 1ST AVE W", "amenity": "post_box", "collection_times": "Mo-Fr 16:00; Sa 10:00", "indoor": "yes", "note": "ON 12/24 AND 12/31, THIS BOX MAY BE COLLECTED AS EARLY AS 12 NOON.", "nsi_id": "unitedstatespostalservice-a77078", "operator": "United States Postal Service", "operator:short": "USPS", "operator:type": "public", "operator:wikidata": "Q668687", "ref": "5990100037"}, "type": "Feature"}
{"geometry": {"coordinates": [-114.314916, 48.195684], "type": "Point"}, "id": "btvDhAkFIqPX3OuxL3rOWtHGBKA=", "properties": {"@source_uri": "https://tools.usps.com/UspsToolsRestServices/rest/POLocator/findLocations", "@spider": "usps_collection_boxes", "addr:city": "KALISPELL", "addr:country": "US", "addr:postcode": "59901", "addr:state": "MT", "addr:street_address": "248 1ST AVE W", "amenity": "post_box", "collection_times": "Mo-Fr 16:00; Sa 10:00", "indoor": "yes", "note": "ON 12/24 AND 12/31, THIS BOX MAY BE COLLECTED AS EARLY AS 12 NOON.", "nsi_id": "unitedstatespostalservice-a77078", "operator": "United States Postal Service", "operator:short": "USPS", "operator:type": "public", "operator:wikidata": "Q668687", "ref": "5990100038"}, "type": "Feature"}
{"geometry": {"coordinates": [-114.314916, 48.195684], "type": "Point"}, "id": "t1enf7WhMQM6ofzvgqUVwuoFBTE=", "properties": {"@source_uri": "https://tools.usps.com/UspsToolsRestServices/rest/POLocator/findLocations", "@spider": "usps_collection_boxes", "addr:city": "KALISPELL", "addr:country": "US", "addr:postcode": "59901", "addr:state": "MT", "addr:street_address": "248 1ST AVE W", "amenity": "post_box", "collection_times": "Mo-Fr 16:00; Sa 10:00", "indoor": "yes", "note": "ON 12/24 AND 12/31, THIS BOX MAY BE COLLECTED AS EARLY AS 12 NOON.", "nsi_id": "unitedstatespostalservice-a77078", "operator": "United States Postal Service", "operator:short": "USPS", "operator:type": "public", "operator:wikidata": "Q668687", "ref": "5990100039"}, "type": "Feature"}
{"geometry": {"coordinates": [-114.324126, 48.215872], "type": "Point"}, "id": "aJO5V1KNZ5DKqj_RMhqzRAc5ANc=", "properties": {"@source_uri": "https://tools.usps.com/UspsToolsRestServices/rest/POLocator/findLocations", "@spider": "usps_collection_boxes", "addr:city": "KALISPELL", "addr:country": "US", "addr:postcode": "59901", "addr:state": "MT", "addr:street_address": "310 SUNNYVIEW LN", "amenity": "post_box", "collection_times": "Mo-Sa 12:00", "nsi_id": "unitedstatespostalservice-a77078", "operator": "United States Postal Service", "operator:short": "USPS", "operator:type": "public", "operator:wikidata": "Q668687", "ref": "5990100042"}, "type": "Feature"}
{"geometry": {"coordinates": [-114.302815, 48.181587], "type": "Point"}, "id": "0nMJfkXKU3hcczzJ_i7ZB3w2reI=", "properties": {"@source_uri": "https://tools.usps.com/UspsToolsRestServices/rest/POLocator/findLocations", "@spider": "usps_collection_boxes", "addr:city": "KALISPELL", "addr:country": "US", "addr:postcode": "59901", "addr:state": "MT", "addr:street_address": "1830 3RD AVE E", "amenity": "post_box", "collection_times": "Mo-Sa 10:30", "nsi_id": "unitedstatespostalservice-a77078", "operator": "United States Postal Service", "operator:short": "USPS", "operator:type": "public", "operator:wikidata": "Q668687", "ref": "5990100043"}, "type": "Feature"}
{"geometry": {"coordinates": [-114.2917342544, 47.7980712398], "type": "Point"}, "id": "slRIl_SbxZjS3A0vTpySigv88cc=", "properties": {"@source_uri": "https://tools.usps.com/UspsToolsRestServices/rest/POLocator/findLocations", "@spider": "usps_collection_boxes", "addr:city": "BIG ARM", "addr:country": "US", "addr:postcode": "59910", "addr:state": "MT", "addr:street_address": "28541 5TH ST", "amenity": "post_box", "collection_times": "Mo-Fr 13:00; Sa 11:00", "indoor": "yes", "note": "ON 12/24 AND 12/31, THIS BOX MAY BE COLLECTED AS EARLY AS 12 NOON.", "nsi_id": "unitedstatespostalservice-a77078", "operator": "United States Postal Service", "operator:short": "USPS", "operator:type": "public", "operator:wikidata": "Q668687", "ref": "5991000002"}, "type": "Feature"}
{"geometry": {"coordinates": [-114.078528, 48.073278], "type": "Point"}, "id": "VEu5elC1po3CzJnYo9r4KmU0BDI=", "properties": {"@source_uri": "https://tools.usps.com/UspsToolsRestServices/rest/POLocator/findLocations", "@spider": "usps_collection_boxes", "addr:city": "BIG FORK", "addr:country": "US", "addr:postcode": "59911", "addr:state": "MT", "addr:street_address": "8105 MT HIGHWAY 35", "amenity": "post_box", "collection_times": "Mo-Sa 10:00", "nsi_id": "unitedstatespostalservice-a77078", "operator": "United States Postal Service", "operator:short": "USPS", "operator:type": "public", "operator:wikidata": "Q668687", "ref": "5991100001"}, "type": "Feature"}
{"geometry": {"coordinates": [-114.090508, 48.066524], "type": "Point"}, "id": "GEXQLie-Y9WswLxP0x2txF7Kqeo=", "properties": {"@source_uri": "https://tools.usps.com/UspsToolsRestServices/rest/POLocator/findLocations", "@spider": "usps_collection_boxes", "addr:city": "BIG FORK", "addr:country": "US", "addr:postcode": "59911", "addr:state": "MT", "addr:street_address": "265 HOLT DR", "amenity": "post_box", "collection_times": "Mo-Fr 16:20; Sa 14:00", "note": "ON 12/24 AND 12/31, THIS BOX MAY BE COLLECTED AS EARLY AS 12 NOON.", "nsi_id": "unitedstatespostalservice-a77078", "operator": "United States Postal Service", "operator:short": "USPS", "operator:type": "public", "operator:wikidata": "Q668687", "ref": "5991100002"}, "type": "Feature"}
{"geometry": {"coordinates": [-114.087890002, 48.09513302], "type": "Point"}, "id": "qhgQTwFkx4zFCdUdaZp8yw2dhnI=", "properties": {"@source_uri": "https://tools.usps.com/UspsToolsRestServices/rest/POLocator/findLocations", "@spider": "usps_collection_boxes", "addr:city": "BIG FORK", "addr:country": "US", "addr:postcode": "59911", "addr:state": "MT", "addr:street_address": "7505 MT HIGHWAY 35", "amenity": "post_box", "collection_times": "Mo-Sa 11:00", "nsi_id": "unitedstatespostalservice-a77078", "operator": "United States Postal Service", "operator:short": "USPS", "operator:type": "public", "operator:wikidata": "Q668687", "ref": "5991100007"}, "type": "Feature"}
{"geometry": {"coordinates": [-114.090649, 48.066529], "type": "Point"}, "id": "pBov_CQAQtoQ9DSv_dx-WnmYt40=", "properties": {"@source_uri": "https://tools.usps.com/UspsToolsRestServices/rest/POLocator/findLocations", "@spider": "usps_collection_boxes", "addr:city": "BIG FORK", "addr:country": "US", "addr:postcode": "59911", "addr:state": "MT", "addr:street_address": "265 HOLT DR", "amenity": "post_box", "collection_times": "Mo-Fr 16:20; Sa 14:00", "indoor": "yes", "note": "ON 12/24 AND 12/31, THIS BOX MAY BE COLLECTED AS EARLY AS 12 NOON.", "nsi_id": "unitedstatespostalservice-a77078", "operator": "United States Postal Service", "operator:short": "USPS", "operator:type": "public", "operator:wikidata": "Q668687", "ref": "5991100008"}, "type": "Feature"}
{"geometry": {"coordinates": [-114.090649, 48.066529], "type": "Point"}, "id": "-EupVutou83HBJN6u64Cu5J3uiM=", "properties": {"@source_uri": "https://tools.usps.com/UspsToolsRestServices/rest/POLocator/findLocations", "@spider": "usps_collection_boxes", "addr:city": "BIG FORK", "addr:country": "US", "addr:postcode": "59911", "addr:state": "MT", "addr:street_address": "265 HOLT DR", "amenity": "post_box", "collection_times": "Mo-Fr 16:20; Sa 14:00", "indoor": "yes", "note": "ON 12/24 AND 12/31, THIS BOX MAY BE COLLECTED AS EARLY AS 12 NOON.", "nsi_id": "unitedstatespostalservice-a77078", "operator": "United States Postal Service", "operator:short": "USPS", "operator:type": "public", "operator:wikidata": "Q668687", "ref": "5991100009"}, "type": "Feature"}
{"geometry": {"coordinates": [-114.090649, 48.066529], "type": "Point"}, "id": "M4BAtNq2oTdI8hLROrv3laMyFZA=", "properties": {"@source_uri": "https://tools.usps.com/UspsToolsRestServices/rest/POLocator/findLocations", "@spider": "usps_collection_boxes", "addr:city": "BIG FORK", "addr:country": "US", "addr:postcode": "59911", "addr:state": "MT", "addr:street_address": "265 HOLT DR", "amenity": "post_box", "collection_times": "Mo-Fr 16:20; Sa 14:00", "indoor": "yes", "note": "ON 12/24 AND 12/31, THIS BOX MAY BE COLLECTED AS EARLY AS 12 NOON.", "nsi_id": "unitedstatespostalservice-a77078", "operator": "United States Postal Service", "operator:short": "USPS", "operator:type": "public", "operator:wikidata": "Q668687", "ref": "5991100010"}, "type": "Feature"}
{"geometry": {"coordinates": [-114.088944743, 48.06612009], "type": "Point"}, "id": "ZTNN8OWMOyF7Q0u_kkLxq9yL-ts=", "properties": {"@source_uri": "https://tools.usps.com/UspsToolsRestServices/rest/POLocator/findLocations", "@spider": "usps_collection_boxes", "addr:city": "BIG FORK", "addr:country": "US", "addr:postcode": "59911", "addr:state": "MT", "addr:street_address": "265 HOLT DR", "amenity": "post_box", "collection_times": "Mo-Fr 16:10; Sa 13:50", "indoor": "yes", "note": "ON 12/24 AND 12/31, THIS BOX MAY BE COLLECTED AS EARLY AS 12 NOON.", "nsi_id": "unitedstatespostalservice-a77078", "operator": "United States Postal Service", "operator:short": "USPS", "operator:type": "public", "operator:wikidata": "Q668687", "ref": "5991100013"}, "type": "Feature"}
{"geometry": {"coordinates": [-114.18031, 48.377564], "type": "Point"}, "id": "Queih87TNWC2sLicstgBdgZgxNI=", "properties": {"@source_uri": "https://tools.usps.com/UspsToolsRestServices/rest/POLocator/findLocations", "@spider": "usps_collection_boxes", "addr:city": "COLUMBIA FALLS", "addr:country": "US", "addr:postcode": "59912", "addr:state": "MT", "addr:street_address": "65 1ST ST E", "amenity": "post_box", "collection_times": "Mo-Fr 15:35; Sa 14:00", "note": "ON 12/24 AND 12/31, THIS BOX MAY BE COLLECTED AS EARLY AS 12 NOON.", "nsi_id": "unitedstatespostalservice-a77078", "operator": "United States Postal Service", "operator:short": "USPS", "operator:type": "public", "operator:wikidata": "Q668687", "ref": "5991200005"}, "type": "Feature"}
{"geometry": {"coordinates": [-114.24121, 48.320069], "type": "Point"}, "id": "YdQ0Eo9jrcy5CakroBBfn8vHsls=", "properties": {"@source_uri": "https://tools.usps.com/UspsToolsRestServices/rest/POLocator/findLocations", "@spider": "usps_collection_boxes", "addr:city": "COLUMBIA FALLS", "addr:country": "US", "addr:postcode": "59912", "addr:state": "MT", "addr:street_address": "10055 US HIGHWAY 2 E", "amenity": "post_box", "collection_times": "Mo-Fr 12:00; Sa 10:30", "nsi_id": "unitedstatespostalservice-a77078", "operator": "United States Postal Service", "operator:short": "USPS", "operator:type": "public", "operator:wikidata": "Q668687", "ref": "5991200009"}, "type": "Feature"}
{"geometry": {"coordinates": [-114.180269, 48.377537], "type": "Point"}, "id": "c_IKe7PXHW7_jECSEczhg9maqnE=", "properties": {"@source_uri": "https://tools.usps.com/UspsToolsRestServices/rest/POLocator/findLocations", "@spider": "usps_collection_boxes", "addr:city": "COLUMBIA FALLS", "addr:country": "US", "addr:postcode": "59912", "addr:state": "MT", "addr:street_address": "65 1ST ST E", "amenity": "post_box", "collection_times": "Mo-Fr 15:35; Sa 14:00", "indoor": "yes", "note": "ON 12/24 AND 12/31, THIS BOX MAY BE COLLECTED AS EARLY AS 12 NOON.", "nsi_id": "unitedstatespostalservice-a77078", "operator": "United States Postal Service", "operator:short": "USPS", "operator:type": "public", "operator:wikidata": "Q668687", "ref": "5991200014"}, "type": "Feature"}
{"geometry": {"coordinates": [-114.180269, 48.377537], "type": "Point"}, "id": "KyzQUMnVw0APQr2U9ofs3LM2ASI=", "properties": {"@source_uri": "https://tools.usps.com/UspsToolsRestServices/rest/POLocator/findLocations", "@spider": "usps_collection_boxes", "addr:city": "COLUMBIA FALLS", "addr:country": "US", "addr:postcode": "59912", "addr:state": "MT", "addr:street_address": "65 1ST ST E", "amenity": "post_box", "collection_times": "Mo-Fr 15:35; Sa 14:00", "indoor": "yes", "note": "ON 12/24 AND 12/31, THIS BOX MAY BE COLLECTED AS EARLY AS 12 NOON.", "nsi_id": "unitedstatespostalservice-a77078", "operator": "United States Postal Service", "operator:short": "USPS", "operator:type": "public", "operator:wikidata": "Q668687", "ref": "5991200015"}, "type": "Feature"}
{"geometry": {"coordinates": [-114.180269, 48.377537], "type": "Point"}, "id": "JpOUBDSfZYSIplsTpnODWEwqBlY=", "properties": {"@source_uri": "https://tools.usps.com/UspsToolsRestServices/rest/POLocator/findLocations", "@spider": "usps_collection_boxes", "addr:city": "COLUMBIA FALLS", "addr:country": "US", "addr:postcode": "59912", "addr:state": "MT", "addr:street_address": "65 1ST ST E", "amenity": "post_box", "collection_times": "Mo-Fr 15:35; Sa 14:00", "indoor": "yes", "note": "ON 12/24 AND 12/31, THIS BOX MAY BE COLLECTED AS EARLY AS 12 NOON.", "nsi_id": "unitedstatespostalservice-a77078", "operator": "United States Postal Service", "operator:short": "USPS", "operator:type": "public", "operator:wikidata": "Q668687", "ref": "5991200016"}, "type": "Feature"}
{"geometry": {"coordinates": [-114.180605, 48.374912], "type": "Point"}, "id": "PC4VuJblM3JKTVzGK__mXO_sQxE=", "properties": {"@source_uri": "https://tools.usps.com/UspsToolsRestServices/rest/POLocator/findLocations", "@spider": "usps_collection_boxes", "addr:city": "COLUMBIA FALLS", "addr:country": "US", "addr:postcode": "59912", "addr:state": "MT", "addr:street_address": "519 NUCLEUS AVE", "amenity": "post_box", "collection_times": "Mo-Sa 11:30", "nsi_id": "unitedstatespostalservice-a77078", "operator": "United States Postal Service", "operator:short": "USPS", "operator:type": "public", "operator:wikidata": "Q668687", "ref": "5991200020"}, "type": "Feature"}
{"geometry": {"coordinates": [-114.24121, 48.320069], "type": "Point"}, "id": "ZDQPT3Ce8H2wIBO7sG-Yl9uPtvY=", "properties": {"@source_uri": "https://tools.usps.com/UspsToolsRestServices/rest/POLocator/findLocations", "@spider": "usps_collection_boxes", "addr:city": "COLUMBIA FALLS", "addr:country": "US", "addr:postcode": "59912", "addr:state": "MT", "addr:street_address": "8900 US HIGHWAY 2 E", "amenity": "post_box", "collection_times": "Mo-Fr 15:15; Sa 11:00", "note": "ON 12/24 AND 12/31, THIS BOX MAY BE COLLECTED AS EARLY AS 12 NOON.", "nsi_id": "unitedstatespostalservice-a77078", "operator": "United States Postal Service", "operator:short": "USPS", "operator:type": "public", "operator:wikidata": "Q668687", "ref": "5991200026"}, "type": "Feature"}
{"geometry": {"coordinates": [-114.18075, 48.37756049], "type": "Point"}, "id": "ky26y_2U1OSnQx1wfVI1Cmj5APA=", "properties": {"@source_uri": "https://tools.usps.com/UspsToolsRestServices/rest/POLocator/findLocations", "@spider": "usps_collection_boxes", "addr:city": "COLUMBIA FALLS", "addr:country": "US", "addr:postcode": "59912", "addr:state": "MT", "addr:street_address": "65 1ST ST E", "amenity": "post_box", "collection_times": "Mo-Fr 15:30; Sa 14:00", "indoor": "yes", "note": "ON 12/24 AND 12/31, THIS BOX MAY BE COLLECTED AS EARLY AS 12 NOON.", "nsi_id": "unitedstatespostalservice-a77078", "operator": "United States Postal Service", "operator:short": "USPS", "operator:type": "public", "operator:wikidata": "Q668687", "ref": "5991200033"}, "type": "Feature"}
{"geometry": {"coordinates": [-114.281668, 47.867925], "type": "Point"}, "id": "SxhDLOrEB9Wl4RthLhTpzpPJI7c=", "properties": {"@source_uri": "https://tools.usps.com/UspsToolsRestServices/rest/POLocator/findLocations", "@spider": "usps_collection_boxes", "addr:city": "DAYTON", "addr:country": "US", "addr:postcode": "59914", "addr:state": "MT", "addr:street_address": "43789 LAKE MARY RONAN RD", "amenity": "post_box", "collection_times": "Mo-Fr 12:00; Sa 09:45", "indoor": "yes", "nsi_id": "unitedstatespostalservice-a77078", "operator": "United States Postal Service", "operator:short": "USPS", "operator:type": "public", "operator:wikidata": "Q668687", "ref": "5991400000"}, "type": "Feature"}
{"geometry": {"coordinates": [-114.281668, 47.867925], "type": "Point"}, "id": "cc2vy50qQY7IUCr2SHeoAaMYpmM=", "properties": {"@source_uri": "https://tools.usps.com/UspsToolsRestServices/rest/POLocator/findLocations", "@spider": "usps_collection_boxes", "addr:city": "DAYTON", "addr:country": "US", "addr:postcode": "59914", "addr:state": "MT", "addr:street_address": "43789 LAKE MARY RONAN RD", "amenity": "post_box", "collection_times": "Mo-Fr 12:00; Sa 09:45", "indoor": "yes", "nsi_id": "unitedstatespostalservice-a77078", "operator": "United States Postal Service", "operator:short": "USPS", "operator:type": "public", "operator:wikidata": "Q668687", "ref": "5991400002"}, "type": "Feature"}
{"geometry": {"coordinates": [-114.281668, 47.867925], "type": "Point"}, "id": "87MBohXmu_HQx0Hh-tDUra08SMY=", "properties": {"@source_uri": "https://tools.usps.com/UspsToolsRestServices/rest/POLocator/findLocations", "@spider": "usps_collection_boxes", "addr:city": "DAYTON", "addr:country": "US", "addr:postcode": "59914", "addr:state": "MT", "addr:street_address": "43789 LAKE MARY RONAN RD", "amenity": "post_box", "collection_times": "Mo-Fr 11:45; Sa 09:30", "nsi_id": "unitedstatespostalservice-a77078", "operator": "United States Postal Service", "operator:short": "USPS", "operator:type": "public", "operator:wikidata": "Q668687", "ref": "5991400003"}, "type": "Feature"}
{"geometry": {"coordinates": [-114.2816495954, 47.8679132001], "type": "Point"}, "id": "Eg9kKUTvlRtZa4lMhZ58Z2JoM0o=", "properties": {"@source_uri": "https://tools.usps.com/UspsToolsRestServices/rest/POLocator/findLocations", "@spider": "usps_collection_boxes", "addr:city": "DAYTON", "addr:country": "US", "addr:postcode": "59914", "addr:state": "MT", "addr:street_address": "43789 LAKE MARY RONAN RD", "amenity": "post_box", "collection_times": "Mo-Fr 12:00; Sa 09:45", "indoor": "yes", "nsi_id": "unitedstatespostalservice-a77078", "operator": "United States Postal Service", "operator:short": "USPS", "operator:type": "public", "operator:wikidata": "Q668687", "ref": "5991400004"}, "type": "Feature"}
{"geometry": {"coordinates": [-114.349435, 47.829833], "type": "Point"}, "id": "UuNsA3qBWpUijDPxPlUXMrPoYSs=", "properties": {"@source_uri": "https://tools.usps.com/UspsToolsRestServices/rest/POLocator/findLocations", "@spider": "usps_collection_boxes", "addr:city": "ELMO", "addr:country": "US", "addr:postcode": "59915", "addr:state": "MT", "addr:street_address": "26288 MISSOULA AVE", "amenity": "post_box", "collection_times": "Mo-Fr 10:45; Sa 09:30", "nsi_id": "unitedstatespostalservice-a77078", "operator": "United States Postal Service", "operator:short": "USPS", "operator:type": "public", "operator:wikidata": "Q668687", "ref": "5991500000"}, "type": "Feature"}
{"geometry": {"coordinates": [-114.349477, 47.829803], "type": "Point"}, "id": "cknkvQHrG3Vsfu6tk8c2vWhOP0Q=", "properties": {"@source_uri": "https://tools.usps.com/UspsToolsRestServices/rest/POLocator/findLocations", "@spider": "usps_collection_boxes", "addr:city": "ELMO", "addr:country": "US", "addr:postcode": "59915", "addr:state": "MT", "addr:street_address": "26288 MISSOULA AVE", "amenity": "post_box", "collection_times": "Mo-Fr 10:50; Sa 09:45", "indoor": "yes", "nsi_id": "unitedstatespostalservice-a77078", "operator": "United States Postal Service", "operator:short": "USPS", "operator:type": "public", "operator:wikidata": "Q668687", "ref": "5991500001"}, "type": "Feature"}
{"geometry": {"coordinates": [-114.349477, 47.829803], "type": "Point"}, "id": "N_wdDeDKv5GY797hFOr8zTBDyHI=", "properties": {"@source_uri": "https://tools.usps.com/UspsToolsRestServices/rest/POLocator/findLocations", "@spider": "usps_collection_boxes", "addr:city": "ELMO", "addr:country": "US", "addr:postcode": "59915", "addr:state": "MT", "addr:street_address": "26288 MISSOULA AVE", "amenity": "post_box", "collection_times": "Mo-Fr 10:50; Sa 09:45", "indoor": "yes", "nsi_id": "unitedstatespostalservice-a77078", "operator": "United States Postal Service", "operator:short": "USPS", "operator:type": "public", "operator:wikidata": "Q668687", "ref": "5991500002"}, "type": "Feature"}
{"geometry": {"coordinates": [-114.349532638, 47.829834756], "type": "Point"}, "id": "Hy7hlKCXcgZx-1HAvyE7hhaCuiY=", "properties": {"@source_uri": "https://tools.usps.com/UspsToolsRestServices/rest/POLocator/findLocations", "@spider": "usps_collection_boxes", "addr:city": "ELMO", "addr:country": "US", "addr:postcode": "59915", "addr:state": "MT", "addr:street_address": "26288 MISSOULA AVE", "amenity": "post_box", "collection_times": "Mo-Fr 10:50; Sa 09:45", "indoor": "yes", "nsi_id": "unitedstatespostalservice-a77078", "operator": "United States Postal Service", "operator:short": "USPS", "operator:type": "public", "operator:wikidata": "Q668687", "ref": "5991500003"}, "type": "Feature"}
{"geometry": {"coordinates": [-115.056089, 48.891474], "type": "Point"}, "id": "Kpe8siK-ZUCe6rZMYOWlWml_3lc=", "properties": {"@source_uri": "https://tools.usps.com/UspsToolsRestServices/rest/POLocator/findLocations", "@spider": "usps_collection_boxes", "addr:city": "EUREKA", "addr:country": "US", "addr:postcode": "59917", "addr:state": "MT", "addr:street_address": "113 14TH ST", "amenity": "post_box", "collection_times": "Mo-Fr 14:35; Sa 13:30", "note": "ON 12/24 AND 12/31, THIS BOX MAY BE COLLECTED AS EARLY AS 12 NOON.", "nsi_id": "unitedstatespostalservice-a77078", "operator": "United States Postal Service", "operator:short": "USPS", "operator:type": "public", "operator:wikidata": "Q668687", "ref": "5991700001"}, "type": "Feature"}
{"geometry": {"coordinates": [-115.056089, 48.891474], "type": "Point"}, "id": "18Pzfbrm4uJqdl_RVpvWBff7JOE=", "properties": {"@source_uri": "https://tools.usps.com/UspsToolsRestServices/rest/POLocator/findLocations", "@spider": "usps_collection_boxes", "addr:city": "EUREKA", "addr:country": "US", "addr:postcode": "59917", "addr:state": "MT", "addr:street_address": "113 14TH ST", "amenity": "post_box", "collection_times": "Mo-Fr 14:35; Sa 13:30", "indoor": "yes", "note": "ON 12/24 AND 12/31, THIS BOX MAY BE COLLECTED AS EARLY AS 12 NOON.", "nsi_id": "unitedstatespostalservice-a77078", "operator": "United States Postal Service", "operator:short": "USPS", "operator:type": "public", "operator:wikidata": "Q668687", "ref": "5991700004"}, "type": "Feature"}
{"geometry": {"coordinates": [-115.056089, 48.891474], "type": "Point"}, "id": "3MCDGXPY_ZgRIFYYbOufsAQFCFk=", "properties": {"@source_uri": "https://tools.usps.com/UspsToolsRestServices/rest/POLocator/findLocations", "@spider": "usps_collection_boxes", "addr:city": "EUREKA", "addr:country": "US", "addr:postcode": "59917", "addr:state": "MT", "addr:street_address": "113 14TH ST", "amenity": "post_box", "collection_times": "Mo-Fr 14:35; Sa 13:30", "indoor": "yes", "note": "ON 12/24 AND 12/31, THIS BOX MAY BE COLLECTED AS EARLY AS 12 NOON.", "nsi_id": "unitedstatespostalservice-a77078", "operator": "United States Postal Service", "operator:short": "USPS", "operator:type": "public", "operator:wikidata": "Q668687", "ref": "5991700005"}, "type": "Feature"}
{"geometry": {"coordinates": [-115.056027293, 48.891514326], "type": "Point"}, "id": "4NcIESrFTmLbTHGAs4GcjuPd5ZU=", "properties": {"@source_uri": "https://tools.usps.com/UspsToolsRestServices/rest/POLocator/findLocations", "@spider": "usps_collection_boxes", "addr:city": "EUREKA", "addr:country": "US", "addr:postcode": "59917", "addr:state": "MT", "addr:street_address": "113 14TH ST", "amenity": "post_box", "collection_times": "Mo-Fr 14:35; Sa 13:30", "indoor": "yes", "note": "ON 12/24 AND 12/31, THIS BOX MAY BE COLLECTED AS EARLY AS 12 NOON.", "nsi_id": "unitedstatespostalservice-a77078", "operator": "United States Postal Service", "operator:short": "USPS", "operator:type": "public", "operator:wikidata": "Q668687", "ref": "5991700006"}, "type": "Feature"}
{"geometry": {"coordinates": [-114.90449, 48.764107], "type": "Point"}, "id": "dQZQ-6Jt0rfIAIBLtHtXs4W-rzU=", "properties": {"@source_uri": "https://tools.usps.com/UspsToolsRestServices/rest/POLocator/findLocations", "@spider": "usps_collection_boxes", "addr:city": "FORTINE", "addr:country": "US", "addr:postcode": "59918", "addr:state": "MT", "addr:street_address": "170 MEADOW CREEK RD", "amenity": "post_box", "collection_times": "Mo-Fr 14:55; Sa 11:45", "indoor": "yes", "note": "ON 12/24 AND 12/31, THIS BOX MAY BE COLLECTED AS EARLY AS 12 NOON.", "nsi_id": "unitedstatespostalservice-a77078", "operator": "United States Postal Service", "operator:short": "USPS", "operator:type": "public", "operator:wikidata": "Q668687", "ref": "5991800001"}, "type": "Feature"}
{"geometry": {"coordinates": [-114.90449, 48.764107], "type": "Point"}, "id": "E7HgeBqArCfgg_UltTxChYPUZw8=", "properties": {"@source_uri": "https://tools.usps.com/UspsToolsRestServices/rest/POLocator/findLocations", "@spider": "usps_collection_boxes", "addr:city": "FORTINE", "addr:country": "US", "addr:postcode": "59918", "addr:state": "MT", "addr:street_address": "170 MEADOW CREEK RD", "amenity": "post_box", "collection_times": "Mo-Fr 14:55; Sa 11:45", "indoor": "yes", "note": "ON 12/24 AND 12/31, THIS BOX MAY BE COLLECTED AS EARLY AS 12 NOON.", "nsi_id": "unitedstatespostalservice-a77078", "operator": "United States Postal Service", "operator:short": "USPS", "operator:type": "public", "operator:wikidata": "Q668687", "ref": "5991800003"}, "type": "Feature"}
{"geometry": {"coordinates": [-114.902963591, 48.764281431], "type": "Point"}, "id": "e21LjEWHWxYY13z8gZjANROqfus=", "properties": {"@source_uri": "https://tools.usps.com/UspsToolsRestServices/rest/POLocator/findLocations", "@spider": "usps_collection_boxes", "addr:city": "FORTINE", "addr:country": "US", "addr:postcode": "59918", "addr:state": "MT", "addr:street_address": "170 MEADOW CREEK RD", "amenity": "post_box", "collection_times": "Mo-Fr 14:55", "indoor": "yes", "note": "ON 12/24 AND 12/31, THIS BOX MAY BE COLLECTED AS EARLY AS 12 NOON.", "nsi_id": "unitedstatespostalservice-a77078", "operator": "United States Postal Service", "operator:short": "USPS", "operator:type": "public", "operator:wikidata": "Q668687", "ref": "5991800005"}, "type": "Feature"}
{"geometry": {"coordinates": [-114.455488, 48.12267], "type": "Point"}, "id": "5CvxOH1HWdTVw2nMMaU39x6r2Qg=", "properties": {"@source_uri": "https://tools.usps.com/UspsToolsRestServices/rest/POLocator/findLocations", "@spider": "usps_collection_boxes", "addr:city": "KILA", "addr:country": "US", "addr:postcode": "59920", "addr:state": "MT", "addr:street_address": "345 KILA RD", "amenity": "post_box", "collection_times": "Mo-Fr 16:00; Sa 10:45", "indoor": "yes", "note": "ON 12/24 AND 12/31, THIS BOX MAY BE COLLECTED AS EARLY AS 12 NOON.", "nsi_id": "unitedstatespostalservice-a77078", "operator": "United States Postal Service", "operator:short": "USPS", "operator:type": "public", "operator:wikidata": "Q668687", "ref": "5992000000"}, "type": "Feature"}
{"geometry": {"coordinates": [-114.455488, 48.12267], "type": "Point"}, "id": "MXdHTRfGoNWWaWlgiFcZrinldoQ=", "properties": {"@source_uri": "https://tools.usps.com/UspsToolsRestServices/rest/POLocator/findLocations", "@spider": "usps_collection_boxes", "addr:city": "KILA", "addr:country": "US", "addr:postcode": "59920", "addr:state": "MT", "addr:street_address": "345 KILA RD", "amenity": "post_box", "collection_times": "Mo-Fr 16:00; Sa 10:45", "indoor": "yes", "note": "ON 12/24 AND 12/31, THIS BOX MAY BE COLLECTED AS EARLY AS 12 NOON.", "nsi_id": "unitedstatespostalservice-a77078", "operator": "United States Postal Service", "operator:short": "USPS", "operator:type": "public", "operator:wikidata": "Q668687", "ref": "5992000001"}, "type": "Feature"}
{"geometry": {"coordinates": [-114.225082, 48.020534], "type": "Point"}, "id": "edhm_pZdJGmOt9WEArafk3fWiaQ=", "properties": {"@source_uri": "https://tools.usps.com/UspsToolsRestServices/rest/POLocator/findLocations", "@spider": "usps_collection_boxes", "addr:city": "LAKESIDE", "addr:country": "US", "addr:postcode": "59922", "addr:state": "MT", "addr:street_address": "7196 US HIGHWAY 93", "amenity": "post_box", "collection_times": "Mo-Fr 16:30; Sa 08:00", "note": "ON 12/24 AND 12/31, THIS BOX MAY BE COLLECTED AS EARLY AS 12 NOON.", "nsi_id": "unitedstatespostalservice-a77078", "operator": "United States Postal Service", "operator:short": "USPS", "operator:type": "public", "operator:wikidata": "Q668687", "ref": "5992200000"}, "type": "Feature"}
{"geometry": {"coordinates": [-114.225078, 48.020628], "type": "Point"}, "id": "zeR9fczK-P1rz29sAXzD1MGrsCo=", "properties": {"@source_uri": "https://tools.usps.com/UspsToolsRestServices/rest/POLocator/findLocations", "@spider": "usps_collection_boxes", "addr:city": "LAKESIDE", "addr:country": "US", "addr:postcode": "59922", "addr:state": "MT", "addr:street_address": "7196 US HIGHWAY 93", "amenity": "post_box", "collection_times": "Mo-Fr 16:45; Sa 10:00", "indoor": "yes", "note": "ON 12/24 AND 12/31, THIS BOX MAY BE COLLECTED AS EARLY AS 12 NOON.", "nsi_id": "unitedstatespostalservice-a77078", "operator": "United States Postal Service", "operator:short": "USPS", "operator:type": "public", "operator:wikidata": "Q668687", "ref": "5992200001"}, "type": "Feature"}
{"geometry": {"coordinates": [-114.225078, 48.020628], "type": "Point"}, "id": "eEfNSiV-60QV1yg8739oIk6LW40=", "properties": {"@source_uri": "https://tools.usps.com/UspsToolsRestServices/rest/POLocator/findLocations", "@spider": "usps_collection_boxes", "addr:city": "LAKESIDE", "addr:country": "US", "addr:postcode": "59922", "addr:state": "MT", "addr:street_address": "7196 US HIGHWAY 93", "amenity": "post_box", "collection_times": "Mo-Fr 16:45; Sa 10:00", "indoor": "yes", "note": "ON 12/24 AND 12/31, THIS BOX MAY BE COLLECTED AS EARLY AS 12 NOON.", "nsi_id": "unitedstatespostalservice-a77078", "operator": "United States Postal Service", "operator:short": "USPS", "operator:type": "public", "operator:wikidata": "Q668687", "ref": "5992200002"}, "type": "Feature"}
{"geometry": {"coordinates": [-115.55489, 48.391914], "type": "Point"}, "id": "Bs8XB4796UXSN0Wm6gVLT9HHwrA=", "properties": {"@source_uri": "https://tools.usps.com/UspsToolsRestServices/rest/POLocator/findLocations", "@spider": "usps_collection_boxes", "addr:city": "LIBBY", "addr:country": "US", "addr:postcode": "59923", "addr:state": "MT", "addr:street_address": "518 MAIN AVE", "amenity": "post_box", "collection_times": "Mo-Fr 16:35; Sa 15:30", "note": "ON 12/24 AND 12/31, THIS BOX MAY BE COLLECTED AS EARLY AS 12 NOON.", "nsi_id": "unitedstatespostalservice-a77078", "operator": "United States Postal Service", "operator:short": "USPS", "operator:type": "public", "operator:wikidata": "Q668687", "ref": "5992300000"}, "type": "Feature"}
{"geometry": {"coordinates": [-115.561467, 48.390522], "type": "Point"}, "id": "RzDQzEkHOpdzjc5MFvghnZLzWbM=", "properties": {"@source_uri": "https://tools.usps.com/UspsToolsRestServices/rest/POLocator/findLocations", "@spider": "usps_collection_boxes", "addr:city": "LIBBY", "addr:country": "US", "addr:postcode": "59923", "addr:state": "MT", "addr:street_address": "703 E 9TH ST", "amenity": "post_box", "collection_times": "Mo-Fr 12:00; Sa 11:30", "nsi_id": "unitedstatespostalservice-a77078", "operator": "United States Postal Service", "operator:short": "USPS", "operator:type": "public", "operator:wikidata": "Q668687", "ref": "5992300002"}, "type": "Feature"}
{"geometry": {"coordinates": [-115.554817, 48.391954], "type": "Point"}, "id": "moeb-aub-urI8_iKJQboUcuy_lU=", "properties": {"@source_uri": "https://tools.usps.com/UspsToolsRestServices/rest/POLocator/findLocations", "@spider": "usps_collection_boxes", "addr:city": "LIBBY", "addr:country": "US", "addr:postcode": "59923", "addr:state": "MT", "addr:street_address": "518 MAIN AVE", "amenity": "post_box", "collection_times": "Mo-Fr 16:35; Sa 15:55", "indoor": "yes", "note": "ON 12/24 AND 12/31, THIS BOX MAY BE COLLECTED AS EARLY AS 12 NOON.", "nsi_id": "unitedstatespostalservice-a77078", "operator": "United States Postal Service", "operator:short": "USPS", "operator:type": "public", "operator:wikidata": "Q668687", "ref": "5992300005"}, "type": "Feature"}
{"geometry": {"coordinates": [-115.554817, 48.391954], "type": "Point"}, "id": "7Uh1TtTUrMExzMuttW7IjDvJ65A=", "properties": {"@source_uri": "https://tools.usps.com/UspsToolsRestServices/rest/POLocator/findLocations", "@spider": "usps_collection_boxes", "addr:city": "LIBBY", "addr:country": "US", "addr:postcode": "59923", "addr:state": "MT", "addr:street_address": "518 MAIN AVE", "amenity": "post_box", "collection_times": "Mo-Fr 16:35; Sa 15:55", "indoor": "yes", "note": "ON 12/24 AND 12/31, THIS BOX MAY BE COLLECTED AS EARLY AS 12 NOON.", "nsi_id": "unitedstatespostalservice-a77078", "operator": "United States Postal Service", "operator:short": "USPS", "operator:type": "public", "operator:wikidata": "Q668687", "ref": "5992300006"}, "type": "Feature"}
{"geometry": {"coordinates": [-114.661728, 48.105455], "type": "Point"}, "id": "E2uYUc3GZ88Z9yx5I5C-sU2IC3c=", "properties": {"@source_uri": "https://tools.usps.com/UspsToolsRestServices/rest/POLocator/findLocations", "@spider": "usps_collection_boxes", "addr:city": "MARION", "addr:country": "US", "addr:postcode": "59925", "addr:state": "MT", "addr:street_address": "365 PLEASANT VALLEY RD", "amenity": "post_box", "collection_times": "Mo-Sa 14:00", "note": "ON 12/24 AND 12/31, THIS BOX MAY BE COLLECTED AS EARLY AS 12 NOON.", "nsi_id": "unitedstatespostalservice-a77078", "operator": "United States Postal Service", "operator:short": "USPS", "operator:type": "public", "operator:wikidata": "Q668687", "ref": "5992500000"}, "type": "Feature"}
{"geometry": {"coordinates": [-114.661904, 48.105406], "type": "Point"}, "id": "WmkUmOXtce10aBtUY4ctBhCP58w=", "properties": {"@source_uri": "https://tools.usps.com/UspsToolsRestServices/rest/POLocator/findLocations", "@spider": "usps_collection_boxes", "addr:city": "MARION", "addr:country": "US", "addr:postcode": "59925", "addr:state": "MT", "addr:street_address": "365 PLEASANT VALLEY RD", "amenity": "post_box", "collection_times": "Mo-Fr 14:00; Sa 11:45", "indoor": "yes", "note": "ON 12/24 AND 12/31, THIS BOX MAY BE COLLECTED AS EARLY AS 12 NOON.", "nsi_id": "unitedstatespostalservice-a77078", "operator": "United States Postal Service", "operator:short": "USPS", "operator:type": "public", "operator:wikidata": "Q668687", "ref": "5992500001"}, "type": "Feature"}
{"geometry": {"coordinates": [-114.661853, 48.105389], "type": "Point"}, "id": "haBM3Pt-1fu6AQkmYHUv_jFUk3E=", "properties": {"@source_uri": "https://tools.usps.com/UspsToolsRestServices/rest/POLocator/findLocations", "@spider": "usps_collection_boxes", "addr:city": "MARION", "addr:country": "US", "addr:postcode": "59925", "addr:state": "MT", "addr:street_address": "365 PLEASANT VALLEY RD", "amenity": "post_box", "collection_times": "Mo-Fr 14:00; Sa 11:45", "indoor": "yes", "note": "ON 12/24 AND 12/31, THIS BOX MAY BE COLLECTED AS EARLY AS 12 NOON.", "nsi_id": "unitedstatespostalservice-a77078", "operator": "United States Postal Service", "operator:short": "USPS", "operator:type": "public", "operator:wikidata": "Q668687", "ref": "5992500002"}, "type": "Feature"}
{"geometry": {"coordinates": [-114.573102, 48.552863], "type": "Point"}, "id": "qQ0snU30LAsG3hsHDrtXrEGpZng=", "properties": {"@source_uri": "https://tools.usps.com/UspsToolsRestServices/rest/POLocator/findLocations", "@spider": "usps_collection_boxes", "addr:city": "OLNEY", "addr:country": "US", "addr:postcode": "59927", "addr:state": "MT", "addr:street_address": "1 OLNEY LOOP RD", "amenity": "post_box", "collection_times": "Mo-Fr 11:45; Sa 08:00", "nsi_id": "unitedstatespostalservice-a77078", "operator": "United States Postal Service", "operator:short": "USPS", "operator:type": "public", "operator:wikidata": "Q668687", "ref": "5992700000"}, "type": "Feature"}
{"geometry": {"coordinates": [-114.573058, 48.552952], "type": "Point"}, "id": "J7ajfB20PQ2O-MrcG1FW2k-WKxY=", "properties": {"@source_uri": "https://tools.usps.com/UspsToolsRestServices/rest/POLocator/findLocations", "@spider": "usps_collection_boxes", "addr:city": "OLNEY", "addr:country": "US", "addr:postcode": "59927", "addr:state": "MT", "addr:street_address": "1 OLNEY LOOP RD", "amenity": "post_box", "collection_times": "Mo-Fr 12:00; Sa 09:15", "indoor": "yes", "nsi_id": "unitedstatespostalservice-a77078", "operator": "United States Postal Service", "operator:short": "USPS", "operator:type": "public", "operator:wikidata": "Q668687", "ref": "5992700001"}, "type": "Feature"}
{"geometry": {"coordinates": [-114.573058, 48.552952], "type": "Point"}, "id": "88SZ6D7xbztgSuCirKh56p8EJ18=", "properties": {"@source_uri": "https://tools.usps.com/UspsToolsRestServices/rest/POLocator/findLocations", "@spider": "usps_collection_boxes", "addr:city": "OLNEY", "addr:country": "US", "addr:postcode": "59927", "addr:state": "MT", "addr:street_address": "1 OLNEY LOOP RD", "amenity": "post_box", "collection_times": "Mo-Fr 12:00; Sa 09:15", "indoor": "yes", "nsi_id": "unitedstatespostalservice-a77078", "operator": "United States Postal Service", "operator:short": "USPS", "operator:type": "public", "operator:wikidata": "Q668687", "ref": "5992700002"}, "type": "Feature"}
{"geometry": {"coordinates": [-115.169515, 48.899537], "type": "Point"}, "id": "kYL1RHxMSqv-P_jvv2UklW30nA0=", "properties": {"@source_uri": "https://tools.usps.com/UspsToolsRestServices/rest/POLocator/findLocations", "@spider": "usps_collection_boxes", "addr:city": "REXFORD", "addr:country": "US", "addr:postcode": "59930", "addr:state": "MT", "addr:street_address": "202 GATEWAY ST", "amenity": "post_box", "collection_times": "Mo-Fr 13:00; Sa 10:20", "indoor": "yes", "note": "ON 12/24 AND 12/31, THIS BOX MAY BE COLLECTED AS EARLY AS 12 NOON.", "nsi_id": "unitedstatespostalservice-a77078", "operator": "United States Postal Service", "operator:short": "USPS", "operator:type": "public", "operator:wikidata": "Q668687", "ref": "5993000000"}, "type": "Feature"}
{"geometry": {"coordinates": [-115.169547, 48.899481], "type": "Point"}, "id": "wiTDYyQ4j-6gVkucCaDxREbdkpI=", "properties": {"@source_uri": "https://tools.usps.com/UspsToolsRestServices/rest/POLocator/findLocations", "@spider": "usps_collection_boxes", "addr:city": "REXFORD", "addr:country": "US", "addr:postcode": "59930", "addr:state": "MT", "addr:street_address": "202 GATEWAY ST", "amenity": "post_box", "collection_times": "Mo-Fr 13:00; Sa 10:20", "indoor": "yes", "note": "ON 12/24 AND 12/31, THIS BOX MAY BE COLLECTED AS EARLY AS 12 NOON.", "nsi_id": "unitedstatespostalservice-a77078", "operator": "United States Postal Service", "operator:short": "USPS", "operator:type": "public", "operator:wikidata": "Q668687", "ref": "5993000001"}, "type": "Feature"}
{"geometry": {"coordinates": [-114.225769911, 48.080806105], "type": "Point"}, "id": "Dj28ifcOaaZA0nCy0lmNChW1z74=", "properties": {"@source_uri": "https://tools.usps.com/UspsToolsRestServices/rest/POLocator/findLocations", "@spider": "usps_collection_boxes", "addr:city": "SOMERS", "addr:country": "US", "addr:postcode": "59932", "addr:state": "MT", "addr:street_address": "150 SOMERS RD", "amenity": "post_box", "collection_times": "Mo-Fr 15:45; Sa 08:00", "note": "ON 12/24 AND 12/31, THIS BOX MAY BE COLLECTED AS EARLY AS 12 NOON.", "nsi_id": "unitedstatespostalservice-a77078", "operator": "United States Postal Service", "operator:short": "USPS", "operator:type": "public", "operator:wikidata": "Q668687", "ref": "5993200000"}, "type": "Feature"}
{"geometry": {"coordinates": [-114.225287, 48.080696], "type": "Point"}, "id": "8LSs0GnSRCkijnpYgxbHxtj2-Oo=", "properties": {"@source_uri": "https://tools.usps.com/UspsToolsRestServices/rest/POLocator/findLocations", "@spider": "usps_collection_boxes", "addr:city": "SOMERS", "addr:country": "US", "addr:postcode": "59932", "addr:state": "MT", "addr:street_address": "150 SOMERS RD", "amenity": "post_box", "collection_times": "Mo-Fr 15:45; Sa 10:00", "indoor": "yes", "note": "ON 12/24 AND 12/31, THIS BOX MAY BE COLLECTED AS EARLY AS 12 NOON.", "nsi_id": "unitedstatespostalservice-a77078", "operator": "United States Postal Service", "operator:short": "USPS", "operator:type": "public", "operator:wikidata": "Q668687", "ref": "5993200001"}, "type": "Feature"}
{"geometry": {"coordinates": [-114.772522, 48.674179], "type": "Point"}, "id": "w-XFbYDV6ahx9rdKc91N4hMhjhA=", "properties": {"@source_uri": "https://tools.usps.com/UspsToolsRestServices/rest/POLocator/findLocations", "@spider": "usps_collection_boxes", "addr:city": "STRYKER", "addr:country": "US", "addr:postcode": "59933", "addr:state": "MT", "addr:street_address": "120 SUNDAY CREEK RD", "amenity": "post_box", "collection_times": "Mo-Fr 09:20; Sa 09:00", "indoor": "yes", "nsi_id": "unitedstatespostalservice-a77078", "operator": "United States Postal Service", "operator:short": "USPS", "operator:type": "public", "operator:wikidata": "Q668687", "ref": "5993300000"}, "type": "Feature"}
{"geometry": {"coordinates": [-114.772388, 48.674166], "type": "Point"}, "id": "9i0l8Vk7ziikdnrgUG46Z1K_r58=", "properties": {"@source_uri": "https://tools.usps.com/UspsToolsRestServices/rest/POLocator/findLocations", "@spider": "usps_collection_boxes", "addr:city": "STRYKER", "addr:country": "US", "addr:postcode": "59933", "addr:state": "MT", "addr:street_address": "120 SUNDAY CREEK RD", "amenity": "post_box", "collection_times": "Mo-Fr 09:20; Sa 09:00", "indoor": "yes", "nsi_id": "unitedstatespostalservice-a77078", "operator": "United States Postal Service", "operator:short": "USPS", "operator:type": "public", "operator:wikidata": "Q668687", "ref": "5993300001"}, "type": "Feature"}
{"geometry": {"coordinates": [-114.869749, 48.705098], "type": "Point"}, "id": "b4QMNUubfKM0qJeCNtOAHPsY3As=", "properties": {"@source_uri": "https://tools.usps.com/UspsToolsRestServices/rest/POLocator/findLocations", "@spider": "usps_collection_boxes", "addr:city": "TREGO", "addr:country": "US", "addr:postcode": "59934", "addr:state": "MT", "addr:street_address": "252 FORTINE CREEK RD", "amenity": "post_box", "collection_times": "Mo-Fr 11:15; Sa 08:00", "nsi_id": "unitedstatespostalservice-a77078", "operator": "United States Postal Service", "operator:short": "USPS", "operator:type": "public", "operator:wikidata": "Q668687", "ref": "5993400000"}, "type": "Feature"}
{"geometry": {"coordinates": [-114.869749, 48.705098], "type": "Point"}, "id": "UDbsmwj46BnxErA2UGISZ1dodcY=", "properties": {"@source_uri": "https://tools.usps.com/UspsToolsRestServices/rest/POLocator/findLocations", "@spider": "usps_collection_boxes", "addr:city": "TREGO", "addr:country": "US", "addr:postcode": "59934", "addr:state": "MT", "addr:street_address": "252 FORTINE CREEK RD", "amenity": "post_box", "collection_times": "Mo-Fr 11:30; Sa 09:15", "indoor": "yes", "nsi_id": "unitedstatespostalservice-a77078", "operator": "United States Postal Service", "operator:short": "USPS", "operator:type": "public", "operator:wikidata": "Q668687", "ref": "5993400001"}, "type": "Feature"}
{"geometry": {"coordinates": [-114.869749, 48.705098], "type": "Point"}, "id": "mIdw6XCITe1vNxS4vPb1_Voaua0=", "properties": {"@source_uri": "https://tools.usps.com/UspsToolsRestServices/rest/POLocator/findLocations", "@spider": "usps_collection_boxes", "addr:city": "TREGO", "addr:country": "US", "addr:postcode": "59934", "addr:state": "MT", "addr:street_address": "252 FORTINE CREEK RD", "amenity": "post_box", "collection_times": "Mo-Fr 11:30; Sa 09:15", "indoor": "yes", "nsi_id": "unitedstatespostalservice-a77078", "operator": "United States Postal Service", "operator:short": "USPS", "operator:type": "public", "operator:wikidata": "Q668687", "ref": "5993400002"}, "type": "Feature"}
{"geometry": {"coordinates": [-115.892427, 48.465111], "type": "Point"}, "id": "h-2a1xoIkIM5dFEsVJ8BHJAD7oo=", "properties": {"@source_uri": "https://tools.usps.com/UspsToolsRestServices/rest/POLocator/findLocations", "@spider": "usps_collection_boxes", "addr:city": "TROY", "addr:country": "US", "addr:postcode": "59935", "addr:state": "MT", "addr:street_address": "123 E KOOTENAI AVE", "amenity": "post_box", "collection_times": "Mo-Fr 16:45; Sa 11:00", "note": "ON 12/24 AND 12/31, THIS BOX MAY BE COLLECTED AS EARLY AS 12 NOON.", "nsi_id": "unitedstatespostalservice-a77078", "operator": "United States Postal Service", "operator:short": "USPS", "operator:type": "public", "operator:wikidata": "Q668687", "ref": "5993500002"}, "type": "Feature"}
{"geometry": {"coordinates": [-115.892492, 48.465147], "type": "Point"}, "id": "kCfU_wtwNO-Ntlt0-zcu82TRbyo=", "properties": {"@source_uri": "https://tools.usps.com/UspsToolsRestServices/rest/POLocator/findLocations", "@spider": "usps_collection_boxes", "addr:city": "TROY", "addr:country": "US", "addr:postcode": "59935", "addr:state": "MT", "addr:street_address": "123 E KOOTENAI AVE", "amenity": "post_box", "collection_times": "Mo-Fr 17:00; Sa 11:15", "indoor": "yes", "note": "ON 12/24 AND 12/31, THIS BOX MAY BE COLLECTED AS EARLY AS 12 NOON.", "nsi_id": "unitedstatespostalservice-a77078", "operator": "United States Postal Service", "operator:short": "USPS", "operator:type": "public", "operator:wikidata": "Q668687", "ref": "5993500003"}, "type": "Feature"}
{"geometry": {"coordinates": [-115.892492, 48.465147], "type": "Point"}, "id": "N2RFFFrJTk3S_CnorX18sjpOdoc=", "properties": {"@source_uri": "https://tools.usps.com/UspsToolsRestServices/rest/POLocator/findLocations", "@spider": "usps_collection_boxes", "addr:city": "TROY", "addr:country": "US", "addr:postcode": "59935", "addr:state": "MT", "addr:street_address": "123 E KOOTENAI AVE", "amenity": "post_box", "collection_times": "Mo-Fr 17:00; Sa 11:15", "indoor": "yes", "note": "ON 12/24 AND 12/31, THIS BOX MAY BE COLLECTED AS EARLY AS 12 NOON.", "nsi_id": "unitedstatespostalservice-a77078", "operator": "United States Postal Service", "operator:short": "USPS", "operator:type": "public", "operator:wikidata": "Q668687", "ref": "5993500004"}, "type": "Feature"}
{"geometry": {"coordinates": [-115.892492, 48.465147], "type": "Point"}, "id": "WZg_r80AQLx9KLBYQojUdJJhYDg=", "properties": {"@source_uri": "https://tools.usps.com/UspsToolsRestServices/rest/POLocator/findLocations", "@spider": "usps_collection_boxes", "addr:city": "TROY", "addr:country": "US", "addr:postcode": "59935", "addr:state": "MT", "addr:street_address": "123 E KOOTENAI AVE", "amenity": "post_box", "collection_times": "Mo-Fr 17:00; Sa 11:15", "indoor": "yes", "note": "ON 12/24 AND 12/31, THIS BOX MAY BE COLLECTED AS EARLY AS 12 NOON.", "nsi_id": "unitedstatespostalservice-a77078", "operator": "United States Postal Service", "operator:short": "USPS", "operator:type": "public", "operator:wikidata": "Q668687", "ref": "5993500005"}, "type": "Feature"}
{"geometry": {"coordinates": [-115.892492, 48.465147], "type": "Point"}, "id": "cEF3hmaSNRWLk3WryMAJkEm32_w=", "properties": {"@source_uri": "https://tools.usps.com/UspsToolsRestServices/rest/POLocator/findLocations", "@spider": "usps_collection_boxes", "addr:city": "TROY", "addr:country": "US", "addr:postcode": "59935", "addr:state": "MT", "addr:street_address": "123 E KOOTENAI AVE", "amenity": "post_box", "collection_times": "Mo-Fr 17:00; Sa 11:15", "indoor": "yes", "note": "ON 12/24 AND 12/31, THIS BOX MAY BE COLLECTED AS EARLY AS 12 NOON.", "nsi_id": "unitedstatespostalservice-a77078", "operator": "United States Postal Service", "operator:short": "USPS", "operator:type": "public", "operator:wikidata": "Q668687", "ref": "5993500006"}, "type": "Feature"}
{"geometry": {"coordinates": [-113.98192, 48.495525], "type": "Point"}, "id": "h7ShWwc_xWlVAqQkmDJxmHMKKCI=", "properties": {"@source_uri": "https://tools.usps.com/UspsToolsRestServices/rest/POLocator/findLocations", "@spider": "usps_collection_boxes", "addr:city": "WEST GLACIER", "addr:country": "US", "addr:postcode": "59936", "addr:state": "MT", "addr:street_address": "PO BOX 9998", "amenity": "post_box", "collection_times": "Mo-Fr 14:45; Sa 10:45", "indoor": "yes", "note": "ON 12/24 AND 12/31, THIS BOX MAY BE COLLECTED AS EARLY AS 12 NOON.", "nsi_id": "unitedstatespostalservice-a77078", "operator": "United States Postal Service", "operator:short": "USPS", "operator:type": "public", "operator:wikidata": "Q668687", "ref": "5993600002"}, "type": "Feature"}
{"geometry": {"coordinates": [-113.98192, 48.495525], "type": "Point"}, "id": "PNZ7X9v5g_KF4u7kPbnvD0KMu1M=", "properties": {"@source_uri": "https://tools.usps.com/UspsToolsRestServices/rest/POLocator/findLocations", "@spider": "usps_collection_boxes", "addr:city": "WEST GLACIER", "addr:country": "US", "addr:postcode": "59936", "addr:state": "MT", "addr:street_address": "PO BOX 9998", "amenity": "post_box", "collection_times": "Mo-Fr 14:45; Sa 10:45", "indoor": "yes", "note": "ON 12/24 AND 12/31, THIS BOX MAY BE COLLECTED AS EARLY AS 12 NOON.", "nsi_id": "unitedstatespostalservice-a77078", "operator": "United States Postal Service", "operator:short": "USPS", "operator:type": "public", "operator:wikidata": "Q668687", "ref": "5993600006"}, "type": "Feature"}
{"geometry": {"coordinates": [-113.98192, 48.495525], "type": "Point"}, "id": "U9s1X3-lo2yjZV02CBMCCyBIe9c=", "properties": {"@source_uri": "https://tools.usps.com/UspsToolsRestServices/rest/POLocator/findLocations", "@spider": "usps_collection_boxes", "addr:city": "WEST GLACIER", "addr:country": "US", "addr:postcode": "59936", "addr:state": "MT", "addr:street_address": "PO BOX 9998", "amenity": "post_box", "collection_times": "Mo-Fr 14:45; Sa 10:45", "indoor": "yes", "note": "ON 12/24 AND 12/31, THIS BOX MAY BE COLLECTED AS EARLY AS 12 NOON.", "nsi_id": "unitedstatespostalservice-a77078", "operator": "United States Postal Service", "operator:short": "USPS", "operator:type": "public", "operator:wikidata": "Q668687", "ref": "5993600007"}, "type": "Feature"}
{"geometry": {"coordinates": [-113.98192, 48.495525], "type": "Point"}, "id": "0Y31inbKc_PdbV5Z45Cp8zaaENI=", "properties": {"@source_uri": "https://tools.usps.com/UspsToolsRestServices/rest/POLocator/findLocations", "@spider": "usps_collection_boxes", "addr:city": "WEST GLACIER", "addr:country": "US", "addr:postcode": "59936", "addr:state": "MT", "addr:street_address": "PO BOX 9998", "amenity": "post_box", "collection_times": "Mo-Fr 14:45; Sa 10:45", "indoor": "yes", "note": "ON 12/24 AND 12/31, THIS BOX MAY BE COLLECTED AS EARLY AS 12 NOON.", "nsi_id": "unitedstatespostalservice-a77078", "operator": "United States Postal Service", "operator:short": "USPS", "operator:type": "public", "operator:wikidata": "Q668687", "ref": "5993600008"}, "type": "Feature"}
{"geometry": {"coordinates": [-114.338592, 48.408135], "type": "Point"}, "id": "xrwNn5sxlrv0oWik4Xuv3vWVUmE=", "properties": {"@source_uri": "https://tools.usps.com/UspsToolsRestServices/rest/POLocator/findLocations", "@spider": "usps_collection_boxes", "addr:city": "WHITEFISH", "addr:country": "US", "addr:postcode": "59937", "addr:state": "MT", "addr:street_address": "424 BAKER AVE", "amenity": "post_box", "collection_times": "Mo-Fr 15:45; Sa 14:30", "note": "ON 12/24 AND 12/31, THIS BOX MAY BE COLLECTED AS EARLY AS 12 NOON.", "nsi_id": "unitedstatespostalservice-a77078", "operator": "United States Postal Service", "operator:short": "USPS", "operator:type": "public", "operator:wikidata": "Q668687", "ref": "5993700000"}, "type": "Feature"}
{"geometry": {"coordinates": [-114.338592, 48.408135], "type": "Point"}, "id": "ISCIcDh3qdYDpXOHBcG9el8MvUw=", "properties": {"@source_uri": "https://tools.usps.com/UspsToolsRestServices/rest/POLocator/findLocations", "@spider": "usps_collection_boxes", "addr:city": "WHITEFISH", "addr:country": "US", "addr:postcode": "59937", "addr:state": "MT", "addr:street_address": "424 BAKER AVE", "amenity": "post_box", "collection_times": "Mo-Fr 15:45; Sa 14:30", "indoor": "yes", "note": "ON 12/24 AND 12/31, THIS BOX MAY BE COLLECTED AS EARLY AS 12 NOON.", "nsi_id": "unitedstatespostalservice-a77078", "operator": "United States Postal Service", "operator:short": "USPS", "operator:type": "public", "operator:wikidata": "Q668687", "ref": "5993700017"}, "type": "Feature"}
{"geometry": {"coordinates": [-114.338592, 48.408135], "type": "Point"}, "id": "aYmUe-QfnVvBXlJGhfxrJS6Gsd8=", "properties": {"@source_uri": "https://tools.usps.com/UspsToolsRestServices/rest/POLocator/findLocations", "@spider": "usps_collection_boxes", "addr:city": "WHITEFISH", "addr:country": "US", "addr:postcode": "59937", "addr:state": "MT", "addr:street_address": "424 BAKER AVE", "amenity": "post_box", "collection_times": "Mo-Fr 15:45; Sa 14:30", "indoor": "yes", "note": "ON 12/24 AND 12/31, THIS BOX MAY BE COLLECTED AS EARLY AS 12 NOON.", "nsi_id": "unitedstatespostalservice-a77078", "operator": "United States Postal Service", "operator:short": "USPS", "operator:type": "public", "operator:wikidata": "Q668687", "ref": "5993700019"}, "type": "Feature"}
