{"geometry": {"coordinates": [-87.686352026, 42.048757017], "type": "Point"}, "id": "UHCtwROg_INSxz1bhSKUfzQJXLg=", "properties": {"@source_uri": "https://tools.usps.com/UspsToolsRestServices/rest/POLocator/findLocations", "@spider": "usps_collection_boxes", "addr:city": "EVANSTON", "addr:country": "US", "addr:postcode": "60204", "addr:state": "IL", "addr:street_address": "1007 CHURCH ST", "amenity": "post_box", "collection_times": "Mo-Fr 13:30", "note": "ON 12/24 AND 12/31, THIS BOX MAY BE COLLECTED AS EARLY AS 12 NOON.", "nsi_id": "unitedstatespostalservice-a77078", "operator": "United States Postal Service", "operator:short": "USPS", "operator:type": "public", "operator:wikidata": "Q668687", "ref": "6020400004"}, "type": "Feature"}
{"geometry": {"coordinates": [-87.6863877485, 42.0510914716], "type": "Point"}, "id": "t9HoFU8cMofMnwUB4hWX2J_W95o=", "properties": {"@source_uri": "https://tools.usps.com/UspsToolsRestServices/rest/POLocator/findLocations", "@spider": "usps_collection_boxes", "addr:city": "EVANSTON", "addr:country": "US", "addr:postcode": "60204", "addr:state": "IL", "addr:street_address": "1033 UNIVERSITY PL", "amenity": "post_box", "collection_times": "Mo-Fr 13:30", "note": "ON 12/24 AND 12/31, THIS BOX MAY BE COLLECTED AS EARLY AS 12 NOON.", "nsi_id": "unitedstatespostalservice-a77078", "operator": "United States Postal Service", "operator:short": "USPS", "operator:type": "public", "operator:wikidata": "Q668687", "ref": "6020400007"}, "type": "Feature"}
{"geometry": {"coordinates": [-87.6878274, 42.047177], "type": "Point"}, "id": "8TRNWTtgw6RgCbeO-FgYZLBfpKE=", "properties": {"@source_uri": "https://tools.usps.com/UspsToolsRestServices/rest/POLocator/findLocations", "@spider": "usps_collection_boxes", "addr:city": "EVANSTON", "addr:country": "US", "addr:postcode": "60204", "addr:state": "IL", "addr:street_address": "1101 DAVIS ST", "amenity": "post_box", "collection_times": "Mo-Fr 17:30; Sa 17:00", "note": "ON 12/24 AND 12/31, THIS BOX MAY BE COLLECTED AS EARLY AS 12 NOON.", "nsi_id": "unitedstatespostalservice-a77078", "operator": "United States Postal Service", "operator:short": "USPS", "operator:type": "public", "operator:wikidata": "Q668687", "ref": "6020400011"}, "type": "Feature"}
{"geometry": {"coordinates": [-87.6878242, 42.047192], "type": "Point"}, "id": "JwjyD3hbuVGwQQNQR3tPjo9nyEI=", "properties": {"@source_uri": "https://tools.usps.com/UspsToolsRestServices/rest/POLocator/findLocations", "@spider": "usps_collection_boxes", "addr:city": "EVANSTON", "addr:country": "US", "addr:postcode": "60204", "addr:state": "IL", "addr:street_address": "1101 DAVIS ST", "amenity": "post_box", "collection_times": "Mo-Fr 17:30; Sa 17:00", "note": "ON 12/24 AND 12/31, THIS BOX MAY BE COLLECTED AS EARLY AS 12 NOON.", "nsi_id": "unitedstatespostalservice-a77078", "operator": "United States Postal Service", "operator:short": "USPS", "operator:type": "public", "operator:wikidata": "Q668687", "ref": "6020400013"}, "type": "Feature"}
{"geometry": {"coordinates": [-87.6876916, 42.047136], "type": "Point"}, "id": "1dAVRNYcSZxlL038zrHDLC2a7ks=", "properties": {"@source_uri": "https://tools.usps.com/UspsToolsRestServices/rest/POLocator/findLocations", "@spider": "usps_collection_boxes", "addr:city": "EVANSTON", "addr:country": "US", "addr:postcode": "60204", "addr:state": "IL", "addr:street_address": "1118 DAVIS ST", "amenity": "post_box", "collection_times": "Mo-Fr 17:30; Sa 17:00", "note": "ON 12/24 AND 12/31, THIS BOX MAY BE COLLECTED AS EARLY AS 12 NOON.", "nsi_id": "unitedstatespostalservice-a77078", "operator": "United States Postal Service", "operator:short": "USPS", "operator:type": "public", "operator:wikidata": "Q668687", "ref": "6020400015"}, "type": "Feature"}
{"geometry": {"coordinates": [-87.6803857, 42.03907], "type": "Point"}, "id": "A_Ky_NatKAnSavy3jQLJUq516qY=", "properties": {"@source_uri": "https://tools.usps.com/UspsToolsRestServices/rest/POLocator/findLocations", "@spider": "usps_collection_boxes", "addr:city": "EVANSTON", "addr:country": "US", "addr:postcode": "60204", "addr:state": "IL", "addr:street_address": "1128 CHICAGO AVE", "amenity": "post_box", "collection_times": "Mo-Fr 12:15; Sa 11:00", "note": "ON 12/24 AND 12/31, THIS BOX MAY BE COLLECTED AS EARLY AS 12 NOON.", "nsi_id": "unitedstatespostalservice-a77078", "operator": "United States Postal Service", "operator:short": "USPS", "operator:type": "public", "operator:wikidata": "Q668687", "ref": "6020400018"}, "type": "Feature"}
{"geometry": {"coordinates": [-87.6913557, 42.01968], "type": "Point"}, "id": "7SFrTcnXS_0OhQ1Fk9oKt7Aht6M=", "properties": {"@source_uri": "https://tools.usps.com/UspsToolsRestServices/rest/POLocator/findLocations", "@spider": "usps_collection_boxes", "addr:city": "EVANSTON", "addr:country": "US", "addr:postcode": "60204", "addr:state": "IL", "addr:street_address": "1325 HOWARD ST", "amenity": "post_box", "collection_times": "Mo-Fr 12:45; Sa 11:00", "note": "ON 12/24 AND 12/31, THIS BOX MAY BE COLLECTED AS EARLY AS 12 NOON.", "nsi_id": "unitedstatespostalservice-a77078", "operator": "United States Postal Service", "operator:short": "USPS", "operator:type": "public", "operator:wikidata": "Q668687", "ref": "6020400019"}, "type": "Feature"}
{"geometry": {"coordinates": [-87.681908, 42.04576], "type": "Point"}, "id": "vKQEVFLCgqkZhIRyBJzjL3RIWQo=", "properties": {"@source_uri": "https://tools.usps.com/UspsToolsRestServices/rest/POLocator/findLocations", "@spider": "usps_collection_boxes", "addr:city": "EVANSTON", "addr:country": "US", "addr:postcode": "60204", "addr:state": "IL", "addr:street_address": "1560 SHERMAN AVE", "amenity": "post_box", "collection_times": "Mo-Fr 14:00", "note": "ON 12/24 AND 12/31, THIS BOX MAY BE COLLECTED AS EARLY AS 12 NOON.", "nsi_id": "unitedstatespostalservice-a77078", "operator": "United States Postal Service", "operator:short": "USPS", "operator:type": "public", "operator:wikidata": "Q668687", "ref": "6020400023"}, "type": "Feature"}
{"geometry": {"coordinates": [-87.6810617, 42.04737], "type": "Point"}, "id": "JUqy-HkG_bplGTrsJiqv-xyyKlo=", "properties": {"@source_uri": "https://tools.usps.com/UspsToolsRestServices/rest/POLocator/findLocations", "@spider": "usps_collection_boxes", "addr:city": "EVANSTON", "addr:country": "US", "addr:postcode": "60204", "addr:state": "IL", "addr:street_address": "1618 ORRINGTON AVE", "amenity": "post_box", "collection_times": "Mo-Fr 13:30; Sa 11:00", "note": "ON 12/24 AND 12/31, THIS BOX MAY BE COLLECTED AS EARLY AS 12 NOON.", "nsi_id": "unitedstatespostalservice-a77078", "operator": "United States Postal Service", "operator:short": "USPS", "operator:type": "public", "operator:wikidata": "Q668687", "ref": "6020400030"}, "type": "Feature"}
{"geometry": {"coordinates": [-87.6821353, 42.05171], "type": "Point"}, "id": "5QSt1iGKEgRVsGmUO--eMsAMXTE=", "properties": {"@source_uri": "https://tools.usps.com/UspsToolsRestServices/rest/POLocator/findLocations", "@spider": "usps_collection_boxes", "addr:city": "EVANSTON", "addr:country": "US", "addr:postcode": "60204", "addr:state": "IL", "addr:street_address": "1856 SHERMAN AVE", "amenity": "post_box", "collection_times": "Mo-Fr 11:30; Sa 11:00", "nsi_id": "unitedstatespostalservice-a77078", "operator": "United States Postal Service", "operator:short": "USPS", "operator:type": "public", "operator:wikidata": "Q668687", "ref": "6020400038"}, "type": "Feature"}
{"geometry": {"coordinates": [-87.7001656, 42.064414], "type": "Point"}, "id": "f0vvY-kbo00VoWxfX4CLLCZsTqE=", "properties": {"@source_uri": "https://tools.usps.com/UspsToolsRestServices/rest/POLocator/findLocations", "@spider": "usps_collection_boxes", "addr:city": "EVANSTON", "addr:country": "US", "addr:postcode": "60204", "addr:state": "IL", "addr:street_address": "1929 CENTRAL ST", "amenity": "post_box", "collection_times": "Mo-Fr 17:00; Sa 16:30", "note": "ON 12/24 AND 12/31, THIS BOX MAY BE COLLECTED AS EARLY AS 12 NOON.", "nsi_id": "unitedstatespostalservice-a77078", "operator": "United States Postal Service", "operator:short": "USPS", "operator:type": "public", "operator:wikidata": "Q668687", "ref": "6020400042"}, "type": "Feature"}
{"geometry": {"coordinates": [-87.6922408, 42.056049], "type": "Point"}, "id": "1aHfFdbpp3VdhURsBc8cwXgVOrc=", "properties": {"@source_uri": "https://tools.usps.com/UspsToolsRestServices/rest/POLocator/findLocations", "@spider": "usps_collection_boxes", "addr:city": "EVANSTON", "addr:country": "US", "addr:postcode": "60204", "addr:state": "IL", "addr:street_address": "2100 GREEN BAY RD", "amenity": "post_box", "collection_times": "Mo-Fr 10:00; Sa 11:00", "nsi_id": "unitedstatespostalservice-a77078", "operator": "United States Postal Service", "operator:short": "USPS", "operator:type": "public", "operator:wikidata": "Q668687", "ref": "6020400050"}, "type": "Feature"}
{"geometry": {"coordinates": [-87.6867805, 42.056622], "type": "Point"}, "id": "m1qGVaHP0mtB1vaYxn6QqtwnBss=", "properties": {"@source_uri": "https://tools.usps.com/UspsToolsRestServices/rest/POLocator/findLocations", "@spider": "usps_collection_boxes", "addr:city": "EVANSTON", "addr:country": "US", "addr:postcode": "60204", "addr:state": "IL", "addr:street_address": "2100 RIDGE AVE", "amenity": "post_box", "collection_times": "Mo-Fr 12:30; Sa 11:00", "note": "ON 12/24 AND 12/31, THIS BOX MAY BE COLLECTED AS EARLY AS 12 NOON.", "nsi_id": "unitedstatespostalservice-a77078", "operator": "United States Postal Service", "operator:short": "USPS", "operator:type": "public", "operator:wikidata": "Q668687", "ref": "6020400051"}, "type": "Feature"}
{"geometry": {"coordinates": [-87.7274979, 42.063858], "type": "Point"}, "id": "cHSPvGBSeMzyag54mD4SvDZMieQ=", "properties": {"@source_uri": "https://tools.usps.com/UspsToolsRestServices/rest/POLocator/findLocations", "@spider": "usps_collection_boxes", "addr:city": "EVANSTON", "addr:country": "US", "addr:postcode": "60204", "addr:state": "IL", "addr:street_address": "2530 CRAWFORD AVE", "amenity": "post_box", "collection_times": "Mo-Fr 10:45; Sa 11:00", "nsi_id": "unitedstatespostalservice-a77078", "operator": "United States Postal Service", "operator:short": "USPS", "operator:type": "public", "operator:wikidata": "Q668687", "ref": "6020400054"}, "type": "Feature"}
{"geometry": {"coordinates": [-87.7022438, 42.068316], "type": "Point"}, "id": "Oom1MnNucDp0UT2AoXbq4HaEYM8=", "properties": {"@source_uri": "https://tools.usps.com/UspsToolsRestServices/rest/POLocator/findLocations", "@spider": "usps_collection_boxes", "addr:city": "EVANSTON", "addr:country": "US", "addr:postcode": "60204", "addr:state": "IL", "addr:street_address": "2748 GREEN BAY RD", "amenity": "post_box", "collection_times": "Mo-Sa 09:30", "nsi_id": "unitedstatespostalservice-a77078", "operator": "United States Postal Service", "operator:short": "USPS", "operator:type": "public", "operator:wikidata": "Q668687", "ref": "6020400056"}, "type": "Feature"}
{"geometry": {"coordinates": [-87.7141763, 42.064516], "type": "Point"}, "id": "ocTfL32djw-fnrn2y1xTnoKQMZI=", "properties": {"@source_uri": "https://tools.usps.com/UspsToolsRestServices/rest/POLocator/findLocations", "@spider": "usps_collection_boxes", "addr:city": "EVANSTON", "addr:country": "US", "addr:postcode": "60204", "addr:state": "IL", "addr:street_address": "2829 CENTRAL ST", "amenity": "post_box", "collection_times": "Mo-Sa 11:00", "nsi_id": "unitedstatespostalservice-a77078", "operator": "United States Postal Service", "operator:short": "USPS", "operator:type": "public", "operator:wikidata": "Q668687", "ref": "6020400057"}, "type": "Feature"}
{"geometry": {"coordinates": [-87.7167938, 42.06456], "type": "Point"}, "id": "ytNq3wJ_V5gylxeGmTCvAd8QIY8=", "properties": {"@source_uri": "https://tools.usps.com/UspsToolsRestServices/rest/POLocator/findLocations", "@spider": "usps_collection_boxes", "addr:city": "EVANSTON", "addr:country": "US", "addr:postcode": "60204", "addr:state": "IL", "addr:street_address": "2949 CENTRAL ST", "amenity": "post_box", "collection_times": "Mo-Sa 11:00", "nsi_id": "unitedstatespostalservice-a77078", "operator": "United States Postal Service", "operator:short": "USPS", "operator:type": "public", "operator:wikidata": "Q668687", "ref": "6020400059"}, "type": "Feature"}
{"geometry": {"coordinates": [-87.7104992, 42.052562], "type": "Point"}, "id": "ehJaRZoiVYgc_PXwD7pzCoUQNGs=", "properties": {"@source_uri": "https://tools.usps.com/UspsToolsRestServices/rest/POLocator/findLocations", "@spider": "usps_collection_boxes", "addr:city": "EVANSTON", "addr:country": "US", "addr:postcode": "60204", "addr:state": "IL", "addr:street_address": "3315 GOLF RD", "amenity": "post_box", "collection_times": "Mo-Fr 10:15; Sa 11:00", "nsi_id": "unitedstatespostalservice-a77078", "operator": "United States Postal Service", "operator:short": "USPS", "operator:type": "public", "operator:wikidata": "Q668687", "ref": "6020400061"}, "type": "Feature"}
{"geometry": {"coordinates": [-87.6806075, 42.034003], "type": "Point"}, "id": "1p80abK6USN5e-WvaLCF0PIEOXs=", "properties": {"@source_uri": "https://tools.usps.com/UspsToolsRestServices/rest/POLocator/findLocations", "@spider": "usps_collection_boxes", "addr:city": "EVANSTON", "addr:country": "US", "addr:postcode": "60204", "addr:state": "IL", "addr:street_address": "701 MAIN ST", "amenity": "post_box", "collection_times": "Mo-Fr 17:00; Sa 16:30", "note": "ON 12/24 AND 12/31, THIS BOX MAY BE COLLECTED AS EARLY AS 12 NOON.", "nsi_id": "unitedstatespostalservice-a77078", "operator": "United States Postal Service", "operator:short": "USPS", "operator:type": "public", "operator:wikidata": "Q668687", "ref": "6020400068"}, "type": "Feature"}
{"geometry": {"coordinates": [-87.6806315, 42.034009], "type": "Point"}, "id": "XsqBDgOg7Vt9RxZk-XpFXSwvTLM=", "properties": {"@source_uri": "https://tools.usps.com/UspsToolsRestServices/rest/POLocator/findLocations", "@spider": "usps_collection_boxes", "addr:city": "EVANSTON", "addr:country": "US", "addr:postcode": "60204", "addr:state": "IL", "addr:street_address": "701 MAIN ST", "amenity": "post_box", "collection_times": "Mo-Fr 17:00; Sa 16:30", "note": "ON 12/24 AND 12/31, THIS BOX MAY BE COLLECTED AS EARLY AS 12 NOON.", "nsi_id": "unitedstatespostalservice-a77078", "operator": "United States Postal Service", "operator:short": "USPS", "operator:type": "public", "operator:wikidata": "Q668687", "ref": "6020400069"}, "type": "Feature"}
{"geometry": {"coordinates": [-87.6992569, 42.031013], "type": "Point"}, "id": "Dg3Sf7S-lgR4rNP8t3ajEeEL3PY=", "properties": {"@source_uri": "https://tools.usps.com/UspsToolsRestServices/rest/POLocator/findLocations", "@spider": "usps_collection_boxes", "addr:city": "EVANSTON", "addr:country": "US", "addr:postcode": "60204", "addr:state": "IL", "addr:street_address": "723 DODGE AVE", "amenity": "post_box", "collection_times": "Mo-Fr 13:00; Sa 11:00", "note": "ON 12/24 AND 12/31, THIS BOX MAY BE COLLECTED AS EARLY AS 12 NOON.", "nsi_id": "unitedstatespostalservice-a77078", "operator": "United States Postal Service", "operator:short": "USPS", "operator:type": "public", "operator:wikidata": "Q668687", "ref": "6020400071"}, "type": "Feature"}
{"geometry": {"coordinates": [-87.6829895, 42.02547], "type": "Point"}, "id": "TDtlDvdMVmGFF965ePUDiJAfEEo=", "properties": {"@source_uri": "https://tools.usps.com/UspsToolsRestServices/rest/POLocator/findLocations", "@spider": "usps_collection_boxes", "addr:city": "EVANSTON", "addr:country": "US", "addr:postcode": "60204", "addr:state": "IL", "addr:street_address": "800 AUSTIN ST", "amenity": "post_box", "collection_times": "Mo-Fr 12:30; Sa 11:00", "note": "ON 12/24 AND 12/31, THIS BOX MAY BE COLLECTED AS EARLY AS 12 NOON.", "nsi_id": "unitedstatespostalservice-a77078", "operator": "United States Postal Service", "operator:short": "USPS", "operator:type": "public", "operator:wikidata": "Q668687", "ref": "6020400072"}, "type": "Feature"}
{"geometry": {"coordinates": [-87.6820703, 42.046918], "type": "Point"}, "id": "EbdJub3wQWEq735tZDbSWU8ma7w=", "properties": {"@source_uri": "https://tools.usps.com/UspsToolsRestServices/rest/POLocator/findLocations", "@spider": "usps_collection_boxes", "addr:city": "EVANSTON", "addr:country": "US", "addr:postcode": "60204", "addr:state": "IL", "addr:street_address": "800 DAVIS ST", "amenity": "post_box", "collection_times": "Mo-Fr 12:30; Sa 11:00", "note": "ON 12/24 AND 12/31, THIS BOX MAY BE COLLECTED AS EARLY AS 12 NOON.", "nsi_id": "unitedstatespostalservice-a77078", "operator": "United States Postal Service", "operator:short": "USPS", "operator:type": "public", "operator:wikidata": "Q668687", "ref": "6020400074"}, "type": "Feature"}
{"geometry": {"coordinates": [-87.6901008, 42.03393], "type": "Point"}, "id": "cgzOFb4-Qkdq95PLQ_RWGhUmKe8=", "properties": {"@source_uri": "https://tools.usps.com/UspsToolsRestServices/rest/POLocator/findLocations", "@spider": "usps_collection_boxes", "addr:city": "EVANSTON", "addr:country": "US", "addr:postcode": "60204", "addr:state": "IL", "addr:street_address": "1300 MAIN ST", "amenity": "post_box", "collection_times": "Mo-Sa 10:30", "nsi_id": "unitedstatespostalservice-a77078", "operator": "United States Postal Service", "operator:short": "USPS", "operator:type": "public", "operator:wikidata": "Q668687", "ref": "6020400080"}, "type": "Feature"}
{"geometry": {"coordinates": [-87.7128731, 42.064384], "type": "Point"}, "id": "rNMHZBExhR_wCaUbPZ0YcIUUcko=", "properties": {"@source_uri": "https://tools.usps.com/UspsToolsRestServices/rest/POLocator/findLocations", "@spider": "usps_collection_boxes", "addr:city": "EVANSTON", "addr:country": "US", "addr:postcode": "60204", "addr:state": "IL", "addr:street_address": "2746 CENTRAL ST", "amenity": "post_box", "collection_times": "Mo-Sa 11:00", "nsi_id": "unitedstatespostalservice-a77078", "operator": "United States Postal Service", "operator:short": "USPS", "operator:type": "public", "operator:wikidata": "Q668687", "ref": "6020400083"}, "type": "Feature"}
{"geometry": {"coordinates": [-87.7033386, 42.06427], "type": "Point"}, "id": "k9aLeZvX3hVYsMH1BqTDDYgFnJc=", "properties": {"@source_uri": "https://tools.usps.com/UspsToolsRestServices/rest/POLocator/findLocations", "@spider": "usps_collection_boxes", "addr:city": "EVANSTON", "addr:country": "US", "addr:postcode": "60204", "addr:state": "IL", "addr:street_address": "2126 CENTRAL ST", "amenity": "post_box", "collection_times": "Mo-Sa 11:00", "nsi_id": "unitedstatespostalservice-a77078", "operator": "United States Postal Service", "operator:short": "USPS", "operator:type": "public", "operator:wikidata": "Q668687", "ref": "6020400084"}, "type": "Feature"}
{"geometry": {"coordinates": [-87.7231208, 42.064478], "type": "Point"}, "id": "0520qKryR2tlMdUbicGS3XLhWls=", "properties": {"@source_uri": "https://tools.usps.com/UspsToolsRestServices/rest/POLocator/findLocations", "@spider": "usps_collection_boxes", "addr:city": "EVANSTON", "addr:country": "US", "addr:postcode": "60204", "addr:state": "IL", "addr:street_address": "3200 CENTRAL ST", "amenity": "post_box", "collection_times": "Mo-Fr 10:45; Sa 11:00", "nsi_id": "unitedstatespostalservice-a77078", "operator": "United States Postal Service", "operator:short": "USPS", "operator:type": "public", "operator:wikidata": "Q668687", "ref": "6020400085"}, "type": "Feature"}
{"geometry": {"coordinates": [-87.7153972, 42.064388], "type": "Point"}, "id": "sFoDHIVHj9fel_K4phQAOx3ffDg=", "properties": {"@source_uri": "https://tools.usps.com/UspsToolsRestServices/rest/POLocator/findLocations", "@spider": "usps_collection_boxes", "addr:city": "EVANSTON", "addr:country": "US", "addr:postcode": "60204", "addr:state": "IL", "addr:street_address": "2916 CENTRAL ST", "amenity": "post_box", "collection_times": "Mo-Sa 11:00", "nsi_id": "unitedstatespostalservice-a77078", "operator": "United States Postal Service", "operator:short": "USPS", "operator:type": "public", "operator:wikidata": "Q668687", "ref": "6020400086"}, "type": "Feature"}
{"geometry": {"coordinates": [-87.6803549, 42.041132], "type": "Point"}, "id": "6t5eTvYiFr-FTzo6cSq2Vv0egH0=", "properties": {"@source_uri": "https://tools.usps.com/UspsToolsRestServices/rest/POLocator/findLocations", "@spider": "usps_collection_boxes", "addr:city": "EVANSTON", "addr:country": "US", "addr:postcode": "60204", "addr:state": "IL", "addr:street_address": "528 DEMPSTER ST", "amenity": "post_box", "collection_times": "Mo-Fr 12:15; Sa 11:00", "note": "ON 12/24 AND 12/31, THIS BOX MAY BE COLLECTED AS EARLY AS 12 NOON.", "nsi_id": "unitedstatespostalservice-a77078", "operator": "United States Postal Service", "operator:short": "USPS", "operator:type": "public", "operator:wikidata": "Q668687", "ref": "6020400090"}, "type": "Feature"}
{"geometry": {"coordinates": [-87.6780219, 42.027331], "type": "Point"}, "id": "Hc1J8vAn9-ufy0VKk9ypiV1dLtY=", "properties": {"@source_uri": "https://tools.usps.com/UspsToolsRestServices/rest/POLocator/findLocations", "@spider": "usps_collection_boxes", "addr:city": "EVANSTON", "addr:country": "US", "addr:postcode": "60204", "addr:state": "IL", "addr:street_address": "527 SOUTH BLVD", "amenity": "post_box", "collection_times": "Mo-Fr 12:30; Sa 11:00", "note": "ON 12/24 AND 12/31, THIS BOX MAY BE COLLECTED AS EARLY AS 12 NOON.", "nsi_id": "unitedstatespostalservice-a77078", "operator": "United States Postal Service", "operator:short": "USPS", "operator:type": "public", "operator:wikidata": "Q668687", "ref": "6020400092"}, "type": "Feature"}
{"geometry": {"coordinates": [-87.720487, 42.04819], "type": "Point"}, "id": "LBx_IQ6OON6-yXjpaLEzdw2rmU8=", "properties": {"@source_uri": "https://tools.usps.com/UspsToolsRestServices/rest/POLocator/findLocations", "@spider": "usps_collection_boxes", "addr:city": "EVANSTON", "addr:country": "US", "addr:postcode": "60204", "addr:state": "IL", "addr:street_address": "9200 LAWNDALE AVE", "amenity": "post_box", "collection_times": "Mo-Fr 10:15; Sa 11:00", "nsi_id": "unitedstatespostalservice-a77078", "operator": "United States Postal Service", "operator:short": "USPS", "operator:type": "public", "operator:wikidata": "Q668687", "ref": "6020400096"}, "type": "Feature"}
{"geometry": {"coordinates": [-87.6802889, 42.02664], "type": "Point"}, "id": "QFOm3pbJ_xqmocjjK_duFDbd7kg=", "properties": {"@source_uri": "https://tools.usps.com/UspsToolsRestServices/rest/POLocator/findLocations", "@spider": "usps_collection_boxes", "addr:city": "EVANSTON", "addr:country": "US", "addr:postcode": "60204", "addr:state": "IL", "addr:street_address": "625 OAKTON ST", "amenity": "post_box", "collection_times": "Mo-Fr 12:30; Sa 11:00", "note": "ON 12/24 AND 12/31, THIS BOX MAY BE COLLECTED AS EARLY AS 12 NOON.", "nsi_id": "unitedstatespostalservice-a77078", "operator": "United States Postal Service", "operator:short": "USPS", "operator:type": "public", "operator:wikidata": "Q668687", "ref": "6020400103"}, "type": "Feature"}
{"geometry": {"coordinates": [-87.678104, 42.045762], "type": "Point"}, "id": "eth78ufN_--z2TvfPsGnbyURx8g=", "properties": {"@source_uri": "https://tools.usps.com/UspsToolsRestServices/rest/POLocator/findLocations", "@spider": "usps_collection_boxes", "addr:city": "EVANSTON", "addr:country": "US", "addr:postcode": "60204", "addr:state": "IL", "addr:street_address": "501 DAVIS ST", "amenity": "post_box", "collection_times": "Mo-Sa 11:00", "nsi_id": "unitedstatespostalservice-a77078", "operator": "United States Postal Service", "operator:short": "USPS", "operator:type": "public", "operator:wikidata": "Q668687", "ref": "6020400104"}, "type": "Feature"}
{"geometry": {"coordinates": [-87.6991204, 42.033772], "type": "Point"}, "id": "4UuHfHHL2BacN_avKMgMuC-VEi8=", "properties": {"@source_uri": "https://tools.usps.com/UspsToolsRestServices/rest/POLocator/findLocations", "@spider": "usps_collection_boxes", "addr:city": "EVANSTON", "addr:country": "US", "addr:postcode": "60204", "addr:state": "IL", "addr:street_address": "847 DODGE AVE", "amenity": "post_box", "collection_times": "Mo-Fr 13:15; Sa 11:00", "note": "ON 12/24 AND 12/31, THIS BOX MAY BE COLLECTED AS EARLY AS 12 NOON.", "nsi_id": "unitedstatespostalservice-a77078", "operator": "United States Postal Service", "operator:short": "USPS", "operator:type": "public", "operator:wikidata": "Q668687", "ref": "6020400112"}, "type": "Feature"}
{"geometry": {"coordinates": [-87.7213845, 42.053554], "type": "Point"}, "id": "_gXN-04NFKm25fj1xA5UxdQ_8uE=", "properties": {"@source_uri": "https://tools.usps.com/UspsToolsRestServices/rest/POLocator/findLocations", "@spider": "usps_collection_boxes", "addr:city": "EVANSTON", "addr:country": "US", "addr:postcode": "60204", "addr:state": "IL", "addr:street_address": "3720 FOSTER ST", "amenity": "post_box", "collection_times": "Mo-Fr 10:15; Sa 11:00", "nsi_id": "unitedstatespostalservice-a77078", "operator": "United States Postal Service", "operator:short": "USPS", "operator:type": "public", "operator:wikidata": "Q668687", "ref": "6020400117"}, "type": "Feature"}
{"geometry": {"coordinates": [-87.6774826, 42.053917], "type": "Point"}, "id": "PHkFGQEnq1PUhUa57x-V0PAt1_g=", "properties": {"@source_uri": "https://tools.usps.com/UspsToolsRestServices/rest/POLocator/findLocations", "@spider": "usps_collection_boxes", "addr:city": "EVANSTON", "addr:country": "US", "addr:postcode": "60204", "addr:state": "IL", "addr:street_address": "2000 SHERIDAN RD", "amenity": "post_box", "collection_times": "Mo-Fr 14:30; Sa 11:00", "note": "ON 12/24 AND 12/31, THIS BOX MAY BE COLLECTED AS EARLY AS 12 NOON.", "nsi_id": "unitedstatespostalservice-a77078", "operator": "United States Postal Service", "operator:short": "USPS", "operator:type": "public", "operator:wikidata": "Q668687", "ref": "6020400118"}, "type": "Feature"}
{"geometry": {"coordinates": [-87.6705188, 42.029263], "type": "Point"}, "id": "_0wLCI2jEvD8x97HDK7kqtdnxw0=", "properties": {"@source_uri": "https://tools.usps.com/UspsToolsRestServices/rest/POLocator/findLocations", "@spider": "usps_collection_boxes", "addr:city": "EVANSTON", "addr:country": "US", "addr:postcode": "60204", "addr:state": "IL", "addr:street_address": "623 SHERIDAN RD", "amenity": "post_box", "collection_times": "Mo-Fr 12:30; Sa 11:00", "note": "ON 12/24 AND 12/31, THIS BOX MAY BE COLLECTED AS EARLY AS 12 NOON.", "nsi_id": "unitedstatespostalservice-a77078", "operator": "United States Postal Service", "operator:short": "USPS", "operator:type": "public", "operator:wikidata": "Q668687", "ref": "6020400123"}, "type": "Feature"}
{"geometry": {"coordinates": [-87.6845304, 42.05834], "type": "Point"}, "id": "12UQhHDLucd-RJqKTV_XhWtElYE=", "properties": {"@source_uri": "https://tools.usps.com/UspsToolsRestServices/rest/POLocator/findLocations", "@spider": "usps_collection_boxes", "addr:city": "EVANSTON", "addr:country": "US", "addr:postcode": "60204", "addr:state": "IL", "addr:street_address": "928 NOYES ST", "amenity": "post_box", "collection_times": "Mo-Fr 11:30; Sa 11:00", "nsi_id": "unitedstatespostalservice-a77078", "operator": "United States Postal Service", "operator:short": "USPS", "operator:type": "public", "operator:wikidata": "Q668687", "ref": "6020400126"}, "type": "Feature"}
{"geometry": {"coordinates": [-87.6797323, 42.046308], "type": "Point"}, "id": "zgX3HrJ9zfE_aFCBdCjrPu19ziM=", "properties": {"@source_uri": "https://tools.usps.com/UspsToolsRestServices/rest/POLocator/findLocations", "@spider": "usps_collection_boxes", "addr:city": "EVANSTON", "addr:country": "US", "addr:postcode": "60204", "addr:state": "IL", "addr:street_address": "1600 CHICAGO AVE", "amenity": "post_box", "collection_times": "Mo-Fr 14:00; Sa 11:00", "note": "ON 12/24 AND 12/31, THIS BOX MAY BE COLLECTED AS EARLY AS 12 NOON.", "nsi_id": "unitedstatespostalservice-a77078", "operator": "United States Postal Service", "operator:short": "USPS", "operator:type": "public", "operator:wikidata": "Q668687", "ref": "6020400130"}, "type": "Feature"}
{"geometry": {"coordinates": [-87.7076621, 42.020631], "type": "Point"}, "id": "_OZcax_U5IU-Q_hlypC9JbaAZjs=", "properties": {"@source_uri": "https://tools.usps.com/UspsToolsRestServices/rest/POLocator/findLocations", "@spider": "usps_collection_boxes", "addr:city": "EVANSTON", "addr:country": "US", "addr:postcode": "60204", "addr:state": "IL", "addr:street_address": "2485 HOWARD ST", "amenity": "post_box", "collection_times": "Mo-Fr 13:00; Sa 11:00", "note": "ON 12/24 AND 12/31, THIS BOX MAY BE COLLECTED AS EARLY AS 12 NOON.", "nsi_id": "unitedstatespostalservice-a77078", "operator": "United States Postal Service", "operator:short": "USPS", "operator:type": "public", "operator:wikidata": "Q668687", "ref": "6020400135"}, "type": "Feature"}
{"geometry": {"coordinates": [-87.700164, 42.064418], "type": "Point"}, "id": "La6IFahncMNiB7QpHcebLpQTXjs=", "properties": {"@source_uri": "https://tools.usps.com/UspsToolsRestServices/rest/POLocator/findLocations", "@spider": "usps_collection_boxes", "addr:city": "EVANSTON", "addr:country": "US", "addr:postcode": "60204", "addr:state": "IL", "addr:street_address": "1929 CENTRAL ST", "amenity": "post_box", "collection_times": "Mo-Fr 17:00; Sa 16:30", "note": "ON 12/24 AND 12/31, THIS BOX MAY BE COLLECTED AS EARLY AS 12 NOON.", "nsi_id": "unitedstatespostalservice-a77078", "operator": "United States Postal Service", "operator:short": "USPS", "operator:type": "public", "operator:wikidata": "Q668687", "ref": "6020400138"}, "type": "Feature"}
{"geometry": {"coordinates": [-87.679779, 42.047999], "type": "Point"}, "id": "jXGAcA-nzInvjqA7k-7Q_PprQDE=", "properties": {"@source_uri": "https://tools.usps.com/UspsToolsRestServices/rest/POLocator/findLocations", "@spider": "usps_collection_boxes", "addr:city": "EVANSTON", "addr:country": "US", "addr:postcode": "60204", "addr:state": "IL", "addr:street_address": "618 CHURCH ST", "amenity": "post_box", "collection_times": "Mo-Fr 13:55; Sa 11:00", "note": "ON 12/24 AND 12/31, THIS BOX MAY BE COLLECTED AS EARLY AS 12 NOON.", "nsi_id": "unitedstatespostalservice-a77078", "operator": "United States Postal Service", "operator:short": "USPS", "operator:type": "public", "operator:wikidata": "Q668687", "ref": "6020400144"}, "type": "Feature"}
{"geometry": {"coordinates": [-87.6874443, 42.047371], "type": "Point"}, "id": "dd303kPGywBrBvPf3wW5-Nrc5tY=", "properties": {"@source_uri": "https://tools.usps.com/UspsToolsRestServices/rest/POLocator/findLocations", "@spider": "usps_collection_boxes", "addr:city": "EVANSTON", "addr:country": "US", "addr:postcode": "60204", "addr:state": "IL", "addr:street_address": "1101 DAVIS ST", "amenity": "post_box", "collection_times": "Mo-Fr 18:00; Sa 17:00", "indoor": "yes", "note": "ON 12/24 AND 12/31, THIS BOX MAY BE COLLECTED AS EARLY AS 12 NOON.", "nsi_id": "unitedstatespostalservice-a77078", "operator": "United States Postal Service", "operator:short": "USPS", "operator:type": "public", "operator:wikidata": "Q668687", "ref": "6020400148"}, "type": "Feature"}
{"geometry": {"coordinates": [-87.6874241, 42.04738], "type": "Point"}, "id": "JgsHPq5N9-gayPsuonK9XmHAFxw=", "properties": {"@source_uri": "https://tools.usps.com/UspsToolsRestServices/rest/POLocator/findLocations", "@spider": "usps_collection_boxes", "addr:city": "EVANSTON", "addr:country": "US", "addr:postcode": "60204", "addr:state": "IL", "addr:street_address": "1101 DAVIS ST", "amenity": "post_box", "collection_times": "Mo-Fr 18:00; Sa 17:00", "indoor": "yes", "note": "ON 12/24 AND 12/31, THIS BOX MAY BE COLLECTED AS EARLY AS 12 NOON.", "nsi_id": "unitedstatespostalservice-a77078", "operator": "United States Postal Service", "operator:short": "USPS", "operator:type": "public", "operator:wikidata": "Q668687", "ref": "6020400149"}, "type": "Feature"}
{"geometry": {"coordinates": [-87.6772914, 42.060588], "type": "Point"}, "id": "P8R_6X2CBwqqpADuwXdSrhkO9mE=", "properties": {"@source_uri": "https://tools.usps.com/UspsToolsRestServices/rest/POLocator/findLocations", "@spider": "usps_collection_boxes", "addr:city": "EVANSTON", "addr:country": "US", "addr:postcode": "60204", "addr:state": "IL", "addr:street_address": "2400 SHERIDAN RD", "amenity": "post_box", "collection_times": "Mo-Fr 11:15; Sa 11:00", "nsi_id": "unitedstatespostalservice-a77078", "operator": "United States Postal Service", "operator:short": "USPS", "operator:type": "public", "operator:wikidata": "Q668687", "ref": "6020400153"}, "type": "Feature"}
{"geometry": {"coordinates": [-87.6755799, 42.050427], "type": "Point"}, "id": "DqZlArFNPrpYLcUBzkG__nyQxeU=", "properties": {"@source_uri": "https://tools.usps.com/UspsToolsRestServices/rest/POLocator/findLocations", "@spider": "usps_collection_boxes", "addr:city": "EVANSTON", "addr:country": "US", "addr:postcode": "60204", "addr:state": "IL", "addr:street_address": "1835 HINMAN AVE", "amenity": "post_box", "collection_times": "Mo-Fr 11:30; Sa 11:00", "nsi_id": "unitedstatespostalservice-a77078", "operator": "United States Postal Service", "operator:short": "USPS", "operator:type": "public", "operator:wikidata": "Q668687", "ref": "6020400154"}, "type": "Feature"}
{"geometry": {"coordinates": [-87.6807580272, 42.034136002], "type": "Point"}, "id": "JqUNQEHTTRTx4W_xbG0JDnSQ0nI=", "properties": {"@source_uri": "https://tools.usps.com/UspsToolsRestServices/rest/POLocator/findLocations", "@spider": "usps_collection_boxes", "addr:city": "EVANSTON", "addr:country": "US", "addr:postcode": "60204", "addr:state": "IL", "addr:street_address": "701 MAIN ST", "amenity": "post_box", "collection_times": "Mo-Fr 17:00; Sa 12:30", "indoor": "yes", "note": "ON 12/24 AND 12/31, THIS BOX MAY BE COLLECTED AS EARLY AS 12 NOON.", "nsi_id": "unitedstatespostalservice-a77078", "operator": "United States Postal Service", "operator:short": "USPS", "operator:type": "public", "operator:wikidata": "Q668687", "ref": "6020400156"}, "type": "Feature"}
{"geometry": {"coordinates": [-87.6807580272, 42.034136002], "type": "Point"}, "id": "-4GjCPW8nFfkuV2bywr54uidSOA=", "properties": {"@source_uri": "https://tools.usps.com/UspsToolsRestServices/rest/POLocator/findLocations", "@spider": "usps_collection_boxes", "addr:city": "EVANSTON", "addr:country": "US", "addr:postcode": "60204", "addr:state": "IL", "addr:street_address": "701 MAIN ST", "amenity": "post_box", "collection_times": "Mo-Fr 17:00; Sa 12:30", "indoor": "yes", "note": "ON 12/24 AND 12/31, THIS BOX MAY BE COLLECTED AS EARLY AS 12 NOON.", "nsi_id": "unitedstatespostalservice-a77078", "operator": "United States Postal Service", "operator:short": "USPS", "operator:type": "public", "operator:wikidata": "Q668687", "ref": "6020400157"}, "type": "Feature"}
{"geometry": {"coordinates": [-87.6874837, 42.047415], "type": "Point"}, "id": "iN7IblhRpPsTaupQTrnBv0y5NLk=", "properties": {"@source_uri": "https://tools.usps.com/UspsToolsRestServices/rest/POLocator/findLocations", "@spider": "usps_collection_boxes", "addr:city": "EVANSTON", "addr:country": "US", "addr:postcode": "60204", "addr:state": "IL", "addr:street_address": "1101 DAVIS ST", "amenity": "post_box", "collection_times": "Mo-Fr 18:00; Sa 17:00", "name": "USPS COLLECTION BOX - APC", "note": "ON 12/24 AND 12/31, THIS BOX MAY BE COLLECTED AS EARLY AS 12 NOON.", "nsi_id": "unitedstatespostalservice-a77078", "operator": "United States Postal Service", "operator:short": "USPS", "operator:type": "public", "operator:wikidata": "Q668687", "ref": "6020400158"}, "type": "Feature"}
{"geometry": {"coordinates": [-87.6875827, 42.047285], "type": "Point"}, "id": "3F9S7_dxpGgUPX6j2PWCDdcGkI0=", "properties": {"@source_uri": "https://tools.usps.com/UspsToolsRestServices/rest/POLocator/findLocations", "@spider": "usps_collection_boxes", "addr:city": "EVANSTON", "addr:country": "US", "addr:postcode": "60204", "addr:state": "IL", "addr:street_address": "1101 DAVIS ST", "amenity": "post_box", "collection_times": "Mo-Fr 18:00; Sa 17:00", "indoor": "yes", "note": "ON 12/24 AND 12/31, THIS BOX MAY BE COLLECTED AS EARLY AS 12 NOON.", "nsi_id": "unitedstatespostalservice-a77078", "operator": "United States Postal Service", "operator:short": "USPS", "operator:type": "public", "operator:wikidata": "Q668687", "ref": "6020400160"}, "type": "Feature"}
{"geometry": {"coordinates": [-87.686892454, 42.047158954], "type": "Point"}, "id": "dhyBW9wYTrESijujx1wwm2Qc-uY=", "properties": {"@source_uri": "https://tools.usps.com/UspsToolsRestServices/rest/POLocator/findLocations", "@spider": "usps_collection_boxes", "addr:city": "EVANSTON", "addr:country": "US", "addr:postcode": "60204", "addr:state": "IL", "addr:street_address": "1101 DAVIS ST", "amenity": "post_box", "collection_times": "Mo-Fr 18:00; Sa 17:00", "indoor": "yes", "note": "ON 12/24 AND 12/31, THIS BOX MAY BE COLLECTED AS EARLY AS 12 NOON.", "nsi_id": "unitedstatespostalservice-a77078", "operator": "United States Postal Service", "operator:short": "USPS", "operator:type": "public", "operator:wikidata": "Q668687", "ref": "6020400166"}, "type": "Feature"}
