{"geometry": {"coordinates": [-87.7973805, 41.888635536], "type": "Point"}, "id": "p2TTdyk7Xo-T6GmB-0qSI1LUTuY=", "properties": {"@source_uri": "https://tools.usps.com/UspsToolsRestServices/rest/POLocator/findLocations", "@spider": "usps_collection_boxes", "addr:city": "OAK PARK", "addr:country": "US", "addr:postcode": "60301", "addr:state": "IL", "addr:street_address": "901 LAKE ST", "amenity": "post_box", "brand": "United States Postal Service", "brand:wikidata": "Q668687", "collection_times": "Mo-Sa 17:30", "note": "ON 12/24 AND 12/31, THIS BOX MAY BE COLLECTED AS EARLY AS 12 NOON.", "nsi_id": "unitedstatespostalservice-a77078", "operator": "United States Postal Service", "operator:short": "USPS", "operator:type": "public", "operator:wikidata": "Q668687", "ref": "6030100001"}, "type": "Feature"}
{"geometry": {"coordinates": [-87.8005924, 41.888408], "type": "Point"}, "id": "9kJPXGwkaJrzZ0zJGIYifcX_O4Y=", "properties": {"@source_uri": "https://tools.usps.com/UspsToolsRestServices/rest/POLocator/findLocations", "@spider": "usps_collection_boxes", "addr:city": "OAK PARK", "addr:country": "US", "addr:postcode": "60301", "addr:state": "IL", "addr:street_address": "1001 LAKE ST", "amenity": "post_box", "brand": "United States Postal Service", "brand:wikidata": "Q668687", "collection_times": "Mo-Fr 16:00; Sa 12:00", "note": "ON 12/24 AND 12/31, THIS BOX MAY BE COLLECTED AS EARLY AS 12 NOON.", "nsi_id": "unitedstatespostalservice-a77078", "operator": "United States Postal Service", "operator:short": "USPS", "operator:type": "public", "operator:wikidata": "Q668687", "ref": "6030100004"}, "type": "Feature"}
{"geometry": {"coordinates": [-87.8031279, 41.888614], "type": "Point"}, "id": "gUuMl6IgEPrNlKsRG5YF8OLTyMY=", "properties": {"@source_uri": "https://tools.usps.com/UspsToolsRestServices/rest/POLocator/findLocations", "@spider": "usps_collection_boxes", "addr:city": "OAK PARK", "addr:country": "US", "addr:postcode": "60301", "addr:state": "IL", "addr:street_address": "1100 LAKE ST", "amenity": "post_box", "brand": "United States Postal Service", "brand:wikidata": "Q668687", "collection_times": "Mo-Fr 16:00; Sa 12:00", "note": "ON 12/24 AND 12/31, THIS BOX MAY BE COLLECTED AS EARLY AS 12 NOON.", "nsi_id": "unitedstatespostalservice-a77078", "operator": "United States Postal Service", "operator:short": "USPS", "operator:type": "public", "operator:wikidata": "Q668687", "ref": "6030100006"}, "type": "Feature"}
{"geometry": {"coordinates": [-87.7946582, 41.888587], "type": "Point"}, "id": "V4jtf--gF0j_qizSCBjB5_ROHq4=", "properties": {"@source_uri": "https://tools.usps.com/UspsToolsRestServices/rest/POLocator/findLocations", "@spider": "usps_collection_boxes", "addr:city": "OAK PARK", "addr:country": "US", "addr:postcode": "60301", "addr:state": "IL", "addr:street_address": "151 N OAK PARK AVE", "amenity": "post_box", "brand": "United States Postal Service", "brand:wikidata": "Q668687", "collection_times": "Mo-Fr 15:00; Sa 12:00", "note": "ON 12/24 AND 12/31, THIS BOX MAY BE COLLECTED AS EARLY AS 12 NOON.", "nsi_id": "unitedstatespostalservice-a77078", "operator": "United States Postal Service", "operator:short": "USPS", "operator:type": "public", "operator:wikidata": "Q668687", "ref": "6030100009"}, "type": "Feature"}
{"geometry": {"coordinates": [-87.7936595, 41.888638], "type": "Point"}, "id": "aL0H2MXpyDlyjp_9xtx7gUxBRXs=", "properties": {"@source_uri": "https://tools.usps.com/UspsToolsRestServices/rest/POLocator/findLocations", "@spider": "usps_collection_boxes", "addr:city": "OAK PARK", "addr:country": "US", "addr:postcode": "60301", "addr:state": "IL", "addr:street_address": "715 LAKE ST", "amenity": "post_box", "brand": "United States Postal Service", "brand:wikidata": "Q668687", "collection_times": "Mo-Fr 16:00; Sa 12:00", "note": "ON 12/24 AND 12/31, THIS BOX MAY BE COLLECTED AS EARLY AS 12 NOON.", "nsi_id": "unitedstatespostalservice-a77078", "operator": "United States Postal Service", "operator:short": "USPS", "operator:type": "public", "operator:wikidata": "Q668687", "ref": "6030100011"}, "type": "Feature"}
{"geometry": {"coordinates": [-87.7943442, 41.887357], "type": "Point"}, "id": "8NMCYoj5HWn_Eftb0vWkYmzoyZY=", "properties": {"@source_uri": "https://tools.usps.com/UspsToolsRestServices/rest/POLocator/findLocations", "@spider": "usps_collection_boxes", "addr:city": "OAK PARK", "addr:country": "US", "addr:postcode": "60301", "addr:state": "IL", "addr:street_address": "104 N OAK PARK AVE", "amenity": "post_box", "brand": "United States Postal Service", "brand:wikidata": "Q668687", "collection_times": "Mo-Fr 15:00; Sa 12:00", "note": "ON 12/24 AND 12/31, THIS BOX MAY BE COLLECTED AS EARLY AS 12 NOON.", "nsi_id": "unitedstatespostalservice-a77078", "operator": "United States Postal Service", "operator:short": "USPS", "operator:type": "public", "operator:wikidata": "Q668687", "ref": "6030100014"}, "type": "Feature"}
{"geometry": {"coordinates": [-87.7943219, 41.887366], "type": "Point"}, "id": "16BewsAAmGzc1COwxSeeWTFtJkk=", "properties": {"@source_uri": "https://tools.usps.com/UspsToolsRestServices/rest/POLocator/findLocations", "@spider": "usps_collection_boxes", "addr:city": "OAK PARK", "addr:country": "US", "addr:postcode": "60301", "addr:state": "IL", "addr:street_address": "104 N OAK PARK AVE", "amenity": "post_box", "brand": "United States Postal Service", "brand:wikidata": "Q668687", "collection_times": "Mo-Fr 15:00; Sa 12:00", "note": "ON 12/24 AND 12/31, THIS BOX MAY BE COLLECTED AS EARLY AS 12 NOON.", "nsi_id": "unitedstatespostalservice-a77078", "operator": "United States Postal Service", "operator:short": "USPS", "operator:type": "public", "operator:wikidata": "Q668687", "ref": "6030100015"}, "type": "Feature"}
{"geometry": {"coordinates": [-87.8023631, 41.887279], "type": "Point"}, "id": "qJAeMHTUd0_Baj7KuqgHvCLADbY=", "properties": {"@source_uri": "https://tools.usps.com/UspsToolsRestServices/rest/POLocator/findLocations", "@spider": "usps_collection_boxes", "addr:city": "OAK PARK", "addr:country": "US", "addr:postcode": "60301", "addr:state": "IL", "addr:street_address": "105 N MARION ST", "amenity": "post_box", "brand": "United States Postal Service", "brand:wikidata": "Q668687", "collection_times": "Mo-Fr 16:00; Sa 12:00", "note": "ON 12/24 AND 12/31, THIS BOX MAY BE COLLECTED AS EARLY AS 12 NOON.", "nsi_id": "unitedstatespostalservice-a77078", "operator": "United States Postal Service", "operator:short": "USPS", "operator:type": "public", "operator:wikidata": "Q668687", "ref": "6030100017"}, "type": "Feature"}
{"geometry": {"coordinates": [-87.8002724, 41.889552], "type": "Point"}, "id": "3_iHwaZMwzgru_w0zRKkfpmlduQ=", "properties": {"@source_uri": "https://tools.usps.com/UspsToolsRestServices/rest/POLocator/findLocations", "@spider": "usps_collection_boxes", "addr:city": "OAK PARK", "addr:country": "US", "addr:postcode": "60301", "addr:state": "IL", "addr:street_address": "158 FOREST AVE", "amenity": "post_box", "brand": "United States Postal Service", "brand:wikidata": "Q668687", "collection_times": "Mo-Fr 15:00; Sa 12:00", "note": "ON 12/24 AND 12/31, THIS BOX MAY BE COLLECTED AS EARLY AS 12 NOON.", "nsi_id": "unitedstatespostalservice-a77078", "operator": "United States Postal Service", "operator:short": "USPS", "operator:type": "public", "operator:wikidata": "Q668687", "ref": "6030100019"}, "type": "Feature"}
{"geometry": {"coordinates": [-87.8045433, 41.887944], "type": "Point"}, "id": "1OWiPBDIo0MK8OdA0FpgV46RWlk=", "properties": {"@source_uri": "https://tools.usps.com/UspsToolsRestServices/rest/POLocator/findLocations", "@spider": "usps_collection_boxes", "addr:city": "OAK PARK", "addr:country": "US", "addr:postcode": "60301", "addr:state": "IL", "addr:street_address": "1145 WESTGATE ST", "amenity": "post_box", "brand": "United States Postal Service", "brand:wikidata": "Q668687", "collection_times": "Mo-Fr 15:00; Sa 12:00", "note": "ON 12/24 AND 12/31, THIS BOX MAY BE COLLECTED AS EARLY AS 12 NOON.", "nsi_id": "unitedstatespostalservice-a77078", "operator": "United States Postal Service", "operator:short": "USPS", "operator:type": "public", "operator:wikidata": "Q668687", "ref": "6030100020"}, "type": "Feature"}
{"geometry": {"coordinates": [-87.7973805, 41.888635536], "type": "Point"}, "id": "aSPqFl0D1RpSjib7g_1UAHsub7A=", "properties": {"@source_uri": "https://tools.usps.com/UspsToolsRestServices/rest/POLocator/findLocations", "@spider": "usps_collection_boxes", "addr:city": "OAK PARK", "addr:country": "US", "addr:postcode": "60301", "addr:state": "IL", "addr:street_address": "901 LAKE ST", "amenity": "post_box", "brand": "United States Postal Service", "brand:wikidata": "Q668687", "collection_times": "Mo-Sa 17:30", "note": "ON 12/24 AND 12/31, THIS BOX MAY BE COLLECTED AS EARLY AS 12 NOON.", "nsi_id": "unitedstatespostalservice-a77078", "operator": "United States Postal Service", "operator:short": "USPS", "operator:type": "public", "operator:wikidata": "Q668687", "ref": "6030100022"}, "type": "Feature"}
{"geometry": {"coordinates": [-87.800485, 41.88866], "type": "Point"}, "id": "buelQ9WvDjkjjulSYSfhEHyln2Y=", "properties": {"@source_uri": "https://tools.usps.com/UspsToolsRestServices/rest/POLocator/findLocations", "@spider": "usps_collection_boxes", "addr:city": "OAK PARK", "addr:country": "US", "addr:postcode": "60301", "addr:state": "IL", "addr:street_address": "901 LAKE ST", "amenity": "post_box", "brand": "United States Postal Service", "brand:wikidata": "Q668687", "collection_times": "Mo-Sa 17:30", "note": "ON 12/24 AND 12/31, THIS BOX MAY BE COLLECTED AS EARLY AS 12 NOON.", "nsi_id": "unitedstatespostalservice-a77078", "operator": "United States Postal Service", "operator:short": "USPS", "operator:type": "public", "operator:wikidata": "Q668687", "ref": "6030100023"}, "type": "Feature"}
{"geometry": {"coordinates": [-87.7973805, 41.888635536], "type": "Point"}, "id": "jPSLnvcXmpY9EO_sqs6h6AwI1x0=", "properties": {"@source_uri": "https://tools.usps.com/UspsToolsRestServices/rest/POLocator/findLocations", "@spider": "usps_collection_boxes", "addr:city": "OAK PARK", "addr:country": "US", "addr:postcode": "60301", "addr:state": "IL", "addr:street_address": "901 LAKE ST", "amenity": "post_box", "brand": "United States Postal Service", "brand:wikidata": "Q668687", "collection_times": "Mo-Sa 17:30", "name": "USPS COLLECTION BOX - EXPRESS", "note": "ON 12/24 AND 12/31, THIS BOX MAY BE COLLECTED AS EARLY AS 12 NOON.", "nsi_id": "unitedstatespostalservice-a77078", "operator": "United States Postal Service", "operator:short": "USPS", "operator:type": "public", "operator:wikidata": "Q668687", "ref": "6030100028"}, "type": "Feature"}
{"geometry": {"coordinates": [-87.8050431, 41.894281], "type": "Point"}, "id": "qKI6skzF65vZi8SY2xKz6PJQkDY=", "properties": {"@source_uri": "https://tools.usps.com/UspsToolsRestServices/rest/POLocator/findLocations", "@spider": "usps_collection_boxes", "addr:city": "OAK PARK", "addr:country": "US", "addr:postcode": "60301", "addr:state": "IL", "addr:street_address": "1142 CHICAGO AVE", "amenity": "post_box", "brand": "United States Postal Service", "brand:wikidata": "Q668687", "collection_times": "Mo-Sa 10:00", "nsi_id": "unitedstatespostalservice-a77078", "operator": "United States Postal Service", "operator:short": "USPS", "operator:type": "public", "operator:wikidata": "Q668687", "ref": "6030100036"}, "type": "Feature"}
{"geometry": {"coordinates": [-87.8028618, 41.894089], "type": "Point"}, "id": "MaB8HdQd2_cNoUUj3LImQYh7zs0=", "properties": {"@source_uri": "https://tools.usps.com/UspsToolsRestServices/rest/POLocator/findLocations", "@spider": "usps_collection_boxes", "addr:city": "OAK PARK", "addr:country": "US", "addr:postcode": "60301", "addr:state": "IL", "addr:street_address": "1101 CHICAGO AVE", "amenity": "post_box", "brand": "United States Postal Service", "brand:wikidata": "Q668687", "collection_times": "Mo-Fr 15:00; Sa 12:00", "note": "ON 12/24 AND 12/31, THIS BOX MAY BE COLLECTED AS EARLY AS 12 NOON.", "nsi_id": "unitedstatespostalservice-a77078", "operator": "United States Postal Service", "operator:short": "USPS", "operator:type": "public", "operator:wikidata": "Q668687", "ref": "6030100037"}, "type": "Feature"}
{"geometry": {"coordinates": [-87.7753423, 41.894647], "type": "Point"}, "id": "gxeraay5piGCup0QjIDYvlyo68I=", "properties": {"@source_uri": "https://tools.usps.com/UspsToolsRestServices/rest/POLocator/findLocations", "@spider": "usps_collection_boxes", "addr:city": "OAK PARK", "addr:country": "US", "addr:postcode": "60301", "addr:state": "IL", "addr:street_address": "1 CHICAGO AVE", "amenity": "post_box", "brand": "United States Postal Service", "brand:wikidata": "Q668687", "collection_times": "Mo-Sa 10:15", "nsi_id": "unitedstatespostalservice-a77078", "operator": "United States Postal Service", "operator:short": "USPS", "operator:type": "public", "operator:wikidata": "Q668687", "ref": "6030100038"}, "type": "Feature"}
{"geometry": {"coordinates": [-87.7842458, 41.870944], "type": "Point"}, "id": "gwVwV5MjZEzRZ55TWLdrUdWLvoc=", "properties": {"@source_uri": "https://tools.usps.com/UspsToolsRestServices/rest/POLocator/findLocations", "@spider": "usps_collection_boxes", "addr:city": "OAK PARK", "addr:country": "US", "addr:postcode": "60301", "addr:state": "IL", "addr:street_address": "947 S RIDGELAND AVE", "amenity": "post_box", "brand": "United States Postal Service", "brand:wikidata": "Q668687", "collection_times": "Mo-Sa 10:00", "nsi_id": "unitedstatespostalservice-a77078", "operator": "United States Postal Service", "operator:short": "USPS", "operator:type": "public", "operator:wikidata": "Q668687", "ref": "6030100046"}, "type": "Feature"}
{"geometry": {"coordinates": [-87.8056817795, 41.9074190571], "type": "Point"}, "id": "sfD4jYmkbPdAkbFaekGVDg76n1c=", "properties": {"@source_uri": "https://tools.usps.com/UspsToolsRestServices/rest/POLocator/findLocations", "@spider": "usps_collection_boxes", "addr:city": "OAK PARK", "addr:country": "US", "addr:postcode": "60301", "addr:state": "IL", "addr:street_address": "1515 N HARLEM AVE", "amenity": "post_box", "brand": "United States Postal Service", "brand:wikidata": "Q668687", "collection_times": "Mo-Fr 16:00; Sa 12:00", "note": "ON 12/24 AND 12/31, THIS BOX MAY BE COLLECTED AS EARLY AS 12 NOON.", "nsi_id": "unitedstatespostalservice-a77078", "operator": "United States Postal Service", "operator:short": "USPS", "operator:type": "public", "operator:wikidata": "Q668687", "ref": "6030100051"}, "type": "Feature"}
{"geometry": {"coordinates": [-87.7940207, 41.872884], "type": "Point"}, "id": "JC9JJloqJy-QECsOQCZJ5wYSZj4=", "properties": {"@source_uri": "https://tools.usps.com/UspsToolsRestServices/rest/POLocator/findLocations", "@spider": "usps_collection_boxes", "addr:city": "OAK PARK", "addr:country": "US", "addr:postcode": "60301", "addr:state": "IL", "addr:street_address": "840 S OAK PARK AVE", "amenity": "post_box", "brand": "United States Postal Service", "brand:wikidata": "Q668687", "collection_times": "Mo-Fr 15:00; Sa 12:00", "note": "ON 12/24 AND 12/31, THIS BOX MAY BE COLLECTED AS EARLY AS 12 NOON.", "nsi_id": "unitedstatespostalservice-a77078", "operator": "United States Postal Service", "operator:short": "USPS", "operator:type": "public", "operator:wikidata": "Q668687", "ref": "6030100055"}, "type": "Feature"}
{"geometry": {"coordinates": [-87.800485, 41.88866], "type": "Point"}, "id": "OqourcRJmP3T8olm8Vl08K2n7iU=", "properties": {"@source_uri": "https://tools.usps.com/UspsToolsRestServices/rest/POLocator/findLocations", "@spider": "usps_collection_boxes", "addr:city": "OAK PARK", "addr:country": "US", "addr:postcode": "60301", "addr:state": "IL", "addr:street_address": "350 HARRISON ST", "amenity": "post_box", "brand": "United States Postal Service", "brand:wikidata": "Q668687", "collection_times": "Mo-Sa 12:30", "note": "ON 12/24 AND 12/31, THIS BOX MAY BE COLLECTED AS EARLY AS 12 NOON.", "nsi_id": "unitedstatespostalservice-a77078", "operator": "United States Postal Service", "operator:short": "USPS", "operator:type": "public", "operator:wikidata": "Q668687", "ref": "6030100057"}, "type": "Feature"}
{"geometry": {"coordinates": [-87.7763478, 41.89152], "type": "Point"}, "id": "15EvldigVnYugEYmLFiz6k9QnhQ=", "properties": {"@source_uri": "https://tools.usps.com/UspsToolsRestServices/rest/POLocator/findLocations", "@spider": "usps_collection_boxes", "addr:city": "OAK PARK", "addr:country": "US", "addr:postcode": "60301", "addr:state": "IL", "addr:street_address": "1 ERIE CT", "amenity": "post_box", "brand": "United States Postal Service", "brand:wikidata": "Q668687", "collection_times": "Mo-Fr 15:00; Sa 12:00", "note": "ON 12/24 AND 12/31, THIS BOX MAY BE COLLECTED AS EARLY AS 12 NOON.", "nsi_id": "unitedstatespostalservice-a77078", "operator": "United States Postal Service", "operator:short": "USPS", "operator:type": "public", "operator:wikidata": "Q668687", "ref": "6030100059"}, "type": "Feature"}
{"geometry": {"coordinates": [-87.8037742026, 41.8793213127], "type": "Point"}, "id": "czagG69Rl3osNMbdwzEViaUYKsQ=", "properties": {"@source_uri": "https://tools.usps.com/UspsToolsRestServices/rest/POLocator/findLocations", "@spider": "usps_collection_boxes", "addr:city": "OAK PARK", "addr:country": "US", "addr:postcode": "60301", "addr:state": "IL", "addr:street_address": "520 S MAPLE AVE", "amenity": "post_box", "brand": "United States Postal Service", "brand:wikidata": "Q668687", "collection_times": "Mo-Fr 15:00; Sa 12:00", "note": "ON 12/24 AND 12/31, THIS BOX MAY BE COLLECTED AS EARLY AS 12 NOON.", "nsi_id": "unitedstatespostalservice-a77078", "operator": "United States Postal Service", "operator:short": "USPS", "operator:type": "public", "operator:wikidata": "Q668687", "ref": "6030100060"}, "type": "Feature"}
{"geometry": {"coordinates": [-87.7892908, 41.879675], "type": "Point"}, "id": "_11VXSImktq-mzSvvAdz5AYMP5I=", "properties": {"@source_uri": "https://tools.usps.com/UspsToolsRestServices/rest/POLocator/findLocations", "@spider": "usps_collection_boxes", "addr:city": "OAK PARK", "addr:country": "US", "addr:postcode": "60301", "addr:state": "IL", "addr:street_address": "549 MADISON ST", "amenity": "post_box", "brand": "United States Postal Service", "brand:wikidata": "Q668687", "collection_times": "Mo-Fr 15:00; Sa 12:00", "note": "ON 12/24 AND 12/31, THIS BOX MAY BE COLLECTED AS EARLY AS 12 NOON.", "nsi_id": "unitedstatespostalservice-a77078", "operator": "United States Postal Service", "operator:short": "USPS", "operator:type": "public", "operator:wikidata": "Q668687", "ref": "6030100073"}, "type": "Feature"}
{"geometry": {"coordinates": [-87.792517, 41.908933], "type": "Point"}, "id": "9Ke9J2Ysv4QXHOs3alQ-n6r0uzw=", "properties": {"@source_uri": "https://tools.usps.com/UspsToolsRestServices/rest/POLocator/findLocations", "@spider": "usps_collection_boxes", "addr:city": "OAK PARK", "addr:country": "US", "addr:postcode": "60301", "addr:state": "IL", "addr:street_address": "6645 NORTH AVE", "amenity": "post_box", "brand": "United States Postal Service", "brand:wikidata": "Q668687", "collection_times": "Mo-Fr 15:00; Sa 12:00", "note": "ON 12/24 AND 12/31, THIS BOX MAY BE COLLECTED AS EARLY AS 12 NOON.", "nsi_id": "unitedstatespostalservice-a77078", "operator": "United States Postal Service", "operator:short": "USPS", "operator:type": "public", "operator:wikidata": "Q668687", "ref": "6030100081"}, "type": "Feature"}
{"geometry": {"coordinates": [-87.7964731, 41.908866], "type": "Point"}, "id": "W8DWyeD4Sxnw0yHMofzOJ9d7BQM=", "properties": {"@source_uri": "https://tools.usps.com/UspsToolsRestServices/rest/POLocator/findLocations", "@spider": "usps_collection_boxes", "addr:city": "OAK PARK", "addr:country": "US", "addr:postcode": "60301", "addr:state": "IL", "addr:street_address": "6821 NORTH AVE", "amenity": "post_box", "brand": "United States Postal Service", "brand:wikidata": "Q668687", "collection_times": "Mo-Fr 15:00; Sa 12:00", "note": "ON 12/24 AND 12/31, THIS BOX MAY BE COLLECTED AS EARLY AS 12 NOON.", "nsi_id": "unitedstatespostalservice-a77078", "operator": "United States Postal Service", "operator:short": "USPS", "operator:type": "public", "operator:wikidata": "Q668687", "ref": "6030100085"}, "type": "Feature"}
{"geometry": {"coordinates": [-87.7943195, 41.881177], "type": "Point"}, "id": "4bisEGjAjc09xtmhu_8sPOKKmWo=", "properties": {"@source_uri": "https://tools.usps.com/UspsToolsRestServices/rest/POLocator/findLocations", "@spider": "usps_collection_boxes", "addr:city": "OAK PARK", "addr:country": "US", "addr:postcode": "60301", "addr:state": "IL", "addr:street_address": "408 S OAK PARK AVE", "amenity": "post_box", "brand": "United States Postal Service", "brand:wikidata": "Q668687", "collection_times": "Mo-Fr 15:00; Sa 12:00", "note": "ON 12/24 AND 12/31, THIS BOX MAY BE COLLECTED AS EARLY AS 12 NOON.", "nsi_id": "unitedstatespostalservice-a77078", "operator": "United States Postal Service", "operator:short": "USPS", "operator:type": "public", "operator:wikidata": "Q668687", "ref": "6030100096"}, "type": "Feature"}
{"geometry": {"coordinates": [-87.8001917, 41.88579], "type": "Point"}, "id": "imtqN60RWlHd8Nh9qNk0g6Le4s8=", "properties": {"@source_uri": "https://tools.usps.com/UspsToolsRestServices/rest/POLocator/findLocations", "@spider": "usps_collection_boxes", "addr:city": "OAK PARK", "addr:country": "US", "addr:postcode": "60301", "addr:state": "IL", "addr:street_address": "1000 PLEASANT ST", "amenity": "post_box", "brand": "United States Postal Service", "brand:wikidata": "Q668687", "collection_times": "Mo-Fr 14:00; Sa 13:00", "note": "ON 12/24 AND 12/31, THIS BOX MAY BE COLLECTED AS EARLY AS 12 NOON.", "nsi_id": "unitedstatespostalservice-a77078", "operator": "United States Postal Service", "operator:short": "USPS", "operator:type": "public", "operator:wikidata": "Q668687", "ref": "6030100097"}, "type": "Feature"}
{"geometry": {"coordinates": [-87.8022672, 41.885735], "type": "Point"}, "id": "8u8Sr8zSo001_bIgmxWiivi59Ms=", "properties": {"@source_uri": "https://tools.usps.com/UspsToolsRestServices/rest/POLocator/findLocations", "@spider": "usps_collection_boxes", "addr:city": "OAK PARK", "addr:country": "US", "addr:postcode": "60301", "addr:state": "IL", "addr:street_address": "1048 PLEASANT ST", "amenity": "post_box", "brand": "United States Postal Service", "brand:wikidata": "Q668687", "collection_times": "Mo-Fr 15:00; Sa 12:00", "note": "ON 12/24 AND 12/31, THIS BOX MAY BE COLLECTED AS EARLY AS 12 NOON.", "nsi_id": "unitedstatespostalservice-a77078", "operator": "United States Postal Service", "operator:short": "USPS", "operator:type": "public", "operator:wikidata": "Q668687", "ref": "6030100098"}, "type": "Feature"}
{"geometry": {"coordinates": [-87.7943303, 41.88519], "type": "Point"}, "id": "Q6ZCH_-A3GdRIzkKVU3ReQj6eTU=", "properties": {"@source_uri": "https://tools.usps.com/UspsToolsRestServices/rest/POLocator/findLocations", "@spider": "usps_collection_boxes", "addr:city": "OAK PARK", "addr:country": "US", "addr:postcode": "60301", "addr:state": "IL", "addr:street_address": "188 S OAK PARK AVE", "amenity": "post_box", "brand": "United States Postal Service", "brand:wikidata": "Q668687", "collection_times": "Mo-Fr 15:00; Sa 12:00", "note": "ON 12/24 AND 12/31, THIS BOX MAY BE COLLECTED AS EARLY AS 12 NOON.", "nsi_id": "unitedstatespostalservice-a77078", "operator": "United States Postal Service", "operator:short": "USPS", "operator:type": "public", "operator:wikidata": "Q668687", "ref": "6030100099"}, "type": "Feature"}
{"geometry": {"coordinates": [-87.8025038, 41.88335], "type": "Point"}, "id": "lpPgIXbF1vL9SG50T9WR2FTVX04=", "properties": {"@source_uri": "https://tools.usps.com/UspsToolsRestServices/rest/POLocator/findLocations", "@spider": "usps_collection_boxes", "addr:city": "OAK PARK", "addr:country": "US", "addr:postcode": "60301", "addr:state": "IL", "addr:street_address": "255 S MARION ST", "amenity": "post_box", "brand": "United States Postal Service", "brand:wikidata": "Q668687", "collection_times": "Mo-Sa 10:00", "nsi_id": "unitedstatespostalservice-a77078", "operator": "United States Postal Service", "operator:short": "USPS", "operator:type": "public", "operator:wikidata": "Q668687", "ref": "6030100101"}, "type": "Feature"}
{"geometry": {"coordinates": [-87.7923979, 41.86527], "type": "Point"}, "id": "9-g7Sm1NY968FzFpgCLxRgc8saY=", "properties": {"@source_uri": "https://tools.usps.com/UspsToolsRestServices/rest/POLocator/findLocations", "@spider": "usps_collection_boxes", "addr:city": "OAK PARK", "addr:country": "US", "addr:postcode": "60301", "addr:state": "IL", "addr:street_address": "6720 ROOSEVELT RD", "amenity": "post_box", "brand": "United States Postal Service", "brand:wikidata": "Q668687", "collection_times": "Mo-Sa 12:00", "nsi_id": "unitedstatespostalservice-a77078", "operator": "United States Postal Service", "operator:short": "USPS", "operator:type": "public", "operator:wikidata": "Q668687", "ref": "6030100107"}, "type": "Feature"}
{"geometry": {"coordinates": [-87.7849738324, 41.8869285212], "type": "Point"}, "id": "xgG28YAPhF3QqkQ4Fvz11ks7sAo=", "properties": {"@source_uri": "https://tools.usps.com/UspsToolsRestServices/rest/POLocator/findLocations", "@spider": "usps_collection_boxes", "addr:city": "OAK PARK", "addr:country": "US", "addr:postcode": "60301", "addr:state": "IL", "addr:street_address": "401 SOUTH BLVD", "amenity": "post_box", "brand": "United States Postal Service", "brand:wikidata": "Q668687", "collection_times": "Mo-Sa 10:30", "nsi_id": "unitedstatespostalservice-a77078", "operator": "United States Postal Service", "operator:short": "USPS", "operator:type": "public", "operator:wikidata": "Q668687", "ref": "6030100110"}, "type": "Feature"}
{"geometry": {"coordinates": [-87.8022778, 41.881524], "type": "Point"}, "id": "ztzSCS7i_hiIkKeFSvbBX657PE4=", "properties": {"@source_uri": "https://tools.usps.com/UspsToolsRestServices/rest/POLocator/findLocations", "@spider": "usps_collection_boxes", "addr:city": "OAK PARK", "addr:country": "US", "addr:postcode": "60301", "addr:state": "IL", "addr:street_address": "1046 WASHINGTON BLVD", "amenity": "post_box", "brand": "United States Postal Service", "brand:wikidata": "Q668687", "collection_times": "Mo-Sa 09:30", "nsi_id": "unitedstatespostalservice-a77078", "operator": "United States Postal Service", "operator:short": "USPS", "operator:type": "public", "operator:wikidata": "Q668687", "ref": "6030100111"}, "type": "Feature"}
{"geometry": {"coordinates": [-87.7876447, 41.881733], "type": "Point"}, "id": "PReFeDGgGjzWUkILj7DL2DO9K1E=", "properties": {"@source_uri": "https://tools.usps.com/UspsToolsRestServices/rest/POLocator/findLocations", "@spider": "usps_collection_boxes", "addr:city": "OAK PARK", "addr:country": "US", "addr:postcode": "60301", "addr:state": "IL", "addr:street_address": "466 WASHINGTON BLVD", "amenity": "post_box", "brand": "United States Postal Service", "brand:wikidata": "Q668687", "collection_times": "Mo-Sa 13:00", "note": "ON 12/24 AND 12/31, THIS BOX MAY BE COLLECTED AS EARLY AS 12 NOON.", "nsi_id": "unitedstatespostalservice-a77078", "operator": "United States Postal Service", "operator:short": "USPS", "operator:type": "public", "operator:wikidata": "Q668687", "ref": "6030100113"}, "type": "Feature"}
{"geometry": {"coordinates": [-87.809684614, 41.8871584607], "type": "Point"}, "id": "R3B8xHh9MHn6GmWLLk53Z5skvcA=", "properties": {"@source_uri": "https://tools.usps.com/UspsToolsRestServices/rest/POLocator/findLocations", "@spider": "usps_collection_boxes", "addr:city": "OAK PARK", "addr:country": "US", "addr:postcode": "60301", "addr:state": "IL", "addr:street_address": "401 WILLIAM ST", "amenity": "post_box", "brand": "United States Postal Service", "brand:wikidata": "Q668687", "collection_times": "Mo-Fr 17:15; Sa 14:15", "note": "ON 12/24 AND 12/31, THIS BOX MAY BE COLLECTED AS EARLY AS 12 NOON.", "nsi_id": "unitedstatespostalservice-a77078", "operator": "United States Postal Service", "operator:short": "USPS", "operator:type": "public", "operator:wikidata": "Q668687", "ref": "6030100118"}, "type": "Feature"}
{"geometry": {"coordinates": [-87.8094063, 41.897912], "type": "Point"}, "id": "ATlzUeYdrz3kwt-GOYQToP7MsS8=", "properties": {"@source_uri": "https://tools.usps.com/UspsToolsRestServices/rest/POLocator/findLocations", "@spider": "usps_collection_boxes", "addr:city": "OAK PARK", "addr:country": "US", "addr:postcode": "60301", "addr:state": "IL", "addr:street_address": "7400 AUGUSTA ST", "amenity": "post_box", "brand": "United States Postal Service", "brand:wikidata": "Q668687", "collection_times": "Mo-Sa 09:45", "nsi_id": "unitedstatespostalservice-a77078", "operator": "United States Postal Service", "operator:short": "USPS", "operator:type": "public", "operator:wikidata": "Q668687", "ref": "6030100121"}, "type": "Feature"}
{"geometry": {"coordinates": [-87.8130582, 41.888337], "type": "Point"}, "id": "7_9RYJTnSbxlFPhOAGS5oYqoBjE=", "properties": {"@source_uri": "https://tools.usps.com/UspsToolsRestServices/rest/POLocator/findLocations", "@spider": "usps_collection_boxes", "addr:city": "OAK PARK", "addr:country": "US", "addr:postcode": "60301", "addr:state": "IL", "addr:street_address": "7523 LAKE ST", "amenity": "post_box", "brand": "United States Postal Service", "brand:wikidata": "Q668687", "collection_times": "Mo-Sa 11:40", "nsi_id": "unitedstatespostalservice-a77078", "operator": "United States Postal Service", "operator:short": "USPS", "operator:type": "public", "operator:wikidata": "Q668687", "ref": "6030100126"}, "type": "Feature"}
{"geometry": {"coordinates": [-87.8160376, 41.888247], "type": "Point"}, "id": "aBnEUHMp7vr4AvUELufg4A8IwUQ=", "properties": {"@source_uri": "https://tools.usps.com/UspsToolsRestServices/rest/POLocator/findLocations", "@spider": "usps_collection_boxes", "addr:city": "OAK PARK", "addr:country": "US", "addr:postcode": "60301", "addr:state": "IL", "addr:street_address": "7629 LAKE ST", "amenity": "post_box", "brand": "United States Postal Service", "brand:wikidata": "Q668687", "collection_times": "Mo-Fr 10:00; Sa 10:30", "nsi_id": "unitedstatespostalservice-a77078", "operator": "United States Postal Service", "operator:short": "USPS", "operator:type": "public", "operator:wikidata": "Q668687", "ref": "6030100127"}, "type": "Feature"}
{"geometry": {"coordinates": [-87.8253757, 41.887983], "type": "Point"}, "id": "-IK7XoSXyKyNtarp1gULQyJiioI=", "properties": {"@source_uri": "https://tools.usps.com/UspsToolsRestServices/rest/POLocator/findLocations", "@spider": "usps_collection_boxes", "addr:city": "OAK PARK", "addr:country": "US", "addr:postcode": "60301", "addr:state": "IL", "addr:street_address": "7985 LAKE ST", "amenity": "post_box", "brand": "United States Postal Service", "brand:wikidata": "Q668687", "collection_times": "Mo-Sa 09:00", "nsi_id": "unitedstatespostalservice-a77078", "operator": "United States Postal Service", "operator:short": "USPS", "operator:type": "public", "operator:wikidata": "Q668687", "ref": "6030100129"}, "type": "Feature"}
{"geometry": {"coordinates": [-87.8148195, 41.893007], "type": "Point"}, "id": "rVVy0OVvhZOdANb3t7GDYJx9Ckc=", "properties": {"@source_uri": "https://tools.usps.com/UspsToolsRestServices/rest/POLocator/findLocations", "@spider": "usps_collection_boxes", "addr:city": "OAK PARK", "addr:country": "US", "addr:postcode": "60301", "addr:state": "IL", "addr:street_address": "735 LATHROP AVE", "amenity": "post_box", "brand": "United States Postal Service", "brand:wikidata": "Q668687", "collection_times": "Mo-Sa 09:15", "nsi_id": "unitedstatespostalservice-a77078", "operator": "United States Postal Service", "operator:short": "USPS", "operator:type": "public", "operator:wikidata": "Q668687", "ref": "6030100130"}, "type": "Feature"}
{"geometry": {"coordinates": [-87.8159922, 41.879537], "type": "Point"}, "id": "nzvdIOFn_mK6SPEg0zpvvIqX3Fk=", "properties": {"@source_uri": "https://tools.usps.com/UspsToolsRestServices/rest/POLocator/findLocations", "@spider": "usps_collection_boxes", "addr:city": "OAK PARK", "addr:country": "US", "addr:postcode": "60301", "addr:state": "IL", "addr:street_address": "7620 W MADISON ST", "amenity": "post_box", "brand": "United States Postal Service", "brand:wikidata": "Q668687", "collection_times": "Mo-Sa 10:00", "nsi_id": "unitedstatespostalservice-a77078", "operator": "United States Postal Service", "operator:short": "USPS", "operator:type": "public", "operator:wikidata": "Q668687", "ref": "6030100131"}, "type": "Feature"}
{"geometry": {"coordinates": [-87.8089479, 41.908763], "type": "Point"}, "id": "FAjRw5F0NWPLbVGRQhhcaVrSykk=", "properties": {"@source_uri": "https://tools.usps.com/UspsToolsRestServices/rest/POLocator/findLocations", "@spider": "usps_collection_boxes", "addr:city": "OAK PARK", "addr:country": "US", "addr:postcode": "60301", "addr:state": "IL", "addr:street_address": "7327 NORTH AVE", "amenity": "post_box", "brand": "United States Postal Service", "brand:wikidata": "Q668687", "collection_times": "Mo-Sa 11:00", "nsi_id": "unitedstatespostalservice-a77078", "operator": "United States Postal Service", "operator:short": "USPS", "operator:type": "public", "operator:wikidata": "Q668687", "ref": "6030100132"}, "type": "Feature"}
{"geometry": {"coordinates": [-87.8197894, 41.887504], "type": "Point"}, "id": "SPLexsHSMibN38i2cIUeGgsUhIY=", "properties": {"@source_uri": "https://tools.usps.com/UspsToolsRestServices/rest/POLocator/findLocations", "@spider": "usps_collection_boxes", "addr:city": "OAK PARK", "addr:country": "US", "addr:postcode": "60301", "addr:state": "IL", "addr:street_address": "400 PARK AVE", "amenity": "post_box", "brand": "United States Postal Service", "brand:wikidata": "Q668687", "collection_times": "Mo-Sa 09:40", "nsi_id": "unitedstatespostalservice-a77078", "operator": "United States Postal Service", "operator:short": "USPS", "operator:type": "public", "operator:wikidata": "Q668687", "ref": "6030100136"}, "type": "Feature"}
{"geometry": {"coordinates": [-87.7867194, 41.880004], "type": "Point"}, "id": "z9cP0sZ9liTg7yCcvZlqpYs94_I=", "properties": {"@source_uri": "https://tools.usps.com/UspsToolsRestServices/rest/POLocator/findLocations", "@spider": "usps_collection_boxes", "addr:city": "OAK PARK", "addr:country": "US", "addr:postcode": "60301", "addr:state": "IL", "addr:street_address": "438 MADISON ST", "amenity": "post_box", "brand": "United States Postal Service", "brand:wikidata": "Q668687", "collection_times": "Mo-Sa 12:30", "note": "ON 12/24 AND 12/31, THIS BOX MAY BE COLLECTED AS EARLY AS 12 NOON.", "nsi_id": "unitedstatespostalservice-a77078", "operator": "United States Postal Service", "operator:short": "USPS", "operator:type": "public", "operator:wikidata": "Q668687", "ref": "6030100140"}, "type": "Feature"}
{"geometry": {"coordinates": [-87.7973805, 41.888635536], "type": "Point"}, "id": "v5SNV22YoY2YhhcHm05PhUKbYz0=", "properties": {"@source_uri": "https://tools.usps.com/UspsToolsRestServices/rest/POLocator/findLocations", "@spider": "usps_collection_boxes", "addr:city": "OAK PARK", "addr:country": "US", "addr:postcode": "60301", "addr:state": "IL", "addr:street_address": "901 LAKE ST", "amenity": "post_box", "brand": "United States Postal Service", "brand:wikidata": "Q668687", "collection_times": "Mo-Sa 17:30", "indoor": "yes", "note": "ON 12/24 AND 12/31, THIS BOX MAY BE COLLECTED AS EARLY AS 12 NOON.", "nsi_id": "unitedstatespostalservice-a77078", "operator": "United States Postal Service", "operator:short": "USPS", "operator:type": "public", "operator:wikidata": "Q668687", "ref": "6030100142"}, "type": "Feature"}
{"geometry": {"coordinates": [-87.8029237, 41.872581], "type": "Point"}, "id": "JD4hsNziYCXXt9pnaOaIXarWBwM=", "properties": {"@source_uri": "https://tools.usps.com/UspsToolsRestServices/rest/POLocator/findLocations", "@spider": "usps_collection_boxes", "addr:city": "OAK PARK", "addr:country": "US", "addr:postcode": "60301", "addr:state": "IL", "addr:street_address": "1116 GARFIELD ST", "amenity": "post_box", "brand": "United States Postal Service", "brand:wikidata": "Q668687", "collection_times": "Mo-Fr 17:15; Sa 16:00", "indoor": "yes", "note": "ON 12/24 AND 12/31, THIS BOX MAY BE COLLECTED AS EARLY AS 12 NOON.", "nsi_id": "unitedstatespostalservice-a77078", "operator": "United States Postal Service", "operator:short": "USPS", "operator:type": "public", "operator:wikidata": "Q668687", "ref": "6030100143"}, "type": "Feature"}
{"geometry": {"coordinates": [-87.8092828, 41.887209], "type": "Point"}, "id": "ZdPKALHW2qSQSFXxOy_hPJ6QlJc=", "properties": {"@source_uri": "https://tools.usps.com/UspsToolsRestServices/rest/POLocator/findLocations", "@spider": "usps_collection_boxes", "addr:city": "OAK PARK", "addr:country": "US", "addr:postcode": "60301", "addr:state": "IL", "addr:street_address": "401 WILLIAM ST", "amenity": "post_box", "brand": "United States Postal Service", "brand:wikidata": "Q668687", "collection_times": "Mo-Fr 17:15; Sa 12:30", "indoor": "yes", "note": "ON 12/24 AND 12/31, THIS BOX MAY BE COLLECTED AS EARLY AS 12 NOON.", "nsi_id": "unitedstatespostalservice-a77078", "operator": "United States Postal Service", "operator:short": "USPS", "operator:type": "public", "operator:wikidata": "Q668687", "ref": "6030100144"}, "type": "Feature"}
{"geometry": {"coordinates": [-87.8026694, 41.872603], "type": "Point"}, "id": "_tRe2jI2eAWuhSFcEB9Xq5KeC4c=", "properties": {"@source_uri": "https://tools.usps.com/UspsToolsRestServices/rest/POLocator/findLocations", "@spider": "usps_collection_boxes", "addr:city": "OAK PARK", "addr:country": "US", "addr:postcode": "60301", "addr:state": "IL", "addr:street_address": "1116 GARFIELD ST", "amenity": "post_box", "brand": "United States Postal Service", "brand:wikidata": "Q668687", "collection_times": "Mo-Fr 17:15; Sa 16:00", "indoor": "yes", "note": "ON 12/24 AND 12/31, THIS BOX MAY BE COLLECTED AS EARLY AS 12 NOON.", "nsi_id": "unitedstatespostalservice-a77078", "operator": "United States Postal Service", "operator:short": "USPS", "operator:type": "public", "operator:wikidata": "Q668687", "ref": "6030100148"}, "type": "Feature"}
{"geometry": {"coordinates": [-87.8031484, 41.888639], "type": "Point"}, "id": "tg-IPqXWJyWIjshnmsGpeZfnihA=", "properties": {"@source_uri": "https://tools.usps.com/UspsToolsRestServices/rest/POLocator/findLocations", "@spider": "usps_collection_boxes", "addr:city": "OAK PARK", "addr:country": "US", "addr:postcode": "60301", "addr:state": "IL", "addr:street_address": "1100 LAKE ST", "amenity": "post_box", "brand": "United States Postal Service", "brand:wikidata": "Q668687", "collection_times": "Mo-Fr 16:00; Sa 12:00", "name": "USPS COLLECTION BOX - EXPRESS", "note": "ON 12/24 AND 12/31, THIS BOX MAY BE COLLECTED AS EARLY AS 12 NOON.", "nsi_id": "unitedstatespostalservice-a77078", "operator": "United States Postal Service", "operator:short": "USPS", "operator:type": "public", "operator:wikidata": "Q668687", "ref": "6030100151"}, "type": "Feature"}
{"geometry": {"coordinates": [-87.7973805, 41.888635536], "type": "Point"}, "id": "9GtSwsS1vXngeENUx-6Fqsa3pT0=", "properties": {"@source_uri": "https://tools.usps.com/UspsToolsRestServices/rest/POLocator/findLocations", "@spider": "usps_collection_boxes", "addr:city": "OAK PARK", "addr:country": "US", "addr:postcode": "60301", "addr:state": "IL", "addr:street_address": "901 LAKE ST", "amenity": "post_box", "brand": "United States Postal Service", "brand:wikidata": "Q668687", "collection_times": "Mo-Sa 17:30", "name": "USPS COLLECTION BOX - APC", "note": "ON 12/24 AND 12/31, THIS BOX MAY BE COLLECTED AS EARLY AS 12 NOON.", "nsi_id": "unitedstatespostalservice-a77078", "operator": "United States Postal Service", "operator:short": "USPS", "operator:type": "public", "operator:wikidata": "Q668687", "ref": "6030100153"}, "type": "Feature"}
{"geometry": {"coordinates": [-87.7973805, 41.888635536], "type": "Point"}, "id": "A8OQ1cLoYrxxBZ2ZCCN_eaWDC8Q=", "properties": {"@source_uri": "https://tools.usps.com/UspsToolsRestServices/rest/POLocator/findLocations", "@spider": "usps_collection_boxes", "addr:city": "OAK PARK", "addr:country": "US", "addr:postcode": "60301", "addr:state": "IL", "addr:street_address": "901 LAKE ST", "amenity": "post_box", "brand": "United States Postal Service", "brand:wikidata": "Q668687", "collection_times": "Mo-Sa 17:30", "indoor": "yes", "note": "ON 12/24 AND 12/31, THIS BOX MAY BE COLLECTED AS EARLY AS 12 NOON.", "nsi_id": "unitedstatespostalservice-a77078", "operator": "United States Postal Service", "operator:short": "USPS", "operator:type": "public", "operator:wikidata": "Q668687", "ref": "6030100160"}, "type": "Feature"}
{"geometry": {"coordinates": [-87.802654028, 41.872346453], "type": "Point"}, "id": "U84HnJDf8_Dt2ixMCqDBmwUITSQ=", "properties": {"@source_uri": "https://tools.usps.com/UspsToolsRestServices/rest/POLocator/findLocations", "@spider": "usps_collection_boxes", "addr:city": "OAK PARK", "addr:country": "US", "addr:postcode": "60304", "addr:state": "IL", "addr:street_address": "1116 GARFIELD ST", "amenity": "post_box", "brand": "United States Postal Service", "brand:wikidata": "Q668687", "collection_times": "Mo-Sa 17:30", "indoor": "yes", "note": "ON 12/24 AND 12/31, THIS BOX MAY BE COLLECTED AS EARLY AS 12 NOON.", "nsi_id": "unitedstatespostalservice-a77078", "operator": "United States Postal Service", "operator:short": "USPS", "operator:type": "public", "operator:wikidata": "Q668687", "ref": "6030400003"}, "type": "Feature"}
{"geometry": {"coordinates": [-87.8153974127, 41.9072415454], "type": "Point"}, "id": "wpP_-LnRvjWFSXRQPIeKblXk_qA=", "properties": {"@source_uri": "https://tools.usps.com/UspsToolsRestServices/rest/POLocator/findLocations", "@spider": "usps_collection_boxes", "addr:city": "RIVER FOREST", "addr:country": "US", "addr:postcode": "60305", "addr:state": "IL", "addr:street_address": "1515 LATHROP AVE", "amenity": "post_box", "brand": "United States Postal Service", "brand:wikidata": "Q668687", "collection_times": "Mo-Sa 09:00", "nsi_id": "unitedstatespostalservice-a77078", "operator": "United States Postal Service", "operator:short": "USPS", "operator:type": "public", "operator:wikidata": "Q668687", "ref": "6030500001"}, "type": "Feature"}
{"geometry": {"coordinates": [-87.809703429, 41.887156142], "type": "Point"}, "id": "9AEYvsN47N1jlOvOH30dJzMjbPA=", "properties": {"@source_uri": "https://tools.usps.com/UspsToolsRestServices/rest/POLocator/findLocations", "@spider": "usps_collection_boxes", "addr:city": "RIVER FOREST", "addr:country": "US", "addr:postcode": "60305", "addr:state": "IL", "addr:street_address": "401 WILLIAM ST", "amenity": "post_box", "brand": "United States Postal Service", "brand:wikidata": "Q668687", "collection_times": "Mo-Sa 17:30", "indoor": "yes", "note": "ON 12/24 AND 12/31, THIS BOX MAY BE COLLECTED AS EARLY AS 12 NOON.", "nsi_id": "unitedstatespostalservice-a77078", "operator": "United States Postal Service", "operator:short": "USPS", "operator:type": "public", "operator:wikidata": "Q668687", "ref": "6030500005"}, "type": "Feature"}
