{"geometry": {"coordinates": [-87.8038964, 41.861417], "type": "Point"}, "id": "I1DY-C25Z-3tteMTLYn2QE-Y1Fw=", "properties": {"@spider": "usps_collection_boxes", "addr:city": "BERWYN", "addr:country": "US", "addr:full": "1359 S HARLEM AVE", "addr:postcode": "60402", "addr:state": "IL", "brand": "USPS", "collection_times": "Mo-Sa 09:30", "name": "USPS COLLECTION BOX - BLUE BOX", "ref": "6040200014"}, "type": "Feature"}
{"geometry": {"coordinates": [-87.8025299, 41.85768], "type": "Point"}, "id": "uq7X8vXID4VTZJm2vxMeIyFTbqw=", "properties": {"@spider": "usps_collection_boxes", "addr:city": "BERWYN", "addr:country": "US", "addr:full": "7122 16TH ST", "addr:postcode": "60402", "addr:state": "IL", "brand": "USPS", "collection_times": "Mo-Sa 09:30", "name": "USPS COLLECTION BOX - BLUE BOX", "ref": "6040200022"}, "type": "Feature"}
{"geometry": {"coordinates": [-87.6827694, 41.657886], "type": "Point"}, "id": "wqAw2IJBQrqv3Z4yQNAL54E3P7Q=", "properties": {"@spider": "usps_collection_boxes", "addr:city": "BLUE ISLAND", "addr:country": "US", "addr:full": "12940 GREENWOOD AVE", "addr:postcode": "60406", "addr:state": "IL", "brand": "USPS", "collection_times": "Mo-Sa 12:00", "name": "USPS COLLECTION BOX - BLUE BOX", "ref": "6040600003"}, "type": "Feature"}
{"geometry": {"coordinates": [-87.6826347, 41.660898], "type": "Point"}, "id": "dh4wgqSETupQ6v_S6FkecB6OBsc=", "properties": {"@spider": "usps_collection_boxes", "addr:city": "BLUE ISLAND", "addr:country": "US", "addr:full": "12757 GREENWOOD AVE", "addr:postcode": "60406", "addr:state": "IL", "brand": "USPS", "collection_times": "Mo-Sa 12:00", "name": "USPS COLLECTION BOX - BLUE BOX", "ref": "6040600004"}, "type": "Feature"}
{"geometry": {"coordinates": [-87.6912999, 41.660221], "type": "Point"}, "id": "KtvJKTKgmZyAM8WwEQus83llVa4=", "properties": {"@spider": "usps_collection_boxes", "addr:city": "BLUE ISLAND", "addr:country": "US", "addr:full": "12816 WAHL ST", "addr:postcode": "60406", "addr:state": "IL", "brand": "USPS", "collection_times": "Mo-Sa 12:00", "name": "USPS COLLECTION BOX - BLUE BOX", "ref": "6040600006"}, "type": "Feature"}
{"geometry": {"coordinates": [-87.6874676, 41.662705], "type": "Point"}, "id": "DDwxjga-FZoZy-Su69lEWxBsMCs=", "properties": {"@spider": "usps_collection_boxes", "addr:city": "BLUE ISLAND", "addr:country": "US", "addr:full": "2658 127TH ST", "addr:postcode": "60406", "addr:state": "IL", "brand": "USPS", "collection_times": "Mo-Sa 12:00", "name": "USPS COLLECTION BOX - BLUE BOX", "ref": "6040600008"}, "type": "Feature"}
{"geometry": {"coordinates": [-87.680494, 41.665522], "type": "Point"}, "id": "KpT7OM2eHqvKYYnMfXjeS8muKew=", "properties": {"@spider": "usps_collection_boxes", "addr:city": "BLUE ISLAND", "addr:country": "US", "addr:full": "12522 WESTERN AVE", "addr:postcode": "60406", "addr:state": "IL", "brand": "USPS", "collection_times": "Mo-Sa 12:30", "name": "USPS COLLECTION BOX - BLUE BOX", "note": "ON 12/24 AND 12/31, THIS BOX MAY BE COLLECTED AS EARLY AS 12 NOON.", "ref": "6040600010"}, "type": "Feature"}
{"geometry": {"coordinates": [-87.6806147, 41.670106], "type": "Point"}, "id": "4-Q_-oSV7dykS4dKN0dK43YtgEM=", "properties": {"@spider": "usps_collection_boxes", "addr:city": "BLUE ISLAND", "addr:country": "US", "addr:full": "12258 W WESTERN AVE", "addr:postcode": "60406", "addr:state": "IL", "brand": "USPS", "collection_times": "Mo-Sa 12:30", "name": "USPS COLLECTION BOX - BLUE BOX", "note": "ON 12/24 AND 12/31, THIS BOX MAY BE COLLECTED AS EARLY AS 12 NOON.", "ref": "6040600011"}, "type": "Feature"}
{"geometry": {"coordinates": [-87.6828495, 41.669879], "type": "Point"}, "id": "Xqjf3Dk2RG_1Fg0P3WNu1hRqm1M=", "properties": {"@spider": "usps_collection_boxes", "addr:city": "BLUE ISLAND", "addr:country": "US", "addr:full": "2459 123RD ST", "addr:postcode": "60406", "addr:state": "IL", "brand": "USPS", "collection_times": "Mo-Sa 11:30", "name": "USPS COLLECTION BOX - BLUE BOX", "ref": "6040600012"}, "type": "Feature"}
{"geometry": {"coordinates": [-87.6851055, 41.666229], "type": "Point"}, "id": "ypuKA4imE93EsGqyG52wN4b7WrQ=", "properties": {"@spider": "usps_collection_boxes", "addr:city": "BLUE ISLAND", "addr:country": "US", "addr:full": "12501 MAPLE AVE", "addr:postcode": "60406", "addr:state": "IL", "brand": "USPS", "collection_times": "Mo-Sa 10:30", "name": "USPS COLLECTION BOX - BLUE BOX", "ref": "6040600013"}, "type": "Feature"}
{"geometry": {"coordinates": [-87.6799591, 41.655507], "type": "Point"}, "id": "orPsd0PxFnrOebvEz4T12Tb9Ol4=", "properties": {"@spider": "usps_collection_boxes", "addr:city": "BLUE ISLAND", "addr:country": "US", "addr:full": "13057 WESTERN AVE", "addr:postcode": "60406", "addr:state": "IL", "brand": "USPS", "collection_times": "Mo-Sa 11:30", "name": "USPS COLLECTION BOX - BLUE BOX", "ref": "6040600028"}, "type": "Feature"}
{"geometry": {"coordinates": [-87.678292611, 41.659767354], "type": "Point"}, "id": "K9UZA68YqU5MBsHO9HxpOvWCpKQ=", "properties": {"@spider": "usps_collection_boxes", "addr:city": "BLUE ISLAND", "addr:country": "US", "addr:full": "12835 GREGORY ST", "addr:postcode": "60406", "addr:state": "IL", "brand": "USPS", "collection_times": "Mo-Sa 09:30", "name": "USPS COLLECTION BOX - BLUE BOX", "ref": "6040600030"}, "type": "Feature"}
{"geometry": {"coordinates": [-87.6682271, 41.661062], "type": "Point"}, "id": "0T8PgdymYJ7usIDn42FT9OsUo6c=", "properties": {"@spider": "usps_collection_boxes", "addr:city": "BLUE ISLAND", "addr:country": "US", "addr:full": "12754 LINCOLN ST", "addr:postcode": "60406", "addr:state": "IL", "brand": "USPS", "collection_times": "Mo-Sa 12:30", "name": "USPS COLLECTION BOX - BLUE BOX", "note": "ON 12/24 AND 12/31, THIS BOX MAY BE COLLECTED AS EARLY AS 12 NOON.", "ref": "6040600033"}, "type": "Feature"}
{"geometry": {"coordinates": [-87.6741364, 41.650715], "type": "Point"}, "id": "zuML8ixuhGUTuxPQW7e5sjW-pDE=", "properties": {"@spider": "usps_collection_boxes", "addr:city": "BLUE ISLAND", "addr:country": "US", "addr:full": "2140 BROADWAY ST", "addr:postcode": "60406", "addr:state": "IL", "brand": "USPS", "collection_times": "Mo-Sa 12:30", "name": "USPS COLLECTION BOX - BLUE BOX", "note": "ON 12/24 AND 12/31, THIS BOX MAY BE COLLECTED AS EARLY AS 12 NOON.", "ref": "6040600040"}, "type": "Feature"}
{"geometry": {"coordinates": [-87.682211749, 41.655368515], "type": "Point"}, "id": "ShExUoO0pDTxy0wqfc9O2-AB7wo=", "properties": {"@spider": "usps_collection_boxes", "addr:city": "BLUE ISLAND", "addr:country": "US", "addr:full": "2441 VERMONT ST", "addr:postcode": "60406", "addr:state": "IL", "brand": "USPS", "collection_times": "Mo-Fr 17:00; Sa 13:00", "name": "USPS COLLECTION BOX - EXPRESS", "note": "ON 12/24 AND 12/31, THIS BOX MAY BE COLLECTED AS EARLY AS 12 NOON.", "ref": "6040600052"}, "type": "Feature"}
{"geometry": {"coordinates": [-87.6700447, 41.642716], "type": "Point"}, "id": "9OnvkUZL6j2zPrrb0j3bCZ00O1E=", "properties": {"@spider": "usps_collection_boxes", "addr:city": "BLUE ISLAND", "addr:country": "US", "addr:full": "13800 DIVISION ST", "addr:postcode": "60406", "addr:state": "IL", "brand": "USPS", "collection_times": "Mo-Sa 09:00", "name": "USPS COLLECTION BOX - BLUE BOX", "ref": "6040600058"}, "type": "Feature"}
{"geometry": {"coordinates": [-87.682211749, 41.655368515], "type": "Point"}, "id": "rxBFo9swWKvZD0nEU9vDvHzkWwI=", "properties": {"@spider": "usps_collection_boxes", "addr:city": "BLUE ISLAND", "addr:country": "US", "addr:full": "2441 VERMONT ST", "addr:postcode": "60406", "addr:state": "IL", "brand": "USPS", "collection_times": "Mo-Fr 17:00; Sa 13:00", "name": "USPS COLLECTION BOX - PO LOBBY", "note": "ON 12/24 AND 12/31, THIS BOX MAY BE COLLECTED AS EARLY AS 12 NOON.", "ref": "6040600060"}, "type": "Feature"}
{"geometry": {"coordinates": [-87.682211749, 41.655368515], "type": "Point"}, "id": "p8PattiUxULYpzXeuqIPeG_jiSY=", "properties": {"@spider": "usps_collection_boxes", "addr:city": "BLUE ISLAND", "addr:country": "US", "addr:full": "2441 VERMONT ST", "addr:postcode": "60406", "addr:state": "IL", "brand": "USPS", "collection_times": "Mo-Fr 17:00; Sa 13:00", "name": "USPS COLLECTION BOX - BLUE BOX", "note": "ON 12/24 AND 12/31, THIS BOX MAY BE COLLECTED AS EARLY AS 12 NOON.", "ref": "6040600062"}, "type": "Feature"}
{"geometry": {"coordinates": [-87.681313, 41.655053], "type": "Point"}, "id": "cKy4aKUL9fQ7rY3tZcK-emF4Puo=", "properties": {"@spider": "usps_collection_boxes", "addr:city": "BLUE ISLAND", "addr:country": "US", "addr:full": "13109 ARTESIAN AVE", "addr:postcode": "60406", "addr:state": "IL", "brand": "USPS", "collection_times": "Mo-Fr 17:00; Sa 13:00", "name": "USPS COLLECTION BOX - BLUE BOX", "note": "ON 12/24 AND 12/31, THIS BOX MAY BE COLLECTED AS EARLY AS 12 NOON.", "ref": "6040600063"}, "type": "Feature"}
{"geometry": {"coordinates": [-87.6752149, 41.676305], "type": "Point"}, "id": "yH5502dC0mHrLwNCTLXCnBOVsuI=", "properties": {"@spider": "usps_collection_boxes", "addr:city": "BLUE ISLAND", "addr:country": "US", "addr:full": "11934 LONGWOOD DR", "addr:postcode": "60406", "addr:state": "IL", "brand": "USPS", "collection_times": "Mo-Sa 12:15", "name": "USPS COLLECTION BOX - BLUE BOX", "note": "ON 12/24 AND 12/31, THIS BOX MAY BE COLLECTED AS EARLY AS 12 NOON.", "ref": "6040600064"}, "type": "Feature"}
{"geometry": {"coordinates": [-87.6804533, 41.674415], "type": "Point"}, "id": "aEjr1A1WJjH8gqYeQxq1ktYvAzo=", "properties": {"@spider": "usps_collection_boxes", "addr:city": "BLUE ISLAND", "addr:country": "US", "addr:full": "12035 WESTERN AVE", "addr:postcode": "60406", "addr:state": "IL", "brand": "USPS", "collection_times": "Mo-Sa 09:30", "name": "USPS COLLECTION BOX - BLUE BOX", "ref": "6040600065"}, "type": "Feature"}
{"geometry": {"coordinates": [-87.6702024, 41.655529], "type": "Point"}, "id": "xLuqe-SN4RFVzA0vHinfoWYDCEE=", "properties": {"@spider": "usps_collection_boxes", "addr:city": "BLUE ISLAND", "addr:country": "US", "addr:full": "1965 VERMONT ST", "addr:postcode": "60406", "addr:state": "IL", "brand": "USPS", "collection_times": "Mo-Sa 09:00", "name": "USPS COLLECTION BOX - BLUE BOX", "ref": "6040600066"}, "type": "Feature"}
{"geometry": {"coordinates": [-87.682211749, 41.655368515], "type": "Point"}, "id": "Qt97NPqkTHo_u-AioRb5y7wvWCA=", "properties": {"@spider": "usps_collection_boxes", "addr:city": "BLUE ISLAND", "addr:country": "US", "addr:full": "2441 VERMONT ST", "addr:postcode": "60406", "addr:state": "IL", "brand": "USPS", "collection_times": "Mo-Fr 17:15; Sa 13:00", "name": "USPS COLLECTION BOX - PO LOBBY", "note": "ON 12/24 AND 12/31, THIS BOX MAY BE COLLECTED AS EARLY AS 12 NOON.", "ref": "6040600072"}, "type": "Feature"}
{"geometry": {"coordinates": [-87.6100347, 41.640178], "type": "Point"}, "id": "KLnFb-RZPdj15cn_JRxFPMTiyIM=", "properties": {"@spider": "usps_collection_boxes", "addr:city": "DOLTON", "addr:country": "US", "addr:full": "14014 PARK AVE", "addr:postcode": "60419", "addr:state": "IL", "brand": "USPS", "collection_times": "Mo-Sa 11:30", "name": "USPS COLLECTION BOX - BLUE BOX", "ref": "6041900001"}, "type": "Feature"}
{"geometry": {"coordinates": [-87.6084631, 41.636685], "type": "Point"}, "id": "dOK30k_ISyvHNq4EXS79RKfGV2g=", "properties": {"@spider": "usps_collection_boxes", "addr:city": "DOLTON", "addr:country": "US", "addr:full": "14200 CHICAGO RD", "addr:postcode": "60419", "addr:state": "IL", "brand": "USPS", "collection_times": "Mo-Sa 11:30", "name": "USPS COLLECTION BOX - BLUE BOX", "ref": "6041900002"}, "type": "Feature"}
{"geometry": {"coordinates": [-87.6170991, 41.634119], "type": "Point"}, "id": "dlBauF1AF-xGAvvdvTSIrImRZMw=", "properties": {"@spider": "usps_collection_boxes", "addr:city": "DOLTON", "addr:country": "US", "addr:full": "200 E 144TH ST", "addr:postcode": "60419", "addr:state": "IL", "brand": "USPS", "collection_times": "Mo-Sa 11:30", "name": "USPS COLLECTION BOX - BLUE BOX", "ref": "6041900013"}, "type": "Feature"}
{"geometry": {"coordinates": [-87.597916862, 41.636847516], "type": "Point"}, "id": "Ixvr3r-jiKnVT2rN1_G3Lx-N1Gk=", "properties": {"@spider": "usps_collection_boxes", "addr:city": "DOLTON", "addr:country": "US", "addr:full": "14212 COTTAGE GROVE AVE", "addr:postcode": "60419", "addr:state": "IL", "brand": "USPS", "collection_times": "Mo-Fr 17:00; Sa 15:00", "name": "USPS COLLECTION BOX - BLUE BOX", "note": "ON 12/24 AND 12/31, THIS BOX MAY BE COLLECTED AS EARLY AS 12 NOON.", "ref": "6041900024"}, "type": "Feature"}
{"geometry": {"coordinates": [-87.597916862, 41.636847516], "type": "Point"}, "id": "25nA2ApWMrCpU9URBjAz4_6B5Bo=", "properties": {"@spider": "usps_collection_boxes", "addr:city": "DOLTON", "addr:country": "US", "addr:full": "14212 COTTAGE GROVE AVE", "addr:postcode": "60419", "addr:state": "IL", "brand": "USPS", "collection_times": "Mo-Fr 17:00; Sa 15:00", "name": "USPS COLLECTION BOX - EXPRESS", "note": "ON 12/24 AND 12/31, THIS BOX MAY BE COLLECTED AS EARLY AS 12 NOON.", "ref": "6041900026"}, "type": "Feature"}
{"geometry": {"coordinates": [-87.597916862, 41.636847516], "type": "Point"}, "id": "KBlhJ9wV2ixVES768Gh9dPGGoSg=", "properties": {"@spider": "usps_collection_boxes", "addr:city": "DOLTON", "addr:country": "US", "addr:full": "14212 COTTAGE GROVE AVE", "addr:postcode": "60419", "addr:state": "IL", "brand": "USPS", "collection_times": "Mo-Fr 17:00; Sa 15:00", "name": "USPS COLLECTION BOX - PO LOBBY", "note": "ON 12/24 AND 12/31, THIS BOX MAY BE COLLECTED AS EARLY AS 12 NOON.", "ref": "6041900028"}, "type": "Feature"}
{"geometry": {"coordinates": [-87.597916862, 41.636847516], "type": "Point"}, "id": "Vmau8dXFfdzEEsxR8uqWmsua2MA=", "properties": {"@spider": "usps_collection_boxes", "addr:city": "DOLTON", "addr:country": "US", "addr:full": "14212 COTTAGE GROVE AVE", "addr:postcode": "60419", "addr:state": "IL", "brand": "USPS", "collection_times": "Mo-Fr 17:00; Sa 14:00", "name": "USPS COLLECTION BOX - PO LOBBY", "note": "ON 12/24 AND 12/31, THIS BOX MAY BE COLLECTED AS EARLY AS 12 NOON.", "ref": "6041900030"}, "type": "Feature"}
{"geometry": {"coordinates": [-88.1208959, 41.704996], "type": "Point"}, "id": "0Li4JtdhYBLDNJwXFfihwfUndkk=", "properties": {"@spider": "usps_collection_boxes", "addr:city": "BOLINGBROOK", "addr:country": "US", "addr:full": "1158 W BOUGHTON RD", "addr:postcode": "60440", "addr:state": "IL", "brand": "USPS", "collection_times": "Mo-Sa 10:00", "name": "USPS COLLECTION BOX - BLUE BOX", "ref": "6044000020"}, "type": "Feature"}
{"geometry": {"coordinates": [-88.0952199, 41.707492], "type": "Point"}, "id": "xKH6WcaT9gXsR7IOt-ElIZZEY1k=", "properties": {"@spider": "usps_collection_boxes", "addr:city": "BOLINGBROOK", "addr:country": "US", "addr:full": "350 WHITEWATER DR", "addr:postcode": "60440", "addr:state": "IL", "brand": "USPS", "collection_times": "Mo-Sa 10:30", "name": "USPS COLLECTION BOX - BLUE BOX", "ref": "6044000037"}, "type": "Feature"}
{"geometry": {"coordinates": [-87.7371677, 41.706449], "type": "Point"}, "id": "C9usF9bo21dMCqRIPXwvchgSSHk=", "properties": {"@spider": "usps_collection_boxes", "addr:city": "OAK LAWN", "addr:country": "US", "addr:full": "4650 W 103RD ST", "addr:postcode": "60453", "addr:state": "IL", "brand": "USPS", "collection_times": "Mo-Sa 11:00", "name": "USPS COLLECTION BOX - BLUE BOX", "ref": "6045300002"}, "type": "Feature"}
{"geometry": {"coordinates": [-87.7218119, 41.691788], "type": "Point"}, "id": "SOmvQloojkG7lu3YqX4uLhzbDyo=", "properties": {"@spider": "usps_collection_boxes", "addr:city": "OAK LAWN", "addr:country": "US", "addr:full": "4046 W 111TH ST", "addr:postcode": "60453", "addr:state": "IL", "brand": "USPS", "collection_times": "Mo-Sa 09:30", "name": "USPS COLLECTION BOX - BLUE BOX", "ref": "6045300004"}, "type": "Feature"}
{"geometry": {"coordinates": [-87.7397531, 41.697009], "type": "Point"}, "id": "Np-nylAh7npK9PQvPlDo5z3Zi28=", "properties": {"@spider": "usps_collection_boxes", "addr:city": "OAK LAWN", "addr:country": "US", "addr:full": "10735 S CICERO AVE", "addr:postcode": "60453", "addr:state": "IL", "brand": "USPS", "collection_times": "Mo-Sa 10:45", "name": "USPS COLLECTION BOX - BLUE BOX", "ref": "6045300027"}, "type": "Feature"}
{"geometry": {"coordinates": [-87.7260172, 41.71666], "type": "Point"}, "id": "GTRyAiSvsxQiPXZYPgXh80CKDMA=", "properties": {"@spider": "usps_collection_boxes", "addr:city": "OAK LAWN", "addr:country": "US", "addr:full": "9701 S KEELER AVE", "addr:postcode": "60453", "addr:state": "IL", "brand": "USPS", "collection_times": "Mo-Sa 11:30", "name": "USPS COLLECTION BOX - BLUE BOX", "ref": "6045300040"}, "type": "Feature"}
{"geometry": {"coordinates": [-87.7255759, 41.698573], "type": "Point"}, "id": "c44iZsNdJBH5HRNcDg-1mhrT-zk=", "properties": {"@spider": "usps_collection_boxes", "addr:city": "OAK LAWN", "addr:country": "US", "addr:full": "10658 S KEELER AVE", "addr:postcode": "60453", "addr:state": "IL", "brand": "USPS", "collection_times": "Mo-Sa 11:00", "name": "USPS COLLECTION BOX - BLUE BOX", "ref": "6045300041"}, "type": "Feature"}
{"geometry": {"coordinates": [-87.7375708, 41.6947], "type": "Point"}, "id": "ptU6xJOjlvGWV6d1qWLvyOL0L-o=", "properties": {"@spider": "usps_collection_boxes", "addr:city": "OAK LAWN", "addr:country": "US", "addr:full": "10850 KILPATRICK AVE", "addr:postcode": "60453", "addr:state": "IL", "brand": "USPS", "collection_times": "Mo-Fr 11:00; Sa 12:00", "name": "USPS COLLECTION BOX - BLUE BOX", "ref": "6045300042"}, "type": "Feature"}
{"geometry": {"coordinates": [-87.7209359, 41.702308], "type": "Point"}, "id": "vbGhD3V-MkZZU70gGkEKxciVtGc=", "properties": {"@spider": "usps_collection_boxes", "addr:city": "OAK LAWN", "addr:country": "US", "addr:full": "10458 S PULASKI RD", "addr:postcode": "60453", "addr:state": "IL", "brand": "USPS", "collection_times": "Mo-Sa 10:00", "name": "USPS COLLECTION BOX - BLUE BOX", "ref": "6045300046"}, "type": "Feature"}
{"geometry": {"coordinates": [-87.7317196, 41.723454], "type": "Point"}, "id": "xcE7vIHSv_Ht4y1RK6w4KJDvz94=", "properties": {"@spider": "usps_collection_boxes", "addr:city": "OAK LAWN", "addr:country": "US", "addr:full": "9300 S KOSTNER AVE", "addr:postcode": "60453", "addr:state": "IL", "brand": "USPS", "collection_times": "Mo-Sa 10:45", "name": "USPS COLLECTION BOX - BLUE BOX", "ref": "6045300050"}, "type": "Feature"}
{"geometry": {"coordinates": [-87.7317031, 41.73391], "type": "Point"}, "id": "A_aXVTfc_QBXHaco6ayx85NUnw8=", "properties": {"@spider": "usps_collection_boxes", "addr:city": "HOMETOWN", "addr:country": "US", "addr:full": "4400 W 87TH PL", "addr:postcode": "60456", "addr:state": "IL", "brand": "USPS", "collection_times": "Mo-Fr 15:15; Sa 15:00", "name": "USPS COLLECTION BOX - BLUE BOX", "note": "ON 12/24 AND 12/31, THIS BOX MAY BE COLLECTED AS EARLY AS 12 NOON.", "ref": "6045600000"}, "type": "Feature"}
{"geometry": {"coordinates": [-87.7247204, 41.733505], "type": "Point"}, "id": "XWlSoMAp1jVpZs-nzwdYNscxshs=", "properties": {"@spider": "usps_collection_boxes", "addr:city": "HOMETOWN", "addr:country": "US", "addr:full": "4100 SOUTHWEST HWY", "addr:postcode": "60456", "addr:state": "IL", "brand": "USPS", "collection_times": "Mo-Sa 15:15", "name": "USPS COLLECTION BOX - BLUE BOX", "note": "ON 12/24 AND 12/31, THIS BOX MAY BE COLLECTED AS EARLY AS 12 NOON.", "ref": "6045600003"}, "type": "Feature"}
{"geometry": {"coordinates": [-88.1272979, 41.704696], "type": "Point"}, "id": "JBSL1rix_a4VGWyRq_JuHGQEFYo=", "properties": {"@spider": "usps_collection_boxes", "addr:city": "BOLINGBROOK", "addr:country": "US", "addr:full": "319 N NAPERVILLE RD", "addr:postcode": "60490", "addr:state": "IL", "brand": "USPS", "collection_times": "Mo-Sa 10:00", "name": "USPS COLLECTION BOX - BLUE BOX", "ref": "6049000000"}, "type": "Feature"}
{"geometry": {"coordinates": [-88.1273141, 41.704696], "type": "Point"}, "id": "M7sr9KF-TcYUG_xfVLVTny_mVew=", "properties": {"@spider": "usps_collection_boxes", "addr:city": "BOLINGBROOK", "addr:country": "US", "addr:full": "319 N NAPERVILLE RD", "addr:postcode": "60490", "addr:state": "IL", "brand": "USPS", "collection_times": "Mo-Sa 10:00", "name": "USPS COLLECTION BOX - EXPRESS", "ref": "6049000001"}, "type": "Feature"}
{"geometry": {"coordinates": [-88.1456692, 41.696365], "type": "Point"}, "id": "ifPZL0r-AsIGtIhUWD7iKdNNwYU=", "properties": {"@spider": "usps_collection_boxes", "addr:city": "BOLINGBROOK", "addr:country": "US", "addr:full": "1725 W BOUGHTON RD", "addr:postcode": "60490", "addr:state": "IL", "brand": "USPS", "collection_times": "Mo-Sa 10:00", "name": "USPS COLLECTION BOX - BLUE BOX", "ref": "6049000006"}, "type": "Feature"}
