{"dataset_attributes": {"@spider": "usps_collection_boxes"}, "geometry": {"coordinates": [-87.7129499, 41.997462], "type": "Point"}, "id": "LK8sUO7qDtkmnziuDRwL-nkJYeA=", "properties": {"@spider": "usps_collection_boxes", "addr:city": "CHICAGO", "addr:country": "US", "addr:full": "3320 W DEVON NE", "addr:postcode": "60712", "addr:state": "IL", "amenity": "post_box", "brand": "United States Postal Service", "brand:wikidata": "Q668687", "collection_times": "Mo-Fr 15:00; Sa 12:00", "name": "USPS COLLECTION BOX - BLUE BOX", "note": "ON 12/24 AND 12/31, THIS BOX MAY BE COLLECTED AS EARLY AS 12 NOON.", "nsi_id": "unitedstatespostalservice-a77078", "operator": "United States Postal Service", "operator:short": "USPS", "operator:type": "public", "operator:wikidata": "Q668687", "ref": "6071200000"}, "type": "Feature"}
{"dataset_attributes": {"@spider": "usps_collection_boxes"}, "geometry": {"coordinates": [-87.7148479818, 42.0106330197], "type": "Point"}, "id": "E0nCa5LS5MHnDozatIKhsPD6EF8=", "properties": {"@spider": "usps_collection_boxes", "addr:city": "CHICAGO", "addr:country": "US", "addr:full": "3333 W TOUHY", "addr:postcode": "60712", "addr:state": "IL", "amenity": "post_box", "brand": "United States Postal Service", "brand:wikidata": "Q668687", "collection_times": "Mo-Fr 17:00; Sa 12:00", "name": "USPS COLLECTION BOX - BLUE BOX", "note": "ON 12/24 AND 12/31, THIS BOX MAY BE COLLECTED AS EARLY AS 12 NOON.", "nsi_id": "unitedstatespostalservice-a77078", "operator": "United States Postal Service", "operator:short": "USPS", "operator:type": "public", "operator:wikidata": "Q668687", "ref": "6071200002"}, "type": "Feature"}
{"dataset_attributes": {"@spider": "usps_collection_boxes"}, "geometry": {"coordinates": [-87.7144295645, 41.9973748524], "type": "Point"}, "id": "mpthqxZsPi5o2y6c-hA9N5y3JAs=", "properties": {"@spider": "usps_collection_boxes", "addr:city": "CHICAGO", "addr:country": "US", "addr:full": "3402 W DEVON", "addr:postcode": "60712", "addr:state": "IL", "amenity": "post_box", "brand": "United States Postal Service", "brand:wikidata": "Q668687", "collection_times": "Mo-Fr 17:00; Sa 12:00", "name": "USPS COLLECTION BOX - BLUE BOX", "note": "ON 12/24 AND 12/31, THIS BOX MAY BE COLLECTED AS EARLY AS 12 NOON.", "nsi_id": "unitedstatespostalservice-a77078", "operator": "United States Postal Service", "operator:short": "USPS", "operator:type": "public", "operator:wikidata": "Q668687", "ref": "6071200004"}, "type": "Feature"}
{"dataset_attributes": {"@spider": "usps_collection_boxes"}, "geometry": {"coordinates": [-87.8021371, 42.024901], "type": "Point"}, "id": "yyOgPGMAa0nSLOgbK_JN6kCaUsQ=", "properties": {"@spider": "usps_collection_boxes", "addr:city": "NILES", "addr:country": "US", "addr:full": "6977 W OAKTON ST", "addr:postcode": "60714", "addr:state": "IL", "amenity": "post_box", "brand": "United States Postal Service", "brand:wikidata": "Q668687", "collection_times": "Mo-Fr 17:00; Sa 16:15", "name": "USPS COLLECTION BOX - BLUE BOX", "note": "ON 12/24 AND 12/31, THIS BOX MAY BE COLLECTED AS EARLY AS 12 NOON.", "nsi_id": "unitedstatespostalservice-a77078", "operator": "United States Postal Service", "operator:short": "USPS", "operator:type": "public", "operator:wikidata": "Q668687", "ref": "6071400013"}, "type": "Feature"}
{"dataset_attributes": {"@spider": "usps_collection_boxes"}, "geometry": {"coordinates": [-87.8021411, 42.024881], "type": "Point"}, "id": "_EJMEHBDsm1dBM9DquIOlpwv9dc=", "properties": {"@spider": "usps_collection_boxes", "addr:city": "NILES", "addr:country": "US", "addr:full": "6977 W OAKTON ST", "addr:postcode": "60714", "addr:state": "IL", "amenity": "post_box", "brand": "United States Postal Service", "brand:wikidata": "Q668687", "collection_times": "Mo-Fr 17:00; Sa 16:15", "name": "USPS COLLECTION BOX - BLUE BOX", "note": "ON 12/24 AND 12/31, THIS BOX MAY BE COLLECTED AS EARLY AS 12 NOON.", "nsi_id": "unitedstatespostalservice-a77078", "operator": "United States Postal Service", "operator:short": "USPS", "operator:type": "public", "operator:wikidata": "Q668687", "ref": "6071400015"}, "type": "Feature"}
{"dataset_attributes": {"@spider": "usps_collection_boxes"}, "geometry": {"coordinates": [-87.8021374, 42.024891], "type": "Point"}, "id": "J7tSdtr93Jx8EfrDbmn2wVcxJks=", "properties": {"@spider": "usps_collection_boxes", "addr:city": "NILES", "addr:country": "US", "addr:full": "6977 W OAKTON ST", "addr:postcode": "60714", "addr:state": "IL", "amenity": "post_box", "brand": "United States Postal Service", "brand:wikidata": "Q668687", "collection_times": "Mo-Fr 17:00; Sa 16:15", "name": "USPS COLLECTION BOX - BLUE BOX", "note": "ON 12/24 AND 12/31, THIS BOX MAY BE COLLECTED AS EARLY AS 12 NOON.", "nsi_id": "unitedstatespostalservice-a77078", "operator": "United States Postal Service", "operator:short": "USPS", "operator:type": "public", "operator:wikidata": "Q668687", "ref": "6071400017"}, "type": "Feature"}
{"dataset_attributes": {"@spider": "usps_collection_boxes"}, "geometry": {"coordinates": [-87.8017470277, 42.0253549945], "type": "Point"}, "id": "JymEgofisglH4fD10K1nzAqXyb0=", "properties": {"@spider": "usps_collection_boxes", "addr:city": "NILES", "addr:country": "US", "addr:full": "6977 W OAKTON ST", "addr:postcode": "60714", "addr:state": "IL", "amenity": "post_box", "brand": "United States Postal Service", "brand:wikidata": "Q668687", "collection_times": "Mo-Fr 17:00; Sa 16:15", "name": "USPS COLLECTION BOX - BLUE BOX", "note": "ON 12/24 AND 12/31, THIS BOX MAY BE COLLECTED AS EARLY AS 12 NOON.", "nsi_id": "unitedstatespostalservice-a77078", "operator": "United States Postal Service", "operator:short": "USPS", "operator:type": "public", "operator:wikidata": "Q668687", "ref": "6071400018"}, "type": "Feature"}
{"dataset_attributes": {"@spider": "usps_collection_boxes"}, "geometry": {"coordinates": [-87.8036971, 42.040452], "type": "Point"}, "id": "BUxDdpkXRdqtf6GBoBt501RzrLc=", "properties": {"@spider": "usps_collection_boxes", "addr:city": "NILES", "addr:country": "US", "addr:full": "7077 W DEMPSTER ST", "addr:postcode": "60714", "addr:state": "IL", "amenity": "post_box", "brand": "United States Postal Service", "brand:wikidata": "Q668687", "collection_times": "Mo-Fr 15:00; Sa 12:00", "name": "USPS COLLECTION BOX - BLUE BOX", "note": "ON 12/24 AND 12/31, THIS BOX MAY BE COLLECTED AS EARLY AS 12 NOON.", "nsi_id": "unitedstatespostalservice-a77078", "operator": "United States Postal Service", "operator:short": "USPS", "operator:type": "public", "operator:wikidata": "Q668687", "ref": "6071400021"}, "type": "Feature"}
{"dataset_attributes": {"@spider": "usps_collection_boxes"}, "geometry": {"coordinates": [-87.8038037, 42.026493], "type": "Point"}, "id": "cbO6GN2ex3t9LhsrORgmnAHVgEw=", "properties": {"@spider": "usps_collection_boxes", "addr:city": "NILES", "addr:country": "US", "addr:full": "7100 W OAKTON ST", "addr:postcode": "60714", "addr:state": "IL", "amenity": "post_box", "brand": "United States Postal Service", "brand:wikidata": "Q668687", "collection_times": "Mo-Sa 10:00", "name": "USPS COLLECTION BOX - BLUE BOX", "nsi_id": "unitedstatespostalservice-a77078", "operator": "United States Postal Service", "operator:short": "USPS", "operator:type": "public", "operator:wikidata": "Q668687", "ref": "6071400023"}, "type": "Feature"}
{"dataset_attributes": {"@spider": "usps_collection_boxes"}, "geometry": {"coordinates": [-87.8153518, 42.024763], "type": "Point"}, "id": "-rJrT20v59zi_q08cuuu06TbnL4=", "properties": {"@spider": "usps_collection_boxes", "addr:city": "NILES", "addr:country": "US", "addr:full": "7900 N MILWAUKEE AVE", "addr:postcode": "60714", "addr:state": "IL", "amenity": "post_box", "brand": "United States Postal Service", "brand:wikidata": "Q668687", "collection_times": "Mo-Fr 15:00; Sa 12:00", "name": "USPS COLLECTION BOX - BLUE BOX", "note": "ON 12/24 AND 12/31, THIS BOX MAY BE COLLECTED AS EARLY AS 12 NOON.", "nsi_id": "unitedstatespostalservice-a77078", "operator": "United States Postal Service", "operator:short": "USPS", "operator:type": "public", "operator:wikidata": "Q668687", "ref": "6071400037"}, "type": "Feature"}
{"dataset_attributes": {"@spider": "usps_collection_boxes"}, "geometry": {"coordinates": [-87.8014788, 42.027088], "type": "Point"}, "id": "2NU_LnsJGS1i7AoiO-QXt_xh-Yw=", "properties": {"@spider": "usps_collection_boxes", "addr:city": "NILES", "addr:country": "US", "addr:full": "6960 W OAKTON ST", "addr:postcode": "60714", "addr:state": "IL", "amenity": "post_box", "brand": "United States Postal Service", "brand:wikidata": "Q668687", "collection_times": "Mo-Fr 10:00; Sa 12:00", "name": "USPS COLLECTION BOX - BLUE BOX", "nsi_id": "unitedstatespostalservice-a77078", "operator": "United States Postal Service", "operator:short": "USPS", "operator:type": "public", "operator:wikidata": "Q668687", "ref": "6071400039"}, "type": "Feature"}
{"dataset_attributes": {"@spider": "usps_collection_boxes"}, "geometry": {"coordinates": [-87.8321063, 42.053553], "type": "Point"}, "id": "nN2cj6x1T5AmFZ6AvOqNCz9hUeQ=", "properties": {"@spider": "usps_collection_boxes", "addr:city": "NILES", "addr:country": "US", "addr:full": "8203 W GOLF RD", "addr:postcode": "60714", "addr:state": "IL", "amenity": "post_box", "brand": "United States Postal Service", "brand:wikidata": "Q668687", "collection_times": "Mo-Sa 10:00", "name": "USPS COLLECTION BOX - BLUE BOX", "nsi_id": "unitedstatespostalservice-a77078", "operator": "United States Postal Service", "operator:short": "USPS", "operator:type": "public", "operator:wikidata": "Q668687", "ref": "6071400040"}, "type": "Feature"}
{"dataset_attributes": {"@spider": "usps_collection_boxes"}, "geometry": {"coordinates": [-87.8357343, 42.054368], "type": "Point"}, "id": "WxGng7zYxXZv87sceu4Frao-DOQ=", "properties": {"@spider": "usps_collection_boxes", "addr:city": "NILES", "addr:country": "US", "addr:full": "8359 W GOLF RD", "addr:postcode": "60714", "addr:state": "IL", "amenity": "post_box", "brand": "United States Postal Service", "brand:wikidata": "Q668687", "collection_times": "Mo-Sa 10:00", "name": "USPS COLLECTION BOX - BLUE BOX", "nsi_id": "unitedstatespostalservice-a77078", "operator": "United States Postal Service", "operator:short": "USPS", "operator:type": "public", "operator:wikidata": "Q668687", "ref": "6071400041"}, "type": "Feature"}
{"dataset_attributes": {"@spider": "usps_collection_boxes"}, "geometry": {"coordinates": [-87.83532, 42.056541], "type": "Point"}, "id": "9FF9YoOXl63Z-fqW-oap_RHeBtk=", "properties": {"@spider": "usps_collection_boxes", "addr:city": "NILES", "addr:country": "US", "addr:full": "8500 W GOLF RD", "addr:postcode": "60714", "addr:state": "IL", "amenity": "post_box", "brand": "United States Postal Service", "brand:wikidata": "Q668687", "collection_times": "Mo-Fr 10:00; Sa 12:00", "name": "USPS COLLECTION BOX - BLUE BOX", "nsi_id": "unitedstatespostalservice-a77078", "operator": "United States Postal Service", "operator:short": "USPS", "operator:type": "public", "operator:wikidata": "Q668687", "ref": "6071400042"}, "type": "Feature"}
{"dataset_attributes": {"@spider": "usps_collection_boxes"}, "geometry": {"coordinates": [-87.8431159, 42.040841], "type": "Point"}, "id": "kVhfx3_3i7Wm_V-s-vFlxUWPwvA=", "properties": {"@spider": "usps_collection_boxes", "addr:city": "NILES", "addr:country": "US", "addr:full": "8722 W DEMPSTER ST", "addr:postcode": "60714", "addr:state": "IL", "amenity": "post_box", "brand": "United States Postal Service", "brand:wikidata": "Q668687", "collection_times": "Mo-Fr 10:00; Sa 12:00", "name": "USPS COLLECTION BOX - BLUE BOX", "nsi_id": "unitedstatespostalservice-a77078", "operator": "United States Postal Service", "operator:short": "USPS", "operator:type": "public", "operator:wikidata": "Q668687", "ref": "6071400046"}, "type": "Feature"}
{"dataset_attributes": {"@spider": "usps_collection_boxes"}, "geometry": {"coordinates": [-87.8506994, 42.055348], "type": "Point"}, "id": "zG6XQ5QCqna4N4pgK4_1eVMh74Q=", "properties": {"@spider": "usps_collection_boxes", "addr:city": "NILES", "addr:country": "US", "addr:full": "9000 W GOLF RD", "addr:postcode": "60714", "addr:state": "IL", "amenity": "post_box", "brand": "United States Postal Service", "brand:wikidata": "Q668687", "collection_times": "Mo-Fr 15:00; Sa 12:00", "name": "USPS COLLECTION BOX - BLUE BOX", "note": "ON 12/24 AND 12/31, THIS BOX MAY BE COLLECTED AS EARLY AS 12 NOON.", "nsi_id": "unitedstatespostalservice-a77078", "operator": "United States Postal Service", "operator:short": "USPS", "operator:type": "public", "operator:wikidata": "Q668687", "ref": "6071400048"}, "type": "Feature"}
{"dataset_attributes": {"@spider": "usps_collection_boxes"}, "geometry": {"coordinates": [-87.8335177, 42.052978], "type": "Point"}, "id": "wyTE-TswjRmXP8jAe3ZI3I6nLK0=", "properties": {"@spider": "usps_collection_boxes", "addr:city": "NILES", "addr:country": "US", "addr:full": "8303 W GOLF RD", "addr:postcode": "60714", "addr:state": "IL", "amenity": "post_box", "brand": "United States Postal Service", "brand:wikidata": "Q668687", "collection_times": "Mo-Sa 10:00", "name": "USPS COLLECTION BOX - BLUE BOX", "nsi_id": "unitedstatespostalservice-a77078", "operator": "United States Postal Service", "operator:short": "USPS", "operator:type": "public", "operator:wikidata": "Q668687", "ref": "6071400049"}, "type": "Feature"}
{"dataset_attributes": {"@spider": "usps_collection_boxes"}, "geometry": {"coordinates": [-87.8394338, 42.047019], "type": "Point"}, "id": "jL5IQy4apyUr_9k916n-cl9Xg2g=", "properties": {"@spider": "usps_collection_boxes", "addr:city": "NILES", "addr:country": "US", "addr:full": "9060 N GRACE AVE", "addr:postcode": "60714", "addr:state": "IL", "amenity": "post_box", "brand": "United States Postal Service", "brand:wikidata": "Q668687", "collection_times": "Mo-Fr 15:00; Sa 12:00", "name": "USPS COLLECTION BOX - BLUE BOX", "note": "ON 12/24 AND 12/31, THIS BOX MAY BE COLLECTED AS EARLY AS 12 NOON.", "nsi_id": "unitedstatespostalservice-a77078", "operator": "United States Postal Service", "operator:short": "USPS", "operator:type": "public", "operator:wikidata": "Q668687", "ref": "6071400050"}, "type": "Feature"}
{"dataset_attributes": {"@spider": "usps_collection_boxes"}, "geometry": {"coordinates": [-87.8308942, 42.045901], "type": "Point"}, "id": "XmGbj41z-XIjDrWjAPwvNnXZaf0=", "properties": {"@spider": "usps_collection_boxes", "addr:city": "NILES", "addr:country": "US", "addr:full": "9101 N MILWAUKEE AVE", "addr:postcode": "60714", "addr:state": "IL", "amenity": "post_box", "brand": "United States Postal Service", "brand:wikidata": "Q668687", "collection_times": "Mo-Fr 10:00; Sa 12:00", "name": "USPS COLLECTION BOX - BLUE BOX", "nsi_id": "unitedstatespostalservice-a77078", "operator": "United States Postal Service", "operator:short": "USPS", "operator:type": "public", "operator:wikidata": "Q668687", "ref": "6071400052"}, "type": "Feature"}
{"dataset_attributes": {"@spider": "usps_collection_boxes"}, "geometry": {"coordinates": [-87.833738268, 42.047112872], "type": "Point"}, "id": "-GLU90rQyGQe-PK1iCEIhhtxf68=", "properties": {"@spider": "usps_collection_boxes", "addr:city": "NILES", "addr:country": "US", "addr:full": "9201 N MARYLAND ST", "addr:postcode": "60714", "addr:state": "IL", "amenity": "post_box", "brand": "United States Postal Service", "brand:wikidata": "Q668687", "collection_times": "Mo-Fr 10:00; Sa 12:00", "name": "USPS COLLECTION BOX - BLUE BOX", "nsi_id": "unitedstatespostalservice-a77078", "operator": "United States Postal Service", "operator:short": "USPS", "operator:type": "public", "operator:wikidata": "Q668687", "ref": "6071400053"}, "type": "Feature"}
{"dataset_attributes": {"@spider": "usps_collection_boxes"}, "geometry": {"coordinates": [-87.8387459, 42.053152], "type": "Point"}, "id": "g0-OuSefGzTwrYYoSdoQPsmbUxU=", "properties": {"@spider": "usps_collection_boxes", "addr:city": "NILES", "addr:country": "US", "addr:full": "9500 N GREENWOOD AVE", "addr:postcode": "60714", "addr:state": "IL", "amenity": "post_box", "brand": "United States Postal Service", "brand:wikidata": "Q668687", "collection_times": "Mo-Fr 15:00; Sa 12:00", "name": "USPS COLLECTION BOX - BLUE BOX", "note": "ON 12/24 AND 12/31, THIS BOX MAY BE COLLECTED AS EARLY AS 12 NOON.", "nsi_id": "unitedstatespostalservice-a77078", "operator": "United States Postal Service", "operator:short": "USPS", "operator:type": "public", "operator:wikidata": "Q668687", "ref": "6071400054"}, "type": "Feature"}
{"dataset_attributes": {"@spider": "usps_collection_boxes"}, "geometry": {"coordinates": [-87.8378892, 42.04913], "type": "Point"}, "id": "BuvczKkZtXEAVTcgprA3FWOScW4=", "properties": {"@spider": "usps_collection_boxes", "addr:city": "NILES", "addr:country": "US", "addr:full": "9300 N MILWAUKEE AVE", "addr:postcode": "60714", "addr:state": "IL", "amenity": "post_box", "brand": "United States Postal Service", "brand:wikidata": "Q668687", "collection_times": "Mo-Fr 15:00; Sa 12:00", "name": "USPS COLLECTION BOX - BLUE BOX", "note": "ON 12/24 AND 12/31, THIS BOX MAY BE COLLECTED AS EARLY AS 12 NOON.", "nsi_id": "unitedstatespostalservice-a77078", "operator": "United States Postal Service", "operator:short": "USPS", "operator:type": "public", "operator:wikidata": "Q668687", "ref": "6071400057"}, "type": "Feature"}
{"dataset_attributes": {"@spider": "usps_collection_boxes"}, "geometry": {"coordinates": [-87.8339056317, 42.0498667052], "type": "Point"}, "id": "iPGBKZPUuscZzgjiWehfNqCR2oM=", "properties": {"@spider": "usps_collection_boxes", "addr:city": "NILES", "addr:country": "US", "addr:full": "9347 N MILWAUKEE AVE", "addr:postcode": "60714", "addr:state": "IL", "amenity": "post_box", "brand": "United States Postal Service", "brand:wikidata": "Q668687", "collection_times": "Mo-Sa 10:00", "name": "USPS COLLECTION BOX - BLUE BOX", "nsi_id": "unitedstatespostalservice-a77078", "operator": "United States Postal Service", "operator:short": "USPS", "operator:type": "public", "operator:wikidata": "Q668687", "ref": "6071400059"}, "type": "Feature"}
{"dataset_attributes": {"@spider": "usps_collection_boxes"}, "geometry": {"coordinates": [-87.8389942, 42.058357], "type": "Point"}, "id": "5Hd4mVLeWNCarPlS-vkRY6VOpJU=", "properties": {"@spider": "usps_collection_boxes", "addr:city": "NILES", "addr:country": "US", "addr:full": "8555 W MAYNARD SE", "addr:postcode": "60714", "addr:state": "IL", "amenity": "post_box", "brand": "United States Postal Service", "brand:wikidata": "Q668687", "collection_times": "Mo-Fr 10:00; Sa 12:00", "name": "USPS COLLECTION BOX - BLUE BOX", "nsi_id": "unitedstatespostalservice-a77078", "operator": "United States Postal Service", "operator:short": "USPS", "operator:type": "public", "operator:wikidata": "Q668687", "ref": "6071400065"}, "type": "Feature"}
{"dataset_attributes": {"@spider": "usps_collection_boxes"}, "geometry": {"coordinates": [-87.8359071, 42.030084], "type": "Point"}, "id": "pOaV9ks4sBoyB3E-W8z0xhhmNiw=", "properties": {"@spider": "usps_collection_boxes", "addr:city": "NILES", "addr:country": "US", "addr:full": "8402 W MADISON DR", "addr:postcode": "60714", "addr:state": "IL", "amenity": "post_box", "brand": "United States Postal Service", "brand:wikidata": "Q668687", "collection_times": "Mo-Fr 10:00; Sa 12:00", "name": "USPS COLLECTION BOX - BLUE BOX", "nsi_id": "unitedstatespostalservice-a77078", "operator": "United States Postal Service", "operator:short": "USPS", "operator:type": "public", "operator:wikidata": "Q668687", "ref": "6071400072"}, "type": "Feature"}
{"dataset_attributes": {"@spider": "usps_collection_boxes"}, "geometry": {"coordinates": [-87.830119, 42.028845], "type": "Point"}, "id": "ZrV1jntEPkSlVfu2vIXq9eXrZFQ=", "properties": {"@spider": "usps_collection_boxes", "addr:city": "NILES", "addr:country": "US", "addr:full": "8157 N FIELD DR", "addr:postcode": "60714", "addr:state": "IL", "amenity": "post_box", "brand": "United States Postal Service", "brand:wikidata": "Q668687", "collection_times": "Mo-Fr 10:00; Sa 12:00", "name": "USPS COLLECTION BOX - BLUE BOX", "nsi_id": "unitedstatespostalservice-a77078", "operator": "United States Postal Service", "operator:short": "USPS", "operator:type": "public", "operator:wikidata": "Q668687", "ref": "6071400073"}, "type": "Feature"}
{"dataset_attributes": {"@spider": "usps_collection_boxes"}, "geometry": {"coordinates": [-87.8322378, 42.040322], "type": "Point"}, "id": "KeZ3aGmphIW2X0c6FoH9DKlNaAg=", "properties": {"@spider": "usps_collection_boxes", "addr:city": "NILES", "addr:country": "US", "addr:full": "8250 W DEMPSTER ST", "addr:postcode": "60714", "addr:state": "IL", "amenity": "post_box", "brand": "United States Postal Service", "brand:wikidata": "Q668687", "collection_times": "Mo-Sa 10:00", "name": "USPS COLLECTION BOX - BLUE BOX", "nsi_id": "unitedstatespostalservice-a77078", "operator": "United States Postal Service", "operator:short": "USPS", "operator:type": "public", "operator:wikidata": "Q668687", "ref": "6071400074"}, "type": "Feature"}
{"dataset_attributes": {"@spider": "usps_collection_boxes"}, "geometry": {"coordinates": [-87.8404468, 42.032285], "type": "Point"}, "id": "TmsEpkiJrMlOwge4eb1vb_9XgPU=", "properties": {"@spider": "usps_collection_boxes", "addr:city": "NILES", "addr:country": "US", "addr:full": "8561 W BRUCE DR", "addr:postcode": "60714", "addr:state": "IL", "amenity": "post_box", "brand": "United States Postal Service", "brand:wikidata": "Q668687", "collection_times": "Mo-Fr 10:00; Sa 12:00", "name": "USPS COLLECTION BOX - BLUE BOX", "nsi_id": "unitedstatespostalservice-a77078", "operator": "United States Postal Service", "operator:short": "USPS", "operator:type": "public", "operator:wikidata": "Q668687", "ref": "6071400075"}, "type": "Feature"}
{"dataset_attributes": {"@spider": "usps_collection_boxes"}, "geometry": {"coordinates": [-87.8068599886, 42.0227509886], "type": "Point"}, "id": "s2pcn0oCRmbya2r9LPoMN4UaOEg=", "properties": {"@spider": "usps_collection_boxes", "addr:city": "NILES", "addr:country": "US", "addr:full": "7800 N HARLEM AVE", "addr:postcode": "60714", "addr:state": "IL", "amenity": "post_box", "brand": "United States Postal Service", "brand:wikidata": "Q668687", "collection_times": "Mo-Sa 10:00", "name": "USPS COLLECTION BOX - BLUE BOX", "nsi_id": "unitedstatespostalservice-a77078", "operator": "United States Postal Service", "operator:short": "USPS", "operator:type": "public", "operator:wikidata": "Q668687", "ref": "6071400081"}, "type": "Feature"}
{"dataset_attributes": {"@spider": "usps_collection_boxes"}, "geometry": {"coordinates": [-87.8430117, 42.030742], "type": "Point"}, "id": "qllYIIqE6koPoaHNniG5tlg1hes=", "properties": {"@spider": "usps_collection_boxes", "addr:city": "NILES", "addr:country": "US", "addr:full": "8658 W NORMAL NE", "addr:postcode": "60714", "addr:state": "IL", "amenity": "post_box", "brand": "United States Postal Service", "brand:wikidata": "Q668687", "collection_times": "Mo-Fr 10:00; Sa 12:00", "name": "USPS COLLECTION BOX - BLUE BOX", "nsi_id": "unitedstatespostalservice-a77078", "operator": "United States Postal Service", "operator:short": "USPS", "operator:type": "public", "operator:wikidata": "Q668687", "ref": "6071400082"}, "type": "Feature"}
{"dataset_attributes": {"@spider": "usps_collection_boxes"}, "geometry": {"coordinates": [-87.8222672, 42.029437], "type": "Point"}, "id": "J9z6E5FiHQUdrVwa-QZ1cYrUb-g=", "properties": {"@spider": "usps_collection_boxes", "addr:city": "NILES", "addr:country": "US", "addr:full": "8155 N MERRILL ST SE", "addr:postcode": "60714", "addr:state": "IL", "amenity": "post_box", "brand": "United States Postal Service", "brand:wikidata": "Q668687", "collection_times": "Mo-Fr 10:00; Sa 12:00", "name": "USPS COLLECTION BOX - BLUE BOX", "nsi_id": "unitedstatespostalservice-a77078", "operator": "United States Postal Service", "operator:short": "USPS", "operator:type": "public", "operator:wikidata": "Q668687", "ref": "6071400084"}, "type": "Feature"}
{"dataset_attributes": {"@spider": "usps_collection_boxes"}, "geometry": {"coordinates": [-87.8229883, 42.036485], "type": "Point"}, "id": "VJlBobDCjbJokXb1-r_rjafCf30=", "properties": {"@spider": "usps_collection_boxes", "addr:city": "NILES", "addr:country": "US", "addr:full": "8553 N MILWAUKEE AVE", "addr:postcode": "60714", "addr:state": "IL", "amenity": "post_box", "brand": "United States Postal Service", "brand:wikidata": "Q668687", "collection_times": "Mo-Sa 10:00", "name": "USPS COLLECTION BOX - BLUE BOX", "nsi_id": "unitedstatespostalservice-a77078", "operator": "United States Postal Service", "operator:short": "USPS", "operator:type": "public", "operator:wikidata": "Q668687", "ref": "6071400087"}, "type": "Feature"}
{"dataset_attributes": {"@spider": "usps_collection_boxes"}, "geometry": {"coordinates": [-87.8145404, 42.026825], "type": "Point"}, "id": "zGMfIh3fGQpzH6GD7xld4bU7UD8=", "properties": {"@spider": "usps_collection_boxes", "addr:city": "NILES", "addr:country": "US", "addr:full": "8035 N MILWAUKEE AVE", "addr:postcode": "60714", "addr:state": "IL", "amenity": "post_box", "brand": "United States Postal Service", "brand:wikidata": "Q668687", "collection_times": "Mo-Fr 10:00; Sa 12:00", "name": "USPS COLLECTION BOX - BLUE BOX", "nsi_id": "unitedstatespostalservice-a77078", "operator": "United States Postal Service", "operator:short": "USPS", "operator:type": "public", "operator:wikidata": "Q668687", "ref": "6071400089"}, "type": "Feature"}
{"dataset_attributes": {"@spider": "usps_collection_boxes"}, "geometry": {"coordinates": [-87.8040509, 42.024384], "type": "Point"}, "id": "54385-qbsAWq-8NNTpljaL8JdWY=", "properties": {"@spider": "usps_collection_boxes", "addr:city": "NILES", "addr:country": "US", "addr:full": "7856 N NEVA AVE", "addr:postcode": "60714", "addr:state": "IL", "amenity": "post_box", "brand": "United States Postal Service", "brand:wikidata": "Q668687", "collection_times": "Mo-Sa 10:00", "name": "USPS COLLECTION BOX - BLUE BOX", "nsi_id": "unitedstatespostalservice-a77078", "operator": "United States Postal Service", "operator:short": "USPS", "operator:type": "public", "operator:wikidata": "Q668687", "ref": "6071400090"}, "type": "Feature"}
{"dataset_attributes": {"@spider": "usps_collection_boxes"}, "geometry": {"coordinates": [-87.8102533, 42.026], "type": "Point"}, "id": "MKDCLw1J-hMfyxvq9BuC8Wpjimk=", "properties": {"@spider": "usps_collection_boxes", "addr:city": "NILES", "addr:country": "US", "addr:full": "7347 W OAKTON ST", "addr:postcode": "60714", "addr:state": "IL", "amenity": "post_box", "brand": "United States Postal Service", "brand:wikidata": "Q668687", "collection_times": "Mo-Sa 10:00", "name": "USPS COLLECTION BOX - BLUE BOX", "nsi_id": "unitedstatespostalservice-a77078", "operator": "United States Postal Service", "operator:short": "USPS", "operator:type": "public", "operator:wikidata": "Q668687", "ref": "6071400095"}, "type": "Feature"}
{"dataset_attributes": {"@spider": "usps_collection_boxes"}, "geometry": {"coordinates": [-87.8113892, 42.033312], "type": "Point"}, "id": "wXFslUWMdLFCRmeY_oin1UP3Rrw=", "properties": {"@spider": "usps_collection_boxes", "addr:city": "NILES", "addr:country": "US", "addr:full": "7401 W MAIN ST", "addr:postcode": "60714", "addr:state": "IL", "amenity": "post_box", "brand": "United States Postal Service", "brand:wikidata": "Q668687", "collection_times": "Mo-Fr 10:00; Sa 12:00", "name": "USPS COLLECTION BOX - BLUE BOX", "nsi_id": "unitedstatespostalservice-a77078", "operator": "United States Postal Service", "operator:short": "USPS", "operator:type": "public", "operator:wikidata": "Q668687", "ref": "6071400096"}, "type": "Feature"}
{"dataset_attributes": {"@spider": "usps_collection_boxes"}, "geometry": {"coordinates": [-87.8149947, 42.018831], "type": "Point"}, "id": "14uoM9GdCY51UfW4WPdBi9xl8fY=", "properties": {"@spider": "usps_collection_boxes", "addr:city": "NILES", "addr:country": "US", "addr:full": "7520 W HOWARD ST", "addr:postcode": "60714", "addr:state": "IL", "amenity": "post_box", "brand": "United States Postal Service", "brand:wikidata": "Q668687", "collection_times": "Mo-Fr 10:00; Sa 12:00", "name": "USPS COLLECTION BOX - BLUE BOX", "nsi_id": "unitedstatespostalservice-a77078", "operator": "United States Postal Service", "operator:short": "USPS", "operator:type": "public", "operator:wikidata": "Q668687", "ref": "6071400099"}, "type": "Feature"}
{"dataset_attributes": {"@spider": "usps_collection_boxes"}, "geometry": {"coordinates": [-87.8148248, 42.022293], "type": "Point"}, "id": "C2071BJtk9IsmeZUje5pfwOCQz8=", "properties": {"@spider": "usps_collection_boxes", "addr:city": "NILES", "addr:country": "US", "addr:full": "7800 N OLEANDER AVE", "addr:postcode": "60714", "addr:state": "IL", "amenity": "post_box", "brand": "United States Postal Service", "brand:wikidata": "Q668687", "collection_times": "Mo-Sa 10:00", "name": "USPS COLLECTION BOX - BLUE BOX", "nsi_id": "unitedstatespostalservice-a77078", "operator": "United States Postal Service", "operator:short": "USPS", "operator:type": "public", "operator:wikidata": "Q668687", "ref": "6071400101"}, "type": "Feature"}
{"dataset_attributes": {"@spider": "usps_collection_boxes"}, "geometry": {"coordinates": [-87.8204700201, 42.0434099911], "type": "Point"}, "id": "PbeTmasBSULFvmz_sDHAQGZ4vD8=", "properties": {"@spider": "usps_collection_boxes", "addr:city": "NILES", "addr:country": "US", "addr:full": "8901 N OZANAM AVE", "addr:postcode": "60714", "addr:state": "IL", "amenity": "post_box", "brand": "United States Postal Service", "brand:wikidata": "Q668687", "collection_times": "Mo-Sa 10:00", "name": "USPS COLLECTION BOX - BLUE BOX", "nsi_id": "unitedstatespostalservice-a77078", "operator": "United States Postal Service", "operator:short": "USPS", "operator:type": "public", "operator:wikidata": "Q668687", "ref": "6071400104"}, "type": "Feature"}
{"dataset_attributes": {"@spider": "usps_collection_boxes"}, "geometry": {"coordinates": [-87.8197716, 42.033312], "type": "Point"}, "id": "8i5sozyrvwBCyqnmFqE9OvzVna4=", "properties": {"@spider": "usps_collection_boxes", "addr:city": "NILES", "addr:country": "US", "addr:full": "7722 W MAIN ST", "addr:postcode": "60714", "addr:state": "IL", "amenity": "post_box", "brand": "United States Postal Service", "brand:wikidata": "Q668687", "collection_times": "Mo-Fr 10:00; Sa 12:00", "name": "USPS COLLECTION BOX - BLUE BOX", "nsi_id": "unitedstatespostalservice-a77078", "operator": "United States Postal Service", "operator:short": "USPS", "operator:type": "public", "operator:wikidata": "Q668687", "ref": "6071400105"}, "type": "Feature"}
{"dataset_attributes": {"@spider": "usps_collection_boxes"}, "geometry": {"coordinates": [-87.825931, 42.043815], "type": "Point"}, "id": "WFW6AFjVJ53R15PFe2a8hApjC50=", "properties": {"@spider": "usps_collection_boxes", "addr:city": "NILES", "addr:country": "US", "addr:full": "8001 W BALLARD RD", "addr:postcode": "60714", "addr:state": "IL", "amenity": "post_box", "brand": "United States Postal Service", "brand:wikidata": "Q668687", "collection_times": "Mo-Fr 10:00; Sa 12:00", "name": "USPS COLLECTION BOX - BLUE BOX", "nsi_id": "unitedstatespostalservice-a77078", "operator": "United States Postal Service", "operator:short": "USPS", "operator:type": "public", "operator:wikidata": "Q668687", "ref": "6071400109"}, "type": "Feature"}
{"dataset_attributes": {"@spider": "usps_collection_boxes"}, "geometry": {"coordinates": [-87.8258099, 42.052645], "type": "Point"}, "id": "w91G_sAJ83i41hSYFM_l_yOc9f8=", "properties": {"@spider": "usps_collection_boxes", "addr:city": "NILES", "addr:country": "US", "addr:full": "8000 W FOSTER LN", "addr:postcode": "60714", "addr:state": "IL", "amenity": "post_box", "brand": "United States Postal Service", "brand:wikidata": "Q668687", "collection_times": "Mo-Fr 10:00; Sa 12:00", "name": "USPS COLLECTION BOX - BLUE BOX", "nsi_id": "unitedstatespostalservice-a77078", "operator": "United States Postal Service", "operator:short": "USPS", "operator:type": "public", "operator:wikidata": "Q668687", "ref": "6071400110"}, "type": "Feature"}
{"dataset_attributes": {"@spider": "usps_collection_boxes"}, "geometry": {"coordinates": [-87.8258399, 42.050191], "type": "Point"}, "id": "wn1DYyr7QAcRVZpHIcCFfMZMRNY=", "properties": {"@spider": "usps_collection_boxes", "addr:city": "NILES", "addr:country": "US", "addr:full": "8000 W LYONS ST", "addr:postcode": "60714", "addr:state": "IL", "amenity": "post_box", "brand": "United States Postal Service", "brand:wikidata": "Q668687", "collection_times": "Mo-Sa 10:00", "name": "USPS COLLECTION BOX - BLUE BOX", "nsi_id": "unitedstatespostalservice-a77078", "operator": "United States Postal Service", "operator:short": "USPS", "operator:type": "public", "operator:wikidata": "Q668687", "ref": "6071400111"}, "type": "Feature"}
{"dataset_attributes": {"@spider": "usps_collection_boxes"}, "geometry": {"coordinates": [-87.8249119, 42.029535], "type": "Point"}, "id": "vDUlarS9bMOoo3SZgQ0ookAmj3E=", "properties": {"@spider": "usps_collection_boxes", "addr:city": "NILES", "addr:country": "US", "addr:full": "8200 N WISNER ST", "addr:postcode": "60714", "addr:state": "IL", "amenity": "post_box", "brand": "United States Postal Service", "brand:wikidata": "Q668687", "collection_times": "Mo-Fr 10:00; Sa 12:00", "name": "USPS COLLECTION BOX - BLUE BOX", "nsi_id": "unitedstatespostalservice-a77078", "operator": "United States Postal Service", "operator:short": "USPS", "operator:type": "public", "operator:wikidata": "Q668687", "ref": "6071400115"}, "type": "Feature"}
{"dataset_attributes": {"@spider": "usps_collection_boxes"}, "geometry": {"coordinates": [-87.8249787, 42.025936], "type": "Point"}, "id": "qmqOMKiSr61KkbmylkYnURFSsXk=", "properties": {"@spider": "usps_collection_boxes", "addr:city": "NILES", "addr:country": "US", "addr:full": "7934 W OAKTON ST", "addr:postcode": "60714", "addr:state": "IL", "amenity": "post_box", "brand": "United States Postal Service", "brand:wikidata": "Q668687", "collection_times": "Mo-Fr 10:00; Sa 12:00", "name": "USPS COLLECTION BOX - BLUE BOX", "nsi_id": "unitedstatespostalservice-a77078", "operator": "United States Postal Service", "operator:short": "USPS", "operator:type": "public", "operator:wikidata": "Q668687", "ref": "6071400116"}, "type": "Feature"}
{"dataset_attributes": {"@spider": "usps_collection_boxes"}, "geometry": {"coordinates": [-87.8042884, 42.030874], "type": "Point"}, "id": "O0GPoIATPtLAvz3VLHvXfPHf7AA=", "properties": {"@spider": "usps_collection_boxes", "addr:city": "NILES", "addr:country": "US", "addr:full": "7103 W MADISON ST", "addr:postcode": "60714", "addr:state": "IL", "amenity": "post_box", "brand": "United States Postal Service", "brand:wikidata": "Q668687", "collection_times": "Mo-Sa 10:00", "name": "USPS COLLECTION BOX - BLUE BOX", "nsi_id": "unitedstatespostalservice-a77078", "operator": "United States Postal Service", "operator:short": "USPS", "operator:type": "public", "operator:wikidata": "Q668687", "ref": "6071400118"}, "type": "Feature"}
{"dataset_attributes": {"@spider": "usps_collection_boxes"}, "geometry": {"coordinates": [-87.8015819, 42.02994], "type": "Point"}, "id": "LMhZyBTC3nC0aZr5uQSR6T63B50=", "properties": {"@spider": "usps_collection_boxes", "addr:city": "NILES", "addr:country": "US", "addr:full": "6978 W CLEVELAND ST", "addr:postcode": "60714", "addr:state": "IL", "amenity": "post_box", "brand": "United States Postal Service", "brand:wikidata": "Q668687", "collection_times": "Mo-Sa 10:00", "name": "USPS COLLECTION BOX - BLUE BOX", "nsi_id": "unitedstatespostalservice-a77078", "operator": "United States Postal Service", "operator:short": "USPS", "operator:type": "public", "operator:wikidata": "Q668687", "ref": "6071400119"}, "type": "Feature"}
{"dataset_attributes": {"@spider": "usps_collection_boxes"}, "geometry": {"coordinates": [-87.800074397, 42.027264569], "type": "Point"}, "id": "hGXCceIPy83NyzO2bXHQ6yRKrJg=", "properties": {"@spider": "usps_collection_boxes", "addr:city": "NILES", "addr:country": "US", "addr:full": "6977 W OAKTON", "addr:postcode": "60714", "addr:state": "IL", "amenity": "post_box", "brand": "United States Postal Service", "brand:wikidata": "Q668687", "collection_times": "Mo-Sa 17:00", "name": "USPS COLLECTION BOX - PO LOBBY", "note": "ON 12/24 AND 12/31, THIS BOX MAY BE COLLECTED AS EARLY AS 12 NOON.", "nsi_id": "unitedstatespostalservice-a77078", "operator": "United States Postal Service", "operator:short": "USPS", "operator:type": "public", "operator:wikidata": "Q668687", "ref": "6071400138"}, "type": "Feature"}
