{"geometry": {"coordinates": [-87.7007986, 41.683699], "type": "Point"}, "id": "2j1BeQBhRogwC7h9QoMUtOoUp-k=", "properties": {"@spider": "usps_collection_boxes", "addr:city": "CHICAGO", "addr:country": "US", "addr:full": "11520 S KEDZIE SW", "addr:postcode": "60803", "addr:state": "IL", "brand": "USPS", "collection_times": "Mo-Sa 12:00", "name": "USPS COLLECTION BOX - BLUE BOX", "ref": "6080300001"}, "type": "Feature"}
{"geometry": {"coordinates": [-87.6974492, 41.680073], "type": "Point"}, "id": "CPaChD0i3YB-jsy1QvT4-2vSvCc=", "properties": {"@spider": "usps_collection_boxes", "addr:city": "CHICAGO", "addr:country": "US", "addr:full": "11720 S MEADOW LANE DR NW", "addr:postcode": "60803", "addr:state": "IL", "brand": "USPS", "collection_times": "Mo-Fr 12:00; Sa 10:00", "name": "USPS COLLECTION BOX - BLUE BOX", "ref": "6080300002"}, "type": "Feature"}
{"geometry": {"coordinates": [-87.7367205, 41.683027], "type": "Point"}, "id": "xFgLjAwz55eKcIxoR9YNiAc19hg=", "properties": {"@spider": "usps_collection_boxes", "addr:city": "CHICAGO", "addr:country": "US", "addr:full": "4735 W 115TH PL", "addr:postcode": "60803", "addr:state": "IL", "brand": "USPS", "collection_times": "Mo-Sa 12:00", "name": "USPS COLLECTION BOX - BLUE BOX", "ref": "6080300005"}, "type": "Feature"}
{"geometry": {"coordinates": [-87.7260759, 41.680164], "type": "Point"}, "id": "QBUxaMJGDUMMYkA4OZgwzMi176k=", "properties": {"@spider": "usps_collection_boxes", "addr:city": "CHICAGO", "addr:country": "US", "addr:full": "4301 W 117TH ST", "addr:postcode": "60803", "addr:state": "IL", "brand": "USPS", "collection_times": "Mo-Sa 12:00", "name": "USPS COLLECTION BOX - BLUE BOX", "ref": "6080300006"}, "type": "Feature"}
{"geometry": {"coordinates": [-87.7135735, 41.676653], "type": "Point"}, "id": "jVBJ06BrXzlNEjbz9excQ0Cl9S0=", "properties": {"@spider": "usps_collection_boxes", "addr:city": "CHICAGO", "addr:country": "US", "addr:full": "11901 S RIDGEWAY AVE", "addr:postcode": "60803", "addr:state": "IL", "brand": "USPS", "collection_times": "Mo-Sa 12:00", "name": "USPS COLLECTION BOX - BLUE BOX", "ref": "6080300009"}, "type": "Feature"}
{"geometry": {"coordinates": [-87.7132639, 41.669219], "type": "Point"}, "id": "juoNPUInhIewrRAB1jk32dOPj_4=", "properties": {"@spider": "usps_collection_boxes", "addr:city": "CHICAGO", "addr:country": "US", "addr:full": "12300 S BENCK DR", "addr:postcode": "60803", "addr:state": "IL", "brand": "USPS", "collection_times": "Mo-Sa 12:00", "name": "USPS COLLECTION BOX - BLUE BOX", "ref": "6080300010"}, "type": "Feature"}
{"geometry": {"coordinates": [-87.7066549, 41.667835], "type": "Point"}, "id": "aQEIg7MQGN9pyqsef96bmjby4P0=", "properties": {"@spider": "usps_collection_boxes", "addr:city": "CHICAGO", "addr:country": "US", "addr:full": "3433 W 124TH ST", "addr:postcode": "60803", "addr:state": "IL", "brand": "USPS", "collection_times": "Mo-Fr 12:00; Sa 10:00", "name": "USPS COLLECTION BOX - BLUE BOX", "ref": "6080300011"}, "type": "Feature"}
{"geometry": {"coordinates": [-87.7220957, 41.663568], "type": "Point"}, "id": "F1R9Tnful7haI3u1YGPBqjISwYg=", "properties": {"@spider": "usps_collection_boxes", "addr:city": "CHICAGO", "addr:country": "US", "addr:full": "4101 W 126TH ST", "addr:postcode": "60803", "addr:state": "IL", "brand": "USPS", "collection_times": "Mo-Fr 12:00; Sa 10:00", "name": "USPS COLLECTION BOX - BLUE BOX", "ref": "6080300013"}, "type": "Feature"}
{"geometry": {"coordinates": [-87.7246977, 41.66213], "type": "Point"}, "id": "sT5o_gMXQc6QcKLgic_Kyy_lpnk=", "properties": {"@spider": "usps_collection_boxes", "addr:city": "CHICAGO", "addr:country": "US", "addr:full": "12649 S KEELER AVE", "addr:postcode": "60803", "addr:state": "IL", "brand": "USPS", "collection_times": "Mo-Sa 12:00", "name": "USPS COLLECTION BOX - BLUE BOX", "ref": "6080300015"}, "type": "Feature"}
{"geometry": {"coordinates": [-87.7256373, 41.683756], "type": "Point"}, "id": "xNr_ybCG78zVbM7chrv1_d6accg=", "properties": {"@spider": "usps_collection_boxes", "addr:city": "CHICAGO", "addr:country": "US", "addr:full": "4209 W 115TH ST", "addr:postcode": "60803", "addr:state": "IL", "brand": "USPS", "collection_times": "Mo-Fr 12:00; Sa 10:00", "name": "USPS COLLECTION BOX - BLUE BOX", "ref": "6080300020"}, "type": "Feature"}
{"geometry": {"coordinates": [-87.7251656, 41.669009], "type": "Point"}, "id": "_5FcMwbaBq0YhF7wOgZ_w-xFm9w=", "properties": {"@spider": "usps_collection_boxes", "addr:city": "CHICAGO", "addr:country": "US", "addr:full": "12300 S KEELER AVE", "addr:postcode": "60803", "addr:state": "IL", "brand": "USPS", "collection_times": "Mo-Sa 12:00", "name": "USPS COLLECTION BOX - BLUE BOX", "ref": "6080300021"}, "type": "Feature"}
{"geometry": {"coordinates": [-87.7194494, 41.677831], "type": "Point"}, "id": "gqTXPEgcIvNX4oQ2ScyfLQ3eEV0=", "properties": {"@spider": "usps_collection_boxes", "addr:city": "CHICAGO", "addr:country": "US", "addr:full": "11825 S PULASKI RD", "addr:postcode": "60803", "addr:state": "IL", "brand": "USPS", "collection_times": "Mo-Sa 12:00", "name": "USPS COLLECTION BOX - BLUE BOX", "ref": "6080300026"}, "type": "Feature"}
{"geometry": {"coordinates": [-87.7143179, 41.662421], "type": "Point"}, "id": "_PbhO-hw3N8mU2UYzXl9AGWjAYc=", "properties": {"@spider": "usps_collection_boxes", "addr:city": "CHICAGO", "addr:country": "US", "addr:full": "3800 W 127TH ST", "addr:postcode": "60803", "addr:state": "IL", "brand": "USPS", "collection_times": "Mo-Fr 12:00; Sa 10:00", "name": "USPS COLLECTION BOX - BLUE BOX", "ref": "6080300028"}, "type": "Feature"}
{"geometry": {"coordinates": [-87.7215336, 41.684084], "type": "Point"}, "id": "jY3KFSV-UDkOpKZCAmH0yLHxF1A=", "properties": {"@spider": "usps_collection_boxes", "addr:city": "CHICAGO", "addr:country": "US", "addr:full": "4050 W 115TH ST", "addr:postcode": "60803", "addr:state": "IL", "brand": "USPS", "collection_times": "Mo-Fr 12:00; Sa 10:00", "name": "USPS COLLECTION BOX - BLUE BOX", "ref": "6080300036"}, "type": "Feature"}
{"geometry": {"coordinates": [-87.7182045, 41.673766], "type": "Point"}, "id": "_Rh9etrUVKwozydc-UZ9yQZ6jcs=", "properties": {"@spider": "usps_collection_boxes", "addr:city": "CHICAGO", "addr:country": "US", "addr:full": "12001 S PULASKI RD", "addr:postcode": "60803", "addr:state": "IL", "brand": "USPS", "collection_times": "Mo-Sa 12:00", "name": "USPS COLLECTION BOX - BLUE BOX", "ref": "6080300038"}, "type": "Feature"}
{"geometry": {"coordinates": [-87.6965624, 41.684436], "type": "Point"}, "id": "ATRFOw9P9yzOtIbw5gy64JtIkFs=", "properties": {"@spider": "usps_collection_boxes", "addr:city": "CHICAGO", "addr:country": "US", "addr:full": "11468 S WHIPPLE ST", "addr:postcode": "60803", "addr:state": "IL", "brand": "USPS", "collection_times": "Mo-Fr 12:00; Sa 10:00", "name": "USPS COLLECTION BOX - BLUE BOX", "ref": "6080300039"}, "type": "Feature"}
{"geometry": {"coordinates": [-87.704782175, 41.691419913], "type": "Point"}, "id": "EqhXQENx0YZaGd3uaY9XkvCeftI=", "properties": {"@spider": "usps_collection_boxes", "addr:city": "CHICAGO", "addr:country": "US", "addr:full": "3349 W 111TH ST", "addr:postcode": "60803", "addr:state": "IL", "brand": "USPS", "collection_times": "Mo-Fr 17:00; Sa 12:45", "name": "USPS COLLECTION BOX - PO LOBBY", "note": "ON 12/24 AND 12/31, THIS BOX MAY BE COLLECTED AS EARLY AS 12 NOON.", "ref": "6080300044"}, "type": "Feature"}
{"geometry": {"coordinates": [-87.7016933, 41.71178], "type": "Point"}, "id": "dQzJNfquWb5mGg2xzMkz5Buqgj8=", "properties": {"@spider": "usps_collection_boxes", "addr:city": "CHICAGO", "addr:country": "US", "addr:full": "9950 S KEDZIE AVE", "addr:postcode": "60805", "addr:state": "IL", "brand": "USPS", "collection_times": "Mo-Sa 12:00", "name": "USPS COLLECTION BOX - BLUE BOX", "ref": "6080500000"}, "type": "Feature"}
{"geometry": {"coordinates": [-87.7016072, 41.708645], "type": "Point"}, "id": "ndBLgbkMAFIT4CRKw7NdqLOHBDw=", "properties": {"@spider": "usps_collection_boxes", "addr:city": "CHICAGO", "addr:country": "US", "addr:full": "10124 S KEDZIE AVE", "addr:postcode": "60805", "addr:state": "IL", "brand": "USPS", "collection_times": "Mo-Sa 12:00", "name": "USPS COLLECTION BOX - BLUE BOX", "ref": "6080500002"}, "type": "Feature"}
{"geometry": {"coordinates": [-87.7083117223, 41.7170409434], "type": "Point"}, "id": "g78rCjjMKwQpryti0Jg7d5sR1Pk=", "properties": {"@spider": "usps_collection_boxes", "addr:city": "CHICAGO", "addr:country": "US", "addr:full": "3450 W 97TH ST", "addr:postcode": "60805", "addr:state": "IL", "brand": "USPS", "collection_times": "Mo-Sa 12:00", "name": "USPS COLLECTION BOX - BLUE BOX", "ref": "6080500006"}, "type": "Feature"}
{"geometry": {"coordinates": [-87.6925504, 41.735482], "type": "Point"}, "id": "IyFgf1qVCjOcWN3O1Gme3YcDIkg=", "properties": {"@spider": "usps_collection_boxes", "addr:city": "CHICAGO", "addr:country": "US", "addr:full": "2800 W 87TH ST", "addr:postcode": "60805", "addr:state": "IL", "brand": "USPS", "collection_times": "Mo-Sa 12:00", "name": "USPS COLLECTION BOX - BLUE BOX", "ref": "6080500007"}, "type": "Feature"}
{"geometry": {"coordinates": [-87.6959861, 41.728013], "type": "Point"}, "id": "djrmu9mOQOHbtvDadMoNeQGPs9E=", "properties": {"@spider": "usps_collection_boxes", "addr:city": "CHICAGO", "addr:country": "US", "addr:full": "9101 S RICHMOND AVE", "addr:postcode": "60805", "addr:state": "IL", "brand": "USPS", "collection_times": "Mo-Sa 12:00", "name": "USPS COLLECTION BOX - BLUE BOX", "ref": "6080500012"}, "type": "Feature"}
{"geometry": {"coordinates": [-87.7189059, 41.722254], "type": "Point"}, "id": "Hnw8eaUZ5OVLVWPDk_sKAmA1LXI=", "properties": {"@spider": "usps_collection_boxes", "addr:city": "CHICAGO", "addr:country": "US", "addr:full": "9401 S SPRINGFIELD AVE", "addr:postcode": "60805", "addr:state": "IL", "brand": "USPS", "collection_times": "Mo-Sa 12:00", "name": "USPS COLLECTION BOX - BLUE BOX", "ref": "6080500022"}, "type": "Feature"}
{"geometry": {"coordinates": [-87.7022071, 41.720391], "type": "Point"}, "id": "Nk83FYFiUi7gjTWzUKx2Vxsul-s=", "properties": {"@spider": "usps_collection_boxes", "addr:city": "CHICAGO", "addr:country": "US", "addr:full": "3201 W 95TH ST", "addr:postcode": "60805", "addr:state": "IL", "brand": "USPS", "collection_times": "Mo-Sa 12:00", "name": "USPS COLLECTION BOX - BLUE BOX", "ref": "6080500023"}, "type": "Feature"}
{"geometry": {"coordinates": [-87.7177734, 41.720347], "type": "Point"}, "id": "1XhgGrkgaCtk_6pYbD4WL1Ti8SA=", "properties": {"@spider": "usps_collection_boxes", "addr:city": "CHICAGO", "addr:country": "US", "addr:full": "9500 S AVERS AVE", "addr:postcode": "60805", "addr:state": "IL", "brand": "USPS", "collection_times": "Mo-Sa 12:00", "name": "USPS COLLECTION BOX - BLUE BOX", "ref": "6080500024"}, "type": "Feature"}
{"geometry": {"coordinates": [-87.7115235, 41.72077], "type": "Point"}, "id": "qQaPgjB8XMMMAi5Xyod2BgloS_A=", "properties": {"@spider": "usps_collection_boxes", "addr:city": "CHICAGO", "addr:country": "US", "addr:full": "3580 W 95TH ST", "addr:postcode": "60805", "addr:state": "IL", "brand": "USPS", "collection_times": "Mo-Sa 12:00", "name": "USPS COLLECTION BOX - BLUE BOX", "ref": "6080500025"}, "type": "Feature"}
{"geometry": {"coordinates": [-87.6959381, 41.720906], "type": "Point"}, "id": "K1yXeDzVcDFfz89bZFHl0TFndBs=", "properties": {"@spider": "usps_collection_boxes", "addr:city": "CHICAGO", "addr:country": "US", "addr:full": "2940 W 95TH ST", "addr:postcode": "60805", "addr:state": "IL", "brand": "USPS", "collection_times": "Mo-Sa 12:00", "name": "USPS COLLECTION BOX - BLUE BOX", "ref": "6080500037"}, "type": "Feature"}
{"geometry": {"coordinates": [-87.6919147, 41.716261], "type": "Point"}, "id": "KywHMXFRS16dGgw6G5W-o7Bj7qU=", "properties": {"@spider": "usps_collection_boxes", "addr:city": "CHICAGO", "addr:country": "US", "addr:full": "9738 S CALIFORNIA AVE", "addr:postcode": "60805", "addr:state": "IL", "brand": "USPS", "collection_times": "Mo-Sa 12:00", "name": "USPS COLLECTION BOX - BLUE BOX", "ref": "6080500042"}, "type": "Feature"}
{"geometry": {"coordinates": [-87.7063718, 41.713301], "type": "Point"}, "id": "frLo5FwySSJ2wLkI5tYMxT_5DN0=", "properties": {"@spider": "usps_collection_boxes", "addr:city": "CHICAGO", "addr:country": "US", "addr:full": "9901 S HOMAN AVE", "addr:postcode": "60805", "addr:state": "IL", "brand": "USPS", "collection_times": "Mo-Sa 12:00", "name": "USPS COLLECTION BOX - BLUE BOX", "ref": "6080500045"}, "type": "Feature"}
{"geometry": {"coordinates": [-87.7019284724, 41.7217052201], "type": "Point"}, "id": "_u9ommVV-00Q00nSEjej5E2EmEs=", "properties": {"@spider": "usps_collection_boxes", "addr:city": "CHICAGO", "addr:country": "US", "addr:full": "9420 S KEDZIE AVE", "addr:postcode": "60805", "addr:state": "IL", "brand": "USPS", "collection_times": "Mo-Sa 12:00", "name": "USPS COLLECTION BOX - BLUE BOX", "ref": "6080500052"}, "type": "Feature"}
{"geometry": {"coordinates": [-87.7018780395, 41.723171605], "type": "Point"}, "id": "glQBw4TkAYPZIk_4WxBhaX9kjWc=", "properties": {"@spider": "usps_collection_boxes", "addr:city": "CHICAGO", "addr:country": "US", "addr:full": "9359 S KEDZIE AVE", "addr:postcode": "60805", "addr:state": "IL", "brand": "USPS", "collection_times": "Mo-Fr 18:00; Sa 15:00", "name": "USPS COLLECTION BOX - APC", "note": "ON 12/24 AND 12/31, THIS BOX MAY BE COLLECTED AS EARLY AS 12 NOON.", "ref": "6080500062"}, "type": "Feature"}
{"geometry": {"coordinates": [-87.7065557, 41.720554], "type": "Point"}, "id": "GCVqoaSCgoCJDmfmWU2jkYhoKCQ=", "properties": {"@spider": "usps_collection_boxes", "addr:city": "CHICAGO", "addr:country": "US", "addr:full": "3347 W 95TH ST", "addr:postcode": "60805", "addr:state": "IL", "brand": "USPS", "collection_times": "Mo-Sa 12:00", "name": "USPS COLLECTION BOX - BLUE BOX", "ref": "6080500066"}, "type": "Feature"}
{"geometry": {"coordinates": [-87.710733, 41.720401], "type": "Point"}, "id": "jGWCTwFbu9aVr8lYE95H7TX4CvM=", "properties": {"@spider": "usps_collection_boxes", "addr:city": "CHICAGO", "addr:country": "US", "addr:full": "3545 W 95TH ST", "addr:postcode": "60805", "addr:state": "IL", "brand": "USPS", "collection_times": "Mo-Sa 12:00", "name": "USPS COLLECTION BOX - BLUE BOX", "ref": "6080500067"}, "type": "Feature"}
{"geometry": {"coordinates": [-87.7112112, 41.71321], "type": "Point"}, "id": "6gT95mvuGqkRReYx48Z_w37_DsE=", "properties": {"@spider": "usps_collection_boxes", "addr:city": "CHICAGO", "addr:country": "US", "addr:full": "9901 S CENTRAL PARK AVE", "addr:postcode": "60805", "addr:state": "IL", "brand": "USPS", "collection_times": "Mo-Sa 12:00", "name": "USPS COLLECTION BOX - BLUE BOX", "ref": "6080500068"}, "type": "Feature"}
{"geometry": {"coordinates": [-87.7043511, 41.720872], "type": "Point"}, "id": "E1T3QkPrmrxYEekLhMppf87VK-8=", "properties": {"@spider": "usps_collection_boxes", "addr:city": "CHICAGO", "addr:country": "US", "addr:full": "3300 W 95TH ST", "addr:postcode": "60805", "addr:state": "IL", "brand": "USPS", "collection_times": "Mo-Sa 12:00", "name": "USPS COLLECTION BOX - BLUE BOX", "ref": "6080500069"}, "type": "Feature"}
{"geometry": {"coordinates": [-87.70187804, 41.723171605], "type": "Point"}, "id": "n0DoHxemdsOyCODnmkzu-zlNBRo=", "properties": {"@spider": "usps_collection_boxes", "addr:city": "CHICAGO", "addr:country": "US", "addr:full": "9359 S KEDZIE AVE", "addr:postcode": "60805", "addr:state": "IL", "brand": "USPS", "collection_times": "Mo-Fr 17:45; Sa 14:00", "name": "USPS COLLECTION BOX - PO LOBBY", "note": "ON 12/24 AND 12/31, THIS BOX MAY BE COLLECTED AS EARLY AS 12 NOON.", "ref": "6080500083"}, "type": "Feature"}
{"geometry": {"coordinates": [-87.61655617, 41.657010256], "type": "Point"}, "id": "dGrqNc149UUIpH9phBGJpXh9krQ=", "properties": {"@spider": "usps_collection_boxes", "addr:city": "CALUMET PARK", "addr:country": "US", "addr:full": "13137 S DANIEL DR", "addr:postcode": "60827", "addr:state": "IL", "brand": "USPS", "collection_times": "Mo-Fr 12:00; Sa 10:00", "name": "USPS COLLECTION BOX - BLUE BOX", "ref": "6082700000"}, "type": "Feature"}
{"geometry": {"coordinates": [-87.5973666, 41.65661], "type": "Point"}, "id": "Fe_HP0TanrGVAIRp5Gzu86zvsu0=", "properties": {"@spider": "usps_collection_boxes", "addr:city": "CALUMET PARK", "addr:country": "US", "addr:full": "13122 S ELLIS AVE", "addr:postcode": "60827", "addr:state": "IL", "brand": "USPS", "collection_times": "Mo-Sa 12:00", "name": "USPS COLLECTION BOX - BLUE BOX", "ref": "6082700002"}, "type": "Feature"}
{"geometry": {"coordinates": [-87.6048461, 41.654328], "type": "Point"}, "id": "B6irAYsaj6gHcvfo7fqmM_n87Tw=", "properties": {"@spider": "usps_collection_boxes", "addr:city": "CALUMET PARK", "addr:country": "US", "addr:full": "700 E 133RD ST", "addr:postcode": "60827", "addr:state": "IL", "brand": "USPS", "collection_times": "Mo-Fr 12:00; Sa 10:00", "name": "USPS COLLECTION BOX - BLUE BOX", "ref": "6082700003"}, "type": "Feature"}
{"geometry": {"coordinates": [-87.6173072957, 41.6535627043], "type": "Point"}, "id": "XGsxJSkeaXv8lmu6M3nlZbfrPEA=", "properties": {"@spider": "usps_collection_boxes", "addr:city": "CALUMET PARK", "addr:country": "US", "addr:full": "13300 S INDIANA AVE", "addr:postcode": "60827", "addr:state": "IL", "brand": "USPS", "collection_times": "Mo-Fr 12:00; Sa 10:00", "name": "USPS COLLECTION BOX - BLUE BOX", "ref": "6082700004"}, "type": "Feature"}
{"geometry": {"coordinates": [-87.617512964, 41.646414013], "type": "Point"}, "id": "tz35uSTEiu_3ZHObvdIK_xVOeoA=", "properties": {"@spider": "usps_collection_boxes", "addr:city": "CALUMET PARK", "addr:country": "US", "addr:full": "13700 S INDIANA AVE", "addr:postcode": "60827", "addr:state": "IL", "brand": "USPS", "collection_times": "Mo-Fr 17:00; Sa 12:00", "name": "USPS COLLECTION BOX - BLUE BOX", "note": "ON 12/24 AND 12/31, THIS BOX MAY BE COLLECTED AS EARLY AS 12 NOON.", "ref": "6082700005"}, "type": "Feature"}
{"geometry": {"coordinates": [-87.6270359, 41.644631], "type": "Point"}, "id": "mNiobXerwTOGZoMVYVeNeUNVmkA=", "properties": {"@spider": "usps_collection_boxes", "addr:city": "CALUMET PARK", "addr:country": "US", "addr:full": "13800 S WENTWORTH AVE", "addr:postcode": "60827", "addr:state": "IL", "brand": "USPS", "collection_times": "Mo-Fr 17:00; Sa 12:00", "name": "USPS COLLECTION BOX - BLUE BOX", "note": "ON 12/24 AND 12/31, THIS BOX MAY BE COLLECTED AS EARLY AS 12 NOON.", "ref": "6082700008"}, "type": "Feature"}
{"geometry": {"coordinates": [-87.6173771, 41.63341], "type": "Point"}, "id": "PxdMH8ViIHQ7LexMqG_dxJeklVs=", "properties": {"@spider": "usps_collection_boxes", "addr:city": "CALUMET PARK", "addr:country": "US", "addr:full": "14400 S INDIANA AVE", "addr:postcode": "60827", "addr:state": "IL", "brand": "USPS", "collection_times": "Mo-Fr 12:00; Sa 10:00", "name": "USPS COLLECTION BOX - BLUE BOX", "ref": "6082700010"}, "type": "Feature"}
{"geometry": {"coordinates": [-87.6327885, 41.633577], "type": "Point"}, "id": "3gp5CrKwZ38SaXctZbCdUg18uL4=", "properties": {"@spider": "usps_collection_boxes", "addr:city": "CALUMET PARK", "addr:country": "US", "addr:full": "419 W 144TH ST", "addr:postcode": "60827", "addr:state": "IL", "brand": "USPS", "collection_times": "Mo-Sa 12:00", "name": "USPS COLLECTION BOX - BLUE BOX", "ref": "6082700012"}, "type": "Feature"}
{"geometry": {"coordinates": [-87.636039987, 41.633149987], "type": "Point"}, "id": "moyJnj58BU633wAzi0rLXM33E1g=", "properties": {"@spider": "usps_collection_boxes", "addr:city": "CALUMET PARK", "addr:country": "US", "addr:full": "560 W 144TH ST", "addr:postcode": "60827", "addr:state": "IL", "brand": "USPS", "collection_times": "Mo-Sa 12:00", "name": "USPS COLLECTION BOX - BLUE BOX", "ref": "6082700013"}, "type": "Feature"}
{"geometry": {"coordinates": [-87.627836, 41.633394], "type": "Point"}, "id": "xkdCiLAiXz9R_JKmWoQStonAM1I=", "properties": {"@spider": "usps_collection_boxes", "addr:city": "CALUMET PARK", "addr:country": "US", "addr:full": "208 W 144TH ST", "addr:postcode": "60827", "addr:state": "IL", "brand": "USPS", "collection_times": "Mo-Fr 17:00; Sa 12:00", "name": "USPS COLLECTION BOX - BLUE BOX", "note": "ON 12/24 AND 12/31, THIS BOX MAY BE COLLECTED AS EARLY AS 12 NOON.", "ref": "6082700014"}, "type": "Feature"}
{"geometry": {"coordinates": [-87.6385521, 41.644663], "type": "Point"}, "id": "-SPwNgn4zMAZjeu8nN2OdP_gftY=", "properties": {"@spider": "usps_collection_boxes", "addr:city": "CALUMET PARK", "addr:country": "US", "addr:full": "661 W 138TH ST", "addr:postcode": "60827", "addr:state": "IL", "brand": "USPS", "collection_times": "Mo-Fr 16:45; Sa 16:30", "name": "USPS COLLECTION BOX - BLUE BOX", "note": "ON 12/24 AND 12/31, THIS BOX MAY BE COLLECTED AS EARLY AS 12 NOON.", "ref": "6082700017"}, "type": "Feature"}
{"geometry": {"coordinates": [-87.6107799, 41.655103], "type": "Point"}, "id": "RnfNyNCrGWKC3V06yskcNKlF3Ys=", "properties": {"@spider": "usps_collection_boxes", "addr:city": "CALUMET PARK", "addr:country": "US", "addr:full": "13172 S EBERHART AVE", "addr:postcode": "60827", "addr:state": "IL", "brand": "USPS", "collection_times": "Mo-Fr 12:00; Sa 10:00", "name": "USPS COLLECTION BOX - BLUE BOX", "ref": "6082700018"}, "type": "Feature"}
{"geometry": {"coordinates": [-87.653413, 41.663099], "type": "Point"}, "id": "iP-rRR068YsW7lJFklUQC2Of_G4=", "properties": {"@spider": "usps_collection_boxes", "addr:city": "CALUMET PARK", "addr:country": "US", "addr:full": "1258 W 127TH ST", "addr:postcode": "60827", "addr:state": "IL", "brand": "USPS", "collection_times": "Mo-Fr 17:00; Sa 12:00", "name": "USPS COLLECTION BOX - BLUE BOX", "note": "ON 12/24 AND 12/31, THIS BOX MAY BE COLLECTED AS EARLY AS 12 NOON.", "ref": "6082700022"}, "type": "Feature"}
{"geometry": {"coordinates": [-87.6608879, 41.66667], "type": "Point"}, "id": "pdMNEr4qyMcZUaArJSQdXq55tuc=", "properties": {"@spider": "usps_collection_boxes", "addr:city": "CALUMET PARK", "addr:country": "US", "addr:full": "12457 S ASHLAND AVE", "addr:postcode": "60827", "addr:state": "IL", "brand": "USPS", "collection_times": "Mo-Sa 12:00", "name": "USPS COLLECTION BOX - BLUE BOX", "ref": "6082700024"}, "type": "Feature"}
{"geometry": {"coordinates": [-87.6538463, 41.666634], "type": "Point"}, "id": "V29OyDVub4LXhk2AqNDRVDhT-j8=", "properties": {"@spider": "usps_collection_boxes", "addr:city": "CALUMET PARK", "addr:country": "US", "addr:full": "12500 S THROOP ST", "addr:postcode": "60827", "addr:state": "IL", "brand": "USPS", "collection_times": "Mo-Sa 12:00", "name": "USPS COLLECTION BOX - BLUE BOX", "ref": "6082700025"}, "type": "Feature"}
{"geometry": {"coordinates": [-87.6478241, 41.668686], "type": "Point"}, "id": "YECZ7JdJKQuSENruhu7Jhw75YZA=", "properties": {"@spider": "usps_collection_boxes", "addr:city": "CALUMET PARK", "addr:country": "US", "addr:full": "12358 S CARPENTER ST", "addr:postcode": "60827", "addr:state": "IL", "brand": "USPS", "collection_times": "Mo-Fr 12:00; Sa 10:00", "name": "USPS COLLECTION BOX - BLUE BOX", "ref": "6082700026"}, "type": "Feature"}
{"geometry": {"coordinates": [-87.6527233, 41.670293], "type": "Point"}, "id": "lCInS3Cp_D5-oALLwYQElibscIY=", "properties": {"@spider": "usps_collection_boxes", "addr:city": "CALUMET PARK", "addr:country": "US", "addr:full": "12300 S ELIZABETH ST", "addr:postcode": "60827", "addr:state": "IL", "brand": "USPS", "collection_times": "Mo-Fr 12:00; Sa 10:00", "name": "USPS COLLECTION BOX - BLUE BOX", "ref": "6082700028"}, "type": "Feature"}
{"geometry": {"coordinates": [-87.6582019, 41.658748], "type": "Point"}, "id": "cEh9xqhVInA46ZRhQ0RZNxdM9BE=", "properties": {"@spider": "usps_collection_boxes", "addr:city": "CALUMET PARK", "addr:country": "US", "addr:full": "13001 S ASHLAND AVE", "addr:postcode": "60827", "addr:state": "IL", "brand": "USPS", "collection_times": "Mo-Sa 12:00", "name": "USPS COLLECTION BOX - BLUE BOX", "ref": "6082700029"}, "type": "Feature"}
{"geometry": {"coordinates": [-87.6485606, 41.660531], "type": "Point"}, "id": "inFmLS7rXRQ-F668JoFU_NAVf8s=", "properties": {"@spider": "usps_collection_boxes", "addr:city": "CALUMET PARK", "addr:country": "US", "addr:full": "12847 S ABERDEEN ST", "addr:postcode": "60827", "addr:state": "IL", "brand": "USPS", "collection_times": "Mo-Sa 12:00", "name": "USPS COLLECTION BOX - BLUE BOX", "ref": "6082700030"}, "type": "Feature"}
{"geometry": {"coordinates": [-87.639362032, 41.644621289], "type": "Point"}, "id": "hD5j58qZHjtCZO7ULmW0DqRDn58=", "properties": {"@spider": "usps_collection_boxes", "addr:city": "CALUMET PARK", "addr:country": "US", "addr:full": "661 W 138TH ST", "addr:postcode": "60827", "addr:state": "IL", "brand": "USPS", "collection_times": "Mo-Fr 17:00; Sa 12:45", "name": "USPS COLLECTION BOX - PO LOBBY", "note": "ON 12/24 AND 12/31, THIS BOX MAY BE COLLECTED AS EARLY AS 12 NOON.", "ref": "6082700038"}, "type": "Feature"}
