{"geometry": {"coordinates": [-88.037409484, 40.598523551], "type": "Point"}, "id": "gNe_GIpvtWe4MSxjIlO6byGPS10=", "properties": {"@spider": "usps_collection_boxes", "addr:city": "BUCKLEY", "addr:country": "US", "addr:full": "116 N RAILROAD AVE", "addr:postcode": "60918", "addr:state": "IL", "brand": "USPS", "collection_times": "Mo-Fr 16:30; Sa 10:30", "name": "USPS COLLECTION BOX - BLUE BOX", "note": "ON 12/24 AND 12/31, THIS BOX MAY BE COLLECTED AS EARLY AS 12 NOON.", "ref": "6091800001"}, "type": "Feature"}
{"geometry": {"coordinates": [-88.037409484, 40.598523551], "type": "Point"}, "id": "tm2p-yTFFGvmBS_cebbJnmtYbY0=", "properties": {"@spider": "usps_collection_boxes", "addr:city": "BUCKLEY", "addr:country": "US", "addr:full": "116 N RAILROAD AVE", "addr:postcode": "60918", "addr:state": "IL", "brand": "USPS", "collection_times": "Mo-Fr 16:30; Sa 10:30", "name": "USPS COLLECTION BOX - PO LOBBY", "note": "ON 12/24 AND 12/31, THIS BOX MAY BE COLLECTED AS EARLY AS 12 NOON.", "ref": "6091800002"}, "type": "Feature"}
{"geometry": {"coordinates": [-88.037409484, 40.598523551], "type": "Point"}, "id": "gNr-0jUQ4sehQb7MqVxAAG6U82I=", "properties": {"@spider": "usps_collection_boxes", "addr:city": "BUCKLEY", "addr:country": "US", "addr:full": "116 N RAILROAD AVE", "addr:postcode": "60918", "addr:state": "IL", "brand": "USPS", "collection_times": "Mo-Fr 16:30; Sa 11:30", "name": "USPS COLLECTION BOX - PO LOBBY", "note": "ON 12/24 AND 12/31, THIS BOX MAY BE COLLECTED AS EARLY AS 12 NOON.", "ref": "6091800003"}, "type": "Feature"}
{"geometry": {"coordinates": [-87.893076, 40.563888], "type": "Point"}, "id": "XfPR9LrbEoTDWSSGw9_UugCIFdE=", "properties": {"@spider": "usps_collection_boxes", "addr:city": "CISSNA PARK", "addr:country": "US", "addr:full": "129 W GARFIELD AVE", "addr:postcode": "60924", "addr:state": "IL", "brand": "USPS", "collection_times": "Mo-Fr 16:15; Sa 11:00", "name": "USPS COLLECTION BOX - PO LOBBY", "note": "ON 12/24 AND 12/31, THIS BOX MAY BE COLLECTED AS EARLY AS 12 NOON.", "ref": "6092400002"}, "type": "Feature"}
{"geometry": {"coordinates": [-87.893021, 40.563866], "type": "Point"}, "id": "n5iso4yxlODfgtz8eSDaH6dJpTg=", "properties": {"@spider": "usps_collection_boxes", "addr:city": "CISSNA PARK", "addr:country": "US", "addr:full": "129 W GARFIELD AVE", "addr:postcode": "60924", "addr:state": "IL", "brand": "USPS", "collection_times": "Mo-Fr 16:15; Sa 11:00", "name": "USPS COLLECTION BOX - BLUE BOX", "note": "ON 12/24 AND 12/31, THIS BOX MAY BE COLLECTED AS EARLY AS 12 NOON.", "ref": "6092400003"}, "type": "Feature"}
{"geometry": {"coordinates": [-87.892191492, 40.564008122], "type": "Point"}, "id": "fEBp-Vac7qV_TMnmwz-LfyjHJjY=", "properties": {"@spider": "usps_collection_boxes", "addr:city": "CISSNA PARK", "addr:country": "US", "addr:full": "129 E GARFIELD AVE", "addr:postcode": "60924", "addr:state": "IL", "brand": "USPS", "collection_times": "Mo-Fr 16:30; Sa 11:00", "name": "USPS COLLECTION BOX - PO LOBBY", "note": "ON 12/24 AND 12/31, THIS BOX MAY BE COLLECTED AS EARLY AS 12 NOON.", "ref": "6092400004"}, "type": "Feature"}
{"geometry": {"coordinates": [-87.822481463, 40.567436518], "type": "Point"}, "id": "GX3-baCR8RJ_sEAMurGI7nyq93I=", "properties": {"@spider": "usps_collection_boxes", "addr:city": "CLAYTONVILLE", "addr:country": "US", "addr:full": "107 MANNING ST", "addr:postcode": "60926", "addr:state": "IL", "brand": "USPS", "collection_times": "Mo-Fr 11:30; Sa 10:00", "name": "USPS COLLECTION BOX - BLUE BOX", "ref": "6092600001"}, "type": "Feature"}
{"geometry": {"coordinates": [-87.822481463, 40.567436518], "type": "Point"}, "id": "I_Xy5rojo9S9Mh9KChQW_Pta1hg=", "properties": {"@spider": "usps_collection_boxes", "addr:city": "CLAYTONVILLE", "addr:country": "US", "addr:full": "107 MANNING ST", "addr:postcode": "60926", "addr:state": "IL", "brand": "USPS", "collection_times": "Mo-Fr 11:30; Sa 10:15", "name": "USPS COLLECTION BOX - PO LOBBY", "ref": "6092600002"}, "type": "Feature"}
{"geometry": {"coordinates": [-87.822481463, 40.567436518], "type": "Point"}, "id": "nqx6NrPLiXKOW3AFMbER1Xosmq4=", "properties": {"@spider": "usps_collection_boxes", "addr:city": "CLAYTONVILLE", "addr:country": "US", "addr:full": "107 MANNING ST", "addr:postcode": "60926", "addr:state": "IL", "brand": "USPS", "collection_times": "Mo-Fr 11:45; Sa 10:15", "name": "USPS COLLECTION BOX - PO LOBBY", "ref": "6092600003"}, "type": "Feature"}
{"geometry": {"coordinates": [-87.800282384, 40.465278215], "type": "Point"}, "id": "krz81tv_ksvzPve8LFXYxYQV3KI=", "properties": {"@spider": "usps_collection_boxes", "addr:city": "EAST LYNN", "addr:country": "US", "addr:full": "41495 MAIN ST", "addr:postcode": "60932", "addr:state": "IL", "brand": "USPS", "collection_times": "Mo-Sa 09:30", "name": "USPS COLLECTION BOX - BLUE BOX", "ref": "6093200001"}, "type": "Feature"}
{"geometry": {"coordinates": [-87.800282384, 40.465278215], "type": "Point"}, "id": "zDo0O22I0WShit0btlxUeVzNEXI=", "properties": {"@spider": "usps_collection_boxes", "addr:city": "EAST LYNN", "addr:country": "US", "addr:full": "41495 MAIN ST", "addr:postcode": "60932", "addr:state": "IL", "brand": "USPS", "collection_times": "Mo-Sa 09:30", "name": "USPS COLLECTION BOX - PO LOBBY", "ref": "6093200002"}, "type": "Feature"}
{"geometry": {"coordinates": [-87.800282384, 40.465278215], "type": "Point"}, "id": "z23Y7wXy464L18TWu591WDS2C0E=", "properties": {"@spider": "usps_collection_boxes", "addr:city": "EAST LYNN", "addr:country": "US", "addr:full": "41495 MAIN ST", "addr:postcode": "60932", "addr:state": "IL", "brand": "USPS", "collection_times": "Mo-Fr 09:30; Sa 09:45", "name": "USPS COLLECTION BOX - PO LOBBY", "ref": "6093200003"}, "type": "Feature"}
{"geometry": {"coordinates": [-88.272059576, 40.463576581], "type": "Point"}, "id": "O-7r8e1ulZB9N0WlBI_Dc24Jm3Q=", "properties": {"@spider": "usps_collection_boxes", "addr:city": "ELLIOTT", "addr:country": "US", "addr:full": "115 S MAIN ST", "addr:postcode": "60933", "addr:state": "IL", "brand": "USPS", "collection_times": "Mo-Fr 17:00; Sa 12:15", "name": "USPS COLLECTION BOX - BLUE BOX", "note": "ON 12/24 AND 12/31, THIS BOX MAY BE COLLECTED AS EARLY AS 12 NOON.", "ref": "6093300001"}, "type": "Feature"}
{"geometry": {"coordinates": [-88.272059576, 40.463576581], "type": "Point"}, "id": "Q-V6BpTnLcEB4MDY1HZLUjmfXas=", "properties": {"@spider": "usps_collection_boxes", "addr:city": "ELLIOTT", "addr:country": "US", "addr:full": "115 S MAIN ST", "addr:postcode": "60933", "addr:state": "IL", "brand": "USPS", "collection_times": "Mo-Fr 17:00; Sa 12:15", "name": "USPS COLLECTION BOX - PO LOBBY", "note": "ON 12/24 AND 12/31, THIS BOX MAY BE COLLECTED AS EARLY AS 12 NOON.", "ref": "6093300002"}, "type": "Feature"}
{"geometry": {"coordinates": [-88.272059576, 40.463576581], "type": "Point"}, "id": "uJhF4t093Od3W_EXXeTBiiInO14=", "properties": {"@spider": "usps_collection_boxes", "addr:city": "ELLIOTT", "addr:country": "US", "addr:full": "115 S MAIN ST", "addr:postcode": "60933", "addr:state": "IL", "brand": "USPS", "collection_times": "Mo-Fr 17:00; Sa 12:15", "name": "USPS COLLECTION BOX - PO LOBBY", "note": "ON 12/24 AND 12/31, THIS BOX MAY BE COLLECTED AS EARLY AS 12 NOON.", "ref": "6093300003"}, "type": "Feature"}
{"geometry": {"coordinates": [-88.374172668, 40.46615754], "type": "Point"}, "id": "f1xQnzShfW1Jet2f0p94VZNw3z8=", "properties": {"@spider": "usps_collection_boxes", "addr:city": "GIBSON CITY", "addr:country": "US", "addr:full": "127 E 9TH ST", "addr:postcode": "60936", "addr:state": "IL", "brand": "USPS", "collection_times": "Mo-Fr 17:00; Sa 13:00", "name": "USPS COLLECTION BOX - BLUE BOX", "note": "ON 12/24 AND 12/31, THIS BOX MAY BE COLLECTED AS EARLY AS 12 NOON.", "ref": "6093600002"}, "type": "Feature"}
{"geometry": {"coordinates": [-88.3701884, 40.456768], "type": "Point"}, "id": "n4BKrI0NvDKpwnhOhCFQszZ8Wes=", "properties": {"@spider": "usps_collection_boxes", "addr:city": "GIBSON CITY", "addr:country": "US", "addr:full": "415 E 1ST ST", "addr:postcode": "60936", "addr:state": "IL", "brand": "USPS", "collection_times": "Mo-Sa 13:30", "name": "USPS COLLECTION BOX - BLUE BOX", "note": "ON 12/24 AND 12/31, THIS BOX MAY BE COLLECTED AS EARLY AS 12 NOON.", "ref": "6093600003"}, "type": "Feature"}
{"geometry": {"coordinates": [-88.374172668, 40.46615754], "type": "Point"}, "id": "bH6WEGwWJo3tJpdGmlG7tfY1yxo=", "properties": {"@spider": "usps_collection_boxes", "addr:city": "GIBSON CITY", "addr:country": "US", "addr:full": "127 E 9TH ST", "addr:postcode": "60936", "addr:state": "IL", "brand": "USPS", "collection_times": "Mo-Fr 17:00; Sa 13:00", "name": "USPS COLLECTION BOX - PO LOBBY", "note": "ON 12/24 AND 12/31, THIS BOX MAY BE COLLECTED AS EARLY AS 12 NOON.", "ref": "6093600004"}, "type": "Feature"}
{"geometry": {"coordinates": [-88.374172668, 40.46615754], "type": "Point"}, "id": "R87X8jbhq1EF8L9DVQoeVEi7fIc=", "properties": {"@spider": "usps_collection_boxes", "addr:city": "GIBSON CITY", "addr:country": "US", "addr:full": "127 E 9TH ST", "addr:postcode": "60936", "addr:state": "IL", "brand": "USPS", "collection_times": "Mo-Fr 17:00; Sa 12:00", "name": "USPS COLLECTION BOX - PO LOBBY", "note": "ON 12/24 AND 12/31, THIS BOX MAY BE COLLECTED AS EARLY AS 12 NOON.", "ref": "6093600005"}, "type": "Feature"}
{"geometry": {"coordinates": [-87.784606564, 40.567593851], "type": "Point"}, "id": "PQB7MFozC105w1DiRJwqOulhmpM=", "properties": {"@spider": "usps_collection_boxes", "addr:city": "GOODWINE", "addr:country": "US", "addr:full": "553 N 1800 EAST RD", "addr:postcode": "60939", "addr:state": "IL", "brand": "USPS", "collection_times": "Mo-Sa 09:30", "name": "USPS COLLECTION BOX - BLUE BOX", "ref": "6093900001"}, "type": "Feature"}
{"geometry": {"coordinates": [-87.784606564, 40.567593851], "type": "Point"}, "id": "6hRhW0uQ_XJf9EHy71y6aihhVvI=", "properties": {"@spider": "usps_collection_boxes", "addr:city": "GOODWINE", "addr:country": "US", "addr:full": "553 N 1800 EAST RD", "addr:postcode": "60939", "addr:state": "IL", "brand": "USPS", "collection_times": "Mo-Sa 09:30", "name": "USPS COLLECTION BOX - PO LOBBY", "ref": "6093900002"}, "type": "Feature"}
{"geometry": {"coordinates": [-87.784606564, 40.567593851], "type": "Point"}, "id": "coidif0TWKG-Gi5y-qx9Fbfwni4=", "properties": {"@spider": "usps_collection_boxes", "addr:city": "GOODWINE", "addr:country": "US", "addr:full": "553 N 1800 EAST RD", "addr:postcode": "60939", "addr:state": "IL", "brand": "USPS", "collection_times": "Mo-Sa 09:30", "name": "USPS COLLECTION BOX - PO LOBBY", "ref": "6093900003"}, "type": "Feature"}
{"geometry": {"coordinates": [-87.668342238, 40.465962652], "type": "Point"}, "id": "j-bpKhVaYVwxGzhCcTKblWqDiLY=", "properties": {"@spider": "usps_collection_boxes", "addr:city": "HOOPESTON", "addr:country": "US", "addr:full": "314 S MARKET ST", "addr:postcode": "60942", "addr:state": "IL", "brand": "USPS", "collection_times": "Mo-Fr 17:00; Sa 15:30", "name": "USPS COLLECTION BOX - BLUE BOX", "note": "ON 12/24 AND 12/31, THIS BOX MAY BE COLLECTED AS EARLY AS 12 NOON.", "ref": "6094200001"}, "type": "Feature"}
{"geometry": {"coordinates": [-87.668342238, 40.465962652], "type": "Point"}, "id": "lg3Op3fDiyiX9Ox7Yh7h_yvh5VI=", "properties": {"@spider": "usps_collection_boxes", "addr:city": "HOOPESTON", "addr:country": "US", "addr:full": "314 S MARKET ST", "addr:postcode": "60942", "addr:state": "IL", "brand": "USPS", "collection_times": "Mo-Fr 17:00; Sa 15:30", "name": "USPS COLLECTION BOX - BLUE BOX", "note": "ON 12/24 AND 12/31, THIS BOX MAY BE COLLECTED AS EARLY AS 12 NOON.", "ref": "6094200002"}, "type": "Feature"}
{"geometry": {"coordinates": [-87.686819, 40.460214], "type": "Point"}, "id": "AArJD0NrRVdMh8lfhnuPR4B_yJg=", "properties": {"@spider": "usps_collection_boxes", "addr:city": "HOOPESTON", "addr:country": "US", "addr:full": "1010 W CHESTNUT ST", "addr:postcode": "60942", "addr:state": "IL", "brand": "USPS", "collection_times": "Mo-Sa 15:30", "name": "USPS COLLECTION BOX - BLUE BOX", "note": "ON 12/24 AND 12/31, THIS BOX MAY BE COLLECTED AS EARLY AS 12 NOON.", "ref": "6094200009"}, "type": "Feature"}
{"geometry": {"coordinates": [-87.668342238, 40.465962652], "type": "Point"}, "id": "vLvd19cMDVNcqINOT8B4bfJEIkQ=", "properties": {"@spider": "usps_collection_boxes", "addr:city": "HOOPESTON", "addr:country": "US", "addr:full": "314 S MARKET ST", "addr:postcode": "60942", "addr:state": "IL", "brand": "USPS", "collection_times": "Mo-Fr 17:00; Sa 15:30", "name": "USPS COLLECTION BOX - PO LOBBY", "note": "ON 12/24 AND 12/31, THIS BOX MAY BE COLLECTED AS EARLY AS 12 NOON.", "ref": "6094200010"}, "type": "Feature"}
{"geometry": {"coordinates": [-87.668342238, 40.465962652], "type": "Point"}, "id": "TojWcBP3tUokY_aQ6SOP2GwOi10=", "properties": {"@spider": "usps_collection_boxes", "addr:city": "HOOPESTON", "addr:country": "US", "addr:full": "314 S MARKET ST", "addr:postcode": "60942", "addr:state": "IL", "brand": "USPS", "collection_times": "Mo-Fr 17:00; Sa 12:00", "name": "USPS COLLECTION BOX - PO LOBBY", "note": "ON 12/24 AND 12/31, THIS BOX MAY BE COLLECTED AS EARLY AS 12 NOON.", "ref": "6094200012"}, "type": "Feature"}
{"geometry": {"coordinates": [-88.071593934, 40.51791864], "type": "Point"}, "id": "GxyrfKs6hYeY-VS8Zw5Xm0MrWQM=", "properties": {"@spider": "usps_collection_boxes", "addr:city": "LODA", "addr:country": "US", "addr:full": "203 N OAK ST", "addr:postcode": "60948", "addr:state": "IL", "brand": "USPS", "collection_times": "Mo-Fr 16:30; Sa 10:30", "name": "USPS COLLECTION BOX - BLUE BOX", "note": "ON 12/24 AND 12/31, THIS BOX MAY BE COLLECTED AS EARLY AS 12 NOON.", "ref": "6094800001"}, "type": "Feature"}
{"geometry": {"coordinates": [-88.071593934, 40.51791864], "type": "Point"}, "id": "RTOGsZe6B6S4Lu2JfImD6iiJj6E=", "properties": {"@spider": "usps_collection_boxes", "addr:city": "LODA", "addr:country": "US", "addr:full": "203 N OAK ST", "addr:postcode": "60948", "addr:state": "IL", "brand": "USPS", "collection_times": "Mo-Fr 12:00; Sa 10:30", "name": "USPS COLLECTION BOX - PO LOBBY", "ref": "6094800002"}, "type": "Feature"}
{"geometry": {"coordinates": [-88.071593934, 40.51791864], "type": "Point"}, "id": "0iQCHmFrliWhHxe_KAe6hI1LP9w=", "properties": {"@spider": "usps_collection_boxes", "addr:city": "LODA", "addr:country": "US", "addr:full": "203 N OAK ST", "addr:postcode": "60948", "addr:state": "IL", "brand": "USPS", "collection_times": "Mo-Fr 12:00; Sa 10:30", "name": "USPS COLLECTION BOX - PO LOBBY", "ref": "6094800003"}, "type": "Feature"}
{"geometry": {"coordinates": [-88.126748669, 40.386722205], "type": "Point"}, "id": "IIjMdz6auxeXZ30BS9QQBjEuA9E=", "properties": {"@spider": "usps_collection_boxes", "addr:city": "LUDLOW", "addr:country": "US", "addr:full": "113 E THOMAS ST", "addr:postcode": "60949", "addr:state": "IL", "brand": "USPS", "collection_times": "Mo-Fr 17:00; Sa 11:00", "name": "USPS COLLECTION BOX - BLUE BOX", "note": "ON 12/24 AND 12/31, THIS BOX MAY BE COLLECTED AS EARLY AS 12 NOON.", "ref": "6094900001"}, "type": "Feature"}
{"geometry": {"coordinates": [-88.126748669, 40.386722205], "type": "Point"}, "id": "afN6MADw1VxbXfYx_EHMEMODU_s=", "properties": {"@spider": "usps_collection_boxes", "addr:city": "LUDLOW", "addr:country": "US", "addr:full": "113 E THOMAS ST", "addr:postcode": "60949", "addr:state": "IL", "brand": "USPS", "collection_times": "Mo-Fr 17:00; Sa 11:00", "name": "USPS COLLECTION BOX - PO LOBBY", "note": "ON 12/24 AND 12/31, THIS BOX MAY BE COLLECTED AS EARLY AS 12 NOON.", "ref": "6094900002"}, "type": "Feature"}
{"geometry": {"coordinates": [-88.126748669, 40.386722205], "type": "Point"}, "id": "dCG1W6Al9i4U-lTeRkG9mMN7QpI=", "properties": {"@spider": "usps_collection_boxes", "addr:city": "LUDLOW", "addr:country": "US", "addr:full": "113 E THOMAS ST", "addr:postcode": "60949", "addr:state": "IL", "brand": "USPS", "collection_times": "Mo-Fr 17:00; Sa 13:00", "name": "USPS COLLECTION BOX - PO LOBBY", "note": "ON 12/24 AND 12/31, THIS BOX MAY BE COLLECTED AS EARLY AS 12 NOON.", "ref": "6094900003"}, "type": "Feature"}
{"geometry": {"coordinates": [-88.249404, 40.568693], "type": "Point"}, "id": "GzH5R9ikUS3vN0dgzIEWoBFYelk=", "properties": {"@spider": "usps_collection_boxes", "addr:city": "MELVIN", "addr:country": "US", "addr:full": "100 E MAIN ST", "addr:postcode": "60952", "addr:state": "IL", "brand": "USPS", "collection_times": "Mo-Fr 11:30; Sa 10:30", "name": "USPS COLLECTION BOX - BLUE BOX", "ref": "6095200001"}, "type": "Feature"}
{"geometry": {"coordinates": [-88.249161222, 40.568696453], "type": "Point"}, "id": "Cu95ZBBXeub8cEre6zE66j5z9GI=", "properties": {"@spider": "usps_collection_boxes", "addr:city": "MELVIN", "addr:country": "US", "addr:full": "104 E MAIN ST", "addr:postcode": "60952", "addr:state": "IL", "brand": "USPS", "collection_times": "Mo-Fr 11:30; Sa 10:30", "name": "USPS COLLECTION BOX - PO LOBBY", "ref": "6095200002"}, "type": "Feature"}
{"geometry": {"coordinates": [-88.249161222, 40.568696453], "type": "Point"}, "id": "OErbSN03uCaBO1mPfcWL061TyU0=", "properties": {"@spider": "usps_collection_boxes", "addr:city": "MELVIN", "addr:country": "US", "addr:full": "104 E MAIN ST", "addr:postcode": "60952", "addr:state": "IL", "brand": "USPS", "collection_times": "Mo-Fr 11:30; Sa 10:45", "name": "USPS COLLECTION BOX - PO LOBBY", "ref": "6095200003"}, "type": "Feature"}
{"geometry": {"coordinates": [-87.695228814, 40.628499533], "type": "Point"}, "id": "O_rN4ALvhOFeZJ8dZSAQJTkF87w=", "properties": {"@spider": "usps_collection_boxes", "addr:city": "MILFORD", "addr:country": "US", "addr:full": "108 N WEST AVE", "addr:postcode": "60953", "addr:state": "IL", "brand": "USPS", "collection_times": "Mo-Fr 16:45; Sa 13:15", "name": "USPS COLLECTION BOX - BLUE BOX", "note": "ON 12/24 AND 12/31, THIS BOX MAY BE COLLECTED AS EARLY AS 12 NOON.", "ref": "6095300001"}, "type": "Feature"}
{"geometry": {"coordinates": [-87.695228814, 40.628499533], "type": "Point"}, "id": "xK4-asLykm3iz09yz7u9D-uAG8k=", "properties": {"@spider": "usps_collection_boxes", "addr:city": "MILFORD", "addr:country": "US", "addr:full": "108 N WEST AVE", "addr:postcode": "60953", "addr:state": "IL", "brand": "USPS", "collection_times": "Mo-Fr 16:45; Sa 13:15", "name": "USPS COLLECTION BOX - PO LOBBY", "note": "ON 12/24 AND 12/31, THIS BOX MAY BE COLLECTED AS EARLY AS 12 NOON.", "ref": "6095300002"}, "type": "Feature"}
{"geometry": {"coordinates": [-87.695228814, 40.628499533], "type": "Point"}, "id": "uW3MkZ9b_87_UOmUhWWQdS8AGKs=", "properties": {"@spider": "usps_collection_boxes", "addr:city": "MILFORD", "addr:country": "US", "addr:full": "108 N WEST AVE", "addr:postcode": "60953", "addr:state": "IL", "brand": "USPS", "collection_times": "Mo-Fr 16:30; Sa 11:00", "name": "USPS COLLECTION BOX - PO LOBBY", "note": "ON 12/24 AND 12/31, THIS BOX MAY BE COLLECTED AS EARLY AS 12 NOON.", "ref": "6095300004"}, "type": "Feature"}
{"geometry": {"coordinates": [-88.0988717, 40.46133], "type": "Point"}, "id": "RElPpa4LZaG581katOvKQnAw3SA=", "properties": {"@spider": "usps_collection_boxes", "addr:city": "PAXTON", "addr:country": "US", "addr:full": "101 N TAFT ST", "addr:postcode": "60957", "addr:state": "IL", "brand": "USPS", "collection_times": "Mo-Fr 17:00; Sa 12:00", "name": "USPS COLLECTION BOX - BLUE BOX", "note": "ON 12/24 AND 12/31, THIS BOX MAY BE COLLECTED AS EARLY AS 12 NOON.", "ref": "6095700005"}, "type": "Feature"}
{"geometry": {"coordinates": [-88.0993083, 40.462661], "type": "Point"}, "id": "bJrlrAAEzTRUmGU8JhtkK-HbQPQ=", "properties": {"@spider": "usps_collection_boxes", "addr:city": "PAXTON", "addr:country": "US", "addr:full": "200 W STATE ST", "addr:postcode": "60957", "addr:state": "IL", "brand": "USPS", "collection_times": "Mo-Fr 17:00; Sa 12:00", "name": "USPS COLLECTION BOX - BLUE BOX", "note": "ON 12/24 AND 12/31, THIS BOX MAY BE COLLECTED AS EARLY AS 12 NOON.", "ref": "6095700009"}, "type": "Feature"}
{"geometry": {"coordinates": [-88.097932585, 40.459470476], "type": "Point"}, "id": "T6b-Hr-FnesrLEXYWrC5690rajU=", "properties": {"@spider": "usps_collection_boxes", "addr:city": "PAXTON", "addr:country": "US", "addr:full": "209 S MARKET ST", "addr:postcode": "60957", "addr:state": "IL", "brand": "USPS", "collection_times": "Mo-Sa 17:00", "name": "USPS COLLECTION BOX - PO LOBBY", "note": "ON 12/24 AND 12/31, THIS BOX MAY BE COLLECTED AS EARLY AS 12 NOON.", "ref": "6095700013"}, "type": "Feature"}
{"geometry": {"coordinates": [-88.097932585, 40.459470476], "type": "Point"}, "id": "EnAUqeGZ4mLxoEcYCmf95lirkK0=", "properties": {"@spider": "usps_collection_boxes", "addr:city": "PAXTON", "addr:country": "US", "addr:full": "209 S MARKET ST", "addr:postcode": "60957", "addr:state": "IL", "brand": "USPS", "collection_times": "Mo-Sa 17:00", "name": "USPS COLLECTION BOX - BLUE BOX", "note": "ON 12/24 AND 12/31, THIS BOX MAY BE COLLECTED AS EARLY AS 12 NOON.", "ref": "6095700014"}, "type": "Feature"}
{"geometry": {"coordinates": [-88.097932585, 40.459470476], "type": "Point"}, "id": "mXWz2D21K_ytJsuH4zbwW0Ml2PY=", "properties": {"@spider": "usps_collection_boxes", "addr:city": "PAXTON", "addr:country": "US", "addr:full": "209 S MARKET ST", "addr:postcode": "60957", "addr:state": "IL", "brand": "USPS", "collection_times": "Mo-Fr 17:00; Sa 12:00", "name": "USPS COLLECTION BOX - PO LOBBY", "note": "ON 12/24 AND 12/31, THIS BOX MAY BE COLLECTED AS EARLY AS 12 NOON.", "ref": "6095700016"}, "type": "Feature"}
{"geometry": {"coordinates": [-87.896743913, 40.464159876], "type": "Point"}, "id": "ET9vSAlu4IqvsMnCdkoAZCCx9Rk=", "properties": {"@spider": "usps_collection_boxes", "addr:city": "RANKIN", "addr:country": "US", "addr:full": "102 S MAIN ST", "addr:postcode": "60960", "addr:state": "IL", "brand": "USPS", "collection_times": "Mo-Fr 16:00; Sa 10:30", "name": "USPS COLLECTION BOX - BLUE BOX", "note": "ON 12/24 AND 12/31, THIS BOX MAY BE COLLECTED AS EARLY AS 12 NOON.", "ref": "6096000001"}, "type": "Feature"}
{"geometry": {"coordinates": [-87.896743913, 40.464159876], "type": "Point"}, "id": "l46d6_Cj-W0zCuicUX4-Opv-kPU=", "properties": {"@spider": "usps_collection_boxes", "addr:city": "RANKIN", "addr:country": "US", "addr:full": "102 S MAIN ST", "addr:postcode": "60960", "addr:state": "IL", "brand": "USPS", "collection_times": "Mo-Fr 14:30; Sa 10:30", "name": "USPS COLLECTION BOX - PO LOBBY", "note": "ON 12/24 AND 12/31, THIS BOX MAY BE COLLECTED AS EARLY AS 12 NOON.", "ref": "6096000002"}, "type": "Feature"}
{"geometry": {"coordinates": [-87.896743913, 40.464159876], "type": "Point"}, "id": "quu8hdUjQDPYNdkBEqJzxvHXuoc=", "properties": {"@spider": "usps_collection_boxes", "addr:city": "RANKIN", "addr:country": "US", "addr:full": "102 S MAIN ST", "addr:postcode": "60960", "addr:state": "IL", "brand": "USPS", "collection_times": "Mo-Fr 14:30; Sa 10:30", "name": "USPS COLLECTION BOX - PO LOBBY", "note": "ON 12/24 AND 12/31, THIS BOX MAY BE COLLECTED AS EARLY AS 12 NOON.", "ref": "6096000003"}, "type": "Feature"}
{"geometry": {"coordinates": [-87.667564364, 40.378045472], "type": "Point"}, "id": "6O6QDsCZq1XGB2gvbwUxg3cSVSg=", "properties": {"@spider": "usps_collection_boxes", "addr:city": "ROSSVILLE", "addr:country": "US", "addr:full": "106 MAPLE ST", "addr:postcode": "60963", "addr:state": "IL", "brand": "USPS", "collection_times": "Mo-Fr 16:30; Sa 11:00", "name": "USPS COLLECTION BOX - BLUE BOX", "note": "ON 12/24 AND 12/31, THIS BOX MAY BE COLLECTED AS EARLY AS 12 NOON.", "ref": "6096300002"}, "type": "Feature"}
{"geometry": {"coordinates": [-87.667564364, 40.378045472], "type": "Point"}, "id": "wh1MmM3A5o3uPt71FBqNkd4kZwo=", "properties": {"@spider": "usps_collection_boxes", "addr:city": "ROSSVILLE", "addr:country": "US", "addr:full": "106 MAPLE ST", "addr:postcode": "60963", "addr:state": "IL", "brand": "USPS", "collection_times": "Mo-Fr 16:30; Sa 11:00", "name": "USPS COLLECTION BOX - PO LOBBY", "note": "ON 12/24 AND 12/31, THIS BOX MAY BE COLLECTED AS EARLY AS 12 NOON.", "ref": "6096300008"}, "type": "Feature"}
{"geometry": {"coordinates": [-87.667564364, 40.378045472], "type": "Point"}, "id": "xQdVHza6D8pGVymZHwQlWQRsRA0=", "properties": {"@spider": "usps_collection_boxes", "addr:city": "ROSSVILLE", "addr:country": "US", "addr:full": "106 MAPLE ST", "addr:postcode": "60963", "addr:state": "IL", "brand": "USPS", "collection_times": "Mo-Fr 16:30; Sa 11:00", "name": "USPS COLLECTION BOX - PO LOBBY", "note": "ON 12/24 AND 12/31, THIS BOX MAY BE COLLECTED AS EARLY AS 12 NOON.", "ref": "6096300009"}, "type": "Feature"}
{"geometry": {"coordinates": [-87.592638382, 40.614572233], "type": "Point"}, "id": "F_BX164r2By6g1FmkW3B3jarbLs=", "properties": {"@spider": "usps_collection_boxes", "addr:city": "STOCKLAND", "addr:country": "US", "addr:full": "2842 E 860 NORTH RD", "addr:postcode": "60967", "addr:state": "IL", "brand": "USPS", "collection_times": "Mo-Sa 09:00", "name": "USPS COLLECTION BOX - BLUE BOX", "ref": "6096700001"}, "type": "Feature"}
{"geometry": {"coordinates": [-87.592638382, 40.614572233], "type": "Point"}, "id": "Ue_afKn6bVH8dlNkfc5amKJ0EZM=", "properties": {"@spider": "usps_collection_boxes", "addr:city": "STOCKLAND", "addr:country": "US", "addr:full": "2842 E 860 NORTH RD", "addr:postcode": "60967", "addr:state": "IL", "brand": "USPS", "collection_times": "Mo-Sa 09:00", "name": "USPS COLLECTION BOX - PO LOBBY", "ref": "6096700002"}, "type": "Feature"}
{"geometry": {"coordinates": [-87.592638382, 40.614572233], "type": "Point"}, "id": "g6sbZ9FnN6VeF1REYe_7HcbWfZI=", "properties": {"@spider": "usps_collection_boxes", "addr:city": "STOCKLAND", "addr:country": "US", "addr:full": "2842 E 860 NORTH RD", "addr:postcode": "60967", "addr:state": "IL", "brand": "USPS", "collection_times": "Mo-Fr 11:00; Sa 10:00", "name": "USPS COLLECTION BOX - PO LOBBY", "ref": "6096700003"}, "type": "Feature"}
{"geometry": {"coordinates": [-87.679633563, 40.538981917], "type": "Point"}, "id": "P1D0lPAts4wZ4D9UdswSzKHvAmI=", "properties": {"@spider": "usps_collection_boxes", "addr:city": "WELLINGTON", "addr:country": "US", "addr:full": "311 E MAIN ST", "addr:postcode": "60973", "addr:state": "IL", "brand": "USPS", "collection_times": "Mo-Fr 14:00; Sa 12:30", "name": "USPS COLLECTION BOX - BLUE BOX", "note": "ON 12/24 AND 12/31, THIS BOX MAY BE COLLECTED AS EARLY AS 12 NOON.", "ref": "6097300001"}, "type": "Feature"}
{"geometry": {"coordinates": [-87.679633563, 40.538981917], "type": "Point"}, "id": "G--hAoX9jOv0CGUFXzyrFFcjJFQ=", "properties": {"@spider": "usps_collection_boxes", "addr:city": "WELLINGTON", "addr:country": "US", "addr:full": "311 E MAIN ST", "addr:postcode": "60973", "addr:state": "IL", "brand": "USPS", "collection_times": "Mo-Fr 14:00; Sa 12:30", "name": "USPS COLLECTION BOX - PO LOBBY", "note": "ON 12/24 AND 12/31, THIS BOX MAY BE COLLECTED AS EARLY AS 12 NOON.", "ref": "6097300002"}, "type": "Feature"}
{"geometry": {"coordinates": [-87.679633563, 40.538981917], "type": "Point"}, "id": "EtDfgvFognSiuD0G2RDPce1olDk=", "properties": {"@spider": "usps_collection_boxes", "addr:city": "WELLINGTON", "addr:country": "US", "addr:full": "311 E MAIN ST", "addr:postcode": "60973", "addr:state": "IL", "brand": "USPS", "collection_times": "Mo-Fr 14:00; Sa 12:30", "name": "USPS COLLECTION BOX - PO LOBBY", "note": "ON 12/24 AND 12/31, THIS BOX MAY BE COLLECTED AS EARLY AS 12 NOON.", "ref": "6097300003"}, "type": "Feature"}
{"geometry": {"coordinates": [-87.731254501, 40.707120521], "type": "Point"}, "id": "9XTFJdXkfkO79SSnqUZbkbYSc4c=", "properties": {"@spider": "usps_collection_boxes", "addr:city": "WOODLAND", "addr:country": "US", "addr:full": "102 S WEST AVE", "addr:postcode": "60974", "addr:state": "IL", "brand": "USPS", "collection_times": "Mo-Fr 16:00; Sa 10:30", "name": "USPS COLLECTION BOX - BLUE BOX", "note": "ON 12/24 AND 12/31, THIS BOX MAY BE COLLECTED AS EARLY AS 12 NOON.", "ref": "6097400001"}, "type": "Feature"}
{"geometry": {"coordinates": [-87.731254501, 40.707120521], "type": "Point"}, "id": "nvb4E8EuzFMdRj6Fhsak3A_AzvY=", "properties": {"@spider": "usps_collection_boxes", "addr:city": "WOODLAND", "addr:country": "US", "addr:full": "102 S WEST AVE", "addr:postcode": "60974", "addr:state": "IL", "brand": "USPS", "collection_times": "Mo-Fr 16:00; Sa 10:30", "name": "USPS COLLECTION BOX - PO LOBBY", "note": "ON 12/24 AND 12/31, THIS BOX MAY BE COLLECTED AS EARLY AS 12 NOON.", "ref": "6097400002"}, "type": "Feature"}
{"geometry": {"coordinates": [-87.731254501, 40.707120521], "type": "Point"}, "id": "aIbCC-DLI12xYxSM-nhxwABzZFw=", "properties": {"@spider": "usps_collection_boxes", "addr:city": "WOODLAND", "addr:country": "US", "addr:full": "102 S WEST AVE", "addr:postcode": "60974", "addr:state": "IL", "brand": "USPS", "collection_times": "Mo-Fr 16:00; Sa 12:00", "name": "USPS COLLECTION BOX - PO LOBBY", "note": "ON 12/24 AND 12/31, THIS BOX MAY BE COLLECTED AS EARLY AS 12 NOON.", "ref": "6097400003"}, "type": "Feature"}
