{"geometry": {"coordinates": [-90.096272, 42.503459], "type": "Point"}, "id": "xH0CEs7Fr2RtQyykbZqH0Cd3DPs=", "properties": {"@spider": "usps_collection_boxes", "addr:city": "APPLE RIVER", "addr:country": "US", "addr:full": "110 W RAILROAD ST", "addr:postcode": "61001", "addr:state": "IL", "brand": "USPS", "collection_times": "Mo-Fr 15:30; Sa 11:00", "name": "USPS COLLECTION BOX - BLUE BOX", "note": "ON 12/24 AND 12/31, THIS BOX MAY BE COLLECTED AS EARLY AS 12 NOON.", "ref": "6100100001"}, "type": "Feature"}
{"geometry": {"coordinates": [-90.096172, 42.503437], "type": "Point"}, "id": "Y5y5ie6wuUyjniAIRSu4V0S5ScA=", "properties": {"@spider": "usps_collection_boxes", "addr:city": "APPLE RIVER", "addr:country": "US", "addr:full": "110 W RAILROAD ST", "addr:postcode": "61001", "addr:state": "IL", "brand": "USPS", "collection_times": "Mo-Fr 16:00; Sa 11:00", "name": "USPS COLLECTION BOX - PO LOBBY", "note": "ON 12/24 AND 12/31, THIS BOX MAY BE COLLECTED AS EARLY AS 12 NOON.", "ref": "6100100002"}, "type": "Feature"}
{"geometry": {"coordinates": [-90.096172, 42.503437], "type": "Point"}, "id": "CZEZIiCeAGKTHfwPtSXVnz9EWnw=", "properties": {"@spider": "usps_collection_boxes", "addr:city": "APPLE RIVER", "addr:country": "US", "addr:full": "110 W RAILROAD ST", "addr:postcode": "61001", "addr:state": "IL", "brand": "USPS", "collection_times": "Mo-Fr 16:00; Sa 11:00", "name": "USPS COLLECTION BOX - PO LOBBY", "note": "ON 12/24 AND 12/31, THIS BOX MAY BE COLLECTED AS EARLY AS 12 NOON.", "ref": "6100100003"}, "type": "Feature"}
{"geometry": {"coordinates": [-90.096241911, 42.503496341], "type": "Point"}, "id": "_8XtLQZ8SaqwRn8S16vwuqqY8uY=", "properties": {"@spider": "usps_collection_boxes", "addr:city": "APPLE RIVER", "addr:country": "US", "addr:full": "110 W RAILROAD ST", "addr:postcode": "61001", "addr:state": "IL", "brand": "USPS", "collection_times": "Mo-Fr 16:00; Sa 11:00", "name": "USPS COLLECTION BOX - PO LOBBY", "note": "ON 12/24 AND 12/31, THIS BOX MAY BE COLLECTED AS EARLY AS 12 NOON.", "ref": "6100100004"}, "type": "Feature"}
{"geometry": {"coordinates": [-89.219416, 41.866311], "type": "Point"}, "id": "gFrVL6nrlB5IgDd4-Hg8ewTQF2I=", "properties": {"@spider": "usps_collection_boxes", "addr:city": "ASHTON", "addr:country": "US", "addr:full": "605 BROWN AVE", "addr:postcode": "61006", "addr:state": "IL", "brand": "USPS", "collection_times": "Mo-Fr 16:15; Sa 12:15", "name": "USPS COLLECTION BOX - BLUE BOX", "note": "ON 12/24 AND 12/31, THIS BOX MAY BE COLLECTED AS EARLY AS 12 NOON.", "ref": "6100600001"}, "type": "Feature"}
{"geometry": {"coordinates": [-89.21938, 41.866228], "type": "Point"}, "id": "l51eT8LkGbZ8PATlpqfUY1mH0aM=", "properties": {"@spider": "usps_collection_boxes", "addr:city": "ASHTON", "addr:country": "US", "addr:full": "605 BROWN AVE", "addr:postcode": "61006", "addr:state": "IL", "brand": "USPS", "collection_times": "Mo-Fr 16:15; Sa 12:15", "name": "USPS COLLECTION BOX - PO LOBBY", "note": "ON 12/24 AND 12/31, THIS BOX MAY BE COLLECTED AS EARLY AS 12 NOON.", "ref": "6100600002"}, "type": "Feature"}
{"geometry": {"coordinates": [-89.21938, 41.866228], "type": "Point"}, "id": "AxjzO_AdgdBuVvSdJizrMDt2NzE=", "properties": {"@spider": "usps_collection_boxes", "addr:city": "ASHTON", "addr:country": "US", "addr:full": "605 BROWN AVE", "addr:postcode": "61006", "addr:state": "IL", "brand": "USPS", "collection_times": "Mo-Fr 16:15; Sa 12:15", "name": "USPS COLLECTION BOX - PO LOBBY", "note": "ON 12/24 AND 12/31, THIS BOX MAY BE COLLECTED AS EARLY AS 12 NOON.", "ref": "6100600003"}, "type": "Feature"}
{"geometry": {"coordinates": [-89.219449396, 41.866496581], "type": "Point"}, "id": "vxQfZ78NysSs_Qpa98_Df7iT4dM=", "properties": {"@spider": "usps_collection_boxes", "addr:city": "ASHTON", "addr:country": "US", "addr:full": "605 BROWN AVE", "addr:postcode": "61006", "addr:state": "IL", "brand": "USPS", "collection_times": "Mo-Fr 16:15; Sa 12:15", "name": "USPS COLLECTION BOX - PO LOBBY", "note": "ON 12/24 AND 12/31, THIS BOX MAY BE COLLECTED AS EARLY AS 12 NOON.", "ref": "6100600005"}, "type": "Feature"}
{"geometry": {"coordinates": [-89.592862, 42.196853], "type": "Point"}, "id": "RY0O0f37wg9Ugt4Lo94OiVbpS5A=", "properties": {"@spider": "usps_collection_boxes", "addr:city": "BAILEYVILLE", "addr:country": "US", "addr:full": "100 S COMMERCIAL ST", "addr:postcode": "61007", "addr:state": "IL", "brand": "USPS", "collection_times": "Mo-Fr 16:30; Sa 11:30", "name": "USPS COLLECTION BOX - BLUE BOX", "note": "ON 12/24 AND 12/31, THIS BOX MAY BE COLLECTED AS EARLY AS 12 NOON.", "ref": "6100700001"}, "type": "Feature"}
{"geometry": {"coordinates": [-89.59274, 42.194402], "type": "Point"}, "id": "RcWU19yR6VULXblHTvpuZSPq6fU=", "properties": {"@spider": "usps_collection_boxes", "addr:city": "BAILEYVILLE", "addr:country": "US", "addr:full": "100 S COMMERICAL ST", "addr:postcode": "61007", "addr:state": "IL", "brand": "USPS", "collection_times": "Mo-Fr 16:30; Sa 11:30", "name": "USPS COLLECTION BOX - PO LOBBY", "note": "ON 12/24 AND 12/31, THIS BOX MAY BE COLLECTED AS EARLY AS 12 NOON.", "ref": "6100700002"}, "type": "Feature"}
{"geometry": {"coordinates": [-89.592858071, 42.196751801], "type": "Point"}, "id": "M1dN8JQ1Q_-baC4dPStVF9Hz9Fk=", "properties": {"@spider": "usps_collection_boxes", "addr:city": "BAILEYVILLE", "addr:country": "US", "addr:full": "100 S COMMERCIAL ST", "addr:postcode": "61007", "addr:state": "IL", "brand": "USPS", "collection_times": "Mo-Fr 16:30; Sa 11:30", "name": "USPS COLLECTION BOX - PO LOBBY", "note": "ON 12/24 AND 12/31, THIS BOX MAY BE COLLECTED AS EARLY AS 12 NOON.", "ref": "6100700003"}, "type": "Feature"}
{"geometry": {"coordinates": [-88.8511609, 42.257242], "type": "Point"}, "id": "s_UIGUMs3VJkY2tgI2PZvToCZBg=", "properties": {"@spider": "usps_collection_boxes", "addr:city": "BELVIDERE", "addr:country": "US", "addr:full": "628 W LINCOLN AVE", "addr:postcode": "61008", "addr:state": "IL", "brand": "USPS", "collection_times": "Mo-Sa 09:00", "name": "USPS COLLECTION BOX - BLUE BOX", "ref": "6100800004"}, "type": "Feature"}
{"geometry": {"coordinates": [-88.8248973, 42.253708], "type": "Point"}, "id": "H1mltGNFbiUylAbgHf67Fxah13o=", "properties": {"@spider": "usps_collection_boxes", "addr:city": "BELVIDERE", "addr:country": "US", "addr:full": "1212 LOGAN AVE", "addr:postcode": "61008", "addr:state": "IL", "brand": "USPS", "collection_times": "Mo-Fr 16:15; Sa 15:15", "name": "USPS COLLECTION BOX - BLUE BOX", "note": "ON 12/24 AND 12/31, THIS BOX MAY BE COLLECTED AS EARLY AS 12 NOON.", "ref": "6100800006"}, "type": "Feature"}
{"geometry": {"coordinates": [-88.8640908, 42.275008], "type": "Point"}, "id": "a_ZHwv0STBKy75xPNcvZJ6svuhs=", "properties": {"@spider": "usps_collection_boxes", "addr:city": "BELVIDERE", "addr:country": "US", "addr:full": "1800 DOC WOLF DR", "addr:postcode": "61008", "addr:state": "IL", "brand": "USPS", "collection_times": "Mo-Fr 17:00; Sa 16:00", "name": "USPS COLLECTION BOX - APC", "note": "ON 12/24 AND 12/31, THIS BOX MAY BE COLLECTED AS EARLY AS 12 NOON.", "ref": "6100800009"}, "type": "Feature"}
{"geometry": {"coordinates": [-88.8569195, 42.273968], "type": "Point"}, "id": "KmpLelxzOSbedV9_yVPG53eFCLs=", "properties": {"@spider": "usps_collection_boxes", "addr:city": "BELVIDERE", "addr:country": "US", "addr:full": "1400 BIG THUNDER BLVD", "addr:postcode": "61008", "addr:state": "IL", "brand": "USPS", "collection_times": "Mo-Fr 16:45; Sa 16:00", "name": "USPS COLLECTION BOX - BLUE BOX", "note": "ON 12/24 AND 12/31, THIS BOX MAY BE COLLECTED AS EARLY AS 12 NOON.", "ref": "6100800010"}, "type": "Feature"}
{"geometry": {"coordinates": [-88.8385757, 42.255201], "type": "Point"}, "id": "G2oARdhwjJypSsUblHgArTAAXGs=", "properties": {"@spider": "usps_collection_boxes", "addr:city": "BELVIDERE", "addr:country": "US", "addr:full": "530 S STATE ST", "addr:postcode": "61008", "addr:state": "IL", "brand": "USPS", "collection_times": "Mo-Fr 16:45; Sa 16:00", "name": "USPS COLLECTION BOX - BLUE BOX", "note": "ON 12/24 AND 12/31, THIS BOX MAY BE COLLECTED AS EARLY AS 12 NOON.", "ref": "6100800012"}, "type": "Feature"}
{"geometry": {"coordinates": [-88.8386934, 42.25748], "type": "Point"}, "id": "DF-jGXOfJY21d9mF0g_2meN7n-4=", "properties": {"@spider": "usps_collection_boxes", "addr:city": "BELVIDERE", "addr:country": "US", "addr:full": "401 WHITNEY BLVD", "addr:postcode": "61008", "addr:state": "IL", "brand": "USPS", "collection_times": "Mo-Fr 16:30; Sa 16:00", "name": "USPS COLLECTION BOX - BLUE BOX", "note": "ON 12/24 AND 12/31, THIS BOX MAY BE COLLECTED AS EARLY AS 12 NOON.", "ref": "6100800014"}, "type": "Feature"}
{"geometry": {"coordinates": [-88.8386934, 42.257472], "type": "Point"}, "id": "0XViJINCl3qJecGDauwuZFYF3Cs=", "properties": {"@spider": "usps_collection_boxes", "addr:city": "BELVIDERE", "addr:country": "US", "addr:full": "401 WHITNEY BLVD", "addr:postcode": "61008", "addr:state": "IL", "brand": "USPS", "collection_times": "Mo-Fr 16:30; Sa 16:00", "name": "USPS COLLECTION BOX - BLUE BOX", "note": "ON 12/24 AND 12/31, THIS BOX MAY BE COLLECTED AS EARLY AS 12 NOON.", "ref": "6100800015"}, "type": "Feature"}
{"geometry": {"coordinates": [-88.841562, 42.257851], "type": "Point"}, "id": "0jaHwFn7uAJdzj2XlLdqOe6oOB8=", "properties": {"@spider": "usps_collection_boxes", "addr:city": "BELVIDERE", "addr:country": "US", "addr:full": "200 S STATE ST", "addr:postcode": "61008", "addr:state": "IL", "brand": "USPS", "collection_times": "Mo-Fr 16:30; Sa 16:00", "name": "USPS COLLECTION BOX - BLUE BOX", "note": "ON 12/24 AND 12/31, THIS BOX MAY BE COLLECTED AS EARLY AS 12 NOON.", "ref": "6100800017"}, "type": "Feature"}
{"geometry": {"coordinates": [-88.8437779, 42.241736], "type": "Point"}, "id": "bYOun3qdVuTcaBBFH5Ed-vPyrck=", "properties": {"@spider": "usps_collection_boxes", "addr:city": "BELVIDERE", "addr:country": "US", "addr:full": "413 FRONTAGE RD", "addr:postcode": "61008", "addr:state": "IL", "brand": "USPS", "collection_times": "Mo-Fr 16:00; Sa 15:15", "name": "USPS COLLECTION BOX - BLUE BOX", "note": "ON 12/24 AND 12/31, THIS BOX MAY BE COLLECTED AS EARLY AS 12 NOON.", "ref": "6100800019"}, "type": "Feature"}
{"geometry": {"coordinates": [-88.8426762, 42.2396], "type": "Point"}, "id": "63mOT1ajv3SCQrILy4sMbWJEF6U=", "properties": {"@spider": "usps_collection_boxes", "addr:city": "BELVIDERE", "addr:country": "US", "addr:full": "372 W CHRYSLER DR", "addr:postcode": "61008", "addr:state": "IL", "brand": "USPS", "collection_times": "Mo-Fr 16:00; Sa 15:15", "name": "USPS COLLECTION BOX - BLUE BOX", "note": "ON 12/24 AND 12/31, THIS BOX MAY BE COLLECTED AS EARLY AS 12 NOON.", "ref": "6100800020"}, "type": "Feature"}
{"geometry": {"coordinates": [-88.8354295, 42.247728], "type": "Point"}, "id": "qe58PrRkmYyqU-JjJOX3npci7Yw=", "properties": {"@spider": "usps_collection_boxes", "addr:city": "BELVIDERE", "addr:country": "US", "addr:full": "353 E 6TH ST", "addr:postcode": "61008", "addr:state": "IL", "brand": "USPS", "collection_times": "Mo-Sa 13:00", "name": "USPS COLLECTION BOX - BLUE BOX", "note": "ON 12/24 AND 12/31, THIS BOX MAY BE COLLECTED AS EARLY AS 12 NOON.", "ref": "6100800021"}, "type": "Feature"}
{"geometry": {"coordinates": [-88.8451891, 42.264711], "type": "Point"}, "id": "Ol1lOQ33O_ZburC_iPYxCfoEND0=", "properties": {"@spider": "usps_collection_boxes", "addr:city": "BELVIDERE", "addr:country": "US", "addr:full": "601 N MAIN ST", "addr:postcode": "61008", "addr:state": "IL", "brand": "USPS", "collection_times": "Mo-Fr 16:30; Sa 15:30", "name": "USPS COLLECTION BOX - BLUE BOX", "note": "ON 12/24 AND 12/31, THIS BOX MAY BE COLLECTED AS EARLY AS 12 NOON.", "ref": "6100800023"}, "type": "Feature"}
{"geometry": {"coordinates": [-88.8456704, 42.242341], "type": "Point"}, "id": "z4_Uzn0j21eXxKKNE3nZBdjM3dE=", "properties": {"@spider": "usps_collection_boxes", "addr:city": "BELVIDERE", "addr:country": "US", "addr:full": "1800 MAPLE AVE", "addr:postcode": "61008", "addr:state": "IL", "brand": "USPS", "collection_times": "Mo-Sa 09:30", "name": "USPS COLLECTION BOX - BLUE BOX", "ref": "6100800030"}, "type": "Feature"}
{"geometry": {"coordinates": [-88.8466639, 42.247789], "type": "Point"}, "id": "lxI7ae8j20zZ1GUkRSVhgdAnSTI=", "properties": {"@spider": "usps_collection_boxes", "addr:city": "BELVIDERE", "addr:country": "US", "addr:full": "1201 5TH AVE", "addr:postcode": "61008", "addr:state": "IL", "brand": "USPS", "collection_times": "Mo-Fr 16:00; Sa 15:15", "name": "USPS COLLECTION BOX - BLUE BOX", "note": "ON 12/24 AND 12/31, THIS BOX MAY BE COLLECTED AS EARLY AS 12 NOON.", "ref": "6100800032"}, "type": "Feature"}
{"geometry": {"coordinates": [-88.8640582, 42.275023], "type": "Point"}, "id": "YM2WGOn10i6FoXtDPAJV3TizMNM=", "properties": {"@spider": "usps_collection_boxes", "addr:city": "BELVIDERE", "addr:country": "US", "addr:full": "1800 DOC WOLF DR", "addr:postcode": "61008", "addr:state": "IL", "brand": "USPS", "collection_times": "Mo-Fr 17:00; Sa 16:00", "name": "USPS COLLECTION BOX - PO LOBBY", "note": "ON 12/24 AND 12/31, THIS BOX MAY BE COLLECTED AS EARLY AS 12 NOON.", "ref": "6100800034"}, "type": "Feature"}
{"geometry": {"coordinates": [-88.8641447, 42.27511], "type": "Point"}, "id": "Zf6O0pkjAlB6iNVCuFpCTyHXguA=", "properties": {"@spider": "usps_collection_boxes", "addr:city": "BELVIDERE", "addr:country": "US", "addr:full": "1800 DOC WOLF DR", "addr:postcode": "61008", "addr:state": "IL", "brand": "USPS", "collection_times": "Mo-Fr 17:00; Sa 16:00", "name": "USPS COLLECTION BOX - PO LOBBY", "note": "ON 12/24 AND 12/31, THIS BOX MAY BE COLLECTED AS EARLY AS 12 NOON.", "ref": "6100800035"}, "type": "Feature"}
{"geometry": {"coordinates": [-88.8636463, 42.274645], "type": "Point"}, "id": "PidA7ribN0VcHpNMvc67nZwHDgA=", "properties": {"@spider": "usps_collection_boxes", "addr:city": "BELVIDERE", "addr:country": "US", "addr:full": "1800 DOC WOLF DR", "addr:postcode": "61008", "addr:state": "IL", "brand": "USPS", "collection_times": "Mo-Fr 17:00; Sa 16:00", "name": "USPS COLLECTION BOX - BLUE BOX", "note": "ON 12/24 AND 12/31, THIS BOX MAY BE COLLECTED AS EARLY AS 12 NOON.", "ref": "6100800036"}, "type": "Feature"}
{"geometry": {"coordinates": [-88.8636387, 42.27465], "type": "Point"}, "id": "Bdeb1pqhDKY_Gv53k94OEKNhc8A=", "properties": {"@spider": "usps_collection_boxes", "addr:city": "BELVIDERE", "addr:country": "US", "addr:full": "1800 DOC WOLF DR", "addr:postcode": "61008", "addr:state": "IL", "brand": "USPS", "collection_times": "Mo-Fr 17:00; Sa 16:00", "name": "USPS COLLECTION BOX - BLUE BOX", "note": "ON 12/24 AND 12/31, THIS BOX MAY BE COLLECTED AS EARLY AS 12 NOON.", "ref": "6100800037"}, "type": "Feature"}
{"geometry": {"coordinates": [-88.8408771, 42.254624], "type": "Point"}, "id": "xqHC3Y15_w4yViqh5863oqI1HtU=", "properties": {"@spider": "usps_collection_boxes", "addr:city": "BELVIDERE", "addr:country": "US", "addr:full": "520 PEARL ST", "addr:postcode": "61008", "addr:state": "IL", "brand": "USPS", "collection_times": "Mo-Fr 16:00; Sa 15:15", "name": "USPS COLLECTION BOX - BLUE BOX", "note": "ON 12/24 AND 12/31, THIS BOX MAY BE COLLECTED AS EARLY AS 12 NOON.", "ref": "6100800039"}, "type": "Feature"}
{"geometry": {"coordinates": [-88.8636462, 42.274635], "type": "Point"}, "id": "2oWGhnVt-3WJAPnuGXr5Xc9V_GU=", "properties": {"@spider": "usps_collection_boxes", "addr:city": "BELVIDERE", "addr:country": "US", "addr:full": "1800 DOC WOLF DR", "addr:postcode": "61008", "addr:state": "IL", "brand": "USPS", "collection_times": "Mo-Fr 17:00; Sa 16:00", "name": "USPS COLLECTION BOX - BLUE BOX", "note": "ON 12/24 AND 12/31, THIS BOX MAY BE COLLECTED AS EARLY AS 12 NOON.", "ref": "6100800040"}, "type": "Feature"}
{"geometry": {"coordinates": [-88.8211517, 42.252518], "type": "Point"}, "id": "s1gy6dXCoiA5T0G-e_JmUuH47Mo=", "properties": {"@spider": "usps_collection_boxes", "addr:city": "BELVIDERE", "addr:country": "US", "addr:full": "1776 LOGAN AVE", "addr:postcode": "61008", "addr:state": "IL", "brand": "USPS", "collection_times": "Mo-Fr 16:15; Sa 15:15", "name": "USPS COLLECTION BOX - BLUE BOX", "note": "ON 12/24 AND 12/31, THIS BOX MAY BE COLLECTED AS EARLY AS 12 NOON.", "ref": "6100800041"}, "type": "Feature"}
{"geometry": {"coordinates": [-88.86344754, 42.274598938], "type": "Point"}, "id": "zFQ4lkl_ZP8g9fFZCcIG44TkEz4=", "properties": {"@spider": "usps_collection_boxes", "addr:city": "BELVIDERE", "addr:country": "US", "addr:full": "1800 DOC WOLF DR", "addr:postcode": "61008", "addr:state": "IL", "brand": "USPS", "collection_times": "Mo-Fr 17:00; Sa 16:00", "name": "USPS COLLECTION BOX - PO LOBBY", "note": "ON 12/24 AND 12/31, THIS BOX MAY BE COLLECTED AS EARLY AS 12 NOON.", "ref": "6100800045"}, "type": "Feature"}
{"geometry": {"coordinates": [-89.256026, 42.127091], "type": "Point"}, "id": "ZL2sqFDifILrhupwtKpPUONLELM=", "properties": {"@spider": "usps_collection_boxes", "addr:city": "BYRON", "addr:country": "US", "addr:full": "232 N UNION ST", "addr:postcode": "61010", "addr:state": "IL", "brand": "USPS", "collection_times": "Mo-Fr 17:00; Sa 12:00", "name": "USPS COLLECTION BOX - BLUE BOX", "note": "ON 12/24 AND 12/31, THIS BOX MAY BE COLLECTED AS EARLY AS 12 NOON.", "ref": "6101000001"}, "type": "Feature"}
{"geometry": {"coordinates": [-89.255988, 42.127061], "type": "Point"}, "id": "tRdvKypi8sXGLR-ihLYp7feYAp0=", "properties": {"@spider": "usps_collection_boxes", "addr:city": "BYRON", "addr:country": "US", "addr:full": "232 N UNION ST", "addr:postcode": "61010", "addr:state": "IL", "brand": "USPS", "collection_times": "Mo-Fr 17:00; Sa 12:00", "name": "USPS COLLECTION BOX - PO LOBBY", "note": "ON 12/24 AND 12/31, THIS BOX MAY BE COLLECTED AS EARLY AS 12 NOON.", "ref": "6101000004"}, "type": "Feature"}
{"geometry": {"coordinates": [-89.255988, 42.127061], "type": "Point"}, "id": "jvd_dspukPhoOROg-SxzDSAcjNM=", "properties": {"@spider": "usps_collection_boxes", "addr:city": "BYRON", "addr:country": "US", "addr:full": "232 N UNION ST", "addr:postcode": "61010", "addr:state": "IL", "brand": "USPS", "collection_times": "Mo-Fr 17:00; Sa 12:00", "name": "USPS COLLECTION BOX - PO LOBBY", "note": "ON 12/24 AND 12/31, THIS BOX MAY BE COLLECTED AS EARLY AS 12 NOON.", "ref": "6101000005"}, "type": "Feature"}
{"geometry": {"coordinates": [-89.255988, 42.127061], "type": "Point"}, "id": "1tYNAtNH0daCSUywOwk7kyigZvw=", "properties": {"@spider": "usps_collection_boxes", "addr:city": "BYRON", "addr:country": "US", "addr:full": "232 N UNION ST", "addr:postcode": "61010", "addr:state": "IL", "brand": "USPS", "collection_times": "Mo-Fr 17:00; Sa 12:00", "name": "USPS COLLECTION BOX - BLUE BOX", "note": "ON 12/24 AND 12/31, THIS BOX MAY BE COLLECTED AS EARLY AS 12 NOON.", "ref": "6101000006"}, "type": "Feature"}
{"geometry": {"coordinates": [-89.256050425, 42.12749613], "type": "Point"}, "id": "qDNBnWieWZ-9lirgsMpYYvQCtFg=", "properties": {"@spider": "usps_collection_boxes", "addr:city": "BYRON", "addr:country": "US", "addr:full": "232 N UNION ST", "addr:postcode": "61010", "addr:state": "IL", "brand": "USPS", "collection_times": "Mo-Fr 17:00; Sa 12:00", "name": "USPS COLLECTION BOX - PO LOBBY", "note": "ON 12/24 AND 12/31, THIS BOX MAY BE COLLECTED AS EARLY AS 12 NOON.", "ref": "6101000008"}, "type": "Feature"}
{"geometry": {"coordinates": [-88.899167, 42.370645], "type": "Point"}, "id": "EZB6bBXnaU00h2hxPtEhojC93eU=", "properties": {"@spider": "usps_collection_boxes", "addr:city": "CALEDONIA", "addr:country": "US", "addr:full": "2201 IL ROUTE 173", "addr:postcode": "61011", "addr:state": "IL", "brand": "USPS", "collection_times": "Mo-Fr 16:15; Sa 11:30", "name": "USPS COLLECTION BOX - BLUE BOX", "note": "ON 12/24 AND 12/31, THIS BOX MAY BE COLLECTED AS EARLY AS 12 NOON.", "ref": "6101100001"}, "type": "Feature"}
{"geometry": {"coordinates": [-88.89929, 42.370671], "type": "Point"}, "id": "yUGZWOyoyKzPXLEROOLma8GgSD0=", "properties": {"@spider": "usps_collection_boxes", "addr:city": "CALEDONIA", "addr:country": "US", "addr:full": "2201 IL ROUTE 173", "addr:postcode": "61011", "addr:state": "IL", "brand": "USPS", "collection_times": "Mo-Fr 16:15; Sa 11:30", "name": "USPS COLLECTION BOX - PO LOBBY", "note": "ON 12/24 AND 12/31, THIS BOX MAY BE COLLECTED AS EARLY AS 12 NOON.", "ref": "6101100002"}, "type": "Feature"}
{"geometry": {"coordinates": [-88.89929, 42.370671], "type": "Point"}, "id": "k7lmenj-T7GXixEsWLO8IqOhg-s=", "properties": {"@spider": "usps_collection_boxes", "addr:city": "CALEDONIA", "addr:country": "US", "addr:full": "2201 IL ROUTE 173", "addr:postcode": "61011", "addr:state": "IL", "brand": "USPS", "collection_times": "Mo-Fr 16:15; Sa 11:30", "name": "USPS COLLECTION BOX - PO LOBBY", "note": "ON 12/24 AND 12/31, THIS BOX MAY BE COLLECTED AS EARLY AS 12 NOON.", "ref": "6101100003"}, "type": "Feature"}
{"geometry": {"coordinates": [-88.896581665, 42.370674499], "type": "Point"}, "id": "iPhnv2A3AajWkMKg8DwYBf1ZOYY=", "properties": {"@spider": "usps_collection_boxes", "addr:city": "CALEDONIA", "addr:country": "US", "addr:full": "2201 IL ROUTE 173", "addr:postcode": "61011", "addr:state": "IL", "brand": "USPS", "collection_times": "Mo-Fr 16:15; Sa 11:30", "name": "USPS COLLECTION BOX - PO LOBBY", "note": "ON 12/24 AND 12/31, THIS BOX MAY BE COLLECTED AS EARLY AS 12 NOON.", "ref": "6101100004"}, "type": "Feature"}
{"geometry": {"coordinates": [-88.7411839, 42.3993], "type": "Point"}, "id": "DyhEPRvCFSzbIZUP-iX0NWhxinI=", "properties": {"@spider": "usps_collection_boxes", "addr:city": "CAPRON", "addr:country": "US", "addr:full": "120 W MAIN ST", "addr:postcode": "61012", "addr:state": "IL", "brand": "USPS", "collection_times": "Mo-Fr 14:45; Sa 11:30", "name": "USPS COLLECTION BOX - BLUE BOX", "note": "ON 12/24 AND 12/31, THIS BOX MAY BE COLLECTED AS EARLY AS 12 NOON.", "ref": "6101200001"}, "type": "Feature"}
{"geometry": {"coordinates": [-88.741196, 42.399191], "type": "Point"}, "id": "0ZBe9xRV1Qdpc-TpnjUjh8xPVLM=", "properties": {"@spider": "usps_collection_boxes", "addr:city": "CAPRON", "addr:country": "US", "addr:full": "120 W MAIN ST", "addr:postcode": "61012", "addr:state": "IL", "brand": "USPS", "collection_times": "Mo-Fr 14:45; Sa 11:30", "name": "USPS COLLECTION BOX - PO LOBBY", "note": "ON 12/24 AND 12/31, THIS BOX MAY BE COLLECTED AS EARLY AS 12 NOON.", "ref": "6101200002"}, "type": "Feature"}
{"geometry": {"coordinates": [-88.741196, 42.399191], "type": "Point"}, "id": "0Oz9-YqGIPvNWo1FmS9_I3EclWw=", "properties": {"@spider": "usps_collection_boxes", "addr:city": "CAPRON", "addr:country": "US", "addr:full": "120 W MAIN ST", "addr:postcode": "61012", "addr:state": "IL", "brand": "USPS", "collection_times": "Mo-Fr 14:45; Sa 11:30", "name": "USPS COLLECTION BOX - PO LOBBY", "note": "ON 12/24 AND 12/31, THIS BOX MAY BE COLLECTED AS EARLY AS 12 NOON.", "ref": "6101200003"}, "type": "Feature"}
{"geometry": {"coordinates": [-88.741093332, 42.399378547], "type": "Point"}, "id": "2JVdw-c3X57-H265IIt67NZ-pE4=", "properties": {"@spider": "usps_collection_boxes", "addr:city": "CAPRON", "addr:country": "US", "addr:full": "120 W MAIN ST", "addr:postcode": "61012", "addr:state": "IL", "brand": "USPS", "collection_times": "Mo-Fr 14:45; Sa 11:30", "name": "USPS COLLECTION BOX - PO LOBBY", "note": "ON 12/24 AND 12/31, THIS BOX MAY BE COLLECTED AS EARLY AS 12 NOON.", "ref": "6101200005"}, "type": "Feature"}
{"geometry": {"coordinates": [-89.634832, 42.374208], "type": "Point"}, "id": "LLMkeOX_X4L9KkR7-2rQEyQHsQI=", "properties": {"@spider": "usps_collection_boxes", "addr:city": "CEDARVILLE", "addr:country": "US", "addr:full": "125 W WASHINGTON ST", "addr:postcode": "61013", "addr:state": "IL", "brand": "USPS", "collection_times": "Mo-Fr 15:45; Sa 11:15", "name": "USPS COLLECTION BOX - BLUE BOX", "note": "ON 12/24 AND 12/31, THIS BOX MAY BE COLLECTED AS EARLY AS 12 NOON.", "ref": "6101300001"}, "type": "Feature"}
{"geometry": {"coordinates": [-89.634773, 42.374238], "type": "Point"}, "id": "VoRCKQBGEUMJyWgWmpFsH9SR87E=", "properties": {"@spider": "usps_collection_boxes", "addr:city": "CEDARVILLE", "addr:country": "US", "addr:full": "125 W WASHINGTON ST", "addr:postcode": "61013", "addr:state": "IL", "brand": "USPS", "collection_times": "Mo-Fr 15:45; Sa 11:15", "name": "USPS COLLECTION BOX - PO LOBBY", "note": "ON 12/24 AND 12/31, THIS BOX MAY BE COLLECTED AS EARLY AS 12 NOON.", "ref": "6101300002"}, "type": "Feature"}
{"geometry": {"coordinates": [-89.634773, 42.374238], "type": "Point"}, "id": "4CKyOgR68ypJfi4xhzlH0afzon0=", "properties": {"@spider": "usps_collection_boxes", "addr:city": "CEDARVILLE", "addr:country": "US", "addr:full": "125 W WASHINGTON ST", "addr:postcode": "61013", "addr:state": "IL", "brand": "USPS", "collection_times": "Mo-Fr 15:45; Sa 11:15", "name": "USPS COLLECTION BOX - PO LOBBY", "note": "ON 12/24 AND 12/31, THIS BOX MAY BE COLLECTED AS EARLY AS 12 NOON.", "ref": "6101300003"}, "type": "Feature"}
{"geometry": {"coordinates": [-89.634978775, 42.374195488], "type": "Point"}, "id": "iGG7bb2CrC0LSCV-4bwKrvdJRLc=", "properties": {"@spider": "usps_collection_boxes", "addr:city": "CEDARVILLE", "addr:country": "US", "addr:full": "125 W WASHINGTON ST", "addr:postcode": "61013", "addr:state": "IL", "brand": "USPS", "collection_times": "Mo-Fr 15:45; Sa 11:15", "name": "USPS COLLECTION BOX - PO LOBBY", "note": "ON 12/24 AND 12/31, THIS BOX MAY BE COLLECTED AS EARLY AS 12 NOON.", "ref": "6101300005"}, "type": "Feature"}
{"geometry": {"coordinates": [-89.890903, 42.013638], "type": "Point"}, "id": "Hw8j5wq3hkjiJYEo5oxMbREUtYs=", "properties": {"@spider": "usps_collection_boxes", "addr:city": "CHADWICK", "addr:country": "US", "addr:full": "218 N MAIN ST", "addr:postcode": "61014", "addr:state": "IL", "brand": "USPS", "collection_times": "Mo-Fr 16:00; Sa 11:00", "name": "USPS COLLECTION BOX - BLUE BOX", "note": "ON 12/24 AND 12/31, THIS BOX MAY BE COLLECTED AS EARLY AS 12 NOON.", "ref": "6101400001"}, "type": "Feature"}
{"geometry": {"coordinates": [-89.890868, 42.013581], "type": "Point"}, "id": "UcxHzOzhHZ2mtQF3K1qNBXhBuuM=", "properties": {"@spider": "usps_collection_boxes", "addr:city": "CHADWICK", "addr:country": "US", "addr:full": "218 N MAIN ST", "addr:postcode": "61014", "addr:state": "IL", "brand": "USPS", "collection_times": "Mo-Fr 16:00; Sa 11:00", "name": "USPS COLLECTION BOX - PO LOBBY", "note": "ON 12/24 AND 12/31, THIS BOX MAY BE COLLECTED AS EARLY AS 12 NOON.", "ref": "6101400002"}, "type": "Feature"}
{"geometry": {"coordinates": [-89.890868, 42.013581], "type": "Point"}, "id": "429vgWVRJJPuXK6zwblbFCLBCv8=", "properties": {"@spider": "usps_collection_boxes", "addr:city": "CHADWICK", "addr:country": "US", "addr:full": "218 N MAIN ST", "addr:postcode": "61014", "addr:state": "IL", "brand": "USPS", "collection_times": "Mo-Fr 16:00; Sa 11:00", "name": "USPS COLLECTION BOX - PO LOBBY", "note": "ON 12/24 AND 12/31, THIS BOX MAY BE COLLECTED AS EARLY AS 12 NOON.", "ref": "6101400003"}, "type": "Feature"}
{"geometry": {"coordinates": [-89.221526, 41.980132], "type": "Point"}, "id": "DyxtQlVTDTHp7-OfgKl8iYQe3tU=", "properties": {"@spider": "usps_collection_boxes", "addr:city": "CHANA", "addr:country": "US", "addr:full": "300 MAIN ST UNIT 0", "addr:postcode": "61015", "addr:state": "IL", "brand": "USPS", "collection_times": "Mo-Fr 16:15; Sa 12:00", "name": "USPS COLLECTION BOX - BLUE BOX", "note": "ON 12/24 AND 12/31, THIS BOX MAY BE COLLECTED AS EARLY AS 12 NOON.", "ref": "6101500001"}, "type": "Feature"}
{"geometry": {"coordinates": [-89.221539, 41.979992], "type": "Point"}, "id": "RNu_WtWoHjYOTIcueNfJ1zm0wp8=", "properties": {"@spider": "usps_collection_boxes", "addr:city": "CHANA", "addr:country": "US", "addr:full": "300 MAIN ST UNIT 0", "addr:postcode": "61015", "addr:state": "IL", "brand": "USPS", "collection_times": "Mo-Fr 16:15; Sa 12:00", "name": "USPS COLLECTION BOX - PO LOBBY", "note": "ON 12/24 AND 12/31, THIS BOX MAY BE COLLECTED AS EARLY AS 12 NOON.", "ref": "6101500002"}, "type": "Feature"}
{"geometry": {"coordinates": [-89.22153748, 41.979986864], "type": "Point"}, "id": "8mqVqAZKvyr8BP1FkSdq_S-TY5c=", "properties": {"@spider": "usps_collection_boxes", "addr:city": "CHANA", "addr:country": "US", "addr:full": "300 MAIN ST UNIT 0", "addr:postcode": "61015", "addr:state": "IL", "brand": "USPS", "collection_times": "Mo-Fr 16:15; Sa 12:00", "name": "USPS COLLECTION BOX - PO LOBBY", "note": "ON 12/24 AND 12/31, THIS BOX MAY BE COLLECTED AS EARLY AS 12 NOON.", "ref": "6101500004"}, "type": "Feature"}
{"geometry": {"coordinates": [-88.95257, 42.235399], "type": "Point"}, "id": "BlPf1nySDM-RXVvdS_Rw8qFkWOA=", "properties": {"@spider": "usps_collection_boxes", "addr:city": "CHERRY VALLEY", "addr:country": "US", "addr:full": "210 E STATE ST", "addr:postcode": "61016", "addr:state": "IL", "brand": "USPS", "collection_times": "Mo-Fr 16:45; Sa 11:45", "name": "USPS COLLECTION BOX - BLUE BOX", "note": "ON 12/24 AND 12/31, THIS BOX MAY BE COLLECTED AS EARLY AS 12 NOON.", "ref": "6101600001"}, "type": "Feature"}
{"geometry": {"coordinates": [-88.95257, 42.23537], "type": "Point"}, "id": "nRpCMUzBewxS-YdW_tHZmJ4CmCI=", "properties": {"@spider": "usps_collection_boxes", "addr:city": "CHERRY VALLEY", "addr:country": "US", "addr:full": "210 E STATE ST", "addr:postcode": "61016", "addr:state": "IL", "brand": "USPS", "collection_times": "Mo-Fr 16:45; Sa 11:45", "name": "USPS COLLECTION BOX - PO LOBBY", "note": "ON 12/24 AND 12/31, THIS BOX MAY BE COLLECTED AS EARLY AS 12 NOON.", "ref": "6101600002"}, "type": "Feature"}
{"geometry": {"coordinates": [-88.952315894, 42.235319932], "type": "Point"}, "id": "b4Xn-daqCUWn7RPqRGmGyvdSE5Q=", "properties": {"@spider": "usps_collection_boxes", "addr:city": "CHERRY VALLEY", "addr:country": "US", "addr:full": "210 E STATE ST", "addr:postcode": "61016", "addr:state": "IL", "brand": "USPS", "collection_times": "Mo-Fr 16:45; Sa 11:45", "name": "USPS COLLECTION BOX - PO LOBBY", "note": "ON 12/24 AND 12/31, THIS BOX MAY BE COLLECTED AS EARLY AS 12 NOON.", "ref": "6101600003"}, "type": "Feature"}
{"geometry": {"coordinates": [-89.525801, 42.388813], "type": "Point"}, "id": "iEybgJeRkwS9Jd57D4BoEln68KA=", "properties": {"@spider": "usps_collection_boxes", "addr:city": "DAKOTA", "addr:country": "US", "addr:full": "139 W MAIN ST", "addr:postcode": "61018", "addr:state": "IL", "brand": "USPS", "collection_times": "Mo-Sa 11:15", "name": "USPS COLLECTION BOX - BLUE BOX", "ref": "6101800001"}, "type": "Feature"}
{"geometry": {"coordinates": [-89.525768, 42.38884], "type": "Point"}, "id": "hOpUHlNBRynWabifqHvL7A7l8tk=", "properties": {"@spider": "usps_collection_boxes", "addr:city": "DAKOTA", "addr:country": "US", "addr:full": "139 W MAIN ST", "addr:postcode": "61018", "addr:state": "IL", "brand": "USPS", "collection_times": "Mo-Sa 11:15", "name": "USPS COLLECTION BOX - PO LOBBY", "ref": "6101800003"}, "type": "Feature"}
{"geometry": {"coordinates": [-89.526204, 42.388812547], "type": "Point"}, "id": "8AdU-mWj3rN9jJ8TJYgd_aCbcas=", "properties": {"@spider": "usps_collection_boxes", "addr:city": "DAKOTA", "addr:country": "US", "addr:full": "139 W MAIN ST", "addr:postcode": "61018", "addr:state": "IL", "brand": "USPS", "collection_times": "Mo-Sa 11:15", "name": "USPS COLLECTION BOX - PO LOBBY", "ref": "6101800005"}, "type": "Feature"}
{"geometry": {"coordinates": [-89.41398, 42.421991], "type": "Point"}, "id": "hP4WGq2xTC8q-ZZJh3HmOGXJ8-A=", "properties": {"@spider": "usps_collection_boxes", "addr:city": "DAVIS", "addr:country": "US", "addr:full": "420 N STANTON ST", "addr:postcode": "61019", "addr:state": "IL", "brand": "USPS", "collection_times": "Mo-Fr 16:45; Sa 11:30", "name": "USPS COLLECTION BOX - BLUE BOX", "note": "ON 12/24 AND 12/31, THIS BOX MAY BE COLLECTED AS EARLY AS 12 NOON.", "ref": "6101900001"}, "type": "Feature"}
{"geometry": {"coordinates": [-89.3810161, 42.454517], "type": "Point"}, "id": "euNDfTaucwLRh39oainzs0tESNk=", "properties": {"@spider": "usps_collection_boxes", "addr:city": "DAVIS", "addr:country": "US", "addr:full": "13965 BEST RD", "addr:postcode": "61019", "addr:state": "IL", "brand": "USPS", "collection_times": "Mo-Sa 13:00", "name": "USPS COLLECTION BOX - BLUE BOX", "note": "ON 12/24 AND 12/31, THIS BOX MAY BE COLLECTED AS EARLY AS 12 NOON.", "ref": "6101900002"}, "type": "Feature"}
{"geometry": {"coordinates": [-89.413941, 42.421939], "type": "Point"}, "id": "PzeaG1hVflfpIW8EjJf_9dFNMfE=", "properties": {"@spider": "usps_collection_boxes", "addr:city": "DAVIS", "addr:country": "US", "addr:full": "420 N STANTON ST", "addr:postcode": "61019", "addr:state": "IL", "brand": "USPS", "collection_times": "Mo-Fr 16:45; Sa 11:30", "name": "USPS COLLECTION BOX - PO LOBBY", "note": "ON 12/24 AND 12/31, THIS BOX MAY BE COLLECTED AS EARLY AS 12 NOON.", "ref": "6101900003"}, "type": "Feature"}
{"geometry": {"coordinates": [-89.4174317, 42.418972], "type": "Point"}, "id": "mQFFKRYu73dKHUW9-Wy8EkJRZTw=", "properties": {"@spider": "usps_collection_boxes", "addr:city": "DAVIS", "addr:country": "US", "addr:full": "100 IL ROUTE 75 E", "addr:postcode": "61019", "addr:state": "IL", "brand": "USPS", "collection_times": "Mo-Sa 13:00", "name": "USPS COLLECTION BOX - BLUE BOX", "note": "ON 12/24 AND 12/31, THIS BOX MAY BE COLLECTED AS EARLY AS 12 NOON.", "ref": "6101900004"}, "type": "Feature"}
{"geometry": {"coordinates": [-89.413989253, 42.422562], "type": "Point"}, "id": "RwVrHujTSbFoPYUWkBvPcl3TG7E=", "properties": {"@spider": "usps_collection_boxes", "addr:city": "DAVIS", "addr:country": "US", "addr:full": "420 N STANTON ST", "addr:postcode": "61019", "addr:state": "IL", "brand": "USPS", "collection_times": "Mo-Fr 16:45; Sa 11:30", "name": "USPS COLLECTION BOX - PO LOBBY", "note": "ON 12/24 AND 12/31, THIS BOX MAY BE COLLECTED AS EARLY AS 12 NOON.", "ref": "6101900006"}, "type": "Feature"}
{"geometry": {"coordinates": [-89.099647, 42.101401], "type": "Point"}, "id": "0yCyRuXxxJgJh_UXUeNglnZQ5sU=", "properties": {"@spider": "usps_collection_boxes", "addr:city": "DAVIS JUNCTION", "addr:country": "US", "addr:full": "402 W CHICAGO AVE", "addr:postcode": "61020", "addr:state": "IL", "brand": "USPS", "collection_times": "Mo-Fr 15:00; Sa 11:30", "name": "USPS COLLECTION BOX - BLUE BOX", "note": "ON 12/24 AND 12/31, THIS BOX MAY BE COLLECTED AS EARLY AS 12 NOON.", "ref": "6102000001"}, "type": "Feature"}
{"geometry": {"coordinates": [-89.099768, 42.101374], "type": "Point"}, "id": "7Hy6EgnUgon-rqeOyKbdUNcw938=", "properties": {"@spider": "usps_collection_boxes", "addr:city": "DAVIS JUNCTION", "addr:country": "US", "addr:full": "402 W CHICAGO AVE", "addr:postcode": "61020", "addr:state": "IL", "brand": "USPS", "collection_times": "Mo-Fr 15:00; Sa 11:30", "name": "USPS COLLECTION BOX - PO LOBBY", "note": "ON 12/24 AND 12/31, THIS BOX MAY BE COLLECTED AS EARLY AS 12 NOON.", "ref": "6102000002"}, "type": "Feature"}
{"geometry": {"coordinates": [-89.099085257, 42.10129298], "type": "Point"}, "id": "ZnFclAhUhPuz4R4DLdnPQ4d2kW0=", "properties": {"@spider": "usps_collection_boxes", "addr:city": "DAVIS JUNCTION", "addr:country": "US", "addr:full": "402 W CHICAGO AVE", "addr:postcode": "61020", "addr:state": "IL", "brand": "USPS", "collection_times": "Mo-Fr 15:00; Sa 11:30", "name": "USPS COLLECTION BOX - PO LOBBY", "note": "ON 12/24 AND 12/31, THIS BOX MAY BE COLLECTED AS EARLY AS 12 NOON.", "ref": "6102000004"}, "type": "Feature"}
{"geometry": {"coordinates": [-89.5043599, 41.848193], "type": "Point"}, "id": "YEjy5iCJPuOoVtzP-t95OZe3cVw=", "properties": {"@spider": "usps_collection_boxes", "addr:city": "DIXON", "addr:country": "US", "addr:full": "666 VETERANS PKWY", "addr:postcode": "61021", "addr:state": "IL", "brand": "USPS", "collection_times": "Mo-Sa 16:15", "name": "USPS COLLECTION BOX - BLUE BOX", "note": "ON 12/24 AND 12/31, THIS BOX MAY BE COLLECTED AS EARLY AS 12 NOON.", "ref": "6102100002"}, "type": "Feature"}
{"geometry": {"coordinates": [-89.4980455, 41.863704], "type": "Point"}, "id": "5Qqn0TzCoVHgnkHv4TyiXijizMs=", "properties": {"@spider": "usps_collection_boxes", "addr:city": "DIXON", "addr:country": "US", "addr:full": "1380 N GALENA AVE", "addr:postcode": "61021", "addr:state": "IL", "brand": "USPS", "collection_times": "Mo-Sa 16:30", "name": "USPS COLLECTION BOX - BLUE BOX", "note": "ON 12/24 AND 12/31, THIS BOX MAY BE COLLECTED AS EARLY AS 12 NOON.", "ref": "6102100003"}, "type": "Feature"}
{"geometry": {"coordinates": [-89.4874847, 41.858017], "type": "Point"}, "id": "omVFfj-ruqTUmCqe354lolAGDX8=", "properties": {"@spider": "usps_collection_boxes", "addr:city": "DIXON", "addr:country": "US", "addr:full": "144 N COURT ST", "addr:postcode": "61021", "addr:state": "IL", "brand": "USPS", "collection_times": "Mo-Sa 16:30", "name": "USPS COLLECTION BOX - BLUE BOX", "note": "ON 12/24 AND 12/31, THIS BOX MAY BE COLLECTED AS EARLY AS 12 NOON.", "ref": "6102100004"}, "type": "Feature"}
{"geometry": {"coordinates": [-89.4834845, 41.848898], "type": "Point"}, "id": "m_JqJbjlOVmgdm7qWTCOYKiF-y0=", "properties": {"@spider": "usps_collection_boxes", "addr:city": "DIXON", "addr:country": "US", "addr:full": "207 EVERETT ST", "addr:postcode": "61021", "addr:state": "IL", "brand": "USPS", "collection_times": "Mo-Sa 16:30", "name": "USPS COLLECTION BOX - BLUE BOX", "note": "ON 12/24 AND 12/31, THIS BOX MAY BE COLLECTED AS EARLY AS 12 NOON.", "ref": "6102100005"}, "type": "Feature"}
{"geometry": {"coordinates": [-89.486589, 41.848971], "type": "Point"}, "id": "kfPB6gO2C7LXyymc-7VFCkgnre0=", "properties": {"@spider": "usps_collection_boxes", "addr:city": "DIXON", "addr:country": "US", "addr:full": "204 LINCOLN WAY", "addr:postcode": "61021", "addr:state": "IL", "brand": "USPS", "collection_times": "Mo-Sa 16:30", "name": "USPS COLLECTION BOX - BLUE BOX", "note": "ON 12/24 AND 12/31, THIS BOX MAY BE COLLECTED AS EARLY AS 12 NOON.", "ref": "6102100006"}, "type": "Feature"}
{"geometry": {"coordinates": [-89.4789481, 41.844517], "type": "Point"}, "id": "8fWJJANgBeQJEdZf2D6aDoAzuVY=", "properties": {"@spider": "usps_collection_boxes", "addr:city": "DIXON", "addr:country": "US", "addr:full": "403 E 1ST ST", "addr:postcode": "61021", "addr:state": "IL", "brand": "USPS", "collection_times": "Mo-Sa 16:45", "name": "USPS COLLECTION BOX - BLUE BOX", "note": "ON 12/24 AND 12/31, THIS BOX MAY BE COLLECTED AS EARLY AS 12 NOON.", "ref": "6102100007"}, "type": "Feature"}
{"geometry": {"coordinates": [-89.4805751, 41.844082], "type": "Point"}, "id": "piDt9CK3nnckNgjZaudzGpxg3pw=", "properties": {"@spider": "usps_collection_boxes", "addr:city": "DIXON", "addr:country": "US", "addr:full": "215 E 1ST ST", "addr:postcode": "61021", "addr:state": "IL", "brand": "USPS", "collection_times": "Mo-Sa 16:45", "name": "USPS COLLECTION BOX - BLUE BOX", "note": "ON 12/24 AND 12/31, THIS BOX MAY BE COLLECTED AS EARLY AS 12 NOON.", "ref": "6102100008"}, "type": "Feature"}
{"geometry": {"coordinates": [-89.4828346, 41.843561], "type": "Point"}, "id": "oxuTX0rES1_iLqvf9AC5fZ5ayyk=", "properties": {"@spider": "usps_collection_boxes", "addr:city": "DIXON", "addr:country": "US", "addr:full": "101 W 1ST ST", "addr:postcode": "61021", "addr:state": "IL", "brand": "USPS", "collection_times": "Mo-Sa 16:45", "name": "USPS COLLECTION BOX - BLUE BOX", "note": "ON 12/24 AND 12/31, THIS BOX MAY BE COLLECTED AS EARLY AS 12 NOON.", "ref": "6102100009"}, "type": "Feature"}
{"geometry": {"coordinates": [-89.4811381, 41.841961], "type": "Point"}, "id": "uVkZv-XrlxeQ0f1UiUJmNMVqq_g=", "properties": {"@spider": "usps_collection_boxes", "addr:city": "DIXON", "addr:country": "US", "addr:full": "113 E 3RD ST", "addr:postcode": "61021", "addr:state": "IL", "brand": "USPS", "collection_times": "Mo-Sa 17:00", "name": "USPS COLLECTION BOX - BLUE BOX", "note": "ON 12/24 AND 12/31, THIS BOX MAY BE COLLECTED AS EARLY AS 12 NOON.", "ref": "6102100010"}, "type": "Feature"}
{"geometry": {"coordinates": [-89.486228, 41.841887], "type": "Point"}, "id": "chWDJlFFkZOd3LbTAuyrFIe-h3E=", "properties": {"@spider": "usps_collection_boxes", "addr:city": "DIXON", "addr:country": "US", "addr:full": "405 W 2ND ST", "addr:postcode": "61021", "addr:state": "IL", "brand": "USPS", "collection_times": "Mo-Sa 17:15", "name": "USPS COLLECTION BOX - BLUE BOX", "note": "ON 12/24 AND 12/31, THIS BOX MAY BE COLLECTED AS EARLY AS 12 NOON.", "ref": "6102100013"}, "type": "Feature"}
{"geometry": {"coordinates": [-89.487001, 41.841854], "type": "Point"}, "id": "SRt3_tj1QQQXlyHnjfWEt8USAmc=", "properties": {"@spider": "usps_collection_boxes", "addr:city": "DIXON", "addr:country": "US", "addr:full": "405 W 2ND ST", "addr:postcode": "61021", "addr:state": "IL", "brand": "USPS", "collection_times": "Mo-Sa 17:15", "name": "USPS COLLECTION BOX - BLUE BOX", "note": "ON 12/24 AND 12/31, THIS BOX MAY BE COLLECTED AS EARLY AS 12 NOON.", "ref": "6102100014"}, "type": "Feature"}
{"geometry": {"coordinates": [-89.486266, 41.841838], "type": "Point"}, "id": "JssGJj4IlyFgAKdbS2GTnVxB4wU=", "properties": {"@spider": "usps_collection_boxes", "addr:city": "DIXON", "addr:country": "US", "addr:full": "405 W 2ND ST", "addr:postcode": "61021", "addr:state": "IL", "brand": "USPS", "collection_times": "Mo-Sa 17:15", "name": "USPS COLLECTION BOX - BLUE BOX", "note": "ON 12/24 AND 12/31, THIS BOX MAY BE COLLECTED AS EARLY AS 12 NOON.", "ref": "6102100015"}, "type": "Feature"}
{"geometry": {"coordinates": [-89.4767278, 41.83784], "type": "Point"}, "id": "wh0xfv8xC7xjNIBGwjm2fFe-XcA=", "properties": {"@spider": "usps_collection_boxes", "addr:city": "DIXON", "addr:country": "US", "addr:full": "728 CRAWFORD AVE", "addr:postcode": "61021", "addr:state": "IL", "brand": "USPS", "collection_times": "Mo-Sa 13:30", "name": "USPS COLLECTION BOX - BLUE BOX", "note": "ON 12/24 AND 12/31, THIS BOX MAY BE COLLECTED AS EARLY AS 12 NOON.", "ref": "6102100017"}, "type": "Feature"}
{"geometry": {"coordinates": [-89.4845594, 41.854782], "type": "Point"}, "id": "UFd9ohY7qAqgMg8SrxJBBoemejk=", "properties": {"@spider": "usps_collection_boxes", "addr:city": "DIXON", "addr:country": "US", "addr:full": "748 N BRINTON AVE", "addr:postcode": "61021", "addr:state": "IL", "brand": "USPS", "collection_times": "Mo-Sa 13:30", "name": "USPS COLLECTION BOX - BLUE BOX", "note": "ON 12/24 AND 12/31, THIS BOX MAY BE COLLECTED AS EARLY AS 12 NOON.", "ref": "6102100018"}, "type": "Feature"}
{"geometry": {"coordinates": [-89.487001, 41.841854], "type": "Point"}, "id": "ul8Nt8KqEIWvTlOMj0K7iVYrMFM=", "properties": {"@spider": "usps_collection_boxes", "addr:city": "DIXON", "addr:country": "US", "addr:full": "405 W 2ND ST", "addr:postcode": "61021", "addr:state": "IL", "brand": "USPS", "collection_times": "Mo-Sa 17:15", "name": "USPS COLLECTION BOX - PO LOBBY", "note": "ON 12/24 AND 12/31, THIS BOX MAY BE COLLECTED AS EARLY AS 12 NOON.", "ref": "6102100020"}, "type": "Feature"}
{"geometry": {"coordinates": [-89.487001, 41.841854], "type": "Point"}, "id": "TJHMuYAyWzPqmNnhneTKlUbCQww=", "properties": {"@spider": "usps_collection_boxes", "addr:city": "DIXON", "addr:country": "US", "addr:full": "405 W 2ND ST", "addr:postcode": "61021", "addr:state": "IL", "brand": "USPS", "collection_times": "Mo-Sa 17:15", "name": "USPS COLLECTION BOX - PO LOBBY", "note": "ON 12/24 AND 12/31, THIS BOX MAY BE COLLECTED AS EARLY AS 12 NOON.", "ref": "6102100021"}, "type": "Feature"}
{"geometry": {"coordinates": [-89.4820874, 41.840838], "type": "Point"}, "id": "6zZandtCaIsD56SxHevfaKYKq7Y=", "properties": {"@spider": "usps_collection_boxes", "addr:city": "DIXON", "addr:country": "US", "addr:full": "309 S GALENA AVE", "addr:postcode": "61021", "addr:state": "IL", "brand": "USPS", "collection_times": "Mo-Sa 17:00", "name": "USPS COLLECTION BOX - BLUE BOX", "note": "ON 12/24 AND 12/31, THIS BOX MAY BE COLLECTED AS EARLY AS 12 NOON.", "ref": "6102100022"}, "type": "Feature"}
{"geometry": {"coordinates": [-89.4725174, 41.827188], "type": "Point"}, "id": "G6L0GkAe23Jln3B092o8yTFXKzk=", "properties": {"@spider": "usps_collection_boxes", "addr:city": "DIXON", "addr:country": "US", "addr:full": "1640 S GALENA AVE", "addr:postcode": "61021", "addr:state": "IL", "brand": "USPS", "collection_times": "Mo-Sa 10:00", "name": "USPS COLLECTION BOX - BLUE BOX", "ref": "6102100023"}, "type": "Feature"}
{"geometry": {"coordinates": [-89.4611239, 41.834983], "type": "Point"}, "id": "Lb6WuiGBFxUp-Bf1q7bgYV0tVHo=", "properties": {"@spider": "usps_collection_boxes", "addr:city": "DIXON", "addr:country": "US", "addr:full": "1012 CARONDELET RD", "addr:postcode": "61021", "addr:state": "IL", "brand": "USPS", "collection_times": "Mo-Sa 09:30", "name": "USPS COLLECTION BOX - BLUE BOX", "ref": "6102100024"}, "type": "Feature"}
{"geometry": {"coordinates": [-89.486526677, 41.841650041], "type": "Point"}, "id": "2XxV92YVhsgnH8OYuSSRWIp09D4=", "properties": {"@spider": "usps_collection_boxes", "addr:city": "DIXON", "addr:country": "US", "addr:full": "405 W 2ND ST", "addr:postcode": "61021", "addr:state": "IL", "brand": "USPS", "collection_times": "Mo-Sa 17:15", "name": "USPS COLLECTION BOX - PO LOBBY", "note": "ON 12/24 AND 12/31, THIS BOX MAY BE COLLECTED AS EARLY AS 12 NOON.", "ref": "6102100026"}, "type": "Feature"}
{"geometry": {"coordinates": [-89.331796, 42.434457], "type": "Point"}, "id": "WyICSQGBPZWFkmQ7_zIXbhcp9LM=", "properties": {"@spider": "usps_collection_boxes", "addr:city": "DURAND", "addr:country": "US", "addr:full": "211 N CENTER ST", "addr:postcode": "61024", "addr:state": "IL", "brand": "USPS", "collection_times": "Mo-Fr 16:30; Sa 11:45", "name": "USPS COLLECTION BOX - BLUE BOX", "note": "ON 12/24 AND 12/31, THIS BOX MAY BE COLLECTED AS EARLY AS 12 NOON.", "ref": "6102400001"}, "type": "Feature"}
{"geometry": {"coordinates": [-89.331832, 42.434385], "type": "Point"}, "id": "erIKPnhF7FARhAGHBtQbIHoXaVw=", "properties": {"@spider": "usps_collection_boxes", "addr:city": "DURAND", "addr:country": "US", "addr:full": "211 N CENTER ST", "addr:postcode": "61024", "addr:state": "IL", "brand": "USPS", "collection_times": "Mo-Fr 16:30; Sa 11:45", "name": "USPS COLLECTION BOX - PO LOBBY", "note": "ON 12/24 AND 12/31, THIS BOX MAY BE COLLECTED AS EARLY AS 12 NOON.", "ref": "6102400002"}, "type": "Feature"}
{"geometry": {"coordinates": [-89.3323442, 42.428262], "type": "Point"}, "id": "9ACmxnAVd2ZJd2Wu0A1VB7nzN7I=", "properties": {"@spider": "usps_collection_boxes", "addr:city": "DURAND", "addr:country": "US", "addr:full": "502 S CENTER ST", "addr:postcode": "61024", "addr:state": "IL", "brand": "USPS", "collection_times": "Mo-Sa 10:45", "name": "USPS COLLECTION BOX - BLUE BOX", "ref": "6102400004"}, "type": "Feature"}
{"geometry": {"coordinates": [-89.33177522, 42.434426752], "type": "Point"}, "id": "JLFte5hGLCdLvQuLDvGSbRzKbYQ=", "properties": {"@spider": "usps_collection_boxes", "addr:city": "DURAND", "addr:country": "US", "addr:full": "211 N CENTER ST", "addr:postcode": "61024", "addr:state": "IL", "brand": "USPS", "collection_times": "Mo-Fr 16:30; Sa 11:45", "name": "USPS COLLECTION BOX - PO LOBBY", "note": "ON 12/24 AND 12/31, THIS BOX MAY BE COLLECTED AS EARLY AS 12 NOON.", "ref": "6102400005"}, "type": "Feature"}
{"geometry": {"coordinates": [-90.6418031, 42.492598], "type": "Point"}, "id": "XHKjBCkvNyt47PLyNpn9WHfAwAs=", "properties": {"@spider": "usps_collection_boxes", "addr:city": "EAST DUBUQUE", "addr:country": "US", "addr:full": "122 WISCONSIN AVE", "addr:postcode": "61025", "addr:state": "IL", "brand": "USPS", "collection_times": "Mo-Sa 10:00", "name": "USPS COLLECTION BOX - BLUE BOX", "ref": "6102500007"}, "type": "Feature"}
{"geometry": {"coordinates": [-90.644309, 42.492502], "type": "Point"}, "id": "ahBJGCBHKrWQLvzV-tDVIeE6LQk=", "properties": {"@spider": "usps_collection_boxes", "addr:city": "EAST DUBUQUE", "addr:country": "US", "addr:full": "200 WALL ST", "addr:postcode": "61025", "addr:state": "IL", "brand": "USPS", "collection_times": "Mo-Fr 16:15; Sa 12:00", "name": "USPS COLLECTION BOX - PO LOBBY", "note": "ON 12/24 AND 12/31, THIS BOX MAY BE COLLECTED AS EARLY AS 12 NOON.", "ref": "6102500009"}, "type": "Feature"}
{"geometry": {"coordinates": [-90.644379, 42.49258], "type": "Point"}, "id": "wW1hiL94sLcKXhZN-C-AN_LPe6s=", "properties": {"@spider": "usps_collection_boxes", "addr:city": "EAST DUBUQUE", "addr:country": "US", "addr:full": "200 WALL ST", "addr:postcode": "61025", "addr:state": "IL", "brand": "USPS", "collection_times": "Mo-Fr 16:15; Sa 12:00", "name": "USPS COLLECTION BOX - PO LOBBY", "note": "ON 12/24 AND 12/31, THIS BOX MAY BE COLLECTED AS EARLY AS 12 NOON.", "ref": "6102500010"}, "type": "Feature"}
{"geometry": {"coordinates": [-90.644379, 42.49258], "type": "Point"}, "id": "XF02qu89253dGyYnVfgtxBfAoyE=", "properties": {"@spider": "usps_collection_boxes", "addr:city": "EAST DUBUQUE", "addr:country": "US", "addr:full": "200 WALL ST", "addr:postcode": "61025", "addr:state": "IL", "brand": "USPS", "collection_times": "Mo-Fr 16:15; Sa 12:00", "name": "USPS COLLECTION BOX - BLUE BOX", "note": "ON 12/24 AND 12/31, THIS BOX MAY BE COLLECTED AS EARLY AS 12 NOON.", "ref": "6102500011"}, "type": "Feature"}
{"geometry": {"coordinates": [-90.6306864, 42.487768], "type": "Point"}, "id": "3lgFJfTK5AuS6xBEGoxdIbamTUw=", "properties": {"@spider": "usps_collection_boxes", "addr:city": "EAST DUBUQUE", "addr:country": "US", "addr:full": "7796 TIMMERMAN DR", "addr:postcode": "61025", "addr:state": "IL", "brand": "USPS", "collection_times": "Mo-Sa 09:00", "name": "USPS COLLECTION BOX - BLUE BOX", "ref": "6102500012"}, "type": "Feature"}
{"geometry": {"coordinates": [-90.6443853802, 42.4924677039], "type": "Point"}, "id": "0iPGPa0sBv0QW-U4YOt3OaS15aI=", "properties": {"@spider": "usps_collection_boxes", "addr:city": "EAST DUBUQUE", "addr:country": "US", "addr:full": "200 WALL ST", "addr:postcode": "61025", "addr:state": "IL", "brand": "USPS", "collection_times": "Mo-Fr 16:15; Sa 12:00", "name": "USPS COLLECTION BOX - PO LOBBY", "note": "ON 12/24 AND 12/31, THIS BOX MAY BE COLLECTED AS EARLY AS 12 NOON.", "ref": "6102500013"}, "type": "Feature"}
{"geometry": {"coordinates": [-89.760595, 42.333206], "type": "Point"}, "id": "zBrE02wK_bVXzyIwARXld_P7pLU=", "properties": {"@spider": "usps_collection_boxes", "addr:city": "ELEROY", "addr:country": "US", "addr:full": "316 N BRIDGE ST", "addr:postcode": "61027", "addr:state": "IL", "brand": "USPS", "collection_times": "Mo-Sa 10:15", "name": "USPS COLLECTION BOX - BLUE BOX", "ref": "6102700001"}, "type": "Feature"}
{"geometry": {"coordinates": [-89.760586, 42.33314], "type": "Point"}, "id": "u4hRiKcmwdpoLcDKkeFSm5pOVdc=", "properties": {"@spider": "usps_collection_boxes", "addr:city": "ELEROY", "addr:country": "US", "addr:full": "316 N BRIDGE ST", "addr:postcode": "61027", "addr:state": "IL", "brand": "USPS", "collection_times": "Mo-Sa 10:15", "name": "USPS COLLECTION BOX - PO LOBBY", "ref": "6102700002"}, "type": "Feature"}
{"geometry": {"coordinates": [-89.7604157241, 42.3336062931], "type": "Point"}, "id": "IzgfyVS2Upabzx4IRStTALfSSGI=", "properties": {"@spider": "usps_collection_boxes", "addr:city": "ELEROY", "addr:country": "US", "addr:full": "316 N BRIDGE ST", "addr:postcode": "61027", "addr:state": "IL", "brand": "USPS", "collection_times": "Mo-Sa 10:15", "name": "USPS COLLECTION BOX - PO LOBBY", "ref": "6102700003"}, "type": "Feature"}
{"geometry": {"coordinates": [-90.22357, 42.317011], "type": "Point"}, "id": "TSnvB5F-RwcZCj7P8e0ZLrxE7II=", "properties": {"@spider": "usps_collection_boxes", "addr:city": "ELIZABETH", "addr:country": "US", "addr:full": "102 E MYRTLE ST", "addr:postcode": "61028", "addr:state": "IL", "brand": "USPS", "collection_times": "Mo-Fr 16:00; Sa 11:45", "name": "USPS COLLECTION BOX - BLUE BOX", "note": "ON 12/24 AND 12/31, THIS BOX MAY BE COLLECTED AS EARLY AS 12 NOON.", "ref": "6102800002"}, "type": "Feature"}
{"geometry": {"coordinates": [-90.22366, 42.31695], "type": "Point"}, "id": "HChgUumQ0aIQOeB7nfxBLM1w4zo=", "properties": {"@spider": "usps_collection_boxes", "addr:city": "ELIZABETH", "addr:country": "US", "addr:full": "102 E MYRTLE ST", "addr:postcode": "61028", "addr:state": "IL", "brand": "USPS", "collection_times": "Mo-Fr 16:00; Sa 11:45", "name": "USPS COLLECTION BOX - PO LOBBY", "note": "ON 12/24 AND 12/31, THIS BOX MAY BE COLLECTED AS EARLY AS 12 NOON.", "ref": "6102800003"}, "type": "Feature"}
{"geometry": {"coordinates": [-90.223620674, 42.317041161], "type": "Point"}, "id": "cPlEA1xKJ84hJNE7GYD5cjwLqpI=", "properties": {"@spider": "usps_collection_boxes", "addr:city": "ELIZABETH", "addr:country": "US", "addr:full": "102 E MYRTLE ST", "addr:postcode": "61028", "addr:state": "IL", "brand": "USPS", "collection_times": "Mo-Fr 16:00; Sa 11:45", "name": "USPS COLLECTION BOX - PO LOBBY", "note": "ON 12/24 AND 12/31, THIS BOX MAY BE COLLECTED AS EARLY AS 12 NOON.", "ref": "6102800004"}, "type": "Feature"}
{"geometry": {"coordinates": [-89.57833, 42.126366], "type": "Point"}, "id": "6KJj3Ihpeuqyn5CW-NTVs91iXPc=", "properties": {"@spider": "usps_collection_boxes", "addr:city": "FORRESTON", "addr:country": "US", "addr:full": "210 E MAIN ST", "addr:postcode": "61030", "addr:state": "IL", "brand": "USPS", "collection_times": "Mo-Fr 16:30; Sa 11:45", "name": "USPS COLLECTION BOX - BLUE BOX", "note": "ON 12/24 AND 12/31, THIS BOX MAY BE COLLECTED AS EARLY AS 12 NOON.", "ref": "6103000001"}, "type": "Feature"}
{"geometry": {"coordinates": [-89.57833, 42.126366], "type": "Point"}, "id": "qstGFg12UMhU3ydeJCVYBkLwP5s=", "properties": {"@spider": "usps_collection_boxes", "addr:city": "FORRESTON", "addr:country": "US", "addr:full": "210 E MAIN ST", "addr:postcode": "61030", "addr:state": "IL", "brand": "USPS", "collection_times": "Mo-Fr 16:30; Sa 11:45", "name": "USPS COLLECTION BOX - PO LOBBY", "note": "ON 12/24 AND 12/31, THIS BOX MAY BE COLLECTED AS EARLY AS 12 NOON.", "ref": "6103000002"}, "type": "Feature"}
{"geometry": {"coordinates": [-89.57833, 42.126366], "type": "Point"}, "id": "XqVDFIaZeMR9S-4GVHf-0ZylGL0=", "properties": {"@spider": "usps_collection_boxes", "addr:city": "FORRESTON", "addr:country": "US", "addr:full": "210 E MAIN ST", "addr:postcode": "61030", "addr:state": "IL", "brand": "USPS", "collection_times": "Mo-Fr 16:30; Sa 11:45", "name": "USPS COLLECTION BOX - PO LOBBY", "note": "ON 12/24 AND 12/31, THIS BOX MAY BE COLLECTED AS EARLY AS 12 NOON.", "ref": "6103000003"}, "type": "Feature"}
{"geometry": {"coordinates": [-89.578306178, 42.126447295], "type": "Point"}, "id": "EgIz9ebLWLxxoLSZxxVIMuZY7wo=", "properties": {"@spider": "usps_collection_boxes", "addr:city": "FORRESTON", "addr:country": "US", "addr:full": "210 E MAIN ST", "addr:postcode": "61030", "addr:state": "IL", "brand": "USPS", "collection_times": "Mo-Fr 16:30; Sa 11:45", "name": "USPS COLLECTION BOX - PO LOBBY", "note": "ON 12/24 AND 12/31, THIS BOX MAY BE COLLECTED AS EARLY AS 12 NOON.", "ref": "6103000005"}, "type": "Feature"}
{"geometry": {"coordinates": [-89.29952, 41.839459], "type": "Point"}, "id": "6xZD4x8LkU1C0-KbZwDJY03NQH4=", "properties": {"@spider": "usps_collection_boxes", "addr:city": "FRANKLIN GROVE", "addr:country": "US", "addr:full": "113 S ELM ST", "addr:postcode": "61031", "addr:state": "IL", "brand": "USPS", "collection_times": "Mo-Fr 13:45; Sa 11:00", "name": "USPS COLLECTION BOX - BLUE BOX", "note": "ON 12/24 AND 12/31, THIS BOX MAY BE COLLECTED AS EARLY AS 12 NOON.", "ref": "6103100001"}, "type": "Feature"}
{"geometry": {"coordinates": [-89.299484, 41.839447], "type": "Point"}, "id": "eGmQ_dULTDDwu9XbpwhwUrw44jI=", "properties": {"@spider": "usps_collection_boxes", "addr:city": "FRANKLIN GROVE", "addr:country": "US", "addr:full": "113 S ELM ST", "addr:postcode": "61031", "addr:state": "IL", "brand": "USPS", "collection_times": "Mo-Fr 13:45; Sa 11:00", "name": "USPS COLLECTION BOX - PO LOBBY", "note": "ON 12/24 AND 12/31, THIS BOX MAY BE COLLECTED AS EARLY AS 12 NOON.", "ref": "6103100002"}, "type": "Feature"}
{"geometry": {"coordinates": [-89.299484, 41.839447], "type": "Point"}, "id": "LtQLl7BmeAInhuEY0oo5BrZNZDQ=", "properties": {"@spider": "usps_collection_boxes", "addr:city": "FRANKLIN GROVE", "addr:country": "US", "addr:full": "113 S ELM ST", "addr:postcode": "61031", "addr:state": "IL", "brand": "USPS", "collection_times": "Mo-Fr 13:45; Sa 11:00", "name": "USPS COLLECTION BOX - PO LOBBY", "note": "ON 12/24 AND 12/31, THIS BOX MAY BE COLLECTED AS EARLY AS 12 NOON.", "ref": "6103100003"}, "type": "Feature"}
{"geometry": {"coordinates": [-89.29957046, 41.839453145], "type": "Point"}, "id": "BawOcHvyz9pEZOgqnJtXaSeqHjM=", "properties": {"@spider": "usps_collection_boxes", "addr:city": "FRANKLIN GROVE", "addr:country": "US", "addr:full": "113 S ELM ST", "addr:postcode": "61031", "addr:state": "IL", "brand": "USPS", "collection_times": "Mo-Fr 13:45; Sa 11:00", "name": "USPS COLLECTION BOX - PO LOBBY", "note": "ON 12/24 AND 12/31, THIS BOX MAY BE COLLECTED AS EARLY AS 12 NOON.", "ref": "6103100004"}, "type": "Feature"}
{"geometry": {"coordinates": [-89.6504942, 42.30443], "type": "Point"}, "id": "O69iPaIWTAFXd-8baOCUy-FTwkQ=", "properties": {"@spider": "usps_collection_boxes", "addr:city": "FREEPORT", "addr:country": "US", "addr:full": "2002 W GALENA AVE", "addr:postcode": "61032", "addr:state": "IL", "brand": "USPS", "collection_times": "Mo-Fr 16:30; Sa 16:00", "name": "USPS COLLECTION BOX - BLUE BOX", "note": "ON 12/24 AND 12/31, THIS BOX MAY BE COLLECTED AS EARLY AS 12 NOON.", "ref": "6103200005"}, "type": "Feature"}
{"geometry": {"coordinates": [-89.6340887, 42.27493], "type": "Point"}, "id": "xGPrzR3Mj9cbMAVny5qMQHH8Das=", "properties": {"@spider": "usps_collection_boxes", "addr:city": "FREEPORT", "addr:country": "US", "addr:full": "1844 S WEST AVE", "addr:postcode": "61032", "addr:state": "IL", "brand": "USPS", "collection_times": "Mo-Fr 16:45; Sa 16:15", "name": "USPS COLLECTION BOX - BLUE BOX", "note": "ON 12/24 AND 12/31, THIS BOX MAY BE COLLECTED AS EARLY AS 12 NOON.", "ref": "6103200006"}, "type": "Feature"}
{"geometry": {"coordinates": [-89.6299053, 42.279546], "type": "Point"}, "id": "V0BLNVAVFLLmQLStD2fHTbsqE6s=", "properties": {"@spider": "usps_collection_boxes", "addr:city": "FREEPORT", "addr:country": "US", "addr:full": "721 W SOUTH ST", "addr:postcode": "61032", "addr:state": "IL", "brand": "USPS", "collection_times": "Mo-Fr 16:45; Sa 16:15", "name": "USPS COLLECTION BOX - BLUE BOX", "note": "ON 12/24 AND 12/31, THIS BOX MAY BE COLLECTED AS EARLY AS 12 NOON.", "ref": "6103200007"}, "type": "Feature"}
{"geometry": {"coordinates": [-89.6195209, 42.297716], "type": "Point"}, "id": "GZE5GSICxJTMrwn1kK9EwG03qBA=", "properties": {"@spider": "usps_collection_boxes", "addr:city": "FREEPORT", "addr:country": "US", "addr:full": "22 S CHICAGO AVE", "addr:postcode": "61032", "addr:state": "IL", "brand": "USPS", "collection_times": "Mo-Fr 17:00; Sa 16:30", "name": "USPS COLLECTION BOX - BLUE BOX", "note": "ON 12/24 AND 12/31, THIS BOX MAY BE COLLECTED AS EARLY AS 12 NOON.", "ref": "6103200011"}, "type": "Feature"}
{"geometry": {"coordinates": [-89.6181245, 42.298245], "type": "Point"}, "id": "iZDVGJ76C-KQz9grm3HIBHJ5kL0=", "properties": {"@spider": "usps_collection_boxes", "addr:city": "FREEPORT", "addr:country": "US", "addr:full": "27 S STATE AVE", "addr:postcode": "61032", "addr:state": "IL", "brand": "USPS", "collection_times": "Mo-Fr 17:00; Sa 16:30", "name": "USPS COLLECTION BOX - BLUE BOX", "note": "ON 12/24 AND 12/31, THIS BOX MAY BE COLLECTED AS EARLY AS 12 NOON.", "ref": "6103200013"}, "type": "Feature"}
{"geometry": {"coordinates": [-89.622663424, 42.297323596], "type": "Point"}, "id": "X9b570g3n8rMfn-eJhImkhtxyJo=", "properties": {"@spider": "usps_collection_boxes", "addr:city": "FREEPORT", "addr:country": "US", "addr:full": "223 W STEPHENSON ST", "addr:postcode": "61032", "addr:state": "IL", "brand": "USPS", "collection_times": "Mo-Fr 17:00; Sa 16:30", "name": "USPS COLLECTION BOX - BLUE BOX", "note": "ON 12/24 AND 12/31, THIS BOX MAY BE COLLECTED AS EARLY AS 12 NOON.", "ref": "6103200015"}, "type": "Feature"}
{"geometry": {"coordinates": [-89.6227582, 42.296365], "type": "Point"}, "id": "_XHCVbpGyoJdoms2hUJmXvqyibs=", "properties": {"@spider": "usps_collection_boxes", "addr:city": "FREEPORT", "addr:country": "US", "addr:full": "302 W MAIN ST", "addr:postcode": "61032", "addr:state": "IL", "brand": "USPS", "collection_times": "Mo-Fr 17:00; Sa 16:30", "name": "USPS COLLECTION BOX - BLUE BOX", "note": "ON 12/24 AND 12/31, THIS BOX MAY BE COLLECTED AS EARLY AS 12 NOON.", "ref": "6103200016"}, "type": "Feature"}
{"geometry": {"coordinates": [-89.6301573, 42.296257], "type": "Point"}, "id": "nAO5evID1MLdo3aI8bQPALqwdwI=", "properties": {"@spider": "usps_collection_boxes", "addr:city": "FREEPORT", "addr:country": "US", "addr:full": "662 W STEPHENSON ST", "addr:postcode": "61032", "addr:state": "IL", "brand": "USPS", "collection_times": "Mo-Sa 09:00", "name": "USPS COLLECTION BOX - BLUE BOX", "ref": "6103200017"}, "type": "Feature"}
{"geometry": {"coordinates": [-89.63146328, 42.294629517], "type": "Point"}, "id": "AsUC9aF8uDEqUK9LtjZXp2EWTcs=", "properties": {"@spider": "usps_collection_boxes", "addr:city": "FREEPORT", "addr:country": "US", "addr:full": "773 W LINCOLN BLVD", "addr:postcode": "61032", "addr:state": "IL", "brand": "USPS", "collection_times": "Mo-Sa 11:00", "name": "USPS COLLECTION BOX - BLUE BOX", "ref": "6103200018"}, "type": "Feature"}
{"geometry": {"coordinates": [-89.6429869, 42.300986], "type": "Point"}, "id": "hyU8Emz339FVArS5edUGGFEnsLM=", "properties": {"@spider": "usps_collection_boxes", "addr:city": "FREEPORT", "addr:country": "US", "addr:full": "1201 W GALENA AVE", "addr:postcode": "61032", "addr:state": "IL", "brand": "USPS", "collection_times": "Mo-Fr 16:30; Sa 16:00", "name": "USPS COLLECTION BOX - BLUE BOX", "note": "ON 12/24 AND 12/31, THIS BOX MAY BE COLLECTED AS EARLY AS 12 NOON.", "ref": "6103200019"}, "type": "Feature"}
{"geometry": {"coordinates": [-89.6386316, 42.295461], "type": "Point"}, "id": "i6n_YLc8NdOm4eTBpYGjq3YZPHk=", "properties": {"@spider": "usps_collection_boxes", "addr:city": "FREEPORT", "addr:country": "US", "addr:full": "1045 W STEPHENSON ST", "addr:postcode": "61032", "addr:state": "IL", "brand": "USPS", "collection_times": "Mo-Fr 16:30; Sa 16:00", "name": "USPS COLLECTION BOX - BLUE BOX", "note": "ON 12/24 AND 12/31, THIS BOX MAY BE COLLECTED AS EARLY AS 12 NOON.", "ref": "6103200020"}, "type": "Feature"}
{"geometry": {"coordinates": [-89.6327341, 42.282768], "type": "Point"}, "id": "-P5PluDGBrjpJ5r_5r8oEWTlGDI=", "properties": {"@spider": "usps_collection_boxes", "addr:city": "FREEPORT", "addr:country": "US", "addr:full": "1512 S WEST AVE", "addr:postcode": "61032", "addr:state": "IL", "brand": "USPS", "collection_times": "Mo-Fr 16:30; Sa 16:00", "name": "USPS COLLECTION BOX - BLUE BOX", "note": "ON 12/24 AND 12/31, THIS BOX MAY BE COLLECTED AS EARLY AS 12 NOON.", "ref": "6103200021"}, "type": "Feature"}
{"geometry": {"coordinates": [-89.6197033, 42.299346], "type": "Point"}, "id": "PZDcTAQCbuTqB0hn7hT9WpnP7tA=", "properties": {"@spider": "usps_collection_boxes", "addr:city": "FREEPORT", "addr:country": "US", "addr:full": "103 N CHICAGO AVE", "addr:postcode": "61032", "addr:state": "IL", "brand": "USPS", "collection_times": "Mo-Fr 17:45; Sa 17:15", "name": "USPS COLLECTION BOX - BLUE BOX", "note": "ON 12/24 AND 12/31, THIS BOX MAY BE COLLECTED AS EARLY AS 12 NOON.", "ref": "6103200029"}, "type": "Feature"}
{"geometry": {"coordinates": [-89.6207618, 42.299514], "type": "Point"}, "id": "FvdZK87V5AoWFGukwm3N2DFjhI0=", "properties": {"@spider": "usps_collection_boxes", "addr:city": "FREEPORT", "addr:country": "US", "addr:full": "103 N CHICAGO AVE", "addr:postcode": "61032", "addr:state": "IL", "brand": "USPS", "collection_times": "Mo-Fr 17:45; Sa 17:15", "name": "USPS COLLECTION BOX - BLUE BOX", "note": "ON 12/24 AND 12/31, THIS BOX MAY BE COLLECTED AS EARLY AS 12 NOON.", "ref": "6103200030"}, "type": "Feature"}
{"geometry": {"coordinates": [-89.6496079, 42.287098], "type": "Point"}, "id": "MKkll-vlbEO1AnEjbs24ee3JRvs=", "properties": {"@spider": "usps_collection_boxes", "addr:city": "FREEPORT", "addr:country": "US", "addr:full": "1223 S BENSON BLVD", "addr:postcode": "61032", "addr:state": "IL", "brand": "USPS", "collection_times": "Mo-Sa 11:00", "name": "USPS COLLECTION BOX - BLUE BOX", "ref": "6103200031"}, "type": "Feature"}
{"geometry": {"coordinates": [-89.6711457, 42.291304], "type": "Point"}, "id": "KACSRtRAPGC39iAexnN65XwgKWc=", "properties": {"@spider": "usps_collection_boxes", "addr:city": "FREEPORT", "addr:country": "US", "addr:full": "750 KIWANIS DR", "addr:postcode": "61032", "addr:state": "IL", "brand": "USPS", "collection_times": "Mo-Sa 13:00", "name": "USPS COLLECTION BOX - BLUE BOX", "note": "ON 12/24 AND 12/31, THIS BOX MAY BE COLLECTED AS EARLY AS 12 NOON.", "ref": "6103200032"}, "type": "Feature"}
{"geometry": {"coordinates": [-89.6561249, 42.307041], "type": "Point"}, "id": "jO6gcZdKDnCqHag0B-Tz6JCSUOc=", "properties": {"@spider": "usps_collection_boxes", "addr:city": "FREEPORT", "addr:country": "US", "addr:full": "101 MARCIA DR", "addr:postcode": "61032", "addr:state": "IL", "brand": "USPS", "collection_times": "Mo-Sa 09:30", "name": "USPS COLLECTION BOX - BLUE BOX", "ref": "6103200035"}, "type": "Feature"}
{"geometry": {"coordinates": [-89.6039336, 42.289285], "type": "Point"}, "id": "po0r4xLjIM9uuhBBeaGaR4L1nic=", "properties": {"@spider": "usps_collection_boxes", "addr:city": "FREEPORT", "addr:country": "US", "addr:full": "939 S CHIPPEWA AVE", "addr:postcode": "61032", "addr:state": "IL", "brand": "USPS", "collection_times": "Mo-Sa 13:00", "name": "USPS COLLECTION BOX - BLUE BOX", "note": "ON 12/24 AND 12/31, THIS BOX MAY BE COLLECTED AS EARLY AS 12 NOON.", "ref": "6103200042"}, "type": "Feature"}
{"geometry": {"coordinates": [-89.6417413, 42.294214], "type": "Point"}, "id": "I1OX8Cl5pm5RofLj6m3bVlPJP8A=", "properties": {"@spider": "usps_collection_boxes", "addr:city": "FREEPORT", "addr:country": "US", "addr:full": "1203 W LINCOLN ST", "addr:postcode": "61032", "addr:state": "IL", "brand": "USPS", "collection_times": "Mo-Sa 13:00", "name": "USPS COLLECTION BOX - BLUE BOX", "note": "ON 12/24 AND 12/31, THIS BOX MAY BE COLLECTED AS EARLY AS 12 NOON.", "ref": "6103200044"}, "type": "Feature"}
{"geometry": {"coordinates": [-89.6501859, 42.294466], "type": "Point"}, "id": "CzgxZnT5L3X3BjcEicPfDNMF4IA=", "properties": {"@spider": "usps_collection_boxes", "addr:city": "FREEPORT", "addr:country": "US", "addr:full": "1550 W STEPHENSON ST", "addr:postcode": "61032", "addr:state": "IL", "brand": "USPS", "collection_times": "Mo-Sa 13:00", "name": "USPS COLLECTION BOX - BLUE BOX", "note": "ON 12/24 AND 12/31, THIS BOX MAY BE COLLECTED AS EARLY AS 12 NOON.", "ref": "6103200045"}, "type": "Feature"}
{"geometry": {"coordinates": [-89.6197499, 42.299324], "type": "Point"}, "id": "veXUbbMeckT6UhU04ic-Cd6kXhU=", "properties": {"@spider": "usps_collection_boxes", "addr:city": "FREEPORT", "addr:country": "US", "addr:full": "103 N CHICAGO AVE", "addr:postcode": "61032", "addr:state": "IL", "brand": "USPS", "collection_times": "Mo-Fr 17:45; Sa 17:15", "name": "USPS COLLECTION BOX - BLUE BOX", "note": "ON 12/24 AND 12/31, THIS BOX MAY BE COLLECTED AS EARLY AS 12 NOON.", "ref": "6103200048"}, "type": "Feature"}
{"geometry": {"coordinates": [-89.6207609, 42.299527], "type": "Point"}, "id": "WdEnLtq6mEduxrVa3FEFyKUYjbY=", "properties": {"@spider": "usps_collection_boxes", "addr:city": "FREEPORT", "addr:country": "US", "addr:full": "103 N CHICAGO AVE", "addr:postcode": "61032", "addr:state": "IL", "brand": "USPS", "collection_times": "Mo-Fr 17:45; Sa 17:15", "name": "USPS COLLECTION BOX - BLUE BOX", "note": "ON 12/24 AND 12/31, THIS BOX MAY BE COLLECTED AS EARLY AS 12 NOON.", "ref": "6103200049"}, "type": "Feature"}
{"geometry": {"coordinates": [-89.6207654, 42.299515], "type": "Point"}, "id": "4-ZOoLaq9yp0bYy4xrG1aDibdQ0=", "properties": {"@spider": "usps_collection_boxes", "addr:city": "FREEPORT", "addr:country": "US", "addr:full": "103 N CHICAGO AVE", "addr:postcode": "61032", "addr:state": "IL", "brand": "USPS", "collection_times": "Mo-Fr 17:45; Sa 17:15", "name": "USPS COLLECTION BOX - BLUE BOX", "note": "ON 12/24 AND 12/31, THIS BOX MAY BE COLLECTED AS EARLY AS 12 NOON.", "ref": "6103200050"}, "type": "Feature"}
{"geometry": {"coordinates": [-89.6291271, 42.26406], "type": "Point"}, "id": "3t_2QEC10ldxYskPXYhm0toxu4o=", "properties": {"@spider": "usps_collection_boxes", "addr:city": "FREEPORT", "addr:country": "US", "addr:full": "2545 IL ROUTE 26 S", "addr:postcode": "61032", "addr:state": "IL", "brand": "USPS", "collection_times": "Mo-Fr 16:45; Sa 16:15", "name": "USPS COLLECTION BOX - BLUE BOX", "note": "ON 12/24 AND 12/31, THIS BOX MAY BE COLLECTED AS EARLY AS 12 NOON.", "ref": "6103200052"}, "type": "Feature"}
{"geometry": {"coordinates": [-89.628622722, 42.280389512], "type": "Point"}, "id": "aTUYfvrS9UoyA8HkxakNNQAXkUQ=", "properties": {"@spider": "usps_collection_boxes", "addr:city": "FREEPORT", "addr:country": "US", "addr:full": "640 W SOUTH ST", "addr:postcode": "61032", "addr:state": "IL", "brand": "USPS", "collection_times": "Mo-Fr 16:45; Sa 16:15", "name": "USPS COLLECTION BOX - BLUE BOX", "note": "ON 12/24 AND 12/31, THIS BOX MAY BE COLLECTED AS EARLY AS 12 NOON.", "ref": "6103200053"}, "type": "Feature"}
{"geometry": {"coordinates": [-89.6201459, 42.299353], "type": "Point"}, "id": "VOBgGuufSljUVdbWNuQzmpzOx6s=", "properties": {"@spider": "usps_collection_boxes", "addr:city": "FREEPORT", "addr:country": "US", "addr:full": "103 N CHICAGO AVE", "addr:postcode": "61032", "addr:state": "IL", "brand": "USPS", "collection_times": "Mo-Fr 17:45; Sa 17:15", "name": "USPS COLLECTION BOX - PO LOBBY", "note": "ON 12/24 AND 12/31, THIS BOX MAY BE COLLECTED AS EARLY AS 12 NOON.", "ref": "6103200054"}, "type": "Feature"}
{"geometry": {"coordinates": [-89.6202691, 42.299233], "type": "Point"}, "id": "b7hJY2F35s8U3J-anchRJ_l6Ox0=", "properties": {"@spider": "usps_collection_boxes", "addr:city": "FREEPORT", "addr:country": "US", "addr:full": "103 N CHICAGO AVE", "addr:postcode": "61032", "addr:state": "IL", "brand": "USPS", "collection_times": "Mo-Fr 17:45; Sa 17:15", "name": "USPS COLLECTION BOX - PO LOBBY", "note": "ON 12/24 AND 12/31, THIS BOX MAY BE COLLECTED AS EARLY AS 12 NOON.", "ref": "6103200055"}, "type": "Feature"}
{"geometry": {"coordinates": [-89.6137410351, 42.3009634348], "type": "Point"}, "id": "axSpanRwICGHZsqcKcBa677scPA=", "properties": {"@spider": "usps_collection_boxes", "addr:city": "FREEPORT", "addr:country": "US", "addr:full": "315 E STEPHENSON ST", "addr:postcode": "61032", "addr:state": "IL", "brand": "USPS", "collection_times": "Mo-Sa 13:00", "name": "USPS COLLECTION BOX - BLUE BOX", "note": "ON 12/24 AND 12/31, THIS BOX MAY BE COLLECTED AS EARLY AS 12 NOON.", "ref": "6103200057"}, "type": "Feature"}
{"geometry": {"coordinates": [-89.6189279, 42.298818], "type": "Point"}, "id": "ubhp2BAL3wFpg6D-d3SJr8hz5Kc=", "properties": {"@spider": "usps_collection_boxes", "addr:city": "FREEPORT", "addr:country": "US", "addr:full": "29 E STEPHENSON ST", "addr:postcode": "61032", "addr:state": "IL", "brand": "USPS", "collection_times": "Mo-Fr 17:00; Sa 16:30", "name": "USPS COLLECTION BOX - BLUE BOX", "note": "ON 12/24 AND 12/31, THIS BOX MAY BE COLLECTED AS EARLY AS 12 NOON.", "ref": "6103200058"}, "type": "Feature"}
{"geometry": {"coordinates": [-89.6203199, 42.29913], "type": "Point"}, "id": "RCl_ycn5Lh4p7uiWVkENiNmg348=", "properties": {"@spider": "usps_collection_boxes", "addr:city": "FREEPORT", "addr:country": "US", "addr:full": "103 N CHICAGO AVE", "addr:postcode": "61032", "addr:state": "IL", "brand": "USPS", "collection_times": "Mo-Fr 17:45; Sa 16:15", "name": "USPS COLLECTION BOX - BLUE BOX", "note": "ON 12/24 AND 12/31, THIS BOX MAY BE COLLECTED AS EARLY AS 12 NOON.", "ref": "6103200059"}, "type": "Feature"}
{"geometry": {"coordinates": [-89.6213768, 42.298014], "type": "Point"}, "id": "ug0mhKFdg_40SLX-c_1jCvPgSWg=", "properties": {"@spider": "usps_collection_boxes", "addr:city": "FREEPORT", "addr:country": "US", "addr:full": "101 W STEPHENSON ST", "addr:postcode": "61032", "addr:state": "IL", "brand": "USPS", "collection_times": "Mo-Fr 17:00; Sa 16:30", "name": "USPS COLLECTION BOX - BLUE BOX", "note": "ON 12/24 AND 12/31, THIS BOX MAY BE COLLECTED AS EARLY AS 12 NOON.", "ref": "6103200060"}, "type": "Feature"}
{"geometry": {"coordinates": [-89.6220338, 42.301217], "type": "Point"}, "id": "2ucJ3CzeypLri2j39q20LFcOKZE=", "properties": {"@spider": "usps_collection_boxes", "addr:city": "FREEPORT", "addr:country": "US", "addr:full": "4 E LINDEN ST", "addr:postcode": "61032", "addr:state": "IL", "brand": "USPS", "collection_times": "Mo-Sa 09:00", "name": "USPS COLLECTION BOX - BLUE BOX", "ref": "6103200062"}, "type": "Feature"}
{"geometry": {"coordinates": [-89.6205355703, 42.29921637], "type": "Point"}, "id": "56nto4JY3d6zbcW7gjXKhetMuwc=", "properties": {"@spider": "usps_collection_boxes", "addr:city": "FREEPORT", "addr:country": "US", "addr:full": "103 N CHICAGO AVE", "addr:postcode": "61032", "addr:state": "IL", "brand": "USPS", "collection_times": "Mo-Fr 17:45; Sa 17:15", "name": "USPS COLLECTION BOX - PO LOBBY", "note": "ON 12/24 AND 12/31, THIS BOX MAY BE COLLECTED AS EARLY AS 12 NOON.", "ref": "6103200067"}, "type": "Feature"}
{"geometry": {"coordinates": [-90.4255463, 42.41828], "type": "Point"}, "id": "TVrWTPR-DAe81HCu-18IPUVdYAo=", "properties": {"@spider": "usps_collection_boxes", "addr:city": "GALENA", "addr:country": "US", "addr:full": "330 N BENCH ST", "addr:postcode": "61036", "addr:state": "IL", "brand": "USPS", "collection_times": "Mo-Sa 14:15", "name": "USPS COLLECTION BOX - BLUE BOX", "note": "ON 12/24 AND 12/31, THIS BOX MAY BE COLLECTED AS EARLY AS 12 NOON.", "ref": "6103600001"}, "type": "Feature"}
{"geometry": {"coordinates": [-90.429129, 42.414176], "type": "Point"}, "id": "vIK_lJJPG2WsilWZTgIIg64lBrc=", "properties": {"@spider": "usps_collection_boxes", "addr:city": "GALENA", "addr:country": "US", "addr:full": "110 GREEN ST", "addr:postcode": "61036", "addr:state": "IL", "brand": "USPS", "collection_times": "Mo-Fr 14:30; Sa 15:00", "name": "USPS COLLECTION BOX - BLUE BOX", "note": "ON 12/24 AND 12/31, THIS BOX MAY BE COLLECTED AS EARLY AS 12 NOON.", "ref": "6103600002"}, "type": "Feature"}
{"geometry": {"coordinates": [-90.4273527, 42.416384], "type": "Point"}, "id": "mgh6c1tVi_l666MXd25mtTlYByw=", "properties": {"@spider": "usps_collection_boxes", "addr:city": "GALENA", "addr:country": "US", "addr:full": "200 PERRY ST", "addr:postcode": "61036", "addr:state": "IL", "brand": "USPS", "collection_times": "Mo-Sa 14:15", "name": "USPS COLLECTION BOX - BLUE BOX", "note": "ON 12/24 AND 12/31, THIS BOX MAY BE COLLECTED AS EARLY AS 12 NOON.", "ref": "6103600003"}, "type": "Feature"}
{"geometry": {"coordinates": [-90.4284826, 42.416265], "type": "Point"}, "id": "2lfO2wts5y30GL6UUEqwyXR86PU=", "properties": {"@spider": "usps_collection_boxes", "addr:city": "GALENA", "addr:country": "US", "addr:full": "100 N MAIN ST", "addr:postcode": "61036", "addr:state": "IL", "brand": "USPS", "collection_times": "Mo-Sa 14:15", "name": "USPS COLLECTION BOX - BLUE BOX", "note": "ON 12/24 AND 12/31, THIS BOX MAY BE COLLECTED AS EARLY AS 12 NOON.", "ref": "6103600005"}, "type": "Feature"}
{"geometry": {"coordinates": [-90.4281742, 42.412102], "type": "Point"}, "id": "wdjr7SpWBXR_kP5LWQArDdE-jw4=", "properties": {"@spider": "usps_collection_boxes", "addr:city": "GALENA", "addr:country": "US", "addr:full": "754 PARK AVE", "addr:postcode": "61036", "addr:state": "IL", "brand": "USPS", "collection_times": "Mo-Sa 12:30", "name": "USPS COLLECTION BOX - BLUE BOX", "note": "ON 12/24 AND 12/31, THIS BOX MAY BE COLLECTED AS EARLY AS 12 NOON.", "ref": "6103600006"}, "type": "Feature"}
{"geometry": {"coordinates": [-90.4280539, 42.419455], "type": "Point"}, "id": "RnA0TXjDNd8nxe0bvGxz94ODdFQ=", "properties": {"@spider": "usps_collection_boxes", "addr:city": "GALENA", "addr:country": "US", "addr:full": "399 FRANKLIN ST", "addr:postcode": "61036", "addr:state": "IL", "brand": "USPS", "collection_times": "Mo-Sa 12:15", "name": "USPS COLLECTION BOX - BLUE BOX", "note": "ON 12/24 AND 12/31, THIS BOX MAY BE COLLECTED AS EARLY AS 12 NOON.", "ref": "6103600008"}, "type": "Feature"}
{"geometry": {"coordinates": [-90.4300311, 42.418228], "type": "Point"}, "id": "0RP1yrqD-hANycF-k_p8YJY0QnU=", "properties": {"@spider": "usps_collection_boxes", "addr:city": "GALENA", "addr:country": "US", "addr:full": "319 HILL ST", "addr:postcode": "61036", "addr:state": "IL", "brand": "USPS", "collection_times": "Mo-Sa 11:30", "name": "USPS COLLECTION BOX - BLUE BOX", "ref": "6103600009"}, "type": "Feature"}
{"geometry": {"coordinates": [-90.4334072, 42.420045], "type": "Point"}, "id": "2sCArUjbRlmGQACDpNI6nxN03FQ=", "properties": {"@spider": "usps_collection_boxes", "addr:city": "GALENA", "addr:country": "US", "addr:full": "515 MARS AVE", "addr:postcode": "61036", "addr:state": "IL", "brand": "USPS", "collection_times": "Mo-Sa 14:00", "name": "USPS COLLECTION BOX - BLUE BOX", "note": "ON 12/24 AND 12/31, THIS BOX MAY BE COLLECTED AS EARLY AS 12 NOON.", "ref": "6103600011"}, "type": "Feature"}
{"geometry": {"coordinates": [-90.4417176, 42.423357], "type": "Point"}, "id": "jHYKo6iqU5gHkW-00B0unNo-oSI=", "properties": {"@spider": "usps_collection_boxes", "addr:city": "GALENA", "addr:country": "US", "addr:full": "997 GALENA SQUARE DR", "addr:postcode": "61036", "addr:state": "IL", "brand": "USPS", "collection_times": "Mo-Sa 14:00", "name": "USPS COLLECTION BOX - BLUE BOX", "note": "ON 12/24 AND 12/31, THIS BOX MAY BE COLLECTED AS EARLY AS 12 NOON.", "ref": "6103600013"}, "type": "Feature"}
{"geometry": {"coordinates": [-90.429118, 42.414202], "type": "Point"}, "id": "IncZIjrc-k-EOPGsJnHLNcDzcbw=", "properties": {"@spider": "usps_collection_boxes", "addr:city": "GALENA", "addr:country": "US", "addr:full": "110 GREEN ST", "addr:postcode": "61036", "addr:state": "IL", "brand": "USPS", "collection_times": "Mo-Fr 14:30; Sa 15:00", "name": "USPS COLLECTION BOX - BLUE BOX", "note": "ON 12/24 AND 12/31, THIS BOX MAY BE COLLECTED AS EARLY AS 12 NOON.", "ref": "6103600016"}, "type": "Feature"}
{"geometry": {"coordinates": [-90.44248, 42.421415], "type": "Point"}, "id": "Otj3hLdHTupuG_5Y38Y-UQLH9-A=", "properties": {"@spider": "usps_collection_boxes", "addr:city": "GALENA", "addr:country": "US", "addr:full": "901 GALENA SQUARE DR", "addr:postcode": "61036", "addr:state": "IL", "brand": "USPS", "collection_times": "Mo-Fr 16:30; Sa 15:00", "name": "USPS COLLECTION BOX - BLUE BOX", "note": "ON 12/24 AND 12/31, THIS BOX MAY BE COLLECTED AS EARLY AS 12 NOON.", "ref": "6103600017"}, "type": "Feature"}
{"geometry": {"coordinates": [-90.4425, 42.421323], "type": "Point"}, "id": "PGvQ9wouFCzI18RuG9Y30nm8gEQ=", "properties": {"@spider": "usps_collection_boxes", "addr:city": "GALENA", "addr:country": "US", "addr:full": "901 GALENA SQUARE DR", "addr:postcode": "61036", "addr:state": "IL", "brand": "USPS", "collection_times": "Mo-Fr 16:30; Sa 15:00", "name": "USPS COLLECTION BOX - BLUE BOX", "note": "ON 12/24 AND 12/31, THIS BOX MAY BE COLLECTED AS EARLY AS 12 NOON.", "ref": "6103600018"}, "type": "Feature"}
{"geometry": {"coordinates": [-90.429118, 42.414202], "type": "Point"}, "id": "I-6vKmFuxpzqKM1i7VuyOtQhc3M=", "properties": {"@spider": "usps_collection_boxes", "addr:city": "GALENA", "addr:country": "US", "addr:full": "110 GREEN ST", "addr:postcode": "61036", "addr:state": "IL", "brand": "USPS", "collection_times": "Mo-Fr 14:30; Sa 15:00", "name": "USPS COLLECTION BOX - PO LOBBY", "note": "ON 12/24 AND 12/31, THIS BOX MAY BE COLLECTED AS EARLY AS 12 NOON.", "ref": "6103600019"}, "type": "Feature"}
{"geometry": {"coordinates": [-90.429118, 42.414202], "type": "Point"}, "id": "klaRQEcpGNOLPppnIax4788yJSQ=", "properties": {"@spider": "usps_collection_boxes", "addr:city": "GALENA", "addr:country": "US", "addr:full": "110 GREEN ST", "addr:postcode": "61036", "addr:state": "IL", "brand": "USPS", "collection_times": "Mo-Fr 14:30; Sa 15:00", "name": "USPS COLLECTION BOX - PO LOBBY", "note": "ON 12/24 AND 12/31, THIS BOX MAY BE COLLECTED AS EARLY AS 12 NOON.", "ref": "6103600020"}, "type": "Feature"}
{"geometry": {"coordinates": [-90.3362799, 42.403826], "type": "Point"}, "id": "w1dakghR_LpYNexSaIV72PxFxRE=", "properties": {"@spider": "usps_collection_boxes", "addr:city": "GALENA", "addr:country": "US", "addr:full": "425 EAGLE RIDGE DR", "addr:postcode": "61036", "addr:state": "IL", "brand": "USPS", "collection_times": "Mo-Sa 12:00", "name": "USPS COLLECTION BOX - BLUE BOX", "ref": "6103600021"}, "type": "Feature"}
{"geometry": {"coordinates": [-90.418274, 42.407733], "type": "Point"}, "id": "EA4RJdcoXZCvX6LQtICwEs6czX8=", "properties": {"@spider": "usps_collection_boxes", "addr:city": "GALENA", "addr:country": "US", "addr:full": "9816 W US ROUTE 20", "addr:postcode": "61036", "addr:state": "IL", "brand": "USPS", "collection_times": "Mo-Sa 12:00", "name": "USPS COLLECTION BOX - BLUE BOX", "ref": "6103600022"}, "type": "Feature"}
{"geometry": {"coordinates": [-90.4425, 42.421323], "type": "Point"}, "id": "cdBD9VEOKGPpB6fa2UcCGNNC33A=", "properties": {"@spider": "usps_collection_boxes", "addr:city": "GALENA", "addr:country": "US", "addr:full": "901 GALENA SQUARE DR", "addr:postcode": "61036", "addr:state": "IL", "brand": "USPS", "collection_times": "Mo-Fr 16:30; Sa 15:00", "name": "USPS COLLECTION BOX - PO LOBBY", "note": "ON 12/24 AND 12/31, THIS BOX MAY BE COLLECTED AS EARLY AS 12 NOON.", "ref": "6103600023"}, "type": "Feature"}
{"geometry": {"coordinates": [-90.4425, 42.421323], "type": "Point"}, "id": "93dsvmThaED_mN2gStv0rVhH0QM=", "properties": {"@spider": "usps_collection_boxes", "addr:city": "GALENA", "addr:country": "US", "addr:full": "901 GALENA SQUARE DR", "addr:postcode": "61036", "addr:state": "IL", "brand": "USPS", "collection_times": "Mo-Fr 16:30; Sa 15:00", "name": "USPS COLLECTION BOX - PO LOBBY", "note": "ON 12/24 AND 12/31, THIS BOX MAY BE COLLECTED AS EARLY AS 12 NOON.", "ref": "6103600024"}, "type": "Feature"}
{"geometry": {"coordinates": [-90.4449206, 42.420758], "type": "Point"}, "id": "Ca1b6s7XsfN_PAfrcJMNIAFj9uw=", "properties": {"@spider": "usps_collection_boxes", "addr:city": "GALENA", "addr:country": "US", "addr:full": "971 GEAR ST", "addr:postcode": "61036", "addr:state": "IL", "brand": "USPS", "collection_times": "Mo-Sa 12:30", "name": "USPS COLLECTION BOX - BLUE BOX", "note": "ON 12/24 AND 12/31, THIS BOX MAY BE COLLECTED AS EARLY AS 12 NOON.", "ref": "6103600025"}, "type": "Feature"}
{"geometry": {"coordinates": [-90.452662606, 42.436580761], "type": "Point"}, "id": "hIA4YtFJ5iDgZV8BJAkaC5hb6rA=", "properties": {"@spider": "usps_collection_boxes", "addr:city": "GALENA", "addr:country": "US", "addr:full": "11359 INDUSTRIAL DR", "addr:postcode": "61036", "addr:state": "IL", "brand": "USPS", "collection_times": "Mo-Sa 12:30", "name": "USPS COLLECTION BOX - BLUE BOX", "note": "ON 12/24 AND 12/31, THIS BOX MAY BE COLLECTED AS EARLY AS 12 NOON.", "ref": "6103600026"}, "type": "Feature"}
{"geometry": {"coordinates": [-90.429196521, 42.414268904], "type": "Point"}, "id": "s49Xb7YvCBG_3wzVRluVcLwfzFI=", "properties": {"@spider": "usps_collection_boxes", "addr:city": "GALENA", "addr:country": "US", "addr:full": "110 GREEN ST", "addr:postcode": "61036", "addr:state": "IL", "brand": "USPS", "collection_times": "Mo-Fr 14:30; Sa 15:00", "name": "USPS COLLECTION BOX - PO LOBBY", "note": "ON 12/24 AND 12/31, THIS BOX MAY BE COLLECTED AS EARLY AS 12 NOON.", "ref": "6103600029"}, "type": "Feature"}
{"geometry": {"coordinates": [-90.4424962818, 42.4214982609], "type": "Point"}, "id": "CU1nXfNvPEa6rRyuzQn6XYUTn10=", "properties": {"@spider": "usps_collection_boxes", "addr:city": "GALENA", "addr:country": "US", "addr:full": "901 GALENA SQUARE DR", "addr:postcode": "61036", "addr:state": "IL", "brand": "USPS", "collection_times": "Mo-Fr 16:30; Sa 15:00", "name": "USPS COLLECTION BOX - PO LOBBY", "note": "ON 12/24 AND 12/31, THIS BOX MAY BE COLLECTED AS EARLY AS 12 NOON.", "ref": "6103600030"}, "type": "Feature"}
{"geometry": {"coordinates": [-89.7624371831, 41.7892888165], "type": "Point"}, "id": "WRmK5qAzlNzVJBTQv4ycaLUCwmc=", "properties": {"@spider": "usps_collection_boxes", "addr:city": "GALT", "addr:country": "US", "addr:full": "411 GALT RD", "addr:postcode": "61037", "addr:state": "IL", "brand": "USPS", "collection_times": "Mo-Fr 15:00; Sa 11:45", "name": "USPS COLLECTION BOX - BLUE BOX", "note": "ON 12/24 AND 12/31, THIS BOX MAY BE COLLECTED AS EARLY AS 12 NOON.", "ref": "6103700001"}, "type": "Feature"}
{"geometry": {"coordinates": [-89.7624371831, 41.7892888165], "type": "Point"}, "id": "pRYFPAtnmKA2XWuD1_tKdcW6Gbg=", "properties": {"@spider": "usps_collection_boxes", "addr:city": "GALT", "addr:country": "US", "addr:full": "411 GALT RD", "addr:postcode": "61037", "addr:state": "IL", "brand": "USPS", "collection_times": "Mo-Fr 15:00; Sa 11:45", "name": "USPS COLLECTION BOX - PO LOBBY", "note": "ON 12/24 AND 12/31, THIS BOX MAY BE COLLECTED AS EARLY AS 12 NOON.", "ref": "6103700002"}, "type": "Feature"}
{"geometry": {"coordinates": [-89.7624371831, 41.7892888165], "type": "Point"}, "id": "tMUDOq2ODjTU0x69c7hAv8EQBow=", "properties": {"@spider": "usps_collection_boxes", "addr:city": "GALT", "addr:country": "US", "addr:full": "411 GALT RD", "addr:postcode": "61037", "addr:state": "IL", "brand": "USPS", "collection_times": "Mo-Fr 15:00; Sa 11:45", "name": "USPS COLLECTION BOX - PO LOBBY", "note": "ON 12/24 AND 12/31, THIS BOX MAY BE COLLECTED AS EARLY AS 12 NOON.", "ref": "6103700003"}, "type": "Feature"}
{"geometry": {"coordinates": [-89.762119327, 41.789844], "type": "Point"}, "id": "OwpxRuS810GJXW8ZH5Zqdk5TjV8=", "properties": {"@spider": "usps_collection_boxes", "addr:city": "GALT", "addr:country": "US", "addr:full": "411 GALT RD", "addr:postcode": "61037", "addr:state": "IL", "brand": "USPS", "collection_times": "Mo-Fr 15:00; Sa 11:45", "name": "USPS COLLECTION BOX - PO LOBBY", "note": "ON 12/24 AND 12/31, THIS BOX MAY BE COLLECTED AS EARLY AS 12 NOON.", "ref": "6103700005"}, "type": "Feature"}
{"geometry": {"coordinates": [-88.72279, 42.253365], "type": "Point"}, "id": "RSejFveG0zSL_OtNbJhTOnyAJMk=", "properties": {"@spider": "usps_collection_boxes", "addr:city": "GARDEN PRAIRIE", "addr:country": "US", "addr:full": "6820 PLEASANT ST", "addr:postcode": "61038", "addr:state": "IL", "brand": "USPS", "collection_times": "Mo-Sa 10:30", "name": "USPS COLLECTION BOX - BLUE BOX", "ref": "6103800001"}, "type": "Feature"}
{"geometry": {"coordinates": [-88.72304, 42.25374], "type": "Point"}, "id": "pvMcCJlpBbLliY-i12ya11ZyaqQ=", "properties": {"@spider": "usps_collection_boxes", "addr:city": "GARDEN PRAIRIE", "addr:country": "US", "addr:full": "6828 PLEASANT ST", "addr:postcode": "61038", "addr:state": "IL", "brand": "USPS", "collection_times": "Mo-Sa 10:30", "name": "USPS COLLECTION BOX - PO LOBBY", "ref": "6103800002"}, "type": "Feature"}
{"geometry": {"coordinates": [-88.722791118, 42.2537406706], "type": "Point"}, "id": "i1ioYvq-5L7vv9PzxCyM_RyCY_I=", "properties": {"@spider": "usps_collection_boxes", "addr:city": "GARDEN PRAIRIE", "addr:country": "US", "addr:full": "6828 PLEASANT ST", "addr:postcode": "61038", "addr:state": "IL", "brand": "USPS", "collection_times": "Mo-Sa 10:30", "name": "USPS COLLECTION BOX - PO LOBBY", "ref": "6103800003"}, "type": "Feature"}
{"geometry": {"coordinates": [-89.474478, 42.215197], "type": "Point"}, "id": "ZgW5gl4e0Dr6cMUXBin7tGWhY3c=", "properties": {"@spider": "usps_collection_boxes", "addr:city": "GERMAN VALLEY", "addr:country": "US", "addr:full": "35 CHURCH ST", "addr:postcode": "61039", "addr:state": "IL", "brand": "USPS", "collection_times": "Mo-Fr 16:00; Sa 11:30", "name": "USPS COLLECTION BOX - BLUE BOX", "note": "ON 12/24 AND 12/31, THIS BOX MAY BE COLLECTED AS EARLY AS 12 NOON.", "ref": "6103900001"}, "type": "Feature"}
{"geometry": {"coordinates": [-89.474441, 42.215224], "type": "Point"}, "id": "HNB3AlAQYAjI9AA3P1Dx7bvutyM=", "properties": {"@spider": "usps_collection_boxes", "addr:city": "GERMAN VALLEY", "addr:country": "US", "addr:full": "35 CHURCH ST", "addr:postcode": "61039", "addr:state": "IL", "brand": "USPS", "collection_times": "Mo-Fr 16:00; Sa 11:30", "name": "USPS COLLECTION BOX - PO LOBBY", "note": "ON 12/24 AND 12/31, THIS BOX MAY BE COLLECTED AS EARLY AS 12 NOON.", "ref": "6103900002"}, "type": "Feature"}
{"geometry": {"coordinates": [-89.474441, 42.215224], "type": "Point"}, "id": "mMRKz56m-ovYIB9-qS3UEBOXlUs=", "properties": {"@spider": "usps_collection_boxes", "addr:city": "GERMAN VALLEY", "addr:country": "US", "addr:full": "35 CHURCH ST", "addr:postcode": "61039", "addr:state": "IL", "brand": "USPS", "collection_times": "Mo-Fr 16:00; Sa 11:30", "name": "USPS COLLECTION BOX - PO LOBBY", "note": "ON 12/24 AND 12/31, THIS BOX MAY BE COLLECTED AS EARLY AS 12 NOON.", "ref": "6103900003"}, "type": "Feature"}
{"geometry": {"coordinates": [-89.474544, 42.215191492], "type": "Point"}, "id": "azQKqQnn464oCSaX5wKhfacEGy4=", "properties": {"@spider": "usps_collection_boxes", "addr:city": "GERMAN VALLEY", "addr:country": "US", "addr:full": "35 CHURCH ST", "addr:postcode": "61039", "addr:state": "IL", "brand": "USPS", "collection_times": "Mo-Fr 16:00; Sa 11:30", "name": "USPS COLLECTION BOX - PO LOBBY", "note": "ON 12/24 AND 12/31, THIS BOX MAY BE COLLECTED AS EARLY AS 12 NOON.", "ref": "6103900005"}, "type": "Feature"}
{"geometry": {"coordinates": [-90.28352, 42.256662], "type": "Point"}, "id": "H6-SQXUC9HzYXsM1gyOyRE9pw1o=", "properties": {"@spider": "usps_collection_boxes", "addr:city": "HANOVER", "addr:country": "US", "addr:full": "220 JEFFERSON ST", "addr:postcode": "61041", "addr:state": "IL", "brand": "USPS", "collection_times": "Mo-Fr 14:45; Sa 12:00", "name": "USPS COLLECTION BOX - BLUE BOX", "note": "ON 12/24 AND 12/31, THIS BOX MAY BE COLLECTED AS EARLY AS 12 NOON.", "ref": "6104100001"}, "type": "Feature"}
{"geometry": {"coordinates": [-90.283587, 42.256696], "type": "Point"}, "id": "mlcHAxBdPXnk-NN0MH6TWgdIrKw=", "properties": {"@spider": "usps_collection_boxes", "addr:city": "HANOVER", "addr:country": "US", "addr:full": "220 JEFFERSON ST", "addr:postcode": "61041", "addr:state": "IL", "brand": "USPS", "collection_times": "Mo-Fr 14:45; Sa 11:45", "name": "USPS COLLECTION BOX - PO LOBBY", "note": "ON 12/24 AND 12/31, THIS BOX MAY BE COLLECTED AS EARLY AS 12 NOON.", "ref": "6104100002"}, "type": "Feature"}
{"geometry": {"coordinates": [-90.2835526143, 42.2566080244], "type": "Point"}, "id": "bjL-bFIw-PAuOsDQO0u0zGGz85s=", "properties": {"@spider": "usps_collection_boxes", "addr:city": "HANOVER", "addr:country": "US", "addr:full": "220 JEFFERSON ST", "addr:postcode": "61041", "addr:state": "IL", "brand": "USPS", "collection_times": "Mo-Fr 14:45; Sa 11:45", "name": "USPS COLLECTION BOX - PO LOBBY", "note": "ON 12/24 AND 12/31, THIS BOX MAY BE COLLECTED AS EARLY AS 12 NOON.", "ref": "6104100005"}, "type": "Feature"}
{"geometry": {"coordinates": [-89.554877, 41.721944], "type": "Point"}, "id": "vlhDCwbXVCQ0ThlIZv_etUJgorM=", "properties": {"@spider": "usps_collection_boxes", "addr:city": "HARMON", "addr:country": "US", "addr:full": "205 N 1ST ST", "addr:postcode": "61042", "addr:state": "IL", "brand": "USPS", "collection_times": "Mo-Fr 12:00; Sa 10:45", "name": "USPS COLLECTION BOX - BLUE BOX", "ref": "6104200001"}, "type": "Feature"}
{"geometry": {"coordinates": [-89.554877, 41.721944], "type": "Point"}, "id": "KEg_HE2b9In3F1_FRQ4OVy4_Z3g=", "properties": {"@spider": "usps_collection_boxes", "addr:city": "HARMON", "addr:country": "US", "addr:full": "205 N 1ST ST", "addr:postcode": "61042", "addr:state": "IL", "brand": "USPS", "collection_times": "Mo-Fr 12:00; Sa 10:45", "name": "USPS COLLECTION BOX - PO LOBBY", "ref": "6104200002"}, "type": "Feature"}
{"geometry": {"coordinates": [-89.5546098521, 41.7219665029], "type": "Point"}, "id": "9UyO6lQxb7kcWKE2g5GGMyopW1w=", "properties": {"@spider": "usps_collection_boxes", "addr:city": "HARMON", "addr:country": "US", "addr:full": "205 N 1ST ST", "addr:postcode": "61042", "addr:state": "IL", "brand": "USPS", "collection_times": "Mo-Fr 12:00; Sa 10:45", "name": "USPS COLLECTION BOX - PO LOBBY", "ref": "6104200004"}, "type": "Feature"}
{"geometry": {"coordinates": [-89.09883, 42.064463], "type": "Point"}, "id": "rYUv5IgCE2VG2rSW_XACF_zEDVU=", "properties": {"@spider": "usps_collection_boxes", "addr:city": "HOLCOMB", "addr:country": "US", "addr:full": "105 W MAIN ST", "addr:postcode": "61043", "addr:state": "IL", "brand": "USPS", "collection_times": "Mo-Fr 16:45; Sa 10:30", "name": "USPS COLLECTION BOX - BLUE BOX", "note": "ON 12/24 AND 12/31, THIS BOX MAY BE COLLECTED AS EARLY AS 12 NOON.", "ref": "6104300001"}, "type": "Feature"}
{"geometry": {"coordinates": [-89.09883, 42.064463], "type": "Point"}, "id": "irZmvf-XxhUXZf202sgtvTh8ALk=", "properties": {"@spider": "usps_collection_boxes", "addr:city": "HOLCOMB", "addr:country": "US", "addr:full": "105 W MAIN ST", "addr:postcode": "61043", "addr:state": "IL", "brand": "USPS", "collection_times": "Mo-Fr 16:45; Sa 10:30", "name": "USPS COLLECTION BOX - PO LOBBY", "note": "ON 12/24 AND 12/31, THIS BOX MAY BE COLLECTED AS EARLY AS 12 NOON.", "ref": "6104300002"}, "type": "Feature"}
{"geometry": {"coordinates": [-89.09883, 42.064463], "type": "Point"}, "id": "rz-HLOYYRWkMq9Y-0RJmEy-6PJ8=", "properties": {"@spider": "usps_collection_boxes", "addr:city": "HOLCOMB", "addr:country": "US", "addr:full": "105 W MAIN ST", "addr:postcode": "61043", "addr:state": "IL", "brand": "USPS", "collection_times": "Mo-Fr 16:45; Sa 10:30", "name": "USPS COLLECTION BOX - PO LOBBY", "note": "ON 12/24 AND 12/31, THIS BOX MAY BE COLLECTED AS EARLY AS 12 NOON.", "ref": "6104300003"}, "type": "Feature"}
{"geometry": {"coordinates": [-89.0972085893, 42.0644960226], "type": "Point"}, "id": "GleB9r-AbF2qVCq8q6Xk7uexoIU=", "properties": {"@spider": "usps_collection_boxes", "addr:city": "HOLCOMB", "addr:country": "US", "addr:full": "105 W MAIN ST", "addr:postcode": "61043", "addr:state": "IL", "brand": "USPS", "collection_times": "Mo-Fr 16:45; Sa 10:30", "name": "USPS COLLECTION BOX - PO LOBBY", "note": "ON 12/24 AND 12/31, THIS BOX MAY BE COLLECTED AS EARLY AS 12 NOON.", "ref": "6104300004"}, "type": "Feature"}
{"geometry": {"coordinates": [-89.840219, 42.096563], "type": "Point"}, "id": "_3UzvyV6lsoKsqXKqUxhvCjG0aY=", "properties": {"@spider": "usps_collection_boxes", "addr:city": "LANARK", "addr:country": "US", "addr:full": "600 W OLYMPIC DR", "addr:postcode": "61046", "addr:state": "IL", "brand": "USPS", "collection_times": "Mo-Fr 16:45; Sa 12:00", "name": "USPS COLLECTION BOX - PO LOBBY", "note": "ON 12/24 AND 12/31, THIS BOX MAY BE COLLECTED AS EARLY AS 12 NOON.", "ref": "6104600004"}, "type": "Feature"}
{"geometry": {"coordinates": [-89.840098, 42.096591], "type": "Point"}, "id": "GCXGyEQooqYfg_TzrBnOcBccrlg=", "properties": {"@spider": "usps_collection_boxes", "addr:city": "LANARK", "addr:country": "US", "addr:full": "600 W OLYMPIC DR", "addr:postcode": "61046", "addr:state": "IL", "brand": "USPS", "collection_times": "Mo-Fr 16:45; Sa 12:00", "name": "USPS COLLECTION BOX - BLUE BOX", "note": "ON 12/24 AND 12/31, THIS BOX MAY BE COLLECTED AS EARLY AS 12 NOON.", "ref": "6104600007"}, "type": "Feature"}
{"geometry": {"coordinates": [-89.8401778113, 42.0965042949], "type": "Point"}, "id": "SuE9961bSCajx9KJ-mWvvespHJU=", "properties": {"@spider": "usps_collection_boxes", "addr:city": "LANARK", "addr:country": "US", "addr:full": "600 W OLYMPIC DR", "addr:postcode": "61046", "addr:state": "IL", "brand": "USPS", "collection_times": "Mo-Fr 16:45; Sa 12:00", "name": "USPS COLLECTION BOX - PO LOBBY", "note": "ON 12/24 AND 12/31, THIS BOX MAY BE COLLECTED AS EARLY AS 12 NOON.", "ref": "6104600010"}, "type": "Feature"}
{"geometry": {"coordinates": [-89.404049, 42.127336], "type": "Point"}, "id": "51wKPCFWwj2cGBjuSJTJmlBjSsY=", "properties": {"@spider": "usps_collection_boxes", "addr:city": "LEAF RIVER", "addr:country": "US", "addr:full": "116 MAIN ST", "addr:postcode": "61047", "addr:state": "IL", "brand": "USPS", "collection_times": "Mo-Fr 16:15; Sa 10:45", "name": "USPS COLLECTION BOX - BLUE BOX", "note": "ON 12/24 AND 12/31, THIS BOX MAY BE COLLECTED AS EARLY AS 12 NOON.", "ref": "6104700001"}, "type": "Feature"}
{"geometry": {"coordinates": [-89.404049, 42.127336], "type": "Point"}, "id": "xE6OGYTuY1Z7aRvnDcGRhjVQ9xE=", "properties": {"@spider": "usps_collection_boxes", "addr:city": "LEAF RIVER", "addr:country": "US", "addr:full": "116 MAIN ST", "addr:postcode": "61047", "addr:state": "IL", "brand": "USPS", "collection_times": "Mo-Fr 16:15; Sa 10:45", "name": "USPS COLLECTION BOX - PO LOBBY", "note": "ON 12/24 AND 12/31, THIS BOX MAY BE COLLECTED AS EARLY AS 12 NOON.", "ref": "6104700002"}, "type": "Feature"}
{"geometry": {"coordinates": [-89.404049, 42.127336], "type": "Point"}, "id": "BhOULs4kq7RjFfY1QJlfACXE8rM=", "properties": {"@spider": "usps_collection_boxes", "addr:city": "LEAF RIVER", "addr:country": "US", "addr:full": "116 MAIN ST", "addr:postcode": "61047", "addr:state": "IL", "brand": "USPS", "collection_times": "Mo-Fr 16:15; Sa 10:45", "name": "USPS COLLECTION BOX - PO LOBBY", "note": "ON 12/24 AND 12/31, THIS BOX MAY BE COLLECTED AS EARLY AS 12 NOON.", "ref": "6104700003"}, "type": "Feature"}
{"geometry": {"coordinates": [-89.4034712, 42.120096], "type": "Point"}, "id": "T_i3r4GQeXAjeOGoabfbsC4fxug=", "properties": {"@spider": "usps_collection_boxes", "addr:city": "LEAF RIVER", "addr:country": "US", "addr:full": "705 MAIN ST", "addr:postcode": "61047", "addr:state": "IL", "brand": "USPS", "collection_times": "Mo-Sa 11:00", "name": "USPS COLLECTION BOX - BLUE BOX", "ref": "6104700004"}, "type": "Feature"}
{"geometry": {"coordinates": [-89.404079545, 42.12674122], "type": "Point"}, "id": "rj1Emf2gfjFCo63G9MU-YgG8Qi0=", "properties": {"@spider": "usps_collection_boxes", "addr:city": "LEAF RIVER", "addr:country": "US", "addr:full": "116 MAIN ST", "addr:postcode": "61047", "addr:state": "IL", "brand": "USPS", "collection_times": "Mo-Fr 16:15; Sa 10:45", "name": "USPS COLLECTION BOX - PO LOBBY", "note": "ON 12/24 AND 12/31, THIS BOX MAY BE COLLECTED AS EARLY AS 12 NOON.", "ref": "6104700005"}, "type": "Feature"}
{"geometry": {"coordinates": [-89.828621, 42.372512], "type": "Point"}, "id": "m638Bu8Rxcd9YYFC5kL3jNyv3Sg=", "properties": {"@spider": "usps_collection_boxes", "addr:city": "LENA", "addr:country": "US", "addr:full": "913 S LOGAN ST", "addr:postcode": "61048", "addr:state": "IL", "brand": "USPS", "collection_times": "Mo-Fr 16:00; Sa 10:45", "name": "USPS COLLECTION BOX - BLUE BOX", "note": "ON 12/24 AND 12/31, THIS BOX MAY BE COLLECTED AS EARLY AS 12 NOON.", "ref": "6104800002"}, "type": "Feature"}
{"geometry": {"coordinates": [-89.824077, 42.378124], "type": "Point"}, "id": "sI6q1UL3lyzr8mD_YMkASwMD1yY=", "properties": {"@spider": "usps_collection_boxes", "addr:city": "LENA", "addr:country": "US", "addr:full": "102 W MAIN ST", "addr:postcode": "61048", "addr:state": "IL", "brand": "USPS", "collection_times": "Mo-Fr 14:45; Sa 10:45", "name": "USPS COLLECTION BOX - BLUE BOX", "note": "ON 12/24 AND 12/31, THIS BOX MAY BE COLLECTED AS EARLY AS 12 NOON.", "ref": "6104800003"}, "type": "Feature"}
{"geometry": {"coordinates": [-89.828585, 42.3725], "type": "Point"}, "id": "FPVMOFzL1_MulhnywQ0rSitxkKw=", "properties": {"@spider": "usps_collection_boxes", "addr:city": "LENA", "addr:country": "US", "addr:full": "913 S LOGAN ST", "addr:postcode": "61048", "addr:state": "IL", "brand": "USPS", "collection_times": "Mo-Fr 16:30; Sa 10:45", "name": "USPS COLLECTION BOX - PO LOBBY", "note": "ON 12/24 AND 12/31, THIS BOX MAY BE COLLECTED AS EARLY AS 12 NOON.", "ref": "6104800004"}, "type": "Feature"}
{"geometry": {"coordinates": [-89.828585, 42.3725], "type": "Point"}, "id": "WKgkwMJGbIiPera0codJCM-XGYY=", "properties": {"@spider": "usps_collection_boxes", "addr:city": "LENA", "addr:country": "US", "addr:full": "913 S LOGAN ST", "addr:postcode": "61048", "addr:state": "IL", "brand": "USPS", "collection_times": "Mo-Fr 16:30; Sa 10:45", "name": "USPS COLLECTION BOX - PO LOBBY", "note": "ON 12/24 AND 12/31, THIS BOX MAY BE COLLECTED AS EARLY AS 12 NOON.", "ref": "6104800005"}, "type": "Feature"}
{"geometry": {"coordinates": [-89.8281959, 42.383388], "type": "Point"}, "id": "IDKcN9uieHx32-INBvc7MuPcXjo=", "properties": {"@spider": "usps_collection_boxes", "addr:city": "LENA", "addr:country": "US", "addr:full": "435 W LENA ST", "addr:postcode": "61048", "addr:state": "IL", "brand": "USPS", "collection_times": "Mo-Fr 14:45; Sa 10:45", "name": "USPS COLLECTION BOX - BLUE BOX", "note": "ON 12/24 AND 12/31, THIS BOX MAY BE COLLECTED AS EARLY AS 12 NOON.", "ref": "6104800006"}, "type": "Feature"}
{"geometry": {"coordinates": [-89.828617198, 42.372819], "type": "Point"}, "id": "nO3jj4TVFE9b0J8cJ9UitxkF_Is=", "properties": {"@spider": "usps_collection_boxes", "addr:city": "LENA", "addr:country": "US", "addr:full": "913 S LOGAN ST", "addr:postcode": "61048", "addr:state": "IL", "brand": "USPS", "collection_times": "Mo-Fr 04:30; Sa 10:45", "name": "USPS COLLECTION BOX - PO LOBBY", "ref": "6104800008"}, "type": "Feature"}
{"geometry": {"coordinates": [-89.030368, 42.053179], "type": "Point"}, "id": "GeHU1-ZEatzKD0ZiNkZ5mVj62aQ=", "properties": {"@spider": "usps_collection_boxes", "addr:city": "LINDENWOOD", "addr:country": "US", "addr:full": "104 S WALNUT ST", "addr:postcode": "61049", "addr:state": "IL", "brand": "USPS", "collection_times": "Mo-Fr 16:00; Sa 10:45", "name": "USPS COLLECTION BOX - BLUE BOX", "note": "ON 12/24 AND 12/31, THIS BOX MAY BE COLLECTED AS EARLY AS 12 NOON.", "ref": "6104900001"}, "type": "Feature"}
{"geometry": {"coordinates": [-89.030331, 42.053097], "type": "Point"}, "id": "369bl4LCS2gDOPfKRM4Aqx86ZAI=", "properties": {"@spider": "usps_collection_boxes", "addr:city": "LINDENWOOD", "addr:country": "US", "addr:full": "104 S WALNUT ST", "addr:postcode": "61049", "addr:state": "IL", "brand": "USPS", "collection_times": "Mo-Fr 16:00; Sa 10:45", "name": "USPS COLLECTION BOX - PO LOBBY", "note": "ON 12/24 AND 12/31, THIS BOX MAY BE COLLECTED AS EARLY AS 12 NOON.", "ref": "6104900002"}, "type": "Feature"}
{"geometry": {"coordinates": [-89.030360932, 42.052624827], "type": "Point"}, "id": "TNVpGmyTdO0g-KsvGQr5Y9Z9B1s=", "properties": {"@spider": "usps_collection_boxes", "addr:city": "LINDENWOOD", "addr:country": "US", "addr:full": "104 S WALNUT ST", "addr:postcode": "61049", "addr:state": "IL", "brand": "USPS", "collection_times": "Mo-Fr 16:00; Sa 10:45", "name": "USPS COLLECTION BOX - PO LOBBY", "note": "ON 12/24 AND 12/31, THIS BOX MAY BE COLLECTED AS EARLY AS 12 NOON.", "ref": "6104900004"}, "type": "Feature"}
{"geometry": {"coordinates": [-89.729408, 42.434913], "type": "Point"}, "id": "hC97SZSLZ22SwXNhb_9NHiAgQSo=", "properties": {"@spider": "usps_collection_boxes", "addr:city": "MCCONNELL", "addr:country": "US", "addr:full": "218 E MAIN ST", "addr:postcode": "61050", "addr:state": "IL", "brand": "USPS", "collection_times": "Mo-Fr 15:45; Sa 10:45", "name": "USPS COLLECTION BOX - BLUE BOX", "note": "ON 12/24 AND 12/31, THIS BOX MAY BE COLLECTED AS EARLY AS 12 NOON.", "ref": "6105000001"}, "type": "Feature"}
{"geometry": {"coordinates": [-89.729471, 42.434871], "type": "Point"}, "id": "2yiWYhuoiV46T0jf4hzwxtTF_Wk=", "properties": {"@spider": "usps_collection_boxes", "addr:city": "MCCONNELL", "addr:country": "US", "addr:full": "218 E MAIN ST", "addr:postcode": "61050", "addr:state": "IL", "brand": "USPS", "collection_times": "Mo-Fr 15:45; Sa 10:45", "name": "USPS COLLECTION BOX - PO LOBBY", "note": "ON 12/24 AND 12/31, THIS BOX MAY BE COLLECTED AS EARLY AS 12 NOON.", "ref": "6105000002"}, "type": "Feature"}
{"geometry": {"coordinates": [-89.728588666, 42.435105023], "type": "Point"}, "id": "VPgRuIkdA9Gka2oFjd2MYiG1TNw=", "properties": {"@spider": "usps_collection_boxes", "addr:city": "MCCONNELL", "addr:country": "US", "addr:full": "218 E MAIN ST", "addr:postcode": "61050", "addr:state": "IL", "brand": "USPS", "collection_times": "Mo-Fr 15:45; Sa 10:45", "name": "USPS COLLECTION BOX - PO LOBBY", "note": "ON 12/24 AND 12/31, THIS BOX MAY BE COLLECTED AS EARLY AS 12 NOON.", "ref": "6105000003"}, "type": "Feature"}
{"geometry": {"coordinates": [-89.77598, 41.962997], "type": "Point"}, "id": "1v1cBO-JSr_pEvEKK1S06E-_fzo=", "properties": {"@spider": "usps_collection_boxes", "addr:city": "MILLEDGEVILLE", "addr:country": "US", "addr:full": "315 N MEYERS AVE", "addr:postcode": "61051", "addr:state": "IL", "brand": "USPS", "collection_times": "Mo-Fr 16:15; Sa 11:00", "name": "USPS COLLECTION BOX - BLUE BOX", "note": "ON 12/24 AND 12/31, THIS BOX MAY BE COLLECTED AS EARLY AS 12 NOON.", "ref": "6105100001"}, "type": "Feature"}
{"geometry": {"coordinates": [-89.775941, 41.96292], "type": "Point"}, "id": "u1kuTRz1INBEOp5_OItPlSYBC3g=", "properties": {"@spider": "usps_collection_boxes", "addr:city": "MILLEDGEVILLE", "addr:country": "US", "addr:full": "315 N MEYERS AVE", "addr:postcode": "61051", "addr:state": "IL", "brand": "USPS", "collection_times": "Mo-Fr 16:15; Sa 11:00", "name": "USPS COLLECTION BOX - PO LOBBY", "note": "ON 12/24 AND 12/31, THIS BOX MAY BE COLLECTED AS EARLY AS 12 NOON.", "ref": "6105100002"}, "type": "Feature"}
{"geometry": {"coordinates": [-89.775941, 41.96292], "type": "Point"}, "id": "EAyLTYY3rUTu-m5vYzq738eckJE=", "properties": {"@spider": "usps_collection_boxes", "addr:city": "MILLEDGEVILLE", "addr:country": "US", "addr:full": "315 N MEYERS AVE", "addr:postcode": "61051", "addr:state": "IL", "brand": "USPS", "collection_times": "Mo-Fr 16:15; Sa 11:00", "name": "USPS COLLECTION BOX - PO LOBBY", "note": "ON 12/24 AND 12/31, THIS BOX MAY BE COLLECTED AS EARLY AS 12 NOON.", "ref": "6105100003"}, "type": "Feature"}
{"geometry": {"coordinates": [-89.776001162, 41.962956416], "type": "Point"}, "id": "7-nCWhSsXYJlX7ImxR4HDbcGd_0=", "properties": {"@spider": "usps_collection_boxes", "addr:city": "MILLEDGEVILLE", "addr:country": "US", "addr:full": "315 N MEYERS AVE", "addr:postcode": "61051", "addr:state": "IL", "brand": "USPS", "collection_times": "Mo-Fr 16:15; Sa 11:00", "name": "USPS COLLECTION BOX - PO LOBBY", "note": "ON 12/24 AND 12/31, THIS BOX MAY BE COLLECTED AS EARLY AS 12 NOON.", "ref": "6105100006"}, "type": "Feature"}
{"geometry": {"coordinates": [-88.999779, 42.098163], "type": "Point"}, "id": "keUIIhP1X1QMLAC7vZdWd_3UGI4=", "properties": {"@spider": "usps_collection_boxes", "addr:city": "MONROE CENTER", "addr:country": "US", "addr:full": "200 MAIN ST", "addr:postcode": "61052", "addr:state": "IL", "brand": "USPS", "collection_times": "Mo-Fr 11:15; Sa 12:00", "name": "USPS COLLECTION BOX - BLUE BOX", "ref": "6105200001"}, "type": "Feature"}
{"geometry": {"coordinates": [-88.999779, 42.098163], "type": "Point"}, "id": "NRtODjYVq32K420RaJ1KTgh4FU0=", "properties": {"@spider": "usps_collection_boxes", "addr:city": "MONROE CENTER", "addr:country": "US", "addr:full": "200 MAIN ST", "addr:postcode": "61052", "addr:state": "IL", "brand": "USPS", "collection_times": "Mo-Fr 11:15; Sa 12:00", "name": "USPS COLLECTION BOX - PO LOBBY", "ref": "6105200002"}, "type": "Feature"}
{"geometry": {"coordinates": [-88.999779, 42.098163], "type": "Point"}, "id": "4asi3-yVOMWbB1HeZ9NZfUpDpn8=", "properties": {"@spider": "usps_collection_boxes", "addr:city": "MONROE CENTER", "addr:country": "US", "addr:full": "200 MAIN ST", "addr:postcode": "61052", "addr:state": "IL", "brand": "USPS", "collection_times": "Mo-Fr 11:15; Sa 12:00", "name": "USPS COLLECTION BOX - PO LOBBY", "ref": "6105200003"}, "type": "Feature"}
{"geometry": {"coordinates": [-89.978803, 42.10087], "type": "Point"}, "id": "MiXKosCvCKmyzSTPXwtwwW61was=", "properties": {"@spider": "usps_collection_boxes", "addr:city": "MOUNT CARROLL", "addr:country": "US", "addr:full": "301 N MAIN ST", "addr:postcode": "61053", "addr:state": "IL", "brand": "USPS", "collection_times": "Mo-Fr 16:15; Sa 12:00", "name": "USPS COLLECTION BOX - BLUE BOX", "note": "ON 12/24 AND 12/31, THIS BOX MAY BE COLLECTED AS EARLY AS 12 NOON.", "ref": "6105300002"}, "type": "Feature"}
{"geometry": {"coordinates": [-89.977701, 42.099679], "type": "Point"}, "id": "kDEpy707ktmIfKPf7j6Q7QF5Y3w=", "properties": {"@spider": "usps_collection_boxes", "addr:city": "MOUNT CARROLL", "addr:country": "US", "addr:full": "211 N CLAY ST", "addr:postcode": "61053", "addr:state": "IL", "brand": "USPS", "collection_times": "Mo-Fr 16:15; Sa 12:00", "name": "USPS COLLECTION BOX - PO LOBBY", "note": "ON 12/24 AND 12/31, THIS BOX MAY BE COLLECTED AS EARLY AS 12 NOON.", "ref": "6105300006"}, "type": "Feature"}
{"geometry": {"coordinates": [-89.977738, 42.099608], "type": "Point"}, "id": "0A2M2gpcigeEywy3LVfhLNtgGvk=", "properties": {"@spider": "usps_collection_boxes", "addr:city": "MOUNT CARROLL", "addr:country": "US", "addr:full": "211 N CLAY ST", "addr:postcode": "61053", "addr:state": "IL", "brand": "USPS", "collection_times": "Mo-Fr 16:15; Sa 12:00", "name": "USPS COLLECTION BOX - PO LOBBY", "note": "ON 12/24 AND 12/31, THIS BOX MAY BE COLLECTED AS EARLY AS 12 NOON.", "ref": "6105300007"}, "type": "Feature"}
{"geometry": {"coordinates": [-89.977738, 42.099608], "type": "Point"}, "id": "mRu1HPNV_4lD-UUu6CBSR_etn3E=", "properties": {"@spider": "usps_collection_boxes", "addr:city": "MOUNT CARROLL", "addr:country": "US", "addr:full": "211 N CLAY ST", "addr:postcode": "61053", "addr:state": "IL", "brand": "USPS", "collection_times": "Mo-Fr 16:15; Sa 12:00", "name": "USPS COLLECTION BOX - PO LOBBY", "note": "ON 12/24 AND 12/31, THIS BOX MAY BE COLLECTED AS EARLY AS 12 NOON.", "ref": "6105300008"}, "type": "Feature"}
{"geometry": {"coordinates": [-89.97770498, 42.1002], "type": "Point"}, "id": "CVc6CgNpAXvD5f8ic3_eBPT3V1Y=", "properties": {"@spider": "usps_collection_boxes", "addr:city": "MOUNT CARROLL", "addr:country": "US", "addr:full": "211 N CLAY ST", "addr:postcode": "61053", "addr:state": "IL", "brand": "USPS", "collection_times": "Mo-Fr 16:15; Sa 12:00", "name": "USPS COLLECTION BOX - PO LOBBY", "note": "ON 12/24 AND 12/31, THIS BOX MAY BE COLLECTED AS EARLY AS 12 NOON.", "ref": "6105300009"}, "type": "Feature"}
{"geometry": {"coordinates": [-89.4353979, 42.048352], "type": "Point"}, "id": "y7OuOCe5U2JVACVrDu3ksPY_yMw=", "properties": {"@spider": "usps_collection_boxes", "addr:city": "MOUNT MORRIS", "addr:country": "US", "addr:full": "21 W MAIN ST", "addr:postcode": "61054", "addr:state": "IL", "brand": "USPS", "collection_times": "Mo-Fr 17:00; Sa 16:00", "name": "USPS COLLECTION BOX - BLUE BOX", "note": "ON 12/24 AND 12/31, THIS BOX MAY BE COLLECTED AS EARLY AS 12 NOON.", "ref": "6105400001"}, "type": "Feature"}
{"geometry": {"coordinates": [-89.434382, 42.048627], "type": "Point"}, "id": "1jFhxQxVYKi_h5X3-Ke74b2Ghs4=", "properties": {"@spider": "usps_collection_boxes", "addr:city": "MOUNT MORRIS", "addr:country": "US", "addr:full": "21 W MAIN ST", "addr:postcode": "61054", "addr:state": "IL", "brand": "USPS", "collection_times": "Mo-Fr 17:00; Sa 16:00", "name": "USPS COLLECTION BOX - BLUE BOX", "note": "ON 12/24 AND 12/31, THIS BOX MAY BE COLLECTED AS EARLY AS 12 NOON.", "ref": "6105400012"}, "type": "Feature"}
{"geometry": {"coordinates": [-89.434382, 42.048627], "type": "Point"}, "id": "6DH9QMglYrxXQSHtSyxkbyTDoqM=", "properties": {"@spider": "usps_collection_boxes", "addr:city": "MOUNT MORRIS", "addr:country": "US", "addr:full": "21 W MAIN ST", "addr:postcode": "61054", "addr:state": "IL", "brand": "USPS", "collection_times": "Mo-Fr 17:00; Sa 16:00", "name": "USPS COLLECTION BOX - PO LOBBY", "note": "ON 12/24 AND 12/31, THIS BOX MAY BE COLLECTED AS EARLY AS 12 NOON.", "ref": "6105400013"}, "type": "Feature"}
{"geometry": {"coordinates": [-89.434382, 42.048627], "type": "Point"}, "id": "YXXDTiXGdsNGdjr4nFA8jcuqGdc=", "properties": {"@spider": "usps_collection_boxes", "addr:city": "MOUNT MORRIS", "addr:country": "US", "addr:full": "21 W MAIN ST", "addr:postcode": "61054", "addr:state": "IL", "brand": "USPS", "collection_times": "Mo-Fr 17:00; Sa 16:00", "name": "USPS COLLECTION BOX - BLUE BOX", "note": "ON 12/24 AND 12/31, THIS BOX MAY BE COLLECTED AS EARLY AS 12 NOON.", "ref": "6105400016"}, "type": "Feature"}
{"geometry": {"coordinates": [-89.435061555, 42.048574536], "type": "Point"}, "id": "MgxP2wfEBI7W4S22c4WIfwmxWkM=", "properties": {"@spider": "usps_collection_boxes", "addr:city": "MOUNT MORRIS", "addr:country": "US", "addr:full": "21 W MAIN ST", "addr:postcode": "61054", "addr:state": "IL", "brand": "USPS", "collection_times": "Mo-Fr 17:00; Sa 16:00", "name": "USPS COLLECTION BOX - PO LOBBY", "note": "ON 12/24 AND 12/31, THIS BOX MAY BE COLLECTED AS EARLY AS 12 NOON.", "ref": "6105400018"}, "type": "Feature"}
{"geometry": {"coordinates": [-89.390673, 41.830346], "type": "Point"}, "id": "A9mwMOEW-eEdqkVEnbV1pSOmp9k=", "properties": {"@spider": "usps_collection_boxes", "addr:city": "NACHUSA", "addr:country": "US", "addr:full": "1712 WARREN ST", "addr:postcode": "61057", "addr:state": "IL", "brand": "USPS", "collection_times": "Mo-Fr 16:45; Sa 09:45", "name": "USPS COLLECTION BOX - BLUE BOX", "note": "ON 12/24 AND 12/31, THIS BOX MAY BE COLLECTED AS EARLY AS 12 NOON.", "ref": "6105700001"}, "type": "Feature"}
{"geometry": {"coordinates": [-89.390581, 41.83032], "type": "Point"}, "id": "Oc6AgqYPxxgG9VT6vtVyHJ5fz-Q=", "properties": {"@spider": "usps_collection_boxes", "addr:city": "NACHUSA", "addr:country": "US", "addr:full": "1712 WARREN ST", "addr:postcode": "61057", "addr:state": "IL", "brand": "USPS", "collection_times": "Mo-Fr 16:45; Sa 09:45", "name": "USPS COLLECTION BOX - PO LOBBY", "note": "ON 12/24 AND 12/31, THIS BOX MAY BE COLLECTED AS EARLY AS 12 NOON.", "ref": "6105700002"}, "type": "Feature"}
{"geometry": {"coordinates": [-89.390581, 41.83032], "type": "Point"}, "id": "EyZlSpanVF-ya96jFZk0rVKey-U=", "properties": {"@spider": "usps_collection_boxes", "addr:city": "NACHUSA", "addr:country": "US", "addr:full": "1712 WARREN ST", "addr:postcode": "61057", "addr:state": "IL", "brand": "USPS", "collection_times": "Mo-Fr 16:45; Sa 09:45", "name": "USPS COLLECTION BOX - PO LOBBY", "note": "ON 12/24 AND 12/31, THIS BOX MAY BE COLLECTED AS EARLY AS 12 NOON.", "ref": "6105700003"}, "type": "Feature"}
{"geometry": {"coordinates": [-89.391671112, 41.831947292], "type": "Point"}, "id": "vghf55GJjnIQkod4r75OBnghmS0=", "properties": {"@spider": "usps_collection_boxes", "addr:city": "NACHUSA", "addr:country": "US", "addr:full": "1712 WARREN ST", "addr:postcode": "61057", "addr:state": "IL", "brand": "USPS", "collection_times": "Mo-Fr 16:45; Sa 09:45", "name": "USPS COLLECTION BOX - PO LOBBY", "note": "ON 12/24 AND 12/31, THIS BOX MAY BE COLLECTED AS EARLY AS 12 NOON.", "ref": "6105700004"}, "type": "Feature"}
{"geometry": {"coordinates": [-89.94154, 42.453274], "type": "Point"}, "id": "s6T-UkFsiwBmRyhvtyutc1A8cXU=", "properties": {"@spider": "usps_collection_boxes", "addr:city": "NORA", "addr:country": "US", "addr:full": "111 W CHESTNUT ST", "addr:postcode": "61059", "addr:state": "IL", "brand": "USPS", "collection_times": "Mo-Fr 16:15; Sa 10:00", "name": "USPS COLLECTION BOX - BLUE BOX", "note": "ON 12/24 AND 12/31, THIS BOX MAY BE COLLECTED AS EARLY AS 12 NOON.", "ref": "6105900001"}, "type": "Feature"}
{"geometry": {"coordinates": [-89.94154, 42.453274], "type": "Point"}, "id": "qoKhrQtuUB0Lxos2ewcBBj27lew=", "properties": {"@spider": "usps_collection_boxes", "addr:city": "NORA", "addr:country": "US", "addr:full": "111 W CHESTNUT ST", "addr:postcode": "61059", "addr:state": "IL", "brand": "USPS", "collection_times": "Mo-Fr 16:15; Sa 10:00", "name": "USPS COLLECTION BOX - PO LOBBY", "note": "ON 12/24 AND 12/31, THIS BOX MAY BE COLLECTED AS EARLY AS 12 NOON.", "ref": "6105900002"}, "type": "Feature"}
{"geometry": {"coordinates": [-89.945719106, 42.456112912], "type": "Point"}, "id": "685BgsB_emA0M0kqs6ign0bw_-k=", "properties": {"@spider": "usps_collection_boxes", "addr:city": "NORA", "addr:country": "US", "addr:full": "111 W CHESTNUT ST", "addr:postcode": "61059", "addr:state": "IL", "brand": "USPS", "collection_times": "Mo-Fr 16:15; Sa 10:00", "name": "USPS COLLECTION BOX - PO LOBBY", "note": "ON 12/24 AND 12/31, THIS BOX MAY BE COLLECTED AS EARLY AS 12 NOON.", "ref": "6105900003"}, "type": "Feature"}
{"geometry": {"coordinates": [-89.645599, 42.468606], "type": "Point"}, "id": "GeMqhaQ7-9aq85ZmnBnLmYroAd8=", "properties": {"@spider": "usps_collection_boxes", "addr:city": "ORANGEVILLE", "addr:country": "US", "addr:full": "211 W HIGH ST", "addr:postcode": "61060", "addr:state": "IL", "brand": "USPS", "collection_times": "Mo-Fr 14:30; Sa 09:30", "name": "USPS COLLECTION BOX - BLUE BOX", "note": "ON 12/24 AND 12/31, THIS BOX MAY BE COLLECTED AS EARLY AS 12 NOON.", "ref": "6106000001"}, "type": "Feature"}
{"geometry": {"coordinates": [-89.645502, 42.468633], "type": "Point"}, "id": "NaW-T2PFNDihAqYT8LGHUXb6lkA=", "properties": {"@spider": "usps_collection_boxes", "addr:city": "ORANGEVILLE", "addr:country": "US", "addr:full": "211 W HIGH ST", "addr:postcode": "61060", "addr:state": "IL", "brand": "USPS", "collection_times": "Mo-Fr 14:30; Sa 09:30", "name": "USPS COLLECTION BOX - PO LOBBY", "note": "ON 12/24 AND 12/31, THIS BOX MAY BE COLLECTED AS EARLY AS 12 NOON.", "ref": "6106000002"}, "type": "Feature"}
{"geometry": {"coordinates": [-89.645502, 42.468633], "type": "Point"}, "id": "6i3ruIRjK3uX5Vq_44Yyx5fn_X4=", "properties": {"@spider": "usps_collection_boxes", "addr:city": "ORANGEVILLE", "addr:country": "US", "addr:full": "211 W HIGH ST", "addr:postcode": "61060", "addr:state": "IL", "brand": "USPS", "collection_times": "Mo-Fr 14:30; Sa 09:30", "name": "USPS COLLECTION BOX - PO LOBBY", "note": "ON 12/24 AND 12/31, THIS BOX MAY BE COLLECTED AS EARLY AS 12 NOON.", "ref": "6106000003"}, "type": "Feature"}
{"geometry": {"coordinates": [-89.6521573, 42.468514], "type": "Point"}, "id": "jiOS1xBB0lpjqRqXUTlTXfCoGKw=", "properties": {"@spider": "usps_collection_boxes", "addr:city": "ORANGEVILLE", "addr:country": "US", "addr:full": "456 HIGH ST", "addr:postcode": "61060", "addr:state": "IL", "brand": "USPS", "collection_times": "Mo-Sa 12:00", "name": "USPS COLLECTION BOX - BLUE BOX", "ref": "6106000004"}, "type": "Feature"}
{"geometry": {"coordinates": [-89.646313668, 42.468608474], "type": "Point"}, "id": "wOaLD6Lnb9n4VlkUyHk3HZ8eIbA=", "properties": {"@spider": "usps_collection_boxes", "addr:city": "ORANGEVILLE", "addr:country": "US", "addr:full": "211 W HIGH ST", "addr:postcode": "61060", "addr:state": "IL", "brand": "USPS", "collection_times": "Mo-Fr 14:30; Sa 09:30", "name": "USPS COLLECTION BOX - PO LOBBY", "note": "ON 12/24 AND 12/31, THIS BOX MAY BE COLLECTED AS EARLY AS 12 NOON.", "ref": "6106000006"}, "type": "Feature"}
{"geometry": {"coordinates": [-89.333779, 42.01463], "type": "Point"}, "id": "ZnwZkAk_h1gUm5m0EN7ScbK5C0k=", "properties": {"@spider": "usps_collection_boxes", "addr:city": "OREGON", "addr:country": "US", "addr:full": "500 WASHINGTON ST", "addr:postcode": "61061", "addr:state": "IL", "brand": "USPS", "collection_times": "Mo-Fr 17:30; Sa 15:00", "name": "USPS COLLECTION BOX - BLUE BOX", "note": "ON 12/24 AND 12/31, THIS BOX MAY BE COLLECTED AS EARLY AS 12 NOON.", "ref": "6106100001"}, "type": "Feature"}
{"geometry": {"coordinates": [-89.333779, 42.01463], "type": "Point"}, "id": "VcFoylchP-bOjCZuePjyYlybXgA=", "properties": {"@spider": "usps_collection_boxes", "addr:city": "OREGON", "addr:country": "US", "addr:full": "500 WASHINGTON ST", "addr:postcode": "61061", "addr:state": "IL", "brand": "USPS", "collection_times": "Mo-Fr 17:30; Sa 15:00", "name": "USPS COLLECTION BOX - BLUE BOX", "note": "ON 12/24 AND 12/31, THIS BOX MAY BE COLLECTED AS EARLY AS 12 NOON.", "ref": "6106100002"}, "type": "Feature"}
{"geometry": {"coordinates": [-89.3308067, 42.016263], "type": "Point"}, "id": "4uCAyQqzTEHvIKcsJywP6LyJNeI=", "properties": {"@spider": "usps_collection_boxes", "addr:city": "OREGON", "addr:country": "US", "addr:full": "201 N 3RD ST", "addr:postcode": "61061", "addr:state": "IL", "brand": "USPS", "collection_times": "Mo-Sa 10:00", "name": "USPS COLLECTION BOX - BLUE BOX", "ref": "6106100003"}, "type": "Feature"}
{"geometry": {"coordinates": [-89.3326057, 42.014406], "type": "Point"}, "id": "k8ECFVx70ZLjL6EU7nuPtUaCfhg=", "properties": {"@spider": "usps_collection_boxes", "addr:city": "OREGON", "addr:country": "US", "addr:full": "101 S 4TH ST", "addr:postcode": "61061", "addr:state": "IL", "brand": "USPS", "collection_times": "Mo-Sa 12:00", "name": "USPS COLLECTION BOX - BLUE BOX", "ref": "6106100005"}, "type": "Feature"}
{"geometry": {"coordinates": [-89.3313516, 42.014451], "type": "Point"}, "id": "N7LIX-lnUEclGNiVb5GOgqHC1Hk=", "properties": {"@spider": "usps_collection_boxes", "addr:city": "OREGON", "addr:country": "US", "addr:full": "301 WASHINGTON ST", "addr:postcode": "61061", "addr:state": "IL", "brand": "USPS", "collection_times": "Mo-Sa 13:00", "name": "USPS COLLECTION BOX - BLUE BOX", "note": "ON 12/24 AND 12/31, THIS BOX MAY BE COLLECTED AS EARLY AS 12 NOON.", "ref": "6106100011"}, "type": "Feature"}
{"geometry": {"coordinates": [-89.333779, 42.01463], "type": "Point"}, "id": "NOfKdeKRqUBUJAPm5tXn2_RP-t0=", "properties": {"@spider": "usps_collection_boxes", "addr:city": "OREGON", "addr:country": "US", "addr:full": "500 WASHINGTON ST", "addr:postcode": "61061", "addr:state": "IL", "brand": "USPS", "collection_times": "Mo-Fr 17:30; Sa 15:00", "name": "USPS COLLECTION BOX - BLUE BOX", "note": "ON 12/24 AND 12/31, THIS BOX MAY BE COLLECTED AS EARLY AS 12 NOON.", "ref": "6106100015"}, "type": "Feature"}
{"geometry": {"coordinates": [-89.333779, 42.01463], "type": "Point"}, "id": "mZXR2mu6nTLsKJtxNzsE6VizSW4=", "properties": {"@spider": "usps_collection_boxes", "addr:city": "OREGON", "addr:country": "US", "addr:full": "500 WASHINGTON ST", "addr:postcode": "61061", "addr:state": "IL", "brand": "USPS", "collection_times": "Mo-Fr 17:30; Sa 15:00", "name": "USPS COLLECTION BOX - BLUE BOX", "note": "ON 12/24 AND 12/31, THIS BOX MAY BE COLLECTED AS EARLY AS 12 NOON.", "ref": "6106100016"}, "type": "Feature"}
{"geometry": {"coordinates": [-89.333779, 42.01463], "type": "Point"}, "id": "EGVD-23yHBkf_Ded1WV0qHX_X_A=", "properties": {"@spider": "usps_collection_boxes", "addr:city": "OREGON", "addr:country": "US", "addr:full": "500 WASHINGTON ST", "addr:postcode": "61061", "addr:state": "IL", "brand": "USPS", "collection_times": "Mo-Fr 17:30; Sa 15:00", "name": "USPS COLLECTION BOX - PO LOBBY", "note": "ON 12/24 AND 12/31, THIS BOX MAY BE COLLECTED AS EARLY AS 12 NOON.", "ref": "6106100018"}, "type": "Feature"}
{"geometry": {"coordinates": [-89.334202081, 42.014663453], "type": "Point"}, "id": "UXeJTZiO-PGolRKsKuQJuog0g6I=", "properties": {"@spider": "usps_collection_boxes", "addr:city": "OREGON", "addr:country": "US", "addr:full": "500 WASHINGTON ST", "addr:postcode": "61061", "addr:state": "IL", "brand": "USPS", "collection_times": "Mo-Fr 17:30; Sa 15:00", "name": "USPS COLLECTION BOX - PO LOBBY", "note": "ON 12/24 AND 12/31, THIS BOX MAY BE COLLECTED AS EARLY AS 12 NOON.", "ref": "6106100020"}, "type": "Feature"}
{"geometry": {"coordinates": [-89.826237, 42.266944], "type": "Point"}, "id": "dGAj0tUCzx4QfzG5jbK7df7yuCc=", "properties": {"@spider": "usps_collection_boxes", "addr:city": "PEARL CITY", "addr:country": "US", "addr:full": "105 S MAIN ST", "addr:postcode": "61062", "addr:state": "IL", "brand": "USPS", "collection_times": "Mo-Fr 13:30; Sa 11:15", "name": "USPS COLLECTION BOX - BLUE BOX", "note": "ON 12/24 AND 12/31, THIS BOX MAY BE COLLECTED AS EARLY AS 12 NOON.", "ref": "6106200001"}, "type": "Feature"}
{"geometry": {"coordinates": [-89.826237, 42.266944], "type": "Point"}, "id": "gk6_ZWhWRm3x1YghNw6HrL4FetA=", "properties": {"@spider": "usps_collection_boxes", "addr:city": "PEARL CITY", "addr:country": "US", "addr:full": "105 S MAIN ST", "addr:postcode": "61062", "addr:state": "IL", "brand": "USPS", "collection_times": "Mo-Fr 13:30; Sa 11:15", "name": "USPS COLLECTION BOX - PO LOBBY", "note": "ON 12/24 AND 12/31, THIS BOX MAY BE COLLECTED AS EARLY AS 12 NOON.", "ref": "6106200002"}, "type": "Feature"}
{"geometry": {"coordinates": [-89.826237, 42.266944], "type": "Point"}, "id": "2cwRkTvMbZEK0UwFGu1KNat_oPA=", "properties": {"@spider": "usps_collection_boxes", "addr:city": "PEARL CITY", "addr:country": "US", "addr:full": "105 S MAIN ST", "addr:postcode": "61062", "addr:state": "IL", "brand": "USPS", "collection_times": "Mo-Fr 13:30; Sa 11:15", "name": "USPS COLLECTION BOX - PO LOBBY", "note": "ON 12/24 AND 12/31, THIS BOX MAY BE COLLECTED AS EARLY AS 12 NOON.", "ref": "6106200003"}, "type": "Feature"}
{"geometry": {"coordinates": [-89.826185253, 42.266992453], "type": "Point"}, "id": "jt8hZLT6tfarZUgDoIEYZWQGjPc=", "properties": {"@spider": "usps_collection_boxes", "addr:city": "PEARL CITY", "addr:country": "US", "addr:full": "105 S MAIN ST", "addr:postcode": "61062", "addr:state": "IL", "brand": "USPS", "collection_times": "Mo-Fr 13:30; Sa 11:15", "name": "USPS COLLECTION BOX - PO LOBBY", "note": "ON 12/24 AND 12/31, THIS BOX MAY BE COLLECTED AS EARLY AS 12 NOON.", "ref": "6106200005"}, "type": "Feature"}
{"geometry": {"coordinates": [-89.359101, 42.313923], "type": "Point"}, "id": "9BS3_Y2p-_fJL3XX64Ize-gJNNw=", "properties": {"@spider": "usps_collection_boxes", "addr:city": "PECATONICA", "addr:country": "US", "addr:full": "120 E 3RD ST", "addr:postcode": "61063", "addr:state": "IL", "brand": "USPS", "collection_times": "Mo-Fr 16:30; Sa 11:30", "name": "USPS COLLECTION BOX - BLUE BOX", "note": "ON 12/24 AND 12/31, THIS BOX MAY BE COLLECTED AS EARLY AS 12 NOON.", "ref": "6106300001"}, "type": "Feature"}
{"geometry": {"coordinates": [-89.359101, 42.313923], "type": "Point"}, "id": "GMLw1Z5-hH7f2dSF6wP_y_EpjD4=", "properties": {"@spider": "usps_collection_boxes", "addr:city": "PECATONICA", "addr:country": "US", "addr:full": "120 E 3RD ST", "addr:postcode": "61063", "addr:state": "IL", "brand": "USPS", "collection_times": "Mo-Fr 17:00; Sa 12:00", "name": "USPS COLLECTION BOX - PO LOBBY", "note": "ON 12/24 AND 12/31, THIS BOX MAY BE COLLECTED AS EARLY AS 12 NOON.", "ref": "6106300002"}, "type": "Feature"}
{"geometry": {"coordinates": [-89.358988191, 42.313991278], "type": "Point"}, "id": "VqrYJuxuSBmH5sX8f3PiL84YvkI=", "properties": {"@spider": "usps_collection_boxes", "addr:city": "PECATONICA", "addr:country": "US", "addr:full": "120 E 3RD ST", "addr:postcode": "61063", "addr:state": "IL", "brand": "USPS", "collection_times": "Mo-Fr 17:00; Sa 12:00", "name": "USPS COLLECTION BOX - PO LOBBY", "note": "ON 12/24 AND 12/31, THIS BOX MAY BE COLLECTED AS EARLY AS 12 NOON.", "ref": "6106300005"}, "type": "Feature"}
{"geometry": {"coordinates": [-89.577523, 41.986328], "type": "Point"}, "id": "d8bsDVF4m-z-idqOEGybaVIlULw=", "properties": {"@spider": "usps_collection_boxes", "addr:city": "POLO", "addr:country": "US", "addr:full": "110 N FRANKLIN AVE", "addr:postcode": "61064", "addr:state": "IL", "brand": "USPS", "collection_times": "Mo-Fr 16:45; Sa 12:00", "name": "USPS COLLECTION BOX - BLUE BOX", "note": "ON 12/24 AND 12/31, THIS BOX MAY BE COLLECTED AS EARLY AS 12 NOON.", "ref": "6106400002"}, "type": "Feature"}
{"geometry": {"coordinates": [-89.5756813, 41.986106], "type": "Point"}, "id": "u1Fi-XPBKr48OOxRt5q9iIFMtVw=", "properties": {"@spider": "usps_collection_boxes", "addr:city": "POLO", "addr:country": "US", "addr:full": "124 E MASON ST", "addr:postcode": "61064", "addr:state": "IL", "brand": "USPS", "collection_times": "Mo-Sa 14:30", "name": "USPS COLLECTION BOX - BLUE BOX", "note": "ON 12/24 AND 12/31, THIS BOX MAY BE COLLECTED AS EARLY AS 12 NOON.", "ref": "6106400003"}, "type": "Feature"}
{"geometry": {"coordinates": [-89.5756724, 41.986096], "type": "Point"}, "id": "tAHmsZepgr4TVfnE3DNpG8u8XcQ=", "properties": {"@spider": "usps_collection_boxes", "addr:city": "POLO", "addr:country": "US", "addr:full": "124 E MASON ST", "addr:postcode": "61064", "addr:state": "IL", "brand": "USPS", "collection_times": "Mo-Sa 14:30", "name": "USPS COLLECTION BOX - BLUE BOX", "note": "ON 12/24 AND 12/31, THIS BOX MAY BE COLLECTED AS EARLY AS 12 NOON.", "ref": "6106400004"}, "type": "Feature"}
{"geometry": {"coordinates": [-89.577562, 41.986275], "type": "Point"}, "id": "nPcgyRkjf3g-T2mxWrvw6KD0L3w=", "properties": {"@spider": "usps_collection_boxes", "addr:city": "POLO", "addr:country": "US", "addr:full": "110 N FRANKLIN AVE", "addr:postcode": "61064", "addr:state": "IL", "brand": "USPS", "collection_times": "Mo-Fr 16:30; Sa 12:00", "name": "USPS COLLECTION BOX - PO LOBBY", "note": "ON 12/24 AND 12/31, THIS BOX MAY BE COLLECTED AS EARLY AS 12 NOON.", "ref": "6106400005"}, "type": "Feature"}
{"geometry": {"coordinates": [-89.577562, 41.986275], "type": "Point"}, "id": "PQbxvEDcBFLd_bXMg_1Kv5s3MVE=", "properties": {"@spider": "usps_collection_boxes", "addr:city": "POLO", "addr:country": "US", "addr:full": "110 N FRANKLIN AVE", "addr:postcode": "61064", "addr:state": "IL", "brand": "USPS", "collection_times": "Mo-Fr 16:30; Sa 12:00", "name": "USPS COLLECTION BOX - PO LOBBY", "note": "ON 12/24 AND 12/31, THIS BOX MAY BE COLLECTED AS EARLY AS 12 NOON.", "ref": "6106400006"}, "type": "Feature"}
{"geometry": {"coordinates": [-89.57751459, 41.986591575], "type": "Point"}, "id": "Ode6YRbB-cL1GPe06sAZvyc8bwI=", "properties": {"@spider": "usps_collection_boxes", "addr:city": "POLO", "addr:country": "US", "addr:full": "110 N FRANKLIN AVE", "addr:postcode": "61064", "addr:state": "IL", "brand": "USPS", "collection_times": "Mo-Fr 16:30; Sa 12:00", "name": "USPS COLLECTION BOX - PO LOBBY", "note": "ON 12/24 AND 12/31, THIS BOX MAY BE COLLECTED AS EARLY AS 12 NOON.", "ref": "6106400007"}, "type": "Feature"}
{"geometry": {"coordinates": [-88.822573, 42.358594], "type": "Point"}, "id": "vTe6aNRRWuErdMYyO94-_wY1hbw=", "properties": {"@spider": "usps_collection_boxes", "addr:city": "POPLAR GROVE", "addr:country": "US", "addr:full": "105 E BRITNIE DR", "addr:postcode": "61065", "addr:state": "IL", "brand": "USPS", "collection_times": "Mo-Fr 16:45; Sa 12:00", "name": "USPS COLLECTION BOX - BLUE BOX", "note": "ON 12/24 AND 12/31, THIS BOX MAY BE COLLECTED AS EARLY AS 12 NOON.", "ref": "6106500001"}, "type": "Feature"}
{"geometry": {"coordinates": [-88.850648, 42.345881], "type": "Point"}, "id": "ZW2e_VLQM4M0HfeLnF-NiWoTriQ=", "properties": {"@spider": "usps_collection_boxes", "addr:city": "POPLAR GROVE", "addr:country": "US", "addr:full": "13521 IL ROUTE 76", "addr:postcode": "61065", "addr:state": "IL", "brand": "USPS", "collection_times": "Mo-Sa 12:00", "name": "USPS COLLECTION BOX - BLUE BOX", "ref": "6106500003"}, "type": "Feature"}
{"geometry": {"coordinates": [-88.822573, 42.358621], "type": "Point"}, "id": "3lPWNOkihgTiDMKq7mgXABMtM98=", "properties": {"@spider": "usps_collection_boxes", "addr:city": "POPLAR GROVE", "addr:country": "US", "addr:full": "105 E BRITNIE DR", "addr:postcode": "61065", "addr:state": "IL", "brand": "USPS", "collection_times": "Mo-Fr 17:00; Sa 12:00", "name": "USPS COLLECTION BOX - PO LOBBY", "note": "ON 12/24 AND 12/31, THIS BOX MAY BE COLLECTED AS EARLY AS 12 NOON.", "ref": "6106500004"}, "type": "Feature"}
{"geometry": {"coordinates": [-88.822573, 42.358621], "type": "Point"}, "id": "xzBTM5zEhl76tUwdpNEZONVbNY8=", "properties": {"@spider": "usps_collection_boxes", "addr:city": "POPLAR GROVE", "addr:country": "US", "addr:full": "105 E BRITNIE DR", "addr:postcode": "61065", "addr:state": "IL", "brand": "USPS", "collection_times": "Mo-Fr 17:00; Sa 12:00", "name": "USPS COLLECTION BOX - PO LOBBY", "note": "ON 12/24 AND 12/31, THIS BOX MAY BE COLLECTED AS EARLY AS 12 NOON.", "ref": "6106500005"}, "type": "Feature"}
{"geometry": {"coordinates": [-88.852077, 42.353315], "type": "Point"}, "id": "hcwYyZeYa0VUH2DT_sQXHG22p80=", "properties": {"@spider": "usps_collection_boxes", "addr:city": "POPLAR GROVE", "addr:country": "US", "addr:full": "13400 STATE ROUTE 76", "addr:postcode": "61065", "addr:state": "IL", "brand": "USPS", "collection_times": "Mo-Sa 12:00", "name": "USPS COLLECTION BOX - BLUE BOX", "ref": "6106500006"}, "type": "Feature"}
{"geometry": {"coordinates": [-88.822181929, 42.358592496], "type": "Point"}, "id": "qRrnQZVEzF5-1iKzMcOug0VSW8w=", "properties": {"@spider": "usps_collection_boxes", "addr:city": "POPLAR GROVE", "addr:country": "US", "addr:full": "105 E BRITNIE DR", "addr:postcode": "61065", "addr:state": "IL", "brand": "USPS", "collection_times": "Mo-Fr 17:00; Sa 12:00", "name": "USPS COLLECTION BOX - PO LOBBY", "note": "ON 12/24 AND 12/31, THIS BOX MAY BE COLLECTED AS EARLY AS 12 NOON.", "ref": "6106500007"}, "type": "Feature"}
{"geometry": {"coordinates": [-89.47674, 42.298584], "type": "Point"}, "id": "VcuL3rPmnzPXl6uw3uBvjRfae-o=", "properties": {"@spider": "usps_collection_boxes", "addr:city": "RIDOTT", "addr:country": "US", "addr:full": "103 ADAMS ST", "addr:postcode": "61067", "addr:state": "IL", "brand": "USPS", "collection_times": "Mo-Fr 11:15; Sa 10:45", "name": "USPS COLLECTION BOX - BLUE BOX", "ref": "6106700001"}, "type": "Feature"}
{"geometry": {"coordinates": [-89.476777, 42.29867], "type": "Point"}, "id": "c6kUdsipEz2s_hRd6c8KP6NwFUc=", "properties": {"@spider": "usps_collection_boxes", "addr:city": "RIDOTT", "addr:country": "US", "addr:full": "103 ADAMS ST", "addr:postcode": "61067", "addr:state": "IL", "brand": "USPS", "collection_times": "Mo-Fr 11:30; Sa 10:45", "name": "USPS COLLECTION BOX - PO LOBBY", "ref": "6106700002"}, "type": "Feature"}
{"geometry": {"coordinates": [-89.47674532, 42.298353335], "type": "Point"}, "id": "Y6OrS9hyIT-GsJRWz6JjoWMbo84=", "properties": {"@spider": "usps_collection_boxes", "addr:city": "RIDOTT", "addr:country": "US", "addr:full": "103 ADAMS ST", "addr:postcode": "61067", "addr:state": "IL", "brand": "USPS", "collection_times": "Mo-Fr 11:30; Sa 10:45", "name": "USPS COLLECTION BOX - PO LOBBY", "ref": "6106700004"}, "type": "Feature"}
{"geometry": {"coordinates": [-89.066296, 41.923942], "type": "Point"}, "id": "CmczFCIWDyoZgG0zbQ2HE2YEPWw=", "properties": {"@spider": "usps_collection_boxes", "addr:city": "ROCHELLE", "addr:country": "US", "addr:full": "501 LINCOLN HWY", "addr:postcode": "61068", "addr:state": "IL", "brand": "USPS", "collection_times": "Mo-Sa 17:00", "name": "USPS COLLECTION BOX - BLUE BOX", "note": "ON 12/24 AND 12/31, THIS BOX MAY BE COLLECTED AS EARLY AS 12 NOON.", "ref": "6106800002"}, "type": "Feature"}
{"geometry": {"coordinates": [-89.066329, 41.923852], "type": "Point"}, "id": "D-6wBs_S4JpNNfa3DB31zNU6sDc=", "properties": {"@spider": "usps_collection_boxes", "addr:city": "ROCHELLE", "addr:country": "US", "addr:full": "501 LINCOLN HWY", "addr:postcode": "61068", "addr:state": "IL", "brand": "USPS", "collection_times": "Mo-Sa 17:00", "name": "USPS COLLECTION BOX - BLUE BOX", "note": "ON 12/24 AND 12/31, THIS BOX MAY BE COLLECTED AS EARLY AS 12 NOON.", "ref": "6106800003"}, "type": "Feature"}
{"geometry": {"coordinates": [-89.0420431959, 41.8979028691], "type": "Point"}, "id": "ot4qdXxRZxlOGH2bzXu-Ui0etkw=", "properties": {"@spider": "usps_collection_boxes", "addr:city": "ROCHELLE", "addr:country": "US", "addr:full": "400 STEWARD ROAD", "addr:postcode": "61068", "addr:state": "IL", "brand": "USPS", "collection_times": "Mo-Sa 10:00", "name": "USPS COLLECTION BOX - BLUE BOX", "ref": "6106800006"}, "type": "Feature"}
{"geometry": {"coordinates": [-89.066329, 41.923852], "type": "Point"}, "id": "p1ByV2jIng7ULiEKCIdfsYaoWyI=", "properties": {"@spider": "usps_collection_boxes", "addr:city": "ROCHELLE", "addr:country": "US", "addr:full": "501 LINCOLN HWY", "addr:postcode": "61068", "addr:state": "IL", "brand": "USPS", "collection_times": "Mo-Sa 17:00", "name": "USPS COLLECTION BOX - BLUE BOX", "note": "ON 12/24 AND 12/31, THIS BOX MAY BE COLLECTED AS EARLY AS 12 NOON.", "ref": "6106800007"}, "type": "Feature"}
{"geometry": {"coordinates": [-89.0626813, 41.926235], "type": "Point"}, "id": "WmKYUZHwF0ZPM1QG11_69dvyg9M=", "properties": {"@spider": "usps_collection_boxes", "addr:city": "ROCHELLE", "addr:country": "US", "addr:full": "117 7TH AVE", "addr:postcode": "61068", "addr:state": "IL", "brand": "USPS", "collection_times": "Mo-Sa 13:15", "name": "USPS COLLECTION BOX - BLUE BOX", "note": "ON 12/24 AND 12/31, THIS BOX MAY BE COLLECTED AS EARLY AS 12 NOON.", "ref": "6106800008"}, "type": "Feature"}
{"geometry": {"coordinates": [-89.0640823, 41.933731], "type": "Point"}, "id": "8-FfHuN_vJJdhL7Ni99lvRU_h2Y=", "properties": {"@spider": "usps_collection_boxes", "addr:city": "ROCHELLE", "addr:country": "US", "addr:full": "234 MAY MART DR", "addr:postcode": "61068", "addr:state": "IL", "brand": "USPS", "collection_times": "Mo-Sa 12:00", "name": "USPS COLLECTION BOX - BLUE BOX", "ref": "6106800009"}, "type": "Feature"}
{"geometry": {"coordinates": [-89.0334791, 41.935612], "type": "Point"}, "id": "2JBpILu4y3bIUi9Cg02MLd72ZUI=", "properties": {"@spider": "usps_collection_boxes", "addr:city": "ROCHELLE", "addr:country": "US", "addr:full": "900 PETRO RD", "addr:postcode": "61068", "addr:state": "IL", "brand": "USPS", "collection_times": "Mo-Sa 11:00", "name": "USPS COLLECTION BOX - BLUE BOX", "ref": "6106800010"}, "type": "Feature"}
{"geometry": {"coordinates": [-89.0674331, 41.950833], "type": "Point"}, "id": "6yBIgZ_vslSN27IiWW1aC0FoKRg=", "properties": {"@spider": "usps_collection_boxes", "addr:city": "ROCHELLE", "addr:country": "US", "addr:full": "204 HILLCREST AVE", "addr:postcode": "61068", "addr:state": "IL", "brand": "USPS", "collection_times": "Mo-Sa 10:30", "name": "USPS COLLECTION BOX - BLUE BOX", "ref": "6106800012"}, "type": "Feature"}
{"geometry": {"coordinates": [-89.0663035569, 41.9241070058], "type": "Point"}, "id": "xrQhbfiO6611_8dbys-c8BExuVM=", "properties": {"@spider": "usps_collection_boxes", "addr:city": "ROCHELLE", "addr:country": "US", "addr:full": "501 LINCOLN HWY", "addr:postcode": "61068", "addr:state": "IL", "brand": "USPS", "collection_times": "Mo-Sa 17:00", "name": "USPS COLLECTION BOX - PO LOBBY", "note": "ON 12/24 AND 12/31, THIS BOX MAY BE COLLECTED AS EARLY AS 12 NOON.", "ref": "6106800014"}, "type": "Feature"}
{"geometry": {"coordinates": [-89.468669, 42.412103], "type": "Point"}, "id": "mzUtjEdTR5AwPXCyrZ37flkN4Gk=", "properties": {"@spider": "usps_collection_boxes", "addr:city": "ROCK CITY", "addr:country": "US", "addr:full": "100 N MAIN ST", "addr:postcode": "61070", "addr:state": "IL", "brand": "USPS", "collection_times": "Mo-Fr 11:15; Sa 11:00", "name": "USPS COLLECTION BOX - BLUE BOX", "ref": "6107000001"}, "type": "Feature"}
{"geometry": {"coordinates": [-89.468669, 42.412103], "type": "Point"}, "id": "kZNBRGjOVQr30jwUYhnAnOLblMw=", "properties": {"@spider": "usps_collection_boxes", "addr:city": "ROCK CITY", "addr:country": "US", "addr:full": "100 N MAIN ST", "addr:postcode": "61070", "addr:state": "IL", "brand": "USPS", "collection_times": "Mo-Fr 11:15; Sa 11:00", "name": "USPS COLLECTION BOX - PO LOBBY", "ref": "6107000002"}, "type": "Feature"}
{"geometry": {"coordinates": [-89.468710165, 42.412112078], "type": "Point"}, "id": "IUsWsLbNfCYg6a2pEF8Xn3A277A=", "properties": {"@spider": "usps_collection_boxes", "addr:city": "ROCK CITY", "addr:country": "US", "addr:full": "100 N MAIN ST", "addr:postcode": "61070", "addr:state": "IL", "brand": "USPS", "collection_times": "Mo-Fr 11:15; Sa 11:00", "name": "USPS COLLECTION BOX - PO LOBBY", "ref": "6107000003"}, "type": "Feature"}
{"geometry": {"coordinates": [-89.6886083, 41.764521], "type": "Point"}, "id": "7079AGbl5dsF0_4XnlVvnWALgvU=", "properties": {"@spider": "usps_collection_boxes", "addr:city": "ROCK FALLS", "addr:country": "US", "addr:full": "1801 1ST AVE", "addr:postcode": "61071", "addr:state": "IL", "brand": "USPS", "collection_times": "Mo-Fr 15:15; Sa 13:30", "name": "USPS COLLECTION BOX - BLUE BOX", "note": "ON 12/24 AND 12/31, THIS BOX MAY BE COLLECTED AS EARLY AS 12 NOON.", "ref": "6107100004"}, "type": "Feature"}
{"geometry": {"coordinates": [-89.692606, 41.781453], "type": "Point"}, "id": "kgTMdP3mUsSZvJ3eSr4_-ezYqNQ=", "properties": {"@spider": "usps_collection_boxes", "addr:city": "ROCK FALLS", "addr:country": "US", "addr:full": "210 2ND AVE", "addr:postcode": "61071", "addr:state": "IL", "brand": "USPS", "collection_times": "Mo-Fr 16:45; Sa 15:45", "name": "USPS COLLECTION BOX - BLUE BOX", "note": "ON 12/24 AND 12/31, THIS BOX MAY BE COLLECTED AS EARLY AS 12 NOON.", "ref": "6107100022"}, "type": "Feature"}
{"geometry": {"coordinates": [-89.692261468, 41.781100192], "type": "Point"}, "id": "IXQR3Hmf7GZxbvKnyGbzn08b9Bk=", "properties": {"@spider": "usps_collection_boxes", "addr:city": "ROCK FALLS", "addr:country": "US", "addr:full": "210 2ND AVE", "addr:postcode": "61071", "addr:state": "IL", "brand": "USPS", "collection_times": "Mo-Fr 16:45; Sa 15:45", "name": "USPS COLLECTION BOX - BLUE BOX", "note": "ON 12/24 AND 12/31, THIS BOX MAY BE COLLECTED AS EARLY AS 12 NOON.", "ref": "6107100023"}, "type": "Feature"}
{"geometry": {"coordinates": [-89.692631, 41.781527], "type": "Point"}, "id": "ondkVQWkf2QJozNxDLxhCiphDx4=", "properties": {"@spider": "usps_collection_boxes", "addr:city": "ROCK FALLS", "addr:country": "US", "addr:full": "210 2ND AVE", "addr:postcode": "61071", "addr:state": "IL", "brand": "USPS", "collection_times": "Mo-Fr 16:45; Sa 15:45", "name": "USPS COLLECTION BOX - BLUE BOX", "note": "ON 12/24 AND 12/31, THIS BOX MAY BE COLLECTED AS EARLY AS 12 NOON.", "ref": "6107100024"}, "type": "Feature"}
{"geometry": {"coordinates": [-89.692631, 41.781527], "type": "Point"}, "id": "jZXn7aCSmkoMLxj_pzd47YdjCGY=", "properties": {"@spider": "usps_collection_boxes", "addr:city": "ROCK FALLS", "addr:country": "US", "addr:full": "210 2ND AVE", "addr:postcode": "61071", "addr:state": "IL", "brand": "USPS", "collection_times": "Mo-Fr 16:45; Sa 15:45", "name": "USPS COLLECTION BOX - PO LOBBY", "note": "ON 12/24 AND 12/31, THIS BOX MAY BE COLLECTED AS EARLY AS 12 NOON.", "ref": "6107100026"}, "type": "Feature"}
{"geometry": {"coordinates": [-89.692265968, 41.781091192], "type": "Point"}, "id": "kVu80_i691v4GQRvGEwsFafd0cs=", "properties": {"@spider": "usps_collection_boxes", "addr:city": "ROCK FALLS", "addr:country": "US", "addr:full": "210 2ND AVE", "addr:postcode": "61071", "addr:state": "IL", "brand": "USPS", "collection_times": "Mo-Fr 16:45; Sa 03:45", "name": "USPS COLLECTION BOX - PO LOBBY", "note": "ON 12/24 AND 12/31, THIS BOX MAY BE COLLECTED AS EARLY AS 12 NOON.", "ref": "6107100029"}, "type": "Feature"}
{"geometry": {"coordinates": [-89.07406, 42.452517], "type": "Point"}, "id": "0KlInTc0uE1LrD-a8gv5nFRjc94=", "properties": {"@spider": "usps_collection_boxes", "addr:city": "ROCKTON", "addr:country": "US", "addr:full": "214 W MAIN ST", "addr:postcode": "61072", "addr:state": "IL", "brand": "USPS", "collection_times": "Mo-Fr 17:00; Sa 15:00", "name": "USPS COLLECTION BOX - BLUE BOX", "note": "ON 12/24 AND 12/31, THIS BOX MAY BE COLLECTED AS EARLY AS 12 NOON.", "ref": "6107200001"}, "type": "Feature"}
{"geometry": {"coordinates": [-89.0684873, 42.45242], "type": "Point"}, "id": "1yz6Az1DeNmCINFQydvvLiuGMBE=", "properties": {"@spider": "usps_collection_boxes", "addr:city": "ROCKTON", "addr:country": "US", "addr:full": "300 E MAIN ST", "addr:postcode": "61072", "addr:state": "IL", "brand": "USPS", "collection_times": "Mo-Sa 14:30", "name": "USPS COLLECTION BOX - BLUE BOX", "note": "ON 12/24 AND 12/31, THIS BOX MAY BE COLLECTED AS EARLY AS 12 NOON.", "ref": "6107200005"}, "type": "Feature"}
{"geometry": {"coordinates": [-89.07406, 42.452517], "type": "Point"}, "id": "FJdkif7dxElewnzvCHfGAyvzj1Q=", "properties": {"@spider": "usps_collection_boxes", "addr:city": "ROCKTON", "addr:country": "US", "addr:full": "214 W MAIN ST", "addr:postcode": "61072", "addr:state": "IL", "brand": "USPS", "collection_times": "Mo-Fr 17:00; Sa 15:00", "name": "USPS COLLECTION BOX - PO LOBBY", "note": "ON 12/24 AND 12/31, THIS BOX MAY BE COLLECTED AS EARLY AS 12 NOON.", "ref": "6107200006"}, "type": "Feature"}
{"geometry": {"coordinates": [-89.074119032, 42.45243166], "type": "Point"}, "id": "eiFxaIYp_bGTTKrpEk8as4yAK8E=", "properties": {"@spider": "usps_collection_boxes", "addr:city": "ROCKTON", "addr:country": "US", "addr:full": "214 W MAIN ST", "addr:postcode": "61072", "addr:state": "IL", "brand": "USPS", "collection_times": "Mo-Fr 17:00; Sa 15:00", "name": "USPS COLLECTION BOX - PO LOBBY", "note": "ON 12/24 AND 12/31, THIS BOX MAY BE COLLECTED AS EARLY AS 12 NOON.", "ref": "6107200009"}, "type": "Feature"}
{"geometry": {"coordinates": [-89.012467, 42.425199], "type": "Point"}, "id": "qth7nGWxqvc_MyZ1PtfQKJ6_bTc=", "properties": {"@spider": "usps_collection_boxes", "addr:city": "ROSCOE", "addr:country": "US", "addr:full": "11320 MAIN ST", "addr:postcode": "61073", "addr:state": "IL", "brand": "USPS", "collection_times": "Mo-Fr 17:00; Sa 12:30", "name": "USPS COLLECTION BOX - BLUE BOX", "note": "ON 12/24 AND 12/31, THIS BOX MAY BE COLLECTED AS EARLY AS 12 NOON.", "ref": "6107300001"}, "type": "Feature"}
{"geometry": {"coordinates": [-89.012417, 42.425182], "type": "Point"}, "id": "rU50O_BPKk4HScdAKw9sRcYIMTI=", "properties": {"@spider": "usps_collection_boxes", "addr:city": "ROSCOE", "addr:country": "US", "addr:full": "11320 MAIN ST", "addr:postcode": "61073", "addr:state": "IL", "brand": "USPS", "collection_times": "Mo-Fr 17:00; Sa 12:30", "name": "USPS COLLECTION BOX - BLUE BOX", "note": "ON 12/24 AND 12/31, THIS BOX MAY BE COLLECTED AS EARLY AS 12 NOON.", "ref": "6107300002"}, "type": "Feature"}
{"geometry": {"coordinates": [-89.0086239, 42.428834], "type": "Point"}, "id": "WtScGCacM3BqEGxEx99VnYpqI5E=", "properties": {"@spider": "usps_collection_boxes", "addr:city": "ROSCOE", "addr:country": "US", "addr:full": "5522 ELEVATOR RD", "addr:postcode": "61073", "addr:state": "IL", "brand": "USPS", "collection_times": "Mo-Sa 13:00", "name": "USPS COLLECTION BOX - BLUE BOX", "note": "ON 12/24 AND 12/31, THIS BOX MAY BE COLLECTED AS EARLY AS 12 NOON.", "ref": "6107300003"}, "type": "Feature"}
{"geometry": {"coordinates": [-89.0202652, 42.431268], "type": "Point"}, "id": "XkzLRGPmNKH8jw3Iq5qKWCnjt38=", "properties": {"@spider": "usps_collection_boxes", "addr:city": "ROSCOE", "addr:country": "US", "addr:full": "4860 HONONEGAH RD", "addr:postcode": "61073", "addr:state": "IL", "brand": "USPS", "collection_times": "Mo-Sa 13:00", "name": "USPS COLLECTION BOX - BLUE BOX", "note": "ON 12/24 AND 12/31, THIS BOX MAY BE COLLECTED AS EARLY AS 12 NOON.", "ref": "6107300004"}, "type": "Feature"}
{"geometry": {"coordinates": [-89.0179985, 42.427647], "type": "Point"}, "id": "uw_wESQJcAeVl5mVDF_rPPDlICE=", "properties": {"@spider": "usps_collection_boxes", "addr:city": "ROSCOE", "addr:country": "US", "addr:full": "5069 EDGEMERE CT", "addr:postcode": "61073", "addr:state": "IL", "brand": "USPS", "collection_times": "Mo-Sa 13:00", "name": "USPS COLLECTION BOX - BLUE BOX", "note": "ON 12/24 AND 12/31, THIS BOX MAY BE COLLECTED AS EARLY AS 12 NOON.", "ref": "6107300007"}, "type": "Feature"}
{"geometry": {"coordinates": [-89.012417, 42.425182], "type": "Point"}, "id": "d92lCdUurUKIexx2BdG766Ra4ug=", "properties": {"@spider": "usps_collection_boxes", "addr:city": "ROSCOE", "addr:country": "US", "addr:full": "11320 MAIN ST", "addr:postcode": "61073", "addr:state": "IL", "brand": "USPS", "collection_times": "Mo-Fr 17:00; Sa 12:30", "name": "USPS COLLECTION BOX - PO LOBBY", "note": "ON 12/24 AND 12/31, THIS BOX MAY BE COLLECTED AS EARLY AS 12 NOON.", "ref": "6107300008"}, "type": "Feature"}
{"geometry": {"coordinates": [-89.012417, 42.425182], "type": "Point"}, "id": "egaRBNiIC0x8Nwp9HtExxLiUYL0=", "properties": {"@spider": "usps_collection_boxes", "addr:city": "ROSCOE", "addr:country": "US", "addr:full": "11320 MAIN ST", "addr:postcode": "61073", "addr:state": "IL", "brand": "USPS", "collection_times": "Mo-Fr 17:00; Sa 12:30", "name": "USPS COLLECTION BOX - PO LOBBY", "note": "ON 12/24 AND 12/31, THIS BOX MAY BE COLLECTED AS EARLY AS 12 NOON.", "ref": "6107300009"}, "type": "Feature"}
{"geometry": {"coordinates": [-88.9980752, 42.456125], "type": "Point"}, "id": "hAeWuW06z8zMmUovyYgVifVRGRE=", "properties": {"@spider": "usps_collection_boxes", "addr:city": "ROSCOE", "addr:country": "US", "addr:full": "13477 QUALITY DR", "addr:postcode": "61073", "addr:state": "IL", "brand": "USPS", "collection_times": "Mo-Sa 13:00", "name": "USPS COLLECTION BOX - BLUE BOX", "note": "ON 12/24 AND 12/31, THIS BOX MAY BE COLLECTED AS EARLY AS 12 NOON.", "ref": "6107300011"}, "type": "Feature"}
{"geometry": {"coordinates": [-89.012290988, 42.424893181], "type": "Point"}, "id": "Dk7ZvfWPfosv5D7-0TqJXoUk2a4=", "properties": {"@spider": "usps_collection_boxes", "addr:city": "ROSCOE", "addr:country": "US", "addr:full": "11320 MAIN ST", "addr:postcode": "61073", "addr:state": "IL", "brand": "USPS", "collection_times": "Mo-Fr 17:00; Sa 12:30", "name": "USPS COLLECTION BOX - PO LOBBY", "note": "ON 12/24 AND 12/31, THIS BOX MAY BE COLLECTED AS EARLY AS 12 NOON.", "ref": "6107300014"}, "type": "Feature"}
{"geometry": {"coordinates": [-90.155338, 42.09379], "type": "Point"}, "id": "vgP8F2FUU1AmFkS8Z4iuv97grok=", "properties": {"@spider": "usps_collection_boxes", "addr:city": "SAVANNA", "addr:country": "US", "addr:full": "321 3RD ST", "addr:postcode": "61074", "addr:state": "IL", "brand": "USPS", "collection_times": "Mo-Fr 16:30; Sa 15:00", "name": "USPS COLLECTION BOX - BLUE BOX", "note": "ON 12/24 AND 12/31, THIS BOX MAY BE COLLECTED AS EARLY AS 12 NOON.", "ref": "6107400001"}, "type": "Feature"}
{"geometry": {"coordinates": [-90.1565152, 42.093351], "type": "Point"}, "id": "M20xtRK3AhazvDFtyBH4fRA5QbA=", "properties": {"@spider": "usps_collection_boxes", "addr:city": "SAVANNA", "addr:country": "US", "addr:full": "301 MAIN ST", "addr:postcode": "61074", "addr:state": "IL", "brand": "USPS", "collection_times": "Mo-Fr 15:00; Sa 14:00", "name": "USPS COLLECTION BOX - BLUE BOX", "note": "ON 12/24 AND 12/31, THIS BOX MAY BE COLLECTED AS EARLY AS 12 NOON.", "ref": "6107400005"}, "type": "Feature"}
{"geometry": {"coordinates": [-90.155289, 42.093743], "type": "Point"}, "id": "al_yXHCI90SdB6XJKX4dUiTQz9U=", "properties": {"@spider": "usps_collection_boxes", "addr:city": "SAVANNA", "addr:country": "US", "addr:full": "321 3RD ST", "addr:postcode": "61074", "addr:state": "IL", "brand": "USPS", "collection_times": "Mo-Fr 16:30; Sa 15:00", "name": "USPS COLLECTION BOX - PO LOBBY", "note": "ON 12/24 AND 12/31, THIS BOX MAY BE COLLECTED AS EARLY AS 12 NOON.", "ref": "6107400007"}, "type": "Feature"}
{"geometry": {"coordinates": [-90.155289, 42.093743], "type": "Point"}, "id": "fsDpzuCVJC3TW3gr-lfC2zkRJjc=", "properties": {"@spider": "usps_collection_boxes", "addr:city": "SAVANNA", "addr:country": "US", "addr:full": "321 3RD ST", "addr:postcode": "61074", "addr:state": "IL", "brand": "USPS", "collection_times": "Mo-Fr 16:30; Sa 15:00", "name": "USPS COLLECTION BOX - PO LOBBY", "note": "ON 12/24 AND 12/31, THIS BOX MAY BE COLLECTED AS EARLY AS 12 NOON.", "ref": "6107400008"}, "type": "Feature"}
{"geometry": {"coordinates": [-90.155408749, 42.094089481], "type": "Point"}, "id": "69E2i37Mtcrs88FaZcET3sr0fIE=", "properties": {"@spider": "usps_collection_boxes", "addr:city": "SAVANNA", "addr:country": "US", "addr:full": "321 3RD ST", "addr:postcode": "61074", "addr:state": "IL", "brand": "USPS", "collection_times": "Mo-Fr 16:30; Sa 15:00", "name": "USPS COLLECTION BOX - PO LOBBY", "note": "ON 12/24 AND 12/31, THIS BOX MAY BE COLLECTED AS EARLY AS 12 NOON.", "ref": "6107400010"}, "type": "Feature"}
{"geometry": {"coordinates": [-90.250844, 42.476903], "type": "Point"}, "id": "vHbH53ce9nlY5fc7X-2_9eW7DqU=", "properties": {"@spider": "usps_collection_boxes", "addr:city": "SCALES MOUND", "addr:country": "US", "addr:full": "310 SOUTH AVE", "addr:postcode": "61075", "addr:state": "IL", "brand": "USPS", "collection_times": "Mo-Fr 14:15; Sa 11:00", "name": "USPS COLLECTION BOX - BLUE BOX", "note": "ON 12/24 AND 12/31, THIS BOX MAY BE COLLECTED AS EARLY AS 12 NOON.", "ref": "6107500001"}, "type": "Feature"}
{"geometry": {"coordinates": [-90.250786, 42.476926], "type": "Point"}, "id": "Oa4tmjJ1z6u37FJzi7HKdaLprQk=", "properties": {"@spider": "usps_collection_boxes", "addr:city": "SCALES MOUND", "addr:country": "US", "addr:full": "310 SOUTH AVE", "addr:postcode": "61075", "addr:state": "IL", "brand": "USPS", "collection_times": "Mo-Fr 14:15; Sa 11:00", "name": "USPS COLLECTION BOX - PO LOBBY", "note": "ON 12/24 AND 12/31, THIS BOX MAY BE COLLECTED AS EARLY AS 12 NOON.", "ref": "6107500002"}, "type": "Feature"}
{"geometry": {"coordinates": [-90.250786, 42.476926], "type": "Point"}, "id": "nFV4d8gnjXXsihkWsT68Z_-j2-Q=", "properties": {"@spider": "usps_collection_boxes", "addr:city": "SCALES MOUND", "addr:country": "US", "addr:full": "310 SOUTH AVE", "addr:postcode": "61075", "addr:state": "IL", "brand": "USPS", "collection_times": "Mo-Fr 14:15; Sa 11:00", "name": "USPS COLLECTION BOX - PO LOBBY", "note": "ON 12/24 AND 12/31, THIS BOX MAY BE COLLECTED AS EARLY AS 12 NOON.", "ref": "6107500003"}, "type": "Feature"}
{"geometry": {"coordinates": [-90.2520430258, 42.4764347784], "type": "Point"}, "id": "QQIz3FaArZRv7A7UG3RtKDqAcgE=", "properties": {"@spider": "usps_collection_boxes", "addr:city": "SCALES MOUND", "addr:country": "US", "addr:full": "310 SOUTH AVE", "addr:postcode": "61075", "addr:state": "IL", "brand": "USPS", "collection_times": "Mo-Fr 14:15; Sa 11:00", "name": "USPS COLLECTION BOX - PO LOBBY", "note": "ON 12/24 AND 12/31, THIS BOX MAY BE COLLECTED AS EARLY AS 12 NOON.", "ref": "6107500005"}, "type": "Feature"}
{"geometry": {"coordinates": [-89.356566406, 42.238761334], "type": "Point"}, "id": "G-15lo_SSey6cNhacwcLGJ7fjSU=", "properties": {"@spider": "usps_collection_boxes", "addr:city": "SEWARD", "addr:country": "US", "addr:full": "2970 TRACY ST", "addr:postcode": "61077", "addr:state": "IL", "brand": "USPS", "collection_times": "Mo-Fr 10:45; Sa 09:15", "name": "USPS COLLECTION BOX - BLUE BOX", "ref": "6107700001"}, "type": "Feature"}
{"geometry": {"coordinates": [-89.3565664061, 42.238761334], "type": "Point"}, "id": "7ImejxSN0bpY8yk0vHKWAFIFP6k=", "properties": {"@spider": "usps_collection_boxes", "addr:city": "SEWARD", "addr:country": "US", "addr:full": "2970 TRACY ST", "addr:postcode": "61077", "addr:state": "IL", "brand": "USPS", "collection_times": "Mo-Fr 10:45; Sa 09:15", "name": "USPS COLLECTION BOX - PO LOBBY", "ref": "6107700002"}, "type": "Feature"}
{"geometry": {"coordinates": [-89.3569907, 42.236159], "type": "Point"}, "id": "2yswNTAG0cGHuUUFkPm-M-fE-Mk=", "properties": {"@spider": "usps_collection_boxes", "addr:city": "SEWARD", "addr:country": "US", "addr:full": "16476 3RD ST", "addr:postcode": "61077", "addr:state": "IL", "brand": "USPS", "collection_times": "Mo-Sa 10:30", "name": "USPS COLLECTION BOX - BLUE BOX", "ref": "6107700003"}, "type": "Feature"}
{"geometry": {"coordinates": [-89.356566406, 42.238761334], "type": "Point"}, "id": "Pt3Z89p4Jzx3-YcAgtlgcfSZ97U=", "properties": {"@spider": "usps_collection_boxes", "addr:city": "SEWARD", "addr:country": "US", "addr:full": "2970 TRACY ST", "addr:postcode": "61077", "addr:state": "IL", "brand": "USPS", "collection_times": "Mo-Fr 10:45; Sa 09:15", "name": "USPS COLLECTION BOX - PO LOBBY", "ref": "6107700004"}, "type": "Feature"}
{"geometry": {"coordinates": [-89.740352, 42.154718], "type": "Point"}, "id": "5aKnCUndL7pMVkaxi1jRZEgCrw4=", "properties": {"@spider": "usps_collection_boxes", "addr:city": "SHANNON", "addr:country": "US", "addr:full": "2 N LOCUST ST", "addr:postcode": "61078", "addr:state": "IL", "brand": "USPS", "collection_times": "Mo-Fr 16:00; Sa 11:45", "name": "USPS COLLECTION BOX - BLUE BOX", "note": "ON 12/24 AND 12/31, THIS BOX MAY BE COLLECTED AS EARLY AS 12 NOON.", "ref": "6107800001"}, "type": "Feature"}
{"geometry": {"coordinates": [-89.740397, 42.15463], "type": "Point"}, "id": "l2bcg_9IIM4TV-LCkBfjS-w2XUE=", "properties": {"@spider": "usps_collection_boxes", "addr:city": "SHANNON", "addr:country": "US", "addr:full": "2 N LOCUST ST", "addr:postcode": "61078", "addr:state": "IL", "brand": "USPS", "collection_times": "Mo-Fr 16:00; Sa 11:45", "name": "USPS COLLECTION BOX - PO LOBBY", "note": "ON 12/24 AND 12/31, THIS BOX MAY BE COLLECTED AS EARLY AS 12 NOON.", "ref": "6107800003"}, "type": "Feature"}
{"geometry": {"coordinates": [-89.74040451, 42.154665369], "type": "Point"}, "id": "A_o4iHlXj5K9arQn4_3dXgJsT2c=", "properties": {"@spider": "usps_collection_boxes", "addr:city": "SHANNON", "addr:country": "US", "addr:full": "2 N LOCUST ST", "addr:postcode": "61078", "addr:state": "IL", "brand": "USPS", "collection_times": "Mo-Fr 16:00; Sa 11:45", "name": "USPS COLLECTION BOX - PO LOBBY", "note": "ON 12/24 AND 12/31, THIS BOX MAY BE COLLECTED AS EARLY AS 12 NOON.", "ref": "6107800005"}, "type": "Feature"}
{"geometry": {"coordinates": [-89.196735, 42.443596], "type": "Point"}, "id": "nqDuS2hCOuTbBjvFGRKIZdsfPtU=", "properties": {"@spider": "usps_collection_boxes", "addr:city": "SHIRLAND", "addr:country": "US", "addr:full": "13047 PUTNAM ST", "addr:postcode": "61079", "addr:state": "IL", "brand": "USPS", "collection_times": "Mo-Fr 15:45; Sa 11:45", "name": "USPS COLLECTION BOX - BLUE BOX", "note": "ON 12/24 AND 12/31, THIS BOX MAY BE COLLECTED AS EARLY AS 12 NOON.", "ref": "6107900001"}, "type": "Feature"}
{"geometry": {"coordinates": [-89.196771, 42.443558], "type": "Point"}, "id": "sTHGU0BgCj66BZXNP2LQOi_Kaxk=", "properties": {"@spider": "usps_collection_boxes", "addr:city": "SHIRLAND", "addr:country": "US", "addr:full": "13047 PUTNAM ST", "addr:postcode": "61079", "addr:state": "IL", "brand": "USPS", "collection_times": "Mo-Fr 15:45; Sa 11:45", "name": "USPS COLLECTION BOX - PO LOBBY", "note": "ON 12/24 AND 12/31, THIS BOX MAY BE COLLECTED AS EARLY AS 12 NOON.", "ref": "6107900002"}, "type": "Feature"}
{"geometry": {"coordinates": [-89.196735805, 42.443406168], "type": "Point"}, "id": "khSgOittoUIUfRnEVRwcP82UMoE=", "properties": {"@spider": "usps_collection_boxes", "addr:city": "SHIRLAND", "addr:country": "US", "addr:full": "13047 PUTNAM ST", "addr:postcode": "61079", "addr:state": "IL", "brand": "USPS", "collection_times": "Mo-Fr 15:45; Sa 11:45", "name": "USPS COLLECTION BOX - PO LOBBY", "note": "ON 12/24 AND 12/31, THIS BOX MAY BE COLLECTED AS EARLY AS 12 NOON.", "ref": "6107900003"}, "type": "Feature"}
{"geometry": {"coordinates": [-89.041526, 42.487768], "type": "Point"}, "id": "9bEMF7PsDwHwgpfL4d31xHN0m9E=", "properties": {"@spider": "usps_collection_boxes", "addr:city": "SOUTH BELOIT", "addr:country": "US", "addr:full": "311 OAK GROVE AVE", "addr:postcode": "61080", "addr:state": "IL", "brand": "USPS", "collection_times": "Mo-Fr 17:00; Sa 16:00", "name": "USPS COLLECTION BOX - BLUE BOX", "note": "ON 12/24 AND 12/31, THIS BOX MAY BE COLLECTED AS EARLY AS 12 NOON.", "ref": "6108000001"}, "type": "Feature"}
{"geometry": {"coordinates": [-89.0532239, 42.486542], "type": "Point"}, "id": "mGymxOJt0MKHZ4rvCHUnHn36E0s=", "properties": {"@spider": "usps_collection_boxes", "addr:city": "SOUTH BELOIT", "addr:country": "US", "addr:full": "666 S BLUFF ST", "addr:postcode": "61080", "addr:state": "IL", "brand": "USPS", "collection_times": "Mo-Sa 09:30", "name": "USPS COLLECTION BOX - BLUE BOX", "ref": "6108000002"}, "type": "Feature"}
{"geometry": {"coordinates": [-89.0467074, 42.4945], "type": "Point"}, "id": "65calDdcNfISnLt0n6DeJUsJOgg=", "properties": {"@spider": "usps_collection_boxes", "addr:city": "SOUTH BELOIT", "addr:country": "US", "addr:full": "202 S 8TH ST", "addr:postcode": "61080", "addr:state": "IL", "brand": "USPS", "collection_times": "Mo-Sa 14:30", "name": "USPS COLLECTION BOX - BLUE BOX", "note": "ON 12/24 AND 12/31, THIS BOX MAY BE COLLECTED AS EARLY AS 12 NOON.", "ref": "6108000005"}, "type": "Feature"}
{"geometry": {"coordinates": [-89.0445923, 42.480473], "type": "Point"}, "id": "YHoFEvgrC5M0MnWLHpN2TRsVcgQ=", "properties": {"@spider": "usps_collection_boxes", "addr:city": "SOUTH BELOIT", "addr:country": "US", "addr:full": "1408 BLACKHAWK BLVD", "addr:postcode": "61080", "addr:state": "IL", "brand": "USPS", "collection_times": "Mo-Sa 14:00", "name": "USPS COLLECTION BOX - BLUE BOX", "note": "ON 12/24 AND 12/31, THIS BOX MAY BE COLLECTED AS EARLY AS 12 NOON.", "ref": "6108000007"}, "type": "Feature"}
{"geometry": {"coordinates": [-89.0215109, 42.492482], "type": "Point"}, "id": "iHMngjtrrRtS-Kjt8tjtf5CtvmE=", "properties": {"@spider": "usps_collection_boxes", "addr:city": "SOUTH BELOIT", "addr:country": "US", "addr:full": "200 DEARBORN AVE", "addr:postcode": "61080", "addr:state": "IL", "brand": "USPS", "collection_times": "Mo-Sa 14:30", "name": "USPS COLLECTION BOX - BLUE BOX", "note": "ON 12/24 AND 12/31, THIS BOX MAY BE COLLECTED AS EARLY AS 12 NOON.", "ref": "6108000009"}, "type": "Feature"}
{"geometry": {"coordinates": [-89.0185854, 42.485762], "type": "Point"}, "id": "a3VyvnMsIqySj0370ifKC8-lOVs=", "properties": {"@spider": "usps_collection_boxes", "addr:city": "SOUTH BELOIT", "addr:country": "US", "addr:full": "15531 ARNEMAN DR", "addr:postcode": "61080", "addr:state": "IL", "brand": "USPS", "collection_times": "Mo-Sa 13:00", "name": "USPS COLLECTION BOX - BLUE BOX", "note": "ON 12/24 AND 12/31, THIS BOX MAY BE COLLECTED AS EARLY AS 12 NOON.", "ref": "6108000017"}, "type": "Feature"}
{"geometry": {"coordinates": [-89.041629, 42.487761], "type": "Point"}, "id": "q7O-rlb6pk6XPAT0tv-0kLUU-fI=", "properties": {"@spider": "usps_collection_boxes", "addr:city": "SOUTH BELOIT", "addr:country": "US", "addr:full": "311 OAK GROVE AVE", "addr:postcode": "61080", "addr:state": "IL", "brand": "USPS", "collection_times": "Mo-Fr 17:00; Sa 16:00", "name": "USPS COLLECTION BOX - PO LOBBY", "note": "ON 12/24 AND 12/31, THIS BOX MAY BE COLLECTED AS EARLY AS 12 NOON.", "ref": "6108000019"}, "type": "Feature"}
{"geometry": {"coordinates": [-88.9988299, 42.493523], "type": "Point"}, "id": "z54fwtJY6UukGImzs6yRgb92R9M=", "properties": {"@spider": "usps_collection_boxes", "addr:city": "SOUTH BELOIT", "addr:country": "US", "addr:full": "16049 WILLOWBROOK RD", "addr:postcode": "61080", "addr:state": "IL", "brand": "USPS", "collection_times": "Mo-Sa 14:30", "name": "USPS COLLECTION BOX - BLUE BOX", "note": "ON 12/24 AND 12/31, THIS BOX MAY BE COLLECTED AS EARLY AS 12 NOON.", "ref": "6108000021"}, "type": "Feature"}
{"geometry": {"coordinates": [-89.040226296, 42.487482162], "type": "Point"}, "id": "-VKRoySApB2uk4X8X39buBDiA2w=", "properties": {"@spider": "usps_collection_boxes", "addr:city": "SOUTH BELOIT", "addr:country": "US", "addr:full": "311 OAK GROVE AVE", "addr:postcode": "61080", "addr:state": "IL", "brand": "USPS", "collection_times": "Mo-Fr 17:00; Sa 16:00", "name": "USPS COLLECTION BOX - PO LOBBY", "note": "ON 12/24 AND 12/31, THIS BOX MAY BE COLLECTED AS EARLY AS 12 NOON.", "ref": "6108000024"}, "type": "Feature"}
{"geometry": {"coordinates": [-89.6946529, 41.788465], "type": "Point"}, "id": "ILvb62aMI0qmrSvW4vW0zYscvIc=", "properties": {"@spider": "usps_collection_boxes", "addr:city": "STERLING", "addr:country": "US", "addr:full": "302 1ST AVE", "addr:postcode": "61081", "addr:state": "IL", "brand": "USPS", "collection_times": "Mo-Sa 16:30", "name": "USPS COLLECTION BOX - BLUE BOX", "note": "ON 12/24 AND 12/31, THIS BOX MAY BE COLLECTED AS EARLY AS 12 NOON.", "ref": "6108100005"}, "type": "Feature"}
{"geometry": {"coordinates": [-89.6688126, 41.799691], "type": "Point"}, "id": "zeszpXfiRa1YzYyyQlrOCrEN140=", "properties": {"@spider": "usps_collection_boxes", "addr:city": "STERLING", "addr:country": "US", "addr:full": "2317 E LINCOLNWAY", "addr:postcode": "61081", "addr:state": "IL", "brand": "USPS", "collection_times": "Mo-Sa 15:45", "name": "USPS COLLECTION BOX - BLUE BOX", "note": "ON 12/24 AND 12/31, THIS BOX MAY BE COLLECTED AS EARLY AS 12 NOON.", "ref": "6108100006"}, "type": "Feature"}
{"geometry": {"coordinates": [-89.6639306, 41.805935], "type": "Point"}, "id": "aM-87gtgaxb0mqtsWxSEFRtQ1_0=", "properties": {"@spider": "usps_collection_boxes", "addr:city": "STERLING", "addr:country": "US", "addr:full": "2900 E LINCOLNWAY", "addr:postcode": "61081", "addr:state": "IL", "brand": "USPS", "collection_times": "Mo-Sa 11:00", "name": "USPS COLLECTION BOX - BLUE BOX", "ref": "6108100009"}, "type": "Feature"}
{"geometry": {"coordinates": [-89.6795509, 41.802352], "type": "Point"}, "id": "2DmmaOvsT2KvwFIm1XzgrhFj_-w=", "properties": {"@spider": "usps_collection_boxes", "addr:city": "STERLING", "addr:country": "US", "addr:full": "1701 16TH AVE", "addr:postcode": "61081", "addr:state": "IL", "brand": "USPS", "collection_times": "Mo-Sa 16:00", "name": "USPS COLLECTION BOX - BLUE BOX", "note": "ON 12/24 AND 12/31, THIS BOX MAY BE COLLECTED AS EARLY AS 12 NOON.", "ref": "6108100011"}, "type": "Feature"}
{"geometry": {"coordinates": [-89.7112047, 41.789037], "type": "Point"}, "id": "U8bcKyhZ92t_Gl3Cds83Zq2TuLg=", "properties": {"@spider": "usps_collection_boxes", "addr:city": "STERLING", "addr:country": "US", "addr:full": "1008 W 3RD ST", "addr:postcode": "61081", "addr:state": "IL", "brand": "USPS", "collection_times": "Mo-Sa 14:30", "name": "USPS COLLECTION BOX - BLUE BOX", "note": "ON 12/24 AND 12/31, THIS BOX MAY BE COLLECTED AS EARLY AS 12 NOON.", "ref": "6108100019"}, "type": "Feature"}
{"geometry": {"coordinates": [-89.7048278, 41.801618], "type": "Point"}, "id": "QkMkrL4uZHuvYfKhHgfpePDKC0A=", "properties": {"@spider": "usps_collection_boxes", "addr:city": "STERLING", "addr:country": "US", "addr:full": "610 W LE FEVRE RD", "addr:postcode": "61081", "addr:state": "IL", "brand": "USPS", "collection_times": "Mo-Sa 11:30", "name": "USPS COLLECTION BOX - BLUE BOX", "ref": "6108100020"}, "type": "Feature"}
{"geometry": {"coordinates": [-89.7058214, 41.808793], "type": "Point"}, "id": "z7S1cKXcKlUVYWkfi5-ANuWw1EA=", "properties": {"@spider": "usps_collection_boxes", "addr:city": "STERLING", "addr:country": "US", "addr:full": "612 W 23RD ST", "addr:postcode": "61081", "addr:state": "IL", "brand": "USPS", "collection_times": "Mo-Sa 09:00", "name": "USPS COLLECTION BOX - BLUE BOX", "ref": "6108100021"}, "type": "Feature"}
{"geometry": {"coordinates": [-89.6689966, 41.807399], "type": "Point"}, "id": "KiSeqfE_Fa_Im9dvIEAEict8H-o=", "properties": {"@spider": "usps_collection_boxes", "addr:city": "STERLING", "addr:country": "US", "addr:full": "2100 FREEPORT RD", "addr:postcode": "61081", "addr:state": "IL", "brand": "USPS", "collection_times": "Mo-Sa 09:30", "name": "USPS COLLECTION BOX - BLUE BOX", "ref": "6108100024"}, "type": "Feature"}
{"geometry": {"coordinates": [-89.6990054, 41.809688], "type": "Point"}, "id": "7bVtmlQhB4F5Wykl5SK3F2Y6E5k=", "properties": {"@spider": "usps_collection_boxes", "addr:city": "STERLING", "addr:country": "US", "addr:full": "2301 LOCUST ST", "addr:postcode": "61081", "addr:state": "IL", "brand": "USPS", "collection_times": "Mo-Sa 16:15", "name": "USPS COLLECTION BOX - BLUE BOX", "note": "ON 12/24 AND 12/31, THIS BOX MAY BE COLLECTED AS EARLY AS 12 NOON.", "ref": "6108100028"}, "type": "Feature"}
{"geometry": {"coordinates": [-89.6916364, 41.789158], "type": "Point"}, "id": "wsVMb6hZnHrzb-BkhuJadO77cBI=", "properties": {"@spider": "usps_collection_boxes", "addr:city": "STERLING", "addr:country": "US", "addr:full": "302 E 3RD ST", "addr:postcode": "61081", "addr:state": "IL", "brand": "USPS", "collection_times": "Mo-Sa 16:30", "name": "USPS COLLECTION BOX - BLUE BOX", "note": "ON 12/24 AND 12/31, THIS BOX MAY BE COLLECTED AS EARLY AS 12 NOON.", "ref": "6108100029"}, "type": "Feature"}
{"geometry": {"coordinates": [-89.663810036, 41.806559997], "type": "Point"}, "id": "ZU-xcF3q16poAV01Hddvtv1lj78=", "properties": {"@spider": "usps_collection_boxes", "addr:city": "STERLING", "addr:country": "US", "addr:full": "2900 E LINCOLNWAY", "addr:postcode": "61081", "addr:state": "IL", "brand": "USPS", "collection_times": "Mo-Sa 16:00", "name": "USPS COLLECTION BOX - BLUE BOX", "note": "ON 12/24 AND 12/31, THIS BOX MAY BE COLLECTED AS EARLY AS 12 NOON.", "ref": "6108100030"}, "type": "Feature"}
{"geometry": {"coordinates": [-89.6570369, 41.808632], "type": "Point"}, "id": "Z4JKnnd0LJ5XbcQO1JJDc6orpmc=", "properties": {"@spider": "usps_collection_boxes", "addr:city": "STERLING", "addr:country": "US", "addr:full": "3205 E LINCOLNWAY", "addr:postcode": "61081", "addr:state": "IL", "brand": "USPS", "collection_times": "Mo-Sa 16:00", "name": "USPS COLLECTION BOX - BLUE BOX", "note": "ON 12/24 AND 12/31, THIS BOX MAY BE COLLECTED AS EARLY AS 12 NOON.", "ref": "6108100031"}, "type": "Feature"}
{"geometry": {"coordinates": [-89.6925746, 41.790284], "type": "Point"}, "id": "yg93mGVlKyhlP_rtG5XpGT4vaIc=", "properties": {"@spider": "usps_collection_boxes", "addr:city": "STERLING", "addr:country": "US", "addr:full": "408 3RD AVE", "addr:postcode": "61081", "addr:state": "IL", "brand": "USPS", "collection_times": "Mo-Sa 17:00", "name": "USPS COLLECTION BOX - BLUE BOX", "note": "ON 12/24 AND 12/31, THIS BOX MAY BE COLLECTED AS EARLY AS 12 NOON.", "ref": "6108100034"}, "type": "Feature"}
{"geometry": {"coordinates": [-89.6925855, 41.790271], "type": "Point"}, "id": "Z9d0OKwVDQDMVHKGxp8iwe-Of60=", "properties": {"@spider": "usps_collection_boxes", "addr:city": "STERLING", "addr:country": "US", "addr:full": "408 3RD AVE", "addr:postcode": "61081", "addr:state": "IL", "brand": "USPS", "collection_times": "Mo-Sa 17:00", "name": "USPS COLLECTION BOX - BLUE BOX", "note": "ON 12/24 AND 12/31, THIS BOX MAY BE COLLECTED AS EARLY AS 12 NOON.", "ref": "6108100035"}, "type": "Feature"}
{"geometry": {"coordinates": [-89.7068222, 41.796185], "type": "Point"}, "id": "UahgHKWC-EFP3Q2SJslxjpHVVcQ=", "properties": {"@spider": "usps_collection_boxes", "addr:city": "STERLING", "addr:country": "US", "addr:full": "801 W 11TH ST", "addr:postcode": "61081", "addr:state": "IL", "brand": "USPS", "collection_times": "Mo-Sa 14:45", "name": "USPS COLLECTION BOX - BLUE BOX", "note": "ON 12/24 AND 12/31, THIS BOX MAY BE COLLECTED AS EARLY AS 12 NOON.", "ref": "6108100037"}, "type": "Feature"}
{"geometry": {"coordinates": [-89.6674468, 41.802143], "type": "Point"}, "id": "zTAtaFLmOliil-5piNH_Ks1Hjxc=", "properties": {"@spider": "usps_collection_boxes", "addr:city": "STERLING", "addr:country": "US", "addr:full": "2506 E LINCOLNWAY", "addr:postcode": "61081", "addr:state": "IL", "brand": "USPS", "collection_times": "Mo-Sa 12:00", "name": "USPS COLLECTION BOX - BLUE BOX", "ref": "6108100038"}, "type": "Feature"}
{"geometry": {"coordinates": [-89.6967589, 41.801997], "type": "Point"}, "id": "OGgLxvX3JX8hHEi-Fp9cPCmGikg=", "properties": {"@spider": "usps_collection_boxes", "addr:city": "STERLING", "addr:country": "US", "addr:full": "100 E LE FEVRE RD", "addr:postcode": "61081", "addr:state": "IL", "brand": "USPS", "collection_times": "Mo-Sa 09:00", "name": "USPS COLLECTION BOX - BLUE BOX", "ref": "6108100040"}, "type": "Feature"}
{"geometry": {"coordinates": [-89.6923862, 41.790497], "type": "Point"}, "id": "KOpgjLDG8IsJf-QMnKYjOOZ-uho=", "properties": {"@spider": "usps_collection_boxes", "addr:city": "STERLING", "addr:country": "US", "addr:full": "408 3RD AVE", "addr:postcode": "61081", "addr:state": "IL", "brand": "USPS", "collection_times": "Mo-Sa 17:00", "name": "USPS COLLECTION BOX - PO LOBBY", "note": "ON 12/24 AND 12/31, THIS BOX MAY BE COLLECTED AS EARLY AS 12 NOON.", "ref": "6108100041"}, "type": "Feature"}
{"geometry": {"coordinates": [-89.6924343, 41.790498], "type": "Point"}, "id": "HuU-C5PZMfk-y57AN6fKQEX4lx8=", "properties": {"@spider": "usps_collection_boxes", "addr:city": "STERLING", "addr:country": "US", "addr:full": "408 3RD AVE", "addr:postcode": "61081", "addr:state": "IL", "brand": "USPS", "collection_times": "Mo-Sa 17:00", "name": "USPS COLLECTION BOX - PO LOBBY", "note": "ON 12/24 AND 12/31, THIS BOX MAY BE COLLECTED AS EARLY AS 12 NOON.", "ref": "6108100042"}, "type": "Feature"}
{"geometry": {"coordinates": [-89.6431459, 41.817559], "type": "Point"}, "id": "CYWWQW3xY_Tu-Y4uKGjbyZz6QzQ=", "properties": {"@spider": "usps_collection_boxes", "addr:city": "STERLING", "addr:country": "US", "addr:full": "4311 E LINCOLNWAY", "addr:postcode": "61081", "addr:state": "IL", "brand": "USPS", "collection_times": "Mo-Sa 09:30", "name": "USPS COLLECTION BOX - BLUE BOX", "ref": "6108100043"}, "type": "Feature"}
{"geometry": {"coordinates": [-89.6925141959, 41.7906221482], "type": "Point"}, "id": "09awTrnSbuLkyzG8CM8JuvON6sg=", "properties": {"@spider": "usps_collection_boxes", "addr:city": "STERLING", "addr:country": "US", "addr:full": "408 3RD AVE", "addr:postcode": "61081", "addr:state": "IL", "brand": "USPS", "collection_times": "Mo-Sa 17:00", "name": "USPS COLLECTION BOX - PO LOBBY", "note": "ON 12/24 AND 12/31, THIS BOX MAY BE COLLECTED AS EARLY AS 12 NOON.", "ref": "6108100047"}, "type": "Feature"}
{"geometry": {"coordinates": [-89.178917, 42.108161], "type": "Point"}, "id": "wyJv-9ftvnvsWy1_ZcexyMUMerc=", "properties": {"@spider": "usps_collection_boxes", "addr:city": "STILLMAN VALLEY", "addr:country": "US", "addr:full": "215 N WALNUT ST", "addr:postcode": "61084", "addr:state": "IL", "brand": "USPS", "collection_times": "Mo-Fr 16:30; Sa 12:00", "name": "USPS COLLECTION BOX - BLUE BOX", "note": "ON 12/24 AND 12/31, THIS BOX MAY BE COLLECTED AS EARLY AS 12 NOON.", "ref": "6108400001"}, "type": "Feature"}
{"geometry": {"coordinates": [-89.178952, 42.108096], "type": "Point"}, "id": "4rW_tgSm6duj2u0M4OtyIo-FANI=", "properties": {"@spider": "usps_collection_boxes", "addr:city": "STILLMAN VALLEY", "addr:country": "US", "addr:full": "215 N WALNUT ST", "addr:postcode": "61084", "addr:state": "IL", "brand": "USPS", "collection_times": "Mo-Fr 16:30; Sa 12:00", "name": "USPS COLLECTION BOX - PO LOBBY", "note": "ON 12/24 AND 12/31, THIS BOX MAY BE COLLECTED AS EARLY AS 12 NOON.", "ref": "6108400002"}, "type": "Feature"}
{"geometry": {"coordinates": [-89.178923999, 42.108452864], "type": "Point"}, "id": "Df5tLUdk4oK0yA4GrI9Cg1rUE3o=", "properties": {"@spider": "usps_collection_boxes", "addr:city": "STILLMAN VALLEY", "addr:country": "US", "addr:full": "215 N WALNUT ST", "addr:postcode": "61084", "addr:state": "IL", "brand": "USPS", "collection_times": "Mo-Fr 16:30; Sa 12:00", "name": "USPS COLLECTION BOX - PO LOBBY", "note": "ON 12/24 AND 12/31, THIS BOX MAY BE COLLECTED AS EARLY AS 12 NOON.", "ref": "6108400004"}, "type": "Feature"}
{"geometry": {"coordinates": [-90.008212, 42.348254], "type": "Point"}, "id": "0Sg0C9alSy7XK4AT3y04DQAZqn8=", "properties": {"@spider": "usps_collection_boxes", "addr:city": "STOCKTON", "addr:country": "US", "addr:full": "201 W RAILROAD AVE", "addr:postcode": "61085", "addr:state": "IL", "brand": "USPS", "collection_times": "Mo-Fr 16:00; Sa 15:30", "name": "USPS COLLECTION BOX - BLUE BOX", "note": "ON 12/24 AND 12/31, THIS BOX MAY BE COLLECTED AS EARLY AS 12 NOON.", "ref": "6108500001"}, "type": "Feature"}
{"geometry": {"coordinates": [-90.0052899, 42.35523], "type": "Point"}, "id": "zCRaru4_AWzpfRzxNzzvrD8F2Ws=", "properties": {"@spider": "usps_collection_boxes", "addr:city": "STOCKTON", "addr:country": "US", "addr:full": "527 N HUDSON ST", "addr:postcode": "61085", "addr:state": "IL", "brand": "USPS", "collection_times": "Mo-Sa 13:00", "name": "USPS COLLECTION BOX - BLUE BOX", "note": "ON 12/24 AND 12/31, THIS BOX MAY BE COLLECTED AS EARLY AS 12 NOON.", "ref": "6108500003"}, "type": "Feature"}
{"geometry": {"coordinates": [-90.0084955, 42.350776], "type": "Point"}, "id": "Q5sTVaOc_mUewDopfm5rxQ5CrUE=", "properties": {"@spider": "usps_collection_boxes", "addr:city": "STOCKTON", "addr:country": "US", "addr:full": "140 W BENTON AVE", "addr:postcode": "61085", "addr:state": "IL", "brand": "USPS", "collection_times": "Mo-Sa 10:00", "name": "USPS COLLECTION BOX - BLUE BOX", "ref": "6108500004"}, "type": "Feature"}
{"geometry": {"coordinates": [-90.0069029, 42.352264], "type": "Point"}, "id": "JOaf5OF3MIyEkWyOsl_vBDLW0Gc=", "properties": {"@spider": "usps_collection_boxes", "addr:city": "STOCKTON", "addr:country": "US", "addr:full": "246 N MAIN ST", "addr:postcode": "61085", "addr:state": "IL", "brand": "USPS", "collection_times": "Mo-Sa 11:00", "name": "USPS COLLECTION BOX - BLUE BOX", "ref": "6108500005"}, "type": "Feature"}
{"geometry": {"coordinates": [-90.0067374, 42.349], "type": "Point"}, "id": "UCifjJGUcRh6OZltQeC1Y5KW_DY=", "properties": {"@spider": "usps_collection_boxes", "addr:city": "STOCKTON", "addr:country": "US", "addr:full": "139 S MAIN ST", "addr:postcode": "61085", "addr:state": "IL", "brand": "USPS", "collection_times": "Mo-Sa 14:00", "name": "USPS COLLECTION BOX - BLUE BOX", "note": "ON 12/24 AND 12/31, THIS BOX MAY BE COLLECTED AS EARLY AS 12 NOON.", "ref": "6108500007"}, "type": "Feature"}
{"geometry": {"coordinates": [-90.008108, 42.348201], "type": "Point"}, "id": "XU8nA_bkj6FepuLJv99uQYZJyqo=", "properties": {"@spider": "usps_collection_boxes", "addr:city": "STOCKTON", "addr:country": "US", "addr:full": "201 W RAILROAD AVE", "addr:postcode": "61085", "addr:state": "IL", "brand": "USPS", "collection_times": "Mo-Fr 16:30; Sa 15:30", "name": "USPS COLLECTION BOX - PO LOBBY", "note": "ON 12/24 AND 12/31, THIS BOX MAY BE COLLECTED AS EARLY AS 12 NOON.", "ref": "6108500009"}, "type": "Feature"}
{"geometry": {"coordinates": [-90.008108, 42.348201], "type": "Point"}, "id": "wZ4ZfK9nL18nvRmkHEUiaAv8L9k=", "properties": {"@spider": "usps_collection_boxes", "addr:city": "STOCKTON", "addr:country": "US", "addr:full": "201 W RAILROAD AVE", "addr:postcode": "61085", "addr:state": "IL", "brand": "USPS", "collection_times": "Mo-Fr 16:30; Sa 15:30", "name": "USPS COLLECTION BOX - PO LOBBY", "note": "ON 12/24 AND 12/31, THIS BOX MAY BE COLLECTED AS EARLY AS 12 NOON.", "ref": "6108500010"}, "type": "Feature"}
{"geometry": {"coordinates": [-90.0045657, 42.357579], "type": "Point"}, "id": "MsQZxxpmaqhqJS_L9ukVOmxk2wc=", "properties": {"@spider": "usps_collection_boxes", "addr:city": "STOCKTON", "addr:country": "US", "addr:full": "209 E NORTH AVE", "addr:postcode": "61085", "addr:state": "IL", "brand": "USPS", "collection_times": "Mo-Sa 10:15", "name": "USPS COLLECTION BOX - BLUE BOX", "ref": "6108500011"}, "type": "Feature"}
{"geometry": {"coordinates": [-89.999114, 42.357605], "type": "Point"}, "id": "uzBkKOfzCVkIosF5c7pO_EvhHvc=", "properties": {"@spider": "usps_collection_boxes", "addr:city": "STOCKTON", "addr:country": "US", "addr:full": "601 E NORTH AVE", "addr:postcode": "61085", "addr:state": "IL", "brand": "USPS", "collection_times": "Mo-Sa 10:00", "name": "USPS COLLECTION BOX - BLUE BOX", "ref": "6108500012"}, "type": "Feature"}
{"geometry": {"coordinates": [-90.0081697, 42.348286107], "type": "Point"}, "id": "zC8rQIxKFAIosUknl26rF8EBw7M=", "properties": {"@spider": "usps_collection_boxes", "addr:city": "STOCKTON", "addr:country": "US", "addr:full": "201 W RAILROAD AVE", "addr:postcode": "61085", "addr:state": "IL", "brand": "USPS", "collection_times": "Mo-Fr 16:30; Sa 15:30", "name": "USPS COLLECTION BOX - PO LOBBY", "note": "ON 12/24 AND 12/31, THIS BOX MAY BE COLLECTED AS EARLY AS 12 NOON.", "ref": "6108500014"}, "type": "Feature"}
{"geometry": {"coordinates": [-89.98795, 42.495982], "type": "Point"}, "id": "B3ykHVhTRVGBwn8KpsDyZ5CS_Xs=", "properties": {"@spider": "usps_collection_boxes", "addr:city": "WARREN", "addr:country": "US", "addr:full": "101 E MAIN ST", "addr:postcode": "61087", "addr:state": "IL", "brand": "USPS", "collection_times": "Mo-Fr 16:00; Sa 11:30", "name": "USPS COLLECTION BOX - PO LOBBY", "note": "ON 12/24 AND 12/31, THIS BOX MAY BE COLLECTED AS EARLY AS 12 NOON.", "ref": "6108700002"}, "type": "Feature"}
{"geometry": {"coordinates": [-89.98795, 42.495982], "type": "Point"}, "id": "-Ep7P2v7wgoMxmviucTv2rBpCWM=", "properties": {"@spider": "usps_collection_boxes", "addr:city": "WARREN", "addr:country": "US", "addr:full": "101 E MAIN ST", "addr:postcode": "61087", "addr:state": "IL", "brand": "USPS", "collection_times": "Mo-Fr 16:00; Sa 11:30", "name": "USPS COLLECTION BOX - PO LOBBY", "note": "ON 12/24 AND 12/31, THIS BOX MAY BE COLLECTED AS EARLY AS 12 NOON.", "ref": "6108700003"}, "type": "Feature"}
{"geometry": {"coordinates": [-89.987983, 42.495882], "type": "Point"}, "id": "Zf9gy1fM-YNHe7OmBwZ47CL2BSM=", "properties": {"@spider": "usps_collection_boxes", "addr:city": "WARREN", "addr:country": "US", "addr:full": "101 E MAIN ST", "addr:postcode": "61087", "addr:state": "IL", "brand": "USPS", "collection_times": "Mo-Fr 16:00; Sa 11:30", "name": "USPS COLLECTION BOX - BLUE BOX", "note": "ON 12/24 AND 12/31, THIS BOX MAY BE COLLECTED AS EARLY AS 12 NOON.", "ref": "6108700005"}, "type": "Feature"}
{"geometry": {"coordinates": [-89.9889765951, 42.4964687546], "type": "Point"}, "id": "X0mhUqccwlmfGpZ-vEv4Tl7oS-8=", "properties": {"@spider": "usps_collection_boxes", "addr:city": "WARREN", "addr:country": "US", "addr:full": "110 W MAIN ST", "addr:postcode": "61087", "addr:state": "IL", "brand": "USPS", "collection_times": "Mo-Sa 10:45", "name": "USPS COLLECTION BOX - BLUE BOX", "ref": "6108700006"}, "type": "Feature"}
{"geometry": {"coordinates": [-89.988010854, 42.495908646], "type": "Point"}, "id": "L4pWNE0mMaJ3aWt-y9D9K79or5c=", "properties": {"@spider": "usps_collection_boxes", "addr:city": "WARREN", "addr:country": "US", "addr:full": "101 E MAIN ST", "addr:postcode": "61087", "addr:state": "IL", "brand": "USPS", "collection_times": "Mo-Fr 16:00; Sa 11:30", "name": "USPS COLLECTION BOX - PO LOBBY", "note": "ON 12/24 AND 12/31, THIS BOX MAY BE COLLECTED AS EARLY AS 12 NOON.", "ref": "6108700007"}, "type": "Feature"}
{"geometry": {"coordinates": [-89.243031, 42.277261], "type": "Point"}, "id": "2hdVO7nlPe6GRIS_rmG7W4PBL4w=", "properties": {"@spider": "usps_collection_boxes", "addr:city": "WINNEBAGO", "addr:country": "US", "addr:full": "105 LANDMARK DR", "addr:postcode": "61088", "addr:state": "IL", "brand": "USPS", "collection_times": "Mo-Fr 16:45; Sa 12:00", "name": "USPS COLLECTION BOX - BLUE BOX", "note": "ON 12/24 AND 12/31, THIS BOX MAY BE COLLECTED AS EARLY AS 12 NOON.", "ref": "6108800001"}, "type": "Feature"}
{"geometry": {"coordinates": [-89.242908, 42.277284], "type": "Point"}, "id": "cSYl12Xh371Gr9doiVa4GclrFXw=", "properties": {"@spider": "usps_collection_boxes", "addr:city": "WINNEBAGO", "addr:country": "US", "addr:full": "105 LANDMARK DR", "addr:postcode": "61088", "addr:state": "IL", "brand": "USPS", "collection_times": "Mo-Fr 16:45; Sa 12:00", "name": "USPS COLLECTION BOX - PO LOBBY", "note": "ON 12/24 AND 12/31, THIS BOX MAY BE COLLECTED AS EARLY AS 12 NOON.", "ref": "6108800004"}, "type": "Feature"}
{"geometry": {"coordinates": [-89.242908, 42.277284], "type": "Point"}, "id": "NG5e8X5RxsPOjF_YbnRuucu-fps=", "properties": {"@spider": "usps_collection_boxes", "addr:city": "WINNEBAGO", "addr:country": "US", "addr:full": "105 LANDMARK DR", "addr:postcode": "61088", "addr:state": "IL", "brand": "USPS", "collection_times": "Mo-Fr 16:45; Sa 12:00", "name": "USPS COLLECTION BOX - BLUE BOX", "note": "ON 12/24 AND 12/31, THIS BOX MAY BE COLLECTED AS EARLY AS 12 NOON.", "ref": "6108800006"}, "type": "Feature"}
{"geometry": {"coordinates": [-89.243523466, 42.277269516], "type": "Point"}, "id": "FQjMy_yEL6fNuz_RUaWYkvjlt9Q=", "properties": {"@spider": "usps_collection_boxes", "addr:city": "WINNEBAGO", "addr:country": "US", "addr:full": "105 LANDMARK DR", "addr:postcode": "61088", "addr:state": "IL", "brand": "USPS", "collection_times": "Mo-Fr 16:45; Sa 12:00", "name": "USPS COLLECTION BOX - PO LOBBY", "note": "ON 12/24 AND 12/31, THIS BOX MAY BE COLLECTED AS EARLY AS 12 NOON.", "ref": "6108800007"}, "type": "Feature"}
{"geometry": {"coordinates": [-89.7915191201, 42.4921280286], "type": "Point"}, "id": "vxyNvwuMcIdpgZCC9GuKjz0j9XM=", "properties": {"@spider": "usps_collection_boxes", "addr:city": "WINSLOW", "addr:country": "US", "addr:full": "200 CARVER ST", "addr:postcode": "61089", "addr:state": "IL", "brand": "USPS", "collection_times": "Mo-Fr 10:45; Sa 09:45", "name": "USPS COLLECTION BOX - BLUE BOX", "ref": "6108900001"}, "type": "Feature"}
{"geometry": {"coordinates": [-89.7915191201, 42.4921280286], "type": "Point"}, "id": "788j8r0Ty6iISD0Q9LDz-QWHexw=", "properties": {"@spider": "usps_collection_boxes", "addr:city": "WINSLOW", "addr:country": "US", "addr:full": "200 CARVER ST", "addr:postcode": "61089", "addr:state": "IL", "brand": "USPS", "collection_times": "Mo-Fr 10:45; Sa 09:45", "name": "USPS COLLECTION BOX - PO LOBBY", "ref": "6108900002"}, "type": "Feature"}
{"geometry": {"coordinates": [-89.7915191201, 42.4921280286], "type": "Point"}, "id": "uJYTWgBjL1Xv8h21CWxwwGd4-jE=", "properties": {"@spider": "usps_collection_boxes", "addr:city": "WINSLOW", "addr:country": "US", "addr:full": "200 CARVER ST", "addr:postcode": "61089", "addr:state": "IL", "brand": "USPS", "collection_times": "Mo-Fr 10:45; Sa 09:45", "name": "USPS COLLECTION BOX - PO LOBBY", "ref": "6108900003"}, "type": "Feature"}
{"geometry": {"coordinates": [-89.7920818272, 42.4931227999], "type": "Point"}, "id": "Pu4UhpiYdZasYyzqHJeH__Kz3aM=", "properties": {"@spider": "usps_collection_boxes", "addr:city": "WINSLOW", "addr:country": "US", "addr:full": "221 CARVER ST", "addr:postcode": "61089", "addr:state": "IL", "brand": "USPS", "collection_times": "Mo-Sa 09:00", "name": "USPS COLLECTION BOX - BLUE BOX", "ref": "6108900004"}, "type": "Feature"}
{"geometry": {"coordinates": [-89.7915191201, 42.4921280286], "type": "Point"}, "id": "NjraWzhF3OsqdStGCoxvoxWNu4c=", "properties": {"@spider": "usps_collection_boxes", "addr:city": "WINSLOW", "addr:country": "US", "addr:full": "200 CARVER ST", "addr:postcode": "61089", "addr:state": "IL", "brand": "USPS", "collection_times": "Mo-Fr 10:45; Sa 09:45", "name": "USPS COLLECTION BOX - PO LOBBY", "ref": "6108900006"}, "type": "Feature"}
{"geometry": {"coordinates": [-89.543348, 41.905718], "type": "Point"}, "id": "q6hhDGnlJSgufe4I4fgoPHmbEqw=", "properties": {"@spider": "usps_collection_boxes", "addr:city": "WOOSUNG", "addr:country": "US", "addr:full": "604 GRISWOLD ST", "addr:postcode": "61091", "addr:state": "IL", "brand": "USPS", "collection_times": "Mo-Fr 12:30; Sa 11:00", "name": "USPS COLLECTION BOX - BLUE BOX", "note": "ON 12/24 AND 12/31, THIS BOX MAY BE COLLECTED AS EARLY AS 12 NOON.", "ref": "6109100001"}, "type": "Feature"}
{"geometry": {"coordinates": [-89.54339, 41.905799], "type": "Point"}, "id": "3jRrtXPjd_AQBAaOr1WKzVGHZw4=", "properties": {"@spider": "usps_collection_boxes", "addr:city": "WOOSUNG", "addr:country": "US", "addr:full": "604 GRISWOLD ST", "addr:postcode": "61091", "addr:state": "IL", "brand": "USPS", "collection_times": "Mo-Fr 12:30; Sa 11:00", "name": "USPS COLLECTION BOX - PO LOBBY", "note": "ON 12/24 AND 12/31, THIS BOX MAY BE COLLECTED AS EARLY AS 12 NOON.", "ref": "6109100002"}, "type": "Feature"}
{"geometry": {"coordinates": [-89.54628, 41.90411], "type": "Point"}, "id": "-MUvv1YZvFaZQKA5joiM9Jh3GuI=", "properties": {"@spider": "usps_collection_boxes", "addr:city": "WOOSUNG", "addr:country": "US", "addr:full": "604 GRISWOLD ST", "addr:postcode": "61091", "addr:state": "IL", "brand": "USPS", "collection_times": "Mo-Fr 12:30; Sa 11:00", "name": "USPS COLLECTION BOX - PO LOBBY", "note": "ON 12/24 AND 12/31, THIS BOX MAY BE COLLECTED AS EARLY AS 12 NOON.", "ref": "6109100003"}, "type": "Feature"}
