{"dataset_attributes": {"@spider": "usps_collection_boxes", "spider:collection_time": "2023-09-16T08:22:24.198600"}, "geometry": {"coordinates": [-89.1062947, 42.287247], "type": "Point"}, "id": "j38Ur3ls8VWdaMQs4b7pffIN-p0=", "properties": {"@spider": "usps_collection_boxes", "addr:city": "ROCKFORD", "addr:country": "US", "addr:full": "1109 N AVON ST", "addr:postcode": "61101", "addr:state": "IL", "amenity": "post_box", "brand": "United States Postal Service", "brand:wikidata": "Q668687", "collection_times": "Mo-Fr 16:00; Sa 13:00", "name": "USPS COLLECTION BOX - BLUE BOX", "note": "ON 12/24 AND 12/31, THIS BOX MAY BE COLLECTED AS EARLY AS 12 NOON.", "nsi_id": "unitedstatespostalservice-a77078", "operator": "United States Postal Service", "operator:short": "USPS", "operator:type": "public", "operator:wikidata": "Q668687", "ref": "6110100004"}, "type": "Feature"}
{"dataset_attributes": {"@spider": "usps_collection_boxes", "spider:collection_time": "2023-09-16T08:22:24.198600"}, "geometry": {"coordinates": [-89.094842006, 42.272419009], "type": "Point"}, "id": "XPIT8FAEi8CUIAV0ulNcPR4Ktbs=", "properties": {"@spider": "usps_collection_boxes", "addr:city": "ROCKFORD", "addr:country": "US", "addr:full": "125 N CHURCH ST", "addr:postcode": "61101", "addr:state": "IL", "amenity": "post_box", "brand": "United States Postal Service", "brand:wikidata": "Q668687", "collection_times": "Mo-Fr 16:00; Sa 13:00", "name": "USPS COLLECTION BOX - BLUE BOX", "note": "ON 12/24 AND 12/31, THIS BOX MAY BE COLLECTED AS EARLY AS 12 NOON.", "nsi_id": "unitedstatespostalservice-a77078", "operator": "United States Postal Service", "operator:short": "USPS", "operator:type": "public", "operator:wikidata": "Q668687", "ref": "6110100006"}, "type": "Feature"}
{"dataset_attributes": {"@spider": "usps_collection_boxes", "spider:collection_time": "2023-09-16T08:22:24.198600"}, "geometry": {"coordinates": [-89.093659558, 42.274511454], "type": "Point"}, "id": "H2J1QFh4ayYDC5Q3mXom5nEKTTs=", "properties": {"@spider": "usps_collection_boxes", "addr:city": "ROCKFORD", "addr:country": "US", "addr:full": "399 N CHURCH ST", "addr:postcode": "61101", "addr:state": "IL", "amenity": "post_box", "brand": "United States Postal Service", "brand:wikidata": "Q668687", "collection_times": "Mo-Fr 16:00; Sa 13:00", "name": "USPS COLLECTION BOX - BLUE BOX", "note": "ON 12/24 AND 12/31, THIS BOX MAY BE COLLECTED AS EARLY AS 12 NOON.", "nsi_id": "unitedstatespostalservice-a77078", "operator": "United States Postal Service", "operator:short": "USPS", "operator:type": "public", "operator:wikidata": "Q668687", "ref": "6110100007"}, "type": "Feature"}
{"dataset_attributes": {"@spider": "usps_collection_boxes", "spider:collection_time": "2023-09-16T08:22:24.198600"}, "geometry": {"coordinates": [-89.098390988, 42.27116801], "type": "Point"}, "id": "-8dsut3_coO6aKuRhkTxOInrB2M=", "properties": {"@spider": "usps_collection_boxes", "addr:city": "ROCKFORD", "addr:country": "US", "addr:full": "211 S COURT ST", "addr:postcode": "61101", "addr:state": "IL", "amenity": "post_box", "brand": "United States Postal Service", "brand:wikidata": "Q668687", "collection_times": "Mo-Fr 16:00; Sa 13:00", "name": "USPS COLLECTION BOX - BLUE BOX", "note": "ON 12/24 AND 12/31, THIS BOX MAY BE COLLECTED AS EARLY AS 12 NOON.", "nsi_id": "unitedstatespostalservice-a77078", "operator": "United States Postal Service", "operator:short": "USPS", "operator:type": "public", "operator:wikidata": "Q668687", "ref": "6110100012"}, "type": "Feature"}
{"dataset_attributes": {"@spider": "usps_collection_boxes", "spider:collection_time": "2023-09-16T08:22:24.198600"}, "geometry": {"coordinates": [-89.096314036, 42.272616989], "type": "Point"}, "id": "BNoBSCMxDDWl3Cfy1bjOTR5xpi4=", "properties": {"@spider": "usps_collection_boxes", "addr:city": "ROCKFORD", "addr:country": "US", "addr:full": "111 N COURT ST", "addr:postcode": "61101", "addr:state": "IL", "amenity": "post_box", "brand": "United States Postal Service", "brand:wikidata": "Q668687", "collection_times": "Mo-Fr 16:00; Sa 13:00", "name": "USPS COLLECTION BOX - BLUE BOX", "note": "ON 12/24 AND 12/31, THIS BOX MAY BE COLLECTED AS EARLY AS 12 NOON.", "nsi_id": "unitedstatespostalservice-a77078", "operator": "United States Postal Service", "operator:short": "USPS", "operator:type": "public", "operator:wikidata": "Q668687", "ref": "6110100013"}, "type": "Feature"}
{"dataset_attributes": {"@spider": "usps_collection_boxes", "spider:collection_time": "2023-09-16T08:22:24.198600"}, "geometry": {"coordinates": [-89.096823991, 42.27099199], "type": "Point"}, "id": "RquDe4qwubjLPBPegLdT1qFXiqI=", "properties": {"@spider": "usps_collection_boxes", "addr:city": "ROCKFORD", "addr:country": "US", "addr:full": "404 ELM ST", "addr:postcode": "61101", "addr:state": "IL", "amenity": "post_box", "brand": "United States Postal Service", "brand:wikidata": "Q668687", "collection_times": "Mo-Fr 16:00; Sa 13:00", "name": "USPS COLLECTION BOX - BLUE BOX", "note": "ON 12/24 AND 12/31, THIS BOX MAY BE COLLECTED AS EARLY AS 12 NOON.", "nsi_id": "unitedstatespostalservice-a77078", "operator": "United States Postal Service", "operator:short": "USPS", "operator:type": "public", "operator:wikidata": "Q668687", "ref": "6110100014"}, "type": "Feature"}
{"dataset_attributes": {"@spider": "usps_collection_boxes", "spider:collection_time": "2023-09-16T08:22:24.198600"}, "geometry": {"coordinates": [-89.09588396, 42.272098987], "type": "Point"}, "id": "fJzmYtxqHZZFozGSzjR8tqXbAIY=", "properties": {"@spider": "usps_collection_boxes", "addr:city": "ROCKFORD", "addr:country": "US", "addr:full": "401 W STATE ST", "addr:postcode": "61101", "addr:state": "IL", "amenity": "post_box", "brand": "United States Postal Service", "brand:wikidata": "Q668687", "collection_times": "Mo-Fr 16:00; Sa 13:00", "name": "USPS COLLECTION BOX - BLUE BOX", "note": "ON 12/24 AND 12/31, THIS BOX MAY BE COLLECTED AS EARLY AS 12 NOON.", "nsi_id": "unitedstatespostalservice-a77078", "operator": "United States Postal Service", "operator:short": "USPS", "operator:type": "public", "operator:wikidata": "Q668687", "ref": "6110100016"}, "type": "Feature"}
{"dataset_attributes": {"@spider": "usps_collection_boxes", "spider:collection_time": "2023-09-16T08:22:24.198600"}, "geometry": {"coordinates": [-89.0854270333, 42.2811760019], "type": "Point"}, "id": "bzRBVz8GeknEfrz4oaRDm3GKkYo=", "properties": {"@spider": "usps_collection_boxes", "addr:city": "ROCKFORD", "addr:country": "US", "addr:full": "982 N MAIN ST", "addr:postcode": "61101", "addr:state": "IL", "amenity": "post_box", "brand": "United States Postal Service", "brand:wikidata": "Q668687", "collection_times": "Mo-Fr 16:00; Sa 13:00", "name": "USPS COLLECTION BOX - BLUE BOX", "note": "ON 12/24 AND 12/31, THIS BOX MAY BE COLLECTED AS EARLY AS 12 NOON.", "nsi_id": "unitedstatespostalservice-a77078", "operator": "United States Postal Service", "operator:short": "USPS", "operator:type": "public", "operator:wikidata": "Q668687", "ref": "6110100017"}, "type": "Feature"}
{"dataset_attributes": {"@spider": "usps_collection_boxes", "spider:collection_time": "2023-09-16T08:22:24.198600"}, "geometry": {"coordinates": [-89.081474966, 42.286767989], "type": "Point"}, "id": "QKvPe6w8bl8vX3tXPl3cUn55DFA=", "properties": {"@spider": "usps_collection_boxes", "addr:city": "ROCKFORD", "addr:country": "US", "addr:full": "1320 N MAIN ST", "addr:postcode": "61101", "addr:state": "IL", "amenity": "post_box", "brand": "United States Postal Service", "brand:wikidata": "Q668687", "collection_times": "Mo-Fr 16:00; Sa 13:00", "name": "USPS COLLECTION BOX - BLUE BOX", "note": "ON 12/24 AND 12/31, THIS BOX MAY BE COLLECTED AS EARLY AS 12 NOON.", "nsi_id": "unitedstatespostalservice-a77078", "operator": "United States Postal Service", "operator:short": "USPS", "operator:type": "public", "operator:wikidata": "Q668687", "ref": "6110100018"}, "type": "Feature"}
{"dataset_attributes": {"@spider": "usps_collection_boxes", "spider:collection_time": "2023-09-16T08:22:24.198600"}, "geometry": {"coordinates": [-89.0979838, 42.298193], "type": "Point"}, "id": "gOzPr-ReWD1-eNdNkdkEVeUyRpo=", "properties": {"@spider": "usps_collection_boxes", "addr:city": "ROCKFORD", "addr:country": "US", "addr:full": "2400 N ROCKTON AVE", "addr:postcode": "61101", "addr:state": "IL", "amenity": "post_box", "brand": "United States Postal Service", "brand:wikidata": "Q668687", "collection_times": "Mo-Fr 15:45; Sa 13:00", "name": "USPS COLLECTION BOX - BLUE BOX", "note": "ON 12/24 AND 12/31, THIS BOX MAY BE COLLECTED AS EARLY AS 12 NOON.", "nsi_id": "unitedstatespostalservice-a77078", "operator": "United States Postal Service", "operator:short": "USPS", "operator:type": "public", "operator:wikidata": "Q668687", "ref": "6110100024"}, "type": "Feature"}
{"dataset_attributes": {"@spider": "usps_collection_boxes", "spider:collection_time": "2023-09-16T08:22:24.198600"}, "geometry": {"coordinates": [-89.0969320336, 42.2709489904], "type": "Point"}, "id": "Y_AT2OUehJ32em6qSKnxcKddGzg=", "properties": {"@spider": "usps_collection_boxes", "addr:city": "ROCKFORD", "addr:country": "US", "addr:full": "404 ELM ST.", "addr:postcode": "61101", "addr:state": "IL", "amenity": "post_box", "brand": "United States Postal Service", "brand:wikidata": "Q668687", "collection_times": "Mo-Fr 16:00; Sa 13:00", "name": "USPS COLLECTION BOX - BLUE BOX", "note": "ON 12/24 AND 12/31, THIS BOX MAY BE COLLECTED AS EARLY AS 12 NOON.", "nsi_id": "unitedstatespostalservice-a77078", "operator": "United States Postal Service", "operator:short": "USPS", "operator:type": "public", "operator:wikidata": "Q668687", "ref": "6110100025"}, "type": "Feature"}
{"dataset_attributes": {"@spider": "usps_collection_boxes", "spider:collection_time": "2023-09-16T08:22:24.198600"}, "geometry": {"coordinates": [-89.098352405, 42.272744218], "type": "Point"}, "id": "PlfQbXgcyh86lUS9mogEIG5FzEQ=", "properties": {"@spider": "usps_collection_boxes", "addr:city": "ROCKFORD", "addr:country": "US", "addr:full": "598 W STATE ST", "addr:postcode": "61101", "addr:state": "IL", "amenity": "post_box", "brand": "United States Postal Service", "brand:wikidata": "Q668687", "collection_times": "Mo-Fr 16:00; Sa 13:00", "name": "USPS COLLECTION BOX - BLUE BOX", "note": "ON 12/24 AND 12/31, THIS BOX MAY BE COLLECTED AS EARLY AS 12 NOON.", "nsi_id": "unitedstatespostalservice-a77078", "operator": "United States Postal Service", "operator:short": "USPS", "operator:type": "public", "operator:wikidata": "Q668687", "ref": "6110100027"}, "type": "Feature"}
{"dataset_attributes": {"@spider": "usps_collection_boxes", "spider:collection_time": "2023-09-16T08:22:24.198600"}, "geometry": {"coordinates": [-89.097128002, 42.271825989], "type": "Point"}, "id": "J5fZvcq_P-sGzC6Oyl_aeKzsJZQ=", "properties": {"@spider": "usps_collection_boxes", "addr:city": "ROCKFORD", "addr:country": "US", "addr:full": "420 W STATE ST", "addr:postcode": "61101", "addr:state": "IL", "amenity": "post_box", "brand": "United States Postal Service", "brand:wikidata": "Q668687", "collection_times": "Mo-Fr 16:00; Sa 13:00", "name": "USPS COLLECTION BOX - BLUE BOX", "note": "ON 12/24 AND 12/31, THIS BOX MAY BE COLLECTED AS EARLY AS 12 NOON.", "nsi_id": "unitedstatespostalservice-a77078", "operator": "United States Postal Service", "operator:short": "USPS", "operator:type": "public", "operator:wikidata": "Q668687", "ref": "6110100029"}, "type": "Feature"}
{"dataset_attributes": {"@spider": "usps_collection_boxes", "spider:collection_time": "2023-09-16T08:22:24.198600"}, "geometry": {"coordinates": [-89.095103018, 42.271073001], "type": "Point"}, "id": "aaJW4xRy6UoLJp8ASZkymPkj6Ns=", "properties": {"@spider": "usps_collection_boxes", "addr:city": "ROCKFORD", "addr:country": "US", "addr:full": "308 W STATE ST", "addr:postcode": "61101", "addr:state": "IL", "amenity": "post_box", "brand": "United States Postal Service", "brand:wikidata": "Q668687", "collection_times": "Mo-Fr 16:00; Sa 13:00", "name": "USPS COLLECTION BOX - BLUE BOX", "note": "ON 12/24 AND 12/31, THIS BOX MAY BE COLLECTED AS EARLY AS 12 NOON.", "nsi_id": "unitedstatespostalservice-a77078", "operator": "United States Postal Service", "operator:short": "USPS", "operator:type": "public", "operator:wikidata": "Q668687", "ref": "6110100034"}, "type": "Feature"}
{"dataset_attributes": {"@spider": "usps_collection_boxes", "spider:collection_time": "2023-09-16T08:22:24.198600"}, "geometry": {"coordinates": [-89.09438997, 42.269678], "type": "Point"}, "id": "o2Oy4mSJ4JsZg7CnZg1BD9F9fjI=", "properties": {"@spider": "usps_collection_boxes", "addr:city": "ROCKFORD", "addr:country": "US", "addr:full": "200 S WYMAN ST", "addr:postcode": "61101", "addr:state": "IL", "amenity": "post_box", "brand": "United States Postal Service", "brand:wikidata": "Q668687", "collection_times": "Mo-Fr 16:00; Sa 13:00", "name": "USPS COLLECTION BOX - BLUE BOX", "note": "ON 12/24 AND 12/31, THIS BOX MAY BE COLLECTED AS EARLY AS 12 NOON.", "nsi_id": "unitedstatespostalservice-a77078", "operator": "United States Postal Service", "operator:short": "USPS", "operator:type": "public", "operator:wikidata": "Q668687", "ref": "6110100037"}, "type": "Feature"}
{"dataset_attributes": {"@spider": "usps_collection_boxes", "spider:collection_time": "2023-09-16T08:22:24.198600"}, "geometry": {"coordinates": [-89.1184, 42.282615], "type": "Point"}, "id": "oGNIX9hOgLFHiK9TEc1tMriALQg=", "properties": {"@spider": "usps_collection_boxes", "addr:city": "ROCKFORD", "addr:country": "US", "addr:full": "2440 KILBURN AVE", "addr:postcode": "61101", "addr:state": "IL", "amenity": "post_box", "brand": "United States Postal Service", "brand:wikidata": "Q668687", "collection_times": "Mo-Fr 17:15; Sa 13:00", "name": "USPS COLLECTION BOX - BLUE BOX", "note": "ON 12/24 AND 12/31, THIS BOX MAY BE COLLECTED AS EARLY AS 12 NOON.", "nsi_id": "unitedstatespostalservice-a77078", "operator": "United States Postal Service", "operator:short": "USPS", "operator:type": "public", "operator:wikidata": "Q668687", "ref": "6110100039"}, "type": "Feature"}
{"dataset_attributes": {"@spider": "usps_collection_boxes", "spider:collection_time": "2023-09-16T08:22:24.198600"}, "geometry": {"coordinates": [-89.1184, 42.282615], "type": "Point"}, "id": "0RWyr2dOmzM1Z_-qAeyQtuaBSl8=", "properties": {"@spider": "usps_collection_boxes", "addr:city": "ROCKFORD", "addr:country": "US", "addr:full": "2440 KILBURN AVE", "addr:postcode": "61101", "addr:state": "IL", "amenity": "post_box", "brand": "United States Postal Service", "brand:wikidata": "Q668687", "collection_times": "Mo-Fr 17:15; Sa 13:00", "name": "USPS COLLECTION BOX - BLUE BOX", "note": "ON 12/24 AND 12/31, THIS BOX MAY BE COLLECTED AS EARLY AS 12 NOON.", "nsi_id": "unitedstatespostalservice-a77078", "operator": "United States Postal Service", "operator:short": "USPS", "operator:type": "public", "operator:wikidata": "Q668687", "ref": "6110100042"}, "type": "Feature"}
{"dataset_attributes": {"@spider": "usps_collection_boxes", "spider:collection_time": "2023-09-16T08:22:24.198600"}, "geometry": {"coordinates": [-89.0783623, 42.31733], "type": "Point"}, "id": "yc2IruUUKxC-IkgKjkULzZA7L7A=", "properties": {"@spider": "usps_collection_boxes", "addr:city": "ROCKFORD", "addr:country": "US", "addr:full": "3710 N MAIN ST", "addr:postcode": "61101", "addr:state": "IL", "amenity": "post_box", "brand": "United States Postal Service", "brand:wikidata": "Q668687", "collection_times": "Mo-Fr 15:45; Sa 13:00", "name": "USPS COLLECTION BOX - BLUE BOX", "note": "ON 12/24 AND 12/31, THIS BOX MAY BE COLLECTED AS EARLY AS 12 NOON.", "nsi_id": "unitedstatespostalservice-a77078", "operator": "United States Postal Service", "operator:short": "USPS", "operator:type": "public", "operator:wikidata": "Q668687", "ref": "6110100043"}, "type": "Feature"}
{"dataset_attributes": {"@spider": "usps_collection_boxes", "spider:collection_time": "2023-09-16T08:22:24.198600"}, "geometry": {"coordinates": [-89.0977149591, 42.2690728399], "type": "Point"}, "id": "AhMk_E6aPTC7uVpAzPX2DVstWpI=", "properties": {"@spider": "usps_collection_boxes", "addr:city": "ROCKFORD", "addr:country": "US", "addr:full": "398 S CHURCH ST", "addr:postcode": "61101", "addr:state": "IL", "amenity": "post_box", "brand": "United States Postal Service", "brand:wikidata": "Q668687", "collection_times": "Mo-Fr 16:30; Sa 13:00", "name": "USPS COLLECTION BOX - BLUE BOX", "note": "ON 12/24 AND 12/31, THIS BOX MAY BE COLLECTED AS EARLY AS 12 NOON.", "nsi_id": "unitedstatespostalservice-a77078", "operator": "United States Postal Service", "operator:short": "USPS", "operator:type": "public", "operator:wikidata": "Q668687", "ref": "6110100044"}, "type": "Feature"}
{"dataset_attributes": {"@spider": "usps_collection_boxes", "spider:collection_time": "2023-09-16T08:22:24.198600"}, "geometry": {"coordinates": [-89.097732547, 42.269063239], "type": "Point"}, "id": "lJN7z38HxChIg61L3U7BRg505bA=", "properties": {"@spider": "usps_collection_boxes", "addr:city": "ROCKFORD", "addr:country": "US", "addr:full": "398 S CHURCH ST", "addr:postcode": "61101", "addr:state": "IL", "amenity": "post_box", "brand": "United States Postal Service", "brand:wikidata": "Q668687", "collection_times": "Mo-Fr 16:30; Sa 13:00", "name": "USPS COLLECTION BOX - BLUE BOX", "note": "ON 12/24 AND 12/31, THIS BOX MAY BE COLLECTED AS EARLY AS 12 NOON.", "nsi_id": "unitedstatespostalservice-a77078", "operator": "United States Postal Service", "operator:short": "USPS", "operator:type": "public", "operator:wikidata": "Q668687", "ref": "6110100045"}, "type": "Feature"}
{"dataset_attributes": {"@spider": "usps_collection_boxes", "spider:collection_time": "2023-09-16T08:22:24.198600"}, "geometry": {"coordinates": [-89.0548895, 42.252784], "type": "Point"}, "id": "WhrQZPG16RqfoeT4PZcWiah9iGc=", "properties": {"@spider": "usps_collection_boxes", "addr:city": "ROCKFORD", "addr:country": "US", "addr:full": "1407 22ND ST", "addr:postcode": "61108", "addr:state": "IL", "amenity": "post_box", "brand": "United States Postal Service", "brand:wikidata": "Q668687", "collection_times": "Mo-Sa 13:00", "name": "USPS COLLECTION BOX - BLUE BOX", "note": "ON 12/24 AND 12/31, THIS BOX MAY BE COLLECTED AS EARLY AS 12 NOON.", "nsi_id": "unitedstatespostalservice-a77078", "operator": "United States Postal Service", "operator:short": "USPS", "operator:type": "public", "operator:wikidata": "Q668687", "ref": "6110800000"}, "type": "Feature"}
{"dataset_attributes": {"@spider": "usps_collection_boxes", "spider:collection_time": "2023-09-16T08:22:24.198600"}, "geometry": {"coordinates": [-89.0277722, 42.24009], "type": "Point"}, "id": "ugEJo-PsiG6SepCtLZKaAERy530=", "properties": {"@spider": "usps_collection_boxes", "addr:city": "ROCKFORD", "addr:country": "US", "addr:full": "2510 S ALPINE RD", "addr:postcode": "61108", "addr:state": "IL", "amenity": "post_box", "brand": "United States Postal Service", "brand:wikidata": "Q668687", "collection_times": "Mo-Sa 13:00", "name": "USPS COLLECTION BOX - BLUE BOX", "note": "ON 12/24 AND 12/31, THIS BOX MAY BE COLLECTED AS EARLY AS 12 NOON.", "nsi_id": "unitedstatespostalservice-a77078", "operator": "United States Postal Service", "operator:short": "USPS", "operator:type": "public", "operator:wikidata": "Q668687", "ref": "6110800002"}, "type": "Feature"}
{"dataset_attributes": {"@spider": "usps_collection_boxes", "spider:collection_time": "2023-09-16T08:22:24.198600"}, "geometry": {"coordinates": [-89.0274788, 42.253498], "type": "Point"}, "id": "9TLtmrdd_OCSSUIEEzuBQvz58BA=", "properties": {"@spider": "usps_collection_boxes", "addr:city": "ROCKFORD", "addr:country": "US", "addr:full": "1100 S ALPINE RD", "addr:postcode": "61108", "addr:state": "IL", "amenity": "post_box", "brand": "United States Postal Service", "brand:wikidata": "Q668687", "collection_times": "Mo-Sa 13:00", "name": "USPS COLLECTION BOX - BLUE BOX", "note": "ON 12/24 AND 12/31, THIS BOX MAY BE COLLECTED AS EARLY AS 12 NOON.", "nsi_id": "unitedstatespostalservice-a77078", "operator": "United States Postal Service", "operator:short": "USPS", "operator:type": "public", "operator:wikidata": "Q668687", "ref": "6110800006"}, "type": "Feature"}
{"dataset_attributes": {"@spider": "usps_collection_boxes", "spider:collection_time": "2023-09-16T08:22:24.198600"}, "geometry": {"coordinates": [-89.0277179, 42.24009], "type": "Point"}, "id": "lov3bhxDEjQdjDMHx7cWMtUO8dM=", "properties": {"@spider": "usps_collection_boxes", "addr:city": "ROCKFORD", "addr:country": "US", "addr:full": "2510 S ALPINE RD", "addr:postcode": "61108", "addr:state": "IL", "amenity": "post_box", "brand": "United States Postal Service", "brand:wikidata": "Q668687", "collection_times": "Mo-Sa 13:00", "name": "USPS COLLECTION BOX - BLUE BOX", "note": "ON 12/24 AND 12/31, THIS BOX MAY BE COLLECTED AS EARLY AS 12 NOON.", "nsi_id": "unitedstatespostalservice-a77078", "operator": "United States Postal Service", "operator:short": "USPS", "operator:type": "public", "operator:wikidata": "Q668687", "ref": "6110800008"}, "type": "Feature"}
{"dataset_attributes": {"@spider": "usps_collection_boxes", "spider:collection_time": "2023-09-16T08:22:24.198600"}, "geometry": {"coordinates": [-89.0298214, 42.25567], "type": "Point"}, "id": "FAeRkMvHOxdhikIhu7ZaaaKw1dI=", "properties": {"@spider": "usps_collection_boxes", "addr:city": "ROCKFORD", "addr:country": "US", "addr:full": "1111 S ALPINE RD", "addr:postcode": "61108", "addr:state": "IL", "amenity": "post_box", "brand": "United States Postal Service", "brand:wikidata": "Q668687", "collection_times": "Mo-Sa 13:00", "name": "USPS COLLECTION BOX - BLUE BOX", "note": "ON 12/24 AND 12/31, THIS BOX MAY BE COLLECTED AS EARLY AS 12 NOON.", "nsi_id": "unitedstatespostalservice-a77078", "operator": "United States Postal Service", "operator:short": "USPS", "operator:type": "public", "operator:wikidata": "Q668687", "ref": "6110800009"}, "type": "Feature"}
{"dataset_attributes": {"@spider": "usps_collection_boxes", "spider:collection_time": "2023-09-16T08:22:24.198600"}, "geometry": {"coordinates": [-88.9992053, 42.269338], "type": "Point"}, "id": "06hZm0gkcKFyODuaBT8VutgwISI=", "properties": {"@spider": "usps_collection_boxes", "addr:city": "ROCKFORD", "addr:country": "US", "addr:full": "293 EXECUTIVE PKWY", "addr:postcode": "61108", "addr:state": "IL", "amenity": "post_box", "brand": "United States Postal Service", "brand:wikidata": "Q668687", "collection_times": "Mo-Sa 13:00", "name": "USPS COLLECTION BOX - BLUE BOX", "note": "ON 12/24 AND 12/31, THIS BOX MAY BE COLLECTED AS EARLY AS 12 NOON.", "nsi_id": "unitedstatespostalservice-a77078", "operator": "United States Postal Service", "operator:short": "USPS", "operator:type": "public", "operator:wikidata": "Q668687", "ref": "6110800019"}, "type": "Feature"}
{"dataset_attributes": {"@spider": "usps_collection_boxes", "spider:collection_time": "2023-09-16T08:22:24.198600"}, "geometry": {"coordinates": [-89.0239772, 42.262759], "type": "Point"}, "id": "fLmsgEmeXNMrhwuwQI-121yTJQw=", "properties": {"@spider": "usps_collection_boxes", "addr:city": "ROCKFORD", "addr:country": "US", "addr:full": "4751 MANHATTAN DR", "addr:postcode": "61108", "addr:state": "IL", "amenity": "post_box", "brand": "United States Postal Service", "brand:wikidata": "Q668687", "collection_times": "Mo-Fr 14:00; Sa 13:00", "name": "USPS COLLECTION BOX - BLUE BOX", "note": "ON 12/24 AND 12/31, THIS BOX MAY BE COLLECTED AS EARLY AS 12 NOON.", "nsi_id": "unitedstatespostalservice-a77078", "operator": "United States Postal Service", "operator:short": "USPS", "operator:type": "public", "operator:wikidata": "Q668687", "ref": "6110800020"}, "type": "Feature"}
{"dataset_attributes": {"@spider": "usps_collection_boxes", "spider:collection_time": "2023-09-16T08:22:24.198600"}, "geometry": {"coordinates": [-89.0046866, 42.263605], "type": "Point"}, "id": "k_y9UqsUH6op8kC-shjM2utq4TU=", "properties": {"@spider": "usps_collection_boxes", "addr:city": "ROCKFORD", "addr:country": "US", "addr:full": "129 PHELPS AVE", "addr:postcode": "61108", "addr:state": "IL", "amenity": "post_box", "brand": "United States Postal Service", "brand:wikidata": "Q668687", "collection_times": "Mo-Fr 16:00; Sa 13:00", "name": "USPS COLLECTION BOX - BLUE BOX", "note": "ON 12/24 AND 12/31, THIS BOX MAY BE COLLECTED AS EARLY AS 12 NOON.", "nsi_id": "unitedstatespostalservice-a77078", "operator": "United States Postal Service", "operator:short": "USPS", "operator:type": "public", "operator:wikidata": "Q668687", "ref": "6110800021"}, "type": "Feature"}
{"dataset_attributes": {"@spider": "usps_collection_boxes", "spider:collection_time": "2023-09-16T08:22:24.198600"}, "geometry": {"coordinates": [-89.0678235, 42.273805], "type": "Point"}, "id": "yR-UnVYVw8fYtZZpOfqSP38q3zw=", "properties": {"@spider": "usps_collection_boxes", "addr:city": "ROCKFORD", "addr:country": "US", "addr:full": "1700 RURAL ST", "addr:postcode": "61108", "addr:state": "IL", "amenity": "post_box", "brand": "United States Postal Service", "brand:wikidata": "Q668687", "collection_times": "Mo-Sa 13:00", "name": "USPS COLLECTION BOX - BLUE BOX", "note": "ON 12/24 AND 12/31, THIS BOX MAY BE COLLECTED AS EARLY AS 12 NOON.", "nsi_id": "unitedstatespostalservice-a77078", "operator": "United States Postal Service", "operator:short": "USPS", "operator:type": "public", "operator:wikidata": "Q668687", "ref": "6110800028"}, "type": "Feature"}
{"dataset_attributes": {"@spider": "usps_collection_boxes", "spider:collection_time": "2023-09-16T08:22:24.198600"}, "geometry": {"coordinates": [-88.9909849, 42.269908], "type": "Point"}, "id": "76Ob4kefv2HW-9JG1Y_vZ3vcAfw=", "properties": {"@spider": "usps_collection_boxes", "addr:city": "ROCKFORD", "addr:country": "US", "addr:full": "6410 E STATE ST", "addr:postcode": "61108", "addr:state": "IL", "amenity": "post_box", "brand": "United States Postal Service", "brand:wikidata": "Q668687", "collection_times": "Mo-Fr 16:00; Sa 13:00", "name": "USPS COLLECTION BOX - BLUE BOX", "note": "ON 12/24 AND 12/31, THIS BOX MAY BE COLLECTED AS EARLY AS 12 NOON.", "nsi_id": "unitedstatespostalservice-a77078", "operator": "United States Postal Service", "operator:short": "USPS", "operator:type": "public", "operator:wikidata": "Q668687", "ref": "6110800031"}, "type": "Feature"}
{"dataset_attributes": {"@spider": "usps_collection_boxes", "spider:collection_time": "2023-09-16T08:22:24.198600"}, "geometry": {"coordinates": [-88.9729149, 42.271023], "type": "Point"}, "id": "kSmAX8XnJL-Vlo9nQm5w0KNWpv0=", "properties": {"@spider": "usps_collection_boxes", "addr:city": "ROCKFORD", "addr:country": "US", "addr:full": "7400 E STATE ST", "addr:postcode": "61108", "addr:state": "IL", "amenity": "post_box", "brand": "United States Postal Service", "brand:wikidata": "Q668687", "collection_times": "Mo-Fr 15:00; Sa 13:00", "name": "USPS COLLECTION BOX - BLUE BOX", "note": "ON 12/24 AND 12/31, THIS BOX MAY BE COLLECTED AS EARLY AS 12 NOON.", "nsi_id": "unitedstatespostalservice-a77078", "operator": "United States Postal Service", "operator:short": "USPS", "operator:type": "public", "operator:wikidata": "Q668687", "ref": "6110800032"}, "type": "Feature"}
{"dataset_attributes": {"@spider": "usps_collection_boxes", "spider:collection_time": "2023-09-16T08:22:24.198600"}, "geometry": {"coordinates": [-89.0259669, 42.262939], "type": "Point"}, "id": "3Stw5Tivu9WtPV_KZGDwRvRMfPQ=", "properties": {"@spider": "usps_collection_boxes", "addr:city": "ROCKFORD", "addr:country": "US", "addr:full": "4615 E STATE ST", "addr:postcode": "61108", "addr:state": "IL", "amenity": "post_box", "brand": "United States Postal Service", "brand:wikidata": "Q668687", "collection_times": "Mo-Fr 14:00; Sa 13:00", "name": "USPS COLLECTION BOX - BLUE BOX", "note": "ON 12/24 AND 12/31, THIS BOX MAY BE COLLECTED AS EARLY AS 12 NOON.", "nsi_id": "unitedstatespostalservice-a77078", "operator": "United States Postal Service", "operator:short": "USPS", "operator:type": "public", "operator:wikidata": "Q668687", "ref": "6110800033"}, "type": "Feature"}
{"dataset_attributes": {"@spider": "usps_collection_boxes", "spider:collection_time": "2023-09-16T08:22:24.198600"}, "geometry": {"coordinates": [-88.991697, 42.265517], "type": "Point"}, "id": "7v-__J-wsu3Bx5KZptrzAcXmvx8=", "properties": {"@spider": "usps_collection_boxes", "addr:city": "ROCKFORD", "addr:country": "US", "addr:full": "6395 E STATE ST", "addr:postcode": "61108", "addr:state": "IL", "amenity": "post_box", "brand": "United States Postal Service", "brand:wikidata": "Q668687", "collection_times": "Mo-Fr 14:00; Sa 13:00", "name": "USPS COLLECTION BOX - BLUE BOX", "note": "ON 12/24 AND 12/31, THIS BOX MAY BE COLLECTED AS EARLY AS 12 NOON.", "nsi_id": "unitedstatespostalservice-a77078", "operator": "United States Postal Service", "operator:short": "USPS", "operator:type": "public", "operator:wikidata": "Q668687", "ref": "6110800036"}, "type": "Feature"}
{"dataset_attributes": {"@spider": "usps_collection_boxes", "spider:collection_time": "2023-09-16T08:22:24.198600"}, "geometry": {"coordinates": [-89.0067299, 42.266294], "type": "Point"}, "id": "O-62PET5sNYf6zTPtnqRiya8yE0=", "properties": {"@spider": "usps_collection_boxes", "addr:city": "ROCKFORD", "addr:country": "US", "addr:full": "5668 E STATE ST", "addr:postcode": "61108", "addr:state": "IL", "amenity": "post_box", "brand": "United States Postal Service", "brand:wikidata": "Q668687", "collection_times": "Mo-Fr 15:30; Sa 13:00", "name": "USPS COLLECTION BOX - BLUE BOX", "note": "ON 12/24 AND 12/31, THIS BOX MAY BE COLLECTED AS EARLY AS 12 NOON.", "nsi_id": "unitedstatespostalservice-a77078", "operator": "United States Postal Service", "operator:short": "USPS", "operator:type": "public", "operator:wikidata": "Q668687", "ref": "6110800038"}, "type": "Feature"}
{"dataset_attributes": {"@spider": "usps_collection_boxes", "spider:collection_time": "2023-09-16T08:22:24.198600"}, "geometry": {"coordinates": [-89.0079659, 42.269344], "type": "Point"}, "id": "KFLY6LJvipqR-Vz5MAFe5v3tL38=", "properties": {"@spider": "usps_collection_boxes", "addr:city": "ROCKFORD", "addr:country": "US", "addr:full": "5666 E STATE ST", "addr:postcode": "61108", "addr:state": "IL", "amenity": "post_box", "brand": "United States Postal Service", "brand:wikidata": "Q668687", "collection_times": "Mo-Fr 15:30; Sa 13:00", "name": "USPS COLLECTION BOX - BLUE BOX", "note": "ON 12/24 AND 12/31, THIS BOX MAY BE COLLECTED AS EARLY AS 12 NOON.", "nsi_id": "unitedstatespostalservice-a77078", "operator": "United States Postal Service", "operator:short": "USPS", "operator:type": "public", "operator:wikidata": "Q668687", "ref": "6110800039"}, "type": "Feature"}
{"dataset_attributes": {"@spider": "usps_collection_boxes", "spider:collection_time": "2023-09-16T08:22:24.198600"}, "geometry": {"coordinates": [-89.040555602, 42.2660378762], "type": "Point"}, "id": "ePMFFUSnV69h5OfSruZT9jY8iH0=", "properties": {"@spider": "usps_collection_boxes", "addr:city": "ROCKFORD", "addr:country": "US", "addr:full": "3600 E STATE ST", "addr:postcode": "61108", "addr:state": "IL", "amenity": "post_box", "brand": "United States Postal Service", "brand:wikidata": "Q668687", "collection_times": "Mo-Sa 13:00", "name": "USPS COLLECTION BOX - BLUE BOX", "note": "ON 12/24 AND 12/31, THIS BOX MAY BE COLLECTED AS EARLY AS 12 NOON.", "nsi_id": "unitedstatespostalservice-a77078", "operator": "United States Postal Service", "operator:short": "USPS", "operator:type": "public", "operator:wikidata": "Q668687", "ref": "6110800040"}, "type": "Feature"}
{"dataset_attributes": {"@spider": "usps_collection_boxes", "spider:collection_time": "2023-09-16T08:22:24.198600"}, "geometry": {"coordinates": [-88.9785266, 42.26707], "type": "Point"}, "id": "_O5jjwoxH9Yu4FiIgz6cHGbW5ao=", "properties": {"@spider": "usps_collection_boxes", "addr:city": "ROCKFORD", "addr:country": "US", "addr:full": "7151 WALTON ST", "addr:postcode": "61108", "addr:state": "IL", "amenity": "post_box", "brand": "United States Postal Service", "brand:wikidata": "Q668687", "collection_times": "Mo-Fr 14:00; Sa 13:00", "name": "USPS COLLECTION BOX - BLUE BOX", "note": "ON 12/24 AND 12/31, THIS BOX MAY BE COLLECTED AS EARLY AS 12 NOON.", "nsi_id": "unitedstatespostalservice-a77078", "operator": "United States Postal Service", "operator:short": "USPS", "operator:type": "public", "operator:wikidata": "Q668687", "ref": "6110800043"}, "type": "Feature"}
{"dataset_attributes": {"@spider": "usps_collection_boxes", "spider:collection_time": "2023-09-16T08:22:24.198600"}, "geometry": {"coordinates": [-89.0741574, 42.266043], "type": "Point"}, "id": "iFkv0kYkxIwLSL5dpDJKh11NNf4=", "properties": {"@spider": "usps_collection_boxes", "addr:city": "ROCKFORD", "addr:country": "US", "addr:full": "1401 E STATE ST", "addr:postcode": "61108", "addr:state": "IL", "amenity": "post_box", "brand": "United States Postal Service", "brand:wikidata": "Q668687", "collection_times": "Mo-Fr 16:00; Sa 13:00", "name": "USPS COLLECTION BOX - BLUE BOX", "note": "ON 12/24 AND 12/31, THIS BOX MAY BE COLLECTED AS EARLY AS 12 NOON.", "nsi_id": "unitedstatespostalservice-a77078", "operator": "United States Postal Service", "operator:short": "USPS", "operator:type": "public", "operator:wikidata": "Q668687", "ref": "6110800045"}, "type": "Feature"}
{"dataset_attributes": {"@spider": "usps_collection_boxes", "spider:collection_time": "2023-09-16T08:22:24.198600"}, "geometry": {"coordinates": [-88.9838917, 42.27], "type": "Point"}, "id": "FemBgVjDw80bacV9BVKyKiakG3A=", "properties": {"@spider": "usps_collection_boxes", "addr:city": "ROCKFORD", "addr:country": "US", "addr:full": "6838 E STATE ST", "addr:postcode": "61108", "addr:state": "IL", "amenity": "post_box", "brand": "United States Postal Service", "brand:wikidata": "Q668687", "collection_times": "Mo-Fr 15:00; Sa 13:00", "name": "USPS COLLECTION BOX - BLUE BOX", "note": "ON 12/24 AND 12/31, THIS BOX MAY BE COLLECTED AS EARLY AS 12 NOON.", "nsi_id": "unitedstatespostalservice-a77078", "operator": "United States Postal Service", "operator:short": "USPS", "operator:type": "public", "operator:wikidata": "Q668687", "ref": "6110800047"}, "type": "Feature"}
{"dataset_attributes": {"@spider": "usps_collection_boxes", "spider:collection_time": "2023-09-16T08:22:24.198600"}, "geometry": {"coordinates": [-88.9506559, 42.274339], "type": "Point"}, "id": "Oa4K06CTT9CuKxLbHYb5Hqs6zr4=", "properties": {"@spider": "usps_collection_boxes", "addr:city": "ROCKFORD", "addr:country": "US", "addr:full": "8500 E STATE ST", "addr:postcode": "61108", "addr:state": "IL", "amenity": "post_box", "brand": "United States Postal Service", "brand:wikidata": "Q668687", "collection_times": "Mo-Fr 16:00; Sa 13:00", "name": "USPS COLLECTION BOX - BLUE BOX", "note": "ON 12/24 AND 12/31, THIS BOX MAY BE COLLECTED AS EARLY AS 12 NOON.", "nsi_id": "unitedstatespostalservice-a77078", "operator": "United States Postal Service", "operator:short": "USPS", "operator:type": "public", "operator:wikidata": "Q668687", "ref": "6110800048"}, "type": "Feature"}
{"dataset_attributes": {"@spider": "usps_collection_boxes", "spider:collection_time": "2023-09-16T08:22:24.198600"}, "geometry": {"coordinates": [-89.0801217722, 42.2524494067], "type": "Point"}, "id": "fere4YafdIIE7C7VLOh0LweF7T4=", "properties": {"@spider": "usps_collection_boxes", "addr:city": "ROCKFORD", "addr:country": "US", "addr:full": "1140 BROADWAY", "addr:postcode": "61108", "addr:state": "IL", "amenity": "post_box", "brand": "United States Postal Service", "brand:wikidata": "Q668687", "collection_times": "Mo-Fr 16:45; Sa 13:00", "name": "USPS COLLECTION BOX - BLUE BOX", "note": "ON 12/24 AND 12/31, THIS BOX MAY BE COLLECTED AS EARLY AS 12 NOON.", "nsi_id": "unitedstatespostalservice-a77078", "operator": "United States Postal Service", "operator:short": "USPS", "operator:type": "public", "operator:wikidata": "Q668687", "ref": "6110800050"}, "type": "Feature"}
{"dataset_attributes": {"@spider": "usps_collection_boxes", "spider:collection_time": "2023-09-16T08:22:24.198600"}, "geometry": {"coordinates": [-89.082183, 42.267395], "type": "Point"}, "id": "KesAwJwyPdzJ8B7LcAhzIiWeqWU=", "properties": {"@spider": "usps_collection_boxes", "addr:city": "ROCKFORD", "addr:country": "US", "addr:full": "111 N 6TH ST", "addr:postcode": "61108", "addr:state": "IL", "amenity": "post_box", "brand": "United States Postal Service", "brand:wikidata": "Q668687", "collection_times": "Mo-Fr 16:45; Sa 13:00", "name": "USPS COLLECTION BOX - BLUE BOX", "note": "ON 12/24 AND 12/31, THIS BOX MAY BE COLLECTED AS EARLY AS 12 NOON.", "nsi_id": "unitedstatespostalservice-a77078", "operator": "United States Postal Service", "operator:short": "USPS", "operator:type": "public", "operator:wikidata": "Q668687", "ref": "6110800051"}, "type": "Feature"}
{"dataset_attributes": {"@spider": "usps_collection_boxes", "spider:collection_time": "2023-09-16T08:22:24.198600"}, "geometry": {"coordinates": [-88.980893864, 42.297027523], "type": "Point"}, "id": "-Y0djZTgfAscHTsiu1IofbEiseo=", "properties": {"@spider": "usps_collection_boxes", "addr:city": "ROCKFORD", "addr:country": "US", "addr:full": "6958 SPRING CREEK RD", "addr:postcode": "61108", "addr:state": "IL", "amenity": "post_box", "brand": "United States Postal Service", "brand:wikidata": "Q668687", "collection_times": "Mo-Fr 14:00; Sa 13:00", "name": "USPS COLLECTION BOX - BLUE BOX", "note": "ON 12/24 AND 12/31, THIS BOX MAY BE COLLECTED AS EARLY AS 12 NOON.", "nsi_id": "unitedstatespostalservice-a77078", "operator": "United States Postal Service", "operator:short": "USPS", "operator:type": "public", "operator:wikidata": "Q668687", "ref": "6110800053"}, "type": "Feature"}
{"dataset_attributes": {"@spider": "usps_collection_boxes", "spider:collection_time": "2023-09-16T08:22:24.198600"}, "geometry": {"coordinates": [-89.0300207, 42.286202], "type": "Point"}, "id": "CQytjTKVHyFU6r-7LTwGuA09Tf8=", "properties": {"@spider": "usps_collection_boxes", "addr:city": "ROCKFORD", "addr:country": "US", "addr:full": "1662 N ALPINE RD", "addr:postcode": "61108", "addr:state": "IL", "amenity": "post_box", "brand": "United States Postal Service", "brand:wikidata": "Q668687", "collection_times": "Mo-Fr 16:00; Sa 13:00", "name": "USPS COLLECTION BOX - BLUE BOX", "note": "ON 12/24 AND 12/31, THIS BOX MAY BE COLLECTED AS EARLY AS 12 NOON.", "nsi_id": "unitedstatespostalservice-a77078", "operator": "United States Postal Service", "operator:short": "USPS", "operator:type": "public", "operator:wikidata": "Q668687", "ref": "6110800054"}, "type": "Feature"}
{"dataset_attributes": {"@spider": "usps_collection_boxes", "spider:collection_time": "2023-09-16T08:22:24.198600"}, "geometry": {"coordinates": [-89.0300185, 42.286202], "type": "Point"}, "id": "g07sqrzWhCUPkcWUPkZ8H-T2HQ0=", "properties": {"@spider": "usps_collection_boxes", "addr:city": "ROCKFORD", "addr:country": "US", "addr:full": "1662 N ALPINE RD", "addr:postcode": "61108", "addr:state": "IL", "amenity": "post_box", "brand": "United States Postal Service", "brand:wikidata": "Q668687", "collection_times": "Mo-Fr 16:00; Sa 13:00", "name": "USPS COLLECTION BOX - BLUE BOX", "note": "ON 12/24 AND 12/31, THIS BOX MAY BE COLLECTED AS EARLY AS 12 NOON.", "nsi_id": "unitedstatespostalservice-a77078", "operator": "United States Postal Service", "operator:short": "USPS", "operator:type": "public", "operator:wikidata": "Q668687", "ref": "6110800055"}, "type": "Feature"}
{"dataset_attributes": {"@spider": "usps_collection_boxes", "spider:collection_time": "2023-09-16T08:22:24.198600"}, "geometry": {"coordinates": [-89.0267849, 42.286085], "type": "Point"}, "id": "rsV1U7KzroyTtM-CE8l6iSKA5zk=", "properties": {"@spider": "usps_collection_boxes", "addr:city": "ROCKFORD", "addr:country": "US", "addr:full": "1643 N ALPINE RD", "addr:postcode": "61108", "addr:state": "IL", "amenity": "post_box", "brand": "United States Postal Service", "brand:wikidata": "Q668687", "collection_times": "Mo-Fr 16:00; Sa 13:00", "name": "USPS COLLECTION BOX - BLUE BOX", "note": "ON 12/24 AND 12/31, THIS BOX MAY BE COLLECTED AS EARLY AS 12 NOON.", "nsi_id": "unitedstatespostalservice-a77078", "operator": "United States Postal Service", "operator:short": "USPS", "operator:type": "public", "operator:wikidata": "Q668687", "ref": "6110800056"}, "type": "Feature"}
{"dataset_attributes": {"@spider": "usps_collection_boxes", "spider:collection_time": "2023-09-16T08:22:24.198600"}, "geometry": {"coordinates": [-88.9957509, 42.280645], "type": "Point"}, "id": "lDK4y3f7unLvlbQHY2u4HWamjvk=", "properties": {"@spider": "usps_collection_boxes", "addr:city": "ROCKFORD", "addr:country": "US", "addr:full": "973 FEATHERSTONE RD", "addr:postcode": "61108", "addr:state": "IL", "amenity": "post_box", "brand": "United States Postal Service", "brand:wikidata": "Q668687", "collection_times": "Mo-Fr 14:00; Sa 13:00", "name": "USPS COLLECTION BOX - BLUE BOX", "note": "ON 12/24 AND 12/31, THIS BOX MAY BE COLLECTED AS EARLY AS 12 NOON.", "nsi_id": "unitedstatespostalservice-a77078", "operator": "United States Postal Service", "operator:short": "USPS", "operator:type": "public", "operator:wikidata": "Q668687", "ref": "6110800057"}, "type": "Feature"}
{"dataset_attributes": {"@spider": "usps_collection_boxes", "spider:collection_time": "2023-09-16T08:22:24.198600"}, "geometry": {"coordinates": [-88.9989771, 42.298358], "type": "Point"}, "id": "cKRFk8rLFBzbBp7bG73LQ0urjpo=", "properties": {"@spider": "usps_collection_boxes", "addr:city": "ROCKFORD", "addr:country": "US", "addr:full": "2579 N MULFORD RD", "addr:postcode": "61108", "addr:state": "IL", "amenity": "post_box", "brand": "United States Postal Service", "brand:wikidata": "Q668687", "collection_times": "Mo-Fr 14:00; Sa 13:00", "name": "USPS COLLECTION BOX - BLUE BOX", "note": "ON 12/24 AND 12/31, THIS BOX MAY BE COLLECTED AS EARLY AS 12 NOON.", "nsi_id": "unitedstatespostalservice-a77078", "operator": "United States Postal Service", "operator:short": "USPS", "operator:type": "public", "operator:wikidata": "Q668687", "ref": "6110800058"}, "type": "Feature"}
{"dataset_attributes": {"@spider": "usps_collection_boxes", "spider:collection_time": "2023-09-16T08:22:24.198600"}, "geometry": {"coordinates": [-88.9989794, 42.298358], "type": "Point"}, "id": "Bm125icgXC_IsTBK1DxLWNhUCRg=", "properties": {"@spider": "usps_collection_boxes", "addr:city": "ROCKFORD", "addr:country": "US", "addr:full": "2579 N MULFORD RD", "addr:postcode": "61108", "addr:state": "IL", "amenity": "post_box", "brand": "United States Postal Service", "brand:wikidata": "Q668687", "collection_times": "Mo-Fr 14:00; Sa 13:00", "name": "USPS COLLECTION BOX - BLUE BOX", "note": "ON 12/24 AND 12/31, THIS BOX MAY BE COLLECTED AS EARLY AS 12 NOON.", "nsi_id": "unitedstatespostalservice-a77078", "operator": "United States Postal Service", "operator:short": "USPS", "operator:type": "public", "operator:wikidata": "Q668687", "ref": "6110800059"}, "type": "Feature"}
{"dataset_attributes": {"@spider": "usps_collection_boxes", "spider:collection_time": "2023-09-16T08:22:24.198600"}, "geometry": {"coordinates": [-88.9783738, 42.31045], "type": "Point"}, "id": "OI2H51rHd3qwps7eM7zhxShoeZA=", "properties": {"@spider": "usps_collection_boxes", "addr:city": "ROCKFORD", "addr:country": "US", "addr:full": "3401 N PERRYVILLE RD", "addr:postcode": "61108", "addr:state": "IL", "amenity": "post_box", "brand": "United States Postal Service", "brand:wikidata": "Q668687", "collection_times": "Mo-Fr 14:00; Sa 13:00", "name": "USPS COLLECTION BOX - BLUE BOX", "note": "ON 12/24 AND 12/31, THIS BOX MAY BE COLLECTED AS EARLY AS 12 NOON.", "nsi_id": "unitedstatespostalservice-a77078", "operator": "United States Postal Service", "operator:short": "USPS", "operator:type": "public", "operator:wikidata": "Q668687", "ref": "6110800060"}, "type": "Feature"}
{"dataset_attributes": {"@spider": "usps_collection_boxes", "spider:collection_time": "2023-09-16T08:22:24.198600"}, "geometry": {"coordinates": [-88.9990709, 42.279978], "type": "Point"}, "id": "dogTe2m_c4I7F1-vjfOGXAa26ZA=", "properties": {"@spider": "usps_collection_boxes", "addr:city": "ROCKFORD", "addr:country": "US", "addr:full": "6075 VANTAGE PL", "addr:postcode": "61108", "addr:state": "IL", "amenity": "post_box", "brand": "United States Postal Service", "brand:wikidata": "Q668687", "collection_times": "Mo-Fr 14:00; Sa 13:00", "name": "USPS COLLECTION BOX - BLUE BOX", "note": "ON 12/24 AND 12/31, THIS BOX MAY BE COLLECTED AS EARLY AS 12 NOON.", "nsi_id": "unitedstatespostalservice-a77078", "operator": "United States Postal Service", "operator:short": "USPS", "operator:type": "public", "operator:wikidata": "Q668687", "ref": "6110800061"}, "type": "Feature"}
{"dataset_attributes": {"@spider": "usps_collection_boxes", "spider:collection_time": "2023-09-16T08:22:24.198600"}, "geometry": {"coordinates": [-88.998704, 42.31578], "type": "Point"}, "id": "JBTLueBdoB3ac6PpOwWhPEriNHk=", "properties": {"@spider": "usps_collection_boxes", "addr:city": "ROCKFORD", "addr:country": "US", "addr:full": "3815 N MULFORD RD", "addr:postcode": "61108", "addr:state": "IL", "amenity": "post_box", "brand": "United States Postal Service", "brand:wikidata": "Q668687", "collection_times": "Mo-Fr 14:00; Sa 13:00", "name": "USPS COLLECTION BOX - BLUE BOX", "note": "ON 12/24 AND 12/31, THIS BOX MAY BE COLLECTED AS EARLY AS 12 NOON.", "nsi_id": "unitedstatespostalservice-a77078", "operator": "United States Postal Service", "operator:short": "USPS", "operator:type": "public", "operator:wikidata": "Q668687", "ref": "6110800062"}, "type": "Feature"}
{"dataset_attributes": {"@spider": "usps_collection_boxes", "spider:collection_time": "2023-09-16T08:22:24.198600"}, "geometry": {"coordinates": [-89.0579568, 42.241896], "type": "Point"}, "id": "lmE3Y_QeAcF_Poz5t9ctlHVfFnY=", "properties": {"@spider": "usps_collection_boxes", "addr:city": "ROCKFORD", "addr:country": "US", "addr:full": "2331 23RD AVE", "addr:postcode": "61108", "addr:state": "IL", "amenity": "post_box", "brand": "United States Postal Service", "brand:wikidata": "Q668687", "collection_times": "Mo-Sa 13:00", "name": "USPS COLLECTION BOX - BLUE BOX", "note": "ON 12/24 AND 12/31, THIS BOX MAY BE COLLECTED AS EARLY AS 12 NOON.", "nsi_id": "unitedstatespostalservice-a77078", "operator": "United States Postal Service", "operator:short": "USPS", "operator:type": "public", "operator:wikidata": "Q668687", "ref": "6110800063"}, "type": "Feature"}
{"dataset_attributes": {"@spider": "usps_collection_boxes", "spider:collection_time": "2023-09-16T08:22:24.198600"}, "geometry": {"coordinates": [-89.0823963, 42.264298], "type": "Point"}, "id": "6MC-F1jbeFBJ3tmDUnlHa1IRhCI=", "properties": {"@spider": "usps_collection_boxes", "addr:city": "ROCKFORD", "addr:country": "US", "addr:full": "301 S 6TH ST", "addr:postcode": "61108", "addr:state": "IL", "amenity": "post_box", "brand": "United States Postal Service", "brand:wikidata": "Q668687", "collection_times": "Mo-Sa 13:00", "name": "USPS COLLECTION BOX - BLUE BOX", "note": "ON 12/24 AND 12/31, THIS BOX MAY BE COLLECTED AS EARLY AS 12 NOON.", "nsi_id": "unitedstatespostalservice-a77078", "operator": "United States Postal Service", "operator:short": "USPS", "operator:type": "public", "operator:wikidata": "Q668687", "ref": "6110800064"}, "type": "Feature"}
{"dataset_attributes": {"@spider": "usps_collection_boxes", "spider:collection_time": "2023-09-16T08:22:24.198600"}, "geometry": {"coordinates": [-89.0813774, 42.26258], "type": "Point"}, "id": "iAR8BPIpFjft5e65UdgIq-djPvE=", "properties": {"@spider": "usps_collection_boxes", "addr:city": "ROCKFORD", "addr:country": "US", "addr:full": "501 7TH ST", "addr:postcode": "61108", "addr:state": "IL", "amenity": "post_box", "brand": "United States Postal Service", "brand:wikidata": "Q668687", "collection_times": "Mo-Sa 13:00", "name": "USPS COLLECTION BOX - BLUE BOX", "note": "ON 12/24 AND 12/31, THIS BOX MAY BE COLLECTED AS EARLY AS 12 NOON.", "nsi_id": "unitedstatespostalservice-a77078", "operator": "United States Postal Service", "operator:short": "USPS", "operator:type": "public", "operator:wikidata": "Q668687", "ref": "6110800065"}, "type": "Feature"}
{"dataset_attributes": {"@spider": "usps_collection_boxes", "spider:collection_time": "2023-09-16T08:22:24.198600"}, "geometry": {"coordinates": [-89.0868823, 42.272659], "type": "Point"}, "id": "ku-mnd8x8fVqG6tsKhUuLGEUnvw=", "properties": {"@spider": "usps_collection_boxes", "addr:city": "ROCKFORD", "addr:country": "US", "addr:full": "500 N MADISON ST", "addr:postcode": "61108", "addr:state": "IL", "amenity": "post_box", "brand": "United States Postal Service", "brand:wikidata": "Q668687", "collection_times": "Mo-Sa 13:00", "name": "USPS COLLECTION BOX - BLUE BOX", "note": "ON 12/24 AND 12/31, THIS BOX MAY BE COLLECTED AS EARLY AS 12 NOON.", "nsi_id": "unitedstatespostalservice-a77078", "operator": "United States Postal Service", "operator:short": "USPS", "operator:type": "public", "operator:wikidata": "Q668687", "ref": "6110800066"}, "type": "Feature"}
{"dataset_attributes": {"@spider": "usps_collection_boxes", "spider:collection_time": "2023-09-16T08:22:24.198600"}, "geometry": {"coordinates": [-89.0881056, 42.267372], "type": "Point"}, "id": "-3i3CTCsm1A5yZL6e90GEO5B56w=", "properties": {"@spider": "usps_collection_boxes", "addr:city": "ROCKFORD", "addr:country": "US", "addr:full": "425 E STATE ST", "addr:postcode": "61108", "addr:state": "IL", "amenity": "post_box", "brand": "United States Postal Service", "brand:wikidata": "Q668687", "collection_times": "Mo-Sa 13:00", "name": "USPS COLLECTION BOX - BLUE BOX", "note": "ON 12/24 AND 12/31, THIS BOX MAY BE COLLECTED AS EARLY AS 12 NOON.", "nsi_id": "unitedstatespostalservice-a77078", "operator": "United States Postal Service", "operator:short": "USPS", "operator:type": "public", "operator:wikidata": "Q668687", "ref": "6110800067"}, "type": "Feature"}
{"dataset_attributes": {"@spider": "usps_collection_boxes", "spider:collection_time": "2023-09-16T08:22:24.198600"}, "geometry": {"coordinates": [-89.0817039, 42.278172], "type": "Point"}, "id": "RkSQg9kdJY3ONVwvPpyRi9rHdJI=", "properties": {"@spider": "usps_collection_boxes", "addr:city": "ROCKFORD", "addr:country": "US", "addr:full": "843 N MADISON ST", "addr:postcode": "61108", "addr:state": "IL", "amenity": "post_box", "brand": "United States Postal Service", "brand:wikidata": "Q668687", "collection_times": "Mo-Sa 13:00", "name": "USPS COLLECTION BOX - BLUE BOX", "note": "ON 12/24 AND 12/31, THIS BOX MAY BE COLLECTED AS EARLY AS 12 NOON.", "nsi_id": "unitedstatespostalservice-a77078", "operator": "United States Postal Service", "operator:short": "USPS", "operator:type": "public", "operator:wikidata": "Q668687", "ref": "6110800068"}, "type": "Feature"}
{"dataset_attributes": {"@spider": "usps_collection_boxes", "spider:collection_time": "2023-09-16T08:22:24.198600"}, "geometry": {"coordinates": [-89.0905073, 42.270076], "type": "Point"}, "id": "PD9FPVqXVq34OmLnWNXjVu3_EzM=", "properties": {"@spider": "usps_collection_boxes", "addr:city": "ROCKFORD", "addr:country": "US", "addr:full": "124 N WATER ST", "addr:postcode": "61108", "addr:state": "IL", "amenity": "post_box", "brand": "United States Postal Service", "brand:wikidata": "Q668687", "collection_times": "Mo-Fr 16:00; Sa 13:00", "name": "USPS COLLECTION BOX - BLUE BOX", "note": "ON 12/24 AND 12/31, THIS BOX MAY BE COLLECTED AS EARLY AS 12 NOON.", "nsi_id": "unitedstatespostalservice-a77078", "operator": "United States Postal Service", "operator:short": "USPS", "operator:type": "public", "operator:wikidata": "Q668687", "ref": "6110800069"}, "type": "Feature"}
{"dataset_attributes": {"@spider": "usps_collection_boxes", "spider:collection_time": "2023-09-16T08:22:24.198600"}, "geometry": {"coordinates": [-89.0771109, 42.248002], "type": "Point"}, "id": "2CqtKE4D4p-Hi-Q2hjy-kyoBHuU=", "properties": {"@spider": "usps_collection_boxes", "addr:city": "ROCKFORD", "addr:country": "US", "addr:full": "1801 9TH ST", "addr:postcode": "61108", "addr:state": "IL", "amenity": "post_box", "brand": "United States Postal Service", "brand:wikidata": "Q668687", "collection_times": "Mo-Fr 16:00; Sa 13:00", "name": "USPS COLLECTION BOX - BLUE BOX", "note": "ON 12/24 AND 12/31, THIS BOX MAY BE COLLECTED AS EARLY AS 12 NOON.", "nsi_id": "unitedstatespostalservice-a77078", "operator": "United States Postal Service", "operator:short": "USPS", "operator:type": "public", "operator:wikidata": "Q668687", "ref": "6110800070"}, "type": "Feature"}
{"dataset_attributes": {"@spider": "usps_collection_boxes", "spider:collection_time": "2023-09-16T08:22:24.198600"}, "geometry": {"coordinates": [-89.0267844, 42.286098], "type": "Point"}, "id": "PTJWnm6k6crgj8N7_e2VnwlDAL4=", "properties": {"@spider": "usps_collection_boxes", "addr:city": "ROCKFORD", "addr:country": "US", "addr:full": "1643 N ALPINE RD", "addr:postcode": "61108", "addr:state": "IL", "amenity": "post_box", "brand": "United States Postal Service", "brand:wikidata": "Q668687", "collection_times": "Mo-Fr 16:00; Sa 13:00", "name": "USPS COLLECTION BOX - BLUE BOX", "note": "ON 12/24 AND 12/31, THIS BOX MAY BE COLLECTED AS EARLY AS 12 NOON.", "nsi_id": "unitedstatespostalservice-a77078", "operator": "United States Postal Service", "operator:short": "USPS", "operator:type": "public", "operator:wikidata": "Q668687", "ref": "6110800071"}, "type": "Feature"}
{"dataset_attributes": {"@spider": "usps_collection_boxes", "spider:collection_time": "2023-09-16T08:22:24.198600"}, "geometry": {"coordinates": [-89.0833634, 42.268195], "type": "Point"}, "id": "WiVrGAWbtNf66lPtX2BAx5c4aek=", "properties": {"@spider": "usps_collection_boxes", "addr:city": "ROCKFORD", "addr:country": "US", "addr:full": "701 E JEFFERSON ST", "addr:postcode": "61108", "addr:state": "IL", "amenity": "post_box", "brand": "United States Postal Service", "brand:wikidata": "Q668687", "collection_times": "Mo-Fr 16:00; Sa 13:00", "name": "USPS COLLECTION BOX - BLUE BOX", "note": "ON 12/24 AND 12/31, THIS BOX MAY BE COLLECTED AS EARLY AS 12 NOON.", "nsi_id": "unitedstatespostalservice-a77078", "operator": "United States Postal Service", "operator:short": "USPS", "operator:type": "public", "operator:wikidata": "Q668687", "ref": "6110800072"}, "type": "Feature"}
{"dataset_attributes": {"@spider": "usps_collection_boxes", "spider:collection_time": "2023-09-16T08:22:24.198600"}, "geometry": {"coordinates": [-89.0573933, 42.261249], "type": "Point"}, "id": "zRRP5xF6wSkBU_yiIcjjXSpAoog=", "properties": {"@spider": "usps_collection_boxes", "addr:city": "ROCKFORD", "addr:country": "US", "addr:full": "616 N ROCKFORD AVE", "addr:postcode": "61108", "addr:state": "IL", "amenity": "post_box", "brand": "United States Postal Service", "brand:wikidata": "Q668687", "collection_times": "Mo-Fr 16:00; Sa 13:00", "name": "USPS COLLECTION BOX - BLUE BOX", "note": "ON 12/24 AND 12/31, THIS BOX MAY BE COLLECTED AS EARLY AS 12 NOON.", "nsi_id": "unitedstatespostalservice-a77078", "operator": "United States Postal Service", "operator:short": "USPS", "operator:type": "public", "operator:wikidata": "Q668687", "ref": "6110800074"}, "type": "Feature"}
{"dataset_attributes": {"@spider": "usps_collection_boxes", "spider:collection_time": "2023-09-16T08:22:24.198600"}, "geometry": {"coordinates": [-89.057403, 42.261261], "type": "Point"}, "id": "zbbTvvtXWYy_Z8pDLYgTGzRJf4Q=", "properties": {"@spider": "usps_collection_boxes", "addr:city": "ROCKFORD", "addr:country": "US", "addr:full": "616 N ROCKFORD AVE", "addr:postcode": "61108", "addr:state": "IL", "amenity": "post_box", "brand": "United States Postal Service", "brand:wikidata": "Q668687", "collection_times": "Mo-Fr 16:00; Sa 13:00", "name": "USPS COLLECTION BOX - BLUE BOX", "note": "ON 12/24 AND 12/31, THIS BOX MAY BE COLLECTED AS EARLY AS 12 NOON.", "nsi_id": "unitedstatespostalservice-a77078", "operator": "United States Postal Service", "operator:short": "USPS", "operator:type": "public", "operator:wikidata": "Q668687", "ref": "6110800075"}, "type": "Feature"}
{"dataset_attributes": {"@spider": "usps_collection_boxes", "spider:collection_time": "2023-09-16T08:22:24.198600"}, "geometry": {"coordinates": [-89.0576657, 42.314762], "type": "Point"}, "id": "7LWDUQ2pcTdBdqTgI6n4JFz_PEE=", "properties": {"@spider": "usps_collection_boxes", "addr:city": "MACHESNEY PARK", "addr:country": "US", "addr:full": "5723 N 2ND ST", "addr:postcode": "61111", "addr:state": "IL", "amenity": "post_box", "brand": "United States Postal Service", "brand:wikidata": "Q668687", "collection_times": "Sa 13:00", "name": "USPS COLLECTION BOX - BLUE BOX", "note": "ON 12/24 AND 12/31, THIS BOX MAY BE COLLECTED AS EARLY AS 12 NOON.", "nsi_id": "unitedstatespostalservice-a77078", "operator": "United States Postal Service", "operator:short": "USPS", "operator:type": "public", "operator:wikidata": "Q668687", "ref": "6111100001"}, "type": "Feature"}
{"dataset_attributes": {"@spider": "usps_collection_boxes", "spider:collection_time": "2023-09-16T08:22:24.198600"}, "geometry": {"coordinates": [-89.0354322, 42.367235], "type": "Point"}, "id": "cjU3oaqgiyUHAe-vRvT4I7_j16E=", "properties": {"@spider": "usps_collection_boxes", "addr:city": "MACHESNEY PARK", "addr:country": "US", "addr:full": "10114 N 2ND ST", "addr:postcode": "61111", "addr:state": "IL", "amenity": "post_box", "brand": "United States Postal Service", "brand:wikidata": "Q668687", "collection_times": "Mo-Fr 15:00; Sa 13:00", "name": "USPS COLLECTION BOX - BLUE BOX", "note": "ON 12/24 AND 12/31, THIS BOX MAY BE COLLECTED AS EARLY AS 12 NOON.", "nsi_id": "unitedstatespostalservice-a77078", "operator": "United States Postal Service", "operator:short": "USPS", "operator:type": "public", "operator:wikidata": "Q668687", "ref": "6111100003"}, "type": "Feature"}
{"dataset_attributes": {"@spider": "usps_collection_boxes", "spider:collection_time": "2023-09-16T08:22:24.198600"}, "geometry": {"coordinates": [-89.0284284, 42.338626], "type": "Point"}, "id": "3AMv7xHcYmzn7oY4Ppv5lBq1JZ8=", "properties": {"@spider": "usps_collection_boxes", "addr:city": "MACHESNEY PARK", "addr:country": "US", "addr:full": "7999 N ALPINE RD", "addr:postcode": "61111", "addr:state": "IL", "amenity": "post_box", "brand": "United States Postal Service", "brand:wikidata": "Q668687", "collection_times": "Sa 13:00", "name": "USPS COLLECTION BOX - BLUE BOX", "note": "ON 12/24 AND 12/31, THIS BOX MAY BE COLLECTED AS EARLY AS 12 NOON.", "nsi_id": "unitedstatespostalservice-a77078", "operator": "United States Postal Service", "operator:short": "USPS", "operator:type": "public", "operator:wikidata": "Q668687", "ref": "6111100009"}, "type": "Feature"}
{"dataset_attributes": {"@spider": "usps_collection_boxes", "spider:collection_time": "2023-09-16T08:22:24.198600"}, "geometry": {"coordinates": [-89.0524233, 42.339242], "type": "Point"}, "id": "_PLlYC204MQRUY7WudArKvniHAE=", "properties": {"@spider": "usps_collection_boxes", "addr:city": "MACHESNEY PARK", "addr:country": "US", "addr:full": "633 HARLEM RD", "addr:postcode": "61111", "addr:state": "IL", "amenity": "post_box", "brand": "United States Postal Service", "brand:wikidata": "Q668687", "collection_times": "Mo-Sa 13:00", "name": "USPS COLLECTION BOX - BLUE BOX", "note": "ON 12/24 AND 12/31, THIS BOX MAY BE COLLECTED AS EARLY AS 12 NOON.", "nsi_id": "unitedstatespostalservice-a77078", "operator": "United States Postal Service", "operator:short": "USPS", "operator:type": "public", "operator:wikidata": "Q668687", "ref": "6111100023"}, "type": "Feature"}
{"dataset_attributes": {"@spider": "usps_collection_boxes", "spider:collection_time": "2023-09-16T08:22:24.198600"}, "geometry": {"coordinates": [-89.0463761, 42.31339], "type": "Point"}, "id": "IgMmT7pjp-e4od69zpRc7IKHxBI=", "properties": {"@spider": "usps_collection_boxes", "addr:city": "MACHESNEY PARK", "addr:country": "US", "addr:full": "300 HEART BLVD", "addr:postcode": "61111", "addr:state": "IL", "amenity": "post_box", "brand": "United States Postal Service", "brand:wikidata": "Q668687", "collection_times": "Mo-Fr 16:00; Sa 13:00", "name": "USPS COLLECTION BOX - BLUE BOX", "note": "ON 12/24 AND 12/31, THIS BOX MAY BE COLLECTED AS EARLY AS 12 NOON.", "nsi_id": "unitedstatespostalservice-a77078", "operator": "United States Postal Service", "operator:short": "USPS", "operator:type": "public", "operator:wikidata": "Q668687", "ref": "6111100024"}, "type": "Feature"}
{"dataset_attributes": {"@spider": "usps_collection_boxes", "spider:collection_time": "2023-09-16T08:22:24.198600"}, "geometry": {"coordinates": [-89.0573571, 42.347351], "type": "Point"}, "id": "KMtnsS1OAM7x4QSSgJPedTUU1aI=", "properties": {"@spider": "usps_collection_boxes", "addr:city": "MACHESNEY PARK", "addr:country": "US", "addr:full": "300 ROOSEVELT RD", "addr:postcode": "61111", "addr:state": "IL", "amenity": "post_box", "brand": "United States Postal Service", "brand:wikidata": "Q668687", "collection_times": "Mo-Fr 15:00; Sa 13:00", "name": "USPS COLLECTION BOX - BLUE BOX", "note": "ON 12/24 AND 12/31, THIS BOX MAY BE COLLECTED AS EARLY AS 12 NOON.", "nsi_id": "unitedstatespostalservice-a77078", "operator": "United States Postal Service", "operator:short": "USPS", "operator:type": "public", "operator:wikidata": "Q668687", "ref": "6111100025"}, "type": "Feature"}
{"dataset_attributes": {"@spider": "usps_collection_boxes", "spider:collection_time": "2023-09-16T08:22:24.198600"}, "geometry": {"coordinates": [-88.9935782, 42.318066], "type": "Point"}, "id": "e28s1-DLEFRChrC8WzzS9DKK8fI=", "properties": {"@spider": "usps_collection_boxes", "addr:city": "MACHESNEY PARK", "addr:country": "US", "addr:full": "6277 EAST DR", "addr:postcode": "61111", "addr:state": "IL", "amenity": "post_box", "brand": "United States Postal Service", "brand:wikidata": "Q668687", "collection_times": "Mo-Fr 15:00; Sa 13:00", "name": "USPS COLLECTION BOX - BLUE BOX", "note": "ON 12/24 AND 12/31, THIS BOX MAY BE COLLECTED AS EARLY AS 12 NOON.", "nsi_id": "unitedstatespostalservice-a77078", "operator": "United States Postal Service", "operator:short": "USPS", "operator:type": "public", "operator:wikidata": "Q668687", "ref": "6111100039"}, "type": "Feature"}
{"dataset_attributes": {"@spider": "usps_collection_boxes", "spider:collection_time": "2023-09-16T08:22:24.198600"}, "geometry": {"coordinates": [-88.9974288, 42.319188], "type": "Point"}, "id": "aEkkaD4ggqeaoqcPdCoOWM07YUE=", "properties": {"@spider": "usps_collection_boxes", "addr:city": "MACHESNEY PARK", "addr:country": "US", "addr:full": "6030 E RIVERSIDE BLVD", "addr:postcode": "61111", "addr:state": "IL", "amenity": "post_box", "brand": "United States Postal Service", "brand:wikidata": "Q668687", "collection_times": "Mo-Fr 15:00; Sa 13:00", "name": "USPS COLLECTION BOX - BLUE BOX", "note": "ON 12/24 AND 12/31, THIS BOX MAY BE COLLECTED AS EARLY AS 12 NOON.", "nsi_id": "unitedstatespostalservice-a77078", "operator": "United States Postal Service", "operator:short": "USPS", "operator:type": "public", "operator:wikidata": "Q668687", "ref": "6111100041"}, "type": "Feature"}
{"dataset_attributes": {"@spider": "usps_collection_boxes", "spider:collection_time": "2023-09-16T08:22:24.198600"}, "geometry": {"coordinates": [-89.0008205, 42.317563], "type": "Point"}, "id": "uX7fHtcOX9C5_s_BPzuFQmEfB3Y=", "properties": {"@spider": "usps_collection_boxes", "addr:city": "MACHESNEY PARK", "addr:country": "US", "addr:full": "5923 E RIVERSIDE BLVD", "addr:postcode": "61111", "addr:state": "IL", "amenity": "post_box", "brand": "United States Postal Service", "brand:wikidata": "Q668687", "collection_times": "Mo-Fr 16:00; Sa 13:15", "name": "USPS COLLECTION BOX - BLUE BOX", "note": "ON 12/24 AND 12/31, THIS BOX MAY BE COLLECTED AS EARLY AS 12 NOON.", "nsi_id": "unitedstatespostalservice-a77078", "operator": "United States Postal Service", "operator:short": "USPS", "operator:type": "public", "operator:wikidata": "Q668687", "ref": "6111100042"}, "type": "Feature"}
{"dataset_attributes": {"@spider": "usps_collection_boxes", "spider:collection_time": "2023-09-16T08:22:24.198600"}, "geometry": {"coordinates": [-89.0357208, 42.326339], "type": "Point"}, "id": "IEOLLfOyXoSYTanMJWNEC6CwT_Q=", "properties": {"@spider": "usps_collection_boxes", "addr:city": "MACHESNEY PARK", "addr:country": "US", "addr:full": "1702 WINDSOR RD", "addr:postcode": "61111", "addr:state": "IL", "amenity": "post_box", "brand": "United States Postal Service", "brand:wikidata": "Q668687", "collection_times": "Mo-Fr 18:00; Sa 17:00", "name": "USPS COLLECTION BOX - BLUE BOX", "note": "ON 12/24 AND 12/31, THIS BOX MAY BE COLLECTED AS EARLY AS 12 NOON.", "nsi_id": "unitedstatespostalservice-a77078", "operator": "United States Postal Service", "operator:short": "USPS", "operator:type": "public", "operator:wikidata": "Q668687", "ref": "6111100046"}, "type": "Feature"}
{"dataset_attributes": {"@spider": "usps_collection_boxes", "spider:collection_time": "2023-09-16T08:22:24.198600"}, "geometry": {"coordinates": [-89.0354242, 42.326117], "type": "Point"}, "id": "5Y7S587_tNAhOgFNzus6kNahzn0=", "properties": {"@spider": "usps_collection_boxes", "addr:city": "MACHESNEY PARK", "addr:country": "US", "addr:full": "1702 WINDSOR RD", "addr:postcode": "61111", "addr:state": "IL", "amenity": "post_box", "brand": "United States Postal Service", "brand:wikidata": "Q668687", "collection_times": "Mo-Fr 18:00; Sa 17:00", "name": "USPS COLLECTION BOX - PO LOBBY", "note": "ON 12/24 AND 12/31, THIS BOX MAY BE COLLECTED AS EARLY AS 12 NOON.", "nsi_id": "unitedstatespostalservice-a77078", "operator": "United States Postal Service", "operator:short": "USPS", "operator:type": "public", "operator:wikidata": "Q668687", "ref": "6111100047"}, "type": "Feature"}
{"dataset_attributes": {"@spider": "usps_collection_boxes", "spider:collection_time": "2023-09-16T08:22:24.198600"}, "geometry": {"coordinates": [-89.0302595, 42.340927], "type": "Point"}, "id": "CssLUknHUpFjkFHwlOwJ8fk_Iqc=", "properties": {"@spider": "usps_collection_boxes", "addr:city": "MACHESNEY PARK", "addr:country": "US", "addr:full": "1810 HARLEM RD", "addr:postcode": "61111", "addr:state": "IL", "amenity": "post_box", "brand": "United States Postal Service", "brand:wikidata": "Q668687", "collection_times": "Mo-Fr 15:00; Sa 13:00", "name": "USPS COLLECTION BOX - BLUE BOX", "note": "ON 12/24 AND 12/31, THIS BOX MAY BE COLLECTED AS EARLY AS 12 NOON.", "nsi_id": "unitedstatespostalservice-a77078", "operator": "United States Postal Service", "operator:short": "USPS", "operator:type": "public", "operator:wikidata": "Q668687", "ref": "6111100050"}, "type": "Feature"}
{"dataset_attributes": {"@spider": "usps_collection_boxes", "spider:collection_time": "2023-09-16T08:22:24.198600"}, "geometry": {"coordinates": [-89.0353949, 42.326068], "type": "Point"}, "id": "hLc7YLCZypiWMNYsIEYH45xDhDw=", "properties": {"@spider": "usps_collection_boxes", "addr:city": "MACHESNEY PARK", "addr:country": "US", "addr:full": "1702 WINDSOR RD", "addr:postcode": "61111", "addr:state": "IL", "amenity": "post_box", "brand": "United States Postal Service", "brand:wikidata": "Q668687", "collection_times": "Mo-Fr 18:00; Sa 17:00", "name": "USPS COLLECTION BOX - APC", "note": "ON 12/24 AND 12/31, THIS BOX MAY BE COLLECTED AS EARLY AS 12 NOON.", "nsi_id": "unitedstatespostalservice-a77078", "operator": "United States Postal Service", "operator:short": "USPS", "operator:type": "public", "operator:wikidata": "Q668687", "ref": "6111100051"}, "type": "Feature"}
{"dataset_attributes": {"@spider": "usps_collection_boxes", "spider:collection_time": "2023-09-16T08:22:24.198600"}, "geometry": {"coordinates": [-89.035765081, 42.325485269], "type": "Point"}, "id": "OGrkwy_bczZEvWjboD9R9s12o6k=", "properties": {"@spider": "usps_collection_boxes", "addr:city": "MACHESNEY PARK", "addr:country": "US", "addr:full": "1702 WINDSOR RD", "addr:postcode": "61111", "addr:state": "IL", "amenity": "post_box", "brand": "United States Postal Service", "brand:wikidata": "Q668687", "collection_times": "Mo-Fr 18:00; Sa 17:00", "name": "USPS COLLECTION BOX - PO LOBBY", "note": "ON 12/24 AND 12/31, THIS BOX MAY BE COLLECTED AS EARLY AS 12 NOON.", "nsi_id": "unitedstatespostalservice-a77078", "operator": "United States Postal Service", "operator:short": "USPS", "operator:type": "public", "operator:wikidata": "Q668687", "ref": "6111100059"}, "type": "Feature"}
{"dataset_attributes": {"@spider": "usps_collection_boxes", "spider:collection_time": "2023-09-16T08:22:24.198600"}, "geometry": {"coordinates": [-89.0964632591, 42.268471452], "type": "Point"}, "id": "jR3HtRcfaV0LEnm5xOmFYcSBXGU=", "properties": {"@spider": "usps_collection_boxes", "addr:city": "ROCKFORD", "addr:country": "US", "addr:full": "400 S MAIN ST", "addr:postcode": "61125", "addr:state": "IL", "amenity": "post_box", "brand": "United States Postal Service", "brand:wikidata": "Q668687", "collection_times": "Mo-Fr 17:00", "name": "USPS COLLECTION BOX - PO LOBBY", "note": "ON 12/24 AND 12/31, THIS BOX MAY BE COLLECTED AS EARLY AS 12 NOON.", "nsi_id": "unitedstatespostalservice-a77078", "operator": "United States Postal Service", "operator:short": "USPS", "operator:type": "public", "operator:wikidata": "Q668687", "ref": "6112500396"}, "type": "Feature"}
{"dataset_attributes": {"@spider": "usps_collection_boxes", "spider:collection_time": "2023-09-16T08:22:24.198600"}, "geometry": {"coordinates": [-88.9706588, 42.254097], "type": "Point"}, "id": "szIGI08erEC8DFnw6QLPyYKWVsw=", "properties": {"@spider": "usps_collection_boxes", "addr:city": "ROCKFORD", "addr:country": "US", "addr:full": "1463 S BELL SCHOOL RD", "addr:postcode": "61125", "addr:state": "IL", "amenity": "post_box", "brand": "United States Postal Service", "brand:wikidata": "Q668687", "collection_times": "Mo-Sa 13:00", "name": "USPS COLLECTION BOX - BLUE BOX", "note": "ON 12/24 AND 12/31, THIS BOX MAY BE COLLECTED AS EARLY AS 12 NOON.", "nsi_id": "unitedstatespostalservice-a77078", "operator": "United States Postal Service", "operator:short": "USPS", "operator:type": "public", "operator:wikidata": "Q668687", "ref": "6112500397"}, "type": "Feature"}
{"dataset_attributes": {"@spider": "usps_collection_boxes", "spider:collection_time": "2023-09-16T08:22:24.198600"}, "geometry": {"coordinates": [-88.9781004, 42.243537], "type": "Point"}, "id": "KOzszLkrBoWZ-iiwWGFfIKBNs7A=", "properties": {"@spider": "usps_collection_boxes", "addr:city": "ROCKFORD", "addr:country": "US", "addr:full": "2206 BARNES BLVD", "addr:postcode": "61125", "addr:state": "IL", "amenity": "post_box", "brand": "United States Postal Service", "brand:wikidata": "Q668687", "collection_times": "Mo-Sa 13:00", "name": "USPS COLLECTION BOX - BLUE BOX", "note": "ON 12/24 AND 12/31, THIS BOX MAY BE COLLECTED AS EARLY AS 12 NOON.", "nsi_id": "unitedstatespostalservice-a77078", "operator": "United States Postal Service", "operator:short": "USPS", "operator:type": "public", "operator:wikidata": "Q668687", "ref": "6112500398"}, "type": "Feature"}
{"dataset_attributes": {"@spider": "usps_collection_boxes", "spider:collection_time": "2023-09-16T08:22:24.198600"}, "geometry": {"coordinates": [-89.0860672, 42.217808], "type": "Point"}, "id": "Dc9Q3Pgja0-GKMEecobSv0GVIqk=", "properties": {"@spider": "usps_collection_boxes", "addr:city": "ROCKFORD", "addr:country": "US", "addr:full": "766 RESEARCH PKWY", "addr:postcode": "61125", "addr:state": "IL", "amenity": "post_box", "brand": "United States Postal Service", "brand:wikidata": "Q668687", "collection_times": "Mo-Sa 13:00", "name": "USPS COLLECTION BOX - BLUE BOX", "note": "ON 12/24 AND 12/31, THIS BOX MAY BE COLLECTED AS EARLY AS 12 NOON.", "nsi_id": "unitedstatespostalservice-a77078", "operator": "United States Postal Service", "operator:short": "USPS", "operator:type": "public", "operator:wikidata": "Q668687", "ref": "6112500400"}, "type": "Feature"}
{"dataset_attributes": {"@spider": "usps_collection_boxes", "spider:collection_time": "2023-09-16T08:22:24.198600"}, "geometry": {"coordinates": [-89.0191874, 42.236672], "type": "Point"}, "id": "NFuoCahWnjOAfB3v1_q7EctKRKU=", "properties": {"@spider": "usps_collection_boxes", "addr:city": "ROCKFORD", "addr:country": "US", "addr:full": "3000 FOREST VIEW RD", "addr:postcode": "61125", "addr:state": "IL", "amenity": "post_box", "brand": "United States Postal Service", "brand:wikidata": "Q668687", "collection_times": "Mo-Fr 16:30; Sa 13:00", "name": "USPS COLLECTION BOX - BLUE BOX", "note": "ON 12/24 AND 12/31, THIS BOX MAY BE COLLECTED AS EARLY AS 12 NOON.", "nsi_id": "unitedstatespostalservice-a77078", "operator": "United States Postal Service", "operator:short": "USPS", "operator:type": "public", "operator:wikidata": "Q668687", "ref": "6112500401"}, "type": "Feature"}
{"dataset_attributes": {"@spider": "usps_collection_boxes", "spider:collection_time": "2023-09-16T08:22:24.198600"}, "geometry": {"coordinates": [-89.0727990256, 42.1829299965], "type": "Point"}, "id": "lbVL8wMDOXYa7XKnpOMcRcn5cKY=", "properties": {"@spider": "usps_collection_boxes", "addr:city": "ROCKFORD", "addr:country": "US", "addr:full": "6771 11TH ST", "addr:postcode": "61125", "addr:state": "IL", "amenity": "post_box", "brand": "United States Postal Service", "brand:wikidata": "Q668687", "collection_times": "Mo-Sa 13:00", "name": "USPS COLLECTION BOX - BLUE BOX", "note": "ON 12/24 AND 12/31, THIS BOX MAY BE COLLECTED AS EARLY AS 12 NOON.", "nsi_id": "unitedstatespostalservice-a77078", "operator": "United States Postal Service", "operator:short": "USPS", "operator:type": "public", "operator:wikidata": "Q668687", "ref": "6112500402"}, "type": "Feature"}
{"dataset_attributes": {"@spider": "usps_collection_boxes", "spider:collection_time": "2023-09-16T08:22:24.198600"}, "geometry": {"coordinates": [-89.0276723, 42.228798], "type": "Point"}, "id": "WpijWvy23eJOO6QzkNJOJQOoucI=", "properties": {"@spider": "usps_collection_boxes", "addr:city": "ROCKFORD", "addr:country": "US", "addr:full": "3202 S ALPINE RD", "addr:postcode": "61125", "addr:state": "IL", "amenity": "post_box", "brand": "United States Postal Service", "brand:wikidata": "Q668687", "collection_times": "Mo-Sa 13:00", "name": "USPS COLLECTION BOX - BLUE BOX", "note": "ON 12/24 AND 12/31, THIS BOX MAY BE COLLECTED AS EARLY AS 12 NOON.", "nsi_id": "unitedstatespostalservice-a77078", "operator": "United States Postal Service", "operator:short": "USPS", "operator:type": "public", "operator:wikidata": "Q668687", "ref": "6112500403"}, "type": "Feature"}
{"dataset_attributes": {"@spider": "usps_collection_boxes", "spider:collection_time": "2023-09-16T08:22:24.198600"}, "geometry": {"coordinates": [-89.0125413, 42.236648], "type": "Point"}, "id": "AH2Bs8GYqmsCQiYXE41eDgqUfD8=", "properties": {"@spider": "usps_collection_boxes", "addr:city": "ROCKFORD", "addr:country": "US", "addr:full": "3000 EASTROCK CT", "addr:postcode": "61125", "addr:state": "IL", "amenity": "post_box", "brand": "United States Postal Service", "brand:wikidata": "Q668687", "collection_times": "Mo-Fr 16:00; Sa 13:00", "name": "USPS COLLECTION BOX - BLUE BOX", "note": "ON 12/24 AND 12/31, THIS BOX MAY BE COLLECTED AS EARLY AS 12 NOON.", "nsi_id": "unitedstatespostalservice-a77078", "operator": "United States Postal Service", "operator:short": "USPS", "operator:type": "public", "operator:wikidata": "Q668687", "ref": "6112500404"}, "type": "Feature"}
{"dataset_attributes": {"@spider": "usps_collection_boxes", "spider:collection_time": "2023-09-16T08:22:24.198600"}, "geometry": {"coordinates": [-89.0125434, 42.236642], "type": "Point"}, "id": "z3qrWWsBKRa0N8rWRhwU-eUxpV8=", "properties": {"@spider": "usps_collection_boxes", "addr:city": "ROCKFORD", "addr:country": "US", "addr:full": "3000 EASTROCK CT", "addr:postcode": "61125", "addr:state": "IL", "amenity": "post_box", "brand": "United States Postal Service", "brand:wikidata": "Q668687", "collection_times": "Mo-Fr 16:00; Sa 13:00", "name": "USPS COLLECTION BOX - BLUE BOX", "note": "ON 12/24 AND 12/31, THIS BOX MAY BE COLLECTED AS EARLY AS 12 NOON.", "nsi_id": "unitedstatespostalservice-a77078", "operator": "United States Postal Service", "operator:short": "USPS", "operator:type": "public", "operator:wikidata": "Q668687", "ref": "6112500405"}, "type": "Feature"}
{"dataset_attributes": {"@spider": "usps_collection_boxes", "spider:collection_time": "2023-09-16T08:22:24.198600"}, "geometry": {"coordinates": [-89.0191856, 42.236674], "type": "Point"}, "id": "Fz9hSKB4-7udme7UxOQXoh7Aw0k=", "properties": {"@spider": "usps_collection_boxes", "addr:city": "ROCKFORD", "addr:country": "US", "addr:full": "3000 FOREST VIEW RD", "addr:postcode": "61125", "addr:state": "IL", "amenity": "post_box", "brand": "United States Postal Service", "brand:wikidata": "Q668687", "collection_times": "Mo-Fr 16:30; Sa 13:00", "name": "USPS COLLECTION BOX - BLUE BOX", "note": "ON 12/24 AND 12/31, THIS BOX MAY BE COLLECTED AS EARLY AS 12 NOON.", "nsi_id": "unitedstatespostalservice-a77078", "operator": "United States Postal Service", "operator:short": "USPS", "operator:type": "public", "operator:wikidata": "Q668687", "ref": "6112500406"}, "type": "Feature"}
{"dataset_attributes": {"@spider": "usps_collection_boxes", "spider:collection_time": "2023-09-16T08:22:24.198600"}, "geometry": {"coordinates": [-89.0772044, 42.222189], "type": "Point"}, "id": "9zBoZq3ix_1m4p1aPRmnW9sD9u0=", "properties": {"@spider": "usps_collection_boxes", "addr:city": "ROCKFORD", "addr:country": "US", "addr:full": "1235 SANDY HOLLOW RD", "addr:postcode": "61125", "addr:state": "IL", "amenity": "post_box", "brand": "United States Postal Service", "brand:wikidata": "Q668687", "collection_times": "Mo-Sa 13:00", "name": "USPS COLLECTION BOX - BLUE BOX", "note": "ON 12/24 AND 12/31, THIS BOX MAY BE COLLECTED AS EARLY AS 12 NOON.", "nsi_id": "unitedstatespostalservice-a77078", "operator": "United States Postal Service", "operator:short": "USPS", "operator:type": "public", "operator:wikidata": "Q668687", "ref": "6112500407"}, "type": "Feature"}
{"dataset_attributes": {"@spider": "usps_collection_boxes", "spider:collection_time": "2023-09-16T08:22:24.198600"}, "geometry": {"coordinates": [-89.0718426, 42.227948], "type": "Point"}, "id": "WFWJnHDmOLu7AiPuIgKBDOAP-Oc=", "properties": {"@spider": "usps_collection_boxes", "addr:city": "ROCKFORD", "addr:country": "US", "addr:full": "3100 11TH ST", "addr:postcode": "61125", "addr:state": "IL", "amenity": "post_box", "brand": "United States Postal Service", "brand:wikidata": "Q668687", "collection_times": "Mo-Sa 13:00", "name": "USPS COLLECTION BOX - BLUE BOX", "note": "ON 12/24 AND 12/31, THIS BOX MAY BE COLLECTED AS EARLY AS 12 NOON.", "nsi_id": "unitedstatespostalservice-a77078", "operator": "United States Postal Service", "operator:short": "USPS", "operator:type": "public", "operator:wikidata": "Q668687", "ref": "6112500408"}, "type": "Feature"}
{"dataset_attributes": {"@spider": "usps_collection_boxes", "spider:collection_time": "2023-09-16T08:22:24.198600"}, "geometry": {"coordinates": [-89.1105968, 42.22505], "type": "Point"}, "id": "xspka1KjRSzFpyCMnPCdvDCIuuw=", "properties": {"@spider": "usps_collection_boxes", "addr:city": "ROCKFORD", "addr:country": "US", "addr:full": "550 SOUTHROCK DR", "addr:postcode": "61125", "addr:state": "IL", "amenity": "post_box", "brand": "United States Postal Service", "brand:wikidata": "Q668687", "collection_times": "Mo-Sa 13:00", "name": "USPS COLLECTION BOX - BLUE BOX", "note": "ON 12/24 AND 12/31, THIS BOX MAY BE COLLECTED AS EARLY AS 12 NOON.", "nsi_id": "unitedstatespostalservice-a77078", "operator": "United States Postal Service", "operator:short": "USPS", "operator:type": "public", "operator:wikidata": "Q668687", "ref": "6112500409"}, "type": "Feature"}
{"dataset_attributes": {"@spider": "usps_collection_boxes", "spider:collection_time": "2023-09-16T08:22:24.198600"}, "geometry": {"coordinates": [-89.0972789606, 42.2684340003], "type": "Point"}, "id": "eiXpzz6TxoPC8AdHa_kNhVndo94=", "properties": {"@spider": "usps_collection_boxes", "addr:city": "ROCKFORD", "addr:country": "US", "addr:full": "401 S MAIN ST", "addr:postcode": "61125", "addr:state": "IL", "amenity": "post_box", "brand": "United States Postal Service", "brand:wikidata": "Q668687", "collection_times": "Mo-Fr 17:00", "name": "USPS COLLECTION BOX - PO LOBBY", "note": "ON 12/24 AND 12/31, THIS BOX MAY BE COLLECTED AS EARLY AS 12 NOON.", "nsi_id": "unitedstatespostalservice-a77078", "operator": "United States Postal Service", "operator:short": "USPS", "operator:type": "public", "operator:wikidata": "Q668687", "ref": "6112500414"}, "type": "Feature"}
{"dataset_attributes": {"@spider": "usps_collection_boxes", "spider:collection_time": "2023-09-16T08:22:24.198600"}, "geometry": {"coordinates": [-89.014182592, 42.2382627058], "type": "Point"}, "id": "lNO5pyhVxzMmTMR-Z5oAUz62b6Y=", "properties": {"@spider": "usps_collection_boxes", "addr:city": "ROCKFORD", "addr:country": "US", "addr:full": "5225 HARRISON AVE", "addr:postcode": "61126", "addr:state": "IL", "amenity": "post_box", "brand": "United States Postal Service", "brand:wikidata": "Q668687", "collection_times": "Mo-Sa 18:00", "name": "USPS COLLECTION BOX - BLUE BOX", "note": "ON 12/24 AND 12/31, THIS BOX MAY BE COLLECTED AS EARLY AS 12 NOON.", "nsi_id": "unitedstatespostalservice-a77078", "operator": "United States Postal Service", "operator:short": "USPS", "operator:type": "public", "operator:wikidata": "Q668687", "ref": "6112600002"}, "type": "Feature"}
{"dataset_attributes": {"@spider": "usps_collection_boxes", "spider:collection_time": "2023-09-16T08:22:24.198600"}, "geometry": {"coordinates": [-89.014182592, 42.2382627058], "type": "Point"}, "id": "mxN0N0Hirid-7SK0G_9KSkbMHis=", "properties": {"@spider": "usps_collection_boxes", "addr:city": "ROCKFORD", "addr:country": "US", "addr:full": "5225 HARRISON AVE", "addr:postcode": "61126", "addr:state": "IL", "amenity": "post_box", "brand": "United States Postal Service", "brand:wikidata": "Q668687", "collection_times": "Mo-Sa 18:00", "name": "USPS COLLECTION BOX - BLUE BOX", "note": "ON 12/24 AND 12/31, THIS BOX MAY BE COLLECTED AS EARLY AS 12 NOON.", "nsi_id": "unitedstatespostalservice-a77078", "operator": "United States Postal Service", "operator:short": "USPS", "operator:type": "public", "operator:wikidata": "Q668687", "ref": "6112600003"}, "type": "Feature"}
{"dataset_attributes": {"@spider": "usps_collection_boxes", "spider:collection_time": "2023-09-16T08:22:24.198600"}, "geometry": {"coordinates": [-89.0141825082, 42.2382627477], "type": "Point"}, "id": "TfOhWlth0j18_T9yz_VA4x2SPbE=", "properties": {"@spider": "usps_collection_boxes", "addr:city": "ROCKFORD", "addr:country": "US", "addr:full": "5225 HARRISON AVE", "addr:postcode": "61126", "addr:state": "IL", "amenity": "post_box", "brand": "United States Postal Service", "brand:wikidata": "Q668687", "collection_times": "Mo-Sa 18:00", "name": "USPS COLLECTION BOX - APC", "note": "ON 12/24 AND 12/31, THIS BOX MAY BE COLLECTED AS EARLY AS 12 NOON.", "nsi_id": "unitedstatespostalservice-a77078", "operator": "United States Postal Service", "operator:short": "USPS", "operator:type": "public", "operator:wikidata": "Q668687", "ref": "6112600006"}, "type": "Feature"}
