{"geometry": {"coordinates": [-90.582904863, 41.484572214], "type": "Point"}, "id": "t_UZIktI9fL8plPYbSzHNNs9fTU=", "properties": {"@source_uri": "https://tools.usps.com/UspsToolsRestServices/rest/POLocator/findLocations", "@spider": "usps_collection_boxes", "addr:city": "ROCK ISLAND", "addr:country": "US", "addr:postcode": "61201", "addr:state": "IL", "addr:street_address": "2633 11TH ST", "amenity": "post_box", "collection_times": "Mo-Fr 17:15; Sa 16:00", "note": "ON 12/24 AND 12/31, THIS BOX MAY BE COLLECTED AS EARLY AS 12 NOON.", "nsi_id": "unitedstatespostalservice-a77078", "operator": "United States Postal Service", "operator:short": "USPS", "operator:type": "public", "operator:wikidata": "Q668687", "ref": "6120100006"}, "type": "Feature"}
{"geometry": {"coordinates": [-90.619783493, 41.439891765], "type": "Point"}, "id": "DdHDbUfNvvjYkoo5VJasR20DiiY=", "properties": {"@source_uri": "https://tools.usps.com/UspsToolsRestServices/rest/POLocator/findLocations", "@spider": "usps_collection_boxes", "addr:city": "ROCK ISLAND", "addr:country": "US", "addr:postcode": "61201", "addr:state": "IL", "addr:street_address": "3700 78TH AVE W", "amenity": "post_box", "collection_times": "Mo-Sa 17:15", "note": "ON 12/24 AND 12/31, THIS BOX MAY BE COLLECTED AS EARLY AS 12 NOON.", "nsi_id": "unitedstatespostalservice-a77078", "operator": "United States Postal Service", "operator:short": "USPS", "operator:type": "public", "operator:wikidata": "Q668687", "ref": "6120100011"}, "type": "Feature"}
{"geometry": {"coordinates": [-90.572777309, 41.483399936], "type": "Point"}, "id": "nzxL8hJJH2K9Lhp-vcs7vz6-UEo=", "properties": {"@source_uri": "https://tools.usps.com/UspsToolsRestServices/rest/POLocator/findLocations", "@spider": "usps_collection_boxes", "addr:city": "ROCK ISLAND", "addr:country": "US", "addr:postcode": "61201", "addr:state": "IL", "addr:street_address": "2701 17TH ST", "amenity": "post_box", "collection_times": "Mo-Fr 14:00", "note": "ON 12/24 AND 12/31, THIS BOX MAY BE COLLECTED AS EARLY AS 12 NOON.", "nsi_id": "unitedstatespostalservice-a77078", "operator": "United States Postal Service", "operator:short": "USPS", "operator:type": "public", "operator:wikidata": "Q668687", "ref": "6120100019"}, "type": "Feature"}
{"geometry": {"coordinates": [-90.583090445, 41.47911001], "type": "Point"}, "id": "nGlQ65LNIAdnueLqArqU5F7spQI=", "properties": {"@source_uri": "https://tools.usps.com/UspsToolsRestServices/rest/POLocator/findLocations", "@spider": "usps_collection_boxes", "addr:city": "ROCK ISLAND", "addr:country": "US", "addr:postcode": "61201", "addr:state": "IL", "addr:street_address": "3100 11TH ST", "amenity": "post_box", "collection_times": "Mo-Sa 14:00", "note": "ON 12/24 AND 12/31, THIS BOX MAY BE COLLECTED AS EARLY AS 12 NOON.", "nsi_id": "unitedstatespostalservice-a77078", "operator": "United States Postal Service", "operator:short": "USPS", "operator:type": "public", "operator:wikidata": "Q668687", "ref": "6120100024"}, "type": "Feature"}
{"geometry": {"coordinates": [-90.548331886, 41.493184557], "type": "Point"}, "id": "jrp1kWJuQ0k8bFHbiRldr7hidpA=", "properties": {"@source_uri": "https://tools.usps.com/UspsToolsRestServices/rest/POLocator/findLocations", "@spider": "usps_collection_boxes", "addr:city": "ROCK ISLAND", "addr:country": "US", "addr:postcode": "61201", "addr:state": "IL", "addr:street_address": "3730 18TH AVE", "amenity": "post_box", "collection_times": "Mo-Fr 16:30; Sa 14:45", "note": "ON 12/24 AND 12/31, THIS BOX MAY BE COLLECTED AS EARLY AS 12 NOON.", "nsi_id": "unitedstatespostalservice-a77078", "operator": "United States Postal Service", "operator:short": "USPS", "operator:type": "public", "operator:wikidata": "Q668687", "ref": "6120100041"}, "type": "Feature"}
{"geometry": {"coordinates": [-90.56385, 41.51429], "type": "Point"}, "id": "Knp_tljRhILOHHH-lAImpCjLHEE=", "properties": {"@source_uri": "https://tools.usps.com/UspsToolsRestServices/rest/POLocator/findLocations", "@spider": "usps_collection_boxes", "addr:city": "ROCK ISLAND", "addr:country": "US", "addr:postcode": "61201", "addr:state": "IL", "addr:street_address": "1 ROCK ISLAND ARSENAL", "amenity": "post_box", "collection_times": "Mo-Sa 11:00", "nsi_id": "unitedstatespostalservice-a77078", "operator": "United States Postal Service", "operator:short": "USPS", "operator:type": "public", "operator:wikidata": "Q668687", "ref": "6120100050"}, "type": "Feature"}
{"geometry": {"coordinates": [-90.585955, 41.497435], "type": "Point"}, "id": "prKwMzpApKFvyPiHrnXpVF4JwkY=", "properties": {"@source_uri": "https://tools.usps.com/UspsToolsRestServices/rest/POLocator/findLocations", "@spider": "usps_collection_boxes", "addr:city": "ROCK ISLAND", "addr:country": "US", "addr:postcode": "61201", "addr:state": "IL", "addr:street_address": "1956 2ND AVE", "amenity": "post_box", "collection_times": "Mo-Fr 17:15; Sa 15:00", "note": "ON 12/24 AND 12/31, THIS BOX MAY BE COLLECTED AS EARLY AS 12 NOON.", "nsi_id": "unitedstatespostalservice-a77078", "operator": "United States Postal Service", "operator:short": "USPS", "operator:type": "public", "operator:wikidata": "Q668687", "ref": "6120100053"}, "type": "Feature"}
{"geometry": {"coordinates": [-90.585955, 41.497435], "type": "Point"}, "id": "Gqdxwb7y1kOIwgQ8q9foNvwu290=", "properties": {"@source_uri": "https://tools.usps.com/UspsToolsRestServices/rest/POLocator/findLocations", "@spider": "usps_collection_boxes", "addr:city": "ROCK ISLAND", "addr:country": "US", "addr:postcode": "61201", "addr:state": "IL", "addr:street_address": "1956 2ND AVE", "amenity": "post_box", "collection_times": "Mo-Fr 16:00", "indoor": "yes", "note": "ON 12/24 AND 12/31, THIS BOX MAY BE COLLECTED AS EARLY AS 12 NOON.", "nsi_id": "unitedstatespostalservice-a77078", "operator": "United States Postal Service", "operator:short": "USPS", "operator:type": "public", "operator:wikidata": "Q668687", "ref": "6120100059"}, "type": "Feature"}
{"geometry": {"coordinates": [-90.546992926, 41.466977128], "type": "Point"}, "id": "U0HeFSJMDwU9Notf68I2tIhlTzw=", "properties": {"@source_uri": "https://tools.usps.com/UspsToolsRestServices/rest/POLocator/findLocations", "@spider": "usps_collection_boxes", "addr:city": "ROCK ISLAND", "addr:country": "US", "addr:postcode": "61201", "addr:state": "IL", "addr:street_address": "3840 46TH AVE", "amenity": "post_box", "collection_times": "Mo-Fr 16:45; Sa 09:30", "note": "ON 12/24 AND 12/31, THIS BOX MAY BE COLLECTED AS EARLY AS 12 NOON.", "nsi_id": "unitedstatespostalservice-a77078", "operator": "United States Postal Service", "operator:short": "USPS", "operator:type": "public", "operator:wikidata": "Q668687", "ref": "6120100062"}, "type": "Feature"}
{"geometry": {"coordinates": [-90.582904863, 41.484572214], "type": "Point"}, "id": "WBRdHpHksLRHdO0CvgyRXn-qUDE=", "properties": {"@source_uri": "https://tools.usps.com/UspsToolsRestServices/rest/POLocator/findLocations", "@spider": "usps_collection_boxes", "addr:city": "ROCK ISLAND", "addr:country": "US", "addr:postcode": "61201", "addr:state": "IL", "addr:street_address": "2633 11TH ST", "amenity": "post_box", "collection_times": "Mo-Fr 17:15; Sa 16:00", "indoor": "yes", "note": "ON 12/24 AND 12/31, THIS BOX MAY BE COLLECTED AS EARLY AS 12 NOON.", "nsi_id": "unitedstatespostalservice-a77078", "operator": "United States Postal Service", "operator:short": "USPS", "operator:type": "public", "operator:wikidata": "Q668687", "ref": "6120100068"}, "type": "Feature"}
{"geometry": {"coordinates": [-90.567128519, 41.483457617], "type": "Point"}, "id": "BUXBI_h3M49RkfTecZksBDERH60=", "properties": {"@source_uri": "https://tools.usps.com/UspsToolsRestServices/rest/POLocator/findLocations", "@spider": "usps_collection_boxes", "addr:city": "ROCK ISLAND", "addr:country": "US", "addr:postcode": "61201", "addr:state": "IL", "addr:street_address": "2560 24TH ST", "amenity": "post_box", "collection_times": "Mo-Fr 14:00", "note": "ON 12/24 AND 12/31, THIS BOX MAY BE COLLECTED AS EARLY AS 12 NOON.", "nsi_id": "unitedstatespostalservice-a77078", "operator": "United States Postal Service", "operator:short": "USPS", "operator:type": "public", "operator:wikidata": "Q668687", "ref": "6120100069"}, "type": "Feature"}
{"geometry": {"coordinates": [-90.567020635, 41.488002587], "type": "Point"}, "id": "lVSOe02zgAxoxVmsv1bP3bADWKo=", "properties": {"@source_uri": "https://tools.usps.com/UspsToolsRestServices/rest/POLocator/findLocations", "@spider": "usps_collection_boxes", "addr:city": "ROCK ISLAND", "addr:country": "US", "addr:postcode": "61201", "addr:state": "IL", "addr:street_address": "2252 24TH ST", "amenity": "post_box", "collection_times": "Mo-Fr 16:15; Sa 14:45", "note": "ON 12/24 AND 12/31, THIS BOX MAY BE COLLECTED AS EARLY AS 12 NOON.", "nsi_id": "unitedstatespostalservice-a77078", "operator": "United States Postal Service", "operator:short": "USPS", "operator:type": "public", "operator:wikidata": "Q668687", "ref": "6120100070"}, "type": "Feature"}
{"geometry": {"coordinates": [-90.547579927, 41.504651249], "type": "Point"}, "id": "mcGwmV9ZSgPmYeNwMDkLlirzPLM=", "properties": {"@source_uri": "https://tools.usps.com/UspsToolsRestServices/rest/POLocator/findLocations", "@spider": "usps_collection_boxes", "addr:city": "ROCK ISLAND", "addr:country": "US", "addr:postcode": "61201", "addr:state": "IL", "addr:street_address": "3800 7TH AVE", "amenity": "post_box", "collection_times": "Mo-Fr 17:00; Sa 14:45", "note": "ON 12/24 AND 12/31, THIS BOX MAY BE COLLECTED AS EARLY AS 12 NOON.", "nsi_id": "unitedstatespostalservice-a77078", "operator": "United States Postal Service", "operator:short": "USPS", "operator:type": "public", "operator:wikidata": "Q668687", "ref": "6120100071"}, "type": "Feature"}
{"geometry": {"coordinates": [-90.557123636, 41.496792296], "type": "Point"}, "id": "Rwqn57gVUlIBxMOXX-Nh2NJPO_E=", "properties": {"@source_uri": "https://tools.usps.com/UspsToolsRestServices/rest/POLocator/findLocations", "@spider": "usps_collection_boxes", "addr:city": "ROCK ISLAND", "addr:country": "US", "addr:postcode": "61201", "addr:state": "IL", "addr:street_address": "1435 30TH ST", "amenity": "post_box", "collection_times": "Mo-Sa 14:30", "note": "ON 12/24 AND 12/31, THIS BOX MAY BE COLLECTED AS EARLY AS 12 NOON.", "nsi_id": "unitedstatespostalservice-a77078", "operator": "United States Postal Service", "operator:short": "USPS", "operator:type": "public", "operator:wikidata": "Q668687", "ref": "6120100073"}, "type": "Feature"}
{"geometry": {"coordinates": [-90.585955, 41.497435], "type": "Point"}, "id": "1bjSMu2cPb0b9RqOtB_lrHHxEMo=", "properties": {"@source_uri": "https://tools.usps.com/UspsToolsRestServices/rest/POLocator/findLocations", "@spider": "usps_collection_boxes", "addr:city": "ROCK ISLAND", "addr:country": "US", "addr:postcode": "61201", "addr:state": "IL", "addr:street_address": "1600 4TH AVE", "amenity": "post_box", "collection_times": "Mo-Fr 17:15; Sa 15:00", "note": "ON 12/24 AND 12/31, THIS BOX MAY BE COLLECTED AS EARLY AS 12 NOON.", "nsi_id": "unitedstatespostalservice-a77078", "operator": "United States Postal Service", "operator:short": "USPS", "operator:type": "public", "operator:wikidata": "Q668687", "ref": "6120100076"}, "type": "Feature"}
{"geometry": {"coordinates": [-90.585955, 41.497435], "type": "Point"}, "id": "JIGqbPSk0QhG5-4vjB_UTO-BYKU=", "properties": {"@source_uri": "https://tools.usps.com/UspsToolsRestServices/rest/POLocator/findLocations", "@spider": "usps_collection_boxes", "addr:city": "ROCK ISLAND", "addr:country": "US", "addr:postcode": "61201", "addr:state": "IL", "addr:street_address": "1820 5TH AVE", "amenity": "post_box", "collection_times": "Mo-Fr 17:15; Sa 15:00", "note": "ON 12/24 AND 12/31, THIS BOX MAY BE COLLECTED AS EARLY AS 12 NOON.", "nsi_id": "unitedstatespostalservice-a77078", "operator": "United States Postal Service", "operator:short": "USPS", "operator:type": "public", "operator:wikidata": "Q668687", "ref": "6120100077"}, "type": "Feature"}
{"geometry": {"coordinates": [-90.585955, 41.497435], "type": "Point"}, "id": "2oH0LFNWd70N1kVbpsh4lD9YRYk=", "properties": {"@source_uri": "https://tools.usps.com/UspsToolsRestServices/rest/POLocator/findLocations", "@spider": "usps_collection_boxes", "addr:city": "ROCK ISLAND", "addr:country": "US", "addr:postcode": "61201", "addr:state": "IL", "addr:street_address": "2939 31ST AVE", "amenity": "post_box", "collection_times": "Mo-Fr 16:15; Sa 14:45", "note": "ON 12/24 AND 12/31, THIS BOX MAY BE COLLECTED AS EARLY AS 12 NOON.", "nsi_id": "unitedstatespostalservice-a77078", "operator": "United States Postal Service", "operator:short": "USPS", "operator:type": "public", "operator:wikidata": "Q668687", "ref": "6120100078"}, "type": "Feature"}
{"geometry": {"coordinates": [-90.585955, 41.497435], "type": "Point"}, "id": "exFzyUMusmB9MGTqTX1l7ZXjdXw=", "properties": {"@source_uri": "https://tools.usps.com/UspsToolsRestServices/rest/POLocator/findLocations", "@spider": "usps_collection_boxes", "addr:city": "ROCK ISLAND", "addr:country": "US", "addr:postcode": "61201", "addr:state": "IL", "addr:street_address": "500 42ND ST", "amenity": "post_box", "collection_times": "Mo-Fr 14:45", "note": "ON 12/24 AND 12/31, THIS BOX MAY BE COLLECTED AS EARLY AS 12 NOON.", "nsi_id": "unitedstatespostalservice-a77078", "operator": "United States Postal Service", "operator:short": "USPS", "operator:type": "public", "operator:wikidata": "Q668687", "ref": "6120100079"}, "type": "Feature"}
{"geometry": {"coordinates": [-90.5725305, 41.51099647], "type": "Point"}, "id": "ubzfKb-pprEhUaM4KUv7BMsXQwk=", "properties": {"@source_uri": "https://tools.usps.com/UspsToolsRestServices/rest/POLocator/findLocations", "@spider": "usps_collection_boxes", "addr:city": "ROCK ISLAND", "addr:country": "US", "addr:postcode": "61201", "addr:state": "IL", "addr:street_address": "1956 2ND AVE", "amenity": "post_box", "collection_times": "Mo-Fr 16:00", "indoor": "yes", "note": "ON 12/24 AND 12/31, THIS BOX MAY BE COLLECTED AS EARLY AS 12 NOON.", "nsi_id": "unitedstatespostalservice-a77078", "operator": "United States Postal Service", "operator:short": "USPS", "operator:type": "public", "operator:wikidata": "Q668687", "ref": "6120100081"}, "type": "Feature"}
{"geometry": {"coordinates": [-90.582904863, 41.484572214], "type": "Point"}, "id": "ZK3r_UV2pSW0f0HVv338K5iVKz0=", "properties": {"@source_uri": "https://tools.usps.com/UspsToolsRestServices/rest/POLocator/findLocations", "@spider": "usps_collection_boxes", "addr:city": "ROCK ISLAND", "addr:country": "US", "addr:postcode": "61201", "addr:state": "IL", "addr:street_address": "2633 11TH ST", "amenity": "post_box", "collection_times": "Mo-Fr 17:00; Sa 12:00", "indoor": "yes", "note": "ON 12/24 AND 12/31, THIS BOX MAY BE COLLECTED AS EARLY AS 12 NOON.", "nsi_id": "unitedstatespostalservice-a77078", "operator": "United States Postal Service", "operator:short": "USPS", "operator:type": "public", "operator:wikidata": "Q668687", "ref": "6120100082"}, "type": "Feature"}
{"geometry": {"coordinates": [-90.222492713, 41.788025068], "type": "Point"}, "id": "7YZt84E_-pOS1Ib3wn0pJLnG6I8=", "properties": {"@source_uri": "https://tools.usps.com/UspsToolsRestServices/rest/POLocator/findLocations", "@spider": "usps_collection_boxes", "addr:city": "ALBANY", "addr:country": "US", "addr:postcode": "61230", "addr:state": "IL", "addr:street_address": "204 3RD AVE S", "amenity": "post_box", "collection_times": "Mo-Fr 12:45; Sa 11:45", "note": "ON 12/24 AND 12/31, THIS BOX MAY BE COLLECTED AS EARLY AS 12 NOON.", "nsi_id": "unitedstatespostalservice-a77078", "operator": "United States Postal Service", "operator:short": "USPS", "operator:type": "public", "operator:wikidata": "Q668687", "ref": "6123000000"}, "type": "Feature"}
{"geometry": {"coordinates": [-90.222492713, 41.788025068], "type": "Point"}, "id": "46yv4DXLXy2lIm7uLCq_69vvlRY=", "properties": {"@source_uri": "https://tools.usps.com/UspsToolsRestServices/rest/POLocator/findLocations", "@spider": "usps_collection_boxes", "addr:city": "ALBANY", "addr:country": "US", "addr:postcode": "61230", "addr:state": "IL", "addr:street_address": "204 3RD AVE S", "amenity": "post_box", "collection_times": "Mo-Fr 12:45; Sa 11:45", "indoor": "yes", "note": "ON 12/24 AND 12/31, THIS BOX MAY BE COLLECTED AS EARLY AS 12 NOON.", "nsi_id": "unitedstatespostalservice-a77078", "operator": "United States Postal Service", "operator:short": "USPS", "operator:type": "public", "operator:wikidata": "Q668687", "ref": "6123000001"}, "type": "Feature"}
{"geometry": {"coordinates": [-90.222492713, 41.788025068], "type": "Point"}, "id": "ur-_-M3jzWbMMiVbHRPIZgTkPGo=", "properties": {"@source_uri": "https://tools.usps.com/UspsToolsRestServices/rest/POLocator/findLocations", "@spider": "usps_collection_boxes", "addr:city": "ALBANY", "addr:country": "US", "addr:postcode": "61230", "addr:state": "IL", "addr:street_address": "204 3RD AVE S", "amenity": "post_box", "collection_times": "Mo-Fr 13:00; Sa 12:00", "indoor": "yes", "note": "ON 12/24 AND 12/31, THIS BOX MAY BE COLLECTED AS EARLY AS 12 NOON.", "nsi_id": "unitedstatespostalservice-a77078", "operator": "United States Postal Service", "operator:short": "USPS", "operator:type": "public", "operator:wikidata": "Q668687", "ref": "6123000002"}, "type": "Feature"}
{"geometry": {"coordinates": [-90.748654722, 41.199875532], "type": "Point"}, "id": "XHilSwEXPexQzlEcjVg3j-3WMmo=", "properties": {"@source_uri": "https://tools.usps.com/UspsToolsRestServices/rest/POLocator/findLocations", "@spider": "usps_collection_boxes", "addr:city": "ALEDO", "addr:country": "US", "addr:postcode": "61231", "addr:state": "IL", "addr:street_address": "100 SE 3RD ST", "amenity": "post_box", "collection_times": "Mo-Sa 15:00", "note": "ON 12/24 AND 12/31, THIS BOX MAY BE COLLECTED AS EARLY AS 12 NOON.", "nsi_id": "unitedstatespostalservice-a77078", "operator": "United States Postal Service", "operator:short": "USPS", "operator:type": "public", "operator:wikidata": "Q668687", "ref": "6123100001"}, "type": "Feature"}
{"geometry": {"coordinates": [-90.749319886, 41.202313879], "type": "Point"}, "id": "n3lGHg0e9mAF0fpiv9uiNEChqoM=", "properties": {"@source_uri": "https://tools.usps.com/UspsToolsRestServices/rest/POLocator/findLocations", "@spider": "usps_collection_boxes", "addr:city": "ALEDO", "addr:country": "US", "addr:postcode": "61231", "addr:state": "IL", "addr:street_address": "117 N COLLEGE AVE", "amenity": "post_box", "collection_times": "Mo-Sa 16:45", "note": "ON 12/24 AND 12/31, THIS BOX MAY BE COLLECTED AS EARLY AS 12 NOON.", "nsi_id": "unitedstatespostalservice-a77078", "operator": "United States Postal Service", "operator:short": "USPS", "operator:type": "public", "operator:wikidata": "Q668687", "ref": "6123100003"}, "type": "Feature"}
{"geometry": {"coordinates": [-90.749319886, 41.202313879], "type": "Point"}, "id": "4QWeKmsIdxk5x9iC51NlYmGziuw=", "properties": {"@source_uri": "https://tools.usps.com/UspsToolsRestServices/rest/POLocator/findLocations", "@spider": "usps_collection_boxes", "addr:city": "ALEDO", "addr:country": "US", "addr:postcode": "61231", "addr:state": "IL", "addr:street_address": "117 N COLLEGE AVE", "amenity": "post_box", "collection_times": "Mo-Sa 16:45", "indoor": "yes", "note": "ON 12/24 AND 12/31, THIS BOX MAY BE COLLECTED AS EARLY AS 12 NOON.", "nsi_id": "unitedstatespostalservice-a77078", "operator": "United States Postal Service", "operator:short": "USPS", "operator:type": "public", "operator:wikidata": "Q668687", "ref": "6123100005"}, "type": "Feature"}
{"geometry": {"coordinates": [-90.749319886, 41.202313879], "type": "Point"}, "id": "vao3O03JB67sHhC30_I_NtdrgKA=", "properties": {"@source_uri": "https://tools.usps.com/UspsToolsRestServices/rest/POLocator/findLocations", "@spider": "usps_collection_boxes", "addr:city": "ALEDO", "addr:country": "US", "addr:postcode": "61231", "addr:state": "IL", "addr:street_address": "117 N COLLEGE AVE", "amenity": "post_box", "collection_times": "Mo-Fr 16:30; Sa 12:00", "indoor": "yes", "note": "ON 12/24 AND 12/31, THIS BOX MAY BE COLLECTED AS EARLY AS 12 NOON.", "nsi_id": "unitedstatespostalservice-a77078", "operator": "United States Postal Service", "operator:short": "USPS", "operator:type": "public", "operator:wikidata": "Q668687", "ref": "6123100006"}, "type": "Feature"}
{"geometry": {"coordinates": [-90.719615714, 41.443205733], "type": "Point"}, "id": "hNT0fu2f2yfyG-c5fU89gJkzK-M=", "properties": {"@source_uri": "https://tools.usps.com/UspsToolsRestServices/rest/POLocator/findLocations", "@spider": "usps_collection_boxes", "addr:city": "ANDALUSIA", "addr:country": "US", "addr:postcode": "61232", "addr:state": "IL", "addr:street_address": "124 2ND AVE E", "amenity": "post_box", "collection_times": "Mo-Sa 16:00", "note": "ON 12/24 AND 12/31, THIS BOX MAY BE COLLECTED AS EARLY AS 12 NOON.", "nsi_id": "unitedstatespostalservice-a77078", "operator": "United States Postal Service", "operator:short": "USPS", "operator:type": "public", "operator:wikidata": "Q668687", "ref": "6123200000"}, "type": "Feature"}
{"geometry": {"coordinates": [-90.719615714, 41.443205733], "type": "Point"}, "id": "qqPLiOVTuLY0ppwtURlYZSJYMZg=", "properties": {"@source_uri": "https://tools.usps.com/UspsToolsRestServices/rest/POLocator/findLocations", "@spider": "usps_collection_boxes", "addr:city": "ANDALUSIA", "addr:country": "US", "addr:postcode": "61232", "addr:state": "IL", "addr:street_address": "124 2ND AVE E", "amenity": "post_box", "collection_times": "Mo-Fr 13:45; Sa 08:45", "indoor": "yes", "note": "ON 12/24 AND 12/31, THIS BOX MAY BE COLLECTED AS EARLY AS 12 NOON.", "nsi_id": "unitedstatespostalservice-a77078", "operator": "United States Postal Service", "operator:short": "USPS", "operator:type": "public", "operator:wikidata": "Q668687", "ref": "6123200001"}, "type": "Feature"}
{"geometry": {"coordinates": [-90.719615714, 41.443205733], "type": "Point"}, "id": "_J4muuliwLDndLjzHkZsa9POC4w=", "properties": {"@source_uri": "https://tools.usps.com/UspsToolsRestServices/rest/POLocator/findLocations", "@spider": "usps_collection_boxes", "addr:city": "ANDALUSIA", "addr:country": "US", "addr:postcode": "61232", "addr:state": "IL", "addr:street_address": "124 2ND AVE E", "amenity": "post_box", "collection_times": "Mo-Fr 14:00; Sa 09:00", "indoor": "yes", "note": "ON 12/24 AND 12/31, THIS BOX MAY BE COLLECTED AS EARLY AS 12 NOON.", "nsi_id": "unitedstatespostalservice-a77078", "operator": "United States Postal Service", "operator:short": "USPS", "operator:type": "public", "operator:wikidata": "Q668687", "ref": "6123200002"}, "type": "Feature"}
{"geometry": {"coordinates": [-90.293070526, 41.293870536], "type": "Point"}, "id": "0s8teFX5J4hJTCcwSON1vrWmfh8=", "properties": {"@source_uri": "https://tools.usps.com/UspsToolsRestServices/rest/POLocator/findLocations", "@spider": "usps_collection_boxes", "addr:city": "ANDOVER", "addr:country": "US", "addr:postcode": "61233", "addr:state": "IL", "addr:street_address": "513 5TH ST", "amenity": "post_box", "collection_times": "Mo-Sa 16:00", "note": "ON 12/24 AND 12/31, THIS BOX MAY BE COLLECTED AS EARLY AS 12 NOON.", "nsi_id": "unitedstatespostalservice-a77078", "operator": "United States Postal Service", "operator:short": "USPS", "operator:type": "public", "operator:wikidata": "Q668687", "ref": "6123300000"}, "type": "Feature"}
{"geometry": {"coordinates": [-90.293070526, 41.293870536], "type": "Point"}, "id": "yJBy470cdXUH980uGrY8Kq_Y9UM=", "properties": {"@source_uri": "https://tools.usps.com/UspsToolsRestServices/rest/POLocator/findLocations", "@spider": "usps_collection_boxes", "addr:city": "ANDOVER", "addr:country": "US", "addr:postcode": "61233", "addr:state": "IL", "addr:street_address": "513 5TH ST", "amenity": "post_box", "collection_times": "Mo-Fr 13:45; Sa 11:15", "indoor": "yes", "note": "ON 12/24 AND 12/31, THIS BOX MAY BE COLLECTED AS EARLY AS 12 NOON.", "nsi_id": "unitedstatespostalservice-a77078", "operator": "United States Postal Service", "operator:short": "USPS", "operator:type": "public", "operator:wikidata": "Q668687", "ref": "6123300001"}, "type": "Feature"}
{"geometry": {"coordinates": [-90.293070526, 41.293870536], "type": "Point"}, "id": "3T6vRjtIrC6oFeM7-ocY8ujTEvM=", "properties": {"@source_uri": "https://tools.usps.com/UspsToolsRestServices/rest/POLocator/findLocations", "@spider": "usps_collection_boxes", "addr:city": "ANDOVER", "addr:country": "US", "addr:postcode": "61233", "addr:state": "IL", "addr:street_address": "513 5TH ST", "amenity": "post_box", "collection_times": "Mo-Fr 14:00; Sa 11:15", "indoor": "yes", "note": "ON 12/24 AND 12/31, THIS BOX MAY BE COLLECTED AS EARLY AS 12 NOON.", "nsi_id": "unitedstatespostalservice-a77078", "operator": "United States Postal Service", "operator:short": "USPS", "operator:type": "public", "operator:wikidata": "Q668687", "ref": "6123300002"}, "type": "Feature"}
{"geometry": {"coordinates": [-89.90779067, 41.396912665], "type": "Point"}, "id": "CImGOkMLLh9507k0z2lzBjtB-sQ=", "properties": {"@source_uri": "https://tools.usps.com/UspsToolsRestServices/rest/POLocator/findLocations", "@spider": "usps_collection_boxes", "addr:city": "ANNAWAN", "addr:country": "US", "addr:postcode": "61234", "addr:state": "IL", "addr:street_address": "106 S MAIN ST", "amenity": "post_box", "collection_times": "Mo-Sa 16:15", "note": "ON 12/24 AND 12/31, THIS BOX MAY BE COLLECTED AS EARLY AS 12 NOON.", "nsi_id": "unitedstatespostalservice-a77078", "operator": "United States Postal Service", "operator:short": "USPS", "operator:type": "public", "operator:wikidata": "Q668687", "ref": "6123400000"}, "type": "Feature"}
{"geometry": {"coordinates": [-89.90779067, 41.396912665], "type": "Point"}, "id": "JkbERf5STzwVAylAJAU2NU5K2WI=", "properties": {"@source_uri": "https://tools.usps.com/UspsToolsRestServices/rest/POLocator/findLocations", "@spider": "usps_collection_boxes", "addr:city": "ANNAWAN", "addr:country": "US", "addr:postcode": "61234", "addr:state": "IL", "addr:street_address": "106 S MAIN ST", "amenity": "post_box", "collection_times": "Mo-Fr 13:45", "indoor": "yes", "note": "ON 12/24 AND 12/31, THIS BOX MAY BE COLLECTED AS EARLY AS 12 NOON.", "nsi_id": "unitedstatespostalservice-a77078", "operator": "United States Postal Service", "operator:short": "USPS", "operator:type": "public", "operator:wikidata": "Q668687", "ref": "6123400001"}, "type": "Feature"}
{"geometry": {"coordinates": [-89.90779067, 41.396912665], "type": "Point"}, "id": "p8Cchr1HjbZ7YmYBzg2C7pYkqVc=", "properties": {"@source_uri": "https://tools.usps.com/UspsToolsRestServices/rest/POLocator/findLocations", "@spider": "usps_collection_boxes", "addr:city": "ANNAWAN", "addr:country": "US", "addr:postcode": "61234", "addr:state": "IL", "addr:street_address": "106 S MAIN ST", "amenity": "post_box", "collection_times": "Mo-Fr 14:00; Sa 09:00", "indoor": "yes", "note": "ON 12/24 AND 12/31, THIS BOX MAY BE COLLECTED AS EARLY AS 12 NOON.", "nsi_id": "unitedstatespostalservice-a77078", "operator": "United States Postal Service", "operator:short": "USPS", "operator:type": "public", "operator:wikidata": "Q668687", "ref": "6123400002"}, "type": "Feature"}
{"geometry": {"coordinates": [-90.0147400377, 41.4205200045], "type": "Point"}, "id": "8QVNaEHy8ghUcTbJySabIA6HI3k=", "properties": {"@source_uri": "https://tools.usps.com/UspsToolsRestServices/rest/POLocator/findLocations", "@spider": "usps_collection_boxes", "addr:city": "ATKINSON", "addr:country": "US", "addr:postcode": "61235", "addr:state": "IL", "addr:street_address": "103 E MAIN ST", "amenity": "post_box", "collection_times": "Mo-Sa 16:00", "note": "ON 12/24 AND 12/31, THIS BOX MAY BE COLLECTED AS EARLY AS 12 NOON.", "nsi_id": "unitedstatespostalservice-a77078", "operator": "United States Postal Service", "operator:short": "USPS", "operator:type": "public", "operator:wikidata": "Q668687", "ref": "6123500000"}, "type": "Feature"}
{"geometry": {"coordinates": [-90.014618451, 41.420802889], "type": "Point"}, "id": "gY2X-YOZYzCCB87wrwC7cJfL4Us=", "properties": {"@source_uri": "https://tools.usps.com/UspsToolsRestServices/rest/POLocator/findLocations", "@spider": "usps_collection_boxes", "addr:city": "ATKINSON", "addr:country": "US", "addr:postcode": "61235", "addr:state": "IL", "addr:street_address": "103 E MAIN ST", "amenity": "post_box", "collection_times": "Mo-Fr 13:45", "indoor": "yes", "note": "ON 12/24 AND 12/31, THIS BOX MAY BE COLLECTED AS EARLY AS 12 NOON.", "nsi_id": "unitedstatespostalservice-a77078", "operator": "United States Postal Service", "operator:short": "USPS", "operator:type": "public", "operator:wikidata": "Q668687", "ref": "6123500001"}, "type": "Feature"}
{"geometry": {"coordinates": [-90.014618451, 41.420802889], "type": "Point"}, "id": "XaTfGFnD_7x-wx4IeGo5CcqDgw8=", "properties": {"@source_uri": "https://tools.usps.com/UspsToolsRestServices/rest/POLocator/findLocations", "@spider": "usps_collection_boxes", "addr:city": "ATKINSON", "addr:country": "US", "addr:postcode": "61235", "addr:state": "IL", "addr:street_address": "103 E MAIN ST", "amenity": "post_box", "collection_times": "Mo-Fr 14:00; Sa 09:00", "indoor": "yes", "note": "ON 12/24 AND 12/31, THIS BOX MAY BE COLLECTED AS EARLY AS 12 NOON.", "nsi_id": "unitedstatespostalservice-a77078", "operator": "United States Postal Service", "operator:short": "USPS", "operator:type": "public", "operator:wikidata": "Q668687", "ref": "6123500002"}, "type": "Feature"}
{"geometry": {"coordinates": [-90.355983176, 41.518240438], "type": "Point"}, "id": "gkYKYk5A33v8w5nknwbFaQZC9Tk=", "properties": {"@source_uri": "https://tools.usps.com/UspsToolsRestServices/rest/POLocator/findLocations", "@spider": "usps_collection_boxes", "addr:city": "BARSTOW", "addr:country": "US", "addr:postcode": "61236", "addr:state": "IL", "addr:street_address": "18617 1ST AVE", "amenity": "post_box", "collection_times": "Mo-Sa 16:00", "note": "ON 12/24 AND 12/31, THIS BOX MAY BE COLLECTED AS EARLY AS 12 NOON.", "nsi_id": "unitedstatespostalservice-a77078", "operator": "United States Postal Service", "operator:short": "USPS", "operator:type": "public", "operator:wikidata": "Q668687", "ref": "6123600000"}, "type": "Feature"}
{"geometry": {"coordinates": [-90.355983176, 41.518240438], "type": "Point"}, "id": "Ai28bHmjdOY0MP5PoSNpOlJypG0=", "properties": {"@source_uri": "https://tools.usps.com/UspsToolsRestServices/rest/POLocator/findLocations", "@spider": "usps_collection_boxes", "addr:city": "BARSTOW", "addr:country": "US", "addr:postcode": "61236", "addr:state": "IL", "addr:street_address": "18617 1ST AVE", "amenity": "post_box", "collection_times": "Mo-Fr 09:15", "indoor": "yes", "nsi_id": "unitedstatespostalservice-a77078", "operator": "United States Postal Service", "operator:short": "USPS", "operator:type": "public", "operator:wikidata": "Q668687", "ref": "6123600001"}, "type": "Feature"}
{"geometry": {"coordinates": [-90.355983176, 41.518240438], "type": "Point"}, "id": "EPngTTyJf1fEy6b8lrLZJTgr0tk=", "properties": {"@source_uri": "https://tools.usps.com/UspsToolsRestServices/rest/POLocator/findLocations", "@spider": "usps_collection_boxes", "addr:city": "BARSTOW", "addr:country": "US", "addr:postcode": "61236", "addr:state": "IL", "addr:street_address": "18617 1ST AVE", "amenity": "post_box", "collection_times": "Mo-Fr 09:30; Sa 09:00", "indoor": "yes", "nsi_id": "unitedstatespostalservice-a77078", "operator": "United States Postal Service", "operator:short": "USPS", "operator:type": "public", "operator:wikidata": "Q668687", "ref": "6123600002"}, "type": "Feature"}
{"geometry": {"coordinates": [-90.854667392, 41.337485864], "type": "Point"}, "id": "VThQEbYkFb5x9XnL6p5HAQLMve0=", "properties": {"@source_uri": "https://tools.usps.com/UspsToolsRestServices/rest/POLocator/findLocations", "@spider": "usps_collection_boxes", "addr:city": "BUFFALO PRAIRIE", "addr:country": "US", "addr:postcode": "61237", "addr:state": "IL", "addr:street_address": "18401 206TH ST W", "amenity": "post_box", "collection_times": "Mo-Fr 09:45; Sa 09:00", "nsi_id": "unitedstatespostalservice-a77078", "operator": "United States Postal Service", "operator:short": "USPS", "operator:type": "public", "operator:wikidata": "Q668687", "ref": "6123700000"}, "type": "Feature"}
{"geometry": {"coordinates": [-90.854667392, 41.337485864], "type": "Point"}, "id": "de_sfLYMNwdj0DFPVhsKEu8ytnQ=", "properties": {"@source_uri": "https://tools.usps.com/UspsToolsRestServices/rest/POLocator/findLocations", "@spider": "usps_collection_boxes", "addr:city": "BUFFALO PRAIRIE", "addr:country": "US", "addr:postcode": "61237", "addr:state": "IL", "addr:street_address": "18401 206TH ST W", "amenity": "post_box", "collection_times": "Mo-Fr 09:45; Sa 09:00", "indoor": "yes", "nsi_id": "unitedstatespostalservice-a77078", "operator": "United States Postal Service", "operator:short": "USPS", "operator:type": "public", "operator:wikidata": "Q668687", "ref": "6123700001"}, "type": "Feature"}
{"geometry": {"coordinates": [-90.854667392, 41.337485864], "type": "Point"}, "id": "oJHyTCJlg8t9TMVONmkCxPYnPAY=", "properties": {"@source_uri": "https://tools.usps.com/UspsToolsRestServices/rest/POLocator/findLocations", "@spider": "usps_collection_boxes", "addr:city": "BUFFALO PRAIRIE", "addr:country": "US", "addr:postcode": "61237", "addr:state": "IL", "addr:street_address": "18401 206TH ST W", "amenity": "post_box", "collection_times": "Mo-Fr 09:45; Sa 09:00", "indoor": "yes", "nsi_id": "unitedstatespostalservice-a77078", "operator": "United States Postal Service", "operator:short": "USPS", "operator:type": "public", "operator:wikidata": "Q668687", "ref": "6123700002"}, "type": "Feature"}
{"geometry": {"coordinates": [-90.192807065, 41.303133], "type": "Point"}, "id": "iEFZpmK59lFuZc1D8qegvrfcre0=", "properties": {"@source_uri": "https://tools.usps.com/UspsToolsRestServices/rest/POLocator/findLocations", "@spider": "usps_collection_boxes", "addr:city": "CAMBRIDGE", "addr:country": "US", "addr:postcode": "61238", "addr:state": "IL", "addr:street_address": "109 N PROSPECT ST", "amenity": "post_box", "collection_times": "Mo-Sa 16:30", "note": "ON 12/24 AND 12/31, THIS BOX MAY BE COLLECTED AS EARLY AS 12 NOON.", "nsi_id": "unitedstatespostalservice-a77078", "operator": "United States Postal Service", "operator:short": "USPS", "operator:type": "public", "operator:wikidata": "Q668687", "ref": "6123800002"}, "type": "Feature"}
{"geometry": {"coordinates": [-90.192807065, 41.303133], "type": "Point"}, "id": "g2fYyne42l-Xxem87pYayq5NSFc=", "properties": {"@source_uri": "https://tools.usps.com/UspsToolsRestServices/rest/POLocator/findLocations", "@spider": "usps_collection_boxes", "addr:city": "CAMBRIDGE", "addr:country": "US", "addr:postcode": "61238", "addr:state": "IL", "addr:street_address": "109 N PROSPECT ST", "amenity": "post_box", "collection_times": "Mo-Fr 13:45; Sa 12:45", "indoor": "yes", "note": "ON 12/24 AND 12/31, THIS BOX MAY BE COLLECTED AS EARLY AS 12 NOON.", "nsi_id": "unitedstatespostalservice-a77078", "operator": "United States Postal Service", "operator:short": "USPS", "operator:type": "public", "operator:wikidata": "Q668687", "ref": "6123800003"}, "type": "Feature"}
{"geometry": {"coordinates": [-90.196223058, 41.302651927], "type": "Point"}, "id": "RIJbs1vMLeYfbBpVUy0Y2ygzyIw=", "properties": {"@source_uri": "https://tools.usps.com/UspsToolsRestServices/rest/POLocator/findLocations", "@spider": "usps_collection_boxes", "addr:city": "CAMBRIDGE", "addr:country": "US", "addr:postcode": "61238", "addr:state": "IL", "addr:street_address": "307 W CENTER ST", "amenity": "post_box", "collection_times": "Mo-Fr 15:00; Sa 14:00", "note": "ON 12/24 AND 12/31, THIS BOX MAY BE COLLECTED AS EARLY AS 12 NOON.", "nsi_id": "unitedstatespostalservice-a77078", "operator": "United States Postal Service", "operator:short": "USPS", "operator:type": "public", "operator:wikidata": "Q668687", "ref": "6123800004"}, "type": "Feature"}
{"geometry": {"coordinates": [-90.192807065, 41.303133], "type": "Point"}, "id": "RF5kGBDt2IFofaZ553UzZXbuffg=", "properties": {"@source_uri": "https://tools.usps.com/UspsToolsRestServices/rest/POLocator/findLocations", "@spider": "usps_collection_boxes", "addr:city": "CAMBRIDGE", "addr:country": "US", "addr:postcode": "61238", "addr:state": "IL", "addr:street_address": "109 N PROSPECT ST", "amenity": "post_box", "collection_times": "Mo-Fr 14:00; Sa 13:00", "indoor": "yes", "note": "ON 12/24 AND 12/31, THIS BOX MAY BE COLLECTED AS EARLY AS 12 NOON.", "nsi_id": "unitedstatespostalservice-a77078", "operator": "United States Postal Service", "operator:short": "USPS", "operator:type": "public", "operator:wikidata": "Q668687", "ref": "6123800005"}, "type": "Feature"}
{"geometry": {"coordinates": [-90.388930804, 41.493967479], "type": "Point"}, "id": "cG_yoI_eC2oacEXnKTtPr8AFTBQ=", "properties": {"@source_uri": "https://tools.usps.com/UspsToolsRestServices/rest/POLocator/findLocations", "@spider": "usps_collection_boxes", "addr:city": "CARBON CLIFF", "addr:country": "US", "addr:postcode": "61239", "addr:state": "IL", "addr:street_address": "118 3RD ST", "amenity": "post_box", "collection_times": "Mo-Fr 16:00; Sa 16:15", "note": "ON 12/24 AND 12/31, THIS BOX MAY BE COLLECTED AS EARLY AS 12 NOON.", "nsi_id": "unitedstatespostalservice-a77078", "operator": "United States Postal Service", "operator:short": "USPS", "operator:type": "public", "operator:wikidata": "Q668687", "ref": "6123900000"}, "type": "Feature"}
{"geometry": {"coordinates": [-90.388930804, 41.493967479], "type": "Point"}, "id": "buCANxa4W9gOlxp-dp3DHRfUIKg=", "properties": {"@source_uri": "https://tools.usps.com/UspsToolsRestServices/rest/POLocator/findLocations", "@spider": "usps_collection_boxes", "addr:city": "CARBON CLIFF", "addr:country": "US", "addr:postcode": "61239", "addr:state": "IL", "addr:street_address": "118 3RD ST", "amenity": "post_box", "collection_times": "Mo-Fr 13:45", "indoor": "yes", "note": "ON 12/24 AND 12/31, THIS BOX MAY BE COLLECTED AS EARLY AS 12 NOON.", "nsi_id": "unitedstatespostalservice-a77078", "operator": "United States Postal Service", "operator:short": "USPS", "operator:type": "public", "operator:wikidata": "Q668687", "ref": "6123900001"}, "type": "Feature"}
{"geometry": {"coordinates": [-90.388930804, 41.493967479], "type": "Point"}, "id": "stHdXGYmxJeclyfQcqCvHmZaq5k=", "properties": {"@source_uri": "https://tools.usps.com/UspsToolsRestServices/rest/POLocator/findLocations", "@spider": "usps_collection_boxes", "addr:city": "CARBON CLIFF", "addr:country": "US", "addr:postcode": "61239", "addr:state": "IL", "addr:street_address": "118 3RD ST", "amenity": "post_box", "collection_times": "Mo-Fr 14:00; Sa 12:30", "indoor": "yes", "note": "ON 12/24 AND 12/31, THIS BOX MAY BE COLLECTED AS EARLY AS 12 NOON.", "nsi_id": "unitedstatespostalservice-a77078", "operator": "United States Postal Service", "operator:short": "USPS", "operator:type": "public", "operator:wikidata": "Q668687", "ref": "6123900002"}, "type": "Feature"}
{"geometry": {"coordinates": [-90.459638015, 41.429540809], "type": "Point"}, "id": "JGmBB7N1ymhS_wg_4QYm7uqRWms=", "properties": {"@source_uri": "https://tools.usps.com/UspsToolsRestServices/rest/POLocator/findLocations", "@spider": "usps_collection_boxes", "addr:city": "COAL VALLEY", "addr:country": "US", "addr:postcode": "61240", "addr:state": "IL", "addr:street_address": "121 E 22ND AVE", "amenity": "post_box", "collection_times": "Mo-Sa 17:00", "note": "ON 12/24 AND 12/31, THIS BOX MAY BE COLLECTED AS EARLY AS 12 NOON.", "nsi_id": "unitedstatespostalservice-a77078", "operator": "United States Postal Service", "operator:short": "USPS", "operator:type": "public", "operator:wikidata": "Q668687", "ref": "6124000000"}, "type": "Feature"}
{"geometry": {"coordinates": [-90.459638015, 41.429540809], "type": "Point"}, "id": "EbG9OaZ39mY-8Bw5B_EUe7AfKFM=", "properties": {"@source_uri": "https://tools.usps.com/UspsToolsRestServices/rest/POLocator/findLocations", "@spider": "usps_collection_boxes", "addr:city": "COAL VALLEY", "addr:country": "US", "addr:postcode": "61240", "addr:state": "IL", "addr:street_address": "121 E 22ND AVE", "amenity": "post_box", "collection_times": "Mo-Fr 17:00; Sa 11:00", "indoor": "yes", "note": "ON 12/24 AND 12/31, THIS BOX MAY BE COLLECTED AS EARLY AS 12 NOON.", "nsi_id": "unitedstatespostalservice-a77078", "operator": "United States Postal Service", "operator:short": "USPS", "operator:type": "public", "operator:wikidata": "Q668687", "ref": "6124000001"}, "type": "Feature"}
{"geometry": {"coordinates": [-90.460839547, 41.449545953], "type": "Point"}, "id": "ygFITA5ZSWw3ycodu7G0UjDYMrc=", "properties": {"@source_uri": "https://tools.usps.com/UspsToolsRestServices/rest/POLocator/findLocations", "@spider": "usps_collection_boxes", "addr:city": "COAL VALLEY", "addr:country": "US", "addr:postcode": "61240", "addr:state": "IL", "addr:street_address": "200 1ST ST", "amenity": "post_box", "collection_times": "Mo-Sa 12:30", "note": "ON 12/24 AND 12/31, THIS BOX MAY BE COLLECTED AS EARLY AS 12 NOON.", "nsi_id": "unitedstatespostalservice-a77078", "operator": "United States Postal Service", "operator:short": "USPS", "operator:type": "public", "operator:wikidata": "Q668687", "ref": "6124000002"}, "type": "Feature"}
{"geometry": {"coordinates": [-90.468050145, 41.45235867], "type": "Point"}, "id": "cBb7HmUyjSQ-KjnzIlGruPJoz0w=", "properties": {"@source_uri": "https://tools.usps.com/UspsToolsRestServices/rest/POLocator/findLocations", "@spider": "usps_collection_boxes", "addr:city": "COAL VALLEY", "addr:country": "US", "addr:postcode": "61240", "addr:state": "IL", "addr:street_address": "801 W 1ST AVE", "amenity": "post_box", "collection_times": "Mo-Sa 11:00", "nsi_id": "unitedstatespostalservice-a77078", "operator": "United States Postal Service", "operator:short": "USPS", "operator:type": "public", "operator:wikidata": "Q668687", "ref": "6124000003"}, "type": "Feature"}
{"geometry": {"coordinates": [-90.459638015, 41.429540809], "type": "Point"}, "id": "6LDGg5D94dbVNxtwjIAe6iM3XxM=", "properties": {"@source_uri": "https://tools.usps.com/UspsToolsRestServices/rest/POLocator/findLocations", "@spider": "usps_collection_boxes", "addr:city": "COAL VALLEY", "addr:country": "US", "addr:postcode": "61240", "addr:state": "IL", "addr:street_address": "121 E 22ND AVE", "amenity": "post_box", "collection_times": "Mo-Fr 17:00; Sa 10:30", "indoor": "yes", "note": "ON 12/24 AND 12/31, THIS BOX MAY BE COLLECTED AS EARLY AS 12 NOON.", "nsi_id": "unitedstatespostalservice-a77078", "operator": "United States Postal Service", "operator:short": "USPS", "operator:type": "public", "operator:wikidata": "Q668687", "ref": "6124000004"}, "type": "Feature"}
{"geometry": {"coordinates": [-90.357706301, 41.476513211], "type": "Point"}, "id": "3WZONH6aqY7OOaQD-2Df5tf-oIk=", "properties": {"@source_uri": "https://tools.usps.com/UspsToolsRestServices/rest/POLocator/findLocations", "@spider": "usps_collection_boxes", "addr:city": "COLONA", "addr:country": "US", "addr:postcode": "61241", "addr:state": "IL", "addr:street_address": "500 GREEN PARK AVE", "amenity": "post_box", "collection_times": "Mo-Fr 10:30", "nsi_id": "unitedstatespostalservice-a77078", "operator": "United States Postal Service", "operator:short": "USPS", "operator:type": "public", "operator:wikidata": "Q668687", "ref": "6124100000"}, "type": "Feature"}
{"geometry": {"coordinates": [-90.3577827, 41.468993094], "type": "Point"}, "id": "tjXmSFeb_T7Eya0eIFqWRnP8VXw=", "properties": {"@source_uri": "https://tools.usps.com/UspsToolsRestServices/rest/POLocator/findLocations", "@spider": "usps_collection_boxes", "addr:city": "COLONA", "addr:country": "US", "addr:postcode": "61241", "addr:state": "IL", "addr:street_address": "900 1ST ST", "amenity": "post_box", "collection_times": "Mo-Sa 16:45", "note": "ON 12/24 AND 12/31, THIS BOX MAY BE COLLECTED AS EARLY AS 12 NOON.", "nsi_id": "unitedstatespostalservice-a77078", "operator": "United States Postal Service", "operator:short": "USPS", "operator:type": "public", "operator:wikidata": "Q668687", "ref": "6124100001"}, "type": "Feature"}
{"geometry": {"coordinates": [-90.3577827, 41.468993094], "type": "Point"}, "id": "JMcmFJQzCp1Rd0s4Jz7vtPWGtNQ=", "properties": {"@source_uri": "https://tools.usps.com/UspsToolsRestServices/rest/POLocator/findLocations", "@spider": "usps_collection_boxes", "addr:city": "COLONA", "addr:country": "US", "addr:postcode": "61241", "addr:state": "IL", "addr:street_address": "900 1ST ST", "amenity": "post_box", "collection_times": "Mo-Fr 16:45; Sa 12:15", "indoor": "yes", "note": "ON 12/24 AND 12/31, THIS BOX MAY BE COLLECTED AS EARLY AS 12 NOON.", "nsi_id": "unitedstatespostalservice-a77078", "operator": "United States Postal Service", "operator:short": "USPS", "operator:type": "public", "operator:wikidata": "Q668687", "ref": "6124100003"}, "type": "Feature"}
{"geometry": {"coordinates": [-90.3577827, 41.468993094], "type": "Point"}, "id": "_bDS7t37fB1JvYrlYIar5WeE2KE=", "properties": {"@source_uri": "https://tools.usps.com/UspsToolsRestServices/rest/POLocator/findLocations", "@spider": "usps_collection_boxes", "addr:city": "COLONA", "addr:country": "US", "addr:postcode": "61241", "addr:state": "IL", "addr:street_address": "900 1ST ST", "amenity": "post_box", "collection_times": "Mo-Fr 16:45; Sa 12:00", "indoor": "yes", "note": "ON 12/24 AND 12/31, THIS BOX MAY BE COLLECTED AS EARLY AS 12 NOON.", "nsi_id": "unitedstatespostalservice-a77078", "operator": "United States Postal Service", "operator:short": "USPS", "operator:type": "public", "operator:wikidata": "Q668687", "ref": "6124100004"}, "type": "Feature"}
{"geometry": {"coordinates": [-90.3175640255, 41.6803814932], "type": "Point"}, "id": "7F0xA_lcQSBsAdvY_pFmryiKbK4=", "properties": {"@source_uri": "https://tools.usps.com/UspsToolsRestServices/rest/POLocator/findLocations", "@spider": "usps_collection_boxes", "addr:city": "CORDOVA", "addr:country": "US", "addr:postcode": "61242", "addr:state": "IL", "addr:street_address": "1001 MAIN AVE", "amenity": "post_box", "collection_times": "Mo-Sa 16:00", "note": "ON 12/24 AND 12/31, THIS BOX MAY BE COLLECTED AS EARLY AS 12 NOON.", "nsi_id": "unitedstatespostalservice-a77078", "operator": "United States Postal Service", "operator:short": "USPS", "operator:type": "public", "operator:wikidata": "Q668687", "ref": "6124200000"}, "type": "Feature"}
{"geometry": {"coordinates": [-90.317564026, 41.680381493], "type": "Point"}, "id": "-bbUs1p2Qu_M3jWmH6jJiMx0sSA=", "properties": {"@source_uri": "https://tools.usps.com/UspsToolsRestServices/rest/POLocator/findLocations", "@spider": "usps_collection_boxes", "addr:city": "CORDOVA", "addr:country": "US", "addr:postcode": "61242", "addr:state": "IL", "addr:street_address": "1001 MAIN AVE", "amenity": "post_box", "collection_times": "Mo-Fr 11:15; Sa 08:15", "indoor": "yes", "nsi_id": "unitedstatespostalservice-a77078", "operator": "United States Postal Service", "operator:short": "USPS", "operator:type": "public", "operator:wikidata": "Q668687", "ref": "6124200001"}, "type": "Feature"}
{"geometry": {"coordinates": [-90.3175640255, 41.6803814932], "type": "Point"}, "id": "xguC1NW91ZFBry3giiw-QiNmL08=", "properties": {"@source_uri": "https://tools.usps.com/UspsToolsRestServices/rest/POLocator/findLocations", "@spider": "usps_collection_boxes", "addr:city": "CORDOVA", "addr:country": "US", "addr:postcode": "61242", "addr:state": "IL", "addr:street_address": "1001 MAIN AVE", "amenity": "post_box", "collection_times": "Mo-Fr 11:30; Sa 08:30", "indoor": "yes", "nsi_id": "unitedstatespostalservice-a77078", "operator": "United States Postal Service", "operator:short": "USPS", "operator:type": "public", "operator:wikidata": "Q668687", "ref": "6124200002"}, "type": "Feature"}
{"geometry": {"coordinates": [-89.689708042, 41.607715926], "type": "Point"}, "id": "Mi59f1r9vl85hlHwoiibnu5i-1Y=", "properties": {"@source_uri": "https://tools.usps.com/UspsToolsRestServices/rest/POLocator/findLocations", "@spider": "usps_collection_boxes", "addr:city": "DEER GROVE", "addr:country": "US", "addr:postcode": "61243", "addr:state": "IL", "addr:street_address": "28983 HUB ST", "amenity": "post_box", "collection_times": "Mo-Sa 15:30", "note": "ON 12/24 AND 12/31, THIS BOX MAY BE COLLECTED AS EARLY AS 12 NOON.", "nsi_id": "unitedstatespostalservice-a77078", "operator": "United States Postal Service", "operator:short": "USPS", "operator:type": "public", "operator:wikidata": "Q668687", "ref": "6124300000"}, "type": "Feature"}
{"geometry": {"coordinates": [-89.689708042, 41.607715926], "type": "Point"}, "id": "5pjaHGv7uneh7_QjxZHVubcG-4c=", "properties": {"@source_uri": "https://tools.usps.com/UspsToolsRestServices/rest/POLocator/findLocations", "@spider": "usps_collection_boxes", "addr:city": "DEER GROVE", "addr:country": "US", "addr:postcode": "61243", "addr:state": "IL", "addr:street_address": "28983 HUB ST", "amenity": "post_box", "collection_times": "Mo-Fr 12:45", "indoor": "yes", "note": "ON 12/24 AND 12/31, THIS BOX MAY BE COLLECTED AS EARLY AS 12 NOON.", "nsi_id": "unitedstatespostalservice-a77078", "operator": "United States Postal Service", "operator:short": "USPS", "operator:type": "public", "operator:wikidata": "Q668687", "ref": "6124300001"}, "type": "Feature"}
{"geometry": {"coordinates": [-89.689708042, 41.607715926], "type": "Point"}, "id": "Wj6EUod0bfaTu1H-cO1y39WaBKA=", "properties": {"@source_uri": "https://tools.usps.com/UspsToolsRestServices/rest/POLocator/findLocations", "@spider": "usps_collection_boxes", "addr:city": "DEER GROVE", "addr:country": "US", "addr:postcode": "61243", "addr:state": "IL", "addr:street_address": "28983 HUB ST", "amenity": "post_box", "collection_times": "Mo-Fr 13:00; Sa 12:30", "indoor": "yes", "note": "ON 12/24 AND 12/31, THIS BOX MAY BE COLLECTED AS EARLY AS 12 NOON.", "nsi_id": "unitedstatespostalservice-a77078", "operator": "United States Postal Service", "operator:short": "USPS", "operator:type": "public", "operator:wikidata": "Q668687", "ref": "6124300002"}, "type": "Feature"}
{"geometry": {"coordinates": [-90.4425772053, 41.5149785462], "type": "Point"}, "id": "03XzImaAUPrzuMtNpJH4oTbHgsU=", "properties": {"@source_uri": "https://tools.usps.com/UspsToolsRestServices/rest/POLocator/findLocations", "@spider": "usps_collection_boxes", "addr:city": "EAST MOLINE", "addr:country": "US", "addr:postcode": "61244", "addr:state": "IL", "addr:street_address": "800 16TH AVE", "amenity": "post_box", "collection_times": "Sa 16:30", "note": "ON 12/24 AND 12/31, THIS BOX MAY BE COLLECTED AS EARLY AS 12 NOON.", "nsi_id": "unitedstatespostalservice-a77078", "operator": "United States Postal Service", "operator:short": "USPS", "operator:type": "public", "operator:wikidata": "Q668687", "ref": "6124400001"}, "type": "Feature"}
{"geometry": {"coordinates": [-90.431672099, 41.490425762], "type": "Point"}, "id": "Nkmpon0owEHO_J_fqOjZwJL9SFo=", "properties": {"@source_uri": "https://tools.usps.com/UspsToolsRestServices/rest/POLocator/findLocations", "@spider": "usps_collection_boxes", "addr:city": "EAST MOLINE", "addr:country": "US", "addr:postcode": "61244", "addr:state": "IL", "addr:street_address": "1301 AVENUE OF THE CITIES", "amenity": "post_box", "collection_times": "Mo-Fr 17:00; Sa 14:00", "note": "ON 12/24 AND 12/31, THIS BOX MAY BE COLLECTED AS EARLY AS 12 NOON.", "nsi_id": "unitedstatespostalservice-a77078", "operator": "United States Postal Service", "operator:short": "USPS", "operator:type": "public", "operator:wikidata": "Q668687", "ref": "6124400003"}, "type": "Feature"}
{"geometry": {"coordinates": [-90.436513332, 41.489530536], "type": "Point"}, "id": "7kWHHOtBhNrydB0-8efjbeC7AyI=", "properties": {"@source_uri": "https://tools.usps.com/UspsToolsRestServices/rest/POLocator/findLocations", "@spider": "usps_collection_boxes", "addr:city": "EAST MOLINE", "addr:country": "US", "addr:postcode": "61244", "addr:state": "IL", "addr:street_address": "1104 AVENUE OF THE CITIES", "amenity": "post_box", "collection_times": "Mo-Fr 17:00; Sa 14:00", "note": "ON 12/24 AND 12/31, THIS BOX MAY BE COLLECTED AS EARLY AS 12 NOON.", "nsi_id": "unitedstatespostalservice-a77078", "operator": "United States Postal Service", "operator:short": "USPS", "operator:type": "public", "operator:wikidata": "Q668687", "ref": "6124400009"}, "type": "Feature"}
{"geometry": {"coordinates": [-90.456219626, 41.49112545], "type": "Point"}, "id": "c1rnj04AKU4ZZRiSq83g5rfn4JQ=", "properties": {"@source_uri": "https://tools.usps.com/UspsToolsRestServices/rest/POLocator/findLocations", "@spider": "usps_collection_boxes", "addr:city": "EAST MOLINE", "addr:country": "US", "addr:postcode": "61244", "addr:state": "IL", "addr:street_address": "4115 KENNEDY DR", "amenity": "post_box", "collection_times": "Mo-Fr 17:00; Sa 14:00", "note": "ON 12/24 AND 12/31, THIS BOX MAY BE COLLECTED AS EARLY AS 12 NOON.", "nsi_id": "unitedstatespostalservice-a77078", "operator": "United States Postal Service", "operator:short": "USPS", "operator:type": "public", "operator:wikidata": "Q668687", "ref": "6124400017"}, "type": "Feature"}
{"geometry": {"coordinates": [-90.445050983, 41.490109976], "type": "Point"}, "id": "QQ3RvZzjWXlBLBeOe6oJe5RHafo=", "properties": {"@source_uri": "https://tools.usps.com/UspsToolsRestServices/rest/POLocator/findLocations", "@spider": "usps_collection_boxes", "addr:city": "EAST MOLINE", "addr:country": "US", "addr:postcode": "61244", "addr:state": "IL", "addr:street_address": "677 AVENUE OF THE CITIES", "amenity": "post_box", "collection_times": "Mo-Fr 17:00; Sa 14:00", "note": "ON 12/24 AND 12/31, THIS BOX MAY BE COLLECTED AS EARLY AS 12 NOON.", "nsi_id": "unitedstatespostalservice-a77078", "operator": "United States Postal Service", "operator:short": "USPS", "operator:type": "public", "operator:wikidata": "Q668687", "ref": "6124400019"}, "type": "Feature"}
{"geometry": {"coordinates": [-90.454582807, 41.513270446], "type": "Point"}, "id": "5T5J88SgHM6gjBG0Ua90p9LiAMI=", "properties": {"@source_uri": "https://tools.usps.com/UspsToolsRestServices/rest/POLocator/findLocations", "@spider": "usps_collection_boxes", "addr:city": "EAST MOLINE", "addr:country": "US", "addr:postcode": "61244", "addr:state": "IL", "addr:street_address": "303 17TH AVE", "amenity": "post_box", "collection_times": "Mo-Fr 15:00; Sa 14:00", "note": "ON 12/24 AND 12/31, THIS BOX MAY BE COLLECTED AS EARLY AS 12 NOON.", "nsi_id": "unitedstatespostalservice-a77078", "operator": "United States Postal Service", "operator:short": "USPS", "operator:type": "public", "operator:wikidata": "Q668687", "ref": "6124400024"}, "type": "Feature"}
{"geometry": {"coordinates": [-90.438781437, 41.479388698], "type": "Point"}, "id": "n7wbTGpHUhzHnGBNfin9KtAiqEI=", "properties": {"@source_uri": "https://tools.usps.com/UspsToolsRestServices/rest/POLocator/findLocations", "@spider": "usps_collection_boxes", "addr:city": "EAST MOLINE", "addr:country": "US", "addr:postcode": "61244", "addr:state": "IL", "addr:street_address": "1063 51ST AVE", "amenity": "post_box", "collection_times": "Mo-Sa 11:00", "nsi_id": "unitedstatespostalservice-a77078", "operator": "United States Postal Service", "operator:short": "USPS", "operator:type": "public", "operator:wikidata": "Q668687", "ref": "6124400027"}, "type": "Feature"}
{"geometry": {"coordinates": [-90.441732756, 41.515153417], "type": "Point"}, "id": "XlyMvp8v5bkkvtPDJrdJ3-oOz7Q=", "properties": {"@source_uri": "https://tools.usps.com/UspsToolsRestServices/rest/POLocator/findLocations", "@spider": "usps_collection_boxes", "addr:city": "EAST MOLINE", "addr:country": "US", "addr:postcode": "61244", "addr:state": "IL", "addr:street_address": "805 16TH AVE", "amenity": "post_box", "collection_times": "Mo-Fr 17:15; Sa 16:30", "indoor": "yes", "note": "ON 12/24 AND 12/31, THIS BOX MAY BE COLLECTED AS EARLY AS 12 NOON.", "nsi_id": "unitedstatespostalservice-a77078", "operator": "United States Postal Service", "operator:short": "USPS", "operator:type": "public", "operator:wikidata": "Q668687", "ref": "6124400034"}, "type": "Feature"}
{"geometry": {"coordinates": [-90.455174026, 41.500159457], "type": "Point"}, "id": "tLv-SzVzDS_UoolFQFLQxmuJ5Qk=", "properties": {"@source_uri": "https://tools.usps.com/UspsToolsRestServices/rest/POLocator/findLocations", "@spider": "usps_collection_boxes", "addr:city": "EAST MOLINE", "addr:country": "US", "addr:postcode": "61244", "addr:state": "IL", "addr:street_address": "301 30TH AVE", "amenity": "post_box", "collection_times": "Mo-Fr 17:00; Sa 14:00", "note": "ON 12/24 AND 12/31, THIS BOX MAY BE COLLECTED AS EARLY AS 12 NOON.", "nsi_id": "unitedstatespostalservice-a77078", "operator": "United States Postal Service", "operator:short": "USPS", "operator:type": "public", "operator:wikidata": "Q668687", "ref": "6124400039"}, "type": "Feature"}
{"geometry": {"coordinates": [-90.4425772053, 41.5149785462], "type": "Point"}, "id": "CvCPNHR0NcNb0TBlEIW7och9poY=", "properties": {"@source_uri": "https://tools.usps.com/UspsToolsRestServices/rest/POLocator/findLocations", "@spider": "usps_collection_boxes", "addr:city": "EAST MOLINE", "addr:country": "US", "addr:postcode": "61244", "addr:state": "IL", "addr:street_address": "800 16TH AVE", "amenity": "post_box", "collection_times": "Sa 16:30", "note": "ON 12/24 AND 12/31, THIS BOX MAY BE COLLECTED AS EARLY AS 12 NOON.", "nsi_id": "unitedstatespostalservice-a77078", "operator": "United States Postal Service", "operator:short": "USPS", "operator:type": "public", "operator:wikidata": "Q668687", "ref": "6124400040"}, "type": "Feature"}
{"geometry": {"coordinates": [-90.441732756, 41.515153417], "type": "Point"}, "id": "grtQMtHi8JxOAJqyEW7ucoIAPkY=", "properties": {"@source_uri": "https://tools.usps.com/UspsToolsRestServices/rest/POLocator/findLocations", "@spider": "usps_collection_boxes", "addr:city": "EAST MOLINE", "addr:country": "US", "addr:postcode": "61244", "addr:state": "IL", "addr:street_address": "805 16TH AVE", "amenity": "post_box", "collection_times": "Mo-Fr 17:00; Sa 12:00", "indoor": "yes", "note": "ON 12/24 AND 12/31, THIS BOX MAY BE COLLECTED AS EARLY AS 12 NOON.", "nsi_id": "unitedstatespostalservice-a77078", "operator": "United States Postal Service", "operator:short": "USPS", "operator:type": "public", "operator:wikidata": "Q668687", "ref": "6124400042"}, "type": "Feature"}
{"geometry": {"coordinates": [-90.079450493, 41.656293797], "type": "Point"}, "id": "7G0SaJfxWx8Z6BewAdD82nOgznI=", "properties": {"@source_uri": "https://tools.usps.com/UspsToolsRestServices/rest/POLocator/findLocations", "@spider": "usps_collection_boxes", "addr:city": "ERIE", "addr:country": "US", "addr:postcode": "61250", "addr:state": "IL", "addr:street_address": "802 MAIN ST", "amenity": "post_box", "collection_times": "Mo-Sa 16:00", "note": "ON 12/24 AND 12/31, THIS BOX MAY BE COLLECTED AS EARLY AS 12 NOON.", "nsi_id": "unitedstatespostalservice-a77078", "operator": "United States Postal Service", "operator:short": "USPS", "operator:type": "public", "operator:wikidata": "Q668687", "ref": "6125000000"}, "type": "Feature"}
{"geometry": {"coordinates": [-90.079450493, 41.656293797], "type": "Point"}, "id": "nz8o4xcRD-EHgwACgK2CwervBkk=", "properties": {"@source_uri": "https://tools.usps.com/UspsToolsRestServices/rest/POLocator/findLocations", "@spider": "usps_collection_boxes", "addr:city": "ERIE", "addr:country": "US", "addr:postcode": "61250", "addr:state": "IL", "addr:street_address": "802 MAIN ST", "amenity": "post_box", "collection_times": "Mo-Fr 16:00; Sa 10:45", "indoor": "yes", "note": "ON 12/24 AND 12/31, THIS BOX MAY BE COLLECTED AS EARLY AS 12 NOON.", "nsi_id": "unitedstatespostalservice-a77078", "operator": "United States Postal Service", "operator:short": "USPS", "operator:type": "public", "operator:wikidata": "Q668687", "ref": "6125000001"}, "type": "Feature"}
{"geometry": {"coordinates": [-90.079450493, 41.656293797], "type": "Point"}, "id": "_1EAVUZ_AuukSkYDAYC2YuIFUAc=", "properties": {"@source_uri": "https://tools.usps.com/UspsToolsRestServices/rest/POLocator/findLocations", "@spider": "usps_collection_boxes", "addr:city": "ERIE", "addr:country": "US", "addr:postcode": "61250", "addr:state": "IL", "addr:street_address": "802 MAIN ST", "amenity": "post_box", "collection_times": "Mo-Fr 16:00; Sa 11:00", "indoor": "yes", "note": "ON 12/24 AND 12/31, THIS BOX MAY BE COLLECTED AS EARLY AS 12 NOON.", "nsi_id": "unitedstatespostalservice-a77078", "operator": "United States Postal Service", "operator:short": "USPS", "operator:type": "public", "operator:wikidata": "Q668687", "ref": "6125000002"}, "type": "Feature"}
{"geometry": {"coordinates": [-90.165625232, 41.867379649], "type": "Point"}, "id": "Dt4neg-iHTbeq_JwdeYdNyp3a6Y=", "properties": {"@source_uri": "https://tools.usps.com/UspsToolsRestServices/rest/POLocator/findLocations", "@spider": "usps_collection_boxes", "addr:city": "FULTON", "addr:country": "US", "addr:postcode": "61252", "addr:state": "IL", "addr:street_address": "915 4TH ST", "amenity": "post_box", "collection_times": "Mo-Sa 16:30", "note": "ON 12/24 AND 12/31, THIS BOX MAY BE COLLECTED AS EARLY AS 12 NOON.", "nsi_id": "unitedstatespostalservice-a77078", "operator": "United States Postal Service", "operator:short": "USPS", "operator:type": "public", "operator:wikidata": "Q668687", "ref": "6125200001"}, "type": "Feature"}
{"geometry": {"coordinates": [-90.165625232, 41.867379649], "type": "Point"}, "id": "RH2L3Dxmn6mP1r4jJo4uz4NpnaU=", "properties": {"@source_uri": "https://tools.usps.com/UspsToolsRestServices/rest/POLocator/findLocations", "@spider": "usps_collection_boxes", "addr:city": "FULTON", "addr:country": "US", "addr:postcode": "61252", "addr:state": "IL", "addr:street_address": "915 4TH ST", "amenity": "post_box", "collection_times": "Mo-Fr 16:30; Sa 12:00", "indoor": "yes", "note": "ON 12/24 AND 12/31, THIS BOX MAY BE COLLECTED AS EARLY AS 12 NOON.", "nsi_id": "unitedstatespostalservice-a77078", "operator": "United States Postal Service", "operator:short": "USPS", "operator:type": "public", "operator:wikidata": "Q668687", "ref": "6125200006"}, "type": "Feature"}
{"geometry": {"coordinates": [-90.165625232, 41.867379649], "type": "Point"}, "id": "srA9F6jQm2KyDB5QegjXrA4X8g8=", "properties": {"@source_uri": "https://tools.usps.com/UspsToolsRestServices/rest/POLocator/findLocations", "@spider": "usps_collection_boxes", "addr:city": "FULTON", "addr:country": "US", "addr:postcode": "61252", "addr:state": "IL", "addr:street_address": "915 4TH ST", "amenity": "post_box", "collection_times": "Mo-Fr 16:15; Sa 12:00", "indoor": "yes", "note": "ON 12/24 AND 12/31, THIS BOX MAY BE COLLECTED AS EARLY AS 12 NOON.", "nsi_id": "unitedstatespostalservice-a77078", "operator": "United States Postal Service", "operator:short": "USPS", "operator:type": "public", "operator:wikidata": "Q668687", "ref": "6125200007"}, "type": "Feature"}
{"geometry": {"coordinates": [-90.1568419627, 41.4529839956], "type": "Point"}, "id": "D1mICm1Yo65Nc4SzTg4A5dAsbcE=", "properties": {"@source_uri": "https://tools.usps.com/UspsToolsRestServices/rest/POLocator/findLocations", "@spider": "usps_collection_boxes", "addr:city": "GENESEO", "addr:country": "US", "addr:postcode": "61254", "addr:state": "IL", "addr:street_address": "120 W 1ST ST", "amenity": "post_box", "collection_times": "Mo-Fr 17:00; Sa 16:30", "note": "ON 12/24 AND 12/31, THIS BOX MAY BE COLLECTED AS EARLY AS 12 NOON.", "nsi_id": "unitedstatespostalservice-a77078", "operator": "United States Postal Service", "operator:short": "USPS", "operator:type": "public", "operator:wikidata": "Q668687", "ref": "6125400001"}, "type": "Feature"}
{"geometry": {"coordinates": [-90.156773756, 41.453145547], "type": "Point"}, "id": "Lh5T69uwom33l6xntB1T00WLgWU=", "properties": {"@source_uri": "https://tools.usps.com/UspsToolsRestServices/rest/POLocator/findLocations", "@spider": "usps_collection_boxes", "addr:city": "GENESEO", "addr:country": "US", "addr:postcode": "61254", "addr:state": "IL", "addr:street_address": "120 W 1ST ST", "amenity": "post_box", "collection_times": "Mo-Fr 17:00; Sa 15:00", "indoor": "yes", "note": "ON 12/24 AND 12/31, THIS BOX MAY BE COLLECTED AS EARLY AS 12 NOON.", "nsi_id": "unitedstatespostalservice-a77078", "operator": "United States Postal Service", "operator:short": "USPS", "operator:type": "public", "operator:wikidata": "Q668687", "ref": "6125400003"}, "type": "Feature"}
{"geometry": {"coordinates": [-90.156773756, 41.453145547], "type": "Point"}, "id": "NemQtHB8vue6qLyJAjAw77uXUOA=", "properties": {"@source_uri": "https://tools.usps.com/UspsToolsRestServices/rest/POLocator/findLocations", "@spider": "usps_collection_boxes", "addr:city": "GENESEO", "addr:country": "US", "addr:postcode": "61254", "addr:state": "IL", "addr:street_address": "120 W 1ST ST", "amenity": "post_box", "collection_times": "Mo-Fr 16:30; Sa 12:00", "indoor": "yes", "note": "ON 12/24 AND 12/31, THIS BOX MAY BE COLLECTED AS EARLY AS 12 NOON.", "nsi_id": "unitedstatespostalservice-a77078", "operator": "United States Postal Service", "operator:short": "USPS", "operator:type": "public", "operator:wikidata": "Q668687", "ref": "6125400005"}, "type": "Feature"}
{"geometry": {"coordinates": [-90.406080335, 41.558014464], "type": "Point"}, "id": "2XUyP-7gYm72lHQucuLWzPjUXFA=", "properties": {"@source_uri": "https://tools.usps.com/UspsToolsRestServices/rest/POLocator/findLocations", "@spider": "usps_collection_boxes", "addr:city": "HAMPTON", "addr:country": "US", "addr:postcode": "61256", "addr:state": "IL", "addr:street_address": "625 8TH ST", "amenity": "post_box", "collection_times": "Mo-Sa 16:45", "note": "ON 12/24 AND 12/31, THIS BOX MAY BE COLLECTED AS EARLY AS 12 NOON.", "nsi_id": "unitedstatespostalservice-a77078", "operator": "United States Postal Service", "operator:short": "USPS", "operator:type": "public", "operator:wikidata": "Q668687", "ref": "6125600000"}, "type": "Feature"}
{"geometry": {"coordinates": [-90.406080335, 41.558014464], "type": "Point"}, "id": "4XrK7pHCGPQ8J0iOYmicepW4pWM=", "properties": {"@source_uri": "https://tools.usps.com/UspsToolsRestServices/rest/POLocator/findLocations", "@spider": "usps_collection_boxes", "addr:city": "HAMPTON", "addr:country": "US", "addr:postcode": "61256", "addr:state": "IL", "addr:street_address": "625 8TH ST", "amenity": "post_box", "collection_times": "Mo-Fr 14:45; Sa 10:15", "indoor": "yes", "note": "ON 12/24 AND 12/31, THIS BOX MAY BE COLLECTED AS EARLY AS 12 NOON.", "nsi_id": "unitedstatespostalservice-a77078", "operator": "United States Postal Service", "operator:short": "USPS", "operator:type": "public", "operator:wikidata": "Q668687", "ref": "6125600001"}, "type": "Feature"}
{"geometry": {"coordinates": [-90.406080335, 41.558014464], "type": "Point"}, "id": "kBT0bQhMN6cjkSKr5T4ZMe5iTxE=", "properties": {"@source_uri": "https://tools.usps.com/UspsToolsRestServices/rest/POLocator/findLocations", "@spider": "usps_collection_boxes", "addr:city": "HAMPTON", "addr:country": "US", "addr:postcode": "61256", "addr:state": "IL", "addr:street_address": "625 8TH ST", "amenity": "post_box", "collection_times": "Mo-Fr 15:00; Sa 10:30", "indoor": "yes", "note": "ON 12/24 AND 12/31, THIS BOX MAY BE COLLECTED AS EARLY AS 12 NOON.", "nsi_id": "unitedstatespostalservice-a77078", "operator": "United States Postal Service", "operator:short": "USPS", "operator:type": "public", "operator:wikidata": "Q668687", "ref": "6125600002"}, "type": "Feature"}
{"geometry": {"coordinates": [-90.173509243, 41.614586612], "type": "Point"}, "id": "rZPyOAAx-uKkZ4y8ebLkBGwoVx0=", "properties": {"@source_uri": "https://tools.usps.com/UspsToolsRestServices/rest/POLocator/findLocations", "@spider": "usps_collection_boxes", "addr:city": "HILLSDALE", "addr:country": "US", "addr:postcode": "61257", "addr:state": "IL", "addr:street_address": "108 BUTZER ST", "amenity": "post_box", "collection_times": "Mo-Sa 16:00", "note": "ON 12/24 AND 12/31, THIS BOX MAY BE COLLECTED AS EARLY AS 12 NOON.", "nsi_id": "unitedstatespostalservice-a77078", "operator": "United States Postal Service", "operator:short": "USPS", "operator:type": "public", "operator:wikidata": "Q668687", "ref": "6125700000"}, "type": "Feature"}
{"geometry": {"coordinates": [-90.173509243, 41.614586612], "type": "Point"}, "id": "OPq4_jDyxXOaQ3rAxZ6Cjbmddmc=", "properties": {"@source_uri": "https://tools.usps.com/UspsToolsRestServices/rest/POLocator/findLocations", "@spider": "usps_collection_boxes", "addr:city": "HILLSDALE", "addr:country": "US", "addr:postcode": "61257", "addr:state": "IL", "addr:street_address": "108 BUTZER ST", "amenity": "post_box", "collection_times": "Mo-Fr 11:45; Sa 09:45", "indoor": "yes", "nsi_id": "unitedstatespostalservice-a77078", "operator": "United States Postal Service", "operator:short": "USPS", "operator:type": "public", "operator:wikidata": "Q668687", "ref": "6125700001"}, "type": "Feature"}
{"geometry": {"coordinates": [-90.187132084, 41.613129191], "type": "Point"}, "id": "hVlE6D1RSuy9W9uJGsPLYUtt4W0=", "properties": {"@source_uri": "https://tools.usps.com/UspsToolsRestServices/rest/POLocator/findLocations", "@spider": "usps_collection_boxes", "addr:city": "HILLSDALE", "addr:country": "US", "addr:postcode": "61257", "addr:state": "IL", "addr:street_address": "32000 ROUTE 2 N", "amenity": "post_box", "collection_times": "Mo-Sa 10:30", "nsi_id": "unitedstatespostalservice-a77078", "operator": "United States Postal Service", "operator:short": "USPS", "operator:type": "public", "operator:wikidata": "Q668687", "ref": "6125700002"}, "type": "Feature"}
{"geometry": {"coordinates": [-90.173509243, 41.614586612], "type": "Point"}, "id": "5SzMEN-bV8EHeQ8YlbwKz7wUB1I=", "properties": {"@source_uri": "https://tools.usps.com/UspsToolsRestServices/rest/POLocator/findLocations", "@spider": "usps_collection_boxes", "addr:city": "HILLSDALE", "addr:country": "US", "addr:postcode": "61257", "addr:state": "IL", "addr:street_address": "108 BUTZER ST", "amenity": "post_box", "collection_times": "Mo-Fr 12:00; Sa 10:00", "indoor": "yes", "nsi_id": "unitedstatespostalservice-a77078", "operator": "United States Postal Service", "operator:short": "USPS", "operator:type": "public", "operator:wikidata": "Q668687", "ref": "6125700003"}, "type": "Feature"}
{"geometry": {"coordinates": [-90.9006525, 41.397242525], "type": "Point"}, "id": "4hfgYbpJIZaO1UtqUOwpei6dQYY=", "properties": {"@source_uri": "https://tools.usps.com/UspsToolsRestServices/rest/POLocator/findLocations", "@spider": "usps_collection_boxes", "addr:city": "ILLINOIS CITY", "addr:country": "US", "addr:postcode": "61259", "addr:state": "IL", "addr:street_address": "23828 124TH AVE W", "amenity": "post_box", "collection_times": "Mo-Fr 11:15; Sa 09:15", "nsi_id": "unitedstatespostalservice-a77078", "operator": "United States Postal Service", "operator:short": "USPS", "operator:type": "public", "operator:wikidata": "Q668687", "ref": "6125900000"}, "type": "Feature"}
{"geometry": {"coordinates": [-90.9006525, 41.397242525], "type": "Point"}, "id": "OTqwKHL7nc0IFdUem75E_ciRvOE=", "properties": {"@source_uri": "https://tools.usps.com/UspsToolsRestServices/rest/POLocator/findLocations", "@spider": "usps_collection_boxes", "addr:city": "ILLINOIS CITY", "addr:country": "US", "addr:postcode": "61259", "addr:state": "IL", "addr:street_address": "23828 124TH AVE W", "amenity": "post_box", "collection_times": "Mo-Fr 11:15; Sa 09:15", "indoor": "yes", "nsi_id": "unitedstatespostalservice-a77078", "operator": "United States Postal Service", "operator:short": "USPS", "operator:type": "public", "operator:wikidata": "Q668687", "ref": "6125900001"}, "type": "Feature"}
{"geometry": {"coordinates": [-90.9006525, 41.397242525], "type": "Point"}, "id": "sLDod83j2myqu9goLuSO0WUN3Hk=", "properties": {"@source_uri": "https://tools.usps.com/UspsToolsRestServices/rest/POLocator/findLocations", "@spider": "usps_collection_boxes", "addr:city": "ILLINOIS CITY", "addr:country": "US", "addr:postcode": "61259", "addr:state": "IL", "addr:street_address": "23828 124TH AVE W", "amenity": "post_box", "collection_times": "Mo-Fr 11:30; Sa 09:30", "indoor": "yes", "nsi_id": "unitedstatespostalservice-a77078", "operator": "United States Postal Service", "operator:short": "USPS", "operator:type": "public", "operator:wikidata": "Q668687", "ref": "6125900002"}, "type": "Feature"}
{"geometry": {"coordinates": [-90.880681112, 41.196529521], "type": "Point"}, "id": "RWE4RI4VOkU1aUhRRYRYWyubuvk=", "properties": {"@source_uri": "https://tools.usps.com/UspsToolsRestServices/rest/POLocator/findLocations", "@spider": "usps_collection_boxes", "addr:city": "JOY", "addr:country": "US", "addr:postcode": "61260", "addr:state": "IL", "addr:street_address": "202 W MAIN ST", "amenity": "post_box", "collection_times": "Mo-Sa 16:00", "note": "ON 12/24 AND 12/31, THIS BOX MAY BE COLLECTED AS EARLY AS 12 NOON.", "nsi_id": "unitedstatespostalservice-a77078", "operator": "United States Postal Service", "operator:short": "USPS", "operator:type": "public", "operator:wikidata": "Q668687", "ref": "6126000000"}, "type": "Feature"}
{"geometry": {"coordinates": [-90.880681112, 41.196529521], "type": "Point"}, "id": "oXh_Pa3TkMKnqlqXGLKjSS4rn4s=", "properties": {"@source_uri": "https://tools.usps.com/UspsToolsRestServices/rest/POLocator/findLocations", "@spider": "usps_collection_boxes", "addr:city": "JOY", "addr:country": "US", "addr:postcode": "61260", "addr:state": "IL", "addr:street_address": "202 W MAIN ST", "amenity": "post_box", "collection_times": "Mo-Fr 10:45; Sa 09:30", "indoor": "yes", "nsi_id": "unitedstatespostalservice-a77078", "operator": "United States Postal Service", "operator:short": "USPS", "operator:type": "public", "operator:wikidata": "Q668687", "ref": "6126000001"}, "type": "Feature"}
{"geometry": {"coordinates": [-90.880681112, 41.196529521], "type": "Point"}, "id": "1J9JOgnP-lj1PXv1vpgeZQpo1qs=", "properties": {"@source_uri": "https://tools.usps.com/UspsToolsRestServices/rest/POLocator/findLocations", "@spider": "usps_collection_boxes", "addr:city": "JOY", "addr:country": "US", "addr:postcode": "61260", "addr:state": "IL", "addr:street_address": "202 W MAIN ST", "amenity": "post_box", "collection_times": "Mo-Fr 11:00; Sa 09:30", "indoor": "yes", "nsi_id": "unitedstatespostalservice-a77078", "operator": "United States Postal Service", "operator:short": "USPS", "operator:type": "public", "operator:wikidata": "Q668687", "ref": "6126000002"}, "type": "Feature"}
{"geometry": {"coordinates": [-89.923393171, 41.718198637], "type": "Point"}, "id": "y2qjionh0JB3cFT3L2syu52_bQg=", "properties": {"@source_uri": "https://tools.usps.com/UspsToolsRestServices/rest/POLocator/findLocations", "@spider": "usps_collection_boxes", "addr:city": "LYNDON", "addr:country": "US", "addr:postcode": "61261", "addr:state": "IL", "addr:street_address": "409 2ND AVE E", "amenity": "post_box", "collection_times": "Mo-Sa 16:00", "note": "ON 12/24 AND 12/31, THIS BOX MAY BE COLLECTED AS EARLY AS 12 NOON.", "nsi_id": "unitedstatespostalservice-a77078", "operator": "United States Postal Service", "operator:short": "USPS", "operator:type": "public", "operator:wikidata": "Q668687", "ref": "6126100000"}, "type": "Feature"}
{"geometry": {"coordinates": [-89.923393171, 41.718198637], "type": "Point"}, "id": "WmN9Y8bTWZfgTfq5MLA6BBgob7c=", "properties": {"@source_uri": "https://tools.usps.com/UspsToolsRestServices/rest/POLocator/findLocations", "@spider": "usps_collection_boxes", "addr:city": "LYNDON", "addr:country": "US", "addr:postcode": "61261", "addr:state": "IL", "addr:street_address": "409 2ND AVE E", "amenity": "post_box", "collection_times": "Mo-Fr 12:45", "indoor": "yes", "note": "ON 12/24 AND 12/31, THIS BOX MAY BE COLLECTED AS EARLY AS 12 NOON.", "nsi_id": "unitedstatespostalservice-a77078", "operator": "United States Postal Service", "operator:short": "USPS", "operator:type": "public", "operator:wikidata": "Q668687", "ref": "6126100001"}, "type": "Feature"}
{"geometry": {"coordinates": [-89.923393171, 41.718198637], "type": "Point"}, "id": "eqEM0tzhdu5fYWVszuyJdWiPdwQ=", "properties": {"@source_uri": "https://tools.usps.com/UspsToolsRestServices/rest/POLocator/findLocations", "@spider": "usps_collection_boxes", "addr:city": "LYNDON", "addr:country": "US", "addr:postcode": "61261", "addr:state": "IL", "addr:street_address": "409 2ND AVE E", "amenity": "post_box", "collection_times": "Mo-Fr 13:00; Sa 12:00", "indoor": "yes", "note": "ON 12/24 AND 12/31, THIS BOX MAY BE COLLECTED AS EARLY AS 12 NOON.", "nsi_id": "unitedstatespostalservice-a77078", "operator": "United States Postal Service", "operator:short": "USPS", "operator:type": "public", "operator:wikidata": "Q668687", "ref": "6126100002"}, "type": "Feature"}
{"geometry": {"coordinates": [-90.358780919, 41.2957965], "type": "Point"}, "id": "WERPwItQjRmwDyypJPB29IB1VyY=", "properties": {"@source_uri": "https://tools.usps.com/UspsToolsRestServices/rest/POLocator/findLocations", "@spider": "usps_collection_boxes", "addr:city": "LYNN CENTER", "addr:country": "US", "addr:postcode": "61262", "addr:state": "IL", "addr:street_address": "404 SOUTH ST", "amenity": "post_box", "collection_times": "Mo-Sa 16:30", "note": "ON 12/24 AND 12/31, THIS BOX MAY BE COLLECTED AS EARLY AS 12 NOON.", "nsi_id": "unitedstatespostalservice-a77078", "operator": "United States Postal Service", "operator:short": "USPS", "operator:type": "public", "operator:wikidata": "Q668687", "ref": "6126200000"}, "type": "Feature"}
{"geometry": {"coordinates": [-90.358780919, 41.2957965], "type": "Point"}, "id": "Ftk9D6Ji47jGCLQbODfBSj_14Cg=", "properties": {"@source_uri": "https://tools.usps.com/UspsToolsRestServices/rest/POLocator/findLocations", "@spider": "usps_collection_boxes", "addr:city": "LYNN CENTER", "addr:country": "US", "addr:postcode": "61262", "addr:state": "IL", "addr:street_address": "404 SOUTH ST", "amenity": "post_box", "collection_times": "Mo-Fr 10:45; Sa 08:45", "indoor": "yes", "nsi_id": "unitedstatespostalservice-a77078", "operator": "United States Postal Service", "operator:short": "USPS", "operator:type": "public", "operator:wikidata": "Q668687", "ref": "6126200001"}, "type": "Feature"}
{"geometry": {"coordinates": [-90.358780919, 41.2957965], "type": "Point"}, "id": "b0eHE22PoVRD98OWbRI2SrjpQ8U=", "properties": {"@source_uri": "https://tools.usps.com/UspsToolsRestServices/rest/POLocator/findLocations", "@spider": "usps_collection_boxes", "addr:city": "LYNN CENTER", "addr:country": "US", "addr:postcode": "61262", "addr:state": "IL", "addr:street_address": "404 SOUTH ST", "amenity": "post_box", "collection_times": "Mo-Fr 11:00; Sa 09:00", "indoor": "yes", "nsi_id": "unitedstatespostalservice-a77078", "operator": "United States Postal Service", "operator:short": "USPS", "operator:type": "public", "operator:wikidata": "Q668687", "ref": "6126200002"}, "type": "Feature"}
{"geometry": {"coordinates": [-90.609254277, 41.25967547], "type": "Point"}, "id": "Bbl-haa3S7-qgcyBsWKyR-NStSg=", "properties": {"@source_uri": "https://tools.usps.com/UspsToolsRestServices/rest/POLocator/findLocations", "@spider": "usps_collection_boxes", "addr:city": "MATHERVILLE", "addr:country": "US", "addr:postcode": "61263", "addr:state": "IL", "addr:street_address": "509 2ND ST", "amenity": "post_box", "collection_times": "Mo-Sa 16:15", "note": "ON 12/24 AND 12/31, THIS BOX MAY BE COLLECTED AS EARLY AS 12 NOON.", "nsi_id": "unitedstatespostalservice-a77078", "operator": "United States Postal Service", "operator:short": "USPS", "operator:type": "public", "operator:wikidata": "Q668687", "ref": "6126300000"}, "type": "Feature"}
{"geometry": {"coordinates": [-90.609254277, 41.25967547], "type": "Point"}, "id": "GPpRztdQIEadDz8XWUskgF-DcP4=", "properties": {"@source_uri": "https://tools.usps.com/UspsToolsRestServices/rest/POLocator/findLocations", "@spider": "usps_collection_boxes", "addr:city": "MATHERVILLE", "addr:country": "US", "addr:postcode": "61263", "addr:state": "IL", "addr:street_address": "509 2ND ST", "amenity": "post_box", "collection_times": "Mo-Fr 14:15; Sa 12:00", "indoor": "yes", "note": "ON 12/24 AND 12/31, THIS BOX MAY BE COLLECTED AS EARLY AS 12 NOON.", "nsi_id": "unitedstatespostalservice-a77078", "operator": "United States Postal Service", "operator:short": "USPS", "operator:type": "public", "operator:wikidata": "Q668687", "ref": "6126300001"}, "type": "Feature"}
{"geometry": {"coordinates": [-90.609254277, 41.25967547], "type": "Point"}, "id": "ZkbZw9htwb07xf1uZI3p4RIzyMk=", "properties": {"@source_uri": "https://tools.usps.com/UspsToolsRestServices/rest/POLocator/findLocations", "@spider": "usps_collection_boxes", "addr:city": "MATHERVILLE", "addr:country": "US", "addr:postcode": "61263", "addr:state": "IL", "addr:street_address": "509 2ND ST", "amenity": "post_box", "collection_times": "Mo-Fr 14:30; Sa 12:15", "indoor": "yes", "note": "ON 12/24 AND 12/31, THIS BOX MAY BE COLLECTED AS EARLY AS 12 NOON.", "nsi_id": "unitedstatespostalservice-a77078", "operator": "United States Postal Service", "operator:short": "USPS", "operator:type": "public", "operator:wikidata": "Q668687", "ref": "6126300002"}, "type": "Feature"}
{"geometry": {"coordinates": [-90.5675143471, 41.4291334716], "type": "Point"}, "id": "lqbuI4ZXn5YAPbKU4VuT06DZKHo=", "properties": {"@source_uri": "https://tools.usps.com/UspsToolsRestServices/rest/POLocator/findLocations", "@spider": "usps_collection_boxes", "addr:city": "MILAN", "addr:country": "US", "addr:postcode": "61264", "addr:state": "IL", "addr:street_address": "2301 1ST ST E", "amenity": "post_box", "collection_times": "Mo-Sa 10:00", "nsi_id": "unitedstatespostalservice-a77078", "operator": "United States Postal Service", "operator:short": "USPS", "operator:type": "public", "operator:wikidata": "Q668687", "ref": "6126400006"}, "type": "Feature"}
{"geometry": {"coordinates": [-90.570195308, 41.452894573], "type": "Point"}, "id": "YS5iBRys4Ck9Xgqpq1WQ7XZp73E=", "properties": {"@source_uri": "https://tools.usps.com/UspsToolsRestServices/rest/POLocator/findLocations", "@spider": "usps_collection_boxes", "addr:city": "MILAN", "addr:country": "US", "addr:postcode": "61264", "addr:state": "IL", "addr:street_address": "111 3RD ST W", "amenity": "post_box", "collection_times": "Mo-Sa 17:00", "note": "ON 12/24 AND 12/31, THIS BOX MAY BE COLLECTED AS EARLY AS 12 NOON.", "nsi_id": "unitedstatespostalservice-a77078", "operator": "United States Postal Service", "operator:short": "USPS", "operator:type": "public", "operator:wikidata": "Q668687", "ref": "6126400013"}, "type": "Feature"}
{"geometry": {"coordinates": [-90.570195308, 41.452894573], "type": "Point"}, "id": "X-JvAYo5WwBP7BM2QOL-vWoSNEc=", "properties": {"@source_uri": "https://tools.usps.com/UspsToolsRestServices/rest/POLocator/findLocations", "@spider": "usps_collection_boxes", "addr:city": "MILAN", "addr:country": "US", "addr:postcode": "61264", "addr:state": "IL", "addr:street_address": "111 3RD ST W", "amenity": "post_box", "collection_times": "Mo-Fr 17:00; Sa 12:00", "indoor": "yes", "note": "ON 12/24 AND 12/31, THIS BOX MAY BE COLLECTED AS EARLY AS 12 NOON.", "nsi_id": "unitedstatespostalservice-a77078", "operator": "United States Postal Service", "operator:short": "USPS", "operator:type": "public", "operator:wikidata": "Q668687", "ref": "6126400014"}, "type": "Feature"}
{"geometry": {"coordinates": [-90.50541483, 41.438866638], "type": "Point"}, "id": "rzll7WYOvygl5Ry-fCMBXU0qhMM=", "properties": {"@source_uri": "https://tools.usps.com/UspsToolsRestServices/rest/POLocator/findLocations", "@spider": "usps_collection_boxes", "addr:city": "MILAN", "addr:country": "US", "addr:postcode": "61264", "addr:state": "IL", "addr:street_address": "7700 68TH ST", "amenity": "post_box", "collection_times": "Mo-Sa 18:30", "note": "ON 12/24 AND 12/31, THIS BOX MAY BE COLLECTED AS EARLY AS 12 NOON.", "nsi_id": "unitedstatespostalservice-a77078", "operator": "United States Postal Service", "operator:short": "USPS", "operator:type": "public", "operator:wikidata": "Q668687", "ref": "6126400015"}, "type": "Feature"}
{"geometry": {"coordinates": [-90.569410979, 41.442822463], "type": "Point"}, "id": "ncYplWol2eM8m6-cHvQ13lLbA6U=", "properties": {"@source_uri": "https://tools.usps.com/UspsToolsRestServices/rest/POLocator/findLocations", "@spider": "usps_collection_boxes", "addr:city": "MILAN", "addr:country": "US", "addr:postcode": "61264", "addr:state": "IL", "addr:street_address": "201 10TH AVE W", "amenity": "post_box", "collection_times": "Mo-Sa 10:00", "nsi_id": "unitedstatespostalservice-a77078", "operator": "United States Postal Service", "operator:short": "USPS", "operator:type": "public", "operator:wikidata": "Q668687", "ref": "6126400017"}, "type": "Feature"}
{"geometry": {"coordinates": [-90.570195308, 41.452894573], "type": "Point"}, "id": "qX8dNnXlq-mOAZQrav4X2OQLcg0=", "properties": {"@source_uri": "https://tools.usps.com/UspsToolsRestServices/rest/POLocator/findLocations", "@spider": "usps_collection_boxes", "addr:city": "MILAN", "addr:country": "US", "addr:postcode": "61264", "addr:state": "IL", "addr:street_address": "111 3RD ST W", "amenity": "post_box", "collection_times": "Mo-Fr 16:30; Sa 12:00", "indoor": "yes", "note": "ON 12/24 AND 12/31, THIS BOX MAY BE COLLECTED AS EARLY AS 12 NOON.", "nsi_id": "unitedstatespostalservice-a77078", "operator": "United States Postal Service", "operator:short": "USPS", "operator:type": "public", "operator:wikidata": "Q668687", "ref": "6126400019"}, "type": "Feature"}
{"geometry": {"coordinates": [-90.5161162244, 41.5059231696], "type": "Point"}, "id": "GIU9qmDMbUij0x8nWI5ioahAzNk=", "properties": {"@source_uri": "https://tools.usps.com/UspsToolsRestServices/rest/POLocator/findLocations", "@spider": "usps_collection_boxes", "addr:city": "MOLINE", "addr:country": "US", "addr:postcode": "61265", "addr:state": "IL", "addr:street_address": "501 15TH ST", "amenity": "post_box", "collection_times": "Mo-Sa 14:00", "note": "ON 12/24 AND 12/31, THIS BOX MAY BE COLLECTED AS EARLY AS 12 NOON.", "nsi_id": "unitedstatespostalservice-a77078", "operator": "United States Postal Service", "operator:short": "USPS", "operator:type": "public", "operator:wikidata": "Q668687", "ref": "6126500006"}, "type": "Feature"}
{"geometry": {"coordinates": [-90.479841822, 41.500934141], "type": "Point"}, "id": "nUoqP55uteQ9sdbQRV2ojcBWR9k=", "properties": {"@source_uri": "https://tools.usps.com/UspsToolsRestServices/rest/POLocator/findLocations", "@spider": "usps_collection_boxes", "addr:city": "MOLINE", "addr:country": "US", "addr:postcode": "61265", "addr:state": "IL", "addr:street_address": "1150 41ST ST", "amenity": "post_box", "collection_times": "Mo-Sa 10:00", "nsi_id": "unitedstatespostalservice-a77078", "operator": "United States Postal Service", "operator:short": "USPS", "operator:type": "public", "operator:wikidata": "Q668687", "ref": "6126500012"}, "type": "Feature"}
{"geometry": {"coordinates": [-90.536121559, 41.492486405], "type": "Point"}, "id": "siQAcRZ7H6G3n3AvAkEgCRgzULQ=", "properties": {"@source_uri": "https://tools.usps.com/UspsToolsRestServices/rest/POLocator/findLocations", "@spider": "usps_collection_boxes", "addr:city": "MOLINE", "addr:country": "US", "addr:postcode": "61265", "addr:state": "IL", "addr:street_address": "1994 1ST STREET A", "amenity": "post_box", "collection_times": "Mo-Sa 09:00", "nsi_id": "unitedstatespostalservice-a77078", "operator": "United States Postal Service", "operator:short": "USPS", "operator:type": "public", "operator:wikidata": "Q668687", "ref": "6126500013"}, "type": "Feature"}
{"geometry": {"coordinates": [-90.530032835, 41.472731496], "type": "Point"}, "id": "TPB8gRYuOyMr2LoCVl2q25p8n8E=", "properties": {"@source_uri": "https://tools.usps.com/UspsToolsRestServices/rest/POLocator/findLocations", "@spider": "usps_collection_boxes", "addr:city": "MOLINE", "addr:country": "US", "addr:postcode": "61265", "addr:state": "IL", "addr:street_address": "600 VALLEY VIEW DR", "amenity": "post_box", "collection_times": "Mo-Fr 10:00", "nsi_id": "unitedstatespostalservice-a77078", "operator": "United States Postal Service", "operator:short": "USPS", "operator:type": "public", "operator:wikidata": "Q668687", "ref": "6126500014"}, "type": "Feature"}
{"geometry": {"coordinates": [-90.5156643888, 41.4960475495], "type": "Point"}, "id": "F6aj4oO6AtbPqxz03arvdwgOMKI=", "properties": {"@source_uri": "https://tools.usps.com/UspsToolsRestServices/rest/POLocator/findLocations", "@spider": "usps_collection_boxes", "addr:city": "MOLINE", "addr:country": "US", "addr:postcode": "61265", "addr:state": "IL", "addr:street_address": "1618 15TH ST", "amenity": "post_box", "collection_times": "Mo-Sa 09:00", "nsi_id": "unitedstatespostalservice-a77078", "operator": "United States Postal Service", "operator:short": "USPS", "operator:type": "public", "operator:wikidata": "Q668687", "ref": "6126500017"}, "type": "Feature"}
{"geometry": {"coordinates": [-90.512576249, 41.483373486], "type": "Point"}, "id": "oNGg1mbBmWVJxw92CrCvs03ZBPw=", "properties": {"@source_uri": "https://tools.usps.com/UspsToolsRestServices/rest/POLocator/findLocations", "@spider": "usps_collection_boxes", "addr:city": "MOLINE", "addr:country": "US", "addr:postcode": "61265", "addr:state": "IL", "addr:street_address": "2842 16TH ST", "amenity": "post_box", "collection_times": "Mo-Sa 14:00", "note": "ON 12/24 AND 12/31, THIS BOX MAY BE COLLECTED AS EARLY AS 12 NOON.", "nsi_id": "unitedstatespostalservice-a77078", "operator": "United States Postal Service", "operator:short": "USPS", "operator:type": "public", "operator:wikidata": "Q668687", "ref": "6126500020"}, "type": "Feature"}
{"geometry": {"coordinates": [-90.507187644, 41.477405933], "type": "Point"}, "id": "Xf0bN3Z-3J_FK5olBucxCrK2U2s=", "properties": {"@source_uri": "https://tools.usps.com/UspsToolsRestServices/rest/POLocator/findLocations", "@spider": "usps_collection_boxes", "addr:city": "MOLINE", "addr:country": "US", "addr:postcode": "61265", "addr:state": "IL", "addr:street_address": "3601 16TH ST", "amenity": "post_box", "collection_times": "Mo-Sa 09:00", "nsi_id": "unitedstatespostalservice-a77078", "operator": "United States Postal Service", "operator:short": "USPS", "operator:type": "public", "operator:wikidata": "Q668687", "ref": "6126500021"}, "type": "Feature"}
{"geometry": {"coordinates": [-90.503775774, 41.477335563], "type": "Point"}, "id": "finpszxHc03anGl_JRtXPkKtk48=", "properties": {"@source_uri": "https://tools.usps.com/UspsToolsRestServices/rest/POLocator/findLocations", "@spider": "usps_collection_boxes", "addr:city": "MOLINE", "addr:country": "US", "addr:postcode": "61265", "addr:state": "IL", "addr:street_address": "2000 36TH AVE", "amenity": "post_box", "collection_times": "Mo-Sa 10:00", "nsi_id": "unitedstatespostalservice-a77078", "operator": "United States Postal Service", "operator:short": "USPS", "operator:type": "public", "operator:wikidata": "Q668687", "ref": "6126500022"}, "type": "Feature"}
{"geometry": {"coordinates": [-90.507227164, 41.467437168], "type": "Point"}, "id": "YwqcbSJqTK9eDZc4zQNmNZCuBNs=", "properties": {"@source_uri": "https://tools.usps.com/UspsToolsRestServices/rest/POLocator/findLocations", "@spider": "usps_collection_boxes", "addr:city": "MOLINE", "addr:country": "US", "addr:postcode": "61265", "addr:state": "IL", "addr:street_address": "4575 16TH ST", "amenity": "post_box", "collection_times": "Mo-Sa 09:00", "nsi_id": "unitedstatespostalservice-a77078", "operator": "United States Postal Service", "operator:short": "USPS", "operator:type": "public", "operator:wikidata": "Q668687", "ref": "6126500025"}, "type": "Feature"}
{"geometry": {"coordinates": [-90.528520972, 41.493267468], "type": "Point"}, "id": "DkEbR12D1qQnp4_lJvKGbCYMqhk=", "properties": {"@source_uri": "https://tools.usps.com/UspsToolsRestServices/rest/POLocator/findLocations", "@spider": "usps_collection_boxes", "addr:city": "MOLINE", "addr:country": "US", "addr:postcode": "61265", "addr:state": "IL", "addr:street_address": "555 19TH AVE", "amenity": "post_box", "collection_times": "Mo-Sa 14:30", "note": "ON 12/24 AND 12/31, THIS BOX MAY BE COLLECTED AS EARLY AS 12 NOON.", "nsi_id": "unitedstatespostalservice-a77078", "operator": "United States Postal Service", "operator:short": "USPS", "operator:type": "public", "operator:wikidata": "Q668687", "ref": "6126500026"}, "type": "Feature"}
{"geometry": {"coordinates": [-90.506972346, 41.468695571], "type": "Point"}, "id": "lf5y66mSTgyF_WtIFE74ze5437Q=", "properties": {"@source_uri": "https://tools.usps.com/UspsToolsRestServices/rest/POLocator/findLocations", "@spider": "usps_collection_boxes", "addr:city": "MOLINE", "addr:country": "US", "addr:postcode": "61265", "addr:state": "IL", "addr:street_address": "4500 16TH ST", "amenity": "post_box", "collection_times": "Mo-Sa 10:00", "nsi_id": "unitedstatespostalservice-a77078", "operator": "United States Postal Service", "operator:short": "USPS", "operator:type": "public", "operator:wikidata": "Q668687", "ref": "6126500028"}, "type": "Feature"}
{"geometry": {"coordinates": [-90.4909355069, 41.4681194751], "type": "Point"}, "id": "gWreW340ECnwqiZVGVrdu-1BvkU=", "properties": {"@source_uri": "https://tools.usps.com/UspsToolsRestServices/rest/POLocator/findLocations", "@spider": "usps_collection_boxes", "addr:city": "MOLINE", "addr:country": "US", "addr:postcode": "61265", "addr:state": "IL", "addr:street_address": "4515 34TH ST", "amenity": "post_box", "collection_times": "Mo-Sa 12:45", "note": "ON 12/24 AND 12/31, THIS BOX MAY BE COLLECTED AS EARLY AS 12 NOON.", "nsi_id": "unitedstatespostalservice-a77078", "operator": "United States Postal Service", "operator:short": "USPS", "operator:type": "public", "operator:wikidata": "Q668687", "ref": "6126500029"}, "type": "Feature"}
{"geometry": {"coordinates": [-90.474524193, 41.469197506], "type": "Point"}, "id": "akZIxeleRdCrDIyC_Jci5V0Ahco=", "properties": {"@source_uri": "https://tools.usps.com/UspsToolsRestServices/rest/POLocator/findLocations", "@spider": "usps_collection_boxes", "addr:city": "MOLINE", "addr:country": "US", "addr:postcode": "61265", "addr:state": "IL", "addr:street_address": "4300 44TH AVE", "amenity": "post_box", "collection_times": "Mo-Sa 10:00", "nsi_id": "unitedstatespostalservice-a77078", "operator": "United States Postal Service", "operator:short": "USPS", "operator:type": "public", "operator:wikidata": "Q668687", "ref": "6126500030"}, "type": "Feature"}
{"geometry": {"coordinates": [-90.457016644, 41.477543612], "type": "Point"}, "id": "DEKIsGJ13D-glqyVsCSYQMpYJ3Q=", "properties": {"@source_uri": "https://tools.usps.com/UspsToolsRestServices/rest/POLocator/findLocations", "@spider": "usps_collection_boxes", "addr:city": "MOLINE", "addr:country": "US", "addr:postcode": "61265", "addr:state": "IL", "addr:street_address": "3411 60TH ST", "amenity": "post_box", "collection_times": "Mo-Sa 13:00", "note": "ON 12/24 AND 12/31, THIS BOX MAY BE COLLECTED AS EARLY AS 12 NOON.", "nsi_id": "unitedstatespostalservice-a77078", "operator": "United States Postal Service", "operator:short": "USPS", "operator:type": "public", "operator:wikidata": "Q668687", "ref": "6126500035"}, "type": "Feature"}
{"geometry": {"coordinates": [-90.480215618, 41.490225717], "type": "Point"}, "id": "BmF5rafbTCB2oJAl3PJNbl5TQsM=", "properties": {"@source_uri": "https://tools.usps.com/UspsToolsRestServices/rest/POLocator/findLocations", "@spider": "usps_collection_boxes", "addr:city": "MOLINE", "addr:country": "US", "addr:postcode": "61265", "addr:state": "IL", "addr:street_address": "4000 AVENUE OF THE CITIES", "amenity": "post_box", "collection_times": "Mo-Fr 17:00", "note": "ON 12/24 AND 12/31, THIS BOX MAY BE COLLECTED AS EARLY AS 12 NOON.", "nsi_id": "unitedstatespostalservice-a77078", "operator": "United States Postal Service", "operator:short": "USPS", "operator:type": "public", "operator:wikidata": "Q668687", "ref": "6126500043"}, "type": "Feature"}
{"geometry": {"coordinates": [-90.504414, 41.511260517], "type": "Point"}, "id": "xCET1PbFEhrxxJwIM17svEpgVqc=", "properties": {"@source_uri": "https://tools.usps.com/UspsToolsRestServices/rest/POLocator/findLocations", "@spider": "usps_collection_boxes", "addr:city": "MOLINE", "addr:country": "US", "addr:postcode": "61265", "addr:state": "IL", "addr:street_address": "2350 4TH AVE", "amenity": "post_box", "collection_times": "Mo-Sa 14:30", "note": "ON 12/24 AND 12/31, THIS BOX MAY BE COLLECTED AS EARLY AS 12 NOON.", "nsi_id": "unitedstatespostalservice-a77078", "operator": "United States Postal Service", "operator:short": "USPS", "operator:type": "public", "operator:wikidata": "Q668687", "ref": "6126500046"}, "type": "Feature"}
{"geometry": {"coordinates": [-90.513194195, 41.50649439], "type": "Point"}, "id": "B6ZpO-Ny3kRRJhqUdVcPBKVk4Og=", "properties": {"@source_uri": "https://tools.usps.com/UspsToolsRestServices/rest/POLocator/findLocations", "@spider": "usps_collection_boxes", "addr:city": "MOLINE", "addr:country": "US", "addr:postcode": "61265", "addr:state": "IL", "addr:street_address": "514 17TH ST", "amenity": "post_box", "collection_times": "Mo-Sa 17:30", "note": "ON 12/24 AND 12/31, THIS BOX MAY BE COLLECTED AS EARLY AS 12 NOON.", "nsi_id": "unitedstatespostalservice-a77078", "operator": "United States Postal Service", "operator:short": "USPS", "operator:type": "public", "operator:wikidata": "Q668687", "ref": "6126500050"}, "type": "Feature"}
{"geometry": {"coordinates": [-90.513194195, 41.50649439], "type": "Point"}, "id": "7VWmD-7pk_8Azv3KIJCsobHktJg=", "properties": {"@source_uri": "https://tools.usps.com/UspsToolsRestServices/rest/POLocator/findLocations", "@spider": "usps_collection_boxes", "addr:city": "MOLINE", "addr:country": "US", "addr:postcode": "61265", "addr:state": "IL", "addr:street_address": "514 17TH ST", "amenity": "post_box", "collection_times": "Mo-Sa 17:30", "indoor": "yes", "note": "ON 12/24 AND 12/31, THIS BOX MAY BE COLLECTED AS EARLY AS 12 NOON.", "nsi_id": "unitedstatespostalservice-a77078", "operator": "United States Postal Service", "operator:short": "USPS", "operator:type": "public", "operator:wikidata": "Q668687", "ref": "6126500060"}, "type": "Feature"}
{"geometry": {"coordinates": [-90.480015031, 41.469098543], "type": "Point"}, "id": "YH6MBS0bARWoe5u7_xp5zObjjPY=", "properties": {"@source_uri": "https://tools.usps.com/UspsToolsRestServices/rest/POLocator/findLocations", "@spider": "usps_collection_boxes", "addr:city": "MOLINE", "addr:country": "US", "addr:postcode": "61265", "addr:state": "IL", "addr:street_address": "3930 44TH AVENUE DR", "amenity": "post_box", "collection_times": "Mo-Sa 09:30", "nsi_id": "unitedstatespostalservice-a77078", "operator": "United States Postal Service", "operator:short": "USPS", "operator:type": "public", "operator:wikidata": "Q668687", "ref": "6126500062"}, "type": "Feature"}
{"geometry": {"coordinates": [-90.51778, 41.499365], "type": "Point"}, "id": "cD9xM4QYPu1_xJ3Cj3l4WZlAHWo=", "properties": {"@source_uri": "https://tools.usps.com/UspsToolsRestServices/rest/POLocator/findLocations", "@spider": "usps_collection_boxes", "addr:city": "MOLINE", "addr:country": "US", "addr:postcode": "61265", "addr:state": "IL", "addr:street_address": "514 17TH ST", "amenity": "post_box", "collection_times": "Mo-Sa 17:30", "note": "ON 12/24 AND 12/31, THIS BOX MAY BE COLLECTED AS EARLY AS 12 NOON.", "nsi_id": "unitedstatespostalservice-a77078", "operator": "United States Postal Service", "operator:short": "USPS", "operator:type": "public", "operator:wikidata": "Q668687", "ref": "6126500066"}, "type": "Feature"}
{"geometry": {"coordinates": [-90.513194195, 41.50649439], "type": "Point"}, "id": "qaswmZd0Xsy0nLKEwH8n0WhAjJY=", "properties": {"@source_uri": "https://tools.usps.com/UspsToolsRestServices/rest/POLocator/findLocations", "@spider": "usps_collection_boxes", "addr:city": "MOLINE", "addr:country": "US", "addr:postcode": "61265", "addr:state": "IL", "addr:street_address": "514 17TH ST", "amenity": "post_box", "collection_times": "Mo-Fr 17:00; Sa 12:00", "indoor": "yes", "note": "ON 12/24 AND 12/31, THIS BOX MAY BE COLLECTED AS EARLY AS 12 NOON.", "nsi_id": "unitedstatespostalservice-a77078", "operator": "United States Postal Service", "operator:short": "USPS", "operator:type": "public", "operator:wikidata": "Q668687", "ref": "6126500075"}, "type": "Feature"}
{"geometry": {"coordinates": [-89.968892428, 41.810023706], "type": "Point"}, "id": "me4ZffCWiL9xMm1SybuLJEKEO68=", "properties": {"@source_uri": "https://tools.usps.com/UspsToolsRestServices/rest/POLocator/findLocations", "@spider": "usps_collection_boxes", "addr:city": "MORRISON", "addr:country": "US", "addr:postcode": "61270", "addr:state": "IL", "addr:street_address": "226 W MAIN ST", "amenity": "post_box", "collection_times": "Mo-Fr 16:30; Sa 16:00", "note": "ON 12/24 AND 12/31, THIS BOX MAY BE COLLECTED AS EARLY AS 12 NOON.", "nsi_id": "unitedstatespostalservice-a77078", "operator": "United States Postal Service", "operator:short": "USPS", "operator:type": "public", "operator:wikidata": "Q668687", "ref": "6127000003"}, "type": "Feature"}
{"geometry": {"coordinates": [-89.968892428, 41.810023706], "type": "Point"}, "id": "FcdorcgKWRS9M-sqoTAK3GjQV-E=", "properties": {"@source_uri": "https://tools.usps.com/UspsToolsRestServices/rest/POLocator/findLocations", "@spider": "usps_collection_boxes", "addr:city": "MORRISON", "addr:country": "US", "addr:postcode": "61270", "addr:state": "IL", "addr:street_address": "226 W MAIN ST", "amenity": "post_box", "collection_times": "Mo-Fr 16:30; Sa 16:00", "indoor": "yes", "note": "ON 12/24 AND 12/31, THIS BOX MAY BE COLLECTED AS EARLY AS 12 NOON.", "nsi_id": "unitedstatespostalservice-a77078", "operator": "United States Postal Service", "operator:short": "USPS", "operator:type": "public", "operator:wikidata": "Q668687", "ref": "6127000005"}, "type": "Feature"}
{"geometry": {"coordinates": [-89.968892428, 41.810023706], "type": "Point"}, "id": "VqPKqdWRSgZk_rq42szdY2q5HXU=", "properties": {"@source_uri": "https://tools.usps.com/UspsToolsRestServices/rest/POLocator/findLocations", "@spider": "usps_collection_boxes", "addr:city": "MORRISON", "addr:country": "US", "addr:postcode": "61270", "addr:state": "IL", "addr:street_address": "226 W MAIN ST", "amenity": "post_box", "collection_times": "Mo-Fr 16:30; Sa 12:00", "indoor": "yes", "note": "ON 12/24 AND 12/31, THIS BOX MAY BE COLLECTED AS EARLY AS 12 NOON.", "nsi_id": "unitedstatespostalservice-a77078", "operator": "United States Postal Service", "operator:short": "USPS", "operator:type": "public", "operator:wikidata": "Q668687", "ref": "6127000007"}, "type": "Feature"}
{"geometry": {"coordinates": [-90.381489079, 41.354126581], "type": "Point"}, "id": "Q7Eu46Qb-7-wgofoI5w2mxhLrio=", "properties": {"@source_uri": "https://tools.usps.com/UspsToolsRestServices/rest/POLocator/findLocations", "@spider": "usps_collection_boxes", "addr:city": "ORION", "addr:country": "US", "addr:postcode": "61273", "addr:state": "IL", "addr:street_address": "1012 4TH ST", "amenity": "post_box", "collection_times": "Mo-Sa 16:45", "note": "ON 12/24 AND 12/31, THIS BOX MAY BE COLLECTED AS EARLY AS 12 NOON.", "nsi_id": "unitedstatespostalservice-a77078", "operator": "United States Postal Service", "operator:short": "USPS", "operator:type": "public", "operator:wikidata": "Q668687", "ref": "6127300000"}, "type": "Feature"}
{"geometry": {"coordinates": [-90.381489079, 41.354126581], "type": "Point"}, "id": "2kNWlhUdbGcDO2aWPP0AMPRgXF8=", "properties": {"@source_uri": "https://tools.usps.com/UspsToolsRestServices/rest/POLocator/findLocations", "@spider": "usps_collection_boxes", "addr:city": "ORION", "addr:country": "US", "addr:postcode": "61273", "addr:state": "IL", "addr:street_address": "1012 4TH ST", "amenity": "post_box", "collection_times": "Mo-Fr 16:45; Sa 11:00", "indoor": "yes", "note": "ON 12/24 AND 12/31, THIS BOX MAY BE COLLECTED AS EARLY AS 12 NOON.", "nsi_id": "unitedstatespostalservice-a77078", "operator": "United States Postal Service", "operator:short": "USPS", "operator:type": "public", "operator:wikidata": "Q668687", "ref": "6127300001"}, "type": "Feature"}
{"geometry": {"coordinates": [-90.381489079, 41.354126581], "type": "Point"}, "id": "Icx1ZYgnP9OYMNsJzUpXEKRaM4M=", "properties": {"@source_uri": "https://tools.usps.com/UspsToolsRestServices/rest/POLocator/findLocations", "@spider": "usps_collection_boxes", "addr:city": "ORION", "addr:country": "US", "addr:postcode": "61273", "addr:state": "IL", "addr:street_address": "1012 4TH ST", "amenity": "post_box", "collection_times": "Mo-Fr 17:00; Sa 11:00", "indoor": "yes", "note": "ON 12/24 AND 12/31, THIS BOX MAY BE COLLECTED AS EARLY AS 12 NOON.", "nsi_id": "unitedstatespostalservice-a77078", "operator": "United States Postal Service", "operator:short": "USPS", "operator:type": "public", "operator:wikidata": "Q668687", "ref": "6127300002"}, "type": "Feature"}
{"geometry": {"coordinates": [-90.281559758, 41.347831125], "type": "Point"}, "id": "DJhtxbhbQ72TrAte3qZ0iyxrizE=", "properties": {"@source_uri": "https://tools.usps.com/UspsToolsRestServices/rest/POLocator/findLocations", "@spider": "usps_collection_boxes", "addr:city": "OSCO", "addr:country": "US", "addr:postcode": "61274", "addr:state": "IL", "addr:street_address": "203 N RAILROAD ST", "amenity": "post_box", "collection_times": "Mo-Sa 16:00", "note": "ON 12/24 AND 12/31, THIS BOX MAY BE COLLECTED AS EARLY AS 12 NOON.", "nsi_id": "unitedstatespostalservice-a77078", "operator": "United States Postal Service", "operator:short": "USPS", "operator:type": "public", "operator:wikidata": "Q668687", "ref": "6127400000"}, "type": "Feature"}
{"geometry": {"coordinates": [-90.281559758, 41.347831125], "type": "Point"}, "id": "gnurXua4ATpy2OSzZf5bkmVRgjU=", "properties": {"@source_uri": "https://tools.usps.com/UspsToolsRestServices/rest/POLocator/findLocations", "@spider": "usps_collection_boxes", "addr:city": "OSCO", "addr:country": "US", "addr:postcode": "61274", "addr:state": "IL", "addr:street_address": "203 N RAILROAD ST", "amenity": "post_box", "collection_times": "Mo-Fr 11:45", "indoor": "yes", "nsi_id": "unitedstatespostalservice-a77078", "operator": "United States Postal Service", "operator:short": "USPS", "operator:type": "public", "operator:wikidata": "Q668687", "ref": "6127400001"}, "type": "Feature"}
{"geometry": {"coordinates": [-90.281559758, 41.347831125], "type": "Point"}, "id": "t0JbleaFZfwBE00Fz5i9n5Fp3Ts=", "properties": {"@source_uri": "https://tools.usps.com/UspsToolsRestServices/rest/POLocator/findLocations", "@spider": "usps_collection_boxes", "addr:city": "OSCO", "addr:country": "US", "addr:postcode": "61274", "addr:state": "IL", "addr:street_address": "203 N RAILROAD ST", "amenity": "post_box", "collection_times": "Mo-Fr 12:00; Sa 09:30", "indoor": "yes", "nsi_id": "unitedstatespostalservice-a77078", "operator": "United States Postal Service", "operator:short": "USPS", "operator:type": "public", "operator:wikidata": "Q668687", "ref": "6127400002"}, "type": "Feature"}
{"geometry": {"coordinates": [-90.33575378, 41.608507507], "type": "Point"}, "id": "5iLXchAV4Fgx1hZuoauz-f7k7UE=", "properties": {"@source_uri": "https://tools.usps.com/UspsToolsRestServices/rest/POLocator/findLocations", "@spider": "usps_collection_boxes", "addr:city": "PORT BYRON", "addr:country": "US", "addr:postcode": "61275", "addr:state": "IL", "addr:street_address": "105 HICKORY ST", "amenity": "post_box", "collection_times": "Mo-Sa 16:00", "note": "ON 12/24 AND 12/31, THIS BOX MAY BE COLLECTED AS EARLY AS 12 NOON.", "nsi_id": "unitedstatespostalservice-a77078", "operator": "United States Postal Service", "operator:short": "USPS", "operator:type": "public", "operator:wikidata": "Q668687", "ref": "6127500000"}, "type": "Feature"}
{"geometry": {"coordinates": [-90.319764192, 41.547901919], "type": "Point"}, "id": "3MaMvX9L20hNqbYxpYBcePKZYBI=", "properties": {"@source_uri": "https://tools.usps.com/UspsToolsRestServices/rest/POLocator/findLocations", "@spider": "usps_collection_boxes", "addr:city": "PORT BYRON", "addr:country": "US", "addr:postcode": "61275", "addr:state": "IL", "addr:street_address": "2507 214TH ST N", "amenity": "post_box", "collection_times": "Mo-Sa 10:30", "nsi_id": "unitedstatespostalservice-a77078", "operator": "United States Postal Service", "operator:short": "USPS", "operator:type": "public", "operator:wikidata": "Q668687", "ref": "6127500001"}, "type": "Feature"}
{"geometry": {"coordinates": [-90.33575378, 41.608507507], "type": "Point"}, "id": "6S-SiP13M9EjF3ZCLQcwOw-m6VA=", "properties": {"@source_uri": "https://tools.usps.com/UspsToolsRestServices/rest/POLocator/findLocations", "@spider": "usps_collection_boxes", "addr:city": "PORT BYRON", "addr:country": "US", "addr:postcode": "61275", "addr:state": "IL", "addr:street_address": "105 HICKORY ST", "amenity": "post_box", "collection_times": "Mo-Fr 16:00", "indoor": "yes", "note": "ON 12/24 AND 12/31, THIS BOX MAY BE COLLECTED AS EARLY AS 12 NOON.", "nsi_id": "unitedstatespostalservice-a77078", "operator": "United States Postal Service", "operator:short": "USPS", "operator:type": "public", "operator:wikidata": "Q668687", "ref": "6127500002"}, "type": "Feature"}
{"geometry": {"coordinates": [-90.33575378, 41.608507507], "type": "Point"}, "id": "eWLhWkj4rDEmmUKBUTwPs-61fwk=", "properties": {"@source_uri": "https://tools.usps.com/UspsToolsRestServices/rest/POLocator/findLocations", "@spider": "usps_collection_boxes", "addr:city": "PORT BYRON", "addr:country": "US", "addr:postcode": "61275", "addr:state": "IL", "addr:street_address": "105 HICKORY ST", "amenity": "post_box", "collection_times": "Mo-Fr 16:30", "indoor": "yes", "note": "ON 12/24 AND 12/31, THIS BOX MAY BE COLLECTED AS EARLY AS 12 NOON.", "nsi_id": "unitedstatespostalservice-a77078", "operator": "United States Postal Service", "operator:short": "USPS", "operator:type": "public", "operator:wikidata": "Q668687", "ref": "6127500003"}, "type": "Feature"}
{"geometry": {"coordinates": [-90.584599676, 41.312553706], "type": "Point"}, "id": "rf-rBCwZqKy6oKt28BLPNZksL8c=", "properties": {"@source_uri": "https://tools.usps.com/UspsToolsRestServices/rest/POLocator/findLocations", "@spider": "usps_collection_boxes", "addr:city": "PREEMPTION", "addr:country": "US", "addr:postcode": "61276", "addr:state": "IL", "addr:street_address": "1699 US HIGHWAY 67", "amenity": "post_box", "collection_times": "Mo-Sa 16:45", "note": "ON 12/24 AND 12/31, THIS BOX MAY BE COLLECTED AS EARLY AS 12 NOON.", "nsi_id": "unitedstatespostalservice-a77078", "operator": "United States Postal Service", "operator:short": "USPS", "operator:type": "public", "operator:wikidata": "Q668687", "ref": "6127600000"}, "type": "Feature"}
{"geometry": {"coordinates": [-90.584599676, 41.312553706], "type": "Point"}, "id": "3xtSGEELhK8Izf14wyuvVbNNY4k=", "properties": {"@source_uri": "https://tools.usps.com/UspsToolsRestServices/rest/POLocator/findLocations", "@spider": "usps_collection_boxes", "addr:city": "PREEMPTION", "addr:country": "US", "addr:postcode": "61276", "addr:state": "IL", "addr:street_address": "1699 US HIGHWAY 67", "amenity": "post_box", "collection_times": "Mo-Fr 11:45", "indoor": "yes", "nsi_id": "unitedstatespostalservice-a77078", "operator": "United States Postal Service", "operator:short": "USPS", "operator:type": "public", "operator:wikidata": "Q668687", "ref": "6127600001"}, "type": "Feature"}
{"geometry": {"coordinates": [-90.584599676, 41.312553706], "type": "Point"}, "id": "y3IqjENRzCMtHdHBkmMhtIn1Bpw=", "properties": {"@source_uri": "https://tools.usps.com/UspsToolsRestServices/rest/POLocator/findLocations", "@spider": "usps_collection_boxes", "addr:city": "PREEMPTION", "addr:country": "US", "addr:postcode": "61276", "addr:state": "IL", "addr:street_address": "1699 US HIGHWAY 67", "amenity": "post_box", "collection_times": "Mo-Fr 12:00; Sa 10:00", "indoor": "yes", "nsi_id": "unitedstatespostalservice-a77078", "operator": "United States Postal Service", "operator:short": "USPS", "operator:type": "public", "operator:wikidata": "Q668687", "ref": "6127600002"}, "type": "Feature"}
{"geometry": {"coordinates": [-89.936200988, 41.670553055], "type": "Point"}, "id": "0ktQy8dAcZt98e9hhJWpr71h74c=", "properties": {"@source_uri": "https://tools.usps.com/UspsToolsRestServices/rest/POLocator/findLocations", "@spider": "usps_collection_boxes", "addr:city": "PROPHETSTOWN", "addr:country": "US", "addr:postcode": "61277", "addr:state": "IL", "addr:street_address": "313 WASHINGTON ST", "amenity": "post_box", "collection_times": "Mo-Sa 16:00", "note": "ON 12/24 AND 12/31, THIS BOX MAY BE COLLECTED AS EARLY AS 12 NOON.", "nsi_id": "unitedstatespostalservice-a77078", "operator": "United States Postal Service", "operator:short": "USPS", "operator:type": "public", "operator:wikidata": "Q668687", "ref": "6127700000"}, "type": "Feature"}
{"geometry": {"coordinates": [-89.936200988, 41.670553055], "type": "Point"}, "id": "psdWpWxsyJ6y6Klrh8cIYhfMhGM=", "properties": {"@source_uri": "https://tools.usps.com/UspsToolsRestServices/rest/POLocator/findLocations", "@spider": "usps_collection_boxes", "addr:city": "PROPHETSTOWN", "addr:country": "US", "addr:postcode": "61277", "addr:state": "IL", "addr:street_address": "313 WASHINGTON ST", "amenity": "post_box", "collection_times": "Mo-Fr 16:00; Sa 12:00", "indoor": "yes", "note": "ON 12/24 AND 12/31, THIS BOX MAY BE COLLECTED AS EARLY AS 12 NOON.", "nsi_id": "unitedstatespostalservice-a77078", "operator": "United States Postal Service", "operator:short": "USPS", "operator:type": "public", "operator:wikidata": "Q668687", "ref": "6127700001"}, "type": "Feature"}
{"geometry": {"coordinates": [-89.936200988, 41.670553055], "type": "Point"}, "id": "9Nlm78w3NpAVvBubmDh8r0Gb5Y8=", "properties": {"@source_uri": "https://tools.usps.com/UspsToolsRestServices/rest/POLocator/findLocations", "@spider": "usps_collection_boxes", "addr:city": "PROPHETSTOWN", "addr:country": "US", "addr:postcode": "61277", "addr:state": "IL", "addr:street_address": "313 WASHINGTON ST", "amenity": "post_box", "collection_times": "Mo-Fr 16:00; Sa 12:00", "indoor": "yes", "note": "ON 12/24 AND 12/31, THIS BOX MAY BE COLLECTED AS EARLY AS 12 NOON.", "nsi_id": "unitedstatespostalservice-a77078", "operator": "United States Postal Service", "operator:short": "USPS", "operator:type": "public", "operator:wikidata": "Q668687", "ref": "6127700002"}, "type": "Feature"}
{"geometry": {"coordinates": [-90.344875766, 41.58166083], "type": "Point"}, "id": "S_W4vJKsir35jv2wbDhxcDW21j4=", "properties": {"@source_uri": "https://tools.usps.com/UspsToolsRestServices/rest/POLocator/findLocations", "@spider": "usps_collection_boxes", "addr:city": "RAPIDS CITY", "addr:country": "US", "addr:postcode": "61278", "addr:state": "IL", "addr:street_address": "135 13TH ST", "amenity": "post_box", "collection_times": "Mo-Sa 16:30", "note": "ON 12/24 AND 12/31, THIS BOX MAY BE COLLECTED AS EARLY AS 12 NOON.", "nsi_id": "unitedstatespostalservice-a77078", "operator": "United States Postal Service", "operator:short": "USPS", "operator:type": "public", "operator:wikidata": "Q668687", "ref": "6127800000"}, "type": "Feature"}
{"geometry": {"coordinates": [-90.344875766, 41.58166083], "type": "Point"}, "id": "FodMR5QhZII8JZM9_kCYkDXadAc=", "properties": {"@source_uri": "https://tools.usps.com/UspsToolsRestServices/rest/POLocator/findLocations", "@spider": "usps_collection_boxes", "addr:city": "RAPIDS CITY", "addr:country": "US", "addr:postcode": "61278", "addr:state": "IL", "addr:street_address": "135 13TH ST", "amenity": "post_box", "collection_times": "Mo-Fr 16:30; Sa 10:30", "indoor": "yes", "note": "ON 12/24 AND 12/31, THIS BOX MAY BE COLLECTED AS EARLY AS 12 NOON.", "nsi_id": "unitedstatespostalservice-a77078", "operator": "United States Postal Service", "operator:short": "USPS", "operator:type": "public", "operator:wikidata": "Q668687", "ref": "6127800001"}, "type": "Feature"}
{"geometry": {"coordinates": [-90.344875766, 41.58166083], "type": "Point"}, "id": "NDJYcQLbF719bsnLUOd08wrXPB4=", "properties": {"@source_uri": "https://tools.usps.com/UspsToolsRestServices/rest/POLocator/findLocations", "@spider": "usps_collection_boxes", "addr:city": "RAPIDS CITY", "addr:country": "US", "addr:postcode": "61278", "addr:state": "IL", "addr:street_address": "135 13TH ST", "amenity": "post_box", "collection_times": "Mo-Fr 16:30; Sa 10:30", "indoor": "yes", "note": "ON 12/24 AND 12/31, THIS BOX MAY BE COLLECTED AS EARLY AS 12 NOON.", "nsi_id": "unitedstatespostalservice-a77078", "operator": "United States Postal Service", "operator:short": "USPS", "operator:type": "public", "operator:wikidata": "Q668687", "ref": "6127800002"}, "type": "Feature"}
{"geometry": {"coordinates": [-90.668011064, 41.331193571], "type": "Point"}, "id": "TFTDpG4llKI9xC5mJI0JFTC0Wu0=", "properties": {"@source_uri": "https://tools.usps.com/UspsToolsRestServices/rest/POLocator/findLocations", "@spider": "usps_collection_boxes", "addr:city": "REYNOLDS", "addr:country": "US", "addr:postcode": "61279", "addr:state": "IL", "addr:street_address": "217 N MAIN ST", "amenity": "post_box", "collection_times": "Mo-Sa 16:00", "note": "ON 12/24 AND 12/31, THIS BOX MAY BE COLLECTED AS EARLY AS 12 NOON.", "nsi_id": "unitedstatespostalservice-a77078", "operator": "United States Postal Service", "operator:short": "USPS", "operator:type": "public", "operator:wikidata": "Q668687", "ref": "6127900000"}, "type": "Feature"}
{"geometry": {"coordinates": [-90.668011064, 41.331193571], "type": "Point"}, "id": "kswFmMUemlhQhYdu69W5_WdZlQw=", "properties": {"@source_uri": "https://tools.usps.com/UspsToolsRestServices/rest/POLocator/findLocations", "@spider": "usps_collection_boxes", "addr:city": "REYNOLDS", "addr:country": "US", "addr:postcode": "61279", "addr:state": "IL", "addr:street_address": "217 N MAIN ST", "amenity": "post_box", "collection_times": "Mo-Fr 10:45; Sa 08:15", "indoor": "yes", "nsi_id": "unitedstatespostalservice-a77078", "operator": "United States Postal Service", "operator:short": "USPS", "operator:type": "public", "operator:wikidata": "Q668687", "ref": "6127900001"}, "type": "Feature"}
{"geometry": {"coordinates": [-90.668011064, 41.331193571], "type": "Point"}, "id": "HHy4LkanvDGdGU4-F4_yzLbjNCY=", "properties": {"@source_uri": "https://tools.usps.com/UspsToolsRestServices/rest/POLocator/findLocations", "@spider": "usps_collection_boxes", "addr:city": "REYNOLDS", "addr:country": "US", "addr:postcode": "61279", "addr:state": "IL", "addr:street_address": "217 N MAIN ST", "amenity": "post_box", "collection_times": "Mo-Fr 11:00; Sa 08:30", "indoor": "yes", "nsi_id": "unitedstatespostalservice-a77078", "operator": "United States Postal Service", "operator:short": "USPS", "operator:type": "public", "operator:wikidata": "Q668687", "ref": "6127900002"}, "type": "Feature"}
{"geometry": {"coordinates": [-90.506302638, 41.318960503], "type": "Point"}, "id": "iNE7zfX1YMGSmajYjp-lzvPFOzE=", "properties": {"@source_uri": "https://tools.usps.com/UspsToolsRestServices/rest/POLocator/findLocations", "@spider": "usps_collection_boxes", "addr:city": "SHERRARD", "addr:country": "US", "addr:postcode": "61281", "addr:state": "IL", "addr:street_address": "402 3RD ST", "amenity": "post_box", "collection_times": "Mo-Sa 16:15", "note": "ON 12/24 AND 12/31, THIS BOX MAY BE COLLECTED AS EARLY AS 12 NOON.", "nsi_id": "unitedstatespostalservice-a77078", "operator": "United States Postal Service", "operator:short": "USPS", "operator:type": "public", "operator:wikidata": "Q668687", "ref": "6128100000"}, "type": "Feature"}
{"geometry": {"coordinates": [-90.506302638, 41.318960503], "type": "Point"}, "id": "Wc1cPPfuCW0Cz-WiAku8aQRir8g=", "properties": {"@source_uri": "https://tools.usps.com/UspsToolsRestServices/rest/POLocator/findLocations", "@spider": "usps_collection_boxes", "addr:city": "SHERRARD", "addr:country": "US", "addr:postcode": "61281", "addr:state": "IL", "addr:street_address": "402 3RD ST", "amenity": "post_box", "collection_times": "Mo-Fr 09:00", "indoor": "yes", "nsi_id": "unitedstatespostalservice-a77078", "operator": "United States Postal Service", "operator:short": "USPS", "operator:type": "public", "operator:wikidata": "Q668687", "ref": "6128100001"}, "type": "Feature"}
{"geometry": {"coordinates": [-90.506302638, 41.318960503], "type": "Point"}, "id": "6tm_VtHPA4zCx-5jZfyc6bG3gB8=", "properties": {"@source_uri": "https://tools.usps.com/UspsToolsRestServices/rest/POLocator/findLocations", "@spider": "usps_collection_boxes", "addr:city": "SHERRARD", "addr:country": "US", "addr:postcode": "61281", "addr:state": "IL", "addr:street_address": "402 3RD ST", "amenity": "post_box", "collection_times": "Mo-Fr 15:00; Sa 09:00", "indoor": "yes", "note": "ON 12/24 AND 12/31, THIS BOX MAY BE COLLECTED AS EARLY AS 12 NOON.", "nsi_id": "unitedstatespostalservice-a77078", "operator": "United States Postal Service", "operator:short": "USPS", "operator:type": "public", "operator:wikidata": "Q668687", "ref": "6128100002"}, "type": "Feature"}
{"geometry": {"coordinates": [-90.405689115, 41.494821359], "type": "Point"}, "id": "ZOT9wMliwoZF8WR7zFKzuMvxBoY=", "properties": {"@source_uri": "https://tools.usps.com/UspsToolsRestServices/rest/POLocator/findLocations", "@spider": "usps_collection_boxes", "addr:city": "EAST MOLINE", "addr:country": "US", "addr:postcode": "61282", "addr:state": "IL", "addr:street_address": "1312 JOHN DEERE EXPY", "amenity": "post_box", "collection_times": "Mo-Sa 11:00", "nsi_id": "unitedstatespostalservice-a77078", "operator": "United States Postal Service", "operator:short": "USPS", "operator:type": "public", "operator:wikidata": "Q668687", "ref": "6128200003"}, "type": "Feature"}
{"geometry": {"coordinates": [-90.424724304, 41.499819], "type": "Point"}, "id": "M8KM0nFzai2JUK1XQB4zCcKXz8I=", "properties": {"@source_uri": "https://tools.usps.com/UspsToolsRestServices/rest/POLocator/findLocations", "@spider": "usps_collection_boxes", "addr:city": "EAST MOLINE", "addr:country": "US", "addr:postcode": "61282", "addr:state": "IL", "addr:street_address": "1007 1ST ST", "amenity": "post_box", "collection_times": "Mo-Sa 11:00", "nsi_id": "unitedstatespostalservice-a77078", "operator": "United States Postal Service", "operator:short": "USPS", "operator:type": "public", "operator:wikidata": "Q668687", "ref": "6128200006"}, "type": "Feature"}
{"geometry": {"coordinates": [-90.424933294, 41.490423824], "type": "Point"}, "id": "1pEItqe1H4oFugXpkTrAGvz6JWk=", "properties": {"@source_uri": "https://tools.usps.com/UspsToolsRestServices/rest/POLocator/findLocations", "@spider": "usps_collection_boxes", "addr:city": "EAST MOLINE", "addr:country": "US", "addr:postcode": "61282", "addr:state": "IL", "addr:street_address": "2001 5TH ST", "amenity": "post_box", "collection_times": "Mo-Sa 12:30", "note": "ON 12/24 AND 12/31, THIS BOX MAY BE COLLECTED AS EARLY AS 12 NOON.", "nsi_id": "unitedstatespostalservice-a77078", "operator": "United States Postal Service", "operator:short": "USPS", "operator:type": "public", "operator:wikidata": "Q668687", "ref": "6128200016"}, "type": "Feature"}
{"geometry": {"coordinates": [-90.414277114, 41.51194114], "type": "Point"}, "id": "UDE2ZSRLbfhe5uAR79Suk-5anNM=", "properties": {"@source_uri": "https://tools.usps.com/UspsToolsRestServices/rest/POLocator/findLocations", "@spider": "usps_collection_boxes", "addr:city": "EAST MOLINE", "addr:country": "US", "addr:postcode": "61282", "addr:state": "IL", "addr:street_address": "1001 1ST AVE", "amenity": "post_box", "collection_times": "Mo-Sa 17:00", "note": "ON 12/24 AND 12/31, THIS BOX MAY BE COLLECTED AS EARLY AS 12 NOON.", "nsi_id": "unitedstatespostalservice-a77078", "operator": "United States Postal Service", "operator:short": "USPS", "operator:type": "public", "operator:wikidata": "Q668687", "ref": "6128200022"}, "type": "Feature"}
{"geometry": {"coordinates": [-90.418620807, 41.493126377], "type": "Point"}, "id": "MFpsBv4SJJ5xJnQclmkdcLZdsgI=", "properties": {"@source_uri": "https://tools.usps.com/UspsToolsRestServices/rest/POLocator/findLocations", "@spider": "usps_collection_boxes", "addr:city": "EAST MOLINE", "addr:country": "US", "addr:postcode": "61282", "addr:state": "IL", "addr:street_address": "801 ILLINI DR", "amenity": "post_box", "collection_times": "Mo-Sa 13:30", "note": "ON 12/24 AND 12/31, THIS BOX MAY BE COLLECTED AS EARLY AS 12 NOON.", "nsi_id": "unitedstatespostalservice-a77078", "operator": "United States Postal Service", "operator:short": "USPS", "operator:type": "public", "operator:wikidata": "Q668687", "ref": "6128200023"}, "type": "Feature"}
{"geometry": {"coordinates": [-90.414277114, 41.51194114], "type": "Point"}, "id": "NQbSJm5nnmxH88L3AxxCFWouBWE=", "properties": {"@source_uri": "https://tools.usps.com/UspsToolsRestServices/rest/POLocator/findLocations", "@spider": "usps_collection_boxes", "addr:city": "EAST MOLINE", "addr:country": "US", "addr:postcode": "61282", "addr:state": "IL", "addr:street_address": "1001 1ST AVE", "amenity": "post_box", "collection_times": "Mo-Fr 16:00; Sa 09:00", "indoor": "yes", "note": "ON 12/24 AND 12/31, THIS BOX MAY BE COLLECTED AS EARLY AS 12 NOON.", "nsi_id": "unitedstatespostalservice-a77078", "operator": "United States Postal Service", "operator:short": "USPS", "operator:type": "public", "operator:wikidata": "Q668687", "ref": "6128200024"}, "type": "Feature"}
{"geometry": {"coordinates": [-90.414277114, 41.51194114], "type": "Point"}, "id": "HTc6XkzOheW6EjGKCS3QmiGH1D0=", "properties": {"@source_uri": "https://tools.usps.com/UspsToolsRestServices/rest/POLocator/findLocations", "@spider": "usps_collection_boxes", "addr:city": "EAST MOLINE", "addr:country": "US", "addr:postcode": "61282", "addr:state": "IL", "addr:street_address": "1001 1ST AVE", "amenity": "post_box", "collection_times": "Mo-Fr 16:00; Sa 08:00", "indoor": "yes", "note": "ON 12/24 AND 12/31, THIS BOX MAY BE COLLECTED AS EARLY AS 12 NOON.", "nsi_id": "unitedstatespostalservice-a77078", "operator": "United States Postal Service", "operator:short": "USPS", "operator:type": "public", "operator:wikidata": "Q668687", "ref": "6128200026"}, "type": "Feature"}
{"geometry": {"coordinates": [-89.785994221, 41.63204678], "type": "Point"}, "id": "c7SFxGqDHjIey9hxtMhrSbnkAz8=", "properties": {"@source_uri": "https://tools.usps.com/UspsToolsRestServices/rest/POLocator/findLocations", "@spider": "usps_collection_boxes", "addr:city": "TAMPICO", "addr:country": "US", "addr:postcode": "61283", "addr:state": "IL", "addr:street_address": "113 N MAIN ST", "amenity": "post_box", "collection_times": "Mo-Fr 15:45; Sa 15:30", "note": "ON 12/24 AND 12/31, THIS BOX MAY BE COLLECTED AS EARLY AS 12 NOON.", "nsi_id": "unitedstatespostalservice-a77078", "operator": "United States Postal Service", "operator:short": "USPS", "operator:type": "public", "operator:wikidata": "Q668687", "ref": "6128300000"}, "type": "Feature"}
{"geometry": {"coordinates": [-89.785994221, 41.63204678], "type": "Point"}, "id": "eEFVantyfDOjBBRZ0I7oHcnE_cg=", "properties": {"@source_uri": "https://tools.usps.com/UspsToolsRestServices/rest/POLocator/findLocations", "@spider": "usps_collection_boxes", "addr:city": "TAMPICO", "addr:country": "US", "addr:postcode": "61283", "addr:state": "IL", "addr:street_address": "113 N MAIN ST", "amenity": "post_box", "collection_times": "Mo-Fr 15:45; Sa 09:45", "indoor": "yes", "note": "ON 12/24 AND 12/31, THIS BOX MAY BE COLLECTED AS EARLY AS 12 NOON.", "nsi_id": "unitedstatespostalservice-a77078", "operator": "United States Postal Service", "operator:short": "USPS", "operator:type": "public", "operator:wikidata": "Q668687", "ref": "6128300001"}, "type": "Feature"}
{"geometry": {"coordinates": [-89.785994221, 41.63204678], "type": "Point"}, "id": "9QopMzqr76qFn7nZSWs0-KyQyNo=", "properties": {"@source_uri": "https://tools.usps.com/UspsToolsRestServices/rest/POLocator/findLocations", "@spider": "usps_collection_boxes", "addr:city": "TAMPICO", "addr:country": "US", "addr:postcode": "61283", "addr:state": "IL", "addr:street_address": "113 N MAIN ST", "amenity": "post_box", "collection_times": "Mo-Fr 15:30; Sa 10:00", "indoor": "yes", "note": "ON 12/24 AND 12/31, THIS BOX MAY BE COLLECTED AS EARLY AS 12 NOON.", "nsi_id": "unitedstatespostalservice-a77078", "operator": "United States Postal Service", "operator:short": "USPS", "operator:type": "public", "operator:wikidata": "Q668687", "ref": "6128300002"}, "type": "Feature"}
{"geometry": {"coordinates": [-90.6677280137, 41.3866180141], "type": "Point"}, "id": "AQGEF3VH1PjzS4AKXgY0sVRIMxk=", "properties": {"@source_uri": "https://tools.usps.com/UspsToolsRestServices/rest/POLocator/findLocations", "@spider": "usps_collection_boxes", "addr:city": "TAYLOR RIDGE", "addr:country": "US", "addr:postcode": "61284", "addr:state": "IL", "addr:street_address": "6928 134TH AVE W", "amenity": "post_box", "collection_times": "Mo-Sa 16:45", "note": "ON 12/24 AND 12/31, THIS BOX MAY BE COLLECTED AS EARLY AS 12 NOON.", "nsi_id": "unitedstatespostalservice-a77078", "operator": "United States Postal Service", "operator:short": "USPS", "operator:type": "public", "operator:wikidata": "Q668687", "ref": "6128400000"}, "type": "Feature"}
{"geometry": {"coordinates": [-90.667799214, 41.386730543], "type": "Point"}, "id": "vu-xhvY13tDd0FbMZRwCYr0zJq0=", "properties": {"@source_uri": "https://tools.usps.com/UspsToolsRestServices/rest/POLocator/findLocations", "@spider": "usps_collection_boxes", "addr:city": "TAYLOR RIDGE", "addr:country": "US", "addr:postcode": "61284", "addr:state": "IL", "addr:street_address": "6928 134TH AVE W", "amenity": "post_box", "collection_times": "Mo-Fr 10:45; Sa 10:15", "indoor": "yes", "nsi_id": "unitedstatespostalservice-a77078", "operator": "United States Postal Service", "operator:short": "USPS", "operator:type": "public", "operator:wikidata": "Q668687", "ref": "6128400001"}, "type": "Feature"}
{"geometry": {"coordinates": [-90.763212526, 41.387013512], "type": "Point"}, "id": "K3nzGa3NS2S5OVq4HNWxP2qVba4=", "properties": {"@source_uri": "https://tools.usps.com/UspsToolsRestServices/rest/POLocator/findLocations", "@spider": "usps_collection_boxes", "addr:city": "TAYLOR RIDGE", "addr:country": "US", "addr:postcode": "61284", "addr:state": "IL", "addr:street_address": "13925 134TH AVE W", "amenity": "post_box", "collection_times": "Mo-Sa 13:00", "note": "ON 12/24 AND 12/31, THIS BOX MAY BE COLLECTED AS EARLY AS 12 NOON.", "nsi_id": "unitedstatespostalservice-a77078", "operator": "United States Postal Service", "operator:short": "USPS", "operator:type": "public", "operator:wikidata": "Q668687", "ref": "6128400002"}, "type": "Feature"}
{"geometry": {"coordinates": [-90.667799214, 41.386730543], "type": "Point"}, "id": "-6WN2vfVBO9dCJTi679feTZeWkE=", "properties": {"@source_uri": "https://tools.usps.com/UspsToolsRestServices/rest/POLocator/findLocations", "@spider": "usps_collection_boxes", "addr:city": "TAYLOR RIDGE", "addr:country": "US", "addr:postcode": "61284", "addr:state": "IL", "addr:street_address": "6928 134TH AVE W", "amenity": "post_box", "collection_times": "Mo-Fr 11:00; Sa 10:30", "indoor": "yes", "nsi_id": "unitedstatespostalservice-a77078", "operator": "United States Postal Service", "operator:short": "USPS", "operator:type": "public", "operator:wikidata": "Q668687", "ref": "6128400003"}, "type": "Feature"}
{"geometry": {"coordinates": [-90.098549298, 41.958847521], "type": "Point"}, "id": "xOir_0ri3hXj3HILtO5F2EVP5uY=", "properties": {"@source_uri": "https://tools.usps.com/UspsToolsRestServices/rest/POLocator/findLocations", "@spider": "usps_collection_boxes", "addr:city": "THOMSON", "addr:country": "US", "addr:postcode": "61285", "addr:state": "IL", "addr:street_address": "705 ARGO FAY RTE", "amenity": "post_box", "collection_times": "Mo-Fr 12:45; Sa 10:15", "note": "ON 12/24 AND 12/31, THIS BOX MAY BE COLLECTED AS EARLY AS 12 NOON.", "nsi_id": "unitedstatespostalservice-a77078", "operator": "United States Postal Service", "operator:short": "USPS", "operator:type": "public", "operator:wikidata": "Q668687", "ref": "6128500000"}, "type": "Feature"}
{"geometry": {"coordinates": [-90.098549298, 41.958847521], "type": "Point"}, "id": "KemmNy74gbF0Mn24Pzvmn5JeVy4=", "properties": {"@source_uri": "https://tools.usps.com/UspsToolsRestServices/rest/POLocator/findLocations", "@spider": "usps_collection_boxes", "addr:city": "THOMSON", "addr:country": "US", "addr:postcode": "61285", "addr:state": "IL", "addr:street_address": "705 ARGO FAY RTE", "amenity": "post_box", "collection_times": "Mo-Fr 12:45; Sa 10:15", "indoor": "yes", "note": "ON 12/24 AND 12/31, THIS BOX MAY BE COLLECTED AS EARLY AS 12 NOON.", "nsi_id": "unitedstatespostalservice-a77078", "operator": "United States Postal Service", "operator:short": "USPS", "operator:type": "public", "operator:wikidata": "Q668687", "ref": "6128500001"}, "type": "Feature"}
{"geometry": {"coordinates": [-90.098549298, 41.958847521], "type": "Point"}, "id": "IBfdrSFT8zPw-3www3GzsMGiDAw=", "properties": {"@source_uri": "https://tools.usps.com/UspsToolsRestServices/rest/POLocator/findLocations", "@spider": "usps_collection_boxes", "addr:city": "THOMSON", "addr:country": "US", "addr:postcode": "61285", "addr:state": "IL", "addr:street_address": "705 ARGO FAY RTE", "amenity": "post_box", "collection_times": "Mo-Fr 13:00; Sa 10:30", "indoor": "yes", "note": "ON 12/24 AND 12/31, THIS BOX MAY BE COLLECTED AS EARLY AS 12 NOON.", "nsi_id": "unitedstatespostalservice-a77078", "operator": "United States Postal Service", "operator:short": "USPS", "operator:type": "public", "operator:wikidata": "Q668687", "ref": "6128500002"}, "type": "Feature"}
