{"geometry": {"coordinates": [-89.105970123, 41.353122368], "type": "Point"}, "id": "T8huuZKIcu8S936AZCnnZ-ENev4=", "properties": {"@source_uri": "https://tools.usps.com/UspsToolsRestServices/rest/POLocator/findLocations", "@spider": "usps_collection_boxes", "addr:city": "LA SALLE", "addr:country": "US", "addr:postcode": "61301", "addr:state": "IL", "addr:street_address": "2950 CHARTRES ST", "amenity": "post_box", "collection_times": "Mo-Fr 17:00; Sa 16:45", "note": "ON 12/24 AND 12/31, THIS BOX MAY BE COLLECTED AS EARLY AS 12 NOON.", "nsi_id": "unitedstatespostalservice-a77078", "operator": "United States Postal Service", "operator:short": "USPS", "operator:type": "public", "operator:wikidata": "Q668687", "ref": "6130100000"}, "type": "Feature"}
{"geometry": {"coordinates": [-89.0959068, 41.327983], "type": "Point"}, "id": "Awrl1xklArz-p11WXbJ0rip58o4=", "properties": {"@source_uri": "https://tools.usps.com/UspsToolsRestServices/rest/POLocator/findLocations", "@spider": "usps_collection_boxes", "addr:city": "LA SALLE", "addr:country": "US", "addr:postcode": "61301", "addr:state": "IL", "addr:street_address": "654 1ST ST", "amenity": "post_box", "collection_times": "Mo-Sa 16:15", "note": "ON 12/24 AND 12/31, THIS BOX MAY BE COLLECTED AS EARLY AS 12 NOON.", "nsi_id": "unitedstatespostalservice-a77078", "operator": "United States Postal Service", "operator:short": "USPS", "operator:type": "public", "operator:wikidata": "Q668687", "ref": "6130100023"}, "type": "Feature"}
{"geometry": {"coordinates": [-89.099152591, 41.327860127], "type": "Point"}, "id": "zqItRLZvUsaiWTdsNjH8n4RYhsM=", "properties": {"@source_uri": "https://tools.usps.com/UspsToolsRestServices/rest/POLocator/findLocations", "@spider": "usps_collection_boxes", "addr:city": "LA SALLE", "addr:country": "US", "addr:postcode": "61301", "addr:state": "IL", "addr:street_address": "427 1ST ST", "amenity": "post_box", "collection_times": "Mo-Sa 16:30", "note": "ON 12/24 AND 12/31, THIS BOX MAY BE COLLECTED AS EARLY AS 12 NOON.", "nsi_id": "unitedstatespostalservice-a77078", "operator": "United States Postal Service", "operator:short": "USPS", "operator:type": "public", "operator:wikidata": "Q668687", "ref": "6130100026"}, "type": "Feature"}
{"geometry": {"coordinates": [-89.094664975, 41.329349453], "type": "Point"}, "id": "qoE6RTlMrh5ont1qFai2so_ojQg=", "properties": {"@source_uri": "https://tools.usps.com/UspsToolsRestServices/rest/POLocator/findLocations", "@spider": "usps_collection_boxes", "addr:city": "LA SALLE", "addr:country": "US", "addr:postcode": "61301", "addr:state": "IL", "addr:street_address": "745 2ND ST", "amenity": "post_box", "collection_times": "Mo-Fr 16:15; Sa 16:00", "note": "ON 12/24 AND 12/31, THIS BOX MAY BE COLLECTED AS EARLY AS 12 NOON.", "nsi_id": "unitedstatespostalservice-a77078", "operator": "United States Postal Service", "operator:short": "USPS", "operator:type": "public", "operator:wikidata": "Q668687", "ref": "6130100028"}, "type": "Feature"}
{"geometry": {"coordinates": [-89.105970123, 41.353122368], "type": "Point"}, "id": "Apr97uSvSQ-QZKwkRx6jYlV1im0=", "properties": {"@source_uri": "https://tools.usps.com/UspsToolsRestServices/rest/POLocator/findLocations", "@spider": "usps_collection_boxes", "addr:city": "LA SALLE", "addr:country": "US", "addr:postcode": "61301", "addr:state": "IL", "addr:street_address": "2950 CHARTRES ST", "amenity": "post_box", "collection_times": "Mo-Sa 17:00", "indoor": "yes", "note": "ON 12/24 AND 12/31, THIS BOX MAY BE COLLECTED AS EARLY AS 12 NOON.", "nsi_id": "unitedstatespostalservice-a77078", "operator": "United States Postal Service", "operator:short": "USPS", "operator:type": "public", "operator:wikidata": "Q668687", "ref": "6130100045"}, "type": "Feature"}
{"geometry": {"coordinates": [-89.0980566, 41.368796], "type": "Point"}, "id": "22pJulCi0zsGBLw0px75m9WCsMg=", "properties": {"@source_uri": "https://tools.usps.com/UspsToolsRestServices/rest/POLocator/findLocations", "@spider": "usps_collection_boxes", "addr:city": "LA SALLE", "addr:country": "US", "addr:postcode": "61301", "addr:state": "IL", "addr:street_address": "349 N 30TH RD", "amenity": "post_box", "collection_times": "Mo-Sa 15:30", "note": "ON 12/24 AND 12/31, THIS BOX MAY BE COLLECTED AS EARLY AS 12 NOON.", "nsi_id": "unitedstatespostalservice-a77078", "operator": "United States Postal Service", "operator:short": "USPS", "operator:type": "public", "operator:wikidata": "Q668687", "ref": "6130100046"}, "type": "Feature"}
{"geometry": {"coordinates": [-89.0994644, 41.329788], "type": "Point"}, "id": "wETmlqq9-DnsdRV8LL3OIl-qGFc=", "properties": {"@source_uri": "https://tools.usps.com/UspsToolsRestServices/rest/POLocator/findLocations", "@spider": "usps_collection_boxes", "addr:city": "LA SALLE", "addr:country": "US", "addr:postcode": "61301", "addr:state": "IL", "addr:street_address": "260 BUCKLIN ST", "amenity": "post_box", "collection_times": "Mo-Sa 16:30", "note": "ON 12/24 AND 12/31, THIS BOX MAY BE COLLECTED AS EARLY AS 12 NOON.", "nsi_id": "unitedstatespostalservice-a77078", "operator": "United States Postal Service", "operator:short": "USPS", "operator:type": "public", "operator:wikidata": "Q668687", "ref": "6130100048"}, "type": "Feature"}
{"geometry": {"coordinates": [-89.105970123, 41.353122368], "type": "Point"}, "id": "-MKmoVucZxceSn7hQ5ZcfQWUmo0=", "properties": {"@source_uri": "https://tools.usps.com/UspsToolsRestServices/rest/POLocator/findLocations", "@spider": "usps_collection_boxes", "addr:city": "LA SALLE", "addr:country": "US", "addr:postcode": "61301", "addr:state": "IL", "addr:street_address": "2950 CHARTRES ST", "amenity": "post_box", "collection_times": "Mo-Fr 17:00; Sa 12:00", "indoor": "yes", "note": "ON 12/24 AND 12/31, THIS BOX MAY BE COLLECTED AS EARLY AS 12 NOON.", "nsi_id": "unitedstatespostalservice-a77078", "operator": "United States Postal Service", "operator:short": "USPS", "operator:type": "public", "operator:wikidata": "Q668687", "ref": "6130100050"}, "type": "Feature"}
{"geometry": {"coordinates": [-89.099152591, 41.327860127], "type": "Point"}, "id": "Yv_JOYp_LPh-XxC3tsDqJpeGd-E=", "properties": {"@source_uri": "https://tools.usps.com/UspsToolsRestServices/rest/POLocator/findLocations", "@spider": "usps_collection_boxes", "addr:city": "LA SALLE", "addr:country": "US", "addr:postcode": "61301", "addr:state": "IL", "addr:street_address": "427 1ST ST", "amenity": "post_box", "collection_times": "Mo-Sa 16:45", "indoor": "yes", "note": "ON 12/24 AND 12/31, THIS BOX MAY BE COLLECTED AS EARLY AS 12 NOON.", "nsi_id": "unitedstatespostalservice-a77078", "operator": "United States Postal Service", "operator:short": "USPS", "operator:type": "public", "operator:wikidata": "Q668687", "ref": "6130100051"}, "type": "Feature"}
{"geometry": {"coordinates": [-89.330602626, 41.714889074], "type": "Point"}, "id": "Iu9eEMLQjEkUjBuWseKrwXe6Apg=", "properties": {"@source_uri": "https://tools.usps.com/UspsToolsRestServices/rest/POLocator/findLocations", "@spider": "usps_collection_boxes", "addr:city": "AMBOY", "addr:country": "US", "addr:postcode": "61310", "addr:state": "IL", "addr:street_address": "215 E DIVISION ST", "amenity": "post_box", "collection_times": "Mo-Fr 16:15; Sa 15:30", "indoor": "yes", "note": "ON 12/24 AND 12/31, THIS BOX MAY BE COLLECTED AS EARLY AS 12 NOON.", "nsi_id": "unitedstatespostalservice-a77078", "operator": "United States Postal Service", "operator:short": "USPS", "operator:type": "public", "operator:wikidata": "Q668687", "ref": "6131000006"}, "type": "Feature"}
{"geometry": {"coordinates": [-89.330602626, 41.714889074], "type": "Point"}, "id": "D3jJl49as5yuBSHTMeNt3J76AxE=", "properties": {"@source_uri": "https://tools.usps.com/UspsToolsRestServices/rest/POLocator/findLocations", "@spider": "usps_collection_boxes", "addr:city": "AMBOY", "addr:country": "US", "addr:postcode": "61310", "addr:state": "IL", "addr:street_address": "215 E DIVISION ST", "amenity": "post_box", "collection_times": "Mo-Fr 15:45; Sa 12:00", "note": "ON 12/24 AND 12/31, THIS BOX MAY BE COLLECTED AS EARLY AS 12 NOON.", "nsi_id": "unitedstatespostalservice-a77078", "operator": "United States Postal Service", "operator:short": "USPS", "operator:type": "public", "operator:wikidata": "Q668687", "ref": "6131000009"}, "type": "Feature"}
{"geometry": {"coordinates": [-89.330367, 41.713811], "type": "Point"}, "id": "8lY3z-X-uXuJ6VB9v-hljkk3BxU=", "properties": {"@source_uri": "https://tools.usps.com/UspsToolsRestServices/rest/POLocator/findLocations", "@spider": "usps_collection_boxes", "addr:city": "AMBOY", "addr:country": "US", "addr:postcode": "61310", "addr:state": "IL", "addr:street_address": "220 E MAIN ST", "amenity": "post_box", "collection_times": "Mo-Sa 14:30", "note": "ON 12/24 AND 12/31, THIS BOX MAY BE COLLECTED AS EARLY AS 12 NOON.", "nsi_id": "unitedstatespostalservice-a77078", "operator": "United States Postal Service", "operator:short": "USPS", "operator:type": "public", "operator:wikidata": "Q668687", "ref": "6131000011"}, "type": "Feature"}
{"geometry": {"coordinates": [-89.330602626, 41.714889074], "type": "Point"}, "id": "Uz6ZmBuHPLrGtcwM1qsWQjGoBKU=", "properties": {"@source_uri": "https://tools.usps.com/UspsToolsRestServices/rest/POLocator/findLocations", "@spider": "usps_collection_boxes", "addr:city": "AMBOY", "addr:country": "US", "addr:postcode": "61310", "addr:state": "IL", "addr:street_address": "215 E DIVISION ST", "amenity": "post_box", "collection_times": "Mo-Fr 16:15; Sa 12:00", "indoor": "yes", "note": "ON 12/24 AND 12/31, THIS BOX MAY BE COLLECTED AS EARLY AS 12 NOON.", "nsi_id": "unitedstatespostalservice-a77078", "operator": "United States Postal Service", "operator:short": "USPS", "operator:type": "public", "operator:wikidata": "Q668687", "ref": "6131000016"}, "type": "Feature"}
{"geometry": {"coordinates": [-89.247229639, 41.473490309], "type": "Point"}, "id": "PUdmI7WQkxilBs7ZmpmQ5_A9qUQ=", "properties": {"@source_uri": "https://tools.usps.com/UspsToolsRestServices/rest/POLocator/findLocations", "@spider": "usps_collection_boxes", "addr:city": "ARLINGTON", "addr:country": "US", "addr:postcode": "61312", "addr:state": "IL", "addr:street_address": "203 E RAILROAD AVE", "amenity": "post_box", "collection_times": "Mo-Fr 11:00; Sa 10:30", "nsi_id": "unitedstatespostalservice-a77078", "operator": "United States Postal Service", "operator:short": "USPS", "operator:type": "public", "operator:wikidata": "Q668687", "ref": "6131200001"}, "type": "Feature"}
{"geometry": {"coordinates": [-89.247229639, 41.473490309], "type": "Point"}, "id": "ned9LAuWVs7POwnd7F696K5eMyM=", "properties": {"@source_uri": "https://tools.usps.com/UspsToolsRestServices/rest/POLocator/findLocations", "@spider": "usps_collection_boxes", "addr:city": "ARLINGTON", "addr:country": "US", "addr:postcode": "61312", "addr:state": "IL", "addr:street_address": "203 E RAILROAD AVE", "amenity": "post_box", "collection_times": "Mo-Fr 11:00; Sa 10:30", "indoor": "yes", "nsi_id": "unitedstatespostalservice-a77078", "operator": "United States Postal Service", "operator:short": "USPS", "operator:type": "public", "operator:wikidata": "Q668687", "ref": "6131200002"}, "type": "Feature"}
{"geometry": {"coordinates": [-89.247229639, 41.473490309], "type": "Point"}, "id": "zv86OzBV99Uxi_rUg6NSfp_FSp8=", "properties": {"@source_uri": "https://tools.usps.com/UspsToolsRestServices/rest/POLocator/findLocations", "@spider": "usps_collection_boxes", "addr:city": "ARLINGTON", "addr:country": "US", "addr:postcode": "61312", "addr:state": "IL", "addr:street_address": "203 E RAILROAD AVE", "amenity": "post_box", "collection_times": "Mo-Fr 11:00; Sa 10:30", "indoor": "yes", "nsi_id": "unitedstatespostalservice-a77078", "operator": "United States Postal Service", "operator:short": "USPS", "operator:type": "public", "operator:wikidata": "Q668687", "ref": "6131200003"}, "type": "Feature"}
{"geometry": {"coordinates": [-88.692369219, 41.085020831], "type": "Point"}, "id": "akY4A-rb3xDstCiT2Lgr2d1aa4I=", "properties": {"@source_uri": "https://tools.usps.com/UspsToolsRestServices/rest/POLocator/findLocations", "@spider": "usps_collection_boxes", "addr:city": "BLACKSTONE", "addr:country": "US", "addr:postcode": "61313", "addr:state": "IL", "addr:street_address": "12385 E 3153 NORTH RD", "amenity": "post_box", "collection_times": "Mo-Fr 15:00; Sa 11:45", "note": "ON 12/24 AND 12/31, THIS BOX MAY BE COLLECTED AS EARLY AS 12 NOON.", "nsi_id": "unitedstatespostalservice-a77078", "operator": "United States Postal Service", "operator:short": "USPS", "operator:type": "public", "operator:wikidata": "Q668687", "ref": "6131300000"}, "type": "Feature"}
{"geometry": {"coordinates": [-88.692367191, 41.085024957], "type": "Point"}, "id": "qFFOK83shaKV9zV_ZFBqqbdLsVg=", "properties": {"@source_uri": "https://tools.usps.com/UspsToolsRestServices/rest/POLocator/findLocations", "@spider": "usps_collection_boxes", "addr:city": "BLACKSTONE", "addr:country": "US", "addr:postcode": "61313", "addr:state": "IL", "addr:street_address": "12385 E 3153 NORTH RD", "amenity": "post_box", "collection_times": "Mo-Fr 14:45; Sa 11:45", "indoor": "yes", "note": "ON 12/24 AND 12/31, THIS BOX MAY BE COLLECTED AS EARLY AS 12 NOON.", "nsi_id": "unitedstatespostalservice-a77078", "operator": "United States Postal Service", "operator:short": "USPS", "operator:type": "public", "operator:wikidata": "Q668687", "ref": "6131300001"}, "type": "Feature"}
{"geometry": {"coordinates": [-88.692367191, 41.085024957], "type": "Point"}, "id": "D8ukofHmLrfZL80EuFeSK656MS8=", "properties": {"@source_uri": "https://tools.usps.com/UspsToolsRestServices/rest/POLocator/findLocations", "@spider": "usps_collection_boxes", "addr:city": "BLACKSTONE", "addr:country": "US", "addr:postcode": "61313", "addr:state": "IL", "addr:street_address": "12385 E 3153 NORTH RD", "amenity": "post_box", "collection_times": "Mo-Fr 14:45; Sa 11:45", "indoor": "yes", "note": "ON 12/24 AND 12/31, THIS BOX MAY BE COLLECTED AS EARLY AS 12 NOON.", "nsi_id": "unitedstatespostalservice-a77078", "operator": "United States Postal Service", "operator:short": "USPS", "operator:type": "public", "operator:wikidata": "Q668687", "ref": "6131300002"}, "type": "Feature"}
{"geometry": {"coordinates": [-89.680464, 41.326770519], "type": "Point"}, "id": "66qD0dCBrvtbNjRIiZVJ30VrZNI=", "properties": {"@source_uri": "https://tools.usps.com/UspsToolsRestServices/rest/POLocator/findLocations", "@spider": "usps_collection_boxes", "addr:city": "BUDA", "addr:country": "US", "addr:postcode": "61314", "addr:state": "IL", "addr:street_address": "130 W MAIN ST", "amenity": "post_box", "collection_times": "Mo-Fr 11:00; Sa 10:30", "nsi_id": "unitedstatespostalservice-a77078", "operator": "United States Postal Service", "operator:short": "USPS", "operator:type": "public", "operator:wikidata": "Q668687", "ref": "6131400000"}, "type": "Feature"}
{"geometry": {"coordinates": [-89.680464, 41.326770519], "type": "Point"}, "id": "lVccBvL68nJ9OCh3c2mLPKl1QOM=", "properties": {"@source_uri": "https://tools.usps.com/UspsToolsRestServices/rest/POLocator/findLocations", "@spider": "usps_collection_boxes", "addr:city": "BUDA", "addr:country": "US", "addr:postcode": "61314", "addr:state": "IL", "addr:street_address": "130 W MAIN ST", "amenity": "post_box", "collection_times": "Mo-Fr 11:00; Sa 10:30", "indoor": "yes", "nsi_id": "unitedstatespostalservice-a77078", "operator": "United States Postal Service", "operator:short": "USPS", "operator:type": "public", "operator:wikidata": "Q668687", "ref": "6131400002"}, "type": "Feature"}
{"geometry": {"coordinates": [-89.680464, 41.326770519], "type": "Point"}, "id": "70IaHhQrlEsaZqQjv2vUOB6Okiw=", "properties": {"@source_uri": "https://tools.usps.com/UspsToolsRestServices/rest/POLocator/findLocations", "@spider": "usps_collection_boxes", "addr:city": "BUDA", "addr:country": "US", "addr:postcode": "61314", "addr:state": "IL", "addr:street_address": "130 W MAIN ST", "amenity": "post_box", "collection_times": "Mo-Fr 11:00; Sa 10:30", "indoor": "yes", "nsi_id": "unitedstatespostalservice-a77078", "operator": "United States Postal Service", "operator:short": "USPS", "operator:type": "public", "operator:wikidata": "Q668687", "ref": "6131400003"}, "type": "Feature"}
{"geometry": {"coordinates": [-89.366131747, 41.288318451], "type": "Point"}, "id": "YbQuWw14XuV8H7S-RIH6USvGRQM=", "properties": {"@source_uri": "https://tools.usps.com/UspsToolsRestServices/rest/POLocator/findLocations", "@spider": "usps_collection_boxes", "addr:city": "BUREAU", "addr:country": "US", "addr:postcode": "61315", "addr:state": "IL", "addr:street_address": "201 E NEBRASKA ST", "amenity": "post_box", "collection_times": "Mo-Fr 16:00; Sa 10:30", "note": "ON 12/24 AND 12/31, THIS BOX MAY BE COLLECTED AS EARLY AS 12 NOON.", "nsi_id": "unitedstatespostalservice-a77078", "operator": "United States Postal Service", "operator:short": "USPS", "operator:type": "public", "operator:wikidata": "Q668687", "ref": "6131500000"}, "type": "Feature"}
{"geometry": {"coordinates": [-89.366131747, 41.288318451], "type": "Point"}, "id": "0kBENWGSf81lWNLwrR2zQL0swFE=", "properties": {"@source_uri": "https://tools.usps.com/UspsToolsRestServices/rest/POLocator/findLocations", "@spider": "usps_collection_boxes", "addr:city": "BUREAU", "addr:country": "US", "addr:postcode": "61315", "addr:state": "IL", "addr:street_address": "201 E NEBRASKA ST", "amenity": "post_box", "collection_times": "Mo-Fr 16:00; Sa 12:30", "indoor": "yes", "note": "ON 12/24 AND 12/31, THIS BOX MAY BE COLLECTED AS EARLY AS 12 NOON.", "nsi_id": "unitedstatespostalservice-a77078", "operator": "United States Postal Service", "operator:short": "USPS", "operator:type": "public", "operator:wikidata": "Q668687", "ref": "6131500001"}, "type": "Feature"}
{"geometry": {"coordinates": [-89.366131747, 41.288318451], "type": "Point"}, "id": "kfcrNoSSu5xw13lQ6Vd9qpO6njw=", "properties": {"@source_uri": "https://tools.usps.com/UspsToolsRestServices/rest/POLocator/findLocations", "@spider": "usps_collection_boxes", "addr:city": "BUREAU", "addr:country": "US", "addr:postcode": "61315", "addr:state": "IL", "addr:street_address": "201 E NEBRASKA ST", "amenity": "post_box", "collection_times": "Mo-Fr 16:30; Sa 13:00", "indoor": "yes", "note": "ON 12/24 AND 12/31, THIS BOX MAY BE COLLECTED AS EARLY AS 12 NOON.", "nsi_id": "unitedstatespostalservice-a77078", "operator": "United States Postal Service", "operator:short": "USPS", "operator:type": "public", "operator:wikidata": "Q668687", "ref": "6131500002"}, "type": "Feature"}
{"geometry": {"coordinates": [-89.1258137784, 41.2631261814], "type": "Point"}, "id": "io1Pls_zbJtLLzGvtExw3cYn8XA=", "properties": {"@source_uri": "https://tools.usps.com/UspsToolsRestServices/rest/POLocator/findLocations", "@spider": "usps_collection_boxes", "addr:city": "CEDAR POINT", "addr:country": "US", "addr:postcode": "61316", "addr:state": "IL", "addr:street_address": "302 CEDAR ST", "amenity": "post_box", "collection_times": "Mo-Fr 11:30; Sa 10:30", "nsi_id": "unitedstatespostalservice-a77078", "operator": "United States Postal Service", "operator:short": "USPS", "operator:type": "public", "operator:wikidata": "Q668687", "ref": "6131600000"}, "type": "Feature"}
{"geometry": {"coordinates": [-89.125835634, 41.263169771], "type": "Point"}, "id": "t4p2M7-fj5eYzf69ToPNoVjjlK8=", "properties": {"@source_uri": "https://tools.usps.com/UspsToolsRestServices/rest/POLocator/findLocations", "@spider": "usps_collection_boxes", "addr:city": "CEDAR POINT", "addr:country": "US", "addr:postcode": "61316", "addr:state": "IL", "addr:street_address": "302 CEDAR ST", "amenity": "post_box", "collection_times": "Mo-Fr 11:30; Sa 10:30", "indoor": "yes", "nsi_id": "unitedstatespostalservice-a77078", "operator": "United States Postal Service", "operator:short": "USPS", "operator:type": "public", "operator:wikidata": "Q668687", "ref": "6131600001"}, "type": "Feature"}
{"geometry": {"coordinates": [-89.125835634, 41.263169771], "type": "Point"}, "id": "VyEOmJwLsmCVZjpT3bvyia_OWuQ=", "properties": {"@source_uri": "https://tools.usps.com/UspsToolsRestServices/rest/POLocator/findLocations", "@spider": "usps_collection_boxes", "addr:city": "CEDAR POINT", "addr:country": "US", "addr:postcode": "61316", "addr:state": "IL", "addr:street_address": "302 CEDAR ST", "amenity": "post_box", "collection_times": "Mo-Fr 11:30; Sa 10:30", "indoor": "yes", "nsi_id": "unitedstatespostalservice-a77078", "operator": "United States Postal Service", "operator:short": "USPS", "operator:type": "public", "operator:wikidata": "Q668687", "ref": "6131600002"}, "type": "Feature"}
{"geometry": {"coordinates": [-89.2127459632, 41.4271650097], "type": "Point"}, "id": "Nwef4qSX2R0RdOk-rUufDXBR1aA=", "properties": {"@source_uri": "https://tools.usps.com/UspsToolsRestServices/rest/POLocator/findLocations", "@spider": "usps_collection_boxes", "addr:city": "CHERRY", "addr:country": "US", "addr:postcode": "61317", "addr:state": "IL", "addr:street_address": "102 N MAIN ST", "amenity": "post_box", "collection_times": "Mo-Sa 10:00", "nsi_id": "unitedstatespostalservice-a77078", "operator": "United States Postal Service", "operator:short": "USPS", "operator:type": "public", "operator:wikidata": "Q668687", "ref": "6131700000"}, "type": "Feature"}
{"geometry": {"coordinates": [-89.2127459632, 41.4271650097], "type": "Point"}, "id": "WRGzM3sdTywd2ue95tlgzFE5qtI=", "properties": {"@source_uri": "https://tools.usps.com/UspsToolsRestServices/rest/POLocator/findLocations", "@spider": "usps_collection_boxes", "addr:city": "CHERRY", "addr:country": "US", "addr:postcode": "61317", "addr:state": "IL", "addr:street_address": "102 N MAIN ST", "amenity": "post_box", "collection_times": "Mo-Fr 10:00; Sa 10:15", "indoor": "yes", "nsi_id": "unitedstatespostalservice-a77078", "operator": "United States Postal Service", "operator:short": "USPS", "operator:type": "public", "operator:wikidata": "Q668687", "ref": "6131700001"}, "type": "Feature"}
{"geometry": {"coordinates": [-89.2127459632, 41.4271650097], "type": "Point"}, "id": "wkQ-96zvKZjzG4I84G7WKR2Mm84=", "properties": {"@source_uri": "https://tools.usps.com/UspsToolsRestServices/rest/POLocator/findLocations", "@spider": "usps_collection_boxes", "addr:city": "CHERRY", "addr:country": "US", "addr:postcode": "61317", "addr:state": "IL", "addr:street_address": "102 N MAIN ST", "amenity": "post_box", "collection_times": "Mo-Fr 11:00; Sa 10:15", "indoor": "yes", "nsi_id": "unitedstatespostalservice-a77078", "operator": "United States Postal Service", "operator:short": "USPS", "operator:type": "public", "operator:wikidata": "Q668687", "ref": "6131700002"}, "type": "Feature"}
{"geometry": {"coordinates": [-89.08415, 41.692896], "type": "Point"}, "id": "I-8kthtHWOoB0EXGyyTBNtJZeTo=", "properties": {"@source_uri": "https://tools.usps.com/UspsToolsRestServices/rest/POLocator/findLocations", "@spider": "usps_collection_boxes", "addr:city": "COMPTON", "addr:country": "US", "addr:postcode": "61318", "addr:state": "IL", "addr:street_address": "240 W MAIN ST", "amenity": "post_box", "collection_times": "Mo-Fr 10:45; Sa 09:45", "nsi_id": "unitedstatespostalservice-a77078", "operator": "United States Postal Service", "operator:short": "USPS", "operator:type": "public", "operator:wikidata": "Q668687", "ref": "6131800000"}, "type": "Feature"}
{"geometry": {"coordinates": [-89.084129, 41.692869], "type": "Point"}, "id": "wbPuRF-i3YDYn7iMrkzha78tI1c=", "properties": {"@source_uri": "https://tools.usps.com/UspsToolsRestServices/rest/POLocator/findLocations", "@spider": "usps_collection_boxes", "addr:city": "COMPTON", "addr:country": "US", "addr:postcode": "61318", "addr:state": "IL", "addr:street_address": "240 W MAIN ST", "amenity": "post_box", "collection_times": "Mo-Fr 10:45; Sa 09:45", "indoor": "yes", "nsi_id": "unitedstatespostalservice-a77078", "operator": "United States Postal Service", "operator:short": "USPS", "operator:type": "public", "operator:wikidata": "Q668687", "ref": "6131800001"}, "type": "Feature"}
{"geometry": {"coordinates": [-89.08354531, 41.692946977], "type": "Point"}, "id": "zMSOVImrnJ_ZvlVM7leLI3UV9wE=", "properties": {"@source_uri": "https://tools.usps.com/UspsToolsRestServices/rest/POLocator/findLocations", "@spider": "usps_collection_boxes", "addr:city": "COMPTON", "addr:country": "US", "addr:postcode": "61318", "addr:state": "IL", "addr:street_address": "204 W MAIN ST", "amenity": "post_box", "collection_times": "Mo-Fr 10:45; Sa 09:45", "indoor": "yes", "nsi_id": "unitedstatespostalservice-a77078", "operator": "United States Postal Service", "operator:short": "USPS", "operator:type": "public", "operator:wikidata": "Q668687", "ref": "6131800002"}, "type": "Feature"}
{"geometry": {"coordinates": [-88.729326915, 40.990139528], "type": "Point"}, "id": "wJztMG1U2D3nguCqRYY5i5Nnsw0=", "properties": {"@source_uri": "https://tools.usps.com/UspsToolsRestServices/rest/POLocator/findLocations", "@spider": "usps_collection_boxes", "addr:city": "CORNELL", "addr:country": "US", "addr:postcode": "61319", "addr:state": "IL", "addr:street_address": "108 N 6TH ST", "amenity": "post_box", "collection_times": "Mo-Fr 11:15; Sa 10:30", "nsi_id": "unitedstatespostalservice-a77078", "operator": "United States Postal Service", "operator:short": "USPS", "operator:type": "public", "operator:wikidata": "Q668687", "ref": "6131900000"}, "type": "Feature"}
{"geometry": {"coordinates": [-88.729326915, 40.990139528], "type": "Point"}, "id": "qNtF6fP-4lYLptWw7qtFaiwzgug=", "properties": {"@source_uri": "https://tools.usps.com/UspsToolsRestServices/rest/POLocator/findLocations", "@spider": "usps_collection_boxes", "addr:city": "CORNELL", "addr:country": "US", "addr:postcode": "61319", "addr:state": "IL", "addr:street_address": "108 N 6TH ST", "amenity": "post_box", "collection_times": "Mo-Fr 11:30; Sa 10:30", "indoor": "yes", "nsi_id": "unitedstatespostalservice-a77078", "operator": "United States Postal Service", "operator:short": "USPS", "operator:type": "public", "operator:wikidata": "Q668687", "ref": "6131900001"}, "type": "Feature"}
{"geometry": {"coordinates": [-88.729326915, 40.990139528], "type": "Point"}, "id": "YQlgBUFGfceAjdxDNdQRFT-CvnA=", "properties": {"@source_uri": "https://tools.usps.com/UspsToolsRestServices/rest/POLocator/findLocations", "@spider": "usps_collection_boxes", "addr:city": "CORNELL", "addr:country": "US", "addr:postcode": "61319", "addr:state": "IL", "addr:street_address": "108 N 6TH ST", "amenity": "post_box", "collection_times": "Mo-Fr 11:30; Sa 10:30", "indoor": "yes", "nsi_id": "unitedstatespostalservice-a77078", "operator": "United States Postal Service", "operator:short": "USPS", "operator:type": "public", "operator:wikidata": "Q668687", "ref": "6131900002"}, "type": "Feature"}
{"geometry": {"coordinates": [-89.167734, 41.355648547], "type": "Point"}, "id": "B61O-qHyQYgBBlMY-EWEqXOdofM=", "properties": {"@source_uri": "https://tools.usps.com/UspsToolsRestServices/rest/POLocator/findLocations", "@spider": "usps_collection_boxes", "addr:city": "DALZELL", "addr:country": "US", "addr:postcode": "61320", "addr:state": "IL", "addr:street_address": "139 SAUNDERS ST", "amenity": "post_box", "collection_times": "Mo-Fr 15:45; Sa 12:00", "note": "ON 12/24 AND 12/31, THIS BOX MAY BE COLLECTED AS EARLY AS 12 NOON.", "nsi_id": "unitedstatespostalservice-a77078", "operator": "United States Postal Service", "operator:short": "USPS", "operator:type": "public", "operator:wikidata": "Q668687", "ref": "6132000000"}, "type": "Feature"}
{"geometry": {"coordinates": [-89.167734, 41.355648547], "type": "Point"}, "id": "C1-5iWaRq4RIyHYPLkV9vDb9Sn4=", "properties": {"@source_uri": "https://tools.usps.com/UspsToolsRestServices/rest/POLocator/findLocations", "@spider": "usps_collection_boxes", "addr:city": "DALZELL", "addr:country": "US", "addr:postcode": "61320", "addr:state": "IL", "addr:street_address": "139 SAUNDERS ST", "amenity": "post_box", "collection_times": "Mo-Fr 15:45; Sa 12:00", "indoor": "yes", "note": "ON 12/24 AND 12/31, THIS BOX MAY BE COLLECTED AS EARLY AS 12 NOON.", "nsi_id": "unitedstatespostalservice-a77078", "operator": "United States Postal Service", "operator:short": "USPS", "operator:type": "public", "operator:wikidata": "Q668687", "ref": "6132000001"}, "type": "Feature"}
{"geometry": {"coordinates": [-89.167734, 41.355648547], "type": "Point"}, "id": "joKLlkH7kimcMh8oXpTRphFRpes=", "properties": {"@source_uri": "https://tools.usps.com/UspsToolsRestServices/rest/POLocator/findLocations", "@spider": "usps_collection_boxes", "addr:city": "DALZELL", "addr:country": "US", "addr:postcode": "61320", "addr:state": "IL", "addr:street_address": "139 SAUNDERS ST", "amenity": "post_box", "collection_times": "Mo-Fr 15:45; Sa 12:00", "indoor": "yes", "note": "ON 12/24 AND 12/31, THIS BOX MAY BE COLLECTED AS EARLY AS 12 NOON.", "nsi_id": "unitedstatespostalservice-a77078", "operator": "United States Postal Service", "operator:short": "USPS", "operator:type": "public", "operator:wikidata": "Q668687", "ref": "6132000002"}, "type": "Feature"}
{"geometry": {"coordinates": [-88.950526904, 40.956606335], "type": "Point"}, "id": "ZrS1yYWIws88eR1fq4_kqx5qq1w=", "properties": {"@source_uri": "https://tools.usps.com/UspsToolsRestServices/rest/POLocator/findLocations", "@spider": "usps_collection_boxes", "addr:city": "DANA", "addr:country": "US", "addr:postcode": "61321", "addr:state": "IL", "addr:street_address": "101 S MAIN ST", "amenity": "post_box", "collection_times": "Mo-Fr 11:30; Sa 10:30", "nsi_id": "unitedstatespostalservice-a77078", "operator": "United States Postal Service", "operator:short": "USPS", "operator:type": "public", "operator:wikidata": "Q668687", "ref": "6132100001"}, "type": "Feature"}
{"geometry": {"coordinates": [-88.950526904, 40.956606335], "type": "Point"}, "id": "YmOCDKx7bb1fRdWln1mRVTx4_IQ=", "properties": {"@source_uri": "https://tools.usps.com/UspsToolsRestServices/rest/POLocator/findLocations", "@spider": "usps_collection_boxes", "addr:city": "DANA", "addr:country": "US", "addr:postcode": "61321", "addr:state": "IL", "addr:street_address": "101 S MAIN ST", "amenity": "post_box", "collection_times": "Mo-Fr 11:30; Sa 10:30", "indoor": "yes", "nsi_id": "unitedstatespostalservice-a77078", "operator": "United States Postal Service", "operator:short": "USPS", "operator:type": "public", "operator:wikidata": "Q668687", "ref": "6132100002"}, "type": "Feature"}
{"geometry": {"coordinates": [-88.950526904, 40.956606335], "type": "Point"}, "id": "HORrSY2vhqwGiwITCRGbSwvO4qg=", "properties": {"@source_uri": "https://tools.usps.com/UspsToolsRestServices/rest/POLocator/findLocations", "@spider": "usps_collection_boxes", "addr:city": "DANA", "addr:country": "US", "addr:postcode": "61321", "addr:state": "IL", "addr:street_address": "101 S MAIN ST", "amenity": "post_box", "collection_times": "Mo-Fr 11:30; Sa 10:30", "indoor": "yes", "nsi_id": "unitedstatespostalservice-a77078", "operator": "United States Postal Service", "operator:short": "USPS", "operator:type": "public", "operator:wikidata": "Q668687", "ref": "6132100003"}, "type": "Feature"}
{"geometry": {"coordinates": [-89.30937163, 41.324304558], "type": "Point"}, "id": "ZQPo2-eBFqJdSH0rJQhNu8HqhUs=", "properties": {"@source_uri": "https://tools.usps.com/UspsToolsRestServices/rest/POLocator/findLocations", "@spider": "usps_collection_boxes", "addr:city": "DEPUE", "addr:country": "US", "addr:postcode": "61322", "addr:state": "IL", "addr:street_address": "200 W 4TH ST", "amenity": "post_box", "collection_times": "Mo-Fr 15:45; Sa 16:00", "note": "ON 12/24 AND 12/31, THIS BOX MAY BE COLLECTED AS EARLY AS 12 NOON.", "nsi_id": "unitedstatespostalservice-a77078", "operator": "United States Postal Service", "operator:short": "USPS", "operator:type": "public", "operator:wikidata": "Q668687", "ref": "6132200000"}, "type": "Feature"}
{"geometry": {"coordinates": [-89.30937163, 41.324304558], "type": "Point"}, "id": "4GmPD19XBD4lfcvuPeqUOPtmE98=", "properties": {"@source_uri": "https://tools.usps.com/UspsToolsRestServices/rest/POLocator/findLocations", "@spider": "usps_collection_boxes", "addr:city": "DEPUE", "addr:country": "US", "addr:postcode": "61322", "addr:state": "IL", "addr:street_address": "200 W 4TH ST", "amenity": "post_box", "collection_times": "Mo-Fr 15:45; Sa 16:00", "indoor": "yes", "note": "ON 12/24 AND 12/31, THIS BOX MAY BE COLLECTED AS EARLY AS 12 NOON.", "nsi_id": "unitedstatespostalservice-a77078", "operator": "United States Postal Service", "operator:short": "USPS", "operator:type": "public", "operator:wikidata": "Q668687", "ref": "6132200002"}, "type": "Feature"}
{"geometry": {"coordinates": [-89.30937163, 41.324304558], "type": "Point"}, "id": "f4ICaIQKlnlVH9_LSLH6U1FhMTI=", "properties": {"@source_uri": "https://tools.usps.com/UspsToolsRestServices/rest/POLocator/findLocations", "@spider": "usps_collection_boxes", "addr:city": "DEPUE", "addr:country": "US", "addr:postcode": "61322", "addr:state": "IL", "addr:street_address": "200 W 4TH ST", "amenity": "post_box", "collection_times": "Mo-Fr 15:45; Sa 16:00", "indoor": "yes", "note": "ON 12/24 AND 12/31, THIS BOX MAY BE COLLECTED AS EARLY AS 12 NOON.", "nsi_id": "unitedstatespostalservice-a77078", "operator": "United States Postal Service", "operator:short": "USPS", "operator:type": "public", "operator:wikidata": "Q668687", "ref": "6132200003"}, "type": "Feature"}
{"geometry": {"coordinates": [-89.394976921, 41.435672705], "type": "Point"}, "id": "PSZglGLym8kxAuSoiWnzHbkBXoA=", "properties": {"@source_uri": "https://tools.usps.com/UspsToolsRestServices/rest/POLocator/findLocations", "@spider": "usps_collection_boxes", "addr:city": "DOVER", "addr:country": "US", "addr:postcode": "61323", "addr:state": "IL", "addr:street_address": "106 E WASHINGTON ST", "amenity": "post_box", "collection_times": "Mo-Fr 09:45; Sa 10:00", "nsi_id": "unitedstatespostalservice-a77078", "operator": "United States Postal Service", "operator:short": "USPS", "operator:type": "public", "operator:wikidata": "Q668687", "ref": "6132300000"}, "type": "Feature"}
{"geometry": {"coordinates": [-89.394976921, 41.435672705], "type": "Point"}, "id": "pyVBI9U4_KbbcbW7Cls-xlyqKzY=", "properties": {"@source_uri": "https://tools.usps.com/UspsToolsRestServices/rest/POLocator/findLocations", "@spider": "usps_collection_boxes", "addr:city": "DOVER", "addr:country": "US", "addr:postcode": "61323", "addr:state": "IL", "addr:street_address": "106 E WASHINGTON ST", "amenity": "post_box", "collection_times": "Mo-Fr 09:45; Sa 10:00", "indoor": "yes", "nsi_id": "unitedstatespostalservice-a77078", "operator": "United States Postal Service", "operator:short": "USPS", "operator:type": "public", "operator:wikidata": "Q668687", "ref": "6132300001"}, "type": "Feature"}
{"geometry": {"coordinates": [-89.394976921, 41.435672705], "type": "Point"}, "id": "roX13LWQimLJfc-VJNdkcbSpXU4=", "properties": {"@source_uri": "https://tools.usps.com/UspsToolsRestServices/rest/POLocator/findLocations", "@spider": "usps_collection_boxes", "addr:city": "DOVER", "addr:country": "US", "addr:postcode": "61323", "addr:state": "IL", "addr:street_address": "106 E WASHINGTON ST", "amenity": "post_box", "collection_times": "Mo-Fr 10:00; Sa 11:15", "indoor": "yes", "nsi_id": "unitedstatespostalservice-a77078", "operator": "United States Postal Service", "operator:short": "USPS", "operator:type": "public", "operator:wikidata": "Q668687", "ref": "6132300002"}, "type": "Feature"}
{"geometry": {"coordinates": [-88.832412335, 41.237352512], "type": "Point"}, "id": "H5uk7EjpwpJ1Hn78BPyEDO2VbyA=", "properties": {"@source_uri": "https://tools.usps.com/UspsToolsRestServices/rest/POLocator/findLocations", "@spider": "usps_collection_boxes", "addr:city": "GRAND RIDGE", "addr:country": "US", "addr:postcode": "61325", "addr:state": "IL", "addr:street_address": "150 W MAIN ST", "amenity": "post_box", "collection_times": "Mo-Fr 11:30; Sa 10:30", "nsi_id": "unitedstatespostalservice-a77078", "operator": "United States Postal Service", "operator:short": "USPS", "operator:type": "public", "operator:wikidata": "Q668687", "ref": "6132500000"}, "type": "Feature"}
{"geometry": {"coordinates": [-88.832412335, 41.237352512], "type": "Point"}, "id": "25IKOHm5ihJ5O4ry-nVYO6gswNk=", "properties": {"@source_uri": "https://tools.usps.com/UspsToolsRestServices/rest/POLocator/findLocations", "@spider": "usps_collection_boxes", "addr:city": "GRAND RIDGE", "addr:country": "US", "addr:postcode": "61325", "addr:state": "IL", "addr:street_address": "150 W MAIN ST", "amenity": "post_box", "collection_times": "Mo-Fr 11:30; Sa 10:30", "indoor": "yes", "nsi_id": "unitedstatespostalservice-a77078", "operator": "United States Postal Service", "operator:short": "USPS", "operator:type": "public", "operator:wikidata": "Q668687", "ref": "6132500001"}, "type": "Feature"}
{"geometry": {"coordinates": [-88.832412335, 41.237352512], "type": "Point"}, "id": "8XjEN6oILrjz9opltwSDM62QIug=", "properties": {"@source_uri": "https://tools.usps.com/UspsToolsRestServices/rest/POLocator/findLocations", "@spider": "usps_collection_boxes", "addr:city": "GRAND RIDGE", "addr:country": "US", "addr:postcode": "61325", "addr:state": "IL", "addr:street_address": "150 W MAIN ST", "amenity": "post_box", "collection_times": "Mo-Fr 11:30; Sa 10:30", "indoor": "yes", "nsi_id": "unitedstatespostalservice-a77078", "operator": "United States Postal Service", "operator:short": "USPS", "operator:type": "public", "operator:wikidata": "Q668687", "ref": "6132500002"}, "type": "Feature"}
{"geometry": {"coordinates": [-89.2280640048, 41.2622642828], "type": "Point"}, "id": "0gH3WP8j8pe0mZzXCWTNtUtrqDM=", "properties": {"@source_uri": "https://tools.usps.com/UspsToolsRestServices/rest/POLocator/findLocations", "@spider": "usps_collection_boxes", "addr:city": "GRANVILLE", "addr:country": "US", "addr:postcode": "61326", "addr:state": "IL", "addr:street_address": "107 S MCCOY ST", "amenity": "post_box", "collection_times": "Mo-Fr 16:45; Sa 11:00", "note": "ON 12/24 AND 12/31, THIS BOX MAY BE COLLECTED AS EARLY AS 12 NOON.", "nsi_id": "unitedstatespostalservice-a77078", "operator": "United States Postal Service", "operator:short": "USPS", "operator:type": "public", "operator:wikidata": "Q668687", "ref": "6132600000"}, "type": "Feature"}
{"geometry": {"coordinates": [-89.228064005, 41.262264283], "type": "Point"}, "id": "SFZNIEsXNX5U0wiv841NCPgsns4=", "properties": {"@source_uri": "https://tools.usps.com/UspsToolsRestServices/rest/POLocator/findLocations", "@spider": "usps_collection_boxes", "addr:city": "GRANVILLE", "addr:country": "US", "addr:postcode": "61326", "addr:state": "IL", "addr:street_address": "107 S MCCOY ST", "amenity": "post_box", "collection_times": "Mo-Fr 16:45; Sa 11:00", "indoor": "yes", "note": "ON 12/24 AND 12/31, THIS BOX MAY BE COLLECTED AS EARLY AS 12 NOON.", "nsi_id": "unitedstatespostalservice-a77078", "operator": "United States Postal Service", "operator:short": "USPS", "operator:type": "public", "operator:wikidata": "Q668687", "ref": "6132600001"}, "type": "Feature"}
{"geometry": {"coordinates": [-89.228064005, 41.262264283], "type": "Point"}, "id": "7o7gPlgFtHZPQhZ7ofL9H7p57bI=", "properties": {"@source_uri": "https://tools.usps.com/UspsToolsRestServices/rest/POLocator/findLocations", "@spider": "usps_collection_boxes", "addr:city": "GRANVILLE", "addr:country": "US", "addr:postcode": "61326", "addr:state": "IL", "addr:street_address": "107 S MCCOY ST", "amenity": "post_box", "collection_times": "Mo-Fr 16:45; Sa 11:00", "indoor": "yes", "note": "ON 12/24 AND 12/31, THIS BOX MAY BE COLLECTED AS EARLY AS 12 NOON.", "nsi_id": "unitedstatespostalservice-a77078", "operator": "United States Postal Service", "operator:short": "USPS", "operator:type": "public", "operator:wikidata": "Q668687", "ref": "6132600002"}, "type": "Feature"}
{"geometry": {"coordinates": [-89.344255272, 41.253181897], "type": "Point"}, "id": "0bOJD9n4UWOKPyGXJ3xPSyaGp1Y=", "properties": {"@source_uri": "https://tools.usps.com/UspsToolsRestServices/rest/POLocator/findLocations", "@spider": "usps_collection_boxes", "addr:city": "HENNEPIN", "addr:country": "US", "addr:postcode": "61327", "addr:state": "IL", "addr:street_address": "316 E HIGH ST", "amenity": "post_box", "collection_times": "Mo-Fr 14:00; Sa 11:30", "note": "ON 12/24 AND 12/31, THIS BOX MAY BE COLLECTED AS EARLY AS 12 NOON.", "nsi_id": "unitedstatespostalservice-a77078", "operator": "United States Postal Service", "operator:short": "USPS", "operator:type": "public", "operator:wikidata": "Q668687", "ref": "6132700001"}, "type": "Feature"}
{"geometry": {"coordinates": [-89.344255272, 41.253181897], "type": "Point"}, "id": "8MdWqInQ-6ILTfvduId7KvzSprE=", "properties": {"@source_uri": "https://tools.usps.com/UspsToolsRestServices/rest/POLocator/findLocations", "@spider": "usps_collection_boxes", "addr:city": "HENNEPIN", "addr:country": "US", "addr:postcode": "61327", "addr:state": "IL", "addr:street_address": "316 E HIGH ST", "amenity": "post_box", "collection_times": "Mo-Fr 14:00; Sa 11:30", "indoor": "yes", "note": "ON 12/24 AND 12/31, THIS BOX MAY BE COLLECTED AS EARLY AS 12 NOON.", "nsi_id": "unitedstatespostalservice-a77078", "operator": "United States Postal Service", "operator:short": "USPS", "operator:type": "public", "operator:wikidata": "Q668687", "ref": "6132700002"}, "type": "Feature"}
{"geometry": {"coordinates": [-89.344255272, 41.253181897], "type": "Point"}, "id": "rcLPrGETA9LADrVaH5mDdturuI0=", "properties": {"@source_uri": "https://tools.usps.com/UspsToolsRestServices/rest/POLocator/findLocations", "@spider": "usps_collection_boxes", "addr:city": "HENNEPIN", "addr:country": "US", "addr:postcode": "61327", "addr:state": "IL", "addr:street_address": "316 E HIGH ST", "amenity": "post_box", "collection_times": "Mo-Fr 14:00; Sa 11:30", "indoor": "yes", "note": "ON 12/24 AND 12/31, THIS BOX MAY BE COLLECTED AS EARLY AS 12 NOON.", "nsi_id": "unitedstatespostalservice-a77078", "operator": "United States Postal Service", "operator:short": "USPS", "operator:type": "public", "operator:wikidata": "Q668687", "ref": "6132700003"}, "type": "Feature"}
{"geometry": {"coordinates": [-89.219126381, 41.383089838], "type": "Point"}, "id": "OmQrnypecC2lJR_K4sfQmtiDaDg=", "properties": {"@source_uri": "https://tools.usps.com/UspsToolsRestServices/rest/POLocator/findLocations", "@spider": "usps_collection_boxes", "addr:city": "LADD", "addr:country": "US", "addr:postcode": "61329", "addr:state": "IL", "addr:street_address": "233 N MAIN AVE", "amenity": "post_box", "collection_times": "Mo-Fr 16:00; Sa 10:30", "note": "ON 12/24 AND 12/31, THIS BOX MAY BE COLLECTED AS EARLY AS 12 NOON.", "nsi_id": "unitedstatespostalservice-a77078", "operator": "United States Postal Service", "operator:short": "USPS", "operator:type": "public", "operator:wikidata": "Q668687", "ref": "6132900000"}, "type": "Feature"}
{"geometry": {"coordinates": [-89.219126381, 41.383089838], "type": "Point"}, "id": "7lYFComN3eWqtPXiE0BcKz878Gc=", "properties": {"@source_uri": "https://tools.usps.com/UspsToolsRestServices/rest/POLocator/findLocations", "@spider": "usps_collection_boxes", "addr:city": "LADD", "addr:country": "US", "addr:postcode": "61329", "addr:state": "IL", "addr:street_address": "233 N MAIN AVE", "amenity": "post_box", "collection_times": "Mo-Fr 16:00; Sa 10:30", "indoor": "yes", "note": "ON 12/24 AND 12/31, THIS BOX MAY BE COLLECTED AS EARLY AS 12 NOON.", "nsi_id": "unitedstatespostalservice-a77078", "operator": "United States Postal Service", "operator:short": "USPS", "operator:type": "public", "operator:wikidata": "Q668687", "ref": "6132900001"}, "type": "Feature"}
{"geometry": {"coordinates": [-89.219126381, 41.383089838], "type": "Point"}, "id": "EhZbexWa_nUC8PUn5gMxJaYmt8A=", "properties": {"@source_uri": "https://tools.usps.com/UspsToolsRestServices/rest/POLocator/findLocations", "@spider": "usps_collection_boxes", "addr:city": "LADD", "addr:country": "US", "addr:postcode": "61329", "addr:state": "IL", "addr:street_address": "233 N MAIN AVE", "amenity": "post_box", "collection_times": "Mo-Fr 16:00; Sa 10:30", "indoor": "yes", "note": "ON 12/24 AND 12/31, THIS BOX MAY BE COLLECTED AS EARLY AS 12 NOON.", "nsi_id": "unitedstatespostalservice-a77078", "operator": "United States Postal Service", "operator:short": "USPS", "operator:type": "public", "operator:wikidata": "Q668687", "ref": "6132900002"}, "type": "Feature"}
{"geometry": {"coordinates": [-89.280118939, 41.530705395], "type": "Point"}, "id": "lhfp1fAidZ7F84-ApMI20mbPiJ0=", "properties": {"@source_uri": "https://tools.usps.com/UspsToolsRestServices/rest/POLocator/findLocations", "@spider": "usps_collection_boxes", "addr:city": "LA MOILLE", "addr:country": "US", "addr:postcode": "61330", "addr:state": "IL", "addr:street_address": "98 FRANKLIN ST", "amenity": "post_box", "collection_times": "Mo-Fr 15:00; Sa 10:30", "note": "ON 12/24 AND 12/31, THIS BOX MAY BE COLLECTED AS EARLY AS 12 NOON.", "nsi_id": "unitedstatespostalservice-a77078", "operator": "United States Postal Service", "operator:short": "USPS", "operator:type": "public", "operator:wikidata": "Q668687", "ref": "6133000000"}, "type": "Feature"}
{"geometry": {"coordinates": [-89.280118939, 41.530705395], "type": "Point"}, "id": "Sl2vrDoVSy-Ev3tXwJmG4JvZr5E=", "properties": {"@source_uri": "https://tools.usps.com/UspsToolsRestServices/rest/POLocator/findLocations", "@spider": "usps_collection_boxes", "addr:city": "LA MOILLE", "addr:country": "US", "addr:postcode": "61330", "addr:state": "IL", "addr:street_address": "98 FRANKLIN ST", "amenity": "post_box", "collection_times": "Mo-Fr 15:00; Sa 10:30", "indoor": "yes", "note": "ON 12/24 AND 12/31, THIS BOX MAY BE COLLECTED AS EARLY AS 12 NOON.", "nsi_id": "unitedstatespostalservice-a77078", "operator": "United States Postal Service", "operator:short": "USPS", "operator:type": "public", "operator:wikidata": "Q668687", "ref": "6133000001"}, "type": "Feature"}
{"geometry": {"coordinates": [-89.280118939, 41.530705395], "type": "Point"}, "id": "dJwLVOarCESmAdMXr3Sk70JmIxc=", "properties": {"@source_uri": "https://tools.usps.com/UspsToolsRestServices/rest/POLocator/findLocations", "@spider": "usps_collection_boxes", "addr:city": "LA MOILLE", "addr:country": "US", "addr:postcode": "61330", "addr:state": "IL", "addr:street_address": "98 FRANKLIN ST", "amenity": "post_box", "collection_times": "Mo-Fr 15:00; Sa 10:30", "indoor": "yes", "note": "ON 12/24 AND 12/31, THIS BOX MAY BE COLLECTED AS EARLY AS 12 NOON.", "nsi_id": "unitedstatespostalservice-a77078", "operator": "United States Postal Service", "operator:short": "USPS", "operator:type": "public", "operator:wikidata": "Q668687", "ref": "6133000002"}, "type": "Feature"}
{"geometry": {"coordinates": [-89.278258863, 41.747432185], "type": "Point"}, "id": "P74aIS7fLeQrUcrdpVXmQnML_KM=", "properties": {"@source_uri": "https://tools.usps.com/UspsToolsRestServices/rest/POLocator/findLocations", "@spider": "usps_collection_boxes", "addr:city": "LEE CENTER", "addr:country": "US", "addr:postcode": "61331", "addr:state": "IL", "addr:street_address": "1132 INLET RD", "amenity": "post_box", "collection_times": "Mo-Fr 16:00", "note": "ON 12/24 AND 12/31, THIS BOX MAY BE COLLECTED AS EARLY AS 12 NOON.", "nsi_id": "unitedstatespostalservice-a77078", "operator": "United States Postal Service", "operator:short": "USPS", "operator:type": "public", "operator:wikidata": "Q668687", "ref": "6133100000"}, "type": "Feature"}
{"geometry": {"coordinates": [-89.278258863, 41.747432185], "type": "Point"}, "id": "Tny1AJQmJoD76t4NVLgZw1mMfBU=", "properties": {"@source_uri": "https://tools.usps.com/UspsToolsRestServices/rest/POLocator/findLocations", "@spider": "usps_collection_boxes", "addr:city": "LEE CENTER", "addr:country": "US", "addr:postcode": "61331", "addr:state": "IL", "addr:street_address": "1132 INLET RD", "amenity": "post_box", "collection_times": "Mo-Fr 16:00; Sa 15:15", "indoor": "yes", "note": "ON 12/24 AND 12/31, THIS BOX MAY BE COLLECTED AS EARLY AS 12 NOON.", "nsi_id": "unitedstatespostalservice-a77078", "operator": "United States Postal Service", "operator:short": "USPS", "operator:type": "public", "operator:wikidata": "Q668687", "ref": "6133100001"}, "type": "Feature"}
{"geometry": {"coordinates": [-89.278258863, 41.747432185], "type": "Point"}, "id": "MiM5saeUfGPjGiWJYveEbe47WIk=", "properties": {"@source_uri": "https://tools.usps.com/UspsToolsRestServices/rest/POLocator/findLocations", "@spider": "usps_collection_boxes", "addr:city": "LEE CENTER", "addr:country": "US", "addr:postcode": "61331", "addr:state": "IL", "addr:street_address": "1132 INLET RD", "amenity": "post_box", "collection_times": "Mo-Fr 16:00; Sa 15:15", "indoor": "yes", "note": "ON 12/24 AND 12/31, THIS BOX MAY BE COLLECTED AS EARLY AS 12 NOON.", "nsi_id": "unitedstatespostalservice-a77078", "operator": "United States Postal Service", "operator:short": "USPS", "operator:type": "public", "operator:wikidata": "Q668687", "ref": "6133100002"}, "type": "Feature"}
{"geometry": {"coordinates": [-88.980676119, 41.189440891], "type": "Point"}, "id": "k4d-Pl5Rg6V_8a6u-T51hJoMjdE=", "properties": {"@source_uri": "https://tools.usps.com/UspsToolsRestServices/rest/POLocator/findLocations", "@spider": "usps_collection_boxes", "addr:city": "LEONORE", "addr:country": "US", "addr:postcode": "61332", "addr:state": "IL", "addr:street_address": "402 GARY ST", "amenity": "post_box", "collection_times": "Mo-Fr 15:45; Sa 13:30", "note": "ON 12/24 AND 12/31, THIS BOX MAY BE COLLECTED AS EARLY AS 12 NOON.", "nsi_id": "unitedstatespostalservice-a77078", "operator": "United States Postal Service", "operator:short": "USPS", "operator:type": "public", "operator:wikidata": "Q668687", "ref": "6133200000"}, "type": "Feature"}
{"geometry": {"coordinates": [-88.980676119, 41.189440891], "type": "Point"}, "id": "kHUCxfh17udJ-x3L4RWgScC0R9E=", "properties": {"@source_uri": "https://tools.usps.com/UspsToolsRestServices/rest/POLocator/findLocations", "@spider": "usps_collection_boxes", "addr:city": "LEONORE", "addr:country": "US", "addr:postcode": "61332", "addr:state": "IL", "addr:street_address": "402 GARY ST", "amenity": "post_box", "collection_times": "Mo-Fr 15:45; Sa 13:30", "indoor": "yes", "note": "ON 12/24 AND 12/31, THIS BOX MAY BE COLLECTED AS EARLY AS 12 NOON.", "nsi_id": "unitedstatespostalservice-a77078", "operator": "United States Postal Service", "operator:short": "USPS", "operator:type": "public", "operator:wikidata": "Q668687", "ref": "6133200001"}, "type": "Feature"}
{"geometry": {"coordinates": [-88.980676119, 41.189440891], "type": "Point"}, "id": "eW_EwceI0g4mn-cYu7qNlveXIag=", "properties": {"@source_uri": "https://tools.usps.com/UspsToolsRestServices/rest/POLocator/findLocations", "@spider": "usps_collection_boxes", "addr:city": "LEONORE", "addr:country": "US", "addr:postcode": "61332", "addr:state": "IL", "addr:street_address": "402 GARY ST", "amenity": "post_box", "collection_times": "Mo-Fr 15:45; Sa 13:30", "indoor": "yes", "note": "ON 12/24 AND 12/31, THIS BOX MAY BE COLLECTED AS EARLY AS 12 NOON.", "nsi_id": "unitedstatespostalservice-a77078", "operator": "United States Postal Service", "operator:short": "USPS", "operator:type": "public", "operator:wikidata": "Q668687", "ref": "6133200002"}, "type": "Feature"}
{"geometry": {"coordinates": [-88.893915, 41.00508], "type": "Point"}, "id": "xIMDASuxbNRuRbVGM_ZILU60Jb8=", "properties": {"@source_uri": "https://tools.usps.com/UspsToolsRestServices/rest/POLocator/findLocations", "@spider": "usps_collection_boxes", "addr:city": "LONG POINT", "addr:country": "US", "addr:postcode": "61333", "addr:state": "IL", "addr:street_address": "414 MAIN ST", "amenity": "post_box", "collection_times": "Mo-Fr 15:00; Sa 10:30", "note": "ON 12/24 AND 12/31, THIS BOX MAY BE COLLECTED AS EARLY AS 12 NOON.", "nsi_id": "unitedstatespostalservice-a77078", "operator": "United States Postal Service", "operator:short": "USPS", "operator:type": "public", "operator:wikidata": "Q668687", "ref": "6133300000"}, "type": "Feature"}
{"geometry": {"coordinates": [-88.893915, 41.00508], "type": "Point"}, "id": "AumdC-YMzjpwthtR2TJMY7lvJXk=", "properties": {"@source_uri": "https://tools.usps.com/UspsToolsRestServices/rest/POLocator/findLocations", "@spider": "usps_collection_boxes", "addr:city": "LONG POINT", "addr:country": "US", "addr:postcode": "61333", "addr:state": "IL", "addr:street_address": "414 MAIN ST", "amenity": "post_box", "collection_times": "Mo-Fr 15:45; Sa 12:45", "indoor": "yes", "note": "ON 12/24 AND 12/31, THIS BOX MAY BE COLLECTED AS EARLY AS 12 NOON.", "nsi_id": "unitedstatespostalservice-a77078", "operator": "United States Postal Service", "operator:short": "USPS", "operator:type": "public", "operator:wikidata": "Q668687", "ref": "6133300001"}, "type": "Feature"}
{"geometry": {"coordinates": [-88.893970342, 41.004558367], "type": "Point"}, "id": "5luXyLkAWdRgF4qTrgt5wGRK11o=", "properties": {"@source_uri": "https://tools.usps.com/UspsToolsRestServices/rest/POLocator/findLocations", "@spider": "usps_collection_boxes", "addr:city": "LONG POINT", "addr:country": "US", "addr:postcode": "61333", "addr:state": "IL", "addr:street_address": "414 S MAIN ST", "amenity": "post_box", "collection_times": "Mo-Fr 15:45; Sa 12:45", "indoor": "yes", "note": "ON 12/24 AND 12/31, THIS BOX MAY BE COLLECTED AS EARLY AS 12 NOON.", "nsi_id": "unitedstatespostalservice-a77078", "operator": "United States Postal Service", "operator:short": "USPS", "operator:type": "public", "operator:wikidata": "Q668687", "ref": "6133300002"}, "type": "Feature"}
{"geometry": {"coordinates": [-89.060075644, 41.142626475], "type": "Point"}, "id": "bA-BEkG4ipu6RpMaqt4Xy6DphEI=", "properties": {"@source_uri": "https://tools.usps.com/UspsToolsRestServices/rest/POLocator/findLocations", "@spider": "usps_collection_boxes", "addr:city": "LOSTANT", "addr:country": "US", "addr:postcode": "61334", "addr:state": "IL", "addr:street_address": "104 W 2ND ST", "amenity": "post_box", "collection_times": "Mo-Fr 10:45; Sa 10:15", "nsi_id": "unitedstatespostalservice-a77078", "operator": "United States Postal Service", "operator:short": "USPS", "operator:type": "public", "operator:wikidata": "Q668687", "ref": "6133400001"}, "type": "Feature"}
{"geometry": {"coordinates": [-89.060075644, 41.142626475], "type": "Point"}, "id": "w1xqwHZwFqzMtItPvze3MR4HICY=", "properties": {"@source_uri": "https://tools.usps.com/UspsToolsRestServices/rest/POLocator/findLocations", "@spider": "usps_collection_boxes", "addr:city": "LOSTANT", "addr:country": "US", "addr:postcode": "61334", "addr:state": "IL", "addr:street_address": "104 W 2ND ST", "amenity": "post_box", "collection_times": "Mo-Fr 10:45; Sa 10:15", "indoor": "yes", "nsi_id": "unitedstatespostalservice-a77078", "operator": "United States Postal Service", "operator:short": "USPS", "operator:type": "public", "operator:wikidata": "Q668687", "ref": "6133400002"}, "type": "Feature"}
{"geometry": {"coordinates": [-89.060075644, 41.142626475], "type": "Point"}, "id": "3JyBvkvZphjF6-9neN9aC2u4-BQ=", "properties": {"@source_uri": "https://tools.usps.com/UspsToolsRestServices/rest/POLocator/findLocations", "@spider": "usps_collection_boxes", "addr:city": "LOSTANT", "addr:country": "US", "addr:postcode": "61334", "addr:state": "IL", "addr:street_address": "104 W 2ND ST", "amenity": "post_box", "collection_times": "Mo-Fr 10:45; Sa 10:15", "indoor": "yes", "nsi_id": "unitedstatespostalservice-a77078", "operator": "United States Postal Service", "operator:short": "USPS", "operator:type": "public", "operator:wikidata": "Q668687", "ref": "6133400003"}, "type": "Feature"}
{"geometry": {"coordinates": [-89.20818002, 41.176695266], "type": "Point"}, "id": "018R3dp1JIYZBFNyhOWYz62eAWQ=", "properties": {"@source_uri": "https://tools.usps.com/UspsToolsRestServices/rest/POLocator/findLocations", "@spider": "usps_collection_boxes", "addr:city": "MC NABB", "addr:country": "US", "addr:postcode": "61335", "addr:state": "IL", "addr:street_address": "318 W MAIN ST", "amenity": "post_box", "collection_times": "Mo-Fr 11:00; Sa 10:30", "nsi_id": "unitedstatespostalservice-a77078", "operator": "United States Postal Service", "operator:short": "USPS", "operator:type": "public", "operator:wikidata": "Q668687", "ref": "6133500000"}, "type": "Feature"}
{"geometry": {"coordinates": [-89.20818002, 41.176695266], "type": "Point"}, "id": "2vz8eK5fbKyuBGVoEa93E_sN0Fg=", "properties": {"@source_uri": "https://tools.usps.com/UspsToolsRestServices/rest/POLocator/findLocations", "@spider": "usps_collection_boxes", "addr:city": "MC NABB", "addr:country": "US", "addr:postcode": "61335", "addr:state": "IL", "addr:street_address": "318 W MAIN ST", "amenity": "post_box", "collection_times": "Mo-Fr 11:15; Sa 10:30", "indoor": "yes", "nsi_id": "unitedstatespostalservice-a77078", "operator": "United States Postal Service", "operator:short": "USPS", "operator:type": "public", "operator:wikidata": "Q668687", "ref": "6133500001"}, "type": "Feature"}
{"geometry": {"coordinates": [-89.20818002, 41.176695266], "type": "Point"}, "id": "yxP0X4mjgXuEy9Y8i24X6EAQOBY=", "properties": {"@source_uri": "https://tools.usps.com/UspsToolsRestServices/rest/POLocator/findLocations", "@spider": "usps_collection_boxes", "addr:city": "MC NABB", "addr:country": "US", "addr:postcode": "61335", "addr:state": "IL", "addr:street_address": "318 W MAIN ST", "amenity": "post_box", "collection_times": "Mo-Fr 11:15; Sa 10:30", "indoor": "yes", "nsi_id": "unitedstatespostalservice-a77078", "operator": "United States Postal Service", "operator:short": "USPS", "operator:type": "public", "operator:wikidata": "Q668687", "ref": "6133500002"}, "type": "Feature"}
{"geometry": {"coordinates": [-89.194608437, 41.112522052], "type": "Point"}, "id": "apkQ9PE6StgNbSdQjnJQY2BR5pI=", "properties": {"@source_uri": "https://tools.usps.com/UspsToolsRestServices/rest/POLocator/findLocations", "@spider": "usps_collection_boxes", "addr:city": "MAGNOLIA", "addr:country": "US", "addr:postcode": "61336", "addr:state": "IL", "addr:street_address": "106 N CHICAGO ST", "amenity": "post_box", "collection_times": "Mo-Fr 11:00; Sa 09:15", "nsi_id": "unitedstatespostalservice-a77078", "operator": "United States Postal Service", "operator:short": "USPS", "operator:type": "public", "operator:wikidata": "Q668687", "ref": "6133600001"}, "type": "Feature"}
{"geometry": {"coordinates": [-89.194608437, 41.112522052], "type": "Point"}, "id": "8GiWE9U9TkcHkqPLwMOpUVGlG1Q=", "properties": {"@source_uri": "https://tools.usps.com/UspsToolsRestServices/rest/POLocator/findLocations", "@spider": "usps_collection_boxes", "addr:city": "MAGNOLIA", "addr:country": "US", "addr:postcode": "61336", "addr:state": "IL", "addr:street_address": "106 N CHICAGO ST", "amenity": "post_box", "collection_times": "Mo-Fr 11:00; Sa 09:15", "indoor": "yes", "nsi_id": "unitedstatespostalservice-a77078", "operator": "United States Postal Service", "operator:short": "USPS", "operator:type": "public", "operator:wikidata": "Q668687", "ref": "6133600002"}, "type": "Feature"}
{"geometry": {"coordinates": [-89.194608437, 41.112522052], "type": "Point"}, "id": "Uvk671btmmmEqjB4HLkvWEkgEbE=", "properties": {"@source_uri": "https://tools.usps.com/UspsToolsRestServices/rest/POLocator/findLocations", "@spider": "usps_collection_boxes", "addr:city": "MAGNOLIA", "addr:country": "US", "addr:postcode": "61336", "addr:state": "IL", "addr:street_address": "106 N CHICAGO ST", "amenity": "post_box", "collection_times": "Mo-Fr 11:00; Sa 09:15", "indoor": "yes", "nsi_id": "unitedstatespostalservice-a77078", "operator": "United States Postal Service", "operator:short": "USPS", "operator:type": "public", "operator:wikidata": "Q668687", "ref": "6133600003"}, "type": "Feature"}
{"geometry": {"coordinates": [-89.367853791, 41.424490179], "type": "Point"}, "id": "oVCcNljJBg3eBUIkfezfr6cmEoM=", "properties": {"@source_uri": "https://tools.usps.com/UspsToolsRestServices/rest/POLocator/findLocations", "@spider": "usps_collection_boxes", "addr:city": "MALDEN", "addr:country": "US", "addr:postcode": "61337", "addr:state": "IL", "addr:street_address": "221 W MAIN ST", "amenity": "post_box", "collection_times": "Mo-Fr 11:00; Sa 08:30", "nsi_id": "unitedstatespostalservice-a77078", "operator": "United States Postal Service", "operator:short": "USPS", "operator:type": "public", "operator:wikidata": "Q668687", "ref": "6133700000"}, "type": "Feature"}
{"geometry": {"coordinates": [-89.367853791, 41.424490179], "type": "Point"}, "id": "xfyCyncG0ULSfp6Rq3BbSlmkJtk=", "properties": {"@source_uri": "https://tools.usps.com/UspsToolsRestServices/rest/POLocator/findLocations", "@spider": "usps_collection_boxes", "addr:city": "MALDEN", "addr:country": "US", "addr:postcode": "61337", "addr:state": "IL", "addr:street_address": "221 W MAIN ST", "amenity": "post_box", "collection_times": "Mo-Fr 11:30; Sa 09:00", "indoor": "yes", "nsi_id": "unitedstatespostalservice-a77078", "operator": "United States Postal Service", "operator:short": "USPS", "operator:type": "public", "operator:wikidata": "Q668687", "ref": "6133700001"}, "type": "Feature"}
{"geometry": {"coordinates": [-89.367853791, 41.424490179], "type": "Point"}, "id": "ZiPPYLnNQevFlV28Lp3Tm_EAna4=", "properties": {"@source_uri": "https://tools.usps.com/UspsToolsRestServices/rest/POLocator/findLocations", "@spider": "usps_collection_boxes", "addr:city": "MALDEN", "addr:country": "US", "addr:postcode": "61337", "addr:state": "IL", "addr:street_address": "221 W MAIN ST", "amenity": "post_box", "collection_times": "Mo-Fr 11:30; Sa 09:00", "indoor": "yes", "nsi_id": "unitedstatespostalservice-a77078", "operator": "United States Postal Service", "operator:short": "USPS", "operator:type": "public", "operator:wikidata": "Q668687", "ref": "6133700002"}, "type": "Feature"}
{"geometry": {"coordinates": [-89.670438, 41.456119748], "type": "Point"}, "id": "UZOUdSd7SnoBBox7WN6lwnPtado=", "properties": {"@source_uri": "https://tools.usps.com/UspsToolsRestServices/rest/POLocator/findLocations", "@spider": "usps_collection_boxes", "addr:city": "MANLIUS", "addr:country": "US", "addr:postcode": "61338", "addr:state": "IL", "addr:street_address": "107 E MAPLE AVE", "amenity": "post_box", "collection_times": "Mo-Fr 12:00; Sa 11:00", "nsi_id": "unitedstatespostalservice-a77078", "operator": "United States Postal Service", "operator:short": "USPS", "operator:type": "public", "operator:wikidata": "Q668687", "ref": "6133800000"}, "type": "Feature"}
{"geometry": {"coordinates": [-89.670438, 41.456119748], "type": "Point"}, "id": "hXlCQ4CV6CPtYhYvlaLQkvZN8dM=", "properties": {"@source_uri": "https://tools.usps.com/UspsToolsRestServices/rest/POLocator/findLocations", "@spider": "usps_collection_boxes", "addr:city": "MANLIUS", "addr:country": "US", "addr:postcode": "61338", "addr:state": "IL", "addr:street_address": "107 E MAPLE AVE", "amenity": "post_box", "collection_times": "Mo-Fr 12:00; Sa 11:00", "indoor": "yes", "nsi_id": "unitedstatespostalservice-a77078", "operator": "United States Postal Service", "operator:short": "USPS", "operator:type": "public", "operator:wikidata": "Q668687", "ref": "6133800001"}, "type": "Feature"}
{"geometry": {"coordinates": [-89.670438, 41.456119748], "type": "Point"}, "id": "2ruj4Wai4WEnmhMt6eaWWX65bLg=", "properties": {"@source_uri": "https://tools.usps.com/UspsToolsRestServices/rest/POLocator/findLocations", "@spider": "usps_collection_boxes", "addr:city": "MANLIUS", "addr:country": "US", "addr:postcode": "61338", "addr:state": "IL", "addr:street_address": "107 E MAPLE AVE", "amenity": "post_box", "collection_times": "Mo-Fr 12:00; Sa 11:00", "indoor": "yes", "nsi_id": "unitedstatespostalservice-a77078", "operator": "United States Postal Service", "operator:short": "USPS", "operator:type": "public", "operator:wikidata": "Q668687", "ref": "6133800002"}, "type": "Feature"}
{"geometry": {"coordinates": [-89.2503943813, 41.2646550566], "type": "Point"}, "id": "h6K6rsSCaaSA_ga006VlWfrngXg=", "properties": {"@source_uri": "https://tools.usps.com/UspsToolsRestServices/rest/POLocator/findLocations", "@spider": "usps_collection_boxes", "addr:city": "MARK", "addr:country": "US", "addr:postcode": "61340", "addr:state": "IL", "addr:street_address": "106 W HENNEPIN ST", "amenity": "post_box", "collection_times": "Mo-Fr 11:15; Sa 10:30", "nsi_id": "unitedstatespostalservice-a77078", "operator": "United States Postal Service", "operator:short": "USPS", "operator:type": "public", "operator:wikidata": "Q668687", "ref": "6134000000"}, "type": "Feature"}
{"geometry": {"coordinates": [-89.250394381, 41.264655057], "type": "Point"}, "id": "8pAivWzvZxrbDSBoS3HbTHVxPN0=", "properties": {"@source_uri": "https://tools.usps.com/UspsToolsRestServices/rest/POLocator/findLocations", "@spider": "usps_collection_boxes", "addr:city": "MARK", "addr:country": "US", "addr:postcode": "61340", "addr:state": "IL", "addr:street_address": "106 W HENNEPIN ST", "amenity": "post_box", "collection_times": "Mo-Fr 11:00; Sa 10:15", "indoor": "yes", "nsi_id": "unitedstatespostalservice-a77078", "operator": "United States Postal Service", "operator:short": "USPS", "operator:type": "public", "operator:wikidata": "Q668687", "ref": "6134000001"}, "type": "Feature"}
{"geometry": {"coordinates": [-89.250394381, 41.264655057], "type": "Point"}, "id": "aalceRG5Y-xXNp63Xr6XOeqwT5s=", "properties": {"@source_uri": "https://tools.usps.com/UspsToolsRestServices/rest/POLocator/findLocations", "@spider": "usps_collection_boxes", "addr:city": "MARK", "addr:country": "US", "addr:postcode": "61340", "addr:state": "IL", "addr:street_address": "106 W HENNEPIN ST", "amenity": "post_box", "collection_times": "Mo-Fr 11:00; Sa 10:15", "indoor": "yes", "nsi_id": "unitedstatespostalservice-a77078", "operator": "United States Postal Service", "operator:short": "USPS", "operator:type": "public", "operator:wikidata": "Q668687", "ref": "6134000002"}, "type": "Feature"}
{"geometry": {"coordinates": [-88.701735, 41.33027], "type": "Point"}, "id": "4aGXjZBWsrZsPc_R3YJe3BqgX5E=", "properties": {"@source_uri": "https://tools.usps.com/UspsToolsRestServices/rest/POLocator/findLocations", "@spider": "usps_collection_boxes", "addr:city": "MARSEILLES", "addr:country": "US", "addr:postcode": "61341", "addr:state": "IL", "addr:street_address": "100 WASHINGTON ST", "amenity": "post_box", "collection_times": "Mo-Fr 16:30; Sa 16:00", "note": "ON 12/24 AND 12/31, THIS BOX MAY BE COLLECTED AS EARLY AS 12 NOON.", "nsi_id": "unitedstatespostalservice-a77078", "operator": "United States Postal Service", "operator:short": "USPS", "operator:type": "public", "operator:wikidata": "Q668687", "ref": "6134100003"}, "type": "Feature"}
{"geometry": {"coordinates": [-88.7021281, 41.341988], "type": "Point"}, "id": "I0c71tQUDs12dzBEOjGo6fyBtMs=", "properties": {"@source_uri": "https://tools.usps.com/UspsToolsRestServices/rest/POLocator/findLocations", "@spider": "usps_collection_boxes", "addr:city": "MARSEILLES", "addr:country": "US", "addr:postcode": "61341", "addr:state": "IL", "addr:street_address": "1016 BRATTON AVE", "amenity": "post_box", "collection_times": "Mo-Sa 11:00", "nsi_id": "unitedstatespostalservice-a77078", "operator": "United States Postal Service", "operator:short": "USPS", "operator:type": "public", "operator:wikidata": "Q668687", "ref": "6134100015"}, "type": "Feature"}
{"geometry": {"coordinates": [-88.707773987, 41.329172125], "type": "Point"}, "id": "8rDtWgrz0-av0yvIjFqOcjr_CjQ=", "properties": {"@source_uri": "https://tools.usps.com/UspsToolsRestServices/rest/POLocator/findLocations", "@spider": "usps_collection_boxes", "addr:city": "MARSEILLES", "addr:country": "US", "addr:postcode": "61341", "addr:state": "IL", "addr:street_address": "100 WASHINGTON ST", "amenity": "post_box", "collection_times": "Mo-Fr 16:30; Sa 16:00", "indoor": "yes", "note": "ON 12/24 AND 12/31, THIS BOX MAY BE COLLECTED AS EARLY AS 12 NOON.", "nsi_id": "unitedstatespostalservice-a77078", "operator": "United States Postal Service", "operator:short": "USPS", "operator:type": "public", "operator:wikidata": "Q668687", "ref": "6134100016"}, "type": "Feature"}
{"geometry": {"coordinates": [-88.707773987, 41.329172125], "type": "Point"}, "id": "A6vW5xCH98MGV-sZrhQ2R-8dw98=", "properties": {"@source_uri": "https://tools.usps.com/UspsToolsRestServices/rest/POLocator/findLocations", "@spider": "usps_collection_boxes", "addr:city": "MARSEILLES", "addr:country": "US", "addr:postcode": "61341", "addr:state": "IL", "addr:street_address": "100 WASHINGTON ST", "amenity": "post_box", "collection_times": "Mo-Fr 16:30; Sa 12:00", "indoor": "yes", "note": "ON 12/24 AND 12/31, THIS BOX MAY BE COLLECTED AS EARLY AS 12 NOON.", "nsi_id": "unitedstatespostalservice-a77078", "operator": "United States Postal Service", "operator:short": "USPS", "operator:type": "public", "operator:wikidata": "Q668687", "ref": "6134100017"}, "type": "Feature"}
{"geometry": {"coordinates": [-89.120888759, 41.5476455505], "type": "Point"}, "id": "LvdDhuLRyXTF8R1BAzp6rNRm9EA=", "properties": {"@source_uri": "https://tools.usps.com/UspsToolsRestServices/rest/POLocator/findLocations", "@spider": "usps_collection_boxes", "addr:city": "MENDOTA", "addr:country": "US", "addr:postcode": "61342", "addr:state": "IL", "addr:street_address": "600 VETERANS WAY", "amenity": "post_box", "collection_times": "Mo-Sa 17:00", "note": "ON 12/24 AND 12/31, THIS BOX MAY BE COLLECTED AS EARLY AS 12 NOON.", "nsi_id": "unitedstatespostalservice-a77078", "operator": "United States Postal Service", "operator:short": "USPS", "operator:type": "public", "operator:wikidata": "Q668687", "ref": "6134200013"}, "type": "Feature"}
{"geometry": {"coordinates": [-89.1255076, 41.556378], "type": "Point"}, "id": "kf-ek8IgaB7Ay_A16uiAV8fDk9U=", "properties": {"@source_uri": "https://tools.usps.com/UspsToolsRestServices/rest/POLocator/findLocations", "@spider": "usps_collection_boxes", "addr:city": "MENDOTA", "addr:country": "US", "addr:postcode": "61342", "addr:state": "IL", "addr:street_address": "1102 MERIDEN ST", "amenity": "post_box", "collection_times": "Mo-Sa 16:00", "note": "ON 12/24 AND 12/31, THIS BOX MAY BE COLLECTED AS EARLY AS 12 NOON.", "nsi_id": "unitedstatespostalservice-a77078", "operator": "United States Postal Service", "operator:short": "USPS", "operator:type": "public", "operator:wikidata": "Q668687", "ref": "6134200014"}, "type": "Feature"}
{"geometry": {"coordinates": [-89.1287183, 41.555396], "type": "Point"}, "id": "fVOnIFOV6x8Ycer9Ix0tI8kU9Dc=", "properties": {"@source_uri": "https://tools.usps.com/UspsToolsRestServices/rest/POLocator/findLocations", "@spider": "usps_collection_boxes", "addr:city": "MENDOTA", "addr:country": "US", "addr:postcode": "61342", "addr:state": "IL", "addr:street_address": "1310 MERIDEN ST", "amenity": "post_box", "collection_times": "Mo-Sa 16:00", "note": "ON 12/24 AND 12/31, THIS BOX MAY BE COLLECTED AS EARLY AS 12 NOON.", "nsi_id": "unitedstatespostalservice-a77078", "operator": "United States Postal Service", "operator:short": "USPS", "operator:type": "public", "operator:wikidata": "Q668687", "ref": "6134200015"}, "type": "Feature"}
{"geometry": {"coordinates": [-89.1197931, 41.554541], "type": "Point"}, "id": "_odqSKAF9pwKD6B0EqchjWQRd2Y=", "properties": {"@source_uri": "https://tools.usps.com/UspsToolsRestServices/rest/POLocator/findLocations", "@spider": "usps_collection_boxes", "addr:city": "MENDOTA", "addr:country": "US", "addr:postcode": "61342", "addr:state": "IL", "addr:street_address": "1201 MAIN ST", "amenity": "post_box", "collection_times": "Mo-Sa 16:00", "note": "ON 12/24 AND 12/31, THIS BOX MAY BE COLLECTED AS EARLY AS 12 NOON.", "nsi_id": "unitedstatespostalservice-a77078", "operator": "United States Postal Service", "operator:short": "USPS", "operator:type": "public", "operator:wikidata": "Q668687", "ref": "6134200016"}, "type": "Feature"}
{"geometry": {"coordinates": [-89.1188042, 41.548218], "type": "Point"}, "id": "27-libR2hbl6aKHHXqV0X0vuzhA=", "properties": {"@source_uri": "https://tools.usps.com/UspsToolsRestServices/rest/POLocator/findLocations", "@spider": "usps_collection_boxes", "addr:city": "MENDOTA", "addr:country": "US", "addr:postcode": "61342", "addr:state": "IL", "addr:street_address": "706 WASHINGTON ST", "amenity": "post_box", "collection_times": "Mo-Sa 16:00", "note": "ON 12/24 AND 12/31, THIS BOX MAY BE COLLECTED AS EARLY AS 12 NOON.", "nsi_id": "unitedstatespostalservice-a77078", "operator": "United States Postal Service", "operator:short": "USPS", "operator:type": "public", "operator:wikidata": "Q668687", "ref": "6134200017"}, "type": "Feature"}
{"geometry": {"coordinates": [-89.12016, 41.548065], "type": "Point"}, "id": "-aNSobP_GJuREaw0GYfkedDkXcI=", "properties": {"@source_uri": "https://tools.usps.com/UspsToolsRestServices/rest/POLocator/findLocations", "@spider": "usps_collection_boxes", "addr:city": "MENDOTA", "addr:country": "US", "addr:postcode": "61342", "addr:state": "IL", "addr:street_address": "720 ILLINOIS AVE", "amenity": "post_box", "collection_times": "Mo-Sa 16:00", "note": "ON 12/24 AND 12/31, THIS BOX MAY BE COLLECTED AS EARLY AS 12 NOON.", "nsi_id": "unitedstatespostalservice-a77078", "operator": "United States Postal Service", "operator:short": "USPS", "operator:type": "public", "operator:wikidata": "Q668687", "ref": "6134200018"}, "type": "Feature"}
{"geometry": {"coordinates": [-89.1141427, 41.542867], "type": "Point"}, "id": "DezddLd16rvCr7u7JHRIvYRNu3Q=", "properties": {"@source_uri": "https://tools.usps.com/UspsToolsRestServices/rest/POLocator/findLocations", "@spider": "usps_collection_boxes", "addr:city": "MENDOTA", "addr:country": "US", "addr:postcode": "61342", "addr:state": "IL", "addr:street_address": "405 2ND ST", "amenity": "post_box", "collection_times": "Mo-Sa 16:00", "note": "ON 12/24 AND 12/31, THIS BOX MAY BE COLLECTED AS EARLY AS 12 NOON.", "nsi_id": "unitedstatespostalservice-a77078", "operator": "United States Postal Service", "operator:short": "USPS", "operator:type": "public", "operator:wikidata": "Q668687", "ref": "6134200020"}, "type": "Feature"}
{"geometry": {"coordinates": [-89.120520304, 41.54809746], "type": "Point"}, "id": "m2qeh_wpUkz2WqKWGAKC108AfAI=", "properties": {"@source_uri": "https://tools.usps.com/UspsToolsRestServices/rest/POLocator/findLocations", "@spider": "usps_collection_boxes", "addr:city": "MENDOTA", "addr:country": "US", "addr:postcode": "61342", "addr:state": "IL", "addr:street_address": "818 WASHINGTON ST", "amenity": "post_box", "collection_times": "Mo-Sa 17:00", "indoor": "yes", "note": "ON 12/24 AND 12/31, THIS BOX MAY BE COLLECTED AS EARLY AS 12 NOON.", "nsi_id": "unitedstatespostalservice-a77078", "operator": "United States Postal Service", "operator:short": "USPS", "operator:type": "public", "operator:wikidata": "Q668687", "ref": "6134200021"}, "type": "Feature"}
{"geometry": {"coordinates": [-89.0671127, 41.554955], "type": "Point"}, "id": "R-mnN6ov_UuUWYn9iI3_ZkolGiQ=", "properties": {"@source_uri": "https://tools.usps.com/UspsToolsRestServices/rest/POLocator/findLocations", "@spider": "usps_collection_boxes", "addr:city": "MENDOTA", "addr:country": "US", "addr:postcode": "61342", "addr:state": "IL", "addr:street_address": "1300 RAYMOND DR", "amenity": "post_box", "collection_times": "Mo-Sa 16:00", "note": "ON 12/24 AND 12/31, THIS BOX MAY BE COLLECTED AS EARLY AS 12 NOON.", "nsi_id": "unitedstatespostalservice-a77078", "operator": "United States Postal Service", "operator:short": "USPS", "operator:type": "public", "operator:wikidata": "Q668687", "ref": "6134200023"}, "type": "Feature"}
{"geometry": {"coordinates": [-89.0874599, 41.553265], "type": "Point"}, "id": "REtqqH_mSGQ2kQOtnsuLMWPR-Z4=", "properties": {"@source_uri": "https://tools.usps.com/UspsToolsRestServices/rest/POLocator/findLocations", "@spider": "usps_collection_boxes", "addr:city": "MENDOTA", "addr:country": "US", "addr:postcode": "61342", "addr:state": "IL", "addr:street_address": "1401 E 12TH ST", "amenity": "post_box", "collection_times": "Mo-Sa 16:00", "note": "ON 12/24 AND 12/31, THIS BOX MAY BE COLLECTED AS EARLY AS 12 NOON.", "nsi_id": "unitedstatespostalservice-a77078", "operator": "United States Postal Service", "operator:short": "USPS", "operator:type": "public", "operator:wikidata": "Q668687", "ref": "6134200024"}, "type": "Feature"}
{"geometry": {"coordinates": [-89.120520304, 41.54809746], "type": "Point"}, "id": "SY0U85wnBKKH62M2051QKJWFnmY=", "properties": {"@source_uri": "https://tools.usps.com/UspsToolsRestServices/rest/POLocator/findLocations", "@spider": "usps_collection_boxes", "addr:city": "MENDOTA", "addr:country": "US", "addr:postcode": "61342", "addr:state": "IL", "addr:street_address": "818 WASHINGTON ST", "amenity": "post_box", "collection_times": "Mo-Fr 17:00; Sa 12:00", "indoor": "yes", "note": "ON 12/24 AND 12/31, THIS BOX MAY BE COLLECTED AS EARLY AS 12 NOON.", "nsi_id": "unitedstatespostalservice-a77078", "operator": "United States Postal Service", "operator:short": "USPS", "operator:type": "public", "operator:wikidata": "Q668687", "ref": "6134200030"}, "type": "Feature"}
{"geometry": {"coordinates": [-89.837323706, 41.382421848], "type": "Point"}, "id": "rfEj5XKlZaNw0wDsGDXgtMf5C7E=", "properties": {"@source_uri": "https://tools.usps.com/UspsToolsRestServices/rest/POLocator/findLocations", "@spider": "usps_collection_boxes", "addr:city": "MINERAL", "addr:country": "US", "addr:postcode": "61344", "addr:state": "IL", "addr:street_address": "150 E MAIN ST", "amenity": "post_box", "collection_times": "Mo-Fr 16:00; Sa 14:00", "note": "ON 12/24 AND 12/31, THIS BOX MAY BE COLLECTED AS EARLY AS 12 NOON.", "nsi_id": "unitedstatespostalservice-a77078", "operator": "United States Postal Service", "operator:short": "USPS", "operator:type": "public", "operator:wikidata": "Q668687", "ref": "6134400000"}, "type": "Feature"}
{"geometry": {"coordinates": [-89.837323706, 41.382421848], "type": "Point"}, "id": "qY-ZPPnNzb8lgjB0NuUCmvtDFys=", "properties": {"@source_uri": "https://tools.usps.com/UspsToolsRestServices/rest/POLocator/findLocations", "@spider": "usps_collection_boxes", "addr:city": "MINERAL", "addr:country": "US", "addr:postcode": "61344", "addr:state": "IL", "addr:street_address": "150 E MAIN ST", "amenity": "post_box", "collection_times": "Mo-Fr 16:00; Sa 14:00", "indoor": "yes", "note": "ON 12/24 AND 12/31, THIS BOX MAY BE COLLECTED AS EARLY AS 12 NOON.", "nsi_id": "unitedstatespostalservice-a77078", "operator": "United States Postal Service", "operator:short": "USPS", "operator:type": "public", "operator:wikidata": "Q668687", "ref": "6134400001"}, "type": "Feature"}
{"geometry": {"coordinates": [-89.837323706, 41.382421848], "type": "Point"}, "id": "7lqWRSOEN265GJeOLmnvfoGZsBM=", "properties": {"@source_uri": "https://tools.usps.com/UspsToolsRestServices/rest/POLocator/findLocations", "@spider": "usps_collection_boxes", "addr:city": "MINERAL", "addr:country": "US", "addr:postcode": "61344", "addr:state": "IL", "addr:street_address": "150 E MAIN ST", "amenity": "post_box", "collection_times": "Mo-Fr 16:00; Sa 14:00", "indoor": "yes", "note": "ON 12/24 AND 12/31, THIS BOX MAY BE COLLECTED AS EARLY AS 12 NOON.", "nsi_id": "unitedstatespostalservice-a77078", "operator": "United States Postal Service", "operator:short": "USPS", "operator:type": "public", "operator:wikidata": "Q668687", "ref": "6134400002"}, "type": "Feature"}
{"geometry": {"coordinates": [-89.790420945, 41.296569526], "type": "Point"}, "id": "RFuBV5eEGyO_s6-nOt6_DbIR5Z8=", "properties": {"@source_uri": "https://tools.usps.com/UspsToolsRestServices/rest/POLocator/findLocations", "@spider": "usps_collection_boxes", "addr:city": "NEPONSET", "addr:country": "US", "addr:postcode": "61345", "addr:state": "IL", "addr:street_address": "118 W COMMERCIAL ST", "amenity": "post_box", "collection_times": "Mo-Fr 11:00", "nsi_id": "unitedstatespostalservice-a77078", "operator": "United States Postal Service", "operator:short": "USPS", "operator:type": "public", "operator:wikidata": "Q668687", "ref": "6134500001"}, "type": "Feature"}
{"geometry": {"coordinates": [-89.790420945, 41.296569526], "type": "Point"}, "id": "YMlfOQNi7GQIqQOLURWJMFT3QCk=", "properties": {"@source_uri": "https://tools.usps.com/UspsToolsRestServices/rest/POLocator/findLocations", "@spider": "usps_collection_boxes", "addr:city": "NEPONSET", "addr:country": "US", "addr:postcode": "61345", "addr:state": "IL", "addr:street_address": "118 W COMMERCIAL ST", "amenity": "post_box", "collection_times": "Mo-Fr 11:00; Sa 09:00", "indoor": "yes", "nsi_id": "unitedstatespostalservice-a77078", "operator": "United States Postal Service", "operator:short": "USPS", "operator:type": "public", "operator:wikidata": "Q668687", "ref": "6134500002"}, "type": "Feature"}
{"geometry": {"coordinates": [-89.790420945, 41.296569526], "type": "Point"}, "id": "EFdaUdNjN4ee-ZiX5VxhasPvAcw=", "properties": {"@source_uri": "https://tools.usps.com/UspsToolsRestServices/rest/POLocator/findLocations", "@spider": "usps_collection_boxes", "addr:city": "NEPONSET", "addr:country": "US", "addr:postcode": "61345", "addr:state": "IL", "addr:street_address": "118 W COMMERCIAL ST", "amenity": "post_box", "collection_times": "Mo-Fr 11:00; Sa 09:00", "indoor": "yes", "nsi_id": "unitedstatespostalservice-a77078", "operator": "United States Postal Service", "operator:short": "USPS", "operator:type": "public", "operator:wikidata": "Q668687", "ref": "6134500003"}, "type": "Feature"}
{"geometry": {"coordinates": [-89.720098721, 41.513579329], "type": "Point"}, "id": "esspEuCm9cYj3-P4g-DSSCbmPIw=", "properties": {"@source_uri": "https://tools.usps.com/UspsToolsRestServices/rest/POLocator/findLocations", "@spider": "usps_collection_boxes", "addr:city": "NEW BEDFORD", "addr:country": "US", "addr:postcode": "61346", "addr:state": "IL", "addr:street_address": "200 N MAIN ST", "amenity": "post_box", "collection_times": "Mo-Fr 14:30; Sa 15:30", "note": "ON 12/24 AND 12/31, THIS BOX MAY BE COLLECTED AS EARLY AS 12 NOON.", "nsi_id": "unitedstatespostalservice-a77078", "operator": "United States Postal Service", "operator:short": "USPS", "operator:type": "public", "operator:wikidata": "Q668687", "ref": "6134600000"}, "type": "Feature"}
{"geometry": {"coordinates": [-89.720098721, 41.513579329], "type": "Point"}, "id": "Kz_QdVaLlll3bpF2FrsBO_qPYVA=", "properties": {"@source_uri": "https://tools.usps.com/UspsToolsRestServices/rest/POLocator/findLocations", "@spider": "usps_collection_boxes", "addr:city": "NEW BEDFORD", "addr:country": "US", "addr:postcode": "61346", "addr:state": "IL", "addr:street_address": "200 N MAIN ST", "amenity": "post_box", "collection_times": "Mo-Fr 14:30; Sa 15:30", "indoor": "yes", "note": "ON 12/24 AND 12/31, THIS BOX MAY BE COLLECTED AS EARLY AS 12 NOON.", "nsi_id": "unitedstatespostalservice-a77078", "operator": "United States Postal Service", "operator:short": "USPS", "operator:type": "public", "operator:wikidata": "Q668687", "ref": "6134600001"}, "type": "Feature"}
{"geometry": {"coordinates": [-89.720098721, 41.513579329], "type": "Point"}, "id": "lcWBGu3WVRMo5qcbiGcY-5ZQtUM=", "properties": {"@source_uri": "https://tools.usps.com/UspsToolsRestServices/rest/POLocator/findLocations", "@spider": "usps_collection_boxes", "addr:city": "NEW BEDFORD", "addr:country": "US", "addr:postcode": "61346", "addr:state": "IL", "addr:street_address": "200 N MAIN ST", "amenity": "post_box", "collection_times": "Mo-Fr 14:30; Sa 15:30", "indoor": "yes", "note": "ON 12/24 AND 12/31, THIS BOX MAY BE COLLECTED AS EARLY AS 12 NOON.", "nsi_id": "unitedstatespostalservice-a77078", "operator": "United States Postal Service", "operator:short": "USPS", "operator:type": "public", "operator:wikidata": "Q668687", "ref": "6134600003"}, "type": "Feature"}
{"geometry": {"coordinates": [-89.062785, 41.294781], "type": "Point"}, "id": "LxbSgXosNriX6ESoDDsHzTbCpL0=", "properties": {"@source_uri": "https://tools.usps.com/UspsToolsRestServices/rest/POLocator/findLocations", "@spider": "usps_collection_boxes", "addr:city": "OGLESBY", "addr:country": "US", "addr:postcode": "61348", "addr:state": "IL", "addr:street_address": "203 W WALNUT ST", "amenity": "post_box", "collection_times": "Mo-Fr 17:00; Sa 15:00", "note": "ON 12/24 AND 12/31, THIS BOX MAY BE COLLECTED AS EARLY AS 12 NOON.", "nsi_id": "unitedstatespostalservice-a77078", "operator": "United States Postal Service", "operator:short": "USPS", "operator:type": "public", "operator:wikidata": "Q668687", "ref": "6134800001"}, "type": "Feature"}
{"geometry": {"coordinates": [-89.062708, 41.295127], "type": "Point"}, "id": "xPWy110EUv9NCXd85LHFD4ruo8c=", "properties": {"@source_uri": "https://tools.usps.com/UspsToolsRestServices/rest/POLocator/findLocations", "@spider": "usps_collection_boxes", "addr:city": "OGLESBY", "addr:country": "US", "addr:postcode": "61348", "addr:state": "IL", "addr:street_address": "204 W WALNUT ST", "amenity": "post_box", "collection_times": "Mo-Fr 17:00; Sa 15:00", "note": "ON 12/24 AND 12/31, THIS BOX MAY BE COLLECTED AS EARLY AS 12 NOON.", "nsi_id": "unitedstatespostalservice-a77078", "operator": "United States Postal Service", "operator:short": "USPS", "operator:type": "public", "operator:wikidata": "Q668687", "ref": "6134800009"}, "type": "Feature"}
{"geometry": {"coordinates": [-89.0686246, 41.294826], "type": "Point"}, "id": "mTKLokI4IkA7ON_8np5iex7j8IU=", "properties": {"@source_uri": "https://tools.usps.com/UspsToolsRestServices/rest/POLocator/findLocations", "@spider": "usps_collection_boxes", "addr:city": "OGLESBY", "addr:country": "US", "addr:postcode": "61348", "addr:state": "IL", "addr:street_address": "501 W WALNUT ST", "amenity": "post_box", "collection_times": "Mo-Sa 13:30", "note": "ON 12/24 AND 12/31, THIS BOX MAY BE COLLECTED AS EARLY AS 12 NOON.", "nsi_id": "unitedstatespostalservice-a77078", "operator": "United States Postal Service", "operator:short": "USPS", "operator:type": "public", "operator:wikidata": "Q668687", "ref": "6134800012"}, "type": "Feature"}
{"geometry": {"coordinates": [-89.062643869, 41.295019299], "type": "Point"}, "id": "aU2i1rlVw0gmaXVZaNQZhK9JPSU=", "properties": {"@source_uri": "https://tools.usps.com/UspsToolsRestServices/rest/POLocator/findLocations", "@spider": "usps_collection_boxes", "addr:city": "OGLESBY", "addr:country": "US", "addr:postcode": "61348", "addr:state": "IL", "addr:street_address": "203 W WALNUT ST", "amenity": "post_box", "collection_times": "Mo-Fr 17:00; Sa 15:00", "indoor": "yes", "note": "ON 12/24 AND 12/31, THIS BOX MAY BE COLLECTED AS EARLY AS 12 NOON.", "nsi_id": "unitedstatespostalservice-a77078", "operator": "United States Postal Service", "operator:short": "USPS", "operator:type": "public", "operator:wikidata": "Q668687", "ref": "6134800013"}, "type": "Feature"}
{"geometry": {"coordinates": [-89.062643869, 41.295019299], "type": "Point"}, "id": "DuoQ43Tv1r0bQuvg4PySiiA6GIw=", "properties": {"@source_uri": "https://tools.usps.com/UspsToolsRestServices/rest/POLocator/findLocations", "@spider": "usps_collection_boxes", "addr:city": "OGLESBY", "addr:country": "US", "addr:postcode": "61348", "addr:state": "IL", "addr:street_address": "203 W WALNUT ST", "amenity": "post_box", "collection_times": "Mo-Fr 17:00; Sa 11:00", "indoor": "yes", "note": "ON 12/24 AND 12/31, THIS BOX MAY BE COLLECTED AS EARLY AS 12 NOON.", "nsi_id": "unitedstatespostalservice-a77078", "operator": "United States Postal Service", "operator:short": "USPS", "operator:type": "public", "operator:wikidata": "Q668687", "ref": "6134800014"}, "type": "Feature"}
{"geometry": {"coordinates": [-89.461609863, 41.558660892], "type": "Point"}, "id": "6v20_Yr_Vc31jItcXCr-9mybJCw=", "properties": {"@source_uri": "https://tools.usps.com/UspsToolsRestServices/rest/POLocator/findLocations", "@spider": "usps_collection_boxes", "addr:city": "OHIO", "addr:country": "US", "addr:postcode": "61349", "addr:state": "IL", "addr:street_address": "206 N MAIN ST", "amenity": "post_box", "collection_times": "Mo-Fr 14:30; Sa 10:30", "note": "ON 12/24 AND 12/31, THIS BOX MAY BE COLLECTED AS EARLY AS 12 NOON.", "nsi_id": "unitedstatespostalservice-a77078", "operator": "United States Postal Service", "operator:short": "USPS", "operator:type": "public", "operator:wikidata": "Q668687", "ref": "6134900001"}, "type": "Feature"}
{"geometry": {"coordinates": [-89.461609863, 41.558660892], "type": "Point"}, "id": "lOXJk27at0k9aZpANaFZcaJPLCo=", "properties": {"@source_uri": "https://tools.usps.com/UspsToolsRestServices/rest/POLocator/findLocations", "@spider": "usps_collection_boxes", "addr:city": "OHIO", "addr:country": "US", "addr:postcode": "61349", "addr:state": "IL", "addr:street_address": "206 N MAIN ST", "amenity": "post_box", "collection_times": "Mo-Fr 14:30; Sa 10:30", "indoor": "yes", "note": "ON 12/24 AND 12/31, THIS BOX MAY BE COLLECTED AS EARLY AS 12 NOON.", "nsi_id": "unitedstatespostalservice-a77078", "operator": "United States Postal Service", "operator:short": "USPS", "operator:type": "public", "operator:wikidata": "Q668687", "ref": "6134900002"}, "type": "Feature"}
{"geometry": {"coordinates": [-89.461609863, 41.558660892], "type": "Point"}, "id": "SztWt75-MgvBfcfF-SvBHpoU9u8=", "properties": {"@source_uri": "https://tools.usps.com/UspsToolsRestServices/rest/POLocator/findLocations", "@spider": "usps_collection_boxes", "addr:city": "OHIO", "addr:country": "US", "addr:postcode": "61349", "addr:state": "IL", "addr:street_address": "206 N MAIN ST", "amenity": "post_box", "collection_times": "Mo-Fr 14:30; Sa 10:30", "indoor": "yes", "note": "ON 12/24 AND 12/31, THIS BOX MAY BE COLLECTED AS EARLY AS 12 NOON.", "nsi_id": "unitedstatespostalservice-a77078", "operator": "United States Postal Service", "operator:short": "USPS", "operator:type": "public", "operator:wikidata": "Q668687", "ref": "6134900003"}, "type": "Feature"}
{"geometry": {"coordinates": [-88.84342, 41.35215], "type": "Point"}, "id": "zklaBCUMn9op66pAnsCyP2ElXBI=", "properties": {"@source_uri": "https://tools.usps.com/UspsToolsRestServices/rest/POLocator/findLocations", "@spider": "usps_collection_boxes", "addr:city": "OTTAWA", "addr:country": "US", "addr:postcode": "61350", "addr:state": "IL", "addr:street_address": "750 E ETNA RD", "amenity": "post_box", "collection_times": "Mo-Fr 17:00; Sa 15:45", "note": "ON 12/24 AND 12/31, THIS BOX MAY BE COLLECTED AS EARLY AS 12 NOON.", "nsi_id": "unitedstatespostalservice-a77078", "operator": "United States Postal Service", "operator:short": "USPS", "operator:type": "public", "operator:wikidata": "Q668687", "ref": "6135000001"}, "type": "Feature"}
{"geometry": {"coordinates": [-88.845758614, 41.345644025], "type": "Point"}, "id": "SRpQUPBAcokdc-bzNTjRUTH4aPA=", "properties": {"@source_uri": "https://tools.usps.com/UspsToolsRestServices/rest/POLocator/findLocations", "@spider": "usps_collection_boxes", "addr:city": "OTTAWA", "addr:country": "US", "addr:postcode": "61350", "addr:state": "IL", "addr:street_address": "405 W MAIN ST", "amenity": "post_box", "collection_times": "Mo-Fr 16:30; Sa 14:45", "indoor": "yes", "note": "ON 12/24 AND 12/31, THIS BOX MAY BE COLLECTED AS EARLY AS 12 NOON.", "nsi_id": "unitedstatespostalservice-a77078", "operator": "United States Postal Service", "operator:short": "USPS", "operator:type": "public", "operator:wikidata": "Q668687", "ref": "6135000002"}, "type": "Feature"}
{"geometry": {"coordinates": [-88.8412625221, 41.3451621542], "type": "Point"}, "id": "eEVv1U-ztJHdM_wIhyuAww9puNE=", "properties": {"@source_uri": "https://tools.usps.com/UspsToolsRestServices/rest/POLocator/findLocations", "@spider": "usps_collection_boxes", "addr:city": "OTTAWA", "addr:country": "US", "addr:postcode": "61350", "addr:state": "IL", "addr:street_address": "100 LINCOLN PL", "amenity": "post_box", "collection_times": "Mo-Fr 16:00; Sa 14:45", "note": "ON 12/24 AND 12/31, THIS BOX MAY BE COLLECTED AS EARLY AS 12 NOON.", "nsi_id": "unitedstatespostalservice-a77078", "operator": "United States Postal Service", "operator:short": "USPS", "operator:type": "public", "operator:wikidata": "Q668687", "ref": "6135000005"}, "type": "Feature"}
{"geometry": {"coordinates": [-88.826958149, 41.373696655], "type": "Point"}, "id": "Lca-06qvhmLU5d3-TYyqJx1__24=", "properties": {"@source_uri": "https://tools.usps.com/UspsToolsRestServices/rest/POLocator/findLocations", "@spider": "usps_collection_boxes", "addr:city": "OTTAWA", "addr:country": "US", "addr:postcode": "61350", "addr:state": "IL", "addr:street_address": "750 E ETNA RD", "amenity": "post_box", "collection_times": "Mo-Fr 17:00; Sa 16:00", "indoor": "yes", "note": "ON 12/24 AND 12/31, THIS BOX MAY BE COLLECTED AS EARLY AS 12 NOON.", "nsi_id": "unitedstatespostalservice-a77078", "operator": "United States Postal Service", "operator:short": "USPS", "operator:type": "public", "operator:wikidata": "Q668687", "ref": "6135000006"}, "type": "Feature"}
{"geometry": {"coordinates": [-88.826958149, 41.373696655], "type": "Point"}, "id": "qSNbHN9_yx01nb_MFPgeE3c1VBo=", "properties": {"@source_uri": "https://tools.usps.com/UspsToolsRestServices/rest/POLocator/findLocations", "@spider": "usps_collection_boxes", "addr:city": "OTTAWA", "addr:country": "US", "addr:postcode": "61350", "addr:state": "IL", "addr:street_address": "750 E ETNA RD", "amenity": "post_box", "collection_times": "Mo-Fr 17:00; Sa 16:00", "indoor": "yes", "note": "ON 12/24 AND 12/31, THIS BOX MAY BE COLLECTED AS EARLY AS 12 NOON.", "nsi_id": "unitedstatespostalservice-a77078", "operator": "United States Postal Service", "operator:short": "USPS", "operator:type": "public", "operator:wikidata": "Q668687", "ref": "6135000010"}, "type": "Feature"}
{"geometry": {"coordinates": [-88.8356128, 41.32386], "type": "Point"}, "id": "pWyi9M9MjLjPBYtHi1YeMbREqMU=", "properties": {"@source_uri": "https://tools.usps.com/UspsToolsRestServices/rest/POLocator/findLocations", "@spider": "usps_collection_boxes", "addr:city": "OTTAWA", "addr:country": "US", "addr:postcode": "61350", "addr:state": "IL", "addr:street_address": "301 E MCKINLEY RD", "amenity": "post_box", "collection_times": "Mo-Sa 08:30", "nsi_id": "unitedstatespostalservice-a77078", "operator": "United States Postal Service", "operator:short": "USPS", "operator:type": "public", "operator:wikidata": "Q668687", "ref": "6135000012"}, "type": "Feature"}
{"geometry": {"coordinates": [-88.8486686, 41.347944], "type": "Point"}, "id": "plyVwHz8wbM3Wd6qdBePI5I_xuI=", "properties": {"@source_uri": "https://tools.usps.com/UspsToolsRestServices/rest/POLocator/findLocations", "@spider": "usps_collection_boxes", "addr:city": "OTTAWA", "addr:country": "US", "addr:postcode": "61350", "addr:state": "IL", "addr:street_address": "800 CHESTNUT ST", "amenity": "post_box", "collection_times": "Mo-Sa 08:30", "nsi_id": "unitedstatespostalservice-a77078", "operator": "United States Postal Service", "operator:short": "USPS", "operator:type": "public", "operator:wikidata": "Q668687", "ref": "6135000016"}, "type": "Feature"}
{"geometry": {"coordinates": [-88.8411548955, 41.3466303353], "type": "Point"}, "id": "02RgrmK2QrGv0h-HX3lB9a_qZ7U=", "properties": {"@source_uri": "https://tools.usps.com/UspsToolsRestServices/rest/POLocator/findLocations", "@spider": "usps_collection_boxes", "addr:city": "OTTAWA", "addr:country": "US", "addr:postcode": "61350", "addr:state": "IL", "addr:street_address": "628 COLUMBUS ST", "amenity": "post_box", "collection_times": "Mo-Sa 14:00", "note": "ON 12/24 AND 12/31, THIS BOX MAY BE COLLECTED AS EARLY AS 12 NOON.", "nsi_id": "unitedstatespostalservice-a77078", "operator": "United States Postal Service", "operator:short": "USPS", "operator:type": "public", "operator:wikidata": "Q668687", "ref": "6135000017"}, "type": "Feature"}
{"geometry": {"coordinates": [-88.84342, 41.35215], "type": "Point"}, "id": "aLGwLLZ1iRSVijTotO4qiePJAks=", "properties": {"@source_uri": "https://tools.usps.com/UspsToolsRestServices/rest/POLocator/findLocations", "@spider": "usps_collection_boxes", "addr:city": "OTTAWA", "addr:country": "US", "addr:postcode": "61350", "addr:state": "IL", "addr:street_address": "100 W JACKSON ST", "amenity": "post_box", "collection_times": "Mo-Sa 14:00", "note": "ON 12/24 AND 12/31, THIS BOX MAY BE COLLECTED AS EARLY AS 12 NOON.", "nsi_id": "unitedstatespostalservice-a77078", "operator": "United States Postal Service", "operator:short": "USPS", "operator:type": "public", "operator:wikidata": "Q668687", "ref": "6135000027"}, "type": "Feature"}
{"geometry": {"coordinates": [-88.8194871, 41.354567], "type": "Point"}, "id": "82wZKw9TDXu_BoqPi2_72yamrdw=", "properties": {"@source_uri": "https://tools.usps.com/UspsToolsRestServices/rest/POLocator/findLocations", "@spider": "usps_collection_boxes", "addr:city": "OTTAWA", "addr:country": "US", "addr:postcode": "61350", "addr:state": "IL", "addr:street_address": "1311 STARFIRE DR", "amenity": "post_box", "collection_times": "Mo-Fr 08:30; Sa 15:15", "note": "ON 12/24 AND 12/31, THIS BOX MAY BE COLLECTED AS EARLY AS 12 NOON.", "nsi_id": "unitedstatespostalservice-a77078", "operator": "United States Postal Service", "operator:short": "USPS", "operator:type": "public", "operator:wikidata": "Q668687", "ref": "6135000028"}, "type": "Feature"}
{"geometry": {"coordinates": [-88.8411636575, 41.3500372986], "type": "Point"}, "id": "-5UeHwBG1L7a0rmLZI0sxbtkTkU=", "properties": {"@source_uri": "https://tools.usps.com/UspsToolsRestServices/rest/POLocator/findLocations", "@spider": "usps_collection_boxes", "addr:city": "OTTAWA", "addr:country": "US", "addr:postcode": "61350", "addr:state": "IL", "addr:street_address": "100 E LAFAYETTE ST", "amenity": "post_box", "collection_times": "Mo-Sa 14:00", "note": "ON 12/24 AND 12/31, THIS BOX MAY BE COLLECTED AS EARLY AS 12 NOON.", "nsi_id": "unitedstatespostalservice-a77078", "operator": "United States Postal Service", "operator:short": "USPS", "operator:type": "public", "operator:wikidata": "Q668687", "ref": "6135000029"}, "type": "Feature"}
{"geometry": {"coordinates": [-88.8428116, 41.346882], "type": "Point"}, "id": "V8FLcEPGRpmnT2fNdOkR8ApnEl4=", "properties": {"@source_uri": "https://tools.usps.com/UspsToolsRestServices/rest/POLocator/findLocations", "@spider": "usps_collection_boxes", "addr:city": "OTTAWA", "addr:country": "US", "addr:postcode": "61350", "addr:state": "IL", "addr:street_address": "701 LA SALLE ST", "amenity": "post_box", "collection_times": "Mo-Fr 15:30; Sa 15:00", "note": "ON 12/24 AND 12/31, THIS BOX MAY BE COLLECTED AS EARLY AS 12 NOON.", "nsi_id": "unitedstatespostalservice-a77078", "operator": "United States Postal Service", "operator:short": "USPS", "operator:type": "public", "operator:wikidata": "Q668687", "ref": "6135000032"}, "type": "Feature"}
{"geometry": {"coordinates": [-88.8442231, 41.346568], "type": "Point"}, "id": "HvHercSdhXnr4YVZcYXqiuB1yDM=", "properties": {"@source_uri": "https://tools.usps.com/UspsToolsRestServices/rest/POLocator/findLocations", "@spider": "usps_collection_boxes", "addr:city": "OTTAWA", "addr:country": "US", "addr:postcode": "61350", "addr:state": "IL", "addr:street_address": "301 W MADISON ST", "amenity": "post_box", "collection_times": "Mo-Sa 11:00", "nsi_id": "unitedstatespostalservice-a77078", "operator": "United States Postal Service", "operator:short": "USPS", "operator:type": "public", "operator:wikidata": "Q668687", "ref": "6135000039"}, "type": "Feature"}
{"geometry": {"coordinates": [-88.8395693, 41.335997], "type": "Point"}, "id": "GGgfz4oSIgRSQ4MBcGc-PBUMwAM=", "properties": {"@source_uri": "https://tools.usps.com/UspsToolsRestServices/rest/POLocator/findLocations", "@spider": "usps_collection_boxes", "addr:city": "OTTAWA", "addr:country": "US", "addr:postcode": "61350", "addr:state": "IL", "addr:street_address": "538 STATE ST", "amenity": "post_box", "collection_times": "Mo-Sa 13:45", "note": "ON 12/24 AND 12/31, THIS BOX MAY BE COLLECTED AS EARLY AS 12 NOON.", "nsi_id": "unitedstatespostalservice-a77078", "operator": "United States Postal Service", "operator:short": "USPS", "operator:type": "public", "operator:wikidata": "Q668687", "ref": "6135000046"}, "type": "Feature"}
{"geometry": {"coordinates": [-88.8343957, 41.355861], "type": "Point"}, "id": "9M51zFuTodiIiP1fhaweEV4yzvU=", "properties": {"@source_uri": "https://tools.usps.com/UspsToolsRestServices/rest/POLocator/findLocations", "@spider": "usps_collection_boxes", "addr:city": "OTTAWA", "addr:country": "US", "addr:postcode": "61350", "addr:state": "IL", "addr:street_address": "545 E NORRIS DR", "amenity": "post_box", "collection_times": "Mo-Sa 13:00", "note": "ON 12/24 AND 12/31, THIS BOX MAY BE COLLECTED AS EARLY AS 12 NOON.", "nsi_id": "unitedstatespostalservice-a77078", "operator": "United States Postal Service", "operator:short": "USPS", "operator:type": "public", "operator:wikidata": "Q668687", "ref": "6135000057"}, "type": "Feature"}
{"geometry": {"coordinates": [-88.845758614, 41.345644025], "type": "Point"}, "id": "0Y9A8UqRp3vtdhtmC5lUr9vD70E=", "properties": {"@source_uri": "https://tools.usps.com/UspsToolsRestServices/rest/POLocator/findLocations", "@spider": "usps_collection_boxes", "addr:city": "OTTAWA", "addr:country": "US", "addr:postcode": "61350", "addr:state": "IL", "addr:street_address": "405 W MAIN ST", "amenity": "post_box", "collection_times": "Mo-Fr 16:30", "indoor": "yes", "note": "ON 12/24 AND 12/31, THIS BOX MAY BE COLLECTED AS EARLY AS 12 NOON.", "nsi_id": "unitedstatespostalservice-a77078", "operator": "United States Postal Service", "operator:short": "USPS", "operator:type": "public", "operator:wikidata": "Q668687", "ref": "6135000062"}, "type": "Feature"}
{"geometry": {"coordinates": [-88.826958149, 41.373696655], "type": "Point"}, "id": "PZh3gH8_Z0byucpkfbePtAACSuU=", "properties": {"@source_uri": "https://tools.usps.com/UspsToolsRestServices/rest/POLocator/findLocations", "@spider": "usps_collection_boxes", "addr:city": "OTTAWA", "addr:country": "US", "addr:postcode": "61350", "addr:state": "IL", "addr:street_address": "750 E ETNA RD", "amenity": "post_box", "collection_times": "Mo-Fr 17:00; Sa 12:00", "indoor": "yes", "note": "ON 12/24 AND 12/31, THIS BOX MAY BE COLLECTED AS EARLY AS 12 NOON.", "nsi_id": "unitedstatespostalservice-a77078", "operator": "United States Postal Service", "operator:short": "USPS", "operator:type": "public", "operator:wikidata": "Q668687", "ref": "6135000063"}, "type": "Feature"}
{"geometry": {"coordinates": [-88.979870215, 41.688641217], "type": "Point"}, "id": "A8ocX_wqeldF4d8tYEq6RzWAJSY=", "properties": {"@source_uri": "https://tools.usps.com/UspsToolsRestServices/rest/POLocator/findLocations", "@spider": "usps_collection_boxes", "addr:city": "PAW PAW", "addr:country": "US", "addr:postcode": "61353", "addr:state": "IL", "addr:street_address": "226 CHICAGO RD", "amenity": "post_box", "collection_times": "Mo-Fr 16:00; Sa 10:30", "indoor": "yes", "note": "ON 12/24 AND 12/31, THIS BOX MAY BE COLLECTED AS EARLY AS 12 NOON.", "nsi_id": "unitedstatespostalservice-a77078", "operator": "United States Postal Service", "operator:short": "USPS", "operator:type": "public", "operator:wikidata": "Q668687", "ref": "6135300000"}, "type": "Feature"}
{"geometry": {"coordinates": [-88.979870215, 41.688641217], "type": "Point"}, "id": "v5YTnIGjW9LUi1WvYXR10sU2McA=", "properties": {"@source_uri": "https://tools.usps.com/UspsToolsRestServices/rest/POLocator/findLocations", "@spider": "usps_collection_boxes", "addr:city": "PAW PAW", "addr:country": "US", "addr:postcode": "61353", "addr:state": "IL", "addr:street_address": "226 CHICAGO RD", "amenity": "post_box", "collection_times": "Mo-Fr 16:00; Sa 10:30", "note": "ON 12/24 AND 12/31, THIS BOX MAY BE COLLECTED AS EARLY AS 12 NOON.", "nsi_id": "unitedstatespostalservice-a77078", "operator": "United States Postal Service", "operator:short": "USPS", "operator:type": "public", "operator:wikidata": "Q668687", "ref": "6135300001"}, "type": "Feature"}
{"geometry": {"coordinates": [-88.979870215, 41.688641217], "type": "Point"}, "id": "N92B6eqhJYAoZ0Ox27_Qz5eaY_8=", "properties": {"@source_uri": "https://tools.usps.com/UspsToolsRestServices/rest/POLocator/findLocations", "@spider": "usps_collection_boxes", "addr:city": "PAW PAW", "addr:country": "US", "addr:postcode": "61353", "addr:state": "IL", "addr:street_address": "226 CHICAGO RD", "amenity": "post_box", "collection_times": "Mo-Fr 16:00; Sa 10:30", "indoor": "yes", "note": "ON 12/24 AND 12/31, THIS BOX MAY BE COLLECTED AS EARLY AS 12 NOON.", "nsi_id": "unitedstatespostalservice-a77078", "operator": "United States Postal Service", "operator:short": "USPS", "operator:type": "public", "operator:wikidata": "Q668687", "ref": "6135300002"}, "type": "Feature"}
{"geometry": {"coordinates": [-89.116949, 41.34141], "type": "Point"}, "id": "C1NHsaAcZr-XteFafIo8ugBOAkI=", "properties": {"@source_uri": "https://tools.usps.com/UspsToolsRestServices/rest/POLocator/findLocations", "@spider": "usps_collection_boxes", "addr:city": "PERU", "addr:country": "US", "addr:postcode": "61354", "addr:state": "IL", "addr:street_address": "2200 MARQUETTE RD", "amenity": "post_box", "collection_times": "Mo-Sa 15:45", "note": "ON 12/24 AND 12/31, THIS BOX MAY BE COLLECTED AS EARLY AS 12 NOON.", "nsi_id": "unitedstatespostalservice-a77078", "operator": "United States Postal Service", "operator:short": "USPS", "operator:type": "public", "operator:wikidata": "Q668687", "ref": "6135400007"}, "type": "Feature"}
{"geometry": {"coordinates": [-89.125886158, 41.327580039], "type": "Point"}, "id": "q0zwehpx59nuiEhyjBPOighXKnU=", "properties": {"@source_uri": "https://tools.usps.com/UspsToolsRestServices/rest/POLocator/findLocations", "@spider": "usps_collection_boxes", "addr:city": "PERU", "addr:country": "US", "addr:postcode": "61354", "addr:state": "IL", "addr:street_address": "1500 4TH ST", "amenity": "post_box", "collection_times": "Mo-Sa 16:15", "note": "ON 12/24 AND 12/31, THIS BOX MAY BE COLLECTED AS EARLY AS 12 NOON.", "nsi_id": "unitedstatespostalservice-a77078", "operator": "United States Postal Service", "operator:short": "USPS", "operator:type": "public", "operator:wikidata": "Q668687", "ref": "6135400009"}, "type": "Feature"}
{"geometry": {"coordinates": [-89.1215766, 41.339898], "type": "Point"}, "id": "dwOC6iq1EFaO6A6Jypi9sfV92GE=", "properties": {"@source_uri": "https://tools.usps.com/UspsToolsRestServices/rest/POLocator/findLocations", "@spider": "usps_collection_boxes", "addr:city": "PERU", "addr:country": "US", "addr:postcode": "61354", "addr:state": "IL", "addr:street_address": "2011 ROCK ST", "amenity": "post_box", "collection_times": "Mo-Sa 16:00", "note": "ON 12/24 AND 12/31, THIS BOX MAY BE COLLECTED AS EARLY AS 12 NOON.", "nsi_id": "unitedstatespostalservice-a77078", "operator": "United States Postal Service", "operator:short": "USPS", "operator:type": "public", "operator:wikidata": "Q668687", "ref": "6135400010"}, "type": "Feature"}
{"geometry": {"coordinates": [-89.1182507, 41.338883], "type": "Point"}, "id": "u01pQlEPnch6ehUFRJ_bEVhNQ60=", "properties": {"@source_uri": "https://tools.usps.com/UspsToolsRestServices/rest/POLocator/findLocations", "@spider": "usps_collection_boxes", "addr:city": "PERU", "addr:country": "US", "addr:postcode": "61354", "addr:state": "IL", "addr:street_address": "925 SHOOTING PARK RD", "amenity": "post_box", "collection_times": "Mo-Sa 15:45", "note": "ON 12/24 AND 12/31, THIS BOX MAY BE COLLECTED AS EARLY AS 12 NOON.", "nsi_id": "unitedstatespostalservice-a77078", "operator": "United States Postal Service", "operator:short": "USPS", "operator:type": "public", "operator:wikidata": "Q668687", "ref": "6135400012"}, "type": "Feature"}
{"geometry": {"coordinates": [-89.1250936, 41.328705], "type": "Point"}, "id": "00hA8SbJFic1Ki_kcubjh9VeOGY=", "properties": {"@source_uri": "https://tools.usps.com/UspsToolsRestServices/rest/POLocator/findLocations", "@spider": "usps_collection_boxes", "addr:city": "PERU", "addr:country": "US", "addr:postcode": "61354", "addr:state": "IL", "addr:street_address": "925 WEST ST", "amenity": "post_box", "collection_times": "Mo-Sa 16:15", "note": "ON 12/24 AND 12/31, THIS BOX MAY BE COLLECTED AS EARLY AS 12 NOON.", "nsi_id": "unitedstatespostalservice-a77078", "operator": "United States Postal Service", "operator:short": "USPS", "operator:type": "public", "operator:wikidata": "Q668687", "ref": "6135400016"}, "type": "Feature"}
{"geometry": {"coordinates": [-89.1233340228, 41.3559369796], "type": "Point"}, "id": "ElLR-rAV-9PHFQ9_MFm9LYGGXdU=", "properties": {"@source_uri": "https://tools.usps.com/UspsToolsRestServices/rest/POLocator/findLocations", "@spider": "usps_collection_boxes", "addr:city": "PERU", "addr:country": "US", "addr:postcode": "61354", "addr:state": "IL", "addr:street_address": "1220 37TH ST", "amenity": "post_box", "collection_times": "Mo-Sa 15:45", "note": "ON 12/24 AND 12/31, THIS BOX MAY BE COLLECTED AS EARLY AS 12 NOON.", "nsi_id": "unitedstatespostalservice-a77078", "operator": "United States Postal Service", "operator:short": "USPS", "operator:type": "public", "operator:wikidata": "Q668687", "ref": "6135400024"}, "type": "Feature"}
{"geometry": {"coordinates": [-89.1290376, 41.32701], "type": "Point"}, "id": "QUNpTOcxHmZo5knA4EsKBRMX3vE=", "properties": {"@source_uri": "https://tools.usps.com/UspsToolsRestServices/rest/POLocator/findLocations", "@spider": "usps_collection_boxes", "addr:city": "PERU", "addr:country": "US", "addr:postcode": "61354", "addr:state": "IL", "addr:street_address": "1730 4TH ST", "amenity": "post_box", "collection_times": "Mo-Sa 16:00", "note": "ON 12/24 AND 12/31, THIS BOX MAY BE COLLECTED AS EARLY AS 12 NOON.", "nsi_id": "unitedstatespostalservice-a77078", "operator": "United States Postal Service", "operator:short": "USPS", "operator:type": "public", "operator:wikidata": "Q668687", "ref": "6135400028"}, "type": "Feature"}
{"geometry": {"coordinates": [-89.1290936248, 41.327839681], "type": "Point"}, "id": "CsFxbex2QVntE-mGrHVz5iHacjs=", "properties": {"@source_uri": "https://tools.usps.com/UspsToolsRestServices/rest/POLocator/findLocations", "@spider": "usps_collection_boxes", "addr:city": "PERU", "addr:country": "US", "addr:postcode": "61354", "addr:state": "IL", "addr:street_address": "821 PEORIA ST", "amenity": "post_box", "collection_times": "Mo-Sa 16:00", "note": "ON 12/24 AND 12/31, THIS BOX MAY BE COLLECTED AS EARLY AS 12 NOON.", "nsi_id": "unitedstatespostalservice-a77078", "operator": "United States Postal Service", "operator:short": "USPS", "operator:type": "public", "operator:wikidata": "Q668687", "ref": "6135400031"}, "type": "Feature"}
{"geometry": {"coordinates": [-89.125886158, 41.327580039], "type": "Point"}, "id": "V01PS_ZN5vE-zmz7zCKno4Hw3RE=", "properties": {"@source_uri": "https://tools.usps.com/UspsToolsRestServices/rest/POLocator/findLocations", "@spider": "usps_collection_boxes", "addr:city": "PERU", "addr:country": "US", "addr:postcode": "61354", "addr:state": "IL", "addr:street_address": "1500 4TH ST", "amenity": "post_box", "collection_times": "Mo-Fr 16:45; Sa 12:00", "indoor": "yes", "note": "ON 12/24 AND 12/31, THIS BOX MAY BE COLLECTED AS EARLY AS 12 NOON.", "nsi_id": "unitedstatespostalservice-a77078", "operator": "United States Postal Service", "operator:short": "USPS", "operator:type": "public", "operator:wikidata": "Q668687", "ref": "6135400032"}, "type": "Feature"}
{"geometry": {"coordinates": [-89.1271191, 41.34773], "type": "Point"}, "id": "fxeXEPziTtjQXXJ2y03pRA6cBm4=", "properties": {"@source_uri": "https://tools.usps.com/UspsToolsRestServices/rest/POLocator/findLocations", "@spider": "usps_collection_boxes", "addr:city": "PERU", "addr:country": "US", "addr:postcode": "61354", "addr:state": "IL", "addr:street_address": "1651 MIDTOWN RD", "amenity": "post_box", "collection_times": "Mo-Sa 16:00", "note": "ON 12/24 AND 12/31, THIS BOX MAY BE COLLECTED AS EARLY AS 12 NOON.", "nsi_id": "unitedstatespostalservice-a77078", "operator": "United States Postal Service", "operator:short": "USPS", "operator:type": "public", "operator:wikidata": "Q668687", "ref": "6135400033"}, "type": "Feature"}
{"geometry": {"coordinates": [-89.1266477, 41.358349], "type": "Point"}, "id": "ybSJR-c2bDYjTHOW4B2MUD-Jab8=", "properties": {"@source_uri": "https://tools.usps.com/UspsToolsRestServices/rest/POLocator/findLocations", "@spider": "usps_collection_boxes", "addr:city": "PERU", "addr:country": "US", "addr:postcode": "61354", "addr:state": "IL", "addr:street_address": "4141 VENTURE DR", "amenity": "post_box", "collection_times": "Mo-Sa 16:00", "note": "ON 12/24 AND 12/31, THIS BOX MAY BE COLLECTED AS EARLY AS 12 NOON.", "nsi_id": "unitedstatespostalservice-a77078", "operator": "United States Postal Service", "operator:short": "USPS", "operator:type": "public", "operator:wikidata": "Q668687", "ref": "6135400034"}, "type": "Feature"}
{"geometry": {"coordinates": [-89.125886158, 41.327580039], "type": "Point"}, "id": "M3cy1Zrhw_GNkM7uOVvFwFub7ec=", "properties": {"@source_uri": "https://tools.usps.com/UspsToolsRestServices/rest/POLocator/findLocations", "@spider": "usps_collection_boxes", "addr:city": "PERU", "addr:country": "US", "addr:postcode": "61354", "addr:state": "IL", "addr:street_address": "1500 4TH ST", "amenity": "post_box", "collection_times": "Mo-Fr 16:45; Sa 12:00", "indoor": "yes", "note": "ON 12/24 AND 12/31, THIS BOX MAY BE COLLECTED AS EARLY AS 12 NOON.", "nsi_id": "unitedstatespostalservice-a77078", "operator": "United States Postal Service", "operator:short": "USPS", "operator:type": "public", "operator:wikidata": "Q668687", "ref": "6135400038"}, "type": "Feature"}
{"geometry": {"coordinates": [-89.465087119, 41.372010283], "type": "Point"}, "id": "hBo-S8Mj5XXGlEQ7hEYm3Y2ZVyQ=", "properties": {"@source_uri": "https://tools.usps.com/UspsToolsRestServices/rest/POLocator/findLocations", "@spider": "usps_collection_boxes", "addr:city": "PRINCETON", "addr:country": "US", "addr:postcode": "61356", "addr:state": "IL", "addr:street_address": "326 S MAIN ST", "amenity": "post_box", "collection_times": "Mo-Sa 17:00", "note": "ON 12/24 AND 12/31, THIS BOX MAY BE COLLECTED AS EARLY AS 12 NOON.", "nsi_id": "unitedstatespostalservice-a77078", "operator": "United States Postal Service", "operator:short": "USPS", "operator:type": "public", "operator:wikidata": "Q668687", "ref": "6135600003"}, "type": "Feature"}
{"geometry": {"coordinates": [-89.4651935, 41.37517], "type": "Point"}, "id": "mNnHvNDcTOuU05fO3ARw-Xg2e74=", "properties": {"@source_uri": "https://tools.usps.com/UspsToolsRestServices/rest/POLocator/findLocations", "@spider": "usps_collection_boxes", "addr:city": "PRINCETON", "addr:country": "US", "addr:postcode": "61356", "addr:state": "IL", "addr:street_address": "2 S MAIN ST", "amenity": "post_box", "collection_times": "Mo-Sa 16:00", "note": "ON 12/24 AND 12/31, THIS BOX MAY BE COLLECTED AS EARLY AS 12 NOON.", "nsi_id": "unitedstatespostalservice-a77078", "operator": "United States Postal Service", "operator:short": "USPS", "operator:type": "public", "operator:wikidata": "Q668687", "ref": "6135600005"}, "type": "Feature"}
{"geometry": {"coordinates": [-89.4565789, 41.367596], "type": "Point"}, "id": "Bmg2Y33f7sd5ZfFf3ImXGCJO0AU=", "properties": {"@source_uri": "https://tools.usps.com/UspsToolsRestServices/rest/POLocator/findLocations", "@spider": "usps_collection_boxes", "addr:city": "PRINCETON", "addr:country": "US", "addr:postcode": "61356", "addr:state": "IL", "addr:street_address": "530 PARK AVE E", "amenity": "post_box", "collection_times": "Mo-Sa 16:15", "note": "ON 12/24 AND 12/31, THIS BOX MAY BE COLLECTED AS EARLY AS 12 NOON.", "nsi_id": "unitedstatespostalservice-a77078", "operator": "United States Postal Service", "operator:short": "USPS", "operator:type": "public", "operator:wikidata": "Q668687", "ref": "6135600007"}, "type": "Feature"}
{"geometry": {"coordinates": [-89.4650446, 41.369328], "type": "Point"}, "id": "vAgK0WvkOV12FOi5XZ30mgbgpe4=", "properties": {"@source_uri": "https://tools.usps.com/UspsToolsRestServices/rest/POLocator/findLocations", "@spider": "usps_collection_boxes", "addr:city": "PRINCETON", "addr:country": "US", "addr:postcode": "61356", "addr:state": "IL", "addr:street_address": "606 S MAIN ST", "amenity": "post_box", "collection_times": "Mo-Sa 16:15", "note": "ON 12/24 AND 12/31, THIS BOX MAY BE COLLECTED AS EARLY AS 12 NOON.", "nsi_id": "unitedstatespostalservice-a77078", "operator": "United States Postal Service", "operator:short": "USPS", "operator:type": "public", "operator:wikidata": "Q668687", "ref": "6135600009"}, "type": "Feature"}
{"geometry": {"coordinates": [-89.4646083, 41.366828], "type": "Point"}, "id": "994Qp0TEP3KDNCTVaJVI8vmwJ2A=", "properties": {"@source_uri": "https://tools.usps.com/UspsToolsRestServices/rest/POLocator/findLocations", "@spider": "usps_collection_boxes", "addr:city": "PRINCETON", "addr:country": "US", "addr:postcode": "61356", "addr:state": "IL", "addr:street_address": "815 S MAIN ST", "amenity": "post_box", "collection_times": "Mo-Sa 16:15", "note": "ON 12/24 AND 12/31, THIS BOX MAY BE COLLECTED AS EARLY AS 12 NOON.", "nsi_id": "unitedstatespostalservice-a77078", "operator": "United States Postal Service", "operator:short": "USPS", "operator:type": "public", "operator:wikidata": "Q668687", "ref": "6135600011"}, "type": "Feature"}
{"geometry": {"coordinates": [-89.4651719, 41.383717], "type": "Point"}, "id": "3-cAitpaFiWx9HI_L-RBClIMum8=", "properties": {"@source_uri": "https://tools.usps.com/UspsToolsRestServices/rest/POLocator/findLocations", "@spider": "usps_collection_boxes", "addr:city": "PRINCETON", "addr:country": "US", "addr:postcode": "61356", "addr:state": "IL", "addr:street_address": "918 N MAIN ST", "amenity": "post_box", "collection_times": "Mo-Sa 16:00", "note": "ON 12/24 AND 12/31, THIS BOX MAY BE COLLECTED AS EARLY AS 12 NOON.", "nsi_id": "unitedstatespostalservice-a77078", "operator": "United States Postal Service", "operator:short": "USPS", "operator:type": "public", "operator:wikidata": "Q668687", "ref": "6135600013"}, "type": "Feature"}
{"geometry": {"coordinates": [-89.4646729, 41.389244], "type": "Point"}, "id": "oOdL0HPAzvnWwNdgU6BxKRZJHnk=", "properties": {"@source_uri": "https://tools.usps.com/UspsToolsRestServices/rest/POLocator/findLocations", "@spider": "usps_collection_boxes", "addr:city": "PRINCETON", "addr:country": "US", "addr:postcode": "61356", "addr:state": "IL", "addr:street_address": "1407 N MAIN ST", "amenity": "post_box", "collection_times": "Mo-Sa 16:00", "note": "ON 12/24 AND 12/31, THIS BOX MAY BE COLLECTED AS EARLY AS 12 NOON.", "nsi_id": "unitedstatespostalservice-a77078", "operator": "United States Postal Service", "operator:short": "USPS", "operator:type": "public", "operator:wikidata": "Q668687", "ref": "6135600014"}, "type": "Feature"}
{"geometry": {"coordinates": [-89.4658613, 41.394169], "type": "Point"}, "id": "N11DizGoIm-I54SQRde6MDYu-U4=", "properties": {"@source_uri": "https://tools.usps.com/UspsToolsRestServices/rest/POLocator/findLocations", "@spider": "usps_collection_boxes", "addr:city": "PRINCETON", "addr:country": "US", "addr:postcode": "61356", "addr:state": "IL", "addr:street_address": "125 BACKBONE RD E", "amenity": "post_box", "collection_times": "Mo-Sa 16:00", "note": "ON 12/24 AND 12/31, THIS BOX MAY BE COLLECTED AS EARLY AS 12 NOON.", "nsi_id": "unitedstatespostalservice-a77078", "operator": "United States Postal Service", "operator:short": "USPS", "operator:type": "public", "operator:wikidata": "Q668687", "ref": "6135600016"}, "type": "Feature"}
{"geometry": {"coordinates": [-89.4662464, 41.39513], "type": "Point"}, "id": "QN6e70n_vfmm26Zd06Ij010Mju8=", "properties": {"@source_uri": "https://tools.usps.com/UspsToolsRestServices/rest/POLocator/findLocations", "@spider": "usps_collection_boxes", "addr:city": "PRINCETON", "addr:country": "US", "addr:postcode": "61356", "addr:state": "IL", "addr:street_address": "2101 N MAIN ST", "amenity": "post_box", "collection_times": "Mo-Sa 16:00", "note": "ON 12/24 AND 12/31, THIS BOX MAY BE COLLECTED AS EARLY AS 12 NOON.", "nsi_id": "unitedstatespostalservice-a77078", "operator": "United States Postal Service", "operator:short": "USPS", "operator:type": "public", "operator:wikidata": "Q668687", "ref": "6135600017"}, "type": "Feature"}
{"geometry": {"coordinates": [-89.46506, 41.378045], "type": "Point"}, "id": "vhuofMWnCbTM-2gsKaE92ggJHS0=", "properties": {"@source_uri": "https://tools.usps.com/UspsToolsRestServices/rest/POLocator/findLocations", "@spider": "usps_collection_boxes", "addr:city": "PRINCETON", "addr:country": "US", "addr:postcode": "61356", "addr:state": "IL", "addr:street_address": "700 S PLEASANT ST", "amenity": "post_box", "collection_times": "Mo-Sa 16:15", "note": "ON 12/24 AND 12/31, THIS BOX MAY BE COLLECTED AS EARLY AS 12 NOON.", "nsi_id": "unitedstatespostalservice-a77078", "operator": "United States Postal Service", "operator:short": "USPS", "operator:type": "public", "operator:wikidata": "Q668687", "ref": "6135600018"}, "type": "Feature"}
{"geometry": {"coordinates": [-89.4644273, 41.386147], "type": "Point"}, "id": "NBgcrFMwhfqouOxfoDEWicGTAt4=", "properties": {"@source_uri": "https://tools.usps.com/UspsToolsRestServices/rest/POLocator/findLocations", "@spider": "usps_collection_boxes", "addr:city": "PRINCETON", "addr:country": "US", "addr:postcode": "61356", "addr:state": "IL", "addr:street_address": "1155 N MAIN ST", "amenity": "post_box", "collection_times": "Mo-Sa 16:00", "note": "ON 12/24 AND 12/31, THIS BOX MAY BE COLLECTED AS EARLY AS 12 NOON.", "nsi_id": "unitedstatespostalservice-a77078", "operator": "United States Postal Service", "operator:short": "USPS", "operator:type": "public", "operator:wikidata": "Q668687", "ref": "6135600020"}, "type": "Feature"}
{"geometry": {"coordinates": [-89.4511551, 41.369714], "type": "Point"}, "id": "14aqOXPonrwhI7x_MUDK_rpIZlI=", "properties": {"@source_uri": "https://tools.usps.com/UspsToolsRestServices/rest/POLocator/findLocations", "@spider": "usps_collection_boxes", "addr:city": "PRINCETON", "addr:country": "US", "addr:postcode": "61356", "addr:state": "IL", "addr:street_address": "698 E PERU ST", "amenity": "post_box", "collection_times": "Mo-Sa 16:15", "note": "ON 12/24 AND 12/31, THIS BOX MAY BE COLLECTED AS EARLY AS 12 NOON.", "nsi_id": "unitedstatespostalservice-a77078", "operator": "United States Postal Service", "operator:short": "USPS", "operator:type": "public", "operator:wikidata": "Q668687", "ref": "6135600024"}, "type": "Feature"}
{"geometry": {"coordinates": [-89.465087119, 41.372010283], "type": "Point"}, "id": "8MxHL6Pk1Lxd72mlqsHsnSnJSa0=", "properties": {"@source_uri": "https://tools.usps.com/UspsToolsRestServices/rest/POLocator/findLocations", "@spider": "usps_collection_boxes", "addr:city": "PRINCETON", "addr:country": "US", "addr:postcode": "61356", "addr:state": "IL", "addr:street_address": "326 S MAIN ST", "amenity": "post_box", "collection_times": "Mo-Sa 17:00", "indoor": "yes", "note": "ON 12/24 AND 12/31, THIS BOX MAY BE COLLECTED AS EARLY AS 12 NOON.", "nsi_id": "unitedstatespostalservice-a77078", "operator": "United States Postal Service", "operator:short": "USPS", "operator:type": "public", "operator:wikidata": "Q668687", "ref": "6135600025"}, "type": "Feature"}
{"geometry": {"coordinates": [-89.465087119, 41.372010283], "type": "Point"}, "id": "nxVSrKyS08tSMrB0vD2O7BwnwkU=", "properties": {"@source_uri": "https://tools.usps.com/UspsToolsRestServices/rest/POLocator/findLocations", "@spider": "usps_collection_boxes", "addr:city": "PRINCETON", "addr:country": "US", "addr:postcode": "61356", "addr:state": "IL", "addr:street_address": "326 S MAIN ST", "amenity": "post_box", "collection_times": "Mo-Fr 17:00; Sa 12:00", "indoor": "yes", "note": "ON 12/24 AND 12/31, THIS BOX MAY BE COLLECTED AS EARLY AS 12 NOON.", "nsi_id": "unitedstatespostalservice-a77078", "operator": "United States Postal Service", "operator:short": "USPS", "operator:type": "public", "operator:wikidata": "Q668687", "ref": "6135600027"}, "type": "Feature"}
{"geometry": {"coordinates": [-89.042596767, 40.984107333], "type": "Point"}, "id": "YmVhGJRAZqGrmfIVdZNOJr5ecQE=", "properties": {"@source_uri": "https://tools.usps.com/UspsToolsRestServices/rest/POLocator/findLocations", "@spider": "usps_collection_boxes", "addr:city": "RUTLAND", "addr:country": "US", "addr:postcode": "61358", "addr:state": "IL", "addr:street_address": "118 SW FRONT ST", "amenity": "post_box", "collection_times": "Mo-Fr 16:30; Sa 14:00", "note": "ON 12/24 AND 12/31, THIS BOX MAY BE COLLECTED AS EARLY AS 12 NOON.", "nsi_id": "unitedstatespostalservice-a77078", "operator": "United States Postal Service", "operator:short": "USPS", "operator:type": "public", "operator:wikidata": "Q668687", "ref": "6135800000"}, "type": "Feature"}
{"geometry": {"coordinates": [-89.042596767, 40.984107333], "type": "Point"}, "id": "OY_BL6Gn-FOb4A2rZ45L6QeB4JM=", "properties": {"@source_uri": "https://tools.usps.com/UspsToolsRestServices/rest/POLocator/findLocations", "@spider": "usps_collection_boxes", "addr:city": "RUTLAND", "addr:country": "US", "addr:postcode": "61358", "addr:state": "IL", "addr:street_address": "118 SW FRONT ST", "amenity": "post_box", "collection_times": "Mo-Fr 16:30; Sa 14:00", "indoor": "yes", "note": "ON 12/24 AND 12/31, THIS BOX MAY BE COLLECTED AS EARLY AS 12 NOON.", "nsi_id": "unitedstatespostalservice-a77078", "operator": "United States Postal Service", "operator:short": "USPS", "operator:type": "public", "operator:wikidata": "Q668687", "ref": "6135800001"}, "type": "Feature"}
{"geometry": {"coordinates": [-89.042596767, 40.984107333], "type": "Point"}, "id": "Izl2z0uRhkdjKYOKLHttRGYBOIw=", "properties": {"@source_uri": "https://tools.usps.com/UspsToolsRestServices/rest/POLocator/findLocations", "@spider": "usps_collection_boxes", "addr:city": "RUTLAND", "addr:country": "US", "addr:postcode": "61358", "addr:state": "IL", "addr:street_address": "118 SW FRONT ST", "amenity": "post_box", "collection_times": "Mo-Fr 16:30; Sa 14:00", "indoor": "yes", "note": "ON 12/24 AND 12/31, THIS BOX MAY BE COLLECTED AS EARLY AS 12 NOON.", "nsi_id": "unitedstatespostalservice-a77078", "operator": "United States Postal Service", "operator:short": "USPS", "operator:type": "public", "operator:wikidata": "Q668687", "ref": "6135800002"}, "type": "Feature"}
{"geometry": {"coordinates": [-89.277476594, 41.36467002], "type": "Point"}, "id": "kbrUOHIfWmiz9TDzGYco3_F1Y44=", "properties": {"@source_uri": "https://tools.usps.com/UspsToolsRestServices/rest/POLocator/findLocations", "@spider": "usps_collection_boxes", "addr:city": "SEATONVILLE", "addr:country": "US", "addr:postcode": "61359", "addr:state": "IL", "addr:street_address": "114 ROUTE 6", "amenity": "post_box", "collection_times": "Mo-Fr 16:00; Sa 14:30", "note": "ON 12/24 AND 12/31, THIS BOX MAY BE COLLECTED AS EARLY AS 12 NOON.", "nsi_id": "unitedstatespostalservice-a77078", "operator": "United States Postal Service", "operator:short": "USPS", "operator:type": "public", "operator:wikidata": "Q668687", "ref": "6135900000"}, "type": "Feature"}
{"geometry": {"coordinates": [-89.277476594, 41.36467002], "type": "Point"}, "id": "-fEHsfKzpXr6cKjk3M9ln3JyMRQ=", "properties": {"@source_uri": "https://tools.usps.com/UspsToolsRestServices/rest/POLocator/findLocations", "@spider": "usps_collection_boxes", "addr:city": "SEATONVILLE", "addr:country": "US", "addr:postcode": "61359", "addr:state": "IL", "addr:street_address": "114 ROUTE 6", "amenity": "post_box", "collection_times": "Mo-Fr 16:30; Sa 14:30", "indoor": "yes", "note": "ON 12/24 AND 12/31, THIS BOX MAY BE COLLECTED AS EARLY AS 12 NOON.", "nsi_id": "unitedstatespostalservice-a77078", "operator": "United States Postal Service", "operator:short": "USPS", "operator:type": "public", "operator:wikidata": "Q668687", "ref": "6135900001"}, "type": "Feature"}
{"geometry": {"coordinates": [-89.277476594, 41.36467002], "type": "Point"}, "id": "JOxNXPvq6-Xdn0C3rNUoYIBlTiQ=", "properties": {"@source_uri": "https://tools.usps.com/UspsToolsRestServices/rest/POLocator/findLocations", "@spider": "usps_collection_boxes", "addr:city": "SEATONVILLE", "addr:country": "US", "addr:postcode": "61359", "addr:state": "IL", "addr:street_address": "114 ROUTE 6", "amenity": "post_box", "collection_times": "Mo-Fr 16:30; Sa 14:30", "indoor": "yes", "note": "ON 12/24 AND 12/31, THIS BOX MAY BE COLLECTED AS EARLY AS 12 NOON.", "nsi_id": "unitedstatespostalservice-a77078", "operator": "United States Postal Service", "operator:short": "USPS", "operator:type": "public", "operator:wikidata": "Q668687", "ref": "6135900002"}, "type": "Feature"}
{"geometry": {"coordinates": [-88.610064559, 41.3162175], "type": "Point"}, "id": "p9IHBhlInyQh5WwmE9FBudNW810=", "properties": {"@source_uri": "https://tools.usps.com/UspsToolsRestServices/rest/POLocator/findLocations", "@spider": "usps_collection_boxes", "addr:city": "SENECA", "addr:country": "US", "addr:postcode": "61360", "addr:state": "IL", "addr:street_address": "121 E ARMOUR ST", "amenity": "post_box", "collection_times": "Mo-Fr 16:00; Sa 11:00", "note": "ON 12/24 AND 12/31, THIS BOX MAY BE COLLECTED AS EARLY AS 12 NOON.", "nsi_id": "unitedstatespostalservice-a77078", "operator": "United States Postal Service", "operator:short": "USPS", "operator:type": "public", "operator:wikidata": "Q668687", "ref": "6136000000"}, "type": "Feature"}
{"geometry": {"coordinates": [-88.610064559, 41.3162175], "type": "Point"}, "id": "I80jUAK8IdPfM_8MYfcduG2fLdU=", "properties": {"@source_uri": "https://tools.usps.com/UspsToolsRestServices/rest/POLocator/findLocations", "@spider": "usps_collection_boxes", "addr:city": "SENECA", "addr:country": "US", "addr:postcode": "61360", "addr:state": "IL", "addr:street_address": "121 E ARMOUR ST", "amenity": "post_box", "collection_times": "Mo-Fr 16:00; Sa 11:00", "indoor": "yes", "note": "ON 12/24 AND 12/31, THIS BOX MAY BE COLLECTED AS EARLY AS 12 NOON.", "nsi_id": "unitedstatespostalservice-a77078", "operator": "United States Postal Service", "operator:short": "USPS", "operator:type": "public", "operator:wikidata": "Q668687", "ref": "6136000001"}, "type": "Feature"}
{"geometry": {"coordinates": [-88.6039023, 41.291094], "type": "Point"}, "id": "P3JXJXzpbmVR8dn5T1AulDRqAsk=", "properties": {"@source_uri": "https://tools.usps.com/UspsToolsRestServices/rest/POLocator/findLocations", "@spider": "usps_collection_boxes", "addr:city": "SENECA", "addr:country": "US", "addr:postcode": "61360", "addr:state": "IL", "addr:street_address": "2464 E 29TH RD", "amenity": "post_box", "collection_times": "Mo-Sa 12:30", "note": "ON 12/24 AND 12/31, THIS BOX MAY BE COLLECTED AS EARLY AS 12 NOON.", "nsi_id": "unitedstatespostalservice-a77078", "operator": "United States Postal Service", "operator:short": "USPS", "operator:type": "public", "operator:wikidata": "Q668687", "ref": "6136000002"}, "type": "Feature"}
{"geometry": {"coordinates": [-88.6100704, 41.306818], "type": "Point"}, "id": "QkEgTYmxNr2CvC3Yr1w6mdqm434=", "properties": {"@source_uri": "https://tools.usps.com/UspsToolsRestServices/rest/POLocator/findLocations", "@spider": "usps_collection_boxes", "addr:city": "SENECA", "addr:country": "US", "addr:postcode": "61360", "addr:state": "IL", "addr:street_address": "271 S MAIN ST", "amenity": "post_box", "collection_times": "Mo-Sa 12:30", "note": "ON 12/24 AND 12/31, THIS BOX MAY BE COLLECTED AS EARLY AS 12 NOON.", "nsi_id": "unitedstatespostalservice-a77078", "operator": "United States Postal Service", "operator:short": "USPS", "operator:type": "public", "operator:wikidata": "Q668687", "ref": "6136000004"}, "type": "Feature"}
{"geometry": {"coordinates": [-88.610064559, 41.3162175], "type": "Point"}, "id": "81ChDNAT_i2K2c2LLwdyaYwS9qg=", "properties": {"@source_uri": "https://tools.usps.com/UspsToolsRestServices/rest/POLocator/findLocations", "@spider": "usps_collection_boxes", "addr:city": "SENECA", "addr:country": "US", "addr:postcode": "61360", "addr:state": "IL", "addr:street_address": "121 E ARMOUR ST", "amenity": "post_box", "collection_times": "Mo-Fr 16:00; Sa 11:00", "indoor": "yes", "note": "ON 12/24 AND 12/31, THIS BOX MAY BE COLLECTED AS EARLY AS 12 NOON.", "nsi_id": "unitedstatespostalservice-a77078", "operator": "United States Postal Service", "operator:short": "USPS", "operator:type": "public", "operator:wikidata": "Q668687", "ref": "6136000005"}, "type": "Feature"}
{"geometry": {"coordinates": [-89.736839966, 41.35822], "type": "Point"}, "id": "ZDtmfT1aCpu11T5tdy5fM2VbaTY=", "properties": {"@source_uri": "https://tools.usps.com/UspsToolsRestServices/rest/POLocator/findLocations", "@spider": "usps_collection_boxes", "addr:city": "SHEFFIELD", "addr:country": "US", "addr:postcode": "61361", "addr:state": "IL", "addr:street_address": "116 S MAIN ST", "amenity": "post_box", "collection_times": "Mo-Fr 14:30; Sa 10:30", "note": "ON 12/24 AND 12/31, THIS BOX MAY BE COLLECTED AS EARLY AS 12 NOON.", "nsi_id": "unitedstatespostalservice-a77078", "operator": "United States Postal Service", "operator:short": "USPS", "operator:type": "public", "operator:wikidata": "Q668687", "ref": "6136100000"}, "type": "Feature"}
{"geometry": {"coordinates": [-89.73731341, 41.358203948], "type": "Point"}, "id": "wUseQE-lqJmaspQ7krwUm2gkvOo=", "properties": {"@source_uri": "https://tools.usps.com/UspsToolsRestServices/rest/POLocator/findLocations", "@spider": "usps_collection_boxes", "addr:city": "SHEFFIELD", "addr:country": "US", "addr:postcode": "61361", "addr:state": "IL", "addr:street_address": "116 S MAIN ST", "amenity": "post_box", "collection_times": "Mo-Fr 14:30; Sa 11:00", "indoor": "yes", "note": "ON 12/24 AND 12/31, THIS BOX MAY BE COLLECTED AS EARLY AS 12 NOON.", "nsi_id": "unitedstatespostalservice-a77078", "operator": "United States Postal Service", "operator:short": "USPS", "operator:type": "public", "operator:wikidata": "Q668687", "ref": "6136100002"}, "type": "Feature"}
{"geometry": {"coordinates": [-89.73731341, 41.358203948], "type": "Point"}, "id": "jXezd1bBXQQO0-myu-bC5DrNhsU=", "properties": {"@source_uri": "https://tools.usps.com/UspsToolsRestServices/rest/POLocator/findLocations", "@spider": "usps_collection_boxes", "addr:city": "SHEFFIELD", "addr:country": "US", "addr:postcode": "61361", "addr:state": "IL", "addr:street_address": "116 S MAIN ST", "amenity": "post_box", "collection_times": "Mo-Fr 14:30; Sa 11:00", "indoor": "yes", "note": "ON 12/24 AND 12/31, THIS BOX MAY BE COLLECTED AS EARLY AS 12 NOON.", "nsi_id": "unitedstatespostalservice-a77078", "operator": "United States Postal Service", "operator:short": "USPS", "operator:type": "public", "operator:wikidata": "Q668687", "ref": "6136100003"}, "type": "Feature"}
{"geometry": {"coordinates": [-89.199765799, 41.325736494], "type": "Point"}, "id": "5cvdKLHl7pD6w8QM6IXl0n8USQs=", "properties": {"@source_uri": "https://tools.usps.com/UspsToolsRestServices/rest/POLocator/findLocations", "@spider": "usps_collection_boxes", "addr:city": "SPRING VALLEY", "addr:country": "US", "addr:postcode": "61362", "addr:state": "IL", "addr:street_address": "100 E ERIE ST", "amenity": "post_box", "collection_times": "Mo-Fr 16:45; Sa 13:00", "indoor": "yes", "note": "ON 12/24 AND 12/31, THIS BOX MAY BE COLLECTED AS EARLY AS 12 NOON.", "nsi_id": "unitedstatespostalservice-a77078", "operator": "United States Postal Service", "operator:short": "USPS", "operator:type": "public", "operator:wikidata": "Q668687", "ref": "6136200001"}, "type": "Feature"}
{"geometry": {"coordinates": [-89.199765799, 41.325736494], "type": "Point"}, "id": "-GP1GD8i_Dw6VECrHIODzbXquDM=", "properties": {"@source_uri": "https://tools.usps.com/UspsToolsRestServices/rest/POLocator/findLocations", "@spider": "usps_collection_boxes", "addr:city": "SPRING VALLEY", "addr:country": "US", "addr:postcode": "61362", "addr:state": "IL", "addr:street_address": "100 E ERIE ST", "amenity": "post_box", "collection_times": "Mo-Fr 16:45; Sa 13:00", "indoor": "yes", "note": "ON 12/24 AND 12/31, THIS BOX MAY BE COLLECTED AS EARLY AS 12 NOON.", "nsi_id": "unitedstatespostalservice-a77078", "operator": "United States Postal Service", "operator:short": "USPS", "operator:type": "public", "operator:wikidata": "Q668687", "ref": "6136200012"}, "type": "Feature"}
{"geometry": {"coordinates": [-89.199765799, 41.325736494], "type": "Point"}, "id": "sshZkDzswStmG5e4WoQWN1lBbiQ=", "properties": {"@source_uri": "https://tools.usps.com/UspsToolsRestServices/rest/POLocator/findLocations", "@spider": "usps_collection_boxes", "addr:city": "SPRING VALLEY", "addr:country": "US", "addr:postcode": "61362", "addr:state": "IL", "addr:street_address": "100 E ERIE ST", "amenity": "post_box", "collection_times": "Mo-Fr 16:30; Sa 13:00", "note": "ON 12/24 AND 12/31, THIS BOX MAY BE COLLECTED AS EARLY AS 12 NOON.", "nsi_id": "unitedstatespostalservice-a77078", "operator": "United States Postal Service", "operator:short": "USPS", "operator:type": "public", "operator:wikidata": "Q668687", "ref": "6136200013"}, "type": "Feature"}
{"geometry": {"coordinates": [-89.199765799, 41.325736494], "type": "Point"}, "id": "naJCu1rK6s8C7oUIF8XxkofL8nw=", "properties": {"@source_uri": "https://tools.usps.com/UspsToolsRestServices/rest/POLocator/findLocations", "@spider": "usps_collection_boxes", "addr:city": "SPRING VALLEY", "addr:country": "US", "addr:postcode": "61362", "addr:state": "IL", "addr:street_address": "100 E ERIE ST", "amenity": "post_box", "collection_times": "Mo-Fr 17:00; Sa 12:00", "indoor": "yes", "note": "ON 12/24 AND 12/31, THIS BOX MAY BE COLLECTED AS EARLY AS 12 NOON.", "nsi_id": "unitedstatespostalservice-a77078", "operator": "United States Postal Service", "operator:short": "USPS", "operator:type": "public", "operator:wikidata": "Q668687", "ref": "6136200015"}, "type": "Feature"}
{"geometry": {"coordinates": [-89.181125, 41.25736], "type": "Point"}, "id": "zkF0BEdPAZQJntprx1dR3UAwb-s=", "properties": {"@source_uri": "https://tools.usps.com/UspsToolsRestServices/rest/POLocator/findLocations", "@spider": "usps_collection_boxes", "addr:city": "STANDARD", "addr:country": "US", "addr:postcode": "61363", "addr:state": "IL", "addr:street_address": "106 S SECOND ST", "amenity": "post_box", "collection_times": "Mo-Fr 16:00; Sa 10:30", "note": "ON 12/24 AND 12/31, THIS BOX MAY BE COLLECTED AS EARLY AS 12 NOON.", "nsi_id": "unitedstatespostalservice-a77078", "operator": "United States Postal Service", "operator:short": "USPS", "operator:type": "public", "operator:wikidata": "Q668687", "ref": "6136300000"}, "type": "Feature"}
{"geometry": {"coordinates": [-89.181127, 41.257828], "type": "Point"}, "id": "MFytjQxLsAeLwso1akq_0-3Gc8E=", "properties": {"@source_uri": "https://tools.usps.com/UspsToolsRestServices/rest/POLocator/findLocations", "@spider": "usps_collection_boxes", "addr:city": "STANDARD", "addr:country": "US", "addr:postcode": "61363", "addr:state": "IL", "addr:street_address": "106 S SECOND ST", "amenity": "post_box", "collection_times": "Mo-Fr 15:45; Sa 12:30", "indoor": "yes", "note": "ON 12/24 AND 12/31, THIS BOX MAY BE COLLECTED AS EARLY AS 12 NOON.", "nsi_id": "unitedstatespostalservice-a77078", "operator": "United States Postal Service", "operator:short": "USPS", "operator:type": "public", "operator:wikidata": "Q668687", "ref": "6136300001"}, "type": "Feature"}
{"geometry": {"coordinates": [-89.181072154, 41.25776668], "type": "Point"}, "id": "K6yuEScPdG-izkj8zkp9r4jsaFo=", "properties": {"@source_uri": "https://tools.usps.com/UspsToolsRestServices/rest/POLocator/findLocations", "@spider": "usps_collection_boxes", "addr:city": "STANDARD", "addr:country": "US", "addr:postcode": "61363", "addr:state": "IL", "addr:street_address": "106 S 2ND ST", "amenity": "post_box", "collection_times": "Mo-Fr 15:45; Sa 12:30", "indoor": "yes", "note": "ON 12/24 AND 12/31, THIS BOX MAY BE COLLECTED AS EARLY AS 12 NOON.", "nsi_id": "unitedstatespostalservice-a77078", "operator": "United States Postal Service", "operator:short": "USPS", "operator:type": "public", "operator:wikidata": "Q668687", "ref": "6136300002"}, "type": "Feature"}
{"geometry": {"coordinates": [-88.8362527, 41.14857], "type": "Point"}, "id": "Yn7tBXQUGlU2egH2-Ybsc7nrN30=", "properties": {"@source_uri": "https://tools.usps.com/UspsToolsRestServices/rest/POLocator/findLocations", "@spider": "usps_collection_boxes", "addr:city": "STREATOR", "addr:country": "US", "addr:postcode": "61364", "addr:state": "IL", "addr:street_address": "2324 N BLOOMINGTON ST", "amenity": "post_box", "collection_times": "Mo-Sa 09:00", "nsi_id": "unitedstatespostalservice-a77078", "operator": "United States Postal Service", "operator:short": "USPS", "operator:type": "public", "operator:wikidata": "Q668687", "ref": "6136400004"}, "type": "Feature"}
{"geometry": {"coordinates": [-88.832853, 41.121197], "type": "Point"}, "id": "XXjAE12cKR66w2ZvZ_D_62VZ-V0=", "properties": {"@source_uri": "https://tools.usps.com/UspsToolsRestServices/rest/POLocator/findLocations", "@spider": "usps_collection_boxes", "addr:city": "STREATOR", "addr:country": "US", "addr:postcode": "61364", "addr:state": "IL", "addr:street_address": "117 N MONROE ST", "amenity": "post_box", "collection_times": "Mo-Fr 17:00; Sa 15:30", "note": "ON 12/24 AND 12/31, THIS BOX MAY BE COLLECTED AS EARLY AS 12 NOON.", "nsi_id": "unitedstatespostalservice-a77078", "operator": "United States Postal Service", "operator:short": "USPS", "operator:type": "public", "operator:wikidata": "Q668687", "ref": "6136400009"}, "type": "Feature"}
{"geometry": {"coordinates": [-88.8367039, 41.14334], "type": "Point"}, "id": "JlTDvNoJspQour-_gSCqLAsUguE=", "properties": {"@source_uri": "https://tools.usps.com/UspsToolsRestServices/rest/POLocator/findLocations", "@spider": "usps_collection_boxes", "addr:city": "STREATOR", "addr:country": "US", "addr:postcode": "61364", "addr:state": "IL", "addr:street_address": "7 NORTH POINT DR", "amenity": "post_box", "collection_times": "Mo-Sa 10:00", "nsi_id": "unitedstatespostalservice-a77078", "operator": "United States Postal Service", "operator:short": "USPS", "operator:type": "public", "operator:wikidata": "Q668687", "ref": "6136400013"}, "type": "Feature"}
{"geometry": {"coordinates": [-88.841091, 41.119347], "type": "Point"}, "id": "K9yIkwwLv1xDIIBmEKuRM3omtFo=", "properties": {"@source_uri": "https://tools.usps.com/UspsToolsRestServices/rest/POLocator/findLocations", "@spider": "usps_collection_boxes", "addr:city": "STREATOR", "addr:country": "US", "addr:postcode": "61364", "addr:state": "IL", "addr:street_address": "104 ARMORY CT", "amenity": "post_box", "collection_times": "Mo-Sa 10:00", "nsi_id": "unitedstatespostalservice-a77078", "operator": "United States Postal Service", "operator:short": "USPS", "operator:type": "public", "operator:wikidata": "Q668687", "ref": "6136400020"}, "type": "Feature"}
{"geometry": {"coordinates": [-88.8338504, 41.149617], "type": "Point"}, "id": "ab5UvJ70C2bjzHdvWogPcAPr3xo=", "properties": {"@source_uri": "https://tools.usps.com/UspsToolsRestServices/rest/POLocator/findLocations", "@spider": "usps_collection_boxes", "addr:city": "STREATOR", "addr:country": "US", "addr:postcode": "61364", "addr:state": "IL", "addr:street_address": "2399 N BLOOMINGTON ST", "amenity": "post_box", "collection_times": "Mo-Sa 09:00", "nsi_id": "unitedstatespostalservice-a77078", "operator": "United States Postal Service", "operator:short": "USPS", "operator:type": "public", "operator:wikidata": "Q668687", "ref": "6136400021"}, "type": "Feature"}
{"geometry": {"coordinates": [-88.833896753, 41.121934293], "type": "Point"}, "id": "gSj9HAI5Q-ICuHTG5Hg22H3sG3s=", "properties": {"@source_uri": "https://tools.usps.com/UspsToolsRestServices/rest/POLocator/findLocations", "@spider": "usps_collection_boxes", "addr:city": "STREATOR", "addr:country": "US", "addr:postcode": "61364", "addr:state": "IL", "addr:street_address": "221 E HICKORY ST", "amenity": "post_box", "collection_times": "Mo-Fr 17:00; Sa 15:30", "indoor": "yes", "note": "ON 12/24 AND 12/31, THIS BOX MAY BE COLLECTED AS EARLY AS 12 NOON.", "nsi_id": "unitedstatespostalservice-a77078", "operator": "United States Postal Service", "operator:short": "USPS", "operator:type": "public", "operator:wikidata": "Q668687", "ref": "6136400022"}, "type": "Feature"}
{"geometry": {"coordinates": [-88.8327616, 41.122126], "type": "Point"}, "id": "4awI_S1Baj9HIFdIy00JZbJ8nPQ=", "properties": {"@source_uri": "https://tools.usps.com/UspsToolsRestServices/rest/POLocator/findLocations", "@spider": "usps_collection_boxes", "addr:city": "STREATOR", "addr:country": "US", "addr:postcode": "61364", "addr:state": "IL", "addr:street_address": "300 E HICKORY ST", "amenity": "post_box", "collection_times": "Mo-Fr 16:45; Sa 15:30", "note": "ON 12/24 AND 12/31, THIS BOX MAY BE COLLECTED AS EARLY AS 12 NOON.", "nsi_id": "unitedstatespostalservice-a77078", "operator": "United States Postal Service", "operator:short": "USPS", "operator:type": "public", "operator:wikidata": "Q668687", "ref": "6136400023"}, "type": "Feature"}
{"geometry": {"coordinates": [-88.833896753, 41.121934293], "type": "Point"}, "id": "TwRRTu4QSBLQDbksp7d1F2Y-J1Q=", "properties": {"@source_uri": "https://tools.usps.com/UspsToolsRestServices/rest/POLocator/findLocations", "@spider": "usps_collection_boxes", "addr:city": "STREATOR", "addr:country": "US", "addr:postcode": "61364", "addr:state": "IL", "addr:street_address": "221 E HICKORY ST", "amenity": "post_box", "collection_times": "Mo-Fr 17:00; Sa 13:00", "indoor": "yes", "note": "ON 12/24 AND 12/31, THIS BOX MAY BE COLLECTED AS EARLY AS 12 NOON.", "nsi_id": "unitedstatespostalservice-a77078", "operator": "United States Postal Service", "operator:short": "USPS", "operator:type": "public", "operator:wikidata": "Q668687", "ref": "6136400030"}, "type": "Feature"}
{"geometry": {"coordinates": [-89.228898009, 41.643130528], "type": "Point"}, "id": "otQc7sZjInR01WkW6qjjKG6Zmws=", "properties": {"@source_uri": "https://tools.usps.com/UspsToolsRestServices/rest/POLocator/findLocations", "@spider": "usps_collection_boxes", "addr:city": "SUBLETTE", "addr:country": "US", "addr:postcode": "61367", "addr:state": "IL", "addr:street_address": "105 W MAIN ST", "amenity": "post_box", "collection_times": "Mo-Fr 15:30; Sa 10:00", "note": "ON 12/24 AND 12/31, THIS BOX MAY BE COLLECTED AS EARLY AS 12 NOON.", "nsi_id": "unitedstatespostalservice-a77078", "operator": "United States Postal Service", "operator:short": "USPS", "operator:type": "public", "operator:wikidata": "Q668687", "ref": "6136700000"}, "type": "Feature"}
{"geometry": {"coordinates": [-89.228898009, 41.643130528], "type": "Point"}, "id": "BsqhZRf3xDrbcSQGJhhDzlohHIc=", "properties": {"@source_uri": "https://tools.usps.com/UspsToolsRestServices/rest/POLocator/findLocations", "@spider": "usps_collection_boxes", "addr:city": "SUBLETTE", "addr:country": "US", "addr:postcode": "61367", "addr:state": "IL", "addr:street_address": "105 W MAIN ST", "amenity": "post_box", "collection_times": "Mo-Fr 15:30; Sa 10:00", "indoor": "yes", "note": "ON 12/24 AND 12/31, THIS BOX MAY BE COLLECTED AS EARLY AS 12 NOON.", "nsi_id": "unitedstatespostalservice-a77078", "operator": "United States Postal Service", "operator:short": "USPS", "operator:type": "public", "operator:wikidata": "Q668687", "ref": "6136700001"}, "type": "Feature"}
{"geometry": {"coordinates": [-89.228898009, 41.643130528], "type": "Point"}, "id": "X2Rf1s_CnyrneQStnwssvJhtuH8=", "properties": {"@source_uri": "https://tools.usps.com/UspsToolsRestServices/rest/POLocator/findLocations", "@spider": "usps_collection_boxes", "addr:city": "SUBLETTE", "addr:country": "US", "addr:postcode": "61367", "addr:state": "IL", "addr:street_address": "105 W MAIN ST", "amenity": "post_box", "collection_times": "Mo-Fr 15:30; Sa 10:00", "indoor": "yes", "note": "ON 12/24 AND 12/31, THIS BOX MAY BE COLLECTED AS EARLY AS 12 NOON.", "nsi_id": "unitedstatespostalservice-a77078", "operator": "United States Postal Service", "operator:short": "USPS", "operator:type": "public", "operator:wikidata": "Q668687", "ref": "6136700002"}, "type": "Feature"}
{"geometry": {"coordinates": [-89.505333168, 41.292229528], "type": "Point"}, "id": "wmMwsoGmVasSzc5kEb10FTumQFg=", "properties": {"@source_uri": "https://tools.usps.com/UspsToolsRestServices/rest/POLocator/findLocations", "@spider": "usps_collection_boxes", "addr:city": "TISKILWA", "addr:country": "US", "addr:postcode": "61368", "addr:state": "IL", "addr:street_address": "200 E MAIN ST", "amenity": "post_box", "collection_times": "Mo-Fr 16:15; Sa 11:00", "note": "ON 12/24 AND 12/31, THIS BOX MAY BE COLLECTED AS EARLY AS 12 NOON.", "nsi_id": "unitedstatespostalservice-a77078", "operator": "United States Postal Service", "operator:short": "USPS", "operator:type": "public", "operator:wikidata": "Q668687", "ref": "6136800002"}, "type": "Feature"}
{"geometry": {"coordinates": [-89.505333168, 41.292229528], "type": "Point"}, "id": "7a_nJYPZaShzRSenPUIrEwnBp9E=", "properties": {"@source_uri": "https://tools.usps.com/UspsToolsRestServices/rest/POLocator/findLocations", "@spider": "usps_collection_boxes", "addr:city": "TISKILWA", "addr:country": "US", "addr:postcode": "61368", "addr:state": "IL", "addr:street_address": "200 E MAIN ST", "amenity": "post_box", "collection_times": "Mo-Fr 16:00; Sa 11:00", "indoor": "yes", "note": "ON 12/24 AND 12/31, THIS BOX MAY BE COLLECTED AS EARLY AS 12 NOON.", "nsi_id": "unitedstatespostalservice-a77078", "operator": "United States Postal Service", "operator:short": "USPS", "operator:type": "public", "operator:wikidata": "Q668687", "ref": "6136800003"}, "type": "Feature"}
{"geometry": {"coordinates": [-89.505333168, 41.292229528], "type": "Point"}, "id": "dsF2zT8xFr1u8P7ljG5TQne6yO4=", "properties": {"@source_uri": "https://tools.usps.com/UspsToolsRestServices/rest/POLocator/findLocations", "@spider": "usps_collection_boxes", "addr:city": "TISKILWA", "addr:country": "US", "addr:postcode": "61368", "addr:state": "IL", "addr:street_address": "200 E MAIN ST", "amenity": "post_box", "collection_times": "Mo-Fr 16:00; Sa 11:00", "indoor": "yes", "note": "ON 12/24 AND 12/31, THIS BOX MAY BE COLLECTED AS EARLY AS 12 NOON.", "nsi_id": "unitedstatespostalservice-a77078", "operator": "United States Postal Service", "operator:short": "USPS", "operator:type": "public", "operator:wikidata": "Q668687", "ref": "6136800004"}, "type": "Feature"}
{"geometry": {"coordinates": [-89.134901711, 41.001858547], "type": "Point"}, "id": "vGL673Lt_E-MaZj_fzJTtskoabg=", "properties": {"@source_uri": "https://tools.usps.com/UspsToolsRestServices/rest/POLocator/findLocations", "@spider": "usps_collection_boxes", "addr:city": "TOLUCA", "addr:country": "US", "addr:postcode": "61369", "addr:state": "IL", "addr:street_address": "120 W SANTA FE AVE", "amenity": "post_box", "collection_times": "Mo-Fr 16:30; Sa 11:00", "note": "ON 12/24 AND 12/31, THIS BOX MAY BE COLLECTED AS EARLY AS 12 NOON.", "nsi_id": "unitedstatespostalservice-a77078", "operator": "United States Postal Service", "operator:short": "USPS", "operator:type": "public", "operator:wikidata": "Q668687", "ref": "6136900001"}, "type": "Feature"}
{"geometry": {"coordinates": [-89.134901711, 41.001858547], "type": "Point"}, "id": "eg-3OIjMuA6FkshVNbOS8ZUn5RA=", "properties": {"@source_uri": "https://tools.usps.com/UspsToolsRestServices/rest/POLocator/findLocations", "@spider": "usps_collection_boxes", "addr:city": "TOLUCA", "addr:country": "US", "addr:postcode": "61369", "addr:state": "IL", "addr:street_address": "120 W SANTA FE AVE", "amenity": "post_box", "collection_times": "Mo-Fr 16:30; Sa 11:00", "indoor": "yes", "note": "ON 12/24 AND 12/31, THIS BOX MAY BE COLLECTED AS EARLY AS 12 NOON.", "nsi_id": "unitedstatespostalservice-a77078", "operator": "United States Postal Service", "operator:short": "USPS", "operator:type": "public", "operator:wikidata": "Q668687", "ref": "6136900003"}, "type": "Feature"}
{"geometry": {"coordinates": [-89.134901711, 41.001858547], "type": "Point"}, "id": "xgXxMle6T_ibW02fmevMyTCPjD4=", "properties": {"@source_uri": "https://tools.usps.com/UspsToolsRestServices/rest/POLocator/findLocations", "@spider": "usps_collection_boxes", "addr:city": "TOLUCA", "addr:country": "US", "addr:postcode": "61369", "addr:state": "IL", "addr:street_address": "120 W SANTA FE AVE", "amenity": "post_box", "collection_times": "Mo-Fr 16:30; Sa 11:00", "indoor": "yes", "note": "ON 12/24 AND 12/31, THIS BOX MAY BE COLLECTED AS EARLY AS 12 NOON.", "nsi_id": "unitedstatespostalservice-a77078", "operator": "United States Postal Service", "operator:short": "USPS", "operator:type": "public", "operator:wikidata": "Q668687", "ref": "6136900004"}, "type": "Feature"}
{"geometry": {"coordinates": [-89.06495495, 41.215779335], "type": "Point"}, "id": "VSxmQ05HCzv23cHpIrMqLBOWhoM=", "properties": {"@source_uri": "https://tools.usps.com/UspsToolsRestServices/rest/POLocator/findLocations", "@spider": "usps_collection_boxes", "addr:city": "TONICA", "addr:country": "US", "addr:postcode": "61370", "addr:state": "IL", "addr:street_address": "110 S ONECA ST", "amenity": "post_box", "collection_times": "Mo-Fr 15:30; Sa 10:30", "indoor": "yes", "note": "ON 12/24 AND 12/31, THIS BOX MAY BE COLLECTED AS EARLY AS 12 NOON.", "nsi_id": "unitedstatespostalservice-a77078", "operator": "United States Postal Service", "operator:short": "USPS", "operator:type": "public", "operator:wikidata": "Q668687", "ref": "6137000002"}, "type": "Feature"}
{"geometry": {"coordinates": [-89.06495495, 41.215779335], "type": "Point"}, "id": "6O1xRQT4cBSbkeiayxEM44zuyH4=", "properties": {"@source_uri": "https://tools.usps.com/UspsToolsRestServices/rest/POLocator/findLocations", "@spider": "usps_collection_boxes", "addr:city": "TONICA", "addr:country": "US", "addr:postcode": "61370", "addr:state": "IL", "addr:street_address": "110 S ONECA ST", "amenity": "post_box", "collection_times": "Mo-Fr 15:30; Sa 10:15", "note": "ON 12/24 AND 12/31, THIS BOX MAY BE COLLECTED AS EARLY AS 12 NOON.", "nsi_id": "unitedstatespostalservice-a77078", "operator": "United States Postal Service", "operator:short": "USPS", "operator:type": "public", "operator:wikidata": "Q668687", "ref": "6137000003"}, "type": "Feature"}
{"geometry": {"coordinates": [-89.06495495, 41.215779335], "type": "Point"}, "id": "E4_KISsrV4b0I6T-vnJmaZdarR4=", "properties": {"@source_uri": "https://tools.usps.com/UspsToolsRestServices/rest/POLocator/findLocations", "@spider": "usps_collection_boxes", "addr:city": "TONICA", "addr:country": "US", "addr:postcode": "61370", "addr:state": "IL", "addr:street_address": "110 S ONECA ST", "amenity": "post_box", "collection_times": "Mo-Fr 15:30; Sa 10:30", "indoor": "yes", "note": "ON 12/24 AND 12/31, THIS BOX MAY BE COLLECTED AS EARLY AS 12 NOON.", "nsi_id": "unitedstatespostalservice-a77078", "operator": "United States Postal Service", "operator:short": "USPS", "operator:type": "public", "operator:wikidata": "Q668687", "ref": "6137000004"}, "type": "Feature"}
{"geometry": {"coordinates": [-89.021814797, 41.499737948], "type": "Point"}, "id": "VNFJW2JDecYjXX4__Zv714x4gl0=", "properties": {"@source_uri": "https://tools.usps.com/UspsToolsRestServices/rest/POLocator/findLocations", "@spider": "usps_collection_boxes", "addr:city": "TRIUMPH", "addr:country": "US", "addr:postcode": "61371", "addr:state": "IL", "addr:street_address": "3906 E 752ND RD", "amenity": "post_box", "collection_times": "Mo-Fr 12:15; Sa 10:15", "note": "ON 12/24 AND 12/31, THIS BOX MAY BE COLLECTED AS EARLY AS 12 NOON.", "nsi_id": "unitedstatespostalservice-a77078", "operator": "United States Postal Service", "operator:short": "USPS", "operator:type": "public", "operator:wikidata": "Q668687", "ref": "6137100000"}, "type": "Feature"}
{"geometry": {"coordinates": [-89.021814797, 41.499737948], "type": "Point"}, "id": "2bnyPbNwAc_5JWWusuX2lnCKkqs=", "properties": {"@source_uri": "https://tools.usps.com/UspsToolsRestServices/rest/POLocator/findLocations", "@spider": "usps_collection_boxes", "addr:city": "TRIUMPH", "addr:country": "US", "addr:postcode": "61371", "addr:state": "IL", "addr:street_address": "3906 E 752ND RD", "amenity": "post_box", "collection_times": "Mo-Fr 12:15; Sa 10:15", "indoor": "yes", "note": "ON 12/24 AND 12/31, THIS BOX MAY BE COLLECTED AS EARLY AS 12 NOON.", "nsi_id": "unitedstatespostalservice-a77078", "operator": "United States Postal Service", "operator:short": "USPS", "operator:type": "public", "operator:wikidata": "Q668687", "ref": "6137100001"}, "type": "Feature"}
{"geometry": {"coordinates": [-89.021814797, 41.499737948], "type": "Point"}, "id": "AcLy9qB6NOQPtP0r2jafCOIoaR4=", "properties": {"@source_uri": "https://tools.usps.com/UspsToolsRestServices/rest/POLocator/findLocations", "@spider": "usps_collection_boxes", "addr:city": "TRIUMPH", "addr:country": "US", "addr:postcode": "61371", "addr:state": "IL", "addr:street_address": "3906 E 752ND RD", "amenity": "post_box", "collection_times": "Mo-Fr 12:15; Sa 10:15", "indoor": "yes", "note": "ON 12/24 AND 12/31, THIS BOX MAY BE COLLECTED AS EARLY AS 12 NOON.", "nsi_id": "unitedstatespostalservice-a77078", "operator": "United States Postal Service", "operator:short": "USPS", "operator:type": "public", "operator:wikidata": "Q668687", "ref": "6137100002"}, "type": "Feature"}
{"geometry": {"coordinates": [-89.083050869, 41.465768734], "type": "Point"}, "id": "NfLhH2d_35edFDHM4gjPM6H0djs=", "properties": {"@source_uri": "https://tools.usps.com/UspsToolsRestServices/rest/POLocator/findLocations", "@spider": "usps_collection_boxes", "addr:city": "TROY GROVE", "addr:country": "US", "addr:postcode": "61372", "addr:state": "IL", "addr:street_address": "107 E OTTAWA ST", "amenity": "post_box", "collection_times": "Mo-Fr 16:00; Sa 13:30", "note": "ON 12/24 AND 12/31, THIS BOX MAY BE COLLECTED AS EARLY AS 12 NOON.", "nsi_id": "unitedstatespostalservice-a77078", "operator": "United States Postal Service", "operator:short": "USPS", "operator:type": "public", "operator:wikidata": "Q668687", "ref": "6137200000"}, "type": "Feature"}
{"geometry": {"coordinates": [-89.083050869, 41.465768734], "type": "Point"}, "id": "7GbKyNqlU74g4w6IKf_9fNyyXxU=", "properties": {"@source_uri": "https://tools.usps.com/UspsToolsRestServices/rest/POLocator/findLocations", "@spider": "usps_collection_boxes", "addr:city": "TROY GROVE", "addr:country": "US", "addr:postcode": "61372", "addr:state": "IL", "addr:street_address": "107 E OTTAWA ST", "amenity": "post_box", "collection_times": "Mo-Fr 16:00; Sa 13:30", "indoor": "yes", "note": "ON 12/24 AND 12/31, THIS BOX MAY BE COLLECTED AS EARLY AS 12 NOON.", "nsi_id": "unitedstatespostalservice-a77078", "operator": "United States Postal Service", "operator:short": "USPS", "operator:type": "public", "operator:wikidata": "Q668687", "ref": "6137200002"}, "type": "Feature"}
{"geometry": {"coordinates": [-89.083050869, 41.465768734], "type": "Point"}, "id": "zlebKFSFhjvJshdx9bXw1aBOjm4=", "properties": {"@source_uri": "https://tools.usps.com/UspsToolsRestServices/rest/POLocator/findLocations", "@spider": "usps_collection_boxes", "addr:city": "TROY GROVE", "addr:country": "US", "addr:postcode": "61372", "addr:state": "IL", "addr:street_address": "107 E OTTAWA ST", "amenity": "post_box", "collection_times": "Mo-Fr 16:00; Sa 13:30", "indoor": "yes", "note": "ON 12/24 AND 12/31, THIS BOX MAY BE COLLECTED AS EARLY AS 12 NOON.", "nsi_id": "unitedstatespostalservice-a77078", "operator": "United States Postal Service", "operator:short": "USPS", "operator:type": "public", "operator:wikidata": "Q668687", "ref": "6137200003"}, "type": "Feature"}
{"geometry": {"coordinates": [-89.008113164, 41.344914084], "type": "Point"}, "id": "5FCg5ozUZRjXmQ-05l9N_kCFaME=", "properties": {"@source_uri": "https://tools.usps.com/UspsToolsRestServices/rest/POLocator/findLocations", "@spider": "usps_collection_boxes", "addr:city": "UTICA", "addr:country": "US", "addr:postcode": "61373", "addr:state": "IL", "addr:street_address": "310 N MILL ST", "amenity": "post_box", "collection_times": "Mo-Fr 16:30; Sa 11:00", "note": "ON 12/24 AND 12/31, THIS BOX MAY BE COLLECTED AS EARLY AS 12 NOON.", "nsi_id": "unitedstatespostalservice-a77078", "operator": "United States Postal Service", "operator:short": "USPS", "operator:type": "public", "operator:wikidata": "Q668687", "ref": "6137300001"}, "type": "Feature"}
{"geometry": {"coordinates": [-89.008113164, 41.344914084], "type": "Point"}, "id": "qRIvLSRhVep8H-t8T10xEe2wD00=", "properties": {"@source_uri": "https://tools.usps.com/UspsToolsRestServices/rest/POLocator/findLocations", "@spider": "usps_collection_boxes", "addr:city": "UTICA", "addr:country": "US", "addr:postcode": "61373", "addr:state": "IL", "addr:street_address": "310 N MILL ST", "amenity": "post_box", "collection_times": "Mo-Fr 16:30; Sa 11:00", "indoor": "yes", "note": "ON 12/24 AND 12/31, THIS BOX MAY BE COLLECTED AS EARLY AS 12 NOON.", "nsi_id": "unitedstatespostalservice-a77078", "operator": "United States Postal Service", "operator:short": "USPS", "operator:type": "public", "operator:wikidata": "Q668687", "ref": "6137300002"}, "type": "Feature"}
{"geometry": {"coordinates": [-89.008113164, 41.344914084], "type": "Point"}, "id": "hsACSjSvq-ILgKNA90AMJSLPqQ4=", "properties": {"@source_uri": "https://tools.usps.com/UspsToolsRestServices/rest/POLocator/findLocations", "@spider": "usps_collection_boxes", "addr:city": "UTICA", "addr:country": "US", "addr:postcode": "61373", "addr:state": "IL", "addr:street_address": "310 N MILL ST", "amenity": "post_box", "collection_times": "Mo-Fr 16:30; Sa 11:00", "indoor": "yes", "note": "ON 12/24 AND 12/31, THIS BOX MAY BE COLLECTED AS EARLY AS 12 NOON.", "nsi_id": "unitedstatespostalservice-a77078", "operator": "United States Postal Service", "operator:short": "USPS", "operator:type": "public", "operator:wikidata": "Q668687", "ref": "6137300003"}, "type": "Feature"}
{"geometry": {"coordinates": [-89.353977724, 41.551173], "type": "Point"}, "id": "0nuXAzYkITpVccVIToMLZ_dVHFQ=", "properties": {"@source_uri": "https://tools.usps.com/UspsToolsRestServices/rest/POLocator/findLocations", "@spider": "usps_collection_boxes", "addr:city": "VAN ORIN", "addr:country": "US", "addr:postcode": "61374", "addr:state": "IL", "addr:street_address": "27861 2600 EAST ST", "amenity": "post_box", "collection_times": "Mo-Fr 15:00; Sa 10:30", "note": "ON 12/24 AND 12/31, THIS BOX MAY BE COLLECTED AS EARLY AS 12 NOON.", "nsi_id": "unitedstatespostalservice-a77078", "operator": "United States Postal Service", "operator:short": "USPS", "operator:type": "public", "operator:wikidata": "Q668687", "ref": "6137400000"}, "type": "Feature"}
{"geometry": {"coordinates": [-89.353977724, 41.551173], "type": "Point"}, "id": "IZGtPZXf-iaqvtzLuCnVeyBUML8=", "properties": {"@source_uri": "https://tools.usps.com/UspsToolsRestServices/rest/POLocator/findLocations", "@spider": "usps_collection_boxes", "addr:city": "VAN ORIN", "addr:country": "US", "addr:postcode": "61374", "addr:state": "IL", "addr:street_address": "27861 2600 EAST ST", "amenity": "post_box", "collection_times": "Mo-Fr 15:00; Sa 10:30", "indoor": "yes", "note": "ON 12/24 AND 12/31, THIS BOX MAY BE COLLECTED AS EARLY AS 12 NOON.", "nsi_id": "unitedstatespostalservice-a77078", "operator": "United States Postal Service", "operator:short": "USPS", "operator:type": "public", "operator:wikidata": "Q668687", "ref": "6137400001"}, "type": "Feature"}
{"geometry": {"coordinates": [-89.353977724, 41.551173], "type": "Point"}, "id": "Yt0BLq8dFfJR0a1lYKOg37TJX3M=", "properties": {"@source_uri": "https://tools.usps.com/UspsToolsRestServices/rest/POLocator/findLocations", "@spider": "usps_collection_boxes", "addr:city": "VAN ORIN", "addr:country": "US", "addr:postcode": "61374", "addr:state": "IL", "addr:street_address": "27861 2600 EAST ST", "amenity": "post_box", "collection_times": "Mo-Fr 15:00; Sa 10:30", "indoor": "yes", "note": "ON 12/24 AND 12/31, THIS BOX MAY BE COLLECTED AS EARLY AS 12 NOON.", "nsi_id": "unitedstatespostalservice-a77078", "operator": "United States Postal Service", "operator:short": "USPS", "operator:type": "public", "operator:wikidata": "Q668687", "ref": "6137400002"}, "type": "Feature"}
{"geometry": {"coordinates": [-89.226874918, 41.036103425], "type": "Point"}, "id": "ZpOPxqEe6o0FGHFsedJJAfOx8EU=", "properties": {"@source_uri": "https://tools.usps.com/UspsToolsRestServices/rest/POLocator/findLocations", "@spider": "usps_collection_boxes", "addr:city": "VARNA", "addr:country": "US", "addr:postcode": "61375", "addr:state": "IL", "addr:street_address": "304 WALNUT ST", "amenity": "post_box", "collection_times": "Mo-Fr 12:00; Sa 10:30", "nsi_id": "unitedstatespostalservice-a77078", "operator": "United States Postal Service", "operator:short": "USPS", "operator:type": "public", "operator:wikidata": "Q668687", "ref": "6137500000"}, "type": "Feature"}
{"geometry": {"coordinates": [-89.226874918, 41.036103425], "type": "Point"}, "id": "sujEgG-L9xiQrEqrBI_DMmVLMfA=", "properties": {"@source_uri": "https://tools.usps.com/UspsToolsRestServices/rest/POLocator/findLocations", "@spider": "usps_collection_boxes", "addr:city": "VARNA", "addr:country": "US", "addr:postcode": "61375", "addr:state": "IL", "addr:street_address": "304 WALNUT ST", "amenity": "post_box", "collection_times": "Mo-Fr 12:00; Sa 10:30", "indoor": "yes", "nsi_id": "unitedstatespostalservice-a77078", "operator": "United States Postal Service", "operator:short": "USPS", "operator:type": "public", "operator:wikidata": "Q668687", "ref": "6137500001"}, "type": "Feature"}
{"geometry": {"coordinates": [-89.226874918, 41.036103425], "type": "Point"}, "id": "Bau2MdlkTr8mdvJzUIeLzw_v0lk=", "properties": {"@source_uri": "https://tools.usps.com/UspsToolsRestServices/rest/POLocator/findLocations", "@spider": "usps_collection_boxes", "addr:city": "VARNA", "addr:country": "US", "addr:postcode": "61375", "addr:state": "IL", "addr:street_address": "304 WALNUT ST", "amenity": "post_box", "collection_times": "Mo-Fr 12:00; Sa 10:30", "indoor": "yes", "nsi_id": "unitedstatespostalservice-a77078", "operator": "United States Postal Service", "operator:short": "USPS", "operator:type": "public", "operator:wikidata": "Q668687", "ref": "6137500002"}, "type": "Feature"}
{"geometry": {"coordinates": [-89.592392046, 41.558454583], "type": "Point"}, "id": "rGXNj8rSz3H5UwjAhI6I2vREyZM=", "properties": {"@source_uri": "https://tools.usps.com/UspsToolsRestServices/rest/POLocator/findLocations", "@spider": "usps_collection_boxes", "addr:city": "WALNUT", "addr:country": "US", "addr:postcode": "61376", "addr:state": "IL", "addr:street_address": "104 N MAIN ST", "amenity": "post_box", "collection_times": "Mo-Fr 15:30; Sa 11:00", "note": "ON 12/24 AND 12/31, THIS BOX MAY BE COLLECTED AS EARLY AS 12 NOON.", "nsi_id": "unitedstatespostalservice-a77078", "operator": "United States Postal Service", "operator:short": "USPS", "operator:type": "public", "operator:wikidata": "Q668687", "ref": "6137600001"}, "type": "Feature"}
{"geometry": {"coordinates": [-89.592392046, 41.558454583], "type": "Point"}, "id": "DKw_Y4trLNXGFg2Oj6AbBZrM8mo=", "properties": {"@source_uri": "https://tools.usps.com/UspsToolsRestServices/rest/POLocator/findLocations", "@spider": "usps_collection_boxes", "addr:city": "WALNUT", "addr:country": "US", "addr:postcode": "61376", "addr:state": "IL", "addr:street_address": "104 N MAIN ST", "amenity": "post_box", "collection_times": "Mo-Fr 15:45; Sa 11:00", "indoor": "yes", "note": "ON 12/24 AND 12/31, THIS BOX MAY BE COLLECTED AS EARLY AS 12 NOON.", "nsi_id": "unitedstatespostalservice-a77078", "operator": "United States Postal Service", "operator:short": "USPS", "operator:type": "public", "operator:wikidata": "Q668687", "ref": "6137600003"}, "type": "Feature"}
{"geometry": {"coordinates": [-89.592392046, 41.558454583], "type": "Point"}, "id": "tX-nVz_-4YwtT0eI9ubvnM_ZNwk=", "properties": {"@source_uri": "https://tools.usps.com/UspsToolsRestServices/rest/POLocator/findLocations", "@spider": "usps_collection_boxes", "addr:city": "WALNUT", "addr:country": "US", "addr:postcode": "61376", "addr:state": "IL", "addr:street_address": "104 N MAIN ST", "amenity": "post_box", "collection_times": "Mo-Fr 15:30; Sa 11:00", "indoor": "yes", "note": "ON 12/24 AND 12/31, THIS BOX MAY BE COLLECTED AS EARLY AS 12 NOON.", "nsi_id": "unitedstatespostalservice-a77078", "operator": "United States Postal Service", "operator:short": "USPS", "operator:type": "public", "operator:wikidata": "Q668687", "ref": "6137600004"}, "type": "Feature"}
{"geometry": {"coordinates": [-89.0565634, 41.0535193], "type": "Point"}, "id": "eUCTgV3XHLNKctlxHhWbT40IcgE=", "properties": {"@source_uri": "https://tools.usps.com/UspsToolsRestServices/rest/POLocator/findLocations", "@spider": "usps_collection_boxes", "addr:city": "WENONA", "addr:country": "US", "addr:postcode": "61377", "addr:state": "IL", "addr:street_address": "212 N CHESTNUT ST", "amenity": "post_box", "collection_times": "Mo-Fr 15:00; Sa 10:00", "note": "ON 12/24 AND 12/31, THIS BOX MAY BE COLLECTED AS EARLY AS 12 NOON.", "nsi_id": "unitedstatespostalservice-a77078", "operator": "United States Postal Service", "operator:short": "USPS", "operator:type": "public", "operator:wikidata": "Q668687", "ref": "6137700001"}, "type": "Feature"}
{"geometry": {"coordinates": [-89.0502010522, 41.0544269166], "type": "Point"}, "id": "gQzM6bFgbIh62_Ud2fP1F9cMFSk=", "properties": {"@source_uri": "https://tools.usps.com/UspsToolsRestServices/rest/POLocator/findLocations", "@spider": "usps_collection_boxes", "addr:city": "WENONA", "addr:country": "US", "addr:postcode": "61377", "addr:state": "IL", "addr:street_address": "212 N CHESTNUT ST", "amenity": "post_box", "collection_times": "Mo-Fr 15:00; Sa 10:00", "indoor": "yes", "note": "ON 12/24 AND 12/31, THIS BOX MAY BE COLLECTED AS EARLY AS 12 NOON.", "nsi_id": "unitedstatespostalservice-a77078", "operator": "United States Postal Service", "operator:short": "USPS", "operator:type": "public", "operator:wikidata": "Q668687", "ref": "6137700002"}, "type": "Feature"}
{"geometry": {"coordinates": [-89.0502010522, 41.0544269166], "type": "Point"}, "id": "YA-4Dcq6YhfRfGDRQgpQAClNGhs=", "properties": {"@source_uri": "https://tools.usps.com/UspsToolsRestServices/rest/POLocator/findLocations", "@spider": "usps_collection_boxes", "addr:city": "WENONA", "addr:country": "US", "addr:postcode": "61377", "addr:state": "IL", "addr:street_address": "212 N CHESTNUT ST", "amenity": "post_box", "collection_times": "Mo-Fr 15:00; Sa 10:00", "indoor": "yes", "note": "ON 12/24 AND 12/31, THIS BOX MAY BE COLLECTED AS EARLY AS 12 NOON.", "nsi_id": "unitedstatespostalservice-a77078", "operator": "United States Postal Service", "operator:short": "USPS", "operator:type": "public", "operator:wikidata": "Q668687", "ref": "6137700003"}, "type": "Feature"}
{"geometry": {"coordinates": [-89.147207512, 41.693623631], "type": "Point"}, "id": "rUf9S0_NorE3oqotw3rPMgjZAs8=", "properties": {"@source_uri": "https://tools.usps.com/UspsToolsRestServices/rest/POLocator/findLocations", "@spider": "usps_collection_boxes", "addr:city": "WEST BROOKLYN", "addr:country": "US", "addr:postcode": "61378", "addr:state": "IL", "addr:street_address": "2521 JOHNSON ST", "amenity": "post_box", "collection_times": "Mo-Fr 11:00; Sa 10:15", "nsi_id": "unitedstatespostalservice-a77078", "operator": "United States Postal Service", "operator:short": "USPS", "operator:type": "public", "operator:wikidata": "Q668687", "ref": "6137800001"}, "type": "Feature"}
{"geometry": {"coordinates": [-89.147207512, 41.693623631], "type": "Point"}, "id": "sIsPd9iFU6t9jAqT_fTSMf9wTsI=", "properties": {"@source_uri": "https://tools.usps.com/UspsToolsRestServices/rest/POLocator/findLocations", "@spider": "usps_collection_boxes", "addr:city": "WEST BROOKLYN", "addr:country": "US", "addr:postcode": "61378", "addr:state": "IL", "addr:street_address": "2521 JOHNSON ST", "amenity": "post_box", "collection_times": "Mo-Fr 11:15; Sa 10:30", "indoor": "yes", "nsi_id": "unitedstatespostalservice-a77078", "operator": "United States Postal Service", "operator:short": "USPS", "operator:type": "public", "operator:wikidata": "Q668687", "ref": "6137800002"}, "type": "Feature"}
{"geometry": {"coordinates": [-89.147207512, 41.693623631], "type": "Point"}, "id": "FkhbMLUwYfI6jIzn2QAvyKQmqtQ=", "properties": {"@source_uri": "https://tools.usps.com/UspsToolsRestServices/rest/POLocator/findLocations", "@spider": "usps_collection_boxes", "addr:city": "WEST BROOKLYN", "addr:country": "US", "addr:postcode": "61378", "addr:state": "IL", "addr:street_address": "2521 JOHNSON ST", "amenity": "post_box", "collection_times": "Mo-Fr 11:15; Sa 10:30", "indoor": "yes", "nsi_id": "unitedstatespostalservice-a77078", "operator": "United States Postal Service", "operator:short": "USPS", "operator:type": "public", "operator:wikidata": "Q668687", "ref": "6137800004"}, "type": "Feature"}
{"geometry": {"coordinates": [-89.58424072, 41.365331515], "type": "Point"}, "id": "_4aZs4dwCmr0UylpaE2KLRf_i10=", "properties": {"@source_uri": "https://tools.usps.com/UspsToolsRestServices/rest/POLocator/findLocations", "@spider": "usps_collection_boxes", "addr:city": "WYANET", "addr:country": "US", "addr:postcode": "61379", "addr:state": "IL", "addr:street_address": "106 W MAIN ST", "amenity": "post_box", "collection_times": "Mo-Fr 15:15; Sa 10:15", "note": "ON 12/24 AND 12/31, THIS BOX MAY BE COLLECTED AS EARLY AS 12 NOON.", "nsi_id": "unitedstatespostalservice-a77078", "operator": "United States Postal Service", "operator:short": "USPS", "operator:type": "public", "operator:wikidata": "Q668687", "ref": "6137900001"}, "type": "Feature"}
{"geometry": {"coordinates": [-89.58424072, 41.365331515], "type": "Point"}, "id": "O4Y2JKzLflmcogdqjkhBk3ByAxo=", "properties": {"@source_uri": "https://tools.usps.com/UspsToolsRestServices/rest/POLocator/findLocations", "@spider": "usps_collection_boxes", "addr:city": "WYANET", "addr:country": "US", "addr:postcode": "61379", "addr:state": "IL", "addr:street_address": "106 W MAIN ST", "amenity": "post_box", "collection_times": "Mo-Fr 15:15; Sa 10:30", "indoor": "yes", "note": "ON 12/24 AND 12/31, THIS BOX MAY BE COLLECTED AS EARLY AS 12 NOON.", "nsi_id": "unitedstatespostalservice-a77078", "operator": "United States Postal Service", "operator:short": "USPS", "operator:type": "public", "operator:wikidata": "Q668687", "ref": "6137900002"}, "type": "Feature"}
{"geometry": {"coordinates": [-89.58424072, 41.365331515], "type": "Point"}, "id": "o9YR9M12etEHRPk2pAVYeCIGYOU=", "properties": {"@source_uri": "https://tools.usps.com/UspsToolsRestServices/rest/POLocator/findLocations", "@spider": "usps_collection_boxes", "addr:city": "WYANET", "addr:country": "US", "addr:postcode": "61379", "addr:state": "IL", "addr:street_address": "106 W MAIN ST", "amenity": "post_box", "collection_times": "Mo-Fr 15:30; Sa 10:30", "indoor": "yes", "note": "ON 12/24 AND 12/31, THIS BOX MAY BE COLLECTED AS EARLY AS 12 NOON.", "nsi_id": "unitedstatespostalservice-a77078", "operator": "United States Postal Service", "operator:short": "USPS", "operator:type": "public", "operator:wikidata": "Q668687", "ref": "6137900003"}, "type": "Feature"}
