{"geometry": {"coordinates": [-90.3663306, 40.947751], "type": "Point"}, "id": "dIBATHv6IzAsgC4V8W2E4CplNNQ=", "properties": {"@spider": "usps_collection_boxes", "addr:city": "GALESBURG", "addr:country": "US", "addr:full": "311 E MAIN ST", "addr:postcode": "61401", "addr:state": "IL", "brand": "USPS", "collection_times": "Mo-Sa 16:15", "name": "USPS COLLECTION BOX - BLUE BOX", "note": "ON 12/24 AND 12/31, THIS BOX MAY BE COLLECTED AS EARLY AS 12 NOON.", "ref": "6140100000"}, "type": "Feature"}
{"geometry": {"coordinates": [-90.3705682, 40.950543], "type": "Point"}, "id": "ZKpksjlw_mmW2PJTbfU7yNUSZKw=", "properties": {"@spider": "usps_collection_boxes", "addr:city": "GALESBURG", "addr:country": "US", "addr:full": "261 N BROAD ST", "addr:postcode": "61401", "addr:state": "IL", "brand": "USPS", "collection_times": "Mo-Sa 16:00", "name": "USPS COLLECTION BOX - BLUE BOX", "note": "ON 12/24 AND 12/31, THIS BOX MAY BE COLLECTED AS EARLY AS 12 NOON.", "ref": "6140100003"}, "type": "Feature"}
{"geometry": {"coordinates": [-90.3808375, 40.971593], "type": "Point"}, "id": "v6KnnmBT3AO-8Isobpw8IBfOqLg=", "properties": {"@spider": "usps_collection_boxes", "addr:city": "GALESBURG", "addr:country": "US", "addr:full": "1975 NATIONAL BLVD", "addr:postcode": "61401", "addr:state": "IL", "brand": "USPS", "collection_times": "Mo-Sa 15:45", "name": "USPS COLLECTION BOX - BLUE BOX", "note": "ON 12/24 AND 12/31, THIS BOX MAY BE COLLECTED AS EARLY AS 12 NOON.", "ref": "6140100005"}, "type": "Feature"}
{"geometry": {"coordinates": [-90.3833572, 40.965122], "type": "Point"}, "id": "IYZHKW0oyLrSEofarpzbsXAcfqk=", "properties": {"@spider": "usps_collection_boxes", "addr:city": "GALESBURG", "addr:country": "US", "addr:full": "1440 N HENDERSON ST", "addr:postcode": "61401", "addr:state": "IL", "brand": "USPS", "collection_times": "Mo-Sa 16:00", "name": "USPS COLLECTION BOX - BLUE BOX", "note": "ON 12/24 AND 12/31, THIS BOX MAY BE COLLECTED AS EARLY AS 12 NOON.", "ref": "6140100007"}, "type": "Feature"}
{"geometry": {"coordinates": [-90.3833607, 40.965121], "type": "Point"}, "id": "wh_9JOexWot2rMeDMt-GSu0Me7Q=", "properties": {"@spider": "usps_collection_boxes", "addr:city": "GALESBURG", "addr:country": "US", "addr:full": "1440 N HENDERSON ST", "addr:postcode": "61401", "addr:state": "IL", "brand": "USPS", "collection_times": "Mo-Sa 16:00", "name": "USPS COLLECTION BOX - BLUE BOX", "note": "ON 12/24 AND 12/31, THIS BOX MAY BE COLLECTED AS EARLY AS 12 NOON.", "ref": "6140100008"}, "type": "Feature"}
{"geometry": {"coordinates": [-90.383379, 40.965111], "type": "Point"}, "id": "ol24hAxt4jhetUbPPN9T-YOk4gc=", "properties": {"@spider": "usps_collection_boxes", "addr:city": "GALESBURG", "addr:country": "US", "addr:full": "1440 N HENDERSON ST", "addr:postcode": "61401", "addr:state": "IL", "brand": "USPS", "collection_times": "Mo-Sa 16:00", "name": "USPS COLLECTION BOX - BLUE BOX", "note": "ON 12/24 AND 12/31, THIS BOX MAY BE COLLECTED AS EARLY AS 12 NOON.", "ref": "6140100009"}, "type": "Feature"}
{"geometry": {"coordinates": [-90.3833649, 40.965123], "type": "Point"}, "id": "p2hU_D_fOvOUBtN-w8q1lJssa8M=", "properties": {"@spider": "usps_collection_boxes", "addr:city": "GALESBURG", "addr:country": "US", "addr:full": "1440 N HENDERSON ST", "addr:postcode": "61401", "addr:state": "IL", "brand": "USPS", "collection_times": "Mo-Sa 16:00", "name": "USPS COLLECTION BOX - BLUE BOX", "note": "ON 12/24 AND 12/31, THIS BOX MAY BE COLLECTED AS EARLY AS 12 NOON.", "ref": "6140100010"}, "type": "Feature"}
{"geometry": {"coordinates": [-90.3288352, 40.945244], "type": "Point"}, "id": "GduQNACOyITdHf8wuhX5chqRb8g=", "properties": {"@spider": "usps_collection_boxes", "addr:city": "GALESBURG", "addr:country": "US", "addr:full": "180 S SOANGETAHA RD", "addr:postcode": "61401", "addr:state": "IL", "brand": "USPS", "collection_times": "Mo-Sa 15:30", "name": "USPS COLLECTION BOX - BLUE BOX", "note": "ON 12/24 AND 12/31, THIS BOX MAY BE COLLECTED AS EARLY AS 12 NOON.", "ref": "6140100015"}, "type": "Feature"}
{"geometry": {"coordinates": [-90.3699399, 40.946327], "type": "Point"}, "id": "BVhs9DjrO6vzPKUtW5IooXorZQE=", "properties": {"@spider": "usps_collection_boxes", "addr:city": "GALESBURG", "addr:country": "US", "addr:full": "40 E SIMMONS ST", "addr:postcode": "61401", "addr:state": "IL", "brand": "USPS", "collection_times": "Mo-Sa 16:15", "name": "USPS COLLECTION BOX - BLUE BOX", "note": "ON 12/24 AND 12/31, THIS BOX MAY BE COLLECTED AS EARLY AS 12 NOON.", "ref": "6140100022"}, "type": "Feature"}
{"geometry": {"coordinates": [-90.3630105, 40.947426487], "type": "Point"}, "id": "ZfLasyv1mgSbeWlkkpPbLaBrNHI=", "properties": {"@spider": "usps_collection_boxes", "addr:city": "GALESBURG", "addr:country": "US", "addr:full": "476 E MAIN ST", "addr:postcode": "61401", "addr:state": "IL", "brand": "USPS", "collection_times": "Mo-Fr 17:30; Sa 17:00", "name": "USPS COLLECTION BOX - EXPRESS", "note": "ON 12/24 AND 12/31, THIS BOX MAY BE COLLECTED AS EARLY AS 12 NOON.", "ref": "6140100024"}, "type": "Feature"}
{"geometry": {"coordinates": [-90.3630105, 40.947426487], "type": "Point"}, "id": "28zFNho900M6yH4-K9vijSglavw=", "properties": {"@spider": "usps_collection_boxes", "addr:city": "GALESBURG", "addr:country": "US", "addr:full": "476 E MAIN ST", "addr:postcode": "61401", "addr:state": "IL", "brand": "USPS", "collection_times": "Mo-Fr 17:30; Sa 17:00", "name": "USPS COLLECTION BOX - BLUE BOX", "note": "ON 12/24 AND 12/31, THIS BOX MAY BE COLLECTED AS EARLY AS 12 NOON.", "ref": "6140100025"}, "type": "Feature"}
{"geometry": {"coordinates": [-90.3630105, 40.947426487], "type": "Point"}, "id": "YLGUerUi_Pv8Biw3ZcIbzgBlBm0=", "properties": {"@spider": "usps_collection_boxes", "addr:city": "GALESBURG", "addr:country": "US", "addr:full": "476 E MAIN ST", "addr:postcode": "61401", "addr:state": "IL", "brand": "USPS", "collection_times": "Mo-Fr 17:30; Sa 17:00", "name": "USPS COLLECTION BOX - BLUE BOX", "note": "ON 12/24 AND 12/31, THIS BOX MAY BE COLLECTED AS EARLY AS 12 NOON.", "ref": "6140100026"}, "type": "Feature"}
{"geometry": {"coordinates": [-90.3630105, 40.947426487], "type": "Point"}, "id": "uowZaiR7u632PEkZ0aB0tJCp3Ko=", "properties": {"@spider": "usps_collection_boxes", "addr:city": "GALESBURG", "addr:country": "US", "addr:full": "476 E MAIN ST", "addr:postcode": "61401", "addr:state": "IL", "brand": "USPS", "collection_times": "Mo-Fr 17:30; Sa 16:30", "name": "USPS COLLECTION BOX - PO LOBBY", "note": "ON 12/24 AND 12/31, THIS BOX MAY BE COLLECTED AS EARLY AS 12 NOON.", "ref": "6140100029"}, "type": "Feature"}
{"geometry": {"coordinates": [-90.3630105, 40.947426487], "type": "Point"}, "id": "22QoumoPhS7E9q9Jv43wgIYkkHk=", "properties": {"@spider": "usps_collection_boxes", "addr:city": "GALESBURG", "addr:country": "US", "addr:full": "476 E MAIN ST", "addr:postcode": "61401", "addr:state": "IL", "brand": "USPS", "collection_times": "Mo-Fr 17:30; Sa 16:30", "name": "USPS COLLECTION BOX - PO LOBBY", "note": "ON 12/24 AND 12/31, THIS BOX MAY BE COLLECTED AS EARLY AS 12 NOON.", "ref": "6140100030"}, "type": "Feature"}
{"geometry": {"coordinates": [-90.3630105, 40.947426487], "type": "Point"}, "id": "4YNgE-iCjIJ8oScra2Ih6cTfR-0=", "properties": {"@spider": "usps_collection_boxes", "addr:city": "GALESBURG", "addr:country": "US", "addr:full": "476 E MAIN ST", "addr:postcode": "61401", "addr:state": "IL", "brand": "USPS", "collection_times": "Mo-Fr 17:30; Sa 16:30", "name": "USPS COLLECTION BOX - PO LOBBY", "note": "ON 12/24 AND 12/31, THIS BOX MAY BE COLLECTED AS EARLY AS 12 NOON.", "ref": "6140100031"}, "type": "Feature"}
{"geometry": {"coordinates": [-90.3659348, 40.956617], "type": "Point"}, "id": "Y7Tu0RKRX6ScUkl-Nz1SsSOkutE=", "properties": {"@spider": "usps_collection_boxes", "addr:city": "GALESBURG", "addr:country": "US", "addr:full": "765 N KELLOGG ST", "addr:postcode": "61401", "addr:state": "IL", "brand": "USPS", "collection_times": "Mo-Sa 16:00", "name": "USPS COLLECTION BOX - BLUE BOX", "note": "ON 12/24 AND 12/31, THIS BOX MAY BE COLLECTED AS EARLY AS 12 NOON.", "ref": "6140100033"}, "type": "Feature"}
{"geometry": {"coordinates": [-90.3630105, 40.947426487], "type": "Point"}, "id": "3aBSGuKgLpdVafr85yRQND8Ywmw=", "properties": {"@spider": "usps_collection_boxes", "addr:city": "GALESBURG", "addr:country": "US", "addr:full": "476 E MAIN ST", "addr:postcode": "61401", "addr:state": "IL", "brand": "USPS", "collection_times": "Mo-Fr 17:00; Sa 12:45", "name": "USPS COLLECTION BOX - PO LOBBY", "note": "ON 12/24 AND 12/31, THIS BOX MAY BE COLLECTED AS EARLY AS 12 NOON.", "ref": "6140100046"}, "type": "Feature"}
{"geometry": {"coordinates": [-90.399681, 40.802427512], "type": "Point"}, "id": "L2wVmty9NsPf0pbBLHGTsfxS7bM=", "properties": {"@spider": "usps_collection_boxes", "addr:city": "ABINGDON", "addr:country": "US", "addr:full": "123 W MEEK ST", "addr:postcode": "61410", "addr:state": "IL", "brand": "USPS", "collection_times": "Mo-Fr 17:00; Sa 14:30", "name": "USPS COLLECTION BOX - BLUE BOX", "note": "ON 12/24 AND 12/31, THIS BOX MAY BE COLLECTED AS EARLY AS 12 NOON.", "ref": "6141000000"}, "type": "Feature"}
{"geometry": {"coordinates": [-90.399681, 40.802427512], "type": "Point"}, "id": "Hc51ej-jyL3Ej4U546_ZsM1msIc=", "properties": {"@spider": "usps_collection_boxes", "addr:city": "ABINGDON", "addr:country": "US", "addr:full": "123 W MEEK ST", "addr:postcode": "61410", "addr:state": "IL", "brand": "USPS", "collection_times": "Mo-Fr 17:00; Sa 14:30", "name": "USPS COLLECTION BOX - BLUE BOX", "note": "ON 12/24 AND 12/31, THIS BOX MAY BE COLLECTED AS EARLY AS 12 NOON.", "ref": "6141000001"}, "type": "Feature"}
{"geometry": {"coordinates": [-90.399681, 40.802427512], "type": "Point"}, "id": "5yognyX3HphJpXQlqiD9pm43OAk=", "properties": {"@spider": "usps_collection_boxes", "addr:city": "ABINGDON", "addr:country": "US", "addr:full": "123 W MEEK ST", "addr:postcode": "61410", "addr:state": "IL", "brand": "USPS", "collection_times": "Mo-Fr 17:00; Sa 14:30", "name": "USPS COLLECTION BOX - PO LOBBY", "note": "ON 12/24 AND 12/31, THIS BOX MAY BE COLLECTED AS EARLY AS 12 NOON.", "ref": "6141000012"}, "type": "Feature"}
{"geometry": {"coordinates": [-90.399681, 40.802427512], "type": "Point"}, "id": "jbNXDQvf0miNBnkpvYiuY_k0PEg=", "properties": {"@spider": "usps_collection_boxes", "addr:city": "ABINGDON", "addr:country": "US", "addr:full": "123 W MEEK ST", "addr:postcode": "61410", "addr:state": "IL", "brand": "USPS", "collection_times": "Mo-Fr 16:30; Sa 11:30", "name": "USPS COLLECTION BOX - PO LOBBY", "note": "ON 12/24 AND 12/31, THIS BOX MAY BE COLLECTED AS EARLY AS 12 NOON.", "ref": "6141000018"}, "type": "Feature"}
{"geometry": {"coordinates": [-90.496926601, 40.418136], "type": "Point"}, "id": "dw5iDwYSrXmmT2otDbs_aJYu0P8=", "properties": {"@spider": "usps_collection_boxes", "addr:city": "ADAIR", "addr:country": "US", "addr:full": "201 W MAIN ST", "addr:postcode": "61411", "addr:state": "IL", "brand": "USPS", "collection_times": "Mo-Fr 16:00; Sa 09:15", "name": "USPS COLLECTION BOX - BLUE BOX", "note": "ON 12/24 AND 12/31, THIS BOX MAY BE COLLECTED AS EARLY AS 12 NOON.", "ref": "6141100000"}, "type": "Feature"}
{"geometry": {"coordinates": [-90.496926601, 40.418136], "type": "Point"}, "id": "s-q6rwlBlfUtD-vQ338oFeKHYxo=", "properties": {"@spider": "usps_collection_boxes", "addr:city": "ADAIR", "addr:country": "US", "addr:full": "201 W MAIN ST", "addr:postcode": "61411", "addr:state": "IL", "brand": "USPS", "collection_times": "Mo-Fr 12:00; Sa 09:15", "name": "USPS COLLECTION BOX - PO LOBBY", "ref": "6141100001"}, "type": "Feature"}
{"geometry": {"coordinates": [-90.496926601, 40.418136], "type": "Point"}, "id": "-bDZlRu39x9s9R6_4w2F7G2MBTg=", "properties": {"@spider": "usps_collection_boxes", "addr:city": "ADAIR", "addr:country": "US", "addr:full": "201 W MAIN ST", "addr:postcode": "61411", "addr:state": "IL", "brand": "USPS", "collection_times": "Mo-Fr 12:00; Sa 09:45", "name": "USPS COLLECTION BOX - PO LOBBY", "ref": "6141100002"}, "type": "Feature"}
{"geometry": {"coordinates": [-90.55577145, 41.061876781], "type": "Point"}, "id": "kCZFqh7ATR0ith7apChVISPtP1w=", "properties": {"@spider": "usps_collection_boxes", "addr:city": "ALEXIS", "addr:country": "US", "addr:full": "101 S MAIN ST", "addr:postcode": "61412", "addr:state": "IL", "brand": "USPS", "collection_times": "Mo-Fr 16:00; Sa 11:00", "name": "USPS COLLECTION BOX - BLUE BOX", "note": "ON 12/24 AND 12/31, THIS BOX MAY BE COLLECTED AS EARLY AS 12 NOON.", "ref": "6141200002"}, "type": "Feature"}
{"geometry": {"coordinates": [-90.55577145, 41.061876781], "type": "Point"}, "id": "QCgzpLix3G5Ryh-pxAAMDkbjY-s=", "properties": {"@spider": "usps_collection_boxes", "addr:city": "ALEXIS", "addr:country": "US", "addr:full": "101 S MAIN ST", "addr:postcode": "61412", "addr:state": "IL", "brand": "USPS", "collection_times": "Mo-Fr 15:00; Sa 11:00", "name": "USPS COLLECTION BOX - PO LOBBY", "note": "ON 12/24 AND 12/31, THIS BOX MAY BE COLLECTED AS EARLY AS 12 NOON.", "ref": "6141200003"}, "type": "Feature"}
{"geometry": {"coordinates": [-90.55577145, 41.061876781], "type": "Point"}, "id": "cwCgN8AMWeZuxehWZOMyRmDyM6Q=", "properties": {"@spider": "usps_collection_boxes", "addr:city": "ALEXIS", "addr:country": "US", "addr:full": "101 S MAIN ST", "addr:postcode": "61412", "addr:state": "IL", "brand": "USPS", "collection_times": "Mo-Fr 15:00; Sa 11:00", "name": "USPS COLLECTION BOX - PO LOBBY", "note": "ON 12/24 AND 12/31, THIS BOX MAY BE COLLECTED AS EARLY AS 12 NOON.", "ref": "6141200004"}, "type": "Feature"}
{"geometry": {"coordinates": [-90.380560631, 41.191565481], "type": "Point"}, "id": "TJGAgZJDjRhqve75ypZyjSW6fJ8=", "properties": {"@spider": "usps_collection_boxes", "addr:city": "ALPHA", "addr:country": "US", "addr:full": "108 W D ST", "addr:postcode": "61413", "addr:state": "IL", "brand": "USPS", "collection_times": "Mo-Fr 15:30; Sa 11:00", "name": "USPS COLLECTION BOX - BLUE BOX", "note": "ON 12/24 AND 12/31, THIS BOX MAY BE COLLECTED AS EARLY AS 12 NOON.", "ref": "6141300001"}, "type": "Feature"}
{"geometry": {"coordinates": [-90.380560631, 41.191565481], "type": "Point"}, "id": "rVxEb6Nwg6hq7tyEJFf6yMCZLrg=", "properties": {"@spider": "usps_collection_boxes", "addr:city": "ALPHA", "addr:country": "US", "addr:full": "108 W D ST", "addr:postcode": "61413", "addr:state": "IL", "brand": "USPS", "collection_times": "Mo-Fr 14:15; Sa 11:00", "name": "USPS COLLECTION BOX - PO LOBBY", "note": "ON 12/24 AND 12/31, THIS BOX MAY BE COLLECTED AS EARLY AS 12 NOON.", "ref": "6141300002"}, "type": "Feature"}
{"geometry": {"coordinates": [-90.380560631, 41.191565481], "type": "Point"}, "id": "IilM096wG74-33XJbZ1zqalN0Gw=", "properties": {"@spider": "usps_collection_boxes", "addr:city": "ALPHA", "addr:country": "US", "addr:full": "108 W D ST", "addr:postcode": "61413", "addr:state": "IL", "brand": "USPS", "collection_times": "Mo-Fr 14:15; Sa 10:30", "name": "USPS COLLECTION BOX - PO LOBBY", "note": "ON 12/24 AND 12/31, THIS BOX MAY BE COLLECTED AS EARLY AS 12 NOON.", "ref": "6141300003"}, "type": "Feature"}
{"geometry": {"coordinates": [-90.164039933, 41.113862026], "type": "Point"}, "id": "d6UFezVa-veyRsL5BQuyQ6vNo7w=", "properties": {"@spider": "usps_collection_boxes", "addr:city": "ALTONA", "addr:country": "US", "addr:full": "111 S DEPOT ST", "addr:postcode": "61414", "addr:state": "IL", "brand": "USPS", "collection_times": "Mo-Fr 15:45; Sa 09:30", "name": "USPS COLLECTION BOX - BLUE BOX", "note": "ON 12/24 AND 12/31, THIS BOX MAY BE COLLECTED AS EARLY AS 12 NOON.", "ref": "6141400001"}, "type": "Feature"}
{"geometry": {"coordinates": [-90.164039933, 41.113862026], "type": "Point"}, "id": "dttsnJVCwIwLO5FzrBcMIqR_wA8=", "properties": {"@spider": "usps_collection_boxes", "addr:city": "ALTONA", "addr:country": "US", "addr:full": "111 S DEPOT ST", "addr:postcode": "61414", "addr:state": "IL", "brand": "USPS", "collection_times": "Mo-Fr 11:00; Sa 08:45", "name": "USPS COLLECTION BOX - PO LOBBY", "ref": "6141400002"}, "type": "Feature"}
{"geometry": {"coordinates": [-90.164039933, 41.113862026], "type": "Point"}, "id": "o5IcsYBduzqSaWeEcbjTEvgW8L0=", "properties": {"@spider": "usps_collection_boxes", "addr:city": "ALTONA", "addr:country": "US", "addr:full": "111 S DEPOT ST", "addr:postcode": "61414", "addr:state": "IL", "brand": "USPS", "collection_times": "Mo-Fr 11:00; Sa 08:45", "name": "USPS COLLECTION BOX - PO LOBBY", "ref": "6141400003"}, "type": "Feature"}
{"geometry": {"coordinates": [-90.43494866, 40.66194266], "type": "Point"}, "id": "lVjyOQ6xQyLOAvlUIw3BjYAg1fY=", "properties": {"@spider": "usps_collection_boxes", "addr:city": "AVON", "addr:country": "US", "addr:full": "101 E WASHINGTON ST", "addr:postcode": "61415", "addr:state": "IL", "brand": "USPS", "collection_times": "Mo-Fr 16:00; Sa 10:45", "name": "USPS COLLECTION BOX - BLUE BOX", "note": "ON 12/24 AND 12/31, THIS BOX MAY BE COLLECTED AS EARLY AS 12 NOON.", "ref": "6141500001"}, "type": "Feature"}
{"geometry": {"coordinates": [-90.43494866, 40.66194266], "type": "Point"}, "id": "AEEnDv4eCVwcwtUcr0723SrS66c=", "properties": {"@spider": "usps_collection_boxes", "addr:city": "AVON", "addr:country": "US", "addr:full": "101 E WASHINGTON ST", "addr:postcode": "61415", "addr:state": "IL", "brand": "USPS", "collection_times": "Mo-Fr 14:30; Sa 10:30", "name": "USPS COLLECTION BOX - PO LOBBY", "note": "ON 12/24 AND 12/31, THIS BOX MAY BE COLLECTED AS EARLY AS 12 NOON.", "ref": "6141500002"}, "type": "Feature"}
{"geometry": {"coordinates": [-90.43494866, 40.66194266], "type": "Point"}, "id": "YDquS9Qn5e5sGKfJLhtum0FdUnE=", "properties": {"@spider": "usps_collection_boxes", "addr:city": "AVON", "addr:country": "US", "addr:full": "101 E WASHINGTON ST", "addr:postcode": "61415", "addr:state": "IL", "brand": "USPS", "collection_times": "Mo-Fr 14:30; Sa 10:30", "name": "USPS COLLECTION BOX - PO LOBBY", "note": "ON 12/24 AND 12/31, THIS BOX MAY BE COLLECTED AS EARLY AS 12 NOON.", "ref": "6141500004"}, "type": "Feature"}
{"geometry": {"coordinates": [-90.564530254, 40.494932539], "type": "Point"}, "id": "1gPPfjqkGYcMUEeas8DbCxwv-bI=", "properties": {"@spider": "usps_collection_boxes", "addr:city": "BARDOLPH", "addr:country": "US", "addr:full": "202 S CHESTNUT ST", "addr:postcode": "61416", "addr:state": "IL", "brand": "USPS", "collection_times": "Mo-Fr 16:00; Sa 09:45", "name": "USPS COLLECTION BOX - BLUE BOX", "note": "ON 12/24 AND 12/31, THIS BOX MAY BE COLLECTED AS EARLY AS 12 NOON.", "ref": "6141600000"}, "type": "Feature"}
{"geometry": {"coordinates": [-90.564530254, 40.494932539], "type": "Point"}, "id": "t50c9r-_F4n7dDRd8bMncddXzTU=", "properties": {"@spider": "usps_collection_boxes", "addr:city": "BARDOLPH", "addr:country": "US", "addr:full": "202 S CHESTNUT ST", "addr:postcode": "61416", "addr:state": "IL", "brand": "USPS", "collection_times": "Mo-Sa 15:00", "name": "USPS COLLECTION BOX - PO LOBBY", "note": "ON 12/24 AND 12/31, THIS BOX MAY BE COLLECTED AS EARLY AS 12 NOON.", "ref": "6141600001"}, "type": "Feature"}
{"geometry": {"coordinates": [-90.564530254, 40.494932539], "type": "Point"}, "id": "qbCWNLAPg4ICmTWYdEfqMYMjDgk=", "properties": {"@spider": "usps_collection_boxes", "addr:city": "BARDOLPH", "addr:country": "US", "addr:full": "202 S CHESTNUT ST", "addr:postcode": "61416", "addr:state": "IL", "brand": "USPS", "collection_times": "Mo-Sa 15:00", "name": "USPS COLLECTION BOX - PO LOBBY", "note": "ON 12/24 AND 12/31, THIS BOX MAY BE COLLECTED AS EARLY AS 12 NOON.", "ref": "6141600002"}, "type": "Feature"}
{"geometry": {"coordinates": [-90.118756133, 41.200387179], "type": "Point"}, "id": "Ql00bjIMO6XOuL8NC-UyxraYnWE=", "properties": {"@spider": "usps_collection_boxes", "addr:city": "BISHOP HILL", "addr:country": "US", "addr:full": "107 N BISHOP HILL ST", "addr:postcode": "61419", "addr:state": "IL", "brand": "USPS", "collection_times": "Mo-Fr 16:00; Sa 13:00", "name": "USPS COLLECTION BOX - PO LOBBY", "note": "ON 12/24 AND 12/31, THIS BOX MAY BE COLLECTED AS EARLY AS 12 NOON.", "ref": "6141900001"}, "type": "Feature"}
{"geometry": {"coordinates": [-90.118756133, 41.200387179], "type": "Point"}, "id": "-KJIG7VYCsQfFSX0BwZE9BmOf0c=", "properties": {"@spider": "usps_collection_boxes", "addr:city": "BISHOP HILL", "addr:country": "US", "addr:full": "107 N BISHOP HILL ST", "addr:postcode": "61419", "addr:state": "IL", "brand": "USPS", "collection_times": "Mo-Fr 16:00; Sa 13:00", "name": "USPS COLLECTION BOX - PO LOBBY", "note": "ON 12/24 AND 12/31, THIS BOX MAY BE COLLECTED AS EARLY AS 12 NOON.", "ref": "6141900002"}, "type": "Feature"}
{"geometry": {"coordinates": [-89.658625555, 41.177372073], "type": "Point"}, "id": "TvyhECd5gMY4A_Bu2Pif-nwWEuo=", "properties": {"@spider": "usps_collection_boxes", "addr:city": "BRADFORD", "addr:country": "US", "addr:full": "129 W MAIN ST", "addr:postcode": "61421", "addr:state": "IL", "brand": "USPS", "collection_times": "Mo-Fr 15:15; Sa 10:30", "name": "USPS COLLECTION BOX - BLUE BOX", "note": "ON 12/24 AND 12/31, THIS BOX MAY BE COLLECTED AS EARLY AS 12 NOON.", "ref": "6142100001"}, "type": "Feature"}
{"geometry": {"coordinates": [-89.658625555, 41.177372073], "type": "Point"}, "id": "wGlPCjngQTxAAbhgzqQ2bStR638=", "properties": {"@spider": "usps_collection_boxes", "addr:city": "BRADFORD", "addr:country": "US", "addr:full": "129 W MAIN ST", "addr:postcode": "61421", "addr:state": "IL", "brand": "USPS", "collection_times": "Mo-Fr 15:00; Sa 10:30", "name": "USPS COLLECTION BOX - PO LOBBY", "note": "ON 12/24 AND 12/31, THIS BOX MAY BE COLLECTED AS EARLY AS 12 NOON.", "ref": "6142100003"}, "type": "Feature"}
{"geometry": {"coordinates": [-89.658625555, 41.177372073], "type": "Point"}, "id": "4JZ54kx5URDZUpeys1-x5j2pXmc=", "properties": {"@spider": "usps_collection_boxes", "addr:city": "BRADFORD", "addr:country": "US", "addr:full": "129 W MAIN ST", "addr:postcode": "61421", "addr:state": "IL", "brand": "USPS", "collection_times": "Mo-Fr 15:15; Sa 10:30", "name": "USPS COLLECTION BOX - PO LOBBY", "note": "ON 12/24 AND 12/31, THIS BOX MAY BE COLLECTED AS EARLY AS 12 NOON.", "ref": "6142100004"}, "type": "Feature"}
{"geometry": {"coordinates": [-90.506781561, 40.551909988], "type": "Point"}, "id": "YZbLi3_u7ibK5qKDYKgUhUF9klE=", "properties": {"@spider": "usps_collection_boxes", "addr:city": "BUSHNELL", "addr:country": "US", "addr:full": "223 E HAIL ST", "addr:postcode": "61422", "addr:state": "IL", "brand": "USPS", "collection_times": "Mo-Fr 17:00; Sa 11:30", "name": "USPS COLLECTION BOX - BLUE BOX", "note": "ON 12/24 AND 12/31, THIS BOX MAY BE COLLECTED AS EARLY AS 12 NOON.", "ref": "6142200001"}, "type": "Feature"}
{"geometry": {"coordinates": [-90.506781561, 40.551909988], "type": "Point"}, "id": "vePW1Vy3-uhhdBVswJqTPHHdq-U=", "properties": {"@spider": "usps_collection_boxes", "addr:city": "BUSHNELL", "addr:country": "US", "addr:full": "223 E HAIL ST", "addr:postcode": "61422", "addr:state": "IL", "brand": "USPS", "collection_times": "Mo-Fr 17:00; Sa 11:30", "name": "USPS COLLECTION BOX - BLUE BOX", "note": "ON 12/24 AND 12/31, THIS BOX MAY BE COLLECTED AS EARLY AS 12 NOON.", "ref": "6142200002"}, "type": "Feature"}
{"geometry": {"coordinates": [-90.4994878, 40.555582], "type": "Point"}, "id": "kcr9YgbhFiXdZJSQNwCEtZlnubw=", "properties": {"@spider": "usps_collection_boxes", "addr:city": "BUSHNELL", "addr:country": "US", "addr:full": "1001 COLE ST", "addr:postcode": "61422", "addr:state": "IL", "brand": "USPS", "collection_times": "Mo-Sa 09:00", "name": "USPS COLLECTION BOX - BLUE BOX", "ref": "6142200004"}, "type": "Feature"}
{"geometry": {"coordinates": [-90.5090704, 40.552122], "type": "Point"}, "id": "8IFVRzdYzrVJ7PLpZ-Iipui8Ecw=", "properties": {"@spider": "usps_collection_boxes", "addr:city": "BUSHNELL", "addr:country": "US", "addr:full": "458 E MAIN ST", "addr:postcode": "61422", "addr:state": "IL", "brand": "USPS", "collection_times": "Mo-Fr 15:00; Sa 14:00", "name": "USPS COLLECTION BOX - BLUE BOX", "note": "ON 12/24 AND 12/31, THIS BOX MAY BE COLLECTED AS EARLY AS 12 NOON.", "ref": "6142200010"}, "type": "Feature"}
{"geometry": {"coordinates": [-90.506781561, 40.551909988], "type": "Point"}, "id": "KhE6u38qD56JKOFCEaPVcdNDZ-c=", "properties": {"@spider": "usps_collection_boxes", "addr:city": "BUSHNELL", "addr:country": "US", "addr:full": "223 E HAIL ST", "addr:postcode": "61422", "addr:state": "IL", "brand": "USPS", "collection_times": "Mo-Sa 17:15", "name": "USPS COLLECTION BOX - PO LOBBY", "note": "ON 12/24 AND 12/31, THIS BOX MAY BE COLLECTED AS EARLY AS 12 NOON.", "ref": "6142200011"}, "type": "Feature"}
{"geometry": {"coordinates": [-90.506781561, 40.551909988], "type": "Point"}, "id": "1Qk-tb5oj6VDMMIkyaLD3EaCkE0=", "properties": {"@spider": "usps_collection_boxes", "addr:city": "BUSHNELL", "addr:country": "US", "addr:full": "223 E HAIL ST", "addr:postcode": "61422", "addr:state": "IL", "brand": "USPS", "collection_times": "Mo-Fr 16:30; Sa 11:30", "name": "USPS COLLECTION BOX - PO LOBBY", "note": "ON 12/24 AND 12/31, THIS BOX MAY BE COLLECTED AS EARLY AS 12 NOON.", "ref": "6142200012"}, "type": "Feature"}
{"geometry": {"coordinates": [-90.513893607, 40.88870633], "type": "Point"}, "id": "DKT22QQMMA5doZaq9mCHTt7stII=", "properties": {"@spider": "usps_collection_boxes", "addr:city": "CAMERON", "addr:country": "US", "addr:full": "559 CARE ST", "addr:postcode": "61423", "addr:state": "IL", "brand": "USPS", "collection_times": "Mo-Fr 16:00; Sa 12:30", "name": "USPS COLLECTION BOX - BLUE BOX", "note": "ON 12/24 AND 12/31, THIS BOX MAY BE COLLECTED AS EARLY AS 12 NOON.", "ref": "6142300001"}, "type": "Feature"}
{"geometry": {"coordinates": [-90.513893607, 40.88870633], "type": "Point"}, "id": "pmK5tcM5zlqRNORyWb991hhP7nk=", "properties": {"@spider": "usps_collection_boxes", "addr:city": "CAMERON", "addr:country": "US", "addr:full": "559 CARE ST", "addr:postcode": "61423", "addr:state": "IL", "brand": "USPS", "collection_times": "Mo-Fr 16:00; Sa 12:30", "name": "USPS COLLECTION BOX - PO LOBBY", "note": "ON 12/24 AND 12/31, THIS BOX MAY BE COLLECTED AS EARLY AS 12 NOON.", "ref": "6142300002"}, "type": "Feature"}
{"geometry": {"coordinates": [-90.513893607, 40.88870633], "type": "Point"}, "id": "BGRS2DXuCcvoSTJ_Wyzj8iZQ79A=", "properties": {"@spider": "usps_collection_boxes", "addr:city": "CAMERON", "addr:country": "US", "addr:full": "559 CARE ST", "addr:postcode": "61423", "addr:state": "IL", "brand": "USPS", "collection_times": "Mo-Fr 16:00; Sa 12:30", "name": "USPS COLLECTION BOX - PO LOBBY", "note": "ON 12/24 AND 12/31, THIS BOX MAY BE COLLECTED AS EARLY AS 12 NOON.", "ref": "6142300003"}, "type": "Feature"}
{"geometry": {"coordinates": [-89.633075632, 41.077501123], "type": "Point"}, "id": "cPyUJliv0z8ERknH3MZeOCO2lqc=", "properties": {"@spider": "usps_collection_boxes", "addr:city": "CAMP GROVE", "addr:country": "US", "addr:full": "1060 2ND ST", "addr:postcode": "61424", "addr:state": "IL", "brand": "USPS", "collection_times": "Mo-Sa 12:00", "name": "USPS COLLECTION BOX - BLUE BOX", "ref": "6142400000"}, "type": "Feature"}
{"geometry": {"coordinates": [-89.633075632, 41.077501123], "type": "Point"}, "id": "oIaWAJrF8Wrh0EydWzHityaif-s=", "properties": {"@spider": "usps_collection_boxes", "addr:city": "CAMP GROVE", "addr:country": "US", "addr:full": "1060 2ND ST", "addr:postcode": "61424", "addr:state": "IL", "brand": "USPS", "collection_times": "Mo-Fr 09:30; Sa 12:00", "name": "USPS COLLECTION BOX - PO LOBBY", "ref": "6142400001"}, "type": "Feature"}
{"geometry": {"coordinates": [-89.633075632, 41.077501123], "type": "Point"}, "id": "_9tTK9HewNv5f_S4FtXM8d4Ok2Y=", "properties": {"@spider": "usps_collection_boxes", "addr:city": "CAMP GROVE", "addr:country": "US", "addr:full": "1060 2ND ST", "addr:postcode": "61424", "addr:state": "IL", "brand": "USPS", "collection_times": "Mo-Fr 09:30; Sa 12:00", "name": "USPS COLLECTION BOX - PO LOBBY", "ref": "6142400002"}, "type": "Feature"}
{"geometry": {"coordinates": [-89.706289476, 41.1184538], "type": "Point"}, "id": "nIXJLA1_DIbbs-NUfZs6dtAWISI=", "properties": {"@spider": "usps_collection_boxes", "addr:city": "CASTLETON", "addr:country": "US", "addr:full": "219 MAIN ST", "addr:postcode": "61426", "addr:state": "IL", "brand": "USPS", "collection_times": "Mo-Sa 10:00", "name": "USPS COLLECTION BOX - BLUE BOX", "ref": "6142600000"}, "type": "Feature"}
{"geometry": {"coordinates": [-89.706289476, 41.1184538], "type": "Point"}, "id": "2CtaEFoKXePJYfVAPdmgfJDZgDs=", "properties": {"@spider": "usps_collection_boxes", "addr:city": "CASTLETON", "addr:country": "US", "addr:full": "219 MAIN ST", "addr:postcode": "61426", "addr:state": "IL", "brand": "USPS", "collection_times": "Mo-Sa 10:00", "name": "USPS COLLECTION BOX - PO LOBBY", "ref": "6142600001"}, "type": "Feature"}
{"geometry": {"coordinates": [-89.706289476, 41.1184538], "type": "Point"}, "id": "UeaezJb1Kh0sa56T1WvQ3cBvusM=", "properties": {"@spider": "usps_collection_boxes", "addr:city": "CASTLETON", "addr:country": "US", "addr:full": "219 MAIN ST", "addr:postcode": "61426", "addr:state": "IL", "brand": "USPS", "collection_times": "Mo-Sa 10:00", "name": "USPS COLLECTION BOX - PO LOBBY", "ref": "6142600002"}, "type": "Feature"}
{"geometry": {"coordinates": [-90.1956985, 40.492036], "type": "Point"}, "id": "RodV8eeDEkFYZ-tRXroHIrZZjDc=", "properties": {"@spider": "usps_collection_boxes", "addr:city": "CUBA", "addr:country": "US", "addr:full": "200 S 3RD ST", "addr:postcode": "61427", "addr:state": "IL", "brand": "USPS", "collection_times": "Mo-Fr 15:45; Sa 10:15", "name": "USPS COLLECTION BOX - BLUE BOX", "note": "ON 12/24 AND 12/31, THIS BOX MAY BE COLLECTED AS EARLY AS 12 NOON.", "ref": "6142700000"}, "type": "Feature"}
{"geometry": {"coordinates": [-90.195623978, 40.492124213], "type": "Point"}, "id": "VkCMIEEZqdSYK2d4YVmHdqIH710=", "properties": {"@spider": "usps_collection_boxes", "addr:city": "CUBA", "addr:country": "US", "addr:full": "307 E JEFFERSON ST", "addr:postcode": "61427", "addr:state": "IL", "brand": "USPS", "collection_times": "Mo-Fr 16:00; Sa 10:15", "name": "USPS COLLECTION BOX - PO LOBBY", "note": "ON 12/24 AND 12/31, THIS BOX MAY BE COLLECTED AS EARLY AS 12 NOON.", "ref": "6142700002"}, "type": "Feature"}
{"geometry": {"coordinates": [-90.195623978, 40.492124213], "type": "Point"}, "id": "rgo5ql_vhsJGbJwNnMqQdp7VMmg=", "properties": {"@spider": "usps_collection_boxes", "addr:city": "CUBA", "addr:country": "US", "addr:full": "307 E JEFFERSON ST", "addr:postcode": "61427", "addr:state": "IL", "brand": "USPS", "collection_times": "Mo-Fr 16:00; Sa 10:30", "name": "USPS COLLECTION BOX - PO LOBBY", "note": "ON 12/24 AND 12/31, THIS BOX MAY BE COLLECTED AS EARLY AS 12 NOON.", "ref": "6142700003"}, "type": "Feature"}
{"geometry": {"coordinates": [-90.109104242, 40.924672963], "type": "Point"}, "id": "7UZ7AIak7gGFbSyRx3OLOb0LWvE=", "properties": {"@spider": "usps_collection_boxes", "addr:city": "DAHINDA", "addr:country": "US", "addr:full": "1453 KNOX HIGHWAY 15", "addr:postcode": "61428", "addr:state": "IL", "brand": "USPS", "collection_times": "Mo-Fr 16:00; Sa 12:45", "name": "USPS COLLECTION BOX - BLUE BOX", "note": "ON 12/24 AND 12/31, THIS BOX MAY BE COLLECTED AS EARLY AS 12 NOON.", "ref": "6142800001"}, "type": "Feature"}
{"geometry": {"coordinates": [-90.109104242, 40.924672963], "type": "Point"}, "id": "0Uj2rXxQf8reDX8eKG3BBx--8yI=", "properties": {"@spider": "usps_collection_boxes", "addr:city": "DAHINDA", "addr:country": "US", "addr:full": "1453 KNOX HIGHWAY 15", "addr:postcode": "61428", "addr:state": "IL", "brand": "USPS", "collection_times": "Mo-Fr 16:00; Sa 12:45", "name": "USPS COLLECTION BOX - PO LOBBY", "note": "ON 12/24 AND 12/31, THIS BOX MAY BE COLLECTED AS EARLY AS 12 NOON.", "ref": "6142800002"}, "type": "Feature"}
{"geometry": {"coordinates": [-90.109104242, 40.924672963], "type": "Point"}, "id": "KJU_vrjuaEAWAZuI8nW7CwE8qw4=", "properties": {"@spider": "usps_collection_boxes", "addr:city": "DAHINDA", "addr:country": "US", "addr:full": "1453 KNOX HIGHWAY 15", "addr:postcode": "61428", "addr:state": "IL", "brand": "USPS", "collection_times": "Mo-Fr 16:00; Sa 12:45", "name": "USPS COLLECTION BOX - PO LOBBY", "note": "ON 12/24 AND 12/31, THIS BOX MAY BE COLLECTED AS EARLY AS 12 NOON.", "ref": "6142800003"}, "type": "Feature"}
{"geometry": {"coordinates": [-90.302381, 40.933011], "type": "Point"}, "id": "U9Gwnsy1-RA03VQDwIrzMz4Cd6o=", "properties": {"@spider": "usps_collection_boxes", "addr:city": "EAST GALESBURG", "addr:country": "US", "addr:full": "4071/2 S STATE ST", "addr:postcode": "61430", "addr:state": "IL", "brand": "USPS", "collection_times": "Mo-Fr 16:00; Sa 09:30", "name": "USPS COLLECTION BOX - BLUE BOX", "note": "ON 12/24 AND 12/31, THIS BOX MAY BE COLLECTED AS EARLY AS 12 NOON.", "ref": "6143000000"}, "type": "Feature"}
{"geometry": {"coordinates": [-90.307846, 40.943562], "type": "Point"}, "id": "mxzcSf3H8kCqog8Fih-tOhdTJsk=", "properties": {"@spider": "usps_collection_boxes", "addr:city": "EAST GALESBURG", "addr:country": "US", "addr:full": "4071/2 S STATE ST", "addr:postcode": "61430", "addr:state": "IL", "brand": "USPS", "collection_times": "Mo-Fr 16:00; Sa 12:00", "name": "USPS COLLECTION BOX - PO LOBBY", "note": "ON 12/24 AND 12/31, THIS BOX MAY BE COLLECTED AS EARLY AS 12 NOON.", "ref": "6143000001"}, "type": "Feature"}
{"geometry": {"coordinates": [-90.307890359, 40.943424004], "type": "Point"}, "id": "m6hBSuNp3BeLXvzG8hLk7T0booA=", "properties": {"@spider": "usps_collection_boxes", "addr:city": "EAST GALESBURG", "addr:country": "US", "addr:full": "407 1/2 S STATE ST", "addr:postcode": "61430", "addr:state": "IL", "brand": "USPS", "collection_times": "Mo-Fr 16:00; Sa 12:00", "name": "USPS COLLECTION BOX - PO LOBBY", "note": "ON 12/24 AND 12/31, THIS BOX MAY BE COLLECTED AS EARLY AS 12 NOON.", "ref": "6143000002"}, "type": "Feature"}
{"geometry": {"coordinates": [-90.30531825, 40.6267527], "type": "Point"}, "id": "j93DR3P1ZL1aV1p7HZvkis9tZMI=", "properties": {"@spider": "usps_collection_boxes", "addr:city": "ELLISVILLE", "addr:country": "US", "addr:full": "100 E MAIN ST", "addr:postcode": "61431", "addr:state": "IL", "brand": "USPS", "collection_times": "Mo-Fr 15:30; Sa 09:00", "name": "USPS COLLECTION BOX - BLUE BOX", "note": "ON 12/24 AND 12/31, THIS BOX MAY BE COLLECTED AS EARLY AS 12 NOON.", "ref": "6143100000"}, "type": "Feature"}
{"geometry": {"coordinates": [-90.30531825, 40.6267527], "type": "Point"}, "id": "IbAi55zC1qt7q4MDa2aqkkKuCdc=", "properties": {"@spider": "usps_collection_boxes", "addr:city": "ELLISVILLE", "addr:country": "US", "addr:full": "100 E MAIN ST", "addr:postcode": "61431", "addr:state": "IL", "brand": "USPS", "collection_times": "Mo-Fr 10:30; Sa 09:00", "name": "USPS COLLECTION BOX - PO LOBBY", "ref": "6143100001"}, "type": "Feature"}
{"geometry": {"coordinates": [-90.30531825, 40.6267527], "type": "Point"}, "id": "Q_ixawaRYysNviwmXrPjrP9SBYI=", "properties": {"@spider": "usps_collection_boxes", "addr:city": "ELLISVILLE", "addr:country": "US", "addr:full": "100 E MAIN ST", "addr:postcode": "61431", "addr:state": "IL", "brand": "USPS", "collection_times": "Mo-Fr 10:30; Sa 10:15", "name": "USPS COLLECTION BOX - PO LOBBY", "ref": "6143100002"}, "type": "Feature"}
{"geometry": {"coordinates": [-90.164380601, 40.633435176], "type": "Point"}, "id": "WEZKq83MDE_xBVrq2p8nn_ehbTA=", "properties": {"@spider": "usps_collection_boxes", "addr:city": "FAIRVIEW", "addr:country": "US", "addr:full": "520 CARTER ST", "addr:postcode": "61432", "addr:state": "IL", "brand": "USPS", "collection_times": "Mo-Fr 15:45; Sa 13:00", "name": "USPS COLLECTION BOX - BLUE BOX", "note": "ON 12/24 AND 12/31, THIS BOX MAY BE COLLECTED AS EARLY AS 12 NOON.", "ref": "6143200001"}, "type": "Feature"}
{"geometry": {"coordinates": [-90.164380601, 40.633435176], "type": "Point"}, "id": "4FlrVvOhNWUFLM5tQEGC4YQA1hg=", "properties": {"@spider": "usps_collection_boxes", "addr:city": "FAIRVIEW", "addr:country": "US", "addr:full": "520 CARTER ST", "addr:postcode": "61432", "addr:state": "IL", "brand": "USPS", "collection_times": "Mo-Fr 15:45; Sa 13:00", "name": "USPS COLLECTION BOX - PO LOBBY", "note": "ON 12/24 AND 12/31, THIS BOX MAY BE COLLECTED AS EARLY AS 12 NOON.", "ref": "6143200002"}, "type": "Feature"}
{"geometry": {"coordinates": [-90.164380601, 40.633435176], "type": "Point"}, "id": "BwnvbKF8wFEtAOJFXvdczjO7znc=", "properties": {"@spider": "usps_collection_boxes", "addr:city": "FAIRVIEW", "addr:country": "US", "addr:full": "520 CARTER ST", "addr:postcode": "61432", "addr:state": "IL", "brand": "USPS", "collection_times": "Mo-Fr 15:45; Sa 13:00", "name": "USPS COLLECTION BOX - PO LOBBY", "note": "ON 12/24 AND 12/31, THIS BOX MAY BE COLLECTED AS EARLY AS 12 NOON.", "ref": "6143200003"}, "type": "Feature"}
{"geometry": {"coordinates": [-90.175595617, 40.560278774], "type": "Point"}, "id": "TzRZ8blYwUAjtgE6pD5iciolp3M=", "properties": {"@spider": "usps_collection_boxes", "addr:city": "FIATT", "addr:country": "US", "addr:full": "14279 E STATE ROUTE 9", "addr:postcode": "61433", "addr:state": "IL", "brand": "USPS", "collection_times": "Mo-Fr 15:00; Sa 09:30", "name": "USPS COLLECTION BOX - BLUE BOX", "note": "ON 12/24 AND 12/31, THIS BOX MAY BE COLLECTED AS EARLY AS 12 NOON.", "ref": "6143300000"}, "type": "Feature"}
{"geometry": {"coordinates": [-90.175595617, 40.560278774], "type": "Point"}, "id": "GZoUw1LXu0BvT86gij7-TSLt9IY=", "properties": {"@spider": "usps_collection_boxes", "addr:city": "FIATT", "addr:country": "US", "addr:full": "14279 E STATE ROUTE 9", "addr:postcode": "61433", "addr:state": "IL", "brand": "USPS", "collection_times": "Mo-Fr 15:00; Sa 09:30", "name": "USPS COLLECTION BOX - PO LOBBY", "note": "ON 12/24 AND 12/31, THIS BOX MAY BE COLLECTED AS EARLY AS 12 NOON.", "ref": "6143300001"}, "type": "Feature"}
{"geometry": {"coordinates": [-90.175595617, 40.560278774], "type": "Point"}, "id": "OlgdHgYU55EJ9nMeUX6_MZW4FYw=", "properties": {"@spider": "usps_collection_boxes", "addr:city": "FIATT", "addr:country": "US", "addr:full": "14279 E STATE ROUTE 9", "addr:postcode": "61433", "addr:state": "IL", "brand": "USPS", "collection_times": "Mo-Fr 15:30; Sa 09:45", "name": "USPS COLLECTION BOX - PO LOBBY", "note": "ON 12/24 AND 12/31, THIS BOX MAY BE COLLECTED AS EARLY AS 12 NOON.", "ref": "6143300002"}, "type": "Feature"}
{"geometry": {"coordinates": [-90.046006419, 41.165966652], "type": "Point"}, "id": "W-yoAJJ30UxskZ9BgCOGwEI5CYA=", "properties": {"@spider": "usps_collection_boxes", "addr:city": "GALVA", "addr:country": "US", "addr:full": "116 EXCHANGE ST", "addr:postcode": "61434", "addr:state": "IL", "brand": "USPS", "collection_times": "Mo-Fr 16:15; Sa 15:00", "name": "USPS COLLECTION BOX - BLUE BOX", "note": "ON 12/24 AND 12/31, THIS BOX MAY BE COLLECTED AS EARLY AS 12 NOON.", "ref": "6143400000"}, "type": "Feature"}
{"geometry": {"coordinates": [-90.046006419, 41.165966652], "type": "Point"}, "id": "sXNl6NKjc50lwYbhbTxOihCjFZI=", "properties": {"@spider": "usps_collection_boxes", "addr:city": "GALVA", "addr:country": "US", "addr:full": "116 EXCHANGE ST", "addr:postcode": "61434", "addr:state": "IL", "brand": "USPS", "collection_times": "Mo-Fr 16:15; Sa 15:00", "name": "USPS COLLECTION BOX - PO LOBBY", "note": "ON 12/24 AND 12/31, THIS BOX MAY BE COLLECTED AS EARLY AS 12 NOON.", "ref": "6143400001"}, "type": "Feature"}
{"geometry": {"coordinates": [-90.046006419, 41.165966652], "type": "Point"}, "id": "BFFwOyvSSqNBuaKQRmlQAfLUIqI=", "properties": {"@spider": "usps_collection_boxes", "addr:city": "GALVA", "addr:country": "US", "addr:full": "116 EXCHANGE ST", "addr:postcode": "61434", "addr:state": "IL", "brand": "USPS", "collection_times": "Mo-Fr 16:15; Sa 15:00", "name": "USPS COLLECTION BOX - EXPRESS", "note": "ON 12/24 AND 12/31, THIS BOX MAY BE COLLECTED AS EARLY AS 12 NOON.", "ref": "6143400002"}, "type": "Feature"}
{"geometry": {"coordinates": [-90.047087, 41.165382], "type": "Point"}, "id": "r-5FZw8ikTf8uEuOXh7bXQGKoNk=", "properties": {"@spider": "usps_collection_boxes", "addr:city": "GALVA", "addr:country": "US", "addr:full": "109 SW 4TH AVE", "addr:postcode": "61434", "addr:state": "IL", "brand": "USPS", "collection_times": "Mo-Fr 16:00; Sa 15:00", "name": "USPS COLLECTION BOX - BLUE BOX", "note": "ON 12/24 AND 12/31, THIS BOX MAY BE COLLECTED AS EARLY AS 12 NOON.", "ref": "6143400003"}, "type": "Feature"}
{"geometry": {"coordinates": [-90.047087, 41.165383], "type": "Point"}, "id": "fd_tT7ol7G1uDHU-xq33MnnI3r0=", "properties": {"@spider": "usps_collection_boxes", "addr:city": "GALVA", "addr:country": "US", "addr:full": "109 SW 4TH AVE", "addr:postcode": "61434", "addr:state": "IL", "brand": "USPS", "collection_times": "Mo-Fr 16:00; Sa 15:00", "name": "USPS COLLECTION BOX - BLUE BOX", "note": "ON 12/24 AND 12/31, THIS BOX MAY BE COLLECTED AS EARLY AS 12 NOON.", "ref": "6143400004"}, "type": "Feature"}
{"geometry": {"coordinates": [-89.9336223, 41.166271], "type": "Point"}, "id": "snqqpCQ41o2iOu0JE2pBnX2hWJE=", "properties": {"@spider": "usps_collection_boxes", "addr:city": "GALVA", "addr:country": "US", "addr:full": "26228 BLACK HAWK RD", "addr:postcode": "61434", "addr:state": "IL", "brand": "USPS", "collection_times": "Mo-Sa 09:30", "name": "USPS COLLECTION BOX - BLUE BOX", "ref": "6143400013"}, "type": "Feature"}
{"geometry": {"coordinates": [-90.046006419, 41.165966652], "type": "Point"}, "id": "US_nECATfzV9CsxaJXCXQjfx3BM=", "properties": {"@spider": "usps_collection_boxes", "addr:city": "GALVA", "addr:country": "US", "addr:full": "116 EXCHANGE ST", "addr:postcode": "61434", "addr:state": "IL", "brand": "USPS", "collection_times": "Mo-Fr 16:15; Sa 15:00", "name": "USPS COLLECTION BOX - PO LOBBY", "note": "ON 12/24 AND 12/31, THIS BOX MAY BE COLLECTED AS EARLY AS 12 NOON.", "ref": "6143400014"}, "type": "Feature"}
{"geometry": {"coordinates": [-90.046006419, 41.165966652], "type": "Point"}, "id": "YKWjkSlgRNR2LbbX0FAaMuNNMc0=", "properties": {"@spider": "usps_collection_boxes", "addr:city": "GALVA", "addr:country": "US", "addr:full": "116 EXCHANGE ST", "addr:postcode": "61434", "addr:state": "IL", "brand": "USPS", "collection_times": "Mo-Fr 16:15; Sa 11:30", "name": "USPS COLLECTION BOX - PO LOBBY", "note": "ON 12/24 AND 12/31, THIS BOX MAY BE COLLECTED AS EARLY AS 12 NOON.", "ref": "6143400017"}, "type": "Feature"}
{"geometry": {"coordinates": [-90.20182832, 40.861153257], "type": "Point"}, "id": "ehLFEa8Aa6E8-ywUiwFBIu24A6w=", "properties": {"@spider": "usps_collection_boxes", "addr:city": "GILSON", "addr:country": "US", "addr:full": "1016 MOSS ST", "addr:postcode": "61436", "addr:state": "IL", "brand": "USPS", "collection_times": "Mo-Fr 15:45; Sa 10:00", "name": "USPS COLLECTION BOX - BLUE BOX", "note": "ON 12/24 AND 12/31, THIS BOX MAY BE COLLECTED AS EARLY AS 12 NOON.", "ref": "6143600001"}, "type": "Feature"}
{"geometry": {"coordinates": [-90.2018283198, 40.8611622573], "type": "Point"}, "id": "D_4ShEhUp8R5Em4wamXFUWcPQd4=", "properties": {"@spider": "usps_collection_boxes", "addr:city": "GILSON", "addr:country": "US", "addr:full": "1016 MOSS ST", "addr:postcode": "61436", "addr:state": "IL", "brand": "USPS", "collection_times": "Mo-Fr 11:00; Sa 09:45", "name": "USPS COLLECTION BOX - PO LOBBY", "ref": "6143600002"}, "type": "Feature"}
{"geometry": {"coordinates": [-90.20182832, 40.861162257], "type": "Point"}, "id": "971zbIjEWQH8jCEGcpetydUjlCY=", "properties": {"@spider": "usps_collection_boxes", "addr:city": "GILSON", "addr:country": "US", "addr:full": "1016 MOSS ST", "addr:postcode": "61436", "addr:state": "IL", "brand": "USPS", "collection_times": "Mo-Fr 11:00; Sa 09:45", "name": "USPS COLLECTION BOX - PO LOBBY", "ref": "6143600003"}, "type": "Feature"}
{"geometry": {"coordinates": [-90.676741196, 40.557829507], "type": "Point"}, "id": "FJQGHG6fakBsEl47L8RWhzu4esg=", "properties": {"@spider": "usps_collection_boxes", "addr:city": "GOOD HOPE", "addr:country": "US", "addr:full": "125 W MAIN ST", "addr:postcode": "61438", "addr:state": "IL", "brand": "USPS", "collection_times": "Mo-Fr 16:00; Sa 12:30", "name": "USPS COLLECTION BOX - BLUE BOX", "note": "ON 12/24 AND 12/31, THIS BOX MAY BE COLLECTED AS EARLY AS 12 NOON.", "ref": "6143800000"}, "type": "Feature"}
{"geometry": {"coordinates": [-90.676741196, 40.557829507], "type": "Point"}, "id": "GQ_pOMI_edkxksOz1ooSIPrC-ws=", "properties": {"@spider": "usps_collection_boxes", "addr:city": "GOOD HOPE", "addr:country": "US", "addr:full": "125 W MAIN ST", "addr:postcode": "61438", "addr:state": "IL", "brand": "USPS", "collection_times": "Mo-Fr 16:00; Sa 12:30", "name": "USPS COLLECTION BOX - PO LOBBY", "note": "ON 12/24 AND 12/31, THIS BOX MAY BE COLLECTED AS EARLY AS 12 NOON.", "ref": "6143800001"}, "type": "Feature"}
{"geometry": {"coordinates": [-90.676741196, 40.557829507], "type": "Point"}, "id": "nNt8FXqGSff0iAecB4ZIQOuueV0=", "properties": {"@spider": "usps_collection_boxes", "addr:city": "GOOD HOPE", "addr:country": "US", "addr:full": "125 W MAIN ST", "addr:postcode": "61438", "addr:state": "IL", "brand": "USPS", "collection_times": "Mo-Fr 16:00; Sa 12:30", "name": "USPS COLLECTION BOX - PO LOBBY", "note": "ON 12/24 AND 12/31, THIS BOX MAY BE COLLECTED AS EARLY AS 12 NOON.", "ref": "6143800002"}, "type": "Feature"}
{"geometry": {"coordinates": [-90.355079386, 41.025834587], "type": "Point"}, "id": "gaqjlNIB6qeCAHiPxlSq4Cy_JCo=", "properties": {"@spider": "usps_collection_boxes", "addr:city": "HENDERSON", "addr:country": "US", "addr:full": "206 N MAIN ST", "addr:postcode": "61439", "addr:state": "IL", "brand": "USPS", "collection_times": "Mo-Fr 15:15; Sa 09:00", "name": "USPS COLLECTION BOX - BLUE BOX", "note": "ON 12/24 AND 12/31, THIS BOX MAY BE COLLECTED AS EARLY AS 12 NOON.", "ref": "6143900000"}, "type": "Feature"}
{"geometry": {"coordinates": [-90.355079386, 41.025834587], "type": "Point"}, "id": "LmVbuwXLpBhVbsWVS5HP2O2fyWQ=", "properties": {"@spider": "usps_collection_boxes", "addr:city": "HENDERSON", "addr:country": "US", "addr:full": "206 N MAIN ST", "addr:postcode": "61439", "addr:state": "IL", "brand": "USPS", "collection_times": "Mo-Fr 13:00; Sa 09:30", "name": "USPS COLLECTION BOX - PO LOBBY", "note": "ON 12/24 AND 12/31, THIS BOX MAY BE COLLECTED AS EARLY AS 12 NOON.", "ref": "6143900001"}, "type": "Feature"}
{"geometry": {"coordinates": [-90.355079386, 41.025834587], "type": "Point"}, "id": "iFcdUdnwjdEKjsudRRY2MTWfbaw=", "properties": {"@spider": "usps_collection_boxes", "addr:city": "HENDERSON", "addr:country": "US", "addr:full": "206 N MAIN ST", "addr:postcode": "61439", "addr:state": "IL", "brand": "USPS", "collection_times": "Mo-Fr 13:00; Sa 09:30", "name": "USPS COLLECTION BOX - PO LOBBY", "note": "ON 12/24 AND 12/31, THIS BOX MAY BE COLLECTED AS EARLY AS 12 NOON.", "ref": "6143900002"}, "type": "Feature"}
{"geometry": {"coordinates": [-90.607104335, 40.327572532], "type": "Point"}, "id": "ftidamYEvqy05bIJY88cHRBJSnY=", "properties": {"@spider": "usps_collection_boxes", "addr:city": "INDUSTRY", "addr:country": "US", "addr:full": "101 E MAIN ST", "addr:postcode": "61440", "addr:state": "IL", "brand": "USPS", "collection_times": "Mo-Fr 15:45; Sa 11:00", "name": "USPS COLLECTION BOX - BLUE BOX", "note": "ON 12/24 AND 12/31, THIS BOX MAY BE COLLECTED AS EARLY AS 12 NOON.", "ref": "6144000001"}, "type": "Feature"}
{"geometry": {"coordinates": [-90.607104335, 40.327572532], "type": "Point"}, "id": "HWtBdn_pJTY_ig1XgD1RPSsumu8=", "properties": {"@spider": "usps_collection_boxes", "addr:city": "INDUSTRY", "addr:country": "US", "addr:full": "101 E MAIN ST", "addr:postcode": "61440", "addr:state": "IL", "brand": "USPS", "collection_times": "Mo-Fr 16:00; Sa 13:00", "name": "USPS COLLECTION BOX - PO LOBBY", "note": "ON 12/24 AND 12/31, THIS BOX MAY BE COLLECTED AS EARLY AS 12 NOON.", "ref": "6144000002"}, "type": "Feature"}
{"geometry": {"coordinates": [-90.607104335, 40.327572532], "type": "Point"}, "id": "_bAJnGI5eHWTyPFToOf2sTHwjDA=", "properties": {"@spider": "usps_collection_boxes", "addr:city": "INDUSTRY", "addr:country": "US", "addr:full": "101 E MAIN ST", "addr:postcode": "61440", "addr:state": "IL", "brand": "USPS", "collection_times": "Mo-Fr 16:00; Sa 13:00", "name": "USPS COLLECTION BOX - PO LOBBY", "note": "ON 12/24 AND 12/31, THIS BOX MAY BE COLLECTED AS EARLY AS 12 NOON.", "ref": "6144000003"}, "type": "Feature"}
{"geometry": {"coordinates": [-90.325045178, 40.351544662], "type": "Point"}, "id": "lhLFDYOUfNFpS4Iq_L17S0lzsms=", "properties": {"@spider": "usps_collection_boxes", "addr:city": "IPAVA", "addr:country": "US", "addr:full": "40 E MAIN ST", "addr:postcode": "61441", "addr:state": "IL", "brand": "USPS", "collection_times": "Mo-Fr 16:00; Sa 12:45", "name": "USPS COLLECTION BOX - PO LOBBY", "note": "ON 12/24 AND 12/31, THIS BOX MAY BE COLLECTED AS EARLY AS 12 NOON.", "ref": "6144100001"}, "type": "Feature"}
{"geometry": {"coordinates": [-90.325045178, 40.351544662], "type": "Point"}, "id": "-2s4xqP3WcKSYwePGlILutrsRdM=", "properties": {"@spider": "usps_collection_boxes", "addr:city": "IPAVA", "addr:country": "US", "addr:full": "40 E MAIN ST", "addr:postcode": "61441", "addr:state": "IL", "brand": "USPS", "collection_times": "Mo-Fr 16:00; Sa 10:00", "name": "USPS COLLECTION BOX - BLUE BOX", "note": "ON 12/24 AND 12/31, THIS BOX MAY BE COLLECTED AS EARLY AS 12 NOON.", "ref": "6144100002"}, "type": "Feature"}
{"geometry": {"coordinates": [-90.325045178, 40.351544662], "type": "Point"}, "id": "aByMvY0EdZKdtb0IOzghHGZS2AE=", "properties": {"@spider": "usps_collection_boxes", "addr:city": "IPAVA", "addr:country": "US", "addr:full": "40 E MAIN ST", "addr:postcode": "61441", "addr:state": "IL", "brand": "USPS", "collection_times": "Mo-Fr 16:00; Sa 12:45", "name": "USPS COLLECTION BOX - PO LOBBY", "note": "ON 12/24 AND 12/31, THIS BOX MAY BE COLLECTED AS EARLY AS 12 NOON.", "ref": "6144100003"}, "type": "Feature"}
{"geometry": {"coordinates": [-89.926347005, 41.242734702], "type": "Point"}, "id": "7Qh6th3D5wWEVYWWS6tajDWztkc=", "properties": {"@spider": "usps_collection_boxes", "addr:city": "KEWANEE", "addr:country": "US", "addr:full": "116 S TREMONT ST", "addr:postcode": "61443", "addr:state": "IL", "brand": "USPS", "collection_times": "Mo-Fr 17:00; Sa 16:30", "name": "USPS COLLECTION BOX - BLUE BOX", "note": "ON 12/24 AND 12/31, THIS BOX MAY BE COLLECTED AS EARLY AS 12 NOON.", "ref": "6144300001"}, "type": "Feature"}
{"geometry": {"coordinates": [-89.9263643, 41.244394], "type": "Point"}, "id": "ElJK-SRlDP_9AT3A7d_qI4y2KfA=", "properties": {"@spider": "usps_collection_boxes", "addr:city": "KEWANEE", "addr:country": "US", "addr:full": "123 W 2ND ST", "addr:postcode": "61443", "addr:state": "IL", "brand": "USPS", "collection_times": "Mo-Sa 09:00", "name": "USPS COLLECTION BOX - BLUE BOX", "ref": "6144300004"}, "type": "Feature"}
{"geometry": {"coordinates": [-89.926347005, 41.242734702], "type": "Point"}, "id": "c8wc_NSVmy-AWNj2a3meMsvwOHA=", "properties": {"@spider": "usps_collection_boxes", "addr:city": "KEWANEE", "addr:country": "US", "addr:full": "116 S TREMONT ST", "addr:postcode": "61443", "addr:state": "IL", "brand": "USPS", "collection_times": "Mo-Sa 15:00", "name": "USPS COLLECTION BOX - EXPRESS", "note": "ON 12/24 AND 12/31, THIS BOX MAY BE COLLECTED AS EARLY AS 12 NOON.", "ref": "6144300014"}, "type": "Feature"}
{"geometry": {"coordinates": [-89.9280614, 41.222374], "type": "Point"}, "id": "4DrGJTG01mVtDGptJuHlwInfceA=", "properties": {"@spider": "usps_collection_boxes", "addr:city": "KEWANEE", "addr:country": "US", "addr:full": "635 TENNEY ST", "addr:postcode": "61443", "addr:state": "IL", "brand": "USPS", "collection_times": "Mo-Sa 10:00", "name": "USPS COLLECTION BOX - BLUE BOX", "ref": "6144300015"}, "type": "Feature"}
{"geometry": {"coordinates": [-89.9228544, 41.221751], "type": "Point"}, "id": "2v95cpseaOabcbJ8dfGHwhKOM6M=", "properties": {"@spider": "usps_collection_boxes", "addr:city": "KEWANEE", "addr:country": "US", "addr:full": "730 TENNEY ST", "addr:postcode": "61443", "addr:state": "IL", "brand": "USPS", "collection_times": "Mo-Sa 10:00", "name": "USPS COLLECTION BOX - BLUE BOX", "ref": "6144300019"}, "type": "Feature"}
{"geometry": {"coordinates": [-89.926347005, 41.242734702], "type": "Point"}, "id": "ipEbZRocy5FSsGGqLokfwZ6mlEg=", "properties": {"@spider": "usps_collection_boxes", "addr:city": "KEWANEE", "addr:country": "US", "addr:full": "116 S TREMONT ST", "addr:postcode": "61443", "addr:state": "IL", "brand": "USPS", "collection_times": "Mo-Fr 17:00; Sa 16:30", "name": "USPS COLLECTION BOX - PO LOBBY", "note": "ON 12/24 AND 12/31, THIS BOX MAY BE COLLECTED AS EARLY AS 12 NOON.", "ref": "6144300020"}, "type": "Feature"}
{"geometry": {"coordinates": [-89.926347005, 41.242734702], "type": "Point"}, "id": "UtU1flZPO0uHnwZYdpkDxrs6Ko0=", "properties": {"@spider": "usps_collection_boxes", "addr:city": "KEWANEE", "addr:country": "US", "addr:full": "116 S TREMONT ST", "addr:postcode": "61443", "addr:state": "IL", "brand": "USPS", "collection_times": "Mo-Fr 17:00; Sa 16:30", "name": "USPS COLLECTION BOX - BLUE BOX", "note": "ON 12/24 AND 12/31, THIS BOX MAY BE COLLECTED AS EARLY AS 12 NOON.", "ref": "6144300021"}, "type": "Feature"}
{"geometry": {"coordinates": [-89.926347005, 41.242734702], "type": "Point"}, "id": "pqVQ7EEo4W43muZ9feZ3rL5p47Y=", "properties": {"@spider": "usps_collection_boxes", "addr:city": "KEWANEE", "addr:country": "US", "addr:full": "116 S TREMONT ST", "addr:postcode": "61443", "addr:state": "IL", "brand": "USPS", "collection_times": "Mo-Fr 16:30; Sa 12:30", "name": "USPS COLLECTION BOX - PO LOBBY", "note": "ON 12/24 AND 12/31, THIS BOX MAY BE COLLECTED AS EARLY AS 12 NOON.", "ref": "6144300023"}, "type": "Feature"}
{"geometry": {"coordinates": [-90.284701, 40.908566], "type": "Point"}, "id": "UToP954s5VhHvRZD9571NS_X6Dc=", "properties": {"@spider": "usps_collection_boxes", "addr:city": "KNOXVILLE", "addr:country": "US", "addr:full": "33 N PUBLIC SQ", "addr:postcode": "61448", "addr:state": "IL", "brand": "USPS", "collection_times": "Mo-Fr 16:30; Sa 11:30", "name": "USPS COLLECTION BOX - BLUE BOX", "note": "ON 12/24 AND 12/31, THIS BOX MAY BE COLLECTED AS EARLY AS 12 NOON.", "ref": "6144800005"}, "type": "Feature"}
{"geometry": {"coordinates": [-90.284358444, 40.9086089], "type": "Point"}, "id": "Z-mca_d2UlZ8DP2SmmQCzrNHFmc=", "properties": {"@spider": "usps_collection_boxes", "addr:city": "KNOXVILLE", "addr:country": "US", "addr:full": "121 N PUBLIC SQ", "addr:postcode": "61448", "addr:state": "IL", "brand": "USPS", "collection_times": "Mo-Fr 16:30; Sa 11:30", "name": "USPS COLLECTION BOX - PO LOBBY", "note": "ON 12/24 AND 12/31, THIS BOX MAY BE COLLECTED AS EARLY AS 12 NOON.", "ref": "6144800007"}, "type": "Feature"}
{"geometry": {"coordinates": [-90.284358444, 40.9086089], "type": "Point"}, "id": "SFICTEwfn00sKGfiVYgPlmGkcWM=", "properties": {"@spider": "usps_collection_boxes", "addr:city": "KNOXVILLE", "addr:country": "US", "addr:full": "121 N PUBLIC SQ", "addr:postcode": "61448", "addr:state": "IL", "brand": "USPS", "collection_times": "Mo-Fr 16:30; Sa 11:30", "name": "USPS COLLECTION BOX - PO LOBBY", "note": "ON 12/24 AND 12/31, THIS BOX MAY BE COLLECTED AS EARLY AS 12 NOON.", "ref": "6144800008"}, "type": "Feature"}
{"geometry": {"coordinates": [-89.974085151, 41.109600849], "type": "Point"}, "id": "mDguKsZ2fFu84EYqQAO39BuKGdw=", "properties": {"@spider": "usps_collection_boxes", "addr:city": "LAFAYETTE", "addr:country": "US", "addr:full": "301 COMMERCIAL ST", "addr:postcode": "61449", "addr:state": "IL", "brand": "USPS", "collection_times": "Mo-Fr 15:45; Sa 10:00", "name": "USPS COLLECTION BOX - BLUE BOX", "note": "ON 12/24 AND 12/31, THIS BOX MAY BE COLLECTED AS EARLY AS 12 NOON.", "ref": "6144900000"}, "type": "Feature"}
{"geometry": {"coordinates": [-89.974085151, 41.109600849], "type": "Point"}, "id": "0NJLKHDRsXYnBU0gaghy4tIa2D4=", "properties": {"@spider": "usps_collection_boxes", "addr:city": "LAFAYETTE", "addr:country": "US", "addr:full": "301 COMMERCIAL ST", "addr:postcode": "61449", "addr:state": "IL", "brand": "USPS", "collection_times": "Mo-Sa 10:00", "name": "USPS COLLECTION BOX - PO LOBBY", "ref": "6144900001"}, "type": "Feature"}
{"geometry": {"coordinates": [-89.974085151, 41.109600849], "type": "Point"}, "id": "54HKEkq7PfV8jyXciZikFfv0QxU=", "properties": {"@spider": "usps_collection_boxes", "addr:city": "LAFAYETTE", "addr:country": "US", "addr:full": "301 COMMERCIAL ST", "addr:postcode": "61449", "addr:state": "IL", "brand": "USPS", "collection_times": "Mo-Sa 10:00", "name": "USPS COLLECTION BOX - PO LOBBY", "ref": "6144900002"}, "type": "Feature"}
{"geometry": {"coordinates": [-89.9264205, 40.921721467], "type": "Point"}, "id": "6V-AiZ8jnKBkLA7b9aME_u2QWA4=", "properties": {"@spider": "usps_collection_boxes", "addr:city": "LAURA", "addr:country": "US", "addr:full": "21014 MAPLE ST", "addr:postcode": "61451", "addr:state": "IL", "brand": "USPS", "collection_times": "Mo-Fr 15:45; Sa 09:00", "name": "USPS COLLECTION BOX - BLUE BOX", "note": "ON 12/24 AND 12/31, THIS BOX MAY BE COLLECTED AS EARLY AS 12 NOON.", "ref": "6145100000"}, "type": "Feature"}
{"geometry": {"coordinates": [-89.9264205, 40.921721467], "type": "Point"}, "id": "dIYeE6by14L7hvF1H6TghlmDhYM=", "properties": {"@spider": "usps_collection_boxes", "addr:city": "LAURA", "addr:country": "US", "addr:full": "21014 MAPLE ST", "addr:postcode": "61451", "addr:state": "IL", "brand": "USPS", "collection_times": "Mo-Fr 12:00; Sa 09:00", "name": "USPS COLLECTION BOX - PO LOBBY", "ref": "6145100001"}, "type": "Feature"}
{"geometry": {"coordinates": [-89.9264205, 40.921721467], "type": "Point"}, "id": "GiKzfhaUAdeaT2xoHCMloRFY5K4=", "properties": {"@spider": "usps_collection_boxes", "addr:city": "LAURA", "addr:country": "US", "addr:full": "21014 MAPLE ST", "addr:postcode": "61451", "addr:state": "IL", "brand": "USPS", "collection_times": "Mo-Fr 12:00; Sa 10:00", "name": "USPS COLLECTION BOX - PO LOBBY", "ref": "6145100003"}, "type": "Feature"}
{"geometry": {"coordinates": [-90.62060185, 40.233825606], "type": "Point"}, "id": "uPu-CG6FL3M5e_7b_QaXMUrWeY0=", "properties": {"@spider": "usps_collection_boxes", "addr:city": "LITTLETON", "addr:country": "US", "addr:full": "117 S MAIN ST", "addr:postcode": "61452", "addr:state": "IL", "brand": "USPS", "collection_times": "Mo-Fr 15:30; Sa 10:00", "name": "USPS COLLECTION BOX - BLUE BOX", "note": "ON 12/24 AND 12/31, THIS BOX MAY BE COLLECTED AS EARLY AS 12 NOON.", "ref": "6145200000"}, "type": "Feature"}
{"geometry": {"coordinates": [-90.62060185, 40.233825606], "type": "Point"}, "id": "R0he2k7fGiP-vF-4_2HtUm_E68c=", "properties": {"@spider": "usps_collection_boxes", "addr:city": "LITTLETON", "addr:country": "US", "addr:full": "117 S MAIN ST", "addr:postcode": "61452", "addr:state": "IL", "brand": "USPS", "collection_times": "Mo-Fr 11:00; Sa 08:45", "name": "USPS COLLECTION BOX - PO LOBBY", "ref": "6145200001"}, "type": "Feature"}
{"geometry": {"coordinates": [-90.62060185, 40.233825606], "type": "Point"}, "id": "SAtblb73Dd4JgD405_YfBDVBAhg=", "properties": {"@spider": "usps_collection_boxes", "addr:city": "LITTLETON", "addr:country": "US", "addr:full": "117 S MAIN ST", "addr:postcode": "61452", "addr:state": "IL", "brand": "USPS", "collection_times": "Mo-Fr 11:00; Sa 08:45", "name": "USPS COLLECTION BOX - PO LOBBY", "ref": "6145200002"}, "type": "Feature"}
{"geometry": {"coordinates": [-90.670226413, 40.457429413], "type": "Point"}, "id": "s3SH0TAn4xRNP80r8ke7rTNTYzI=", "properties": {"@spider": "usps_collection_boxes", "addr:city": "MACOMB", "addr:country": "US", "addr:full": "205 S RANDOLPH ST", "addr:postcode": "61455", "addr:state": "IL", "brand": "USPS", "collection_times": "Mo-Fr 17:00; Sa 16:00", "name": "USPS COLLECTION BOX - PO LOBBY", "note": "ON 12/24 AND 12/31, THIS BOX MAY BE COLLECTED AS EARLY AS 12 NOON.", "ref": "6145500000"}, "type": "Feature"}
{"geometry": {"coordinates": [-90.670226413, 40.457429413], "type": "Point"}, "id": "EE1qdqZQUR3rdvJqigXJDzByZsw=", "properties": {"@spider": "usps_collection_boxes", "addr:city": "MACOMB", "addr:country": "US", "addr:full": "205 S RANDOLPH ST", "addr:postcode": "61455", "addr:state": "IL", "brand": "USPS", "collection_times": "Mo-Fr 17:00; Sa 15:00", "name": "USPS COLLECTION BOX - BLUE BOX", "note": "ON 12/24 AND 12/31, THIS BOX MAY BE COLLECTED AS EARLY AS 12 NOON.", "ref": "6145500001"}, "type": "Feature"}
{"geometry": {"coordinates": [-90.6510225, 40.458737], "type": "Point"}, "id": "4Mp60Geag30OwbFlDh_eTaZ1fLY=", "properties": {"@spider": "usps_collection_boxes", "addr:city": "MACOMB", "addr:country": "US", "addr:full": "1400 E JACKSON ST", "addr:postcode": "61455", "addr:state": "IL", "brand": "USPS", "collection_times": "Mo-Fr 15:00; Sa 14:30", "name": "USPS COLLECTION BOX - BLUE BOX", "note": "ON 12/24 AND 12/31, THIS BOX MAY BE COLLECTED AS EARLY AS 12 NOON.", "ref": "6145500021"}, "type": "Feature"}
{"geometry": {"coordinates": [-90.6706395, 40.456498], "type": "Point"}, "id": "L8ZK-sy4-T_wSot1ogY8gYa3XkA=", "properties": {"@spider": "usps_collection_boxes", "addr:city": "MACOMB", "addr:country": "US", "addr:full": "120 E JEFFERSON ST", "addr:postcode": "61455", "addr:state": "IL", "brand": "USPS", "collection_times": "Mo-Fr 16:00; Sa 15:00", "name": "USPS COLLECTION BOX - BLUE BOX", "note": "ON 12/24 AND 12/31, THIS BOX MAY BE COLLECTED AS EARLY AS 12 NOON.", "ref": "6145500022"}, "type": "Feature"}
{"geometry": {"coordinates": [-90.6710637, 40.459268], "type": "Point"}, "id": "54i9xIfbLr31lG2jsAS7AbtOUHk=", "properties": {"@spider": "usps_collection_boxes", "addr:city": "MACOMB", "addr:country": "US", "addr:full": "108 N SIDE SQ", "addr:postcode": "61455", "addr:state": "IL", "brand": "USPS", "collection_times": "Mo-Fr 15:45; Sa 14:30", "name": "USPS COLLECTION BOX - BLUE BOX", "note": "ON 12/24 AND 12/31, THIS BOX MAY BE COLLECTED AS EARLY AS 12 NOON.", "ref": "6145500024"}, "type": "Feature"}
{"geometry": {"coordinates": [-90.670958, 40.458195], "type": "Point"}, "id": "4GtdvWllqiR6dfsvnUZOSlC0v3I=", "properties": {"@spider": "usps_collection_boxes", "addr:city": "MACOMB", "addr:country": "US", "addr:full": "121 S SIDE SQ", "addr:postcode": "61455", "addr:state": "IL", "brand": "USPS", "collection_times": "Mo-Fr 15:45; Sa 14:30", "name": "USPS COLLECTION BOX - BLUE BOX", "note": "ON 12/24 AND 12/31, THIS BOX MAY BE COLLECTED AS EARLY AS 12 NOON.", "ref": "6145500029"}, "type": "Feature"}
{"geometry": {"coordinates": [-90.6677995, 40.459072], "type": "Point"}, "id": "XktF2emu-kE1RqLmOKJWYOVs1Bw=", "properties": {"@spider": "usps_collection_boxes", "addr:city": "MACOMB", "addr:country": "US", "addr:full": "300 E JACKSON ST", "addr:postcode": "61455", "addr:state": "IL", "brand": "USPS", "collection_times": "Mo-Fr 15:00; Sa 14:30", "name": "USPS COLLECTION BOX - BLUE BOX", "note": "ON 12/24 AND 12/31, THIS BOX MAY BE COLLECTED AS EARLY AS 12 NOON.", "ref": "6145500046"}, "type": "Feature"}
{"geometry": {"coordinates": [-90.670226413, 40.457429413], "type": "Point"}, "id": "H0lrZqfJbYl1Rczxb2bgJLpZ9Rg=", "properties": {"@spider": "usps_collection_boxes", "addr:city": "MACOMB", "addr:country": "US", "addr:full": "205 S RANDOLPH ST", "addr:postcode": "61455", "addr:state": "IL", "brand": "USPS", "collection_times": "Mo-Fr 17:00; Sa 15:00", "name": "USPS COLLECTION BOX - EXPRESS", "note": "ON 12/24 AND 12/31, THIS BOX MAY BE COLLECTED AS EARLY AS 12 NOON.", "ref": "6145500047"}, "type": "Feature"}
{"geometry": {"coordinates": [-90.6706386, 40.456499], "type": "Point"}, "id": "54kkci0RPx6eAHaya_hbP85UOUM=", "properties": {"@spider": "usps_collection_boxes", "addr:city": "MACOMB", "addr:country": "US", "addr:full": "120 E JEFFERSON ST", "addr:postcode": "61455", "addr:state": "IL", "brand": "USPS", "collection_times": "Mo-Fr 16:00; Sa 15:00", "name": "USPS COLLECTION BOX - BLUE BOX", "note": "ON 12/24 AND 12/31, THIS BOX MAY BE COLLECTED AS EARLY AS 12 NOON.", "ref": "6145500052"}, "type": "Feature"}
{"geometry": {"coordinates": [-90.670226413, 40.457429413], "type": "Point"}, "id": "2OcU43bzRDOj4QnJaQyj-3xYWXI=", "properties": {"@spider": "usps_collection_boxes", "addr:city": "MACOMB", "addr:country": "US", "addr:full": "205 S RANDOLPH ST", "addr:postcode": "61455", "addr:state": "IL", "brand": "USPS", "collection_times": "Mo-Fr 17:00; Sa 15:00", "name": "USPS COLLECTION BOX - BLUE BOX", "note": "ON 12/24 AND 12/31, THIS BOX MAY BE COLLECTED AS EARLY AS 12 NOON.", "ref": "6145500053"}, "type": "Feature"}
{"geometry": {"coordinates": [-90.670226413, 40.457429413], "type": "Point"}, "id": "5sKU0ezf6LwlSw678bVBjyAfiWQ=", "properties": {"@spider": "usps_collection_boxes", "addr:city": "MACOMB", "addr:country": "US", "addr:full": "205 S RANDOLPH ST", "addr:postcode": "61455", "addr:state": "IL", "brand": "USPS", "collection_times": "Mo-Fr 17:00; Sa 15:00", "name": "USPS COLLECTION BOX - BLUE BOX", "note": "ON 12/24 AND 12/31, THIS BOX MAY BE COLLECTED AS EARLY AS 12 NOON.", "ref": "6145500054"}, "type": "Feature"}
{"geometry": {"coordinates": [-90.6857791, 40.467262], "type": "Point"}, "id": "IUVMW-XL4yAGEVA_e8JaXEbPg98=", "properties": {"@spider": "usps_collection_boxes", "addr:city": "MACOMB", "addr:country": "US", "addr:full": "1 UNIVERSITY CIR", "addr:postcode": "61455", "addr:state": "IL", "brand": "USPS", "collection_times": "Mo-Fr 14:00; Sa 12:00", "name": "USPS COLLECTION BOX - BLUE BOX", "note": "ON 12/24 AND 12/31, THIS BOX MAY BE COLLECTED AS EARLY AS 12 NOON.", "ref": "6145500056"}, "type": "Feature"}
{"geometry": {"coordinates": [-90.670226413, 40.457429413], "type": "Point"}, "id": "7xKt_3fibF_SthCaMv8CjiXKe2o=", "properties": {"@spider": "usps_collection_boxes", "addr:city": "MACOMB", "addr:country": "US", "addr:full": "205 S RANDOLPH ST", "addr:postcode": "61455", "addr:state": "IL", "brand": "USPS", "collection_times": "Mo-Fr 17:00; Sa 16:00", "name": "USPS COLLECTION BOX - PO LOBBY", "note": "ON 12/24 AND 12/31, THIS BOX MAY BE COLLECTED AS EARLY AS 12 NOON.", "ref": "6145500059"}, "type": "Feature"}
{"geometry": {"coordinates": [-90.165077977, 40.798610455], "type": "Point"}, "id": "U_VKR9P2T8b0_FGjBrBt5wzhOeQ=", "properties": {"@spider": "usps_collection_boxes", "addr:city": "MAQUON", "addr:country": "US", "addr:full": "300 MAIN ST", "addr:postcode": "61458", "addr:state": "IL", "brand": "USPS", "collection_times": "Mo-Fr 15:45; Sa 09:30", "name": "USPS COLLECTION BOX - BLUE BOX", "note": "ON 12/24 AND 12/31, THIS BOX MAY BE COLLECTED AS EARLY AS 12 NOON.", "ref": "6145800001"}, "type": "Feature"}
{"geometry": {"coordinates": [-90.165077977, 40.798610455], "type": "Point"}, "id": "v7qrx9-yZnvNdxnuKkzIVfrPmEE=", "properties": {"@spider": "usps_collection_boxes", "addr:city": "MAQUON", "addr:country": "US", "addr:full": "300 MAIN ST", "addr:postcode": "61458", "addr:state": "IL", "brand": "USPS", "collection_times": "Mo-Fr 11:00; Sa 09:30", "name": "USPS COLLECTION BOX - PO LOBBY", "ref": "6145800002"}, "type": "Feature"}
{"geometry": {"coordinates": [-90.165077977, 40.798610455], "type": "Point"}, "id": "o-x2fq0rnThIRFuNRvU7DMlvmuo=", "properties": {"@spider": "usps_collection_boxes", "addr:city": "MAQUON", "addr:country": "US", "addr:full": "300 MAIN ST", "addr:postcode": "61458", "addr:state": "IL", "brand": "USPS", "collection_times": "Mo-Fr 11:00; Sa 09:30", "name": "USPS COLLECTION BOX - PO LOBBY", "ref": "6145800003"}, "type": "Feature"}
{"geometry": {"coordinates": [-90.39095866, 40.50125416], "type": "Point"}, "id": "fMlsqN3zxiCmDGcYfThOijVuyqo=", "properties": {"@spider": "usps_collection_boxes", "addr:city": "MARIETTA", "addr:country": "US", "addr:full": "107 W COAL ST", "addr:postcode": "61459", "addr:state": "IL", "brand": "USPS", "collection_times": "Mo-Fr 16:00; Sa 09:30", "name": "USPS COLLECTION BOX - BLUE BOX", "note": "ON 12/24 AND 12/31, THIS BOX MAY BE COLLECTED AS EARLY AS 12 NOON.", "ref": "6145900000"}, "type": "Feature"}
{"geometry": {"coordinates": [-90.39095866, 40.50125416], "type": "Point"}, "id": "N4gt8jTa_zOmkhfA37redQY8Ehc=", "properties": {"@spider": "usps_collection_boxes", "addr:city": "MARIETTA", "addr:country": "US", "addr:full": "107 W COAL ST", "addr:postcode": "61459", "addr:state": "IL", "brand": "USPS", "collection_times": "Mo-Fr 12:35; Sa 09:30", "name": "USPS COLLECTION BOX - PO LOBBY", "note": "ON 12/24 AND 12/31, THIS BOX MAY BE COLLECTED AS EARLY AS 12 NOON.", "ref": "6145900001"}, "type": "Feature"}
{"geometry": {"coordinates": [-90.39095866, 40.50125416], "type": "Point"}, "id": "i_xbC1muhsvzCt7JQe59hmMSIec=", "properties": {"@spider": "usps_collection_boxes", "addr:city": "MARIETTA", "addr:country": "US", "addr:full": "107 W COAL ST", "addr:postcode": "61459", "addr:state": "IL", "brand": "USPS", "collection_times": "Mo-Fr 12:30; Sa 09:30", "name": "USPS COLLECTION BOX - PO LOBBY", "note": "ON 12/24 AND 12/31, THIS BOX MAY BE COLLECTED AS EARLY AS 12 NOON.", "ref": "6145900002"}, "type": "Feature"}
{"geometry": {"coordinates": [-90.440532671, 41.202340555], "type": "Point"}, "id": "BpwlE0qi8wu2Ud_F83QHGGpTtbQ=", "properties": {"@spider": "usps_collection_boxes", "addr:city": "NEW WINDSOR", "addr:country": "US", "addr:full": "315 MAIN ST", "addr:postcode": "61465", "addr:state": "IL", "brand": "USPS", "collection_times": "Mo-Fr 16:00; Sa 10:30", "name": "USPS COLLECTION BOX - BLUE BOX", "note": "ON 12/24 AND 12/31, THIS BOX MAY BE COLLECTED AS EARLY AS 12 NOON.", "ref": "6146500001"}, "type": "Feature"}
{"geometry": {"coordinates": [-90.440532671, 41.202340555], "type": "Point"}, "id": "8Re6QP3_WTkM8ci96UNp4suIWQc=", "properties": {"@spider": "usps_collection_boxes", "addr:city": "NEW WINDSOR", "addr:country": "US", "addr:full": "315 MAIN ST", "addr:postcode": "61465", "addr:state": "IL", "brand": "USPS", "collection_times": "Mo-Fr 14:30; Sa 10:30", "name": "USPS COLLECTION BOX - PO LOBBY", "note": "ON 12/24 AND 12/31, THIS BOX MAY BE COLLECTED AS EARLY AS 12 NOON.", "ref": "6146500002"}, "type": "Feature"}
{"geometry": {"coordinates": [-90.440532671, 41.202340555], "type": "Point"}, "id": "TdZ3lIWWSycX0MdoPqNrEzMm9Wo=", "properties": {"@spider": "usps_collection_boxes", "addr:city": "NEW WINDSOR", "addr:country": "US", "addr:full": "315 MAIN ST", "addr:postcode": "61465", "addr:state": "IL", "brand": "USPS", "collection_times": "Mo-Fr 14:30; Sa 10:30", "name": "USPS COLLECTION BOX - PO LOBBY", "note": "ON 12/24 AND 12/31, THIS BOX MAY BE COLLECTED AS EARLY AS 12 NOON.", "ref": "6146500003"}, "type": "Feature"}
{"geometry": {"coordinates": [-90.475688907, 41.090247754], "type": "Point"}, "id": "GWCtlWWO4ps4ViPF-ZeGclFxc1c=", "properties": {"@spider": "usps_collection_boxes", "addr:city": "NORTH HENDERSON", "addr:country": "US", "addr:full": "401 MAIN ST", "addr:postcode": "61466", "addr:state": "IL", "brand": "USPS", "collection_times": "Mo-Fr 15:45; Sa 12:30", "name": "USPS COLLECTION BOX - BLUE BOX", "note": "ON 12/24 AND 12/31, THIS BOX MAY BE COLLECTED AS EARLY AS 12 NOON.", "ref": "6146600000"}, "type": "Feature"}
{"geometry": {"coordinates": [-90.475688907, 41.090247754], "type": "Point"}, "id": "Y_0izMEruF5xYjmzQU97mBjkqUw=", "properties": {"@spider": "usps_collection_boxes", "addr:city": "NORTH HENDERSON", "addr:country": "US", "addr:full": "401 MAIN ST", "addr:postcode": "61466", "addr:state": "IL", "brand": "USPS", "collection_times": "Mo-Fr 15:45; Sa 12:30", "name": "USPS COLLECTION BOX - PO LOBBY", "note": "ON 12/24 AND 12/31, THIS BOX MAY BE COLLECTED AS EARLY AS 12 NOON.", "ref": "6146600001"}, "type": "Feature"}
{"geometry": {"coordinates": [-90.475688907, 41.090247754], "type": "Point"}, "id": "L3b5GJr1GLF9CwVI-zDvJXQGqQg=", "properties": {"@spider": "usps_collection_boxes", "addr:city": "NORTH HENDERSON", "addr:country": "US", "addr:full": "401 MAIN ST", "addr:postcode": "61466", "addr:state": "IL", "brand": "USPS", "collection_times": "Mo-Fr 16:00; Sa 12:30", "name": "USPS COLLECTION BOX - PO LOBBY", "note": "ON 12/24 AND 12/31, THIS BOX MAY BE COLLECTED AS EARLY AS 12 NOON.", "ref": "6146600002"}, "type": "Feature"}
{"geometry": {"coordinates": [-90.223942919, 41.07340247], "type": "Point"}, "id": "pevhARFh-ij-7pTEqaUTx3-7hAI=", "properties": {"@spider": "usps_collection_boxes", "addr:city": "ONEIDA", "addr:country": "US", "addr:full": "126 E HOLMES ST", "addr:postcode": "61467", "addr:state": "IL", "brand": "USPS", "collection_times": "Mo-Fr 14:30; Sa 10:30", "name": "USPS COLLECTION BOX - PO LOBBY", "note": "ON 12/24 AND 12/31, THIS BOX MAY BE COLLECTED AS EARLY AS 12 NOON.", "ref": "6146700001"}, "type": "Feature"}
{"geometry": {"coordinates": [-90.223942919, 41.07340247], "type": "Point"}, "id": "qxGRjumiumh_i2N13OU9uWbh0Ds=", "properties": {"@spider": "usps_collection_boxes", "addr:city": "ONEIDA", "addr:country": "US", "addr:full": "126 E HOLMES ST", "addr:postcode": "61467", "addr:state": "IL", "brand": "USPS", "collection_times": "Mo-Fr 15:30; Sa 10:30", "name": "USPS COLLECTION BOX - BLUE BOX", "note": "ON 12/24 AND 12/31, THIS BOX MAY BE COLLECTED AS EARLY AS 12 NOON.", "ref": "6146700003"}, "type": "Feature"}
{"geometry": {"coordinates": [-90.223942919, 41.07340247], "type": "Point"}, "id": "HRwcLVAF8s5_grTGKJOeg2JzEpE=", "properties": {"@spider": "usps_collection_boxes", "addr:city": "ONEIDA", "addr:country": "US", "addr:full": "126 E HOLMES ST", "addr:postcode": "61467", "addr:state": "IL", "brand": "USPS", "collection_times": "Mo-Fr 14:30; Sa 10:30", "name": "USPS COLLECTION BOX - PO LOBBY", "note": "ON 12/24 AND 12/31, THIS BOX MAY BE COLLECTED AS EARLY AS 12 NOON.", "ref": "6146700004"}, "type": "Feature"}
{"geometry": {"coordinates": [-90.461734669, 40.621014547], "type": "Point"}, "id": "HaUj5JWOf3_Ys5UWw1FtAimYf2U=", "properties": {"@spider": "usps_collection_boxes", "addr:city": "PRAIRIE CITY", "addr:country": "US", "addr:full": "325 E MAIN ST", "addr:postcode": "61470", "addr:state": "IL", "brand": "USPS", "collection_times": "Mo-Fr 15:45; Sa 09:45", "name": "USPS COLLECTION BOX - BLUE BOX", "note": "ON 12/24 AND 12/31, THIS BOX MAY BE COLLECTED AS EARLY AS 12 NOON.", "ref": "6147000000"}, "type": "Feature"}
{"geometry": {"coordinates": [-90.461734669, 40.621014547], "type": "Point"}, "id": "OLD0yfCdtBL1beUSJvoErM-_qv4=", "properties": {"@spider": "usps_collection_boxes", "addr:city": "PRAIRIE CITY", "addr:country": "US", "addr:full": "325 E MAIN ST", "addr:postcode": "61470", "addr:state": "IL", "brand": "USPS", "collection_times": "Mo-Fr 11:00; Sa 08:45", "name": "USPS COLLECTION BOX - PO LOBBY", "ref": "6147000001"}, "type": "Feature"}
{"geometry": {"coordinates": [-90.461734669, 40.621014547], "type": "Point"}, "id": "ltejPtRCY5ECh1w5oqZ279tGric=", "properties": {"@spider": "usps_collection_boxes", "addr:city": "PRAIRIE CITY", "addr:country": "US", "addr:full": "325 E MAIN ST", "addr:postcode": "61470", "addr:state": "IL", "brand": "USPS", "collection_times": "Mo-Fr 11:00; Sa 08:45", "name": "USPS COLLECTION BOX - PO LOBBY", "ref": "6147000002"}, "type": "Feature"}
{"geometry": {"coordinates": [-90.399450528, 41.10784535], "type": "Point"}, "id": "PmMVg2AxM2SobCp58WhNsuurR6I=", "properties": {"@spider": "usps_collection_boxes", "addr:city": "RIO", "addr:country": "US", "addr:full": "110 E CENTER AVE", "addr:postcode": "61472", "addr:state": "IL", "brand": "USPS", "collection_times": "Mo-Fr 15:30; Sa 09:00", "name": "USPS COLLECTION BOX - BLUE BOX", "note": "ON 12/24 AND 12/31, THIS BOX MAY BE COLLECTED AS EARLY AS 12 NOON.", "ref": "6147200000"}, "type": "Feature"}
{"geometry": {"coordinates": [-90.399450528, 41.10784535], "type": "Point"}, "id": "aQgeIrn96YuADfFFAIMQvdp6kNU=", "properties": {"@spider": "usps_collection_boxes", "addr:city": "RIO", "addr:country": "US", "addr:full": "110 E CENTER AVE", "addr:postcode": "61472", "addr:state": "IL", "brand": "USPS", "collection_times": "Mo-Fr 11:00; Sa 09:00", "name": "USPS COLLECTION BOX - PO LOBBY", "ref": "6147200001"}, "type": "Feature"}
{"geometry": {"coordinates": [-90.399450528, 41.10784535], "type": "Point"}, "id": "lpDtPrnt-bsqvyxGO4K2C2ZY1eo=", "properties": {"@spider": "usps_collection_boxes", "addr:city": "RIO", "addr:country": "US", "addr:full": "110 E CENTER AVE", "addr:postcode": "61472", "addr:state": "IL", "brand": "USPS", "collection_times": "Mo-Fr 11:00; Sa 09:00", "name": "USPS COLLECTION BOX - PO LOBBY", "ref": "6147200002"}, "type": "Feature"}
{"geometry": {"coordinates": [-90.410597276, 40.71845678], "type": "Point"}, "id": "E0BAzrb6X1jIR05XqOTYiL2Ou1U=", "properties": {"@spider": "usps_collection_boxes", "addr:city": "ST AUGUSTINE", "addr:country": "US", "addr:full": "34 N MAIN ST", "addr:postcode": "61474", "addr:state": "IL", "brand": "USPS", "collection_times": "Mo-Fr 16:00; Sa 09:00", "name": "USPS COLLECTION BOX - BLUE BOX", "note": "ON 12/24 AND 12/31, THIS BOX MAY BE COLLECTED AS EARLY AS 12 NOON.", "ref": "6147400001"}, "type": "Feature"}
{"geometry": {"coordinates": [-90.410597276, 40.71845678], "type": "Point"}, "id": "5gfjsrdaOW4G1xsOC-dtf8ns-U0=", "properties": {"@spider": "usps_collection_boxes", "addr:city": "ST AUGUSTINE", "addr:country": "US", "addr:full": "34 N MAIN ST", "addr:postcode": "61474", "addr:state": "IL", "brand": "USPS", "collection_times": "Mo-Fr 12:00; Sa 09:00", "name": "USPS COLLECTION BOX - PO LOBBY", "ref": "6147400002"}, "type": "Feature"}
{"geometry": {"coordinates": [-90.410597276, 40.71845678], "type": "Point"}, "id": "XKUKAxgt3zl71aglrIgRaEGPxUM=", "properties": {"@spider": "usps_collection_boxes", "addr:city": "ST AUGUSTINE", "addr:country": "US", "addr:full": "34 N MAIN ST", "addr:postcode": "61474", "addr:state": "IL", "brand": "USPS", "collection_times": "Mo-Fr 12:00; Sa 09:00", "name": "USPS COLLECTION BOX - PO LOBBY", "ref": "6147400003"}, "type": "Feature"}
{"geometry": {"coordinates": [-90.29152646, 40.472536753], "type": "Point"}, "id": "tPtJymo7_SyQxaYii1inNkLA0-s=", "properties": {"@spider": "usps_collection_boxes", "addr:city": "SMITHFIELD", "addr:country": "US", "addr:full": "148 S MAIN ST", "addr:postcode": "61477", "addr:state": "IL", "brand": "USPS", "collection_times": "Mo-Fr 11:15; Sa 09:30", "name": "USPS COLLECTION BOX - PO LOBBY", "ref": "6147700000"}, "type": "Feature"}
{"geometry": {"coordinates": [-90.29152646, 40.472536753], "type": "Point"}, "id": "UQtO3uWefU99Pz88PBkrYAAJ0wM=", "properties": {"@spider": "usps_collection_boxes", "addr:city": "SMITHFIELD", "addr:country": "US", "addr:full": "148 S MAIN ST", "addr:postcode": "61477", "addr:state": "IL", "brand": "USPS", "collection_times": "Mo-Fr 16:00; Sa 09:30", "name": "USPS COLLECTION BOX - BLUE BOX", "note": "ON 12/24 AND 12/31, THIS BOX MAY BE COLLECTED AS EARLY AS 12 NOON.", "ref": "6147700001"}, "type": "Feature"}
{"geometry": {"coordinates": [-90.29152646, 40.472536753], "type": "Point"}, "id": "qGBSqCLZMuJCWdxoioAIQVy7-ag=", "properties": {"@spider": "usps_collection_boxes", "addr:city": "SMITHFIELD", "addr:country": "US", "addr:full": "148 S MAIN ST", "addr:postcode": "61477", "addr:state": "IL", "brand": "USPS", "collection_times": "Mo-Fr 11:30; Sa 09:30", "name": "USPS COLLECTION BOX - PO LOBBY", "ref": "6147700002"}, "type": "Feature"}
{"geometry": {"coordinates": [-89.652295305, 40.986625785], "type": "Point"}, "id": "k50G6cUXIjnqWYh9NpxpaDXxU7g=", "properties": {"@spider": "usps_collection_boxes", "addr:city": "SPEER", "addr:country": "US", "addr:full": "100 MAIN ST", "addr:postcode": "61479", "addr:state": "IL", "brand": "USPS", "collection_times": "Mo-Fr 15:30; Sa 09:00", "name": "USPS COLLECTION BOX - BLUE BOX", "note": "ON 12/24 AND 12/31, THIS BOX MAY BE COLLECTED AS EARLY AS 12 NOON.", "ref": "6147900000"}, "type": "Feature"}
{"geometry": {"coordinates": [-89.652295305, 40.986625785], "type": "Point"}, "id": "BQL7nahK87wD8KYO99ivpbbFCZg=", "properties": {"@spider": "usps_collection_boxes", "addr:city": "SPEER", "addr:country": "US", "addr:full": "100 MAIN ST", "addr:postcode": "61479", "addr:state": "IL", "brand": "USPS", "collection_times": "Mo-Fr 10:30; Sa 09:00", "name": "USPS COLLECTION BOX - PO LOBBY", "ref": "6147900001"}, "type": "Feature"}
{"geometry": {"coordinates": [-89.652295305, 40.986625785], "type": "Point"}, "id": "l3XrQN-3wEHZGD8-biWTpOicRDQ=", "properties": {"@spider": "usps_collection_boxes", "addr:city": "SPEER", "addr:country": "US", "addr:full": "100 MAIN ST", "addr:postcode": "61479", "addr:state": "IL", "brand": "USPS", "collection_times": "Mo-Fr 15:30; Sa 09:00", "name": "USPS COLLECTION BOX - BLUE BOX", "note": "ON 12/24 AND 12/31, THIS BOX MAY BE COLLECTED AS EARLY AS 12 NOON.", "ref": "6147900002"}, "type": "Feature"}
{"geometry": {"coordinates": [-89.652295305, 40.986625785], "type": "Point"}, "id": "WJPPZhWI8YazxSgz7-RlwRpvLoQ=", "properties": {"@spider": "usps_collection_boxes", "addr:city": "SPEER", "addr:country": "US", "addr:full": "100 MAIN ST", "addr:postcode": "61479", "addr:state": "IL", "brand": "USPS", "collection_times": "Mo-Fr 15:30; Sa 09:00", "name": "USPS COLLECTION BOX - BLUE BOX", "note": "ON 12/24 AND 12/31, THIS BOX MAY BE COLLECTED AS EARLY AS 12 NOON.", "ref": "6147900003"}, "type": "Feature"}
{"geometry": {"coordinates": [-89.652295305, 40.986625785], "type": "Point"}, "id": "XDkMHz7YrL15bYbe76Q8eyAvgtk=", "properties": {"@spider": "usps_collection_boxes", "addr:city": "SPEER", "addr:country": "US", "addr:full": "100 MAIN ST", "addr:postcode": "61479", "addr:state": "IL", "brand": "USPS", "collection_times": "Mo-Fr 10:30; Sa 09:00", "name": "USPS COLLECTION BOX - PO LOBBY", "ref": "6147900004"}, "type": "Feature"}
{"geometry": {"coordinates": [-90.4254982, 40.3661751], "type": "Point"}, "id": "nbP6aV8i11tyO4cVSGyy-6OMbis=", "properties": {"@spider": "usps_collection_boxes", "addr:city": "TABLE GROVE", "addr:country": "US", "addr:full": "123 E SIDE SQ", "addr:postcode": "61482", "addr:state": "IL", "brand": "USPS", "collection_times": "Mo-Fr 16:00; Sa 10:30", "name": "USPS COLLECTION BOX - BLUE BOX", "note": "ON 12/24 AND 12/31, THIS BOX MAY BE COLLECTED AS EARLY AS 12 NOON.", "ref": "6148200001"}, "type": "Feature"}
{"geometry": {"coordinates": [-90.4254982, 40.3661751], "type": "Point"}, "id": "-TyYvmqctb3fMSo-kCn5jJLNogw=", "properties": {"@spider": "usps_collection_boxes", "addr:city": "TABLE GROVE", "addr:country": "US", "addr:full": "123 E SIDE SQ", "addr:postcode": "61482", "addr:state": "IL", "brand": "USPS", "collection_times": "Mo-Fr 12:30; Sa 10:30", "name": "USPS COLLECTION BOX - PO LOBBY", "note": "ON 12/24 AND 12/31, THIS BOX MAY BE COLLECTED AS EARLY AS 12 NOON.", "ref": "6148200002"}, "type": "Feature"}
{"geometry": {"coordinates": [-90.4254982, 40.3661751], "type": "Point"}, "id": "WLI7jtQ0-gIi2y7JsTaxSGh5Bnk=", "properties": {"@spider": "usps_collection_boxes", "addr:city": "TABLE GROVE", "addr:country": "US", "addr:full": "123 E SIDE SQ", "addr:postcode": "61482", "addr:state": "IL", "brand": "USPS", "collection_times": "Mo-Fr 12:30; Sa 10:30", "name": "USPS COLLECTION BOX - PO LOBBY", "note": "ON 12/24 AND 12/31, THIS BOX MAY BE COLLECTED AS EARLY AS 12 NOON.", "ref": "6148200003"}, "type": "Feature"}
{"geometry": {"coordinates": [-89.864701734, 41.094932168], "type": "Point"}, "id": "T4SD_zCb2HQcdtlOtj3oKRGNSbE=", "properties": {"@spider": "usps_collection_boxes", "addr:city": "TOULON", "addr:country": "US", "addr:full": "111 W VINE ST", "addr:postcode": "61483", "addr:state": "IL", "brand": "USPS", "collection_times": "Mo-Fr 16:00; Sa 10:30", "name": "USPS COLLECTION BOX - BLUE BOX", "note": "ON 12/24 AND 12/31, THIS BOX MAY BE COLLECTED AS EARLY AS 12 NOON.", "ref": "6148300001"}, "type": "Feature"}
{"geometry": {"coordinates": [-89.864701734, 41.094932168], "type": "Point"}, "id": "KlmSljZHJTuH1k1XB0va5Orgd7M=", "properties": {"@spider": "usps_collection_boxes", "addr:city": "TOULON", "addr:country": "US", "addr:full": "111 W VINE ST", "addr:postcode": "61483", "addr:state": "IL", "brand": "USPS", "collection_times": "Mo-Fr 16:00; Sa 10:30", "name": "USPS COLLECTION BOX - PO LOBBY", "note": "ON 12/24 AND 12/31, THIS BOX MAY BE COLLECTED AS EARLY AS 12 NOON.", "ref": "6148300003"}, "type": "Feature"}
{"geometry": {"coordinates": [-89.864701734, 41.094932168], "type": "Point"}, "id": "WLMl-Q-lPOn9IGJ3RxDeG2GOoeA=", "properties": {"@spider": "usps_collection_boxes", "addr:city": "TOULON", "addr:country": "US", "addr:full": "111 W VINE ST", "addr:postcode": "61483", "addr:state": "IL", "brand": "USPS", "collection_times": "Mo-Fr 16:00; Sa 10:30", "name": "USPS COLLECTION BOX - PO LOBBY", "note": "ON 12/24 AND 12/31, THIS BOX MAY BE COLLECTED AS EARLY AS 12 NOON.", "ref": "6148300004"}, "type": "Feature"}
{"geometry": {"coordinates": [-90.427777988, 40.296309631], "type": "Point"}, "id": "Rtc28dHGBLQ3G3XmjF8FUdRLiQ0=", "properties": {"@spider": "usps_collection_boxes", "addr:city": "VERMONT", "addr:country": "US", "addr:full": "100 W 2ND ST", "addr:postcode": "61484", "addr:state": "IL", "brand": "USPS", "collection_times": "Mo-Fr 16:00; Sa 10:00", "name": "USPS COLLECTION BOX - BLUE BOX", "note": "ON 12/24 AND 12/31, THIS BOX MAY BE COLLECTED AS EARLY AS 12 NOON.", "ref": "6148400000"}, "type": "Feature"}
{"geometry": {"coordinates": [-90.427777988, 40.296309631], "type": "Point"}, "id": "DmfrHLboeH7UdEKc8jNWpRdfmz8=", "properties": {"@spider": "usps_collection_boxes", "addr:city": "VERMONT", "addr:country": "US", "addr:full": "100 W 2ND ST", "addr:postcode": "61484", "addr:state": "IL", "brand": "USPS", "collection_times": "Mo-Fr 11:00; Sa 09:15", "name": "USPS COLLECTION BOX - PO LOBBY", "ref": "6148400001"}, "type": "Feature"}
{"geometry": {"coordinates": [-90.427777988, 40.296309631], "type": "Point"}, "id": "CYtcYgTCMkAnUXhtAbgsi3h9NaY=", "properties": {"@spider": "usps_collection_boxes", "addr:city": "VERMONT", "addr:country": "US", "addr:full": "100 W 2ND ST", "addr:postcode": "61484", "addr:state": "IL", "brand": "USPS", "collection_times": "Mo-Fr 11:00; Sa 09:15", "name": "USPS COLLECTION BOX - PO LOBBY", "ref": "6148400002"}, "type": "Feature"}
{"geometry": {"coordinates": [-90.096747, 41.033809], "type": "Point"}, "id": "zcpI5HefS9JHjEr-iSS1bXcdmGw=", "properties": {"@spider": "usps_collection_boxes", "addr:city": "VICTORIA", "addr:country": "US", "addr:full": "229 MAIN ST", "addr:postcode": "61485", "addr:state": "IL", "brand": "USPS", "collection_times": "Mo-Fr 16:00; Sa 12:30", "name": "USPS COLLECTION BOX - PO LOBBY", "note": "ON 12/24 AND 12/31, THIS BOX MAY BE COLLECTED AS EARLY AS 12 NOON.", "ref": "6148500001"}, "type": "Feature"}
{"geometry": {"coordinates": [-90.096796, 41.03378], "type": "Point"}, "id": "M2J0Rt2CzJa6DMSDDWLDA0DRL18=", "properties": {"@spider": "usps_collection_boxes", "addr:city": "VICTORIA", "addr:country": "US", "addr:full": "229 MAIN ST", "addr:postcode": "61485", "addr:state": "IL", "brand": "USPS", "collection_times": "Mo-Fr 16:00; Sa 12:30", "name": "USPS COLLECTION BOX - BLUE BOX", "note": "ON 12/24 AND 12/31, THIS BOX MAY BE COLLECTED AS EARLY AS 12 NOON.", "ref": "6148500002"}, "type": "Feature"}
{"geometry": {"coordinates": [-90.096365798, 41.033770311], "type": "Point"}, "id": "rUfAWvebVM4BfudT0VTvCsgHnjc=", "properties": {"@spider": "usps_collection_boxes", "addr:city": "VICTORIA", "addr:country": "US", "addr:full": "229 E MAIN ST", "addr:postcode": "61485", "addr:state": "IL", "brand": "USPS", "collection_times": "Mo-Fr 16:00; Sa 12:30", "name": "USPS COLLECTION BOX - PO LOBBY", "note": "ON 12/24 AND 12/31, THIS BOX MAY BE COLLECTED AS EARLY AS 12 NOON.", "ref": "6148500003"}, "type": "Feature"}
{"geometry": {"coordinates": [-90.58685657, 41.204177382], "type": "Point"}, "id": "gP_26_jdmffHmSuKKIvXzmH0HQo=", "properties": {"@spider": "usps_collection_boxes", "addr:city": "VIOLA", "addr:country": "US", "addr:full": "1508 13TH ST", "addr:postcode": "61486", "addr:state": "IL", "brand": "USPS", "collection_times": "Mo-Fr 16:00; Sa 11:00", "name": "USPS COLLECTION BOX - BLUE BOX", "note": "ON 12/24 AND 12/31, THIS BOX MAY BE COLLECTED AS EARLY AS 12 NOON.", "ref": "6148600000"}, "type": "Feature"}
{"geometry": {"coordinates": [-90.58685657, 41.204177382], "type": "Point"}, "id": "RLryPsPO8l0LmGFLwL7a3P8qCSw=", "properties": {"@spider": "usps_collection_boxes", "addr:city": "VIOLA", "addr:country": "US", "addr:full": "1508 13TH ST", "addr:postcode": "61486", "addr:state": "IL", "brand": "USPS", "collection_times": "Mo-Fr 14:15; Sa 11:00", "name": "USPS COLLECTION BOX - PO LOBBY", "note": "ON 12/24 AND 12/31, THIS BOX MAY BE COLLECTED AS EARLY AS 12 NOON.", "ref": "6148600001"}, "type": "Feature"}
{"geometry": {"coordinates": [-90.58685657, 41.204177382], "type": "Point"}, "id": "doEy-Sb1Ox2lclpQg3wgsfFDMNE=", "properties": {"@spider": "usps_collection_boxes", "addr:city": "VIOLA", "addr:country": "US", "addr:full": "1508 13TH ST", "addr:postcode": "61486", "addr:state": "IL", "brand": "USPS", "collection_times": "Mo-Fr 14:15; Sa 11:00", "name": "USPS COLLECTION BOX - PO LOBBY", "note": "ON 12/24 AND 12/31, THIS BOX MAY BE COLLECTED AS EARLY AS 12 NOON.", "ref": "6148600002"}, "type": "Feature"}
{"geometry": {"coordinates": [-90.280584913, 41.02425283], "type": "Point"}, "id": "Juhpz9OZyOctwPXiu_O8uwFE0rQ=", "properties": {"@spider": "usps_collection_boxes", "addr:city": "WATAGA", "addr:country": "US", "addr:full": "140 S MAIN ST", "addr:postcode": "61488", "addr:state": "IL", "brand": "USPS", "collection_times": "Mo-Fr 16:00; Sa 10:30", "name": "USPS COLLECTION BOX - BLUE BOX", "note": "ON 12/24 AND 12/31, THIS BOX MAY BE COLLECTED AS EARLY AS 12 NOON.", "ref": "6148800001"}, "type": "Feature"}
{"geometry": {"coordinates": [-90.280584913, 41.02425283], "type": "Point"}, "id": "6broa-FhYSeYyoJuvlT_tNUQ4eo=", "properties": {"@spider": "usps_collection_boxes", "addr:city": "WATAGA", "addr:country": "US", "addr:full": "140 S MAIN ST", "addr:postcode": "61488", "addr:state": "IL", "brand": "USPS", "collection_times": "Mo-Fr 11:00; Sa 09:00", "name": "USPS COLLECTION BOX - PO LOBBY", "ref": "6148800002"}, "type": "Feature"}
{"geometry": {"coordinates": [-90.280584913, 41.02425283], "type": "Point"}, "id": "02_GDMQOxq6eeemYgu5H0xL4ToE=", "properties": {"@spider": "usps_collection_boxes", "addr:city": "WATAGA", "addr:country": "US", "addr:full": "140 S MAIN ST", "addr:postcode": "61488", "addr:state": "IL", "brand": "USPS", "collection_times": "Mo-Fr 11:00; Sa 09:00", "name": "USPS COLLECTION BOX - PO LOBBY", "ref": "6148800003"}, "type": "Feature"}
{"geometry": {"coordinates": [-90.017728692, 40.923283268], "type": "Point"}, "id": "d2PJvBVWtsd3q_8XE4N-w5-f-yc=", "properties": {"@spider": "usps_collection_boxes", "addr:city": "WILLIAMSFIELD", "addr:country": "US", "addr:full": "107 E GALE ST", "addr:postcode": "61489", "addr:state": "IL", "brand": "USPS", "collection_times": "Mo-Fr 15:45; Sa 10:00", "name": "USPS COLLECTION BOX - BLUE BOX", "note": "ON 12/24 AND 12/31, THIS BOX MAY BE COLLECTED AS EARLY AS 12 NOON.", "ref": "6148900001"}, "type": "Feature"}
{"geometry": {"coordinates": [-90.017728692, 40.923283268], "type": "Point"}, "id": "MNrqj2xEKymwLa_RRbzgiI0aB1U=", "properties": {"@spider": "usps_collection_boxes", "addr:city": "WILLIAMSFIELD", "addr:country": "US", "addr:full": "107 E GALE ST", "addr:postcode": "61489", "addr:state": "IL", "brand": "USPS", "collection_times": "Mo-Fr 11:00; Sa 08:45", "name": "USPS COLLECTION BOX - PO LOBBY", "ref": "6148900002"}, "type": "Feature"}
{"geometry": {"coordinates": [-90.017728692, 40.923283268], "type": "Point"}, "id": "0HxNpuUL9nc7LCjNOBWD9Lj_LHQ=", "properties": {"@spider": "usps_collection_boxes", "addr:city": "WILLIAMSFIELD", "addr:country": "US", "addr:full": "107 E GALE ST", "addr:postcode": "61489", "addr:state": "IL", "brand": "USPS", "collection_times": "Mo-Fr 11:00; Sa 08:45", "name": "USPS COLLECTION BOX - PO LOBBY", "ref": "6148900003"}, "type": "Feature"}
{"geometry": {"coordinates": [-90.315011, 41.177972], "type": "Point"}, "id": "cvQEL7yhDzWt3ir3LgDhLj_k7nQ=", "properties": {"@spider": "usps_collection_boxes", "addr:city": "WOODHULL", "addr:country": "US", "addr:full": "205 E 2ND AVE", "addr:postcode": "61490", "addr:state": "IL", "brand": "USPS", "collection_times": "Mo-Fr 16:00; Sa 10:00", "name": "USPS COLLECTION BOX - BLUE BOX", "note": "ON 12/24 AND 12/31, THIS BOX MAY BE COLLECTED AS EARLY AS 12 NOON.", "ref": "6149000000"}, "type": "Feature"}
{"geometry": {"coordinates": [-90.315622, 41.178272981], "type": "Point"}, "id": "xb0LO6M0sld1k1792PZaUzAKB0s=", "properties": {"@spider": "usps_collection_boxes", "addr:city": "WOODHULL", "addr:country": "US", "addr:full": "212 N DIVISION ST", "addr:postcode": "61490", "addr:state": "IL", "brand": "USPS", "collection_times": "Mo-Fr 15:30; Sa 10:00", "name": "USPS COLLECTION BOX - PO LOBBY", "note": "ON 12/24 AND 12/31, THIS BOX MAY BE COLLECTED AS EARLY AS 12 NOON.", "ref": "6149000001"}, "type": "Feature"}
{"geometry": {"coordinates": [-90.315622, 41.178272981], "type": "Point"}, "id": "yyzwpeUvUM18w9XunfjD-SAWCHA=", "properties": {"@spider": "usps_collection_boxes", "addr:city": "WOODHULL", "addr:country": "US", "addr:full": "212 N DIVISION ST", "addr:postcode": "61490", "addr:state": "IL", "brand": "USPS", "collection_times": "Mo-Fr 15:30; Sa 10:00", "name": "USPS COLLECTION BOX - PO LOBBY", "note": "ON 12/24 AND 12/31, THIS BOX MAY BE COLLECTED AS EARLY AS 12 NOON.", "ref": "6149000002"}, "type": "Feature"}
{"geometry": {"coordinates": [-89.77301264, 41.061559292], "type": "Point"}, "id": "HReEIoJI8WlrdawTOqoKhXMEhRE=", "properties": {"@spider": "usps_collection_boxes", "addr:city": "WYOMING", "addr:country": "US", "addr:full": "101 E WILLIAMS ST", "addr:postcode": "61491", "addr:state": "IL", "brand": "USPS", "collection_times": "Mo-Fr 16:00; Sa 11:00", "name": "USPS COLLECTION BOX - BLUE BOX", "note": "ON 12/24 AND 12/31, THIS BOX MAY BE COLLECTED AS EARLY AS 12 NOON.", "ref": "6149100002"}, "type": "Feature"}
{"geometry": {"coordinates": [-89.77301264, 41.061559292], "type": "Point"}, "id": "YbXTi0YBBIUlknTKFUPyDTRhkfI=", "properties": {"@spider": "usps_collection_boxes", "addr:city": "WYOMING", "addr:country": "US", "addr:full": "101 E WILLIAMS ST", "addr:postcode": "61491", "addr:state": "IL", "brand": "USPS", "collection_times": "Mo-Fr 16:00; Sa 11:00", "name": "USPS COLLECTION BOX - PO LOBBY", "note": "ON 12/24 AND 12/31, THIS BOX MAY BE COLLECTED AS EARLY AS 12 NOON.", "ref": "6149100010"}, "type": "Feature"}
{"geometry": {"coordinates": [-89.77301264, 41.061559292], "type": "Point"}, "id": "evjwmUoh000RIYykOvsmF1BSa-E=", "properties": {"@spider": "usps_collection_boxes", "addr:city": "WYOMING", "addr:country": "US", "addr:full": "101 E WILLIAMS ST", "addr:postcode": "61491", "addr:state": "IL", "brand": "USPS", "collection_times": "Mo-Fr 16:00; Sa 11:00", "name": "USPS COLLECTION BOX - PO LOBBY", "note": "ON 12/24 AND 12/31, THIS BOX MAY BE COLLECTED AS EARLY AS 12 NOON.", "ref": "6149100011"}, "type": "Feature"}
