{"dataset_attributes": {"@spider": "usps_collection_boxes"}, "geometry": {"coordinates": [-90.36003856, 40.22686857], "type": "Point"}, "id": "rLao_3q61qVVKu7NGZ5yUgdQOWU=", "properties": {"@spider": "usps_collection_boxes", "addr:city": "ASTORIA", "addr:country": "US", "addr:full": "214 W BROADWAY", "addr:postcode": "61501", "addr:state": "IL", "amenity": "post_box", "brand": "United States Postal Service", "brand:wikidata": "Q668687", "collection_times": "Mo-Fr 16:00; Sa 10:30", "name": "USPS COLLECTION BOX - BLUE BOX", "note": "ON 12/24 AND 12/31, THIS BOX MAY BE COLLECTED AS EARLY AS 12 NOON.", "nsi_id": "unitedstatespostalservice-a77078", "operator": "United States Postal Service", "operator:short": "USPS", "operator:type": "public", "operator:wikidata": "Q668687", "ref": "6150100001"}, "type": "Feature"}
{"dataset_attributes": {"@spider": "usps_collection_boxes"}, "geometry": {"coordinates": [-90.36003856, 40.22686857], "type": "Point"}, "id": "quxxOTQ5pjRjI4gFR1U3MYoEpD8=", "properties": {"@spider": "usps_collection_boxes", "addr:city": "ASTORIA", "addr:country": "US", "addr:full": "214 W BROADWAY", "addr:postcode": "61501", "addr:state": "IL", "amenity": "post_box", "brand": "United States Postal Service", "brand:wikidata": "Q668687", "collection_times": "Mo-Fr 16:00; Sa 10:30", "name": "USPS COLLECTION BOX - PO LOBBY", "note": "ON 12/24 AND 12/31, THIS BOX MAY BE COLLECTED AS EARLY AS 12 NOON.", "nsi_id": "unitedstatespostalservice-a77078", "operator": "United States Postal Service", "operator:short": "USPS", "operator:type": "public", "operator:wikidata": "Q668687", "ref": "6150100003"}, "type": "Feature"}
{"dataset_attributes": {"@spider": "usps_collection_boxes"}, "geometry": {"coordinates": [-90.36003856, 40.22686857], "type": "Point"}, "id": "9m1yXFRQGPa9FOzp-T8jow-aUYA=", "properties": {"@spider": "usps_collection_boxes", "addr:city": "ASTORIA", "addr:country": "US", "addr:full": "214 W BROADWAY", "addr:postcode": "61501", "addr:state": "IL", "amenity": "post_box", "brand": "United States Postal Service", "brand:wikidata": "Q668687", "collection_times": "Mo-Fr 16:00; Sa 10:30", "name": "USPS COLLECTION BOX - PO LOBBY", "note": "ON 12/24 AND 12/31, THIS BOX MAY BE COLLECTED AS EARLY AS 12 NOON.", "nsi_id": "unitedstatespostalservice-a77078", "operator": "United States Postal Service", "operator:short": "USPS", "operator:type": "public", "operator:wikidata": "Q668687", "ref": "6150100004"}, "type": "Feature"}
{"dataset_attributes": {"@spider": "usps_collection_boxes"}, "geometry": {"coordinates": [-89.884587795, 40.839543503], "type": "Point"}, "id": "HqtRHcBJegO9uMm0uBvi2OsGqFs=", "properties": {"@spider": "usps_collection_boxes", "addr:city": "BRIMFIELD", "addr:country": "US", "addr:full": "123 N GALENA AVE", "addr:postcode": "61517", "addr:state": "IL", "amenity": "post_box", "brand": "United States Postal Service", "brand:wikidata": "Q668687", "collection_times": "Mo-Fr 16:30; Sa 10:30", "name": "USPS COLLECTION BOX - BLUE BOX", "note": "ON 12/24 AND 12/31, THIS BOX MAY BE COLLECTED AS EARLY AS 12 NOON.", "nsi_id": "unitedstatespostalservice-a77078", "operator": "United States Postal Service", "operator:short": "USPS", "operator:type": "public", "operator:wikidata": "Q668687", "ref": "6151700000"}, "type": "Feature"}
{"dataset_attributes": {"@spider": "usps_collection_boxes"}, "geometry": {"coordinates": [-89.884587795, 40.839543503], "type": "Point"}, "id": "CphZZ_0rXoaVY-rFrWmIDCKbWJQ=", "properties": {"@spider": "usps_collection_boxes", "addr:city": "BRIMFIELD", "addr:country": "US", "addr:full": "123 N GALENA AVE", "addr:postcode": "61517", "addr:state": "IL", "amenity": "post_box", "brand": "United States Postal Service", "brand:wikidata": "Q668687", "collection_times": "Mo-Fr 16:30; Sa 10:30", "name": "USPS COLLECTION BOX - PO LOBBY", "note": "ON 12/24 AND 12/31, THIS BOX MAY BE COLLECTED AS EARLY AS 12 NOON.", "nsi_id": "unitedstatespostalservice-a77078", "operator": "United States Postal Service", "operator:short": "USPS", "operator:type": "public", "operator:wikidata": "Q668687", "ref": "6151700001"}, "type": "Feature"}
{"dataset_attributes": {"@spider": "usps_collection_boxes"}, "geometry": {"coordinates": [-89.884587795, 40.839543503], "type": "Point"}, "id": "5XlQGA_hl9nVPElNh27spCF8JT0=", "properties": {"@spider": "usps_collection_boxes", "addr:city": "BRIMFIELD", "addr:country": "US", "addr:full": "123 N GALENA AVE", "addr:postcode": "61517", "addr:state": "IL", "amenity": "post_box", "brand": "United States Postal Service", "brand:wikidata": "Q668687", "collection_times": "Mo-Fr 16:30; Sa 10:30", "name": "USPS COLLECTION BOX - PO LOBBY", "note": "ON 12/24 AND 12/31, THIS BOX MAY BE COLLECTED AS EARLY AS 12 NOON.", "nsi_id": "unitedstatespostalservice-a77078", "operator": "United States Postal Service", "operator:short": "USPS", "operator:type": "public", "operator:wikidata": "Q668687", "ref": "6151700003"}, "type": "Feature"}
{"dataset_attributes": {"@spider": "usps_collection_boxes"}, "geometry": {"coordinates": [-90.098035466, 40.466082639], "type": "Point"}, "id": "dtorUKG6EkqxMfB0cQyoPK8vMaU=", "properties": {"@spider": "usps_collection_boxes", "addr:city": "BRYANT", "addr:country": "US", "addr:full": "103 E MAIN ST", "addr:postcode": "61519", "addr:state": "IL", "amenity": "post_box", "brand": "United States Postal Service", "brand:wikidata": "Q668687", "collection_times": "Mo-Fr 16:00; Sa 10:00", "name": "USPS COLLECTION BOX - BLUE BOX", "note": "ON 12/24 AND 12/31, THIS BOX MAY BE COLLECTED AS EARLY AS 12 NOON.", "nsi_id": "unitedstatespostalservice-a77078", "operator": "United States Postal Service", "operator:short": "USPS", "operator:type": "public", "operator:wikidata": "Q668687", "ref": "6151900000"}, "type": "Feature"}
{"dataset_attributes": {"@spider": "usps_collection_boxes"}, "geometry": {"coordinates": [-90.098035466, 40.466082639], "type": "Point"}, "id": "HABnQLP1Jaaucf1PUIE5NEv9MWI=", "properties": {"@spider": "usps_collection_boxes", "addr:city": "BRYANT", "addr:country": "US", "addr:full": "103 E MAIN ST", "addr:postcode": "61519", "addr:state": "IL", "amenity": "post_box", "brand": "United States Postal Service", "brand:wikidata": "Q668687", "collection_times": "Mo-Fr 10:00; Sa 09:45", "name": "USPS COLLECTION BOX - PO LOBBY", "nsi_id": "unitedstatespostalservice-a77078", "operator": "United States Postal Service", "operator:short": "USPS", "operator:type": "public", "operator:wikidata": "Q668687", "ref": "6151900001"}, "type": "Feature"}
{"dataset_attributes": {"@spider": "usps_collection_boxes"}, "geometry": {"coordinates": [-90.098035466, 40.466082639], "type": "Point"}, "id": "3Vbowr2yDFktyvo_3w7u4-mYS9E=", "properties": {"@spider": "usps_collection_boxes", "addr:city": "BRYANT", "addr:country": "US", "addr:full": "103 E MAIN ST", "addr:postcode": "61519", "addr:state": "IL", "amenity": "post_box", "brand": "United States Postal Service", "brand:wikidata": "Q668687", "collection_times": "Mo-Sa 10:00", "name": "USPS COLLECTION BOX - PO LOBBY", "nsi_id": "unitedstatespostalservice-a77078", "operator": "United States Postal Service", "operator:short": "USPS", "operator:type": "public", "operator:wikidata": "Q668687", "ref": "6151900002"}, "type": "Feature"}
{"dataset_attributes": {"@spider": "usps_collection_boxes"}, "geometry": {"coordinates": [-90.036112208, 40.555685391], "type": "Point"}, "id": "7TXxvDPz8iiFjPn1JvyCmqWjqYo=", "properties": {"@spider": "usps_collection_boxes", "addr:city": "CANTON", "addr:country": "US", "addr:full": "60 W ELM ST", "addr:postcode": "61520", "addr:state": "IL", "amenity": "post_box", "brand": "United States Postal Service", "brand:wikidata": "Q668687", "collection_times": "Mo-Fr 17:00; Sa 16:00", "name": "USPS COLLECTION BOX - BLUE BOX", "note": "ON 12/24 AND 12/31, THIS BOX MAY BE COLLECTED AS EARLY AS 12 NOON.", "nsi_id": "unitedstatespostalservice-a77078", "operator": "United States Postal Service", "operator:short": "USPS", "operator:type": "public", "operator:wikidata": "Q668687", "ref": "6152000004"}, "type": "Feature"}
{"dataset_attributes": {"@spider": "usps_collection_boxes"}, "geometry": {"coordinates": [-90.036112208, 40.555685391], "type": "Point"}, "id": "rbASPaoz7tkn2XWTiOE8NoYwqpA=", "properties": {"@spider": "usps_collection_boxes", "addr:city": "CANTON", "addr:country": "US", "addr:full": "60 W ELM ST", "addr:postcode": "61520", "addr:state": "IL", "amenity": "post_box", "brand": "United States Postal Service", "brand:wikidata": "Q668687", "collection_times": "Mo-Fr 17:00; Sa 16:00", "name": "USPS COLLECTION BOX - PO LOBBY", "note": "ON 12/24 AND 12/31, THIS BOX MAY BE COLLECTED AS EARLY AS 12 NOON.", "nsi_id": "unitedstatespostalservice-a77078", "operator": "United States Postal Service", "operator:short": "USPS", "operator:type": "public", "operator:wikidata": "Q668687", "ref": "6152000008"}, "type": "Feature"}
{"dataset_attributes": {"@spider": "usps_collection_boxes"}, "geometry": {"coordinates": [-90.027493336, 40.555542905], "type": "Point"}, "id": "RdB9Ell9aNBrIzfGvQ745E34qTM=", "properties": {"@spider": "usps_collection_boxes", "addr:city": "CANTON", "addr:country": "US", "addr:full": "20 S 5TH AVE", "addr:postcode": "61520", "addr:state": "IL", "amenity": "post_box", "brand": "United States Postal Service", "brand:wikidata": "Q668687", "collection_times": "Mo-Sa 10:00", "name": "USPS COLLECTION BOX - BLUE BOX", "nsi_id": "unitedstatespostalservice-a77078", "operator": "United States Postal Service", "operator:short": "USPS", "operator:type": "public", "operator:wikidata": "Q668687", "ref": "6152000009"}, "type": "Feature"}
{"dataset_attributes": {"@spider": "usps_collection_boxes"}, "geometry": {"coordinates": [-90.0056640292, 40.5575439802], "type": "Point"}, "id": "eCcMq1jWozUE4LSKbR-YdrLFCVY=", "properties": {"@spider": "usps_collection_boxes", "addr:city": "CANTON", "addr:country": "US", "addr:full": "1741 E CHESTNUT ST", "addr:postcode": "61520", "addr:state": "IL", "amenity": "post_box", "brand": "United States Postal Service", "brand:wikidata": "Q668687", "collection_times": "Mo-Sa 11:00", "name": "USPS COLLECTION BOX - BLUE BOX", "nsi_id": "unitedstatespostalservice-a77078", "operator": "United States Postal Service", "operator:short": "USPS", "operator:type": "public", "operator:wikidata": "Q668687", "ref": "6152000013"}, "type": "Feature"}
{"dataset_attributes": {"@spider": "usps_collection_boxes"}, "geometry": {"coordinates": [-90.0342874, 40.56715], "type": "Point"}, "id": "n8Lb2PHXKuoI-dbah09k7RThsYw=", "properties": {"@spider": "usps_collection_boxes", "addr:city": "CANTON", "addr:country": "US", "addr:full": "825 N MAIN ST", "addr:postcode": "61520", "addr:state": "IL", "amenity": "post_box", "brand": "United States Postal Service", "brand:wikidata": "Q668687", "collection_times": "Mo-Sa 10:00", "name": "USPS COLLECTION BOX - BLUE BOX", "nsi_id": "unitedstatespostalservice-a77078", "operator": "United States Postal Service", "operator:short": "USPS", "operator:type": "public", "operator:wikidata": "Q668687", "ref": "6152000016"}, "type": "Feature"}
{"dataset_attributes": {"@spider": "usps_collection_boxes"}, "geometry": {"coordinates": [-90.036112208, 40.555685391], "type": "Point"}, "id": "41e-Vg_DFaTtrilrCDwB9VI2OZM=", "properties": {"@spider": "usps_collection_boxes", "addr:city": "CANTON", "addr:country": "US", "addr:full": "60 W ELM ST", "addr:postcode": "61520", "addr:state": "IL", "amenity": "post_box", "brand": "United States Postal Service", "brand:wikidata": "Q668687", "collection_times": "Mo-Fr 17:00; Sa 12:30", "name": "USPS COLLECTION BOX - PO LOBBY", "note": "ON 12/24 AND 12/31, THIS BOX MAY BE COLLECTED AS EARLY AS 12 NOON.", "nsi_id": "unitedstatespostalservice-a77078", "operator": "United States Postal Service", "operator:short": "USPS", "operator:type": "public", "operator:wikidata": "Q668687", "ref": "6152000024"}, "type": "Feature"}
{"dataset_attributes": {"@spider": "usps_collection_boxes"}, "geometry": {"coordinates": [-90.032145702, 40.489854131], "type": "Point"}, "id": "PDxDyo9VRO05-tX1SIyOOa_nHoU=", "properties": {"@spider": "usps_collection_boxes", "addr:city": "DUNFERMLINE", "addr:country": "US", "addr:full": "316 CENTER ST", "addr:postcode": "61524", "addr:state": "IL", "amenity": "post_box", "brand": "United States Postal Service", "brand:wikidata": "Q668687", "collection_times": "Mo-Fr 16:00; Sa 09:00", "name": "USPS COLLECTION BOX - BLUE BOX", "note": "ON 12/24 AND 12/31, THIS BOX MAY BE COLLECTED AS EARLY AS 12 NOON.", "nsi_id": "unitedstatespostalservice-a77078", "operator": "United States Postal Service", "operator:short": "USPS", "operator:type": "public", "operator:wikidata": "Q668687", "ref": "6152400000"}, "type": "Feature"}
{"dataset_attributes": {"@spider": "usps_collection_boxes"}, "geometry": {"coordinates": [-90.032145702, 40.489854131], "type": "Point"}, "id": "NybDXtJQDkFbAx9FTnaU3yOpQVA=", "properties": {"@spider": "usps_collection_boxes", "addr:city": "DUNFERMLINE", "addr:country": "US", "addr:full": "316 CENTER ST", "addr:postcode": "61524", "addr:state": "IL", "amenity": "post_box", "brand": "United States Postal Service", "brand:wikidata": "Q668687", "collection_times": "Mo-Fr 10:00; Sa 08:30", "name": "USPS COLLECTION BOX - PO LOBBY", "nsi_id": "unitedstatespostalservice-a77078", "operator": "United States Postal Service", "operator:short": "USPS", "operator:type": "public", "operator:wikidata": "Q668687", "ref": "6152400001"}, "type": "Feature"}
{"dataset_attributes": {"@spider": "usps_collection_boxes"}, "geometry": {"coordinates": [-90.032145702, 40.489854131], "type": "Point"}, "id": "9IzDfJ8lFNz0nsFCAVYVNTJ0dwo=", "properties": {"@spider": "usps_collection_boxes", "addr:city": "DUNFERMLINE", "addr:country": "US", "addr:full": "316 CENTER ST", "addr:postcode": "61524", "addr:state": "IL", "amenity": "post_box", "brand": "United States Postal Service", "brand:wikidata": "Q668687", "collection_times": "Mo-Fr 10:00; Sa 08:30", "name": "USPS COLLECTION BOX - PO LOBBY", "nsi_id": "unitedstatespostalservice-a77078", "operator": "United States Postal Service", "operator:short": "USPS", "operator:type": "public", "operator:wikidata": "Q668687", "ref": "6152400002"}, "type": "Feature"}
{"dataset_attributes": {"@spider": "usps_collection_boxes"}, "geometry": {"coordinates": [-89.966409984, 40.7784489965], "type": "Point"}, "id": "j72X4OSS9ilgCo01InmzQ_C-jnE=", "properties": {"@spider": "usps_collection_boxes", "addr:city": "ELMWOOD", "addr:country": "US", "addr:full": "114 N MAGNOLIA ST", "addr:postcode": "61529", "addr:state": "IL", "amenity": "post_box", "brand": "United States Postal Service", "brand:wikidata": "Q668687", "collection_times": "Mo-Fr 16:30; Sa 10:30", "name": "USPS COLLECTION BOX - BLUE BOX", "note": "ON 12/24 AND 12/31, THIS BOX MAY BE COLLECTED AS EARLY AS 12 NOON.", "nsi_id": "unitedstatespostalservice-a77078", "operator": "United States Postal Service", "operator:short": "USPS", "operator:type": "public", "operator:wikidata": "Q668687", "ref": "6152900001"}, "type": "Feature"}
{"dataset_attributes": {"@spider": "usps_collection_boxes"}, "geometry": {"coordinates": [-89.966409984, 40.7784489965], "type": "Point"}, "id": "pUUcGnllUOA25s0ntHvs-qCTrLY=", "properties": {"@spider": "usps_collection_boxes", "addr:city": "ELMWOOD", "addr:country": "US", "addr:full": "114 N MAGNOLIA ST", "addr:postcode": "61529", "addr:state": "IL", "amenity": "post_box", "brand": "United States Postal Service", "brand:wikidata": "Q668687", "collection_times": "Mo-Fr 16:30; Sa 10:30", "name": "USPS COLLECTION BOX - PO LOBBY", "note": "ON 12/24 AND 12/31, THIS BOX MAY BE COLLECTED AS EARLY AS 12 NOON.", "nsi_id": "unitedstatespostalservice-a77078", "operator": "United States Postal Service", "operator:short": "USPS", "operator:type": "public", "operator:wikidata": "Q668687", "ref": "6152900003"}, "type": "Feature"}
{"dataset_attributes": {"@spider": "usps_collection_boxes"}, "geometry": {"coordinates": [-89.966409984, 40.7784489965], "type": "Point"}, "id": "xEkdNomYSM40iloBTKfKANXjcTM=", "properties": {"@spider": "usps_collection_boxes", "addr:city": "ELMWOOD", "addr:country": "US", "addr:full": "114 N MAGNOLIA ST", "addr:postcode": "61529", "addr:state": "IL", "amenity": "post_box", "brand": "United States Postal Service", "brand:wikidata": "Q668687", "collection_times": "Mo-Fr 16:30; Sa 10:00", "name": "USPS COLLECTION BOX - PO LOBBY", "note": "ON 12/24 AND 12/31, THIS BOX MAY BE COLLECTED AS EARLY AS 12 NOON.", "nsi_id": "unitedstatespostalservice-a77078", "operator": "United States Postal Service", "operator:short": "USPS", "operator:type": "public", "operator:wikidata": "Q668687", "ref": "6152900004"}, "type": "Feature"}
{"dataset_attributes": {"@spider": "usps_collection_boxes"}, "geometry": {"coordinates": [-90.006578, 40.698256], "type": "Point"}, "id": "esfmXDk0lvXp2zDckt_sE3_DCaM=", "properties": {"@spider": "usps_collection_boxes", "addr:city": "FARMINGTON", "addr:country": "US", "addr:full": "67 W FORT ST", "addr:postcode": "61531", "addr:state": "IL", "amenity": "post_box", "brand": "United States Postal Service", "brand:wikidata": "Q668687", "collection_times": "Mo-Fr 16:30; Sa 15:00", "name": "USPS COLLECTION BOX - BLUE BOX", "note": "ON 12/24 AND 12/31, THIS BOX MAY BE COLLECTED AS EARLY AS 12 NOON.", "nsi_id": "unitedstatespostalservice-a77078", "operator": "United States Postal Service", "operator:short": "USPS", "operator:type": "public", "operator:wikidata": "Q668687", "ref": "6153100001"}, "type": "Feature"}
{"dataset_attributes": {"@spider": "usps_collection_boxes"}, "geometry": {"coordinates": [-90.00599897, 40.6985290166], "type": "Point"}, "id": "IKJXnVGiv9HsiCWecvtHrzwZrlo=", "properties": {"@spider": "usps_collection_boxes", "addr:city": "FARMINGTON", "addr:country": "US", "addr:full": "16 N MAIN ST", "addr:postcode": "61531", "addr:state": "IL", "amenity": "post_box", "brand": "United States Postal Service", "brand:wikidata": "Q668687", "collection_times": "Mo-Fr 16:00; Sa 15:00", "name": "USPS COLLECTION BOX - BLUE BOX", "note": "ON 12/24 AND 12/31, THIS BOX MAY BE COLLECTED AS EARLY AS 12 NOON.", "nsi_id": "unitedstatespostalservice-a77078", "operator": "United States Postal Service", "operator:short": "USPS", "operator:type": "public", "operator:wikidata": "Q668687", "ref": "6153100005"}, "type": "Feature"}
{"dataset_attributes": {"@spider": "usps_collection_boxes"}, "geometry": {"coordinates": [-90.006618, 40.698228], "type": "Point"}, "id": "8vn5kjPUwyTwiOHhCGITQ17t5es=", "properties": {"@spider": "usps_collection_boxes", "addr:city": "FARMINGTON", "addr:country": "US", "addr:full": "67 W FORT ST", "addr:postcode": "61531", "addr:state": "IL", "amenity": "post_box", "brand": "United States Postal Service", "brand:wikidata": "Q668687", "collection_times": "Mo-Fr 16:30; Sa 15:00", "name": "USPS COLLECTION BOX - PO LOBBY", "note": "ON 12/24 AND 12/31, THIS BOX MAY BE COLLECTED AS EARLY AS 12 NOON.", "nsi_id": "unitedstatespostalservice-a77078", "operator": "United States Postal Service", "operator:short": "USPS", "operator:type": "public", "operator:wikidata": "Q668687", "ref": "6153100008"}, "type": "Feature"}
{"dataset_attributes": {"@spider": "usps_collection_boxes"}, "geometry": {"coordinates": [-90.004946131, 40.698291705], "type": "Point"}, "id": "wljURNAgrvfP2E0y70r-nCikYYU=", "properties": {"@spider": "usps_collection_boxes", "addr:city": "FARMINGTON", "addr:country": "US", "addr:full": "67 E FORT ST", "addr:postcode": "61531", "addr:state": "IL", "amenity": "post_box", "brand": "United States Postal Service", "brand:wikidata": "Q668687", "collection_times": "Mo-Fr 16:30; Sa 15:00", "name": "USPS COLLECTION BOX - PO LOBBY", "note": "ON 12/24 AND 12/31, THIS BOX MAY BE COLLECTED AS EARLY AS 12 NOON.", "nsi_id": "unitedstatespostalservice-a77078", "operator": "United States Postal Service", "operator:short": "USPS", "operator:type": "public", "operator:wikidata": "Q668687", "ref": "6153100009"}, "type": "Feature"}
{"dataset_attributes": {"@spider": "usps_collection_boxes"}, "geometry": {"coordinates": [-89.829366584, 40.369498993], "type": "Point"}, "id": "zbZR6DdI1DhvTI-Pn3ULwcfKl88=", "properties": {"@spider": "usps_collection_boxes", "addr:city": "FOREST CITY", "addr:country": "US", "addr:full": "101 N MAIN ST", "addr:postcode": "61532", "addr:state": "IL", "amenity": "post_box", "brand": "United States Postal Service", "brand:wikidata": "Q668687", "collection_times": "Mo-Fr 11:00; Sa 10:00", "name": "USPS COLLECTION BOX - BLUE BOX", "nsi_id": "unitedstatespostalservice-a77078", "operator": "United States Postal Service", "operator:short": "USPS", "operator:type": "public", "operator:wikidata": "Q668687", "ref": "6153200000"}, "type": "Feature"}
{"dataset_attributes": {"@spider": "usps_collection_boxes"}, "geometry": {"coordinates": [-89.829366584, 40.369498993], "type": "Point"}, "id": "flEhY-lsf45lXGo5BmfI0TQtVoM=", "properties": {"@spider": "usps_collection_boxes", "addr:city": "FOREST CITY", "addr:country": "US", "addr:full": "101 N MAIN ST", "addr:postcode": "61532", "addr:state": "IL", "amenity": "post_box", "brand": "United States Postal Service", "brand:wikidata": "Q668687", "collection_times": "Mo-Fr 11:00; Sa 10:15", "name": "USPS COLLECTION BOX - PO LOBBY", "nsi_id": "unitedstatespostalservice-a77078", "operator": "United States Postal Service", "operator:short": "USPS", "operator:type": "public", "operator:wikidata": "Q668687", "ref": "6153200001"}, "type": "Feature"}
{"dataset_attributes": {"@spider": "usps_collection_boxes"}, "geometry": {"coordinates": [-89.829366584, 40.369498993], "type": "Point"}, "id": "RtlZPcbYzVDDy7jkkJZy5-3vDaw=", "properties": {"@spider": "usps_collection_boxes", "addr:city": "FOREST CITY", "addr:country": "US", "addr:full": "101 N MAIN ST", "addr:postcode": "61532", "addr:state": "IL", "amenity": "post_box", "brand": "United States Postal Service", "brand:wikidata": "Q668687", "collection_times": "Mo-Fr 11:00; Sa 10:00", "name": "USPS COLLECTION BOX - PO LOBBY", "nsi_id": "unitedstatespostalservice-a77078", "operator": "United States Postal Service", "operator:short": "USPS", "operator:type": "public", "operator:wikidata": "Q668687", "ref": "6153200002"}, "type": "Feature"}
{"dataset_attributes": {"@spider": "usps_collection_boxes"}, "geometry": {"coordinates": [-89.643932329, 40.407285519], "type": "Point"}, "id": "PRBi27bmL9uVY5A6IoVeUAlL1fs=", "properties": {"@spider": "usps_collection_boxes", "addr:city": "GREEN VALLEY", "addr:country": "US", "addr:full": "105 W MAIN ST", "addr:postcode": "61534", "addr:state": "IL", "amenity": "post_box", "brand": "United States Postal Service", "brand:wikidata": "Q668687", "collection_times": "Mo-Fr 15:00; Sa 09:45", "name": "USPS COLLECTION BOX - BLUE BOX", "note": "ON 12/24 AND 12/31, THIS BOX MAY BE COLLECTED AS EARLY AS 12 NOON.", "nsi_id": "unitedstatespostalservice-a77078", "operator": "United States Postal Service", "operator:short": "USPS", "operator:type": "public", "operator:wikidata": "Q668687", "ref": "6153400001"}, "type": "Feature"}
{"dataset_attributes": {"@spider": "usps_collection_boxes"}, "geometry": {"coordinates": [-89.643932329, 40.407285519], "type": "Point"}, "id": "gMd-aUF1sp1wF5qeHes2Bs_Oj00=", "properties": {"@spider": "usps_collection_boxes", "addr:city": "GREEN VALLEY", "addr:country": "US", "addr:full": "105 W MAIN ST", "addr:postcode": "61534", "addr:state": "IL", "amenity": "post_box", "brand": "United States Postal Service", "brand:wikidata": "Q668687", "collection_times": "Mo-Fr 15:00; Sa 09:45", "name": "USPS COLLECTION BOX - PO LOBBY", "note": "ON 12/24 AND 12/31, THIS BOX MAY BE COLLECTED AS EARLY AS 12 NOON.", "nsi_id": "unitedstatespostalservice-a77078", "operator": "United States Postal Service", "operator:short": "USPS", "operator:type": "public", "operator:wikidata": "Q668687", "ref": "6153400002"}, "type": "Feature"}
{"dataset_attributes": {"@spider": "usps_collection_boxes"}, "geometry": {"coordinates": [-89.643932329, 40.407285519], "type": "Point"}, "id": "H0GM6ToATR85O3GvL4pclDY6Cv4=", "properties": {"@spider": "usps_collection_boxes", "addr:city": "GREEN VALLEY", "addr:country": "US", "addr:full": "105 W MAIN ST", "addr:postcode": "61534", "addr:state": "IL", "amenity": "post_box", "brand": "United States Postal Service", "brand:wikidata": "Q668687", "collection_times": "Mo-Fr 15:00; Sa 09:45", "name": "USPS COLLECTION BOX - PO LOBBY", "note": "ON 12/24 AND 12/31, THIS BOX MAY BE COLLECTED AS EARLY AS 12 NOON.", "nsi_id": "unitedstatespostalservice-a77078", "operator": "United States Postal Service", "operator:short": "USPS", "operator:type": "public", "operator:wikidata": "Q668687", "ref": "6153400003"}, "type": "Feature"}
{"dataset_attributes": {"@spider": "usps_collection_boxes"}, "geometry": {"coordinates": [-89.77514821, 40.557483], "type": "Point"}, "id": "eYHAPJIbcSJS3eJa6FKNG9yNMtc=", "properties": {"@spider": "usps_collection_boxes", "addr:city": "KINGSTON MINES", "addr:country": "US", "addr:full": "209 WASHINGTON ST", "addr:postcode": "61539", "addr:state": "IL", "amenity": "post_box", "brand": "United States Postal Service", "brand:wikidata": "Q668687", "collection_times": "Mo-Fr 16:00; Sa 09:00", "name": "USPS COLLECTION BOX - BLUE BOX", "note": "ON 12/24 AND 12/31, THIS BOX MAY BE COLLECTED AS EARLY AS 12 NOON.", "nsi_id": "unitedstatespostalservice-a77078", "operator": "United States Postal Service", "operator:short": "USPS", "operator:type": "public", "operator:wikidata": "Q668687", "ref": "6153900000"}, "type": "Feature"}
{"dataset_attributes": {"@spider": "usps_collection_boxes"}, "geometry": {"coordinates": [-89.77514821, 40.557483], "type": "Point"}, "id": "0faer3bWMjYugBEZyU6Gns4LC4Q=", "properties": {"@spider": "usps_collection_boxes", "addr:city": "KINGSTON MINES", "addr:country": "US", "addr:full": "209 WASHINGTON ST", "addr:postcode": "61539", "addr:state": "IL", "amenity": "post_box", "brand": "United States Postal Service", "brand:wikidata": "Q668687", "collection_times": "Mo-Fr 15:00; Sa 09:45", "name": "USPS COLLECTION BOX - PO LOBBY", "note": "ON 12/24 AND 12/31, THIS BOX MAY BE COLLECTED AS EARLY AS 12 NOON.", "nsi_id": "unitedstatespostalservice-a77078", "operator": "United States Postal Service", "operator:short": "USPS", "operator:type": "public", "operator:wikidata": "Q668687", "ref": "6153900002"}, "type": "Feature"}
{"dataset_attributes": {"@spider": "usps_collection_boxes"}, "geometry": {"coordinates": [-90.155133045, 40.397995772], "type": "Point"}, "id": "ody9mMvM1UsQxc4YYKf63AORfr4=", "properties": {"@spider": "usps_collection_boxes", "addr:city": "LEWISTOWN", "addr:country": "US", "addr:full": "301 N MAIN ST", "addr:postcode": "61542", "addr:state": "IL", "amenity": "post_box", "brand": "United States Postal Service", "brand:wikidata": "Q668687", "collection_times": "Mo-Fr 16:30; Sa 11:30", "name": "USPS COLLECTION BOX - PO LOBBY", "note": "ON 12/24 AND 12/31, THIS BOX MAY BE COLLECTED AS EARLY AS 12 NOON.", "nsi_id": "unitedstatespostalservice-a77078", "operator": "United States Postal Service", "operator:short": "USPS", "operator:type": "public", "operator:wikidata": "Q668687", "ref": "6154200002"}, "type": "Feature"}
{"dataset_attributes": {"@spider": "usps_collection_boxes"}, "geometry": {"coordinates": [-90.1551314649, 40.3979955823], "type": "Point"}, "id": "dhUgJt23vCJxMTvzm5oBY_lMLZo=", "properties": {"@spider": "usps_collection_boxes", "addr:city": "LEWISTOWN", "addr:country": "US", "addr:full": "301 N MAIN ST", "addr:postcode": "61542", "addr:state": "IL", "amenity": "post_box", "brand": "United States Postal Service", "brand:wikidata": "Q668687", "collection_times": "Mo-Fr 16:30; Sa 11:30", "name": "USPS COLLECTION BOX - BLUE BOX", "note": "ON 12/24 AND 12/31, THIS BOX MAY BE COLLECTED AS EARLY AS 12 NOON.", "nsi_id": "unitedstatespostalservice-a77078", "operator": "United States Postal Service", "operator:short": "USPS", "operator:type": "public", "operator:wikidata": "Q668687", "ref": "6154200005"}, "type": "Feature"}
{"dataset_attributes": {"@spider": "usps_collection_boxes"}, "geometry": {"coordinates": [-90.156123, 40.396691], "type": "Point"}, "id": "FFFip38UDgfrdj2qkJVzzLrsMoA=", "properties": {"@spider": "usps_collection_boxes", "addr:city": "LEWISTOWN", "addr:country": "US", "addr:full": "100 N ADAMS ST", "addr:postcode": "61542", "addr:state": "IL", "amenity": "post_box", "brand": "United States Postal Service", "brand:wikidata": "Q668687", "collection_times": "Mo-Fr 15:15; Sa 11:30", "name": "USPS COLLECTION BOX - BLUE BOX", "note": "ON 12/24 AND 12/31, THIS BOX MAY BE COLLECTED AS EARLY AS 12 NOON.", "nsi_id": "unitedstatespostalservice-a77078", "operator": "United States Postal Service", "operator:short": "USPS", "operator:type": "public", "operator:wikidata": "Q668687", "ref": "6154200007"}, "type": "Feature"}
{"dataset_attributes": {"@spider": "usps_collection_boxes"}, "geometry": {"coordinates": [-90.155133045, 40.397995772], "type": "Point"}, "id": "2JAuw1BDMpYcGahmgORoi8sKW6Y=", "properties": {"@spider": "usps_collection_boxes", "addr:city": "LEWISTOWN", "addr:country": "US", "addr:full": "301 N MAIN ST", "addr:postcode": "61542", "addr:state": "IL", "amenity": "post_box", "brand": "United States Postal Service", "brand:wikidata": "Q668687", "collection_times": "Mo-Fr 16:30; Sa 11:30", "name": "USPS COLLECTION BOX - BLUE BOX", "note": "ON 12/24 AND 12/31, THIS BOX MAY BE COLLECTED AS EARLY AS 12 NOON.", "nsi_id": "unitedstatespostalservice-a77078", "operator": "United States Postal Service", "operator:short": "USPS", "operator:type": "public", "operator:wikidata": "Q668687", "ref": "6154200008"}, "type": "Feature"}
{"dataset_attributes": {"@spider": "usps_collection_boxes"}, "geometry": {"coordinates": [-90.155133045, 40.397995772], "type": "Point"}, "id": "ozsFz2Nx1fbUK5_kyi9T3M7-nrQ=", "properties": {"@spider": "usps_collection_boxes", "addr:city": "LEWISTOWN", "addr:country": "US", "addr:full": "301 N MAIN ST", "addr:postcode": "61542", "addr:state": "IL", "amenity": "post_box", "brand": "United States Postal Service", "brand:wikidata": "Q668687", "collection_times": "Mo-Fr 16:30; Sa 11:30", "name": "USPS COLLECTION BOX - PO LOBBY", "note": "ON 12/24 AND 12/31, THIS BOX MAY BE COLLECTED AS EARLY AS 12 NOON.", "nsi_id": "unitedstatespostalservice-a77078", "operator": "United States Postal Service", "operator:short": "USPS", "operator:type": "public", "operator:wikidata": "Q668687", "ref": "6154200009"}, "type": "Feature"}
{"dataset_attributes": {"@spider": "usps_collection_boxes"}, "geometry": {"coordinates": [-90.00160444, 40.390187005], "type": "Point"}, "id": "vp66yT046LMfsnQukkOHGM-BWlQ=", "properties": {"@spider": "usps_collection_boxes", "addr:city": "LIVERPOOL", "addr:country": "US", "addr:full": "145 W CHESTNUT ST", "addr:postcode": "61543", "addr:state": "IL", "amenity": "post_box", "brand": "United States Postal Service", "brand:wikidata": "Q668687", "collection_times": "Mo-Sa 10:45", "name": "USPS COLLECTION BOX - BLUE BOX", "nsi_id": "unitedstatespostalservice-a77078", "operator": "United States Postal Service", "operator:short": "USPS", "operator:type": "public", "operator:wikidata": "Q668687", "ref": "6154300000"}, "type": "Feature"}
{"dataset_attributes": {"@spider": "usps_collection_boxes"}, "geometry": {"coordinates": [-90.00160444, 40.390187005], "type": "Point"}, "id": "VEMq0pTP_81lF7CU3UR761oD_Pk=", "properties": {"@spider": "usps_collection_boxes", "addr:city": "LIVERPOOL", "addr:country": "US", "addr:full": "145 W CHESTNUT ST", "addr:postcode": "61543", "addr:state": "IL", "amenity": "post_box", "brand": "United States Postal Service", "brand:wikidata": "Q668687", "collection_times": "Mo-Sa 10:45", "name": "USPS COLLECTION BOX - PO LOBBY", "nsi_id": "unitedstatespostalservice-a77078", "operator": "United States Postal Service", "operator:short": "USPS", "operator:type": "public", "operator:wikidata": "Q668687", "ref": "6154300001"}, "type": "Feature"}
{"dataset_attributes": {"@spider": "usps_collection_boxes"}, "geometry": {"coordinates": [-90.00160444, 40.390187005], "type": "Point"}, "id": "ZDFjo4PE3HFFKXKICPi53lq6JJA=", "properties": {"@spider": "usps_collection_boxes", "addr:city": "LIVERPOOL", "addr:country": "US", "addr:full": "145 W CHESTNUT ST", "addr:postcode": "61543", "addr:state": "IL", "amenity": "post_box", "brand": "United States Postal Service", "brand:wikidata": "Q668687", "collection_times": "Mo-Fr 13:00; Sa 10:45", "name": "USPS COLLECTION BOX - PO LOBBY", "note": "ON 12/24 AND 12/31, THIS BOX MAY BE COLLECTED AS EARLY AS 12 NOON.", "nsi_id": "unitedstatespostalservice-a77078", "operator": "United States Postal Service", "operator:short": "USPS", "operator:type": "public", "operator:wikidata": "Q668687", "ref": "6154300002"}, "type": "Feature"}
{"dataset_attributes": {"@spider": "usps_collection_boxes"}, "geometry": {"coordinates": [-90.265885182, 40.7120393914], "type": "Point"}, "id": "r_OMgc3uvBSdDKQN3qjSe_NDXc8=", "properties": {"@spider": "usps_collection_boxes", "addr:city": "LONDON MILLS", "addr:country": "US", "addr:full": "102 S 2ND ST", "addr:postcode": "61544", "addr:state": "IL", "amenity": "post_box", "brand": "United States Postal Service", "brand:wikidata": "Q668687", "collection_times": "Mo-Fr 16:15; Sa 10:15", "name": "USPS COLLECTION BOX - BLUE BOX", "note": "ON 12/24 AND 12/31, THIS BOX MAY BE COLLECTED AS EARLY AS 12 NOON.", "nsi_id": "unitedstatespostalservice-a77078", "operator": "United States Postal Service", "operator:short": "USPS", "operator:type": "public", "operator:wikidata": "Q668687", "ref": "6154400001"}, "type": "Feature"}
{"dataset_attributes": {"@spider": "usps_collection_boxes"}, "geometry": {"coordinates": [-90.265885182, 40.712039391], "type": "Point"}, "id": "T9VonMKU5wapQZsZp53Wm9sV2cI=", "properties": {"@spider": "usps_collection_boxes", "addr:city": "LONDON MILLS", "addr:country": "US", "addr:full": "102 S 2ND ST", "addr:postcode": "61544", "addr:state": "IL", "amenity": "post_box", "brand": "United States Postal Service", "brand:wikidata": "Q668687", "collection_times": "Mo-Fr 11:00; Sa 08:45", "name": "USPS COLLECTION BOX - PO LOBBY", "nsi_id": "unitedstatespostalservice-a77078", "operator": "United States Postal Service", "operator:short": "USPS", "operator:type": "public", "operator:wikidata": "Q668687", "ref": "6154400002"}, "type": "Feature"}
{"dataset_attributes": {"@spider": "usps_collection_boxes"}, "geometry": {"coordinates": [-90.265885182, 40.7120393914], "type": "Point"}, "id": "VMGO6ig1SaMhW09Z06grGRzAlYQ=", "properties": {"@spider": "usps_collection_boxes", "addr:city": "LONDON MILLS", "addr:country": "US", "addr:full": "102 S 2ND ST", "addr:postcode": "61544", "addr:state": "IL", "amenity": "post_box", "brand": "United States Postal Service", "brand:wikidata": "Q668687", "collection_times": "Mo-Fr 11:00; Sa 08:45", "name": "USPS COLLECTION BOX - PO LOBBY", "nsi_id": "unitedstatespostalservice-a77078", "operator": "United States Postal Service", "operator:short": "USPS", "operator:type": "public", "operator:wikidata": "Q668687", "ref": "6154400003"}, "type": "Feature"}
{"dataset_attributes": {"@spider": "usps_collection_boxes"}, "geometry": {"coordinates": [-89.778530464, 40.425362096], "type": "Point"}, "id": "kocwzlT0PcivBUG013q2NvJJLqo=", "properties": {"@spider": "usps_collection_boxes", "addr:city": "MANITO", "addr:country": "US", "addr:full": "201 N WASHINGTON ST", "addr:postcode": "61546", "addr:state": "IL", "amenity": "post_box", "brand": "United States Postal Service", "brand:wikidata": "Q668687", "collection_times": "Mo-Fr 16:00; Sa 11:00", "name": "USPS COLLECTION BOX - PO LOBBY", "note": "ON 12/24 AND 12/31, THIS BOX MAY BE COLLECTED AS EARLY AS 12 NOON.", "nsi_id": "unitedstatespostalservice-a77078", "operator": "United States Postal Service", "operator:short": "USPS", "operator:type": "public", "operator:wikidata": "Q668687", "ref": "6154600001"}, "type": "Feature"}
{"dataset_attributes": {"@spider": "usps_collection_boxes"}, "geometry": {"coordinates": [-89.778530464, 40.425362096], "type": "Point"}, "id": "__ek8XVL094dGG2JxXz9-NluFQo=", "properties": {"@spider": "usps_collection_boxes", "addr:city": "MANITO", "addr:country": "US", "addr:full": "201 N WASHINGTON ST", "addr:postcode": "61546", "addr:state": "IL", "amenity": "post_box", "brand": "United States Postal Service", "brand:wikidata": "Q668687", "collection_times": "Mo-Fr 16:00; Sa 11:00", "name": "USPS COLLECTION BOX - BLUE BOX", "note": "ON 12/24 AND 12/31, THIS BOX MAY BE COLLECTED AS EARLY AS 12 NOON.", "nsi_id": "unitedstatespostalservice-a77078", "operator": "United States Postal Service", "operator:short": "USPS", "operator:type": "public", "operator:wikidata": "Q668687", "ref": "6154600002"}, "type": "Feature"}
{"dataset_attributes": {"@spider": "usps_collection_boxes"}, "geometry": {"coordinates": [-89.778530464, 40.425362096], "type": "Point"}, "id": "TgDsyUWQdjU75D_5XxQ-w5FABXM=", "properties": {"@spider": "usps_collection_boxes", "addr:city": "MANITO", "addr:country": "US", "addr:full": "201 N WASHINGTON ST", "addr:postcode": "61546", "addr:state": "IL", "amenity": "post_box", "brand": "United States Postal Service", "brand:wikidata": "Q668687", "collection_times": "Mo-Fr 16:00; Sa 11:00", "name": "USPS COLLECTION BOX - PO LOBBY", "note": "ON 12/24 AND 12/31, THIS BOX MAY BE COLLECTED AS EARLY AS 12 NOON.", "nsi_id": "unitedstatespostalservice-a77078", "operator": "United States Postal Service", "operator:short": "USPS", "operator:type": "public", "operator:wikidata": "Q668687", "ref": "6154600003"}, "type": "Feature"}
{"dataset_attributes": {"@spider": "usps_collection_boxes"}, "geometry": {"coordinates": [-90.034261797, 40.625815255], "type": "Point"}, "id": "CVd9TiucbpyTT2kQHgYXNbWdpc8=", "properties": {"@spider": "usps_collection_boxes", "addr:city": "NORRIS", "addr:country": "US", "addr:full": "205 W DIVISION ST", "addr:postcode": "61553", "addr:state": "IL", "amenity": "post_box", "brand": "United States Postal Service", "brand:wikidata": "Q668687", "collection_times": "Mo-Fr 16:00; Sa 10:00", "name": "USPS COLLECTION BOX - BLUE BOX", "note": "ON 12/24 AND 12/31, THIS BOX MAY BE COLLECTED AS EARLY AS 12 NOON.", "nsi_id": "unitedstatespostalservice-a77078", "operator": "United States Postal Service", "operator:short": "USPS", "operator:type": "public", "operator:wikidata": "Q668687", "ref": "6155300000"}, "type": "Feature"}
{"dataset_attributes": {"@spider": "usps_collection_boxes"}, "geometry": {"coordinates": [-90.034261797, 40.625815255], "type": "Point"}, "id": "nIgabOmQ4HnHm02vKiOR-QHhz5E=", "properties": {"@spider": "usps_collection_boxes", "addr:city": "NORRIS", "addr:country": "US", "addr:full": "205 W DIVISION ST", "addr:postcode": "61553", "addr:state": "IL", "amenity": "post_box", "brand": "United States Postal Service", "brand:wikidata": "Q668687", "collection_times": "Mo-Fr 16:00; Sa 09:30", "name": "USPS COLLECTION BOX - PO LOBBY", "note": "ON 12/24 AND 12/31, THIS BOX MAY BE COLLECTED AS EARLY AS 12 NOON.", "nsi_id": "unitedstatespostalservice-a77078", "operator": "United States Postal Service", "operator:short": "USPS", "operator:type": "public", "operator:wikidata": "Q668687", "ref": "6155300001"}, "type": "Feature"}
{"dataset_attributes": {"@spider": "usps_collection_boxes"}, "geometry": {"coordinates": [-90.034261797, 40.625815255], "type": "Point"}, "id": "AxRLWdlm1BcowG93G-7j8eNHTTQ=", "properties": {"@spider": "usps_collection_boxes", "addr:city": "NORRIS", "addr:country": "US", "addr:full": "205 W DIVISION ST", "addr:postcode": "61553", "addr:state": "IL", "amenity": "post_box", "brand": "United States Postal Service", "brand:wikidata": "Q668687", "collection_times": "Mo-Fr 16:00; Sa 09:15", "name": "USPS COLLECTION BOX - PO LOBBY", "note": "ON 12/24 AND 12/31, THIS BOX MAY BE COLLECTED AS EARLY AS 12 NOON.", "nsi_id": "unitedstatespostalservice-a77078", "operator": "United States Postal Service", "operator:short": "USPS", "operator:type": "public", "operator:wikidata": "Q668687", "ref": "6155300002"}, "type": "Feature"}
{"dataset_attributes": {"@spider": "usps_collection_boxes"}, "geometry": {"coordinates": [-90.053184336, 40.490442868], "type": "Point"}, "id": "UZUMCsnLns2VtkNNsNJYz9EzHwE=", "properties": {"@spider": "usps_collection_boxes", "addr:city": "SAINT DAVID", "addr:country": "US", "addr:full": "305 MAIN ST", "addr:postcode": "61563", "addr:state": "IL", "amenity": "post_box", "brand": "United States Postal Service", "brand:wikidata": "Q668687", "collection_times": "Mo-Fr 16:00; Sa 10:00", "name": "USPS COLLECTION BOX - BLUE BOX", "note": "ON 12/24 AND 12/31, THIS BOX MAY BE COLLECTED AS EARLY AS 12 NOON.", "nsi_id": "unitedstatespostalservice-a77078", "operator": "United States Postal Service", "operator:short": "USPS", "operator:type": "public", "operator:wikidata": "Q668687", "ref": "6156300000"}, "type": "Feature"}
{"dataset_attributes": {"@spider": "usps_collection_boxes"}, "geometry": {"coordinates": [-90.053184336, 40.490442868], "type": "Point"}, "id": "GbhaDMRFrU9040m0QjZEJN1s2Cg=", "properties": {"@spider": "usps_collection_boxes", "addr:city": "SAINT DAVID", "addr:country": "US", "addr:full": "305 MAIN ST", "addr:postcode": "61563", "addr:state": "IL", "amenity": "post_box", "brand": "United States Postal Service", "brand:wikidata": "Q668687", "collection_times": "Mo-Fr 16:00; Sa 12:45", "name": "USPS COLLECTION BOX - PO LOBBY", "note": "ON 12/24 AND 12/31, THIS BOX MAY BE COLLECTED AS EARLY AS 12 NOON.", "nsi_id": "unitedstatespostalservice-a77078", "operator": "United States Postal Service", "operator:short": "USPS", "operator:type": "public", "operator:wikidata": "Q668687", "ref": "6156300001"}, "type": "Feature"}
{"dataset_attributes": {"@spider": "usps_collection_boxes"}, "geometry": {"coordinates": [-90.053184336, 40.490442868], "type": "Point"}, "id": "NfZSIG9qeXhjib1mcSrUhqmhOr4=", "properties": {"@spider": "usps_collection_boxes", "addr:city": "SAINT DAVID", "addr:country": "US", "addr:full": "305 MAIN ST", "addr:postcode": "61563", "addr:state": "IL", "amenity": "post_box", "brand": "United States Postal Service", "brand:wikidata": "Q668687", "collection_times": "Mo-Fr 16:00; Sa 12:45", "name": "USPS COLLECTION BOX - PO LOBBY", "note": "ON 12/24 AND 12/31, THIS BOX MAY BE COLLECTED AS EARLY AS 12 NOON.", "nsi_id": "unitedstatespostalservice-a77078", "operator": "United States Postal Service", "operator:short": "USPS", "operator:type": "public", "operator:wikidata": "Q668687", "ref": "6156300002"}, "type": "Feature"}
{"dataset_attributes": {"@spider": "usps_collection_boxes"}, "geometry": {"coordinates": [-89.654840004, 40.494512474], "type": "Point"}, "id": "dD3NELlRcB95RSoXKlthIaBG_54=", "properties": {"@spider": "usps_collection_boxes", "addr:city": "SOUTH PEKIN", "addr:country": "US", "addr:full": "306 MAIN ST", "addr:postcode": "61564", "addr:state": "IL", "amenity": "post_box", "brand": "United States Postal Service", "brand:wikidata": "Q668687", "collection_times": "Mo-Fr 17:00; Sa 10:00", "name": "USPS COLLECTION BOX - BLUE BOX", "note": "ON 12/24 AND 12/31, THIS BOX MAY BE COLLECTED AS EARLY AS 12 NOON.", "nsi_id": "unitedstatespostalservice-a77078", "operator": "United States Postal Service", "operator:short": "USPS", "operator:type": "public", "operator:wikidata": "Q668687", "ref": "6156400000"}, "type": "Feature"}
{"dataset_attributes": {"@spider": "usps_collection_boxes"}, "geometry": {"coordinates": [-89.654840004, 40.494512474], "type": "Point"}, "id": "HWLa8X3z-gu9KpzTFcDtt1Djgf0=", "properties": {"@spider": "usps_collection_boxes", "addr:city": "SOUTH PEKIN", "addr:country": "US", "addr:full": "306 MAIN ST", "addr:postcode": "61564", "addr:state": "IL", "amenity": "post_box", "brand": "United States Postal Service", "brand:wikidata": "Q668687", "collection_times": "Mo-Fr 16:30; Sa 10:00", "name": "USPS COLLECTION BOX - PO LOBBY", "note": "ON 12/24 AND 12/31, THIS BOX MAY BE COLLECTED AS EARLY AS 12 NOON.", "nsi_id": "unitedstatespostalservice-a77078", "operator": "United States Postal Service", "operator:short": "USPS", "operator:type": "public", "operator:wikidata": "Q668687", "ref": "6156400001"}, "type": "Feature"}
{"dataset_attributes": {"@spider": "usps_collection_boxes"}, "geometry": {"coordinates": [-89.654840004, 40.494512474], "type": "Point"}, "id": "qBAV36PuFUZ1JjpSjC66HI9AwDQ=", "properties": {"@spider": "usps_collection_boxes", "addr:city": "SOUTH PEKIN", "addr:country": "US", "addr:full": "306 MAIN ST", "addr:postcode": "61564", "addr:state": "IL", "amenity": "post_box", "brand": "United States Postal Service", "brand:wikidata": "Q668687", "collection_times": "Mo-Fr 16:30; Sa 10:00", "name": "USPS COLLECTION BOX - PO LOBBY", "note": "ON 12/24 AND 12/31, THIS BOX MAY BE COLLECTED AS EARLY AS 12 NOON.", "nsi_id": "unitedstatespostalservice-a77078", "operator": "United States Postal Service", "operator:short": "USPS", "operator:type": "public", "operator:wikidata": "Q668687", "ref": "6156400002"}, "type": "Feature"}
{"dataset_attributes": {"@spider": "usps_collection_boxes"}, "geometry": {"coordinates": [-89.930091832, 40.32952312], "type": "Point"}, "id": "OcPIRe3VwYGOa6JCDeeidR1qs3I=", "properties": {"@spider": "usps_collection_boxes", "addr:city": "TOPEKA", "addr:country": "US", "addr:full": "111 E 4TH ST", "addr:postcode": "61567", "addr:state": "IL", "amenity": "post_box", "brand": "United States Postal Service", "brand:wikidata": "Q668687", "collection_times": "Mo-Fr 16:00; Sa 09:45", "name": "USPS COLLECTION BOX - BLUE BOX", "note": "ON 12/24 AND 12/31, THIS BOX MAY BE COLLECTED AS EARLY AS 12 NOON.", "nsi_id": "unitedstatespostalservice-a77078", "operator": "United States Postal Service", "operator:short": "USPS", "operator:type": "public", "operator:wikidata": "Q668687", "ref": "6156700000"}, "type": "Feature"}
{"dataset_attributes": {"@spider": "usps_collection_boxes"}, "geometry": {"coordinates": [-89.930091832, 40.32952312], "type": "Point"}, "id": "SXLTniMkwRCvAznjr3fYe3M_8uw=", "properties": {"@spider": "usps_collection_boxes", "addr:city": "TOPEKA", "addr:country": "US", "addr:full": "111 E 4TH ST", "addr:postcode": "61567", "addr:state": "IL", "amenity": "post_box", "brand": "United States Postal Service", "brand:wikidata": "Q668687", "collection_times": "Mo-Fr 16:00; Sa 09:45", "name": "USPS COLLECTION BOX - PO LOBBY", "note": "ON 12/24 AND 12/31, THIS BOX MAY BE COLLECTED AS EARLY AS 12 NOON.", "nsi_id": "unitedstatespostalservice-a77078", "operator": "United States Postal Service", "operator:short": "USPS", "operator:type": "public", "operator:wikidata": "Q668687", "ref": "6156700001"}, "type": "Feature"}
{"dataset_attributes": {"@spider": "usps_collection_boxes"}, "geometry": {"coordinates": [-89.930091832, 40.32952312], "type": "Point"}, "id": "EW5CIlin92Hc2HXopwL1vbh9fRw=", "properties": {"@spider": "usps_collection_boxes", "addr:city": "TOPEKA", "addr:country": "US", "addr:full": "111 E 4TH ST", "addr:postcode": "61567", "addr:state": "IL", "amenity": "post_box", "brand": "United States Postal Service", "brand:wikidata": "Q668687", "collection_times": "Mo-Fr 16:00; Sa 09:45", "name": "USPS COLLECTION BOX - PO LOBBY", "note": "ON 12/24 AND 12/31, THIS BOX MAY BE COLLECTED AS EARLY AS 12 NOON.", "nsi_id": "unitedstatespostalservice-a77078", "operator": "United States Postal Service", "operator:short": "USPS", "operator:type": "public", "operator:wikidata": "Q668687", "ref": "6156700002"}, "type": "Feature"}
{"dataset_attributes": {"@spider": "usps_collection_boxes"}, "geometry": {"coordinates": [-89.889984168, 40.690948485], "type": "Point"}, "id": "PxzcC4kXD2RF3AF--C3yHMQS9yY=", "properties": {"@spider": "usps_collection_boxes", "addr:city": "TRIVOLI", "addr:country": "US", "addr:full": "18610 W MAIN ST", "addr:postcode": "61569", "addr:state": "IL", "amenity": "post_box", "brand": "United States Postal Service", "brand:wikidata": "Q668687", "collection_times": "Mo-Fr 16:00; Sa 10:00", "name": "USPS COLLECTION BOX - BLUE BOX", "note": "ON 12/24 AND 12/31, THIS BOX MAY BE COLLECTED AS EARLY AS 12 NOON.", "nsi_id": "unitedstatespostalservice-a77078", "operator": "United States Postal Service", "operator:short": "USPS", "operator:type": "public", "operator:wikidata": "Q668687", "ref": "6156900001"}, "type": "Feature"}
{"dataset_attributes": {"@spider": "usps_collection_boxes"}, "geometry": {"coordinates": [-89.889984168, 40.690948485], "type": "Point"}, "id": "FwcWjOEW9eTZJMtk-Y5tZ95pH8E=", "properties": {"@spider": "usps_collection_boxes", "addr:city": "TRIVOLI", "addr:country": "US", "addr:full": "18610 W MAIN ST", "addr:postcode": "61569", "addr:state": "IL", "amenity": "post_box", "brand": "United States Postal Service", "brand:wikidata": "Q668687", "collection_times": "Mo-Fr 12:00; Sa 10:00", "name": "USPS COLLECTION BOX - PO LOBBY", "nsi_id": "unitedstatespostalservice-a77078", "operator": "United States Postal Service", "operator:short": "USPS", "operator:type": "public", "operator:wikidata": "Q668687", "ref": "6156900002"}, "type": "Feature"}
{"dataset_attributes": {"@spider": "usps_collection_boxes"}, "geometry": {"coordinates": [-89.889984168, 40.690948485], "type": "Point"}, "id": "vbWLzy6--QEXLCaxZea_pqF2KnM=", "properties": {"@spider": "usps_collection_boxes", "addr:city": "TRIVOLI", "addr:country": "US", "addr:full": "18610 W MAIN ST", "addr:postcode": "61569", "addr:state": "IL", "amenity": "post_box", "brand": "United States Postal Service", "brand:wikidata": "Q668687", "collection_times": "Mo-Fr 16:00; Sa 10:00", "name": "USPS COLLECTION BOX - BLUE BOX", "note": "ON 12/24 AND 12/31, THIS BOX MAY BE COLLECTED AS EARLY AS 12 NOON.", "nsi_id": "unitedstatespostalservice-a77078", "operator": "United States Postal Service", "operator:short": "USPS", "operator:type": "public", "operator:wikidata": "Q668687", "ref": "6156900003"}, "type": "Feature"}
{"dataset_attributes": {"@spider": "usps_collection_boxes"}, "geometry": {"coordinates": [-89.889984168, 40.690948485], "type": "Point"}, "id": "TvxVwtEZtQ0XFKmQt_H4lUlM4RY=", "properties": {"@spider": "usps_collection_boxes", "addr:city": "TRIVOLI", "addr:country": "US", "addr:full": "18610 W MAIN ST", "addr:postcode": "61569", "addr:state": "IL", "amenity": "post_box", "brand": "United States Postal Service", "brand:wikidata": "Q668687", "collection_times": "Mo-Fr 12:00; Sa 10:00", "name": "USPS COLLECTION BOX - PO LOBBY", "nsi_id": "unitedstatespostalservice-a77078", "operator": "United States Postal Service", "operator:short": "USPS", "operator:type": "public", "operator:wikidata": "Q668687", "ref": "6156900004"}, "type": "Feature"}
{"dataset_attributes": {"@spider": "usps_collection_boxes"}, "geometry": {"coordinates": [-90.015129052, 40.778689472], "type": "Point"}, "id": "pljRTHxvhpZBwntPGaRFRTm6Xic=", "properties": {"@spider": "usps_collection_boxes", "addr:city": "YATES CITY", "addr:country": "US", "addr:full": "109 W MAIN ST", "addr:postcode": "61572", "addr:state": "IL", "amenity": "post_box", "brand": "United States Postal Service", "brand:wikidata": "Q668687", "collection_times": "Mo-Fr 16:15; Sa 12:45", "name": "USPS COLLECTION BOX - BLUE BOX", "note": "ON 12/24 AND 12/31, THIS BOX MAY BE COLLECTED AS EARLY AS 12 NOON.", "nsi_id": "unitedstatespostalservice-a77078", "operator": "United States Postal Service", "operator:short": "USPS", "operator:type": "public", "operator:wikidata": "Q668687", "ref": "6157200001"}, "type": "Feature"}
{"dataset_attributes": {"@spider": "usps_collection_boxes"}, "geometry": {"coordinates": [-90.015129052, 40.778689472], "type": "Point"}, "id": "x0-pQVnTne_Zm0dp4CilsN5vLmc=", "properties": {"@spider": "usps_collection_boxes", "addr:city": "YATES CITY", "addr:country": "US", "addr:full": "109 W MAIN ST", "addr:postcode": "61572", "addr:state": "IL", "amenity": "post_box", "brand": "United States Postal Service", "brand:wikidata": "Q668687", "collection_times": "Mo-Fr 16:00; Sa 12:45", "name": "USPS COLLECTION BOX - PO LOBBY", "note": "ON 12/24 AND 12/31, THIS BOX MAY BE COLLECTED AS EARLY AS 12 NOON.", "nsi_id": "unitedstatespostalservice-a77078", "operator": "United States Postal Service", "operator:short": "USPS", "operator:type": "public", "operator:wikidata": "Q668687", "ref": "6157200002"}, "type": "Feature"}
{"dataset_attributes": {"@spider": "usps_collection_boxes"}, "geometry": {"coordinates": [-90.015129052, 40.778689472], "type": "Point"}, "id": "HYMjQpUuZxBn97LJ9hrY6Y4akPk=", "properties": {"@spider": "usps_collection_boxes", "addr:city": "YATES CITY", "addr:country": "US", "addr:full": "109 W MAIN ST", "addr:postcode": "61572", "addr:state": "IL", "amenity": "post_box", "brand": "United States Postal Service", "brand:wikidata": "Q668687", "collection_times": "Mo-Fr 16:00; Sa 12:45", "name": "USPS COLLECTION BOX - PO LOBBY", "note": "ON 12/24 AND 12/31, THIS BOX MAY BE COLLECTED AS EARLY AS 12 NOON.", "nsi_id": "unitedstatespostalservice-a77078", "operator": "United States Postal Service", "operator:short": "USPS", "operator:type": "public", "operator:wikidata": "Q668687", "ref": "6157200003"}, "type": "Feature"}
