{"dataset_attributes": {"@spider": "usps_collection_boxes", "spider:collection_time": "2023-11-25T08:23:32.202811"}, "geometry": {"coordinates": [-89.61386825, 40.675855056], "type": "Point"}, "id": "XAsByU2zbq4K4bFpAmnZ8kqF6SA=", "properties": {"@spider": "usps_collection_boxes", "addr:city": "PEORIA", "addr:country": "US", "addr:full": "2207 SW ADAMS ST", "addr:postcode": "61602", "addr:state": "IL", "amenity": "post_box", "brand": "United States Postal Service", "brand:wikidata": "Q668687", "collection_times": "Mo-Sa 12:00", "name": "USPS COLLECTION BOX - BLUE BOX", "nsi_id": "unitedstatespostalservice-a77078", "operator": "United States Postal Service", "operator:short": "USPS", "operator:type": "public", "operator:wikidata": "Q668687", "ref": "6160200006"}, "type": "Feature"}
{"dataset_attributes": {"@spider": "usps_collection_boxes", "spider:collection_time": "2023-11-25T08:23:32.202811"}, "geometry": {"coordinates": [-89.5866972, 40.6709], "type": "Point"}, "id": "jkiTFwQsved8WHBoggdWMHHwybE=", "properties": {"@spider": "usps_collection_boxes", "addr:city": "PEORIA", "addr:country": "US", "addr:full": "400 RICHLAND ST", "addr:postcode": "61602", "addr:state": "IL", "amenity": "post_box", "brand": "United States Postal Service", "brand:wikidata": "Q668687", "collection_times": "Mo-Sa 10:00", "name": "USPS COLLECTION BOX - BLUE BOX", "nsi_id": "unitedstatespostalservice-a77078", "operator": "United States Postal Service", "operator:short": "USPS", "operator:type": "public", "operator:wikidata": "Q668687", "ref": "6160200008"}, "type": "Feature"}
{"dataset_attributes": {"@spider": "usps_collection_boxes", "spider:collection_time": "2023-11-25T08:23:32.202811"}, "geometry": {"coordinates": [-89.594932, 40.685072], "type": "Point"}, "id": "bKhFuit34pFNFprY12OCCz30xJM=", "properties": {"@spider": "usps_collection_boxes", "addr:city": "PEORIA", "addr:country": "US", "addr:full": "95 STATE ST", "addr:postcode": "61602", "addr:state": "IL", "amenity": "post_box", "brand": "United States Postal Service", "brand:wikidata": "Q668687", "collection_times": "Mo-Sa 19:00", "name": "USPS COLLECTION BOX - EXPRESS", "note": "ON 12/24 AND 12/31, THIS BOX MAY BE COLLECTED AS EARLY AS 12 NOON.", "nsi_id": "unitedstatespostalservice-a77078", "operator": "United States Postal Service", "operator:short": "USPS", "operator:type": "public", "operator:wikidata": "Q668687", "ref": "6160200010"}, "type": "Feature"}
{"dataset_attributes": {"@spider": "usps_collection_boxes", "spider:collection_time": "2023-11-25T08:23:32.202811"}, "geometry": {"coordinates": [-89.5903507, 40.692718], "type": "Point"}, "id": "GQXNSwb-QX4ow1HmqWQ6_aVHyEk=", "properties": {"@spider": "usps_collection_boxes", "addr:city": "PEORIA", "addr:country": "US", "addr:full": "324 MAIN ST", "addr:postcode": "61602", "addr:state": "IL", "amenity": "post_box", "brand": "United States Postal Service", "brand:wikidata": "Q668687", "collection_times": "Mo-Fr 10:00", "name": "USPS COLLECTION BOX - BLUE BOX", "nsi_id": "unitedstatespostalservice-a77078", "operator": "United States Postal Service", "operator:short": "USPS", "operator:type": "public", "operator:wikidata": "Q668687", "ref": "6160200012"}, "type": "Feature"}
{"dataset_attributes": {"@spider": "usps_collection_boxes", "spider:collection_time": "2023-11-25T08:23:32.202811"}, "geometry": {"coordinates": [-89.5916406, 40.691716], "type": "Point"}, "id": "L-dLVR2D35LhRk8E_hsWrqcSYwc=", "properties": {"@spider": "usps_collection_boxes", "addr:city": "PEORIA", "addr:country": "US", "addr:full": "331 FULTON ST", "addr:postcode": "61602", "addr:state": "IL", "amenity": "post_box", "brand": "United States Postal Service", "brand:wikidata": "Q668687", "collection_times": "Mo-Sa 10:00", "name": "USPS COLLECTION BOX - BLUE BOX", "nsi_id": "unitedstatespostalservice-a77078", "operator": "United States Postal Service", "operator:short": "USPS", "operator:type": "public", "operator:wikidata": "Q668687", "ref": "6160200013"}, "type": "Feature"}
{"dataset_attributes": {"@spider": "usps_collection_boxes", "spider:collection_time": "2023-11-25T08:23:32.202811"}, "geometry": {"coordinates": [-89.5891207, 40.69318], "type": "Point"}, "id": "coDom4n0o1wS-1zrVOV2svdq450=", "properties": {"@spider": "usps_collection_boxes", "addr:city": "PEORIA", "addr:country": "US", "addr:full": "300 HAMILTON BLVD", "addr:postcode": "61602", "addr:state": "IL", "amenity": "post_box", "brand": "United States Postal Service", "brand:wikidata": "Q668687", "collection_times": "Mo-Fr 10:00", "name": "USPS COLLECTION BOX - BLUE BOX", "nsi_id": "unitedstatespostalservice-a77078", "operator": "United States Postal Service", "operator:short": "USPS", "operator:type": "public", "operator:wikidata": "Q668687", "ref": "6160200015"}, "type": "Feature"}
{"dataset_attributes": {"@spider": "usps_collection_boxes", "spider:collection_time": "2023-11-25T08:23:32.202811"}, "geometry": {"coordinates": [-89.592645, 40.690675], "type": "Point"}, "id": "Qy_j8SvACeYQlyopY_hehWce09w=", "properties": {"@spider": "usps_collection_boxes", "addr:city": "PEORIA", "addr:country": "US", "addr:full": "407 SW ADAMS ST", "addr:postcode": "61602", "addr:state": "IL", "amenity": "post_box", "brand": "United States Postal Service", "brand:wikidata": "Q668687", "collection_times": "Mo-Sa 09:30", "name": "USPS COLLECTION BOX - BLUE BOX", "nsi_id": "unitedstatespostalservice-a77078", "operator": "United States Postal Service", "operator:short": "USPS", "operator:type": "public", "operator:wikidata": "Q668687", "ref": "6160200033"}, "type": "Feature"}
{"dataset_attributes": {"@spider": "usps_collection_boxes", "spider:collection_time": "2023-11-25T08:23:32.202811"}, "geometry": {"coordinates": [-89.596069325, 40.698078763], "type": "Point"}, "id": "VTaHP6gNH11RPRVtT14FFUcDM2A=", "properties": {"@spider": "usps_collection_boxes", "addr:city": "PEORIA", "addr:country": "US", "addr:full": "926 MAIN ST", "addr:postcode": "61602", "addr:state": "IL", "amenity": "post_box", "brand": "United States Postal Service", "brand:wikidata": "Q668687", "collection_times": "Mo-Sa 11:30", "name": "USPS COLLECTION BOX - BLUE BOX", "nsi_id": "unitedstatespostalservice-a77078", "operator": "United States Postal Service", "operator:short": "USPS", "operator:type": "public", "operator:wikidata": "Q668687", "ref": "6160200042"}, "type": "Feature"}
{"dataset_attributes": {"@spider": "usps_collection_boxes", "spider:collection_time": "2023-11-25T08:23:32.202811"}, "geometry": {"coordinates": [-89.594933, 40.685081], "type": "Point"}, "id": "SBWCF5b1rjTMM1AToIs1vakT2lQ=", "properties": {"@spider": "usps_collection_boxes", "addr:city": "PEORIA", "addr:country": "US", "addr:full": "95 STATE ST", "addr:postcode": "61602", "addr:state": "IL", "amenity": "post_box", "brand": "United States Postal Service", "brand:wikidata": "Q668687", "collection_times": "Mo-Sa 19:00", "name": "USPS COLLECTION BOX - BLUE BOX", "note": "ON 12/24 AND 12/31, THIS BOX MAY BE COLLECTED AS EARLY AS 12 NOON.", "nsi_id": "unitedstatespostalservice-a77078", "operator": "United States Postal Service", "operator:short": "USPS", "operator:type": "public", "operator:wikidata": "Q668687", "ref": "6160200045"}, "type": "Feature"}
{"dataset_attributes": {"@spider": "usps_collection_boxes", "spider:collection_time": "2023-11-25T08:23:32.202811"}, "geometry": {"coordinates": [-89.594933, 40.685081], "type": "Point"}, "id": "u2xlOfFflWNXgm3jMW6mxsL8mBg=", "properties": {"@spider": "usps_collection_boxes", "addr:city": "PEORIA", "addr:country": "US", "addr:full": "95 STATE ST", "addr:postcode": "61602", "addr:state": "IL", "amenity": "post_box", "brand": "United States Postal Service", "brand:wikidata": "Q668687", "collection_times": "Mo-Sa 19:00", "name": "USPS COLLECTION BOX - BLUE BOX", "note": "ON 12/24 AND 12/31, THIS BOX MAY BE COLLECTED AS EARLY AS 12 NOON.", "nsi_id": "unitedstatespostalservice-a77078", "operator": "United States Postal Service", "operator:short": "USPS", "operator:type": "public", "operator:wikidata": "Q668687", "ref": "6160200046"}, "type": "Feature"}
{"dataset_attributes": {"@spider": "usps_collection_boxes", "spider:collection_time": "2023-11-25T08:23:32.202811"}, "geometry": {"coordinates": [-89.594933, 40.685081], "type": "Point"}, "id": "Wt9q_13R4C215fv0NYIRJXj9hjg=", "properties": {"@spider": "usps_collection_boxes", "addr:city": "PEORIA", "addr:country": "US", "addr:full": "95 STATE ST", "addr:postcode": "61602", "addr:state": "IL", "amenity": "post_box", "brand": "United States Postal Service", "brand:wikidata": "Q668687", "collection_times": "Mo-Sa 19:00", "name": "USPS COLLECTION BOX - PO LOBBY", "note": "ON 12/24 AND 12/31, THIS BOX MAY BE COLLECTED AS EARLY AS 12 NOON.", "nsi_id": "unitedstatespostalservice-a77078", "operator": "United States Postal Service", "operator:short": "USPS", "operator:type": "public", "operator:wikidata": "Q668687", "ref": "6160200049"}, "type": "Feature"}
{"dataset_attributes": {"@spider": "usps_collection_boxes", "spider:collection_time": "2023-11-25T08:23:32.202811"}, "geometry": {"coordinates": [-89.5929276, 40.692892], "type": "Point"}, "id": "DDAwp3GfF4HXKYWmJLWcZnmJ-2Q=", "properties": {"@spider": "usps_collection_boxes", "addr:city": "PEORIA", "addr:country": "US", "addr:full": "419 FULTON ST", "addr:postcode": "61602", "addr:state": "IL", "amenity": "post_box", "brand": "United States Postal Service", "brand:wikidata": "Q668687", "collection_times": "Mo-Sa 08:00", "name": "USPS COLLECTION BOX - BLUE BOX", "nsi_id": "unitedstatespostalservice-a77078", "operator": "United States Postal Service", "operator:short": "USPS", "operator:type": "public", "operator:wikidata": "Q668687", "ref": "6160200054"}, "type": "Feature"}
{"dataset_attributes": {"@spider": "usps_collection_boxes", "spider:collection_time": "2023-11-25T08:23:32.202811"}, "geometry": {"coordinates": [-89.5922399, 40.69446], "type": "Point"}, "id": "bLerI7zUh9P7gYa9jUiCalwMcbQ=", "properties": {"@spider": "usps_collection_boxes", "addr:city": "PEORIA", "addr:country": "US", "addr:full": "500 MAIN ST", "addr:postcode": "61602", "addr:state": "IL", "amenity": "post_box", "brand": "United States Postal Service", "brand:wikidata": "Q668687", "collection_times": "Mo-Sa 12:30", "name": "USPS COLLECTION BOX - BLUE BOX", "note": "ON 12/24 AND 12/31, THIS BOX MAY BE COLLECTED AS EARLY AS 12 NOON.", "nsi_id": "unitedstatespostalservice-a77078", "operator": "United States Postal Service", "operator:short": "USPS", "operator:type": "public", "operator:wikidata": "Q668687", "ref": "6160200061"}, "type": "Feature"}
{"dataset_attributes": {"@spider": "usps_collection_boxes", "spider:collection_time": "2023-11-25T08:23:32.202811"}, "geometry": {"coordinates": [-89.594933, 40.685081], "type": "Point"}, "id": "jmN5-REWu0yNGaDBIzp9rXiGqVk=", "properties": {"@spider": "usps_collection_boxes", "addr:city": "PEORIA", "addr:country": "US", "addr:full": "95 STATE ST", "addr:postcode": "61602", "addr:state": "IL", "amenity": "post_box", "brand": "United States Postal Service", "brand:wikidata": "Q668687", "collection_times": "Mo-Sa 19:00", "name": "USPS COLLECTION BOX - APC", "note": "ON 12/24 AND 12/31, THIS BOX MAY BE COLLECTED AS EARLY AS 12 NOON.", "nsi_id": "unitedstatespostalservice-a77078", "operator": "United States Postal Service", "operator:short": "USPS", "operator:type": "public", "operator:wikidata": "Q668687", "ref": "6160200062"}, "type": "Feature"}
{"dataset_attributes": {"@spider": "usps_collection_boxes", "spider:collection_time": "2023-11-25T08:23:32.202811"}, "geometry": {"coordinates": [-89.594933, 40.685081], "type": "Point"}, "id": "zoBN1ghLRZbJhaF9zQhpCtDAHyo=", "properties": {"@spider": "usps_collection_boxes", "addr:city": "PEORIA", "addr:country": "US", "addr:full": "95 STATE ST", "addr:postcode": "61602", "addr:state": "IL", "amenity": "post_box", "brand": "United States Postal Service", "brand:wikidata": "Q668687", "collection_times": "Mo-Sa 19:00", "name": "USPS COLLECTION BOX - EXPRESS", "note": "ON 12/24 AND 12/31, THIS BOX MAY BE COLLECTED AS EARLY AS 12 NOON.", "nsi_id": "unitedstatespostalservice-a77078", "operator": "United States Postal Service", "operator:short": "USPS", "operator:type": "public", "operator:wikidata": "Q668687", "ref": "6160200063"}, "type": "Feature"}
{"dataset_attributes": {"@spider": "usps_collection_boxes", "spider:collection_time": "2023-11-25T08:23:32.202811"}, "geometry": {"coordinates": [-89.5919239845, 40.6883750114], "type": "Point"}, "id": "Alnn697mubJCmIgMtD6Kv3dulhw=", "properties": {"@spider": "usps_collection_boxes", "addr:city": "PEORIA", "addr:country": "US", "addr:full": "330 SW WASHINGTON ST", "addr:postcode": "61602", "addr:state": "IL", "amenity": "post_box", "brand": "United States Postal Service", "brand:wikidata": "Q668687", "collection_times": "Mo-Sa 09:30", "name": "USPS COLLECTION BOX - BLUE BOX", "nsi_id": "unitedstatespostalservice-a77078", "operator": "United States Postal Service", "operator:short": "USPS", "operator:type": "public", "operator:wikidata": "Q668687", "ref": "6160200065"}, "type": "Feature"}
{"dataset_attributes": {"@spider": "usps_collection_boxes", "spider:collection_time": "2023-11-25T08:23:32.202811"}, "geometry": {"coordinates": [-89.5870311, 40.694911], "type": "Point"}, "id": "xlzhmLIIns8YAVnATtJEDNYsOcw=", "properties": {"@spider": "usps_collection_boxes", "addr:city": "PEORIA", "addr:country": "US", "addr:full": "400 NE JEFFERSON AVE", "addr:postcode": "61603", "addr:state": "IL", "amenity": "post_box", "brand": "United States Postal Service", "brand:wikidata": "Q668687", "collection_times": "Mo-Sa 09:30", "name": "USPS COLLECTION BOX - BLUE BOX", "nsi_id": "unitedstatespostalservice-a77078", "operator": "United States Postal Service", "operator:short": "USPS", "operator:type": "public", "operator:wikidata": "Q668687", "ref": "6160300006"}, "type": "Feature"}
{"dataset_attributes": {"@spider": "usps_collection_boxes", "spider:collection_time": "2023-11-25T08:23:32.202811"}, "geometry": {"coordinates": [-89.5914478, 40.701268], "type": "Point"}, "id": "aWGdEs3nVFVFmvrmUcgJKkufP3Q=", "properties": {"@spider": "usps_collection_boxes", "addr:city": "PEORIA", "addr:country": "US", "addr:full": "420 NE GLEN OAK AVE", "addr:postcode": "61603", "addr:state": "IL", "amenity": "post_box", "brand": "United States Postal Service", "brand:wikidata": "Q668687", "collection_times": "Mo-Fr 10:00", "name": "USPS COLLECTION BOX - BLUE BOX", "nsi_id": "unitedstatespostalservice-a77078", "operator": "United States Postal Service", "operator:short": "USPS", "operator:type": "public", "operator:wikidata": "Q668687", "ref": "6160300009"}, "type": "Feature"}
{"dataset_attributes": {"@spider": "usps_collection_boxes", "spider:collection_time": "2023-11-25T08:23:32.202811"}, "geometry": {"coordinates": [-89.5909138, 40.70237], "type": "Point"}, "id": "_MxZ2__SDDM9xSlPs5kx1bWIcEA=", "properties": {"@spider": "usps_collection_boxes", "addr:city": "PEORIA", "addr:country": "US", "addr:full": "530 NE GLEN OAK AVE", "addr:postcode": "61603", "addr:state": "IL", "amenity": "post_box", "brand": "United States Postal Service", "brand:wikidata": "Q668687", "collection_times": "Mo-Sa 10:00", "name": "USPS COLLECTION BOX - BLUE BOX", "nsi_id": "unitedstatespostalservice-a77078", "operator": "United States Postal Service", "operator:short": "USPS", "operator:type": "public", "operator:wikidata": "Q668687", "ref": "6160300010"}, "type": "Feature"}
{"dataset_attributes": {"@spider": "usps_collection_boxes", "spider:collection_time": "2023-11-25T08:23:32.202811"}, "geometry": {"coordinates": [-89.5915361, 40.704715], "type": "Point"}, "id": "t2W3mKIB1WPMAvGM0vJwCh6kgDo=", "properties": {"@spider": "usps_collection_boxes", "addr:city": "PEORIA", "addr:country": "US", "addr:full": "200 E PENNSYLVANIA AVE", "addr:postcode": "61603", "addr:state": "IL", "amenity": "post_box", "brand": "United States Postal Service", "brand:wikidata": "Q668687", "collection_times": "Mo-Sa 09:00", "name": "USPS COLLECTION BOX - BLUE BOX", "nsi_id": "unitedstatespostalservice-a77078", "operator": "United States Postal Service", "operator:short": "USPS", "operator:type": "public", "operator:wikidata": "Q668687", "ref": "6160300011"}, "type": "Feature"}
{"dataset_attributes": {"@spider": "usps_collection_boxes", "spider:collection_time": "2023-11-25T08:23:32.202811"}, "geometry": {"coordinates": [-89.5745427, 40.727495], "type": "Point"}, "id": "_ZPWycG5AB5HmvaAsCYxlWaTtI0=", "properties": {"@spider": "usps_collection_boxes", "addr:city": "PEORIA", "addr:country": "US", "addr:full": "3309 N PROSPECT RD", "addr:postcode": "61603", "addr:state": "IL", "amenity": "post_box", "brand": "United States Postal Service", "brand:wikidata": "Q668687", "collection_times": "Mo-Sa 10:00", "name": "USPS COLLECTION BOX - BLUE BOX", "nsi_id": "unitedstatespostalservice-a77078", "operator": "United States Postal Service", "operator:short": "USPS", "operator:type": "public", "operator:wikidata": "Q668687", "ref": "6160300016"}, "type": "Feature"}
{"dataset_attributes": {"@spider": "usps_collection_boxes", "spider:collection_time": "2023-11-25T08:23:32.202811"}, "geometry": {"coordinates": [-89.5927577, 40.724978], "type": "Point"}, "id": "psnooUlKEpifr4zFPQbZIJu-GOc=", "properties": {"@spider": "usps_collection_boxes", "addr:city": "PEORIA", "addr:country": "US", "addr:full": "3100 N KNOXVILLE AVE", "addr:postcode": "61603", "addr:state": "IL", "amenity": "post_box", "brand": "United States Postal Service", "brand:wikidata": "Q668687", "collection_times": "Mo-Sa 10:00", "name": "USPS COLLECTION BOX - BLUE BOX", "nsi_id": "unitedstatespostalservice-a77078", "operator": "United States Postal Service", "operator:short": "USPS", "operator:type": "public", "operator:wikidata": "Q668687", "ref": "6160300017"}, "type": "Feature"}
{"dataset_attributes": {"@spider": "usps_collection_boxes", "spider:collection_time": "2023-11-25T08:23:32.202811"}, "geometry": {"coordinates": [-89.585267999, 40.7161179794], "type": "Point"}, "id": "e-36QDEas_YQ6wIk2kKgO3ATuQg=", "properties": {"@spider": "usps_collection_boxes", "addr:city": "PEORIA", "addr:country": "US", "addr:full": "2321 N WISCONSIN AVE", "addr:postcode": "61603", "addr:state": "IL", "amenity": "post_box", "brand": "United States Postal Service", "brand:wikidata": "Q668687", "collection_times": "Mo-Fr 10:00; Sa 12:00", "name": "USPS COLLECTION BOX - BLUE BOX", "nsi_id": "unitedstatespostalservice-a77078", "operator": "United States Postal Service", "operator:short": "USPS", "operator:type": "public", "operator:wikidata": "Q668687", "ref": "6160300025"}, "type": "Feature"}
{"dataset_attributes": {"@spider": "usps_collection_boxes", "spider:collection_time": "2023-11-25T08:23:32.202811"}, "geometry": {"coordinates": [-89.5930877812, 40.6961619132], "type": "Point"}, "id": "hOfUf4eJsrmi36Xb0dc4aGuweoo=", "properties": {"@spider": "usps_collection_boxes", "addr:city": "PEORIA", "addr:country": "US", "addr:full": "109 NE PERRY AVE", "addr:postcode": "61603", "addr:state": "IL", "amenity": "post_box", "brand": "United States Postal Service", "brand:wikidata": "Q668687", "collection_times": "Mo-Sa 10:00", "name": "USPS COLLECTION BOX - BLUE BOX", "nsi_id": "unitedstatespostalservice-a77078", "operator": "United States Postal Service", "operator:short": "USPS", "operator:type": "public", "operator:wikidata": "Q668687", "ref": "6160300043"}, "type": "Feature"}
{"dataset_attributes": {"@spider": "usps_collection_boxes", "spider:collection_time": "2023-11-25T08:23:32.202811"}, "geometry": {"coordinates": [-89.5669789, 40.712941], "type": "Point"}, "id": "KOlTkji8rkZWoOV-YiTziZizI4o=", "properties": {"@spider": "usps_collection_boxes", "addr:city": "PEORIA", "addr:country": "US", "addr:full": "309 NE ROCK ISLAND AVE", "addr:postcode": "61603", "addr:state": "IL", "amenity": "post_box", "brand": "United States Postal Service", "brand:wikidata": "Q668687", "collection_times": "Mo-Sa 10:00", "name": "USPS COLLECTION BOX - BLUE BOX", "nsi_id": "unitedstatespostalservice-a77078", "operator": "United States Postal Service", "operator:short": "USPS", "operator:type": "public", "operator:wikidata": "Q668687", "ref": "6160300044"}, "type": "Feature"}
{"dataset_attributes": {"@spider": "usps_collection_boxes", "spider:collection_time": "2023-11-25T08:23:32.202811"}, "geometry": {"coordinates": [-89.6429187, 40.682385], "type": "Point"}, "id": "vXpvfGo1ZDi13hdE_Adzc7abewg=", "properties": {"@spider": "usps_collection_boxes", "addr:city": "PEORIA", "addr:country": "US", "addr:full": "3103 W HARMON HWY", "addr:postcode": "61604", "addr:state": "IL", "amenity": "post_box", "brand": "United States Postal Service", "brand:wikidata": "Q668687", "collection_times": "Mo-Sa 10:00", "name": "USPS COLLECTION BOX - BLUE BOX", "nsi_id": "unitedstatespostalservice-a77078", "operator": "United States Postal Service", "operator:short": "USPS", "operator:type": "public", "operator:wikidata": "Q668687", "ref": "6160400014"}, "type": "Feature"}
{"dataset_attributes": {"@spider": "usps_collection_boxes", "spider:collection_time": "2023-11-25T08:23:32.202811"}, "geometry": {"coordinates": [-89.5965539802, 40.7237240117], "type": "Point"}, "id": "MW8rFDqQN0NK5L3rxeipjraPIA4=", "properties": {"@spider": "usps_collection_boxes", "addr:city": "PEORIA", "addr:country": "US", "addr:full": "3002 N BIGELOW ST", "addr:postcode": "61604", "addr:state": "IL", "amenity": "post_box", "brand": "United States Postal Service", "brand:wikidata": "Q668687", "collection_times": "Mo-Sa 10:00", "name": "USPS COLLECTION BOX - BLUE BOX", "nsi_id": "unitedstatespostalservice-a77078", "operator": "United States Postal Service", "operator:short": "USPS", "operator:type": "public", "operator:wikidata": "Q668687", "ref": "6160400016"}, "type": "Feature"}
{"dataset_attributes": {"@spider": "usps_collection_boxes", "spider:collection_time": "2023-11-25T08:23:32.202811"}, "geometry": {"coordinates": [-89.6323785, 40.69626], "type": "Point"}, "id": "6Lr1FTThJfjzPgpP-u0JHUvaw4o=", "properties": {"@spider": "usps_collection_boxes", "addr:city": "PEORIA", "addr:country": "US", "addr:full": "2427 W ROHMANN AVE", "addr:postcode": "61604", "addr:state": "IL", "amenity": "post_box", "brand": "United States Postal Service", "brand:wikidata": "Q668687", "collection_times": "Mo-Sa 10:00", "name": "USPS COLLECTION BOX - BLUE BOX", "nsi_id": "unitedstatespostalservice-a77078", "operator": "United States Postal Service", "operator:short": "USPS", "operator:type": "public", "operator:wikidata": "Q668687", "ref": "6160400023"}, "type": "Feature"}
{"dataset_attributes": {"@spider": "usps_collection_boxes", "spider:collection_time": "2023-11-25T08:23:32.202811"}, "geometry": {"coordinates": [-89.6125706, 40.708898], "type": "Point"}, "id": "BA5BaQA7rB-rKH1VP94sy7Fr4M4=", "properties": {"@spider": "usps_collection_boxes", "addr:city": "PEORIA", "addr:country": "US", "addr:full": "1716 N UNIVERSITY ST", "addr:postcode": "61604", "addr:state": "IL", "amenity": "post_box", "brand": "United States Postal Service", "brand:wikidata": "Q668687", "collection_times": "Mo-Sa 10:00", "name": "USPS COLLECTION BOX - BLUE BOX", "nsi_id": "unitedstatespostalservice-a77078", "operator": "United States Postal Service", "operator:short": "USPS", "operator:type": "public", "operator:wikidata": "Q668687", "ref": "6160400024"}, "type": "Feature"}
{"dataset_attributes": {"@spider": "usps_collection_boxes", "spider:collection_time": "2023-11-25T08:23:32.202811"}, "geometry": {"coordinates": [-89.6151069, 40.709238], "type": "Point"}, "id": "o2DbTgIFXtbhgwkTiPrKnAZuVh4=", "properties": {"@spider": "usps_collection_boxes", "addr:city": "PEORIA", "addr:country": "US", "addr:full": "1815 N UNIVERSITY ST", "addr:postcode": "61604", "addr:state": "IL", "amenity": "post_box", "brand": "United States Postal Service", "brand:wikidata": "Q668687", "collection_times": "Mo-Sa 10:00", "name": "USPS COLLECTION BOX - BLUE BOX", "nsi_id": "unitedstatespostalservice-a77078", "operator": "United States Postal Service", "operator:short": "USPS", "operator:type": "public", "operator:wikidata": "Q668687", "ref": "6160400025"}, "type": "Feature"}
{"dataset_attributes": {"@spider": "usps_collection_boxes", "spider:collection_time": "2023-11-25T08:23:32.202811"}, "geometry": {"coordinates": [-89.6145234, 40.730187], "type": "Point"}, "id": "a81fvol3_iXM9GmLLrEpKLp1Bxw=", "properties": {"@spider": "usps_collection_boxes", "addr:city": "PEORIA", "addr:country": "US", "addr:full": "3433 N UNIVERSITY ST", "addr:postcode": "61604", "addr:state": "IL", "amenity": "post_box", "brand": "United States Postal Service", "brand:wikidata": "Q668687", "collection_times": "Mo-Sa 10:00", "name": "USPS COLLECTION BOX - BLUE BOX", "nsi_id": "unitedstatespostalservice-a77078", "operator": "United States Postal Service", "operator:short": "USPS", "operator:type": "public", "operator:wikidata": "Q668687", "ref": "6160400027"}, "type": "Feature"}
{"dataset_attributes": {"@spider": "usps_collection_boxes", "spider:collection_time": "2023-11-25T08:23:32.202811"}, "geometry": {"coordinates": [-89.6323854, 40.72417], "type": "Point"}, "id": "jP7fPV7OYwPj9ncqTN06wqN6jHI=", "properties": {"@spider": "usps_collection_boxes", "addr:city": "PEORIA", "addr:country": "US", "addr:full": "3011 N STERLING AVE", "addr:postcode": "61604", "addr:state": "IL", "amenity": "post_box", "brand": "United States Postal Service", "brand:wikidata": "Q668687", "collection_times": "Mo-Sa 10:00", "name": "USPS COLLECTION BOX - BLUE BOX", "nsi_id": "unitedstatespostalservice-a77078", "operator": "United States Postal Service", "operator:short": "USPS", "operator:type": "public", "operator:wikidata": "Q668687", "ref": "6160400033"}, "type": "Feature"}
{"dataset_attributes": {"@spider": "usps_collection_boxes", "spider:collection_time": "2023-11-25T08:23:32.202811"}, "geometry": {"coordinates": [-89.5944261, 40.718063], "type": "Point"}, "id": "xZqAL7Bx43BuKhYMSOO6uzI_Wo0=", "properties": {"@spider": "usps_collection_boxes", "addr:city": "PEORIA", "addr:country": "US", "addr:full": "2515 N KNOXVILLE AVE", "addr:postcode": "61604", "addr:state": "IL", "amenity": "post_box", "brand": "United States Postal Service", "brand:wikidata": "Q668687", "collection_times": "Mo-Sa 10:00", "name": "USPS COLLECTION BOX - BLUE BOX", "nsi_id": "unitedstatespostalservice-a77078", "operator": "United States Postal Service", "operator:short": "USPS", "operator:type": "public", "operator:wikidata": "Q668687", "ref": "6160400034"}, "type": "Feature"}
{"dataset_attributes": {"@spider": "usps_collection_boxes", "spider:collection_time": "2023-11-25T08:23:32.202811"}, "geometry": {"coordinates": [-89.6121061, 40.730893], "type": "Point"}, "id": "ND_i5CYkgEqYIDZTHkyv8iIkecY=", "properties": {"@spider": "usps_collection_boxes", "addr:city": "PEORIA", "addr:country": "US", "addr:full": "3524 N UNIVERSITY ST", "addr:postcode": "61604", "addr:state": "IL", "amenity": "post_box", "brand": "United States Postal Service", "brand:wikidata": "Q668687", "collection_times": "Mo-Sa 10:00", "name": "USPS COLLECTION BOX - BLUE BOX", "nsi_id": "unitedstatespostalservice-a77078", "operator": "United States Postal Service", "operator:short": "USPS", "operator:type": "public", "operator:wikidata": "Q668687", "ref": "6160400040"}, "type": "Feature"}
{"dataset_attributes": {"@spider": "usps_collection_boxes", "spider:collection_time": "2023-11-25T08:23:32.202811"}, "geometry": {"coordinates": [-89.603869972, 40.746832519], "type": "Point"}, "id": "3XHUDuXMMwRezX9ZJL9bsHV1WoY=", "properties": {"@spider": "usps_collection_boxes", "addr:city": "PEORIA", "addr:country": "US", "addr:full": "715 W GLEN AVE", "addr:postcode": "61604", "addr:state": "IL", "amenity": "post_box", "brand": "United States Postal Service", "brand:wikidata": "Q668687", "collection_times": "Mo-Fr 17:00; Sa 14:15", "name": "USPS COLLECTION BOX - EXPRESS", "note": "ON 12/24 AND 12/31, THIS BOX MAY BE COLLECTED AS EARLY AS 12 NOON.", "nsi_id": "unitedstatespostalservice-a77078", "operator": "United States Postal Service", "operator:short": "USPS", "operator:type": "public", "operator:wikidata": "Q668687", "ref": "6160400042"}, "type": "Feature"}
{"dataset_attributes": {"@spider": "usps_collection_boxes", "spider:collection_time": "2023-11-25T08:23:32.202811"}, "geometry": {"coordinates": [-89.603869972, 40.746832519], "type": "Point"}, "id": "mN8a3OMTN7DLu4U0siMCinEIbHU=", "properties": {"@spider": "usps_collection_boxes", "addr:city": "PEORIA", "addr:country": "US", "addr:full": "715 W GLEN AVE", "addr:postcode": "61604", "addr:state": "IL", "amenity": "post_box", "brand": "United States Postal Service", "brand:wikidata": "Q668687", "collection_times": "Mo-Fr 17:00; Sa 05:00", "name": "USPS COLLECTION BOX - BLUE BOX", "note": "ON 12/24 AND 12/31, THIS BOX MAY BE COLLECTED AS EARLY AS 12 NOON.", "nsi_id": "unitedstatespostalservice-a77078", "operator": "United States Postal Service", "operator:short": "USPS", "operator:type": "public", "operator:wikidata": "Q668687", "ref": "6160400043"}, "type": "Feature"}
{"dataset_attributes": {"@spider": "usps_collection_boxes", "spider:collection_time": "2023-11-25T08:23:32.202811"}, "geometry": {"coordinates": [-89.603869972, 40.746832519], "type": "Point"}, "id": "panksj_Z4ZGAcXJnbLNWCeBoPAU=", "properties": {"@spider": "usps_collection_boxes", "addr:city": "PEORIA", "addr:country": "US", "addr:full": "715 W GLEN AVE", "addr:postcode": "61604", "addr:state": "IL", "amenity": "post_box", "brand": "United States Postal Service", "brand:wikidata": "Q668687", "collection_times": "Mo-Fr 17:00; Sa 05:00", "name": "USPS COLLECTION BOX - BLUE BOX", "note": "ON 12/24 AND 12/31, THIS BOX MAY BE COLLECTED AS EARLY AS 12 NOON.", "nsi_id": "unitedstatespostalservice-a77078", "operator": "United States Postal Service", "operator:short": "USPS", "operator:type": "public", "operator:wikidata": "Q668687", "ref": "6160400044"}, "type": "Feature"}
{"dataset_attributes": {"@spider": "usps_collection_boxes", "spider:collection_time": "2023-11-25T08:23:32.202811"}, "geometry": {"coordinates": [-89.6929341, 40.690645], "type": "Point"}, "id": "-XFrq8nW4SWY6LX6AmfRYPZwEr4=", "properties": {"@spider": "usps_collection_boxes", "addr:city": "PEORIA", "addr:country": "US", "addr:full": "6303 W DEVELOPMENT DR", "addr:postcode": "61604", "addr:state": "IL", "amenity": "post_box", "brand": "United States Postal Service", "brand:wikidata": "Q668687", "collection_times": "Mo-Fr 10:00", "name": "USPS COLLECTION BOX - BLUE BOX", "nsi_id": "unitedstatespostalservice-a77078", "operator": "United States Postal Service", "operator:short": "USPS", "operator:type": "public", "operator:wikidata": "Q668687", "ref": "6160400046"}, "type": "Feature"}
{"dataset_attributes": {"@spider": "usps_collection_boxes", "spider:collection_time": "2023-11-25T08:23:32.202811"}, "geometry": {"coordinates": [-89.603869972, 40.746832519], "type": "Point"}, "id": "2jq7DE36Uu0VQyYrS6IKr7TM04Q=", "properties": {"@spider": "usps_collection_boxes", "addr:city": "PEORIA", "addr:country": "US", "addr:full": "715 W GLEN AVE", "addr:postcode": "61604", "addr:state": "IL", "amenity": "post_box", "brand": "United States Postal Service", "brand:wikidata": "Q668687", "collection_times": "Mo-Fr 17:00; Sa 05:00", "name": "USPS COLLECTION BOX - PO LOBBY", "note": "ON 12/24 AND 12/31, THIS BOX MAY BE COLLECTED AS EARLY AS 12 NOON.", "nsi_id": "unitedstatespostalservice-a77078", "operator": "United States Postal Service", "operator:short": "USPS", "operator:type": "public", "operator:wikidata": "Q668687", "ref": "6160400049"}, "type": "Feature"}
{"dataset_attributes": {"@spider": "usps_collection_boxes", "spider:collection_time": "2023-11-25T08:23:32.202811"}, "geometry": {"coordinates": [-89.622593, 40.681412], "type": "Point"}, "id": "s6MSYU3ENrLKtCPoUOreZxaBLpc=", "properties": {"@spider": "usps_collection_boxes", "addr:city": "PEORIA", "addr:country": "US", "addr:full": "1823 W LINCOLN AVE", "addr:postcode": "61605", "addr:state": "IL", "amenity": "post_box", "brand": "United States Postal Service", "brand:wikidata": "Q668687", "collection_times": "Mo-Sa 10:00", "name": "USPS COLLECTION BOX - BLUE BOX", "nsi_id": "unitedstatespostalservice-a77078", "operator": "United States Postal Service", "operator:short": "USPS", "operator:type": "public", "operator:wikidata": "Q668687", "ref": "6160500005"}, "type": "Feature"}
{"dataset_attributes": {"@spider": "usps_collection_boxes", "spider:collection_time": "2023-11-25T08:23:32.202811"}, "geometry": {"coordinates": [-89.6330343, 40.666925], "type": "Point"}, "id": "h0RlKaFQ_q2SXo8gMQbPd8gp_PM=", "properties": {"@spider": "usps_collection_boxes", "addr:city": "PEORIA", "addr:country": "US", "addr:full": "1833 S GRISWOLD ST", "addr:postcode": "61605", "addr:state": "IL", "amenity": "post_box", "brand": "United States Postal Service", "brand:wikidata": "Q668687", "collection_times": "Mo-Sa 10:00", "name": "USPS COLLECTION BOX - BLUE BOX", "nsi_id": "unitedstatespostalservice-a77078", "operator": "United States Postal Service", "operator:short": "USPS", "operator:type": "public", "operator:wikidata": "Q668687", "ref": "6160500011"}, "type": "Feature"}
{"dataset_attributes": {"@spider": "usps_collection_boxes", "spider:collection_time": "2023-11-25T08:23:32.202811"}, "geometry": {"coordinates": [-89.6107079, 40.698758], "type": "Point"}, "id": "7Y_Qx5oFeLHksj2domhdU_ort10=", "properties": {"@spider": "usps_collection_boxes", "addr:city": "PEORIA", "addr:country": "US", "addr:full": "1200 W MAIN ST", "addr:postcode": "61606", "addr:state": "IL", "amenity": "post_box", "brand": "United States Postal Service", "brand:wikidata": "Q668687", "collection_times": "Mo-Sa 10:00", "name": "USPS COLLECTION BOX - BLUE BOX", "nsi_id": "unitedstatespostalservice-a77078", "operator": "United States Postal Service", "operator:short": "USPS", "operator:type": "public", "operator:wikidata": "Q668687", "ref": "6160600000"}, "type": "Feature"}
{"dataset_attributes": {"@spider": "usps_collection_boxes", "spider:collection_time": "2023-11-25T08:23:32.202811"}, "geometry": {"coordinates": [-89.6160917, 40.696316], "type": "Point"}, "id": "b_9Jxec-6Qkph4MBo_ehS5e7lkw=", "properties": {"@spider": "usps_collection_boxes", "addr:city": "PEORIA", "addr:country": "US", "addr:full": "617 N INSTITUTE PL", "addr:postcode": "61606", "addr:state": "IL", "amenity": "post_box", "brand": "United States Postal Service", "brand:wikidata": "Q668687", "collection_times": "Mo-Sa 10:00", "name": "USPS COLLECTION BOX - BLUE BOX", "nsi_id": "unitedstatespostalservice-a77078", "operator": "United States Postal Service", "operator:short": "USPS", "operator:type": "public", "operator:wikidata": "Q668687", "ref": "6160600004"}, "type": "Feature"}
{"dataset_attributes": {"@spider": "usps_collection_boxes", "spider:collection_time": "2023-11-25T08:23:32.202811"}, "geometry": {"coordinates": [-89.6178442, 40.692175], "type": "Point"}, "id": "1WthipOA5DUZ1js8e1Cue09YhOg=", "properties": {"@spider": "usps_collection_boxes", "addr:city": "PEORIA", "addr:country": "US", "addr:full": "402 N GLENWOOD AVE", "addr:postcode": "61606", "addr:state": "IL", "amenity": "post_box", "brand": "United States Postal Service", "brand:wikidata": "Q668687", "collection_times": "Mo-Fr 10:00", "name": "USPS COLLECTION BOX - BLUE BOX", "nsi_id": "unitedstatespostalservice-a77078", "operator": "United States Postal Service", "operator:short": "USPS", "operator:type": "public", "operator:wikidata": "Q668687", "ref": "6160600007"}, "type": "Feature"}
{"dataset_attributes": {"@spider": "usps_collection_boxes", "spider:collection_time": "2023-11-25T08:23:32.202811"}, "geometry": {"coordinates": [-89.6144988, 40.697551], "type": "Point"}, "id": "EC506hyyHW3mSUL0roZq92TsgY0=", "properties": {"@spider": "usps_collection_boxes", "addr:city": "PEORIA", "addr:country": "US", "addr:full": "830 N ELMWOOD AVE", "addr:postcode": "61606", "addr:state": "IL", "amenity": "post_box", "brand": "United States Postal Service", "brand:wikidata": "Q668687", "collection_times": "Mo-Sa 10:00", "name": "USPS COLLECTION BOX - BLUE BOX", "nsi_id": "unitedstatespostalservice-a77078", "operator": "United States Postal Service", "operator:short": "USPS", "operator:type": "public", "operator:wikidata": "Q668687", "ref": "6160600010"}, "type": "Feature"}
{"dataset_attributes": {"@spider": "usps_collection_boxes", "spider:collection_time": "2023-11-25T08:23:32.202811"}, "geometry": {"coordinates": [-89.6922747, 40.667077], "type": "Point"}, "id": "xine0fRoUoquapt6dO3oclUE1Cc=", "properties": {"@spider": "usps_collection_boxes", "addr:city": "BARTONVILLE", "addr:country": "US", "addr:full": "6100 W EVERETT M DIRKSEN PKWY", "addr:postcode": "61607", "addr:state": "IL", "amenity": "post_box", "brand": "United States Postal Service", "brand:wikidata": "Q668687", "collection_times": "Mo-Fr 10:00", "name": "USPS COLLECTION BOX - BLUE BOX", "nsi_id": "unitedstatespostalservice-a77078", "operator": "United States Postal Service", "operator:short": "USPS", "operator:type": "public", "operator:wikidata": "Q668687", "ref": "6160700015"}, "type": "Feature"}
{"dataset_attributes": {"@spider": "usps_collection_boxes", "spider:collection_time": "2023-11-25T08:23:32.202811"}, "geometry": {"coordinates": [-89.6618615631, 40.6459418415], "type": "Point"}, "id": "hgmtuvS5sNa5hb4n-hj14DiS970=", "properties": {"@spider": "usps_collection_boxes", "addr:city": "BARTONVILLE", "addr:country": "US", "addr:full": "5515 S ADAMS ST", "addr:postcode": "61607", "addr:state": "IL", "amenity": "post_box", "brand": "United States Postal Service", "brand:wikidata": "Q668687", "collection_times": "Mo-Fr 10:00", "name": "USPS COLLECTION BOX - BLUE BOX", "nsi_id": "unitedstatespostalservice-a77078", "operator": "United States Postal Service", "operator:short": "USPS", "operator:type": "public", "operator:wikidata": "Q668687", "ref": "6160700025"}, "type": "Feature"}
{"dataset_attributes": {"@spider": "usps_collection_boxes", "spider:collection_time": "2023-11-25T08:23:32.202811"}, "geometry": {"coordinates": [-89.6618615631, 40.6459418415], "type": "Point"}, "id": "NS184y3E4JjhovWruSiDtVWgBYg=", "properties": {"@spider": "usps_collection_boxes", "addr:city": "BARTONVILLE", "addr:country": "US", "addr:full": "1399 W GARFIELD AVE", "addr:postcode": "61607", "addr:state": "IL", "amenity": "post_box", "brand": "United States Postal Service", "brand:wikidata": "Q668687", "collection_times": "Mo-Fr 10:00", "name": "USPS COLLECTION BOX - BLUE BOX", "nsi_id": "unitedstatespostalservice-a77078", "operator": "United States Postal Service", "operator:short": "USPS", "operator:type": "public", "operator:wikidata": "Q668687", "ref": "6160700026"}, "type": "Feature"}
{"dataset_attributes": {"@spider": "usps_collection_boxes", "spider:collection_time": "2023-11-25T08:23:32.202811"}, "geometry": {"coordinates": [-89.651907311, 40.652800659], "type": "Point"}, "id": "fPa1bERvd7yq3el-6-lmXPxR__c=", "properties": {"@spider": "usps_collection_boxes", "addr:city": "BARTONVILLE", "addr:country": "US", "addr:full": "5814 S ADAMS ST", "addr:postcode": "61607", "addr:state": "IL", "amenity": "post_box", "brand": "United States Postal Service", "brand:wikidata": "Q668687", "collection_times": "Mo-Fr 17:00; Sa 12:00", "name": "USPS COLLECTION BOX - PO LOBBY", "note": "ON 12/24 AND 12/31, THIS BOX MAY BE COLLECTED AS EARLY AS 12 NOON.", "nsi_id": "unitedstatespostalservice-a77078", "operator": "United States Postal Service", "operator:short": "USPS", "operator:type": "public", "operator:wikidata": "Q668687", "ref": "6160700028"}, "type": "Feature"}
{"dataset_attributes": {"@spider": "usps_collection_boxes", "spider:collection_time": "2023-11-25T08:23:32.202811"}, "geometry": {"coordinates": [-89.5934, 40.646845], "type": "Point"}, "id": "aV1PD6Y8--btVKRyp3MaPa159Os=", "properties": {"@spider": "usps_collection_boxes", "addr:city": "CREVE COEUR", "addr:country": "US", "addr:full": "216 N MAIN ST", "addr:postcode": "61610", "addr:state": "IL", "amenity": "post_box", "brand": "United States Postal Service", "brand:wikidata": "Q668687", "collection_times": "Mo-Fr 10:00", "name": "USPS COLLECTION BOX - BLUE BOX", "nsi_id": "unitedstatespostalservice-a77078", "operator": "United States Postal Service", "operator:short": "USPS", "operator:type": "public", "operator:wikidata": "Q668687", "ref": "6161000001"}, "type": "Feature"}
{"dataset_attributes": {"@spider": "usps_collection_boxes", "spider:collection_time": "2023-11-25T08:23:32.202811"}, "geometry": {"coordinates": [-89.5404186, 40.69479], "type": "Point"}, "id": "vESpw8TU8bNkz9leUchqOZsrWCo=", "properties": {"@spider": "usps_collection_boxes", "addr:city": "SPRING BAY", "addr:country": "US", "addr:full": "2500 N MAIN ST", "addr:postcode": "61611", "addr:state": "IL", "amenity": "post_box", "brand": "United States Postal Service", "brand:wikidata": "Q668687", "collection_times": "Mo-Sa 10:00", "name": "USPS COLLECTION BOX - BLUE BOX", "nsi_id": "unitedstatespostalservice-a77078", "operator": "United States Postal Service", "operator:short": "USPS", "operator:type": "public", "operator:wikidata": "Q668687", "ref": "6161100013"}, "type": "Feature"}
{"dataset_attributes": {"@spider": "usps_collection_boxes", "spider:collection_time": "2023-11-25T08:23:32.202811"}, "geometry": {"coordinates": [-89.5379283, 40.674391], "type": "Point"}, "id": "6Rq_fVPgy84suyeg-Gtdju_1F3E=", "properties": {"@spider": "usps_collection_boxes", "addr:city": "SPRING BAY", "addr:country": "US", "addr:full": "2490 E WASHINGTON ST", "addr:postcode": "61611", "addr:state": "IL", "amenity": "post_box", "brand": "United States Postal Service", "brand:wikidata": "Q668687", "collection_times": "Mo-Sa 10:00", "name": "USPS COLLECTION BOX - BLUE BOX", "nsi_id": "unitedstatespostalservice-a77078", "operator": "United States Postal Service", "operator:short": "USPS", "operator:type": "public", "operator:wikidata": "Q668687", "ref": "6161100015"}, "type": "Feature"}
{"dataset_attributes": {"@spider": "usps_collection_boxes", "spider:collection_time": "2023-11-25T08:23:32.202811"}, "geometry": {"coordinates": [-89.5801323, 40.664582], "type": "Point"}, "id": "S0GouZvC7KCTOem2RX1BnZ0ImrA=", "properties": {"@spider": "usps_collection_boxes", "addr:city": "SPRING BAY", "addr:country": "US", "addr:full": "201 S MAIN ST", "addr:postcode": "61611", "addr:state": "IL", "amenity": "post_box", "brand": "United States Postal Service", "brand:wikidata": "Q668687", "collection_times": "Mo-Sa 10:00", "name": "USPS COLLECTION BOX - BLUE BOX", "nsi_id": "unitedstatespostalservice-a77078", "operator": "United States Postal Service", "operator:short": "USPS", "operator:type": "public", "operator:wikidata": "Q668687", "ref": "6161100022"}, "type": "Feature"}
{"dataset_attributes": {"@spider": "usps_collection_boxes", "spider:collection_time": "2023-11-25T08:23:32.202811"}, "geometry": {"coordinates": [-89.5325972, 40.689388], "type": "Point"}, "id": "JN_YLFguW6Z9jLk-kkxswopvmy8=", "properties": {"@spider": "usps_collection_boxes", "addr:city": "SPRING BAY", "addr:country": "US", "addr:full": "100 ILLINI DR", "addr:postcode": "61611", "addr:state": "IL", "amenity": "post_box", "brand": "United States Postal Service", "brand:wikidata": "Q668687", "collection_times": "Mo-Sa 10:00", "name": "USPS COLLECTION BOX - BLUE BOX", "nsi_id": "unitedstatespostalservice-a77078", "operator": "United States Postal Service", "operator:short": "USPS", "operator:type": "public", "operator:wikidata": "Q668687", "ref": "6161100038"}, "type": "Feature"}
{"dataset_attributes": {"@spider": "usps_collection_boxes", "spider:collection_time": "2023-11-25T08:23:32.202811"}, "geometry": {"coordinates": [-89.5221423, 40.821736], "type": "Point"}, "id": "YHqAKMeik8VFYR4u05SKcaaLOGo=", "properties": {"@spider": "usps_collection_boxes", "addr:city": "SPRING BAY", "addr:country": "US", "addr:full": "1605 N TREMONT ST", "addr:postcode": "61611", "addr:state": "IL", "amenity": "post_box", "brand": "United States Postal Service", "brand:wikidata": "Q668687", "collection_times": "Mo-Sa 09:30", "name": "USPS COLLECTION BOX - BLUE BOX", "nsi_id": "unitedstatespostalservice-a77078", "operator": "United States Postal Service", "operator:short": "USPS", "operator:type": "public", "operator:wikidata": "Q668687", "ref": "6161100039"}, "type": "Feature"}
{"dataset_attributes": {"@spider": "usps_collection_boxes", "spider:collection_time": "2023-11-25T08:23:32.202811"}, "geometry": {"coordinates": [-89.5731673, 40.663946], "type": "Point"}, "id": "1ErFpyHwXoPuFvv2Nnae-l4zMM4=", "properties": {"@spider": "usps_collection_boxes", "addr:city": "SPRING BAY", "addr:country": "US", "addr:full": "501 E WASHINGTON ST", "addr:postcode": "61611", "addr:state": "IL", "amenity": "post_box", "brand": "United States Postal Service", "brand:wikidata": "Q668687", "collection_times": "Mo-Sa 10:00", "name": "USPS COLLECTION BOX - BLUE BOX", "nsi_id": "unitedstatespostalservice-a77078", "operator": "United States Postal Service", "operator:short": "USPS", "operator:type": "public", "operator:wikidata": "Q668687", "ref": "6161100041"}, "type": "Feature"}
{"dataset_attributes": {"@spider": "usps_collection_boxes", "spider:collection_time": "2023-11-25T08:23:32.202811"}, "geometry": {"coordinates": [-89.574809156, 40.663782257], "type": "Point"}, "id": "HktIbCi6q31RAdJtwIMJcmLz96A=", "properties": {"@spider": "usps_collection_boxes", "addr:city": "SPRING BAY", "addr:country": "US", "addr:full": "401 E WASHINGTON ST", "addr:postcode": "61611", "addr:state": "IL", "amenity": "post_box", "brand": "United States Postal Service", "brand:wikidata": "Q668687", "collection_times": "Mo-Fr 17:00; Sa 12:00", "name": "USPS COLLECTION BOX - PO LOBBY", "note": "ON 12/24 AND 12/31, THIS BOX MAY BE COLLECTED AS EARLY AS 12 NOON.", "nsi_id": "unitedstatespostalservice-a77078", "operator": "United States Postal Service", "operator:short": "USPS", "operator:type": "public", "operator:wikidata": "Q668687", "ref": "6161100045"}, "type": "Feature"}
{"dataset_attributes": {"@spider": "usps_collection_boxes", "spider:collection_time": "2023-11-25T08:23:32.202811"}, "geometry": {"coordinates": [-89.574809156, 40.663782257], "type": "Point"}, "id": "SoJQtUng8_yXwDa1RuWf9LR_CDw=", "properties": {"@spider": "usps_collection_boxes", "addr:city": "SPRING BAY", "addr:country": "US", "addr:full": "401 E WASHINGTON ST", "addr:postcode": "61611", "addr:state": "IL", "amenity": "post_box", "brand": "United States Postal Service", "brand:wikidata": "Q668687", "collection_times": "Mo-Fr 17:00; Sa 12:00", "name": "USPS COLLECTION BOX - PO LOBBY", "note": "ON 12/24 AND 12/31, THIS BOX MAY BE COLLECTED AS EARLY AS 12 NOON.", "nsi_id": "unitedstatespostalservice-a77078", "operator": "United States Postal Service", "operator:short": "USPS", "operator:type": "public", "operator:wikidata": "Q668687", "ref": "6161100049"}, "type": "Feature"}
{"dataset_attributes": {"@spider": "usps_collection_boxes", "spider:collection_time": "2023-11-25T08:23:32.202811"}, "geometry": {"coordinates": [-89.6055409, 40.742707], "type": "Point"}, "id": "FZpUtpATpjnD9PipuMdcO9HTPtY=", "properties": {"@spider": "usps_collection_boxes", "addr:city": "PEORIA", "addr:country": "US", "addr:full": "801 W LAKE AVE", "addr:postcode": "61614", "addr:state": "IL", "amenity": "post_box", "brand": "United States Postal Service", "brand:wikidata": "Q668687", "collection_times": "Mo-Sa 09:00", "name": "USPS COLLECTION BOX - BLUE BOX", "nsi_id": "unitedstatespostalservice-a77078", "operator": "United States Postal Service", "operator:short": "USPS", "operator:type": "public", "operator:wikidata": "Q668687", "ref": "6161400002"}, "type": "Feature"}
{"dataset_attributes": {"@spider": "usps_collection_boxes", "spider:collection_time": "2023-11-25T08:23:32.202811"}, "geometry": {"coordinates": [-89.5971949, 40.752771], "type": "Point"}, "id": "NTVSSv6o6ZI8O-GPeuwSq1wJzas=", "properties": {"@spider": "usps_collection_boxes", "addr:city": "PEORIA", "addr:country": "US", "addr:full": "5409 N KNOXVILLE AVE", "addr:postcode": "61614", "addr:state": "IL", "amenity": "post_box", "brand": "United States Postal Service", "brand:wikidata": "Q668687", "collection_times": "Mo-Sa 09:00", "name": "USPS COLLECTION BOX - BLUE BOX", "nsi_id": "unitedstatespostalservice-a77078", "operator": "United States Postal Service", "operator:short": "USPS", "operator:type": "public", "operator:wikidata": "Q668687", "ref": "6161400008"}, "type": "Feature"}
{"dataset_attributes": {"@spider": "usps_collection_boxes", "spider:collection_time": "2023-11-25T08:23:32.202811"}, "geometry": {"coordinates": [-89.6047499, 40.737715], "type": "Point"}, "id": "wrJtPA7fO8oVSwQLtulQkW7pKoY=", "properties": {"@spider": "usps_collection_boxes", "addr:city": "PEORIA", "addr:country": "US", "addr:full": "4125 N SHERIDAN RD", "addr:postcode": "61614", "addr:state": "IL", "amenity": "post_box", "brand": "United States Postal Service", "brand:wikidata": "Q668687", "collection_times": "Mo-Sa 09:00", "name": "USPS COLLECTION BOX - BLUE BOX", "nsi_id": "unitedstatespostalservice-a77078", "operator": "United States Postal Service", "operator:short": "USPS", "operator:type": "public", "operator:wikidata": "Q668687", "ref": "6161400014"}, "type": "Feature"}
{"dataset_attributes": {"@spider": "usps_collection_boxes", "spider:collection_time": "2023-11-25T08:23:32.202811"}, "geometry": {"coordinates": [-89.5924873, 40.758564], "type": "Point"}, "id": "5T8EJ4va5foCojbR3ZR9-q_bvJA=", "properties": {"@spider": "usps_collection_boxes", "addr:city": "PEORIA", "addr:country": "US", "addr:full": "5901 N PROSPECT RD", "addr:postcode": "61614", "addr:state": "IL", "amenity": "post_box", "brand": "United States Postal Service", "brand:wikidata": "Q668687", "collection_times": "Mo-Fr 09:00; Sa 12:00", "name": "USPS COLLECTION BOX - BLUE BOX", "nsi_id": "unitedstatespostalservice-a77078", "operator": "United States Postal Service", "operator:short": "USPS", "operator:type": "public", "operator:wikidata": "Q668687", "ref": "6161400021"}, "type": "Feature"}
{"dataset_attributes": {"@spider": "usps_collection_boxes", "spider:collection_time": "2023-11-25T08:23:32.202811"}, "geometry": {"coordinates": [-89.6105188, 40.74613], "type": "Point"}, "id": "TkLm5StqZ4cu9SOZfWp6Wpgm4Jk=", "properties": {"@spider": "usps_collection_boxes", "addr:city": "PEORIA", "addr:country": "US", "addr:full": "4800 N UNIVERSITY ST", "addr:postcode": "61614", "addr:state": "IL", "amenity": "post_box", "brand": "United States Postal Service", "brand:wikidata": "Q668687", "collection_times": "Mo-Sa 10:00", "name": "USPS COLLECTION BOX - BLUE BOX", "nsi_id": "unitedstatespostalservice-a77078", "operator": "United States Postal Service", "operator:short": "USPS", "operator:type": "public", "operator:wikidata": "Q668687", "ref": "6161400029"}, "type": "Feature"}
{"dataset_attributes": {"@spider": "usps_collection_boxes", "spider:collection_time": "2023-11-25T08:23:32.202811"}, "geometry": {"coordinates": [-89.6315069, 40.775487], "type": "Point"}, "id": "31Lehl1oip2LDNhujJEa1NN9jv0=", "properties": {"@spider": "usps_collection_boxes", "addr:city": "PEORIA", "addr:country": "US", "addr:full": "7225 N ALLEN RD", "addr:postcode": "61614", "addr:state": "IL", "amenity": "post_box", "brand": "United States Postal Service", "brand:wikidata": "Q668687", "collection_times": "Mo-Sa 10:00", "name": "USPS COLLECTION BOX - BLUE BOX", "nsi_id": "unitedstatespostalservice-a77078", "operator": "United States Postal Service", "operator:short": "USPS", "operator:type": "public", "operator:wikidata": "Q668687", "ref": "6161400041"}, "type": "Feature"}
{"dataset_attributes": {"@spider": "usps_collection_boxes", "spider:collection_time": "2023-11-25T08:23:32.202811"}, "geometry": {"coordinates": [-89.5595305, 40.725152], "type": "Point"}, "id": "1shnuZswUNCZNallVk2V8i-P73I=", "properties": {"@spider": "usps_collection_boxes", "addr:city": "PEORIA", "addr:country": "US", "addr:full": "# 1 NEWS PLZ", "addr:postcode": "61614", "addr:state": "IL", "amenity": "post_box", "brand": "United States Postal Service", "brand:wikidata": "Q668687", "collection_times": "Mo-Sa 10:00", "name": "USPS COLLECTION BOX - BLUE BOX", "nsi_id": "unitedstatespostalservice-a77078", "operator": "United States Postal Service", "operator:short": "USPS", "operator:type": "public", "operator:wikidata": "Q668687", "ref": "6161400042"}, "type": "Feature"}
{"dataset_attributes": {"@spider": "usps_collection_boxes", "spider:collection_time": "2023-11-25T08:23:32.202811"}, "geometry": {"coordinates": [-89.612036904, 40.764452752], "type": "Point"}, "id": "Fnbv_WZUYKnbL8GeYicixx6UJaY=", "properties": {"@spider": "usps_collection_boxes", "addr:city": "PEORIA", "addr:country": "US", "addr:full": "6310 N UNIVERSITY ST", "addr:postcode": "61614", "addr:state": "IL", "amenity": "post_box", "brand": "United States Postal Service", "brand:wikidata": "Q668687", "collection_times": "Mo-Fr 17:00; Sa 15:00", "name": "USPS COLLECTION BOX - BLUE BOX", "note": "ON 12/24 AND 12/31, THIS BOX MAY BE COLLECTED AS EARLY AS 12 NOON.", "nsi_id": "unitedstatespostalservice-a77078", "operator": "United States Postal Service", "operator:short": "USPS", "operator:type": "public", "operator:wikidata": "Q668687", "ref": "6161400043"}, "type": "Feature"}
{"dataset_attributes": {"@spider": "usps_collection_boxes", "spider:collection_time": "2023-11-25T08:23:32.202811"}, "geometry": {"coordinates": [-89.6030199, 40.771543], "type": "Point"}, "id": "lV0Ifkt4uIu7xrWCGHcCzJzbrXE=", "properties": {"@spider": "usps_collection_boxes", "addr:city": "PEORIA", "addr:country": "US", "addr:full": "6907 N KNOXVILLE AVE", "addr:postcode": "61614", "addr:state": "IL", "amenity": "post_box", "brand": "United States Postal Service", "brand:wikidata": "Q668687", "collection_times": "Mo-Sa 09:30", "name": "USPS COLLECTION BOX - BLUE BOX", "nsi_id": "unitedstatespostalservice-a77078", "operator": "United States Postal Service", "operator:short": "USPS", "operator:type": "public", "operator:wikidata": "Q668687", "ref": "6161400047"}, "type": "Feature"}
{"dataset_attributes": {"@spider": "usps_collection_boxes", "spider:collection_time": "2023-11-25T08:23:32.202811"}, "geometry": {"coordinates": [-89.612036904, 40.764452752], "type": "Point"}, "id": "cJDxpmwgAxJZ6I0hBIIA6E7OxCo=", "properties": {"@spider": "usps_collection_boxes", "addr:city": "PEORIA", "addr:country": "US", "addr:full": "6310 N UNIVERSITY ST", "addr:postcode": "61614", "addr:state": "IL", "amenity": "post_box", "brand": "United States Postal Service", "brand:wikidata": "Q668687", "collection_times": "Mo-Sa 17:00", "name": "USPS COLLECTION BOX - BLUE BOX", "note": "ON 12/24 AND 12/31, THIS BOX MAY BE COLLECTED AS EARLY AS 12 NOON.", "nsi_id": "unitedstatespostalservice-a77078", "operator": "United States Postal Service", "operator:short": "USPS", "operator:type": "public", "operator:wikidata": "Q668687", "ref": "6161400058"}, "type": "Feature"}
{"dataset_attributes": {"@spider": "usps_collection_boxes", "spider:collection_time": "2023-11-25T08:23:32.202811"}, "geometry": {"coordinates": [-89.612036904, 40.764452752], "type": "Point"}, "id": "8YOUInY_vVLIJ5-v6nePqWWNWR0=", "properties": {"@spider": "usps_collection_boxes", "addr:city": "PEORIA", "addr:country": "US", "addr:full": "6310 N UNIVERSITY ST", "addr:postcode": "61614", "addr:state": "IL", "amenity": "post_box", "brand": "United States Postal Service", "brand:wikidata": "Q668687", "collection_times": "Mo-Sa 17:00", "name": "USPS COLLECTION BOX - BLUE BOX", "note": "ON 12/24 AND 12/31, THIS BOX MAY BE COLLECTED AS EARLY AS 12 NOON.", "nsi_id": "unitedstatespostalservice-a77078", "operator": "United States Postal Service", "operator:short": "USPS", "operator:type": "public", "operator:wikidata": "Q668687", "ref": "6161400069"}, "type": "Feature"}
{"dataset_attributes": {"@spider": "usps_collection_boxes", "spider:collection_time": "2023-11-25T08:23:32.202811"}, "geometry": {"coordinates": [-89.6186006, 40.749181], "type": "Point"}, "id": "tjVE6dP27Qpe5ju0DSAPOfAY25k=", "properties": {"@spider": "usps_collection_boxes", "addr:city": "PEORIA", "addr:country": "US", "addr:full": "5105 N GLEN PARK PLACE RD", "addr:postcode": "61614", "addr:state": "IL", "amenity": "post_box", "brand": "United States Postal Service", "brand:wikidata": "Q668687", "collection_times": "Mo-Sa 08:30", "name": "USPS COLLECTION BOX - BLUE BOX", "nsi_id": "unitedstatespostalservice-a77078", "operator": "United States Postal Service", "operator:short": "USPS", "operator:type": "public", "operator:wikidata": "Q668687", "ref": "6161400080"}, "type": "Feature"}
{"dataset_attributes": {"@spider": "usps_collection_boxes", "spider:collection_time": "2023-11-25T08:23:32.202811"}, "geometry": {"coordinates": [-89.598575, 40.738925], "type": "Point"}, "id": "TJD89uyUbuNDfhRFLDUpC7vEI6A=", "properties": {"@spider": "usps_collection_boxes", "addr:city": "PEORIA", "addr:country": "US", "addr:full": "4501 N WAR MEMORIAL DR", "addr:postcode": "61614", "addr:state": "IL", "amenity": "post_box", "brand": "United States Postal Service", "brand:wikidata": "Q668687", "collection_times": "Mo-Fr 10:00", "name": "USPS COLLECTION BOX - BLUE BOX", "nsi_id": "unitedstatespostalservice-a77078", "operator": "United States Postal Service", "operator:short": "USPS", "operator:type": "public", "operator:wikidata": "Q668687", "ref": "6161400081"}, "type": "Feature"}
{"dataset_attributes": {"@spider": "usps_collection_boxes", "spider:collection_time": "2023-11-25T08:23:32.202811"}, "geometry": {"coordinates": [-89.5751131, 40.746409], "type": "Point"}, "id": "dnyX8knGM7vym49bCZ8uWCrhiW0=", "properties": {"@spider": "usps_collection_boxes", "addr:city": "PEORIA", "addr:country": "US", "addr:full": "4901 N PROSPECT RD", "addr:postcode": "61614", "addr:state": "IL", "amenity": "post_box", "brand": "United States Postal Service", "brand:wikidata": "Q668687", "collection_times": "Mo-Sa 09:30", "name": "USPS COLLECTION BOX - BLUE BOX", "nsi_id": "unitedstatespostalservice-a77078", "operator": "United States Postal Service", "operator:short": "USPS", "operator:type": "public", "operator:wikidata": "Q668687", "ref": "6161400082"}, "type": "Feature"}
{"dataset_attributes": {"@spider": "usps_collection_boxes", "spider:collection_time": "2023-11-25T08:23:32.202811"}, "geometry": {"coordinates": [-89.6128109, 40.753585], "type": "Point"}, "id": "w3HmrvgnhDNMHcIPtXY1BmVTt9g=", "properties": {"@spider": "usps_collection_boxes", "addr:city": "PEORIA", "addr:country": "US", "addr:full": "5415 N UNIVERSITY ST", "addr:postcode": "61614", "addr:state": "IL", "amenity": "post_box", "brand": "United States Postal Service", "brand:wikidata": "Q668687", "collection_times": "Mo-Sa 10:00", "name": "USPS COLLECTION BOX - BLUE BOX", "nsi_id": "unitedstatespostalservice-a77078", "operator": "United States Postal Service", "operator:short": "USPS", "operator:type": "public", "operator:wikidata": "Q668687", "ref": "6161400096"}, "type": "Feature"}
{"dataset_attributes": {"@spider": "usps_collection_boxes", "spider:collection_time": "2023-11-25T08:23:32.202811"}, "geometry": {"coordinates": [-89.612036904, 40.764452752], "type": "Point"}, "id": "rUZ1q0NfVwOcOLHzQvvhrBF1S-c=", "properties": {"@spider": "usps_collection_boxes", "addr:city": "PEORIA", "addr:country": "US", "addr:full": "6310 N UNIVERSITY ST", "addr:postcode": "61614", "addr:state": "IL", "amenity": "post_box", "brand": "United States Postal Service", "brand:wikidata": "Q668687", "collection_times": "Mo-Fr 18:00; Sa 15:00", "name": "USPS COLLECTION BOX - PO LOBBY", "note": "ON 12/24 AND 12/31, THIS BOX MAY BE COLLECTED AS EARLY AS 12 NOON.", "nsi_id": "unitedstatespostalservice-a77078", "operator": "United States Postal Service", "operator:short": "USPS", "operator:type": "public", "operator:wikidata": "Q668687", "ref": "6161400098"}, "type": "Feature"}
{"dataset_attributes": {"@spider": "usps_collection_boxes", "spider:collection_time": "2023-11-25T08:23:32.202811"}, "geometry": {"coordinates": [-89.612036904, 40.764452752], "type": "Point"}, "id": "NjZWu6q2cfhVKsjitFJjmCipzvw=", "properties": {"@spider": "usps_collection_boxes", "addr:city": "PEORIA", "addr:country": "US", "addr:full": "6310 N UNIVERSITY ST", "addr:postcode": "61614", "addr:state": "IL", "amenity": "post_box", "brand": "United States Postal Service", "brand:wikidata": "Q668687", "collection_times": "Mo-Fr 18:00; Sa 15:00", "name": "USPS COLLECTION BOX - PO LOBBY", "note": "ON 12/24 AND 12/31, THIS BOX MAY BE COLLECTED AS EARLY AS 12 NOON.", "nsi_id": "unitedstatespostalservice-a77078", "operator": "United States Postal Service", "operator:short": "USPS", "operator:type": "public", "operator:wikidata": "Q668687", "ref": "6161400099"}, "type": "Feature"}
{"dataset_attributes": {"@spider": "usps_collection_boxes", "spider:collection_time": "2023-11-25T08:23:32.202811"}, "geometry": {"coordinates": [-89.612036904, 40.764452752], "type": "Point"}, "id": "qgxiLpjGbNtu9jJ6ZZJVWBY29NE=", "properties": {"@spider": "usps_collection_boxes", "addr:city": "PEORIA", "addr:country": "US", "addr:full": "6310 N UNIVERSITY ST", "addr:postcode": "61614", "addr:state": "IL", "amenity": "post_box", "brand": "United States Postal Service", "brand:wikidata": "Q668687", "collection_times": "Mo-Fr 17:00; Sa 15:00", "name": "USPS COLLECTION BOX - EXPRESS", "note": "ON 12/24 AND 12/31, THIS BOX MAY BE COLLECTED AS EARLY AS 12 NOON.", "nsi_id": "unitedstatespostalservice-a77078", "operator": "United States Postal Service", "operator:short": "USPS", "operator:type": "public", "operator:wikidata": "Q668687", "ref": "6161400102"}, "type": "Feature"}
{"dataset_attributes": {"@spider": "usps_collection_boxes", "spider:collection_time": "2023-11-25T08:23:32.202811"}, "geometry": {"coordinates": [-89.612036904, 40.764452752], "type": "Point"}, "id": "IYUdEMr03FK6bpm6i_YrUCT18VU=", "properties": {"@spider": "usps_collection_boxes", "addr:city": "PEORIA", "addr:country": "US", "addr:full": "6310 N UNIVERSITY ST", "addr:postcode": "61614", "addr:state": "IL", "amenity": "post_box", "brand": "United States Postal Service", "brand:wikidata": "Q668687", "collection_times": "Mo-Fr 18:00; Sa 15:00", "name": "USPS COLLECTION BOX - PO LOBBY", "note": "ON 12/24 AND 12/31, THIS BOX MAY BE COLLECTED AS EARLY AS 12 NOON.", "nsi_id": "unitedstatespostalservice-a77078", "operator": "United States Postal Service", "operator:short": "USPS", "operator:type": "public", "operator:wikidata": "Q668687", "ref": "6161400103"}, "type": "Feature"}
{"dataset_attributes": {"@spider": "usps_collection_boxes", "spider:collection_time": "2023-11-25T08:23:32.202811"}, "geometry": {"coordinates": [-89.612036904, 40.764452752], "type": "Point"}, "id": "VFPU9otiJt7VNJAV6QNJOcLt0bg=", "properties": {"@spider": "usps_collection_boxes", "addr:city": "PEORIA", "addr:country": "US", "addr:full": "6310 N UNIVERSITY ST", "addr:postcode": "61614", "addr:state": "IL", "amenity": "post_box", "brand": "United States Postal Service", "brand:wikidata": "Q668687", "collection_times": "Mo-Fr 18:00; Sa 15:00", "name": "USPS COLLECTION BOX - APC", "note": "ON 12/24 AND 12/31, THIS BOX MAY BE COLLECTED AS EARLY AS 12 NOON.", "nsi_id": "unitedstatespostalservice-a77078", "operator": "United States Postal Service", "operator:short": "USPS", "operator:type": "public", "operator:wikidata": "Q668687", "ref": "6161400104"}, "type": "Feature"}
{"dataset_attributes": {"@spider": "usps_collection_boxes", "spider:collection_time": "2023-11-25T08:23:32.202811"}, "geometry": {"coordinates": [-89.612036904, 40.764452752], "type": "Point"}, "id": "vnKqeucUnCKLlFgQt24mZHlxDg0=", "properties": {"@spider": "usps_collection_boxes", "addr:city": "PEORIA", "addr:country": "US", "addr:full": "6310 N UNIVERSITY ST", "addr:postcode": "61614", "addr:state": "IL", "amenity": "post_box", "brand": "United States Postal Service", "brand:wikidata": "Q668687", "collection_times": "Mo-Fr 18:00; Sa 15:00", "name": "USPS COLLECTION BOX - PO LOBBY", "note": "ON 12/24 AND 12/31, THIS BOX MAY BE COLLECTED AS EARLY AS 12 NOON.", "nsi_id": "unitedstatespostalservice-a77078", "operator": "United States Postal Service", "operator:short": "USPS", "operator:type": "public", "operator:wikidata": "Q668687", "ref": "6161400107"}, "type": "Feature"}
{"dataset_attributes": {"@spider": "usps_collection_boxes", "spider:collection_time": "2023-11-25T08:23:32.202811"}, "geometry": {"coordinates": [-89.6362316, 40.748272], "type": "Point"}, "id": "CcJx3a-VHbpLvDOhTkfTdm97u_U=", "properties": {"@spider": "usps_collection_boxes", "addr:city": "PEORIA", "addr:country": "US", "addr:full": "5001 N BIG HOLLOW RD", "addr:postcode": "61615", "addr:state": "IL", "amenity": "post_box", "brand": "United States Postal Service", "brand:wikidata": "Q668687", "collection_times": "Mo-Sa 10:00", "name": "USPS COLLECTION BOX - BLUE BOX", "nsi_id": "unitedstatespostalservice-a77078", "operator": "United States Postal Service", "operator:short": "USPS", "operator:type": "public", "operator:wikidata": "Q668687", "ref": "6161500003"}, "type": "Feature"}
{"dataset_attributes": {"@spider": "usps_collection_boxes", "spider:collection_time": "2023-11-25T08:23:32.202811"}, "geometry": {"coordinates": [-89.6323795, 40.733809], "type": "Point"}, "id": "-iQUctfDcjL-nKLLna2gTJrr6rc=", "properties": {"@spider": "usps_collection_boxes", "addr:city": "PEORIA", "addr:country": "US", "addr:full": "3805 N STERLING AVE", "addr:postcode": "61615", "addr:state": "IL", "amenity": "post_box", "brand": "United States Postal Service", "brand:wikidata": "Q668687", "collection_times": "Mo-Sa 10:00", "name": "USPS COLLECTION BOX - BLUE BOX", "nsi_id": "unitedstatespostalservice-a77078", "operator": "United States Postal Service", "operator:short": "USPS", "operator:type": "public", "operator:wikidata": "Q668687", "ref": "6161500005"}, "type": "Feature"}
{"dataset_attributes": {"@spider": "usps_collection_boxes", "spider:collection_time": "2023-11-25T08:23:32.202811"}, "geometry": {"coordinates": [-89.6329031, 40.742531], "type": "Point"}, "id": "ZNdMzoZux7s4vS97J7EGPZsNpUc=", "properties": {"@spider": "usps_collection_boxes", "addr:city": "PEORIA", "addr:country": "US", "addr:full": "4507 N STERLING AVE", "addr:postcode": "61615", "addr:state": "IL", "amenity": "post_box", "brand": "United States Postal Service", "brand:wikidata": "Q668687", "collection_times": "Mo-Fr 10:00", "name": "USPS COLLECTION BOX - BLUE BOX", "nsi_id": "unitedstatespostalservice-a77078", "operator": "United States Postal Service", "operator:short": "USPS", "operator:type": "public", "operator:wikidata": "Q668687", "ref": "6161500006"}, "type": "Feature"}
{"dataset_attributes": {"@spider": "usps_collection_boxes", "spider:collection_time": "2023-11-25T08:23:32.202811"}, "geometry": {"coordinates": [-89.6231449, 40.783186], "type": "Point"}, "id": "hRqoVUwwHJk6hp8NvhVSU0m1dDU=", "properties": {"@spider": "usps_collection_boxes", "addr:city": "PEORIA", "addr:country": "US", "addr:full": "2000 W PIONEER PKWY", "addr:postcode": "61615", "addr:state": "IL", "amenity": "post_box", "brand": "United States Postal Service", "brand:wikidata": "Q668687", "collection_times": "Mo-Sa 10:00", "name": "USPS COLLECTION BOX - BLUE BOX", "nsi_id": "unitedstatespostalservice-a77078", "operator": "United States Postal Service", "operator:short": "USPS", "operator:type": "public", "operator:wikidata": "Q668687", "ref": "6161500012"}, "type": "Feature"}
{"dataset_attributes": {"@spider": "usps_collection_boxes", "spider:collection_time": "2023-11-25T08:23:32.202811"}, "geometry": {"coordinates": [-89.6556038, 40.771556], "type": "Point"}, "id": "dwf7WhOiHWR5YaaXQ8xEQ7Htvdc=", "properties": {"@spider": "usps_collection_boxes", "addr:city": "PEORIA", "addr:country": "US", "addr:full": "4100 W WILLOW KNOLLS DR", "addr:postcode": "61615", "addr:state": "IL", "amenity": "post_box", "brand": "United States Postal Service", "brand:wikidata": "Q668687", "collection_times": "Mo-Sa 09:00", "name": "USPS COLLECTION BOX - BLUE BOX", "nsi_id": "unitedstatespostalservice-a77078", "operator": "United States Postal Service", "operator:short": "USPS", "operator:type": "public", "operator:wikidata": "Q668687", "ref": "6161500025"}, "type": "Feature"}
{"dataset_attributes": {"@spider": "usps_collection_boxes", "spider:collection_time": "2023-11-25T08:23:32.202811"}, "geometry": {"coordinates": [-89.6558199, 40.769865], "type": "Point"}, "id": "PwmAxYECO1L-Afs0Y0wSyIt-3o8=", "properties": {"@spider": "usps_collection_boxes", "addr:city": "PEORIA", "addr:country": "US", "addr:full": "3915 BARRING TRCE", "addr:postcode": "61615", "addr:state": "IL", "amenity": "post_box", "brand": "United States Postal Service", "brand:wikidata": "Q668687", "collection_times": "Mo-Sa 10:00", "name": "USPS COLLECTION BOX - BLUE BOX", "nsi_id": "unitedstatespostalservice-a77078", "operator": "United States Postal Service", "operator:short": "USPS", "operator:type": "public", "operator:wikidata": "Q668687", "ref": "6161500026"}, "type": "Feature"}
{"dataset_attributes": {"@spider": "usps_collection_boxes", "spider:collection_time": "2023-11-25T08:23:32.202811"}, "geometry": {"coordinates": [-89.611636041, 40.799617996], "type": "Point"}, "id": "d6wmu_PAepy1L7c3CnuI9wJVyms=", "properties": {"@spider": "usps_collection_boxes", "addr:city": "PEORIA", "addr:country": "US", "addr:full": "9219 N LINDBERGH DR", "addr:postcode": "61615", "addr:state": "IL", "amenity": "post_box", "brand": "United States Postal Service", "brand:wikidata": "Q668687", "collection_times": "Mo-Sa 10:00", "name": "USPS COLLECTION BOX - BLUE BOX", "nsi_id": "unitedstatespostalservice-a77078", "operator": "United States Postal Service", "operator:short": "USPS", "operator:type": "public", "operator:wikidata": "Q668687", "ref": "6161500027"}, "type": "Feature"}
