{"dataset_attributes": {"@spider": "usps_collection_boxes"}, "geometry": {"coordinates": [-89.2302946, 40.260218], "type": "Point"}, "id": "J-yGFySfoKzRmmijfcRU81gb0F4=", "properties": {"@spider": "usps_collection_boxes", "addr:city": "ATLANTA", "addr:country": "US", "addr:full": "330 SE VINE ST", "addr:postcode": "61723", "addr:state": "IL", "amenity": "post_box", "brand": "United States Postal Service", "brand:wikidata": "Q668687", "collection_times": "Mo-Fr 16:00; Sa 11:00", "name": "USPS COLLECTION BOX - BLUE BOX", "note": "ON 12/24 AND 12/31, THIS BOX MAY BE COLLECTED AS EARLY AS 12 NOON.", "nsi_id": "unitedstatespostalservice-a77078", "operator": "United States Postal Service", "operator:short": "USPS", "operator:type": "public", "operator:wikidata": "Q668687", "ref": "6172300000"}, "type": "Feature"}
{"dataset_attributes": {"@spider": "usps_collection_boxes"}, "geometry": {"coordinates": [-89.230368281, 40.260403643], "type": "Point"}, "id": "oiztINAotSZG0qWMrN-x02LX72U=", "properties": {"@spider": "usps_collection_boxes", "addr:city": "ATLANTA", "addr:country": "US", "addr:full": "100 SW CHURCH ST", "addr:postcode": "61723", "addr:state": "IL", "amenity": "post_box", "brand": "United States Postal Service", "brand:wikidata": "Q668687", "collection_times": "Mo-Fr 16:00; Sa 11:00", "name": "USPS COLLECTION BOX - PO LOBBY", "note": "ON 12/24 AND 12/31, THIS BOX MAY BE COLLECTED AS EARLY AS 12 NOON.", "nsi_id": "unitedstatespostalservice-a77078", "operator": "United States Postal Service", "operator:short": "USPS", "operator:type": "public", "operator:wikidata": "Q668687", "ref": "6172300002"}, "type": "Feature"}
{"dataset_attributes": {"@spider": "usps_collection_boxes"}, "geometry": {"coordinates": [-89.230368281, 40.260403643], "type": "Point"}, "id": "Jr0GWOOZi_4uP3T0ts9F3eiJsG8=", "properties": {"@spider": "usps_collection_boxes", "addr:city": "ATLANTA", "addr:country": "US", "addr:full": "100 SW CHURCH ST", "addr:postcode": "61723", "addr:state": "IL", "amenity": "post_box", "brand": "United States Postal Service", "brand:wikidata": "Q668687", "collection_times": "Mo-Fr 16:30; Sa 11:00", "name": "USPS COLLECTION BOX - PO LOBBY", "note": "ON 12/24 AND 12/31, THIS BOX MAY BE COLLECTED AS EARLY AS 12 NOON.", "nsi_id": "unitedstatespostalservice-a77078", "operator": "United States Postal Service", "operator:short": "USPS", "operator:type": "public", "operator:wikidata": "Q668687", "ref": "6172300003"}, "type": "Feature"}
{"dataset_attributes": {"@spider": "usps_collection_boxes"}, "geometry": {"coordinates": [-88.525690875, 40.341971511], "type": "Point"}, "id": "JtslYSP-Wewjz_23xptoJKT2qsY=", "properties": {"@spider": "usps_collection_boxes", "addr:city": "BELLFLOWER", "addr:country": "US", "addr:full": "204 N LATCHA ST", "addr:postcode": "61724", "addr:state": "IL", "amenity": "post_box", "brand": "United States Postal Service", "brand:wikidata": "Q668687", "collection_times": "Mo-Fr 16:00; Sa 10:45", "name": "USPS COLLECTION BOX - BLUE BOX", "note": "ON 12/24 AND 12/31, THIS BOX MAY BE COLLECTED AS EARLY AS 12 NOON.", "nsi_id": "unitedstatespostalservice-a77078", "operator": "United States Postal Service", "operator:short": "USPS", "operator:type": "public", "operator:wikidata": "Q668687", "ref": "6172400000"}, "type": "Feature"}
{"dataset_attributes": {"@spider": "usps_collection_boxes"}, "geometry": {"coordinates": [-88.525690875, 40.341971511], "type": "Point"}, "id": "F86diVa3kVJGfp-iDcfWOanF0FQ=", "properties": {"@spider": "usps_collection_boxes", "addr:city": "BELLFLOWER", "addr:country": "US", "addr:full": "204 N LATCHA ST", "addr:postcode": "61724", "addr:state": "IL", "amenity": "post_box", "brand": "United States Postal Service", "brand:wikidata": "Q668687", "collection_times": "Mo-Fr 17:00; Sa 10:45", "name": "USPS COLLECTION BOX - PO LOBBY", "note": "ON 12/24 AND 12/31, THIS BOX MAY BE COLLECTED AS EARLY AS 12 NOON.", "nsi_id": "unitedstatespostalservice-a77078", "operator": "United States Postal Service", "operator:short": "USPS", "operator:type": "public", "operator:wikidata": "Q668687", "ref": "6172400001"}, "type": "Feature"}
{"dataset_attributes": {"@spider": "usps_collection_boxes"}, "geometry": {"coordinates": [-88.525690875, 40.341971511], "type": "Point"}, "id": "-useslLX-5Q9OYGNa3Rf-Y-s08I=", "properties": {"@spider": "usps_collection_boxes", "addr:city": "BELLFLOWER", "addr:country": "US", "addr:full": "204 N LATCHA ST", "addr:postcode": "61724", "addr:state": "IL", "amenity": "post_box", "brand": "United States Postal Service", "brand:wikidata": "Q668687", "collection_times": "Mo-Fr 17:00; Sa 10:45", "name": "USPS COLLECTION BOX - PO LOBBY", "note": "ON 12/24 AND 12/31, THIS BOX MAY BE COLLECTED AS EARLY AS 12 NOON.", "nsi_id": "unitedstatespostalservice-a77078", "operator": "United States Postal Service", "operator:short": "USPS", "operator:type": "public", "operator:wikidata": "Q668687", "ref": "6172400002"}, "type": "Feature"}
{"dataset_attributes": {"@spider": "usps_collection_boxes"}, "geometry": {"coordinates": [-88.961777416, 40.152933356], "type": "Point"}, "id": "QX7BFLgGEx4VxFba4Y-UkCeyoFw=", "properties": {"@spider": "usps_collection_boxes", "addr:city": "CLINTON", "addr:country": "US", "addr:full": "105 N QUINCY ST", "addr:postcode": "61727", "addr:state": "IL", "amenity": "post_box", "brand": "United States Postal Service", "brand:wikidata": "Q668687", "collection_times": "Mo-Fr 17:15; Sa 14:00", "name": "USPS COLLECTION BOX - BLUE BOX", "note": "ON 12/24 AND 12/31, THIS BOX MAY BE COLLECTED AS EARLY AS 12 NOON.", "nsi_id": "unitedstatespostalservice-a77078", "operator": "United States Postal Service", "operator:short": "USPS", "operator:type": "public", "operator:wikidata": "Q668687", "ref": "6172700001"}, "type": "Feature"}
{"dataset_attributes": {"@spider": "usps_collection_boxes"}, "geometry": {"coordinates": [-88.961777416, 40.152933356], "type": "Point"}, "id": "SFW35uCnq7jPnuP5lHo7VpNnfAY=", "properties": {"@spider": "usps_collection_boxes", "addr:city": "CLINTON", "addr:country": "US", "addr:full": "105 N QUINCY ST", "addr:postcode": "61727", "addr:state": "IL", "amenity": "post_box", "brand": "United States Postal Service", "brand:wikidata": "Q668687", "collection_times": "Mo-Fr 17:15; Sa 14:00", "name": "USPS COLLECTION BOX - EXPRESS", "note": "ON 12/24 AND 12/31, THIS BOX MAY BE COLLECTED AS EARLY AS 12 NOON.", "nsi_id": "unitedstatespostalservice-a77078", "operator": "United States Postal Service", "operator:short": "USPS", "operator:type": "public", "operator:wikidata": "Q668687", "ref": "6172700002"}, "type": "Feature"}
{"dataset_attributes": {"@spider": "usps_collection_boxes"}, "geometry": {"coordinates": [-88.961777416, 40.152933356], "type": "Point"}, "id": "o6EijBu2EfZZw88NE5oTZJganJo=", "properties": {"@spider": "usps_collection_boxes", "addr:city": "CLINTON", "addr:country": "US", "addr:full": "105 N QUINCY ST", "addr:postcode": "61727", "addr:state": "IL", "amenity": "post_box", "brand": "United States Postal Service", "brand:wikidata": "Q668687", "collection_times": "Mo-Fr 17:15; Sa 14:00", "name": "USPS COLLECTION BOX - BLUE BOX", "note": "ON 12/24 AND 12/31, THIS BOX MAY BE COLLECTED AS EARLY AS 12 NOON.", "nsi_id": "unitedstatespostalservice-a77078", "operator": "United States Postal Service", "operator:short": "USPS", "operator:type": "public", "operator:wikidata": "Q668687", "ref": "6172700003"}, "type": "Feature"}
{"dataset_attributes": {"@spider": "usps_collection_boxes"}, "geometry": {"coordinates": [-88.95848202, 40.147251999], "type": "Point"}, "id": "WNGHwP9ugken7RnE0iKWbD_Yb8M=", "properties": {"@spider": "usps_collection_boxes", "addr:city": "CLINTON", "addr:country": "US", "addr:full": "220 E VAN BUREN ST", "addr:postcode": "61727", "addr:state": "IL", "amenity": "post_box", "brand": "United States Postal Service", "brand:wikidata": "Q668687", "collection_times": "Mo-Sa 07:00", "name": "USPS COLLECTION BOX - BLUE BOX", "nsi_id": "unitedstatespostalservice-a77078", "operator": "United States Postal Service", "operator:short": "USPS", "operator:type": "public", "operator:wikidata": "Q668687", "ref": "6172700011"}, "type": "Feature"}
{"dataset_attributes": {"@spider": "usps_collection_boxes"}, "geometry": {"coordinates": [-88.9600103, 40.152301], "type": "Point"}, "id": "_-TGLuuRxiFKsXcxRogYDkDr7HQ=", "properties": {"@spider": "usps_collection_boxes", "addr:city": "CLINTON", "addr:country": "US", "addr:full": "205 E SIDE SQ", "addr:postcode": "61727", "addr:state": "IL", "amenity": "post_box", "brand": "United States Postal Service", "brand:wikidata": "Q668687", "collection_times": "Mo-Sa 08:00", "name": "USPS COLLECTION BOX - BLUE BOX", "nsi_id": "unitedstatespostalservice-a77078", "operator": "United States Postal Service", "operator:short": "USPS", "operator:type": "public", "operator:wikidata": "Q668687", "ref": "6172700013"}, "type": "Feature"}
{"dataset_attributes": {"@spider": "usps_collection_boxes"}, "geometry": {"coordinates": [-88.9611373, 40.152225], "type": "Point"}, "id": "wotU8IYn6F-tYOf808LYJ4E9mFU=", "properties": {"@spider": "usps_collection_boxes", "addr:city": "CLINTON", "addr:country": "US", "addr:full": "500 W SIDE SQ", "addr:postcode": "61727", "addr:state": "IL", "amenity": "post_box", "brand": "United States Postal Service", "brand:wikidata": "Q668687", "collection_times": "Mo-Sa 08:00", "name": "USPS COLLECTION BOX - BLUE BOX", "nsi_id": "unitedstatespostalservice-a77078", "operator": "United States Postal Service", "operator:short": "USPS", "operator:type": "public", "operator:wikidata": "Q668687", "ref": "6172700014"}, "type": "Feature"}
{"dataset_attributes": {"@spider": "usps_collection_boxes"}, "geometry": {"coordinates": [-88.961777416, 40.152933356], "type": "Point"}, "id": "dMmunQVSAySR9u_XLzHyOqHlrfI=", "properties": {"@spider": "usps_collection_boxes", "addr:city": "CLINTON", "addr:country": "US", "addr:full": "105 N QUINCY ST", "addr:postcode": "61727", "addr:state": "IL", "amenity": "post_box", "brand": "United States Postal Service", "brand:wikidata": "Q668687", "collection_times": "Mo-Fr 17:00; Sa 12:30", "name": "USPS COLLECTION BOX - PO LOBBY", "note": "ON 12/24 AND 12/31, THIS BOX MAY BE COLLECTED AS EARLY AS 12 NOON.", "nsi_id": "unitedstatespostalservice-a77078", "operator": "United States Postal Service", "operator:short": "USPS", "operator:type": "public", "operator:wikidata": "Q668687", "ref": "6172700015"}, "type": "Feature"}
{"dataset_attributes": {"@spider": "usps_collection_boxes"}, "geometry": {"coordinates": [-88.961777416, 40.152933356], "type": "Point"}, "id": "yF6wLJR-9nbp49pdULWqpZLSWR0=", "properties": {"@spider": "usps_collection_boxes", "addr:city": "CLINTON", "addr:country": "US", "addr:full": "105 N QUINCY ST", "addr:postcode": "61727", "addr:state": "IL", "amenity": "post_box", "brand": "United States Postal Service", "brand:wikidata": "Q668687", "collection_times": "Mo-Fr 17:00; Sa 12:30", "name": "USPS COLLECTION BOX - PO LOBBY", "note": "ON 12/24 AND 12/31, THIS BOX MAY BE COLLECTED AS EARLY AS 12 NOON.", "nsi_id": "unitedstatespostalservice-a77078", "operator": "United States Postal Service", "operator:short": "USPS", "operator:type": "public", "operator:wikidata": "Q668687", "ref": "6172700023"}, "type": "Feature"}
{"dataset_attributes": {"@spider": "usps_collection_boxes"}, "geometry": {"coordinates": [-89.546400555, 40.371400521], "type": "Point"}, "id": "Sv4YqJcGq3uISAqpkUpDa6CEWB8=", "properties": {"@spider": "usps_collection_boxes", "addr:city": "DELAVAN", "addr:country": "US", "addr:full": "114 E 5TH ST", "addr:postcode": "61734", "addr:state": "IL", "amenity": "post_box", "brand": "United States Postal Service", "brand:wikidata": "Q668687", "collection_times": "Mo-Fr 16:30; Sa 11:00", "name": "USPS COLLECTION BOX - BLUE BOX", "note": "ON 12/24 AND 12/31, THIS BOX MAY BE COLLECTED AS EARLY AS 12 NOON.", "nsi_id": "unitedstatespostalservice-a77078", "operator": "United States Postal Service", "operator:short": "USPS", "operator:type": "public", "operator:wikidata": "Q668687", "ref": "6173400001"}, "type": "Feature"}
{"dataset_attributes": {"@spider": "usps_collection_boxes"}, "geometry": {"coordinates": [-89.546400555, 40.371400521], "type": "Point"}, "id": "Lj-0UKOYcm-uoV6lw3t9M77LyLY=", "properties": {"@spider": "usps_collection_boxes", "addr:city": "DELAVAN", "addr:country": "US", "addr:full": "114 E 5TH ST", "addr:postcode": "61734", "addr:state": "IL", "amenity": "post_box", "brand": "United States Postal Service", "brand:wikidata": "Q668687", "collection_times": "Mo-Fr 16:45; Sa 11:00", "name": "USPS COLLECTION BOX - PO LOBBY", "note": "ON 12/24 AND 12/31, THIS BOX MAY BE COLLECTED AS EARLY AS 12 NOON.", "nsi_id": "unitedstatespostalservice-a77078", "operator": "United States Postal Service", "operator:short": "USPS", "operator:type": "public", "operator:wikidata": "Q668687", "ref": "6173400002"}, "type": "Feature"}
{"dataset_attributes": {"@spider": "usps_collection_boxes"}, "geometry": {"coordinates": [-89.546400555, 40.371400521], "type": "Point"}, "id": "fABF7pyo5TIw4rvj7aVJmmlYSpo=", "properties": {"@spider": "usps_collection_boxes", "addr:city": "DELAVAN", "addr:country": "US", "addr:full": "114 E 5TH ST", "addr:postcode": "61734", "addr:state": "IL", "amenity": "post_box", "brand": "United States Postal Service", "brand:wikidata": "Q668687", "collection_times": "Mo-Fr 16:30; Sa 11:00", "name": "USPS COLLECTION BOX - PO LOBBY", "note": "ON 12/24 AND 12/31, THIS BOX MAY BE COLLECTED AS EARLY AS 12 NOON.", "nsi_id": "unitedstatespostalservice-a77078", "operator": "United States Postal Service", "operator:short": "USPS", "operator:type": "public", "operator:wikidata": "Q668687", "ref": "6173400003"}, "type": "Feature"}
{"dataset_attributes": {"@spider": "usps_collection_boxes"}, "geometry": {"coordinates": [-88.786965959, 40.179762], "type": "Point"}, "id": "mB2w1cfUrpD8rNlmveevtOymFh4=", "properties": {"@spider": "usps_collection_boxes", "addr:city": "DEWITT", "addr:country": "US", "addr:full": "1005 CHICAGO ST", "addr:postcode": "61735", "addr:state": "IL", "amenity": "post_box", "brand": "United States Postal Service", "brand:wikidata": "Q668687", "collection_times": "Mo-Fr 15:30; Sa 13:00", "name": "USPS COLLECTION BOX - BLUE BOX", "note": "ON 12/24 AND 12/31, THIS BOX MAY BE COLLECTED AS EARLY AS 12 NOON.", "nsi_id": "unitedstatespostalservice-a77078", "operator": "United States Postal Service", "operator:short": "USPS", "operator:type": "public", "operator:wikidata": "Q668687", "ref": "6173500000"}, "type": "Feature"}
{"dataset_attributes": {"@spider": "usps_collection_boxes"}, "geometry": {"coordinates": [-88.786965959, 40.179762], "type": "Point"}, "id": "e4CfPh0hbU2zDcONB0b0pYxlVzk=", "properties": {"@spider": "usps_collection_boxes", "addr:city": "DEWITT", "addr:country": "US", "addr:full": "1005 CHICAGO ST", "addr:postcode": "61735", "addr:state": "IL", "amenity": "post_box", "brand": "United States Postal Service", "brand:wikidata": "Q668687", "collection_times": "Mo-Fr 15:30; Sa 13:00", "name": "USPS COLLECTION BOX - PO LOBBY", "note": "ON 12/24 AND 12/31, THIS BOX MAY BE COLLECTED AS EARLY AS 12 NOON.", "nsi_id": "unitedstatespostalservice-a77078", "operator": "United States Postal Service", "operator:short": "USPS", "operator:type": "public", "operator:wikidata": "Q668687", "ref": "6173500001"}, "type": "Feature"}
{"dataset_attributes": {"@spider": "usps_collection_boxes"}, "geometry": {"coordinates": [-88.786965959, 40.179762], "type": "Point"}, "id": "li-pa4kWhFOS6-1kLZ1hYnl_PA8=", "properties": {"@spider": "usps_collection_boxes", "addr:city": "DEWITT", "addr:country": "US", "addr:full": "1005 CHICAGO ST", "addr:postcode": "61735", "addr:state": "IL", "amenity": "post_box", "brand": "United States Postal Service", "brand:wikidata": "Q668687", "collection_times": "Mo-Fr 15:30; Sa 13:00", "name": "USPS COLLECTION BOX - PO LOBBY", "note": "ON 12/24 AND 12/31, THIS BOX MAY BE COLLECTED AS EARLY AS 12 NOON.", "nsi_id": "unitedstatespostalservice-a77078", "operator": "United States Postal Service", "operator:short": "USPS", "operator:type": "public", "operator:wikidata": "Q668687", "ref": "6173500002"}, "type": "Feature"}
{"dataset_attributes": {"@spider": "usps_collection_boxes"}, "geometry": {"coordinates": [-89.085647595, 40.097619], "type": "Point"}, "id": "Mb5jXk_7I3LsAtXkhbHowd7Nl-Y=", "properties": {"@spider": "usps_collection_boxes", "addr:city": "KENNEY", "addr:country": "US", "addr:full": "208 S JOHNSTON ST", "addr:postcode": "61749", "addr:state": "IL", "amenity": "post_box", "brand": "United States Postal Service", "brand:wikidata": "Q668687", "collection_times": "Mo-Fr 16:30; Sa 10:00", "name": "USPS COLLECTION BOX - BLUE BOX", "note": "ON 12/24 AND 12/31, THIS BOX MAY BE COLLECTED AS EARLY AS 12 NOON.", "nsi_id": "unitedstatespostalservice-a77078", "operator": "United States Postal Service", "operator:short": "USPS", "operator:type": "public", "operator:wikidata": "Q668687", "ref": "6174900001"}, "type": "Feature"}
{"dataset_attributes": {"@spider": "usps_collection_boxes"}, "geometry": {"coordinates": [-89.085647595, 40.097619], "type": "Point"}, "id": "I011Z40m40n4i3ljKhx9Too6wZY=", "properties": {"@spider": "usps_collection_boxes", "addr:city": "KENNEY", "addr:country": "US", "addr:full": "208 S JOHNSTON ST", "addr:postcode": "61749", "addr:state": "IL", "amenity": "post_box", "brand": "United States Postal Service", "brand:wikidata": "Q668687", "collection_times": "Mo-Fr 16:30; Sa 10:00", "name": "USPS COLLECTION BOX - PO LOBBY", "note": "ON 12/24 AND 12/31, THIS BOX MAY BE COLLECTED AS EARLY AS 12 NOON.", "nsi_id": "unitedstatespostalservice-a77078", "operator": "United States Postal Service", "operator:short": "USPS", "operator:type": "public", "operator:wikidata": "Q668687", "ref": "6174900002"}, "type": "Feature"}
{"dataset_attributes": {"@spider": "usps_collection_boxes"}, "geometry": {"coordinates": [-89.085647595, 40.097619], "type": "Point"}, "id": "cAvlzwZz0_4TxQTzllvpuNCpreU=", "properties": {"@spider": "usps_collection_boxes", "addr:city": "KENNEY", "addr:country": "US", "addr:full": "208 S JOHNSTON ST", "addr:postcode": "61749", "addr:state": "IL", "amenity": "post_box", "brand": "United States Postal Service", "brand:wikidata": "Q668687", "collection_times": "Mo-Fr 16:30; Sa 13:30", "name": "USPS COLLECTION BOX - PO LOBBY", "note": "ON 12/24 AND 12/31, THIS BOX MAY BE COLLECTED AS EARLY AS 12 NOON.", "nsi_id": "unitedstatespostalservice-a77078", "operator": "United States Postal Service", "operator:short": "USPS", "operator:type": "public", "operator:wikidata": "Q668687", "ref": "6174900003"}, "type": "Feature"}
{"dataset_attributes": {"@spider": "usps_collection_boxes"}, "geometry": {"coordinates": [-89.284774, 40.216112], "type": "Point"}, "id": "aUvvvq3kR3kRH52KTeMrmYY-fYo=", "properties": {"@spider": "usps_collection_boxes", "addr:city": "LAWNDALE", "addr:country": "US", "addr:full": "10 S LINCOLN ST", "addr:postcode": "61751", "addr:state": "IL", "amenity": "post_box", "brand": "United States Postal Service", "brand:wikidata": "Q668687", "collection_times": "Mo-Fr 08:15; Sa 09:00", "name": "USPS COLLECTION BOX - BLUE BOX", "nsi_id": "unitedstatespostalservice-a77078", "operator": "United States Postal Service", "operator:short": "USPS", "operator:type": "public", "operator:wikidata": "Q668687", "ref": "6175100000"}, "type": "Feature"}
{"dataset_attributes": {"@spider": "usps_collection_boxes"}, "geometry": {"coordinates": [-89.284736, 40.21603], "type": "Point"}, "id": "jV97Tgac_00K5sZp1J7H2tuLJmI=", "properties": {"@spider": "usps_collection_boxes", "addr:city": "LAWNDALE", "addr:country": "US", "addr:full": "10 S LINCOLN ST", "addr:postcode": "61751", "addr:state": "IL", "amenity": "post_box", "brand": "United States Postal Service", "brand:wikidata": "Q668687", "collection_times": "Mo-Fr 08:15; Sa 09:00", "name": "USPS COLLECTION BOX - PO LOBBY", "nsi_id": "unitedstatespostalservice-a77078", "operator": "United States Postal Service", "operator:short": "USPS", "operator:type": "public", "operator:wikidata": "Q668687", "ref": "6175100001"}, "type": "Feature"}
{"dataset_attributes": {"@spider": "usps_collection_boxes"}, "geometry": {"coordinates": [-89.2847804364, 40.2161539267], "type": "Point"}, "id": "uaOXhXP51lAv1PENpFHmjfcj7Hc=", "properties": {"@spider": "usps_collection_boxes", "addr:city": "LAWNDALE", "addr:country": "US", "addr:full": "10 S LINCOLN ST", "addr:postcode": "61751", "addr:state": "IL", "amenity": "post_box", "brand": "United States Postal Service", "brand:wikidata": "Q668687", "collection_times": "Mo-Fr 08:15; Sa 09:00", "name": "USPS COLLECTION BOX - PO LOBBY", "nsi_id": "unitedstatespostalservice-a77078", "operator": "United States Postal Service", "operator:short": "USPS", "operator:type": "public", "operator:wikidata": "Q668687", "ref": "6175100003"}, "type": "Feature"}
{"dataset_attributes": {"@spider": "usps_collection_boxes"}, "geometry": {"coordinates": [-88.953941, 40.036459], "type": "Point"}, "id": "8inE6y2y3_S2S06EJZrpYZUSCjc=", "properties": {"@spider": "usps_collection_boxes", "addr:city": "MAROA", "addr:country": "US", "addr:full": "200 E MAIN ST", "addr:postcode": "61756", "addr:state": "IL", "amenity": "post_box", "brand": "United States Postal Service", "brand:wikidata": "Q668687", "collection_times": "Mo-Fr 16:30; Sa 10:00", "name": "USPS COLLECTION BOX - BLUE BOX", "note": "ON 12/24 AND 12/31, THIS BOX MAY BE COLLECTED AS EARLY AS 12 NOON.", "nsi_id": "unitedstatespostalservice-a77078", "operator": "United States Postal Service", "operator:short": "USPS", "operator:type": "public", "operator:wikidata": "Q668687", "ref": "6175600000"}, "type": "Feature"}
{"dataset_attributes": {"@spider": "usps_collection_boxes"}, "geometry": {"coordinates": [-88.953941, 40.036459], "type": "Point"}, "id": "jA86yFKGLIYAuWDlIUxEtS3GElE=", "properties": {"@spider": "usps_collection_boxes", "addr:city": "MAROA", "addr:country": "US", "addr:full": "200 E MAIN ST", "addr:postcode": "61756", "addr:state": "IL", "amenity": "post_box", "brand": "United States Postal Service", "brand:wikidata": "Q668687", "collection_times": "Mo-Fr 16:30; Sa 10:00", "name": "USPS COLLECTION BOX - PO LOBBY", "note": "ON 12/24 AND 12/31, THIS BOX MAY BE COLLECTED AS EARLY AS 12 NOON.", "nsi_id": "unitedstatespostalservice-a77078", "operator": "United States Postal Service", "operator:short": "USPS", "operator:type": "public", "operator:wikidata": "Q668687", "ref": "6175600002"}, "type": "Feature"}
{"dataset_attributes": {"@spider": "usps_collection_boxes"}, "geometry": {"coordinates": [-88.9539839211, 40.0364003735], "type": "Point"}, "id": "QMuKxtE37yvq4JGYA0NI99ONNCs=", "properties": {"@spider": "usps_collection_boxes", "addr:city": "MAROA", "addr:country": "US", "addr:full": "200 E MAIN ST", "addr:postcode": "61756", "addr:state": "IL", "amenity": "post_box", "brand": "United States Postal Service", "brand:wikidata": "Q668687", "collection_times": "Mo-Fr 16:30; Sa 10:00", "name": "USPS COLLECTION BOX - PO LOBBY", "note": "ON 12/24 AND 12/31, THIS BOX MAY BE COLLECTED AS EARLY AS 12 NOON.", "nsi_id": "unitedstatespostalservice-a77078", "operator": "United States Postal Service", "operator:short": "USPS", "operator:type": "public", "operator:wikidata": "Q668687", "ref": "6175600003"}, "type": "Feature"}
{"dataset_attributes": {"@spider": "usps_collection_boxes"}, "geometry": {"coordinates": [-89.124424986, 40.240944922], "type": "Point"}, "id": "WCsa-h_WKiX-Y4JuayLDzy533W0=", "properties": {"@spider": "usps_collection_boxes", "addr:city": "WAYNESVILLE", "addr:country": "US", "addr:full": "108 S ISHAM ST", "addr:postcode": "61778", "addr:state": "IL", "amenity": "post_box", "brand": "United States Postal Service", "brand:wikidata": "Q668687", "collection_times": "Mo-Fr 13:00; Sa 10:00", "name": "USPS COLLECTION BOX - BLUE BOX", "note": "ON 12/24 AND 12/31, THIS BOX MAY BE COLLECTED AS EARLY AS 12 NOON.", "nsi_id": "unitedstatespostalservice-a77078", "operator": "United States Postal Service", "operator:short": "USPS", "operator:type": "public", "operator:wikidata": "Q668687", "ref": "6177800000"}, "type": "Feature"}
{"dataset_attributes": {"@spider": "usps_collection_boxes"}, "geometry": {"coordinates": [-89.124424986, 40.240944922], "type": "Point"}, "id": "DPcap3qWQCpyCpaECmf1whZVRcc=", "properties": {"@spider": "usps_collection_boxes", "addr:city": "WAYNESVILLE", "addr:country": "US", "addr:full": "108 S ISHAM ST", "addr:postcode": "61778", "addr:state": "IL", "amenity": "post_box", "brand": "United States Postal Service", "brand:wikidata": "Q668687", "collection_times": "Mo-Fr 13:00; Sa 10:00", "name": "USPS COLLECTION BOX - PO LOBBY", "note": "ON 12/24 AND 12/31, THIS BOX MAY BE COLLECTED AS EARLY AS 12 NOON.", "nsi_id": "unitedstatespostalservice-a77078", "operator": "United States Postal Service", "operator:short": "USPS", "operator:type": "public", "operator:wikidata": "Q668687", "ref": "6177800001"}, "type": "Feature"}
{"dataset_attributes": {"@spider": "usps_collection_boxes"}, "geometry": {"coordinates": [-89.124424986, 40.240944922], "type": "Point"}, "id": "Ks0524NhCaDlQocqoM5_vVREb_g=", "properties": {"@spider": "usps_collection_boxes", "addr:city": "WAYNESVILLE", "addr:country": "US", "addr:full": "108 S ISHAM ST", "addr:postcode": "61778", "addr:state": "IL", "amenity": "post_box", "brand": "United States Postal Service", "brand:wikidata": "Q668687", "collection_times": "Mo-Fr 13:00; Sa 10:00", "name": "USPS COLLECTION BOX - PO LOBBY", "note": "ON 12/24 AND 12/31, THIS BOX MAY BE COLLECTED AS EARLY AS 12 NOON.", "nsi_id": "unitedstatespostalservice-a77078", "operator": "United States Postal Service", "operator:short": "USPS", "operator:type": "public", "operator:wikidata": "Q668687", "ref": "6177800002"}, "type": "Feature"}
