{"dataset_attributes": {"@spider": "usps_collection_boxes", "spider:collection_time": "2023-08-22T08:24:26.238206"}, "geometry": {"coordinates": [-88.3075692, 39.683934], "type": "Point"}, "id": "rNvaZ33l3XInYYpZpfR2InsNA-A=", "properties": {"@spider": "usps_collection_boxes", "addr:city": "ARCOLA", "addr:country": "US", "addr:full": "107 S OAK ST", "addr:postcode": "61910", "addr:state": "IL", "amenity": "post_box", "brand": "United States Postal Service", "brand:wikidata": "Q668687", "collection_times": "Mo-Fr 15:45; Sa 09:45", "name": "USPS COLLECTION BOX - BLUE BOX", "note": "ON 12/24 AND 12/31, THIS BOX MAY BE COLLECTED AS EARLY AS 12 NOON.", "nsi_id": "unitedstatespostalservice-a77078", "operator": "United States Postal Service", "operator:short": "USPS", "operator:type": "public", "operator:wikidata": "Q668687", "ref": "6191000000"}, "type": "Feature"}
{"dataset_attributes": {"@spider": "usps_collection_boxes", "spider:collection_time": "2023-08-22T08:24:26.238206"}, "geometry": {"coordinates": [-88.3080046, 39.68407], "type": "Point"}, "id": "xsK-v9vshubkJZ94UCyB7FAZ48s=", "properties": {"@spider": "usps_collection_boxes", "addr:city": "ARCOLA", "addr:country": "US", "addr:full": "107 S OAK ST", "addr:postcode": "61910", "addr:state": "IL", "amenity": "post_box", "brand": "United States Postal Service", "brand:wikidata": "Q668687", "collection_times": "Mo-Fr 15:45; Sa 09:45", "name": "USPS COLLECTION BOX - PO LOBBY", "note": "ON 12/24 AND 12/31, THIS BOX MAY BE COLLECTED AS EARLY AS 12 NOON.", "nsi_id": "unitedstatespostalservice-a77078", "operator": "United States Postal Service", "operator:short": "USPS", "operator:type": "public", "operator:wikidata": "Q668687", "ref": "6191000001"}, "type": "Feature"}
{"dataset_attributes": {"@spider": "usps_collection_boxes", "spider:collection_time": "2023-08-22T08:24:26.238206"}, "geometry": {"coordinates": [-88.308126054, 39.684101249], "type": "Point"}, "id": "o0Nd9h7VFT4cSBXSjM-WPB2wYaA=", "properties": {"@spider": "usps_collection_boxes", "addr:city": "ARCOLA", "addr:country": "US", "addr:full": "107 S OAK ST", "addr:postcode": "61910", "addr:state": "IL", "amenity": "post_box", "brand": "United States Postal Service", "brand:wikidata": "Q668687", "collection_times": "Mo-Fr 15:45; Sa 09:45", "name": "USPS COLLECTION BOX - PO LOBBY", "note": "ON 12/24 AND 12/31, THIS BOX MAY BE COLLECTED AS EARLY AS 12 NOON.", "nsi_id": "unitedstatespostalservice-a77078", "operator": "United States Postal Service", "operator:short": "USPS", "operator:type": "public", "operator:wikidata": "Q668687", "ref": "6191000003"}, "type": "Feature"}
{"dataset_attributes": {"@spider": "usps_collection_boxes", "spider:collection_time": "2023-08-22T08:24:26.238206"}, "geometry": {"coordinates": [-88.47248, 39.714361], "type": "Point"}, "id": "oBogfRlqyBgXAzX0wwUkmPzdUaU=", "properties": {"@spider": "usps_collection_boxes", "addr:city": "ARTHUR", "addr:country": "US", "addr:full": "315 S VINE ST", "addr:postcode": "61911", "addr:state": "IL", "amenity": "post_box", "brand": "United States Postal Service", "brand:wikidata": "Q668687", "collection_times": "Mo-Fr 16:15; Sa 11:15", "name": "USPS COLLECTION BOX - BLUE BOX", "note": "ON 12/24 AND 12/31, THIS BOX MAY BE COLLECTED AS EARLY AS 12 NOON.", "nsi_id": "unitedstatespostalservice-a77078", "operator": "United States Postal Service", "operator:short": "USPS", "operator:type": "public", "operator:wikidata": "Q668687", "ref": "6191100001"}, "type": "Feature"}
{"dataset_attributes": {"@spider": "usps_collection_boxes", "spider:collection_time": "2023-08-22T08:24:26.238206"}, "geometry": {"coordinates": [-88.47274, 39.714149], "type": "Point"}, "id": "kyk4dBiY_HKRSYnEDe8CRAl_KEg=", "properties": {"@spider": "usps_collection_boxes", "addr:city": "ARTHUR", "addr:country": "US", "addr:full": "315 S VINE ST", "addr:postcode": "61911", "addr:state": "IL", "amenity": "post_box", "brand": "United States Postal Service", "brand:wikidata": "Q668687", "collection_times": "Mo-Fr 16:15; Sa 11:15", "name": "USPS COLLECTION BOX - BLUE BOX", "note": "ON 12/24 AND 12/31, THIS BOX MAY BE COLLECTED AS EARLY AS 12 NOON.", "nsi_id": "unitedstatespostalservice-a77078", "operator": "United States Postal Service", "operator:short": "USPS", "operator:type": "public", "operator:wikidata": "Q668687", "ref": "6191100002"}, "type": "Feature"}
{"dataset_attributes": {"@spider": "usps_collection_boxes", "spider:collection_time": "2023-08-22T08:24:26.238206"}, "geometry": {"coordinates": [-88.47274, 39.714149], "type": "Point"}, "id": "JBEZtn_3r2s5PzOA329ThTlMjFs=", "properties": {"@spider": "usps_collection_boxes", "addr:city": "ARTHUR", "addr:country": "US", "addr:full": "315 S VINE ST", "addr:postcode": "61911", "addr:state": "IL", "amenity": "post_box", "brand": "United States Postal Service", "brand:wikidata": "Q668687", "collection_times": "Mo-Fr 16:15; Sa 11:15", "name": "USPS COLLECTION BOX - PO LOBBY", "note": "ON 12/24 AND 12/31, THIS BOX MAY BE COLLECTED AS EARLY AS 12 NOON.", "nsi_id": "unitedstatespostalservice-a77078", "operator": "United States Postal Service", "operator:short": "USPS", "operator:type": "public", "operator:wikidata": "Q668687", "ref": "6191100005"}, "type": "Feature"}
{"dataset_attributes": {"@spider": "usps_collection_boxes", "spider:collection_time": "2023-08-22T08:24:26.238206"}, "geometry": {"coordinates": [-88.47274, 39.714149], "type": "Point"}, "id": "USVGWppivctu5PAfpKC9uOGTne8=", "properties": {"@spider": "usps_collection_boxes", "addr:city": "ARTHUR", "addr:country": "US", "addr:full": "315 S VINE ST", "addr:postcode": "61911", "addr:state": "IL", "amenity": "post_box", "brand": "United States Postal Service", "brand:wikidata": "Q668687", "collection_times": "Mo-Fr 16:15; Sa 11:15", "name": "USPS COLLECTION BOX - PO LOBBY", "note": "ON 12/24 AND 12/31, THIS BOX MAY BE COLLECTED AS EARLY AS 12 NOON.", "nsi_id": "unitedstatespostalservice-a77078", "operator": "United States Postal Service", "operator:short": "USPS", "operator:type": "public", "operator:wikidata": "Q668687", "ref": "6191100006"}, "type": "Feature"}
{"dataset_attributes": {"@spider": "usps_collection_boxes", "spider:collection_time": "2023-08-22T08:24:26.238206"}, "geometry": {"coordinates": [-88.472486193, 39.714146581], "type": "Point"}, "id": "_QIDbqz96BRwNOu5nCrFzUzFum8=", "properties": {"@spider": "usps_collection_boxes", "addr:city": "ARTHUR", "addr:country": "US", "addr:full": "315 S VINE ST", "addr:postcode": "61911", "addr:state": "IL", "amenity": "post_box", "brand": "United States Postal Service", "brand:wikidata": "Q668687", "collection_times": "Mo-Fr 16:15; Sa 11:15", "name": "USPS COLLECTION BOX - PO LOBBY", "note": "ON 12/24 AND 12/31, THIS BOX MAY BE COLLECTED AS EARLY AS 12 NOON.", "nsi_id": "unitedstatespostalservice-a77078", "operator": "United States Postal Service", "operator:short": "USPS", "operator:type": "public", "operator:wikidata": "Q668687", "ref": "6191100007"}, "type": "Feature"}
{"dataset_attributes": {"@spider": "usps_collection_boxes", "spider:collection_time": "2023-08-22T08:24:26.238206"}, "geometry": {"coordinates": [-88.022185, 39.533695], "type": "Point"}, "id": "SIUFvJifqhH8Muj2iDGnSDva5bE=", "properties": {"@spider": "usps_collection_boxes", "addr:city": "ASHMORE", "addr:country": "US", "addr:full": "103 W ASHMORE ST", "addr:postcode": "61912", "addr:state": "IL", "amenity": "post_box", "brand": "United States Postal Service", "brand:wikidata": "Q668687", "collection_times": "Mo-Fr 14:45; Sa 10:00", "name": "USPS COLLECTION BOX - BLUE BOX", "note": "ON 12/24 AND 12/31, THIS BOX MAY BE COLLECTED AS EARLY AS 12 NOON.", "nsi_id": "unitedstatespostalservice-a77078", "operator": "United States Postal Service", "operator:short": "USPS", "operator:type": "public", "operator:wikidata": "Q668687", "ref": "6191200001"}, "type": "Feature"}
{"dataset_attributes": {"@spider": "usps_collection_boxes", "spider:collection_time": "2023-08-22T08:24:26.238206"}, "geometry": {"coordinates": [-88.022199, 39.53372], "type": "Point"}, "id": "bJwJXme6NSi4iftf_8QM3k1xQ9g=", "properties": {"@spider": "usps_collection_boxes", "addr:city": "ASHMORE", "addr:country": "US", "addr:full": "103 W ASHMORE ST", "addr:postcode": "61912", "addr:state": "IL", "amenity": "post_box", "brand": "United States Postal Service", "brand:wikidata": "Q668687", "collection_times": "Mo-Fr 14:30; Sa 09:45", "name": "USPS COLLECTION BOX - PO LOBBY", "note": "ON 12/24 AND 12/31, THIS BOX MAY BE COLLECTED AS EARLY AS 12 NOON.", "nsi_id": "unitedstatespostalservice-a77078", "operator": "United States Postal Service", "operator:short": "USPS", "operator:type": "public", "operator:wikidata": "Q668687", "ref": "6191200002"}, "type": "Feature"}
{"dataset_attributes": {"@spider": "usps_collection_boxes", "spider:collection_time": "2023-08-22T08:24:26.238206"}, "geometry": {"coordinates": [-88.021974458, 39.53373801], "type": "Point"}, "id": "oaWygKwdA54b_imoZVa6l6zrvy8=", "properties": {"@spider": "usps_collection_boxes", "addr:city": "ASHMORE", "addr:country": "US", "addr:full": "103 W ASHMORE ST", "addr:postcode": "61912", "addr:state": "IL", "amenity": "post_box", "brand": "United States Postal Service", "brand:wikidata": "Q668687", "collection_times": "Mo-Fr 14:45; Sa 10:00", "name": "USPS COLLECTION BOX - PO LOBBY", "note": "ON 12/24 AND 12/31, THIS BOX MAY BE COLLECTED AS EARLY AS 12 NOON.", "nsi_id": "unitedstatespostalservice-a77078", "operator": "United States Postal Service", "operator:short": "USPS", "operator:type": "public", "operator:wikidata": "Q668687", "ref": "6191200003"}, "type": "Feature"}
{"dataset_attributes": {"@spider": "usps_collection_boxes", "spider:collection_time": "2023-08-22T08:24:26.238206"}, "geometry": {"coordinates": [-88.529691, 39.800081], "type": "Point"}, "id": "nunjOq-YmystlejQO_05tVDuLHA=", "properties": {"@spider": "usps_collection_boxes", "addr:city": "ATWOOD", "addr:country": "US", "addr:full": "117 W CENTRAL ST", "addr:postcode": "61913", "addr:state": "IL", "amenity": "post_box", "brand": "United States Postal Service", "brand:wikidata": "Q668687", "collection_times": "Mo-Fr 16:00; Sa 11:00", "name": "USPS COLLECTION BOX - BLUE BOX", "note": "ON 12/24 AND 12/31, THIS BOX MAY BE COLLECTED AS EARLY AS 12 NOON.", "nsi_id": "unitedstatespostalservice-a77078", "operator": "United States Postal Service", "operator:short": "USPS", "operator:type": "public", "operator:wikidata": "Q668687", "ref": "6191300001"}, "type": "Feature"}
{"dataset_attributes": {"@spider": "usps_collection_boxes", "spider:collection_time": "2023-08-22T08:24:26.238206"}, "geometry": {"coordinates": [-88.529657, 39.80002], "type": "Point"}, "id": "8AvGr9bOY7XZNZIbkGMDtqh0yLg=", "properties": {"@spider": "usps_collection_boxes", "addr:city": "ATWOOD", "addr:country": "US", "addr:full": "117 W CENTRAL ST", "addr:postcode": "61913", "addr:state": "IL", "amenity": "post_box", "brand": "United States Postal Service", "brand:wikidata": "Q668687", "collection_times": "Mo-Fr 16:00; Sa 11:00", "name": "USPS COLLECTION BOX - PO LOBBY", "note": "ON 12/24 AND 12/31, THIS BOX MAY BE COLLECTED AS EARLY AS 12 NOON.", "nsi_id": "unitedstatespostalservice-a77078", "operator": "United States Postal Service", "operator:short": "USPS", "operator:type": "public", "operator:wikidata": "Q668687", "ref": "6191300002"}, "type": "Feature"}
{"dataset_attributes": {"@spider": "usps_collection_boxes", "spider:collection_time": "2023-08-22T08:24:26.238206"}, "geometry": {"coordinates": [-88.52971624, 39.800050854], "type": "Point"}, "id": "v2EcovKe0TBoSYjXX1-Cf1F_Wh4=", "properties": {"@spider": "usps_collection_boxes", "addr:city": "ATWOOD", "addr:country": "US", "addr:full": "117 W CENTRAL ST", "addr:postcode": "61913", "addr:state": "IL", "amenity": "post_box", "brand": "United States Postal Service", "brand:wikidata": "Q668687", "collection_times": "Mo-Fr 16:00; Sa 11:00", "name": "USPS COLLECTION BOX - PO LOBBY", "note": "ON 12/24 AND 12/31, THIS BOX MAY BE COLLECTED AS EARLY AS 12 NOON.", "nsi_id": "unitedstatespostalservice-a77078", "operator": "United States Postal Service", "operator:short": "USPS", "operator:type": "public", "operator:wikidata": "Q668687", "ref": "6191300003"}, "type": "Feature"}
{"dataset_attributes": {"@spider": "usps_collection_boxes", "spider:collection_time": "2023-08-22T08:24:26.238206"}, "geometry": {"coordinates": [-88.739472, 39.644689], "type": "Point"}, "id": "SqetQ1nknPhraFs8dYlDFTk3444=", "properties": {"@spider": "usps_collection_boxes", "addr:city": "BETHANY", "addr:country": "US", "addr:full": "119 S WASHINGTON ST", "addr:postcode": "61914", "addr:state": "IL", "amenity": "post_box", "brand": "United States Postal Service", "brand:wikidata": "Q668687", "collection_times": "Mo-Fr 15:45; Sa 10:45", "name": "USPS COLLECTION BOX - BLUE BOX", "note": "ON 12/24 AND 12/31, THIS BOX MAY BE COLLECTED AS EARLY AS 12 NOON.", "nsi_id": "unitedstatespostalservice-a77078", "operator": "United States Postal Service", "operator:short": "USPS", "operator:type": "public", "operator:wikidata": "Q668687", "ref": "6191400001"}, "type": "Feature"}
{"dataset_attributes": {"@spider": "usps_collection_boxes", "spider:collection_time": "2023-08-22T08:24:26.238206"}, "geometry": {"coordinates": [-88.739573, 39.644774], "type": "Point"}, "id": "PU3OEvZ3gFu_bp65acniw8jjk18=", "properties": {"@spider": "usps_collection_boxes", "addr:city": "BETHANY", "addr:country": "US", "addr:full": "119 S WASHINGTON ST", "addr:postcode": "61914", "addr:state": "IL", "amenity": "post_box", "brand": "United States Postal Service", "brand:wikidata": "Q668687", "collection_times": "Mo-Fr 16:00; Sa 11:00", "name": "USPS COLLECTION BOX - PO LOBBY", "note": "ON 12/24 AND 12/31, THIS BOX MAY BE COLLECTED AS EARLY AS 12 NOON.", "nsi_id": "unitedstatespostalservice-a77078", "operator": "United States Postal Service", "operator:short": "USPS", "operator:type": "public", "operator:wikidata": "Q668687", "ref": "6191400002"}, "type": "Feature"}
{"dataset_attributes": {"@spider": "usps_collection_boxes", "spider:collection_time": "2023-08-22T08:24:26.238206"}, "geometry": {"coordinates": [-88.739435711, 39.64482], "type": "Point"}, "id": "-z1ouccwbwkcboPtHuNzNLlqF98=", "properties": {"@spider": "usps_collection_boxes", "addr:city": "BETHANY", "addr:country": "US", "addr:full": "119 S WASHINGTON ST", "addr:postcode": "61914", "addr:state": "IL", "amenity": "post_box", "brand": "United States Postal Service", "brand:wikidata": "Q668687", "collection_times": "Mo-Fr 16:00; Sa 11:00", "name": "USPS COLLECTION BOX - PO LOBBY", "note": "ON 12/24 AND 12/31, THIS BOX MAY BE COLLECTED AS EARLY AS 12 NOON.", "nsi_id": "unitedstatespostalservice-a77078", "operator": "United States Postal Service", "operator:short": "USPS", "operator:type": "public", "operator:wikidata": "Q668687", "ref": "6191400003"}, "type": "Feature"}
{"dataset_attributes": {"@spider": "usps_collection_boxes", "spider:collection_time": "2023-08-22T08:24:26.238206"}, "geometry": {"coordinates": [-87.932083881, 39.7153147], "type": "Point"}, "id": "8r6FXqpDpi8DPYchK5-BsJKoVnU=", "properties": {"@spider": "usps_collection_boxes", "addr:city": "BROCTON", "addr:country": "US", "addr:full": "110 E 3RD ST", "addr:postcode": "61917", "addr:state": "IL", "amenity": "post_box", "brand": "United States Postal Service", "brand:wikidata": "Q668687", "collection_times": "Mo-Fr 11:45; Sa 11:00", "name": "USPS COLLECTION BOX - BLUE BOX", "nsi_id": "unitedstatespostalservice-a77078", "operator": "United States Postal Service", "operator:short": "USPS", "operator:type": "public", "operator:wikidata": "Q668687", "ref": "6191700001"}, "type": "Feature"}
{"dataset_attributes": {"@spider": "usps_collection_boxes", "spider:collection_time": "2023-08-22T08:24:26.238206"}, "geometry": {"coordinates": [-87.932083881, 39.7153147], "type": "Point"}, "id": "n1bCCD2Gl4KiaoNrSNLF_NYdUhs=", "properties": {"@spider": "usps_collection_boxes", "addr:city": "BROCTON", "addr:country": "US", "addr:full": "110 E 3RD ST", "addr:postcode": "61917", "addr:state": "IL", "amenity": "post_box", "brand": "United States Postal Service", "brand:wikidata": "Q668687", "collection_times": "Mo-Fr 11:45; Sa 11:00", "name": "USPS COLLECTION BOX - PO LOBBY", "nsi_id": "unitedstatespostalservice-a77078", "operator": "United States Postal Service", "operator:short": "USPS", "operator:type": "public", "operator:wikidata": "Q668687", "ref": "6191700002"}, "type": "Feature"}
{"dataset_attributes": {"@spider": "usps_collection_boxes", "spider:collection_time": "2023-08-22T08:24:26.238206"}, "geometry": {"coordinates": [-87.932083881, 39.7153147], "type": "Point"}, "id": "e5Lnb5BkGRQVs_2agkvmvwOsU8M=", "properties": {"@spider": "usps_collection_boxes", "addr:city": "BROCTON", "addr:country": "US", "addr:full": "110 E 3RD ST", "addr:postcode": "61917", "addr:state": "IL", "amenity": "post_box", "brand": "United States Postal Service", "brand:wikidata": "Q668687", "collection_times": "Mo-Fr 11:45; Sa 11:00", "name": "USPS COLLECTION BOX - PO LOBBY", "nsi_id": "unitedstatespostalservice-a77078", "operator": "United States Postal Service", "operator:short": "USPS", "operator:type": "public", "operator:wikidata": "Q668687", "ref": "6191700003"}, "type": "Feature"}
{"dataset_attributes": {"@spider": "usps_collection_boxes", "spider:collection_time": "2023-08-22T08:24:26.238206"}, "geometry": {"coordinates": [-88.163263, 39.799868], "type": "Point"}, "id": "WZBGCq40D0M7aFmQD8hpgV2GGO4=", "properties": {"@spider": "usps_collection_boxes", "addr:city": "CAMARGO", "addr:country": "US", "addr:full": "203 W MAIN ST", "addr:postcode": "61919", "addr:state": "IL", "amenity": "post_box", "brand": "United States Postal Service", "brand:wikidata": "Q668687", "collection_times": "Mo-Fr 11:45; Sa 09:45", "name": "USPS COLLECTION BOX - BLUE BOX", "nsi_id": "unitedstatespostalservice-a77078", "operator": "United States Postal Service", "operator:short": "USPS", "operator:type": "public", "operator:wikidata": "Q668687", "ref": "6191900000"}, "type": "Feature"}
{"dataset_attributes": {"@spider": "usps_collection_boxes", "spider:collection_time": "2023-08-22T08:24:26.238206"}, "geometry": {"coordinates": [-88.163263, 39.799868], "type": "Point"}, "id": "OfV7SmtObIS7UZ8c_EU4ajFRnxE=", "properties": {"@spider": "usps_collection_boxes", "addr:city": "CAMARGO", "addr:country": "US", "addr:full": "203 W MAIN ST", "addr:postcode": "61919", "addr:state": "IL", "amenity": "post_box", "brand": "United States Postal Service", "brand:wikidata": "Q668687", "collection_times": "Mo-Fr 11:45; Sa 09:45", "name": "USPS COLLECTION BOX - PO LOBBY", "nsi_id": "unitedstatespostalservice-a77078", "operator": "United States Postal Service", "operator:short": "USPS", "operator:type": "public", "operator:wikidata": "Q668687", "ref": "6191900001"}, "type": "Feature"}
{"dataset_attributes": {"@spider": "usps_collection_boxes", "spider:collection_time": "2023-08-22T08:24:26.238206"}, "geometry": {"coordinates": [-88.166566206, 39.799778861], "type": "Point"}, "id": "SDy5K55kW8dn7pf_5z5hjHxJt8w=", "properties": {"@spider": "usps_collection_boxes", "addr:city": "CAMARGO", "addr:country": "US", "addr:full": "203 W MAIN ST", "addr:postcode": "61919", "addr:state": "IL", "amenity": "post_box", "brand": "United States Postal Service", "brand:wikidata": "Q668687", "collection_times": "Mo-Fr 11:45; Sa 09:45", "name": "USPS COLLECTION BOX - PO LOBBY", "nsi_id": "unitedstatespostalservice-a77078", "operator": "United States Postal Service", "operator:short": "USPS", "operator:type": "public", "operator:wikidata": "Q668687", "ref": "6191900002"}, "type": "Feature"}
{"dataset_attributes": {"@spider": "usps_collection_boxes", "spider:collection_time": "2023-08-22T08:24:26.238206"}, "geometry": {"coordinates": [-88.1764093, 39.496538], "type": "Point"}, "id": "bSQ_YRiafRY7wUpIqwf1xoZ9FLY=", "properties": {"@spider": "usps_collection_boxes", "addr:city": "CHARLESTON", "addr:country": "US", "addr:full": "320 6TH ST", "addr:postcode": "61920", "addr:state": "IL", "amenity": "post_box", "brand": "United States Postal Service", "brand:wikidata": "Q668687", "collection_times": "Mo-Sa 13:30", "name": "USPS COLLECTION BOX - BLUE BOX", "note": "ON 12/24 AND 12/31, THIS BOX MAY BE COLLECTED AS EARLY AS 12 NOON.", "nsi_id": "unitedstatespostalservice-a77078", "operator": "United States Postal Service", "operator:short": "USPS", "operator:type": "public", "operator:wikidata": "Q668687", "ref": "6192000002"}, "type": "Feature"}
{"dataset_attributes": {"@spider": "usps_collection_boxes", "spider:collection_time": "2023-08-22T08:24:26.238206"}, "geometry": {"coordinates": [-88.1866543, 39.483977], "type": "Point"}, "id": "7CkhDRCHxRf7QtxZ3nxidmtmEyM=", "properties": {"@spider": "usps_collection_boxes", "addr:city": "CHARLESTON", "addr:country": "US", "addr:full": "580 W LINCOLN AVE", "addr:postcode": "61920", "addr:state": "IL", "amenity": "post_box", "brand": "United States Postal Service", "brand:wikidata": "Q668687", "collection_times": "Mo-Sa 13:30", "name": "USPS COLLECTION BOX - BLUE BOX", "note": "ON 12/24 AND 12/31, THIS BOX MAY BE COLLECTED AS EARLY AS 12 NOON.", "nsi_id": "unitedstatespostalservice-a77078", "operator": "United States Postal Service", "operator:short": "USPS", "operator:type": "public", "operator:wikidata": "Q668687", "ref": "6192000008"}, "type": "Feature"}
{"dataset_attributes": {"@spider": "usps_collection_boxes", "spider:collection_time": "2023-08-22T08:24:26.238206"}, "geometry": {"coordinates": [-88.1866555, 39.483984], "type": "Point"}, "id": "5RFt_OndbCBoFeanWC2GjviQi4c=", "properties": {"@spider": "usps_collection_boxes", "addr:city": "CHARLESTON", "addr:country": "US", "addr:full": "580 W LINCOLN AVE", "addr:postcode": "61920", "addr:state": "IL", "amenity": "post_box", "brand": "United States Postal Service", "brand:wikidata": "Q668687", "collection_times": "Mo-Sa 13:30", "name": "USPS COLLECTION BOX - BLUE BOX", "note": "ON 12/24 AND 12/31, THIS BOX MAY BE COLLECTED AS EARLY AS 12 NOON.", "nsi_id": "unitedstatespostalservice-a77078", "operator": "United States Postal Service", "operator:short": "USPS", "operator:type": "public", "operator:wikidata": "Q668687", "ref": "6192000009"}, "type": "Feature"}
{"dataset_attributes": {"@spider": "usps_collection_boxes", "spider:collection_time": "2023-08-22T08:24:26.238206"}, "geometry": {"coordinates": [-88.1750677633, 39.4843477633], "type": "Point"}, "id": "zs4Z1ScbIH8ewGN4YmuERPvHOTk=", "properties": {"@spider": "usps_collection_boxes", "addr:city": "CHARLESTON", "addr:country": "US", "addr:full": "600 LINCOLN AVE", "addr:postcode": "61920", "addr:state": "IL", "amenity": "post_box", "brand": "United States Postal Service", "brand:wikidata": "Q668687", "collection_times": "Mo-Sa 13:30", "name": "USPS COLLECTION BOX - BLUE BOX", "note": "ON 12/24 AND 12/31, THIS BOX MAY BE COLLECTED AS EARLY AS 12 NOON.", "nsi_id": "unitedstatespostalservice-a77078", "operator": "United States Postal Service", "operator:short": "USPS", "operator:type": "public", "operator:wikidata": "Q668687", "ref": "6192000010"}, "type": "Feature"}
{"dataset_attributes": {"@spider": "usps_collection_boxes", "spider:collection_time": "2023-08-22T08:24:26.238206"}, "geometry": {"coordinates": [-88.1752415, 39.481428], "type": "Point"}, "id": "7PLmNOxyJqK2O8TXIz3Wu2csjQM=", "properties": {"@spider": "usps_collection_boxes", "addr:city": "CHARLESTON", "addr:country": "US", "addr:full": "600 LINCOLN AVE", "addr:postcode": "61920", "addr:state": "IL", "amenity": "post_box", "brand": "United States Postal Service", "brand:wikidata": "Q668687", "collection_times": "Mo-Sa 13:30", "name": "USPS COLLECTION BOX - BLUE BOX", "note": "ON 12/24 AND 12/31, THIS BOX MAY BE COLLECTED AS EARLY AS 12 NOON.", "nsi_id": "unitedstatespostalservice-a77078", "operator": "United States Postal Service", "operator:short": "USPS", "operator:type": "public", "operator:wikidata": "Q668687", "ref": "6192000011"}, "type": "Feature"}
{"dataset_attributes": {"@spider": "usps_collection_boxes", "spider:collection_time": "2023-08-22T08:24:26.238206"}, "geometry": {"coordinates": [-88.1867122, 39.48593], "type": "Point"}, "id": "Uw_R-es-vgHNKrIaGrW3cYSBzzI=", "properties": {"@spider": "usps_collection_boxes", "addr:city": "CHARLESTON", "addr:country": "US", "addr:full": "501 W LINCOLN AVE", "addr:postcode": "61920", "addr:state": "IL", "amenity": "post_box", "brand": "United States Postal Service", "brand:wikidata": "Q668687", "collection_times": "Mo-Sa 13:30", "name": "USPS COLLECTION BOX - BLUE BOX", "note": "ON 12/24 AND 12/31, THIS BOX MAY BE COLLECTED AS EARLY AS 12 NOON.", "nsi_id": "unitedstatespostalservice-a77078", "operator": "United States Postal Service", "operator:short": "USPS", "operator:type": "public", "operator:wikidata": "Q668687", "ref": "6192000013"}, "type": "Feature"}
{"dataset_attributes": {"@spider": "usps_collection_boxes", "spider:collection_time": "2023-08-22T08:24:26.238206"}, "geometry": {"coordinates": [-88.1671564, 39.484197], "type": "Point"}, "id": "st0vRUj988-_fvipTTd7ovR0e38=", "properties": {"@spider": "usps_collection_boxes", "addr:city": "CHARLESTON", "addr:country": "US", "addr:full": "1400 LINCOLN AVE", "addr:postcode": "61920", "addr:state": "IL", "amenity": "post_box", "brand": "United States Postal Service", "brand:wikidata": "Q668687", "collection_times": "Mo-Sa 13:30", "name": "USPS COLLECTION BOX - BLUE BOX", "note": "ON 12/24 AND 12/31, THIS BOX MAY BE COLLECTED AS EARLY AS 12 NOON.", "nsi_id": "unitedstatespostalservice-a77078", "operator": "United States Postal Service", "operator:short": "USPS", "operator:type": "public", "operator:wikidata": "Q668687", "ref": "6192000017"}, "type": "Feature"}
{"dataset_attributes": {"@spider": "usps_collection_boxes", "spider:collection_time": "2023-08-22T08:24:26.238206"}, "geometry": {"coordinates": [-88.1626499, 39.490851], "type": "Point"}, "id": "25R95MabV5OB2yihgcceLBfC0yw=", "properties": {"@spider": "usps_collection_boxes", "addr:city": "CHARLESTON", "addr:country": "US", "addr:full": "825 18TH ST", "addr:postcode": "61920", "addr:state": "IL", "amenity": "post_box", "brand": "United States Postal Service", "brand:wikidata": "Q668687", "collection_times": "Mo-Sa 13:30", "name": "USPS COLLECTION BOX - BLUE BOX", "note": "ON 12/24 AND 12/31, THIS BOX MAY BE COLLECTED AS EARLY AS 12 NOON.", "nsi_id": "unitedstatespostalservice-a77078", "operator": "United States Postal Service", "operator:short": "USPS", "operator:type": "public", "operator:wikidata": "Q668687", "ref": "6192000022"}, "type": "Feature"}
{"dataset_attributes": {"@spider": "usps_collection_boxes", "spider:collection_time": "2023-08-22T08:24:26.238206"}, "geometry": {"coordinates": [-88.1755364, 39.494384], "type": "Point"}, "id": "EWlJJETVhdWoSVFatrD7KRXw5wg=", "properties": {"@spider": "usps_collection_boxes", "addr:city": "CHARLESTON", "addr:country": "US", "addr:full": "520 JACKSON AVE", "addr:postcode": "61920", "addr:state": "IL", "amenity": "post_box", "brand": "United States Postal Service", "brand:wikidata": "Q668687", "collection_times": "Mo-Sa 13:30", "name": "USPS COLLECTION BOX - BLUE BOX", "note": "ON 12/24 AND 12/31, THIS BOX MAY BE COLLECTED AS EARLY AS 12 NOON.", "nsi_id": "unitedstatespostalservice-a77078", "operator": "United States Postal Service", "operator:short": "USPS", "operator:type": "public", "operator:wikidata": "Q668687", "ref": "6192000023"}, "type": "Feature"}
{"dataset_attributes": {"@spider": "usps_collection_boxes", "spider:collection_time": "2023-08-22T08:24:26.238206"}, "geometry": {"coordinates": [-88.1751189, 39.494666], "type": "Point"}, "id": "Nh5VlG2Ry7G0Hsvr-yw_Cw3-9TQ=", "properties": {"@spider": "usps_collection_boxes", "addr:city": "CHARLESTON", "addr:country": "US", "addr:full": "651 JACKSON AVE", "addr:postcode": "61920", "addr:state": "IL", "amenity": "post_box", "brand": "United States Postal Service", "brand:wikidata": "Q668687", "collection_times": "Mo-Sa 13:30", "name": "USPS COLLECTION BOX - BLUE BOX", "note": "ON 12/24 AND 12/31, THIS BOX MAY BE COLLECTED AS EARLY AS 12 NOON.", "nsi_id": "unitedstatespostalservice-a77078", "operator": "United States Postal Service", "operator:short": "USPS", "operator:type": "public", "operator:wikidata": "Q668687", "ref": "6192000024"}, "type": "Feature"}
{"dataset_attributes": {"@spider": "usps_collection_boxes", "spider:collection_time": "2023-08-22T08:24:26.238206"}, "geometry": {"coordinates": [-88.1552247, 39.485703], "type": "Point"}, "id": "cEn_aOjpxkP9lRmXxxWT0ZWGDOo=", "properties": {"@spider": "usps_collection_boxes", "addr:city": "CHARLESTON", "addr:country": "US", "addr:full": "2250 LINCOLN AVE", "addr:postcode": "61920", "addr:state": "IL", "amenity": "post_box", "brand": "United States Postal Service", "brand:wikidata": "Q668687", "collection_times": "Mo-Sa 13:30", "name": "USPS COLLECTION BOX - BLUE BOX", "note": "ON 12/24 AND 12/31, THIS BOX MAY BE COLLECTED AS EARLY AS 12 NOON.", "nsi_id": "unitedstatespostalservice-a77078", "operator": "United States Postal Service", "operator:short": "USPS", "operator:type": "public", "operator:wikidata": "Q668687", "ref": "6192000026"}, "type": "Feature"}
{"dataset_attributes": {"@spider": "usps_collection_boxes", "spider:collection_time": "2023-08-22T08:24:26.238206"}, "geometry": {"coordinates": [-88.191096, 39.501054], "type": "Point"}, "id": "tQRmdRLM_zq02wtzvFoz-_ewCk4=", "properties": {"@spider": "usps_collection_boxes", "addr:city": "CHARLESTON", "addr:country": "US", "addr:full": "667 WINDSOR RD", "addr:postcode": "61920", "addr:state": "IL", "amenity": "post_box", "brand": "United States Postal Service", "brand:wikidata": "Q668687", "collection_times": "Mo-Fr 17:00; Sa 12:00", "name": "USPS COLLECTION BOX - BLUE BOX", "note": "ON 12/24 AND 12/31, THIS BOX MAY BE COLLECTED AS EARLY AS 12 NOON.", "nsi_id": "unitedstatespostalservice-a77078", "operator": "United States Postal Service", "operator:short": "USPS", "operator:type": "public", "operator:wikidata": "Q668687", "ref": "6192000027"}, "type": "Feature"}
{"dataset_attributes": {"@spider": "usps_collection_boxes", "spider:collection_time": "2023-08-22T08:24:26.238206"}, "geometry": {"coordinates": [-88.1906606, 39.501513], "type": "Point"}, "id": "_r1z6eR_WP0igWuXNQI2MOQLLgQ=", "properties": {"@spider": "usps_collection_boxes", "addr:city": "CHARLESTON", "addr:country": "US", "addr:full": "667 WINDSOR RD", "addr:postcode": "61920", "addr:state": "IL", "amenity": "post_box", "brand": "United States Postal Service", "brand:wikidata": "Q668687", "collection_times": "Mo-Fr 17:00; Sa 12:00", "name": "USPS COLLECTION BOX - PO LOBBY", "note": "ON 12/24 AND 12/31, THIS BOX MAY BE COLLECTED AS EARLY AS 12 NOON.", "nsi_id": "unitedstatespostalservice-a77078", "operator": "United States Postal Service", "operator:short": "USPS", "operator:type": "public", "operator:wikidata": "Q668687", "ref": "6192000028"}, "type": "Feature"}
{"dataset_attributes": {"@spider": "usps_collection_boxes", "spider:collection_time": "2023-08-22T08:24:26.238206"}, "geometry": {"coordinates": [-88.191485134, 39.501231191], "type": "Point"}, "id": "bFbdFDp6X9ZBwjfxpr_1nYHQtUs=", "properties": {"@spider": "usps_collection_boxes", "addr:city": "CHARLESTON", "addr:country": "US", "addr:full": "667 WINDSOR RD", "addr:postcode": "61920", "addr:state": "IL", "amenity": "post_box", "brand": "United States Postal Service", "brand:wikidata": "Q668687", "collection_times": "Mo-Fr 17:00; Sa 12:00", "name": "USPS COLLECTION BOX - PO LOBBY", "note": "ON 12/24 AND 12/31, THIS BOX MAY BE COLLECTED AS EARLY AS 12 NOON.", "nsi_id": "unitedstatespostalservice-a77078", "operator": "United States Postal Service", "operator:short": "USPS", "operator:type": "public", "operator:wikidata": "Q668687", "ref": "6192000031"}, "type": "Feature"}
{"dataset_attributes": {"@spider": "usps_collection_boxes", "spider:collection_time": "2023-08-22T08:24:26.238206"}, "geometry": {"coordinates": [-87.6797036, 39.804614], "type": "Point"}, "id": "MrBrZ2z4wMEFPibONdrZzBdXHRo=", "properties": {"@spider": "usps_collection_boxes", "addr:city": "CHRISMAN", "addr:country": "US", "addr:full": "210 W MADISON AVE", "addr:postcode": "61924", "addr:state": "IL", "amenity": "post_box", "brand": "United States Postal Service", "brand:wikidata": "Q668687", "collection_times": "Mo-Fr 14:45; Sa 09:45", "name": "USPS COLLECTION BOX - BLUE BOX", "note": "ON 12/24 AND 12/31, THIS BOX MAY BE COLLECTED AS EARLY AS 12 NOON.", "nsi_id": "unitedstatespostalservice-a77078", "operator": "United States Postal Service", "operator:short": "USPS", "operator:type": "public", "operator:wikidata": "Q668687", "ref": "6192400001"}, "type": "Feature"}
{"dataset_attributes": {"@spider": "usps_collection_boxes", "spider:collection_time": "2023-08-22T08:24:26.238206"}, "geometry": {"coordinates": [-87.679597, 39.804575], "type": "Point"}, "id": "B4edU-q2Jk3Vs2Olnj_LeRRs_nw=", "properties": {"@spider": "usps_collection_boxes", "addr:city": "CHRISMAN", "addr:country": "US", "addr:full": "210 W MADISON AVE", "addr:postcode": "61924", "addr:state": "IL", "amenity": "post_box", "brand": "United States Postal Service", "brand:wikidata": "Q668687", "collection_times": "Mo-Fr 14:45; Sa 09:45", "name": "USPS COLLECTION BOX - PO LOBBY", "note": "ON 12/24 AND 12/31, THIS BOX MAY BE COLLECTED AS EARLY AS 12 NOON.", "nsi_id": "unitedstatespostalservice-a77078", "operator": "United States Postal Service", "operator:short": "USPS", "operator:type": "public", "operator:wikidata": "Q668687", "ref": "6192400002"}, "type": "Feature"}
{"dataset_attributes": {"@spider": "usps_collection_boxes", "spider:collection_time": "2023-08-22T08:24:26.238206"}, "geometry": {"coordinates": [-87.679651531, 39.804470453], "type": "Point"}, "id": "YBukQ7JTdVtYz7kj8gBotafi6KQ=", "properties": {"@spider": "usps_collection_boxes", "addr:city": "CHRISMAN", "addr:country": "US", "addr:full": "210 W MADISON AVE", "addr:postcode": "61924", "addr:state": "IL", "amenity": "post_box", "brand": "United States Postal Service", "brand:wikidata": "Q668687", "collection_times": "Mo-Fr 14:45; Sa 09:45", "name": "USPS COLLECTION BOX - PO LOBBY", "note": "ON 12/24 AND 12/31, THIS BOX MAY BE COLLECTED AS EARLY AS 12 NOON.", "nsi_id": "unitedstatespostalservice-a77078", "operator": "United States Postal Service", "operator:short": "USPS", "operator:type": "public", "operator:wikidata": "Q668687", "ref": "6192400003"}, "type": "Feature"}
{"dataset_attributes": {"@spider": "usps_collection_boxes", "spider:collection_time": "2023-08-22T08:24:26.238206"}, "geometry": {"coordinates": [-88.804824, 39.711334], "type": "Point"}, "id": "nHFS6o6qnJJNqXjGeH6pta2g1wU=", "properties": {"@spider": "usps_collection_boxes", "addr:city": "DALTON CITY", "addr:country": "US", "addr:full": "135 E MAIN ST", "addr:postcode": "61925", "addr:state": "IL", "amenity": "post_box", "brand": "United States Postal Service", "brand:wikidata": "Q668687", "collection_times": "Mo-Fr 12:15; Sa 10:15", "name": "USPS COLLECTION BOX - BLUE BOX", "note": "ON 12/24 AND 12/31, THIS BOX MAY BE COLLECTED AS EARLY AS 12 NOON.", "nsi_id": "unitedstatespostalservice-a77078", "operator": "United States Postal Service", "operator:short": "USPS", "operator:type": "public", "operator:wikidata": "Q668687", "ref": "6192500000"}, "type": "Feature"}
{"dataset_attributes": {"@spider": "usps_collection_boxes", "spider:collection_time": "2023-08-22T08:24:26.238206"}, "geometry": {"coordinates": [-88.80486, 39.711361], "type": "Point"}, "id": "bZ7watqXENwhiY2b4WdMG2sBCkU=", "properties": {"@spider": "usps_collection_boxes", "addr:city": "DALTON CITY", "addr:country": "US", "addr:full": "135 E MAIN ST", "addr:postcode": "61925", "addr:state": "IL", "amenity": "post_box", "brand": "United States Postal Service", "brand:wikidata": "Q668687", "collection_times": "Mo-Fr 12:30; Sa 10:30", "name": "USPS COLLECTION BOX - PO LOBBY", "note": "ON 12/24 AND 12/31, THIS BOX MAY BE COLLECTED AS EARLY AS 12 NOON.", "nsi_id": "unitedstatespostalservice-a77078", "operator": "United States Postal Service", "operator:short": "USPS", "operator:type": "public", "operator:wikidata": "Q668687", "ref": "6192500001"}, "type": "Feature"}
{"dataset_attributes": {"@spider": "usps_collection_boxes", "spider:collection_time": "2023-08-22T08:24:26.238206"}, "geometry": {"coordinates": [-88.804780838, 39.711282705], "type": "Point"}, "id": "q4UCMU5fsfK2O04NpEh56yaAQVI=", "properties": {"@spider": "usps_collection_boxes", "addr:city": "DALTON CITY", "addr:country": "US", "addr:full": "135 E MAIN ST", "addr:postcode": "61925", "addr:state": "IL", "amenity": "post_box", "brand": "United States Postal Service", "brand:wikidata": "Q668687", "collection_times": "Mo-Fr 12:30; Sa 10:30", "name": "USPS COLLECTION BOX - PO LOBBY", "note": "ON 12/24 AND 12/31, THIS BOX MAY BE COLLECTED AS EARLY AS 12 NOON.", "nsi_id": "unitedstatespostalservice-a77078", "operator": "United States Postal Service", "operator:short": "USPS", "operator:type": "public", "operator:wikidata": "Q668687", "ref": "6192500002"}, "type": "Feature"}
{"dataset_attributes": {"@spider": "usps_collection_boxes", "spider:collection_time": "2023-08-22T08:24:26.238206"}, "geometry": {"coordinates": [-88.594437, 39.798813], "type": "Point"}, "id": "w_i4C6FjckpUBhXHlJREIw4RgMg=", "properties": {"@spider": "usps_collection_boxes", "addr:city": "HAMMOND", "addr:country": "US", "addr:full": "111 E 1ST ST", "addr:postcode": "61929", "addr:state": "IL", "amenity": "post_box", "brand": "United States Postal Service", "brand:wikidata": "Q668687", "collection_times": "Mo-Fr 11:45; Sa 10:30", "name": "USPS COLLECTION BOX - BLUE BOX", "nsi_id": "unitedstatespostalservice-a77078", "operator": "United States Postal Service", "operator:short": "USPS", "operator:type": "public", "operator:wikidata": "Q668687", "ref": "6192900001"}, "type": "Feature"}
{"dataset_attributes": {"@spider": "usps_collection_boxes", "spider:collection_time": "2023-08-22T08:24:26.238206"}, "geometry": {"coordinates": [-88.594437, 39.798813], "type": "Point"}, "id": "aixA0pOD-diVcl8MjuFCF-EvMeo=", "properties": {"@spider": "usps_collection_boxes", "addr:city": "HAMMOND", "addr:country": "US", "addr:full": "111 E 1ST ST", "addr:postcode": "61929", "addr:state": "IL", "amenity": "post_box", "brand": "United States Postal Service", "brand:wikidata": "Q668687", "collection_times": "Mo-Fr 11:45; Sa 10:30", "name": "USPS COLLECTION BOX - PO LOBBY", "nsi_id": "unitedstatespostalservice-a77078", "operator": "United States Postal Service", "operator:short": "USPS", "operator:type": "public", "operator:wikidata": "Q668687", "ref": "6192900002"}, "type": "Feature"}
{"dataset_attributes": {"@spider": "usps_collection_boxes", "spider:collection_time": "2023-08-22T08:24:26.238206"}, "geometry": {"coordinates": [-88.592202983, 39.798735611], "type": "Point"}, "id": "-00-4xqN8umcYXwcPZdLQev-IKc=", "properties": {"@spider": "usps_collection_boxes", "addr:city": "HAMMOND", "addr:country": "US", "addr:full": "111 E 1ST ST", "addr:postcode": "61929", "addr:state": "IL", "amenity": "post_box", "brand": "United States Postal Service", "brand:wikidata": "Q668687", "collection_times": "Mo-Fr 11:45; Sa 10:30", "name": "USPS COLLECTION BOX - PO LOBBY", "nsi_id": "unitedstatespostalservice-a77078", "operator": "United States Postal Service", "operator:short": "USPS", "operator:type": "public", "operator:wikidata": "Q668687", "ref": "6192900003"}, "type": "Feature"}
{"dataset_attributes": {"@spider": "usps_collection_boxes", "spider:collection_time": "2023-08-22T08:24:26.238206"}, "geometry": {"coordinates": [-88.134001, 39.683925], "type": "Point"}, "id": "_fur9RE9qtvzfUJWOw-S_VGOsIg=", "properties": {"@spider": "usps_collection_boxes", "addr:city": "HINDSBORO", "addr:country": "US", "addr:full": "407 MISSOURI ST", "addr:postcode": "61930", "addr:state": "IL", "amenity": "post_box", "brand": "United States Postal Service", "brand:wikidata": "Q668687", "collection_times": "Mo-Fr 15:45; Sa 10:30", "name": "USPS COLLECTION BOX - BLUE BOX", "note": "ON 12/24 AND 12/31, THIS BOX MAY BE COLLECTED AS EARLY AS 12 NOON.", "nsi_id": "unitedstatespostalservice-a77078", "operator": "United States Postal Service", "operator:short": "USPS", "operator:type": "public", "operator:wikidata": "Q668687", "ref": "6193000000"}, "type": "Feature"}
{"dataset_attributes": {"@spider": "usps_collection_boxes", "spider:collection_time": "2023-08-22T08:24:26.238206"}, "geometry": {"coordinates": [-88.13402, 39.683843], "type": "Point"}, "id": "9SvfxYb62JmOYryoCu1xHdm5rPI=", "properties": {"@spider": "usps_collection_boxes", "addr:city": "HINDSBORO", "addr:country": "US", "addr:full": "407 MISSOURI ST", "addr:postcode": "61930", "addr:state": "IL", "amenity": "post_box", "brand": "United States Postal Service", "brand:wikidata": "Q668687", "collection_times": "Mo-Fr 15:45; Sa 13:45", "name": "USPS COLLECTION BOX - PO LOBBY", "note": "ON 12/24 AND 12/31, THIS BOX MAY BE COLLECTED AS EARLY AS 12 NOON.", "nsi_id": "unitedstatespostalservice-a77078", "operator": "United States Postal Service", "operator:short": "USPS", "operator:type": "public", "operator:wikidata": "Q668687", "ref": "6193000001"}, "type": "Feature"}
{"dataset_attributes": {"@spider": "usps_collection_boxes", "spider:collection_time": "2023-08-22T08:24:26.238206"}, "geometry": {"coordinates": [-88.133818456, 39.684171907], "type": "Point"}, "id": "oSQ2cZzSkmqe0Bcr_98WIoqG9jI=", "properties": {"@spider": "usps_collection_boxes", "addr:city": "HINDSBORO", "addr:country": "US", "addr:full": "407 MISSOURI ST", "addr:postcode": "61930", "addr:state": "IL", "amenity": "post_box", "brand": "United States Postal Service", "brand:wikidata": "Q668687", "collection_times": "Mo-Fr 16:00; Sa 14:00", "name": "USPS COLLECTION BOX - PO LOBBY", "note": "ON 12/24 AND 12/31, THIS BOX MAY BE COLLECTED AS EARLY AS 12 NOON.", "nsi_id": "unitedstatespostalservice-a77078", "operator": "United States Postal Service", "operator:short": "USPS", "operator:type": "public", "operator:wikidata": "Q668687", "ref": "6193000002"}, "type": "Feature"}
{"dataset_attributes": {"@spider": "usps_collection_boxes", "spider:collection_time": "2023-08-22T08:24:26.238206"}, "geometry": {"coordinates": [-88.320299, 39.603674], "type": "Point"}, "id": "ytmlbdEfH6b4voCnN-R64HC6-SI=", "properties": {"@spider": "usps_collection_boxes", "addr:city": "HUMBOLDT", "addr:country": "US", "addr:full": "407 ELM ST", "addr:postcode": "61931", "addr:state": "IL", "amenity": "post_box", "brand": "United States Postal Service", "brand:wikidata": "Q668687", "collection_times": "Mo-Fr 12:00; Sa 10:00", "name": "USPS COLLECTION BOX - BLUE BOX", "nsi_id": "unitedstatespostalservice-a77078", "operator": "United States Postal Service", "operator:short": "USPS", "operator:type": "public", "operator:wikidata": "Q668687", "ref": "6193100000"}, "type": "Feature"}
{"dataset_attributes": {"@spider": "usps_collection_boxes", "spider:collection_time": "2023-08-22T08:24:26.238206"}, "geometry": {"coordinates": [-88.320401, 39.603701], "type": "Point"}, "id": "KZa7VwB63P7qNX5X5-85Kda4oSA=", "properties": {"@spider": "usps_collection_boxes", "addr:city": "HUMBOLDT", "addr:country": "US", "addr:full": "407 ELM ST", "addr:postcode": "61931", "addr:state": "IL", "amenity": "post_box", "brand": "United States Postal Service", "brand:wikidata": "Q668687", "collection_times": "Mo-Fr 12:00; Sa 10:00", "name": "USPS COLLECTION BOX - PO LOBBY", "nsi_id": "unitedstatespostalservice-a77078", "operator": "United States Postal Service", "operator:short": "USPS", "operator:type": "public", "operator:wikidata": "Q668687", "ref": "6193100001"}, "type": "Feature"}
{"dataset_attributes": {"@spider": "usps_collection_boxes", "spider:collection_time": "2023-08-22T08:24:26.238206"}, "geometry": {"coordinates": [-88.320337625, 39.603623802], "type": "Point"}, "id": "G-ECqpvdWFWnLRasX_XkT2eU9sQ=", "properties": {"@spider": "usps_collection_boxes", "addr:city": "HUMBOLDT", "addr:country": "US", "addr:full": "407 ELM ST", "addr:postcode": "61931", "addr:state": "IL", "amenity": "post_box", "brand": "United States Postal Service", "brand:wikidata": "Q668687", "collection_times": "Mo-Fr 12:00; Sa 10:00", "name": "USPS COLLECTION BOX - PO LOBBY", "nsi_id": "unitedstatespostalservice-a77078", "operator": "United States Postal Service", "operator:short": "USPS", "operator:type": "public", "operator:wikidata": "Q668687", "ref": "6193100002"}, "type": "Feature"}
{"dataset_attributes": {"@spider": "usps_collection_boxes", "spider:collection_time": "2023-08-22T08:24:26.238206"}, "geometry": {"coordinates": [-87.86951, 39.798362], "type": "Point"}, "id": "pKr9fnxuApP8B0zP4OO1HQ37aw4=", "properties": {"@spider": "usps_collection_boxes", "addr:city": "HUME", "addr:country": "US", "addr:full": "150 FRONT ST", "addr:postcode": "61932", "addr:state": "IL", "amenity": "post_box", "brand": "United States Postal Service", "brand:wikidata": "Q668687", "collection_times": "Mo-Fr 11:45; Sa 09:45", "name": "USPS COLLECTION BOX - BLUE BOX", "nsi_id": "unitedstatespostalservice-a77078", "operator": "United States Postal Service", "operator:short": "USPS", "operator:type": "public", "operator:wikidata": "Q668687", "ref": "6193200001"}, "type": "Feature"}
{"dataset_attributes": {"@spider": "usps_collection_boxes", "spider:collection_time": "2023-08-22T08:24:26.238206"}, "geometry": {"coordinates": [-87.86951, 39.798362], "type": "Point"}, "id": "49ph1Y_MysuUjh4oyZklwZm5_Pg=", "properties": {"@spider": "usps_collection_boxes", "addr:city": "HUME", "addr:country": "US", "addr:full": "150 FRONT ST", "addr:postcode": "61932", "addr:state": "IL", "amenity": "post_box", "brand": "United States Postal Service", "brand:wikidata": "Q668687", "collection_times": "Mo-Fr 11:45; Sa 09:45", "name": "USPS COLLECTION BOX - PO LOBBY", "nsi_id": "unitedstatespostalservice-a77078", "operator": "United States Postal Service", "operator:short": "USPS", "operator:type": "public", "operator:wikidata": "Q668687", "ref": "6193200002"}, "type": "Feature"}
{"dataset_attributes": {"@spider": "usps_collection_boxes", "spider:collection_time": "2023-08-22T08:24:26.238206"}, "geometry": {"coordinates": [-87.870102159, 39.798434389], "type": "Point"}, "id": "4E885K3U8q-Rrub1zX-rB0a1MNE=", "properties": {"@spider": "usps_collection_boxes", "addr:city": "HUME", "addr:country": "US", "addr:full": "150 FRONT ST", "addr:postcode": "61932", "addr:state": "IL", "amenity": "post_box", "brand": "United States Postal Service", "brand:wikidata": "Q668687", "collection_times": "Mo-Fr 11:45; Sa 09:45", "name": "USPS COLLECTION BOX - PO LOBBY", "nsi_id": "unitedstatespostalservice-a77078", "operator": "United States Postal Service", "operator:short": "USPS", "operator:type": "public", "operator:wikidata": "Q668687", "ref": "6193200003"}, "type": "Feature"}
{"dataset_attributes": {"@spider": "usps_collection_boxes", "spider:collection_time": "2023-08-22T08:24:26.238206"}, "geometry": {"coordinates": [-87.938877, 39.553032], "type": "Point"}, "id": "eM37-BK62A_bGMCGCyiph6dwcog=", "properties": {"@spider": "usps_collection_boxes", "addr:city": "KANSAS", "addr:country": "US", "addr:full": "126 E BUENA VISTA ST", "addr:postcode": "61933", "addr:state": "IL", "amenity": "post_box", "brand": "United States Postal Service", "brand:wikidata": "Q668687", "collection_times": "Mo-Fr 14:45; Sa 09:45", "name": "USPS COLLECTION BOX - BLUE BOX", "note": "ON 12/24 AND 12/31, THIS BOX MAY BE COLLECTED AS EARLY AS 12 NOON.", "nsi_id": "unitedstatespostalservice-a77078", "operator": "United States Postal Service", "operator:short": "USPS", "operator:type": "public", "operator:wikidata": "Q668687", "ref": "6193300001"}, "type": "Feature"}
{"dataset_attributes": {"@spider": "usps_collection_boxes", "spider:collection_time": "2023-08-22T08:24:26.238206"}, "geometry": {"coordinates": [-87.938931, 39.553004], "type": "Point"}, "id": "fvu7fKEEaAB1ubvJ4Y2QJDKft60=", "properties": {"@spider": "usps_collection_boxes", "addr:city": "KANSAS", "addr:country": "US", "addr:full": "126 E BUENA VISTA ST", "addr:postcode": "61933", "addr:state": "IL", "amenity": "post_box", "brand": "United States Postal Service", "brand:wikidata": "Q668687", "collection_times": "Mo-Fr 14:45; Sa 09:45", "name": "USPS COLLECTION BOX - PO LOBBY", "note": "ON 12/24 AND 12/31, THIS BOX MAY BE COLLECTED AS EARLY AS 12 NOON.", "nsi_id": "unitedstatespostalservice-a77078", "operator": "United States Postal Service", "operator:short": "USPS", "operator:type": "public", "operator:wikidata": "Q668687", "ref": "6193300002"}, "type": "Feature"}
{"dataset_attributes": {"@spider": "usps_collection_boxes", "spider:collection_time": "2023-08-22T08:24:26.238206"}, "geometry": {"coordinates": [-87.938441193, 39.55302553], "type": "Point"}, "id": "hAIETRi2b_aqSIgqjSQwU2LHmtQ=", "properties": {"@spider": "usps_collection_boxes", "addr:city": "KANSAS", "addr:country": "US", "addr:full": "126 E BUENA VISTA ST", "addr:postcode": "61933", "addr:state": "IL", "amenity": "post_box", "brand": "United States Postal Service", "brand:wikidata": "Q668687", "collection_times": "Mo-Fr 14:45; Sa 09:45", "name": "USPS COLLECTION BOX - PO LOBBY", "note": "ON 12/24 AND 12/31, THIS BOX MAY BE COLLECTED AS EARLY AS 12 NOON.", "nsi_id": "unitedstatespostalservice-a77078", "operator": "United States Postal Service", "operator:short": "USPS", "operator:type": "public", "operator:wikidata": "Q668687", "ref": "6193300003"}, "type": "Feature"}
{"dataset_attributes": {"@spider": "usps_collection_boxes", "spider:collection_time": "2023-08-22T08:24:26.238206"}, "geometry": {"coordinates": [-88.717201, 39.799918], "type": "Point"}, "id": "n3r0hPgKIjJX8wfVXT1qb19B-L8=", "properties": {"@spider": "usps_collection_boxes", "addr:city": "LA PLACE", "addr:country": "US", "addr:full": "110 E FRONT ST", "addr:postcode": "61936", "addr:state": "IL", "amenity": "post_box", "brand": "United States Postal Service", "brand:wikidata": "Q668687", "collection_times": "Mo-Sa 10:15", "name": "USPS COLLECTION BOX - BLUE BOX", "nsi_id": "unitedstatespostalservice-a77078", "operator": "United States Postal Service", "operator:short": "USPS", "operator:type": "public", "operator:wikidata": "Q668687", "ref": "6193600000"}, "type": "Feature"}
{"dataset_attributes": {"@spider": "usps_collection_boxes", "spider:collection_time": "2023-08-22T08:24:26.238206"}, "geometry": {"coordinates": [-88.717294, 39.799891], "type": "Point"}, "id": "cO9GgyaWvNYW1gIYFi3ak0Urt0E=", "properties": {"@spider": "usps_collection_boxes", "addr:city": "LA PLACE", "addr:country": "US", "addr:full": "110 E FRONT ST", "addr:postcode": "61936", "addr:state": "IL", "amenity": "post_box", "brand": "United States Postal Service", "brand:wikidata": "Q668687", "collection_times": "Mo-Sa 10:15", "name": "USPS COLLECTION BOX - PO LOBBY", "nsi_id": "unitedstatespostalservice-a77078", "operator": "United States Postal Service", "operator:short": "USPS", "operator:type": "public", "operator:wikidata": "Q668687", "ref": "6193600001"}, "type": "Feature"}
{"dataset_attributes": {"@spider": "usps_collection_boxes", "spider:collection_time": "2023-08-22T08:24:26.238206"}, "geometry": {"coordinates": [-88.717602079, 39.799997745], "type": "Point"}, "id": "dKiRy6pPStuyNBnrzF3JVoPCuhA=", "properties": {"@spider": "usps_collection_boxes", "addr:city": "LA PLACE", "addr:country": "US", "addr:full": "110 E FRONT ST", "addr:postcode": "61936", "addr:state": "IL", "amenity": "post_box", "brand": "United States Postal Service", "brand:wikidata": "Q668687", "collection_times": "Mo-Sa 10:15", "name": "USPS COLLECTION BOX - PO LOBBY", "nsi_id": "unitedstatespostalservice-a77078", "operator": "United States Postal Service", "operator:short": "USPS", "operator:type": "public", "operator:wikidata": "Q668687", "ref": "6193600002"}, "type": "Feature"}
{"dataset_attributes": {"@spider": "usps_collection_boxes", "spider:collection_time": "2023-08-22T08:24:26.238206"}, "geometry": {"coordinates": [-88.6323276, 39.715264], "type": "Point"}, "id": "yEpHt27U2UvFzXHsRexV6aFe-2c=", "properties": {"@spider": "usps_collection_boxes", "addr:city": "LOVINGTON", "addr:country": "US", "addr:full": "101 E STATE ST", "addr:postcode": "61937", "addr:state": "IL", "amenity": "post_box", "brand": "United States Postal Service", "brand:wikidata": "Q668687", "collection_times": "Mo-Fr 14:15; Sa 09:15", "name": "USPS COLLECTION BOX - BLUE BOX", "note": "ON 12/24 AND 12/31, THIS BOX MAY BE COLLECTED AS EARLY AS 12 NOON.", "nsi_id": "unitedstatespostalservice-a77078", "operator": "United States Postal Service", "operator:short": "USPS", "operator:type": "public", "operator:wikidata": "Q668687", "ref": "6193700000"}, "type": "Feature"}
{"dataset_attributes": {"@spider": "usps_collection_boxes", "spider:collection_time": "2023-08-22T08:24:26.238206"}, "geometry": {"coordinates": [-88.632579, 39.71555], "type": "Point"}, "id": "ycLmKPACyV55_v9YT2bB1Ix-zZ8=", "properties": {"@spider": "usps_collection_boxes", "addr:city": "LOVINGTON", "addr:country": "US", "addr:full": "101 E STATE ST", "addr:postcode": "61937", "addr:state": "IL", "amenity": "post_box", "brand": "United States Postal Service", "brand:wikidata": "Q668687", "collection_times": "Mo-Fr 14:15; Sa 09:15", "name": "USPS COLLECTION BOX - PO LOBBY", "note": "ON 12/24 AND 12/31, THIS BOX MAY BE COLLECTED AS EARLY AS 12 NOON.", "nsi_id": "unitedstatespostalservice-a77078", "operator": "United States Postal Service", "operator:short": "USPS", "operator:type": "public", "operator:wikidata": "Q668687", "ref": "6193700001"}, "type": "Feature"}
{"dataset_attributes": {"@spider": "usps_collection_boxes", "spider:collection_time": "2023-08-22T08:24:26.238206"}, "geometry": {"coordinates": [-88.6318425, 39.715524547], "type": "Point"}, "id": "DMjvN6YASDwV6zsdHsyIPc-zFRc=", "properties": {"@spider": "usps_collection_boxes", "addr:city": "LOVINGTON", "addr:country": "US", "addr:full": "101 E STATE ST", "addr:postcode": "61937", "addr:state": "IL", "amenity": "post_box", "brand": "United States Postal Service", "brand:wikidata": "Q668687", "collection_times": "Mo-Fr 14:15; Sa 09:15", "name": "USPS COLLECTION BOX - PO LOBBY", "note": "ON 12/24 AND 12/31, THIS BOX MAY BE COLLECTED AS EARLY AS 12 NOON.", "nsi_id": "unitedstatespostalservice-a77078", "operator": "United States Postal Service", "operator:short": "USPS", "operator:type": "public", "operator:wikidata": "Q668687", "ref": "6193700002"}, "type": "Feature"}
{"dataset_attributes": {"@spider": "usps_collection_boxes", "spider:collection_time": "2023-08-22T08:24:26.238206"}, "geometry": {"coordinates": [-88.372435858, 39.483369], "type": "Point"}, "id": "iwnbnaKwEwrTc7_zFimE60mjhTs=", "properties": {"@spider": "usps_collection_boxes", "addr:city": "MATTOON", "addr:country": "US", "addr:full": "120 N 15TH ST", "addr:postcode": "61938", "addr:state": "IL", "amenity": "post_box", "brand": "United States Postal Service", "brand:wikidata": "Q668687", "collection_times": "Mo-Sa 17:00", "name": "USPS COLLECTION BOX - BLUE BOX", "note": "ON 12/24 AND 12/31, THIS BOX MAY BE COLLECTED AS EARLY AS 12 NOON.", "nsi_id": "unitedstatespostalservice-a77078", "operator": "United States Postal Service", "operator:short": "USPS", "operator:type": "public", "operator:wikidata": "Q668687", "ref": "6193800001"}, "type": "Feature"}
{"dataset_attributes": {"@spider": "usps_collection_boxes", "spider:collection_time": "2023-08-22T08:24:26.238206"}, "geometry": {"coordinates": [-88.3426788, 39.484757], "type": "Point"}, "id": "ObqbSEeXMfU3cZi57VAMW0REHKI=", "properties": {"@spider": "usps_collection_boxes", "addr:city": "MATTOON", "addr:country": "US", "addr:full": "700 BROADWAY AVE E", "addr:postcode": "61938", "addr:state": "IL", "amenity": "post_box", "brand": "United States Postal Service", "brand:wikidata": "Q668687", "collection_times": "Mo-Sa 13:00", "name": "USPS COLLECTION BOX - BLUE BOX", "note": "ON 12/24 AND 12/31, THIS BOX MAY BE COLLECTED AS EARLY AS 12 NOON.", "nsi_id": "unitedstatespostalservice-a77078", "operator": "United States Postal Service", "operator:short": "USPS", "operator:type": "public", "operator:wikidata": "Q668687", "ref": "6193800011"}, "type": "Feature"}
{"dataset_attributes": {"@spider": "usps_collection_boxes", "spider:collection_time": "2023-08-22T08:24:26.238206"}, "geometry": {"coordinates": [-88.3788145, 39.483621], "type": "Point"}, "id": "yvbSOBWkyBlF6ShekTouEQLLnWY=", "properties": {"@spider": "usps_collection_boxes", "addr:city": "MATTOON", "addr:country": "US", "addr:full": "2000 WESTERN AVE", "addr:postcode": "61938", "addr:state": "IL", "amenity": "post_box", "brand": "United States Postal Service", "brand:wikidata": "Q668687", "collection_times": "Mo-Sa 13:00", "name": "USPS COLLECTION BOX - BLUE BOX", "note": "ON 12/24 AND 12/31, THIS BOX MAY BE COLLECTED AS EARLY AS 12 NOON.", "nsi_id": "unitedstatespostalservice-a77078", "operator": "United States Postal Service", "operator:short": "USPS", "operator:type": "public", "operator:wikidata": "Q668687", "ref": "6193800025"}, "type": "Feature"}
{"dataset_attributes": {"@spider": "usps_collection_boxes", "spider:collection_time": "2023-08-22T08:24:26.238206"}, "geometry": {"coordinates": [-88.372435858, 39.483369], "type": "Point"}, "id": "ti86aBqKN-nl1_5aqjkP3xohr9U=", "properties": {"@spider": "usps_collection_boxes", "addr:city": "MATTOON", "addr:country": "US", "addr:full": "120 N 15TH ST", "addr:postcode": "61938", "addr:state": "IL", "amenity": "post_box", "brand": "United States Postal Service", "brand:wikidata": "Q668687", "collection_times": "Mo-Sa 17:00", "name": "USPS COLLECTION BOX - BLUE BOX", "note": "ON 12/24 AND 12/31, THIS BOX MAY BE COLLECTED AS EARLY AS 12 NOON.", "nsi_id": "unitedstatespostalservice-a77078", "operator": "United States Postal Service", "operator:short": "USPS", "operator:type": "public", "operator:wikidata": "Q668687", "ref": "6193800028"}, "type": "Feature"}
{"dataset_attributes": {"@spider": "usps_collection_boxes", "spider:collection_time": "2023-08-22T08:24:26.238206"}, "geometry": {"coordinates": [-88.372435858, 39.483369], "type": "Point"}, "id": "ew23SCPUyCHIcJNXXkAPzaJSdoM=", "properties": {"@spider": "usps_collection_boxes", "addr:city": "MATTOON", "addr:country": "US", "addr:full": "120 N 15TH ST", "addr:postcode": "61938", "addr:state": "IL", "amenity": "post_box", "brand": "United States Postal Service", "brand:wikidata": "Q668687", "collection_times": "Mo-Sa 17:00", "name": "USPS COLLECTION BOX - BLUE BOX", "note": "ON 12/24 AND 12/31, THIS BOX MAY BE COLLECTED AS EARLY AS 12 NOON.", "nsi_id": "unitedstatespostalservice-a77078", "operator": "United States Postal Service", "operator:short": "USPS", "operator:type": "public", "operator:wikidata": "Q668687", "ref": "6193800029"}, "type": "Feature"}
{"dataset_attributes": {"@spider": "usps_collection_boxes", "spider:collection_time": "2023-08-22T08:24:26.238206"}, "geometry": {"coordinates": [-88.372435858, 39.483369], "type": "Point"}, "id": "XOhczN7LIuQCxSZwyxvXGoM5LyA=", "properties": {"@spider": "usps_collection_boxes", "addr:city": "MATTOON", "addr:country": "US", "addr:full": "120 N 15TH ST", "addr:postcode": "61938", "addr:state": "IL", "amenity": "post_box", "brand": "United States Postal Service", "brand:wikidata": "Q668687", "collection_times": "Mo-Sa 17:00", "name": "USPS COLLECTION BOX - BLUE BOX", "note": "ON 12/24 AND 12/31, THIS BOX MAY BE COLLECTED AS EARLY AS 12 NOON.", "nsi_id": "unitedstatespostalservice-a77078", "operator": "United States Postal Service", "operator:short": "USPS", "operator:type": "public", "operator:wikidata": "Q668687", "ref": "6193800030"}, "type": "Feature"}
{"dataset_attributes": {"@spider": "usps_collection_boxes", "spider:collection_time": "2023-08-22T08:24:26.238206"}, "geometry": {"coordinates": [-88.372435858, 39.483369], "type": "Point"}, "id": "e7uOWtsXramSRidEj6W38dqmsGs=", "properties": {"@spider": "usps_collection_boxes", "addr:city": "MATTOON", "addr:country": "US", "addr:full": "120 N 15TH ST", "addr:postcode": "61938", "addr:state": "IL", "amenity": "post_box", "brand": "United States Postal Service", "brand:wikidata": "Q668687", "collection_times": "Mo-Sa 17:00", "name": "USPS COLLECTION BOX - BLUE BOX", "note": "ON 12/24 AND 12/31, THIS BOX MAY BE COLLECTED AS EARLY AS 12 NOON.", "nsi_id": "unitedstatespostalservice-a77078", "operator": "United States Postal Service", "operator:short": "USPS", "operator:type": "public", "operator:wikidata": "Q668687", "ref": "6193800031"}, "type": "Feature"}
{"dataset_attributes": {"@spider": "usps_collection_boxes", "spider:collection_time": "2023-08-22T08:24:26.238206"}, "geometry": {"coordinates": [-88.372435858, 39.483369], "type": "Point"}, "id": "lGC_qI4J-nfKEdwx12rstiPJ2lk=", "properties": {"@spider": "usps_collection_boxes", "addr:city": "MATTOON", "addr:country": "US", "addr:full": "120 N 15TH ST", "addr:postcode": "61938", "addr:state": "IL", "amenity": "post_box", "brand": "United States Postal Service", "brand:wikidata": "Q668687", "collection_times": "Mo-Sa 17:00", "name": "USPS COLLECTION BOX - PO LOBBY", "note": "ON 12/24 AND 12/31, THIS BOX MAY BE COLLECTED AS EARLY AS 12 NOON.", "nsi_id": "unitedstatespostalservice-a77078", "operator": "United States Postal Service", "operator:short": "USPS", "operator:type": "public", "operator:wikidata": "Q668687", "ref": "6193800034"}, "type": "Feature"}
{"dataset_attributes": {"@spider": "usps_collection_boxes", "spider:collection_time": "2023-08-22T08:24:26.238206"}, "geometry": {"coordinates": [-88.372435858, 39.483369], "type": "Point"}, "id": "mOz5Utjb6YnkEDQ7X-qrGCmpMs0=", "properties": {"@spider": "usps_collection_boxes", "addr:city": "MATTOON", "addr:country": "US", "addr:full": "120 N 15TH ST", "addr:postcode": "61938", "addr:state": "IL", "amenity": "post_box", "brand": "United States Postal Service", "brand:wikidata": "Q668687", "collection_times": "Mo-Fr 16:30; Sa 12:00", "name": "USPS COLLECTION BOX - PO LOBBY", "note": "ON 12/24 AND 12/31, THIS BOX MAY BE COLLECTED AS EARLY AS 12 NOON.", "nsi_id": "unitedstatespostalservice-a77078", "operator": "United States Postal Service", "operator:short": "USPS", "operator:type": "public", "operator:wikidata": "Q668687", "ref": "6193800036"}, "type": "Feature"}
{"dataset_attributes": {"@spider": "usps_collection_boxes", "spider:collection_time": "2023-08-22T08:24:26.238206"}, "geometry": {"coordinates": [-87.806801, 39.79997], "type": "Point"}, "id": "VRZHcHt7EtxR1sSXEXS6OIlZySk=", "properties": {"@spider": "usps_collection_boxes", "addr:city": "METCALF", "addr:country": "US", "addr:full": "212 N CENTRAL ST", "addr:postcode": "61940", "addr:state": "IL", "amenity": "post_box", "brand": "United States Postal Service", "brand:wikidata": "Q668687", "collection_times": "Mo-Fr 10:45; Sa 09:45", "name": "USPS COLLECTION BOX - BLUE BOX", "nsi_id": "unitedstatespostalservice-a77078", "operator": "United States Postal Service", "operator:short": "USPS", "operator:type": "public", "operator:wikidata": "Q668687", "ref": "6194000000"}, "type": "Feature"}
{"dataset_attributes": {"@spider": "usps_collection_boxes", "spider:collection_time": "2023-08-22T08:24:26.238206"}, "geometry": {"coordinates": [-87.806767, 39.799895], "type": "Point"}, "id": "W-cRKZnoCTht57BfDV5DOLQ0jao=", "properties": {"@spider": "usps_collection_boxes", "addr:city": "METCALF", "addr:country": "US", "addr:full": "212 N CENTRAL ST", "addr:postcode": "61940", "addr:state": "IL", "amenity": "post_box", "brand": "United States Postal Service", "brand:wikidata": "Q668687", "collection_times": "Mo-Fr 10:45; Sa 09:45", "name": "USPS COLLECTION BOX - PO LOBBY", "nsi_id": "unitedstatespostalservice-a77078", "operator": "United States Postal Service", "operator:short": "USPS", "operator:type": "public", "operator:wikidata": "Q668687", "ref": "6194000001"}, "type": "Feature"}
{"dataset_attributes": {"@spider": "usps_collection_boxes", "spider:collection_time": "2023-08-22T08:24:26.238206"}, "geometry": {"coordinates": [-87.806828122, 39.799940501], "type": "Point"}, "id": "EKaLOjv1ex2gVjOukQ00n_lGTho=", "properties": {"@spider": "usps_collection_boxes", "addr:city": "METCALF", "addr:country": "US", "addr:full": "212 N CENTRAL ST", "addr:postcode": "61940", "addr:state": "IL", "amenity": "post_box", "brand": "United States Postal Service", "brand:wikidata": "Q668687", "collection_times": "Mo-Fr 10:45; Sa 09:45", "name": "USPS COLLECTION BOX - PO LOBBY", "nsi_id": "unitedstatespostalservice-a77078", "operator": "United States Postal Service", "operator:short": "USPS", "operator:type": "public", "operator:wikidata": "Q668687", "ref": "6194000002"}, "type": "Feature"}
{"dataset_attributes": {"@spider": "usps_collection_boxes", "spider:collection_time": "2023-08-22T08:24:26.238206"}, "geometry": {"coordinates": [-88.078879, 39.802136], "type": "Point"}, "id": "YIEo7UMBo1qMNr0SdYSnaT0b8iA=", "properties": {"@spider": "usps_collection_boxes", "addr:city": "MURDOCK", "addr:country": "US", "addr:full": "203 N CENTER ST", "addr:postcode": "61941", "addr:state": "IL", "amenity": "post_box", "brand": "United States Postal Service", "brand:wikidata": "Q668687", "collection_times": "Mo-Fr 12:45; Sa 14:15", "name": "USPS COLLECTION BOX - BLUE BOX", "note": "ON 12/24 AND 12/31, THIS BOX MAY BE COLLECTED AS EARLY AS 12 NOON.", "nsi_id": "unitedstatespostalservice-a77078", "operator": "United States Postal Service", "operator:short": "USPS", "operator:type": "public", "operator:wikidata": "Q668687", "ref": "6194100000"}, "type": "Feature"}
{"dataset_attributes": {"@spider": "usps_collection_boxes", "spider:collection_time": "2023-08-22T08:24:26.238206"}, "geometry": {"coordinates": [-88.078916, 39.802051], "type": "Point"}, "id": "0cgX6Bd4ZJsjB2IlxWbA4ejb3cE=", "properties": {"@spider": "usps_collection_boxes", "addr:city": "MURDOCK", "addr:country": "US", "addr:full": "203 N CENTER ST", "addr:postcode": "61941", "addr:state": "IL", "amenity": "post_box", "brand": "United States Postal Service", "brand:wikidata": "Q668687", "collection_times": "Mo-Fr 12:45; Sa 14:15", "name": "USPS COLLECTION BOX - PO LOBBY", "note": "ON 12/24 AND 12/31, THIS BOX MAY BE COLLECTED AS EARLY AS 12 NOON.", "nsi_id": "unitedstatespostalservice-a77078", "operator": "United States Postal Service", "operator:short": "USPS", "operator:type": "public", "operator:wikidata": "Q668687", "ref": "6194100001"}, "type": "Feature"}
{"dataset_attributes": {"@spider": "usps_collection_boxes", "spider:collection_time": "2023-08-22T08:24:26.238206"}, "geometry": {"coordinates": [-88.07897138, 39.80030738], "type": "Point"}, "id": "3LPgK1RFjuPNKVz5DAe5IBaDfcY=", "properties": {"@spider": "usps_collection_boxes", "addr:city": "MURDOCK", "addr:country": "US", "addr:full": "203 N CENTER ST", "addr:postcode": "61941", "addr:state": "IL", "amenity": "post_box", "brand": "United States Postal Service", "brand:wikidata": "Q668687", "collection_times": "Mo-Fr 12:45; Sa 14:15", "name": "USPS COLLECTION BOX - PO LOBBY", "note": "ON 12/24 AND 12/31, THIS BOX MAY BE COLLECTED AS EARLY AS 12 NOON.", "nsi_id": "unitedstatespostalservice-a77078", "operator": "United States Postal Service", "operator:short": "USPS", "operator:type": "public", "operator:wikidata": "Q668687", "ref": "6194100002"}, "type": "Feature"}
{"dataset_attributes": {"@spider": "usps_collection_boxes", "spider:collection_time": "2023-08-22T08:24:26.238206"}, "geometry": {"coordinates": [-87.982902, 39.796784], "type": "Point"}, "id": "sh3KNIl-n3jKpopG9JxLTEftEZM=", "properties": {"@spider": "usps_collection_boxes", "addr:city": "NEWMAN", "addr:country": "US", "addr:full": "101 S HOWARD ST", "addr:postcode": "61942", "addr:state": "IL", "amenity": "post_box", "brand": "United States Postal Service", "brand:wikidata": "Q668687", "collection_times": "Mo-Fr 15:15; Sa 09:15", "name": "USPS COLLECTION BOX - BLUE BOX", "note": "ON 12/24 AND 12/31, THIS BOX MAY BE COLLECTED AS EARLY AS 12 NOON.", "nsi_id": "unitedstatespostalservice-a77078", "operator": "United States Postal Service", "operator:short": "USPS", "operator:type": "public", "operator:wikidata": "Q668687", "ref": "6194200001"}, "type": "Feature"}
{"dataset_attributes": {"@spider": "usps_collection_boxes", "spider:collection_time": "2023-08-22T08:24:26.238206"}, "geometry": {"coordinates": [-87.982939, 39.796874], "type": "Point"}, "id": "BhDiCC-WaNu_HK7fZJhQOWb4mPA=", "properties": {"@spider": "usps_collection_boxes", "addr:city": "NEWMAN", "addr:country": "US", "addr:full": "101 S HOWARD ST", "addr:postcode": "61942", "addr:state": "IL", "amenity": "post_box", "brand": "United States Postal Service", "brand:wikidata": "Q668687", "collection_times": "Mo-Fr 15:15; Sa 09:15", "name": "USPS COLLECTION BOX - PO LOBBY", "note": "ON 12/24 AND 12/31, THIS BOX MAY BE COLLECTED AS EARLY AS 12 NOON.", "nsi_id": "unitedstatespostalservice-a77078", "operator": "United States Postal Service", "operator:short": "USPS", "operator:type": "public", "operator:wikidata": "Q668687", "ref": "6194200002"}, "type": "Feature"}
{"dataset_attributes": {"@spider": "usps_collection_boxes", "spider:collection_time": "2023-08-22T08:24:26.238206"}, "geometry": {"coordinates": [-87.982914738, 39.797694335], "type": "Point"}, "id": "8lh5Y-Fl0LhClYyps-IoGr7bsuE=", "properties": {"@spider": "usps_collection_boxes", "addr:city": "NEWMAN", "addr:country": "US", "addr:full": "101 S HOWARD ST", "addr:postcode": "61942", "addr:state": "IL", "amenity": "post_box", "brand": "United States Postal Service", "brand:wikidata": "Q668687", "collection_times": "Mo-Fr 15:15; Sa 09:15", "name": "USPS COLLECTION BOX - PO LOBBY", "note": "ON 12/24 AND 12/31, THIS BOX MAY BE COLLECTED AS EARLY AS 12 NOON.", "nsi_id": "unitedstatespostalservice-a77078", "operator": "United States Postal Service", "operator:short": "USPS", "operator:type": "public", "operator:wikidata": "Q668687", "ref": "6194200003"}, "type": "Feature"}
{"dataset_attributes": {"@spider": "usps_collection_boxes", "spider:collection_time": "2023-08-22T08:24:26.238206"}, "geometry": {"coordinates": [-88.027349, 39.655055], "type": "Point"}, "id": "SO7YF2z1J17riMDdZbrww8awI0o=", "properties": {"@spider": "usps_collection_boxes", "addr:city": "OAKLAND", "addr:country": "US", "addr:full": "4 PIKE ST", "addr:postcode": "61943", "addr:state": "IL", "amenity": "post_box", "brand": "United States Postal Service", "brand:wikidata": "Q668687", "collection_times": "Mo-Fr 15:45; Sa 10:30", "name": "USPS COLLECTION BOX - BLUE BOX", "note": "ON 12/24 AND 12/31, THIS BOX MAY BE COLLECTED AS EARLY AS 12 NOON.", "nsi_id": "unitedstatespostalservice-a77078", "operator": "United States Postal Service", "operator:short": "USPS", "operator:type": "public", "operator:wikidata": "Q668687", "ref": "6194300001"}, "type": "Feature"}
{"dataset_attributes": {"@spider": "usps_collection_boxes", "spider:collection_time": "2023-08-22T08:24:26.238206"}, "geometry": {"coordinates": [-88.02733, 39.654966], "type": "Point"}, "id": "PFcUB_O-wzg2vHB5kaMeUEVbxa8=", "properties": {"@spider": "usps_collection_boxes", "addr:city": "OAKLAND", "addr:country": "US", "addr:full": "4 PIKE ST", "addr:postcode": "61943", "addr:state": "IL", "amenity": "post_box", "brand": "United States Postal Service", "brand:wikidata": "Q668687", "collection_times": "Mo-Fr 15:45; Sa 10:30", "name": "USPS COLLECTION BOX - PO LOBBY", "note": "ON 12/24 AND 12/31, THIS BOX MAY BE COLLECTED AS EARLY AS 12 NOON.", "nsi_id": "unitedstatespostalservice-a77078", "operator": "United States Postal Service", "operator:short": "USPS", "operator:type": "public", "operator:wikidata": "Q668687", "ref": "6194300002"}, "type": "Feature"}
{"dataset_attributes": {"@spider": "usps_collection_boxes", "spider:collection_time": "2023-08-22T08:24:26.238206"}, "geometry": {"coordinates": [-88.027295078, 39.654961553], "type": "Point"}, "id": "2pFrIZaAk1Mjn5MwqdgolnVlyoY=", "properties": {"@spider": "usps_collection_boxes", "addr:city": "OAKLAND", "addr:country": "US", "addr:full": "4 PIKE ST", "addr:postcode": "61943", "addr:state": "IL", "amenity": "post_box", "brand": "United States Postal Service", "brand:wikidata": "Q668687", "collection_times": "Mo-Fr 15:45; Sa 10:30", "name": "USPS COLLECTION BOX - PO LOBBY", "note": "ON 12/24 AND 12/31, THIS BOX MAY BE COLLECTED AS EARLY AS 12 NOON.", "nsi_id": "unitedstatespostalservice-a77078", "operator": "United States Postal Service", "operator:short": "USPS", "operator:type": "public", "operator:wikidata": "Q668687", "ref": "6194300003"}, "type": "Feature"}
{"dataset_attributes": {"@spider": "usps_collection_boxes", "spider:collection_time": "2023-08-22T08:24:26.238206"}, "geometry": {"coordinates": [-87.6942596, 39.612382], "type": "Point"}, "id": "OZ0hZoEt-jKcwH4Qa2RAOT-jXqU=", "properties": {"@spider": "usps_collection_boxes", "addr:city": "PARIS", "addr:country": "US", "addr:full": "200 N MAIN ST", "addr:postcode": "61944", "addr:state": "IL", "amenity": "post_box", "brand": "United States Postal Service", "brand:wikidata": "Q668687", "collection_times": "Mo-Sa 15:30", "name": "USPS COLLECTION BOX - BLUE BOX", "note": "ON 12/24 AND 12/31, THIS BOX MAY BE COLLECTED AS EARLY AS 12 NOON.", "nsi_id": "unitedstatespostalservice-a77078", "operator": "United States Postal Service", "operator:short": "USPS", "operator:type": "public", "operator:wikidata": "Q668687", "ref": "6194400001"}, "type": "Feature"}
{"dataset_attributes": {"@spider": "usps_collection_boxes", "spider:collection_time": "2023-08-22T08:24:26.238206"}, "geometry": {"coordinates": [-87.6949893, 39.60922], "type": "Point"}, "id": "s5g4RMJfP3EB0dwOjDkXsC6qPi8=", "properties": {"@spider": "usps_collection_boxes", "addr:city": "PARIS", "addr:country": "US", "addr:full": "207 S MAIN ST", "addr:postcode": "61944", "addr:state": "IL", "amenity": "post_box", "brand": "United States Postal Service", "brand:wikidata": "Q668687", "collection_times": "Mo-Sa 15:30", "name": "USPS COLLECTION BOX - BLUE BOX", "note": "ON 12/24 AND 12/31, THIS BOX MAY BE COLLECTED AS EARLY AS 12 NOON.", "nsi_id": "unitedstatespostalservice-a77078", "operator": "United States Postal Service", "operator:short": "USPS", "operator:type": "public", "operator:wikidata": "Q668687", "ref": "6194400005"}, "type": "Feature"}
{"dataset_attributes": {"@spider": "usps_collection_boxes", "spider:collection_time": "2023-08-22T08:24:26.238206"}, "geometry": {"coordinates": [-87.6978831, 39.603112], "type": "Point"}, "id": "vWGFqjriIXRdP028cIsF0jJJiz0=", "properties": {"@spider": "usps_collection_boxes", "addr:city": "PARIS", "addr:country": "US", "addr:full": "302 W JASPER ST", "addr:postcode": "61944", "addr:state": "IL", "amenity": "post_box", "brand": "United States Postal Service", "brand:wikidata": "Q668687", "collection_times": "Mo-Sa 15:30", "name": "USPS COLLECTION BOX - BLUE BOX", "note": "ON 12/24 AND 12/31, THIS BOX MAY BE COLLECTED AS EARLY AS 12 NOON.", "nsi_id": "unitedstatespostalservice-a77078", "operator": "United States Postal Service", "operator:short": "USPS", "operator:type": "public", "operator:wikidata": "Q668687", "ref": "6194400011"}, "type": "Feature"}
{"dataset_attributes": {"@spider": "usps_collection_boxes", "spider:collection_time": "2023-08-22T08:24:26.238206"}, "geometry": {"coordinates": [-87.6811954, 39.60285], "type": "Point"}, "id": "dz-35UyLTkYq69AKV-g-9kOlx58=", "properties": {"@spider": "usps_collection_boxes", "addr:city": "PARIS", "addr:country": "US", "addr:full": "15150 US HIGHWAY 150", "addr:postcode": "61944", "addr:state": "IL", "amenity": "post_box", "brand": "United States Postal Service", "brand:wikidata": "Q668687", "collection_times": "Mo-Sa 15:30", "name": "USPS COLLECTION BOX - BLUE BOX", "note": "ON 12/24 AND 12/31, THIS BOX MAY BE COLLECTED AS EARLY AS 12 NOON.", "nsi_id": "unitedstatespostalservice-a77078", "operator": "United States Postal Service", "operator:short": "USPS", "operator:type": "public", "operator:wikidata": "Q668687", "ref": "6194400014"}, "type": "Feature"}
{"dataset_attributes": {"@spider": "usps_collection_boxes", "spider:collection_time": "2023-08-22T08:24:26.238206"}, "geometry": {"coordinates": [-87.6869811, 39.603247], "type": "Point"}, "id": "IADOOleDwT_8cb5Xa77SYMZga4A=", "properties": {"@spider": "usps_collection_boxes", "addr:city": "PARIS", "addr:country": "US", "addr:full": "520 E JASPER ST", "addr:postcode": "61944", "addr:state": "IL", "amenity": "post_box", "brand": "United States Postal Service", "brand:wikidata": "Q668687", "collection_times": "Mo-Sa 15:30", "name": "USPS COLLECTION BOX - BLUE BOX", "note": "ON 12/24 AND 12/31, THIS BOX MAY BE COLLECTED AS EARLY AS 12 NOON.", "nsi_id": "unitedstatespostalservice-a77078", "operator": "United States Postal Service", "operator:short": "USPS", "operator:type": "public", "operator:wikidata": "Q668687", "ref": "6194400015"}, "type": "Feature"}
{"dataset_attributes": {"@spider": "usps_collection_boxes", "spider:collection_time": "2023-08-22T08:24:26.238206"}, "geometry": {"coordinates": [-87.6929758, 39.634181], "type": "Point"}, "id": "--eIkjV2Ewt6qqhP6KeSRf4A85w=", "properties": {"@spider": "usps_collection_boxes", "addr:city": "PARIS", "addr:country": "US", "addr:full": "1210 N MAIN ST", "addr:postcode": "61944", "addr:state": "IL", "amenity": "post_box", "brand": "United States Postal Service", "brand:wikidata": "Q668687", "collection_times": "Mo-Sa 12:30", "name": "USPS COLLECTION BOX - BLUE BOX", "note": "ON 12/24 AND 12/31, THIS BOX MAY BE COLLECTED AS EARLY AS 12 NOON.", "nsi_id": "unitedstatespostalservice-a77078", "operator": "United States Postal Service", "operator:short": "USPS", "operator:type": "public", "operator:wikidata": "Q668687", "ref": "6194400026"}, "type": "Feature"}
{"dataset_attributes": {"@spider": "usps_collection_boxes", "spider:collection_time": "2023-08-22T08:24:26.238206"}, "geometry": {"coordinates": [-87.693476, 39.612566], "type": "Point"}, "id": "k9JAZnMr5Ssf-8TRxCWr4ndmZJU=", "properties": {"@spider": "usps_collection_boxes", "addr:city": "PARIS", "addr:country": "US", "addr:full": "139 E WOOD ST", "addr:postcode": "61944", "addr:state": "IL", "amenity": "post_box", "brand": "United States Postal Service", "brand:wikidata": "Q668687", "collection_times": "Mo-Sa 16:45", "name": "USPS COLLECTION BOX - PO LOBBY", "note": "ON 12/24 AND 12/31, THIS BOX MAY BE COLLECTED AS EARLY AS 12 NOON.", "nsi_id": "unitedstatespostalservice-a77078", "operator": "United States Postal Service", "operator:short": "USPS", "operator:type": "public", "operator:wikidata": "Q668687", "ref": "6194400029"}, "type": "Feature"}
{"dataset_attributes": {"@spider": "usps_collection_boxes", "spider:collection_time": "2023-08-22T08:24:26.238206"}, "geometry": {"coordinates": [-87.6962893, 39.611016], "type": "Point"}, "id": "mPV1K05UmZU8xCVDQ5Bc0hkEnc4=", "properties": {"@spider": "usps_collection_boxes", "addr:city": "PARIS", "addr:country": "US", "addr:full": "128 W COURT ST", "addr:postcode": "61944", "addr:state": "IL", "amenity": "post_box", "brand": "United States Postal Service", "brand:wikidata": "Q668687", "collection_times": "Mo-Sa 15:30", "name": "USPS COLLECTION BOX - BLUE BOX", "note": "ON 12/24 AND 12/31, THIS BOX MAY BE COLLECTED AS EARLY AS 12 NOON.", "nsi_id": "unitedstatespostalservice-a77078", "operator": "United States Postal Service", "operator:short": "USPS", "operator:type": "public", "operator:wikidata": "Q668687", "ref": "6194400033"}, "type": "Feature"}
{"dataset_attributes": {"@spider": "usps_collection_boxes", "spider:collection_time": "2023-08-22T08:24:26.238206"}, "geometry": {"coordinates": [-87.693744803, 39.612304739], "type": "Point"}, "id": "B6GVimQjLSuanAzqwzvbZzumUGw=", "properties": {"@spider": "usps_collection_boxes", "addr:city": "PARIS", "addr:country": "US", "addr:full": "139 E WOOD ST", "addr:postcode": "61944", "addr:state": "IL", "amenity": "post_box", "brand": "United States Postal Service", "brand:wikidata": "Q668687", "collection_times": "Mo-Sa 16:45", "name": "USPS COLLECTION BOX - PO LOBBY", "note": "ON 12/24 AND 12/31, THIS BOX MAY BE COLLECTED AS EARLY AS 12 NOON.", "nsi_id": "unitedstatespostalservice-a77078", "operator": "United States Postal Service", "operator:short": "USPS", "operator:type": "public", "operator:wikidata": "Q668687", "ref": "6194400036"}, "type": "Feature"}
{"dataset_attributes": {"@spider": "usps_collection_boxes", "spider:collection_time": "2023-08-22T08:24:26.238206"}, "geometry": {"coordinates": [-87.857238, 39.643952], "type": "Point"}, "id": "3E7OC6pK69UrDCw5Xs8yW8sZd9A=", "properties": {"@spider": "usps_collection_boxes", "addr:city": "REDMON", "addr:country": "US", "addr:full": "402 OAK ST", "addr:postcode": "61949", "addr:state": "IL", "amenity": "post_box", "brand": "United States Postal Service", "brand:wikidata": "Q668687", "collection_times": "Mo-Fr 14:45; Sa 11:00", "name": "USPS COLLECTION BOX - BLUE BOX", "note": "ON 12/24 AND 12/31, THIS BOX MAY BE COLLECTED AS EARLY AS 12 NOON.", "nsi_id": "unitedstatespostalservice-a77078", "operator": "United States Postal Service", "operator:short": "USPS", "operator:type": "public", "operator:wikidata": "Q668687", "ref": "6194900000"}, "type": "Feature"}
{"dataset_attributes": {"@spider": "usps_collection_boxes", "spider:collection_time": "2023-08-22T08:24:26.238206"}, "geometry": {"coordinates": [-87.857238, 39.643952], "type": "Point"}, "id": "U3N5tx6if_4JM6tDLhzBOl4qjOs=", "properties": {"@spider": "usps_collection_boxes", "addr:city": "REDMON", "addr:country": "US", "addr:full": "402 OAK ST", "addr:postcode": "61949", "addr:state": "IL", "amenity": "post_box", "brand": "United States Postal Service", "brand:wikidata": "Q668687", "collection_times": "Mo-Fr 14:45; Sa 10:45", "name": "USPS COLLECTION BOX - PO LOBBY", "note": "ON 12/24 AND 12/31, THIS BOX MAY BE COLLECTED AS EARLY AS 12 NOON.", "nsi_id": "unitedstatespostalservice-a77078", "operator": "United States Postal Service", "operator:short": "USPS", "operator:type": "public", "operator:wikidata": "Q668687", "ref": "6194900001"}, "type": "Feature"}
{"dataset_attributes": {"@spider": "usps_collection_boxes", "spider:collection_time": "2023-08-22T08:24:26.238206"}, "geometry": {"coordinates": [-87.860548025, 39.645058433], "type": "Point"}, "id": "yyMgWDpcjhbKcQl3cAaU4QYC2t4=", "properties": {"@spider": "usps_collection_boxes", "addr:city": "REDMON", "addr:country": "US", "addr:full": "402 OAK ST", "addr:postcode": "61949", "addr:state": "IL", "amenity": "post_box", "brand": "United States Postal Service", "brand:wikidata": "Q668687", "collection_times": "Mo-Fr 14:45; Sa 11:00", "name": "USPS COLLECTION BOX - PO LOBBY", "note": "ON 12/24 AND 12/31, THIS BOX MAY BE COLLECTED AS EARLY AS 12 NOON.", "nsi_id": "unitedstatespostalservice-a77078", "operator": "United States Postal Service", "operator:short": "USPS", "operator:type": "public", "operator:wikidata": "Q668687", "ref": "6194900002"}, "type": "Feature"}
{"dataset_attributes": {"@spider": "usps_collection_boxes", "spider:collection_time": "2023-08-22T08:24:26.238206"}, "geometry": {"coordinates": [-88.605298, 39.598836], "type": "Point"}, "id": "J3xDoNQOOzcHbu02ALw7-h6Pb58=", "properties": {"@spider": "usps_collection_boxes", "addr:city": "SULLIVAN", "addr:country": "US", "addr:full": "16 S MADISON ST", "addr:postcode": "61951", "addr:state": "IL", "amenity": "post_box", "brand": "United States Postal Service", "brand:wikidata": "Q668687", "collection_times": "Mo-Fr 16:15; Sa 11:45", "name": "USPS COLLECTION BOX - BLUE BOX", "note": "ON 12/24 AND 12/31, THIS BOX MAY BE COLLECTED AS EARLY AS 12 NOON.", "nsi_id": "unitedstatespostalservice-a77078", "operator": "United States Postal Service", "operator:short": "USPS", "operator:type": "public", "operator:wikidata": "Q668687", "ref": "6195100000"}, "type": "Feature"}
{"dataset_attributes": {"@spider": "usps_collection_boxes", "spider:collection_time": "2023-08-22T08:24:26.238206"}, "geometry": {"coordinates": [-88.6073665, 39.599295], "type": "Point"}, "id": "UITyda2WYyRAM-YNEeBJmXCPwEQ=", "properties": {"@spider": "usps_collection_boxes", "addr:city": "SULLIVAN", "addr:country": "US", "addr:full": "10 S MAIN ST", "addr:postcode": "61951", "addr:state": "IL", "amenity": "post_box", "brand": "United States Postal Service", "brand:wikidata": "Q668687", "collection_times": "Mo-Fr 14:15; Sa 13:30", "name": "USPS COLLECTION BOX - BLUE BOX", "note": "ON 12/24 AND 12/31, THIS BOX MAY BE COLLECTED AS EARLY AS 12 NOON.", "nsi_id": "unitedstatespostalservice-a77078", "operator": "United States Postal Service", "operator:short": "USPS", "operator:type": "public", "operator:wikidata": "Q668687", "ref": "6195100001"}, "type": "Feature"}
{"dataset_attributes": {"@spider": "usps_collection_boxes", "spider:collection_time": "2023-08-22T08:24:26.238206"}, "geometry": {"coordinates": [-88.6104985, 39.595244], "type": "Point"}, "id": "Z4xUq55hC_dtJ8ua9bFdAoujsOE=", "properties": {"@spider": "usps_collection_boxes", "addr:city": "SULLIVAN", "addr:country": "US", "addr:full": "431 S HAMILTON ST", "addr:postcode": "61951", "addr:state": "IL", "amenity": "post_box", "brand": "United States Postal Service", "brand:wikidata": "Q668687", "collection_times": "Mo-Fr 14:00; Sa 13:15", "name": "USPS COLLECTION BOX - BLUE BOX", "note": "ON 12/24 AND 12/31, THIS BOX MAY BE COLLECTED AS EARLY AS 12 NOON.", "nsi_id": "unitedstatespostalservice-a77078", "operator": "United States Postal Service", "operator:short": "USPS", "operator:type": "public", "operator:wikidata": "Q668687", "ref": "6195100003"}, "type": "Feature"}
{"dataset_attributes": {"@spider": "usps_collection_boxes", "spider:collection_time": "2023-08-22T08:24:26.238206"}, "geometry": {"coordinates": [-88.605298, 39.598836], "type": "Point"}, "id": "-nb8C4RCw53DCx-sbYWMqI7oNaw=", "properties": {"@spider": "usps_collection_boxes", "addr:city": "SULLIVAN", "addr:country": "US", "addr:full": "16 S MADISON ST", "addr:postcode": "61951", "addr:state": "IL", "amenity": "post_box", "brand": "United States Postal Service", "brand:wikidata": "Q668687", "collection_times": "Mo-Fr 16:15; Sa 11:45", "name": "USPS COLLECTION BOX - BLUE BOX", "note": "ON 12/24 AND 12/31, THIS BOX MAY BE COLLECTED AS EARLY AS 12 NOON.", "nsi_id": "unitedstatespostalservice-a77078", "operator": "United States Postal Service", "operator:short": "USPS", "operator:type": "public", "operator:wikidata": "Q668687", "ref": "6195100007"}, "type": "Feature"}
{"dataset_attributes": {"@spider": "usps_collection_boxes", "spider:collection_time": "2023-08-22T08:24:26.238206"}, "geometry": {"coordinates": [-88.605298, 39.598836], "type": "Point"}, "id": "mgWZ1X7-jrD_qLxO51E8P9xlgFE=", "properties": {"@spider": "usps_collection_boxes", "addr:city": "SULLIVAN", "addr:country": "US", "addr:full": "16 S MADISON ST", "addr:postcode": "61951", "addr:state": "IL", "amenity": "post_box", "brand": "United States Postal Service", "brand:wikidata": "Q668687", "collection_times": "Mo-Fr 16:15; Sa 11:45", "name": "USPS COLLECTION BOX - PO LOBBY", "note": "ON 12/24 AND 12/31, THIS BOX MAY BE COLLECTED AS EARLY AS 12 NOON.", "nsi_id": "unitedstatespostalservice-a77078", "operator": "United States Postal Service", "operator:short": "USPS", "operator:type": "public", "operator:wikidata": "Q668687", "ref": "6195100008"}, "type": "Feature"}
{"dataset_attributes": {"@spider": "usps_collection_boxes", "spider:collection_time": "2023-08-22T08:24:26.238206"}, "geometry": {"coordinates": [-88.605454858, 39.598838528], "type": "Point"}, "id": "3Dn4z2bMPRlLGLOAw50gFRjJPoY=", "properties": {"@spider": "usps_collection_boxes", "addr:city": "SULLIVAN", "addr:country": "US", "addr:full": "16 S MADISON ST", "addr:postcode": "61951", "addr:state": "IL", "amenity": "post_box", "brand": "United States Postal Service", "brand:wikidata": "Q668687", "collection_times": "Mo-Fr 16:15; Sa 11:45", "name": "USPS COLLECTION BOX - PO LOBBY", "note": "ON 12/24 AND 12/31, THIS BOX MAY BE COLLECTED AS EARLY AS 12 NOON.", "nsi_id": "unitedstatespostalservice-a77078", "operator": "United States Postal Service", "operator:short": "USPS", "operator:type": "public", "operator:wikidata": "Q668687", "ref": "6195100012"}, "type": "Feature"}
{"dataset_attributes": {"@spider": "usps_collection_boxes", "spider:collection_time": "2023-08-22T08:24:26.238206"}, "geometry": {"coordinates": [-88.286065, 39.799931], "type": "Point"}, "id": "wXKe6ee68Uo5vi5Wo4lXWLP5P1E=", "properties": {"@spider": "usps_collection_boxes", "addr:city": "TUSCOLA", "addr:country": "US", "addr:full": "200 N CENTER ST", "addr:postcode": "61953", "addr:state": "IL", "amenity": "post_box", "brand": "United States Postal Service", "brand:wikidata": "Q668687", "collection_times": "Mo-Fr 16:15; Sa 10:45", "name": "USPS COLLECTION BOX - BLUE BOX", "note": "ON 12/24 AND 12/31, THIS BOX MAY BE COLLECTED AS EARLY AS 12 NOON.", "nsi_id": "unitedstatespostalservice-a77078", "operator": "United States Postal Service", "operator:short": "USPS", "operator:type": "public", "operator:wikidata": "Q668687", "ref": "6195300000"}, "type": "Feature"}
{"dataset_attributes": {"@spider": "usps_collection_boxes", "spider:collection_time": "2023-08-22T08:24:26.238206"}, "geometry": {"coordinates": [-88.2849374, 39.795739], "type": "Point"}, "id": "mXSRZxmIzR-RVBhffXDVKia9Zuc=", "properties": {"@spider": "usps_collection_boxes", "addr:city": "TUSCOLA", "addr:country": "US", "addr:full": "401 S COURT ST", "addr:postcode": "61953", "addr:state": "IL", "amenity": "post_box", "brand": "United States Postal Service", "brand:wikidata": "Q668687", "collection_times": "Mo-Sa 14:30", "name": "USPS COLLECTION BOX - BLUE BOX", "note": "ON 12/24 AND 12/31, THIS BOX MAY BE COLLECTED AS EARLY AS 12 NOON.", "nsi_id": "unitedstatespostalservice-a77078", "operator": "United States Postal Service", "operator:short": "USPS", "operator:type": "public", "operator:wikidata": "Q668687", "ref": "6195300005"}, "type": "Feature"}
{"dataset_attributes": {"@spider": "usps_collection_boxes", "spider:collection_time": "2023-08-22T08:24:26.238206"}, "geometry": {"coordinates": [-88.2878561, 39.794178], "type": "Point"}, "id": "MxtoojOZoXkEywh2zTPjKH0vaTA=", "properties": {"@spider": "usps_collection_boxes", "addr:city": "TUSCOLA", "addr:country": "US", "addr:full": "600 S MAIN ST", "addr:postcode": "61953", "addr:state": "IL", "amenity": "post_box", "brand": "United States Postal Service", "brand:wikidata": "Q668687", "collection_times": "Mo-Sa 14:30", "name": "USPS COLLECTION BOX - BLUE BOX", "note": "ON 12/24 AND 12/31, THIS BOX MAY BE COLLECTED AS EARLY AS 12 NOON.", "nsi_id": "unitedstatespostalservice-a77078", "operator": "United States Postal Service", "operator:short": "USPS", "operator:type": "public", "operator:wikidata": "Q668687", "ref": "6195300008"}, "type": "Feature"}
{"dataset_attributes": {"@spider": "usps_collection_boxes", "spider:collection_time": "2023-08-22T08:24:26.238206"}, "geometry": {"coordinates": [-88.2795609, 39.790852], "type": "Point"}, "id": "7t6EsdS7fFdVt5GPB3diTzGau_U=", "properties": {"@spider": "usps_collection_boxes", "addr:city": "TUSCOLA", "addr:country": "US", "addr:full": "607 E SOUTHLINE RD", "addr:postcode": "61953", "addr:state": "IL", "amenity": "post_box", "brand": "United States Postal Service", "brand:wikidata": "Q668687", "collection_times": "Mo-Sa 12:00", "name": "USPS COLLECTION BOX - BLUE BOX", "nsi_id": "unitedstatespostalservice-a77078", "operator": "United States Postal Service", "operator:short": "USPS", "operator:type": "public", "operator:wikidata": "Q668687", "ref": "6195300009"}, "type": "Feature"}
{"dataset_attributes": {"@spider": "usps_collection_boxes", "spider:collection_time": "2023-08-22T08:24:26.238206"}, "geometry": {"coordinates": [-88.287282, 39.799861], "type": "Point"}, "id": "zlzEFEyMpXVPM_R-uCwalvlUyUk=", "properties": {"@spider": "usps_collection_boxes", "addr:city": "TUSCOLA", "addr:country": "US", "addr:full": "120 E SALE ST", "addr:postcode": "61953", "addr:state": "IL", "amenity": "post_box", "brand": "United States Postal Service", "brand:wikidata": "Q668687", "collection_times": "Mo-Fr 16:15; Sa 10:45", "name": "USPS COLLECTION BOX - PO LOBBY", "note": "ON 12/24 AND 12/31, THIS BOX MAY BE COLLECTED AS EARLY AS 12 NOON.", "nsi_id": "unitedstatespostalservice-a77078", "operator": "United States Postal Service", "operator:short": "USPS", "operator:type": "public", "operator:wikidata": "Q668687", "ref": "6195300017"}, "type": "Feature"}
{"dataset_attributes": {"@spider": "usps_collection_boxes", "spider:collection_time": "2023-08-22T08:24:26.238206"}, "geometry": {"coordinates": [-88.2705494, 39.788337], "type": "Point"}, "id": "Q4DOhtGpKry6FHdPmVQvLxUct60=", "properties": {"@spider": "usps_collection_boxes", "addr:city": "TUSCOLA", "addr:country": "US", "addr:full": "D400 TUSCOLA BLVD", "addr:postcode": "61953", "addr:state": "IL", "amenity": "post_box", "brand": "United States Postal Service", "brand:wikidata": "Q668687", "collection_times": "Mo-Sa 12:00", "name": "USPS COLLECTION BOX - BLUE BOX", "nsi_id": "unitedstatespostalservice-a77078", "operator": "United States Postal Service", "operator:short": "USPS", "operator:type": "public", "operator:wikidata": "Q668687", "ref": "6195300024"}, "type": "Feature"}
{"dataset_attributes": {"@spider": "usps_collection_boxes", "spider:collection_time": "2023-08-22T08:24:26.238206"}, "geometry": {"coordinates": [-88.286088983, 39.799892775], "type": "Point"}, "id": "bGLLUUDaucaacYRuVKa5qXaKUPs=", "properties": {"@spider": "usps_collection_boxes", "addr:city": "TUSCOLA", "addr:country": "US", "addr:full": "200 N CENTER ST", "addr:postcode": "61953", "addr:state": "IL", "amenity": "post_box", "brand": "United States Postal Service", "brand:wikidata": "Q668687", "collection_times": "Mo-Fr 16:15; Sa 10:45", "name": "USPS COLLECTION BOX - PO LOBBY", "note": "ON 12/24 AND 12/31, THIS BOX MAY BE COLLECTED AS EARLY AS 12 NOON.", "nsi_id": "unitedstatespostalservice-a77078", "operator": "United States Postal Service", "operator:short": "USPS", "operator:type": "public", "operator:wikidata": "Q668687", "ref": "6195300027"}, "type": "Feature"}
{"dataset_attributes": {"@spider": "usps_collection_boxes", "spider:collection_time": "2023-08-22T08:24:26.238206"}, "geometry": {"coordinates": [-87.5918256216, 39.5794865892], "type": "Point"}, "id": "2hoR93-kHDeOIjH2PC2IvX_A5kQ=", "properties": {"@spider": "usps_collection_boxes", "addr:city": "VERMILION", "addr:country": "US", "addr:full": "109 EDGAR ST", "addr:postcode": "61955", "addr:state": "IL", "amenity": "post_box", "brand": "United States Postal Service", "brand:wikidata": "Q668687", "collection_times": "Mo-Fr 14:15; Sa 10:15", "name": "USPS COLLECTION BOX - BLUE BOX", "note": "ON 12/24 AND 12/31, THIS BOX MAY BE COLLECTED AS EARLY AS 12 NOON.", "nsi_id": "unitedstatespostalservice-a77078", "operator": "United States Postal Service", "operator:short": "USPS", "operator:type": "public", "operator:wikidata": "Q668687", "ref": "6195500000"}, "type": "Feature"}
{"dataset_attributes": {"@spider": "usps_collection_boxes", "spider:collection_time": "2023-08-22T08:24:26.238206"}, "geometry": {"coordinates": [-87.591825622, 39.579486589], "type": "Point"}, "id": "lxsy-dsc3BMokLV7u6LmbKOeLeY=", "properties": {"@spider": "usps_collection_boxes", "addr:city": "VERMILION", "addr:country": "US", "addr:full": "109 EDGAR ST", "addr:postcode": "61955", "addr:state": "IL", "amenity": "post_box", "brand": "United States Postal Service", "brand:wikidata": "Q668687", "collection_times": "Mo-Fr 14:15; Sa 10:15", "name": "USPS COLLECTION BOX - PO LOBBY", "note": "ON 12/24 AND 12/31, THIS BOX MAY BE COLLECTED AS EARLY AS 12 NOON.", "nsi_id": "unitedstatespostalservice-a77078", "operator": "United States Postal Service", "operator:short": "USPS", "operator:type": "public", "operator:wikidata": "Q668687", "ref": "6195500001"}, "type": "Feature"}
{"dataset_attributes": {"@spider": "usps_collection_boxes", "spider:collection_time": "2023-08-22T08:24:26.238206"}, "geometry": {"coordinates": [-87.591825622, 39.579486589], "type": "Point"}, "id": "U-Tc4EC0bwTWnmMfitG0B403-18=", "properties": {"@spider": "usps_collection_boxes", "addr:city": "VERMILION", "addr:country": "US", "addr:full": "109 EDGAR ST", "addr:postcode": "61955", "addr:state": "IL", "amenity": "post_box", "brand": "United States Postal Service", "brand:wikidata": "Q668687", "collection_times": "Mo-Fr 14:15; Sa 13:00", "name": "USPS COLLECTION BOX - PO LOBBY", "note": "ON 12/24 AND 12/31, THIS BOX MAY BE COLLECTED AS EARLY AS 12 NOON.", "nsi_id": "unitedstatespostalservice-a77078", "operator": "United States Postal Service", "operator:short": "USPS", "operator:type": "public", "operator:wikidata": "Q668687", "ref": "6195500002"}, "type": "Feature"}
{"dataset_attributes": {"@spider": "usps_collection_boxes", "spider:collection_time": "2023-08-22T08:24:26.238206"}, "geometry": {"coordinates": [-88.161537, 39.863103], "type": "Point"}, "id": "D5ouYsdvaBfG_FtPFImABqDxwJk=", "properties": {"@spider": "usps_collection_boxes", "addr:city": "VILLA GROVE", "addr:country": "US", "addr:full": "110 N MAIN ST", "addr:postcode": "61956", "addr:state": "IL", "amenity": "post_box", "brand": "United States Postal Service", "brand:wikidata": "Q668687", "collection_times": "Mo-Fr 15:15; Sa 10:45", "name": "USPS COLLECTION BOX - BLUE BOX", "note": "ON 12/24 AND 12/31, THIS BOX MAY BE COLLECTED AS EARLY AS 12 NOON.", "nsi_id": "unitedstatespostalservice-a77078", "operator": "United States Postal Service", "operator:short": "USPS", "operator:type": "public", "operator:wikidata": "Q668687", "ref": "6195600000"}, "type": "Feature"}
{"dataset_attributes": {"@spider": "usps_collection_boxes", "spider:collection_time": "2023-08-22T08:24:26.238206"}, "geometry": {"coordinates": [-88.161537, 39.863103], "type": "Point"}, "id": "zbk7dJHZRZslz-8fvxYXUPzKRg4=", "properties": {"@spider": "usps_collection_boxes", "addr:city": "VILLA GROVE", "addr:country": "US", "addr:full": "110 N MAIN ST", "addr:postcode": "61956", "addr:state": "IL", "amenity": "post_box", "brand": "United States Postal Service", "brand:wikidata": "Q668687", "collection_times": "Mo-Fr 15:15; Sa 10:45", "name": "USPS COLLECTION BOX - PO LOBBY", "note": "ON 12/24 AND 12/31, THIS BOX MAY BE COLLECTED AS EARLY AS 12 NOON.", "nsi_id": "unitedstatespostalservice-a77078", "operator": "United States Postal Service", "operator:short": "USPS", "operator:type": "public", "operator:wikidata": "Q668687", "ref": "6195600003"}, "type": "Feature"}
{"dataset_attributes": {"@spider": "usps_collection_boxes", "spider:collection_time": "2023-08-22T08:24:26.238206"}, "geometry": {"coordinates": [-88.161575802, 39.863367], "type": "Point"}, "id": "YTNVFF2tQTrcl3Mlzk-dcewqTXU=", "properties": {"@spider": "usps_collection_boxes", "addr:city": "VILLA GROVE", "addr:country": "US", "addr:full": "110 N MAIN ST", "addr:postcode": "61956", "addr:state": "IL", "amenity": "post_box", "brand": "United States Postal Service", "brand:wikidata": "Q668687", "collection_times": "Mo-Fr 15:15; Sa 10:45", "name": "USPS COLLECTION BOX - PO LOBBY", "note": "ON 12/24 AND 12/31, THIS BOX MAY BE COLLECTED AS EARLY AS 12 NOON.", "nsi_id": "unitedstatespostalservice-a77078", "operator": "United States Postal Service", "operator:short": "USPS", "operator:type": "public", "operator:wikidata": "Q668687", "ref": "6195600006"}, "type": "Feature"}
{"dataset_attributes": {"@spider": "usps_collection_boxes", "spider:collection_time": "2023-08-22T08:24:26.238206"}, "geometry": {"coordinates": [-88.595106, 39.437884], "type": "Point"}, "id": "EyfmmOtkKSBCM0OgVqcWvloTilo=", "properties": {"@spider": "usps_collection_boxes", "addr:city": "WINDSOR", "addr:country": "US", "addr:full": "1105 MAINE ST", "addr:postcode": "61957", "addr:state": "IL", "amenity": "post_box", "brand": "United States Postal Service", "brand:wikidata": "Q668687", "collection_times": "Mo-Fr 14:15; Sa 09:15", "name": "USPS COLLECTION BOX - BLUE BOX", "note": "ON 12/24 AND 12/31, THIS BOX MAY BE COLLECTED AS EARLY AS 12 NOON.", "nsi_id": "unitedstatespostalservice-a77078", "operator": "United States Postal Service", "operator:short": "USPS", "operator:type": "public", "operator:wikidata": "Q668687", "ref": "6195700001"}, "type": "Feature"}
{"dataset_attributes": {"@spider": "usps_collection_boxes", "spider:collection_time": "2023-08-22T08:24:26.238206"}, "geometry": {"coordinates": [-88.595012, 39.437931], "type": "Point"}, "id": "7DUUWBou2DWgVFJ8Yz_7_9H1yOc=", "properties": {"@spider": "usps_collection_boxes", "addr:city": "WINDSOR", "addr:country": "US", "addr:full": "1105 MAINE ST", "addr:postcode": "61957", "addr:state": "IL", "amenity": "post_box", "brand": "United States Postal Service", "brand:wikidata": "Q668687", "collection_times": "Mo-Fr 14:15; Sa 09:15", "name": "USPS COLLECTION BOX - PO LOBBY", "note": "ON 12/24 AND 12/31, THIS BOX MAY BE COLLECTED AS EARLY AS 12 NOON.", "nsi_id": "unitedstatespostalservice-a77078", "operator": "United States Postal Service", "operator:short": "USPS", "operator:type": "public", "operator:wikidata": "Q668687", "ref": "6195700002"}, "type": "Feature"}
{"dataset_attributes": {"@spider": "usps_collection_boxes", "spider:collection_time": "2023-08-22T08:24:26.238206"}, "geometry": {"coordinates": [-88.595254373, 39.437850868], "type": "Point"}, "id": "ifHxWQYcr7RlH7jc1Rj25vDfzsc=", "properties": {"@spider": "usps_collection_boxes", "addr:city": "WINDSOR", "addr:country": "US", "addr:full": "1105 MAINE ST", "addr:postcode": "61957", "addr:state": "IL", "amenity": "post_box", "brand": "United States Postal Service", "brand:wikidata": "Q668687", "collection_times": "Mo-Fr 14:15; Sa 09:15", "name": "USPS COLLECTION BOX - PO LOBBY", "note": "ON 12/24 AND 12/31, THIS BOX MAY BE COLLECTED AS EARLY AS 12 NOON.", "nsi_id": "unitedstatespostalservice-a77078", "operator": "United States Postal Service", "operator:short": "USPS", "operator:type": "public", "operator:wikidata": "Q668687", "ref": "6195700003"}, "type": "Feature"}
