{"dataset_attributes": {"@spider": "usps_collection_boxes", "spider:collection_time": "2023-12-19T08:25:25.283853"}, "geometry": {"coordinates": [-91.359042114, 39.949923494], "type": "Point"}, "id": "p82n8D2mjiHEEfzSTgWzkIs72JU=", "properties": {"@spider": "usps_collection_boxes", "addr:city": "QUINCY", "addr:country": "US", "addr:full": "3535 LOCUST ST", "addr:postcode": "62301", "addr:state": "IL", "amenity": "post_box", "brand": "United States Postal Service", "brand:wikidata": "Q668687", "collection_times": "Mo-Fr 17:00; Sa 15:00", "name": "USPS COLLECTION BOX - BLUE BOX", "note": "ON 12/24 AND 12/31, THIS BOX MAY BE COLLECTED AS EARLY AS 12 NOON.", "nsi_id": "unitedstatespostalservice-a77078", "operator": "United States Postal Service", "operator:short": "USPS", "operator:type": "public", "operator:wikidata": "Q668687", "ref": "6230100001"}, "type": "Feature"}
{"dataset_attributes": {"@spider": "usps_collection_boxes", "spider:collection_time": "2023-12-19T08:25:25.283853"}, "geometry": {"coordinates": [-91.3960082, 39.950338], "type": "Point"}, "id": "-mamBbe_Aeg5P3jBfKp0OLt4o34=", "properties": {"@spider": "usps_collection_boxes", "addr:city": "QUINCY", "addr:country": "US", "addr:full": "1526 N 12TH ST", "addr:postcode": "62301", "addr:state": "IL", "amenity": "post_box", "brand": "United States Postal Service", "brand:wikidata": "Q668687", "collection_times": "Mo-Sa 13:00", "name": "USPS COLLECTION BOX - BLUE BOX", "note": "ON 12/24 AND 12/31, THIS BOX MAY BE COLLECTED AS EARLY AS 12 NOON.", "nsi_id": "unitedstatespostalservice-a77078", "operator": "United States Postal Service", "operator:short": "USPS", "operator:type": "public", "operator:wikidata": "Q668687", "ref": "6230100004"}, "type": "Feature"}
{"dataset_attributes": {"@spider": "usps_collection_boxes", "spider:collection_time": "2023-12-19T08:25:25.283853"}, "geometry": {"coordinates": [-91.3939449, 39.91338], "type": "Point"}, "id": "fzAZ2smKuLvEVrZJ5ueWuNHIURs=", "properties": {"@spider": "usps_collection_boxes", "addr:city": "QUINCY", "addr:country": "US", "addr:full": "1410 HARRISON ST", "addr:postcode": "62301", "addr:state": "IL", "amenity": "post_box", "brand": "United States Postal Service", "brand:wikidata": "Q668687", "collection_times": "Mo-Sa 13:00", "name": "USPS COLLECTION BOX - BLUE BOX", "note": "ON 12/24 AND 12/31, THIS BOX MAY BE COLLECTED AS EARLY AS 12 NOON.", "nsi_id": "unitedstatespostalservice-a77078", "operator": "United States Postal Service", "operator:short": "USPS", "operator:type": "public", "operator:wikidata": "Q668687", "ref": "6230100006"}, "type": "Feature"}
{"dataset_attributes": {"@spider": "usps_collection_boxes", "spider:collection_time": "2023-12-19T08:25:25.283853"}, "geometry": {"coordinates": [-91.4032435, 39.933762], "type": "Point"}, "id": "erlj5cnLcwb49_Nm_6X5xtjArqc=", "properties": {"@spider": "usps_collection_boxes", "addr:city": "QUINCY", "addr:country": "US", "addr:full": "200 N 8TH ST", "addr:postcode": "62301", "addr:state": "IL", "amenity": "post_box", "brand": "United States Postal Service", "brand:wikidata": "Q668687", "collection_times": "Mo-Fr 16:25; Sa 12:15", "name": "USPS COLLECTION BOX - BLUE BOX", "note": "ON 12/24 AND 12/31, THIS BOX MAY BE COLLECTED AS EARLY AS 12 NOON.", "nsi_id": "unitedstatespostalservice-a77078", "operator": "United States Postal Service", "operator:short": "USPS", "operator:type": "public", "operator:wikidata": "Q668687", "ref": "6230100014"}, "type": "Feature"}
{"dataset_attributes": {"@spider": "usps_collection_boxes", "spider:collection_time": "2023-12-19T08:25:25.283853"}, "geometry": {"coordinates": [-91.3841949, 39.931971], "type": "Point"}, "id": "8J3B4tEELD-I5VnFsP7ZFRaFjgw=", "properties": {"@spider": "usps_collection_boxes", "addr:city": "QUINCY", "addr:country": "US", "addr:full": "2001 MAINE ST", "addr:postcode": "62301", "addr:state": "IL", "amenity": "post_box", "brand": "United States Postal Service", "brand:wikidata": "Q668687", "collection_times": "Mo-Sa 12:00", "name": "USPS COLLECTION BOX - BLUE BOX", "nsi_id": "unitedstatespostalservice-a77078", "operator": "United States Postal Service", "operator:short": "USPS", "operator:type": "public", "operator:wikidata": "Q668687", "ref": "6230100016"}, "type": "Feature"}
{"dataset_attributes": {"@spider": "usps_collection_boxes", "spider:collection_time": "2023-12-19T08:25:25.283853"}, "geometry": {"coordinates": [-91.3774414, 39.936736], "type": "Point"}, "id": "m1bcCMrnEHHtqx8caoZE5iWupos=", "properties": {"@spider": "usps_collection_boxes", "addr:city": "QUINCY", "addr:country": "US", "addr:full": "520 N 24TH ST", "addr:postcode": "62301", "addr:state": "IL", "amenity": "post_box", "brand": "United States Postal Service", "brand:wikidata": "Q668687", "collection_times": "Mo-Sa 13:00", "name": "USPS COLLECTION BOX - BLUE BOX", "note": "ON 12/24 AND 12/31, THIS BOX MAY BE COLLECTED AS EARLY AS 12 NOON.", "nsi_id": "unitedstatespostalservice-a77078", "operator": "United States Postal Service", "operator:short": "USPS", "operator:type": "public", "operator:wikidata": "Q668687", "ref": "6230100019"}, "type": "Feature"}
{"dataset_attributes": {"@spider": "usps_collection_boxes", "spider:collection_time": "2023-12-19T08:25:25.283853"}, "geometry": {"coordinates": [-91.3563433, 39.933926], "type": "Point"}, "id": "PSpDHTKn6ANtga3wcB0Vl3HLSKM=", "properties": {"@spider": "usps_collection_boxes", "addr:city": "QUINCY", "addr:country": "US", "addr:full": "3700 BROADWAY ST", "addr:postcode": "62301", "addr:state": "IL", "amenity": "post_box", "brand": "United States Postal Service", "brand:wikidata": "Q668687", "collection_times": "Mo-Sa 10:30", "name": "USPS COLLECTION BOX - BLUE BOX", "nsi_id": "unitedstatespostalservice-a77078", "operator": "United States Postal Service", "operator:short": "USPS", "operator:type": "public", "operator:wikidata": "Q668687", "ref": "6230100028"}, "type": "Feature"}
{"dataset_attributes": {"@spider": "usps_collection_boxes", "spider:collection_time": "2023-12-19T08:25:25.283853"}, "geometry": {"coordinates": [-91.4116231, 39.932734], "type": "Point"}, "id": "7ngiQR-daI_3BO6aHIXq0YqBfv4=", "properties": {"@spider": "usps_collection_boxes", "addr:city": "QUINCY", "addr:country": "US", "addr:full": "116 N 3RD ST", "addr:postcode": "62301", "addr:state": "IL", "amenity": "post_box", "brand": "United States Postal Service", "brand:wikidata": "Q668687", "collection_times": "Mo-Sa 13:00", "name": "USPS COLLECTION BOX - BLUE BOX", "note": "ON 12/24 AND 12/31, THIS BOX MAY BE COLLECTED AS EARLY AS 12 NOON.", "nsi_id": "unitedstatespostalservice-a77078", "operator": "United States Postal Service", "operator:short": "USPS", "operator:type": "public", "operator:wikidata": "Q668687", "ref": "6230100029"}, "type": "Feature"}
{"dataset_attributes": {"@spider": "usps_collection_boxes", "spider:collection_time": "2023-12-19T08:25:25.283853"}, "geometry": {"coordinates": [-91.408721, 39.931882], "type": "Point"}, "id": "o4SECpZNmyLwsfN6MAjNJZwzE-8=", "properties": {"@spider": "usps_collection_boxes", "addr:city": "QUINCY", "addr:country": "US", "addr:full": "440 MAINE ST", "addr:postcode": "62301", "addr:state": "IL", "amenity": "post_box", "brand": "United States Postal Service", "brand:wikidata": "Q668687", "collection_times": "Mo-Sa 11:30", "name": "USPS COLLECTION BOX - BLUE BOX", "nsi_id": "unitedstatespostalservice-a77078", "operator": "United States Postal Service", "operator:short": "USPS", "operator:type": "public", "operator:wikidata": "Q668687", "ref": "6230100035"}, "type": "Feature"}
{"dataset_attributes": {"@spider": "usps_collection_boxes", "spider:collection_time": "2023-12-19T08:25:25.283853"}, "geometry": {"coordinates": [-91.4083489639, 39.9346045361], "type": "Point"}, "id": "E-eQzxRpF5yKrgyW35BR7u8Ype0=", "properties": {"@spider": "usps_collection_boxes", "addr:city": "QUINCY", "addr:country": "US", "addr:full": "501 VERMONT ST", "addr:postcode": "62301", "addr:state": "IL", "amenity": "post_box", "brand": "United States Postal Service", "brand:wikidata": "Q668687", "collection_times": "Mo-Sa 11:00", "name": "USPS COLLECTION BOX - BLUE BOX", "nsi_id": "unitedstatespostalservice-a77078", "operator": "United States Postal Service", "operator:short": "USPS", "operator:type": "public", "operator:wikidata": "Q668687", "ref": "6230100040"}, "type": "Feature"}
{"dataset_attributes": {"@spider": "usps_collection_boxes", "spider:collection_time": "2023-12-19T08:25:25.283853"}, "geometry": {"coordinates": [-91.4029285, 39.926538], "type": "Point"}, "id": "cfsT_QlC8CNK75EJiKKgvNTeYYI=", "properties": {"@spider": "usps_collection_boxes", "addr:city": "QUINCY", "addr:country": "US", "addr:full": "800 STATE ST", "addr:postcode": "62301", "addr:state": "IL", "amenity": "post_box", "brand": "United States Postal Service", "brand:wikidata": "Q668687", "collection_times": "Mo-Sa 11:00", "name": "USPS COLLECTION BOX - BLUE BOX", "nsi_id": "unitedstatespostalservice-a77078", "operator": "United States Postal Service", "operator:short": "USPS", "operator:type": "public", "operator:wikidata": "Q668687", "ref": "6230100048"}, "type": "Feature"}
{"dataset_attributes": {"@spider": "usps_collection_boxes", "spider:collection_time": "2023-12-19T08:25:25.283853"}, "geometry": {"coordinates": [-91.4016853, 39.921266], "type": "Point"}, "id": "eYbLTf7YWSi6Pxartwb1_fLdHpY=", "properties": {"@spider": "usps_collection_boxes", "addr:city": "QUINCY", "addr:country": "US", "addr:full": "837 JEFFERSON ST", "addr:postcode": "62301", "addr:state": "IL", "amenity": "post_box", "brand": "United States Postal Service", "brand:wikidata": "Q668687", "collection_times": "Mo-Sa 13:00", "name": "USPS COLLECTION BOX - BLUE BOX", "note": "ON 12/24 AND 12/31, THIS BOX MAY BE COLLECTED AS EARLY AS 12 NOON.", "nsi_id": "unitedstatespostalservice-a77078", "operator": "United States Postal Service", "operator:short": "USPS", "operator:type": "public", "operator:wikidata": "Q668687", "ref": "6230100050"}, "type": "Feature"}
{"dataset_attributes": {"@spider": "usps_collection_boxes", "spider:collection_time": "2023-12-19T08:25:25.283853"}, "geometry": {"coordinates": [-91.3988091, 39.937046], "type": "Point"}, "id": "ZMdtFfRKJUuNIPmmSHC4RV0lmls=", "properties": {"@spider": "usps_collection_boxes", "addr:city": "QUINCY", "addr:country": "US", "addr:full": "1005 BROADWAY ST", "addr:postcode": "62301", "addr:state": "IL", "amenity": "post_box", "brand": "United States Postal Service", "brand:wikidata": "Q668687", "collection_times": "Mo-Sa 13:00", "name": "USPS COLLECTION BOX - BLUE BOX", "note": "ON 12/24 AND 12/31, THIS BOX MAY BE COLLECTED AS EARLY AS 12 NOON.", "nsi_id": "unitedstatespostalservice-a77078", "operator": "United States Postal Service", "operator:short": "USPS", "operator:type": "public", "operator:wikidata": "Q668687", "ref": "6230100052"}, "type": "Feature"}
{"dataset_attributes": {"@spider": "usps_collection_boxes", "spider:collection_time": "2023-12-19T08:25:25.283853"}, "geometry": {"coordinates": [-91.3999543, 39.954829], "type": "Point"}, "id": "V6ETs7_-oLqL2Za55Yz_eEsKoGo=", "properties": {"@spider": "usps_collection_boxes", "addr:city": "QUINCY", "addr:country": "US", "addr:full": "1707 N 12TH ST", "addr:postcode": "62301", "addr:state": "IL", "amenity": "post_box", "brand": "United States Postal Service", "brand:wikidata": "Q668687", "collection_times": "Mo-Sa 12:00", "name": "USPS COLLECTION BOX - BLUE BOX", "nsi_id": "unitedstatespostalservice-a77078", "operator": "United States Postal Service", "operator:short": "USPS", "operator:type": "public", "operator:wikidata": "Q668687", "ref": "6230100054"}, "type": "Feature"}
{"dataset_attributes": {"@spider": "usps_collection_boxes", "spider:collection_time": "2023-12-19T08:25:25.283853"}, "geometry": {"coordinates": [-91.4014882, 39.953926], "type": "Point"}, "id": "7wcTUo8qgFcRE6HiO220l66hMWw=", "properties": {"@spider": "usps_collection_boxes", "addr:city": "QUINCY", "addr:country": "US", "addr:full": "1707 N 12TH ST", "addr:postcode": "62301", "addr:state": "IL", "amenity": "post_box", "brand": "United States Postal Service", "brand:wikidata": "Q668687", "collection_times": "Mo-Sa 12:00", "name": "USPS COLLECTION BOX - BLUE BOX", "nsi_id": "unitedstatespostalservice-a77078", "operator": "United States Postal Service", "operator:short": "USPS", "operator:type": "public", "operator:wikidata": "Q668687", "ref": "6230100055"}, "type": "Feature"}
{"dataset_attributes": {"@spider": "usps_collection_boxes", "spider:collection_time": "2023-12-19T08:25:25.283853"}, "geometry": {"coordinates": [-91.359918, 39.938025], "type": "Point"}, "id": "tewfaigZn1a7_4hXijLWxwohc9I=", "properties": {"@spider": "usps_collection_boxes", "addr:city": "QUINCY", "addr:country": "US", "addr:full": "3429 QUINCY MALL", "addr:postcode": "62301", "addr:state": "IL", "amenity": "post_box", "brand": "United States Postal Service", "brand:wikidata": "Q668687", "collection_times": "Mo-Sa 14:30", "name": "USPS COLLECTION BOX - BLUE BOX", "note": "ON 12/24 AND 12/31, THIS BOX MAY BE COLLECTED AS EARLY AS 12 NOON.", "nsi_id": "unitedstatespostalservice-a77078", "operator": "United States Postal Service", "operator:short": "USPS", "operator:type": "public", "operator:wikidata": "Q668687", "ref": "6230100057"}, "type": "Feature"}
{"dataset_attributes": {"@spider": "usps_collection_boxes", "spider:collection_time": "2023-12-19T08:25:25.283853"}, "geometry": {"coordinates": [-91.3788168, 39.961936], "type": "Point"}, "id": "40iZwgIGqxgrAs2-jq-cGnHZ_eU=", "properties": {"@spider": "usps_collection_boxes", "addr:city": "QUINCY", "addr:country": "US", "addr:full": "2008 HOLLISTER WHITNEY PKWY", "addr:postcode": "62301", "addr:state": "IL", "amenity": "post_box", "brand": "United States Postal Service", "brand:wikidata": "Q668687", "collection_times": "Mo-Sa 11:00", "name": "USPS COLLECTION BOX - BLUE BOX", "nsi_id": "unitedstatespostalservice-a77078", "operator": "United States Postal Service", "operator:short": "USPS", "operator:type": "public", "operator:wikidata": "Q668687", "ref": "6230100058"}, "type": "Feature"}
{"dataset_attributes": {"@spider": "usps_collection_boxes", "spider:collection_time": "2023-12-19T08:25:25.283853"}, "geometry": {"coordinates": [-91.3783839, 39.925619], "type": "Point"}, "id": "ojR8SPkN2bz1DtS_ORAnf14lMgQ=", "properties": {"@spider": "usps_collection_boxes", "addr:city": "QUINCY", "addr:country": "US", "addr:full": "500 S 24TH ST", "addr:postcode": "62301", "addr:state": "IL", "amenity": "post_box", "brand": "United States Postal Service", "brand:wikidata": "Q668687", "collection_times": "Mo-Sa 12:00", "name": "USPS COLLECTION BOX - BLUE BOX", "nsi_id": "unitedstatespostalservice-a77078", "operator": "United States Postal Service", "operator:short": "USPS", "operator:type": "public", "operator:wikidata": "Q668687", "ref": "6230100063"}, "type": "Feature"}
{"dataset_attributes": {"@spider": "usps_collection_boxes", "spider:collection_time": "2023-12-19T08:25:25.283853"}, "geometry": {"coordinates": [-91.3782286, 39.93434], "type": "Point"}, "id": "nHdMvt0ly9e3IQa_Z0MGm1j6feg=", "properties": {"@spider": "usps_collection_boxes", "addr:city": "QUINCY", "addr:country": "US", "addr:full": "2325 VERMONT ST", "addr:postcode": "62301", "addr:state": "IL", "amenity": "post_box", "brand": "United States Postal Service", "brand:wikidata": "Q668687", "collection_times": "Mo-Sa 12:00", "name": "USPS COLLECTION BOX - BLUE BOX", "nsi_id": "unitedstatespostalservice-a77078", "operator": "United States Postal Service", "operator:short": "USPS", "operator:type": "public", "operator:wikidata": "Q668687", "ref": "6230100068"}, "type": "Feature"}
{"dataset_attributes": {"@spider": "usps_collection_boxes", "spider:collection_time": "2023-12-19T08:25:25.283853"}, "geometry": {"coordinates": [-91.4032521, 39.933826], "type": "Point"}, "id": "4-Lf5SXKrYsaS0KAWRn-lBtij94=", "properties": {"@spider": "usps_collection_boxes", "addr:city": "QUINCY", "addr:country": "US", "addr:full": "200 N 8TH ST", "addr:postcode": "62301", "addr:state": "IL", "amenity": "post_box", "brand": "United States Postal Service", "brand:wikidata": "Q668687", "collection_times": "Mo-Fr 16:25; Sa 12:15", "name": "USPS COLLECTION BOX - BLUE BOX", "note": "ON 12/24 AND 12/31, THIS BOX MAY BE COLLECTED AS EARLY AS 12 NOON.", "nsi_id": "unitedstatespostalservice-a77078", "operator": "United States Postal Service", "operator:short": "USPS", "operator:type": "public", "operator:wikidata": "Q668687", "ref": "6230100073"}, "type": "Feature"}
{"dataset_attributes": {"@spider": "usps_collection_boxes", "spider:collection_time": "2023-12-19T08:25:25.283853"}, "geometry": {"coordinates": [-91.4032609, 39.933825], "type": "Point"}, "id": "NrnyYb0LhUcWbMFPPNtwYPaNJMg=", "properties": {"@spider": "usps_collection_boxes", "addr:city": "QUINCY", "addr:country": "US", "addr:full": "200 N 8TH ST", "addr:postcode": "62301", "addr:state": "IL", "amenity": "post_box", "brand": "United States Postal Service", "brand:wikidata": "Q668687", "collection_times": "Mo-Fr 16:25; Sa 12:15", "name": "USPS COLLECTION BOX - BLUE BOX", "note": "ON 12/24 AND 12/31, THIS BOX MAY BE COLLECTED AS EARLY AS 12 NOON.", "nsi_id": "unitedstatespostalservice-a77078", "operator": "United States Postal Service", "operator:short": "USPS", "operator:type": "public", "operator:wikidata": "Q668687", "ref": "6230100074"}, "type": "Feature"}
{"dataset_attributes": {"@spider": "usps_collection_boxes", "spider:collection_time": "2023-12-19T08:25:25.283853"}, "geometry": {"coordinates": [-91.4009543, 39.934515], "type": "Point"}, "id": "2dAiz_uYHDQtvWc88bGaDlHciIM=", "properties": {"@spider": "usps_collection_boxes", "addr:city": "QUINCY", "addr:country": "US", "addr:full": "915 VERMONT ST", "addr:postcode": "62301", "addr:state": "IL", "amenity": "post_box", "brand": "United States Postal Service", "brand:wikidata": "Q668687", "collection_times": "Mo-Sa 12:00", "name": "USPS COLLECTION BOX - BLUE BOX", "nsi_id": "unitedstatespostalservice-a77078", "operator": "United States Postal Service", "operator:short": "USPS", "operator:type": "public", "operator:wikidata": "Q668687", "ref": "6230100076"}, "type": "Feature"}
{"dataset_attributes": {"@spider": "usps_collection_boxes", "spider:collection_time": "2023-12-19T08:25:25.283853"}, "geometry": {"coordinates": [-91.359042114, 39.949923494], "type": "Point"}, "id": "QHabe7RESKlSPjURPNKN2efT6FQ=", "properties": {"@spider": "usps_collection_boxes", "addr:city": "QUINCY", "addr:country": "US", "addr:full": "3535 LOCUST ST", "addr:postcode": "62301", "addr:state": "IL", "amenity": "post_box", "brand": "United States Postal Service", "brand:wikidata": "Q668687", "collection_times": "Mo-Fr 17:00; Sa 15:00", "name": "USPS COLLECTION BOX - BLUE BOX", "note": "ON 12/24 AND 12/31, THIS BOX MAY BE COLLECTED AS EARLY AS 12 NOON.", "nsi_id": "unitedstatespostalservice-a77078", "operator": "United States Postal Service", "operator:short": "USPS", "operator:type": "public", "operator:wikidata": "Q668687", "ref": "6230100077"}, "type": "Feature"}
{"dataset_attributes": {"@spider": "usps_collection_boxes", "spider:collection_time": "2023-12-19T08:25:25.283853"}, "geometry": {"coordinates": [-91.359042114, 39.949923494], "type": "Point"}, "id": "YCHQhQp4XM247EVxufHKLuB-6xs=", "properties": {"@spider": "usps_collection_boxes", "addr:city": "QUINCY", "addr:country": "US", "addr:full": "3535 LOCUST ST", "addr:postcode": "62301", "addr:state": "IL", "amenity": "post_box", "brand": "United States Postal Service", "brand:wikidata": "Q668687", "collection_times": "Mo-Fr 17:00; Sa 15:00", "name": "USPS COLLECTION BOX - BLUE BOX", "note": "ON 12/24 AND 12/31, THIS BOX MAY BE COLLECTED AS EARLY AS 12 NOON.", "nsi_id": "unitedstatespostalservice-a77078", "operator": "United States Postal Service", "operator:short": "USPS", "operator:type": "public", "operator:wikidata": "Q668687", "ref": "6230100078"}, "type": "Feature"}
{"dataset_attributes": {"@spider": "usps_collection_boxes", "spider:collection_time": "2023-12-19T08:25:25.283853"}, "geometry": {"coordinates": [-91.359042114, 39.949923494], "type": "Point"}, "id": "xnaVXXs-WWREr8xW2HvoRu6npRE=", "properties": {"@spider": "usps_collection_boxes", "addr:city": "QUINCY", "addr:country": "US", "addr:full": "3535 LOCUST ST", "addr:postcode": "62301", "addr:state": "IL", "amenity": "post_box", "brand": "United States Postal Service", "brand:wikidata": "Q668687", "collection_times": "Mo-Fr 17:00; Sa 15:00", "name": "USPS COLLECTION BOX - BLUE BOX", "note": "ON 12/24 AND 12/31, THIS BOX MAY BE COLLECTED AS EARLY AS 12 NOON.", "nsi_id": "unitedstatespostalservice-a77078", "operator": "United States Postal Service", "operator:short": "USPS", "operator:type": "public", "operator:wikidata": "Q668687", "ref": "6230100079"}, "type": "Feature"}
{"dataset_attributes": {"@spider": "usps_collection_boxes", "spider:collection_time": "2023-12-19T08:25:25.283853"}, "geometry": {"coordinates": [-91.4033929, 39.934687], "type": "Point"}, "id": "-hkAP3KQlTzB6QynXdgIeJdSE-o=", "properties": {"@spider": "usps_collection_boxes", "addr:city": "QUINCY", "addr:country": "US", "addr:full": "301 N 8TH ST", "addr:postcode": "62301", "addr:state": "IL", "amenity": "post_box", "brand": "United States Postal Service", "brand:wikidata": "Q668687", "collection_times": "Mo-Sa 11:30", "name": "USPS COLLECTION BOX - BLUE BOX", "nsi_id": "unitedstatespostalservice-a77078", "operator": "United States Postal Service", "operator:short": "USPS", "operator:type": "public", "operator:wikidata": "Q668687", "ref": "6230100090"}, "type": "Feature"}
{"dataset_attributes": {"@spider": "usps_collection_boxes", "spider:collection_time": "2023-12-19T08:25:25.283853"}, "geometry": {"coordinates": [-91.359042114, 39.949923494], "type": "Point"}, "id": "CL8-R1pC_69maxnHWw1EdPB-juI=", "properties": {"@spider": "usps_collection_boxes", "addr:city": "QUINCY", "addr:country": "US", "addr:full": "3535 LOCUST ST", "addr:postcode": "62301", "addr:state": "IL", "amenity": "post_box", "brand": "United States Postal Service", "brand:wikidata": "Q668687", "collection_times": "Mo-Fr 17:00; Sa 15:00", "name": "USPS COLLECTION BOX - PO LOBBY", "note": "ON 12/24 AND 12/31, THIS BOX MAY BE COLLECTED AS EARLY AS 12 NOON.", "nsi_id": "unitedstatespostalservice-a77078", "operator": "United States Postal Service", "operator:short": "USPS", "operator:type": "public", "operator:wikidata": "Q668687", "ref": "6230100091"}, "type": "Feature"}
{"dataset_attributes": {"@spider": "usps_collection_boxes", "spider:collection_time": "2023-12-19T08:25:25.283853"}, "geometry": {"coordinates": [-91.40294, 39.93345], "type": "Point"}, "id": "1kh42bcoQuO-XnHM-Vik6ZHEcVk=", "properties": {"@spider": "usps_collection_boxes", "addr:city": "QUINCY", "addr:country": "US", "addr:full": "200 N 8TH ST", "addr:postcode": "62301", "addr:state": "IL", "amenity": "post_box", "brand": "United States Postal Service", "brand:wikidata": "Q668687", "collection_times": "Mo-Fr 16:25; Sa 12:15", "name": "USPS COLLECTION BOX - PO LOBBY", "note": "ON 12/24 AND 12/31, THIS BOX MAY BE COLLECTED AS EARLY AS 12 NOON.", "nsi_id": "unitedstatespostalservice-a77078", "operator": "United States Postal Service", "operator:short": "USPS", "operator:type": "public", "operator:wikidata": "Q668687", "ref": "6230100097"}, "type": "Feature"}
{"dataset_attributes": {"@spider": "usps_collection_boxes", "spider:collection_time": "2023-12-19T08:25:25.283853"}, "geometry": {"coordinates": [-91.4043653, 39.929401], "type": "Point"}, "id": "-q_TUCRlSUZbNJ3y21mEdcxbAlM=", "properties": {"@spider": "usps_collection_boxes", "addr:city": "QUINCY", "addr:country": "US", "addr:full": "735 YORK ST", "addr:postcode": "62301", "addr:state": "IL", "amenity": "post_box", "brand": "United States Postal Service", "brand:wikidata": "Q668687", "collection_times": "Mo-Sa 13:30", "name": "USPS COLLECTION BOX - BLUE BOX", "note": "ON 12/24 AND 12/31, THIS BOX MAY BE COLLECTED AS EARLY AS 12 NOON.", "nsi_id": "unitedstatespostalservice-a77078", "operator": "United States Postal Service", "operator:short": "USPS", "operator:type": "public", "operator:wikidata": "Q668687", "ref": "6230100099"}, "type": "Feature"}
{"dataset_attributes": {"@spider": "usps_collection_boxes", "spider:collection_time": "2023-12-19T08:25:25.283853"}, "geometry": {"coordinates": [-91.3776356, 39.96575], "type": "Point"}, "id": "izmPwesyBI3G3rpgJsb-KLNo41I=", "properties": {"@spider": "usps_collection_boxes", "addr:city": "QUINCY", "addr:country": "US", "addr:full": "2331 KOCHS LN", "addr:postcode": "62301", "addr:state": "IL", "amenity": "post_box", "brand": "United States Postal Service", "brand:wikidata": "Q668687", "collection_times": "Mo-Sa 11:00", "name": "USPS COLLECTION BOX - BLUE BOX", "nsi_id": "unitedstatespostalservice-a77078", "operator": "United States Postal Service", "operator:short": "USPS", "operator:type": "public", "operator:wikidata": "Q668687", "ref": "6230100101"}, "type": "Feature"}
{"dataset_attributes": {"@spider": "usps_collection_boxes", "spider:collection_time": "2023-12-19T08:25:25.283853"}, "geometry": {"coordinates": [-91.3901104, 39.933068], "type": "Point"}, "id": "Ula016IND4Hcd3UfKP1xIvw13JI=", "properties": {"@spider": "usps_collection_boxes", "addr:city": "QUINCY", "addr:country": "US", "addr:full": "1600 HAMPSHIRE ST", "addr:postcode": "62301", "addr:state": "IL", "amenity": "post_box", "brand": "United States Postal Service", "brand:wikidata": "Q668687", "collection_times": "Mo-Sa 11:00", "name": "USPS COLLECTION BOX - BLUE BOX", "nsi_id": "unitedstatespostalservice-a77078", "operator": "United States Postal Service", "operator:short": "USPS", "operator:type": "public", "operator:wikidata": "Q668687", "ref": "6230100102"}, "type": "Feature"}
{"dataset_attributes": {"@spider": "usps_collection_boxes", "spider:collection_time": "2023-12-19T08:25:25.283853"}, "geometry": {"coordinates": [-91.3381264, 39.93434], "type": "Point"}, "id": "jM3ywf-B6zT56DpXtadHI3oopkQ=", "properties": {"@spider": "usps_collection_boxes", "addr:city": "QUINCY", "addr:country": "US", "addr:full": "4820 BROADWAY ST", "addr:postcode": "62301", "addr:state": "IL", "amenity": "post_box", "brand": "United States Postal Service", "brand:wikidata": "Q668687", "collection_times": "Mo-Sa 09:30", "name": "USPS COLLECTION BOX - BLUE BOX", "nsi_id": "unitedstatespostalservice-a77078", "operator": "United States Postal Service", "operator:short": "USPS", "operator:type": "public", "operator:wikidata": "Q668687", "ref": "6230100103"}, "type": "Feature"}
{"dataset_attributes": {"@spider": "usps_collection_boxes", "spider:collection_time": "2023-12-19T08:25:25.283853"}, "geometry": {"coordinates": [-91.4037358, 39.930545], "type": "Point"}, "id": "uuPanfdptzUi6KL-yG108rbQ1fc=", "properties": {"@spider": "usps_collection_boxes", "addr:city": "QUINCY", "addr:country": "US", "addr:full": "740 JERSEY ST", "addr:postcode": "62301", "addr:state": "IL", "amenity": "post_box", "brand": "United States Postal Service", "brand:wikidata": "Q668687", "collection_times": "Mo-Sa 13:45", "name": "USPS COLLECTION BOX - BLUE BOX", "note": "ON 12/24 AND 12/31, THIS BOX MAY BE COLLECTED AS EARLY AS 12 NOON.", "nsi_id": "unitedstatespostalservice-a77078", "operator": "United States Postal Service", "operator:short": "USPS", "operator:type": "public", "operator:wikidata": "Q668687", "ref": "6230100107"}, "type": "Feature"}
{"dataset_attributes": {"@spider": "usps_collection_boxes", "spider:collection_time": "2023-12-19T08:25:25.283853"}, "geometry": {"coordinates": [-91.3585624, 39.927532], "type": "Point"}, "id": "UwMo0mvjEGoh5qvTU7jfKPfKL-w=", "properties": {"@spider": "usps_collection_boxes", "addr:city": "QUINCY", "addr:country": "US", "addr:full": "338 S 36TH ST", "addr:postcode": "62301", "addr:state": "IL", "amenity": "post_box", "brand": "United States Postal Service", "brand:wikidata": "Q668687", "collection_times": "Mo-Sa 12:00", "name": "USPS COLLECTION BOX - BLUE BOX", "nsi_id": "unitedstatespostalservice-a77078", "operator": "United States Postal Service", "operator:short": "USPS", "operator:type": "public", "operator:wikidata": "Q668687", "ref": "6230100108"}, "type": "Feature"}
{"dataset_attributes": {"@spider": "usps_collection_boxes", "spider:collection_time": "2023-12-19T08:25:25.283853"}, "geometry": {"coordinates": [-91.3322778, 39.937612], "type": "Point"}, "id": "UVC0O-hBfwJuTSsccsjPimtifL8=", "properties": {"@spider": "usps_collection_boxes", "addr:city": "QUINCY", "addr:country": "US", "addr:full": "5211 BROADWAY ST", "addr:postcode": "62301", "addr:state": "IL", "amenity": "post_box", "brand": "United States Postal Service", "brand:wikidata": "Q668687", "collection_times": "Mo-Sa 09:30", "name": "USPS COLLECTION BOX - BLUE BOX", "nsi_id": "unitedstatespostalservice-a77078", "operator": "United States Postal Service", "operator:short": "USPS", "operator:type": "public", "operator:wikidata": "Q668687", "ref": "6230100109"}, "type": "Feature"}
{"dataset_attributes": {"@spider": "usps_collection_boxes", "spider:collection_time": "2023-12-19T08:25:25.283853"}, "geometry": {"coordinates": [-91.3663861, 39.934252], "type": "Point"}, "id": "hc2BT9Hvw-vJfAFGez2udW_l0SM=", "properties": {"@spider": "usps_collection_boxes", "addr:city": "QUINCY", "addr:country": "US", "addr:full": "3100 BROADWAY ST", "addr:postcode": "62301", "addr:state": "IL", "amenity": "post_box", "brand": "United States Postal Service", "brand:wikidata": "Q668687", "collection_times": "Mo-Sa 12:00", "name": "USPS COLLECTION BOX - BLUE BOX", "nsi_id": "unitedstatespostalservice-a77078", "operator": "United States Postal Service", "operator:short": "USPS", "operator:type": "public", "operator:wikidata": "Q668687", "ref": "6230100115"}, "type": "Feature"}
{"dataset_attributes": {"@spider": "usps_collection_boxes", "spider:collection_time": "2023-12-19T08:25:25.283853"}, "geometry": {"coordinates": [-91.359042114, 39.949923494], "type": "Point"}, "id": "GpqlfKNiRxIE6-17v2w-fup6KSQ=", "properties": {"@spider": "usps_collection_boxes", "addr:city": "QUINCY", "addr:country": "US", "addr:full": "3535 LOCUST ST", "addr:postcode": "62301", "addr:state": "IL", "amenity": "post_box", "brand": "United States Postal Service", "brand:wikidata": "Q668687", "collection_times": "Mo-Fr 17:00; Sa 15:00", "name": "USPS COLLECTION BOX - BLUE BOX", "note": "ON 12/24 AND 12/31, THIS BOX MAY BE COLLECTED AS EARLY AS 12 NOON.", "nsi_id": "unitedstatespostalservice-a77078", "operator": "United States Postal Service", "operator:short": "USPS", "operator:type": "public", "operator:wikidata": "Q668687", "ref": "6230100116"}, "type": "Feature"}
{"dataset_attributes": {"@spider": "usps_collection_boxes", "spider:collection_time": "2023-12-19T08:25:25.283853"}, "geometry": {"coordinates": [-91.3577133, 39.93013], "type": "Point"}, "id": "PuDwcHu-yzoOvi3CM1YfNnQBv6Q=", "properties": {"@spider": "usps_collection_boxes", "addr:city": "QUINCY", "addr:country": "US", "addr:full": "195 S 36TH ST", "addr:postcode": "62301", "addr:state": "IL", "amenity": "post_box", "brand": "United States Postal Service", "brand:wikidata": "Q668687", "collection_times": "Mo-Sa 13:00", "name": "USPS COLLECTION BOX - BLUE BOX", "note": "ON 12/24 AND 12/31, THIS BOX MAY BE COLLECTED AS EARLY AS 12 NOON.", "nsi_id": "unitedstatespostalservice-a77078", "operator": "United States Postal Service", "operator:short": "USPS", "operator:type": "public", "operator:wikidata": "Q668687", "ref": "6230100119"}, "type": "Feature"}
{"dataset_attributes": {"@spider": "usps_collection_boxes", "spider:collection_time": "2023-12-19T08:25:25.283853"}, "geometry": {"coordinates": [-91.3959439, 39.964783], "type": "Point"}, "id": "pzNa3C0tr9sPCl_BKbKjIyoB9MQ=", "properties": {"@spider": "usps_collection_boxes", "addr:city": "QUINCY", "addr:country": "US", "addr:full": "1200 KOCHS LN", "addr:postcode": "62301", "addr:state": "IL", "amenity": "post_box", "brand": "United States Postal Service", "brand:wikidata": "Q668687", "collection_times": "Mo-Sa 11:30", "name": "USPS COLLECTION BOX - BLUE BOX", "nsi_id": "unitedstatespostalservice-a77078", "operator": "United States Postal Service", "operator:short": "USPS", "operator:type": "public", "operator:wikidata": "Q668687", "ref": "6230100120"}, "type": "Feature"}
{"dataset_attributes": {"@spider": "usps_collection_boxes", "spider:collection_time": "2023-12-19T08:25:25.283853"}, "geometry": {"coordinates": [-91.407904, 39.932067], "type": "Point"}, "id": "Gm8IrC09cniPXLI3B7Mi_rcGETM=", "properties": {"@spider": "usps_collection_boxes", "addr:city": "QUINCY", "addr:country": "US", "addr:full": "510 MAINE ST", "addr:postcode": "62301", "addr:state": "IL", "amenity": "post_box", "brand": "United States Postal Service", "brand:wikidata": "Q668687", "collection_times": "Mo-Sa 12:15", "name": "USPS COLLECTION BOX - BLUE BOX", "note": "ON 12/24 AND 12/31, THIS BOX MAY BE COLLECTED AS EARLY AS 12 NOON.", "nsi_id": "unitedstatespostalservice-a77078", "operator": "United States Postal Service", "operator:short": "USPS", "operator:type": "public", "operator:wikidata": "Q668687", "ref": "6230100123"}, "type": "Feature"}
{"dataset_attributes": {"@spider": "usps_collection_boxes", "spider:collection_time": "2023-12-19T08:25:25.283853"}, "geometry": {"coordinates": [-91.359042114, 39.949923494], "type": "Point"}, "id": "HJV97ldfL6ZrPHiL1LAqjduPnwU=", "properties": {"@spider": "usps_collection_boxes", "addr:city": "QUINCY", "addr:country": "US", "addr:full": "3535 LOCUST ST", "addr:postcode": "62301", "addr:state": "IL", "amenity": "post_box", "brand": "United States Postal Service", "brand:wikidata": "Q668687", "collection_times": "Mo-Fr 17:00; Sa 14:00", "name": "USPS COLLECTION BOX - PO LOBBY", "note": "ON 12/24 AND 12/31, THIS BOX MAY BE COLLECTED AS EARLY AS 12 NOON.", "nsi_id": "unitedstatespostalservice-a77078", "operator": "United States Postal Service", "operator:short": "USPS", "operator:type": "public", "operator:wikidata": "Q668687", "ref": "6230100128"}, "type": "Feature"}
{"dataset_attributes": {"@spider": "usps_collection_boxes", "spider:collection_time": "2023-12-19T08:25:25.283853"}, "geometry": {"coordinates": [-91.403306632, 39.933603], "type": "Point"}, "id": "RD6K8nJrqBaNm1zzciKxDT9JOik=", "properties": {"@spider": "usps_collection_boxes", "addr:city": "QUINCY", "addr:country": "US", "addr:full": "200 N 8TH ST", "addr:postcode": "62301", "addr:state": "IL", "amenity": "post_box", "brand": "United States Postal Service", "brand:wikidata": "Q668687", "collection_times": "Mo-Fr 16:30", "name": "USPS COLLECTION BOX - PO LOBBY", "note": "ON 12/24 AND 12/31, THIS BOX MAY BE COLLECTED AS EARLY AS 12 NOON.", "nsi_id": "unitedstatespostalservice-a77078", "operator": "United States Postal Service", "operator:short": "USPS", "operator:type": "public", "operator:wikidata": "Q668687", "ref": "6230100129"}, "type": "Feature"}
{"dataset_attributes": {"@spider": "usps_collection_boxes", "spider:collection_time": "2023-12-19T08:25:25.283853"}, "geometry": {"coordinates": [-90.951517, 40.230279], "type": "Point"}, "id": "R6nBVXkMTAF_0mA4zs3Eua2Lu3U=", "properties": {"@spider": "usps_collection_boxes", "addr:city": "AUGUSTA", "addr:country": "US", "addr:full": "503 MAIN ST", "addr:postcode": "62311", "addr:state": "IL", "amenity": "post_box", "brand": "United States Postal Service", "brand:wikidata": "Q668687", "collection_times": "Mo-Fr 14:45; Sa 09:00", "name": "USPS COLLECTION BOX - BLUE BOX", "note": "ON 12/24 AND 12/31, THIS BOX MAY BE COLLECTED AS EARLY AS 12 NOON.", "nsi_id": "unitedstatespostalservice-a77078", "operator": "United States Postal Service", "operator:short": "USPS", "operator:type": "public", "operator:wikidata": "Q668687", "ref": "6231100001"}, "type": "Feature"}
{"dataset_attributes": {"@spider": "usps_collection_boxes", "spider:collection_time": "2023-12-19T08:25:25.283853"}, "geometry": {"coordinates": [-90.951631, 40.230252], "type": "Point"}, "id": "rdz21Mj5r9r5h6P4b8RdCrOqVFw=", "properties": {"@spider": "usps_collection_boxes", "addr:city": "AUGUSTA", "addr:country": "US", "addr:full": "503 MAIN ST", "addr:postcode": "62311", "addr:state": "IL", "amenity": "post_box", "brand": "United States Postal Service", "brand:wikidata": "Q668687", "collection_times": "Mo-Fr 14:45; Sa 09:15", "name": "USPS COLLECTION BOX - PO LOBBY", "note": "ON 12/24 AND 12/31, THIS BOX MAY BE COLLECTED AS EARLY AS 12 NOON.", "nsi_id": "unitedstatespostalservice-a77078", "operator": "United States Postal Service", "operator:short": "USPS", "operator:type": "public", "operator:wikidata": "Q668687", "ref": "6231100002"}, "type": "Feature"}
{"dataset_attributes": {"@spider": "usps_collection_boxes", "spider:collection_time": "2023-12-19T08:25:25.283853"}, "geometry": {"coordinates": [-90.951631, 40.230252], "type": "Point"}, "id": "qufdpaO8-fp4u2k47g6vTvOF-z0=", "properties": {"@spider": "usps_collection_boxes", "addr:city": "AUGUSTA", "addr:country": "US", "addr:full": "503 MAIN ST", "addr:postcode": "62311", "addr:state": "IL", "amenity": "post_box", "brand": "United States Postal Service", "brand:wikidata": "Q668687", "collection_times": "Mo-Fr 14:45; Sa 09:15", "name": "USPS COLLECTION BOX - PO LOBBY", "note": "ON 12/24 AND 12/31, THIS BOX MAY BE COLLECTED AS EARLY AS 12 NOON.", "nsi_id": "unitedstatespostalservice-a77078", "operator": "United States Postal Service", "operator:short": "USPS", "operator:type": "public", "operator:wikidata": "Q668687", "ref": "6231100004"}, "type": "Feature"}
{"dataset_attributes": {"@spider": "usps_collection_boxes", "spider:collection_time": "2023-12-19T08:25:25.283853"}, "geometry": {"coordinates": [-90.951559976, 40.230316197], "type": "Point"}, "id": "gPR47qHtDbkNH82nkS8pYQ6y4es=", "properties": {"@spider": "usps_collection_boxes", "addr:city": "AUGUSTA", "addr:country": "US", "addr:full": "503 MAIN ST", "addr:postcode": "62311", "addr:state": "IL", "amenity": "post_box", "brand": "United States Postal Service", "brand:wikidata": "Q668687", "collection_times": "Mo-Fr 14:45; Sa 09:15", "name": "USPS COLLECTION BOX - PO LOBBY", "note": "ON 12/24 AND 12/31, THIS BOX MAY BE COLLECTED AS EARLY AS 12 NOON.", "nsi_id": "unitedstatespostalservice-a77078", "operator": "United States Postal Service", "operator:short": "USPS", "operator:type": "public", "operator:wikidata": "Q668687", "ref": "6231100005"}, "type": "Feature"}
{"dataset_attributes": {"@spider": "usps_collection_boxes", "spider:collection_time": "2023-12-19T08:25:25.283853"}, "geometry": {"coordinates": [-91.041531, 39.695302], "type": "Point"}, "id": "VkdPbmr1b32pR-J-96JRlh3fYXU=", "properties": {"@spider": "usps_collection_boxes", "addr:city": "BARRY", "addr:country": "US", "addr:full": "600 DECATUR ST", "addr:postcode": "62312", "addr:state": "IL", "amenity": "post_box", "brand": "United States Postal Service", "brand:wikidata": "Q668687", "collection_times": "Mo-Fr 15:45; Sa 09:30", "name": "USPS COLLECTION BOX - BLUE BOX", "note": "ON 12/24 AND 12/31, THIS BOX MAY BE COLLECTED AS EARLY AS 12 NOON.", "nsi_id": "unitedstatespostalservice-a77078", "operator": "United States Postal Service", "operator:short": "USPS", "operator:type": "public", "operator:wikidata": "Q668687", "ref": "6231200001"}, "type": "Feature"}
{"dataset_attributes": {"@spider": "usps_collection_boxes", "spider:collection_time": "2023-12-19T08:25:25.283853"}, "geometry": {"coordinates": [-91.041497, 39.695392], "type": "Point"}, "id": "LAaotPp2hGDPrdng5XDI82-kKjg=", "properties": {"@spider": "usps_collection_boxes", "addr:city": "BARRY", "addr:country": "US", "addr:full": "600 DECATUR ST", "addr:postcode": "62312", "addr:state": "IL", "amenity": "post_box", "brand": "United States Postal Service", "brand:wikidata": "Q668687", "collection_times": "Mo-Fr 15:45; Sa 09:30", "name": "USPS COLLECTION BOX - PO LOBBY", "note": "ON 12/24 AND 12/31, THIS BOX MAY BE COLLECTED AS EARLY AS 12 NOON.", "nsi_id": "unitedstatespostalservice-a77078", "operator": "United States Postal Service", "operator:short": "USPS", "operator:type": "public", "operator:wikidata": "Q668687", "ref": "6231200005"}, "type": "Feature"}
{"dataset_attributes": {"@spider": "usps_collection_boxes", "spider:collection_time": "2023-12-19T08:25:25.283853"}, "geometry": {"coordinates": [-91.041497, 39.695392], "type": "Point"}, "id": "C28Mp_v1zzql5XW-EEmXs6j438E=", "properties": {"@spider": "usps_collection_boxes", "addr:city": "BARRY", "addr:country": "US", "addr:full": "600 DECATUR ST", "addr:postcode": "62312", "addr:state": "IL", "amenity": "post_box", "brand": "United States Postal Service", "brand:wikidata": "Q668687", "collection_times": "Mo-Fr 15:45; Sa 09:30", "name": "USPS COLLECTION BOX - PO LOBBY", "note": "ON 12/24 AND 12/31, THIS BOX MAY BE COLLECTED AS EARLY AS 12 NOON.", "nsi_id": "unitedstatespostalservice-a77078", "operator": "United States Postal Service", "operator:short": "USPS", "operator:type": "public", "operator:wikidata": "Q668687", "ref": "6231200006"}, "type": "Feature"}
{"dataset_attributes": {"@spider": "usps_collection_boxes", "spider:collection_time": "2023-12-19T08:25:25.283853"}, "geometry": {"coordinates": [-91.041559294, 39.695324035], "type": "Point"}, "id": "NXwMMwuI8olcZ9W5H32NdB4AnRI=", "properties": {"@spider": "usps_collection_boxes", "addr:city": "BARRY", "addr:country": "US", "addr:full": "600 DECATUR ST", "addr:postcode": "62312", "addr:state": "IL", "amenity": "post_box", "brand": "United States Postal Service", "brand:wikidata": "Q668687", "collection_times": "Mo-Fr 15:45; Sa 09:30", "name": "USPS COLLECTION BOX - PO LOBBY", "note": "ON 12/24 AND 12/31, THIS BOX MAY BE COLLECTED AS EARLY AS 12 NOON.", "nsi_id": "unitedstatespostalservice-a77078", "operator": "United States Postal Service", "operator:short": "USPS", "operator:type": "public", "operator:wikidata": "Q668687", "ref": "6231200008"}, "type": "Feature"}
{"dataset_attributes": {"@spider": "usps_collection_boxes", "spider:collection_time": "2023-12-19T08:25:25.283853"}, "geometry": {"coordinates": [-91.200106, 40.328794], "type": "Point"}, "id": "ZUrfkNix6XuAe10pU-pLcqK6zwA=", "properties": {"@spider": "usps_collection_boxes", "addr:city": "BASCO", "addr:country": "US", "addr:full": "12 N MAIN ST", "addr:postcode": "62313", "addr:state": "IL", "amenity": "post_box", "brand": "United States Postal Service", "brand:wikidata": "Q668687", "collection_times": "Mo-Fr 11:45; Sa 09:15", "name": "USPS COLLECTION BOX - BLUE BOX", "nsi_id": "unitedstatespostalservice-a77078", "operator": "United States Postal Service", "operator:short": "USPS", "operator:type": "public", "operator:wikidata": "Q668687", "ref": "6231300001"}, "type": "Feature"}
{"dataset_attributes": {"@spider": "usps_collection_boxes", "spider:collection_time": "2023-12-19T08:25:25.283853"}, "geometry": {"coordinates": [-91.200106, 40.328794], "type": "Point"}, "id": "QuU1edrQIzEfIwNxiwApqh3_z34=", "properties": {"@spider": "usps_collection_boxes", "addr:city": "BASCO", "addr:country": "US", "addr:full": "12 N MAIN ST", "addr:postcode": "62313", "addr:state": "IL", "amenity": "post_box", "brand": "United States Postal Service", "brand:wikidata": "Q668687", "collection_times": "Mo-Fr 11:45; Sa 09:15", "name": "USPS COLLECTION BOX - PO LOBBY", "nsi_id": "unitedstatespostalservice-a77078", "operator": "United States Postal Service", "operator:short": "USPS", "operator:type": "public", "operator:wikidata": "Q668687", "ref": "6231300002"}, "type": "Feature"}
{"dataset_attributes": {"@spider": "usps_collection_boxes", "spider:collection_time": "2023-12-19T08:25:25.283853"}, "geometry": {"coordinates": [-91.200048618, 40.328765688], "type": "Point"}, "id": "VaQrl3pCMcJHzs2guBJN95SJjZ0=", "properties": {"@spider": "usps_collection_boxes", "addr:city": "BASCO", "addr:country": "US", "addr:full": "12 N MAIN ST", "addr:postcode": "62313", "addr:state": "IL", "amenity": "post_box", "brand": "United States Postal Service", "brand:wikidata": "Q668687", "collection_times": "Mo-Fr 11:45; Sa 09:15", "name": "USPS COLLECTION BOX - PO LOBBY", "nsi_id": "unitedstatespostalservice-a77078", "operator": "United States Postal Service", "operator:short": "USPS", "operator:type": "public", "operator:wikidata": "Q668687", "ref": "6231300003"}, "type": "Feature"}
{"dataset_attributes": {"@spider": "usps_collection_boxes", "spider:collection_time": "2023-12-19T08:25:25.283853"}, "geometry": {"coordinates": [-90.907542, 39.728221], "type": "Point"}, "id": "2HG_hQ5XpFe5FyeAWfnBN8-oS9A=", "properties": {"@spider": "usps_collection_boxes", "addr:city": "BAYLIS", "addr:country": "US", "addr:full": "140 N MAIN ST", "addr:postcode": "62314", "addr:state": "IL", "amenity": "post_box", "brand": "United States Postal Service", "brand:wikidata": "Q668687", "collection_times": "Mo-Fr 11:15; Sa 09:00", "name": "USPS COLLECTION BOX - BLUE BOX", "nsi_id": "unitedstatespostalservice-a77078", "operator": "United States Postal Service", "operator:short": "USPS", "operator:type": "public", "operator:wikidata": "Q668687", "ref": "6231400001"}, "type": "Feature"}
{"dataset_attributes": {"@spider": "usps_collection_boxes", "spider:collection_time": "2023-12-19T08:25:25.283853"}, "geometry": {"coordinates": [-90.907577, 39.728131], "type": "Point"}, "id": "EL-xzqZhDsFldgJeWlKYrktTQrs=", "properties": {"@spider": "usps_collection_boxes", "addr:city": "BAYLIS", "addr:country": "US", "addr:full": "140 N MAIN ST", "addr:postcode": "62314", "addr:state": "IL", "amenity": "post_box", "brand": "United States Postal Service", "brand:wikidata": "Q668687", "collection_times": "Mo-Fr 11:15; Sa 09:00", "name": "USPS COLLECTION BOX - PO LOBBY", "nsi_id": "unitedstatespostalservice-a77078", "operator": "United States Postal Service", "operator:short": "USPS", "operator:type": "public", "operator:wikidata": "Q668687", "ref": "6231400003"}, "type": "Feature"}
{"dataset_attributes": {"@spider": "usps_collection_boxes", "spider:collection_time": "2023-12-19T08:25:25.283853"}, "geometry": {"coordinates": [-90.907525119, 39.728181381], "type": "Point"}, "id": "zfIaufxjf9REVcAuuwLCYdREnFM=", "properties": {"@spider": "usps_collection_boxes", "addr:city": "BAYLIS", "addr:country": "US", "addr:full": "140 N MAIN ST", "addr:postcode": "62314", "addr:state": "IL", "amenity": "post_box", "brand": "United States Postal Service", "brand:wikidata": "Q668687", "collection_times": "Mo-Fr 11:15; Sa 09:00", "name": "USPS COLLECTION BOX - PO LOBBY", "nsi_id": "unitedstatespostalservice-a77078", "operator": "United States Postal Service", "operator:short": "USPS", "operator:type": "public", "operator:wikidata": "Q668687", "ref": "6231400005"}, "type": "Feature"}
{"dataset_attributes": {"@spider": "usps_collection_boxes", "spider:collection_time": "2023-12-19T08:25:25.283853"}, "geometry": {"coordinates": [-91.0639878, 40.231603], "type": "Point"}, "id": "GGMseArWfuCF-gREsIjCKmHJxxI=", "properties": {"@spider": "usps_collection_boxes", "addr:city": "BOWEN", "addr:country": "US", "addr:full": "114 E 5TH ST", "addr:postcode": "62316", "addr:state": "IL", "amenity": "post_box", "brand": "United States Postal Service", "brand:wikidata": "Q668687", "collection_times": "Mo-Fr 11:15; Sa 08:45", "name": "USPS COLLECTION BOX - BLUE BOX", "nsi_id": "unitedstatespostalservice-a77078", "operator": "United States Postal Service", "operator:short": "USPS", "operator:type": "public", "operator:wikidata": "Q668687", "ref": "6231600001"}, "type": "Feature"}
{"dataset_attributes": {"@spider": "usps_collection_boxes", "spider:collection_time": "2023-12-19T08:25:25.283853"}, "geometry": {"coordinates": [-91.064467, 40.231572], "type": "Point"}, "id": "NuZc-3l9VVr6JXu7f-KWTjk8U8U=", "properties": {"@spider": "usps_collection_boxes", "addr:city": "BOWEN", "addr:country": "US", "addr:full": "114 E 5TH ST", "addr:postcode": "62316", "addr:state": "IL", "amenity": "post_box", "brand": "United States Postal Service", "brand:wikidata": "Q668687", "collection_times": "Mo-Fr 11:15; Sa 08:45", "name": "USPS COLLECTION BOX - PO LOBBY", "nsi_id": "unitedstatespostalservice-a77078", "operator": "United States Postal Service", "operator:short": "USPS", "operator:type": "public", "operator:wikidata": "Q668687", "ref": "6231600002"}, "type": "Feature"}
{"dataset_attributes": {"@spider": "usps_collection_boxes", "spider:collection_time": "2023-12-19T08:25:25.283853"}, "geometry": {"coordinates": [-91.064419599, 40.231640861], "type": "Point"}, "id": "UYRFaMloX4nEfnO9n6waXQFVULI=", "properties": {"@spider": "usps_collection_boxes", "addr:city": "BOWEN", "addr:country": "US", "addr:full": "114 E 5TH ST", "addr:postcode": "62316", "addr:state": "IL", "amenity": "post_box", "brand": "United States Postal Service", "brand:wikidata": "Q668687", "collection_times": "Mo-Fr 11:15; Sa 08:45", "name": "USPS COLLECTION BOX - PO LOBBY", "nsi_id": "unitedstatespostalservice-a77078", "operator": "United States Postal Service", "operator:short": "USPS", "operator:type": "public", "operator:wikidata": "Q668687", "ref": "6231600004"}, "type": "Feature"}
{"dataset_attributes": {"@spider": "usps_collection_boxes", "spider:collection_time": "2023-12-19T08:25:25.283853"}, "geometry": {"coordinates": [-90.770821, 40.148443], "type": "Point"}, "id": "45XADnrLiymZ_1y8yk9_gR1p4aQ=", "properties": {"@spider": "usps_collection_boxes", "addr:city": "CAMDEN", "addr:country": "US", "addr:full": "12270 BROADWAY ST", "addr:postcode": "62319", "addr:state": "IL", "amenity": "post_box", "brand": "United States Postal Service", "brand:wikidata": "Q668687", "collection_times": "Mo-Fr 14:45; Sa 11:45", "name": "USPS COLLECTION BOX - BLUE BOX", "note": "ON 12/24 AND 12/31, THIS BOX MAY BE COLLECTED AS EARLY AS 12 NOON.", "nsi_id": "unitedstatespostalservice-a77078", "operator": "United States Postal Service", "operator:short": "USPS", "operator:type": "public", "operator:wikidata": "Q668687", "ref": "6231900001"}, "type": "Feature"}
{"dataset_attributes": {"@spider": "usps_collection_boxes", "spider:collection_time": "2023-12-19T08:25:25.283853"}, "geometry": {"coordinates": [-90.770788, 40.148353], "type": "Point"}, "id": "91YOfndD2-ylWzS1g-cmAi7z_ms=", "properties": {"@spider": "usps_collection_boxes", "addr:city": "CAMDEN", "addr:country": "US", "addr:full": "12270 BROADWAY ST", "addr:postcode": "62319", "addr:state": "IL", "amenity": "post_box", "brand": "United States Postal Service", "brand:wikidata": "Q668687", "collection_times": "Mo-Fr 14:45; Sa 11:45", "name": "USPS COLLECTION BOX - PO LOBBY", "note": "ON 12/24 AND 12/31, THIS BOX MAY BE COLLECTED AS EARLY AS 12 NOON.", "nsi_id": "unitedstatespostalservice-a77078", "operator": "United States Postal Service", "operator:short": "USPS", "operator:type": "public", "operator:wikidata": "Q668687", "ref": "6231900002"}, "type": "Feature"}
{"dataset_attributes": {"@spider": "usps_collection_boxes", "spider:collection_time": "2023-12-19T08:25:25.283853"}, "geometry": {"coordinates": [-90.770752571, 40.152420969], "type": "Point"}, "id": "VlCIZXPXuesuRHqewWgTgoE6w34=", "properties": {"@spider": "usps_collection_boxes", "addr:city": "CAMDEN", "addr:country": "US", "addr:full": "12270 BROADWAY ST", "addr:postcode": "62319", "addr:state": "IL", "amenity": "post_box", "brand": "United States Postal Service", "brand:wikidata": "Q668687", "collection_times": "Mo-Fr 14:45; Sa 11:45", "name": "USPS COLLECTION BOX - PO LOBBY", "note": "ON 12/24 AND 12/31, THIS BOX MAY BE COLLECTED AS EARLY AS 12 NOON.", "nsi_id": "unitedstatespostalservice-a77078", "operator": "United States Postal Service", "operator:short": "USPS", "operator:type": "public", "operator:wikidata": "Q668687", "ref": "6231900003"}, "type": "Feature"}
{"dataset_attributes": {"@spider": "usps_collection_boxes", "spider:collection_time": "2023-12-19T08:25:25.283853"}, "geometry": {"coordinates": [-91.066182, 40.042082], "type": "Point"}, "id": "zq8d4IfifFMcaozwOzx0XClpIEs=", "properties": {"@spider": "usps_collection_boxes", "addr:city": "CAMP POINT", "addr:country": "US", "addr:full": "108 N ILLINOIS ST", "addr:postcode": "62320", "addr:state": "IL", "amenity": "post_box", "brand": "United States Postal Service", "brand:wikidata": "Q668687", "collection_times": "Mo-Fr 15:20; Sa 09:15", "name": "USPS COLLECTION BOX - BLUE BOX", "note": "ON 12/24 AND 12/31, THIS BOX MAY BE COLLECTED AS EARLY AS 12 NOON.", "nsi_id": "unitedstatespostalservice-a77078", "operator": "United States Postal Service", "operator:short": "USPS", "operator:type": "public", "operator:wikidata": "Q668687", "ref": "6232000001"}, "type": "Feature"}
{"dataset_attributes": {"@spider": "usps_collection_boxes", "spider:collection_time": "2023-12-19T08:25:25.283853"}, "geometry": {"coordinates": [-91.066148, 40.042006], "type": "Point"}, "id": "dnWRd0WmcEnm5iZQm0P6FtYdRcU=", "properties": {"@spider": "usps_collection_boxes", "addr:city": "CAMP POINT", "addr:country": "US", "addr:full": "108 N ILLINOIS ST", "addr:postcode": "62320", "addr:state": "IL", "amenity": "post_box", "brand": "United States Postal Service", "brand:wikidata": "Q668687", "collection_times": "Mo-Fr 15:20; Sa 09:15", "name": "USPS COLLECTION BOX - PO LOBBY", "note": "ON 12/24 AND 12/31, THIS BOX MAY BE COLLECTED AS EARLY AS 12 NOON.", "nsi_id": "unitedstatespostalservice-a77078", "operator": "United States Postal Service", "operator:short": "USPS", "operator:type": "public", "operator:wikidata": "Q668687", "ref": "6232000002"}, "type": "Feature"}
{"dataset_attributes": {"@spider": "usps_collection_boxes", "spider:collection_time": "2023-12-19T08:25:25.283853"}, "geometry": {"coordinates": [-91.066179853, 40.042592696], "type": "Point"}, "id": "Zsn-pyr79ifkhl8ZNs5xGCf93yU=", "properties": {"@spider": "usps_collection_boxes", "addr:city": "CAMP POINT", "addr:country": "US", "addr:full": "108 N ILLINOIS ST", "addr:postcode": "62320", "addr:state": "IL", "amenity": "post_box", "brand": "United States Postal Service", "brand:wikidata": "Q668687", "collection_times": "Mo-Fr 15:15; Sa 09:15", "name": "USPS COLLECTION BOX - PO LOBBY", "note": "ON 12/24 AND 12/31, THIS BOX MAY BE COLLECTED AS EARLY AS 12 NOON.", "nsi_id": "unitedstatespostalservice-a77078", "operator": "United States Postal Service", "operator:short": "USPS", "operator:type": "public", "operator:wikidata": "Q668687", "ref": "6232000003"}, "type": "Feature"}
{"dataset_attributes": {"@spider": "usps_collection_boxes", "spider:collection_time": "2023-12-19T08:25:25.283853"}, "geometry": {"coordinates": [-91.13427, 40.41367], "type": "Point"}, "id": "qnDMSnRcqMMN-GCmpnoKaRRsUhE=", "properties": {"@spider": "usps_collection_boxes", "addr:city": "CARTHAGE", "addr:country": "US", "addr:full": "615 MAIN ST", "addr:postcode": "62321", "addr:state": "IL", "amenity": "post_box", "brand": "United States Postal Service", "brand:wikidata": "Q668687", "collection_times": "Mo-Fr 14:10; Sa 11:00", "name": "USPS COLLECTION BOX - BLUE BOX", "note": "ON 12/24 AND 12/31, THIS BOX MAY BE COLLECTED AS EARLY AS 12 NOON.", "nsi_id": "unitedstatespostalservice-a77078", "operator": "United States Postal Service", "operator:short": "USPS", "operator:type": "public", "operator:wikidata": "Q668687", "ref": "6232100002"}, "type": "Feature"}
{"dataset_attributes": {"@spider": "usps_collection_boxes", "spider:collection_time": "2023-12-19T08:25:25.283853"}, "geometry": {"coordinates": [-91.1346969, 40.413004], "type": "Point"}, "id": "7CThisXDEw7Vh9IG6dAcSsNcY_M=", "properties": {"@spider": "usps_collection_boxes", "addr:city": "CARTHAGE", "addr:country": "US", "addr:full": "500 MAIN ST", "addr:postcode": "62321", "addr:state": "IL", "amenity": "post_box", "brand": "United States Postal Service", "brand:wikidata": "Q668687", "collection_times": "Mo-Fr 14:10; Sa 11:00", "name": "USPS COLLECTION BOX - BLUE BOX", "note": "ON 12/24 AND 12/31, THIS BOX MAY BE COLLECTED AS EARLY AS 12 NOON.", "nsi_id": "unitedstatespostalservice-a77078", "operator": "United States Postal Service", "operator:short": "USPS", "operator:type": "public", "operator:wikidata": "Q668687", "ref": "6232100005"}, "type": "Feature"}
{"dataset_attributes": {"@spider": "usps_collection_boxes", "spider:collection_time": "2023-12-19T08:25:25.283853"}, "geometry": {"coordinates": [-91.13427, 40.41367], "type": "Point"}, "id": "hRuHwRlUKdq2iXvE1B672eU-QDM=", "properties": {"@spider": "usps_collection_boxes", "addr:city": "CARTHAGE", "addr:country": "US", "addr:full": "615 MAIN ST", "addr:postcode": "62321", "addr:state": "IL", "amenity": "post_box", "brand": "United States Postal Service", "brand:wikidata": "Q668687", "collection_times": "Mo-Fr 14:10; Sa 11:00", "name": "USPS COLLECTION BOX - PO LOBBY", "note": "ON 12/24 AND 12/31, THIS BOX MAY BE COLLECTED AS EARLY AS 12 NOON.", "nsi_id": "unitedstatespostalservice-a77078", "operator": "United States Postal Service", "operator:short": "USPS", "operator:type": "public", "operator:wikidata": "Q668687", "ref": "6232100010"}, "type": "Feature"}
{"dataset_attributes": {"@spider": "usps_collection_boxes", "spider:collection_time": "2023-12-19T08:25:25.283853"}, "geometry": {"coordinates": [-91.1337399, 40.409597], "type": "Point"}, "id": "FWSj5gnxm1mR-ZliiQCOjCog_hg=", "properties": {"@spider": "usps_collection_boxes", "addr:city": "CARTHAGE", "addr:country": "US", "addr:full": "630 LOCUST ST", "addr:postcode": "62321", "addr:state": "IL", "amenity": "post_box", "brand": "United States Postal Service", "brand:wikidata": "Q668687", "collection_times": "Mo-Fr 14:10; Sa 11:00", "name": "USPS COLLECTION BOX - BLUE BOX", "note": "ON 12/24 AND 12/31, THIS BOX MAY BE COLLECTED AS EARLY AS 12 NOON.", "nsi_id": "unitedstatespostalservice-a77078", "operator": "United States Postal Service", "operator:short": "USPS", "operator:type": "public", "operator:wikidata": "Q668687", "ref": "6232100015"}, "type": "Feature"}
{"dataset_attributes": {"@spider": "usps_collection_boxes", "spider:collection_time": "2023-12-19T08:25:25.283853"}, "geometry": {"coordinates": [-91.134213687, 40.413734931], "type": "Point"}, "id": "KpnHe_PiChKXq_lbcKpHFKBCfQ8=", "properties": {"@spider": "usps_collection_boxes", "addr:city": "CARTHAGE", "addr:country": "US", "addr:full": "615 MAIN ST", "addr:postcode": "62321", "addr:state": "IL", "amenity": "post_box", "brand": "United States Postal Service", "brand:wikidata": "Q668687", "collection_times": "Mo-Fr 14:15; Sa 11:00", "name": "USPS COLLECTION BOX - PO LOBBY", "note": "ON 12/24 AND 12/31, THIS BOX MAY BE COLLECTED AS EARLY AS 12 NOON.", "nsi_id": "unitedstatespostalservice-a77078", "operator": "United States Postal Service", "operator:short": "USPS", "operator:type": "public", "operator:wikidata": "Q668687", "ref": "6232100016"}, "type": "Feature"}
{"dataset_attributes": {"@spider": "usps_collection_boxes", "spider:collection_time": "2023-12-19T08:25:25.283853"}, "geometry": {"coordinates": [-90.793694, 40.424347], "type": "Point"}, "id": "DWltN91_r67O-IpjHJGcjPOxPRQ=", "properties": {"@spider": "usps_collection_boxes", "addr:city": "COLCHESTER", "addr:country": "US", "addr:full": "105 W MARKET ST", "addr:postcode": "62326", "addr:state": "IL", "amenity": "post_box", "brand": "United States Postal Service", "brand:wikidata": "Q668687", "collection_times": "Mo-Fr 15:45; Sa 10:30", "name": "USPS COLLECTION BOX - BLUE BOX", "note": "ON 12/24 AND 12/31, THIS BOX MAY BE COLLECTED AS EARLY AS 12 NOON.", "nsi_id": "unitedstatespostalservice-a77078", "operator": "United States Postal Service", "operator:short": "USPS", "operator:type": "public", "operator:wikidata": "Q668687", "ref": "6232600001"}, "type": "Feature"}
{"dataset_attributes": {"@spider": "usps_collection_boxes", "spider:collection_time": "2023-12-19T08:25:25.283853"}, "geometry": {"coordinates": [-90.793602, 40.424405], "type": "Point"}, "id": "NA7IEdTEbPJoimBxcrZsL9dT6bU=", "properties": {"@spider": "usps_collection_boxes", "addr:city": "COLCHESTER", "addr:country": "US", "addr:full": "105 W MARKET ST", "addr:postcode": "62326", "addr:state": "IL", "amenity": "post_box", "brand": "United States Postal Service", "brand:wikidata": "Q668687", "collection_times": "Mo-Fr 15:45; Sa 10:30", "name": "USPS COLLECTION BOX - PO LOBBY", "note": "ON 12/24 AND 12/31, THIS BOX MAY BE COLLECTED AS EARLY AS 12 NOON.", "nsi_id": "unitedstatespostalservice-a77078", "operator": "United States Postal Service", "operator:short": "USPS", "operator:type": "public", "operator:wikidata": "Q668687", "ref": "6232600002"}, "type": "Feature"}
{"dataset_attributes": {"@spider": "usps_collection_boxes", "spider:collection_time": "2023-12-19T08:25:25.283853"}, "geometry": {"coordinates": [-90.793602, 40.424405], "type": "Point"}, "id": "gH-CZbcF239vR9IdkQT4g6Zu4tc=", "properties": {"@spider": "usps_collection_boxes", "addr:city": "COLCHESTER", "addr:country": "US", "addr:full": "105 W MARKET ST", "addr:postcode": "62326", "addr:state": "IL", "amenity": "post_box", "brand": "United States Postal Service", "brand:wikidata": "Q668687", "collection_times": "Mo-Fr 15:45; Sa 10:30", "name": "USPS COLLECTION BOX - PO LOBBY", "note": "ON 12/24 AND 12/31, THIS BOX MAY BE COLLECTED AS EARLY AS 12 NOON.", "nsi_id": "unitedstatespostalservice-a77078", "operator": "United States Postal Service", "operator:short": "USPS", "operator:type": "public", "operator:wikidata": "Q668687", "ref": "6232600004"}, "type": "Feature"}
{"dataset_attributes": {"@spider": "usps_collection_boxes", "spider:collection_time": "2023-12-19T08:25:25.283853"}, "geometry": {"coordinates": [-90.792971466, 40.424541465], "type": "Point"}, "id": "TysTTRR5S47qLtCvwjVorOLxZRA=", "properties": {"@spider": "usps_collection_boxes", "addr:city": "COLCHESTER", "addr:country": "US", "addr:full": "105 W MARKET ST", "addr:postcode": "62326", "addr:state": "IL", "amenity": "post_box", "brand": "United States Postal Service", "brand:wikidata": "Q668687", "collection_times": "Mo-Fr 15:45; Sa 10:30", "name": "USPS COLLECTION BOX - PO LOBBY", "note": "ON 12/24 AND 12/31, THIS BOX MAY BE COLLECTED AS EARLY AS 12 NOON.", "nsi_id": "unitedstatespostalservice-a77078", "operator": "United States Postal Service", "operator:short": "USPS", "operator:type": "public", "operator:wikidata": "Q668687", "ref": "6232600007"}, "type": "Feature"}
{"dataset_attributes": {"@spider": "usps_collection_boxes", "spider:collection_time": "2023-12-19T08:25:25.283853"}, "geometry": {"coordinates": [-91.16701, 40.636524], "type": "Point"}, "id": "Buur0zPsq400xQ5xpB1_AVNylbM=", "properties": {"@spider": "usps_collection_boxes", "addr:city": "DALLAS CITY", "addr:country": "US", "addr:full": "45 E 3RD ST", "addr:postcode": "62330", "addr:state": "IL", "amenity": "post_box", "brand": "United States Postal Service", "brand:wikidata": "Q668687", "collection_times": "Mo-Fr 13:55; Sa 10:30", "name": "USPS COLLECTION BOX - BLUE BOX", "note": "ON 12/24 AND 12/31, THIS BOX MAY BE COLLECTED AS EARLY AS 12 NOON.", "nsi_id": "unitedstatespostalservice-a77078", "operator": "United States Postal Service", "operator:short": "USPS", "operator:type": "public", "operator:wikidata": "Q668687", "ref": "6233000001"}, "type": "Feature"}
{"dataset_attributes": {"@spider": "usps_collection_boxes", "spider:collection_time": "2023-12-19T08:25:25.283853"}, "geometry": {"coordinates": [-91.167004, 40.636495], "type": "Point"}, "id": "6E9XoNmAQ85FdeJMWDkUXoFiTiM=", "properties": {"@spider": "usps_collection_boxes", "addr:city": "DALLAS CITY", "addr:country": "US", "addr:full": "45 E 3RD ST", "addr:postcode": "62330", "addr:state": "IL", "amenity": "post_box", "brand": "United States Postal Service", "brand:wikidata": "Q668687", "collection_times": "Mo-Fr 13:55; Sa 10:30", "name": "USPS COLLECTION BOX - PO LOBBY", "note": "ON 12/24 AND 12/31, THIS BOX MAY BE COLLECTED AS EARLY AS 12 NOON.", "nsi_id": "unitedstatespostalservice-a77078", "operator": "United States Postal Service", "operator:short": "USPS", "operator:type": "public", "operator:wikidata": "Q668687", "ref": "6233000003"}, "type": "Feature"}
{"dataset_attributes": {"@spider": "usps_collection_boxes", "spider:collection_time": "2023-12-19T08:25:25.283853"}, "geometry": {"coordinates": [-91.16728923, 40.636455486], "type": "Point"}, "id": "4CgoJ-5j0-hvuLw0ClfFGHJ0f8M=", "properties": {"@spider": "usps_collection_boxes", "addr:city": "DALLAS CITY", "addr:country": "US", "addr:full": "45 E 3RD ST", "addr:postcode": "62330", "addr:state": "IL", "amenity": "post_box", "brand": "United States Postal Service", "brand:wikidata": "Q668687", "collection_times": "Mo-Fr 13:45; Sa 10:30", "name": "USPS COLLECTION BOX - PO LOBBY", "note": "ON 12/24 AND 12/31, THIS BOX MAY BE COLLECTED AS EARLY AS 12 NOON.", "nsi_id": "unitedstatespostalservice-a77078", "operator": "United States Postal Service", "operator:short": "USPS", "operator:type": "public", "operator:wikidata": "Q668687", "ref": "6233000006"}, "type": "Feature"}
{"dataset_attributes": {"@spider": "usps_collection_boxes", "spider:collection_time": "2023-12-19T08:25:25.283853"}, "geometry": {"coordinates": [-91.249825, 40.394942], "type": "Point"}, "id": "5SleSl3e3MoXakp2_Fc9_qFarMc=", "properties": {"@spider": "usps_collection_boxes", "addr:city": "ELVASTON", "addr:country": "US", "addr:full": "104 W MAINE ST", "addr:postcode": "62334", "addr:state": "IL", "amenity": "post_box", "brand": "United States Postal Service", "brand:wikidata": "Q668687", "collection_times": "Mo-Fr 14:20; Sa 09:00", "name": "USPS COLLECTION BOX - BLUE BOX", "note": "ON 12/24 AND 12/31, THIS BOX MAY BE COLLECTED AS EARLY AS 12 NOON.", "nsi_id": "unitedstatespostalservice-a77078", "operator": "United States Postal Service", "operator:short": "USPS", "operator:type": "public", "operator:wikidata": "Q668687", "ref": "6233400001"}, "type": "Feature"}
{"dataset_attributes": {"@spider": "usps_collection_boxes", "spider:collection_time": "2023-12-19T08:25:25.283853"}, "geometry": {"coordinates": [-91.249717, 40.394914], "type": "Point"}, "id": "fymSl6Dq3DZ-ZGKz1JDS0t6foXY=", "properties": {"@spider": "usps_collection_boxes", "addr:city": "ELVASTON", "addr:country": "US", "addr:full": "104 W MAINE ST", "addr:postcode": "62334", "addr:state": "IL", "amenity": "post_box", "brand": "United States Postal Service", "brand:wikidata": "Q668687", "collection_times": "Mo-Fr 14:20; Sa 09:00", "name": "USPS COLLECTION BOX - PO LOBBY", "note": "ON 12/24 AND 12/31, THIS BOX MAY BE COLLECTED AS EARLY AS 12 NOON.", "nsi_id": "unitedstatespostalservice-a77078", "operator": "United States Postal Service", "operator:short": "USPS", "operator:type": "public", "operator:wikidata": "Q668687", "ref": "6233400002"}, "type": "Feature"}
{"dataset_attributes": {"@spider": "usps_collection_boxes", "spider:collection_time": "2023-12-19T08:25:25.283853"}, "geometry": {"coordinates": [-91.249717, 40.394914], "type": "Point"}, "id": "zNsvn6p_UiX66OPkExsxUo7LVWM=", "properties": {"@spider": "usps_collection_boxes", "addr:city": "ELVASTON", "addr:country": "US", "addr:full": "104 W MAINE ST", "addr:postcode": "62334", "addr:state": "IL", "amenity": "post_box", "brand": "United States Postal Service", "brand:wikidata": "Q668687", "collection_times": "Mo-Fr 14:20; Sa 09:00", "name": "USPS COLLECTION BOX - PO LOBBY", "note": "ON 12/24 AND 12/31, THIS BOX MAY BE COLLECTED AS EARLY AS 12 NOON.", "nsi_id": "unitedstatespostalservice-a77078", "operator": "United States Postal Service", "operator:short": "USPS", "operator:type": "public", "operator:wikidata": "Q668687", "ref": "6233400003"}, "type": "Feature"}
{"dataset_attributes": {"@spider": "usps_collection_boxes", "spider:collection_time": "2023-12-19T08:25:25.283853"}, "geometry": {"coordinates": [-91.249785342, 40.39498243], "type": "Point"}, "id": "MHYqRJtOXYfMG7okCCt3x0N0aRg=", "properties": {"@spider": "usps_collection_boxes", "addr:city": "ELVASTON", "addr:country": "US", "addr:full": "104 W MAINE ST", "addr:postcode": "62334", "addr:state": "IL", "amenity": "post_box", "brand": "United States Postal Service", "brand:wikidata": "Q668687", "collection_times": "Mo-Fr 14:15; Sa 09:00", "name": "USPS COLLECTION BOX - PO LOBBY", "note": "ON 12/24 AND 12/31, THIS BOX MAY BE COLLECTED AS EARLY AS 12 NOON.", "nsi_id": "unitedstatespostalservice-a77078", "operator": "United States Postal Service", "operator:short": "USPS", "operator:type": "public", "operator:wikidata": "Q668687", "ref": "6233400004"}, "type": "Feature"}
{"dataset_attributes": {"@spider": "usps_collection_boxes", "spider:collection_time": "2023-12-19T08:25:25.283853"}, "geometry": {"coordinates": [-91.169753, 40.468732], "type": "Point"}, "id": "At1xhaylsq8-hObdXz7TYIRjvuU=", "properties": {"@spider": "usps_collection_boxes", "addr:city": "FERRIS", "addr:country": "US", "addr:full": "131 MAIN ST", "addr:postcode": "62336", "addr:state": "IL", "amenity": "post_box", "brand": "United States Postal Service", "brand:wikidata": "Q668687", "collection_times": "Mo-Fr 11:15; Sa 09:30", "name": "USPS COLLECTION BOX - BLUE BOX", "nsi_id": "unitedstatespostalservice-a77078", "operator": "United States Postal Service", "operator:short": "USPS", "operator:type": "public", "operator:wikidata": "Q668687", "ref": "6233600001"}, "type": "Feature"}
{"dataset_attributes": {"@spider": "usps_collection_boxes", "spider:collection_time": "2023-12-19T08:25:25.283853"}, "geometry": {"coordinates": [-91.169753, 40.468732], "type": "Point"}, "id": "E_Hb02GeFTRl32FwLRfJjN_3GeE=", "properties": {"@spider": "usps_collection_boxes", "addr:city": "FERRIS", "addr:country": "US", "addr:full": "131 MAIN ST", "addr:postcode": "62336", "addr:state": "IL", "amenity": "post_box", "brand": "United States Postal Service", "brand:wikidata": "Q668687", "collection_times": "Mo-Fr 11:15; Sa 09:30", "name": "USPS COLLECTION BOX - PO LOBBY", "nsi_id": "unitedstatespostalservice-a77078", "operator": "United States Postal Service", "operator:short": "USPS", "operator:type": "public", "operator:wikidata": "Q668687", "ref": "6233600002"}, "type": "Feature"}
{"dataset_attributes": {"@spider": "usps_collection_boxes", "spider:collection_time": "2023-12-19T08:25:25.283853"}, "geometry": {"coordinates": [-91.169586818, 40.468589207], "type": "Point"}, "id": "XMHvYqHlE4Jj_FHpMozd-jmS-Fc=", "properties": {"@spider": "usps_collection_boxes", "addr:city": "FERRIS", "addr:country": "US", "addr:full": "131 MAIN ST", "addr:postcode": "62336", "addr:state": "IL", "amenity": "post_box", "brand": "United States Postal Service", "brand:wikidata": "Q668687", "collection_times": "Mo-Fr 11:15; Sa 09:30", "name": "USPS COLLECTION BOX - PO LOBBY", "nsi_id": "unitedstatespostalservice-a77078", "operator": "United States Postal Service", "operator:short": "USPS", "operator:type": "public", "operator:wikidata": "Q668687", "ref": "6233600003"}, "type": "Feature"}
{"dataset_attributes": {"@spider": "usps_collection_boxes", "spider:collection_time": "2023-12-19T08:25:25.283853"}, "geometry": {"coordinates": [-91.258814, 40.006983], "type": "Point"}, "id": "oG9c3sIz_qycc3qcJf0isxdPIRA=", "properties": {"@spider": "usps_collection_boxes", "addr:city": "FOWLER", "addr:country": "US", "addr:full": "1321 HIGHWAY 24", "addr:postcode": "62338", "addr:state": "IL", "amenity": "post_box", "brand": "United States Postal Service", "brand:wikidata": "Q668687", "collection_times": "Mo-Fr 11:15; Sa 09:00", "name": "USPS COLLECTION BOX - BLUE BOX", "nsi_id": "unitedstatespostalservice-a77078", "operator": "United States Postal Service", "operator:short": "USPS", "operator:type": "public", "operator:wikidata": "Q668687", "ref": "6233800001"}, "type": "Feature"}
{"dataset_attributes": {"@spider": "usps_collection_boxes", "spider:collection_time": "2023-12-19T08:25:25.283853"}, "geometry": {"coordinates": [-91.258773, 40.006957], "type": "Point"}, "id": "L-kQYAH1sNWRtzLVUq4F5iLjVPQ=", "properties": {"@spider": "usps_collection_boxes", "addr:city": "FOWLER", "addr:country": "US", "addr:full": "1321 HIGHWAY 24", "addr:postcode": "62338", "addr:state": "IL", "amenity": "post_box", "brand": "United States Postal Service", "brand:wikidata": "Q668687", "collection_times": "Mo-Fr 11:15; Sa 09:00", "name": "USPS COLLECTION BOX - PO LOBBY", "nsi_id": "unitedstatespostalservice-a77078", "operator": "United States Postal Service", "operator:short": "USPS", "operator:type": "public", "operator:wikidata": "Q668687", "ref": "6233800002"}, "type": "Feature"}
{"dataset_attributes": {"@spider": "usps_collection_boxes", "spider:collection_time": "2023-12-19T08:25:25.283853"}, "geometry": {"coordinates": [-91.259131196, 40.006970475], "type": "Point"}, "id": "0l6sBYpuGRUoPKlYrNUCvh2oPUM=", "properties": {"@spider": "usps_collection_boxes", "addr:city": "FOWLER", "addr:country": "US", "addr:full": "1321 HIGHWAY 24", "addr:postcode": "62338", "addr:state": "IL", "amenity": "post_box", "brand": "United States Postal Service", "brand:wikidata": "Q668687", "collection_times": "Mo-Fr 11:15; Sa 09:00", "name": "USPS COLLECTION BOX - PO LOBBY", "nsi_id": "unitedstatespostalservice-a77078", "operator": "United States Postal Service", "operator:short": "USPS", "operator:type": "public", "operator:wikidata": "Q668687", "ref": "6233800003"}, "type": "Feature"}
{"dataset_attributes": {"@spider": "usps_collection_boxes", "spider:collection_time": "2023-12-19T08:25:25.283853"}, "geometry": {"coordinates": [-91.017475, 40.109339], "type": "Point"}, "id": "cKyX_AXU1twyTnohDkGYXFDmjmk=", "properties": {"@spider": "usps_collection_boxes", "addr:city": "GOLDEN", "addr:country": "US", "addr:full": "305 SMITH ST", "addr:postcode": "62339", "addr:state": "IL", "amenity": "post_box", "brand": "United States Postal Service", "brand:wikidata": "Q668687", "collection_times": "Mo-Fr 14:45; Sa 09:15", "name": "USPS COLLECTION BOX - BLUE BOX", "note": "ON 12/24 AND 12/31, THIS BOX MAY BE COLLECTED AS EARLY AS 12 NOON.", "nsi_id": "unitedstatespostalservice-a77078", "operator": "United States Postal Service", "operator:short": "USPS", "operator:type": "public", "operator:wikidata": "Q668687", "ref": "6233900001"}, "type": "Feature"}
{"dataset_attributes": {"@spider": "usps_collection_boxes", "spider:collection_time": "2023-12-19T08:25:25.283853"}, "geometry": {"coordinates": [-91.017475, 40.10934], "type": "Point"}, "id": "a1gi544PmGKtDOUgU5HIzA8hL10=", "properties": {"@spider": "usps_collection_boxes", "addr:city": "GOLDEN", "addr:country": "US", "addr:full": "305 SMITH ST", "addr:postcode": "62339", "addr:state": "IL", "amenity": "post_box", "brand": "United States Postal Service", "brand:wikidata": "Q668687", "collection_times": "Mo-Fr 14:45; Sa 09:15", "name": "USPS COLLECTION BOX - PO LOBBY", "note": "ON 12/24 AND 12/31, THIS BOX MAY BE COLLECTED AS EARLY AS 12 NOON.", "nsi_id": "unitedstatespostalservice-a77078", "operator": "United States Postal Service", "operator:short": "USPS", "operator:type": "public", "operator:wikidata": "Q668687", "ref": "6233900002"}, "type": "Feature"}
{"dataset_attributes": {"@spider": "usps_collection_boxes", "spider:collection_time": "2023-12-19T08:25:25.283853"}, "geometry": {"coordinates": [-91.021664272, 40.109249726], "type": "Point"}, "id": "Mq9J_RDVgi3Y05JRV5H6xP_srKs=", "properties": {"@spider": "usps_collection_boxes", "addr:city": "GOLDEN", "addr:country": "US", "addr:full": "305 SMITH ST", "addr:postcode": "62339", "addr:state": "IL", "amenity": "post_box", "brand": "United States Postal Service", "brand:wikidata": "Q668687", "collection_times": "Mo-Fr 14:45; Sa 09:15", "name": "USPS COLLECTION BOX - PO LOBBY", "note": "ON 12/24 AND 12/31, THIS BOX MAY BE COLLECTED AS EARLY AS 12 NOON.", "nsi_id": "unitedstatespostalservice-a77078", "operator": "United States Postal Service", "operator:short": "USPS", "operator:type": "public", "operator:wikidata": "Q668687", "ref": "6233900003"}, "type": "Feature"}
{"dataset_attributes": {"@spider": "usps_collection_boxes", "spider:collection_time": "2023-12-19T08:25:25.283853"}, "geometry": {"coordinates": [-90.725406, 39.708558], "type": "Point"}, "id": "OSCaDHrB3_Jkkus2kurpKDHiV4U=", "properties": {"@spider": "usps_collection_boxes", "addr:city": "GRIGGSVILLE", "addr:country": "US", "addr:full": "102 W QUINCY ST", "addr:postcode": "62340", "addr:state": "IL", "amenity": "post_box", "brand": "United States Postal Service", "brand:wikidata": "Q668687", "collection_times": "Mo-Fr 14:45; Sa 09:30", "name": "USPS COLLECTION BOX - BLUE BOX", "note": "ON 12/24 AND 12/31, THIS BOX MAY BE COLLECTED AS EARLY AS 12 NOON.", "nsi_id": "unitedstatespostalservice-a77078", "operator": "United States Postal Service", "operator:short": "USPS", "operator:type": "public", "operator:wikidata": "Q668687", "ref": "6234000001"}, "type": "Feature"}
{"dataset_attributes": {"@spider": "usps_collection_boxes", "spider:collection_time": "2023-12-19T08:25:25.283853"}, "geometry": {"coordinates": [-90.725294, 39.708531], "type": "Point"}, "id": "7risf06ogPDIrozmbfnF0bv893E=", "properties": {"@spider": "usps_collection_boxes", "addr:city": "GRIGGSVILLE", "addr:country": "US", "addr:full": "102 W QUINCY ST", "addr:postcode": "62340", "addr:state": "IL", "amenity": "post_box", "brand": "United States Postal Service", "brand:wikidata": "Q668687", "collection_times": "Mo-Fr 14:45; Sa 09:45", "name": "USPS COLLECTION BOX - PO LOBBY", "note": "ON 12/24 AND 12/31, THIS BOX MAY BE COLLECTED AS EARLY AS 12 NOON.", "nsi_id": "unitedstatespostalservice-a77078", "operator": "United States Postal Service", "operator:short": "USPS", "operator:type": "public", "operator:wikidata": "Q668687", "ref": "6234000002"}, "type": "Feature"}
{"dataset_attributes": {"@spider": "usps_collection_boxes", "spider:collection_time": "2023-12-19T08:25:25.283853"}, "geometry": {"coordinates": [-90.725368245, 39.708596292], "type": "Point"}, "id": "0J9MoMKxADkl6m6dSxwpMADDGE8=", "properties": {"@spider": "usps_collection_boxes", "addr:city": "GRIGGSVILLE", "addr:country": "US", "addr:full": "102 W QUINCY ST", "addr:postcode": "62340", "addr:state": "IL", "amenity": "post_box", "brand": "United States Postal Service", "brand:wikidata": "Q668687", "collection_times": "Mo-Fr 14:45; Sa 09:45", "name": "USPS COLLECTION BOX - PO LOBBY", "note": "ON 12/24 AND 12/31, THIS BOX MAY BE COLLECTED AS EARLY AS 12 NOON.", "nsi_id": "unitedstatespostalservice-a77078", "operator": "United States Postal Service", "operator:short": "USPS", "operator:type": "public", "operator:wikidata": "Q668687", "ref": "6234000004"}, "type": "Feature"}
{"dataset_attributes": {"@spider": "usps_collection_boxes", "spider:collection_time": "2023-12-19T08:25:25.283853"}, "geometry": {"coordinates": [-91.343339, 40.393081], "type": "Point"}, "id": "Bk5X1ojczT-1GY_BsycCwhrVbKs=", "properties": {"@spider": "usps_collection_boxes", "addr:city": "HAMILTON", "addr:country": "US", "addr:full": "1160 BROADWAY ST", "addr:postcode": "62341", "addr:state": "IL", "amenity": "post_box", "brand": "United States Postal Service", "brand:wikidata": "Q668687", "collection_times": "Mo-Fr 14:50; Sa 10:00", "name": "USPS COLLECTION BOX - BLUE BOX", "note": "ON 12/24 AND 12/31, THIS BOX MAY BE COLLECTED AS EARLY AS 12 NOON.", "nsi_id": "unitedstatespostalservice-a77078", "operator": "United States Postal Service", "operator:short": "USPS", "operator:type": "public", "operator:wikidata": "Q668687", "ref": "6234100001"}, "type": "Feature"}
{"dataset_attributes": {"@spider": "usps_collection_boxes", "spider:collection_time": "2023-12-19T08:25:25.283853"}, "geometry": {"coordinates": [-91.343313, 40.393108], "type": "Point"}, "id": "tJHuNd3iiF5--cAYMBD96uVYuJE=", "properties": {"@spider": "usps_collection_boxes", "addr:city": "HAMILTON", "addr:country": "US", "addr:full": "1160 BROADWAY ST", "addr:postcode": "62341", "addr:state": "IL", "amenity": "post_box", "brand": "United States Postal Service", "brand:wikidata": "Q668687", "collection_times": "Mo-Fr 14:50; Sa 10:00", "name": "USPS COLLECTION BOX - BLUE BOX", "note": "ON 12/24 AND 12/31, THIS BOX MAY BE COLLECTED AS EARLY AS 12 NOON.", "nsi_id": "unitedstatespostalservice-a77078", "operator": "United States Postal Service", "operator:short": "USPS", "operator:type": "public", "operator:wikidata": "Q668687", "ref": "6234100002"}, "type": "Feature"}
{"dataset_attributes": {"@spider": "usps_collection_boxes", "spider:collection_time": "2023-12-19T08:25:25.283853"}, "geometry": {"coordinates": [-91.343313, 40.393108], "type": "Point"}, "id": "QGygLk5QG68p8HzKjvrQwCAVLHg=", "properties": {"@spider": "usps_collection_boxes", "addr:city": "HAMILTON", "addr:country": "US", "addr:full": "1160 BROADWAY ST", "addr:postcode": "62341", "addr:state": "IL", "amenity": "post_box", "brand": "United States Postal Service", "brand:wikidata": "Q668687", "collection_times": "Mo-Fr 14:50; Sa 10:00", "name": "USPS COLLECTION BOX - PO LOBBY", "note": "ON 12/24 AND 12/31, THIS BOX MAY BE COLLECTED AS EARLY AS 12 NOON.", "nsi_id": "unitedstatespostalservice-a77078", "operator": "United States Postal Service", "operator:short": "USPS", "operator:type": "public", "operator:wikidata": "Q668687", "ref": "6234100005"}, "type": "Feature"}
{"dataset_attributes": {"@spider": "usps_collection_boxes", "spider:collection_time": "2023-12-19T08:25:25.283853"}, "geometry": {"coordinates": [-91.343313, 40.393108], "type": "Point"}, "id": "9GNBb5sqs81N4-Fx-gK-Lz5HXXk=", "properties": {"@spider": "usps_collection_boxes", "addr:city": "HAMILTON", "addr:country": "US", "addr:full": "1160 BROADWAY ST", "addr:postcode": "62341", "addr:state": "IL", "amenity": "post_box", "brand": "United States Postal Service", "brand:wikidata": "Q668687", "collection_times": "Mo-Fr 14:50; Sa 10:00", "name": "USPS COLLECTION BOX - PO LOBBY", "note": "ON 12/24 AND 12/31, THIS BOX MAY BE COLLECTED AS EARLY AS 12 NOON.", "nsi_id": "unitedstatespostalservice-a77078", "operator": "United States Postal Service", "operator:short": "USPS", "operator:type": "public", "operator:wikidata": "Q668687", "ref": "6234100008"}, "type": "Feature"}
{"dataset_attributes": {"@spider": "usps_collection_boxes", "spider:collection_time": "2023-12-19T08:25:25.283853"}, "geometry": {"coordinates": [-91.343330874, 40.393028355], "type": "Point"}, "id": "Y9rHhbfEEz4sTv-Pwly2wi_3pvw=", "properties": {"@spider": "usps_collection_boxes", "addr:city": "HAMILTON", "addr:country": "US", "addr:full": "1160 BROADWAY ST", "addr:postcode": "62341", "addr:state": "IL", "amenity": "post_box", "brand": "United States Postal Service", "brand:wikidata": "Q668687", "collection_times": "Mo-Fr 14:50; Sa 10:15", "name": "USPS COLLECTION BOX - PO LOBBY", "note": "ON 12/24 AND 12/31, THIS BOX MAY BE COLLECTED AS EARLY AS 12 NOON.", "nsi_id": "unitedstatespostalservice-a77078", "operator": "United States Postal Service", "operator:short": "USPS", "operator:type": "public", "operator:wikidata": "Q668687", "ref": "6234100009"}, "type": "Feature"}
{"dataset_attributes": {"@spider": "usps_collection_boxes", "spider:collection_time": "2023-12-19T08:25:25.283853"}, "geometry": {"coordinates": [-91.2062848017, 39.7067036852], "type": "Point"}, "id": "O8ZbMNRfvgB8qtR0J2UYJh06MFA=", "properties": {"@spider": "usps_collection_boxes", "addr:city": "HULL", "addr:country": "US", "addr:full": "201 E HULL AVE", "addr:postcode": "62343", "addr:state": "IL", "amenity": "post_box", "brand": "United States Postal Service", "brand:wikidata": "Q668687", "collection_times": "Mo-Fr 15:45; Sa 11:30", "name": "USPS COLLECTION BOX - BLUE BOX", "note": "ON 12/24 AND 12/31, THIS BOX MAY BE COLLECTED AS EARLY AS 12 NOON.", "nsi_id": "unitedstatespostalservice-a77078", "operator": "United States Postal Service", "operator:short": "USPS", "operator:type": "public", "operator:wikidata": "Q668687", "ref": "6234300001"}, "type": "Feature"}
{"dataset_attributes": {"@spider": "usps_collection_boxes", "spider:collection_time": "2023-12-19T08:25:25.283853"}, "geometry": {"coordinates": [-91.2062848017, 39.7067036852], "type": "Point"}, "id": "w-4juBjxKM-qmASoFcuw4cvMDOA=", "properties": {"@spider": "usps_collection_boxes", "addr:city": "HULL", "addr:country": "US", "addr:full": "201 E HULL AVE", "addr:postcode": "62343", "addr:state": "IL", "amenity": "post_box", "brand": "United States Postal Service", "brand:wikidata": "Q668687", "collection_times": "Mo-Fr 15:45; Sa 11:30", "name": "USPS COLLECTION BOX - PO LOBBY", "note": "ON 12/24 AND 12/31, THIS BOX MAY BE COLLECTED AS EARLY AS 12 NOON.", "nsi_id": "unitedstatespostalservice-a77078", "operator": "United States Postal Service", "operator:short": "USPS", "operator:type": "public", "operator:wikidata": "Q668687", "ref": "6234300002"}, "type": "Feature"}
{"dataset_attributes": {"@spider": "usps_collection_boxes", "spider:collection_time": "2023-12-19T08:25:25.283853"}, "geometry": {"coordinates": [-91.2062848017, 39.7067036852], "type": "Point"}, "id": "F5SaRaz1jj7HJWqM68qiit2xmRM=", "properties": {"@spider": "usps_collection_boxes", "addr:city": "HULL", "addr:country": "US", "addr:full": "201 E HULL AVE", "addr:postcode": "62343", "addr:state": "IL", "amenity": "post_box", "brand": "United States Postal Service", "brand:wikidata": "Q668687", "collection_times": "Mo-Fr 15:45; Sa 11:30", "name": "USPS COLLECTION BOX - PO LOBBY", "note": "ON 12/24 AND 12/31, THIS BOX MAY BE COLLECTED AS EARLY AS 12 NOON.", "nsi_id": "unitedstatespostalservice-a77078", "operator": "United States Postal Service", "operator:short": "USPS", "operator:type": "public", "operator:wikidata": "Q668687", "ref": "6234300004"}, "type": "Feature"}
{"dataset_attributes": {"@spider": "usps_collection_boxes", "spider:collection_time": "2023-12-19T08:25:25.283853"}, "geometry": {"coordinates": [-91.1533982957, 39.7015982278], "type": "Point"}, "id": "04k-QZ_aCvBBrObIVNqcDSDY198=", "properties": {"@spider": "usps_collection_boxes", "addr:city": "KINDERHOOK", "addr:country": "US", "addr:full": "185 S HARPER ST", "addr:postcode": "62345", "addr:state": "IL", "amenity": "post_box", "brand": "United States Postal Service", "brand:wikidata": "Q668687", "collection_times": "Mo-Fr 15:35; Sa 09:30", "name": "USPS COLLECTION BOX - BLUE BOX", "note": "ON 12/24 AND 12/31, THIS BOX MAY BE COLLECTED AS EARLY AS 12 NOON.", "nsi_id": "unitedstatespostalservice-a77078", "operator": "United States Postal Service", "operator:short": "USPS", "operator:type": "public", "operator:wikidata": "Q668687", "ref": "6234500001"}, "type": "Feature"}
{"dataset_attributes": {"@spider": "usps_collection_boxes", "spider:collection_time": "2023-12-19T08:25:25.283853"}, "geometry": {"coordinates": [-91.1533982957, 39.7015982278], "type": "Point"}, "id": "LWPAVU4tNRCuqKjsOz2pd2i1WaE=", "properties": {"@spider": "usps_collection_boxes", "addr:city": "KINDERHOOK", "addr:country": "US", "addr:full": "185 S HARPER ST", "addr:postcode": "62345", "addr:state": "IL", "amenity": "post_box", "brand": "United States Postal Service", "brand:wikidata": "Q668687", "collection_times": "Mo-Fr 15:20; Sa 09:30", "name": "USPS COLLECTION BOX - PO LOBBY", "note": "ON 12/24 AND 12/31, THIS BOX MAY BE COLLECTED AS EARLY AS 12 NOON.", "nsi_id": "unitedstatespostalservice-a77078", "operator": "United States Postal Service", "operator:short": "USPS", "operator:type": "public", "operator:wikidata": "Q668687", "ref": "6234500002"}, "type": "Feature"}
{"dataset_attributes": {"@spider": "usps_collection_boxes", "spider:collection_time": "2023-12-19T08:25:25.283853"}, "geometry": {"coordinates": [-91.1533982957, 39.7015982278], "type": "Point"}, "id": "nn05IM-N8eTCIvXRZrxoKx-0L2c=", "properties": {"@spider": "usps_collection_boxes", "addr:city": "KINDERHOOK", "addr:country": "US", "addr:full": "185 S HARPER ST", "addr:postcode": "62345", "addr:state": "IL", "amenity": "post_box", "brand": "United States Postal Service", "brand:wikidata": "Q668687", "collection_times": "Mo-Fr 15:30; Sa 09:30", "name": "USPS COLLECTION BOX - PO LOBBY", "note": "ON 12/24 AND 12/31, THIS BOX MAY BE COLLECTED AS EARLY AS 12 NOON.", "nsi_id": "unitedstatespostalservice-a77078", "operator": "United States Postal Service", "operator:short": "USPS", "operator:type": "public", "operator:wikidata": "Q668687", "ref": "6234500004"}, "type": "Feature"}
{"dataset_attributes": {"@spider": "usps_collection_boxes", "spider:collection_time": "2023-12-19T08:25:25.283853"}, "geometry": {"coordinates": [-91.107532, 39.879439], "type": "Point"}, "id": "VxCxuL5Q5UlBICoJ-Smyhe7qDak=", "properties": {"@spider": "usps_collection_boxes", "addr:city": "LIBERTY", "addr:country": "US", "addr:full": "407 S MAIN ST", "addr:postcode": "62347", "addr:state": "IL", "amenity": "post_box", "brand": "United States Postal Service", "brand:wikidata": "Q668687", "collection_times": "Mo-Fr 15:30; Sa 08:30", "name": "USPS COLLECTION BOX - BLUE BOX", "note": "ON 12/24 AND 12/31, THIS BOX MAY BE COLLECTED AS EARLY AS 12 NOON.", "nsi_id": "unitedstatespostalservice-a77078", "operator": "United States Postal Service", "operator:short": "USPS", "operator:type": "public", "operator:wikidata": "Q668687", "ref": "6234700001"}, "type": "Feature"}
{"dataset_attributes": {"@spider": "usps_collection_boxes", "spider:collection_time": "2023-12-19T08:25:25.283853"}, "geometry": {"coordinates": [-91.107568, 39.879517], "type": "Point"}, "id": "WSfz8-jsdRTw-IdVCOm4WYf5kiE=", "properties": {"@spider": "usps_collection_boxes", "addr:city": "LIBERTY", "addr:country": "US", "addr:full": "407 S MAIN ST", "addr:postcode": "62347", "addr:state": "IL", "amenity": "post_box", "brand": "United States Postal Service", "brand:wikidata": "Q668687", "collection_times": "Mo-Fr 15:30; Sa 08:30", "name": "USPS COLLECTION BOX - PO LOBBY", "note": "ON 12/24 AND 12/31, THIS BOX MAY BE COLLECTED AS EARLY AS 12 NOON.", "nsi_id": "unitedstatespostalservice-a77078", "operator": "United States Postal Service", "operator:short": "USPS", "operator:type": "public", "operator:wikidata": "Q668687", "ref": "6234700002"}, "type": "Feature"}
{"dataset_attributes": {"@spider": "usps_collection_boxes", "spider:collection_time": "2023-12-19T08:25:25.283853"}, "geometry": {"coordinates": [-91.107568, 39.879517], "type": "Point"}, "id": "3gEjKX8OIBTH7bWChVA98pRhmGs=", "properties": {"@spider": "usps_collection_boxes", "addr:city": "LIBERTY", "addr:country": "US", "addr:full": "407 S MAIN ST", "addr:postcode": "62347", "addr:state": "IL", "amenity": "post_box", "brand": "United States Postal Service", "brand:wikidata": "Q668687", "collection_times": "Mo-Fr 15:30; Sa 08:30", "name": "USPS COLLECTION BOX - PO LOBBY", "note": "ON 12/24 AND 12/31, THIS BOX MAY BE COLLECTED AS EARLY AS 12 NOON.", "nsi_id": "unitedstatespostalservice-a77078", "operator": "United States Postal Service", "operator:short": "USPS", "operator:type": "public", "operator:wikidata": "Q668687", "ref": "6234700003"}, "type": "Feature"}
{"dataset_attributes": {"@spider": "usps_collection_boxes", "spider:collection_time": "2023-12-19T08:25:25.283853"}, "geometry": {"coordinates": [-91.107524679, 39.878900445], "type": "Point"}, "id": "5adomE3a5gYZNNlF6JzzmlTxgqc=", "properties": {"@spider": "usps_collection_boxes", "addr:city": "LIBERTY", "addr:country": "US", "addr:full": "407 S MAIN ST", "addr:postcode": "62347", "addr:state": "IL", "amenity": "post_box", "brand": "United States Postal Service", "brand:wikidata": "Q668687", "collection_times": "Mo-Fr 14:30; Sa 08:30", "name": "USPS COLLECTION BOX - PO LOBBY", "note": "ON 12/24 AND 12/31, THIS BOX MAY BE COLLECTED AS EARLY AS 12 NOON.", "nsi_id": "unitedstatespostalservice-a77078", "operator": "United States Postal Service", "operator:short": "USPS", "operator:type": "public", "operator:wikidata": "Q668687", "ref": "6234700004"}, "type": "Feature"}
{"dataset_attributes": {"@spider": "usps_collection_boxes", "spider:collection_time": "2023-12-19T08:25:25.283853"}, "geometry": {"coordinates": [-91.37731, 40.188261], "type": "Point"}, "id": "nbomQJGLnmXFjLf6LlqKcILxelY=", "properties": {"@spider": "usps_collection_boxes", "addr:city": "LIMA", "addr:country": "US", "addr:full": "1000 MAIN ST", "addr:postcode": "62348", "addr:state": "IL", "amenity": "post_box", "brand": "United States Postal Service", "brand:wikidata": "Q668687", "collection_times": "Mo-Fr 14:15; Sa 10:15", "name": "USPS COLLECTION BOX - BLUE BOX", "note": "ON 12/24 AND 12/31, THIS BOX MAY BE COLLECTED AS EARLY AS 12 NOON.", "nsi_id": "unitedstatespostalservice-a77078", "operator": "United States Postal Service", "operator:short": "USPS", "operator:type": "public", "operator:wikidata": "Q668687", "ref": "6234800001"}, "type": "Feature"}
{"dataset_attributes": {"@spider": "usps_collection_boxes", "spider:collection_time": "2023-12-19T08:25:25.283853"}, "geometry": {"coordinates": [-91.45366815, 40.149767175], "type": "Point"}, "id": "XAhYNrU1GzTwmKUu4L3khTvH4k0=", "properties": {"@spider": "usps_collection_boxes", "addr:city": "LIMA", "addr:country": "US", "addr:full": "1000 MAIN ST", "addr:postcode": "62348", "addr:state": "IL", "amenity": "post_box", "brand": "United States Postal Service", "brand:wikidata": "Q668687", "collection_times": "Mo-Fr 14:15; Sa 10:15", "name": "USPS COLLECTION BOX - PO LOBBY", "note": "ON 12/24 AND 12/31, THIS BOX MAY BE COLLECTED AS EARLY AS 12 NOON.", "nsi_id": "unitedstatespostalservice-a77078", "operator": "United States Postal Service", "operator:short": "USPS", "operator:type": "public", "operator:wikidata": "Q668687", "ref": "6234800004"}, "type": "Feature"}
{"dataset_attributes": {"@spider": "usps_collection_boxes", "spider:collection_time": "2023-12-19T08:25:25.283853"}, "geometry": {"coordinates": [-91.220577, 40.154331], "type": "Point"}, "id": "0M6-KOmton21C44SzEua4OaWKJY=", "properties": {"@spider": "usps_collection_boxes", "addr:city": "LORAINE", "addr:country": "US", "addr:full": "113 N BROAD ST", "addr:postcode": "62349", "addr:state": "IL", "amenity": "post_box", "brand": "United States Postal Service", "brand:wikidata": "Q668687", "collection_times": "Mo-Fr 11:15; Sa 10:00", "name": "USPS COLLECTION BOX - BLUE BOX", "nsi_id": "unitedstatespostalservice-a77078", "operator": "United States Postal Service", "operator:short": "USPS", "operator:type": "public", "operator:wikidata": "Q668687", "ref": "6234900001"}, "type": "Feature"}
{"dataset_attributes": {"@spider": "usps_collection_boxes", "spider:collection_time": "2023-12-19T08:25:25.283853"}, "geometry": {"coordinates": [-91.220544, 40.154262], "type": "Point"}, "id": "YQXd6jZbspOBAoE4XK2xrSehqes=", "properties": {"@spider": "usps_collection_boxes", "addr:city": "LORAINE", "addr:country": "US", "addr:full": "113 N BROAD ST", "addr:postcode": "62349", "addr:state": "IL", "amenity": "post_box", "brand": "United States Postal Service", "brand:wikidata": "Q668687", "collection_times": "Mo-Fr 11:15; Sa 10:00", "name": "USPS COLLECTION BOX - PO LOBBY", "nsi_id": "unitedstatespostalservice-a77078", "operator": "United States Postal Service", "operator:short": "USPS", "operator:type": "public", "operator:wikidata": "Q668687", "ref": "6234900002"}, "type": "Feature"}
{"dataset_attributes": {"@spider": "usps_collection_boxes", "spider:collection_time": "2023-12-19T08:25:25.283853"}, "geometry": {"coordinates": [-91.220567452, 40.15465309], "type": "Point"}, "id": "2H1AxczuHpDrfX2uVz0cTEBcYgY=", "properties": {"@spider": "usps_collection_boxes", "addr:city": "LORAINE", "addr:country": "US", "addr:full": "113 N BROAD ST", "addr:postcode": "62349", "addr:state": "IL", "amenity": "post_box", "brand": "United States Postal Service", "brand:wikidata": "Q668687", "collection_times": "Mo-Fr 11:15; Sa 10:00", "name": "USPS COLLECTION BOX - PO LOBBY", "nsi_id": "unitedstatespostalservice-a77078", "operator": "United States Postal Service", "operator:short": "USPS", "operator:type": "public", "operator:wikidata": "Q668687", "ref": "6234900003"}, "type": "Feature"}
{"dataset_attributes": {"@spider": "usps_collection_boxes", "spider:collection_time": "2023-12-19T08:25:25.283853"}, "geometry": {"coordinates": [-91.283955, 40.088064], "type": "Point"}, "id": "VAeCNrU8Fzl4O1Ii7OdfrR1Mf9o=", "properties": {"@spider": "usps_collection_boxes", "addr:city": "MENDON", "addr:country": "US", "addr:full": "102 W COLLINS ST", "addr:postcode": "62351", "addr:state": "IL", "amenity": "post_box", "brand": "United States Postal Service", "brand:wikidata": "Q668687", "collection_times": "Mo-Fr 14:10; Sa 09:00", "name": "USPS COLLECTION BOX - BLUE BOX", "note": "ON 12/24 AND 12/31, THIS BOX MAY BE COLLECTED AS EARLY AS 12 NOON.", "nsi_id": "unitedstatespostalservice-a77078", "operator": "United States Postal Service", "operator:short": "USPS", "operator:type": "public", "operator:wikidata": "Q668687", "ref": "6235100001"}, "type": "Feature"}
{"dataset_attributes": {"@spider": "usps_collection_boxes", "spider:collection_time": "2023-12-19T08:25:25.283853"}, "geometry": {"coordinates": [-91.283844, 40.088091], "type": "Point"}, "id": "Bsrn4AicpXraEewA9WrnRdBApmU=", "properties": {"@spider": "usps_collection_boxes", "addr:city": "MENDON", "addr:country": "US", "addr:full": "102 W COLLINS ST", "addr:postcode": "62351", "addr:state": "IL", "amenity": "post_box", "brand": "United States Postal Service", "brand:wikidata": "Q668687", "collection_times": "Mo-Fr 14:10; Sa 09:00", "name": "USPS COLLECTION BOX - PO LOBBY", "note": "ON 12/24 AND 12/31, THIS BOX MAY BE COLLECTED AS EARLY AS 12 NOON.", "nsi_id": "unitedstatespostalservice-a77078", "operator": "United States Postal Service", "operator:short": "USPS", "operator:type": "public", "operator:wikidata": "Q668687", "ref": "6235100002"}, "type": "Feature"}
{"dataset_attributes": {"@spider": "usps_collection_boxes", "spider:collection_time": "2023-12-19T08:25:25.283853"}, "geometry": {"coordinates": [-91.283844, 40.088091], "type": "Point"}, "id": "3dzPRDpREw9KIJrmVM3twYTkF6w=", "properties": {"@spider": "usps_collection_boxes", "addr:city": "MENDON", "addr:country": "US", "addr:full": "102 W COLLINS ST", "addr:postcode": "62351", "addr:state": "IL", "amenity": "post_box", "brand": "United States Postal Service", "brand:wikidata": "Q668687", "collection_times": "Mo-Fr 14:10; Sa 09:00", "name": "USPS COLLECTION BOX - PO LOBBY", "note": "ON 12/24 AND 12/31, THIS BOX MAY BE COLLECTED AS EARLY AS 12 NOON.", "nsi_id": "unitedstatespostalservice-a77078", "operator": "United States Postal Service", "operator:short": "USPS", "operator:type": "public", "operator:wikidata": "Q668687", "ref": "6235100003"}, "type": "Feature"}
{"dataset_attributes": {"@spider": "usps_collection_boxes", "spider:collection_time": "2023-12-19T08:25:25.283853"}, "geometry": {"coordinates": [-91.2839535, 40.088057543], "type": "Point"}, "id": "B3jq9USkO1h3Wt9DCCyKAK6sLw4=", "properties": {"@spider": "usps_collection_boxes", "addr:city": "MENDON", "addr:country": "US", "addr:full": "102 W COLLINS ST", "addr:postcode": "62351", "addr:state": "IL", "amenity": "post_box", "brand": "United States Postal Service", "brand:wikidata": "Q668687", "collection_times": "Mo-Fr 14:00; Sa 09:00", "name": "USPS COLLECTION BOX - PO LOBBY", "note": "ON 12/24 AND 12/31, THIS BOX MAY BE COLLECTED AS EARLY AS 12 NOON.", "nsi_id": "unitedstatespostalservice-a77078", "operator": "United States Postal Service", "operator:short": "USPS", "operator:type": "public", "operator:wikidata": "Q668687", "ref": "6235100004"}, "type": "Feature"}
{"dataset_attributes": {"@spider": "usps_collection_boxes", "spider:collection_time": "2023-12-19T08:25:25.283853"}, "geometry": {"coordinates": [-90.649635, 39.563935], "type": "Point"}, "id": "vJLwZq1Xup0Z6mggyex65Hu-cx8=", "properties": {"@spider": "usps_collection_boxes", "addr:city": "MILTON", "addr:country": "US", "addr:full": "435 PITTSFIELD ST", "addr:postcode": "62352", "addr:state": "IL", "amenity": "post_box", "brand": "United States Postal Service", "brand:wikidata": "Q668687", "collection_times": "Mo-Fr 16:15; Sa 11:45", "name": "USPS COLLECTION BOX - BLUE BOX", "note": "ON 12/24 AND 12/31, THIS BOX MAY BE COLLECTED AS EARLY AS 12 NOON.", "nsi_id": "unitedstatespostalservice-a77078", "operator": "United States Postal Service", "operator:short": "USPS", "operator:type": "public", "operator:wikidata": "Q668687", "ref": "6235200001"}, "type": "Feature"}
{"dataset_attributes": {"@spider": "usps_collection_boxes", "spider:collection_time": "2023-12-19T08:25:25.283853"}, "geometry": {"coordinates": [-90.649679, 39.563957], "type": "Point"}, "id": "ZylXGUCx56PWHTwUyb_VgQxPGdY=", "properties": {"@spider": "usps_collection_boxes", "addr:city": "MILTON", "addr:country": "US", "addr:full": "435 PITTSFIELD ST", "addr:postcode": "62352", "addr:state": "IL", "amenity": "post_box", "brand": "United States Postal Service", "brand:wikidata": "Q668687", "collection_times": "Mo-Fr 16:15; Sa 11:45", "name": "USPS COLLECTION BOX - PO LOBBY", "note": "ON 12/24 AND 12/31, THIS BOX MAY BE COLLECTED AS EARLY AS 12 NOON.", "nsi_id": "unitedstatespostalservice-a77078", "operator": "United States Postal Service", "operator:short": "USPS", "operator:type": "public", "operator:wikidata": "Q668687", "ref": "6235200002"}, "type": "Feature"}
{"dataset_attributes": {"@spider": "usps_collection_boxes", "spider:collection_time": "2023-12-19T08:25:25.283853"}, "geometry": {"coordinates": [-90.649679, 39.563957], "type": "Point"}, "id": "yERsUOtsxn7xoVLwwY7LZWDeMV4=", "properties": {"@spider": "usps_collection_boxes", "addr:city": "MILTON", "addr:country": "US", "addr:full": "435 PITTSFIELD ST", "addr:postcode": "62352", "addr:state": "IL", "amenity": "post_box", "brand": "United States Postal Service", "brand:wikidata": "Q668687", "collection_times": "Mo-Fr 16:15; Sa 11:45", "name": "USPS COLLECTION BOX - PO LOBBY", "note": "ON 12/24 AND 12/31, THIS BOX MAY BE COLLECTED AS EARLY AS 12 NOON.", "nsi_id": "unitedstatespostalservice-a77078", "operator": "United States Postal Service", "operator:short": "USPS", "operator:type": "public", "operator:wikidata": "Q668687", "ref": "6235200003"}, "type": "Feature"}
{"dataset_attributes": {"@spider": "usps_collection_boxes", "spider:collection_time": "2023-12-19T08:25:25.283853"}, "geometry": {"coordinates": [-90.649647066, 39.563881807], "type": "Point"}, "id": "-wPIK8xP4Aa8qOMK6Av3H2BP8HY=", "properties": {"@spider": "usps_collection_boxes", "addr:city": "MILTON", "addr:country": "US", "addr:full": "435 PITTSFIELD ST", "addr:postcode": "62352", "addr:state": "IL", "amenity": "post_box", "brand": "United States Postal Service", "brand:wikidata": "Q668687", "collection_times": "Mo-Fr 16:15; Sa 11:45", "name": "USPS COLLECTION BOX - PO LOBBY", "note": "ON 12/24 AND 12/31, THIS BOX MAY BE COLLECTED AS EARLY AS 12 NOON.", "nsi_id": "unitedstatespostalservice-a77078", "operator": "United States Postal Service", "operator:short": "USPS", "operator:type": "public", "operator:wikidata": "Q668687", "ref": "6235200004"}, "type": "Feature"}
{"dataset_attributes": {"@spider": "usps_collection_boxes", "spider:collection_time": "2023-12-19T08:25:25.283853"}, "geometry": {"coordinates": [-90.766102, 39.98582], "type": "Point"}, "id": "TEX2IKCKfd6q2iE_hRYInM5_gD8=", "properties": {"@spider": "usps_collection_boxes", "addr:city": "MOUNT STERLING", "addr:country": "US", "addr:full": "130 W MAIN ST", "addr:postcode": "62353", "addr:state": "IL", "amenity": "post_box", "brand": "United States Postal Service", "brand:wikidata": "Q668687", "collection_times": "Mo-Fr 16:00; Sa 10:30", "name": "USPS COLLECTION BOX - BLUE BOX", "note": "ON 12/24 AND 12/31, THIS BOX MAY BE COLLECTED AS EARLY AS 12 NOON.", "nsi_id": "unitedstatespostalservice-a77078", "operator": "United States Postal Service", "operator:short": "USPS", "operator:type": "public", "operator:wikidata": "Q668687", "ref": "6235300001"}, "type": "Feature"}
{"dataset_attributes": {"@spider": "usps_collection_boxes", "spider:collection_time": "2023-12-19T08:25:25.283853"}, "geometry": {"coordinates": [-90.7644316, 39.986557], "type": "Point"}, "id": "RDwG-5z8EaA7hD1Mtp08Dq4I_YQ=", "properties": {"@spider": "usps_collection_boxes", "addr:city": "MOUNT STERLING", "addr:country": "US", "addr:full": "200 COURT ST", "addr:postcode": "62353", "addr:state": "IL", "amenity": "post_box", "brand": "United States Postal Service", "brand:wikidata": "Q668687", "collection_times": "Mo-Fr 14:30; Sa 10:30", "name": "USPS COLLECTION BOX - BLUE BOX", "note": "ON 12/24 AND 12/31, THIS BOX MAY BE COLLECTED AS EARLY AS 12 NOON.", "nsi_id": "unitedstatespostalservice-a77078", "operator": "United States Postal Service", "operator:short": "USPS", "operator:type": "public", "operator:wikidata": "Q668687", "ref": "6235300002"}, "type": "Feature"}
{"dataset_attributes": {"@spider": "usps_collection_boxes", "spider:collection_time": "2023-12-19T08:25:25.283853"}, "geometry": {"coordinates": [-90.766481, 39.985924], "type": "Point"}, "id": "phTlkyXKMLB2ZRYRY8LLnMVeH3o=", "properties": {"@spider": "usps_collection_boxes", "addr:city": "MOUNT STERLING", "addr:country": "US", "addr:full": "130 W MAIN ST", "addr:postcode": "62353", "addr:state": "IL", "amenity": "post_box", "brand": "United States Postal Service", "brand:wikidata": "Q668687", "collection_times": "Mo-Fr 16:00; Sa 10:30", "name": "USPS COLLECTION BOX - PO LOBBY", "note": "ON 12/24 AND 12/31, THIS BOX MAY BE COLLECTED AS EARLY AS 12 NOON.", "nsi_id": "unitedstatespostalservice-a77078", "operator": "United States Postal Service", "operator:short": "USPS", "operator:type": "public", "operator:wikidata": "Q668687", "ref": "6235300005"}, "type": "Feature"}
{"dataset_attributes": {"@spider": "usps_collection_boxes", "spider:collection_time": "2023-12-19T08:25:25.283853"}, "geometry": {"coordinates": [-90.766182268, 39.985962403], "type": "Point"}, "id": "CXQvZ_P1a_6Uruth5dn-F3dXnL0=", "properties": {"@spider": "usps_collection_boxes", "addr:city": "MOUNT STERLING", "addr:country": "US", "addr:full": "130 W MAIN ST", "addr:postcode": "62353", "addr:state": "IL", "amenity": "post_box", "brand": "United States Postal Service", "brand:wikidata": "Q668687", "collection_times": "Mo-Fr 16:00; Sa 10:30", "name": "USPS COLLECTION BOX - PO LOBBY", "note": "ON 12/24 AND 12/31, THIS BOX MAY BE COLLECTED AS EARLY AS 12 NOON.", "nsi_id": "unitedstatespostalservice-a77078", "operator": "United States Postal Service", "operator:short": "USPS", "operator:type": "public", "operator:wikidata": "Q668687", "ref": "6235300008"}, "type": "Feature"}
{"dataset_attributes": {"@spider": "usps_collection_boxes", "spider:collection_time": "2023-12-19T08:25:25.283853"}, "geometry": {"coordinates": [-91.380205, 40.550357], "type": "Point"}, "id": "odda7J8tmgJAvTn5aHB28lBVWbw=", "properties": {"@spider": "usps_collection_boxes", "addr:city": "NAUVOO", "addr:country": "US", "addr:full": "55 N BARNETT ST", "addr:postcode": "62354", "addr:state": "IL", "amenity": "post_box", "brand": "United States Postal Service", "brand:wikidata": "Q668687", "collection_times": "Mo-Fr 14:30; Sa 10:30", "name": "USPS COLLECTION BOX - BLUE BOX", "note": "ON 12/24 AND 12/31, THIS BOX MAY BE COLLECTED AS EARLY AS 12 NOON.", "nsi_id": "unitedstatespostalservice-a77078", "operator": "United States Postal Service", "operator:short": "USPS", "operator:type": "public", "operator:wikidata": "Q668687", "ref": "6235400001"}, "type": "Feature"}
{"dataset_attributes": {"@spider": "usps_collection_boxes", "spider:collection_time": "2023-12-19T08:25:25.283853"}, "geometry": {"coordinates": [-91.380169, 40.550366], "type": "Point"}, "id": "AgBwSupN6rC05vc0rT8K1asjD-k=", "properties": {"@spider": "usps_collection_boxes", "addr:city": "NAUVOO", "addr:country": "US", "addr:full": "55 N BARNETT ST", "addr:postcode": "62354", "addr:state": "IL", "amenity": "post_box", "brand": "United States Postal Service", "brand:wikidata": "Q668687", "collection_times": "Mo-Fr 14:30; Sa 10:30", "name": "USPS COLLECTION BOX - PO LOBBY", "note": "ON 12/24 AND 12/31, THIS BOX MAY BE COLLECTED AS EARLY AS 12 NOON.", "nsi_id": "unitedstatespostalservice-a77078", "operator": "United States Postal Service", "operator:short": "USPS", "operator:type": "public", "operator:wikidata": "Q668687", "ref": "6235400002"}, "type": "Feature"}
{"dataset_attributes": {"@spider": "usps_collection_boxes", "spider:collection_time": "2023-12-19T08:25:25.283853"}, "geometry": {"coordinates": [-91.380229873, 40.550348962], "type": "Point"}, "id": "q2ZC-6WR5nr_sL_rmh8L4tqBtY0=", "properties": {"@spider": "usps_collection_boxes", "addr:city": "NAUVOO", "addr:country": "US", "addr:full": "55 N BARNETT ST", "addr:postcode": "62354", "addr:state": "IL", "amenity": "post_box", "brand": "United States Postal Service", "brand:wikidata": "Q668687", "collection_times": "Mo-Fr 14:15; Sa 10:30", "name": "USPS COLLECTION BOX - PO LOBBY", "note": "ON 12/24 AND 12/31, THIS BOX MAY BE COLLECTED AS EARLY AS 12 NOON.", "nsi_id": "unitedstatespostalservice-a77078", "operator": "United States Postal Service", "operator:short": "USPS", "operator:type": "public", "operator:wikidata": "Q668687", "ref": "6235400004"}, "type": "Feature"}
{"dataset_attributes": {"@spider": "usps_collection_boxes", "spider:collection_time": "2023-12-19T08:25:25.283853"}, "geometry": {"coordinates": [-90.790691, 39.442974], "type": "Point"}, "id": "Wi0q2hhge8bByloX4Z-cmWMPsp0=", "properties": {"@spider": "usps_collection_boxes", "addr:city": "NEBO", "addr:country": "US", "addr:full": "133 S UNION ST", "addr:postcode": "62355", "addr:state": "IL", "amenity": "post_box", "brand": "United States Postal Service", "brand:wikidata": "Q668687", "collection_times": "Mo-Fr 11:15; Sa 08:45", "name": "USPS COLLECTION BOX - BLUE BOX", "nsi_id": "unitedstatespostalservice-a77078", "operator": "United States Postal Service", "operator:short": "USPS", "operator:type": "public", "operator:wikidata": "Q668687", "ref": "6235500001"}, "type": "Feature"}
{"dataset_attributes": {"@spider": "usps_collection_boxes", "spider:collection_time": "2023-12-19T08:25:25.283853"}, "geometry": {"coordinates": [-90.790656, 39.442959], "type": "Point"}, "id": "CwcddJGUfokYIK5miRFeNOPhmHw=", "properties": {"@spider": "usps_collection_boxes", "addr:city": "NEBO", "addr:country": "US", "addr:full": "133 S UNION ST", "addr:postcode": "62355", "addr:state": "IL", "amenity": "post_box", "brand": "United States Postal Service", "brand:wikidata": "Q668687", "collection_times": "Mo-Fr 11:15; Sa 08:45", "name": "USPS COLLECTION BOX - PO LOBBY", "nsi_id": "unitedstatespostalservice-a77078", "operator": "United States Postal Service", "operator:short": "USPS", "operator:type": "public", "operator:wikidata": "Q668687", "ref": "6235500003"}, "type": "Feature"}
{"dataset_attributes": {"@spider": "usps_collection_boxes", "spider:collection_time": "2023-12-19T08:25:25.283853"}, "geometry": {"coordinates": [-90.790714423, 39.4429609], "type": "Point"}, "id": "6dox38R0twzswpq48N-CtL5RC2Q=", "properties": {"@spider": "usps_collection_boxes", "addr:city": "NEBO", "addr:country": "US", "addr:full": "133 S UNION ST", "addr:postcode": "62355", "addr:state": "IL", "amenity": "post_box", "brand": "United States Postal Service", "brand:wikidata": "Q668687", "collection_times": "Mo-Fr 11:15; Sa 08:45", "name": "USPS COLLECTION BOX - PO LOBBY", "nsi_id": "unitedstatespostalservice-a77078", "operator": "United States Postal Service", "operator:short": "USPS", "operator:type": "public", "operator:wikidata": "Q668687", "ref": "6235500004"}, "type": "Feature"}
{"dataset_attributes": {"@spider": "usps_collection_boxes", "spider:collection_time": "2023-12-19T08:25:25.283853"}, "geometry": {"coordinates": [-91.096414, 39.636757], "type": "Point"}, "id": "4NJdqXyrIUqw9NEh6jSvoHlzjNU=", "properties": {"@spider": "usps_collection_boxes", "addr:city": "NEW CANTON", "addr:country": "US", "addr:full": "140 N MAIN ST", "addr:postcode": "62356", "addr:state": "IL", "amenity": "post_box", "brand": "United States Postal Service", "brand:wikidata": "Q668687", "collection_times": "Mo-Fr 11:15; Sa 09:00", "name": "USPS COLLECTION BOX - BLUE BOX", "nsi_id": "unitedstatespostalservice-a77078", "operator": "United States Postal Service", "operator:short": "USPS", "operator:type": "public", "operator:wikidata": "Q668687", "ref": "6235600001"}, "type": "Feature"}
{"dataset_attributes": {"@spider": "usps_collection_boxes", "spider:collection_time": "2023-12-19T08:25:25.283853"}, "geometry": {"coordinates": [-91.096414, 39.636757], "type": "Point"}, "id": "dBe0zgA5Ho-KOhJ22P6WofgE6Hk=", "properties": {"@spider": "usps_collection_boxes", "addr:city": "NEW CANTON", "addr:country": "US", "addr:full": "140 N MAIN ST", "addr:postcode": "62356", "addr:state": "IL", "amenity": "post_box", "brand": "United States Postal Service", "brand:wikidata": "Q668687", "collection_times": "Mo-Fr 11:15; Sa 09:00", "name": "USPS COLLECTION BOX - PO LOBBY", "nsi_id": "unitedstatespostalservice-a77078", "operator": "United States Postal Service", "operator:short": "USPS", "operator:type": "public", "operator:wikidata": "Q668687", "ref": "6235600002"}, "type": "Feature"}
{"dataset_attributes": {"@spider": "usps_collection_boxes", "spider:collection_time": "2023-12-19T08:25:25.283853"}, "geometry": {"coordinates": [-91.096414, 39.636757], "type": "Point"}, "id": "TcCIgWSNYXONBVhWbFFIT_fwYbo=", "properties": {"@spider": "usps_collection_boxes", "addr:city": "NEW CANTON", "addr:country": "US", "addr:full": "140 N MAIN ST", "addr:postcode": "62356", "addr:state": "IL", "amenity": "post_box", "brand": "United States Postal Service", "brand:wikidata": "Q668687", "collection_times": "Mo-Fr 11:15; Sa 09:00", "name": "USPS COLLECTION BOX - PO LOBBY", "nsi_id": "unitedstatespostalservice-a77078", "operator": "United States Postal Service", "operator:short": "USPS", "operator:type": "public", "operator:wikidata": "Q668687", "ref": "6235600003"}, "type": "Feature"}
{"dataset_attributes": {"@spider": "usps_collection_boxes", "spider:collection_time": "2023-12-19T08:25:25.283853"}, "geometry": {"coordinates": [-91.096413688, 39.636825747], "type": "Point"}, "id": "veIvTJTSFf5m8ywBNZNI84vcgpg=", "properties": {"@spider": "usps_collection_boxes", "addr:city": "NEW CANTON", "addr:country": "US", "addr:full": "140 N MAIN ST", "addr:postcode": "62356", "addr:state": "IL", "amenity": "post_box", "brand": "United States Postal Service", "brand:wikidata": "Q668687", "collection_times": "Mo-Fr 11:15; Sa 09:00", "name": "USPS COLLECTION BOX - PO LOBBY", "nsi_id": "unitedstatespostalservice-a77078", "operator": "United States Postal Service", "operator:short": "USPS", "operator:type": "public", "operator:wikidata": "Q668687", "ref": "6235600004"}, "type": "Feature"}
{"dataset_attributes": {"@spider": "usps_collection_boxes", "spider:collection_time": "2023-12-19T08:25:25.283853"}, "geometry": {"coordinates": [-90.846742, 39.707649], "type": "Point"}, "id": "I_iiiBUjmHPpOPz7WftraVGqZRY=", "properties": {"@spider": "usps_collection_boxes", "addr:city": "NEW SALEM", "addr:country": "US", "addr:full": "201 GRIGGSVILLE ST", "addr:postcode": "62357", "addr:state": "IL", "amenity": "post_box", "brand": "United States Postal Service", "brand:wikidata": "Q668687", "collection_times": "Mo-Sa 13:45", "name": "USPS COLLECTION BOX - BLUE BOX", "note": "ON 12/24 AND 12/31, THIS BOX MAY BE COLLECTED AS EARLY AS 12 NOON.", "nsi_id": "unitedstatespostalservice-a77078", "operator": "United States Postal Service", "operator:short": "USPS", "operator:type": "public", "operator:wikidata": "Q668687", "ref": "6235700001"}, "type": "Feature"}
{"dataset_attributes": {"@spider": "usps_collection_boxes", "spider:collection_time": "2023-12-19T08:25:25.283853"}, "geometry": {"coordinates": [-90.846859, 39.707623], "type": "Point"}, "id": "1wPVYXexRUZ1FRoh-6V4pHFhyOs=", "properties": {"@spider": "usps_collection_boxes", "addr:city": "NEW SALEM", "addr:country": "US", "addr:full": "201 GRIGGSVILLE ST", "addr:postcode": "62357", "addr:state": "IL", "amenity": "post_box", "brand": "United States Postal Service", "brand:wikidata": "Q668687", "collection_times": "Mo-Sa 13:45", "name": "USPS COLLECTION BOX - PO LOBBY", "note": "ON 12/24 AND 12/31, THIS BOX MAY BE COLLECTED AS EARLY AS 12 NOON.", "nsi_id": "unitedstatespostalservice-a77078", "operator": "United States Postal Service", "operator:short": "USPS", "operator:type": "public", "operator:wikidata": "Q668687", "ref": "6235700002"}, "type": "Feature"}
{"dataset_attributes": {"@spider": "usps_collection_boxes", "spider:collection_time": "2023-12-19T08:25:25.283853"}, "geometry": {"coordinates": [-90.846784409, 39.707686477], "type": "Point"}, "id": "Hs6QVs_F442p5RF1tD90AfuOBZw=", "properties": {"@spider": "usps_collection_boxes", "addr:city": "NEW SALEM", "addr:country": "US", "addr:full": "201 GRIGGSVILLE ST", "addr:postcode": "62357", "addr:state": "IL", "amenity": "post_box", "brand": "United States Postal Service", "brand:wikidata": "Q668687", "collection_times": "Mo-Sa 13:45", "name": "USPS COLLECTION BOX - PO LOBBY", "note": "ON 12/24 AND 12/31, THIS BOX MAY BE COLLECTED AS EARLY AS 12 NOON.", "nsi_id": "unitedstatespostalservice-a77078", "operator": "United States Postal Service", "operator:short": "USPS", "operator:type": "public", "operator:wikidata": "Q668687", "ref": "6235700003"}, "type": "Feature"}
{"dataset_attributes": {"@spider": "usps_collection_boxes", "spider:collection_time": "2023-12-19T08:25:25.283853"}, "geometry": {"coordinates": [-91.2884486409, 40.6175907005], "type": "Point"}, "id": "9xE3QHipp4i3OtmuG_wgcPWqils=", "properties": {"@spider": "usps_collection_boxes", "addr:city": "NIOTA", "addr:country": "US", "addr:full": "275 ARBOR ST", "addr:postcode": "62358", "addr:state": "IL", "amenity": "post_box", "brand": "United States Postal Service", "brand:wikidata": "Q668687", "collection_times": "Mo-Fr 11:15; Sa 09:45", "name": "USPS COLLECTION BOX - BLUE BOX", "nsi_id": "unitedstatespostalservice-a77078", "operator": "United States Postal Service", "operator:short": "USPS", "operator:type": "public", "operator:wikidata": "Q668687", "ref": "6235800002"}, "type": "Feature"}
{"dataset_attributes": {"@spider": "usps_collection_boxes", "spider:collection_time": "2023-12-19T08:25:25.283853"}, "geometry": {"coordinates": [-91.2884486409, 40.6175907005], "type": "Point"}, "id": "vhvk2YQrNkBrh3zGJvJ3TyOMItw=", "properties": {"@spider": "usps_collection_boxes", "addr:city": "NIOTA", "addr:country": "US", "addr:full": "275 ARBOR ST", "addr:postcode": "62358", "addr:state": "IL", "amenity": "post_box", "brand": "United States Postal Service", "brand:wikidata": "Q668687", "collection_times": "Mo-Fr 11:15; Sa 09:45", "name": "USPS COLLECTION BOX - PO LOBBY", "nsi_id": "unitedstatespostalservice-a77078", "operator": "United States Postal Service", "operator:short": "USPS", "operator:type": "public", "operator:wikidata": "Q668687", "ref": "6235800003"}, "type": "Feature"}
{"dataset_attributes": {"@spider": "usps_collection_boxes", "spider:collection_time": "2023-12-19T08:25:25.283853"}, "geometry": {"coordinates": [-91.2884486409, 40.6175907005], "type": "Point"}, "id": "u30WfPawl-Z-Gvturt2Wg8A9xTY=", "properties": {"@spider": "usps_collection_boxes", "addr:city": "NIOTA", "addr:country": "US", "addr:full": "275 ARBOR ST", "addr:postcode": "62358", "addr:state": "IL", "amenity": "post_box", "brand": "United States Postal Service", "brand:wikidata": "Q668687", "collection_times": "Mo-Fr 11:15; Sa 09:45", "name": "USPS COLLECTION BOX - PO LOBBY", "nsi_id": "unitedstatespostalservice-a77078", "operator": "United States Postal Service", "operator:short": "USPS", "operator:type": "public", "operator:wikidata": "Q668687", "ref": "6235800004"}, "type": "Feature"}
{"dataset_attributes": {"@spider": "usps_collection_boxes", "spider:collection_time": "2023-12-19T08:25:25.283853"}, "geometry": {"coordinates": [-91.241819, 39.818809], "type": "Point"}, "id": "PVs1NgHVM_CygKgCsZWPR2sPRHA=", "properties": {"@spider": "usps_collection_boxes", "addr:city": "PAYSON", "addr:country": "US", "addr:full": "206 N MAIN ST", "addr:postcode": "62360", "addr:state": "IL", "amenity": "post_box", "brand": "United States Postal Service", "brand:wikidata": "Q668687", "collection_times": "Mo-Fr 14:30; Sa 09:00", "name": "USPS COLLECTION BOX - BLUE BOX", "note": "ON 12/24 AND 12/31, THIS BOX MAY BE COLLECTED AS EARLY AS 12 NOON.", "nsi_id": "unitedstatespostalservice-a77078", "operator": "United States Postal Service", "operator:short": "USPS", "operator:type": "public", "operator:wikidata": "Q668687", "ref": "6236000001"}, "type": "Feature"}
{"dataset_attributes": {"@spider": "usps_collection_boxes", "spider:collection_time": "2023-12-19T08:25:25.283853"}, "geometry": {"coordinates": [-91.241819, 39.818809], "type": "Point"}, "id": "kGiZ56RYpXSsSeT3zVGNoVNGlmA=", "properties": {"@spider": "usps_collection_boxes", "addr:city": "PAYSON", "addr:country": "US", "addr:full": "206 N MAIN ST", "addr:postcode": "62360", "addr:state": "IL", "amenity": "post_box", "brand": "United States Postal Service", "brand:wikidata": "Q668687", "collection_times": "Mo-Fr 14:30; Sa 09:00", "name": "USPS COLLECTION BOX - PO LOBBY", "note": "ON 12/24 AND 12/31, THIS BOX MAY BE COLLECTED AS EARLY AS 12 NOON.", "nsi_id": "unitedstatespostalservice-a77078", "operator": "United States Postal Service", "operator:short": "USPS", "operator:type": "public", "operator:wikidata": "Q668687", "ref": "6236000002"}, "type": "Feature"}
{"dataset_attributes": {"@spider": "usps_collection_boxes", "spider:collection_time": "2023-12-19T08:25:25.283853"}, "geometry": {"coordinates": [-91.241776249, 39.819176665], "type": "Point"}, "id": "4qELf3nR1npqFwVcVFyqeRjJdvg=", "properties": {"@spider": "usps_collection_boxes", "addr:city": "PAYSON", "addr:country": "US", "addr:full": "206 N MAIN ST", "addr:postcode": "62360", "addr:state": "IL", "amenity": "post_box", "brand": "United States Postal Service", "brand:wikidata": "Q668687", "collection_times": "Mo-Fr 14:30; Sa 09:00", "name": "USPS COLLECTION BOX - PO LOBBY", "note": "ON 12/24 AND 12/31, THIS BOX MAY BE COLLECTED AS EARLY AS 12 NOON.", "nsi_id": "unitedstatespostalservice-a77078", "operator": "United States Postal Service", "operator:short": "USPS", "operator:type": "public", "operator:wikidata": "Q668687", "ref": "6236000004"}, "type": "Feature"}
{"dataset_attributes": {"@spider": "usps_collection_boxes", "spider:collection_time": "2023-12-19T08:25:25.283853"}, "geometry": {"coordinates": [-90.629569, 39.460185], "type": "Point"}, "id": "OuZlDqlihEy3y8EaT0EdE0wG2pU=", "properties": {"@spider": "usps_collection_boxes", "addr:city": "PEARL", "addr:country": "US", "addr:full": "105 N FRONT ST", "addr:postcode": "62361", "addr:state": "IL", "amenity": "post_box", "brand": "United States Postal Service", "brand:wikidata": "Q668687", "collection_times": "Mo-Fr 11:45; Sa 08:45", "name": "USPS COLLECTION BOX - BLUE BOX", "nsi_id": "unitedstatespostalservice-a77078", "operator": "United States Postal Service", "operator:short": "USPS", "operator:type": "public", "operator:wikidata": "Q668687", "ref": "6236100001"}, "type": "Feature"}
{"dataset_attributes": {"@spider": "usps_collection_boxes", "spider:collection_time": "2023-12-19T08:25:25.283853"}, "geometry": {"coordinates": [-90.629624, 39.460261], "type": "Point"}, "id": "BiPZ_qREPi8RAmsd9vYRpn0StKc=", "properties": {"@spider": "usps_collection_boxes", "addr:city": "PEARL", "addr:country": "US", "addr:full": "105 N FRONT ST", "addr:postcode": "62361", "addr:state": "IL", "amenity": "post_box", "brand": "United States Postal Service", "brand:wikidata": "Q668687", "collection_times": "Mo-Fr 11:45; Sa 08:45", "name": "USPS COLLECTION BOX - PO LOBBY", "nsi_id": "unitedstatespostalservice-a77078", "operator": "United States Postal Service", "operator:short": "USPS", "operator:type": "public", "operator:wikidata": "Q668687", "ref": "6236100002"}, "type": "Feature"}
{"dataset_attributes": {"@spider": "usps_collection_boxes", "spider:collection_time": "2023-12-19T08:25:25.283853"}, "geometry": {"coordinates": [-90.629613576, 39.460149118], "type": "Point"}, "id": "Iz8qYLXQg1aBJu8UwCCkY0DN5h8=", "properties": {"@spider": "usps_collection_boxes", "addr:city": "PEARL", "addr:country": "US", "addr:full": "105 N FRONT ST", "addr:postcode": "62361", "addr:state": "IL", "amenity": "post_box", "brand": "United States Postal Service", "brand:wikidata": "Q668687", "collection_times": "Mo-Fr 11:45; Sa 08:45", "name": "USPS COLLECTION BOX - PO LOBBY", "nsi_id": "unitedstatespostalservice-a77078", "operator": "United States Postal Service", "operator:short": "USPS", "operator:type": "public", "operator:wikidata": "Q668687", "ref": "6236100004"}, "type": "Feature"}
{"dataset_attributes": {"@spider": "usps_collection_boxes", "spider:collection_time": "2023-12-19T08:25:25.283853"}, "geometry": {"coordinates": [-90.746908, 39.783083], "type": "Point"}, "id": "U8B6AXQ7P9p196Yhnbs-_7u0mEY=", "properties": {"@spider": "usps_collection_boxes", "addr:city": "PERRY", "addr:country": "US", "addr:full": "209 MAIN ST", "addr:postcode": "62362", "addr:state": "IL", "amenity": "post_box", "brand": "United States Postal Service", "brand:wikidata": "Q668687", "collection_times": "Mo-Fr 15:45; Sa 09:30", "name": "USPS COLLECTION BOX - BLUE BOX", "note": "ON 12/24 AND 12/31, THIS BOX MAY BE COLLECTED AS EARLY AS 12 NOON.", "nsi_id": "unitedstatespostalservice-a77078", "operator": "United States Postal Service", "operator:short": "USPS", "operator:type": "public", "operator:wikidata": "Q668687", "ref": "6236200001"}, "type": "Feature"}
{"dataset_attributes": {"@spider": "usps_collection_boxes", "spider:collection_time": "2023-12-19T08:25:25.283853"}, "geometry": {"coordinates": [-90.746908, 39.783083], "type": "Point"}, "id": "aQYxFALMrZQ5FUocDyys4ah58gs=", "properties": {"@spider": "usps_collection_boxes", "addr:city": "PERRY", "addr:country": "US", "addr:full": "209 MAIN ST", "addr:postcode": "62362", "addr:state": "IL", "amenity": "post_box", "brand": "United States Postal Service", "brand:wikidata": "Q668687", "collection_times": "Mo-Fr 15:45; Sa 09:30", "name": "USPS COLLECTION BOX - PO LOBBY", "note": "ON 12/24 AND 12/31, THIS BOX MAY BE COLLECTED AS EARLY AS 12 NOON.", "nsi_id": "unitedstatespostalservice-a77078", "operator": "United States Postal Service", "operator:short": "USPS", "operator:type": "public", "operator:wikidata": "Q668687", "ref": "6236200002"}, "type": "Feature"}
{"dataset_attributes": {"@spider": "usps_collection_boxes", "spider:collection_time": "2023-12-19T08:25:25.283853"}, "geometry": {"coordinates": [-90.744247128, 39.783166722], "type": "Point"}, "id": "FapjYC4ASCFVvvR7t7cCcz3vL1I=", "properties": {"@spider": "usps_collection_boxes", "addr:city": "PERRY", "addr:country": "US", "addr:full": "209 MAIN ST", "addr:postcode": "62362", "addr:state": "IL", "amenity": "post_box", "brand": "United States Postal Service", "brand:wikidata": "Q668687", "collection_times": "Mo-Fr 15:45; Sa 09:30", "name": "USPS COLLECTION BOX - PO LOBBY", "note": "ON 12/24 AND 12/31, THIS BOX MAY BE COLLECTED AS EARLY AS 12 NOON.", "nsi_id": "unitedstatespostalservice-a77078", "operator": "United States Postal Service", "operator:short": "USPS", "operator:type": "public", "operator:wikidata": "Q668687", "ref": "6236200004"}, "type": "Feature"}
{"dataset_attributes": {"@spider": "usps_collection_boxes", "spider:collection_time": "2023-12-19T08:25:25.283853"}, "geometry": {"coordinates": [-90.806131, 39.606409], "type": "Point"}, "id": "Bjw_A0grxUt8_QkluwADxwxhIc0=", "properties": {"@spider": "usps_collection_boxes", "addr:city": "PITTSFIELD", "addr:country": "US", "addr:full": "129 S MADISON ST", "addr:postcode": "62363", "addr:state": "IL", "amenity": "post_box", "brand": "United States Postal Service", "brand:wikidata": "Q668687", "collection_times": "Mo-Fr 16:00; Sa 11:00", "name": "USPS COLLECTION BOX - BLUE BOX", "note": "ON 12/24 AND 12/31, THIS BOX MAY BE COLLECTED AS EARLY AS 12 NOON.", "nsi_id": "unitedstatespostalservice-a77078", "operator": "United States Postal Service", "operator:short": "USPS", "operator:type": "public", "operator:wikidata": "Q668687", "ref": "6236300001"}, "type": "Feature"}
{"dataset_attributes": {"@spider": "usps_collection_boxes", "spider:collection_time": "2023-12-19T08:25:25.283853"}, "geometry": {"coordinates": [-90.806096, 39.606448], "type": "Point"}, "id": "UeAQO2GvbsoFmnReyjNEpP_R8io=", "properties": {"@spider": "usps_collection_boxes", "addr:city": "PITTSFIELD", "addr:country": "US", "addr:full": "129 S MADISON ST", "addr:postcode": "62363", "addr:state": "IL", "amenity": "post_box", "brand": "United States Postal Service", "brand:wikidata": "Q668687", "collection_times": "Mo-Fr 16:00; Sa 11:00", "name": "USPS COLLECTION BOX - PO LOBBY", "note": "ON 12/24 AND 12/31, THIS BOX MAY BE COLLECTED AS EARLY AS 12 NOON.", "nsi_id": "unitedstatespostalservice-a77078", "operator": "United States Postal Service", "operator:short": "USPS", "operator:type": "public", "operator:wikidata": "Q668687", "ref": "6236300010"}, "type": "Feature"}
{"dataset_attributes": {"@spider": "usps_collection_boxes", "spider:collection_time": "2023-12-19T08:25:25.283853"}, "geometry": {"coordinates": [-90.806096, 39.606448], "type": "Point"}, "id": "Uf7OsGlGSWmld16P_KinZnWmYh0=", "properties": {"@spider": "usps_collection_boxes", "addr:city": "PITTSFIELD", "addr:country": "US", "addr:full": "129 S MADISON ST", "addr:postcode": "62363", "addr:state": "IL", "amenity": "post_box", "brand": "United States Postal Service", "brand:wikidata": "Q668687", "collection_times": "Mo-Fr 16:00; Sa 11:00", "name": "USPS COLLECTION BOX - PO LOBBY", "note": "ON 12/24 AND 12/31, THIS BOX MAY BE COLLECTED AS EARLY AS 12 NOON.", "nsi_id": "unitedstatespostalservice-a77078", "operator": "United States Postal Service", "operator:short": "USPS", "operator:type": "public", "operator:wikidata": "Q668687", "ref": "6236300011"}, "type": "Feature"}
{"dataset_attributes": {"@spider": "usps_collection_boxes", "spider:collection_time": "2023-12-19T08:25:25.283853"}, "geometry": {"coordinates": [-90.806157613, 39.60641252], "type": "Point"}, "id": "VpEnVKgDJcCK4ZDrB4WrCWIwBNA=", "properties": {"@spider": "usps_collection_boxes", "addr:city": "PITTSFIELD", "addr:country": "US", "addr:full": "129 S MADISON ST", "addr:postcode": "62363", "addr:state": "IL", "amenity": "post_box", "brand": "United States Postal Service", "brand:wikidata": "Q668687", "collection_times": "Mo-Fr 16:00; Sa 11:00", "name": "USPS COLLECTION BOX - PO LOBBY", "note": "ON 12/24 AND 12/31, THIS BOX MAY BE COLLECTED AS EARLY AS 12 NOON.", "nsi_id": "unitedstatespostalservice-a77078", "operator": "United States Postal Service", "operator:short": "USPS", "operator:type": "public", "operator:wikidata": "Q668687", "ref": "6236300012"}, "type": "Feature"}
{"dataset_attributes": {"@spider": "usps_collection_boxes", "spider:collection_time": "2023-12-19T08:25:25.283853"}, "geometry": {"coordinates": [-91.185679, 39.785843], "type": "Point"}, "id": "kD6PW6FEV4U_ce5zpLfo1fKm7SU=", "properties": {"@spider": "usps_collection_boxes", "addr:city": "PLAINVILLE", "addr:country": "US", "addr:full": "230 E MAIN ST", "addr:postcode": "62365", "addr:state": "IL", "amenity": "post_box", "brand": "United States Postal Service", "brand:wikidata": "Q668687", "collection_times": "Mo-Fr 14:45; Sa 10:30", "name": "USPS COLLECTION BOX - BLUE BOX", "note": "ON 12/24 AND 12/31, THIS BOX MAY BE COLLECTED AS EARLY AS 12 NOON.", "nsi_id": "unitedstatespostalservice-a77078", "operator": "United States Postal Service", "operator:short": "USPS", "operator:type": "public", "operator:wikidata": "Q668687", "ref": "6236500001"}, "type": "Feature"}
{"dataset_attributes": {"@spider": "usps_collection_boxes", "spider:collection_time": "2023-12-19T08:25:25.283853"}, "geometry": {"coordinates": [-91.185679, 39.785843], "type": "Point"}, "id": "M2T0m-uMq_Pfbu4uHPrHMH1MwMA=", "properties": {"@spider": "usps_collection_boxes", "addr:city": "PLAINVILLE", "addr:country": "US", "addr:full": "230 E MAIN ST", "addr:postcode": "62365", "addr:state": "IL", "amenity": "post_box", "brand": "United States Postal Service", "brand:wikidata": "Q668687", "collection_times": "Mo-Fr 14:45; Sa 10:30", "name": "USPS COLLECTION BOX - PO LOBBY", "note": "ON 12/24 AND 12/31, THIS BOX MAY BE COLLECTED AS EARLY AS 12 NOON.", "nsi_id": "unitedstatespostalservice-a77078", "operator": "United States Postal Service", "operator:short": "USPS", "operator:type": "public", "operator:wikidata": "Q668687", "ref": "6236500002"}, "type": "Feature"}
{"dataset_attributes": {"@spider": "usps_collection_boxes", "spider:collection_time": "2023-12-19T08:25:25.283853"}, "geometry": {"coordinates": [-91.185404841, 39.785872493], "type": "Point"}, "id": "Ug0hQ2NX8zRuUrb24Ew1ZJbZS_o=", "properties": {"@spider": "usps_collection_boxes", "addr:city": "PLAINVILLE", "addr:country": "US", "addr:full": "230 E MAIN ST", "addr:postcode": "62365", "addr:state": "IL", "amenity": "post_box", "brand": "United States Postal Service", "brand:wikidata": "Q668687", "collection_times": "Mo-Fr 14:45; Sa 10:30", "name": "USPS COLLECTION BOX - PO LOBBY", "note": "ON 12/24 AND 12/31, THIS BOX MAY BE COLLECTED AS EARLY AS 12 NOON.", "nsi_id": "unitedstatespostalservice-a77078", "operator": "United States Postal Service", "operator:short": "USPS", "operator:type": "public", "operator:wikidata": "Q668687", "ref": "6236500004"}, "type": "Feature"}
{"dataset_attributes": {"@spider": "usps_collection_boxes", "spider:collection_time": "2023-12-19T08:25:25.283853"}, "geometry": {"coordinates": [-90.872048, 39.443388], "type": "Point"}, "id": "xWSl3almnN0n2nl3stp2sJftrjs=", "properties": {"@spider": "usps_collection_boxes", "addr:city": "PLEASANT HILL", "addr:country": "US", "addr:full": "108 E QUINCY ST", "addr:postcode": "62366", "addr:state": "IL", "amenity": "post_box", "brand": "United States Postal Service", "brand:wikidata": "Q668687", "collection_times": "Mo-Fr 16:15; Sa 10:45", "name": "USPS COLLECTION BOX - BLUE BOX", "note": "ON 12/24 AND 12/31, THIS BOX MAY BE COLLECTED AS EARLY AS 12 NOON.", "nsi_id": "unitedstatespostalservice-a77078", "operator": "United States Postal Service", "operator:short": "USPS", "operator:type": "public", "operator:wikidata": "Q668687", "ref": "6236600001"}, "type": "Feature"}
{"dataset_attributes": {"@spider": "usps_collection_boxes", "spider:collection_time": "2023-12-19T08:25:25.283853"}, "geometry": {"coordinates": [-90.87215, 39.4434], "type": "Point"}, "id": "wzsrzmd_c0iA2O3uUsuLxKcmfMY=", "properties": {"@spider": "usps_collection_boxes", "addr:city": "PLEASANT HILL", "addr:country": "US", "addr:full": "108 E QUINCY ST", "addr:postcode": "62366", "addr:state": "IL", "amenity": "post_box", "brand": "United States Postal Service", "brand:wikidata": "Q668687", "collection_times": "Mo-Fr 16:15; Sa 10:45", "name": "USPS COLLECTION BOX - PO LOBBY", "note": "ON 12/24 AND 12/31, THIS BOX MAY BE COLLECTED AS EARLY AS 12 NOON.", "nsi_id": "unitedstatespostalservice-a77078", "operator": "United States Postal Service", "operator:short": "USPS", "operator:type": "public", "operator:wikidata": "Q668687", "ref": "6236600002"}, "type": "Feature"}
{"dataset_attributes": {"@spider": "usps_collection_boxes", "spider:collection_time": "2023-12-19T08:25:25.283853"}, "geometry": {"coordinates": [-90.872069734, 39.443427459], "type": "Point"}, "id": "InCikuik9U-Ob0wYHVYQi9g80pM=", "properties": {"@spider": "usps_collection_boxes", "addr:city": "PLEASANT HILL", "addr:country": "US", "addr:full": "108 E QUINCY ST", "addr:postcode": "62366", "addr:state": "IL", "amenity": "post_box", "brand": "United States Postal Service", "brand:wikidata": "Q668687", "collection_times": "Mo-Fr 16:15; Sa 10:45", "name": "USPS COLLECTION BOX - PO LOBBY", "note": "ON 12/24 AND 12/31, THIS BOX MAY BE COLLECTED AS EARLY AS 12 NOON.", "nsi_id": "unitedstatespostalservice-a77078", "operator": "United States Postal Service", "operator:short": "USPS", "operator:type": "public", "operator:wikidata": "Q668687", "ref": "6236600004"}, "type": "Feature"}
{"dataset_attributes": {"@spider": "usps_collection_boxes", "spider:collection_time": "2023-12-19T08:25:25.283853"}, "geometry": {"coordinates": [-90.963668976, 40.3271337702], "type": "Point"}, "id": "f558hv3aC9FTw0kKoi6e73tXwpA=", "properties": {"@spider": "usps_collection_boxes", "addr:city": "PLYMOUTH", "addr:country": "US", "addr:full": "107 EASTSIDE SQ", "addr:postcode": "62367", "addr:state": "IL", "amenity": "post_box", "brand": "United States Postal Service", "brand:wikidata": "Q668687", "collection_times": "Mo-Fr 14:45; Sa 09:00", "name": "USPS COLLECTION BOX - BLUE BOX", "note": "ON 12/24 AND 12/31, THIS BOX MAY BE COLLECTED AS EARLY AS 12 NOON.", "nsi_id": "unitedstatespostalservice-a77078", "operator": "United States Postal Service", "operator:short": "USPS", "operator:type": "public", "operator:wikidata": "Q668687", "ref": "6236700001"}, "type": "Feature"}
{"dataset_attributes": {"@spider": "usps_collection_boxes", "spider:collection_time": "2023-12-19T08:25:25.283853"}, "geometry": {"coordinates": [-90.963668976, 40.3271337702], "type": "Point"}, "id": "20jii0ATqysHEoi13-7UYakiQ5M=", "properties": {"@spider": "usps_collection_boxes", "addr:city": "PLYMOUTH", "addr:country": "US", "addr:full": "107 EASTSIDE SQ", "addr:postcode": "62367", "addr:state": "IL", "amenity": "post_box", "brand": "United States Postal Service", "brand:wikidata": "Q668687", "collection_times": "Mo-Fr 14:45; Sa 09:00", "name": "USPS COLLECTION BOX - PO LOBBY", "note": "ON 12/24 AND 12/31, THIS BOX MAY BE COLLECTED AS EARLY AS 12 NOON.", "nsi_id": "unitedstatespostalservice-a77078", "operator": "United States Postal Service", "operator:short": "USPS", "operator:type": "public", "operator:wikidata": "Q668687", "ref": "6236700003"}, "type": "Feature"}
{"dataset_attributes": {"@spider": "usps_collection_boxes", "spider:collection_time": "2023-12-19T08:25:25.283853"}, "geometry": {"coordinates": [-90.9178849, 40.291558], "type": "Point"}, "id": "-smtcmuHdFp9urdR4OEjxKXv6EE=", "properties": {"@spider": "usps_collection_boxes", "addr:city": "PLYMOUTH", "addr:country": "US", "addr:full": "107 EASTSIDE SQ", "addr:postcode": "62367", "addr:state": "IL", "amenity": "post_box", "brand": "United States Postal Service", "brand:wikidata": "Q668687", "collection_times": "Mo-Fr 14:45; Sa 09:00", "name": "USPS COLLECTION BOX - PO LOBBY", "note": "ON 12/24 AND 12/31, THIS BOX MAY BE COLLECTED AS EARLY AS 12 NOON.", "nsi_id": "unitedstatespostalservice-a77078", "operator": "United States Postal Service", "operator:short": "USPS", "operator:type": "public", "operator:wikidata": "Q668687", "ref": "6236700005"}, "type": "Feature"}
{"dataset_attributes": {"@spider": "usps_collection_boxes", "spider:collection_time": "2023-12-19T08:25:25.283853"}, "geometry": {"coordinates": [-91.0185276385, 39.5350926275], "type": "Point"}, "id": "FIonv0PxzQfASzj4EcD8fcODboc=", "properties": {"@spider": "usps_collection_boxes", "addr:city": "ROCKPORT", "addr:country": "US", "addr:full": "301 MERCHANT ST", "addr:postcode": "62370", "addr:state": "IL", "amenity": "post_box", "brand": "United States Postal Service", "brand:wikidata": "Q668687", "collection_times": "Mo-Fr 11:45; Sa 10:30", "name": "USPS COLLECTION BOX - BLUE BOX", "nsi_id": "unitedstatespostalservice-a77078", "operator": "United States Postal Service", "operator:short": "USPS", "operator:type": "public", "operator:wikidata": "Q668687", "ref": "6237000001"}, "type": "Feature"}
{"dataset_attributes": {"@spider": "usps_collection_boxes", "spider:collection_time": "2023-12-19T08:25:25.283853"}, "geometry": {"coordinates": [-91.0185276385, 39.5350926275], "type": "Point"}, "id": "2KL9zctrNvlGHp0EdwpONuVTOjM=", "properties": {"@spider": "usps_collection_boxes", "addr:city": "ROCKPORT", "addr:country": "US", "addr:full": "301 MERCHANT ST", "addr:postcode": "62370", "addr:state": "IL", "amenity": "post_box", "brand": "United States Postal Service", "brand:wikidata": "Q668687", "collection_times": "Mo-Fr 11:45; Sa 10:30", "name": "USPS COLLECTION BOX - PO LOBBY", "nsi_id": "unitedstatespostalservice-a77078", "operator": "United States Postal Service", "operator:short": "USPS", "operator:type": "public", "operator:wikidata": "Q668687", "ref": "6237000002"}, "type": "Feature"}
{"dataset_attributes": {"@spider": "usps_collection_boxes", "spider:collection_time": "2023-12-19T08:25:25.283853"}, "geometry": {"coordinates": [-91.0091019, 39.5376779], "type": "Point"}, "id": "nrZC3rSKMm8B3rmI2CCC-9MA1iw=", "properties": {"@spider": "usps_collection_boxes", "addr:city": "ROCKPORT", "addr:country": "US", "addr:full": "301 MERCHANT ST", "addr:postcode": "62370", "addr:state": "IL", "amenity": "post_box", "brand": "United States Postal Service", "brand:wikidata": "Q668687", "collection_times": "Mo-Fr 11:45; Sa 10:30", "name": "USPS COLLECTION BOX - PO LOBBY", "nsi_id": "unitedstatespostalservice-a77078", "operator": "United States Postal Service", "operator:short": "USPS", "operator:type": "public", "operator:wikidata": "Q668687", "ref": "6237000004"}, "type": "Feature"}
{"dataset_attributes": {"@spider": "usps_collection_boxes", "spider:collection_time": "2023-12-19T08:25:25.283853"}, "geometry": {"coordinates": [-90.838042, 40.411507], "type": "Point"}, "id": "36Rdg-Wx8KpuKaSCh_DAd17L3iw=", "properties": {"@spider": "usps_collection_boxes", "addr:city": "TENNESSEE", "addr:country": "US", "addr:full": "209 W BUSHNELL ST", "addr:postcode": "62374", "addr:state": "IL", "amenity": "post_box", "brand": "United States Postal Service", "brand:wikidata": "Q668687", "collection_times": "Mo-Sa 11:45", "name": "USPS COLLECTION BOX - BLUE BOX", "nsi_id": "unitedstatespostalservice-a77078", "operator": "United States Postal Service", "operator:short": "USPS", "operator:type": "public", "operator:wikidata": "Q668687", "ref": "6237400001"}, "type": "Feature"}
{"dataset_attributes": {"@spider": "usps_collection_boxes", "spider:collection_time": "2023-12-19T08:25:25.283853"}, "geometry": {"coordinates": [-90.8387979205, 40.4112826317], "type": "Point"}, "id": "aaKp4u89mTkPqgaEVtjBLpl_jMk=", "properties": {"@spider": "usps_collection_boxes", "addr:city": "TENNESSEE", "addr:country": "US", "addr:full": "209 W BUSHNELL ST", "addr:postcode": "62374", "addr:state": "IL", "amenity": "post_box", "brand": "United States Postal Service", "brand:wikidata": "Q668687", "collection_times": "Mo-Sa 11:45", "name": "USPS COLLECTION BOX - PO LOBBY", "nsi_id": "unitedstatespostalservice-a77078", "operator": "United States Postal Service", "operator:short": "USPS", "operator:type": "public", "operator:wikidata": "Q668687", "ref": "6237400002"}, "type": "Feature"}
{"dataset_attributes": {"@spider": "usps_collection_boxes", "spider:collection_time": "2023-12-19T08:25:25.283853"}, "geometry": {"coordinates": [-90.83879792, 40.411282632], "type": "Point"}, "id": "vvLRl7PrcMJHp1ecpegcfVL4yqM=", "properties": {"@spider": "usps_collection_boxes", "addr:city": "TENNESSEE", "addr:country": "US", "addr:full": "209 W BUSHNELL ST", "addr:postcode": "62374", "addr:state": "IL", "amenity": "post_box", "brand": "United States Postal Service", "brand:wikidata": "Q668687", "collection_times": "Mo-Sa 11:45", "name": "USPS COLLECTION BOX - PO LOBBY", "nsi_id": "unitedstatespostalservice-a77078", "operator": "United States Postal Service", "operator:short": "USPS", "operator:type": "public", "operator:wikidata": "Q668687", "ref": "6237400003"}, "type": "Feature"}
{"dataset_attributes": {"@spider": "usps_collection_boxes", "spider:collection_time": "2023-12-19T08:25:25.283853"}, "geometry": {"coordinates": [-90.873718, 40.007361], "type": "Point"}, "id": "EqBPBGtE2KWEf_1ldcN3WnqXda4=", "properties": {"@spider": "usps_collection_boxes", "addr:city": "TIMEWELL", "addr:country": "US", "addr:full": "201 S MAIN ST", "addr:postcode": "62375", "addr:state": "IL", "amenity": "post_box", "brand": "United States Postal Service", "brand:wikidata": "Q668687", "collection_times": "Mo-Fr 15:15; Sa 12:15", "name": "USPS COLLECTION BOX - BLUE BOX", "note": "ON 12/24 AND 12/31, THIS BOX MAY BE COLLECTED AS EARLY AS 12 NOON.", "nsi_id": "unitedstatespostalservice-a77078", "operator": "United States Postal Service", "operator:short": "USPS", "operator:type": "public", "operator:wikidata": "Q668687", "ref": "6237500001"}, "type": "Feature"}
{"dataset_attributes": {"@spider": "usps_collection_boxes", "spider:collection_time": "2023-12-19T08:25:25.283853"}, "geometry": {"coordinates": [-90.873718, 40.007361], "type": "Point"}, "id": "0q4LH9bMX_uWM03dtqb4WYTVLZ8=", "properties": {"@spider": "usps_collection_boxes", "addr:city": "TIMEWELL", "addr:country": "US", "addr:full": "201 S MAIN ST", "addr:postcode": "62375", "addr:state": "IL", "amenity": "post_box", "brand": "United States Postal Service", "brand:wikidata": "Q668687", "collection_times": "Mo-Fr 15:15; Sa 12:15", "name": "USPS COLLECTION BOX - PO LOBBY", "note": "ON 12/24 AND 12/31, THIS BOX MAY BE COLLECTED AS EARLY AS 12 NOON.", "nsi_id": "unitedstatespostalservice-a77078", "operator": "United States Postal Service", "operator:short": "USPS", "operator:type": "public", "operator:wikidata": "Q668687", "ref": "6237500002"}, "type": "Feature"}
{"dataset_attributes": {"@spider": "usps_collection_boxes", "spider:collection_time": "2023-12-19T08:25:25.283853"}, "geometry": {"coordinates": [-90.873777378, 40.007291622], "type": "Point"}, "id": "aVxzCRltKzdApI8gIyVaawbsk0Y=", "properties": {"@spider": "usps_collection_boxes", "addr:city": "TIMEWELL", "addr:country": "US", "addr:full": "201 S MAIN ST", "addr:postcode": "62375", "addr:state": "IL", "amenity": "post_box", "brand": "United States Postal Service", "brand:wikidata": "Q668687", "collection_times": "Mo-Fr 15:15; Sa 12:15", "name": "USPS COLLECTION BOX - PO LOBBY", "note": "ON 12/24 AND 12/31, THIS BOX MAY BE COLLECTED AS EARLY AS 12 NOON.", "nsi_id": "unitedstatespostalservice-a77078", "operator": "United States Postal Service", "operator:short": "USPS", "operator:type": "public", "operator:wikidata": "Q668687", "ref": "6237500003"}, "type": "Feature"}
{"dataset_attributes": {"@spider": "usps_collection_boxes", "spider:collection_time": "2023-12-19T08:25:25.283853"}, "geometry": {"coordinates": [-91.366765, 40.075045], "type": "Point"}, "id": "2_DwEWYfOX-I1Yff0tJfmNkR7GA=", "properties": {"@spider": "usps_collection_boxes", "addr:city": "URSA", "addr:country": "US", "addr:full": "107 N WARSAW ST", "addr:postcode": "62376", "addr:state": "IL", "amenity": "post_box", "brand": "United States Postal Service", "brand:wikidata": "Q668687", "collection_times": "Mo-Fr 11:45; Sa 08:45", "name": "USPS COLLECTION BOX - BLUE BOX", "nsi_id": "unitedstatespostalservice-a77078", "operator": "United States Postal Service", "operator:short": "USPS", "operator:type": "public", "operator:wikidata": "Q668687", "ref": "6237600001"}, "type": "Feature"}
{"dataset_attributes": {"@spider": "usps_collection_boxes", "spider:collection_time": "2023-12-19T08:25:25.283853"}, "geometry": {"coordinates": [-91.3668, 40.075063], "type": "Point"}, "id": "cNyntE5FF-D66dISSbVmpRXJetg=", "properties": {"@spider": "usps_collection_boxes", "addr:city": "URSA", "addr:country": "US", "addr:full": "107 N WARSAW ST", "addr:postcode": "62376", "addr:state": "IL", "amenity": "post_box", "brand": "United States Postal Service", "brand:wikidata": "Q668687", "collection_times": "Mo-Fr 11:45; Sa 08:45", "name": "USPS COLLECTION BOX - PO LOBBY", "nsi_id": "unitedstatespostalservice-a77078", "operator": "United States Postal Service", "operator:short": "USPS", "operator:type": "public", "operator:wikidata": "Q668687", "ref": "6237600002"}, "type": "Feature"}
{"dataset_attributes": {"@spider": "usps_collection_boxes", "spider:collection_time": "2023-12-19T08:25:25.283853"}, "geometry": {"coordinates": [-91.3668, 40.075063], "type": "Point"}, "id": "oW_mHCNMt7GGOgkaTY8rxNmCmhk=", "properties": {"@spider": "usps_collection_boxes", "addr:city": "URSA", "addr:country": "US", "addr:full": "107 N WARSAW ST", "addr:postcode": "62376", "addr:state": "IL", "amenity": "post_box", "brand": "United States Postal Service", "brand:wikidata": "Q668687", "collection_times": "Mo-Fr 11:45; Sa 08:45", "name": "USPS COLLECTION BOX - PO LOBBY", "nsi_id": "unitedstatespostalservice-a77078", "operator": "United States Postal Service", "operator:short": "USPS", "operator:type": "public", "operator:wikidata": "Q668687", "ref": "6237600003"}, "type": "Feature"}
{"dataset_attributes": {"@spider": "usps_collection_boxes", "spider:collection_time": "2023-12-19T08:25:25.283853"}, "geometry": {"coordinates": [-91.36676607, 40.075002], "type": "Point"}, "id": "QVF1BGsfbmHpqkB1heiHs3Dixk0=", "properties": {"@spider": "usps_collection_boxes", "addr:city": "URSA", "addr:country": "US", "addr:full": "107 N WARSAW ST", "addr:postcode": "62376", "addr:state": "IL", "amenity": "post_box", "brand": "United States Postal Service", "brand:wikidata": "Q668687", "collection_times": "Mo-Fr 11:45; Sa 08:45", "name": "USPS COLLECTION BOX - PO LOBBY", "nsi_id": "unitedstatespostalservice-a77078", "operator": "United States Postal Service", "operator:short": "USPS", "operator:type": "public", "operator:wikidata": "Q668687", "ref": "6237600004"}, "type": "Feature"}
{"dataset_attributes": {"@spider": "usps_collection_boxes", "spider:collection_time": "2023-12-19T08:25:25.283853"}, "geometry": {"coordinates": [-90.655982, 39.884421], "type": "Point"}, "id": "Vyys5p3XKQaGhv2er8spXmMV1qU=", "properties": {"@spider": "usps_collection_boxes", "addr:city": "VERSAILLES", "addr:country": "US", "addr:full": "120 N MAIN ST", "addr:postcode": "62378", "addr:state": "IL", "amenity": "post_box", "brand": "United States Postal Service", "brand:wikidata": "Q668687", "collection_times": "Mo-Fr 11:45; Sa 08:45", "name": "USPS COLLECTION BOX - BLUE BOX", "nsi_id": "unitedstatespostalservice-a77078", "operator": "United States Postal Service", "operator:short": "USPS", "operator:type": "public", "operator:wikidata": "Q668687", "ref": "6237800001"}, "type": "Feature"}
{"dataset_attributes": {"@spider": "usps_collection_boxes", "spider:collection_time": "2023-12-19T08:25:25.283853"}, "geometry": {"coordinates": [-90.655982, 39.884421], "type": "Point"}, "id": "EPlCIjBvLduMhmkQkQKRPsOny9M=", "properties": {"@spider": "usps_collection_boxes", "addr:city": "VERSAILLES", "addr:country": "US", "addr:full": "120 N MAIN ST", "addr:postcode": "62378", "addr:state": "IL", "amenity": "post_box", "brand": "United States Postal Service", "brand:wikidata": "Q668687", "collection_times": "Mo-Fr 11:45; Sa 08:45", "name": "USPS COLLECTION BOX - PO LOBBY", "nsi_id": "unitedstatespostalservice-a77078", "operator": "United States Postal Service", "operator:short": "USPS", "operator:type": "public", "operator:wikidata": "Q668687", "ref": "6237800002"}, "type": "Feature"}
{"dataset_attributes": {"@spider": "usps_collection_boxes", "spider:collection_time": "2023-12-19T08:25:25.283853"}, "geometry": {"coordinates": [-90.65592583, 39.884447427], "type": "Point"}, "id": "1JALmDU3OdwnYkQcRRBA3_Sb1dk=", "properties": {"@spider": "usps_collection_boxes", "addr:city": "VERSAILLES", "addr:country": "US", "addr:full": "120 N MAIN ST", "addr:postcode": "62378", "addr:state": "IL", "amenity": "post_box", "brand": "United States Postal Service", "brand:wikidata": "Q668687", "collection_times": "Mo-Fr 11:45; Sa 08:45", "name": "USPS COLLECTION BOX - PO LOBBY", "nsi_id": "unitedstatespostalservice-a77078", "operator": "United States Postal Service", "operator:short": "USPS", "operator:type": "public", "operator:wikidata": "Q668687", "ref": "6237800003"}, "type": "Feature"}
{"dataset_attributes": {"@spider": "usps_collection_boxes", "spider:collection_time": "2023-12-19T08:25:25.283853"}, "geometry": {"coordinates": [-91.435358, 40.359433], "type": "Point"}, "id": "lQfT7d8Ncid5a4SxCHuVVMsZ5qc=", "properties": {"@spider": "usps_collection_boxes", "addr:city": "WARSAW", "addr:country": "US", "addr:full": "520 MAIN ST", "addr:postcode": "62379", "addr:state": "IL", "amenity": "post_box", "brand": "United States Postal Service", "brand:wikidata": "Q668687", "collection_times": "Mo-Fr 14:45; Sa 10:15", "name": "USPS COLLECTION BOX - BLUE BOX", "note": "ON 12/24 AND 12/31, THIS BOX MAY BE COLLECTED AS EARLY AS 12 NOON.", "nsi_id": "unitedstatespostalservice-a77078", "operator": "United States Postal Service", "operator:short": "USPS", "operator:type": "public", "operator:wikidata": "Q668687", "ref": "6237900002"}, "type": "Feature"}
{"dataset_attributes": {"@spider": "usps_collection_boxes", "spider:collection_time": "2023-12-19T08:25:25.283853"}, "geometry": {"coordinates": [-91.435409, 40.359478], "type": "Point"}, "id": "IGQT3TxngRTdhJ3aR_d0u0sL6r4=", "properties": {"@spider": "usps_collection_boxes", "addr:city": "WARSAW", "addr:country": "US", "addr:full": "520 MAIN ST", "addr:postcode": "62379", "addr:state": "IL", "amenity": "post_box", "brand": "United States Postal Service", "brand:wikidata": "Q668687", "collection_times": "Mo-Fr 14:45; Sa 10:15", "name": "USPS COLLECTION BOX - PO LOBBY", "note": "ON 12/24 AND 12/31, THIS BOX MAY BE COLLECTED AS EARLY AS 12 NOON.", "nsi_id": "unitedstatespostalservice-a77078", "operator": "United States Postal Service", "operator:short": "USPS", "operator:type": "public", "operator:wikidata": "Q668687", "ref": "6237900004"}, "type": "Feature"}
{"dataset_attributes": {"@spider": "usps_collection_boxes", "spider:collection_time": "2023-12-19T08:25:25.283853"}, "geometry": {"coordinates": [-91.435387212, 40.359391345], "type": "Point"}, "id": "p5VtwidDniPIKXJrmp0TGF8HoIU=", "properties": {"@spider": "usps_collection_boxes", "addr:city": "WARSAW", "addr:country": "US", "addr:full": "520 MAIN ST", "addr:postcode": "62379", "addr:state": "IL", "amenity": "post_box", "brand": "United States Postal Service", "brand:wikidata": "Q668687", "collection_times": "Mo-Fr 14:45; Sa 10:15", "name": "USPS COLLECTION BOX - PO LOBBY", "note": "ON 12/24 AND 12/31, THIS BOX MAY BE COLLECTED AS EARLY AS 12 NOON.", "nsi_id": "unitedstatespostalservice-a77078", "operator": "United States Postal Service", "operator:short": "USPS", "operator:type": "public", "operator:wikidata": "Q668687", "ref": "6237900007"}, "type": "Feature"}
{"dataset_attributes": {"@spider": "usps_collection_boxes", "spider:collection_time": "2023-12-19T08:25:25.283853"}, "geometry": {"coordinates": [-91.182569, 40.255257], "type": "Point"}, "id": "q49HhnTPVzpI3KEhdQ6zVQugey0=", "properties": {"@spider": "usps_collection_boxes", "addr:city": "WEST POINT", "addr:country": "US", "addr:full": "100 E CENTER ST", "addr:postcode": "62380", "addr:state": "IL", "amenity": "post_box", "brand": "United States Postal Service", "brand:wikidata": "Q668687", "collection_times": "Mo-Fr 13:00; Sa 12:15", "name": "USPS COLLECTION BOX - BLUE BOX", "note": "ON 12/24 AND 12/31, THIS BOX MAY BE COLLECTED AS EARLY AS 12 NOON.", "nsi_id": "unitedstatespostalservice-a77078", "operator": "United States Postal Service", "operator:short": "USPS", "operator:type": "public", "operator:wikidata": "Q668687", "ref": "6238000001"}, "type": "Feature"}
{"dataset_attributes": {"@spider": "usps_collection_boxes", "spider:collection_time": "2023-12-19T08:25:25.283853"}, "geometry": {"coordinates": [-91.182688, 40.255233], "type": "Point"}, "id": "b0gadyBtxXjfmlMYpLH2V5yVVLc=", "properties": {"@spider": "usps_collection_boxes", "addr:city": "WEST POINT", "addr:country": "US", "addr:full": "100 E CENTER ST", "addr:postcode": "62380", "addr:state": "IL", "amenity": "post_box", "brand": "United States Postal Service", "brand:wikidata": "Q668687", "collection_times": "Mo-Fr 13:00; Sa 12:15", "name": "USPS COLLECTION BOX - PO LOBBY", "note": "ON 12/24 AND 12/31, THIS BOX MAY BE COLLECTED AS EARLY AS 12 NOON.", "nsi_id": "unitedstatespostalservice-a77078", "operator": "United States Postal Service", "operator:short": "USPS", "operator:type": "public", "operator:wikidata": "Q668687", "ref": "6238000002"}, "type": "Feature"}
{"dataset_attributes": {"@spider": "usps_collection_boxes", "spider:collection_time": "2023-12-19T08:25:25.283853"}, "geometry": {"coordinates": [-91.182613282, 40.255299976], "type": "Point"}, "id": "k2m2fOehMGFv0cUic6I9gzhhOIo=", "properties": {"@spider": "usps_collection_boxes", "addr:city": "WEST POINT", "addr:country": "US", "addr:full": "100 E CENTER ST", "addr:postcode": "62380", "addr:state": "IL", "amenity": "post_box", "brand": "United States Postal Service", "brand:wikidata": "Q668687", "collection_times": "Mo-Fr 13:00; Sa 12:15", "name": "USPS COLLECTION BOX - PO LOBBY", "note": "ON 12/24 AND 12/31, THIS BOX MAY BE COLLECTED AS EARLY AS 12 NOON.", "nsi_id": "unitedstatespostalservice-a77078", "operator": "United States Postal Service", "operator:short": "USPS", "operator:type": "public", "operator:wikidata": "Q668687", "ref": "6238000004"}, "type": "Feature"}
