{"dataset_attributes": {"@spider": "usps_collection_boxes", "spider:collection_time": "2023-09-22T08:24:47.468985"}, "geometry": {"coordinates": [-88.540765579, 39.122883671], "type": "Point"}, "id": "82lSIIaXA_FDLhoCf7xUl7NqxNo=", "properties": {"@spider": "usps_collection_boxes", "addr:city": "EFFINGHAM", "addr:country": "US", "addr:full": "210 N 3RD ST", "addr:postcode": "62401", "addr:state": "IL", "amenity": "post_box", "brand": "United States Postal Service", "brand:wikidata": "Q668687", "collection_times": "Mo-Fr 17:00; Sa 15:00", "name": "USPS COLLECTION BOX - BLUE BOX", "note": "ON 12/24 AND 12/31, THIS BOX MAY BE COLLECTED AS EARLY AS 12 NOON.", "nsi_id": "unitedstatespostalservice-a77078", "operator": "United States Postal Service", "operator:short": "USPS", "operator:type": "public", "operator:wikidata": "Q668687", "ref": "6240100001"}, "type": "Feature"}
{"dataset_attributes": {"@spider": "usps_collection_boxes", "spider:collection_time": "2023-09-22T08:24:47.468985"}, "geometry": {"coordinates": [-88.540765579, 39.122883671], "type": "Point"}, "id": "TjYbvLMaEqrVRRqx6ZbbBfIyb3M=", "properties": {"@spider": "usps_collection_boxes", "addr:city": "EFFINGHAM", "addr:country": "US", "addr:full": "210 N 3RD ST", "addr:postcode": "62401", "addr:state": "IL", "amenity": "post_box", "brand": "United States Postal Service", "brand:wikidata": "Q668687", "collection_times": "Mo-Fr 17:00; Sa 15:00", "name": "USPS COLLECTION BOX - BLUE BOX", "note": "ON 12/24 AND 12/31, THIS BOX MAY BE COLLECTED AS EARLY AS 12 NOON.", "nsi_id": "unitedstatespostalservice-a77078", "operator": "United States Postal Service", "operator:short": "USPS", "operator:type": "public", "operator:wikidata": "Q668687", "ref": "6240100002"}, "type": "Feature"}
{"dataset_attributes": {"@spider": "usps_collection_boxes", "spider:collection_time": "2023-09-22T08:24:47.468985"}, "geometry": {"coordinates": [-88.5607905, 39.132466], "type": "Point"}, "id": "gFtP0y5-CpOgaj2NdfCFnr349FA=", "properties": {"@spider": "usps_collection_boxes", "addr:city": "EFFINGHAM", "addr:country": "US", "addr:full": "1006 N KELLER DR", "addr:postcode": "62401", "addr:state": "IL", "amenity": "post_box", "brand": "United States Postal Service", "brand:wikidata": "Q668687", "collection_times": "Mo-Sa 14:30", "name": "USPS COLLECTION BOX - BLUE BOX", "note": "ON 12/24 AND 12/31, THIS BOX MAY BE COLLECTED AS EARLY AS 12 NOON.", "nsi_id": "unitedstatespostalservice-a77078", "operator": "United States Postal Service", "operator:short": "USPS", "operator:type": "public", "operator:wikidata": "Q668687", "ref": "6240100003"}, "type": "Feature"}
{"dataset_attributes": {"@spider": "usps_collection_boxes", "spider:collection_time": "2023-09-22T08:24:47.468985"}, "geometry": {"coordinates": [-88.5461761, 39.121475], "type": "Point"}, "id": "QyyEIBhUoixhQdel7c7Kx7m1sSA=", "properties": {"@spider": "usps_collection_boxes", "addr:city": "EFFINGHAM", "addr:country": "US", "addr:full": "101 S MERCHANT ST", "addr:postcode": "62401", "addr:state": "IL", "amenity": "post_box", "brand": "United States Postal Service", "brand:wikidata": "Q668687", "collection_times": "Mo-Sa 14:30", "name": "USPS COLLECTION BOX - BLUE BOX", "note": "ON 12/24 AND 12/31, THIS BOX MAY BE COLLECTED AS EARLY AS 12 NOON.", "nsi_id": "unitedstatespostalservice-a77078", "operator": "United States Postal Service", "operator:short": "USPS", "operator:type": "public", "operator:wikidata": "Q668687", "ref": "6240100005"}, "type": "Feature"}
{"dataset_attributes": {"@spider": "usps_collection_boxes", "spider:collection_time": "2023-09-22T08:24:47.468985"}, "geometry": {"coordinates": [-88.5569338, 39.122749], "type": "Point"}, "id": "A2Thh6912oZAHb9ztHYM10Sh5mo=", "properties": {"@spider": "usps_collection_boxes", "addr:city": "EFFINGHAM", "addr:country": "US", "addr:full": "105 N KELLER DR", "addr:postcode": "62401", "addr:state": "IL", "amenity": "post_box", "brand": "United States Postal Service", "brand:wikidata": "Q668687", "collection_times": "Mo-Sa 12:00", "name": "USPS COLLECTION BOX - BLUE BOX", "nsi_id": "unitedstatespostalservice-a77078", "operator": "United States Postal Service", "operator:short": "USPS", "operator:type": "public", "operator:wikidata": "Q668687", "ref": "6240100007"}, "type": "Feature"}
{"dataset_attributes": {"@spider": "usps_collection_boxes", "spider:collection_time": "2023-09-22T08:24:47.468985"}, "geometry": {"coordinates": [-88.5635949, 39.140266], "type": "Point"}, "id": "rL90W16aG4DHiwp_iaZSh9kVgbU=", "properties": {"@spider": "usps_collection_boxes", "addr:city": "EFFINGHAM", "addr:country": "US", "addr:full": "1204 AVENUE OF MID AMERICA", "addr:postcode": "62401", "addr:state": "IL", "amenity": "post_box", "brand": "United States Postal Service", "brand:wikidata": "Q668687", "collection_times": "Mo-Sa 14:30", "name": "USPS COLLECTION BOX - BLUE BOX", "note": "ON 12/24 AND 12/31, THIS BOX MAY BE COLLECTED AS EARLY AS 12 NOON.", "nsi_id": "unitedstatespostalservice-a77078", "operator": "United States Postal Service", "operator:short": "USPS", "operator:type": "public", "operator:wikidata": "Q668687", "ref": "6240100010"}, "type": "Feature"}
{"dataset_attributes": {"@spider": "usps_collection_boxes", "spider:collection_time": "2023-09-22T08:24:47.468985"}, "geometry": {"coordinates": [-88.5647285005, 39.1377104479], "type": "Point"}, "id": "vJaDCb9P61--pQoqZD_d5n_xoyk=", "properties": {"@spider": "usps_collection_boxes", "addr:city": "EFFINGHAM", "addr:country": "US", "addr:full": "1204 N KELLER DR", "addr:postcode": "62401", "addr:state": "IL", "amenity": "post_box", "brand": "United States Postal Service", "brand:wikidata": "Q668687", "collection_times": "Mo-Sa 14:30", "name": "USPS COLLECTION BOX - BLUE BOX", "note": "ON 12/24 AND 12/31, THIS BOX MAY BE COLLECTED AS EARLY AS 12 NOON.", "nsi_id": "unitedstatespostalservice-a77078", "operator": "United States Postal Service", "operator:short": "USPS", "operator:type": "public", "operator:wikidata": "Q668687", "ref": "6240100029"}, "type": "Feature"}
{"dataset_attributes": {"@spider": "usps_collection_boxes", "spider:collection_time": "2023-09-22T08:24:47.468985"}, "geometry": {"coordinates": [-88.5461249, 39.102341], "type": "Point"}, "id": "uYV15RbDEuZxnazXw_VBuOl4DrA=", "properties": {"@spider": "usps_collection_boxes", "addr:city": "EFFINGHAM", "addr:country": "US", "addr:full": "2000 S BANKER ST", "addr:postcode": "62401", "addr:state": "IL", "amenity": "post_box", "brand": "United States Postal Service", "brand:wikidata": "Q668687", "collection_times": "Mo-Sa 12:00", "name": "USPS COLLECTION BOX - BLUE BOX", "nsi_id": "unitedstatespostalservice-a77078", "operator": "United States Postal Service", "operator:short": "USPS", "operator:type": "public", "operator:wikidata": "Q668687", "ref": "6240100034"}, "type": "Feature"}
{"dataset_attributes": {"@spider": "usps_collection_boxes", "spider:collection_time": "2023-09-22T08:24:47.468985"}, "geometry": {"coordinates": [-88.5266888, 39.143505], "type": "Point"}, "id": "kfeiTryCsL3F9pRP2d39agV-LAY=", "properties": {"@spider": "usps_collection_boxes", "addr:city": "EFFINGHAM", "addr:country": "US", "addr:full": "1207 NETWORK CENTRE DR", "addr:postcode": "62401", "addr:state": "IL", "amenity": "post_box", "brand": "United States Postal Service", "brand:wikidata": "Q668687", "collection_times": "Mo-Sa 14:30", "name": "USPS COLLECTION BOX - BLUE BOX", "note": "ON 12/24 AND 12/31, THIS BOX MAY BE COLLECTED AS EARLY AS 12 NOON.", "nsi_id": "unitedstatespostalservice-a77078", "operator": "United States Postal Service", "operator:short": "USPS", "operator:type": "public", "operator:wikidata": "Q668687", "ref": "6240100035"}, "type": "Feature"}
{"dataset_attributes": {"@spider": "usps_collection_boxes", "spider:collection_time": "2023-09-22T08:24:47.468985"}, "geometry": {"coordinates": [-88.540765579, 39.122883671], "type": "Point"}, "id": "EwiKzpiYjI0Atk3-4TjyhZmxEIE=", "properties": {"@spider": "usps_collection_boxes", "addr:city": "EFFINGHAM", "addr:country": "US", "addr:full": "210 N 3RD ST", "addr:postcode": "62401", "addr:state": "IL", "amenity": "post_box", "brand": "United States Postal Service", "brand:wikidata": "Q668687", "collection_times": "Mo-Fr 17:00; Sa 15:00", "name": "USPS COLLECTION BOX - PO LOBBY", "note": "ON 12/24 AND 12/31, THIS BOX MAY BE COLLECTED AS EARLY AS 12 NOON.", "nsi_id": "unitedstatespostalservice-a77078", "operator": "United States Postal Service", "operator:short": "USPS", "operator:type": "public", "operator:wikidata": "Q668687", "ref": "6240100036"}, "type": "Feature"}
{"dataset_attributes": {"@spider": "usps_collection_boxes", "spider:collection_time": "2023-09-22T08:24:47.468985"}, "geometry": {"coordinates": [-88.5430599, 39.104607], "type": "Point"}, "id": "p8nzN4-pJrpT8kKt-EzwS5drfKw=", "properties": {"@spider": "usps_collection_boxes", "addr:city": "EFFINGHAM", "addr:country": "US", "addr:full": "1901 S 4TH ST", "addr:postcode": "62401", "addr:state": "IL", "amenity": "post_box", "brand": "United States Postal Service", "brand:wikidata": "Q668687", "collection_times": "Mo-Sa 13:00", "name": "USPS COLLECTION BOX - BLUE BOX", "note": "ON 12/24 AND 12/31, THIS BOX MAY BE COLLECTED AS EARLY AS 12 NOON.", "nsi_id": "unitedstatespostalservice-a77078", "operator": "United States Postal Service", "operator:short": "USPS", "operator:type": "public", "operator:wikidata": "Q668687", "ref": "6240100039"}, "type": "Feature"}
{"dataset_attributes": {"@spider": "usps_collection_boxes", "spider:collection_time": "2023-09-22T08:24:47.468985"}, "geometry": {"coordinates": [-88.540765579, 39.122883671], "type": "Point"}, "id": "lQL3oWe9vTDWXpVLS_jnTRTZuCs=", "properties": {"@spider": "usps_collection_boxes", "addr:city": "EFFINGHAM", "addr:country": "US", "addr:full": "210 N 3RD ST", "addr:postcode": "62401", "addr:state": "IL", "amenity": "post_box", "brand": "United States Postal Service", "brand:wikidata": "Q668687", "collection_times": "Mo-Fr 17:30; Sa 12:30", "name": "USPS COLLECTION BOX - PO LOBBY", "note": "ON 12/24 AND 12/31, THIS BOX MAY BE COLLECTED AS EARLY AS 12 NOON.", "nsi_id": "unitedstatespostalservice-a77078", "operator": "United States Postal Service", "operator:short": "USPS", "operator:type": "public", "operator:wikidata": "Q668687", "ref": "6240100042"}, "type": "Feature"}
{"dataset_attributes": {"@spider": "usps_collection_boxes", "spider:collection_time": "2023-09-22T08:24:47.468985"}, "geometry": {"coordinates": [-87.709935, 38.526771], "type": "Point"}, "id": "jT-qTzvdSP1EQ-jLY_nG0qcmqAg=", "properties": {"@spider": "usps_collection_boxes", "addr:city": "ALLENDALE", "addr:country": "US", "addr:full": "304 E MAIN ST", "addr:postcode": "62410", "addr:state": "IL", "amenity": "post_box", "brand": "United States Postal Service", "brand:wikidata": "Q668687", "collection_times": "Mo-Fr 14:30; Sa 10:00", "name": "USPS COLLECTION BOX - BLUE BOX", "note": "ON 12/24 AND 12/31, THIS BOX MAY BE COLLECTED AS EARLY AS 12 NOON.", "nsi_id": "unitedstatespostalservice-a77078", "operator": "United States Postal Service", "operator:short": "USPS", "operator:type": "public", "operator:wikidata": "Q668687", "ref": "6241000001"}, "type": "Feature"}
{"dataset_attributes": {"@spider": "usps_collection_boxes", "spider:collection_time": "2023-09-22T08:24:47.468985"}, "geometry": {"coordinates": [-87.709935, 38.526771], "type": "Point"}, "id": "GhiW4P0UFgoEeJmyJTJffpsyWpg=", "properties": {"@spider": "usps_collection_boxes", "addr:city": "ALLENDALE", "addr:country": "US", "addr:full": "304 E MAIN ST", "addr:postcode": "62410", "addr:state": "IL", "amenity": "post_box", "brand": "United States Postal Service", "brand:wikidata": "Q668687", "collection_times": "Mo-Fr 14:30; Sa 10:00", "name": "USPS COLLECTION BOX - PO LOBBY", "note": "ON 12/24 AND 12/31, THIS BOX MAY BE COLLECTED AS EARLY AS 12 NOON.", "nsi_id": "unitedstatespostalservice-a77078", "operator": "United States Postal Service", "operator:short": "USPS", "operator:type": "public", "operator:wikidata": "Q668687", "ref": "6241000002"}, "type": "Feature"}
{"dataset_attributes": {"@spider": "usps_collection_boxes", "spider:collection_time": "2023-09-22T08:24:47.468985"}, "geometry": {"coordinates": [-87.709899171, 38.526678615], "type": "Point"}, "id": "SmctcOKxsdpGYKpyoOBg6aX-HOs=", "properties": {"@spider": "usps_collection_boxes", "addr:city": "ALLENDALE", "addr:country": "US", "addr:full": "304 E MAIN ST", "addr:postcode": "62410", "addr:state": "IL", "amenity": "post_box", "brand": "United States Postal Service", "brand:wikidata": "Q668687", "collection_times": "Mo-Fr 14:30; Sa 10:00", "name": "USPS COLLECTION BOX - PO LOBBY", "note": "ON 12/24 AND 12/31, THIS BOX MAY BE COLLECTED AS EARLY AS 12 NOON.", "nsi_id": "unitedstatespostalservice-a77078", "operator": "United States Postal Service", "operator:short": "USPS", "operator:type": "public", "operator:wikidata": "Q668687", "ref": "6241000003"}, "type": "Feature"}
{"dataset_attributes": {"@spider": "usps_collection_boxes", "spider:collection_time": "2023-09-22T08:24:47.468985"}, "geometry": {"coordinates": [-88.748679, 39.060539], "type": "Point"}, "id": "kkHH3XVRA9iZ9UyXufL6njZVO9s=", "properties": {"@spider": "usps_collection_boxes", "addr:city": "ALTAMONT", "addr:country": "US", "addr:full": "122 W WASHINGTON AVE", "addr:postcode": "62411", "addr:state": "IL", "amenity": "post_box", "brand": "United States Postal Service", "brand:wikidata": "Q668687", "collection_times": "Mo-Fr 16:45; Sa 12:00", "name": "USPS COLLECTION BOX - BLUE BOX", "note": "ON 12/24 AND 12/31, THIS BOX MAY BE COLLECTED AS EARLY AS 12 NOON.", "nsi_id": "unitedstatespostalservice-a77078", "operator": "United States Postal Service", "operator:short": "USPS", "operator:type": "public", "operator:wikidata": "Q668687", "ref": "6241100001"}, "type": "Feature"}
{"dataset_attributes": {"@spider": "usps_collection_boxes", "spider:collection_time": "2023-09-22T08:24:47.468985"}, "geometry": {"coordinates": [-88.748634, 39.060584], "type": "Point"}, "id": "veP6TxYokB2xPplTYaUfCYM6CcQ=", "properties": {"@spider": "usps_collection_boxes", "addr:city": "ALTAMONT", "addr:country": "US", "addr:full": "122 W WASHINGTON AVE", "addr:postcode": "62411", "addr:state": "IL", "amenity": "post_box", "brand": "United States Postal Service", "brand:wikidata": "Q668687", "collection_times": "Mo-Fr 16:45; Sa 12:00", "name": "USPS COLLECTION BOX - PO LOBBY", "note": "ON 12/24 AND 12/31, THIS BOX MAY BE COLLECTED AS EARLY AS 12 NOON.", "nsi_id": "unitedstatespostalservice-a77078", "operator": "United States Postal Service", "operator:short": "USPS", "operator:type": "public", "operator:wikidata": "Q668687", "ref": "6241100002"}, "type": "Feature"}
{"dataset_attributes": {"@spider": "usps_collection_boxes", "spider:collection_time": "2023-09-22T08:24:47.468985"}, "geometry": {"coordinates": [-88.749363867, 39.060300396], "type": "Point"}, "id": "9nFghpJBnKPU8repr74hZZZ-XzM=", "properties": {"@spider": "usps_collection_boxes", "addr:city": "ALTAMONT", "addr:country": "US", "addr:full": "122 W WASHINGTON AVE", "addr:postcode": "62411", "addr:state": "IL", "amenity": "post_box", "brand": "United States Postal Service", "brand:wikidata": "Q668687", "collection_times": "Mo-Fr 16:45; Sa 12:00", "name": "USPS COLLECTION BOX - PO LOBBY", "note": "ON 12/24 AND 12/31, THIS BOX MAY BE COLLECTED AS EARLY AS 12 NOON.", "nsi_id": "unitedstatespostalservice-a77078", "operator": "United States Postal Service", "operator:short": "USPS", "operator:type": "public", "operator:wikidata": "Q668687", "ref": "6241100006"}, "type": "Feature"}
{"dataset_attributes": {"@spider": "usps_collection_boxes", "spider:collection_time": "2023-09-22T08:24:47.468985"}, "geometry": {"coordinates": [-87.815783, 39.144736], "type": "Point"}, "id": "BqnI8I42j03I3RBY6CbemfMWIak=", "properties": {"@spider": "usps_collection_boxes", "addr:city": "ANNAPOLIS", "addr:country": "US", "addr:full": "7047 E 2000TH AVE", "addr:postcode": "62413", "addr:state": "IL", "amenity": "post_box", "brand": "United States Postal Service", "brand:wikidata": "Q668687", "collection_times": "Mo-Fr 14:10; Sa 11:45", "name": "USPS COLLECTION BOX - BLUE BOX", "note": "ON 12/24 AND 12/31, THIS BOX MAY BE COLLECTED AS EARLY AS 12 NOON.", "nsi_id": "unitedstatespostalservice-a77078", "operator": "United States Postal Service", "operator:short": "USPS", "operator:type": "public", "operator:wikidata": "Q668687", "ref": "6241300001"}, "type": "Feature"}
{"dataset_attributes": {"@spider": "usps_collection_boxes", "spider:collection_time": "2023-09-22T08:24:47.468985"}, "geometry": {"coordinates": [-87.815899, 39.144763], "type": "Point"}, "id": "1rFOzGY5X1kkfgYm116b1ZYsCKQ=", "properties": {"@spider": "usps_collection_boxes", "addr:city": "ANNAPOLIS", "addr:country": "US", "addr:full": "7047 E 2000TH AVE", "addr:postcode": "62413", "addr:state": "IL", "amenity": "post_box", "brand": "United States Postal Service", "brand:wikidata": "Q668687", "collection_times": "Mo-Fr 14:10; Sa 11:45", "name": "USPS COLLECTION BOX - PO LOBBY", "note": "ON 12/24 AND 12/31, THIS BOX MAY BE COLLECTED AS EARLY AS 12 NOON.", "nsi_id": "unitedstatespostalservice-a77078", "operator": "United States Postal Service", "operator:short": "USPS", "operator:type": "public", "operator:wikidata": "Q668687", "ref": "6241300002"}, "type": "Feature"}
{"dataset_attributes": {"@spider": "usps_collection_boxes", "spider:collection_time": "2023-09-22T08:24:47.468985"}, "geometry": {"coordinates": [-87.815828804, 39.144679304], "type": "Point"}, "id": "ZkYeeve-RfjwCjJYhAKD9CMuZ34=", "properties": {"@spider": "usps_collection_boxes", "addr:city": "ANNAPOLIS", "addr:country": "US", "addr:full": "7047 E 2000TH AVE", "addr:postcode": "62413", "addr:state": "IL", "amenity": "post_box", "brand": "United States Postal Service", "brand:wikidata": "Q668687", "collection_times": "Mo-Fr 14:15; Sa 11:45", "name": "USPS COLLECTION BOX - PO LOBBY", "note": "ON 12/24 AND 12/31, THIS BOX MAY BE COLLECTED AS EARLY AS 12 NOON.", "nsi_id": "unitedstatespostalservice-a77078", "operator": "United States Postal Service", "operator:short": "USPS", "operator:type": "public", "operator:wikidata": "Q668687", "ref": "6241300003"}, "type": "Feature"}
{"dataset_attributes": {"@spider": "usps_collection_boxes", "spider:collection_time": "2023-09-22T08:24:47.468985"}, "geometry": {"coordinates": [-88.788177, 39.187053], "type": "Point"}, "id": "NPEH9E0RqDyLm32KhEjiAq6Yvy0=", "properties": {"@spider": "usps_collection_boxes", "addr:city": "BEECHER CITY", "addr:country": "US", "addr:full": "101 S SWEAZY ST", "addr:postcode": "62414", "addr:state": "IL", "amenity": "post_box", "brand": "United States Postal Service", "brand:wikidata": "Q668687", "collection_times": "Mo-Fr 16:00; Sa 09:30", "name": "USPS COLLECTION BOX - BLUE BOX", "note": "ON 12/24 AND 12/31, THIS BOX MAY BE COLLECTED AS EARLY AS 12 NOON.", "nsi_id": "unitedstatespostalservice-a77078", "operator": "United States Postal Service", "operator:short": "USPS", "operator:type": "public", "operator:wikidata": "Q668687", "ref": "6241400001"}, "type": "Feature"}
{"dataset_attributes": {"@spider": "usps_collection_boxes", "spider:collection_time": "2023-09-22T08:24:47.468985"}, "geometry": {"coordinates": [-88.788141, 39.187143], "type": "Point"}, "id": "qvtGX0unQHU0LTbhpCEHEWXq7bY=", "properties": {"@spider": "usps_collection_boxes", "addr:city": "BEECHER CITY", "addr:country": "US", "addr:full": "101 S SWEAZY ST", "addr:postcode": "62414", "addr:state": "IL", "amenity": "post_box", "brand": "United States Postal Service", "brand:wikidata": "Q668687", "collection_times": "Mo-Fr 16:00; Sa 09:30", "name": "USPS COLLECTION BOX - PO LOBBY", "note": "ON 12/24 AND 12/31, THIS BOX MAY BE COLLECTED AS EARLY AS 12 NOON.", "nsi_id": "unitedstatespostalservice-a77078", "operator": "United States Postal Service", "operator:short": "USPS", "operator:type": "public", "operator:wikidata": "Q668687", "ref": "6241400002"}, "type": "Feature"}
{"dataset_attributes": {"@spider": "usps_collection_boxes", "spider:collection_time": "2023-09-22T08:24:47.468985"}, "geometry": {"coordinates": [-88.788176909, 39.186972671], "type": "Point"}, "id": "3luZh3Wp_ChGKQn7tChDKmD7BWY=", "properties": {"@spider": "usps_collection_boxes", "addr:city": "BEECHER CITY", "addr:country": "US", "addr:full": "101 S SWEAZY ST", "addr:postcode": "62414", "addr:state": "IL", "amenity": "post_box", "brand": "United States Postal Service", "brand:wikidata": "Q668687", "collection_times": "Mo-Fr 16:00; Sa 09:30", "name": "USPS COLLECTION BOX - PO LOBBY", "note": "ON 12/24 AND 12/31, THIS BOX MAY BE COLLECTED AS EARLY AS 12 NOON.", "nsi_id": "unitedstatespostalservice-a77078", "operator": "United States Postal Service", "operator:short": "USPS", "operator:type": "public", "operator:wikidata": "Q668687", "ref": "6241400004"}, "type": "Feature"}
{"dataset_attributes": {"@spider": "usps_collection_boxes", "spider:collection_time": "2023-09-22T08:24:47.468985"}, "geometry": {"coordinates": [-87.758696, 38.706311], "type": "Point"}, "id": "cLRroqBf19FhBsvF9xiMyrWrmqI=", "properties": {"@spider": "usps_collection_boxes", "addr:city": "BRIDGEPORT", "addr:country": "US", "addr:full": "250 E OLIVE ST", "addr:postcode": "62417", "addr:state": "IL", "amenity": "post_box", "brand": "United States Postal Service", "brand:wikidata": "Q668687", "collection_times": "Mo-Fr 12:15; Sa 10:15", "name": "USPS COLLECTION BOX - BLUE BOX", "note": "ON 12/24 AND 12/31, THIS BOX MAY BE COLLECTED AS EARLY AS 12 NOON.", "nsi_id": "unitedstatespostalservice-a77078", "operator": "United States Postal Service", "operator:short": "USPS", "operator:type": "public", "operator:wikidata": "Q668687", "ref": "6241700001"}, "type": "Feature"}
{"dataset_attributes": {"@spider": "usps_collection_boxes", "spider:collection_time": "2023-09-22T08:24:47.468985"}, "geometry": {"coordinates": [-87.758718, 38.70628], "type": "Point"}, "id": "WGP88mFR9hZMvejmuqaSwxOmaUw=", "properties": {"@spider": "usps_collection_boxes", "addr:city": "BRIDGEPORT", "addr:country": "US", "addr:full": "250 E OLIVE ST", "addr:postcode": "62417", "addr:state": "IL", "amenity": "post_box", "brand": "United States Postal Service", "brand:wikidata": "Q668687", "collection_times": "Mo-Fr 12:15; Sa 10:15", "name": "USPS COLLECTION BOX - PO LOBBY", "note": "ON 12/24 AND 12/31, THIS BOX MAY BE COLLECTED AS EARLY AS 12 NOON.", "nsi_id": "unitedstatespostalservice-a77078", "operator": "United States Postal Service", "operator:short": "USPS", "operator:type": "public", "operator:wikidata": "Q668687", "ref": "6241700005"}, "type": "Feature"}
{"dataset_attributes": {"@spider": "usps_collection_boxes", "spider:collection_time": "2023-09-22T08:24:47.468985"}, "geometry": {"coordinates": [-87.758712131, 38.706342644], "type": "Point"}, "id": "b-jpPHfYeDQEvvTACeaIGSiv9M0=", "properties": {"@spider": "usps_collection_boxes", "addr:city": "BRIDGEPORT", "addr:country": "US", "addr:full": "250 E OLIVE ST", "addr:postcode": "62417", "addr:state": "IL", "amenity": "post_box", "brand": "United States Postal Service", "brand:wikidata": "Q668687", "collection_times": "Mo-Fr 12:15; Sa 10:15", "name": "USPS COLLECTION BOX - PO LOBBY", "note": "ON 12/24 AND 12/31, THIS BOX MAY BE COLLECTED AS EARLY AS 12 NOON.", "nsi_id": "unitedstatespostalservice-a77078", "operator": "United States Postal Service", "operator:short": "USPS", "operator:type": "public", "operator:wikidata": "Q668687", "ref": "6241700008"}, "type": "Feature"}
{"dataset_attributes": {"@spider": "usps_collection_boxes", "spider:collection_time": "2023-09-22T08:24:47.468985"}, "geometry": {"coordinates": [-88.953905, 38.996597], "type": "Point"}, "id": "y1Z46fQ7V3g4Tzae8uz1f2qYiS8=", "properties": {"@spider": "usps_collection_boxes", "addr:city": "BROWNSTOWN", "addr:country": "US", "addr:full": "102 E MAIN ST", "addr:postcode": "62418", "addr:state": "IL", "amenity": "post_box", "brand": "United States Postal Service", "brand:wikidata": "Q668687", "collection_times": "Mo-Fr 16:10; Sa 11:45", "name": "USPS COLLECTION BOX - BLUE BOX", "note": "ON 12/24 AND 12/31, THIS BOX MAY BE COLLECTED AS EARLY AS 12 NOON.", "nsi_id": "unitedstatespostalservice-a77078", "operator": "United States Postal Service", "operator:short": "USPS", "operator:type": "public", "operator:wikidata": "Q668687", "ref": "6241800001"}, "type": "Feature"}
{"dataset_attributes": {"@spider": "usps_collection_boxes", "spider:collection_time": "2023-09-22T08:24:47.468985"}, "geometry": {"coordinates": [-88.953905, 38.996597], "type": "Point"}, "id": "9jp9dF92FQ2vNjS2jpdeKx5Dk0g=", "properties": {"@spider": "usps_collection_boxes", "addr:city": "BROWNSTOWN", "addr:country": "US", "addr:full": "102 E MAIN ST", "addr:postcode": "62418", "addr:state": "IL", "amenity": "post_box", "brand": "United States Postal Service", "brand:wikidata": "Q668687", "collection_times": "Mo-Fr 16:10; Sa 11:45", "name": "USPS COLLECTION BOX - PO LOBBY", "note": "ON 12/24 AND 12/31, THIS BOX MAY BE COLLECTED AS EARLY AS 12 NOON.", "nsi_id": "unitedstatespostalservice-a77078", "operator": "United States Postal Service", "operator:short": "USPS", "operator:type": "public", "operator:wikidata": "Q668687", "ref": "6241800002"}, "type": "Feature"}
{"dataset_attributes": {"@spider": "usps_collection_boxes", "spider:collection_time": "2023-09-22T08:24:47.468985"}, "geometry": {"coordinates": [-88.954351272, 38.996419349], "type": "Point"}, "id": "_PqUd--JNx5e7nhOPWIAkTaLC6w=", "properties": {"@spider": "usps_collection_boxes", "addr:city": "BROWNSTOWN", "addr:country": "US", "addr:full": "102 E MAIN ST", "addr:postcode": "62418", "addr:state": "IL", "amenity": "post_box", "brand": "United States Postal Service", "brand:wikidata": "Q668687", "collection_times": "Mo-Fr 16:00; Sa 11:45", "name": "USPS COLLECTION BOX - PO LOBBY", "note": "ON 12/24 AND 12/31, THIS BOX MAY BE COLLECTED AS EARLY AS 12 NOON.", "nsi_id": "unitedstatespostalservice-a77078", "operator": "United States Postal Service", "operator:short": "USPS", "operator:type": "public", "operator:wikidata": "Q668687", "ref": "6241800004"}, "type": "Feature"}
{"dataset_attributes": {"@spider": "usps_collection_boxes", "spider:collection_time": "2023-09-22T08:24:47.468985"}, "geometry": {"coordinates": [-88.043759, 38.650281], "type": "Point"}, "id": "2Br6wQURJ8GZjEB3ILdNsPLo5kE=", "properties": {"@spider": "usps_collection_boxes", "addr:city": "CALHOUN", "addr:country": "US", "addr:full": "101 E MAIN ST", "addr:postcode": "62419", "addr:state": "IL", "amenity": "post_box", "brand": "United States Postal Service", "brand:wikidata": "Q668687", "collection_times": "Mo-Fr 16:15; Sa 10:30", "name": "USPS COLLECTION BOX - BLUE BOX", "note": "ON 12/24 AND 12/31, THIS BOX MAY BE COLLECTED AS EARLY AS 12 NOON.", "nsi_id": "unitedstatespostalservice-a77078", "operator": "United States Postal Service", "operator:short": "USPS", "operator:type": "public", "operator:wikidata": "Q668687", "ref": "6241900001"}, "type": "Feature"}
{"dataset_attributes": {"@spider": "usps_collection_boxes", "spider:collection_time": "2023-09-22T08:24:47.468985"}, "geometry": {"coordinates": [-88.043759, 38.650281], "type": "Point"}, "id": "egzl3_BcbMuZEPavyOw396vGJ-0=", "properties": {"@spider": "usps_collection_boxes", "addr:city": "CALHOUN", "addr:country": "US", "addr:full": "101 E MAIN ST", "addr:postcode": "62419", "addr:state": "IL", "amenity": "post_box", "brand": "United States Postal Service", "brand:wikidata": "Q668687", "collection_times": "Mo-Fr 16:15; Sa 12:30", "name": "USPS COLLECTION BOX - PO LOBBY", "note": "ON 12/24 AND 12/31, THIS BOX MAY BE COLLECTED AS EARLY AS 12 NOON.", "nsi_id": "unitedstatespostalservice-a77078", "operator": "United States Postal Service", "operator:short": "USPS", "operator:type": "public", "operator:wikidata": "Q668687", "ref": "6241900002"}, "type": "Feature"}
{"dataset_attributes": {"@spider": "usps_collection_boxes", "spider:collection_time": "2023-09-22T08:24:47.468985"}, "geometry": {"coordinates": [-88.043581582, 38.65026155], "type": "Point"}, "id": "2LqqV3w8Rlr6NAftFm9GKPTl2CU=", "properties": {"@spider": "usps_collection_boxes", "addr:city": "CALHOUN", "addr:country": "US", "addr:full": "101 E MAIN ST", "addr:postcode": "62419", "addr:state": "IL", "amenity": "post_box", "brand": "United States Postal Service", "brand:wikidata": "Q668687", "collection_times": "Mo-Fr 16:15; Sa 12:30", "name": "USPS COLLECTION BOX - PO LOBBY", "note": "ON 12/24 AND 12/31, THIS BOX MAY BE COLLECTED AS EARLY AS 12 NOON.", "nsi_id": "unitedstatespostalservice-a77078", "operator": "United States Postal Service", "operator:short": "USPS", "operator:type": "public", "operator:wikidata": "Q668687", "ref": "6241900003"}, "type": "Feature"}
{"dataset_attributes": {"@spider": "usps_collection_boxes", "spider:collection_time": "2023-09-22T08:24:47.468985"}, "geometry": {"coordinates": [-87.9949028, 39.299997], "type": "Point"}, "id": "EnM5QeSwFWFqhmXJVpiLtLx4mbY=", "properties": {"@spider": "usps_collection_boxes", "addr:city": "CASEY", "addr:country": "US", "addr:full": "100 W ALABAMA AVE", "addr:postcode": "62420", "addr:state": "IL", "amenity": "post_box", "brand": "United States Postal Service", "brand:wikidata": "Q668687", "collection_times": "Mo-Fr 16:15; Sa 10:15", "name": "USPS COLLECTION BOX - BLUE BOX", "note": "ON 12/24 AND 12/31, THIS BOX MAY BE COLLECTED AS EARLY AS 12 NOON.", "nsi_id": "unitedstatespostalservice-a77078", "operator": "United States Postal Service", "operator:short": "USPS", "operator:type": "public", "operator:wikidata": "Q668687", "ref": "6242000001"}, "type": "Feature"}
{"dataset_attributes": {"@spider": "usps_collection_boxes", "spider:collection_time": "2023-09-22T08:24:47.468985"}, "geometry": {"coordinates": [-87.9945728, 39.299778], "type": "Point"}, "id": "-P0QxDSo6pi5u2NCxQRLWswdYLw=", "properties": {"@spider": "usps_collection_boxes", "addr:city": "CASEY", "addr:country": "US", "addr:full": "100 W ALABAMA AVE", "addr:postcode": "62420", "addr:state": "IL", "amenity": "post_box", "brand": "United States Postal Service", "brand:wikidata": "Q668687", "collection_times": "Mo-Fr 16:15; Sa 10:15", "name": "USPS COLLECTION BOX - PO LOBBY", "note": "ON 12/24 AND 12/31, THIS BOX MAY BE COLLECTED AS EARLY AS 12 NOON.", "nsi_id": "unitedstatespostalservice-a77078", "operator": "United States Postal Service", "operator:short": "USPS", "operator:type": "public", "operator:wikidata": "Q668687", "ref": "6242000008"}, "type": "Feature"}
{"dataset_attributes": {"@spider": "usps_collection_boxes", "spider:collection_time": "2023-09-22T08:24:47.468985"}, "geometry": {"coordinates": [-87.994435337, 39.299816422], "type": "Point"}, "id": "2u9YfisRtZ3F_mKgjnwQJNEhexk=", "properties": {"@spider": "usps_collection_boxes", "addr:city": "CASEY", "addr:country": "US", "addr:full": "100 W ALABAMA AVE", "addr:postcode": "62420", "addr:state": "IL", "amenity": "post_box", "brand": "United States Postal Service", "brand:wikidata": "Q668687", "collection_times": "Mo-Fr 16:15; Sa 10:15", "name": "USPS COLLECTION BOX - PO LOBBY", "note": "ON 12/24 AND 12/31, THIS BOX MAY BE COLLECTED AS EARLY AS 12 NOON.", "nsi_id": "unitedstatespostalservice-a77078", "operator": "United States Postal Service", "operator:short": "USPS", "operator:type": "public", "operator:wikidata": "Q668687", "ref": "6242000009"}, "type": "Feature"}
{"dataset_attributes": {"@spider": "usps_collection_boxes", "spider:collection_time": "2023-09-22T08:24:47.468985"}, "geometry": {"coordinates": [-87.9714356, 38.719215], "type": "Point"}, "id": "mCJ7H5R9rYua2ievrv60XozLZps=", "properties": {"@spider": "usps_collection_boxes", "addr:city": "CLAREMONT", "addr:country": "US", "addr:full": "100 N WASHINGTON BLVD", "addr:postcode": "62421", "addr:state": "IL", "amenity": "post_box", "brand": "United States Postal Service", "brand:wikidata": "Q668687", "collection_times": "Mo-Fr 11:15; Sa 09:30", "name": "USPS COLLECTION BOX - BLUE BOX", "nsi_id": "unitedstatespostalservice-a77078", "operator": "United States Postal Service", "operator:short": "USPS", "operator:type": "public", "operator:wikidata": "Q668687", "ref": "6242100001"}, "type": "Feature"}
{"dataset_attributes": {"@spider": "usps_collection_boxes", "spider:collection_time": "2023-09-22T08:24:47.468985"}, "geometry": {"coordinates": [-87.971567, 38.719533], "type": "Point"}, "id": "p3uTujlLBibDqXNs9VEpO7QA0es=", "properties": {"@spider": "usps_collection_boxes", "addr:city": "CLAREMONT", "addr:country": "US", "addr:full": "100 N WASHINGTON BLVD", "addr:postcode": "62421", "addr:state": "IL", "amenity": "post_box", "brand": "United States Postal Service", "brand:wikidata": "Q668687", "collection_times": "Mo-Fr 11:15; Sa 09:30", "name": "USPS COLLECTION BOX - PO LOBBY", "nsi_id": "unitedstatespostalservice-a77078", "operator": "United States Postal Service", "operator:short": "USPS", "operator:type": "public", "operator:wikidata": "Q668687", "ref": "6242100003"}, "type": "Feature"}
{"dataset_attributes": {"@spider": "usps_collection_boxes", "spider:collection_time": "2023-09-22T08:24:47.468985"}, "geometry": {"coordinates": [-87.97153528, 38.719206], "type": "Point"}, "id": "7SWoNucM9WYrgqkNUIosVvPl6Z4=", "properties": {"@spider": "usps_collection_boxes", "addr:city": "CLAREMONT", "addr:country": "US", "addr:full": "100 N WASHINGTON BLVD", "addr:postcode": "62421", "addr:state": "IL", "amenity": "post_box", "brand": "United States Postal Service", "brand:wikidata": "Q668687", "collection_times": "Mo-Fr 11:15; Sa 09:30", "name": "USPS COLLECTION BOX - PO LOBBY", "nsi_id": "unitedstatespostalservice-a77078", "operator": "United States Postal Service", "operator:short": "USPS", "operator:type": "public", "operator:wikidata": "Q668687", "ref": "6242100004"}, "type": "Feature"}
{"dataset_attributes": {"@spider": "usps_collection_boxes", "spider:collection_time": "2023-09-22T08:24:47.468985"}, "geometry": {"coordinates": [-88.8611236757, 39.2512436962], "type": "Point"}, "id": "TWC-SNNIQQRQoypEWrvXP2EDVis=", "properties": {"@spider": "usps_collection_boxes", "addr:city": "COWDEN", "addr:country": "US", "addr:full": "100 E ELM ST", "addr:postcode": "62422", "addr:state": "IL", "amenity": "post_box", "brand": "United States Postal Service", "brand:wikidata": "Q668687", "collection_times": "Mo-Fr 16:30; Sa 10:00", "name": "USPS COLLECTION BOX - BLUE BOX", "note": "ON 12/24 AND 12/31, THIS BOX MAY BE COLLECTED AS EARLY AS 12 NOON.", "nsi_id": "unitedstatespostalservice-a77078", "operator": "United States Postal Service", "operator:short": "USPS", "operator:type": "public", "operator:wikidata": "Q668687", "ref": "6242200001"}, "type": "Feature"}
{"dataset_attributes": {"@spider": "usps_collection_boxes", "spider:collection_time": "2023-09-22T08:24:47.468985"}, "geometry": {"coordinates": [-88.8611236757, 39.2512436962], "type": "Point"}, "id": "W_1mgirbkYUwT3mmW9A-HmvJa6c=", "properties": {"@spider": "usps_collection_boxes", "addr:city": "COWDEN", "addr:country": "US", "addr:full": "100 E ELM ST", "addr:postcode": "62422", "addr:state": "IL", "amenity": "post_box", "brand": "United States Postal Service", "brand:wikidata": "Q668687", "collection_times": "Mo-Fr 16:30; Sa 10:00", "name": "USPS COLLECTION BOX - PO LOBBY", "note": "ON 12/24 AND 12/31, THIS BOX MAY BE COLLECTED AS EARLY AS 12 NOON.", "nsi_id": "unitedstatespostalservice-a77078", "operator": "United States Postal Service", "operator:short": "USPS", "operator:type": "public", "operator:wikidata": "Q668687", "ref": "6242200002"}, "type": "Feature"}
{"dataset_attributes": {"@spider": "usps_collection_boxes", "spider:collection_time": "2023-09-22T08:24:47.468985"}, "geometry": {"coordinates": [-88.861123676, 39.251243696], "type": "Point"}, "id": "VMK16BWmqwRZE5V0MAmhG11BA_g=", "properties": {"@spider": "usps_collection_boxes", "addr:city": "COWDEN", "addr:country": "US", "addr:full": "100 E ELM ST", "addr:postcode": "62422", "addr:state": "IL", "amenity": "post_box", "brand": "United States Postal Service", "brand:wikidata": "Q668687", "collection_times": "Mo-Fr 16:30; Sa 10:00", "name": "USPS COLLECTION BOX - PO LOBBY", "note": "ON 12/24 AND 12/31, THIS BOX MAY BE COLLECTED AS EARLY AS 12 NOON.", "nsi_id": "unitedstatespostalservice-a77078", "operator": "United States Postal Service", "operator:short": "USPS", "operator:type": "public", "operator:wikidata": "Q668687", "ref": "6242200004"}, "type": "Feature"}
{"dataset_attributes": {"@spider": "usps_collection_boxes", "spider:collection_time": "2023-09-22T08:24:47.468985"}, "geometry": {"coordinates": [-88.380009, 39.059254], "type": "Point"}, "id": "OVtAGVDlj8xIObdcNSnFzg77-0I=", "properties": {"@spider": "usps_collection_boxes", "addr:city": "DIETERICH", "addr:country": "US", "addr:full": "201 S MAIN ST", "addr:postcode": "62424", "addr:state": "IL", "amenity": "post_box", "brand": "United States Postal Service", "brand:wikidata": "Q668687", "collection_times": "Mo-Fr 15:45; Sa 09:30", "name": "USPS COLLECTION BOX - BLUE BOX", "note": "ON 12/24 AND 12/31, THIS BOX MAY BE COLLECTED AS EARLY AS 12 NOON.", "nsi_id": "unitedstatespostalservice-a77078", "operator": "United States Postal Service", "operator:short": "USPS", "operator:type": "public", "operator:wikidata": "Q668687", "ref": "6242400001"}, "type": "Feature"}
{"dataset_attributes": {"@spider": "usps_collection_boxes", "spider:collection_time": "2023-09-22T08:24:47.468985"}, "geometry": {"coordinates": [-88.380009, 39.059254], "type": "Point"}, "id": "0OUck0YtRONPUG8FEqejpKXamuY=", "properties": {"@spider": "usps_collection_boxes", "addr:city": "DIETERICH", "addr:country": "US", "addr:full": "201 S MAIN ST", "addr:postcode": "62424", "addr:state": "IL", "amenity": "post_box", "brand": "United States Postal Service", "brand:wikidata": "Q668687", "collection_times": "Mo-Fr 15:45; Sa 09:30", "name": "USPS COLLECTION BOX - PO LOBBY", "note": "ON 12/24 AND 12/31, THIS BOX MAY BE COLLECTED AS EARLY AS 12 NOON.", "nsi_id": "unitedstatespostalservice-a77078", "operator": "United States Postal Service", "operator:short": "USPS", "operator:type": "public", "operator:wikidata": "Q668687", "ref": "6242400002"}, "type": "Feature"}
{"dataset_attributes": {"@spider": "usps_collection_boxes", "spider:collection_time": "2023-09-22T08:24:47.468985"}, "geometry": {"coordinates": [-88.380047354, 39.059118922], "type": "Point"}, "id": "gX4nqDNUxol0ouZNVVg0paDd3P4=", "properties": {"@spider": "usps_collection_boxes", "addr:city": "DIETERICH", "addr:country": "US", "addr:full": "201 S MAIN ST", "addr:postcode": "62424", "addr:state": "IL", "amenity": "post_box", "brand": "United States Postal Service", "brand:wikidata": "Q668687", "collection_times": "Mo-Fr 15:45; Sa 09:30", "name": "USPS COLLECTION BOX - PO LOBBY", "note": "ON 12/24 AND 12/31, THIS BOX MAY BE COLLECTED AS EARLY AS 12 NOON.", "nsi_id": "unitedstatespostalservice-a77078", "operator": "United States Postal Service", "operator:short": "USPS", "operator:type": "public", "operator:wikidata": "Q668687", "ref": "6242400004"}, "type": "Feature"}
{"dataset_attributes": {"@spider": "usps_collection_boxes", "spider:collection_time": "2023-09-22T08:24:47.468985"}, "geometry": {"coordinates": [-88.083831, 38.834941], "type": "Point"}, "id": "6QQVV30BRSeSMx_7GFDIYh0L9hQ=", "properties": {"@spider": "usps_collection_boxes", "addr:city": "DUNDAS", "addr:country": "US", "addr:full": "7220 N WASHINGTON ST", "addr:postcode": "62425", "addr:state": "IL", "amenity": "post_box", "brand": "United States Postal Service", "brand:wikidata": "Q668687", "collection_times": "Mo-Fr 11:45; Sa 09:45", "name": "USPS COLLECTION BOX - BLUE BOX", "nsi_id": "unitedstatespostalservice-a77078", "operator": "United States Postal Service", "operator:short": "USPS", "operator:type": "public", "operator:wikidata": "Q668687", "ref": "6242500001"}, "type": "Feature"}
{"dataset_attributes": {"@spider": "usps_collection_boxes", "spider:collection_time": "2023-09-22T08:24:47.468985"}, "geometry": {"coordinates": [-88.083866, 38.835014], "type": "Point"}, "id": "XYOEZPRp7W1hMZRRkwU502h8Oao=", "properties": {"@spider": "usps_collection_boxes", "addr:city": "DUNDAS", "addr:country": "US", "addr:full": "7220 N WASHINGTON ST", "addr:postcode": "62425", "addr:state": "IL", "amenity": "post_box", "brand": "United States Postal Service", "brand:wikidata": "Q668687", "collection_times": "Mo-Fr 11:45; Sa 09:45", "name": "USPS COLLECTION BOX - PO LOBBY", "nsi_id": "unitedstatespostalservice-a77078", "operator": "United States Postal Service", "operator:short": "USPS", "operator:type": "public", "operator:wikidata": "Q668687", "ref": "6242500002"}, "type": "Feature"}
{"dataset_attributes": {"@spider": "usps_collection_boxes", "spider:collection_time": "2023-09-22T08:24:47.468985"}, "geometry": {"coordinates": [-88.083838212, 38.834658251], "type": "Point"}, "id": "2uz4H8il9raZYOOTKTlJYt1iytc=", "properties": {"@spider": "usps_collection_boxes", "addr:city": "DUNDAS", "addr:country": "US", "addr:full": "7220 N WASHINGTON ST", "addr:postcode": "62425", "addr:state": "IL", "amenity": "post_box", "brand": "United States Postal Service", "brand:wikidata": "Q668687", "collection_times": "Mo-Fr 11:45; Sa 09:45", "name": "USPS COLLECTION BOX - PO LOBBY", "nsi_id": "unitedstatespostalservice-a77078", "operator": "United States Postal Service", "operator:short": "USPS", "operator:type": "public", "operator:wikidata": "Q668687", "ref": "6242500004"}, "type": "Feature"}
{"dataset_attributes": {"@spider": "usps_collection_boxes", "spider:collection_time": "2023-09-22T08:24:47.468985"}, "geometry": {"coordinates": [-88.66404, 38.922527], "type": "Point"}, "id": "o6E19sbBveEHUVfRRZ1VrZkHk2M=", "properties": {"@spider": "usps_collection_boxes", "addr:city": "EDGEWOOD", "addr:country": "US", "addr:full": "807 BROAD ST", "addr:postcode": "62426", "addr:state": "IL", "amenity": "post_box", "brand": "United States Postal Service", "brand:wikidata": "Q668687", "collection_times": "Mo-Fr 14:45; Sa 09:15", "name": "USPS COLLECTION BOX - BLUE BOX", "note": "ON 12/24 AND 12/31, THIS BOX MAY BE COLLECTED AS EARLY AS 12 NOON.", "nsi_id": "unitedstatespostalservice-a77078", "operator": "United States Postal Service", "operator:short": "USPS", "operator:type": "public", "operator:wikidata": "Q668687", "ref": "6242600001"}, "type": "Feature"}
{"dataset_attributes": {"@spider": "usps_collection_boxes", "spider:collection_time": "2023-09-22T08:24:47.468985"}, "geometry": {"coordinates": [-88.663974, 38.922515], "type": "Point"}, "id": "oUn-VVgRYQtE1veGZ58ZXFUVzFQ=", "properties": {"@spider": "usps_collection_boxes", "addr:city": "EDGEWOOD", "addr:country": "US", "addr:full": "807 BROAD ST", "addr:postcode": "62426", "addr:state": "IL", "amenity": "post_box", "brand": "United States Postal Service", "brand:wikidata": "Q668687", "collection_times": "Mo-Fr 14:45; Sa 09:30", "name": "USPS COLLECTION BOX - PO LOBBY", "note": "ON 12/24 AND 12/31, THIS BOX MAY BE COLLECTED AS EARLY AS 12 NOON.", "nsi_id": "unitedstatespostalservice-a77078", "operator": "United States Postal Service", "operator:short": "USPS", "operator:type": "public", "operator:wikidata": "Q668687", "ref": "6242600002"}, "type": "Feature"}
{"dataset_attributes": {"@spider": "usps_collection_boxes", "spider:collection_time": "2023-09-22T08:24:47.468985"}, "geometry": {"coordinates": [-88.663939463, 38.922439297], "type": "Point"}, "id": "OYDALGfc6id78WF-v8XUSPZ7XQE=", "properties": {"@spider": "usps_collection_boxes", "addr:city": "EDGEWOOD", "addr:country": "US", "addr:full": "807 BROAD ST", "addr:postcode": "62426", "addr:state": "IL", "amenity": "post_box", "brand": "United States Postal Service", "brand:wikidata": "Q668687", "collection_times": "Mo-Fr 14:45; Sa 09:30", "name": "USPS COLLECTION BOX - PO LOBBY", "note": "ON 12/24 AND 12/31, THIS BOX MAY BE COLLECTED AS EARLY AS 12 NOON.", "nsi_id": "unitedstatespostalservice-a77078", "operator": "United States Postal Service", "operator:short": "USPS", "operator:type": "public", "operator:wikidata": "Q668687", "ref": "6242600004"}, "type": "Feature"}
{"dataset_attributes": {"@spider": "usps_collection_boxes", "spider:collection_time": "2023-09-22T08:24:47.468985"}, "geometry": {"coordinates": [-87.684517, 38.900402], "type": "Point"}, "id": "mTob21D3I2MVls-sAcKWLRR-qdA=", "properties": {"@spider": "usps_collection_boxes", "addr:city": "FLAT ROCK", "addr:country": "US", "addr:full": "201 W 2ND ST", "addr:postcode": "62427", "addr:state": "IL", "amenity": "post_box", "brand": "United States Postal Service", "brand:wikidata": "Q668687", "collection_times": "Mo-Fr 15:15; Sa 10:00", "name": "USPS COLLECTION BOX - BLUE BOX", "note": "ON 12/24 AND 12/31, THIS BOX MAY BE COLLECTED AS EARLY AS 12 NOON.", "nsi_id": "unitedstatespostalservice-a77078", "operator": "United States Postal Service", "operator:short": "USPS", "operator:type": "public", "operator:wikidata": "Q668687", "ref": "6242700001"}, "type": "Feature"}
{"dataset_attributes": {"@spider": "usps_collection_boxes", "spider:collection_time": "2023-09-22T08:24:47.468985"}, "geometry": {"coordinates": [-87.684517, 38.900402], "type": "Point"}, "id": "g1U5_T_cGrYqW7kCxJ0ZZnd4Yzs=", "properties": {"@spider": "usps_collection_boxes", "addr:city": "FLAT ROCK", "addr:country": "US", "addr:full": "201 W 2ND ST", "addr:postcode": "62427", "addr:state": "IL", "amenity": "post_box", "brand": "United States Postal Service", "brand:wikidata": "Q668687", "collection_times": "Mo-Fr 15:15; Sa 10:00", "name": "USPS COLLECTION BOX - PO LOBBY", "note": "ON 12/24 AND 12/31, THIS BOX MAY BE COLLECTED AS EARLY AS 12 NOON.", "nsi_id": "unitedstatespostalservice-a77078", "operator": "United States Postal Service", "operator:short": "USPS", "operator:type": "public", "operator:wikidata": "Q668687", "ref": "6242700002"}, "type": "Feature"}
{"dataset_attributes": {"@spider": "usps_collection_boxes", "spider:collection_time": "2023-09-22T08:24:47.468985"}, "geometry": {"coordinates": [-87.672007443, 38.900473557], "type": "Point"}, "id": "USh6Uqr8J2f_V8RVekoYl1EVXtk=", "properties": {"@spider": "usps_collection_boxes", "addr:city": "FLAT ROCK", "addr:country": "US", "addr:full": "201 W 2ND ST", "addr:postcode": "62427", "addr:state": "IL", "amenity": "post_box", "brand": "United States Postal Service", "brand:wikidata": "Q668687", "collection_times": "Mo-Fr 15:15; Sa 10:00", "name": "USPS COLLECTION BOX - PO LOBBY", "note": "ON 12/24 AND 12/31, THIS BOX MAY BE COLLECTED AS EARLY AS 12 NOON.", "nsi_id": "unitedstatespostalservice-a77078", "operator": "United States Postal Service", "operator:short": "USPS", "operator:type": "public", "operator:wikidata": "Q668687", "ref": "6242700004"}, "type": "Feature"}
{"dataset_attributes": {"@spider": "usps_collection_boxes", "spider:collection_time": "2023-09-22T08:24:47.468985"}, "geometry": {"coordinates": [-88.164128, 39.247314], "type": "Point"}, "id": "a9VzqE4nwH09lcqFtyBVJ5gdwAA=", "properties": {"@spider": "usps_collection_boxes", "addr:city": "GREENUP", "addr:country": "US", "addr:full": "125 E CUMBERLAND ST", "addr:postcode": "62428", "addr:state": "IL", "amenity": "post_box", "brand": "United States Postal Service", "brand:wikidata": "Q668687", "collection_times": "Mo-Fr 16:15; Sa 10:30", "name": "USPS COLLECTION BOX - BLUE BOX", "note": "ON 12/24 AND 12/31, THIS BOX MAY BE COLLECTED AS EARLY AS 12 NOON.", "nsi_id": "unitedstatespostalservice-a77078", "operator": "United States Postal Service", "operator:short": "USPS", "operator:type": "public", "operator:wikidata": "Q668687", "ref": "6242800001"}, "type": "Feature"}
{"dataset_attributes": {"@spider": "usps_collection_boxes", "spider:collection_time": "2023-09-22T08:24:47.468985"}, "geometry": {"coordinates": [-88.164195, 39.247324], "type": "Point"}, "id": "HIZdWcA5PRviKX9gVzUX0T6sCrI=", "properties": {"@spider": "usps_collection_boxes", "addr:city": "GREENUP", "addr:country": "US", "addr:full": "125 E CUMBERLAND ST", "addr:postcode": "62428", "addr:state": "IL", "amenity": "post_box", "brand": "United States Postal Service", "brand:wikidata": "Q668687", "collection_times": "Mo-Fr 16:15; Sa 10:30", "name": "USPS COLLECTION BOX - PO LOBBY", "note": "ON 12/24 AND 12/31, THIS BOX MAY BE COLLECTED AS EARLY AS 12 NOON.", "nsi_id": "unitedstatespostalservice-a77078", "operator": "United States Postal Service", "operator:short": "USPS", "operator:type": "public", "operator:wikidata": "Q668687", "ref": "6242800003"}, "type": "Feature"}
{"dataset_attributes": {"@spider": "usps_collection_boxes", "spider:collection_time": "2023-09-22T08:24:47.468985"}, "geometry": {"coordinates": [-88.164141362, 39.247259562], "type": "Point"}, "id": "ST2cq9Ullk6EHPV4LlaPcyU8mWc=", "properties": {"@spider": "usps_collection_boxes", "addr:city": "GREENUP", "addr:country": "US", "addr:full": "125 E CUMBERLAND ST", "addr:postcode": "62428", "addr:state": "IL", "amenity": "post_box", "brand": "United States Postal Service", "brand:wikidata": "Q668687", "collection_times": "Mo-Fr 16:15; Sa 10:30", "name": "USPS COLLECTION BOX - PO LOBBY", "note": "ON 12/24 AND 12/31, THIS BOX MAY BE COLLECTED AS EARLY AS 12 NOON.", "nsi_id": "unitedstatespostalservice-a77078", "operator": "United States Postal Service", "operator:short": "USPS", "operator:type": "public", "operator:wikidata": "Q668687", "ref": "6242800005"}, "type": "Feature"}
{"dataset_attributes": {"@spider": "usps_collection_boxes", "spider:collection_time": "2023-09-22T08:24:47.468985"}, "geometry": {"coordinates": [-88.984716, 39.219855], "type": "Point"}, "id": "dNqNMiX0z2tYFoc7zzUncHuDtXM=", "properties": {"@spider": "usps_collection_boxes", "addr:city": "HERRICK", "addr:country": "US", "addr:full": "9 S BROADWAY ST", "addr:postcode": "62431", "addr:state": "IL", "amenity": "post_box", "brand": "United States Postal Service", "brand:wikidata": "Q668687", "collection_times": "Mo-Fr 14:45; Sa 09:45", "name": "USPS COLLECTION BOX - BLUE BOX", "note": "ON 12/24 AND 12/31, THIS BOX MAY BE COLLECTED AS EARLY AS 12 NOON.", "nsi_id": "unitedstatespostalservice-a77078", "operator": "United States Postal Service", "operator:short": "USPS", "operator:type": "public", "operator:wikidata": "Q668687", "ref": "6243100001"}, "type": "Feature"}
{"dataset_attributes": {"@spider": "usps_collection_boxes", "spider:collection_time": "2023-09-22T08:24:47.468985"}, "geometry": {"coordinates": [-88.98475, 39.219779], "type": "Point"}, "id": "TAE_CKmXnC5U8SzN1kAe1ES-hXk=", "properties": {"@spider": "usps_collection_boxes", "addr:city": "HERRICK", "addr:country": "US", "addr:full": "9 S BROADWAY ST", "addr:postcode": "62431", "addr:state": "IL", "amenity": "post_box", "brand": "United States Postal Service", "brand:wikidata": "Q668687", "collection_times": "Mo-Fr 14:45; Sa 09:45", "name": "USPS COLLECTION BOX - PO LOBBY", "note": "ON 12/24 AND 12/31, THIS BOX MAY BE COLLECTED AS EARLY AS 12 NOON.", "nsi_id": "unitedstatespostalservice-a77078", "operator": "United States Postal Service", "operator:short": "USPS", "operator:type": "public", "operator:wikidata": "Q668687", "ref": "6243100004"}, "type": "Feature"}
{"dataset_attributes": {"@spider": "usps_collection_boxes", "spider:collection_time": "2023-09-22T08:24:47.468985"}, "geometry": {"coordinates": [-88.984821386, 39.217730685], "type": "Point"}, "id": "VYivwi8gfdZWihQoMCi-sAHbqAg=", "properties": {"@spider": "usps_collection_boxes", "addr:city": "HERRICK", "addr:country": "US", "addr:full": "9 S BROADWAY ST", "addr:postcode": "62431", "addr:state": "IL", "amenity": "post_box", "brand": "United States Postal Service", "brand:wikidata": "Q668687", "collection_times": "Mo-Fr 14:45; Sa 09:45", "name": "USPS COLLECTION BOX - PO LOBBY", "note": "ON 12/24 AND 12/31, THIS BOX MAY BE COLLECTED AS EARLY AS 12 NOON.", "nsi_id": "unitedstatespostalservice-a77078", "operator": "United States Postal Service", "operator:short": "USPS", "operator:type": "public", "operator:wikidata": "Q668687", "ref": "6243100005"}, "type": "Feature"}
{"dataset_attributes": {"@spider": "usps_collection_boxes", "spider:collection_time": "2023-09-22T08:24:47.468985"}, "geometry": {"coordinates": [-88.149096, 39.156005], "type": "Point"}, "id": "jfMq79on7se1GmpSuwnVvfHRMEE=", "properties": {"@spider": "usps_collection_boxes", "addr:city": "HIDALGO", "addr:country": "US", "addr:full": "117 E HARRISON ST", "addr:postcode": "62432", "addr:state": "IL", "amenity": "post_box", "brand": "United States Postal Service", "brand:wikidata": "Q668687", "collection_times": "Mo-Fr 11:45; Sa 09:15", "name": "USPS COLLECTION BOX - BLUE BOX", "nsi_id": "unitedstatespostalservice-a77078", "operator": "United States Postal Service", "operator:short": "USPS", "operator:type": "public", "operator:wikidata": "Q668687", "ref": "6243200001"}, "type": "Feature"}
{"dataset_attributes": {"@spider": "usps_collection_boxes", "spider:collection_time": "2023-09-22T08:24:47.468985"}, "geometry": {"coordinates": [-88.1490435, 39.156092], "type": "Point"}, "id": "_cs5jHHSH78rsmr7bbf-ZGjZSaQ=", "properties": {"@spider": "usps_collection_boxes", "addr:city": "HIDALGO", "addr:country": "US", "addr:full": "117 E HARRISON ST", "addr:postcode": "62432", "addr:state": "IL", "amenity": "post_box", "brand": "United States Postal Service", "brand:wikidata": "Q668687", "collection_times": "Mo-Fr 11:45; Sa 09:15", "name": "USPS COLLECTION BOX - PO LOBBY", "nsi_id": "unitedstatespostalservice-a77078", "operator": "United States Postal Service", "operator:short": "USPS", "operator:type": "public", "operator:wikidata": "Q668687", "ref": "6243200002"}, "type": "Feature"}
{"dataset_attributes": {"@spider": "usps_collection_boxes", "spider:collection_time": "2023-09-22T08:24:47.468985"}, "geometry": {"coordinates": [-88.149515324, 39.156055575], "type": "Point"}, "id": "oHSUB3utVTdVa1FiFIyNqwEuckI=", "properties": {"@spider": "usps_collection_boxes", "addr:city": "HIDALGO", "addr:country": "US", "addr:full": "117 E HARRISON ST", "addr:postcode": "62432", "addr:state": "IL", "amenity": "post_box", "brand": "United States Postal Service", "brand:wikidata": "Q668687", "collection_times": "Mo-Fr 11:45; Sa 09:15", "name": "USPS COLLECTION BOX - PO LOBBY", "nsi_id": "unitedstatespostalservice-a77078", "operator": "United States Postal Service", "operator:short": "USPS", "operator:type": "public", "operator:wikidata": "Q668687", "ref": "6243200004"}, "type": "Feature"}
{"dataset_attributes": {"@spider": "usps_collection_boxes", "spider:collection_time": "2023-09-22T08:24:47.468985"}, "geometry": {"coordinates": [-87.656447, 39.109405], "type": "Point"}, "id": "fsi_gFGys9twQYvAYm_Qw2e9AgI=", "properties": {"@spider": "usps_collection_boxes", "addr:city": "HUTSONVILLE", "addr:country": "US", "addr:full": "114 S MAIN ST", "addr:postcode": "62433", "addr:state": "IL", "amenity": "post_box", "brand": "United States Postal Service", "brand:wikidata": "Q668687", "collection_times": "Mo-Fr 14:50; Sa 09:15", "name": "USPS COLLECTION BOX - BLUE BOX", "note": "ON 12/24 AND 12/31, THIS BOX MAY BE COLLECTED AS EARLY AS 12 NOON.", "nsi_id": "unitedstatespostalservice-a77078", "operator": "United States Postal Service", "operator:short": "USPS", "operator:type": "public", "operator:wikidata": "Q668687", "ref": "6243300001"}, "type": "Feature"}
{"dataset_attributes": {"@spider": "usps_collection_boxes", "spider:collection_time": "2023-09-22T08:24:47.468985"}, "geometry": {"coordinates": [-87.656447, 39.109405], "type": "Point"}, "id": "rX9tHkAbKfP2L7p4GIkoS88rAqc=", "properties": {"@spider": "usps_collection_boxes", "addr:city": "HUTSONVILLE", "addr:country": "US", "addr:full": "114 S MAIN ST", "addr:postcode": "62433", "addr:state": "IL", "amenity": "post_box", "brand": "United States Postal Service", "brand:wikidata": "Q668687", "collection_times": "Mo-Fr 14:50; Sa 09:15", "name": "USPS COLLECTION BOX - PO LOBBY", "note": "ON 12/24 AND 12/31, THIS BOX MAY BE COLLECTED AS EARLY AS 12 NOON.", "nsi_id": "unitedstatespostalservice-a77078", "operator": "United States Postal Service", "operator:short": "USPS", "operator:type": "public", "operator:wikidata": "Q668687", "ref": "6243300002"}, "type": "Feature"}
{"dataset_attributes": {"@spider": "usps_collection_boxes", "spider:collection_time": "2023-09-22T08:24:47.468985"}, "geometry": {"coordinates": [-87.656374189, 39.109397826], "type": "Point"}, "id": "d8mGvLANN4Q7ep0SmBL7zynP3LQ=", "properties": {"@spider": "usps_collection_boxes", "addr:city": "HUTSONVILLE", "addr:country": "US", "addr:full": "114 S MAIN ST", "addr:postcode": "62433", "addr:state": "IL", "amenity": "post_box", "brand": "United States Postal Service", "brand:wikidata": "Q668687", "collection_times": "Mo-Fr 14:45; Sa 09:15", "name": "USPS COLLECTION BOX - PO LOBBY", "note": "ON 12/24 AND 12/31, THIS BOX MAY BE COLLECTED AS EARLY AS 12 NOON.", "nsi_id": "unitedstatespostalservice-a77078", "operator": "United States Postal Service", "operator:short": "USPS", "operator:type": "public", "operator:wikidata": "Q668687", "ref": "6243300004"}, "type": "Feature"}
{"dataset_attributes": {"@spider": "usps_collection_boxes", "spider:collection_time": "2023-09-22T08:24:47.468985"}, "geometry": {"coordinates": [-88.332681, 38.831072], "type": "Point"}, "id": "O2i6j2s4VYl8EatMJ98hteSqbo4=", "properties": {"@spider": "usps_collection_boxes", "addr:city": "INGRAHAM", "addr:country": "US", "addr:full": "5253 OLD INGRAHAM RD", "addr:postcode": "62434", "addr:state": "IL", "amenity": "post_box", "brand": "United States Postal Service", "brand:wikidata": "Q668687", "collection_times": "Mo-Fr 12:45; Sa 10:30", "name": "USPS COLLECTION BOX - BLUE BOX", "note": "ON 12/24 AND 12/31, THIS BOX MAY BE COLLECTED AS EARLY AS 12 NOON.", "nsi_id": "unitedstatespostalservice-a77078", "operator": "United States Postal Service", "operator:short": "USPS", "operator:type": "public", "operator:wikidata": "Q668687", "ref": "6243400001"}, "type": "Feature"}
{"dataset_attributes": {"@spider": "usps_collection_boxes", "spider:collection_time": "2023-09-22T08:24:47.468985"}, "geometry": {"coordinates": [-88.332646, 38.831025], "type": "Point"}, "id": "-cRfZhuSHDDQEN__iWVDnmLrHWY=", "properties": {"@spider": "usps_collection_boxes", "addr:city": "INGRAHAM", "addr:country": "US", "addr:full": "5253 OLD INGRAHAM RD", "addr:postcode": "62434", "addr:state": "IL", "amenity": "post_box", "brand": "United States Postal Service", "brand:wikidata": "Q668687", "collection_times": "Mo-Fr 12:45; Sa 09:15", "name": "USPS COLLECTION BOX - PO LOBBY", "note": "ON 12/24 AND 12/31, THIS BOX MAY BE COLLECTED AS EARLY AS 12 NOON.", "nsi_id": "unitedstatespostalservice-a77078", "operator": "United States Postal Service", "operator:short": "USPS", "operator:type": "public", "operator:wikidata": "Q668687", "ref": "6243400002"}, "type": "Feature"}
{"dataset_attributes": {"@spider": "usps_collection_boxes", "spider:collection_time": "2023-09-22T08:24:47.468985"}, "geometry": {"coordinates": [-88.33276346, 38.83566108], "type": "Point"}, "id": "yhBKMWhpCHDERtxBZF7VHSXlqpY=", "properties": {"@spider": "usps_collection_boxes", "addr:city": "INGRAHAM", "addr:country": "US", "addr:full": "5253 OLD INGRAHAM RD", "addr:postcode": "62434", "addr:state": "IL", "amenity": "post_box", "brand": "United States Postal Service", "brand:wikidata": "Q668687", "collection_times": "Mo-Fr 12:45; Sa 10:45", "name": "USPS COLLECTION BOX - PO LOBBY", "note": "ON 12/24 AND 12/31, THIS BOX MAY BE COLLECTED AS EARLY AS 12 NOON.", "nsi_id": "unitedstatespostalservice-a77078", "operator": "United States Postal Service", "operator:short": "USPS", "operator:type": "public", "operator:wikidata": "Q668687", "ref": "6243400004"}, "type": "Feature"}
{"dataset_attributes": {"@spider": "usps_collection_boxes", "spider:collection_time": "2023-09-22T08:24:47.468985"}, "geometry": {"coordinates": [-88.245519, 39.207879], "type": "Point"}, "id": "bXogKJoTswia-ZUApa8T19I8EUY=", "properties": {"@spider": "usps_collection_boxes", "addr:city": "JEWETT", "addr:country": "US", "addr:full": "1100 CUMBERLAND RD", "addr:postcode": "62436", "addr:state": "IL", "amenity": "post_box", "brand": "United States Postal Service", "brand:wikidata": "Q668687", "collection_times": "Mo-Fr 11:45; Sa 09:15", "name": "USPS COLLECTION BOX - BLUE BOX", "nsi_id": "unitedstatespostalservice-a77078", "operator": "United States Postal Service", "operator:short": "USPS", "operator:type": "public", "operator:wikidata": "Q668687", "ref": "6243600001"}, "type": "Feature"}
{"dataset_attributes": {"@spider": "usps_collection_boxes", "spider:collection_time": "2023-09-22T08:24:47.468985"}, "geometry": {"coordinates": [-88.245398, 39.207881], "type": "Point"}, "id": "a4SYCztPO0JfHBYenOO0V5Xzqog=", "properties": {"@spider": "usps_collection_boxes", "addr:city": "JEWETT", "addr:country": "US", "addr:full": "1100 CUMBERLAND RD", "addr:postcode": "62436", "addr:state": "IL", "amenity": "post_box", "brand": "United States Postal Service", "brand:wikidata": "Q668687", "collection_times": "Mo-Fr 11:45; Sa 09:15", "name": "USPS COLLECTION BOX - PO LOBBY", "nsi_id": "unitedstatespostalservice-a77078", "operator": "United States Postal Service", "operator:short": "USPS", "operator:type": "public", "operator:wikidata": "Q668687", "ref": "6243600002"}, "type": "Feature"}
{"dataset_attributes": {"@spider": "usps_collection_boxes", "spider:collection_time": "2023-09-22T08:24:47.468985"}, "geometry": {"coordinates": [-88.245491024, 39.207921704], "type": "Point"}, "id": "dfoU140mUjNubW82QOoY_Zf4TfE=", "properties": {"@spider": "usps_collection_boxes", "addr:city": "JEWETT", "addr:country": "US", "addr:full": "1100 CUMBERLAND RD", "addr:postcode": "62436", "addr:state": "IL", "amenity": "post_box", "brand": "United States Postal Service", "brand:wikidata": "Q668687", "collection_times": "Mo-Fr 11:45; Sa 09:15", "name": "USPS COLLECTION BOX - PO LOBBY", "nsi_id": "unitedstatespostalservice-a77078", "operator": "United States Postal Service", "operator:short": "USPS", "operator:type": "public", "operator:wikidata": "Q668687", "ref": "6243600003"}, "type": "Feature"}
{"dataset_attributes": {"@spider": "usps_collection_boxes", "spider:collection_time": "2023-09-22T08:24:47.468985"}, "geometry": {"coordinates": [-87.68119, 38.728563], "type": "Point"}, "id": "kae0rdz79wwQtscmT0XhbGFC_E0=", "properties": {"@spider": "usps_collection_boxes", "addr:city": "LAWRENCEVILLE", "addr:country": "US", "addr:full": "1014 JEFFERSON ST", "addr:postcode": "62439", "addr:state": "IL", "amenity": "post_box", "brand": "United States Postal Service", "brand:wikidata": "Q668687", "collection_times": "Mo-Sa 15:30", "name": "USPS COLLECTION BOX - BLUE BOX", "note": "ON 12/24 AND 12/31, THIS BOX MAY BE COLLECTED AS EARLY AS 12 NOON.", "nsi_id": "unitedstatespostalservice-a77078", "operator": "United States Postal Service", "operator:short": "USPS", "operator:type": "public", "operator:wikidata": "Q668687", "ref": "6243900003"}, "type": "Feature"}
{"dataset_attributes": {"@spider": "usps_collection_boxes", "spider:collection_time": "2023-09-22T08:24:47.468985"}, "geometry": {"coordinates": [-87.681106, 38.728588], "type": "Point"}, "id": "5WQC71eApM_sJ3vjSF7ug2T9iYk=", "properties": {"@spider": "usps_collection_boxes", "addr:city": "LAWRENCEVILLE", "addr:country": "US", "addr:full": "1014 JEFFERSON ST", "addr:postcode": "62439", "addr:state": "IL", "amenity": "post_box", "brand": "United States Postal Service", "brand:wikidata": "Q668687", "collection_times": "Mo-Sa 15:30", "name": "USPS COLLECTION BOX - PO LOBBY", "note": "ON 12/24 AND 12/31, THIS BOX MAY BE COLLECTED AS EARLY AS 12 NOON.", "nsi_id": "unitedstatespostalservice-a77078", "operator": "United States Postal Service", "operator:short": "USPS", "operator:type": "public", "operator:wikidata": "Q668687", "ref": "6243900014"}, "type": "Feature"}
{"dataset_attributes": {"@spider": "usps_collection_boxes", "spider:collection_time": "2023-09-22T08:24:47.468985"}, "geometry": {"coordinates": [-87.68112278, 38.728551511], "type": "Point"}, "id": "35hBNBO5nAfkdjvMO127MFctt-k=", "properties": {"@spider": "usps_collection_boxes", "addr:city": "LAWRENCEVILLE", "addr:country": "US", "addr:full": "1014 JEFFERSON ST", "addr:postcode": "62439", "addr:state": "IL", "amenity": "post_box", "brand": "United States Postal Service", "brand:wikidata": "Q668687", "collection_times": "Mo-Sa 15:30", "name": "USPS COLLECTION BOX - PO LOBBY", "note": "ON 12/24 AND 12/31, THIS BOX MAY BE COLLECTED AS EARLY AS 12 NOON.", "nsi_id": "unitedstatespostalservice-a77078", "operator": "United States Postal Service", "operator:short": "USPS", "operator:type": "public", "operator:wikidata": "Q668687", "ref": "6243900019"}, "type": "Feature"}
{"dataset_attributes": {"@spider": "usps_collection_boxes", "spider:collection_time": "2023-09-22T08:24:47.468985"}, "geometry": {"coordinates": [-88.288392, 39.417912], "type": "Point"}, "id": "0__tkES7k9zUgOTXB5sgDK8J2Ps=", "properties": {"@spider": "usps_collection_boxes", "addr:city": "LERNA", "addr:country": "US", "addr:full": "513 MAIN ST", "addr:postcode": "62440", "addr:state": "IL", "amenity": "post_box", "brand": "United States Postal Service", "brand:wikidata": "Q668687", "collection_times": "Mo-Fr 15:30; Sa 10:00", "name": "USPS COLLECTION BOX - BLUE BOX", "note": "ON 12/24 AND 12/31, THIS BOX MAY BE COLLECTED AS EARLY AS 12 NOON.", "nsi_id": "unitedstatespostalservice-a77078", "operator": "United States Postal Service", "operator:short": "USPS", "operator:type": "public", "operator:wikidata": "Q668687", "ref": "6244000001"}, "type": "Feature"}
{"dataset_attributes": {"@spider": "usps_collection_boxes", "spider:collection_time": "2023-09-22T08:24:47.468985"}, "geometry": {"coordinates": [-88.288392, 39.417912], "type": "Point"}, "id": "x9XDNR1AY3ov7y_d1L8nuU2nRP4=", "properties": {"@spider": "usps_collection_boxes", "addr:city": "LERNA", "addr:country": "US", "addr:full": "513 MAIN ST", "addr:postcode": "62440", "addr:state": "IL", "amenity": "post_box", "brand": "United States Postal Service", "brand:wikidata": "Q668687", "collection_times": "Mo-Fr 15:30; Sa 09:45", "name": "USPS COLLECTION BOX - PO LOBBY", "note": "ON 12/24 AND 12/31, THIS BOX MAY BE COLLECTED AS EARLY AS 12 NOON.", "nsi_id": "unitedstatespostalservice-a77078", "operator": "United States Postal Service", "operator:short": "USPS", "operator:type": "public", "operator:wikidata": "Q668687", "ref": "6244000002"}, "type": "Feature"}
{"dataset_attributes": {"@spider": "usps_collection_boxes", "spider:collection_time": "2023-09-22T08:24:47.468985"}, "geometry": {"coordinates": [-88.288452009, 39.417829017], "type": "Point"}, "id": "vZFPOrGrDLfPl1J1BQ4plqrNbKA=", "properties": {"@spider": "usps_collection_boxes", "addr:city": "LERNA", "addr:country": "US", "addr:full": "513 MAIN ST", "addr:postcode": "62440", "addr:state": "IL", "amenity": "post_box", "brand": "United States Postal Service", "brand:wikidata": "Q668687", "collection_times": "Mo-Fr 14:30; Sa 10:00", "name": "USPS COLLECTION BOX - PO LOBBY", "note": "ON 12/24 AND 12/31, THIS BOX MAY BE COLLECTED AS EARLY AS 12 NOON.", "nsi_id": "unitedstatespostalservice-a77078", "operator": "United States Postal Service", "operator:short": "USPS", "operator:type": "public", "operator:wikidata": "Q668687", "ref": "6244000004"}, "type": "Feature"}
{"dataset_attributes": {"@spider": "usps_collection_boxes", "spider:collection_time": "2023-09-22T08:24:47.468985"}, "geometry": {"coordinates": [-87.694849, 39.391144], "type": "Point"}, "id": "5-fRVdyUrZTFPyCbHrrfGU9RTNo=", "properties": {"@spider": "usps_collection_boxes", "addr:city": "MARSHALL", "addr:country": "US", "addr:full": "115 N 7TH ST", "addr:postcode": "62441", "addr:state": "IL", "amenity": "post_box", "brand": "United States Postal Service", "brand:wikidata": "Q668687", "collection_times": "Mo-Fr 16:45; Sa 16:00", "name": "USPS COLLECTION BOX - BLUE BOX", "note": "ON 12/24 AND 12/31, THIS BOX MAY BE COLLECTED AS EARLY AS 12 NOON.", "nsi_id": "unitedstatespostalservice-a77078", "operator": "United States Postal Service", "operator:short": "USPS", "operator:type": "public", "operator:wikidata": "Q668687", "ref": "6244100001"}, "type": "Feature"}
{"dataset_attributes": {"@spider": "usps_collection_boxes", "spider:collection_time": "2023-09-22T08:24:47.468985"}, "geometry": {"coordinates": [-87.694844, 39.391074], "type": "Point"}, "id": "XUNUjYsjzr6Ost_eoinBFMTyLZ0=", "properties": {"@spider": "usps_collection_boxes", "addr:city": "MARSHALL", "addr:country": "US", "addr:full": "115 N 7TH ST", "addr:postcode": "62441", "addr:state": "IL", "amenity": "post_box", "brand": "United States Postal Service", "brand:wikidata": "Q668687", "collection_times": "Mo-Fr 16:45; Sa 16:00", "name": "USPS COLLECTION BOX - PO LOBBY", "note": "ON 12/24 AND 12/31, THIS BOX MAY BE COLLECTED AS EARLY AS 12 NOON.", "nsi_id": "unitedstatespostalservice-a77078", "operator": "United States Postal Service", "operator:short": "USPS", "operator:type": "public", "operator:wikidata": "Q668687", "ref": "6244100003"}, "type": "Feature"}
{"dataset_attributes": {"@spider": "usps_collection_boxes", "spider:collection_time": "2023-09-22T08:24:47.468985"}, "geometry": {"coordinates": [-87.694844, 39.391074], "type": "Point"}, "id": "9qyHsS1DNeq4Sf2lRwmX6aw2ik4=", "properties": {"@spider": "usps_collection_boxes", "addr:city": "MARSHALL", "addr:country": "US", "addr:full": "115 N 7TH ST", "addr:postcode": "62441", "addr:state": "IL", "amenity": "post_box", "brand": "United States Postal Service", "brand:wikidata": "Q668687", "collection_times": "Mo-Fr 16:45; Sa 16:00", "name": "USPS COLLECTION BOX - BLUE BOX", "note": "ON 12/24 AND 12/31, THIS BOX MAY BE COLLECTED AS EARLY AS 12 NOON.", "nsi_id": "unitedstatespostalservice-a77078", "operator": "United States Postal Service", "operator:short": "USPS", "operator:type": "public", "operator:wikidata": "Q668687", "ref": "6244100006"}, "type": "Feature"}
{"dataset_attributes": {"@spider": "usps_collection_boxes", "spider:collection_time": "2023-09-22T08:24:47.468985"}, "geometry": {"coordinates": [-87.694817711, 39.391139011], "type": "Point"}, "id": "t3A7ZgaEbpyye5nRWQAsnxeGbLY=", "properties": {"@spider": "usps_collection_boxes", "addr:city": "MARSHALL", "addr:country": "US", "addr:full": "115 N 7TH ST", "addr:postcode": "62441", "addr:state": "IL", "amenity": "post_box", "brand": "United States Postal Service", "brand:wikidata": "Q668687", "collection_times": "Mo-Fr 16:45; Sa 16:00", "name": "USPS COLLECTION BOX - PO LOBBY", "note": "ON 12/24 AND 12/31, THIS BOX MAY BE COLLECTED AS EARLY AS 12 NOON.", "nsi_id": "unitedstatespostalservice-a77078", "operator": "United States Postal Service", "operator:short": "USPS", "operator:type": "public", "operator:wikidata": "Q668687", "ref": "6244100007"}, "type": "Feature"}
{"dataset_attributes": {"@spider": "usps_collection_boxes", "spider:collection_time": "2023-09-22T08:24:47.468985"}, "geometry": {"coordinates": [-87.882558, 39.333237], "type": "Point"}, "id": "fh4CjmnwBmJ0cTPtItAwTglGN-g=", "properties": {"@spider": "usps_collection_boxes", "addr:city": "MARTINSVILLE", "addr:country": "US", "addr:full": "2 N YORK ST", "addr:postcode": "62442", "addr:state": "IL", "amenity": "post_box", "brand": "United States Postal Service", "brand:wikidata": "Q668687", "collection_times": "Mo-Fr 16:30; Sa 10:45", "name": "USPS COLLECTION BOX - BLUE BOX", "note": "ON 12/24 AND 12/31, THIS BOX MAY BE COLLECTED AS EARLY AS 12 NOON.", "nsi_id": "unitedstatespostalservice-a77078", "operator": "United States Postal Service", "operator:short": "USPS", "operator:type": "public", "operator:wikidata": "Q668687", "ref": "6244200001"}, "type": "Feature"}
{"dataset_attributes": {"@spider": "usps_collection_boxes", "spider:collection_time": "2023-09-22T08:24:47.468985"}, "geometry": {"coordinates": [-87.882547, 39.333143], "type": "Point"}, "id": "F22MIu961eAcRTTJkB_0jW1pC_U=", "properties": {"@spider": "usps_collection_boxes", "addr:city": "MARTINSVILLE", "addr:country": "US", "addr:full": "2 N YORK ST", "addr:postcode": "62442", "addr:state": "IL", "amenity": "post_box", "brand": "United States Postal Service", "brand:wikidata": "Q668687", "collection_times": "Mo-Fr 16:30; Sa 10:45", "name": "USPS COLLECTION BOX - PO LOBBY", "note": "ON 12/24 AND 12/31, THIS BOX MAY BE COLLECTED AS EARLY AS 12 NOON.", "nsi_id": "unitedstatespostalservice-a77078", "operator": "United States Postal Service", "operator:short": "USPS", "operator:type": "public", "operator:wikidata": "Q668687", "ref": "6244200002"}, "type": "Feature"}
{"dataset_attributes": {"@spider": "usps_collection_boxes", "spider:collection_time": "2023-09-22T08:24:47.468985"}, "geometry": {"coordinates": [-87.882662327, 39.333419182], "type": "Point"}, "id": "RyzcEo_a04fIpvwRlXQIWMU8EWQ=", "properties": {"@spider": "usps_collection_boxes", "addr:city": "MARTINSVILLE", "addr:country": "US", "addr:full": "2 N YORK ST", "addr:postcode": "62442", "addr:state": "IL", "amenity": "post_box", "brand": "United States Postal Service", "brand:wikidata": "Q668687", "collection_times": "Mo-Fr 16:30; Sa 10:45", "name": "USPS COLLECTION BOX - PO LOBBY", "note": "ON 12/24 AND 12/31, THIS BOX MAY BE COLLECTED AS EARLY AS 12 NOON.", "nsi_id": "unitedstatespostalservice-a77078", "operator": "United States Postal Service", "operator:short": "USPS", "operator:type": "public", "operator:wikidata": "Q668687", "ref": "6244200005"}, "type": "Feature"}
{"dataset_attributes": {"@spider": "usps_collection_boxes", "spider:collection_time": "2023-09-22T08:24:47.468985"}, "geometry": {"coordinates": [-88.624767, 38.953636], "type": "Point"}, "id": "cHUAHCND_SkZwg7j0QlDhd32YTs=", "properties": {"@spider": "usps_collection_boxes", "addr:city": "MASON", "addr:country": "US", "addr:full": "755 ADAMS ST", "addr:postcode": "62443", "addr:state": "IL", "amenity": "post_box", "brand": "United States Postal Service", "brand:wikidata": "Q668687", "collection_times": "Mo-Fr 11:45; Sa 09:15", "name": "USPS COLLECTION BOX - PO LOBBY", "nsi_id": "unitedstatespostalservice-a77078", "operator": "United States Postal Service", "operator:short": "USPS", "operator:type": "public", "operator:wikidata": "Q668687", "ref": "6244300003"}, "type": "Feature"}
{"dataset_attributes": {"@spider": "usps_collection_boxes", "spider:collection_time": "2023-09-22T08:24:47.468985"}, "geometry": {"coordinates": [-88.624808847, 38.953719031], "type": "Point"}, "id": "2AhSHbogilpHGw68Xh6KJWc8iew=", "properties": {"@spider": "usps_collection_boxes", "addr:city": "MASON", "addr:country": "US", "addr:full": "755 ADAMS ST", "addr:postcode": "62443", "addr:state": "IL", "amenity": "post_box", "brand": "United States Postal Service", "brand:wikidata": "Q668687", "collection_times": "Mo-Fr 11:45; Sa 09:15", "name": "USPS COLLECTION BOX - PO LOBBY", "nsi_id": "unitedstatespostalservice-a77078", "operator": "United States Postal Service", "operator:short": "USPS", "operator:type": "public", "operator:wikidata": "Q668687", "ref": "6244300004"}, "type": "Feature"}
{"dataset_attributes": {"@spider": "usps_collection_boxes", "spider:collection_time": "2023-09-22T08:24:47.468985"}, "geometry": {"coordinates": [-88.381509, 39.164216], "type": "Point"}, "id": "UF6MauFK23pT_T6iRO229X8ZQ6k=", "properties": {"@spider": "usps_collection_boxes", "addr:city": "MONTROSE", "addr:country": "US", "addr:full": "301 W NATIONAL RD", "addr:postcode": "62445", "addr:state": "IL", "amenity": "post_box", "brand": "United States Postal Service", "brand:wikidata": "Q668687", "collection_times": "Mo-Fr 11:45; Sa 08:30", "name": "USPS COLLECTION BOX - BLUE BOX", "nsi_id": "unitedstatespostalservice-a77078", "operator": "United States Postal Service", "operator:short": "USPS", "operator:type": "public", "operator:wikidata": "Q668687", "ref": "6244500001"}, "type": "Feature"}
{"dataset_attributes": {"@spider": "usps_collection_boxes", "spider:collection_time": "2023-09-22T08:24:47.468985"}, "geometry": {"coordinates": [-88.38139, 39.164234], "type": "Point"}, "id": "stNKaaid1MabM5xw3TQJAWTtkl0=", "properties": {"@spider": "usps_collection_boxes", "addr:city": "MONTROSE", "addr:country": "US", "addr:full": "301 W NATIONAL RD", "addr:postcode": "62445", "addr:state": "IL", "amenity": "post_box", "brand": "United States Postal Service", "brand:wikidata": "Q668687", "collection_times": "Mo-Fr 11:45; Sa 08:30", "name": "USPS COLLECTION BOX - PO LOBBY", "nsi_id": "unitedstatespostalservice-a77078", "operator": "United States Postal Service", "operator:short": "USPS", "operator:type": "public", "operator:wikidata": "Q668687", "ref": "6244500002"}, "type": "Feature"}
{"dataset_attributes": {"@spider": "usps_collection_boxes", "spider:collection_time": "2023-09-22T08:24:47.468985"}, "geometry": {"coordinates": [-88.381574737, 39.164181222], "type": "Point"}, "id": "_DD5D-OSZcom8HcSekhIl5WGiFw=", "properties": {"@spider": "usps_collection_boxes", "addr:city": "MONTROSE", "addr:country": "US", "addr:full": "301 W NATIONAL RD", "addr:postcode": "62445", "addr:state": "IL", "amenity": "post_box", "brand": "United States Postal Service", "brand:wikidata": "Q668687", "collection_times": "Mo-Fr 11:45; Sa 08:30", "name": "USPS COLLECTION BOX - PO LOBBY", "nsi_id": "unitedstatespostalservice-a77078", "operator": "United States Postal Service", "operator:short": "USPS", "operator:type": "public", "operator:wikidata": "Q668687", "ref": "6244500004"}, "type": "Feature"}
{"dataset_attributes": {"@spider": "usps_collection_boxes", "spider:collection_time": "2023-09-22T08:24:47.468985"}, "geometry": {"coordinates": [-88.232421, 38.515161], "type": "Point"}, "id": "YJX-EfLpdyczzlkOmELG_wNleVo=", "properties": {"@spider": "usps_collection_boxes", "addr:city": "MOUNT ERIE", "addr:country": "US", "addr:full": "102 W MAIN ST", "addr:postcode": "62446", "addr:state": "IL", "amenity": "post_box", "brand": "United States Postal Service", "brand:wikidata": "Q668687", "collection_times": "Mo-Fr 11:45; Sa 09:45", "name": "USPS COLLECTION BOX - BLUE BOX", "nsi_id": "unitedstatespostalservice-a77078", "operator": "United States Postal Service", "operator:short": "USPS", "operator:type": "public", "operator:wikidata": "Q668687", "ref": "6244600001"}, "type": "Feature"}
{"dataset_attributes": {"@spider": "usps_collection_boxes", "spider:collection_time": "2023-09-22T08:24:47.468985"}, "geometry": {"coordinates": [-88.232421, 38.515161], "type": "Point"}, "id": "4hwuyca3Nb7PcoQLZjfADEXu1rw=", "properties": {"@spider": "usps_collection_boxes", "addr:city": "MOUNT ERIE", "addr:country": "US", "addr:full": "102 W MAIN ST", "addr:postcode": "62446", "addr:state": "IL", "amenity": "post_box", "brand": "United States Postal Service", "brand:wikidata": "Q668687", "collection_times": "Mo-Fr 11:45; Sa 09:45", "name": "USPS COLLECTION BOX - PO LOBBY", "nsi_id": "unitedstatespostalservice-a77078", "operator": "United States Postal Service", "operator:short": "USPS", "operator:type": "public", "operator:wikidata": "Q668687", "ref": "6244600002"}, "type": "Feature"}
{"dataset_attributes": {"@spider": "usps_collection_boxes", "spider:collection_time": "2023-09-22T08:24:47.468985"}, "geometry": {"coordinates": [-88.232733, 38.515162453], "type": "Point"}, "id": "393turBiT70Uiy2mlQa6EwMndTI=", "properties": {"@spider": "usps_collection_boxes", "addr:city": "MOUNT ERIE", "addr:country": "US", "addr:full": "102 W MAIN ST", "addr:postcode": "62446", "addr:state": "IL", "amenity": "post_box", "brand": "United States Postal Service", "brand:wikidata": "Q668687", "collection_times": "Mo-Fr 11:45; Sa 09:45", "name": "USPS COLLECTION BOX - PO LOBBY", "nsi_id": "unitedstatespostalservice-a77078", "operator": "United States Postal Service", "operator:short": "USPS", "operator:type": "public", "operator:wikidata": "Q668687", "ref": "6244600004"}, "type": "Feature"}
{"dataset_attributes": {"@spider": "usps_collection_boxes", "spider:collection_time": "2023-09-22T08:24:47.468985"}, "geometry": {"coordinates": [-88.450207, 39.318868], "type": "Point"}, "id": "g7DgDuszEYG0rR9IH2SU2i9hu4Y=", "properties": {"@spider": "usps_collection_boxes", "addr:city": "NEOGA", "addr:country": "US", "addr:full": "256 E 6TH ST", "addr:postcode": "62447", "addr:state": "IL", "amenity": "post_box", "brand": "United States Postal Service", "brand:wikidata": "Q668687", "collection_times": "Mo-Fr 15:45; Sa 08:45", "name": "USPS COLLECTION BOX - BLUE BOX", "note": "ON 12/24 AND 12/31, THIS BOX MAY BE COLLECTED AS EARLY AS 12 NOON.", "nsi_id": "unitedstatespostalservice-a77078", "operator": "United States Postal Service", "operator:short": "USPS", "operator:type": "public", "operator:wikidata": "Q668687", "ref": "6244700001"}, "type": "Feature"}
{"dataset_attributes": {"@spider": "usps_collection_boxes", "spider:collection_time": "2023-09-22T08:24:47.468985"}, "geometry": {"coordinates": [-88.450203, 39.318839], "type": "Point"}, "id": "w7S_IDkpVcf42Go36DiCSXzIBmA=", "properties": {"@spider": "usps_collection_boxes", "addr:city": "NEOGA", "addr:country": "US", "addr:full": "256 E 6TH ST", "addr:postcode": "62447", "addr:state": "IL", "amenity": "post_box", "brand": "United States Postal Service", "brand:wikidata": "Q668687", "collection_times": "Mo-Fr 15:45; Sa 08:45", "name": "USPS COLLECTION BOX - PO LOBBY", "note": "ON 12/24 AND 12/31, THIS BOX MAY BE COLLECTED AS EARLY AS 12 NOON.", "nsi_id": "unitedstatespostalservice-a77078", "operator": "United States Postal Service", "operator:short": "USPS", "operator:type": "public", "operator:wikidata": "Q668687", "ref": "6244700002"}, "type": "Feature"}
{"dataset_attributes": {"@spider": "usps_collection_boxes", "spider:collection_time": "2023-09-22T08:24:47.468985"}, "geometry": {"coordinates": [-88.450212594, 39.318750899], "type": "Point"}, "id": "dDKCXTdKh8hcYjGEIeWohM72NoA=", "properties": {"@spider": "usps_collection_boxes", "addr:city": "NEOGA", "addr:country": "US", "addr:full": "256 E 6TH ST", "addr:postcode": "62447", "addr:state": "IL", "amenity": "post_box", "brand": "United States Postal Service", "brand:wikidata": "Q668687", "collection_times": "Mo-Fr 15:45; Sa 08:45", "name": "USPS COLLECTION BOX - PO LOBBY", "note": "ON 12/24 AND 12/31, THIS BOX MAY BE COLLECTED AS EARLY AS 12 NOON.", "nsi_id": "unitedstatespostalservice-a77078", "operator": "United States Postal Service", "operator:short": "USPS", "operator:type": "public", "operator:wikidata": "Q668687", "ref": "6244700004"}, "type": "Feature"}
{"dataset_attributes": {"@spider": "usps_collection_boxes", "spider:collection_time": "2023-09-22T08:24:47.468985"}, "geometry": {"coordinates": [-88.162694, 38.990951], "type": "Point"}, "id": "b4_40qR-yX9CJsX5Qh6CmFFy3Ro=", "properties": {"@spider": "usps_collection_boxes", "addr:city": "NEWTON", "addr:country": "US", "addr:full": "201 W JOURDAN ST", "addr:postcode": "62448", "addr:state": "IL", "amenity": "post_box", "brand": "United States Postal Service", "brand:wikidata": "Q668687", "collection_times": "Mo-Fr 17:00; Sa 10:00", "name": "USPS COLLECTION BOX - BLUE BOX", "note": "ON 12/24 AND 12/31, THIS BOX MAY BE COLLECTED AS EARLY AS 12 NOON.", "nsi_id": "unitedstatespostalservice-a77078", "operator": "United States Postal Service", "operator:short": "USPS", "operator:type": "public", "operator:wikidata": "Q668687", "ref": "6244800001"}, "type": "Feature"}
{"dataset_attributes": {"@spider": "usps_collection_boxes", "spider:collection_time": "2023-09-22T08:24:47.468985"}, "geometry": {"coordinates": [-88.162578, 38.990924], "type": "Point"}, "id": "qVBgpIXO6y5PuqBMaAcfhxwmyNw=", "properties": {"@spider": "usps_collection_boxes", "addr:city": "NEWTON", "addr:country": "US", "addr:full": "201 W JOURDAN ST", "addr:postcode": "62448", "addr:state": "IL", "amenity": "post_box", "brand": "United States Postal Service", "brand:wikidata": "Q668687", "collection_times": "Mo-Fr 17:00; Sa 10:00", "name": "USPS COLLECTION BOX - BLUE BOX", "note": "ON 12/24 AND 12/31, THIS BOX MAY BE COLLECTED AS EARLY AS 12 NOON.", "nsi_id": "unitedstatespostalservice-a77078", "operator": "United States Postal Service", "operator:short": "USPS", "operator:type": "public", "operator:wikidata": "Q668687", "ref": "6244800004"}, "type": "Feature"}
{"dataset_attributes": {"@spider": "usps_collection_boxes", "spider:collection_time": "2023-09-22T08:24:47.468985"}, "geometry": {"coordinates": [-88.162578, 38.990924], "type": "Point"}, "id": "0o_56RVBs3QJO1mBHyN7gHGTWDM=", "properties": {"@spider": "usps_collection_boxes", "addr:city": "NEWTON", "addr:country": "US", "addr:full": "201 W JOURDAN ST", "addr:postcode": "62448", "addr:state": "IL", "amenity": "post_box", "brand": "United States Postal Service", "brand:wikidata": "Q668687", "collection_times": "Mo-Fr 17:00; Sa 10:00", "name": "USPS COLLECTION BOX - PO LOBBY", "note": "ON 12/24 AND 12/31, THIS BOX MAY BE COLLECTED AS EARLY AS 12 NOON.", "nsi_id": "unitedstatespostalservice-a77078", "operator": "United States Postal Service", "operator:short": "USPS", "operator:type": "public", "operator:wikidata": "Q668687", "ref": "6244800013"}, "type": "Feature"}
{"dataset_attributes": {"@spider": "usps_collection_boxes", "spider:collection_time": "2023-09-22T08:24:47.468985"}, "geometry": {"coordinates": [-88.162578, 38.990924], "type": "Point"}, "id": "1oG5VymAVVHfaiJBH_mTJGvfs6Q=", "properties": {"@spider": "usps_collection_boxes", "addr:city": "NEWTON", "addr:country": "US", "addr:full": "201 W JOURDAN ST", "addr:postcode": "62448", "addr:state": "IL", "amenity": "post_box", "brand": "United States Postal Service", "brand:wikidata": "Q668687", "collection_times": "Mo-Fr 17:00; Sa 10:00", "name": "USPS COLLECTION BOX - PO LOBBY", "note": "ON 12/24 AND 12/31, THIS BOX MAY BE COLLECTED AS EARLY AS 12 NOON.", "nsi_id": "unitedstatespostalservice-a77078", "operator": "United States Postal Service", "operator:short": "USPS", "operator:type": "public", "operator:wikidata": "Q668687", "ref": "6244800016"}, "type": "Feature"}
{"dataset_attributes": {"@spider": "usps_collection_boxes", "spider:collection_time": "2023-09-22T08:24:47.468985"}, "geometry": {"coordinates": [-88.162660536, 38.990989536], "type": "Point"}, "id": "wibnZzQkGlvUa_RJnJv2QBxsf-o=", "properties": {"@spider": "usps_collection_boxes", "addr:city": "NEWTON", "addr:country": "US", "addr:full": "201 W JOURDAN ST", "addr:postcode": "62448", "addr:state": "IL", "amenity": "post_box", "brand": "United States Postal Service", "brand:wikidata": "Q668687", "collection_times": "Mo-Fr 17:00; Sa 10:00", "name": "USPS COLLECTION BOX - PO LOBBY", "note": "ON 12/24 AND 12/31, THIS BOX MAY BE COLLECTED AS EARLY AS 12 NOON.", "nsi_id": "unitedstatespostalservice-a77078", "operator": "United States Postal Service", "operator:short": "USPS", "operator:type": "public", "operator:wikidata": "Q668687", "ref": "6244800018"}, "type": "Feature"}
{"dataset_attributes": {"@spider": "usps_collection_boxes", "spider:collection_time": "2023-09-22T08:24:47.468985"}, "geometry": {"coordinates": [-87.9087829, 39.003289], "type": "Point"}, "id": "Ug8ZY7lyaKXFU5GKCDWsQb7r0iU=", "properties": {"@spider": "usps_collection_boxes", "addr:city": "OBLONG", "addr:country": "US", "addr:full": "207 N RANGE ST", "addr:postcode": "62449", "addr:state": "IL", "amenity": "post_box", "brand": "United States Postal Service", "brand:wikidata": "Q668687", "collection_times": "Mo-Fr 15:45; Sa 08:00", "name": "USPS COLLECTION BOX - BLUE BOX", "note": "ON 12/24 AND 12/31, THIS BOX MAY BE COLLECTED AS EARLY AS 12 NOON.", "nsi_id": "unitedstatespostalservice-a77078", "operator": "United States Postal Service", "operator:short": "USPS", "operator:type": "public", "operator:wikidata": "Q668687", "ref": "6244900002"}, "type": "Feature"}
{"dataset_attributes": {"@spider": "usps_collection_boxes", "spider:collection_time": "2023-09-22T08:24:47.468985"}, "geometry": {"coordinates": [-87.9088376, 39.003557], "type": "Point"}, "id": "uDIaSs72j3B5WJRjGBNlq32k8-4=", "properties": {"@spider": "usps_collection_boxes", "addr:city": "OBLONG", "addr:country": "US", "addr:full": "207 N RANGE ST", "addr:postcode": "62449", "addr:state": "IL", "amenity": "post_box", "brand": "United States Postal Service", "brand:wikidata": "Q668687", "collection_times": "Mo-Fr 15:45; Sa 10:15", "name": "USPS COLLECTION BOX - PO LOBBY", "note": "ON 12/24 AND 12/31, THIS BOX MAY BE COLLECTED AS EARLY AS 12 NOON.", "nsi_id": "unitedstatespostalservice-a77078", "operator": "United States Postal Service", "operator:short": "USPS", "operator:type": "public", "operator:wikidata": "Q668687", "ref": "6244900003"}, "type": "Feature"}
{"dataset_attributes": {"@spider": "usps_collection_boxes", "spider:collection_time": "2023-09-22T08:24:47.468985"}, "geometry": {"coordinates": [-87.908906642, 39.003569864], "type": "Point"}, "id": "WysmHUs7wZsOFuPvyzpmHqtPozc=", "properties": {"@spider": "usps_collection_boxes", "addr:city": "OBLONG", "addr:country": "US", "addr:full": "207 N RANGE ST", "addr:postcode": "62449", "addr:state": "IL", "amenity": "post_box", "brand": "United States Postal Service", "brand:wikidata": "Q668687", "collection_times": "Mo-Fr 15:45; Sa 10:15", "name": "USPS COLLECTION BOX - PO LOBBY", "note": "ON 12/24 AND 12/31, THIS BOX MAY BE COLLECTED AS EARLY AS 12 NOON.", "nsi_id": "unitedstatespostalservice-a77078", "operator": "United States Postal Service", "operator:short": "USPS", "operator:type": "public", "operator:wikidata": "Q668687", "ref": "6244900006"}, "type": "Feature"}
{"dataset_attributes": {"@spider": "usps_collection_boxes", "spider:collection_time": "2023-09-22T08:24:47.468985"}, "geometry": {"coordinates": [-88.084819, 38.728271], "type": "Point"}, "id": "jQt30KJimoGo_z1MYyYtuZtsps4=", "properties": {"@spider": "usps_collection_boxes", "addr:city": "OLNEY", "addr:country": "US", "addr:full": "330 S WHITTLE AVE", "addr:postcode": "62450", "addr:state": "IL", "amenity": "post_box", "brand": "United States Postal Service", "brand:wikidata": "Q668687", "collection_times": "Mo-Fr 16:30; Sa 15:30", "name": "USPS COLLECTION BOX - BLUE BOX", "note": "ON 12/24 AND 12/31, THIS BOX MAY BE COLLECTED AS EARLY AS 12 NOON.", "nsi_id": "unitedstatespostalservice-a77078", "operator": "United States Postal Service", "operator:short": "USPS", "operator:type": "public", "operator:wikidata": "Q668687", "ref": "6245000001"}, "type": "Feature"}
{"dataset_attributes": {"@spider": "usps_collection_boxes", "spider:collection_time": "2023-09-22T08:24:47.468985"}, "geometry": {"coordinates": [-88.0843833, 38.730529], "type": "Point"}, "id": "kkDfcMxZr91iOMdAa8nbffWYBoU=", "properties": {"@spider": "usps_collection_boxes", "addr:city": "OLNEY", "addr:country": "US", "addr:full": "100 E MARKET ST", "addr:postcode": "62450", "addr:state": "IL", "amenity": "post_box", "brand": "United States Postal Service", "brand:wikidata": "Q668687", "collection_times": "Mo-Sa 15:00", "name": "USPS COLLECTION BOX - BLUE BOX", "note": "ON 12/24 AND 12/31, THIS BOX MAY BE COLLECTED AS EARLY AS 12 NOON.", "nsi_id": "unitedstatespostalservice-a77078", "operator": "United States Postal Service", "operator:short": "USPS", "operator:type": "public", "operator:wikidata": "Q668687", "ref": "6245000002"}, "type": "Feature"}
{"dataset_attributes": {"@spider": "usps_collection_boxes", "spider:collection_time": "2023-09-22T08:24:47.468985"}, "geometry": {"coordinates": [-88.0946945, 38.7325], "type": "Point"}, "id": "fVOXIeAHoKBrsFS_gu9-IjXCsdg=", "properties": {"@spider": "usps_collection_boxes", "addr:city": "OLNEY", "addr:country": "US", "addr:full": "215 N WEST ST", "addr:postcode": "62450", "addr:state": "IL", "amenity": "post_box", "brand": "United States Postal Service", "brand:wikidata": "Q668687", "collection_times": "Mo-Sa 14:45", "name": "USPS COLLECTION BOX - BLUE BOX", "note": "ON 12/24 AND 12/31, THIS BOX MAY BE COLLECTED AS EARLY AS 12 NOON.", "nsi_id": "unitedstatespostalservice-a77078", "operator": "United States Postal Service", "operator:short": "USPS", "operator:type": "public", "operator:wikidata": "Q668687", "ref": "6245000012"}, "type": "Feature"}
{"dataset_attributes": {"@spider": "usps_collection_boxes", "spider:collection_time": "2023-09-22T08:24:47.468985"}, "geometry": {"coordinates": [-88.0939108, 38.72363], "type": "Point"}, "id": "RxNuQAAZYWAMDX3CalmFs208-h8=", "properties": {"@spider": "usps_collection_boxes", "addr:city": "OLNEY", "addr:country": "US", "addr:full": "710 S WEST ST", "addr:postcode": "62450", "addr:state": "IL", "amenity": "post_box", "brand": "United States Postal Service", "brand:wikidata": "Q668687", "collection_times": "Mo-Sa 14:00", "name": "USPS COLLECTION BOX - BLUE BOX", "note": "ON 12/24 AND 12/31, THIS BOX MAY BE COLLECTED AS EARLY AS 12 NOON.", "nsi_id": "unitedstatespostalservice-a77078", "operator": "United States Postal Service", "operator:short": "USPS", "operator:type": "public", "operator:wikidata": "Q668687", "ref": "6245000021"}, "type": "Feature"}
{"dataset_attributes": {"@spider": "usps_collection_boxes", "spider:collection_time": "2023-09-22T08:24:47.468985"}, "geometry": {"coordinates": [-88.0827576, 38.731953], "type": "Point"}, "id": "eIG0dCY6JjrwfidX2jHurDDQW-E=", "properties": {"@spider": "usps_collection_boxes", "addr:city": "OLNEY", "addr:country": "US", "addr:full": "208 N BOONE ST", "addr:postcode": "62450", "addr:state": "IL", "amenity": "post_box", "brand": "United States Postal Service", "brand:wikidata": "Q668687", "collection_times": "Mo-Sa 15:00", "name": "USPS COLLECTION BOX - BLUE BOX", "note": "ON 12/24 AND 12/31, THIS BOX MAY BE COLLECTED AS EARLY AS 12 NOON.", "nsi_id": "unitedstatespostalservice-a77078", "operator": "United States Postal Service", "operator:short": "USPS", "operator:type": "public", "operator:wikidata": "Q668687", "ref": "6245000028"}, "type": "Feature"}
{"dataset_attributes": {"@spider": "usps_collection_boxes", "spider:collection_time": "2023-09-22T08:24:47.468985"}, "geometry": {"coordinates": [-88.084853, 38.728306], "type": "Point"}, "id": "gTa3nChmh8rNUrbBPmeiSWAb4-M=", "properties": {"@spider": "usps_collection_boxes", "addr:city": "OLNEY", "addr:country": "US", "addr:full": "330 S WHITTLE AVE", "addr:postcode": "62450", "addr:state": "IL", "amenity": "post_box", "brand": "United States Postal Service", "brand:wikidata": "Q668687", "collection_times": "Mo-Fr 16:30; Sa 15:30", "name": "USPS COLLECTION BOX - PO LOBBY", "note": "ON 12/24 AND 12/31, THIS BOX MAY BE COLLECTED AS EARLY AS 12 NOON.", "nsi_id": "unitedstatespostalservice-a77078", "operator": "United States Postal Service", "operator:short": "USPS", "operator:type": "public", "operator:wikidata": "Q668687", "ref": "6245000031"}, "type": "Feature"}
{"dataset_attributes": {"@spider": "usps_collection_boxes", "spider:collection_time": "2023-09-22T08:24:47.468985"}, "geometry": {"coordinates": [-88.084818799, 38.728890587], "type": "Point"}, "id": "G416BufWT1kQrpDOtu5oiwH2W-s=", "properties": {"@spider": "usps_collection_boxes", "addr:city": "OLNEY", "addr:country": "US", "addr:full": "330 S WHITTLE AVE", "addr:postcode": "62450", "addr:state": "IL", "amenity": "post_box", "brand": "United States Postal Service", "brand:wikidata": "Q668687", "collection_times": "Mo-Fr 16:30; Sa 15:30", "name": "USPS COLLECTION BOX - PO LOBBY", "note": "ON 12/24 AND 12/31, THIS BOX MAY BE COLLECTED AS EARLY AS 12 NOON.", "nsi_id": "unitedstatespostalservice-a77078", "operator": "United States Postal Service", "operator:short": "USPS", "operator:type": "public", "operator:wikidata": "Q668687", "ref": "6245000036"}, "type": "Feature"}
{"dataset_attributes": {"@spider": "usps_collection_boxes", "spider:collection_time": "2023-09-22T08:24:47.468985"}, "geometry": {"coordinates": [-87.612965, 39.002819], "type": "Point"}, "id": "zXKF1S0Rb7Lr_wkVuFmf6OIFoiY=", "properties": {"@spider": "usps_collection_boxes", "addr:city": "PALESTINE", "addr:country": "US", "addr:full": "107 W MARKET ST", "addr:postcode": "62451", "addr:state": "IL", "amenity": "post_box", "brand": "United States Postal Service", "brand:wikidata": "Q668687", "collection_times": "Mo-Fr 15:30; Sa 10:15", "name": "USPS COLLECTION BOX - BLUE BOX", "note": "ON 12/24 AND 12/31, THIS BOX MAY BE COLLECTED AS EARLY AS 12 NOON.", "nsi_id": "unitedstatespostalservice-a77078", "operator": "United States Postal Service", "operator:short": "USPS", "operator:type": "public", "operator:wikidata": "Q668687", "ref": "6245100001"}, "type": "Feature"}
{"dataset_attributes": {"@spider": "usps_collection_boxes", "spider:collection_time": "2023-09-22T08:24:47.468985"}, "geometry": {"coordinates": [-87.612862, 39.002843], "type": "Point"}, "id": "H74SujhvzCc7DEg-Ug7-my7GCC4=", "properties": {"@spider": "usps_collection_boxes", "addr:city": "PALESTINE", "addr:country": "US", "addr:full": "107 W MARKET ST", "addr:postcode": "62451", "addr:state": "IL", "amenity": "post_box", "brand": "United States Postal Service", "brand:wikidata": "Q668687", "collection_times": "Mo-Fr 15:30; Sa 10:15", "name": "USPS COLLECTION BOX - PO LOBBY", "note": "ON 12/24 AND 12/31, THIS BOX MAY BE COLLECTED AS EARLY AS 12 NOON.", "nsi_id": "unitedstatespostalservice-a77078", "operator": "United States Postal Service", "operator:short": "USPS", "operator:type": "public", "operator:wikidata": "Q668687", "ref": "6245100004"}, "type": "Feature"}
{"dataset_attributes": {"@spider": "usps_collection_boxes", "spider:collection_time": "2023-09-22T08:24:47.468985"}, "geometry": {"coordinates": [-87.612929273, 39.002762449], "type": "Point"}, "id": "fHPNSziUTFKlgXVQoI1Us-T7qAw=", "properties": {"@spider": "usps_collection_boxes", "addr:city": "PALESTINE", "addr:country": "US", "addr:full": "107 W MARKET ST", "addr:postcode": "62451", "addr:state": "IL", "amenity": "post_box", "brand": "United States Postal Service", "brand:wikidata": "Q668687", "collection_times": "Mo-Fr 15:30; Sa 10:15", "name": "USPS COLLECTION BOX - PO LOBBY", "note": "ON 12/24 AND 12/31, THIS BOX MAY BE COLLECTED AS EARLY AS 12 NOON.", "nsi_id": "unitedstatespostalservice-a77078", "operator": "United States Postal Service", "operator:short": "USPS", "operator:type": "public", "operator:wikidata": "Q668687", "ref": "6245100007"}, "type": "Feature"}
{"dataset_attributes": {"@spider": "usps_collection_boxes", "spider:collection_time": "2023-09-22T08:24:47.468985"}, "geometry": {"coordinates": [-88.056517, 38.589762], "type": "Point"}, "id": "HT9i4jgV113V9DTe57_IPIdXSi0=", "properties": {"@spider": "usps_collection_boxes", "addr:city": "PARKERSBURG", "addr:country": "US", "addr:full": "101 N MAIN ST", "addr:postcode": "62452", "addr:state": "IL", "amenity": "post_box", "brand": "United States Postal Service", "brand:wikidata": "Q668687", "collection_times": "Mo-Fr 11:45; Sa 09:30", "name": "USPS COLLECTION BOX - BLUE BOX", "nsi_id": "unitedstatespostalservice-a77078", "operator": "United States Postal Service", "operator:short": "USPS", "operator:type": "public", "operator:wikidata": "Q668687", "ref": "6245200001"}, "type": "Feature"}
{"dataset_attributes": {"@spider": "usps_collection_boxes", "spider:collection_time": "2023-09-22T08:24:47.468985"}, "geometry": {"coordinates": [-88.056517, 38.589762], "type": "Point"}, "id": "MNJQSQ0H_k55WrLIyIBHiLiZTQ8=", "properties": {"@spider": "usps_collection_boxes", "addr:city": "PARKERSBURG", "addr:country": "US", "addr:full": "101 N MAIN ST", "addr:postcode": "62452", "addr:state": "IL", "amenity": "post_box", "brand": "United States Postal Service", "brand:wikidata": "Q668687", "collection_times": "Mo-Fr 11:45; Sa 09:30", "name": "USPS COLLECTION BOX - PO LOBBY", "nsi_id": "unitedstatespostalservice-a77078", "operator": "United States Postal Service", "operator:short": "USPS", "operator:type": "public", "operator:wikidata": "Q668687", "ref": "6245200002"}, "type": "Feature"}
{"dataset_attributes": {"@spider": "usps_collection_boxes", "spider:collection_time": "2023-09-22T08:24:47.468985"}, "geometry": {"coordinates": [-88.056578805, 38.589816976], "type": "Point"}, "id": "Zcvclquy5PvFogk5JJznK7pSjdo=", "properties": {"@spider": "usps_collection_boxes", "addr:city": "PARKERSBURG", "addr:country": "US", "addr:full": "101 N MAIN ST", "addr:postcode": "62452", "addr:state": "IL", "amenity": "post_box", "brand": "United States Postal Service", "brand:wikidata": "Q668687", "collection_times": "Mo-Fr 11:45; Sa 09:30", "name": "USPS COLLECTION BOX - PO LOBBY", "nsi_id": "unitedstatespostalservice-a77078", "operator": "United States Postal Service", "operator:short": "USPS", "operator:type": "public", "operator:wikidata": "Q668687", "ref": "6245200004"}, "type": "Feature"}
{"dataset_attributes": {"@spider": "usps_collection_boxes", "spider:collection_time": "2023-09-22T08:24:47.468985"}, "geometry": {"coordinates": [-87.738876, 39.00493], "type": "Point"}, "id": "1bW8fxr_5xmMC2MWfPv7dHUEsx8=", "properties": {"@spider": "usps_collection_boxes", "addr:city": "ROBINSON", "addr:country": "US", "addr:full": "101 E WALNUT ST", "addr:postcode": "62454", "addr:state": "IL", "amenity": "post_box", "brand": "United States Postal Service", "brand:wikidata": "Q668687", "collection_times": "Mo-Fr 15:55; Sa 10:55", "name": "USPS COLLECTION BOX - BLUE BOX", "note": "ON 12/24 AND 12/31, THIS BOX MAY BE COLLECTED AS EARLY AS 12 NOON.", "nsi_id": "unitedstatespostalservice-a77078", "operator": "United States Postal Service", "operator:short": "USPS", "operator:type": "public", "operator:wikidata": "Q668687", "ref": "6245400001"}, "type": "Feature"}
{"dataset_attributes": {"@spider": "usps_collection_boxes", "spider:collection_time": "2023-09-22T08:24:47.468985"}, "geometry": {"coordinates": [-87.738929, 39.005024], "type": "Point"}, "id": "0YXlzLBTFyWdM8Ngus34esYgGRY=", "properties": {"@spider": "usps_collection_boxes", "addr:city": "ROBINSON", "addr:country": "US", "addr:full": "101 E WALNUT ST", "addr:postcode": "62454", "addr:state": "IL", "amenity": "post_box", "brand": "United States Postal Service", "brand:wikidata": "Q668687", "collection_times": "Mo-Fr 15:55; Sa 10:55", "name": "USPS COLLECTION BOX - BLUE BOX", "note": "ON 12/24 AND 12/31, THIS BOX MAY BE COLLECTED AS EARLY AS 12 NOON.", "nsi_id": "unitedstatespostalservice-a77078", "operator": "United States Postal Service", "operator:short": "USPS", "operator:type": "public", "operator:wikidata": "Q668687", "ref": "6245400002"}, "type": "Feature"}
{"dataset_attributes": {"@spider": "usps_collection_boxes", "spider:collection_time": "2023-09-22T08:24:47.468985"}, "geometry": {"coordinates": [-87.7527508, 39.006605], "type": "Point"}, "id": "9s140LW-zV62xpfF78DCiB7L51g=", "properties": {"@spider": "usps_collection_boxes", "addr:city": "ROBINSON", "addr:country": "US", "addr:full": "1306 W MAIN ST", "addr:postcode": "62454", "addr:state": "IL", "amenity": "post_box", "brand": "United States Postal Service", "brand:wikidata": "Q668687", "collection_times": "Mo-Sa 11:00", "name": "USPS COLLECTION BOX - BLUE BOX", "nsi_id": "unitedstatespostalservice-a77078", "operator": "United States Postal Service", "operator:short": "USPS", "operator:type": "public", "operator:wikidata": "Q668687", "ref": "6245400007"}, "type": "Feature"}
{"dataset_attributes": {"@spider": "usps_collection_boxes", "spider:collection_time": "2023-09-22T08:24:47.468985"}, "geometry": {"coordinates": [-87.738929, 39.005024], "type": "Point"}, "id": "TZtef93oXE07c-wex4ds8Z5mx24=", "properties": {"@spider": "usps_collection_boxes", "addr:city": "ROBINSON", "addr:country": "US", "addr:full": "101 E WALNUT ST", "addr:postcode": "62454", "addr:state": "IL", "amenity": "post_box", "brand": "United States Postal Service", "brand:wikidata": "Q668687", "collection_times": "Mo-Fr 15:55; Sa 10:55", "name": "USPS COLLECTION BOX - PO LOBBY", "note": "ON 12/24 AND 12/31, THIS BOX MAY BE COLLECTED AS EARLY AS 12 NOON.", "nsi_id": "unitedstatespostalservice-a77078", "operator": "United States Postal Service", "operator:short": "USPS", "operator:type": "public", "operator:wikidata": "Q668687", "ref": "6245400008"}, "type": "Feature"}
{"dataset_attributes": {"@spider": "usps_collection_boxes", "spider:collection_time": "2023-09-22T08:24:47.468985"}, "geometry": {"coordinates": [-87.738858278, 39.004880692], "type": "Point"}, "id": "VQ_g9OtCeyujvrq45f7tztMUrXY=", "properties": {"@spider": "usps_collection_boxes", "addr:city": "ROBINSON", "addr:country": "US", "addr:full": "101 E WALNUT ST", "addr:postcode": "62454", "addr:state": "IL", "amenity": "post_box", "brand": "United States Postal Service", "brand:wikidata": "Q668687", "collection_times": "Mo-Fr 15:45; Sa 10:45", "name": "USPS COLLECTION BOX - PO LOBBY", "note": "ON 12/24 AND 12/31, THIS BOX MAY BE COLLECTED AS EARLY AS 12 NOON.", "nsi_id": "unitedstatespostalservice-a77078", "operator": "United States Postal Service", "operator:short": "USPS", "operator:type": "public", "operator:wikidata": "Q668687", "ref": "6245400010"}, "type": "Feature"}
{"dataset_attributes": {"@spider": "usps_collection_boxes", "spider:collection_time": "2023-09-22T08:24:47.468985"}, "geometry": {"coordinates": [-88.844987, 39.028369], "type": "Point"}, "id": "lx-kYGXSra9BbDp_wC5b1XLmThU=", "properties": {"@spider": "usps_collection_boxes", "addr:city": "SAINT ELMO", "addr:country": "US", "addr:full": "112 E 5TH ST", "addr:postcode": "62458", "addr:state": "IL", "amenity": "post_box", "brand": "United States Postal Service", "brand:wikidata": "Q668687", "collection_times": "Mo-Fr 15:45; Sa 10:00", "name": "USPS COLLECTION BOX - BLUE BOX", "note": "ON 12/24 AND 12/31, THIS BOX MAY BE COLLECTED AS EARLY AS 12 NOON.", "nsi_id": "unitedstatespostalservice-a77078", "operator": "United States Postal Service", "operator:short": "USPS", "operator:type": "public", "operator:wikidata": "Q668687", "ref": "6245800002"}, "type": "Feature"}
{"dataset_attributes": {"@spider": "usps_collection_boxes", "spider:collection_time": "2023-09-22T08:24:47.468985"}, "geometry": {"coordinates": [-88.845051, 39.028296], "type": "Point"}, "id": "S3sWutDEI9Xyr1x_Y0ELUlCdvro=", "properties": {"@spider": "usps_collection_boxes", "addr:city": "SAINT ELMO", "addr:country": "US", "addr:full": "112 E 5TH ST", "addr:postcode": "62458", "addr:state": "IL", "amenity": "post_box", "brand": "United States Postal Service", "brand:wikidata": "Q668687", "collection_times": "Mo-Fr 16:00; Sa 10:00", "name": "USPS COLLECTION BOX - PO LOBBY", "note": "ON 12/24 AND 12/31, THIS BOX MAY BE COLLECTED AS EARLY AS 12 NOON.", "nsi_id": "unitedstatespostalservice-a77078", "operator": "United States Postal Service", "operator:short": "USPS", "operator:type": "public", "operator:wikidata": "Q668687", "ref": "6245800003"}, "type": "Feature"}
{"dataset_attributes": {"@spider": "usps_collection_boxes", "spider:collection_time": "2023-09-22T08:24:47.468985"}, "geometry": {"coordinates": [-88.847991251, 39.028366508], "type": "Point"}, "id": "e2s4WPD8R9ymmt6qiLxPDVFTnag=", "properties": {"@spider": "usps_collection_boxes", "addr:city": "SAINT ELMO", "addr:country": "US", "addr:full": "112 E 5TH ST", "addr:postcode": "62458", "addr:state": "IL", "amenity": "post_box", "brand": "United States Postal Service", "brand:wikidata": "Q668687", "collection_times": "Mo-Fr 16:00; Sa 10:00", "name": "USPS COLLECTION BOX - PO LOBBY", "note": "ON 12/24 AND 12/31, THIS BOX MAY BE COLLECTED AS EARLY AS 12 NOON.", "nsi_id": "unitedstatespostalservice-a77078", "operator": "United States Postal Service", "operator:short": "USPS", "operator:type": "public", "operator:wikidata": "Q668687", "ref": "6245800005"}, "type": "Feature"}
{"dataset_attributes": {"@spider": "usps_collection_boxes", "spider:collection_time": "2023-09-22T08:24:47.468985"}, "geometry": {"coordinates": [-88.023468, 38.932443], "type": "Point"}, "id": "hbL9tq8qTcgH0whd_nhy6TNvWeM=", "properties": {"@spider": "usps_collection_boxes", "addr:city": "SAINTE MARIE", "addr:country": "US", "addr:full": "104 N MAIN ST", "addr:postcode": "62459", "addr:state": "IL", "amenity": "post_box", "brand": "United States Postal Service", "brand:wikidata": "Q668687", "collection_times": "Mo-Fr 16:15; Sa 09:45", "name": "USPS COLLECTION BOX - PO LOBBY", "note": "ON 12/24 AND 12/31, THIS BOX MAY BE COLLECTED AS EARLY AS 12 NOON.", "nsi_id": "unitedstatespostalservice-a77078", "operator": "United States Postal Service", "operator:short": "USPS", "operator:type": "public", "operator:wikidata": "Q668687", "ref": "6245900001"}, "type": "Feature"}
{"dataset_attributes": {"@spider": "usps_collection_boxes", "spider:collection_time": "2023-09-22T08:24:47.468985"}, "geometry": {"coordinates": [-88.023468, 38.932443], "type": "Point"}, "id": "tsYCwWckP7KjR8q0MHPVcNHaBII=", "properties": {"@spider": "usps_collection_boxes", "addr:city": "SAINTE MARIE", "addr:country": "US", "addr:full": "104 N MAIN ST", "addr:postcode": "62459", "addr:state": "IL", "amenity": "post_box", "brand": "United States Postal Service", "brand:wikidata": "Q668687", "collection_times": "Mo-Fr 16:00; Sa 09:45", "name": "USPS COLLECTION BOX - BLUE BOX", "note": "ON 12/24 AND 12/31, THIS BOX MAY BE COLLECTED AS EARLY AS 12 NOON.", "nsi_id": "unitedstatespostalservice-a77078", "operator": "United States Postal Service", "operator:short": "USPS", "operator:type": "public", "operator:wikidata": "Q668687", "ref": "6245900002"}, "type": "Feature"}
{"dataset_attributes": {"@spider": "usps_collection_boxes", "spider:collection_time": "2023-09-22T08:24:47.468985"}, "geometry": {"coordinates": [-88.0233373979, 38.9327121664], "type": "Point"}, "id": "ZdamNeJT4PirbhP8rLuAEKESmOg=", "properties": {"@spider": "usps_collection_boxes", "addr:city": "SAINTE MARIE", "addr:country": "US", "addr:full": "104 N MAIN ST", "addr:postcode": "62459", "addr:state": "IL", "amenity": "post_box", "brand": "United States Postal Service", "brand:wikidata": "Q668687", "collection_times": "Mo-Fr 16:15; Sa 09:45", "name": "USPS COLLECTION BOX - PO LOBBY", "note": "ON 12/24 AND 12/31, THIS BOX MAY BE COLLECTED AS EARLY AS 12 NOON.", "nsi_id": "unitedstatespostalservice-a77078", "operator": "United States Postal Service", "operator:short": "USPS", "operator:type": "public", "operator:wikidata": "Q668687", "ref": "6245900004"}, "type": "Feature"}
{"dataset_attributes": {"@spider": "usps_collection_boxes", "spider:collection_time": "2023-09-22T08:24:47.468985"}, "geometry": {"coordinates": [-87.653389, 38.591503], "type": "Point"}, "id": "6DBCvfZfq5WyGuPUQ0uFW9tfS4Q=", "properties": {"@spider": "usps_collection_boxes", "addr:city": "ST FRANCISVILLE", "addr:country": "US", "addr:full": "803 MAIN ST", "addr:postcode": "62460", "addr:state": "IL", "amenity": "post_box", "brand": "United States Postal Service", "brand:wikidata": "Q668687", "collection_times": "Mo-Fr 14:15; Sa 08:45", "name": "USPS COLLECTION BOX - BLUE BOX", "note": "ON 12/24 AND 12/31, THIS BOX MAY BE COLLECTED AS EARLY AS 12 NOON.", "nsi_id": "unitedstatespostalservice-a77078", "operator": "United States Postal Service", "operator:short": "USPS", "operator:type": "public", "operator:wikidata": "Q668687", "ref": "6246000001"}, "type": "Feature"}
{"dataset_attributes": {"@spider": "usps_collection_boxes", "spider:collection_time": "2023-09-22T08:24:47.468985"}, "geometry": {"coordinates": [-87.653389, 38.591503], "type": "Point"}, "id": "vg7tJ1kqG-hsypSUSeZ7hVs-ih4=", "properties": {"@spider": "usps_collection_boxes", "addr:city": "ST FRANCISVILLE", "addr:country": "US", "addr:full": "803 MAIN ST", "addr:postcode": "62460", "addr:state": "IL", "amenity": "post_box", "brand": "United States Postal Service", "brand:wikidata": "Q668687", "collection_times": "Mo-Fr 14:15; Sa 08:45", "name": "USPS COLLECTION BOX - PO LOBBY", "note": "ON 12/24 AND 12/31, THIS BOX MAY BE COLLECTED AS EARLY AS 12 NOON.", "nsi_id": "unitedstatespostalservice-a77078", "operator": "United States Postal Service", "operator:short": "USPS", "operator:type": "public", "operator:wikidata": "Q668687", "ref": "6246000002"}, "type": "Feature"}
{"dataset_attributes": {"@spider": "usps_collection_boxes", "spider:collection_time": "2023-09-22T08:24:47.468985"}, "geometry": {"coordinates": [-87.648294183, 38.591360172], "type": "Point"}, "id": "5pd2vFl4kdtrdzQ5988XRM2JVts=", "properties": {"@spider": "usps_collection_boxes", "addr:city": "ST FRANCISVILLE", "addr:country": "US", "addr:full": "803 MAIN ST", "addr:postcode": "62460", "addr:state": "IL", "amenity": "post_box", "brand": "United States Postal Service", "brand:wikidata": "Q668687", "collection_times": "Mo-Fr 14:15; Sa 08:45", "name": "USPS COLLECTION BOX - PO LOBBY", "note": "ON 12/24 AND 12/31, THIS BOX MAY BE COLLECTED AS EARLY AS 12 NOON.", "nsi_id": "unitedstatespostalservice-a77078", "operator": "United States Postal Service", "operator:short": "USPS", "operator:type": "public", "operator:wikidata": "Q668687", "ref": "6246000003"}, "type": "Feature"}
{"dataset_attributes": {"@spider": "usps_collection_boxes", "spider:collection_time": "2023-09-22T08:24:47.468985"}, "geometry": {"coordinates": [-88.65233, 39.184742], "type": "Point"}, "id": "LpKhjy97xptXA_joKj-b72IYRys=", "properties": {"@spider": "usps_collection_boxes", "addr:city": "SHUMWAY", "addr:country": "US", "addr:full": "101 E MAIN ST", "addr:postcode": "62461", "addr:state": "IL", "amenity": "post_box", "brand": "United States Postal Service", "brand:wikidata": "Q668687", "collection_times": "Mo-Fr 11:45; Sa 09:15", "name": "USPS COLLECTION BOX - BLUE BOX", "nsi_id": "unitedstatespostalservice-a77078", "operator": "United States Postal Service", "operator:short": "USPS", "operator:type": "public", "operator:wikidata": "Q668687", "ref": "6246100001"}, "type": "Feature"}
{"dataset_attributes": {"@spider": "usps_collection_boxes", "spider:collection_time": "2023-09-22T08:24:47.468985"}, "geometry": {"coordinates": [-88.65233, 39.184742], "type": "Point"}, "id": "WVNCi4wmftA2-jRtwc1zezPnchY=", "properties": {"@spider": "usps_collection_boxes", "addr:city": "SHUMWAY", "addr:country": "US", "addr:full": "101 E MAIN ST", "addr:postcode": "62461", "addr:state": "IL", "amenity": "post_box", "brand": "United States Postal Service", "brand:wikidata": "Q668687", "collection_times": "Mo-Fr 11:45; Sa 09:30", "name": "USPS COLLECTION BOX - PO LOBBY", "nsi_id": "unitedstatespostalservice-a77078", "operator": "United States Postal Service", "operator:short": "USPS", "operator:type": "public", "operator:wikidata": "Q668687", "ref": "6246100002"}, "type": "Feature"}
{"dataset_attributes": {"@spider": "usps_collection_boxes", "spider:collection_time": "2023-09-22T08:24:47.468985"}, "geometry": {"coordinates": [-88.652257262, 39.184813738], "type": "Point"}, "id": "5w7NJjxtFQ2L9uRgbLdxZeI43p8=", "properties": {"@spider": "usps_collection_boxes", "addr:city": "SHUMWAY", "addr:country": "US", "addr:full": "101 E MAIN ST", "addr:postcode": "62461", "addr:state": "IL", "amenity": "post_box", "brand": "United States Postal Service", "brand:wikidata": "Q668687", "collection_times": "Mo-Fr 11:45; Sa 09:30", "name": "USPS COLLECTION BOX - PO LOBBY", "nsi_id": "unitedstatespostalservice-a77078", "operator": "United States Postal Service", "operator:short": "USPS", "operator:type": "public", "operator:wikidata": "Q668687", "ref": "6246100003"}, "type": "Feature"}
{"dataset_attributes": {"@spider": "usps_collection_boxes", "spider:collection_time": "2023-09-22T08:24:47.468985"}, "geometry": {"coordinates": [-88.493113, 39.226857], "type": "Point"}, "id": "wQKeAoL9N6h29C-1r3f7qsPm8hw=", "properties": {"@spider": "usps_collection_boxes", "addr:city": "SIGEL", "addr:country": "US", "addr:full": "102 E LOUIS ST", "addr:postcode": "62462", "addr:state": "IL", "amenity": "post_box", "brand": "United States Postal Service", "brand:wikidata": "Q668687", "collection_times": "Mo-Fr 15:15; Sa 09:30", "name": "USPS COLLECTION BOX - BLUE BOX", "note": "ON 12/24 AND 12/31, THIS BOX MAY BE COLLECTED AS EARLY AS 12 NOON.", "nsi_id": "unitedstatespostalservice-a77078", "operator": "United States Postal Service", "operator:short": "USPS", "operator:type": "public", "operator:wikidata": "Q668687", "ref": "6246200001"}, "type": "Feature"}
{"dataset_attributes": {"@spider": "usps_collection_boxes", "spider:collection_time": "2023-09-22T08:24:47.468985"}, "geometry": {"coordinates": [-88.493111, 39.22683], "type": "Point"}, "id": "gZ6fUfUjrW4kFD7ltevGJ0wO5E0=", "properties": {"@spider": "usps_collection_boxes", "addr:city": "SIGEL", "addr:country": "US", "addr:full": "102 E LOUIS ST", "addr:postcode": "62462", "addr:state": "IL", "amenity": "post_box", "brand": "United States Postal Service", "brand:wikidata": "Q668687", "collection_times": "Mo-Fr 15:15; Sa 09:30", "name": "USPS COLLECTION BOX - PO LOBBY", "note": "ON 12/24 AND 12/31, THIS BOX MAY BE COLLECTED AS EARLY AS 12 NOON.", "nsi_id": "unitedstatespostalservice-a77078", "operator": "United States Postal Service", "operator:short": "USPS", "operator:type": "public", "operator:wikidata": "Q668687", "ref": "6246200002"}, "type": "Feature"}
{"dataset_attributes": {"@spider": "usps_collection_boxes", "spider:collection_time": "2023-09-22T08:24:47.468985"}, "geometry": {"coordinates": [-88.493553084, 39.226853482], "type": "Point"}, "id": "NPKA1xuKcQUcqi60CuRe4pVABoU=", "properties": {"@spider": "usps_collection_boxes", "addr:city": "SIGEL", "addr:country": "US", "addr:full": "102 E LOUIS ST", "addr:postcode": "62462", "addr:state": "IL", "amenity": "post_box", "brand": "United States Postal Service", "brand:wikidata": "Q668687", "collection_times": "Mo-Fr 15:15; Sa 09:30", "name": "USPS COLLECTION BOX - PO LOBBY", "note": "ON 12/24 AND 12/31, THIS BOX MAY BE COLLECTED AS EARLY AS 12 NOON.", "nsi_id": "unitedstatespostalservice-a77078", "operator": "United States Postal Service", "operator:short": "USPS", "operator:type": "public", "operator:wikidata": "Q668687", "ref": "6246200003"}, "type": "Feature"}
{"dataset_attributes": {"@spider": "usps_collection_boxes", "spider:collection_time": "2023-09-22T08:24:47.468985"}, "geometry": {"coordinates": [-88.62781, 39.263741], "type": "Point"}, "id": "D0_5_OGOApdo0RqNcpxfK8NrSnI=", "properties": {"@spider": "usps_collection_boxes", "addr:city": "STEWARDSON", "addr:country": "US", "addr:full": "101 W MAIN ST", "addr:postcode": "62463", "addr:state": "IL", "amenity": "post_box", "brand": "United States Postal Service", "brand:wikidata": "Q668687", "collection_times": "Mo-Fr 14:45; Sa 10:00", "name": "USPS COLLECTION BOX - BLUE BOX", "note": "ON 12/24 AND 12/31, THIS BOX MAY BE COLLECTED AS EARLY AS 12 NOON.", "nsi_id": "unitedstatespostalservice-a77078", "operator": "United States Postal Service", "operator:short": "USPS", "operator:type": "public", "operator:wikidata": "Q668687", "ref": "6246300001"}, "type": "Feature"}
{"dataset_attributes": {"@spider": "usps_collection_boxes", "spider:collection_time": "2023-09-22T08:24:47.468985"}, "geometry": {"coordinates": [-88.62781, 39.263741], "type": "Point"}, "id": "KTJvKyo7cZjKqV3NJp5f0addAoY=", "properties": {"@spider": "usps_collection_boxes", "addr:city": "STEWARDSON", "addr:country": "US", "addr:full": "101 W MAIN ST", "addr:postcode": "62463", "addr:state": "IL", "amenity": "post_box", "brand": "United States Postal Service", "brand:wikidata": "Q668687", "collection_times": "Mo-Fr 14:45; Sa 10:00", "name": "USPS COLLECTION BOX - PO LOBBY", "note": "ON 12/24 AND 12/31, THIS BOX MAY BE COLLECTED AS EARLY AS 12 NOON.", "nsi_id": "unitedstatespostalservice-a77078", "operator": "United States Postal Service", "operator:short": "USPS", "operator:type": "public", "operator:wikidata": "Q668687", "ref": "6246300002"}, "type": "Feature"}
{"dataset_attributes": {"@spider": "usps_collection_boxes", "spider:collection_time": "2023-09-22T08:24:47.468985"}, "geometry": {"coordinates": [-88.6278848, 39.263659665], "type": "Point"}, "id": "txljnbTqRWk3ATZLeRIUL-ULAbM=", "properties": {"@spider": "usps_collection_boxes", "addr:city": "STEWARDSON", "addr:country": "US", "addr:full": "101 W MAIN ST", "addr:postcode": "62463", "addr:state": "IL", "amenity": "post_box", "brand": "United States Postal Service", "brand:wikidata": "Q668687", "collection_times": "Mo-Fr 14:45; Sa 10:00", "name": "USPS COLLECTION BOX - PO LOBBY", "note": "ON 12/24 AND 12/31, THIS BOX MAY BE COLLECTED AS EARLY AS 12 NOON.", "nsi_id": "unitedstatespostalservice-a77078", "operator": "United States Postal Service", "operator:short": "USPS", "operator:type": "public", "operator:wikidata": "Q668687", "ref": "6246300005"}, "type": "Feature"}
{"dataset_attributes": {"@spider": "usps_collection_boxes", "spider:collection_time": "2023-09-22T08:24:47.468985"}, "geometry": {"coordinates": [-87.8332998784, 38.9971283901], "type": "Point"}, "id": "CogpYZoPVcsNzoRtkFFCzgfFh9M=", "properties": {"@spider": "usps_collection_boxes", "addr:city": "STOY", "addr:country": "US", "addr:full": "10065 N MAIN ST", "addr:postcode": "62464", "addr:state": "IL", "amenity": "post_box", "brand": "United States Postal Service", "brand:wikidata": "Q668687", "collection_times": "Mo-Fr 13:45; Sa 13:15", "name": "USPS COLLECTION BOX - BLUE BOX", "note": "ON 12/24 AND 12/31, THIS BOX MAY BE COLLECTED AS EARLY AS 12 NOON.", "nsi_id": "unitedstatespostalservice-a77078", "operator": "United States Postal Service", "operator:short": "USPS", "operator:type": "public", "operator:wikidata": "Q668687", "ref": "6246400001"}, "type": "Feature"}
{"dataset_attributes": {"@spider": "usps_collection_boxes", "spider:collection_time": "2023-09-22T08:24:47.468985"}, "geometry": {"coordinates": [-87.8332998784, 38.9971283901], "type": "Point"}, "id": "hrB485BYURQ2qlcI5L1PWn_FznA=", "properties": {"@spider": "usps_collection_boxes", "addr:city": "STOY", "addr:country": "US", "addr:full": "10065 N MAIN ST", "addr:postcode": "62464", "addr:state": "IL", "amenity": "post_box", "brand": "United States Postal Service", "brand:wikidata": "Q668687", "collection_times": "Mo-Fr 13:45; Sa 13:15", "name": "USPS COLLECTION BOX - PO LOBBY", "note": "ON 12/24 AND 12/31, THIS BOX MAY BE COLLECTED AS EARLY AS 12 NOON.", "nsi_id": "unitedstatespostalservice-a77078", "operator": "United States Postal Service", "operator:short": "USPS", "operator:type": "public", "operator:wikidata": "Q668687", "ref": "6246400002"}, "type": "Feature"}
{"dataset_attributes": {"@spider": "usps_collection_boxes", "spider:collection_time": "2023-09-22T08:24:47.468985"}, "geometry": {"coordinates": [-87.833299878, 38.99712839], "type": "Point"}, "id": "r2UwBoEdf3nBluLIVORMaIClrFQ=", "properties": {"@spider": "usps_collection_boxes", "addr:city": "STOY", "addr:country": "US", "addr:full": "10065 N MAIN ST", "addr:postcode": "62464", "addr:state": "IL", "amenity": "post_box", "brand": "United States Postal Service", "brand:wikidata": "Q668687", "collection_times": "Mo-Fr 13:45; Sa 13:15", "name": "USPS COLLECTION BOX - PO LOBBY", "note": "ON 12/24 AND 12/31, THIS BOX MAY BE COLLECTED AS EARLY AS 12 NOON.", "nsi_id": "unitedstatespostalservice-a77078", "operator": "United States Postal Service", "operator:short": "USPS", "operator:type": "public", "operator:wikidata": "Q668687", "ref": "6246400003"}, "type": "Feature"}
{"dataset_attributes": {"@spider": "usps_collection_boxes", "spider:collection_time": "2023-09-22T08:24:47.468985"}, "geometry": {"coordinates": [-88.620072, 39.351135], "type": "Point"}, "id": "fJCQadPuuAW0z2pJLnQJP79gUfI=", "properties": {"@spider": "usps_collection_boxes", "addr:city": "STRASBURG", "addr:country": "US", "addr:full": "106 E COMMERCIAL ST", "addr:postcode": "62465", "addr:state": "IL", "amenity": "post_box", "brand": "United States Postal Service", "brand:wikidata": "Q668687", "collection_times": "Mo-Fr 15:15; Sa 10:00", "name": "USPS COLLECTION BOX - BLUE BOX", "note": "ON 12/24 AND 12/31, THIS BOX MAY BE COLLECTED AS EARLY AS 12 NOON.", "nsi_id": "unitedstatespostalservice-a77078", "operator": "United States Postal Service", "operator:short": "USPS", "operator:type": "public", "operator:wikidata": "Q668687", "ref": "6246500001"}, "type": "Feature"}
{"dataset_attributes": {"@spider": "usps_collection_boxes", "spider:collection_time": "2023-09-22T08:24:47.468985"}, "geometry": {"coordinates": [-88.619969, 39.351162], "type": "Point"}, "id": "kmdUZ6Mbk6nQnrLbdSTOcIU8OI0=", "properties": {"@spider": "usps_collection_boxes", "addr:city": "STRASBURG", "addr:country": "US", "addr:full": "106 E COMMERCIAL ST", "addr:postcode": "62465", "addr:state": "IL", "amenity": "post_box", "brand": "United States Postal Service", "brand:wikidata": "Q668687", "collection_times": "Mo-Fr 15:15; Sa 10:00", "name": "USPS COLLECTION BOX - PO LOBBY", "note": "ON 12/24 AND 12/31, THIS BOX MAY BE COLLECTED AS EARLY AS 12 NOON.", "nsi_id": "unitedstatespostalservice-a77078", "operator": "United States Postal Service", "operator:short": "USPS", "operator:type": "public", "operator:wikidata": "Q668687", "ref": "6246500002"}, "type": "Feature"}
{"dataset_attributes": {"@spider": "usps_collection_boxes", "spider:collection_time": "2023-09-22T08:24:47.468985"}, "geometry": {"coordinates": [-88.619746753, 39.351231874], "type": "Point"}, "id": "X1xG6wiKi5ZXZBkVK8PX1lAgBF0=", "properties": {"@spider": "usps_collection_boxes", "addr:city": "STRASBURG", "addr:country": "US", "addr:full": "106 E COMMERCIAL ST", "addr:postcode": "62465", "addr:state": "IL", "amenity": "post_box", "brand": "United States Postal Service", "brand:wikidata": "Q668687", "collection_times": "Mo-Fr 15:15; Sa 10:00", "name": "USPS COLLECTION BOX - PO LOBBY", "note": "ON 12/24 AND 12/31, THIS BOX MAY BE COLLECTED AS EARLY AS 12 NOON.", "nsi_id": "unitedstatespostalservice-a77078", "operator": "United States Postal Service", "operator:short": "USPS", "operator:type": "public", "operator:wikidata": "Q668687", "ref": "6246500003"}, "type": "Feature"}
{"dataset_attributes": {"@spider": "usps_collection_boxes", "spider:collection_time": "2023-09-22T08:24:47.468985"}, "geometry": {"coordinates": [-87.861922, 38.715668], "type": "Point"}, "id": "ZzhOMxQDPwwQ3uQN_NB2jMP9gKs=", "properties": {"@spider": "usps_collection_boxes", "addr:city": "SUMNER", "addr:country": "US", "addr:full": "120 W SOUTH AVE", "addr:postcode": "62466", "addr:state": "IL", "amenity": "post_box", "brand": "United States Postal Service", "brand:wikidata": "Q668687", "collection_times": "Mo-Fr 14:55; Sa 10:00", "name": "USPS COLLECTION BOX - BLUE BOX", "note": "ON 12/24 AND 12/31, THIS BOX MAY BE COLLECTED AS EARLY AS 12 NOON.", "nsi_id": "unitedstatespostalservice-a77078", "operator": "United States Postal Service", "operator:short": "USPS", "operator:type": "public", "operator:wikidata": "Q668687", "ref": "6246600001"}, "type": "Feature"}
{"dataset_attributes": {"@spider": "usps_collection_boxes", "spider:collection_time": "2023-09-22T08:24:47.468985"}, "geometry": {"coordinates": [-87.861855, 38.715639], "type": "Point"}, "id": "r5unDA4-vWwQT04xT_5b4KBpyQg=", "properties": {"@spider": "usps_collection_boxes", "addr:city": "SUMNER", "addr:country": "US", "addr:full": "120 W SOUTH AVE", "addr:postcode": "62466", "addr:state": "IL", "amenity": "post_box", "brand": "United States Postal Service", "brand:wikidata": "Q668687", "collection_times": "Mo-Fr 14:55; Sa 10:00", "name": "USPS COLLECTION BOX - PO LOBBY", "note": "ON 12/24 AND 12/31, THIS BOX MAY BE COLLECTED AS EARLY AS 12 NOON.", "nsi_id": "unitedstatespostalservice-a77078", "operator": "United States Postal Service", "operator:short": "USPS", "operator:type": "public", "operator:wikidata": "Q668687", "ref": "6246600002"}, "type": "Feature"}
{"dataset_attributes": {"@spider": "usps_collection_boxes", "spider:collection_time": "2023-09-22T08:24:47.468985"}, "geometry": {"coordinates": [-87.861901552, 38.715663457], "type": "Point"}, "id": "cGmxy9OBw_ektVQRncNqHDI9hyI=", "properties": {"@spider": "usps_collection_boxes", "addr:city": "SUMNER", "addr:country": "US", "addr:full": "120 W SOUTH AVE", "addr:postcode": "62466", "addr:state": "IL", "amenity": "post_box", "brand": "United States Postal Service", "brand:wikidata": "Q668687", "collection_times": "Mo-Fr 14:45; Sa 10:00", "name": "USPS COLLECTION BOX - PO LOBBY", "note": "ON 12/24 AND 12/31, THIS BOX MAY BE COLLECTED AS EARLY AS 12 NOON.", "nsi_id": "unitedstatespostalservice-a77078", "operator": "United States Postal Service", "operator:short": "USPS", "operator:type": "public", "operator:wikidata": "Q668687", "ref": "6246600004"}, "type": "Feature"}
{"dataset_attributes": {"@spider": "usps_collection_boxes", "spider:collection_time": "2023-09-22T08:24:47.468985"}, "geometry": {"coordinates": [-88.473897927, 39.132339169], "type": "Point"}, "id": "4bjBwtNdkRtTY3bPDvprHtllwEY=", "properties": {"@spider": "usps_collection_boxes", "addr:city": "TEUTOPOLIS", "addr:country": "US", "addr:full": "100 W MAIN ST", "addr:postcode": "62467", "addr:state": "IL", "amenity": "post_box", "brand": "United States Postal Service", "brand:wikidata": "Q668687", "collection_times": "Mo-Fr 16:15; Sa 09:30", "name": "USPS COLLECTION BOX - BLUE BOX", "note": "ON 12/24 AND 12/31, THIS BOX MAY BE COLLECTED AS EARLY AS 12 NOON.", "nsi_id": "unitedstatespostalservice-a77078", "operator": "United States Postal Service", "operator:short": "USPS", "operator:type": "public", "operator:wikidata": "Q668687", "ref": "6246700001"}, "type": "Feature"}
{"dataset_attributes": {"@spider": "usps_collection_boxes", "spider:collection_time": "2023-09-22T08:24:47.468985"}, "geometry": {"coordinates": [-88.473688, 39.132363], "type": "Point"}, "id": "GvYzP5BY37feZ9h-eDilTehI8lE=", "properties": {"@spider": "usps_collection_boxes", "addr:city": "TEUTOPOLIS", "addr:country": "US", "addr:full": "100 W MAIN ST", "addr:postcode": "62467", "addr:state": "IL", "amenity": "post_box", "brand": "United States Postal Service", "brand:wikidata": "Q668687", "collection_times": "Mo-Fr 16:15; Sa 09:30", "name": "USPS COLLECTION BOX - PO LOBBY", "note": "ON 12/24 AND 12/31, THIS BOX MAY BE COLLECTED AS EARLY AS 12 NOON.", "nsi_id": "unitedstatespostalservice-a77078", "operator": "United States Postal Service", "operator:short": "USPS", "operator:type": "public", "operator:wikidata": "Q668687", "ref": "6246700002"}, "type": "Feature"}
{"dataset_attributes": {"@spider": "usps_collection_boxes", "spider:collection_time": "2023-09-22T08:24:47.468985"}, "geometry": {"coordinates": [-88.473897927, 39.132339169], "type": "Point"}, "id": "ZQbrUIuzpLu7PuQShELI_LI9cKQ=", "properties": {"@spider": "usps_collection_boxes", "addr:city": "TEUTOPOLIS", "addr:country": "US", "addr:full": "100 W MAIN ST", "addr:postcode": "62467", "addr:state": "IL", "amenity": "post_box", "brand": "United States Postal Service", "brand:wikidata": "Q668687", "collection_times": "Mo-Fr 16:15; Sa 09:30", "name": "USPS COLLECTION BOX - PO LOBBY", "note": "ON 12/24 AND 12/31, THIS BOX MAY BE COLLECTED AS EARLY AS 12 NOON.", "nsi_id": "unitedstatespostalservice-a77078", "operator": "United States Postal Service", "operator:short": "USPS", "operator:type": "public", "operator:wikidata": "Q668687", "ref": "6246700004"}, "type": "Feature"}
{"dataset_attributes": {"@spider": "usps_collection_boxes", "spider:collection_time": "2023-09-22T08:24:47.468985"}, "geometry": {"coordinates": [-88.245241398, 39.273330352], "type": "Point"}, "id": "Cc8VLRZfI1A-ei8AgA645L4WzwE=", "properties": {"@spider": "usps_collection_boxes", "addr:city": "TOLEDO", "addr:country": "US", "addr:full": "112 COURTHOUSE SQ", "addr:postcode": "62468", "addr:state": "IL", "amenity": "post_box", "brand": "United States Postal Service", "brand:wikidata": "Q668687", "collection_times": "Mo-Fr 15:45; Sa 10:15", "name": "USPS COLLECTION BOX - PO LOBBY", "note": "ON 12/24 AND 12/31, THIS BOX MAY BE COLLECTED AS EARLY AS 12 NOON.", "nsi_id": "unitedstatespostalservice-a77078", "operator": "United States Postal Service", "operator:short": "USPS", "operator:type": "public", "operator:wikidata": "Q668687", "ref": "6246800003"}, "type": "Feature"}
{"dataset_attributes": {"@spider": "usps_collection_boxes", "spider:collection_time": "2023-09-22T08:24:47.468985"}, "geometry": {"coordinates": [-88.245238124, 39.273348262], "type": "Point"}, "id": "OlS2cheZ-WcIpez2aHceq4gA9ZE=", "properties": {"@spider": "usps_collection_boxes", "addr:city": "TOLEDO", "addr:country": "US", "addr:full": "112 COURTHOUSE SQ", "addr:postcode": "62468", "addr:state": "IL", "amenity": "post_box", "brand": "United States Postal Service", "brand:wikidata": "Q668687", "collection_times": "Mo-Fr 15:45; Sa 10:15", "name": "USPS COLLECTION BOX - BLUE BOX", "note": "ON 12/24 AND 12/31, THIS BOX MAY BE COLLECTED AS EARLY AS 12 NOON.", "nsi_id": "unitedstatespostalservice-a77078", "operator": "United States Postal Service", "operator:short": "USPS", "operator:type": "public", "operator:wikidata": "Q668687", "ref": "6246800004"}, "type": "Feature"}
{"dataset_attributes": {"@spider": "usps_collection_boxes", "spider:collection_time": "2023-09-22T08:24:47.468985"}, "geometry": {"coordinates": [-88.245241398, 39.273330352], "type": "Point"}, "id": "e0Qmq9L6QsuvTbht6PvCwvteoJE=", "properties": {"@spider": "usps_collection_boxes", "addr:city": "TOLEDO", "addr:country": "US", "addr:full": "112 COURTHOUSE SQ", "addr:postcode": "62468", "addr:state": "IL", "amenity": "post_box", "brand": "United States Postal Service", "brand:wikidata": "Q668687", "collection_times": "Mo-Fr 15:45; Sa 10:15", "name": "USPS COLLECTION BOX - PO LOBBY", "note": "ON 12/24 AND 12/31, THIS BOX MAY BE COLLECTED AS EARLY AS 12 NOON.", "nsi_id": "unitedstatespostalservice-a77078", "operator": "United States Postal Service", "operator:short": "USPS", "operator:type": "public", "operator:wikidata": "Q668687", "ref": "6246800005"}, "type": "Feature"}
{"dataset_attributes": {"@spider": "usps_collection_boxes", "spider:collection_time": "2023-09-22T08:24:47.468985"}, "geometry": {"coordinates": [-88.35097, 39.374207], "type": "Point"}, "id": "GQlOJPlawunPXrPoUL96TktMyx0=", "properties": {"@spider": "usps_collection_boxes", "addr:city": "TRILLA", "addr:country": "US", "addr:full": "102 W TRILLA RD", "addr:postcode": "62469", "addr:state": "IL", "amenity": "post_box", "brand": "United States Postal Service", "brand:wikidata": "Q668687", "collection_times": "Mo-Fr 16:30; Sa 10:00", "name": "USPS COLLECTION BOX - BLUE BOX", "note": "ON 12/24 AND 12/31, THIS BOX MAY BE COLLECTED AS EARLY AS 12 NOON.", "nsi_id": "unitedstatespostalservice-a77078", "operator": "United States Postal Service", "operator:short": "USPS", "operator:type": "public", "operator:wikidata": "Q668687", "ref": "6246900001"}, "type": "Feature"}
{"dataset_attributes": {"@spider": "usps_collection_boxes", "spider:collection_time": "2023-09-22T08:24:47.468985"}, "geometry": {"coordinates": [-88.351081, 39.374234], "type": "Point"}, "id": "7jTcsGMogPsPu0ek_NzFpR9UaLY=", "properties": {"@spider": "usps_collection_boxes", "addr:city": "TRILLA", "addr:country": "US", "addr:full": "102 W TRILLA RD", "addr:postcode": "62469", "addr:state": "IL", "amenity": "post_box", "brand": "United States Postal Service", "brand:wikidata": "Q668687", "collection_times": "Mo-Fr 16:30; Sa 11:30", "name": "USPS COLLECTION BOX - PO LOBBY", "note": "ON 12/24 AND 12/31, THIS BOX MAY BE COLLECTED AS EARLY AS 12 NOON.", "nsi_id": "unitedstatespostalservice-a77078", "operator": "United States Postal Service", "operator:short": "USPS", "operator:type": "public", "operator:wikidata": "Q668687", "ref": "6246900002"}, "type": "Feature"}
{"dataset_attributes": {"@spider": "usps_collection_boxes", "spider:collection_time": "2023-09-22T08:24:47.468985"}, "geometry": {"coordinates": [-88.350722938, 39.374197514], "type": "Point"}, "id": "SsXlms_m7ezGCmOsOtU9THOlXZc=", "properties": {"@spider": "usps_collection_boxes", "addr:city": "TRILLA", "addr:country": "US", "addr:full": "102 W TRILLA RD", "addr:postcode": "62469", "addr:state": "IL", "amenity": "post_box", "brand": "United States Postal Service", "brand:wikidata": "Q668687", "collection_times": "Mo-Fr 16:30; Sa 10:00", "name": "USPS COLLECTION BOX - PO LOBBY", "note": "ON 12/24 AND 12/31, THIS BOX MAY BE COLLECTED AS EARLY AS 12 NOON.", "nsi_id": "unitedstatespostalservice-a77078", "operator": "United States Postal Service", "operator:short": "USPS", "operator:type": "public", "operator:wikidata": "Q668687", "ref": "6246900004"}, "type": "Feature"}
{"dataset_attributes": {"@spider": "usps_collection_boxes", "spider:collection_time": "2023-09-22T08:24:47.468985"}, "geometry": {"coordinates": [-89.099601, 38.960016], "type": "Point"}, "id": "B9jkdO5SMfeKRxaIXxZjSYFyZoo=", "properties": {"@spider": "usps_collection_boxes", "addr:city": "VANDALIA", "addr:country": "US", "addr:full": "221 S 7TH ST", "addr:postcode": "62471", "addr:state": "IL", "amenity": "post_box", "brand": "United States Postal Service", "brand:wikidata": "Q668687", "collection_times": "Mo-Fr 14:30; Sa 14:00", "name": "USPS COLLECTION BOX - BLUE BOX", "note": "ON 12/24 AND 12/31, THIS BOX MAY BE COLLECTED AS EARLY AS 12 NOON.", "nsi_id": "unitedstatespostalservice-a77078", "operator": "United States Postal Service", "operator:short": "USPS", "operator:type": "public", "operator:wikidata": "Q668687", "ref": "6247100003"}, "type": "Feature"}
{"dataset_attributes": {"@spider": "usps_collection_boxes", "spider:collection_time": "2023-09-22T08:24:47.468985"}, "geometry": {"coordinates": [-89.0988178, 38.969469], "type": "Point"}, "id": "jmaaKZGB22K9GkU6-YN2NITjdtY=", "properties": {"@spider": "usps_collection_boxes", "addr:city": "VANDALIA", "addr:country": "US", "addr:full": "650 W TAYLOR ST", "addr:postcode": "62471", "addr:state": "IL", "amenity": "post_box", "brand": "United States Postal Service", "brand:wikidata": "Q668687", "collection_times": "Mo-Fr 14:30; Sa 14:00", "name": "USPS COLLECTION BOX - BLUE BOX", "note": "ON 12/24 AND 12/31, THIS BOX MAY BE COLLECTED AS EARLY AS 12 NOON.", "nsi_id": "unitedstatespostalservice-a77078", "operator": "United States Postal Service", "operator:short": "USPS", "operator:type": "public", "operator:wikidata": "Q668687", "ref": "6247100007"}, "type": "Feature"}
{"dataset_attributes": {"@spider": "usps_collection_boxes", "spider:collection_time": "2023-09-22T08:24:47.468985"}, "geometry": {"coordinates": [-89.0972884, 38.976244], "type": "Point"}, "id": "9R7jcc0yN3yW0A9cj6btBsZ-rOI=", "properties": {"@spider": "usps_collection_boxes", "addr:city": "VANDALIA", "addr:country": "US", "addr:full": "520 W GOCHENOUR ST", "addr:postcode": "62471", "addr:state": "IL", "amenity": "post_box", "brand": "United States Postal Service", "brand:wikidata": "Q668687", "collection_times": "Mo-Fr 14:30; Sa 14:00", "name": "USPS COLLECTION BOX - BLUE BOX", "note": "ON 12/24 AND 12/31, THIS BOX MAY BE COLLECTED AS EARLY AS 12 NOON.", "nsi_id": "unitedstatespostalservice-a77078", "operator": "United States Postal Service", "operator:short": "USPS", "operator:type": "public", "operator:wikidata": "Q668687", "ref": "6247100008"}, "type": "Feature"}
{"dataset_attributes": {"@spider": "usps_collection_boxes", "spider:collection_time": "2023-09-22T08:24:47.468985"}, "geometry": {"coordinates": [-89.094664, 38.959465], "type": "Point"}, "id": "L2UAwMbrxNV1cpTu6-UZzjwVyJE=", "properties": {"@spider": "usps_collection_boxes", "addr:city": "VANDALIA", "addr:country": "US", "addr:full": "304 S 4TH ST", "addr:postcode": "62471", "addr:state": "IL", "amenity": "post_box", "brand": "United States Postal Service", "brand:wikidata": "Q668687", "collection_times": "Mo-Fr 15:50; Sa 15:00", "name": "USPS COLLECTION BOX - PO LOBBY", "note": "ON 12/24 AND 12/31, THIS BOX MAY BE COLLECTED AS EARLY AS 12 NOON.", "nsi_id": "unitedstatespostalservice-a77078", "operator": "United States Postal Service", "operator:short": "USPS", "operator:type": "public", "operator:wikidata": "Q668687", "ref": "6247100009"}, "type": "Feature"}
{"dataset_attributes": {"@spider": "usps_collection_boxes", "spider:collection_time": "2023-09-22T08:24:47.468985"}, "geometry": {"coordinates": [-89.094698, 38.959547], "type": "Point"}, "id": "PP7gqPZOZv-8AaBMY6kDBBRBID8=", "properties": {"@spider": "usps_collection_boxes", "addr:city": "VANDALIA", "addr:country": "US", "addr:full": "304 S 4TH ST", "addr:postcode": "62471", "addr:state": "IL", "amenity": "post_box", "brand": "United States Postal Service", "brand:wikidata": "Q668687", "collection_times": "Mo-Fr 15:50; Sa 15:00", "name": "USPS COLLECTION BOX - BLUE BOX", "note": "ON 12/24 AND 12/31, THIS BOX MAY BE COLLECTED AS EARLY AS 12 NOON.", "nsi_id": "unitedstatespostalservice-a77078", "operator": "United States Postal Service", "operator:short": "USPS", "operator:type": "public", "operator:wikidata": "Q668687", "ref": "6247100014"}, "type": "Feature"}
{"dataset_attributes": {"@spider": "usps_collection_boxes", "spider:collection_time": "2023-09-22T08:24:47.468985"}, "geometry": {"coordinates": [-89.094717153, 38.959389251], "type": "Point"}, "id": "TAZacDRd419Uzwgam7_3R53U4Bw=", "properties": {"@spider": "usps_collection_boxes", "addr:city": "VANDALIA", "addr:country": "US", "addr:full": "304 S 4TH ST", "addr:postcode": "62471", "addr:state": "IL", "amenity": "post_box", "brand": "United States Postal Service", "brand:wikidata": "Q668687", "collection_times": "Mo-Fr 15:45; Sa 15:00", "name": "USPS COLLECTION BOX - PO LOBBY", "note": "ON 12/24 AND 12/31, THIS BOX MAY BE COLLECTED AS EARLY AS 12 NOON.", "nsi_id": "unitedstatespostalservice-a77078", "operator": "United States Postal Service", "operator:short": "USPS", "operator:type": "public", "operator:wikidata": "Q668687", "ref": "6247100015"}, "type": "Feature"}
{"dataset_attributes": {"@spider": "usps_collection_boxes", "spider:collection_time": "2023-09-22T08:24:47.468985"}, "geometry": {"coordinates": [-88.571328, 39.025123], "type": "Point"}, "id": "YuvqEitMbU1HdHLOFFe5Gj4y51Q=", "properties": {"@spider": "usps_collection_boxes", "addr:city": "WATSON", "addr:country": "US", "addr:full": "101 S MONROE ST", "addr:postcode": "62473", "addr:state": "IL", "amenity": "post_box", "brand": "United States Postal Service", "brand:wikidata": "Q668687", "collection_times": "Mo-Fr 11:45; Sa 09:15", "name": "USPS COLLECTION BOX - BLUE BOX", "nsi_id": "unitedstatespostalservice-a77078", "operator": "United States Postal Service", "operator:short": "USPS", "operator:type": "public", "operator:wikidata": "Q668687", "ref": "6247300001"}, "type": "Feature"}
{"dataset_attributes": {"@spider": "usps_collection_boxes", "spider:collection_time": "2023-09-22T08:24:47.468985"}, "geometry": {"coordinates": [-88.571361, 39.025213], "type": "Point"}, "id": "RWXhWcwDLNO1CYjL1_AlPu5bhiI=", "properties": {"@spider": "usps_collection_boxes", "addr:city": "WATSON", "addr:country": "US", "addr:full": "101 S MONROE ST", "addr:postcode": "62473", "addr:state": "IL", "amenity": "post_box", "brand": "United States Postal Service", "brand:wikidata": "Q668687", "collection_times": "Mo-Fr 11:45; Sa 09:15", "name": "USPS COLLECTION BOX - PO LOBBY", "nsi_id": "unitedstatespostalservice-a77078", "operator": "United States Postal Service", "operator:short": "USPS", "operator:type": "public", "operator:wikidata": "Q668687", "ref": "6247300002"}, "type": "Feature"}
{"dataset_attributes": {"@spider": "usps_collection_boxes", "spider:collection_time": "2023-09-22T08:24:47.468985"}, "geometry": {"coordinates": [-88.571325161, 39.025043078], "type": "Point"}, "id": "4SqCNUzj0NBJv-5al2f61APrcz4=", "properties": {"@spider": "usps_collection_boxes", "addr:city": "WATSON", "addr:country": "US", "addr:full": "101 S MONROE ST", "addr:postcode": "62473", "addr:state": "IL", "amenity": "post_box", "brand": "United States Postal Service", "brand:wikidata": "Q668687", "collection_times": "Mo-Fr 11:45; Sa 09:15", "name": "USPS COLLECTION BOX - PO LOBBY", "nsi_id": "unitedstatespostalservice-a77078", "operator": "United States Postal Service", "operator:short": "USPS", "operator:type": "public", "operator:wikidata": "Q668687", "ref": "6247300004"}, "type": "Feature"}
{"dataset_attributes": {"@spider": "usps_collection_boxes", "spider:collection_time": "2023-09-22T08:24:47.468985"}, "geometry": {"coordinates": [-87.996846, 39.456076], "type": "Point"}, "id": "XbPOZf3CVzu_pXAoBr8027FkHq4=", "properties": {"@spider": "usps_collection_boxes", "addr:city": "WESTFIELD", "addr:country": "US", "addr:full": "130 W STATE ST", "addr:postcode": "62474", "addr:state": "IL", "amenity": "post_box", "brand": "United States Postal Service", "brand:wikidata": "Q668687", "collection_times": "Mo-Fr 11:45; Sa 08:45", "name": "USPS COLLECTION BOX - BLUE BOX", "nsi_id": "unitedstatespostalservice-a77078", "operator": "United States Postal Service", "operator:short": "USPS", "operator:type": "public", "operator:wikidata": "Q668687", "ref": "6247400001"}, "type": "Feature"}
{"dataset_attributes": {"@spider": "usps_collection_boxes", "spider:collection_time": "2023-09-22T08:24:47.468985"}, "geometry": {"coordinates": [-87.996801, 39.456103], "type": "Point"}, "id": "eahvUkVvTBUha345GFErHVNPxXU=", "properties": {"@spider": "usps_collection_boxes", "addr:city": "WESTFIELD", "addr:country": "US", "addr:full": "130 W STATE ST", "addr:postcode": "62474", "addr:state": "IL", "amenity": "post_box", "brand": "United States Postal Service", "brand:wikidata": "Q668687", "collection_times": "Mo-Fr 11:45; Sa 09:15", "name": "USPS COLLECTION BOX - PO LOBBY", "nsi_id": "unitedstatespostalservice-a77078", "operator": "United States Postal Service", "operator:short": "USPS", "operator:type": "public", "operator:wikidata": "Q668687", "ref": "6247400002"}, "type": "Feature"}
{"dataset_attributes": {"@spider": "usps_collection_boxes", "spider:collection_time": "2023-09-22T08:24:47.468985"}, "geometry": {"coordinates": [-87.9968115, 39.456067485], "type": "Point"}, "id": "LOm7WUpQdwd9y4nhzlYsfJUZ2n4=", "properties": {"@spider": "usps_collection_boxes", "addr:city": "WESTFIELD", "addr:country": "US", "addr:full": "130 W STATE ST", "addr:postcode": "62474", "addr:state": "IL", "amenity": "post_box", "brand": "United States Postal Service", "brand:wikidata": "Q668687", "collection_times": "Mo-Fr 11:45; Sa 08:45", "name": "USPS COLLECTION BOX - PO LOBBY", "nsi_id": "unitedstatespostalservice-a77078", "operator": "United States Postal Service", "operator:short": "USPS", "operator:type": "public", "operator:wikidata": "Q668687", "ref": "6247400004"}, "type": "Feature"}
{"dataset_attributes": {"@spider": "usps_collection_boxes", "spider:collection_time": "2023-09-22T08:24:47.468985"}, "geometry": {"coordinates": [-88.084384, 38.852584], "type": "Point"}, "id": "9v6YC-dAoLzIM4DG8ngmrCSyhXs=", "properties": {"@spider": "usps_collection_boxes", "addr:city": "WEST LIBERTY", "addr:country": "US", "addr:full": "107 N SILVER ST", "addr:postcode": "62475", "addr:state": "IL", "amenity": "post_box", "brand": "United States Postal Service", "brand:wikidata": "Q668687", "collection_times": "Mo-Fr 11:45; Sa 10:00", "name": "USPS COLLECTION BOX - BLUE BOX", "nsi_id": "unitedstatespostalservice-a77078", "operator": "United States Postal Service", "operator:short": "USPS", "operator:type": "public", "operator:wikidata": "Q668687", "ref": "6247500001"}, "type": "Feature"}
{"dataset_attributes": {"@spider": "usps_collection_boxes", "spider:collection_time": "2023-09-22T08:24:47.468985"}, "geometry": {"coordinates": [-88.08435, 38.852505], "type": "Point"}, "id": "ZOtWtFhoPn2NrJaQYHXePVSG9zY=", "properties": {"@spider": "usps_collection_boxes", "addr:city": "WEST LIBERTY", "addr:country": "US", "addr:full": "107 N SILVER ST", "addr:postcode": "62475", "addr:state": "IL", "amenity": "post_box", "brand": "United States Postal Service", "brand:wikidata": "Q668687", "collection_times": "Mo-Fr 11:45; Sa 10:00", "name": "USPS COLLECTION BOX - PO LOBBY", "nsi_id": "unitedstatespostalservice-a77078", "operator": "United States Postal Service", "operator:short": "USPS", "operator:type": "public", "operator:wikidata": "Q668687", "ref": "6247500002"}, "type": "Feature"}
{"dataset_attributes": {"@spider": "usps_collection_boxes", "spider:collection_time": "2023-09-22T08:24:47.468985"}, "geometry": {"coordinates": [-88.08440739, 38.852545628], "type": "Point"}, "id": "WHN9kUW5UWCU4lgMVEl47DGYhzo=", "properties": {"@spider": "usps_collection_boxes", "addr:city": "WEST LIBERTY", "addr:country": "US", "addr:full": "107 N SILVER ST", "addr:postcode": "62475", "addr:state": "IL", "amenity": "post_box", "brand": "United States Postal Service", "brand:wikidata": "Q668687", "collection_times": "Mo-Fr 11:45; Sa 10:00", "name": "USPS COLLECTION BOX - PO LOBBY", "nsi_id": "unitedstatespostalservice-a77078", "operator": "United States Postal Service", "operator:short": "USPS", "operator:type": "public", "operator:wikidata": "Q668687", "ref": "6247500004"}, "type": "Feature"}
{"dataset_attributes": {"@spider": "usps_collection_boxes", "spider:collection_time": "2023-09-22T08:24:47.468985"}, "geometry": {"coordinates": [-88.004619, 38.521194], "type": "Point"}, "id": "SH4MZ5GhfWDCQsv0B0663PZajgg=", "properties": {"@spider": "usps_collection_boxes", "addr:city": "WEST SALEM", "addr:country": "US", "addr:full": "115 E NORTH ST", "addr:postcode": "62476", "addr:state": "IL", "amenity": "post_box", "brand": "United States Postal Service", "brand:wikidata": "Q668687", "collection_times": "Mo-Fr 14:45; Sa 09:45", "name": "USPS COLLECTION BOX - BLUE BOX", "note": "ON 12/24 AND 12/31, THIS BOX MAY BE COLLECTED AS EARLY AS 12 NOON.", "nsi_id": "unitedstatespostalservice-a77078", "operator": "United States Postal Service", "operator:short": "USPS", "operator:type": "public", "operator:wikidata": "Q668687", "ref": "6247600001"}, "type": "Feature"}
{"dataset_attributes": {"@spider": "usps_collection_boxes", "spider:collection_time": "2023-09-22T08:24:47.468985"}, "geometry": {"coordinates": [-88.004654, 38.521167], "type": "Point"}, "id": "tG7TGkL46peqJYN4xchXpA5NxJY=", "properties": {"@spider": "usps_collection_boxes", "addr:city": "WEST SALEM", "addr:country": "US", "addr:full": "115 E NORTH ST", "addr:postcode": "62476", "addr:state": "IL", "amenity": "post_box", "brand": "United States Postal Service", "brand:wikidata": "Q668687", "collection_times": "Mo-Fr 14:45; Sa 09:45", "name": "USPS COLLECTION BOX - PO LOBBY", "note": "ON 12/24 AND 12/31, THIS BOX MAY BE COLLECTED AS EARLY AS 12 NOON.", "nsi_id": "unitedstatespostalservice-a77078", "operator": "United States Postal Service", "operator:short": "USPS", "operator:type": "public", "operator:wikidata": "Q668687", "ref": "6247600002"}, "type": "Feature"}
{"dataset_attributes": {"@spider": "usps_collection_boxes", "spider:collection_time": "2023-09-22T08:24:47.468985"}, "geometry": {"coordinates": [-88.004654, 38.521167], "type": "Point"}, "id": "LJWV4SeCdGkJy-sS9cg_kX3BlSA=", "properties": {"@spider": "usps_collection_boxes", "addr:city": "WEST SALEM", "addr:country": "US", "addr:full": "115 E NORTH ST", "addr:postcode": "62476", "addr:state": "IL", "amenity": "post_box", "brand": "United States Postal Service", "brand:wikidata": "Q668687", "collection_times": "Mo-Fr 14:45; Sa 09:45", "name": "USPS COLLECTION BOX - PO LOBBY", "note": "ON 12/24 AND 12/31, THIS BOX MAY BE COLLECTED AS EARLY AS 12 NOON.", "nsi_id": "unitedstatespostalservice-a77078", "operator": "United States Postal Service", "operator:short": "USPS", "operator:type": "public", "operator:wikidata": "Q668687", "ref": "6247600003"}, "type": "Feature"}
{"dataset_attributes": {"@spider": "usps_collection_boxes", "spider:collection_time": "2023-09-22T08:24:47.468985"}, "geometry": {"coordinates": [-88.00463011, 38.521230537], "type": "Point"}, "id": "laGZ_gWZCujxfHq6ppZShC64FRw=", "properties": {"@spider": "usps_collection_boxes", "addr:city": "WEST SALEM", "addr:country": "US", "addr:full": "115 E NORTH ST", "addr:postcode": "62476", "addr:state": "IL", "amenity": "post_box", "brand": "United States Postal Service", "brand:wikidata": "Q668687", "collection_times": "Mo-Fr 14:45; Sa 09:45", "name": "USPS COLLECTION BOX - PO LOBBY", "note": "ON 12/24 AND 12/31, THIS BOX MAY BE COLLECTED AS EARLY AS 12 NOON.", "nsi_id": "unitedstatespostalservice-a77078", "operator": "United States Postal Service", "operator:short": "USPS", "operator:type": "public", "operator:wikidata": "Q668687", "ref": "6247600004"}, "type": "Feature"}
{"dataset_attributes": {"@spider": "usps_collection_boxes", "spider:collection_time": "2023-09-22T08:24:47.468985"}, "geometry": {"coordinates": [-87.667939, 39.215995], "type": "Point"}, "id": "kchpPDHMoUExXDzswh-D1NMWipI=", "properties": {"@spider": "usps_collection_boxes", "addr:city": "WEST UNION", "addr:country": "US", "addr:full": "211 W UNION ST", "addr:postcode": "62477", "addr:state": "IL", "amenity": "post_box", "brand": "United States Postal Service", "brand:wikidata": "Q668687", "collection_times": "Mo-Fr 11:45; Sa 10:30", "name": "USPS COLLECTION BOX - BLUE BOX", "nsi_id": "unitedstatespostalservice-a77078", "operator": "United States Postal Service", "operator:short": "USPS", "operator:type": "public", "operator:wikidata": "Q668687", "ref": "6247700001"}, "type": "Feature"}
{"dataset_attributes": {"@spider": "usps_collection_boxes", "spider:collection_time": "2023-09-22T08:24:47.468985"}, "geometry": {"coordinates": [-87.6679, 39.215969], "type": "Point"}, "id": "ZPV7Z6kCMj9FAPokpSWO2HslAyM=", "properties": {"@spider": "usps_collection_boxes", "addr:city": "WEST UNION", "addr:country": "US", "addr:full": "211 W UNION ST", "addr:postcode": "62477", "addr:state": "IL", "amenity": "post_box", "brand": "United States Postal Service", "brand:wikidata": "Q668687", "collection_times": "Mo-Fr 11:45; Sa 10:45", "name": "USPS COLLECTION BOX - PO LOBBY", "nsi_id": "unitedstatespostalservice-a77078", "operator": "United States Postal Service", "operator:short": "USPS", "operator:type": "public", "operator:wikidata": "Q668687", "ref": "6247700002"}, "type": "Feature"}
{"dataset_attributes": {"@spider": "usps_collection_boxes", "spider:collection_time": "2023-09-22T08:24:47.468985"}, "geometry": {"coordinates": [-87.667927129, 39.216031587], "type": "Point"}, "id": "Dkk_eL56Xg6mViCx0Mjz39nmvVI=", "properties": {"@spider": "usps_collection_boxes", "addr:city": "WEST UNION", "addr:country": "US", "addr:full": "211 W UNION ST", "addr:postcode": "62477", "addr:state": "IL", "amenity": "post_box", "brand": "United States Postal Service", "brand:wikidata": "Q668687", "collection_times": "Mo-Fr 11:45; Sa 10:30", "name": "USPS COLLECTION BOX - PO LOBBY", "nsi_id": "unitedstatespostalservice-a77078", "operator": "United States Postal Service", "operator:short": "USPS", "operator:type": "public", "operator:wikidata": "Q668687", "ref": "6247700004"}, "type": "Feature"}
{"dataset_attributes": {"@spider": "usps_collection_boxes", "spider:collection_time": "2023-09-22T08:24:47.468985"}, "geometry": {"coordinates": [-87.672435, 39.169374], "type": "Point"}, "id": "gO0ePDR92JSCZPK7hHrg0rTqlN8=", "properties": {"@spider": "usps_collection_boxes", "addr:city": "WEST YORK", "addr:country": "US", "addr:full": "21962 N 1470TH ST", "addr:postcode": "62478", "addr:state": "IL", "amenity": "post_box", "brand": "United States Postal Service", "brand:wikidata": "Q668687", "collection_times": "Mo-Fr 11:45; Sa 09:00", "name": "USPS COLLECTION BOX - BLUE BOX", "nsi_id": "unitedstatespostalservice-a77078", "operator": "United States Postal Service", "operator:short": "USPS", "operator:type": "public", "operator:wikidata": "Q668687", "ref": "6247800001"}, "type": "Feature"}
{"dataset_attributes": {"@spider": "usps_collection_boxes", "spider:collection_time": "2023-09-22T08:24:47.468985"}, "geometry": {"coordinates": [-87.672435, 39.169374], "type": "Point"}, "id": "C-bf41-LWryeglrZXUjQuQLzUlk=", "properties": {"@spider": "usps_collection_boxes", "addr:city": "WEST YORK", "addr:country": "US", "addr:full": "21962 N 1470TH ST", "addr:postcode": "62478", "addr:state": "IL", "amenity": "post_box", "brand": "United States Postal Service", "brand:wikidata": "Q668687", "collection_times": "Mo-Fr 11:45; Sa 09:00", "name": "USPS COLLECTION BOX - PO LOBBY", "nsi_id": "unitedstatespostalservice-a77078", "operator": "United States Postal Service", "operator:short": "USPS", "operator:type": "public", "operator:wikidata": "Q668687", "ref": "6247800002"}, "type": "Feature"}
{"dataset_attributes": {"@spider": "usps_collection_boxes", "spider:collection_time": "2023-09-22T08:24:47.468985"}, "geometry": {"coordinates": [-87.672394934, 39.171517209], "type": "Point"}, "id": "CFYlxo5HJD4tG_VcNYRuJyxCEj4=", "properties": {"@spider": "usps_collection_boxes", "addr:city": "WEST YORK", "addr:country": "US", "addr:full": "21962 N 1470TH ST", "addr:postcode": "62478", "addr:state": "IL", "amenity": "post_box", "brand": "United States Postal Service", "brand:wikidata": "Q668687", "collection_times": "Mo-Fr 11:45; Sa 09:00", "name": "USPS COLLECTION BOX - PO LOBBY", "nsi_id": "unitedstatespostalservice-a77078", "operator": "United States Postal Service", "operator:short": "USPS", "operator:type": "public", "operator:wikidata": "Q668687", "ref": "6247800003"}, "type": "Feature"}
{"dataset_attributes": {"@spider": "usps_collection_boxes", "spider:collection_time": "2023-09-22T08:24:47.468985"}, "geometry": {"coordinates": [-88.316495, 39.045522], "type": "Point"}, "id": "ThEqDKtxEG5d1IJQkYhvGstJ3vo=", "properties": {"@spider": "usps_collection_boxes", "addr:city": "WHEELER", "addr:country": "US", "addr:full": "13244 N MAIN ST", "addr:postcode": "62479", "addr:state": "IL", "amenity": "post_box", "brand": "United States Postal Service", "brand:wikidata": "Q668687", "collection_times": "Mo-Fr 11:15; Sa 09:30", "name": "USPS COLLECTION BOX - BLUE BOX", "nsi_id": "unitedstatespostalservice-a77078", "operator": "United States Postal Service", "operator:short": "USPS", "operator:type": "public", "operator:wikidata": "Q668687", "ref": "6247900001"}, "type": "Feature"}
{"dataset_attributes": {"@spider": "usps_collection_boxes", "spider:collection_time": "2023-09-22T08:24:47.468985"}, "geometry": {"coordinates": [-88.316529, 39.045553], "type": "Point"}, "id": "GwR_OekimqBXq51oRcYuhf-n95Q=", "properties": {"@spider": "usps_collection_boxes", "addr:city": "WHEELER", "addr:country": "US", "addr:full": "13244 N MAIN ST", "addr:postcode": "62479", "addr:state": "IL", "amenity": "post_box", "brand": "United States Postal Service", "brand:wikidata": "Q668687", "collection_times": "Mo-Fr 11:15; Sa 09:30", "name": "USPS COLLECTION BOX - PO LOBBY", "nsi_id": "unitedstatespostalservice-a77078", "operator": "United States Postal Service", "operator:short": "USPS", "operator:type": "public", "operator:wikidata": "Q668687", "ref": "6247900002"}, "type": "Feature"}
{"dataset_attributes": {"@spider": "usps_collection_boxes", "spider:collection_time": "2023-09-22T08:24:47.468985"}, "geometry": {"coordinates": [-88.316495657, 39.045303472], "type": "Point"}, "id": "n9uAORjiZkhQF4XEFZ6QbsDuk3Y=", "properties": {"@spider": "usps_collection_boxes", "addr:city": "WHEELER", "addr:country": "US", "addr:full": "13244 N MAIN ST", "addr:postcode": "62479", "addr:state": "IL", "amenity": "post_box", "brand": "United States Postal Service", "brand:wikidata": "Q668687", "collection_times": "Mo-Fr 11:15; Sa 09:30", "name": "USPS COLLECTION BOX - PO LOBBY", "nsi_id": "unitedstatespostalservice-a77078", "operator": "United States Postal Service", "operator:short": "USPS", "operator:type": "public", "operator:wikidata": "Q668687", "ref": "6247900003"}, "type": "Feature"}
{"dataset_attributes": {"@spider": "usps_collection_boxes", "spider:collection_time": "2023-09-22T08:24:47.468985"}, "geometry": {"coordinates": [-88.0220534, 38.99692], "type": "Point"}, "id": "0yqsbIdTqK2lScTese39asxa-Ek=", "properties": {"@spider": "usps_collection_boxes", "addr:city": "WILLOW HILL", "addr:country": "US", "addr:full": "201 N CUMBERLAND ST", "addr:postcode": "62480", "addr:state": "IL", "amenity": "post_box", "brand": "United States Postal Service", "brand:wikidata": "Q668687", "collection_times": "Mo-Fr 12:00; Sa 10:45", "name": "USPS COLLECTION BOX - BLUE BOX", "nsi_id": "unitedstatespostalservice-a77078", "operator": "United States Postal Service", "operator:short": "USPS", "operator:type": "public", "operator:wikidata": "Q668687", "ref": "6248000001"}, "type": "Feature"}
{"dataset_attributes": {"@spider": "usps_collection_boxes", "spider:collection_time": "2023-09-22T08:24:47.468985"}, "geometry": {"coordinates": [-88.0219199, 38.996969], "type": "Point"}, "id": "Qi8JLvbYdDUnfs6Fty2UcB1ZLQw=", "properties": {"@spider": "usps_collection_boxes", "addr:city": "WILLOW HILL", "addr:country": "US", "addr:full": "201 N CUMBERLAND ST", "addr:postcode": "62480", "addr:state": "IL", "amenity": "post_box", "brand": "United States Postal Service", "brand:wikidata": "Q668687", "collection_times": "Mo-Fr 12:00; Sa 10:45", "name": "USPS COLLECTION BOX - PO LOBBY", "nsi_id": "unitedstatespostalservice-a77078", "operator": "United States Postal Service", "operator:short": "USPS", "operator:type": "public", "operator:wikidata": "Q668687", "ref": "6248000002"}, "type": "Feature"}
{"dataset_attributes": {"@spider": "usps_collection_boxes", "spider:collection_time": "2023-09-22T08:24:47.468985"}, "geometry": {"coordinates": [-88.022102612, 38.996841388], "type": "Point"}, "id": "LfUYHBwU72g6LevEs3lo0-2LVok=", "properties": {"@spider": "usps_collection_boxes", "addr:city": "WILLOW HILL", "addr:country": "US", "addr:full": "201 N CUMBERLAND ST", "addr:postcode": "62480", "addr:state": "IL", "amenity": "post_box", "brand": "United States Postal Service", "brand:wikidata": "Q668687", "collection_times": "Mo-Fr 12:00; Sa 10:45", "name": "USPS COLLECTION BOX - PO LOBBY", "nsi_id": "unitedstatespostalservice-a77078", "operator": "United States Postal Service", "operator:short": "USPS", "operator:type": "public", "operator:wikidata": "Q668687", "ref": "6248000003"}, "type": "Feature"}
{"dataset_attributes": {"@spider": "usps_collection_boxes", "spider:collection_time": "2023-09-22T08:24:47.468985"}, "geometry": {"coordinates": [-88.024882, 39.120893], "type": "Point"}, "id": "PmiauxpMqBEWPR1tpBtfygKQQrU=", "properties": {"@spider": "usps_collection_boxes", "addr:city": "YALE", "addr:country": "US", "addr:full": "200 S RANGE ST", "addr:postcode": "62481", "addr:state": "IL", "amenity": "post_box", "brand": "United States Postal Service", "brand:wikidata": "Q668687", "collection_times": "Mo-Fr 11:15; Sa 09:30", "name": "USPS COLLECTION BOX - BLUE BOX", "nsi_id": "unitedstatespostalservice-a77078", "operator": "United States Postal Service", "operator:short": "USPS", "operator:type": "public", "operator:wikidata": "Q668687", "ref": "6248100001"}, "type": "Feature"}
{"dataset_attributes": {"@spider": "usps_collection_boxes", "spider:collection_time": "2023-09-22T08:24:47.468985"}, "geometry": {"coordinates": [-88.02492, 39.120982], "type": "Point"}, "id": "wbwUBzNRku2NWQq9VHAcdHMCfX0=", "properties": {"@spider": "usps_collection_boxes", "addr:city": "YALE", "addr:country": "US", "addr:full": "200 S RANGE ST", "addr:postcode": "62481", "addr:state": "IL", "amenity": "post_box", "brand": "United States Postal Service", "brand:wikidata": "Q668687", "collection_times": "Mo-Fr 11:15; Sa 09:30", "name": "USPS COLLECTION BOX - PO LOBBY", "nsi_id": "unitedstatespostalservice-a77078", "operator": "United States Postal Service", "operator:short": "USPS", "operator:type": "public", "operator:wikidata": "Q668687", "ref": "6248100003"}, "type": "Feature"}
{"dataset_attributes": {"@spider": "usps_collection_boxes", "spider:collection_time": "2023-09-22T08:24:47.468985"}, "geometry": {"coordinates": [-88.024884624, 39.120903922], "type": "Point"}, "id": "Au7idPAHknCGLygtzyPsf596ZOQ=", "properties": {"@spider": "usps_collection_boxes", "addr:city": "YALE", "addr:country": "US", "addr:full": "200 S RANGE ST", "addr:postcode": "62481", "addr:state": "IL", "amenity": "post_box", "brand": "United States Postal Service", "brand:wikidata": "Q668687", "collection_times": "Mo-Fr 11:15; Sa 09:30", "name": "USPS COLLECTION BOX - PO LOBBY", "nsi_id": "unitedstatespostalservice-a77078", "operator": "United States Postal Service", "operator:short": "USPS", "operator:type": "public", "operator:wikidata": "Q668687", "ref": "6248100004"}, "type": "Feature"}
