{"geometry": {"coordinates": [-88.822523, 39.983081], "type": "Point"}, "id": "GvJ-By9zSIlO-ysNDRhYJh-_A4U=", "properties": {"@spider": "usps_collection_boxes", "addr:city": "ARGENTA", "addr:country": "US", "addr:full": "187 N NORTH ST", "addr:postcode": "62501", "addr:state": "IL", "brand": "USPS", "collection_times": "Mo-Fr 14:15; Sa 08:45", "name": "USPS COLLECTION BOX - BLUE BOX", "note": "ON 12/24 AND 12/31, THIS BOX MAY BE COLLECTED AS EARLY AS 12 NOON.", "ref": "6250100001"}, "type": "Feature"}
{"geometry": {"coordinates": [-88.822487, 39.983117], "type": "Point"}, "id": "CgowQZPjAIzp0rrFMOxMx7GtQ9U=", "properties": {"@spider": "usps_collection_boxes", "addr:city": "ARGENTA", "addr:country": "US", "addr:full": "187 N NORTH ST", "addr:postcode": "62501", "addr:state": "IL", "brand": "USPS", "collection_times": "Mo-Fr 14:15; Sa 08:45", "name": "USPS COLLECTION BOX - PO LOBBY", "note": "ON 12/24 AND 12/31, THIS BOX MAY BE COLLECTED AS EARLY AS 12 NOON.", "ref": "6250100002"}, "type": "Feature"}
{"geometry": {"coordinates": [-88.822529872, 39.983265], "type": "Point"}, "id": "wfBkVjEbVkf_8WXUtFs3m0XrNYY=", "properties": {"@spider": "usps_collection_boxes", "addr:city": "ARGENTA", "addr:country": "US", "addr:full": "187 N NORTH ST", "addr:postcode": "62501", "addr:state": "IL", "brand": "USPS", "collection_times": "Mo-Fr 14:15; Sa 08:45", "name": "USPS COLLECTION BOX - PO LOBBY", "note": "ON 12/24 AND 12/31, THIS BOX MAY BE COLLECTED AS EARLY AS 12 NOON.", "ref": "6250100003"}, "type": "Feature"}
{"geometry": {"coordinates": [-89.049505, 39.521099], "type": "Point"}, "id": "578k9mjQWW8_yF9ZupuRJl-d-E4=", "properties": {"@spider": "usps_collection_boxes", "addr:city": "ASSUMPTION", "addr:country": "US", "addr:full": "219 N CHESTNUT ST", "addr:postcode": "62510", "addr:state": "IL", "brand": "USPS", "collection_times": "Mo-Fr 14:45; Sa 09:45", "name": "USPS COLLECTION BOX - PO LOBBY", "note": "ON 12/24 AND 12/31, THIS BOX MAY BE COLLECTED AS EARLY AS 12 NOON.", "ref": "6251000003"}, "type": "Feature"}
{"geometry": {"coordinates": [-89.049505, 39.521099], "type": "Point"}, "id": "SOVPskQBkNsQYPkLHaquVEkDcUY=", "properties": {"@spider": "usps_collection_boxes", "addr:city": "ASSUMPTION", "addr:country": "US", "addr:full": "219 N CHESTNUT ST", "addr:postcode": "62510", "addr:state": "IL", "brand": "USPS", "collection_times": "Mo-Fr 14:45; Sa 09:45", "name": "USPS COLLECTION BOX - BLUE BOX", "note": "ON 12/24 AND 12/31, THIS BOX MAY BE COLLECTED AS EARLY AS 12 NOON.", "ref": "6251000004"}, "type": "Feature"}
{"geometry": {"coordinates": [-89.049397472, 39.520637556], "type": "Point"}, "id": "FOVCXlzkGW_u2a9OhQgA8wJflq8=", "properties": {"@spider": "usps_collection_boxes", "addr:city": "ASSUMPTION", "addr:country": "US", "addr:full": "219 N CHESTNUT ST", "addr:postcode": "62510", "addr:state": "IL", "brand": "USPS", "collection_times": "Mo-Fr 14:45; Sa 09:45", "name": "USPS COLLECTION BOX - PO LOBBY", "note": "ON 12/24 AND 12/31, THIS BOX MAY BE COLLECTED AS EARLY AS 12 NOON.", "ref": "6251000005"}, "type": "Feature"}
{"geometry": {"coordinates": [-89.193239, 40.143993], "type": "Point"}, "id": "GZtyI98oOilzMgYleclupKjB9sA=", "properties": {"@spider": "usps_collection_boxes", "addr:city": "BEASON", "addr:country": "US", "addr:full": "1555 BROADWAY ST", "addr:postcode": "62512", "addr:state": "IL", "brand": "USPS", "collection_times": "Mo-Fr 11:45; Sa 09:45", "name": "USPS COLLECTION BOX - BLUE BOX", "ref": "6251200000"}, "type": "Feature"}
{"geometry": {"coordinates": [-89.193239, 40.143994], "type": "Point"}, "id": "-ALh7ICkY3OSm82TdLEjeTiBXAA=", "properties": {"@spider": "usps_collection_boxes", "addr:city": "BEASON", "addr:country": "US", "addr:full": "1555 BROADWAY ST", "addr:postcode": "62512", "addr:state": "IL", "brand": "USPS", "collection_times": "Mo-Fr 11:45; Sa 09:45", "name": "USPS COLLECTION BOX - PO LOBBY", "ref": "6251200001"}, "type": "Feature"}
{"geometry": {"coordinates": [-89.193239416, 40.143932665], "type": "Point"}, "id": "gkWrXA2WYp2pgeTBsy2esZaGvnM=", "properties": {"@spider": "usps_collection_boxes", "addr:city": "BEASON", "addr:country": "US", "addr:full": "1555 BROADWAY ST", "addr:postcode": "62512", "addr:state": "IL", "brand": "USPS", "collection_times": "Mo-Fr 11:45; Sa 09:45", "name": "USPS COLLECTION BOX - PO LOBBY", "ref": "6251200002"}, "type": "Feature"}
{"geometry": {"coordinates": [-89.123161, 39.700262], "type": "Point"}, "id": "FZjD1k_4-dm3ObtqwBQI8NJsFZM=", "properties": {"@spider": "usps_collection_boxes", "addr:city": "BLUE MOUND", "addr:country": "US", "addr:full": "230 W NILES ST", "addr:postcode": "62513", "addr:state": "IL", "brand": "USPS", "collection_times": "Mo-Fr 14:30; Sa 09:30", "name": "USPS COLLECTION BOX - BLUE BOX", "note": "ON 12/24 AND 12/31, THIS BOX MAY BE COLLECTED AS EARLY AS 12 NOON.", "ref": "6251300001"}, "type": "Feature"}
{"geometry": {"coordinates": [-89.123116, 39.700289], "type": "Point"}, "id": "y7_ldOsgU5Wo6MY5uZLvqyCIdgA=", "properties": {"@spider": "usps_collection_boxes", "addr:city": "BLUE MOUND", "addr:country": "US", "addr:full": "230 W NILES ST", "addr:postcode": "62513", "addr:state": "IL", "brand": "USPS", "collection_times": "Mo-Fr 14:30; Sa 09:30", "name": "USPS COLLECTION BOX - PO LOBBY", "note": "ON 12/24 AND 12/31, THIS BOX MAY BE COLLECTED AS EARLY AS 12 NOON.", "ref": "6251300002"}, "type": "Feature"}
{"geometry": {"coordinates": [-89.123138193, 39.700208981], "type": "Point"}, "id": "QERfb5VtbgO0wLvW2qZeqm58KJk=", "properties": {"@spider": "usps_collection_boxes", "addr:city": "BLUE MOUND", "addr:country": "US", "addr:full": "230 W NILES ST", "addr:postcode": "62513", "addr:state": "IL", "brand": "USPS", "collection_times": "Mo-Fr 14:30; Sa 09:30", "name": "USPS COLLECTION BOX - PO LOBBY", "note": "ON 12/24 AND 12/31, THIS BOX MAY BE COLLECTED AS EARLY AS 12 NOON.", "ref": "6251300003"}, "type": "Feature"}
{"geometry": {"coordinates": [-89.049088, 39.764253], "type": "Point"}, "id": "xMc07jAs3rNFC18VwIbjfsA0bj0=", "properties": {"@spider": "usps_collection_boxes", "addr:city": "BOODY", "addr:country": "US", "addr:full": "6164 S ROUTE 48", "addr:postcode": "62514", "addr:state": "IL", "brand": "USPS", "collection_times": "Mo-Fr 13:45; Sa 10:30", "name": "USPS COLLECTION BOX - BLUE BOX", "note": "ON 12/24 AND 12/31, THIS BOX MAY BE COLLECTED AS EARLY AS 12 NOON.", "ref": "6251400000"}, "type": "Feature"}
{"geometry": {"coordinates": [-89.049138, 39.764252], "type": "Point"}, "id": "1vMavGx5GF5aJyfPlwLUq-_EypA=", "properties": {"@spider": "usps_collection_boxes", "addr:city": "BOODY", "addr:country": "US", "addr:full": "6164 S ROUTE 48", "addr:postcode": "62514", "addr:state": "IL", "brand": "USPS", "collection_times": "Mo-Fr 13:45; Sa 11:45", "name": "USPS COLLECTION BOX - PO LOBBY", "note": "ON 12/24 AND 12/31, THIS BOX MAY BE COLLECTED AS EARLY AS 12 NOON.", "ref": "6251400001"}, "type": "Feature"}
{"geometry": {"coordinates": [-89.050561168, 39.762985664], "type": "Point"}, "id": "MkRlYNyLplku7f2w01x-n_0lews=", "properties": {"@spider": "usps_collection_boxes", "addr:city": "BOODY", "addr:country": "US", "addr:full": "6164 S ROUTE 48", "addr:postcode": "62514", "addr:state": "IL", "brand": "USPS", "collection_times": "Mo-Fr 13:45; Sa 11:45", "name": "USPS COLLECTION BOX - PO LOBBY", "note": "ON 12/24 AND 12/31, THIS BOX MAY BE COLLECTED AS EARLY AS 12 NOON.", "ref": "6251400002"}, "type": "Feature"}
{"geometry": {"coordinates": [-89.408601, 39.8524225101], "type": "Point"}, "id": "W2fkKrmdz7NJ_r8eHCGalLCvNdc=", "properties": {"@spider": "usps_collection_boxes", "addr:city": "BUFFALO", "addr:country": "US", "addr:full": "102 W ELM ST", "addr:postcode": "62515", "addr:state": "IL", "brand": "USPS", "collection_times": "Mo-Fr 11:45; Sa 09:45", "name": "USPS COLLECTION BOX - BLUE BOX", "ref": "6251500001"}, "type": "Feature"}
{"geometry": {"coordinates": [-89.408601, 39.8524225101], "type": "Point"}, "id": "52Y42L4EN4vr62C_QhMVrznfd1U=", "properties": {"@spider": "usps_collection_boxes", "addr:city": "BUFFALO", "addr:country": "US", "addr:full": "102 W ELM ST", "addr:postcode": "62515", "addr:state": "IL", "brand": "USPS", "collection_times": "Mo-Fr 11:45; Sa 09:45", "name": "USPS COLLECTION BOX - PO LOBBY", "ref": "6251500002"}, "type": "Feature"}
{"geometry": {"coordinates": [-89.408601, 39.8524225101], "type": "Point"}, "id": "q5utOIjrcFdRNEBHIVciZ3Rx1kw=", "properties": {"@spider": "usps_collection_boxes", "addr:city": "BUFFALO", "addr:country": "US", "addr:full": "102 W ELM ST", "addr:postcode": "62515", "addr:state": "IL", "brand": "USPS", "collection_times": "Mo-Fr 11:45; Sa 09:45", "name": "USPS COLLECTION BOX - PO LOBBY", "ref": "6251500003"}, "type": "Feature"}
{"geometry": {"coordinates": [-89.184861, 40.0529], "type": "Point"}, "id": "K2Y73_2Jf16AH9FQIEOjsUS27Bs=", "properties": {"@spider": "usps_collection_boxes", "addr:city": "CHESTNUT", "addr:country": "US", "addr:full": "120 E OLIVE ST", "addr:postcode": "62518", "addr:state": "IL", "brand": "USPS", "collection_times": "Mo-Fr 11:15; Sa 11:45", "name": "USPS COLLECTION BOX - BLUE BOX", "ref": "6251800000"}, "type": "Feature"}
{"geometry": {"coordinates": [-89.184954, 40.052873], "type": "Point"}, "id": "f6E6jVf8mTfpMZWimeOelV8cxqc=", "properties": {"@spider": "usps_collection_boxes", "addr:city": "CHESTNUT", "addr:country": "US", "addr:full": "120 E OLIVE ST", "addr:postcode": "62518", "addr:state": "IL", "brand": "USPS", "collection_times": "Mo-Fr 11:15; Sa 11:45", "name": "USPS COLLECTION BOX - PO LOBBY", "ref": "6251800001"}, "type": "Feature"}
{"geometry": {"coordinates": [-89.184050832, 40.052884493], "type": "Point"}, "id": "FFIYoeFf3abZRETkV4Mw_6EVErw=", "properties": {"@spider": "usps_collection_boxes", "addr:city": "CHESTNUT", "addr:country": "US", "addr:full": "120 E OLIVE ST", "addr:postcode": "62518", "addr:state": "IL", "brand": "USPS", "collection_times": "Mo-Fr 11:15; Sa 11:45", "name": "USPS COLLECTION BOX - PO LOBBY", "ref": "6251800002"}, "type": "Feature"}
{"geometry": {"coordinates": [-89.40196, 39.937339], "type": "Point"}, "id": "A-eC56jDixyTN5OeTTpUGjUknzk=", "properties": {"@spider": "usps_collection_boxes", "addr:city": "CORNLAND", "addr:country": "US", "addr:full": "1017 DAY ST", "addr:postcode": "62519", "addr:state": "IL", "brand": "USPS", "collection_times": "Mo-Fr 14:15; Sa 11:45", "name": "USPS COLLECTION BOX - BLUE BOX", "note": "ON 12/24 AND 12/31, THIS BOX MAY BE COLLECTED AS EARLY AS 12 NOON.", "ref": "6251900000"}, "type": "Feature"}
{"geometry": {"coordinates": [-89.402018, 39.937367], "type": "Point"}, "id": "4oNYoDxe0u6hacCQLQiDedyKFhA=", "properties": {"@spider": "usps_collection_boxes", "addr:city": "CORNLAND", "addr:country": "US", "addr:full": "1017 DAY ST", "addr:postcode": "62519", "addr:state": "IL", "brand": "USPS", "collection_times": "Mo-Fr 14:15; Sa 11:45", "name": "USPS COLLECTION BOX - PO LOBBY", "note": "ON 12/24 AND 12/31, THIS BOX MAY BE COLLECTED AS EARLY AS 12 NOON.", "ref": "6251900001"}, "type": "Feature"}
{"geometry": {"coordinates": [-89.401644, 39.937331496], "type": "Point"}, "id": "vMRV-71Aw7nN7g-KiDHapGr91AQ=", "properties": {"@spider": "usps_collection_boxes", "addr:city": "CORNLAND", "addr:country": "US", "addr:full": "1017 DAY ST", "addr:postcode": "62519", "addr:state": "IL", "brand": "USPS", "collection_times": "Mo-Fr 14:15; Sa 11:45", "name": "USPS COLLECTION BOX - PO LOBBY", "note": "ON 12/24 AND 12/31, THIS BOX MAY BE COLLECTED AS EARLY AS 12 NOON.", "ref": "6251900002"}, "type": "Feature"}
{"geometry": {"coordinates": [-89.463324, 39.853891], "type": "Point"}, "id": "LWwLa41RugkOoKU7pJTUKJAij8E=", "properties": {"@spider": "usps_collection_boxes", "addr:city": "DAWSON", "addr:country": "US", "addr:full": "106 N CONSTANT ST", "addr:postcode": "62520", "addr:state": "IL", "brand": "USPS", "collection_times": "Mo-Fr 11:30; Sa 09:00", "name": "USPS COLLECTION BOX - BLUE BOX", "ref": "6252000001"}, "type": "Feature"}
{"geometry": {"coordinates": [-89.463359, 39.853801], "type": "Point"}, "id": "WtLulSk_jmtyNg9GoIQIVeln6_w=", "properties": {"@spider": "usps_collection_boxes", "addr:city": "DAWSON", "addr:country": "US", "addr:full": "106 N CONSTANT ST", "addr:postcode": "62520", "addr:state": "IL", "brand": "USPS", "collection_times": "Mo-Fr 11:30; Sa 09:00", "name": "USPS COLLECTION BOX - PO LOBBY", "ref": "6252000002"}, "type": "Feature"}
{"geometry": {"coordinates": [-89.463328158, 39.853944], "type": "Point"}, "id": "5w4h5Kw9NRx1IKbyEvo7bKQDNJk=", "properties": {"@spider": "usps_collection_boxes", "addr:city": "DAWSON", "addr:country": "US", "addr:full": "106 N CONSTANT ST", "addr:postcode": "62520", "addr:state": "IL", "brand": "USPS", "collection_times": "Mo-Fr 11:30; Sa 09:15", "name": "USPS COLLECTION BOX - PO LOBBY", "ref": "6252000003"}, "type": "Feature"}
{"geometry": {"coordinates": [-88.9573949, 39.82158], "type": "Point"}, "id": "365YG-dgmEiVwCKPl_hCv_yVtqU=", "properties": {"@spider": "usps_collection_boxes", "addr:city": "DECATUR", "addr:country": "US", "addr:full": "245 W 1ST DR", "addr:postcode": "62521", "addr:state": "IL", "brand": "USPS", "collection_times": "Mo-Sa 17:00", "name": "USPS COLLECTION BOX - BLUE BOX", "note": "ON 12/24 AND 12/31, THIS BOX MAY BE COLLECTED AS EARLY AS 12 NOON.", "ref": "6252100015"}, "type": "Feature"}
{"geometry": {"coordinates": [-88.9575992, 39.822004], "type": "Point"}, "id": "Q35xnbW4rNXRhDSrt09kL4AqzZM=", "properties": {"@spider": "usps_collection_boxes", "addr:city": "DECATUR", "addr:country": "US", "addr:full": "280 W 1ST DR", "addr:postcode": "62521", "addr:state": "IL", "brand": "USPS", "collection_times": "Mo-Sa 17:00", "name": "USPS COLLECTION BOX - BLUE BOX", "note": "ON 12/24 AND 12/31, THIS BOX MAY BE COLLECTED AS EARLY AS 12 NOON.", "ref": "6252100016"}, "type": "Feature"}
{"geometry": {"coordinates": [-88.9323972, 39.827368], "type": "Point"}, "id": "oTJwssnhxRmnouU_IphMGujiWqM=", "properties": {"@spider": "usps_collection_boxes", "addr:city": "DECATUR", "addr:country": "US", "addr:full": "1800 E LAKE SHORE DR", "addr:postcode": "62521", "addr:state": "IL", "brand": "USPS", "collection_times": "Mo-Sa 17:00", "name": "USPS COLLECTION BOX - BLUE BOX", "note": "ON 12/24 AND 12/31, THIS BOX MAY BE COLLECTED AS EARLY AS 12 NOON.", "ref": "6252100019"}, "type": "Feature"}
{"geometry": {"coordinates": [-88.9099533, 39.819944], "type": "Point"}, "id": "4wlt9oeZliZ1pYkK1RokxdzhdoU=", "properties": {"@spider": "usps_collection_boxes", "addr:city": "DECATUR", "addr:country": "US", "addr:full": "1822 S LYNNWOOD CT", "addr:postcode": "62521", "addr:state": "IL", "brand": "USPS", "collection_times": "Mo-Sa 15:00", "name": "USPS COLLECTION BOX - BLUE BOX", "note": "ON 12/24 AND 12/31, THIS BOX MAY BE COLLECTED AS EARLY AS 12 NOON.", "ref": "6252100023"}, "type": "Feature"}
{"geometry": {"coordinates": [-88.8778921, 39.818042], "type": "Point"}, "id": "9qa5HAYHljsDMkngZUvdaaT5ZSI=", "properties": {"@spider": "usps_collection_boxes", "addr:city": "DECATUR", "addr:country": "US", "addr:full": "1920 S MOUNT ZION RD", "addr:postcode": "62521", "addr:state": "IL", "brand": "USPS", "collection_times": "Mo-Sa 16:00", "name": "USPS COLLECTION BOX - BLUE BOX", "note": "ON 12/24 AND 12/31, THIS BOX MAY BE COLLECTED AS EARLY AS 12 NOON.", "ref": "6252100034"}, "type": "Feature"}
{"geometry": {"coordinates": [-88.9123233, 39.823379], "type": "Point"}, "id": "Mp0W-O0X1kMZfwgrcJuYlyPMlGs=", "properties": {"@spider": "usps_collection_boxes", "addr:city": "DECATUR", "addr:country": "US", "addr:full": "1707 S COUNTRY CLUB RD", "addr:postcode": "62521", "addr:state": "IL", "brand": "USPS", "collection_times": "Mo-Sa 14:00", "name": "USPS COLLECTION BOX - BLUE BOX", "note": "ON 12/24 AND 12/31, THIS BOX MAY BE COLLECTED AS EARLY AS 12 NOON.", "ref": "6252100044"}, "type": "Feature"}
{"geometry": {"coordinates": [-88.9245864, 39.84515], "type": "Point"}, "id": "QROVa_AcHhqKnkB_eLayaZ13Opo=", "properties": {"@spider": "usps_collection_boxes", "addr:city": "DECATUR", "addr:country": "US", "addr:full": "2236 E WILLIAM ST", "addr:postcode": "62521", "addr:state": "IL", "brand": "USPS", "collection_times": "Mo-Sa 16:30", "name": "USPS COLLECTION BOX - BLUE BOX", "note": "ON 12/24 AND 12/31, THIS BOX MAY BE COLLECTED AS EARLY AS 12 NOON.", "ref": "6252100060"}, "type": "Feature"}
{"geometry": {"coordinates": [-88.8973299, 39.850754], "type": "Point"}, "id": "A1cls75Nk-Dmz9eI4KyIW3_wBLc=", "properties": {"@spider": "usps_collection_boxes", "addr:city": "DECATUR", "addr:country": "US", "addr:full": "3800 E WILLIAM STREET RD", "addr:postcode": "62521", "addr:state": "IL", "brand": "USPS", "collection_times": "Mo-Sa 16:30", "name": "USPS COLLECTION BOX - BLUE BOX", "note": "ON 12/24 AND 12/31, THIS BOX MAY BE COLLECTED AS EARLY AS 12 NOON.", "ref": "6252100064"}, "type": "Feature"}
{"geometry": {"coordinates": [-88.9364891, 39.833174], "type": "Point"}, "id": "7DtXlWb8as1eLLAlRq1dMeFvvHg=", "properties": {"@spider": "usps_collection_boxes", "addr:city": "DECATUR", "addr:country": "US", "addr:full": "1595 E CANTRELL ST", "addr:postcode": "62521", "addr:state": "IL", "brand": "USPS", "collection_times": "Mo-Sa 17:00", "name": "USPS COLLECTION BOX - BLUE BOX", "note": "ON 12/24 AND 12/31, THIS BOX MAY BE COLLECTED AS EARLY AS 12 NOON.", "ref": "6252100070"}, "type": "Feature"}
{"geometry": {"coordinates": [-88.8824999, 39.821165], "type": "Point"}, "id": "qkX2sfsqgmsCobu5Jrx-NaunpaI=", "properties": {"@spider": "usps_collection_boxes", "addr:city": "DECATUR", "addr:country": "US", "addr:full": "1818 AIRPORT PLZ", "addr:postcode": "62521", "addr:state": "IL", "brand": "USPS", "collection_times": "Mo-Sa 16:00", "name": "USPS COLLECTION BOX - BLUE BOX", "note": "ON 12/24 AND 12/31, THIS BOX MAY BE COLLECTED AS EARLY AS 12 NOON.", "ref": "6252100071"}, "type": "Feature"}
{"geometry": {"coordinates": [-88.9799169, 39.84901], "type": "Point"}, "id": "-79NVTS6tsH7JhS3huhuNgfkq6E=", "properties": {"@spider": "usps_collection_boxes", "addr:city": "DECATUR", "addr:country": "US", "addr:full": "1300 W KING ST", "addr:postcode": "62522", "addr:state": "IL", "brand": "USPS", "collection_times": "Mo-Sa 16:00", "name": "USPS COLLECTION BOX - BLUE BOX", "note": "ON 12/24 AND 12/31, THIS BOX MAY BE COLLECTED AS EARLY AS 12 NOON.", "ref": "6252200006"}, "type": "Feature"}
{"geometry": {"coordinates": [-88.9733657, 39.840169], "type": "Point"}, "id": "niUwkHGe4ypMRVxCWGrZkh4QAqA=", "properties": {"@spider": "usps_collection_boxes", "addr:city": "DECATUR", "addr:country": "US", "addr:full": "1130 W WOOD ST", "addr:postcode": "62522", "addr:state": "IL", "brand": "USPS", "collection_times": "Mo-Sa 16:00", "name": "USPS COLLECTION BOX - BLUE BOX", "note": "ON 12/24 AND 12/31, THIS BOX MAY BE COLLECTED AS EARLY AS 12 NOON.", "ref": "6252200014"}, "type": "Feature"}
{"geometry": {"coordinates": [-89.0288550954, 39.846285325], "type": "Point"}, "id": "NaR-_JZLD_7ddjxTmjvzFUT8Z6U=", "properties": {"@spider": "usps_collection_boxes", "addr:city": "DECATUR", "addr:country": "US", "addr:full": "355 N WYCKLES RD", "addr:postcode": "62522", "addr:state": "IL", "brand": "USPS", "collection_times": "Mo-Sa 15:00", "name": "USPS COLLECTION BOX - BLUE BOX", "note": "ON 12/24 AND 12/31, THIS BOX MAY BE COLLECTED AS EARLY AS 12 NOON.", "ref": "6252200015"}, "type": "Feature"}
{"geometry": {"coordinates": [-88.9542707, 39.842141], "type": "Point"}, "id": "prmTT4tmgUx0BkwTAeIfvtQmFfY=", "properties": {"@spider": "usps_collection_boxes", "addr:city": "DECATUR", "addr:country": "US", "addr:full": "250 E PARK ST", "addr:postcode": "62523", "addr:state": "IL", "brand": "USPS", "collection_times": "Mo-Sa 17:00", "name": "USPS COLLECTION BOX - BLUE BOX", "note": "ON 12/24 AND 12/31, THIS BOX MAY BE COLLECTED AS EARLY AS 12 NOON.", "ref": "6252300001"}, "type": "Feature"}
{"geometry": {"coordinates": [-88.9542767, 39.842177], "type": "Point"}, "id": "NY8XPpRqG5_6N4FErQY_X2tHcXc=", "properties": {"@spider": "usps_collection_boxes", "addr:city": "DECATUR", "addr:country": "US", "addr:full": "250 E PARK ST", "addr:postcode": "62523", "addr:state": "IL", "brand": "USPS", "collection_times": "Mo-Sa 17:00", "name": "USPS COLLECTION BOX - BLUE BOX", "note": "ON 12/24 AND 12/31, THIS BOX MAY BE COLLECTED AS EARLY AS 12 NOON.", "ref": "6252300002"}, "type": "Feature"}
{"geometry": {"coordinates": [-88.953, 39.842732], "type": "Point"}, "id": "2QR4W6s80_P_VBbuD7h0o_qCwLY=", "properties": {"@spider": "usps_collection_boxes", "addr:city": "DECATUR", "addr:country": "US", "addr:full": "214 N FRANKLIN ST", "addr:postcode": "62523", "addr:state": "IL", "brand": "USPS", "collection_times": "Mo-Fr 17:30; Sa 15:30", "name": "USPS COLLECTION BOX - PO LOBBY", "note": "ON 12/24 AND 12/31, THIS BOX MAY BE COLLECTED AS EARLY AS 12 NOON.", "ref": "6252300005"}, "type": "Feature"}
{"geometry": {"coordinates": [-88.9559553, 39.840794], "type": "Point"}, "id": "ru126Ir8idap-4cgz7W7yLgrxxY=", "properties": {"@spider": "usps_collection_boxes", "addr:city": "DECATUR", "addr:country": "US", "addr:full": "125 S MAIN ST", "addr:postcode": "62523", "addr:state": "IL", "brand": "USPS", "collection_times": "Mo-Sa 16:30", "name": "USPS COLLECTION BOX - BLUE BOX", "note": "ON 12/24 AND 12/31, THIS BOX MAY BE COLLECTED AS EARLY AS 12 NOON.", "ref": "6252300006"}, "type": "Feature"}
{"geometry": {"coordinates": [-88.9556863, 39.838793], "type": "Point"}, "id": "CWfRh1IRS2UFTSpuhMJIyso12VU=", "properties": {"@spider": "usps_collection_boxes", "addr:city": "DECATUR", "addr:country": "US", "addr:full": "363 S MAIN ST", "addr:postcode": "62523", "addr:state": "IL", "brand": "USPS", "collection_times": "Mo-Sa 16:30", "name": "USPS COLLECTION BOX - BLUE BOX", "note": "ON 12/24 AND 12/31, THIS BOX MAY BE COLLECTED AS EARLY AS 12 NOON.", "ref": "6252300013"}, "type": "Feature"}
{"geometry": {"coordinates": [-88.9570922, 39.842547], "type": "Point"}, "id": "pBspEfkAi521YPtnXwFFVwEZ-rY=", "properties": {"@spider": "usps_collection_boxes", "addr:city": "DECATUR", "addr:country": "US", "addr:full": "158 W PRAIRIE AVE", "addr:postcode": "62523", "addr:state": "IL", "brand": "USPS", "collection_times": "Mo-Sa 16:00", "name": "USPS COLLECTION BOX - BLUE BOX", "note": "ON 12/24 AND 12/31, THIS BOX MAY BE COLLECTED AS EARLY AS 12 NOON.", "ref": "6252300016"}, "type": "Feature"}
{"geometry": {"coordinates": [-88.9551603, 39.843239], "type": "Point"}, "id": "LJXdu58G8HcqWh1fJqoVcMYkKVg=", "properties": {"@spider": "usps_collection_boxes", "addr:city": "DECATUR", "addr:country": "US", "addr:full": "225 N WATER ST", "addr:postcode": "62523", "addr:state": "IL", "brand": "USPS", "collection_times": "Mo-Sa 16:00", "name": "USPS COLLECTION BOX - BLUE BOX", "note": "ON 12/24 AND 12/31, THIS BOX MAY BE COLLECTED AS EARLY AS 12 NOON.", "ref": "6252300019"}, "type": "Feature"}
{"geometry": {"coordinates": [-88.9551548, 39.843237], "type": "Point"}, "id": "VGtgjCaMytPrrFoYI1oLlYiZbpo=", "properties": {"@spider": "usps_collection_boxes", "addr:city": "DECATUR", "addr:country": "US", "addr:full": "225 N WATER ST", "addr:postcode": "62523", "addr:state": "IL", "brand": "USPS", "collection_times": "Mo-Sa 16:00", "name": "USPS COLLECTION BOX - BLUE BOX", "note": "ON 12/24 AND 12/31, THIS BOX MAY BE COLLECTED AS EARLY AS 12 NOON.", "ref": "6252300020"}, "type": "Feature"}
{"geometry": {"coordinates": [-88.9545159, 39.840826], "type": "Point"}, "id": "TkFzLg87T38S0nsR3_Qk247i3ao=", "properties": {"@spider": "usps_collection_boxes", "addr:city": "DECATUR", "addr:country": "US", "addr:full": "132 S WATER ST", "addr:postcode": "62523", "addr:state": "IL", "brand": "USPS", "collection_times": "Mo-Sa 16:30", "name": "USPS COLLECTION BOX - BLUE BOX", "note": "ON 12/24 AND 12/31, THIS BOX MAY BE COLLECTED AS EARLY AS 12 NOON.", "ref": "6252300028"}, "type": "Feature"}
{"geometry": {"coordinates": [-88.9543427, 39.844768], "type": "Point"}, "id": "poMmQ9q1c4fUv2b-xg_7L38JPjE=", "properties": {"@spider": "usps_collection_boxes", "addr:city": "DECATUR", "addr:country": "US", "addr:full": "410 N WATER ST", "addr:postcode": "62523", "addr:state": "IL", "brand": "USPS", "collection_times": "Mo-Sa 16:00", "name": "USPS COLLECTION BOX - BLUE BOX", "note": "ON 12/24 AND 12/31, THIS BOX MAY BE COLLECTED AS EARLY AS 12 NOON.", "ref": "6252300032"}, "type": "Feature"}
{"geometry": {"coordinates": [-88.9531557, 39.843411], "type": "Point"}, "id": "1_u2MUzA4mWjGcPMh1Io_fUznUY=", "properties": {"@spider": "usps_collection_boxes", "addr:city": "DECATUR", "addr:country": "US", "addr:full": "295 N FRANKLIN ST", "addr:postcode": "62523", "addr:state": "IL", "brand": "USPS", "collection_times": "Mo-Sa 17:00", "name": "USPS COLLECTION BOX - BLUE BOX", "note": "ON 12/24 AND 12/31, THIS BOX MAY BE COLLECTED AS EARLY AS 12 NOON.", "ref": "6252300034"}, "type": "Feature"}
{"geometry": {"coordinates": [-88.9530182264, 39.843099199], "type": "Point"}, "id": "y0oyuz8qp0nZMxRc4mc8zuBQIdU=", "properties": {"@spider": "usps_collection_boxes", "addr:city": "DECATUR", "addr:country": "US", "addr:full": "214 N FRANKLIN ST FL 1", "addr:postcode": "62523", "addr:state": "IL", "brand": "USPS", "collection_times": "Mo-Fr 17:00; Sa 12:00", "name": "USPS COLLECTION BOX - PO LOBBY", "note": "ON 12/24 AND 12/31, THIS BOX MAY BE COLLECTED AS EARLY AS 12 NOON.", "ref": "6252300035"}, "type": "Feature"}
{"geometry": {"coordinates": [-88.9606352, 39.867041], "type": "Point"}, "id": "_5JPxNEl4w4jzh48XceuNXX2gaU=", "properties": {"@spider": "usps_collection_boxes", "addr:city": "DECATUR", "addr:country": "US", "addr:full": "2300 N EDWARD ST", "addr:postcode": "62526", "addr:state": "IL", "brand": "USPS", "collection_times": "Mo-Sa 15:00", "name": "USPS COLLECTION BOX - BLUE BOX", "note": "ON 12/24 AND 12/31, THIS BOX MAY BE COLLECTED AS EARLY AS 12 NOON.", "ref": "6252600002"}, "type": "Feature"}
{"geometry": {"coordinates": [-88.9639749, 39.875007], "type": "Point"}, "id": "vx63Ow26gzhiqgqTrnNafbQlWLQ=", "properties": {"@spider": "usps_collection_boxes", "addr:city": "DECATUR", "addr:country": "US", "addr:full": "2884 N MONROE ST", "addr:postcode": "62526", "addr:state": "IL", "brand": "USPS", "collection_times": "Mo-Sa 15:00", "name": "USPS COLLECTION BOX - BLUE BOX", "note": "ON 12/24 AND 12/31, THIS BOX MAY BE COLLECTED AS EARLY AS 12 NOON.", "ref": "6252600008"}, "type": "Feature"}
{"geometry": {"coordinates": [-88.934821643, 39.891844483], "type": "Point"}, "id": "U5_js5JXzTq1QtXdDxEJuOg5Rg8=", "properties": {"@spider": "usps_collection_boxes", "addr:city": "DECATUR", "addr:country": "US", "addr:full": "1601 E MOUND RD", "addr:postcode": "62526", "addr:state": "IL", "brand": "USPS", "collection_times": "Mo-Fr 17:30; Sa 17:00", "name": "USPS COLLECTION BOX - BLUE BOX", "note": "ON 12/24 AND 12/31, THIS BOX MAY BE COLLECTED AS EARLY AS 12 NOON.", "ref": "6252600010"}, "type": "Feature"}
{"geometry": {"coordinates": [-88.934821643, 39.891844483], "type": "Point"}, "id": "KkweCUiqs-Sb6iY2d4CQ6TMB7pk=", "properties": {"@spider": "usps_collection_boxes", "addr:city": "DECATUR", "addr:country": "US", "addr:full": "1601 E MOUND RD", "addr:postcode": "62526", "addr:state": "IL", "brand": "USPS", "collection_times": "Mo-Fr 17:30; Sa 17:00", "name": "USPS COLLECTION BOX - BLUE BOX", "note": "ON 12/24 AND 12/31, THIS BOX MAY BE COLLECTED AS EARLY AS 12 NOON.", "ref": "6252600011"}, "type": "Feature"}
{"geometry": {"coordinates": [-88.923900972, 39.883894021], "type": "Point"}, "id": "SKWBfn926u-hnAlykckuMIsGtss=", "properties": {"@spider": "usps_collection_boxes", "addr:city": "DECATUR", "addr:country": "US", "addr:full": "2300 E HUBBARD AVE", "addr:postcode": "62526", "addr:state": "IL", "brand": "USPS", "collection_times": "Mo-Fr 17:15; Sa 16:45", "name": "USPS COLLECTION BOX - BLUE BOX", "note": "ON 12/24 AND 12/31, THIS BOX MAY BE COLLECTED AS EARLY AS 12 NOON.", "ref": "6252600013"}, "type": "Feature"}
{"geometry": {"coordinates": [-88.987497745, 39.854799419], "type": "Point"}, "id": "msFtRegGoDxd6WfcupzAfgFpWuM=", "properties": {"@spider": "usps_collection_boxes", "addr:city": "DECATUR", "addr:country": "US", "addr:full": "1310 N SUMMIT AVE", "addr:postcode": "62526", "addr:state": "IL", "brand": "USPS", "collection_times": "Mo-Sa 15:00", "name": "USPS COLLECTION BOX - BLUE BOX", "note": "ON 12/24 AND 12/31, THIS BOX MAY BE COLLECTED AS EARLY AS 12 NOON.", "ref": "6252600020"}, "type": "Feature"}
{"geometry": {"coordinates": [-88.9699034, 39.876196], "type": "Point"}, "id": "DTUomFUYDt0JScAoGeOemXRaOVk=", "properties": {"@spider": "usps_collection_boxes", "addr:city": "DECATUR", "addr:country": "US", "addr:full": "985 W PERSHING RD", "addr:postcode": "62526", "addr:state": "IL", "brand": "USPS", "collection_times": "Mo-Sa 15:00", "name": "USPS COLLECTION BOX - BLUE BOX", "note": "ON 12/24 AND 12/31, THIS BOX MAY BE COLLECTED AS EARLY AS 12 NOON.", "ref": "6252600023"}, "type": "Feature"}
{"geometry": {"coordinates": [-88.9728068, 39.866923], "type": "Point"}, "id": "hdMNMHD5nrIwu7Z4v2ImdWpu1aA=", "properties": {"@spider": "usps_collection_boxes", "addr:city": "DECATUR", "addr:country": "US", "addr:full": "2320 N OAKLAND AVE", "addr:postcode": "62526", "addr:state": "IL", "brand": "USPS", "collection_times": "Mo-Sa 15:00", "name": "USPS COLLECTION BOX - BLUE BOX", "note": "ON 12/24 AND 12/31, THIS BOX MAY BE COLLECTED AS EARLY AS 12 NOON.", "ref": "6252600029"}, "type": "Feature"}
{"geometry": {"coordinates": [-88.972360021, 39.8669669823], "type": "Point"}, "id": "6xloAvV4aRC-ntn5_udh3lxe8Tw=", "properties": {"@spider": "usps_collection_boxes", "addr:city": "DECATUR", "addr:country": "US", "addr:full": "2320 N OAKLAND AVE", "addr:postcode": "62526", "addr:state": "IL", "brand": "USPS", "collection_times": "Mo-Sa 15:00", "name": "USPS COLLECTION BOX - BLUE BOX", "note": "ON 12/24 AND 12/31, THIS BOX MAY BE COLLECTED AS EARLY AS 12 NOON.", "ref": "6252600030"}, "type": "Feature"}
{"geometry": {"coordinates": [-88.9543581, 39.875563], "type": "Point"}, "id": "_gRptjqa8vHZSHnpSMcOgFHWaB4=", "properties": {"@spider": "usps_collection_boxes", "addr:city": "DECATUR", "addr:country": "US", "addr:full": "2960 N WATER ST", "addr:postcode": "62526", "addr:state": "IL", "brand": "USPS", "collection_times": "Mo-Fr 17:00; Sa 16:30", "name": "USPS COLLECTION BOX - BLUE BOX", "note": "ON 12/24 AND 12/31, THIS BOX MAY BE COLLECTED AS EARLY AS 12 NOON.", "ref": "6252600044"}, "type": "Feature"}
{"geometry": {"coordinates": [-88.9543955, 39.875559], "type": "Point"}, "id": "sqiyTLiX5ltelF2mbJrd7OjgRsg=", "properties": {"@spider": "usps_collection_boxes", "addr:city": "DECATUR", "addr:country": "US", "addr:full": "2960 N WATER ST", "addr:postcode": "62526", "addr:state": "IL", "brand": "USPS", "collection_times": "Mo-Fr 17:00; Sa 16:30", "name": "USPS COLLECTION BOX - BLUE BOX", "note": "ON 12/24 AND 12/31, THIS BOX MAY BE COLLECTED AS EARLY AS 12 NOON.", "ref": "6252600049"}, "type": "Feature"}
{"geometry": {"coordinates": [-88.9543487, 39.878121], "type": "Point"}, "id": "j-t8NwkKO9Q_4xUGwK5IdK-NHjU=", "properties": {"@spider": "usps_collection_boxes", "addr:city": "DECATUR", "addr:country": "US", "addr:full": "3000 N WATER ST", "addr:postcode": "62526", "addr:state": "IL", "brand": "USPS", "collection_times": "Mo-Fr 17:15; Sa 16:00", "name": "USPS COLLECTION BOX - BLUE BOX", "note": "ON 12/24 AND 12/31, THIS BOX MAY BE COLLECTED AS EARLY AS 12 NOON.", "ref": "6252600053"}, "type": "Feature"}
{"geometry": {"coordinates": [-88.9425112, 39.876322], "type": "Point"}, "id": "4O-z-aiEUHj_mWFpoi7Rd4nP7F0=", "properties": {"@spider": "usps_collection_boxes", "addr:city": "DECATUR", "addr:country": "US", "addr:full": "1155 E PERSHING RD", "addr:postcode": "62526", "addr:state": "IL", "brand": "USPS", "collection_times": "Mo-Fr 17:15; Sa 16:30", "name": "USPS COLLECTION BOX - BLUE BOX", "note": "ON 12/24 AND 12/31, THIS BOX MAY BE COLLECTED AS EARLY AS 12 NOON.", "ref": "6252600058"}, "type": "Feature"}
{"geometry": {"coordinates": [-88.934821643, 39.891844483], "type": "Point"}, "id": "v9CQaecKPTl5F5UDNVO2MX_lUFo=", "properties": {"@spider": "usps_collection_boxes", "addr:city": "DECATUR", "addr:country": "US", "addr:full": "1601 E MOUND RD", "addr:postcode": "62526", "addr:state": "IL", "brand": "USPS", "collection_times": "Mo-Sa 18:00", "name": "USPS COLLECTION BOX - PO LOBBY", "note": "ON 12/24 AND 12/31, THIS BOX MAY BE COLLECTED AS EARLY AS 12 NOON.", "ref": "6252600059"}, "type": "Feature"}
{"geometry": {"coordinates": [-88.9505566, 39.90594], "type": "Point"}, "id": "5J1K7mc0FN4lXa4ZPtUskJOpd30=", "properties": {"@spider": "usps_collection_boxes", "addr:city": "DECATUR", "addr:country": "US", "addr:full": "4725 N MARTIN LUTHER KING DR", "addr:postcode": "62526", "addr:state": "IL", "brand": "USPS", "collection_times": "Mo-Sa 09:30", "name": "USPS COLLECTION BOX - BLUE BOX", "ref": "6252600060"}, "type": "Feature"}
{"geometry": {"coordinates": [-88.9737431, 39.855412], "type": "Point"}, "id": "jFNbQbsyjIcUDaDr2CEaUbnpuSs=", "properties": {"@spider": "usps_collection_boxes", "addr:city": "DECATUR", "addr:country": "US", "addr:full": "1385 N STATE ROUTE 48", "addr:postcode": "62526", "addr:state": "IL", "brand": "USPS", "collection_times": "Mo-Sa 15:30", "name": "USPS COLLECTION BOX - BLUE BOX", "note": "ON 12/24 AND 12/31, THIS BOX MAY BE COLLECTED AS EARLY AS 12 NOON.", "ref": "6252600062"}, "type": "Feature"}
{"geometry": {"coordinates": [-88.928157, 39.859945], "type": "Point"}, "id": "aCBO2X4k5ktCWJl0W34Ilfui4YY=", "properties": {"@spider": "usps_collection_boxes", "addr:city": "DECATUR", "addr:country": "US", "addr:full": "1715 N 21ST ST", "addr:postcode": "62526", "addr:state": "IL", "brand": "USPS", "collection_times": "Mo-Sa 17:00", "name": "USPS COLLECTION BOX - BLUE BOX", "note": "ON 12/24 AND 12/31, THIS BOX MAY BE COLLECTED AS EARLY AS 12 NOON.", "ref": "6252600064"}, "type": "Feature"}
{"geometry": {"coordinates": [-88.9361506, 39.89089], "type": "Point"}, "id": "3cK1puMr7CKfr6HyhafX11E4h5c=", "properties": {"@spider": "usps_collection_boxes", "addr:city": "DECATUR", "addr:country": "US", "addr:full": "3770 N WOODFORD ST", "addr:postcode": "62526", "addr:state": "IL", "brand": "USPS", "collection_times": "Mo-Fr 17:30; Sa 17:00", "name": "USPS COLLECTION BOX - BLUE BOX", "note": "ON 12/24 AND 12/31, THIS BOX MAY BE COLLECTED AS EARLY AS 12 NOON.", "ref": "6252600068"}, "type": "Feature"}
{"geometry": {"coordinates": [-88.934821643, 39.891844483], "type": "Point"}, "id": "nBhIU7BmKM5AuVm4hNHkS2Y9JJg=", "properties": {"@spider": "usps_collection_boxes", "addr:city": "DECATUR", "addr:country": "US", "addr:full": "1601 E MOUND RD", "addr:postcode": "62526", "addr:state": "IL", "brand": "USPS", "collection_times": "Mo-Sa 18:00", "name": "USPS COLLECTION BOX - APC", "note": "ON 12/24 AND 12/31, THIS BOX MAY BE COLLECTED AS EARLY AS 12 NOON.", "ref": "6252600072"}, "type": "Feature"}
{"geometry": {"coordinates": [-88.934821643, 39.891844483], "type": "Point"}, "id": "3pKeGPyCowz9yNRhMZcBPDd0kUE=", "properties": {"@spider": "usps_collection_boxes", "addr:city": "DECATUR", "addr:country": "US", "addr:full": "1601 E MOUND RD", "addr:postcode": "62526", "addr:state": "IL", "brand": "USPS", "collection_times": "Mo-Fr 17:00; Sa 14:00", "name": "USPS COLLECTION BOX - PO LOBBY", "note": "ON 12/24 AND 12/31, THIS BOX MAY BE COLLECTED AS EARLY AS 12 NOON.", "ref": "6252600077"}, "type": "Feature"}
{"geometry": {"coordinates": [-89.657973, 39.565599], "type": "Point"}, "id": "I5mHxf0c6xiDPi91pn2hLm5Fbt0=", "properties": {"@spider": "usps_collection_boxes", "addr:city": "DIVERNON", "addr:country": "US", "addr:full": "157 W DODDS ST", "addr:postcode": "62530", "addr:state": "IL", "brand": "USPS", "collection_times": "Mo-Fr 14:15; Sa 09:15", "name": "USPS COLLECTION BOX - BLUE BOX", "note": "ON 12/24 AND 12/31, THIS BOX MAY BE COLLECTED AS EARLY AS 12 NOON.", "ref": "6253000001"}, "type": "Feature"}
{"geometry": {"coordinates": [-89.657989, 39.565572], "type": "Point"}, "id": "hmFTAfl5jiP4aJ0fq8EWwP8UYZo=", "properties": {"@spider": "usps_collection_boxes", "addr:city": "DIVERNON", "addr:country": "US", "addr:full": "157 W DODDS ST", "addr:postcode": "62530", "addr:state": "IL", "brand": "USPS", "collection_times": "Mo-Fr 14:15; Sa 09:15", "name": "USPS COLLECTION BOX - PO LOBBY", "note": "ON 12/24 AND 12/31, THIS BOX MAY BE COLLECTED AS EARLY AS 12 NOON.", "ref": "6253000003"}, "type": "Feature"}
{"geometry": {"coordinates": [-89.658102945, 39.565591479], "type": "Point"}, "id": "XkiW3b0tvFsMw5_1ZJE8NDM6ljg=", "properties": {"@spider": "usps_collection_boxes", "addr:city": "DIVERNON", "addr:country": "US", "addr:full": "157 W DODDS ST", "addr:postcode": "62530", "addr:state": "IL", "brand": "USPS", "collection_times": "Mo-Fr 14:15; Sa 09:15", "name": "USPS COLLECTION BOX - PO LOBBY", "note": "ON 12/24 AND 12/31, THIS BOX MAY BE COLLECTED AS EARLY AS 12 NOON.", "ref": "6253000005"}, "type": "Feature"}
{"geometry": {"coordinates": [-89.390225, 39.657306], "type": "Point"}, "id": "WifIjl8IVHMk0OBw1d4gFcSlm7M=", "properties": {"@spider": "usps_collection_boxes", "addr:city": "EDINBURG", "addr:country": "US", "addr:full": "103 N GRANT ST", "addr:postcode": "62531", "addr:state": "IL", "brand": "USPS", "collection_times": "Mo-Fr 14:45; Sa 09:45", "name": "USPS COLLECTION BOX - BLUE BOX", "note": "ON 12/24 AND 12/31, THIS BOX MAY BE COLLECTED AS EARLY AS 12 NOON.", "ref": "6253100001"}, "type": "Feature"}
{"geometry": {"coordinates": [-89.390734, 39.65863], "type": "Point"}, "id": "ZEUhFc24f68V6bi2-3-Rdfq4bk8=", "properties": {"@spider": "usps_collection_boxes", "addr:city": "EDINBURG", "addr:country": "US", "addr:full": "103 N GRANT ST", "addr:postcode": "62531", "addr:state": "IL", "brand": "USPS", "collection_times": "Mo-Fr 14:45; Sa 09:45", "name": "USPS COLLECTION BOX - PO LOBBY", "note": "ON 12/24 AND 12/31, THIS BOX MAY BE COLLECTED AS EARLY AS 12 NOON.", "ref": "6253100002"}, "type": "Feature"}
{"geometry": {"coordinates": [-89.390715156, 39.658595132], "type": "Point"}, "id": "Ga0V1plI7SYJy-4TRekg3tjdKNQ=", "properties": {"@spider": "usps_collection_boxes", "addr:city": "EDINBURG", "addr:country": "US", "addr:full": "103 N GRANT ST", "addr:postcode": "62531", "addr:state": "IL", "brand": "USPS", "collection_times": "Mo-Fr 14:45; Sa 09:45", "name": "USPS COLLECTION BOX - PO LOBBY", "note": "ON 12/24 AND 12/31, THIS BOX MAY BE COLLECTED AS EARLY AS 12 NOON.", "ref": "6253100003"}, "type": "Feature"}
{"geometry": {"coordinates": [-88.980839, 39.779232], "type": "Point"}, "id": "35tBat2Edcf8FHn9EwszHR7VYN4=", "properties": {"@spider": "usps_collection_boxes", "addr:city": "ELWIN", "addr:country": "US", "addr:full": "4945 S TAYLOR ST", "addr:postcode": "62532", "addr:state": "IL", "brand": "USPS", "collection_times": "Mo-Fr 11:00; Sa 10:15", "name": "USPS COLLECTION BOX - BLUE BOX", "ref": "6253200000"}, "type": "Feature"}
{"geometry": {"coordinates": [-88.980804, 39.779242], "type": "Point"}, "id": "G3kK2SkvdW0ymna1D1KxblwAlSg=", "properties": {"@spider": "usps_collection_boxes", "addr:city": "ELWIN", "addr:country": "US", "addr:full": "4945 S TAYLOR ST", "addr:postcode": "62532", "addr:state": "IL", "brand": "USPS", "collection_times": "Mo-Fr 11:00; Sa 10:15", "name": "USPS COLLECTION BOX - PO LOBBY", "ref": "6253200001"}, "type": "Feature"}
{"geometry": {"coordinates": [-88.980837237, 39.779108466], "type": "Point"}, "id": "fLIgpRfMf6fM2LueU-hiQd1fHEY=", "properties": {"@spider": "usps_collection_boxes", "addr:city": "ELWIN", "addr:country": "US", "addr:full": "4945 S TAYLOR ST", "addr:postcode": "62532", "addr:state": "IL", "brand": "USPS", "collection_times": "Mo-Fr 11:00; Sa 10:15", "name": "USPS COLLECTION BOX - PO LOBBY", "ref": "6253200002"}, "type": "Feature"}
{"geometry": {"coordinates": [-89.651559, 39.442509], "type": "Point"}, "id": "WRm2xxy0H-K7WfyxXQr77PdrEsA=", "properties": {"@spider": "usps_collection_boxes", "addr:city": "FARMERSVILLE", "addr:country": "US", "addr:full": "206 S CLEVELAND ST", "addr:postcode": "62533", "addr:state": "IL", "brand": "USPS", "collection_times": "Mo-Fr 15:30; Sa 10:15", "name": "USPS COLLECTION BOX - BLUE BOX", "note": "ON 12/24 AND 12/31, THIS BOX MAY BE COLLECTED AS EARLY AS 12 NOON.", "ref": "6253300001"}, "type": "Feature"}
{"geometry": {"coordinates": [-89.651532, 39.44259], "type": "Point"}, "id": "S5-Ff0ikhVJ6f01PvFNYkQqZAHE=", "properties": {"@spider": "usps_collection_boxes", "addr:city": "FARMERSVILLE", "addr:country": "US", "addr:full": "206 S CLEVELAND ST", "addr:postcode": "62533", "addr:state": "IL", "brand": "USPS", "collection_times": "Mo-Fr 15:30; Sa 10:15", "name": "USPS COLLECTION BOX - PO LOBBY", "note": "ON 12/24 AND 12/31, THIS BOX MAY BE COLLECTED AS EARLY AS 12 NOON.", "ref": "6253300002"}, "type": "Feature"}
{"geometry": {"coordinates": [-89.65156804, 39.442301162], "type": "Point"}, "id": "p_dT98Vj59sRC4MS-ADPKWDi3cI=", "properties": {"@spider": "usps_collection_boxes", "addr:city": "FARMERSVILLE", "addr:country": "US", "addr:full": "206 S CLEVELAND ST", "addr:postcode": "62533", "addr:state": "IL", "brand": "USPS", "collection_times": "Mo-Fr 15:30; Sa 10:15", "name": "USPS COLLECTION BOX - PO LOBBY", "note": "ON 12/24 AND 12/31, THIS BOX MAY BE COLLECTED AS EARLY AS 12 NOON.", "ref": "6253300003"}, "type": "Feature"}
{"geometry": {"coordinates": [-88.75179, 39.519732], "type": "Point"}, "id": "bLGhUBpm8vhsU0MBESR4JJa-lc8=", "properties": {"@spider": "usps_collection_boxes", "addr:city": "FINDLAY", "addr:country": "US", "addr:full": "215 E SOUTH 2ND ST", "addr:postcode": "62534", "addr:state": "IL", "brand": "USPS", "collection_times": "Mo-Fr 15:00; Sa 09:45", "name": "USPS COLLECTION BOX - BLUE BOX", "note": "ON 12/24 AND 12/31, THIS BOX MAY BE COLLECTED AS EARLY AS 12 NOON.", "ref": "6253400000"}, "type": "Feature"}
{"geometry": {"coordinates": [-88.751873, 39.519705], "type": "Point"}, "id": "GX1E63gugrVWB9pCgDo5gQGjqXU=", "properties": {"@spider": "usps_collection_boxes", "addr:city": "FINDLAY", "addr:country": "US", "addr:full": "215 E SOUTH 2ND ST", "addr:postcode": "62534", "addr:state": "IL", "brand": "USPS", "collection_times": "Mo-Fr 15:15; Sa 10:00", "name": "USPS COLLECTION BOX - PO LOBBY", "note": "ON 12/24 AND 12/31, THIS BOX MAY BE COLLECTED AS EARLY AS 12 NOON.", "ref": "6253400001"}, "type": "Feature"}
{"geometry": {"coordinates": [-88.752747213, 39.519763203], "type": "Point"}, "id": "FZAek19jGilaokY9BryriPlrSrI=", "properties": {"@spider": "usps_collection_boxes", "addr:city": "FINDLAY", "addr:country": "US", "addr:full": "215 E SOUTH 2ND ST", "addr:postcode": "62534", "addr:state": "IL", "brand": "USPS", "collection_times": "Mo-Fr 15:15; Sa 10:00", "name": "USPS COLLECTION BOX - PO LOBBY", "note": "ON 12/24 AND 12/31, THIS BOX MAY BE COLLECTED AS EARLY AS 12 NOON.", "ref": "6253400002"}, "type": "Feature"}
{"geometry": {"coordinates": [-88.950773, 39.93258], "type": "Point"}, "id": "VPz8b6tDB4nFZde8ThcG-U2mTkQ=", "properties": {"@spider": "usps_collection_boxes", "addr:city": "FORSYTH", "addr:country": "US", "addr:full": "300 E RUEHL ST", "addr:postcode": "62535", "addr:state": "IL", "brand": "USPS", "collection_times": "Mo-Fr 16:00; Sa 10:30", "name": "USPS COLLECTION BOX - BLUE BOX", "note": "ON 12/24 AND 12/31, THIS BOX MAY BE COLLECTED AS EARLY AS 12 NOON.", "ref": "6253500001"}, "type": "Feature"}
{"geometry": {"coordinates": [-88.950889, 39.932552], "type": "Point"}, "id": "2zXCS03y6MfLkTWmS-oWy94IT8Y=", "properties": {"@spider": "usps_collection_boxes", "addr:city": "FORSYTH", "addr:country": "US", "addr:full": "300 E RUEHL ST", "addr:postcode": "62535", "addr:state": "IL", "brand": "USPS", "collection_times": "Mo-Fr 16:00; Sa 10:30", "name": "USPS COLLECTION BOX - PO LOBBY", "note": "ON 12/24 AND 12/31, THIS BOX MAY BE COLLECTED AS EARLY AS 12 NOON.", "ref": "6253500002"}, "type": "Feature"}
{"geometry": {"coordinates": [-88.950818923, 39.93262547], "type": "Point"}, "id": "VCLiB7vdWpYKI72LhNr5I9BSCcs=", "properties": {"@spider": "usps_collection_boxes", "addr:city": "FORSYTH", "addr:country": "US", "addr:full": "300 E RUEHL ST", "addr:postcode": "62535", "addr:state": "IL", "brand": "USPS", "collection_times": "Mo-Fr 16:00; Sa 10:30", "name": "USPS COLLECTION BOX - PO LOBBY", "note": "ON 12/24 AND 12/31, THIS BOX MAY BE COLLECTED AS EARLY AS 12 NOON.", "ref": "6253500005"}, "type": "Feature"}
{"geometry": {"coordinates": [-89.64849, 39.624863], "type": "Point"}, "id": "shN-5LEvRYf3W_pLiaTxFAnjOlk=", "properties": {"@spider": "usps_collection_boxes", "addr:city": "GLENARM", "addr:country": "US", "addr:full": "53 JUDD RD", "addr:postcode": "62536", "addr:state": "IL", "brand": "USPS", "collection_times": "Mo-Fr 15:45; Sa 12:00", "name": "USPS COLLECTION BOX - BLUE BOX", "note": "ON 12/24 AND 12/31, THIS BOX MAY BE COLLECTED AS EARLY AS 12 NOON.", "ref": "6253600000"}, "type": "Feature"}
{"geometry": {"coordinates": [-89.648496, 39.624835], "type": "Point"}, "id": "2EvrnpTprmgdgp_70eAKDJ1AMO0=", "properties": {"@spider": "usps_collection_boxes", "addr:city": "GLENARM", "addr:country": "US", "addr:full": "53 JUDD RD", "addr:postcode": "62536", "addr:state": "IL", "brand": "USPS", "collection_times": "Mo-Fr 15:45; Sa 12:00", "name": "USPS COLLECTION BOX - PO LOBBY", "note": "ON 12/24 AND 12/31, THIS BOX MAY BE COLLECTED AS EARLY AS 12 NOON.", "ref": "6253600001"}, "type": "Feature"}
{"geometry": {"coordinates": [-89.648522528, 39.624851523], "type": "Point"}, "id": "Zc0Jvorc1ARmAFv-IqtUi-i5JwI=", "properties": {"@spider": "usps_collection_boxes", "addr:city": "GLENARM", "addr:country": "US", "addr:full": "53 JUDD RD", "addr:postcode": "62536", "addr:state": "IL", "brand": "USPS", "collection_times": "Mo-Fr 15:45; Sa 12:00", "name": "USPS COLLECTION BOX - PO LOBBY", "note": "ON 12/24 AND 12/31, THIS BOX MAY BE COLLECTED AS EARLY AS 12 NOON.", "ref": "6253600002"}, "type": "Feature"}
{"geometry": {"coordinates": [-89.085088, 39.845662], "type": "Point"}, "id": "yDmVsxw2jTI73Ti5VaEiJbatRmA=", "properties": {"@spider": "usps_collection_boxes", "addr:city": "HARRISTOWN", "addr:country": "US", "addr:full": "1355 N MEREDIAN ST", "addr:postcode": "62537", "addr:state": "IL", "brand": "USPS", "collection_times": "Mo-Fr 15:30; Sa 10:15", "name": "USPS COLLECTION BOX - BLUE BOX", "note": "ON 12/24 AND 12/31, THIS BOX MAY BE COLLECTED AS EARLY AS 12 NOON.", "ref": "6253700000"}, "type": "Feature"}
{"geometry": {"coordinates": [-89.085088, 39.845662], "type": "Point"}, "id": "74lthBhBo9hRBdH5GkfR717t7gM=", "properties": {"@spider": "usps_collection_boxes", "addr:city": "HARRISTOWN", "addr:country": "US", "addr:full": "1355 N MEREDIAN ST", "addr:postcode": "62537", "addr:state": "IL", "brand": "USPS", "collection_times": "Mo-Fr 15:30; Sa 10:15", "name": "USPS COLLECTION BOX - PO LOBBY", "note": "ON 12/24 AND 12/31, THIS BOX MAY BE COLLECTED AS EARLY AS 12 NOON.", "ref": "6253700001"}, "type": "Feature"}
{"geometry": {"coordinates": [-89.085168784, 39.853583581], "type": "Point"}, "id": "E7cGh5Ip9nCyn1t4io1gVUVwr1M=", "properties": {"@spider": "usps_collection_boxes", "addr:city": "HARRISTOWN", "addr:country": "US", "addr:full": "1355 N MERIDIAN RD", "addr:postcode": "62537", "addr:state": "IL", "brand": "USPS", "collection_times": "Mo-Fr 15:30; Sa 10:15", "name": "USPS COLLECTION BOX - PO LOBBY", "note": "ON 12/24 AND 12/31, THIS BOX MAY BE COLLECTED AS EARLY AS 12 NOON.", "ref": "6253700002"}, "type": "Feature"}
{"geometry": {"coordinates": [-89.531482, 39.355829], "type": "Point"}, "id": "hTBRwrJMnJnFHZoUNoUHMnknGIE=", "properties": {"@spider": "usps_collection_boxes", "addr:city": "HARVEL", "addr:country": "US", "addr:full": "125 MAIN ST", "addr:postcode": "62538", "addr:state": "IL", "brand": "USPS", "collection_times": "Mo-Fr 16:00; Sa 10:00", "name": "USPS COLLECTION BOX - BLUE BOX", "note": "ON 12/24 AND 12/31, THIS BOX MAY BE COLLECTED AS EARLY AS 12 NOON.", "ref": "6253800000"}, "type": "Feature"}
{"geometry": {"coordinates": [-89.531482, 39.355829], "type": "Point"}, "id": "gr_-H3k0sAkouKiJcP2wsxtPFho=", "properties": {"@spider": "usps_collection_boxes", "addr:city": "HARVEL", "addr:country": "US", "addr:full": "125 MAIN ST", "addr:postcode": "62538", "addr:state": "IL", "brand": "USPS", "collection_times": "Mo-Fr 16:00; Sa 13:30", "name": "USPS COLLECTION BOX - PO LOBBY", "note": "ON 12/24 AND 12/31, THIS BOX MAY BE COLLECTED AS EARLY AS 12 NOON.", "ref": "6253800001"}, "type": "Feature"}
{"geometry": {"coordinates": [-89.532034058, 39.356259987], "type": "Point"}, "id": "3mNXw71p51h31rv8aUPoX_lSEIg=", "properties": {"@spider": "usps_collection_boxes", "addr:city": "HARVEL", "addr:country": "US", "addr:full": "125 MAIN ST", "addr:postcode": "62538", "addr:state": "IL", "brand": "USPS", "collection_times": "Mo-Fr 16:00; Sa 13:30", "name": "USPS COLLECTION BOX - PO LOBBY", "note": "ON 12/24 AND 12/31, THIS BOX MAY BE COLLECTED AS EARLY AS 12 NOON.", "ref": "6253800002"}, "type": "Feature"}
{"geometry": {"coordinates": [-89.242662, 39.852504], "type": "Point"}, "id": "nZaHICzFizwtxeW2cUci_pTHt5c=", "properties": {"@spider": "usps_collection_boxes", "addr:city": "ILLIOPOLIS", "addr:country": "US", "addr:full": "463 LOUISA ST", "addr:postcode": "62539", "addr:state": "IL", "brand": "USPS", "collection_times": "Mo-Fr 12:15; Sa 10:45", "name": "USPS COLLECTION BOX - BLUE BOX", "note": "ON 12/24 AND 12/31, THIS BOX MAY BE COLLECTED AS EARLY AS 12 NOON.", "ref": "6253900001"}, "type": "Feature"}
{"geometry": {"coordinates": [-89.242632, 39.852532], "type": "Point"}, "id": "86pNBdLe5QyziYrNpBknZIqYcPI=", "properties": {"@spider": "usps_collection_boxes", "addr:city": "ILLIOPOLIS", "addr:country": "US", "addr:full": "463 LOUISA ST", "addr:postcode": "62539", "addr:state": "IL", "brand": "USPS", "collection_times": "Mo-Fr 12:15; Sa 10:45", "name": "USPS COLLECTION BOX - PO LOBBY", "note": "ON 12/24 AND 12/31, THIS BOX MAY BE COLLECTED AS EARLY AS 12 NOON.", "ref": "6253900002"}, "type": "Feature"}
{"geometry": {"coordinates": [-89.242339888, 39.852511536], "type": "Point"}, "id": "JoyjvFShoBZfk58yJcTN572D_sE=", "properties": {"@spider": "usps_collection_boxes", "addr:city": "ILLIOPOLIS", "addr:country": "US", "addr:full": "463 LOUISA ST", "addr:postcode": "62539", "addr:state": "IL", "brand": "USPS", "collection_times": "Mo-Fr 12:15; Sa 10:45", "name": "USPS COLLECTION BOX - PO LOBBY", "note": "ON 12/24 AND 12/31, THIS BOX MAY BE COLLECTED AS EARLY AS 12 NOON.", "ref": "6253900003"}, "type": "Feature"}
{"geometry": {"coordinates": [-89.413121, 39.587713], "type": "Point"}, "id": "owAZdQmO_AFy07jJv5F4YwoTD_0=", "properties": {"@spider": "usps_collection_boxes", "addr:city": "KINCAID", "addr:country": "US", "addr:full": "607 DIAL ST", "addr:postcode": "62540", "addr:state": "IL", "brand": "USPS", "collection_times": "Mo-Fr 15:45; Sa 10:15", "name": "USPS COLLECTION BOX - BLUE BOX", "note": "ON 12/24 AND 12/31, THIS BOX MAY BE COLLECTED AS EARLY AS 12 NOON.", "ref": "6254000000"}, "type": "Feature"}
{"geometry": {"coordinates": [-89.413209, 39.587771], "type": "Point"}, "id": "Jsk0rXGbMJ8liDU2nTvp1jCEfSg=", "properties": {"@spider": "usps_collection_boxes", "addr:city": "KINCAID", "addr:country": "US", "addr:full": "607 DIAL ST", "addr:postcode": "62540", "addr:state": "IL", "brand": "USPS", "collection_times": "Mo-Fr 15:45; Sa 10:15", "name": "USPS COLLECTION BOX - PO LOBBY", "note": "ON 12/24 AND 12/31, THIS BOX MAY BE COLLECTED AS EARLY AS 12 NOON.", "ref": "6254000001"}, "type": "Feature"}
{"geometry": {"coordinates": [-89.412853081, 39.587679547], "type": "Point"}, "id": "j9MsfIc_fOxkpqScd8jOC6uo4AA=", "properties": {"@spider": "usps_collection_boxes", "addr:city": "KINCAID", "addr:country": "US", "addr:full": "607 DIAL ST", "addr:postcode": "62540", "addr:state": "IL", "brand": "USPS", "collection_times": "Mo-Fr 15:45; Sa 10:15", "name": "USPS COLLECTION BOX - PO LOBBY", "note": "ON 12/24 AND 12/31, THIS BOX MAY BE COLLECTED AS EARLY AS 12 NOON.", "ref": "6254000002"}, "type": "Feature"}
{"geometry": {"coordinates": [-89.350049, 39.969764], "type": "Point"}, "id": "Iqy_I0JJBqiMUn6x0CaP2TS27hk=", "properties": {"@spider": "usps_collection_boxes", "addr:city": "LAKE FORK", "addr:country": "US", "addr:full": "201 OAK ST", "addr:postcode": "62541", "addr:state": "IL", "brand": "USPS", "collection_times": "Mo-Fr 15:45; Sa 12:15", "name": "USPS COLLECTION BOX - BLUE BOX", "note": "ON 12/24 AND 12/31, THIS BOX MAY BE COLLECTED AS EARLY AS 12 NOON.", "ref": "6254100000"}, "type": "Feature"}
{"geometry": {"coordinates": [-89.350049, 39.969764], "type": "Point"}, "id": "t7SJD0w-EUSgsL9A02-2QXYjKSg=", "properties": {"@spider": "usps_collection_boxes", "addr:city": "LAKE FORK", "addr:country": "US", "addr:full": "201 OAK ST", "addr:postcode": "62541", "addr:state": "IL", "brand": "USPS", "collection_times": "Mo-Fr 15:45; Sa 12:15", "name": "USPS COLLECTION BOX - PO LOBBY", "note": "ON 12/24 AND 12/31, THIS BOX MAY BE COLLECTED AS EARLY AS 12 NOON.", "ref": "6254100001"}, "type": "Feature"}
{"geometry": {"coordinates": [-89.350089321, 39.969990419], "type": "Point"}, "id": "0n2O9-v6kRXvqY_hj4b8v0XXkf0=", "properties": {"@spider": "usps_collection_boxes", "addr:city": "LAKE FORK", "addr:country": "US", "addr:full": "201 OAK ST", "addr:postcode": "62541", "addr:state": "IL", "brand": "USPS", "collection_times": "Mo-Fr 15:45; Sa 12:15", "name": "USPS COLLECTION BOX - PO LOBBY", "note": "ON 12/24 AND 12/31, THIS BOX MAY BE COLLECTED AS EARLY AS 12 NOON.", "ref": "6254100002"}, "type": "Feature"}
{"geometry": {"coordinates": [-89.161586, 39.966571], "type": "Point"}, "id": "9uD2DI9tU-_qeqpMTy3E03Fh9vQ=", "properties": {"@spider": "usps_collection_boxes", "addr:city": "LATHAM", "addr:country": "US", "addr:full": "221 N MACON ST", "addr:postcode": "62543", "addr:state": "IL", "brand": "USPS", "collection_times": "Mo-Fr 11:00; Sa 09:00", "name": "USPS COLLECTION BOX - BLUE BOX", "ref": "6254300000"}, "type": "Feature"}
{"geometry": {"coordinates": [-89.161586, 39.966571], "type": "Point"}, "id": "AI-WKKFYIV4q54D5DAzPAS1MFvM=", "properties": {"@spider": "usps_collection_boxes", "addr:city": "LATHAM", "addr:country": "US", "addr:full": "221 N MACON ST", "addr:postcode": "62543", "addr:state": "IL", "brand": "USPS", "collection_times": "Mo-Fr 11:00; Sa 09:00", "name": "USPS COLLECTION BOX - PO LOBBY", "ref": "6254300001"}, "type": "Feature"}
{"geometry": {"coordinates": [-89.161589817, 39.96657], "type": "Point"}, "id": "HRyLrVRzLP4L6pnmEEz3HLTgIKo=", "properties": {"@spider": "usps_collection_boxes", "addr:city": "LATHAM", "addr:country": "US", "addr:full": "221 N MACON ST", "addr:postcode": "62543", "addr:state": "IL", "brand": "USPS", "collection_times": "Mo-Fr 11:00; Sa 09:00", "name": "USPS COLLECTION BOX - PO LOBBY", "ref": "6254300002"}, "type": "Feature"}
{"geometry": {"coordinates": [-88.999502, 39.709493], "type": "Point"}, "id": "2JrD1_XAzmtB-DEWGSAYDL3J6Zg=", "properties": {"@spider": "usps_collection_boxes", "addr:city": "MACON", "addr:country": "US", "addr:full": "101 W DUNN ST", "addr:postcode": "62544", "addr:state": "IL", "brand": "USPS", "collection_times": "Mo-Fr 14:45; Sa 09:15", "name": "USPS COLLECTION BOX - PO LOBBY", "note": "ON 12/24 AND 12/31, THIS BOX MAY BE COLLECTED AS EARLY AS 12 NOON.", "ref": "6254400001"}, "type": "Feature"}
{"geometry": {"coordinates": [-88.999381, 39.709501], "type": "Point"}, "id": "vfm4BsEoJEN8nLaO7r1h5dxU4b8=", "properties": {"@spider": "usps_collection_boxes", "addr:city": "MACON", "addr:country": "US", "addr:full": "101 W DUNN ST", "addr:postcode": "62544", "addr:state": "IL", "brand": "USPS", "collection_times": "Mo-Fr 14:45; Sa 09:15", "name": "USPS COLLECTION BOX - BLUE BOX", "note": "ON 12/24 AND 12/31, THIS BOX MAY BE COLLECTED AS EARLY AS 12 NOON.", "ref": "6254400002"}, "type": "Feature"}
{"geometry": {"coordinates": [-88.999716902, 39.709521693], "type": "Point"}, "id": "_YuSKPEkgF3anvaQtisjNu93zSE=", "properties": {"@spider": "usps_collection_boxes", "addr:city": "MACON", "addr:country": "US", "addr:full": "101 W DUNN ST", "addr:postcode": "62544", "addr:state": "IL", "brand": "USPS", "collection_times": "Mo-Fr 14:45; Sa 09:15", "name": "USPS COLLECTION BOX - PO LOBBY", "note": "ON 12/24 AND 12/31, THIS BOX MAY BE COLLECTED AS EARLY AS 12 NOON.", "ref": "6254400003"}, "type": "Feature"}
{"geometry": {"coordinates": [-89.398824, 39.809712], "type": "Point"}, "id": "GcPtJZBlhc6J01EriPd5OXo0wGA=", "properties": {"@spider": "usps_collection_boxes", "addr:city": "MECHANICSBURG", "addr:country": "US", "addr:full": "301 W MAIN ST", "addr:postcode": "62545", "addr:state": "IL", "brand": "USPS", "collection_times": "Mo-Fr 12:15; Sa 10:15", "name": "USPS COLLECTION BOX - BLUE BOX", "note": "ON 12/24 AND 12/31, THIS BOX MAY BE COLLECTED AS EARLY AS 12 NOON.", "ref": "6254500000"}, "type": "Feature"}
{"geometry": {"coordinates": [-89.398824, 39.809712], "type": "Point"}, "id": "-s5xw91W57SMpDGjrevhoif5qjM=", "properties": {"@spider": "usps_collection_boxes", "addr:city": "MECHANICSBURG", "addr:country": "US", "addr:full": "301 W MAIN ST", "addr:postcode": "62545", "addr:state": "IL", "brand": "USPS", "collection_times": "Mo-Fr 12:15; Sa 10:15", "name": "USPS COLLECTION BOX - PO LOBBY", "note": "ON 12/24 AND 12/31, THIS BOX MAY BE COLLECTED AS EARLY AS 12 NOON.", "ref": "6254500001"}, "type": "Feature"}
{"geometry": {"coordinates": [-89.3989215, 39.809736512], "type": "Point"}, "id": "_5j31xSUXaIUu8oflvHJtziAdoM=", "properties": {"@spider": "usps_collection_boxes", "addr:city": "MECHANICSBURG", "addr:country": "US", "addr:full": "301 W MAIN ST", "addr:postcode": "62545", "addr:state": "IL", "brand": "USPS", "collection_times": "Mo-Fr 12:15; Sa 10:15", "name": "USPS COLLECTION BOX - PO LOBBY", "note": "ON 12/24 AND 12/31, THIS BOX MAY BE COLLECTED AS EARLY AS 12 NOON.", "ref": "6254500002"}, "type": "Feature"}
{"geometry": {"coordinates": [-89.456836, 39.420369], "type": "Point"}, "id": "o6nXDHUqj1LQhXvF2tfGA6gvr-8=", "properties": {"@spider": "usps_collection_boxes", "addr:city": "MORRISONVILLE", "addr:country": "US", "addr:full": "601 RICKS ST", "addr:postcode": "62546", "addr:state": "IL", "brand": "USPS", "collection_times": "Mo-Fr 14:45; Sa 09:45", "name": "USPS COLLECTION BOX - BLUE BOX", "note": "ON 12/24 AND 12/31, THIS BOX MAY BE COLLECTED AS EARLY AS 12 NOON.", "ref": "6254600001"}, "type": "Feature"}
{"geometry": {"coordinates": [-89.45681, 39.420351], "type": "Point"}, "id": "NGABqn5h7N8LMphps_bnHY8uLho=", "properties": {"@spider": "usps_collection_boxes", "addr:city": "MORRISONVILLE", "addr:country": "US", "addr:full": "601 RICKS ST", "addr:postcode": "62546", "addr:state": "IL", "brand": "USPS", "collection_times": "Mo-Fr 14:45; Sa 09:45", "name": "USPS COLLECTION BOX - PO LOBBY", "note": "ON 12/24 AND 12/31, THIS BOX MAY BE COLLECTED AS EARLY AS 12 NOON.", "ref": "6254600002"}, "type": "Feature"}
{"geometry": {"coordinates": [-89.456426162, 39.420766869], "type": "Point"}, "id": "3LSphPfqiMriuHzr44Ha9RyD-hQ=", "properties": {"@spider": "usps_collection_boxes", "addr:city": "MORRISONVILLE", "addr:country": "US", "addr:full": "601 RICKS ST", "addr:postcode": "62546", "addr:state": "IL", "brand": "USPS", "collection_times": "Mo-Fr 14:45; Sa 09:45", "name": "USPS COLLECTION BOX - PO LOBBY", "note": "ON 12/24 AND 12/31, THIS BOX MAY BE COLLECTED AS EARLY AS 12 NOON.", "ref": "6254600003"}, "type": "Feature"}
{"geometry": {"coordinates": [-89.260101, 39.762638], "type": "Point"}, "id": "HXWhwv5LY3PXNC6p3QHDvW6ibbY=", "properties": {"@spider": "usps_collection_boxes", "addr:city": "MOUNT AUBURN", "addr:country": "US", "addr:full": "240 E ARCH ST", "addr:postcode": "62547", "addr:state": "IL", "brand": "USPS", "collection_times": "Mo-Fr 12:45; Sa 10:15", "name": "USPS COLLECTION BOX - BLUE BOX", "note": "ON 12/24 AND 12/31, THIS BOX MAY BE COLLECTED AS EARLY AS 12 NOON.", "ref": "6254700000"}, "type": "Feature"}
{"geometry": {"coordinates": [-89.260053, 39.762611], "type": "Point"}, "id": "of74LEtDXPA1hEwtM3hz2YLoYaU=", "properties": {"@spider": "usps_collection_boxes", "addr:city": "MOUNT AUBURN", "addr:country": "US", "addr:full": "240 E ARCH ST", "addr:postcode": "62547", "addr:state": "IL", "brand": "USPS", "collection_times": "Mo-Fr 12:45; Sa 10:15", "name": "USPS COLLECTION BOX - PO LOBBY", "note": "ON 12/24 AND 12/31, THIS BOX MAY BE COLLECTED AS EARLY AS 12 NOON.", "ref": "6254700001"}, "type": "Feature"}
{"geometry": {"coordinates": [-89.258939749, 39.762616472], "type": "Point"}, "id": "NcamwPqjC8BXBNpodOnq9GMvKK8=", "properties": {"@spider": "usps_collection_boxes", "addr:city": "MOUNT AUBURN", "addr:country": "US", "addr:full": "240 E ARCH ST", "addr:postcode": "62547", "addr:state": "IL", "brand": "USPS", "collection_times": "Mo-Fr 12:45; Sa 10:15", "name": "USPS COLLECTION BOX - PO LOBBY", "note": "ON 12/24 AND 12/31, THIS BOX MAY BE COLLECTED AS EARLY AS 12 NOON.", "ref": "6254700002"}, "type": "Feature"}
{"geometry": {"coordinates": [-89.2837815, 40.010466], "type": "Point"}, "id": "60mJWsJyXH6oVgOYgKg0GtJ26Ag=", "properties": {"@spider": "usps_collection_boxes", "addr:city": "MOUNT PULASKI", "addr:country": "US", "addr:full": "121 N LAFAYETTE ST", "addr:postcode": "62548", "addr:state": "IL", "brand": "USPS", "collection_times": "Mo-Fr 15:00; Sa 10:00", "name": "USPS COLLECTION BOX - BLUE BOX", "note": "ON 12/24 AND 12/31, THIS BOX MAY BE COLLECTED AS EARLY AS 12 NOON.", "ref": "6254800001"}, "type": "Feature"}
{"geometry": {"coordinates": [-89.2836085, 40.010437], "type": "Point"}, "id": "1Q6mtdb16rV4RmwQGdCI-htcisk=", "properties": {"@spider": "usps_collection_boxes", "addr:city": "MOUNT PULASKI", "addr:country": "US", "addr:full": "121 N LAFAYETTE ST", "addr:postcode": "62548", "addr:state": "IL", "brand": "USPS", "collection_times": "Mo-Fr 15:00; Sa 09:30", "name": "USPS COLLECTION BOX - PO LOBBY", "note": "ON 12/24 AND 12/31, THIS BOX MAY BE COLLECTED AS EARLY AS 12 NOON.", "ref": "6254800002"}, "type": "Feature"}
{"geometry": {"coordinates": [-89.2853827, 40.008491], "type": "Point"}, "id": "ZuPk9gt0NcSWlSgTM1V5_nvV9U8=", "properties": {"@spider": "usps_collection_boxes", "addr:city": "MOUNT PULASKI", "addr:country": "US", "addr:full": "100 E COOKE ST", "addr:postcode": "62548", "addr:state": "IL", "brand": "USPS", "collection_times": "Mo-Sa 14:30", "name": "USPS COLLECTION BOX - BLUE BOX", "note": "ON 12/24 AND 12/31, THIS BOX MAY BE COLLECTED AS EARLY AS 12 NOON.", "ref": "6254800003"}, "type": "Feature"}
{"geometry": {"coordinates": [-89.283805635, 40.010436639], "type": "Point"}, "id": "ubguP8WHuye6qUeB2fPygvVuie0=", "properties": {"@spider": "usps_collection_boxes", "addr:city": "MOUNT PULASKI", "addr:country": "US", "addr:full": "121 N LAFAYETTE ST", "addr:postcode": "62548", "addr:state": "IL", "brand": "USPS", "collection_times": "Mo-Fr 15:00; Sa 09:30", "name": "USPS COLLECTION BOX - PO LOBBY", "note": "ON 12/24 AND 12/31, THIS BOX MAY BE COLLECTED AS EARLY AS 12 NOON.", "ref": "6254800004"}, "type": "Feature"}
{"geometry": {"coordinates": [-88.8753088, 39.77221], "type": "Point"}, "id": "9JwGkPcXdfVv_V_WCSRKMQy5zpE=", "properties": {"@spider": "usps_collection_boxes", "addr:city": "MT ZION", "addr:country": "US", "addr:full": "450 W MAIN ST", "addr:postcode": "62549", "addr:state": "IL", "brand": "USPS", "collection_times": "Mo-Fr 16:15; Sa 12:00", "name": "USPS COLLECTION BOX - BLUE BOX", "note": "ON 12/24 AND 12/31, THIS BOX MAY BE COLLECTED AS EARLY AS 12 NOON.", "ref": "6254900000"}, "type": "Feature"}
{"geometry": {"coordinates": [-88.8702704, 39.783556], "type": "Point"}, "id": "G0uNun50Ykj8TaHTpQDvWC34V14=", "properties": {"@spider": "usps_collection_boxes", "addr:city": "MT ZION", "addr:country": "US", "addr:full": "1100 N STATE ROUTE 121", "addr:postcode": "62549", "addr:state": "IL", "brand": "USPS", "collection_times": "Mo-Fr 13:30; Sa 12:00", "name": "USPS COLLECTION BOX - BLUE BOX", "note": "ON 12/24 AND 12/31, THIS BOX MAY BE COLLECTED AS EARLY AS 12 NOON.", "ref": "6254900002"}, "type": "Feature"}
{"geometry": {"coordinates": [-88.8754135, 39.772315], "type": "Point"}, "id": "n-oIe7q53ppG-ct6tU173zCQDnQ=", "properties": {"@spider": "usps_collection_boxes", "addr:city": "MT ZION", "addr:country": "US", "addr:full": "450 W MAIN ST", "addr:postcode": "62549", "addr:state": "IL", "brand": "USPS", "collection_times": "Mo-Fr 16:15; Sa 12:00", "name": "USPS COLLECTION BOX - PO LOBBY", "note": "ON 12/24 AND 12/31, THIS BOX MAY BE COLLECTED AS EARLY AS 12 NOON.", "ref": "6254900003"}, "type": "Feature"}
{"geometry": {"coordinates": [-88.87539158, 39.77221174], "type": "Point"}, "id": "CnQcVPs2IjGjlZOavWKPtJoIQPg=", "properties": {"@spider": "usps_collection_boxes", "addr:city": "MT ZION", "addr:country": "US", "addr:full": "450 W MAIN ST", "addr:postcode": "62549", "addr:state": "IL", "brand": "USPS", "collection_times": "Mo-Fr 16:15; Sa 12:00", "name": "USPS COLLECTION BOX - PO LOBBY", "note": "ON 12/24 AND 12/31, THIS BOX MAY BE COLLECTED AS EARLY AS 12 NOON.", "ref": "6254900004"}, "type": "Feature"}
{"geometry": {"coordinates": [-89.02036, 39.625005], "type": "Point"}, "id": "LJXJZQmQKqlElBJovLMDXJZZJKM=", "properties": {"@spider": "usps_collection_boxes", "addr:city": "MOWEAQUA", "addr:country": "US", "addr:full": "128 W MAIN ST", "addr:postcode": "62550", "addr:state": "IL", "brand": "USPS", "collection_times": "Mo-Fr 16:30; Sa 11:00", "name": "USPS COLLECTION BOX - BLUE BOX", "note": "ON 12/24 AND 12/31, THIS BOX MAY BE COLLECTED AS EARLY AS 12 NOON.", "ref": "6255000002"}, "type": "Feature"}
{"geometry": {"coordinates": [-89.020047, 39.624979], "type": "Point"}, "id": "RK_1qkKNnGacCNap_FoR27chJYQ=", "properties": {"@spider": "usps_collection_boxes", "addr:city": "MOWEAQUA", "addr:country": "US", "addr:full": "115 W MAIN ST", "addr:postcode": "62550", "addr:state": "IL", "brand": "USPS", "collection_times": "Mo-Fr 16:30; Sa 11:00", "name": "USPS COLLECTION BOX - PO LOBBY", "note": "ON 12/24 AND 12/31, THIS BOX MAY BE COLLECTED AS EARLY AS 12 NOON.", "ref": "6255000003"}, "type": "Feature"}
{"geometry": {"coordinates": [-89.020362292, 39.625045201], "type": "Point"}, "id": "bs3rxUkFYQ-G1yNR1J0wo6rUc2g=", "properties": {"@spider": "usps_collection_boxes", "addr:city": "MOWEAQUA", "addr:country": "US", "addr:full": "128 W MAIN ST", "addr:postcode": "62550", "addr:state": "IL", "brand": "USPS", "collection_times": "Mo-Fr 16:30; Sa 11:00", "name": "USPS COLLECTION BOX - PO LOBBY", "note": "ON 12/24 AND 12/31, THIS BOX MAY BE COLLECTED AS EARLY AS 12 NOON.", "ref": "6255000004"}, "type": "Feature"}
{"geometry": {"coordinates": [-89.167452, 39.853332], "type": "Point"}, "id": "H4LWYWWVEvxX7Y5O559GmO2bmGs=", "properties": {"@spider": "usps_collection_boxes", "addr:city": "NIANTIC", "addr:country": "US", "addr:full": "147 E LEWIS ST", "addr:postcode": "62551", "addr:state": "IL", "brand": "USPS", "collection_times": "Mo-Fr 12:15; Sa 10:45", "name": "USPS COLLECTION BOX - PO LOBBY", "note": "ON 12/24 AND 12/31, THIS BOX MAY BE COLLECTED AS EARLY AS 12 NOON.", "ref": "6255100000"}, "type": "Feature"}
{"geometry": {"coordinates": [-89.167459, 39.853359], "type": "Point"}, "id": "XTEhmrAu2-HSKMSLcpN7vMrg7Go=", "properties": {"@spider": "usps_collection_boxes", "addr:city": "NIANTIC", "addr:country": "US", "addr:full": "147 E LEWIS ST", "addr:postcode": "62551", "addr:state": "IL", "brand": "USPS", "collection_times": "Mo-Fr 12:15; Sa 10:45", "name": "USPS COLLECTION BOX - BLUE BOX", "note": "ON 12/24 AND 12/31, THIS BOX MAY BE COLLECTED AS EARLY AS 12 NOON.", "ref": "6255100001"}, "type": "Feature"}
{"geometry": {"coordinates": [-89.167374084, 39.853316474], "type": "Point"}, "id": "thI6F4vh0Nk5K_bqWFx0I5S8R24=", "properties": {"@spider": "usps_collection_boxes", "addr:city": "NIANTIC", "addr:country": "US", "addr:full": "155 E LEWIS ST", "addr:postcode": "62551", "addr:state": "IL", "brand": "USPS", "collection_times": "Mo-Fr 12:15; Sa 10:45", "name": "USPS COLLECTION BOX - PO LOBBY", "note": "ON 12/24 AND 12/31, THIS BOX MAY BE COLLECTED AS EARLY AS 12 NOON.", "ref": "6255100002"}, "type": "Feature"}
{"geometry": {"coordinates": [-89.109281, 39.261212], "type": "Point"}, "id": "Z9mU8yvFPMWi8tQxZ-y7n--TqoU=", "properties": {"@spider": "usps_collection_boxes", "addr:city": "OCONEE", "addr:country": "US", "addr:full": "100 OAK ST", "addr:postcode": "62553", "addr:state": "IL", "brand": "USPS", "collection_times": "Mo-Fr 16:30; Sa 14:00", "name": "USPS COLLECTION BOX - BLUE BOX", "note": "ON 12/24 AND 12/31, THIS BOX MAY BE COLLECTED AS EARLY AS 12 NOON.", "ref": "6255300000"}, "type": "Feature"}
{"geometry": {"coordinates": [-89.0901501309, 39.268739482], "type": "Point"}, "id": "1DS4kYFqsq0pwQYaMyWcNYBzJS4=", "properties": {"@spider": "usps_collection_boxes", "addr:city": "OCONEE", "addr:country": "US", "addr:full": "100 OAK ST", "addr:postcode": "62553", "addr:state": "IL", "brand": "USPS", "collection_times": "Mo-Fr 16:30; Sa 14:00", "name": "USPS COLLECTION BOX - PO LOBBY", "note": "ON 12/24 AND 12/31, THIS BOX MAY BE COLLECTED AS EARLY AS 12 NOON.", "ref": "6255300001"}, "type": "Feature"}
{"geometry": {"coordinates": [-89.109222219, 39.287249323], "type": "Point"}, "id": "K8GGwzVYOpKuVeJdd_bv0SgEr2M=", "properties": {"@spider": "usps_collection_boxes", "addr:city": "OCONEE", "addr:country": "US", "addr:full": "100 OAK ST", "addr:postcode": "62553", "addr:state": "IL", "brand": "USPS", "collection_times": "Mo-Fr 16:30; Sa 14:00", "name": "USPS COLLECTION BOX - PO LOBBY", "note": "ON 12/24 AND 12/31, THIS BOX MAY BE COLLECTED AS EARLY AS 12 NOON.", "ref": "6255300002"}, "type": "Feature"}
{"geometry": {"coordinates": [-88.867602, 39.937414], "type": "Point"}, "id": "jYgSciEqJcB73fxuXXLi-brPZwY=", "properties": {"@spider": "usps_collection_boxes", "addr:city": "OREANA", "addr:country": "US", "addr:full": "205 W SOUTH ST", "addr:postcode": "62554", "addr:state": "IL", "brand": "USPS", "collection_times": "Mo-Fr 11:00; Sa 09:00", "name": "USPS COLLECTION BOX - BLUE BOX", "ref": "6255400000"}, "type": "Feature"}
{"geometry": {"coordinates": [-88.867719, 39.937441], "type": "Point"}, "id": "vNH_67a1MPuYBwSbbBdB-HUp9gI=", "properties": {"@spider": "usps_collection_boxes", "addr:city": "OREANA", "addr:country": "US", "addr:full": "205 W SOUTH ST", "addr:postcode": "62554", "addr:state": "IL", "brand": "USPS", "collection_times": "Mo-Fr 11:00; Sa 09:00", "name": "USPS COLLECTION BOX - PO LOBBY", "ref": "6255400001"}, "type": "Feature"}
{"geometry": {"coordinates": [-88.867503, 39.937409488], "type": "Point"}, "id": "2l5s06NVhgG6InNwoydBGPxCYpI=", "properties": {"@spider": "usps_collection_boxes", "addr:city": "OREANA", "addr:country": "US", "addr:full": "205 W SOUTH ST", "addr:postcode": "62554", "addr:state": "IL", "brand": "USPS", "collection_times": "Mo-Fr 11:00; Sa 09:00", "name": "USPS COLLECTION BOX - PO LOBBY", "ref": "6255400002"}, "type": "Feature"}
{"geometry": {"coordinates": [-89.404386, 39.458313], "type": "Point"}, "id": "Ono9omrB29L4Jm_6scCZRbuqgi0=", "properties": {"@spider": "usps_collection_boxes", "addr:city": "PALMER", "addr:country": "US", "addr:full": "910 5TH ST", "addr:postcode": "62556", "addr:state": "IL", "brand": "USPS", "collection_times": "Mo-Fr 15:45; Sa 10:30", "name": "USPS COLLECTION BOX - BLUE BOX", "note": "ON 12/24 AND 12/31, THIS BOX MAY BE COLLECTED AS EARLY AS 12 NOON.", "ref": "6255600000"}, "type": "Feature"}
{"geometry": {"coordinates": [-89.404423, 39.458373], "type": "Point"}, "id": "k0Tz-Jz_TICKE1ijdgZRYdkYFW8=", "properties": {"@spider": "usps_collection_boxes", "addr:city": "PALMER", "addr:country": "US", "addr:full": "910 5TH ST", "addr:postcode": "62556", "addr:state": "IL", "brand": "USPS", "collection_times": "Mo-Fr 16:00; Sa 13:00", "name": "USPS COLLECTION BOX - PO LOBBY", "note": "ON 12/24 AND 12/31, THIS BOX MAY BE COLLECTED AS EARLY AS 12 NOON.", "ref": "6255600001"}, "type": "Feature"}
{"geometry": {"coordinates": [-89.404128496, 39.458111271], "type": "Point"}, "id": "Jz0xd-uFrkeYiecJ1u7uKXQCiak=", "properties": {"@spider": "usps_collection_boxes", "addr:city": "PALMER", "addr:country": "US", "addr:full": "910 5TH ST", "addr:postcode": "62556", "addr:state": "IL", "brand": "USPS", "collection_times": "Mo-Fr 16:00; Sa 13:00", "name": "USPS COLLECTION BOX - PO LOBBY", "note": "ON 12/24 AND 12/31, THIS BOX MAY BE COLLECTED AS EARLY AS 12 NOON.", "ref": "6255600002"}, "type": "Feature"}
{"geometry": {"coordinates": [-89.082237, 39.387663], "type": "Point"}, "id": "iJbK7gNHKZhTMXLSxn_BhDwV-3s=", "properties": {"@spider": "usps_collection_boxes", "addr:city": "PANA", "addr:country": "US", "addr:full": "214 S LOCUST ST", "addr:postcode": "62557", "addr:state": "IL", "brand": "USPS", "collection_times": "Mo-Fr 16:45; Sa 12:00", "name": "USPS COLLECTION BOX - BLUE BOX", "note": "ON 12/24 AND 12/31, THIS BOX MAY BE COLLECTED AS EARLY AS 12 NOON.", "ref": "6255700000"}, "type": "Feature"}
{"geometry": {"coordinates": [-89.082255, 39.387731], "type": "Point"}, "id": "oczqwyEZGF1ABIzTpGcgs0msoqY=", "properties": {"@spider": "usps_collection_boxes", "addr:city": "PANA", "addr:country": "US", "addr:full": "214 S LOCUST ST", "addr:postcode": "62557", "addr:state": "IL", "brand": "USPS", "collection_times": "Mo-Fr 16:45; Sa 12:00", "name": "USPS COLLECTION BOX - BLUE BOX", "note": "ON 12/24 AND 12/31, THIS BOX MAY BE COLLECTED AS EARLY AS 12 NOON.", "ref": "6255700001"}, "type": "Feature"}
{"geometry": {"coordinates": [-89.082255, 39.387731], "type": "Point"}, "id": "Wv3imKKT6NBVj3SeW-HdaHsxUr8=", "properties": {"@spider": "usps_collection_boxes", "addr:city": "PANA", "addr:country": "US", "addr:full": "214 S LOCUST ST", "addr:postcode": "62557", "addr:state": "IL", "brand": "USPS", "collection_times": "Mo-Fr 16:45; Sa 12:00", "name": "USPS COLLECTION BOX - PO LOBBY", "note": "ON 12/24 AND 12/31, THIS BOX MAY BE COLLECTED AS EARLY AS 12 NOON.", "ref": "6255700012"}, "type": "Feature"}
{"geometry": {"coordinates": [-89.082409508, 39.386912794], "type": "Point"}, "id": "Iw5wrYLhzxSrb6rFpAYw1JA5o-A=", "properties": {"@spider": "usps_collection_boxes", "addr:city": "PANA", "addr:country": "US", "addr:full": "214 S LOCUST ST", "addr:postcode": "62557", "addr:state": "IL", "brand": "USPS", "collection_times": "Mo-Fr 16:45; Sa 12:00", "name": "USPS COLLECTION BOX - PO LOBBY", "note": "ON 12/24 AND 12/31, THIS BOX MAY BE COLLECTED AS EARLY AS 12 NOON.", "ref": "6255700013"}, "type": "Feature"}
{"geometry": {"coordinates": [-89.578923, 39.591233], "type": "Point"}, "id": "-o0jwDLqbmPeoHL_WYr2IA3FOwc=", "properties": {"@spider": "usps_collection_boxes", "addr:city": "PAWNEE", "addr:country": "US", "addr:full": "620 5TH ST", "addr:postcode": "62558", "addr:state": "IL", "brand": "USPS", "collection_times": "Mo-Fr 16:15; Sa 10:45", "name": "USPS COLLECTION BOX - BLUE BOX", "note": "ON 12/24 AND 12/31, THIS BOX MAY BE COLLECTED AS EARLY AS 12 NOON.", "ref": "6255800000"}, "type": "Feature"}
{"geometry": {"coordinates": [-89.578954, 39.591159], "type": "Point"}, "id": "ZGtSTKZlbs8sTPv0HDJpD_ShFCE=", "properties": {"@spider": "usps_collection_boxes", "addr:city": "PAWNEE", "addr:country": "US", "addr:full": "620 5TH ST", "addr:postcode": "62558", "addr:state": "IL", "brand": "USPS", "collection_times": "Mo-Fr 16:15; Sa 10:45", "name": "USPS COLLECTION BOX - PO LOBBY", "note": "ON 12/24 AND 12/31, THIS BOX MAY BE COLLECTED AS EARLY AS 12 NOON.", "ref": "6255800001"}, "type": "Feature"}
{"geometry": {"coordinates": [-89.578947927, 39.591540063], "type": "Point"}, "id": "A99exVPngZxUg0l_6dNrfN2lCaE=", "properties": {"@spider": "usps_collection_boxes", "addr:city": "PAWNEE", "addr:country": "US", "addr:full": "620 5TH ST", "addr:postcode": "62558", "addr:state": "IL", "brand": "USPS", "collection_times": "Mo-Fr 16:15; Sa 10:45", "name": "USPS COLLECTION BOX - PO LOBBY", "note": "ON 12/24 AND 12/31, THIS BOX MAY BE COLLECTED AS EARLY AS 12 NOON.", "ref": "6255800002"}, "type": "Feature"}
{"geometry": {"coordinates": [-89.571981, 39.319607], "type": "Point"}, "id": "zOdzHkQy4NnoiK_lrMnRa_80IGE=", "properties": {"@spider": "usps_collection_boxes", "addr:city": "RAYMOND", "addr:country": "US", "addr:full": "110 N MCGOWN ST", "addr:postcode": "62560", "addr:state": "IL", "brand": "USPS", "collection_times": "Mo-Fr 16:30; Sa 11:00", "name": "USPS COLLECTION BOX - BLUE BOX", "note": "ON 12/24 AND 12/31, THIS BOX MAY BE COLLECTED AS EARLY AS 12 NOON.", "ref": "6256000001"}, "type": "Feature"}
{"geometry": {"coordinates": [-89.57169, 39.319678], "type": "Point"}, "id": "WpvqBSVLXTmFiMvKhwJ0Q-4REY8=", "properties": {"@spider": "usps_collection_boxes", "addr:city": "RAYMOND", "addr:country": "US", "addr:full": "401 E BROAD ST", "addr:postcode": "62560", "addr:state": "IL", "brand": "USPS", "collection_times": "Mo-Fr 16:30; Sa 11:00", "name": "USPS COLLECTION BOX - PO LOBBY", "note": "ON 12/24 AND 12/31, THIS BOX MAY BE COLLECTED AS EARLY AS 12 NOON.", "ref": "6256000002"}, "type": "Feature"}
{"geometry": {"coordinates": [-89.571654379, 39.319641889], "type": "Point"}, "id": "mLaGfgrg4-b3w4Y9votFxzLVvVc=", "properties": {"@spider": "usps_collection_boxes", "addr:city": "RAYMOND", "addr:country": "US", "addr:full": "401 E BROAD ST", "addr:postcode": "62560", "addr:state": "IL", "brand": "USPS", "collection_times": "Mo-Fr 16:30; Sa 11:00", "name": "USPS COLLECTION BOX - PO LOBBY", "note": "ON 12/24 AND 12/31, THIS BOX MAY BE COLLECTED AS EARLY AS 12 NOON.", "ref": "6256000003"}, "type": "Feature"}
{"geometry": {"coordinates": [-89.539549, 39.849343], "type": "Point"}, "id": "BtLtO2ch5zJ60Lyz8xfhwBkBeFs=", "properties": {"@spider": "usps_collection_boxes", "addr:city": "RIVERTON", "addr:country": "US", "addr:full": "619 N 7TH ST", "addr:postcode": "62561", "addr:state": "IL", "brand": "USPS", "collection_times": "Mo-Fr 16:15; Sa 10:45", "name": "USPS COLLECTION BOX - BLUE BOX", "note": "ON 12/24 AND 12/31, THIS BOX MAY BE COLLECTED AS EARLY AS 12 NOON.", "ref": "6256100000"}, "type": "Feature"}
{"geometry": {"coordinates": [-89.539513, 39.849373], "type": "Point"}, "id": "ypD6cTTwhpnRrjUcNq2wVOngG5g=", "properties": {"@spider": "usps_collection_boxes", "addr:city": "RIVERTON", "addr:country": "US", "addr:full": "619 N 7TH ST", "addr:postcode": "62561", "addr:state": "IL", "brand": "USPS", "collection_times": "Mo-Fr 16:15; Sa 10:45", "name": "USPS COLLECTION BOX - PO LOBBY", "note": "ON 12/24 AND 12/31, THIS BOX MAY BE COLLECTED AS EARLY AS 12 NOON.", "ref": "6256100003"}, "type": "Feature"}
{"geometry": {"coordinates": [-89.539515762, 39.849237304], "type": "Point"}, "id": "TOC_o1eMMbkuypSN7g_-wmDTImI=", "properties": {"@spider": "usps_collection_boxes", "addr:city": "RIVERTON", "addr:country": "US", "addr:full": "619 N 7TH ST", "addr:postcode": "62561", "addr:state": "IL", "brand": "USPS", "collection_times": "Mo-Fr 16:15; Sa 10:45", "name": "USPS COLLECTION BOX - PO LOBBY", "note": "ON 12/24 AND 12/31, THIS BOX MAY BE COLLECTED AS EARLY AS 12 NOON.", "ref": "6256100004"}, "type": "Feature"}
{"geometry": {"coordinates": [-89.5364866, 39.748754], "type": "Point"}, "id": "bx5BsNui3ZMQyOLENU13FIYAQZQ=", "properties": {"@spider": "usps_collection_boxes", "addr:city": "ROCHESTER", "addr:country": "US", "addr:full": "200 S WALNUT ST", "addr:postcode": "62563", "addr:state": "IL", "brand": "USPS", "collection_times": "Mo-Fr 16:30; Sa 11:30", "name": "USPS COLLECTION BOX - BLUE BOX", "note": "ON 12/24 AND 12/31, THIS BOX MAY BE COLLECTED AS EARLY AS 12 NOON.", "ref": "6256300002"}, "type": "Feature"}
{"geometry": {"coordinates": [-89.536543, 39.748693], "type": "Point"}, "id": "FtzZ_owvHszEKgeW2PXcoS8yb3U=", "properties": {"@spider": "usps_collection_boxes", "addr:city": "ROCHESTER", "addr:country": "US", "addr:full": "200 S WALNUT ST", "addr:postcode": "62563", "addr:state": "IL", "brand": "USPS", "collection_times": "Mo-Fr 16:30; Sa 11:30", "name": "USPS COLLECTION BOX - BLUE BOX", "note": "ON 12/24 AND 12/31, THIS BOX MAY BE COLLECTED AS EARLY AS 12 NOON.", "ref": "6256300003"}, "type": "Feature"}
{"geometry": {"coordinates": [-89.536543, 39.748693], "type": "Point"}, "id": "f9NHUNoCdbssPgb9dd4mhMTtm1Y=", "properties": {"@spider": "usps_collection_boxes", "addr:city": "ROCHESTER", "addr:country": "US", "addr:full": "200 S WALNUT ST", "addr:postcode": "62563", "addr:state": "IL", "brand": "USPS", "collection_times": "Mo-Fr 17:00; Sa 11:30", "name": "USPS COLLECTION BOX - PO LOBBY", "note": "ON 12/24 AND 12/31, THIS BOX MAY BE COLLECTED AS EARLY AS 12 NOON.", "ref": "6256300005"}, "type": "Feature"}
{"geometry": {"coordinates": [-89.53650523, 39.748535612], "type": "Point"}, "id": "9CxKHIMGCKEsZlVSS7O5Ks3n3ZI=", "properties": {"@spider": "usps_collection_boxes", "addr:city": "ROCHESTER", "addr:country": "US", "addr:full": "200 S WALNUT ST", "addr:postcode": "62563", "addr:state": "IL", "brand": "USPS", "collection_times": "Mo-Fr 17:00; Sa 11:30", "name": "USPS COLLECTION BOX - PO LOBBY", "note": "ON 12/24 AND 12/31, THIS BOX MAY BE COLLECTED AS EARLY AS 12 NOON.", "ref": "6256300006"}, "type": "Feature"}
{"geometry": {"coordinates": [-88.792409, 39.405301], "type": "Point"}, "id": "A9q1xFnTEA49bC8lZSBqRfo3izs=", "properties": {"@spider": "usps_collection_boxes", "addr:city": "SHELBYVILLE", "addr:country": "US", "addr:full": "200 S MORGAN ST", "addr:postcode": "62565", "addr:state": "IL", "brand": "USPS", "collection_times": "Mo-Fr 17:00; Sa 15:00", "name": "USPS COLLECTION BOX - BLUE BOX", "note": "ON 12/24 AND 12/31, THIS BOX MAY BE COLLECTED AS EARLY AS 12 NOON.", "ref": "6256500001"}, "type": "Feature"}
{"geometry": {"coordinates": [-88.792409, 39.405301], "type": "Point"}, "id": "VPJWyVFe_Pv3u7iPzrtRRYfve3Q=", "properties": {"@spider": "usps_collection_boxes", "addr:city": "SHELBYVILLE", "addr:country": "US", "addr:full": "200 S MORGAN ST", "addr:postcode": "62565", "addr:state": "IL", "brand": "USPS", "collection_times": "Mo-Fr 17:00; Sa 15:00", "name": "USPS COLLECTION BOX - BLUE BOX", "note": "ON 12/24 AND 12/31, THIS BOX MAY BE COLLECTED AS EARLY AS 12 NOON.", "ref": "6256500002"}, "type": "Feature"}
{"geometry": {"coordinates": [-88.7918278, 39.408296], "type": "Point"}, "id": "PVU2DK-kXfk04GVGAoStdGJAnlE=", "properties": {"@spider": "usps_collection_boxes", "addr:city": "SHELBYVILLE", "addr:country": "US", "addr:full": "249 N MORGAN ST", "addr:postcode": "62565", "addr:state": "IL", "brand": "USPS", "collection_times": "Mo-Sa 11:30", "name": "USPS COLLECTION BOX - BLUE BOX", "ref": "6256500005"}, "type": "Feature"}
{"geometry": {"coordinates": [-88.7937661, 39.412791], "type": "Point"}, "id": "njHFcHVW1DOzVHclDpxH6WpgA4c=", "properties": {"@spider": "usps_collection_boxes", "addr:city": "SHELBYVILLE", "addr:country": "US", "addr:full": "611 N BROADWAY ST", "addr:postcode": "62565", "addr:state": "IL", "brand": "USPS", "collection_times": "Mo-Fr 10:00; Sa 11:30", "name": "USPS COLLECTION BOX - BLUE BOX", "ref": "6256500006"}, "type": "Feature"}
{"geometry": {"coordinates": [-88.8093699, 39.406616], "type": "Point"}, "id": "M4_7rinc0KDX51-SXIP8xNHMW1M=", "properties": {"@spider": "usps_collection_boxes", "addr:city": "SHELBYVILLE", "addr:country": "US", "addr:full": "1313 W MAIN ST", "addr:postcode": "62565", "addr:state": "IL", "brand": "USPS", "collection_times": "Mo-Sa 11:30", "name": "USPS COLLECTION BOX - BLUE BOX", "ref": "6256500013"}, "type": "Feature"}
{"geometry": {"coordinates": [-88.8175581, 39.404642], "type": "Point"}, "id": "CRTN9y9Q0XV_vLO5PIfhoPCPeX4=", "properties": {"@spider": "usps_collection_boxes", "addr:city": "SHELBYVILLE", "addr:country": "US", "addr:full": "2000 W MAIN ST", "addr:postcode": "62565", "addr:state": "IL", "brand": "USPS", "collection_times": "Mo-Sa 11:30", "name": "USPS COLLECTION BOX - BLUE BOX", "ref": "6256500017"}, "type": "Feature"}
{"geometry": {"coordinates": [-88.792409, 39.405301], "type": "Point"}, "id": "D0kwiW0LmOfFHrvHi-WkzsCpANk=", "properties": {"@spider": "usps_collection_boxes", "addr:city": "SHELBYVILLE", "addr:country": "US", "addr:full": "200 S MORGAN ST", "addr:postcode": "62565", "addr:state": "IL", "brand": "USPS", "collection_times": "Mo-Fr 17:00; Sa 15:00", "name": "USPS COLLECTION BOX - PO LOBBY", "note": "ON 12/24 AND 12/31, THIS BOX MAY BE COLLECTED AS EARLY AS 12 NOON.", "ref": "6256500018"}, "type": "Feature"}
{"geometry": {"coordinates": [-88.792117884, 39.405515616], "type": "Point"}, "id": "3hI5qytEPz2WP4Nzy8huT_t5g6I=", "properties": {"@spider": "usps_collection_boxes", "addr:city": "SHELBYVILLE", "addr:country": "US", "addr:full": "200 S MORGAN ST", "addr:postcode": "62565", "addr:state": "IL", "brand": "USPS", "collection_times": "Mo-Fr 17:00; Sa 15:00", "name": "USPS COLLECTION BOX - PO LOBBY", "note": "ON 12/24 AND 12/31, THIS BOX MAY BE COLLECTED AS EARLY AS 12 NOON.", "ref": "6256500020"}, "type": "Feature"}
{"geometry": {"coordinates": [-89.1894657989, 39.6394801712], "type": "Point"}, "id": "lWzQq-CYxpRxnnOcXi-ARexccd4=", "properties": {"@spider": "usps_collection_boxes", "addr:city": "STONINGTON", "addr:country": "US", "addr:full": "116 E 4TH ST", "addr:postcode": "62567", "addr:state": "IL", "brand": "USPS", "collection_times": "Mo-Fr 11:15; Sa 09:45", "name": "USPS COLLECTION BOX - BLUE BOX", "ref": "6256700001"}, "type": "Feature"}
{"geometry": {"coordinates": [-89.1894657989, 39.6394801712], "type": "Point"}, "id": "Ba9at-KBzwoe_BZOuSFVVHe3x7w=", "properties": {"@spider": "usps_collection_boxes", "addr:city": "STONINGTON", "addr:country": "US", "addr:full": "116 E 4TH ST", "addr:postcode": "62567", "addr:state": "IL", "brand": "USPS", "collection_times": "Mo-Fr 11:15; Sa 09:45", "name": "USPS COLLECTION BOX - PO LOBBY", "ref": "6256700002"}, "type": "Feature"}
{"geometry": {"coordinates": [-89.1894657989, 39.6394801712], "type": "Point"}, "id": "Tm0SOkCNllaaLcs9T3EZ6EXGkkk=", "properties": {"@spider": "usps_collection_boxes", "addr:city": "STONINGTON", "addr:country": "US", "addr:full": "116 E 4TH ST", "addr:postcode": "62567", "addr:state": "IL", "brand": "USPS", "collection_times": "Mo-Fr 11:15; Sa 09:45", "name": "USPS COLLECTION BOX - PO LOBBY", "ref": "6256700003"}, "type": "Feature"}
{"geometry": {"coordinates": [-89.2946036, 39.547184], "type": "Point"}, "id": "LYdt93N-PDXucQIEa5AubCefJuE=", "properties": {"@spider": "usps_collection_boxes", "addr:city": "TAYLORVILLE", "addr:country": "US", "addr:full": "300 S MAIN ST", "addr:postcode": "62568", "addr:state": "IL", "brand": "USPS", "collection_times": "Mo-Fr 16:30; Sa 12:00", "name": "USPS COLLECTION BOX - PO LOBBY", "note": "ON 12/24 AND 12/31, THIS BOX MAY BE COLLECTED AS EARLY AS 12 NOON.", "ref": "6256800000"}, "type": "Feature"}
{"geometry": {"coordinates": [-89.2948164, 39.546918], "type": "Point"}, "id": "x2Bnq9rJoIM7QQOHQ_T2r7cgZTE=", "properties": {"@spider": "usps_collection_boxes", "addr:city": "TAYLORVILLE", "addr:country": "US", "addr:full": "300 S MAIN ST", "addr:postcode": "62568", "addr:state": "IL", "brand": "USPS", "collection_times": "Mo-Fr 16:15; Sa 12:00", "name": "USPS COLLECTION BOX - BLUE BOX", "note": "ON 12/24 AND 12/31, THIS BOX MAY BE COLLECTED AS EARLY AS 12 NOON.", "ref": "6256800002"}, "type": "Feature"}
{"geometry": {"coordinates": [-89.2949662, 39.547228], "type": "Point"}, "id": "9cqb99giNnRhxmsSPtYwDH5CKEQ=", "properties": {"@spider": "usps_collection_boxes", "addr:city": "TAYLORVILLE", "addr:country": "US", "addr:full": "303 S MAIN ST", "addr:postcode": "62568", "addr:state": "IL", "brand": "USPS", "collection_times": "Mo-Fr 16:15; Sa 12:00", "name": "USPS COLLECTION BOX - BLUE BOX", "note": "ON 12/24 AND 12/31, THIS BOX MAY BE COLLECTED AS EARLY AS 12 NOON.", "ref": "6256800004"}, "type": "Feature"}
{"geometry": {"coordinates": [-89.2982039, 39.549228], "type": "Point"}, "id": "JjUdskSt9CUJbWPs30FSKnCLEjA=", "properties": {"@spider": "usps_collection_boxes", "addr:city": "TAYLORVILLE", "addr:country": "US", "addr:full": "322 W MAIN CROSS ST", "addr:postcode": "62568", "addr:state": "IL", "brand": "USPS", "collection_times": "Mo-Fr 14:00; Sa 09:00", "name": "USPS COLLECTION BOX - BLUE BOX", "note": "ON 12/24 AND 12/31, THIS BOX MAY BE COLLECTED AS EARLY AS 12 NOON.", "ref": "6256800007"}, "type": "Feature"}
{"geometry": {"coordinates": [-89.2962942, 39.549457], "type": "Point"}, "id": "3OX2tIJxMlUc8061pOcXLWFLmqY=", "properties": {"@spider": "usps_collection_boxes", "addr:city": "TAYLORVILLE", "addr:country": "US", "addr:full": "201 W MAIN CROSS ST", "addr:postcode": "62568", "addr:state": "IL", "brand": "USPS", "collection_times": "Mo-Fr 09:30; Sa 09:00", "name": "USPS COLLECTION BOX - BLUE BOX", "ref": "6256800009"}, "type": "Feature"}
{"geometry": {"coordinates": [-89.2948355, 39.56019], "type": "Point"}, "id": "4EWLFb0kawBB41yo7-v-7utL3n4=", "properties": {"@spider": "usps_collection_boxes", "addr:city": "TAYLORVILLE", "addr:country": "US", "addr:full": "117 E BIDWELL ST", "addr:postcode": "62568", "addr:state": "IL", "brand": "USPS", "collection_times": "Mo-Fr 13:00; Sa 09:00", "name": "USPS COLLECTION BOX - BLUE BOX", "note": "ON 12/24 AND 12/31, THIS BOX MAY BE COLLECTED AS EARLY AS 12 NOON.", "ref": "6256800011"}, "type": "Feature"}
{"geometry": {"coordinates": [-89.2956304, 39.547632], "type": "Point"}, "id": "OI_HRsvG-CIxvNi6fTqw7F6D_Z8=", "properties": {"@spider": "usps_collection_boxes", "addr:city": "TAYLORVILLE", "addr:country": "US", "addr:full": "105 W FRANKLIN ST", "addr:postcode": "62568", "addr:state": "IL", "brand": "USPS", "collection_times": "Mo-Fr 14:00; Sa 09:00", "name": "USPS COLLECTION BOX - BLUE BOX", "note": "ON 12/24 AND 12/31, THIS BOX MAY BE COLLECTED AS EARLY AS 12 NOON.", "ref": "6256800013"}, "type": "Feature"}
{"geometry": {"coordinates": [-89.2964859, 39.547684], "type": "Point"}, "id": "I8UB70JphPs4R1cL2onLoq5JIF8=", "properties": {"@spider": "usps_collection_boxes", "addr:city": "TAYLORVILLE", "addr:country": "US", "addr:full": "203 W FRANKLIN ST", "addr:postcode": "62568", "addr:state": "IL", "brand": "USPS", "collection_times": "Mo-Fr 14:00; Sa 09:00", "name": "USPS COLLECTION BOX - BLUE BOX", "note": "ON 12/24 AND 12/31, THIS BOX MAY BE COLLECTED AS EARLY AS 12 NOON.", "ref": "6256800015"}, "type": "Feature"}
{"geometry": {"coordinates": [-89.2956088, 39.54861], "type": "Point"}, "id": "41l32jh4bu21GM5gquvunYxjTI0=", "properties": {"@spider": "usps_collection_boxes", "addr:city": "TAYLORVILLE", "addr:country": "US", "addr:full": "109 W MARKET ST", "addr:postcode": "62568", "addr:state": "IL", "brand": "USPS", "collection_times": "Mo-Fr 14:00; Sa 09:00", "name": "USPS COLLECTION BOX - BLUE BOX", "note": "ON 12/24 AND 12/31, THIS BOX MAY BE COLLECTED AS EARLY AS 12 NOON.", "ref": "6256800018"}, "type": "Feature"}
{"geometry": {"coordinates": [-89.305799, 39.553635], "type": "Point"}, "id": "Ns9sqf0WRkFu65HQpDGchPqcnl4=", "properties": {"@spider": "usps_collection_boxes", "addr:city": "TAYLORVILLE", "addr:country": "US", "addr:full": "905 W SPRESSER ST", "addr:postcode": "62568", "addr:state": "IL", "brand": "USPS", "collection_times": "Mo-Fr 09:30; Sa 09:00", "name": "USPS COLLECTION BOX - BLUE BOX", "ref": "6256800021"}, "type": "Feature"}
{"geometry": {"coordinates": [-89.3027018, 39.553448], "type": "Point"}, "id": "iWoREshRuN2y2YyxiVIfrRUtKrI=", "properties": {"@spider": "usps_collection_boxes", "addr:city": "TAYLORVILLE", "addr:country": "US", "addr:full": "410 N SHUMWAY ST", "addr:postcode": "62568", "addr:state": "IL", "brand": "USPS", "collection_times": "Mo-Fr 14:00; Sa 09:00", "name": "USPS COLLECTION BOX - BLUE BOX", "note": "ON 12/24 AND 12/31, THIS BOX MAY BE COLLECTED AS EARLY AS 12 NOON.", "ref": "6256800023"}, "type": "Feature"}
{"geometry": {"coordinates": [-89.3143985, 39.569691], "type": "Point"}, "id": "QRXBz5uLxPlX0ZBAXV4zhGyj40k=", "properties": {"@spider": "usps_collection_boxes", "addr:city": "TAYLORVILLE", "addr:country": "US", "addr:full": "1175 E 1500 NORTH RD", "addr:postcode": "62568", "addr:state": "IL", "brand": "USPS", "collection_times": "Mo-Sa 09:00", "name": "USPS COLLECTION BOX - BLUE BOX", "ref": "6256800025"}, "type": "Feature"}
{"geometry": {"coordinates": [-89.294864854, 39.54710678], "type": "Point"}, "id": "y1etgx9asb-inyzaDRY_9qe0TOA=", "properties": {"@spider": "usps_collection_boxes", "addr:city": "TAYLORVILLE", "addr:country": "US", "addr:full": "300 S MAIN ST", "addr:postcode": "62568", "addr:state": "IL", "brand": "USPS", "collection_times": "Mo-Fr 16:30; Sa 12:00", "name": "USPS COLLECTION BOX - PO LOBBY", "note": "ON 12/24 AND 12/31, THIS BOX MAY BE COLLECTED AS EARLY AS 12 NOON.", "ref": "6256800027"}, "type": "Feature"}
{"geometry": {"coordinates": [-89.449046, 39.589896], "type": "Point"}, "id": "kFaMED2faBf7IBzfRB3NHsIs5xc=", "properties": {"@spider": "usps_collection_boxes", "addr:city": "TOVEY", "addr:country": "US", "addr:full": "411 MIDLAND ST", "addr:postcode": "62570", "addr:state": "IL", "brand": "USPS", "collection_times": "Mo-Fr 16:00; Sa 12:15", "name": "USPS COLLECTION BOX - BLUE BOX", "note": "ON 12/24 AND 12/31, THIS BOX MAY BE COLLECTED AS EARLY AS 12 NOON.", "ref": "6257000000"}, "type": "Feature"}
{"geometry": {"coordinates": [-89.448953, 39.589922], "type": "Point"}, "id": "3g_vxwBrtYeBi09FBlupjv2pa30=", "properties": {"@spider": "usps_collection_boxes", "addr:city": "TOVEY", "addr:country": "US", "addr:full": "411 MIDLAND ST", "addr:postcode": "62570", "addr:state": "IL", "brand": "USPS", "collection_times": "Mo-Fr 16:00; Sa 12:15", "name": "USPS COLLECTION BOX - PO LOBBY", "note": "ON 12/24 AND 12/31, THIS BOX MAY BE COLLECTED AS EARLY AS 12 NOON.", "ref": "6257000001"}, "type": "Feature"}
{"geometry": {"coordinates": [-89.449812, 39.589892488], "type": "Point"}, "id": "qq-NwfI3aBAqipKtZsGh0ToHkLM=", "properties": {"@spider": "usps_collection_boxes", "addr:city": "TOVEY", "addr:country": "US", "addr:full": "411 MIDLAND ST", "addr:postcode": "62570", "addr:state": "IL", "brand": "USPS", "collection_times": "Mo-Fr 16:00; Sa 12:15", "name": "USPS COLLECTION BOX - PO LOBBY", "note": "ON 12/24 AND 12/31, THIS BOX MAY BE COLLECTED AS EARLY AS 12 NOON.", "ref": "6257000002"}, "type": "Feature"}
{"geometry": {"coordinates": [-88.960284, 39.388916], "type": "Point"}, "id": "7k8bY6QBukzmNWHlw-pkKuFIETc=", "properties": {"@spider": "usps_collection_boxes", "addr:city": "TOWER HILL", "addr:country": "US", "addr:full": "105 S MICHIGAN ST", "addr:postcode": "62571", "addr:state": "IL", "brand": "USPS", "collection_times": "Mo-Fr 11:45; Sa 11:15", "name": "USPS COLLECTION BOX - BLUE BOX", "ref": "6257100001"}, "type": "Feature"}
{"geometry": {"coordinates": [-88.960318, 39.388999], "type": "Point"}, "id": "9L0MG3cKtSJpFjInyI5P8aGJb6o=", "properties": {"@spider": "usps_collection_boxes", "addr:city": "TOWER HILL", "addr:country": "US", "addr:full": "105 S MICHIGAN ST", "addr:postcode": "62571", "addr:state": "IL", "brand": "USPS", "collection_times": "Mo-Fr 11:45; Sa 11:15", "name": "USPS COLLECTION BOX - PO LOBBY", "ref": "6257100002"}, "type": "Feature"}
{"geometry": {"coordinates": [-88.960379551, 39.387276], "type": "Point"}, "id": "Y76cqO2sny9fYYcQegiW-QsvBt4=", "properties": {"@spider": "usps_collection_boxes", "addr:city": "TOWER HILL", "addr:country": "US", "addr:full": "105 S MICHIGAN ST", "addr:postcode": "62571", "addr:state": "IL", "brand": "USPS", "collection_times": "Mo-Fr 11:45; Sa 11:15", "name": "USPS COLLECTION BOX - PO LOBBY", "ref": "6257100003"}, "type": "Feature"}
{"geometry": {"coordinates": [-89.652595526, 39.377485742], "type": "Point"}, "id": "f2dADIjjKc9hzB0k2-co3M0eBfU=", "properties": {"@spider": "usps_collection_boxes", "addr:city": "WAGGONER", "addr:country": "US", "addr:full": "130 W MAIN ST", "addr:postcode": "62572", "addr:state": "IL", "brand": "USPS", "collection_times": "Mo-Sa 11:15", "name": "USPS COLLECTION BOX - BLUE BOX", "ref": "6257200000"}, "type": "Feature"}
{"geometry": {"coordinates": [-89.652595526, 39.377485742], "type": "Point"}, "id": "jZOesd93p4bAIesCg5rtj94SXk0=", "properties": {"@spider": "usps_collection_boxes", "addr:city": "WAGGONER", "addr:country": "US", "addr:full": "130 W MAIN ST", "addr:postcode": "62572", "addr:state": "IL", "brand": "USPS", "collection_times": "Mo-Sa 11:15", "name": "USPS COLLECTION BOX - PO LOBBY", "ref": "6257200002"}, "type": "Feature"}
{"geometry": {"coordinates": [-89.062055, 39.931346], "type": "Point"}, "id": "ncViF4okF4GYmMprjPcleEbYp98=", "properties": {"@spider": "usps_collection_boxes", "addr:city": "WARRENSBURG", "addr:country": "US", "addr:full": "164 N MAIN ST", "addr:postcode": "62573", "addr:state": "IL", "brand": "USPS", "collection_times": "Mo-Fr 14:45; Sa 09:45", "name": "USPS COLLECTION BOX - BLUE BOX", "note": "ON 12/24 AND 12/31, THIS BOX MAY BE COLLECTED AS EARLY AS 12 NOON.", "ref": "6257300001"}, "type": "Feature"}
{"geometry": {"coordinates": [-89.062091, 39.931373], "type": "Point"}, "id": "ws5yiwkFflfXDGM3vsmss-0IvI0=", "properties": {"@spider": "usps_collection_boxes", "addr:city": "WARRENSBURG", "addr:country": "US", "addr:full": "164 N MAIN ST", "addr:postcode": "62573", "addr:state": "IL", "brand": "USPS", "collection_times": "Mo-Fr 14:45; Sa 09:45", "name": "USPS COLLECTION BOX - PO LOBBY", "note": "ON 12/24 AND 12/31, THIS BOX MAY BE COLLECTED AS EARLY AS 12 NOON.", "ref": "6257300002"}, "type": "Feature"}
{"geometry": {"coordinates": [-89.062044143, 39.930957671], "type": "Point"}, "id": "MoIyD-HAilNvHnejav-yALBVIuQ=", "properties": {"@spider": "usps_collection_boxes", "addr:city": "WARRENSBURG", "addr:country": "US", "addr:full": "164 N MAIN ST", "addr:postcode": "62573", "addr:state": "IL", "brand": "USPS", "collection_times": "Mo-Fr 14:45; Sa 09:45", "name": "USPS COLLECTION BOX - PO LOBBY", "note": "ON 12/24 AND 12/31, THIS BOX MAY BE COLLECTED AS EARLY AS 12 NOON.", "ref": "6257300003"}, "type": "Feature"}
