{"dataset_attributes": {"@spider": "usps_collection_boxes", "spider:collection_time": "2023-09-25T08:26:09.915926"}, "geometry": {"coordinates": [-90.039471, 39.725052], "type": "Point"}, "id": "1IIkenbK-D7yNDP5GVHZCi66xaA=", "properties": {"@spider": "usps_collection_boxes", "addr:city": "ALEXANDER", "addr:country": "US", "addr:full": "107 S PARK", "addr:postcode": "62601", "addr:state": "IL", "amenity": "post_box", "brand": "United States Postal Service", "brand:wikidata": "Q668687", "collection_times": "Mo-Fr 15:45; Sa 11:45", "name": "USPS COLLECTION BOX - PO LOBBY", "note": "ON 12/24 AND 12/31, THIS BOX MAY BE COLLECTED AS EARLY AS 12 NOON.", "nsi_id": "unitedstatespostalservice-a77078", "operator": "United States Postal Service", "operator:short": "USPS", "operator:type": "public", "operator:wikidata": "Q668687", "ref": "6260100000"}, "type": "Feature"}
{"dataset_attributes": {"@spider": "usps_collection_boxes", "spider:collection_time": "2023-09-25T08:26:09.915926"}, "geometry": {"coordinates": [-90.039471, 39.725052], "type": "Point"}, "id": "uCf7uFDaQhPlmdKC2_XNqTBWcrA=", "properties": {"@spider": "usps_collection_boxes", "addr:city": "ALEXANDER", "addr:country": "US", "addr:full": "107 S PARK ST", "addr:postcode": "62601", "addr:state": "IL", "amenity": "post_box", "brand": "United States Postal Service", "brand:wikidata": "Q668687", "collection_times": "Mo-Fr 15:45; Sa 11:45", "name": "USPS COLLECTION BOX - BLUE BOX", "note": "ON 12/24 AND 12/31, THIS BOX MAY BE COLLECTED AS EARLY AS 12 NOON.", "nsi_id": "unitedstatespostalservice-a77078", "operator": "United States Postal Service", "operator:short": "USPS", "operator:type": "public", "operator:wikidata": "Q668687", "ref": "6260100001"}, "type": "Feature"}
{"dataset_attributes": {"@spider": "usps_collection_boxes", "spider:collection_time": "2023-09-25T08:26:09.915926"}, "geometry": {"coordinates": [-90.039458565, 39.724611569], "type": "Point"}, "id": "l_kMnVM9XI7ZnpoGpUrkiEqyNtQ=", "properties": {"@spider": "usps_collection_boxes", "addr:city": "ALEXANDER", "addr:country": "US", "addr:full": "107 S PARK", "addr:postcode": "62601", "addr:state": "IL", "amenity": "post_box", "brand": "United States Postal Service", "brand:wikidata": "Q668687", "collection_times": "Mo-Fr 15:45; Sa 11:45", "name": "USPS COLLECTION BOX - PO LOBBY", "note": "ON 12/24 AND 12/31, THIS BOX MAY BE COLLECTED AS EARLY AS 12 NOON.", "nsi_id": "unitedstatespostalservice-a77078", "operator": "United States Postal Service", "operator:short": "USPS", "operator:type": "public", "operator:wikidata": "Q668687", "ref": "6260100002"}, "type": "Feature"}
{"dataset_attributes": {"@spider": "usps_collection_boxes", "spider:collection_time": "2023-09-25T08:26:09.915926"}, "geometry": {"coordinates": [-90.4351, 39.560764], "type": "Point"}, "id": "xmMV0zwHuTfjxyCRg4l8d5ppyyY=", "properties": {"@spider": "usps_collection_boxes", "addr:city": "ALSEY", "addr:country": "US", "addr:full": "101 MAIN ST", "addr:postcode": "62610", "addr:state": "IL", "amenity": "post_box", "brand": "United States Postal Service", "brand:wikidata": "Q668687", "collection_times": "Mo-Fr 15:45; Sa 09:30", "name": "USPS COLLECTION BOX - BLUE BOX", "note": "ON 12/24 AND 12/31, THIS BOX MAY BE COLLECTED AS EARLY AS 12 NOON.", "nsi_id": "unitedstatespostalservice-a77078", "operator": "United States Postal Service", "operator:short": "USPS", "operator:type": "public", "operator:wikidata": "Q668687", "ref": "6261000000"}, "type": "Feature"}
{"dataset_attributes": {"@spider": "usps_collection_boxes", "spider:collection_time": "2023-09-25T08:26:09.915926"}, "geometry": {"coordinates": [-90.4351, 39.560764], "type": "Point"}, "id": "05yb8b_izY3wV2pjghsaf5czXtk=", "properties": {"@spider": "usps_collection_boxes", "addr:city": "ALSEY", "addr:country": "US", "addr:full": "101 MAIN ST", "addr:postcode": "62610", "addr:state": "IL", "amenity": "post_box", "brand": "United States Postal Service", "brand:wikidata": "Q668687", "collection_times": "Mo-Fr 15:45; Sa 09:15", "name": "USPS COLLECTION BOX - PO LOBBY", "note": "ON 12/24 AND 12/31, THIS BOX MAY BE COLLECTED AS EARLY AS 12 NOON.", "nsi_id": "unitedstatespostalservice-a77078", "operator": "United States Postal Service", "operator:short": "USPS", "operator:type": "public", "operator:wikidata": "Q668687", "ref": "6261000001"}, "type": "Feature"}
{"dataset_attributes": {"@spider": "usps_collection_boxes", "spider:collection_time": "2023-09-25T08:26:09.915926"}, "geometry": {"coordinates": [-90.434862844, 39.560774468], "type": "Point"}, "id": "jHiYTAuu72Yay6QrmJLXEN1bM8Q=", "properties": {"@spider": "usps_collection_boxes", "addr:city": "ALSEY", "addr:country": "US", "addr:full": "101 MAIN ST", "addr:postcode": "62610", "addr:state": "IL", "amenity": "post_box", "brand": "United States Postal Service", "brand:wikidata": "Q668687", "collection_times": "Mo-Fr 15:45; Sa 09:15", "name": "USPS COLLECTION BOX - PO LOBBY", "note": "ON 12/24 AND 12/31, THIS BOX MAY BE COLLECTED AS EARLY AS 12 NOON.", "nsi_id": "unitedstatespostalservice-a77078", "operator": "United States Postal Service", "operator:short": "USPS", "operator:type": "public", "operator:wikidata": "Q668687", "ref": "6261000002"}, "type": "Feature"}
{"dataset_attributes": {"@spider": "usps_collection_boxes", "spider:collection_time": "2023-09-25T08:26:09.915926"}, "geometry": {"coordinates": [-90.3715795, 39.877502], "type": "Point"}, "id": "4mwTuw0KyFI2UOeV2Jy5sg2pwo4=", "properties": {"@spider": "usps_collection_boxes", "addr:city": "ARENZVILLE", "addr:country": "US", "addr:full": "213 W FREDERICK ST", "addr:postcode": "62611", "addr:state": "IL", "amenity": "post_box", "brand": "United States Postal Service", "brand:wikidata": "Q668687", "collection_times": "Mo-Fr 11:45; Sa 10:30", "name": "USPS COLLECTION BOX - BLUE BOX", "nsi_id": "unitedstatespostalservice-a77078", "operator": "United States Postal Service", "operator:short": "USPS", "operator:type": "public", "operator:wikidata": "Q668687", "ref": "6261100000"}, "type": "Feature"}
{"dataset_attributes": {"@spider": "usps_collection_boxes", "spider:collection_time": "2023-09-25T08:26:09.915926"}, "geometry": {"coordinates": [-90.3716401, 39.877803], "type": "Point"}, "id": "3vnyH-Aete1VqozKP8Ijz6LMGbE=", "properties": {"@spider": "usps_collection_boxes", "addr:city": "ARENZVILLE", "addr:country": "US", "addr:full": "213 W FREDERICK ST", "addr:postcode": "62611", "addr:state": "IL", "amenity": "post_box", "brand": "United States Postal Service", "brand:wikidata": "Q668687", "collection_times": "Mo-Fr 11:45; Sa 10:30", "name": "USPS COLLECTION BOX - PO LOBBY", "nsi_id": "unitedstatespostalservice-a77078", "operator": "United States Postal Service", "operator:short": "USPS", "operator:type": "public", "operator:wikidata": "Q668687", "ref": "6261100001"}, "type": "Feature"}
{"dataset_attributes": {"@spider": "usps_collection_boxes", "spider:collection_time": "2023-09-25T08:26:09.915926"}, "geometry": {"coordinates": [-90.371148107, 39.877504941], "type": "Point"}, "id": "H2gVZ0w4CAjPw441bzzePNB18Xc=", "properties": {"@spider": "usps_collection_boxes", "addr:city": "ARENZVILLE", "addr:country": "US", "addr:full": "213 W FREDERICK ST", "addr:postcode": "62611", "addr:state": "IL", "amenity": "post_box", "brand": "United States Postal Service", "brand:wikidata": "Q668687", "collection_times": "Mo-Fr 11:45; Sa 10:30", "name": "USPS COLLECTION BOX - PO LOBBY", "nsi_id": "unitedstatespostalservice-a77078", "operator": "United States Postal Service", "operator:short": "USPS", "operator:type": "public", "operator:wikidata": "Q668687", "ref": "6261100002"}, "type": "Feature"}
{"dataset_attributes": {"@spider": "usps_collection_boxes", "spider:collection_time": "2023-09-25T08:26:09.915926"}, "geometry": {"coordinates": [-90.007247, 39.888951], "type": "Point"}, "id": "I2_EUlejVRb1w2MZXsMCf0ft9T8=", "properties": {"@spider": "usps_collection_boxes", "addr:city": "ASHLAND", "addr:country": "US", "addr:full": "124 N YATES ST", "addr:postcode": "62612", "addr:state": "IL", "amenity": "post_box", "brand": "United States Postal Service", "brand:wikidata": "Q668687", "collection_times": "Mo-Fr 16:00; Sa 11:00", "name": "USPS COLLECTION BOX - BLUE BOX", "note": "ON 12/24 AND 12/31, THIS BOX MAY BE COLLECTED AS EARLY AS 12 NOON.", "nsi_id": "unitedstatespostalservice-a77078", "operator": "United States Postal Service", "operator:short": "USPS", "operator:type": "public", "operator:wikidata": "Q668687", "ref": "6261200001"}, "type": "Feature"}
{"dataset_attributes": {"@spider": "usps_collection_boxes", "spider:collection_time": "2023-09-25T08:26:09.915926"}, "geometry": {"coordinates": [-90.007211, 39.888905], "type": "Point"}, "id": "6b2rg6tOgyAeGh-pnBTMhQOgCI4=", "properties": {"@spider": "usps_collection_boxes", "addr:city": "ASHLAND", "addr:country": "US", "addr:full": "124 N YATES ST", "addr:postcode": "62612", "addr:state": "IL", "amenity": "post_box", "brand": "United States Postal Service", "brand:wikidata": "Q668687", "collection_times": "Mo-Fr 16:00; Sa 11:00", "name": "USPS COLLECTION BOX - PO LOBBY", "note": "ON 12/24 AND 12/31, THIS BOX MAY BE COLLECTED AS EARLY AS 12 NOON.", "nsi_id": "unitedstatespostalservice-a77078", "operator": "United States Postal Service", "operator:short": "USPS", "operator:type": "public", "operator:wikidata": "Q668687", "ref": "6261200002"}, "type": "Feature"}
{"dataset_attributes": {"@spider": "usps_collection_boxes", "spider:collection_time": "2023-09-25T08:26:09.915926"}, "geometry": {"coordinates": [-90.007273387, 39.888924269], "type": "Point"}, "id": "oenFYd5ocIQJeuGVdILNmGTJ5ZM=", "properties": {"@spider": "usps_collection_boxes", "addr:city": "ASHLAND", "addr:country": "US", "addr:full": "124 N YATES ST", "addr:postcode": "62612", "addr:state": "IL", "amenity": "post_box", "brand": "United States Postal Service", "brand:wikidata": "Q668687", "collection_times": "Mo-Fr 16:00; Sa 11:00", "name": "USPS COLLECTION BOX - PO LOBBY", "note": "ON 12/24 AND 12/31, THIS BOX MAY BE COLLECTED AS EARLY AS 12 NOON.", "nsi_id": "unitedstatespostalservice-a77078", "operator": "United States Postal Service", "operator:short": "USPS", "operator:type": "public", "operator:wikidata": "Q668687", "ref": "6261200003"}, "type": "Feature"}
{"dataset_attributes": {"@spider": "usps_collection_boxes", "spider:collection_time": "2023-09-25T08:26:09.915926"}, "geometry": {"coordinates": [-89.723928, 39.961336], "type": "Point"}, "id": "UBj5kViUMedLLu5FCceWAxECB7s=", "properties": {"@spider": "usps_collection_boxes", "addr:city": "ATHENS", "addr:country": "US", "addr:full": "214 N MAIN ST", "addr:postcode": "62613", "addr:state": "IL", "amenity": "post_box", "brand": "United States Postal Service", "brand:wikidata": "Q668687", "collection_times": "Mo-Fr 16:15; Sa 11:00", "name": "USPS COLLECTION BOX - BLUE BOX", "note": "ON 12/24 AND 12/31, THIS BOX MAY BE COLLECTED AS EARLY AS 12 NOON.", "nsi_id": "unitedstatespostalservice-a77078", "operator": "United States Postal Service", "operator:short": "USPS", "operator:type": "public", "operator:wikidata": "Q668687", "ref": "6261300001"}, "type": "Feature"}
{"dataset_attributes": {"@spider": "usps_collection_boxes", "spider:collection_time": "2023-09-25T08:26:09.915926"}, "geometry": {"coordinates": [-89.723998, 39.961335], "type": "Point"}, "id": "JVlMKZfyBr4WO2QnaOtdPVBcVsc=", "properties": {"@spider": "usps_collection_boxes", "addr:city": "ATHENS", "addr:country": "US", "addr:full": "215 N MAIN ST", "addr:postcode": "62613", "addr:state": "IL", "amenity": "post_box", "brand": "United States Postal Service", "brand:wikidata": "Q668687", "collection_times": "Mo-Fr 16:15; Sa 10:45", "name": "USPS COLLECTION BOX - PO LOBBY", "note": "ON 12/24 AND 12/31, THIS BOX MAY BE COLLECTED AS EARLY AS 12 NOON.", "nsi_id": "unitedstatespostalservice-a77078", "operator": "United States Postal Service", "operator:short": "USPS", "operator:type": "public", "operator:wikidata": "Q668687", "ref": "6261300002"}, "type": "Feature"}
{"dataset_attributes": {"@spider": "usps_collection_boxes", "spider:collection_time": "2023-09-25T08:26:09.915926"}, "geometry": {"coordinates": [-89.724029802, 39.961916801], "type": "Point"}, "id": "x0TdGRMlnr6oB3FiW2ORKoqoIXY=", "properties": {"@spider": "usps_collection_boxes", "addr:city": "ATHENS", "addr:country": "US", "addr:full": "215 N MAIN ST", "addr:postcode": "62613", "addr:state": "IL", "amenity": "post_box", "brand": "United States Postal Service", "brand:wikidata": "Q668687", "collection_times": "Mo-Fr 16:15; Sa 10:45", "name": "USPS COLLECTION BOX - PO LOBBY", "note": "ON 12/24 AND 12/31, THIS BOX MAY BE COLLECTED AS EARLY AS 12 NOON.", "nsi_id": "unitedstatespostalservice-a77078", "operator": "United States Postal Service", "operator:short": "USPS", "operator:type": "public", "operator:wikidata": "Q668687", "ref": "6261300003"}, "type": "Feature"}
{"dataset_attributes": {"@spider": "usps_collection_boxes", "spider:collection_time": "2023-09-25T08:26:09.915926"}, "geometry": {"coordinates": [-89.746432, 39.590225], "type": "Point"}, "id": "4bFlYVQIMa76XJ2vsU6sKc3us28=", "properties": {"@spider": "usps_collection_boxes", "addr:city": "AUBURN", "addr:country": "US", "addr:full": "202 S 5TH ST", "addr:postcode": "62615", "addr:state": "IL", "amenity": "post_box", "brand": "United States Postal Service", "brand:wikidata": "Q668687", "collection_times": "Mo-Fr 17:00; Sa 11:00", "name": "USPS COLLECTION BOX - BLUE BOX", "note": "ON 12/24 AND 12/31, THIS BOX MAY BE COLLECTED AS EARLY AS 12 NOON.", "nsi_id": "unitedstatespostalservice-a77078", "operator": "United States Postal Service", "operator:short": "USPS", "operator:type": "public", "operator:wikidata": "Q668687", "ref": "6261500000"}, "type": "Feature"}
{"dataset_attributes": {"@spider": "usps_collection_boxes", "spider:collection_time": "2023-09-25T08:26:09.915926"}, "geometry": {"coordinates": [-89.746397, 39.590311], "type": "Point"}, "id": "M5eFuhmvL_RMFmh-uYEGCSGRXCE=", "properties": {"@spider": "usps_collection_boxes", "addr:city": "AUBURN", "addr:country": "US", "addr:full": "202 S 5TH ST", "addr:postcode": "62615", "addr:state": "IL", "amenity": "post_box", "brand": "United States Postal Service", "brand:wikidata": "Q668687", "collection_times": "Mo-Fr 17:00; Sa 11:00", "name": "USPS COLLECTION BOX - PO LOBBY", "note": "ON 12/24 AND 12/31, THIS BOX MAY BE COLLECTED AS EARLY AS 12 NOON.", "nsi_id": "unitedstatespostalservice-a77078", "operator": "United States Postal Service", "operator:short": "USPS", "operator:type": "public", "operator:wikidata": "Q668687", "ref": "6261500002"}, "type": "Feature"}
{"dataset_attributes": {"@spider": "usps_collection_boxes", "spider:collection_time": "2023-09-25T08:26:09.915926"}, "geometry": {"coordinates": [-89.746437146, 39.590163], "type": "Point"}, "id": "CqIy5KTM9V4TXM_2Hc97dhvEUxo=", "properties": {"@spider": "usps_collection_boxes", "addr:city": "AUBURN", "addr:country": "US", "addr:full": "202 S 5TH ST", "addr:postcode": "62615", "addr:state": "IL", "amenity": "post_box", "brand": "United States Postal Service", "brand:wikidata": "Q668687", "collection_times": "Mo-Fr 17:00; Sa 11:00", "name": "USPS COLLECTION BOX - PO LOBBY", "note": "ON 12/24 AND 12/31, THIS BOX MAY BE COLLECTED AS EARLY AS 12 NOON.", "nsi_id": "unitedstatespostalservice-a77078", "operator": "United States Postal Service", "operator:short": "USPS", "operator:type": "public", "operator:wikidata": "Q668687", "ref": "6261500004"}, "type": "Feature"}
{"dataset_attributes": {"@spider": "usps_collection_boxes", "spider:collection_time": "2023-09-25T08:26:09.915926"}, "geometry": {"coordinates": [-90.143248, 40.191037], "type": "Point"}, "id": "JgurYqTxaucXtgCZs_AaFb7McUk=", "properties": {"@spider": "usps_collection_boxes", "addr:city": "BATH", "addr:country": "US", "addr:full": "109 E 1ST ST", "addr:postcode": "62617", "addr:state": "IL", "amenity": "post_box", "brand": "United States Postal Service", "brand:wikidata": "Q668687", "collection_times": "Mo-Fr 11:45; Sa 09:45", "name": "USPS COLLECTION BOX - BLUE BOX", "nsi_id": "unitedstatespostalservice-a77078", "operator": "United States Postal Service", "operator:short": "USPS", "operator:type": "public", "operator:wikidata": "Q668687", "ref": "6261700001"}, "type": "Feature"}
{"dataset_attributes": {"@spider": "usps_collection_boxes", "spider:collection_time": "2023-09-25T08:26:09.915926"}, "geometry": {"coordinates": [-90.143299, 40.191107], "type": "Point"}, "id": "ax0OIas1gUsPbneIHhdETnhXUlM=", "properties": {"@spider": "usps_collection_boxes", "addr:city": "BATH", "addr:country": "US", "addr:full": "109 E 1ST ST", "addr:postcode": "62617", "addr:state": "IL", "amenity": "post_box", "brand": "United States Postal Service", "brand:wikidata": "Q668687", "collection_times": "Mo-Fr 11:45; Sa 09:45", "name": "USPS COLLECTION BOX - PO LOBBY", "nsi_id": "unitedstatespostalservice-a77078", "operator": "United States Postal Service", "operator:short": "USPS", "operator:type": "public", "operator:wikidata": "Q668687", "ref": "6261700002"}, "type": "Feature"}
{"dataset_attributes": {"@spider": "usps_collection_boxes", "spider:collection_time": "2023-09-25T08:26:09.915926"}, "geometry": {"coordinates": [-90.142650319, 40.190600714], "type": "Point"}, "id": "Ml2_RVO6cOpeZDhcTxoyPvHD8A4=", "properties": {"@spider": "usps_collection_boxes", "addr:city": "BATH", "addr:country": "US", "addr:full": "109 E 1ST ST", "addr:postcode": "62617", "addr:state": "IL", "amenity": "post_box", "brand": "United States Postal Service", "brand:wikidata": "Q668687", "collection_times": "Mo-Fr 11:45; Sa 09:45", "name": "USPS COLLECTION BOX - PO LOBBY", "nsi_id": "unitedstatespostalservice-a77078", "operator": "United States Postal Service", "operator:short": "USPS", "operator:type": "public", "operator:wikidata": "Q668687", "ref": "6261700003"}, "type": "Feature"}
{"dataset_attributes": {"@spider": "usps_collection_boxes", "spider:collection_time": "2023-09-25T08:26:09.915926"}, "geometry": {"coordinates": [-90.4349659, 40.018258], "type": "Point"}, "id": "zAAeq1J1pQt9Lkvxl2X-TWlaS5o=", "properties": {"@spider": "usps_collection_boxes", "addr:city": "BEARDSTOWN", "addr:country": "US", "addr:full": "101 E MAIN ST", "addr:postcode": "62618", "addr:state": "IL", "amenity": "post_box", "brand": "United States Postal Service", "brand:wikidata": "Q668687", "collection_times": "Mo-Fr 17:00; Sa 15:30", "name": "USPS COLLECTION BOX - BLUE BOX", "note": "ON 12/24 AND 12/31, THIS BOX MAY BE COLLECTED AS EARLY AS 12 NOON.", "nsi_id": "unitedstatespostalservice-a77078", "operator": "United States Postal Service", "operator:short": "USPS", "operator:type": "public", "operator:wikidata": "Q668687", "ref": "6261800001"}, "type": "Feature"}
{"dataset_attributes": {"@spider": "usps_collection_boxes", "spider:collection_time": "2023-09-25T08:26:09.915926"}, "geometry": {"coordinates": [-90.4338011, 40.016479], "type": "Point"}, "id": "NXu7cL2PCzL3YTRQ0IjpQpDFsnQ=", "properties": {"@spider": "usps_collection_boxes", "addr:city": "BEARDSTOWN", "addr:country": "US", "addr:full": "300 S STATE ST", "addr:postcode": "62618", "addr:state": "IL", "amenity": "post_box", "brand": "United States Postal Service", "brand:wikidata": "Q668687", "collection_times": "Mo-Fr 15:30; Sa 15:00", "name": "USPS COLLECTION BOX - BLUE BOX", "note": "ON 12/24 AND 12/31, THIS BOX MAY BE COLLECTED AS EARLY AS 12 NOON.", "nsi_id": "unitedstatespostalservice-a77078", "operator": "United States Postal Service", "operator:short": "USPS", "operator:type": "public", "operator:wikidata": "Q668687", "ref": "6261800003"}, "type": "Feature"}
{"dataset_attributes": {"@spider": "usps_collection_boxes", "spider:collection_time": "2023-09-25T08:26:09.915926"}, "geometry": {"coordinates": [-90.434822, 40.018387], "type": "Point"}, "id": "FOnc-5E1BYq1JNDkKS6C-qJTR7U=", "properties": {"@spider": "usps_collection_boxes", "addr:city": "BEARDSTOWN", "addr:country": "US", "addr:full": "101 E MAIN ST", "addr:postcode": "62618", "addr:state": "IL", "amenity": "post_box", "brand": "United States Postal Service", "brand:wikidata": "Q668687", "collection_times": "Mo-Fr 17:00; Sa 15:45", "name": "USPS COLLECTION BOX - PO LOBBY", "note": "ON 12/24 AND 12/31, THIS BOX MAY BE COLLECTED AS EARLY AS 12 NOON.", "nsi_id": "unitedstatespostalservice-a77078", "operator": "United States Postal Service", "operator:short": "USPS", "operator:type": "public", "operator:wikidata": "Q668687", "ref": "6261800009"}, "type": "Feature"}
{"dataset_attributes": {"@spider": "usps_collection_boxes", "spider:collection_time": "2023-09-25T08:26:09.915926"}, "geometry": {"coordinates": [-90.434903882, 40.018151799], "type": "Point"}, "id": "kX8LltvsAuM4rgtaPcj3j4pgecM=", "properties": {"@spider": "usps_collection_boxes", "addr:city": "BEARDSTOWN", "addr:country": "US", "addr:full": "101 E MAIN ST", "addr:postcode": "62618", "addr:state": "IL", "amenity": "post_box", "brand": "United States Postal Service", "brand:wikidata": "Q668687", "collection_times": "Mo-Fr 17:00; Sa 15:45", "name": "USPS COLLECTION BOX - PO LOBBY", "note": "ON 12/24 AND 12/31, THIS BOX MAY BE COLLECTED AS EARLY AS 12 NOON.", "nsi_id": "unitedstatespostalservice-a77078", "operator": "United States Postal Service", "operator:short": "USPS", "operator:type": "public", "operator:wikidata": "Q668687", "ref": "6261800010"}, "type": "Feature"}
{"dataset_attributes": {"@spider": "usps_collection_boxes", "spider:collection_time": "2023-09-25T08:26:09.915926"}, "geometry": {"coordinates": [-90.5344673749, 39.7502527471], "type": "Point"}, "id": "tgCrew5UPLTnYQZNN4ZluYR3Aho=", "properties": {"@spider": "usps_collection_boxes", "addr:city": "BLUFFS", "addr:country": "US", "addr:full": "119 E OAKES ST", "addr:postcode": "62621", "addr:state": "IL", "amenity": "post_box", "brand": "United States Postal Service", "brand:wikidata": "Q668687", "collection_times": "Mo-Fr 11:15; Sa 10:15", "name": "USPS COLLECTION BOX - BLUE BOX", "nsi_id": "unitedstatespostalservice-a77078", "operator": "United States Postal Service", "operator:short": "USPS", "operator:type": "public", "operator:wikidata": "Q668687", "ref": "6262100001"}, "type": "Feature"}
{"dataset_attributes": {"@spider": "usps_collection_boxes", "spider:collection_time": "2023-09-25T08:26:09.915926"}, "geometry": {"coordinates": [-90.534452, 39.750313], "type": "Point"}, "id": "_F5BJkOtd58ey5OIZLQpsk80ydY=", "properties": {"@spider": "usps_collection_boxes", "addr:city": "BLUFFS", "addr:country": "US", "addr:full": "119 E OAKES ST", "addr:postcode": "62621", "addr:state": "IL", "amenity": "post_box", "brand": "United States Postal Service", "brand:wikidata": "Q668687", "collection_times": "Mo-Fr 11:15; Sa 10:15", "name": "USPS COLLECTION BOX - PO LOBBY", "nsi_id": "unitedstatespostalservice-a77078", "operator": "United States Postal Service", "operator:short": "USPS", "operator:type": "public", "operator:wikidata": "Q668687", "ref": "6262100002"}, "type": "Feature"}
{"dataset_attributes": {"@spider": "usps_collection_boxes", "spider:collection_time": "2023-09-25T08:26:09.915926"}, "geometry": {"coordinates": [-90.534469994, 39.750234663], "type": "Point"}, "id": "toiORuuQ8Lq9_mijBZin-cs_P14=", "properties": {"@spider": "usps_collection_boxes", "addr:city": "BLUFFS", "addr:country": "US", "addr:full": "119 E OAKES ST", "addr:postcode": "62621", "addr:state": "IL", "amenity": "post_box", "brand": "United States Postal Service", "brand:wikidata": "Q668687", "collection_times": "Mo-Fr 11:15; Sa 10:15", "name": "USPS COLLECTION BOX - PO LOBBY", "nsi_id": "unitedstatespostalservice-a77078", "operator": "United States Postal Service", "operator:short": "USPS", "operator:type": "public", "operator:wikidata": "Q668687", "ref": "6262100003"}, "type": "Feature"}
{"dataset_attributes": {"@spider": "usps_collection_boxes", "spider:collection_time": "2023-09-25T08:26:09.915926"}, "geometry": {"coordinates": [-90.345182, 39.98689], "type": "Point"}, "id": "ONRfNlDEOpY9Ml5OGFmyoVs4kgo=", "properties": {"@spider": "usps_collection_boxes", "addr:city": "BLUFF SPRINGS", "addr:country": "US", "addr:full": "7463 S BLUFF SPRINGS RD", "addr:postcode": "62622", "addr:state": "IL", "amenity": "post_box", "brand": "United States Postal Service", "brand:wikidata": "Q668687", "collection_times": "Mo-Fr 16:15; Sa 08:15", "name": "USPS COLLECTION BOX - BLUE BOX", "note": "ON 12/24 AND 12/31, THIS BOX MAY BE COLLECTED AS EARLY AS 12 NOON.", "nsi_id": "unitedstatespostalservice-a77078", "operator": "United States Postal Service", "operator:short": "USPS", "operator:type": "public", "operator:wikidata": "Q668687", "ref": "6262200000"}, "type": "Feature"}
{"dataset_attributes": {"@spider": "usps_collection_boxes", "spider:collection_time": "2023-09-25T08:26:09.915926"}, "geometry": {"coordinates": [-90.345147, 39.986879], "type": "Point"}, "id": "6ZSWPNER3SL5Yb3D24R5jKHmDJk=", "properties": {"@spider": "usps_collection_boxes", "addr:city": "BLUFF SPRINGS", "addr:country": "US", "addr:full": "7463 S BLUFF SPRINGS RD", "addr:postcode": "62622", "addr:state": "IL", "amenity": "post_box", "brand": "United States Postal Service", "brand:wikidata": "Q668687", "collection_times": "Mo-Fr 16:15; Sa 08:00", "name": "USPS COLLECTION BOX - PO LOBBY", "note": "ON 12/24 AND 12/31, THIS BOX MAY BE COLLECTED AS EARLY AS 12 NOON.", "nsi_id": "unitedstatespostalservice-a77078", "operator": "United States Postal Service", "operator:short": "USPS", "operator:type": "public", "operator:wikidata": "Q668687", "ref": "6262200001"}, "type": "Feature"}
{"dataset_attributes": {"@spider": "usps_collection_boxes", "spider:collection_time": "2023-09-25T08:26:09.915926"}, "geometry": {"coordinates": [-90.345207137, 39.987795105], "type": "Point"}, "id": "p32cqY1zjVDpobNYOo0gvYlb8-I=", "properties": {"@spider": "usps_collection_boxes", "addr:city": "BLUFF SPRINGS", "addr:country": "US", "addr:full": "7463 S BLUFF SPRINGS RD", "addr:postcode": "62622", "addr:state": "IL", "amenity": "post_box", "brand": "United States Postal Service", "brand:wikidata": "Q668687", "collection_times": "Mo-Fr 16:15; Sa 08:00", "name": "USPS COLLECTION BOX - PO LOBBY", "note": "ON 12/24 AND 12/31, THIS BOX MAY BE COLLECTED AS EARLY AS 12 NOON.", "nsi_id": "unitedstatespostalservice-a77078", "operator": "United States Postal Service", "operator:short": "USPS", "operator:type": "public", "operator:wikidata": "Q668687", "ref": "6262200002"}, "type": "Feature"}
{"dataset_attributes": {"@spider": "usps_collection_boxes", "spider:collection_time": "2023-09-25T08:26:09.915926"}, "geometry": {"coordinates": [-90.371859171, 40.128844091], "type": "Point"}, "id": "GPro8tvUqq32G2dsGvSxCv1FLjo=", "properties": {"@spider": "usps_collection_boxes", "addr:city": "BROWNING", "addr:country": "US", "addr:full": "102 N WALNUT ST", "addr:postcode": "62624", "addr:state": "IL", "amenity": "post_box", "brand": "United States Postal Service", "brand:wikidata": "Q668687", "collection_times": "Mo-Fr 11:45; Sa 10:30", "name": "USPS COLLECTION BOX - BLUE BOX", "nsi_id": "unitedstatespostalservice-a77078", "operator": "United States Postal Service", "operator:short": "USPS", "operator:type": "public", "operator:wikidata": "Q668687", "ref": "6262400001"}, "type": "Feature"}
{"dataset_attributes": {"@spider": "usps_collection_boxes", "spider:collection_time": "2023-09-25T08:26:09.915926"}, "geometry": {"coordinates": [-90.371859171, 40.128844091], "type": "Point"}, "id": "OnbqsCv6iX7o6IF9Hdg_Nao1XuI=", "properties": {"@spider": "usps_collection_boxes", "addr:city": "BROWNING", "addr:country": "US", "addr:full": "102 N WALNUT ST", "addr:postcode": "62624", "addr:state": "IL", "amenity": "post_box", "brand": "United States Postal Service", "brand:wikidata": "Q668687", "collection_times": "Mo-Fr 11:45; Sa 10:30", "name": "USPS COLLECTION BOX - PO LOBBY", "nsi_id": "unitedstatespostalservice-a77078", "operator": "United States Postal Service", "operator:short": "USPS", "operator:type": "public", "operator:wikidata": "Q668687", "ref": "6262400002"}, "type": "Feature"}
{"dataset_attributes": {"@spider": "usps_collection_boxes", "spider:collection_time": "2023-09-25T08:26:09.915926"}, "geometry": {"coordinates": [-90.371859171, 40.128844091], "type": "Point"}, "id": "hTejcl93I6wjHWqW9ZJSNnMzRzI=", "properties": {"@spider": "usps_collection_boxes", "addr:city": "BROWNING", "addr:country": "US", "addr:full": "102 N WALNUT ST", "addr:postcode": "62624", "addr:state": "IL", "amenity": "post_box", "brand": "United States Postal Service", "brand:wikidata": "Q668687", "collection_times": "Mo-Fr 11:45; Sa 10:30", "name": "USPS COLLECTION BOX - PO LOBBY", "nsi_id": "unitedstatespostalservice-a77078", "operator": "United States Postal Service", "operator:short": "USPS", "operator:type": "public", "operator:wikidata": "Q668687", "ref": "6262400003"}, "type": "Feature"}
{"dataset_attributes": {"@spider": "usps_collection_boxes", "spider:collection_time": "2023-09-25T08:26:09.915926"}, "geometry": {"coordinates": [-89.674133, 39.938077], "type": "Point"}, "id": "gT50MuUgsBTCjORT9dVAPdWlUe4=", "properties": {"@spider": "usps_collection_boxes", "addr:city": "CANTRALL", "addr:country": "US", "addr:full": "9446 STATE ROUTE 29", "addr:postcode": "62625", "addr:state": "IL", "amenity": "post_box", "brand": "United States Postal Service", "brand:wikidata": "Q668687", "collection_times": "Mo-Fr 16:45; Sa 11:45", "name": "USPS COLLECTION BOX - BLUE BOX", "note": "ON 12/24 AND 12/31, THIS BOX MAY BE COLLECTED AS EARLY AS 12 NOON.", "nsi_id": "unitedstatespostalservice-a77078", "operator": "United States Postal Service", "operator:short": "USPS", "operator:type": "public", "operator:wikidata": "Q668687", "ref": "6262500000"}, "type": "Feature"}
{"dataset_attributes": {"@spider": "usps_collection_boxes", "spider:collection_time": "2023-09-25T08:26:09.915926"}, "geometry": {"coordinates": [-89.674168, 39.938071], "type": "Point"}, "id": "uvV76IhxuXApJ_ity3NRT5EXqrM=", "properties": {"@spider": "usps_collection_boxes", "addr:city": "CANTRALL", "addr:country": "US", "addr:full": "9446 STATE ROUTE 29", "addr:postcode": "62625", "addr:state": "IL", "amenity": "post_box", "brand": "United States Postal Service", "brand:wikidata": "Q668687", "collection_times": "Mo-Fr 16:45; Sa 11:45", "name": "USPS COLLECTION BOX - PO LOBBY", "note": "ON 12/24 AND 12/31, THIS BOX MAY BE COLLECTED AS EARLY AS 12 NOON.", "nsi_id": "unitedstatespostalservice-a77078", "operator": "United States Postal Service", "operator:short": "USPS", "operator:type": "public", "operator:wikidata": "Q668687", "ref": "6262500001"}, "type": "Feature"}
{"dataset_attributes": {"@spider": "usps_collection_boxes", "spider:collection_time": "2023-09-25T08:26:09.915926"}, "geometry": {"coordinates": [-89.67411405, 39.938065071], "type": "Point"}, "id": "3u_3CVSudxpJRwe0CI5IM0Co8S8=", "properties": {"@spider": "usps_collection_boxes", "addr:city": "CANTRALL", "addr:country": "US", "addr:full": "9446 STATE ROUTE 29", "addr:postcode": "62625", "addr:state": "IL", "amenity": "post_box", "brand": "United States Postal Service", "brand:wikidata": "Q668687", "collection_times": "Mo-Fr 16:45; Sa 11:45", "name": "USPS COLLECTION BOX - PO LOBBY", "note": "ON 12/24 AND 12/31, THIS BOX MAY BE COLLECTED AS EARLY AS 12 NOON.", "nsi_id": "unitedstatespostalservice-a77078", "operator": "United States Postal Service", "operator:short": "USPS", "operator:type": "public", "operator:wikidata": "Q668687", "ref": "6262500002"}, "type": "Feature"}
{"dataset_attributes": {"@spider": "usps_collection_boxes", "spider:collection_time": "2023-09-25T08:26:09.915926"}, "geometry": {"coordinates": [-89.880375, 39.278494], "type": "Point"}, "id": "Mt8fpNzQR72hgFCz9ZmrYqT7geE=", "properties": {"@spider": "usps_collection_boxes", "addr:city": "CARLINVILLE", "addr:country": "US", "addr:full": "129 E 1ST SOUTH ST", "addr:postcode": "62626", "addr:state": "IL", "amenity": "post_box", "brand": "United States Postal Service", "brand:wikidata": "Q668687", "collection_times": "Mo-Fr 16:15; Sa 11:45", "name": "USPS COLLECTION BOX - BLUE BOX", "note": "ON 12/24 AND 12/31, THIS BOX MAY BE COLLECTED AS EARLY AS 12 NOON.", "nsi_id": "unitedstatespostalservice-a77078", "operator": "United States Postal Service", "operator:short": "USPS", "operator:type": "public", "operator:wikidata": "Q668687", "ref": "6262600000"}, "type": "Feature"}
{"dataset_attributes": {"@spider": "usps_collection_boxes", "spider:collection_time": "2023-09-25T08:26:09.915926"}, "geometry": {"coordinates": [-89.8789456, 39.280307], "type": "Point"}, "id": "x8z2F9qJtCrmHWGKD0tsJJPKP6E=", "properties": {"@spider": "usps_collection_boxes", "addr:city": "CARLINVILLE", "addr:country": "US", "addr:full": "240 E MAIN ST", "addr:postcode": "62626", "addr:state": "IL", "amenity": "post_box", "brand": "United States Postal Service", "brand:wikidata": "Q668687", "collection_times": "Mo-Sa 11:00", "name": "USPS COLLECTION BOX - BLUE BOX", "nsi_id": "unitedstatespostalservice-a77078", "operator": "United States Postal Service", "operator:short": "USPS", "operator:type": "public", "operator:wikidata": "Q668687", "ref": "6262600003"}, "type": "Feature"}
{"dataset_attributes": {"@spider": "usps_collection_boxes", "spider:collection_time": "2023-09-25T08:26:09.915926"}, "geometry": {"coordinates": [-89.8790739, 39.279078], "type": "Point"}, "id": "wxWKScK4wE41cGW-sV-jT5XSzw8=", "properties": {"@spider": "usps_collection_boxes", "addr:city": "CARLINVILLE", "addr:country": "US", "addr:full": "201 E MAIN ST", "addr:postcode": "62626", "addr:state": "IL", "amenity": "post_box", "brand": "United States Postal Service", "brand:wikidata": "Q668687", "collection_times": "Mo-Fr 15:30", "name": "USPS COLLECTION BOX - BLUE BOX", "note": "ON 12/24 AND 12/31, THIS BOX MAY BE COLLECTED AS EARLY AS 12 NOON.", "nsi_id": "unitedstatespostalservice-a77078", "operator": "United States Postal Service", "operator:short": "USPS", "operator:type": "public", "operator:wikidata": "Q668687", "ref": "6262600004"}, "type": "Feature"}
{"dataset_attributes": {"@spider": "usps_collection_boxes", "spider:collection_time": "2023-09-25T08:26:09.915926"}, "geometry": {"coordinates": [-89.8892887, 39.280369], "type": "Point"}, "id": "g6MD9NynkVjIUuXCGs9wsHXfzTI=", "properties": {"@spider": "usps_collection_boxes", "addr:city": "CARLINVILLE", "addr:country": "US", "addr:full": "130 N CHILES ST", "addr:postcode": "62626", "addr:state": "IL", "amenity": "post_box", "brand": "United States Postal Service", "brand:wikidata": "Q668687", "collection_times": "Mo-Sa 11:00", "name": "USPS COLLECTION BOX - BLUE BOX", "nsi_id": "unitedstatespostalservice-a77078", "operator": "United States Postal Service", "operator:short": "USPS", "operator:type": "public", "operator:wikidata": "Q668687", "ref": "6262600008"}, "type": "Feature"}
{"dataset_attributes": {"@spider": "usps_collection_boxes", "spider:collection_time": "2023-09-25T08:26:09.915926"}, "geometry": {"coordinates": [-89.8745542, 39.294327], "type": "Point"}, "id": "0W06ALz6Rj8Pjp_yF7DJvRzKqm4=", "properties": {"@spider": "usps_collection_boxes", "addr:city": "CARLINVILLE", "addr:country": "US", "addr:full": "120 CARLINVILLE PLZ", "addr:postcode": "62626", "addr:state": "IL", "amenity": "post_box", "brand": "United States Postal Service", "brand:wikidata": "Q668687", "collection_times": "Mo-Sa 11:00", "name": "USPS COLLECTION BOX - BLUE BOX", "nsi_id": "unitedstatespostalservice-a77078", "operator": "United States Postal Service", "operator:short": "USPS", "operator:type": "public", "operator:wikidata": "Q668687", "ref": "6262600011"}, "type": "Feature"}
{"dataset_attributes": {"@spider": "usps_collection_boxes", "spider:collection_time": "2023-09-25T08:26:09.915926"}, "geometry": {"coordinates": [-89.880375, 39.278494], "type": "Point"}, "id": "jY_mMJDpF1fiWqGn9SzEqFqxPd0=", "properties": {"@spider": "usps_collection_boxes", "addr:city": "CARLINVILLE", "addr:country": "US", "addr:full": "129 E 1ST SOUTH ST", "addr:postcode": "62626", "addr:state": "IL", "amenity": "post_box", "brand": "United States Postal Service", "brand:wikidata": "Q668687", "collection_times": "Mo-Fr 16:30; Sa 12:00", "name": "USPS COLLECTION BOX - PO LOBBY", "note": "ON 12/24 AND 12/31, THIS BOX MAY BE COLLECTED AS EARLY AS 12 NOON.", "nsi_id": "unitedstatespostalservice-a77078", "operator": "United States Postal Service", "operator:short": "USPS", "operator:type": "public", "operator:wikidata": "Q668687", "ref": "6262600012"}, "type": "Feature"}
{"dataset_attributes": {"@spider": "usps_collection_boxes", "spider:collection_time": "2023-09-25T08:26:09.915926"}, "geometry": {"coordinates": [-89.8831935, 39.2796195], "type": "Point"}, "id": "50NC1SD1bId6gLU5lQW-fB5rOWc=", "properties": {"@spider": "usps_collection_boxes", "addr:city": "CARLINVILLE", "addr:country": "US", "addr:full": "201 S MAIN ST", "addr:postcode": "62626", "addr:state": "IL", "amenity": "post_box", "brand": "United States Postal Service", "brand:wikidata": "Q668687", "collection_times": "Mo-Fr 16:30; Sa 12:00", "name": "USPS COLLECTION BOX - PO LOBBY", "note": "ON 12/24 AND 12/31, THIS BOX MAY BE COLLECTED AS EARLY AS 12 NOON.", "nsi_id": "unitedstatespostalservice-a77078", "operator": "United States Postal Service", "operator:short": "USPS", "operator:type": "public", "operator:wikidata": "Q668687", "ref": "6262600013"}, "type": "Feature"}
{"dataset_attributes": {"@spider": "usps_collection_boxes", "spider:collection_time": "2023-09-25T08:26:09.915926"}, "geometry": {"coordinates": [-90.151518, 40.048111], "type": "Point"}, "id": "rUcrOiaUfD5z9LkerE86kfJuRZA=", "properties": {"@spider": "usps_collection_boxes", "addr:city": "CHANDLERVILLE", "addr:country": "US", "addr:full": "201 S MAIN ST", "addr:postcode": "62627", "addr:state": "IL", "amenity": "post_box", "brand": "United States Postal Service", "brand:wikidata": "Q668687", "collection_times": "Mo-Fr 10:45; Sa 09:15", "name": "USPS COLLECTION BOX - BLUE BOX", "nsi_id": "unitedstatespostalservice-a77078", "operator": "United States Postal Service", "operator:short": "USPS", "operator:type": "public", "operator:wikidata": "Q668687", "ref": "6262700000"}, "type": "Feature"}
{"dataset_attributes": {"@spider": "usps_collection_boxes", "spider:collection_time": "2023-09-25T08:26:09.915926"}, "geometry": {"coordinates": [-90.151518, 40.048111], "type": "Point"}, "id": "XFqskFYNbiceAVuOCtwtYs3SZuY=", "properties": {"@spider": "usps_collection_boxes", "addr:city": "CHANDLERVILLE", "addr:country": "US", "addr:full": "201 S MAIN ST", "addr:postcode": "62627", "addr:state": "IL", "amenity": "post_box", "brand": "United States Postal Service", "brand:wikidata": "Q668687", "collection_times": "Mo-Fr 10:45; Sa 09:15", "name": "USPS COLLECTION BOX - PO LOBBY", "nsi_id": "unitedstatespostalservice-a77078", "operator": "United States Postal Service", "operator:short": "USPS", "operator:type": "public", "operator:wikidata": "Q668687", "ref": "6262700001"}, "type": "Feature"}
{"dataset_attributes": {"@spider": "usps_collection_boxes", "spider:collection_time": "2023-09-25T08:26:09.915926"}, "geometry": {"coordinates": [-90.151610091, 40.048086302], "type": "Point"}, "id": "HvxfbWo6RUEip70i3ATfzdWJ4nI=", "properties": {"@spider": "usps_collection_boxes", "addr:city": "CHANDLERVILLE", "addr:country": "US", "addr:full": "201 S MAIN ST", "addr:postcode": "62627", "addr:state": "IL", "amenity": "post_box", "brand": "United States Postal Service", "brand:wikidata": "Q668687", "collection_times": "Mo-Fr 10:45; Sa 09:15", "name": "USPS COLLECTION BOX - PO LOBBY", "nsi_id": "unitedstatespostalservice-a77078", "operator": "United States Postal Service", "operator:short": "USPS", "operator:type": "public", "operator:wikidata": "Q668687", "ref": "6262700002"}, "type": "Feature"}
{"dataset_attributes": {"@spider": "usps_collection_boxes", "spider:collection_time": "2023-09-25T08:26:09.915926"}, "geometry": {"coordinates": [-90.401476, 39.765729], "type": "Point"}, "id": "PxTXWh1rd6VDBryDW1Uru_vFq2g=", "properties": {"@spider": "usps_collection_boxes", "addr:city": "CHAPIN", "addr:country": "US", "addr:full": "520 SUPERIOR ST", "addr:postcode": "62628", "addr:state": "IL", "amenity": "post_box", "brand": "United States Postal Service", "brand:wikidata": "Q668687", "collection_times": "Mo-Fr 11:15; Sa 09:45", "name": "USPS COLLECTION BOX - BLUE BOX", "nsi_id": "unitedstatespostalservice-a77078", "operator": "United States Postal Service", "operator:short": "USPS", "operator:type": "public", "operator:wikidata": "Q668687", "ref": "6262800001"}, "type": "Feature"}
{"dataset_attributes": {"@spider": "usps_collection_boxes", "spider:collection_time": "2023-09-25T08:26:09.915926"}, "geometry": {"coordinates": [-90.401406, 39.765702], "type": "Point"}, "id": "ey0bJJDuY2SMsaIDmDpNlobVDO8=", "properties": {"@spider": "usps_collection_boxes", "addr:city": "CHAPIN", "addr:country": "US", "addr:full": "520 SUPERIOR ST", "addr:postcode": "62628", "addr:state": "IL", "amenity": "post_box", "brand": "United States Postal Service", "brand:wikidata": "Q668687", "collection_times": "Mo-Fr 11:15; Sa 09:45", "name": "USPS COLLECTION BOX - PO LOBBY", "nsi_id": "unitedstatespostalservice-a77078", "operator": "United States Postal Service", "operator:short": "USPS", "operator:type": "public", "operator:wikidata": "Q668687", "ref": "6262800002"}, "type": "Feature"}
{"dataset_attributes": {"@spider": "usps_collection_boxes", "spider:collection_time": "2023-09-25T08:26:09.915926"}, "geometry": {"coordinates": [-90.4017015, 39.765723504], "type": "Point"}, "id": "tFCUj8kL8sAFveRqP15GpyGIhVs=", "properties": {"@spider": "usps_collection_boxes", "addr:city": "CHAPIN", "addr:country": "US", "addr:full": "520 SUPERIOR ST", "addr:postcode": "62628", "addr:state": "IL", "amenity": "post_box", "brand": "United States Postal Service", "brand:wikidata": "Q668687", "collection_times": "Mo-Fr 11:15; Sa 09:45", "name": "USPS COLLECTION BOX - PO LOBBY", "nsi_id": "unitedstatespostalservice-a77078", "operator": "United States Postal Service", "operator:short": "USPS", "operator:type": "public", "operator:wikidata": "Q668687", "ref": "6262800003"}, "type": "Feature"}
{"dataset_attributes": {"@spider": "usps_collection_boxes", "spider:collection_time": "2023-09-25T08:26:09.915926"}, "geometry": {"coordinates": [-89.704302, 39.67633], "type": "Point"}, "id": "bdHVPKyWn2MN2zH_nyp8BI_qDRU=", "properties": {"@spider": "usps_collection_boxes", "addr:city": "CHATHAM", "addr:country": "US", "addr:full": "111 E WALNUT ST", "addr:postcode": "62629", "addr:state": "IL", "amenity": "post_box", "brand": "United States Postal Service", "brand:wikidata": "Q668687", "collection_times": "Mo-Fr 17:00; Sa 15:30", "name": "USPS COLLECTION BOX - BLUE BOX", "note": "ON 12/24 AND 12/31, THIS BOX MAY BE COLLECTED AS EARLY AS 12 NOON.", "nsi_id": "unitedstatespostalservice-a77078", "operator": "United States Postal Service", "operator:short": "USPS", "operator:type": "public", "operator:wikidata": "Q668687", "ref": "6262900001"}, "type": "Feature"}
{"dataset_attributes": {"@spider": "usps_collection_boxes", "spider:collection_time": "2023-09-25T08:26:09.915926"}, "geometry": {"coordinates": [-89.704395, 39.676302], "type": "Point"}, "id": "bwch1FT3Xj8bH4UPPzMbr843Wsc=", "properties": {"@spider": "usps_collection_boxes", "addr:city": "CHATHAM", "addr:country": "US", "addr:full": "111 E WALNUT ST", "addr:postcode": "62629", "addr:state": "IL", "amenity": "post_box", "brand": "United States Postal Service", "brand:wikidata": "Q668687", "collection_times": "Mo-Fr 17:00; Sa 15:30", "name": "USPS COLLECTION BOX - PO LOBBY", "note": "ON 12/24 AND 12/31, THIS BOX MAY BE COLLECTED AS EARLY AS 12 NOON.", "nsi_id": "unitedstatespostalservice-a77078", "operator": "United States Postal Service", "operator:short": "USPS", "operator:type": "public", "operator:wikidata": "Q668687", "ref": "6262900005"}, "type": "Feature"}
{"dataset_attributes": {"@spider": "usps_collection_boxes", "spider:collection_time": "2023-09-25T08:26:09.915926"}, "geometry": {"coordinates": [-89.6971571, 39.672081], "type": "Point"}, "id": "_FH7yOurj8X8D-IupzzA6CYtF_I=", "properties": {"@spider": "usps_collection_boxes", "addr:city": "CHATHAM", "addr:country": "US", "addr:full": "600 E SPRUCE ST", "addr:postcode": "62629", "addr:state": "IL", "amenity": "post_box", "brand": "United States Postal Service", "brand:wikidata": "Q668687", "collection_times": "Mo-Fr 14:00; Sa 12:00", "name": "USPS COLLECTION BOX - BLUE BOX", "note": "ON 12/24 AND 12/31, THIS BOX MAY BE COLLECTED AS EARLY AS 12 NOON.", "nsi_id": "unitedstatespostalservice-a77078", "operator": "United States Postal Service", "operator:short": "USPS", "operator:type": "public", "operator:wikidata": "Q668687", "ref": "6262900006"}, "type": "Feature"}
{"dataset_attributes": {"@spider": "usps_collection_boxes", "spider:collection_time": "2023-09-25T08:26:09.915926"}, "geometry": {"coordinates": [-89.7064157, 39.685715], "type": "Point"}, "id": "VrOY2ZBXhHj_hQoZJ2B6NZ6epUQ=", "properties": {"@spider": "usps_collection_boxes", "addr:city": "CHATHAM", "addr:country": "US", "addr:full": "50 W PLUMMER BLVD", "addr:postcode": "62629", "addr:state": "IL", "amenity": "post_box", "brand": "United States Postal Service", "brand:wikidata": "Q668687", "collection_times": "Mo-Sa 13:00", "name": "USPS COLLECTION BOX - BLUE BOX", "note": "ON 12/24 AND 12/31, THIS BOX MAY BE COLLECTED AS EARLY AS 12 NOON.", "nsi_id": "unitedstatespostalservice-a77078", "operator": "United States Postal Service", "operator:short": "USPS", "operator:type": "public", "operator:wikidata": "Q668687", "ref": "6262900007"}, "type": "Feature"}
{"dataset_attributes": {"@spider": "usps_collection_boxes", "spider:collection_time": "2023-09-25T08:26:09.915926"}, "geometry": {"coordinates": [-89.704395, 39.676302], "type": "Point"}, "id": "MBtYuyu14Npm5etFU1T5Hp-wH-k=", "properties": {"@spider": "usps_collection_boxes", "addr:city": "CHATHAM", "addr:country": "US", "addr:full": "111 E WALNUT ST", "addr:postcode": "62629", "addr:state": "IL", "amenity": "post_box", "brand": "United States Postal Service", "brand:wikidata": "Q668687", "collection_times": "Mo-Fr 17:00; Sa 15:30", "name": "USPS COLLECTION BOX - BLUE BOX", "note": "ON 12/24 AND 12/31, THIS BOX MAY BE COLLECTED AS EARLY AS 12 NOON.", "nsi_id": "unitedstatespostalservice-a77078", "operator": "United States Postal Service", "operator:short": "USPS", "operator:type": "public", "operator:wikidata": "Q668687", "ref": "6262900008"}, "type": "Feature"}
{"dataset_attributes": {"@spider": "usps_collection_boxes", "spider:collection_time": "2023-09-25T08:26:09.915926"}, "geometry": {"coordinates": [-89.703444138, 39.676322523], "type": "Point"}, "id": "rB5unvnm0ZwxzurRnYOwI_d_wzM=", "properties": {"@spider": "usps_collection_boxes", "addr:city": "CHATHAM", "addr:country": "US", "addr:full": "111 E WALNUT ST", "addr:postcode": "62629", "addr:state": "IL", "amenity": "post_box", "brand": "United States Postal Service", "brand:wikidata": "Q668687", "collection_times": "Mo-Fr 17:00; Sa 10:30", "name": "USPS COLLECTION BOX - PO LOBBY", "note": "ON 12/24 AND 12/31, THIS BOX MAY BE COLLECTED AS EARLY AS 12 NOON.", "nsi_id": "unitedstatespostalservice-a77078", "operator": "United States Postal Service", "operator:short": "USPS", "operator:type": "public", "operator:wikidata": "Q668687", "ref": "6262900009"}, "type": "Feature"}
{"dataset_attributes": {"@spider": "usps_collection_boxes", "spider:collection_time": "2023-09-25T08:26:09.915926"}, "geometry": {"coordinates": [-90.063662, 39.253723], "type": "Point"}, "id": "DYo-kdw4a9aqNrpdefDuzCJewGo=", "properties": {"@spider": "usps_collection_boxes", "addr:city": "CHESTERFIELD", "addr:country": "US", "addr:full": "20 S MAIN ST", "addr:postcode": "62630", "addr:state": "IL", "amenity": "post_box", "brand": "United States Postal Service", "brand:wikidata": "Q668687", "collection_times": "Mo-Fr 11:15; Sa 09:45", "name": "USPS COLLECTION BOX - BLUE BOX", "nsi_id": "unitedstatespostalservice-a77078", "operator": "United States Postal Service", "operator:short": "USPS", "operator:type": "public", "operator:wikidata": "Q668687", "ref": "6263000001"}, "type": "Feature"}
{"dataset_attributes": {"@spider": "usps_collection_boxes", "spider:collection_time": "2023-09-25T08:26:09.915926"}, "geometry": {"coordinates": [-90.063698, 39.253812], "type": "Point"}, "id": "f4ScNmu383Gj9z2zmdDl9S9CaRc=", "properties": {"@spider": "usps_collection_boxes", "addr:city": "CHESTERFIELD", "addr:country": "US", "addr:full": "20 S MAIN ST", "addr:postcode": "62630", "addr:state": "IL", "amenity": "post_box", "brand": "United States Postal Service", "brand:wikidata": "Q668687", "collection_times": "Mo-Fr 11:15; Sa 09:45", "name": "USPS COLLECTION BOX - PO LOBBY", "nsi_id": "unitedstatespostalservice-a77078", "operator": "United States Postal Service", "operator:short": "USPS", "operator:type": "public", "operator:wikidata": "Q668687", "ref": "6263000002"}, "type": "Feature"}
{"dataset_attributes": {"@spider": "usps_collection_boxes", "spider:collection_time": "2023-09-25T08:26:09.915926"}, "geometry": {"coordinates": [-90.06365147, 39.254341246], "type": "Point"}, "id": "RN2IUPI4V1mR62gDwV6c1SkVQ6Q=", "properties": {"@spider": "usps_collection_boxes", "addr:city": "CHESTERFIELD", "addr:country": "US", "addr:full": "20 S MAIN ST", "addr:postcode": "62630", "addr:state": "IL", "amenity": "post_box", "brand": "United States Postal Service", "brand:wikidata": "Q668687", "collection_times": "Mo-Fr 11:15; Sa 09:45", "name": "USPS COLLECTION BOX - PO LOBBY", "nsi_id": "unitedstatespostalservice-a77078", "operator": "United States Postal Service", "operator:short": "USPS", "operator:type": "public", "operator:wikidata": "Q668687", "ref": "6263000003"}, "type": "Feature"}
{"dataset_attributes": {"@spider": "usps_collection_boxes", "spider:collection_time": "2023-09-25T08:26:09.915926"}, "geometry": {"coordinates": [-90.372766, 39.81677], "type": "Point"}, "id": "GDMNDgDKTpXPaeawyOZ6kV8pi4c=", "properties": {"@spider": "usps_collection_boxes", "addr:city": "CONCORD", "addr:country": "US", "addr:full": "403 STATE ST", "addr:postcode": "62631", "addr:state": "IL", "amenity": "post_box", "brand": "United States Postal Service", "brand:wikidata": "Q668687", "collection_times": "Mo-Fr 14:00; Sa 10:00", "name": "USPS COLLECTION BOX - BLUE BOX", "note": "ON 12/24 AND 12/31, THIS BOX MAY BE COLLECTED AS EARLY AS 12 NOON.", "nsi_id": "unitedstatespostalservice-a77078", "operator": "United States Postal Service", "operator:short": "USPS", "operator:type": "public", "operator:wikidata": "Q668687", "ref": "6263100000"}, "type": "Feature"}
{"dataset_attributes": {"@spider": "usps_collection_boxes", "spider:collection_time": "2023-09-25T08:26:09.915926"}, "geometry": {"coordinates": [-90.372731, 39.81674], "type": "Point"}, "id": "hX5MMxPPnERUzwbTMqWurQEKlKE=", "properties": {"@spider": "usps_collection_boxes", "addr:city": "CONCORD", "addr:country": "US", "addr:full": "403 STATE ST", "addr:postcode": "62631", "addr:state": "IL", "amenity": "post_box", "brand": "United States Postal Service", "brand:wikidata": "Q668687", "collection_times": "Mo-Fr 14:00; Sa 12:45", "name": "USPS COLLECTION BOX - PO LOBBY", "note": "ON 12/24 AND 12/31, THIS BOX MAY BE COLLECTED AS EARLY AS 12 NOON.", "nsi_id": "unitedstatespostalservice-a77078", "operator": "United States Postal Service", "operator:short": "USPS", "operator:type": "public", "operator:wikidata": "Q668687", "ref": "6263100001"}, "type": "Feature"}
{"dataset_attributes": {"@spider": "usps_collection_boxes", "spider:collection_time": "2023-09-25T08:26:09.915926"}, "geometry": {"coordinates": [-90.372767284, 39.816819], "type": "Point"}, "id": "l9_bp2GDJTcRwjQAyMnydLFatbA=", "properties": {"@spider": "usps_collection_boxes", "addr:city": "CONCORD", "addr:country": "US", "addr:full": "403 STATE ST", "addr:postcode": "62631", "addr:state": "IL", "amenity": "post_box", "brand": "United States Postal Service", "brand:wikidata": "Q668687", "collection_times": "Mo-Fr 14:00; Sa 12:45", "name": "USPS COLLECTION BOX - PO LOBBY", "note": "ON 12/24 AND 12/31, THIS BOX MAY BE COLLECTED AS EARLY AS 12 NOON.", "nsi_id": "unitedstatespostalservice-a77078", "operator": "United States Postal Service", "operator:short": "USPS", "operator:type": "public", "operator:wikidata": "Q668687", "ref": "6263100002"}, "type": "Feature"}
{"dataset_attributes": {"@spider": "usps_collection_boxes", "spider:collection_time": "2023-09-25T08:26:09.915926"}, "geometry": {"coordinates": [-89.844006, 40.232389], "type": "Point"}, "id": "Go2w9AOy6tJzUiEPvLAAHgvHxhU=", "properties": {"@spider": "usps_collection_boxes", "addr:city": "EASTON", "addr:country": "US", "addr:full": "104 S 2ND ST", "addr:postcode": "62633", "addr:state": "IL", "amenity": "post_box", "brand": "United States Postal Service", "brand:wikidata": "Q668687", "collection_times": "Mo-Fr 11:45; Sa 09:30", "name": "USPS COLLECTION BOX - BLUE BOX", "nsi_id": "unitedstatespostalservice-a77078", "operator": "United States Postal Service", "operator:short": "USPS", "operator:type": "public", "operator:wikidata": "Q668687", "ref": "6263300001"}, "type": "Feature"}
{"dataset_attributes": {"@spider": "usps_collection_boxes", "spider:collection_time": "2023-09-25T08:26:09.915926"}, "geometry": {"coordinates": [-89.843969, 40.232463], "type": "Point"}, "id": "YLz_VSjWp_Sfx-jNEau6KNYdI7o=", "properties": {"@spider": "usps_collection_boxes", "addr:city": "EASTON", "addr:country": "US", "addr:full": "104 S 2ND ST", "addr:postcode": "62633", "addr:state": "IL", "amenity": "post_box", "brand": "United States Postal Service", "brand:wikidata": "Q668687", "collection_times": "Mo-Fr 11:45; Sa 09:30", "name": "USPS COLLECTION BOX - PO LOBBY", "nsi_id": "unitedstatespostalservice-a77078", "operator": "United States Postal Service", "operator:short": "USPS", "operator:type": "public", "operator:wikidata": "Q668687", "ref": "6263300002"}, "type": "Feature"}
{"dataset_attributes": {"@spider": "usps_collection_boxes", "spider:collection_time": "2023-09-25T08:26:09.915926"}, "geometry": {"coordinates": [-89.844028941, 40.232160618], "type": "Point"}, "id": "XacR9aEMSiznmlc0S_Yf0xS9WnM=", "properties": {"@spider": "usps_collection_boxes", "addr:city": "EASTON", "addr:country": "US", "addr:full": "104 S 2ND ST", "addr:postcode": "62633", "addr:state": "IL", "amenity": "post_box", "brand": "United States Postal Service", "brand:wikidata": "Q668687", "collection_times": "Mo-Fr 11:45; Sa 09:30", "name": "USPS COLLECTION BOX - PO LOBBY", "nsi_id": "unitedstatespostalservice-a77078", "operator": "United States Postal Service", "operator:short": "USPS", "operator:type": "public", "operator:wikidata": "Q668687", "ref": "6263300003"}, "type": "Feature"}
{"dataset_attributes": {"@spider": "usps_collection_boxes", "spider:collection_time": "2023-09-25T08:26:09.915926"}, "geometry": {"coordinates": [-89.481947, 40.020243], "type": "Point"}, "id": "MdTimPAiMVmK9OIUxm2PZ8r9PsU=", "properties": {"@spider": "usps_collection_boxes", "addr:city": "ELKHART", "addr:country": "US", "addr:full": "106 N BOGARDUS ST", "addr:postcode": "62634", "addr:state": "IL", "amenity": "post_box", "brand": "United States Postal Service", "brand:wikidata": "Q668687", "collection_times": "Mo-Fr 11:45; Sa 09:15", "name": "USPS COLLECTION BOX - PO LOBBY", "nsi_id": "unitedstatespostalservice-a77078", "operator": "United States Postal Service", "operator:short": "USPS", "operator:type": "public", "operator:wikidata": "Q668687", "ref": "6263400000"}, "type": "Feature"}
{"dataset_attributes": {"@spider": "usps_collection_boxes", "spider:collection_time": "2023-09-25T08:26:09.915926"}, "geometry": {"coordinates": [-89.482036, 40.020195], "type": "Point"}, "id": "P9wk9GNsS5kINocBKNPo8LXNcOc=", "properties": {"@spider": "usps_collection_boxes", "addr:city": "ELKHART", "addr:country": "US", "addr:full": "106 N BOGARDUS ST", "addr:postcode": "62634", "addr:state": "IL", "amenity": "post_box", "brand": "United States Postal Service", "brand:wikidata": "Q668687", "collection_times": "Mo-Fr 11:45; Sa 09:15", "name": "USPS COLLECTION BOX - BLUE BOX", "nsi_id": "unitedstatespostalservice-a77078", "operator": "United States Postal Service", "operator:short": "USPS", "operator:type": "public", "operator:wikidata": "Q668687", "ref": "6263400003"}, "type": "Feature"}
{"dataset_attributes": {"@spider": "usps_collection_boxes", "spider:collection_time": "2023-09-25T08:26:09.915926"}, "geometry": {"coordinates": [-89.481954209, 40.020187698], "type": "Point"}, "id": "27fH9JZQuS6gy9uNrHqU5bDNSVY=", "properties": {"@spider": "usps_collection_boxes", "addr:city": "ELKHART", "addr:country": "US", "addr:full": "106 N BOGARDUS ST", "addr:postcode": "62634", "addr:state": "IL", "amenity": "post_box", "brand": "United States Postal Service", "brand:wikidata": "Q668687", "collection_times": "Mo-Fr 11:45; Sa 09:15", "name": "USPS COLLECTION BOX - PO LOBBY", "nsi_id": "unitedstatespostalservice-a77078", "operator": "United States Postal Service", "operator:short": "USPS", "operator:type": "public", "operator:wikidata": "Q668687", "ref": "6263400004"}, "type": "Feature"}
{"dataset_attributes": {"@spider": "usps_collection_boxes", "spider:collection_time": "2023-09-25T08:26:09.915926"}, "geometry": {"coordinates": [-89.4846000008, 40.2986119875], "type": "Point"}, "id": "J4TlscR5IIMYOz8GMCvNH4YbtME=", "properties": {"@spider": "usps_collection_boxes", "addr:city": "EMDEN", "addr:country": "US", "addr:full": "304 LINCOLN ST", "addr:postcode": "62635", "addr:state": "IL", "amenity": "post_box", "brand": "United States Postal Service", "brand:wikidata": "Q668687", "collection_times": "Mo-Fr 11:45; Sa 09:45", "name": "USPS COLLECTION BOX - BLUE BOX", "nsi_id": "unitedstatespostalservice-a77078", "operator": "United States Postal Service", "operator:short": "USPS", "operator:type": "public", "operator:wikidata": "Q668687", "ref": "6263500001"}, "type": "Feature"}
{"dataset_attributes": {"@spider": "usps_collection_boxes", "spider:collection_time": "2023-09-25T08:26:09.915926"}, "geometry": {"coordinates": [-89.484924, 40.298713], "type": "Point"}, "id": "lTHaesAsrvPaBX5OdQQeLUk8ATw=", "properties": {"@spider": "usps_collection_boxes", "addr:city": "EMDEN", "addr:country": "US", "addr:full": "304 LINCOLN ST", "addr:postcode": "62635", "addr:state": "IL", "amenity": "post_box", "brand": "United States Postal Service", "brand:wikidata": "Q668687", "collection_times": "Mo-Fr 11:45; Sa 09:45", "name": "USPS COLLECTION BOX - PO LOBBY", "nsi_id": "unitedstatespostalservice-a77078", "operator": "United States Postal Service", "operator:short": "USPS", "operator:type": "public", "operator:wikidata": "Q668687", "ref": "6263500002"}, "type": "Feature"}
{"dataset_attributes": {"@spider": "usps_collection_boxes", "spider:collection_time": "2023-09-25T08:26:09.915926"}, "geometry": {"coordinates": [-89.484750588, 40.298552926], "type": "Point"}, "id": "NqbJstq8ng6nWkA1SClZM-vWMSM=", "properties": {"@spider": "usps_collection_boxes", "addr:city": "EMDEN", "addr:country": "US", "addr:full": "304 LINCOLN ST", "addr:postcode": "62635", "addr:state": "IL", "amenity": "post_box", "brand": "United States Postal Service", "brand:wikidata": "Q668687", "collection_times": "Mo-Fr 11:45; Sa 09:45", "name": "USPS COLLECTION BOX - PO LOBBY", "nsi_id": "unitedstatespostalservice-a77078", "operator": "United States Postal Service", "operator:short": "USPS", "operator:type": "public", "operator:wikidata": "Q668687", "ref": "6263500003"}, "type": "Feature"}
{"dataset_attributes": {"@spider": "usps_collection_boxes", "spider:collection_time": "2023-09-25T08:26:09.915926"}, "geometry": {"coordinates": [-90.045398, 39.62303], "type": "Point"}, "id": "UtrjKUV7PKY2qr4B-xxJYXENVSk=", "properties": {"@spider": "usps_collection_boxes", "addr:city": "FRANKLIN", "addr:country": "US", "addr:full": "312 WYATT ST", "addr:postcode": "62638", "addr:state": "IL", "amenity": "post_box", "brand": "United States Postal Service", "brand:wikidata": "Q668687", "collection_times": "Mo-Fr 11:15; Sa 09:45", "name": "USPS COLLECTION BOX - BLUE BOX", "nsi_id": "unitedstatespostalservice-a77078", "operator": "United States Postal Service", "operator:short": "USPS", "operator:type": "public", "operator:wikidata": "Q668687", "ref": "6263800000"}, "type": "Feature"}
{"dataset_attributes": {"@spider": "usps_collection_boxes", "spider:collection_time": "2023-09-25T08:26:09.915926"}, "geometry": {"coordinates": [-90.045438, 39.623051], "type": "Point"}, "id": "ofetwFL-h4pQ56xiYHfV_EEDIFk=", "properties": {"@spider": "usps_collection_boxes", "addr:city": "FRANKLIN", "addr:country": "US", "addr:full": "312 WYATT ST", "addr:postcode": "62638", "addr:state": "IL", "amenity": "post_box", "brand": "United States Postal Service", "brand:wikidata": "Q668687", "collection_times": "Mo-Fr 11:15; Sa 09:45", "name": "USPS COLLECTION BOX - PO LOBBY", "nsi_id": "unitedstatespostalservice-a77078", "operator": "United States Postal Service", "operator:short": "USPS", "operator:type": "public", "operator:wikidata": "Q668687", "ref": "6263800001"}, "type": "Feature"}
{"dataset_attributes": {"@spider": "usps_collection_boxes", "spider:collection_time": "2023-09-25T08:26:09.915926"}, "geometry": {"coordinates": [-90.045841543, 39.622752179], "type": "Point"}, "id": "f64SxZRrq7DpVjy0FvVo7TgTl94=", "properties": {"@spider": "usps_collection_boxes", "addr:city": "FRANKLIN", "addr:country": "US", "addr:full": "312 WYATT ST", "addr:postcode": "62638", "addr:state": "IL", "amenity": "post_box", "brand": "United States Postal Service", "brand:wikidata": "Q668687", "collection_times": "Mo-Fr 11:15; Sa 09:45", "name": "USPS COLLECTION BOX - PO LOBBY", "nsi_id": "unitedstatespostalservice-a77078", "operator": "United States Postal Service", "operator:short": "USPS", "operator:type": "public", "operator:wikidata": "Q668687", "ref": "6263800002"}, "type": "Feature"}
{"dataset_attributes": {"@spider": "usps_collection_boxes", "spider:collection_time": "2023-09-25T08:26:09.915926"}, "geometry": {"coordinates": [-89.779254, 39.445867], "type": "Point"}, "id": "azcOolxtxKMngYRjg8V01OTSQqo=", "properties": {"@spider": "usps_collection_boxes", "addr:city": "GIRARD", "addr:country": "US", "addr:full": "153 S 2ND ST", "addr:postcode": "62640", "addr:state": "IL", "amenity": "post_box", "brand": "United States Postal Service", "brand:wikidata": "Q668687", "collection_times": "Mo-Fr 16:00; Sa 11:00", "name": "USPS COLLECTION BOX - BLUE BOX", "note": "ON 12/24 AND 12/31, THIS BOX MAY BE COLLECTED AS EARLY AS 12 NOON.", "nsi_id": "unitedstatespostalservice-a77078", "operator": "United States Postal Service", "operator:short": "USPS", "operator:type": "public", "operator:wikidata": "Q668687", "ref": "6264000000"}, "type": "Feature"}
{"dataset_attributes": {"@spider": "usps_collection_boxes", "spider:collection_time": "2023-09-25T08:26:09.915926"}, "geometry": {"coordinates": [-89.779219, 39.445861], "type": "Point"}, "id": "AaO_n8zU0BQwcZ-VHMn8yQsSxxw=", "properties": {"@spider": "usps_collection_boxes", "addr:city": "GIRARD", "addr:country": "US", "addr:full": "153 S 2ND ST", "addr:postcode": "62640", "addr:state": "IL", "amenity": "post_box", "brand": "United States Postal Service", "brand:wikidata": "Q668687", "collection_times": "Mo-Fr 16:00; Sa 11:00", "name": "USPS COLLECTION BOX - PO LOBBY", "note": "ON 12/24 AND 12/31, THIS BOX MAY BE COLLECTED AS EARLY AS 12 NOON.", "nsi_id": "unitedstatespostalservice-a77078", "operator": "United States Postal Service", "operator:short": "USPS", "operator:type": "public", "operator:wikidata": "Q668687", "ref": "6264000001"}, "type": "Feature"}
{"dataset_attributes": {"@spider": "usps_collection_boxes", "spider:collection_time": "2023-09-25T08:26:09.915926"}, "geometry": {"coordinates": [-89.7802164, 39.446293], "type": "Point"}, "id": "cMZeceVEaA7usRwovYEYFOH5L14=", "properties": {"@spider": "usps_collection_boxes", "addr:city": "GIRARD", "addr:country": "US", "addr:full": "102 S 3RD ST", "addr:postcode": "62640", "addr:state": "IL", "amenity": "post_box", "brand": "United States Postal Service", "brand:wikidata": "Q668687", "collection_times": "Mo-Fr 14:00; Sa 11:00", "name": "USPS COLLECTION BOX - BLUE BOX", "note": "ON 12/24 AND 12/31, THIS BOX MAY BE COLLECTED AS EARLY AS 12 NOON.", "nsi_id": "unitedstatespostalservice-a77078", "operator": "United States Postal Service", "operator:short": "USPS", "operator:type": "public", "operator:wikidata": "Q668687", "ref": "6264000002"}, "type": "Feature"}
{"dataset_attributes": {"@spider": "usps_collection_boxes", "spider:collection_time": "2023-09-25T08:26:09.915926"}, "geometry": {"coordinates": [-89.779265537, 39.445569754], "type": "Point"}, "id": "qUHUP9g67J_JON7yIc9HMrAYVC8=", "properties": {"@spider": "usps_collection_boxes", "addr:city": "GIRARD", "addr:country": "US", "addr:full": "153 S 2ND ST", "addr:postcode": "62640", "addr:state": "IL", "amenity": "post_box", "brand": "United States Postal Service", "brand:wikidata": "Q668687", "collection_times": "Mo-Fr 16:00; Sa 11:00", "name": "USPS COLLECTION BOX - PO LOBBY", "note": "ON 12/24 AND 12/31, THIS BOX MAY BE COLLECTED AS EARLY AS 12 NOON.", "nsi_id": "unitedstatespostalservice-a77078", "operator": "United States Postal Service", "operator:short": "USPS", "operator:type": "public", "operator:wikidata": "Q668687", "ref": "6264000003"}, "type": "Feature"}
{"dataset_attributes": {"@spider": "usps_collection_boxes", "spider:collection_time": "2023-09-25T08:26:09.915926"}, "geometry": {"coordinates": [-89.740145, 40.084358], "type": "Point"}, "id": "07v3z8yUyY7ip_L-GTPbW3pzggQ=", "properties": {"@spider": "usps_collection_boxes", "addr:city": "GREENVIEW", "addr:country": "US", "addr:full": "158 W WASHINGTON ST", "addr:postcode": "62642", "addr:state": "IL", "amenity": "post_box", "brand": "United States Postal Service", "brand:wikidata": "Q668687", "collection_times": "Mo-Fr 16:00; Sa 09:30", "name": "USPS COLLECTION BOX - BLUE BOX", "note": "ON 12/24 AND 12/31, THIS BOX MAY BE COLLECTED AS EARLY AS 12 NOON.", "nsi_id": "unitedstatespostalservice-a77078", "operator": "United States Postal Service", "operator:short": "USPS", "operator:type": "public", "operator:wikidata": "Q668687", "ref": "6264200001"}, "type": "Feature"}
{"dataset_attributes": {"@spider": "usps_collection_boxes", "spider:collection_time": "2023-09-25T08:26:09.915926"}, "geometry": {"coordinates": [-89.740167, 40.084331], "type": "Point"}, "id": "6xHBf6XKs2EcZ3eF9Hd5SB0bwzE=", "properties": {"@spider": "usps_collection_boxes", "addr:city": "GREENVIEW", "addr:country": "US", "addr:full": "158 W WASHINGTON ST", "addr:postcode": "62642", "addr:state": "IL", "amenity": "post_box", "brand": "United States Postal Service", "brand:wikidata": "Q668687", "collection_times": "Mo-Fr 15:45; Sa 09:15", "name": "USPS COLLECTION BOX - PO LOBBY", "note": "ON 12/24 AND 12/31, THIS BOX MAY BE COLLECTED AS EARLY AS 12 NOON.", "nsi_id": "unitedstatespostalservice-a77078", "operator": "United States Postal Service", "operator:short": "USPS", "operator:type": "public", "operator:wikidata": "Q668687", "ref": "6264200002"}, "type": "Feature"}
{"dataset_attributes": {"@spider": "usps_collection_boxes", "spider:collection_time": "2023-09-25T08:26:09.915926"}, "geometry": {"coordinates": [-89.740156647, 40.084400699], "type": "Point"}, "id": "oVad2lYbektQq40KpRxszn10Nhg=", "properties": {"@spider": "usps_collection_boxes", "addr:city": "GREENVIEW", "addr:country": "US", "addr:full": "158 W WASHINGTON ST", "addr:postcode": "62642", "addr:state": "IL", "amenity": "post_box", "brand": "United States Postal Service", "brand:wikidata": "Q668687", "collection_times": "Mo-Fr 15:45; Sa 09:15", "name": "USPS COLLECTION BOX - PO LOBBY", "note": "ON 12/24 AND 12/31, THIS BOX MAY BE COLLECTED AS EARLY AS 12 NOON.", "nsi_id": "unitedstatespostalservice-a77078", "operator": "United States Postal Service", "operator:short": "USPS", "operator:type": "public", "operator:wikidata": "Q668687", "ref": "6264200003"}, "type": "Feature"}
{"dataset_attributes": {"@spider": "usps_collection_boxes", "spider:collection_time": "2023-09-25T08:26:09.915926"}, "geometry": {"coordinates": [-89.4408235497, 40.2499128433], "type": "Point"}, "id": "aCpcdEFSdS3TYxGADwRFbsA88ww=", "properties": {"@spider": "usps_collection_boxes", "addr:city": "HARTSBURG", "addr:country": "US", "addr:full": "112 N 2ND ST", "addr:postcode": "62643", "addr:state": "IL", "amenity": "post_box", "brand": "United States Postal Service", "brand:wikidata": "Q668687", "collection_times": "Mo-Fr 11:45; Sa 09:45", "name": "USPS COLLECTION BOX - BLUE BOX", "nsi_id": "unitedstatespostalservice-a77078", "operator": "United States Postal Service", "operator:short": "USPS", "operator:type": "public", "operator:wikidata": "Q668687", "ref": "6264300001"}, "type": "Feature"}
{"dataset_attributes": {"@spider": "usps_collection_boxes", "spider:collection_time": "2023-09-25T08:26:09.915926"}, "geometry": {"coordinates": [-89.440894, 40.249824], "type": "Point"}, "id": "cDu81L9d0GZQTHTulgQ86oPQdTM=", "properties": {"@spider": "usps_collection_boxes", "addr:city": "HARTSBURG", "addr:country": "US", "addr:full": "112 N 2ND ST", "addr:postcode": "62643", "addr:state": "IL", "amenity": "post_box", "brand": "United States Postal Service", "brand:wikidata": "Q668687", "collection_times": "Mo-Fr 11:45; Sa 09:45", "name": "USPS COLLECTION BOX - PO LOBBY", "nsi_id": "unitedstatespostalservice-a77078", "operator": "United States Postal Service", "operator:short": "USPS", "operator:type": "public", "operator:wikidata": "Q668687", "ref": "6264300002"}, "type": "Feature"}
{"dataset_attributes": {"@spider": "usps_collection_boxes", "spider:collection_time": "2023-09-25T08:26:09.915926"}, "geometry": {"coordinates": [-89.44084152, 40.249858295], "type": "Point"}, "id": "EuA3cHF0K2LNxSjE6TpKyf8a2cA=", "properties": {"@spider": "usps_collection_boxes", "addr:city": "HARTSBURG", "addr:country": "US", "addr:full": "112 N 2ND ST", "addr:postcode": "62643", "addr:state": "IL", "amenity": "post_box", "brand": "United States Postal Service", "brand:wikidata": "Q668687", "collection_times": "Mo-Fr 11:45; Sa 09:45", "name": "USPS COLLECTION BOX - PO LOBBY", "nsi_id": "unitedstatespostalservice-a77078", "operator": "United States Postal Service", "operator:short": "USPS", "operator:type": "public", "operator:wikidata": "Q668687", "ref": "6264300003"}, "type": "Feature"}
{"dataset_attributes": {"@spider": "usps_collection_boxes", "spider:collection_time": "2023-09-25T08:26:09.915926"}, "geometry": {"coordinates": [-90.06377238, 40.2991969153], "type": "Point"}, "id": "QRaYIrkIRp0Rg2cqbRWYfCmDALc=", "properties": {"@spider": "usps_collection_boxes", "addr:city": "HAVANA", "addr:country": "US", "addr:full": "128 S ORANGE ST", "addr:postcode": "62644", "addr:state": "IL", "amenity": "post_box", "brand": "United States Postal Service", "brand:wikidata": "Q668687", "collection_times": "Mo-Fr 17:00; Sa 15:30", "name": "USPS COLLECTION BOX - BLUE BOX", "note": "ON 12/24 AND 12/31, THIS BOX MAY BE COLLECTED AS EARLY AS 12 NOON.", "nsi_id": "unitedstatespostalservice-a77078", "operator": "United States Postal Service", "operator:short": "USPS", "operator:type": "public", "operator:wikidata": "Q668687", "ref": "6264400004"}, "type": "Feature"}
{"dataset_attributes": {"@spider": "usps_collection_boxes", "spider:collection_time": "2023-09-25T08:26:09.915926"}, "geometry": {"coordinates": [-90.0637855952, 40.3001669101], "type": "Point"}, "id": "manYJ15VV8hXCmk82lnZ7Jgwveg=", "properties": {"@spider": "usps_collection_boxes", "addr:city": "HAVANA", "addr:country": "US", "addr:full": "100 N ORANGE ST", "addr:postcode": "62644", "addr:state": "IL", "amenity": "post_box", "brand": "United States Postal Service", "brand:wikidata": "Q668687", "collection_times": "Mo-Sa 09:30", "name": "USPS COLLECTION BOX - BLUE BOX", "nsi_id": "unitedstatespostalservice-a77078", "operator": "United States Postal Service", "operator:short": "USPS", "operator:type": "public", "operator:wikidata": "Q668687", "ref": "6264400009"}, "type": "Feature"}
{"dataset_attributes": {"@spider": "usps_collection_boxes", "spider:collection_time": "2023-09-25T08:26:09.915926"}, "geometry": {"coordinates": [-90.0447419705, 40.2955460131], "type": "Point"}, "id": "o6HvSf7nUscYIT-6KFG3M4Nra_c=", "properties": {"@spider": "usps_collection_boxes", "addr:city": "HAVANA", "addr:country": "US", "addr:full": "943 E LAUREL AVE", "addr:postcode": "62644", "addr:state": "IL", "amenity": "post_box", "brand": "United States Postal Service", "brand:wikidata": "Q668687", "collection_times": "Mo-Sa 10:00", "name": "USPS COLLECTION BOX - BLUE BOX", "nsi_id": "unitedstatespostalservice-a77078", "operator": "United States Postal Service", "operator:short": "USPS", "operator:type": "public", "operator:wikidata": "Q668687", "ref": "6264400014"}, "type": "Feature"}
{"dataset_attributes": {"@spider": "usps_collection_boxes", "spider:collection_time": "2023-09-25T08:26:09.915926"}, "geometry": {"coordinates": [-90.0593685, 40.29696], "type": "Point"}, "id": "SKVqnOIQNOpC32n3wy5ZmET2EpM=", "properties": {"@spider": "usps_collection_boxes", "addr:city": "HAVANA", "addr:country": "US", "addr:full": "125 N BROADWAY ST", "addr:postcode": "62644", "addr:state": "IL", "amenity": "post_box", "brand": "United States Postal Service", "brand:wikidata": "Q668687", "collection_times": "Mo-Sa 15:30", "name": "USPS COLLECTION BOX - BLUE BOX", "note": "ON 12/24 AND 12/31, THIS BOX MAY BE COLLECTED AS EARLY AS 12 NOON.", "nsi_id": "unitedstatespostalservice-a77078", "operator": "United States Postal Service", "operator:short": "USPS", "operator:type": "public", "operator:wikidata": "Q668687", "ref": "6264400016"}, "type": "Feature"}
{"dataset_attributes": {"@spider": "usps_collection_boxes", "spider:collection_time": "2023-09-25T08:26:09.915926"}, "geometry": {"coordinates": [-90.06377238, 40.2991969153], "type": "Point"}, "id": "_nIYfO0Q9-J2Hu7gUXto8rNND2o=", "properties": {"@spider": "usps_collection_boxes", "addr:city": "HAVANA", "addr:country": "US", "addr:full": "128 S ORANGE ST", "addr:postcode": "62644", "addr:state": "IL", "amenity": "post_box", "brand": "United States Postal Service", "brand:wikidata": "Q668687", "collection_times": "Mo-Fr 17:00; Sa 15:30", "name": "USPS COLLECTION BOX - PO LOBBY", "note": "ON 12/24 AND 12/31, THIS BOX MAY BE COLLECTED AS EARLY AS 12 NOON.", "nsi_id": "unitedstatespostalservice-a77078", "operator": "United States Postal Service", "operator:short": "USPS", "operator:type": "public", "operator:wikidata": "Q668687", "ref": "6264400018"}, "type": "Feature"}
{"dataset_attributes": {"@spider": "usps_collection_boxes", "spider:collection_time": "2023-09-25T08:26:09.915926"}, "geometry": {"coordinates": [-90.06377238, 40.2991969153], "type": "Point"}, "id": "29YM_XcqWl9aHQMjUgRU8H6GdQs=", "properties": {"@spider": "usps_collection_boxes", "addr:city": "HAVANA", "addr:country": "US", "addr:full": "128 S ORANGE ST", "addr:postcode": "62644", "addr:state": "IL", "amenity": "post_box", "brand": "United States Postal Service", "brand:wikidata": "Q668687", "collection_times": "Mo-Fr 17:00; Sa 15:30", "name": "USPS COLLECTION BOX - PO LOBBY", "note": "ON 12/24 AND 12/31, THIS BOX MAY BE COLLECTED AS EARLY AS 12 NOON.", "nsi_id": "unitedstatespostalservice-a77078", "operator": "United States Postal Service", "operator:short": "USPS", "operator:type": "public", "operator:wikidata": "Q668687", "ref": "6264400020"}, "type": "Feature"}
{"dataset_attributes": {"@spider": "usps_collection_boxes", "spider:collection_time": "2023-09-25T08:26:09.915926"}, "geometry": {"coordinates": [-90.036752, 39.354699], "type": "Point"}, "id": "WMvtk1AlKMFBAawq2sZfX0ImKRU=", "properties": {"@spider": "usps_collection_boxes", "addr:city": "HETTICK", "addr:country": "US", "addr:full": "116 E POST ST", "addr:postcode": "62649", "addr:state": "IL", "amenity": "post_box", "brand": "United States Postal Service", "brand:wikidata": "Q668687", "collection_times": "Mo-Fr 11:45; Sa 10:00", "name": "USPS COLLECTION BOX - BLUE BOX", "nsi_id": "unitedstatespostalservice-a77078", "operator": "United States Postal Service", "operator:short": "USPS", "operator:type": "public", "operator:wikidata": "Q668687", "ref": "6264900000"}, "type": "Feature"}
{"dataset_attributes": {"@spider": "usps_collection_boxes", "spider:collection_time": "2023-09-25T08:26:09.915926"}, "geometry": {"coordinates": [-90.036752, 39.354699], "type": "Point"}, "id": "jbAXYhFolwMwtoABWlZ35ZK3KbA=", "properties": {"@spider": "usps_collection_boxes", "addr:city": "HETTICK", "addr:country": "US", "addr:full": "116 E POST ST", "addr:postcode": "62649", "addr:state": "IL", "amenity": "post_box", "brand": "United States Postal Service", "brand:wikidata": "Q668687", "collection_times": "Mo-Fr 11:45; Sa 10:00", "name": "USPS COLLECTION BOX - PO LOBBY", "nsi_id": "unitedstatespostalservice-a77078", "operator": "United States Postal Service", "operator:short": "USPS", "operator:type": "public", "operator:wikidata": "Q668687", "ref": "6264900001"}, "type": "Feature"}
{"dataset_attributes": {"@spider": "usps_collection_boxes", "spider:collection_time": "2023-09-25T08:26:09.915926"}, "geometry": {"coordinates": [-90.03829, 39.35271], "type": "Point"}, "id": "wGWHnbV7Q3oEYkq2VxiHFBai2gM=", "properties": {"@spider": "usps_collection_boxes", "addr:city": "HETTICK", "addr:country": "US", "addr:full": "116 E POST ST", "addr:postcode": "62649", "addr:state": "IL", "amenity": "post_box", "brand": "United States Postal Service", "brand:wikidata": "Q668687", "collection_times": "Mo-Fr 11:45; Sa 10:00", "name": "USPS COLLECTION BOX - PO LOBBY", "nsi_id": "unitedstatespostalservice-a77078", "operator": "United States Postal Service", "operator:short": "USPS", "operator:type": "public", "operator:wikidata": "Q668687", "ref": "6264900002"}, "type": "Feature"}
{"dataset_attributes": {"@spider": "usps_collection_boxes", "spider:collection_time": "2023-09-25T08:26:09.915926"}, "geometry": {"coordinates": [-90.2310559, 39.736377], "type": "Point"}, "id": "0gHfq9u8fy7zcd4IrFK3o6ZEC6U=", "properties": {"@spider": "usps_collection_boxes", "addr:city": "JACKSONVILLE", "addr:country": "US", "addr:full": "200 W DOUGLAS AVE", "addr:postcode": "62650", "addr:state": "IL", "amenity": "post_box", "brand": "United States Postal Service", "brand:wikidata": "Q668687", "collection_times": "Mo-Fr 14:30; Sa 13:00", "name": "USPS COLLECTION BOX - BLUE BOX", "note": "ON 12/24 AND 12/31, THIS BOX MAY BE COLLECTED AS EARLY AS 12 NOON.", "nsi_id": "unitedstatespostalservice-a77078", "operator": "United States Postal Service", "operator:short": "USPS", "operator:type": "public", "operator:wikidata": "Q668687", "ref": "6265000001"}, "type": "Feature"}
{"dataset_attributes": {"@spider": "usps_collection_boxes", "spider:collection_time": "2023-09-25T08:26:09.915926"}, "geometry": {"coordinates": [-90.2625033, 39.723617], "type": "Point"}, "id": "mCUivok3wYckCdug8cF6GUh2Pqk=", "properties": {"@spider": "usps_collection_boxes", "addr:city": "JACKSONVILLE", "addr:country": "US", "addr:full": "1802 W MORTON AVE", "addr:postcode": "62650", "addr:state": "IL", "amenity": "post_box", "brand": "United States Postal Service", "brand:wikidata": "Q668687", "collection_times": "Mo-Sa 14:00", "name": "USPS COLLECTION BOX - BLUE BOX", "note": "ON 12/24 AND 12/31, THIS BOX MAY BE COLLECTED AS EARLY AS 12 NOON.", "nsi_id": "unitedstatespostalservice-a77078", "operator": "United States Postal Service", "operator:short": "USPS", "operator:type": "public", "operator:wikidata": "Q668687", "ref": "6265000005"}, "type": "Feature"}
{"dataset_attributes": {"@spider": "usps_collection_boxes", "spider:collection_time": "2023-09-25T08:26:09.915926"}, "geometry": {"coordinates": [-90.2598059, 39.746179], "type": "Point"}, "id": "CpynMBrBD7J9Yajslcf44iry3tM=", "properties": {"@spider": "usps_collection_boxes", "addr:city": "JACKSONVILLE", "addr:country": "US", "addr:full": "1600 W WALNUT ST", "addr:postcode": "62650", "addr:state": "IL", "amenity": "post_box", "brand": "United States Postal Service", "brand:wikidata": "Q668687", "collection_times": "Mo-Sa 09:00", "name": "USPS COLLECTION BOX - BLUE BOX", "nsi_id": "unitedstatespostalservice-a77078", "operator": "United States Postal Service", "operator:short": "USPS", "operator:type": "public", "operator:wikidata": "Q668687", "ref": "6265000006"}, "type": "Feature"}
{"dataset_attributes": {"@spider": "usps_collection_boxes", "spider:collection_time": "2023-09-25T08:26:09.915926"}, "geometry": {"coordinates": [-90.2583338, 39.745048], "type": "Point"}, "id": "c7Zjj6F4dq5NEfdV7-m48Kzru0c=", "properties": {"@spider": "usps_collection_boxes", "addr:city": "JACKSONVILLE", "addr:country": "US", "addr:full": "1515 W WALNUT ST", "addr:postcode": "62650", "addr:state": "IL", "amenity": "post_box", "brand": "United States Postal Service", "brand:wikidata": "Q668687", "collection_times": "Mo-Sa 09:00", "name": "USPS COLLECTION BOX - BLUE BOX", "nsi_id": "unitedstatespostalservice-a77078", "operator": "United States Postal Service", "operator:short": "USPS", "operator:type": "public", "operator:wikidata": "Q668687", "ref": "6265000007"}, "type": "Feature"}
{"dataset_attributes": {"@spider": "usps_collection_boxes", "spider:collection_time": "2023-09-25T08:26:09.915926"}, "geometry": {"coordinates": [-90.2351119, 39.723699], "type": "Point"}, "id": "S0HUd7LDPC-xUosUg-qhlPittVo=", "properties": {"@spider": "usps_collection_boxes", "addr:city": "JACKSONVILLE", "addr:country": "US", "addr:full": "836 S FAYETTE ST", "addr:postcode": "62650", "addr:state": "IL", "amenity": "post_box", "brand": "United States Postal Service", "brand:wikidata": "Q668687", "collection_times": "Mo-Sa 09:00", "name": "USPS COLLECTION BOX - BLUE BOX", "nsi_id": "unitedstatespostalservice-a77078", "operator": "United States Postal Service", "operator:short": "USPS", "operator:type": "public", "operator:wikidata": "Q668687", "ref": "6265000009"}, "type": "Feature"}
{"dataset_attributes": {"@spider": "usps_collection_boxes", "spider:collection_time": "2023-09-25T08:26:09.915926"}, "geometry": {"coordinates": [-90.2313533, 39.73428], "type": "Point"}, "id": "f4lqzz27eeIh4BNEesF3iWkOJS0=", "properties": {"@spider": "usps_collection_boxes", "addr:city": "JACKSONVILLE", "addr:country": "US", "addr:full": "235 W STATE ST", "addr:postcode": "62650", "addr:state": "IL", "amenity": "post_box", "brand": "United States Postal Service", "brand:wikidata": "Q668687", "collection_times": "Mo-Sa 09:00", "name": "USPS COLLECTION BOX - BLUE BOX", "nsi_id": "unitedstatespostalservice-a77078", "operator": "United States Postal Service", "operator:short": "USPS", "operator:type": "public", "operator:wikidata": "Q668687", "ref": "6265000017"}, "type": "Feature"}
{"dataset_attributes": {"@spider": "usps_collection_boxes", "spider:collection_time": "2023-09-25T08:26:09.915926"}, "geometry": {"coordinates": [-90.2441994, 39.721075], "type": "Point"}, "id": "xyM84yaVV_AQ8paaLG5vJN-Ah3w=", "properties": {"@spider": "usps_collection_boxes", "addr:city": "JACKSONVILLE", "addr:country": "US", "addr:full": "1122 VETERANS DR", "addr:postcode": "62650", "addr:state": "IL", "amenity": "post_box", "brand": "United States Postal Service", "brand:wikidata": "Q668687", "collection_times": "Mo-Fr 16:00; Sa 13:30", "name": "USPS COLLECTION BOX - BLUE BOX", "note": "ON 12/24 AND 12/31, THIS BOX MAY BE COLLECTED AS EARLY AS 12 NOON.", "nsi_id": "unitedstatespostalservice-a77078", "operator": "United States Postal Service", "operator:short": "USPS", "operator:type": "public", "operator:wikidata": "Q668687", "ref": "6265000024"}, "type": "Feature"}
{"dataset_attributes": {"@spider": "usps_collection_boxes", "spider:collection_time": "2023-09-25T08:26:09.915926"}, "geometry": {"coordinates": [-90.2286104, 39.708535], "type": "Point"}, "id": "L9Q5IEkf8neDQYGErTy6pR3JDj8=", "properties": {"@spider": "usps_collection_boxes", "addr:city": "JACKSONVILLE", "addr:country": "US", "addr:full": "1800 S MAIN ST", "addr:postcode": "62650", "addr:state": "IL", "amenity": "post_box", "brand": "United States Postal Service", "brand:wikidata": "Q668687", "collection_times": "Mo-Fr 10:00; Sa 09:30", "name": "USPS COLLECTION BOX - BLUE BOX", "nsi_id": "unitedstatespostalservice-a77078", "operator": "United States Postal Service", "operator:short": "USPS", "operator:type": "public", "operator:wikidata": "Q668687", "ref": "6265000030"}, "type": "Feature"}
{"dataset_attributes": {"@spider": "usps_collection_boxes", "spider:collection_time": "2023-09-25T08:26:09.915926"}, "geometry": {"coordinates": [-90.230332332, 39.73492349], "type": "Point"}, "id": "65t6zmTlp8upTNzsxqCrN_Hupm0=", "properties": {"@spider": "usps_collection_boxes", "addr:city": "JACKSONVILLE", "addr:country": "US", "addr:full": "200 W COURT ST", "addr:postcode": "62650", "addr:state": "IL", "amenity": "post_box", "brand": "United States Postal Service", "brand:wikidata": "Q668687", "collection_times": "Mo-Fr 17:00; Sa 11:30", "name": "USPS COLLECTION BOX - BLUE BOX", "note": "ON 12/24 AND 12/31, THIS BOX MAY BE COLLECTED AS EARLY AS 12 NOON.", "nsi_id": "unitedstatespostalservice-a77078", "operator": "United States Postal Service", "operator:short": "USPS", "operator:type": "public", "operator:wikidata": "Q668687", "ref": "6265000044"}, "type": "Feature"}
{"dataset_attributes": {"@spider": "usps_collection_boxes", "spider:collection_time": "2023-09-25T08:26:09.915926"}, "geometry": {"coordinates": [-90.2299674, 39.73512], "type": "Point"}, "id": "LpYPzZS5ZRGOUJGCR2YoUyTxq-w=", "properties": {"@spider": "usps_collection_boxes", "addr:city": "JACKSONVILLE", "addr:country": "US", "addr:full": "200 N SANDY ST", "addr:postcode": "62650", "addr:state": "IL", "amenity": "post_box", "brand": "United States Postal Service", "brand:wikidata": "Q668687", "collection_times": "Mo-Fr 17:00; Sa 11:30", "name": "USPS COLLECTION BOX - BLUE BOX", "note": "ON 12/24 AND 12/31, THIS BOX MAY BE COLLECTED AS EARLY AS 12 NOON.", "nsi_id": "unitedstatespostalservice-a77078", "operator": "United States Postal Service", "operator:short": "USPS", "operator:type": "public", "operator:wikidata": "Q668687", "ref": "6265000045"}, "type": "Feature"}
{"dataset_attributes": {"@spider": "usps_collection_boxes", "spider:collection_time": "2023-09-25T08:26:09.915926"}, "geometry": {"coordinates": [-90.2594042, 39.738132], "type": "Point"}, "id": "E5Crjhi7OjkGWBLG8A42E42Ch88=", "properties": {"@spider": "usps_collection_boxes", "addr:city": "JACKSONVILLE", "addr:country": "US", "addr:full": "1608 W LAFAYETTE AVE", "addr:postcode": "62650", "addr:state": "IL", "amenity": "post_box", "brand": "United States Postal Service", "brand:wikidata": "Q668687", "collection_times": "Mo-Fr 14:30; Sa 13:00", "name": "USPS COLLECTION BOX - BLUE BOX", "note": "ON 12/24 AND 12/31, THIS BOX MAY BE COLLECTED AS EARLY AS 12 NOON.", "nsi_id": "unitedstatespostalservice-a77078", "operator": "United States Postal Service", "operator:short": "USPS", "operator:type": "public", "operator:wikidata": "Q668687", "ref": "6265000046"}, "type": "Feature"}
{"dataset_attributes": {"@spider": "usps_collection_boxes", "spider:collection_time": "2023-09-25T08:26:09.915926"}, "geometry": {"coordinates": [-90.230332332, 39.73492349], "type": "Point"}, "id": "rhk18S05rwo7mmorhRYOpto89Qk=", "properties": {"@spider": "usps_collection_boxes", "addr:city": "JACKSONVILLE", "addr:country": "US", "addr:full": "200 W COURT ST", "addr:postcode": "62650", "addr:state": "IL", "amenity": "post_box", "brand": "United States Postal Service", "brand:wikidata": "Q668687", "collection_times": "Mo-Fr 17:00; Sa 11:30", "name": "USPS COLLECTION BOX - PO LOBBY", "note": "ON 12/24 AND 12/31, THIS BOX MAY BE COLLECTED AS EARLY AS 12 NOON.", "nsi_id": "unitedstatespostalservice-a77078", "operator": "United States Postal Service", "operator:short": "USPS", "operator:type": "public", "operator:wikidata": "Q668687", "ref": "6265000048"}, "type": "Feature"}
{"dataset_attributes": {"@spider": "usps_collection_boxes", "spider:collection_time": "2023-09-25T08:26:09.915926"}, "geometry": {"coordinates": [-90.2442123, 39.721072], "type": "Point"}, "id": "gzWD9ZpwSzEaq1Lj0eR4iTuCCSk=", "properties": {"@spider": "usps_collection_boxes", "addr:city": "JACKSONVILLE", "addr:country": "US", "addr:full": "1122 VETERANS DR", "addr:postcode": "62650", "addr:state": "IL", "amenity": "post_box", "brand": "United States Postal Service", "brand:wikidata": "Q668687", "collection_times": "Mo-Fr 16:00; Sa 13:30", "name": "USPS COLLECTION BOX - BLUE BOX", "note": "ON 12/24 AND 12/31, THIS BOX MAY BE COLLECTED AS EARLY AS 12 NOON.", "nsi_id": "unitedstatespostalservice-a77078", "operator": "United States Postal Service", "operator:short": "USPS", "operator:type": "public", "operator:wikidata": "Q668687", "ref": "6265000051"}, "type": "Feature"}
{"dataset_attributes": {"@spider": "usps_collection_boxes", "spider:collection_time": "2023-09-25T08:26:09.915926"}, "geometry": {"coordinates": [-90.230332332, 39.73492349], "type": "Point"}, "id": "DEyhru0qCqkg0WWgt_YLAdQq6e0=", "properties": {"@spider": "usps_collection_boxes", "addr:city": "JACKSONVILLE", "addr:country": "US", "addr:full": "200 W COURT ST", "addr:postcode": "62650", "addr:state": "IL", "amenity": "post_box", "brand": "United States Postal Service", "brand:wikidata": "Q668687", "collection_times": "Mo-Fr 17:00; Sa 11:30", "name": "USPS COLLECTION BOX - BLUE BOX", "note": "ON 12/24 AND 12/31, THIS BOX MAY BE COLLECTED AS EARLY AS 12 NOON.", "nsi_id": "unitedstatespostalservice-a77078", "operator": "United States Postal Service", "operator:short": "USPS", "operator:type": "public", "operator:wikidata": "Q668687", "ref": "6265000052"}, "type": "Feature"}
{"dataset_attributes": {"@spider": "usps_collection_boxes", "spider:collection_time": "2023-09-25T08:26:09.915926"}, "geometry": {"coordinates": [-90.2299376, 39.735119], "type": "Point"}, "id": "5FOh55sdXUAM7SvLQXjM8QcNe48=", "properties": {"@spider": "usps_collection_boxes", "addr:city": "JACKSONVILLE", "addr:country": "US", "addr:full": "200 N SANDY ST", "addr:postcode": "62650", "addr:state": "IL", "amenity": "post_box", "brand": "United States Postal Service", "brand:wikidata": "Q668687", "collection_times": "Mo-Fr 17:00; Sa 11:30", "name": "USPS COLLECTION BOX - BLUE BOX", "note": "ON 12/24 AND 12/31, THIS BOX MAY BE COLLECTED AS EARLY AS 12 NOON.", "nsi_id": "unitedstatespostalservice-a77078", "operator": "United States Postal Service", "operator:short": "USPS", "operator:type": "public", "operator:wikidata": "Q668687", "ref": "6265000053"}, "type": "Feature"}
{"dataset_attributes": {"@spider": "usps_collection_boxes", "spider:collection_time": "2023-09-25T08:26:09.915926"}, "geometry": {"coordinates": [-90.230332332, 39.73492349], "type": "Point"}, "id": "Tr-rntBNa7XMlbdeajoEiJWVQMs=", "properties": {"@spider": "usps_collection_boxes", "addr:city": "JACKSONVILLE", "addr:country": "US", "addr:full": "200 W COURT ST", "addr:postcode": "62650", "addr:state": "IL", "amenity": "post_box", "brand": "United States Postal Service", "brand:wikidata": "Q668687", "collection_times": "Mo-Fr 17:00; Sa 11:30", "name": "USPS COLLECTION BOX - PO LOBBY", "note": "ON 12/24 AND 12/31, THIS BOX MAY BE COLLECTED AS EARLY AS 12 NOON.", "nsi_id": "unitedstatespostalservice-a77078", "operator": "United States Postal Service", "operator:short": "USPS", "operator:type": "public", "operator:wikidata": "Q668687", "ref": "6265000059"}, "type": "Feature"}
{"dataset_attributes": {"@spider": "usps_collection_boxes", "spider:collection_time": "2023-09-25T08:26:09.915926"}, "geometry": {"coordinates": [-90.01044, 40.152444], "type": "Point"}, "id": "y9y9mYcIzne1Utzbm4kVa1LDbqQ=", "properties": {"@spider": "usps_collection_boxes", "addr:city": "KILBOURNE", "addr:country": "US", "addr:full": "109 N 5TH ST", "addr:postcode": "62655", "addr:state": "IL", "amenity": "post_box", "brand": "United States Postal Service", "brand:wikidata": "Q668687", "collection_times": "Mo-Fr 16:00; Sa 10:00", "name": "USPS COLLECTION BOX - BLUE BOX", "note": "ON 12/24 AND 12/31, THIS BOX MAY BE COLLECTED AS EARLY AS 12 NOON.", "nsi_id": "unitedstatespostalservice-a77078", "operator": "United States Postal Service", "operator:short": "USPS", "operator:type": "public", "operator:wikidata": "Q668687", "ref": "6265500000"}, "type": "Feature"}
{"dataset_attributes": {"@spider": "usps_collection_boxes", "spider:collection_time": "2023-09-25T08:26:09.915926"}, "geometry": {"coordinates": [-90.010476, 40.152369], "type": "Point"}, "id": "rZFHjkCFrjwinqSIUycZiaGetas=", "properties": {"@spider": "usps_collection_boxes", "addr:city": "KILBOURNE", "addr:country": "US", "addr:full": "109 N 5TH ST", "addr:postcode": "62655", "addr:state": "IL", "amenity": "post_box", "brand": "United States Postal Service", "brand:wikidata": "Q668687", "collection_times": "Mo-Fr 16:00; Sa 10:00", "name": "USPS COLLECTION BOX - PO LOBBY", "note": "ON 12/24 AND 12/31, THIS BOX MAY BE COLLECTED AS EARLY AS 12 NOON.", "nsi_id": "unitedstatespostalservice-a77078", "operator": "United States Postal Service", "operator:short": "USPS", "operator:type": "public", "operator:wikidata": "Q668687", "ref": "6265500001"}, "type": "Feature"}
{"dataset_attributes": {"@spider": "usps_collection_boxes", "spider:collection_time": "2023-09-25T08:26:09.915926"}, "geometry": {"coordinates": [-90.010448048, 40.152671749], "type": "Point"}, "id": "zZ8z48puD1h5SrwcwDXkLwGuUNo=", "properties": {"@spider": "usps_collection_boxes", "addr:city": "KILBOURNE", "addr:country": "US", "addr:full": "109 N 5TH ST", "addr:postcode": "62655", "addr:state": "IL", "amenity": "post_box", "brand": "United States Postal Service", "brand:wikidata": "Q668687", "collection_times": "Mo-Fr 16:00; Sa 10:00", "name": "USPS COLLECTION BOX - PO LOBBY", "note": "ON 12/24 AND 12/31, THIS BOX MAY BE COLLECTED AS EARLY AS 12 NOON.", "nsi_id": "unitedstatespostalservice-a77078", "operator": "United States Postal Service", "operator:short": "USPS", "operator:type": "public", "operator:wikidata": "Q668687", "ref": "6265500002"}, "type": "Feature"}
{"dataset_attributes": {"@spider": "usps_collection_boxes", "spider:collection_time": "2023-09-25T08:26:09.915926"}, "geometry": {"coordinates": [-89.3611247, 40.145743], "type": "Point"}, "id": "Eis81_1suOkJhen-eiu4dcNt7ig=", "properties": {"@spider": "usps_collection_boxes", "addr:city": "LINCOLN", "addr:country": "US", "addr:full": "700 BROADWAY ST", "addr:postcode": "62656", "addr:state": "IL", "amenity": "post_box", "brand": "United States Postal Service", "brand:wikidata": "Q668687", "collection_times": "Mo-Fr 17:00; Sa 16:30", "name": "USPS COLLECTION BOX - BLUE BOX", "note": "ON 12/24 AND 12/31, THIS BOX MAY BE COLLECTED AS EARLY AS 12 NOON.", "nsi_id": "unitedstatespostalservice-a77078", "operator": "United States Postal Service", "operator:short": "USPS", "operator:type": "public", "operator:wikidata": "Q668687", "ref": "6265600000"}, "type": "Feature"}
{"dataset_attributes": {"@spider": "usps_collection_boxes", "spider:collection_time": "2023-09-25T08:26:09.915926"}, "geometry": {"coordinates": [-89.3611309, 40.145743], "type": "Point"}, "id": "69KDv59p8y8hZv5zKjmeVEh3q3M=", "properties": {"@spider": "usps_collection_boxes", "addr:city": "LINCOLN", "addr:country": "US", "addr:full": "700 BROADWAY ST", "addr:postcode": "62656", "addr:state": "IL", "amenity": "post_box", "brand": "United States Postal Service", "brand:wikidata": "Q668687", "collection_times": "Mo-Fr 17:00; Sa 16:30", "name": "USPS COLLECTION BOX - BLUE BOX", "note": "ON 12/24 AND 12/31, THIS BOX MAY BE COLLECTED AS EARLY AS 12 NOON.", "nsi_id": "unitedstatespostalservice-a77078", "operator": "United States Postal Service", "operator:short": "USPS", "operator:type": "public", "operator:wikidata": "Q668687", "ref": "6265600001"}, "type": "Feature"}
{"dataset_attributes": {"@spider": "usps_collection_boxes", "spider:collection_time": "2023-09-25T08:26:09.915926"}, "geometry": {"coordinates": [-89.3537988, 40.14944], "type": "Point"}, "id": "I-1mA7CZi2aA46O4pEgCxzBNXm0=", "properties": {"@spider": "usps_collection_boxes", "addr:city": "LINCOLN", "addr:country": "US", "addr:full": "1100 KEOKUK ST", "addr:postcode": "62656", "addr:state": "IL", "amenity": "post_box", "brand": "United States Postal Service", "brand:wikidata": "Q668687", "collection_times": "Mo-Sa 13:30", "name": "USPS COLLECTION BOX - BLUE BOX", "note": "ON 12/24 AND 12/31, THIS BOX MAY BE COLLECTED AS EARLY AS 12 NOON.", "nsi_id": "unitedstatespostalservice-a77078", "operator": "United States Postal Service", "operator:short": "USPS", "operator:type": "public", "operator:wikidata": "Q668687", "ref": "6265600008"}, "type": "Feature"}
{"dataset_attributes": {"@spider": "usps_collection_boxes", "spider:collection_time": "2023-09-25T08:26:09.915926"}, "geometry": {"coordinates": [-89.3610678, 40.148156], "type": "Point"}, "id": "3E5WSCHfLN5RxotsJonXyDSsfn4=", "properties": {"@spider": "usps_collection_boxes", "addr:city": "LINCOLN", "addr:country": "US", "addr:full": "200 N KICKAPOO ST", "addr:postcode": "62656", "addr:state": "IL", "amenity": "post_box", "brand": "United States Postal Service", "brand:wikidata": "Q668687", "collection_times": "Mo-Sa 15:00", "name": "USPS COLLECTION BOX - BLUE BOX", "note": "ON 12/24 AND 12/31, THIS BOX MAY BE COLLECTED AS EARLY AS 12 NOON.", "nsi_id": "unitedstatespostalservice-a77078", "operator": "United States Postal Service", "operator:short": "USPS", "operator:type": "public", "operator:wikidata": "Q668687", "ref": "6265600009"}, "type": "Feature"}
{"dataset_attributes": {"@spider": "usps_collection_boxes", "spider:collection_time": "2023-09-25T08:26:09.915926"}, "geometry": {"coordinates": [-89.3610546, 40.14817], "type": "Point"}, "id": "DwfBOIpNUn2jSmbFJI10n8112ag=", "properties": {"@spider": "usps_collection_boxes", "addr:city": "LINCOLN", "addr:country": "US", "addr:full": "200 N KICKAPOO ST", "addr:postcode": "62656", "addr:state": "IL", "amenity": "post_box", "brand": "United States Postal Service", "brand:wikidata": "Q668687", "collection_times": "Mo-Sa 15:00", "name": "USPS COLLECTION BOX - BLUE BOX", "note": "ON 12/24 AND 12/31, THIS BOX MAY BE COLLECTED AS EARLY AS 12 NOON.", "nsi_id": "unitedstatespostalservice-a77078", "operator": "United States Postal Service", "operator:short": "USPS", "operator:type": "public", "operator:wikidata": "Q668687", "ref": "6265600010"}, "type": "Feature"}
{"dataset_attributes": {"@spider": "usps_collection_boxes", "spider:collection_time": "2023-09-25T08:26:09.915926"}, "geometry": {"coordinates": [-89.3597163, 40.155952], "type": "Point"}, "id": "l4WcZ8qNpmmMWdf4jJ4UM_9oiOw=", "properties": {"@spider": "usps_collection_boxes", "addr:city": "LINCOLN", "addr:country": "US", "addr:full": "800 N OTTAWA ST", "addr:postcode": "62656", "addr:state": "IL", "amenity": "post_box", "brand": "United States Postal Service", "brand:wikidata": "Q668687", "collection_times": "Mo-Sa 11:00", "name": "USPS COLLECTION BOX - BLUE BOX", "nsi_id": "unitedstatespostalservice-a77078", "operator": "United States Postal Service", "operator:short": "USPS", "operator:type": "public", "operator:wikidata": "Q668687", "ref": "6265600013"}, "type": "Feature"}
{"dataset_attributes": {"@spider": "usps_collection_boxes", "spider:collection_time": "2023-09-25T08:26:09.915926"}, "geometry": {"coordinates": [-89.3814428206, 40.1576408377], "type": "Point"}, "id": "gG73XHTg2xWebdVM3u_BGb7pJDw=", "properties": {"@spider": "usps_collection_boxes", "addr:city": "LINCOLN", "addr:country": "US", "addr:full": "901 WOODLAWN RD", "addr:postcode": "62656", "addr:state": "IL", "amenity": "post_box", "brand": "United States Postal Service", "brand:wikidata": "Q668687", "collection_times": "Mo-Sa 14:30", "name": "USPS COLLECTION BOX - BLUE BOX", "note": "ON 12/24 AND 12/31, THIS BOX MAY BE COLLECTED AS EARLY AS 12 NOON.", "nsi_id": "unitedstatespostalservice-a77078", "operator": "United States Postal Service", "operator:short": "USPS", "operator:type": "public", "operator:wikidata": "Q668687", "ref": "6265600015"}, "type": "Feature"}
{"dataset_attributes": {"@spider": "usps_collection_boxes", "spider:collection_time": "2023-09-25T08:26:09.915926"}, "geometry": {"coordinates": [-89.3937435, 40.157526], "type": "Point"}, "id": "zceVvP8HEDKZJRDY9n-W8kMSmPc=", "properties": {"@spider": "usps_collection_boxes", "addr:city": "LINCOLN", "addr:country": "US", "addr:full": "1501 WOODLAWN RD", "addr:postcode": "62656", "addr:state": "IL", "amenity": "post_box", "brand": "United States Postal Service", "brand:wikidata": "Q668687", "collection_times": "Mo-Sa 14:00", "name": "USPS COLLECTION BOX - BLUE BOX", "note": "ON 12/24 AND 12/31, THIS BOX MAY BE COLLECTED AS EARLY AS 12 NOON.", "nsi_id": "unitedstatespostalservice-a77078", "operator": "United States Postal Service", "operator:short": "USPS", "operator:type": "public", "operator:wikidata": "Q668687", "ref": "6265600017"}, "type": "Feature"}
{"dataset_attributes": {"@spider": "usps_collection_boxes", "spider:collection_time": "2023-09-25T08:26:09.915926"}, "geometry": {"coordinates": [-89.3614499, 40.145753], "type": "Point"}, "id": "0jlFuRWTTEt9vlYpA2vJbpDG504=", "properties": {"@spider": "usps_collection_boxes", "addr:city": "LINCOLN", "addr:country": "US", "addr:full": "700 BROADWAY ST", "addr:postcode": "62656", "addr:state": "IL", "amenity": "post_box", "brand": "United States Postal Service", "brand:wikidata": "Q668687", "collection_times": "Mo-Fr 17:00; Sa 16:30", "name": "USPS COLLECTION BOX - PO LOBBY", "note": "ON 12/24 AND 12/31, THIS BOX MAY BE COLLECTED AS EARLY AS 12 NOON.", "nsi_id": "unitedstatespostalservice-a77078", "operator": "United States Postal Service", "operator:short": "USPS", "operator:type": "public", "operator:wikidata": "Q668687", "ref": "6265600019"}, "type": "Feature"}
{"dataset_attributes": {"@spider": "usps_collection_boxes", "spider:collection_time": "2023-09-25T08:26:09.915926"}, "geometry": {"coordinates": [-89.36215, 40.14866], "type": "Point"}, "id": "PEouQHYpa2dKTmHKpK8Hdsw3Nco=", "properties": {"@spider": "usps_collection_boxes", "addr:city": "LINCOLN", "addr:country": "US", "addr:full": "534 WOODLAWN RD", "addr:postcode": "62656", "addr:state": "IL", "amenity": "post_box", "brand": "United States Postal Service", "brand:wikidata": "Q668687", "collection_times": "Mo-Sa 15:00", "name": "USPS COLLECTION BOX - BLUE BOX", "note": "ON 12/24 AND 12/31, THIS BOX MAY BE COLLECTED AS EARLY AS 12 NOON.", "nsi_id": "unitedstatespostalservice-a77078", "operator": "United States Postal Service", "operator:short": "USPS", "operator:type": "public", "operator:wikidata": "Q668687", "ref": "6265600020"}, "type": "Feature"}
{"dataset_attributes": {"@spider": "usps_collection_boxes", "spider:collection_time": "2023-09-25T08:26:09.915926"}, "geometry": {"coordinates": [-89.361387527, 40.146092402], "type": "Point"}, "id": "8Z5hXu-UuCxbqaQiXaFmClOb3LQ=", "properties": {"@spider": "usps_collection_boxes", "addr:city": "LINCOLN", "addr:country": "US", "addr:full": "700 BROADWAY ST", "addr:postcode": "62656", "addr:state": "IL", "amenity": "post_box", "brand": "United States Postal Service", "brand:wikidata": "Q668687", "collection_times": "Mo-Fr 16:30; Sa 12:00", "name": "USPS COLLECTION BOX - PO LOBBY", "note": "ON 12/24 AND 12/31, THIS BOX MAY BE COLLECTED AS EARLY AS 12 NOON.", "nsi_id": "unitedstatespostalservice-a77078", "operator": "United States Postal Service", "operator:short": "USPS", "operator:type": "public", "operator:wikidata": "Q668687", "ref": "6265600021"}, "type": "Feature"}
{"dataset_attributes": {"@spider": "usps_collection_boxes", "spider:collection_time": "2023-09-25T08:26:09.915926"}, "geometry": {"coordinates": [-89.846789, 39.675044], "type": "Point"}, "id": "bT1AcfV79TrZi3Y2Vmvncel3TKY=", "properties": {"@spider": "usps_collection_boxes", "addr:city": "LOAMI", "addr:country": "US", "addr:full": "100 CHURCH ST", "addr:postcode": "62661", "addr:state": "IL", "amenity": "post_box", "brand": "United States Postal Service", "brand:wikidata": "Q668687", "collection_times": "Mo-Fr 15:15; Sa 10:00", "name": "USPS COLLECTION BOX - BLUE BOX", "note": "ON 12/24 AND 12/31, THIS BOX MAY BE COLLECTED AS EARLY AS 12 NOON.", "nsi_id": "unitedstatespostalservice-a77078", "operator": "United States Postal Service", "operator:short": "USPS", "operator:type": "public", "operator:wikidata": "Q668687", "ref": "6266100001"}, "type": "Feature"}
{"dataset_attributes": {"@spider": "usps_collection_boxes", "spider:collection_time": "2023-09-25T08:26:09.915926"}, "geometry": {"coordinates": [-89.846789, 39.675044], "type": "Point"}, "id": "fi2FK8Qxd90z00W5D5eAA06cqVI=", "properties": {"@spider": "usps_collection_boxes", "addr:city": "LOAMI", "addr:country": "US", "addr:full": "100 CHURCH ST", "addr:postcode": "62661", "addr:state": "IL", "amenity": "post_box", "brand": "United States Postal Service", "brand:wikidata": "Q668687", "collection_times": "Mo-Fr 15:15; Sa 10:00", "name": "USPS COLLECTION BOX - PO LOBBY", "note": "ON 12/24 AND 12/31, THIS BOX MAY BE COLLECTED AS EARLY AS 12 NOON.", "nsi_id": "unitedstatespostalservice-a77078", "operator": "United States Postal Service", "operator:short": "USPS", "operator:type": "public", "operator:wikidata": "Q668687", "ref": "6266100002"}, "type": "Feature"}
{"dataset_attributes": {"@spider": "usps_collection_boxes", "spider:collection_time": "2023-09-25T08:26:09.915926"}, "geometry": {"coordinates": [-89.846604671, 39.674994518], "type": "Point"}, "id": "tY-zgCv5SurW4lNDvHZWxhOknrE=", "properties": {"@spider": "usps_collection_boxes", "addr:city": "LOAMI", "addr:country": "US", "addr:full": "100 CHURCH ST", "addr:postcode": "62661", "addr:state": "IL", "amenity": "post_box", "brand": "United States Postal Service", "brand:wikidata": "Q668687", "collection_times": "Mo-Fr 15:15; Sa 10:00", "name": "USPS COLLECTION BOX - PO LOBBY", "note": "ON 12/24 AND 12/31, THIS BOX MAY BE COLLECTED AS EARLY AS 12 NOON.", "nsi_id": "unitedstatespostalservice-a77078", "operator": "United States Postal Service", "operator:short": "USPS", "operator:type": "public", "operator:wikidata": "Q668687", "ref": "6266100003"}, "type": "Feature"}
{"dataset_attributes": {"@spider": "usps_collection_boxes", "spider:collection_time": "2023-09-25T08:26:09.915926"}, "geometry": {"coordinates": [-90.332249, 39.540756], "type": "Point"}, "id": "HrJrpCiG13txrSCfXGYCZDhNwME=", "properties": {"@spider": "usps_collection_boxes", "addr:city": "MANCHESTER", "addr:country": "US", "addr:full": "308 MAIN ST", "addr:postcode": "62663", "addr:state": "IL", "amenity": "post_box", "brand": "United States Postal Service", "brand:wikidata": "Q668687", "collection_times": "Mo-Fr 15:45; Sa 09:30", "name": "USPS COLLECTION BOX - BLUE BOX", "note": "ON 12/24 AND 12/31, THIS BOX MAY BE COLLECTED AS EARLY AS 12 NOON.", "nsi_id": "unitedstatespostalservice-a77078", "operator": "United States Postal Service", "operator:short": "USPS", "operator:type": "public", "operator:wikidata": "Q668687", "ref": "6266300000"}, "type": "Feature"}
{"dataset_attributes": {"@spider": "usps_collection_boxes", "spider:collection_time": "2023-09-25T08:26:09.915926"}, "geometry": {"coordinates": [-90.332327, 39.540703], "type": "Point"}, "id": "1KOBEfX-drktbPcOpjrEbfBZLHk=", "properties": {"@spider": "usps_collection_boxes", "addr:city": "MANCHESTER", "addr:country": "US", "addr:full": "308 MAIN ST", "addr:postcode": "62663", "addr:state": "IL", "amenity": "post_box", "brand": "United States Postal Service", "brand:wikidata": "Q668687", "collection_times": "Mo-Fr 15:45; Sa 09:30", "name": "USPS COLLECTION BOX - PO LOBBY", "note": "ON 12/24 AND 12/31, THIS BOX MAY BE COLLECTED AS EARLY AS 12 NOON.", "nsi_id": "unitedstatespostalservice-a77078", "operator": "United States Postal Service", "operator:short": "USPS", "operator:type": "public", "operator:wikidata": "Q668687", "ref": "6266300001"}, "type": "Feature"}
{"dataset_attributes": {"@spider": "usps_collection_boxes", "spider:collection_time": "2023-09-25T08:26:09.915926"}, "geometry": {"coordinates": [-90.332246944, 39.540703624], "type": "Point"}, "id": "3IsADOzHPdXyhxyks2EX3QSY4RM=", "properties": {"@spider": "usps_collection_boxes", "addr:city": "MANCHESTER", "addr:country": "US", "addr:full": "308 MAIN ST", "addr:postcode": "62663", "addr:state": "IL", "amenity": "post_box", "brand": "United States Postal Service", "brand:wikidata": "Q668687", "collection_times": "Mo-Fr 15:45; Sa 09:30", "name": "USPS COLLECTION BOX - PO LOBBY", "note": "ON 12/24 AND 12/31, THIS BOX MAY BE COLLECTED AS EARLY AS 12 NOON.", "nsi_id": "unitedstatespostalservice-a77078", "operator": "United States Postal Service", "operator:short": "USPS", "operator:type": "public", "operator:wikidata": "Q668687", "ref": "6266300002"}, "type": "Feature"}
{"dataset_attributes": {"@spider": "usps_collection_boxes", "spider:collection_time": "2023-09-25T08:26:09.915926"}, "geometry": {"coordinates": [-89.698589, 40.202314], "type": "Point"}, "id": "1YweSfUJVht4qzeolz-HjEUr6lA=", "properties": {"@spider": "usps_collection_boxes", "addr:city": "MASON CITY", "addr:country": "US", "addr:full": "155 W CHESTNUT ST", "addr:postcode": "62664", "addr:state": "IL", "amenity": "post_box", "brand": "United States Postal Service", "brand:wikidata": "Q668687", "collection_times": "Mo-Fr 15:45; Sa 10:45", "name": "USPS COLLECTION BOX - BLUE BOX", "note": "ON 12/24 AND 12/31, THIS BOX MAY BE COLLECTED AS EARLY AS 12 NOON.", "nsi_id": "unitedstatespostalservice-a77078", "operator": "United States Postal Service", "operator:short": "USPS", "operator:type": "public", "operator:wikidata": "Q668687", "ref": "6266400001"}, "type": "Feature"}
{"dataset_attributes": {"@spider": "usps_collection_boxes", "spider:collection_time": "2023-09-25T08:26:09.915926"}, "geometry": {"coordinates": [-89.698602, 40.202341], "type": "Point"}, "id": "gYCg9bF73PUHEOWcH0HoDpkuoDY=", "properties": {"@spider": "usps_collection_boxes", "addr:city": "MASON CITY", "addr:country": "US", "addr:full": "155 W CHESTNUT ST", "addr:postcode": "62664", "addr:state": "IL", "amenity": "post_box", "brand": "United States Postal Service", "brand:wikidata": "Q668687", "collection_times": "Mo-Fr 15:45; Sa 10:45", "name": "USPS COLLECTION BOX - PO LOBBY", "note": "ON 12/24 AND 12/31, THIS BOX MAY BE COLLECTED AS EARLY AS 12 NOON.", "nsi_id": "unitedstatespostalservice-a77078", "operator": "United States Postal Service", "operator:short": "USPS", "operator:type": "public", "operator:wikidata": "Q668687", "ref": "6266400004"}, "type": "Feature"}
{"dataset_attributes": {"@spider": "usps_collection_boxes", "spider:collection_time": "2023-09-25T08:26:09.915926"}, "geometry": {"coordinates": [-89.698932555, 40.202300474], "type": "Point"}, "id": "G1USGZSym_SOKbUXXTZzCqqGdLU=", "properties": {"@spider": "usps_collection_boxes", "addr:city": "MASON CITY", "addr:country": "US", "addr:full": "155 W CHESTNUT ST", "addr:postcode": "62664", "addr:state": "IL", "amenity": "post_box", "brand": "United States Postal Service", "brand:wikidata": "Q668687", "collection_times": "Mo-Fr 15:45; Sa 10:45", "name": "USPS COLLECTION BOX - PO LOBBY", "note": "ON 12/24 AND 12/31, THIS BOX MAY BE COLLECTED AS EARLY AS 12 NOON.", "nsi_id": "unitedstatespostalservice-a77078", "operator": "United States Postal Service", "operator:short": "USPS", "operator:type": "public", "operator:wikidata": "Q668687", "ref": "6266400005"}, "type": "Feature"}
{"dataset_attributes": {"@spider": "usps_collection_boxes", "spider:collection_time": "2023-09-25T08:26:09.915926"}, "geometry": {"coordinates": [-90.561371, 39.830198], "type": "Point"}, "id": "25s81Z3HSegWzE85wn8lfHofv0o=", "properties": {"@spider": "usps_collection_boxes", "addr:city": "MEREDOSIA", "addr:country": "US", "addr:full": "113 S WASHINGTON ST", "addr:postcode": "62665", "addr:state": "IL", "amenity": "post_box", "brand": "United States Postal Service", "brand:wikidata": "Q668687", "collection_times": "Mo-Fr 14:45; Sa 09:30", "name": "USPS COLLECTION BOX - BLUE BOX", "note": "ON 12/24 AND 12/31, THIS BOX MAY BE COLLECTED AS EARLY AS 12 NOON.", "nsi_id": "unitedstatespostalservice-a77078", "operator": "United States Postal Service", "operator:short": "USPS", "operator:type": "public", "operator:wikidata": "Q668687", "ref": "6266500001"}, "type": "Feature"}
{"dataset_attributes": {"@spider": "usps_collection_boxes", "spider:collection_time": "2023-09-25T08:26:09.915926"}, "geometry": {"coordinates": [-90.561337, 39.830284], "type": "Point"}, "id": "nzbo-Kjwd6Qz-BOcFt3nh3hkcLU=", "properties": {"@spider": "usps_collection_boxes", "addr:city": "MEREDOSIA", "addr:country": "US", "addr:full": "113 S WASHINGTON ST", "addr:postcode": "62665", "addr:state": "IL", "amenity": "post_box", "brand": "United States Postal Service", "brand:wikidata": "Q668687", "collection_times": "Mo-Fr 14:45; Sa 09:30", "name": "USPS COLLECTION BOX - PO LOBBY", "note": "ON 12/24 AND 12/31, THIS BOX MAY BE COLLECTED AS EARLY AS 12 NOON.", "nsi_id": "unitedstatespostalservice-a77078", "operator": "United States Postal Service", "operator:short": "USPS", "operator:type": "public", "operator:wikidata": "Q668687", "ref": "6266500002"}, "type": "Feature"}
{"dataset_attributes": {"@spider": "usps_collection_boxes", "spider:collection_time": "2023-09-25T08:26:09.915926"}, "geometry": {"coordinates": [-90.561376302, 39.830147749], "type": "Point"}, "id": "RqTFwl-xcG9SW4FQigm3-j-da38=", "properties": {"@spider": "usps_collection_boxes", "addr:city": "MEREDOSIA", "addr:country": "US", "addr:full": "113 S WASHINGTON ST", "addr:postcode": "62665", "addr:state": "IL", "amenity": "post_box", "brand": "United States Postal Service", "brand:wikidata": "Q668687", "collection_times": "Mo-Fr 14:45; Sa 09:30", "name": "USPS COLLECTION BOX - PO LOBBY", "note": "ON 12/24 AND 12/31, THIS BOX MAY BE COLLECTED AS EARLY AS 12 NOON.", "nsi_id": "unitedstatespostalservice-a77078", "operator": "United States Postal Service", "operator:short": "USPS", "operator:type": "public", "operator:wikidata": "Q668687", "ref": "6266500003"}, "type": "Feature"}
{"dataset_attributes": {"@spider": "usps_collection_boxes", "spider:collection_time": "2023-09-25T08:26:09.915926"}, "geometry": {"coordinates": [-89.590089, 40.099588], "type": "Point"}, "id": "G-kcXSAIF5_3gBpY9Vp9Kzk2gD4=", "properties": {"@spider": "usps_collection_boxes", "addr:city": "MIDDLETOWN", "addr:country": "US", "addr:full": "407 5TH ST", "addr:postcode": "62666", "addr:state": "IL", "amenity": "post_box", "brand": "United States Postal Service", "brand:wikidata": "Q668687", "collection_times": "Mo-Fr 14:45; Sa 12:30", "name": "USPS COLLECTION BOX - BLUE BOX", "note": "ON 12/24 AND 12/31, THIS BOX MAY BE COLLECTED AS EARLY AS 12 NOON.", "nsi_id": "unitedstatespostalservice-a77078", "operator": "United States Postal Service", "operator:short": "USPS", "operator:type": "public", "operator:wikidata": "Q668687", "ref": "6266600000"}, "type": "Feature"}
{"dataset_attributes": {"@spider": "usps_collection_boxes", "spider:collection_time": "2023-09-25T08:26:09.915926"}, "geometry": {"coordinates": [-89.5908156, 40.099373], "type": "Point"}, "id": "EqwJ103ei1iZrL3eM7yPfnTpUBo=", "properties": {"@spider": "usps_collection_boxes", "addr:city": "MIDDLETOWN", "addr:country": "US", "addr:full": "407 5TH ST", "addr:postcode": "62666", "addr:state": "IL", "amenity": "post_box", "brand": "United States Postal Service", "brand:wikidata": "Q668687", "collection_times": "Mo-Fr 14:45; Sa 12:30", "name": "USPS COLLECTION BOX - PO LOBBY", "note": "ON 12/24 AND 12/31, THIS BOX MAY BE COLLECTED AS EARLY AS 12 NOON.", "nsi_id": "unitedstatespostalservice-a77078", "operator": "United States Postal Service", "operator:short": "USPS", "operator:type": "public", "operator:wikidata": "Q668687", "ref": "6266600001"}, "type": "Feature"}
{"dataset_attributes": {"@spider": "usps_collection_boxes", "spider:collection_time": "2023-09-25T08:26:09.915926"}, "geometry": {"coordinates": [-89.590662168, 40.099588514], "type": "Point"}, "id": "_6Z-58D3Xz3P-Zz3Nr5Uy9X2u70=", "properties": {"@spider": "usps_collection_boxes", "addr:city": "MIDDLETOWN", "addr:country": "US", "addr:full": "407 5TH ST", "addr:postcode": "62666", "addr:state": "IL", "amenity": "post_box", "brand": "United States Postal Service", "brand:wikidata": "Q668687", "collection_times": "Mo-Fr 14:45; Sa 12:30", "name": "USPS COLLECTION BOX - PO LOBBY", "note": "ON 12/24 AND 12/31, THIS BOX MAY BE COLLECTED AS EARLY AS 12 NOON.", "nsi_id": "unitedstatespostalservice-a77078", "operator": "United States Postal Service", "operator:short": "USPS", "operator:type": "public", "operator:wikidata": "Q668687", "ref": "6266600002"}, "type": "Feature"}
{"dataset_attributes": {"@spider": "usps_collection_boxes", "spider:collection_time": "2023-09-25T08:26:09.915926"}, "geometry": {"coordinates": [-89.982068, 39.478127], "type": "Point"}, "id": "wqKTWvDTtzASZsLyRJ5lP2XhoSY=", "properties": {"@spider": "usps_collection_boxes", "addr:city": "MODESTO", "addr:country": "US", "addr:full": "108 S MAIN ST", "addr:postcode": "62667", "addr:state": "IL", "amenity": "post_box", "brand": "United States Postal Service", "brand:wikidata": "Q668687", "collection_times": "Mo-Fr 11:45; Sa 10:00", "name": "USPS COLLECTION BOX - BLUE BOX", "nsi_id": "unitedstatespostalservice-a77078", "operator": "United States Postal Service", "operator:short": "USPS", "operator:type": "public", "operator:wikidata": "Q668687", "ref": "6266700000"}, "type": "Feature"}
{"dataset_attributes": {"@spider": "usps_collection_boxes", "spider:collection_time": "2023-09-25T08:26:09.915926"}, "geometry": {"coordinates": [-89.982068, 39.478127], "type": "Point"}, "id": "CjZ4RfbtKdSw9pnMC9E3QLutnrk=", "properties": {"@spider": "usps_collection_boxes", "addr:city": "MODESTO", "addr:country": "US", "addr:full": "108 S MAIN ST", "addr:postcode": "62667", "addr:state": "IL", "amenity": "post_box", "brand": "United States Postal Service", "brand:wikidata": "Q668687", "collection_times": "Mo-Fr 11:45; Sa 10:00", "name": "USPS COLLECTION BOX - PO LOBBY", "nsi_id": "unitedstatespostalservice-a77078", "operator": "United States Postal Service", "operator:short": "USPS", "operator:type": "public", "operator:wikidata": "Q668687", "ref": "6266700001"}, "type": "Feature"}
{"dataset_attributes": {"@spider": "usps_collection_boxes", "spider:collection_time": "2023-09-25T08:26:09.915926"}, "geometry": {"coordinates": [-89.982106065, 39.477779581], "type": "Point"}, "id": "ioOT_1ssuoVKAyrNnJAQ20VUAN4=", "properties": {"@spider": "usps_collection_boxes", "addr:city": "MODESTO", "addr:country": "US", "addr:full": "108 S MAIN ST", "addr:postcode": "62667", "addr:state": "IL", "amenity": "post_box", "brand": "United States Postal Service", "brand:wikidata": "Q668687", "collection_times": "Mo-Fr 11:45; Sa 10:00", "name": "USPS COLLECTION BOX - PO LOBBY", "nsi_id": "unitedstatespostalservice-a77078", "operator": "United States Postal Service", "operator:short": "USPS", "operator:type": "public", "operator:wikidata": "Q668687", "ref": "6266700002"}, "type": "Feature"}
{"dataset_attributes": {"@spider": "usps_collection_boxes", "spider:collection_time": "2023-09-25T08:26:09.915926"}, "geometry": {"coordinates": [-90.251113, 39.585606], "type": "Point"}, "id": "RI8UwVopbevT2tHsKTuzIDiIM0k=", "properties": {"@spider": "usps_collection_boxes", "addr:city": "MURRAYVILLE", "addr:country": "US", "addr:full": "105 CHURCH ST", "addr:postcode": "62668", "addr:state": "IL", "amenity": "post_box", "brand": "United States Postal Service", "brand:wikidata": "Q668687", "collection_times": "Mo-Fr 11:30; Sa 09:15", "name": "USPS COLLECTION BOX - BLUE BOX", "nsi_id": "unitedstatespostalservice-a77078", "operator": "United States Postal Service", "operator:short": "USPS", "operator:type": "public", "operator:wikidata": "Q668687", "ref": "6266800001"}, "type": "Feature"}
{"dataset_attributes": {"@spider": "usps_collection_boxes", "spider:collection_time": "2023-09-25T08:26:09.915926"}, "geometry": {"coordinates": [-90.251113, 39.585606], "type": "Point"}, "id": "TCh4Oox6lbR7vKfem64kWps0baw=", "properties": {"@spider": "usps_collection_boxes", "addr:city": "MURRAYVILLE", "addr:country": "US", "addr:full": "105 CHURCH ST", "addr:postcode": "62668", "addr:state": "IL", "amenity": "post_box", "brand": "United States Postal Service", "brand:wikidata": "Q668687", "collection_times": "Mo-Fr 11:30; Sa 10:15", "name": "USPS COLLECTION BOX - PO LOBBY", "nsi_id": "unitedstatespostalservice-a77078", "operator": "United States Postal Service", "operator:short": "USPS", "operator:type": "public", "operator:wikidata": "Q668687", "ref": "6266800002"}, "type": "Feature"}
{"dataset_attributes": {"@spider": "usps_collection_boxes", "spider:collection_time": "2023-09-25T08:26:09.915926"}, "geometry": {"coordinates": [-90.251254117, 39.585664347], "type": "Point"}, "id": "vxggtIxybpPlxdg84TcbLoklT4I=", "properties": {"@spider": "usps_collection_boxes", "addr:city": "MURRAYVILLE", "addr:country": "US", "addr:full": "105 CHURCH ST", "addr:postcode": "62668", "addr:state": "IL", "amenity": "post_box", "brand": "United States Postal Service", "brand:wikidata": "Q668687", "collection_times": "Mo-Fr 11:30; Sa 10:15", "name": "USPS COLLECTION BOX - PO LOBBY", "nsi_id": "unitedstatespostalservice-a77078", "operator": "United States Postal Service", "operator:short": "USPS", "operator:type": "public", "operator:wikidata": "Q668687", "ref": "6266800003"}, "type": "Feature"}
{"dataset_attributes": {"@spider": "usps_collection_boxes", "spider:collection_time": "2023-09-25T08:26:09.915926"}, "geometry": {"coordinates": [-89.912089, 39.724839], "type": "Point"}, "id": "5kwuUZyTGDw_nB2wjx0-rheyTYc=", "properties": {"@spider": "usps_collection_boxes", "addr:city": "NEW BERLIN", "addr:country": "US", "addr:full": "102 E ILLINOIS ST", "addr:postcode": "62670", "addr:state": "IL", "amenity": "post_box", "brand": "United States Postal Service", "brand:wikidata": "Q668687", "collection_times": "Mo-Fr 16:00; Sa 11:00", "name": "USPS COLLECTION BOX - BLUE BOX", "note": "ON 12/24 AND 12/31, THIS BOX MAY BE COLLECTED AS EARLY AS 12 NOON.", "nsi_id": "unitedstatespostalservice-a77078", "operator": "United States Postal Service", "operator:short": "USPS", "operator:type": "public", "operator:wikidata": "Q668687", "ref": "6267000001"}, "type": "Feature"}
{"dataset_attributes": {"@spider": "usps_collection_boxes", "spider:collection_time": "2023-09-25T08:26:09.915926"}, "geometry": {"coordinates": [-89.912201, 39.72481], "type": "Point"}, "id": "XxZ-ISE_ZfTPlPg_pnP8G5GPHXU=", "properties": {"@spider": "usps_collection_boxes", "addr:city": "NEW BERLIN", "addr:country": "US", "addr:full": "102 E ILLINOIS ST", "addr:postcode": "62670", "addr:state": "IL", "amenity": "post_box", "brand": "United States Postal Service", "brand:wikidata": "Q668687", "collection_times": "Mo-Fr 16:00; Sa 11:00", "name": "USPS COLLECTION BOX - PO LOBBY", "note": "ON 12/24 AND 12/31, THIS BOX MAY BE COLLECTED AS EARLY AS 12 NOON.", "nsi_id": "unitedstatespostalservice-a77078", "operator": "United States Postal Service", "operator:short": "USPS", "operator:type": "public", "operator:wikidata": "Q668687", "ref": "6267000002"}, "type": "Feature"}
{"dataset_attributes": {"@spider": "usps_collection_boxes", "spider:collection_time": "2023-09-25T08:26:09.915926"}, "geometry": {"coordinates": [-89.911831751, 39.724834493], "type": "Point"}, "id": "R1r2XbJphevOH70KS4S__utq_9g=", "properties": {"@spider": "usps_collection_boxes", "addr:city": "NEW BERLIN", "addr:country": "US", "addr:full": "102 E ILLINOIS ST", "addr:postcode": "62670", "addr:state": "IL", "amenity": "post_box", "brand": "United States Postal Service", "brand:wikidata": "Q668687", "collection_times": "Mo-Fr 16:00; Sa 11:00", "name": "USPS COLLECTION BOX - PO LOBBY", "note": "ON 12/24 AND 12/31, THIS BOX MAY BE COLLECTED AS EARLY AS 12 NOON.", "nsi_id": "unitedstatespostalservice-a77078", "operator": "United States Postal Service", "operator:short": "USPS", "operator:type": "public", "operator:wikidata": "Q668687", "ref": "6267000003"}, "type": "Feature"}
{"dataset_attributes": {"@spider": "usps_collection_boxes", "spider:collection_time": "2023-09-25T08:26:09.915926"}, "geometry": {"coordinates": [-89.5812150136, 40.1838030062], "type": "Point"}, "id": "toBU1ar2f6IegN-dNOkwNiMCjyI=", "properties": {"@spider": "usps_collection_boxes", "addr:city": "NEW HOLLAND", "addr:country": "US", "addr:full": "104 W LINCOLN ST", "addr:postcode": "62671", "addr:state": "IL", "amenity": "post_box", "brand": "United States Postal Service", "brand:wikidata": "Q668687", "collection_times": "Mo-Fr 11:45; Sa 09:45", "name": "USPS COLLECTION BOX - BLUE BOX", "nsi_id": "unitedstatespostalservice-a77078", "operator": "United States Postal Service", "operator:short": "USPS", "operator:type": "public", "operator:wikidata": "Q668687", "ref": "6267100000"}, "type": "Feature"}
{"dataset_attributes": {"@spider": "usps_collection_boxes", "spider:collection_time": "2023-09-25T08:26:09.915926"}, "geometry": {"coordinates": [-89.580449, 40.183961], "type": "Point"}, "id": "o2iVebgkrsp6RorACTOibKiQzoE=", "properties": {"@spider": "usps_collection_boxes", "addr:city": "NEW HOLLAND", "addr:country": "US", "addr:full": "104 W LINCOLN ST", "addr:postcode": "62671", "addr:state": "IL", "amenity": "post_box", "brand": "United States Postal Service", "brand:wikidata": "Q668687", "collection_times": "Mo-Fr 11:45; Sa 09:45", "name": "USPS COLLECTION BOX - PO LOBBY", "nsi_id": "unitedstatespostalservice-a77078", "operator": "United States Postal Service", "operator:short": "USPS", "operator:type": "public", "operator:wikidata": "Q668687", "ref": "6267100001"}, "type": "Feature"}
{"dataset_attributes": {"@spider": "usps_collection_boxes", "spider:collection_time": "2023-09-25T08:26:09.915926"}, "geometry": {"coordinates": [-89.581211665, 40.183915507], "type": "Point"}, "id": "OvW3g-aRz6bAAdSdtK8CKWehkSg=", "properties": {"@spider": "usps_collection_boxes", "addr:city": "NEW HOLLAND", "addr:country": "US", "addr:full": "104 W LINCOLN ST", "addr:postcode": "62671", "addr:state": "IL", "amenity": "post_box", "brand": "United States Postal Service", "brand:wikidata": "Q668687", "collection_times": "Mo-Fr 11:45; Sa 09:45", "name": "USPS COLLECTION BOX - PO LOBBY", "nsi_id": "unitedstatespostalservice-a77078", "operator": "United States Postal Service", "operator:short": "USPS", "operator:type": "public", "operator:wikidata": "Q668687", "ref": "6267100002"}, "type": "Feature"}
{"dataset_attributes": {"@spider": "usps_collection_boxes", "spider:collection_time": "2023-09-25T08:26:09.915926"}, "geometry": {"coordinates": [-89.808175, 39.398093], "type": "Point"}, "id": "bMAIt_r-NFLcMqb-FCwtiPF6sMI=", "properties": {"@spider": "usps_collection_boxes", "addr:city": "NILWOOD", "addr:country": "US", "addr:full": "31 MOREAN ST", "addr:postcode": "62672", "addr:state": "IL", "amenity": "post_box", "brand": "United States Postal Service", "brand:wikidata": "Q668687", "collection_times": "Mo-Fr 16:00; Sa 13:30", "name": "USPS COLLECTION BOX - PO LOBBY", "note": "ON 12/24 AND 12/31, THIS BOX MAY BE COLLECTED AS EARLY AS 12 NOON.", "nsi_id": "unitedstatespostalservice-a77078", "operator": "United States Postal Service", "operator:short": "USPS", "operator:type": "public", "operator:wikidata": "Q668687", "ref": "6267200000"}, "type": "Feature"}
{"dataset_attributes": {"@spider": "usps_collection_boxes", "spider:collection_time": "2023-09-25T08:26:09.915926"}, "geometry": {"coordinates": [-89.808158, 39.398117], "type": "Point"}, "id": "fPYJEgFJXo2mSBNPZ-GAmQZPrVI=", "properties": {"@spider": "usps_collection_boxes", "addr:city": "NILWOOD", "addr:country": "US", "addr:full": "31 MOREAN ST", "addr:postcode": "62672", "addr:state": "IL", "amenity": "post_box", "brand": "United States Postal Service", "brand:wikidata": "Q668687", "collection_times": "Mo-Fr 16:00; Sa 13:30", "name": "USPS COLLECTION BOX - BLUE BOX", "note": "ON 12/24 AND 12/31, THIS BOX MAY BE COLLECTED AS EARLY AS 12 NOON.", "nsi_id": "unitedstatespostalservice-a77078", "operator": "United States Postal Service", "operator:short": "USPS", "operator:type": "public", "operator:wikidata": "Q668687", "ref": "6267200001"}, "type": "Feature"}
{"dataset_attributes": {"@spider": "usps_collection_boxes", "spider:collection_time": "2023-09-25T08:26:09.915926"}, "geometry": {"coordinates": [-89.808630893, 39.398276841], "type": "Point"}, "id": "nDcNeVBJbogzXpqrDVjirqsLi9I=", "properties": {"@spider": "usps_collection_boxes", "addr:city": "NILWOOD", "addr:country": "US", "addr:full": "31 MOREAN ST", "addr:postcode": "62672", "addr:state": "IL", "amenity": "post_box", "brand": "United States Postal Service", "brand:wikidata": "Q668687", "collection_times": "Mo-Fr 16:00; Sa 13:30", "name": "USPS COLLECTION BOX - PO LOBBY", "note": "ON 12/24 AND 12/31, THIS BOX MAY BE COLLECTED AS EARLY AS 12 NOON.", "nsi_id": "unitedstatespostalservice-a77078", "operator": "United States Postal Service", "operator:short": "USPS", "operator:type": "public", "operator:wikidata": "Q668687", "ref": "6267200002"}, "type": "Feature"}
{"dataset_attributes": {"@spider": "usps_collection_boxes", "spider:collection_time": "2023-09-25T08:26:09.915926"}, "geometry": {"coordinates": [-89.965886, 40.10337], "type": "Point"}, "id": "I_BSgTSmvRYTog5g-Aeg3Earjlc=", "properties": {"@spider": "usps_collection_boxes", "addr:city": "OAKFORD", "addr:country": "US", "addr:full": "105 S WHITLEY ST", "addr:postcode": "62673", "addr:state": "IL", "amenity": "post_box", "brand": "United States Postal Service", "brand:wikidata": "Q668687", "collection_times": "Mo-Fr 15:30; Sa 10:30", "name": "USPS COLLECTION BOX - BLUE BOX", "note": "ON 12/24 AND 12/31, THIS BOX MAY BE COLLECTED AS EARLY AS 12 NOON.", "nsi_id": "unitedstatespostalservice-a77078", "operator": "United States Postal Service", "operator:short": "USPS", "operator:type": "public", "operator:wikidata": "Q668687", "ref": "6267300001"}, "type": "Feature"}
{"dataset_attributes": {"@spider": "usps_collection_boxes", "spider:collection_time": "2023-09-25T08:26:09.915926"}, "geometry": {"coordinates": [-89.96599, 40.103361], "type": "Point"}, "id": "jkHhgb6txG3sPZnYdLdTbvS68GA=", "properties": {"@spider": "usps_collection_boxes", "addr:city": "OAKFORD", "addr:country": "US", "addr:full": "105 S WHITLEY ST", "addr:postcode": "62673", "addr:state": "IL", "amenity": "post_box", "brand": "United States Postal Service", "brand:wikidata": "Q668687", "collection_times": "Mo-Fr 15:15; Sa 10:15", "name": "USPS COLLECTION BOX - PO LOBBY", "note": "ON 12/24 AND 12/31, THIS BOX MAY BE COLLECTED AS EARLY AS 12 NOON.", "nsi_id": "unitedstatespostalservice-a77078", "operator": "United States Postal Service", "operator:short": "USPS", "operator:type": "public", "operator:wikidata": "Q668687", "ref": "6267300002"}, "type": "Feature"}
{"dataset_attributes": {"@spider": "usps_collection_boxes", "spider:collection_time": "2023-09-25T08:26:09.915926"}, "geometry": {"coordinates": [-89.965917993, 40.103405934], "type": "Point"}, "id": "aHkNyQUnYcySBe6pfI_B-6UevF8=", "properties": {"@spider": "usps_collection_boxes", "addr:city": "OAKFORD", "addr:country": "US", "addr:full": "105 S WHITLEY ST", "addr:postcode": "62673", "addr:state": "IL", "amenity": "post_box", "brand": "United States Postal Service", "brand:wikidata": "Q668687", "collection_times": "Mo-Fr 15:15; Sa 10:15", "name": "USPS COLLECTION BOX - PO LOBBY", "note": "ON 12/24 AND 12/31, THIS BOX MAY BE COLLECTED AS EARLY AS 12 NOON.", "nsi_id": "unitedstatespostalservice-a77078", "operator": "United States Postal Service", "operator:short": "USPS", "operator:type": "public", "operator:wikidata": "Q668687", "ref": "6267300003"}, "type": "Feature"}
{"dataset_attributes": {"@spider": "usps_collection_boxes", "spider:collection_time": "2023-09-25T08:26:09.915926"}, "geometry": {"coordinates": [-89.995684, 39.43413], "type": "Point"}, "id": "Jtd5gUXfCnebQsppkDV6ZeFRLBk=", "properties": {"@spider": "usps_collection_boxes", "addr:city": "PALMYRA", "addr:country": "US", "addr:full": "130 S MAIN ST", "addr:postcode": "62674", "addr:state": "IL", "amenity": "post_box", "brand": "United States Postal Service", "brand:wikidata": "Q668687", "collection_times": "Mo-Fr 11:45; Sa 10:15", "name": "USPS COLLECTION BOX - BLUE BOX", "nsi_id": "unitedstatespostalservice-a77078", "operator": "United States Postal Service", "operator:short": "USPS", "operator:type": "public", "operator:wikidata": "Q668687", "ref": "6267400001"}, "type": "Feature"}
{"dataset_attributes": {"@spider": "usps_collection_boxes", "spider:collection_time": "2023-09-25T08:26:09.915926"}, "geometry": {"coordinates": [-89.995684, 39.43413], "type": "Point"}, "id": "_Ti7zSe1wUU2FoHhDHK6xtMJGk0=", "properties": {"@spider": "usps_collection_boxes", "addr:city": "PALMYRA", "addr:country": "US", "addr:full": "130 S MAIN ST", "addr:postcode": "62674", "addr:state": "IL", "amenity": "post_box", "brand": "United States Postal Service", "brand:wikidata": "Q668687", "collection_times": "Mo-Fr 11:45; Sa 10:15", "name": "USPS COLLECTION BOX - PO LOBBY", "nsi_id": "unitedstatespostalservice-a77078", "operator": "United States Postal Service", "operator:short": "USPS", "operator:type": "public", "operator:wikidata": "Q668687", "ref": "6267400002"}, "type": "Feature"}
{"dataset_attributes": {"@spider": "usps_collection_boxes", "spider:collection_time": "2023-09-25T08:26:09.915926"}, "geometry": {"coordinates": [-89.99574025, 39.434095573], "type": "Point"}, "id": "Ot2v64jmbfeL6Y0l85yf1odKwy4=", "properties": {"@spider": "usps_collection_boxes", "addr:city": "PALMYRA", "addr:country": "US", "addr:full": "130 S MAIN ST", "addr:postcode": "62674", "addr:state": "IL", "amenity": "post_box", "brand": "United States Postal Service", "brand:wikidata": "Q668687", "collection_times": "Mo-Fr 11:45; Sa 10:15", "name": "USPS COLLECTION BOX - PO LOBBY", "nsi_id": "unitedstatespostalservice-a77078", "operator": "United States Postal Service", "operator:short": "USPS", "operator:type": "public", "operator:wikidata": "Q668687", "ref": "6267400003"}, "type": "Feature"}
{"dataset_attributes": {"@spider": "usps_collection_boxes", "spider:collection_time": "2023-09-25T08:26:09.915926"}, "geometry": {"coordinates": [-89.849487, 40.01001], "type": "Point"}, "id": "DiBns4MVloKtMoDYxTdxaCjUUyg=", "properties": {"@spider": "usps_collection_boxes", "addr:city": "PETERSBURG", "addr:country": "US", "addr:full": "220 S 7TH ST", "addr:postcode": "62675", "addr:state": "IL", "amenity": "post_box", "brand": "United States Postal Service", "brand:wikidata": "Q668687", "collection_times": "Mo-Fr 16:30; Sa 12:00", "name": "USPS COLLECTION BOX - BLUE BOX", "note": "ON 12/24 AND 12/31, THIS BOX MAY BE COLLECTED AS EARLY AS 12 NOON.", "nsi_id": "unitedstatespostalservice-a77078", "operator": "United States Postal Service", "operator:short": "USPS", "operator:type": "public", "operator:wikidata": "Q668687", "ref": "6267500001"}, "type": "Feature"}
{"dataset_attributes": {"@spider": "usps_collection_boxes", "spider:collection_time": "2023-09-25T08:26:09.915926"}, "geometry": {"coordinates": [-89.8489168, 40.010253], "type": "Point"}, "id": "FodyuHomsRziO9HwUyWTsvlR9yg=", "properties": {"@spider": "usps_collection_boxes", "addr:city": "PETERSBURG", "addr:country": "US", "addr:full": "118 E JACKSON ST", "addr:postcode": "62675", "addr:state": "IL", "amenity": "post_box", "brand": "United States Postal Service", "brand:wikidata": "Q668687", "collection_times": "Mo-Fr 15:15; Sa 13:00", "name": "USPS COLLECTION BOX - BLUE BOX", "note": "ON 12/24 AND 12/31, THIS BOX MAY BE COLLECTED AS EARLY AS 12 NOON.", "nsi_id": "unitedstatespostalservice-a77078", "operator": "United States Postal Service", "operator:short": "USPS", "operator:type": "public", "operator:wikidata": "Q668687", "ref": "6267500002"}, "type": "Feature"}
{"dataset_attributes": {"@spider": "usps_collection_boxes", "spider:collection_time": "2023-09-25T08:26:09.915926"}, "geometry": {"coordinates": [-89.849524, 40.010062], "type": "Point"}, "id": "oRPTbCj6LCs6ya7Hy3U_0A8GVDk=", "properties": {"@spider": "usps_collection_boxes", "addr:city": "PETERSBURG", "addr:country": "US", "addr:full": "220 S 7TH ST", "addr:postcode": "62675", "addr:state": "IL", "amenity": "post_box", "brand": "United States Postal Service", "brand:wikidata": "Q668687", "collection_times": "Mo-Fr 16:30; Sa 12:00", "name": "USPS COLLECTION BOX - PO LOBBY", "note": "ON 12/24 AND 12/31, THIS BOX MAY BE COLLECTED AS EARLY AS 12 NOON.", "nsi_id": "unitedstatespostalservice-a77078", "operator": "United States Postal Service", "operator:short": "USPS", "operator:type": "public", "operator:wikidata": "Q668687", "ref": "6267500005"}, "type": "Feature"}
{"dataset_attributes": {"@spider": "usps_collection_boxes", "spider:collection_time": "2023-09-25T08:26:09.915926"}, "geometry": {"coordinates": [-89.849465088, 40.010016807], "type": "Point"}, "id": "3I_2Q9hqG69V0CwEU3dUrnil2IU=", "properties": {"@spider": "usps_collection_boxes", "addr:city": "PETERSBURG", "addr:country": "US", "addr:full": "220 S 7TH ST", "addr:postcode": "62675", "addr:state": "IL", "amenity": "post_box", "brand": "United States Postal Service", "brand:wikidata": "Q668687", "collection_times": "Mo-Fr 16:30; Sa 12:00", "name": "USPS COLLECTION BOX - PO LOBBY", "note": "ON 12/24 AND 12/31, THIS BOX MAY BE COLLECTED AS EARLY AS 12 NOON.", "nsi_id": "unitedstatespostalservice-a77078", "operator": "United States Postal Service", "operator:short": "USPS", "operator:type": "public", "operator:wikidata": "Q668687", "ref": "6267500007"}, "type": "Feature"}
{"dataset_attributes": {"@spider": "usps_collection_boxes", "spider:collection_time": "2023-09-25T08:26:09.915926"}, "geometry": {"coordinates": [-89.92048, 39.873913], "type": "Point"}, "id": "0ydaT-XaJcwmYs8c9WwvxEUjwNk=", "properties": {"@spider": "usps_collection_boxes", "addr:city": "PLEASANT PLAINS", "addr:country": "US", "addr:full": "210 N CARTWRIGHT ST", "addr:postcode": "62677", "addr:state": "IL", "amenity": "post_box", "brand": "United States Postal Service", "brand:wikidata": "Q668687", "collection_times": "Mo-Fr 14:45; Sa 09:15", "name": "USPS COLLECTION BOX - BLUE BOX", "note": "ON 12/24 AND 12/31, THIS BOX MAY BE COLLECTED AS EARLY AS 12 NOON.", "nsi_id": "unitedstatespostalservice-a77078", "operator": "United States Postal Service", "operator:short": "USPS", "operator:type": "public", "operator:wikidata": "Q668687", "ref": "6267700001"}, "type": "Feature"}
{"dataset_attributes": {"@spider": "usps_collection_boxes", "spider:collection_time": "2023-09-25T08:26:09.915926"}, "geometry": {"coordinates": [-89.920517, 39.873865], "type": "Point"}, "id": "xhvXd6ZM0mJLvghK3SAOmjPkAmM=", "properties": {"@spider": "usps_collection_boxes", "addr:city": "PLEASANT PLAINS", "addr:country": "US", "addr:full": "210 N CARTWRIGHT ST", "addr:postcode": "62677", "addr:state": "IL", "amenity": "post_box", "brand": "United States Postal Service", "brand:wikidata": "Q668687", "collection_times": "Mo-Fr 14:45; Sa 09:15", "name": "USPS COLLECTION BOX - PO LOBBY", "note": "ON 12/24 AND 12/31, THIS BOX MAY BE COLLECTED AS EARLY AS 12 NOON.", "nsi_id": "unitedstatespostalservice-a77078", "operator": "United States Postal Service", "operator:short": "USPS", "operator:type": "public", "operator:wikidata": "Q668687", "ref": "6267700002"}, "type": "Feature"}
{"dataset_attributes": {"@spider": "usps_collection_boxes", "spider:collection_time": "2023-09-25T08:26:09.915926"}, "geometry": {"coordinates": [-89.920467274, 39.874156156], "type": "Point"}, "id": "9z_hN3rDLwzONXLfCIdjQ2a0aTs=", "properties": {"@spider": "usps_collection_boxes", "addr:city": "PLEASANT PLAINS", "addr:country": "US", "addr:full": "210 N CARTWRIGHT ST", "addr:postcode": "62677", "addr:state": "IL", "amenity": "post_box", "brand": "United States Postal Service", "brand:wikidata": "Q668687", "collection_times": "Mo-Fr 14:45; Sa 09:15", "name": "USPS COLLECTION BOX - PO LOBBY", "note": "ON 12/24 AND 12/31, THIS BOX MAY BE COLLECTED AS EARLY AS 12 NOON.", "nsi_id": "unitedstatespostalservice-a77078", "operator": "United States Postal Service", "operator:short": "USPS", "operator:type": "public", "operator:wikidata": "Q668687", "ref": "6267700003"}, "type": "Feature"}
{"dataset_attributes": {"@spider": "usps_collection_boxes", "spider:collection_time": "2023-09-25T08:26:09.915926"}, "geometry": {"coordinates": [-90.56251, 40.121503], "type": "Point"}, "id": "waOq8ION0pgrVd3P0M48YBuLu60=", "properties": {"@spider": "usps_collection_boxes", "addr:city": "RUSHVILLE", "addr:country": "US", "addr:full": "101 E WASHINGTON ST", "addr:postcode": "62681", "addr:state": "IL", "amenity": "post_box", "brand": "United States Postal Service", "brand:wikidata": "Q668687", "collection_times": "Mo-Fr 16:30; Sa 11:30", "name": "USPS COLLECTION BOX - PO LOBBY", "note": "ON 12/24 AND 12/31, THIS BOX MAY BE COLLECTED AS EARLY AS 12 NOON.", "nsi_id": "unitedstatespostalservice-a77078", "operator": "United States Postal Service", "operator:short": "USPS", "operator:type": "public", "operator:wikidata": "Q668687", "ref": "6268100000"}, "type": "Feature"}
{"dataset_attributes": {"@spider": "usps_collection_boxes", "spider:collection_time": "2023-09-25T08:26:09.915926"}, "geometry": {"coordinates": [-90.5625615, 40.122072], "type": "Point"}, "id": "jYsgn5dcQXn-JRN7Xv9mhE14LvI=", "properties": {"@spider": "usps_collection_boxes", "addr:city": "RUSHVILLE", "addr:country": "US", "addr:full": "220 N LIBERTY ST", "addr:postcode": "62681", "addr:state": "IL", "amenity": "post_box", "brand": "United States Postal Service", "brand:wikidata": "Q668687", "collection_times": "Mo-Fr 16:00; Sa 15:45", "name": "USPS COLLECTION BOX - BLUE BOX", "note": "ON 12/24 AND 12/31, THIS BOX MAY BE COLLECTED AS EARLY AS 12 NOON.", "nsi_id": "unitedstatespostalservice-a77078", "operator": "United States Postal Service", "operator:short": "USPS", "operator:type": "public", "operator:wikidata": "Q668687", "ref": "6268100001"}, "type": "Feature"}
{"dataset_attributes": {"@spider": "usps_collection_boxes", "spider:collection_time": "2023-09-25T08:26:09.915926"}, "geometry": {"coordinates": [-90.5712868, 40.117533], "type": "Point"}, "id": "cWIaloBKMlwHH2mvY0x0FACvgI0=", "properties": {"@spider": "usps_collection_boxes", "addr:city": "RUSHVILLE", "addr:country": "US", "addr:full": "520 W CLINTON ST", "addr:postcode": "62681", "addr:state": "IL", "amenity": "post_box", "brand": "United States Postal Service", "brand:wikidata": "Q668687", "collection_times": "Mo-Sa 11:00", "name": "USPS COLLECTION BOX - BLUE BOX", "nsi_id": "unitedstatespostalservice-a77078", "operator": "United States Postal Service", "operator:short": "USPS", "operator:type": "public", "operator:wikidata": "Q668687", "ref": "6268100011"}, "type": "Feature"}
{"dataset_attributes": {"@spider": "usps_collection_boxes", "spider:collection_time": "2023-09-25T08:26:09.915926"}, "geometry": {"coordinates": [-90.562162332, 40.121549453], "type": "Point"}, "id": "Yll_SRCw0ZlaKA9kHBYl5tkVdqE=", "properties": {"@spider": "usps_collection_boxes", "addr:city": "RUSHVILLE", "addr:country": "US", "addr:full": "101 E WASHINGTON ST", "addr:postcode": "62681", "addr:state": "IL", "amenity": "post_box", "brand": "United States Postal Service", "brand:wikidata": "Q668687", "collection_times": "Mo-Fr 16:30; Sa 11:30", "name": "USPS COLLECTION BOX - PO LOBBY", "note": "ON 12/24 AND 12/31, THIS BOX MAY BE COLLECTED AS EARLY AS 12 NOON.", "nsi_id": "unitedstatespostalservice-a77078", "operator": "United States Postal Service", "operator:short": "USPS", "operator:type": "public", "operator:wikidata": "Q668687", "ref": "6268100012"}, "type": "Feature"}
{"dataset_attributes": {"@spider": "usps_collection_boxes", "spider:collection_time": "2023-09-25T08:26:09.915926"}, "geometry": {"coordinates": [-89.6043199811, 40.3022209836], "type": "Point"}, "id": "ywDqwHU6uEk0b82wBiyFn8yb77I=", "properties": {"@spider": "usps_collection_boxes", "addr:city": "SAN JOSE", "addr:country": "US", "addr:full": "207 W VINE ST", "addr:postcode": "62682", "addr:state": "IL", "amenity": "post_box", "brand": "United States Postal Service", "brand:wikidata": "Q668687", "collection_times": "Mo-Fr 11:15; Sa 10:15", "name": "USPS COLLECTION BOX - BLUE BOX", "nsi_id": "unitedstatespostalservice-a77078", "operator": "United States Postal Service", "operator:short": "USPS", "operator:type": "public", "operator:wikidata": "Q668687", "ref": "6268200000"}, "type": "Feature"}
{"dataset_attributes": {"@spider": "usps_collection_boxes", "spider:collection_time": "2023-09-25T08:26:09.915926"}, "geometry": {"coordinates": [-89.604028, 40.302541], "type": "Point"}, "id": "tqfoBTHtnCluwsIqHXl7RqK4HXk=", "properties": {"@spider": "usps_collection_boxes", "addr:city": "SAN JOSE", "addr:country": "US", "addr:full": "207 W VINE ST", "addr:postcode": "62682", "addr:state": "IL", "amenity": "post_box", "brand": "United States Postal Service", "brand:wikidata": "Q668687", "collection_times": "Mo-Fr 11:15; Sa 10:15", "name": "USPS COLLECTION BOX - PO LOBBY", "nsi_id": "unitedstatespostalservice-a77078", "operator": "United States Postal Service", "operator:short": "USPS", "operator:type": "public", "operator:wikidata": "Q668687", "ref": "6268200001"}, "type": "Feature"}
{"dataset_attributes": {"@spider": "usps_collection_boxes", "spider:collection_time": "2023-09-25T08:26:09.915926"}, "geometry": {"coordinates": [-89.604323832, 40.302512467], "type": "Point"}, "id": "xDJAjnwdFjr1bQbs8xxYRZ2GXOo=", "properties": {"@spider": "usps_collection_boxes", "addr:city": "SAN JOSE", "addr:country": "US", "addr:full": "207 W VINE ST", "addr:postcode": "62682", "addr:state": "IL", "amenity": "post_box", "brand": "United States Postal Service", "brand:wikidata": "Q668687", "collection_times": "Mo-Fr 11:15; Sa 10:15", "name": "USPS COLLECTION BOX - PO LOBBY", "nsi_id": "unitedstatespostalservice-a77078", "operator": "United States Postal Service", "operator:short": "USPS", "operator:type": "public", "operator:wikidata": "Q668687", "ref": "6268200002"}, "type": "Feature"}
{"dataset_attributes": {"@spider": "usps_collection_boxes", "spider:collection_time": "2023-09-25T08:26:09.915926"}, "geometry": {"coordinates": [-89.605418, 39.896103], "type": "Point"}, "id": "xzlPoTv6VPPCwwyCR4G5Z9mzhJY=", "properties": {"@spider": "usps_collection_boxes", "addr:city": "SHERMAN", "addr:country": "US", "addr:full": "2605 E ANDREW RD", "addr:postcode": "62684", "addr:state": "IL", "amenity": "post_box", "brand": "United States Postal Service", "brand:wikidata": "Q668687", "collection_times": "Mo-Fr 16:45; Sa 11:15", "name": "USPS COLLECTION BOX - BLUE BOX", "note": "ON 12/24 AND 12/31, THIS BOX MAY BE COLLECTED AS EARLY AS 12 NOON.", "nsi_id": "unitedstatespostalservice-a77078", "operator": "United States Postal Service", "operator:short": "USPS", "operator:type": "public", "operator:wikidata": "Q668687", "ref": "6268400000"}, "type": "Feature"}
{"dataset_attributes": {"@spider": "usps_collection_boxes", "spider:collection_time": "2023-09-25T08:26:09.915926"}, "geometry": {"coordinates": [-89.605338, 39.896077], "type": "Point"}, "id": "wFpMIYTdZ7mcGYC9wbirD1-dbag=", "properties": {"@spider": "usps_collection_boxes", "addr:city": "SHERMAN", "addr:country": "US", "addr:full": "2605 E ANDREW RD", "addr:postcode": "62684", "addr:state": "IL", "amenity": "post_box", "brand": "United States Postal Service", "brand:wikidata": "Q668687", "collection_times": "Mo-Fr 16:45; Sa 11:15", "name": "USPS COLLECTION BOX - PO LOBBY", "note": "ON 12/24 AND 12/31, THIS BOX MAY BE COLLECTED AS EARLY AS 12 NOON.", "nsi_id": "unitedstatespostalservice-a77078", "operator": "United States Postal Service", "operator:short": "USPS", "operator:type": "public", "operator:wikidata": "Q668687", "ref": "6268400001"}, "type": "Feature"}
{"dataset_attributes": {"@spider": "usps_collection_boxes", "spider:collection_time": "2023-09-25T08:26:09.915926"}, "geometry": {"coordinates": [-89.605030919, 39.896103497], "type": "Point"}, "id": "bqC9OY2aDRCSeuc0bG7QtytfpfQ=", "properties": {"@spider": "usps_collection_boxes", "addr:city": "SHERMAN", "addr:country": "US", "addr:full": "2605 E ANDREW RD", "addr:postcode": "62684", "addr:state": "IL", "amenity": "post_box", "brand": "United States Postal Service", "brand:wikidata": "Q668687", "collection_times": "Mo-Fr 16:45; Sa 11:15", "name": "USPS COLLECTION BOX - PO LOBBY", "note": "ON 12/24 AND 12/31, THIS BOX MAY BE COLLECTED AS EARLY AS 12 NOON.", "nsi_id": "unitedstatespostalservice-a77078", "operator": "United States Postal Service", "operator:short": "USPS", "operator:type": "public", "operator:wikidata": "Q668687", "ref": "6268400002"}, "type": "Feature"}
{"dataset_attributes": {"@spider": "usps_collection_boxes", "spider:collection_time": "2023-09-25T08:26:09.915926"}, "geometry": {"coordinates": [-90.0437676, 39.117423], "type": "Point"}, "id": "-wL9teLfNB1uK_bbCMA0xW26uys=", "properties": {"@spider": "usps_collection_boxes", "addr:city": "SHIPMAN", "addr:country": "US", "addr:full": "123 KEATING ST", "addr:postcode": "62685", "addr:state": "IL", "amenity": "post_box", "brand": "United States Postal Service", "brand:wikidata": "Q668687", "collection_times": "Mo-Fr 15:15; Sa 10:15", "name": "USPS COLLECTION BOX - BLUE BOX", "note": "ON 12/24 AND 12/31, THIS BOX MAY BE COLLECTED AS EARLY AS 12 NOON.", "nsi_id": "unitedstatespostalservice-a77078", "operator": "United States Postal Service", "operator:short": "USPS", "operator:type": "public", "operator:wikidata": "Q668687", "ref": "6268500000"}, "type": "Feature"}
{"dataset_attributes": {"@spider": "usps_collection_boxes", "spider:collection_time": "2023-09-25T08:26:09.915926"}, "geometry": {"coordinates": [-90.04133, 39.117652], "type": "Point"}, "id": "4RW5Re-_sSXZUOq5IKapA-3CscI=", "properties": {"@spider": "usps_collection_boxes", "addr:city": "SHIPMAN", "addr:country": "US", "addr:full": "123 KEATING ST", "addr:postcode": "62685", "addr:state": "IL", "amenity": "post_box", "brand": "United States Postal Service", "brand:wikidata": "Q668687", "collection_times": "Mo-Fr 15:15; Sa 10:15", "name": "USPS COLLECTION BOX - PO LOBBY", "note": "ON 12/24 AND 12/31, THIS BOX MAY BE COLLECTED AS EARLY AS 12 NOON.", "nsi_id": "unitedstatespostalservice-a77078", "operator": "United States Postal Service", "operator:short": "USPS", "operator:type": "public", "operator:wikidata": "Q668687", "ref": "6268500001"}, "type": "Feature"}
{"dataset_attributes": {"@spider": "usps_collection_boxes", "spider:collection_time": "2023-09-25T08:26:09.915926"}, "geometry": {"coordinates": [-90.043694696, 39.11760654], "type": "Point"}, "id": "OTcJUlVDi0ddyR1LhTLs-cMG_tY=", "properties": {"@spider": "usps_collection_boxes", "addr:city": "SHIPMAN", "addr:country": "US", "addr:full": "123 KEATING ST", "addr:postcode": "62685", "addr:state": "IL", "amenity": "post_box", "brand": "United States Postal Service", "brand:wikidata": "Q668687", "collection_times": "Mo-Fr 15:15; Sa 10:15", "name": "USPS COLLECTION BOX - PO LOBBY", "note": "ON 12/24 AND 12/31, THIS BOX MAY BE COLLECTED AS EARLY AS 12 NOON.", "nsi_id": "unitedstatespostalservice-a77078", "operator": "United States Postal Service", "operator:short": "USPS", "operator:type": "public", "operator:wikidata": "Q668687", "ref": "6268500002"}, "type": "Feature"}
{"dataset_attributes": {"@spider": "usps_collection_boxes", "spider:collection_time": "2023-09-25T08:26:09.915926"}, "geometry": {"coordinates": [-89.761417, 39.537538], "type": "Point"}, "id": "1if8kfg1PudYPtr86mNsRAg-paQ=", "properties": {"@spider": "usps_collection_boxes", "addr:city": "THAYER", "addr:country": "US", "addr:full": "210 E MAIN ST", "addr:postcode": "62689", "addr:state": "IL", "amenity": "post_box", "brand": "United States Postal Service", "brand:wikidata": "Q668687", "collection_times": "Mo-Fr 11:30; Sa 10:00", "name": "USPS COLLECTION BOX - BLUE BOX", "nsi_id": "unitedstatespostalservice-a77078", "operator": "United States Postal Service", "operator:short": "USPS", "operator:type": "public", "operator:wikidata": "Q668687", "ref": "6268900000"}, "type": "Feature"}
{"dataset_attributes": {"@spider": "usps_collection_boxes", "spider:collection_time": "2023-09-25T08:26:09.915926"}, "geometry": {"coordinates": [-89.76151, 39.537564], "type": "Point"}, "id": "omUlpbvmZqp9PTTy_Ci2tXtvehk=", "properties": {"@spider": "usps_collection_boxes", "addr:city": "THAYER", "addr:country": "US", "addr:full": "210 E MAIN ST", "addr:postcode": "62689", "addr:state": "IL", "amenity": "post_box", "brand": "United States Postal Service", "brand:wikidata": "Q668687", "collection_times": "Mo-Fr 11:45; Sa 09:45", "name": "USPS COLLECTION BOX - PO LOBBY", "nsi_id": "unitedstatespostalservice-a77078", "operator": "United States Postal Service", "operator:short": "USPS", "operator:type": "public", "operator:wikidata": "Q668687", "ref": "6268900001"}, "type": "Feature"}
{"dataset_attributes": {"@spider": "usps_collection_boxes", "spider:collection_time": "2023-09-25T08:26:09.915926"}, "geometry": {"coordinates": [-89.761451634, 39.537485131], "type": "Point"}, "id": "jYsu6a90ZDG_csrabgcDjlqhU90=", "properties": {"@spider": "usps_collection_boxes", "addr:city": "THAYER", "addr:country": "US", "addr:full": "210 E MAIN ST", "addr:postcode": "62689", "addr:state": "IL", "amenity": "post_box", "brand": "United States Postal Service", "brand:wikidata": "Q668687", "collection_times": "Mo-Fr 11:45; Sa 09:45", "name": "USPS COLLECTION BOX - PO LOBBY", "nsi_id": "unitedstatespostalservice-a77078", "operator": "United States Postal Service", "operator:short": "USPS", "operator:type": "public", "operator:wikidata": "Q668687", "ref": "6268900002"}, "type": "Feature"}
{"dataset_attributes": {"@spider": "usps_collection_boxes", "spider:collection_time": "2023-09-25T08:26:09.915926"}, "geometry": {"coordinates": [-89.767751, 39.501859], "type": "Point"}, "id": "DDayt6cW6M0r3CRFf7VJY9Bi1oc=", "properties": {"@spider": "usps_collection_boxes", "addr:city": "VIRDEN", "addr:country": "US", "addr:full": "211 N SPRINGFIELD ST", "addr:postcode": "62690", "addr:state": "IL", "amenity": "post_box", "brand": "United States Postal Service", "brand:wikidata": "Q668687", "collection_times": "Mo-Fr 16:30; Sa 10:30", "name": "USPS COLLECTION BOX - BLUE BOX", "note": "ON 12/24 AND 12/31, THIS BOX MAY BE COLLECTED AS EARLY AS 12 NOON.", "nsi_id": "unitedstatespostalservice-a77078", "operator": "United States Postal Service", "operator:short": "USPS", "operator:type": "public", "operator:wikidata": "Q668687", "ref": "6269000000"}, "type": "Feature"}
{"dataset_attributes": {"@spider": "usps_collection_boxes", "spider:collection_time": "2023-09-25T08:26:09.915926"}, "geometry": {"coordinates": [-89.767731, 39.501784], "type": "Point"}, "id": "8nSOdqNFT_YHAr0-DSpfmu2wAQc=", "properties": {"@spider": "usps_collection_boxes", "addr:city": "VIRDEN", "addr:country": "US", "addr:full": "211 N SPRINGFIELD ST", "addr:postcode": "62690", "addr:state": "IL", "amenity": "post_box", "brand": "United States Postal Service", "brand:wikidata": "Q668687", "collection_times": "Mo-Fr 16:30; Sa 10:30", "name": "USPS COLLECTION BOX - BLUE BOX", "note": "ON 12/24 AND 12/31, THIS BOX MAY BE COLLECTED AS EARLY AS 12 NOON.", "nsi_id": "unitedstatespostalservice-a77078", "operator": "United States Postal Service", "operator:short": "USPS", "operator:type": "public", "operator:wikidata": "Q668687", "ref": "6269000005"}, "type": "Feature"}
{"dataset_attributes": {"@spider": "usps_collection_boxes", "spider:collection_time": "2023-09-25T08:26:09.915926"}, "geometry": {"coordinates": [-89.7671686, 39.51075], "type": "Point"}, "id": "ScNtPJQgt0e8D_n56d68f-6VWVo=", "properties": {"@spider": "usps_collection_boxes", "addr:city": "VIRDEN", "addr:country": "US", "addr:full": "1000 N SPRINGFIELD ST", "addr:postcode": "62690", "addr:state": "IL", "amenity": "post_box", "brand": "United States Postal Service", "brand:wikidata": "Q668687", "collection_times": "Mo-Sa 13:00", "name": "USPS COLLECTION BOX - BLUE BOX", "note": "ON 12/24 AND 12/31, THIS BOX MAY BE COLLECTED AS EARLY AS 12 NOON.", "nsi_id": "unitedstatespostalservice-a77078", "operator": "United States Postal Service", "operator:short": "USPS", "operator:type": "public", "operator:wikidata": "Q668687", "ref": "6269000008"}, "type": "Feature"}
{"dataset_attributes": {"@spider": "usps_collection_boxes", "spider:collection_time": "2023-09-25T08:26:09.915926"}, "geometry": {"coordinates": [-89.767731, 39.501784], "type": "Point"}, "id": "VHy6K7v95ZmnnY0BWJb8wHP8BgE=", "properties": {"@spider": "usps_collection_boxes", "addr:city": "VIRDEN", "addr:country": "US", "addr:full": "211 N SPRINGFIELD ST", "addr:postcode": "62690", "addr:state": "IL", "amenity": "post_box", "brand": "United States Postal Service", "brand:wikidata": "Q668687", "collection_times": "Mo-Fr 16:30; Sa 10:30", "name": "USPS COLLECTION BOX - PO LOBBY", "note": "ON 12/24 AND 12/31, THIS BOX MAY BE COLLECTED AS EARLY AS 12 NOON.", "nsi_id": "unitedstatespostalservice-a77078", "operator": "United States Postal Service", "operator:short": "USPS", "operator:type": "public", "operator:wikidata": "Q668687", "ref": "6269000009"}, "type": "Feature"}
{"dataset_attributes": {"@spider": "usps_collection_boxes", "spider:collection_time": "2023-09-25T08:26:09.915926"}, "geometry": {"coordinates": [-89.767676239, 39.50220446], "type": "Point"}, "id": "9xADE2fo59-ozjkEjHOB5mzAshk=", "properties": {"@spider": "usps_collection_boxes", "addr:city": "VIRDEN", "addr:country": "US", "addr:full": "211 N SPRINGFIELD ST", "addr:postcode": "62690", "addr:state": "IL", "amenity": "post_box", "brand": "United States Postal Service", "brand:wikidata": "Q668687", "collection_times": "Mo-Fr 16:30; Sa 10:30", "name": "USPS COLLECTION BOX - PO LOBBY", "note": "ON 12/24 AND 12/31, THIS BOX MAY BE COLLECTED AS EARLY AS 12 NOON.", "nsi_id": "unitedstatespostalservice-a77078", "operator": "United States Postal Service", "operator:short": "USPS", "operator:type": "public", "operator:wikidata": "Q668687", "ref": "6269000010"}, "type": "Feature"}
{"dataset_attributes": {"@spider": "usps_collection_boxes", "spider:collection_time": "2023-09-25T08:26:09.915926"}, "geometry": {"coordinates": [-90.209843, 39.949471], "type": "Point"}, "id": "vqL68ejpPLztTujKros3T3ER4To=", "properties": {"@spider": "usps_collection_boxes", "addr:city": "VIRGINIA", "addr:country": "US", "addr:full": "230 E BEARDSTOWN ST", "addr:postcode": "62691", "addr:state": "IL", "amenity": "post_box", "brand": "United States Postal Service", "brand:wikidata": "Q668687", "collection_times": "Mo-Fr 15:45; Sa 10:15", "name": "USPS COLLECTION BOX - PO LOBBY", "note": "ON 12/24 AND 12/31, THIS BOX MAY BE COLLECTED AS EARLY AS 12 NOON.", "nsi_id": "unitedstatespostalservice-a77078", "operator": "United States Postal Service", "operator:short": "USPS", "operator:type": "public", "operator:wikidata": "Q668687", "ref": "6269100004"}, "type": "Feature"}
{"dataset_attributes": {"@spider": "usps_collection_boxes", "spider:collection_time": "2023-09-25T08:26:09.915926"}, "geometry": {"coordinates": [-90.209894, 39.949531], "type": "Point"}, "id": "hKo3DDUj0xkGbawfzyfkJUsnnsc=", "properties": {"@spider": "usps_collection_boxes", "addr:city": "VIRGINIA", "addr:country": "US", "addr:full": "230 E BEARDSTOWN ST", "addr:postcode": "62691", "addr:state": "IL", "amenity": "post_box", "brand": "United States Postal Service", "brand:wikidata": "Q668687", "collection_times": "Mo-Fr 15:45; Sa 10:15", "name": "USPS COLLECTION BOX - BLUE BOX", "note": "ON 12/24 AND 12/31, THIS BOX MAY BE COLLECTED AS EARLY AS 12 NOON.", "nsi_id": "unitedstatespostalservice-a77078", "operator": "United States Postal Service", "operator:short": "USPS", "operator:type": "public", "operator:wikidata": "Q668687", "ref": "6269100005"}, "type": "Feature"}
{"dataset_attributes": {"@spider": "usps_collection_boxes", "spider:collection_time": "2023-09-25T08:26:09.915926"}, "geometry": {"coordinates": [-90.209883271, 39.949435149], "type": "Point"}, "id": "lNzu8z7je6NZ9D2KW7FwqHMj2tY=", "properties": {"@spider": "usps_collection_boxes", "addr:city": "VIRGINIA", "addr:country": "US", "addr:full": "230 E BEARDSTOWN ST", "addr:postcode": "62691", "addr:state": "IL", "amenity": "post_box", "brand": "United States Postal Service", "brand:wikidata": "Q668687", "collection_times": "Mo-Fr 15:45; Sa 10:15", "name": "USPS COLLECTION BOX - PO LOBBY", "note": "ON 12/24 AND 12/31, THIS BOX MAY BE COLLECTED AS EARLY AS 12 NOON.", "nsi_id": "unitedstatespostalservice-a77078", "operator": "United States Postal Service", "operator:short": "USPS", "operator:type": "public", "operator:wikidata": "Q668687", "ref": "6269100006"}, "type": "Feature"}
{"dataset_attributes": {"@spider": "usps_collection_boxes", "spider:collection_time": "2023-09-25T08:26:09.915926"}, "geometry": {"coordinates": [-89.953699, 39.591974], "type": "Point"}, "id": "2j0D-Bsp870sKCrwcsUrATLyrDU=", "properties": {"@spider": "usps_collection_boxes", "addr:city": "WAVERLY", "addr:country": "US", "addr:full": "109 N PEARL ST", "addr:postcode": "62692", "addr:state": "IL", "amenity": "post_box", "brand": "United States Postal Service", "brand:wikidata": "Q668687", "collection_times": "Mo-Fr 14:45; Sa 09:45", "name": "USPS COLLECTION BOX - BLUE BOX", "note": "ON 12/24 AND 12/31, THIS BOX MAY BE COLLECTED AS EARLY AS 12 NOON.", "nsi_id": "unitedstatespostalservice-a77078", "operator": "United States Postal Service", "operator:short": "USPS", "operator:type": "public", "operator:wikidata": "Q668687", "ref": "6269200001"}, "type": "Feature"}
{"dataset_attributes": {"@spider": "usps_collection_boxes", "spider:collection_time": "2023-09-25T08:26:09.915926"}, "geometry": {"coordinates": [-89.953699, 39.591974], "type": "Point"}, "id": "ZmkYW7RA4rS7IhkIHXFUFxe7q_Y=", "properties": {"@spider": "usps_collection_boxes", "addr:city": "WAVERLY", "addr:country": "US", "addr:full": "109 N PEARL ST", "addr:postcode": "62692", "addr:state": "IL", "amenity": "post_box", "brand": "United States Postal Service", "brand:wikidata": "Q668687", "collection_times": "Mo-Fr 14:45; Sa 09:45", "name": "USPS COLLECTION BOX - PO LOBBY", "note": "ON 12/24 AND 12/31, THIS BOX MAY BE COLLECTED AS EARLY AS 12 NOON.", "nsi_id": "unitedstatespostalservice-a77078", "operator": "United States Postal Service", "operator:short": "USPS", "operator:type": "public", "operator:wikidata": "Q668687", "ref": "6269200002"}, "type": "Feature"}
{"dataset_attributes": {"@spider": "usps_collection_boxes", "spider:collection_time": "2023-09-25T08:26:09.915926"}, "geometry": {"coordinates": [-89.953699, 39.591974], "type": "Point"}, "id": "A2dk8-B7BsNiAjuma4oiPTsDgt0=", "properties": {"@spider": "usps_collection_boxes", "addr:city": "WAVERLY", "addr:country": "US", "addr:full": "109 N PEARL ST", "addr:postcode": "62692", "addr:state": "IL", "amenity": "post_box", "brand": "United States Postal Service", "brand:wikidata": "Q668687", "collection_times": "Mo-Fr 14:45; Sa 09:45", "name": "USPS COLLECTION BOX - BLUE BOX", "note": "ON 12/24 AND 12/31, THIS BOX MAY BE COLLECTED AS EARLY AS 12 NOON.", "nsi_id": "unitedstatespostalservice-a77078", "operator": "United States Postal Service", "operator:short": "USPS", "operator:type": "public", "operator:wikidata": "Q668687", "ref": "6269200004"}, "type": "Feature"}
{"dataset_attributes": {"@spider": "usps_collection_boxes", "spider:collection_time": "2023-09-25T08:26:09.915926"}, "geometry": {"coordinates": [-89.953417631, 39.591962246], "type": "Point"}, "id": "6GICvz9i9d-d95kABIgA1h7zdOw=", "properties": {"@spider": "usps_collection_boxes", "addr:city": "WAVERLY", "addr:country": "US", "addr:full": "109 N PEARL ST", "addr:postcode": "62692", "addr:state": "IL", "amenity": "post_box", "brand": "United States Postal Service", "brand:wikidata": "Q668687", "collection_times": "Mo-Fr 14:45; Sa 09:45", "name": "USPS COLLECTION BOX - PO LOBBY", "note": "ON 12/24 AND 12/31, THIS BOX MAY BE COLLECTED AS EARLY AS 12 NOON.", "nsi_id": "unitedstatespostalservice-a77078", "operator": "United States Postal Service", "operator:short": "USPS", "operator:type": "public", "operator:wikidata": "Q668687", "ref": "6269200005"}, "type": "Feature"}
{"dataset_attributes": {"@spider": "usps_collection_boxes", "spider:collection_time": "2023-09-25T08:26:09.915926"}, "geometry": {"coordinates": [-89.548319, 39.9541], "type": "Point"}, "id": "SM7mE7v_DslLRLqhYJIeQPC2kj8=", "properties": {"@spider": "usps_collection_boxes", "addr:city": "WILLIAMSVILLE", "addr:country": "US", "addr:full": "100 E MAIN ST", "addr:postcode": "62693", "addr:state": "IL", "amenity": "post_box", "brand": "United States Postal Service", "brand:wikidata": "Q668687", "collection_times": "Mo-Fr 16:00; Sa 11:00", "name": "USPS COLLECTION BOX - BLUE BOX", "note": "ON 12/24 AND 12/31, THIS BOX MAY BE COLLECTED AS EARLY AS 12 NOON.", "nsi_id": "unitedstatespostalservice-a77078", "operator": "United States Postal Service", "operator:short": "USPS", "operator:type": "public", "operator:wikidata": "Q668687", "ref": "6269300001"}, "type": "Feature"}
{"dataset_attributes": {"@spider": "usps_collection_boxes", "spider:collection_time": "2023-09-25T08:26:09.915926"}, "geometry": {"coordinates": [-89.548319, 39.9541], "type": "Point"}, "id": "09PgN7JyfiZSBSnB13ajJ6S0e2g=", "properties": {"@spider": "usps_collection_boxes", "addr:city": "WILLIAMSVILLE", "addr:country": "US", "addr:full": "100 E MAIN ST", "addr:postcode": "62693", "addr:state": "IL", "amenity": "post_box", "brand": "United States Postal Service", "brand:wikidata": "Q668687", "collection_times": "Mo-Fr 16:00; Sa 11:00", "name": "USPS COLLECTION BOX - PO LOBBY", "note": "ON 12/24 AND 12/31, THIS BOX MAY BE COLLECTED AS EARLY AS 12 NOON.", "nsi_id": "unitedstatespostalservice-a77078", "operator": "United States Postal Service", "operator:short": "USPS", "operator:type": "public", "operator:wikidata": "Q668687", "ref": "6269300002"}, "type": "Feature"}
{"dataset_attributes": {"@spider": "usps_collection_boxes", "spider:collection_time": "2023-09-25T08:26:09.915926"}, "geometry": {"coordinates": [-89.548050997, 39.954065503], "type": "Point"}, "id": "5aJmNz9P7Vhcr4h_yY84B-pRBWk=", "properties": {"@spider": "usps_collection_boxes", "addr:city": "WILLIAMSVILLE", "addr:country": "US", "addr:full": "100 E MAIN ST", "addr:postcode": "62693", "addr:state": "IL", "amenity": "post_box", "brand": "United States Postal Service", "brand:wikidata": "Q668687", "collection_times": "Mo-Fr 16:00; Sa 11:00", "name": "USPS COLLECTION BOX - PO LOBBY", "note": "ON 12/24 AND 12/31, THIS BOX MAY BE COLLECTED AS EARLY AS 12 NOON.", "nsi_id": "unitedstatespostalservice-a77078", "operator": "United States Postal Service", "operator:short": "USPS", "operator:type": "public", "operator:wikidata": "Q668687", "ref": "6269300003"}, "type": "Feature"}
{"dataset_attributes": {"@spider": "usps_collection_boxes", "spider:collection_time": "2023-09-25T08:26:09.915926"}, "geometry": {"coordinates": [-90.456365, 39.628848], "type": "Point"}, "id": "gbuItUX7SIItfjO7oOB0TXwOKnA=", "properties": {"@spider": "usps_collection_boxes", "addr:city": "WINCHESTER", "addr:country": "US", "addr:full": "55 S MAIN ST", "addr:postcode": "62694", "addr:state": "IL", "amenity": "post_box", "brand": "United States Postal Service", "brand:wikidata": "Q668687", "collection_times": "Mo-Fr 16:15; Sa 11:45", "name": "USPS COLLECTION BOX - BLUE BOX", "note": "ON 12/24 AND 12/31, THIS BOX MAY BE COLLECTED AS EARLY AS 12 NOON.", "nsi_id": "unitedstatespostalservice-a77078", "operator": "United States Postal Service", "operator:short": "USPS", "operator:type": "public", "operator:wikidata": "Q668687", "ref": "6269400001"}, "type": "Feature"}
{"dataset_attributes": {"@spider": "usps_collection_boxes", "spider:collection_time": "2023-09-25T08:26:09.915926"}, "geometry": {"coordinates": [-90.455386, 39.630049], "type": "Point"}, "id": "zfY7ReH7h99cI2-EbiFD_EW6OFM=", "properties": {"@spider": "usps_collection_boxes", "addr:city": "WINCHESTER", "addr:country": "US", "addr:full": "2 N HILL ST", "addr:postcode": "62694", "addr:state": "IL", "amenity": "post_box", "brand": "United States Postal Service", "brand:wikidata": "Q668687", "collection_times": "Mo-Sa 14:30", "name": "USPS COLLECTION BOX - BLUE BOX", "note": "ON 12/24 AND 12/31, THIS BOX MAY BE COLLECTED AS EARLY AS 12 NOON.", "nsi_id": "unitedstatespostalservice-a77078", "operator": "United States Postal Service", "operator:short": "USPS", "operator:type": "public", "operator:wikidata": "Q668687", "ref": "6269400004"}, "type": "Feature"}
{"dataset_attributes": {"@spider": "usps_collection_boxes", "spider:collection_time": "2023-09-25T08:26:09.915926"}, "geometry": {"coordinates": [-90.4546774, 39.62642], "type": "Point"}, "id": "rSFvn3AEIEklohP65DLNFWvMh_8=", "properties": {"@spider": "usps_collection_boxes", "addr:city": "WINCHESTER", "addr:country": "US", "addr:full": "156 S WALNUT ST", "addr:postcode": "62694", "addr:state": "IL", "amenity": "post_box", "brand": "United States Postal Service", "brand:wikidata": "Q668687", "collection_times": "Mo-Sa 15:30", "name": "USPS COLLECTION BOX - BLUE BOX", "note": "ON 12/24 AND 12/31, THIS BOX MAY BE COLLECTED AS EARLY AS 12 NOON.", "nsi_id": "unitedstatespostalservice-a77078", "operator": "United States Postal Service", "operator:short": "USPS", "operator:type": "public", "operator:wikidata": "Q668687", "ref": "6269400008"}, "type": "Feature"}
{"dataset_attributes": {"@spider": "usps_collection_boxes", "spider:collection_time": "2023-09-25T08:26:09.915926"}, "geometry": {"coordinates": [-90.4565745, 39.628154], "type": "Point"}, "id": "ceB8FE05R27YssTt6vV2fjnUPcc=", "properties": {"@spider": "usps_collection_boxes", "addr:city": "WINCHESTER", "addr:country": "US", "addr:full": "55 S MAIN ST", "addr:postcode": "62694", "addr:state": "IL", "amenity": "post_box", "brand": "United States Postal Service", "brand:wikidata": "Q668687", "collection_times": "Mo-Fr 16:15; Sa 12:00", "name": "USPS COLLECTION BOX - PO LOBBY", "note": "ON 12/24 AND 12/31, THIS BOX MAY BE COLLECTED AS EARLY AS 12 NOON.", "nsi_id": "unitedstatespostalservice-a77078", "operator": "United States Postal Service", "operator:short": "USPS", "operator:type": "public", "operator:wikidata": "Q668687", "ref": "6269400010"}, "type": "Feature"}
{"dataset_attributes": {"@spider": "usps_collection_boxes", "spider:collection_time": "2023-09-25T08:26:09.915926"}, "geometry": {"coordinates": [-90.4607077, 39.629951], "type": "Point"}, "id": "J-HSWYUrDvd6kSL8ZxpIl7o7gW0=", "properties": {"@spider": "usps_collection_boxes", "addr:city": "WINCHESTER", "addr:country": "US", "addr:full": "231 W CHERRY ST", "addr:postcode": "62694", "addr:state": "IL", "amenity": "post_box", "brand": "United States Postal Service", "brand:wikidata": "Q668687", "collection_times": "Mo-Sa 11:45", "name": "USPS COLLECTION BOX - BLUE BOX", "nsi_id": "unitedstatespostalservice-a77078", "operator": "United States Postal Service", "operator:short": "USPS", "operator:type": "public", "operator:wikidata": "Q668687", "ref": "6269400011"}, "type": "Feature"}
{"dataset_attributes": {"@spider": "usps_collection_boxes", "spider:collection_time": "2023-09-25T08:26:09.915926"}, "geometry": {"coordinates": [-90.4555112, 39.628671], "type": "Point"}, "id": "rQ_8u1JGsg35cRvAR1fdIfRkV-M=", "properties": {"@spider": "usps_collection_boxes", "addr:city": "WINCHESTER", "addr:country": "US", "addr:full": "21 S MARKET ST", "addr:postcode": "62694", "addr:state": "IL", "amenity": "post_box", "brand": "United States Postal Service", "brand:wikidata": "Q668687", "collection_times": "Mo-Sa 15:30", "name": "USPS COLLECTION BOX - BLUE BOX", "note": "ON 12/24 AND 12/31, THIS BOX MAY BE COLLECTED AS EARLY AS 12 NOON.", "nsi_id": "unitedstatespostalservice-a77078", "operator": "United States Postal Service", "operator:short": "USPS", "operator:type": "public", "operator:wikidata": "Q668687", "ref": "6269400012"}, "type": "Feature"}
{"dataset_attributes": {"@spider": "usps_collection_boxes", "spider:collection_time": "2023-09-25T08:26:09.915926"}, "geometry": {"coordinates": [-90.456388882, 39.628843081], "type": "Point"}, "id": "-CtSxG4AnIAkIgjOq7hRayMVMV8=", "properties": {"@spider": "usps_collection_boxes", "addr:city": "WINCHESTER", "addr:country": "US", "addr:full": "55 S MAIN ST", "addr:postcode": "62694", "addr:state": "IL", "amenity": "post_box", "brand": "United States Postal Service", "brand:wikidata": "Q668687", "collection_times": "Mo-Fr 16:15; Sa 12:00", "name": "USPS COLLECTION BOX - PO LOBBY", "note": "ON 12/24 AND 12/31, THIS BOX MAY BE COLLECTED AS EARLY AS 12 NOON.", "nsi_id": "unitedstatespostalservice-a77078", "operator": "United States Postal Service", "operator:short": "USPS", "operator:type": "public", "operator:wikidata": "Q668687", "ref": "6269400013"}, "type": "Feature"}
{"dataset_attributes": {"@spider": "usps_collection_boxes", "spider:collection_time": "2023-09-25T08:26:09.915926"}, "geometry": {"coordinates": [-90.224348, 39.62897], "type": "Point"}, "id": "wAfVpm9l6my7C7w7WEIw5nUqZsw=", "properties": {"@spider": "usps_collection_boxes", "addr:city": "WOODSON", "addr:country": "US", "addr:full": "101 E MAIN ST", "addr:postcode": "62695", "addr:state": "IL", "amenity": "post_box", "brand": "United States Postal Service", "brand:wikidata": "Q668687", "collection_times": "Mo-Fr 15:45; Sa 10:00", "name": "USPS COLLECTION BOX - BLUE BOX", "note": "ON 12/24 AND 12/31, THIS BOX MAY BE COLLECTED AS EARLY AS 12 NOON.", "nsi_id": "unitedstatespostalservice-a77078", "operator": "United States Postal Service", "operator:short": "USPS", "operator:type": "public", "operator:wikidata": "Q668687", "ref": "6269500000"}, "type": "Feature"}
{"dataset_attributes": {"@spider": "usps_collection_boxes", "spider:collection_time": "2023-09-25T08:26:09.915926"}, "geometry": {"coordinates": [-90.224348, 39.62897], "type": "Point"}, "id": "G5D4KTBsbT45cjsDjMAE4XL53AE=", "properties": {"@spider": "usps_collection_boxes", "addr:city": "WOODSON", "addr:country": "US", "addr:full": "101 E MAIN ST", "addr:postcode": "62695", "addr:state": "IL", "amenity": "post_box", "brand": "United States Postal Service", "brand:wikidata": "Q668687", "collection_times": "Mo-Fr 15:45; Sa 09:45", "name": "USPS COLLECTION BOX - PO LOBBY", "note": "ON 12/24 AND 12/31, THIS BOX MAY BE COLLECTED AS EARLY AS 12 NOON.", "nsi_id": "unitedstatespostalservice-a77078", "operator": "United States Postal Service", "operator:short": "USPS", "operator:type": "public", "operator:wikidata": "Q668687", "ref": "6269500001"}, "type": "Feature"}
{"dataset_attributes": {"@spider": "usps_collection_boxes", "spider:collection_time": "2023-09-25T08:26:09.915926"}, "geometry": {"coordinates": [-90.224121389, 39.628928558], "type": "Point"}, "id": "h2-BVimAk2smYE9wLn2SHnPQrtQ=", "properties": {"@spider": "usps_collection_boxes", "addr:city": "WOODSON", "addr:country": "US", "addr:full": "101 E MAIN ST", "addr:postcode": "62695", "addr:state": "IL", "amenity": "post_box", "brand": "United States Postal Service", "brand:wikidata": "Q668687", "collection_times": "Mo-Fr 15:45; Sa 09:45", "name": "USPS COLLECTION BOX - PO LOBBY", "note": "ON 12/24 AND 12/31, THIS BOX MAY BE COLLECTED AS EARLY AS 12 NOON.", "nsi_id": "unitedstatespostalservice-a77078", "operator": "United States Postal Service", "operator:short": "USPS", "operator:type": "public", "operator:wikidata": "Q668687", "ref": "6269500002"}, "type": "Feature"}
