{"dataset_attributes": {"@spider": "usps_collection_boxes", "spider:collection_time": "2023-09-19T08:25:58.007339"}, "geometry": {"coordinates": [-89.6533466, 39.796688], "type": "Point"}, "id": "Us385JkRK1otxiyLqIy1j95zuco=", "properties": {"@spider": "usps_collection_boxes", "addr:city": "SPRINGFIELD", "addr:country": "US", "addr:full": "524 S 2ND ST", "addr:postcode": "62701", "addr:state": "IL", "amenity": "post_box", "brand": "United States Postal Service", "brand:wikidata": "Q668687", "collection_times": "Mo-Fr 16:00", "name": "USPS COLLECTION BOX - BLUE BOX", "note": "ON 12/24 AND 12/31, THIS BOX MAY BE COLLECTED AS EARLY AS 12 NOON.", "nsi_id": "unitedstatespostalservice-a77078", "operator": "United States Postal Service", "operator:short": "USPS", "operator:type": "public", "operator:wikidata": "Q668687", "ref": "6270100000"}, "type": "Feature"}
{"dataset_attributes": {"@spider": "usps_collection_boxes", "spider:collection_time": "2023-09-19T08:25:58.007339"}, "geometry": {"coordinates": [-89.6494894, 39.80163], "type": "Point"}, "id": "qvgaWQhqTfd-sKnGqCrwL2qHS-k=", "properties": {"@spider": "usps_collection_boxes", "addr:city": "SPRINGFIELD", "addr:country": "US", "addr:full": "101 S 5TH ST", "addr:postcode": "62701", "addr:state": "IL", "amenity": "post_box", "brand": "United States Postal Service", "brand:wikidata": "Q668687", "collection_times": "Mo-Fr 17:00", "name": "USPS COLLECTION BOX - BLUE BOX", "note": "ON 12/24 AND 12/31, THIS BOX MAY BE COLLECTED AS EARLY AS 12 NOON.", "nsi_id": "unitedstatespostalservice-a77078", "operator": "United States Postal Service", "operator:short": "USPS", "operator:type": "public", "operator:wikidata": "Q668687", "ref": "6270100002"}, "type": "Feature"}
{"dataset_attributes": {"@spider": "usps_collection_boxes", "spider:collection_time": "2023-09-19T08:25:58.007339"}, "geometry": {"coordinates": [-89.6489699602, 39.7992070065], "type": "Point"}, "id": "rxp9SCMzIOibLFJ2oWpTwd1pN1I=", "properties": {"@spider": "usps_collection_boxes", "addr:city": "SPRINGFIELD", "addr:country": "US", "addr:full": "510 E MONROE ST", "addr:postcode": "62701", "addr:state": "IL", "amenity": "post_box", "brand": "United States Postal Service", "brand:wikidata": "Q668687", "collection_times": "Mo-Fr 13:00", "name": "USPS COLLECTION BOX - BLUE BOX", "note": "ON 12/24 AND 12/31, THIS BOX MAY BE COLLECTED AS EARLY AS 12 NOON.", "nsi_id": "unitedstatespostalservice-a77078", "operator": "United States Postal Service", "operator:short": "USPS", "operator:type": "public", "operator:wikidata": "Q668687", "ref": "6270100007"}, "type": "Feature"}
{"dataset_attributes": {"@spider": "usps_collection_boxes", "spider:collection_time": "2023-09-19T08:25:58.007339"}, "geometry": {"coordinates": [-89.653306111, 39.798337698], "type": "Point"}, "id": "nPEThckxkKgKjj0XmcgJl55XiOM=", "properties": {"@spider": "usps_collection_boxes", "addr:city": "SPRINGFIELD", "addr:country": "US", "addr:full": "200 E CAPITOL AVE", "addr:postcode": "62701", "addr:state": "IL", "amenity": "post_box", "brand": "United States Postal Service", "brand:wikidata": "Q668687", "collection_times": "Mo-Fr 16:00", "name": "USPS COLLECTION BOX - BLUE BOX", "note": "ON 12/24 AND 12/31, THIS BOX MAY BE COLLECTED AS EARLY AS 12 NOON.", "nsi_id": "unitedstatespostalservice-a77078", "operator": "United States Postal Service", "operator:short": "USPS", "operator:type": "public", "operator:wikidata": "Q668687", "ref": "6270100011"}, "type": "Feature"}
{"dataset_attributes": {"@spider": "usps_collection_boxes", "spider:collection_time": "2023-09-19T08:25:58.007339"}, "geometry": {"coordinates": [-89.643596, 39.799928], "type": "Point"}, "id": "bv8LIKbJ5mTUSpJDqG9yHyB6CCU=", "properties": {"@spider": "usps_collection_boxes", "addr:city": "SPRINGFIELD", "addr:country": "US", "addr:full": "200 S 9TH ST", "addr:postcode": "62701", "addr:state": "IL", "amenity": "post_box", "brand": "United States Postal Service", "brand:wikidata": "Q668687", "collection_times": "Mo-Fr 17:00", "name": "USPS COLLECTION BOX - BLUE BOX", "note": "ON 12/24 AND 12/31, THIS BOX MAY BE COLLECTED AS EARLY AS 12 NOON.", "nsi_id": "unitedstatespostalservice-a77078", "operator": "United States Postal Service", "operator:short": "USPS", "operator:type": "public", "operator:wikidata": "Q668687", "ref": "6270100014"}, "type": "Feature"}
{"dataset_attributes": {"@spider": "usps_collection_boxes", "spider:collection_time": "2023-09-19T08:25:58.007339"}, "geometry": {"coordinates": [-89.6539247, 39.800672], "type": "Point"}, "id": "MHQ4qVQLIJPfFv4xvd1dcdwcy6w=", "properties": {"@spider": "usps_collection_boxes", "addr:city": "SPRINGFIELD", "addr:country": "US", "addr:full": "125 E ADAMS ST", "addr:postcode": "62701", "addr:state": "IL", "amenity": "post_box", "brand": "United States Postal Service", "brand:wikidata": "Q668687", "collection_times": "Mo-Fr 14:30", "name": "USPS COLLECTION BOX - BLUE BOX", "note": "ON 12/24 AND 12/31, THIS BOX MAY BE COLLECTED AS EARLY AS 12 NOON.", "nsi_id": "unitedstatespostalservice-a77078", "operator": "United States Postal Service", "operator:short": "USPS", "operator:type": "public", "operator:wikidata": "Q668687", "ref": "6270100018"}, "type": "Feature"}
{"dataset_attributes": {"@spider": "usps_collection_boxes", "spider:collection_time": "2023-09-19T08:25:58.007339"}, "geometry": {"coordinates": [-89.6549633, 39.797758], "type": "Point"}, "id": "qtEtbqScda_TmgssKIMF_ce8lPM=", "properties": {"@spider": "usps_collection_boxes", "addr:city": "SPRINGFIELD", "addr:country": "US", "addr:full": "301 S 2ND ST", "addr:postcode": "62701", "addr:state": "IL", "amenity": "post_box", "brand": "United States Postal Service", "brand:wikidata": "Q668687", "collection_times": "Mo-Fr 16:15", "name": "USPS COLLECTION BOX - BLUE BOX", "note": "ON 12/24 AND 12/31, THIS BOX MAY BE COLLECTED AS EARLY AS 12 NOON.", "nsi_id": "unitedstatespostalservice-a77078", "operator": "United States Postal Service", "operator:short": "USPS", "operator:type": "public", "operator:wikidata": "Q668687", "ref": "6270100021"}, "type": "Feature"}
{"dataset_attributes": {"@spider": "usps_collection_boxes", "spider:collection_time": "2023-09-19T08:25:58.007339"}, "geometry": {"coordinates": [-89.6507175, 39.804166], "type": "Point"}, "id": "IXEI9lZPppSKPQ0JFWoCmwFJCNM=", "properties": {"@spider": "usps_collection_boxes", "addr:city": "SPRINGFIELD", "addr:country": "US", "addr:full": "319 N 4TH ST", "addr:postcode": "62701", "addr:state": "IL", "amenity": "post_box", "brand": "United States Postal Service", "brand:wikidata": "Q668687", "collection_times": "Mo-Sa 15:00", "name": "USPS COLLECTION BOX - BLUE BOX", "note": "ON 12/24 AND 12/31, THIS BOX MAY BE COLLECTED AS EARLY AS 12 NOON.", "nsi_id": "unitedstatespostalservice-a77078", "operator": "United States Postal Service", "operator:short": "USPS", "operator:type": "public", "operator:wikidata": "Q668687", "ref": "6270100024"}, "type": "Feature"}
{"dataset_attributes": {"@spider": "usps_collection_boxes", "spider:collection_time": "2023-09-19T08:25:58.007339"}, "geometry": {"coordinates": [-89.6491619, 39.802243], "type": "Point"}, "id": "QgYpSFi1l-OtW_Gpx26dsJtSUvs=", "properties": {"@spider": "usps_collection_boxes", "addr:city": "SPRINGFIELD", "addr:country": "US", "addr:full": "120 N 5TH ST", "addr:postcode": "62701", "addr:state": "IL", "amenity": "post_box", "brand": "United States Postal Service", "brand:wikidata": "Q668687", "collection_times": "Mo-Fr 17:00", "name": "USPS COLLECTION BOX - BLUE BOX", "note": "ON 12/24 AND 12/31, THIS BOX MAY BE COLLECTED AS EARLY AS 12 NOON.", "nsi_id": "unitedstatespostalservice-a77078", "operator": "United States Postal Service", "operator:short": "USPS", "operator:type": "public", "operator:wikidata": "Q668687", "ref": "6270100031"}, "type": "Feature"}
{"dataset_attributes": {"@spider": "usps_collection_boxes", "spider:collection_time": "2023-09-19T08:25:58.007339"}, "geometry": {"coordinates": [-89.6493595, 39.800457], "type": "Point"}, "id": "lij2f0hVctl3omWp47kqUU-mv6w=", "properties": {"@spider": "usps_collection_boxes", "addr:city": "SPRINGFIELD", "addr:country": "US", "addr:full": "201 S 5TH ST", "addr:postcode": "62701", "addr:state": "IL", "amenity": "post_box", "brand": "United States Postal Service", "brand:wikidata": "Q668687", "collection_times": "Mo-Fr 17:00", "name": "USPS COLLECTION BOX - BLUE BOX", "note": "ON 12/24 AND 12/31, THIS BOX MAY BE COLLECTED AS EARLY AS 12 NOON.", "nsi_id": "unitedstatespostalservice-a77078", "operator": "United States Postal Service", "operator:short": "USPS", "operator:type": "public", "operator:wikidata": "Q668687", "ref": "6270100033"}, "type": "Feature"}
{"dataset_attributes": {"@spider": "usps_collection_boxes", "spider:collection_time": "2023-09-19T08:25:58.007339"}, "geometry": {"coordinates": [-89.6464435, 39.799739], "type": "Point"}, "id": "pxjT0qi2beOGqppoj6jyNpydJiY=", "properties": {"@spider": "usps_collection_boxes", "addr:city": "SPRINGFIELD", "addr:country": "US", "addr:full": "228 S 7TH ST", "addr:postcode": "62701", "addr:state": "IL", "amenity": "post_box", "brand": "United States Postal Service", "brand:wikidata": "Q668687", "collection_times": "Mo-Fr 15:00; Sa 11:00", "name": "USPS COLLECTION BOX - BLUE BOX", "note": "ON 12/24 AND 12/31, THIS BOX MAY BE COLLECTED AS EARLY AS 12 NOON.", "nsi_id": "unitedstatespostalservice-a77078", "operator": "United States Postal Service", "operator:short": "USPS", "operator:type": "public", "operator:wikidata": "Q668687", "ref": "6270100036"}, "type": "Feature"}
{"dataset_attributes": {"@spider": "usps_collection_boxes", "spider:collection_time": "2023-09-19T08:25:58.007339"}, "geometry": {"coordinates": [-89.6479849, 39.798396], "type": "Point"}, "id": "xbO7CGpCYwt3HW157I6AVLe_cK4=", "properties": {"@spider": "usps_collection_boxes", "addr:city": "SPRINGFIELD", "addr:country": "US", "addr:full": "333 S 6TH ST", "addr:postcode": "62701", "addr:state": "IL", "amenity": "post_box", "brand": "United States Postal Service", "brand:wikidata": "Q668687", "collection_times": "Mo-Fr 14:30", "name": "USPS COLLECTION BOX - BLUE BOX", "note": "ON 12/24 AND 12/31, THIS BOX MAY BE COLLECTED AS EARLY AS 12 NOON.", "nsi_id": "unitedstatespostalservice-a77078", "operator": "United States Postal Service", "operator:short": "USPS", "operator:type": "public", "operator:wikidata": "Q668687", "ref": "6270100037"}, "type": "Feature"}
{"dataset_attributes": {"@spider": "usps_collection_boxes", "spider:collection_time": "2023-09-19T08:25:58.007339"}, "geometry": {"coordinates": [-89.6490530249, 39.7962290001], "type": "Point"}, "id": "NOMFLzK4j4cszM3ShjxUfmAD6Og=", "properties": {"@spider": "usps_collection_boxes", "addr:city": "SPRINGFIELD", "addr:country": "US", "addr:full": "528 S 5TH ST", "addr:postcode": "62701", "addr:state": "IL", "amenity": "post_box", "brand": "United States Postal Service", "brand:wikidata": "Q668687", "collection_times": "Mo-Fr 15:30", "name": "USPS COLLECTION BOX - BLUE BOX", "note": "ON 12/24 AND 12/31, THIS BOX MAY BE COLLECTED AS EARLY AS 12 NOON.", "nsi_id": "unitedstatespostalservice-a77078", "operator": "United States Postal Service", "operator:short": "USPS", "operator:type": "public", "operator:wikidata": "Q668687", "ref": "6270100041"}, "type": "Feature"}
{"dataset_attributes": {"@spider": "usps_collection_boxes", "spider:collection_time": "2023-09-19T08:25:58.007339"}, "geometry": {"coordinates": [-89.6479383, 39.799167], "type": "Point"}, "id": "YLnr3cEiMTul7Ow6wvrrjEqXaDU=", "properties": {"@spider": "usps_collection_boxes", "addr:city": "SPRINGFIELD", "addr:country": "US", "addr:full": "303 S 6TH ST", "addr:postcode": "62701", "addr:state": "IL", "amenity": "post_box", "brand": "United States Postal Service", "brand:wikidata": "Q668687", "collection_times": "Mo-Fr 14:30", "name": "USPS COLLECTION BOX - BLUE BOX", "note": "ON 12/24 AND 12/31, THIS BOX MAY BE COLLECTED AS EARLY AS 12 NOON.", "nsi_id": "unitedstatespostalservice-a77078", "operator": "United States Postal Service", "operator:short": "USPS", "operator:type": "public", "operator:wikidata": "Q668687", "ref": "6270100043"}, "type": "Feature"}
{"dataset_attributes": {"@spider": "usps_collection_boxes", "spider:collection_time": "2023-09-19T08:25:58.007339"}, "geometry": {"coordinates": [-89.6464849, 39.805135], "type": "Point"}, "id": "5SjmPWGFdYWRithWViURSMtXfDM=", "properties": {"@spider": "usps_collection_boxes", "addr:city": "SPRINGFIELD", "addr:country": "US", "addr:full": "326 N 7TH ST", "addr:postcode": "62701", "addr:state": "IL", "amenity": "post_box", "brand": "United States Postal Service", "brand:wikidata": "Q668687", "collection_times": "Mo-Fr 15:00", "name": "USPS COLLECTION BOX - BLUE BOX", "note": "ON 12/24 AND 12/31, THIS BOX MAY BE COLLECTED AS EARLY AS 12 NOON.", "nsi_id": "unitedstatespostalservice-a77078", "operator": "United States Postal Service", "operator:short": "USPS", "operator:type": "public", "operator:wikidata": "Q668687", "ref": "6270100057"}, "type": "Feature"}
{"dataset_attributes": {"@spider": "usps_collection_boxes", "spider:collection_time": "2023-09-19T08:25:58.007339"}, "geometry": {"coordinates": [-89.646922, 39.799363], "type": "Point"}, "id": "ylam15VJaybrQkQjeb3WhmnZhec=", "properties": {"@spider": "usps_collection_boxes", "addr:city": "SPRINGFIELD", "addr:country": "US", "addr:full": "600 E MONROE ST", "addr:postcode": "62701", "addr:state": "IL", "amenity": "post_box", "brand": "United States Postal Service", "brand:wikidata": "Q668687", "collection_times": "Mo-Fr 11:00", "name": "USPS COLLECTION BOX - BLUE BOX", "nsi_id": "unitedstatespostalservice-a77078", "operator": "United States Postal Service", "operator:short": "USPS", "operator:type": "public", "operator:wikidata": "Q668687", "ref": "6270100062"}, "type": "Feature"}
{"dataset_attributes": {"@spider": "usps_collection_boxes", "spider:collection_time": "2023-09-19T08:25:58.007339"}, "geometry": {"coordinates": [-89.6505347, 39.799526], "type": "Point"}, "id": "BYtzVG1cRw48Iua7a-9BMUqzAmo=", "properties": {"@spider": "usps_collection_boxes", "addr:city": "SPRINGFIELD", "addr:country": "US", "addr:full": "411 E MONROE ST", "addr:postcode": "62701", "addr:state": "IL", "amenity": "post_box", "brand": "United States Postal Service", "brand:wikidata": "Q668687", "collection_times": "Mo-Fr 17:30; Sa 16:00", "name": "USPS COLLECTION BOX - BLUE BOX", "note": "ON 12/24 AND 12/31, THIS BOX MAY BE COLLECTED AS EARLY AS 12 NOON.", "nsi_id": "unitedstatespostalservice-a77078", "operator": "United States Postal Service", "operator:short": "USPS", "operator:type": "public", "operator:wikidata": "Q668687", "ref": "6270100069"}, "type": "Feature"}
{"dataset_attributes": {"@spider": "usps_collection_boxes", "spider:collection_time": "2023-09-19T08:25:58.007339"}, "geometry": {"coordinates": [-89.653306111, 39.798337698], "type": "Point"}, "id": "xjs1hRIn3tqmnyNTqokaykglDzk=", "properties": {"@spider": "usps_collection_boxes", "addr:city": "SPRINGFIELD", "addr:country": "US", "addr:full": "200 E CAPITOL AVE", "addr:postcode": "62701", "addr:state": "IL", "amenity": "post_box", "brand": "United States Postal Service", "brand:wikidata": "Q668687", "collection_times": "Mo-Fr 16:00", "name": "USPS COLLECTION BOX - BLUE BOX", "note": "ON 12/24 AND 12/31, THIS BOX MAY BE COLLECTED AS EARLY AS 12 NOON.", "nsi_id": "unitedstatespostalservice-a77078", "operator": "United States Postal Service", "operator:short": "USPS", "operator:type": "public", "operator:wikidata": "Q668687", "ref": "6270100072"}, "type": "Feature"}
{"dataset_attributes": {"@spider": "usps_collection_boxes", "spider:collection_time": "2023-09-19T08:25:58.007339"}, "geometry": {"coordinates": [-89.6465077, 39.801794], "type": "Point"}, "id": "r0l4kZgUqzlzMNnzdnI8VZgT5Qo=", "properties": {"@spider": "usps_collection_boxes", "addr:city": "SPRINGFIELD", "addr:country": "US", "addr:full": "127 N 7TH ST", "addr:postcode": "62701", "addr:state": "IL", "amenity": "post_box", "brand": "United States Postal Service", "brand:wikidata": "Q668687", "collection_times": "Mo-Fr 15:00", "name": "USPS COLLECTION BOX - BLUE BOX", "note": "ON 12/24 AND 12/31, THIS BOX MAY BE COLLECTED AS EARLY AS 12 NOON.", "nsi_id": "unitedstatespostalservice-a77078", "operator": "United States Postal Service", "operator:short": "USPS", "operator:type": "public", "operator:wikidata": "Q668687", "ref": "6270100074"}, "type": "Feature"}
{"dataset_attributes": {"@spider": "usps_collection_boxes", "spider:collection_time": "2023-09-19T08:25:58.007339"}, "geometry": {"coordinates": [-89.644485, 39.799407], "type": "Point"}, "id": "YMFTP3p7iRc3Zw5ggTMJOG8DKjQ=", "properties": {"@spider": "usps_collection_boxes", "addr:city": "SPRINGFIELD", "addr:country": "US", "addr:full": "800 E MONROE ST", "addr:postcode": "62701", "addr:state": "IL", "amenity": "post_box", "brand": "United States Postal Service", "brand:wikidata": "Q668687", "collection_times": "Mo-Fr 11:00", "name": "USPS COLLECTION BOX - BLUE BOX", "nsi_id": "unitedstatespostalservice-a77078", "operator": "United States Postal Service", "operator:short": "USPS", "operator:type": "public", "operator:wikidata": "Q668687", "ref": "6270100077"}, "type": "Feature"}
{"dataset_attributes": {"@spider": "usps_collection_boxes", "spider:collection_time": "2023-09-19T08:25:58.007339"}, "geometry": {"coordinates": [-89.6523224, 39.800566], "type": "Point"}, "id": "ZKIlisQDyInCwMqnjmL_xNINcNw=", "properties": {"@spider": "usps_collection_boxes", "addr:city": "SPRINGFIELD", "addr:country": "US", "addr:full": "220 E ADAMS ST", "addr:postcode": "62701", "addr:state": "IL", "amenity": "post_box", "brand": "United States Postal Service", "brand:wikidata": "Q668687", "collection_times": "Mo-Fr 14:30", "name": "USPS COLLECTION BOX - BLUE BOX", "note": "ON 12/24 AND 12/31, THIS BOX MAY BE COLLECTED AS EARLY AS 12 NOON.", "nsi_id": "unitedstatespostalservice-a77078", "operator": "United States Postal Service", "operator:short": "USPS", "operator:type": "public", "operator:wikidata": "Q668687", "ref": "6270100084"}, "type": "Feature"}
{"dataset_attributes": {"@spider": "usps_collection_boxes", "spider:collection_time": "2023-09-19T08:25:58.007339"}, "geometry": {"coordinates": [-89.650627, 39.799471], "type": "Point"}, "id": "YSqe8xBPvw6ICBgXfPg01LFJooM=", "properties": {"@spider": "usps_collection_boxes", "addr:city": "SPRINGFIELD", "addr:country": "US", "addr:full": "411 E MONROE ST", "addr:postcode": "62701", "addr:state": "IL", "amenity": "post_box", "brand": "United States Postal Service", "brand:wikidata": "Q668687", "collection_times": "Mo-Fr 17:00; Sa 12:00", "name": "USPS COLLECTION BOX - PO LOBBY", "note": "ON 12/24 AND 12/31, THIS BOX MAY BE COLLECTED AS EARLY AS 12 NOON.", "nsi_id": "unitedstatespostalservice-a77078", "operator": "United States Postal Service", "operator:short": "USPS", "operator:type": "public", "operator:wikidata": "Q668687", "ref": "6270100086"}, "type": "Feature"}
{"dataset_attributes": {"@spider": "usps_collection_boxes", "spider:collection_time": "2023-09-19T08:25:58.007339"}, "geometry": {"coordinates": [-89.6429264, 39.80039], "type": "Point"}, "id": "dodSSN4Rvi-P_5nR4kO5RfCYe-E=", "properties": {"@spider": "usps_collection_boxes", "addr:city": "SPRINGFIELD", "addr:country": "US", "addr:full": "900 E ADAMS ST", "addr:postcode": "62701", "addr:state": "IL", "amenity": "post_box", "brand": "United States Postal Service", "brand:wikidata": "Q668687", "collection_times": "Mo-Fr 15:00", "name": "USPS COLLECTION BOX - BLUE BOX", "note": "ON 12/24 AND 12/31, THIS BOX MAY BE COLLECTED AS EARLY AS 12 NOON.", "nsi_id": "unitedstatespostalservice-a77078", "operator": "United States Postal Service", "operator:short": "USPS", "operator:type": "public", "operator:wikidata": "Q668687", "ref": "6270100091"}, "type": "Feature"}
{"dataset_attributes": {"@spider": "usps_collection_boxes", "spider:collection_time": "2023-09-19T08:25:58.007339"}, "geometry": {"coordinates": [-89.6479849, 39.796835], "type": "Point"}, "id": "IJoiyAY8mq4pjKfcMzTFDdOAVC8=", "properties": {"@spider": "usps_collection_boxes", "addr:city": "SPRINGFIELD", "addr:country": "US", "addr:full": "509 S 6TH ST", "addr:postcode": "62701", "addr:state": "IL", "amenity": "post_box", "brand": "United States Postal Service", "brand:wikidata": "Q668687", "collection_times": "Mo-Fr 13:00", "name": "USPS COLLECTION BOX - BLUE BOX", "note": "ON 12/24 AND 12/31, THIS BOX MAY BE COLLECTED AS EARLY AS 12 NOON.", "nsi_id": "unitedstatespostalservice-a77078", "operator": "United States Postal Service", "operator:short": "USPS", "operator:type": "public", "operator:wikidata": "Q668687", "ref": "6270100094"}, "type": "Feature"}
{"dataset_attributes": {"@spider": "usps_collection_boxes", "spider:collection_time": "2023-09-19T08:25:58.007339"}, "geometry": {"coordinates": [-89.6435295, 39.798161], "type": "Point"}, "id": "emfJdj6ZHaHBC5KVpAlsk27xlUU=", "properties": {"@spider": "usps_collection_boxes", "addr:city": "SPRINGFIELD", "addr:country": "US", "addr:full": "900 E CAPITOL AVE", "addr:postcode": "62701", "addr:state": "IL", "amenity": "post_box", "brand": "United States Postal Service", "brand:wikidata": "Q668687", "collection_times": "Mo-Fr 15:00", "name": "USPS COLLECTION BOX - BLUE BOX", "note": "ON 12/24 AND 12/31, THIS BOX MAY BE COLLECTED AS EARLY AS 12 NOON.", "nsi_id": "unitedstatespostalservice-a77078", "operator": "United States Postal Service", "operator:short": "USPS", "operator:type": "public", "operator:wikidata": "Q668687", "ref": "6270100096"}, "type": "Feature"}
{"dataset_attributes": {"@spider": "usps_collection_boxes", "spider:collection_time": "2023-09-19T08:25:58.007339"}, "geometry": {"coordinates": [-89.6577294, 39.800771], "type": "Point"}, "id": "nJfVCIa700wQaIgsuOCuEjhjIsw=", "properties": {"@spider": "usps_collection_boxes", "addr:city": "SPRINGFIELD", "addr:country": "US", "addr:full": "325 W ADAMS ST", "addr:postcode": "62701", "addr:state": "IL", "amenity": "post_box", "brand": "United States Postal Service", "brand:wikidata": "Q668687", "collection_times": "Mo-Fr 16:00", "name": "USPS COLLECTION BOX - BLUE BOX", "note": "ON 12/24 AND 12/31, THIS BOX MAY BE COLLECTED AS EARLY AS 12 NOON.", "nsi_id": "unitedstatespostalservice-a77078", "operator": "United States Postal Service", "operator:short": "USPS", "operator:type": "public", "operator:wikidata": "Q668687", "ref": "6270100097"}, "type": "Feature"}
{"dataset_attributes": {"@spider": "usps_collection_boxes", "spider:collection_time": "2023-09-19T08:25:58.007339"}, "geometry": {"coordinates": [-89.6557474, 39.796321], "type": "Point"}, "id": "Coy42k4_Ntujm9fuz5NARVtikck=", "properties": {"@spider": "usps_collection_boxes", "addr:city": "SPRINGFIELD", "addr:country": "US", "addr:full": "502 S SPRING ST", "addr:postcode": "62701", "addr:state": "IL", "amenity": "post_box", "brand": "United States Postal Service", "brand:wikidata": "Q668687", "collection_times": "Mo-Fr 14:30", "name": "USPS COLLECTION BOX - BLUE BOX", "note": "ON 12/24 AND 12/31, THIS BOX MAY BE COLLECTED AS EARLY AS 12 NOON.", "nsi_id": "unitedstatespostalservice-a77078", "operator": "United States Postal Service", "operator:short": "USPS", "operator:type": "public", "operator:wikidata": "Q668687", "ref": "6270100099"}, "type": "Feature"}
{"dataset_attributes": {"@spider": "usps_collection_boxes", "spider:collection_time": "2023-09-19T08:25:58.007339"}, "geometry": {"coordinates": [-89.650359555, 39.799487523], "type": "Point"}, "id": "7s7NmhOqovgq5XaE_lTBsUcO0Vc=", "properties": {"@spider": "usps_collection_boxes", "addr:city": "SPRINGFIELD", "addr:country": "US", "addr:full": "411 E MONROE ST", "addr:postcode": "62701", "addr:state": "IL", "amenity": "post_box", "brand": "United States Postal Service", "brand:wikidata": "Q668687", "collection_times": "Mo-Fr 17:00", "name": "USPS COLLECTION BOX - PO LOBBY", "note": "ON 12/24 AND 12/31, THIS BOX MAY BE COLLECTED AS EARLY AS 12 NOON.", "nsi_id": "unitedstatespostalservice-a77078", "operator": "United States Postal Service", "operator:short": "USPS", "operator:type": "public", "operator:wikidata": "Q668687", "ref": "6270100100"}, "type": "Feature"}
{"dataset_attributes": {"@spider": "usps_collection_boxes", "spider:collection_time": "2023-09-19T08:25:58.007339"}, "geometry": {"coordinates": [-89.6060837, 39.81069], "type": "Point"}, "id": "S9BX4CdZypyCAVsn_Skf99B2S6s=", "properties": {"@spider": "usps_collection_boxes", "addr:city": "SPRINGFIELD", "addr:country": "US", "addr:full": "855 N DIRKSEN PKWY", "addr:postcode": "62702", "addr:state": "IL", "amenity": "post_box", "brand": "United States Postal Service", "brand:wikidata": "Q668687", "collection_times": "Mo-Fr 14:30; Sa 16:00", "name": "USPS COLLECTION BOX - BLUE BOX", "note": "ON 12/24 AND 12/31, THIS BOX MAY BE COLLECTED AS EARLY AS 12 NOON.", "nsi_id": "unitedstatespostalservice-a77078", "operator": "United States Postal Service", "operator:short": "USPS", "operator:type": "public", "operator:wikidata": "Q668687", "ref": "6270200010"}, "type": "Feature"}
{"dataset_attributes": {"@spider": "usps_collection_boxes", "spider:collection_time": "2023-09-19T08:25:58.007339"}, "geometry": {"coordinates": [-89.6447511, 39.83192], "type": "Point"}, "id": "67RKGbX5EnZMQXYnA9HezOweBg0=", "properties": {"@spider": "usps_collection_boxes", "addr:city": "SPRINGFIELD", "addr:country": "US", "addr:full": "801 E SANGAMON AVE", "addr:postcode": "62702", "addr:state": "IL", "amenity": "post_box", "brand": "United States Postal Service", "brand:wikidata": "Q668687", "collection_times": "Mo-Fr 09:00", "name": "USPS COLLECTION BOX - BLUE BOX", "nsi_id": "unitedstatespostalservice-a77078", "operator": "United States Postal Service", "operator:short": "USPS", "operator:type": "public", "operator:wikidata": "Q668687", "ref": "6270200012"}, "type": "Feature"}
{"dataset_attributes": {"@spider": "usps_collection_boxes", "spider:collection_time": "2023-09-19T08:25:58.007339"}, "geometry": {"coordinates": [-89.6815239, 39.801848], "type": "Point"}, "id": "xrfqQ9mVbv_UqaNs4GXoWXgdv-8=", "properties": {"@spider": "usps_collection_boxes", "addr:city": "SPRINGFIELD", "addr:country": "US", "addr:full": "1625 W WASHINGTON ST", "addr:postcode": "62702", "addr:state": "IL", "amenity": "post_box", "brand": "United States Postal Service", "brand:wikidata": "Q668687", "collection_times": "Mo-Fr 16:00", "name": "USPS COLLECTION BOX - BLUE BOX", "note": "ON 12/24 AND 12/31, THIS BOX MAY BE COLLECTED AS EARLY AS 12 NOON.", "nsi_id": "unitedstatespostalservice-a77078", "operator": "United States Postal Service", "operator:short": "USPS", "operator:type": "public", "operator:wikidata": "Q668687", "ref": "6270200017"}, "type": "Feature"}
{"dataset_attributes": {"@spider": "usps_collection_boxes", "spider:collection_time": "2023-09-19T08:25:58.007339"}, "geometry": {"coordinates": [-89.6945347, 39.812369], "type": "Point"}, "id": "I7JlYrYIxufDwnKWZcdJUnNygW0=", "properties": {"@spider": "usps_collection_boxes", "addr:city": "SPRINGFIELD", "addr:country": "US", "addr:full": "2401 W JEFFERSON ST", "addr:postcode": "62702", "addr:state": "IL", "amenity": "post_box", "brand": "United States Postal Service", "brand:wikidata": "Q668687", "collection_times": "Mo-Fr 16:00; Sa 11:00", "name": "USPS COLLECTION BOX - BLUE BOX", "note": "ON 12/24 AND 12/31, THIS BOX MAY BE COLLECTED AS EARLY AS 12 NOON.", "nsi_id": "unitedstatespostalservice-a77078", "operator": "United States Postal Service", "operator:short": "USPS", "operator:type": "public", "operator:wikidata": "Q668687", "ref": "6270200019"}, "type": "Feature"}
{"dataset_attributes": {"@spider": "usps_collection_boxes", "spider:collection_time": "2023-09-19T08:25:58.007339"}, "geometry": {"coordinates": [-89.6443387, 39.816832], "type": "Point"}, "id": "pMZC65D8iZtOL8fpn7Sxw1hjd40=", "properties": {"@spider": "usps_collection_boxes", "addr:city": "SPRINGFIELD", "addr:country": "US", "addr:full": "801 N GRAND AVE", "addr:postcode": "62702", "addr:state": "IL", "amenity": "post_box", "brand": "United States Postal Service", "brand:wikidata": "Q668687", "collection_times": "Mo-Fr 17:00; Sa 16:00", "name": "USPS COLLECTION BOX - BLUE BOX", "note": "ON 12/24 AND 12/31, THIS BOX MAY BE COLLECTED AS EARLY AS 12 NOON.", "nsi_id": "unitedstatespostalservice-a77078", "operator": "United States Postal Service", "operator:short": "USPS", "operator:type": "public", "operator:wikidata": "Q668687", "ref": "6270200022"}, "type": "Feature"}
{"dataset_attributes": {"@spider": "usps_collection_boxes", "spider:collection_time": "2023-09-19T08:25:58.007339"}, "geometry": {"coordinates": [-89.707844, 39.80185], "type": "Point"}, "id": "qww0xiEgPd7fC5zJbWy7cUJLw-g=", "properties": {"@spider": "usps_collection_boxes", "addr:city": "SPRINGFIELD", "addr:country": "US", "addr:full": "2815 W WASHINGTON ST", "addr:postcode": "62702", "addr:state": "IL", "amenity": "post_box", "brand": "United States Postal Service", "brand:wikidata": "Q668687", "collection_times": "Mo-Fr 16:00", "name": "USPS COLLECTION BOX - BLUE BOX", "note": "ON 12/24 AND 12/31, THIS BOX MAY BE COLLECTED AS EARLY AS 12 NOON.", "nsi_id": "unitedstatespostalservice-a77078", "operator": "United States Postal Service", "operator:short": "USPS", "operator:type": "public", "operator:wikidata": "Q668687", "ref": "6270200028"}, "type": "Feature"}
{"dataset_attributes": {"@spider": "usps_collection_boxes", "spider:collection_time": "2023-09-19T08:25:58.007339"}, "geometry": {"coordinates": [-89.6292236, 39.832626], "type": "Point"}, "id": "CHjqB3vhNGtHoFzwneO0lHu2pEQ=", "properties": {"@spider": "usps_collection_boxes", "addr:city": "SPRINGFIELD", "addr:country": "US", "addr:full": "1927 E SANGAMON AVE", "addr:postcode": "62702", "addr:state": "IL", "amenity": "post_box", "brand": "United States Postal Service", "brand:wikidata": "Q668687", "collection_times": "Mo-Fr 15:00; Sa 16:00", "name": "USPS COLLECTION BOX - BLUE BOX", "note": "ON 12/24 AND 12/31, THIS BOX MAY BE COLLECTED AS EARLY AS 12 NOON.", "nsi_id": "unitedstatespostalservice-a77078", "operator": "United States Postal Service", "operator:short": "USPS", "operator:type": "public", "operator:wikidata": "Q668687", "ref": "6270200035"}, "type": "Feature"}
{"dataset_attributes": {"@spider": "usps_collection_boxes", "spider:collection_time": "2023-09-19T08:25:58.007339"}, "geometry": {"coordinates": [-89.66113, 39.803097], "type": "Point"}, "id": "NlgcniF3vOwclEw2bkxD-Jaw_Is=", "properties": {"@spider": "usps_collection_boxes", "addr:city": "SPRINGFIELD", "addr:country": "US", "addr:full": "525 W JEFFERSON ST", "addr:postcode": "62702", "addr:state": "IL", "amenity": "post_box", "brand": "United States Postal Service", "brand:wikidata": "Q668687", "collection_times": "Mo-Fr 15:00", "name": "USPS COLLECTION BOX - BLUE BOX", "note": "ON 12/24 AND 12/31, THIS BOX MAY BE COLLECTED AS EARLY AS 12 NOON.", "nsi_id": "unitedstatespostalservice-a77078", "operator": "United States Postal Service", "operator:short": "USPS", "operator:type": "public", "operator:wikidata": "Q668687", "ref": "6270200036"}, "type": "Feature"}
{"dataset_attributes": {"@spider": "usps_collection_boxes", "spider:collection_time": "2023-09-19T08:25:58.007339"}, "geometry": {"coordinates": [-89.6575535, 39.807252], "type": "Point"}, "id": "o0bXO78WEKSSkuqs2tCWrCONxyg=", "properties": {"@spider": "usps_collection_boxes", "addr:city": "SPRINGFIELD", "addr:country": "US", "addr:full": "601 N RUTLEDGE ST", "addr:postcode": "62702", "addr:state": "IL", "amenity": "post_box", "brand": "United States Postal Service", "brand:wikidata": "Q668687", "collection_times": "Mo-Fr 11:00; Sa 15:00", "name": "USPS COLLECTION BOX - BLUE BOX", "note": "ON 12/24 AND 12/31, THIS BOX MAY BE COLLECTED AS EARLY AS 12 NOON.", "nsi_id": "unitedstatespostalservice-a77078", "operator": "United States Postal Service", "operator:short": "USPS", "operator:type": "public", "operator:wikidata": "Q668687", "ref": "6270200039"}, "type": "Feature"}
{"dataset_attributes": {"@spider": "usps_collection_boxes", "spider:collection_time": "2023-09-19T08:25:58.007339"}, "geometry": {"coordinates": [-89.6573318, 39.802404], "type": "Point"}, "id": "r5ogRzN170EbzHifZbNwJUrB0Mk=", "properties": {"@spider": "usps_collection_boxes", "addr:city": "SPRINGFIELD", "addr:country": "US", "addr:full": "300 W JEFFERSON ST", "addr:postcode": "62702", "addr:state": "IL", "amenity": "post_box", "brand": "United States Postal Service", "brand:wikidata": "Q668687", "collection_times": "Mo-Fr 10:00", "name": "USPS COLLECTION BOX - BLUE BOX", "nsi_id": "unitedstatespostalservice-a77078", "operator": "United States Postal Service", "operator:short": "USPS", "operator:type": "public", "operator:wikidata": "Q668687", "ref": "6270200047"}, "type": "Feature"}
{"dataset_attributes": {"@spider": "usps_collection_boxes", "spider:collection_time": "2023-09-19T08:25:58.007339"}, "geometry": {"coordinates": [-89.6039127, 39.836173], "type": "Point"}, "id": "LDULWsfoP8gQ0jaJ_8HZ6WCHAns=", "properties": {"@spider": "usps_collection_boxes", "addr:city": "SPRINGFIELD", "addr:country": "US", "addr:full": "2450 N DIRKSEN PKWY", "addr:postcode": "62702", "addr:state": "IL", "amenity": "post_box", "brand": "United States Postal Service", "brand:wikidata": "Q668687", "collection_times": "Mo-Fr 14:30; Sa 14:15", "name": "USPS COLLECTION BOX - BLUE BOX", "note": "ON 12/24 AND 12/31, THIS BOX MAY BE COLLECTED AS EARLY AS 12 NOON.", "nsi_id": "unitedstatespostalservice-a77078", "operator": "United States Postal Service", "operator:short": "USPS", "operator:type": "public", "operator:wikidata": "Q668687", "ref": "6270200048"}, "type": "Feature"}
{"dataset_attributes": {"@spider": "usps_collection_boxes", "spider:collection_time": "2023-09-19T08:25:58.007339"}, "geometry": {"coordinates": [-89.6547674, 39.802058], "type": "Point"}, "id": "TMyaMA-rINwVVv5IdVua99cjFUk=", "properties": {"@spider": "usps_collection_boxes", "addr:city": "SPRINGFIELD", "addr:country": "US", "addr:full": "100 N 1ST ST", "addr:postcode": "62702", "addr:state": "IL", "amenity": "post_box", "brand": "United States Postal Service", "brand:wikidata": "Q668687", "collection_times": "Mo-Fr 14:30", "name": "USPS COLLECTION BOX - BLUE BOX", "note": "ON 12/24 AND 12/31, THIS BOX MAY BE COLLECTED AS EARLY AS 12 NOON.", "nsi_id": "unitedstatespostalservice-a77078", "operator": "United States Postal Service", "operator:short": "USPS", "operator:type": "public", "operator:wikidata": "Q668687", "ref": "6270200049"}, "type": "Feature"}
{"dataset_attributes": {"@spider": "usps_collection_boxes", "spider:collection_time": "2023-09-19T08:25:58.007339"}, "geometry": {"coordinates": [-89.629905524, 39.83115861], "type": "Point"}, "id": "gf1YNiy54taIJ3CEY1NzBmEluUA=", "properties": {"@spider": "usps_collection_boxes", "addr:city": "SPRINGFIELD", "addr:country": "US", "addr:full": "1927 E SANGAMON AVE", "addr:postcode": "62702", "addr:state": "IL", "amenity": "post_box", "brand": "United States Postal Service", "brand:wikidata": "Q668687", "collection_times": "Mo-Fr 15:00; Sa 16:00", "name": "USPS COLLECTION BOX - BLUE BOX", "note": "ON 12/24 AND 12/31, THIS BOX MAY BE COLLECTED AS EARLY AS 12 NOON.", "nsi_id": "unitedstatespostalservice-a77078", "operator": "United States Postal Service", "operator:short": "USPS", "operator:type": "public", "operator:wikidata": "Q668687", "ref": "6270200054"}, "type": "Feature"}
{"dataset_attributes": {"@spider": "usps_collection_boxes", "spider:collection_time": "2023-09-19T08:25:58.007339"}, "geometry": {"coordinates": [-89.6391795, 39.800927], "type": "Point"}, "id": "u9vq0U6ew_Sm4EbL3nkOIeRcoro=", "properties": {"@spider": "usps_collection_boxes", "addr:city": "SPRINGFIELD", "addr:country": "US", "addr:full": "1210 E WASHINGTON ST", "addr:postcode": "62703", "addr:state": "IL", "amenity": "post_box", "brand": "United States Postal Service", "brand:wikidata": "Q668687", "collection_times": "Mo-Sa 10:30", "name": "USPS COLLECTION BOX - BLUE BOX", "nsi_id": "unitedstatespostalservice-a77078", "operator": "United States Postal Service", "operator:short": "USPS", "operator:type": "public", "operator:wikidata": "Q668687", "ref": "6270300007"}, "type": "Feature"}
{"dataset_attributes": {"@spider": "usps_collection_boxes", "spider:collection_time": "2023-09-19T08:25:58.007339"}, "geometry": {"coordinates": [-89.6271631, 39.75718], "type": "Point"}, "id": "5-KIgBKcfLXMoT9DLfgdHkS_cIo=", "properties": {"@spider": "usps_collection_boxes", "addr:city": "SPRINGFIELD", "addr:country": "US", "addr:full": "1826 STEVENSON DR", "addr:postcode": "62703", "addr:state": "IL", "amenity": "post_box", "brand": "United States Postal Service", "brand:wikidata": "Q668687", "collection_times": "Mo-Fr 16:30; Sa 13:00", "name": "USPS COLLECTION BOX - BLUE BOX", "note": "ON 12/24 AND 12/31, THIS BOX MAY BE COLLECTED AS EARLY AS 12 NOON.", "nsi_id": "unitedstatespostalservice-a77078", "operator": "United States Postal Service", "operator:short": "USPS", "operator:type": "public", "operator:wikidata": "Q668687", "ref": "6270300008"}, "type": "Feature"}
{"dataset_attributes": {"@spider": "usps_collection_boxes", "spider:collection_time": "2023-09-19T08:25:58.007339"}, "geometry": {"coordinates": [-89.6079962, 39.790169], "type": "Point"}, "id": "_F8kdiE67-bMRcgxSnnzb4WvS1o=", "properties": {"@spider": "usps_collection_boxes", "addr:city": "SPRINGFIELD", "addr:country": "US", "addr:full": "1201 S DIRKSEN PKWY", "addr:postcode": "62703", "addr:state": "IL", "amenity": "post_box", "brand": "United States Postal Service", "brand:wikidata": "Q668687", "collection_times": "Mo-Sa 10:00", "name": "USPS COLLECTION BOX - BLUE BOX", "nsi_id": "unitedstatespostalservice-a77078", "operator": "United States Postal Service", "operator:short": "USPS", "operator:type": "public", "operator:wikidata": "Q668687", "ref": "6270300009"}, "type": "Feature"}
{"dataset_attributes": {"@spider": "usps_collection_boxes", "spider:collection_time": "2023-09-19T08:25:58.007339"}, "geometry": {"coordinates": [-89.6191820061, 39.7289919825], "type": "Point"}, "id": "E3jR7hBmA8HLle3xHsLHPUHgXNg=", "properties": {"@spider": "usps_collection_boxes", "addr:city": "SPRINGFIELD", "addr:country": "US", "addr:full": "1 UNIVERSITY PLZ", "addr:postcode": "62703", "addr:state": "IL", "amenity": "post_box", "brand": "United States Postal Service", "brand:wikidata": "Q668687", "collection_times": "Mo-Fr 16:00", "name": "USPS COLLECTION BOX - BLUE BOX", "note": "ON 12/24 AND 12/31, THIS BOX MAY BE COLLECTED AS EARLY AS 12 NOON.", "nsi_id": "unitedstatespostalservice-a77078", "operator": "United States Postal Service", "operator:short": "USPS", "operator:type": "public", "operator:wikidata": "Q668687", "ref": "6270300031"}, "type": "Feature"}
{"dataset_attributes": {"@spider": "usps_collection_boxes", "spider:collection_time": "2023-09-19T08:25:58.007339"}, "geometry": {"coordinates": [-89.6493866, 39.764625], "type": "Point"}, "id": "dfbqXBFvTYGeQ3hWo6IIt2ZoFLY=", "properties": {"@spider": "usps_collection_boxes", "addr:city": "SPRINGFIELD", "addr:country": "US", "addr:full": "2777 S 6TH ST", "addr:postcode": "62703", "addr:state": "IL", "amenity": "post_box", "brand": "United States Postal Service", "brand:wikidata": "Q668687", "collection_times": "Mo-Fr 13:00; Sa 16:00", "name": "USPS COLLECTION BOX - BLUE BOX", "note": "ON 12/24 AND 12/31, THIS BOX MAY BE COLLECTED AS EARLY AS 12 NOON.", "nsi_id": "unitedstatespostalservice-a77078", "operator": "United States Postal Service", "operator:short": "USPS", "operator:type": "public", "operator:wikidata": "Q668687", "ref": "6270300032"}, "type": "Feature"}
{"dataset_attributes": {"@spider": "usps_collection_boxes", "spider:collection_time": "2023-09-19T08:25:58.007339"}, "geometry": {"coordinates": [-89.6108668, 39.759371], "type": "Point"}, "id": "xi0_3P1d8uIJEcj4W4Z6ntip7CM=", "properties": {"@spider": "usps_collection_boxes", "addr:city": "SPRINGFIELD", "addr:country": "US", "addr:full": "3180 ADLOFF LN", "addr:postcode": "62703", "addr:state": "IL", "amenity": "post_box", "brand": "United States Postal Service", "brand:wikidata": "Q668687", "collection_times": "Mo-Sa 10:30", "name": "USPS COLLECTION BOX - BLUE BOX", "nsi_id": "unitedstatespostalservice-a77078", "operator": "United States Postal Service", "operator:short": "USPS", "operator:type": "public", "operator:wikidata": "Q668687", "ref": "6270300033"}, "type": "Feature"}
{"dataset_attributes": {"@spider": "usps_collection_boxes", "spider:collection_time": "2023-09-19T08:25:58.007339"}, "geometry": {"coordinates": [-89.6459559, 39.788174], "type": "Point"}, "id": "caVfg95E62MOtBCVYv9ffBp8UrM=", "properties": {"@spider": "usps_collection_boxes", "addr:city": "SPRINGFIELD", "addr:country": "US", "addr:full": "730 E VINE ST", "addr:postcode": "62703", "addr:state": "IL", "amenity": "post_box", "brand": "United States Postal Service", "brand:wikidata": "Q668687", "collection_times": "Mo-Fr 12:30; Sa 13:00", "name": "USPS COLLECTION BOX - BLUE BOX", "note": "ON 12/24 AND 12/31, THIS BOX MAY BE COLLECTED AS EARLY AS 12 NOON.", "nsi_id": "unitedstatespostalservice-a77078", "operator": "United States Postal Service", "operator:short": "USPS", "operator:type": "public", "operator:wikidata": "Q668687", "ref": "6270300042"}, "type": "Feature"}
{"dataset_attributes": {"@spider": "usps_collection_boxes", "spider:collection_time": "2023-09-19T08:25:58.007339"}, "geometry": {"coordinates": [-89.648197187, 39.79079056], "type": "Point"}, "id": "D0cytxi4TPmJ47NtvddPDkQ6JIc=", "properties": {"@spider": "usps_collection_boxes", "addr:city": "SPRINGFIELD", "addr:country": "US", "addr:full": "1025 S 6TH ST", "addr:postcode": "62703", "addr:state": "IL", "amenity": "post_box", "brand": "United States Postal Service", "brand:wikidata": "Q668687", "collection_times": "Mo-Fr 12:45", "name": "USPS COLLECTION BOX - BLUE BOX", "note": "ON 12/24 AND 12/31, THIS BOX MAY BE COLLECTED AS EARLY AS 12 NOON.", "nsi_id": "unitedstatespostalservice-a77078", "operator": "United States Postal Service", "operator:short": "USPS", "operator:type": "public", "operator:wikidata": "Q668687", "ref": "6270300052"}, "type": "Feature"}
{"dataset_attributes": {"@spider": "usps_collection_boxes", "spider:collection_time": "2023-09-19T08:25:58.007339"}, "geometry": {"coordinates": [-89.6098485, 39.76159], "type": "Point"}, "id": "ZS3JC46Rg02Ru9qCM2m7DzxkkN0=", "properties": {"@spider": "usps_collection_boxes", "addr:city": "SPRINGFIELD", "addr:country": "US", "addr:full": "3095 S DIRKSEN PKWY", "addr:postcode": "62703", "addr:state": "IL", "amenity": "post_box", "brand": "United States Postal Service", "brand:wikidata": "Q668687", "collection_times": "Mo-Sa 10:15", "name": "USPS COLLECTION BOX - BLUE BOX", "nsi_id": "unitedstatespostalservice-a77078", "operator": "United States Postal Service", "operator:short": "USPS", "operator:type": "public", "operator:wikidata": "Q668687", "ref": "6270300074"}, "type": "Feature"}
{"dataset_attributes": {"@spider": "usps_collection_boxes", "spider:collection_time": "2023-09-19T08:25:58.007339"}, "geometry": {"coordinates": [-89.6099089, 39.758964], "type": "Point"}, "id": "-KjPpUUO2lW7kTNe4lECOFC9aQk=", "properties": {"@spider": "usps_collection_boxes", "addr:city": "SPRINGFIELD", "addr:country": "US", "addr:full": "3085 STEVENSON DR", "addr:postcode": "62703", "addr:state": "IL", "amenity": "post_box", "brand": "United States Postal Service", "brand:wikidata": "Q668687", "collection_times": "Mo-Sa 10:30", "name": "USPS COLLECTION BOX - BLUE BOX", "nsi_id": "unitedstatespostalservice-a77078", "operator": "United States Postal Service", "operator:short": "USPS", "operator:type": "public", "operator:wikidata": "Q668687", "ref": "6270300125"}, "type": "Feature"}
{"dataset_attributes": {"@spider": "usps_collection_boxes", "spider:collection_time": "2023-09-19T08:25:58.007339"}, "geometry": {"coordinates": [-89.62190857, 39.76426071], "type": "Point"}, "id": "V7aScCTORoVlR61z32latZ11HMI=", "properties": {"@spider": "usps_collection_boxes", "addr:city": "SPRINGFIELD", "addr:country": "US", "addr:full": "2924 STANTON ST", "addr:postcode": "62703", "addr:state": "IL", "amenity": "post_box", "brand": "United States Postal Service", "brand:wikidata": "Q668687", "collection_times": "Mo-Sa 12:00", "name": "USPS COLLECTION BOX - BLUE BOX", "nsi_id": "unitedstatespostalservice-a77078", "operator": "United States Postal Service", "operator:short": "USPS", "operator:type": "public", "operator:wikidata": "Q668687", "ref": "6270300129"}, "type": "Feature"}
{"dataset_attributes": {"@spider": "usps_collection_boxes", "spider:collection_time": "2023-09-19T08:25:58.007339"}, "geometry": {"coordinates": [-89.6444068, 39.762257], "type": "Point"}, "id": "zDyoiDBBmWYP6CEd8jrwvJsUZW8=", "properties": {"@spider": "usps_collection_boxes", "addr:city": "SPRINGFIELD", "addr:country": "US", "addr:full": "2960 BAKER DR", "addr:postcode": "62703", "addr:state": "IL", "amenity": "post_box", "brand": "United States Postal Service", "brand:wikidata": "Q668687", "collection_times": "Mo-Fr 13:00; Sa 16:00", "name": "USPS COLLECTION BOX - BLUE BOX", "note": "ON 12/24 AND 12/31, THIS BOX MAY BE COLLECTED AS EARLY AS 12 NOON.", "nsi_id": "unitedstatespostalservice-a77078", "operator": "United States Postal Service", "operator:short": "USPS", "operator:type": "public", "operator:wikidata": "Q668687", "ref": "6270300131"}, "type": "Feature"}
{"dataset_attributes": {"@spider": "usps_collection_boxes", "spider:collection_time": "2023-09-19T08:25:58.007339"}, "geometry": {"coordinates": [-89.6481407, 39.784905], "type": "Point"}, "id": "iNGTXJEgfr8hIkonPaCrawh0PAM=", "properties": {"@spider": "usps_collection_boxes", "addr:city": "SPRINGFIELD", "addr:country": "US", "addr:full": "1600 S 6TH ST", "addr:postcode": "62703", "addr:state": "IL", "amenity": "post_box", "brand": "United States Postal Service", "brand:wikidata": "Q668687", "collection_times": "Mo-Fr 10:00", "name": "USPS COLLECTION BOX - BLUE BOX", "nsi_id": "unitedstatespostalservice-a77078", "operator": "United States Postal Service", "operator:short": "USPS", "operator:type": "public", "operator:wikidata": "Q668687", "ref": "6270300133"}, "type": "Feature"}
{"dataset_attributes": {"@spider": "usps_collection_boxes", "spider:collection_time": "2023-09-19T08:25:58.007339"}, "geometry": {"coordinates": [-89.6483066, 39.78919], "type": "Point"}, "id": "Rf2aB14sWIPOmkGmm6ifFK-53Dk=", "properties": {"@spider": "usps_collection_boxes", "addr:city": "SPRINGFIELD", "addr:country": "US", "addr:full": "1201 S 6TH ST", "addr:postcode": "62703", "addr:state": "IL", "amenity": "post_box", "brand": "United States Postal Service", "brand:wikidata": "Q668687", "collection_times": "Mo-Sa 11:30", "name": "USPS COLLECTION BOX - BLUE BOX", "nsi_id": "unitedstatespostalservice-a77078", "operator": "United States Postal Service", "operator:short": "USPS", "operator:type": "public", "operator:wikidata": "Q668687", "ref": "6270300134"}, "type": "Feature"}
{"dataset_attributes": {"@spider": "usps_collection_boxes", "spider:collection_time": "2023-09-19T08:25:58.007339"}, "geometry": {"coordinates": [-89.648197187, 39.79079056], "type": "Point"}, "id": "o_c21YmUFRiN4sstNuLmgr4ZlzA=", "properties": {"@spider": "usps_collection_boxes", "addr:city": "SPRINGFIELD", "addr:country": "US", "addr:full": "1025 S 6TH ST", "addr:postcode": "62703", "addr:state": "IL", "amenity": "post_box", "brand": "United States Postal Service", "brand:wikidata": "Q668687", "collection_times": "Mo-Fr 15:00", "name": "USPS COLLECTION BOX - BLUE BOX", "note": "ON 12/24 AND 12/31, THIS BOX MAY BE COLLECTED AS EARLY AS 12 NOON.", "nsi_id": "unitedstatespostalservice-a77078", "operator": "United States Postal Service", "operator:short": "USPS", "operator:type": "public", "operator:wikidata": "Q668687", "ref": "6270300135"}, "type": "Feature"}
{"dataset_attributes": {"@spider": "usps_collection_boxes", "spider:collection_time": "2023-09-19T08:25:58.007339"}, "geometry": {"coordinates": [-89.6495999, 39.786664], "type": "Point"}, "id": "A3ytFbxSp5DdHMMsbPAM08J1GHc=", "properties": {"@spider": "usps_collection_boxes", "addr:city": "SPRINGFIELD", "addr:country": "US", "addr:full": "1310 S 5TH ST", "addr:postcode": "62703", "addr:state": "IL", "amenity": "post_box", "brand": "United States Postal Service", "brand:wikidata": "Q668687", "collection_times": "Mo-Fr 15:30; Sa 13:00", "name": "USPS COLLECTION BOX - BLUE BOX", "note": "ON 12/24 AND 12/31, THIS BOX MAY BE COLLECTED AS EARLY AS 12 NOON.", "nsi_id": "unitedstatespostalservice-a77078", "operator": "United States Postal Service", "operator:short": "USPS", "operator:type": "public", "operator:wikidata": "Q668687", "ref": "6270300139"}, "type": "Feature"}
{"dataset_attributes": {"@spider": "usps_collection_boxes", "spider:collection_time": "2023-09-19T08:25:58.007339"}, "geometry": {"coordinates": [-89.649895656, 39.782534513], "type": "Point"}, "id": "ekjBwJ9tkT7mjiplU3GIRNCvuU0=", "properties": {"@spider": "usps_collection_boxes", "addr:city": "SPRINGFIELD", "addr:country": "US", "addr:full": "1725 S 5TH ST", "addr:postcode": "62703", "addr:state": "IL", "amenity": "post_box", "brand": "United States Postal Service", "brand:wikidata": "Q668687", "collection_times": "Mo-Fr 15:30; Sa 16:00", "name": "USPS COLLECTION BOX - BLUE BOX", "note": "ON 12/24 AND 12/31, THIS BOX MAY BE COLLECTED AS EARLY AS 12 NOON.", "nsi_id": "unitedstatespostalservice-a77078", "operator": "United States Postal Service", "operator:short": "USPS", "operator:type": "public", "operator:wikidata": "Q668687", "ref": "6270300142"}, "type": "Feature"}
{"dataset_attributes": {"@spider": "usps_collection_boxes", "spider:collection_time": "2023-09-19T08:25:58.007339"}, "geometry": {"coordinates": [-89.6181617201, 39.7579474774], "type": "Point"}, "id": "NnaT273avG5twD97MyhdlUcP0nw=", "properties": {"@spider": "usps_collection_boxes", "addr:city": "SPRINGFIELD", "addr:country": "US", "addr:full": "2600 STEVENSON DR", "addr:postcode": "62703", "addr:state": "IL", "amenity": "post_box", "brand": "United States Postal Service", "brand:wikidata": "Q668687", "collection_times": "Mo-Fr 12:30; Sa 13:00", "name": "USPS COLLECTION BOX - BLUE BOX", "note": "ON 12/24 AND 12/31, THIS BOX MAY BE COLLECTED AS EARLY AS 12 NOON.", "nsi_id": "unitedstatespostalservice-a77078", "operator": "United States Postal Service", "operator:short": "USPS", "operator:type": "public", "operator:wikidata": "Q668687", "ref": "6270300145"}, "type": "Feature"}
{"dataset_attributes": {"@spider": "usps_collection_boxes", "spider:collection_time": "2023-09-19T08:25:58.007339"}, "geometry": {"coordinates": [-89.6479635, 39.777962], "type": "Point"}, "id": "KYs3iZSMaFtkXhlaWrjIoEo6nqc=", "properties": {"@spider": "usps_collection_boxes", "addr:city": "SPRINGFIELD", "addr:country": "US", "addr:full": "200 ILES PARK PL", "addr:postcode": "62703", "addr:state": "IL", "amenity": "post_box", "brand": "United States Postal Service", "brand:wikidata": "Q668687", "collection_times": "Mo-Fr 10:00", "name": "USPS COLLECTION BOX - BLUE BOX", "nsi_id": "unitedstatespostalservice-a77078", "operator": "United States Postal Service", "operator:short": "USPS", "operator:type": "public", "operator:wikidata": "Q668687", "ref": "6270300149"}, "type": "Feature"}
{"dataset_attributes": {"@spider": "usps_collection_boxes", "spider:collection_time": "2023-09-19T08:25:58.007339"}, "geometry": {"coordinates": [-89.6498981, 39.775673], "type": "Point"}, "id": "Eroe9kjX5KDGPeTugXneJOGEKYQ=", "properties": {"@spider": "usps_collection_boxes", "addr:city": "SPRINGFIELD", "addr:country": "US", "addr:full": "2200 S 5TH ST", "addr:postcode": "62703", "addr:state": "IL", "amenity": "post_box", "brand": "United States Postal Service", "brand:wikidata": "Q668687", "collection_times": "Mo-Fr 12:30; Sa 16:00", "name": "USPS COLLECTION BOX - BLUE BOX", "note": "ON 12/24 AND 12/31, THIS BOX MAY BE COLLECTED AS EARLY AS 12 NOON.", "nsi_id": "unitedstatespostalservice-a77078", "operator": "United States Postal Service", "operator:short": "USPS", "operator:type": "public", "operator:wikidata": "Q668687", "ref": "6270300152"}, "type": "Feature"}
{"dataset_attributes": {"@spider": "usps_collection_boxes", "spider:collection_time": "2023-09-19T08:25:58.007339"}, "geometry": {"coordinates": [-89.6494055, 39.794007], "type": "Point"}, "id": "5yLyyo9ekGUVJ8xyyrOSD4B2a6Q=", "properties": {"@spider": "usps_collection_boxes", "addr:city": "SPRINGFIELD", "addr:country": "US", "addr:full": "500 E LAWRENCE AVE", "addr:postcode": "62703", "addr:state": "IL", "amenity": "post_box", "brand": "United States Postal Service", "brand:wikidata": "Q668687", "collection_times": "Mo-Fr 11:30", "name": "USPS COLLECTION BOX - BLUE BOX", "nsi_id": "unitedstatespostalservice-a77078", "operator": "United States Postal Service", "operator:short": "USPS", "operator:type": "public", "operator:wikidata": "Q668687", "ref": "6270300160"}, "type": "Feature"}
{"dataset_attributes": {"@spider": "usps_collection_boxes", "spider:collection_time": "2023-09-19T08:25:58.007339"}, "geometry": {"coordinates": [-89.6491413, 39.755571], "type": "Point"}, "id": "2OwPNIdt_XfUWMiUNTJRXslUcXc=", "properties": {"@spider": "usps_collection_boxes", "addr:city": "SPRINGFIELD", "addr:country": "US", "addr:full": "500 E SAINT JOSEPH ST", "addr:postcode": "62703", "addr:state": "IL", "amenity": "post_box", "brand": "United States Postal Service", "brand:wikidata": "Q668687", "collection_times": "Mo-Fr 12:30; Sa 16:00", "name": "USPS COLLECTION BOX - BLUE BOX", "note": "ON 12/24 AND 12/31, THIS BOX MAY BE COLLECTED AS EARLY AS 12 NOON.", "nsi_id": "unitedstatespostalservice-a77078", "operator": "United States Postal Service", "operator:short": "USPS", "operator:type": "public", "operator:wikidata": "Q668687", "ref": "6270300164"}, "type": "Feature"}
{"dataset_attributes": {"@spider": "usps_collection_boxes", "spider:collection_time": "2023-09-19T08:25:58.007339"}, "geometry": {"coordinates": [-89.6369547, 39.728652], "type": "Point"}, "id": "AXgLa9r5MOfUe4O3PfMByZdAxRI=", "properties": {"@spider": "usps_collection_boxes", "addr:city": "SPRINGFIELD", "addr:country": "US", "addr:full": "4200 RODGER ST", "addr:postcode": "62703", "addr:state": "IL", "amenity": "post_box", "brand": "United States Postal Service", "brand:wikidata": "Q668687", "collection_times": "Mo-Fr 15:30", "name": "USPS COLLECTION BOX - BLUE BOX", "note": "ON 12/24 AND 12/31, THIS BOX MAY BE COLLECTED AS EARLY AS 12 NOON.", "nsi_id": "unitedstatespostalservice-a77078", "operator": "United States Postal Service", "operator:short": "USPS", "operator:type": "public", "operator:wikidata": "Q668687", "ref": "6270300166"}, "type": "Feature"}
{"dataset_attributes": {"@spider": "usps_collection_boxes", "spider:collection_time": "2023-09-19T08:25:58.007339"}, "geometry": {"coordinates": [-89.62389208, 39.794689502], "type": "Point"}, "id": "gUphi1wwJw1Y39y_tubrr5nEJzs=", "properties": {"@spider": "usps_collection_boxes", "addr:city": "SPRINGFIELD", "addr:country": "US", "addr:full": "2105 E COOK ST", "addr:postcode": "62703", "addr:state": "IL", "amenity": "post_box", "brand": "United States Postal Service", "brand:wikidata": "Q668687", "collection_times": "Mo-Sa 19:00", "name": "USPS COLLECTION BOX - BLUE BOX", "note": "ON 12/24 AND 12/31, THIS BOX MAY BE COLLECTED AS EARLY AS 12 NOON.", "nsi_id": "unitedstatespostalservice-a77078", "operator": "United States Postal Service", "operator:short": "USPS", "operator:type": "public", "operator:wikidata": "Q668687", "ref": "6270300172"}, "type": "Feature"}
{"dataset_attributes": {"@spider": "usps_collection_boxes", "spider:collection_time": "2023-09-19T08:25:58.007339"}, "geometry": {"coordinates": [-89.62389208, 39.794689502], "type": "Point"}, "id": "lwyq5uGgQwsWBz7otp-PdIbO4bU=", "properties": {"@spider": "usps_collection_boxes", "addr:city": "SPRINGFIELD", "addr:country": "US", "addr:full": "2105 E COOK ST", "addr:postcode": "62703", "addr:state": "IL", "amenity": "post_box", "brand": "United States Postal Service", "brand:wikidata": "Q668687", "collection_times": "Mo-Sa 19:00", "name": "USPS COLLECTION BOX - PO LOBBY", "note": "ON 12/24 AND 12/31, THIS BOX MAY BE COLLECTED AS EARLY AS 12 NOON.", "nsi_id": "unitedstatespostalservice-a77078", "operator": "United States Postal Service", "operator:short": "USPS", "operator:type": "public", "operator:wikidata": "Q668687", "ref": "6270300173"}, "type": "Feature"}
{"dataset_attributes": {"@spider": "usps_collection_boxes", "spider:collection_time": "2023-09-19T08:25:58.007339"}, "geometry": {"coordinates": [-89.62389208, 39.794689502], "type": "Point"}, "id": "F_bCbQad6PCAaDEn8k7po4fCZo4=", "properties": {"@spider": "usps_collection_boxes", "addr:city": "SPRINGFIELD", "addr:country": "US", "addr:full": "2105 E COOK ST", "addr:postcode": "62703", "addr:state": "IL", "amenity": "post_box", "brand": "United States Postal Service", "brand:wikidata": "Q668687", "collection_times": "Mo-Fr 17:30; Sa 15:00", "name": "USPS COLLECTION BOX - PO LOBBY", "note": "ON 12/24 AND 12/31, THIS BOX MAY BE COLLECTED AS EARLY AS 12 NOON.", "nsi_id": "unitedstatespostalservice-a77078", "operator": "United States Postal Service", "operator:short": "USPS", "operator:type": "public", "operator:wikidata": "Q668687", "ref": "6270300180"}, "type": "Feature"}
{"dataset_attributes": {"@spider": "usps_collection_boxes", "spider:collection_time": "2023-09-19T08:25:58.007339"}, "geometry": {"coordinates": [-89.6893109706, 39.7647119964], "type": "Point"}, "id": "OyVOr-E64WQa9Zjr0s1JlFarjL8=", "properties": {"@spider": "usps_collection_boxes", "addr:city": "SPRINGFIELD", "addr:country": "US", "addr:full": "1999 WABASH AVE", "addr:postcode": "62704", "addr:state": "IL", "amenity": "post_box", "brand": "United States Postal Service", "brand:wikidata": "Q668687", "collection_times": "Mo-Fr 10:00; Sa 09:30", "name": "USPS COLLECTION BOX - BLUE BOX", "nsi_id": "unitedstatespostalservice-a77078", "operator": "United States Postal Service", "operator:short": "USPS", "operator:type": "public", "operator:wikidata": "Q668687", "ref": "6270400001"}, "type": "Feature"}
{"dataset_attributes": {"@spider": "usps_collection_boxes", "spider:collection_time": "2023-09-19T08:25:58.007339"}, "geometry": {"coordinates": [-89.6893109706, 39.7647119964], "type": "Point"}, "id": "9fHaAH1scz6UtK5kVR3bHUmgGKE=", "properties": {"@spider": "usps_collection_boxes", "addr:city": "SPRINGFIELD", "addr:country": "US", "addr:full": "1999 WABASH AVE", "addr:postcode": "62704", "addr:state": "IL", "amenity": "post_box", "brand": "United States Postal Service", "brand:wikidata": "Q668687", "collection_times": "Mo-Fr 15:00; Sa 12:00", "name": "USPS COLLECTION BOX - BLUE BOX", "note": "ON 12/24 AND 12/31, THIS BOX MAY BE COLLECTED AS EARLY AS 12 NOON.", "nsi_id": "unitedstatespostalservice-a77078", "operator": "United States Postal Service", "operator:short": "USPS", "operator:type": "public", "operator:wikidata": "Q668687", "ref": "6270400002"}, "type": "Feature"}
{"dataset_attributes": {"@spider": "usps_collection_boxes", "spider:collection_time": "2023-09-19T08:25:58.007339"}, "geometry": {"coordinates": [-89.6896429778, 39.7637580101], "type": "Point"}, "id": "BLL_yIk_jg1X4xIvwrprohh6bEA=", "properties": {"@spider": "usps_collection_boxes", "addr:city": "SPRINGFIELD", "addr:country": "US", "addr:full": "2 ROBINHOOD LN", "addr:postcode": "62704", "addr:state": "IL", "amenity": "post_box", "brand": "United States Postal Service", "brand:wikidata": "Q668687", "collection_times": "Mo-Fr 15:00; Sa 12:00", "name": "USPS COLLECTION BOX - BLUE BOX", "note": "ON 12/24 AND 12/31, THIS BOX MAY BE COLLECTED AS EARLY AS 12 NOON.", "nsi_id": "unitedstatespostalservice-a77078", "operator": "United States Postal Service", "operator:short": "USPS", "operator:type": "public", "operator:wikidata": "Q668687", "ref": "6270400003"}, "type": "Feature"}
{"dataset_attributes": {"@spider": "usps_collection_boxes", "spider:collection_time": "2023-09-19T08:25:58.007339"}, "geometry": {"coordinates": [-89.7003480092, 39.7636420046], "type": "Point"}, "id": "_YxHDwb60hMfM1Am8kzZ0Rgl63s=", "properties": {"@spider": "usps_collection_boxes", "addr:city": "SPRINGFIELD", "addr:country": "US", "addr:full": "2 DRAWBRIDGE RD", "addr:postcode": "62704", "addr:state": "IL", "amenity": "post_box", "brand": "United States Postal Service", "brand:wikidata": "Q668687", "collection_times": "Mo-Fr 15:00; Sa 16:00", "name": "USPS COLLECTION BOX - BLUE BOX", "note": "ON 12/24 AND 12/31, THIS BOX MAY BE COLLECTED AS EARLY AS 12 NOON.", "nsi_id": "unitedstatespostalservice-a77078", "operator": "United States Postal Service", "operator:short": "USPS", "operator:type": "public", "operator:wikidata": "Q668687", "ref": "6270400014"}, "type": "Feature"}
{"dataset_attributes": {"@spider": "usps_collection_boxes", "spider:collection_time": "2023-09-19T08:25:58.007339"}, "geometry": {"coordinates": [-89.6808040094, 39.7672900184], "type": "Point"}, "id": "Ev5LPYKiimvGdjMPdL5XNxexfHM=", "properties": {"@spider": "usps_collection_boxes", "addr:city": "SPRINGFIELD", "addr:country": "US", "addr:full": "2901 LEONARD ST", "addr:postcode": "62704", "addr:state": "IL", "amenity": "post_box", "brand": "United States Postal Service", "brand:wikidata": "Q668687", "collection_times": "Mo-Fr 13:00", "name": "USPS COLLECTION BOX - BLUE BOX", "note": "ON 12/24 AND 12/31, THIS BOX MAY BE COLLECTED AS EARLY AS 12 NOON.", "nsi_id": "unitedstatespostalservice-a77078", "operator": "United States Postal Service", "operator:short": "USPS", "operator:type": "public", "operator:wikidata": "Q668687", "ref": "6270400017"}, "type": "Feature"}
{"dataset_attributes": {"@spider": "usps_collection_boxes", "spider:collection_time": "2023-09-19T08:25:58.007339"}, "geometry": {"coordinates": [-89.7087360312, 39.7630320116], "type": "Point"}, "id": "ZtzXzy-aMWnuA7cYWdHqbfAjPeA=", "properties": {"@spider": "usps_collection_boxes", "addr:city": "SPRINGFIELD", "addr:country": "US", "addr:full": "3100 W WHITE OAKS DR", "addr:postcode": "62704", "addr:state": "IL", "amenity": "post_box", "brand": "United States Postal Service", "brand:wikidata": "Q668687", "collection_times": "Mo-Fr 15:00; Sa 16:00", "name": "USPS COLLECTION BOX - BLUE BOX", "note": "ON 12/24 AND 12/31, THIS BOX MAY BE COLLECTED AS EARLY AS 12 NOON.", "nsi_id": "unitedstatespostalservice-a77078", "operator": "United States Postal Service", "operator:short": "USPS", "operator:type": "public", "operator:wikidata": "Q668687", "ref": "6270400019"}, "type": "Feature"}
{"dataset_attributes": {"@spider": "usps_collection_boxes", "spider:collection_time": "2023-09-19T08:25:58.007339"}, "geometry": {"coordinates": [-89.6591219159, 39.7895745912], "type": "Point"}, "id": "sWBL8mNHLLhFlCm91x8lQgKJrtw=", "properties": {"@spider": "usps_collection_boxes", "addr:city": "SPRINGFIELD", "addr:country": "US", "addr:full": "415 W ALLEN ST", "addr:postcode": "62704", "addr:state": "IL", "amenity": "post_box", "brand": "United States Postal Service", "brand:wikidata": "Q668687", "collection_times": "Mo-Fr 11:30", "name": "USPS COLLECTION BOX - BLUE BOX", "nsi_id": "unitedstatespostalservice-a77078", "operator": "United States Postal Service", "operator:short": "USPS", "operator:type": "public", "operator:wikidata": "Q668687", "ref": "6270400023"}, "type": "Feature"}
{"dataset_attributes": {"@spider": "usps_collection_boxes", "spider:collection_time": "2023-09-19T08:25:58.007339"}, "geometry": {"coordinates": [-89.7030824457, 39.790656529], "type": "Point"}, "id": "qIaDr0Lk2QbQ5WFuWZ769C_WUcE=", "properties": {"@spider": "usps_collection_boxes", "addr:city": "SPRINGFIELD", "addr:country": "US", "addr:full": "959 S DURKIN DR", "addr:postcode": "62704", "addr:state": "IL", "amenity": "post_box", "brand": "United States Postal Service", "brand:wikidata": "Q668687", "collection_times": "Mo-Fr 16:00; Sa 12:00", "name": "USPS COLLECTION BOX - BLUE BOX", "note": "ON 12/24 AND 12/31, THIS BOX MAY BE COLLECTED AS EARLY AS 12 NOON.", "nsi_id": "unitedstatespostalservice-a77078", "operator": "United States Postal Service", "operator:short": "USPS", "operator:type": "public", "operator:wikidata": "Q668687", "ref": "6270400025"}, "type": "Feature"}
{"dataset_attributes": {"@spider": "usps_collection_boxes", "spider:collection_time": "2023-09-19T08:25:58.007339"}, "geometry": {"coordinates": [-89.6842499774, 39.800417018], "type": "Point"}, "id": "6CZK8RHJkEtAC76Xn_nVVuJKeJQ=", "properties": {"@spider": "usps_collection_boxes", "addr:city": "SPRINGFIELD", "addr:country": "US", "addr:full": "1903 W MONROE ST", "addr:postcode": "62704", "addr:state": "IL", "amenity": "post_box", "brand": "United States Postal Service", "brand:wikidata": "Q668687", "collection_times": "Mo-Sa 16:00", "name": "USPS COLLECTION BOX - BLUE BOX", "note": "ON 12/24 AND 12/31, THIS BOX MAY BE COLLECTED AS EARLY AS 12 NOON.", "nsi_id": "unitedstatespostalservice-a77078", "operator": "United States Postal Service", "operator:short": "USPS", "operator:type": "public", "operator:wikidata": "Q668687", "ref": "6270400029"}, "type": "Feature"}
{"dataset_attributes": {"@spider": "usps_collection_boxes", "spider:collection_time": "2023-09-19T08:25:58.007339"}, "geometry": {"coordinates": [-89.6567399845, 39.794537286], "type": "Point"}, "id": "YQvElSkvmCat4RgOEanMwqokI5E=", "properties": {"@spider": "usps_collection_boxes", "addr:city": "SPRINGFIELD", "addr:country": "US", "addr:full": "1 LAWRENCE SQUARE", "addr:postcode": "62704", "addr:state": "IL", "amenity": "post_box", "brand": "United States Postal Service", "brand:wikidata": "Q668687", "collection_times": "Mo-Fr 11:30; Sa 15:00", "name": "USPS COLLECTION BOX - BLUE BOX", "note": "ON 12/24 AND 12/31, THIS BOX MAY BE COLLECTED AS EARLY AS 12 NOON.", "nsi_id": "unitedstatespostalservice-a77078", "operator": "United States Postal Service", "operator:short": "USPS", "operator:type": "public", "operator:wikidata": "Q668687", "ref": "6270400033"}, "type": "Feature"}
{"dataset_attributes": {"@spider": "usps_collection_boxes", "spider:collection_time": "2023-09-19T08:25:58.007339"}, "geometry": {"coordinates": [-89.656566982, 39.7915159817], "type": "Point"}, "id": "uG5mg8QHmlbMRnxeN48RN7yFtjA=", "properties": {"@spider": "usps_collection_boxes", "addr:city": "SPRINGFIELD", "addr:country": "US", "addr:full": "925 S SPRING ST", "addr:postcode": "62704", "addr:state": "IL", "amenity": "post_box", "brand": "United States Postal Service", "brand:wikidata": "Q668687", "collection_times": "Mo-Fr 11:30; Sa 10:45", "name": "USPS COLLECTION BOX - BLUE BOX", "nsi_id": "unitedstatespostalservice-a77078", "operator": "United States Postal Service", "operator:short": "USPS", "operator:type": "public", "operator:wikidata": "Q668687", "ref": "6270400049"}, "type": "Feature"}
{"dataset_attributes": {"@spider": "usps_collection_boxes", "spider:collection_time": "2023-09-19T08:25:58.007339"}, "geometry": {"coordinates": [-89.7102939755, 39.7585409879], "type": "Point"}, "id": "4Cej3eLd-XhNBSavqZzO7W6DzgY=", "properties": {"@spider": "usps_collection_boxes", "addr:city": "SPRINGFIELD", "addr:country": "US", "addr:full": "3201 W WHITE OAKS DR", "addr:postcode": "62704", "addr:state": "IL", "amenity": "post_box", "brand": "United States Postal Service", "brand:wikidata": "Q668687", "collection_times": "Mo-Fr 15:00", "name": "USPS COLLECTION BOX - BLUE BOX", "note": "ON 12/24 AND 12/31, THIS BOX MAY BE COLLECTED AS EARLY AS 12 NOON.", "nsi_id": "unitedstatespostalservice-a77078", "operator": "United States Postal Service", "operator:short": "USPS", "operator:type": "public", "operator:wikidata": "Q668687", "ref": "6270400052"}, "type": "Feature"}
{"dataset_attributes": {"@spider": "usps_collection_boxes", "spider:collection_time": "2023-09-19T08:25:58.007339"}, "geometry": {"coordinates": [-89.7106534081, 39.7530785806], "type": "Point"}, "id": "spWvKUo1C5U3cwYQw3l_CFlSplY=", "properties": {"@spider": "usps_collection_boxes", "addr:city": "SPRINGFIELD", "addr:country": "US", "addr:full": "3000 LINDBERGH BLVD", "addr:postcode": "62704", "addr:state": "IL", "amenity": "post_box", "brand": "United States Postal Service", "brand:wikidata": "Q668687", "collection_times": "Mo-Fr 15:00; Sa 12:00", "name": "USPS COLLECTION BOX - BLUE BOX", "note": "ON 12/24 AND 12/31, THIS BOX MAY BE COLLECTED AS EARLY AS 12 NOON.", "nsi_id": "unitedstatespostalservice-a77078", "operator": "United States Postal Service", "operator:short": "USPS", "operator:type": "public", "operator:wikidata": "Q668687", "ref": "6270400054"}, "type": "Feature"}
{"dataset_attributes": {"@spider": "usps_collection_boxes", "spider:collection_time": "2023-09-19T08:25:58.007339"}, "geometry": {"coordinates": [-89.6994199649, 39.7923410124], "type": "Point"}, "id": "656bV_94BYEeQJ_4mmDHGZ-44Mk=", "properties": {"@spider": "usps_collection_boxes", "addr:city": "SPRINGFIELD", "addr:country": "US", "addr:full": "2401 W MONROE ST", "addr:postcode": "62704", "addr:state": "IL", "amenity": "post_box", "brand": "United States Postal Service", "brand:wikidata": "Q668687", "collection_times": "Mo-Fr 16:00; Sa 12:00", "name": "USPS COLLECTION BOX - BLUE BOX", "note": "ON 12/24 AND 12/31, THIS BOX MAY BE COLLECTED AS EARLY AS 12 NOON.", "nsi_id": "unitedstatespostalservice-a77078", "operator": "United States Postal Service", "operator:short": "USPS", "operator:type": "public", "operator:wikidata": "Q668687", "ref": "6270400056"}, "type": "Feature"}
{"dataset_attributes": {"@spider": "usps_collection_boxes", "spider:collection_time": "2023-09-19T08:25:58.007339"}, "geometry": {"coordinates": [-89.7019454673, 39.7887962239], "type": "Point"}, "id": "mcGeEhun87eQefk9_8ZDxmTNevw=", "properties": {"@spider": "usps_collection_boxes", "addr:city": "SPRINGFIELD", "addr:country": "US", "addr:full": "1150 CENTRE WEST DR", "addr:postcode": "62704", "addr:state": "IL", "amenity": "post_box", "brand": "United States Postal Service", "brand:wikidata": "Q668687", "collection_times": "Mo-Fr 16:00; Sa 12:00", "name": "USPS COLLECTION BOX - BLUE BOX", "note": "ON 12/24 AND 12/31, THIS BOX MAY BE COLLECTED AS EARLY AS 12 NOON.", "nsi_id": "unitedstatespostalservice-a77078", "operator": "United States Postal Service", "operator:short": "USPS", "operator:type": "public", "operator:wikidata": "Q668687", "ref": "6270400060"}, "type": "Feature"}
{"dataset_attributes": {"@spider": "usps_collection_boxes", "spider:collection_time": "2023-09-19T08:25:58.007339"}, "geometry": {"coordinates": [-89.6948069845, 39.795839996], "type": "Point"}, "id": "hfPW1CDnwC2KWHYMNfUKx0HK188=", "properties": {"@spider": "usps_collection_boxes", "addr:city": "SPRINGFIELD", "addr:country": "US", "addr:full": "2305 W MONROE ST", "addr:postcode": "62704", "addr:state": "IL", "amenity": "post_box", "brand": "United States Postal Service", "brand:wikidata": "Q668687", "collection_times": "Mo-Fr 16:00; Sa 12:00", "name": "USPS COLLECTION BOX - BLUE BOX", "note": "ON 12/24 AND 12/31, THIS BOX MAY BE COLLECTED AS EARLY AS 12 NOON.", "nsi_id": "unitedstatespostalservice-a77078", "operator": "United States Postal Service", "operator:short": "USPS", "operator:type": "public", "operator:wikidata": "Q668687", "ref": "6270400061"}, "type": "Feature"}
{"dataset_attributes": {"@spider": "usps_collection_boxes", "spider:collection_time": "2023-09-19T08:25:58.007339"}, "geometry": {"coordinates": [-89.6670731973, 39.7863516795], "type": "Point"}, "id": "qt29_RwMLUUVeKPtMk3-j8Xlem8=", "properties": {"@spider": "usps_collection_boxes", "addr:city": "SPRINGFIELD", "addr:country": "US", "addr:full": "1315 S STATE ST", "addr:postcode": "62704", "addr:state": "IL", "amenity": "post_box", "brand": "United States Postal Service", "brand:wikidata": "Q668687", "collection_times": "Mo-Fr 13:00", "name": "USPS COLLECTION BOX - BLUE BOX", "note": "ON 12/24 AND 12/31, THIS BOX MAY BE COLLECTED AS EARLY AS 12 NOON.", "nsi_id": "unitedstatespostalservice-a77078", "operator": "United States Postal Service", "operator:short": "USPS", "operator:type": "public", "operator:wikidata": "Q668687", "ref": "6270400063"}, "type": "Feature"}
{"dataset_attributes": {"@spider": "usps_collection_boxes", "spider:collection_time": "2023-09-19T08:25:58.007339"}, "geometry": {"coordinates": [-89.6913920295, 39.7673250128], "type": "Point"}, "id": "GModr8bEI5JPhK_LBnYnKEH3ieY=", "properties": {"@spider": "usps_collection_boxes", "addr:city": "SPRINGFIELD", "addr:country": "US", "addr:full": "2800 MONTVALE DR", "addr:postcode": "62704", "addr:state": "IL", "amenity": "post_box", "brand": "United States Postal Service", "brand:wikidata": "Q668687", "collection_times": "Mo-Fr 15:00; Sa 16:00", "name": "USPS COLLECTION BOX - BLUE BOX", "note": "ON 12/24 AND 12/31, THIS BOX MAY BE COLLECTED AS EARLY AS 12 NOON.", "nsi_id": "unitedstatespostalservice-a77078", "operator": "United States Postal Service", "operator:short": "USPS", "operator:type": "public", "operator:wikidata": "Q668687", "ref": "6270400066"}, "type": "Feature"}
{"dataset_attributes": {"@spider": "usps_collection_boxes", "spider:collection_time": "2023-09-19T08:25:58.007339"}, "geometry": {"coordinates": [-89.6696730096, 39.7730640181], "type": "Point"}, "id": "CTJe_75k69ENfBNzdI_E8Eekf5c=", "properties": {"@spider": "usps_collection_boxes", "addr:city": "SPRINGFIELD", "addr:country": "US", "addr:full": "2301 S MACARTHUR BLVD", "addr:postcode": "62704", "addr:state": "IL", "amenity": "post_box", "brand": "United States Postal Service", "brand:wikidata": "Q668687", "collection_times": "Mo-Fr 17:30; Sa 16:00", "name": "USPS COLLECTION BOX - BLUE BOX", "note": "ON 12/24 AND 12/31, THIS BOX MAY BE COLLECTED AS EARLY AS 12 NOON.", "nsi_id": "unitedstatespostalservice-a77078", "operator": "United States Postal Service", "operator:short": "USPS", "operator:type": "public", "operator:wikidata": "Q668687", "ref": "6270400068"}, "type": "Feature"}
{"dataset_attributes": {"@spider": "usps_collection_boxes", "spider:collection_time": "2023-09-19T08:25:58.007339"}, "geometry": {"coordinates": [-89.6696730096, 39.7730640181], "type": "Point"}, "id": "PidvaqN2sju-qW9VnsTyaIG2eyc=", "properties": {"@spider": "usps_collection_boxes", "addr:city": "SPRINGFIELD", "addr:country": "US", "addr:full": "2301 S MACARTHUR BLVD", "addr:postcode": "62704", "addr:state": "IL", "amenity": "post_box", "brand": "United States Postal Service", "brand:wikidata": "Q668687", "collection_times": "Mo-Fr 17:30; Sa 16:00", "name": "USPS COLLECTION BOX - BLUE BOX", "note": "ON 12/24 AND 12/31, THIS BOX MAY BE COLLECTED AS EARLY AS 12 NOON.", "nsi_id": "unitedstatespostalservice-a77078", "operator": "United States Postal Service", "operator:short": "USPS", "operator:type": "public", "operator:wikidata": "Q668687", "ref": "6270400069"}, "type": "Feature"}
{"dataset_attributes": {"@spider": "usps_collection_boxes", "spider:collection_time": "2023-09-19T08:25:58.007339"}, "geometry": {"coordinates": [-89.6615530409, 39.7988410107], "type": "Point"}, "id": "7yPAnPLz86StK2xnTBzgf3z6u-Y=", "properties": {"@spider": "usps_collection_boxes", "addr:city": "SPRINGFIELD", "addr:country": "US", "addr:full": "329  NEW ST", "addr:postcode": "62704", "addr:state": "IL", "amenity": "post_box", "brand": "United States Postal Service", "brand:wikidata": "Q668687", "collection_times": "Mo-Fr 11:30", "name": "USPS COLLECTION BOX - BLUE BOX", "nsi_id": "unitedstatespostalservice-a77078", "operator": "United States Postal Service", "operator:short": "USPS", "operator:type": "public", "operator:wikidata": "Q668687", "ref": "6270400073"}, "type": "Feature"}
{"dataset_attributes": {"@spider": "usps_collection_boxes", "spider:collection_time": "2023-09-19T08:25:58.007339"}, "geometry": {"coordinates": [-89.6574055279, 39.8000829428], "type": "Point"}, "id": "lAfGDW_ou8JNQMlmwFc-V3xxFKI=", "properties": {"@spider": "usps_collection_boxes", "addr:city": "SPRINGFIELD", "addr:country": "US", "addr:full": "225 S COLLEGE ST", "addr:postcode": "62704", "addr:state": "IL", "amenity": "post_box", "brand": "United States Postal Service", "brand:wikidata": "Q668687", "collection_times": "Mo-Sa 11:30", "name": "USPS COLLECTION BOX - BLUE BOX", "nsi_id": "unitedstatespostalservice-a77078", "operator": "United States Postal Service", "operator:short": "USPS", "operator:type": "public", "operator:wikidata": "Q668687", "ref": "6270400079"}, "type": "Feature"}
{"dataset_attributes": {"@spider": "usps_collection_boxes", "spider:collection_time": "2023-09-19T08:25:58.007339"}, "geometry": {"coordinates": [-89.6537745975, 39.7869726914], "type": "Point"}, "id": "xu8MhNFoE8IJxTxmA8qf2VwH2xg=", "properties": {"@spider": "usps_collection_boxes", "addr:city": "SPRINGFIELD", "addr:country": "US", "addr:full": "1301 S 2ND ST", "addr:postcode": "62704", "addr:state": "IL", "amenity": "post_box", "brand": "United States Postal Service", "brand:wikidata": "Q668687", "collection_times": "Mo-Fr 13:00; Sa 15:00", "name": "USPS COLLECTION BOX - BLUE BOX", "note": "ON 12/24 AND 12/31, THIS BOX MAY BE COLLECTED AS EARLY AS 12 NOON.", "nsi_id": "unitedstatespostalservice-a77078", "operator": "United States Postal Service", "operator:short": "USPS", "operator:type": "public", "operator:wikidata": "Q668687", "ref": "6270400084"}, "type": "Feature"}
{"dataset_attributes": {"@spider": "usps_collection_boxes", "spider:collection_time": "2023-09-19T08:25:58.007339"}, "geometry": {"coordinates": [-89.6574630074, 39.7860799822], "type": "Point"}, "id": "vTVS4nLEUyv4sqSCfHnuimcmhRw=", "properties": {"@spider": "usps_collection_boxes", "addr:city": "SPRINGFIELD", "addr:country": "US", "addr:full": "1315 S COLLEGE ST", "addr:postcode": "62704", "addr:state": "IL", "amenity": "post_box", "brand": "United States Postal Service", "brand:wikidata": "Q668687", "collection_times": "Mo-Fr 13:00", "name": "USPS COLLECTION BOX - BLUE BOX", "note": "ON 12/24 AND 12/31, THIS BOX MAY BE COLLECTED AS EARLY AS 12 NOON.", "nsi_id": "unitedstatespostalservice-a77078", "operator": "United States Postal Service", "operator:short": "USPS", "operator:type": "public", "operator:wikidata": "Q668687", "ref": "6270400087"}, "type": "Feature"}
{"dataset_attributes": {"@spider": "usps_collection_boxes", "spider:collection_time": "2023-09-19T08:25:58.007339"}, "geometry": {"coordinates": [-89.6607829955, 39.7789409895], "type": "Point"}, "id": "9loET9vmF307l91O9vyHV_4eUBY=", "properties": {"@spider": "usps_collection_boxes", "addr:city": "SPRINGFIELD", "addr:country": "US", "addr:full": "2000 S LOWELL AVE", "addr:postcode": "62704", "addr:state": "IL", "amenity": "post_box", "brand": "United States Postal Service", "brand:wikidata": "Q668687", "collection_times": "Mo-Fr 13:00; Sa 12:00", "name": "USPS COLLECTION BOX - BLUE BOX", "note": "ON 12/24 AND 12/31, THIS BOX MAY BE COLLECTED AS EARLY AS 12 NOON.", "nsi_id": "unitedstatespostalservice-a77078", "operator": "United States Postal Service", "operator:short": "USPS", "operator:type": "public", "operator:wikidata": "Q668687", "ref": "6270400089"}, "type": "Feature"}
{"dataset_attributes": {"@spider": "usps_collection_boxes", "spider:collection_time": "2023-09-19T08:25:58.007339"}, "geometry": {"coordinates": [-89.6847890176, 39.762822003], "type": "Point"}, "id": "lGERzTHg1tkIXgtwBy3tZDV_wLc=", "properties": {"@spider": "usps_collection_boxes", "addr:city": "SPRINGFIELD", "addr:country": "US", "addr:full": "1760 WABASH AVE", "addr:postcode": "62704", "addr:state": "IL", "amenity": "post_box", "brand": "United States Postal Service", "brand:wikidata": "Q668687", "collection_times": "Mo-Fr 17:00; Sa 16:00", "name": "USPS COLLECTION BOX - BLUE BOX", "note": "ON 12/24 AND 12/31, THIS BOX MAY BE COLLECTED AS EARLY AS 12 NOON.", "nsi_id": "unitedstatespostalservice-a77078", "operator": "United States Postal Service", "operator:short": "USPS", "operator:type": "public", "operator:wikidata": "Q668687", "ref": "6270400091"}, "type": "Feature"}
{"dataset_attributes": {"@spider": "usps_collection_boxes", "spider:collection_time": "2023-09-19T08:25:58.007339"}, "geometry": {"coordinates": [-89.6847890176, 39.762822003], "type": "Point"}, "id": "h9JhxwEa9_7q5120DvJY6R345gs=", "properties": {"@spider": "usps_collection_boxes", "addr:city": "SPRINGFIELD", "addr:country": "US", "addr:full": "1760 WABASH AVE", "addr:postcode": "62704", "addr:state": "IL", "amenity": "post_box", "brand": "United States Postal Service", "brand:wikidata": "Q668687", "collection_times": "Mo-Fr 17:00; Sa 16:00", "name": "USPS COLLECTION BOX - BLUE BOX", "note": "ON 12/24 AND 12/31, THIS BOX MAY BE COLLECTED AS EARLY AS 12 NOON.", "nsi_id": "unitedstatespostalservice-a77078", "operator": "United States Postal Service", "operator:short": "USPS", "operator:type": "public", "operator:wikidata": "Q668687", "ref": "6270400092"}, "type": "Feature"}
{"dataset_attributes": {"@spider": "usps_collection_boxes", "spider:collection_time": "2023-09-19T08:25:58.007339"}, "geometry": {"coordinates": [-89.7083509665, 39.7765879798], "type": "Point"}, "id": "ETrzd_czetpva_JfyK1cvloVhEk=", "properties": {"@spider": "usps_collection_boxes", "addr:city": "SPRINGFIELD", "addr:country": "US", "addr:full": "2921 GREENBRIAR DR", "addr:postcode": "62704", "addr:state": "IL", "amenity": "post_box", "brand": "United States Postal Service", "brand:wikidata": "Q668687", "collection_times": "Mo-Fr 16:00; Sa 12:00", "name": "USPS COLLECTION BOX - BLUE BOX", "note": "ON 12/24 AND 12/31, THIS BOX MAY BE COLLECTED AS EARLY AS 12 NOON.", "nsi_id": "unitedstatespostalservice-a77078", "operator": "United States Postal Service", "operator:short": "USPS", "operator:type": "public", "operator:wikidata": "Q668687", "ref": "6270400098"}, "type": "Feature"}
{"dataset_attributes": {"@spider": "usps_collection_boxes", "spider:collection_time": "2023-09-19T08:25:58.007339"}, "geometry": {"coordinates": [-89.705499024, 39.7944929822], "type": "Point"}, "id": "y5CyanuSvnbK1trhV_c8Bc6iWPo=", "properties": {"@spider": "usps_collection_boxes", "addr:city": "SPRINGFIELD", "addr:country": "US", "addr:full": "2700 W LAWRENCE AVE", "addr:postcode": "62704", "addr:state": "IL", "amenity": "post_box", "brand": "United States Postal Service", "brand:wikidata": "Q668687", "collection_times": "Mo-Fr 16:00; Sa 12:00", "name": "USPS COLLECTION BOX - BLUE BOX", "note": "ON 12/24 AND 12/31, THIS BOX MAY BE COLLECTED AS EARLY AS 12 NOON.", "nsi_id": "unitedstatespostalservice-a77078", "operator": "United States Postal Service", "operator:short": "USPS", "operator:type": "public", "operator:wikidata": "Q668687", "ref": "6270400100"}, "type": "Feature"}
{"dataset_attributes": {"@spider": "usps_collection_boxes", "spider:collection_time": "2023-09-19T08:25:58.007339"}, "geometry": {"coordinates": [-89.6847890176, 39.762822003], "type": "Point"}, "id": "O7S3OmRcNh3tdgSgmdtwWPQn7j0=", "properties": {"@spider": "usps_collection_boxes", "addr:city": "SPRINGFIELD", "addr:country": "US", "addr:full": "1760 WABASH AVE", "addr:postcode": "62704", "addr:state": "IL", "amenity": "post_box", "brand": "United States Postal Service", "brand:wikidata": "Q668687", "collection_times": "Mo-Fr 17:45; Sa 17:15", "name": "USPS COLLECTION BOX - PO LOBBY", "note": "ON 12/24 AND 12/31, THIS BOX MAY BE COLLECTED AS EARLY AS 12 NOON.", "nsi_id": "unitedstatespostalservice-a77078", "operator": "United States Postal Service", "operator:short": "USPS", "operator:type": "public", "operator:wikidata": "Q668687", "ref": "6270400103"}, "type": "Feature"}
{"dataset_attributes": {"@spider": "usps_collection_boxes", "spider:collection_time": "2023-09-19T08:25:58.007339"}, "geometry": {"coordinates": [-89.6847890176, 39.762822003], "type": "Point"}, "id": "00M51B1tYnTDxV3PnI57erIMivo=", "properties": {"@spider": "usps_collection_boxes", "addr:city": "SPRINGFIELD", "addr:country": "US", "addr:full": "1760 WABASH AVE", "addr:postcode": "62704", "addr:state": "IL", "amenity": "post_box", "brand": "United States Postal Service", "brand:wikidata": "Q668687", "collection_times": "Mo-Fr 17:45; Sa 17:15", "name": "USPS COLLECTION BOX - APC", "note": "ON 12/24 AND 12/31, THIS BOX MAY BE COLLECTED AS EARLY AS 12 NOON.", "nsi_id": "unitedstatespostalservice-a77078", "operator": "United States Postal Service", "operator:short": "USPS", "operator:type": "public", "operator:wikidata": "Q668687", "ref": "6270400104"}, "type": "Feature"}
{"dataset_attributes": {"@spider": "usps_collection_boxes", "spider:collection_time": "2023-09-19T08:25:58.007339"}, "geometry": {"coordinates": [-89.6577850402, 39.7959759924], "type": "Point"}, "id": "82bN25a_1M-29ATxlyhaG4ZMuc8=", "properties": {"@spider": "usps_collection_boxes", "addr:city": "SPRINGFIELD", "addr:country": "US", "addr:full": "300 W EDWARDS ST", "addr:postcode": "62704", "addr:state": "IL", "amenity": "post_box", "brand": "United States Postal Service", "brand:wikidata": "Q668687", "collection_times": "Mo-Sa 10:00", "name": "USPS COLLECTION BOX - BLUE BOX", "nsi_id": "unitedstatespostalservice-a77078", "operator": "United States Postal Service", "operator:short": "USPS", "operator:type": "public", "operator:wikidata": "Q668687", "ref": "6270400105"}, "type": "Feature"}
{"dataset_attributes": {"@spider": "usps_collection_boxes", "spider:collection_time": "2023-09-19T08:25:58.007339"}, "geometry": {"coordinates": [-89.6847890176, 39.762822003], "type": "Point"}, "id": "CF_GKh57246TEXLIC4vvTGeir7Q=", "properties": {"@spider": "usps_collection_boxes", "addr:city": "SPRINGFIELD", "addr:country": "US", "addr:full": "1760 WABASH AVE", "addr:postcode": "62704", "addr:state": "IL", "amenity": "post_box", "brand": "United States Postal Service", "brand:wikidata": "Q668687", "collection_times": "Mo-Fr 17:30; Sa 15:00", "name": "USPS COLLECTION BOX - PO LOBBY", "note": "ON 12/24 AND 12/31, THIS BOX MAY BE COLLECTED AS EARLY AS 12 NOON.", "nsi_id": "unitedstatespostalservice-a77078", "operator": "United States Postal Service", "operator:short": "USPS", "operator:type": "public", "operator:wikidata": "Q668687", "ref": "6270400112"}, "type": "Feature"}
{"dataset_attributes": {"@spider": "usps_collection_boxes", "spider:collection_time": "2023-09-19T08:25:58.007339"}, "geometry": {"coordinates": [-89.5606524, 39.837997], "type": "Point"}, "id": "6AQF8D2cye-m3o2YBzaZ1jgoFm4=", "properties": {"@spider": "usps_collection_boxes", "addr:city": "SPRINGFIELD", "addr:country": "US", "addr:full": "4936 LAVERNA RD", "addr:postcode": "62707", "addr:state": "IL", "amenity": "post_box", "brand": "United States Postal Service", "brand:wikidata": "Q668687", "collection_times": "Mo-Fr 15:00", "name": "USPS COLLECTION BOX - BLUE BOX", "note": "ON 12/24 AND 12/31, THIS BOX MAY BE COLLECTED AS EARLY AS 12 NOON.", "nsi_id": "unitedstatespostalservice-a77078", "operator": "United States Postal Service", "operator:short": "USPS", "operator:type": "public", "operator:wikidata": "Q668687", "ref": "6270700000"}, "type": "Feature"}
{"dataset_attributes": {"@spider": "usps_collection_boxes", "spider:collection_time": "2023-09-19T08:25:58.007339"}, "geometry": {"coordinates": [-89.6699858877, 39.8450133271], "type": "Point"}, "id": "80H9OB1Dz2Mk0GuoTa-rDb3bMv4=", "properties": {"@spider": "usps_collection_boxes", "addr:city": "SPRINGFIELD", "addr:country": "US", "addr:full": "CAPITOL AIRPORT DR", "addr:postcode": "62707", "addr:state": "IL", "amenity": "post_box", "brand": "United States Postal Service", "brand:wikidata": "Q668687", "collection_times": "Mo-Fr 10:00", "name": "USPS COLLECTION BOX - BLUE BOX", "nsi_id": "unitedstatespostalservice-a77078", "operator": "United States Postal Service", "operator:short": "USPS", "operator:type": "public", "operator:wikidata": "Q668687", "ref": "6270700004"}, "type": "Feature"}
{"dataset_attributes": {"@spider": "usps_collection_boxes", "spider:collection_time": "2023-09-19T08:25:58.007339"}, "geometry": {"coordinates": [-89.5818476, 39.832766], "type": "Point"}, "id": "mUAOMPCZRRGLCcb30alcD8r21iU=", "properties": {"@spider": "usps_collection_boxes", "addr:city": "SPRINGFIELD", "addr:country": "US", "addr:full": "3600 WINCHESTER RD", "addr:postcode": "62707", "addr:state": "IL", "amenity": "post_box", "brand": "United States Postal Service", "brand:wikidata": "Q668687", "collection_times": "Mo-Fr 15:15", "name": "USPS COLLECTION BOX - BLUE BOX", "note": "ON 12/24 AND 12/31, THIS BOX MAY BE COLLECTED AS EARLY AS 12 NOON.", "nsi_id": "unitedstatespostalservice-a77078", "operator": "United States Postal Service", "operator:short": "USPS", "operator:type": "public", "operator:wikidata": "Q668687", "ref": "6270700007"}, "type": "Feature"}
{"dataset_attributes": {"@spider": "usps_collection_boxes", "spider:collection_time": "2023-09-19T08:25:58.007339"}, "geometry": {"coordinates": [-89.6380523, 39.714136], "type": "Point"}, "id": "APFm4wPg4Kc_eLYjwe5XyI1JRLc=", "properties": {"@spider": "usps_collection_boxes", "addr:city": "SPRINGFIELD", "addr:country": "US", "addr:full": "1225 TORONTO RD", "addr:postcode": "62712", "addr:state": "IL", "amenity": "post_box", "brand": "United States Postal Service", "brand:wikidata": "Q668687", "collection_times": "Mo-Fr 15:30; Sa 13:00", "name": "USPS COLLECTION BOX - BLUE BOX", "note": "ON 12/24 AND 12/31, THIS BOX MAY BE COLLECTED AS EARLY AS 12 NOON.", "nsi_id": "unitedstatespostalservice-a77078", "operator": "United States Postal Service", "operator:short": "USPS", "operator:type": "public", "operator:wikidata": "Q668687", "ref": "6271200000"}, "type": "Feature"}
