{"dataset_attributes": {"@spider": "usps_collection_boxes"}, "geometry": {"coordinates": [-89.189577, 37.732539], "type": "Point"}, "id": "47qpPscZ8epja5Os4rhunjfCjVM=", "properties": {"@spider": "usps_collection_boxes", "addr:city": "CARBONDALE", "addr:country": "US", "addr:full": "1301 E MAIN ST", "addr:postcode": "62901", "addr:state": "IL", "amenity": "post_box", "brand": "United States Postal Service", "brand:wikidata": "Q668687", "collection_times": "Mo-Fr 17:00; Sa 16:45", "name": "USPS COLLECTION BOX - BLUE BOX", "note": "ON 12/24 AND 12/31, THIS BOX MAY BE COLLECTED AS EARLY AS 12 NOON.", "nsi_id": "unitedstatespostalservice-a77078", "operator": "United States Postal Service", "operator:short": "USPS", "operator:type": "public", "operator:wikidata": "Q668687", "ref": "6290100001"}, "type": "Feature"}
{"dataset_attributes": {"@spider": "usps_collection_boxes"}, "geometry": {"coordinates": [-89.2320463, 37.726848], "type": "Point"}, "id": "rt7YYYS_Iw8G-8oLpmCkyF3cKWM=", "properties": {"@spider": "usps_collection_boxes", "addr:city": "CARBONDALE", "addr:country": "US", "addr:full": "1100 W MAIN ST", "addr:postcode": "62901", "addr:state": "IL", "amenity": "post_box", "brand": "United States Postal Service", "brand:wikidata": "Q668687", "collection_times": "Mo-Sa 15:00", "name": "USPS COLLECTION BOX - BLUE BOX", "note": "ON 12/24 AND 12/31, THIS BOX MAY BE COLLECTED AS EARLY AS 12 NOON.", "nsi_id": "unitedstatespostalservice-a77078", "operator": "United States Postal Service", "operator:short": "USPS", "operator:type": "public", "operator:wikidata": "Q668687", "ref": "6290100007"}, "type": "Feature"}
{"dataset_attributes": {"@spider": "usps_collection_boxes"}, "geometry": {"coordinates": [-89.2160178, 37.702582], "type": "Point"}, "id": "FDGmcfdxj46twSysBKYIJvJI_VA=", "properties": {"@spider": "usps_collection_boxes", "addr:city": "CARBONDALE", "addr:country": "US", "addr:full": "150 E PLEASANT HILL RD", "addr:postcode": "62901", "addr:state": "IL", "amenity": "post_box", "brand": "United States Postal Service", "brand:wikidata": "Q668687", "collection_times": "Mo-Sa 10:30", "name": "USPS COLLECTION BOX - BLUE BOX", "nsi_id": "unitedstatespostalservice-a77078", "operator": "United States Postal Service", "operator:short": "USPS", "operator:type": "public", "operator:wikidata": "Q668687", "ref": "6290100016"}, "type": "Feature"}
{"dataset_attributes": {"@spider": "usps_collection_boxes"}, "geometry": {"coordinates": [-89.2399387, 37.72834], "type": "Point"}, "id": "Au4ejg1jFD62uB85rOkktOMgtuw=", "properties": {"@spider": "usps_collection_boxes", "addr:city": "CARBONDALE", "addr:country": "US", "addr:full": "1815 W MAIN ST", "addr:postcode": "62901", "addr:state": "IL", "amenity": "post_box", "brand": "United States Postal Service", "brand:wikidata": "Q668687", "collection_times": "Mo-Fr 16:05; Sa 15:00", "name": "USPS COLLECTION BOX - BLUE BOX", "note": "ON 12/24 AND 12/31, THIS BOX MAY BE COLLECTED AS EARLY AS 12 NOON.", "nsi_id": "unitedstatespostalservice-a77078", "operator": "United States Postal Service", "operator:short": "USPS", "operator:type": "public", "operator:wikidata": "Q668687", "ref": "6290100019"}, "type": "Feature"}
{"dataset_attributes": {"@spider": "usps_collection_boxes"}, "geometry": {"coordinates": [-89.2419979, 37.727939], "type": "Point"}, "id": "iZS-a-cFSYypfA4xJMtID05lgng=", "properties": {"@spider": "usps_collection_boxes", "addr:city": "CARBONDALE", "addr:country": "US", "addr:full": "2001 W MAIN ST", "addr:postcode": "62901", "addr:state": "IL", "amenity": "post_box", "brand": "United States Postal Service", "brand:wikidata": "Q668687", "collection_times": "Mo-Fr 16:05; Sa 15:00", "name": "USPS COLLECTION BOX - BLUE BOX", "note": "ON 12/24 AND 12/31, THIS BOX MAY BE COLLECTED AS EARLY AS 12 NOON.", "nsi_id": "unitedstatespostalservice-a77078", "operator": "United States Postal Service", "operator:short": "USPS", "operator:type": "public", "operator:wikidata": "Q668687", "ref": "6290100023"}, "type": "Feature"}
{"dataset_attributes": {"@spider": "usps_collection_boxes"}, "geometry": {"coordinates": [-89.2143604, 37.727527], "type": "Point"}, "id": "m89UWvwU5ZfY4lN_0xovPA0gSio=", "properties": {"@spider": "usps_collection_boxes", "addr:city": "CARBONDALE", "addr:country": "US", "addr:full": "216 E MAIN ST", "addr:postcode": "62901", "addr:state": "IL", "amenity": "post_box", "brand": "United States Postal Service", "brand:wikidata": "Q668687", "collection_times": "Mo-Sa 15:00", "name": "USPS COLLECTION BOX - BLUE BOX", "note": "ON 12/24 AND 12/31, THIS BOX MAY BE COLLECTED AS EARLY AS 12 NOON.", "nsi_id": "unitedstatespostalservice-a77078", "operator": "United States Postal Service", "operator:short": "USPS", "operator:type": "public", "operator:wikidata": "Q668687", "ref": "6290100025"}, "type": "Feature"}
{"dataset_attributes": {"@spider": "usps_collection_boxes"}, "geometry": {"coordinates": [-89.2174561, 37.723668], "type": "Point"}, "id": "Mr7trZAbJAwH9m_fjoew5yDddnk=", "properties": {"@spider": "usps_collection_boxes", "addr:city": "CARBONDALE", "addr:country": "US", "addr:full": "250 W CHERRY ST", "addr:postcode": "62901", "addr:state": "IL", "amenity": "post_box", "brand": "United States Postal Service", "brand:wikidata": "Q668687", "collection_times": "Mo-Sa 15:00", "name": "USPS COLLECTION BOX - BLUE BOX", "note": "ON 12/24 AND 12/31, THIS BOX MAY BE COLLECTED AS EARLY AS 12 NOON.", "nsi_id": "unitedstatespostalservice-a77078", "operator": "United States Postal Service", "operator:short": "USPS", "operator:type": "public", "operator:wikidata": "Q668687", "ref": "6290100029"}, "type": "Feature"}
{"dataset_attributes": {"@spider": "usps_collection_boxes"}, "geometry": {"coordinates": [-89.2179238, 37.722388], "type": "Point"}, "id": "l_Q6FO9-ztHSZhgqqQjB0TXPe0s=", "properties": {"@spider": "usps_collection_boxes", "addr:city": "CARBONDALE", "addr:country": "US", "addr:full": "509 S UNIVERSITY AVE", "addr:postcode": "62901", "addr:state": "IL", "amenity": "post_box", "brand": "United States Postal Service", "brand:wikidata": "Q668687", "collection_times": "Mo-Fr 11:00; Sa 10:30", "name": "USPS COLLECTION BOX - BLUE BOX", "nsi_id": "unitedstatespostalservice-a77078", "operator": "United States Postal Service", "operator:short": "USPS", "operator:type": "public", "operator:wikidata": "Q668687", "ref": "6290100039"}, "type": "Feature"}
{"dataset_attributes": {"@spider": "usps_collection_boxes"}, "geometry": {"coordinates": [-89.2067278, 37.726451], "type": "Point"}, "id": "fEOT19GjRuJDHv0Hz5xFoJ--Bok=", "properties": {"@spider": "usps_collection_boxes", "addr:city": "CARBONDALE", "addr:country": "US", "addr:full": "640 E WALNUT ST", "addr:postcode": "62901", "addr:state": "IL", "amenity": "post_box", "brand": "United States Postal Service", "brand:wikidata": "Q668687", "collection_times": "Mo-Sa 15:00", "name": "USPS COLLECTION BOX - BLUE BOX", "note": "ON 12/24 AND 12/31, THIS BOX MAY BE COLLECTED AS EARLY AS 12 NOON.", "nsi_id": "unitedstatespostalservice-a77078", "operator": "United States Postal Service", "operator:short": "USPS", "operator:type": "public", "operator:wikidata": "Q668687", "ref": "6290100043"}, "type": "Feature"}
{"dataset_attributes": {"@spider": "usps_collection_boxes"}, "geometry": {"coordinates": [-89.2088176, 37.713295], "type": "Point"}, "id": "FRusMtrccexXUjF7N72HSNhui9A=", "properties": {"@spider": "usps_collection_boxes", "addr:city": "CARBONDALE", "addr:country": "US", "addr:full": "601 E CAMPUS DR", "addr:postcode": "62901", "addr:state": "IL", "amenity": "post_box", "brand": "United States Postal Service", "brand:wikidata": "Q668687", "collection_times": "Mo-Sa 09:00", "name": "USPS COLLECTION BOX - BLUE BOX", "nsi_id": "unitedstatespostalservice-a77078", "operator": "United States Postal Service", "operator:short": "USPS", "operator:type": "public", "operator:wikidata": "Q668687", "ref": "6290100045"}, "type": "Feature"}
{"dataset_attributes": {"@spider": "usps_collection_boxes"}, "geometry": {"coordinates": [-89.2078718, 37.72234], "type": "Point"}, "id": "B0-jq6KsW2VGtOo8-y62d6srg8c=", "properties": {"@spider": "usps_collection_boxes", "addr:city": "CARBONDALE", "addr:country": "US", "addr:full": "602 E COLLEGE ST", "addr:postcode": "62901", "addr:state": "IL", "amenity": "post_box", "brand": "United States Postal Service", "brand:wikidata": "Q668687", "collection_times": "Mo-Fr 11:00; Sa 10:30", "name": "USPS COLLECTION BOX - BLUE BOX", "nsi_id": "unitedstatespostalservice-a77078", "operator": "United States Postal Service", "operator:short": "USPS", "operator:type": "public", "operator:wikidata": "Q668687", "ref": "6290100046"}, "type": "Feature"}
{"dataset_attributes": {"@spider": "usps_collection_boxes"}, "geometry": {"coordinates": [-89.2038938, 37.72848], "type": "Point"}, "id": "OyOlhZQgZViTLCkEa-SuBgyuX4w=", "properties": {"@spider": "usps_collection_boxes", "addr:city": "CARBONDALE", "addr:country": "US", "addr:full": "816 E MAIN ST", "addr:postcode": "62901", "addr:state": "IL", "amenity": "post_box", "brand": "United States Postal Service", "brand:wikidata": "Q668687", "collection_times": "Mo-Fr 11:00; Sa 10:30", "name": "USPS COLLECTION BOX - BLUE BOX", "nsi_id": "unitedstatespostalservice-a77078", "operator": "United States Postal Service", "operator:short": "USPS", "operator:type": "public", "operator:wikidata": "Q668687", "ref": "6290100052"}, "type": "Feature"}
{"dataset_attributes": {"@spider": "usps_collection_boxes"}, "geometry": {"coordinates": [-89.1949661017, 37.7048201205], "type": "Point"}, "id": "DKCQ86stdrTuL3075wt61DCdfgI=", "properties": {"@spider": "usps_collection_boxes", "addr:city": "CARBONDALE", "addr:country": "US", "addr:full": "290 WARREN RD", "addr:postcode": "62901", "addr:state": "IL", "amenity": "post_box", "brand": "United States Postal Service", "brand:wikidata": "Q668687", "collection_times": "Mo-Sa 11:00", "name": "USPS COLLECTION BOX - BLUE BOX", "nsi_id": "unitedstatespostalservice-a77078", "operator": "United States Postal Service", "operator:short": "USPS", "operator:type": "public", "operator:wikidata": "Q668687", "ref": "6290100075"}, "type": "Feature"}
{"dataset_attributes": {"@spider": "usps_collection_boxes"}, "geometry": {"coordinates": [-89.189635, 37.732536], "type": "Point"}, "id": "H5_4uxAjw4mKJ-cG34SnaKcvvxA=", "properties": {"@spider": "usps_collection_boxes", "addr:city": "CARBONDALE", "addr:country": "US", "addr:full": "1301 E MAIN ST", "addr:postcode": "62901", "addr:state": "IL", "amenity": "post_box", "brand": "United States Postal Service", "brand:wikidata": "Q668687", "collection_times": "Mo-Fr 17:00; Sa 16:45", "name": "USPS COLLECTION BOX - BLUE BOX", "note": "ON 12/24 AND 12/31, THIS BOX MAY BE COLLECTED AS EARLY AS 12 NOON.", "nsi_id": "unitedstatespostalservice-a77078", "operator": "United States Postal Service", "operator:short": "USPS", "operator:type": "public", "operator:wikidata": "Q668687", "ref": "6290100078"}, "type": "Feature"}
{"dataset_attributes": {"@spider": "usps_collection_boxes"}, "geometry": {"coordinates": [-89.189635, 37.732536], "type": "Point"}, "id": "VSM7U7iVHXyLH6OqdoTokyAVk24=", "properties": {"@spider": "usps_collection_boxes", "addr:city": "CARBONDALE", "addr:country": "US", "addr:full": "1301 E MAIN ST", "addr:postcode": "62901", "addr:state": "IL", "amenity": "post_box", "brand": "United States Postal Service", "brand:wikidata": "Q668687", "collection_times": "Mo-Fr 17:00; Sa 16:45", "name": "USPS COLLECTION BOX - BLUE BOX", "note": "ON 12/24 AND 12/31, THIS BOX MAY BE COLLECTED AS EARLY AS 12 NOON.", "nsi_id": "unitedstatespostalservice-a77078", "operator": "United States Postal Service", "operator:short": "USPS", "operator:type": "public", "operator:wikidata": "Q668687", "ref": "6290100079"}, "type": "Feature"}
{"dataset_attributes": {"@spider": "usps_collection_boxes"}, "geometry": {"coordinates": [-89.2419991, 37.727953], "type": "Point"}, "id": "7Bm-3-AdFuZxlhZESsD-Xhz5uO8=", "properties": {"@spider": "usps_collection_boxes", "addr:city": "CARBONDALE", "addr:country": "US", "addr:full": "2001 W MAIN ST", "addr:postcode": "62901", "addr:state": "IL", "amenity": "post_box", "brand": "United States Postal Service", "brand:wikidata": "Q668687", "collection_times": "Mo-Fr 16:05; Sa 15:00", "name": "USPS COLLECTION BOX - BLUE BOX", "note": "ON 12/24 AND 12/31, THIS BOX MAY BE COLLECTED AS EARLY AS 12 NOON.", "nsi_id": "unitedstatespostalservice-a77078", "operator": "United States Postal Service", "operator:short": "USPS", "operator:type": "public", "operator:wikidata": "Q668687", "ref": "6290100081"}, "type": "Feature"}
{"dataset_attributes": {"@spider": "usps_collection_boxes"}, "geometry": {"coordinates": [-89.2419888, 37.727955], "type": "Point"}, "id": "O-yZ5OE9QA0XivZ9bIEj-WQyd0w=", "properties": {"@spider": "usps_collection_boxes", "addr:city": "CARBONDALE", "addr:country": "US", "addr:full": "2001 W MAIN ST", "addr:postcode": "62901", "addr:state": "IL", "amenity": "post_box", "brand": "United States Postal Service", "brand:wikidata": "Q668687", "collection_times": "Mo-Fr 16:05; Sa 15:00", "name": "USPS COLLECTION BOX - BLUE BOX", "note": "ON 12/24 AND 12/31, THIS BOX MAY BE COLLECTED AS EARLY AS 12 NOON.", "nsi_id": "unitedstatespostalservice-a77078", "operator": "United States Postal Service", "operator:short": "USPS", "operator:type": "public", "operator:wikidata": "Q668687", "ref": "6290100082"}, "type": "Feature"}
{"dataset_attributes": {"@spider": "usps_collection_boxes"}, "geometry": {"coordinates": [-89.2185863, 37.727704], "type": "Point"}, "id": "4Ahky9e6yaKn7hToOwNHRY7tzos=", "properties": {"@spider": "usps_collection_boxes", "addr:city": "CARBONDALE", "addr:country": "US", "addr:full": "100 UNIV MALL", "addr:postcode": "62901", "addr:state": "IL", "amenity": "post_box", "brand": "United States Postal Service", "brand:wikidata": "Q668687", "collection_times": "Mo-Sa 15:00", "name": "USPS COLLECTION BOX - BLUE BOX", "note": "ON 12/24 AND 12/31, THIS BOX MAY BE COLLECTED AS EARLY AS 12 NOON.", "nsi_id": "unitedstatespostalservice-a77078", "operator": "United States Postal Service", "operator:short": "USPS", "operator:type": "public", "operator:wikidata": "Q668687", "ref": "6290100083"}, "type": "Feature"}
{"dataset_attributes": {"@spider": "usps_collection_boxes"}, "geometry": {"coordinates": [-89.189635, 37.732536], "type": "Point"}, "id": "PwaKDO0ou5inL9OtbvohYhNaIOc=", "properties": {"@spider": "usps_collection_boxes", "addr:city": "CARBONDALE", "addr:country": "US", "addr:full": "1301 E MAIN ST", "addr:postcode": "62901", "addr:state": "IL", "amenity": "post_box", "brand": "United States Postal Service", "brand:wikidata": "Q668687", "collection_times": "Mo-Fr 17:00; Sa 16:45", "name": "USPS COLLECTION BOX - PO LOBBY", "note": "ON 12/24 AND 12/31, THIS BOX MAY BE COLLECTED AS EARLY AS 12 NOON.", "nsi_id": "unitedstatespostalservice-a77078", "operator": "United States Postal Service", "operator:short": "USPS", "operator:type": "public", "operator:wikidata": "Q668687", "ref": "6290100091"}, "type": "Feature"}
{"dataset_attributes": {"@spider": "usps_collection_boxes"}, "geometry": {"coordinates": [-89.2420605, 37.728322], "type": "Point"}, "id": "gBrKN1FIBW-cDzSd-NMCUbYhDOA=", "properties": {"@spider": "usps_collection_boxes", "addr:city": "CARBONDALE", "addr:country": "US", "addr:full": "2001 W MAIN ST", "addr:postcode": "62901", "addr:state": "IL", "amenity": "post_box", "brand": "United States Postal Service", "brand:wikidata": "Q668687", "collection_times": "Mo-Fr 16:00; Sa 15:00", "name": "USPS COLLECTION BOX - PO LOBBY", "note": "ON 12/24 AND 12/31, THIS BOX MAY BE COLLECTED AS EARLY AS 12 NOON.", "nsi_id": "unitedstatespostalservice-a77078", "operator": "United States Postal Service", "operator:short": "USPS", "operator:type": "public", "operator:wikidata": "Q668687", "ref": "6290100094"}, "type": "Feature"}
{"dataset_attributes": {"@spider": "usps_collection_boxes"}, "geometry": {"coordinates": [-89.2420154, 37.728285], "type": "Point"}, "id": "bQquYnagyOaGjAydZpo2gUssYbI=", "properties": {"@spider": "usps_collection_boxes", "addr:city": "CARBONDALE", "addr:country": "US", "addr:full": "2001 W MAIN ST", "addr:postcode": "62901", "addr:state": "IL", "amenity": "post_box", "brand": "United States Postal Service", "brand:wikidata": "Q668687", "collection_times": "Mo-Fr 16:00; Sa 15:00", "name": "USPS COLLECTION BOX - PO LOBBY", "note": "ON 12/24 AND 12/31, THIS BOX MAY BE COLLECTED AS EARLY AS 12 NOON.", "nsi_id": "unitedstatespostalservice-a77078", "operator": "United States Postal Service", "operator:short": "USPS", "operator:type": "public", "operator:wikidata": "Q668687", "ref": "6290100095"}, "type": "Feature"}
{"dataset_attributes": {"@spider": "usps_collection_boxes"}, "geometry": {"coordinates": [-89.2176576, 37.726086], "type": "Point"}, "id": "EfOK9_jZqI_SUFSmtMYaPEAU-pU=", "properties": {"@spider": "usps_collection_boxes", "addr:city": "CARBONDALE", "addr:country": "US", "addr:full": "209 W MONROE ST", "addr:postcode": "62901", "addr:state": "IL", "amenity": "post_box", "brand": "United States Postal Service", "brand:wikidata": "Q668687", "collection_times": "Mo-Sa 15:00", "name": "USPS COLLECTION BOX - BLUE BOX", "note": "ON 12/24 AND 12/31, THIS BOX MAY BE COLLECTED AS EARLY AS 12 NOON.", "nsi_id": "unitedstatespostalservice-a77078", "operator": "United States Postal Service", "operator:short": "USPS", "operator:type": "public", "operator:wikidata": "Q668687", "ref": "6290100096"}, "type": "Feature"}
{"dataset_attributes": {"@spider": "usps_collection_boxes"}, "geometry": {"coordinates": [-89.2183616, 37.69985], "type": "Point"}, "id": "G9to1-qvCdRonS0ImPfslHucphE=", "properties": {"@spider": "usps_collection_boxes", "addr:city": "CARBONDALE", "addr:country": "US", "addr:full": "1901 S ILLINOIS AVE", "addr:postcode": "62901", "addr:state": "IL", "amenity": "post_box", "brand": "United States Postal Service", "brand:wikidata": "Q668687", "collection_times": "Mo-Sa 11:30", "name": "USPS COLLECTION BOX - BLUE BOX", "nsi_id": "unitedstatespostalservice-a77078", "operator": "United States Postal Service", "operator:short": "USPS", "operator:type": "public", "operator:wikidata": "Q668687", "ref": "6290100097"}, "type": "Feature"}
{"dataset_attributes": {"@spider": "usps_collection_boxes"}, "geometry": {"coordinates": [-89.189635, 37.732536], "type": "Point"}, "id": "-JpezBXKWvzZdxR7gK3gRLXyK6c=", "properties": {"@spider": "usps_collection_boxes", "addr:city": "CARBONDALE", "addr:country": "US", "addr:full": "1301 E MAIN ST", "addr:postcode": "62901", "addr:state": "IL", "amenity": "post_box", "brand": "United States Postal Service", "brand:wikidata": "Q668687", "collection_times": "Mo-Fr 17:00; Sa 16:45", "name": "USPS COLLECTION BOX - APC", "note": "ON 12/24 AND 12/31, THIS BOX MAY BE COLLECTED AS EARLY AS 12 NOON.", "nsi_id": "unitedstatespostalservice-a77078", "operator": "United States Postal Service", "operator:short": "USPS", "operator:type": "public", "operator:wikidata": "Q668687", "ref": "6290100099"}, "type": "Feature"}
{"dataset_attributes": {"@spider": "usps_collection_boxes"}, "geometry": {"coordinates": [-89.2158973, 37.714901], "type": "Point"}, "id": "_Nk1X1XHVS6ndcHsGcgidCRqPlE=", "properties": {"@spider": "usps_collection_boxes", "addr:city": "CARBONDALE", "addr:country": "US", "addr:full": "216 PHYSICAL PLANT DR", "addr:postcode": "62901", "addr:state": "IL", "amenity": "post_box", "brand": "United States Postal Service", "brand:wikidata": "Q668687", "collection_times": "Mo-Sa 11:30", "name": "USPS COLLECTION BOX - BLUE BOX", "nsi_id": "unitedstatespostalservice-a77078", "operator": "United States Postal Service", "operator:short": "USPS", "operator:type": "public", "operator:wikidata": "Q668687", "ref": "6290100100"}, "type": "Feature"}
{"dataset_attributes": {"@spider": "usps_collection_boxes"}, "geometry": {"coordinates": [-89.1895754278, 37.7324908604], "type": "Point"}, "id": "VERR5bjRVC-Nx08WOgI0oaQkEMU=", "properties": {"@spider": "usps_collection_boxes", "addr:city": "CARBONDALE", "addr:country": "US", "addr:full": "1301 E MAIN ST", "addr:postcode": "62901", "addr:state": "IL", "amenity": "post_box", "brand": "United States Postal Service", "brand:wikidata": "Q668687", "collection_times": "Mo-Fr 17:00; Sa 13:00", "name": "USPS COLLECTION BOX - PO LOBBY", "note": "ON 12/24 AND 12/31, THIS BOX MAY BE COLLECTED AS EARLY AS 12 NOON.", "nsi_id": "unitedstatespostalservice-a77078", "operator": "United States Postal Service", "operator:short": "USPS", "operator:type": "public", "operator:wikidata": "Q668687", "ref": "6290100104"}, "type": "Feature"}
{"dataset_attributes": {"@spider": "usps_collection_boxes"}, "geometry": {"coordinates": [-89.243540193, 37.730257675], "type": "Point"}, "id": "fr0RCYTPwcs09obR-VW3mc8211s=", "properties": {"@spider": "usps_collection_boxes", "addr:city": "CARBONDALE", "addr:country": "US", "addr:full": "2001 W MAIN ST", "addr:postcode": "62901", "addr:state": "IL", "amenity": "post_box", "brand": "United States Postal Service", "brand:wikidata": "Q668687", "collection_times": "Mo-Fr 16:00; Sa 15:00", "name": "USPS COLLECTION BOX - PO LOBBY", "note": "ON 12/24 AND 12/31, THIS BOX MAY BE COLLECTED AS EARLY AS 12 NOON.", "nsi_id": "unitedstatespostalservice-a77078", "operator": "United States Postal Service", "operator:short": "USPS", "operator:type": "public", "operator:wikidata": "Q668687", "ref": "6290100105"}, "type": "Feature"}
{"dataset_attributes": {"@spider": "usps_collection_boxes"}, "geometry": {"coordinates": [-89.320025, 37.572509], "type": "Point"}, "id": "_WytC71XrEHANfhzlGujL8AdbWY=", "properties": {"@spider": "usps_collection_boxes", "addr:city": "ALTO PASS", "addr:country": "US", "addr:full": "85 N ELM ST", "addr:postcode": "62905", "addr:state": "IL", "amenity": "post_box", "brand": "United States Postal Service", "brand:wikidata": "Q668687", "collection_times": "Mo-Fr 14:30; Sa 09:30", "name": "USPS COLLECTION BOX - BLUE BOX", "note": "ON 12/24 AND 12/31, THIS BOX MAY BE COLLECTED AS EARLY AS 12 NOON.", "nsi_id": "unitedstatespostalservice-a77078", "operator": "United States Postal Service", "operator:short": "USPS", "operator:type": "public", "operator:wikidata": "Q668687", "ref": "6290500001"}, "type": "Feature"}
{"dataset_attributes": {"@spider": "usps_collection_boxes"}, "geometry": {"coordinates": [-89.320064, 37.572483], "type": "Point"}, "id": "n8YU7if4fwkwduZ7spU8dwM7soI=", "properties": {"@spider": "usps_collection_boxes", "addr:city": "ALTO PASS", "addr:country": "US", "addr:full": "85 N ELM ST", "addr:postcode": "62905", "addr:state": "IL", "amenity": "post_box", "brand": "United States Postal Service", "brand:wikidata": "Q668687", "collection_times": "Mo-Fr 14:30; Sa 09:30", "name": "USPS COLLECTION BOX - PO LOBBY", "note": "ON 12/24 AND 12/31, THIS BOX MAY BE COLLECTED AS EARLY AS 12 NOON.", "nsi_id": "unitedstatespostalservice-a77078", "operator": "United States Postal Service", "operator:short": "USPS", "operator:type": "public", "operator:wikidata": "Q668687", "ref": "6290500002"}, "type": "Feature"}
{"dataset_attributes": {"@spider": "usps_collection_boxes"}, "geometry": {"coordinates": [-89.320008172, 37.572488332], "type": "Point"}, "id": "FmEQKDL9lItfQtmvP-GgIhhYkBA=", "properties": {"@spider": "usps_collection_boxes", "addr:city": "ALTO PASS", "addr:country": "US", "addr:full": "85 N ELM ST", "addr:postcode": "62905", "addr:state": "IL", "amenity": "post_box", "brand": "United States Postal Service", "brand:wikidata": "Q668687", "collection_times": "Mo-Fr 14:30; Sa 09:30", "name": "USPS COLLECTION BOX - PO LOBBY", "note": "ON 12/24 AND 12/31, THIS BOX MAY BE COLLECTED AS EARLY AS 12 NOON.", "nsi_id": "unitedstatespostalservice-a77078", "operator": "United States Postal Service", "operator:short": "USPS", "operator:type": "public", "operator:wikidata": "Q668687", "ref": "6290500004"}, "type": "Feature"}
{"dataset_attributes": {"@spider": "usps_collection_boxes"}, "geometry": {"coordinates": [-89.2462695, 37.461345], "type": "Point"}, "id": "Eww3J6TjjsIEGhI0VvzUOgITz9c=", "properties": {"@spider": "usps_collection_boxes", "addr:city": "ANNA", "addr:country": "US", "addr:full": "201 N MAIN ST", "addr:postcode": "62906", "addr:state": "IL", "amenity": "post_box", "brand": "United States Postal Service", "brand:wikidata": "Q668687", "collection_times": "Mo-Sa 14:30", "name": "USPS COLLECTION BOX - BLUE BOX", "note": "ON 12/24 AND 12/31, THIS BOX MAY BE COLLECTED AS EARLY AS 12 NOON.", "nsi_id": "unitedstatespostalservice-a77078", "operator": "United States Postal Service", "operator:short": "USPS", "operator:type": "public", "operator:wikidata": "Q668687", "ref": "6290600003"}, "type": "Feature"}
{"dataset_attributes": {"@spider": "usps_collection_boxes"}, "geometry": {"coordinates": [-89.2462945, 37.461352], "type": "Point"}, "id": "XCexdSYfqcikw2kDf2sv79IFX_A=", "properties": {"@spider": "usps_collection_boxes", "addr:city": "ANNA", "addr:country": "US", "addr:full": "201 N MAIN ST", "addr:postcode": "62906", "addr:state": "IL", "amenity": "post_box", "brand": "United States Postal Service", "brand:wikidata": "Q668687", "collection_times": "Mo-Sa 14:30", "name": "USPS COLLECTION BOX - BLUE BOX", "note": "ON 12/24 AND 12/31, THIS BOX MAY BE COLLECTED AS EARLY AS 12 NOON.", "nsi_id": "unitedstatespostalservice-a77078", "operator": "United States Postal Service", "operator:short": "USPS", "operator:type": "public", "operator:wikidata": "Q668687", "ref": "6290600007"}, "type": "Feature"}
{"dataset_attributes": {"@spider": "usps_collection_boxes"}, "geometry": {"coordinates": [-89.2339796, 37.460243], "type": "Point"}, "id": "KZUxOXHwIsOYqPmt7QJ7tbkr7_Y=", "properties": {"@spider": "usps_collection_boxes", "addr:city": "ANNA", "addr:country": "US", "addr:full": "512 E VIENNA ST", "addr:postcode": "62906", "addr:state": "IL", "amenity": "post_box", "brand": "United States Postal Service", "brand:wikidata": "Q668687", "collection_times": "Mo-Sa 14:30", "name": "USPS COLLECTION BOX - BLUE BOX", "note": "ON 12/24 AND 12/31, THIS BOX MAY BE COLLECTED AS EARLY AS 12 NOON.", "nsi_id": "unitedstatespostalservice-a77078", "operator": "United States Postal Service", "operator:short": "USPS", "operator:type": "public", "operator:wikidata": "Q668687", "ref": "6290600011"}, "type": "Feature"}
{"dataset_attributes": {"@spider": "usps_collection_boxes"}, "geometry": {"coordinates": [-89.2462813, 37.461529], "type": "Point"}, "id": "p3_l0mKRx254SoWmm6vQGYR7Fi8=", "properties": {"@spider": "usps_collection_boxes", "addr:city": "ANNA", "addr:country": "US", "addr:full": "201 N MAIN ST", "addr:postcode": "62906", "addr:state": "IL", "amenity": "post_box", "brand": "United States Postal Service", "brand:wikidata": "Q668687", "collection_times": "Mo-Sa 14:30", "name": "USPS COLLECTION BOX - PO LOBBY", "note": "ON 12/24 AND 12/31, THIS BOX MAY BE COLLECTED AS EARLY AS 12 NOON.", "nsi_id": "unitedstatespostalservice-a77078", "operator": "United States Postal Service", "operator:short": "USPS", "operator:type": "public", "operator:wikidata": "Q668687", "ref": "6290600012"}, "type": "Feature"}
{"dataset_attributes": {"@spider": "usps_collection_boxes"}, "geometry": {"coordinates": [-89.246047354, 37.46156762], "type": "Point"}, "id": "ZYfim1XPb9F3uC27pn6xsq3UbVc=", "properties": {"@spider": "usps_collection_boxes", "addr:city": "ANNA", "addr:country": "US", "addr:full": "201 N MAIN ST", "addr:postcode": "62906", "addr:state": "IL", "amenity": "post_box", "brand": "United States Postal Service", "brand:wikidata": "Q668687", "collection_times": "Mo-Sa 14:30", "name": "USPS COLLECTION BOX - PO LOBBY", "note": "ON 12/24 AND 12/31, THIS BOX MAY BE COLLECTED AS EARLY AS 12 NOON.", "nsi_id": "unitedstatespostalservice-a77078", "operator": "United States Postal Service", "operator:short": "USPS", "operator:type": "public", "operator:wikidata": "Q668687", "ref": "6290600014"}, "type": "Feature"}
{"dataset_attributes": {"@spider": "usps_collection_boxes"}, "geometry": {"coordinates": [-89.496101, 37.888338], "type": "Point"}, "id": "PXrpZAxCqIfDY6yNz7ifA8JJotc=", "properties": {"@spider": "usps_collection_boxes", "addr:city": "AVA", "addr:country": "US", "addr:full": "222 W MAIN ST", "addr:postcode": "62907", "addr:state": "IL", "amenity": "post_box", "brand": "United States Postal Service", "brand:wikidata": "Q668687", "collection_times": "Mo-Fr 13:50; Sa 09:45", "name": "USPS COLLECTION BOX - BLUE BOX", "note": "ON 12/24 AND 12/31, THIS BOX MAY BE COLLECTED AS EARLY AS 12 NOON.", "nsi_id": "unitedstatespostalservice-a77078", "operator": "United States Postal Service", "operator:short": "USPS", "operator:type": "public", "operator:wikidata": "Q668687", "ref": "6290700001"}, "type": "Feature"}
{"dataset_attributes": {"@spider": "usps_collection_boxes"}, "geometry": {"coordinates": [-89.496031, 37.888364], "type": "Point"}, "id": "LXcudRpc_yRIirKAZDgzbRsCCek=", "properties": {"@spider": "usps_collection_boxes", "addr:city": "AVA", "addr:country": "US", "addr:full": "222 W MAIN ST", "addr:postcode": "62907", "addr:state": "IL", "amenity": "post_box", "brand": "United States Postal Service", "brand:wikidata": "Q668687", "collection_times": "Mo-Fr 13:50; Sa 10:00", "name": "USPS COLLECTION BOX - PO LOBBY", "note": "ON 12/24 AND 12/31, THIS BOX MAY BE COLLECTED AS EARLY AS 12 NOON.", "nsi_id": "unitedstatespostalservice-a77078", "operator": "United States Postal Service", "operator:short": "USPS", "operator:type": "public", "operator:wikidata": "Q668687", "ref": "6290700002"}, "type": "Feature"}
{"dataset_attributes": {"@spider": "usps_collection_boxes"}, "geometry": {"coordinates": [-89.496080854, 37.888282701], "type": "Point"}, "id": "2zJxOKMM2eGRzsfsDYqatXZRr0c=", "properties": {"@spider": "usps_collection_boxes", "addr:city": "AVA", "addr:country": "US", "addr:full": "222 W MAIN ST", "addr:postcode": "62907", "addr:state": "IL", "amenity": "post_box", "brand": "United States Postal Service", "brand:wikidata": "Q668687", "collection_times": "Mo-Fr 13:45; Sa 10:00", "name": "USPS COLLECTION BOX - PO LOBBY", "note": "ON 12/24 AND 12/31, THIS BOX MAY BE COLLECTED AS EARLY AS 12 NOON.", "nsi_id": "unitedstatespostalservice-a77078", "operator": "United States Postal Service", "operator:short": "USPS", "operator:type": "public", "operator:wikidata": "Q668687", "ref": "6290700004"}, "type": "Feature"}
{"dataset_attributes": {"@spider": "usps_collection_boxes"}, "geometry": {"coordinates": [-89.119314, 37.78449], "type": "Point"}, "id": "emjcN8ddFsdZhdK3Qec5g3He0tk=", "properties": {"@spider": "usps_collection_boxes", "addr:city": "CAMBRIA", "addr:country": "US", "addr:full": "104 N MAPLE ST", "addr:postcode": "62915", "addr:state": "IL", "amenity": "post_box", "brand": "United States Postal Service", "brand:wikidata": "Q668687", "collection_times": "Mo-Fr 13:20; Sa 10:45", "name": "USPS COLLECTION BOX - BLUE BOX", "note": "ON 12/24 AND 12/31, THIS BOX MAY BE COLLECTED AS EARLY AS 12 NOON.", "nsi_id": "unitedstatespostalservice-a77078", "operator": "United States Postal Service", "operator:short": "USPS", "operator:type": "public", "operator:wikidata": "Q668687", "ref": "6291500001"}, "type": "Feature"}
{"dataset_attributes": {"@spider": "usps_collection_boxes"}, "geometry": {"coordinates": [-89.11928, 37.784408], "type": "Point"}, "id": "MRqO81UCwRO-iSLHQ11o0NrVOQM=", "properties": {"@spider": "usps_collection_boxes", "addr:city": "CAMBRIA", "addr:country": "US", "addr:full": "104 N MAPLE ST", "addr:postcode": "62915", "addr:state": "IL", "amenity": "post_box", "brand": "United States Postal Service", "brand:wikidata": "Q668687", "collection_times": "Mo-Fr 13:20; Sa 10:45", "name": "USPS COLLECTION BOX - PO LOBBY", "note": "ON 12/24 AND 12/31, THIS BOX MAY BE COLLECTED AS EARLY AS 12 NOON.", "nsi_id": "unitedstatespostalservice-a77078", "operator": "United States Postal Service", "operator:short": "USPS", "operator:type": "public", "operator:wikidata": "Q668687", "ref": "6291500002"}, "type": "Feature"}
{"dataset_attributes": {"@spider": "usps_collection_boxes"}, "geometry": {"coordinates": [-89.1193399, 37.784452595], "type": "Point"}, "id": "3d4TJIazV7AkeMR4oBNGkrSR2Qo=", "properties": {"@spider": "usps_collection_boxes", "addr:city": "CAMBRIA", "addr:country": "US", "addr:full": "104 N MAPLE ST", "addr:postcode": "62915", "addr:state": "IL", "amenity": "post_box", "brand": "United States Postal Service", "brand:wikidata": "Q668687", "collection_times": "Mo-Fr 13:30; Sa 10:45", "name": "USPS COLLECTION BOX - PO LOBBY", "note": "ON 12/24 AND 12/31, THIS BOX MAY BE COLLECTED AS EARLY AS 12 NOON.", "nsi_id": "unitedstatespostalservice-a77078", "operator": "United States Postal Service", "operator:short": "USPS", "operator:type": "public", "operator:wikidata": "Q668687", "ref": "6291500003"}, "type": "Feature"}
{"dataset_attributes": {"@spider": "usps_collection_boxes"}, "geometry": {"coordinates": [-89.549609, 37.928694], "type": "Point"}, "id": "cgSrvt4A4xWphh4hPvEylJIk_-A=", "properties": {"@spider": "usps_collection_boxes", "addr:city": "CAMPBELL HILL", "addr:country": "US", "addr:full": "106 W FRONT ST", "addr:postcode": "62916", "addr:state": "IL", "amenity": "post_box", "brand": "United States Postal Service", "brand:wikidata": "Q668687", "collection_times": "Mo-Fr 11:15; Sa 09:30", "name": "USPS COLLECTION BOX - BLUE BOX", "nsi_id": "unitedstatespostalservice-a77078", "operator": "United States Postal Service", "operator:short": "USPS", "operator:type": "public", "operator:wikidata": "Q668687", "ref": "6291600001"}, "type": "Feature"}
{"dataset_attributes": {"@spider": "usps_collection_boxes"}, "geometry": {"coordinates": [-89.549506, 37.928707], "type": "Point"}, "id": "be2N7O16fxL6aCQFJgX5ICS8EN8=", "properties": {"@spider": "usps_collection_boxes", "addr:city": "CAMPBELL HILL", "addr:country": "US", "addr:full": "106 W FRONT ST", "addr:postcode": "62916", "addr:state": "IL", "amenity": "post_box", "brand": "United States Postal Service", "brand:wikidata": "Q668687", "collection_times": "Mo-Fr 11:15; Sa 09:30", "name": "USPS COLLECTION BOX - PO LOBBY", "nsi_id": "unitedstatespostalservice-a77078", "operator": "United States Postal Service", "operator:short": "USPS", "operator:type": "public", "operator:wikidata": "Q668687", "ref": "6291600002"}, "type": "Feature"}
{"dataset_attributes": {"@spider": "usps_collection_boxes"}, "geometry": {"coordinates": [-89.549506, 37.928707], "type": "Point"}, "id": "OdzYr0kI7UwJdFxMh2_PObHrpP4=", "properties": {"@spider": "usps_collection_boxes", "addr:city": "CAMPBELL HILL", "addr:country": "US", "addr:full": "106 W FRONT ST", "addr:postcode": "62916", "addr:state": "IL", "amenity": "post_box", "brand": "United States Postal Service", "brand:wikidata": "Q668687", "collection_times": "Mo-Fr 11:15; Sa 09:30", "name": "USPS COLLECTION BOX - PO LOBBY", "nsi_id": "unitedstatespostalservice-a77078", "operator": "United States Postal Service", "operator:short": "USPS", "operator:type": "public", "operator:wikidata": "Q668687", "ref": "6291600003"}, "type": "Feature"}
{"dataset_attributes": {"@spider": "usps_collection_boxes"}, "geometry": {"coordinates": [-89.549579124, 37.928632351], "type": "Point"}, "id": "2nAnYWsj7dvdOh764t6eO_Cc5Y8=", "properties": {"@spider": "usps_collection_boxes", "addr:city": "CAMPBELL HILL", "addr:country": "US", "addr:full": "106 W FRONT ST", "addr:postcode": "62916", "addr:state": "IL", "amenity": "post_box", "brand": "United States Postal Service", "brand:wikidata": "Q668687", "collection_times": "Mo-Fr 11:15; Sa 09:30", "name": "USPS COLLECTION BOX - PO LOBBY", "nsi_id": "unitedstatespostalservice-a77078", "operator": "United States Postal Service", "operator:short": "USPS", "operator:type": "public", "operator:wikidata": "Q668687", "ref": "6291600004"}, "type": "Feature"}
{"dataset_attributes": {"@spider": "usps_collection_boxes"}, "geometry": {"coordinates": [-89.076224, 37.760106], "type": "Point"}, "id": "7Puf6c2KnvW765rtkwD3V0ll2s4=", "properties": {"@spider": "usps_collection_boxes", "addr:city": "CARTERVILLE", "addr:country": "US", "addr:full": "101 E GRAND AVE", "addr:postcode": "62918", "addr:state": "IL", "amenity": "post_box", "brand": "United States Postal Service", "brand:wikidata": "Q668687", "collection_times": "Mo-Sa 14:50", "name": "USPS COLLECTION BOX - BLUE BOX", "note": "ON 12/24 AND 12/31, THIS BOX MAY BE COLLECTED AS EARLY AS 12 NOON.", "nsi_id": "unitedstatespostalservice-a77078", "operator": "United States Postal Service", "operator:short": "USPS", "operator:type": "public", "operator:wikidata": "Q668687", "ref": "6291800001"}, "type": "Feature"}
{"dataset_attributes": {"@spider": "usps_collection_boxes"}, "geometry": {"coordinates": [-89.076338, 37.760133], "type": "Point"}, "id": "LViPwxk68PteT507JfHjvKdEUew=", "properties": {"@spider": "usps_collection_boxes", "addr:city": "CARTERVILLE", "addr:country": "US", "addr:full": "101 E GRAND AVE", "addr:postcode": "62918", "addr:state": "IL", "amenity": "post_box", "brand": "United States Postal Service", "brand:wikidata": "Q668687", "collection_times": "Mo-Sa 14:50", "name": "USPS COLLECTION BOX - BLUE BOX", "note": "ON 12/24 AND 12/31, THIS BOX MAY BE COLLECTED AS EARLY AS 12 NOON.", "nsi_id": "unitedstatespostalservice-a77078", "operator": "United States Postal Service", "operator:short": "USPS", "operator:type": "public", "operator:wikidata": "Q668687", "ref": "6291800012"}, "type": "Feature"}
{"dataset_attributes": {"@spider": "usps_collection_boxes"}, "geometry": {"coordinates": [-89.076338, 37.760133], "type": "Point"}, "id": "TIuQmy5-GZOCQunp6oQX6QwRejw=", "properties": {"@spider": "usps_collection_boxes", "addr:city": "CARTERVILLE", "addr:country": "US", "addr:full": "101 E GRAND AVE", "addr:postcode": "62918", "addr:state": "IL", "amenity": "post_box", "brand": "United States Postal Service", "brand:wikidata": "Q668687", "collection_times": "Mo-Sa 14:50", "name": "USPS COLLECTION BOX - PO LOBBY", "note": "ON 12/24 AND 12/31, THIS BOX MAY BE COLLECTED AS EARLY AS 12 NOON.", "nsi_id": "unitedstatespostalservice-a77078", "operator": "United States Postal Service", "operator:short": "USPS", "operator:type": "public", "operator:wikidata": "Q668687", "ref": "6291800014"}, "type": "Feature"}
{"dataset_attributes": {"@spider": "usps_collection_boxes"}, "geometry": {"coordinates": [-89.0762535, 37.760097532], "type": "Point"}, "id": "QWmp6kdU2xbB75a9wfrE-D4o93Y=", "properties": {"@spider": "usps_collection_boxes", "addr:city": "CARTERVILLE", "addr:country": "US", "addr:full": "101 E GRAND AVE", "addr:postcode": "62918", "addr:state": "IL", "amenity": "post_box", "brand": "United States Postal Service", "brand:wikidata": "Q668687", "collection_times": "Mo-Sa 14:45", "name": "USPS COLLECTION BOX - PO LOBBY", "note": "ON 12/24 AND 12/31, THIS BOX MAY BE COLLECTED AS EARLY AS 12 NOON.", "nsi_id": "unitedstatespostalservice-a77078", "operator": "United States Postal Service", "operator:short": "USPS", "operator:type": "public", "operator:wikidata": "Q668687", "ref": "6291800017"}, "type": "Feature"}
{"dataset_attributes": {"@spider": "usps_collection_boxes"}, "geometry": {"coordinates": [-89.25455, 37.532707], "type": "Point"}, "id": "Cu5ubSHUZX-UVmT2u4qpqTMIAG4=", "properties": {"@spider": "usps_collection_boxes", "addr:city": "COBDEN", "addr:country": "US", "addr:full": "113 S APPLEKNOCKER ST", "addr:postcode": "62920", "addr:state": "IL", "amenity": "post_box", "brand": "United States Postal Service", "brand:wikidata": "Q668687", "collection_times": "Mo-Fr 14:20; Sa 09:45", "name": "USPS COLLECTION BOX - BLUE BOX", "note": "ON 12/24 AND 12/31, THIS BOX MAY BE COLLECTED AS EARLY AS 12 NOON.", "nsi_id": "unitedstatespostalservice-a77078", "operator": "United States Postal Service", "operator:short": "USPS", "operator:type": "public", "operator:wikidata": "Q668687", "ref": "6292000002"}, "type": "Feature"}
{"dataset_attributes": {"@spider": "usps_collection_boxes"}, "geometry": {"coordinates": [-89.254579, 37.532623], "type": "Point"}, "id": "VIlmlqI5O5CFZ-SW5heklRmiqG0=", "properties": {"@spider": "usps_collection_boxes", "addr:city": "COBDEN", "addr:country": "US", "addr:full": "113 S APPLEKNOCKER ST", "addr:postcode": "62920", "addr:state": "IL", "amenity": "post_box", "brand": "United States Postal Service", "brand:wikidata": "Q668687", "collection_times": "Mo-Fr 14:20; Sa 09:45", "name": "USPS COLLECTION BOX - PO LOBBY", "note": "ON 12/24 AND 12/31, THIS BOX MAY BE COLLECTED AS EARLY AS 12 NOON.", "nsi_id": "unitedstatespostalservice-a77078", "operator": "United States Postal Service", "operator:short": "USPS", "operator:type": "public", "operator:wikidata": "Q668687", "ref": "6292000004"}, "type": "Feature"}
{"dataset_attributes": {"@spider": "usps_collection_boxes"}, "geometry": {"coordinates": [-89.254668403, 37.530579403], "type": "Point"}, "id": "Aol-35JabEb_acyjgjV757k-rgY=", "properties": {"@spider": "usps_collection_boxes", "addr:city": "COBDEN", "addr:country": "US", "addr:full": "113 S APPLEKNOCKER ST", "addr:postcode": "62920", "addr:state": "IL", "amenity": "post_box", "brand": "United States Postal Service", "brand:wikidata": "Q668687", "collection_times": "Mo-Fr 14:30; Sa 09:45", "name": "USPS COLLECTION BOX - PO LOBBY", "note": "ON 12/24 AND 12/31, THIS BOX MAY BE COLLECTED AS EARLY AS 12 NOON.", "nsi_id": "unitedstatespostalservice-a77078", "operator": "United States Postal Service", "operator:short": "USPS", "operator:type": "public", "operator:wikidata": "Q668687", "ref": "6292000005"}, "type": "Feature"}
{"dataset_attributes": {"@spider": "usps_collection_boxes"}, "geometry": {"coordinates": [-89.07761, 37.803969], "type": "Point"}, "id": "UmyIcL4b12Veix95uHxVq83FUM0=", "properties": {"@spider": "usps_collection_boxes", "addr:city": "COLP", "addr:country": "US", "addr:full": "105 N MAYOR CALIPER DR", "addr:postcode": "62921", "addr:state": "IL", "amenity": "post_box", "brand": "United States Postal Service", "brand:wikidata": "Q668687", "collection_times": "Mo-Fr 11:15; Sa 09:00", "name": "USPS COLLECTION BOX - BLUE BOX", "nsi_id": "unitedstatespostalservice-a77078", "operator": "United States Postal Service", "operator:short": "USPS", "operator:type": "public", "operator:wikidata": "Q668687", "ref": "6292100001"}, "type": "Feature"}
{"dataset_attributes": {"@spider": "usps_collection_boxes"}, "geometry": {"coordinates": [-89.077577, 37.803886], "type": "Point"}, "id": "0MGx7AOkW2SX_HK76CUfWrJXpHI=", "properties": {"@spider": "usps_collection_boxes", "addr:city": "COLP", "addr:country": "US", "addr:full": "105 N MAYOR CALIPER DR", "addr:postcode": "62921", "addr:state": "IL", "amenity": "post_box", "brand": "United States Postal Service", "brand:wikidata": "Q668687", "collection_times": "Mo-Fr 11:15; Sa 09:00", "name": "USPS COLLECTION BOX - PO LOBBY", "nsi_id": "unitedstatespostalservice-a77078", "operator": "United States Postal Service", "operator:short": "USPS", "operator:type": "public", "operator:wikidata": "Q668687", "ref": "6292100002"}, "type": "Feature"}
{"dataset_attributes": {"@spider": "usps_collection_boxes"}, "geometry": {"coordinates": [-89.077605789, 37.804356587], "type": "Point"}, "id": "co1Wu_vsZoPMQ3y2LBrrfRoeXNc=", "properties": {"@spider": "usps_collection_boxes", "addr:city": "COLP", "addr:country": "US", "addr:full": "105 N MAYOR CALIPER DR", "addr:postcode": "62921", "addr:state": "IL", "amenity": "post_box", "brand": "United States Postal Service", "brand:wikidata": "Q668687", "collection_times": "Mo-Fr 11:15; Sa 09:00", "name": "USPS COLLECTION BOX - PO LOBBY", "nsi_id": "unitedstatespostalservice-a77078", "operator": "United States Postal Service", "operator:short": "USPS", "operator:type": "public", "operator:wikidata": "Q668687", "ref": "6292100003"}, "type": "Feature"}
{"dataset_attributes": {"@spider": "usps_collection_boxes"}, "geometry": {"coordinates": [-89.227749, 37.816532], "type": "Point"}, "id": "WqoEs8U7-jdIKxAtH9vY8TuVLRE=", "properties": {"@spider": "usps_collection_boxes", "addr:city": "DESOTO", "addr:country": "US", "addr:full": "104 N CHESTNUT ST", "addr:postcode": "62924", "addr:state": "IL", "amenity": "post_box", "brand": "United States Postal Service", "brand:wikidata": "Q668687", "collection_times": "Mo-Fr 14:50; Sa 09:15", "name": "USPS COLLECTION BOX - BLUE BOX", "note": "ON 12/24 AND 12/31, THIS BOX MAY BE COLLECTED AS EARLY AS 12 NOON.", "nsi_id": "unitedstatespostalservice-a77078", "operator": "United States Postal Service", "operator:short": "USPS", "operator:type": "public", "operator:wikidata": "Q668687", "ref": "6292400001"}, "type": "Feature"}
{"dataset_attributes": {"@spider": "usps_collection_boxes"}, "geometry": {"coordinates": [-89.227704, 37.816452], "type": "Point"}, "id": "ytiQSS5kh4U1cHTI27HOmcTpOEo=", "properties": {"@spider": "usps_collection_boxes", "addr:city": "DESOTO", "addr:country": "US", "addr:full": "104 N CHESTNUT ST", "addr:postcode": "62924", "addr:state": "IL", "amenity": "post_box", "brand": "United States Postal Service", "brand:wikidata": "Q668687", "collection_times": "Mo-Fr 14:45; Sa 09:15", "name": "USPS COLLECTION BOX - PO LOBBY", "note": "ON 12/24 AND 12/31, THIS BOX MAY BE COLLECTED AS EARLY AS 12 NOON.", "nsi_id": "unitedstatespostalservice-a77078", "operator": "United States Postal Service", "operator:short": "USPS", "operator:type": "public", "operator:wikidata": "Q668687", "ref": "6292400002"}, "type": "Feature"}
{"dataset_attributes": {"@spider": "usps_collection_boxes"}, "geometry": {"coordinates": [-89.227704, 37.816452], "type": "Point"}, "id": "Fx2BzpkPF_QB2tUf3-juCODor-w=", "properties": {"@spider": "usps_collection_boxes", "addr:city": "DESOTO", "addr:country": "US", "addr:full": "104 N CHESTNUT ST", "addr:postcode": "62924", "addr:state": "IL", "amenity": "post_box", "brand": "United States Postal Service", "brand:wikidata": "Q668687", "collection_times": "Mo-Fr 14:45; Sa 09:15", "name": "USPS COLLECTION BOX - PO LOBBY", "note": "ON 12/24 AND 12/31, THIS BOX MAY BE COLLECTED AS EARLY AS 12 NOON.", "nsi_id": "unitedstatespostalservice-a77078", "operator": "United States Postal Service", "operator:short": "USPS", "operator:type": "public", "operator:wikidata": "Q668687", "ref": "6292400003"}, "type": "Feature"}
{"dataset_attributes": {"@spider": "usps_collection_boxes"}, "geometry": {"coordinates": [-89.227770328, 37.816488528], "type": "Point"}, "id": "IdnnL5IvlWAee9psvs3upK1SWHw=", "properties": {"@spider": "usps_collection_boxes", "addr:city": "DESOTO", "addr:country": "US", "addr:full": "104 N CHESTNUT ST", "addr:postcode": "62924", "addr:state": "IL", "amenity": "post_box", "brand": "United States Postal Service", "brand:wikidata": "Q668687", "collection_times": "Mo-Fr 14:45; Sa 09:15", "name": "USPS COLLECTION BOX - PO LOBBY", "note": "ON 12/24 AND 12/31, THIS BOX MAY BE COLLECTED AS EARLY AS 12 NOON.", "nsi_id": "unitedstatespostalservice-a77078", "operator": "United States Postal Service", "operator:short": "USPS", "operator:type": "public", "operator:wikidata": "Q668687", "ref": "6292400006"}, "type": "Feature"}
{"dataset_attributes": {"@spider": "usps_collection_boxes"}, "geometry": {"coordinates": [-89.240281, 37.940047], "type": "Point"}, "id": "ujNMM5Uavi8deWiPYbAsO_T_0ps=", "properties": {"@spider": "usps_collection_boxes", "addr:city": "DOWELL", "addr:country": "US", "addr:full": "501 UNION AVE", "addr:postcode": "62927", "addr:state": "IL", "amenity": "post_box", "brand": "United States Postal Service", "brand:wikidata": "Q668687", "collection_times": "Mo-Fr 14:30; Sa 12:30", "name": "USPS COLLECTION BOX - BLUE BOX", "note": "ON 12/24 AND 12/31, THIS BOX MAY BE COLLECTED AS EARLY AS 12 NOON.", "nsi_id": "unitedstatespostalservice-a77078", "operator": "United States Postal Service", "operator:short": "USPS", "operator:type": "public", "operator:wikidata": "Q668687", "ref": "6292700001"}, "type": "Feature"}
{"dataset_attributes": {"@spider": "usps_collection_boxes"}, "geometry": {"coordinates": [-89.240167, 37.94002], "type": "Point"}, "id": "_Qlnhqn6GeaGAafA9QTwz_cKnKs=", "properties": {"@spider": "usps_collection_boxes", "addr:city": "DOWELL", "addr:country": "US", "addr:full": "501 UNION AVE", "addr:postcode": "62927", "addr:state": "IL", "amenity": "post_box", "brand": "United States Postal Service", "brand:wikidata": "Q668687", "collection_times": "Mo-Fr 14:30; Sa 12:30", "name": "USPS COLLECTION BOX - PO LOBBY", "note": "ON 12/24 AND 12/31, THIS BOX MAY BE COLLECTED AS EARLY AS 12 NOON.", "nsi_id": "unitedstatespostalservice-a77078", "operator": "United States Postal Service", "operator:short": "USPS", "operator:type": "public", "operator:wikidata": "Q668687", "ref": "6292700002"}, "type": "Feature"}
{"dataset_attributes": {"@spider": "usps_collection_boxes"}, "geometry": {"coordinates": [-89.240247886, 37.940085064], "type": "Point"}, "id": "Bgvplo71S5DlvJgehZl-55p9YKM=", "properties": {"@spider": "usps_collection_boxes", "addr:city": "DOWELL", "addr:country": "US", "addr:full": "501 UNION AVE", "addr:postcode": "62927", "addr:state": "IL", "amenity": "post_box", "brand": "United States Postal Service", "brand:wikidata": "Q668687", "collection_times": "Mo-Fr 14:30; Sa 12:30", "name": "USPS COLLECTION BOX - PO LOBBY", "note": "ON 12/24 AND 12/31, THIS BOX MAY BE COLLECTED AS EARLY AS 12 NOON.", "nsi_id": "unitedstatespostalservice-a77078", "operator": "United States Postal Service", "operator:short": "USPS", "operator:type": "public", "operator:wikidata": "Q668687", "ref": "6292700004"}, "type": "Feature"}
{"dataset_attributes": {"@spider": "usps_collection_boxes"}, "geometry": {"coordinates": [-89.23569, 37.909938], "type": "Point"}, "id": "T6-W8wXzDCaY_J0dE1OpXrDDl9A=", "properties": {"@spider": "usps_collection_boxes", "addr:city": "ELKVILLE", "addr:country": "US", "addr:full": "108 S 4TH ST", "addr:postcode": "62932", "addr:state": "IL", "amenity": "post_box", "brand": "United States Postal Service", "brand:wikidata": "Q668687", "collection_times": "Mo-Fr 14:15; Sa 10:45", "name": "USPS COLLECTION BOX - BLUE BOX", "note": "ON 12/24 AND 12/31, THIS BOX MAY BE COLLECTED AS EARLY AS 12 NOON.", "nsi_id": "unitedstatespostalservice-a77078", "operator": "United States Postal Service", "operator:short": "USPS", "operator:type": "public", "operator:wikidata": "Q668687", "ref": "6293200001"}, "type": "Feature"}
{"dataset_attributes": {"@spider": "usps_collection_boxes"}, "geometry": {"coordinates": [-89.235727, 37.910012], "type": "Point"}, "id": "6VsW-skK6B59SwpU5EOUvqwJHC8=", "properties": {"@spider": "usps_collection_boxes", "addr:city": "ELKVILLE", "addr:country": "US", "addr:full": "108 S 4TH ST", "addr:postcode": "62932", "addr:state": "IL", "amenity": "post_box", "brand": "United States Postal Service", "brand:wikidata": "Q668687", "collection_times": "Mo-Fr 14:15; Sa 10:45", "name": "USPS COLLECTION BOX - PO LOBBY", "note": "ON 12/24 AND 12/31, THIS BOX MAY BE COLLECTED AS EARLY AS 12 NOON.", "nsi_id": "unitedstatespostalservice-a77078", "operator": "United States Postal Service", "operator:short": "USPS", "operator:type": "public", "operator:wikidata": "Q668687", "ref": "6293200002"}, "type": "Feature"}
{"dataset_attributes": {"@spider": "usps_collection_boxes"}, "geometry": {"coordinates": [-89.235671426, 37.909948219], "type": "Point"}, "id": "MDy05OEeGLiFlhnyrTxhbfE2L8E=", "properties": {"@spider": "usps_collection_boxes", "addr:city": "ELKVILLE", "addr:country": "US", "addr:full": "108 S 4TH ST", "addr:postcode": "62932", "addr:state": "IL", "amenity": "post_box", "brand": "United States Postal Service", "brand:wikidata": "Q668687", "collection_times": "Mo-Fr 14:15; Sa 10:45", "name": "USPS COLLECTION BOX - PO LOBBY", "note": "ON 12/24 AND 12/31, THIS BOX MAY BE COLLECTED AS EARLY AS 12 NOON.", "nsi_id": "unitedstatespostalservice-a77078", "operator": "United States Postal Service", "operator:short": "USPS", "operator:type": "public", "operator:wikidata": "Q668687", "ref": "6293200004"}, "type": "Feature"}
{"dataset_attributes": {"@spider": "usps_collection_boxes"}, "geometry": {"coordinates": [-89.026404, 37.775021], "type": "Point"}, "id": "vmy0E4nrPXbkmeDnGY5O09qZFGI=", "properties": {"@spider": "usps_collection_boxes", "addr:city": "ENERGY", "addr:country": "US", "addr:full": "208 N PERSHING ST", "addr:postcode": "62933", "addr:state": "IL", "amenity": "post_box", "brand": "United States Postal Service", "brand:wikidata": "Q668687", "collection_times": "Mo-Fr 14:50; Sa 09:45", "name": "USPS COLLECTION BOX - BLUE BOX", "note": "ON 12/24 AND 12/31, THIS BOX MAY BE COLLECTED AS EARLY AS 12 NOON.", "nsi_id": "unitedstatespostalservice-a77078", "operator": "United States Postal Service", "operator:short": "USPS", "operator:type": "public", "operator:wikidata": "Q668687", "ref": "6293300001"}, "type": "Feature"}
{"dataset_attributes": {"@spider": "usps_collection_boxes"}, "geometry": {"coordinates": [-89.026438, 37.774946], "type": "Point"}, "id": "YhbtuwFju6SHuWik2j0CZawa6TQ=", "properties": {"@spider": "usps_collection_boxes", "addr:city": "ENERGY", "addr:country": "US", "addr:full": "208 N PERSHING ST", "addr:postcode": "62933", "addr:state": "IL", "amenity": "post_box", "brand": "United States Postal Service", "brand:wikidata": "Q668687", "collection_times": "Mo-Fr 14:50; Sa 09:45", "name": "USPS COLLECTION BOX - PO LOBBY", "note": "ON 12/24 AND 12/31, THIS BOX MAY BE COLLECTED AS EARLY AS 12 NOON.", "nsi_id": "unitedstatespostalservice-a77078", "operator": "United States Postal Service", "operator:short": "USPS", "operator:type": "public", "operator:wikidata": "Q668687", "ref": "6293300002"}, "type": "Feature"}
{"dataset_attributes": {"@spider": "usps_collection_boxes"}, "geometry": {"coordinates": [-89.0263856, 37.7753186], "type": "Point"}, "id": "lryQpIqIGjB8tLIhxy_RqunwOR4=", "properties": {"@spider": "usps_collection_boxes", "addr:city": "ENERGY", "addr:country": "US", "addr:full": "208 N PERSHING ST", "addr:postcode": "62933", "addr:state": "IL", "amenity": "post_box", "brand": "United States Postal Service", "brand:wikidata": "Q668687", "collection_times": "Mo-Fr 14:00; Sa 09:45", "name": "USPS COLLECTION BOX - PO LOBBY", "note": "ON 12/24 AND 12/31, THIS BOX MAY BE COLLECTED AS EARLY AS 12 NOON.", "nsi_id": "unitedstatespostalservice-a77078", "operator": "United States Postal Service", "operator:short": "USPS", "operator:type": "public", "operator:wikidata": "Q668687", "ref": "6293300005"}, "type": "Feature"}
{"dataset_attributes": {"@spider": "usps_collection_boxes"}, "geometry": {"coordinates": [-89.488389, 37.715907], "type": "Point"}, "id": "Fa9ruKLzcuK7m2kRrkmENYjh9g0=", "properties": {"@spider": "usps_collection_boxes", "addr:city": "GORHAM", "addr:country": "US", "addr:full": "407 MAIN ST", "addr:postcode": "62940", "addr:state": "IL", "amenity": "post_box", "brand": "United States Postal Service", "brand:wikidata": "Q668687", "collection_times": "Mo-Fr 11:30; Sa 10:15", "name": "USPS COLLECTION BOX - BLUE BOX", "nsi_id": "unitedstatespostalservice-a77078", "operator": "United States Postal Service", "operator:short": "USPS", "operator:type": "public", "operator:wikidata": "Q668687", "ref": "6294000001"}, "type": "Feature"}
{"dataset_attributes": {"@spider": "usps_collection_boxes"}, "geometry": {"coordinates": [-89.48829, 37.71588], "type": "Point"}, "id": "x7KusfImUxltn8gXd7gStvqxpyI=", "properties": {"@spider": "usps_collection_boxes", "addr:city": "GORHAM", "addr:country": "US", "addr:full": "407 MAIN ST", "addr:postcode": "62940", "addr:state": "IL", "amenity": "post_box", "brand": "United States Postal Service", "brand:wikidata": "Q668687", "collection_times": "Mo-Fr 11:30; Sa 10:15", "name": "USPS COLLECTION BOX - PO LOBBY", "nsi_id": "unitedstatespostalservice-a77078", "operator": "United States Postal Service", "operator:short": "USPS", "operator:type": "public", "operator:wikidata": "Q668687", "ref": "6294000002"}, "type": "Feature"}
{"dataset_attributes": {"@spider": "usps_collection_boxes"}, "geometry": {"coordinates": [-89.488678834, 37.716027727], "type": "Point"}, "id": "Pv2fRIOrpmCLOOmicMrYNISnmhk=", "properties": {"@spider": "usps_collection_boxes", "addr:city": "GORHAM", "addr:country": "US", "addr:full": "407 MAIN ST", "addr:postcode": "62940", "addr:state": "IL", "amenity": "post_box", "brand": "United States Postal Service", "brand:wikidata": "Q668687", "collection_times": "Mo-Fr 11:30; Sa 10:15", "name": "USPS COLLECTION BOX - PO LOBBY", "nsi_id": "unitedstatespostalservice-a77078", "operator": "United States Postal Service", "operator:short": "USPS", "operator:type": "public", "operator:wikidata": "Q668687", "ref": "6294000004"}, "type": "Feature"}
{"dataset_attributes": {"@spider": "usps_collection_boxes"}, "geometry": {"coordinates": [-89.503341, 37.62838], "type": "Point"}, "id": "Hr8lIC_1DyqlvFzzLeSdmtcj3pA=", "properties": {"@spider": "usps_collection_boxes", "addr:city": "GRAND TOWER", "addr:country": "US", "addr:full": "522 FRONT ST", "addr:postcode": "62942", "addr:state": "IL", "amenity": "post_box", "brand": "United States Postal Service", "brand:wikidata": "Q668687", "collection_times": "Mo-Fr 12:45; Sa 09:30", "name": "USPS COLLECTION BOX - BLUE BOX", "note": "ON 12/24 AND 12/31, THIS BOX MAY BE COLLECTED AS EARLY AS 12 NOON.", "nsi_id": "unitedstatespostalservice-a77078", "operator": "United States Postal Service", "operator:short": "USPS", "operator:type": "public", "operator:wikidata": "Q668687", "ref": "6294200001"}, "type": "Feature"}
{"dataset_attributes": {"@spider": "usps_collection_boxes"}, "geometry": {"coordinates": [-89.503336, 37.628324], "type": "Point"}, "id": "VGhujtloWA1BGCo9Cjkj2g_RPFY=", "properties": {"@spider": "usps_collection_boxes", "addr:city": "GRAND TOWER", "addr:country": "US", "addr:full": "522 FRONT ST", "addr:postcode": "62942", "addr:state": "IL", "amenity": "post_box", "brand": "United States Postal Service", "brand:wikidata": "Q668687", "collection_times": "Mo-Fr 12:45; Sa 09:15", "name": "USPS COLLECTION BOX - PO LOBBY", "note": "ON 12/24 AND 12/31, THIS BOX MAY BE COLLECTED AS EARLY AS 12 NOON.", "nsi_id": "unitedstatespostalservice-a77078", "operator": "United States Postal Service", "operator:short": "USPS", "operator:type": "public", "operator:wikidata": "Q668687", "ref": "6294200002"}, "type": "Feature"}
{"dataset_attributes": {"@spider": "usps_collection_boxes"}, "geometry": {"coordinates": [-89.503313774, 37.628376826], "type": "Point"}, "id": "CwFiP5zR3W2iS-VnxL5tTuJgkkE=", "properties": {"@spider": "usps_collection_boxes", "addr:city": "GRAND TOWER", "addr:country": "US", "addr:full": "522 FRONT ST", "addr:postcode": "62942", "addr:state": "IL", "amenity": "post_box", "brand": "United States Postal Service", "brand:wikidata": "Q668687", "collection_times": "Mo-Fr 12:45; Sa 09:30", "name": "USPS COLLECTION BOX - PO LOBBY", "note": "ON 12/24 AND 12/31, THIS BOX MAY BE COLLECTED AS EARLY AS 12 NOON.", "nsi_id": "unitedstatespostalservice-a77078", "operator": "United States Postal Service", "operator:short": "USPS", "operator:type": "public", "operator:wikidata": "Q668687", "ref": "6294200003"}, "type": "Feature"}
{"dataset_attributes": {"@spider": "usps_collection_boxes"}, "geometry": {"coordinates": [-89.027596, 37.802011], "type": "Point"}, "id": "SDb_f-rH9yXoY4akfFmMQYF9jQk=", "properties": {"@spider": "usps_collection_boxes", "addr:city": "HERRIN", "addr:country": "US", "addr:full": "200 S PARK AVE", "addr:postcode": "62948", "addr:state": "IL", "amenity": "post_box", "brand": "United States Postal Service", "brand:wikidata": "Q668687", "collection_times": "Mo-Sa 14:40", "name": "USPS COLLECTION BOX - BLUE BOX", "note": "ON 12/24 AND 12/31, THIS BOX MAY BE COLLECTED AS EARLY AS 12 NOON.", "nsi_id": "unitedstatespostalservice-a77078", "operator": "United States Postal Service", "operator:short": "USPS", "operator:type": "public", "operator:wikidata": "Q668687", "ref": "6294800002"}, "type": "Feature"}
{"dataset_attributes": {"@spider": "usps_collection_boxes"}, "geometry": {"coordinates": [-89.02763, 37.802102], "type": "Point"}, "id": "L7H_Snt0mhuwBnjRtLM6EE82UCM=", "properties": {"@spider": "usps_collection_boxes", "addr:city": "HERRIN", "addr:country": "US", "addr:full": "200 S PARK AVE", "addr:postcode": "62948", "addr:state": "IL", "amenity": "post_box", "brand": "United States Postal Service", "brand:wikidata": "Q668687", "collection_times": "Mo-Sa 14:40", "name": "USPS COLLECTION BOX - PO LOBBY", "note": "ON 12/24 AND 12/31, THIS BOX MAY BE COLLECTED AS EARLY AS 12 NOON.", "nsi_id": "unitedstatespostalservice-a77078", "operator": "United States Postal Service", "operator:short": "USPS", "operator:type": "public", "operator:wikidata": "Q668687", "ref": "6294800022"}, "type": "Feature"}
{"dataset_attributes": {"@spider": "usps_collection_boxes"}, "geometry": {"coordinates": [-89.027597192, 37.801817665], "type": "Point"}, "id": "MsEdA8EnZ-RPE8i7jjxVYnTyRZ4=", "properties": {"@spider": "usps_collection_boxes", "addr:city": "HERRIN", "addr:country": "US", "addr:full": "200 S PARK AVE", "addr:postcode": "62948", "addr:state": "IL", "amenity": "post_box", "brand": "United States Postal Service", "brand:wikidata": "Q668687", "collection_times": "Mo-Sa 14:30", "name": "USPS COLLECTION BOX - PO LOBBY", "note": "ON 12/24 AND 12/31, THIS BOX MAY BE COLLECTED AS EARLY AS 12 NOON.", "nsi_id": "unitedstatespostalservice-a77078", "operator": "United States Postal Service", "operator:short": "USPS", "operator:type": "public", "operator:wikidata": "Q668687", "ref": "6294800027"}, "type": "Feature"}
{"dataset_attributes": {"@spider": "usps_collection_boxes"}, "geometry": {"coordinates": [-89.144063, 37.832317], "type": "Point"}, "id": "xNofXIu0OQI4B-sgytcx0KC-shs=", "properties": {"@spider": "usps_collection_boxes", "addr:city": "HURST", "addr:country": "US", "addr:full": "212 N BUSH AVE", "addr:postcode": "62949", "addr:state": "IL", "amenity": "post_box", "brand": "United States Postal Service", "brand:wikidata": "Q668687", "collection_times": "Mo-Fr 13:40; Sa 10:15", "name": "USPS COLLECTION BOX - BLUE BOX", "note": "ON 12/24 AND 12/31, THIS BOX MAY BE COLLECTED AS EARLY AS 12 NOON.", "nsi_id": "unitedstatespostalservice-a77078", "operator": "United States Postal Service", "operator:short": "USPS", "operator:type": "public", "operator:wikidata": "Q668687", "ref": "6294900001"}, "type": "Feature"}
{"dataset_attributes": {"@spider": "usps_collection_boxes"}, "geometry": {"coordinates": [-89.144097, 37.832323], "type": "Point"}, "id": "3dio_Y3qUfkGtylMpm1YZaz0nlw=", "properties": {"@spider": "usps_collection_boxes", "addr:city": "HURST", "addr:country": "US", "addr:full": "212 N BUSH AVE", "addr:postcode": "62949", "addr:state": "IL", "amenity": "post_box", "brand": "United States Postal Service", "brand:wikidata": "Q668687", "collection_times": "Mo-Fr 13:40; Sa 10:00", "name": "USPS COLLECTION BOX - PO LOBBY", "note": "ON 12/24 AND 12/31, THIS BOX MAY BE COLLECTED AS EARLY AS 12 NOON.", "nsi_id": "unitedstatespostalservice-a77078", "operator": "United States Postal Service", "operator:short": "USPS", "operator:type": "public", "operator:wikidata": "Q668687", "ref": "6294900002"}, "type": "Feature"}
{"dataset_attributes": {"@spider": "usps_collection_boxes"}, "geometry": {"coordinates": [-89.144065218, 37.832553], "type": "Point"}, "id": "Ogwn85JYYA46iFGkBKOgwI1mlw8=", "properties": {"@spider": "usps_collection_boxes", "addr:city": "HURST", "addr:country": "US", "addr:full": "212 N BUSH AVE", "addr:postcode": "62949", "addr:state": "IL", "amenity": "post_box", "brand": "United States Postal Service", "brand:wikidata": "Q668687", "collection_times": "Mo-Fr 13:45; Sa 10:00", "name": "USPS COLLECTION BOX - PO LOBBY", "note": "ON 12/24 AND 12/31, THIS BOX MAY BE COLLECTED AS EARLY AS 12 NOON.", "nsi_id": "unitedstatespostalservice-a77078", "operator": "United States Postal Service", "operator:short": "USPS", "operator:type": "public", "operator:wikidata": "Q668687", "ref": "6294900004"}, "type": "Feature"}
{"dataset_attributes": {"@spider": "usps_collection_boxes"}, "geometry": {"coordinates": [-88.9332689, 37.818767], "type": "Point"}, "id": "ItY-udyJDToQ-Si2xoY5y9OIieE=", "properties": {"@spider": "usps_collection_boxes", "addr:city": "JOHNSTON CITY", "addr:country": "US", "addr:full": "808 GRAND AVE", "addr:postcode": "62951", "addr:state": "IL", "amenity": "post_box", "brand": "United States Postal Service", "brand:wikidata": "Q668687", "collection_times": "Mo-Fr 10:00; Sa 09:30", "name": "USPS COLLECTION BOX - BLUE BOX", "nsi_id": "unitedstatespostalservice-a77078", "operator": "United States Postal Service", "operator:short": "USPS", "operator:type": "public", "operator:wikidata": "Q668687", "ref": "6295100008"}, "type": "Feature"}
{"dataset_attributes": {"@spider": "usps_collection_boxes"}, "geometry": {"coordinates": [-89.26587, 37.451437], "type": "Point"}, "id": "g8s3o5mWJIiuIOrXv5VHNHOB6e0=", "properties": {"@spider": "usps_collection_boxes", "addr:city": "JONESBORO", "addr:country": "US", "addr:full": "103 W BROAD ST", "addr:postcode": "62952", "addr:state": "IL", "amenity": "post_box", "brand": "United States Postal Service", "brand:wikidata": "Q668687", "collection_times": "Mo-Fr 14:05; Sa 10:15", "name": "USPS COLLECTION BOX - BLUE BOX", "note": "ON 12/24 AND 12/31, THIS BOX MAY BE COLLECTED AS EARLY AS 12 NOON.", "nsi_id": "unitedstatespostalservice-a77078", "operator": "United States Postal Service", "operator:short": "USPS", "operator:type": "public", "operator:wikidata": "Q668687", "ref": "6295200001"}, "type": "Feature"}
{"dataset_attributes": {"@spider": "usps_collection_boxes"}, "geometry": {"coordinates": [-89.265982, 37.451411], "type": "Point"}, "id": "Yda3d4ctoCwwk-0sptgMSLxjAG4=", "properties": {"@spider": "usps_collection_boxes", "addr:city": "JONESBORO", "addr:country": "US", "addr:full": "103 W BROAD ST", "addr:postcode": "62952", "addr:state": "IL", "amenity": "post_box", "brand": "United States Postal Service", "brand:wikidata": "Q668687", "collection_times": "Mo-Fr 14:05; Sa 10:30", "name": "USPS COLLECTION BOX - PO LOBBY", "note": "ON 12/24 AND 12/31, THIS BOX MAY BE COLLECTED AS EARLY AS 12 NOON.", "nsi_id": "unitedstatespostalservice-a77078", "operator": "United States Postal Service", "operator:short": "USPS", "operator:type": "public", "operator:wikidata": "Q668687", "ref": "6295200002"}, "type": "Feature"}
{"dataset_attributes": {"@spider": "usps_collection_boxes"}, "geometry": {"coordinates": [-89.2701913702, 37.451450709], "type": "Point"}, "id": "yTlG87t34DXOKDLiYmhQxKy8cOI=", "properties": {"@spider": "usps_collection_boxes", "addr:city": "JONESBORO", "addr:country": "US", "addr:full": "103 W BROAD ST", "addr:postcode": "62952", "addr:state": "IL", "amenity": "post_box", "brand": "United States Postal Service", "brand:wikidata": "Q668687", "collection_times": "Mo-Fr 14:00; Sa 10:30", "name": "USPS COLLECTION BOX - PO LOBBY", "note": "ON 12/24 AND 12/31, THIS BOX MAY BE COLLECTED AS EARLY AS 12 NOON.", "nsi_id": "unitedstatespostalservice-a77078", "operator": "United States Postal Service", "operator:short": "USPS", "operator:type": "public", "operator:wikidata": "Q668687", "ref": "6295200007"}, "type": "Feature"}
{"dataset_attributes": {"@spider": "usps_collection_boxes"}, "geometry": {"coordinates": [-89.210965, 37.617533], "type": "Point"}, "id": "uYVLkIdqGpS5xam8VNRh6IlGiVA=", "properties": {"@spider": "usps_collection_boxes", "addr:city": "MAKANDA", "addr:country": "US", "addr:full": "709 MAKANDA RD", "addr:postcode": "62958", "addr:state": "IL", "amenity": "post_box", "brand": "United States Postal Service", "brand:wikidata": "Q668687", "collection_times": "Mo-Fr 14:45; Sa 09:45", "name": "USPS COLLECTION BOX - BLUE BOX", "note": "ON 12/24 AND 12/31, THIS BOX MAY BE COLLECTED AS EARLY AS 12 NOON.", "nsi_id": "unitedstatespostalservice-a77078", "operator": "United States Postal Service", "operator:short": "USPS", "operator:type": "public", "operator:wikidata": "Q668687", "ref": "6295800001"}, "type": "Feature"}
{"dataset_attributes": {"@spider": "usps_collection_boxes"}, "geometry": {"coordinates": [-89.210902, 37.617612], "type": "Point"}, "id": "YckYEUJt_xH0xNyNa612a_QfrjQ=", "properties": {"@spider": "usps_collection_boxes", "addr:city": "MAKANDA", "addr:country": "US", "addr:full": "709 MAKANDA RD", "addr:postcode": "62958", "addr:state": "IL", "amenity": "post_box", "brand": "United States Postal Service", "brand:wikidata": "Q668687", "collection_times": "Mo-Fr 14:45; Sa 09:45", "name": "USPS COLLECTION BOX - PO LOBBY", "note": "ON 12/24 AND 12/31, THIS BOX MAY BE COLLECTED AS EARLY AS 12 NOON.", "nsi_id": "unitedstatespostalservice-a77078", "operator": "United States Postal Service", "operator:short": "USPS", "operator:type": "public", "operator:wikidata": "Q668687", "ref": "6295800002"}, "type": "Feature"}
{"dataset_attributes": {"@spider": "usps_collection_boxes"}, "geometry": {"coordinates": [-89.211009402, 37.617420756], "type": "Point"}, "id": "1CE7XLfkVIpwHtE1tINRtdEcvtY=", "properties": {"@spider": "usps_collection_boxes", "addr:city": "MAKANDA", "addr:country": "US", "addr:full": "709 MAKANDA RD", "addr:postcode": "62958", "addr:state": "IL", "amenity": "post_box", "brand": "United States Postal Service", "brand:wikidata": "Q668687", "collection_times": "Mo-Fr 14:45; Sa 09:45", "name": "USPS COLLECTION BOX - PO LOBBY", "note": "ON 12/24 AND 12/31, THIS BOX MAY BE COLLECTED AS EARLY AS 12 NOON.", "nsi_id": "unitedstatespostalservice-a77078", "operator": "United States Postal Service", "operator:short": "USPS", "operator:type": "public", "operator:wikidata": "Q668687", "ref": "6295800003"}, "type": "Feature"}
{"dataset_attributes": {"@spider": "usps_collection_boxes"}, "geometry": {"coordinates": [-88.9406068, 37.740422], "type": "Point"}, "id": "mF4XzsUTsKetByQow7u8DZjmqFI=", "properties": {"@spider": "usps_collection_boxes", "addr:city": "MARION", "addr:country": "US", "addr:full": "1301 ENTERPRISE WAY STE 32", "addr:postcode": "62959", "addr:state": "IL", "amenity": "post_box", "brand": "United States Postal Service", "brand:wikidata": "Q668687", "collection_times": "Mo-Sa 14:40", "name": "USPS COLLECTION BOX - BLUE BOX", "note": "ON 12/24 AND 12/31, THIS BOX MAY BE COLLECTED AS EARLY AS 12 NOON.", "nsi_id": "unitedstatespostalservice-a77078", "operator": "United States Postal Service", "operator:short": "USPS", "operator:type": "public", "operator:wikidata": "Q668687", "ref": "6295900011"}, "type": "Feature"}
{"dataset_attributes": {"@spider": "usps_collection_boxes"}, "geometry": {"coordinates": [-88.9477694, 37.738113], "type": "Point"}, "id": "hSQou4zIY4X-226zCTKoP8KW3Rc=", "properties": {"@spider": "usps_collection_boxes", "addr:city": "MARION", "addr:country": "US", "addr:full": "901 N CARBON ST", "addr:postcode": "62959", "addr:state": "IL", "amenity": "post_box", "brand": "United States Postal Service", "brand:wikidata": "Q668687", "collection_times": "Mo-Sa 14:40", "name": "USPS COLLECTION BOX - BLUE BOX", "note": "ON 12/24 AND 12/31, THIS BOX MAY BE COLLECTED AS EARLY AS 12 NOON.", "nsi_id": "unitedstatespostalservice-a77078", "operator": "United States Postal Service", "operator:short": "USPS", "operator:type": "public", "operator:wikidata": "Q668687", "ref": "6295900027"}, "type": "Feature"}
{"dataset_attributes": {"@spider": "usps_collection_boxes"}, "geometry": {"coordinates": [-88.9477683, 37.73811], "type": "Point"}, "id": "rZiMUxJeejQ9sutnlofmQ4TLGsY=", "properties": {"@spider": "usps_collection_boxes", "addr:city": "MARION", "addr:country": "US", "addr:full": "901 N CARBON ST", "addr:postcode": "62959", "addr:state": "IL", "amenity": "post_box", "brand": "United States Postal Service", "brand:wikidata": "Q668687", "collection_times": "Mo-Sa 14:40", "name": "USPS COLLECTION BOX - BLUE BOX", "note": "ON 12/24 AND 12/31, THIS BOX MAY BE COLLECTED AS EARLY AS 12 NOON.", "nsi_id": "unitedstatespostalservice-a77078", "operator": "United States Postal Service", "operator:short": "USPS", "operator:type": "public", "operator:wikidata": "Q668687", "ref": "6295900036"}, "type": "Feature"}
{"dataset_attributes": {"@spider": "usps_collection_boxes"}, "geometry": {"coordinates": [-88.9477633, 37.738105], "type": "Point"}, "id": "kHu2hDxBQZG4O5QXWknM1c4wa8w=", "properties": {"@spider": "usps_collection_boxes", "addr:city": "MARION", "addr:country": "US", "addr:full": "901 N CARBON ST", "addr:postcode": "62959", "addr:state": "IL", "amenity": "post_box", "brand": "United States Postal Service", "brand:wikidata": "Q668687", "collection_times": "Mo-Sa 14:40", "name": "USPS COLLECTION BOX - BLUE BOX", "note": "ON 12/24 AND 12/31, THIS BOX MAY BE COLLECTED AS EARLY AS 12 NOON.", "nsi_id": "unitedstatespostalservice-a77078", "operator": "United States Postal Service", "operator:short": "USPS", "operator:type": "public", "operator:wikidata": "Q668687", "ref": "6295900037"}, "type": "Feature"}
{"dataset_attributes": {"@spider": "usps_collection_boxes"}, "geometry": {"coordinates": [-88.9429839, 37.730856], "type": "Point"}, "id": "yiggnVBjzqmsVtFg--aTrpORHoU=", "properties": {"@spider": "usps_collection_boxes", "addr:city": "MARION", "addr:country": "US", "addr:full": "1508 W MAIN ST", "addr:postcode": "62959", "addr:state": "IL", "amenity": "post_box", "brand": "United States Postal Service", "brand:wikidata": "Q668687", "collection_times": "Mo-Fr 14:00; Sa 12:00", "name": "USPS COLLECTION BOX - BLUE BOX", "note": "ON 12/24 AND 12/31, THIS BOX MAY BE COLLECTED AS EARLY AS 12 NOON.", "nsi_id": "unitedstatespostalservice-a77078", "operator": "United States Postal Service", "operator:short": "USPS", "operator:type": "public", "operator:wikidata": "Q668687", "ref": "6295900043"}, "type": "Feature"}
{"dataset_attributes": {"@spider": "usps_collection_boxes"}, "geometry": {"coordinates": [-88.9785473, 37.746774], "type": "Point"}, "id": "eTXEQvCQO5v15CfHPJIA4tFPWPI=", "properties": {"@spider": "usps_collection_boxes", "addr:city": "MARION", "addr:country": "US", "addr:full": "3000 W DEYOUNG ST STE 800B", "addr:postcode": "62959", "addr:state": "IL", "amenity": "post_box", "brand": "United States Postal Service", "brand:wikidata": "Q668687", "collection_times": "Mo-Sa 14:40", "name": "USPS COLLECTION BOX - BLUE BOX", "note": "ON 12/24 AND 12/31, THIS BOX MAY BE COLLECTED AS EARLY AS 12 NOON.", "nsi_id": "unitedstatespostalservice-a77078", "operator": "United States Postal Service", "operator:short": "USPS", "operator:type": "public", "operator:wikidata": "Q668687", "ref": "6295900044"}, "type": "Feature"}
{"dataset_attributes": {"@spider": "usps_collection_boxes"}, "geometry": {"coordinates": [-88.939993, 37.740481], "type": "Point"}, "id": "RbFAYvksX1FiJa6JPOkXjlkDDcw=", "properties": {"@spider": "usps_collection_boxes", "addr:city": "MARION", "addr:country": "US", "addr:full": "1301 ENTERPRISE WAY STE 32", "addr:postcode": "62959", "addr:state": "IL", "amenity": "post_box", "brand": "United States Postal Service", "brand:wikidata": "Q668687", "collection_times": "Mo-Fr 14:40", "name": "USPS COLLECTION BOX - PO LOBBY", "note": "ON 12/24 AND 12/31, THIS BOX MAY BE COLLECTED AS EARLY AS 12 NOON.", "nsi_id": "unitedstatespostalservice-a77078", "operator": "United States Postal Service", "operator:short": "USPS", "operator:type": "public", "operator:wikidata": "Q668687", "ref": "6295900046"}, "type": "Feature"}
{"dataset_attributes": {"@spider": "usps_collection_boxes"}, "geometry": {"coordinates": [-89.335341, 37.765746], "type": "Point"}, "id": "cpUntDHjehFQgtZI1Q8Iij01j5s=", "properties": {"@spider": "usps_collection_boxes", "addr:city": "MURPHYSBORO", "addr:country": "US", "addr:full": "203 N 11TH ST", "addr:postcode": "62966", "addr:state": "IL", "amenity": "post_box", "brand": "United States Postal Service", "brand:wikidata": "Q668687", "collection_times": "Mo-Sa 14:50", "name": "USPS COLLECTION BOX - BLUE BOX", "note": "ON 12/24 AND 12/31, THIS BOX MAY BE COLLECTED AS EARLY AS 12 NOON.", "nsi_id": "unitedstatespostalservice-a77078", "operator": "United States Postal Service", "operator:short": "USPS", "operator:type": "public", "operator:wikidata": "Q668687", "ref": "6296600001"}, "type": "Feature"}
{"dataset_attributes": {"@spider": "usps_collection_boxes"}, "geometry": {"coordinates": [-89.3352705, 37.763099], "type": "Point"}, "id": "PDK40hMBnyB4eaq9WmeOFuq4DOU=", "properties": {"@spider": "usps_collection_boxes", "addr:city": "MURPHYSBORO", "addr:country": "US", "addr:full": "1001 MULBERRY ST", "addr:postcode": "62966", "addr:state": "IL", "amenity": "post_box", "brand": "United States Postal Service", "brand:wikidata": "Q668687", "collection_times": "Mo-Sa 10:00", "name": "USPS COLLECTION BOX - BLUE BOX", "nsi_id": "unitedstatespostalservice-a77078", "operator": "United States Postal Service", "operator:short": "USPS", "operator:type": "public", "operator:wikidata": "Q668687", "ref": "6296600002"}, "type": "Feature"}
{"dataset_attributes": {"@spider": "usps_collection_boxes"}, "geometry": {"coordinates": [-89.3353858, 37.763914], "type": "Point"}, "id": "vFBK0oHPK9d6pulZ_fUSijodVmI=", "properties": {"@spider": "usps_collection_boxes", "addr:city": "MURPHYSBORO", "addr:country": "US", "addr:full": "1001 WALNUT ST", "addr:postcode": "62966", "addr:state": "IL", "amenity": "post_box", "brand": "United States Postal Service", "brand:wikidata": "Q668687", "collection_times": "Mo-Sa 10:00", "name": "USPS COLLECTION BOX - BLUE BOX", "nsi_id": "unitedstatespostalservice-a77078", "operator": "United States Postal Service", "operator:short": "USPS", "operator:type": "public", "operator:wikidata": "Q668687", "ref": "6296600003"}, "type": "Feature"}
{"dataset_attributes": {"@spider": "usps_collection_boxes"}, "geometry": {"coordinates": [-89.3249749, 37.788054], "type": "Point"}, "id": "4LieIMiZ5e0mkT5KmEqmMP2U-PM=", "properties": {"@spider": "usps_collection_boxes", "addr:city": "MURPHYSBORO", "addr:country": "US", "addr:full": "550 E INDUSTRIAL PARK RD", "addr:postcode": "62966", "addr:state": "IL", "amenity": "post_box", "brand": "United States Postal Service", "brand:wikidata": "Q668687", "collection_times": "Mo-Sa 10:00", "name": "USPS COLLECTION BOX - BLUE BOX", "nsi_id": "unitedstatespostalservice-a77078", "operator": "United States Postal Service", "operator:short": "USPS", "operator:type": "public", "operator:wikidata": "Q668687", "ref": "6296600013"}, "type": "Feature"}
{"dataset_attributes": {"@spider": "usps_collection_boxes"}, "geometry": {"coordinates": [-89.335307, 37.765748], "type": "Point"}, "id": "Uqf71MXhu8lgqnF16gzGN0LEhB4=", "properties": {"@spider": "usps_collection_boxes", "addr:city": "MURPHYSBORO", "addr:country": "US", "addr:full": "203 N 11TH ST", "addr:postcode": "62966", "addr:state": "IL", "amenity": "post_box", "brand": "United States Postal Service", "brand:wikidata": "Q668687", "collection_times": "Mo-Sa 14:50", "name": "USPS COLLECTION BOX - BLUE BOX", "note": "ON 12/24 AND 12/31, THIS BOX MAY BE COLLECTED AS EARLY AS 12 NOON.", "nsi_id": "unitedstatespostalservice-a77078", "operator": "United States Postal Service", "operator:short": "USPS", "operator:type": "public", "operator:wikidata": "Q668687", "ref": "6296600039"}, "type": "Feature"}
{"dataset_attributes": {"@spider": "usps_collection_boxes"}, "geometry": {"coordinates": [-89.3353899, 37.76391], "type": "Point"}, "id": "6hSuwcdVD1rhTIMZji3_DwdKRSE=", "properties": {"@spider": "usps_collection_boxes", "addr:city": "MURPHYSBORO", "addr:country": "US", "addr:full": "1001 WALNUT ST", "addr:postcode": "62966", "addr:state": "IL", "amenity": "post_box", "brand": "United States Postal Service", "brand:wikidata": "Q668687", "collection_times": "Mo-Sa 10:00", "name": "USPS COLLECTION BOX - BLUE BOX", "nsi_id": "unitedstatespostalservice-a77078", "operator": "United States Postal Service", "operator:short": "USPS", "operator:type": "public", "operator:wikidata": "Q668687", "ref": "6296600042"}, "type": "Feature"}
{"dataset_attributes": {"@spider": "usps_collection_boxes"}, "geometry": {"coordinates": [-89.335307, 37.765748], "type": "Point"}, "id": "GqLjdhKCFUoTUXfmFm4aWmPm-NY=", "properties": {"@spider": "usps_collection_boxes", "addr:city": "MURPHYSBORO", "addr:country": "US", "addr:full": "203 N 11TH ST", "addr:postcode": "62966", "addr:state": "IL", "amenity": "post_box", "brand": "United States Postal Service", "brand:wikidata": "Q668687", "collection_times": "Mo-Sa 14:50", "name": "USPS COLLECTION BOX - BLUE BOX", "note": "ON 12/24 AND 12/31, THIS BOX MAY BE COLLECTED AS EARLY AS 12 NOON.", "nsi_id": "unitedstatespostalservice-a77078", "operator": "United States Postal Service", "operator:short": "USPS", "operator:type": "public", "operator:wikidata": "Q668687", "ref": "6296600043"}, "type": "Feature"}
{"dataset_attributes": {"@spider": "usps_collection_boxes"}, "geometry": {"coordinates": [-89.335307, 37.765748], "type": "Point"}, "id": "RGsxyYkdv0aGR4rJADR06e-tp0E=", "properties": {"@spider": "usps_collection_boxes", "addr:city": "MURPHYSBORO", "addr:country": "US", "addr:full": "203 N 11TH ST", "addr:postcode": "62966", "addr:state": "IL", "amenity": "post_box", "brand": "United States Postal Service", "brand:wikidata": "Q668687", "collection_times": "Mo-Sa 14:50", "name": "USPS COLLECTION BOX - PO LOBBY", "note": "ON 12/24 AND 12/31, THIS BOX MAY BE COLLECTED AS EARLY AS 12 NOON.", "nsi_id": "unitedstatespostalservice-a77078", "operator": "United States Postal Service", "operator:short": "USPS", "operator:type": "public", "operator:wikidata": "Q668687", "ref": "6296600045"}, "type": "Feature"}
{"dataset_attributes": {"@spider": "usps_collection_boxes"}, "geometry": {"coordinates": [-89.335307, 37.765748], "type": "Point"}, "id": "ZUXNqrJ-ECWajUBI3TEQ03c-F-c=", "properties": {"@spider": "usps_collection_boxes", "addr:city": "MURPHYSBORO", "addr:country": "US", "addr:full": "203 N 11TH ST", "addr:postcode": "62966", "addr:state": "IL", "amenity": "post_box", "brand": "United States Postal Service", "brand:wikidata": "Q668687", "collection_times": "Mo-Sa 14:50", "name": "USPS COLLECTION BOX - PO LOBBY", "note": "ON 12/24 AND 12/31, THIS BOX MAY BE COLLECTED AS EARLY AS 12 NOON.", "nsi_id": "unitedstatespostalservice-a77078", "operator": "United States Postal Service", "operator:short": "USPS", "operator:type": "public", "operator:wikidata": "Q668687", "ref": "6296600046"}, "type": "Feature"}
{"dataset_attributes": {"@spider": "usps_collection_boxes"}, "geometry": {"coordinates": [-89.335366901, 37.765739055], "type": "Point"}, "id": "N_P1sTMCVcCuUoXRrcEu0H10FRI=", "properties": {"@spider": "usps_collection_boxes", "addr:city": "MURPHYSBORO", "addr:country": "US", "addr:full": "203 N 11TH ST", "addr:postcode": "62966", "addr:state": "IL", "amenity": "post_box", "brand": "United States Postal Service", "brand:wikidata": "Q668687", "collection_times": "Mo-Sa 14:45", "name": "USPS COLLECTION BOX - PO LOBBY", "note": "ON 12/24 AND 12/31, THIS BOX MAY BE COLLECTED AS EARLY AS 12 NOON.", "nsi_id": "unitedstatespostalservice-a77078", "operator": "United States Postal Service", "operator:short": "USPS", "operator:type": "public", "operator:wikidata": "Q668687", "ref": "6296600053"}, "type": "Feature"}
{"dataset_attributes": {"@spider": "usps_collection_boxes"}, "geometry": {"coordinates": [-89.341685, 37.901846], "type": "Point"}, "id": "q9BBYY5S3i8uX62KSby6gFRMGOE=", "properties": {"@spider": "usps_collection_boxes", "addr:city": "VERGENNES", "addr:country": "US", "addr:full": "725 HACK AVE", "addr:postcode": "62994", "addr:state": "IL", "amenity": "post_box", "brand": "United States Postal Service", "brand:wikidata": "Q668687", "collection_times": "Mo-Fr 11:45; Sa 09:30", "name": "USPS COLLECTION BOX - BLUE BOX", "nsi_id": "unitedstatespostalservice-a77078", "operator": "United States Postal Service", "operator:short": "USPS", "operator:type": "public", "operator:wikidata": "Q668687", "ref": "6299400001"}, "type": "Feature"}
{"dataset_attributes": {"@spider": "usps_collection_boxes"}, "geometry": {"coordinates": [-89.341651, 37.901891], "type": "Point"}, "id": "_ovOhORYay8z4u3V_y0f_pJNNX8=", "properties": {"@spider": "usps_collection_boxes", "addr:city": "VERGENNES", "addr:country": "US", "addr:full": "725 HACK AVE", "addr:postcode": "62994", "addr:state": "IL", "amenity": "post_box", "brand": "United States Postal Service", "brand:wikidata": "Q668687", "collection_times": "Mo-Fr 11:45; Sa 09:30", "name": "USPS COLLECTION BOX - PO LOBBY", "nsi_id": "unitedstatespostalservice-a77078", "operator": "United States Postal Service", "operator:short": "USPS", "operator:type": "public", "operator:wikidata": "Q668687", "ref": "6299400002"}, "type": "Feature"}
{"dataset_attributes": {"@spider": "usps_collection_boxes"}, "geometry": {"coordinates": [-89.341659424, 37.901807885], "type": "Point"}, "id": "TiAXSlwmmf0wrL0ZePwOuPLHvlw=", "properties": {"@spider": "usps_collection_boxes", "addr:city": "VERGENNES", "addr:country": "US", "addr:full": "725 HACK AVE", "addr:postcode": "62994", "addr:state": "IL", "amenity": "post_box", "brand": "United States Postal Service", "brand:wikidata": "Q668687", "collection_times": "Mo-Fr 11:45; Sa 09:30", "name": "USPS COLLECTION BOX - PO LOBBY", "nsi_id": "unitedstatespostalservice-a77078", "operator": "United States Postal Service", "operator:short": "USPS", "operator:type": "public", "operator:wikidata": "Q668687", "ref": "6299400003"}, "type": "Feature"}
{"dataset_attributes": {"@spider": "usps_collection_boxes"}, "geometry": {"coordinates": [-89.586939, 37.969762], "type": "Point"}, "id": "3RK43t8f5gWDODrm5JPjTKFl2UU=", "properties": {"@spider": "usps_collection_boxes", "addr:city": "WILLISVILLE", "addr:country": "US", "addr:full": "808 BROADWAY ST", "addr:postcode": "62997", "addr:state": "IL", "amenity": "post_box", "brand": "United States Postal Service", "brand:wikidata": "Q668687", "collection_times": "Mo-Fr 13:30; Sa 09:30", "name": "USPS COLLECTION BOX - BLUE BOX", "note": "ON 12/24 AND 12/31, THIS BOX MAY BE COLLECTED AS EARLY AS 12 NOON.", "nsi_id": "unitedstatespostalservice-a77078", "operator": "United States Postal Service", "operator:short": "USPS", "operator:type": "public", "operator:wikidata": "Q668687", "ref": "6299700001"}, "type": "Feature"}
{"dataset_attributes": {"@spider": "usps_collection_boxes"}, "geometry": {"coordinates": [-89.586939, 37.969762], "type": "Point"}, "id": "uxR6BMhJTTrbOLhAvsIaNLG765k=", "properties": {"@spider": "usps_collection_boxes", "addr:city": "WILLISVILLE", "addr:country": "US", "addr:full": "808 BROADWAY ST", "addr:postcode": "62997", "addr:state": "IL", "amenity": "post_box", "brand": "United States Postal Service", "brand:wikidata": "Q668687", "collection_times": "Mo-Fr 13:30; Sa 09:30", "name": "USPS COLLECTION BOX - PO LOBBY", "note": "ON 12/24 AND 12/31, THIS BOX MAY BE COLLECTED AS EARLY AS 12 NOON.", "nsi_id": "unitedstatespostalservice-a77078", "operator": "United States Postal Service", "operator:short": "USPS", "operator:type": "public", "operator:wikidata": "Q668687", "ref": "6299700002"}, "type": "Feature"}
{"dataset_attributes": {"@spider": "usps_collection_boxes"}, "geometry": {"coordinates": [-89.586939, 37.969762], "type": "Point"}, "id": "ynx0Z44-xO7qa3MTwLzsfQEtO-Q=", "properties": {"@spider": "usps_collection_boxes", "addr:city": "WILLISVILLE", "addr:country": "US", "addr:full": "808 BROADWAY ST", "addr:postcode": "62997", "addr:state": "IL", "amenity": "post_box", "brand": "United States Postal Service", "brand:wikidata": "Q668687", "collection_times": "Mo-Fr 13:30; Sa 09:30", "name": "USPS COLLECTION BOX - PO LOBBY", "note": "ON 12/24 AND 12/31, THIS BOX MAY BE COLLECTED AS EARLY AS 12 NOON.", "nsi_id": "unitedstatespostalservice-a77078", "operator": "United States Postal Service", "operator:short": "USPS", "operator:type": "public", "operator:wikidata": "Q668687", "ref": "6299700003"}, "type": "Feature"}
{"dataset_attributes": {"@spider": "usps_collection_boxes"}, "geometry": {"coordinates": [-89.589768143, 37.983974121], "type": "Point"}, "id": "Pas6dXMpudUQwU4u0fG_cR1UhrM=", "properties": {"@spider": "usps_collection_boxes", "addr:city": "WILLISVILLE", "addr:country": "US", "addr:full": "808 BROADWAY ST", "addr:postcode": "62997", "addr:state": "IL", "amenity": "post_box", "brand": "United States Postal Service", "brand:wikidata": "Q668687", "collection_times": "Mo-Fr 13:30; Sa 09:30", "name": "USPS COLLECTION BOX - PO LOBBY", "note": "ON 12/24 AND 12/31, THIS BOX MAY BE COLLECTED AS EARLY AS 12 NOON.", "nsi_id": "unitedstatespostalservice-a77078", "operator": "United States Postal Service", "operator:short": "USPS", "operator:type": "public", "operator:wikidata": "Q668687", "ref": "6299700004"}, "type": "Feature"}
{"dataset_attributes": {"@spider": "usps_collection_boxes"}, "geometry": {"coordinates": [-89.437081, 37.503876], "type": "Point"}, "id": "eGOZh8VXqaPIMIRoSMV_h2kBgMk=", "properties": {"@spider": "usps_collection_boxes", "addr:city": "WOLF LAKE", "addr:country": "US", "addr:full": "4675 N STATE ROUTE 3", "addr:postcode": "62998", "addr:state": "IL", "amenity": "post_box", "brand": "United States Postal Service", "brand:wikidata": "Q668687", "collection_times": "Mo-Fr 11:45; Sa 09:30", "name": "USPS COLLECTION BOX - PO LOBBY", "nsi_id": "unitedstatespostalservice-a77078", "operator": "United States Postal Service", "operator:short": "USPS", "operator:type": "public", "operator:wikidata": "Q668687", "ref": "6299800001"}, "type": "Feature"}
{"dataset_attributes": {"@spider": "usps_collection_boxes"}, "geometry": {"coordinates": [-89.437048, 37.503886], "type": "Point"}, "id": "p3nrVgFIt1bdH2E38u40bj-BP-A=", "properties": {"@spider": "usps_collection_boxes", "addr:city": "WOLF LAKE", "addr:country": "US", "addr:full": "4675 N STATE ROUTE 3", "addr:postcode": "62998", "addr:state": "IL", "amenity": "post_box", "brand": "United States Postal Service", "brand:wikidata": "Q668687", "collection_times": "Mo-Fr 11:45; Sa 09:30", "name": "USPS COLLECTION BOX - BLUE BOX", "nsi_id": "unitedstatespostalservice-a77078", "operator": "United States Postal Service", "operator:short": "USPS", "operator:type": "public", "operator:wikidata": "Q668687", "ref": "6299800002"}, "type": "Feature"}
{"dataset_attributes": {"@spider": "usps_collection_boxes"}, "geometry": {"coordinates": [-89.437098641, 37.503833548], "type": "Point"}, "id": "YeiFLHSBmRK1wtLYZ1OiIRkBu5s=", "properties": {"@spider": "usps_collection_boxes", "addr:city": "WOLF LAKE", "addr:country": "US", "addr:full": "4675 N STATE ROUTE 3", "addr:postcode": "62998", "addr:state": "IL", "amenity": "post_box", "brand": "United States Postal Service", "brand:wikidata": "Q668687", "collection_times": "Mo-Fr 11:45; Sa 09:30", "name": "USPS COLLECTION BOX - PO LOBBY", "nsi_id": "unitedstatespostalservice-a77078", "operator": "United States Postal Service", "operator:short": "USPS", "operator:type": "public", "operator:wikidata": "Q668687", "ref": "6299800003"}, "type": "Feature"}
{"dataset_attributes": {"@spider": "usps_collection_boxes"}, "geometry": {"coordinates": [-89.052516, 37.899693], "type": "Point"}, "id": "pXc12hwUtq1MaFwycgRF4DMglkU=", "properties": {"@spider": "usps_collection_boxes", "addr:city": "ZEIGLER", "addr:country": "US", "addr:full": "2 CIRCLE ST", "addr:postcode": "62999", "addr:state": "IL", "amenity": "post_box", "brand": "United States Postal Service", "brand:wikidata": "Q668687", "collection_times": "Mo-Fr 14:00; Sa 11:00", "name": "USPS COLLECTION BOX - BLUE BOX", "note": "ON 12/24 AND 12/31, THIS BOX MAY BE COLLECTED AS EARLY AS 12 NOON.", "nsi_id": "unitedstatespostalservice-a77078", "operator": "United States Postal Service", "operator:short": "USPS", "operator:type": "public", "operator:wikidata": "Q668687", "ref": "6299900001"}, "type": "Feature"}
{"dataset_attributes": {"@spider": "usps_collection_boxes"}, "geometry": {"coordinates": [-89.052541, 37.899712], "type": "Point"}, "id": "RP1ORNDtlHZ00OtB1Y3Pe02-sow=", "properties": {"@spider": "usps_collection_boxes", "addr:city": "ZEIGLER", "addr:country": "US", "addr:full": "2 CIRCLE ST", "addr:postcode": "62999", "addr:state": "IL", "amenity": "post_box", "brand": "United States Postal Service", "brand:wikidata": "Q668687", "collection_times": "Mo-Fr 14:00; Sa 11:00", "name": "USPS COLLECTION BOX - PO LOBBY", "note": "ON 12/24 AND 12/31, THIS BOX MAY BE COLLECTED AS EARLY AS 12 NOON.", "nsi_id": "unitedstatespostalservice-a77078", "operator": "United States Postal Service", "operator:short": "USPS", "operator:type": "public", "operator:wikidata": "Q668687", "ref": "6299900009"}, "type": "Feature"}
{"dataset_attributes": {"@spider": "usps_collection_boxes"}, "geometry": {"coordinates": [-89.052505134, 37.899648448], "type": "Point"}, "id": "5e7iGcqW0PZqTPK7QwIg27MobFE=", "properties": {"@spider": "usps_collection_boxes", "addr:city": "ZEIGLER", "addr:country": "US", "addr:full": "2 CIRCLE ST", "addr:postcode": "62999", "addr:state": "IL", "amenity": "post_box", "brand": "United States Postal Service", "brand:wikidata": "Q668687", "collection_times": "Mo-Fr 14:00; Sa 11:00", "name": "USPS COLLECTION BOX - PO LOBBY", "note": "ON 12/24 AND 12/31, THIS BOX MAY BE COLLECTED AS EARLY AS 12 NOON.", "nsi_id": "unitedstatespostalservice-a77078", "operator": "United States Postal Service", "operator:short": "USPS", "operator:type": "public", "operator:wikidata": "Q668687", "ref": "6299900012"}, "type": "Feature"}
